0217670730999992000010103004-18050+044030FM-12+0023FMMO V0209999C00001045001CN0300001N1+02381+02321100841ADDAA106000091GA1011+006009089GA2031+012009069GF106991031081008001031001MA1999999100581MD1310051+9999REMSYN088AAXX  01034 67073 32580 60000 10238 20232 30058 40084 53005 83830 333 81820 83640 83360;EQDQ01  00002PRCP06
0285670730999992000010106004-18050+044030FM-12+0023FMMO V0209999C00001045001CN0400001N1+02681+02391100971ADDAA106000091GA1011+006009089GA2031+012009069GF106991031081008001031001IA2240+02309KA1120M+03301KA2120N+02381MA1999999100711MD1110131+9999REMSYN118AAXX  01064 67073 32582 60000 10268 20239 30071 40097 51013 83830 333 02300 10330 20238 5///4 55/// 81820 83640 83360;EQDQ01  00002PRCP06
0189670730999992000010109004-18050+044030FM-12+0023FMMO V0202801N004112200019N0400001N1+03101+02321100801ADDAA106000091GA1021+006909029GF103991021021008001001021MA1999999100541MD1810171+9999REMSYN076AAXX  01094 67073 32582 32808 10310 20232 30054 40080 58017 82202 333 82823;EQDQ01  00002PRCP06
0239670730999992000010112004-18050+044030FM-12+0023FMMO V0203201N005112200019N0400001N1+03071+02551100761ADDAA106000091GA1011+006009099GA2031+006009089GF103991031091008001001021MA1999999100501MD1610041+9999REMSYN110AAXX  01124 67073 32582 33210 10307 20255 30050 40076 56004 83902 333 0//00 83820 81920 94991 95811 555 81073;EQDQ01  00002PRCP06
0270670730999992000010115004-18050+044030FM-12+0023FMMO V0202801N004112200019N0250001N1+03041+02591100791ADDAA106000091AY191031AY201031GA1011+006009099GA2031+006009089GF103991031091008001001001KA1120M+03181MA1999999100531MD1310031+9999MW1171REMSYN106AAXX  01154 67073 31575 32808 10304 20259 30053 40079 53003 71790 83900 333 10318 83820 81920 94992 95832;EQDQ01  00002PRCP06
0201670730999992000010200004-18050+044030FM-12+0023FMMO V02099999999999999999N0250001N1+02631+02491100821ADDAA106000091GA1021+030009039GF106991021001999999031061MA1999999100561MD1610071+9999REMSYN088AAXX  02004 67073 33975 6//// 10263 20249 30056 40082 56007 82036 333 0//00 82360 85273;EQDQ01  00002PRCP06
0221670730999992000010203004-18050+044030FM-12+0023FMMO V0200601N001510690019N0350001N1+02601+02421100861ADDAA106000091GA1011+009909069GA2051+069009029GF105991011051012501031081MA1999999100601MD1310041+9999REMSYN092AAXX  02034 67073 32681 50603 10260 20242 30060 40086 53004 81538 333 81633 85273 555 81360;EQDQ01  00002PRCP06
0273670730999992000010206004-18050+044030FM-12+0023FMMO V0200601N002612200019N0400001N1+03121+02391101001ADDAA106000091GA1021+030009039GF103991011011008001031021IA2240+02509KA1120M+03181KA2120N+02581MA1999999100741MD1110141+9999REMSYN122AAXX  02064 67073 32582 30605 10312 20239 30074 40100 51014 81132 333 02500 10318 20258 50//4 55/// 81823 555 82360 82073;EQDQ01  00002PRCP06
0223670730999992000010209004-18050+044030FM-12+0023FMMO V0202601N002110450019N0400001N1+03341+02281100871ADDAA106000091GA1011+030009039GF105991041091008001031031MA1999999100611MD1810131+9999REMSYN110AAXX  02094 67073 32582 52604 10334 20228 30061 40087 58013 84933 333 84823 81923 94965 95835 555 81360 83073;EQDQ01  00002PRCP06
0229670730999992000010212004-18050+044030FM-12+0023FMMO V0202801N004611050019N0400001N1+03201+02481100711ADDAA106000091GA1011+006909099GA2031+006909089GF105991031091008001001021MA1999999100451MD1710161+9999REMSYN100AAXX  02124 67073 32582 52809 10320 20248 30045 40071 57016 83902 333 0//00 83823 81923 94967 95817;EQDQ01  00002PRCP06
0254670730999992000010215004-18050+044030FM-12+0023FMMO V0202601N002612200019N0400001N1+03051+02501100831ADDAA106000091GA1011+006909099GA2031+069009009GF104991021091008001041031KA1120M+03411MA1999999100571MD1310121+9999REMSYN112AAXX  02154 67073 32582 42605 10305 20250 30057 40083 53012 82943 333 10341 81923 83073 94942 94943 95812 95813;EQDQ01  00002PRCP06
0289670730999992000010303004-18050+044030FM-12+0023FMMO V0201401N00211007501CN0200001N1+02601+02401101181ADDAA106000091AY191031AY211031GA1041+004509099GA2011+006009099GA3031+006009089GA4051+009009069GF107991071091008001999999MA1999999100921MD1310101+9999MW1171REMSYN106AAXX  03034 67073 31570 71404 10260 20240 30092 40118 53010 71791 879// 333 83820 81920 85630 84994 95834;EQDQ01  00002PRCP06
0324670730999992000010306004-18050+044030FM-12+0023FMMO V0201601N002610060019N0300001N1+02701+02531101261ADDAA124003091AC12C9AY191061AY221061GA1011+006009099GA2041+006009089GF106991051091008001031001IA2240+02409KA1120M+03411KA2120N+02421MA1999999101001MD1310081+9999MW1011REMSYN148AAXX  03064 67073 11580 61605 10270 20253 30100 40126 53008 60034 70192 85930 333 02412 10341 20242 50//4 55/// 84820 81920 94992 94994 95812 95814;
0245670730999992000010309004-18050+044030FM-12+0023FMMO V0200201N003110090019N0400001N1+03121+02351100961ADDAA106000091GA1011+006009099GA2031+006009089GA3051+009009069GF107991071091008001999999MA1999999100701MD1710301+9999REMSYN100AAXX  03094 67073 32582 70206 10312 20235 30070 40096 57030 879// 333 83820 81920 85630 94997 95817;EQDQ01  00002PRCP06
0205670730999992000010312004-18050+044030FM-12+0023FMMO V0202201N005110450019N0400001N1+03041+02571100891ADDAA106000091GA1041+006909089GF105991041021008001031001MA1999999100631MD1610071+9999REMSYN092AAXX  03124 67073 32582 52210 10304 20257 30063 40089 56007 84230 333 0//00 84823 555 82360;EQDQ01  00002PRCP06
0252670730999992000010315004-18050+044030FM-12+0023FMMO V0202201N003112200019N0350001N1+03061+02471100851ADDAA106000091GA1011+006009099GA2031+006009089GF103991031091008001031001KA1120M+03281MA1999999100591MD1510041+9999REMSYN110AAXX  03154 67073 32581 32206 10306 20247 30059 40085 55004 83930 333 10328 83820 81920 94998 95838 555 81360;EQDQ01  00002PRCP06
0268670730999992000010403004-18050+044030FM-12+0023FMMO V0201601N00151007501CN0060001N1+02741+02601100841ADDAA112000691AY191031AY291031GA1011+030009049GF108991051091008001071031MA1999999100581MD1310021+9999MW1951REMSYN152AAXX  04034 67073 21556 81603 10274 20260 30058 40084 53002 79599 85973 333 69962 83820 82920 85630 94973 94974 94997 95813 95814 95817 555 81460 81073;
0318670730999992000010406004-18050+044030FM-12+0023FMMO V0201001N00211045001CN0200001N1+02551+02501100921ADDAA124018091AC12I9AY191061AY291061GA1011+012009069GF106991041081008001071061IA2240+02309KA1120M+03281KA2120N+02351MA1999999100661MD1010081+9999MW1291REMSYN158AAXX  04064 67073 11570 61004 10255 20250 30066 40092 50008 60184 72999 84876 333 02356 10328 20235 50//4 55/// 84820 82920 85460 94979 95819 555 81640 82273;
0216670730999992000010409004-18050+044030FM-12+0023FMMO V0203601N00151007501CN0350001N1+03041+02441100861ADDAA106000021GA1021+030009039GF106991051091008001031031MA1999999100601MD1710061+9999REMSYN122AAXX  04094 67073 32581 63603 10304 20244 30060 40086 57006 85933 333 85823 81923 94966 94967 95816 95817 555 82360 81073;
0250670730999992000010709004-18050+044030FM-12+0023FMMO V0200601N003610450019N0200001N1+02601+02491100831ADDAA106004091AY191031AY221031GA1011+006009099GA2041+006009089GF105991041091008001071001MA1999999100501MD1010011+9999MW1291REMSYN118AAXX  07094 67073 21570 50607 10260 20249 3005/ 40083 50001 72992 84970 333 60041 84820 81920 94992 94997 95832 95817;
0303670730999992000010715004-18050+044030FM-12+0023FMMO V0203601N00311009001CN0080001N1+02581+02521100611ADDAA106004091AY121031AY221031GA1011+006009099GA2041+006009089GA3051+009009069GF108991081091008001999999KA1120M+03011MA1999999100351MD1310031+9999MW1611REMSYN142AAXX  07154 67073 21558 83606 10258 20252 30035 40061 53003 76122 889// 333 10301 60041 84820 81920 85630 94991 94992 94993 9583/ 95832 95833;
0235670730999992000010809004-18050+044030FM-12+0023FMMO V0200201N006212200019N0400001N1+03001+02401100641ADDAA106000091GA1011+006909099GA2041+006909089GF104991041091008001001001MA1999999080381MD1810081+9999REMSYN106AAXX  08094 67073 32582 40212 10300 20240 38038 40064 58008 84900 333 84823 81923 94996 94997 95816 95817;EQDQ01  00002PRCP06
0280670730999992000010815004-18050+044030FM-12+0023FMMO V0200201N00411009901CN0350001N1+02821+02451100551ADDAA106000091GA1011+006009099GA2041+006009089GA3031+009909069GF107991061091008001001031KA1120M+03161MA1999999100292MD1310081+9999REMSYN106AAXX  08154 67073 32581 70208 10282 20245 30029 40055 53008 86903 333 10316 84820 81920 83633 94994 95814;EQDQ01+100293APOSP Q02  00002PRCP06
0273670730999992000010909004-18050+044030FM-12+0023FMMO V0203601N006210300019N0250001N1+02801+02431100741ADDAA106000091AY121031AY221031GA1011+006009099GA2041+006009089GA3061+030009049GF108991041091008001071081MA1999999100481MD1810011+9999MW1171REMSYN106AAXX  09094 67073 31575 83612 10280 20243 30048 40074 58001 71722 84978 333 84820 81920 86460 94966 95815;EQDQ01  00002PRCP06
0282670730999992000011003004-18050+044030FM-12+0023FMMO V0203601N006210300019N0200001N1+02501+99999100621ADDAA112000291AY191031AY261031GA1011+006009099GA2021+006009089GA3081+030009049GF108991021091008001071999MA1999999100361MD1310021+9999MW1171REMSYN134AAXX  10034 67073 21570 83612 10250 202/8 30036 40062 53002 71796 8297/ 333 69922 82820 81920 88460 94965 94966 95835 95836 555 81630;
0301670730999992000011015004-18050+044030FM-12+0023FMMO V02099999999990060019N0020001N1+02561+02361100561ADDAA106000791AY191031AY221031GA1021+001509079GA2011+006009099GA3031+006009089GA4061+009009069GF106991061091002501071999KA1120M+02781MA1999999100301MD1510011+9999MW1621REMSYN124AAXX  10154 67073 21320 612// 10256 20236 30030 40056 55001 76292 8697/ 333 10278 69971 82705 83820 81920 86630 94964 95814;
0272670730999992000011100004-18050+044030FM-12+0023FMMO V02099999999990300019N0020001N1+02471+02411100471ADDAA106016091AC11C9AY191061AY291061GA1011+005109099GA2041+005109089GA3061+030009049GF108991041091004501071999MA1999999100211MD1610101+9999MW1951REMSYN118AAXX  11004 67073 11420 8//// 10247 20241 30021 40047 56010 60161 79599 8497/ 333 0//11 84817 81917 86460 94994 95834;
0282670730999992000011103004-18050+044030FM-12+0023FMMO V0200201N004110087019N0040001N1+02541+02481100481ADDAA112041091AY191031AY221031GA1011+005109099GA2031+005109089GA3031+008709069GA4051+030009049GF108991051091004501071999MA1999999100221MD1310011+9999MW1951REMSYN118AAXX  11034 67073 21440 80208 10254 20248 30022 40048 53001 79592 8597/ 333 60412 83817 81917 83629 85460 94993 95873;
0274670730999992000011203004-18050+044030FM-12+0023FMMO V0203601N00311004201CN0150001N1+02451+99999100331ADDAA112036091AY161031AY261031GA1011+009909069GF108991051091004501071999MA1999999095071MD1310021+9999MW1151REMSYN158AAXX  12034 67073 21465 83606 10245 20/40 30507 40033 53002 71566 8597/ 333 60362 82707 85820 81920 94962 94963 94964 94965 95832 95833 95833 555 81633 83460;
0312670730999992000011209004-18050+044030FM-12+0023FMMO V0203601N00931006001CN0250001N1+02611+02511100261ADDAA106004091AY161031AY261031GA1031+003909079GA2021+006009099GA3041+006009089GA4081+030009049GF108991041091004501071999MA1999999100002MD1810101+9999MW1211OA149901541REMSYN118AAXX  12094 67073 21475 83618 10261 20251 30000 40026 58010 72166 8497/ 333 60041 83713 84820 82920 88460 91130 94979;EQDQ01+100003APOSP 
0301670730999992000011215004-18050+044030FM-12+0023FMMO V0203401N00621006001CN0080001N1+02511+02461100131ADDAA106011091AY191031AY261031GA1041+002109079GA2011+006009099GA3031+006009089GA4081+030009049GF108991041091004501071999KA1120M+02861MA1999999099871MD1610051+9999MW1911REMSYN124AAXX  12154 67073 21458 83412 10251 20246 39987 40013 56005 79196 8497/ 333 10286 60111 84707 83820 81920 88460 94961 95811;
0222670730999992000011300004-18050+044030FM-12+0023FMMO V0209999999999006001CN0150001N1+02621+02451100311ADDAA106018091AC11C9AY161061AY261061GA1031+006009089GF108991081081001501999999MA1999999100051MD1610041+9999MW1151REMSYN100AAXX  13004 67073 11265 8//// 10262 20245 30005 40031 56004 60181 71566 888// 333 0//11 83820 86625;
0260670730999992000011303004-18050+044030FM-12+0023FMMO V0203601N00621007501CN0200001N1+02671+02491100441ADDAA112018091AY121031AY221031GA1011+006009099GA2041+006009089GA3051+007509069GF108991081091008001999999MA1999999100181MD1310131+9999MW1151REMSYN112AAXX  13034 67073 21570 83612 10267 20249 30018 40044 53013 71522 889// 333 60182 84820 81920 85625 94991 95811;
0186670730999992000011315004-18050+044030FM-12+0023FMMO V0203601N005111050019N0300001N1+02781+02471100451ADDAA106000091GF107991041021008001001051KA1999M+03001MA1999999100191MD1310021+9999REMSYN076AAXX  13154 67073 32580 73610 10278 20247 30019 40045 53002 84205 333 10300;EQDQ01  00002PRCP06
0199670730999992000011409004-18050+044030FM-12+002399999V0203201N00721004201CN0350001N1+02971+02581100501ADDAA199000091GA1011+003009079GF106991061021004501001001MA1999999100241MD1810041+9999REMSYN086    AAXX  14094 67073 32481 63214 10297 20258 30024 40050 58004 86200 333 81710 86820;EQDQ01  00002PRCP99
0329670730999992000011412004-18050+044030FM-12+002399999V0203201N00771006001MN0150001N1+02931+02541100421ADDAA199000091AY121061AY221061GA1041+003009079GA2011+006009099GA3051+006009089GF105991051091004501001031MA1999999100161MD1710081+9999MW1151REMSYN162    AAXX  14124 67073 31465 53215 10293 20254 30016 40042 57008 71522 85903 333 0//00 84710 85820 81920 94964 94965 94966 94967 95834 95835 95836 95837 555 81073;EQDQ01  00002PRCP99
0214670730999992000011503004-18050+044030FM-12+002399999V0203001N00411012001CN0200001N1+02651+02551100621ADDAA112000991AY121031AY221031GA1031+006009089GF107991071081008001999999MA1999999100361MD1310121+9999MW1151REMSYN098    AAXX  15034 67073 21570 73008 10265 20255 30036 40062 53012 71522 878// 333 69992 83820 85630;
0344670730999992000011506004-18050+044030FM-12+002399999V0203201N00621009001CN0200001N1+02771+02531100801ADDAA124006191AY161061AY221061GA1011+006009099GA2041+006009089GA3041+009009069GF107991071091008001999999IA2240+02409KA1120M+03001KA2120N+02541MA1999999100541MD1110181+9999MW1151REMSYN158    AAXX  15064 67073 11570 73212 10277 20253 30054 40080 51018 60064 71562 879// 333 02419 10300 20254 50//4 55/// 84820 81920 84630 94992 94997 95812 95817;
0279670730999992000011512004-18050+044030FM-12+002399999V0203401N00511006001MN0300001N1+02291+99999100691ADDAA199000091GA1021+006009099GA2041+006009089GA3031+069009029GF107991061091008001001051MA1999999100431MD1810141+9999REMSYN134    AAXX  15124 67073 32580 73410 10229 20267 30043 40069 58014 86905 333 0//00 84820 82920 83273 94991 94994 94996 95811 95814 95816;EQDQ01  00002PRCP99
0282670730999992000011606004-18050+044030FM-12+002399999V0203001N00511006001MN0350001N1+02821+02511100971ADDAA124010991AC12C9AY161061AY261061GA1061+006009029GF106991061021008001001001IA2240+02309KA1120M+02991KA2120N+02431MA1999999100711MD1210141+9999MW1021REMSYN122    AAXX  16064 67073 11581 63010 10282 20251 30071 40097 52014 60114 70266 86200 333 02322 10299 20243 50//4 55/// 86820;
0271670730999992000011609004-18050+044030FM-12+002399999V0203001N00671069001MN0400001N1+02891+02391100901ADDAA199000091GA1011+006009099GA2041+006009089GA3081+069009029GF108991041091008001031071MA1999999100641MD1810071+9999REMSYN126    AAXX  16094 67073 32582 83013 10289 20239 30064 40090 58007 84937 333 84820 81920 88273 94945 94947 95835 95837 555 81360;EQDQ01  00002PRCP99
0288670730999992000011709004-18050+044030FM-12+002399999V0200201N00511009001CN0200001N1+02721+02611100921ADDAA106000791AY121031AY221031GA1011+006009099GA2041+006009089GA3031+009009069GF107991071091008001999999MA1999999100661MD1810021+9999MW1211REMSYN140    AAXX  17094 67073 21570 70210 10272 20261 30066 40092 58002 72122 879// 333 69971 84820 81920 83630 94991 94992 94994 95811 95812 95814;
0276670730999992000011712004-18050+044030FM-12+002399999V0203401N00511009001CN0200001N1+02931+02671100731ADDAA106001091AC11C9AY161061AY221061GA1011+006009099GA2041+006009089GA3041+009009069GF107991071091008001999999MA1999999100471MD1710191+9999MW1211REMSYN122    AAXX  17124 67073 11570 73410 10293 20267 30047 40073 57019 60011 72162 879// 333 0//11 84820 81920 84630 94998 95838;
0261670730999992000011715004-18050+044030FM-12+002399999V0200201N00461007501CN0200001N1+02651+99999100721ADDAA106003091AY161031AY221031GA1021+009009069GF107991061091008001001031KA1120M+02961MA1999999100461MD1510011+9999MW1151REMSYN132    AAXX  17154 67073 21570 70209 10265 28/55 30046 40072 55001 71562 86903 333 10296 60031 85820 81920 94998 95818 555 82630 82073;
0280670730999992000011806004-18050+044030FM-12+002399999V0203601N00511069001MN0400001N1+02771+02501101051ADDAA124004191GA1041+006909089GA2081+069009029GF108991041011008001031071IA2240+02309KA1120M+02961KA2120N+02361MA1999999100791MD1110131+9999REMSYN132    AAXX  18064 67073 12582 83610 10277 20250 30079 40105 51013 60044 84137 333 02329 10296 20236 50//4 55/// 84823 88273 555 81360;
0239670730999992000011809004-18050+044030FM-12+002399999V0203601N00461006901MN0400001N1+03061+02531100971ADDAA199000091GA1011+006909099GA2051+006909089GF108991051091008001031061MA1999999100711MD1610081+9999REMSYN110    AAXX  18094 67073 32582 83609 10306 20253 30071 40097 56008 85936 333 85823 81923 94965 94967 95835 95837;EQDQ01  00002PRCP99
0246670730999992000011815004-18050+044030FM-12+002399999V0203001N00411045001MN0400001N1+02861+02511100911ADDAA199000091GA1011+006909099GA2031+006909089GF105991031091008001031031KA1120M+03611MA1999999100681MD1310051+9999REMSYN104    AAXX  18154 67073 32582 53008 10286 20251 30068 40091 53005 83933 333 10361 83823 81923 94962 95812;EQDQ01  00002PRCP99
0218670730999992000011900004-18050+044030FM-12+002399999V0209999999999012001CN0300001N1+02511+02421101071ADDAA106004191AC12I9AY161061GA1031+006009089GF105991051081008001001001MA1999999100811MD1610081+9999MW1001REMSYN104    AAXX  19004 67073 11580 5//// 10251 20242 30081 40107 56008 60041 7006/ 85800 333 0//16 83820 83630;
0338670730999992000011906004-18050+044030FM-12+002399999V0200601N00261006001MN0100001N1+02571+02501101341ADDAA124026991AC11C9AY161061AY221061GA1011+006009099GA2051+006009089GA3031+009009069GF107991011091008001999999IA2240+02409KA1120M+03111KA2120N+02451MA1999999101081MD1110171+9999MW1951REMSYN146    AAXX  19064 67073 11560 70605 10257 20250 30108 40134 51017 60274 79562 819// 333 02411 10311 20245 50//4 55/// 85820 81920 83630 94993 95833;
0242670730999992000011909004-18050+044030FM-12+002399999V0203401N00511007501CN0350001N1+02981+02691101261ADDAA106999929AY191031AY221031GA1011+009009069GF106991051091008001001031MA1999999101001MD1810081+9999MW1011REMSYN126    AAXX  19094 67073 21581 63410 10298 20269 30100 40126 58008 70192 85903 333 69901 85820 81920 94994 95834 555 81630 81073;
0254670730999992000011912004-18050+044030FM-12+002399999V0203201N00461105001MN0400001N1+02901+02581101111ADDAA106000791AC12I9AY191061AY221061GA1011+006009099GA2041+006009089GF105991041091008001001031MA1999999100851MD1610151+9999MW1011REMSYN116    AAXX  19124 67073 11582 53209 10290 20258 30085 40111 56015 69901 70192 84903 333 0//16 84820 81920 94993 95833;
0256670730999992000012003004-18050+044030FM-12+0023FMMO V0200401N00151045001CN0200001N1+02541+02511101271ADDAA112000791AY161031AY261031GA1011+009009069GF107991041091008001031061MA1999999101011MD1310081+9999MW1211REMSYN140AAXX  20034 67073 21570 70403 10254 20251 30101 40127 53008 72166 84936 333 69972 84820 81920 86273 94962 94967 95832 95837 555 81630 81360;
0312670730999992000012006004-18050+044030FM-12+0023FMMO V0209999C00001007501CN0250001N1+02821+02681101381ADDAA124023191AC13C9AY161061AY261061GA1011+009909069GF106991061091008001001031IA2240+02409KA1120M+03031KA2120N+02531MA1999999101121MD1110111+9999MW1151REMSYN152AAXX  20064 67073 11575 60000 10282 20268 30112 40138 51011 60234 71566 86903 333 02413 10303 20253 50//4 55/// 84820 82920 94979 95839 555 81633 81073;
0236670730999992000012009004-18050+044030FM-12+0023FMMO V0202401N003110060019N0400001N1+02971+02621101321ADDAA199000021GA1011+006009099GA2051+006009089GA3081+069009029GF108991051091008001031071MA1999999101061MD1810061+9999REMSYN110AAXX  20094 67073 32582 82406 10297 20262 30106 40132 58006 85937 333 85820 81920 88273 94961 95831 555 81360;
0232670730999992000012012004-18050+044030FM-12+0023FMMO V0202201N004110690019N0400001N1+03021+02581101131ADDAA199000021GA1011+006909099GA2031+006909089GA3081+069009029GF108991031091008001001071MA1999999100871MD1710191+9999REMSYN106AAXX  20124 67073 32582 82208 10302 20258 30087 40113 57019 83907 333 0//00 83823 81923 88273 94963 95833;
0195670730999992000012103004-18050+044030FM-12+0023FMMO V0209999C00001105001CN0350001N1+02461+02371101171ADDAA199000091GA1021+006009089GF108991021021008001001071MA1999999100911MD1310071+9999REMSYN082AAXX  21034 67073 32581 80000 10246 20237 30091 40117 53007 82207 333 82820 88275;EQDQ01  00002PRCP99
0263670730999992000012106004-18050+044030FM-12+0023FMMO V0200201N00211105001CN0400001N1+02771+02561101251ADDAA199000091GA1021+006009089GF107991021021008001001051IA2240+02409KA1120M+03071KA2120N+02461MA1999999100991MD1110081+9999REMSYN112AAXX  21064 67073 32582 70204 10277 20256 30099 40125 51008 82205 333 02400 10307 20246 50//4 55/// 82820 86873;EQDQ01  00002PRCP99
0195670730999992000012109004-18050+044030FM-12+0023FMMO V0203001N00311105001CN0400001N1+03091+02581101121ADDAA199000091GA1021+006909089GF107991021021008001001051MA1999999100861MD1810131+9999REMSYN082AAXX  21094 67073 32582 73006 10309 20258 30086 40112 58013 82205 333 82823 86273;EQDQ01  00002PRCP99
0251670730999992000012112004-18050+044030FM-12+0023FMMO V0203401N003110690019N0400001N1+02991+02591100971ADDAA199000091GA1011+006909099GA2031+006909089GA3041+069009029GF106991031091008001001051MA1999999100711MD1710151+9999REMSYN106AAXX  21124 67073 32582 63406 10299 20259 30071 40097 57015 83905 333 0//00 83823 81923 84273 94992 95812;EQDQ01  00002PRCP99
0264670730999992000012115004-18050+044030FM-12+0023FMMO V0203001N003110690019N0350001N1+02881+02571101021ADDAA199000091GA1011+006909099GA2031+006909089GA3041+069009029GF106991031091008001001051KA1120M+03121MA1999999100761MD1310051+9999REMSYN106AAXX  21154 67073 32581 63006 10288 20257 30076 40102 53005 83905 333 10312 83823 81923 84273 94992 95812;EQDQ01  00002PRCP99
0245670730999992000012203004-18050+044030FM-12+0023FMMO V0209999C000010690019N0350001N1+02431+02341101171ADDAA199000091GA1011+006009099GA2021+006009089GA3041+069009009GF105991021091008001001021MA1999999100911MD1310071+9999REMSYN100AAXX  22034 67073 32581 50000 10243 20234 30091 40117 53007 82902 333 82820 81920 84073 94991 95811;EQDQ01  00002PRCP99
0263670730999992000012206004-18050+044030FM-12+0023FMMO V0200201N00511105001CN0400001N1+02931+02521101181ADDAA199000091GA1031+006009089GF105991031021008001001021IA2240+02309KA1120M+03121KA2120N+02431MA1999999100921MD1110011+9999REMSYN112AAXX  22064 67073 32582 50210 10293 20252 30092 40118 51001 83202 333 02300 10312 20243 50//4 55/// 83820 83073;EQDQ01  00002PRCP99
0195670730999992000012209004-18050+044030FM-12+0023FMMO V0203201N00621105001CN0400001N1+03081+02551101151ADDAA199000091GA1031+006909089GF105991031021008001001021MA1999999100891MD1810031+9999REMSYN082AAXX  22094 67073 32582 53212 10308 20255 30089 40115 58003 83202 333 83823 83073;EQDQ01  00002PRCP99
0251670730999992000012212004-18050+044030FM-12+0023FMMO V0203601N006210690019N0400001N1+03031+02571101041ADDAA199000091GA1011+006909099GA2031+006909089GA3031+069009009GF105991031091008001001021MA1999999100771MD1610111+9999REMSYN106AAXX  22124 67073 32582 53612 10303 20257 30077 40104 56011 83902 333 0//00 83823 81923 83073 94993 95813;EQDQ01  00002PRCP99
0264670730999992000012215004-18050+044030FM-12+0023FMMO V0203401N004110690019N0350001N1+02851+02591101101ADDAA199000091GA1011+006009099GA2041+006009089GA3031+069009009GF106991041091008001001021KA1120M+03131MA1999999100841MD1310061+9999REMSYN106AAXX  22154 67073 32581 63408 10285 20259 30084 40110 53006 84902 333 10313 84820 81920 83073 94992 95812;EQDQ01  00002PRCP99
0257670730999992000012300004-18050+044030FM-12+0023FMMO V0200601N001510690019N0400001N1+02371+02261101191ADDAA199000091GA1011+006009099GA2011+006009089GA3061+069009029GF106991011091008001031081MA1999999100931MD1310021+9999REMSYN112AAXX  23004 67073 32582 60603 10237 20226 30093 40119 53002 81938 333 81820 81920 86273 94961 94967 95811 95817;EQDQ01  00002PRCP99
0313670730999992000012306004-18050+044030FM-12+0023FMMO V0203601N001510690019N0400001N1+02881+02331101241ADDAA199000091GA1011+006009099GA2011+006009089GA3051+069009029GF105991011091008001001081IA2240+02209KA1120M+03131KA2120N+02341MA1999999100991MD1010051+9999REMSYN130AAXX  23064 67073 32582 53603 10288 20233 30099 40124 50005 81908 333 02200 10313 20234 50//4 55/// 81820 81920 85273 94968 95818;EQDQ01  00002PRCP99
0195670730999992000012309004-18050+044030FM-12+0023FMMO V0202601N00411045001CN0400001N1+02971+02431101171ADDAA199000091GA1031+006909089GF106991031021008001031081MA1999999100911MD1710071+9999REMSYN082AAXX  23094 67073 32582 62608 10297 20243 30091 40117 57007 83238 333 83823 86273;EQDQ01  00002PRCP99
0281670730999992000012312004-18050+044030FM-12+0023FMMO V0202601N004110690019N0400001N1+03041+02561101021ADDAA199000091GA1011+006909099GA2031+006909089GA3081+069009029GF108991031091008001061071MA1999999100761MD1710151+9999REMSYN136AAXX  23124 67073 32582 82608 10304 20256 30076 40102 57015 83967 333 0//00 83823 81923 88273 94961 94962 94963 94968 95831 95832 95833;EQDQ01  00002PRCP99
0288670730999992000012315004-18050+044030FM-12+0023FMMO V0202201N002610069019N0350001N1+02901+02561101031ADDAA199000091GA1011+006909099GA2051+006909089GF108991051091008001001081KA1120M+03081MA1999999100771MD1310011+9999REMSYN146AAXX  23154 67073 32581 82205 10290 20256 30077 40103 53001 85908 333 10308 85823 81923 94961 94962 94963 94967 95831 95832 95833 95837 555 83273;EQDQ01  00002PRCP99
0249670730999992000012400004-18050+044030FM-12+0023FMMO V0209999999999009001CN0250001N1+02521+02421101151ADDAA199000091GA1021+006009089GA2031+009009069GA3081+069009029GF108991031081008001031071MA1999999100891MD1710141+9999REMSYN104AAXX  24004 67073 33575 8//// 10252 20242 30089 40115 57014 83837 333 0//00 82820 83630 88273 555 81360;EQDQ01  00002PRCP99
0241670730999992000012403004-18050+044030FM-12+0023FMMO V0209999C00001045001CN0350001N1+02501+02421101191ADDAA199000091GA1011+009009069GF108991021091008001031071MA1999999100931MD1310041+9999REMSYN128AAXX  24034 67073 32581 80000 10250 20242 30093 40119 53004 82937 333 82820 81920 88273 94915 94917 95815 95817 555 81630 81360;EQDQ01  00002PRCP99
0323670730999992000012406004-18050+044030FM-12+0023FMMO V0202401N002610690019N0400001N1+02901+02441101191ADDAA199000091GA1011+006009099GA2011+006009089GA3081+069009029GF108991011091008001031071IA2240+02409KA1120M+03081KA2120N+02481MA1999999100931MD1410001+9999REMSYN140AAXX  24064 67073 32582 82405 10290 20244 30093 40119 54000 81937 333 02400 10308 20248 50//4 55/// 81820 81920 88273 94967 95817 555 81360;EQDQ01  00002PRCP99
0267670730999992000012409004-18050+044030FM-12+0023FMMO V0202401N00261007501CN0400001N1+03081+02551101171ADDAA199000091GA1041+006909089GA2011+007509099GA3081+069009029GF108991041091008001031071MA1999999100911MD1810021+9999REMSYN122AAXX  24094 67073 32582 82405 10308 20255 30091 40117 58002 84937 333 84823 81925 88273 94966 94967 95816 95817 555 81369;EQDQ01  00002PRCP99
0315670730999992000012412004-18050+044030FM-12+0023FMMO V0202401N004110690019N0200001N1+03101+02601101031ADDAA199000091AY191061AY221061GA1011+006009099GA2041+006009089GA3081+069009029GF108991041091008001061071MA1999999100771MD1710141+9999MW1171REMSYN148AAXX  24124 67073 31570 82408 10310 20260 30077 40103 57014 71792 84967 333 0//00 84820 81920 88273 94961 94962 94963 94967 95831 95832 95833 95837;EQDQ01  00002PRCP99
0318670730999992000012415004-18050+044030FM-12+0023FMMO V0202201N003110060019N0250001N1+02941+02581101061ADDAA199000091AY191031AY291031GA1011+006009099GA2051+006009089GF108991051091008001061081KA1120M+03171MA1999999100801MD1310031+9999MW1291REMSYN154AAXX  24154 67073 31575 82206 10294 20258 30080 40106 53003 72999 85968 333 10317 85820 81920 94961 94962 94963 94964 94967 94961 95811 95812 95813 95814;EQDQ01  00002PRCP99
0201670730999992000012500004-18050+044030FM-12+0023FMMO V02099999999992200019N0300001N1+02641+02571101141ADDAA199000091GA1021+006009089GF103991021021008001001021MA1999999100881MD1610041+9999REMSYN088AAXX  25004 67073 33580 3//// 10264 20257 30088 40114 56004 82202 333 0//00 82820 82073;EQDQ01  00002PRCP99
0223670730999992000012503004-18050+044030FM-12+0023FMMO V0209999C000011050019N0350001N1+02541+02491101221ADDAA199000091GA1011+006009099GA2031+006009089GF105991031091008001001021MA1999999100961MD1310081+9999REMSYN094AAXX  25034 67073 32581 50000 10254 20249 30096 40122 53008 83902 333 83820 81920 94998 95818;EQDQ01  00002PRCP99
0257670730999992000012506004-18050+044030FM-12+0023FMMO V0209999C000012200019N0400001N1+02981+02591101231ADDAA199000091GA1031+006909029GF104991031021008001001021IA2240+02409KA1120M+03171KA2120N+02541MA1999999100971MD1010011+9999REMSYN106AAXX  25064 67073 32582 40000 10298 20259 30097 40123 50001 83202 333 02400 10317 20254 50//4 55/// 83823;EQDQ01  00002PRCP99
0189670730999992000012509004-18050+044030FM-12+0023FMMO V0202401N005112200019N0400001N1+03071+02611101201ADDAA199000091GA1031+006909029GF104991031021008001001021MA1999999100941MD1810031+9999REMSYN076AAXX  25094 67073 32582 42410 10307 20261 30094 40120 58003 83202 333 83823;EQDQ01  00002PRCP99
0267670730999992000012512004-18050+044030FM-12+0023FMMO V0202601N005111050019N0300001N1+03081+02551101011ADDAA199000091AY191061AY211061GA1011+006909099GA2031+006909089GF105991041091008001001031MA1999999100751MD1610191+9999MW1171REMSYN116AAXX  25124 67073 31580 52610 10308 20255 30075 40101 56019 71791 84903 333 0//00 83823 81923 94992 95832 555 82073;EQDQ01  00002PRCP99
0270670730999992000012515004-18050+044030FM-12+0023FMMO V0202601N003110060019N0300001N1+02941+02581101051ADDAA199000091AY191031AY221031GA1011+006009099GA2061+006009089GF106991061091008001001001KA1120M+03181MA1999999100791MD1310041+9999MW1021REMSYN106AAXX  25154 67073 31580 62606 10294 20258 30079 40105 53004 70292 86900 333 10318 81920 86820 94992 95812;EQDQ01  00002PRCP99
0227670730999992000012600004-18050+044030FM-12+0023FMMO V02099999999990690019N0250001N1+02511+02441101071ADDAA199000091GA1031+006009089GA2051+069009029GF105991031081008001001061MA1999999100811MD1610051+9999REMSYN098AAXX  26004 67073 33575 5//// 10251 20244 30081 40107 56005 83806 333 0//00 83820 85273 555 81633;EQDQ01  00002PRCP99
0241670730999992000012603004-18050+044030FM-12+0023FMMO V0209999C00001045001CN0350001N1+02461+02401101111ADDAA199000091GA1011+009909069GF108991031091008001031071MA1999999100851MD1310041+9999REMSYN128AAXX  26034 67073 32581 80000 10246 20240 30085 40111 53004 83937 333 82820 81920 88273 94961 94868 95811 95818 555 81633 81360;EQDQ01  00002PRCP99
0195670730999992000012609004-18050+044030FM-12+0023FMMO V0202401N00411105001CN0400001N1+03091+02541101041ADDAA199000091GA1031+006909089GF108991031021008001001081MA1999999100781MD1710121+9999REMSYN082AAXX  26094 67073 32582 82408 10309 20254 30078 40104 57012 83208 333 83823 86273;EQDQ01  00002PRCP99
0303670730999992000012612004-18050+044030FM-12+0023FMMO V0202401N005710690019N0250001N1+03101+02571100821ADDAA199000091AY191061AY221061GA1011+006909099GA2021+006909089GA3081+069009029GF108991021091008001061071MA1999999100561MD1710221+9999MW1171REMSYN136AAXX  26124 67073 31575 82411 10310 20257 30056 40082 57022 71792 82967 333 0//00 82823 81923 88273 94961 94962 94963 95831 95832 95833;EQDQ01  00002PRCP99
0304670730999992000012615004-18050+044030FM-12+0023FMMO V0202201N002110690019N0300001N1+03011+02601100831ADDAA199000091AY191031AY291031GA1011+006009099GA2031+006009089GA3051+069009029GF105991031091008001061081KA1120M+03191MA1999999100571MD1310011+9999MW1291REMSYN124AAXX  26154 67073 31580 52204 10301 20260 30057 40083 53001 72999 83968 333 10319 83820 81920 85273 94962 94963 95812 95813;EQDQ01  00002PRCP99
0195670730999992000012700004-18050+044030FM-12+0023FMMO V02099999999992200019N0300001N1+02551+02481100941ADDAA199000091GA1021+006009029GF102991021021008001001001MA1999999100681MD1610131+9999REMSYN082AAXX  27004 67073 33580 2//// 10255 20248 30068 40094 56013 82200 333 0//00 82820;EQDQ01  00002PRCP99
0189670730999992000012703004-18050+044030FM-12+0023FMMO V0200801N001512200019N0350001N1+02431+02361100981ADDAA199000091GA1031+006009029GF104991031021008001031021MA1999999100721MD1310041+9999REMSYN076AAXX  27034 67073 32581 40803 10243 20236 30072 40098 53004 83232 333 83820;EQDQ01  00002PRCP99
0189670730999992000012709004-18050+044030FM-12+0023FMMO V0203201N004612200019N0400001N1+03151+02521100931ADDAA199000091GA1031+006909029GF103991031021008001001021MA1999999100671MD1810111+9999REMSYN076AAXX  27094 67073 32582 33209 10315 20252 30067 40093 58011 83202 333 83823;EQDQ01  00002PRCP99
0251670730999992000012712004-18050+044030FM-12+0023FMMO V0203401N006210690019N0350001N1+03101+02571100771ADDAA199000091GA1011+006909099GA2041+006909089GA3031+069009029GF106991041091008001001051MA1999999100511MD1510161+9999REMSYN106AAXX  27124 67073 32581 63412 10310 20257 30051 40077 55016 84905 333 0//00 84823 81923 83273 94992 95832;EQDQ01  00002PRCP99
0252670730999992000012715004-18050+044030FM-12+0023FMMO V0203201N003110060019N0300001N1+02901+02621100901ADDAA199000091GA1011+006009099GA2061+006009089GF107991061091008001001031KA1120M+03201MA1999999100641MD1310131+9999REMSYN110AAXX  27154 67073 32580 73206 10290 20262 30064 40090 53013 86903 333 10320 86820 81920 94992 95812 555 82073;EQDQ01  00002PRCP99
0205670730999992000012800004-18050+044030FM-12+0023FMMO V02099999999992200019N0250001N1+02471+02411100891ADDAA199000091GA1021+006009089GF102991021081008001001001MA1999999100631MD1610091+9999REMSYN092AAXX  28004 67073 33575 2//// 10247 20241 30063 40089 56009 82800 333 0//00 82820 555 81630;EQDQ01  00002PRCP99
0215670730999992000012803004-18050+044030FM-12+0023FMMO V0200401N002110450019N0350001N1+02411+02351100941ADDGA1031+009909069GA2011+030009039GF105991041091004501031031MA1999999100681MD1310051+9999REMSYN116AAXX  28034 67073 25481 50404 10241 20235 30068 40094 53005 84933 333 83820 81920 94967 95817 555 83633 81360 81073;
0199670730999992000012809004-18050+044030FM-12+0023FMMO V0202601N004112200019N0400001N1+03111+02561100831ADDAA199000091GA1021+006909089GF102991021021008001001021MA1999999100571MD1710141+9999REMSYN086AAXX  28094 67073 32582 22608 10311 20256 30057 40083 57014 82202 333 82823 555 81073;EQDQ01  00002PRCP99
0281670730999992000012812004-18050+044030FM-12+0023FMMO V0202801N005112200019N0250001N1+03111+02521100681ADDAA199000091AY191061AY201061GA1011+006909099GA2021+006909089GF103991021091008001001031MA1999999100421MD1710151+9999MW1171REMSYN130AAXX  28124 67073 31575 32810 10311 20252 30042 40068 57015 71790 82903 333 0//00 82823 81923 94961 94962 94963 95831 95832 95833;EQDQ01  00002PRCP99
0294670730999992000012815004-18050+044030FM-12+0023FMMO V0202601N004112200019N0250001N1+03031+02561100681ADDAA199000091AY191031AY291031GA1011+006009099GA2021+006009089GF103991021091008001061031KA1120M+03181MA1999999100421MD1410001+9999MW1151REMSYN130AAXX  28154 67073 31575 32608 10303 20256 30042 40068 54000 71599 82963 333 10318 82820 81920 94961 94962 94963 95831 95832 95833;EQDQ01  00002PRCP99
0201670730999992000012900004-18050+044030FM-12+0023FMMO V0209999999999045001CN0300001N1+02571+02311100791ADDAA199000091GA1011+006009089GF105991011021008001031001MA1999999100531MD1610041+9999REMSYN088AAXX  29004 67073 33580 5//// 10257 20231 30053 40079 56004 81230 333 0//00 81820 85360;EQDQ01  00002PRCP99
0223670730999992000012903004-18050+044030FM-12+0023FMMO V0201001N002110060019N0300001N1+02551+02451100891ADDAA199000091GA1011+006009099GA2041+006009089GF106991061091008001001021MA1999999100631MD1310101+9999REMSYN094AAXX  29034 67073 32580 61004 10255 20245 30063 40089 53010 86902 333 84820 81920 94991 95811;EQDQ01  00002PRCP99
0256670730999992000012906004-18050+044030FM-12+0023FMMO V0200801N003612200019N0400001N1+03011+02521100971ADDAA199000091GA1041+006909029GF104991041021008001031001IA2240+02509KA1999M+03181KA2999N+02511MA1999999100711MD1110081+9999REMSYN105AAXX  29064 67073 32582 40807 10301 20252 30071 40097 51008 84230 333 02500 1031820251 50//4 55/// 84823;EQDQ01  00002PRCP99
0189670730999992000012909004-18050+044030FM-12+0023FMMO V0203401N003110069019N0400001N1+03221+02671100841ADDAA199000091GA1051+006909029GF105991051021008001001001MA1999999100581MD1810131+9999REMSYN076AAXX  29094 67073 32582 53406 10322 20267 30058 40084 58013 85200 333 85823;EQDQ01  00002PRCP99
0253670730999992000012912004-18050+044030FM-12+0023FMMO V0203001N004112200019N0300001N1+03201+02651100621ADDAA199000091GA1011+006909099GA2041+006909089GF104991041091008001001001MA1999999100361MD1610221+9999REMSYN124AAXX  29124 67073 32580 43008 10320 20265 30036 40062 56022 84900 333 0//00 84823 81923 94991 94992 94993 95811 95812 95813;EQDQ01  00002PRCP99
0270670730999992000012915004-18050+044030FM-12+0023FMMO V0202801N003112200019N0300001N1+03061+02621100661ADDAA199000091AY191031AY201031GA1011+006009099GA2041+006009089GF104991041091008001001001KA1120M+03271MA1999999100401MD1310041+9999MW1021REMSYN106AAXX  29154 67073 31580 42806 10306 20262 30040 40066 53004 70290 84900 333 10327 84820 81920 94991 95811;EQDQ01  00002PRCP99
0241670730999992000013000004-18050+044030FM-12+0023FMMO V0209999999999007501CN0250001N1+02781+02521100791ADDAA199000091GA1011+006009099GF105991051091008001001001MA1999999100531MD1610071+9999MW1131REMSYN122AAXX  30004 67073 31575 5//// 10278 20252 30053 40079 56007 713// 85900 333 0//00 85820 555 81920 94962 94963 95812 95813;EQDQ01  00002PRCP99
0235670730999992000013003004-18050+044030FM-12+0023FMMO V0200401N001012200019N0300001N1+02581+02491100881ADDAA199000091GA1011+009009069GF104991041091008001001031MA1999999100621MD1310091+9999REMSYN122AAXX  30034 67073 32580 40402 10258 20249 30062 40088 53009 84903 333 84820 81920 94962 94967 95812 95817 555 81630 81073;EQDQ01  00002PRCP99
0301670730999992000013006004-18050+044030FM-12+0023FMMO V0200201N002112200019N0150001N1+03031+02601100781ADDAA199000091AY111061AY211061GA1051+006009029GF199999051021008001001001IA2240+02509KA1120M+03271KA2120N+02571MA1999999100521MD1810101+9999MW1151REMSYN112AAXX  30064 67073 31565 30204 10303 20260 30052 40078 58010 71511 85200 333 02500 10327 20257 50//4 55/// 85820;EQDQ01+000032SCOTCVQ02  00002PRCP99
0272670730999992000013009004-18050+044030FM-12+0023FMMO V0203001N007212200019N0250001N1+03141+02601100861ADDAA106002091AY181031AY211031GA1011+006009099GA2041+006009089GF104991041091008001031001MA1999999100601MD1410001+9999MW1151REMSYN140AAXX  30094 67073 21575 43014 10314 20260 30060 40086 54000 71581 84930 333 60021 84820 81920 94961 94962 94968 95831 95832 95838 555 81360;
0242670730999992000013015004-18050+044030FM-12+0023FMMO V0203001N005112200019N0350001N1+03041+02651100721ADDAA199000091GA1011+006009099GA2041+006009089GF104991041091008001001031KA1120M+03191MA1999999100461MD1310011+9999REMSYN100AAXX  30154 67073 32581 43010 10304 20265 30046 40072 53001 84903 333 10319 84820 81920 94962 95812;EQDQ01  00002PRCP99
0222670730999992000013100004-18050+044030FM-12+0023FMMO V0209999999999012001CN0300001N1+02561+02501100901ADDAA106009991AC13C9AY161061AY261061GA1041+006009089GF106991061081008001001001MA1999999100641MD1610101+9999MW1001REMSYN100AAXX  31004 67073 11580 6//// 10256 20250 30064 40090 56010 60101 70066 86800 333 0//13 84820 83629;
0272670730999992000013103004-18050+044030FM-12+0023FMMO V0203601N00361008701CN0050001N1+02651+02611101041ADDAA112012091AY191031AY221031GA1011+006009099GA2041+006009089GA3041+008709069GF107991071091008001999999MA1999999100781MD1310141+9999MW1951REMSYN124AAXX  31034 67073 21550 73607 10265 20261 30078 40104 53014 79592 879// 333 60122 84820 81920 84629 94992 94997 95832 95837;
0340670730999992000013106004-18050+044030FM-12+0023FMMO V0200801N00211008401CN0080001N1+02501+02441101211ADDAA124034091AC11C9AY191061AY261061GA1011+006009099GA2041+006009089GA3041+008409069GF107991071091008001999999IA2240+02309KA1120M+03191KA2120N+02461MA1999999100951MD1110171+9999MW1951REMSYN148AAXX  31064 67073 11558 70804 10250 20244 30095 40121 51017 60344 79596 879// 333 02311 10319 20246 50//4 55/// 84820 81920 84628 94997 94998 95838;
0294670730999992000013109004-18050+044030FM-12+0023FMMO V0200201N004110090019N0350001N1+02761+02531101201ADDAA106003091AY191031AY261031GA1011+006009099GA2031+006009089GA3031+009009069GA4031+069009029GF107991061091008001001051MA1999999100941MD1810011+9999MW1011REMSYN130AAXX  31094 67073 21581 70208 10276 20253 30094 40120 58001 70196 86905 333 60031 83820 81920 83630 83273 94992 94996 95812 95816;
0284670730999992000013112004-18050+044030FM-12+0023FMMO V0200201N00621008101CN0100001N1+03001+02581101101ADDAA106003091AC11C9AY191061AY261061GA1011+006009099GA2041+006009089GA3051+008109069GF108991081091008001999999MA1999999100841MD1610101+9999MW1951REMSYN130AAXX  31124 67073 11560 80212 10300 20258 30084 40110 56010 60031 79596 889// 333 0//11 84820 81920 85627 94993 94995 95813 95815;
0291670730999992000013115004-18050+044030FM-12+0023FMMO V0200201N004110087019N0200001N1+02731+02551101071ADDAA106003091AY191031AY201031GA1011+006009099GA2031+006009089GA3051+008709069GF107991071091008001999999KA1120M+03051MA1999999100811MD1510031+9999MW1151REMSYN130AAXX  31154 67073 21570 70208 10273 20255 30081 40107 55003 71590 879// 333 10305 60031 83820 81920 85629 94991 94996 95811 95816;
0208670730999992000020100004-18050+044030FM-12+0023FMMO V02099999999990099019N0250001N1+02441+02351101121ADDAA199000021GA1021+006009089GA2031+009909069GF105991051081008001001021MA1999999100861MD1610111+9999REMSYN098AAXX  01004 67073 33575 5//// 10244 20235 30086 40112 56011 85802 333 0//00 82820 83633 555 82073;
0285670730999992000020103004-18050+044030FM-12+0023FMMO V0200201N00571007501CN0200001N1+02421+02301101141ADDAA199000091AY121031GA1011+030009039GF108991051091008001031031MA1999999100881MD1310021+9999MW1171REMSYN158AAXX  01034 67073 31570 80211 10242 20230 30088 40114 53002 7172/ 85933 333 82820 81920 83633 94965 94966 94967 94968 95815 95816 95817 95818 555 81360 82073;EQDQ01  00002PRCP99
0358670730999992000020106004-18050+044030FM-12+0023FMMO V0200401N00621007501CN0200001N1+02791+02461101261ADDAA124010991AY191061AY221061GA1021+009909069GA2011+030009039GF108991051091008001031081IA2240+02309KA1120M+03051KA2120N+02401MA1999999101001MD1210121+9999MW1171REMSYN188AAXX  01064 67073 11570 80412 10279 20246 30100 40126 52012 60114 71792 85938 333 02329 10305 20240 50//4 55/// 84820 81920 94965 94966 94967 94968 95816 95817 95818 555 82633 81360 83273;
0284670730999992000020109004-18050+044030FM-12+0023FMMO V0203601N006210060019N0250001N1+02841+02441101261ADDAA106003091AY191031AY291031GA1011+006009099GA2061+006009089GF107991071091008001999999MA1999999101001MD1410001+9999MW1151REMSYN152AAXX  01094 67073 21575 73612 10284 20244 30100 40126 54000 71599 879// 333 60031 86820 81920 94965 94966 94967 94968 95835 95836 95837 95838 555 82630;
0272670730999992000020112004-18050+044030FM-12+0023FMMO V0203201N005110300019N0300001N1+02851+02451101121ADDAA106003091AC11I9AY191061AY221061GA1021+006009099GA2041+006009089GA3051+030009049GF108991041091008001071061MA1999999100861MD1710141+9999MW1031REMSYN118AAXX  01124 67073 11580 83210 10285 20245 30086 40112 57014 60031 70392 84976 333 0//25 84820 82920 85460 94959 95839;
0300670730999992000020115004-18050+044030FM-12+0023FMMO V0203201N004110300019N0300001N1+02641+02441101061ADDAA199000091GA1011+006009099GA2021+006009089GA3061+030009049GF108991021091008001071031KA1120M+02941MA1999999100801MD1510061+9999REMSYN142AAXX  01154 67073 32580 83208 10264 20244 30080 40106 55006 82973 333 10294 82820 81920 86460 94961 94966 94967 94968 95811 95816 95817 95818;EQDQ01  00002PRCP99
0195670730999992000020200004-18050+044030FM-12+0023FMMO V02099999999992200019N0300001N1+02431+02361101101ADDAA199000091GA1031+006009029GF103991031081008001001001MA1999999100841MD1610181+9999REMSYN082AAXX  02004 67073 33580 3//// 10243 20236 30084 40110 56018 83800 333 0//00 83820;EQDQ01  00002PRCP99
0223670730999992000020203004-18050+044030FM-12+0023FMMO V0201001N00211007501CN0300001N1+02411+02341101121ADDAA199000091GA1011+006009099GA2031+006009089GF106991051091008001001021MA1999999100861MD1310021+9999REMSYN094AAXX  02034 67073 32580 61004 10241 20234 30086 40112 53002 85902 333 83820 81920 94996 95816;EQDQ01  00002PRCP99
0278670730999992000020206004-18050+044030FM-12+0023FMMO V0200801N003110060019N0400001N1+02931+02521101231ADDAA124003091GA1011+006009099GA2061+006009089GF106991061091008001001001IA2240+02409KA1120M+02941KA2120N+02381MA1999999100971MD1010111+9999REMSYN130AAXX  02064 67073 12582 60806 10293 20252 30097 40123 50011 60034 86900 333 02419 10294 20238 50//4 55/// 86820 81920 94996 95816;
0257670730999992000020209004-18050+044030FM-12+0023FMMO V0203601N003110060019N0400001N1+03131+02651101071ADDAA199000091GA1011+006009099GA2061+006009089GA3031+069009029GF107991061091008001001051MA1999999100811MD1810161+9999REMSYN112AAXX  02094 67073 32582 73606 10313 20265 30081 40107 58016 86905 333 86820 81920 83273 94993 94995 95813 95815;EQDQ01  00002PRCP99
0263670730999992000020212004-18050+044030FM-12+0023FMMO V0202801N00361045001CN0200001N1+02941+02611100871ADDAA199000091AY191061AY221061GA1011+009909069GF107991041091008001071051MA1999999100611MD1610201+9999MW1171REMSYN128AAXX  02124 67073 31570 72807 10294 20261 30061 40087 56020 71792 84975 333 0//00 84820 81920 83273 94992 95832 555 81633 82360;EQDQ01  00002PRCP99
0338670730999992000020215004-18050+044030FM-12+0023FMMO V0200201N00261009001CN0150001N1+02741+02541100941ADDAA199000091AY191031AY221031GA1011+006009099GA2041+006009089GA3031+009009069GA4031+069009029GF107991051091008001001051KA1120M+03171MA1999999100681MD1310071+9999MW1151REMSYN142AAXX  02154 67073 31565 70205 10274 20254 30068 40094 53007 71592 85905 333 10317 84820 81920 83630 83273 94991 94993 94995 95811 95813 95835;EQDQ01  00002PRCP99
0206670730999992000020300004-18050+044030FM-12+0023FMMO V0209999999999045001CN0200001N1+02461+02321101051ADDAA106004191AC12I9GA1021+009009069GF108991021051008001071999MA1999999100891MD1310031+9999MW1151REMSYN100AAXX  03004 67073 11570 8//// 10246 20232 30089 40105 53003 60041 715// 8257/ 333 0//26 82630 88460;
0390670730999992000020306004-18050+044030FM-12+0023FMMO V0200401N004110450019N0200001N1+02381+02361101201ADDAA124023991AC11C9AY161061AY261061GA1011+003009079GA2011+006009099GA3021+006009089GA4031+009909069GF106991031091004501071031IA2240+02109KA1120M+03171KA2120N+02291MA1999999100941MD1010021+9999MW1211REMSYN182AAXX  03064 67073 11470 60408 10238 20236 30094 40120 50002 60244 72166 83973 333 02111 10317 20229 5///4 55/// 81710 82820 81920 83633 94965 94966 94967 95815 95816 95817 555 81073;
0250670730999992000020309004-18050+044030FM-12+0023FMMO V0203601N00771045001CN0200001N1+02871+02441101081ADDAA199000021AY121031AY221031GA1011+009009069GF108991021091008001071061MA1999999100821MD1710121+9999MW1151REMSYN134AAXX  03094 67073 31570 83615 10287 20244 30082 40108 57012 71522 82976 333 82820 81920 85460 94966 94967 95836 95837 555 81630 83273;
0278670730999992000020312004-18050+044030FM-12+0023FMMO V0203201N007710300019N0200001N1+03001+02491100921ADDAA199000021AY121061AY221061GA1011+006009099GA2031+006009089GA3041+030009039GF105991031091008001061031MA1999999100661MD1710161+9999MW1151REMSYN130AAXX  03124 67073 31570 53215 10300 20249 30066 40092 57016 71522 83963 333 0//00 83820 81920 84360 94961 94962 94963 94968 95832;
0297670730999992000020315004-18050+044030FM-12+0023FMMO V0203601N003610690019N0200001N1+02701+02441100921ADDAA199000021AY191031AY221031GA1011+006009099GA2031+006009089GA3081+069009029GF108991031091008001061071KA1120M+03071MA1999999100671MD1410001+9999MW1171REMSYN136AAXX  03154 67073 31570 83607 10270 20244 30067 40092 54000 71792 83967 333 10307 83820 81920 88273 94961 94963 94968 95811 95813 95818;
0214670730999992000020400004-18050+044030FM-12+0023FMMO V0209999999999012001CN0300001N1+02521+02481101121ADDAA106000891AC11C9AY161061GA1011+006009089GF105991051081008001001001MA1999999100861MD1610071+9999MW1001REMSYN100AAXX  04004 67073 11580 5//07 10252 20248 30086 40112 56007 69971 7006/ 85800 333 0//11 81820 85630;
0260670730999992000020403004-18050+044030FM-12+0023FMMO V0201001N004110090019N0200001N1+02361+02301101161ADDAA112000791AY121031AY221031GA1011+006009099GA2021+006009089GA3051+009009069GF106991061091008001001001MA1999999100901MD1110041+9999MW1151REMSYN112AAXX  04034 67073 21570 61008 10236 20230 30090 40116 51004 71522 86900 333 69972 82820 81920 85630 94998 95818;
0284670730999992000020406004-18050+044030FM-12+0023FMMO V0200201N004112200019N0400001N1+02841+02351101261ADDAA124000891AC13I9GA1011+006009099GA2021+006009089GF103991021091008001031021IA2240+02309KA1120M+03071KA2120N+02361MA1999999101001MD1010101+9999REMSYN130AAXX  04064 67073 12582 30208 10284 20235 30100 40126 50010 69974 82932 333 02317 10307 20236 50//4 55/// 82820 81920 94997 95817;
0223670730999992000020409004-18050+044030FM-12+0023FMMO V0200201N007712200019N0400001N1+03171+02361101191ADDAA199000091GA1011+006909099GA2041+006909089GF104991041091008001001001MA1999999100931MD1810071+9999REMSYN094AAXX  04094 67073 32582 40215 10317 20236 30093 40119 58007 84900 333 84823 81923 94997 95817;EQDQ01  00002PRCP99
0235670730999992000020412004-18050+044030FM-12+0023FMMO V0203201N009312200019N0400001N1+03101+02721101071ADDAA199000091GA1011+006909099GA2041+006909089GF104991041091008001001001MA1999999100811MD1810121+9999REMSYN106AAXX  04124 67073 32582 43218 10310 20272 30081 40107 58012 84900 333 0//00 84823 81923 94997 95813 95817;EQDQ01  00002PRCP99
0269670730999992000020415004-18050+044030FM-12+0023FMMO V0209999C000010450019N0300001N1+02671+02571101131ADDAA106000591AY191031AY211031GA1021+009009069GF106991041091008001041031KA1120M+03271MA1999999100871MD1310061+9999MW1291REMSYN140AAXX  04154 67073 21580 60000 10267 20257 30087 40113 53006 72991 84943 333 10327 69951 83820 81920 94993 94996 95813 95816 555 82630 82073;
0223670730999992000020503004-18050+044030FM-12+0023FMMO V0201001N002112200019N0300001N1+02421+02381101301ADDAA199000091GA1011+030009039GF104991021091008001041021MA1999999101041MD1310091+9999REMSYN110AAXX  05034 67073 32580 41004 10242 20238 30104 40130 53009 82942 333 82820 81920 94995 95815 555 81360 82073;EQDQ01  00002PRCP99
0288670730999992000020506004-18050+044030FM-12+0023FMMO V0200201N003612200019N0400001N1+02911+02501101351ADDAA124000591GA1011+006009099GA2031+006009089GF103991031091008001001021IA2240+02309KA1120M+03271KA2120N+02391MA1999999101091MD1110051+9999REMSYN140AAXX  05064 67073 12582 30207 10291 20250 30109 40135 51005 69954 83902 333 02319 10327 20239 50//4 55/// 83820 81920 94997 95817 555 81073;
0199670730999992000020509004-18050+044030FM-12+0023FMMO V0200201N003612200019N0400001N1+03191+02411101251ADDAA199000091GA1041+006909089GF104991041021008001001021MA1999999100991MD1810101+9999REMSYN086AAXX  05094 67073 32582 40207 10319 20241 30099 40125 58010 84202 333 84823 555 81073;EQDQ01  00002PRCP99
0229670730999992000020512004-18050+044030FM-12+0023FMMO V0203201N006212200019N0400001N1+03111+02601101131ADDAA199000091GA1011+006909099GA2041+006909089GF104991041091008001001001MA1999999100871MD1610121+9999REMSYN100AAXX  05124 67073 32582 43212 10311 20260 30087 40113 56012 84900 333 0//00 84823 81923 94994 95814;EQDQ01  00002PRCP99
0242670730999992000020515004-18050+044030FM-12+0023FMMO V0203201N004612200019N0300001N1+02951+02571101101ADDAA199000091GA1011+006009099GA2031+006009089GF103991031091008001001001KA1120M+03281MA1999999100841MD1610031+9999REMSYN100AAXX  05154 67073 32580 33209 10295 20257 30084 40110 56003 83900 333 10328 83820 81920 94993 95813;EQDQ01  00002PRCP99
0264670730999992000020600004-18050+044030FM-12+0023FMMO V0209999C000010060019N0150001N1+02381+02341101271ADDAA106005191AC11C9AY191061GA1021+006009099GA2031+006009089GA3081+009009069GF108991081091008001999999MA1999999101011MD1510051+9999MW1151REMSYN118AAXX  06004 67073 11565 80000 10238 20234 30101 40127 55005 60051 7159/ 889// 333 0//21 83820 82920 88630 94979 95839;
0260670730999992000020603004-18050+044030FM-12+0023FMMO V0200401N002610090019N0200001N1+02431+02381101411ADDAA112005091AY191031AY221031GA1011+006009099GA2031+006009089GA3051+009009069GF106991051091008001001031MA1999999101151MD1310141+9999MW1151REMSYN112AAXX  06034 67073 21570 60405 10243 20238 30115 40141 53014 71592 85903 333 60052 83820 81920 85630 94979 95833;
0306670730999992000020606004-18050+044030FM-12+0023FMMO V0209999C00001009901CN0350001N1+02841+02541101501ADDAA124005191AC13I9GA1011+006009099GA2041+006009089GA3061+009909049GF106991061091008001031031IA2240+02209KA1120M+03281KA2120N+02281MA1999999101241MD1110091+9999REMSYN136AAXX  06064 67073 12581 60000 10284 20254 30124 40150 51009 60054 86933 333 02227 10328 20228 50//4 55/// 84820 81920 86433 94966 95836;
0251670730999992000020609004-18050+044030FM-12+0023FMMO V0202201N004610450019N0150001N1+03021+02661101381ADDAA199000091AY191031AY221031GA1011+006909099GA2041+006909089GF105991041091008001031031MA1999999101121MD1810121+9999MW1171REMSYN100AAXX  06094 67073 31565 52209 10302 20266 30112 40138 58012 71792 84933 333 84823 81923 94961 95831;EQDQ01  00002PRCP99
0296670730999992000020612004-18050+044030FM-12+0023FMMO V0202001N003110450019N0250001N1+02851+02601101191ADDAA106000591AC11C9AY191061AY291061GA1011+009909069GA2011+030009039GF105991031091008001031031MA1999999100931MD1710191+9999MW1151REMSYN158AAXX  06124 67073 11575 52006 10285 20260 30093 40119 57019 69941 71599 83933 333 0//21 83820 81920 94961 94963 94968 95831 95833 95838 555 81633 81360 81073;
0286670730999992000020615004-18050+044030FM-12+0023FMMO V0202001N003612200019N0350001N1+02911+02591101151ADDAA199000091GA1011+006909099GA2011+006909089GA3031+069009029GF103991011091008001061061KA1120M+03081MA1999999100891MD1610041+9999REMSYN128AAXX  06154 67073 32581 32007 10291 20259 30089 40115 56004 81966 333 10308 81823 81923 83273 94962 94963 95831 95833 555 81360;EQDQ01  00002PRCP99
0288670730999992000020700004-18050+044030FM-12+0023FMMO V0209999C000010090019N0150001N1+02731+02661101271ADDAA106000591AC11C9AY161061GA1011+006009099GA2031+006009089GA3061+009009069GF106991999999008001999999MA1999999101011MD1510051+9999MW1131REMSYN142AAXX  07004 67073 11565 60000 10273 20266 30101 40127 55005 69941 7136/ 96900 333 0//11 83820 81920 86630 94961 94965 94967 94968 95835 95836;
0268670730999992000020703004-18050+044030FM-12+0023FMMO V0201601N00211007501CN0100001N1+02411+02341101311ADDAA112003091AY191031AY261031GA1011+030009039GF106991061091008001031031MA1999999101051MD1310041+9999MW1951REMSYN152AAXX  07034 67073 21560 61604 10241 20234 30105 40131 53004 79596 86933 333 60032 83820 81920 86630 94965 94966 94967 94968 95835 95836 555 81360 81073;
0336670730999992000020706004-18050+044030FM-12+0023FMMO V0209999C00001007501CN0300001N1+02861+02591101311ADDAA124004191AC10I9AY191061AY291061GA1011+030009039GF108991051091008001031061IA2240+02409KA1120M+03081KA2120N+02371MA1999999101051MD1010001+9999MW1031REMSYN176AAXX  07064 67073 11580 80000 10286 20259 30105 40131 50000 60044 70399 85936 333 02424 10308 20237 50//4 55/// 85820 81920 94965 94966 94967 95815 95816 95817 555 81360 83273;
0216670730999992000020709004-18050+044030FM-12+0023FMMO V0202601N003612200019N0400001N1+03041+02681101221ADDAA199000021GA1011+030009039GF104991031091008001031031MA1999999100961MD1710091+9999REMSYN122AAXX  07094 67073 32582 42607 10304 20268 30096 40122 57009 83933 333 83823 81923 94967 94968 95817 95818 555 81360 81073;
0176670730999992000020712004-18050+044030FM-12+0023FMMO V0202401N005112200019N0400001N1+03151+02601101021ADDAA199000021GA1021+006909029GF103991021021008001031021MA1999999100761MD1710201+9999REMSYN082AAXX  07124 67073 32582 32410 10315 20260 30076 40102 57020 82232 333 0//00 82823;
0223670730999992000020715004-18050+044030FM-12+0023FMMO V0202401N002612200019N0250001N1+03081+02621101021ADDAA199000021GA1011+006009099GA2011+006009089GF103991011091008001031031KA1120M+03151MA1999999100761MD1410001+9999REMSYN100AAXX  07154 67073 31575 32405 10308 20262 30076 40102 54000 81933 333 10315 81820 81920 94961 95812;
0195670730999992000020800004-18050+044030FM-12+0023FMMO V02099999999992200019N0300001N1+02521+02241101181ADDAA199000091GA1031+012009059GF103991031051012501031001MA1999999100921MD1510091+9999REMSYN082AAXX  08004 67073 33680 3//// 10252 20224 30092 40118 55009 83530 333 0//00 83640;EQDQ01  00002PRCP99
0257670730999992000020806004-18050+044030FM-12+0023FMMO V0203601N003112200019N0400001N1+02751+02421101141ADDAA199000091GA1041+030009079GF104991041001999999031001IA2240+02409KA1120M+03151KA2120N+02401MA1999999100881MD1110091+9999REMSYN106AAXX  08064 67073 32982 43606 10275 20242 30088 40114 51009 84030 333 02400 10315 20240 50//4 55/// 84360;EQDQ01  00002PRCP99
0257670730999992000020812004-18050+044030FM-12+0023FMMO V0202601N006212200019N0300001N1+03061+02591100881ADDAA199000091AY191061AY201061GA1011+006909099GA2031+006909089GF103991031091008001001001MA1999999100621MD1610171+9999MW1171REMSYN106AAXX  08124 67073 31580 32612 10306 20259 30062 40088 56017 71790 83900 333 0//00 83823 81923 94992 95832;EQDQ01  00002PRCP99
0294670730999992000020815004-18050+044030FM-12+0023FMMO V0202601N003612200019N0300001N1+03051+02561100851ADDAA199000091AY191031AY201031GA1011+006009099GA2041+006009089GF104991041091008001001001KA1120M+03251MA1999999100591MD1510031+9999MW1031REMSYN130AAXX  08154 67073 31580 42607 10305 20256 30059 40085 55003 70390 84900 333 10325 84820 81920 94991 94992 94993 95831 95832 95833;EQDQ01  00002PRCP99
0291670730999992000020900004-18050+044030FM-12+0023FMMO V0209999C000010090019N0150001N1+02601+02561100951ADDAA199000091GA1011+006009099GA2031+006009089GA3051+009009069GF108991051091008001071999MA1999999100691MD1610141+9999MW1171REMSYN140AAXX  09004 67073 31565 80000 10260 20256 30069 40095 56014 717// 8597/ 333 0//00 83820 81920 85630 94961 94966 94967 95816 95817 555 83460;EQDQ01  00002PRCP99
0294670730999992000020903004-18050+044030FM-12+0023FMMO V0201401N004110300019N0100001N1+02331+02331101181ADDAA112052091AY191031AY291031GA1011+006009099GA2021+006009089GA3031+009009069GA4081+030009049GF108991031091008001071999MA1999999100921MD1310231+9999MW1951REMSYN130AAXX  09034 67073 21560 81408 10233 20233 30092 40118 53023 79599 8397/ 333 60522 82820 81920 83630 88460 94961 94966 94967 95816;
0336670730999992000020906004-18050+044030FM-12+0023FMMO V0203601N00361045001CN0100001N1+02401+02381101201ADDAA124055191AC11C9AY191061AY291061GA1011+009909069GF107991021091004501071081IA2240+02209KA1120M+03251KA2120N+02311MA1999999100941MD1010021+9999MW1911REMSYN176AAXX  09064 67073 11460 73607 10240 20238 30094 40120 50002 60554 79199 82978 333 02251 10325 20231 50//4 55/// 82710 82820 81920 86460 94966 94967 95816 95817 555 81633 82273;
0282670730999992000020909004-18050+044030FM-12+0023FMMO V0203601N003610300019N0300001N1+02691+02511101101ADDAA106000191AY191031AY261031GA1011+006009099GA2031+006009089GA3061+030009049GF108991031091008001071031MA1999999100841MD1710101+9999MW1031REMSYN134AAXX  09094 67073 21580 83607 10269 20251 30084 40110 57010 70396 83973 333 69911 83820 81920 86460 94965 94966 95875 95876 555 82073;
0296670730999992000020912004-18050+044030FM-12+0023FMMO V0202801N004610690019N0350001N1+02951+02541100921ADDAA106000191AC13I9AY161061AY221061GA1011+006009099GA2041+006009089GA3081+069009029GF108991041091008001031071MA1999999100661MD1710181+9999MW1031REMSYN142AAXX  09124 67073 11581 82809 10295 20254 30066 40092 57018 69911 70362 84937 333 0//17 84820 81920 88273 94961 94962 94966 94967 95831 95832;
0269670730999992000020915004-18050+044030FM-12+0023FMMO V0202601N003110690019N0400001N1+02841+02561100881ADDAA199000021GA1011+006009099GA2041+006009089GA3081+069009029GF108991041091008001031071KA1120M+03041MA1999999100621MD1510041+9999REMSYN130AAXX  09154 67073 32582 82606 10284 20256 30062 40088 55004 84937 333 10304 84820 81920 88273 94961 94962 94963 94966 95832 95833;
0263670730999992000021000004-18050+044030FM-12+0023FMMO V02099999999990090019N0300001N1+02501+02411101021ADDAA199000091GA1011+006009099GA2021+006009089GA3051+009009069GF106991061091008001001001MA1999999100761MD1610061+9999MW1131REMSYN112AAXX  10004 67073 31580 6//04 10250 20241 30076 40102 56006 713// 86900 333 0//00 82820 81920 85630 94994 95814;EQDQ01  00002PRCP99
0238670730999992000021003004-18050+044030FM-12+0023FMMO V0209999C00001007501CN0350001N1+02461+02421101101ADDAA112000491AY161031AY221031GA1011+006009099GA2031+006009089GF107991061091008001001021MA1999999100841MD1310081+9999MW1031REMSYN106AAXX  10034 67073 21581 70000 10246 20242 30084 40110 53008 70362 86902 333 69942 83820 81920 94998 95818;
0334670730999992000021006004-18050+044030FM-12+0023FMMO V0200601N002610690019N0400001N1+02841+02561101191ADDAA124000591AC10I9AY161061AY221061GA1011+006909099GA2031+006909089GA3031+069009009GF106991031091008001031021IA2240+02409KA1120M+03041KA2120N+02361MA1999999100931MD1110091+9999MW1011REMSYN142AAXX  10064 67073 11582 60605 10284 20256 30093 40119 51009 69954 70162 83932 333 02414 10304 20236 50//4 55/// 83823 81923 83073 94997 95837;
0275670730999992000021009004-18050+044030FM-12+0023FMMO V0203201N004610060019N0250001N1+03021+02531101071ADDAA199000091AY121031AY221031GA1011+006009099GA2051+006009089GF106991061091008001001001MA1999999100811MD1810121+9999MW1151REMSYN124AAXX  10094 67073 31575 63209 10302 20253 30081 40107 58012 71522 86900 333 85820 81920 94991 94994 94997 95831 95814 95817;EQDQ01  00002PRCP99
0284670730999992000021012004-18050+044030FM-12+0023FMMO V0203201N003110060019N0200001N1+02801+02611100931ADDAA106000191AC11C9AY191061AY261061GA1011+006009099GA2051+006009089GF107991061091008001001031MA1999999100671MD1610141+9999MW1171REMSYN146AAXX  10124 67073 11570 73206 10280 20261 30067 40093 56014 69911 71796 86903 333 0//11 85820 81920 94992 94994 94996 95832 95834 95836 555 82073;
0291670730999992000021015004-18050+044030FM-12+0023FMMO V0203001N002610060019N0200001N1+02881+02571100961ADDAA106000191AY191031AY221031GA1011+006009099GA2051+006009089GF107991061091008001001031KA1120M+03031MA1999999100701MD1310031+9999MW1171REMSYN146AAXX  10154 67073 21570 73005 10288 20257 30070 40096 53003 71792 86903 333 10303 69911 85820 81920 94992 94994 94997 95832 95834 95817 555 82073;
0285670730999992000021100004-18050+044030FM-12+0023FMMO V0209999C000010690019N0200001N1+02451+02351101081ADDAA199000091GA1011+006009099GA2031+006009089GA3051+069009029GF105991031091008001031061MA1999999100821MD1610071+9999MW1131REMSYN134AAXX  11004 67073 31570 50000 10245 20235 30082 40108 56007 713// 83936 333 0//00 83820 81920 85273 94965 94967 95815 95817 555 82360;EQDQ01  00002PRCP99
0322670730999992000021106004-18050+044030FM-12+0023FMMO V0200201N005110690019N0400001N1+02801+02461101201ADDAA124000191GA1011+006909099GA2031+006909089GA3081+069009029GF108991031091008001031071IA2240+02309KA1120M+03031KA2120N+02351MA1999999100941MD1110081+9999REMSYN158AAXX  11064 67073 12582 80210 10280 20246 30094 40120 51008 69914 83937 333 02319 10303 20235 50//4 55/// 83823 81923 88273 94961 94965 94967 95815 555 81360;
0251670730999992000021109004-18050+044030FM-12+0023FMMO V0202801N00511007501CN0150001N1+03021+02601101131ADDAA199000091AY121031AY221031GA1011+030009039GF108991051091008001031081MA1999999100871MD1810071+9999MW1151REMSYN116AAXX  11094 67073 31565 82810 10302 20260 30087 40113 58007 71522 85938 333 85823 82923 94979 95839 555 81360 83273;EQDQ01  00002PRCP99
0276670730999992000021115004-18050+044030FM-12+0023FMMO V0203001N003610690019N0300001N1+02881+02461100971ADDAA199000091GA1011+006909099GA2041+006909089GA3081+069009029GF108991041091008001001071KA1120M+03071MA1999999100711MD1310021+9999REMSYN118AAXX  11154 67073 32580 83007 10288 20246 30071 40097 53002 84907 333 10307 84823 81923 88273 94961 94962 94963 95812;EQDQ01  00002PRCP99
0238670730999992000021203004-18050+044030FM-12+0023FMMO V0200801N00211007501CN0300001N1+02401+02311101121ADDAA112000391AY161031AY221031GA1011+006009099GA2031+006009089GF107991061091008001001031MA1999999100861MD1310021+9999MW1031REMSYN106AAXX  12034 67073 21580 70804 10240 20231 30086 40112 53002 70362 86903 333 69932 83820 81920 94993 95813;
0334670730999992000021206004-18050+044030FM-12+0023FMMO V0200201N00311009001CN0350001N1+02831+02621101241ADDAA124000391AC11I9AY161061AY221061GA1011+006009099GA2041+006009089GA3031+009009069GF106991061091008001001001IA2240+02309KA1120M+03071KA2120N+02311MA1999999100981MD1010121+9999MW1011REMSYN142AAXX  12064 67073 11581 60206 10283 20262 30098 40124 50012 69934 70162 86900 333 02315 10307 20231 50//4 55/// 84820 81920 83630 94995 95815;
0275670730999992000021209004-18050+044030FM-12+0023FMMO V0203201N004610060019N0200001N1+03101+02671101151ADDAA199000091AY121031AY221031GA1011+006009099GA2051+006009089GF107991061091008001001031MA1999999100891MD1810091+9999MW1151REMSYN124AAXX  12094 67073 31570 73209 10310 20267 30089 40115 58009 71522 86903 333 85820 81920 94992 94995 94997 95832 95815 95817;EQDQ01  00002PRCP99
0301670730999992000021212004-18050+044030FM-12+0023FMMO V0209999C00001009001CN0150001N1+02801+02581101011ADDAA199000091AY121061AY221061GA1011+006009099GA2041+006009089GA3031+009009069GF107991061091008001001031MA1999999100751MD1610141+9999MW1151REMSYN134AAXX  12124 67073 31565 70000 10280 20258 30075 40101 56014 71522 86903 333 0//00 84820 81920 83630 94992 94994 95812 95814 555 82073;EQDQ01  00002PRCP99
0301670730999992000021215004-18050+044030FM-12+0023FMMO V0209999C000010090019N0300001N1+02821+02631101021ADDAA106000291AY161031AY221031GA1011+006009099GA2031+006009089GA3031+009009069GF107991061091008001001031KA1120M+03131MA1999999100761MD1310011+9999MW1021REMSYN140AAXX  12154 67073 21580 70000 10282 20263 30076 40102 53001 70262 86903 333 10313 69921 83820 81920 83630 94992 94994 95812 95814 555 82073;
0273670730999992000021300004-18050+044030FM-12+0023FMMO V0209999C000010690019N0250001N1+02521+02461101011ADDAA199000091GA1011+006009099GA2021+006009089GA3051+069009029GF105991021091008001031061MA1999999100751MD1710131+9999MW1131REMSYN122AAXX  13004 67073 31575 50000 10252 20246 30075 40101 57013 713// 82936 333 0//00 82820 81920 85273 94965 95815 555 81360;EQDQ01  00002PRCP99
0295670730999992000021303004-18050+044030FM-12+0023FMMO V0209999C000010300019N0350001N1+02481+02441101031ADDAA199000091GA1011+006009099GA2021+006009089GA3031+009909069GA4061+030009039GF108991031091008001051081MA1999999100771MD1310021+9999REMSYN134AAXX  13034 67073 32581 80000 10248 20244 30077 40103 53002 83958 333 82820 81920 83633 86360 94965 94966 94967 95815 95816 555 82273;EQDQ01  00002PRCP99
0343670730999992000021306004-18050+044030FM-12+0023FMMO V0200201N002610450019N0250001N1+02731+02521101191ADDAA199000091AY121061AY221061GA1021+030009039GF108991031091008001031081IA2240+02309KA1120M+03131KA2120N+02471MA1999999100931MD1110161+9999MW1151REMSYN170AAXX  13064 67073 31575 80205 10273 20252 30093 40119 51016 71522 83938 333 02300 10313 20247 50//4 55/// 82820 81920 83630 94965 94966 94967 95816 95817 555 82360 81273;EQDQ01  00002PRCP99
0275670730999992000021309004-18050+044030FM-12+0023FMMO V0202801N004110450019N0250001N1+03021+02581101091ADDAA199000091AY121031AY221031GA1021+030009039GF108991041091008001031061MA1999999100831MD1810101+9999MW1151REMSYN140AAXX  13094 67073 31575 82808 10302 20258 30083 40109 58010 71522 84936 333 84820 81920 94961 94965 94966 94967 95836 95837 555 82360 82273;EQDQ01  00002PRCP99
0250670730999992000021312004-18050+044030FM-12+0023FMMO V0201601N002110450019N0100001N1+02311+02301100911ADDAA106025991AC13C9AY191061AY221061GA1021+006009099GA2041+006009089GF108991031091008001031061MA1999999100651MD1810181+9999MW1951REMSYN112AAXX  13124 67073 11560 81604 10231 20230 30065 40091 58018 60261 79592 83936 333 0//13 84820 82920 94979 95839;
0182670730999992000021400004-18050+044030FM-12+0023FMMO V0209999C000010120019N0300001N1+02501+02461100921ADDAA199000021GA1021+006009089GF105991051081008001001021MA1999999100661MD1610171+9999REMSYN088AAXX  14004 67073 33580 50000 10250 20246 30066 40092 56017 85802 333 0//00 82820 84640;
0195670730999992000021403004-18050+044030FM-12+0023FMMO V0209999C000010120019N0300001N1+02441+02401100991ADDAA199000091GA1021+006009089GF106991061081008001001021MA1999999100721MD1310071+9999REMSYN082AAXX  14034 67073 32580 60000 10244 20240 30072 40099 53007 86802 333 82820 85640;EQDQ01  00002PRCP99
0244670730999992000021406004-18050+044030FM-12+0023FMMO V0209999C000010450019N0400001N1+03001+02641101021ADDAA124025991GA1021+006909029GF105991031081008001031021IA2240+02409KA1120M+03131KA2120N+02411MA1999999100761MD1110031+9999REMSYN112AAXX  14064 67073 12582 50000 10300 20264 30076 40102 51003 60264 83832 333 02429 10313 20241 50//4 55/// 82823;
0189670730999992000021409004-18050+044030FM-12+0023FMMO V0202601N004112200019N0400001N1+03071+02581100871ADDAA199000091GA1031+006909029GF104991031021008001031021MA1999999100701MD1610061+9999REMSYN076AAXX  14094 67073 32582 42608 10307 20258 30070 40087 56006 83232 333 83823;EQDQ01  00002PRCP99
0279670730999992000021412004-18050+044030FM-12+0023FMMO V0202601N004612200019N0300001N1+03141+02591100711ADDAA199000091AY111061AY211061GA1011+006909099GA2031+006909089GF103991031091008001001021MA1999999100451MD1610251+9999MW1171REMSYN128AAXX  14124 67073 31580 32609 10314 20259 30045 40071 56025 71711 83902 333 0//00 83823 81923 94992 94993 95812 95813 555 81073;EQDQ01  00002PRCP99
0270670730999992000021415004-18050+044030FM-12+0023FMMO V0202201N002612200019N0300001N1+03051+02551100721ADDAA199000091AY191031AY201031GA1011+009009069GF104991031091008001001031KA1120M+03171MA1999999100461MD1310011+9999MW1171REMSYN122AAXX  14154 67073 31580 42205 10305 20255 30046 40072 53001 71790 83903 333 10317 83820 81920 94992 95812 555 81630 81073;EQDQ01  00002PRCP99
0254670730999992000021503004-18050+044030FM-12+0023FMMO V0200401N00261002101CN0100001N1+02361+02321101001ADDAA112000391AY191031GA1011+030009049GF108991051091002501071081MA1999999100741MD1310121+9999MW1601REMSYN146AAXX  15034 67073 21360 80405 10236 20232 30074 40100 53012 7609/ 85978 333 69932 81707 83820 81920 85633 94966 94967 95816 95817 555 81460 82273;
0378670730999992000021506004-18050+044030FM-12+0023FMMO V0200401N002610300019N0300001N1+02581+02381101071ADDAA124000891AC12C9AY191061AY261061GA1011+006009099GA2021+006009089GA3031+030009049GA4051+069009029GF108991021091008001071051IA2240+02309KA1120M+03171KA2120N+02321MA1999999100811MD1110071+9999MW1021REMSYN170AAXX  15064 67073 11580 80405 10258 20238 30081 40107 51007 69984 70296 82975 333 02312 10317 20232 50//4 55/// 82820 81920 83460 85273 94966 94967 95816 95817 555 81630;
0186670730999992000021509004-18050+044030FM-12+0023FMMO V0202601N00361007501CN0400001N1+02971+02521101031ADDAA199000021GA1021+030009039GF108991051021008001031081MA1999999100771MD1810041+9999REMSYN092AAXX  15094 67073 32582 82607 10297 20252 30077 40103 58004 85238 333 85820 555 82360 83273;
0244670730999992000021512004-18050+044030FM-12+0023FMMO V0202801N003610690019N0400001N1+03001+02561100801ADDAA199000021GA1011+006009099GA2031+006009089GA3081+069009029GF108991031091008001081071MA1999999100541MD1610231+9999REMSYN118AAXX  15124 67073 32582 82807 10300 20256 30054 40080 56023 83987 333 0//00 83820 81920 88273 94961 94968 95871 95878;
0273670730999992000021515004-18050+044030FM-12+0023FMMO V0202601N003610690019N0250001N1+03001+02561100741ADDAA199000021AY121031AY221031GA1011+006009099GA2011+006009089GA3051+069009029GF105991011091008001031081KA1120M+03081MA1999999100481MD1610061+9999MW1171REMSYN112AAXX  15154 67073 31575 52607 10300 20256 30048 40074 56006 71722 81938 333 10308 81820 81920 85273 94961 95831;
0263670730999992000021600004-18050+044030FM-12+0023FMMO V02099999999990090019N0300001N1+02571+02511100931ADDAA199000091GA1011+006009099GA2031+006009089GA3031+009009069GF105991051091008001001001MA1999999100671MD1610071+9999MW1131REMSYN112AAXX  16004 67073 31580 5//05 10257 20251 30067 40093 56007 713// 85900 333 0//00 83820 81920 83630 94994 95814;EQDQ01  00002PRCP99
0234670730999992000021603004-18050+044030FM-12+0023FMMO V0209999C00001007501CN0300001N1+02451+02391101061ADDAA199000091GA1011+006009099GA2031+006009089GF106991061091008001001021MA1999999100801MD1310131+9999REMSYN105AAXX  16034 67073 32580 60000 10245 20239 30080 40106 53013 86902 333 83820 81920 9499 94997 95811 95817;EQDQ01  00002PRCP99
0303670730999992000021606004-18050+044030FM-12+0023FMMO V0201201N002612200019N0400001N1+02911+02471101141ADDAA199000091GA1011+006909099GA2031+006909089GF103991031091008001001001IA2240+02409KA1120M+03081KA2120N+02451MA1999999100881MD1010081+9999REMSYN136AAXX  16064 67073 32582 31205 10291 20247 30088 40114 50008 83900 333 02400 10308 20245 50//4 55/// 83823 81923 94991 94997 95811 95817;EQDQ01  00002PRCP99
0223670730999992000021609004-18050+044030FM-12+0023FMMO V0202401N004112200019N0400001N1+03071+02551101061ADDAA199000091GA1011+006909099GA2041+006909089GF104991041091008001041001MA1999999100801MD1810081+9999REMSYN094AAXX  16094 67073 32582 42408 10307 20255 30080 40106 58008 84940 333 84823 81923 94997 95817;EQDQ01  00002PRCP99
0239670730999992000021612004-18050+044030FM-12+0023FMMO V0202801N005111050019N0400001N1+03071+02601100891ADDAA199000091GA1011+006909099GA2041+006909089GF105991041091008001001021MA1999999100631MD1610171+9999REMSYN110AAXX  16124 67073 32582 52810 10307 20260 30063 40089 56017 84902 333 0//00 84823 81923 94992 95812 555 82073;EQDQ01  00002PRCP99
0264670730999992000021615004-18050+044030FM-12+0023FMMO V0202601N003612200019N0400001N1+03001+02581100821ADDAA199000091GA1011+006009099GA2031+006009089GF103991031091008001001031KA1120M+03111MA1999999100561MD1510071+9999REMSYN122AAXX  16154 67073 32582 32607 10300 20258 30056 40082 55007 83903 333 10311 83820 81920 94962 94963 95812 95813 555 81073;EQDQ01  00002PRCP99
0252670730999992000021703004-18050+044030FM-12+0023FMMO V0200601N00261007501CN0100001N1+02331+02211100781ADDAA112002091AY191031GA1021+009009069GA2011+030009049GF106991051091008001071031MA1999999100521MD1510031+9999MW1951REMSYN128AAXX  17034 67073 21560 60605 10233 20221 30052 40078 55003 7959/ 85973 333 60022 81820 84920 94959 95819 555 82630 81460 82073;
0216670730999992000021709004-18050+044030FM-12+0023FMMO V0202001N004610450019N0400001N1+03021+02581100671ADDAA199000021GA1031+030009039GF105991031091008001031031MA1999999100411MD1810111+9999REMSYN122AAXX  17094 67073 32582 52009 10302 20258 30041 40067 58011 83933 333 83823 81923 94965 94967 95835 95837 555 83360 81073;
0282670730999992000021712004-18050+044030FM-12+0023FMMO V0202201N004610300019N0150001N1+02961+02641100461ADDAA199000021AY111061AY211061GA1011+003009079GA2011+006009099GA3041+006009089GA4061+030009049GF106991041091004501071031MA1999999100201MD1710111+9999MW1151REMSYN118AAXX  17124 67073 31465 62209 10296 20264 30020 40046 57011 71511 84973 333 0//00 81710 84820 81920 86460 94961 95831;
0210670730999992000021809004-18050+044030FM-12+0023FMMO V0202601N006710060019N9999999N1+02921+02671100201ADDAA106001091AY121031AY221031GA1051+006009089GF107991071081008001999999MA1999999099941MD1810061+9999MW1211REMSYN094AAXX  18094 67073 2157/ 72613 10292 20267 39994 40020 58006 72122 878// 333 60011 85820 83630;
0304670730999992000022109004-18050+044030FM-12+0023FMMO V0203601N005710300019N0150001N1+02571+02411100861ADDAA106001091AY161031AY221031GA1031+002109079GA2011+006009099GA3031+006009089GA4081+030009049GF108991031091002501071999MA1999999100621MD1410001+9999MW1151REMSYN140AAXX  21094 67073 21365 83611 10257 20241 30062 40086 54000 71562 8397/ 333 60011 83707 83820 81920 88460 94967 94968 95837 95838 555 82630;
0294670730999992000022112004-18050+044030FM-12+0023FMMO V0203401N003610450019N0100001N1+02441+02411100691ADDAA106005191AC11C9AY161061AY261061GA1021+003009079GA2011+006009099GA3011+006009089GA4031+009009069GF108991031091008001071999MA1999999100431MD1810191+9999MW1611REMSYN124AAXX  21124 67073 11560 83407 10244 20241 30043 40069 58019 60051 76166 8397/ 333 0//51 82710 81920 81820 83630 94961 95811;
0251670730999992000022115004-18050+044030FM-12+0023FMMO V0200401N003110300019N0250001N1+02431+02381100701ADDAA199000021AY121031AY221031GA1011+006009099GA2081+030009049GF108991011091008001071999KA1120M+02751MA1999999100441MD1010011+9999MW1151REMSYN106AAXX  21154 67073 31575 80406 10243 20238 30044 40070 50001 71522 8197/ 333 10275 81920 88460 94941 95811;
0181670730999992000022200004-18050+044030FM-12+0023FMMO V02099999999999999999N0300001N1+02361+02271100761ADDAA199000021GA1011+006009089GF105991999999008001999999MA1999999100501MD1610151+9999REMSYN087AAXX  22004 67073 33580 5//06 10236 20227 30050 40076 56015 8500 333 0//00 81820 85640;
0245670730999992000022203004-18050+044030FM-12+0023FMMO V0200801N004610690019N0350001N1+02351+02251100791ADDAA199000091GA1011+006009099GA2021+006009089GA3031+069009009GF106991031091008001001021MA1999999100531MD1310031+9999REMSYN100AAXX  22034 67073 32581 60809 10235 20225 30053 40079 53003 83902 333 82820 81920 83073 94992 95816;EQDQ01  00002PRCP99
0244670730999992000022206004-18050+044030FM-12+0023FMMO V0200801N003611050019N0350001N1+02681+02421100881ADDAA124005191GA1041+006009029GF106991041081008001001021IA2240+02209KA1120M+02751KA2120N+02321MA1999999100621MD1010091+9999REMSYN112AAXX  22064 67073 12581 60807 10268 20242 30062 40088 50009 60054 84802 333 02219 10275 20232 50//4 55/// 84820;
0217670730999992000022209004-18050+044030FM-12+0023FMMO V0200201N005110120019N0300001N1+02951+02541100841ADDAA199000091GA1041+006009089GA2031+012009069GF107991061081008001001051MA1999999100581MD1810041+9999REMSYN088AAXX  22094 67073 32580 70210 10295 20254 30058 40084 58004 86805 333 84820 83640 85273;EQDQ01  00002PRCP99
0301670730999992000022212004-18050+044030FM-12+0023FMMO V0203601N00621012001CN0250001N1+03001+02491100631ADDAA199000091AY121061AY221061GA1011+006009099GA2041+006009089GA3031+012009069GA4051+069009029GF108991061091008001001051MA1999999100371MD1610211+9999MW1151REMSYN118AAXX  22124 67073 31575 83612 10300 20249 30037 40063 56021 71522 86905 333 0//00 84820 81920 83640 85273 94992 95812;EQDQ01  00002PRCP99
0314670730999992000022215004-18050+044030FM-12+0023FMMO V0200201N003110099019N0250001N1+02741+02431100681ADDAA199000091AY191031AY221031GA1011+006009099GA2031+006009089GA3041+009909069GA4041+069009029GF108991061091008001001051KA1120M+03021MA1999999100421MD1310051+9999MW1151REMSYN118AAXX  22154 67073 31575 80206 10274 20243 30042 40068 53005 71592 86905 333 10302 83820 81920 84633 84273 94992 95812;EQDQ01  00002PRCP99
0294670730999992000022300004-18050+044030FM-12+0023FMMO V0209999999999009001CN0100001N1+02401+02331100811ADDAA106002091AC12C9AY161061AY261061GA1011+002109079GA2011+006009099GA3031+009009069GA4081+030009049GF108991031091002501071999MA1999999100551MD1810111+9999MW1171REMSYN124AAXX  23004 67073 11360 8//07 10240 20233 30055 40081 58011 60021 71766 8397/ 333 0//12 81707 81920 83630 88460 94947 95817;
0282670730999992000022303004-18050+044030FM-12+0023FMMO V0200401N004610090019N0150001N1+02331+02181100901ADDAA112002091AY191031AY261031GA1031+003009079GA2011+006009099GA3061+009009069GF108991031091008001071999MA1999999100601MD1310091+9999MW1171REMSYN134AAXX  23034 67073 21565 80409 10233 20218 30060 40090 53009 71796 8397/ 333 60022 83710 81920 86630 94961 94967 95831 95837 555 82460;
0284670730999992000022306004-18050+044030FM-12+0023FMMO V0200401N00671045001CN0250001N1+02421+02271100981ADDAA112003091AC12C9AY191061AY261061GA1031+009009069GF106991031051008001071001IA2240+02209KA1120M+03021KA2120N+02281MA1999999100721MD1110121+9999MW1151REMSYN124AAXX  23064 67073 11575 60413 10242 20227 30072 40098 51012 60032 71596 83570 333 02212 10302 20228 50//4 55/// 83630 86460;
0307670730999992000022309004-18050+044030FM-12+0023FMMO V0200401N00571009901CN0250001N1+02721+02221100901ADDAA199000091AY121031AY221031GA1011+006009099GA2011+006009089GA3031+009909069GA4061+030009049GF106991031091008001071001MA1999999100641MD1810081+9999MW1151REMSYN124AAXX  23094 67073 31575 60411 10272 20222 30064 40090 58008 71522 83970 333 81820 81920 83633 86460 94966 94967 95836 95837;EQDQ01  00002PRCP99
0279670730999992000022312004-18050+044030FM-12+0023FMMO V0200401N005110090019N0200001N1+02791+02341100861ADDAA199000091AY191061AY221061GA1011+006009099GA2021+006009089GA3081+009009069GF108991081091008001999999MA1999999100601MD1610041+9999MW1291REMSYN112AAXX  23124 67073 31570 80410 10279 20234 30060 40086 56004 72992 889// 333 0//00 82820 81920 88630 94966 95836;EQDQ01  00002PRCP99
0314670730999992000022315004-18050+044030FM-12+0023FMMO V0200201N004110300019N0250001N1+02581+02321100871ADDAA199000091AY191031AY221031GA1011+006009099GA2021+006009089GA3031+012009069GA4061+030009049GF107991031091008001071021KA1120M+02871MA1999999100751MD1310011+9999MW1151REMSYN118AAXX  23154 67073 31575 70208 10258 20232 30075 40087 53001 71592 83972 333 10287 82820 81920 83640 86460 94961 95831;EQDQ01  00002PRCP99
0236670730999992000022400004-18050+044030FM-12+0023FMMO V02099999999990090019N0080001N1+02341+02271100991ADDAA106001091AC11C9AY161061GA1021+006009089GA2051+009009069GF108991051081008001071999MA1999999100731MD1610061+9999MW1611REMSYN106AAXX  24004 67073 11558 8//06 10234 20227 30073 40099 56006 60011 7616/ 8587/ 333 0//11 82820 85630 83360;
0334670730999992000022406004-18050+044030FM-12+0023FMMO V0200201N002610690019N0350001N1+02511+02321101111ADDAA124002091AC11C9AY191061AY261061GA1011+006009099GA2021+006009089GA3031+069009029GF107991031091008001031051IA2240+02209KA1120M+02871KA2120N+02251MA1999999100851MD1110081+9999MW1011REMSYN142AAXX  24064 67073 12581 70205 10251 20232 30085 40111 51008 60024 70196 83935 333 02221 10287 20225 50//4 55/// 82820 81920 83273 94997 95817;
0238670730999992000022409004-18050+044030FM-12+0023FMMO V0200201N003110450019N0300001N1+02751+02361101041ADDAA199000021GA1011+006009099GA2021+006009089GA3031+009909069GF107991041091008001071051MA1999999100781MD1810071+9999REMSYN112AAXX  24094 67073 32580 70206 10275 20236 30078 40104 58007 84975 333 82820 81920 83633 94993 94997 95813 95817;
0254670730999992000022412004-18050+044030FM-12+0023FMMO V0203601N002610099019N0300001N1+02801+02431100981ADDAA199000021GA1011+006009099GA2021+006009089GA3051+009909069GF108991061091008001071999MA1999999100721MD1610061+9999REMSYN128AAXX  24124 67073 32580 83605 10280 20243 30072 40098 56006 8697/ 333 0//00 82820 81920 85633 94993 94997 95813 95817 555 83360;
0286670730999992000022415004-18050+044030FM-12+0023FMMO V0209999C000010300019N0300001N1+02691+02561100961ADDAA199000091GA1011+006009099GA2021+006009089GA3031+009909069GA4051+030009049GF108991041091008001071999KA1120M+02821MA1999999100701MD1510021+9999REMSYN112AAXX  24154 67073 32580 80000 10269 20256 30070 40096 55002 8497/ 333 10282 82820 81920 83633 85460 94996 95816;EQDQ01  00002PRCP99
0236670730999992000022500004-18050+044030FM-12+0023FMMO V0209999999999009001CN0150001N1+02351+02321101021ADDAA106000591AC11C9AY161061GA1021+006009089GA2031+009009069GF106991031081008001071001MA1999999100761MD1810061+9999MW1211REMSYN106AAXX  25004 67073 11565 6//06 10235 20232 30076 40102 58006 69951 7216/ 83870 333 0//11 82820 83630 86460;
0270670730999992000022503004-18050+044030FM-12+0023FMMO V0200401N003110090019N0250001N1+02321+02261101101ADDAA112000591AY121031AY221031GA1011+006009099GA2021+006009089GA3051+009009069GF108991051091008001071999MA1999999100841MD1310081+9999MW1151REMSYN122AAXX  25034 67073 21575 80406 10232 20226 30084 40110 53008 71522 8597/ 333 69952 82820 81920 85630 94945 95815 555 83460;
0356670730999992000022506004-18050+044030FM-12+0023FMMO V0203601N00671006001CN0150001N1+02431+02381101131ADDAA124004191AC11C9AY161061AY261061GA1021+003009079GA2011+006009099GA3021+006009089GA4031+009009069GF108991031091004501071999IA2240+02209KA1120M+02821KA2120N+02301MA1999999100871MD1110031+9999MW1211REMSYN148AAXX  25064 67073 11465 83613 10243 20238 30087 40113 51003 60044 72166 8397/ 333 02211 10282 20230 50//4 55/// 82710 82820 81920 83630 94965 95815;
0256670730999992000022509004-18050+044030FM-12+0023FMMO V0203201N00621002101CN0150001N1+02821+02541101151ADDAA106001091AY181031AY261031GA1011+009009069GF107991051091002501071999MA1999999100891MD1810021+9999MW1151REMSYN140AAXX  25094 67073 21365 73212 10282 20254 30089 40115 58002 71586 8597/ 333 60011 82707 85820 81920 94961 94962 95831 95832 555 81630 83460;
0306670730999992000022512004-18050+044030FM-12+0023FMMO V0203201N006210060019N0250001N1+02821+02481101051ADDAA106001091AC13I9AY181061AY221061GA1011+003009079GA2011+006009099GA3041+006009089GA4061+030009049GF108991061091004501071021MA1999999100791MD1710101+9999MW1151REMSYN136AAXX  25124 67073 11475 83212 10282 20248 30079 40105 57010 60011 71582 86972 333 0//17 81710 84820 81920 86460 94961 94962 95831 95832;
0307670730999992000022515004-18050+044030FM-12+0023FMMO V0203201N00261006001CN0200001N1+02711+02531101081ADDAA199000021AY121031AY221031GA1011+002109079GA2011+006009099GA3031+006009089GA4031+009009069GF108991031091004501071021KA1120M+02971MA1999999100821MD1310031+9999MW1151REMSYN130AAXX  25154 67073 31470 83205 10271 20253 30082 40108 53003 71522 83972 333 10297 81707 83820 81920 83630 94966 94967 95836 95837;
0206670730999992000022600004-18050+044030FM-12+0023FMMO V0209999C00001012001CN0250001N1+02321+02281101011ADDAA106002091AC11C9GA1011+006009089GF105991051081008001001001MA1999999100751MD1610141+9999MW1611REMSYN100AAXX  26004 67073 11575 50000 10232 20228 30075 40101 56014 60021 761// 85800 333 0//11 81820 85633;
0176670730999992000022603004-18050+044030FM-12+0023FMMO V0201001N002612200019N0300001N1+02271+02231101051ADDAA112002091GA1011+006009029GF103991011081008001031021MA1999999100791MD1310041+9999REMSYN082AAXX  26034 67073 22580 31005 10227 20223 30079 40105 53004 81832 333 60022 81820;
0256670730999992000022606004-18050+044030FM-12+0023FMMO V0200201N003112200019N0400001N1+02751+02451101141ADDAA124003091AC12I9GA1011+006009089GF103991011021008001001051IA2240+02209KA1120M+02971KA2120N+02271MA1999999100881MD1110091+9999REMSYN118AAXX  26064 67073 12582 30206 10275 20245 30088 40114 51009 60034 81205 333 02216 10297 20227 50//4 55/// 81820 83273;
0220670730999992000022612004-18050+044030FM-12+0023FMMO V0203601N005112200019N0400001N1+03021+02571100881ADDAA199000021GA1011+006009099GA2041+006009089GF104991041091008001001021MA1999999100621MD1610141+9999REMSYN110AAXX  26124 67073 32582 43610 10302 20257 30062 40088 56014 84902 333 0//00 84820 81920 94994 95814 555 81073;
0254670730999992000022615004-18050+044030FM-12+0023FMMO V0203201N004612200019N0300001N1+02821+02511100801ADDAA199000091GA1011+006009099GA2021+006009089GF103991031091008001001001KA1120M+03051MA1999999100541MD1610081+9999REMSYN112AAXX  26154 67073 32580 33209 10282 20251 30054 40080 56008 83900 333 10305 82820 81920 94992 94993 95812 95813;EQDQ01  00002PRCP99
0211670730999992000022700004-18050+044030FM-12+0023FMMO V0209999C000012200019N0250001N1+02461+02251100901ADDAA199000091GA1011+030009039GF101991011021008001031011MA1999999100641MD1710111+9999REMSYN098AAXX  27004 67073 33575 10000 10246 20225 30064 40090 57011 81231 333 0//00 81820 555 81360 81073;EQDQ01  00002PRCP99
0211670730999992000022703004-18050+044030FM-12+0023FMMO V0209999C00001045001CN0300001N1+02421+02391100941ADDAA199000091GA1011+030009039GF105991031081008001031061MA1999999100681MD1310041+9999REMSYN098AAXX  27034 67073 32580 50000 10242 20239 30068 40094 53004 83836 333 81820 83650 555 81360 82273;EQDQ01  00002PRCP99
0311670730999992000022706004-18050+044030FM-12+0023FMMO V0203601N00311030001CN0350001N1+02781+02581101071ADDAA199000091GA1011+006009099GA2031+006009089GA3051+030009039GF105991031091008001051001IA2240+02309KA1120N+02411MA1999999100811MD1110131+9999REMSYN141AAXX  27064 67073 32581 53606 10278 20258 30081 40107 51013 83950 333 02300 1035 20241 5///4 55/// 83820 81920 85360 94965 94967 95835 95837;EQDQ01  00002PRCP99
0216670730999992000022709004-18050+044030FM-12+0023FMMO V0202601N003110450019N0400001N1+03001+02641100941ADDAA199000091GA1021+999999039GF105991031091008001031001MA1999999100681MD1810131+9999REMSYN103AAXX  27094 67073 32582 52606 10300 20264 30068 40094 58013 83930 333 83820 81920 94963 95833 555 8236;EQDQ01  00002PRCP99
0201670730999992000022712004-18050+044030FM-12+0023FMMO V0202601N00461045001CN0400001N1+03101+02561100711ADDAA199000091GA1021+006009089GF105991021021008001051001MA1999999100451MD1610231+9999REMSYN088AAXX  27124 67073 32582 52609 10310 20256 30045 40071 56023 82250 333 0//00 82820 83360;EQDQ01  00002PRCP99
0304670730999992000022715004-18050+044030FM-12+0023FMMO V0202401N004110300019N0250001N1+02941+02581100581ADDAA199000091AY191031AY221031GA1011+006009099GA2021+006009089GA3031+030009039GF106991031091008001031031KA1120M+03121MA1999999100521MD1110071+9999MW1171REMSYN124AAXX  27154 67073 31575 62408 10294 20258 30052 40058 51007 71792 83933 333 10312 82820 81920 83360 94961 94962 95831 95832;EQDQ01  00002PRCP99
0273670730999992000022803004-18050+044030FM-12+0023FMMO V0203601N001510099019N0150001N1+02541+02481100951ADDAA199000091AY121031AY221031GA1011+006009099GA2031+006009089GA3051+009909069GF107991071091008001999999MA1999999100691MD1310041+9999MW1151REMSYN106AAXX  28034 67073 31565 73603 10254 20248 30069 40095 53004 71522 879// 333 83820 81920 85633 94995 95815;EQDQ01  00002PRCP99
0346670730999992000022806004-18050+044030FM-12+0023FMMO V0200601N002110090019N0200001N1+02561+02501101171ADDAA124001091AC11C9AY161061AY221061GA1011+006009099GA2031+006009089GA3051+009009069GF107991071091008001999999IA2240+02409KA1120M+03121KA2120N+02501MA1999999100911MD1110221+9999MW1211REMSYN154AAXX  28064 67073 11570 70604 10256 20250 30091 40117 51022 60014 72162 879// 333 02411 10312 20250 50//4 55/// 83820 81920 85630 94992 94997 95812 95817;
0254670730999992000022809004-18050+044030FM-12+0023FMMO V0200201N00571009001CN0150001N1+02741+02511101161ADDAA199000021AY121031AY221031GA1011+006009099GA2041+006009089GA3041+009009069GF107991071091008001999999MA1999999100901MD1810011+9999MW1151REMSYN106AAXX  28094 67073 31565 70211 10274 20251 30090 40116 58001 71522 879// 333 84820 81920 84630 94991 95811;
0232670730999992000022812004-18050+044030FM-12+0023FMMO V0203401N004112200019N0400001N1+03201+02391100851ADDAA199000021GA1011+006909099GA2021+006909089GA3031+012009069GF104991041091008001001001MA1999999100591MD1710311+9999REMSYN106AAXX  28124 67073 32582 43408 10320 20239 30059 40085 57031 84900 333 0//00 82823 81923 83640 94991 95811;
0233670730999992000022815004-18050+044030FM-12+0023FMMO V0203001N002112200019N0350001N1+02981+02531100891ADDAA199000021GA1011+006909099GA2021+006909089GF103991031091008001001001KA1120M+03221MA1999999100631MD1310041+9999REMSYN110AAXX  28154 67073 32581 33004 10298 20253 30063 40089 53004 83900 333 10322 82823 81923 94993 95813 555 82640;
0195670730999992000022900004-18050+044030FM-12+0023FMMO V0209999C000012200019N0250001N1+02501+02431100861ADDAA199000091GA1021+030009079GF102991021001999999031001MA1999999100601MD1610121+9999REMSYN082AAXX  29004 67073 33975 20000 10250 20243 30060 40086 56012 82030 333 0//00 82360;EQDQ01  00002PRCP99
0211670730999992000022903004-18050+044030FM-12+0023FMMO V0209999C00001012001CN0300001N1+02481+02461100931ADDAA199000091GA1011+030009039GF106991061081008001031061MA1999999100671MD1310071+9999REMSYN098AAXX  29034 67073 32580 60000 10248 20246 30067 40093 53007 86836 333 82820 86630 555 81360 81273;EQDQ01  00002PRCP99
0289670730999992000022906004-18050+044030FM-12+0023FMMO V0200201N002610690019N0400001N1+02981+02501101111ADDAA199000091GA1041+006909089GA2051+069009029GF105991041021008001051061IA2240+02409KA1120M+03221KA2120N+02481MA1999999100851MD1210181+9999REMSYN122AAXX  29064 67073 32582 50205 10298 20250 30085 40111 52018 84256 333 02400 10322 20248 50//4 55/// 84823 85273 555 82360;EQDQ01  00002PRCP99
0229670730999992000022909004-18050+044030FM-12+0023FMMO V0203001N00461007501CN0400001N1+03161+02581101031ADDAA199000091GA1011+030009039GF108991051091008001031081MA1999999100771MD1810081+9999REMSYN116AAXX  29094 67073 32582 83009 10316 20258 30077 40103 58008 85938 333 85823 81923 94965 94966 95836 555 81360 83273;EQDQ01  00002PRCP99
0269670730999992000022912004-18050+044030FM-12+0023FMMO V0203001N004610450019N0150001N1+03001+02581100861ADDAA199000091AY191061AY221061GA1011+006909099GA2041+006909089GF105991041091008001061031MA1999999100601MD1710171+9999MW1171REMSYN118AAXX  29124 67073 31565 53009 10300 20258 30060 40086 57017 71792 84963 333 0//00 84823 81923 94962 94963 95832 95833;EQDQ01  00002PRCP99
0304670730999992000022915004-18050+044030FM-12+0023FMMO V0202801N00311105001CN0200001N1+02881+02581100881ADDAA199000091AY191031AY291031GA1011+006009099GA2011+006009089GA3031+030009039GF105991021091008001061031KA1120M+03241MA1999999100621MD1310021+9999MW1291REMSYN124AAXX  29154 67073 31570 52806 10288 20258 30062 40088 53002 72999 82963 333 10324 81820 81920 83360 94961 94962 95811 95812;EQDQ01  00002PRCP99
0195670730999992000030103004-18050+044030FM-12+0023FMMO V0209999C00001105001CN0350001N1+02521+02481100961ADDAA199000091GA1021+006009089GF105991021021008001001021MA1999999100701MD1310041+9999REMSYN082AAXX  01034 67073 32581 50000 10252 20248 30070 40096 53004 82202 333 82820 84073;EQDQ01  00002PRCP99
0263670730999992000030106004-18050+044030FM-12+0023FMMO V0201401N00211105001CN0400001N1+02941+02611101081ADDAA199000091GA1031+006009089GF105991031021008001001021IA2240+02409KA1120M+03241KA2120N+02521MA1999999100821MD1110121+9999REMSYN112AAXX  01064 67073 32582 51404 10294 20261 30082 40108 51012 83202 333 02400 10324 20252 50//4 55/// 83820 83073;EQDQ01  00002PRCP99
0239670730999992000030112004-18050+044030FM-12+0023FMMO V0202201N004612200019N0400001N1+03141+02671100681ADDAA199000091GA1011+006909099GA2031+006909089GF104991031091008001001021MA1999999100421MD1610251+9999REMSYN110AAXX  01124 67073 32582 42209 10314 20267 30042 40068 56025 83902 333 0//00 83823 81923 94991 95811 555 82073;EQDQ01  00002PRCP99
0260670730999992000030206004-18050+044030FM-12+0023FMMO V0209999C000010450019N0400001N1+02901+02651100871ADDAA124004191GA1021+012009069GF105991021081008001031001IA2240+02209KA1120M+03181KA2120N+02331MA1999999100611MD1110121+9999REMSYN128AAXX  02064 67073 12582 50000 10290 20265 30061 40087 51012 60044 82830 333 02219 10318 20233 50//4 55/// 81823 555 82640 83360;
0229670730999992000030212004-18050+044030FM-12+0023FMMO V0202601N005110069019N0400001N1+03081+02721100571ADDAA199000091GA1011+006909099GA2041+006909089GF108991051091008001031021MA1999999100311MD1610291+9999REMSYN100AAXX  02124 67073 32582 82610 10308 20272 30031 40057 56029 85932 333 0//00 84823 81923 94993 95813;EQDQ01  00002PRCP99
0270670730999992000030215004-18050+044030FM-12+0023FMMO V0202201N002110450019N0300001N1+02961+02631100651ADDAA199000091AY191031AY221031GA1011+006009099GA2041+006009089GF107991041091008001071031KA1120M+03201MA1999999100391MD1310081+9999MW1021REMSYN106AAXX  02154 67073 31580 72204 10296 20263 30039 40065 53008 70292 84973 333 10320 84820 81920 94992 95812;EQDQ01  00002PRCP99
0205670730999992000030221004-18050+044030FM-12+0023FMMO V0209999C000012200019N0300001N1+02611+02541100701ADDAA199000091GA1011+069009019GF101991001001999999001021MA1999999100441MD1110021+9999REMSYN076AAXX  02214 67073 33980 10000 10261 20254 30044 40070 51002 81002 333 81073;EQDQ01+000012SCOTLCQ02  00002PRCP99
0211670730999992000030300004-18050+044030FM-12+0023FMMO V0209999C000012200019N0300001N1+02601+02541100561ADDAA199000091GA1011+069009019GF101991001001999999001021MA1999999100301MD1610141+9999REMSYN082AAXX  03004 67073 32580 10000 10260 20254 30030 40056 56014 80002 333 0//00 81073;EQDQ01+008002SCOLCBQ02  00002PRCP99
0217670730999992000030303004-18050+044030FM-12+0023FMMO V0209999C000010060019N0200001N1+02811+02631100521ADDAA199000091AY111031AY201031GA1051+006009029GF106991061081008001001001MA1999999100261MD1510041+9999MW1151REMSYN082AAXX  03034 67073 31570 60000 10281 20263 30026 40052 55004 71510 86800 333 85820;EQDQ01  00002PRCP99
0257670730999992000030306004-18050+044030FM-12+0023FMMO V0202601N003110450019N0300001N1+02981+02731100711ADDAA199000091GA1031+006009029GF106991041081008001031021IA2240+02509KA1120M+03201KA2120N+02571MA1999999100451MD1110191+9999REMSYN106AAXX  03064 67073 32580 62606 10298 20273 30045 40071 51019 84832 333 02500 10320 20257 50//4 55/// 83820;EQDQ01  00002PRCP99
0235670730999992000030309004-18050+044030FM-12+0023FMMO V0202201N003611050019N0300001N1+03181+02661100591ADDAA199000091GA1011+006009099GA2041+006009089GF105991041091008001001021MA1999999100331MD1810121+9999REMSYN106AAXX  03094 67073 32580 52207 10318 20266 30033 40059 58012 84902 333 84820 81920 94991 94992 95811 95812;EQDQ01  00002PRCP99
0229670730999992000030312004-18050+044030FM-12+0023FMMO V0202401N00411007501CN0250001N1+03211+02821100431ADDAA199000091GA1011+012009069GF106991061091008001001021MA1999999100171MD1810161+9999REMSYN116AAXX  03124 67073 31575 62408 10321 20282 30017 40043 58016 86902 333 0//00 85820 81920 94991 95811 555 81640 81073;EQDQ01  00002PRCP99
0304670730999992000030315004-18050+044030FM-12+0023FMMO V0203601N00211009001CN0150001N1+02661+02371100671ADDAA199000091AY191031AY221031GA1011+006009099GA2041+006009089GA3031+009009069GF107991071091008001999999KA1120M+03231MA1999999100411MD1310241+9999MW1171REMSYN124AAXX  03154 67073 31565 73604 10266 20237 30041 40067 53024 71792 879// 333 10323 84820 81920 83630 94991 94992 95871 95872;EQDQ01  00002PRCP99
0192670730999992000030403004-18050+044030FM-12+0023FMMO V0209999999999012001CN0300001N1+02411+02351100761ADDAA112039091GA1021+009009069GF106991061081008001001021MA1999999100501MD1310091+9999REMSYN098AAXX  04034 67073 23580 6//03 10241 20235 30050 40076 53009 86802 333 60392 84820 555 82630 81073;
0282670730999992000030406004-18050+044030FM-12+0023FMMO V0203601N002610450019N0400001N1+02871+02611100931ADDAA124039191GA1011+012009069GA2011+030009039GF105991031081008001031021IA2240+02209KA1120M+03231KA2120N+02301MA1999999100671MD1110171+9999REMSYN134AAXX  04064 67073 12582 53605 10287 20261 30067 40093 51017 60394 83832 333 02289 10323 20230 50//4 55/// 83823 555 81640 81360 81073;
0195670730999992000030503004-18050+044030FM-12+0023FMMO V0200201N00211012001CN0300001N1+02531+02461100981ADDAA199000091GA1041+006009089GF107991061081008001001021MA1999999100721MD1310091+9999REMSYN082AAXX  05034 67073 33580 70204 10253 20246 30072 40098 53009 86802 333 84820 83633;EQDQ01  00002PRCP99
0257670730999992000030506004-18050+044030FM-12+0023FMMO V0203601N003610060019N0400001N1+02961+02601101141ADDAA199000091GA1061+006009029GF106991061021008001001021IA2240+02409KA1120M+03121KA2120N+02531MA1999999100881MD1110161+9999REMSYN106AAXX  05064 67073 32582 63607 10296 20260 30088 40114 51016 86202 333 02400 10312 20253 50//4 55/// 86820;EQDQ01  00002PRCP99
0232670730999992000030603004-18050+044030FM-12+0023FMMO V0200201N002110450019N0300001N1+02611+02551100901ADDAA112000191GA1011+009009069GA2011+030009039GF106991041091008001031021MA1999999100641MD1310021+9999REMSYN122AAXX  06034 67073 23580 60204 10261 20255 30064 40090 53002 84932 333 69912 84820 81920 94993 95813 555 81630 81360 81073;
0306670730999992000030606004-18050+044030FM-12+0023FMMO V0200201N003110450019N0250001N1+02741+02641101051ADDAA124000191AY121061AY221061GA1031+030009039GF107991041091008001031031IA2240+02509KA1120M+03121KA2120N+02611MA1999999100791MD1110151+9999MW1151REMSYN152AAXX  06064 67073 11575 70206 10274 20264 30079 40105 51015 69914 71522 84933 333 02519 10312 20261 5///4 55/// 84820 81920 94994 95814 555 83360 82073;
0235670730999992000030609004-18050+044030FM-12+0023FMMO V0203601N00361007501CN0300001N1+02941+02521101041ADDAA199000091GA1011+030009039GF107991061091008001031031MA1999999100781MD1810011+9999REMSYN122AAXX  06094 67073 32580 73607 10294 20252 30078 40104 58001 86933 333 86820 81920 94993 94995 95813 95815 555 81360 82073;EQDQ01  00002PRCP99
0275670730999992000030612004-18050+044030FM-12+0023FMMO V0203201N00311069001CN0300001N1+02991+02561100871ADDAA199000091GA1011+006009099GA2041+006009089GA3031+069009029GF107991051091008001071051MA1999999100611MD1610171+9999REMSYN130AAXX  06124 67073 32580 73206 10299 20256 30061 40087 56017 85975 333 0//00 84820 81920 83273 94992 94994 94997 95812 95814 95817;EQDQ01  00002PRCP99
0282670730999992000030615004-18050+044030FM-12+0023FMMO V0203201N00211030001CN0300001N1+02821+02511100841ADDAA199000091GA1011+006009099GA2041+006009089GA3031+030009049GF107991051091008001071999KA1120M+03031MA1999999100581MD1510031+9999REMSYN124AAXX  06154 67073 32580 73204 10282 20251 30058 40084 55003 8597/ 333 10303 84820 81920 83460 94992 94995 95812 95814 95815;EQDQ01  00002PRCP99
0279670730999992000030712004-18050+044030FM-12+0023FMMO V0203401N005711050019N0250001N1+03101+02721100871ADDAA199000091AY121061AY221061GA1011+006909099GA2041+006909089GF105991041091008001001031MA1999999100611MD1610131+9999MW1171REMSYN128AAXX  07124 67073 31575 53411 10310 20272 30061 40087 56013 71722 84903 333 0//00 84823 81923 94991 94993 95811 95833 555 82073;EQDQ01  00002PRCP99
0270670730999992000030715004-18050+044030FM-12+0023FMMO V0203201N00461007501CN0200001N1+02921+02661100911ADDAA199000091AY191031AY291031GA1021+009009069GF107991051091008001001031KA1120M+03191MA1999999100651MD1310041+9999MW1171REMSYN122AAXX  07154 67073 31570 73209 10292 20266 30065 40091 53004 71799 85903 333 10319 84820 81920 94992 95832 555 82630 82073;EQDQ01  00002PRCP99
0310670730999992000030806004-18050+044030FM-12+0023FMMO V0200201N004112200019N0400001N1+02851+02381101151ADDAA124040991GA1011+006909099GA2011+006909089GA3031+069009009GF104991011091008001031021IA2240+02109KA1120M+03191KA2120N+02271MA1999999100891MD1010051+9999REMSYN146AAXX  08064 67073 12582 40208 10285 20238 30089 40115 50005 60414 81932 333 02119 10319 20227 50//4 55/// 81823 81923 83073 94996 95816 555 81360;
0205670730999992000030809004-18050+044030FM-12+0023FMMO V0200601N003612200019N0400001N1+03131+02371101021ADDAA199000091GA1011+030009039GF104991021021008001031021MA1999999100761MD1710131+9999REMSYN092AAXX  08094 67073 32582 40607 10313 20237 30076 40102 57013 82232 333 82823 555 81360 82073;EQDQ01  00002PRCP99
0257670730999992000030812004-18050+044030FM-12+0023FMMO V0203201N003110069019N0200001N1+03141+02551100941ADDAA199000091AY111061AY201061GA1011+006909099GA2051+006909089GF106991061091008001001021MA1999999100681MD1610081+9999MW1151REMSYN106AAXX  08124 67073 31570 63206 10314 20255 30068 40094 56008 71510 86902 333 0//00 85823 81923 94997 95817;EQDQ01  00002PRCP99
0279670730999992000030815004-18050+044030FM-12+0023FMMO V0202001N00211009901CN0200001N1+02721+02411101101ADDAA106000291AY191031AY291031GA1011+006009099GA2041+006009089GA3031+009909069GF106991061091008001001031KA1120M+03321MA1999999100841MD1310161+9999MW1171REMSYN118AAXX  08154 67073 21570 62004 10272 20241 30084 40110 53016 71799 86903 333 10332 69921 84820 81920 83633 94994 95814;
0195670730999992000030903004-18050+044030FM-12+0023FMMO V0201201N001512200019N0300001N1+02401+02311101111ADDAA199000091GA1021+006009089GF104991041081008001001021MA1999999100851MD1310031+9999REMSYN082AAXX  09034 67073 33580 41203 10240 20231 30085 40111 53003 84802 333 82820 82633;EQDQ01  00002PRCP99
0278670730999992000030906004-18050+044030FM-12+0023FMMO V0200201N003612200019N0400001N1+02941+02431101221ADDAA124000191GA1011+006909099GA2021+006909089GF102991021091008001031001IA2240+02309KA1120M+03321KA2120N+02391MA1999999100961MD1010111+9999REMSYN130AAXX  09064 67073 12582 20207 10294 20243 30096 40122 50011 69924 82930 333 02319 10332 20239 50//4 55/// 82823 81923 94997 95817;
0223670730999992000030909004-18050+044030FM-12+0023FMMO V0203201N002112200019N0400001N1+03101+02391101121ADDAA199000091GA1011+006909099GA2041+006909089GF104991041091008001001001MA1999999100861MD1810101+9999REMSYN094AAXX  09094 67073 32582 43204 10310 20239 30086 40112 58010 84900 333 84823 81923 94995 95815;EQDQ01  00002PRCP99
0267670730999992000030912004-18050+044030FM-12+0023FMMO V0203001N004111050019N0250001N1+02971+02551101001ADDAA199000091AY111061AY201061GA1011+006909099GA2041+006909089GF105991041091008001001021MA1999999100741MD1610121+9999MW1171REMSYN116AAXX  09124 67073 31575 53008 10297 20255 30074 40100 56012 71710 84902 333 0//00 84823 81923 94993 95833 555 82073;EQDQ01  00002PRCP99
0257670730999992000030915004-18050+044030FM-12+0023FMMO V0203201N00261007501CN0200001N1+02751+02581101071ADDAA106005091AY191031AY291031GA1021+009909069GF106991051091008001001031KA1120M+03131MA1999999100811MD1310071+9999MW1171REMSYN128AAXX  09154 67073 21570 63205 10275 20258 30081 40107 53007 71799 85903 333 10313 60051 84820 81920 94991 95811 555 82633 81073;
0244670730999992000031003004-18050+044030FM-12+0023FMMO V0200201N004110090019N0100001N1+02321+02251101161ADDAA112003091GA1011+006009099GA2021+006009089GA3061+009009069GF107991071091008001999999MA1999999100901MD1310111+9999MW1951REMSYN112AAXX  10034 67073 21560 70208 10232 20225 30090 40116 53011 795// 879// 333 60032 82820 81920 86630 94996 95816;
0312670730999992000031006004-18050+044030FM-12+0023FMMO V0200801N003112200019N0400001N1+02771+02381101221ADDAA124008991AC12C9AY191061AY261061GA1011+030009039GF104991031091008001031031IA2240+02109KA1120M+03131KA2120N+02291MA1999999100961MD1010061+9999MW1011REMSYN152AAXX  10064 67073 11582 40806 10277 20238 30096 40122 50006 60094 70196 83933 333 02112 10313 20229 50//4 55/// 83823 81923 94995 95816 555 81360 81073;
0214670730999992000031009004-18050+044030FM-12+0023FMMO V0200201N004112200019N0400001N1+03111+02381101081ADDAA199000021GA1011+006909099GA2031+006909089GF103991031091008001001031MA1999999100821MD1810141+9999REMSYN104AAXX  10094 67073 32582 30208 10311 20238 30082 40108 58014 83903 333 83823 81923 94996 95816 555 81073;
0251670730999992000031015004-18050+044030FM-12+0023FMMO V0203201N002612200019N0200001N1+02941+02581101011ADDAA199000021AY191031AY201031GA1011+006009099GA2031+006009089GF103991031091008001001001KA1120M+03261MA1999999100751MD1310101+9999MW1171REMSYN106AAXX  10154 67073 31570 33205 10294 20258 30075 40101 53010 71790 83900 333 10326 83820 81920 94991 95831;
0210670730999992000031103004-18050+044030FM-12+0023FMMO V0209999C000012200019N0300001N1+02241+02161101181ADDAA112006091GA1011+006009099GA2011+006009089GF103991011091008001031021MA1999999100921MD1310081+9999REMSYN100AAXX  11034 67073 23580 30000 10224 20216 30092 40118 53008 81932 333 60062 81820 81920 94996 95816;
0278670730999992000031106004-18050+044030FM-12+0023FMMO V0201001N002612200019N0400001N1+02851+02501101291ADDAA124006191GA1011+006909099GA2011+006909089GF101991011091008001031021IA2240+02209KA1120M+03261KA2120N+02211MA1999999101031MD1110111+9999REMSYN130AAXX  11064 67073 12582 11005 10285 20250 30103 40129 51011 60064 81932 333 02229 10326 20221 50//4 55/// 81823 81923 94996 95816;
0269670730999992000031203004-18050+044030FM-12+0023FMMO V0209999C000010090019N0200001N1+02401+02361101271ADDAA199000091GA1011+006009099GA2031+006009089GA3051+009009069GF107991071091008001999999MA1999999101011MD1310171+9999MW1171REMSYN118AAXX  12034 67073 31570 70000 10240 20236 30101 40127 53017 717// 879// 333 83820 81920 85630 94994 94996 95834 95836;EQDQ01  00002PRCP99
0312670730999992000031206004-18050+044030FM-12+0023FMMO V0209999C000011050019N0300001N1+02541+02481101411ADDAA124000191AC13C9AY191061AY261061GA1011+009009069GF105991031091008001001031IA2240+02309KA1120M+03201KA2120N+02401MA1999999101151MD1110141+9999MW1011REMSYN152AAXX  12064 67073 11580 50000 10254 20248 30115 40141 51014 69924 70196 83903 333 02313 10320 20240 50//4 55/// 83820 81920 94995 95835 555 81630 82073;
0257670730999992000031303004-18050+044030FM-12+0023FMMO V0201001N002110090019N0200001N1+02431+02371101161ADDAA199000091GA1011+006009099GA2031+006009089GA3051+009009069GF107991071091008001999999MA1999999100901MD1310071+9999MW1151REMSYN106AAXX  13034 67073 31570 71004 10243 20237 30090 40116 53007 715// 879// 333 83820 81920 85630 94991 95831;EQDQ01  00002PRCP99
0325670730999992000031306004-18050+044030FM-12+0023FMMO V0200201N00571007501CN0250001N1+02651+02441101321ADDAA199000091AY121061AY221061GA1011+006009099GA2031+006009089GF106991061091008001001001IA2240+02409KA1120M+03101KA2120N+02431MA1999999101061MD1110161+9999MW1151REMSYN136AAXX  13064 67073 31575 60211 10265 20244 30106 40132 51016 71522 86900 333 02400 10310 20243 50//4 55/// 83820 81920 94991 94996 95811;EQDQ01  00002PRCP99
0189670730999992000031309004-18050+044030FM-12+0023FMMO V0200201N003112200019N0400001N1+03031+02571101141ADDAA199000091GA1031+006909029GF103991031011008001031001MA1999999100881MD1810181+9999REMSYN076AAXX  13094 67073 32582 30206 10303 20257 30088 40114 58018 83130 333 83823;EQDQ01  00002PRCP99
0245670730999992000031403004-18050+044030FM-12+0023FMMO V0209999C000010060019N0200001N1+02551+02481101101ADDAA199000091GA1011+006009099GA2051+006009089GF106991061091008001001001MA1999999100841MD1310091+9999MW1151REMSYN110AAXX  14034 67073 31570 60000 10255 20248 30084 40110 53009 715// 86900 333 85820 81920 94995 95815 555 82630;EQDQ01  00002PRCP99
0301670730999992000031406004-18050+044030FM-12+0023FMMO V0201201N002112200019N0400001N1+03001+02611101281ADDAA199000091GA1011+006909099GA2041+006909089GF104991041091008001001031IA2240+02309KA1120M+03171KA2120N+02491MA1999999101021MD1010181+9999REMSYN134AAXX  14064 67073 32582 41204 10300 20261 30102 40128 50018 84903 333 02300 10317 20249 50//4 55/// 84823 81923 94994 95814 555 81073;EQDQ01  00002PRCP99
0199670730999992000031409004-18050+044030FM-12+0023FMMO V0202201N003612200019N0400001N1+03151+02701101081ADDAA199000091GA1041+006909089GF104991041021008001001021MA1999999100821MD1810201+9999REMSYN086AAXX  14094 67073 32582 42207 10315 20270 30082 40108 58020 84202 333 84823 555 81073;EQDQ01  00002PRCP99
0229670730999992000031412004-18050+044030FM-12+0023FMMO V0202201N003612200019N0400001N1+03121+02681100881ADDAA199000091GA1011+006909099GA2031+006909089GF103991031091008001001021MA1999999100621MD1610201+9999REMSYN100AAXX  14124 67073 32582 32207 10312 20268 30062 40088 56020 83902 333 0//00 83823 81923 94993 95813;EQDQ01  00002PRCP99
0242670730999992000031415004-18050+044030FM-12+0023FMMO V0202201N002612200019N0350001N1+02981+02591100921ADDAA199000091GA1011+006009099GA2021+006009089GF103991021091008001001021KA1120M+03201MA1999999100661MD1310041+9999REMSYN100AAXX  14154 67073 32581 32205 10298 20259 30066 40092 53004 82902 333 10320 82820 81920 94992 95812;EQDQ01  00002PRCP99
0257670730999992000031503004-18050+044030FM-12+0023FMMO V0200601N002110099019N0300001N1+02471+02431101151ADDAA199000091GA1011+006009099GA2021+006009089GA3051+009909069GF106991061091008001001001MA1999999100891MD1310091+9999REMSYN112AAXX  15034 67073 33580 60604 10247 20243 30089 40115 53009 86900 333 82820 81920 85633 94995 94997 95815 95817;EQDQ01  00002PRCP99
0257670730999992000031506004-18050+044030FM-12+0023FMMO V0203401N001512200019N0400001N1+03031+02571101261ADDAA199000091GA1011+006909029GF102991011021008001031021IA2240+02309KA1120M+03201KA2120N+02471MA1999999101001MD1110111+9999REMSYN106AAXX  15064 67073 32582 23403 10303 20257 30100 40126 51011 81232 333 02300 10320 20247 50//4 55/// 81823;EQDQ01  00002PRCP99
0189670730999992000031509004-18050+044030FM-12+0023FMMO V0202601N003612200019N0400001N1+03121+02471101131ADDAA199000091GA1031+006909029GF103991031021008001001021MA1999999100871MD1810131+9999REMSYN076AAXX  15094 67073 32582 32607 10312 20247 30087 40113 58013 83202 333 83823;EQDQ01  00002PRCP99
0269670730999992000031512004-18050+044030FM-12+0023FMMO V0202801N003612200019N0250001N1+03101+02601101041ADDAA199000091AY101061AY201061GA1011+006909099GA2031+006909089GF103991031091008001001001MA1999999100781MD1610091+9999MW1171REMSYN118AAXX  15124 67073 31575 32807 10310 20260 30078 40104 56009 71700 83900 333 0//00 83823 81923 94992 94993 95812 95813;EQDQ01  00002PRCP99
0257670730999992000031515004-18050+044030FM-12+0023FMMO V0202601N002112200019N0300001N1+02921+02611101051ADDAA112002091AY191031AY201031GA1011+006009099GA2031+006009089GF103991031091008001001001KA1120M+03151MA1999999100791MD1110011+9999MW1291REMSYN112AAXX  15154 67073 21580 32604 10292 20261 30079 40105 51001 72990 83900 333 10315 60022 83820 81920 94992 95812;
0257670730999992000031603004-18050+044030FM-12+0023FMMO V0209999C00001009001CN0200001N1+02561+02501101241ADDAA199000091GA1011+006009099GA2041+006009089GA3041+009009069GF107991071091008001999999MA1999999100981MD1310101+9999MW1171REMSYN106AAXX  16034 67073 31570 70000 10256 20250 30098 40124 53010 717// 879// 333 84820 81920 84630 94994 95814;EQDQ01  00002PRCP99
0300670730999992000031606004-18050+044030FM-12+0023FMMO V0209999C000010120019N0400001N1+02991+02651101341ADDAA124002091GA1011+006009099GA2031+006009089GA3031+012009069GF105991051091008001001001IA2240+02409KA1120M+03151KA2120N+02561MA1999999101081MD1110101+9999REMSYN136AAXX  16064 67073 12582 50000 10299 20265 30108 40134 51010 60024 85900 333 02400 10315 20256 50//4 55/// 83820 81920 83640 94996 95816;
0261670730999992000031609004-18050+044030FM-12+0023FMMO V0202601N003610060019N0200001N1+03121+02681101211ADDAA199000091AY121031AY221031GA1011+006009099GA2051+006009089GF105991051091008001001001MA1999999100951MD1810131+9999MW1171REMSYN110AAXX  16094 67073 31570 52607 10312 20268 30095 40121 58013 71722 85900 333 85820 81920 94992 95832 555 81633;EQDQ01  00002PRCP99
0250670730999992000031612004-18050+044030FM-12+0023FMMO V0209999C000011050019N0200001N1+02601+02541101081ADDAA106023191AC11C9AY191061AY261061GA1011+006009099GA2041+006009089GF106991041091008001001031MA1999999100821MD1810131+9999MW1211REMSYN112AAXX  16124 67073 11570 60000 10260 20254 30082 40108 58013 60231 72196 84903 333 0//21 84820 81920 94993 95813;
0257670730999992000031615004-18050+044030FM-12+0023FMMO V0209999C000012200019N0300001N1+02931+02731101061ADDAA106023091AY191031AY211031GA1011+006009099GA2021+006009089GF104991021091008001001031KA1120M+03161MA1999999100801MD1510021+9999MW1021REMSYN112AAXX  16154 67073 21580 40000 10293 20273 30080 40106 55002 70291 82903 333 10316 60231 82820 81920 94992 95812;
0252670730999992000031703004-18050+044030FM-12+0023FMMO V0209999C000010090019N0300001N1+02301+02251101201ADDAA112025091AY161031GA1011+006009099GA2021+006009089GA3061+009009069GF107991071091008001999999MA1999999100941MD1310021+9999MW1001REMSYN112AAXX  17034 67073 21580 70000 10230 20225 30094 40120 53002 7006/ 879// 333 60252 82820 81920 86630 94996 95816;
0346670730999992000031706004-18050+044030FM-12+0023FMMO V0209999C000010690019N0350001N1+02651+02381101321ADDAA124048091AC11I9AY161061AY221061GA1011+006009099GA2021+006009089GA3031+069009009GF105991021091008001031031IA2240+02209KA1120M+03161KA2120N+02301MA1999999101061MD1110121+9999MW1011REMSYN154AAXX  17064 67073 11581 50000 10265 20238 30106 40132 51012 60484 70162 82933 333 02265 10316 20230 5///4 55/// 82820 81920 83073 94996 94998 95816 95818;
0223670730999992000031709004-18050+044030FM-12+0023FMMO V0203601N003612200019N0400001N1+03071+02371101211ADDAA199000091GA1011+006909099GA2021+006909089GF103991021091008001031031MA1999999100951MD1810111+9999REMSYN094AAXX  17094 67073 32582 33607 10307 20237 30095 40121 58011 82933 333 82823 81923 94996 95816;EQDQ01  00002PRCP99
0223670730999992000031712004-18050+044030FM-12+0023FMMO V0203601N003612200019N0400001N1+03071+02371101211ADDAA199000091GA1011+006909099GA2021+006909089GF103991021091008001031031MA1999999100951MD1810111+9999REMSYN094AAXX  17124 67073 32582 33607 10307 20237 30095 40121 58011 82933 333 82823 81923 94996 95816;EQDQ01  00002PRCP99
0264670730999992000031715004-18050+044030FM-12+0023FMMO V0202601N004112200019N0250001N1+02831+02581101031ADDAA199000091AY101031AY201031GA1011+006009099GA2031+006009089GF104991031091008001031021KA1120M+03151MA1999999100771MD1310041+9999MW1171REMSYN100AAXX  17154 67073 31575 42608 10283 20258 30077 40103 53004 71700 83932 333 10315 83820 81920 94993;EQDQ01  00002PRCP99
0195670730999992000031803004-18050+044030FM-12+0023FMMO V0209999C00001012001CN0300001N1+02221+02181101151ADDAA199000091GA1011+006009089GF105991051081008001001001MA1999999100891MD1310111+9999REMSYN082AAXX  18034 67073 33580 50000 10222 20218 30089 40115 53011 85800 333 81820 85633;EQDQ01  00002PRCP99
0195670730999992000031903004-18050+044030FM-12+0023FMMO V0201001N002112200019N0300001N1+02421+02261101181ADDAA199000091GA1011+006009089GF104991011021008001031021MA1999999100921MD1310101+9999REMSYN082AAXX  19034 67073 33580 41004 10242 20226 30092 40118 53010 81232 333 81820 83073;EQDQ01  00002PRCP99
0263670730999992000031906004-18050+044030FM-12+0023FMMO V0209999C000012200019N0400001N1+03001+02521101361ADDAA199000091GA1011+006909089GF103991011021008001001021IA2240+02309KA1120M+03281KA2120N+02421MA1999999101101MD1110181+9999REMSYN112AAXX  19064 67073 32582 30000 10300 20252 30110 40136 51018 81202 333 02300 10328 20242 50//4 55/// 81823 83073;EQDQ01  00002PRCP99
0182670730999992000032003004-18050+044030FM-12+0023FMMO V0209999999999012001CN0300001N1+02481+02391101181ADDAA112005091GA1011+006009089GF106991061081008001001001MA1999999100921MD1310041+9999REMSYN088AAXX  20034 67073 23580 6//03 10248 20239 30092 40118 53004 86800 333 60052 81820 86633;
0276670730999992000032006004-18050+044030FM-12+0023FMMO V0201001N002112200019N0400001N1+02931+02491101301ADDAA124005191GA1011+006909089GA2031+069009009GF104991011021008001031021IA2240+02209KA1120M+03261KA2120N+02351MA1999999101041MD1110121+9999REMSYN128AAXX  20064 67073 12582 41004 10293 20249 30104 40130 51012 60054 81232 333 02229 10326 20235 50//4 55/// 81823 83073 555 81360;
0195670730999992000032009004-18050+044030FM-12+0023FMMO V0209999C000012200019N0400001N1+03201+02311101161ADDAA199000091GA1011+006909089GF103991011021008001001021MA1999999100901MD1810141+9999REMSYN082AAXX  20094 67073 32582 30000 10320 20231 30090 40116 58014 81202 333 81823 83073;EQDQ01  00002PRCP99
0242670730999992000032015004-18050+044030FM-12+0023FMMO V0202201N003612200019N0300001N1+02951+02671101111ADDAA199000091GA1011+006009099GA2021+006009089GF104991021091008001001021KA1120M+03231MA1999999100851MD1310061+9999REMSYN100AAXX  20154 67073 32580 42207 10295 20267 30085 40111 53006 82902 333 10323 82820 81920 94992 95812;EQDQ01  00002PRCP99
0235670730999992000032103004-18050+044030FM-12+0023FMMO V0209999C000011050019N0200001N1+02401+02361101221ADDAA199000091GA1011+006009099GA2031+006009089GF105991031091008001001021MA1999999100961MD1310051+9999MW1171REMSYN100AAXX  21034 67073 31570 50000 10240 20236 30096 40122 53005 717// 83902 333 83820 81920 94996 95836;EQDQ01  00002PRCP99
0313670730999992000032106004-18050+044030FM-12+0023FMMO V0209999C000010690019N0400001N1+03011+02611101381ADDAA199000091GA1011+006909099GA2011+006909089GA3051+069009009GF105991011091008001001021IA2240+02209KA1120M+03231KA2120N+02401MA1999999101121MD1110161+9999REMSYN130AAXX  21064 67073 32582 50000 10301 20261 30112 40138 51016 81902 333 02200 10323 20240 50//4 55/// 81823 81923 85073 94996 95816;EQDQ01  00002PRCP99
0195670730999992000032109004-18050+044030FM-12+0023FMMO V0202801N003611050019N0400001N1+03001+02641101211ADDAA199000091GA1031+999999029GF105991031021008001001021MA1999999100951MD1810171+9999REMSYN082AAXX  21094 67073 32582 52807 1030/ 20264 30095 40121 58017 83202 333 8323/ 83073;EQDQ01  00002PRCP99
0251670730999992000032112004-18050+044030FM-12+0023FMMO V0202801N004110690019N0400001N1+03111+02541101061ADDAA199000091GA1011+006909099GA2041+006909089GA3031+069009009GF106991041091008001001021MA1999999100801MD1610151+9999REMSYN106AAXX  21124 67073 32582 62808 10311 20254 30080 40106 56015 84902 333 0//00 84823 81923 83073 94992 95812;EQDQ01  00002PRCP99
0264670730999992000032115004-18050+044030FM-12+0023FMMO V0202801N003110690019N0300001N1+02911+02471101111ADDAA199000091GA1011+006009099GA2021+006009089GA3041+069009009GF105991021091008001001021KA1120M+03141MA1999999100851MD1310051+9999REMSYN106AAXX  21154 67073 32580 52806 10291 20247 30085 40111 53005 82902 333 10314 82820 81920 84073 94992 95812;EQDQ01  00002PRCP99
0235670730999992000032203004-18050+044030FM-12+0023FMMO V0201001N001511050019N0300001N1+02531+02461101271ADDAA199000091GA1011+009909069GF105991031091008001001021MA1999999101011MD1310071+9999REMSYN122AAXX  22034 67073 33580 51003 10253 20246 30101 40127 53007 83902 333 83820 81920 94991 94994 95811 95814 555 81633 82073;EQDQ01  00002PRCP99
0273670730999992000032206004-18050+044030FM-12+0023FMMO V0201801N002612200019N0400001N1+03031+02571101401ADDAA199000091GA1011+030009039GF103991031021008001031021IA2240+02409KA1120M+03141KA2120N+02501MA1999999101141MD1110131+9999REMSYN122AAXX  22064 67073 32582 31805 10303 20257 30114 40140 51013 83232 333 02400 10314 20250 5///4 55/// 83823 555 81360 81073;EQDQ01  00002PRCP99
0199670730999992000032209004-18050+044030FM-12+0023FMMO V0202601N002112200019N0400001N1+03291+02651101291ADDAA199000091GA1031+006909089GF103991031021008001001021MA1999999101031MD1810111+9999REMSYN086AAXX  22094 67073 32582 32604 10329 20265 30103 40129 58011 83202 333 83823 555 81073;EQDQ01  00002PRCP99
0229670730999992000032212004-18050+044030FM-12+0023FMMO V0202601N004612200019N0400001N1+03161+02721101091ADDAA199000091GA1011+006909099GA2041+006909089GF104991041091008001001001MA1999999100831MD1610201+9999REMSYN100AAXX  22124 67073 32582 42609 10316 20272 30083 40109 56020 84900 333 0//00 84823 81923 94993 95813;EQDQ01  00002PRCP99
0242670730999992000032215004-18050+044030FM-12+0023FMMO V0202201N003612200019N0300001N1+02961+02631101191ADDAA199000091GA1011+006009099GA2021+006009089GF103991021091008001001021KA1120M+03301MA1999999100931MD1310101+9999REMSYN100AAXX  22154 67073 32580 32207 10296 20263 30093 40119 53010 82902 333 10330 82820 81920 94993 95813;EQDQ01  00002PRCP99
0235670730999992000032303004-18050+044030FM-12+0023FMMO V0201601N002110060019N0300001N1+02571+02441101171ADDAA199000091GA1011+006009099GA2041+006009089GF105991051091008001001001MA1999999100911MD1310051+9999REMSYN106AAXX  23034 67073 33580 51604 10257 20244 30091 40117 53005 85900 333 84820 81920 94996 94997 95816 95817;EQDQ01  00002PRCP99
0291670730999992000032306004-18050+044030FM-12+0023FMMO V0200201N002612200019N0400001N1+03031+02531101311ADDAA199000091GA1011+006909099GA2021+006909089GF104991021091008001031021IA2240+02409KA1120M+03301KA2120N+02501MA1999999101051MD1110141+9999REMSYN124AAXX  23064 67073 32582 40205 10303 20253 30105 40131 51014 82932 333 02400 10330 20250 50//4 55/// 82823 81923 94997 95817;EQDQ01  00002PRCP99
0223670730999992000032309004-18050+044030FM-12+0023FMMO V0203601N003112200019N0400001N1+03101+02691101181ADDAA199000091GA1011+006909099GA2041+006909089GF104991041091008001001001MA1999999100921MD1810131+9999REMSYN094AAXX  23094 67073 32582 43606 10310 20269 30092 40118 58013 84900 333 84823 81923 94996 95816;EQDQ01  00002PRCP99
0257670730999992000032312004-18050+044030FM-12+0023FMMO V0203201N005112200019N0300001N1+03181+02601100961ADDAA199000091AY101061AY201061GA1011+006909099GA2041+006909089GF104991041091008001001001MA1999999100701MD1610221+9999MW1171REMSYN106AAXX  23124 67073 31580 43210 10318 20260 30070 40096 56022 71700 84900 333 0//00 84823 81923 94993 95833;EQDQ01  00002PRCP99
0270670730999992000032315004-18050+044030FM-12+0023FMMO V0203001N003612200019N0300001N1+03031+02631100991ADDAA199000091AY191031AY201031GA1011+009009069GF103991021091008001001031KA1120M+03221MA1999999100731MD1310031+9999MW1021REMSYN122AAXX  23154 67073 31580 33007 10303 20263 30073 40099 53003 70290 82903 333 10322 82820 81920 94993 95813 555 81630 81073;EQDQ01  00002PRCP99
0235670730999992000032403004-18050+044030FM-12+0023FMMO V0209999C00001007501CN0300001N1+02531+02471101111ADDAA199000091GA1011+009909069GF105991051091008001001021MA1999999100851MD1310051+9999REMSYN122AAXX  24034 67073 33580 50000 10253 20247 30085 40111 53005 85902 333 84820 81920 94992 94997 95812 95817 555 81633 81073;EQDQ01  00002PRCP99
0285670730999992000032409004-18050+044030FM-12+0023FMMO V0200201N00571009001CN0250001N1+03001+02311101221ADDAA199000091AY121031AY221031GA1011+006009099GA2041+006009089GA3031+009009069GF106991061091008001001001MA1999999100961MD1810071+9999MW1151REMSYN118AAXX  24094 67073 31575 60211 10300 20231 30096 40122 58007 71522 86900 333 84820 81920 83630 94991 94996 95811 95816;EQDQ01  00002PRCP99
0263670730999992000032412004-18050+044030FM-12+0023FMMO V0200801N002610120019N0300001N1+02891+02451101081ADDAA199000091GA1011+006009099GA2021+006009089GA3051+012009069GF106991061091008001001001MA1999999100821MD1610141+9999REMSYN118AAXX  24124 67073 32580 60805 10289 20245 30082 40108 56014 86900 333 0//00 82820 81920 85640 94996 94998 95816 95818;EQDQ01  00002PRCP99
0264670730999992000032415004-18050+044030FM-12+0023FMMO V0209999C000010120019N0300001N1+02801+02521101071ADDAA199000091GA1011+006009099GA2011+006009089GA3061+012009069GF106991061091008001001001KA1120M+03021MA1999999100811MD1510011+9999REMSYN106AAXX  24154 67073 32580 60000 10280 20252 30081 40107 55001 86900 333 10302 81820 81920 86640 94991 95811;EQDQ01  00002PRCP99
0189670730999992000032503004-18050+044030FM-12+0023FMMO V0201001N002112200019N0300001N1+02421+02361101241ADDAA199000091GA1021+006009029GF104991021081008001031021MA1999999100981MD1310041+9999REMSYN076AAXX  25034 67073 33580 41004 10242 20236 30098 40124 53004 82832 333 82820;EQDQ01  00002PRCP99
0257670730999992000032506004-18050+044030FM-12+0023FMMO V0201001N001510450019N0400001N1+03011+02431101371ADDAA199000091GA1021+006909029GF105991031081008001031021IA2240+02309KA1120M+03021KA2120N+02381MA1999999101111MD1110131+9999REMSYN106AAXX  25064 67073 32582 51003 10301 20243 30111 40137 51013 83832 333 02300 10302 20238 5///4 55/// 82823;EQDQ01  00002PRCP99
0232670730999992000032603004-18050+044030FM-12+0023FMMO V0209999C000010060019N0300001N1+02481+02421101261ADDAA112000191GA1011+006009099GA2041+006009089GF105991051091008001001001MA1999999101001MD1310061+9999REMSYN122AAXX  26034 67073 23580 50000 10248 20242 30100 40126 53006 85900 333 69912 84820 81920 94995 94998 95816 95818 555 82630;
0290670730999992000032606004-18050+044030FM-12+0023FMMO V0201801N002111050019N0400001N1+02951+02661101361ADDAA124005191GA1011+009909069GF106991041091008001001031IA2240+02209KA1120M+03261KA2120N+02311MA1999999101101MD1110101+9999REMSYN158AAXX  26064 67073 12582 61804 10295 20266 30110 40136 51010 60054 84903 333 02219 10326 20231 50//4 55/// 84820 81920 94994 94996 95814 95816 555 81633 82073;
0223670730999992000032703004-18050+044030FM-12+0023FMMO V0201001N002112200019N0300001N1+02461+02401101151ADDAA199000091GA1011+006009099GA2021+006009089GF103991021091008001031021MA1999999100891MD1310031+9999REMSYN094AAXX  27034 67073 33580 31004 10246 20240 30089 40115 53003 82932 333 82820 81920 94998 95818;EQDQ01  00002PRCP99
0291670730999992000032706004-18050+044030FM-12+0023FMMO V0201001N002112200019N0400001N1+03021+02531101341ADDAA199000091GA1011+006909099GA2011+006909089GF102991011091008001031021IA2240+02409KA1120M+03101KA2120N+02431MA1999999101081MD1110191+9999REMSYN124AAXX  27064 67073 32582 21004 10302 20253 30108 40134 51019 81932 333 02400 10310 20243 50//4 55/// 81823 81923 94998 95818;EQDQ01  00002PRCP99
0189670730999992000032709004-18050+044030FM-12+0023FMMO V0202601N003112200019N0400001N1+03221+02551101201ADDAA199000091GA1031+006909029GF103991031021008001001001MA1999999100941MD1810141+9999REMSYN076AAXX  27094 67073 32582 32606 10322 20255 30094 40120 58014 83200 333 83823;EQDQ01  00002PRCP99
0205670730999992000032712004-18050+044030FM-12+0023FMMO V0202201N004112200019N0400001N1+03121+02561101051ADDAA199000091GA1031+006909089GF103991031021008001001021MA1999999100791MD1810151+9999REMSYN092AAXX  27124 67073 32582 32208 10312 20256 30079 40105 58015 83202 333 0//00 83823 555 81073;EQDQ01  00002PRCP99
0282670730999992000032715004-18050+044030FM-12+0023FMMO V0202201N003112200019N0300001N1+02941+02581101101ADDAA199000091AY191031AY201031GA1011+006009099GA2031+006009089GF103991031091008001001001KA1120M+03311MA1999999100841MD1310051+9999MW1291REMSYN118AAXX  27154 67073 31580 32206 10294 20258 30084 40110 53005 72990 83900 333 10331 83820 81920 94991 94993 95811 95813;EQDQ01  00002PRCP99
0199670730999992000032803004-18050+044030FM-12+0023FMMO V0209999C000012200019N0300001N1+02451+02411101131ADDAA199000091GA1021+006009089GF103991031081008001001001MA1999999100871MD1310041+9999REMSYN086AAXX  28034 67073 33580 30000 10245 20241 30087 40113 53004 83800 333 82820 555 82630;EQDQ01  00002PRCP99
0257670730999992000032806004-18050+044030FM-12+0023FMMO V0201601N002112200019N0400001N1+03011+02651101301ADDAA199000091GA1021+006909029GF102991021021008001001001IA2240+02409KA1120M+03311KA2120N+02401MA1999999101041MD1110171+9999REMSYN106AAXX  28064 67073 32582 21604 10301 20265 30104 40130 51017 82200 333 02400 10331 20240 50//4 55/// 82823;EQDQ01  00002PRCP99
0189670730999992000032809004-18050+044030FM-12+0023FMMO V0202201N003612200019N0400001N1+03161+02671101171ADDAA199000091GA1031+006909029GF103991031021008001001001MA1999999100911MD1810131+9999REMSYN076AAXX  28094 67073 32582 32207 10316 20267 30091 40117 58013 83200 333 83823;EQDQ01  00002PRCP99
0251670730999992000032812004-18050+044030FM-12+0023FMMO V0202201N005112200019N0300001N1+03151+02671999999ADDAA199000091AY101061AY201061GA1011+006909099GA2031+006909089GF103991031091008001001001MA1999999100761MD1610151+9999MW1171REMSYN100AAXX  28124 67073 31580 32210 10315 20267 30076 56015 71700 83900 333 0//00 83823 81923 94993 95833;EQDQ01  00002PRCP99
0270670730999992000032815004-18050+044030FM-12+0023FMMO V0201801N002612200019N0300001N1+02971+02551101161ADDAA199000091AY191031AY201031GA1011+006009099GA2031+006009089GF103991031091008001001001KA1120M+03191MA1999999100901MD1310141+9999MW1021REMSYN106AAXX  28154 67073 31580 31805 10297 20255 30090 40116 53014 70290 83900 333 10319 83820 81920 94991 95831;EQDQ01  00002PRCP99
0223670730999992000032903004-18050+044030FM-12+0023FMMO V0201601N002112200019N0300001N1+02461+02371101221ADDAA199000091GA1011+006009099GA2031+006009089GF103991031091008001001001MA1999999100961MD1310021+9999REMSYN094AAXX  29034 67073 33580 31604 10246 20237 30096 40122 53002 83900 333 83820 81920 94998 95818;EQDQ01  00002PRCP99
0257670730999992000032906004-18050+044030FM-12+0023FMMO V0201401N002612200019N0400001N1+03001+02611101401ADDAA199000091GA1021+006909029GF102991021021008001001021IA2240+02309KA1120M+03191KA2120N+02461MA1999999101141MD1110181+9999REMSYN106AAXX  29064 67073 32582 21405 10300 20261 30114 40140 51018 82202 333 02300 10319 20246 50//4 55/// 82823;EQDQ01  00002PRCP99
0205670730999992000033003004-18050+044030FM-12+0023FMMO V0209999C000012200019N0300001N1+02531+02471101201ADDAA199000091GA1011+009909069GF104991041081008001001021MA1999999100941MD1310031+9999REMSYN092AAXX  30034 67073 33580 40000 10253 20247 30094 40120 53003 84802 333 83820 555 81633 81073;EQDQ01  00002PRCP99
0267670730999992000033006004-18050+044030FM-12+0023FMMO V0201601N003612200019N0400001N1+02971+02631101311ADDAA199000091GA1021+006909089GF102991021021008001001021IA2240+02409KA1120M+03201KA2120N+02481MA1999999101051MD1010111+9999REMSYN116AAXX  30064 67073 32582 21607 10297 20263 30105 40131 50011 82202 333 02400 10320 20248 50//4 55/// 82823 555 81073;EQDQ01  00002PRCP99
0199670730999992000033009004-18050+044030FM-12+0023FMMO V0202201N004112200019N0400001N1+03121+02651101221ADDAA199000091GA1031+006909089GF103991031021008001001021MA1999999100961MD1810091+9999REMSYN086AAXX  30094 67073 32582 32208 10312 20265 30096 40122 58009 83202 333 83823 555 81073;EQDQ01  00002PRCP99
0229670730999992000033012004-18050+044030FM-12+0023FMMO V0202201N006212200019N0350001N1+03101+02631101011ADDAA199000091GA1011+006909099GA2031+006909089GF103991031091008001001021MA1999999100751MD1610211+9999REMSYN100AAXX  30124 67073 32581 32212 10310 20263 30075 40101 56021 83902 333 0//00 83823 81923 94992 95832;EQDQ01  00002PRCP99
0242670730999992000033015004-18050+044030FM-12+0023FMMO V0202201N003612200019N0300001N1+02921+01641101051ADDAA199000091GA1011+006009099GA2031+006009089GF103991031091008001001001KA1120M+03181MA1999999100791MD1310041+9999REMSYN100AAXX  30154 67073 32580 32207 10292 20164 30079 40105 53004 83900 333 10318 83820 81920 94992 95812;EQDQ01  00002PRCP99
0245670730999992000033103004-18050+044030FM-12+0023FMMO V0209999C000010099019N0300001N1+02581+02531101101ADDAA199000091GA1011+006009099GA2031+006009089GA3031+009909069GF105991051091008001001001MA1999999100841MD1310091+9999REMSYN100AAXX  31034 67073 33580 50000 10258 20253 30084 40110 53009 85900 333 83820 81920 83633 94992 95812;EQDQ01  00002PRCP99
0257670730999992000033106004-18050+044030FM-12+0023FMMO V0201801N00151012001CN0350001N1+03021+02601101231ADDAA199000091GA1041+006909029GF105991051081008001001001IA2240+02409KA1120M+03191KA2120N+02581MA1999999100971MD1110131+9999REMSYN106AAXX  31064 67073 32581 51803 10302 20260 30097 40123 51013 85800 333 02400 10319 20258 50//4 55/// 84823;EQDQ01  00002PRCP99
0189670730999992000033109004-18050+044030FM-12+0023FMMO V0202601N003612200019N0400001N1+03101+02631101101ADDAA199000091GA1031+006909029GF103991031021008001001001MA1999999100841MD1810131+9999REMSYN076AAXX  31094 67073 32582 32607 10310 20263 30084 40110 58013 83200 333 83823;EQDQ01  00002PRCP99
0241670730999992000033112004-18050+044030FM-12+0023FMMO V0202001N004112200019N0400001N1+03121+02591100961ADDAA199000091GA1011+006909099GA2031+006909089GF103991031091008001001001MA1999999100701MD1610141+9999REMSYN112AAXX  31124 67073 32582 32008 10312 20259 30070 40096 56014 83900 333 0//00 83823 81923 94993 94998 95813 95818;EQDQ01  00002PRCP99
0242670730999992000033115004-18050+044030FM-12+0023FMMO V0202001N003112200019N0300001N1+02911+02561101001ADDAA199000091GA1011+006009099GA2031+006009089GF103991031091008001001001KA1120M+03191MA1999999100741MD1310041+9999REMSYN100AAXX  31154 67073 32580 32006 10291 20256 30074 40100 53004 83900 333 10319 83820 81920 94993 95813;EQDQ01  00002PRCP99
0199670730999992000040103004-18050+044030FM-12+0023FMMO V0201401N002112200019N0300001N1+02521+02461101111ADDAA199000091GA1021+006009089GF102991021021008001001021MA1999999100851MD1310081+9999REMSYN086AAXX  01034 67073 33580 21404 10252 20246 30085 40111 53008 82202 333 82820 555 81075;EQDQ01  00002PRCP99
0267670730999992000040106004-18050+044030FM-12+0023FMMO V0201601N003112200019N0400001N1+03021+02571101241ADDAA199000091GA1011+006909089GF101991011021008001001021IA2240+02309KA1120M+03191KA2120N+02501MA1999999100981MD1110131+9999REMSYN116AAXX  01064 67073 32582 11606 10302 20257 30098 40124 51013 81202 333 02300 10319 20250 50//4 55/// 81823 555 81073;EQDQ01  00002PRCP99
0223670730999992000040203004-18050+044030FM-12+0023FMMO V0201201N002612200019N0300001N1+02551+02511101111ADDAA199000091GA1011+006009099GA2011+006009089GF102991021091008001001021MA1999999100851MD1310041+9999REMSYN094AAXX  02034 67073 33580 21205 10255 20251 30085 40111 53004 82902 333 81820 81920 94997 95817;EQDQ01  00002PRCP99
0257670730999992000040206004-18050+044030FM-12+0023FMMO V0200601N003612200019N0400001N1+03021+02331101241ADDAA199000091GA1011+006909029GF102991011021008001001021IA2240+02409KA1120M+03201KA2120N+02501MA1999999100981MD1110131+9999REMSYN106AAXX  02064 67073 32582 20607 10302 20233 30098 40124 51013 81202 333 02400 10320 20250 50//4 55/// 81823;EQDQ01  00002PRCP99
0245670730999992000040303004-18050+044030FM-12+0023FMMO V0209999C000010690019N0300001N1+02461+02401101031ADDAA199000091GA1011+006009099GA2021+006009089GA3051+069009029GF106991021091008001001051MA1999999100771MD1510031+9999REMSYN100AAXX  03034 67073 33580 60000 10246 20240 30077 40103 55003 82905 333 82820 81920 85273 94991 95811;EQDQ01  00002PRCP99
0289670730999992000040306004-18050+044030FM-12+0023FMMO V0209999C000012200019N0400001N1+02921+02561101131ADDAA199000091GA1011+006909089GA2031+069009009GF104991011021008001031021IA2240+02309KA1120M+03371KA2120N+02401MA1999999100871MD1010101+9999REMSYN122AAXX  03064 67073 32582 40000 10292 20256 30087 40113 50010 81232 333 02300 10337 20240 50//4 55/// 81823 83073 555 81360;EQDQ01  00002PRCP99
0255670730999992000040309004-18050+044030FM-12+0023FMMO V0202001N002610690019N0400001N1+03231+02461101041ADDAA199000091GA1011+006909099GA2011+006909089GA3051+069009009GF106991011091008001031021MA1999999100781MD1810091+9999REMSYN110AAXX  03094 67073 32582 62005 10323 20246 30078 40104 58009 81932 333 81823 81923 85073 94992 95812 555 81360;EQDQ01  00002PRCP99
0273670730999992000040312004-18050+044030FM-12+0023FMMO V0202201N004610120019N0350001N1+03141+02421100871ADDAA199000091GA1011+006909099GA2031+006909089GA3031+012009069GA4031+069009009GF107991051091008001031021MA1999999100611MD1610171+9999REMSYN112AAXX  03124 67073 32581 72209 10314 20242 30061 40087 56017 85932 333 0//00 83823 81923 83640 83073 94991 95831;EQDQ01  00002PRCP99
0316670730999992000040315004-18050+044030FM-12+0023FMMO V0202201N00261009001CN0200001N1+02961+02451101011ADDAA199000091AY121031AY221031GA1011+006009099GA2041+006009089GA3041+009009069GF107991071091008001999999KA1120M+03301MA1999999100751MD1310141+9999MW1151REMSYN136AAXX  03154 67073 31570 72205 10296 20245 30075 40101 53014 71522 879// 333 10330 84820 81920 84630 94991 94993 94997 95811 95813 95817;EQDQ01  00002PRCP99
0206670730999992000040400004-18050+044030FM-12+0023FMMO V0209999999999012001CN0080001N1+02681+02651101001ADDAA106001091AC11C9GA1021+006009089GF106991061081008001001001MA1999999100741MD1610131+9999MW1611REMSYN100AAXX  04004 67073 11558 6//05 10268 20265 30074 40100 56013 69991 761// 86800 333 0//11 82820 85630;
0210670730999992000040403004-18050+044030FM-12+0023FMMO V0200601N00151012001CN0200001N1+02381+02311101051ADDAA112001091AY161031AY221031GA1021+006009089GF107991071081008001999999MA1999999100791MD1310051+9999MW1151REMSYN094AAXX  04034 67073 21570 70603 10238 20231 30079 40105 53005 71562 878// 333 60012 82820 86630;
0358670730999992000040406004-18050+044030FM-12+0023FMMO V0209999C000010090019N0200001N1+02501+02441101191ADDAA124003091AC11C9AY161061AY261061GA1011+006009099GA2031+006009089GA3031+009009069GF107991051091008001071999IA2240+02209KA1120M+03301KA2120N+02311MA1999999100931MD1110141+9999MW1601REMSYN166AAXX  04064 67073 11570 70000 10250 20244 30093 40119 51014 60034 76066 8597/ 333 02211 10330 20231 50//4 55/// 83820 81920 83630 94991 94996 94997 95811 95816 95817;
0244670730999992000040412004-18050+044030FM-12+0023FMMO V0202001N002110090019N0350001N1+02791+02461100931ADDAA199000021GA1011+006009099GA2021+006009089GA3061+009009069GF107991071091008001999999MA1999999100671MD1610181+9999REMSYN118AAXX  04124 67073 32581 72004 10279 20246 30067 40093 56018 879// 333 0//00 82820 81920 86630 94991 94996 95811 95816;
0277670730999992000040415004-18050+044030FM-12+0023FMMO V0209999C000010300019N0300001N1+02701+02521100961ADDAA199000021GA1011+006009099GA2021+006009089GA3031+009009069GA4031+030009049GF107991041091008001071031KA1120M+02891MA1999999100701MD1310031+9999REMSYN122AAXX  04154 67073 32580 70000 10270 20252 30070 40096 53003 84973 333 10289 82820 81920 83630 83460 94996 95816 555 82073;
0266670730999992000040503004-18050+044030FM-12+0023FMMO V0201401N002110690019N0300001N1+02451+02381101091ADDAA112000191GA1011+006009099GA2031+006009089GA3031+069009009GF106991031091008001031021MA1999999100831MD1310041+9999REMSYN140AAXX  05034 67073 23580 61404 10245 20238 30083 40109 53004 83932 333 69912 83820 81920 83073 94994 94996 94997 95814 95816 95817 555 81360;
0297670730999992000040506004-18050+044030FM-12+0023FMMO V0201001N002112200019N0400001N1+02951+02391101211ADDAA124000191GA1011+030009039GF104991021091008001031021IA2240+02309KA1120M+99999KA2120N+02401MA1999999100951MD1110121+9999REMSYN146AAXX  05064 67073 12582 41004 10295 20239 30095 40121 51012 69914 82932 333 02300 10289 20240 50//4 55/// 82823 81923 94997 95817 555 81360 82073;EQDQ01 +02892ATMX  
0233670730999992000040509004-18050+044030FM-12+0023FMMO V0200201N006212200019N0400001N1+03251+02121101061ADDAA199000091GA1011+006909099GA2031+006909089GF103991031091008001031001MA1999999100801MD1810151+9999REMSYN104AAXX  05094 67073 32582 30212 10325 20212 30080 40106 58015 83930 333 83823 81923 94995 95815 555 81360;EQDQ01  00002PRCP99
0242670730999992000040515004-18050+044030FM-12+0023FMMO V0202201N002612200019N0300001N1+02861+02541101071ADDAA199000091GA1011+006009099GA2021+006009089GF102991021091008001001001KA1120M+03421MA1999999100811MD1310141+9999REMSYN100AAXX  05154 67073 32580 22205 10286 20254 30081 40107 53014 82900 333 10342 82820 81920 94995 95815;EQDQ01  00002PRCP99
0189670730999992000040603004-18050+044030FM-12+0023FMMO V0201401N002111050019N0300001N1+02421+02331101191ADDAA199000091GA1031+006009029GF106991041081008001001021MA1999999100931MD1310021+9999REMSYN076AAXX  06034 67073 33580 61404 10242 20233 30093 40119 53002 84802 333 83820;EQDQ01  00002PRCP99
0263670730999992000040606004-18050+044030FM-12+0023FMMO V0200201N00311105001CN0400001N1+02901+02291101291ADDAA199000091GA1031+006909089GF106991031081008001001021IA2240+02309KA1120M+03421KA2120N+02381MA1999999101031MD1110101+9999REMSYN112AAXX  06064 67073 32582 60206 10290 20229 30103 40129 51010 83802 333 02300 10342 20238 50//4 55/// 83823 83073;EQDQ01  00002PRCP99
0189670730999992000040609004-18050+044030FM-12+0023FMMO V0200201N003112200019N0400001N1+03231+01961101111ADDAA199000091GA1021+006909029GF103991021021008001001021MA1999999100851MD1810181+9999REMSYN076AAXX  06094 67073 32582 30206 10323 20196 30085 40111 58018 82202 333 82823;EQDQ01  00002PRCP99
0239670730999992000040612004-18050+044030FM-12+0023FMMO V0202801N005712200019N0400001N1+03111+02351100951ADDAA199000091GA1011+006909099GA2021+006909089GF103991021091008001001021MA1999999100691MD1610161+9999REMSYN110AAXX  06124 67073 32582 32811 10311 20235 30069 40095 56016 82902 333 0//00 82823 81923 94993 95813 555 82073;EQDQ01  00002PRCP99
0224670730999992000040615004-18050+044030FM-12+0023FMMO V0203001N003612200019N0300001N1+02851+02311101081ADDAA199000091GA1011+009909069GF102991021081008001001021KA1120M+03361MA1999999100821MD1310131+9999REMSYN098AAXX  06154 67073 32580 23007 10285 20231 30082 40108 53013 82802 333 10336 81820 555 81633 81073;EQDQ01  00002PRCP99
0227670730999992000040703004-18050+044030FM-12+0023FMMO V0209999C000010450019N0300001N1+02331+02291101191ADDAA199000091GA1021+009009069GA2011+030009039GF105991031081008001031021MA1999999100931MD1310021+9999REMSYN098AAXX  07034 67073 33580 50000 10233 20229 30093 40119 53002 83832 333 82820 555 82630 81360 81073;EQDQ01  00002PRCP99
0273670730999992000040706004-18050+044030FM-12+0023FMMO V0201201N002612200019N0400001N1+02991+02471101301ADDAA199000091GA1011+009909069GF102991021081008001001021IA2240+02309KA1120M+03361KA2120N+02331MA1999999101041MD1110111+9999REMSYN122AAXX  07064 67073 32582 21205 10299 20247 30104 40130 51011 82802 333 02300 10336 20233 50//4 55/// 81823 555 81633 81073;EQDQ01  00002PRCP99
0199670730999992000040709004-18050+044030FM-12+0023FMMO V0202601N004112200019N0400001N1+03031+02541101201ADDAA199000091GA1031+006909089GF103991031021008001001021MA1999999100941MD1810101+9999REMSYN086AAXX  07094 67073 32582 32608 10303 20254 30094 40120 58010 83202 333 83823 555 81073;EQDQ01  00002PRCP99
0229670730999992000040712004-18050+044030FM-12+0023FMMO V0202601N004612200019N0400001N1+03101+02491101051ADDAA199000091GA1011+006909099GA2031+006909089GF103991031091008001001021MA1999999100791MD1710151+9999REMSYN100AAXX  07124 67073 32582 32609 10310 20249 30079 40105 57015 83902 333 0//00 83823 81923 94993 95813;EQDQ01  00002PRCP99
0242670730999992000040715004-18050+044030FM-12+0023FMMO V0202601N003112200019N0300001N1+02831+02511101141ADDAA199000091GA1011+006009099GA2041+006009089GF104991041091008001001021KA1120M+03191MA1999999100881MD1310091+9999REMSYN100AAXX  07154 67073 32580 42606 10283 20251 30088 40114 53009 84902 333 10319 84820 81920 94993 95813;EQDQ01  00002PRCP99
0257670730999992000040803004-18050+044030FM-12+0023FMMO V0201001N002610090019N0300001N1+02401+02331101221ADDAA199000091GA1011+006009099GA2031+006009089GA3031+009009069GF105991051091008001001001MA1999999100961MD1310061+9999REMSYN112AAXX  08034 67073 33580 51005 10240 20233 30096 40122 53006 85900 333 83820 81920 83630 94994 94995 95814 95815;EQDQ01  00002PRCP99
0291670730999992000040806004-18050+044030FM-12+0023FMMO V0201401N002112200019N0400001N1+03001+02521101351ADDAA199000091GA1011+006909099GA2031+006909089GF103991031091008001031001IA2240+02309KA1120M+03191KA2120N+02381MA1999999101091MD1110131+9999REMSYN124AAXX  08064 67073 32582 31404 10300 20252 30109 40135 51013 83930 333 02300 10319 20238 50//4 55/// 83823 81923 94994 95814;EQDQ01  00002PRCP99
0189670730999992000040903004-18050+044030FM-12+0023FMMO V0209999C000012200019N0300001N1+02461+02371101311ADDAA199000091GA1021+006009029GF103991031081008001001001MA1999999101051MD1310101+9999REMSYN076AAXX  09034 67073 33580 30000 10246 20237 30105 40131 53010 83800 333 82820;EQDQ01  00002PRCP99
0235670730999992000041003004-18050+044030FM-12+0023FMMO V0209999C000010060019N0300001N1+02501+02361101281ADDAA199000091GA1011+006009099GA2041+006009089GF105991051091008001001001MA1999999101021MD1310071+9999REMSYN106AAXX  10034 67073 33580 50000 10250 20236 30102 40128 53007 85900 333 84820 81920 94992 94994 95812 95814;EQDQ01  00002PRCP99
0291670730999992000041006004-18050+044030FM-12+0023FMMO V0201401N003612200019N0400001N1+02901+02511101441ADDAA199000091GA1011+006909099GA2031+006909089GF104991031091008001031001IA2240+02309KA1120M+03181KA2120N+02361MA1999999101181MD1110161+9999REMSYN124AAXX  10064 67073 32582 41407 10290 20251 30118 40144 51016 83930 333 02300 10318 20236 50//4 55/// 83823 81923 94996 95816;EQDQ01  00002PRCP99
0223670730999992000041009004-18050+044030FM-12+0023FMMO V0202201N004612200019N0400001N1+03091+02571101341ADDAA199000091GA1011+006909099GA2041+006909089GF104991041091008001031001MA1999999101081MD1810101+9999REMSYN094AAXX  10094 67073 32582 42209 10309 20257 30108 40134 58010 84930 333 84823 81923 94994 95814;EQDQ01  00002PRCP99
0257670730999992000041012004-18050+044030FM-12+0023FMMO V0202001N00361007501CN0200001N1+03111+02481101211ADDAA199000091AY191061AY211061GA1021+009009069GF106991061091008001001031MA1999999100951MD1610131+9999MW1291REMSYN122AAXX  10124 67073 31570 62007 10311 20248 30095 40121 56013 72991 86903 333 0//00 84820 81920 94992 95832 555 82630 81073;EQDQ01  00002PRCP99
0242670730999992000041015004-18050+044030FM-12+0023FMMO V0209999C00001007501CN0300001N1+02651+02441101231ADDAA199000091GA1021+009009069GF106991051091008001031001KA1120M+03191MA1999999100971MD1310021+9999REMSYN116AAXX  10154 67073 32580 60000 10265 20244 30097 40123 53002 85930 333 10319 84820 81920 94992 95812 555 82630 81360;EQDQ01  00002PRCP99
0344670730999992000041106004-18050+044030FM-12+0023FMMO V0200801N003610090019N0350001N1+02851+02501101441ADDAA124007991AC11C9AY161061AY261061GA1011+006909099GA2031+006909089GA3031+009009069GF106991061091008001031001IA2240+02309KA1120M+03191KA2120N+02361MA1999999101181MD1110101+9999MW1011REMSYN152AAXX  11064 67073 11581 60807 10285 20250 30118 40144 51010 60084 70166 86930 333 02321 10319 20236 50//4 55/// 83823 81923 83630 94996 95816 555 81360;
0245670730999992000041109004-18050+044030FM-12+0023FMMO V0203601N004610300019N0400001N1+03031+02261101321ADDAA199000091GA1011+006909099GA2031+006909089GA3031+030009039GF105991031091008001031001MA1999999101061MD1810121+9999REMSYN100AAXX  11094 67073 32582 53609 10303 20226 30106 40132 58012 83930 333 83823 81923 83360 94995 95815;EQDQ01  00002PRCP99
0195670730999992000041112004-18050+044030FM-12+0023FMMO V0203201N004612200019N0400001N1+03151+02521101141ADDAA199000091GA1021+006909029GF103991021021008001031001MA1999999100881MD1610181+9999REMSYN082AAXX  11124 67073 32582 33209 10315 20252 30088 40114 56018 82230 333 0//00 82823;EQDQ01  00002PRCP99
0189670730999992000041203004-18050+044030FM-12+0023FMMO V0200801N002612200019N0300001N1+02301+02261101371ADDAA199000091GA1021+006009029GF103991021081008001001021MA1999999101111MD1310081+9999REMSYN076AAXX  12034 67073 33580 30805 10230 20226 30111 40137 53008 82802 333 82820;EQDQ01  00002PRCP99
0257670730999992000041206004-18050+044030FM-12+0023FMMO V0200601N003612200019N0400001N1+02861+02491101451ADDAA199000091GA1021+006909029GF102991021021008001001021IA2240+02209KA1120M+03231KA2120N+02301MA1999999101191MD1110081+9999REMSYN106AAXX  12064 67073 32582 20607 10286 20249 30119 40145 51008 82202 333 02200 10323 20230 50//4 55/// 82823;EQDQ01  00002PRCP99
0189670730999992000041209004-18050+044030FM-12+0023FMMO V0203201N004112200019N0400001N1+03111+02541101321ADDAA199000091GA1041+006909029GF104991041021008001001021MA1999999101061MD1810131+9999REMSYN076AAXX  12094 67073 32582 43208 10311 20254 30106 40132 58013 84202 333 84823;EQDQ01  00002PRCP99
0239670730999992000041212004-18050+044030FM-12+0023FMMO V0202601N005112200019N0400001N1+03051+02531101161ADDAA199000091GA1011+006909099GA2041+006909089GF104991041091008001001021MA1999999100901MD1610161+9999REMSYN110AAXX  12124 67073 32582 42610 10305 20253 30090 40116 56016 84902 333 0//00 84823 81923 94994 95814 555 81073;EQDQ01  00002PRCP99
0252670730999992000041215004-18050+044030FM-12+0023FMMO V0202801N003612200019N0350001N1+02761+02511101261ADDAA199000091GA1011+006009099GA2031+006009089GF104991031091008001001021KA1120M+03171MA1999999101001MD1310101+9999REMSYN110AAXX  12154 67073 32581 42807 10276 20251 30100 40126 53010 83902 333 10317 83820 81920 94993 95813 555 82073;EQDQ01  00002PRCP99
0199670730999992000041303004-18050+044030FM-12+0023FMMO V0201401N002612200019N0300001N1+02351+02291101321ADDAA199000091GA1021+006009089GF103991031081008001001001MA1999999101061MD1310031+9999REMSYN086AAXX  13034 67073 33580 31405 10235 20229 30106 40132 53003 83800 333 82820 555 82630;EQDQ01  00002PRCP99
0267670730999992000041306004-18050+044030FM-12+0023FMMO V0201201N002612200019N0400001N1+02801+02521101401ADDAA199000091GA1031+006909089GF104991041081008001001001IA2240+02309KA1120M+03171KA2120N+02341MA1999999101141MD1110081+9999REMSYN116AAXX  13064 67073 32582 41205 10280 20252 30114 40140 51008 84800 333 02300 10317 20234 5///4 55/// 83823 555 82633;EQDQ01  00002PRCP99
0189670730999992000041309004-18050+044030FM-12+0023FMMO V0202201N002612200019N0400001N1+03051+02531101231ADDAA199000091GA1031+006909029GF103991031021008001001001MA1999999100971MD1810171+9999REMSYN076AAXX  13094 67073 32582 32205 10305 20253 30097 40123 58017 83200 333 83823;EQDQ01  00002PRCP99
0229670730999992000041312004-18050+044030FM-12+0023FMMO V0202201N005112200019N0400001N1+03031+02511101081ADDAA199000091GA1011+006909099GA2031+006909089GF103991031091008001001001MA1999999100821MD1710151+9999REMSYN100AAXX  13124 67073 32582 32210 10303 20251 30082 40108 57015 83900 333 0//00 83823 81923 94993 95813;EQDQ01  00002PRCP99
0242670730999992000041315004-18050+044030FM-12+0023FMMO V0202201N003612200019N0300001N1+02761+02621101121ADDAA199000091GA1011+006009099GA2021+006009089GF102991021091008001001001KA1120M+03111MA1999999100861MD1310041+9999REMSYN100AAXX  13154 67073 32580 22207 10276 20262 30086 40112 53004 82900 333 10311 82820 81920 94992 95812;EQDQ01  00002PRCP99
0189670730999992000041403004-18050+044030FM-12+0023FMMO V0201201N002112200019N0300001N1+02481+02421101221ADDAA199000091GA1031+006009029GF104991041081008001001001MA1999999100961MD1310041+9999REMSYN076AAXX  14034 67073 33580 41204 10248 20242 30096 40122 53004 84800 333 83820;EQDQ01  00002PRCP99
0257670730999992000041406004-18050+044030FM-12+0023FMMO V0201401N003612200019N0400001N1+02941+02611101291ADDAA199000091GA1031+006909029GF103991031021008001001001IA2240+02309KA1120M+03111KA2120N+02451MA1999999101031MD1110071+9999REMSYN106AAXX  14064 67073 32582 31407 10294 20261 30103 40129 51007 83200 333 02300 10311 20245 5///4 55/// 83823;EQDQ01  00002PRCP99
0189670730999992000041409004-18050+044030FM-12+0023FMMO V0202201N004112200019N0400001N1+03051+02471101231ADDAA199000091GA1031+006909029GF103991031021008001001001MA1999999100971MD1810061+9999REMSYN076AAXX  14094 67073 32582 32208 10305 20247 30097 40123 58006 83200 333 83823;EQDQ01  00002PRCP99
0242670730999992000041415004-18050+044030FM-12+0023FMMO V0202001N002612200019N0300001N1+02771+02441101121ADDAA199000091GA1011+006009099GA2021+006009089GF102991021091008001001001KA1120M+03131MA1999999100861MD1310071+9999REMSYN100AAXX  14154 67073 32580 22005 10277 20244 30086 40112 53007 82900 333 10313 82820 81920 94992 95812;EQDQ01  00002PRCP99
0205670730999992000041503004-18050+044030FM-12+0023FMMO V0201601N002112200019N0300001N1+02371+02311101191ADDAA199000091GA1011+030009039GF104991021021008001031021MA1999999100931MD1310101+9999REMSYN092AAXX  15034 67073 33580 41604 10237 20231 30093 40119 53010 82232 333 82820 555 81360 82073;EQDQ01  00002PRCP99
0267670730999992000041506004-18050+044030FM-12+0023FMMO V0201401N002612200019N0400001N1+02881+02511101281ADDAA199000091GA1021+006909089GF102991021021008001001021IA2240+02209KA1120M+03131KA2120N+02351MA1999999101021MD1110091+9999REMSYN116AAXX  15064 67073 32582 21405 10288 20251 30102 40128 51009 82202 333 02200 10313 20235 5///4 55/// 82823 555 81073;EQDQ01  00002PRCP99
0189670730999992000041603004-18050+044030FM-12+0023FMMO V0201601N002612200019N0300001N1+02371+02331101311ADDAA199000091GA1021+006009029GF102991021081008001001001MA1999999101051MD1310111+9999REMSYN076AAXX  16034 67073 33580 21605 10237 20233 30105 40131 53011 82800 333 82820;EQDQ01  00002PRCP99
0257670730999992000041606004-18050+044030FM-12+0023FMMO V0202001N003612200019N0400001N1+02921+02531101441ADDAA199000091GA1031+006909029GF103991031021008001001001IA2240+02309KA1120M+03121KA2120N+02361MA1999999101181MD1110131+9999REMSYN106AAXX  16064 67073 32582 32007 10292 20253 30118 40144 51013 83200 333 02300 10312 20236 5///4 55/// 83823;EQDQ01  00002PRCP99
0199670730999992000041703004-18050+044030FM-12+0023FMMO V0201201N002112200019N0300001N1+02461+02421101321ADDAA199000091GA1021+006009089GF103991031081008001001001MA1999999101061MD1310021+9999REMSYN086AAXX  17034 67073 33580 31204 10246 20242 30106 40132 53002 83800 333 82820 555 82630;EQDQ01  00002PRCP99
0267670730999992000041706004-18050+044030FM-12+0023FMMO V0202001N003612200019N0400001N1+02921+02531101481ADDAA199000091GA1011+006909089GF101991011021008001031001IA2240+02309KA1120M+03121KA2120N+02421MA1999999101221MD1110161+9999REMSYN116AAXX  17064 67073 32582 12007 10292 20253 30122 40148 51016 81230 333 02300 10312 20242 5///4 55/// 81823 555 81360;EQDQ01  00002PRCP99
0189670730999992000041709004-18050+044030FM-12+0023FMMO V0202201N004612200019N0400001N1+03101+02501101361ADDAA199000091GA1021+006909029GF102991021021008001001001MA1999999101101MD1810121+9999REMSYN076AAXX  17094 67073 32582 22209 10310 20250 30110 40136 58012 82200 333 82823;EQDQ01  00002PRCP99
0229670730999992000041712004-18050+044030FM-12+0023FMMO V0202001N004612200019N0400001N1+03021+02431101171ADDAA199000091GA1011+006909099GA2021+006909089GF102991021091008001001001MA1999999100911MD1610191+9999REMSYN100AAXX  17124 67073 32582 22009 10302 20243 30091 40117 56019 82900 333 0//00 82823 81923 94993 95813;EQDQ01  00002PRCP99
0257670730999992000041806004-18050+044030FM-12+0023FMMO V0201201N004112200019N0400001N1+02851+02501101361ADDAA199000091GA1021+006909029GF102991021021008001001001IA2240+02309KA1120M+03151KA2120N+02351MA1999999101101MD1110031+9999REMSYN106AAXX  18064 67073 32582 21208 10285 20250 30110 40136 51003 82200 333 02300 10315 20235 5///4 55/// 82823;EQDQ01  00002PRCP99
0205670730999992000041812004-18050+044030FM-12+0023FMMO V0202001N006712200019N0400001N1+03031+02541101101ADDAA199000091GA1021+006909089GF102991021021008001001021MA1999999100841MD1610151+9999REMSYN092AAXX  18124 67073 32582 22013 10303 20254 30084 40110 56015 82202 333 0//00 82823 555 81073;EQDQ01  00002PRCP99
0242670730999992000041815004-18050+044030FM-12+0023FMMO V0202001N004612200019N0300001N1+02771+02531101231ADDAA199000091GA1011+006009099GA2041+006009089GF104991041091008001001001KA1120M+03151MA1999999100971MD1310131+9999REMSYN100AAXX  18154 67073 32580 42009 10277 20253 30097 40123 53013 84900 333 10315 84820 81920 94992 95812;EQDQ01  00002PRCP99
0199670730999992000041903004-18050+044030FM-12+0023FMMO V0201401N002612200019N0300001N1+02361+02301101281ADDAA199000091GA1031+006009089GF104991041081008001001001MA1999999101021MD1310031+9999REMSYN086AAXX  19034 67073 33580 41405 10236 20230 30102 40128 53003 84800 333 83820 555 82630;EQDQ01  00002PRCP99
0267670730999992000041906004-18050+044030FM-12+0023FMMO V0201601N003612200019N0400001N1+02831+02461101401ADDAA199000091GA1021+006909089GF103991021021008001031001IA2240+02309KA1120M+03151KA2120N+02331MA1999999101141MD1110121+9999REMSYN116AAXX  19064 67073 32582 31607 10283 20246 30114 40140 51012 82230 333 02300 10315 20233 5///4 55/// 82823 555 82360;EQDQ01  00002PRCP99
0229670730999992000041912004-18050+044030FM-12+0023FMMO V0202001N006712200019N0400001N1+03001+02431101151ADDAA199000091GA1011+006909099GA2031+006909089GF103991031091008001001001MA1999999100891MD1610171+9999REMSYN100AAXX  19124 67073 32582 32013 10300 20243 30089 40115 56017 83900 333 0//00 83823 81923 94992 95818;EQDQ01  00002PRCP99
0242670730999992000041915004-18050+044030FM-12+0023FMMO V0202001N005110060019N0300001N1+02751+02421101211ADDAA199000091GA1011+006009099GA2051+006009089GF105991051091008001001001KA1120M+03131MA1999999100951MD1310061+9999REMSYN100AAXX  19154 67073 32580 52010 10275 20242 30095 40121 53006 85900 333 10313 85820 81920 94992 95812;EQDQ01  00002PRCP99
0195670730999992000042003004-18050+044030FM-12+0023FMMO V0201601N002612200019N0300001N1+02301+02261101221ADDAA199000091GA1031+006009089GF103991031081008001001001MA1999999100961MD1810061+9999REMSYN082AAXX  20034 67073 33580 31605 10230 20226 30096 40122 58006 83800 333 83820 81630;EQDQ01  00002PRCP99
0257670730999992000042006004-18050+044030FM-12+0023FMMO V0201201N002612200019N0400001N1+02901+02481101361ADDAA199000091GA1021+006909029GF102991021021008001001001IA2240+02209KA1120M+03131KA2120N+02301MA1999999101101MD1110141+9999REMSYN106AAXX  20064 67073 32582 21205 10290 20248 30110 40136 51014 82200 333 02200 10313 20230 5///4 55/// 82823;EQDQ01  00002PRCP99
0189670730999992000042009004-18050+044030FM-12+0023FMMO V0202001N004612200019N0400001N1+03001+02481101231ADDAA199000091GA1031+006909029GF103991031021008001001001MA1999999100971MD1810131+9999REMSYN076AAXX  20094 67073 32582 32009 10300 20248 30097 40123 58013 83200 333 83823;EQDQ01  00002PRCP99
0229670730999992000042012004-18050+044030FM-12+0023FMMO V0202001N004112200019N0350001N1+03001+02481101091ADDAA199000091GA1011+006909099GA2031+006909089GF103991031091008001001001MA1999999100831MD1610141+9999REMSYN100AAXX  20124 67073 32581 32008 10300 20248 30083 40109 56014 83900 333 0//00 83823 81923 94992 95812;EQDQ01  00002PRCP99
0199670730999992000042103004-18050+044030FM-12+0023FMMO V0201201N002112200019N0300001N1+02361+02321101241ADDAA199000091GA1031+006009089GF103991031081008001001001MA1999999100981MD1310041+9999REMSYN086AAXX  21034 67073 33580 31204 10236 20232 30098 40124 53004 83800 333 83820 555 81630;EQDQ01  00002PRCP99
0257670730999992000042106004-18050+044030FM-12+0023FMMO V0201801N002112200019N0400001N1+02911+02471101381ADDAA199000091GA1021+006909029GF102991021021008001001001IA2240+02209KA1120M+03051KA2120N+02321MA1999999101121MD1110141+9999REMSYN106AAXX  21064 67073 32582 21804 10291 20247 30112 40138 51014 82200 333 02200 10305 20232 5///4 55/// 82823;EQDQ01  00002PRCP99
0189670730999992000042109004-18050+044030FM-12+0023FMMO V0202001N003612200019N0400001N1+03051+02411101301ADDAA199000091GA1021+006909029GF102991021021008001001001MA1999999101041MD1810081+9999REMSYN076AAXX  21094 67073 32582 22007 10305 20241 30104 40130 58008 82200 333 82823;EQDQ01  00002PRCP99
0229670730999992000042112004-18050+044030FM-12+0023FMMO V0202601N004612200019N0350001N1+03001+02491101101ADDAA199000091GA1011+006909099GA2021+006909089GF102991021091008001001001MA1999999100841MD1610201+9999REMSYN100AAXX  21124 67073 32581 22609 10300 20249 30084 40110 56020 82900 333 0//00 82823 81923 94992 95812;EQDQ01  00002PRCP99
0189670730999992000042203004-18050+044030FM-12+0023FMMO V0201001N002112200019N0300001N1+02321+02261101331ADDAA199000091GA1021+006009029GF102991021081008001001001MA1999999101071MD1310061+9999REMSYN076AAXX  22034 67073 33580 21004 10232 20226 30107 40133 53006 82800 333 82820;EQDQ01  00002PRCP99
0251670730999992000042206004-18050+044030FM-12+0023FMMO V0202001N001512200019N0400001N1+02911+02411101421ADDAA199000091GA1021+006909029GF102991021021008001001001IA2240+02209KA1120M+03101KA2120N+02301MA1999999101161MD1310091+9999REMSYN100AAXX  22064 67073 32582 22003 10291 20241 30116 40142 53009 82200 333 02200 10310 20230 55/// 82823;EQDQ01  00002PRCP99
0205670730999992000042303004-18050+044030FM-12+0023FMMO V0201001N00261012001CN0300001N1+02291+02251101401ADDAA199000091GA1011+009009069GF105991051081008001001021MA1999999101141MD1310051+9999REMSYN092AAXX  23034 67073 33580 51005 10229 20225 30114 40140 53005 85802 333 84820 555 81630 81073;EQDQ01  00002PRCP99
0261670730999992000042306004-18050+044030FM-12+0023FMMO V0201601N002612200019N0400001N1+02911+02431101491ADDAA199000091GA1021+006909089GF103991021021008001001021IA2240+02109KA1120M+03071KA2120N+02291MA1999999101231MD1110091+9999REMSYN110AAXX  23064 67073 32582 31605 10291 20243 30123 40149 51009 82202 333 02100 10307 20229 55/// 82823 555 82073;EQDQ01  00002PRCP99
0189670730999992000042403004-18050+044030FM-12+0023FMMO V0209999C000012200019N0300001N1+01951+01901101371ADDAA199000091GA1021+006009029GF102991021081008001001001MA1999999101111MD1310081+9999REMSYN076AAXX  24034 67073 33580 20000 10195 20190 30111 40137 53008 82800 333 82820;EQDQ01  00002PRCP99
0257670730999992000042406004-18050+044030FM-12+0023FMMO V0201601N002612200019N0400001N1+02731+02021101451ADDAA199000091GA1011+006909029GF101991011021008001001001IA2240+01809KA1120M+03091KA2120N+01951MA1999999101191MD1110081+9999REMSYN106AAXX  24064 67073 32582 11605 10273 20202 30119 40145 51008 81200 333 01800 10309 20195 5///4 55/// 81823;EQDQ01  00002PRCP99
0199670730999992000042503004-18050+044030FM-12+0023FMMO V0201201N002112200019N0300001N1+02371+02301101381ADDAA199000091GA1021+006009089GF102991021081008001001001MA1999999101121MD1310071+9999REMSYN086AAXX  25034 67073 33580 21204 10237 20230 30112 40138 53007 82800 333 82820 555 81630;EQDQ01  00002PRCP99
0245670730999992000042506004-18050+044030FM-12+0023FMMO V0201401N004612200019N0400001N1+02761+02391101451ADDAA199000091GA1001+999999999GF100991001001999999001001IA2240+02209KA1120M+03101KA2120N+02331MA1999999101191MD1010071+9999REMSYN094AAXX  25064 67073 32982 01409 10276 20239 30119 40145 50007 333 02200 10310 20233 5///4 55///;EQDQ01  00002PRCP99
0189670730999992000042509004-18050+044030FM-12+0023FMMO V0202201N002612200019N0400001N1+03211+02071101321ADDAA199000091GA1011+006909029GF101991011011008001001001MA1999999101061MD1810131+9999REMSYN076AAXX  25094 67073 32582 12205 10321 20207 30106 40132 58013 81100 333 81823;EQDQ01  00002PRCP99
0229670730999992000042512004-18050+044030FM-12+0023FMMO V0202201N005112200019N0400001N1+03071+02401101181ADDAA199000091GA1011+006909099GA2021+006909089GF102991021091008001001001MA1999999100921MD1610141+9999REMSYN100AAXX  25124 67073 32582 22210 10307 20240 30092 40118 56014 82900 333 0//00 82823 81923 94993 95813;EQDQ01  00002PRCP99
0242670730999992000042515004-18050+044030FM-12+0023FMMO V0202201N004112200019N0300001N1+02801+02431101231ADDAA199000091GA1011+006009099GA2031+006009089GF103991031091008001001001KA1120M+03251MA1999999100971MD1310051+9999REMSYN100AAXX  25154 67073 32580 32208 10280 20243 30097 40123 53005 83900 333 10325 83820 81920 94992 95812;EQDQ01  00002PRCP99
0189670730999992000042603004-18050+044030FM-12+0023FMMO V0201001N002612200019N0300001N1+02401+02341101331ADDAA199000091GA1021+006009029GF103991031081008001001001MA1999999101071MD1310051+9999REMSYN076AAXX  26034 67073 33580 31005 10240 20234 30107 40133 53005 83800 333 82820;EQDQ01  00002PRCP99
0257670730999992000042606004-18050+044030FM-12+0023FMMO V0201601N004112200019N0400001N1+02831+02481101441ADDAA199000091GA1011+006909029GF101991011081008001001001IA2240+02309KA1120M+03251KA2120N+02351MA1999999101181MD1110111+9999REMSYN106AAXX  26064 67073 32582 11608 10283 20248 30118 40144 51011 81800 333 02300 10325 20235 5///4 55/// 81823;EQDQ01  00002PRCP99
0229670730999992000042612004-18050+044030FM-12+0023FMMO V0202401N005112200019N0400001N1+03021+02421101181ADDAA199000091GA1011+006909099GA2031+006909089GF103991031091008001001001MA1999999100921MD1610141+9999REMSYN100AAXX  26124 67073 32582 32410 10302 20242 30092 40118 56014 83900 333 0//00 83823 81923 94992 95812;EQDQ01  00002PRCP99
0242670730999992000042615004-18050+044030FM-12+0023FMMO V0202001N003112200019N0300001N1+02821+02391101251ADDAA199000091GA1011+006009099GA2021+006009089GF102991021091008001001001KA1120M+03111MA1999999100991MD1310071+9999REMSYN100AAXX  26154 67073 32580 22006 10282 20239 30099 40125 53007 82900 333 10311 82820 81920 94991 95811;EQDQ01  00002PRCP99
0199670730999992000042703004-18050+044030FM-12+0023FMMO V0201801N002612200019N0300001N1+02401+02341101391ADDAA199000091GA1021+006009089GF102991021081008001001001MA1999999101131MD1310071+9999REMSYN086AAXX  27034 67073 33580 21805 10240 20234 30113 40139 53007 82800 333 82820 555 81640;EQDQ01  00002PRCP99
0257670730999992000042706004-18050+044030FM-12+0023FMMO V0201601N003612200019N0400001N1+02941+02491101531ADDAA199000091GA1011+030009079GF101991011001999999031001IA2240+02309KA1120M+03111KA2120N+02371MA1999999101271MD1110141+9999REMSYN106AAXX  27064 67073 32982 11607 10294 20249 30127 40153 51014 81030 333 02300 10311 20237 5///4 55/// 81360;EQDQ01  00002PRCP99
0189670730999992000042709004-18050+044030FM-12+0023FMMO V0202201N004612200019N0400001N1+03181+02411101421ADDAA199000091GA1011+006909029GF101991011021008001001001MA1999999101161MD1810111+9999REMSYN076AAXX  27094 67073 32582 12209 10318 20241 30116 40142 58011 81200 333 81823;EQDQ01  00002PRCP99
0229670730999992000042712004-18050+044030FM-12+0023FMMO V0202201N004612200019N0400001N1+03071+02551101301ADDAA199000091GA1011+006909099GA2021+006909089GF102991021091008001001001MA1999999101041MD1610121+9999REMSYN100AAXX  27124 67073 32582 22209 10307 20255 30104 40130 56012 82900 333 0//00 82823 81923 94993 95813;EQDQ01  00002PRCP99
0196670730999992000042715004-18050+044030FM-12+0023FMMO V0202001N003612200019N0300001N1+02821+02511101311ADDAA199000091GA1001+999999999GF100991001001999999001001KA1999M+03251MA1999999101051MD1310011+9999REMSYN070AAXX  27154 67073 32980 02007 10282 20251 30105 40131 53001 333 10325;EQDQ01  00002PRCP99
0189670730999992000042803004-18050+044030FM-12+0023FMMO V0201401N002112200019N0300001N1+02281+02191101551ADDAA199000091GA1011+012009059GF101991011051012501031001MA1999999101291MD1310091+9999REMSYN076AAXX  28034 67073 33680 11404 10228 20219 30129 40155 53009 81530 333 81640;EQDQ01  00002PRCP99
0257670730999992000042806004-18050+044030FM-12+0023FMMO V0201801N003112200019N0400001N1+02851+02241101651ADDAA199000091GA1011+006909029GF101991011021008001031001IA2240+02209KA1120M+03251KA2120N+02281MA1999999101391MD1110101+9999REMSYN106AAXX  28064 67073 32582 11806 10285 20224 30139 40165 51010 81230 333 02200 10325 20228 5///4 55/// 81823;EQDQ01  00002PRCP99
0189670730999992000042809004-18050+044030FM-12+0023FMMO V0201801N006712200019N0400001N1+03031+02391101581ADDAA199000091GA1011+006909029GF101991011021008001031001MA1999999101321MD1810071+9999REMSYN076AAXX  28094 67073 32582 11813 10303 20239 30132 40158 58007 81230 333 81823;EQDQ01  00002PRCP99
0205670730999992000042812004-18050+044030FM-12+0023FMMO V0201801N006212200019N0400001N1+03011+02401101411ADDAA199000091GA1011+006909089GF101991011021008001031001MA1999999101151MD1610171+9999REMSYN092AAXX  28124 67073 32582 11812 10301 20240 30115 40141 56017 81230 333 0//00 81823 555 81360;EQDQ01  00002PRCP99
0252670730999992000042815004-18050+044030FM-12+0023FMMO V0201801N004112200019N0300001N1+02761+02391101451ADDAA199000091GA1011+006009099GA2011+006009089GF101991011091008001031001KA1120M+03091MA1999999101191MD1310041+9999REMSYN110AAXX  28154 67073 32580 11808 10276 20239 30119 40145 53004 81930 333 10309 81820 81920 94991 95811 555 81360;EQDQ01  00002PRCP99
0199670730999992000042903004-18050+044030FM-12+0023FMMO V0201201N002112200019N0300001N1+02241+02141101541ADDAA199000091GA1011+006009089GF101991011021008001031001MA1999999101281MD1310041+9999REMSYN086AAXX  29034 67073 33580 11204 10224 20214 30128 40154 53004 81230 333 81820 555 81360;EQDQ01  00002PRCP99
0257670730999992000042906004-18050+044030FM-12+0023FMMO V0201801N002612200019N0400001N1+02831+02361101641ADDAA199000091GA1011+006909029GF101991011021008001001001IA2240+02109KA1120M+03091KA2120N+02211MA1999999101381MD1010101+9999REMSYN106AAXX  29064 67073 32582 11805 10283 20236 30138 40164 50010 81200 333 02100 10309 20221 5///4 55/// 81823;EQDQ01  00002PRCP99
0189670730999992000043003004-18050+044030FM-12+0023FMMO V0201201N002112200019N0300001N1+02261+02221101461ADDAA199000091GA1021+006009029GF102991021021008001001001MA1999999101201MD1610041+9999REMSYN076AAXX  30034 67073 33580 21204 10226 20222 30120 40146 56004 82200 333 82820;EQDQ01  00002PRCP99
0257670730999992000043006004-18050+044030FM-12+0023FMMO V0202001N002112200019N0400001N1+02801+02401101561ADDAA199000091GA1031+006909029GF103991031021008001001001IA2240+02109KA1120M+03031KA2120N+02261MA1999999101301MD1110101+9999REMSYN106AAXX  30064 67073 32582 32004 10280 20240 30130 40156 51010 83200 333 02100 10303 20226 5///4 55/// 83823;EQDQ01  00002PRCP99
0199670730999992000050103004-18050+044030FM-12+0023FMMO V0209999C000012200019N0300001N1+02281+02221101381ADDAA199000091GA1031+006009089GF104991041081008001001001MA1999999101121MD1310021+9999REMSYN086AAXX  01034 67073 33580 40000 10228 20222 30112 40138 53002 84800 333 83820 555 82633;EQDQ01  00002PRCP99
0267670730999992000050106004-18050+044030FM-12+0023FMMO V0201001N002112200019N0400001N1+02911+02381101481ADDAA199000091GA1021+006909089GF102991021021008001031001IA2240+02109KA1120M+03011KA2120N+02281MA1999999101221MD1010101+9999REMSYN116AAXX  01064 67073 32582 21004 10291 20238 30122 40148 50010 82230 333 02100 10301 20228 5///4 55/// 82823 555 81360;EQDQ01  00002PRCP99
0189670730999992000050109004-18050+044030FM-12+0023FMMO V0203001N005112200019N0400001N1+02991+02381101421ADDAA199000091GA1031+006909029GF103991031021008001001001MA1999999101161MD1810061+9999REMSYN076AAXX  01094 67073 32582 33010 10299 20238 30116 40142 58006 83200 333 83823;EQDQ01  00002PRCP99
0195670730999992000050203004-18050+044030FM-12+0023FMMO V0201001N002112200019N0300001N1+02251+02201101551ADDAA199000091GA1021+006009089GF103991031081008001001001MA1999999101291MD1310071+9999REMSYN082AAXX  02034 67073 33580 31004 10225 20220 30129 40155 53007 83800 333 82820 82630;EQDQ01  00002PRCP99
0257670730999992000050206004-18050+044030FM-12+0023FMMO V0201401N002612200019N0400001N1+02901+02421101601ADDAA199000091GA1031+006909029GF103991031021008001001001IA2240+02209KA1120M+03081KA2120N+02241MA1999999101341MD1110051+9999REMSYN106AAXX  02064 67073 32582 31405 10290 20242 30134 40160 51005 83200 333 02200 10308 20224 5///4 55/// 83823;EQDQ01  00002PRCP99
0189670730999992000050209004-18050+044030FM-12+0023FMMO V0202801N004112200019N0400001N1+03021+02421101511ADDAA199000091GA1031+006909029GF103991031021008001001001MA1999999101251MD1810091+9999REMSYN076AAXX  02094 67073 32582 32808 10302 20242 30125 40151 58009 83200 333 83823;EQDQ01  00002PRCP99
0229670730999992000050212004-18050+044030FM-12+0023FMMO V0202601N006212200019N0400001N1+03031+02451101371ADDAA199000091GA1011+006909099GA2031+006909089GF103991031091008001001001MA1999999101111MD1610141+9999REMSYN100AAXX  02124 67073 32582 32612 10303 20245 30111 40137 56014 83900 333 0//00 83823 81923 94993 95813;EQDQ01  00002PRCP99
0218670730999992000050215004-18050+044030FM-12+0023FMMO V0202601N003112200019N0300001N1+02801+02371101461ADDAA199000091GA1021+006009089GF102991021021008001031001KA1120M+03131MA1999999101201MD1310091+9999REMSYN092AAXX  02154 67073 32580 22606 10280 20237 30120 40146 53009 82230 333 10313 82820 555 81360;EQDQ01  00002PRCP99
0189670730999992000050303004-18050+044030FM-12+0023FMMO V0201001N002112200019N0300001N1+02341+02241101681ADDAA199000091GA1021+007809059GF102991021051008001001001MA1999999101421MD1310031+9999REMSYN076AAXX  03034 67073 33580 21004 10234 20224 30142 40168 53003 82500 333 82626;EQDQ01  00002PRCP99
0257670730999992000050306004-18050+044030FM-12+0023FMMO V0201401N003612200019N0400001N1+02871+02461101831ADDAA199000091GA1011+006909029GF101991011021008001001001IA2240+02209KA1120M+03131KA2120N+02331MA1999999101571MD1110151+9999REMSYN106AAXX  03064 67073 32582 11407 10287 20246 30157 40183 51015 81200 333 02200 10313 20233 5///4 55/// 81823;EQDQ01  00002PRCP99
0189670730999992000050309004-18050+044030FM-12+0023FMMO V0202601N004112200019N0400001N1+03071+02531101681ADDAA199000091GA1031+006909029GF103991031021008001001001MA1999999101421MD1810151+9999REMSYN076AAXX  03094 67073 32582 32608 10307 20253 30142 40168 58015 83200 333 83823;EQDQ01  00002PRCP99
0229670730999992000050312004-18050+044030FM-12+0023FMMO V0202401N004612200019N0400001N1+03021+02531101511ADDAA199000091GA1011+006909099GA2031+006909089GF103991031091008001001001MA1999999101251MD1610171+9999REMSYN100AAXX  03124 67073 32582 32409 10302 20253 30125 40151 56017 83900 333 0//00 83823 81923 94992 95812;EQDQ01  00002PRCP99
0242670730999992000050315004-18050+044030FM-12+0023FMMO V0202201N003612200019N0300001N1+02801+02521101591ADDAA199000091GA1011+006009099GA2031+006009089GF103991031091008001001001KA1120M+03101MA1999999101331MD1310081+9999REMSYN100AAXX  03154 67073 32580 32207 10280 20252 30133 40159 53008 83900 333 10310 83820 81920 94993 95833;EQDQ01  00002PRCP99
0189670730999992000050403004-18050+044030FM-12+0023FMMO V0209999C000012200019N0300001N1+02321+02181101701ADDAA199000091GA1021+007809059GF102991021051008001001001MA1999999101441MD1310061+9999REMSYN076AAXX  04034 67073 33580 20000 10232 20218 30144 40170 53006 82500 333 82626;EQDQ01  00002PRCP99
0189670730999992000050409004-18050+044030FM-12+0023FMMO V0202001N004112200019N0400001N1+03101+02391101711ADDAA199000091GA1021+006909029GF102991021021008001001001MA1999999101451MD1810091+9999REMSYN076AAXX  04094 67073 32582 22008 10310 20239 30145 40171 58009 82200 333 82823;EQDQ01  00002PRCP99
0229670730999992000050412004-18050+044030FM-12+0023FMMO V0202601N004612200019N0400001N1+03021+02421101521ADDAA199000091GA1011+006909099GA2031+006909089GF103991031091008001001001MA1999999101261MD1610191+9999REMSYN100AAXX  04124 67073 32582 32609 10302 20242 30126 40152 56019 83900 333 0//00 83823 81923 94993 95813;EQDQ01  00002PRCP99
0242670730999992000050415004-18050+044030FM-12+0023FMMO V0202001N003112200019N0300001N1+02751+02421101551ADDAA199000091GA1011+006009099GA2021+006009089GF102991021091008001001001KA1120M+03161MA1999999101291MD1310031+9999REMSYN100AAXX  04154 67073 32580 22006 10275 20242 30129 40155 53003 82900 333 10316 82820 81920 94992 95812;EQDQ01  00002PRCP99
0199670730999992000050503004-18050+044030FM-12+0023FMMO V0201401N002612200019N0300001N1+02301+02221101541ADDAA199000091GA1031+006009089GF104991041081008001001001MA1999999101281MD1510021+9999REMSYN086AAXX  05034 67073 33580 41405 10230 20222 30128 40154 55002 84800 333 83820 555 82630;EQDQ01  00002PRCP99
0257670730999992000050506004-18050+044030FM-12+0023FMMO V0200201N004112200019N0400001N1+02901+02161101601ADDAA199000091GA1011+006909029GF101991011021008001001001IA2240+02109KA1120M+03161KA2120N+02231MA1999999101341MD1010061+9999REMSYN106AAXX  05064 67073 32582 10208 10290 20216 30134 40160 50006 81200 333 02100 10316 20223 5///4 55/// 81823;EQDQ01  00002PRCP99
0189670730999992000050509004-18050+044030FM-12+0023FMMO V0203401N005112200019N0400001N1+03031+02291101511ADDAA199000091GA1011+006909029GF101991011021008001001001MA1999999101251MD1810091+9999REMSYN076AAXX  05094 67073 32582 13410 10303 20229 30125 40151 58009 81200 333 81823;EQDQ01  00002PRCP99
0195670730999992000050512004-18050+044030FM-12+0023FMMO V0202801N005112200019N0400001N1+03001+02341101331ADDAA199000091GA1021+006909029GF102991021021008001001001MA1999999101071MD1610181+9999REMSYN082AAXX  05124 67073 32582 22810 10300 20234 30107 40133 56018 82200 333 0//00 82823;EQDQ01  00002PRCP99
0208670730999992000050515004-18050+044030FM-12+0023FMMO V0202801N003112200019N0300001N1+02771+02381101401ADDAA199000091GA1011+006009029GF101991011021008001001001KA1120M+03131MA1999999101141MD1310071+9999REMSYN082AAXX  05154 67073 32580 12806 10277 20238 30114 40140 53007 81200 333 10313 81820;EQDQ01  00002PRCP99
0260670730999992000050603004-18050+044030FM-12+0023FMMO V02099999999990090019N0100001N1+02331+02291101671ADDAA112040091AY161031AY261031GA1011+006009099GA2031+006009089GA3051+009009069GF107991071091008001999999MA1999999101411MD1310071+9999MW1611REMSYN112AAXX  06034 67073 23560 7//05 10233 20229 30141 40167 53007 76166 879// 333 60402 83820 81920 85630 94992 95832;
0334670730999992000050606004-18050+044030FM-12+0023FMMO V0200201N002610120019N0300001N1+02401+02251101791ADDAA124055191AC12C9AY161061AY261061GA1011+006009099GA2021+006009089GA3061+012009069GF107991071091008001999999IA2240+02209KA1120M+03131KA2120N+02281MA1999999101531MD1110121+9999MW1011REMSYN142AAXX  06064 67073 11580 70205 10240 20225 30153 40179 51012 60554 70166 879// 333 02222 10313 20228 5///4 55/// 82820 81920 86640 94997 95817;
0199670730999992000050703004-18050+044030FM-12+0023FMMO V0201001N002612200019N0300001N1+02241+02181101681ADDAA199000091GA1031+006009089GF103991031081008001001001MA1999999101421MD1610031+9999REMSYN086AAXX  07034 67073 33580 31005 10224 20218 30142 40168 56003 83800 333 83820 555 81640;EQDQ01  00002PRCP99
0257670730999992000050706004-18050+044030FM-12+0023FMMO V0200801N003112200019N0400001N1+02751+02331101751ADDAA199000091GA1021+006909029GF102991021021008001001001IA2240+02209KA1120M+03011KA2120N+02241MA1999999101491MD1110071+9999REMSYN106AAXX  07064 67073 32582 20806 10275 20233 30149 40175 51007 82200 333 02200 10301 20224 5///4 55/// 82823;EQDQ01  00002PRCP99
0189670730999992000050803004-18050+044030FM-12+0023FMMO V0201001N00211012001CN0300001N1+02231+02171101591ADDAA199000091GA1031+006009029GF105991051081008001031001MA1999999101331MD1310011+9999REMSYN076AAXX  08034 67073 33580 51004 10223 20217 30133 40159 53001 85830 333 83820;EQDQ01  00002PRCP99
0257670730999992000050806004-18050+044030FM-12+0023FMMO V0201001N001512200019N0400001N1+02781+02381101711ADDAA199000091GA1031+006909029GF103991031021008001031001IA2240+02109KA1120M+03051KA2120N+02231MA1999999101451MD1110121+9999REMSYN106AAXX  08064 67073 32582 31003 10278 20238 30145 40171 51012 83230 333 02100 10305 20223 5///4 55/// 83823;EQDQ01  00002PRCP99
0189670730999992000050809004-18050+044030FM-12+0023FMMO V0203001N003612200019N0400001N1+02881+02391101571ADDAA199000091GA1041+006909029GF104991041021008001001001MA1999999101311MD1810141+9999REMSYN076AAXX  08094 67073 32582 43007 10288 20239 30131 40157 58014 84200 333 84823;EQDQ01  00002PRCP99
0195670730999992000050812004-18050+044030FM-12+0023FMMO V0202601N005712200019N0400001N1+02921+02321101381ADDAA199000091GA1031+006909029GF103991031021008001001001MA1999999101121MD1610191+9999REMSYN082AAXX  08124 67073 32582 32611 10292 20232 30112 40138 56019 83200 333 0//00 83823;EQDQ01  00002PRCP99
0208670730999992000050815004-18050+044030FM-12+0023FMMO V0202201N004112200019N0300001N1+02701+02321101441ADDAA199000091GA1031+008409059GF103991031051008001001001KA1120M+03031MA1999999101181MD1310061+9999REMSYN082AAXX  08154 67073 32580 32208 10270 20232 30118 40144 53006 83500 333 10303 83628;EQDQ01  00002PRCP99
0199670730999992000050903004-18050+044030FM-12+0023FMMO V0201801N002612200019N0300001N1+02261+02171101541ADDAA199000091GA1021+006009089GF103991031081008001001001MA1999999101281MD1310051+9999REMSYN086AAXX  09034 67073 32580 31805 10226 20217 30128 40154 53005 83800 333 82820 555 82640;EQDQ01  00002PRCP99
0267670730999992000050906004-18050+044030FM-12+0023FMMO V0201801N003612200019N0400001N1+02801+02211101611ADDAA199000091GA1021+012009069GF102991021051012501031001IA2240+02109KA1120M+03031KA2120N+02261MA1999999101351MD1110071+9999REMSYN116AAXX  09064 67073 32682 21807 10280 20221 30135 40161 51007 82530 333 02100 10303 20226 5///4 55/// 82640 555 81360;EQDQ01  00002PRCP99
0189670730999992000050909004-18050+044030FM-12+0023FMMO V0202201N003612200019N0400001N1+03031+02341101501ADDAA199000091GA1031+006909029GF103991031021008001001001MA1999999101241MD1810111+9999REMSYN076AAXX  09094 67073 32582 32207 10303 20234 30124 40150 58011 83200 333 83823;EQDQ01  00002PRCP99
0195670730999992000050912004-18050+044030FM-12+0023FMMO V0202201N003612200019N0400001N1+03001+02371101341ADDAA199000091GA1031+006909029GF103991031021008001031001MA1999999101081MD1610161+9999REMSYN082AAXX  09124 67073 32582 32207 10300 20237 30108 40134 56016 83230 333 0//00 83823;EQDQ01  00002PRCP99
0242670730999992000050915004-18050+044030FM-12+0023FMMO V0202001N003612200019N0300001N1+02741+02401101401ADDAA199000091GA1011+006009099GA2031+006009089GF103991031091008001001001KA1120M+03171MA1999999101141MD1310061+9999REMSYN100AAXX  09154 67073 32580 32007 10274 20240 30114 40140 53006 83900 333 10317 83820 81920 94992 95812;EQDQ01  00002PRCP99
0182670730999992000051003004-18050+044030FM-12+0023FMMO V0209999C00001012001CN0300001N1+02351+02251101481ADDAA112000191GA1021+006009089GF105991051081008001001001MA1999999101221MD1310031+9999REMSYN088AAXX  10034 67073 23580 50000 10235 20225 30122 40148 53003 85800 333 69912 82820 85630;
0256670730999992000051006004-18050+044030FM-12+0023FMMO V0200801N002110120019N0300001N1+02651+02481101611ADDAA124000191AC13I9GA1021+006009089GF106991061081008001001001IA2240+02209KA1120M+03171KA2120N+02301MA1999999101351MD1110131+9999REMSYN118AAXX  10064 67073 12580 60804 10265 20248 30135 40161 51013 69914 86800 333 02217 10317 20230 5///4 55/// 82820 85640;
0195670730999992000051009004-18050+044030FM-12+0023FMMO V0203001N00621045001CN0400001N1+02891+02451101501ADDAA199000091GA1031+006909089GF105991031021008001031001MA1999999101241MD1810111+9999REMSYN082AAXX  10094 67073 32582 53012 10289 20245 30124 40150 58011 83230 333 83823 83360;EQDQ01  00002PRCP99
0239670730999992000051012004-18050+044030FM-12+0023FMMO V0202601N004112200019N0400001N1+02921+02441101351ADDAA199000091GA1011+006909099GA2031+006909089GF104991031091008001031001MA1999999101091MD1610151+9999REMSYN110AAXX  10124 67073 32582 42608 10292 20244 30109 40135 56015 83930 333 0//00 83823 81923 94993 95813 555 82360;EQDQ01  00002PRCP99
0242670730999992000051015004-18050+044030FM-12+0023FMMO V0202601N003110450019N0300001N1+02711+02411101391ADDAA199000091GA1011+009909069GF105991031091008001031001KA1120M+03011MA1999999101131MD1310041+9999REMSYN116AAXX  10154 67073 32580 52606 10271 20241 30113 40139 53004 83930 333 10301 83820 81920 94993 95813 555 81633 82360;EQDQ01  00002PRCP99
0199670730999992000051103004-18050+044030FM-12+0023FMMO V0209999C000012200019N0300001N1+02291+02221101471ADDAA199000091GA1021+006009089GF103991031081008001001001MA1999999101211MD1310021+9999REMSYN086AAXX  11034 67073 33580 30000 10229 20222 30121 40147 53002 83800 333 82820 555 82630;EQDQ01  00002PRCP99
0257670730999992000051106004-18050+044030FM-12+0023FMMO V0209999C000012200019N0400001N1+02811+02371101571ADDAA199000091GA1011+006909029GF101991011021008001001001IA2240+02109KA1120M+03011KA2120N+02271MA1999999101311MD1110101+9999REMSYN106AAXX  11064 67073 32582 10000 10281 20237 30131 40157 51010 81200 333 02100 10301 20227 5///4 55/// 81823;EQDQ01  00002PRCP99
0229670730999992000051112004-18050+044030FM-12+0023FMMO V0202201N004112200019N0400001N1+02931+02401101291ADDAA199000091GA1011+006909099GA2031+006909089GF103991031091008001001001MA1999999101031MD1610221+9999REMSYN100AAXX  11124 67073 32582 32208 10293 20240 30103 40129 56022 83900 333 0//00 83823 81923 94992 95812;EQDQ01  00002PRCP99
0189670730999992000051203004-18050+044030FM-12+0023FMMO V0209999C000012200019N0300001N1+02321+02261101451ADDAA199000091GA1021+006009029GF102991021021008001001021MA1999999101191MD1310031+9999REMSYN076AAXX  12034 67073 33580 20000 10232 20226 30119 40145 53003 82202 333 82820;EQDQ01  00002PRCP99
0257670730999992000051206004-18050+044030FM-12+0023FMMO V0201401N003612200019N0400001N1+02741+02371101551ADDAA199000091GA1031+006909029GF103991031021008001031001IA2240+02209KA1120M+03021KA2120N+02281MA1999999101291MD1110101+9999REMSYN106AAXX  12064 67073 32582 31407 10274 20237 30129 40155 51010 83230 333 02200 10302 20228 5///4 55/// 83823;EQDQ01  00002PRCP99
0189670730999992000051209004-18050+044030FM-12+0023FMMO V0202201N003612200019N0400001N1+02981+02491101461ADDAA199000091GA1031+006909029GF103991031021008001001021MA1999999101201MD1810091+9999REMSYN076AAXX  12094 67073 32582 32207 10298 20249 30120 40146 58009 83202 333 83823;EQDQ01  00002PRCP99
0263670730999992000051212004-18050+044030FM-12+0023FMMO V0202201N004610300019N0400001N1+02961+02451101291ADDAA199000091GA1011+006909099GA2031+006909089GA3031+030009039GF105991031091008001031001MA1999999101031MD1610171+9999REMSYN118AAXX  12124 67073 32582 52209 10296 20245 30103 40129 56017 83930 333 0//00 83823 81923 83360 94991 94994 95811 95814;EQDQ01  00002PRCP99
0223670730999992000051303004-18050+044030FM-12+0023FMMO V0201601N002112200019N0300001N1+02271+02211101431ADDAA199000091GA1011+006009099GA2021+006009089GF102991021091008001001001MA1999999101171MD1310031+9999REMSYN094AAXX  13034 67073 33580 21604 10227 20221 30117 40143 53003 82900 333 82820 81920 94996 95816;EQDQ01  00002PRCP99
0313670730999992000051306004-18050+044030FM-12+0023FMMO V0201801N003110090019N0300001N1+02631+02361101581ADDAA199000091GA1011+006009099GA2031+006009089GA3031+009009069GF105991051091008001001001IA2240+02209KA1120M+03021KA2120N+02231MA1999999101321MD1110151+9999REMSYN130AAXX  13064 67073 32580 51806 10263 20236 30132 40158 51015 85900 333 02200 10302 20223 5///4 55/// 83820 81920 83630 94995 95815;EQDQ01  00002PRCP99
0273670730999992000051309004-18050+044030FM-12+0023FMMO V0202001N00411009001CN0200001N1+02711+02321101511ADDAA199000091AY121031AY211031GA1011+006009099GA2041+006009089GA3041+009009069GF107991071091008001999999MA1999999101251MD1810071+9999MW1151REMSYN106AAXX  13094 67073 31570 72008 10271 20232 30125 40151 58007 71521 879// 333 84820 81920 84630 94995 95815;EQDQ01  00002PRCP99
0199670730999992000051403004-18050+044030FM-12+0023FMMO V0201801N002612200019N0300001N1+02231+02161101541ADDAA199000091GA1031+006009089GF103991031081008001001001MA1999999101281MD1310061+9999REMSYN086AAXX  14034 67073 33580 31805 10223 20216 30128 40154 53006 83800 333 83820 555 81630;EQDQ01  00002PRCP99
0273670730999992000051406004-18050+044030FM-12+0023FMMO V0201601N003112200019N0400001N1+02731+02251101711ADDAA199000091GA1011+012009069GF103991021081008001031001IA2240+02109KA1120M+02881KA2120N+02191MA1999999101461MD1110171+9999REMSYN122AAXX  14064 67073 32582 31606 10273 20225 30146 40171 51017 82830 333 02100 10288 20219 5///4 55/// 82823 555 81640 81360;EQDQ01  00002PRCP99
0199670730999992000051503004-18050+044030FM-12+0023FMMO V0202001N003112200019N0300001N1+02491+02221101721ADDAA199000091GA1021+006009089GF103991031081008001001001MA1999999101461MD1510021+9999REMSYN086AAXX  15034 67073 33580 32006 10249 20222 30146 40172 55002 83800 333 82820 555 82640;EQDQ01  00002PRCP99
0257670730999992000051506004-18050+044030FM-12+0023FMMO V0202201N003612200019N0400001N1+02701+02041101871ADDAA199000091GA1031+006909029GF103991031021008001001001IA2240+02209KA1120M+02921KA2120N+02361MA1999999101611MD1110151+9999REMSYN106AAXX  15064 67073 32582 32207 10270 20204 30161 40187 51015 83200 333 02200 10292 20236 5///4 55/// 83823;EQDQ01  00002PRCP99
0189670730999992000051509004-18050+044030FM-12+0023FMMO V0202201N004112200019N0400001N1+02801+02081101751ADDAA199000091GA1031+006909029GF103991031021008001001001MA1999999101491MD1810121+9999REMSYN076AAXX  15094 67073 32582 32208 10280 20208 30149 40175 58012 83200 333 83823;EQDQ01  00002PRCP99
0195670730999992000051512004-18050+044030FM-12+0023FMMO V0202401N004112200019N0400001N1+02811+02181101591ADDAA199000091GA1031+006909029GF103991031021008001001001MA1999999101331MD1610161+9999REMSYN082AAXX  15124 67073 32582 32408 10281 20218 30133 40159 56016 83200 333 0//00 83823;EQDQ01  00002PRCP99
0208670730999992000051515004-18050+044030FM-12+0023FMMO V0202201N002112200019N0300001N1+02601+02161101701ADDAA199000091GA1041+006009029GF104991041021008001001001KA1120M+02881MA1999999101441MD1310111+9999REMSYN082AAXX  15154 67073 32580 42204 10260 20216 30144 40170 53011 84200 333 10288 84820;EQDQ01  00002PRCP99
0189670730999992000051603004-18050+044030FM-12+0023FMMO V02099999999992200019N0300001N1+02081+02001101671ADDAA199000091GA1021+006009029GF102991021081008001001001MA1999999101411MD1510021+9999REMSYN076AAXX  16034 67073 33580 2//03 10208 20200 30141 40167 55002 82800 333 82820;EQDQ01  00002PRCP99
0251670730999992000051606004-18050+044030FM-12+0023FMMO V0201601N003612200019N0400001N1+02591+02131101801ADDAA199000091GA1021+006909029GF102991021081008001001001IA2240+01809KA1120M+02881KA2120N+02021MA1999999101541MD1110131+9999REMSYN100AAXX  16064 67073 32582 21607 10259 20213 30154 40180 51013 82800 333 01800 10288 20202 5///4 82823;EQDQ01  00002PRCP99
0189670730999992000051609004-18050+044030FM-12+0023FMMO V0202201N005112200019N0400001N1+02801+02151101681ADDAA199000091GA1041+006909029GF104991041081008001001001MA1999999101421MD1810121+9999REMSYN076AAXX  16094 67073 32582 42210 10280 20215 30142 40168 58012 84800 333 84823;EQDQ01  00002PRCP99
0205670730999992000051612004-18050+044030FM-12+0023FMMO V0202201N006212200019N0400001N1+02751+02241101501ADDAA199000091GA1031+006909089GF103991031021008001031001MA1999999101241MD1610181+9999REMSYN092AAXX  16124 67073 32582 32212 10275 20224 30124 40150 56018 83230 333 0//00 83823 555 81360;EQDQ01  00002PRCP99
0224670730999992000051615004-18050+044030FM-12+0023FMMO V0202201N004612200019N0300001N1+02501+02251101531ADDAA199000091GA1011+030009039GF102991011041008001031021KA1120M+02831MA1999999101271MD1310031+9999REMSYN098AAXX  16154 67073 32580 22209 10250 20225 30127 40153 53003 81432 333 10283 81627 555 81360 81073;EQDQ01  00002PRCP99
0189670730999992000051703004-18050+044030FM-12+0023FMMO V0201401N002612200019N0300001N1+02001+01861101521ADDAA199000091GA1011+006009029GF101991011021008001001001MA1999999101261MD1510051+9999REMSYN076AAXX  17034 67073 33580 11405 10200 20186 30126 40152 55005 81200 333 81820;EQDQ01  00002PRCP99
0257670730999992000051706004-18050+044030FM-12+0023FMMO V0201401N002612200019N0400001N1+02571+02201101621ADDAA199000091GA1011+006909029GF101991011021008001001001IA2240+01809KA1120M+02831KA2120N+02001MA1999999101361MD1110101+9999REMSYN106AAXX  17064 67073 32582 11405 10257 20220 30136 40162 51010 81200 333 01800 10283 20200 5///4 55/// 81823;EQDQ01  00002PRCP99
0189670730999992000051709004-18050+044030FM-12+0023FMMO V0202201N004612200019N0400001N1+02831+02231101491ADDAA199000091GA1021+006909029GF102991021021008001001001MA1999999101231MD1810131+9999REMSYN076AAXX  17094 67073 32582 22209 10283 20223 30123 40149 58013 82200 333 82823;EQDQ01  00002PRCP99
0195670730999992000051712004-18050+044030FM-12+0023FMMO V0202201N005112200019N0400001N1+02811+02271101311ADDAA199000091GA1021+006909029GF102991021021008001001001MA1999999101051MD1610181+9999REMSYN082AAXX  17124 67073 32582 22210 10281 20227 30105 40131 56018 82200 333 0//00 82823;EQDQ01  00002PRCP99
0208670730999992000051715004-18050+044030FM-12+0023FMMO V0202401N003612200019N0300001N1+02601+02251101411ADDAA199000091GA1011+007809059GF101991011041008001001001KA1120M+02901MA1999999101151MD1310101+9999REMSYN082AAXX  17154 67073 32580 12407 10260 20225 30115 40141 53010 81400 333 10290 81626;EQDQ01  00002PRCP99
0189670730999992000051803004-18050+044030FM-12+0023FMMO V0201201N002612200019N0300001N1+02131+02071101541ADDAA199000091GA1021+006009029GF102991021021008001001001MA1999999101281MD1310051+9999REMSYN076AAXX  18034 67073 33580 21205 10213 20207 30128 40154 53005 82200 333 82820;EQDQ01  00002PRCP99
0257670730999992000051806004-18050+044030FM-12+0023FMMO V0201201N003612200019N0400001N1+02631+02251101651ADDAA199000091GA1021+006909029GF102991021021008001001001IA2240+02009KA1120M+02901KA2120N+02131MA1999999101391MD1110111+9999REMSYN106AAXX  18064 67073 32582 21207 10263 20225 30139 40165 51011 82200 333 02000 10290 20213 5///4 55/// 82823;EQDQ01  00002PRCP99
0189670730999992000051809004-18050+044030FM-12+0023FMMO V0202201N004612200019N0400001N1+02831+02261101611ADDAA199000091GA1031+006909029GF103991031021008001001001MA1999999101351MD1810041+9999REMSYN076AAXX  18094 67073 32582 32209 10283 20226 30135 40161 58004 83200 333 83823;EQDQ01  00002PRCP99
0195670730999992000051812004-18050+044030FM-12+0023FMMO V0202201N004612200019N0400001N1+02801+02321101461ADDAA199000091GA1021+006909029GF102991021021008001001001MA1999999101201MD1610151+9999REMSYN082AAXX  18124 67073 32582 22209 10280 20232 30120 40146 56015 82200 333 0//00 82823;EQDQ01  00002PRCP99
0208670730999992000051815004-18050+044030FM-12+0023FMMO V0202001N003612200019N0300001N1+02541+02281101511ADDAA199000091GA1021+009009059GF102991021041008001001001KA1120M+02901MA1999999101251MD1310051+9999REMSYN082AAXX  18154 67073 32580 22007 10254 20228 30125 40151 53005 82400 333 10290 82630;EQDQ01  00002PRCP99
0189670730999992000051903004-18050+044030FM-12+0023FMMO V0201801N002612200019N0300001N1+02121+02061101581ADDAA199000091GA1011+006009029GF101991011021008001001001MA1999999101321MD1310021+9999REMSYN076AAXX  19034 67073 33580 11805 10212 20206 30132 40158 53002 81200 333 81820;EQDQ01  00002PRCP99
0257670730999992000051906004-18050+044030FM-12+0023FMMO V0201801N003612200019N0400001N1+02661+02281101691ADDAA199000091GA1011+006909029GF101991011021008001001001IA2240+02009KA1120M+02901KA2120N+02091MA1999999101431MD1110111+9999REMSYN106AAXX  19064 67073 32582 11807 10266 20228 30143 40169 51011 81200 333 02000 10290 20209 5///4 55/// 81823;EQDQ01  00002PRCP99
0189670730999992000051909004-18050+044030FM-12+0023FMMO V0202201N005112200019N0400001N1+02911+02321101581ADDAA199000091GA1031+006909029GF103991031021008001001001MA1999999101321MD1810111+9999REMSYN076AAXX  19094 67073 32582 32210 10291 20232 30132 40158 58011 83200 333 83823;EQDQ01  00002PRCP99
0195670730999992000051912004-18050+044030FM-12+0023FMMO V0202201N006212200019N0400001N1+02781+02351101461ADDAA199000091GA1031+006909029GF103991031021008001001001MA1999999101201MD1610121+9999REMSYN082AAXX  19124 67073 32582 32212 10278 20235 30120 40146 56012 83200 333 0//00 83823;EQDQ01  00002PRCP99
0208670730999992000051915004-18050+044030FM-12+0023FMMO V0202001N004612200019N0300001N1+02581+02231101551ADDAA199000091GA1011+006009029GF101991011021008001001001KA1120M+02961MA1999999101291MD1310091+9999REMSYN082AAXX  19154 67073 32580 12009 10258 20223 30129 40155 53009 81200 333 10296 81820;EQDQ01  00002PRCP99
0189670730999992000052003004-18050+044030FM-12+0023FMMO V0201401N002112200019N0300001N1+02111+02021101641ADDAA199000091GA1011+006009029GF101991011021008001001021MA1999999101381MD1310031+9999REMSYN076AAXX  20034 67073 33580 11404 10211 20202 30138 40164 53003 81202 333 81820;EQDQ01  00002PRCP99
0257670730999992000052006004-18050+044030FM-12+0023FMMO V0201801N003612200019N0400001N1+02671+02211101761ADDAA199000091GA1021+006909029GF102991021021008001001001IA2240+02009KA1120M+02961KA2120N+02111MA1999999101501MD1110121+9999REMSYN106AAXX  20064 67073 32582 21807 10267 20221 30150 40176 51012 82200 333 02000 10296 20211 5///4 55/// 82823;EQDQ01  00002PRCP99
0199670730999992000052103004-18050+044030FM-12+0023FMMO V0201201N002612200019N0300001N1+02021+01931101641ADDAA199000091GA1021+006009089GF102991021081008001001001MA1999999101381MD1310031+9999REMSYN086AAXX  21034 67073 33580 21205 10202 20193 30138 40164 53003 82800 333 82820 555 81640;EQDQ01  00002PRCP99
0267670730999992000052106004-18050+044030FM-12+0023FMMO V0201801N003112200019N0400001N1+02621+02161101731ADDAA199000091GA1011+006909089GF101991011081008001001001IA2240+01809KA1120M+02861KA2120N+02021MA1999999101471MD1110091+9999REMSYN116AAXX  21064 67073 32582 11806 10262 20216 30147 40173 51009 81800 333 01800 10286 20202 5///4 55/// 81823 555 81640;EQDQ01  00002PRCP99
0189670730999992000052203004-18050+044030FM-12+0023FMMO V0201201N003112200019N0300001N1+02001+01931101661ADDAA199000091GA1021+006009029GF102991021021008001001001MA1999999101401MD1310041+9999REMSYN076AAXX  22034 67073 33580 21206 10200 20193 30140 40166 53004 82200 333 82820;EQDQ01  00002PRCP99
0257670730999992000052206004-18050+044030FM-12+0023FMMO V0201201N003112200019N0400001N1+02651+02191101681ADDAA199000091GA1021+006909029GF102991021021008001001001IA2240+01809KA1120M+02871KA2120N+02001MA1999999101421MD1110021+9999REMSYN106AAXX  22064 67073 32582 21206 10265 20219 30142 40168 51002 82200 333 01800 10287 20200 5///4 55/// 82823;EQDQ01  00002PRCP99
0195670730999992000052212004-18050+044030FM-12+0023FMMO V0202001N004612200019N0400001N1+02761+02231101411ADDAA199000091GA1021+006909029GF102991021021008001001001MA1999999101151MD1610121+9999REMSYN082AAXX  22124 67073 32582 22009 10276 20223 30115 40141 56012 82200 333 0//00 82823;EQDQ01  00002PRCP99
0208670730999992000052215004-18050+044030FM-12+0023FMMO V0202201N003112200019N0300001N1+02511+02201101451ADDAA199000091GA1011+007809059GF101991011041008001001001KA1120M+02831MA1999999101191MD1310041+9999REMSYN082AAXX  22154 67073 32580 12206 10251 20220 30119 40145 53004 81400 333 10283 81626;EQDQ01  00002PRCP99
0189670730999992000052303004-18050+044030FM-12+0023FMMO V0201201N003112200019N0300001N1+02061+01971101541ADDAA199000091GA1031+006009029GF103991031021008001001001MA1999999101281MD1310041+9999REMSYN076AAXX  23034 67073 33580 31206 10206 20197 30128 40154 53004 83200 333 83820;EQDQ01  00002PRCP99
0257670730999992000052306004-18050+044030FM-12+0023FMMO V0201801N003112200019N0400001N1+02671+02281101611ADDAA199000091GA1011+006909029GF101991011021008001001001IA2240+01909KA1120M+02831KA2120N+02031MA1999999101351MD1110071+9999REMSYN106AAXX  23064 67073 32582 11806 10267 20228 30135 40161 51007 81200 333 01900 10283 20203 5///4 55/// 81823;EQDQ01  00002PRCP99
0189670730999992000052309004-18050+044030FM-12+0023FMMO V0202201N004112200019N0400001N1+02761+02231101511ADDAA199000091GA1031+006909029GF103991031021008001001001MA1999999101251MD1810101+9999REMSYN076AAXX  23094 67073 32582 32208 10276 20223 30125 40151 58010 83200 333 83823;EQDQ01  00002PRCP99
0205670730999992000052312004-18050+044030FM-12+0023FMMO V0202201N004612200019N0400001N1+02731+02281101441ADDAA199000091GA1031+006909089GF103991031021008001031001MA1999999101181MD1610071+9999REMSYN092AAXX  23124 67073 32582 32209 10273 20228 30118 40144 56007 83230 333 0//00 83823 555 81360;EQDQ01  00002PRCP99
0208670730999992000052315004-18050+044030FM-12+0023FMMO V0202601N003612200019N0300001N1+02581+02161101481ADDAA199000091GA1011+009009059GF101991011041008001001001KA1120M+02801MA1999999101221MD1310041+9999REMSYN082AAXX  23154 67073 32580 12607 10258 20216 30122 40148 53004 81400 333 10280 81630;EQDQ01  00002PRCP99
0189670730999992000052403004-18050+044030FM-12+0023FMMO V0201001N002612200019N0300001N1+02051+01971101561ADDAA199000091GA1021+006009029GF103991031081008001001001MA1999999101301MD1310041+9999REMSYN076AAXX  24034 67073 33580 31005 10205 20197 30130 40156 53004 83800 333 82820;EQDQ01  00002PRCP99
0257670730999992000052406004-18050+044030FM-12+0023FMMO V0201401N002612200019N0400001N1+02601+02151101641ADDAA199000091GA1031+006909029GF103991031081008001001001IA2240+01809KA1120M+02801KA2120N+02041MA1999999101381MD1110081+9999REMSYN106AAXX  24064 67073 32582 31405 10260 20215 30138 40164 51008 83800 333 01800 10280 20204 5///4 55/// 83823;EQDQ01  00002PRCP99
0189670730999992000052409004-18050+044030FM-12+0023FMMO V0202601N005112200019N0400001N1+02771+02161101531ADDAA199000091GA1031+006909029GF103991031021008001001001MA1999999101271MD1810111+9999REMSYN076AAXX  24094 67073 32582 32610 10277 20216 30127 40153 58011 83200 333 83823;EQDQ01  00002PRCP99
0195670730999992000052412004-18050+044030FM-12+0023FMMO V0202601N004612200019N0400001N1+02821+02201101341ADDAA199000091GA1031+006909029GF103991031021008001001001MA1999999101081MD1610191+9999REMSYN082AAXX  24124 67073 32582 32609 10282 20220 30108 40134 56019 83200 333 0//00 83823;EQDQ01  00002PRCP99
0218670730999992000052415004-18050+044030FM-12+0023FMMO V0202601N003112200019N0300001N1+02601+02121101411ADDAA199000091GA1011+007809069GF101991011041008001001011KA1120M+02851MA1999999101151MD1310071+9999REMSYN092AAXX  24154 67073 32580 12606 10260 20212 30115 40141 53007 81401 333 10285 81626 555 81073;EQDQ01  00002PRCP99
0199670730999992000052503004-18050+044030FM-12+0023FMMO V0201201N002612200019N0300001N1+02071+02041101561ADDAA199000091GA1021+006009089GF102991021021008001031001MA1999999101301MD1310051+9999REMSYN086AAXX  25034 67073 33580 21205 10207 20204 30130 40156 53005 82230 333 82820 555 81360;EQDQ01  00002PRCP99
0267670730999992000052506004-18050+044030FM-12+0023FMMO V0201201N003112200019N0400001N1+02571+02261101651ADDAA199000091GA1011+006909089GF101991011021008001031001IA2240+02009KA1120M+02851KA2120N+02071MA1999999101391MD1110091+9999REMSYN116AAXX  25064 67073 32582 11206 10257 20226 30139 40165 51009 81230 333 02000 10285 20207 5///4 55/// 81823 555 81360;EQDQ01  00002PRCP99
0205670730999992000052603004-18050+044030FM-12+0023FMMO V0201201N002612200019N0300001N1+02051+01971101491ADDAA199000091GA1011+012009069GF103991031081008001031001MA1999999101231MD1310051+9999REMSYN092AAXX  26034 67073 33580 31205 10205 20197 30123 40149 53005 83830 333 82820 555 81640 81360;EQDQ01  00002PRCP99
0195670730999992000052612004-18050+044030FM-12+0023FMMO V0202601N004112200019N0400001N1+02731+02121101301ADDAA199000091GA1021+006909029GF102991021021008001001001MA1999999101041MD1610201+9999REMSYN082AAXX  26124 67073 32582 22608 10273 20212 30104 40130 56020 82200 333 0//00 82823;EQDQ01  00002PRCP99
0218670730999992000052615004-18050+044030FM-12+0023FMMO V0202201N002612200019N0300001N1+02521+01941101391ADDAA199000091GA1011+008709069GF101991011041008001001011KA1120M+02811MA1999999101131MD1310091+9999REMSYN092AAXX  26154 67073 32580 12205 10252 20194 30113 40139 53009 81401 333 10281 81629 555 81073;EQDQ01  00002PRCP99
0199670730999992000052703004-18050+044030FM-12+0023FMMO V0201201N002612200019N0300001N1+01951+01821101391ADDAA199000091GA1011+006009089GF101991011081008001001001MA1999999101131MD1310021+9999REMSYN086AAXX  27034 67073 33580 11205 10195 20182 30113 40139 53002 81800 333 81820 555 81630;EQDQ01  00002PRCP99
0257670730999992000052706004-18050+044030FM-12+0023FMMO V0201001N002112200019N0400001N1+02581+02101101521ADDAA199000091GA1011+006909029GF101991011021008001001001IA2240+01809KA1120M+02811KA2120N+01901MA1999999101261MD1110131+9999REMSYN106AAXX  27064 67073 32582 11004 10258 20210 30126 40152 51013 81200 333 01800 10281 20190 5///4 55/// 81823;EQDQ01  00002PRCP99
0257670730999992000052806004-18050+044030FM-12+0023FMMO V0201401N004612200019N0400001N1+02491+02051101541ADDAA199000091GA1011+006909029GF101991011021008001001001IA2240+01809KA1120M+02871KA2120N+01921MA1999999101281MD1110151+9999REMSYN106AAXX  28064 67073 32582 11409 10249 20205 30128 40154 51015 81200 333 01800 10287 20192 5///4 55/// 81823;EQDQ01  00002PRCP99
0177670730999992000052903004-18050+044030FM-12+0023FMMO V0201801N002612200019N0300001N1+01851+01771101651ADDAA199000091GA1001+999999999GF100991001001999999001001MA1999999101391MD1310091+9999REMSYN064AAXX  29034 67073 33980 01805 10185 20177 30139 40165 53009 333;EQDQ01  00002PRCP99
0267670730999992000052906004-18050+044030FM-12+0023FMMO V0201401N003612200019N0400001N1+02301+01961101781ADDAA199000091GA1011+006909089GF101991011081008001001001IA2240+01709KA1120M+02811KA2120N+01821MA1999999101521MD1110131+9999REMSYN116AAXX  29064 67073 32582 11407 10230 20196 30152 40178 51013 81800 333 01700 10281 20182 5///4 55/// 81823 555 81640;EQDQ01  00002PRCP99
0189670730999992000052909004-18050+044030FM-12+0023FMMO V0202001N006212200019N0400001N1+02741+02081101671ADDAA199000091GA1011+006909029GF101991011021008001001001MA1999999101411MD1810111+9999REMSYN076AAXX  29094 67073 32582 12012 10274 20208 30141 40167 58011 81200 333 81823;EQDQ01  00002PRCP99
0183670730999992000052912004-18050+044030FM-12+0023FMMO V0202001N005712200019N0300001N1+02701+01971101531ADDAA199000091GA1001+999999999GF100991001001999999001001MA1999999101271MD1610141+9999REMSYN070AAXX  29124 67073 32980 02011 10270 20197 30127 40153 56014 333 0//00;EQDQ01  00002PRCP99
0208670730999992000052915004-18050+044030FM-12+0023FMMO V0201801N003612200019N0300001N1+02501+01881101561ADDAA199000091GA1011+006009029GF101991011021008001001001KA1120M+02801MA1999999101321MD1310051+9999REMSYN082AAXX  29154 67073 32580 11807 10250 20188 30132 40156 53005 81200 333 10280 81820;EQDQ01  00002PRCP99
0189670730999992000053003004-18050+044030FM-12+0023FMMO V0201601N003612200019N0300001N1+01871+01751101611ADDAA199000091GA1011+006009029GF101991011081008001001001MA1999999101351MD1310031+9999REMSYN076AAXX  30034 67073 33580 11607 10187 20175 30135 40161 53003 81800 333 81820;EQDQ01  00002PRCP99
0257670730999992000053006004-18050+044030FM-12+0023FMMO V0201601N004112200019N0400001N1+02431+01811101721ADDAA199000091GA1011+006909029GF101991011021008001001001IA2240+01609KA1120M+02801KA2120N+01871MA1999999101461MD1110111+9999REMSYN106AAXX  30064 67073 32582 11608 10243 20181 30146 40172 51011 81200 333 01600 10280 20187 5///4 55/// 81823;EQDQ01  00002PRCP99
0189670730999992000053009004-18050+044030FM-12+0023FMMO V0202001N004112200019N0400001N1+02761+01971101611ADDAA199000091GA1011+007809029GF101991011011008001001001MA1999999101351MD1810111+9999REMSYN076AAXX  30094 67073 32582 12008 10276 20197 30135 40161 58011 81100 333 81826;EQDQ01  00002PRCP99
0183670730999992000053012004-18050+044030FM-12+0023FMMO V0202201N004612200019N0400001N1+02701+02071101491ADDAA199000091GA1001+999999999GF100991001001999999001001MA1999999101231MD1610121+9999REMSYN070AAXX  30124 67073 32982 02209 10270 20207 30123 40149 56012 333 0//00;EQDQ01  00002PRCP99
0196670730999992000053015004-18050+044030FM-12+0023FMMO V0202001N002612200019N0300001N1+02461+02071101551ADDAA199000091GA1001+999999999GF100991001001999999001001KA1999M+02771MA1999999101291MD1310061+9999REMSYN070AAXX  30154 67073 32980 02005 10246 20207 30129 40155 53006 333 10277;EQDQ01  00002PRCP99
0199670730999992000053103004-18050+044030FM-12+0023FMMO V0201401N002112200019N0300001N1+01931+01841101651ADDAA199000091GA1011+006009089GF101991011081008001001001MA1999999101391MD1310031+9999REMSYN086AAXX  31034 67073 33580 11404 10193 20184 30139 40165 53003 81800 333 81820 555 81640;EQDQ01  00002PRCP99
0267670730999992000053106004-18050+044030FM-12+0023FMMO V0201401N003112200019N0400001N1+02521+01971101751ADDAA199000091GA1011+012009069GF101991011051012501031001IA2240+01709KA1120M+02771KA2120N+01901MA1999999101491MD1110101+9999REMSYN116AAXX  31064 67073 32682 11406 10252 20197 30149 40175 51010 81530 333 01700 10277 20190 5///4 55/// 81640 555 81360;EQDQ01  00002PRCP99
0173670730999992000053109004-18050+044030FM-12+0023FMMO V0202401N003612200019N0400001N1+02801+01981101621ADDAA199000091GA1001+999999999GF100991001001999999001001MA1999999101361MD1810131+9999REMSYN060AAXX  31094 67073 32982 02407 10280 20198 30136 40162 58013;EQDQ01  00002PRCP99
0195670730999992000053112004-18050+044030FM-12+0023FMMO V0202601N004612200019N0400001N1+02731+02041101521ADDAA199000091GA1021+006909029GF102991021021008001001001MA1999999101261MD1610101+9999REMSYN082AAXX  31124 67073 32582 22609 10273 20204 30126 40152 56010 82200 333 0//00 82823;EQDQ01  00002PRCP99
0208670730999992000053115004-18050+044030FM-12+0023FMMO V0202201N003612200019N0300001N1+02531+02061101601ADDAA199000091GA1011+007809059GF101991011041008001001001KA1120M+02891MA1999999101341MD1310081+9999REMSYN082AAXX  31154 67073 32580 12207 10253 20206 30134 40160 53008 81400 333 10289 81626;EQDQ01  00002PRCP99
0189670730999992000060103004-18050+044030FM-12+0023FMMO V0201801N002112200019N0300001N1+02071+02011101681ADDAA199000091GA1011+012009059GF101991011051012501031001MA1999999101421MD1510041+9999REMSYN076AAXX  01034 67073 33680 11804 10207 20201 30142 40168 55004 81530 333 81640;EQDQ01  00002PRCP99
0257670730999992000060106004-18050+044030FM-12+0023FMMO V0201201N002112200019N0400001N1+02601+02111101851ADDAA199000091GA1011+006909029GF101991011021008001001001IA2240+01709KA1120M+02891KA2120N+02041MA1999999101591MD1110171+9999REMSYN106AAXX  01064 67073 32582 11204 10260 20211 30159 40185 51017 81200 333 01700 10289 20204 5///4 55/// 81823;EQDQ01  00002PRCP99
0189670730999992000060109004-18050+044030FM-12+0023FMMO V0202601N004112200019N0400001N1+02801+02211101761ADDAA199000091GA1011+006909029GF101991011021008001001001MA1999999101501MD1810091+9999REMSYN076AAXX  01094 67073 32582 12608 10280 20221 30150 40176 58009 81200 333 81823;EQDQ01  00002PRCP99
0189670730999992000060203004-18050+044030FM-12+0023FMMO V0201601N002612200019N0300001N1+02091+01981101601ADDAA199000091GA1021+012009059GF102991021051012501001001MA1999999101341MD1510021+9999REMSYN076AAXX  02034 67073 33680 21605 10209 20198 30134 40160 55002 82500 333 82640;EQDQ01  00002PRCP99
0199670730999992000060209004-18050+044030FM-12+0023FMMO V0203001N003612200019N0400001N1+03041+02231101631ADDAA199000091GA1011+006909089GF101991011011008001031001MA1999999101371MD1810071+9999REMSYN086AAXX  02094 67073 32582 13007 10304 20223 30137 40163 58007 81130 333 81823 555 81360;EQDQ01  00002PRCP99
0195670730999992000060212004-18050+044030FM-12+0023FMMO V0202801N004612200019N0400001N1+02901+02291101461ADDAA199000091GA1021+006909029GF102991021021008001001001MA1999999101201MD1610171+9999REMSYN082AAXX  02124 67073 32582 22809 10290 20229 30120 40146 56017 82200 333 0//00 82823;EQDQ01  00002PRCP99
0208670730999992000060215004-18050+044030FM-12+0023FMMO V0202401N002112200019N0300001N1+02591+02251101491ADDAA199000091GA1011+006009029GF101991011081008001001001KA1120M+03201MA1999999101231MD1310031+9999REMSYN082AAXX  02154 67073 32580 12404 10259 20225 30123 40149 53003 81800 333 10320 81820;EQDQ01  00002PRCP99
0189670730999992000060303004-18050+044030FM-12+0023FMMO V0201201N002612200019N0300001N1+02031+01921101681ADDAA199000091GA1011+008709059GF101991011051008001001001MA1999999101421MD1310051+9999REMSYN076AAXX  03034 67073 33580 11205 10203 20192 30142 40168 53005 81500 333 81629;EQDQ01  00002PRCP99
0245670730999992000060306004-18050+044030FM-12+0023FMMO V0209999C000012200019N0400001N1+02651+02101101791ADDAA199000091GA1001+999999999GF100991001001999999001001IA2240+01809KA1120M+03201KA2120N+02001MA1999999101531MD1110111+9999REMSYN094AAXX  03064 67073 32982 00000 10265 20210 30153 40179 51011 333 01800 10320 20200 5///4 55///;EQDQ01  00002PRCP99
0195670730999992000060403004-18050+044030FM-12+0023FMMO V0209999C00001045001CN0300001N1+02101+01911101771ADDAA199000091GA1031+012009069GF105991031051008001031001MA1999999101511MD1310041+9999REMSYN082AAXX  04034 67073 33580 50000 10210 20191 30151 40177 53004 83530 333 83640 83360;EQDQ01  00002PRCP99
0257670730999992000060406004-18050+044030FM-12+0023FMMO V0201801N002612200019N0400001N1+02721+02251101931ADDAA199000091GA1031+030009079GF103991031001999999031001IA2240+01809KA1120M+02951KA2120N+02101MA1999999101671MD1110161+9999REMSYN106AAXX  04064 67073 32982 31805 10272 20225 30167 40193 51016 83030 333 01800 10295 20210 5///4 55/// 83360;EQDQ01  00002PRCP99
0189670730999992000060503004-18050+044030FM-12+0023FMMO V0201801N003112200019N0300001N1+01981+01791101831ADDAA199000091GA1011+009009059GF101991011051008001031001MA1999999101571MD1310051+9999REMSYN076AAXX  05034 67073 33580 11806 10198 20179 30157 40183 53005 81530 333 81630;EQDQ01  00002PRCP99
0257670730999992000060506004-18050+044030FM-12+0023FMMO V0201601N003112200019N0400001N1+02451+02071101931ADDAA199000091GA1011+069009019GF101991001001999999001021IA2240+01809KA1120M+02921KA2120N+01941MA1999999101671MD1110101+9999REMSYN106AAXX  05064 67073 32982 11606 10245 20207 30167 40193 51010 80002 333 01800 10292 20194 5///4 55/// 81073;EQDQ01  00002PRCP99
0189670730999992000060509004-18050+044030FM-12+0023FMMO V0202201N004612200019N0400001N1+02781+02221101791ADDAA199000091GA1011+006909029GF101991011021008001001001MA1999999101531MD1810141+9999REMSYN076AAXX  05094 67073 32582 12209 10278 20222 30153 40179 58014 81200 333 81823;EQDQ01  00002PRCP99
0205670730999992000060512004-18050+044030FM-12+0023FMMO V0202001N004612200019N0400001N1+02731+02251101661ADDAA199000091GA1011+006909089GF101991011021008001001021MA1999999101401MD1610131+9999REMSYN092AAXX  05124 67073 32582 12009 10273 20225 30140 40166 56013 81202 333 0//00 81823 555 81073;EQDQ01  00002PRCP99
0208670730999992000060515004-18050+044030FM-12+0023FMMO V0202001N004112200019N0300001N1+02521+02231101691ADDAA199000091GA1021+069009019GF102991001001999999001021KA1120M+02791MA1999999101431MD1310031+9999REMSYN082AAXX  05154 67073 32980 22008 10252 20223 30143 40169 53003 80002 333 10279 82073;EQDQ01  00002PRCP99
0205670730999992000060603004-18050+044030FM-12+0023FMMO V0201401N002112200019N0300001N1+02161+02051101741ADDAA199000091GA1011+012009069GF103991021081008001031001MA1999999101481MD1310051+9999REMSYN092AAXX  06034 67073 33580 31404 10216 20205 30148 40174 53005 82830 333 82820 555 81640 81360;EQDQ01  00002PRCP99
0257670730999992000060606004-18050+044030FM-12+0023FMMO V0209999C000012200019N0400001N1+02701+02171101801ADDAA199000091GA1011+030009079GF101991011001999999031001IA2240+01809KA1120M+02791KA2120N+02081MA1999999101541MD1110061+9999REMSYN106AAXX  06064 67073 32982 10000 10270 20217 30154 40180 51006 81030 333 01800 10279 20208 5///4 55/// 81360;EQDQ01  00002PRCP99
0189670730999992000060609004-18050+044030FM-12+0023FMMO V0202601N003612200019N0400001N1+02801+02211101731ADDAA199000091GA1021+006909029GF102991021021008001001001MA1999999101471MD1810071+9999REMSYN076AAXX  06094 67073 32582 22607 10280 20221 30147 40173 58007 82200 333 82823;EQDQ01  00002PRCP99
0195670730999992000060612004-18050+044030FM-12+0023FMMO V0202601N004612200019N0400001N1+02811+02331101661ADDAA199000091GA1021+006909029GF102991021081008001001001MA1999999101401MD1610071+9999REMSYN082AAXX  06124 67073 32582 22609 10281 20233 30140 40166 56007 82800 333 0//00 82823;EQDQ01  00002PRCP99
0208670730999992000060615004-18050+044030FM-12+0023FMMO V0202401N003612200019N0300001N1+02581+02381101701ADDAA199000091GA1021+012009059GF103991021051012501031001KA1120M+02901MA1999999101441MD1310041+9999REMSYN082AAXX  06154 67073 32680 32407 10258 20238 30144 40170 53004 82530 333 10290 82640;EQDQ01  00002PRCP99
0189670730999992000060703004-18050+044030FM-12+0023FMMO V0209999C000012200019N0300001N1+02081+02041101831ADDAA199000091GA1011+006009029GF101991011081008001001001MA1999999101571MD1310031+9999REMSYN076AAXX  07034 67073 33580 10000 10208 20204 30157 40183 53003 81800 333 81820;EQDQ01  00002PRCP99
0245670730999992000060706004-18050+044030FM-12+0023FMMO V0200201N003612200019N0400001N1+02561+01981102011ADDAA199000091GA1001+999999999GF100991001001999999001001IA2240+01809KA1120M+02901KA2120N+02061MA1999999101741MD1110181+9999REMSYN094AAXX  07064 67073 32982 00207 10256 20198 30174 40201 51018 333 01800 10290 20206 5///4 55///;EQDQ01  00002PRCP99
0173670730999992000060709004-18050+044030FM-12+0023FMMO V0202601N002612200019N0400001N1+03001+01601101931ADDAA199000091GA1001+999999999GF100991001001999999001001MA1999999101671MD1810081+9999REMSYN060AAXX  07094 67073 32982 02605 10300 20160 30167 40193 58008;EQDQ01  00002PRCP99
0195670730999992000060712004-18050+044030FM-12+0023FMMO V0202001N005112200019N0400001N1+02751+02081101831ADDAA199000091GA1011+007809029GF101991011011008001001001MA1999999101571MD1610101+9999REMSYN082AAXX  07124 67073 32582 12010 10275 20208 30157 40183 56010 81100 333 0//00 81826;EQDQ01  00002PRCP99
0208670730999992000060715004-18050+044030FM-12+0023FMMO V0202601N003612200019N0300001N1+02531+02101101911ADDAA199000091GA1021+012009059GF102991021051012501001001KA1120M+03051MA1999999101651MD1310081+9999REMSYN082AAXX  07154 67073 32680 22607 10253 20210 30165 40191 53008 82500 333 10305 82640;EQDQ01  00002PRCP99
0267670730999992000060806004-18050+044030FM-12+0023FMMO V0209999C000012200019N0400001N1+02541+01561102101ADDAA199000091GA1011+006909089GF101991011021008001001021IA2240+01509KA1120M+03051KA2120N+01881MA1999999101841MD1110071+9999REMSYN116AAXX  08064 67073 32582 10000 10254 20156 30184 40210 51007 81202 333 01500 10305 20188 5///4 55/// 81823 555 81073;EQDQ01  00002PRCP99
0189670730999992000060809004-18050+044030FM-12+0023FMMO V0202801N003612200019N0400001N1+02761+01641102071ADDAA199000091GA1011+006909029GF101991011021008001001001MA1999999101811MD1810031+9999REMSYN076AAXX  08094 67073 32582 12807 10276 20164 30181 40207 58003 81200 333 81823;EQDQ01  00002PRCP99
0195670730999992000060812004-18050+044030FM-12+0023FMMO V0202601N004112200019N0400001N1+02781+01991101941ADDAA199000091GA1011+007809029GF101991011011008001001001MA1999999101681MD1610131+9999REMSYN082AAXX  08124 67073 32582 12608 10278 20199 30168 40194 56013 81100 333 0//00 81826;EQDQ01  00002PRCP99
0208670730999992000060815004-18050+044030FM-12+0023FMMO V0202401N004112200019N0300001N1+02531+02091101921ADDAA199000091GA1011+030009079GF101991011001999999031001KA1120M+02801MA1999999101661MD1510021+9999REMSYN082AAXX  08154 67073 32980 12408 10253 20209 30166 40192 55002 81030 333 10280 81360;EQDQ01  00002PRCP99
0189670730999992000060903004-18050+044030FM-12+0023FMMO V0201401N003112200019N0300001N1+01901+01741101991ADDAA199000091GA1021+006009029GF102991021021008001001001MA1999999101731MD1310041+9999REMSYN076AAXX  09034 67073 33580 21406 10190 20174 30173 40199 53004 82200 333 82820;EQDQ01  00002PRCP99
0257670730999992000060906004-18050+044030FM-12+0023FMMO V0201401N003612200019N0400001N1+02461+01901102121ADDAA199000091GA1021+006909029GF102991021021008001001001IA2240+01609KA1120M+02801KA2120N+01861MA1999999101861MD1110131+9999REMSYN106AAXX  09064 67073 32582 21407 10246 20190 30186 40212 51013 82200 333 01600 10280 20186 5///4 55/// 82823;EQDQ01  00002PRCP99
0189670730999992000060909004-18050+044030FM-12+0023FMMO V0202401N004112200019N0400001N1+02731+02141101951ADDAA199000091GA1011+007809029GF101991011011008001001001MA1999999101691MD1810171+9999REMSYN076AAXX  09094 67073 32582 12408 10273 20214 30169 40195 58017 81100 333 81826;EQDQ01  00002PRCP99
0195670730999992000060912004-18050+044030FM-12+0023FMMO V0202401N004112200019N0400001N1+02711+02101101851ADDAA199000091GA1011+007809029GF101991011011008001001001MA1999999101591MD1610101+9999REMSYN082AAXX  09124 67073 32582 12408 10271 20210 30159 40185 56010 81100 333 0//00 81826;EQDQ01  00002PRCP99
0196670730999992000060915004-18050+044030FM-12+0023FMMO V0202001N002612200019N0300001N1+02471+02221101831ADDAA199000091GA1001+999999999GF100991001001999999001001KA1999M+02851MA1999999101571MD1510021+9999REMSYN070AAXX  09154 67073 32980 02005 10247 20222 30157 40183 55002 333 10285;EQDQ01  00002PRCP99
0189670730999992000061003004-18050+044030FM-12+0023FMMO V0201401N002112200019N0300001N1+01911+01831101901ADDAA199000091GA1021+006009029GF102991021021008001001001MA1999999101641MD1310041+9999REMSYN076AAXX  10034 67073 33580 21404 10191 20183 30164 40190 53004 82200 333 82820;EQDQ01  00002PRCP99
0257670730999992000061006004-18050+044030FM-12+0023FMMO V0201601N002612200019N0400001N1+02401+01871102001ADDAA199000091GA1011+006909029GF101991011021008001001001IA2240+01709KA1120M+02851KA2120N+01881MA1999999101741MD1110101+9999REMSYN106AAXX  10064 67073 32582 11605 10240 20187 30174 40200 51010 81200 333 01700 10285 20188 5///4 55/// 81823;EQDQ01  00002PRCP99
0189670730999992000061103004-18050+044030FM-12+0023FMMO V0201201N002612200019N0300001N1+01821+01721101951ADDAA199000091GA1021+006009029GF103991031081008001001001MA1999999101691MD1310091+9999REMSYN076AAXX  11034 67073 33580 31205 10182 20172 30169 40195 53009 83800 333 82820;EQDQ01  00002PRCP99
0257670730999992000061106004-18050+044030FM-12+0023FMMO V0201201N003612200019N0400001N1+02351+02031102001ADDAA199000091GA1011+006909029GF101991011081008001001001IA2240+01609KA1120M+02761KA2120N+01801MA1999999101741MD1110051+9999REMSYN106AAXX  11064 67073 32582 11207 10235 20203 30174 40200 51005 81800 333 01600 10276 20180 5///4 55/// 81823;EQDQ01  00002PRCP99
0199670730999992000061203004-18050+044030FM-12+0023FMMO V0201401N002112200019N0300001N1+01971+01811101911ADDAA199000091GA1021+006009089GF102991021081008001001001MA1999999101651MD1310041+9999REMSYN086AAXX  12034 67073 33580 21404 10197 20181 30165 40191 53004 82800 333 82820 555 81640;EQDQ01  00002PRCP99
0257670730999992000061206004-18050+044030FM-12+0023FMMO V0201601N003612200019N0400001N1+02401+02071102081ADDAA199000091GA1011+006909029GF101991011021008001001001IA2240+01609KA1120M+02781KA2120N+01921MA1999999101821MD1110171+9999REMSYN106AAXX  12064 67073 32582 11607 10240 20207 30182 40208 51017 81200 333 01600 10278 20192 5///4 55/// 81823;EQDQ01  00002PRCP99
0223670730999992000061306004-18050+044030FM-12+0023FMMO V0201201N001512200019N0400001N1+02471+02151102171ADDAA199000091GF101991011021008001001001IA2240+01609KA1120M+02761KA2999N+01801MA1999999101911MD1610121+9999REMSYN088AAXX  13064 67073 32582 11203 10247 20215 30191 40217 56012 81200 333 01600 10276 20180;EQDQ01  00002PRCP99
0189670730999992000061309004-18050+044030FM-12+0023FMMO V0202601N002612200019N0400001N1+02841+01851102041ADDAA199000091GA1011+006909029GF101991011081008001001001MA1999999101781MD1810131+9999REMSYN076AAXX  13094 67073 32582 12605 10284 20185 30178 40204 58013 81800 333 81823;EQDQ01  00002PRCP99
0163670730999992000061312004-18050+044030FM-12+0023FMMO V0202201N004612200019N0400001N1+02761+01901101891ADDAA199000091GF102991021081008001001001MA1999999101351MD1610151+9999REMSYN066AAXX  13124 67073 32582 22209 10276 20190 30135 40189 56015 82800;EQDQ01  00002PRCP99
0208670730999992000061315004-18050+044030FM-12+0023FMMO V0202001N003612200019N0300001N1+02521+02191101941ADDAA199000091GA1031+009009059GF103991031051008001001001KA1120M+02931MA1999999101681MD1310051+9999REMSYN082AAXX  13154 67073 32580 32007 10252 20219 30168 40194 53005 83500 333 10293 83630;EQDQ01  00002PRCP99
0177670730999992000061409004-18500+044300FM-12+0023FMMO V0202401N003612200019N0400001N1+02871+01651101981ADDAA199000091GA1001+999999999GF100991001001999999001001MA1999999101721MD1810101+9999REMSYN064AAXX  14094 67073 32982 02407 10287 20165 30172 40198 58010 333;EQDQ01  00002PRCP99
0208670730999992000061415004-18500+044300FM-12+0023FMMO V0202401N003112200019N0300001N1+02501+02271101871ADDAA199000091GA1011+009909059GF101991011041012501001001KA1120M+02921MA1999999101611MD1310051+9999REMSYN082AAXX  14154 67073 32680 12406 10250 20227 30161 40187 53005 81400 333 10292 81633;EQDQ01  00002PRCP99
0189670730999992000061503004-18500+044300FM-12+0023FMMO V0201401N002612200019N0300001N1+01971+01701101911ADDAA199000091GA1011+006009029GF101991011021008001001001MA1999999101651MD1310071+9999REMSYN076AAXX  15034 67073 33580 11405 10197 20170 30165 40191 53007 81200 333 81820;EQDQ01  00002PRCP99
0245670730999992000061506004-18500+044300FM-12+0023FMMO V0201201N002612200019N0400001N1+02441+01951102001ADDAA199000091GA1001+999999999GF100991001001999999001001IA2240+01609KA1120M+02931KA2120N+01881MA1999999101741MD1110091+9999REMSYN094AAXX  15064 67073 32982 01205 10244 20195 30174 40200 51009 333 01600 10293 20188 5///4 55///;EQDQ01  00002PRCP99
0189670730999992000061509004-18500+044300FM-12+0023FMMO V0202601N003612200019N0400001N1+02771+02071101901ADDAA199000091GA1011+006909029GF101991011011008001001001MA1999999101641MD1810101+9999REMSYN076AAXX  15094 67073 32582 12607 10277 20207 30164 40190 58010 81100 333 81823;EQDQ01  00002PRCP99
0195670730999992000061512004-18500+044300FM-12+0023FMMO V0202601N005112200019N0400001N1+02701+02071101701ADDAA199000091GA1021+012009059GF102991021051012501001001MA1999999101441MD1610201+9999REMSYN082AAXX  15124 67073 32682 22610 10270 20207 30144 40170 56020 82500 333 0//00 82640;EQDQ01  00002PRCP99
0208670730999992000061515004-18500+044300FM-12+0023FMMO V0202201N002612200019N0300001N1+02501+02141101771ADDAA199000091GA1021+012009059GF102991021051012501001001KA1120M+02801MA1999999101511MD1310071+9999REMSYN082AAXX  15154 67073 32680 22205 10250 20214 30151 40177 53007 82500 333 10280 82640;EQDQ01  00002PRCP99
0189670730999992000061603004-18500+044300FM-12+0023FMMO V0201401N002112200019N0300001N1+02041+01781101891ADDAA199000091GA1031+012009059GF103991031051012501001001MA1999999101631MD1310111+9999REMSYN076AAXX  16034 67073 33680 31404 10204 20178 30163 40189 53011 83500 333 83640;EQDQ01  00002PRCP99
0257670730999992000061606004-18500+044300FM-12+0023FMMO V0200801N002112200019N0400001N1+02701+01701102031ADDAA199000091GA1021+012009059GF102991021051012501001001IA2240+01809KA1120M+02801KA2120N+01981MA1999999101771MD1110141+9999REMSYN106AAXX  16064 67073 32682 20804 10270 20170 30177 40203 51014 82500 333 01800 10280 20198 5///4 55/// 82640;EQDQ01  00002PRCP99
0189670730999992000061609004-18500+044300FM-12+0023FMMO V0202601N004612200019N0400001N1+02801+01881101951ADDAA199000091GA1011+006909029GF101991011011012501001001MA1999999101691MD1810051+9999REMSYN076AAXX  16094 67073 32682 12609 10280 20188 30169 40195 58005 81100 333 81823;EQDQ01  00002PRCP99
0195670730999992000061612004-18500+044300FM-12+0023FMMO V0202601N005112200019N0400001N1+02801+01881101751ADDAA199000091GA1011+006909029GF101991011021008001001001MA1999999101491MD1610201+9999REMSYN082AAXX  16124 67073 32582 12610 10280 20188 30149 40175 56020 81200 333 0//00 81823;EQDQ01  00002PRCP99
0196670730999992000061615004-18500+044300FM-12+0023FMMO V0202201N002612200019N0300001N1+02531+01931101781ADDAA199000091GA1001+999999999GF100991001001999999001001KA1999M+02921MA1999999101521MD1310031+9999REMSYN070AAXX  16154 67073 32980 02205 10253 20193 30152 40178 53003 333 10292;EQDQ01  00002PRCP99
0189670730999992000061703004-18500+044300FM-12+0023FMMO V0201201N002112200019N0300001N1+01971+01831101931ADDAA199000091GA1031+030009079GF103991031001999999031001MA1999999101671MD1310061+9999REMSYN076AAXX  17034 67073 33980 31204 10197 20183 30167 40193 53006 83030 333 83360;EQDQ01  00002PRCP99
0199670730999992000061803004-18500+044300FM-12+0023FMMO V0201401N002612200019N0350001N1+02071+01851101971ADDAA199000091GA1021+012009069GF103991021051012501031001MA1999999101711MD1310041+9999REMSYN086AAXX  18034 67073 33681 31405 10207 20185 30171 40197 53004 82530 333 82640 555 82360;EQDQ01  00002PRCP99
0257670730999992000061806004-18500+044300FM-12+0023FMMO V0201801N003112200019N0400001N1+02571+01941102081ADDAA199000091GA1031+030009079GF103991031001999999031001IA2240+01809KA1120M+02931KA2120N+02021MA1999999101821MD1110111+9999REMSYN106AAXX  18064 67073 32982 31806 10257 20194 30182 40208 51011 83030 333 01800 10293 20202 5///4 55/// 83360;EQDQ01  00002PRCP99
0189670730999992000061903004-18500+044300FM-12+0023FMMO V0200801N002112200019N0300001N1+02121+01991101801ADDAA199000091GA1021+030009079GF102991021001999999031001MA1999999101541MD1310031+9999REMSYN076AAXX  19034 67073 33980 20804 10212 20199 30154 40180 53003 82030 333 82360;EQDQ01  00002PRCP99
0257670730999992000061906004-18500+044300FM-12+0023FMMO V0200201N004612200019N0400001N1+02571+01841101911ADDAA199000091GA1011+030009079GF101991011001999999031001IA2240+01809KA1120M+02901KA2120N+02041MA1999999101651MD1110111+9999REMSYN106AAXX  19064 67073 32982 10209 10257 20184 30165 40191 51011 81030 333 01800 10290 20204 5///4 55/// 81360;EQDQ01  00002PRCP99
0173670730999992000061909004-18500+044300FM-12+0023FMMO V0203601N005112200019N0400001N1+02801+01841101821ADDAA199000091GA1001+999999999GF100991001001999999001001MA1999999101561MD1810091+9999REMSYN060AAXX  19094 67073 32982 03610 10280 20184 30156 40182 58009;EQDQ01  00002PRCP99
0195670730999992000061912004-18500+044300FM-12+0023FMMO V0202801N006212200019N0400001N1+02821+02011101601ADDAA199000091GA1011+030009079GF101991011001999999031001MA1999999101341MD1610221+9999REMSYN082AAXX  19124 67073 32982 12812 10282 20201 30134 40160 56022 81030 333 0//00 81360;EQDQ01  00002PRCP99
0189670730999992000062003004-18500+044300FM-12+0023FMMO V0200401N003112200019N0300001N1+02011+01881101771ADDAA199000091GA1011+006009029GF101991011021008001001001MA1999999101511MD1310051+9999REMSYN076AAXX  20034 67073 33580 10406 10201 20188 30151 40177 53005 81200 333 81820;EQDQ01  00002PRCP99
0257670730999992000062006004-18500+044300FM-12+0023FMMO V0200401N004612200019N0400001N1+02501+01701101941ADDAA199000091GA1011+006909029GF101991011021008001001001IA2240+01809KA1120M+02851KA2120N+01971MA1999999101681MD1310171+9999REMSYN106AAXX  20064 67073 32582 10409 10250 20170 30168 40194 53017 81200 333 01800 10285 20197 5///4 55/// 81823;EQDQ01  00002PRCP99
0173670730999992000062009004-18500+044300FM-12+0023FMMO V0202801N002612200019N0400001N1+02901+01741101821ADDAA199000091GA1001+999999999GF100991001001999999001001MA1999999101561MD1810121+9999REMSYN060AAXX  20094 67073 32982 02805 10290 20174 30156 40182 58012;EQDQ01  00002PRCP99
0195670730999992000062012004-18500+044300FM-12+0023FMMO V0202601N004612200019N0400001N1+02831+01601101601ADDAA199000091GA1011+007809029GF101991011011008001001001MA1999999101341MD1610221+9999REMSYN082AAXX  20124 67073 32582 12609 10283 20160 30134 40160 56022 81100 333 0//00 81826;EQDQ01  00002PRCP99
0208670730999992000062015004-18500+044300FM-12+0023FMMO V0202401N003612200019N0300001N1+02561+01771101661ADDAA199000091GA1011+012009059GF101991011041012501001001KA1120M+02971MA1999999101401MD1310061+9999REMSYN082AAXX  20154 67073 32680 12407 10256 20177 30140 40166 53006 81400 333 10297 81640;EQDQ01  00002PRCP99
0189670730999992000062103004-18500+044300FM-12+0023FMMO V0201601N003112200019N0300001N1+02011+01931101791ADDAA199000091GA1021+006009029GF102991021021008001001001MA1999999101531MD1510041+9999REMSYN076AAXX  21034 67073 33580 21606 10201 20193 30153 40179 55004 82200 333 82820;EQDQ01  00002PRCP99
0257670730999992000062106004-18500+044300FM-12+0023FMMO V0201401N004612200019N0400001N1+02541+02021101861ADDAA199000091GA1011+006909029GF101991011021008001001001IA2240+01809KA1120M+02971KA2120N+01991MA1999999101601MD1110071+9999REMSYN106AAXX  21064 67073 32582 11409 10254 20202 30160 40186 51007 81200 333 01800 10297 20199 5///4 55/// 81823;EQDQ01  00002PRCP99
0189670730999992000062109004-18500+044300FM-12+0023FMMO V0202201N003612200019N0400001N1+02761+02171101761ADDAA199000091GA1011+007809029GF101991011011008001001001MA1999999101501MD1810101+9999REMSYN076AAXX  21094 67073 32582 12207 10276 20217 30150 40176 58010 81100 333 81826;EQDQ01  00002PRCP99
0195670730999992000062112004-18500+044300FM-12+0023FMMO V0202601N004112200019N0400001N1+02811+02011101641ADDAA199000091GA1011+007809029GF101991011011008001001001MA1999999101381MD1610121+9999REMSYN082AAXX  21124 67073 32582 12608 10281 20201 30138 40164 56012 81100 333 0//00 81826;EQDQ01  00002PRCP99
0208670730999992000062115004-18500+044300FM-12+0023FMMO V0202201N002612200019N0300001N1+02501+02111101711ADDAA199000091GA1011+009009059GF101991011041008001001001KA1120M+02871MA1999999101451MD1310071+9999REMSYN082AAXX  21154 67073 32580 12205 10250 20211 30145 40171 53007 81400 333 10287 81630;EQDQ01  00002PRCP99
0189670730999992000062203004-18500+044300FM-12+0023FMMO V0209999C000012200019N0300001N1+01841+01711101801ADDAA199000091GA1011+012009059GF101991011051012501001001MA1999999101541MD1310081+9999REMSYN076AAXX  22034 67073 33680 10000 10184 20171 30154 40180 53008 81500 333 81640;EQDQ01  00002PRCP99
0257670730999992000062206004-18500+044300FM-12+0023FMMO V0203601N003112200019N0400001N1+02441+01941101861ADDAA199000091GA1011+006909029GF101991011021008001001001IA2240+01609KA1120M+02871KA2120N+01781MA1999999101601MD1110061+9999REMSYN106AAXX  22064 67073 32582 13606 10244 20194 30160 40186 51006 81200 333 01600 10287 20178 5///4 55/// 81823;EQDQ01  00002PRCP99
0189670730999992000062209004-18500+044300FM-12+0023FMMO V0203401N004612200019N0400001N1+02781+01891101781ADDAA199000091GA1011+007809029GF101991011011008001001001MA1999999101521MD1810081+9999REMSYN076AAXX  22094 67073 32582 13409 10278 20189 30152 40178 58008 81100 333 81826;EQDQ01  00002PRCP99
0189670730999992000062212004-18500+044300FM-12+0023FMMO V0203001N005112200019N0400001N1+02731+02091999999ADDAA199000091GA1021+006909029GF102991021021008001001001MA1999999101421MD1610101+9999REMSYN076AAXX  22124 67073 32582 23010 10273 20209 30142 56010 82200 333 0//00 82823;EQDQ01  00002PRCP99
0196670730999992000062215004-18500+044300FM-12+0023FMMO V0202001N003112200019N0300001N1+02501+02011101741ADDAA199000091GA1001+999999999GF100991001001999999001001KA1999M+02801MA1999999101481MD1310061+9999REMSYN070AAXX  22154 67073 32980 02006 10250 20201 30148 40174 53006 333 10280;EQDQ01  00002PRCP99
0189670730999992000062303004-18500+044300FM-12+0023FMMO V0201401N002612200019N0300001N1+01971+01811101761ADDAA199000091GA1011+012009059GF101991011051012501001001MA1999999101501MD1310021+9999REMSYN076AAXX  23034 67073 33680 11405 10197 20181 30150 40176 53002 81500 333 81640;EQDQ01  00002PRCP99
0195670730999992000062712004-18500+044300FM-12+0023FMMO V0202401N005112200019N0400001N1+02721+02251101641ADDAA199000091GA1021+006909029GF102991021081008001001001MA1999999101381MD1610161+9999REMSYN082AAXX  27124 67073 32582 22410 10272 20225 30138 40164 56016 82800 333 0//00 82823;EQDQ01  00002PRCP99
0189670730999992000062803004-18500+044300FM-12+0023FMMO V0201001N002112200019N0300001N1+01901+01801101811ADDAA199000091GA1011+006009029GF101991011021008001001001MA1999999101551MD1310081+9999REMSYN076AAXX  28034 67073 33580 11004 10190 20180 30155 40181 53008 81200 333 81820;EQDQ01  00002PRCP99
0173670730999992000062903004-18500+044300FM-12+0023FMMO V0201001N002612200019N0300001N1+01941+01841101841ADDAA199000091GA1001+999999999GF100991001001999999001001MA1999999101581MD1310081+9999REMSYN060AAXX  29034 67073 33980 01005 10194 20184 30158 40184 53008;EQDQ01  00002PRCP99
0195670730999992000062912004-18500+044300FM-12+0023FMMO V0202801N006212200019N0400001N1+02771+01661101751ADDAA199000091GA1021+006909029GF102991021021008001001001MA1999999101491MD1610121+9999REMSYN082AAXX  29124 67073 32582 22812 10277 20166 30149 40175 56012 82200 333 0//00 82823;EQDQ01  00002PRCP99
0242670730999992000062915004-18500+044300FM-12+0023FMMO V0202801N002612200019N0300001N1+02421+02171101821ADDAA199000091GA1011+006009099GA2021+006009089GF103991031091008001001001KA1120M+02911MA1999999101561MD1310071+9999REMSYN100AAXX  29154 67073 32580 32805 10242 20217 30156 40182 53007 83900 333 10291 82820 81920 94992 95812;EQDQ01  00002PRCP99
0195670730999992000063003004-18500+044300FM-12+0023FMMO V0209999C00001012001CN0300001N1+01921+01821101891ADDAA199000091GA1011+006009089GF105991051081008001001001MA1999999101631MD1310031+9999REMSYN082AAXX  30034 67073 33580 50000 10192 20182 30163 40189 53003 85800 333 81820 85630;EQDQ01  00002PRCP99
0227670730999992000063012004-18500+044300FM-12+0023FMMO V0202201N004610300019N0400001N1+02701+01861101781ADDAA199000091GA1011+006909089GA2051+030009039GF106991021081008001031001MA1999999101521MD1610131+9999REMSYN098AAXX  30124 67073 32582 62209 10270 20186 30152 40178 56013 82830 333 0//00 81823 85360 555 81640;EQDQ01  00002PRCP99
0195670730999992000070103004-18500+044300FM-12+0023FMMO V0209999C000010120019N0300001N1+02001+01811101921ADDAA199000091GA1011+006009089GF106991051081008001031001MA1999999101661MD1310011+9999REMSYN082AAXX  01034 67073 33580 60000 10200 20181 30166 40192 53001 85830 333 81820 85640;EQDQ01  00002PRCP99
0285670730999992000070106004-18500+044300FM-12+0023FMMO V0209999C000010120019N0300001N1+02221+01521102071ADDAA199000091GA1011+006009079GA2051+012009069GF106991061081008001031001IA2240+01809KA1120M+02901KA2120N+01931MA1999999101831MD1110151+9999REMSYN118AAXX  01064 67073 32580 60000 10222 20152 30183 40207 51015 86830 333 01800 10290 20193 5///4 55/// 81720 85640 81360;EQDQ01  00002PRCP99
0195670730999992000070312004-18500+044300FM-12+0023FMMO V0202201N005112200019N0400001N1+02561+01811101641ADDAA199000091GA1021+006909029GF102991021021008001001001MA1999999101381MD1610071+9999REMSYN082AAXX  03124 67073 32582 22210 10256 20181 30138 40164 56007 82200 333 0//00 82823;EQDQ01  00002PRCP99
0218670730999992000070315004-18500+044300FM-12+0023FMMO V0202201N002112200019N0300001N1+02311+01641101651ADDAA199000091GA1021+006009089GF102991021081008001001001KA1120M+02771MA1999999101391MD1310011+9999REMSYN092AAXX  03154 67073 32580 22204 10231 20164 30139 40165 53001 82800 333 10277 82820 555 81630;EQDQ01  00002PRCP99
0199670730999992000070403004-18500+044300FM-12+0023FMMO V0200901N003612200019N0300001N1+01901+01381101651ADDAA199000091GA1031+009009069GF104991031051008001031001MA1999999101391MD1310061+9999REMSYN086AAXX  04034 67073 33580 40907 10190 20138 30139 40165 53006 83530 333 83630 555 82360;EQDQ01  00002PRCP99
0273670730999992000070406004-18500+044300FM-12+0023FMMO V0200901N001512200019N0400001N1+02461+01421101741ADDAA199000091GA1011+012009069GF103991011081008001031001IA2240+01609KA1120M+02771KA2120N+01801MA1999999101481MD1110091+9999REMSYN122AAXX  04064 67073 32582 30903 10246 20142 30148 40174 51009 81830 333 01600 10277 20180 5///4 55/// 81823 555 81640 82360;EQDQ01  00002PRCP99
0264670730999992000070415004-18500+044300FM-12+0023FMMO V0202801N003110090019N0300001N1+02401+01771101681ADDAA199000091GA1011+006009099GA2011+006009089GA3041+009009069GF106991061091008001001001KA1120M+02761MA1999999101421MD1310071+9999REMSYN106AAXX  04154 67073 32580 62806 10240 20177 30142 40168 53007 86900 333 10276 81820 81920 84630 94995 95815;EQDQ01  00002PRCP99
0245670730999992000070503004-18500+044300FM-12+0023FMMO V0201201N002610090019N0300001N1+01811+01741101771ADDAA199000091GA1011+006009099GA2021+006009089GA3051+009009069GF106991061091008001001001MA1999999101511MD1310041+9999REMSYN100AAXX  05034 67073 33580 61205 10181 20174 30151 40177 53004 86900 333 82820 81920 85630 94997 95837;EQDQ01  00002PRCP99
0263670730999992000070506004-18500+044300FM-12+0023FMMO V0201201N003610120019N0400001N1+02051+01761101821ADDAA199000091GA1011+006909089GF105991051081008001031001IA2240+01709KA1120M+02761KA2120N+01811MA1999999101561MD1110051+9999REMSYN112AAXX  05064 67073 32582 51207 10205 20176 30156 40182 51005 85830 333 01700 10276 20181 5///4 55/// 81823 85640;EQDQ01  00002PRCP99
0223670730999992000070509004-18500+044300FM-12+0023FMMO V0202001N004112200019N0400001N1+02611+01921101751ADDAA199000091GA1011+006909099GA2021+006909089GF103991021091008001031031MA1999999101491MD1810071+9999REMSYN094AAXX  05094 67073 32582 32008 10261 20192 30149 40175 58007 82933 333 82823 81923 94997 95817;EQDQ01  00002PRCP99
0273670730999992000070512004-18500+044300FM-12+0023FMMO V0202201N004610120019N0350001N1+02481+01991101641ADDAA199000091GA1011+006009099GA2031+006009089GA3031+012009069GF106991051091008001031001MA1999999101381MD1610111+9999REMSYN128AAXX  05124 67073 32581 62209 10248 20199 30138 40164 56011 85930 333 0//00 83820 81920 83640 94993 94995 95813 95815 555 82360;EQDQ01  00002PRCP99
0240670730999992000070515004-18500+044300FM-12+0023FMMO V0202001N003610090019N0300001N1+02301+02101101671ADDAA199000091GA1011+006009089GA2051+009009069GF105991051081008001031001KA1120M+02651MA1999999101411MD1310031+9999REMSYN098AAXX  05154 67073 32580 52007 10230 20210 30141 40167 53003 85830 333 10265 81820 85630 555 81360;EQDQ01  00002PRCP99
0223670730999992000070603004-18500+044300FM-12+0023FMMO V0201801N002112200019N0300001N1+01821+01741101661ADDAA199000091GA1011+006009099GA2031+006009089GF104991041091008001001001MA1999999101401MD1510021+9999REMSYN094AAXX  06034 67073 33580 41804 10182 20174 30140 40166 55002 84900 333 83820 81920 94995 95815;EQDQ01  00002PRCP99
0189670730999992000070609004-18500+044300FM-12+0023FMMO V0202001N004112200019N0400001N1+02581+01651101671ADDAA199000091GA1021+006909029GF102991021021008001001001MA1999999101411MD1810121+9999REMSYN076AAXX  06094 67073 32582 22008 10258 20165 30141 40167 58012 82200 333 82823;EQDQ01  00002PRCP99
0229670730999992000070612004-18500+044300FM-12+0023FMMO V0202201N005712200019N0350001N1+02601+01961101581ADDAA199000091GA1011+006009099GA2031+006009089GF103991031091008001001001MA1999999101321MD1610091+9999REMSYN100AAXX  06124 67073 32581 32211 10260 20196 30132 40158 56009 83900 333 0//00 83820 81920 94994 95814;EQDQ01  00002PRCP99
0218670730999992000070615004-18500+044300FM-12+0023FMMO V0202001N004612200019N0300001N1+02391+01951101661ADDAA199000091GA1021+006009089GF102991021021008001031001KA1120M+02701MA1999999101401MD1310081+9999REMSYN092AAXX  06154 67073 32580 22009 10239 20195 30140 40166 53008 82230 333 10270 82820 555 81360;EQDQ01  00002PRCP99
0189670730999992000070703004-18500+044300FM-12+0023FMMO V0209999C000012200019N0300001N1+01771+01691101641ADDAA199000091GA1021+006009029GF102991021021008001001001MA1999999101381MD1510011+9999REMSYN076AAXX  07034 67073 33580 20000 10177 20169 30138 40164 55001 82200 333 82820;EQDQ01  00002PRCP99
0257670730999992000070706004-18500+044300FM-12+0023FMMO V0201801N003112200019N0400001N1+02441+01811101781ADDAA199000091GA1011+006909029GF101991011021008001001001IA2240+01509KA1120M+02701KA2120N+01741MA1999999101521MD1110141+9999REMSYN106AAXX  07064 67073 32582 11806 10244 20181 30152 40178 51014 81200 333 01500 10270 20174 50//4 55/// 81823;EQDQ01  00002PRCP99
0173670730999992000070709004-18500+044300FM-12+0023FMMO V0202201N004612200019N0400001N1+02701+01971101671ADDAA199000091GA1001+999999999GF100991001001999999001001MA1999999101411MD1810111+9999REMSYN060AAXX  07094 67073 32982 02209 10270 20197 30141 40167 58011;EQDQ01  00002PRCP99
0195670730999992000070712004-18500+044300FM-12+0023FMMO V0202201N004612200019N0400001N1+02661+01891101531ADDAA199000091GA1011+006909029GF101991011021008001001001MA1999999101271MD1610141+9999REMSYN082AAXX  07124 67073 32582 12209 10266 20189 30127 40153 56014 81200 333 0//00 81823;EQDQ01  00002PRCP99
0177670730999992000070803004-18500+044300FM-12+0023FMMO V0201001N002612200019N0300001N1+01931+01841101671ADDAA199000091GA1001+999999999GF100991001001999999001001MA1999999101411MD1310051+9999REMSYN064AAXX  08034 67073 33980 01005 10193 20184 30141 40167 53005 333;EQDQ01  00002PRCP99
0245670730999992000070806004-18500+044300FM-12+0023FMMO V0209999C000012200019N0400001N1+02601+02151101731ADDAA199000091GA1001+999999999GF100991001001999999001001IA2240+01609KA1120M+02801KA2120N+01901MA1999999101471MD1010061+9999REMSYN094AAXX  08064 67073 32982 00000 10260 20215 30147 40173 50006 333 01600 10280 20190 5///4 55///;EQDQ01  00002PRCP99
0251670730999992000070903004-18500+044300FM-12+0023FMMO V0201401N003112200019N0300001N1+02001+01941101931ADDAA112006091GA1011+006009099GA2021+006009089GA3051+009009069GF199999061091008001001001MA1999999101671MD1310121+9999REMSYN106AAXX  09034 67073 23580 21406 10200 20194 30167 40193 53012 86900 333 60062 82820 81920 85630 94996 95816;EQDQ01+000022SCOTCV
0250670730999992000070906004-18500+044300FM-12+0023FMMO V0201201N002112200019N0400001N1+02401+02131102031ADDAA124006191GA1011+006909089GF103991011021008001031001IA2240+01909KA1120M+02751KA2120N+01951MA1999999101771MD1110101+9999REMSYN118AAXX  09064 67073 12582 31204 10240 20213 30177 40203 51010 60064 81230 333 01900 10275 20195 5///4 55/// 81823 83360;
0184670730999992000071003004-18500+044300FM-12+0023FMMO V0201601N002112200019N0300001N1+02071+01901101941ADDAA199000091GA1021+009909069GF104991041081008001031001MD1410001+9999REMSYN086AAXX  10034 67073 33580 41604 10207 20190 40194 54000 84830 333 82820 555 82633 81360;EQDQ01  00002PRCP99
0261670730999992000071006004-18500+044300FM-12+0023FMMO V0201401N002612200019N0400001N1+02501+01981102041ADDAA199000091GA1011+012009069GF101991011051012501031001IA2240+01809KA1120M+02971KA2120N+02031MA1999999101781MD1110101+9999REMSYN110AAXX  10064 67073 32682 11405 10250 20198 30178 40204 51010 81530 333 01800 10297 20203 55/// 81640 555 81360;EQDQ01  00002PRCP99
0189670730999992000071009004-18500+044300FM-12+0023FMMO V0202201N004612200019N0400001N1+02871+02011101891ADDAA199000091GA1011+006909029GF101991011011008001001001MA1999999101631MD1810151+9999REMSYN076AAXX  10094 67073 32582 12209 10287 20201 30163 40189 58015 81100 333 81823;EQDQ01  00002PRCP99
0229670730999992000071012004-18500+044300FM-12+0023FMMO V0202201N004612200019N0350001N1+02751+02081101741ADDAA199000091GA1011+006009099GA2031+006009089GF103991031091008001001001MA1999999101481MD1610151+9999REMSYN100AAXX  10124 67073 32581 32209 10275 20208 30148 40174 56015 83900 333 0//00 83820 81920 94993 95813;EQDQ01  00002PRCP99
0304670730999992000071015004-18500+044300FM-12+0023FMMO V0202001N003110090019N0200001N1+02511+02231101841ADDAA199000091AY111031AY211031GA1011+006009099GA2031+006009089GA3031+009009069GF105991051091008001001001KA1120M+02961MA1999999101581MD1310101+9999MW1151REMSYN124AAXX  10154 67073 31570 52006 10251 20223 30158 40184 53010 71511 85900 333 10296 83820 81920 83630 94992 94994 95832 95814;EQDQ01  00002PRCP99
0186670730999992000071103004-18500+044300FM-12+0023FMMO V0209999C000012200019N0300001N1+02101+01941101921ADDAA112000391GA1021+006009089GF103991031081008001001001MA1999999101661MD1310061+9999REMSYN092AAXX  11034 67073 23580 30000 10210 20194 30166 40192 53006 83800 333 69932 82820 555 82640;
0244670730999992000071106004-18500+044300FM-12+0023FMMO V0200201N003112200019N0400001N1+02671+01661102001ADDAA124000391GA1011+006909029GF101991011021008001001001IA2240+01809KA1120M+02961KA2120N+02061MA1999999101741MD1110081+9999REMSYN112AAXX  11064 67073 12582 10206 10267 20166 30174 40200 51008 69934 81200 333 01800 10296 20206 5///4 55/// 81823;
0189670730999992000071109004-18500+044300FM-12+0023FMMO V0202801N004612200019N0400001N1+02801+01731101891ADDAA199000091GA1011+006909029GF101991011021008001001001MA1999999101631MD1810111+9999REMSYN076AAXX  11094 67073 32582 12809 10280 20173 30163 40189 58011 81200 333 81823;EQDQ01  00002PRCP99
0195670730999992000071112004-18500+044300FM-12+0023FMMO V0202601N005712200019N0400001N1+02761+01971101761ADDAA199000091GA1021+006909029GF102991021021008001001001MA1999999101501MD1610131+9999REMSYN082AAXX  11124 67073 32582 22611 10276 20197 30150 40176 56013 82200 333 0//00 82823;EQDQ01  00002PRCP99
0218670730999992000071115004-18500+044300FM-12+0023FMMO V0202601N005112200019N0300001N1+02491+02001101791ADDAA199000091GA1021+006009089GF102991021081008001001001KA1120M+02901MA1999999101531MD1310031+9999REMSYN092AAXX  11154 67073 32580 22610 10249 20200 30153 40179 53003 82800 333 10290 82820 555 81630;EQDQ01  00002PRCP99
0199670730999992000071203004-18500+044300FM-12+0023FMMO V0200801N003112200019N0300001N1+01931+01851101921ADDAA199000091GA1011+006009089GF101991011081008001001001MA1999999101661MD1310061+9999REMSYN086AAXX  12034 67073 33580 10806 10193 20185 30166 40192 53006 81800 333 81820 555 81633;EQDQ01  00002PRCP99
0257670730999992000071206004-18500+044300FM-12+0023FMMO V0200201N004612200019N0400001N1+02501+01741102021ADDAA199000091GA1011+006909029GF101991011021008001001001IA2240+01709KA1120M+02901KA2120N+01861MA1999999101761MD1110101+9999REMSYN106AAXX  12064 67073 32582 10209 10250 20174 30176 40202 51010 81200 333 01700 10290 20186 5///4 55/// 81823;EQDQ01  00002PRCP99
0189670730999992000071209004-18500+044300FM-12+0023FMMO V0203601N004612200019N0400001N1+02701+01941101931ADDAA199000091GA1011+006909029GF101991011021008001001001MA1999999101671MD1810091+9999REMSYN076AAXX  12094 67073 32582 13609 10270 20194 30167 40193 58009 81200 333 81823;EQDQ01  00002PRCP99
0195670730999992000071212004-18500+044300FM-12+0023FMMO V0202801N005712200019N0400001N1+02661+01921101761ADDAA199000091GA1021+006909029GF102991021021008001001001MA1999999101501MD1610171+9999REMSYN082AAXX  12124 67073 32582 22811 10266 20192 30150 40176 56017 82200 333 0//00 82823;EQDQ01  00002PRCP99
0218670730999992000071215004-18500+044300FM-12+0023FMMO V0202601N004112200019N0300001N1+02471+02001101821ADDAA199000091GA1031+006009089GF103991031081008001001001KA1120M+02791MA1999999101561MD1310061+9999REMSYN092AAXX  12154 67073 32580 32608 10247 20200 30156 40182 53006 83800 333 10279 83820 555 81633;EQDQ01  00002PRCP99
0195670730999992000071303004-18500+044300FM-12+0023FMMO V0209999C00001012001CN0300001N1+02081+01991101931ADDAA199000091GA1021+006009089GF107991071081008001999999MA1999999101671MD1310051+9999REMSYN082AAXX  13034 67073 33580 70000 10208 20199 30167 40193 53005 878// 333 82820 86633;EQDQ01  00002PRCP99
0257670730999992000071306004-18500+044300FM-12+0023FMMO V0201201N003612200019N0400001N1+02451+02041102021ADDAA199000091GA1031+012009059GF104991031061012501031001IA2240+01809KA1120M+02791KA2120N+02021MA1999999101761MD1110091+9999REMSYN106AAXX  13064 67073 32682 41207 10245 20204 30176 40202 51009 83630 333 01800 10279 20202 5///4 55/// 83640;EQDQ01  00002PRCP99
0189670730999992000071309004-18500+044300FM-12+0023FMMO V0203001N004612200019N0400001N1+02701+02141101931ADDAA199000091GA1031+006909029GF103991031021008001031001MA1999999101671MD1810091+9999REMSYN076AAXX  13094 67073 32582 33009 10270 20214 30167 40193 58009 83230 333 83823;EQDQ01  00002PRCP99
0205670730999992000071312004-18500+044300FM-12+0023FMMO V0202801N005712200019N0400001N1+02671+02001101721ADDAA199000091GA1031+006909089GF103991031081008001001001MA1999999101461MD1610211+9999REMSYN092AAXX  13124 67073 32582 32811 10267 20200 30146 40172 56021 83800 333 0//00 83823 555 81633;EQDQ01  00002PRCP99
0218670730999992000071315004-18500+044300FM-12+0023FMMO V0203001N003112200019N0300001N1+02431+01991101791ADDAA199000091GA1011+006009089GF101991011081008001001001KA1120M+02831MA1999999101531MD1310071+9999REMSYN092AAXX  13154 67073 32580 13006 10243 20199 30153 40179 53007 81800 333 10283 81820 555 81633;EQDQ01  00002PRCP99
0267670730999992000071406004-18500+044300FM-12+0023FMMO V0201001N002612200019N0400001N1+02501+01951101961ADDAA199000091GA1021+006909089GF102991021081008001001001IA2240+01809KA1120M+02831KA2120N+01931MA1999999101701MD1110111+9999REMSYN116AAXX  14064 67073 32582 21005 10250 20195 30170 40196 51011 82800 333 01800 10283 20193 5///4 55/// 82823 555 81633;EQDQ01  00002PRCP99
0199670730999992000071409004-18500+044300FM-12+0023FMMO V0202801N004612200019N0400001N1+02721+01921101871ADDAA199000091GA1031+006909089GF103991031021008001031001MA1999999101611MD1810091+9999REMSYN086AAXX  14094 67073 32582 32809 10272 20192 30161 40187 58009 83230 333 83823 555 81360;EQDQ01  00002PRCP99
0195670730999992000071412004-18500+044300FM-12+0023FMMO V0202401N005112200019N0400001N1+02751+01941101631ADDAA199000091GA1031+006909029GF103991031021008001031001MA1999999101371MD1610241+9999REMSYN082AAXX  14124 67073 32582 32410 10275 20194 30137 40163 56024 83230 333 0//00 83823;EQDQ01  00002PRCP99
0208670730999992000071415004-18500+044300FM-12+0023FMMO V0202201N002112200019N0300001N1+02461+01851101611ADDAA199000091GA1011+007809059GF101991011041008001001001KA1120M+02751MA1999999101351MD1610021+9999REMSYN082AAXX  14154 67073 32580 12204 10246 20185 30135 40161 56002 81400 333 10275 81626;EQDQ01  00002PRCP99
0207670730999992000071503004-18500+044300FM-12+0023FMMO V0201401N00211012001CN0200001N1+02021+01811101691ADDAA199000091GA1031+006009089GF105991051081008001001001MA1999999101431MD1310031+9999MW1151REMSYN088AAXX  15034 67073 31570 51404 10202 20181 30143 40169 53003 715// 85800 333 83820 83633;EQDQ01  00002PRCP99
0301670730999992000071506004-18500+044300FM-12+0023FMMO V0201401N004112200019N0400001N1+02531+02131101791ADDAA199000091GA1011+006009099GA2031+006009089GF104991031091008001031001IA2240+01809KA1120M+02751KA2120N+01961MA1999999101531MD1110101+9999REMSYN134AAXX  15064 67073 32582 41408 10253 20213 30153 40179 51010 83930 333 01800 10275 20196 5///4 55/// 83820 81920 94996 95816 555 82633;EQDQ01  00002PRCP99
0273670730999992000071606004-18500+044300FM-12+0023FMMO V0201201N003112200019N0400001N1+02431+02081101771ADDAA199000091GA1011+009909069GF102991021081008001031001IA2240+01709KA1120M+02901KA2120N+01831MA1999999101511MD1110111+9999REMSYN122AAXX  16064 67073 32582 21206 10243 20208 30151 40177 51011 82830 333 01700 10290 20183 5///4 55/// 81823 555 81633 81360;EQDQ01  00002PRCP99
0199670730999992000071609004-18500+044300FM-12+0023FMMO V0202001N004112200019N0400001N1+02761+02071101801ADDAA199000091GA1011+006909089GF101991011011008001031001MA1999999101541MD1010031+9999REMSYN086AAXX  16094 67073 32582 12008 10276 20207 30154 40180 50003 81130 333 81823 555 81360;EQDQ01  00002PRCP99
0189670730999992000071703004-18500+044300FM-12+0023FMMO V0201801N003112200019N0300001N1+01971+01911101901ADDAA199000091GA1011+006009029GF101991011021008001001001MA1999999101641MD1310041+9999REMSYN076AAXX  17034 67073 33580 11806 10197 20191 30164 40190 53004 81200 333 81820;EQDQ01  00002PRCP99
0257670730999992000071706004-18500+044300FM-12+0023FMMO V0201801N003612200019N0400001N1+02381+02111102011ADDAA199000091GA1011+006909029GF101991011021008001001001IA2240+01809KA1120M+02821KA2120N+01931MA1999999101751MD1110111+9999REMSYN106AAXX  17064 67073 32582 11807 10238 20211 30175 40201 51011 81200 333 01800 10282 20193 5///4 55/// 81823;EQDQ01  00002PRCP99
0195670730999992000071712004-18500+044300FM-12+0023FMMO V0201801N007212200019N0400001N1+02641+02001101791ADDAA199000091GA1011+006909029GF101991011011008001001001MA1999999101531MD1810161+9999REMSYN082AAXX  17124 67073 32582 11814 10264 20200 30153 40179 58016 81100 333 0//00 81823;EQDQ01  00002PRCP99
0196670730999992000071715004-18500+044300FM-12+0023FMMO V0202001N005712200019N0300001N1+02421+02021101831ADDAA199000091GA1001+999999999GF100991001001999999001001KA1999M+02801MA1999999101571MD1310041+9999REMSYN070AAXX  17154 67073 32980 02011 10242 20202 30157 40183 53004 333 10280;EQDQ01  00002PRCP99
0245670730999992000071806004-18040+044030FM-12+0023FMMO V0201201N002612200019N0400001N1+02301+01891101891ADDAA199000091GA1001+999999999GF100991001001999999001001IA2240+01709KA1120M+02801KA2120N+01841MA1999999101631MD1110081+9999REMSYN094AAXX  18064 67073 32982 01205 10230 20189 30163 40189 51008 333 01700 10280 20184 5///4 55///;EQDQ01  00002PRCP99
0195670730999992000071812004-18040+044030FM-12+0023FMMO V0202201N006712200019N0400001N1+02641+02021101601ADDAA199000091GA1011+006909029GF101991011011008001001001MA1999999101341MD1610171+9999REMSYN082AAXX  18124 67073 32582 12213 10264 20202 30134 40160 56017 81100 333 0//00 81823;EQDQ01  00002PRCP99
0257670730999992000071906004-18040+044030FM-12+0023FMMO V0201201N002112200019N0400001N1+02501+01831101781ADDAA199000091GA1011+006909029GF101991011021008001001001IA2240+01709KA1120M+02691KA2120N+01861MA1999999101521MD1110061+9999REMSYN106AAXX  19064 67073 32582 11204 10250 20183 30152 40178 51006 81200 333 01700 10269 20186 5///4 55/// 81823;EQDQ01  00002PRCP99
0195670730999992000071912004-18040+044030FM-12+0023FMMO V0202601N005712200019N0400001N1+02621+02111101571ADDAA199000091GA1021+006909029GF102991021021008001001001MA1999999101311MD1610141+9999REMSYN082AAXX  19124 67073 32582 22611 10262 20211 30131 40157 56014 82200 333 0//00 82823;EQDQ01  00002PRCP99
0257670730999992000072006004-18040+044030FM-12+0023FMMO V0201001N002112200019N0400001N1+02521+01921101741ADDAA199000091GA1011+012009059GF101991011051012501001001IA2240+01709KA1120M+02731KA2120N+01871MA1999999101481MD1010051+9999REMSYN106AAXX  20064 67073 32682 11004 10252 20192 30148 40174 50005 81500 333 01700 10273 20187 5///4 55/// 81640;EQDQ01  00002PRCP99
0205670730999992000072012004-18040+044030FM-12+0023FMMO V0203001N005712200019N0400001N1+01701+99999101481ADDAA199000091GA1011+006909089GF101991011011008001031001MA1999999101221MD1810141+9999REMSYN092AAXX  20124 67073 32582 13011 10170 20176 30122 40148 58014 81130 333 0//00 81823 555 81360;EQDQ01  00002PRCP99
0189670730999992000072103004-18040+044030FM-12+0023FMMO V0201001N002612200019N0300001N1+01881+01771101711ADDAA199000091GA1021+006009029GF103991031081008001001001MA1999999101451MD1310091+9999REMSYN076AAXX  21034 67073 33580 31005 10188 20177 30145 40171 53009 83800 333 82820;EQDQ01  00002PRCP99
0257670730999992000072106004-18040+044030FM-12+0023FMMO V0201801N003612200019N0400001N1+02431+01961101811ADDAA199000091GA1011+006909029GF101991011021008001031001IA2240+01709KA1120M+02961KA2120N+01841MA1999999101551MD1110101+9999REMSYN106AAXX  21064 67073 32582 11807 10243 20196 30155 40181 51010 81230 333 01700 10296 20184 5///4 55/// 81823;EQDQ01  00002PRCP99
0205670730999992000072112004-18040+044030FM-12+0023FMMO V0202001N006212200019N0400001N1+02701+01951101561ADDAA199000091GA1021+006909089GF103991031081008001001001MA1999999101301MD1610161+9999REMSYN092AAXX  21124 67073 32582 32012 10270 20195 30130 40156 56016 83800 333 0//00 82823 555 82630;EQDQ01  00002PRCP99
0245670730999992000072206004-18040+044030FM-12+0023FMMO V0201801N003612200019N0400001N1+02381+01601101821ADDAA199000091GA1001+999999999GF100991001001999999001001IA2240+01709KA1120M+02761KA2120N+01781MA1999999101561MD1310071+9999REMSYN094AAXX  22064 67073 32982 01807 10238 20160 30156 40182 53007 333 01700 10276 20178 5///4 55///;EQDQ01  00002PRCP99
0245670730999992000072306004-18040+044030FM-12+0023FMMO V0209999C000012200019N0400001N1+02421+01931101981ADDAA199000091GA1001+999999999GF100991001001999999001001IA2240+01709KA1120M+02751KA2120N+01811MA1999999101721MD1110081+9999REMSYN094AAXX  23064 67073 32982 00000 10242 20193 30172 40198 51008 333 01700 10275 20181 5///4 55///;EQDQ01  00002PRCP99
0245670730999992000072406004-18040+044030FM-12+0023FMMO V0201001N003112200019N0400001N1+02491+01671101881ADDAA199000091GA1001+999999999GF100991001001999999001001IA2240+01709KA1120M+02721KA2120N+01781MA1999999101621MD1110121+9999REMSYN094AAXX  24064 67073 32982 01006 10249 20167 30162 40188 51012 333 01700 10272 20178 50//4 55///;EQDQ01  00002PRCP99
0195670730999992000072412004-18040+044030FM-12+0023FMMO V0203401N006212200019N0400001N1+02661+01821101691ADDAA199000091GA1021+006909029GF102991021081008001001001MA1999999101431MD1610121+9999REMSYN082AAXX  24124 67073 32582 23412 10266 20182 30143 40169 56012 82800 333 0//00 82823;EQDQ01  00002PRCP99
0189670730999992000072503004-18040+044030FM-12+0023FMMO V0201601N002612200019N0300001N1+01881+01511101871ADDAA199000091GA1021+009009059GF102991021051008001031001MA1999999101611MD1310091+9999REMSYN076AAXX  25034 67073 33580 21605 10188 20151 30161 40187 53009 82530 333 82630;EQDQ01  00002PRCP99
0257670730999992000072506004-18040+044030FM-12+0023FMMO V0201801N002612200019N0400001N1+02361+01721101971ADDAA199000091GA1011+006909029GF101991011021008001001001IA2240+01609KA1120M+02831KA2120N+01811MA1999999101711MD1110101+9999REMSYN106AAXX  25064 67073 32582 11805 10236 20172 30171 40197 51010 81200 333 01600 10283 20181 5///4 55/// 81823;EQDQ01  00002PRCP99
0189670730999992000072509004-18040+044030FM-12+0023FMMO V0202201N004112200019N0400001N1+02601+01821101881ADDAA199000091GA1011+006909029GF101991011021008001001001MA1999999101621MD1810091+9999REMSYN076AAXX  25094 67073 32582 12208 10260 20182 30162 40188 58009 81200 333 81823;EQDQ01  00002PRCP99
0205670730999992000072512004-18040+044030FM-12+0023FMMO V0202001N005112200019N0350001N1+02601+01771101721ADDAA199000091GA1021+006909089GF102991021081008001001001MA1999999101461MD1610161+9999REMSYN092AAXX  25124 67073 32581 22010 10260 20177 30146 40172 56016 82800 333 00/00 82823 555 81630;EQDQ01  00002PRCP99
0208670730999992000072515004-18040+044030FM-12+0023FMMO V0202001N004612200019N0300001N1+02361+01761101841ADDAA199000091GA1011+012009059GF101991011051012501001001KA1120M+02671MA1999999101581MD1310121+9999REMSYN082AAXX  25154 67073 32680 12009 10236 20176 30158 40184 53012 81500 333 10267 81640;EQDQ01  00002PRCP99
0267670730999992000072606004-18040+044030FM-12+0023FMMO V0201601N005712200019N0400001N1+02361+01791102181ADDAA199000091GA1011+006909089GF101991011021008001031001IA2240+01709KA1120M+02671KA2120N+01781MA1999999101921MD1110141+9999REMSYN116AAXX  26064 67073 32582 11611 10236 20179 30192 40218 51014 81230 333 01700 10267 20178 5///4 55/// 81823 555 81360;EQDQ01  00002PRCP99
0199670730999992000072609004-18040+044030FM-12+0023FMMO V0202001N005712200019N0400001N1+02581+01901102061ADDAA199000091GA1011+006909089GF101991011081008001001001MA1999999101801MD1810121+9999REMSYN086AAXX  26094 67073 32582 12011 10258 20190 30180 40206 58012 81800 333 81823 555 81630;EQDQ01  00002PRCP99
0183670730999992000072612004-18040+044030FM-12+0023FMMO V0202001N007212200019N0350001N1+02551+01851101981ADDAA199000091GA1001+999999999GF100991001001999999001001MA1999999101721MD1610081+9999REMSYN070AAXX  26124 67073 32981 02014 10255 20185 30172 40198 56008 333 0//00;EQDQ01  00002PRCP99
0208670730999992000072615004-18040+044030FM-12+0023FMMO V0202001N005112200019N0300001N1+02331+01981102021ADDAA199000091GA1021+006009029GF102991021081008001001001KA1120M+02601MA1999999101761MD1310041+9999REMSYN082AAXX  26154 67073 32580 22010 10233 20198 30176 40202 53004 82800 333 10260 82820;EQDQ01  00002PRCP99
0189670730999992000072703004-18040+044030FM-12+0023FMMO V0201801N003112200019N0300001N1+01831+01751102021ADDAA199000091GA1031+006009029GF103991031081008001001001MA1999999101761MD1310011+9999REMSYN076AAXX  27034 67073 33580 31806 10183 20175 30176 40202 53001 83800 333 83820;EQDQ01  00002PRCP99
0257670730999992000072706004-18040+044030FM-12+0023FMMO V0201801N004612200019N0400001N1+02261+01781102131ADDAA199000091GA1011+006909029GF101991011081008001001001IA2240+01709KA1120M+02601KA2120N+01791MA1999999101871MD1110111+9999REMSYN106AAXX  27064 67073 32582 11809 10226 20178 30187 40213 51011 81800 333 01700 10260 20179 5///4 55/// 81823;EQDQ01  00002PRCP99
0189670730999992000072709004-18040+044030FM-12+0023FMMO V0202001N005712200019N0400001N1+02551+01581102011ADDAA199000091GA1011+006909029GF101991011021008001001001MA1999999101751MD1810121+9999REMSYN076AAXX  27094 67073 32582 12011 10255 20158 30175 40201 58012 81200 333 81823;EQDQ01  00002PRCP99
0205670730999992000072712004-18040+044030FM-12+0023FMMO V0202001N006712200019N0350001N1+02511+01471101831ADDAA199000091GA1011+006909089GF101991011021008001031001MA1999999101571MD1610181+9999REMSYN092AAXX  27124 67073 32581 12013 10251 20147 30157 40183 56018 81230 333 0//00 81823 555 81360;EQDQ01  00002PRCP99
0189670730999992000072803004-18040+044030FM-12+0023FMMO V0209999C000012200019N0300001N1+01831+01581101791ADDAA199000091GA1031+009009059GF103991031051008001001001MA1999999101531MD1510031+9999REMSYN076AAXX  28034 67073 33580 30000 10183 20158 30153 40179 55003 83500 333 83630;EQDQ01  00002PRCP99
0257670730999992000072806004-18040+044030FM-12+0023FMMO V0201801N004112200019N0400001N1+02261+01681101871ADDAA199000091GA1041+009009059GF104991041051008001001001IA2240+01609KA1120M+02651KA2120N+01771MA1999999101611MD1110081+9999REMSYN106AAXX  28064 67073 32582 41808 10226 20168 30161 40187 51008 84500 333 01600 10265 20177 5///4 50/// 84630;EQDQ01  00002PRCP99
0211670730999992000072809004-18040+044030FM-12+0023FMMO V0202001N004110120019N0400001N1+02551+01721101841ADDAA199000091GA1011+030009039GF106991051081008001031021MA1999999101581MD1810031+9999REMSYN098AAXX  28094 67073 32582 62008 10255 20172 30158 40184 58003 85832 333 81823 85640 555 81360 81073;EQDQ01  00002PRCP99
0201670730999992000072812004-18040+044030FM-12+0023FMMO V0202001N00411012001CN0300001N1+02461+01801101681ADDAA199000091GA1011+006909089GF106991061081008001001001MA1999999101421MD1610161+9999REMSYN088AAXX  28124 67073 32580 62008 10246 20180 30142 40168 56016 86800 333 0//00 81823 86630;EQDQ01  00002PRCP99
0214670730999992000072815004-18040+044030FM-12+0023FMMO V0202001N00361012001CN0300001N1+02301+01721101761ADDAA199000091GA1021+006009089GF107991071081008001999999KA1120M+02581MA1999999101501MD1310081+9999REMSYN088AAXX  28154 67073 32580 72007 10230 20172 30150 40176 53008 878// 333 10258 82820 86630;EQDQ01  00002PRCP99
0195670730999992000072903004-18040+044030FM-12+0023FMMO V0209999C00001045001CN0300001N1+02031+01931101741ADDAA199000091GA1031+009009069GF107991031051008001031999MA1999999101481MD1510041+9999REMSYN082AAXX  29034 67073 33580 70000 10203 20193 30148 40174 55004 8353/ 333 83630 85360;EQDQ01  00002PRCP99
0263670730999992000072906004-18040+044030FM-12+0023FMMO V0201801N00361045001CN0400001N1+02421+01791101861ADDAA199000091GA1011+012009069GF105991011051012501031001IA2240+01909KA1120M+02581KA2120N+02011MA1999999101601MD1110121+9999REMSYN112AAXX  29064 67073 32682 51807 10242 20179 30160 40186 51012 81530 333 01900 10258 20201 5///4 55/// 81640 85360;EQDQ01  00002PRCP99
0189670730999992000073003004-18040+044030FM-12+0023FMMO V0201801N003110090019N0300001N1+02001+01941101781ADDAA199000091GA1061+009009059GF108991061051008001001001MA1999999101521MD1310031+9999REMSYN076AAXX  30034 67073 33580 81806 10200 20194 30152 40178 53003 86500 333 86630;EQDQ01  00002PRCP99
0267670730999992000073006004-18040+044030FM-12+0023FMMO V0201801N003112200019N0400001N1+02531+01751101901ADDAA199000091GA1011+012009069GF101991011051012501031001IA2240+01909KA1120M+02731KA2120N+02001MA1999999101641MD1110121+9999REMSYN116AAXX  30064 67073 32682 11806 10253 20175 30164 40190 51012 81530 333 01900 10273 20200 5///4 55/// 81640 555 81360;EQDQ01  00002PRCP99
0257670730999992000073106004-18040+044030FM-12+0023FMMO V0201601N003612200019N0400001N1+02531+02081101901ADDAA199000091GA1011+006909029GF101991011021008001031001IA2240+01909KA1120M+02801KA2120N+02021MA1999999101641MD1110101+9999REMSYN106AAXX  31064 67073 32582 11607 10253 20208 30164 40190 51010 81230 333 01900 10280 20202 5///4 55/// 81823;EQDQ01  00002PRCP99
0189670730999992000073109004-18040+044030FM-12+0023FMMO V0202201N004612200019N0400001N1+02741+02241101811ADDAA199000091GA1031+006909029GF103991031021008001031001MA1999999101551MD1810091+9999REMSYN076AAXX  31094 67073 32582 32209 10274 20224 30155 40181 58009 83230 333 83823;EQDQ01  00002PRCP99
0211670730999992000073112004-18040+044030FM-12+0023FMMO V0202601N003612200019N0400001N1+02721+02161101661ADDAA199000091GA1011+009009069GF103991031081008001031001MA1999999101411MD1610151+9999REMSYN098AAXX  31124 67073 32582 32607 10272 20216 30141 40166 56015 83830 333 0//00 82823 555 81630 81360;EQDQ01  00002PRCP99
0208670730999992000073115004-18040+044030FM-12+0023FMMO V0202201N002612200019N0300001N1+02501+02281101661ADDAA199000091GA1031+012009059GF103991031051012501001001KA1120M+02791MA1999999101401MD1510011+9999REMSYN082AAXX  31154 67073 32680 32205 10250 20228 30140 40166 55001 83500 333 10279 83640;EQDQ01  00002PRCP99
0257670730999992000080106004-18040+044030FM-12+0023FMMO V0201801N002612200019N0350001N1+02441+02171101761ADDAA199000091GA1021+006909029GF102991021021008001001001IA2240+01709KA1120M+02791KA2120N+02041MA1999999101501MD1110101+9999REMSYN106AAXX  01064 67073 32581 21805 10244 20217 30150 40176 51010 82200 333 01700 10279 20204 5///4 55/// 82823;EQDQ01  00002PRCP99
0199670730999992000080109004-18040+044030FM-12+0023FMMO V0202201N004612200019N0400001N1+02701+02261101691ADDAA199000091GA1011+006909089GF101991011021008001031001MA1999999101431MD1810071+9999REMSYN086AAXX  01094 67073 32582 12209 10270 20226 30143 40169 58007 81230 333 81823 555 81360;EQDQ01  00002PRCP99
0195670730999992000080112004-18040+044030FM-12+0023FMMO V0202001N005712200019N0400001N1+02671+02211101551ADDAA199000091GA1021+006909029GF103991021081008001031021MA1999999101291MD1610141+9999REMSYN082AAXX  01124 67073 32582 32011 10267 20221 30129 40155 56014 82832 333 0//00 82823;EQDQ01  00002PRCP99
0236670730999992000080115004-18040+044030FM-12+0023FMMO V0202001N004612200019N0300001N1+02431+02081101621ADDAA199000091GA1011+006009099GA2031+006009089GF103991031091008001001001KA1120M+02801MA1999999101361MD1310071+9999REMSYN094AAXX  01154 67073 32580 32009 10243 20208 30136 40162 53007 83900 333 10280 83820 81920 85812;EQDQ01  00002PRCP99
0189670730999992000080203004-18040+044030FM-12+0023FMMO V0201801N002612200019N0300001N1+01971+01911101701ADDAA199000091GA1011+012009059GF101991011051012501031001MA1999999101441MD1310031+9999REMSYN076AAXX  02034 67073 32680 11805 10197 20191 30144 40170 53003 81530 333 81640;EQDQ01  00002PRCP99
0239670730999992000080206004-18040+044030FM-12+0023FMMO V0201401N003612200019N0350001N1+99999+99999101851ADDAA199000091GA1001+999999999GF100991001001999999001001IA2240+01809KA1120M+02801KA2120N+01941MA1999999101591MD1110151+9999REMSYN088AAXX  02064 67073 32981 01407 20200 30159 40185 51015 333 01800 10280 20194 5///4 55///;EQDQ01  00002PRCP99
0173670730999992000080209004-18040+044030FM-12+0023FMMO V0202201N004612200019N0400001N1+02751+02081101741ADDAA199000091GA1001+999999999GF100991001001999999001001MA1999999101481MD1810111+9999REMSYN060AAXX  02094 67073 32982 02209 10275 20208 30148 40174 58011;EQDQ01  00002PRCP99
0195670730999992000080212004-18040+044030FM-12+0023FMMO V0202201N005112200019N0400001N1+02651+02131101621ADDAA199000091GA1021+006909029GF102991021021008001001001MA1999999101361MD1610121+9999REMSYN082AAXX  02124 67073 32582 22210 10265 20213 30136 40162 56012 82200 333 0//00 82823;EQDQ01  00002PRCP99
0218670730999992000080215004-18040+044030FM-12+0023FMMO V0202401N003612200019N0300001N1+02411+02221101671ADDAA199000091GA1011+006909089GF101991011081008001001001KA1120M+02851MA1999999101411MD1310041+9999REMSYN092AAXX  02154 67073 32580 12407 10241 20222 30141 40167 53004 81800 333 10285 81823 555 81640;EQDQ01  00002PRCP99
0205670730999992000080303004-18040+044030FM-12+0023FMMO V0209999C000012200019N0300001N1+02001+01941101871ADDAA199000091GA1011+012009069GF102991011081008001031001MA1999999101611MD1310051+9999REMSYN092AAXX  03034 67073 33580 20000 10200 20194 30161 40187 53005 81830 333 81820 555 81640 81360;EQDQ01  00002PRCP99
0257670730999992000080306004-18040+044030FM-12+0023FMMO V0209999C000012200019N0400001N1+02441+02141101971ADDAA199000091GA1011+006909029GF101991011021008001001001IA2240+01809KA1120M+02851KA2120N+01931MA1999999101711MD1110101+9999REMSYN106AAXX  03064 67073 32582 10000 10244 20214 30171 40197 51010 81200 333 01800 10285 20193 5///4 55/// 81823;EQDQ01  00002PRCP99
0173670730999992000080309004-18040+044030FM-12+0023FMMO V0202801N004612200019N0400001N1+02721+02161101861ADDAA199000091GA1001+999999999GF100991001001999999001001MA1999999101601MD1810111+9999REMSYN060AAXX  03094 67073 32982 02809 10272 20216 30160 40186 58011;EQDQ01  00002PRCP99
0195670730999992000080312004-18040+044030FM-12+0023FMMO V0202201N005112200019N0400001N1+02651+02301101631ADDAA199000091GA1021+006909029GF102991021011008001001001MA1999999101371MD1610231+9999REMSYN082AAXX  03124 67073 32582 22210 10265 20230 30137 40163 56023 82100 333 0//00 82823;EQDQ01  00002PRCP99
0205670730999992000080403004-18040+044030FM-12+0023FMMO V02099999999992200019N0300001N1+01981+01921999999ADDAA199000091GA1021+012009059GF102991999051012501031001MA1999999101621MD1319999+9999REMSYN076AAXX  04034 67073 33680 2//// 10198 20192 30162 4//// 53/// 83530 333 82640;EQDQ01+000032SCOTLCQ02  00002PRCP99
0216670730999992000080406004-18040+044030FM-12+0023FMMO V0201201N002612200019N0400001N1+99999+99999101971ADDAA199000091GA1031+012009059GF104991031051012501031001IA2240+01809KA1120M+02831KA2120N+01921REMSYN094AAXX  04064 67073 32682 41205 10854 20202 40197 83530 333 01800 10283 20192 5///4 55/// 83640;EQDQ01  00002PRCP99
0189670730999992000080409004-18040+044030FM-12+0023FMMO V0202601N004112200019N0400001N1+02781+01741101871ADDAA199000091GA1021+012009059GF103991021051012501031001MA1999999101611MD1810101+9999REMSYN076AAXX  04094 67073 32682 32608 10278 20174 30161 40187 58010 82530 333 82640;EQDQ01  00002PRCP99
0211670730999992000080412004-18040+044030FM-12+0023FMMO V0202401N004112200019N0400001N1+02701+02001101711ADDAA199000091GA1011+012009069GF102991011081008001031001MA1999999101451MD1610161+9999REMSYN098AAXX  04124 67073 32582 22408 10270 20200 30145 40171 56016 81830 333 0//00 81823 555 81640 81360;EQDQ01  00002PRCP99
0245670730999992000080506004-18040+044030FM-12+0023FMMO V0209999C000012200019N0400001N1+02501+01981101941ADDAA199000091GA1001+999999999GF100991001001999999001001IA2240+01709KA1120M+02851KA2120N+01931MA1999999101681MD1110071+9999REMSYN094AAXX  05064 67073 32982 00000 10250 20198 30168 40194 51007 333 01700 10285 20193 5///4 55///;EQDQ01  00002PRCP99
0189670730999992000080603004-18040+044030FM-12+0023FMMO V0209999C000012200019N0300001N1+01961+01901101681ADDAA199000091GA1011+006009029GF101991011021008001031001MA1999999101421MD1510031+9999REMSYN076AAXX  06034 67073 33580 10000 10196 20190 30142 40168 55003 81230 333 81820;EQDQ01  00002PRCP99
0205670730999992000080703004-18040+044030FM-12+0023FMMO V0209999C000012200019N0300001N1+01971+01941101571ADDAA199000091GA1011+012009069GF102991021081008001031001MA1999999101311MD1510031+9999REMSYN092AAXX  07034 67073 33580 20000 10197 20194 30131 40157 55003 82830 333 81820 555 81640 81360;EQDQ01  00002PRCP99
0267670730999992000080706004-18040+044030FM-12+0023FMMO V02099999999992200019N0400001N1+02561+01911101751ADDAA199000091GA1011+006909089GF101991011081008001001001IA2240+01709KA1120M+02771KA2120N+01931MA1999999101491MD1110101+9999REMSYN116AAXX  07064 67073 32582 1//09 10256 20191 30149 40175 51010 81800 333 01700 10277 20193 5///4 55/// 81823 555 81640;EQDQ01  00002PRCP99
0195670730999992000080712004-18040+044030FM-12+0023FMMO V0203401N006212200019N0400001N1+02701+02261101511ADDAA199000091GA1031+006009029GF104991041081008001001001MA1999999101251MD1610141+9999REMSYN082AAXX  07124 67073 32582 43412 10270 20226 30125 40151 56014 84800 333 0//00 83820;EQDQ01  00002PRCP99
0263670730999992000080806004-18040+044030FM-12+0023FMMO V0209999C00001045001CN0400001N1+02471+01931101911ADDAA199000091GA1011+006909089GF105991011021008001031001IA2240+01909KA1120M+02851KA2120N+02061MA1999999101651MD1110131+9999REMSYN112AAXX  08064 67073 32582 50000 10247 20193 30165 40191 51013 81230 333 01900 10285 20206 5///4 55/// 81823 85360;EQDQ01  00002PRCP99
0189670730999992000080809004-18040+044030FM-12+0023FMMO V0202601N003612200019N0400001N1+02751+01941101801ADDAA199000091GA1021+006909029GF102991021011008001001001MA1999999101541MD1810111+9999REMSYN076AAXX  08094 67073 32582 22607 10275 20194 30154 40180 58011 82100 333 82823;EQDQ01  00002PRCP99
0227670730999992000080812004-18040+044030FM-12+0023FMMO V0202801N005110300019N0350001N1+02621+02051101671ADDAA199000091GA1021+006909089GA2031+030009039GF106991031081008001031001MA1999999101411MD1610131+9999REMSYN098AAXX  08124 67073 32581 62810 10262 20205 30141 40167 56013 83830 333 0//00 82823 83360 555 82630;EQDQ01  00002PRCP99
0189670730999992000080903004-18040+044030FM-12+0023FMMO V0209999C000012200019N0300001N1+01951+01901101751ADDAA199000091GA1011+012009059GF101991011051012501001001MA1999999101491MD1310031+9999REMSYN076AAXX  09034 67073 33680 10000 10195 20190 30149 40175 53003 81500 333 81640;EQDQ01  00002PRCP99
0245670730999992000080906004-18040+044030FM-12+0023FMMO V0200801N002612200019N0400001N1+02521+01801101861ADDAA199000091GA1001+999999999GF100991001001999999001001IA2240+01609KA1120M+02951KA2120N+01931MA1999999101601MD1110111+9999REMSYN094AAXX  09064 67073 32982 00805 10252 20180 30160 40186 51011 333 01600 10295 20193 50//4 55///;EQDQ01  00002PRCP99
0189670730999992000080909004-18040+044030FM-12+0023FMMO V0202401N004112200019N0400001N1+02701+01941101741ADDAA199000091GA1021+006909029GF102991021021008001001001MA1999999101481MD1810121+9999REMSYN076AAXX  09094 67073 32582 22408 10270 20194 30148 40174 58012 82200 333 82823;EQDQ01  00002PRCP99
0195670730999992000080912004-18040+044030FM-12+0023FMMO V0202401N004612200019N0400001N1+02671+01951101521ADDAA199000091GA1021+006909029GF102991021081008001001001MA1999999101261MD1810221+9999REMSYN082AAXX  09124 67073 32582 22409 10267 20195 30126 40152 58022 82800 333 0//00 82823;EQDQ01  00002PRCP99
0257670730999992000081006004-18040+044030FM-12+0023FMMO V0201001N002612200019N0400001N1+02451+01941101841ADDAA199000091GA1011+012009059GF101991011051012501001001IA2240+01609KA1120M+02951KA2120N+01911MA1999999101581MD1110111+9999REMSYN106AAXX  10064 67073 32682 11005 10245 20194 30158 40184 51011 81500 333 01600 10295 20191 50//4 55/// 81640;EQDQ01  00002PRCP99
0195670730999992000081012004-18040+044030FM-12+0023FMMO V0202801N006212200019N0400001N1+02721+02171101511ADDAA199000091GA1021+006909029GF102991021021008001001001MA1999999101251MD1610191+9999REMSYN082AAXX  10124 67073 32582 22812 10272 20217 30125 40151 56019 82200 333 0//00 82823;EQDQ01  00002PRCP99
0218670730999992000081015004-18040+044030FM-12+0023FMMO V0202601N004112200019N0300001N1+02431+02271101631ADDAA199000091GA1011+006909089GF101991011081008001001001KA1120M+02861MA1999999101371MD1310121+9999REMSYN092AAXX  10154 67073 32580 12608 10243 20227 30137 40163 53012 81800 333 10286 81823 555 81630;EQDQ01  00002PRCP99
0189670730999992000081103004-18040+044030FM-12+0023FMMO V0209999C000010120019N0300001N1+02001+01961101631ADDAA199000091GA1051+012009059GF105991051051012501001001MA1999999101371MD1310031+9999REMSYN076AAXX  11034 67073 33680 50000 10200 20196 30137 40163 53003 85500 333 85640;EQDQ01  00002PRCP99
0267670730999992000081106004-18040+044030FM-12+0023FMMO V0202001N002112200019N0400001N1+02511+02141101711ADDAA199000091GA1011+006909089GF101991011081008001001001IA2240+01909KA1120M+02861KA2120N+02001MA1999999101451MD1110081+9999REMSYN116AAXX  11064 67073 32582 12004 10251 20214 30145 40171 51008 81800 333 01900 10286 20200 50//4 55/// 81823 555 81640;EQDQ01  00002PRCP99
0199670730999992000081109004-18040+044030FM-12+0023FMMO V0202601N004112200019N0400001N1+02661+02091101601ADDAA199000091GA1011+006909089GF101991011081008001001001MA1999999101341MD1810111+9999REMSYN086AAXX  11094 67073 32582 12608 10266 20209 30134 40160 58011 81800 333 81823 555 81640;EQDQ01  00002PRCP99
0195670730999992000081112004-18040+044030FM-12+0023FMMO V0202601N004612200019N0400001N1+02691+02111101401ADDAA199000091GA1021+006909029GF102991021021008001001001MA1999999101141MD1610201+9999REMSYN082AAXX  11124 67073 32582 22609 10269 20211 30114 40140 56020 82200 333 0//00 82823;EQDQ01  00002PRCP99
0196670730999992000081115004-18040+044030FM-12+0023FMMO V0202201N004112200019N0300001N1+02421+02201101481ADDAA199000091GA1001+999999999GF100991001001999999001001KA1999M+02761MA1999999101221MD1310081+9999REMSYN070AAXX  11154 67073 32980 02208 10242 20220 30122 40148 53008 333 10276;EQDQ01  00002PRCP99
0189670730999992000081203004-18040+044030FM-12+0023FMMO V0201001N002112200019N0300001N1+01951+01901101601ADDAA199000091GA1031+006009029GF104991041081008001001001MA1999999101341MD1310041+9999REMSYN076AAXX  12034 67073 33580 41004 10195 20190 30134 40160 53004 84800 333 83820;EQDQ01  00002PRCP99
0257670730999992000081206004-18040+044030FM-12+0023FMMO V0201801N003612200019N0400001N1+02451+02101101651ADDAA199000091GA1021+006909029GF102991021021008001001001IA2240+01809KA1120M+02761KA2120N+01951MA1999999101391MD1110051+9999REMSYN106AAXX  12064 67073 32582 21807 10245 20210 30139 40165 51005 82200 333 01800 10276 20195 50//4 55/// 82823;EQDQ01  00002PRCP99
0257670730999992000081306004-18040+044030FM-12+0023FMMO V0201601N003612200019N0400001N1+02351+01691101791ADDAA199000091GA1011+006909029GF101991011021008001001001IA2240+01609KA1120M+02781KA2120N+01751MA1999999101531MD1110111+9999REMSYN106AAXX  13064 67073 32582 11607 10235 20169 30153 40179 51011 81200 333 01600 10278 20175 5///4 55/// 81823;EQDQ01  00002PRCP99
0257670730999992000081406004-18040+044030FM-12+0023FMMO V0201401N002112200019N0400001N1+02511+02041101831ADDAA199000091GA1011+006909029GF101991011081008001001001IA2240+01709KA1120M+02701KA2120N+01831MA1999999101571MD1110121+9999REMSYN106AAXX  14064 67073 32582 11404 10251 20204 30157 40183 51012 81800 333 01700 10270 20183 50//4 55/// 81823;EQDQ01  00002PRCP99
0205670730999992000081412004-18040+044030FM-12+0023FMMO V0202601N003612200019N0300001N1+02651+02181101551ADDAA199000091GA1031+006909089GF103991031081008001001001MA1999999101291MD1610201+9999REMSYN092AAXX  14124 67073 32580 32607 10265 20218 30129 40155 56020 83800 333 0//00 83823 555 81633;EQDQ01  00002PRCP99
0195670730999992000081503004-18040+044030FM-12+0023FMMO V0209999C00001012001CN0300001N1+02261+02171101681ADDAA199000091GA1041+006009089GF106991061081008001001001MA1999999101421MD1510051+9999REMSYN082AAXX  15034 67073 33580 60000 10226 20217 30142 40168 55005 86800 333 84820 83630;EQDQ01  00002PRCP99
0267670730999992000081506004-18040+044030FM-12+0023FMMO V0201401N003112200019N0350001N1+02451+02141101791ADDAA199000091GA1021+006909089GF103991021021008001031001IA2240+02109KA1120M+02751KA2120N+02181MA1999999101531MD1110111+9999REMSYN116AAXX  15064 67073 32581 31406 10245 20214 30153 40179 51011 82230 333 02100 10275 20218 50//4 55/// 82823 555 82360;EQDQ01  00002PRCP99
0205670730999992000081509004-18040+044030FM-12+0023FMMO V0202601N004612200019N0400001N1+02601+02071101671ADDAA199000091GA1011+012009069GF104991041081008001031001MA1999999101471MD1810061+9999REMSYN092AAXX  15094 67073 32582 42609 10260 20207 30147 40167 58006 84830 333 83823 555 81640 81360;EQDQ01  00002PRCP99
0189670730999992000081603004-18040+044030FM-12+0023FMMO V0209999C000012200019N0300001N1+01951+01871101821ADDAA199000091GA1021+006009029GF103991031081008001031001MA1999999101561MD1310011+9999REMSYN076AAXX  16034 67073 33580 30000 10195 20187 30156 40182 53001 83830 333 82820;EQDQ01  00002PRCP99
0257670730999992000081606004-18040+044030FM-12+0023FMMO V0200201N003612200019N0350001N1+02501+02051102001ADDAA199000091GA1011+005109029GF102991011081008001031001IA2240+01709KA1120M+02821KA2120N+01901MA1999999101741MD1110181+9999REMSYN106AAXX  16064 67073 32581 20207 10250 20205 30174 40200 51018 81830 333 01700 10282 20190 50//4 55/// 81817;EQDQ01  00002PRCP99
0189670730999992000081609004-18040+044030FM-12+0023FMMO V0203401N007212200019N0350001N1+02811+01871101961ADDAA199000091GA1021+006909029GF102991021021008001031001MA1999999101701MD1810041+9999REMSYN076AAXX  16094 67073 32581 23414 10281 20187 30170 40196 58004 82230 333 82823;EQDQ01  00002PRCP99
0239670730999992000081612004-18040+044030FM-12+0023FMMO V0203401N006712200019N0400001N1+02701+02171101761ADDAA199000091GA1011+006909099GA2031+006909089GF103991031091008001031001MA1999999101501MD1610201+9999REMSYN110AAXX  16124 67073 32582 33413 10270 20217 30150 40176 56020 83930 333 0//00 83823 81923 94993 95813 555 81360;EQDQ01  00002PRCP99
0214670730999992000081615004-18040+044030FM-12+0023FMMO V0202801N00411012001CN0300001N1+02501+02301101811ADDAA199000091GA1021+006009089GF106991061081008001001001KA1120M+02951MA1999999101551MD1310051+9999REMSYN088AAXX  16154 67073 32580 62808 10250 20230 30155 40181 53005 86800 333 10295 82820 85630;EQDQ01  00002PRCP99
0194670730999992000081703004-18040+044030FM-12+0023FMMO V0209999C00001012001CN0250001N1+01971+01941101931ADDAA112002091GA1021+006009089GF107991071081008001999999MA1999999101671MD1610041+9999MW1151REMSYN094AAXX  17034 67073 21575 70000 10197 20194 30167 40193 56004 715// 878// 333 60022 82820 86630;
0266670730999992000081706004-18040+044030FM-12+0023FMMO V0200201N002110450019N0400001N1+02351+01951102011ADDAA124002091AC12I9GA1021+012009069GF105991041081008001031001IA2240+01909KA1120M+02951KA2120N+01921MA1999999101751MD1110081+9999REMSYN128AAXX  17064 67073 12582 50204 10235 20195 30175 40201 51008 60024 84830 333 01916 10295 20192 50//4 55/// 82823 555 82640 82360;
0195670730999992000081709004-18040+044030FM-12+0023FMMO V0202601N00461045001CN0400001N1+02591+02001101891ADDAA199000091GA1011+006909089GF105991011021008001031001MA1999999101631MD1810121+9999REMSYN082AAXX  17094 67073 32582 52609 10259 20200 30163 40189 58012 81230 333 81823 85360;EQDQ01  00002PRCP99
0201670730999992000081712004-18040+044030FM-12+0023FMMO V0202401N005712200019N0400001N1+02501+02151101761ADDAA199000091GA1021+006909089GF104991021021008001031001MA1999999101501MD1610131+9999REMSYN088AAXX  17124 67073 32582 42411 10250 20215 30150 40176 56013 82230 333 0//00 82823 83369;EQDQ01  00002PRCP99
0214670730999992000081715004-18040+044030FM-12+0023FMMO V0202601N00411045001CN0300001N1+02421+02301101791ADDAA199000091GA1031+006009089GF105991031021008001031001KA1120M+02691MA1999999101531MD1310031+9999REMSYN088AAXX  17154 67073 32580 52608 10242 20230 30153 40179 53003 83230 333 10269 83820 83360;EQDQ01  00002PRCP99
0257670730999992000081806004-18040+044030FM-12+0023FMMO V0200801N002612200019N0400001N1+02551+02051102021ADDAA199000091GA1021+006909029GF103991021021008001031021IA2240+01809KA1120M+02691KA2120N+02001MA1999999101761MD1110101+9999REMSYN106AAXX  18064 67073 32582 30805 10255 20205 30176 40202 51010 82232 333 01800 10269 20200 50//4 55/// 82823;EQDQ01  00002PRCP99
0195670730999992000081812004-18040+044030FM-12+0023FMMO V0202801N005712200019N0400001N1+02671+02121101791ADDAA199000091GA1021+006909029GF102991021021008001001001MA1999999101531MD1610131+9999REMSYN082AAXX  18124 67073 32582 22811 10267 20212 30153 40179 56013 82200 333 0//00 82823;EQDQ01  00002PRCP99
0195670730999992000081903004-18040+044030FM-12+0023FMMO V0209999C00001012001CN0300001N1+02121+02061101961ADDAA199000091GA1021+006009089GF107991071081008001999999MA1999999101701MD1310041+9999REMSYN082AAXX  19034 67073 33580 70000 10212 20206 30170 40196 53004 878// 333 82820 86630;EQDQ01  00002PRCP99
0289670730999992000081906004-18040+044030FM-12+0023FMMO V0209999C000010300019N0400001N1+02541+02141102061ADDAA199000091GA1011+006909089GA2051+030009039GF106991011081008001031001IA2240+02009KA1120M+02751KA2120N+02111MA1999999101801MD1110101+9999REMSYN122AAXX  19064 67073 32582 60000 10254 20214 30180 40206 51010 81830 333 02000 10275 20211 50//4 55/// 81823 85360 555 81640;EQDQ01  00002PRCP99
0195670730999992000082003004-18040+044030FM-12+0023FMMO V0201601N00261012001CN0300001N1+02101+02051101941ADDAA199000091GA1011+006009089GF107991071081008001999999MA1999999101681MD1310041+9999REMSYN082AAXX  20034 67073 33580 71605 10210 20205 30168 40194 53004 878// 333 81820 87630;EQDQ01  00002PRCP99
0263670730999992000082006004-18040+044030FM-12+0023FMMO V0201601N00211045001CN0400001N1+02451+02041102021ADDAA199000091GA1021+012009069GF106991021051012501031001IA2240+02009KA1120M+02761KA2120N+02041MA1999999101761MD1110081+9999REMSYN112AAXX  20064 67073 32682 61604 10245 20204 30176 40202 51008 82530 333 02000 10276 20204 50//4 55/// 82640 85360;EQDQ01  00002PRCP99
0199670730999992000082103004-18040+044030FM-12+0023FMMO V0201601N002112200019N0300001N1+02001+01921101881ADDAA199000091GA1031+012009069GF104991031051012501031001MA1999999101621MD1310041+9999REMSYN086AAXX  21034 67073 33680 41604 10200 20192 30162 40188 53004 83530 333 83640 555 82360;EQDQ01  00002PRCP99
0245670730999992000082106004-18040+044030FM-12+0023FMMO V0201601N002612200019N0400001N1+02571+01991101981ADDAA199000091GA1001+999999999GF100991001001999999001001IA2240+01809KA1120M+02901KA2120N+01941MA1999999101721MD1110101+9999REMSYN094AAXX  21064 67073 32982 01605 10257 20199 30172 40198 51010 333 01800 10290 20194 5///4 55///;EQDQ01  00002PRCP99
0189670730999992000082109004-18040+044030FM-12+0023FMMO V0202801N004112200019N0400001N1+02861+01841101891ADDAA199000091GA1011+006909029GF101991011021008001001001MA1999999101631MD1810091+9999REMSYN076AAXX  21094 67073 32582 12808 10286 20184 30163 40189 58009 81200 333 81823;EQDQ01  00002PRCP99
0241670730999992000082112004-18040+044030FM-12+0023FMMO V0202601N005112200019N0350001N1+02761+02071101741ADDAA199000091GA1011+006909099GA2021+006909089GF104991021091008001031021MA1999999101481MD1610151+9999REMSYN112AAXX  21124 67073 32581 42610 10276 20207 30148 40174 56015 82932 333 0//00 82823 81923 94991 94993 95811 95813;EQDQ01  00002PRCP99
0189670730999992000082203004-18040+044030FM-12+0023FMMO V0201401N002110450019N0300001N1+02001+01921101881ADDAA199000091GA1041+009009059GF105991041051008001031001MA1999999101621MD1310021+9999REMSYN076AAXX  22034 67073 33580 51404 10200 20192 30162 40188 53002 84530 333 84630;EQDQ01  00002PRCP99
0257670730999992000082206004-18040+044030FM-12+0023FMMO V0201601N003612200019N0400001N1+02501+01881101971ADDAA199000091GA1011+006909029GF102991021081008001031001IA2240+01809KA1120M+02941KA2120N+01941MA1999999101711MD1110091+9999REMSYN106AAXX  22064 67073 32582 21607 10250 20188 30171 40197 51009 82830 333 01800 10294 20194 50//4 55/// 81823;EQDQ01  00002PRCP99
0189670730999992000082209004-18040+044030FM-12+0023FMMO V0202001N005112200019N0350001N1+02701+02351101871ADDAA199000091GA1021+006909029GF103991031081008001001001MA1999999101611MD1810101+9999REMSYN076AAXX  22094 67073 32581 32010 10270 20235 30161 40187 58010 83800 333 82823;EQDQ01  00002PRCP99
0205670730999992000082212004-18040+044030FM-12+0023FMMO V0202001N005712200019N0350001N1+02641+02061101741ADDAA199000091GA1021+012009069GF103991021051012501031001MA1999999101481MD1610131+9999REMSYN092AAXX  22124 67073 32681 32011 10264 20206 30148 40174 56013 82530 333 0//00 82640 555 82360;EQDQ01  00002PRCP99
0208670730999992000082215004-18040+044030FM-12+0023FMMO V0202001N002612200019N0300001N1+02431+02021101771ADDAA199000091GA1011+012009059GF101991011051012501001001KA1120M+02751MA1999999101511MD1310031+9999REMSYN082AAXX  22154 67073 32680 12005 10243 20202 30151 40177 53003 81500 333 10275 81640;EQDQ01  00002PRCP99
0195670730999992000082303004-18040+044030FM-12+0023FMMO V0201601N00151012001CN0300001N1+01971+01921102051ADDAA199000091GA1011+006009089GF105991051081008001001001MA1999999101791MD1310121+9999REMSYN082AAXX  23034 67073 33580 51603 10197 20192 30179 40205 53012 85800 333 81820 85630;EQDQ01  00002PRCP99
0251670730999992000082306004-18040+044030FM-12+0023FMMO V0201401N004112200019N0400001N1+02461+01971999999ADDAA199000091GA1021+012009059GF102991021041012501001001IA2240+01809KA1120M+02751KA2120N+01941MA1999999101901MD1110111+9999REMSYN100AAXX  23064 67073 32682 21408 10246 20197 30190 51011 82400 333 01800 10275 20194 50//4 55/// 82640;EQDQ01  00002PRCP99
0189670730999992000082309004-18040+044030FM-12+0023FMMO V0202401N004612200019N0400001N1+02701+02001102071ADDAA199000091GA1021+006909029GF102991021021008001001001MA1999999101811MD1810091+9999REMSYN076AAXX  23094 67073 32582 22409 10270 20200 30181 40207 58009 82200 333 82823;EQDQ01  00002PRCP99
0195670730999992000082312004-18040+044030FM-12+0023FMMO V0202201N004612200019N0350001N1+02671+01921101881ADDAA199000091GA1021+006909029GF102991021021008001001001MA1999999101621MD1610191+9999REMSYN082AAXX  23124 67073 32581 22209 10267 20192 30162 40188 56019 82200 333 0//00 82823;EQDQ01  00002PRCP99
0195670730999992000082403004-18040+044030FM-12+0023FMMO V0201201N00151012001CN0300001N1+02151+01961101951ADDAA199000091GA1031+006009089GF107991071081008001999999MA1999999101691MD1310031+9999REMSYN082AAXX  24034 67073 33580 71203 10215 20196 30169 40195 53003 878// 333 83820 85630;EQDQ01  00002PRCP99
0279670730999992000082406004-18040+044030FM-12+0023FMMO V0201401N99999012001CN0350001N1+02501+02021102061ADDAA199000091GA1021+006909089GF106991061081008001001001IA2240+01909KA1120M+02851KA2120N+02141MA1999999101801MD1110111+9999REMSYN112AAXX  24064 67073 32581 61497 10250 20202 30180 40206 51011 86800 333 01900 10285 20214 50//4 55/// 82823 85633;EQDQ01+004993WOSPD Q02  00002PRCP99
0195670730999992000082409004-18040+044030FM-12+0023FMMO V0202401N004610120019N0350001N1+02621+02101101981ADDAA199000091GA1041+006909089GF106991061081008001001001MA1999999101721MD1810081+9999REMSYN082AAXX  24094 67073 32581 62409 10262 20210 30172 40198 58008 86800 333 84823 83640;EQDQ01  00002PRCP99
0195670730999992000082412004-18040+044030FM-12+0023FMMO V0202201N005112200019N0350001N1+02701+02141101801ADDAA199000091GA1031+006909029GF103991031021008001001001MA1999999101541MD1610181+9999REMSYN082AAXX  24124 67073 32581 32210 10270 20214 30154 40180 56018 83200 333 0//00 83823;EQDQ01  00002PRCP99
0208670730999992000082415004-18040+044030FM-12+0023FMMO V0202201N003612200019N0300001N1+02501+02081101841ADDAA199000091GA1021+012009059GF102991021051012501001001KA1120M+02851MA1999999101581MD1310041+9999REMSYN082AAXX  24154 67073 32680 22207 10250 20208 30158 40184 53004 82500 333 10285 82640;EQDQ01  00002PRCP99
0207670730999992000082503004-18040+044030FM-12+0023FMMO V0201201N00151012001CN0200001N1+02101+02041101881ADDAA199000091GA1031+006009089GF107991071081008001999999MA1999999101621MD1310051+9999MW1151REMSYN088AAXX  25034 67073 31570 71203 10210 20204 30162 40188 53005 715// 878// 333 83820 85630;EQDQ01  00002PRCP99
0263670730999992000082506004-18040+044030FM-12+0023FMMO V0201201N002610120019N0400001N1+02601+01991101971ADDAA199000091GA1031+006909089GF105991051081008001001001IA2240+02009KA1120M+02851KA2120N+02101MA1999999101711MD1110091+9999REMSYN112AAXX  25064 67073 32582 51205 10260 20199 30171 40197 51009 85800 333 02000 10285 20210 50//4 55/// 83823 83640;EQDQ01  00002PRCP99
0205670730999992000082509004-18040+044030FM-12+0023FMMO V0203401N004610450019N0400001N1+02741+01961101841ADDAA199000091GA1021+030009039GF105991031021008001031021MA1999999101581MD1810131+9999REMSYN092AAXX  25094 67073 32582 53409 10274 20196 30158 40184 58013 83232 333 83823 555 82360 81073;EQDQ01  00002PRCP99
0241670730999992000082512004-18040+044030FM-12+0023FMMO V0203401N007212200019N0350001N1+02711+02001101671ADDAA199000091GA1011+006909099GA2031+006909089GF104991031091008001031021MA1999999101411MD1610171+9999REMSYN112AAXX  25124 67073 32581 43414 10271 20200 30141 40167 56017 83932 333 0//00 83823 81923 94992 94994 95812 95814;EQDQ01  00002PRCP99
0264670730999992000082515004-18040+044030FM-12+0023FMMO V0203201N003110300019N0300001N1+02421+01991101721ADDAA199000091GA1011+006009099GA2031+006009089GA3031+030009039GF107991041091008001071999KA1120M+02801MA1999999101461MD1310051+9999REMSYN106AAXX  25154 67073 32580 73206 10242 20199 30146 40172 53005 8497/ 333 10280 83820 81920 83360 94994 95814;EQDQ01  00002PRCP99
0202670730999992000082603004-18040+044030FM-12+0023FMMO V0209999C00001012001CN0200001N1+02161+02101101811ADDAA112006091AY161031GA1031+006009089GF107991071081008001999999MA1999999101551MD1310051+9999MW1151REMSYN094AAXX  26034 67073 21570 70000 10216 20210 30155 40181 53005 7156/ 878// 333 60062 83820 85630;
0334670730999992000082606004-18040+044030FM-12+0023FMMO V0203401N00571009001CN0200001N1+01951+01821102001ADDAA124006191AC12I9AY161061AY221061GA1011+006909099GA2041+006909089GA3031+009009069GF106991061091008001001001IA2240+01809KA1120M+02801KA2120N+01951MA1999999101741MD1110191+9999MW1151REMSYN142AAXX  26064 67073 11570 63411 10195 20182 30174 40200 51019 60064 71562 86900 333 01816 10280 20195 50//4 55/// 84823 81923 83630 94997 95817;
0211670730999992000082812004-18040+044030FM-12+0023FMMO V0203001N005112200019N0400001N1+02721+01611101711ADDAA199000091GA1011+012009069GF104991031081008001031001MA1999999101451MD1610141+9999REMSYN098AAXX  28124 67073 32582 43010 10272 20161 30145 40171 56014 83830 333 0//00 83823 555 81640 81360;EQDQ01  00002PRCP99
0224670730999992000082815004-18040+044030FM-12+0023FMMO V0202601N004612200019N0300001N1+02481+01721101801ADDAA199000091GA1011+012009069GF103991021081008001031001KA1120M+02901MA1999999101541MD1310091+9999REMSYN098AAXX  28154 67073 32580 32609 10248 20172 30154 40180 53009 82830 333 10290 82823 555 81640 81360;EQDQ01  00002PRCP99
0238670730999992000082903004-18040+044030FM-12+0023FMMO V0201601N002110090019N0200001N1+02031+01861101881ADDAA112020091GA1011+006009099GA2011+006009089GA3051+009009069GF105991051091008001001001MA1999999101621MD1310021+9999MW1151REMSYN106AAXX  29034 67073 21570 51604 10203 20186 30162 40188 53002 715// 85900 333 60202 81820 81920 85630 94996;
0266670730999992000082906004-18040+044030FM-12+0023FMMO V0200801N003612200019N0400001N1+02551+01851101921ADDAA124020191AC13I9GA1011+012009069GF102991021081008001031001IA2240+01909KA1120M+02901KA2120N+01991MA1999999101661MD1110041+9999REMSYN128AAXX  29064 67073 12582 20807 10255 20185 30166 40192 51004 60204 82830 333 01928 10290 20199 50//4 55/// 81823 555 81640 81360;
0199670730999992000082909004-18040+044030FM-12+0023FMMO V0202801N004612200019N0400001N1+02691+02011101831ADDAA199000091GA1021+006909089GF103991031081008001001001MA1999999101561MD1810091+9999REMSYN086AAXX  29094 67073 32582 32809 10269 20201 30156 40183 58009 83800 333 82823 555 82640;EQDQ01  00002PRCP99
0195670730999992000083003004-18040+044030FM-12+0023FMMO V0209999C00001012001CN0300001N1+02021+01941101771ADDAA199000091GA1021+006009089GF106991061081008001001021MA1999999101511MD1310051+9999REMSYN082AAXX  30034 67073 33580 60000 10202 20194 30151 40177 53005 86802 333 82820 85630;EQDQ01  00002PRCP99
0257670730999992000083006004-18040+044030FM-12+0023FMMO V0201001N003612200019N0400001N1+02561+01911101851ADDAA199000091GA1011+006909029GF101991011021008001001001IA2240+01809KA1120M+02951KA2120N+02021MA1999999101591MD1110081+9999REMSYN106AAXX  30064 67073 32582 11007 10256 20191 30159 40185 51008 81200 333 01800 10295 20202 50//4 55/// 81823;EQDQ01  00002PRCP99
0189670730999992000083009004-18040+044030FM-12+0023FMMO V0203201N006212200019N0400001N1+02831+01861101701ADDAA199000091GA1011+006909029GF101991011021008001001001MA1999999101441MD1810151+9999REMSYN076AAXX  30094 67073 32582 13212 10283 20186 30144 40170 58015 81200 333 81823;EQDQ01  00002PRCP99
0229670730999992000083012004-18040+044030FM-12+0023FMMO V0203201N006212200019N0400001N1+02701+02251101491ADDAA199000091GA1011+006909099GA2031+006909089GF103991031091008001001001MA1999999101231MD1610211+9999REMSYN100AAXX  30124 67073 32582 33212 10270 20225 30123 40149 56021 83900 333 0//00 83823 81923 94994 95814;EQDQ01  00002PRCP99
0218670730999992000083015004-18040+044030FM-12+0023FMMO V0200201N004612200019N0300001N1+02471+02091101551ADDAA199000091GA1011+006009089GF104991011081008001001001KA1120M+02901MA1999999101291MD1310061+9999REMSYN092AAXX  30154 67073 32580 40209 10247 20209 30129 40155 53006 81800 333 10290 81820 555 81640;EQDQ01  00002PRCP99
0250670730999992000083106004-18040+044030FM-12+0023FMMO V0201401N002612200019N0400001N1+02531+02031101781ADDAA124000591AC13I9GA1011+006909029GF101991011021008001001001IA2240+01909KA1120M+02901KA2120N+01971MA1999999101521MD1110111+9999REMSYN112AAXX  31064 67073 12582 11405 10253 20203 30152 40178 51011 69954 81200 333 01918 10290 20197 50//4 55/// 81823;
0189670730999992000083109004-18040+044030FM-12+0023FMMO V0203001N003612200019N0400001N1+02821+02111101611ADDAA199000091GA1031+006909029GF103991031021008001001001MA1999999101351MD1810171+9999REMSYN076AAXX  31094 67073 32582 33007 10282 20211 30135 40161 58017 83200 333 83823;EQDQ01  00002PRCP99
0195670730999992000083112004-18040+044030FM-12+0023FMMO V0202601N005112200019N0400001N1+02731+02151101411ADDAA199000091GA1031+006909029GF103991031081008001001001MA1999999101151MD1610201+9999REMSYN082AAXX  31124 67073 32582 32610 10273 20215 30115 40141 56020 83800 333 0//00 83823;EQDQ01  00002PRCP99
0208670730999992000083115004-18040+044030FM-12+0023FMMO V0202801N003112200019N0300001N1+02521+02221101501ADDAA199000091GA1031+006009029GF104991041081008001001001KA1120M+02821MA1999999101241MD1310091+9999REMSYN082AAXX  31154 67073 32580 42806 10252 20222 30124 40150 53009 84800 333 10282 83820;EQDQ01  00002PRCP99
0189670730999992000090103004-18040+044030FM-12+0023FMMO V0209999C000012200019N0300001N1+02061+01971101731ADDAA199000091GA1021+006009029GF103991031081008001001001MA1999999101471MD1310051+9999REMSYN076AAXX  01034 67073 33580 30000 10206 20197 30147 40173 53005 83800 333 82820;EQDQ01  00002PRCP99
0257670730999992000090106004-18040+044030FM-12+0023FMMO V0201601N002112200019N0400001N1+02601+02091101811ADDAA199000091GA1011+006909029GF101991011021008001001001IA2240+01909KA1120M+02821KA2120N+02031MA1999999101551MD1110081+9999REMSYN106AAXX  01064 67073 32582 11604 10260 20209 30155 40181 51008 81200 333 01900 10282 20203 50//4 55/// 81823;EQDQ01  00002PRCP99
0189670730999992000090109004-18040+044030FM-12+0023FMMO V0202601N005112200019N0400001N1+02751+02241101661ADDAA199000091GA1021+006909029GF102991021021008001001001MA1999999101401MD1810151+9999REMSYN076AAXX  01094 67073 32582 22610 10275 20224 30140 40166 58015 82200 333 82823;EQDQ01  00002PRCP99
0205670730999992000090112004-18040+044030FM-12+0023FMMO V0202401N005112200019N0400001N1+02731+02251101521ADDAA199000091GA1021+006909089GF102991021081008001001001MA1999999101261MD1610141+9999REMSYN092AAXX  01124 67073 32582 22410 10273 20225 30126 40152 56014 82800 333 0//00 82823 555 81633;EQDQ01  00002PRCP99
0218670730999992000090115004-18040+044030FM-12+0023FMMO V0202001N003612200019N0300001N1+02521+02231101571ADDAA199000091GA1011+006909089GF101991011081008001001001KA1120M+02851MA1999999101311MD1310051+9999REMSYN092AAXX  01154 67073 32580 12007 10252 20223 30131 40157 53005 81800 333 10285 81823 555 81640;EQDQ01  00002PRCP99
0199670730999992000090203004-18040+044030FM-12+0023FMMO V0201601N002112200019N0300001N1+01981+01901101621ADDAA199000091GA1021+006009089GF103991031081008001001001MA1999999101361MD1310011+9999REMSYN086AAXX  02034 67073 33580 31604 10198 20190 30136 40162 53001 83800 333 82820 555 82633;EQDQ01  00002PRCP99
0257670730999992000090206004-18040+044030FM-12+0023FMMO V0201801N003112200019N0400001N1+02531+01961101721ADDAA199000091GA1011+006909029GF101991011021008001001001IA2240+01809KA1120M+02851KA2120N+01981MA1999999101461MD1010101+9999REMSYN106AAXX  02064 67073 32582 11806 10253 20196 30146 40172 50010 81200 333 01800 10285 20198 50//4 55/// 81823;EQDQ01  00002PRCP99
0189670730999992000090303004-18040+044030FM-12+0023FMMO V0209999C000012200019N0300001N1+02101+02021101601ADDAA199000091GA1021+006009029GF103991031081008001001001MA1999999101341MD1310091+9999REMSYN076AAXX  03034 67073 33580 30000 10210 20202 30134 40160 53009 83800 333 82820;EQDQ01  00002PRCP99
0257670730999992000090306004-18040+044030FM-12+0023FMMO V0200201N005712200019N0400001N1+02751+01671101651ADDAA199000091GA1011+006909029GF101991011021008001001001IA2240+01809KA1120M+03071KA2120N+02041MA1999999101391MD1110051+9999REMSYN106AAXX  03064 67073 32582 10211 10275 20167 30139 40165 51005 81200 333 01800 10307 20204 50//4 55/// 81823;EQDQ01  00002PRCP99
0245670730999992000090406004-18040+044030FM-12+0023FMMO V0200401N003612200019N0400001N1+02641+01611101761ADDAA199000091GA1001+999999999GF100991001001999999001001IA2240+01709KA1120M+03121KA2120N+01941MA1999999101501MD1110101+9999REMSYN094AAXX  04064 67073 32982 00407 10264 20161 30150 40176 51010 333 01700 10312 20194 50//4 55///;EQDQ01  00002PRCP99
0173670730999992000090409004-18040+044030FM-12+0023FMMO V0200201N004612200019N0400001N1+03231+01301101601ADDAA199000091GA1001+999999999GF100991001001999999001001MA1999999101341MD1810161+9999REMSYN060AAXX  04094 67073 32982 00209 10323 20130 30134 40160 58016;EQDQ01  00002PRCP99
0195670730999992000090412004-18040+044030FM-12+0023FMMO V0203001N006712200019N0400001N1+02881+02011101411ADDAA199000091GA1021+007809029GF102991021011008001001001MA1999999101151MD1610191+9999REMSYN082AAXX  04124 67073 32582 23013 10288 20201 30115 40141 56019 82100 333 0//00 82826;EQDQ01  00002PRCP99
0208670730999992000090415004-18040+044030FM-12+0023FMMO V0203001N003612200019N0300001N1+02581+02071101551ADDAA199000091GA1011+009009059GF101991011041008001001001KA1120M+03241MA1999999101291MD1310141+9999REMSYN082AAXX  04154 67073 32580 13007 10258 20207 30129 40155 53014 81400 333 10324 81630;EQDQ01  00002PRCP99
0195670730999992000090503004-18040+044030FM-12+0023FMMO V0201001N00211012001CN0300001N1+02111+01971101721ADDAA199000091GA1021+006009089GF106991061081008001001001MA1999999101461MD1310041+9999REMSYN082AAXX  05034 67073 33580 61004 10211 20197 30146 40172 53004 86800 333 82820 85633;EQDQ01  00002PRCP99
0257670730999992000090506004-18040+044030FM-12+0023FMMO V0209999C000012200019N0400001N1+02601+01991101771ADDAA199000091GA1011+006909029GF101991011021008001001001IA2240+01909KA1120M+03241KA2120N+02111MA1999999101511MD1110051+9999REMSYN106AAXX  05064 67073 32582 10000 10260 20199 30151 40177 51005 81200 333 01900 10324 20211 5///4 55/// 81823;EQDQ01  00002PRCP99
0189670730999992000090509004-18040+044030FM-12+0023FMMO V0202601N005112200019N0400001N1+02701+02101101671ADDAA199000091GA1031+006909029GF103991031021008001001001MA1999999101411MD1810101+9999REMSYN076AAXX  05094 67073 32582 32610 10270 20210 30141 40167 58010 83200 333 83823;EQDQ01  00002PRCP99
0205670730999992000090512004-18040+044030FM-12+0023FMMO V0202401N005712200019N0400001N1+02741+02051101501ADDAA199000091GA1031+006909089GF103991031081008001001001MA1999999101241MD1810171+9999REMSYN092AAXX  05124 67073 32582 32411 10274 20205 30124 40150 58017 83800 333 0//00 83823 555 81640;EQDQ01  00002PRCP99
0218670730999992000090515004-18040+044030FM-12+0023FMMO V0202601N004612200019N0300001N1+02541+02141101571ADDAA199000091GA1021+006009089GF103991031081008001001001KA1120M+02831MA1999999101311MD1310071+9999REMSYN092AAXX  05154 67073 32580 32609 10254 20214 30131 40157 53007 83800 333 10283 82820 555 82633;EQDQ01  00002PRCP99
0205670730999992000090603004-18040+044030FM-12+0023FMMO V0209999C000012200019N0300001N1+02051+01921101551ADDAA199000091GA1011+012009069GF103991031081008001001021MA1999999101291MD1610031+9999REMSYN092AAXX  06034 67073 33580 30000 10205 20192 30129 40155 56003 83802 333 82820 555 81640 81073;EQDQ01  00002PRCP99
0273670730999992000090606004-18040+044030FM-12+0023FMMO V0202001N00261012001CN0400001N1+02521+02161101611ADDAA199000091GA1021+009009069GF106991061081008001001021IA2240+01809KA1120M+02831KA2120N+02051MA1999999101351MD1110061+9999REMSYN122AAXX  06064 67073 32582 62005 10252 20216 30135 40161 51006 86802 333 01800 10283 20205 50//4 55/// 84820 555 82630 81073;EQDQ01  00002PRCP99
0199670730999992000090609004-18040+044030FM-12+0023FMMO V0202601N004612200019N0350001N1+02731+02191101481ADDAA199000091GA1031+006009089GF103991031021008001001021MA1999999101221MD1810131+9999REMSYN086AAXX  06094 67073 32581 32609 10273 20219 30122 40148 58013 83202 333 83820 555 81073;EQDQ01  00002PRCP99
0195670730999992000090612004-18040+044030FM-12+0023FMMO V0202601N005712200019N0350001N1+02711+02261101201ADDAA199000091GA1031+006909029GF103991031021008001001001MA1999999100941MD1610281+9999REMSYN082AAXX  06124 67073 32581 32611 10271 20226 30094 40120 56028 83200 333 0//00 83823;EQDQ01  00002PRCP99
0208670730999992000090615004-18040+044030FM-12+0023FMMO V0202601N003612200019N0300001N1+02521+02231101231ADDAA199000091GA1041+006009029GF104991041021008001001021KA1120M+02791MA1999999100971MD1310031+9999REMSYN082AAXX  06154 67073 32580 42607 10252 20223 30097 40123 53003 84202 333 10279 84820;EQDQ01  00002PRCP99
0201670730999992000090703004-18040+044030FM-12+0023FMMO V0209999C000012200019N0200001N1+02181+02101101231ADDAA199000091GA1011+006009029GF102991021081008001001021MA1999999100971MD1510011+9999MW1401REMSYN082AAXX  07034 67073 31570 20000 10218 20210 30097 40123 55001 740// 82802 333 81820;EQDQ01  00002PRCP99
0257670730999992000090706004-18040+044030FM-12+0023FMMO V0209999C000012200019N0400001N1+02581+02231101251ADDAA199000091GA1011+006909029GF101991011021008001001021IA2240+01909KA1120M+02791KA2120N+02141MA1999999100991MD1010021+9999REMSYN106AAXX  07064 67073 32582 10000 10258 20223 30099 40125 50002 81202 333 01900 10279 20214 50//4 55/// 81823;EQDQ01  00002PRCP99
0189670730999992000090709004-18040+044030FM-12+0023FMMO V0202801N005112200019N0350001N1+02701+02261101161ADDAA199000091GA1011+006909029GF103991011021008001001021MA1999999100901MD1810091+9999REMSYN076AAXX  07094 67073 32581 32810 10270 20226 30090 40116 58009 81202 333 81823;EQDQ01  00002PRCP99
0267670730999992000090712004-18040+044030FM-12+0023FMMO V0202801N006210690019N0350001N1+02731+02291100981ADDAA199000091GA1011+006909099GA2021+006909089GA3051+069009039GF106991021091008001999051MA1999999100721MD1610181+9999REMSYN106AAXX  07124 67073 32581 62812 10273 20229 30072 40098 56018 82905 333 0//00 82823 81923 85373 94993 95813;EQDQ01+000002SCOMCGQ02  00002PRCP99
0208670730999992000090715004-18040+044030FM-12+0023FMMO V0202601N003610060019N0300001N1+02521+02271101051ADDAA199000091GA1061+006009029GF106991061021008001001001KA1120M+02871MA1999999100791MD1310071+9999REMSYN082AAXX  07154 67073 32580 62607 10252 20227 30079 40105 53007 86200 333 10287 86820;EQDQ01  00002PRCP99
0217670730999992000090803004-18040+044030FM-12+0023FMMO V0209999C000012200019N0200001N1+02041+01951101301ADDAA199000091GA1011+009909069GF103991021081008001001021MA1999999101041MD1310071+9999MW1401REMSYN098AAXX  08034 67073 31570 30000 10204 20195 30104 40130 53007 740// 82802 333 82820 555 81633 81073;EQDQ01  00002PRCP99
0245670730999992000090806004-18040+044030FM-12+0023FMMO V0209999C000010060019N0300001N1+02501+02201101461ADDAA199000091GA1051+006009029GF105991051021008001001001KA1120M+02871KA2120N+02041MA1999999101201MD1110161+9999REMSYN106AAXX  08064 67073 32580 50000 10250 20220 30120 40146 51016 85200 333 0//00 10287 20204 50//4 55/// 85820;EQDQ01  00002PRCP99
0189670730999992000090809004-18040+044030FM-12+0023FMMO V0202601N004110060019N0350001N1+02721+02221101421ADDAA199000091GA1061+006009029GF106991061021008001001001MA1999999101161MD1810041+9999REMSYN076AAXX  08094 67073 32581 62608 10272 20222 30116 40142 58004 86200 333 86820;EQDQ01  00002PRCP99
0195670730999992000090812004-18040+044030FM-12+0023FMMO V0201801N004110060019N0300001N1+02711+02181101341ADDAA199000091GA1061+006009029GF106991061021008001001001MA1999999101081MD1610081+9999REMSYN082AAXX  08124 67073 32580 61808 10271 20218 30108 40134 56008 86200 333 0//00 86820;EQDQ01  00002PRCP99
0208670730999992000090815004-18040+044030FM-12+0023FMMO V0202001N004112200019N0300001N1+02521+02151101441ADDAA199000091GA1031+006009029GF103991031021008001001001KA1120M+02801MA1999999101181MD1310101+9999REMSYN082AAXX  08154 67073 32580 32008 10252 20215 30118 40144 53010 83200 333 10280 83820;EQDQ01  00002PRCP99
0233670730999992000090906004-18040+044030FM-12+0023FMMO V0209999C000012200019N0300001N1+02701+02101101751ADDAA199000091GA1001+999999999GF100991001001999999001001KA1120M+02801KA2120N+02021MA1999999101491MD1310211+9999REMSYN094AAXX  09064 67073 32980 00000 10270 20210 30149 40175 53021 333 0//00 10280 20202 5///4 55///;EQDQ01  00002PRCP99
0211670730999992000091003004-18040+044030FM-12+0023FMMO V0209999C000012200019N0200001N1+02091+01891101821ADDAA199000091GA1021+006009089GF103991031081008001001001MA1999999101561MD1310081+9999MW1401REMSYN092AAXX  10034 67073 31570 30000 10209 20189 30156 40182 53008 740// 83800 333 82820 555 82633;EQDQ01  00002PRCP99
0255670730999992000091006004-18040+044030FM-12+0023FMMO V0200801N002612200019N0350001N1+02691+01911101941ADDAA199000091GA1011+006909089GF101991011021008001031001KA1120M+02831KA2120N+02071MA1999999101681MD1110121+9999REMSYN116AAXX  10064 67073 32581 10805 10269 20191 30168 40194 51012 81230 333 0//00 10283 20207 50//4 55/// 81823 555 81360;EQDQ01  00002PRCP99
0189670730999992000091103004-18040+044030FM-12+0023FMMO V0209999C000012200019N0300001N1+02101+01981101791ADDAA199000091GA1021+006009029GF103991031081008001001001MA1999999101531MD1310071+9999REMSYN076AAXX  11034 67073 33580 30000 10210 20198 30153 40179 53007 83800 333 82820;EQDQ01  00002PRCP99
0245670730999992000091106004-18040+044030FM-12+0023FMMO V0201001N002112200019N0400001N1+02801+01911101931ADDAA199000091GA1021+006909029GF102991021021008001001001KA1120M+02881KA2120N+02071MA1999999101671MD1110141+9999REMSYN106AAXX  11064 67073 32582 21004 10280 20191 30167 40193 51014 82200 333 0//00 10288 20207 50//4 55/// 82823;EQDQ01  00002PRCP99
0143670730999992000091109004-18040+044030FM-12+0023FMMO V0203001N005112200019N0400001N1+99999+99999999999ADDAA199000091GF103991999999008001999999REMSYN075AAXX  11094 67073 32582 33010 0280 20224 30151 40177 58016 83200 333 83823;EQDQ01  00002PRCP99
0195670730999992000091112004-18040+044030FM-12+0023FMMO V0202601N005112200019N0400001N1+02821+02311101591ADDAA199000091GA1031+006909029GF103991031021008001001001MA1999999101331MD1610181+9999REMSYN082AAXX  11124 67073 32582 32610 10282 20231 30133 40159 56018 83200 333 0//00 83823;EQDQ01  00002PRCP99
0218670730999992000091115004-18040+044030FM-12+0023FMMO V0202601N003612200019N0300001N1+02561+02331101671ADDAA199000091GA1031+006009089GF103991031081008001001001KA1120M+03021MA1999999101411MD1310081+9999REMSYN092AAXX  11154 67073 32580 32607 10256 20233 30141 40167 53008 83800 333 10302 83820 555 81633;EQDQ01  00002PRCP99
0199670730999992000091203004-18040+044030FM-12+0023FMMO V0209999C000012200019N0300001N1+02241+02101101831ADDAA199000091GA1021+006009089GF102991021081008001001001MA1999999101571MD1510031+9999REMSYN086AAXX  12034 67073 33580 20000 10224 20210 30157 40183 55003 82800 333 82820 555 81640;EQDQ01  00002PRCP99
0245670730999992000091206004-18040+044030FM-12+0023FMMO V0201801N004112200019N0350001N1+02701+02101101871ADDAA199000091GA1031+006009029GF103991031021008001001001KA1120M+03021KA2120N+02241MA1999999101611MD1110041+9999REMSYN106AAXX  12064 67073 32581 31808 10270 20210 30161 40187 51004 83200 333 0//00 10302 20224 50//4 55/// 83820;EQDQ01  00002PRCP99
0189670730999992000091209004-18040+044030FM-12+0023FMMO V0202001N005712200019N0350001N1+02801+02081101721ADDAA199000091GA1031+006909029GF103991031021008001001001MA1999999101461MD1810151+9999REMSYN076AAXX  12094 67073 32581 32011 10280 20208 30146 40172 58015 83200 333 83823;EQDQ01  00002PRCP99
0195670730999992000091212004-18040+044030FM-12+0023FMMO V0202601N004612200019N0350001N1+02791+02251101461ADDAA199000091GA1021+006909029GF102991021021008001001001MA1999999101201MD1610261+9999REMSYN082AAXX  12124 67073 32581 22609 10279 20225 30120 40146 56026 82200 333 0//00 82823;EQDQ01  00002PRCP99
0196670730999992000091215004-18040+044030FM-12+0023FMMO V0202601N002612200019N0300001N1+02571+02231101561ADDAA199000091GA1001+999999999GF100991001001999999001001KA1999M+02951MA1999999101301MD1310101+9999REMSYN070AAXX  12154 67073 32980 02605 10257 20223 30130 40156 53010 333 10295;EQDQ01  00002PRCP99
0233670730999992000091306004-18040+044030FM-12+0023FMMO V0201001N001512200019N0300001N1+02741+02151101831ADDAA199000091GA1001+999999999GF100991001001999999001001KA1120M+02951KA2120N+02131MA1999999101571MD1110071+9999REMSYN094AAXX  13064 67073 32980 01003 10274 20215 30157 40183 51007 333 0//00 10295 20213 50//4 55///;EQDQ01  00002PRCP99
0195670730999992000091312004-18040+044030FM-12+0023FMMO V0202801N005712200019N0400001N1+02821+02301101591ADDAA199000091GA1021+006909029GF102991021021008001001001MA1999999101331MD1610111+9999REMSYN082AAXX  13124 67073 32582 22811 10282 20230 30133 40159 56011 82200 333 0//00 82823;EQDQ01  00002PRCP99
0208670730999992000091315004-18040+044030FM-12+0023FMMO V0202601N002612200019N0300001N1+02601+02251101611ADDAA199000091GA1021+006009029GF102991021021008001001001KA1120M+03091MA1999999101351MD1310021+9999REMSYN082AAXX  13154 67073 32580 22605 10260 20225 30135 40161 53002 82200 333 10309 82820;EQDQ01  00002PRCP99
0211670730999992000091403004-18040+044030FM-12+0023FMMO V0201201N001512200019N0200001N1+02141+02051101761ADDAA199000091GA1011+006009089GF101991011081008001001001MA1999999101501MD1310081+9999MW1401REMSYN092AAXX  14034 67073 31570 11203 10214 20205 30150 40176 53008 740// 81800 333 81820 555 81630;EQDQ01  00002PRCP99
0245670730999992000091406004-18040+044030FM-12+0023FMMO V0201401N001512200019N0400001N1+02721+02131101881ADDAA199000091GA1031+006909029GF103991031021008001001001KA1120M+03091KA2120N+02141MA1999999101621MD1110121+9999REMSYN106AAXX  14064 67073 32582 31403 10272 20213 30162 40188 51012 83200 333 0//00 10309 20214 50//4 55/// 83823;EQDQ01  00002PRCP99
0189670730999992000091409004-18040+044030FM-12+0023FMMO V0203001N003612200019N0400001N1+02831+02171101741ADDAA199000091GA1021+006909029GF102991021021008001001001MA1999999101481MD1810141+9999REMSYN076AAXX  14094 67073 32582 23007 10283 20217 30148 40174 58014 82200 333 82823;EQDQ01  00002PRCP99
0241670730999992000091412004-18040+044030FM-12+0023FMMO V0203201N005712200019N0400001N1+02821+02171101561ADDAA199000091GA1011+006909099GA2021+006909089GF102991021091008001001001MA1999999101301MD1610181+9999REMSYN112AAXX  14124 67073 32582 23211 10282 20217 30130 40156 56018 82900 333 0//00 82823 81923 94992 94993 95812 95813;EQDQ01  00002PRCP99
0208670730999992000091415004-18040+044030FM-12+0023FMMO V0203001N003112200019N0300001N1+02621+02241101551ADDAA199000091GA1041+006009029GF104991041081008001001001KA1120M+02921MA1999999101291MD1510011+9999REMSYN082AAXX  14154 67073 32580 43006 10262 20224 30129 40155 55001 84800 333 10292 84820;EQDQ01  00002PRCP99
0201670730999992000091503004-18040+044030FM-12+0023FMMO V0209999C000012200019N0200001N1+02191+02101101731ADDAA199000091GA1011+006009029GF101991011081008001001001MA1999999101471MD1310061+9999MW1401REMSYN082AAXX  15034 67073 31570 10000 10219 20210 30147 40173 53006 740// 81800 333 81820;EQDQ01  00002PRCP99
0233670730999992000091506004-18040+044030FM-12+0023FMMO V0202201N002112200019N0400001N1+02751+02051101861ADDAA199000091GA1001+999999999GF100991001001999999001001KA1120M+02921KA2120N+02141MA1999999101601MD1110131+9999REMSYN094AAXX  15064 67073 32982 02204 10275 20205 30160 40186 51013 333 0//00 10292 20214 50//4 55///;EQDQ01  00002PRCP99
0189670730999992000091509004-18040+044030FM-12+0023FMMO V0202401N005112200019N0400001N1+02791+02161101751ADDAA199000091GA1011+006909029GF101991011021008001001001MA1999999101491MD1810111+9999REMSYN076AAXX  15094 67073 32582 12410 10279 20216 30149 40175 58011 81200 333 81823;EQDQ01  00002PRCP99
0195670730999992000091512004-18040+044030FM-12+0023FMMO V0202001N005712200019N0350001N1+02741+02241101561ADDAA199000091GA1011+006909029GF101991011021008001001001MA1999999101301MD1610191+9999REMSYN082AAXX  15124 67073 32581 12011 10274 20224 30130 40156 56019 81200 333 0//00 81823;EQDQ01  00002PRCP99
0201670730999992000091603004-18040+044030FM-12+0023FMMO V0201001N001512200019N0200001N1+02141+02051101501ADDAA199000091GA1011+006009029GF101991011021008001001001MA1999999101241MD1310021+9999MW1401REMSYN082AAXX  16034 67073 31570 11003 10214 20205 30124 40150 53002 740// 81200 333 81820;EQDQ01  00002PRCP99
0233670730999992000091606004-18040+044030FM-12+0023FMMO V0200201N004612200019N0350001N1+02871+01911101581ADDAA199000091GA1001+999999999GF100991001001999999001001KA1120M+02851KA2120N+02141MA1999999101321MD1110081+9999REMSYN094AAXX  16064 67073 32981 00209 10287 20191 30132 40158 51008 333 0//00 10285 20214 50//4 55///;EQDQ01  00002PRCP99
0201670730999992000091703004-18040+044030FM-12+0023FMMO V0209999C000012200019N0200001N1+02111+02021101731ADDAA199000091GA1021+006009029GF103991031081008001001001MA1999999101471MD1310101+9999MW1401REMSYN082AAXX  17034 67073 31570 30000 10211 20202 30147 40173 53010 740// 83800 333 82820;EQDQ01  00002PRCP99
0233670730999992000091706004-18040+044030FM-12+0023FMMO V0200201N002112200019N0400001N1+02751+01721101831ADDAA199000091GA1001+999999999GF100991001001999999001001KA1120M+03151KA2120N+02111MA1999999101571MD1110101+9999REMSYN094AAXX  17064 67073 32982 00204 10275 20172 30157 40183 51010 333 0//00 10315 20211 50//4 55///;EQDQ01  00002PRCP99
0199670730999992000091803004-18040+044030FM-12+0023FMMO V0209999C000012200019N0300001N1+02241+02141101851ADDAA199000091GA1021+006009089GF103991031081008001001001MA1999999101591MD1310081+9999REMSYN086AAXX  18034 67073 33580 30000 10224 20214 30159 40185 53008 83800 333 82820 555 82640;EQDQ01  00002PRCP99
0245670730999992000091806004-18040+044030FM-12+0023FMMO V0200201N002612200019N0350001N1+02751+01691101891ADDAA199000091GA1021+006909029GF102991021021008001001001KA1120M+02901KA2120N+02241MA1999999101631MD1110041+9999REMSYN106AAXX  18064 67073 32581 20205 10275 20169 30163 40189 51004 82200 333 0//00 10290 20224 50//4 55/// 82823;EQDQ01  00002PRCP99
0189670730999992000091809004-18040+044030FM-12+0023FMMO V0202801N005112200019N0400001N1+02841+01741101761ADDAA199000091GA1021+006909029GF102991021081008001001001MA1999999101501MD1810131+9999REMSYN076AAXX  18094 67073 32582 22810 10284 20174 30150 40176 58013 82800 333 82823;EQDQ01  00002PRCP99
0195670730999992000091812004-18040+044030FM-12+0023FMMO V0202801N005712200019N0400001N1+02831+01641101631ADDAA199000091GA1011+006909029GF101991011021008001001001MA1999999101371MD1610131+9999REMSYN082AAXX  18124 67073 32582 12811 10283 20164 30137 40163 56013 81200 333 0//00 81823;EQDQ01  00002PRCP99
0196670730999992000091815004-18040+044030FM-12+0023FMMO V0202601N005112200019N0300001N1+02601+01821101661ADDAA199000091GA1001+999999999GF100991001001999999001001KA1999M+02911MA1999999101401MD1310031+9999REMSYN070AAXX  18154 67073 32980 02610 10260 20182 30140 40166 53003 333 10291;EQDQ01  00002PRCP99
0189670730999992000091903004-18040+044030FM-12+0023FMMO V0209999C000012200019N0300001N1+02241+02151101721ADDAA199000091GA1021+006009029GF103991031081008001001001MA1999999101461MD1310071+9999REMSYN076AAXX  19034 67073 33580 30000 10224 20215 30146 40172 53007 83800 333 82820;EQDQ01  00002PRCP99
0245670730999992000091906004-18040+044030FM-12+0023FMMO V0202201N003612200019N0400001N1+02721+02191101771ADDAA199000091GA1041+006909029GF104991041021008001001001KA1120M+02891KA2120N+02241MA1999999101511MD1110051+9999REMSYN106AAXX  19064 67073 32582 42207 10272 20219 30151 40177 51005 84200 333 0//00 10289 20224 50//4 55/// 84823;EQDQ01  00002PRCP99
0189670730999992000091909004-18040+044030FM-12+0023FMMO V0202601N005112200019N0400001N1+02841+02161101681ADDAA199000091GA1031+006909029GF103991031021008001001001MA1999999101421MD1810091+9999REMSYN076AAXX  19094 67073 32582 32610 10284 20216 30142 40168 58009 83200 333 83823;EQDQ01  00002PRCP99
0223670730999992000091912004-18040+044030FM-12+0023FMMO V0203001N005110069019N0250001N1+02811+02301101561ADDAA199000091AY111061AY201061GA1061+006909029GF106991061021008001001001MA1999999101301MD1610121+9999MW1151REMSYN088AAXX  19124 67073 31575 63010 10281 20230 30130 40156 56012 71510 86200 333 0//00 86823;EQDQ01  00002PRCP99
0208670730999992000091915004-18040+044030FM-12+0023FMMO V0202601N004112200019N0300001N1+02621+02281101661ADDAA199000091GA1041+006009029GF104991041021008001001001KA1120M+02901MA1999999101401MD1310101+9999REMSYN082AAXX  19154 67073 32580 42608 10262 20228 30140 40166 53010 84200 333 10290 84820;EQDQ01  00002PRCP99
0207670730999992000092003004-18040+044030FM-12+0023FMMO V0209999C00001012001CN0200001N1+02241+02121101611ADDAA199000091GA1031+006009089GF105991051081008001001001MA1999999101351MD1310031+9999MW1401REMSYN088AAXX  20034 67073 31570 50000 10224 20212 30135 40161 53003 740// 85800 333 83820 86630;EQDQ01  00002PRCP99
0255670730999992000092006004-18040+044030FM-12+0023FMMO V0201001N002612200019N0300001N1+02631+02091101731ADDAA199000091GA1031+006909089GF104991041081008001001001KA1120M+02901KA2120N+02241MA1999999101471MD1110121+9999REMSYN116AAXX  20064 67073 32580 41005 10263 20209 30147 40173 51012 84800 333 0//00 10290 20224 50//4 55/// 83823 555 82633;EQDQ01  00002PRCP99
0189670730999992000092009004-18040+044030FM-12+0023FMMO V0203001N005112200019N0400001N1+02831+02201101571ADDAA199000091GA1031+006909029GF103991031021008001001001MA1999999101311MD1810161+9999REMSYN076AAXX  20094 67073 32582 33010 10283 20220 30131 40157 58016 83200 333 83823;EQDQ01  00002PRCP99
0195670730999992000092012004-18040+044030FM-12+0023FMMO V0203001N007212200019N0400001N1+02821+02271101441ADDAA199000091GA1031+006909029GF103991031021008001001001MA1999999101181MD1610131+9999REMSYN082AAXX  20124 67073 32582 33014 10282 20227 30118 40144 56013 83200 333 0//00 83823;EQDQ01  00002PRCP99
0214670730999992000092015004-18040+044030FM-12+0023FMMO V0202801N00511012001CN0300001N1+02541+02281101511ADDAA199000091GA1041+006009089GF108991061081008001001001KA1120M+02901MA1999999101251MD1310071+9999REMSYN088AAXX  20154 67073 32580 82810 10254 20228 30125 40151 53007 86800 333 10290 84820 83630;EQDQ01  00002PRCP99
0202670730999992000092103004-18040+044030FM-12+0023FMMO V0209999C00001012001CN0200001N1+02281+02221101611ADDAA112000391AY161031GA1031+006009089GF107991071081008001999999MA1999999101351MD1310071+9999MW1151REMSYN094AAXX  21034 67073 21570 70000 10228 20222 30135 40161 53007 7156/ 878// 333 69932 83820 85630;
0272670730999992000092106004-18040+044030FM-12+0023FMMO V0203601N00361012001CN0200001N1+02281+01961101811ADDAA124000391AC11I9AY161061AY221061GA1041+006009089GF107991071081008001999999KA1120M+02901KA2120N+02281MA1999999101551MD1110201+9999MW1151REMSYN124AAXX  21064 67073 11570 73607 10228 20196 30155 40181 51020 69934 71562 878// 333 0//15 10290 20228 50//4 55/// 84820 84630;
0189670730999992000092109004-18040+044030FM-12+0023FMMO V0203401N005712200019N0400001N1+02751+01691101671ADDAA199000091GA1031+006909029GF103991031081008001001001MA1999999101411MD1810141+9999REMSYN076AAXX  21094 67073 32582 33411 10275 20169 30141 40167 58014 83800 333 83823;EQDQ01  00002PRCP99
0205670730999992000092112004-18040+044030FM-12+0023FMMO V0203601N006712200019N0400001N1+02821+01761101471ADDAA199000091GA1021+006909089GF102991021081008001001001MA1999999101211MD1610201+9999REMSYN092AAXX  21124 67073 32582 23613 10282 20176 30121 40147 56020 82800 333 0//00 82823 555 81633;EQDQ01  00002PRCP99
0218670730999992000092115004-18040+044030FM-12+0023FMMO V0203201N006212200019N0300001N1+02601+01891101551ADDAA199000091GA1021+006009089GF103991031081008001001001KA1120M+02861MA1999999101291MD1310081+9999REMSYN092AAXX  21154 67073 32580 33212 10260 20189 30129 40155 53008 83800 333 10286 82820 555 82630;EQDQ01  00002PRCP99
0207670730999992000092203004-18040+044030FM-12+0023FMMO V0201201N00261012001CN0200001N1+02171+01911101721ADDAA199000091GA1021+006009089GF106991061081008001001001MA1999999101461MD1310071+9999MW1401REMSYN088AAXX  22034 67073 31570 61205 10217 20191 30146 40172 53007 740// 86800 333 82820 85633;EQDQ01  00002PRCP99
0255670730999992000092206004-18040+044030FM-12+0023FMMO V0202001N002612200019N0400001N1+02781+02191101761ADDAA199000091GA1041+006909089GF104991041081008001001001KA1120M+02861KA2120N+02141MA1999999101501MD1110041+9999REMSYN116AAXX  22064 67073 32582 42005 10278 20219 30150 40176 51004 84800 333 0//00 10286 20214 50//4 55/// 84823 555 81640;EQDQ01  00002PRCP99
0229670730999992000092212004-18040+044030FM-12+0023FMMO V0202601N005112200019N0300001N1+02831+02291101441ADDAA199000091GA1011+006909099GA2041+006909089GF104991041091008001001001MA1999999101181MD1610201+9999REMSYN100AAXX  22124 67073 32580 42610 10283 20229 30118 40144 56020 84900 333 0//00 84823 81923 94993 95813;EQDQ01  00002PRCP99
0214670730999992000092215004-18040+044030FM-12+0023FMMO V0202601N00411012001CN0300001N1+02641+02321101491ADDAA199000091GA1021+006009089GF106991061081008001001001KA1120M+03031MA1999999101231MD1310051+9999REMSYN088AAXX  22154 67073 32580 62608 10264 20232 30123 40149 53005 86800 333 10303 82820 85630;EQDQ01  00002PRCP99
0195670730999992000092303004-18040+044030FM-12+0023FMMO V0209999C00001012001CN0300001N1+02391+02211101601ADDAA199000091GA1021+006009089GF107991071081008001999999MA1999999101341MD1310021+9999REMSYN082AAXX  23034 67073 33580 70000 10239 20221 30134 40160 53002 878// 333 82820 86630;EQDQ01  00002PRCP99
0245670730999992000092306004-18040+044030FM-12+0023FMMO V0201801N00361012001CN0400001N1+02771+02201101741ADDAA199000091GA1041+006009029GF105991051081008001001001KA1120M+03031KA2120N+02341MA1999999101481MD1110141+9999REMSYN106AAXX  23064 67073 32582 51807 10277 20220 30148 40174 51014 85800 333 0//00 10303 20234 50//4 55/// 84820;EQDQ01  00002PRCP99
0194670730999992000092403004-18040+044030FM-12+0023FMMO V0209999C00001012001CN0250001N1+02311+02211101531ADDAA112000191GA1021+006009089GF106991061081008001001001MA1999999101271MD1310081+9999MW1211REMSYN094AAXX  24034 67073 21575 60000 10231 20221 30127 40153 53008 721// 86800 333 69912 82820 85630;
0272670730999992000092406004-18040+044030FM-12+0023FMMO V0200201N00511012001CN0400001N1+02641+01871101711ADDAA124000191AC10I9AY161061AY221061GA1021+006009089GF106991061081008001001001KA1120M+02901KA2120N+02241MA1999999101451MD1110181+9999MW1021REMSYN124AAXX  24064 67073 11582 60210 10264 20187 30145 40171 51018 69914 70262 86800 333 0//14 10290 20224 50//4 55/// 82820 85630;
0189670730999992000092503004-18040+044030FM-12+0023FMMO V0209999C000012200019N0300001N1+02171+01971101781ADDAA199000091GA1021+006009029GF103991031081008001001001MA1999999101521MD1310081+9999REMSYN076AAXX  25034 67073 33580 30000 10217 20197 30152 40178 53008 83800 333 82820;EQDQ01  00002PRCP99
0245670730999992000092506004-18040+044030FM-12+0023FMMO V0200401N003612200019N0400001N1+02791+01621101931ADDAA199000091GA1011+006909029GF102991011081008001031001KA1120M+03001KA2120N+02141MA1999999101671MD1010151+9999REMSYN106AAXX  25064 67073 32582 20407 10279 20162 30167 40193 50015 81830 333 0//00 10300 20214 50//4 55/// 81823;EQDQ01  00002PRCP99
0189670730999992000092509004-18040+044030FM-12+0023FMMO V0202601N005712200019N0400001N1+02901+02051101731ADDAA199000091GA1011+006909029GF101991011021008001031001MA1999999101471MD1810201+9999REMSYN076AAXX  25094 67073 32582 12611 10290 20205 30147 40173 58020 81230 333 81823;EQDQ01  00002PRCP99
0205670730999992000092512004-18040+044030FM-12+0023FMMO V0202201N005712200019N0400001N1+02871+02051101501ADDAA199000091GA1011+006909089GF101991011021008001001021MA1999999101241MD1610231+9999REMSYN092AAXX  25124 67073 32582 12211 10287 20205 30124 40150 56023 81202 333 0//00 81823 555 81073;EQDQ01  00002PRCP99
0224670730999992000092515004-18040+044030FM-12+0023FMMO V0202201N004112200019N0300001N1+02581+02201101571ADDAA199000091GA1011+009009069GF102991021081008001031001KA1120M+03091MA1999999101311MD1310071+9999REMSYN098AAXX  25154 67073 32580 22208 10258 20220 30131 40157 53007 82830 333 10309 82820 555 81630 81360;EQDQ01  00002PRCP99
0202670730999992000092603004-18040+044030FM-12+0023FMMO V0209999C00001012001CN0300001N1+02161+02101101721ADDAA112005091AY161031GA1031+006009089GF105991051081008001001001MA1999999101461MD1310021+9999MW1001REMSYN094AAXX  26034 67073 21580 50000 10216 20210 30146 40172 53002 7006/ 85800 333 60052 83820 83630;
0282670730999992000092606004-18040+044030FM-12+0023FMMO V0200201N004112200019N0400001N1+02731+01991101861ADDAA124005191AC11I9AY161061AY211061GA1011+012009069GF103991031081008001031001KA1120M+03091KA2120N+02161MA1999999101601MD1110141+9999MW1011REMSYN134AAXX  26064 67073 11582 30208 10273 20199 30160 40186 51014 60054 70161 83830 333 0//15 10309 20216 50//4 55/// 82823 555 81640 81360;
0199670730999992000092609004-18040+044030FM-12+0023FMMO V0203401N005112200019N0400001N1+02821+01971101641ADDAA199000091GA1011+006909089GF101991011021008001001021MA1999999101381MD1810121+9999REMSYN086AAXX  26094 67073 32582 13410 10282 20197 30138 40164 58012 81202 333 81823 555 81073;EQDQ01  00002PRCP99
0195670730999992000092612004-18040+044030FM-12+0023FMMO V0203001N006212200019N0400001N1+02831+02001101481ADDAA199000091GA1011+006909029GF101991011021008001001021MA1999999101221MD1610161+9999REMSYN082AAXX  26124 67073 32582 13012 10283 20200 30122 40148 56016 81202 333 0//00 81823;EQDQ01  00002PRCP99
0196670730999992000092615004-18040+044030FM-12+0023FMMO V0202801N004112200019N0300001N1+02531+02001101571ADDAA199000091GA1001+999999999GF100991001001999999001001KA1999M+02871MA1999999101311MD1310091+9999REMSYN070AAXX  26154 67073 32580 02808 10253 20200 30131 40157 53009 333 10287;EQDQ01  00002PRCP99
0245670730999992000092703004-18040+044030FM-12+0023FMMO V0209999C000010090019N0300001N1+02251+02081101691ADDAA199000091GA1011+006009099GA2031+006009089GA3051+009009069GF107991071091008001999999MA1999999101431MD1310051+9999REMSYN100AAXX  27034 67073 33580 70000 10225 20208 30143 40169 53005 879// 333 83820 81920 85630 94997 95817;EQDQ01  00002PRCP99
0251670730999992000092706004-18040+044030FM-12+0023FMMO V0201601N00311012001CN0350001N1+02511+02051101801ADDAA199000091GA1021+006909089GF107991071081008001999999KA1120M+02871KA2120N+02201MA1999999101541MD1110111+9999REMSYN112AAXX  27064 67073 32581 71606 10251 20205 30154 40180 51011 878// 333 0//00 10287 20220 50//4 55/// 82823 86633;EQDQ01  00002PRCP99
0195670730999992000092709004-18040+044030FM-12+0023FMMO V0202001N003110120019N0350001N1+02661+02161101711ADDAA199000091GA1021+006909089GF107991061081008001031999MA1999999101451MD1810091+9999REMSYN082AAXX  27094 67073 32581 72006 10266 20216 30145 40171 58009 8683/ 333 82823 85640;EQDQ01  00002PRCP99
0227670730999992000092712004-18040+044030FM-12+0023FMMO V0202201N004610300019N0350001N1+02751+02211101581ADDAA199000091GA1021+006909089GA2051+030009039GF107991031081008001031999MA1999999101321MD1610131+9999REMSYN098AAXX  27124 67073 32581 72209 10275 20221 30132 40158 56013 8383/ 333 0//00 82823 85360 555 82640;EQDQ01  00002PRCP99
0224670730999992000092715004-18040+044030FM-12+0023FMMO V0202001N003612200019N0300001N1+02551+02211101631ADDAA199000091GA1011+012009069GF103991031081008001031001KA1120M+02831MA1999999101371MD1310051+9999REMSYN098AAXX  27154 67073 32580 32007 10255 20221 30137 40163 53005 83830 333 10283 82820 555 81640 81360;EQDQ01  00002PRCP99
0205670730999992000092803004-18040+044030FM-12+0023FMMO V0201801N002112200019N0300001N1+02171+02061101591ADDAA199000091GA1011+009909069GF103991021081008001001021MA1999999101331MD1310061+9999REMSYN092AAXX  28034 67073 33580 31804 10217 20206 30133 40159 53006 82802 333 82820 555 81633 81073;EQDQ01  00002PRCP99
0245670730999992000092806004-18040+044030FM-12+0023FMMO V0201801N004110060019N0350001N1+02621+02101101681ADDAA199000091GA1051+006009029GF105991051021008001001001KA1120M+02831KA2120N+02121MA1999999101421MD1110091+9999REMSYN106AAXX  28064 67073 32581 51808 10262 20210 30142 40168 51009 85200 333 0//00 10283 20212 50//4 55/// 85820;EQDQ01  00002PRCP99
0189670730999992000092809004-18040+044030FM-12+0023FMMO V0202001N005112200019N0350001N1+02781+02221101581ADDAA199000091GA1031+006909029GF103991031021008001001001MA1999999101321MD1810101+9999REMSYN076AAXX  28094 67073 32581 32010 10278 20222 30132 40158 58010 83200 333 83823;EQDQ01  00002PRCP99
0229670730999992000092812004-18040+044030FM-12+0023FMMO V0202401N006212200019N0350001N1+02761+02401101471ADDAA199000091GA1011+006909099GA2031+006909089GF104991041091008001001001MA1999999101211MD1610111+9999REMSYN100AAXX  28124 67073 32581 42412 10276 20240 30121 40147 56011 84900 333 0//00 83823 81923 94992 95812;EQDQ01  00002PRCP99
0214670730999992000092815004-18040+044030FM-12+0023FMMO V0202801N00411012001CN0300001N1+02541+02281101481ADDAA199000091GA1041+006009089GF106991061081008001001001KA1120M+02871MA1999999101221MD1310011+9999REMSYN088AAXX  28154 67073 32580 62808 10254 20228 30122 40148 53001 86800 333 10287 84820 83633;EQDQ01  00002PRCP99
0207670730999992000092903004-18040+044030FM-12+0023FMMO V0209999C00001012001CN0250001N1+02351+02251101631ADDAA199000091GA1021+006009089GF107991071081008001999999MA1999999101371MD1310081+9999MW1151REMSYN088AAXX  29034 67073 31575 70000 10235 20225 30137 40163 53008 715// 878// 333 82820 86630;EQDQ01  00002PRCP99
0245670730999992000092906004-18040+044030FM-12+0023FMMO V0200201N006712200019N0350001N1+02721+01841101801ADDAA199000091GA1021+006909029GF103991031081008001031001KA1120M+02871KA2120N+02281MA1999999101541MD1110171+9999REMSYN106AAXX  29064 67073 32581 30213 10272 20184 30154 40180 51017 83830 333 0//00 10287 20228 50//4 55/// 82823;EQDQ01  00002PRCP99
0189670730999992000092909004-18040+044030FM-12+0023FMMO V0203201N005712200019N0400001N1+02951+01861101631ADDAA199000091GA1021+006909029GF102991021021008001001001MA1999999101371MD1810171+9999REMSYN076AAXX  29094 67073 32582 23211 10295 20186 30137 40163 58017 82200 333 82823;EQDQ01  00002PRCP99
0195670730999992000092912004-18040+044030FM-12+0023FMMO V0203201N007212200019N0400001N1+02851+02091101461ADDAA199000091GA1011+006909029GF101991011021008001001001MA1999999101201MD1610171+9999REMSYN082AAXX  29124 67073 32582 13214 10285 20209 30120 40146 56017 81200 333 0//00 81823;EQDQ01  00002PRCP99
0196670730999992000092915004-18040+044030FM-12+0023FMMO V0203201N004112200019N0300001N1+02551+02081101551ADDAA199000091GA1001+999999999GF100991001001999999001001KA1999M+03051MA1999999101291MD1310091+9999REMSYN070AAXX  29154 67073 32980 03208 10255 20208 30129 40155 53009 333 10305;EQDQ01  00002PRCP99
0189670730999992000093003004-18040+044030FM-12+0023FMMO V0209999C000012200019N0350001N1+02121+02031101731ADDAA199000091GA1011+006009029GF101991011021008001001001MA1999999101471MD1310061+9999REMSYN076AAXX  30034 67073 33581 10000 10212 20203 30147 40173 53006 81200 333 81820;EQDQ01  00002PRCP99
0233670730999992000093006004-18040+044030FM-12+0023FMMO V0201401N002612200019N0400001N1+02781+02061101841ADDAA199000091GA1001+999999999GF100991001001999999001001KA1120M+03051KA2120N+02101MA1999999101581MD1110111+9999REMSYN094AAXX  30064 67073 32982 01405 10278 20206 30158 40184 51011 333 0//00 10305 20210 50//4 55///;EQDQ01  00002PRCP99
0189670730999992000100103004-18040+044030FM-12+0023FMMO V0201801N002112200019N0300001N1+02161+02051101561ADDAA199000091GA1031+006009029GF104991041081008001001001MA1999999101301MD1310071+9999REMSYN076AAXX  01034 67073 33580 41804 10216 20205 30130 40156 53007 84800 333 83820;EQDQ01  00002PRCP99
0245670730999992000100106004-18040+044030FM-12+0023FMMO V0201801N003612200019N0350001N1+02821+02141101661ADDAA199000091GA1011+006909029GF101991011081008001001001KA1120M+03001KA2120N+02161MA1999999101401MD1110091+9999REMSYN106AAXX  01064 67073 32581 11807 10282 20214 30140 40166 51009 81800 333 0//00 10300 20216 50//4 55/// 81823;EQDQ01  00002PRCP99
0207670730999992000100203004-18040+044030FM-12+0023FMMO V0201801N00211012001CN0250001N1+02401+02281101501ADDAA199000091GA1031+006009089GF105991051081008001001001MA1999999101241MD1310051+9999MW1401REMSYN088AAXX  02034 67073 31575 51804 10240 20228 30124 40150 53005 740// 85800 333 83820 83630;EQDQ01  00002PRCP99
0225670730999992000100206004-18040+044030FM-12+0023FMMO V0200801N002612200019N0350001N1+02921+02251101581ADDGA1021+006909089GF102991021081008001001001KA1120M+03031KA2120N+02311MA1999999101321MD1110081+9999REMSYN116AAXX  02064 67073 22581 20805 10292 20225 30132 40158 51008 82800 333 0//00 10303 20231 50//4 55/// 82823 555 81640;
0189670730999992000100209004-18040+044030FM-12+0023FMMO V0203001N005112200019N0400001N1+03031+02421101381ADDAA199000091GA1031+006909029GF103991031021008001001001MA1999999101121MD1810201+9999REMSYN076AAXX  02094 67073 32582 33010 10303 20242 30112 40138 58020 83200 333 83823;EQDQ01  00002PRCP99
0229670730999992000100212004-18040+044030FM-12+0023FMMO V0203001N006710060019N0350001N1+02901+02721101331ADDAA199000091GA1011+006009099GA2061+006009089GF106991061091008001001001MA1999999101071MD1610051+9999REMSYN100AAXX  02124 67073 32581 63013 10290 20272 30107 40133 56005 86900 333 0//00 86820 81920 94992 95832;EQDQ01  00002PRCP99
0242670730999992000100215004-18040+044030FM-12+0023FMMO V0203001N004610060019N0300001N1+02671+02401101411ADDAA199000091GA1011+006009099GA2061+006009089GF106991061091008001001001KA1120M+03251MA1999999101151MD1310081+9999REMSYN100AAXX  02154 67073 32580 63009 10267 20240 30115 40141 53008 86900 333 10325 86820 81920 94992 95812;EQDQ01  00002PRCP99
0201670730999992000100303004-18040+044030FM-12+0023FMMO V0209999C000012200019N0200001N1+02211+02181101481ADDAA199000091GA1011+012009059GF101991011051012501001001MA1999999101221MD1610021+9999MW1401REMSYN082AAXX  03034 67073 31670 10000 10221 20218 30122 40148 56002 740// 81500 333 81640;EQDQ01  00002PRCP99
0245670730999992000100306004-18040+044030FM-12+0023FMMO V0203201N004112200019N0400001N1+02801+02211101571ADDAA199000091GA1021+006909029GF102991021021008001001001KA1120M+03251KA2120N+02251MA1999999101311MD1110091+9999REMSYN106AAXX  03064 67073 32582 23208 10280 20221 30131 40157 51009 82200 333 0//00 10325 20225 5///4 55/// 82823;EQDQ01  00002PRCP99
0189670730999992000100309004-18040+044030FM-12+0023FMMO V0203401N007212200019N0400001N1+02821+02391101531ADDAA199000091GA1041+006909029GF104991041021008001001001MA1999999101271MD1810041+9999REMSYN076AAXX  03094 67073 32582 43414 10282 20239 30127 40153 58004 84200 333 84823;EQDQ01  00002PRCP99
0242670730999992000100315004-18040+044030FM-12+0023FMMO V0202601N004610060019N0300001N1+02631+02251101451ADDAA199000091GA1011+006009099GA2061+006009089GF106991061091008001001001KA1120M+02921MA1999999101191MD1310021+9999REMSYN100AAXX  03154 67073 32580 62609 10263 20225 30119 40145 53002 86900 333 10292 86820 81920 94991 95811;EQDQ01  00002PRCP99
0199670730999992000100403004-18040+044030FM-12+0023FMMO V0201001N002112200019N0300001N1+02121+02041101461ADDAA199000091GA1021+006009089GF103991031081008001001001MA1999999101201MD1310051+9999REMSYN086AAXX  04034 67073 33580 31004 10212 20204 30120 40146 53005 83800 333 82820 555 82633;EQDQ01  00002PRCP99
0255670730999992000100406004-18040+044030FM-12+0023FMMO V0202001N002612200019N0300001N1+02711+02101101601ADDAA199000091GA1021+006909089GF102991021081008001001001KA1120M+02921KA2120N+02121MA1999999101341MD1110141+9999REMSYN116AAXX  04064 67073 32580 22005 10271 20210 30134 40160 51014 82800 333 0//00 10292 20212 50//4 55/// 82823 555 81640;EQDQ01  00002PRCP99
0189670730999992000100409004-18040+044030FM-12+0023FMMO V0202601N005112200019N0400001N1+02851+02141101471ADDAA199000091GA1031+006909029GF103991031021008001001001MA1999999101211MD1810141+9999REMSYN076AAXX  04094 67073 32582 32610 10285 20214 30121 40147 58014 83200 333 83823;EQDQ01  00002PRCP99
0229670730999992000100412004-18040+044030FM-12+0023FMMO V0202601N006212200019N0400001N1+02851+02141101331ADDAA199000091GA1011+006909099GA2021+006909089GF102991021091008001001001MA1999999101071MD1610141+9999REMSYN100AAXX  04124 67073 32582 22612 10285 20214 30107 40133 56014 82900 333 0//00 82823 81923 94991 95811;EQDQ01  00002PRCP99
0189670730999992000100503004-18040+044030FM-12+0023FMMO V0201401N002112200019N0300001N1+02121+02051101461ADDAA199000091GA1021+012009059GF102991021051012501001001MA1999999101201MD1310041+9999REMSYN076AAXX  05034 67073 33680 21404 10212 20205 30120 40146 53004 82500 333 82640;EQDQ01  00002PRCP99
0245670730999992000100506004-18040+044030FM-12+0023FMMO V0201401N002612200019N0400001N1+02901+01701101571ADDAA199000091GA1011+012009059GF101991011051012501001001KA1120M+02911KA2120N+02121MA1999999101311MD1110111+9999REMSYN106AAXX  05064 67073 32682 11405 10290 20170 30131 40157 51011 81500 333 0//00 10291 20212 50//4 55/// 81640;EQDQ01  00002PRCP99
0189670730999992000100509004-18040+044030FM-12+0023FMMO V0202201N005112200019N0400001N1+03201+01621101451ADDAA199000091GA1021+006909029GF102991021021008001001001MA1999999101191MD1810121+9999REMSYN076AAXX  05094 67073 32582 22210 10320 20162 30119 40145 58012 82200 333 82823;EQDQ01  00002PRCP99
0229670730999992000100512004-18040+044030FM-12+0023FMMO V0202601N006212200019N0400001N1+02981+01921101271ADDAA199000091GA1011+006909099GA2021+006909089GF102991021091008001001001MA1999999101011MD1610181+9999REMSYN100AAXX  05124 67073 32582 22612 10298 20192 30101 40127 56018 82900 333 0//00 82823 81923 94991 95811;EQDQ01  00002PRCP99
0196670730999992000100515004-18040+044030FM-12+0023FMMO V0202201N003612200019N0300001N1+02721+02091101411ADDAA199000091GA1001+999999999GF100991001001999999001001KA1999M+03251MA1999999101151MD1310141+9999REMSYN070AAXX  05154 67073 32980 02207 10272 20209 30115 40141 53014 333 10325;EQDQ01  00002PRCP99
0195670730999992000100603004-18040+044030FM-12+0023FMMO V0201601N003110120019N0300001N1+02111+01881101471ADDAA199000091GA1021+006009089GF106991061081008001001001MA1999999101211MD1310081+9999REMSYN082AAXX  06034 67073 33580 61606 10211 20188 30121 40147 53008 86800 333 82820 85640;EQDQ01  00002PRCP99
0207670730999992000100703004-18040+044030FM-12+0023FMMO V0209999C00001012001CN0200001N1+02331+02261101581ADDAA199000091GA1021+006009089GF106991061081008001001001MA1999999101321MD1310101+9999MW1401REMSYN088AAXX  07034 67073 31570 60000 10233 20226 30132 40158 53010 740// 86800 333 82820 85633;EQDQ01  00002PRCP99
0251670730999992000100706004-18040+044030FM-12+0023FMMO V0202001N003610120019N0400001N1+02801+02121101741ADDAA199000091GA1021+006909089GF106991061081008001001001KA1120M+03101KA2120N+02261MA1999999101481MD1110161+9999REMSYN112AAXX  07064 67073 32582 62007 10280 20212 30148 40174 51016 86800 333 0//00 10310 20226 50//4 55/// 82823 85640;EQDQ01  00002PRCP99
0195670730999992000100803004-18040+044030FM-12+0023FMMO V0209999C00001012001CN0300001N1+02281+02161101541ADDAA199000091GA1011+006009089GF105991051081008001001001MA1999999101281MD1310081+9999REMSYN082AAXX  08034 67073 33580 50000 10228 20216 30128 40154 53008 85800 333 81820 85633;EQDQ01  00002PRCP99
0255670730999992000100806004-18040+044030FM-12+0023FMMO V0209999C000012200019N0400001N1+02931+01871101631ADDAA199000091GA1011+006909089GF101991011081008001001001KA1120M+03071KA2120N+02231MA1999999101371MD1010091+9999REMSYN116AAXX  08064 67073 32582 10000 10293 20187 30137 40163 50009 81800 333 0//00 10307 20223 50//4 55/// 81823 555 81640;EQDQ01  00002PRCP99
0245670730999992000100906004-18040+044030FM-12+0023FMMO V0200201N006212200019N0400001N1+02921+02091101621ADDAA199000091GA1021+006909029GF103991031081008001001001KA1120M+03161KA2120N+02321MA1999999101361MD1110121+9999REMSYN106AAXX  09064 67073 32582 30212 10292 20209 30136 40162 51012 83800 333 0//00 10316 20232 50//4 55/// 82823;EQDQ01  00002PRCP99
0229670730999992000100912004-18040+044030FM-12+0023FMMO V0203601N008212200019N0400001N1+02861+02521101281ADDAA199000091GA1011+006909099GA2031+006909089GF103991031091008001001001MA1999999101021MD1710201+9999REMSYN100AAXX  09124 67073 32582 33616 10286 20252 30102 40128 57020 83900 333 0//00 83823 81923 94992 95812;EQDQ01  00002PRCP99
0195670730999992000101003004-18040+044030FM-12+0023FMMO V0209999C000012200019N0300001N1+02241+02141101581ADDAA199000091GA1011+006009089GF101991011081008001001001MA1999999101321MD1310051+9999REMSYN082AAXX  10034 67073 33580 10000 10224 20214 30132 40158 53005 81800 333 81820 81633;EQDQ01  00002PRCP99
0239670730999992000101006004-18040+044030FM-12+0023FMMO V0203601N003612200019N0400001N1+02981+02051999999ADDAA199000091GA1021+006909029GF102991021021008001001001KA1120M+03251KA2120N+02241MA1999999101471MD1110151+9999REMSYN100AAXX  10064 67073 32582 23607 10298 20205 30147 51015 82200 333 0//00 10325 20224 50//4 55/// 82823;EQDQ01  00002PRCP99
0189670730999992000101009004-18040+044030FM-12+0023FMMO V0203001N006212200019N0400001N1+03021+01861101611ADDAA199000091GA1021+006909029GF102991021021008001001001MA1999999101351MD1810121+9999REMSYN076AAXX  10094 67073 32582 23012 10302 20186 30135 40161 58012 82200 333 82823;EQDQ01  00002PRCP99
0229670730999992000101012004-18040+044030FM-12+0023FMMO V0203401N006212200019N0400001N1+02901+02161101431ADDAA199000091GA1011+006909099GA2021+006909089GF102991021091008001001001MA1999999101171MD1610181+9999REMSYN100AAXX  10124 67073 32582 23412 10290 20216 30117 40143 56018 82900 333 0//00 82823 81923 94992 95812;EQDQ01  00002PRCP99
0189670730999992000101103004-18040+044030FM-12+0023FMMO V0201001N002612200019N0300001N1+02261+02111101701ADDAA199000091GA1011+006009029GF102991021081008001001001MA1999999101441MD1310071+9999REMSYN076AAXX  11034 67073 32580 21005 10226 20211 30144 40170 53007 82800 333 81820;EQDQ01  00002PRCP99
0233670730999992000101106004-18040+044030FM-12+0023FMMO V0202001N003612200019N0400001N1+02881+01971101851ADDAA199000091GA1001+999999999GF100991001001999999001001KA1120M+03101KA2120N+02241MA1999999101591MD1110151+9999REMSYN094AAXX  11064 67073 32982 02007 10288 20197 30159 40185 51015 333 0//00 10310 20224 50//4 55///;EQDQ01  00002PRCP99
0189670730999992000101109004-18040+044030FM-12+0023FMMO V0202201N005712200019N0400001N1+02971+02361101781ADDAA199000091GA1031+006909029GF103991031021008001001001MA1999999101521MD1810071+9999REMSYN076AAXX  11094 67073 32582 32211 10297 20236 30152 40178 58007 83200 333 83823;EQDQ01  00002PRCP99
0229670730999992000101112004-18040+044030FM-12+0023FMMO V0202401N006712200019N0350001N1+02911+02591101631ADDAA199000091GA1011+006909099GA2031+006909089GF103991031091008001001001MA1999999101371MD1610151+9999REMSYN100AAXX  11124 67073 32581 32413 10291 20259 30137 40163 56015 83900 333 0//00 83823 81923 94993 95813;EQDQ01  00002PRCP99
0242670730999992000101115004-18040+044030FM-12+0023FMMO V0202201N004610060019N0300001N1+02701+02561101731ADDAA199000091GA1011+006009099GA2061+006009089GF106991061091008001001001KA1120M+03031MA1999999101471MD1310101+9999REMSYN100AAXX  11154 67073 32580 62209 10270 20256 30147 40173 53010 86900 333 10303 86820 81920 94991 95811;EQDQ01  00002PRCP99
0189670730999992000101203004-18040+044030FM-12+0023FMMO V0209999C000010069019N0300001N1+02261+02201101661ADDAA199000091GA1061+006909029GF106991061021008001001001MA1999999101401MD1610021+9999REMSYN076AAXX  12034 67073 33580 60000 10226 20220 30140 40166 56002 86200 333 86823;EQDQ01  00002PRCP99
0245670730999992000101206004-18040+044030FM-12+0023FMMO V0202601N003612200019N0350001N1+02821+02241101771ADDAA199000091GA1031+006909029GF103991031021008001001001KA1120M+03031KA2120N+02261MA1999999101511MD1110111+9999REMSYN106AAXX  12064 67073 32581 32607 10282 20224 30151 40177 51011 83200 333 0//00 10303 20226 5///4 55/// 83823;EQDQ01  00002PRCP99
0189670730999992000101209004-18040+044030FM-12+0023FMMO V0202801N005112200019N0400001N1+02941+02311101731ADDAA199000091GA1021+006909029GF102991021021008001001001MA1999999101471MD1810041+9999REMSYN076AAXX  12094 67073 32582 22810 10294 20231 30147 40173 58004 82200 333 82823;EQDQ01  00002PRCP99
0229670730999992000101212004-18040+044030FM-12+0023FMMO V0202601N006212200019N0350001N1+02911+02321101481ADDAA199000091GA1011+006909099GA2021+006909089GF102991021091008001001001MA1999999101221MD1610251+9999REMSYN100AAXX  12124 67073 32581 22612 10291 20232 30122 40148 56025 82900 333 0//00 82823 81923 94992 95812;EQDQ01  00002PRCP99
0242670730999992000101215004-18040+044030FM-12+0023FMMO V0202401N005112200019N0300001N1+02691+02331101541ADDAA199000091GA1011+006009099GA2041+006009089GF104991041091008001001001KA1120M+02971MA1999999101281MD1310061+9999REMSYN100AAXX  12154 67073 32580 42410 10269 20233 30128 40154 53006 84900 333 10297 84820 81920 94991 95811;EQDQ01  00002PRCP99
0201670730999992000101303004-18040+044030FM-12+0023FMMO V0209999C000012200019N0200001N1+02491+02361101461ADDAA199000091GA1011+006009029GF101991011081008001001001MA1999999101201MD1410001+9999MW1401REMSYN082AAXX  13034 67073 31570 10000 10249 20236 30120 40146 54000 740// 81800 333 81820;EQDQ01  00002PRCP99
0245670730999992000101306004-18040+044030FM-12+0023FMMO V0200201N003610060019N0350001N1+02841+02291101601ADDAA199000091GA1061+006009029GF106991061021008001001001KA1120M+02971KA2120N+02301MA1999999101341MD1110141+9999REMSYN106AAXX  13064 67073 32581 60207 10284 20229 30134 40160 51014 86200 333 0//00 10297 20230 50//4 55/// 86820;EQDQ01  00002PRCP99
0189670730999992000101309004-18040+044030FM-12+0023FMMO V0203201N007212200019N0300001N1+02941+02401101581ADDAA199000091GA1041+006909029GF104991041021008001001001MA1999999101321MD1810021+9999REMSYN076AAXX  13094 67073 32580 43214 10294 20240 30132 40158 58002 84200 333 84823;EQDQ01  00002PRCP99
0229670730999992000101312004-18040+044030FM-12+0023FMMO V0203401N008212200019N0300001N1+02911+02381101391ADDAA199000091GA1011+006909099GA2021+006909089GF102991021091008001001001MA1999999101131MD1610191+9999REMSYN100AAXX  13124 67073 32580 23416 10291 20238 30113 40139 56019 82900 333 0//00 82823 81923 94992 95812;EQDQ01  00002PRCP99
0242670730999992000101315004-18040+044030FM-12+0023FMMO V0203001N005112200019N0300001N1+02651+02411101431ADDAA199000091GA1011+006009099GA2021+006009089GF102991021091008001001001KA1120M+03101MA1999999101171MD1310041+9999REMSYN100AAXX  13154 67073 32580 23010 10265 20241 30117 40143 53004 82900 333 10310 82820 81920 94992 95812;EQDQ01  00002PRCP99
0207670730999992000101403004-18040+044030FM-12+0023FMMO V0209999C00001012001CN0200001N1+02341+02211101551ADDAA199000091GA1011+006009089GF105991051081008001001001MA1999999101291MD1310071+9999MW1401REMSYN088AAXX  14034 67073 31570 50000 10234 20221 30129 40155 53007 740// 85800 333 81820 85633;EQDQ01  00002PRCP99
0245670730999992000101406004-18040+044030FM-12+0023FMMO V0200201N002612200019N0400001N1+02991+02191101601ADDAA199000091GA1031+006909029GF103991031021008001001001KA1120M+03101KA2120N+02341MA1999999101341MD1110051+9999REMSYN106AAXX  14064 67073 32582 30205 10299 20219 30134 40160 51005 83200 333 0//00 10310 20234 50//4 55/// 83823;EQDQ01  00002PRCP99
0201670730999992000101503004-18040+044030FM-12+0023FMMO V0209999C000012200019N0200001N1+02351+02281101471ADDAA199000091GA1031+006009029GF103991031081008001001001MA1999999101211MD1310061+9999MW1401REMSYN082AAXX  15034 67073 31570 30000 10235 20228 30121 40147 53006 740// 83800 333 83820;EQDQ01  00002PRCP99
0245670730999992000101506004-18040+044030FM-12+0023FMMO V0209999C000012200019N0400001N1+03001+02341101551ADDAA199000091GA1031+006909029GF103991031021008001001001KA1120M+03071KA2120N+02331MA1999999101291MD1110081+9999REMSYN106AAXX  15064 67073 32582 30000 10300 20234 30129 40155 51008 83200 333 0//00 10307 20233 50//4 55/// 83823;EQDQ01  00002PRCP99
0245670730999992000101606004-18040+044030FM-12+0023FMMO V0202001N002612200019N0400001N1+02841+02261101631ADDAA199000091GA1011+006909029GF101991011021008001001001KA1120M+03021KA2120N+02181MA1999999101371MD1110191+9999REMSYN106AAXX  16064 67073 32582 12005 10284 20226 30137 40163 51019 81200 333 0//00 10302 20218 50//4 55/// 81823;EQDQ01  00002PRCP99
0189670730999992000101609004-18040+044030FM-12+0023FMMO V0202801N005112200019N0400001N1+02921+02311101501ADDAA199000091GA1011+006909029GF101991011021008001001001MA1999999101241MD1810131+9999REMSYN076AAXX  16094 67073 32582 12810 10292 20231 30124 40150 58013 81200 333 81823;EQDQ01  00002PRCP99
0223670730999992000101612004-18040+044030FM-12+0023FMMO V0202401N005712200019N0400001N1+02841+02321101321ADDAA199000091GA1011+006909099GA2011+006909089GF101991011091008001001001MA1999999101061MD1610181+9999REMSYN094AAXX  16124 67073 32582 12411 10284 20232 30106 40132 56018 81900 333 0//00 81823 81923 85812;EQDQ01  00002PRCP99
0201670730999992000101703004-18040+044030FM-12+0023FMMO V0209999C000012200019N0200001N1+02181+02141101581ADDAA199000091GA1011+006009029GF101991011081008001001001MA1999999101321MD1310061+9999MW1401REMSYN082AAXX  17034 67073 31570 10000 10218 20214 30132 40158 53006 740// 81800 333 81820;EQDQ01  00002PRCP99
0235670730999992000101706004-18040+044030FM-12+0023FMMO V0203001N002612200019N0400001N1+02801+02281101631ADDAA199000091GF102991021021008001001001KA1120M+02981KA2120N+02141MA1999999101371MD1110051+9999REMSYN112AAXX  17064 67073 32582 23005 10280 20228 30137 40163 51005 82200 333 0//00 10298 20214 50//4 55/// 55/// 82823;EQDQ01  00002PRCP99
0189670730999992000101709004-18040+044030FM-12+0023FMMO V0202801N005112200019N0400001N1+02941+02311101561ADDAA199000091GA1011+006909029GF101991011021008001001001MA1999999101301MD1810071+9999REMSYN076AAXX  17094 67073 32582 12810 10294 20231 30130 40156 58007 81200 333 81823;EQDQ01  00002PRCP99
0195670730999992000101712004-18040+044030FM-12+0023FMMO V0203001N006712200019N0400001N1+02881+02361101341ADDAA199000091GA1021+006909029GF102991021021008001001001MA1999999101081MD1610221+9999REMSYN082AAXX  17124 67073 32582 23013 10288 20236 30108 40134 56022 82200 333 0//00 82823;EQDQ01  00002PRCP99
0208670730999992000101715004-18040+044030FM-12+0023FMMO V0202201N005110060019N0300001N1+02661+02281101411ADDAA199000091GA1061+006009029GF106991061021008001001001KA1120M+02931MA1999999101151MD1310071+9999REMSYN082AAXX  17154 67073 32580 62210 10266 20228 30115 40141 53007 86200 333 10293 86820;EQDQ01  00002PRCP99
0211670730999992000101803004-18040+044030FM-12+0023FMMO V0209999C000012200019N0200001N1+02191+02101101391ADDAA199000091GA1011+006009089GF101991011081008001001001MA1999999101131MD1310081+9999MW1401REMSYN092AAXX  18034 67073 31570 10000 10219 20210 30113 40139 53008 740// 81800 333 81820 555 81633;EQDQ01  00002PRCP99
0245670730999992000101806004-18040+044030FM-12+0023FMMO V0203601N001512200019N0350001N1+02781+02031101461ADDAA199000091GA1011+006909029GF101991011021008001001001KA1120M+02961KA2120N+02191MA1999999101201MD1010071+9999REMSYN106AAXX  18064 67073 32581 13603 10278 20203 30120 40146 50007 81200 333 0//00 10296 20219 50//4 55/// 81823;EQDQ01  00002PRCP99
0189670730999992000101809004-18040+044030FM-12+0023FMMO V0203001N005712200019N0400001N1+02921+02201101371ADDAA199000091GA1011+006909029GF101991011021008001001001MA1999999101111MD1810091+9999REMSYN076AAXX  18094 67073 32582 13011 10292 20220 30111 40137 58009 81200 333 81823;EQDQ01  00002PRCP99
0229670730999992000101812004-18040+044030FM-12+0023FMMO V0203401N006712200019N0350001N1+02841+02191101191ADDAA199000091GA1011+006909099GA2011+006909089GF101991011091008001001001MA1999999100931MD1610181+9999REMSYN100AAXX  18124 67073 32581 13413 10284 20219 30093 40119 56018 81900 333 0//00 81823 81923 94993 95813;EQDQ01  00002PRCP99
0208670730999992000101815004-18040+044030FM-12+0023FMMO V0202401N005712200019N0300001N1+02621+02241101271ADDAA199000091GA1021+006009029GF102991021021008001001001KA1120M+02951MA1999999101011MD1310081+9999REMSYN082AAXX  18154 67073 32580 22411 10262 20224 30101 40127 53008 82200 333 10295 82820;EQDQ01  00002PRCP99
0189670730999992000101903004-18040+044030FM-12+0023FMMO V0201001N002112200019N0300001N1+02141+02081101351ADDAA199000091GA1011+006009029GF101991011081008001001001MA1999999101091MD1310071+9999REMSYN076AAXX  19034 67073 32580 11004 10214 20208 30109 40135 53007 81800 333 81820;EQDQ01  00002PRCP99
0245670730999992000101906004-18040+044030FM-12+0023FMMO V0203601N003112200019N0400001N1+02801+01981101411ADDAA199000091GA1011+006909029GF101991011021008001001001KA1120M+02951KA2120N+02141MA1999999101151MD1110061+9999REMSYN106AAXX  19064 67073 32582 13606 10280 20198 30115 40141 51006 81200 333 0//00 10295 20214 50//4 55/// 81823;EQDQ01  00002PRCP99
0189670730999992000101909004-18040+044030FM-12+0023FMMO V0203201N006712200019N0400001N1+02911+02131101351ADDAA199000091GA1011+006909029GF101991011021008001001001MA1999999101091MD1810061+9999REMSYN076AAXX  19094 67073 32582 13213 10291 20213 30109 40135 58006 81200 333 81823;EQDQ01  00002PRCP99
0229670730999992000101912004-18040+044030FM-12+0023FMMO V0202801N006712200019N0400001N1+02821+02271101211ADDAA199000091GA1011+006909099GA2011+006909089GF101991011091008001001001MA1999999100951MD1610141+9999REMSYN100AAXX  19124 67073 32582 12813 10282 20227 30095 40121 56014 81900 333 0//00 81823 81923 94992 95812;EQDQ01  00002PRCP99
0208670730999992000101915004-18040+044030FM-12+0023FMMO V0202601N005112200019N0300001N1+02611+02211101281ADDAA199000091GA1021+006009029GF102991021021008001001001KA1120M+02981MA1999999101021MD1310071+9999REMSYN082AAXX  19154 67073 32580 22610 10261 20221 30102 40128 53007 82200 333 10298 82820;EQDQ01  00002PRCP99
0193670730999992000102003004-18040+044030FM-12+0023FMMO V0209999C000012200019N0300001N1+99999+99999101431ADDAA199000091GA1011+006009089GF101991011081008001001001MA1999999101171MD1310111+9999REMSYN080AAXX  20034 67073 33580 10000 20205 30117 40143 53011 81800 333 81820 555 81630;EQDQ01  00002PRCP99
0233670730999992000102006004-18040+044030FM-12+0023FMMO V0202001N002112200019N0400001N1+02831+02041101551ADDAA199000091GA1001+999999999GF100991001001999999001001KA1120M+02981KA2120N+02171MA1999999101291MD1110121+9999REMSYN094AAXX  20064 67073 32982 02004 10283 20204 30129 40155 51012 333 0//00 10298 20217 50//4 55///;EQDQ01  00002PRCP99
0189670730999992000102009004-18040+044030FM-12+0023FMMO V0202801N005712200019N0400001N1+02881+02141101501ADDAA199000091GA1011+006909029GF101991011021008001001001MA1999999101241MD1810051+9999REMSYN076AAXX  20094 67073 32582 12811 10288 20214 30124 40150 58005 81200 333 81823;EQDQ01  00002PRCP99
0229670730999992000102012004-18040+044030FM-12+0023FMMO V0202801N006712200019N0400001N1+02821+02201101351ADDAA199000091GA1011+006909099GA2011+006909089GF101991011091008001001001MA1999999101091MD1610151+9999REMSYN100AAXX  20124 67073 32582 12813 10282 20220 30109 40135 56015 81900 333 0//00 81823 81923 94992 95812;EQDQ01  00002PRCP99
0189670730999992000102103004-18040+044030FM-12+0023FMMO V0201201N002612200019N0300001N1+02151+02011101561ADDAA199000091GA1021+006009029GF102991021081008001001001MA1999999101301MD1310111+9999REMSYN076AAXX  21034 67073 33580 21205 10215 20201 30130 40156 53011 82800 333 82820;EQDQ01  00002PRCP99
0245670730999992000102106004-18040+044030FM-12+0023FMMO V0202201N002612200019N0400001N1+02751+02111101721ADDAA199000091GA1021+006909029GF102991021021008001001001KA1120M+02931KA2120N+02121MA1999999101461MD1110161+9999REMSYN106AAXX  21064 67073 32582 22205 10275 20211 30146 40172 51016 82200 333 0//00 10293 20212 50//4 55/// 82823;EQDQ01  00002PRCP99
0199670730999992000102203004-18040+044030FM-12+0023FMMO V0201401N002612200019N0300001N1+02201+02121101531ADDAA199000091GA1021+006009089GF102991021081008001001001MA1999999101271MD1310031+9999REMSYN086AAXX  22034 67073 33580 21405 10220 20212 30127 40153 53003 82800 333 82820 555 81630;EQDQ01  00002PRCP99
0245670730999992000102206004-18040+044030FM-12+0023FMMO V0202201N003612200019N0400001N1+02841+02191101621ADDAA199000091GA1021+006909029GF102991021021008001001001KA1120M+02951KA2120N+02131MA1999999101361MD1110091+9999REMSYN106AAXX  22064 67073 32582 22207 10284 20219 30136 40162 51009 82200 333 0//00 10295 20213 5///4 55/// 82823;EQDQ01  00002PRCP99
0189670730999992000102303004-18040+044030FM-12+0023FMMO V0209999C000012200019N0300001N1+02201+02141101411ADDAA199000091GA1021+006009029GF102991021021008001001001MA1999999101151MD1310031+9999REMSYN076AAXX  23034 67073 33580 20000 10220 20214 30115 40141 53003 82200 333 82820;EQDQ01  00002PRCP99
0245670730999992000102306004-18040+044030FM-12+0023FMMO V0202401N002612200019N0400001N1+02841+02191101501ADDAA199000091GA1031+006909029GF103991031021008001001001KA1120M+02971KA2120N+02181MA1999999101241MD1110091+9999REMSYN106AAXX  23064 67073 32582 32405 10284 20219 30124 40150 51009 83200 333 0//00 10297 20218 50//4 55/// 83823;EQDQ01  00002PRCP99
0189670730999992000102309004-18040+044030FM-12+0023FMMO V0202601N005112200019N0400001N1+02851+02191101401ADDAA199000091GA1031+006909029GF103991031021008001001001MA1999999101141MD1810101+9999REMSYN076AAXX  23094 67073 32582 32610 10285 20219 30114 40140 58010 83200 333 83823;EQDQ01  00002PRCP99
0229670730999992000102312004-18040+044030FM-12+0023FMMO V0202601N006212200019N0400001N1+02831+02201101201ADDAA199000091GA1011+006909099GA2031+006909089GF103991031091008001001001MA1999999100941MD1610201+9999REMSYN100AAXX  23124 67073 32582 32612 10283 20220 30094 40120 56020 83900 333 0//00 83823 81923 94992 95812;EQDQ01  00002PRCP99
0242670730999992000102315004-18040+044030FM-12+0023FMMO V0202401N004612200019N0300001N1+02621+02211101331ADDAA199000091GA1011+006009099GA2031+006009089GF103991031091008001001001KA1120M+02931MA1999999101071MD1310131+9999REMSYN100AAXX  23154 67073 32580 32409 10262 20221 30107 40133 53013 83900 333 10293 83820 81920 94992 95812;EQDQ01  00002PRCP99
0189670730999992000102703004-18040+044030FM-12+0023FMMO V0209999C000012200019N0300001N1+02341+02211101551ADDAA199000091GA1031+006009029GF104991031081008001031001MA1999999101291MD1310021+9999REMSYN076AAXX  27034 67073 33580 40000 10234 20221 30129 40155 53002 83830 333 83820;EQDQ01  00002PRCP99
0245670730999992000102706004-18040+044030FM-12+0023FMMO V0202001N002112200019N0400001N1+03021+02331101591ADDAA199000091GA1011+006909029GF101991011021008001001021KA1120M+03101KA2120N+02341MA1999999101331MD1110051+9999REMSYN106AAXX  27064 67073 32582 12004 10302 20233 30133 40159 51005 81202 333 0//00 10310 20234 50//4 55/// 81823;EQDQ01  00002PRCP99
0189670730999992000102709004-18040+044030FM-12+0023FMMO V0202201N005712200019N0400001N1+03021+02481101281ADDAA199000091GA1021+006909029GF102991021021008001001001MA1999999101221MD1810111+9999REMSYN076AAXX  27094 67073 32582 22211 10302 20248 30122 40128 58011 82200 333 82823;EQDQ01  00002PRCP99
0289670730999992000102712004-18040+044030FM-12+0023FMMO V0202601N006212200019N0300001N1+02971+02551101291ADDAA199000091AY191061AY201061GA1041+001509099GA2011+006909099GA3031+006909089GF199999031091008001001001MA1999999101031MD1610191+9999MW1291REMSYN106AAXX  27124 67073 31580 32612 10297 20255 30103 40129 56019 72990 83900 333 0//00 83823 81923 84992 95832;EQDQ01+000032SCOTCVQ02  00002PRCP99
0292670730999992000102715004-18040+044030FM-12+0023FMMO V0202201N00261009001CN0200001N1+02781+02481101551ADDAA199000091AY191031AY211031GA1011+006009099GA2041+006009089GA3041+009009069GF107991071091008001999999KA1120M+03071MA1999999101291MD1310261+9999MW1171REMSYN112AAXX  27154 67073 31570 72205 10278 20248 30129 40155 53026 71791 879// 333 10307 84820 81920 84630 94992 95832;EQDQ01  00002PRCP99
0199670730999992000102803004-18040+044030FM-12+0023FMMO V0209999C000012200019N0300001N1+02341+02251101441ADDAA199000091GA1021+006009089GF102991021021008001001021MA1999999101181MD1310031+9999REMSYN086AAXX  28034 67073 33580 20000 10234 20225 30118 40144 53003 82202 333 82820 555 81073;EQDQ01  00002PRCP99
0255670730999992000102806004-18040+044030FM-12+0023FMMO V0202001N003112200019N0400001N1+02851+02321101461ADDAA199000091GA1011+006909089GF101991011021004501001021KA1120M+03071KA2120N+02271MA1999999101201MD1010021+9999REMSYN116AAXX  28064 67073 32482 12006 10285 20232 30120 40146 50002 81202 333 0//00 10307 20227 50//4 55/// 81823 555 81073;EQDQ01  00002PRCP99
0189670730999992000102903004-18040+044030FM-12+0023FMMO V0209999C000012200019N0300001N1+02351+02191101301ADDAA199000091GA1031+006009029GF104991041081008001001021MA1999999101041MD1310021+9999REMSYN076AAXX  29034 67073 33580 40000 10235 20219 30104 40130 53002 84802 333 83820;EQDQ01  00002PRCP99
0245670730999992000102906004-18040+044030FM-12+0023FMMO V0202601N003611050019N0350001N1+02861+02281101421ADDAA199000091GA1041+006009029GF105991041021008001001021KA1120M+03011KA2120N+02311MA1999999101161MD1110121+9999REMSYN106AAXX  29064 67073 32581 52607 10286 20228 30116 40142 51012 84202 333 0//00 10301 20231 50//4 55/// 84820;EQDQ01  00002PRCP99
0245670730999992000103006004-18040+044030FM-12+0023FMMO V0202601N002610060019N0350001N1+02781+02061101451ADDAA199000091GA1051+006009029GF105991051021008001001001KA1120M+03001KA2120N+02201MA1999999101191MD1110201+9999REMSYN106AAXX  30064 67073 32581 52605 10278 20206 30119 40145 51020 85200 333 0//00 10300 20220 5///4 55/// 85820;EQDQ01  00002PRCP99
0189670730999992000103009004-18040+044030FM-12+0023FMMO V0202401N005112200019N0400001N1+02921+02161101411ADDAA199000091GA1021+006909029GF102991021021008001001001MA1999999101151MD1810041+9999REMSYN076AAXX  30094 67073 32582 22410 10292 20216 30115 40141 58004 82200 333 82823;EQDQ01  00002PRCP99
0229670730999992000103012004-18040+044030FM-12+0023FMMO V0202601N005112200019N0400001N1+02921+02161101311ADDAA199000091GA1011+006909099GA2021+006909089GF102991021091008001001021MA1999999101051MD1610101+9999REMSYN100AAXX  30124 67073 32582 22610 10292 20216 30105 40131 56010 82902 333 0//00 82823 81923 94492 95812;EQDQ01  00002PRCP99
0242670730999992000103015004-18040+044030FM-12+0023FMMO V0202201N004112200019N0300001N1+02561+02191101361ADDAA199000091GA1011+006009099GA2011+006009089GF101991011091008001001001KA1120M+02991MA1999999101101MD1310051+9999REMSYN100AAXX  30154 67073 32580 12208 10256 20219 30110 40136 53005 81900 333 10299 81820 81920 94992 95812;EQDQ01  00002PRCP99
0251670730999992000103106004-18040+044030FM-12+0023FMMO V0202401N00261105001CN0400001N1+02811+01801101571ADDAA199000091GA1011+006909089GF105991011021008001001051KA1120M+02991KA2120N+02201MA1999999101311MD1110061+9999REMSYN112AAXX  31064 67073 32582 52405 10281 20180 30131 40157 51006 81205 333 0//00 10299 20220 50//4 55/// 81823 85273;EQDQ01  00002PRCP99
0195670730999992000103109004-18040+044030FM-12+0023FMMO V0202201N00511105001CN0400001N1+02901+02101101501ADDAA199000091GA1011+006909089GF105991011021008001001051MA1999999101241MD1810071+9999REMSYN082AAXX  31094 67073 32582 52210 10290 20210 30124 40150 58007 81205 333 81823 85273;EQDQ01  00002PRCP99
0251670730999992000103112004-18040+044030FM-12+0023FMMO V0202201N006710690019N0400001N1+02841+02061101351ADDAA199000091GA1011+006909099GA2011+006909089GA3051+069009029GF105991011091008001001051MA1999999101091MD1610151+9999REMSYN106AAXX  31124 67073 32582 52213 10284 20206 30109 40135 56015 81905 333 0//00 81823 81923 85273 94992 95912;EQDQ01  00002PRCP99
0195670730999992000110103004-18040+044030FM-12+0023FMMO V0201801N002119999999N0300001N1+02271+01961101451ADDAA199000091GA1021+030009039GF106991021001999999031051MA1999999101191MD1310021+9999REMSYN082AAXX  01034 67073 33980 61804 10227 20196 30119 40145 53002 82035 333 82360 85273;EQDQ01  00002PRCP99
0245670730999992000110106004-18040+044030FM-12+0023FMMO V0202401N002612200019N0400001N1+02911+02021101501ADDAA199000091GA1031+069009019GF103991001001999999001021KA1120M+02951KA2120N+02201MA1999999101241MD1010051+9999REMSYN106AAXX  01064 67073 32982 32405 10291 20202 30124 40150 50005 80002 333 0//00 10295 20220 50//4 55/// 83073;EQDQ01  00002PRCP99
0245670730999992000110206004-18040+044030FM-12+0023FMMO V0202401N003112200019N0400001N1+02881+02171101281ADDAA199000091GA1021+006909029GF103991021021008001031001KA1120M+03031KA2120N+02341MA1999999101021MD1110061+9999REMSYN106AAXX  02064 67073 32582 32406 10288 20217 30102 40128 51006 82230 333 0//00 10303 20234 50//4 55/// 82823;EQDQ01  00002PRCP99
0195670730999992000110503004-18040+044030FM-12+0023FMMO V0209999C00001012001CN0300001N1+02501+02431101521ADDAA199000091GA1031+006009089GF107991071081008001999999MA1999999101261MD1310101+9999REMSYN082AAXX  05034 67073 33580 70000 10250 20243 30126 40152 53010 878// 333 83820 85630;EQDQ01  00002PRCP99
0255670730999992000110506004-18040+044030FM-12+0023FMMO V0203201N003612200019N0400001N1+03031+02391101531ADDAA199000091GA1021+006909089GF102991021021008001001021KA1120M+03211KA2120N+02501MA1999999101271MD1010011+9999REMSYN116AAXX  05064 67073 32582 23207 10303 20239 30127 40153 50001 82202 333 0//00 10321 20250 50//4 55/// 82823 555 81073;EQDQ01  00002PRCP99
0182670730999992000110603004-18040+044030FM-12+0023FMMO V0209999C00001012001CN0300001N1+02351+02251101341ADDAA112003091GA1021+006009089GF106991061081008001031001MA1999999101081MD1510041+9999REMSYN088AAXX  06034 67073 23580 60000 10235 20225 30108 40134 55004 86830 333 60032 82820 85630;
0244670730999992000110606004-18040+044030FM-12+0023FMMO V0201801N00261045001CN0400001N1+02901+02231101391ADDAA124003091AC13I9GA1011+006909089GF106991011021008001031051KA1120M+03201KA2120N+02341MA1999999101131MD1010051+9999REMSYN118AAXX  06064 67073 12582 61805 10290 20223 30113 40139 50005 60034 81235 333 0//17 10320 20234 50//4 55/// 81823 85273;
0245670730999992000110706004-18040+044030FM-12+0023FMMO V0200201N003612200019N0400001N1+03001+02211101201ADDAA199000091GA1021+006909029GF102991021021008001001001KA1120M+03051KA2120N+02241MA1999999100941MD1010061+9999REMSYN106AAXX  07064 67073 32582 20207 10300 20221 30094 40120 50006 82200 333 0//00 10305 20224 5///4 55/// 82823;EQDQ01  00002PRCP99
0257670730999992000110709004-18040+044030FM-12+0023FMMO V0200601N002112200019N0200001N1+02811+02461101151ADDAA106999999AY191031AY201031GA1011+006009099GA2041+006009089GF104991041091008001001001MA1999999100891MD1810051+9999MW1951REMSYN106AAXX  07094 67073 21570 40604 10281 20246 30089 40115 58005 79590 84900 333 65911 84820 81920 94992 95872;EQDQ01  59102PRCP06
0250670730999992000110712004-18040+044030FM-12+0023FMMO V0203401N005710060019N0300001N1+03001+02401101081ADDAA106000191AC13C9AY191061AY211061GA1011+006009099GA2041+006009089GF105991051091008001001001MA1999999100821MD1610071+9999MW1031REMSYN112AAXX  07124 67073 11580 53411 10300 20240 30082 40108 56007 69921 70391 85900 333 0//13 84820 81920 94992 95832;
0242670730999992000110715004-18040+044030FM-12+0023FMMO V0203401N003612200019N0300001N1+01832+99999101211ADDAA199000021GA1011+006009099GA2031+006009089GF104991031091008001001031KA1120M+03121MA1999999100951MD1310131+9999REMSYN100AAXX  07154 67073 32580 43407 10183 20245 30095 40121 53013 83903 333 10312 83820 81920 94992 95812;EQDQ01+001833ATOT  
0223670730999992000110803004-18040+044030FM-12+0023FMMO V0201001N002610450019N0300001N1+02401+02281101321ADDAA199000091GA1011+006009099GA2041+006009089GF105991041091008001031001MA1999999101061MD1310081+9999REMSYN094AAXX  08034 67073 33580 51005 10240 20228 30106 40132 53008 84930 333 84820 81920 94992 95812;EQDQ01  00002PRCP99
0232670730999992000110806004-18040+044030FM-12+0023FMMO V0202201N003112200019N0400001N1+03001+02431101411ADDAA124000191GA1041+006009029GF104991041021008001001021KA1120M+03121KA2120N+02401MA1999999101151MD1110091+9999REMSYN112AAXX  08064 67073 12582 42206 10300 20243 30115 40141 51009 69924 84202 333 0//19 10312 20240 50//4 55/// 84820;
0251670730999992000110809004-18040+044030FM-12+0023FMMO V0202201N004119999999N0200001N1+02891+02481101281ADDAA199000091AY191031AY201031GA1011+006009099GA2041+006009089GF105991041091008001001001MA1999999101021MD1810131+9999MW1171REMSYN100AAXX  08094 67073 31570 52208 10289 20248 30102 40128 58013 71790 84900 333 84820 81920 94992 95832;EQDQ01  00002PRCP99
0257670730999992000110812004-18040+044030FM-12+0023FMMO V0202401N004112200019N0400001N1+03031+02481101081ADDAA199000091AY191061AY211061GA1011+006909099GA2031+006909089GF103991031091008001001001MA1999999100821MD1610201+9999MW1011REMSYN106AAXX  08124 67073 31582 32408 10303 20248 30082 40108 56020 70191 83900 333 0//00 83823 81923 94992 95812;EQDQ01  00002PRCP99
0254670730999992000110815004-18040+044030FM-12+0023FMMO V0202601N002610450019N0300001N1+02851+02501101151ADDAA199000091GA1011+030009039GF105991031091008001031031KA1120M+03111MA1999999100891MD1310071+9999REMSYN128AAXX  08154 67073 32580 52605 10285 20250 30089 40115 53007 83933 333 10311 83820 81920 94991 94993 95811 95813 555 81360 82073;EQDQ01  00002PRCP99
0245670730999992000110903004-18040+044030FM-12+0023FMMO V0201001N002610690019N0300001N1+02351+02231101111ADDAA199000091GA1011+006009099GA2021+006009089GA3051+069009029GF106991021091008001001051MA1999999100851MD1510061+9999REMSYN100AAXX  09034 67073 32580 61005 10235 20223 30085 40111 55006 82905 333 82820 81920 85273 94998 95818;EQDQ01  00002PRCP99
0251670730999992000110906004-18040+044030FM-12+0023FMMO V0201001N003612200019N0400001N1+03071+02081101261ADDAA199000091GA1011+006909089GF104991011021008001001051KA1120M+03111KA2120N+02331MA1999999101001MD1110151+9999REMSYN112AAXX  09064 67073 32582 41007 10307 20208 30100 40126 51015 81205 333 0//00 10311 20233 50//4 55/// 81823 84273;EQDQ01  00002PRCP99
0233670730999992000110909004-18040+044030FM-12+0023FMMO V0202201N004612200019N0400001N1+03081+02301101151ADDAA199000091GA1011+006909099GA2031+006909089GF104991031091008001001021MA1999999100891MD1810111+9999REMSYN104AAXX  09094 67073 32582 42209 10308 20230 30089 40115 58011 83902 333 83823 81923 94993 95813 555 81073;EQDQ01  00002PRCP99
0229670730999992000110912004-18040+044030FM-12+0023FMMO V0202601N005712200019N0400001N1+03051+02351100961ADDAA199000091GA1011+006909099GA2031+006909089GF104991041091008001001021MA1999999100701MD1610191+9999REMSYN100AAXX  09124 67073 32582 42611 10305 20235 30070 40096 56019 84902 333 0//00 83823 81923 94992 95832;EQDQ01  00002PRCP99
0223670730999992000111003004-18040+044030FM-12+0023FMMO V0200401N002612200019N0300001N1+02301+02151101151ADDAA199000091GA1011+006009099GA2021+006009089GF103991021091008001001021MA1999999100891MD1310041+9999REMSYN094AAXX  10034 67073 33580 30405 10230 20215 30089 40115 53004 82902 333 82820 81920 94998 95810;EQDQ01  00002PRCP99
0279670730999992000111006004-18040+044030FM-12+0023FMMO V0200401N003612200019N0400001N1+03031+01921101301ADDAA199000091GA1011+006909099GA2021+006909089GF102991021091008001001001KA1120M+03371KA2120N+02301MA1999999101041MD1110151+9999REMSYN124AAXX  10064 67073 32582 20407 10303 20192 30104 40130 51015 82900 333 0//00 10337 20230 50//4 55/// 82823 81923 94996 95816;EQDQ01  00002PRCP99
0223670730999992000111009004-18040+044030FM-12+0023FMMO V0202801N005712200019N0400001N1+03101+02361101201ADDAA199000091GA1011+006909099GA2031+006909089GF103991031091008001001021MA1999999100941MD1810101+9999REMSYN094AAXX  10094 67073 32582 32811 10310 20236 30094 40120 58010 83902 333 83823 81923 94995 95815;EQDQ01  00002PRCP99
0251670730999992000111012004-18040+044030FM-12+0023FMMO V0203201N006710750019N0400001N1+03021+02421101061ADDAA199000091GA1011+006909099GA2031+006909089GA3031+075009029GF105991031091008001001051MA1999999100801MD1610141+9999REMSYN106AAXX  10124 67073 32582 53213 10302 20242 30080 40106 56014 83905 333 0//00 83823 81923 83275 94993 95813;EQDQ01  00002PRCP99
0282670730999992000111015004-18040+044030FM-12+0023FMMO V0202801N00311007501CN0250001N1+02811+02481101191ADDAA199000091AY191031AY221031GA1021+009009069GF107991051091008001001031KA1120M+03191MA1999999100831MD1310131+9999MW1171REMSYN134AAXX  10154 67073 31575 72806 10281 20248 30083 40119 53013 71792 85903 333 10319 84820 81920 94992 94996 95812 95816 555 82630 82073;EQDQ01  00002PRCP99
0267670730999992000111103004-18040+044030FM-12+0023FMMO V0209999C000010690019N0350001N1+02451+02271101311ADDAA199000091GA1011+006009099GA2021+006009089GA3051+069009029GA4051+069009029GF106991021091008001001051MA1999999101051MD1310091+9999REMSYN106AAXX  11034 67073 33581 60000 10245 20227 30105 40131 53009 82905 333 82820 81920 85273 85273 94996 95816;EQDQ01  00002PRCP99
0251670730999992000111106004-18040+044030FM-12+0023FMMO V0202001N00261105001CN0400001N1+03031+02391101421ADDAA199000091GA1011+006909089GF105991011021008001001051KA1120M+03191KA2120N+02341MA1999999101161MD1110111+9999REMSYN112AAXX  11064 67073 32582 52005 10303 20239 30116 40142 51011 81205 333 0//00 10319 20234 50//4 55/// 81823 85273;EQDQ01  00002PRCP99
0195670730999992000111203004-18040+044030FM-12+0023FMMO V0200201N00211220001CN0300001N1+02381+02251101291ADDAA199000091GA1011+009009069GF106991011051008001001061MA1999999101031MD1310051+9999REMSYN082AAXX  12034 67073 33580 60204 10238 20225 30103 40129 53005 81506 333 81630 86273;EQDQ01  00002PRCP99
0251670730999992000111206004-18040+044030FM-12+0023FMMO V0200201N00411105001CN0350001N1+03061+02221101321ADDAA199000091GA1021+006909089GF105991021081008001001051KA1120M+03151KA2120N+02341MA1999999101061MD1010031+9999REMSYN112AAXX  12064 67073 32581 50208 10306 20222 30106 40132 50003 82805 333 0//00 10315 20234 50//4 55/// 82823 83273;EQDQ01  00002PRCP99
0221670730999992000111303004-18040+044030FM-12+0023FMMO V0201001N002610690019N0300001N1+02381+02111101091ADDAA199000091GA1011+009009069GA2051+069009029GF106991011051008001031051MA1999999100831MD1310011+9999REMSYN092AAXX  13034 67073 33580 61005 10238 20211 30083 40109 53001 81535 333 81630 85273 555 81360;EQDQ01  00002PRCP99
0279670730999992000111306004-18040+044030FM-12+0023FMMO V0203601N002112200019N0400001N1+03021+02101101231ADDAA199000091GA1011+012009069GF104991011091008001001051KA1120M+03321KA2120N+02361MA1999999100971MD1110141+9999REMSYN140AAXX  13064 67073 32582 43604 10302 20210 30097 40123 51014 81905 333 0//00 10332 20236 50//4 55/// 81823 81923 94996 95816 555 81640 83273;EQDQ01  00002PRCP99
0279670730999992000111312004-18040+044030FM-12+0023FMMO V0202801N004610690019N0250001N1+03121+02251100961ADDAA199000091AY191061AY211061GA1011+006009099GA2031+006009089GA3031+069009029GF105991041091008001001051MA1999999100701MD1610131+9999MW1171REMSYN112AAXX  13124 67073 31575 52809 10312 20225 30070 40096 56013 71791 84905 333 0///0 83820 81920 83273 94992 95832;EQDQ01  00002PRCP99
0322670730999992000111406004-18040+044030FM-12+0023FMMO V0200601N003610099019N0250001N1+02591+02461101231ADDAA124005191AC13C9AY191061AY261061GA1011+006009099GA2031+006009089GA3051+009909069GF107991071091008001999999KA1120M+03191KA2120N+02341MA1999999100971MD1110051+9999MW1151REMSYN142AAXX  14064 67073 11575 70607 10259 20246 30097 40123 51005 60054 71596 879// 333 0//13 10319 20234 50//4 55/// 83820 81920 85633 94993 95833;
0261670730999992000111412004-18040+044030FM-12+0023FMMO V0203401N006210690019N0350001N1+02901+02511100981ADDAA199000091GA1011+006009099GA2021+006009089GA3061+069009029GF107991051091008001001061MA1999999100721MD1610061+9999REMSYN116AAXX  14124 67073 32581 73412 10290 20251 30072 40098 56006 85906 333 0//00 82820 81920 86273 94992 95832 555 82633;EQDQ01  00002PRCP99
0274670730999992000111415004-18040+044030FM-12+0023FMMO V0201601N004610750019N0300001N1+02621+02331101101ADDAA199000091GA1011+006009099GA2031+006009089GA3061+075009029GF107991051091008001001061KA1120M+03201MA1999999100841MD1310121+9999REMSYN116AAXX  14154 67073 32580 71609 10262 20233 30084 40110 53012 85906 333 10320 83820 81920 86275 94993 95833 555 82630;EQDQ01  00002PRCP99
0245670730999992000111503004-18040+044030FM-12+0023FMMO V0209999C000010090019N0300001N1+02421+02351101181ADDAA199000091GA1011+006009099GA2031+006009089GA3051+009009069GF107991071091008001999999MA1999999100921MD1310091+9999REMSYN100AAXX  15034 67073 33580 70000 10242 20235 30092 40118 53009 879// 333 83820 81920 85630 94994 95814;EQDQ01  00002PRCP99
0251670730999992000111506004-18040+044030FM-12+0023FMMO V0201001N00261105001CN0400001N1+02981+02321101221ADDAA199000091GA1021+006909089GF106991021021008001001051KA1120M+03201KA2120N+02381MA1999999100961MD1110041+9999REMSYN112AAXX  15064 67073 32582 61005 10298 20232 30096 40122 51004 82205 333 0//00 10320 20238 50//4 55/// 82823 85273;EQDQ01  00002PRCP99
0223670730999992000111509004-18040+044030FM-12+0023FMMO V0202801N005112200019N0400001N1+03001+02401101071ADDAA199000091GA1011+006909099GA2041+006909089GF104991041091008001001001MA1999999100801MD1810151+9999REMSYN094AAXX  15094 67073 32582 42810 10300 20240 30080 40107 58015 84900 333 84823 81923 94993 95813;EQDQ01  00002PRCP99
0236670730999992000111512004-18040+044030FM-12+0023FMMO V0203201N006212200019N0250001N1+03001+02431100921ADDAA199000091AY191061AY211061GF104991041091008001001001MA1999999100661MD1610151+9999MW1171REMSYN117AAXX  15124 67073 31575 43212 10300 20243 30066 40092 56015 71791 84900 33 0//00 83823 81920 94992 94993 95832 95813;EQDQ01  00002PRCP99
0304670730999992000111515004-18040+044030FM-12+0023FMMO V0203001N002610090019N0200001N1+02811+02431101061ADDAA199000091AY191031AY211031GA1011+006009099GA2031+006009089GA3041+009009069GF107991071091008001999999KA1120M+03101MA1999999100801MD1310141+9999MW1171REMSYN124AAXX  15154 67073 31570 73005 10281 20243 30080 40106 53014 71791 879// 333 10310 83820 81920 84630 94992 94996 95832 95816;EQDQ01  00002PRCP99
0318670730999992000111612004-18040+044030FM-12+0023FMMO V0201201N002610090019N0060001N1+02281+02241100861ADDAA106029091AC11C9AY191061AY291061GA1011+006009099GA2031+006009089GA3041+009009069GA4031+030009039GF107991061091008001071999MA1999999100601MD1610171+9999MW1951REMSYN148AAXX  16124 67073 11556 71205 10228 20224 30060 40086 56017 60291 79599 8697/ 333 0//21 83820 81920 84630 83360 94992 94994 94996 95832 95834 95836;
0264670730999992000111715004-18040+044030FM-12+0023FMMO V0203601N00361012001CN0300001N1+02661+02341100901ADDAA199000091GA1011+006009099GA2041+006009089GA3031+012009069GF106991061091008001001001KA1120M+02821MA1999999100641MD1310031+9999REMSYN106AAXX  17154 67073 32580 63607 10266 20234 30064 40090 53003 86900 333 10282 84820 81920 83640 94993 95833;EQDQ01  00002PRCP99
0300670730999992000111806004-18040+044030FM-12+0023FMMO V0203601N004610450019N0400001N1+02521+02261100911ADDAA124006191AC11I9AY191061AY261061GA1011+006909099GA2031+006909089GF105991041091008001031001KA1120M+02821KA2120N+02321MA1999999100651MD1110111+9999MW1011REMSYN136AAXX  18064 67073 11582 53609 10252 20226 30065 40091 51011 60064 70196 84930 333 0//15 10282 20232 50//4 55/// 83823 81923 94997 95817;
0182670730999992000111903004-18040+044030FM-12+0023FMMO V0200601N00361105001CN0400001N1+02361+02271100901ADDAA124006091GA1031+006009069GF105991031021008001001021MA1999999100641MD1310171+9999REMSYN088AAXX  19034 67073 33582 50607 10236 20227 30064 40090 53017 83202 333 60064 83620 83073;
0257670730999992000112003004-18040+044030FM-12+0023FMMO V0200401N002610690019N0300001N1+02461+02371101091ADDAA199000091GA1011+006009099GA2031+006009089GA3061+069009029GF107991031091008001001061MA1999999100831MD1310131+9999REMSYN112AAXX  20034 67073 33580 70405 10246 20237 30083 40109 53013 83906 333 83820 81920 86273 94996 94998 95816 95818;EQDQ01  00002PRCP99
0273670730999992000112015004-18040+044030FM-12+0023FMMO V0200201N003610690019N0300001N1+02781+02541101021ADDAA106007091GA1011+006009099GA2031+006009089GA3061+069009029GF106991051091008001001061KA1120M+03391MA1999999100761MD1310031+9999REMSYN134AAXX  20154 67073 22580 60207 10278 20254 30076 40102 53003 85906 333 10339 60071 83820 81920 86273 94992 94996 95812 95816 555 82630;
0266670730999992000112106004-18040+044030FM-12+0023FMMO V0200401N007210450019N0400001N1+03021+02271101241ADDAA124007191GA1011+030009039GF105991041091008001031021KA1120M+03391KA2120N+02521MA1999999100981MD1110081+9999REMSYN146AAXX  21064 67073 12582 50414 10302 20227 30098 40124 51008 60074 84932 333 0//19 10339 20252 50//4 55/// 84820 81920 94996 95816 555 81360 81073;
0223670730999992000112109004-18040+044030FM-12+0023FMMO V0203601N00571007501CN0400001N1+03081+02491101071ADDAA199000091GA1021+012009069GF107991061091008001001021MA1999999100811MD1810171+9999REMSYN110AAXX  21094 67073 32582 73611 10308 20249 30081 40107 58017 86902 333 85820 81920 94996 95816 555 82640 82073;EQDQ01  00002PRCP99
0240670730999992000112203004-18040+044030FM-12+0023FMMO V0209999C00001007501CN0200001N1+02501+02461101201ADDAA112000291AY191031GA1011+006009099GA2031+006009089GF105991051091008001001001MA1999999100941MD1310101+9999MW1951REMSYN116AAXX  22034 67073 21570 50000 10250 20246 30094 40120 53010 7959/ 85900 333 69922 83820 81920 94996 95836 555 82630;
0287670730999992000112309004-18040+044030FM-12+0023FMMO V0203601N00461007501CN0250001N1+02921+02471101321ADDAA199000091AY121031AY221031GA1011+030009039GF107991051091008001031021MA1999999101061MD1810131+9999MW1151REMSYN152AAXX  23094 67073 31575 73609 10292 20247 30106 40132 58013 71522 85932 333 85820 81920 94992 94994 94995 94998 94912 94914 94916 95818 555 81360 81073;EQDQ01  00002PRCP99
0293670730999992000112312004-18040+044030FM-12+0023FMMO V0203401N005110060019N0250001N1+03021+02571101201ADDAA199000091AY121061AY221061GA1011+006009099GA2041+006009089GF107991061091008001001031MA1999999100941MD1810121+9999MW1151REMSYN142AAXX  23124 67073 31575 73410 10302 20257 30094 40120 58012 71522 86903 333 0//00 84820 81920 94992 94994 94996 94998 95832 95814 95816 95818;EQDQ01  00002PRCP99
0266670730999992000112406004-18040+044030FM-12+0023FMMO V0200201N002612200019N0400001N1+02831+02451101411ADDAA124006191GA1011+006909099GA2041+006909089GF104991041091008001001001KA1120M+03021KA2120N+02371MA1999999101151MD1110081+9999REMSYN130AAXX  24064 67073 32582 40205 10283 20245 30115 40141 51008 60064 84900 333 0//19 10302 20237 50//4 55/// 84823 81923 94996 95816;
0229670730999992000112412004-18040+044030FM-12+0023FMMO V0203401N006212200019N0400001N1+03001+02521101101ADDAA199000091GA1011+006909099GA2021+006909089GF103991031091008001001001MA1999999100841MD1610181+9999REMSYN100AAXX  24124 67073 32582 33412 10300 20252 30084 40110 56018 83900 333 0//00 82823 81923 94992 95812;EQDQ01  00002PRCP99
0279670730999992000112506004-18040+044030FM-12+0023FMMO V0201201N002110060019N0400001N1+03031+02421101521ADDAA199000091GA1011+006009099GA2061+006009089GF106991061091008001001001KA1120M+03031KA2120N+02471MA1999999101261MD1110121+9999REMSYN124AAXX  25064 67073 32582 61204 10303 20242 30126 40152 51012 86900 333 0//00 10303 20247 50//4 55/// 86820 81920 94995 95815;EQDQ01  00002PRCP99
0279670730999992000112606004-18040+044030FM-12+0023FMMO V0201801N002112200019N0400001N1+03001+02461101381ADDAA199000091GA1011+006009099GA2041+006009089GF104991041091008001001001KA1120M+03101KA2120N+02461MA1999999101121MD1110081+9999REMSYN124AAXX  26064 67073 32582 41804 10300 20246 30112 40138 51008 84900 333 0//00 10310 20246 50//4 55/// 84820 81920 94997 95817;EQDQ01  00002PRCP99
0232670730999992000112706004-18040+044030FM-12+0023FMMO V0201801N002110060019N0400001N1+02981+02631101531ADDAA124021191GA1061+006009029GF106991061021008001001001KA1120M+03101KA2120N+02411MA1999999101271MD1110081+9999REMSYN112AAXX  27064 67073 12582 61804 10298 20263 30127 40153 51008 60214 86200 333 0//69 10310 20241 50//4 55/// 86820;
0279670730999992000112712004-18040+044030FM-12+0023FMMO V0201801N002610090019N0150001N1+02921+02471101311ADDAA199000091AY191061AY211061GA1011+006009099GA2031+006009089GA3031+009009069GF106991061091008001001001MA1999999101051MD1510091+9999MW1171REMSYN112AAXX  27124 67073 31565 61805 10292 20247 30105 40131 55009 71791 86900 333 0//00 83820 81920 83630 94992 95832;EQDQ01  00002PRCP99
0279670730999992000112806004-18040+044030FM-12+0023FMMO V0200601N004111050019N0400001N1+03001+02281101431ADDAA199000091GA1011+006009099GA2041+006009089GF105991041091008001001031KA1120M+03001KA2120N+02481MA1999999101171MD1010031+9999REMSYN124AAXX  28064 67073 32582 50608 10300 20228 30117 40143 50003 84903 333 0//00 10300 20248 50//4 55/// 84820 81920 94996 95836;EQDQ01  00002PRCP99
0257670730999992000112812004-18040+044030FM-12+0023FMMO V0203601N006710060019N0250001N1+03061+02661101101ADDAA199000091AY191061AY211061GA1011+006009099GA2061+006009089GF106991061091008001001001MA1999999100841MD1810241+9999MW1171REMSYN106AAXX  28124 67073 31575 63613 10306 20266 30084 40110 58024 71791 86900 333 0//00 86820 81920 94992 95812;EQDQ01  00002PRCP99
0276670730999992000112906004-18040+044030FM-12+0023FMMO V0200601N002612200019N0400001N1+03021+02521101331ADDAA124002091GA1011+006909099GA2041+006909089GF104991041091008001001021KA1120M+03291KA2120N+02431MA1999999101071MD1310031+9999REMSYN140AAXX  29064 67073 12582 40605 10302 20252 30107 40133 53003 60024 84902 333 0//19 10329 20243 50//4 55/// 84823 81923 94991 95811 555 81073;
0273670730999992000112909004-18040+044030FM-12+0023FMMO V0202601N004112200019N0250001N1+03031+02571101281ADDAA199000091AY101031AY201031GA1011+006009099GA2041+006009089GF104991041091008001001021MA1999999101021MD1810051+9999MW1151REMSYN122AAXX  29094 67073 31575 42608 10303 20257 30102 40128 58005 71500 84902 333 84820 81920 94991 94992 95831 95812 555 81073;EQDQ01  00002PRCP99
0257670730999992000112912004-18040+044030FM-12+0023FMMO V0203601N005710060019N0250001N1+03021+02491101161ADDAA199000091AY191061AY211061GA1021+006009099GA2031+006009089GF105991051091008001001001MA1999999100901MD1610121+9999MW1151REMSYN106AAXX  29124 67073 31575 53611 10302 20249 30090 40116 56012 71591 85900 333 0//00 83820 82920 94992 95832;EQDQ01  00002PRCP99
0270670730999992000112915004-18040+044030FM-12+0023FMMO V0203601N005110060019N0250001N1+02871+02491101191ADDAA199000091AY121031AY221031GA1021+006009099GA2031+006009089GF105991051091008001001001KA1120M+03121MA1999999100931MD1310031+9999MW1151REMSYN106AAXX  29154 67073 31575 53610 10287 20249 30093 40119 53003 71522 85900 333 10312 83820 82920 94992 95832;EQDQ01  00002PRCP99
0210670730999992000113003004-18040+044030FM-12+0023FMMO V0209999C000019999999N0300001N1+02421+02351101431ADDAA112003091GA1011+006009099GA2041+006009089GF106991041091008001001001MA1999999101171MD1310131+9999REMSYN100AAXX  30034 67073 21580 60000 10242 20235 30117 40143 53013 84900 333 60032 84820 81920 94994 95814;
0266670730999992000113006004-18040+044030FM-12+0023FMMO V0209999C000012200019N0400001N1+02881+02511101451ADDAA124003091GA1011+006009099GA2041+006009089GF104991041091008001001001KA1120M+03121KA2120N+02421MA1999999101191MD1110021+9999REMSYN130AAXX  30064 67073 12582 40000 10288 20251 30119 40145 51002 60034 84900 333 0//19 10312 20242 50//4 55/// 84820 81920 94998 95818;
0223670730999992000113009004-18040+044030FM-12+0023FMMO V0203401N005112200019N0400001N1+03031+02571101341ADDAA199000091GA1011+006009099GA2041+006009089GF104991041091008001001001MA1999999101081MD1810111+9999REMSYN094AAXX  30094 67073 32582 43410 10303 20257 30108 40134 58011 84900 333 84820 81920 94991 95811;EQDQ01  00002PRCP99
0229670730999992000113012004-18040+044030FM-12+0023FMMO V0203001N005712200019N0400001N1+03081+02491101161ADDAA199000091GA1011+006909099GA2041+006909089GF104991041091008001001001MA1999999100901MD1610181+9999REMSYN100AAXX  30124 67073 32582 43011 10308 20249 30090 40116 56018 84900 333 0//00 84823 81923 94992 95812;EQDQ01  00002PRCP99
0242670730999992000113015004-18040+044030FM-12+0023FMMO V0203201N00361007501CN0350001N1+02921+02511101221ADDAA199000091GA1011+009009069GF105991051091008001001021KA1120M+03091MA1999999100961MD1310061+9999REMSYN116AAXX  30154 67073 32581 53207 10292 20251 30096 40122 53006 85902 333 10309 84820 81920 94999 95812 555 81630 81073;EQDQ01  00002PRCP99
0315670730999992000120106004-18040+044030FM-12+0023FMMO V0209999C00001009001CN0400001N1+02931+02571101321ADDAA124000591AC13I9GA1011+006009099GA2041+006009089GA3031+009009069GF106991061091008001001001KA1120M+03091KA2120N+02441MA1999999101061REMSYN136AAXX  01064 67073 12582 60000 10293 20257 30106 40132 51000 69954 86900 333 0//17 10309 20244 50//4 55/// 84820 81920 83630 94996 95816;EQDQ01+000012APCTENQ02+000002APC3  
0241670730999992000120112004-18040+044030FM-12+0023FMMO V0202801N00461007501CN0400001N1+03031+02451101101ADDAA199000091GA1021+009009069GF106991051091008001001021MA1999999100841MD1810131+9999REMSYN128AAXX  01124 67073 32582 62809 10303 20245 30084 40110 58013 85902 333 0//00 84820 81920 94992 94996 95832 95816 555 82630 81073;EQDQ01  00002PRCP99
0242670730999992000120115004-18040+044030FM-12+0023FMMO V0202801N003610060019N0300001N1+02811+02531101181ADDAA199000091GA1011+006009099GA2041+006009089GF106991061091008001001021KA1120M+03061MA1999999100921MD1310081+9999REMSYN100AAXX  01154 67073 32580 62807 10281 20253 30092 40118 53008 86902 333 10306 84820 81920 94991 95811;EQDQ01  00002PRCP99
0230670730999992000120203004-18040+044030FM-12+0023FMMO V0209999C000010060019N0200001N1+02451+02411101281ADDAA112004091AY161031GA1011+006009099GA2041+006009089GF106991061091008001031001MA1999999101021MD1310081+9999MW1151REMSYN106AAXX  02034 67073 21570 60000 10245 20241 30102 40128 53008 7156/ 86930 333 60042 84820 81920 94995 95835;
0232670730999992000120303004-18040+044030FM-12+0023FMMO V0200401N004610090019N0300001N1+02361+02301101251ADDAA112015091GA1011+006009099GA2021+006009089GA3061+009009069GF107991071091008001999999MA1999999100991MD1510021+9999REMSYN106AAXX  03034 67073 22580 70409 10236 20230 30099 40125 55002 879// 333 60152 82820 81920 86630 94991 95811;
0294670730999992000120306004-18040+044030FM-12+0023FMMO V0209999C000010450019N0400001N1+02781+02381101361ADDAA124015091AC13I9GA1011+012009069GA2021+030009039GF106991031091008001031021KA1120M+03001KA2120N+02241MA1999999101101MD1110111+9999REMSYN152AAXX  03064 67073 12582 60000 10278 20238 30110 40136 51011 60154 83932 333 0//17 10300 20224 50//4 55/// 83820 81920 94996 95816 555 81640 82360 82073;
0232670730999992000120403004-18040+044030FM-12+0023FMMO V0201201N002110090019N0080001N1+02341+02281101471ADDAA112111091AY161031AY261031GA1021+006009089GA2051+009009069GF108991051081008001071999MA1999999101211MD1310181+9999MW1611REMSYN100AAXX  04034 67073 21558 81204 10234 20228 30121 40147 53018 76166 8587/ 333 61112 82820 85630 83460;
0322670730999992000120406004-18040+044030FM-12+0023FMMO V0200401N004610300019N0100001N1+02431+02361101521ADDAA124117191AC11C9AY161061AY261061GA1011+006009099GA2031+006009089GA3031+030009039GF108991051081008001071999KA1120M+03291KA2120N+02271MA1999999101261MD1110051+9999MW1951REMSYN142AAXX  04064 67073 11560 80409 10243 20236 30126 40152 51005 61174 79566 8587/ 333 0//11 10329 20227 50//4 55/// 83820 81920 83360 94991 95831;
0294670730999992000120409004-18040+044030FM-12+0023FMMO V0200401N007710090019N0150001N1+02411+02251101461ADDAA106000591AY161031AY221031GA1011+006009099GA2031+006009089GA3031+009009069GA4031+030009039GF108991061091008001071999MA1999999101201MD1810061+9999MW1151REMSYN130AAXX  04094 67073 21565 80415 10241 20225 30120 40146 58006 71562 8697/ 333 69951 83820 81920 83630 83360 94991 94997 95811 95837;
0284670730999992000120412004-18040+044030FM-12+0023FMMO V0203601N00411007501CN0250001N1+02401+02221101371ADDAA106001091AC11C9AY191061AY261061GA1021+009009069GA2021+030009039GF107991051091008001071031MA1999999101111MD1810091+9999MW1151REMSYN146AAXX  04124 67073 11575 73608 10240 20222 30111 40137 58009 60011 71596 85973 333 0//11 83820 81920 94992 94998 95812 95818 555 82630 82360 81073;
0186670730999992000120503004-18040+044030FM-12+0023FMMO V0209999C000012200019N0350001N1+02391+02231101501ADDAA112000191GA1011+006009089GF101991011021008001031001MA1999999101241MD1310081+9999REMSYN092AAXX  05034 67073 23581 10000 10239 20223 30124 40150 53008 81230 333 69912 81820 555 81360;
0295670730999992000120506004-18040+044030FM-12+0023FMMO V0209999C000012200019N0400001N1+02971+02261101511ADDAA124002091GA1011+006909099GA2011+006909089GF101991011091008001031001KA1120M+99999KA2120N+02271MA1999999101251MD1110011+9999REMSYN140AAXX  05064 67073 12582 10000 10297 20226 30125 40151 51001 60024 81930 333 0//19 10255 20227 50//4 55/// 81823 81923 94998 95818 555 81360;EQDQ01 +02552ATMX  
0189670730999992000120509004-18040+044030FM-12+0023FMMO V0202601N004612200019N0400001N1+02981+02241101431ADDAA199000091GA1031+006909029GF103991031021008001001001MA1999999101171MD1810081+9999REMSYN076AAXX  05094 67073 32582 32609 10298 20224 30117 40143 58008 83200 333 83823;EQDQ01  00002PRCP99
0229670730999992000120512004-18040+044030FM-12+0023FMMO V0202601N005712200019N0400001N1+03001+02371101191ADDAA199000091GA1011+006909099GA2031+006909089GF103991031091008001001001MA1999999100931MD1610241+9999REMSYN100AAXX  05124 67073 32582 32611 10300 20237 30093 40119 56024 83900 333 0//00 83823 81923 94992 95812;EQDQ01  00002PRCP99
0242670730999992000120515004-18040+044030FM-12+0023FMMO V0202401N004112200019N0350001N1+02881+02391101281ADDAA199000091GA1011+006909099GA2031+006909089GF103991031091008001001001KA1120M+03051MA1999999101021MD1310091+9999REMSYN100AAXX  05154 67073 32581 32408 10288 20239 30102 40128 53009 83900 333 10305 83823 81923 94992 95812;EQDQ01  00002PRCP99
0195670730999992000120603004-18040+044030FM-12+0023FMMO V0209999C000012200019N0300001N1+02471+02371101391ADDAA199000091GA1021+012009069GF104991021051012501031001MA1999999101131MD1310061+9999REMSYN082AAXX  06034 67073 33680 40000 10247 20237 30113 40139 53006 82530 333 82640 83360;EQDQ01  00002PRCP99
0245670730999992000120606004-18040+044030FM-12+0023FMMO V0201801N001512200019N0400001N1+03091+02231101421ADDAA199000091GA1011+006909029GF101991011021008001031001KA1120M+03051KA2120N+02441MA1999999101161MD1110031+9999REMSYN106AAXX  06064 67073 32582 11803 10309 20223 30116 40142 51003 81230 333 0//00 10305 20244 5///4 55/// 81823;EQDQ01  00002PRCP99
0205670730999992000120609004-18040+044030FM-12+0023FMMO V0202201N005112200019N0400001N1+03081+02551101301ADDAA199000091GA1021+006909089GF102991999021008001001001MA1999999101041MD1810121+9999REMSYN076AAXX  06094 67073 32582 22210 10308 20255 30104 40130 58012 83200 333 82223;EQDQ01+000032SCOTLCQ02  00002PRCP99
0257670730999992000120612004-18040+044030FM-12+0023FMMO V0202401N005112200019N0300001N1+03071+02611101171ADDAA199000091AY191061AY201061GA1011+006909099GA2031+006909089GF103991031091008001001031MA1999999100911MD1510131+9999MW1171REMSYN106AAXX  06124 67073 32580 32410 10307 20261 30091 40117 55013 71790 83903 333 0//00 83823 81923 94992 95832;EQDQ01  00002PRCP99
0199670730999992000120703004-18040+044030FM-12+0023FMMO V0209999C000012200019N0300001N1+02571+02511101271ADDAA199000091GA1021+006009089GF102991021021008001031001MA1999999101001MD1310091+9999REMSYN086AAXX  07034 67073 33580 20000 10257 20251 30100 40127 53009 82230 333 82820 555 81360;EQDQ01  00002PRCP99
0245670730999992000120706004-18040+044030FM-12+0023FMMO V0202201N002610069019N0400001N1+03101+02631101331ADDAA199000091GA1051+006909029GF105991051021008001001001KA1120M+03131KA2120N+02541MA1999999101071MD1110061+9999REMSYN106AAXX  07064 67073 32582 52205 10310 20263 30107 40133 51006 85200 333 0//00 10313 20254 50//4 55/// 85823;EQDQ01  00002PRCP99
0189670730999992000120709004-18040+044030FM-12+0023FMMO V0202801N003612200019N0400001N1+03081+02641101251ADDAA199000091GA1031+006909029GF103991031021008001001001MA1999999100991MD1810081+9999REMSYN076AAXX  07094 67073 32582 32807 10308 20264 30099 40125 58008 83200 333 83823;EQDQ01  00002PRCP99
0229670730999992000120712004-18040+044030FM-12+0023FMMO V0202601N005112200019N0250001N1+03121+02651101011ADDAA199000091GA1011+006909099GA2031+006909089GF103991031091008001001001MA1999999100751MD1510241+9999REMSYN100AAXX  07124 67073 31575 32610 10312 20265 30075 40101 55024 83900 333 0//00 83823 81923 94992 95832;EQDQ01  00002PRCP99
0233670730999992000120803004-18040+044030FM-12+0023FMMO V0201201N001512200019N0300001N1+02501+02261101281ADDAA199000091GA1011+006009099GA2021+006009089GF103991021091008001001021MA1999999101021MD1310141+9999REMSYN104AAXX  08034 67073 33580 31203 10250 20226 30102 40128 53014 82902 333 82820 81920 94991 95811 555 82073;EQDQ01  00002PRCP99
0245670730999992000120806004-18040+044030FM-12+0023FMMO V0203601N002112200019N0400001N1+03081+02241101361ADDAA199000091GA1011+006909029GF101991011021008001001021KA1120M+03121KA2120N+02341MA1999999101101MD1110081+9999REMSYN106AAXX  08064 67073 32582 13604 10308 20224 30110 40136 51008 81202 333 0//00 10312 20234 50//4 55/// 81823;EQDQ01  00002PRCP99
0223670730999992000120809004-18040+044030FM-12+0023FMMO V0203601N004612200019N0400001N1+03101+02451101271ADDAA199000091GA1011+006909099GA2031+006909089GF103991031091008001001001MA1999999101011MD1810091+9999REMSYN094AAXX  08094 67073 32582 33609 10310 20245 30101 40127 58009 83900 333 83823 81923 94992 95812;EQDQ01  00002PRCP99
0241670730999992000120812004-18040+044030FM-12+0023FMMO V0203201N004612200019N0400001N1+03131+02491101101ADDAA199000091GA1011+006909099GA2031+006909089GF103991031091008001001001MA1999999100841MD1810171+9999REMSYN112AAXX  08124 67073 32582 33209 10313 20249 30084 40110 58017 83900 333 0//00 83823 81923 94991 94994 95811 95814;EQDQ01  00002PRCP99
0235670730999992000120903004-18040+044030FM-12+0023FMMO V0209999C00001007501CN0350001N1+02741+02541101141ADDAA199000091GA1021+009009069GF106991051091008001031001MA1999999100881MD1310101+9999REMSYN122AAXX  09034 67073 33581 60000 10274 20254 30088 40114 53010 85930 333 84820 81920 94995 94998 95835 95818 555 82630 81360;EQDQ01  00002PRCP99
0245670730999992000120906004-18040+044030FM-12+0023FMMO V0201801N003112200019N0400001N1+03131+02651101231ADDAA199000091GA1041+006909029GF104991041021008001001001KA1120M+03151KA2120N+02641MA1999999100971MD1010071+9999REMSYN106AAXX  09064 67073 32582 41806 10313 20265 30097 40123 50007 84200 333 0//00 10315 20264 50//4 55/// 84823;EQDQ01  00002PRCP99
0251670730999992000121003004-18040+044030FM-12+0023FMMO V0209999C000010690019N0300001N1+02601+02511101121ADDAA199000091GA1011+006009099GA2041+006009089GA3031+069009009GF106991041091008001001021MA1999999100861MD1310111+9999REMSYN106AAXX  10034 67073 33580 60000 10260 20251 30086 40112 53011 84902 333 84820 81920 83073 94996 94998 95816;EQDQ01  00002PRCP99
0245670730999992000121006004-18040+044030FM-12+0023FMMO V0202001N003612200019N0400001N1+03071+02701101171ADDAA199000091GA1031+006909029GF104991031021008001001021KA1120M+03201KA2120N+02601MA1999999100911MD1010051+9999REMSYN106AAXX  10064 67073 32582 42007 10307 20270 30091 40117 50005 83202 333 0//00 10320 20260 50//4 55/// 83823;EQDQ01  00002PRCP99
0199670730999992000121103004-18040+044030FM-12+0023FMMO V0209999C000012200019N0350001N1+02541+02481101111ADDAA199000091GA1031+006009089GF104991031021008001001021MA1999999100851MD1310111+9999REMSYN086AAXX  11034 67073 33581 40000 10254 20248 30085 40111 53011 83202 333 83820 555 82073;EQDQ01  00002PRCP99
0199670730999992000121106004-18040+044030FM-12+0023FMMO V0202001N002612200019N0400001N1+02981+99999999999ADDAA199000091GF104991999999008001999999KA1120M+03221KA2120N+02541REMSYN105AAXX  11064 67073 32582 42005 10298 2025 30090 40116 50005 84200 333 0//00 10322 20254 50//4 55/// 84823;EQDQ01  00002PRCP99
0223670730999992000121109004-18040+044030FM-12+0023FMMO V0202801N004112200019N0400001N1+03051+02501101041ADDAA199000091GA1011+006909099GA2031+006909089GF103991031091008001001001MA1999999100781MD1810121+9999REMSYN094AAXX  11094 67073 32582 32808 10305 20250 30078 40104 58012 83900 333 83823 81923 94992 95812;EQDQ01  00002PRCP99
0261670730999992000121112004-18040+044030FM-12+0023FMMO V0202601N005112200019N0400001N1+03101+02541100821ADDAA199000091GA1041+001509099GA2011+006909099GA3031+006909089GF199999031091008001001001MA1999999100561MD1610221+9999REMSYN100AAXX  11124 67073 32582 32610 10310 20254 30056 40082 56022 83900 333 0//00 83823 81923 84992 95812;EQDQ01+000032SCOTCVQ02  00002PRCP99
0242670730999992000121115004-18040+044030FM-12+0023FMMO V0203001N002612200019N0300001N1+02951+02541100911ADDAA199000091GA1011+006009099GA2031+006009089GF103991031091008001001001KA1120M+03151MA1999999100651MD1310091+9999REMSYN100AAXX  11154 67073 32580 33005 10295 20254 30065 40091 53009 83900 333 10315 83820 81920 94992 95812;EQDQ01  00002PRCP99
0189670730999992000121203004-18040+044030FM-12+0023FMMO V0209999C000012200019N0300001N1+02571+02511100991ADDAA199000091GA1021+006009029GF102991021021008001001021MA1999999100731MD1310131+9999REMSYN076AAXX  12034 67073 33580 20000 10257 20251 30073 40099 53013 82202 333 82820;EQDQ01  00002PRCP99
0245670730999992000121206004-18040+044030FM-12+0023FMMO V0200201N003110069019N0400001N1+03011+02491101031ADDAA199000091GA1051+006909029GF105991051021008001001001KA1120M+03151KA2120N+02451MA1999999100771MD1110041+9999REMSYN106AAXX  12064 67073 32582 50206 10301 20249 30077 40103 51004 85200 333 0//00 10315 20245 50//4 55/// 85823;EQDQ01  00002PRCP99
0189670730999992000121209004-18040+044030FM-12+0023FMMO V0203401N005712200019N0400001N1+03101+02571101011ADDAA199000091GA1031+006909029GF103991031021008001001001MA1999999100751MD1810021+9999REMSYN076AAXX  12094 67073 32582 33411 10310 20257 30075 40101 58002 83200 333 83823;EQDQ01  00002PRCP99
0229670730999992000121212004-18040+044030FM-12+0023FMMO V0200201N005711050019N0400001N1+03081+02531100861ADDAA199000091GA1011+006909099GA2031+006909089GF105991031091008001001051MA1999999100601MD1610151+9999REMSYN100AAXX  12124 67073 32582 50211 10308 20253 30060 40086 56015 83905 333 0//00 83823 81923 94992 95812;EQDQ01  00002PRCP99
0264670730999992000121215004-18040+044030FM-12+0023FMMO V0203601N004610690019N0350001N1+02931+02551100881ADDAA199000091GA1011+006009099GA2041+006009089GA3041+069009029GF107991041091008001001051KA1120M+03161MA1999999100621MD1310021+9999REMSYN106AAXX  12154 67073 32581 73609 10293 20255 30062 40088 53002 84905 333 10316 84820 81920 84273 94993 95813;EQDQ01  00002PRCP99
0245670730999992000121303004-18040+044030FM-12+0023FMMO V0200401N002110690019N0300001N1+02481+02441100931ADDAA199000091GA1011+006009099GA2031+006009089GA3051+069009029GF107991031091008001001051MA1999999100671MD1310051+9999REMSYN100AAXX  13034 67073 33580 70404 10248 20244 30067 40093 53005 83905 333 83820 81920 85273 94993 95813;EQDQ01  00002PRCP99
0257670730999992000121309004-18040+044030FM-12+0023FMMO V0203601N006710690019N0400001N1+03151+02581100921ADDAA199000091GA1011+006909099GA2041+006909089GA3031+069009029GF106991041091008001001051MA1999999100661MD1810181+9999REMSYN112AAXX  13094 67073 32582 63613 10315 20258 30066 40092 58018 84905 333 84823 81923 83273 94994 94996 95814 95816;EQDQ01  00002PRCP99
0263670730999992000121312004-18040+044030FM-12+0023FMMO V0203401N007210690019N0400001N1+03091+02581100791ADDAA199000091GA1011+006909099GA2041+006909089GA3041+069009029GF107991041091008001001051MA1999999100531MD1810131+9999REMSYN118AAXX  13124 67073 32582 73414 10309 20258 30053 40079 58013 84905 333 0//00 84823 81923 84273 94992 94996 95812 95816;EQDQ01  00002PRCP99
0276670730999992000121315004-18040+044030FM-12+0023FMMO V0203401N004610690019N0300001N1+02881+02591100871ADDAA199000091GA1011+006009099GA2041+006009089GA3041+069009029GF107991041091008001041051KA1120M+03181MA1999999100611MD1310081+9999REMSYN118AAXX  13154 67073 32580 73409 10288 20259 30061 40087 53008 84945 333 10318 84820 81920 84273 94992 94994 95812 95814;EQDQ01  00002PRCP99
0245670730999992000121403004-18040+044030FM-12+0023FMMO V0209999C000010690019N0300001N1+02611+02451101041ADDAA199000091GA1031+006009089GA2011+008709099GA3031+069009029GF107991051091008001001051MA1999999100781MD1310091+9999REMSYN100AAXX  14034 67073 33580 70000 10261 20245 30078 40104 53009 85905 333 83820 81929 83273 94996 95836;EQDQ01  00002PRCP99
0245670730999992000121406004-18040+044030FM-12+0023FMMO V0203401N002610060019N0400001N1+02991+02621101121ADDAA199000091GA1061+006009029GF106991061021008001001021KA1120M+03181KA2120N+02541MA1999999100861MD1110081+9999REMSYN106AAXX  14064 67073 32582 63405 10299 20262 30086 40112 51008 86202 333 0//00 10318 20254 50//4 55/// 86820;EQDQ01  00002PRCP99
0223670730999992000121409004-18040+044030FM-12+0023FMMO V0203201N005710060019N0400001N1+03101+02621101011ADDAA199000091GA1011+006009099GA2061+006009089GF107991061091008001001031MA1999999100751MD1810091+9999REMSYN094AAXX  14094 67073 32582 73211 10310 20262 30075 40101 58009 86903 333 86820 81920 94994 95814;EQDQ01  00002PRCP99
0239670730999992000121412004-18040+044030FM-12+0023FMMO V0203201N005710069019N0400001N1+03081+02551100921ADDAA199000091GA1011+006909099GA2051+006909089GF106991051091008001001031MA1999999100661MD1610091+9999REMSYN110AAXX  14124 67073 32582 63211 10308 20255 30066 40092 56009 85903 333 0//00 85823 81923 94994 95814 555 82073;EQDQ01  00002PRCP99
0252670730999992000121415004-18040+044030FM-12+0023FMMO V0203001N004610060019N0300001N1+02901+02591101061ADDAA199000091GA1061+006009089GA2011+008709099GF106991061091008001001021KA1120M+03171MA1999999100801MD1310141+9999REMSYN110AAXX  14154 67073 32580 63009 10290 20259 30080 40106 53014 86902 333 10317 86820 81929 94992 95812 555 81073;EQDQ01  00002PRCP99
0195670730999992000121503004-18040+044030FM-12+0023FMMO V0209999C00001105001CN0300001N1+02581+02451101191ADDAA199000091GA1031+006009089GF105991031021008001001021MA1999999100931MD1310161+9999REMSYN082AAXX  15034 67073 33580 50000 10258 20245 30093 40119 53016 83202 333 83820 83073;EQDQ01  00002PRCP99
0255670730999992000121506004-18040+044030FM-12+0023FMMO V0201801N002610060019N0400001N1+03001+02581101151ADDAA199000091GA1051+006009089GF105991051021008001001021KA1120M+03171KA2120N+02541MA1999999100891MD1810041+9999REMSYN116AAXX  15064 67073 32582 51805 10300 20258 30089 40115 58004 85202 333 0//00 10317 20254 50//4 55/// 85820 555 81073;EQDQ01  00002PRCP99
0189670730999992000121509004-18040+044030FM-12+0023FMMO V0202401N003612200019N0400001N1+03111+02541101091ADDAA199000091GA1031+006909029GF103991031021008001001001MA1999999100831MD1610061+9999REMSYN076AAXX  15094 67073 32582 32407 10311 20254 30083 40109 56006 83200 333 83823;EQDQ01  00002PRCP99
0229670730999992000121512004-18040+044030FM-12+0023FMMO V0202201N004612200019N0400001N1+03101+02541100971ADDAA199000091GA1011+006909099GA2031+006909089GF103991031091008001001001MA1999999100711MD1610121+9999REMSYN100AAXX  15124 67073 32582 32209 10310 20254 30071 40097 56012 83900 333 0//00 83823 81923 94991 95811;EQDQ01  00002PRCP99
0245670730999992000121603004-18040+044030FM-12+0023FMMO V0209999C000010690019N0300001N1+02581+02521101161ADDAA199000091GA1011+006009099GA2021+006009089GA3051+069009009GF106991021091008001001041MA1999999100901MD1310141+9999REMSYN100AAXX  16034 67073 33580 60000 10258 20252 30090 40116 53014 82904 333 82820 81920 85073 94992 95812;EQDQ01  00002PRCP99
0251670730999992000121606004-18040+044030FM-12+0023FMMO V0203601N00211220001CN0400001N1+03041+02511101121ADDAA199000091GA1021+006909089GF106991021021008001001041KA1120M+03181KA2120N+02531MA1999999100861MD1810041+9999REMSYN112AAXX  16064 67073 32582 63604 10304 20251 30086 40112 58004 82204 333 0//00 10318 20253 50//4 55/// 82823 85073;EQDQ01  00002PRCP99
0221670730999992000121703004-18040+044030FM-12+0023FMMO V0209999C000010690019N0300001N1+02401+02311101221ADDAA199000091GA1021+006009089GA2051+069009009GF106991021021008001031041MA1999999100961MD1310091+9999REMSYN092AAXX  17034 67073 33580 60000 10240 20231 30096 40122 53009 82234 333 82820 85073 555 81360;EQDQ01  00002PRCP99
0251670730999992000121706004-18040+044030FM-12+0023FMMO V0200801N00211220001CN0400001N1+03021+02331101451ADDAA199000091GA1011+006909089GF105991011021008001001041KA1120M+03201KA2120N+02401MA1999999101191MD1110231+9999REMSYN112AAXX  17064 67073 32582 50804 10302 20233 30119 40145 51023 81204 333 0//00 10320 20240 50//4 55/// 81823 85073;EQDQ01  00002PRCP99
0238670730999992000121806004-18040+044030FM-12+0023FMMO V0200601N004612200019N0400001N1+02951+02451101461ADDAA124018091AC13I9GA1021+006909029GF103991031081008001001031KA1120M+03331KA2120N+02241MA1999999101201MD1110131+9999REMSYN112AAXX  18064 67073 12582 30609 10295 20245 30120 40146 51013 60184 83803 333 0//17 10333 20224 50//4 55/// 82823;
0189670730999992000121809004-18040+044030FM-12+0023FMMO V0203601N005711050019N0400001N1+03201+02501101301ADDAA199000091GA1031+006909029GF106991041081008001001021MA1999999101041MD1810161+9999REMSYN076AAXX  18094 67073 32582 63611 10320 20250 30104 40130 58016 84802 333 83823;EQDQ01  00002PRCP99
0229670730999992000121812004-18040+044030FM-12+0023FMMO V0203601N005712200019N0350001N1+03081+02521101091ADDAA199000091GA1011+009909069GF104991031091008001001021MA1999999100831MD1710211+9999REMSYN116AAXX  18124 67073 32581 43611 10308 20252 30083 40109 57021 83902 333 0//00 83823 81923 94992 95832 555 81633 81073;EQDQ01  00002PRCP99
0270670730999992000121815004-18040+044030FM-12+0023FMMO V0203201N00311007501CN0250001N1+02951+02451101191ADDAA199000091AY191031AY211031GA1011+009909069GF105991051091008001001021KA1120M+03271MA1999999100931MD1310101+9999MW1171REMSYN122AAXX  18154 67073 31575 53206 10295 20245 30093 40119 53010 71791 85902 333 10327 84820 81920 94992 95832 555 81633 81073;EQDQ01  00002PRCP99
0233670730999992000121903004-18040+044030FM-12+0023FMMO V0209999C000010450019N0350001N1+02381+02311101171ADDAA199000091GA1011+006009099GA2031+006009089GF107991031091008001031051MA1999999100911MD1310041+9999REMSYN104AAXX  19034 67073 33581 70000 10238 20231 30091 40117 53004 83935 333 83820 81920 94998 95818 555 81360;EQDQ01  00002PRCP99
0277670730999992000121906004-18040+044030FM-12+0023FMMO V0209999C000010690019N0400001N1+02911+02471101281ADDAA199000091GA1021+006909089GA2051+069009029GF106991021081008001001051KA1120M+03271KA2120N+02381MA1999999101021MD1110111+9999REMSYN122AAXX  19064 67073 32582 60000 10291 20247 30102 40128 51011 82805 333 0//00 10327 20238 5///4 55/// 82823 85273 555 81640;EQDQ01  00002PRCP99
0233670730999992000121909004-18040+044030FM-12+0023FMMO V0203601N003612200019N0400001N1+03101+02661101081ADDAA199000091GA1011+006909099GA2041+006909089GF104991041091008001001021MA1999999100821MD1810201+9999REMSYN104AAXX  19094 67073 32582 43607 10310 20266 30082 40108 58020 84902 333 84823 81923 94992 95832 555 81073;EQDQ01  00002PRCP99
0279670730999992000121912004-18040+044030FM-12+0023FMMO V0203601N00571009001CN0200001N1+03181+02511100961ADDAA199000091AY191061AY211061GA1011+006009099GA2041+006009089GA3031+009009069GF106991061091008001001001MA1999999100701MD1510121+9999MW1171REMSYN112AAXX  19124 67073 31570 63611 10318 20251 30070 40096 55012 71791 86900 333 0//00 84820 81920 83630 94992 95832;EQDQ01  00002PRCP99
0245670730999992000122003004-18040+044030FM-12+0023FMMO V0209999C00001009001CN0300001N1+02401+02251101161ADDAA199000091GA1011+006009099GA2041+006009089GA3031+009009069GF106991061091008001001001MA1999999100901MD1310091+9999REMSYN100AAXX  20034 67073 33580 60000 10240 20225 30090 40116 53009 86900 333 84820 81920 83630 94995 95835;EQDQ01  00002PRCP99
0329670730999992000122006004-18040+044030FM-12+0023FMMO V0201001N002610690019N0400001N1+02971+02531101231ADDAA199000091AY191061AY221061GA1011+006909099GA2031+006909089GA3031+069009009GF106991031091008001031031KA1120M+03201KA2120N+02401MA1999999100971MD1010071+9999MW1011REMSYN136AAXX  20064 67073 31582 61005 10297 20253 30097 40123 50007 70192 83933 333 0//00 10320 20240 50//4 55/// 83823 81923 83073 94995 95815;EQDQ01  00002PRCP99
0273670730999992000122012004-18040+044030FM-12+0023FMMO V0202801N002610090019N0400001N1+03151+02401101001ADDAA199000091GA1011+006009099GA2031+006009089GA3031+009009069GF107991061091008001031999MA1999999100741MD1610091+9999REMSYN128AAXX  20124 67073 32582 72805 10315 20240 30074 40100 56009 8693/ 333 0//00 83820 81920 83630 94995 94998 95815 95818 555 82360;EQDQ01  00002PRCP99
0242670730999992000122015004-18040+044030FM-12+0023FMMO V0203201N00261007501CN0300001N1+02951+02451101011ADDAA199000091GA1021+009009069GF106991051091008001031001KA1120M+03351MA1999999100751MD1310011+9999REMSYN116AAXX  20154 67073 32580 63205 10295 20245 30075 40101 53001 85930 333 10335 83820 81920 94993 95813 555 82630 82360;EQDQ01  00002PRCP99
0236670730999992000122103004-18040+044030FM-12+0023FMMO V0209999C000010060019N0200001N1+02551+02481101251ADDAA199000091GA1011+006009099GA2051+006009089GA3031+009009069GF107991071091008001999999MD1310131+9999MW1171REMSYN100AAXX  21034 67073 31570 70000 10255 20248 40125 53013 717// 879// 333 85820 81920 83630 94992 95832;EQDQ01  00002PRCP99
0341670730999992000122106004-18040+044030FM-12+0023FMMO V0201201N003110060019N0200001N1+02711+02561101401ADDAA199000091AY191061AY221061GA1011+006009099GA2051+006009089GA3031+009009069GF107991071091008001999999KA1120M+03351KA2120N+02551MA1999999101141MD1110151+9999MW1171REMSYN148AAXX  21064 67073 31570 71206 10271 20256 30114 40140 51015 71792 879// 333 0//00 10335 20255 50//4 55/// 85820 81920 83630 94991 94997 95831 95817;EQDQ01  00002PRCP99
0233670730999992000122109004-18040+044030FM-12+0023FMMO V0200201N002610069019N0400001N1+02901+02511101191ADDAA199000091GA1011+006909099GA2041+006909089GF106991051091008001001031MA1999999100931MD1810211+9999REMSYN104AAXX  21094 67073 32582 60205 10290 20251 30093 40119 58021 85903 333 84823 81923 94994 95834 555 82073;EQDQ01  00002PRCP99
0257670730999992000122112004-18040+044030FM-12+0023FMMO V0202601N004112200019N0250001N1+03051+02561101011ADDAA199000091AY191061AY211061GA1011+006909099GA2041+006909089GF104991041091008001001001MA1999999100751MD1610181+9999MW1151REMSYN106AAXX  21124 67073 31575 42608 10305 20256 30075 40101 56018 71591 84900 333 0//00 84823 81923 94992 95832;EQDQ01  00002PRCP99
0270670730999992000122115004-18040+044030FM-12+0023FMMO V0200201N002612200019N0200001N1+02621+02211101091ADDAA199000091AY191031AY201031GA1011+006009099GA2031+006009089GF103991031091008001001001KA1120M+03151MA1999999100831MD1310081+9999MW1151REMSYN106AAXX  21154 67073 31570 30205 10262 20221 30083 40109 53008 71590 83900 333 10315 83820 81920 94991 95831;EQDQ01  00002PRCP99
0210670730999992000122203004-18040+044030FM-12+0023FMMO V0209999C000011050019N0350001N1+02281+02191101271ADDAA112019091GA1011+006009099GA2031+006009089GF105991031091008001001021MA1999999101011MD1310021+9999REMSYN100AAXX  22034 67073 23581 50000 10228 20219 30101 40127 53002 83902 333 60192 83820 81920 94995 95816;
0238670730999992000122206004-18040+044030FM-12+0023FMMO V0209999C000012200019N0400001N1+02921+02251101251ADDAA124019191AC13I9GA1011+006909029GF101991011021008001001021KA1120M+03151KA2120N+02111MA1999999100991MD1810021+9999REMSYN112AAXX  22064 67073 12582 10000 10292 20225 30099 40125 58002 60194 81202 333 0//18 10315 20211 50//4 55/// 81823;
0189670730999992000122209004-18040+044030FM-12+0023FMMO V0202801N003612200019N0400001N1+03001+02371101181ADDAA199000091GA1031+006909029GF103991031021008001001021MA1999999100921MD1810071+9999REMSYN076AAXX  22094 67073 32582 32807 10300 20237 30092 40118 58007 83202 333 83823;EQDQ01  00002PRCP99
0229670730999992000122212004-18040+044030FM-12+0023FMMO V0202601N005112200019N0400001N1+03051+02441100941ADDAA199000091GA1011+006909099GA2031+006909089GF103991031091008001001001MA1999999100681MD1810241+9999REMSYN100AAXX  22124 67073 32582 32610 10305 20244 30068 40094 58024 83900 333 0//00 83823 81923 94991 95831;EQDQ01  00002PRCP99
0264670730999992000122215004-18040+044030FM-12+0023FMMO V0202801N002110690019N0350001N1+02911+99999100971ADDAA199000091GA1011+006009099GA2041+006009089GA3031+069009009GF106991041091008001001021KA1120M+03101MA1999999100711MD1310031+9999REMSYN106AAXX  22154 67073 32581 62804 10291 20/// 30071 40097 53003 84902 333 10310 84820 81920 83073 94992 95832;EQDQ01  00002PRCP99
0322670730999992000122306004-18040+044030FM-12+0023FMMO V0200201N002610690019N0400001N1+02811+02461101161ADDAA124000191AC13C9AY161061AY221061GA1011+006009099GA2031+006009089GA3051+069009029GF107991031091008001001051KA1120M+03211KA2120N+02401MA1999999100901MD1010021+9999MW1031REMSYN142AAXX  23064 67073 11582 70205 10281 20246 30090 40116 50002 69924 70362 83905 333 0//13 10321 20240 50//4 55/// 83820 81920 85273 94996 95816;
0267670730999992000122403004-18040+044030FM-12+0023FMMO V0200401N002610090019N0200001N1+02481+02391101081ADDAA199000091GA1011+006009099GA2031+006009089GA3031+009009069GF107991061091008001071999MA1999999100821MD1310111+9999MW1151REMSYN116AAXX  24034 67073 31570 70405 10248 20239 30082 40108 53011 715// 8697/ 333 83820 81920 83630 94996 95836 555 82360;EQDQ01  00002PRCP99
0356670730999992000122406004-18040+044030FM-12+0023FMMO V0200201N00361009001CN0080001N1+02431+02391101261ADDAA124003091AC11C9AY191061AY261061GA1011+006009099GA2041+006009089GA3031+009009069GA4031+030009039GF108991061091008001071999KA1120M+03081KA2120N+02431MA1999999101001MD1110181+9999MW1611REMSYN160AAXX  24064 67073 11558 80207 10243 20239 30100 40126 51018 60034 76196 8697/ 333 0//51 10308 20243 5///4 55/// 84820 81920 83630 83360 94991 94996 95831 95836;
0282670730999992000122503004-18040+044030FM-12+0023FMMO V0200201N00621009001CN0050001N1+02381+02311100771ADDAA112029091AY161031AY261031GA1011+006009099GA2041+006009089GA3031+009009069GA4031+030009049GF108991061091008001071999MA1999999100511MD1510021+9999MW1611REMSYN118AAXX  25034 67073 21550 80212 10238 20231 30051 40077 55002 76166 8697/ 333 60292 84820 81920 83630 83460 94995 95835;
0344670730999992000122506004-18040+044030FM-12+0023FMMO V0200201N006210090019N0050001N1+02401+02361100801ADDAA124054191AC11C9AY161061AY261061GA1021+004209079GA2011+006009099GA3011+006009089GA4051+009009069GF108991061091004501071999KA1120M+02651KA2120N+02281MA1999999100541MD1010031+9999MW1611REMSYN148AAXX  25064 67073 11450 80212 10240 20236 30054 40080 50003 60544 76166 8697/ 333 0//51 10265 20228 50//4 55/// 82714 81820 81920 85630 94995 95815;
0244670730999992000122603004-18040+044030FM-12+0023FMMO V0200201N003110060019N0350001N1+02381+02321100921ADDAA112000791GA1011+006009099GA2051+006009089GA3031+069009029GF107991051091008001001051MA1999999100661MD1310121+9999REMSYN118AAXX  26034 67073 23581 70206 10238 20232 30066 40092 53012 85905 333 69972 85820 81920 83273 94991 94994 95811 95834;
0313670730999992000122606004-18040+044030FM-12+0023FMMO V0200201N004610060019N0400001N1+02741+02541100961ADDAA124037191AC13I9GA1011+006009099GA2051+006009089GA3041+069009029GF107991051091008001001051KA1120M+99999KA2120N+02311MA1999999100701MD1010041+9999REMSYN136AAXX  26064 67073 12582 70209 10274 20254 30070 40096 50004 60374 85905 333 0//57 10257 20231 50//4 55/// 85820 81920 84273 94994 95834;EQDQ01 +02572ATMX  
0195670730999992000122609004-18040+044030FM-12+0023FMMO V0203601N003610069019N0400001N1+03021+02571100951ADDAA199000091GA1051+006909089GF107991051021008001001051MA1999999100691MD1810011+9999REMSYN082AAXX  26094 67073 32582 73607 10302 20257 30069 40095 58001 85205 333 85823 83273;EQDQ01  00002PRCP99
0263670730999992000122612004-18040+044030FM-12+0023FMMO V0202201N002610069019N0400001N1+02921+02571100841ADDAA199000091GA1011+006909099GA2051+006909089GA3031+069009029GF107991051091008001001051MA1999999100581MD1610111+9999REMSYN118AAXX  26124 67073 32582 72205 10292 20257 30058 40084 56011 85905 333 0//00 85823 81923 83273 94992 94996 95812 95816;EQDQ01  00002PRCP99
0276670730999992000122615004-18040+044030FM-12+0023FMMO V0202601N003610690019N0350001N1+02791+02521100891ADDAA199000091GA1011+006009099GA2031+006009089GA3051+069009029GF107991031091008001001051KA1120M+03041MA1999999100631MD1310051+9999REMSYN118AAXX  26154 67073 32581 72607 10279 20252 30063 40089 53005 83905 333 10304 83820 81920 85273 94991 94997 95811 95817;EQDQ01  00002PRCP99
0267670730999992000122703004-18040+044030FM-12+0023FMMO V0209999C00001009001CN0300001N1+02501+02441101091ADDAA199000091GA1011+006009099GA2041+006009089GA3031+009009069GF107991061091008001001051MA1999999100831MD1310121+9999REMSYN122AAXX  27034 67073 33580 70000 10250 20244 30083 40109 53012 86905 333 84820 81920 83630 94994 94996 95834 95816 555 83275;EQDQ01  00002PRCP99
0279670730999992000122706004-18040+044030FM-12+0023FMMO V0200801N002610450019N0400001N1+02921+02501101141ADDAA199000091GA1011+030009039GF107991041091008001041051KA1120M+03031KA2120N+02451MA1999999100881MD1010051+9999REMSYN140AAXX  27064 67073 32582 70805 10292 20250 30088 40114 50005 84945 333 0//00 10303 20245 5///4 55/// 84820 81920 94996 95836 555 81360 83273;EQDQ01  00002PRCP99
0261670730999992000122709004-18040+044030FM-12+0023FMMO V0203201N002610060019N0200001N1+02881+02541101101ADDAA199000091AY121031AY221031GA1011+006009099GA2061+006009089GF107991061091008001001051MA1999999100841MD1810041+9999MW1151REMSYN110AAXX  27094 67073 31570 73205 10288 20254 30084 40110 58004 71522 86905 333 86820 81920 94994 95834 555 83273;EQDQ01  00002PRCP99
0251670730999992000122712004-18040+044030FM-12+0023FMMO V0202801N004610690019N0400001N1+03031+02511100931ADDAA199000091GA1011+006009099GA2041+006009089GA3041+069009029GF107991041091008001001071MA1999999100671MD1810171+9999REMSYN106AAXX  27124 67073 32582 72809 10303 20251 30067 40093 58017 84907 333 0//00 84820 81920 84273 94992 95932;EQDQ01  00002PRCP99
0264670730999992000122715004-18040+044030FM-12+0023FMMO V0202601N002610690019N0300001N1+02901+02511100881ADDAA199000091GA1011+006009099GA2021+006009089GA3061+069009029GF107991021091008001001061KA1120M+03021MA1999999100621MD1510051+9999REMSYN106AAXX  27154 67073 32580 72605 10290 20251 30062 40088 55005 82906 333 10302 82820 81920 86273 94992 95812;EQDQ01  00002PRCP99
0246670730999992000122803004-18040+044030FM-12+0023FMMO V0209999C000010060019N0250001N1+02521+02431101101ADDAA112001091GA1011+006009099GA2051+006009089GF107991061091008001001031MA1999999100841MD1310101+9999MW1171REMSYN130AAXX  28034 67073 21575 70000 10252 20243 30084 40110 53010 717// 86903 333 60012 85820 81920 94992 94996 94998 95812 95836 95818;
0316670730999992000122806004-18040+044030FM-12+0023FMMO V0200201N00211012001CN0400001N1+02921+02611101151ADDAA124001091AC13I9GA1011+006009099GA2041+006009089GA3031+012009069GF107991061091008001001031KA1120M+03021KA2120N+02511MA1999999100891MD1010051+9999REMSYN158AAXX  28064 67073 12582 70204 10292 20261 30089 40115 50005 60014 86903 333 0//57 10302 20251 50//4 55/// 84820 81920 83640 94993 94996 95813 95836 555 81073;
0251670730999992000122812004-18040+044030FM-12+0023FMMO V0203201N005112200019N0400001N1+03101+02541100851ADDAA199000091GA1011+006909099GA2041+006909089GF104991041091008001001021MA1999999100591MD1610211+9999REMSYN122AAXX  28124 67073 32582 43210 10310 20254 30059 40085 56021 84902 333 0//00 84823 81923 94994 94996 95834 95816 555 81073;EQDQ01  00002PRCP99
0230670730999992000122903004-18040+044030FM-12+0023FMMO V0201601N002611050019N0300001N1+02411+02351100961ADDAA112000191AY161031GA1011+009909069GF105991041091008001001031MA1999999100701MD1310071+9999MW1001REMSYN122AAXX  29034 67073 21580 51605 10241 20235 30070 40096 53007 7006/ 84903 333 69912 84820 81920 94991 95811 555 81633 81073;
0286670730999992000122906004-18040+044030FM-12+0023FMMO V0200201N004612200019N0400001N1+03001+02521101031ADDAA124000191AC12I9GA1011+006909099GA2041+006909089GF104991031091008001001031KA1120M+03171KA2120N+02411MD1010071+9999REMSYN140AAXX  29064 67073 12582 40209 10300 20252 30277 40103 50007 69914 83903 333 0//16 10317 20241 50//4 55/// 84823 81923 94991 95811 555 81360;EQDQ01+102773APOSP 
0235670730999992000122909004-18040+044030FM-12+0023FMMO V0203601N004610069019N0400001N1+03191+02611100891ADDAA199000091GA1011+006909099GA2051+006909089GF105991051091008001001001MA1999999100631MD1810141+9999REMSYN106AAXX  29094 67073 32582 53609 10319 20261 30063 40089 58014 85900 333 85823 81923 94992 94996 95812 95816;EQDQ01  00002PRCP99
0250670730999992000122912004-18040+044030FM-12+0023FMMO V0203401N004110060019N0150001N1+02961+02671100831ADDAA106001091AC11C9AY191061AY211061GA1011+006009099GA2061+006009089GF106991061091008001001001MA1999999100571MD1810061+9999MW1171REMSYN112AAXX  29124 67073 11565 63408 10296 20267 30057 40083 58006 69991 71791 86900 333 0//51 86820 81920 94992 95832;
0252670730999992000123003004-18040+044030FM-12+0023FMMO V0209999C000010099019N0300001N1+02471+02401100961ADDAA112000291AY161031GA1011+006009099GA2031+006009089GA3031+009909069GF105991051091008001001001MA1999999100701MD1310101+9999MW1001REMSYN112AAXX  30034 67073 21580 50000 10247 20240 30070 40096 53010 7006/ 85900 333 69922 83820 81920 83633 94998 95818;
0300670730999992000123006004-18040+044030FM-12+0023FMMO V0200201N003610060019N0400001N1+02901+02511100981ADDAA124001091AC12I9AY161061AY221061GA1011+006009099GA2061+006009089GF106991061091008001001001KA1120M+03191KA2120N+02471MA1999999100721MD1010021+9999MW1031REMSYN136AAXX  30064 67073 11582 60207 10290 20251 30072 40098 50002 60014 70362 86900 333 0//56 10319 20247 50//4 55/// 86820 81920 94996 95816;
0255670730999992000123103004-18040+044030FM-12+0023FMMO V0200201N00211009901CN0300001N1+02501+02461101051ADDAA199000091GA1011+006009099GA2041+006009089GA3031+009909069GF107991061091008001001031MA1999999100791MD1310111+9999REMSYN110AAXX  31034 67073 33580 70204 10250 20246 30079 40105 53011 86903 333 84820 81920 83633 94995 95835 555 81073;EQDQ01  00002PRCP99
0288670730999992000123106004-18040+044030FM-12+0023FMMO V0200201N003611050019N0400001N1+02961+02511101061ADDAA124000391GA1011+006009099GA2041+006009089GF105991041091008001001031KA1120M+03151KA2120N+02481MA1999999100801MD1010011+9999REMSYN152AAXX  31064 67073 12582 50207 10296 20251 30080 40106 50001 69934 84903 333 0//59 10315 20248 50//4 55/// 84820 81920 94994 94998 95814 95818 555 82073;
