0232671430999992000010103004-21200+048370FM-12+0006FMSM V0209999C000012200019N0200001N1+02581+02321101201ADDAA112002091AY161031AY221031GA1011+006009089GA2061+012009069GF199999041081008001001021MA1999999101131MD1310021+9999MW1151REMSYN100AAXX  01034 67143 21570 40000 10258 20232 30113 40120 53002 71562 84802 333 60022 81820 86640 92438;
0256671430999992000010106004-21200+048370FM-12+0006FMSM V0200401N002112200019N0300001N1+02751+02281101311ADDAA124002091AC12C9GA1041+006009089GF104991041081004501001001IA2240+01809KA1120M+03041KA2120N+02361MA1999999101241MD1210111+9999REMSYN118AAXX  01064 67143 12480 40404 10275 20228 30124 40131 52011 60024 84800 333 01812 10304 20236 5///4 55/// 84820 92438;
0229671430999992000010109004-21200+048370FM-12+0006FMSM V0200401N003112200019N0300001N1+02881+02301101191ADDAA106000091GA1011+006009099GA2021+006009089GF102991021091008001001001MA1999999101121MD1810101+9999REMSYN100AAXX  01094 67143 32580 20406 10288 20230 30112 40119 58010 82900 333 82820 81920 94991 95831 92438;EQDQ01  00002PRCP06
0211671430999992000010112004-21200+048370FM-12+0006FMSM V0200601N005112200019N0300001N1+02901+02421101151ADDAA106000091GA1011+006009089GF101991011081008001001001MA1999999101081MD1610041+9999REMSYN098AAXX  01124 67143 32580 10610 10290 20242 30108 40115 56004 81800 333 0//00 81820 92438 555 81640;EQDQ01  00002PRCP06
0246671430999992000010115004-21200+048370FM-12+0006FMSM V0200401N004112200019N0300001N1+02751+02481101251ADDAA106000091GA1011+006009089GA2031+069009009GF103991031081008001001021KA1120M+03021MA1999999101181MD1310101+9999REMSYN104AAXX  01154 67143 32580 30408 10275 20248 30118 40125 53010 83802 333 10302 81820 83073 92436 555 81640;EQDQ01  00002PRCP06
0210671430999992000010200004-21200+048370FM-12+0006FMSM V0202201N002110099019N0200001N1+02431+02261101291ADDAA106003091GA1031+006009089GA2031+009909069GF105991051081008001001001MA1999999101221MD1710131+9999REMSYN100AAXX  02004 67143 11570 52204 10243 20226 30122 40129 57013 60031 85800 333 0//19 83820 83633 924/8;
0208671430999992000010203004-21200+048370FM-12+0006FMSM V0209999C000012200019N0300001N1+02341+02281101331ADDAY161031AY221031GA1041+006009089GF104991041081008001001001MA1999999101261MD1310041+9999MW1011REMSYN103AAXX  02034 67143 21580 40000 10234 20228 30126 40133 53004 70162 84800 333 6032 84820 92438 555 81640;
0294671430999992000010206004-21200+048370FM-12+0006FMSM V0201201N002110060019N0200001N1+02681+02321101421ADDAA124003091AC12I9AY161061AY221061GA1051+006009089GF106991061081008001001001IA2240+01809KA1120M+03021KA2120N+02321MA1999999101351MD1110091+9999MW1151REMSYN134AAXX  02064 67143 11570 61204 10268 20232 30135 40142 51009 60034 71562 86800 333 01816 10302 20232 50//4 55/// 85820 92438 555 82633;
0205671430999992000010209004-21200+048370FM-12+0006FMSM V0200801N002112200019N0400001N1+02861+02441101271ADDAA106000091GA1041+006009089GF104991041081008001001001MA1999999101201MD1710151+9999REMSYN092AAXX  02094 67143 32582 40804 10286 20244 30120 40127 57015 84800 333 84820 92438 555 81640;EQDQ01  00002PRCP06
0195671430999992000010212004-21200+048370FM-12+0006FMSM V0200801N004112200019N0400001N1+02901+02401101211ADDAA106000091GA1041+006909029GF104991041081008001001001MA1999999101141MD1710061+9999REMSYN082AAXX  02124 67143 32582 40808 10290 20240 30114 40121 57006 84800 333 0//00 84823;EQDQ01  00002PRCP06
0214671430999992000010215004-21200+048370FM-12+0006FMSM V0200801N003112200019N0350001N1+02731+02321101261ADDAA106000091GA1041+006009089GF104991041081008001001021KA1120M+03031MA1999999101191MD1310051+9999REMSYN088AAXX  02154 67143 32581 40806 10273 20232 30119 40126 53005 84802 333 10303 84820 92438;EQDQ01  00002PRCP06
0236671430999992000010300004-21200+048370FM-12+0006FMSM V0202401N002112200019N0300001N1+02511+02381101241ADDAA106004191AC10I9AY161061GA1021+006009089GA2021+009909069GF103991031081008001001001MA1999999101171MD1710101+9999MW1001REMSYN106AAXX  03004 67143 11580 32404 10251 20238 30117 40124 57010 60041 7006/ 83800 333 0//64 82820 82633 924/8;
0204671430999992000010303004-21200+048370FM-12+0006FMSM V0202201N001012200019N0300001N1+02371+02261101281ADDAA112004091GA1021+006009089GA2031+012009069GF104991041081008001001001MA1999999101211MD1310041+9999REMSYN094AAXX  03034 67143 22580 42202 10237 20226 30121 40128 53004 84800 333 60042 82820 83640 92438;
0256671430999992000010306004-21200+048370FM-12+0006FMSM V0201201N001012200019N0400001N1+02801+02401101311ADDAA124004191AC13I9GA1041+006009089GF104991041021008001001001IA2240+02009KA1120M+03031KA2120N+02261MA1999999101241MD1210031+9999REMSYN118AAXX  03064 67143 12582 41202 10280 20240 30124 40131 52003 60044 84200 333 02068 10303 20226 50/// 55/// 84820 92438;
0195671430999992000010309004-21200+048370FM-12+0006FMSM V0200801N003112200019N0400001N1+02851+02301101191ADDAA106000091GA1041+006909089GF104991041021008001001001MA1999999101121MD1710121+9999REMSYN082AAXX  03094 67143 32582 40806 10285 20230 30112 40119 57012 84200 333 84823 92438;EQDQ01  00002PRCP06
0211671430999992000010312004-21200+048370FM-12+0006FMSM V0200801N004112200019N0400001N1+02901+02281101001ADDAA106000091GA1031+006909089GF103991031021008001001021MA1999999100931MD1710191+9999REMSYN098AAXX  03124 67143 32582 30808 10290 20228 30093 40100 57019 83202 333 0//00 83823 92438 555 81075;EQDQ01  00002PRCP06
0224671430999992000010315004-21200+048370FM-12+0006FMSM V0200601N003112200019N0350001N1+02771+02361101071ADDAA106000091GA1031+006009089GF103991031021008001001021KA1120M+02961MA1999999101001MD1310071+9999REMSYN098AAXX  03154 67143 32581 30606 10277 20236 30100 40107 53007 83202 333 10296 83820 92438 555 81075;EQDQ01  00002PRCP06
0217671430999992000010400004-21200+048370FM-12+0006FMSM V0202201N002112200019N0300001N1+02301+02181101101ADDAA106000091GA1011+006009089GA2041+012009069GF104991041081008001001001MA1999999101031MD1310061+9999REMSYN088AAXX  04004 67143 32580 42204 10230 20218 30103 40110 53006 84800 333 81820 84640 92438;EQDQ01  00002PRCP06
0273671430999992000010406004-21200+048370FM-12+0006FMSM V0200601N002112200019N0300001N1+02841+02381101171ADDAA106000091GA1041+006009089GF104991041081008001001001IA2240+01609KA1120M+02961KA2120N+02181MA1999999101101MD1210071+9999REMSYN122AAXX  04064 67143 32580 40604 10284 20238 30110 40117 52007 84800 333 01600 10296 20218 50//4 55/// 84820 92438 555 81650;EQDQ01  00002PRCP06
0195671430999992000010409004-21200+048370FM-12+0006FMSM V0200601N004112200019N0400001N1+02951+02421101091ADDAA106000091GA1041+006909089GF104991041021008001001001MA1999999101021MD1710081+9999REMSYN082AAXX  04094 67143 32582 40608 10295 20242 30102 40109 57008 84200 333 84823 92438;EQDQ01  00002PRCP06
0251671430999992000010709004-21200+048370FM-12+0006FMSM V0200601N002110120019N0350001N1+02801+02301101031ADDAA106000091GA1011+006009099GA2031+006009089GA3051+012009069GF107991071091008001999999MA1999999100961MD1810051+9999REMSYN106AAXX  07094 67143 32581 70604 10280 20230 30096 40103 58005 879// 333 83820 81920 85640 94995 95835 92438;EQDQ01  00002PRCP06
0244671430999992000010715004-21200+048370FM-12+0006FMSM V0200201N002119999999N0300001N1+02721+02431999999ADDAA106000091GA1011+012009069GF106991999071004501081999KA1120M+03041MA1999999101271REMSYN116AAXX  07154 67143 32480 60204 10272 20243 30127 8778/ 333 10304 83817 81917 83073 94995 95835 92438 555 81640 81360;EQDQ01+000072SCOTLCQ02  00002PRCP06
0261671430999992000010809004-21200+048370FM-12+0006FMSM V0200801N00311012001CN0200001N1+02901+02381100861ADDAA106000091AY121031AY221031GA1031+012009069GA2011+030009039GF106991061081008001031021MA1999999100791MD1710151+9999MW1151REMSYN110AAXX  08094 67143 31570 60806 10290 20238 30079 40086 57015 71522 86832 333 84820 92438 555 83640 81360 82073;EQDQ01  00002PRCP06
0236671430999992000010815004-21200+048370FM-12+0006FMSM V0200401N002110120019N0350001N1+02721+02381100771ADDAA106000091GA1021+006009089GA2041+012009069GF105991051081008001001021KA1120M+02961MA1999999100701MD1310031+9999REMSYN094AAXX  08154 67143 32581 50404 10272 20238 30070 40077 53003 85802 333 10296 82820 84640 92438;EQDQ01  00002PRCP06
0195671430999992000010909004-21200+048370FM-12+0006FMSM V0200201N004112200019N0300001N1+02821+02331100871ADDAA106000091GA1041+006009089GF104991041081008001031001MA1999999100801MD1710091+9999REMSYN082AAXX  09094 67143 32580 40208 10282 20233 30080 40087 57009 84830 333 84820 92438;EQDQ01  00002PRCP06
0236671430999992000011003004-21200+048370FM-12+0006FMSM V0209999C000010099019N0300001N1+99999+99999100751ADDAA112015091AY161031AY221031GA1031+002109089GA2051+009909069GF106991051081004501001031MA1999999100681MD1510061+9999MW1011REMSYN104AAXX  10034 67143 21480 60000 20229 30068 40075 55006 70162 85803 333 60152 83807 85633 92438 555 82#73;
0285671430999992000011015004-21200+048370FM-12+0006FMSM V02099999999990099019N9999999N1+02581+02441100691ADDAA106002091AY191031AY221031GA1011+005109099GA2021+005109089GA3071+009909069GF108991081091012501999999KA1120M+02831MA1999999100621MD1310171+9999MW1951REMSYN124AAXX  10154 67143 2160/ 8202/ 10258 20244 30062 40069 53017 79592 889// 333 10283 60021 82817 81917 87633 94996 95836 92436;
0235671430999992000011100004-21200+048370FM-12+0006FMSM V0202401N00101012001CN0200001N1+02281+02161100611ADDAA106000091GA1011+006009089GF107991061081008001071999MA1999999100541MD1710081+9999MW1151REMSYN116AAXX  11004 67143 31570 72402 10228 20216 30054 40061 57008 715// 8687/ 333 0//00 83713 86633 924/8 555 81820 83460;EQDQ01  00002PRCP06
0217671430999992000011103004-21200+048370FM-12+0006FMSM V0202401N00101012001CN0300001N1+02351+02261100641ADDAA106000091GA1021+006009089GF107991061081008001071999MA1999999100571MD1310031+9999REMSYN104AAXX  11034 67143 32580 72402 10235 20226 30057 40064 53003 8687/ 333 82713 86633 92438 555 82820 82460;EQDQ01  00002PRCP06
0233671430999992000011203004-21200+048370FM-12+0006FMSM V0209999C000010300019N0200001N1+02421+02321100431ADDAA112000891AY161031AY221031GA1011+005109089GA2031+009909069GA3041+030009049GF107991999999004501999999MD1310051+9999MW1151REMSYN100AAXX  12034 67143 21470 70000 10242 20232 300/6 40043 53005 71562 333 69982 81817 83633 84460 92438;
0211671430999992000011209004-21200+048370FM-12+0006FMSM V0201201N00411009001CN0300001N1+02701+02341100411ADDAA106000091GA1031+030009049GF107991061081004501071999MA1999999100341MD1710111+9999REMSYN098AAXX  12094 67143 32480 71208 10270 20234 30034 40041 57011 8687/ 333 81817 85633 555 83460 92438;EQDQ01  00002PRCP06
0219671430999992000011215004-21200+048370FM-12+0006FMSM V0202801N002110033019N0200001N1+02651+02441100301ADDAY161031AY221031GA1091+003309099GA2021+005409089GF108991091081004501999999MD1310031+9999MW1151REMSYN094AAXX  12154 67143 21470 82804 10265 20244 3/023 40030 53003 71562 878// 333 89911 82818 92438;EQDQ01+000072SCOTLC
0246671430999992000011300004-21200+048370FM-12+0006FMSM V0200801N002110360019N0200001N1+02501+02331100281ADDAA106000191AC13I9AY161061GA1011+005109089GA2041+009909069GF107991041081004501071999MA1999999100211MD1710171+9999MW1151REMSYN116AAXX  13004 67143 11470 70804 10250 20233 30021 40028 57017 69921 7156/ 8487/ 333 0//18 81817 84633 924/8 555 84460;
0254671430999992000011303004-21200+048370FM-12+0006FMSM V0202401N001010099019N0200001N1+02481+02311100301ADDAA112000291AY161031AY221031GA1011+005109089GA2051+009909069GA3031+030009049GF108991051081004501071999MA1999999100231MD1510021+9999MW1151REMSYN106AAXX  13034 67143 21470 82402 10248 20231 30023 40030 55002 71562 8587/ 333 69922 81817 85633 83460 92438;
0218671430999992000011403004-21200+048370FM-12+000699999V0200801N00101220001SN0300001N1+02341+02191100251ADDAA112001091GA1011+006009089GA2031+012009069GF103991031081008001001021MA1999999100181MD1310031+9999REMSYN108    AAXX  14034 67143 22580 30802 10234 20219 30018 40025 53003 83802 333 60012 81820 83640 92438 555 81073;
0215671430999992000011409004-21200+048370FM-12+000699999V0200601N00411220001SN0400001N1+02971+02651100201ADDAA199000091GA1011+012009069GF102991021081008001001021MA1999999100131MD1810131+9999REMSYN102    AAXX  14094 67143 32582 20608 10297 20265 30013 40020 58013 82802 333 82820 92438 555 81640 81075;EQDQ01  00002PRCP99
0237671430999992000011412004-21200+048370FM-12+000699999V0200601N00411220001SN0400001N1+03031+02361100081ADDAA199000091GA1011+006909089GA2041+015009069GF104991041081008001001021MA1999999100011MD1710121+9999REMSYN108    AAXX  14124 67143 32582 40608 10303 20236 30001 40008 57012 84802 333 0//00 81823 84650 92438 555 81075;EQDQ01  00002PRCP99
0221671430999992000011503004-21200+048370FM-12+000699999V0202201N00101012001SN0300001N1+02441+02231100231ADDAA199000091GA1011+006009089GA2061+012009069GF106991061081008001001001MA1999999100161MD1310141+9999REMSYN092    AAXX  15034 67143 32580 62202 10244 20223 30016 40023 53014 86800 333 81820 86640 92438;EQDQ01  00002PRCP99
0299671430999992000011506004-21200+048370FM-12+000699999V0202201N00101012001SN0300001N1+02861+02401100301ADDAA199000091GA1011+006009089GA2061+012009069GF106991061081008001031001IA2240+01709KA1120M+03141KA2120N+02361MA1999999100231MD1210071+9999REMSYN132    AAXX  15064 67143 32580 62202 10286 20240 30023 40030 52007 86830 333 01700 10314 20236 50//4 55/// 81820 86640 92438 555 81360;EQDQ01  00002PRCP99
0257671430999992000011512004-21200+048370FM-12+000699999V0200601N00211008701SN0400001N1+02971+02621100141ADDAA199000091GA1031+006009089GA2021+008709099GF106991061091008001001021MA1999999100071MD1710131+9999REMSYN128    AAXX  15124 67143 32582 60604 10297 20262 30007 40014 57013 86902 333 0//00 82929 83820 94995 94996 94997 95815 95816 92438;EQDQ01  00002PRCP99
0221671430999992000011603004-21200+048370FM-12+000699999V0200401N01441009901SN0300001N1+02531+02421100901ADDAA199000091GA1011+005109089GA2071+009909069GF107991071081004501999999MA1999999100431MD1310131+9999REMSYN092    AAXX  16034 67143 32480 70428 10253 20242 30043 40090 53013 878// 333 81817 87633 92438;EQDQ01  00002PRCP99
0289671430999992000011606004-21200+048370FM-12+000699999V0202201N00101009901SN0300001N1+02871+02521100591ADDAA199000091GA1011+006009089GA2071+009909069GF107991071081008001999999IA2240+01909KA1120M+03131KA2120N+02491MA1999999100521MD1210091+9999REMSYN122    AAXX  16064 67143 32580 72202 10287 20252 30052 40059 52009 878// 333 01900 10313 20249 50//4 55/// 81820 87633 92438;EQDQ01  00002PRCP99
0231671430999992000011609004-21200+048370FM-12+000699999V0201401N00411075001SN0400001N1+03001+02611100521ADDAA199000091GA1021+006009089GA2051+075009009GF105991021021008001031021MA1999999100451MD1810071+9999REMSYN102    AAXX  16094 67143 32582 51408 10300 20261 30045 40052 58007 82232 333 82820 85075 92438 555 82360;EQDQ01  00002PRCP99
0208671430999992000011703004-21200+048370FM-12+000699999V0201201N00101009901SN0300001N1+02541+02441100771ADDAA112031091GA1021+006009089GA2061+009909069GF106991061081008001031001MA1999999100701MD1310051+9999REMSYN098    AAXX  17034 67143 2/580 61202 10254 20244 30070 40077 53005 86830 333 60312 82820 86633 92438;
0193671430999992000011709004-21200+048370FM-12+000699999V0202601N00311012001CN0400001N1+02931+02561100701ADDAA199000091GA1031+006909029GF106991061081008001001001MA1999999100581MD1810091+9999REMSYN080    AAXX  17094 67143 32582 62606 10293 20256 30058 40070 58009 86800 333 83823;EQDQ01  00002PRCP99
0283671430999992000011712004-21200+048370FM-12+000699999V0200801N00211015001SN0400001N1+03031+02601100491ADDAA199000091GA1011+006009099GA2031+006009089GA3041+015009069GF105991051031008001001021MA1999999100421MD1710211+9999REMSYN138    AAXX  17124 67143 32582 50804 10303 20260 30042 40049 57021 85302 333 0//00 83820 81920 84650 94996 94997 95836 95837 92438 555 81075;EQDQ01  00002PRCP99
0296671430999992000011715004-21200+048370FM-12+000699999V0200801N00211012001SN0300001N1+02861+99999100661ADDAA199000091GA1021+006009099GA2021+006009089GA3051+012009069GF107991061091008001031999KA1120M+03161MA1999999100591MD1310171+9999REMSYN138    AAXX  17154 67143 32580 70804 10286 202/6 30059 40066 53017 8693/ 333 10316 82820 82920 85640 94996 94997 94998 95836 95837 555 82360;EQDQ01  00002PRCP99
0282671430999992000011806004-21200+048370FM-12+000699999V0202801N00101012001SN0300001N1+02811+02481100801ADDAA124006191AC13I9GA1021+006009089GA2051+012009069GF106991061081008001001001IA2240+01809KA1120M+03161KA2120N+02301MA1999999100731MD1210091+9999REMSYN128    AAXX  18064 67143 12580 62802 10281 20248 30073 40080 52009 60064 86800 333 01898 10316 20230 50//4 55/// 82820 85640 92438;
0215671430999992000011900004-21200+048370FM-12+000699999V0202801N00101220001SN0300001N1+02581+02321100811ADDAA199000091GA1021+006009089GF102991021081008001001001MA1999999100741MD1710091+9999REMSYN102    AAXX  19004 67143 33580 22802 10258 20232 30074 40081 57009 82800 333 0//00 82820 924/8 555 82640;EQDQ01  00002PRCP99
0277671430999992000011906004-21200+048370FM-12+000699999V0200401N00311220001SN0400001N1+03001+02611101011ADDAA199000091GA1011+006009089GF101991011081008001001001IA2240+01809KA1120M+03121KA2120N+02561MA1999999100941MD1110081+9999REMSYN126    AAXX  19064 67143 32582 10406 10300 20261 30094 40101 51008 81800 333 01800 10312 20256 50//4 55/// 81820 90248 555 81640;EQDQ01  00002PRCP99
0215671430999992000011909004-21200+048370FM-12+000699999V0200401N00311220001SN0400001N1+03021+02661999999ADDAA199000091GA1011+006009089GF101991011021008001001001MA1999999100811MD1810131+9999REMSYN086    AAXX  19094 67143 32582 10406 10302 20266 30081 40888 58013 81200 333 81820 92438;EQDQ01+108883APOSLPQ02  00002PRCP99
0273671430999992000011912004-21200+048370FM-12+000699999V0200401N00211007501CN0200001N1+02981+02651100771ADDAA199000091AY121061AY201061GA1021+006009099GA2011+006009089GF105991051091008001001001MA1999999100701MD1610101+9999MW1171REMSYN122    AAXX  19124 67143 31570 50404 10298 20265 30070 40077 56010 71720 85900 333 0//00 81820 82920 94997 94998 95838 92438;EQDQ01  00002PRCP99
0276671430999992000011915004-21200+048370FM-12+0006FMSM V0200401N00311007501CN0200001N1+02901+02601100831ADDAA199000091AY121031AY221031GA1021+030009049GF106991061091008001031021KA1120M+03121MA1999999100761MD1310061+9999MW1101REMSYN128AAXX  19154 67143 31570 60406 10290 20260 30076 40083 53006 71022 86932 333 10312 81820 81920 94998 95838 92438 555 82460 81073;EQDQ01  00002PRCP99
0214671430999992000012003004-21200+048370FM-12+0006FMSM V0202001N003112200019N0300001N1+02521+02341101111ADDAA112004091GA1021+006009089GA2031+069009009GF104991031081008001001021MA1999999101041MD1210111+9999REMSYN104AAXX  20034 67143 22580 42006 10252 20234 30104 40111 52011 83802 333 60042 82820 83073 92438 555 82640;
0278671430999992000012006004-21200+048370FM-12+0006FMSM V0202201N005110060019N0300001N1+02821+02511101231ADDAA124004191AC13I9GA1031+003009079GA2051+006009089GF106991061021004501001001IA2240+01709KA1120M+03121KA2120N+02471MA1999999101161MD1210121+9999REMSYN124AAXX  20064 67143 12480 62210 10282 20251 30116 40123 52012 60044 86200 333 01797 10312 20247 50//4 55/// 83710 85820 92438;
0232671430999992000012009004-21200+048370FM-12+0006FMSM V0202601N004110099019N0100001N1+02701+02461101181ADDAA106000491AY121031AY221031GA1031+006009089GA2051+009909069GF106991061081008001001001MA1999999101111MD1810051+9999MW1601REMSYN100AAXX  20094 67143 21560 62608 10270 20246 30111 40118 58005 76022 86800 333 69941 83820 85633 92437;
0306671430999992000012012004-21200+048370FM-12+0006FMSM V0202401N006210099019N0200001N1+02931+02311101011ADDAA106000591AC10I9AY161061AY221061GA1011+006009099GA2031+006009089GA3041+009909069GF105991051091008001001021MA1999999100941MD1710171+9999MW1151REMSYN152AAXX  20124 67143 11570 52412 10293 20231 30094 40101 57017 69941 71562 85902 333 0//14 83820 81920 84633 94994 94995 94996 95835 95836 92438 555 81073;
0266671430999992000012100004-21200+048370FM-12+0006FMSM V0202201N002110090019N0050001N1+02321+02231101251ADDAA106061091AC13I9AY161061AY261061GA1021+005109089GA2041+009009069GA3061+030009049GF108991051081004501071999MA1999999101181MD1710111+9999MW1611REMSYN112AAXX  21004 67143 11450 82204 10232 20223 30118 40125 57011 60611 76166 8587/ 333 0//67 82817 84630 86460 924/6;
0254671430999992000012103004-21200+048370FM-12+0006FMSM V0203601N002110099019N0150001N1+02301+02221101351ADDAA112071091AY161031AY261031GA1031+005109089GA2041+009909069GA3051+030009049GF108991051081004501071999MA1999999101281MD1310101+9999MW1211REMSYN106AAXX  21034 67143 21465 83604 10230 20222 30128 40135 53010 72166 8587/ 333 60712 83817 84633 85460 92437;
0306671430999992000012106004-21200+048370FM-12+0006FMSM V0202401N005110099019N0300001N1+02551+02271101401ADDAA124071191AC10I9AY161061AY221061GA1041+006009089GA2061+009909069GF107991071081008001999999IA2240+01709KA1120M+03021KA2120N+02201MA1999999101331MD1110051+9999MW1021REMSYN130AAXX  21064 67143 11580 72410 10255 20227 30133 40140 51005 60714 70262 878// 333 01764 10302 20220 50//4 55/// 84820 86633 92438;
0226671430999992000012109004-21200+048370FM-12+0006FMSM V0202001N003110099019N0200001N1+02671+02231101291ADDAA199000021AY121031AY221031GA1031+006009089GA2071+009909069GF107991071081008001999999MA1999999101221MD1710111+9999MW1131REMSYN094AAXX  21094 67143 31570 72006 10267 20223 30122 40129 57011 71322 878// 333 83820 87633 92438;
0232671430999992000012112004-21200+048370FM-12+0006FMSM V0203001N006210099019N0250001N1+02661+02221101201ADDAA199000021AY121061AY221061GA1031+006009089GA2071+009909069GF107991071081008001999999MA1999999101131MD1710091+9999MW1151REMSYN100AAXX  21124 67143 31575 73012 10266 20222 30113 40120 57009 71522 878// 333 0//00 83820 87633 92438;
0245671430999992000012115004-21200+048370FM-12+0006FMSM V0201801N002110099019N0200001N1+02441+02201101281ADDAA199000021AY121031AY221031GA1041+005109089GA2071+009909069GF107991071081004501999999KA1120M+02821MA1999999101211MD1310081+9999MW1151REMSYN100AAXX  21154 67143 31470 71804 10244 20220 30121 40128 53008 71522 878// 333 10282 84817 87633 92438;
0254671430999992000012203004-21200+048370FM-12+0006FMSM V0201801N003110090019N0200001N1+02181+01901101441ADDAA112005091AY161031AY221031GA1021+005109089GA2051+009009069GA3061+030009049GF108991051081008001071999MA1999999101371MD1310131+9999MW1151REMSYN106AAXX  22034 67143 21570 81806 10218 20190 30137 40144 53013 71562 8587/ 333 60052 82817 85630 86460 92438;
0328671430999992000012206004-21200+048370FM-12+0006FMSM V0201601N004110090019N0050001N1+02451+02171101521ADDAA124005191AC11I9AY161061AY221061GA1031+005109089GA2041+009009069GA3041+030009049GF108991061081004501071999IA2240+01509KA1120M+02821KA2120N+02181MA1999999101451MD1210081+9999MW1601REMSYN136AAXX  22064 67143 11450 81608 10245 20217 30145 40152 52008 60054 76062 8687/ 333 01555 10282 20218 50//4 55/// 83817 84630 84460 92438;
0248671430999992000012209004-21200+048370FM-12+0006FMSM V0201801N002110099019N0250001N1+02781+02411101421ADDAA106003091GA1011+005109099GA2031+005109089GA3051+009909069GF108991061091004501071999MA1999999101351MD1710101+9999REMSYN122AAXX  22094 67143 22475 81804 10278 20241 30135 40142 57010 8697/ 333 60031 83817 81917 85633 94996 95836 92438 555 82460;
0216671430999992000012212004-21200+048370FM-12+0006FMSM V0201801N00511004201CN0300001N1+02901+02481101301ADDAA199000021GA1021+005109099GA2021+005109089GF107991061091004501071999MA1999999101231MD1710121+9999REMSYN106AAXX  22124 67143 32480 71810 10290 20248 30123 40130 57012 8697/ 333 0//00 82817 82917 94996 95836 92438;
0274671430999992000012215004-21200+048370FM-12+0006FMSM V0200601N004112200019N0300001N1+02751+02271101321ADDAA199000021GA1021+005109089GA2041+009909069GA3041+030009039GF104991999999004501031999KA1120M+03201MA1999999101251MD1510021+9999REMSYN100AAXX  22154 67143 32480 40608 10275 20227 30125 40132 55002 8703/ 333 10320 82817 84633 84360 92438;EQDQ01+000072SCOTLCQ02+000002SCOLCG
0217671430999992000012303004-21200+048370FM-12+0006FMSM V0201801N002110120019N0300001N1+02411+02391101351ADDAA199000091GA1021+006009089GA2051+012009069GF106991061081008001001001MA1999999101281MD1510021+9999REMSYN088AAXX  23034 67143 32580 61804 10241 20239 30128 40135 55002 86800 333 82820 85640 92438;EQDQ01  00002PRCP99
0313671430999992000012306004-21200+048370FM-12+0006FMSM V0202201N002110099019N0200001N1+02771+02451101441ADDAA199000091AY121061AY211061GA1041+006009089GA2051+009909069GF106991061081008001001001IA2240+01609KA1120M+03021KA2120N+02401MA1999999101371MD1210091+9999MW1151REMSYN124AAXX  23064 67143 31570 62204 10277 20245 30137 40144 52009 71521 86800 333 01600 10302 20240 50//4 55/// 84820 85633 92438;EQDQ01  00002PRCP99
0223671430999992000012309004-21200+048370FM-12+0006FMSM V0202201N00511012001CN0200001N1+02901+02381101361ADDAA199000091AY121031AY221031GA1041+006009089GF105991051081008001001021MA1999999101291MD1810081+9999MW1151REMSYN088AAXX  23094 67143 31570 52210 10290 20238 30129 40136 58008 71522 85802 333 84820 92438;EQDQ01  00002PRCP99
0293671430999992000012312004-21200+048370FM-12+0006FMSM V0202001N004112200019N0200001N1+02901+02401101171ADDAA199000091AY121061AY211061GA1011+012009069GF104991041091008001001021MA1999999101101MD1710191+9999MW1151REMSYN158AAXX  23124 67143 31570 42008 10290 20240 30110 40117 57019 71521 84902 333 0//00 83828 82920 94994 94995 94996 94997 95814 95815 95816 92438 555 81640 81075;EQDQ01  00002PRCP99
0328671430999992000012315004-21200+048370FM-12+0006FMSM V0202001N00411007501CN0250001N1+02771+02501101261ADDAA199000091AY121031AY211031GA1031+030009049GF106991051091008001999021KA1120M+03021MA1999999101191MD1310091+9999MW1151REMSYN164AAXX  23154 67143 31575 62008 10277 20250 30119 40126 53009 71521 85902 333 10302 82820 82920 94994 94995 94996 94997 94998 95814 95815 95816 92438 555 83460 83073;EQDQ01+000002SCOMCGQ02  00002PRCP99
0223671430999992000012400004-21200+048370FM-12+0006FMSM V0202001N001012200019N0300001N1+02501+02301101261ADDAA199000091GA1011+006009089GA2041+009909069GF104991041081008001001001MA1999999101191MD1710121+9999REMSYN094AAXX  24004 67143 33580 42002 10250 20230 30119 40126 57012 84800 333 0//00 81820 84633 924/8;EQDQ01  00002PRCP99
0227671430999992000012403004-21200+048370FM-12+0006FMSM V0202001N001010099019N0300001N1+02471+02301101281ADDAA199000091GA1011+006009089GA2061+009909069GF106991061081008001001021MA1999999101211MD1310021+9999REMSYN098AAXX  24034 67143 32580 62002 10247 20230 30121 40128 53002 86802 333 81820 86633 92438 555 81073;EQDQ01  00002PRCP99
0285671430999992000012406004-21200+048370FM-12+0006FMSM V0202001N002110120019N0300001N1+02841+02471101371ADDAA199000091GA1031+006009089GA2061+012009069GF106991061081008001001001IA2240+01709KA1120M+03021KA2120N+02471MA1999999101301MD1210091+9999REMSYN118AAXX  24064 67143 32580 62004 10284 20247 30130 40137 52009 86800 333 01700 10302 20247 50//4 55/// 83820 86640 92438;EQDQ01  00002PRCP99
0227671430999992000012409004-21200+048370FM-12+0006FMSM V0202001N004112200019N0400001N1+03081+02641101271ADDAA199000091GA1011+030009039GF104991999021008001031021MA1999999101201MD1710101+9999REMSYN098AAXX  24094 67143 32582 42008 10308 20264 30120 40127 57010 85232 333 85820 92438 555 81360 81075;EQDQ01+000052SCOTLCQ02  00002PRCP99
0275671430999992000012412004-21200+048370FM-12+0006FMSM V0202001N004110690019N0300001N1+02921+02441101161ADDAA199000091GA1021+006009099GA2021+006009089GA3031+069009009GF105991031091008001001031MA1999999101091MD1710111+9999REMSYN130AAXX  24124 67143 32580 52008 10292 20244 30109 40116 57011 83903 333 0//00 82820 82920 83073 94995 94996 94997 95835 95836 92438;EQDQ01  00002PRCP99
0312671430999992000012415004-21200+048370FM-12+0006FMSM V0200801N002110060019N0250001N1+02851+02561101211ADDAA199000091AY121031AY221031GA1031+006009099GA2021+006009089GF107991061091008001001021KA1120M+03121MA1999999101141MD1310051+9999MW1151REMSYN148AAXX  24154 67143 31575 70804 10285 20256 30114 40121 53005 71522 86902 333 10312 82820 83920 94994 94995 94996 94997 94998 95835 95836 95837 92438;EQDQ01  00002PRCP99
0236671430999992000012500004-21200+048370FM-12+0006FMSM V0200801N001010099019N0150001N1+02221+02101101301ADDAA106007991AC12I9AY161061GA1021+003909089GA2071+009909069GF107991071081004501999999MA1999999101231MD1710121+9999MW1211REMSYN106AAXX  25004 67143 11465 70802 10222 20210 30123 40130 57012 60081 7216/ 878// 333 0//96 82813 87633 924/7;
0204671430999992000012503004-21200+048370FM-12+0006FMSM V0202601N001010099019N0400001N1+02301+02151101331ADDAA112008091GA1011+006009089GA2071+009909069GF107991071081008001999999MA1999999101261MD1310031+9999REMSYN094AAXX  25034 67143 22582 72602 10230 20215 30126 40133 53003 878// 333 60082 81820 87633 92438;
0278671430999992000012506004-21200+048370FM-12+0006FMSM V0202601N002110099019N0300001N1+02671+02301101401ADDAA124007991AC13I9GA1021+006009089GA2061+009909069GF107991071081008001999999IA2240+01409KA1120M+03121KA2120N+02201MA1999999101331MD1110071+9999REMSYN124AAXX  25064 67143 12580 72604 10267 20230 30133 40140 51007 60084 878// 333 01497 10312 20220 5///4 55/// 82820 86633 92438;
0176671430999992000012509004-21200+048370FM-12+0006FMSM V0200601N004112200019N0400001N1+02971+02481101281ADDAA199000021GA1041+006009089GF104991041081008001001001MA1999999101211MD1710121+9999REMSYN082AAXX  25094 67143 32582 40608 10297 20248 30121 40128 57012 84800 333 84820 92438;
0268671430999992000012512004-21200+048370FM-12+0006FMSM V0201801N008212200019N0250001N1+02751+02281101181ADDAA199000021AY111061AY211061GA1011+015009069GF104991041091008001001021MA1999999101111MD1710101+9999MW1151REMSYN152AAXX  25124 67143 31575 41816 10275 20228 30111 40118 57010 71511 84902 333 0//00 83820 82920 94992 94993 94995 94996 95833 95836 92438 555 81650 81075;
0266671430999992000012515004-21200+048370FM-12+0006FMSM V0201001N00101007501CN0300001N1+02761+02431101191ADDAA199000091GA1021+012009069GF106991051091008001001021KA1120M+03081MA1999999101121MD1310011+9999REMSYN140AAXX  25154 67143 32580 61002 10276 20243 30112 40119 53001 85902 333 10308 83820 82920 94996 94997 95835 95836 95837 92438 555 82640 83073;EQDQ01  00002PRCP99
0217671430999992000012600004-21200+048370FM-12+0006FMSM V0209999C000012200019N0300001N1+02381+02111101131ADDAA199000091GA1011+012009069GF102991021081008001001021MA1999999101061MD1710091+9999REMSYN104AAXX  26004 67143 33580 20000 10238 20211 30106 40113 57009 82802 333 0//00 81820 924/8 555 81640 81073;EQDQ01  00002PRCP99
0211671430999992000012603004-21200+048370FM-12+0006FMSM V0201001N002112200019N0400001N1+02351+02091101241ADDAA199000091GA1011+012009069GF102991021081008001001021MA1999999101171MD1310111+9999REMSYN098AAXX  26034 67143 32582 21004 10235 20209 30117 40124 53011 82802 333 81820 92438 555 81640 81073;EQDQ01  00002PRCP99
0205671430999992000012609004-21200+048370FM-12+0006FMSM V0202201N004112200019N0400001N1+03001+02491101181ADDAA199000091GA1031+006009089GF103991031081008001001001MA1999999101111MD1710151+9999REMSYN092AAXX  26094 67143 32582 32208 10300 20249 30111 40118 57015 83800 333 83820 92438 555 81640;EQDQ01  00002PRCP99
0241671430999992000012612004-21200+048370FM-12+0006FMSM V0201201N00621007501CN0400001N1+03021+02501101021ADDAA199000091GA1011+006009099GA2021+006009089GF105991051091008001001021MA1999999100951MD1710171+9999REMSYN112AAXX  26124 67143 32582 51212 10302 20250 30095 40102 57017 85902 333 0//00 82820 81920 94995 94997 95837 92438;EQDQ01  00002PRCP99
0222671430999992000012615004-21200+048370FM-12+0006FMSM V0200801N00511004201CN0400001N1+02851+02501101071ADDAA199000091GA1011+005109099GA2011+005109089GF106991061091004501071021KA1120M+03031MA1999999101001REMSYN094AAXX  26154 67143 32482 60810 10285 20250 30100 40107 86972 333 10303 81817 81917 94994 95835;EQDQ01  00002PRCP99
0221671430999992000012700004-21200+048370FM-12+0006FMSM V0200801N00211009901CN0200001N1+02381+02111101061ADDAA106002091AC12C9GA1011+005109089GA2061+009909069GF106991999999004501999999MA1999999100991MD1710131+9999REMSYN105AAXX  27004 67143 11470 60804 10238 20211 30099 40106 57013 60021 756/ 86800 333 0//12 81817 86633 924/8;
0204671430999992000012703004-21200+048370FM-12+0006FMSM V0202001N002110120019N0300001N1+02421+02161101111ADDAA112002091GA1021+006009089GA2061+012009069GF107991071081008001999999MA1999999101041MD1310051+9999REMSYN094AAXX  27034 67143 22580 72004 10242 20216 30104 40111 53005 878// 333 60022 82820 86640 92438;
0217671430999992000012709004-21200+048370FM-12+0006FMSM V0201001N003110120019N0300001N1+03001+02511101111ADDAA199000091GA1021+006009089GA2061+012009069GF107991071081008001999999MA1999999101041MD1710111+9999REMSYN088AAXX  27094 67143 32580 71006 10300 20251 30104 40111 57011 878// 333 82820 86640 92438;EQDQ01  00002PRCP99
0223671430999992000012712004-21200+048370FM-12+0006FMSM V0201001N004110150019N0400001N1+03001+02611101021ADDAA199000091GA1021+006009089GA2061+015009069GF107991071081008001999999MA1999999100951MD1710091+9999REMSYN094AAXX  27124 67143 32582 71008 10300 20261 30095 40102 57009 878// 333 0//00 82820 86650 92438;EQDQ01  00002PRCP99
0258671430999992000012715004-21200+048370FM-12+0006FMSM V0201001N005110120019N0300001N1+02881+02511101011ADDAA199000091GA1021+005109089GA2041+012009069GA3041+030009039GF107991051081004501071999KA1120M+03021MA1999999100941MD1510011+9999REMSYN100AAXX  27154 67143 32480 71010 10288 20251 30094 40101 55001 8587/ 333 10302 82817 84640 84360 92438;EQDQ01  00002PRCP99
0235671430999992000012800004-21200+048370FM-12+0006FMSM V0201201N001010099019N0200001N1+02681+02541101031ADDAA199000091GA1031+006009089GA2071+009909069GF107991071081008001999999MA1999999100961MD1710061+9999MW1151REMSYN100AAXX  28004 67143 31570 71202 10268 20254 30096 40103 57006 715// 878// 333 0//00 83820 87633 924/8;EQDQ01  00002PRCP99
0254671430999992000012803004-21200+048370FM-12+0006FMSM V0201201N004110060019N0080001N1+02701+02561101061ADDAA112001091AY161031AY221031GA1021+003909079GA2041+006009089GA3071+009909069GF108991081081004501999999MA1999999100991MD1310031+9999MW1611REMSYN106AAXX  28034 67143 21458 81208 10270 20256 30099 40106 53003 76162 888// 333 60012 82713 84820 87633 92436;
0266671430999992000012809004-21200+048370FM-12+0006FMSM V0202201N00411009901CN0150001N1+02801+02461101041ADDAA199000021AY121031AY221031GA1011+005109099GA2041+005109089GA3071+009909069GF107991071091004501999999MA1999999100971MD1810111+9999MW1171REMSYN118AAXX  28094 67143 31465 72208 10280 20246 30097 40104 58011 71722 879// 333 84817 81917 87633 94992 94993 95833 92437;
0278671430999992000012812004-21200+048370FM-12+0006FMSM V0202001N007210099019N0100001N1+02491+02391100981ADDAA106010991AY191061AY261061GA1011+000159079GA2011+005109099GA3061+009909069GF108991061091004501071999MA1999999100911MD1610061+9999MW1611REMSYN130AAXX  28124 67143 11460 82014 10249 20239 30091 40098 56006 60111 76196 8697/ 333 0//9/ 81700 81917 86633 94996 94997 95837 92437;
0285671430999992000012815004-21200+048370FM-12+0006FMSM V0203201N002110099019N0150001N1+02401+02271101001ADDAA106014091AY161031AY221031GA1011+005109099GA2031+005109089GA3061+009909069GF107991061091004501071999KA1120M+02841MA1999999100931MD1310021+9999MW1211REMSYN124AAXX  28154 67143 21465 73204 10240 20227 30093 40100 53002 72162 8697/ 333 10284 60141 83817 81917 86633 94992 95832 92437;
0214671430999992000012900004-21200+048370FM-12+0006FMSM V0203201N00211012001CN0200001N1+02301+02151100881ADDAA106002091AC10I9AY161061GA1041+006009089GF105991051081008001001021MA1999999100811MD1710151+9999MW1151REMSYN100AAXX  29004 67143 11570 53204 10230 20215 30081 40088 57015 60021 7156/ 85802 333 0//64 84820 924/8;
0182671430999992000012903004-21200+048370FM-12+0006FMSM V0203201N001012200019N0300001N1+02261+02061101131ADDAA112002091GA1031+006009089GF103991031081008001001001MA1999999101061MD1310251+9999REMSYN088AAXX  29034 67143 22580 33202 10226 20206 30106 40113 53025 83800 333 60022 83820 92438;
0250671430999992000012906004-21200+048370FM-12+0006FMSM V0202401N003112200019N0300001N1+02861+02451101201ADDAA124015091GA1041+006009089GF104991041021008001001001IA2240+01209KA1120M+02841KA2120N+02261MA1999999101131MD1210071+9999REMSYN118AAXX  29064 67143 12580 42406 10286 20245 30113 40120 52007 60154 84200 333 01299 10284 20226 50//4 55/// 84820 92438;
0195671430999992000012909004-21200+048370FM-12+0006FMSM V0202401N005112200019N0300001N1+03001+02441101081ADDAA199000091GA1041+006009089GF104991041081008001001001MA1999999101001MD1710121+9999REMSYN082AAXX  29094 67143 32580 42410 10300 20244 30100 40108 57012 84800 333 84820 92438;EQDQ01  00002PRCP99
0211671430999992000012912004-21200+048370FM-12+0006FMSM V0201601N006212200019N0300001N1+03091+02501100951ADDAA199000091GA1041+006009089GF104991041021008001001021MA1999999100881MD1710131+9999REMSYN098AAXX  29124 67143 32580 41612 10309 20250 30088 40095 57013 84202 333 0//00 84820 92438 555 81075;EQDQ01  00002PRCP99
0235671430999992000013000004-21200+048370FM-12+0006FMSM V0201601N005112200019N0150001N1+02481+02251100811ADDAA199000091GA1011+005109089GA2041+009909069GF104991041081008001001001MA1999999100741MD1710201+9999MW1151REMSYN100AAXX  30004 67143 31565 41610 10248 20225 30074 40081 57020 715// 84800 333 0//00 81817 84633 924/8;EQDQ01  00002PRCP99
0242671430999992000013003004-21200+048370FM-12+0006FMSM V0201601N004110750019N0150001N1+02401+02131100731ADDAA112003091AY161031AY221031GA1011+005109089GA2041+075009009GF106991021081004501001021MA1999999100661MD1710081+9999MW1151REMSYN110AAXX  30034 67143 21465 61608 10240 20213 30066 40073 57008 71562 82802 333 60032 81817 84075 92438 555 82633;
0278671430999992000013006004-21200+048370FM-12+0006FMSM V0202201N009310120019N0300001N1+02851+02221100721ADDAA124003091AC11I9GA1011+006009089GA2061+012009069GF106991061081008001001001IA2240+01309KA1120M+03091KA2120N+02401MA1999999100651MD1810011+9999REMSYN124AAXX  30064 67143 12580 62218 10285 20222 30065 40072 58001 60034 86800 333 01315 10309 20240 50//4 55/// 81820 86640 92438;
0229671430999992000013009004-21200+048370FM-12+0006FMSM V02099999999999999999N0300001N1+02941+02581100601ADDAA199000091AY121031AY201031GA1011+006009089GA2031+012009069MA1999999100531MD1710121+9999MW1101REMSYN104AAXX  30094 67143 31580 ///// 10294 20258 30053 40060 57012 71020 83802 333 81820 83640 92438 555 81075;EQDQ01  00002PRCP99
0282671430999992000013015004-21200+048370FM-12+0006FMSM V0209999C000010360019N0300001N1+02841+02501100391ADDAA199000091AY121031AY221031GA1011+006009099GA2011+006009089GF107991031091008001031061KA1120M+03181MA1999999100321MD1510041+9999MW1061REMSYN118AAXX  30154 67143 31580 70000 10284 20250 30032 40039 55004 70622 83936 333 10318 81820 81920 94993 95833 94270 92438;EQDQ01  00002PRCP99
0223671430999992000013100004-21200+048370FM-12+0006FMSM V0200601N002112200019N0300001N1+02531+02321100661ADDAA199000091GA1011+006009089GA2021+012009069GF102991021081008001001021MA1999999100591MD1710051+9999REMSYN094AAXX  31004 67143 33580 20604 10253 20232 30059 40066 57005 82802 333 0//00 81820 82640 924/8;EQDQ01  00002PRCP99
0217671430999992000013103004-21200+048370FM-12+0006FMSM V0200601N001012200019N0300001N1+02411+02241100901ADDAA199000091GA1011+006009089GA2031+069009009GF103991011081008001001021MA1999999100831MD1310241+9999REMSYN088AAXX  31034 67143 32580 30602 10241 20224 30083 40090 53024 81802 333 81820 83073 92438;EQDQ01  00002PRCP99
0285671430999992000013106004-21200+048370FM-12+0006FMSM V0203001N003112200019N0300001N1+03171+02361101021ADDAA199000091GA1011+006009089GA2041+075009009GF104991011081008001001021IA2240+01209KA1120M+03181KA2120N+02411MA1999999100951MD1210121+9999REMSYN118AAXX  31064 67143 32580 43006 10317 20236 30095 40102 52012 81802 333 01200 10318 20241 50//4 55/// 81820 84075 92438;EQDQ01  00002PRCP99
0195671430999992000013109004-21200+048370FM-12+0006FMSM V0200801N004112200019N0400001N1+03081+02551100881ADDAA199000091GA1031+006009089GF104991031021008001031011MA1999999100811MD1710141+9999REMSYN082AAXX  31094 67143 32582 40808 10308 20255 30081 40088 57014 83231 333 83820 92438;EQDQ01  00002PRCP99
0291671430999992000013112004-21200+048370FM-12+0006FMSM V0200801N003110120019N0200001N1+03001+02621100771ADDAA199000091AY111061AY211061GA1011+006009099GA2021+006009089GA3061+012009069GF106991061091008001001001MA1999999100701MD1710111+9999MW1171REMSYN124AAXX  31124 67143 31570 60806 10300 20262 30070 40077 57011 71711 86900 333 0//00 82820 81920 86640 94997 94998 95838 92438;EQDQ01  00002PRCP99
0320671430999992000013115004-21200+048370FM-12+0006FMSM V0200801N002110099019N0200001N1+02951+02521100961ADDAA199000091AY191031AY221031GA1011+006009099GA2031+006009089GA3061+009909069GF107991061091008001071999KA1120M+03291MA1999999100891MD1310191+9999MW1291REMSYN140AAXX  31154 67143 31570 70804 10295 20252 30089 40096 53019 72992 8697/ 333 10329 81920 83820 86633 94995 94996 95835 95836 92438 555 82460;EQDQ01  00002PRCP99
0211671430999992000020100004-21200+048370FM-12+0006FMSM V0203401N002112200019N0300001N1+02501+02361101041ADDAA199000091GA1021+006009089GF102991021081008001001001MA1999999100971MD1710071+9999REMSYN098AAXX  01004 67143 33580 23404 10250 20236 30097 40104 57007 82800 333 0//00 82820 924/8 555 81640;EQDQ01  00002PRCP99
0211671430999992000020103004-21200+048370FM-12+0006FMSM V0202401N002112200019N0300001N1+02401+02281101121ADDAA199000091GA1021+012009069GF103991031081008001001021MA1999999101051MD1310081+9999REMSYN098AAXX  01034 67143 32580 32404 10240 20228 30105 40112 53008 83802 333 82820 555 82640 92438 82073;EQDQ01  00002PRCP99
0273671430999992000020106004-21200+048370FM-12+0006FMSM V0202201N002112200019N0300001N1+02901+02441101231ADDAA199000091GA1041+006009089GF104991041021008001001021IA2240+01209KA1120M+03291KA2120N+02391MA1999999101161MD1210111+9999REMSYN122AAXX  01064 67143 32580 42204 10290 20244 30116 40123 52011 84202 333 01200 10329 20239 50//4 55/// 84820 92438 555 81073;EQDQ01  00002PRCP99
0205671430999992000020109004-21200+048370FM-12+0006FMSM V0202201N003112200019N0400001N1+03041+02561101131ADDAA199000091GA1041+006909089GF104991041021008001001021MA1999999101061MD1810101+9999REMSYN092AAXX  01094 67143 32582 42206 10304 20256 30106 40113 58010 84202 333 84823 92438 555 81075;EQDQ01  00002PRCP99
0259671430999992000020112004-21200+048370FM-12+0006FMSM V0201001N004112200019N0400001N1+03071+02491100931ADDAA199000091GA1031+006009089GA2011+006909099GF103991031091008001001001MA1999999100861MD1710201+9999REMSYN130AAXX  01124 67143 32582 31008 10307 20249 30086 40093 57020 83900 333 0//00 83820 81923 94995 94996 94997 95835 95836 95837 92438;EQDQ01  00002PRCP99
0266671430999992000020115004-21200+048370FM-12+0006FMSM V0201001N004112200019N0400001N1+02901+02501101001ADDAA199000091GA1011+006009099GA2031+006009089GF103991031091008001031021KA1120M+03131MA1999999100951MD1310091+9999REMSYN124AAXX  01154 67143 32582 31008 10290 20250 30095 40100 53009 83932 333 10313 83820 81920 94995 94996 94997 95835 95836 92438;EQDQ01  00002PRCP99
0236671430999992000020200004-21200+048370FM-12+0006FMSM V0201001N001010099019N0150001N1+02501+02321101091ADDAA106007191AC13C9AY161061GA1021+003909079GA2051+009909069GF105991051081004501001001MA1999999101021MD1710131+9999MW1151REMSYN106AAXX  02004 67143 11465 51002 10250 20232 30102 40109 57013 60071 7156/ 85800 333 0//63 82713 85633 924/7;
0232671430999992000020203004-21200+048370FM-12+0006FMSM V0201001N001010099019N0200001N1+02521+02321101191ADDAA112007091AY121031AY221031GA1031+003909079GA2071+009909069GF107991071081004501999999MA1999999101121MD1310101+9999MW1151REMSYN100AAXX  02034 67143 21470 71002 10252 20232 30112 40119 53010 71522 878// 333 60072 83713 87633 92438;
0284671430999992000020206004-21200+048370FM-12+0006FMSM V0203601N001010060019N0300001N1+02951+02421101261ADDAA124007991AC13C9AY161061AY221061GA1051+006009089GF105991051081008001001001IA2240+01209KA1120M+03131KA2120N+02421MA1999999101191MD1210071+9999MW1011REMSYN124AAXX  02064 67143 11580 53602 10295 20242 30119 40126 52007 60084 70162 85800 333 01263 10313 20242 50//4 55/// 85820 92438;
0195671430999992000020209004-21200+048370FM-12+0006FMSM V0201201N003112200019N0400001N1+03061+02561101151ADDAA199000091GA1041+006909089GF104991041021008001001021MA1999999101081MD1710111+9999REMSYN082AAXX  02094 67143 32582 41206 10306 20256 30108 40115 57011 84202 333 84823 92438;EQDQ01  00002PRCP99
0211671430999992000020212004-21200+048370FM-12+0006FMSM V0201201N004112200019N0400001N1+03051+02441100971ADDAA199000091GA1031+006909089GF103991031021008001001021MA1999999100901MD1710181+9999REMSYN098AAXX  02124 67143 32582 31208 10305 20244 30090 40097 57018 83202 333 0//00 83823 92438 555 81075;EQDQ01  00002PRCP99
0266671430999992000020300004-21200+048370FM-12+0006FMSM V0201201N001012200019N0150001N1+02521+02401101161ADDAA106002091AC11I9AY161061GA1011+006009099GA2031+006009089GF104991041091008001001021MA1999999101091MD1710091+9999MW1151REMSYN136AAXX  03004 67143 11565 41202 10252 20240 30109 40116 57009 60021 7156/ 84902 333 0//55 83820 81920 94992 94993 94994 95832 95833 924/7;
0300671430999992000020306004-21200+048370FM-12+0006FMSM V0201201N001012200019N0200001N1+02661+02401101401ADDAA124003091AC12C9AY161061AY211061GA1021+012009069GF104991041081008001001021IA2240+01209KA1120M+03121KA2120N+02371MA1999999101331MD1210121+9999MW1151REMSYN140AAXX  03064 67143 11570 41202 10266 20240 30133 40140 52012 60034 71561 84802 333 01292 10312 20237 5///4 55/// 84820 92438 555 82640 81073;
0205671430999992000020309004-21200+048370FM-12+0006FMSM V0200601N004112200019N0350001N1+02931+02421101331ADDAA199000091GA1041+006009089GF104991041021008001001021MA1999999101261MD1810071+9999REMSYN092AAXX  03094 67143 32581 40608 10293 20242 30126 40133 58007 84202 333 84820 92438 555 81075;EQDQ01  00002PRCP99
0201671430999992000020312004-21200+048370FM-12+0006FMSM V0200601N004112200019N0400001N1+03031+02381101251ADDAA199000091GA1031+006909089GF104991031021008001001021MA1999999101181MD1710081+9999REMSYN088AAXX  03124 67143 32582 40608 10303 20238 30118 40125 57008 83202 333 0//00 83823 92438;EQDQ01  00002PRCP99
0214671430999992000020315004-21200+048370FM-12+0006FMSM V0200801N004112200019N0300001N1+02901+02421101251ADDAA199000091GA1031+006009089GF104991031021008001001021KA1120M+03101MA1999999101181MD1510001+9999REMSYN088AAXX  03154 67143 32580 40808 10290 20242 30118 40125 55000 83202 333 10310 83820 92438;EQDQ01  00002PRCP99
0235671430999992000020400004-21200+048370FM-12+0006FMSM V0200801N002110120019N0200001N1+02381+02201101481ADDAA199000091GA1011+006009089GA2061+012009069GF106991061081008001001001MA1999999101411MD1810021+9999MW1151REMSYN100AAXX  04004 67143 31570 60804 10238 20220 30141 40148 58002 715// 86800 333 0//00 81820 86640 924/8;EQDQ01  00002PRCP99
0182671430999992000020403004-21200+048370FM-12+0006FMSM V0200801N001012200019N0300001N1+02401+02251101591ADDAA112003091GA1021+006009089GF103991031081008001001001MA1999999101521MD1310111+9999REMSYN088AAXX  04034 67143 22580 30802 10240 20225 30152 40159 53011 83800 333 60032 82820 92438;
0256671430999992000020406004-21200+048370FM-12+0006FMSM V0202801N001012200019N0400001N1+02921+02321101661ADDAA124003091AC11I9GA1031+006009089GF103991031021008001001001IA2240+01109KA1120M+03101KA2120N+02381MA1999999101591MD1210071+9999REMSYN118AAXX  04064 67143 12582 32802 10292 20232 30159 40166 52007 60034 83200 333 01115 10310 20238 50//4 55/// 83820 92438;
0195671430999992000020409004-21200+048370FM-12+0006FMSM V0200601N002112200019N0400001N1+02941+02341101581ADDAA199000091GA1021+006009089GF102991021081008001001021MA1999999101511MD1710081+9999REMSYN082AAXX  04094 67143 32582 20604 10294 20234 30151 40158 57008 82802 333 82820 92438;EQDQ01  00002PRCP99
0211671430999992000020412004-21200+048370FM-12+0006FMSM V0201601N003112200019N0400001N1+02961+02241101451ADDAA199000091GA1031+006009089GF103991031081008001001001MA1999999101381MD1710131+9999REMSYN098AAXX  04124 67143 32582 31606 10296 20224 30138 40145 57013 83800 333 0//00 83820 92438 555 81640;EQDQ01  00002PRCP99
0214671430999992000020415004-21200+048370FM-12+0006FMSM V0200801N005112200019N0400001N1+02861+02141101511ADDAA199000091GA1021+006009089GF102991021021008001001001KA1120M+03021MA1999999101441MD1310041+9999REMSYN088AAXX  04154 67143 32582 20810 10286 20214 30144 40151 53004 82200 333 10302 82820 92438;EQDQ01  00002PRCP99
0192671430999992000020503004-21200+048370FM-12+0006FMSM V0209999C000010060019N0300001N1+02401+02221101661ADDAA112000491GA1051+006009089GF105991051021008001001021MA1999999101591MD1310071+9999REMSYN098AAXX  05034 67143 22580 50000 10240 20222 30159 40166 53007 85202 333 69942 85820 92438 555 81073;
0256671430999992000020506004-21200+048370FM-12+0006FMSM V0202601N005110060019N0300001N1+02901+02161101721ADDAA124000591AC12I9GA1051+006009089GF105991051021008001001001IA2240+01109KA1120M+03021KA2120N+02401MA1999999101651MD1210061+9999REMSYN118AAXX  05064 67143 12580 52610 10290 20216 30165 40172 52006 69944 85200 333 01116 10302 20240 50//4 55/// 85820 92438;
0211671430999992000020509004-21200+048370FM-12+0006FMSM V0200801N005112200019N0400001N1+03021+02251101611ADDAA199000091GA1011+012009069GF103991031081008001001021MA1999999101541MD1810111+9999REMSYN098AAXX  05094 67143 32582 30810 10302 20225 30154 40161 58011 83802 333 83820 92438 555 81640 81073;EQDQ01  00002PRCP99
0201671430999992000020512004-21200+048370FM-12+0006FMSM V0200801N005112200019N0400001N1+03021+02421101531ADDAA199000091GA1031+006009089GF104991041081008001001021MA1999999101461MD1710081+9999REMSYN088AAXX  05124 67143 32582 40810 10302 20242 30146 40153 57008 84802 333 0//00 83820 92438;EQDQ01  00002PRCP99
0251671430999992000020515004-21200+048370FM-12+0006FMSM V0203001N002110099019N0200001N1+02451+02301101591ADDAA106011091AY161031AY211031GA1031+005109089GA2061+009909069GF107991071081004501999999KA1120M+03051MA1999999101521MD1310061+9999MW1151REMSYN106AAXX  05154 67143 21470 73004 10245 20230 30152 40159 53006 71561 878// 333 10305 60111 83817 86633 92438;
0236671430999992000020600004-21200+048370FM-12+0006FMSM V0203001N003110099019N0200001N1+02241+02091101581ADDAA106009991AC12C9AY161061GA1011+005109089GA2061+009909069GF106991061081004501001001MA1999999101511MD1710111+9999MW1151REMSYN106AAXX  06004 67143 11470 63006 10224 20209 30151 40158 57011 60101 7156/ 86800 333 0//92 81817 86633 924/8;
0226671430999992000020603004-21200+048370FM-12+0006FMSM V0203001N003110099019N0200001N1+02241+99999101701ADDAA112010091AY161031AY221031GA1011+005109089GA2071+009909069GF107991071081004501999999MA1999999101631MD1310201+9999MW1611REMSYN094AAXX  06034 67143 21470 73006 10224 30163 40170 53020 76162 878// 333 60102 81817 87633 92438;
0250671430999992000020606004-21200+048370FM-12+0006FMSM V0202801N003112200019N0400001N1+02851+02471101781ADDAA124011991GA1021+006009089GF102991021081008001001001IA2240+01109KA1120M+03051KA2120N+02201MA1999999101711MD1210081+9999REMSYN118AAXX  06064 67143 12582 22806 10285 20247 30171 40178 52008 60124 82800 333 01119 10305 20220 50//4 55/// 82820 92438;
0226671430999992000020609004-21200+048370FM-12+0006FMSM V0202801N006210099019N0200001N1+02601+02121101681ADDAA199000021AY121031AY201031GA1011+005109089GA2071+009909069GF107991071081004501999999MA1999999101611MD1710101+9999MW1151REMSYN094AAXX  06094 67143 31470 72812 10260 20212 30161 40168 57010 71520 878// 333 81817 87633 92438;
0204671430999992000020612004-21200+048370FM-12+0006FMSM V0201001N005110120019N0300001N1+02961+02391101511ADDAA199000021GA1021+006009089GA2061+012009069GF106991061081008001001001MA1999999101441MD1710171+9999REMSYN094AAXX  06124 67143 32580 61010 10296 20239 30144 40151 57017 86800 333 0//00 82820 86640 92438;
0217671430999992000020615004-21200+048370FM-12+0006FMSM V0201001N005110120019N0300001N1+02821+02361101571ADDAA199000021GA1021+005109089GA2051+012009069GF105991051081004501001001KA1120M+03021MA1999999101501MD1310061+9999REMSYN094AAXX  06154 67143 32480 51010 10282 20236 30150 40157 53006 85800 333 10302 82817 85640 92438;
0211671430999992000020700004-21200+048370FM-12+0006FMSM V0201201N002112200019N0300001N1+02361+02261101571ADDAA199000091GA1021+006009089GF102991021081008001001001MA1999999101501MD1710061+9999REMSYN098AAXX  07004 67143 33580 21204 10236 20226 30150 40157 57006 82800 333 0//00 82820 924/8 555 81640;EQDQ01  00002PRCP99
0211671430999992000020703004-21200+048370FM-12+0006FMSM V0201201N001012200019N0300001N1+02301+02211101601ADDAA199000091GA1011+012009069GF103991031081008001001021MA1999999101531MD1310031+9999REMSYN098AAXX  07034 67143 32580 31202 10230 20221 30153 40160 53003 83802 333 83820 92438 555 81640 81075;EQDQ01  00002PRCP99
0273671430999992000020706004-21200+048370FM-12+0006FMSM V0202201N003112200019N0300001N1+02861+02341101611ADDAA199000091GA1041+006009089GF104991041021008001001021IA2240+01309KA1120M+03021KA2120N+02301MA1999999101541MD1110011+9999REMSYN122AAXX  07064 67143 32580 42206 10286 20234 30154 40161 51001 84202 333 01300 10302 20230 50//4 55/// 84820 92438 555 81073;EQDQ01  00002PRCP99
0211671430999992000020709004-21200+048370FM-12+0006FMSM V0202201N00411012001CN0300001N1+02981+02501101491ADDAA199000091GA1021+015009069GF105991051081008001001021MA1999999101421MD1810121+9999REMSYN098AAXX  07094 67143 32580 52208 10298 20250 30142 40149 58012 85802 333 84820 92438 555 82650 81075;EQDQ01  00002PRCP99
0223671430999992000020712004-21200+048370FM-12+0006FMSM V0201401N002110120019N0300001N1+02901+02521101381ADDAA199000091GA1031+006009089GA2051+012009069GF106991061081008001001001MA1999999101311MD1710111+9999REMSYN094AAXX  07124 67143 32580 61404 10290 20252 30131 40138 57011 86800 333 0//00 83820 85640 92438;EQDQ01  00002PRCP99
0251671430999992000020715004-21200+048370FM-12+0006FMSM V0200601N005110099019N0100001N1+02461+02381101491ADDAA106002091AY161031AY221031GA1031+003909079GA2061+009909069GF107991071081004501999999KA1120M+03121MA1999999101421MD1310111+9999MW1151REMSYN106AAXX  07154 67143 21460 70610 10246 20238 30142 40149 53011 71562 878// 333 10312 60021 83713 86633 92437;
0229671430999992000020800004-21200+048370FM-12+0006FMSM V0200601N001010099019N0200001N1+02381+02281101371ADDAA199000091GA1021+005109089GA2051+009909069GF105991051081004501001001MA1999999101301MD1710061+9999MW1151REMSYN094AAXX  08004 67143 31470 50602 10238 20228 30130 40137 57006 715// 85800 333 82817 85633 924/8;EQDQ01  00002PRCP99
0306671430999992000020806004-21200+048370FM-12+0006FMSM V0200801N001010099019N0300001N1+02561+02361101421ADDAA124003091AC13C9AY161061AY221061GA1031+006009089GA2061+009909069GF107991071081008001999999IA2240+02109KA1120M+03121KA2120N+02291MA1999999101351MD1810061+9999MW1021REMSYN130AAXX  08064 67143 11580 70802 10256 20236 30135 40142 58006 60034 70262 878// 333 02193 10312 20229 50//4 55/// 83820 86633 92438;
0254671430999992000020812004-21200+048370FM-12+0006FMSM V0200801N003110150019N0300001N1+02841+02351101201ADDAA106001091AC11I9AY161061AY221061GA1031+006009089GA2051+015009069GF106991061081008001001021MA1999999101131MD1710181+9999MW1011REMSYN116AAXX  08124 67143 11580 60806 10284 20235 30113 40120 57018 60011 70162 86802 333 0//55 83820 85650 92438 555 81075;
0246671430999992000020815004-21200+048370FM-12+0006FMSM V0200801N004110120019N0300001N1+02781+02381101291ADDAA199000091GA1031+006009089GA2031+012009069GF105991051081008001001021KA1120M+02941MA1999999101221MD1310091+9999REMSYN104AAXX  08154 67143 32580 50808 10278 20238 30122 40129 53009 85802 333 10294 83820 83640 92438 555 81073;EQDQ01  00002PRCP99
0280671430999992000020900004-21200+048370FM-12+0006FMSM V0200801N001010099019N0200001N1+02371+02301101211ADDAA106000591AC11C9GA1011+005109099GA2031+005109089GA3071+009909069GF107991071091004501999999MA1999999101141MD1710071+9999MW1211REMSYN142AAXX  09004 67143 11470 70802 10237 20230 30114 40121 57007 69961 721// 879// 333 0//51 83817 81917 87633 94991 94992 94993 95831 95833 92438;
0278671430999992000020903004-21200+048370FM-12+0006FMSM V0203001N001010129019N0300001N1+02331+02261101281ADDAA112000891AY161031AY221031GA1011+006009099GA2021+006009089GA3071+012909069GF107991071091008001999999MA1999999101211MD1310071+9999MW1201REMSYN130AAXX  09034 67143 21580 73002 10233 20226 30121 40128 53007 72062 879// 333 69982 82820 81920 87643 94991 94993 95831 95833 92438;
0299671430999992000020906004-21200+048370FM-12+0006FMSM V0203001N001010090019N0300001N1+02681+02251101301ADDAC12I9AY161061AY221061GA1021+006009089GA2061+009009069GF107991061081008001031999IA2240+02009KA1120M+02941KA2120N+02311MA1999999101231MD1110021+9999MW1021REMSYN134AAXX  09064 67143 11580 73002 10268 20225 30123 40130 51002 70262 8683/ 333 02056 10294 20231 50//4 55/// 82820 86630 92438 555 82360;
0208671430999992000020909004-21200+048370FM-12+0006FMSM V0201201N002110120019N0300001N1+02821+02421101221ADDAA199000021GA1031+006009089GA2061+012009069GF107991061081008001031999MA1999999101151MD1610081+9999REMSYN098AAXX  09094 67143 32580 71204 10282 20242 30115 40122 56008 8683/ 333 83820 86640 92438 555 81360;
0262671430999992000020912004-21200+048370FM-12+0006FMSM V0201201N003110060019N0300001N1+03001+02431101101ADDAA199000021GA1021+006009099GA2031+006009089GA3051+075009009GF107991051091008001001021MA1999999101031MD1710121+9999REMSYN136AAXX  09124 67143 32580 71206 10300 20243 30103 40110 57012 85902 333 0//00 83820 82920 85075 94995 94996 94997 94998 95836 95837 92438;
0269671430999992000020915004-21200+048370FM-12+0006FMSM V0201201N003110300019N0300001N1+02781+02521101111ADDAA199000021GA1021+006009099GA2021+006009089GA3061+030009039GF107991051091008001071999KA1120M+03021MA1999999101041MD1310011+9999REMSYN130AAXX  09154 67143 32580 71206 10278 20252 30104 40111 53001 8597/ 333 10302 82820 82920 86360 94995 94996 94997 95835 95838 92438;
0230671430999992000021000004-21200+048370FM-12+0006FMSM V0201201N001010099019N0150001N1+02201+02101101201ADDAA106023991AY161061GA1031+005109089GA2071+009909069GF107991071081004501999999MA1999999101131MD1810031+9999MW1211REMSYN106AAXX  10004 67143 11465 71202 10220 20210 30113 40120 58003 60241 7216/ 878// 333 0//00 83817 87633 924/7;
0204671430999992000021003004-21200+048370FM-12+0006FMSM V0203001N002110099019N0300001N1+02181+02061101261ADDAA112024091GA1011+005109089GA2071+009909069GF107991071081008001999999MA1999999101191MD1310061+9999REMSYN094AAXX  10034 67143 22580 73004 10218 20206 30119 40126 53006 878// 333 60242 81817 87633 92438;
0278671430999992000021006004-21200+048370FM-12+0006FMSM V0209999C000010099019N0300001N1+02541+02301101351ADDAA124023991AC13I9GA1011+006009089GA2071+009909069GF107991071081008001999999IA2240+02009KA1120M+03021KA2120N+02171MA1999999101281MD1210111+9999REMSYN124AAXX  10064 67143 12580 70000 10254 20230 30128 40135 52011 60244 878// 333 02097 10302 20217 50//4 55/// 81820 87633 92438;
0198671430999992000021009004-21200+048370FM-12+0006FMSM V0201801N003110120019N0300001N1+02851+02301101301ADDAA199000021GA1031+006009089GA2061+012009069GF107991071081008001999999MA1999999101231MD1810051+9999REMSYN088AAXX  10094 67143 32580 71806 10285 20230 30123 40130 58005 878// 333 83820 86640 92438;
0266671430999992000021012004-21200+048370FM-12+0006FMSM V0201801N005110090019N0080001N1+02421+02271101221ADDAA106003091AC12C9AY161061AY221061GA1041+005109089GA2031+009009069GA3061+030009049GF108991051081004501071999MA1999999101151MD1710081+9999MW1611REMSYN112AAXX  10124 67143 11458 81810 10242 20227 30115 40122 57008 60031 76162 8587/ 333 0//22 84817 83630 86460 92436;
0261671430999992000021015004-21200+048370FM-12+0006FMSM V0201401N002110300019N0150001N1+02491+02331101331ADDAA106000991AY161031AY221031GA1021+005109089GA2071+030009049GF108991031081004501071999KA1120M+02941MA1999999101261MD1310111+9999MW1211REMSYN116AAXX  10154 67143 21465 81404 10249 20233 30126 40133 53011 72162 8387/ 333 10294 69991 82817 87460 92437 555 82630;
0246671430999992000021100004-21200+048370FM-12+0006FMSM V0200601N002110300019N0050001N1+02231+02161101281ADDAA106086191AC13I9AY161061GA1041+003009079GA2071+030009049GF108991051071004501071999MA1999999101211MD1710131+9999MW1631REMSYN116AAXX  11004 67143 11450 80604 10223 20216 30121 40128 57013 60861 7636/ 8577/ 333 0//68 84710 87460 924/7 555 82630;
0310671430999992000021106004-21200+048370FM-12+0006FMSM V0201001N007210300019N0080001N1+02601+02461101381ADDAA124127091AY161061AY261061GA1031+003909079GA2071+030009049GF108991041071004501071999IA2240+02009KA1120M+02941KA2120N+02211MA1999999101311MD1110041+9999MW1611REMSYN140AAXX  11064 67143 11458 81014 10260 20246 30131 40138 51004 61274 76166 8477/ 333 02099 10294 20221 50//4 55/// 83713 87460 92436 555 82633;
0254671430999992000021109004-21200+048370FM-12+0006FMSM V0201001N005110099019N0050001N1+02481+02321101331ADDAA106011091AY161031AY261031GA1031+003909079GA2041+009909069GA3061+030009049GF108991051071004501071999MA1999999101261MD1810051+9999MW1631REMSYN106AAXX  11094 67143 21450 81010 10248 20232 30126 40133 58005 76366 8577/ 333 60111 83713 84633 86460 92436;
0234671430999992000021115004-21200+048370FM-12+0006FMSM V0201201N007210099019N0100001N1+02591+02391101291ADDAY161031AY221031GA1041+005109089GA2051+009909069GF108991061081004501071999KA1120M+02741MA1999999101221MD1310101+9999MW1611REMSYN100AAXX  11154 67143 21460 81214 10259 20239 30122 40129 53010 76162 8687/ 333 10274 84817 85633 92437;
0232671430999992000021203004-21200+048370FM-12+0006FMSM V0201201N005110030019N0050001N1+02481+02401101451ADDAA112070091AY161031AY261031GA1051+003009079GA2061+030009049GF108991051071004501071999MA1999999101381MD1310081+9999MW1631REMSYN100AAXX  12034 67143 21450 81210 10248 20240 30138 40145 53008 76366 8577/ 333 60702 85710 86460 92436;
0279671430999992000021206004-21200+048370FM-12+0006FMSM V0201201N001010300019N0080001N1+02461+02321101591ADDAA124116191AY161061AY261061GA1041+003009079GA2061+030009049GF108991051071004501071999IA2240+02109KA1120M+02741KA2120N+02291MD1210141+9999MW1611REMSYN124AAXX  12064 67143 11458 81202 10246 20232 40159 52014 61164 76166 8577/ 333 02199 10274 20229 50//4 55/// 84710 86460 92436;
0232671430999992000021209004-21200+048370FM-12+0006FMSM V0200601N002110099019N0150001N1+02501+02321101541ADDAA106004091AY161031AY261031GA1031+005109089GA2061+009909069GF108991061081004501071999MA1999999101471MD1810051+9999MW1211REMSYN100AAXX  12094 67143 21465 80604 10250 20232 30147 40154 58005 72166 8687/ 333 60041 83817 86633 92437;
0244671430999992000021212004-21200+048370FM-12+0006FMSM V0200601N001010099019N0200001N1+02681+02461101381ADDAA106004191AC10I9AY161061AY221061GA1041+005109089GA2061+009909069GF107991071081004501999999MA1999999101311MD1610161+9999MW1151REMSYN106AAXX  12124 67143 11470 70602 10268 20246 30131 40138 56016 60041 71562 878// 333 0//54 84817 86633 92438;
0251671430999992000021215004-21200+048370FM-12+0006FMSM V0201401N003110099019N0150001N1+02601+02421101341ADDAA106001091AY121031AY221031GA1031+005109089GA2071+009909069GF107991071081004501999999KA1120M+02721MA1999999101271MD1510041+9999MW1211REMSYN106AAXX  12154 67143 21465 71406 10260 20242 30127 40134 55004 72122 878// 333 10272 60011 83817 87633 92437;
0198671430999992000021303004-21200+048370FM-12+0006FMSM V0200801N003112200019N0300001N1+02601+02341101351ADDAA112003091GA1011+009909069GF104991041081008001001021MA1999999101281MD1110021+9999REMSYN104AAXX  13034 67143 22580 40806 10260 20234 30128 40135 51002 84802 333 60032 84820 92438 555 81633 81073;
0301671430999992000021306004-21200+048370FM-12+0006FMSM V0200801N002112200019N0300001N1+02811+02471101481ADDAA124008991GA1021+012009069GF104991999081008001001021IA2240+02109KA1120M+99999KA2120N+02421MA1999999101411MD1210131+9999REMSYN134AAXX  13064 67143 12580 40804 10281 20247 30141 40148 52013 60094 85802 333 02199 10272 20242 50//4 55/// 84820 92438 555 82640 81073;EQDQ01+000052SCOTLCQ02 +02722ATMX  
0205671430999992000021309004-21200+048370FM-12+0006FMSM V0200801N003112200019N0300001N1+02911+02561101451ADDAA199000091GA1041+006009089GF104991041021008001001021MA1999999101381MD1810031+9999REMSYN092AAXX  13094 67143 32580 40806 10291 20256 30138 40145 58003 84202 333 84820 92438 555 81073;EQDQ01  00002PRCP99
0201671430999992000021312004-21200+048370FM-12+0006FMSM V0201401N004112200019N0300001N1+02901+02501101301ADDAA199000091GA1031+006009089GF103991031021008001001021MA1999999101231MD1710151+9999REMSYN088AAXX  13124 67143 32580 31408 10290 20250 30123 40130 57015 83202 333 0//00 83820 92438;EQDQ01  00002PRCP99
0214671430999992000021315004-21200+048370FM-12+0006FMSM V0201401N003112200019N0300001N1+02751+02391101241ADDAA199000091GA1041+006009089GF104991041081008001001021KA1120M+02991MA1999999101171MD1510061+9999REMSYN088AAXX  13154 67143 32580 41406 10275 20239 30117 40124 55006 84802 333 10299 84820 92438;EQDQ01  00002PRCP99
0276671430999992000021400004-21200+048370FM-12+0006FMSM V0201401N001010099019N0150001N1+02401+02331101181ADDAA106013091AC11I9AY161061GA1011+005109099GA2021+005109089GA3051+009909069GF107991061091004501001001MA1999999101111MD1710121+9999MW1151REMSYN130AAXX  14004 67143 11465 71402 10240 20233 30111 40118 57012 60131 7156/ 86900 333 0//65 82817 81917 85633 94992 94993 95832 924/7;
0266671430999992000021403004-21200+048370FM-12+0006FMSM V0201401N002110099019N0150001N1+02361+02271101181ADDAA112013091AY191031AY221031GA1011+005109099GA2021+005109089GA3071+009909069GF107991071091004501999999MA1999999101111MD1510001+9999MW1171REMSYN118AAXX  14034 67143 21465 71404 10236 20227 30111 40118 55000 71792 879// 333 60132 82817 81917 87633 94912 95832 92437;
0334671430999992000021406004-21200+048370FM-12+0006FMSM V0201801N001010099019N0300001N1+02501+02281101271ADDAA124013091AY191061AY221061GA1011+006009099GA2031+006009089GA3071+009909069GF107991071091008001999999IA2240+02009KA1120M+02991KA2120N+02311MA1999999101201MD1310091+9999MW1031REMSYN148AAXX  14064 67143 11580 71802 10250 20228 30120 40127 53009 60134 70392 879// 333 02069 10299 20231 50//4 55/// 83820 81920 87633 94993 95834 92438;
0195671430999992000021409004-21200+048370FM-12+0006FMSM V0201801N003110900019N0300001N1+02801+02421101191ADDAA199000091GA1041+006009089GF106991041081008001001021MA1999999101121MD1810081+9999REMSYN082AAXX  14094 67143 32580 61806 10280 20242 30112 40119 58008 84802 333 84820 92438;EQDQ01  00002PRCP99
0235671430999992000021412004-21200+048370FM-12+0006FMSM V0201801N00311007501CN0300001N1+02851+02521101061ADDAA199000091GA1021+012009069GF106991061091008001001021MA1999999100991MD1710131+9999REMSYN122AAXX  14124 67143 32580 61806 10285 20252 30099 40106 57013 86902 333 0//00 85820 81920 94996 95836 92438 555 82640 81073;EQDQ01  00002PRCP99
0300671430999992000021415004-21200+048370FM-12+0006FMSM V0201801N00101007501CN0200001N1+02731+02541101091ADDAA199000091AY121031AY221031GA1011+012009069GF106991051091008001001021KA1120M+02971MA1999999101021MD1310031+9999MW1151REMSYN152AAXX  14154 67143 31570 61802 10273 20254 30102 40109 53003 71522 85902 333 10297 84820 81920 94995 94996 94997 95835 95836 95837 92438 555 81640 83073;EQDQ01  00002PRCP99
0205671430999992000021503004-21200+048370FM-12+0006FMSM V0201801N00411012001CN0300001N1+02681+02511101131ADDAA199000091GA1041+006009089GF105991051081008001001001MA1999999101061MD1310111+9999REMSYN092AAXX  15034 67143 32580 51808 10268 20251 30106 40113 53011 85800 333 84820 92438 555 82633;EQDQ01  00002PRCP99
0272671430999992000021506004-21200+048370FM-12+0006FMSM V0201401N004112200019N0300001N1+02871+02591101291ADDAA124001091AC13C9AY161061AY221061GA1041+006009089GF104991041081008001001001KA1120M+02971KA2120N+02581MA1999999101221MD1210161+9999MW1011REMSYN124AAXX  15064 67143 11580 41408 10287 20259 30122 40129 52016 60014 70162 84800 333 0//53 10297 20258 50//4 55/// 84820 92438;
0195671430999992000021509004-21200+048370FM-12+0006FMSM V0201401N004112200019N0300001N1+02921+02561101171ADDAA199000091GA1041+006009089GF104991041021008001001001MA1999999101101MD1710121+9999REMSYN082AAXX  15094 67143 32580 41408 10292 20256 30110 40117 57012 84200 333 84820 92438;EQDQ01  00002PRCP99
0201671430999992000021512004-21200+048370FM-12+0006FMSM V0201401N004112200019N0400001N1+02951+02521101001ADDAA199000091GA1041+006909089GF104991041021008001001001MA1999999100931MD1710171+9999REMSYN088AAXX  15124 67143 32582 41408 10295 20252 30093 40100 57017 84200 333 0//00 84823 92438;EQDQ01  00002PRCP99
0208671430999992000021515004-21200+048370FM-12+0006FMSM V0201401N004112200019N0300001N1+02781+02581101061ADDAA199000091GA1041+006009029GF104991041021008001001001KA1120M+03031MA1999999100991MD1310061+9999REMSYN082AAXX  15154 67143 32580 41408 10278 20258 30099 40106 53006 84200 333 10303 84820;EQDQ01  00002PRCP99
0236671430999992000021600004-21200+048370FM-12+0006FMSM V0201401N002110099019N0200001N1+02381+02241101001ADDAA106007191AC12C9AY161061GA1021+005109089GA2051+009909069GF106991061081004501001001MA1999999100931MD1710181+9999MW1151REMSYN106AAXX  16004 67143 11470 61404 10238 20224 30093 40100 57018 60071 7156/ 86800 333 0//12 82817 85633 924/8;
0236671430999992000021603004-21200+048370FM-12+0006FMSM V0202801N003110099019N0200001N1+02351+02281101031ADDAA112008091AY161031AY221031GA1021+005109089GA2061+009909069GF107991071081004501999999MD1310031+9999MW1151REMSYN100AAXX  16034 67143 21470 72806 10235 20228 30196 40103 53003 71562 878// 333 60082 82817 86633 92438;EQDQ01+101963APOSP 
0306671430999992000021606004-21200+048370FM-12+0006FMSM V0202401N005110120019N0300001N1+02701+02471101111ADDAA124008991AC13C9AY161061AY221061GA1021+006009089GA2051+012009069GF106991061081004501001001IA2240+01809KA1120M+03031KA2120N+02301MA1999999101041MD1810081+9999MW1011REMSYN130AAXX  16064 67143 11480 62410 10270 20247 30104 40111 58008 60094 70162 86800 333 01813 10303 20230 50//4 55/// 82820 85640 92438;
0195671430999992000021609004-21200+048370FM-12+0006FMSM V0203601N00721090001CN0300001N1+02901+02381100921ADDAA199000091GA1031+006009089GF106991031081008001001021MA1999999100851MD1710191+9999REMSYN082AAXX  16094 67143 32580 63614 10290 20238 30085 40092 57019 83802 333 83820 84073;EQDQ01  00002PRCP99
0233671430999992000021612004-21200+048370FM-12+0006FMSM V0202201N009310900019N0300001N1+02901+02521100771ADDAA199000091GA1021+006009089GA2041+012009069GF106991041081008001001021MA1999999100701MD1710151+9999REMSYN104AAXX  16124 67143 32580 62218 10290 20252 30070 40077 57015 84802 333 0//00 82820 84640 92438 555 82073;EQDQ01  00002PRCP99
0261671430999992000021615004-21200+048370FM-12+0006FMSM V0202201N008210099019N0150001N1+02621+02451100801ADDAA106000291AY121031AY221031GA1021+005109089GA2061+009909069GF107991061081004501071999KA1120M+03001MA1999999100731MD1310031+9999MW1211REMSYN116AAXX  16154 67143 21465 72216 10262 20245 30073 40080 53003 72122 8687/ 333 10300 69921 82817 86633 92448 555 84460;
0273671430999992000021618004-21200+048370FM-12+0006FMSM V0202201N005110099019N0150001N1+02541+02401100891ADDAA112000591AY161061AY221061GA1031+005109089GA2051+009909069GA3041+030009049GF108991051081008001071999KA1120M+03001MA1999999100821MD1110091+9999MW1151REMSYN112AAXX  16184 67143 11565 82210 10254 20240 30082 40089 51009 69942 71562 8587/ 333 10300 83817 85633 84460 924/7;
0254671430999992000021621004-21200+048370FM-12+0006FMSM V0201801N005110099019N0100001N1+02421+02291100701ADDAA106008091AY161031AY221031GA1031+005109089GA2031+009909069GA3051+030009049GF108991051081004501071999MA1999999100631MD1710191+9999MW1211REMSYN106AAXX  16214 67143 21460 81810 10242 20229 30063 40070 57019 72162 8587/ 333 60081 83817 83633 85460 924/7;
0254671430999992000021700004-21200+048370FM-12+0006FMSM V0202001N005110300019N0100001N1+02461+02341100471ADDAA106017091AC12I9AY161061AY221061GA1031+005109089GA2051+030009049GF108991041081004501071999MA1999999100401MD1710231+9999MW1611REMSYN116AAXX  17004 67143 11460 82010 10246 20234 30040 40047 57023 60171 76162 8487/ 333 0//96 83817 85460 924/7 555 82633;
0204671430999992000021703004-21200+048370FM-12+0006FMSM V0202401N00821009001CN0200001N1+02651+02491100431ADDAA112026091AY161031AY221031GA1041+005109029GF108991051081004501071999MA1999999100361MD1510041+9999MW1151REMSYN088AAXX  17034 67143 21470 82416 10265 20249 30036 40043 55004 71562 8587/ 333 60262 84817;
0171671430999992000021709004-21200+048370FM-12+0006FMSM V0202201N008210090019N0150001N1+99999+99999100331ADDAY161031AY221031GF107991071081004501999999MD1999999-0591MW1211OA149901291REMSYN086AAXX  17094 67143 41465 72216 40033 72162 878// 333 59059 92447 91125 94322 555 69921;
0266671430999992000021712004-21200+048370FM-12+0006FMSM V0202201N009810060019N0050001N1+02651+02501100221ADDAA106001091AC11C9AY161061AY261061GA1041+003909079GA2031+006009089GA3061+009909069GF108991081081004501999999MA1999999100151MD1710111+9999MW1611REMSYN112AAXX  17124 67143 11450 82219 10265 20250 30015 40022 57011 60011 76166 888// 333 0//51 84713 83820 86633 92447;
0217671430999992000021803004-21200+048370FM-12+0006FMSM V02099999999999999999N0025001N1+99999+99999999999ADDAA112006091GA1041+003909079GA2999+009909069GF107991999999022501999999MA1999999100601MD1310081+9999REMSYN088AAXX  18034 67143 2/825 71/81 3006/ 4/063 53008 72162 88/// 333 60062 84713 8/633 92448;EQDQ01+000082SCOTLC
0232671430999992000021809004-21200+048370FM-12+0006FMSM V0200801N008210099019N0100001N1+02651+02501100811ADDAA106005091AY161031AY221031GA1041+003909079GA2071+009909069GF108991081081004501999999MA1999999100741MD1810011+9999MW1611REMSYN100AAXX  18094 67143 21460 80816 10265 20250 30074 40081 58001 76162 888// 333 60051 84713 87633 92446;
0245671430999992000022109004-21200+048370FM-12+0006FMSM V0200801N005110099019N0200001N1+02901+02681101191ADDAA199000091AY121031AY221031GA1041+006009089GA2061+009909069GF107991071081008001999999MA1999999101121MD1810021+9999MW1151REMSYN094AAXX  21094 67143 31570 70810 10290 20268 30112 40119 58002 71522 878// 333 84820 86633 92438;EQDQ01  00002PRCP99
0244671430999992000022112004-21200+048370FM-12+0006FMSM V0200801N006210099019N0150001N1+02711+02501101041ADDAA106000191AC13C9AY161061AY211061GA1031+006009089GA2071+009909069GF108991081999008001999999MA1999999100971MD1710151+9999MW1151REMSYN106AAXX  21124 67143 11565 80812 10271 20250 30097 40104 57015 69921 71561 88/// 333 0//53 83820 87633 92438;
0251671430999992000022115004-21200+048370FM-12+0006FMSM V0201201N004110099019N0100001N1+02521+02361101121ADDAA106000691AY121031AY221031GA1031+006009089GA2071+009909069GF108991081081008001999999KA1120M+02901MA1999999101051MD1310081+9999MW1601REMSYN106AAXX  21154 67143 21560 81208 10252 20236 30105 40112 53008 76022 888// 333 10290 69961 83820 87633 92437;
0236671430999992000022200004-21200+048370FM-12+0006FMSM V0201201N002110099019N0150001N1+02241+02061101201ADDAA106011991AC11C9AY161061GA1021+005109089GA2051+009909069GF108991081081004501999999MA1999999101131MD1610041+9999MW1631REMSYN106AAXX  22004 67143 11465 81204 10224 20206 30113 40120 56004 60121 7636/ 888// 333 0//91 82817 85633 924/8;
0232671430999992000022203004-21200+048370FM-12+0006FMSM V0202401N002110099019N0150001N1+02201+02081101251ADDAA112014091AY161031AY221031GA1011+005109089GA2081+009909069GF108991081081004501999999MA1999999101181MD1310051+9999MW1611REMSYN100AAXX  22034 67143 21465 82404 10220 20208 30118 40125 53005 76162 888// 333 60142 81817 88633 92438;
0306671430999992000022206004-21200+048370FM-12+0006FMSM V0202401N003110099019N0250001N1+02221+02101101341ADDAA124020191AC11C9AY161061AY261061GA1011+005109089GA2081+009909069GF108991081081004501999999IA2240+01609KA1120M+02901KA2120N+02201MA1999999101271MD1210111+9999MW1611REMSYN130AAXX  22064 67143 11475 82406 10222 20210 30127 40134 52011 60204 76166 888// 333 01691 10290 20220 50//4 55/// 81817 88633 92437;
0232671430999992000022209004-21200+048370FM-12+0006FMSM V0202401N002110099019N0150001N1+02321+02161101291ADDAA106019091AY161031AY261031GA1011+005109089GA2081+009909069GF108991081081004501999999MA1999999101221MD1810051+9999MW1611REMSYN100AAXX  22094 67143 21465 82404 10232 20216 30122 40129 58005 76166 888// 333 60191 81817 88633 92437;
0266671430999992000022212004-21200+048370FM-12+0006FMSM V0202801N003110300019N0200001N1+02251+02101101141ADDAA106008991AC11C9AY161061AY261061GA1011+005109089GA2041+009909069GA3061+030009049GF108991041081004501071999MA1999999101071MD1710151+9999MW1611REMSYN112AAXX  22124 67143 11470 82806 10225 20210 30107 40114 57015 60091 76166 8487/ 333 0//51 81817 84633 86460 92438;
0273671430999992000022215004-21200+048370FM-12+0006FMSM V0202801N001010300019N0300001N1+02251+02081101171ADDAA106009091AY161031AY221031GA1011+005109089GA2031+009909069GA3061+030009049GF107991031081004501071999KA1120M+02341MA1999999101101MD1310031+9999MW1021REMSYN112AAXX  22154 67143 21480 72802 10225 20208 30110 40117 53003 70262 8387/ 333 10234 60091 81817 83633 86460 92438;
0236671430999992000022300004-21200+048370FM-12+0006FMSM V0202801N002110099019N0200001N1+02101+01941101181ADDAA106001091AC12C9AY161061GA1011+005109089GA2071+009909069GF107991071081004501999999MA1999999101111MD1710081+9999MW1151REMSYN106AAXX  23004 67143 11470 72804 10210 20194 30111 40118 57008 60011 7156/ 878// 333 0//12 81817 87633 924/8;
0232671430999992000022303004-21200+048370FM-12+0006FMSM V0202801N002110099019N0300001N1+02081+01921101171ADDAA112001091AY161031AY221031GA1011+005109089GA2071+009909069GF107991071081004501999999MA1999999101101MD1610011+9999MW1021REMSYN100AAXX  23034 67143 21480 72804 10208 20192 30110 40117 56001 70262 878// 333 60012 81817 87633 92438;
0319671430999992000022306004-21200+048370FM-12+0006FMSM V0202801N002110300019N0300001N1+02441+02231101301ADDAA124011991AC12I9GA1011+006009089GA2031+012009069GA3051+030009049GF107991051081008001071999IA2240+01609KA1120M+99999KA2120N+02201MA1999999101231MD1210131+9999REMSYN130AAXX  23064 67143 12580 72804 10244 20223 30123 40130 52013 60124 8587/ 333 01696 10234 20220 50//4 55/// 81820 83640 85460 92438;EQDQ01 +02342ATMX  
0254671430999992000022309004-21200+048370FM-12+0006FMSM V0200801N003110099019N0300001N1+02561+02361101241ADDAA106000491AY161031AY221031GA1021+005109089GA2031+009909069GA3061+030009049GF108991051081004501071999MA1999999101171MD1810061+9999MW1031REMSYN106AAXX  23094 67143 21480 80806 10256 20236 30117 40124 58006 70362 8587/ 333 69941 82817 83633 86460 92438;
0245671430999992000022312004-21200+048370FM-12+0006FMSM V0200801N004110300019N0300001N1+02581+02381101131ADDAA199000091GA1011+005109089GA2031+009909069GA3061+030009049GF108991051081004501071999MA1999999101061MD1710111+9999REMSYN100AAXX  23124 67143 32480 80808 10258 20238 30106 40113 57011 8587/ 333 0//00 81817 83633 86460 92438;EQDQ01  00002PRCP99
0258671430999992000022315004-21200+048370FM-12+0006FMSM V0201401N002110300019N0300001N1+02501+02331101131ADDAA199000091GA1011+005109089GA2031+009909069GA3051+030009049GF107991041081004501071999KA1120M+02641MA1999999101061MD1510001+9999REMSYN100AAXX  23154 67143 32480 71404 10250 20233 30106 40113 55000 8487/ 333 10264 81817 83633 85460 92438;EQDQ01  00002PRCP99
0236671430999992000022400004-21200+048370FM-12+0006FMSM V0201401N002110099019N0200001N1+02231+02081101251ADDAA106024991AC12C9AY161061GA1011+005109089GA2081+009909069GF108991081081004501999999MA1999999101181MD1810061+9999MW1151REMSYN106AAXX  24004 67143 11470 81404 10223 20208 30118 40125 58006 60251 7156/ 888// 333 0//92 81817 88633 924/8;
0306671430999992000022406004-21200+048370FM-12+0006FMSM V0202601N001010099019N0300001N1+02501+02331101411ADDAA124026991AC13C9AY161061AY221061GA1021+005109089GA2071+009909069GF108991081081004501999999IA2240+01509KA1120M+02641KA2120N+02201MA1999999101341MD1210111+9999MW1021REMSYN130AAXX  24064 67143 11480 82602 10250 20233 30134 40141 52011 60274 70262 888// 333 01593 10264 20220 50//4 55/// 82817 87633 92438;
0217671430999992000022409004-21200+048370FM-12+0006FMSM V0202601N001010120019N0350001N1+02601+02431101331ADDAA199000091GA1021+006009089GA2071+012009069GF107991071081008001999999MA1999999101261MD1710081+9999REMSYN088AAXX  24094 67143 32581 72602 10260 20243 30126 40133 57008 878// 333 82820 87640 92438;EQDQ01  00002PRCP99
0223671430999992000022412004-21200+048370FM-12+0006FMSM V0200601N001010120019N0350001N1+02701+02501101241ADDAA199000091GA1031+006009089GA2061+012009069GF107991071081008001999999MA1999999101171MD1710091+9999REMSYN094AAXX  24124 67143 32581 70602 10270 20250 30117 40124 57009 878// 333 0//00 83820 86640 92438;EQDQ01  00002PRCP99
0236671430999992000022415004-21200+048370FM-12+0006FMSM V0200601N001010120019N0300001N1+02501+02391101311ADDAA199000091GA1031+006009089GA2051+012009069GF107991071081008001999999KA1120M+02741MA1999999101241MD1310071+9999REMSYN094AAXX  24154 67143 32580 70602 10250 20239 30124 40131 53007 878// 333 10274 83820 85640 92438;EQDQ01  00002PRCP99
0195671430999992000022503004-21200+048370FM-12+0006FMSM V0209999C000012200019N0300001N1+02301+02181101471ADDAA199000091GA1041+006009089GF104991041021008001001001MA1999999101401MD1310051+9999REMSYN082AAXX  25034 67143 32580 40000 10230 20218 30140 40147 53005 84200 333 84820 92438;EQDQ01  00002PRCP99
0279671430999992000022506004-21200+048370FM-12+0006FMSM V0203001N00211012001CN0300001N1+02561+02281101521ADDAA199000091GA1021+009909069GF105991051081008001001021IA2240+01709KA1120M+02741KA2120N+02301MA1999999101451MD1210051+9999REMSYN128AAXX  25064 67143 32580 53004 10256 20228 30145 40152 52005 85802 333 01700 10274 20230 50//4 55/// 84820 92438 555 82633 81073;EQDQ01  00002PRCP99
0217671430999992000022509004-21200+048370FM-12+0006FMSM V0202801N002110099019N0300001N1+02701+02261101431ADDAA199000091GA1031+006009089GA2041+009909069GF106991061081008001001001MA1999999101361MD1810091+9999REMSYN088AAXX  25094 67143 32580 62804 10270 20226 30136 40143 58009 86800 333 83820 84633 92438;EQDQ01  00002PRCP99
0223671430999992000022512004-21200+048370FM-12+0006FMSM V0200801N003110099019N0300001N1+02641+02231101391ADDAA199000091GA1031+006009089GA2061+009909069GF107991071081008001999999MA1999999101321MD1610041+9999REMSYN094AAXX  25124 67143 32580 70806 10264 20223 30132 40139 56004 878// 333 0//00 83820 86633 92438;EQDQ01  00002PRCP99
0236671430999992000022515004-21200+048370FM-12+0006FMSM V0209999C000010099019N0300001N1+02601+02221101441ADDAA199000091GA1021+006009089GA2071+009909069GF107991071081008001999999KA1120M+02871MA1999999101371MD1310051+9999REMSYN094AAXX  25154 67143 32580 70000 10260 20222 30137 40144 53005 878// 333 10287 82820 87633 92438;EQDQ01  00002PRCP99
0236671430999992000022600004-21200+048370FM-12+0006FMSM V0200801N001010099019N0150001N1+02301+02261101431ADDAA106000591AC12C9AY161061GA1021+005109089GA2051+009909069GF106991061081004501001001MA1999999101361MD1710121+9999MW1151REMSYN106AAXX  26004 67143 11465 60802 10230 20226 30136 40143 57012 69961 7156/ 86800 333 0//52 82817 85633 924/7;
0232671430999992000022603004-21200+048370FM-12+0006FMSM V0209999C000010099019N0100001N1+02201+02121101411ADDAA112003091AY161031AY221031GA1031+005109089GA2071+009909069GF107991071081004501999999MA1999999101341MD1610021+9999MW1211REMSYN100AAXX  26034 67143 21460 70000 10220 20212 30134 40141 56002 72162 878// 333 60032 83817 87633 92437;
0306671430999992000022606004-21200+048370FM-12+0006FMSM V0200801N002110120019N0300001N1+02541+02241101481ADDAA124005191AC10I9AY161061AY221061GA1021+006009089GA2061+012009069GF106991061081008001001001IA2240+01609KA1120M+02871KA2120N+02191MA1999999101411MD1110071+9999MW1011REMSYN130AAXX  26064 67143 11580 60804 10254 20224 30141 40148 51007 60054 70162 86800 333 01654 10287 20219 50//4 55/// 82820 86640 92438;
0204671430999992000022612004-21200+048370FM-12+0006FMSM V0202801N001010120019N0300001N1+02701+02221101211ADDAA199000021GA1021+006009089GA2071+012009069GF107991071081008001999999MA1999999101141MD1710151+9999REMSYN094AAXX  26124 67143 32580 72802 10270 20222 30114 40121 57015 878// 333 0//00 82820 87640 92438;
0196671430999992000022615004-21200+048370FM-12+0006FMSM V0200801N003110099019N0400001N1+02671+02121101231ADDAA199000021GA1021+006009089GA2071+009909069GF107991071081008001999999KA1120M+02851MD1310021+9999REMSYN088AAXX  26154 67143 32582 70806 10267 20212 40123 53002 878// 333 10285 82820 87633 92438;
0192671430999992000022703004-21200+048370FM-12+0006FMSM V0200801N001012200019N0300001N1+02181+02021101261ADDAA112002091GA1031+006009089GF103991031081008001001001MA1999999101191MD1310021+9999REMSYN098AAXX  27034 67143 22580 30802 10218 20202 30119 40126 53002 83800 333 60022 83820 92438 555 81640;
0256671430999992000022706004-21200+048370FM-12+0006FMSM V0202401N002112200019N0300001N1+02721+02181101341ADDAA124002091AC13I9GA1041+006009089GF104991041021008001001001IA2240+01409KA1120M+02851KA2120N+02181MA1999999101271MD1210081+9999REMSYN118AAXX  27064 67143 12580 42404 10272 20218 30127 40134 52008 60024 84200 333 01458 10285 20218 5///4 55/// 84820 92438;
0205671430999992000022709004-21200+048370FM-12+0006FMSM V0201201N003112200019N0400001N1+02741+01981101251ADDAA199000091GA1031+006909089GF104991041081008001001001MA1999999101181MD1810091+9999REMSYN092AAXX  27094 67143 32582 41206 10274 20198 30118 40125 58009 84800 333 83823 92438 555 82640;EQDQ01  00002PRCP99
0201671430999992000022712004-21200+048370FM-12+0006FMSM V0201201N004112200019N0400001N1+02801+02051101101ADDAA199000091GA1031+006909089GF104991031021008001071001MA1999999101031MD1710151+9999REMSYN088AAXX  27124 67143 32582 41208 10280 20205 30103 40110 57015 83270 333 0//00 83823 92438;EQDQ01  00002PRCP99
0236671430999992000022715004-21200+048370FM-12+0006FMSM V0201201N004110099019N0300001N1+02671+02181101201ADDAA199000091GA1021+006009089GA2071+009909069GF107991071081008001999999KA1120M+02901MA1999999101131MD1310101+9999REMSYN094AAXX  27154 67143 32580 71208 10267 20218 30113 40120 53010 878// 333 10290 82820 87633 92438;EQDQ01  00002PRCP99
0232671430999992000022803004-21200+048370FM-12+0006FMSM V0201201N003110099019N0200001N1+02281+02081101241ADDAA112003091AY161031AY221031GA1021+006009089GA2061+009909069GF107991071081008001999999MA1999999101171MD1310031+9999MW1031REMSYN100AAXX  28034 67143 21570 71206 10228 20208 30117 40124 53003 70362 878// 333 60032 82820 86633 92438;
0244671430999992000022806004-21200+048370FM-12+0006FMSM V0202401N003112200019N0350001N1+02581+02381101441ADDAA124005191AC10I9GA1021+006009089GF104991041081008001001001KA1120M+02901KA2120N+02201MA1999999101371MD1210201+9999REMSYN118AAXX  28064 67143 12581 42406 10258 20238 30137 40144 52020 60054 84800 333 0//14 10290 20220 50//4 55/// 82820 92438;
0195671430999992000022809004-21200+048370FM-12+0006FMSM V0202401N004112200019N0400001N1+02861+02491101391ADDAA199000091GA1021+006009089GF102991021021008001001001MA1999999101321MD1810051+9999REMSYN082AAXX  28094 67143 32582 22408 10286 20249 30132 40139 58005 82200 333 82820 92438;EQDQ01  00002PRCP99
0211671430999992000022812004-21200+048370FM-12+0006FMSM V0200401N005112200019N0400001N1+02881+02201101211ADDAA199000091GA1011+006009089GF101991011081008001001001MA1999999101141MD1710081+9999REMSYN098AAXX  28124 67143 32582 10410 10288 20220 30114 40121 57008 81800 333 0//00 81820 92438 555 81640;EQDQ01  00002PRCP99
0224671430999992000022815004-21200+048370FM-12+0006FMSM V0200601N005112200019N0400001N1+02781+02161101321ADDAA199000091GA1011+006009089GF101991011081008001001001KA1120M+02901MA1999999101251MD1310111+9999REMSYN098AAXX  28154 67143 32582 10610 10278 20216 30125 40132 53011 81800 333 10290 81820 92438 555 81640;EQDQ01  00002PRCP99
0224671430999992000022900004-21200+048370FM-12+0006FMSM V0200401N001012200019N0200001N1+02281+02151101321ADDAA106000591AC11C9AY161061GA1021+006009089GF104991041081008001001001MA1999999101251MD1710121+9999MW1211REMSYN110AAXX  29004 67143 11570 40402 10228 20215 30125 40132 57012 69961 7216/ 84800 333 0//11 82820 924/8 555 82640;
0226671430999992000022903004-21200+048370FM-12+0006FMSM V0202201N002112200019N0300001N1+02251+02111101371ADDAA112000691AY161031AY221031GA1021+012009069GF103991031081008001001021MA1999999101301MD1310051+9999MW1011REMSYN110AAXX  29034 67143 21580 32204 10225 20211 30130 40137 53005 70162 83802 333 69962 82820 92438 555 82640 81073;
0266671430999992000022906004-21200+048370FM-12+0006FMSM V0202201N002112200019N0400001N1+02741+02431101471ADDAA124000591AC13I9GA1021+006009089GF102991021081008001001001IA2240+01709KA1120M+02921KA2120N+02251MA1999999101401MD1210101+9999REMSYN128AAXX  29064 67143 12582 22204 10274 20243 30140 40147 52010 69964 82800 333 01717 10292 20225 50//4 55/// 82820 92438 555 81640;
0186671430999992000022909004-21200+048370FM-12+0006FMSM V0201001N005112200019N0400001N1+02881+02391101401ADDAA199000021GA1021+006009089GF103991031081008001001001MA1999999101331MD1810071+9999REMSYN092AAXX  29094 67143 32582 31010 10288 20239 30133 40140 58007 83800 333 82820 92438 555 82640;
0182671430999992000022912004-21200+048370FM-12+0006FMSM V0200601N005110120019N0300001N1+02851+02381101271ADDAA199000021GA1011+006009089GF107991071081008001999999MA1999999101201MD1710131+9999REMSYN088AAXX  29124 67143 32580 70610 10285 20238 30120 40127 57013 878// 333 0//00 81820 87640;
0214671430999992000022915004-21200+048370FM-12+0006FMSM V0201201N00411009001CN0400001N1+02761+02461101311ADDAA199000091GA1031+005109089GF105991051081004501001021KA1120M+02951MA1999999101241MD1310041+9999REMSYN088AAXX  29154 67143 32482 51208 10276 20246 30124 40131 53004 85802 333 10295 83817 92438;EQDQ01  00002PRCP99
0232671430999992000030103004-21200+048370FM-12+0006FMSM V0201201N007210690019N0200001N1+02701+02411101311ADDAA112001091AY161031AY221031GA1041+006009089GA2041+069009009GF107991041081008001001021MA1999999101241MD1310031+9999MW1151REMSYN100AAXX  01034 67143 21570 71214 10270 20241 30124 40131 53003 71562 84802 333 60012 84820 84073 92438;
0284671430999992000030106004-21200+048370FM-12+0006FMSM V0201201N00621012001CN0300001N1+02821+02421101421ADDAA124001091AC12I9AY161061AY221061GA1041+006009089GF107991061081008001001021IA2240+01909KA1120M+02951KA2120N+02281MA1999999101351MD1210111+9999MW1021REMSYN124AAXX  01064 67143 11580 71212 10282 20242 30135 40142 52011 60014 70262 86802 333 01916 10295 20228 5///4 55/// 84820 83073;
0233671430999992000030112004-21200+048370FM-12+0006FMSM V0201201N002110690019N0300001N1+02801+02581101141ADDAA199000091GA1031+006009089GA2031+069009009GF107991051081008001001021MA1999999101071MD1710141+9999REMSYN104AAXX  01124 67143 32580 71204 10280 20258 30107 40114 57014 85802 333 0//00 83820 83073 92438 555 82640;EQDQ01  00002PRCP99
0230671430999992000030200004-21200+048370FM-12+0006FMSM V0200801N002110099019N0200001N1+02701+02561101171ADDAA106000891AY161061GA1021+005109089GA2051+009909069GF105991051081004501001001MA1999999101101MD1710111+9999MW1211REMSYN106AAXX  02004 67143 11470 50804 10270 20256 30110 40117 57011 69971 7216/ 85800 333 0//19 82817 85633 924/8;
0306671430999992000030206004-21200+048370FM-12+0006FMSM V0201201N005110099019N0150001N1+02601+02461101231ADDAA124002091AC13C9AY161061AY221061GA1031+005109089GA2071+009909069GF108991081081004501999999IA2240+02009KA1120M+02961KA2120N+02481MA1999999101161MD1210191+9999MW1151REMSYN130AAXX  02064 67143 11465 81210 10260 20246 30116 40123 52019 60024 71562 888// 333 02013 10296 20248 50//4 55/// 83817 87633 92438;
0296671430999992000030212004-21200+048370FM-12+0006FMSM V0209999C000010090019N0050001N1+02301+02241101081ADDAA106047091AC12I9AY191061AY261061GA1021+005109099GA2021+005109089GA3071+009009069GF108991071091004501999999MA1999999101011MD1710101+9999MW1951REMSYN142AAXX  02124 67143 11450 80000 10230 20224 30101 40108 57010 60471 79596 879// 333 0//66 82817 82917 87630 94991 94996 94997 95836 95837 92436;
0285671430999992000030215004-21200+048370FM-12+0006FMSM V0200601N002110099019N0100001N1+02501+02381101121ADDAA106008091AY161031AY221031GA1011+005109099GA2031+005109089GA3071+009909069GF108991081091004501999999KA1120M+02731MA1999999101051MD1310041+9999MW1611REMSYN124AAXX  02154 67143 21460 80604 10250 20238 30105 40112 53004 76162 889// 333 10273 60081 83817 81917 87633 94996 95836 92437;
0236671430999992000030300004-21200+048370FM-12+0006FMSM V0200401N006210099019N0150001N1+02681+02561100941ADDAA106007191AC13I9AY161061GA1041+003909079GA2071+009909069GF108991081051004501999999MA1999999100871MD1710181+9999MW1211REMSYN106AAXX  03004 67143 11465 80412 10268 20256 30087 40094 57018 60071 7216/ 885// 333 0//28 84713 87633 924/7;
0232671430999992000030303004-21200+048370FM-12+0006FMSM V0200401N008210099019N0100001N1+02651+02581100921ADDAA112009091AY161031AY221031GA1031+003909079GA2071+009909069GF108991081081004501999999MA1999999100851MD1510021+9999MW1211REMSYN100AAXX  03034 67143 21460 80416 10265 20258 30085 40092 55002 72162 888// 333 60092 83713 87633 92439;
0232671430999992000030309004-21200+048370FM-12+0006FMSM V0200801N008210099019N0080001N1+02601+02521101031ADDAA106006091AY161031AY221031GA1041+003909079GA2081+009909069GF108991081081004501999999MA1999999100951MD1710031+9999MW1611REMSYN100AAXX  03094 67143 21458 80816 10260 20252 30095 40103 57003 76162 888// 333 60061 84713 88633 92446;
0244671430999992000030312004-21200+048370FM-12+0006FMSM V0201001N008210099019N0050001N1+02581+02541100901ADDAA106022191AC12I9AY161061AY261061GA1031+003909079GA2081+009909069GF108991081081004501999999MA1999999100831MD1710131+9999MW1611REMSYN106AAXX  03124 67143 11450 81016 10258 20254 30083 40090 57013 60221 76166 888// 333 0//66 83713 88633 92446;
0251671430999992000030315004-21200+048370FM-12+0006FMSM V0201001N008210099019N0050001N1+02581+02491101021ADDAA106017091AY161031AY261031GA1041+003909079GA2081+009909069GF108991081081004501999999KA1120M+02781MA1999999100951MD1310121+9999MW1611REMSYN106AAXX  03154 67143 21450 81016 10258 20249 30095 40102 53012 76166 888// 333 10278 60171 84713 88633 92446;
0251671430999992000030318004-21200+048370FM-12+0006FMSM V0201001N009810099019N0050001N1+02461+02371101141ADDAA112038191AY161061AY261061GA1041+003909079GA2081+009909069GF108991081081008001999999KA1120M+02721MA1999999101071MD1210121+9999MW1611REMSYN106AAXX  03184 67143 11550 81019 10246 20237 30107 40114 52012 60382 76166 888// 333 10272 84713 88633 924/6;
0244671430999992000030400004-21200+048370FM-12+0006FMSM V0201001N009310099019N0080001N1+02501+02441100931ADDAA106062091AC11C9AY161061AY261061GA1041+003909079GA2081+009909069GF108991081051004501999999MA1999999100861MD1710121+9999MW1611REMSYN106AAXX  04004 67143 11458 81018 10250 20244 30086 40093 57012 60621 76166 885// 333 0//61 84713 88633 924/6;
0260671430999992000030403004-21200+048370FM-12+0006FMSM V0201001N005110090019N0050001N1+02381+02321101101ADDAA112137091AY161031AY261031GA1041+003909079GA2031+009009069GA3061+030009049GF108991051051004501071999MA1999999101031MD1310171+9999MW1631REMSYN112AAXX  04034 67143 21450 81010 10238 20232 30103 40110 53017 76366 8557/ 333 61372 84713 83630 86460 92446 91119;
0328671430999992000030406004-21200+048370FM-12+0006FMSM V0200601N004110090019N0050001N1+02501+02441101231ADDAA124262991AC12I9AY161061AY261061GA1041+003909079GA2041+009009069GA3061+030009049GF108991051051004501071999IA2240+01709KA1120M+02781KA2120N+02231MA1999999101161MD1210131+9999MW1611REMSYN136AAXX  04064 67143 11450 80608 10250 20244 30116 40123 52013 62634 76166 8557/ 333 01766 10278 20223 50//4 55/// 84713 84630 86460 92446;
0242671430999992000030409004-21200+048370FM-12+0006FMSM V0200601N004110099019N0150001N1+02491+02401101131ADDAA106114091AY161031AY221031GA1041+003909079GA2061+009909069GF108991061051004501071999MA1999999101061MD1810101+9999MW1211REMSYN110AAXX  04094 67143 21465 80608 10249 20240 30106 40113 58010 72162 8657/ 333 61141 84713 86633 92437 555 84460;
0244671430999992000030412004-21200+048370FM-12+0006FMSM V0200601N008210099019N0200001N1+02621+02541101001ADDAA106066091AC12C9AY161061AY221061GA1041+003909079GA2061+009909069GF108991061051004501071999MA1999999100931MD1710131+9999MW1151REMSYN106AAXX  04124 67143 11470 80616 10262 20254 30093 40100 57013 60661 71562 8657/ 333 0//62 84713 86633 92438;
0270671430999992000030415004-21200+048370FM-12+0006FMSM V0200601N008210099019N0150001N1+02601+02541101041ADDAA106017091AY161031AY221031GA1021+005109089GA2081+009909049GF199999071081004501999999KA1120M+02721MA1999999100971MD1510041+9999MW1611REMSYN106AAXX  04154 67143 21465 70616 10260 20254 30097 40104 55004 76162 878// 333 10272 60171 82817 88433 92437;EQDQ01+000072SCOTCV
0238671430999992000030421004-21200+048370FM-12+0006FMSM V0200601N006210099019N0100001N1+02481+02401101201ADDAA106033091AY161031AY221031GA1041+003909079GA2081+009909069GF108991081051004501999999MA1999999101131MD1810021+9999MW1611REMSYN106AAXX  04214 67143 21460 80612 10248 20240 30113 40120 58002 76162 885// 333 60331 84713 88633 924/7 91114;
0250671430999992000030500004-21200+048370FM-12+0006FMSM V0200601N004110099019N0100001N1+02531+02461101151ADDAA106033091AC11C9AY161061AY261061GA1041+003909079GA2081+009909069GF108991081051004501999999MA1999999101081MD1810051+9999MW1611REMSYN112AAXX  05004 67143 11460 80608 10253 20246 30108 40115 58005 60331 76166 885// 333 0//61 84713 88633 924/7 91116;
0232671430999992000030503004-21200+048370FM-12+0006FMSM V0200601N006210099019N0100001N1+02501+02431101161ADDAA112061091AY161031AY261031GA1041+003909079GA2081+009909069GF108991081051004501999999MA1999999101091MD1310011+9999MW1611REMSYN100AAXX  05034 67143 11460 80612 10250 20243 30109 40116 53001 76166 885// 333 60612 84713 88633 92438;
0306671430999992000030506004-21200+048370FM-12+0006FMSM V0200601N007210099019N0100001N1+02521+02431101341ADDAA124164191AC11C9AY161061AY261061GA1041+003909079GA2081+009909069GF108991081051004501999999IA2240+01709KA1120M+02721KA2120N+02451MA1999999101271MD1210181+9999MW1611REMSYN130AAXX  05064 67143 11460 80614 10252 20243 30127 40134 52018 61644 76166 885// 333 01761 10272 20245 50//4 55/// 84713 88633 92437;
0232671430999992000030509004-21200+048370FM-12+0006FMSM V0200601N006210099019N0100001N1+02481+02421101321ADDAA106020091AY161031AY261031GA1021+005109089GA2071+009909069GF108991081081004501999999MA1999999101251MD1810021+9999MW1611REMSYN100AAXX  05094 67143 21460 80612 10248 20242 30125 40132 58002 76166 888// 333 60201 82817 87633 92437;
0244671430999992000030512004-21200+048370FM-12+0006FMSM V0200601N002110099019N0100001N1+02481+02401101171ADDAA106019191AC11C9AY161061AY261061GA1021+005109089GA2071+009909069GF108991081081004501999999MA1999999101101MD1710151+9999MW1611REMSYN106AAXX  05124 67143 11460 80604 10248 20240 30110 40117 57015 60191 76166 888// 333 0//91 82817 87633 92437;
0251671430999992000030515004-21200+048370FM-12+0006FMSM V0200601N001010099019N0200001N1+02461+02381101181ADDAA106008091AY161031AY221031GA1021+005109089GA2071+009909069GF108991081081004501999999KA1120M+02601MA1999999101111MD1510011+9999MW1151REMSYN106AAXX  05154 67143 21470 80602 10246 20238 30111 40118 55001 71562 888// 333 10260 60081 82817 87633 92438;
0236671430999992000030600004-21200+048370FM-12+0006FMSM V0200601N002110099019N0100001N1+02201+02141101251ADDAA106019191AC11C9AY161061GA1031+003909079GA2061+009909069GF108991081051004501999999MA1999999101181MD1710031+9999MW1611REMSYN106AAXX  06004 67143 11460 80604 10220 20214 30118 40125 57003 60191 7616/ 885// 333 0//91 83713 86633 924/7;
0232671430999992000030603004-21200+048370FM-12+0006FMSM V0200601N001010099019N0100001N1+02181+02091101271ADDAA112041091AY161031AY261031GA1031+003909079GA2081+009909069GF108991081051004501999999MA1999999101201MD1310021+9999MW1611REMSYN100AAXX  06034 67143 21460 80602 10218 20209 30120 40127 53002 76166 885// 333 60412 83713 88633 92437;
0306671430999992000030606004-21200+048370FM-12+0006FMSM V0200201N001010099019N0200001N1+02341+02251101391ADDAA124055191AC12C9AY161061AY221061GA1031+005109089GA2071+009909069GF108991081081004501999999IA2240+01609KA1120M+02601KA2120N+02181MA1999999101321MD1210121+9999MW1151REMSYN130AAXX  06064 67143 11470 80202 10234 20225 30132 40139 52012 60554 71562 888// 333 01692 10260 20218 5///4 55/// 83817 87633 92438;
0334671430999992000030609004-21200+048370FM-12+0006FMSM V0200201N005110099019N0150001N1+02481+02301101341ADDAA106023091AY161031AY221031GA1031+005109089GA2071+009909069GF108991081081004501999999KA1120M+02761KA2120N+01561MA1999999101271MD1610051+9999MW1611REMSYN176AAXX  06094 67143 21465 80210 10248 20230 30127 40134 56005 76162 888// 333 60231 83817 87633 92437 67152 31581 60420 10276 20156 39201 48512 50004 71422 83270 333 83820 91122;
0244671430999992000030612004-21200+048370FM-12+0006FMSM V0200201N003110099019N0100001N1+02421+02301101201ADDAA106002091AC13C9AY161061AY221061GA1021+005109089GA2071+009909069GF108991081081004501999999MA1999999101131MD1610141+9999MW1151REMSYN106AAXX  06124 67143 11460 80206 10242 20230 30113 40120 56014 60021 71562 888// 333 0//13 82817 87633 92437;
0245671430999992000030615004-21200+048370FM-12+0006FMSM V0200201N003110099019N0200001N1+02401+99999101221ADDAA106003091AY161031AY221031GA1021+005109089GA2071+009909069GF108991081081004501999999KA1120M+02551MA1999999101151MD1510021+9999MW1151REMSYN100AAXX  06154 67143 /1470 80206 10240 30115 40122 55002 71562 888// 333 10255 60031 82817 87633 92438;
0211671430999992000030712004-21200+048370FM-12+0006FMSM V0200801N002112200019N0300001N1+02781+02221101321ADDAA199000091GA1011+006009089GF102991021081008001001001MA1999999101251MD1810061+9999REMSYN098AAXX  07124 67143 32580 20804 10278 20222 30125 40132 58006 82800 333 0//00 81820 92438 555 82640;EQDQ01  00002PRCP99
0224671430999992000030715004-21200+048370FM-12+0006FMSM V0200801N003112200019N0300001N1+02651+02281101361ADDAA199000091GA1011+006009089GF101991011081008001001001KA1120M+02801MA1999999101291MD1310041+9999REMSYN098AAXX  07154 67143 32580 10806 10265 20228 30129 40136 53004 81800 333 10280 81820 92438 555 81640;EQDQ01  00002PRCP99
0306671430999992000030806004-21200+048370FM-12+0006FMSM V0209999C000010099019N0200001N1+02501+02261101601ADDAA124026991AC10I9AY161061AY221061GA1041+006009089GA2031+009909069GF106991061081008001001001IA2240+01309KA1120M+02801KA2120N+02111MA1999999101531MD1210121+9999MW1151REMSYN130AAXX  08064 67143 11570 60000 10250 20226 30153 40160 52012 60274 71562 86800 333 01394 10280 20211 50//4 55/// 84820 83633 92438;
0217671430999992000030809004-21200+048370FM-12+0006FMSM V0202001N002110099019N0300001N1+02581+02391101461ADDAA199000091GA1031+006009089GA2051+009909069GF106991061081008001001001MA1999999101391MD1710141+9999REMSYN088AAXX  08094 67143 32580 62004 10258 20239 30139 40146 57014 86800 333 83820 85633 92438;EQDQ01  00002PRCP99
0223671430999992000030812004-21200+048370FM-12+0006FMSM V0209999C000010120019N0300001N1+02681+02301101371ADDAA199000091GA1031+006009089GA2061+012009069GF106991061081008001001001MA1999999101301MD1710091+9999REMSYN094AAXX  08124 67143 32580 60000 10268 20230 30130 40137 57009 86800 333 0//00 83820 86640 92438;EQDQ01  00002PRCP99
0236671430999992000030815004-21200+048370FM-12+0006FMSM V0209999C000012200019N0300001N1+02631+02301101461ADDAA199000091GA1021+006009089GA2031+012009069GF104991041081008001001001KA1120M+02721MA1999999101391MD1310091+9999REMSYN094AAXX  08154 67143 32580 40000 10263 20230 30139 40146 53009 84800 333 10272 82820 83640 92438;EQDQ01  00002PRCP99
0232671430999992000030903004-21200+048370FM-12+0006FMSM V0202001N001012200019N0300001N1+02101+02021101521ADDAA112000691AY161031AY211031GA1021+006009089GA2041+012009069GF104991041081008001001001MA1999999101471MD1310031+9999MW1211REMSYN100AAXX  09034 67143 21580 42002 10210 20202 30147 40152 53003 72161 84800 333 69962 82820 84640 92438;
0306671430999992000030906004-21200+048370FM-12+0006FMSM V0209999C000010099019N0050001N1+02201+02121101701ADDAA124007191AC11C9AY161061AY221061GA1021+006009089GA2071+009909069GF108991081081008001999999IA2240+01109KA1120M+02721KA2120N+02081MA1999999101631MD1210221+9999MW1611REMSYN130AAXX  09064 67143 11550 80000 10220 20212 30163 40170 52022 60074 76162 888// 333 01191 10272 20208 50//4 55/// 82820 87633 92436;
0232671430999992000030909004-21200+048370FM-12+0006FMSM V0201201N003110099019N0150001N1+02481+02211101581ADDAA106002091AY161031AY221031GA1031+006009089GA2061+009909069GF107991071081008001999999MA1999999101511MD1710121+9999MW1151REMSYN100AAXX  09094 67143 21565 71206 10248 20221 30151 40158 57012 71562 878// 333 60021 83820 86633 92437;
0232671430999992000030912004-21200+048370FM-12+0006FMSM V0201201N002112200019N0300001N1+02791+02181101421ADDAA106002091AC12I9AY161061AY221061GA1031+006009089GF104991041081008001001001MA1999999101351MD1710161+9999MW1011REMSYN110AAXX  09124 67143 11580 41204 10279 20218 30135 40142 57016 60021 70162 84800 333 0//56 83820 92438 555 82640;
0205671430999992000030915004-21200+048370FM-12+0006FMSM V0201201N002112200019N0300001N1+02701+02321101501ADDAA199000021GA1041+006009089GF104991041081008001001001KA1120M+02851MA1999999101431MD1310081+9999REMSYN098AAXX  09154 67143 32580 41204 10270 20232 30143 40150 53008 84800 333 10285 84820 92438 555 81640;
0232671430999992000031003004-21200+048370FM-12+0006FMSM V0201201N002110099019N0150001N1+02201+02131101531ADDAA112014091AY161031AY221031GA1021+006009089GA2061+009909069GF106991061081008001001001MA1999999101461MD1310021+9999MW1211REMSYN100AAXX  10034 67143 21565 61204 10220 20213 30146 40153 53002 72162 86800 333 60142 82820 86633 92437;
0306671430999992000031006004-21200+048370FM-12+0006FMSM V0202401N002110099019N0200001N1+02481+02361101631ADDAA124014091AC12C9AY161061AY221061GA1021+006009089GA2061+009909069GF106991061081008001001001IA2240+01209KA1120M+02851KA2120N+02201MA1999999101561MD1210101+9999MW1211REMSYN130AAXX  10064 67143 11570 62404 10248 20236 30156 40163 52010 60144 72162 86800 333 01292 10285 20220 50//4 55/// 82820 86633 92438;
0236671430999992000031009004-21200+048370FM-12+0006FMSM V0202401N002110099019N0200001N1+02701+02311101541ADDAA199000021AY121031AY221031GA1041+006009089GA2031+009909069GF106991061081008001001021MA1999999101471MD1810091+9999MW1151REMSYN104AAXX  10094 67143 31570 62404 10270 20231 30147 40154 58009 71522 86802 333 84820 83633 92438 555 81073;
0253671430999992000031015004-21200+048370FM-12+0006FMSM V0200801N002112200019N0300001N1+02601+02371101431ADDAA199000021GA1011+006009099GA2031+006009089GF104991041091008001001021KA1120M+02821MA1999999101361MD1310061+9999REMSYN130AAXX  10154 67143 32580 40804 10260 20237 30136 40143 53006 84902 333 10282 83820 81920 94993 94995 94997 95833 95836 95837 92438;
0201671430999992000031100004-21200+048370FM-12+0006FMSM V0200801N001012200019N0300001N1+02341+02281101501ADDAA199000091GA1011+006009089GF101991011081008001001001MA1999999101431MD1710081+9999REMSYN088AAXX  11004 67143 33580 10802 10234 20228 30143 40150 57008 81800 333 0//00 81820 924/8;EQDQ01  00002PRCP99
0195671430999992000031103004-21200+048370FM-12+0006FMSM V0200801N001012200019N0300001N1+02281+02221101521ADDAA199000091GA1011+006009089GF101991011081008001001001MA1999999101451MD1510021+9999REMSYN082AAXX  11034 67143 32580 10802 10228 20222 30145 40152 55002 81800 333 81820 92438;EQDQ01  00002PRCP99
0263671430999992000031106004-21200+048370FM-12+0006FMSM V0202401N002112200019N0400001N1+02721+02481101631ADDAA199000091GA1031+006009089GF103991031021008001001001IA2240+01209KA1120M+02821KA2120N+02281MA1999999101561MD1210111+9999REMSYN112AAXX  11064 67143 32582 32404 10272 20248 30156 40163 52011 83200 333 01200 10282 20228 50//4 55/// 83820 92438;EQDQ01  00002PRCP99
0195671430999992000031109004-21200+048370FM-12+0006FMSM V0200601N002112200019N0400001N1+02821+02441101541ADDAA199000091GA1031+006009089GF103991031081008001001001MA1999999101471MD1810091+9999REMSYN082AAXX  11094 67143 32582 30604 10282 20244 30147 40154 58009 83800 333 83820 92438;EQDQ01  00002PRCP99
0201671430999992000031112004-21200+048370FM-12+0006FMSM V0200801N004112200019N0400001N1+02841+02381101371ADDAA199000091GA1021+006009089GF102991021021008001001001MA1999999101301MD1710171+9999REMSYN088AAXX  11124 67143 32582 20808 10284 20238 30130 40137 57017 82200 333 0//00 82820 92438;EQDQ01  00002PRCP99
0224671430999992000031115004-21200+048370FM-12+0006FMSM V0200801N005112200019N0400001N1+02721+02401101491ADDAA199000091GA1041+005109089GF104991041081004501001001KA1120M+02841MA1999999101421MD1310121+9999REMSYN098AAXX  11154 67143 32482 40810 10272 20240 30142 40149 53012 84800 333 10284 84817 92438 555 81640;EQDQ01  00002PRCP99
0224671430999992000031203004-21200+048370FM-12+0006FMSM V0202201N001010099019N0200001N1+02301+02241101631ADDAA112002091AY161031GA1031+005109089GA2031+009909069GF105991051081004501001001MA1999999101561MD1310101+9999MW1151REMSYN100AAXX  12034 67143 21470 52202 10230 20224 30156 40163 53010 7156/ 85800 333 60022 83817 83633 92438;
0284671430999992000031206004-21200+048370FM-12+0006FMSM V0202201N002112200019N0300001N1+02741+02421101701ADDAA124002091AC10I9AY161061AY201061GA1031+005109089GF103991031021004501001001IA2240+01109KA1120M+02841KA2120N+02301MA1999999101631MD1210071+9999MW1011REMSYN124AAXX  12064 67143 11480 32204 10274 20242 30163 40170 52007 60024 70160 83200 333 01114 10284 20230 50//4 55/// 83817 92438;
0195671430999992000031209004-21200+048370FM-12+0006FMSM V0200801N003112200019N0400001N1+02751+02361101631ADDAA199000091GA1011+006009089GF101991011021008001001001MA1999999101561MD1810071+9999REMSYN082AAXX  12094 67143 32582 10806 10275 20236 30156 40163 58007 81200 333 81820 92438;EQDQ01  00002PRCP99
0201671430999992000031212004-21200+048370FM-12+0006FMSM V0200801N004112200019N0400001N1+02821+02331101491ADDAA199000091GA1011+006009089GF101991011081008001001001MA1999999101421MD1710141+9999REMSYN088AAXX  12124 67143 32582 10808 10282 20233 30142 40149 57014 81800 333 0//00 81820 92438;EQDQ01  00002PRCP99
0236671430999992000031215004-21200+048370FM-12+0006FMSM V0201001N005112200019N0400001N1+02701+02321101541ADDAA199000091GA1011+006009089GA2031+012009069GF104991041081008001001001KA1120M+02881MA1999999101471MD1310051+9999REMSYN094AAXX  12154 67143 32582 41010 10270 20232 30147 40154 53005 84800 333 10288 81820 83640 92438;EQDQ01  00002PRCP99
0210671430999992000031303004-21200+048370FM-12+0006FMSM V0209999C000012200019N0300001N1+02261+02221101571ADDAA112000391AY161031AY221031GA1031+006009089GF103991031021008001001001MA1999999101501MD1510011+9999MW1011REMSYN094AAXX  13034 67143 21580 30000 10226 20222 30150 40157 55001 70162 83200 333 69932 83820 92438;
0250671430999992000031306004-21200+048370FM-12+0006FMSM V0202201N00101012001CN0300001N1+02881+02411101661ADDAA124000591GA1041+006009089GF105991051081008001001001IA2240+01009KA1120M+02881KA2120N+02261MA1999999101591MD1210091+9999REMSYN118AAXX  13064 67143 12580 52202 10288 20241 30159 40166 52009 69944 85800 333 01019 10288 20226 5///4 55/// 84820 92438;
0232671430999992000031309004-21200+048370FM-12+0006FMSM V0200801N001010099019N0250001N1+02481+02181101591ADDAA106000291AY161031AY221031GA1011+006009089GA2071+009909069GF107991071081008001999999MA1999999101521MD1810071+9999MW1211REMSYN100AAXX  13094 67143 21575 70802 10248 20218 30152 40159 58007 72162 878// 333 69921 81820 87633 92438;
0192671430999992000031312004-21200+048370FM-12+0006FMSM V0200801N002112200019N0400001N1+02721+02381101411ADDAA199000021GA1021+006009089GF103991031081008001001001MA1999999101341MD1710181+9999REMSYN098AAXX  13124 67143 32582 30804 10272 20238 30134 40141 57018 83800 333 0//00 82820 92438 555 82640;
0205671430999992000031315004-21200+048370FM-12+0006FMSM V0200601N002112200019N0400001N1+02701+02321101471ADDAA199000021GA1011+006009089GF101991011081008001001001KA1120M+02881MA1999999101401MD1310041+9999REMSYN098AAXX  13154 67143 32582 10604 10270 20232 30140 40147 53004 81800 333 10288 81820 92438 555 81640;
0232671430999992000031403004-21200+048370FM-12+0006FMSM V0200601N001010099019N0200001N1+02261+02171101451ADDAA112010091AY121031AY221031GA1011+006009089GA2071+009909069GF107991071081008001999999MA1999999101381MD1310051+9999MW1211REMSYN100AAXX  14034 67143 21570 70602 10226 20217 30138 40145 53005 72122 878// 333 60102 81820 87633 92438;
0306671430999992000031406004-21200+048370FM-12+0006FMSM V0202201N001010099019N0200001N1+02541+02241101571ADDAA124009991AC10I9AY161061AY221061GA1031+006009089GA2051+009909069GF107991071081008001999999IA2240+01309KA1120M+02881KA2120N+02241MA1999999101501MD1210121+9999MW1151REMSYN130AAXX  14064 67143 11570 72202 10254 20224 30150 40157 52012 60104 71562 878// 333 01394 10288 20224 50//4 55/// 83820 85633 92438;
0232671430999992000031409004-21200+048370FM-12+0006FMSM V0209999C000010099019N0300001N1+02621+02241101491ADDAA106000991AY161031AY221031GA1031+006009089GA2061+009909069GF107991071081008001999999MA1999999101421MD1810081+9999MW1021REMSYN100AAXX  14094 67143 21580 70000 10262 20224 30142 40149 58008 70262 878// 333 69991 83820 86633 92438;
0244671430999992000031412004-21200+048370FM-12+0006FMSM V0209999C000010099019N0300001N1+02841+02261101381ADDAA106001091AC12I9AY161061AY221061GA1041+006009089GA2061+009909069GF107991071081008001999999MA1999999101311MD1710111+9999MW1021REMSYN106AAXX  14124 67143 11580 70000 10284 20226 30131 40138 57011 69991 70262 878// 333 0//56 84820 86633 92438;
0251671430999992000031415004-21200+048370FM-12+0006FMSM V0200801N002110099019N0300001N1+02671+02371101461ADDAA199000021GA1011+006009099GA2021+006009089GA3061+009909069GF106991061091008001001001KA1120M+02841MA1999999101391MD1310081+9999REMSYN112AAXX  14154 67143 32580 60804 10267 20237 30139 40146 53008 86900 333 10284 82820 81920 86633 94996 95836 92438;
0236671430999992000031500004-21200+048370FM-12+0006FMSM V0209999C000010099019N0200001N1+02401+02321101491ADDAA106007191AC11I9AY161061GA1021+006009089GA2061+009909069GF106991061081008001001001MA1999999101421MD1710091+9999MW1151REMSYN106AAXX  15004 67143 11570 60000 10240 20232 30142 40149 57009 60071 7156/ 86800 333 0//65 82820 86633 924/8;
0204671430999992000031503004-21200+048370FM-12+0006FMSM V0209999C000012200019N0300001N1+02281+02161101521ADDAA112007091GA1021+006009089GA2031+012009069GF104991041081008001001001MA1999999101451MD1310031+9999REMSYN094AAXX  15034 67143 22580 40000 10228 20216 30145 40152 53003 84800 333 60072 82820 83640 92438;
0250671430999992000031506004-21200+048370FM-12+0006FMSM V0200801N001012200019N0300001N1+02641+02291101641ADDAA124007191GA1041+006009089GF104991041081008001001001IA2240+01309KA1120M+02841KA2120N+02281MA1999999101571MD1210121+9999REMSYN118AAXX  15064 67143 12580 40802 10264 20229 30157 40164 52012 60074 84800 333 01369 10284 20228 50//4 55/// 84820 92438;
0195671430999992000031509004-21200+048370FM-12+0006FMSM V0201001N002112200019N0400001N1+02821+02301101511ADDAA199000091GA1031+006909089GF103991031081008001001001MA1999999101441MD1810131+9999REMSYN082AAXX  15094 67143 32582 31004 10282 20230 30144 40151 58013 83800 333 83823 92438;EQDQ01  00002PRCP99
0211671430999992000031512004-21200+048370FM-12+0006FMSM V0201001N002112200019N0400001N1+02841+02291101411ADDAA199000091GA1031+006909089GF104991041081008001001001MA1999999101341MD1710101+9999REMSYN098AAXX  15124 67143 32582 41004 10284 20229 30134 40141 57010 84800 333 0//00 83823 92438 555 82650;EQDQ01  00002PRCP99
0246671430999992000031515004-21200+048370FM-12+0006FMSM V0201001N002112200019N0300001N1+02701+02141101481ADDAA199000091GA1021+006009089GA2031+012009069GF104991041081008001001021KA1120M+02931MA1999999101411MD1310071+9999REMSYN104AAXX  15154 67143 32580 41004 10270 20214 30141 40148 53007 84802 333 10293 82820 83640 92438 555 81073;EQDQ01  00002PRCP99
0223671430999992000031600004-21200+048370FM-12+0006FMSM V0209999C000012200019N0300001N1+02281+02131101471ADDAA199000091GA1021+006009089GA2041+009909069GF104991041081008001001001MA1999999101401MD1710131+9999REMSYN094AAXX  16004 67143 33580 40000 10228 20213 30140 40147 57013 84800 333 0//00 82820 84633 924/8;EQDQ01  00002PRCP99
0242671430999992000031603004-21200+048370FM-12+0006FMSM V0201001N001010099019N0080001N1+02201+02111101611ADDAA112017091AY161031AY211031GA1041+003909079GA2071+009909069GF108991081081004501999999MA1999999101541MD1310141+9999MW1611REMSYN110AAXX  16034 67143 21458 81002 10220 20211 30154 40161 53014 76161 888// 333 60172 84713 87633 92436 555 82620;
0306671430999992000031606004-21200+048370FM-12+0006FMSM V0202801N003110099019N0200001N1+02521+02271101721ADDAA124019191AC12I9AY161061AY221061GA1021+006009089GA2061+009909069GF107991071081008001999999IA2240+01209KA1120M+02931KA2120N+02181MA1999999101651MD1210191+9999MW1151REMSYN130AAXX  16064 67143 11570 72806 10252 20227 30165 40172 52019 60194 71562 878// 333 01266 10293 20218 50//4 55/// 82820 86633 92438;
0226671430999992000031609004-21200+048370FM-12+0006FMSM V0202801N001010099019N0250001N1+02751+02301101641ADDAA199000021AY121031AY221031GA1031+006009089GA2061+009909069GF107991071081008001999999MA1999999101571MD1810081+9999MW1151REMSYN094AAXX  16094 67143 31575 72802 10275 20230 30157 40164 58008 71522 878// 333 83820 86633 92438;
0204671430999992000031612004-21200+048370FM-12+0006FMSM V0202801N001010690019N0300001N1+02741+02351101481ADDAA199000021GA1021+006009089GA2051+069009009GF105991031081008001001021MA1999999101411MD1710161+9999REMSYN094AAXX  16124 67143 32580 52802 10274 20235 30141 40148 57016 83802 333 0//00 82820 85073 92438;
0279671430999992000031615004-21200+048370FM-12+0006FMSM V0202801N002110690019N0300001N1+02641+02291101551ADDAA199000021GA1011+006009099GA2011+006009089GA3021+012009069GA4051+069009009GF105991021091008001001021KA1120M+02841MA1999999101481MD1310071+9999REMSYN124AAXX  16154 67143 32580 52804 10264 20229 30148 40155 53007 82902 333 10284 81820 81920 82640 85073 94996 94997 95837 92438;
0232671430999992000031703004-21200+048370FM-12+0006FMSM V0209999C000010120019N0200001N1+02241+02151101451ADDAA112011091AY161031AY221031GA1021+005109089GA2071+012009069GF107991071081008001999999MA1999999101381MD1310051+9999MW1151REMSYN100AAXX  17034 67143 21570 70000 10224 20215 30138 40145 53005 71562 878// 333 60112 82817 87640 92438;
0306671430999992000031706004-21200+048370FM-12+0006FMSM V0202801N002112200019N0300001N1+02621+02331101631ADDAA124010991AC11I9AY161061AY211061GA1021+006009089GA2031+012009069GF104991041081008001001001IA2240+01009KA1120M+02841KA2120N+02201MA1999999101561MD1210081+9999MW1021REMSYN130AAXX  17064 67143 11580 42804 10262 20233 30156 40163 52008 60114 70261 84800 333 01015 10284 20220 5///4 55/// 82820 83640 92438;
0195671430999992000031709004-21200+048370FM-12+0006FMSM V0200601N002112200019N0400001N1+02751+02051101501ADDAA199000091GA1031+006009089GF103991031021008001001001MA1999999101431MD1710131+9999REMSYN082AAXX  17094 67143 32582 30604 10275 20205 30143 40150 57013 83200 333 83820 92438;EQDQ01  00002PRCP99
0195671430999992000031712004-21200+048370FM-12+0006FMSM V0200601N002112200019N0400001N1+02751+02051101501ADDAA199000091GA1031+006009089GF103991031021008001001001MA1999999101431MD1710131+9999REMSYN082AAXX  17124 67143 32582 30604 10275 20205 30143 40150 57013 83200 333 83820 92438;EQDQ01  00002PRCP99
0230671430999992000031715004-21200+048370FM-12+0006FMSM V0200601N004112200019N0400001N1+02681+02241101411ADDAA199000091GA1021+012009069GF102991021081008001031001KA1120M+02871MA1999999101341MD1510041+9999REMSYN104AAXX  17154 67143 32582 20608 10268 20224 30134 40141 55004 82830 333 10287 81820 92438 555 82640 81360;EQDQ01  00002PRCP99
0266671430999992000031803004-21200+048370FM-12+0006FMSM V0202401N002110120019N0200001N1+02221+02131101511ADDAA112011091AY161031AY221031GA1011+005109099GA2021+005109089GA3041+012009069GF105991051091004501001001MA1999999101441MD1310081+9999MW1171REMSYN118AAXX  18034 67143 21470 52404 10222 20213 30144 40151 53008 71762 85900 333 60112 82817 81917 84640 94992 95831 92438;
0284671430999992000031809004-21200+048370FM-12+0006FMSM V0202401N001010099019N0100001N1+02541+01431101631ADDAA124005091AY161031AY221031GA1021+005109099GA2021+005109089GA3061+009909069GF108991081091004501999999MA1999999101561MD1810011+9999MW1951REMSYN136AAXX  18094 67143 21460 82402 10254 20143 30156 40163 58001 79562 889// 333 60054 82817 82917 86633 92438 94991 94994 94995 95891 95895;
0256671430999992000031812004-21200+048370FM-12+0006FMSM V0202401N003112200019N0300001N1+02801+02542101471ADDAA106010991AC12C9AY161061AY221061GA1011+006009099GA2021+006009089GF104991041091008001001021MA1999999101401MD1710161+9999MW1011REMSYN118AAXX  18124 67143 11580 42406 10280 20254 30140 40147 57016 60111 70162 84902 333 0//52 82820 81920 94997 95838 92438;
0195671430999992000031815004-21200+048370FM-12+0006FMSM V0200601N003112200019N0300001N1+02651+02471101521ADDAA199000021GA1021+006009089GF103991031081008001001021KA1120M+02821MA1999999101451MD1310031+9999REMSYN088AAXX  18154 67143 32580 30606 10265 20247 30145 40152 53003 83802 333 10282 82820 92438;
0224671430999992000031903004-21200+048370FM-12+0006FMSM V0203001N001010099019N0080001N1+02361+02271101601ADDAA112010091AY161031GA1021+005109089GA2071+009909069GF108991081081008001999999MA1999999101531MD1310121+9999MW1611REMSYN100AAXX  19034 67143 21558 83002 10236 20227 30153 40160 53012 7616/ 888// 333 60102 82817 87633 92436;
0306671430999992000031906004-21200+048370FM-12+0006FMSM V0203001N002610099019N0080001N1+02341+02281101811ADDAA124024991AC11C9AY161061AY261061GA1021+005109089GA2081+009909069GF108991081081004501999999IA2240+01109KA1120M+02821KA2120N+02301MA1999999101741MD1210211+9999MW1611REMSYN130AAXX  19064 67143 11458 83005 10234 20228 30174 40181 52021 60254 76166 888// 333 01191 10282 20230 50//4 55/// 82817 88633 92436;
0250671430999992000031909004-21200+048370FM-12+0006FMSM V0200801N00721004201CN0300001N1+02641+02501101621ADDAA106027091AY161031AY221031GA1011+005109099GA2021+005109089GF105991051091004501001021MA1999999101551MD1710191+9999MW1011REMSYN118AAXX  19094 67143 21480 50814 10264 20250 30155 40162 57019 70162 85902 333 60271 82817 81917 94995 94997 95836 92438;
0204671430999992000031912004-21200+048370FM-12+0006FMSM V0200801N004110120019N0300001N1+02751+02401101501ADDAA199000021GA1021+006009089GA2071+012009069GF108991081081008001999999MA1999999101431MD1710121+9999REMSYN094AAXX  19124 67143 32580 80808 10275 20240 30143 40150 57012 888// 333 0//00 82820 87640 92438;
0261671430999992000032003004-21200+048370FM-12+0006FMSM V0203601N001012200019N0300001N1+02241+02171101551ADDAA124002091AY161031AY211031GA1021+006009089GA2061+012009069GF199999041081008001001021MA1999999101481MD1610061+9999MW1011REMSYN110AAXX  20034 67143 21580 43602 10224 20217 30148 40155 56006 70161 84802 333 60024 82820 86640 92438 555 81073;EQDQ01+000042SCOTCV
0316671430999992000032006004-21200+048370FM-12+0006FMSM V0209999C000010690019N0300001N1+02721+02251101621ADDAA124004191AC12I9AY161061AY211061GA1021+006009089GA2031+069009009GF105991031081008001001021IA2240+01009KA1120M+02841KA2120N+02201MA1999999101551MD1210071+9999MW1031REMSYN140AAXX  20064 67143 11580 50000 10272 20225 30155 40162 52007 60044 70361 83802 333 01056 10284 20220 50//4 55/// 82820 83073 92438 555 82640;
0217671430999992000032009004-21200+048370FM-12+0006FMSM V0201001N002110690019N0400001N1+02821+02281101561ADDAA199000091GA1031+006009089GA2051+069009009GF106991031021008001001021MA1999999101491MD1810061+9999REMSYN088AAXX  20094 67143 32582 61004 10282 20228 30149 40156 58006 83202 333 83820 85073 92438;EQDQ01  00002PRCP99
0236671430999992000032015004-21200+048370FM-12+0006FMSM V0201001N002112200019N0300001N1+02701+02261101501ADDAA199000091GA1021+006009089GA2031+012009069GF104991041081008001001021KA1120M+02931MA1999999101431MD1310091+9999REMSYN094AAXX  20154 67143 32580 41004 10270 20226 30143 40150 53009 84802 333 10293 82820 83640 92438;EQDQ01  00002PRCP99
0182671430999992000032103004-21200+048370FM-12+0006FMSM V0209999C000012200019N0300001N1+02211+02141101591ADDAA112008091GA1041+006009089GF104991041081008001001021MA1999999101521MD1310061+9999REMSYN088AAXX  21034 67143 22580 40000 10221 20214 30152 40159 53006 84802 333 60082 84820 92438;
0238671430999992000032106004-21200+048370FM-12+0006FMSM V0209999C000012200019N0300001N1+02701+02261101731ADDAA124007991GA1041+006009089GF104991041021008001001021KA1120M+02931KA2120N+02211MA1999999101661MD1210141+9999REMSYN118AAXX  21064 67143 12580 40000 10270 20226 30166 40173 52014 60084 84202 333 0//69 10293 20221 50//4 55/// 84820 92438;
0189671430999992000032109004-21200+048370FM-12+0006FMSM V0200801N002112200019N0400001N1+02771+02301101611ADDAA199000091GA1031+006909029GF103991031021008001001021MA1999999101541MD1810121+9999REMSYN076AAXX  21094 67143 32582 30804 10277 20230 30154 40161 58012 83202 333 83823;EQDQ01  00002PRCP99
0217671430999992000032112004-21200+048370FM-12+0006FMSM V0200801N003112200019N0400001N1+02861+02141101471ADDAA199000091GA1011+015009069GF103991031081008001001021MA1999999101401MD1710141+9999REMSYN104AAXX  21124 67143 32582 30806 10286 20214 30140 40147 57014 83802 333 0//00 83823 92438 555 81650 81075;EQDQ01  00002PRCP99
0246671430999992000032115004-21200+048370FM-12+0006FMSM V0200801N002110120019N0300001N1+02701+02231101511ADDAA199000091GA1031+006009089GA2061+012009069GF106991061081008001001999KA1120M+02941MA1999999101441MD1310041+9999REMSYN104AAXX  21154 67143 32580 60804 10270 20223 30144 40151 53004 8680/ 333 10294 83820 86640 92438 555 81073;EQDQ01  00002PRCP99
0258671430999992000032200004-21200+048370FM-12+0006FMSM V0200801N002110051019N0100001N1+02341+02261101501ADDAA106001091AC12C9AY161061GA1021+003909079GA2031+005109089GA3071+009909069GF108991081081004501999999MA1999999101431MD1710131+9999MW1601REMSYN112AAXX  22004 67143 11460 80804 10234 20226 30143 40150 57013 60011 7606/ 888// 333 0//52 82713 83817 87633 924/7;
0232671430999992000032203004-21200+048370FM-12+0006FMSM V0200801N002110099019N0200001N1+02421+02301101621ADDAA112002091AY161031AY221031GA1011+006009089GA2071+009909069GF107991071081008001999999MA1999999101551MD1310121+9999MW1151REMSYN100AAXX  22034 67143 21570 70804 10242 20230 30155 40162 53012 71562 878// 333 60022 81820 87633 92438;
0294671430999992000032206004-21200+048370FM-12+0006FMSM V0209999C000010099019N0300001N1+02621+02391101731ADDAA124002091AC13C9AY161061AY221061GA1031+006009089GA2061+009909069GF107991071081008001999999KA1120M+02941KA2120N+02281MA1999999101661MD1210111+9999MW1021REMSYN130AAXX  22064 67143 11580 70000 10262 20239 30166 40173 52011 60024 70262 878// 333 0//93 10294 20228 50//4 55/// 83820 86633 92438;
0220671430999992000032209004-21200+048370FM-12+0006FMSM V0201201N00211012001CN0200001N1+02821+02261101661ADDAA199000021AY121031AY221031GA1021+012009069GF106991051081008001001021MA1999999101591MD1810071+9999MW1151REMSYN104AAXX  22094 67143 31570 61204 10282 20226 30159 40166 58007 71522 85802 333 84820 92438 555 82640 82073;
0204671430999992000032212004-21200+048370FM-12+0006FMSM V0201201N001010120019N0300001N1+02761+02241101531ADDAA199000021GA1021+006009089GA2061+012009069GF107991071081008001999999MA1999999101461MD1710131+9999REMSYN094AAXX  22124 67143 32580 71202 10276 20224 30146 40153 57013 878// 333 0//00 82820 86640 92438;
0236671430999992000032215004-21200+048370FM-12+0006FMSM V0201201N002110099019N0300001N1+02671+02281101621ADDAA199000091GA1021+006009089GA2071+009909069GF107991071081008001999999KA1120M+02921MA1999999101551MD1310091+9999REMSYN094AAXX  22154 67143 32580 71204 10267 20228 30155 40162 53009 878// 333 10292 82820 87633 92438;EQDQ01  00002PRCP99
0182671430999992000032303004-21200+048370FM-12+0006FMSM V0209999C000012200019N0300001N1+02221+02131101541ADDAA112000391GA1021+006009089GF102991021081008001001001MA1999999101471MD1310051+9999REMSYN088AAXX  23034 67143 22580 20000 10222 20213 30147 40154 53005 82800 333 69932 82820 92438;
0244671430999992000032306004-21200+048370FM-12+0006FMSM V0200601N001012200019N0400001N1+02881+02491101641ADDAA124000391AC12I9GA1021+006009089GF102991021021008001001001KA1120M+02921KA2120N+02221MA1999999101571MD1110101+9999REMSYN118AAXX  23064 67143 12582 20602 10288 20249 30157 40164 51010 69934 82200 333 0//16 10292 20222 50//4 55/// 82820 92438;
0195671430999992000032309004-21200+048370FM-12+0006FMSM V0201001N003112200019N0400001N1+02821+02361101481ADDAA199000091GA1031+006009089GF103991031081008001001001MA1999999101411MD1710161+9999REMSYN082AAXX  23094 67143 32582 31006 10282 20236 30141 40148 57016 83800 333 83820 92438;EQDQ01  00002PRCP99
0211671430999992000032312004-21200+048370FM-12+0006FMSM V0201001N006212200019N0400001N1+02821+02331101341ADDAA199000091GA1011+006009089GF101991011081008001001001MA1999999101271MD1710141+9999REMSYN098AAXX  23124 67143 32582 11012 10282 20233 30127 40134 57014 81800 333 0//00 81820 92438 555 81640;EQDQ01  00002PRCP99
0236671430999992000032315004-21200+048370FM-12+0006FMSM V0201001N005110099019N0400001N1+02721+02221101401ADDAA199000091GA1031+005109089GA2031+009909069GF105991051081004501001001KA1120M+02901MA1999999101331MD1310061+9999REMSYN094AAXX  23154 67143 32482 51010 10272 20222 30133 40140 53006 85800 333 10290 83817 83633 92438;EQDQ01  00002PRCP99
0232671430999992000032403004-21200+048370FM-12+0006FMSM V0202801N003110099019N0200001N1+02281+02221101501ADDAA112037091AY161031AY221031GA1031+005109089GA2061+009909069GF108991081081004501999999MA1999999101431MD1310121+9999MW1151REMSYN100AAXX  24034 67143 21470 82806 10228 20222 30143 40150 53012 71562 888// 333 60372 83817 86633 92438;
0217671430999992000032409004-21200+048370FM-12+0006FMSM V0202401N002110099019N0300001N1+02761+02331101571ADDAA199000091GA1031+005109089GA2051+009909069GF107991071081004501999999MA1999999101501MD1810061+9999REMSYN088AAXX  24094 67143 32480 72404 10276 20233 30150 40157 58006 878// 333 83817 85633 92438;EQDQ01  00002PRCP99
0251671430999992000032412004-21200+048370FM-12+0006FMSM V0202401N001010120019N0200001N1+02841+02351101451ADDAA199000091AY121061AY221061GA1031+006009089GA2041+012009069GF106991061081004501001001MA1999999101381MD1710081+9999MW1151REMSYN100AAXX  24124 67143 31470 62402 10284 20235 30138 40145 57008 71522 86800 333 0//00 83820 84640 92438;EQDQ01  00002PRCP99
0236671430999992000032415004-21200+048370FM-12+0006FMSM V0200801N001010120019N0300001N1+02541+02391101531ADDAA199000091GA1011+006009089GA2071+012009069GF107991071081008001999999KA1120M+02841MA1999999101461MD1310081+9999REMSYN094AAXX  24154 67143 32580 70802 10254 20239 30146 40153 53008 878// 333 10284 81820 87640 92438;EQDQ01  00002PRCP99
0232671430999992000032503004-21200+048370FM-12+0006FMSM V0202801N001010099019N0200001N1+02181+02121101641ADDAA112000991AY161031AY221031GA1021+005109089GA2071+009909069GF107991071081004501999999MA1999999101571MD1310081+9999MW1151REMSYN100AAXX  25034 67143 21470 72802 10218 20212 30157 40164 53008 71562 878// 333 69992 82817 87633 92438;
0301671430999992000032506004-21200+048370FM-12+0006FMSM V0202201N002110099019N0200001N1+02501+02351101741ADDAA199000091AY121061AY221061GA1021+005109089GA2071+009909069GF108991081081004501999999KA1120M+02841KA2120N+02181MA1999999101671MD1210101+9999MW1151REMSYN124AAXX  25064 67143 31470 82204 10250 20235 30167 40174 52010 71522 888// 333 0//00 10284 20218 5///4 55/// 82817 87633 92438;EQDQ01  00002PRCP99
0245671430999992000032509004-21200+048370FM-12+0006FMSM V0200801N007210120019N0200001N1+02741+02461101631ADDAA199000091AY121031AY221031GA1041+006009089GA2031+012009069GF106991061081008001001021MA1999999101561MD1810111+9999MW1151REMSYN094AAXX  25094 67143 31570 60814 10274 20246 30156 40163 58011 71522 86802 333 84820 83640 92438;EQDQ01  00002PRCP99
0251671430999992000032512004-21200+048370FM-12+0006FMSM V0200801N00311007501CN0300001N1+02821+02441101501ADDAA199000091GA1011+006009099GA2021+006009089GF105991051091008001001021MA1999999101431MD1710131+9999REMSYN122AAXX  25124 67143 32580 50806 10282 20244 30143 40150 57013 85902 333 0//00 82820 81920 94996 94997 95836 92438 555 81073;EQDQ01  00002PRCP99
0224671430999992000032515004-21200+048370FM-12+0006FMSM V0201001N003112200019N0400001N1+02681+02421101571ADDAA199000091GA1011+006009089GF101991011081008001001001KA1120M+02901MA1999999101501MD1310071+9999REMSYN098AAXX  25154 67143 32582 11006 10268 20242 30150 40157 53007 81800 333 10290 81820 92438 555 81640;EQDQ01  00002PRCP99
0227671430999992000032603004-21200+048370FM-12+0006FMSM V0209999C000012200019N0300001N1+02231+02141101541ADDAA199000091GA1011+006009089GA2041+012009069GF104991041081008001001021MA1999999101471MD1510001+9999REMSYN098AAXX  26034 67143 32580 40000 10223 20214 30147 40154 55000 84802 333 81820 84640 92438 555 81073;EQDQ01  00002PRCP99
0283671430999992000032606004-21200+048370FM-12+0006FMSM V0202201N001010120019N0300001N1+02631+02301101631ADDAA199000091GA1021+006009089GA2041+012009069GF105991051081008001001021KA1120M+02901KA2120N+02201MA1999999101561MD1210091+9999REMSYN128AAXX  26064 67143 32580 52202 10263 20230 30156 40163 52009 85802 333 0//00 10290 20220 50//4 55/// 82820 84640 92438 555 81073;EQDQ01  00002PRCP99
0245671430999992000032609004-21200+048370FM-12+0006FMSM V0201201N004110099019N0200001N1+02601+02311101581ADDAA199000091AY121031AY221031GA1031+006009089GA2071+009909069GF107991071081008001999999MA1999999101511MD1810051+9999MW1151REMSYN094AAXX  26094 67143 31570 71208 10260 20231 30151 40158 58005 71522 878// 333 83820 87633 92438;EQDQ01  00002PRCP99
0269671430999992000032612004-21200+048370FM-12+0006FMSM V0201201N004110099019N0300001N1+02621+02361101451ADDAA199000091GA1011+006009099GA2031+006009089GA3061+009909069GF107991071091008001999999MA1999999101381MD1710131+9999REMSYN124AAXX  26124 67143 32580 71208 10262 20236 30138 40145 57013 879// 333 0//00 83820 81920 86633 92438 94996 94997 95836 95837;EQDQ01  00002PRCP99
0304671430999992000032615004-21200+048370FM-12+0006FMSM V0201201N002110690019N0300001N1+02631+02381101451ADDAA199000091GA1011+006009099GA2031+006009089GA3031+069009009GF105991051091008001001999KA1120M+02741MA1999999101381MD1510001+9999REMSYN130AAXX  26154 67143 32580 51204 10263 20238 30138 40145 55000 85900 333 10274 83820 81920 83073 92438 94995 94996 94997 95835 95836;EQDQ01+000002SCOHCGQ02  00002PRCP99
0259671430999992000032701004-21200+048370FM-12+0006FMSM V0201201N002112200019N0300001N1+02711+02261999999ADDAA199000091GA1021+006009089GA2021+069009009GF103991011011008001999999KA1120M+02741KA2120N+02251MA1999999101461REMSYN118AAXX  27014 67143 32580 31204 10271 20226 30146 401/8 811// 22202 333 0//00 10274 20225 50//4 55/// 82820 82073 92438;EQDQ01  00002PRCP99
0217671430999992000032703004-21200+048370FM-12+0006FMSM V0209999C000012200019N0300001N1+02251+02141101401ADDAA199000091GA1021+006009089GA2031+069009009GF103991021081008001001021MA1999999101331MD1510021+9999REMSYN088AAXX  27034 67143 32580 30000 10225 20214 30133 40140 55002 82802 333 82820 83073 92438;EQDQ01  00002PRCP99
0273671430999992000032706004-21200+048370FM-12+0006FMSM V0201201N002112200019N0300001N1+02711+02261101531ADDAA199000091GA1021+006009089GA2021+069009009GF103991021021008001001021KA1120M+02741KA2120N+02251MA1999999101461MD1210131+9999REMSYN118AAXX  27064 67143 32580 31204 10271 20226 30146 40153 52013 82202 333 0//00 10274 20225 50//4 55/// 82820 82073 92438;EQDQ01  00002PRCP99
0205671430999992000032709004-21200+048370FM-12+0006FMSM V0201201N004112200019N0300001N1+02901+02321101381ADDAA199000091GA1041+006009089GF104991041021008001001021MA1999999101311MD1710151+9999REMSYN092AAXX  27094 67143 32580 41208 10290 20232 30131 40138 57015 84202 333 84820 92438 555 81075;EQDQ01  00002PRCP99
0245671430999992000032712004-21200+048370FM-12+0006FMSM V0201201N004112200019N0400001N1+02901+02421101231ADDAA199000091GA1011+006009099GA2031+006009089GF103991031091008001001021MA1999999101161MD1710151+9999REMSYN116AAXX  27124 67143 32582 31208 10290 20242 30116 40123 57015 83902 333 0//00 83820 81920 92438 94996 95836 555 81075;EQDQ01  00002PRCP99
0272671430999992000032715004-21200+048370FM-12+0006FMSM V0201201N003112200019N0300001N1+02701+02421101311ADDAA199000091GA1011+009909069GF104991031091008001001021KA1120M+02941MA1999999101241MD1310081+9999REMSYN146AAXX  27154 67143 32580 41206 10270 20242 30124 40131 53008 83902 333 10294 82820 82920 92438 94995 94996 94997 95835 95836 95837 555 81633 82073;EQDQ01  00002PRCP99
0233671430999992000032800004-21200+048370FM-12+0006FMSM V0201201N001012200019N0300001N1+02321+02171101321ADDAA199000091GA1011+006009089GA2041+012009069GF104991041081008001001021MA1999999101251MD1710081+9999REMSYN104AAXX  28004 67143 33580 41202 10232 20217 30125 40132 57008 84802 333 0//00 81820 84640 924/8 555 81073;EQDQ01  00002PRCP99
0205671430999992000032803004-21200+048370FM-12+0006FMSM V0201201N001012200019N0300001N1+02201+02081101331ADDAA199000091GA1021+012009069GF102991021081008001001021MA1999999101261MD1310011+9999REMSYN092AAXX  28034 67143 32580 21202 10220 20208 30126 40133 53001 82802 333 81820 555 82640 92438;EQDQ01  00002PRCP99
0274671430999992000032806004-21200+048370FM-12+0006FMSM V0203001N002110120019N0300001N1+02761+02361101491ADDAA199000091GA1011+006009089GA2061+012009069GF106991061081008001001001KA1120M+02941KA2120N+02201MD1210161+9999REMSYN118AAXX  28064 67143 32580 63004 10276 20236 30242 40149 52016 86800 333 0//00 10294 20220 50//4 55/// 81820 86640 92438;EQDQ01+102423APOSP Q02  00002PRCP99
0205671430999992000032809004-21200+048370FM-12+0006FMSM V0200201N004112200019N0300001N1+02881+02481101391ADDAA199000091GA1031+006009089GF103991031081008001001001MA1999999101321MD1810101+9999REMSYN092AAXX  28094 67143 32580 30208 10288 20248 30132 40139 58010 83800 333 83820 92438 555 81640;EQDQ01  00002PRCP99
0201671430999992000032812004-21200+048370FM-12+0006FMSM V0200201N004112200019N0400001N1+02861+02441101281ADDAA199000091GA1031+006909089GF103991031021008001001001MA1999999101211MD1710111+9999REMSYN088AAXX  28124 67143 32582 30208 10286 20244 30121 40128 57011 83200 333 0//00 83823 92438;EQDQ01  00002PRCP99
0214671430999992000032815004-21200+048370FM-12+0006FMSM V0200601N004112200019N0300001N1+02701+02421101341ADDAA199000091GA1011+006009089GF101991011081008001001021KA1120M+03001MA1999999101271MD1310061+9999REMSYN088AAXX  28154 67143 32580 10608 10270 20242 30127 40134 53006 81802 333 10300 81820 92438;EQDQ01  00002PRCP99
0201671430999992000032900004-21200+048370FM-12+0006FMSM V0209999C000012200019N0300001N1+02261+02171101361ADDAA199000091GA1011+006009089GF101991011081008001001001MA1999999101291MD1710091+9999REMSYN088AAXX  29004 67143 33580 10000 10226 20217 30129 40136 57009 81800 333 0//00 81820 924/8;EQDQ01  00002PRCP99
0318671430999992000032903004-21200+048370FM-12+0006FMSM V0202601N001012200019N0400001N1+02181+02061101391ADDAA112715092AA299000091GA1011+006009089GF101991011081008001001021KA1120M+99999KA2120N+01641MA1999999101321MD1310031+9999REMSYN152AAXX  29034 67143 32582 12602 10218 20206 30132 40139 53003 81802 333 81820 92438 67152 33980 31604 10180 20164 39221 48526 53001 81032 333 81360 83073;EQDQ01  00002PRCP99Q02 +01802ATMX  
0251671430999992000032906004-21200+048370FM-12+0006FMSM V0202601N005112200019N0400001N1+02881+02371101501ADDAA199000091GA1021+006009089GF102991021021008001001021KA1120M+03001KA2120N+02181MA1999999101431MD1210111+9999REMSYN112AAXX  29064 67143 32582 22610 10288 20237 30143 40150 52011 82202 333 0//00 10300 20218 50//4 55/// 82820 92438;EQDQ01  00002PRCP99
0195671430999992000032909004-21200+048370FM-12+0006FMSM V0202601N005112200019N0400001N1+03001+02611101391ADDAA199000091GA1031+006009089GF103991031021008001001001MA1999999101321MD1710111+9999REMSYN082AAXX  29094 67143 32582 32610 10300 20261 30132 40139 57011 83200 333 83820 92438;EQDQ01  00002PRCP99
0245671430999992000032912004-21200+048370FM-12+0006FMSM V0200401N005112200019N0400001N1+02941+02521101201ADDAA199000091GA1011+006009099GA2011+006009089GF101991011091008001001001MA1999999101131MD1710191+9999REMSYN116AAXX  29124 67143 32582 10410 10294 20252 30113 40120 57019 81900 333 0//00 81820 81920 94995 95835 92438 555 81640;EQDQ01  00002PRCP99
0224671430999992000032915004-21200+048370FM-12+0006FMSM V0200401N004112200019N0400001N1+02741+02601101311ADDAA199000091GA1011+006009089GF101991011081008001001001KA1120M+03051MA1999999101241MD1310111+9999REMSYN098AAXX  29154 67143 32582 10408 10274 20260 30124 40131 53011 81800 333 10305 81820 92438 555 81640;EQDQ01  00002PRCP99
0205671430999992000033003004-21200+048370FM-12+0006FMSM V0209999C000012200019N0300001N1+02261+02171101421ADDAA199000091GA1011+006009089GF101991011081008001001001MA1999999101351MD1310061+9999REMSYN092AAXX  30034 67143 32580 10000 10226 20217 30135 40142 53006 81800 333 81820 92438 555 81640;EQDQ01  00002PRCP99
0261671430999992000033006004-21200+048370FM-12+0006FMSM V0203201N002112200019N0400001N1+02901+02471101521ADDAA199000091GA1011+006009089GF101991011081008001001001KA1120M+03051KA2120N+02261MA1999999101451MD1210101+9999REMSYN122AAXX  30064 67143 32582 13204 10290 20247 30145 40152 52010 81800 333 0//00 10305 20226 50//4 55/// 81820 92438 555 81640;EQDQ01  00002PRCP99
0205671430999992000033009004-21200+048370FM-12+0006FMSM V0200201N005112200019N0400001N1+02921+02441101421ADDAA199000091GA1021+006009089GF102991021081008001001001MA1999999101351MD1810101+9999REMSYN092AAXX  30094 67143 32582 20210 10292 20244 30135 40142 58010 82800 333 82820 92438 555 81640;EQDQ01  00002PRCP99
0201671430999992000033012004-21200+048370FM-12+0006FMSM V0200201N005112200019N0400001N1+02981+02601101251ADDAA199000091GA1011+006009089GF101991011021008001001001MA1999999101181MD1710171+9999REMSYN088AAXX  30124 67143 32582 10210 10298 20260 30118 40125 57017 81200 333 0//00 81820 92438;EQDQ01  00002PRCP99
0214671430999992000033015004-21200+048370FM-12+0006FMSM V0200201N004112200019N0400001N1+02751+02541101261ADDAA199000091GA1011+006009089GF101991011081008001001001KA1120M+03001MA1999999101191MD1510011+9999REMSYN088AAXX  30154 67143 32582 10208 10275 20254 30119 40126 55001 81800 333 10300 81820 92438;EQDQ01  00002PRCP99
0202671430999992000033103004-21200+048370FM-12+0006FMSM V0209999C000012200019N0300001N1+02251+02181101321ADDAA112000291AY161031GA1011+006009089GF101991011081008001001001MA1999999101251MD1510021+9999MW1011REMSYN094AAXX  31034 67143 21580 10000 10225 20218 30125 40132 55002 7016/ 81800 333 69922 81820 92438;
0251671430999992000033106004-21200+048370FM-12+0006FMSM V0209999C000012200019N0400001N1+02821+02541101421ADDAA199000091GA1011+006009089GF101991011021008001001001KA1120M+03001KA2120N+02251MA1999999101351MD1110101+9999REMSYN112AAXX  31064 67143 32582 10000 10282 20254 30135 40142 51010 81200 333 0//00 10300 20225 50//4 55/// 81820 92438;EQDQ01  00002PRCP99
0195671430999992000033109004-21200+048370FM-12+0006FMSM V0200401N003112200019N0400001N1+02901+02321101291ADDAA199000091GA1021+006009089GF102991021021008001001001MA1999999101221MD1710131+9999REMSYN082AAXX  31094 67143 32582 20406 10290 20232 30122 40129 57013 82200 333 82820 92438;EQDQ01  00002PRCP99
0217671430999992000033112004-21200+048370FM-12+0006FMSM V0200401N005112200019N0400001N1+02941+02401101121ADDAA199000091GA1011+012009069GF101991011081008001001021MA1999999101051MD1710171+9999REMSYN104AAXX  31124 67143 32582 10410 10294 20240 30105 40112 57017 81802 333 0//00 81820 92438 555 81640 81073;EQDQ01  00002PRCP99
0230671430999992000033115004-21200+048370FM-12+0006FMSM V0200401N005112200019N0400001N1+02781+02611101171ADDAA199000091GA1011+012009069GF101991011081004501001021KA1120M+02981MA1999999101101MD1310051+9999REMSYN104AAXX  31154 67143 32482 10410 10278 20261 30110 40117 53005 81802 333 10298 81817 92438 555 81640 81073;EQDQ01  00002PRCP99
0233671430999992000040103004-21200+048370FM-12+0006FMSM V0209999C000012200019N0300001N1+02321+02231101381ADDAA199000091GA1011+012009069GA2011+030009039GF101991011081008001031021MA1999999101311MD1310081+9999REMSYN104AAXX  01034 67143 32580 10000 10232 20223 30131 40138 53008 81832 333 81820 92438 555 81640 81360 81073;EQDQ01  00002PRCP99
0267671430999992000040106004-21200+048370FM-12+0006FMSM V0200601N001012200019N0300001N1+02801+02371101551ADDAA199000091GA1021+012009069GF103991031081008001031001KA1120M+02981KA2120N+02221MA1999999101481MD1210171+9999REMSYN128AAXX  01064 67143 32580 30602 10280 20237 30148 40155 52017 83830 333 0//00 10298 20222 50//4 55/// 82820 92438 555 82640 81360;EQDQ01  00002PRCP99
0195671430999992000040109004-21200+048370FM-12+0006FMSM V0201001N002112200019N0400001N1+02881+02361101491ADDAA199000091GA1041+006009089GF104991041021008001001001MA1999999101421MD1810061+9999REMSYN082AAXX  01094 67143 32582 41004 10288 20236 30142 40149 58006 84200 333 84820 92438;EQDQ01  00002PRCP99
0201671430999992000040112004-21200+048370FM-12+0006FMSM V0201001N004112200019N0400001N1+02921+02531101421ADDAA199000091GA1041+006909089GF104991041021008001001001MA1999999101351MD1710071+9999REMSYN088AAXX  01124 67143 32582 41008 10292 20253 30135 40142 57007 84200 333 0//00 84823 92438;EQDQ01  00002PRCP99
0214671430999992000040115004-21200+048370FM-12+0006FMSM V0201001N004112200019N0300001N1+02721+02461101521ADDAA199000091GA1041+999999089GF104991041021008001001999KA1120M+02941MA1999999101451MD1310101+9999REMSYN088AAXX  01154 67143 32580 41008 10272 20246 30145 40152 53010 8420/ 333 10294 848/0 92438;EQDQ01  00002PRCP99
0195671430999992000040203004-21200+048370FM-12+0006FMSM V0201001N001012200019N0300001N1+02281+02181101581ADDAA199000091GA1041+006009089GF104991041081008001001021MA1999999101511MD1310021+9999REMSYN082AAXX  02034 67143 32580 41002 10228 20218 30151 40158 53002 84802 333 84820 92438;EQDQ01  00002PRCP99
0294671430999992000040206004-21200+048370FM-12+0006FMSM V0202401N003110099019N0080001N1+02521+02381101731ADDAA124000191AC11C9AY121061AY221061GA1031+005109089GA2071+009909069GF108991081081004501999999KA1120M+02941KA2120N+02221MA1999999101661MD1210151+9999MW1611REMSYN130AAXX  02064 67143 11458 82406 10252 20238 30166 40173 52015 69924 76122 888// 333 0//51 10294 20222 50//4 55/// 83817 87633 92436;
0232671430999992000040209004-21200+048370FM-12+0006FMSM V0202401N003110690019N0300001N1+02701+02261101661ADDAA106000491AY161031AY221031GA1041+006009089GA2031+069009009GF105991041021008001001021MA1999999101591MD1810071+9999MW1001REMSYN100AAXX  02094 67143 21580 52406 10270 20226 30159 40166 58007 70062 84202 333 69941 84820 83073 92438;
0232671430999992000040212004-21200+048370FM-12+0006FMSM V0201201N003112200019N0300001N1+02821+02481101541ADDAA106000591AC11I9AY161061AY211061GA1041+006909089GF104991041021008001001021MA1999999101471MD1710121+9999MW1011REMSYN110AAXX  02124 67143 11580 41206 10282 20248 30147 40154 57012 69941 70161 84202 333 0//15 84823 92438 555 82075;
0217671430999992000040215004-21200+048370FM-12+0006FMSM V0201201N003110690019N0300001N1+02781+02411101621ADDAA199000021GA1031+006009089GA2031+069009009GF105991031021008001001021KA1120M+02891MA1999999101551MD1310081+9999REMSYN094AAXX  02154 67143 32580 51206 10278 20241 30155 40162 53008 83202 333 10289 83820 83073 92438;
0211671430999992000040303004-21200+048370FM-12+0006FMSM V0201201N004112200019N0300001N1+02671+02291101601ADDAA199000091GA1011+012009069GF104991041081008001001021MA1999999101531MD1510011+9999REMSYN098AAXX  03034 67143 32580 41208 10267 20229 30153 40160 55001 84802 333 84820 92438 555 81640 81073;EQDQ01  00002PRCP99
0261671430999992000040306004-21200+048370FM-12+0006FMSM V0201001N005110060019N0300001N1+02841+02221101721ADDAA199000091GA1061+006009089GF106991061081008001001001KA1120M+02891KA2120N+02571MA1999999101651MD1210081+9999REMSYN122AAXX  03064 67143 32580 61010 10284 20222 30165 40172 52008 86800 333 0//00 10289 20257 50//4 55/// 86820 92438 555 81640;EQDQ01  00002PRCP99
0205671430999992000040309004-21200+048370FM-12+0006FMSM V0201001N003112200019N0400001N1+02951+02351101671ADDAA199000091GA1041+006009089GF104991041021008001001021MA1999999101601MD1810051+9999REMSYN092AAXX  03094 67143 32582 41006 10295 20235 30160 40167 58005 84202 333 84820 92438 555 81075;EQDQ01  00002PRCP99
0229671430999992000040312004-21200+048370FM-12+0006FMSM V0201001N005110900019N0200001N1+02761+02331101471ADDAA199000091AY121061AY211061GA1041+006009089GF105991041021008001001021MA1999999101401MD1710201+9999MW1151REMSYN094AAXX  03124 67143 31570 51010 10276 20233 30140 40147 57020 71521 84202 333 0//00 84820 92438;EQDQ01  00002PRCP99
0264671430999992000040315004-21200+048370FM-12+0006FMSM V0201001N006210099019N0150001N1+02581+02441101551ADDAA199000091AY121031AY221031GA1031+005109089GA2071+009909069GF107991071081004501999999KA1120M+03001MA1999999101481MD1310081+9999MW1151REMSYN100AAXX  03154 67143 31465 71012 10258 20244 30148 40155 53008 71522 878// 333 10300 83817 87633 92437;EQDQ01  00002PRCP99
0232671430999992000040403004-21200+048370FM-12+0006FMSM V0202801N001010099019N0200001N1+02201+02141101571ADDAA112003091AY161031AY221031GA1021+005109089GA2061+009909069GF107991071081004501999999MA1999999101501MD1310061+9999MW1151REMSYN100AAXX  04034 67143 21470 72802 10220 20214 30150 40157 53006 71562 878// 333 60032 82817 86633 92438;
0294671430999992000040406004-21200+048370FM-12+0006FMSM V0202801N004110099019N0200001N1+02361+02261101631ADDAA124003091AC12C9AY161061AY221061GA1021+005109089GA2061+009909069GF107991071081004501999999KA1120M+03001KA2120N+02201MA1999999101561MD1110061+9999MW1151REMSYN130AAXX  04064 67143 11470 72808 10236 20226 30156 40163 51006 60034 71562 878// 333 0//12 10300 20220 50//4 55/// 82817 86633 92438;
0244671430999992000040412004-21200+048370FM-12+0006FMSM V0201201N003110099019N0300001N1+02571+02281101481ADDAA106004191AC13C9AY161061AY221061GA1031+006009089GA2071+009909069GF107991071081008001999999MA1999999101411MD1710091+9999MW1011REMSYN106AAXX  04124 67143 11580 71206 10257 20228 30141 40148 57009 60041 70162 878// 333 0//93 83820 87633 92438;
0236671430999992000040415004-21200+048370FM-12+0006FMSM V0201201N001010120019N0300001N1+02571+02401101451ADDAA199000091GA1011+006009089GA2071+012009069GF107991071081008001999999KA1120M+02731MA1999999101381MD1510031+9999REMSYN094AAXX  04154 67143 32580 71202 10257 20240 30138 40145 55003 878// 333 10273 81820 87640 92438;EQDQ01  00002PRCP99
0223671430999992000040500004-21200+048370FM-12+0006FMSM V0201201N001012200019N0300001N1+02401+02311101481ADDAA199000091GA1011+006009089GA2031+012009069GF103991031081008001001001MA1999999101411MD1710071+9999REMSYN094AAXX  05004 67143 33580 31202 10240 20231 30141 40148 57007 83800 333 0//00 81820 83640 924/8;EQDQ01  00002PRCP99
0199671430999992000040503004-21200+048370FM-12+0006FMSM V0201201N003112200019N0300001N1+02251+02141101521ADDAA199000091GA1011+006009089GF102991021081008001001001MA1999999101451MD1310041+9999REMSYN086AAXX  05034 67143 32580 21206 10225 20214 30145 40152 53004 82800 333 81820 555 82640;EQDQ01  00002PRCP99
0261671430999992000040506004-21200+048370FM-12+0006FMSM V0202601N003112200019N0400001N1+02641+02441101661ADDAA199000091GA1021+006009089GF103991031081008001001001KA1120M+02731KA2120N+02251MA1999999101591MD1210141+9999REMSYN122AAXX  05064 67143 32582 32606 10264 20244 30159 40166 52014 83800 333 0//00 10273 20225 50//4 55/// 82820 92438 555 82640;EQDQ01  00002PRCP99
0205671430999992000040509004-21200+048370FM-12+0006FMSM V0200401N003112200019N0400001N1+02821+02361101621ADDAA199000091GA1021+006009089GF102991021021008001001021MA1999999101551MD1810041+9999REMSYN092AAXX  05094 67143 32582 20406 10282 20236 30155 40162 58004 82202 333 82820 92438 555 81073;EQDQ01  00002PRCP99
0236671430999992000040515004-21200+048370FM-12+0006FMSM V0200801N006210099019N0300001N1+02641+02441101561ADDAA199000091GA1021+005109089GA2071+009909069GF107991071081004501999999KA1120M+02841MA1999999101491MD1310081+9999REMSYN094AAXX  05154 67143 32480 70812 10264 20244 30149 40156 53008 878// 333 10284 82817 87633 92438;EQDQ01  00002PRCP99
0235671430999992000040600004-21200+048370FM-12+0006FMSM V0200801N002110099019N0200001N1+02341+02251101561ADDAA199000091GA1021+005109089GA2071+009909069GF108991081081004501999999MA1999999101491MD1710101+9999MW1151REMSYN100AAXX  06004 67143 31470 80804 10234 20225 30149 40156 57010 715// 888// 333 0//00 82817 87633 924/8;EQDQ01  00002PRCP99
0224671430999992000040603004-21200+048370FM-12+0006FMSM V0202801N004110099019N0200001N1+02281+02221101631ADDAA112005091AY161031GA1031+005109089GA2071+009909069GF108991081081004501999999MA1999999101561MD1310071+9999MW1151REMSYN100AAXX  06034 67143 21470 82808 10228 20222 30156 40163 53007 7156/ 888// 333 60052 83817 87633 92438;
0294671430999992000040606004-21200+048370FM-12+0006FMSM V0202801N003112200019N0300001N1+02481+02361101721ADDAA124007191AC12C9AY161061AY221061GA1021+006009089GA2031+012009069GF104991041081008001001001KA1120M+02841KA2120N+02281MA1999999101651MD1210091+9999MW1011REMSYN130AAXX  06064 67143 11580 42806 10248 20236 30165 40172 52009 60074 70162 84800 333 0//92 10284 20228 50//4 55/// 82820 83640 92438;
0195671430999992000040609004-21200+048370FM-12+0006FMSM V0201201N00211012001CN0300001N1+02821+02271101611ADDAA199000091GA1041+006009089GF105991051081008001001001MA1999999101541MD1810111+9999REMSYN082AAXX  06094 67143 32580 51204 10282 20227 30154 40161 58011 85800 333 84820 92438;EQDQ01  00002PRCP99
0211671430999992000040612004-21200+048370FM-12+0006FMSM V0201201N002112200019N0300001N1+02801+02441101461ADDAA199000091GA1021+006009089GF103991031081008001001001MA1999999101391MD1710151+9999REMSYN098AAXX  06124 67143 32580 31204 10280 20244 30139 40146 57015 83800 333 0//00 82820 92438 555 82640;EQDQ01  00002PRCP99
0236671430999992000040615004-21200+048370FM-12+0006FMSM V0201201N004110120019N0300001N1+02741+02461101501ADDAA199000091GA1021+006009089GA2051+012009069GF105991051081008001001001KA1120M+02831MA1999999101431MD1310041+9999REMSYN094AAXX  06154 67143 32580 51208 10274 20246 30143 40150 53004 85800 333 10283 82820 85640 92436;EQDQ01  00002PRCP99
0204671430999992000040703004-21200+048370FM-12+0006FMSM V0201001N002112200019N0300001N1+02181+02031101521ADDAA112006091GA1011+006009089GA2031+012009069GF103991031081008001001001MA1999999101451MD1510031+9999REMSYN094AAXX  07034 67143 22580 31004 10218 20203 30145 40152 55003 83800 333 60062 81820 83640 92438;
0294671430999992000040706004-21200+048370FM-12+0006FMSM V0202601N002110099019N0100001N1+02401+02251101711ADDAA124006191AC13I9AY121061AY211061GA1031+005109089GA2071+009909069GF107991071081004501999999KA1120M+02831KA2120N+02181MA1999999101641MD1210191+9999MW1601REMSYN130AAXX  07064 67143 11460 72604 10240 20225 30164 40171 52019 60064 76021 878// 333 0//68 10283 20218 50//4 55/// 83817 87633 92437;
0232671430999992000040709004-21200+048370FM-12+0006FMSM V0202201N002110120019N0300001N1+02681+02271101611ADDAA106000291AY161031AY221031GA1031+006009089GA2061+012009069GF106991061081008001001001MA1999999101541MD1710101+9999MW1011REMSYN100AAXX  07094 67143 21580 62204 10268 20227 30154 40161 57010 70162 86800 333 69921 83820 86640 92438;
0244671430999992000040712004-21200+048370FM-12+0006FMSM V0202201N002112200019N0300001N1+02741+02241101481ADDAA106000191AC12I9AY161061AY221061GA1021+006009089GA2031+012009069GF104991041081008001001001MA1999999101411MD1710131+9999MW1011REMSYN106AAXX  07124 67143 11580 42204 10274 20224 30141 40148 57013 69921 70162 84800 333 0//56 82820 83640 92438;
0236671430999992000040715004-21200+048370FM-12+0006FMSM V0201401N003110099019N0300001N1+02621+01361101561ADDAA199000021GA1021+006009089GA2071+009909069GF199999071081008001999999KA1120M+02751MA1999999101491MD1310081+9999REMSYN094AAXX  07154 67143 32580 61406 10262 20136 30149 40156 53008 878// 333 10275 82820 87633 92438;EQDQ01+000062SCOTCV
0217671430999992000040803004-21200+048370FM-12+0006FMSM V0209999C000010120019N0300001N1+02281+02161101501ADDAA199000091GA1011+006009089GA2051+012009069GF105991051081008001001001MA1999999101431MD1510031+9999REMSYN088AAXX  08034 67143 32580 50000 10228 20216 30143 40150 55003 85800 333 81820 85640 92438;EQDQ01  00002PRCP99
0251671430999992000040806004-21200+048370FM-12+0006FMSM V0203601N001012200019N0300001N1+02751+02241101641ADDAA199000091GA1011+006009089GF101991011081008001001001KA1120M+02751KA2120N+02281MA1999999101571MD1210141+9999REMSYN112AAXX  08064 67143 32580 13602 10275 20224 30157 40164 52014 81800 333 0//00 10275 20228 50//4 55/// 81820 92438;EQDQ01  00002PRCP99
0217671430999992000040809004-21200+048370FM-12+0006FMSM V0200601N002110120019N0300001N1+02781+02181101541ADDAA199000091GA1021+006009089GA2061+012009069GF106991061081008001001001MA1999999101471MD1710101+9999REMSYN088AAXX  08094 67143 32580 60604 10278 20218 30147 40154 57010 86800 333 82820 86640 92438;EQDQ01  00002PRCP99
0223671430999992000040812004-21200+048370FM-12+0006FMSM V0200601N004110099019N0300001N1+02751+02271101401ADDAA199000091GA1021+006009089GA2071+009909069GF107991071081008001999999MA1999999101331MD1710141+9999REMSYN094AAXX  08124 67143 32580 70608 10275 20227 30133 40140 57014 878// 333 0//00 82820 87633 92438;EQDQ01  00002PRCP99
0236671430999992000040815004-21200+048370FM-12+0006FMSM V0200601N002110120019N0300001N1+02661+02281101431ADDAA199000091GA1021+006009089GA2051+012009069GF106991061081008001001001KA1120M+02831MA1999999101361MD1310031+9999REMSYN094AAXX  08154 67143 32580 60604 10266 20228 30136 40143 53003 86800 333 10283 82820 85640 92438;EQDQ01  00002PRCP99
0232671430999992000040903004-21200+048370FM-12+0006FMSM V0200601N001010099019N0250001N1+02261+02141101521ADDAA112061091AY121031AY221031GA1011+006009089GA2071+009909069GF107991071081008001999999MA1999999101451MD1310021+9999MW1151REMSYN100AAXX  09034 67143 21575 70602 10226 20214 30145 40152 53002 71522 878// 333 60612 81820 87633 92438;
0217671430999992000040909004-21200+048370FM-12+0006FMSM V0200801N002112200019N0300001N1+02821+02451101501ADDAA199000091GA1031+006009089GA2021+012009069GF104991041081008001001001MA1999999101431MD1810131+9999REMSYN088AAXX  09094 67143 32580 40804 10282 20245 30143 40150 58013 84800 333 83820 82640 92438;EQDQ01  00002PRCP99
0223671430999992000040912004-21200+048370FM-12+0006FMSM V0200801N003112200019N0350001N1+02841+02501101411ADDAA199000091GA1021+006009089GA2021+012009069GF103991031081008001001001MA1999999101341MD1710091+9999REMSYN094AAXX  09124 67143 32581 30806 10284 20250 30134 40141 57009 83800 333 0//00 82820 82640 92438;EQDQ01  00002PRCP99
0236671430999992000040915004-21200+048370FM-12+0006FMSM V0200801N002112200019N0300001N1+02651+02441101471ADDAA199000091GA1011+006009089GA2031+012009069GF103991031081008001001021KA1120M+02851MA1999999101401MD1310061+9999REMSYN094AAXX  09154 67143 32580 30804 10265 20244 30140 40147 53006 83802 333 10285 81820 83640 92438;EQDQ01  00002PRCP99
0224671430999992000041003004-21200+048370FM-12+0006FMSM V0200801N001010099019N0200001N1+02201+02111101541ADDAA112004091AY161031GA1021+006009089GA2071+009909069GF107991071081008001999999MA1999999101471MD1310061+9999MW1151REMSYN100AAXX  10034 67143 21570 70802 10220 20211 30147 40154 53006 7156/ 878// 333 60042 82820 87633 92438;
0294671430999992000041006004-21200+048370FM-12+0006FMSM V0202801N003110099019N0200001N1+02381+02291101721ADDAA124004191AC11C9AY161061AY221061GA1021+005109089GA2071+009909069GF107991071081004501999999KA1120M+02851KA2120N+02201MA1999999101651MD1210181+9999MW1151REMSYN130AAXX  10064 67143 11470 72806 10238 20229 30165 40172 52018 60044 71562 878// 333 0//11 10285 20220 50//4 55/// 82817 87633 92438;
0217671430999992000041009004-21200+048370FM-12+0006FMSM V0202801N004110099019N0300001N1+02761+02201101601ADDAA199000091GA1021+006009089GA2071+009909069GF107991071081008001999999MA1999999101531MD1810121+9999REMSYN088AAXX  10094 67143 32580 72808 10276 20220 30153 40160 58012 878// 333 82820 87633 92438;EQDQ01  00002PRCP99
0223671430999992000041012004-21200+048370FM-12+0006FMSM V0200201N003110120019N0300001N1+02701+02321101471ADDAA199000091GA1021+005109089GA2071+012009069GF107991071081008001999999MA1999999101401MD1710131+9999REMSYN094AAXX  10124 67143 32580 70206 10270 20232 30140 40147 57013 878// 333 0//00 82817 87640 92438;EQDQ01  00002PRCP99
0236671430999992000041015004-21200+048370FM-12+0006FMSM V0200201N004110120019N0300001N1+02601+02311101561ADDAA199000091GA1011+005109089GA2071+012009069GF107991061081004501001001KA1120M+02801MA1999999101491MD1310091+9999REMSYN094AAXX  10154 67143 32480 70208 10260 20231 30149 40156 53009 86800 333 10280 81817 87640 92438;EQDQ01  00002PRCP99
0236671430999992000041100004-21200+048370FM-12+0006FMSM V0202001N002110120019N0200001N1+02151+02041101541ADDAA106000191AC11C9AY161061GA1011+006009089GA2051+012009069GF105991051081008001001001MA1999999101471MD1710091+9999MW1151REMSYN106AAXX  11004 67143 11570 52004 10215 20204 30147 40154 57009 69911 7156/ 85800 333 0//11 81820 85640 924/8;
0246671430999992000041106004-21200+048370FM-12+0006FMSM V0202201N00311009901CN0150001N1+02251+02201101751ADDAC12C9GA1021+005109089GA2071+009909069GF107991999999004501999999KA1120M+02801KA2120N+02101MA1999999101681REMSYN129AAXX  11064 67143 11465 72206 10225 20220 30168 40175 2017 69964 76062 878// 333 0//12 10280 20210 50//4 55/// 82817 87633 92437;
0232671430999992000041109004-21200+048370FM-12+0006FMSM V0202801N004110120019N0300001N1+02721+02461101681ADDAA106002091AY161031AY221031GA1021+006009089GA2051+012009069GF106991061081008001001001MA1999999101611MD1810071+9999MW1011REMSYN100AAXX  11094 67143 21580 62808 10272 20246 30161 40168 58007 70162 86800 333 60021 82820 85640 92438;
0223671430999992000041112004-21200+048370FM-12+0006FMSM V0201001N003110120019N0350001N1+02761+02301101521ADDAA199000091GA1021+006009089GA2041+012009069GF105991051081008001001001MA1999999101451MD1710161+9999REMSYN094AAXX  11124 67143 32581 51006 10276 20230 30145 40152 57016 85800 333 0//00 82820 84640 92438;EQDQ01  00002PRCP99
0237671430999992000041203004-21200+048370FM-12+0006FMSM V0202401N002110099019N0200001N1+02121+02031101651ADDAA199000091AY121031GA1021+005109089GA2071+009909069GF107991071081004501999999MA1999999101581MD1310071+9999MW1151REMSYN094AAXX  12034 67143 31470 72404 10212 20203 30158 40165 53007 7152/ 878// 333 82817 87633 92438;EQDQ01  00002PRCP99
0294671430999992000041206004-21200+048370FM-12+0006FMSM V0203601N004110099019N0200001N1+02201+02141101801ADDAA112001091AC11C9AY161061AY221061GA1021+005109089GA2071+009909069GF107991071081004501999999KA1120M+02781KA2120N+02121MA1999999101731MD1210151+9999MW1151REMSYN130AAXX  12064 67143 11470 73608 10220 20214 30173 40180 52015 60012 71562 878// 333 0//11 10278 20212 50//4 55/// 82817 87633 92438;
0245671430999992000041209004-21200+048370FM-12+0006FMSM V0202401N002110099019N0200001N1+02781+02291101621ADDAA199000091AY121031AY221031GA1031+006009089GA2061+009909069GF107991071081008001999999MA1999999101551MD1810181+9999MW1151REMSYN094AAXX  12094 67143 31570 72404 10278 20229 30155 40162 58018 71522 878// 333 83820 86633 92438;EQDQ01  00002PRCP99
0233671430999992000041212004-21200+048370FM-12+0006FMSM V0201001N003110120019N0300001N1+02721+02291101521ADDAA199000091GA1021+006009089GA2051+012009069GF106991061081008001001021MA1999999101451MD1710101+9999REMSYN104AAXX  12124 67143 32580 61006 10272 20229 30145 40152 57010 86802 333 0//00 82820 85640 92438 555 82073;EQDQ01  00002PRCP99
0236671430999992000041215004-21200+048370FM-12+0006FMSM V0201001N003110120019N0300001N1+02541+02401101611ADDAA199000091GA1021+030009039GF106991061081008001031021KA1120M+02801MA1999999101541MD1310091+9999REMSYN110AAXX  12154 67143 32580 61006 10254 20240 30154 40161 53009 86832 333 10280 82820 84640 92438 555 82360 81073;EQDQ01  00002PRCP99
0227671430999992000041303004-21200+048370FM-12+0006FMSM V0201001N001010099019N0300001N1+02271+02141101561ADDAA199000091GA1011+006009089GA2061+009909069GF106991061081008001001021MA1999999101491MD1310011+9999REMSYN098AAXX  13034 67143 32580 61002 10227 20214 30149 40156 53001 86802 333 81820 86633 92438 555 81073;EQDQ01  00002PRCP99
0301671430999992000041306004-21200+048370FM-12+0006FMSM V0202201N002110099019N0150001N1+02421+02241101691ADDAA199000091AY121061AY221061GA1021+006009089GA2071+009909069GF107991071081008001999999KA1120M+02801KA2120N+02271MA1999999101621MD1210131+9999MW1151REMSYN124AAXX  13064 67143 31565 72204 10242 20224 30162 40169 52013 71522 878// 333 0//00 10280 20227 50//4 55/// 82820 87633 92437;EQDQ01  00002PRCP99
0217671430999992000041309004-21200+048370FM-12+0006FMSM V0201601N001010099019N0300001N1+02681+02271101491ADDAA199000091GA1031+006009089GA2061+009909069GF107991071081008001999999MA1999999101421MD1710201+9999REMSYN088AAXX  13094 67143 32580 71602 10268 20227 30142 40149 57020 878// 333 83820 86633 92438;EQDQ01  00002PRCP99
0223671430999992000041312004-21200+048370FM-12+0006FMSM V0200801N001010120019N0300001N1+02751+02201101321ADDAA199000091GA1031+006009089GA2061+012009069GF107991071081008001999999MA1999999101251MD1710171+9999REMSYN094AAXX  13124 67143 32580 70802 10275 20220 30125 40132 57017 878// 333 0//00 83820 86640 92438;EQDQ01  00002PRCP99
0236671430999992000041315004-21200+048370FM-12+0006FMSM V0200801N001012200019N0300001N1+02601+02251101401ADDAA199000091GA1011+006009089GA2041+012009069GF104991041081008001031001KA1120M+02781MA1999999101331MD1310081+9999REMSYN094AAXX  13154 67143 32580 40802 10260 20225 30133 40140 53008 84830 333 10278 81820 84640 92438;EQDQ01  00002PRCP99
0217671430999992000041403004-21200+048370FM-12+0006FMSM V0209999C000012200019N0300001N1+02101+01981101331ADDAA199000091GA1011+006009089GA2041+012009069GF104991041081008001001001MA1999999101261MD1510001+9999REMSYN088AAXX  14034 67143 32580 40000 10210 20198 30126 40133 55000 84800 333 81820 84640 92438;EQDQ01  00002PRCP99
0251671430999992000041406004-21200+048370FM-12+0006FMSM V0200801N001012200019N0300001N1+02771+02221101421ADDAA199000091GA1021+006009089GF103991031081008001001001KA1120M+02781KA2120N+02101MA1999999101351MD1210091+9999REMSYN112AAXX  14064 67143 32580 30802 10277 20222 30135 40142 52009 83800 333 0//00 10278 20210 50//4 55/// 82820 92438;EQDQ01  00002PRCP99
0195671430999992000041409004-21200+048370FM-12+0006FMSM V0202801N003112200019N0400001N1+02801+02311101331ADDAA199000091GA1031+006909089GF103991031081008001001001MA1999999101261MD1810091+9999REMSYN082AAXX  14094 67143 32582 32806 10280 20231 30126 40133 58009 83800 333 83823 92438;EQDQ01  00002PRCP99
0224671430999992000041415004-21200+048370FM-12+0006FMSM V0201001N003112200019N0300001N1+02661+02451101261ADDAA199000091GA1021+006009089GF102991021081008001001001KA1120M+02841MA1999999101191MD1310081+9999REMSYN098AAXX  14154 67143 32580 21006 10266 20245 30119 40126 53008 82800 333 10284 82820 92438 555 81640;EQDQ01  00002PRCP99
0217671430999992000041503004-21200+048370FM-12+0006FMSM V0201001N001010099019N0300001N1+02251+02061101251ADDAA199000091GA1011+006009089GA2051+009909069GF105991051081008001001001MA1999999101181MD1310031+9999REMSYN088AAXX  15034 67143 32580 51002 10225 20206 30118 40125 53003 85800 333 81820 85633 92438;EQDQ01  00002PRCP99
0261671430999992000041506004-21200+048370FM-12+0006FMSM V0203001N002112200019N0300001N1+02701+02261101351ADDAA199000091GA1021+006009089GF102991021081008001001001KA1120M+02841KA2120N+02151MA1999999101281MD1210101+9999REMSYN122AAXX  15064 67143 32580 23004 10270 20226 30128 40135 52010 82800 333 0//00 10284 20215 5///4 55/// 82820 92438 555 81640;EQDQ01  00002PRCP99
0195671430999992000041509004-21200+048370FM-12+0006FMSM V0200801N004112200019N0300001N1+02861+02311101251ADDAA199000091GA1041+006009089GF104991041021008001001001MA1999999101181MD1710101+9999REMSYN082AAXX  15094 67143 32580 40808 10286 20231 30118 40125 57010 84200 333 84820 92438;EQDQ01  00002PRCP99
0201671430999992000041512004-21200+048370FM-12+0006FMSM V0200801N003112200019N0400001N1+02821+02301101151ADDAA199000091GA1031+006909089GF103991031021008001001001MA1999999101081MD1710101+9999REMSYN088AAXX  15124 67143 32582 30806 10282 20230 30108 40115 57010 83200 333 0//00 83823 92438;EQDQ01  00002PRCP99
0195671430999992000041603004-21200+048370FM-12+0006FMSM V0203001N002112200019N0300001N1+02161+02061101441ADDAA199000091GA1011+006009089GF101991011081008001001001MA1999999101371MD1310111+9999REMSYN082AAXX  16034 67143 32580 13004 10216 20206 30137 40144 53011 81800 333 81820 92438;EQDQ01  00002PRCP99
0251671430999992000041606004-21200+048370FM-12+0006FMSM V0200801N002112200019N0400001N1+02641+02291101611ADDAA199000091GA1011+006009089GF101991011081008001001001KA1120M+02901KA2120N+02181MA1999999101541MD1210171+9999REMSYN112AAXX  16064 67143 32582 10804 10264 20229 30154 40161 52017 81800 333 0//00 10290 20218 50//4 55/// 81820 92438;EQDQ01  00002PRCP99
0195671430999992000041609004-21200+048370FM-12+0006FMSM V0200801N006212200019N0400001N1+02861+02371101481ADDAA199000091GA1011+006009089GF101991011021008001001001MA1999999101411MD1710131+9999REMSYN082AAXX  16094 67143 32582 10812 10286 20237 30141 40148 57013 81200 333 81820 92438;EQDQ01  00002PRCP99
0201671430999992000041612004-21200+048370FM-12+0006FMSM V0200801N005112200019N0400001N1+02901+02511101301ADDAA199000091GA1011+006009089GF101991011021008001001001MA1999999101231MD1710181+9999REMSYN088AAXX  16124 67143 32582 10810 10290 20251 30123 40130 57018 81200 333 0//00 81820 92438;EQDQ01  00002PRCP99
0224671430999992000041615004-21200+048370FM-12+0006FMSM V0200801N005112200019N0300001N1+02701+02561101391ADDAA199000091GA1011+006009089GF101991011081008001001001KA1120M+02941MA1999999101321MD1310091+9999REMSYN098AAXX  16154 67143 32580 10810 10270 20256 30132 40139 53009 81800 333 10294 81820 92438 555 81640;EQDQ01  00002PRCP99
0205671430999992000041703004-21200+048370FM-12+0006FMSM V0209999C000012200019N0400001N1+02181+02061101441ADDAA199000091GA1011+006009089GF101991011081008001001001MA1999999101371MD1310041+9999REMSYN092AAXX  17034 67143 32582 10000 10218 20206 30137 40144 53004 81800 333 81820 92438 555 81640;EQDQ01  00002PRCP99
0251671430999992000041706004-21200+048370FM-12+0006FMSM V0202801N005112200019N0400001N1+02761+02301101551ADDAA199000091GA1011+006009089GF101991011021008001001001KA1120M+02941KA2120N+02181MA1999999101481MD1110111+9999REMSYN112AAXX  17064 67143 32582 12810 10276 20230 30148 40155 51011 81200 333 0//00 10294 20218 50//4 55/// 81820 92438;EQDQ01  00002PRCP99
0195671430999992000041709004-21200+048370FM-12+0006FMSM V0203401N005112200019N0400001N1+02901+02621101431ADDAA199000091GA1021+006009089GF102991021021008001001001MA1999999101361MD1810121+9999REMSYN082AAXX  17094 67143 32582 23410 10290 20262 30136 40143 58012 82200 333 82820 92438;EQDQ01  00002PRCP99
0201671430999992000041712004-21200+048370FM-12+0006FMSM V0203401N006212200019N0400001N1+02961+02601101201ADDAA199000091GA1011+006009089GF101991011081008001001001MA1999999101131MD1710231+9999REMSYN088AAXX  17124 67143 32582 13412 10296 20260 30113 40120 57023 81800 333 0//00 81820 92438;EQDQ01  00002PRCP99
0251671430999992000041806004-21200+048370FM-12+0006FMSM V0200401N005112200019N0300001N1+02801+02371101421ADDAA199000091GA1031+006009089GF103991031081008001001001KA1120M+02971KA2120N+02421MA1999999101351MD1210071+9999REMSYN112AAXX  18064 67143 32580 30410 10280 20237 30135 40142 52007 83800 333 0//00 10297 20242 50//4 55/// 83820 92438;EQDQ01  00002PRCP99
0201671430999992000041812004-21200+048370FM-12+0006FMSM V0203401N002112200019N0400001N1+02901+02541101191ADDAA199000091GA1011+006909089GF101991011021008001001001MA1999999101121MD1710141+9999REMSYN088AAXX  18124 67143 32582 13404 10290 20254 30112 40119 57014 81200 333 0//00 81823 92438;EQDQ01  00002PRCP99
0230671430999992000041815004-21200+048370FM-12+0006FMSM V0201001N004112200019N0300001N1+02671+02401101301ADDAA199000091GA1011+030009039GF101991011021008001031021KA1120M+02961MA1999999101231MD1310111+9999REMSYN104AAXX  18154 67143 32580 11008 10267 20240 30123 40130 53011 81232 333 10296 81820 92438 555 81360 81073;EQDQ01  00002PRCP99
0211671430999992000041900004-21200+048370FM-12+0006FMSM V0201001N001012200019N0300001N1+02361+02241101321ADDAA199000091GA1011+006009089GF101991011081008001001001MA1999999101251MD1710111+9999REMSYN098AAXX  19004 67143 33580 11002 10236 20224 30125 40132 57011 81800 333 0//00 81820 924/8 555 81640;EQDQ01  00002PRCP99
0205671430999992000041903004-21200+048370FM-12+0006FMSM V0201001N001012200019N0300001N1+02271+02121101341ADDAA199000091GA1021+006009089GF102991021081008001001001MA1999999101271MD1310021+9999REMSYN092AAXX  19034 67143 32580 21002 10227 20212 30127 40134 53002 82800 333 82820 92438 555 81640;EQDQ01  00002PRCP99
0261671430999992000041906004-21200+048370FM-12+0006FMSM V0200801N001012200019N0300001N1+02681+02341101451ADDAA199000091GA1011+006009089GF101991011081008001001001KA1120M+02961KA2120N+02241MA1999999101381MD1210111+9999REMSYN122AAXX  19064 67143 32580 10802 10268 20234 30138 40145 52011 81800 333 0//00 10296 20224 50//4 55/// 81820 92438 555 81640;EQDQ01  00002PRCP99
0201671430999992000041912004-21200+048370FM-12+0006FMSM V0200801N002112200019N0400001N1+02861+02441101131ADDAA199000091GA1011+006909089GF101991011021008001001021MA1999999101061MD1710181+9999REMSYN088AAXX  19124 67143 32582 10804 10286 20244 30106 40113 57018 81202 333 0//00 81823 92438;EQDQ01  00002PRCP99
0214671430999992000041915004-21200+048370FM-12+0006FMSM V0200801N003112200019N0300001N1+02781+02441101211ADDAA199000091GA1011+006009089GF101991011081008001001021KA1120M+02951MA1999999101141MD1310081+9999REMSYN088AAXX  19154 67143 32580 10806 10278 20244 30114 40121 53008 81802 333 10295 81820 92438;EQDQ01  00002PRCP99
0217671430999992000042003004-21200+048370FM-12+0006FMSM V0209999C000010120019N0200001N1+02161+01971101441ADDAA199000091GA1011+006009089GA2051+012009069GF105991051081008001001001MA1999999101371MD1310081+9999REMSYN088AAXX  20034 67143 31570 50000 10216 20197 30137 40144 53008 85800 333 81820 85640 92438;EQDQ01  00002PRCP99
0273671430999992000042006004-21200+048370FM-12+0006FMSM V0200801N001010099019N0300001N1+02621+02381101541ADDAA199000091GA1011+005109089GA2071+009909069GF107991071081004501999999KA1120M+02951KA2120N+02161MA1999999101471MD1110101+9999REMSYN118AAXX  20064 67143 32480 70802 10262 20238 30147 40154 51010 878// 333 0//00 10295 20216 50//4 55/// 81817 87633 92438;EQDQ01  00002PRCP99
0217671430999992000042009004-21200+048370FM-12+0006FMSM V0200801N003110120019N0350001N1+02821+02581101411ADDAA199000091GA1021+006009089GA2071+012009069GF107991071081008001999999MA1999999101341MD1810131+9999REMSYN088AAXX  20094 67143 32581 70806 10282 20258 30134 40141 58013 878// 333 82820 87640 92438;EQDQ01  00002PRCP99
0217671430999992000042012004-21200+048370FM-12+0006FMSM V0201001N003112200019N0400001N1+02941+02461101271ADDAA199000091GA1011+015009069GF104991041081008001031001MA1999999101201MD1710141+9999REMSYN104AAXX  20124 67143 32582 41006 10294 20246 30120 40127 57014 84830 333 0//00 84823 92438 555 81650 81360;EQDQ01  00002PRCP99
0237671430999992000042103004-21200+048370FM-12+0006FMSM V0201001N001010099019N0200001N1+02361+02141101441ADDAA199000091AY121031GA1011+006009089GA2071+009909069GF107991071081008001999999MA1999999101371MD1310101+9999MW1151REMSYN094AAXX  21034 67143 31570 71002 10236 20214 30137 40144 53010 7152/ 878// 333 81820 87633 92438;EQDQ01  00002PRCP99
0273671430999992000042106004-21200+048370FM-12+0006FMSM V0202401N002110099019N0300001N1+02601+02391101631ADDAA199000091GA1021+005109089GA2071+009909069GF108991081081004501999999KA1120M+03001KA2120N+02361MA1999999101561MD1210191+9999REMSYN118AAXX  21064 67143 32480 82404 10260 20239 30156 40163 52019 888// 333 0//00 10300 20236 50//4 55/// 82817 87633 92438;EQDQ01  00002PRCP99
0217671430999992000042109004-21200+048370FM-12+0006FMSM V0202401N004110099019N0300001N1+02801+02461101531ADDAA199000091GA1031+005109089GA2061+009909069GF107991071081004501999999MA1999999101461MD1810101+9999REMSYN088AAXX  21094 67143 32480 72408 10280 20246 30146 40153 58010 878// 333 83817 86633 92438;EQDQ01  00002PRCP99
0201671430999992000042112004-21200+048370FM-12+0006FMSM V0201601N004112200019N0300001N1+02881+02521101401ADDAA199000091GA1041+006009089GF104991041081008001001001MA1999999101331MD1710131+9999REMSYN088AAXX  21124 67143 32580 41608 10288 20252 30133 40140 57013 84800 333 0//00 84820 92438;EQDQ01  00002PRCP99
0195671430999992000042203004-21200+048370FM-12+0006FMSM V0202401N002112200019N0300001N1+02241+02061101491ADDAA199000091GA1011+006009089GF102991021081008001001001MA1999999101421MD1310011+9999REMSYN082AAXX  22034 67143 32580 22404 10224 20206 30142 40149 53001 82800 333 81820 92438;EQDQ01  00002PRCP99
0301671430999992000042206004-21200+048370FM-12+0006FMSM V0202401N004110099019N0200001N1+02581+02381101571ADDAA199000091AY121061AY201061GA1021+005109089GA2071+009909069GF107991071081004501999999KA1120M+02931KA2120N+02241MA1999999101501MD1110081+9999MW1151REMSYN124AAXX  22064 67143 31470 72408 10258 20238 30150 40157 51008 71520 878// 333 0//00 10293 20224 50//4 55/// 82817 87633 92438;EQDQ01  00002PRCP99
0232671430999992000042209004-21200+048370FM-12+0006FMSM V0202401N005110120019N0200001N1+02741+02491101481ADDAA106000591AY161031AY221031GA1031+006009089GA2041+012009069GF106991061081008001001001MA1999999101411MD1810091+9999MW1151REMSYN100AAXX  22094 67143 21570 62410 10274 20249 30141 40148 58009 71562 86800 333 69951 83820 84640 92438;
0246671430999992000042215004-21200+048370FM-12+0006FMSM V0200801N002112200019N0300001N1+02681+02421101511ADDAA199000091GA1021+006009089GA2031+012009069GF104991041081008001001021KA1120M+02821MA1999999101441MD1310111+9999REMSYN104AAXX  22154 67143 32580 40804 10268 20242 30144 40151 53011 84802 333 10282 82820 83640 92438 555 82073;EQDQ01  00002PRCP99
0232671430999992000042303004-21200+048370FM-12+0006FMSM V0202601N001012200019N0300001N1+02201+02041101641ADDAA112004091AY161031AY221031GA1011+005109089GA2031+009909069GF103991031081004501001021MA1999999101571MD1310111+9999MW1011REMSYN100AAXX  23034 67143 21480 32602 10220 20204 30157 40164 53011 70162 83802 333 60042 81817 83633 92438;
0294671430999992000042306004-21200+048370FM-12+0006FMSM V0202401N003110099019N0200001N1+02441+02291101761ADDAA124007991AC12C9AY161061AY221061GA1031+005109089GA2061+009909069GF108991081081004501999999KA1120M+02821KA2120N+02201MA1999999101691MD1210101+9999MW1151REMSYN130AAXX  23064 67143 11470 82406 10244 20229 30169 40176 52010 60084 71562 888// 333 0//12 10282 20220 50//4 55/// 83817 86633 92438;
0242671430999992000042309004-21200+048370FM-12+0006FMSM V0202401N003110099019N0200001N1+02761+02461101641ADDAA106004091AY161031AY221031GA1041+005109089GA2031+009909069GF106991061081004501001021MA1999999101571MD1810121+9999MW1151REMSYN110AAXX  23094 67143 21470 62406 10276 20246 30157 40164 58012 71562 86802 333 60041 84817 83633 92438 555 81073;
0223671430999992000042312004-21200+048370FM-12+0006FMSM V0201601N001010120019N0300001N1+02701+02441101521ADDAA199000091GA1021+006009089GA2051+012009069GF106991061081008001001021MA1999999101451MD1710121+9999REMSYN094AAXX  23124 67143 32580 61602 10270 20244 30145 40152 57012 86802 333 0//00 82820 85640 92438;EQDQ01  00002PRCP99
0214671430999992000042315004-21200+048370FM-12+0006FMSM V0201601N002112200019N0300001N1+02641+02401101611ADDAA199000091GA1011+006009089GF102991021081008001001021KA1120M+02771MA1999999101541MD1310091+9999REMSYN088AAXX  23154 67143 32580 21604 10264 20240 30154 40161 53009 82802 333 10277 81820 92438;EQDQ01  00002PRCP99
0204671430999992000042403004-21200+048370FM-12+0006FMSM V0209999C000012200019N0300001N1+02221+02001101661ADDAA112000191GA1021+006009089GA2021+012009069GF104991041081008001001021MA1999999101591MD1510001+9999REMSYN094AAXX  24034 67143 21580 40000 10222 20200 30159 40166 55000 84802 333 69912 82820 82640 92438;
0272671430999992000042406004-21200+048370FM-12+0006FMSM V0202601N002112200019N0350001N1+02681+02301101731ADDAA124000591AC13C9AY161061AY221061GA1021+006009089GF103991031081008001001021KA1120M+02771KA2120N+02221MA1999999101661MD1110071+9999MW1011REMSYN124AAXX  24064 67143 11581 32604 10268 20230 30166 40173 51007 69944 70162 83802 333 0//13 10277 20222 50//4 55/// 82820 92438;
0217671430999992000042409004-21200+048370FM-12+0006FMSM V0200801N002112200019N0400001N1+02901+02381101631ADDAA199000091GA1021+006009089GA2031+069009009GF103991031081008001001021MA1999999101561MD1810101+9999REMSYN088AAXX  24094 67143 32582 30804 10290 20238 30156 40163 58010 83802 333 82820 83073 92438;EQDQ01  00002PRCP99
0224671430999992000042415004-21200+048370FM-12+0006FMSM V0200801N003112200019N0400001N1+02701+02291101601ADDAA199000091GA1011+006009089GF101991011081008001001001KA1120M+02901MA1999999101531MD1310091+9999REMSYN098AAXX  24154 67143 32582 10806 10270 20229 30153 40160 53009 81800 333 10290 81820 92438 555 81633;EQDQ01  00002PRCP99
0217671430999992000042503004-21200+048370FM-12+0006FMSM V0200801N001012200019N0300001N1+02131+01961101561ADDAA199000091GA1011+006009089GA2031+012009069GF103991031081008001001001MA1999999101491MD1510001+9999REMSYN088AAXX  25034 67143 32580 30802 10213 20196 30149 40156 55000 83800 333 81820 83640 92438;EQDQ01  00002PRCP99
0273671430999992000042506004-21200+048370FM-12+0006FMSM V0203401N002110099019N0300001N1+02501+02241101681ADDAA199000091GA1011+006009089GA2061+009909069GF106991061081008001001001KA1120M+02901KA2120N+02131MA1999999101611MD1210121+9999REMSYN118AAXX  25064 67143 32580 63404 10250 20224 30161 40168 52012 86800 333 0//00 10290 20213 50/// 55/// 81820 86633 92438;EQDQ01  00002PRCP99
0217671430999992000042509004-21200+048370FM-12+0006FMSM V0201601N002110120019N0300001N1+02801+02431101591ADDAA199000091GA1031+006009089GA2041+012009069GF106991061081008001001001MA1999999101521MD1710091+9999REMSYN088AAXX  25094 67143 32580 61604 10280 20243 30152 40159 57009 86800 333 83820 84640 92438;EQDQ01  00002PRCP99
0201671430999992000042512004-21200+048370FM-12+0006FMSM V0201601N001012200019N0400001N1+02871+02301101401ADDAA199000091GA1031+006909089GF104991041081008001001001MA1999999101331MD1710191+9999REMSYN088AAXX  25124 67143 32582 41602 10287 20230 30133 40140 57019 84800 333 0//00 83823 92438;EQDQ01  00002PRCP99
0236671430999992000042515004-21200+048370FM-12+0006FMSM V0201001N001012200019N0350001N1+02671+02461101501ADDAA199000091GA1011+006009089GA2031+012009069GF103991031081008001001001KA1120M+02941MA1999999101431MD1310101+9999REMSYN094AAXX  25154 67143 32581 31002 10267 20246 30143 40150 53010 83800 333 10294 81820 83640 92438;EQDQ01  00002PRCP99
0182671430999992000042603004-21200+048370FM-12+0006FMSM V0209999C000012200019N0300001N1+02201+02051101471ADDAA112001091GA1021+006009089GF102991021081008001001001MA1999999101401MD1310021+9999REMSYN088AAXX  26034 67143 22580 20000 10220 20205 30140 40147 53002 82800 333 60012 82820 92438;
0244671430999992000042606004-21200+048370FM-12+0006FMSM V0209999C000012200019N0300001N1+02671+02341101551ADDAA124001091AC13I9GA1011+006009089GF101991011021008001001001KA1120M+02941KA2120N+02201MA1999999101481MD1210081+9999REMSYN118AAXX  26064 67143 12580 10000 10267 20234 30148 40155 52008 60014 81200 333 0//58 10294 20220 50//4 55/// 81820 92438;
0205671430999992000042609004-21200+048370FM-12+0006FMSM V0202801N002112200019N0400001N1+02861+02281101481ADDAA199000091GA1031+006009089GF103991031081008001001001MA1999999101411MD1710071+9999REMSYN092AAXX  26094 67143 32582 32804 10286 20228 30141 40148 57007 83800 333 83820 92438 555 81650;EQDQ01  00002PRCP99
0201671430999992000042612004-21200+048370FM-12+0006FMSM V0200801N002112200019N0400001N1+02871+02341101331ADDAA199000091GA1031+006909089GF103991031021008001001001MA1999999101261MD1610151+9999REMSYN088AAXX  26124 67143 32582 30804 10287 20234 30126 40133 56015 83200 333 0//00 83823 92438;EQDQ01  00002PRCP99
0258671430999992000042615004-21200+048370FM-12+0006FMSM V0200801N003112200019N0300001N1+02741+02401101421ADDAA199000091GA1011+006009099GA2021+006009089GF102991021091008001001001KA1120M+03021MA1999999101351MD1310091+9999REMSYN116AAXX  26154 67143 32580 20806 10274 20240 30135 40142 53009 82900 333 10302 82820 81920 92438 94996 95836 555 81640;EQDQ01  00002PRCP99
0205671430999992000042703004-21200+048370FM-12+0006FMSM V0209999C000012200019N0300001N1+02201+01821101551ADDAA199000091GA1011+006009089GF102991021081008001001001MA1999999101481MD1310121+9999REMSYN092AAXX  27034 67143 32580 20000 10220 20182 30148 40155 53012 82800 333 81820 92438 555 81640;EQDQ01  00002PRCP99
0251671430999992000042706004-21200+048370FM-12+0006FMSM V0203401N003112200019N0300001N1+02801+02311101671ADDAA199000091GA1021+006009089GF102991021021008001001001KA1120M+03021KA2120N+02201MA1999999101601MD1210121+9999REMSYN112AAXX  27064 67143 32580 23406 10280 20231 30160 40167 52012 82200 333 0//00 10302 20220 50//4 55/// 82820 92438;EQDQ01  00002PRCP99
0195671430999992000042709004-21200+048370FM-12+0006FMSM V0203401N003112200019N0400001N1+02871+02431101571ADDAA199000091GA1041+006909089GF104991041021008001001001MA1999999101501MD1710101+9999REMSYN082AAXX  27094 67143 32582 43406 10287 20243 30150 40157 57010 84200 333 84823 92438;EQDQ01  00002PRCP99
0201671430999992000042712004-21200+048370FM-12+0006FMSM V0200401N002112200019N0400001N1+02901+02481101411ADDAA199000091GA1041+006909089GF104991041021008001001001MA1999999101341MD1710161+9999REMSYN088AAXX  27124 67143 32582 40404 10290 20248 30134 40141 57016 84200 333 0//00 84823 92438;EQDQ01  00002PRCP99
0214671430999992000042715004-21200+048370FM-12+0006FMSM V0200401N001012200019N0300001N1+02761+02421101521ADDAA199000091GA1011+006009089GF101991011081008001031001KA1120M+03031MA1999999101451MD1310111+9999REMSYN088AAXX  27154 67143 32580 10402 10276 20242 30145 40152 53011 81830 333 10303 81820 92438;EQDQ01  00002PRCP99
0195671430999992000042803004-21200+048370FM-12+0006FMSM V0209999C000012200019N0400001N1+02281+01941101631ADDAA199000091GA1011+006009089GF101991011081008001001001MA1999999101561MD1310071+9999REMSYN082AAXX  28034 67143 32582 10000 10228 20194 30156 40163 53007 81800 333 81820 82438;EQDQ01  00002PRCP99
0251671430999992000042806004-21200+048370FM-12+0006FMSM V0203201N003112200019N0400001N1+02821+02271101771ADDAA199000091GA1011+006009089GF101991011081008001001001KA1120M+03051KA2120N+02281MA1999999101701MD1210141+9999REMSYN112AAXX  28064 67143 32582 13206 10282 20227 30170 40177 52014 81800 333 0//00 10305 20228 50//4 55/// 81820 92438;EQDQ01  00002PRCP99
0195671430999992000042809004-21200+048370FM-12+0006FMSM V0203201N004112200019N0400001N1+02961+02481101681ADDAA199000091GA1021+006009089GF102991021081008001001001MA1999999101611MD1810091+9999REMSYN082AAXX  28094 67143 32582 23208 10296 20248 30161 40168 58009 82800 333 82820 92438;EQDQ01  00002PRCP99
0211671430999992000042812004-21200+048370FM-12+0006FMSM V0200601N003112200019N0400001N1+02981+02381101591ADDAA199000091GA1011+006009089GF101991011081008001001001MA1999999101521MD1710091+9999REMSYN098AAXX  28124 67143 32582 10606 10298 20238 30152 40159 57009 81800 333 0//00 81820 92438 555 81640;EQDQ01  00002PRCP99
0224671430999992000042815004-21200+048370FM-12+0006FMSM V0200601N001012200019N0400001N1+02741+02301101681ADDAA199000091GA1011+006009089GF101991011081008001001001KA1120M+03021MA1999999101611MD1310091+9999REMSYN098AAXX  28154 67143 32582 10602 10274 20230 30161 40168 53009 81800 333 10302 81820 92438 555 81640;EQDQ01  00002PRCP99
0224671430999992000042903004-21200+048370FM-12+0006FMSM V0200601N001010099019N0200001N1+02301+02021101831ADDAA112000791AY161031GA1021+005109089GA2071+009909069GF108991081081004501999999MA1999999101761MD1310131+9999MW1151REMSYN100AAXX  29034 67143 21470 80602 10230 20202 30176 40183 53013 7156/ 888// 333 69972 82817 87633 92438;
0261671430999992000042906004-21200+048370FM-12+0006FMSM V0202201N004112200019N0300001N1+02581+02201101901ADDAA199000091GA1021+006009089GF103991031081008001001001KA1120M+03021KA2120N+02301MA1999999101831MD1210071+9999REMSYN122AAXX  29064 67143 32580 32208 10258 20220 30183 40190 52007 83800 333 0//00 10302 20230 50//4 55/// 82820 92438 555 82640;EQDQ01  00002PRCP99
0205671430999992000042909004-21200+048370FM-12+0006FMSM V0201201N005112200019N0300001N1+02881+02391101811ADDAA199000091GA1041+006009089GF104991041081008001001001MA1999999101741MD1810091+9999REMSYN092AAXX  29094 67143 32580 41210 10288 20239 30174 40181 58009 84800 333 84820 92438 555 81640;EQDQ01  00002PRCP99
0201671430999992000042912004-21200+048370FM-12+0006FMSM V0201201N007212200019N0300001N1+02841+02351101641ADDAA199000091GA1011+006009089GF101991011081008001001001MA1999999101571MD1710171+9999REMSYN088AAXX  29124 67143 32580 11214 10284 20235 30157 40164 57017 81800 333 0//00 81820 92438;EQDQ01  00002PRCP99
0214671430999992000042915004-21200+048370FM-12+0006FMSM V0201601N008212200019N0300001N1+02641+02291101771ADDAA199000091GA1011+006009089GF101991011081008001001001KA1120M+02901MA1999999101701MD1310131+9999REMSYN088AAXX  29154 67143 32580 11616 10264 20229 30170 40177 53013 81800 333 10290 81820 92438;EQDQ01  00002PRCP99
0232671430999992000043003004-21200+048370FM-12+0006FMSM V0201601N006210099019N0250001N1+02101+01741101931ADDAA112001091AY161031AY221031GA1021+005109089GA2071+009909069GF108991081081004501999999MA1999999101861MD1310041+9999MW1031REMSYN100AAXX  30034 67143 21475 81612 10210 20174 30186 40193 53004 70362 888// 333 60012 82817 87633 92438;
0301671430999992000043006004-21200+048370FM-12+0006FMSM V0202201N008210099019N0200001N1+02241+01961102121ADDAA199000091AY121061AY221061GA1021+005109089GA2071+009909069GF108991081081004501999999KA1120M+02901KA2120N+02101MA1999999102051MD1210191+9999MW1151REMSYN124AAXX  30064 67143 31470 82216 10224 20196 30205 40212 52019 71522 888// 333 0//00 10290 20210 50//4 55/// 82817 87633 92438;EQDQ01  00002PRCP99
0217671430999992000043009004-21200+048370FM-12+0006FMSM V0202201N006210099019N0300001N1+02401+01901102041ADDAA199000091GA1031+005109089GA2061+009909069GF108991081081004501999999MA1999999101971MD1710081+9999REMSYN088AAXX  30094 67143 32480 82212 10240 20190 30197 40204 57008 888// 333 83817 86633 92438;EQDQ01  00002PRCP99
0223671430999992000043012004-21200+048370FM-12+0006FMSM V0202201N005110099019N0300001N1+02551+01741101881ADDAA199000091GA1021+006009089GA2071+009909069GF107991071081008001999999MA1999999101811MD1710161+9999REMSYN094AAXX  30124 67143 32580 72210 10255 20174 30181 40188 57016 878// 333 0//00 82820 87633 92438;EQDQ01  00002PRCP99
0251671430999992000043015004-21200+048370FM-12+0006FMSM V0202201N001010099019N0300001N1+02201+01861102021ADDAA106000991AY161031AY221031GA1021+005109089GA2071+009909069GF108991081081004501999999KA1120M+02551MA1999999101951MD1310141+9999MW1031REMSYN106AAXX  30154 67143 21480 82202 10220 20186 30195 40202 53014 70362 888// 333 10255 69991 82817 87633 92438;
0232671430999992000050103004-21200+048370FM-12+0006FMSM V0202201N001010120019N0300001N1+01901+01641101981ADDAA112000591AY161031AY211031GA1011+006009089GA2051+012009069GF105991051081008001001001MA1999999101911MD1610031+9999MW1031REMSYN100AAXX  01034 67143 21580 52202 10190 20164 30191 40198 56003 70361 85800 333 69952 81820 85640 92438;
0294671430999992000050106004-21200+048370FM-12+0006FMSM V0202201N003110120019N0300001N1+02271+01911102071ADDAA124000591AC12I9AY161061AY221061GA1021+006009089GA2061+012009069GF106991061081008001001001KA1120M+02551KA2120N+01901MA1999999102001MD1210091+9999MW1021REMSYN130AAXX  01064 67143 11580 62206 10227 20191 30200 40207 52009 69964 70262 86800 333 0//16 10255 20190 50//4 55/// 82820 86640 92438;
0220671430999992000050109004-21200+048370FM-12+0006FMSM V0202401N00211012001CN0200001N1+02301+01961101971ADDAA106002091AY161031AY221031GA1041+006009089GF106991061081008001001001MA1999999101901MD1810101+9999MW1211REMSYN104AAXX  01094 67143 21570 62404 10230 20196 30190 40197 58010 72162 86800 333 60021 84820 92438 555 83640;
0244671430999992000050112004-21200+048370FM-12+0006FMSM V0209999C000010099019N0200001N1+02321+01981101841ADDAA106002091AC10I9AY161061AY221061GA1031+006009089GA2051+009909069GF107991071081008001999999MA1999999101771MD1710131+9999MW1151REMSYN106AAXX  01124 67143 11570 70000 10232 20198 30177 40184 57013 60021 71562 878// 333 0//14 83820 85633 92438;
0251671430999992000050115004-21200+048370FM-12+0006FMSM V0202401N003110099019N0150001N1+02141+01841101921ADDAA106000491AY121031AY221031GA1031+005109089GA2081+009909069GF108991081081004501999999KA1120M+02421MA1999999101851MD1310081+9999MW1211REMSYN106AAXX  01154 67143 21465 82406 10214 20184 30185 40192 53008 72122 888// 333 10242 69941 83817 88633 92437;
0198671430999992000050203004-21200+048370FM-12+0006FMSM V0209999C000010099019N0300001N1+01971+01721101991ADDAA199000021GA1011+006009089GA2061+009909069GF106991061081008001001001MA1999999101921MD1310021+9999REMSYN088AAXX  02034 67143 32580 60000 10197 20172 30192 40199 53002 86800 333 81820 86633 92438;
0260671430999992000050206004-21200+048370FM-12+0006FMSM V0202801N002110120019N0300001N1+02121+01781102131ADDAA124002091GA1021+006009089GA2061+012009069GF107991071081008001999999KA1120M+02421KA2120N+01971MA1999999102061MD1210141+9999REMSYN124AAXX  02064 67143 12580 72804 10212 20178 30206 40213 52014 60024 878// 333 0//19 10242 20197 50//4 55/// 82820 86640 92438;
0217671430999992000050209004-21200+048370FM-12+0006FMSM V0202801N001010120019N0300001N1+02581+01941102041ADDAA199000091GA1041+006009089GA2031+012009069GF106991061081008001001001MA1999999101971MD1810091+9999REMSYN088AAXX  02094 67143 32580 62802 10258 20194 30197 40204 58009 86800 333 84820 83640 92438;EQDQ01  00002PRCP99
0223671430999992000050212004-21200+048370FM-12+0006FMSM V0201001N001010120019N0300001N1+02501+01881101901ADDAA199000091GA1041+006009089GA2051+012009069GF107991071081008001999999MA1999999101831MD1710141+9999REMSYN094AAXX  02124 67143 32580 71002 10250 20188 30183 40190 57014 878// 333 0//00 84820 85640 92438;EQDQ01  00002PRCP99
0232671430999992000050303004-21200+048370FM-12+0006FMSM V0201001N001010099019N0200001N1+02041+01931102181ADDAA112009091AY121031AY221031GA1011+005109089GA2081+009909069GF108991081081004501999999MA1999999102111MD1310041+9999MW1151REMSYN100AAXX  03034 67143 21470 81002 10204 20193 30211 40218 53004 71522 888// 333 60092 81817 88633 92438;
0266671430999992000050306004-21200+048370FM-12+0006FMSM V0209999C000010099019N0300001N1+02301+02041102291ADDAA124015091AC13I9GA1021+006009089GA2071+009909069GF107991071081008001999999KA1120M+02681KA2120N+02041MA1999999102221MD1210111+9999REMSYN124AAXX  03064 67143 12580 70000 10230 20204 30222 40229 52011 60154 878// 333 0//98 10268 20204 50//4 55/// 82820 87633 92438;
0217671430999992000050309004-21200+048370FM-12+0006FMSM V0209999C000010120019N0300001N1+02561+01941102181ADDAA199000091GA1031+006009089GA2051+012009069GF106991061081008001001001MA1999999102111MD1810111+9999REMSYN088AAXX  03094 67143 32580 60000 10256 20194 30211 40218 58011 86800 333 83820 85640 92438;EQDQ01  00002PRCP99
0223671430999992000050312004-21200+048370FM-12+0006FMSM V0203201N001010120019N0300001N1+02541+01991102061ADDAA199000091GA1021+006009089GA2061+012009069GF106991061081008001001001MA1999999101991MD1710121+9999REMSYN094AAXX  03124 67143 32580 63202 10254 20199 30199 40206 57012 86800 333 0//00 82820 86640 92438;EQDQ01  00002PRCP99
0236671430999992000050315004-21200+048370FM-12+0006FMSM V0209999C000010099019N0300001N1+02471+02001102121ADDAA199000091GA1011+006009089GA2071+009909069GF107991071081008001999999KA1120M+02641MA1999999102051MD1310061+9999REMSYN094AAXX  03154 67143 32580 70000 10247 20200 30205 40212 53006 878// 333 10264 81820 87633 92438;EQDQ01  00002PRCP99
0217671430999992000050403004-21200+048370FM-12+0006FMSM V0203201N001012200019N0300001N1+02001+01841102101ADDAA199000091GA1011+006009089GA2021+012009069GF102991021081008001001001MA1999999102031MD1310011+9999REMSYN088AAXX  04034 67143 33580 23202 10200 20184 30203 40210 53001 82800 333 81820 82640 92438;EQDQ01  00002PRCP99
0251671430999992000050406004-21200+048370FM-12+0006FMSM V0203201N001012200019N0400001N1+02651+02141102191ADDAA199000091GA1021+006009089GF102991021081008001001001KA1120M+02641KA2120N+02001MA1999999102121MD1210091+9999REMSYN112AAXX  04064 67143 32582 23202 10265 20214 30212 40219 52009 82800 333 0//00 10264 20200 50//4 55/// 82820 92438;EQDQ01  00002PRCP99
0195671430999992000050409004-21200+048370FM-12+0006FMSM V0203201N002112200019N0400001N1+02721+01741102101ADDAA199000091GA1041+006009089GF104991041021008001001001MA1999999102031MD1810091+9999REMSYN082AAXX  04094 67143 32582 43204 10272 20174 30203 40210 58009 84200 333 84820 92438;EQDQ01  00002PRCP99
0201671430999992000050412004-21200+048370FM-12+0006FMSM V0201001N003112200019N0400001N1+02681+01801101941ADDAA199000091GA1041+006909089GF104991041021008001001001MA1999999101871MD1710161+9999REMSYN088AAXX  04124 67143 32582 41006 10268 20180 30187 40194 57016 84200 333 0//00 84823 92438;EQDQ01  00002PRCP99
0224671430999992000050415004-21200+048370FM-12+0006FMSM V0201001N001012200019N0400001N1+02571+01661102001ADDAA199000091GA1021+006009089GF102991021081008001001001KA1120M+02861MA1999999101931MD1810061+9999REMSYN098AAXX  04154 67143 32582 21002 10257 20166 30193 40200 58006 82800 333 10286 82820 92438 555 81640;EQDQ01  00002PRCP99
0229671430999992000050503004-21200+048370FM-12+0006FMSM V0209999C000010099019N0200001N1+02041+01881101991ADDAA199000091GA1011+006009089GA2071+009909069GF107991071081008001999999MA1999999101921MD1510011+9999MW1151REMSYN094AAXX  05034 67143 31570 70000 10204 20188 30192 40199 55001 715// 878// 333 81820 87633 92438;EQDQ01  00002PRCP99
0261671430999992000050506004-21200+048370FM-12+0006FMSM V0202801N001012200019N0300001N1+02471+02061102071ADDAA199000091GA1041+006009089GF104991041081008001001001KA1120M+02861KA2120N+01801MA1999999102001MD1210081+9999REMSYN122AAXX  05064 67143 32580 42802 10247 20206 30200 40207 52008 84800 333 0//00 10286 20180 50//4 55/// 84820 92438 555 82640;EQDQ01  00002PRCP99
0205671430999992000050509004-21200+048370FM-12+0006FMSM V0209999C00001012001CN0300001N1+02641+01971101991ADDAA199000091GA1041+006009089GF106991061081008001001001MA1999999101921MD1810081+9999REMSYN092AAXX  05094 67143 32580 60000 10264 20197 30192 40199 58008 86800 333 84820 92438 555 83640;EQDQ01  00002PRCP99
0223671430999992000050512004-21200+048370FM-12+0006FMSM V0201201N002110120019N0300001N1+02671+02021101831ADDAA199000091GA1031+006009089GA2051+012009069GF106991061081008001001001MA1999999101761MD1710161+9999REMSYN094AAXX  05124 67143 32580 61204 10267 20202 30176 40183 57016 86800 333 0//00 83820 85640 92438;EQDQ01  00002PRCP99
0236671430999992000050515004-21200+048370FM-12+0006FMSM V0201201N002110120019N0300001N1+02501+01981101921ADDAA199000091GA1021+006009089GA2041+012009069GF106991061081008001001001KA1120M+02741MA1999999101851MD1310091+9999REMSYN094AAXX  05154 67143 32580 61204 10250 20198 30185 40192 53009 86800 333 10274 82820 84640 92438;EQDQ01  00002PRCP99
0217671430999992000050603004-21200+048370FM-12+0006FMSM V0201201N001010120019N0300001N1+01901+01771101981ADDAA199000091GA1031+006009089GA2031+012009069GF105991051081008001001001MA1999999101911MD1310011+9999REMSYN088AAXX  06034 67143 33580 51202 10190 20177 30191 40198 53001 85800 333 83820 83640 92438;EQDQ01  00002PRCP99
0294671430999992000050606004-21200+048370FM-12+0006FMSM V0203001N002110120019N0300001N1+02421+02151102101ADDAA124000191AC13C9AY161061AY221061GA1021+006009089GA2051+012009069GF106991061081008001001001KA1120M+02741KA2120N+01881MA1999999102031MD1210121+9999MW1021REMSYN130AAXX  06064 67143 11580 63004 10242 20215 30203 40210 52012 69924 70262 86800 333 0//53 10274 20188 50//4 55/// 82820 85640 92438;
0223671430999992000050700004-21200+048370FM-12+0006FMSM V0203401N002112200019N0300001N1+01881+01751101961ADDAA199000091GA1011+006009089GA2041+009909069GF104991041081008001001001MA1999999101891MD1710091+9999REMSYN094AAXX  07004 67143 33580 43404 10188 20175 30189 40196 57009 84800 333 0//00 81820 84633 924/8;EQDQ01  00002PRCP99
0245671430999992000050703004-21200+048370FM-12+0006FMSM V0203401N001010099019N0200001N1+02001+01841102071ADDAA199000091AY121031AY211031GA1011+006009089GA2071+009909069GF107991071081008001999999MA1999999102001MD1310091+9999MW1151REMSYN094AAXX  07034 67143 31570 73402 10200 20184 30200 40207 53009 71521 878// 333 81820 87633 92438;EQDQ01  00002PRCP99
0273671430999992000050706004-21200+048370FM-12+0006FMSM V0202201N001010120019N0300001N1+02451+01971102121ADDAA199000091GA1021+006009089GA2061+012009069GF106991061081008001001001KA1120M+02801KA2120N+01881MA1999999102051MD1210051+9999REMSYN118AAXX  07064 67143 32580 62202 10245 20197 30205 40212 52005 86800 333 0//00 10280 20188 50//4 55/// 82820 86640 92438;EQDQ01  00002PRCP99
0217671430999992000050709004-21200+048370FM-12+0006FMSM V0200801N001010120019N0300001N1+02631+01941101991ADDAA199000091GA1021+006009089GA2051+012009069GF106991061081008001001001MA1999999101921MD1810131+9999REMSYN088AAXX  07094 67143 32580 60802 10263 20194 30192 40199 58013 86800 333 82820 85640 92438;EQDQ01  00002PRCP99
0233671430999992000050712004-21200+048370FM-12+0006FMSM V0200801N001010690019N0300001N1+02761+01961101851ADDAA199000091GA1031+006009089GA2041+069009009GF106991041081008001001021MA1999999101781MD1810141+9999REMSYN104AAXX  07124 67143 32580 60802 10276 20196 30178 40185 58014 84802 333 0//00 83820 84073 92438 555 82640;EQDQ01  00002PRCP99
0246671430999992000050715004-21200+048370FM-12+0006FMSM V0200801N001010690019N0300001N1+02501+02011101921ADDAA199000091GA1021+006009089GA2041+069009009GF105991021081008001001021KA1120M+02731MA1999999101851MD1310071+9999REMSYN104AAXX  07154 67143 32580 50802 10250 20201 30185 40192 53007 82802 333 10273 82820 84073 92438 555 81640;EQDQ01  00002PRCP99
0217671430999992000050800004-21200+048370FM-12+0006FMSM V0200801N001010099019N0300001N1+02001+01841101881ADDAA199000091GA1011+006009089GA2061+009909069GF106991061081008001001021MA1999999101811MD1510021+9999REMSYN088AAXX  08004 67143 32580 60802 10200 20184 30181 40188 55002 86802 333 81820 86633 92438;EQDQ01  00002PRCP99
0217671430999992000050803004-21200+048370FM-12+0006FMSM V0200801N001010099019N0300001N1+02001+01841101881ADDAA199000091GA1011+006009089GA2061+009909069GF106991061081008001001021MA1999999101811MD1510021+9999REMSYN088AAXX  08034 67143 32580 60802 10200 20184 30181 40188 55002 86802 333 81820 86633 92438;EQDQ01  00002PRCP99
0273671430999992000050806004-21200+048370FM-12+0006FMSM V0209999C000010099019N0300001N1+02321+02041101991ADDAA199000091GA1021+006009089GA2071+009909069GF107991071081008001999999KA1120M+02731KA2120N+01991MA1999999101921MD1210111+9999REMSYN118AAXX  08064 67143 32580 70000 10232 20204 30192 40199 52011 878// 333 0//00 10273 20199 50//4 55/// 82820 87633 92438;EQDQ01  00002PRCP99
0245671430999992000050809004-21200+048370FM-12+0006FMSM V0200401N001010099019N0200001N1+02601+01921101901ADDAA199000091AY121031AY221031GA1011+006009089GA2071+009909069GF107991071081008001999999MA1999999101831MD1810091+9999MW1151REMSYN094AAXX  08094 67143 31570 70402 10260 20192 30183 40190 58009 71522 878// 333 81820 87633 92438;EQDQ01  00002PRCP99
0261671430999992000050812004-21200+048370FM-12+0006FMSM V0203401N002110099019N0200001N1+02481+02021101781ADDAA199000091AY121061AY221061GA1011+006009089GA2061+009909069GF108991061081008001071999MA1999999101711MD1610121+9999MW1151REMSYN110AAXX  08124 67143 31570 83404 10248 20202 30171 40178 56012 71522 8687/ 333 0//00 81820 86633 92438 555 83360;EQDQ01  00002PRCP99
0264671430999992000050815004-21200+048370FM-12+0006FMSM V0203401N001010099019N0150001N1+02201+02021101861ADDAA199000091AY121031AY221031GA1021+005109089GA2081+009909069GF108991081081004501999999KA1120M+02601MA1999999101791MD1310081+9999MW1151REMSYN100AAXX  08154 67143 31465 83402 10220 20202 30179 40186 53008 71522 888// 333 10260 82817 88633 92437;EQDQ01  00002PRCP99
0204671430999992000050903004-21200+048370FM-12+0006FMSM V0209999C000010099019N0300001N1+02101+01981101881ADDAA112006091GA1021+006009089GA2071+009909069GF107991071081008001999999MA1999999101811MD1310071+9999REMSYN094AAXX  09034 67143 22580 70000 10210 20198 30181 40188 53007 878// 333 60062 82820 87633 92438;
0266671430999992000050906004-21200+048370FM-12+0006FMSM V0209999C000010099019N0300001N1+02401+02161101961ADDAA124006191AC13I9GA1021+006009089GA2051+009909069GF106991061081008001001001KA1120M+02601KA2120N+02091MA1999999101891MD1210081+9999REMSYN124AAXX  09064 67143 12580 60000 10240 20216 30189 40196 52008 60064 86800 333 0//97 10260 20209 50//4 55/// 82820 85633 92438;
0227671430999992000050909004-21200+048370FM-12+0006FMSM V0203401N001010120019N0300001N1+02631+02141101801ADDAA199000091GA1021+006009089GA2061+012009069GF106991061081008001001021MA1999999101731MD1710161+9999REMSYN098AAXX  09094 67143 32580 63402 10263 20214 30173 40180 57016 86802 333 82820 86640 92438 555 81073;EQDQ01  00002PRCP99
0223671430999992000050912004-21200+048370FM-12+0006FMSM V0200601N003112200019N0300001N1+02661+02161101641ADDAA199000091GA1011+006009089GA2041+012009069GF104991041081008001001001MA1999999101571MD1710161+9999REMSYN094AAXX  09124 67143 32580 40606 10266 20216 30157 40164 57016 84800 333 0//00 81820 84640 92438;EQDQ01  00002PRCP99
0214671430999992000050915004-21200+048370FM-12+0006FMSM V0200601N005112200019N0300001N1+02551+02201101731ADDAA199000091GA1011+006009089GF101991011081008001001001KA1120M+02721MA1999999101661MD1310111+9999REMSYN088AAXX  09154 67143 32580 10610 10255 20220 30166 40173 53011 81800 333 10272 81820 92438;EQDQ01  00002PRCP99
0223671430999992000051000004-21200+048370FM-12+0006FMSM V0209999C000012200019N0300001N1+02081+01921101761ADDAA199000091GA1011+006009089GA2031+012009069GF103991031081008001001001MA1999999101691MD1610071+9999REMSYN094AAXX  10004 67143 33580 30000 10208 20192 30169 40176 56007 83800 333 0//00 81820 83640 924/8;EQDQ01  00002PRCP99
0217671430999992000051003004-21200+048370FM-12+0006FMSM V0209999C000010120019N0300001N1+02001+01871101781ADDAA199000091GA1011+006009089GA2051+012009069GF105991051081008001001001MA1999999101711MD1510021+9999REMSYN088AAXX  10034 67143 32580 50000 10200 20187 30171 40178 55002 85800 333 81820 85640 92438;EQDQ01  00002PRCP99
0261671430999992000051006004-21200+048370FM-12+0006FMSM V0209999C000012200019N0400001N1+02701+02321101851ADDAA199000091GA1011+006009089GF101991011081008001001001KA1120M+02721KA2120N+02001MA1999999101781MD1210031+9999REMSYN122AAXX  10064 67143 32582 10000 10270 20232 30178 40185 52003 81800 333 0//00 10272 20200 50//4 55/// 81820 92438 555 81640;EQDQ01  00002PRCP99
0205671430999992000051009004-21200+048370FM-12+0006FMSM V0202801N003112200019N0400001N1+02741+02151101731ADDAA199000091GA1011+006009089GF101991011081008001001001MA1999999101661MD1710121+9999REMSYN092AAXX  10094 67143 32582 12806 10274 20215 30166 40173 57012 81800 333 81820 92418 555 81640;EQDQ01  00002PRCP99
0201671430999992000051012004-21200+048370FM-12+0006FMSM V0200601N004112200019N0400001N1+02721+02221101621ADDAA199000091GA1011+006009089GF101991011021008001001001MA1999999101551MD1710111+9999REMSYN088AAXX  10124 67143 32582 10608 10272 20222 30155 40162 57011 81200 333 0//00 81820 92438;EQDQ01  00002PRCP99
0224671430999992000051015004-21200+048370FM-12+0006FMSM V0200601N003112200019N0400001N1+02551+02181101671ADDAA199000091GA1011+006009089GF101991011081008001001001KA1120M+02761MA1999999101601MD1310051+9999REMSYN098AAXX  10154 67143 32582 10606 10255 20218 30160 40167 53005 81800 333 10276 81820 92438 555 81640;EQDQ01  00002PRCP99
0205671430999992000051100004-21200+048370FM-12+0006FMSM V0209999C000012200019N0300001N1+01901+01771101681ADDAA199000091GA1011+006009089GF101991011081008001001001MA1999999101611MD1510021+9999REMSYN092AAXX  11004 67143 32580 10000 10190 20177 30161 40168 55002 81800 333 81820 92438 555 81640;EQDQ01  00002PRCP99
0261671430999992000051106004-21200+048370FM-12+0006FMSM V0202601N004112200019N0400001N1+02551+02021101791ADDAA199000091GA1011+006009089GF101991011081008001001001KA1120M+02761KA2120N+01901MA1999999101721MD1210111+9999REMSYN122AAXX  11064 67143 32582 12608 10255 20202 30172 40179 52011 81800 333 0//00 10276 20190 50//4 55/// 81820 92438 555 81640;EQDQ01  00002PRCP99
0201671430999992000051112004-21200+048370FM-12+0006FMSM V0200401N004112200019N0400001N1+02701+02101101481ADDAA199000091GA1011+006009089GF101991011021008001001001MA1999999101411MD1710151+9999REMSYN088AAXX  11124 67143 32582 10408 10270 20210 30141 40148 57015 81200 333 0//00 81820 92438;EQDQ01  00002PRCP99
0195671430999992000051203004-21200+048370FM-12+0006FMSM V0200401N001012200019N0400001N1+01901+01741101511ADDAA199000091GA1011+006009089GF101991011081008001001001MA1999999101441MD1310041+9999REMSYN082AAXX  12034 67143 32582 10402 10190 20174 30144 40151 53004 81800 333 81820 92438;EQDQ01  00002PRCP99
0251671430999992000051206004-21200+048370FM-12+0006FMSM V0202801N004112200019N0400001N1+02701+02101101601ADDAA199000091GA1011+006009089GF101991011081008001001001KA1120M+02761KA2120N+01901MA1999999101531MD1110091+9999REMSYN112AAXX  12064 67143 32582 12808 10270 20210 30153 40160 51009 81800 333 0//00 10276 20190 50//4 55/// 81820 92438;EQDQ01  00002PRCP99
0195671430999992000051209004-21200+048370FM-12+0006FMSM V0203601N005112200019N0400001N1+02781+02191101461ADDAA199000091GA1011+006009089GF101991011081008001001001MA1999999101391MD1810141+9999REMSYN082AAXX  12094 67143 32582 13610 10278 20219 30139 40146 58014 81800 333 81820 92438;EQDQ01  00002PRCP99
0217671430999992000051212004-21200+048370FM-12+0006FMSM V0203601N006212200019N0400001N1+02721+02221101291ADDAA199000091GA1021+012009069GF102991021081008001001021MA1999999101221MD1710181+9999REMSYN104AAXX  12124 67143 32582 23612 10272 20222 30122 40129 57018 82802 333 0//00 81820 92438 555 82640 81073;EQDQ01  00002PRCP99
0280671430999992000051215004-21200+048370FM-12+0006FMSM V0203601N005112200019N0300001N1+02541+02341101341ADDAA199000091GA1011+006009099GA2011+006009089GA3031+012009069GF104991041091008001001021KA1120M+02801MA1999999101271MD1310051+9999REMSYN122AAXX  12154 67143 32580 43610 10254 20234 30127 40134 53005 84902 333 10280 81820 81920 83640 94996 95836 92438 555 81073;EQDQ01  00002PRCP99
0217671430999992000051303004-21200+048370FM-12+0006FMSM V0202401N001010120019N0300001N1+02101+01941101511ADDAA199000091GA1021+006009089GA2051+012009069GF106991061081008001001001MA1999999101441MD1310131+9999REMSYN088AAXX  13034 67143 32580 62402 10210 20194 30144 40151 53013 86800 333 82820 85640 92438;EQDQ01  00002PRCP99
0273671430999992000051306004-21200+048370FM-12+0006FMSM V0203201N005112200019N0300001N1+02761+02001101651ADDAA199000091GA1021+006009089GA2031+012009069GF104991041081008001001001KA1120M+02801KA2120N+02101MA1999999101581MD1110141+9999REMSYN118AAXX  13064 67143 32580 43210 10276 20200 30158 40165 51014 84800 333 0//00 10280 20210 50//4 55/// 82820 83640 92438;EQDQ01  00002PRCP99
0205671430999992000051403004-21200+048370FM-12+0006FMSM V0202801N001012200019N0300001N1+02121+01971101651ADDAA199000091GA1011+006009089GF101991011081008001001001MA1999999101581MD1310041+9999REMSYN092AAXX  14034 67143 33580 12802 10212 20197 30158 40165 53004 81800 333 81820 924/8 555 81640;EQDQ01  00002PRCP99
0261671430999992000051406004-21200+048370FM-12+0006FMSM V0202801N003112200019N0300001N1+02721+02321101741ADDAA199000091GA1011+006009089GF101991011081008001001001KA1120M+02801KA2120N+02121MA1999999101671MD1210091+9999REMSYN122AAXX  14064 67143 32580 12806 10272 20232 30167 40174 52009 81800 333 0//00 10280 20212 50//4 55/// 81820 92438 555 81640;EQDQ01  00002PRCP99
0205671430999992000051503004-21200+048370FM-12+0006FMSM V0203601N002112200019N0300001N1+02201+02051101391ADDAA199000091GA1011+006009089GF101991011081008001001001MA1999999101321MD1610071+9999REMSYN092AAXX  15034 67143 33580 13604 10220 20205 30132 40139 56007 81800 333 81820 924/8 555 81640;EQDQ01  00002PRCP99
0261671430999992000051506004-21200+048370FM-12+0006FMSM V0203001N002112200019N0400001N1+02821+02541101461ADDAA199000091GA1011+006009089GF101991011081008001001001KA1120M+02821KA2120N+02201MA1999999101391MD1110111+9999REMSYN122AAXX  15064 67143 32582 13004 10282 20254 30139 40146 51011 81800 333 0//00 10282 20220 50//4 55/// 81820 92438 555 81640;EQDQ01  00002PRCP99
0195671430999992000051509004-21200+048370FM-12+0006FMSM V0203001N004112200019N0400001N1+02801+02491101341ADDAA199000091GA1011+006009089GF101991011021008001001001MA1999999101271MD1810121+9999REMSYN082AAXX  15094 67143 32582 13008 10280 20249 30127 40134 58012 81200 333 81820 92438;EQDQ01  00002PRCP99
0201671430999992000051512004-21200+048370FM-12+0006FMSM V0203001N004112200019N0400001N1+02821+02531101081ADDAA199000091GA1011+006009089GF101991011021008001001001MA1999999101011MD1710261+9999REMSYN088AAXX  15124 67143 32582 13008 10282 20253 30101 40108 57026 81200 333 0//00 81820 92438;EQDQ01  00002PRCP99
0224671430999992000051515004-21200+048370FM-12+0006FMSM V0203601N001012200019N0300001N1+02601+02461101321ADDAA199000091GA1011+005109089GF101991011081004501001001KA1120M+02901MA1999999101251MD1210241+9999REMSYN098AAXX  15154 67143 32480 13602 10260 20246 30125 40132 52024 81800 333 10290 81817 92438 555 81640;EQDQ01  00002PRCP99
0195671430999992000051603004-21200+048370FM-12+0006FMSM V0203601N002112200019N0400001N1+01781+01611101481ADDAA199000091GA1011+006009089GF101991011081008001001001MA1999999101411MD1310081+9999REMSYN082AAXX  16034 67143 33582 13604 10178 20161 30141 40148 53008 81800 333 81820 924/8;EQDQ01  00002PRCP99
0239671430999992000051606004-21200+048370FM-12+0006FMSM V0202401N002112200019N0400001N1+02621+02081101661ADDAA199000091GA1001+999999999GF100991001001999999001001KA1120M+02901KA2120N+01781MA1999999101591MD1210181+9999REMSYN100AAXX  16064 67143 32982 02404 10262 20208 30159 40166 52018 333 0//00 10290 20178 50//4 55/// 92438;EQDQ01  00002PRCP99
0195671430999992000051609004-21200+048370FM-12+0006FMSM V0200801N004112200019N0400001N1+02721+02161101561ADDAA199000091GA1011+006009089GF101991011011008001001001MA1999999101491MD1810101+9999REMSYN082AAXX  16094 67143 32582 10808 10272 20216 30149 40156 58010 81100 333 81820 92438;EQDQ01  00002PRCP99
0201671430999992000051612004-21200+048370FM-12+0006FMSM V0200801N005112200019N0400001N1+02781+02101101391ADDAA199000091GA1011+006009089GF101991011021008001001001MA1999999101321MD1710171+9999REMSYN088AAXX  16124 67143 32582 10810 10278 20210 30132 40139 57017 81200 333 0//00 81820 92438;EQDQ01  00002PRCP99
0224671430999992000051615004-21200+048370FM-12+0006FMSM V0201201N005112200019N0400001N1+02601+02221101531ADDAA199000091GA1011+006009089GF101991011081008001001001KA1120M+02781MA1999999101461MD1310141+9999REMSYN098AAXX  16154 67143 32582 11210 10260 20222 30146 40153 53014 81800 333 10278 81820 92438 555 81640;EQDQ01  00002PRCP99
0205671430999992000051703004-21200+048370FM-12+0006FMSM V0201201N002112200019N0300001N1+01961+01821101691ADDAA199000091GA1011+006009089GF103991021081008001001001MA1999999101621MD1810031+9999REMSYN092AAXX  17034 67143 33580 31204 10196 20182 30162 40169 58003 82800 333 81820 924/8 555 83640;EQDQ01  00002PRCP99
0261671430999992000051706004-21200+048370FM-12+0006FMSM V0202201N005112200019N0400001N1+02541+02251101901ADDAA199000091GA1011+005109089GF101991011081004501001001KA1120M+02781KA2120N+01951MA1999999101831MD1210211+9999REMSYN122AAXX  17064 67143 32482 12210 10254 20225 30183 40190 52021 81800 333 0//00 10278 20195 5///4 55/// 81817 92438 555 81640;EQDQ01  00002PRCP99
0205671430999992000051709004-21200+048370FM-12+0006FMSM V0200801N006212200019N0400001N1+02681+02241101741ADDAA199000091GA1021+006009089GF102991021081008001001001MA1999999101671MD1810161+9999REMSYN092AAXX  17094 67143 32582 20812 10268 20224 30167 40174 58016 82800 333 82820 92438 555 81640;EQDQ01  00002PRCP99
0201671430999992000051712004-21200+048370FM-12+0006FMSM V0200801N005112200019N0400001N1+02661+02281101531ADDAA199000091GA1011+006009089GF101991011081008001001001MA1999999101461MD1710211+9999REMSYN088AAXX  17124 67143 32582 10810 10266 20228 30146 40153 57021 81800 333 0//00 81820 92438;EQDQ01  00002PRCP99
0214671430999992000051715004-21200+048370FM-12+0006FMSM V0200801N004112200019N0300001N1+02501+02261101631ADDAA199000091GA1011+006009089GF101991011081008001001001KA1120M+02741MA1999999101561MD1210101+9999REMSYN088AAXX  17154 67143 32580 10808 10250 20226 30156 40163 52010 81800 333 10274 81820 92438;EQDQ01  00002PRCP99
0205671430999992000051803004-21200+048370FM-12+0006FMSM V0200801N001012200019N0300001N1+01981+01861101681ADDAA199000091GA1011+006009089GF101991011081008001001001MA1999999101611MD1310021+9999REMSYN092AAXX  18034 67143 33580 10802 10198 20186 30161 40168 53002 81800 333 81820 924/8 555 81640;EQDQ01  00002PRCP99
0261671430999992000051806004-21200+048370FM-12+0006FMSM V0202201N001012200019N0400001N1+02601+02341101821ADDAA199000091GA1011+006009089GF101991011081008001001001KA1120M+02741KA2120N+01981MA1999999101751MD1210141+9999REMSYN122AAXX  18064 67143 32582 12202 10260 20234 30175 40182 52014 81800 333 0//00 10274 20198 50//4 55/// 81820 92438 555 81640;EQDQ01  00002PRCP99
0195671430999992000051809004-21200+048370FM-12+0006FMSM V0200601N002112200019N0400001N1+02781+02411101641ADDAA199000091GA1031+006009089GF103991031021008001001001MA1999999101571MD1710081+9999REMSYN082AAXX  18094 67143 32582 30604 10278 20241 30157 40164 57008 83200 333 83820 92438;EQDQ01  00002PRCP99
0201671430999992000051812004-21200+048370FM-12+0006FMSM V0200601N004112200019N0400001N1+02701+02321101481ADDAA199000091GA1011+006009089GF101991011021008001001001MA1999999101411MD1710161+9999REMSYN088AAXX  18124 67143 32582 10608 10270 20232 30141 40148 57016 81200 333 0//00 81820 92438;EQDQ01  00002PRCP99
0224671430999992000051815004-21200+048370FM-12+0006FMSM V0200601N004112200019N0300001N1+02561+02391101541ADDAA199000091GA1011+006009089GF101991011081004501001001KA1120M+02821MA1999999101471MD1310061+9999REMSYN098AAXX  18154 67143 32480 10608 10256 20239 30147 40154 53006 81800 333 10282 81820 92438 555 81640;EQDQ01  00002PRCP99
0205671430999992000051903004-21200+048370FM-12+0006FMSM V0202601N001012200019N0300001N1+02141+02021101641ADDAA199000091GA1011+006009089GF101991011081008001001001MA1999999101571MD1310061+9999REMSYN092AAXX  19034 67143 33580 12602 10214 20202 30157 40164 53006 81800 333 81820 924/8 555 81640;EQDQ01  00002PRCP99
0251671430999992000051906004-21200+048370FM-12+0006FMSM V0202601N005112200019N0400001N1+02721+02281101751ADDAA199000091GA1011+006009089GF101991011021008001001001KA1120M+02821KA2120N+02141MA1999999101681MD1210111+9999REMSYN112AAXX  19064 67143 32582 12610 10272 20228 30168 40175 52011 81200 333 0//00 10282 20214 50//4 55/// 81820 92438;EQDQ01  00002PRCP99
0205671430999992000051909004-21200+048370FM-12+0006FMSM V0200201N004112200019N0400001N1+02781+02221101641ADDAA199000091GA1011+006009089GF101991011081008001001001MA1999999101571MD1810111+9999REMSYN092AAXX  19094 67143 32582 10208 10278 20222 30157 40164 58011 81800 333 81820 92438 555 81640;EQDQ01  00002PRCP99
0211671430999992000051912004-21200+048370FM-12+0006FMSM V0200201N004112200019N0400001N1+02761+02421101511ADDAA199000091GA1011+006009089GF101991011081008001001001MA1999999101441MD1710131+9999REMSYN098AAXX  19124 67143 32582 10208 10276 20242 30144 40151 57013 81800 333 0//00 81820 92438 555 81640;EQDQ01  00002PRCP99
0224671430999992000051915004-21200+048370FM-12+0006FMSM V0200201N002112200019N0300001N1+02621+02421101611ADDAA199000091GA1011+005109089GF101991011081004501001001KA1120M+02821MA1999999101541MD1310101+9999REMSYN098AAXX  19154 67143 32480 10204 10262 20242 30154 40161 53010 81800 333 10282 81817 92438 555 81640;EQDQ01  00002PRCP99
0217671430999992000052003004-21200+048370FM-12+0006FMSM V0200201N001010120019N0300001N1+02161+02041101731ADDAA199000091GA1021+005109089GA2051+012009069GF106991061081004501001001MA1999999101661MD1310071+9999REMSYN088AAXX  20034 67143 33480 60202 10216 20204 30166 40173 53007 86800 333 82817 85640 924/8;EQDQ01  00002PRCP99
0273671430999992000052006004-21200+048370FM-12+0006FMSM V0202601N001010120019N0300001N1+02541+02421101821ADDAA199000091GA1021+005109089GA2061+012009069GF107991071081004501999999KA1120M+02821KA2120N+02161MA1999999101751MD1110091+9999REMSYN118AAXX  20064 67143 32480 72602 10254 20242 30175 40182 51009 878// 333 0//00 10282 20216 50//4 55/// 82817 86640 92438;EQDQ01  00002PRCP99
0205671430999992000052103004-21200+048370FM-12+0006FMSM V0200201N001012200019N0300001N1+02141+02001101551ADDAA199000091GA1011+006009089GF101991011081008001001001MA1999999101481MD1610071+9999REMSYN092AAXX  21034 67143 32580 10202 10214 20200 30148 40155 56007 81800 333 81820 924/8 555 81640;EQDQ01  00002PRCP99
0261671430999992000052106004-21200+048370FM-12+0006FMSM V0200201N003112200019N0400001N1+02741+02181101651ADDAA199000091GA1011+006009089GF101991011081008001001001KA1120M+02801KA2120N+02141MA1999999101581MD1210101+9999REMSYN122AAXX  21064 67143 32582 10206 10274 20218 30158 40165 52010 81800 333 0//00 10280 20214 50//4 55/// 81820 92438 555 81640;EQDQ01  00002PRCP99
0217671430999992000052203004-21200+048370FM-12+0006FMSM V0202201N003110099019N0300001N1+02241+02121101691ADDAA199000091GA1021+005109089GA2061+009909069GF107991071081004501999999MA1999999101621MD1310141+9999REMSYN088AAXX  22034 67143 33480 72206 10224 20212 30162 40169 53014 878// 333 82817 86633 924/8;EQDQ01  00002PRCP99
0273671430999992000052206004-21200+048370FM-12+0006FMSM V0202201N005110120019N0300001N1+02541+02371101801ADDAA199000091GA1021+006009089GA2061+012009069GF107991071081008001999999KA1120M+02821KA2120N+02201MA1999999101731MD1210111+9999REMSYN118AAXX  22064 67143 32580 72210 10254 20237 30173 40180 52011 878// 333 0//00 10282 20220 50//4 55/// 82820 86640 92438;EQDQ01  00002PRCP99
0211671430999992000052212004-21200+048370FM-12+0006FMSM V0201601N007212200019N0300001N1+02701+02441101571ADDAA199000091GA1031+006009089GF104991041081008001001001MA1999999101501MD1610111+9999REMSYN098AAXX  22124 67143 32580 41614 10270 20244 30150 40157 56011 84800 333 0//00 83820 92438 555 82640;EQDQ01  00002PRCP99
0236671430999992000052215004-21200+048370FM-12+0006FMSM V0201601N006210120019N0300001N1+02501+02231101641ADDAA199000091GA1011+005109089GA2051+012009069GF105991051081004501001001KA1120M+02781MA1999999101571MD1310071+9999REMSYN094AAXX  22154 67143 32480 51612 10250 20223 30157 40164 53007 85800 333 10278 81817 85640 92438;EQDQ01  00002PRCP99
0223671430999992000052300004-21200+048370FM-12+0006FMSM V0201601N001012200019N0300001N1+02181+02061101661ADDAA199000091GA1011+006009089GA2041+012009069GF104991041081008001001001MA1999999101591MD1710041+9999REMSYN094AAXX  23004 67143 33580 41602 10218 20206 30159 40166 57004 84800 333 0//00 81820 84640 924/8;EQDQ01  00002PRCP99
0205671430999992000052303004-21200+048370FM-12+0006FMSM V0201601N001012200019N0300001N1+01981+01861101681ADDAA199000091GA1011+006009089GF102991021081008001001001MA1999999101611MD1310031+9999REMSYN092AAXX  23034 67143 32580 21602 10198 20186 30161 40168 53003 82800 333 81820 92438 555 82640;EQDQ01  00002PRCP99
0261671430999992000052306004-21200+048370FM-12+0006FMSM V0202201N005112200019N0400001N1+02541+02181101821ADDAA199000091GA1011+006009089GF101991011081008001001001KA1120M+02781KA2120N+01981MA1999999101751MD1210141+9999REMSYN122AAXX  23064 67143 32582 12210 10254 20218 30175 40182 52014 81800 333 0//00 10278 20198 50//4 55/// 81820 92438 555 81640;EQDQ01  00002PRCP99
0205671430999992000052309004-21200+048370FM-12+0006FMSM V0201601N005112200019N0400001N1+02781+02281101731ADDAA199000091GA1031+006009089GF103991031081008001001001MA1999999101661MD1810091+9999REMSYN092AAXX  23094 67143 32582 31610 10278 20228 30166 40173 58009 83800 333 83820 92438 555 81640;EQDQ01  00002PRCP99
0211671430999992000052312004-21200+048370FM-12+0006FMSM V0202001N004112200019N0400001N1+02741+02241101621ADDAA199000091GA1031+006909089GF103991031081008001001001MA1999999101551MD1710111+9999REMSYN098AAXX  23124 67143 32582 32008 10274 20224 30155 40162 57011 83800 333 0//00 83823 92438 555 81650;EQDQ01  00002PRCP99
0236671430999992000052315004-21200+048370FM-12+0006FMSM V0202001N003112200019N0300001N1+02501+02241101711ADDAA199000091GA1021+006009089GA2021+012009069GF103991031081008001001001KA1120M+02781MA1999999101641MD1310091+9999REMSYN094AAXX  23154 67143 32580 32006 10250 20224 30164 40171 53009 83800 333 10278 82820 82640 92438;EQDQ01  00002PRCP99
0223671430999992000052400004-21200+048370FM-12+0006FMSM V0202001N001012200019N0300001N1+02021+01921101681ADDAA199000091GA1011+006009089GA2031+012009069GF103991031081008001001001MA1999999101651MD1710071+9999REMSYN094AAXX  24004 67143 33580 32002 10202 20192 30165 40168 57007 83800 333 0//00 81820 83640 924/8;EQDQ01  00002PRCP99
0217671430999992000052403004-21200+048370FM-12+0006FMSM V0202001N002112200019N0300001N1+02001+01921101721ADDAA199000091GA1021+006009089GA2031+009909069GF104991041081008001001001MA1999999101651MD1310041+9999REMSYN088AAXX  24034 67143 32580 42004 10200 20192 30165 40172 53004 84800 333 82820 83633 92438;EQDQ01  00002PRCP99
0258671430999992000052406004-21200+048370FM-12+0006FMSM V0202001N00211012001CN0300001N1+02271+02141101771ADDAA199000091GA1021+006009089GA2051+012009069GF106991999999008001999999KA1120M+02781KA2120N+02001MA1999999101701REMSYN117AAXX  24064 67143 32580 62004 10227 20214 30170 40177 5205 86800 333 0//00 10278 20200 50004 55/// 82820 85640 92438;EQDQ01  00002PRCP99
0217671430999992000052409004-21200+048370FM-12+0006FMSM V0202001N002110120019N0300001N1+02651+02331101631ADDAA199000091GA1031+006009089GA2051+012009069GF106991061081008001001001MA1999999101561MD1710141+9999REMSYN088AAXX  24094 67143 32580 62004 10265 20233 30156 40163 57014 86800 333 83820 85640 92438;EQDQ01  00002PRCP99
0223671430999992000052412004-21200+048370FM-12+0006FMSM V0202001N002110120019N0300001N1+02621+02271101471ADDAA199000091GA1021+006009089GA2051+012009069GF106991061081008001001001MA1999999101401MD1710161+9999REMSYN094AAXX  24124 67143 32580 62004 10262 20227 30140 40147 57016 86800 333 0//00 82820 85640 92438;EQDQ01  00002PRCP99
0236671430999992000052415004-21200+048370FM-12+0006FMSM V0201001N001012200019N0300001N1+02481+02341101571ADDAA199000091GA1011+006009089GA2021+012009069GF102991021081008001001001KA1120M+02751MA1999999101501MD1310101+9999REMSYN094AAXX  24154 67143 32580 21002 10248 20234 30150 40157 53010 82800 333 10275 81820 82640 92438;EQDQ01  00002PRCP99
0201671430999992000052500004-21200+048370FM-12+0006FMSM V0201001N001012200019N0300001N1+02021+01901101601ADDAA199000091GA1011+006009089GF102991011021008001001001MA1999999101531MD1610091+9999REMSYN088AAXX  25004 67143 33580 21002 10202 20190 30153 40160 56009 81200 333 0//00 81820 924/8;EQDQ01  00002PRCP99
0205671430999992000052503004-21200+048370FM-12+0006FMSM V0201001N001012200019N0300001N1+01901+01801101611ADDAA199000091GA1011+006009089GF101991011081008001001001MA1999999101541MD1310011+9999REMSYN092AAXX  25034 67143 32580 11002 10190 20180 30154 40161 53001 81800 333 81820 92438 555 81640;EQDQ01  00002PRCP99
0273671430999992000052506004-21200+048370FM-12+0006FMSM V0203001N002112200019N0300001N1+02521+02141101681ADDAA199000091GA1011+006009089GA2031+012009069GF103991031081008001001001KA1120M+02751KA2120N+01901MA1999999101611MD1210071+9999REMSYN118AAXX  25064 67143 32580 33004 10252 20214 30161 40168 52007 83800 333 0//00 10275 20190 50//4 55/// 81820 83640 92438;EQDQ01  00002PRCP99
0227671430999992000052509004-21200+048370FM-12+0006FMSM V0203001N003110690019N0300001N1+02701+02101101571ADDAA199000091GA1021+006009089GA2061+069009009GF106991021081008001001021MA1999999101501MD1810111+9999REMSYN098AAXX  25094 67143 32580 63006 10270 20210 30150 40157 58011 82802 333 82820 86073 92438 555 81650;EQDQ01  00002PRCP99
0223671430999992000052512004-21200+048370FM-12+0006FMSM V0200801N004110690019N0300001N1+02761+02161101401ADDAA199000091GA1021+006009089GA2051+069009009GF106991021021008001001021MA1999999101331MD1710171+9999REMSYN094AAXX  25124 67143 32580 60808 10276 20216 30133 40140 57017 82202 333 0//00 82820 85073 92438;EQDQ01  00002PRCP99
0236671430999992000052515004-21200+048370FM-12+0006FMSM V0200801N004110120019N0300001N1+02561+02301101461ADDAA199000091GA1011+006009089GA2051+012009069GF106991051081008001031021KA1120M+02841MA1999999101391MD1310061+9999REMSYN094AAXX  25154 67143 32580 60808 10256 20230 30139 40146 53006 85832 333 10284 81820 85640 92438;EQDQ01  00002PRCP99
0211671430999992000052603004-21200+048370FM-12+0006FMSM V0202601N001012200019N0300001N1+01841+01701101441ADDAA199000091GA1011+012009069GF101991011081008001031001MA1999999101371MD1310061+9999REMSYN098AAXX  26034 67143 32580 12602 10184 20170 30137 40144 53006 81830 333 81820 92438 555 81640 81360;EQDQ01  00002PRCP99
0211671430999992000052612004-21200+048370FM-12+0006FMSM V0203401N006212200019N0400001N1+02781+02321101301ADDAA199000091GA1011+006009089GF101991011081008001001001MA1999999101231MD1710131+9999REMSYN098AAXX  26124 67143 32582 13412 10278 20232 30123 40130 57013 81800 333 0//00 81820 92438 555 81640;EQDQ01  00002PRCP99
0224671430999992000052615004-21200+048370FM-12+0006FMSM V0203401N005112200019N0400001N1+02561+02401101341ADDAA199000091GA1011+006009089GF101991011081008001001001KA1120M+02821MA1999999101271MD1310041+9999REMSYN098AAXX  26154 67143 32582 13410 10256 20240 30127 40134 53004 81800 333 10282 81820 92438 555 81640;EQDQ01  00002PRCP99
0205671430999992000052703004-21200+048370FM-12+0006FMSM V0203401N002112200019N0300001N1+01801+01671101391ADDAA199000091GA1011+006009089GF101991011081008001001001MA1999999101321MD1310051+9999REMSYN092AAXX  27034 67143 32580 13404 10180 20167 30132 40139 53005 81800 333 81820 92438 555 81640;EQDQ01  00002PRCP99
0261671430999992000052706004-21200+048370FM-12+0006FMSM V0202601N002112200019N0300001N1+02321+02141101521ADDAA199000091GA1011+006009089GF102991021081008001001001KA1120M+02821KA2120N+01801MA1999999101451MD1210131+9999REMSYN122AAXX  27064 67143 32580 22604 10232 20214 30145 40152 52013 82800 333 0//00 10282 20180 50//4 55/// 81820 92438 555 82640;EQDQ01  00002PRCP99
0205671430999992000052709004-21200+048370FM-12+0006FMSM V0200201N006212200019N0300001N1+02861+02401101361ADDAA199000091GA1011+006009089GF101991011081008001001001MA1999999101291MD1710161+9999REMSYN092AAXX  27094 67143 32580 10212 10286 20240 30129 40136 57016 81800 333 81820 92438 555 81640;EQDQ01  00002PRCP99
0211671430999992000052712004-21200+048370FM-12+0006FMSM V0200201N006212200019N0400001N1+02761+02361101241ADDAA199000091GA1011+006009089GF101991011081008001001001MA1999999101171MD1710121+9999REMSYN098AAXX  27124 67143 32582 10212 10276 20236 30117 40124 57012 81800 333 0//00 81820 92438 555 81640;EQDQ01  00002PRCP99
0258671430999992000052715004-21200+048370FM-12+0006FMSM V0200201N006212200019N0300001N1+02601+02431101301ADDAA199000091GA1011+006009099GA2011+006009089GF101991011091008001001001KA1120M+02901MA1999999101231MD1310061+9999REMSYN116AAXX  27154 67143 32580 10212 10260 20243 30123 40130 53006 81900 333 10290 81820 81920 94996 95836 92438 555 81640;EQDQ01  00002PRCP99
0251671430999992000052806004-21200+048370FM-12+0006FMSM V0202601N001012200019N0400001N1+02521+02351101551ADDAA199000091GA1011+006009089GF101991011081008001001001KA1120M+02901KA2120N+01851MA1999999101481MD1210171+9999REMSYN112AAXX  28064 67143 32582 12602 10252 20235 30148 40155 52017 81800 333 0//00 10290 20185 50//4 55/// 81820 92438;EQDQ01  00002PRCP99
0195671430999992000052809004-21200+048370FM-12+0006FMSM V0202601N003112200019N0400001N1+02681+02341101441ADDAA199000091GA1021+006009089GF102991021081008001001001MA1999999101371MD1710111+9999REMSYN082AAXX  28094 67143 32582 22606 10268 20234 30137 40144 57011 82800 333 82820 92438;EQDQ01  00002PRCP99
0211671430999992000052812004-21200+048370FM-12+0006FMSM V0200801N005112200019N0400001N1+02781+02191101281ADDAA199000091GA1011+006009089GF101991011081008001001001MA1999999101211MD1710161+9999REMSYN098AAXX  28124 67143 32582 10810 10278 20219 30121 40128 57016 81800 333 0//00 81820 92438 555 81640;EQDQ01  00002PRCP99
0240671430999992000052815004-21200+048370FM-12+0006FMSM V0200801N004112200019N0300001N1+02621+02421101411ADDAA199000091GA1011+006009089GF101991999081008001001001KA1120M+02801MA1999999101341MD1310131+9999REMSYN098AAXX  28154 67143 32580 10808 10262 20242 30134 40141 53013 82800 333 10280 81820 92438 555 81640;EQDQ01+000022SCOTLCQ02  00002PRCP99
0205671430999992000052903004-21200+048370FM-12+0006FMSM V0200801N001012200019N0300001N1+01871+01761101571ADDAA199000091GA1011+006009089GF101991011081008001001001MA1999999101501MD1310051+9999REMSYN092AAXX  29034 67143 32580 10802 10187 20176 30150 40157 53005 81800 333 81820 92438 555 81640;EQDQ01  00002PRCP99
0251671430999992000052906004-21200+048370FM-12+0006FMSM V0202401N002112200019N0300001N1+02401+02041101721ADDAA199000091GA1011+006009089GF101991011021008001001001KA1120M+02801KA2120N+01871MA1999999101651MD1210151+9999REMSYN112AAXX  29064 67143 32580 12404 10240 20204 30165 40172 52015 81200 333 0//00 10280 20187 50//4 55/// 81820 92438;EQDQ01  00002PRCP99
0195671430999992000052909004-21200+048370FM-12+0006FMSM V0201401N003112200019N0300001N1+02681+02321101601ADDAA199000091GA1021+006009089GF102991021021008001001001MA1999999101531MD1810121+9999REMSYN082AAXX  29094 67143 32580 21406 10268 20232 30153 40160 58012 82200 333 82820 92438;EQDQ01  00002PRCP99
0201671430999992000052912004-21200+048370FM-12+0006FMSM V0201401N004112200019N0300001N1+02711+02381101511ADDAA199000091GA1011+006009089GF101991011021008001001001MA1999999101441MD1710091+9999REMSYN088AAXX  29124 67143 32580 11408 10271 20238 30144 40151 57009 81200 333 0//00 81820 92438;EQDQ01  00002PRCP99
0236671430999992000052915004-21200+048370FM-12+0006FMSM V0201401N001012200019N0300001N1+02581+02381101621ADDAA199000091GA1021+006009089GA2021+012009069GF103991031081008001001001KA1120M+02731MA1999999101551MD1310111+9999REMSYN094AAXX  29154 67143 32580 31402 10258 20238 30155 40162 53011 83800 333 10273 82820 82640 92438;EQDQ01  00002PRCP99
0251671430999992000053003004-21200+048370FM-12+0006FMSM V0201401N001010099019N0150001N1+02081+01961101811ADDAA112017091AY161031AY221031GA1021+006009089GA2061+009909069GF106991999081008001999999MA1999999101741MD1310071+9999MW1151REMSYN100AAXX  30034 67143 21565 61402 10208 20196 30174 40181 53007 71562 878// 333 60172 82820 86633 92437;EQDQ01+000072SCOTLC
0294671430999992000053006004-21200+048370FM-12+0006FMSM V0202801N002110099019N0300001N1+02241+02081101941ADDAA124017091AC11I9AY161061AY221061GA1031+006009089GA2061+009909069GF107991071081008001999999KA1120M+02731KA2120N+02081MA1999999101871MD1210131+9999MW1021REMSYN130AAXX  30064 67143 11580 72804 10224 20208 30187 40194 52013 60174 70262 878// 333 0//95 10273 20208 50//4 55/// 83820 86633 92438;
0217671430999992000053009004-21200+048370FM-12+0006FMSM V0209999C000010099019N0300001N1+02431+02241101881ADDAA199000091GA1031+006009089GA2061+009909069GF107991071081008001999999MA1999999101811MD1810061+9999REMSYN088AAXX  30094 67143 32580 70000 10243 20224 30181 40188 58006 878// 333 83820 86633 92438;EQDQ01  00002PRCP99
0223671430999992000053012004-21200+048370FM-12+0006FMSM V0209999C000010120019N0300001N1+02581+02221101751ADDAA199000091GA1031+006009089GA2051+012009069GF107991071081008001999999MA1999999101681MD1710131+9999REMSYN094AAXX  30124 67143 32580 70000 10258 20222 30168 40175 57013 878// 333 0//00 83820 85640 92438;EQDQ01  00002PRCP99
0224671430999992000053015004-21200+048370FM-12+0006FMSM V0209999C000012200019N0300001N1+02361+02241101811ADDAA199000091GA1031+006009089GF103991031081008001001001KA1120M+02681MA1999999101741MD1110061+9999REMSYN098AAXX  30154 67143 32580 30000 10236 20224 30174 40181 51006 83800 333 10268 83820 92438 555 82640;EQDQ01  00002PRCP99
0236671430999992000053100004-21200+048370FM-12+0006FMSM V0209999C000012200019N0200001N1+02041+01941101851ADDAA106011991AC12I9AY161061GA1021+006009089GA2041+009909069GF104991041081008001001001MA1999999101781MD1810061+9999MW1151REMSYN106AAXX  31004 67143 11570 40000 10204 20194 30178 40185 58006 60121 7156/ 84800 333 0//66 82820 84633 924/8;
0204671430999992000053103004-21200+048370FM-12+0006FMSM V0202801N001012200019N0300001N1+01891+01761101951ADDAA112012091GA1021+006009089GA2031+012009069GF104991041081008001001001MA1999999101881MD1210101+9999REMSYN094AAXX  31034 67143 22580 42802 10189 20176 30188 40195 52010 84800 333 60122 82820 83640 92438;
0260671430999992000053106004-21200+048370FM-12+0006FMSM V0202401N001012200019N0300001N1+02301+02081102031ADDAA124011991GA1021+006009089GA2031+012009069GF104991041081008001001001KA1120M+02681KA2120N+01891MA1999999101961MD1110081+9999REMSYN124AAXX  31064 67143 12580 42402 10230 20208 30196 40203 51008 60124 84800 333 0//69 10268 20189 50//4 55/// 82820 83640 92438;
0205671430999992000053109004-21200+048370FM-12+0006FMSM V0201601N001012200019N0300001N1+02601+02151101951ADDAA199000091GA1041+006009089GF104991041081008001001001MA1999999101881MD1810081+9999REMSYN092AAXX  31094 67143 32580 41602 10260 20215 30188 40195 58008 84800 333 84820 92438 555 81640;EQDQ01  00002PRCP99
0211671430999992000053112004-21200+048370FM-12+0006FMSM V0201601N002112200019N0400001N1+02561+02261101801ADDAA199000091GA1031+006009089GF104991041081008001001001MA1999999101731MD1710151+9999REMSYN098AAXX  31124 67143 32582 41604 10256 20226 30173 40180 57015 84800 333 0//00 83820 92438 555 82640;EQDQ01  00002PRCP99
0236671430999992000053115004-21200+048370FM-12+0006FMSM V0201601N001012200019N0300001N1+02481+02281101921ADDAA199000091GA1021+006009089GA2021+012009069GF103991031081008001001001KA1120M+02671MA1999999101851MD1310121+9999REMSYN094AAXX  31154 67143 32580 31602 10248 20228 30185 40192 53012 83800 333 10267 82820 82640 92438;EQDQ01  00002PRCP99
0195671430999992000060103004-21200+048370FM-12+0006FMSM V0209999C000012200019N0300001N1+01901+01771101981ADDAA199000091GA1011+006009089GF101991011081008001001001MA1999999101911MD1310081+9999REMSYN082AAXX  01034 67143 32580 10000 10190 20177 30191 40198 53008 81800 333 81820 92438;EQDQ01  00002PRCP99
0251671430999992000060106004-21200+048370FM-12+0006FMSM V0202601N003112200019N0400001N1+02401+02221102171ADDAA199000091GA1011+006009089GF101991011081008001001001KA1120M+02671KA2120N+01901MA1999999102101MD1210191+9999REMSYN112AAXX  01064 67143 32582 12606 10240 20222 30210 40217 52019 81800 333 0//00 10267 20190 50//4 55/// 81820 92438;EQDQ01  00002PRCP99
0195671430999992000060109004-21200+048370FM-12+0006FMSM V0202601N004112200019N0300001N1+02681+02421102081ADDAA199000091GA1041+006009089GF104991041081008001001001MA1999999102011MD1710091+9999REMSYN082AAXX  01094 67143 32580 42608 10268 20242 30201 40208 57009 84800 333 84820 92438;EQDQ01  00002PRCP99
0211671430999992000060112004-21200+048370FM-12+0006FMSM V0201001N005112200019N0300001N1+02541+02401101931ADDAA199000091GA1031+006009089GF104991041081008001001001MA1999999101861MD1710151+9999REMSYN098AAXX  01124 67143 32580 41010 10254 20240 30186 40193 57015 84800 333 0//00 83820 92438 555 82640;EQDQ01  00002PRCP99
0236671430999992000060115004-21200+048370FM-12+0006FMSM V0200601N003112200019N0300001N1+02301+02121102041ADDAA199000091GA1011+006009089GA2031+012009069GF103991031081008001001001KA1120M+02721MA1999999101971MD1310111+9999REMSYN094AAXX  01154 67143 32580 30606 10230 20212 30197 40204 53011 83800 333 10272 81820 83640 92438;EQDQ01  00002PRCP99
0217671430999992000060203004-21200+048370FM-12+0006FMSM V0200601N001012200019N0300001N1+01901+01771102101ADDAA199000091GA1011+006009089GA2031+012009069GF103991031081008001001001MA1999999102031MD1510021+9999REMSYN088AAXX  02034 67143 32580 30602 10190 20177 30203 40210 55002 83800 333 81820 83640 92438;EQDQ01  00002PRCP99
0273671430999992000060206004-21200+048370FM-12+0006FMSM V0202601N004112200019N0300001N1+02441+02201102261ADDAA199000091GA1011+006009089GA2041+012009069GF104991041081008001001001KA1120M+02721KA2120N+01901MA1999999102191MD1210161+9999REMSYN118AAXX  02064 67143 32580 42608 10244 20220 30219 40226 52016 84800 333 0//00 10272 20190 5///4 55/// 81820 84640 92438;EQDQ01  00002PRCP99
0245671430999992000060209004-21200+048370FM-12+0006FMSM V0200601N002110120019N0200001N1+02601+02231102151ADDAA199000091AY111031AY201031GA1031+006009089GA2051+012009069GF107991071081008001999999MA1999999102081MD1710111+9999MW1151REMSYN094AAXX  02094 67143 31570 70604 10260 20223 30208 40215 57011 71510 878// 333 83820 85640 92438;EQDQ01  00002PRCP99
0223671430999992000060212004-21200+048370FM-12+0006FMSM V0201001N002110099019N0300001N1+02601+02121101971ADDAA199000091GA1021+005109089GA2061+009909069GF107991071081004501999999MA1999999101901MD1710181+9999REMSYN094AAXX  02124 67143 32480 71004 10260 20212 30190 40197 57018 878// 333 0//00 82817 86633 92438;EQDQ01  00002PRCP99
0236671430999992000060215004-21200+048370FM-12+0006FMSM V0202801N001010099019N0300001N1+02281+02101102051ADDAA199000091GA1031+005109089GA2061+009909069GF107991071081004501999999KA1120M+02681MA1999999101981MD1310081+9999REMSYN094AAXX  02154 67143 32480 72802 10228 20210 30198 40205 53008 878// 333 10268 83817 86633 92438;EQDQ01  00002PRCP99
0205671430999992000060303004-21200+048370FM-12+0006FMSM V0202801N002112200019N0300001N1+01761+01661102201ADDAA199000091GA1011+006009089GF101991011081008001001001MA1999999102131MD1310101+9999REMSYN092AAXX  03034 67143 32580 12804 10176 20166 30213 40220 53010 81800 333 81820 92438 555 81640;EQDQ01  00002PRCP99
0251671430999992000060306004-21200+048370FM-12+0006FMSM V0202801N003112200019N0300001N1+02301+02061102281ADDAA199000091GA1021+006009089GF103991031081008001001001KA1120M+02681KA2120N+01761MA1999999102211MD1210081+9999REMSYN112AAXX  03064 67143 32580 32806 10230 20206 30221 40228 52008 83800 333 0//00 10268 20176 50//4 55/// 82820 92438;EQDQ01  00002PRCP99
0195671430999992000060309004-21200+048370FM-12+0006FMSM V0202801N002112200019N0300001N1+02601+02121102201ADDAA199000091GA1031+006009089GF103991031021008001001001MA1999999102131MD1710081+9999REMSYN082AAXX  03094 67143 32580 32804 10260 20212 30213 40220 57008 83200 333 83820 92438;EQDQ01  00002PRCP99
0201671430999992000060312004-21200+048370FM-12+0006FMSM V0200601N004112200019N0300001N1+02581+02201102071ADDAA199000091GA1021+006009089GF102991021021008001001001MA1999999102001MD1710131+9999REMSYN088AAXX  03124 67143 32580 20608 10258 20220 30200 40207 57013 82200 333 0//00 82820 92438;EQDQ01  00002PRCP99
0224671430999992000060315004-21200+048370FM-12+0006FMSM V0201001N003112200019N0300001N1+02461+02101102131ADDAA199000091GA1011+005109089GF101991011081004501001001KA1120M+02621MA1999999102061MD1310061+9999REMSYN098AAXX  03154 67143 32480 11006 10246 20210 30206 40213 53006 81800 333 10262 81817 92438 555 81640;EQDQ01  00002PRCP99
0232671430999992000060403004-21200+048370FM-12+0006FMSM V0201001N002112200019N0300001N1+01801+01681102201ADDAA112003091AY161031AY211031GA1021+006009089GA2031+009909069GF104991041081008001001001MA1999999102131MD1310021+9999MW1011REMSYN100AAXX  04034 67143 21580 41004 10180 20168 30213 40220 53002 70161 84800 333 60032 82820 83633 92438;
0294671430999992000060406004-21200+048370FM-12+0006FMSM V0202601N001010099019N0300001N1+02121+01941102321ADDAA124003091AC11I9AY161061AY221061GA1021+006009089GA2071+009909069GF107991071081008001999999KA1120M+02621KA2120N+01801MA1999999102251MD1210121+9999MW1031REMSYN130AAXX  04064 67143 11580 72602 10212 20194 30225 40232 52012 60034 70362 878// 333 0//95 10262 20180 50//4 55/// 82820 87633 92438;
0232671430999992000060409004-21200+048370FM-12+0006FMSM V0202601N004110099019N0200001N1+02201+02051102241ADDAA106000291AY121031AY221031GA1021+005109089GA2071+009909069GF107991071081004501999999MA1999999102171MD1810081+9999MW1211REMSYN100AAXX  04094 67143 21470 72608 10220 20205 30217 40224 58008 72122 878// 333 69921 82817 87633 92438;
0244671430999992000060412004-21200+048370FM-12+0006FMSM V0202601N003110120019N0300001N1+02501+02141102081ADDAA106000191AC10I9AY161061AY221061GA1031+006009089GA2031+012009069GF105991051081008001001001MA1999999102011MD1710161+9999MW1011REMSYN106AAXX  04124 67143 11580 52606 10250 20214 30201 40208 57016 69921 70162 85800 333 0//54 83820 83640 92438;
0245671430999992000060415004-21200+048370FM-12+0006FMSM V0202001N003110099019N0200001N1+02401+02251102111ADDAA199000021AY121031AY221031GA1021+006009089GA2051+009909069GF106991061081008001001001KA1120M+02531MA1999999102041MD1310031+9999MW1151REMSYN100AAXX  04154 67143 31570 62006 10240 20225 30204 40211 53003 71522 86800 333 10253 82820 85633 92438;
0232671430999992000060503004-21200+048370FM-12+0006FMSM V0202001N001010099019N0150001N1+02051+01961102171ADDAA112032091AY161031AY221031GA1021+005109089GA2071+009909069GF107991071081004501999999MA1999999102101MD1310041+9999MW1151REMSYN100AAXX  05034 67143 21465 72002 10205 20196 30210 40217 53004 71562 878// 333 60322 82817 87633 92437;
0294671430999992000060506004-21200+048370FM-12+0006FMSM V0202401N001010099019N0300001N1+02201+02051102301ADDAA124037191AC12C9AY161061AY221061GA1011+006009089GA2071+009909069GF107991071081008001999999KA1120M+02531KA2120N+02051MA1999999102231MD1210131+9999MW1011REMSYN130AAXX  05064 67143 11580 72402 10220 20205 30223 40230 52013 60374 70162 878// 333 0//92 10253 20205 50//4 55/// 81820 87633 92438;
0216671430999992000060509004-21200+048370FM-12+0006FMSM V0202401N00101012001CN0300001N1+02701+02201102101ADDAA199000091GA1031+006009089GA2041+012009069GF105991999999008001999999MA1999999102031MD1810201+9999REMSYN087AAXX  05094 67143 32580 52402 10270 20220 30203 40210 58020 8500 333 83820 84640 92438;EQDQ01  00002PRCP99
0233671430999992000060512004-21200+048370FM-12+0006FMSM V0209999C000010120019N0300001N1+02581+02141102021ADDAA199000091GA1031+006009089GA2041+012009069GF106991061081008001031001MA1999999101951MD1710081+9999REMSYN104AAXX  05124 67143 32580 60000 10258 20214 30195 40202 57008 86830 333 0//00 83820 84640 92438 555 82360;EQDQ01  00002PRCP99
0236671430999992000060515004-21200+048370FM-12+0006FMSM V0201001N002110120019N0300001N1+02501+02101102121ADDAA199000091GA1021+006009089GA2061+012009069GF106991061081008001001001KA1120M+02701MA1999999102051MD1310101+9999REMSYN094AAXX  05154 67143 32580 61004 10250 20210 30205 40212 53010 86800 333 10270 82820 86640 92438;EQDQ01  00002PRCP99
0217671430999992000060603004-21200+048370FM-12+0006FMSM V0209999C000010099019N0300001N1+01981+01881102151ADDAA199000091GA1011+006009089GA2051+009909069GF105991051081008001001001MA1999999102081MD1310061+9999REMSYN088AAXX  06034 67143 33580 50000 10198 20188 30208 40215 53006 85800 333 81820 85633 92438;EQDQ01  00002PRCP99
0294671430999992000060606004-21200+048370FM-12+0006FMSM V0209999C000010099019N0080001N1+02141+01981102321ADDAA124000191AC11C9AY121061AY211061GA1021+005109089GA2071+009909069GF108991081081004501999999KA1120M+02701KA2120N+01981MA1999999102251MD1210171+9999MW1611REMSYN130AAXX  06064 67143 11458 80000 10214 20198 30225 40232 52017 69924 76121 888// 333 0//51 10270 20198 50//4 55/// 82817 87633 92436;
0226671430999992000060609004-21200+048370FM-12+0006FMSM V0201601N003110120019N0200001N1+02641+02141102201ADDAA199000021AY121031AY221031GA1041+006009089GA2031+012009069GF106991061081008001001001MA1999999102131MD1810121+9999MW1151REMSYN094AAXX  06094 67143 31570 61606 10264 20214 30213 40220 58012 71522 86800 333 84820 83640 92438;
0222671430999992000060612004-21200+048370FM-12+0006FMSM V0201601N00311012001CN0300001N1+02581+02291102161ADDAA106000591AC13C9AY161061AY221061GA1041+006009089GF105991051081008001001001MA1999999102091MD1610041+9999MW1001REMSYN100AAXX  06124 67143 11580 51606 10258 20229 30209 40216 56004 69961 70062 85800 333 0//13 84820 92438;
0223671430999992000060615004-21200+048370FM-12+0006FMSM V0201601N005112200019N0200001N1+02501+02181102241ADDAA199000021AY121031AY211031GA1031+006009089GF104991041081008001001001KA1120M+02691MA1999999102171MD1310081+9999MW1151REMSYN094AAXX  06154 67143 31570 41610 10250 20218 30217 40224 53008 71521 84800 333 10269 83820 92438;
0201671430999992000060700004-21200+048370FM-12+0006FMSM V0201601N007212200019N0300001N1+02301+02181102331ADDAA199000091GA1031+005109089GF103991031081004501001001MA1999999102261MD1810031+9999REMSYN088AAXX  07004 67143 33480 31614 10230 20218 30226 40233 58003 83800 333 0//00 83817 924/8;EQDQ01  00002PRCP99
0195671430999992000060703004-21200+048370FM-12+0006FMSM V0201601N003112200019N0300001N1+01881+01751102391ADDAA199000091GA1031+005109089GF103991031081004501001001MA1999999102321MD1310041+9999REMSYN082AAXX  07034 67143 32480 31606 10188 20175 30232 40239 53004 83800 333 83817 92438;EQDQ01  00002PRCP99
0237671430999992000060706004-21200+048370FM-12+0006FMSM V0202401N003112200019N0300001N1+02151+02031102521ADDAA199000091GA1041+006009089GF104991041081008001001001KA1120M+02691MA1999999102451MD1210131+9999REMSYN111AAXX  07064 67143 32580 42406 10215 20203 30245 40252 52013 84800 333 0//00 10269 2095 50//4 55/// 84820 92438;EQDQ01  00002PRCP99
0217671430999992000060709004-21200+048370FM-12+0006FMSM V0201601N008210120019N0300001N1+02501+02081102401ADDAA199000091GA1031+005109089GA2041+012009069GF106991061081004501001001MA1999999102331MD1710121+9999REMSYN088AAXX  07094 67143 32480 61616 10250 20208 30233 40240 57012 86800 333 83817 84640 92438;EQDQ01  00002PRCP99
0244671430999992000060712004-21200+048370FM-12+0006FMSM V0201601N006210099019N0200001N1+02301+02181102281ADDAA106000191AC11C9AY161061AY221061GA1031+005109089GA2061+009909069GF107991071081004501999999MA1999999102211MD1710121+9999MW1211REMSYN106AAXX  07124 67143 11470 71612 10230 20218 30221 40228 57012 69921 72162 878// 333 0//11 83817 86633 92438;
0217671430999992000060715004-21200+048370FM-12+0006FMSM V0200601N006210099019N0300001N1+02441+02001102461ADDAA199000021GA1031+005109089GA2061+009909069GF107991071081004501999999KA1120M+02561MA1999999102391MD1310181+9999REMSYN094AAXX  07154 67143 32480 70612 10244 20200 30239 40246 53018 878// 333 10256 83817 86633 92438;
0266671430999992000060806004-21200+048370FM-12+0006FMSM V0202401N005112200019N0300001N1+02101+01881102601ADDAA124000191AC13C9GA1011+006009089GA2041+012009069GF104991041081008001001001KA1120M+02561KA2120N+01881MA1999999102531MD1210101+9999REMSYN124AAXX  08064 67143 12580 42410 10210 20188 30253 40260 52010 69924 84800 333 0//13 10256 20188 50//4 55/// 81820 84640 92438;
0217671430999992000060809004-21200+048370FM-12+0006FMSM V0201001N003110120019N0350001N1+02441+01851102461ADDAA199000091GA1021+006009089GA2061+012009069GF107991071081008001999999MA1999999102391MD1710141+9999REMSYN088AAXX  08094 67143 32581 71006 10244 20185 30239 40246 57014 878// 333 82820 86640 92438;EQDQ01  00002PRCP99
0201671430999992000060812004-21200+048370FM-12+0006FMSM V0201801N003112200019N0300001N1+02481+01751102281ADDAA199000091GA1021+006009089GF103991031081008001001001MA1999999102211MD1710181+9999REMSYN088AAXX  08124 67143 32580 31806 10248 20175 30221 40228 57018 83800 333 0//00 82820 92438;EQDQ01  00002PRCP99
0214671430999992000060815004-21200+048370FM-12+0006FMSM V0201801N002112200019N0300001N1+02261+02021102361ADDAA199000091GA1011+006009089GF101991011081008001001001KA1120M+02481MA1999999102291MD1310081+9999REMSYN088AAXX  08154 67143 32580 11804 10226 20202 30229 40236 53008 81800 333 10248 81820 92438;EQDQ01  00002PRCP99
0236671430999992000060900004-21200+048370FM-12+0006FMSM V0201801N002112200019N0200001N1+01921+01791102281ADDAA106002091AC13C9AY161061GA1011+005109089GA2041+009909069GF104991041081004501001001MA1999999102211MD1710081+9999MW1151REMSYN106AAXX  09004 67143 11470 41804 10192 20179 30221 40228 57008 60021 7156/ 84800 333 0//13 81817 84633 92428;
0204671430999992000060903004-21200+048370FM-12+0006FMSM V0202801N002112200019N0300001N1+01841+01711102291ADDAA112002091GA1021+005109089GA2031+012009069GF103991031081004501001001MA1999999102221MD1310011+9999REMSYN094AAXX  09034 67143 22480 32804 10184 20171 30222 40229 53001 83800 333 60022 82817 83640 92438;
0301671430999992000060906004-21200+048370FM-12+0006FMSM V0202801N003110099019N0200001N1+02041+01901102361ADDAA199000091AY121061AY201061GA1011+005109089GA2071+009909069GF107991071081004501999999KA1120M+02481KA2120N+01841MA1999999102291MD1110071+9999MW1151REMSYN124AAXX  09064 67143 31470 72806 10204 20190 30229 40236 51007 71520 878// 333 0//00 10248 20184 50//4 55/// 81817 87633 92438;EQDQ01  00002PRCP99
0232671430999992000060909004-21200+048370FM-12+0006FMSM V0202801N002110099019N0200001N1+02221+02101102301ADDAA106002091AY161031AY221031GA1021+005109089GA2071+009909069GF108991081081004501999999MA1999999102231MD1810061+9999MW1151REMSYN100AAXX  09094 67143 21470 82804 10222 20210 30223 40230 58006 71562 888// 333 60021 82817 87633 92438;
0216671430999992000060912004-21200+048370FM-12+0006FMSM V0201801N002110099019N0300001N1+02181+02121102151ADDAA106001091AC13C9GA1021+005109089GA2061+009909069GF107991071081004501999999MA1999999102081MD1710151+9999REMSYN100AAXX  09124 67143 12480 71804 10218 20212 30208 40215 57015 60011 878// 333 0//13 82817 86633 92438;
0251671430999992000060915004-21200+048370FM-12+0006FMSM V0200601N003110099019N0200001N1+02061+02001102181ADDAA106002091AY161031AY221031GA1021+005109089GA2071+009909069GF107991071081004501999999KA1120M+02221MA1999999102111MD1310031+9999MW1151REMSYN106AAXX  09154 67143 21470 70606 10206 20200 30211 40218 53003 71562 878// 333 10222 60021 82817 87633 92438;
0232671430999992000061003004-21200+048370FM-12+0006FMSM V0200601N002110099019N0100001N1+01981+01881102181ADDAA112015091AY161031AY221031GA1031+005109089GA2061+009909069GF108991081081004501999999MA1999999102111MD1310101+9999MW1601REMSYN100AAXX  10034 67143 21460 80604 10198 20188 30211 40218 53010 76062 888// 333 60152 83817 86633 92437;
0266671430999992000061006004-21200+048370FM-12+0006FMSM V0202801N004110099019N0350001N1+02121+02011102221ADDAA124019191AC13C9GA1031+005109089GA2051+009909069GF107991071081004501999999KA1120M+02221KA2120N+01981MA1999999102151MD1110041+9999REMSYN124AAXX  10064 67143 12481 72808 10212 20201 30215 40222 51004 60194 878// 333 0//93 10222 20198 5///4 55/// 83817 85633 92438;
0232671430999992000061009004-21200+048370FM-12+0006FMSM V0200201N002110099019N0200001N1+02001+01901102181ADDAA106003091AY161031AY221031GA1031+005109089GA2061+009909069GF108991081081004501999999MA1999999102111MD1810041+9999MW1151REMSYN100AAXX  10094 67143 21470 80204 10200 20190 30211 40218 58004 71562 888// 333 60031 83817 86633 92438;
0204671430999992000061012004-21200+048370FM-12+0006FMSM V0201601N002110120019N0300001N1+02401+02041101981ADDAA199000021GA1021+006009089GA2061+012009069GF107991071081008001999999MA1999999101911MD1710281+9999REMSYN094AAXX  10124 67143 32580 71604 10240 20204 30191 40198 57028 878// 333 0//00 82820 86640 92438;
0217671430999992000061015004-21200+048370FM-12+0006FMSM V0201601N001010120019N0300001N1+02321+02201102081ADDAA199000021GA1011+006009089GA2051+012009069GF105991051081008001001001KA1120M+02401MA1999999102011MD1310101+9999REMSYN094AAXX  10154 67143 32580 51602 10232 20220 30201 40208 53010 85800 333 10240 81820 85640 92438;
0232671430999992000061103004-21200+048370FM-12+0006FMSM V0201601N003110099019N0100001N1+01981+01851102121ADDAA112025091AY161031AY221031GA1031+003909079GA2071+009909069GF107991071081004501999999MA1999999102051MD1310041+9999MW1151REMSYN100AAXX  11034 67143 21460 71606 10198 20185 30205 40212 53004 71562 878// 333 60252 83713 87633 92436;
0282671430999992000061106004-21200+048370FM-12+0006FMSM V0202401N001010099019N0100001N1+02101+01991102221ADDAA124029091AY161061AY221061GA1031+005109089GA2071+009909069GF107991071081004501999999KA1120M+02401KA2120N+01971MA1999999102151MD1210101+9999MW1211REMSYN124AAXX  11064 67143 11460 72402 10210 20199 30215 40222 52010 60294 72162 878// 333 10240 20197 50//4 55/// 83817 87633 92437;
0232671430999992000061109004-21200+048370FM-12+0006FMSM V0202401N002110099019N0100001N1+02181+02061102201ADDAA106001091AY161031AY221031GA1031+005109089GA2071+009909069GF107991071081004501999999MA1999999102131MD1810021+9999MW1151REMSYN100AAXX  11094 67143 21460 72404 10218 20206 30213 40220 58002 71562 878// 333 60011 83817 87633 92437;
0244671430999992000061112004-21200+048370FM-12+0006FMSM V0202401N001010099019N0150001N1+02271+02121102101ADDAA106001091AC11I9AY161061AY221061GA1031+006009089GA2071+009909069GF107991071081008001999999MA1999999102031MD1710101+9999MW1151REMSYN106AAXX  11124 67143 11565 72402 10227 20212 30203 40210 57010 60011 71562 878// 333 0//15 83820 87633 92437;
0205671430999992000061203004-21200+048370FM-12+0006FMSM V0202401N002112200019N0300001N1+01801+01641102301ADDAA199000091GA1021+006009089GF102991021081008001001001MA1999999102231MD1310061+9999REMSYN092AAXX  12034 67143 32580 22404 10180 20164 30223 40230 53006 82800 333 82820 92438 555 81640;EQDQ01  00002PRCP99
0288671430999992000061206004-21200+048370FM-12+0006FMSM V0202601N002110099019N0100001N1+02021+01821102421ADDAA124001091AY121061AY211061GA1021+006009089GA2061+009909069GF107991071081008001999999KA1120M+02321KA2120N+01801MA1999999102351MD1210121+9999MW1151REMSYN130AAXX  12064 67143 11560 72604 10202 20182 30235 40242 52012 60014 71521 878// 333 0//19 10232 20180 50//4 55/// 82820 86633 92437;
0245671430999992000061209004-21200+048370FM-12+0006FMSM V0202701N003110099019N0200001N1+02321+01981102401ADDAA199000091AY121031AY221031GA1031+006009089GA2061+009909069GF107991071081008001999999MA1999999102331MD1810021+9999MW1151REMSYN094AAXX  12094 67143 31570 72706 10232 20198 30233 40240 58002 71522 878// 333 83820 86633 92438;EQDQ01  00002PRCP99
0261671430999992000061215004-21200+048370FM-12+0006FMSM V0201201N001010099019N0150001N1+02201+02111102321ADDAA106001091AY161031AY221031GA1041+003909079GA2071+009909069GF107991071081004501999999KA1120M+02421MA1999999102251MD1310051+9999MW1211REMSYN116AAXX  12154 67143 21465 71202 10220 20211 30225 40232 53005 72162 878// 333 10242 60011 84713 87633 924// 555 82820;
0178671430999992000061306004-21200+048370FM-12+0006FMSM V0202401N002110120019N0200001N1+02251+02041102581ADDAA124015091AY121061AY211061GF105991051081008001001001MA1999999102511MD1210101+9999MW1151REMSYN078AAXX  13064 67143 11570 52404 10225 20204 30251 40258 52010 60154 71521 85800;
0232671430999992000061309004-21200+048370FM-12+0006FMSM V0202401N002110099019N0100001N1+02181+02021102501ADDAA106003091AY161031AY221031GA1031+003909079GA2061+009909069GF107991071081004501999999MA1999999102431MD1810081+9999MW1151REMSYN100AAXX  13094 67143 21460 72404 10218 20202 30243 40250 58008 71562 878// 333 60031 83713 86633 92437;
0187671430999992000061312004-21200+048370FM-12+0006FMSM V0202401N002110120019N0200001N1+02401+02041999999ADDAA106003091AY161061AY221061GF106991061081008001001001MA1999999102281MD1710151+9999ME1312359MW1151REMSYN078AAXX  13124 67143 11570 62404 10240 20204 30228 48235 57015 60031 71562 86800;
0264671430999992000061315004-21200+048370FM-12+0006FMSM V0202401N001010099019N0250001N1+02281+02201102421ADDAA199000091AY121031AY221031GA1031+006009089GA2061+009909069GF107991071081008001999999KA1120M+02451MA1999999102351MD1310071+9999MW1151REMSYN100AAXX  13154 67143 31575 72402 10228 20220 30235 40242 53007 71522 878// 333 10245 83820 86633 92438;EQDQ01  00002PRCP99
0204671430999992000061409004-21200+048360FM-12+0006FMSM V0201601N003110099019N0300001N1+02341+02131102471ADDAA106000891GA1021+005109089GA2071+009909069GF107991071081004501999999MA1999999102401MD1810031+9999REMSYN094AAXX  14094 67143 22480 71606 10234 20213 30240 40247 58003 878// 333 69981 82817 87633 92438;
0264671430999992000061415004-21200+048360FM-12+0006FMSM V0203201N001010099019N0200001N1+02201+02081102291ADDAA199000091AY121031AY221031GA1011+005109089GA2071+009909069GF107991071081004501999999KA1120M+02421MA1999999102221MD1310041+9999MW1151REMSYN100AAXX  14154 67143 31470 73202 10220 20208 30222 40229 53004 71522 878// 333 10242 81817 87633 92438;EQDQ01  00002PRCP99
0236671430999992000061500004-21200+048360FM-12+0006FMSM V0203201N001010099019N0200001N1+02101+02001102211ADDAA106002091AC12C9AY161061GA1011+005109089GA2051+009909069GF105991051081004501001001MA1999999102141MD1710101+9999MW1151REMSYN106AAXX  15004 67143 11470 53202 10210 20200 30214 40221 57010 60021 7156/ 85800 333 0//12 81817 85633 924/8;
0232671430999992000061503004-21200+048360FM-12+0006FMSM V0202401N001010099019N0200001N1+02021+01901102241ADDAA112003091AY161031AY221031GA1011+005109089GA2071+009909069GF107991071081004501999999MA1999999102171MD1310031+9999MW1151REMSYN100AAXX  15034 67143 21470 72402 10202 20190 30217 40224 53003 71562 878// 333 60032 81817 87633 92438;
0301671430999992000061506004-21200+048360FM-12+0006FMSM V0202201N001010099019N0200001N1+02141+02021102341ADDAA199000091AY121061AY221061GA1021+005109089GA2071+009909069GF107991071081004501999999KA1120M+02421KA2120N+02001MA1999999102271MD1210101+9999MW1151REMSYN124AAXX  15064 67143 31470 72202 10214 20202 30227 40234 52010 71522 878// 333 0//00 10242 20200 50//4 55/// 82817 87633 92438;EQDQ01  00002PRCP99
0217671430999992000061509004-21200+048360FM-12+0006FMSM V0202201N002110120019N0300001N1+02461+02191102301ADDAA199000091GA1021+006009089GA2071+012009069GF107991071081008001999999MA1999999102231MD1810041+9999REMSYN088AAXX  15094 67143 32580 72204 10246 20219 30223 40230 58004 878// 333 82820 87640 92438;EQDQ01  00002PRCP99
0251671430999992000061512004-21200+048360FM-12+0006FMSM V0201001N001010120019N0200001N1+02501+02171102121ADDAA199000091AY121061AY221061GA1021+006009089GA2061+012009069GF107991071081004501999999MA1999999102051MD1710181+9999MW1151REMSYN100AAXX  15124 67143 31470 71002 10250 20217 30205 40212 57018 71522 878// 333 0//00 82820 86640 92438;EQDQ01  00002PRCP99
0236671430999992000061515004-21200+048360FM-12+0006FMSM V0201001N003110120019N0300001N1+02401+01941102171ADDAA199000091GA1021+006009089GA2061+012009069GF107991071081008001999999KA1120M+02511MA1999999102101MD1310051+9999REMSYN094AAXX  15154 67143 32580 71006 10240 20194 30210 40217 53005 878// 333 10251 82820 86640 92438;EQDQ01  00002PRCP99
0232671430999992000061603004-21200+048360FM-12+0006FMSM V0200601N003112200019N0300001N1+01881+01751102301ADDAA112001091AY161031AY221031GA1021+006009089GA2031+009909069GF104991041081008001001001MA1999999102231MD1310101+9999MW1011REMSYN100AAXX  16034 67143 21580 40606 10188 20175 30223 40230 53010 70162 84800 333 60012 82820 83633 92438;
0282671430999992000061606004-21200+048360FM-12+0006FMSM V0202601N001012200019N0300001N1+02331+02001102431ADDAA124001091AC12I9AY161061AY211061GA1031+006009089GF104991041081008001001001KA1120M+02511KA2120N+01881MA1999999102361MD1210131+9999MW1021REMSYN134AAXX  16064 67143 11580 42602 10233 20200 30236 40243 52013 60014 70261 84800 333 0//16 10251 20188 50//4 55/// 83820 92438 555 82640;
0195671430999992000061609004-21200+048360FM-12+0006FMSM V0200801N001012200019N0300001N1+02521+01861102361ADDAA199000091GA1041+006009089GF104991041021008001001001MA1999999102291MD1810071+9999REMSYN082AAXX  16094 67143 32580 40802 10252 20186 30229 40236 58007 84200 333 84820 92438;EQDQ01  00002PRCP99
0201671430999992000061612004-21200+048360FM-12+0006FMSM V0200601N003112200019N0300001N1+02501+01881102181ADDAA199000091GA1041+006009089GF104991041081008001001001MA1999999102111MD1710181+9999REMSYN088AAXX  16124 67143 32580 40606 10250 20188 30211 40218 57018 84800 333 0//00 84820 92438;EQDQ01  00002PRCP99
0236671430999992000061615004-21200+048360FM-12+0006FMSM V0200601N002112200019N0300001N1+02381+01781102301ADDAA199000091GA1021+006009089GA2021+012009069GF103991031081008001001001KA1120M+02671MA1999999102231MD1310121+9999REMSYN094AAXX  16154 67143 32580 30604 10238 20178 30223 40230 53012 83800 333 10267 82820 82640 92438;EQDQ01  00002PRCP99
0217671430999992000061703004-21200+048360FM-12+0006FMSM V0202201N001012200019N0300001N1+01781+01621102331ADDAA199000091GA1011+006009089GA2031+009909069GF103991031081008001001001MA1999999102261MD1510021+9999REMSYN088AAXX  17034 67143 32580 32202 10178 20162 30226 40233 55002 83800 333 81820 83633 92438;EQDQ01  00002PRCP99
0264671430999992000061715004-21200+048360FM-12+0006FMSM V0202201N003110099019N0150001N1+02201+02021102401ADDAA199000091AY121031AY221031GA1041+005109089GA2071+009909069GF107991071081004501999999KA1120M+02511MA1999999102331MD1310121+9999MW1151REMSYN100AAXX  17154 67143 31465 72206 10220 20202 30233 40240 53012 71522 878// 333 10251 84817 87633 92437;EQDQ01  00002PRCP99
0232671430999992000061803004-21200+048360FM-12+0006FMSM V0209999C000010099019N0200001N1+02071+01901102381ADDAA112001091AY121031AY221031GA1021+005109089GA2071+009909069GF107991071081004501999999MA1999999102311MD1310011+9999MW1151REMSYN100AAXX  18034 67143 21470 70000 10207 20190 30231 40238 53001 71522 878// 333 60012 82817 87633 92438;
0254671430999992000061806004-21200+048360FM-12+0006FMSM V0203401N002112200019N0300001N1+02371+01961102481ADDAA124001091AC13I9GA1021+006009089GF103991031081008001001001KA1120M+02511KA2120N+02071MA1999999102411MD1210101+9999REMSYN128AAXX  18064 67143 12580 33404 10237 20196 30241 40248 52010 60014 83800 333 0//57 10251 20207 5///4 55/// 82820 92438 555 82640;
0195671430999992000061809004-21200+048360FM-12+0006FMSM V0203201N001012200019N0300001N1+02621+02051102381ADDAA199000091GA1041+006009089GF104991041021008001001001MA1999999102311MD1710101+9999REMSYN082AAXX  18094 67143 32580 43202 10262 20205 30231 40238 57010 84200 333 84820 92438;EQDQ01  00002PRCP99
0201671430999992000061812004-21200+048360FM-12+0006FMSM V0203201N003112200019N0300001N1+02601+02021102191ADDAA199000091GA1031+006009089GF103991031021008001001001MA1999999102121MD1710191+9999REMSYN088AAXX  18124 67143 32580 33206 10260 20202 30212 40219 57019 83200 333 0//00 83820 92438;EQDQ01  00002PRCP99
0214671430999992000061815004-21200+048360FM-12+0006FMSM V0203201N002112200019N0300001N1+02481+02021102241ADDAA199000091GA1021+006009089GF102991021081008001001001KA1120M+02631MA1999999102171MD1310051+9999REMSYN088AAXX  18154 67143 32580 23204 10248 20202 30217 40224 53005 82800 333 10263 82820 92438;EQDQ01  00002PRCP99
0235671430999992000061900004-21200+048360FM-12+0006FMSM V0209999C000010120019N0200001N1+02421+02301102281ADDAA199000091GA1021+005109089GA2041+012009069GF105991051081004501001001MA1999999102211MD1710051+9999MW1151REMSYN100AAXX  19004 67143 31470 50000 10242 20230 30221 40228 57005 715// 85800 333 0//00 82817 84640 924/8;EQDQ01  00002PRCP99
0226671430999992000061903004-21200+048360FM-12+0006FMSM V0209999C000012200019N0200001N1+01921+01801102301ADDAY161031GA1021+005109089GA2041+009909069GF199999041081004501001001MA1999999102231MD1310021+9999MW1151REMSYN094AAXX  19034 67143 21470 30000 10192 20180 30223 40230 53002 7156/ 84800 333 82817 84633 92438;EQDQ01+000032SCOTCV
0251671430999992000061906004-21200+048360FM-12+0006FMSM V0202401N001012200019N0350001N1+02221+02011102441ADDAA199000091GA1031+006009089GF104991041081008001001001KA1120M+02631KA2120N+01881MA1999999102371MD1210141+9999REMSYN112AAXX  19064 67143 32581 42402 10222 20201 30237 40244 52014 84800 333 0//00 10263 20188 50//4 55/// 83820 92438;EQDQ01  00002PRCP99
0195671430999992000061909004-21200+048360FM-12+0006FMSM V0200801N001012200019N0300001N1+02621+02081102351ADDAA199000091GA1031+006009089GF104991041081008001001001MA1999999102281MD1710091+9999REMSYN082AAXX  19094 67143 32580 40802 10262 20208 30228 40235 57009 84800 333 83820 92438;EQDQ01  00002PRCP99
0211671430999992000061912004-21200+048360FM-12+0006FMSM V0200801N003112200019N0400001N1+02581+01691102181ADDAA199000091GA1011+006009089GF101991011081008001001001MA1999999102111MD1710171+9999REMSYN098AAXX  19124 67143 32582 10806 10258 20169 30211 40218 57017 81800 333 0//00 81820 92438 555 81640;EQDQ01  00002PRCP99
0217671430999992000062003004-21200+048360FM-12+0006FMSM V0202401N002110120019N0300001N1+01801+01631102211ADDAA199000091GA1021+006009089GA2041+012009069GF105991051081008001001001MA1999999102141MD1310021+9999REMSYN088AAXX  20034 67143 32580 52404 10180 20163 30214 40221 53002 85800 333 82820 84640 92438;EQDQ01  00002PRCP99
0273671430999992000062006004-21200+048360FM-12+0006FMSM V0202401N003110120019N0300001N1+02121+01871102321ADDAA199000091GA1011+006009089GA2061+012009069GF106991061081008001001001KA1120M+02621KA2120N+01791MA1999999102251MD1210111+9999REMSYN118AAXX  20064 67143 32580 62406 10212 20187 30225 40232 52011 86800 333 0//00 10262 20179 50//4 55/// 81820 86640 92438;EQDQ01  00002PRCP99
0245671430999992000062009004-21200+048360FM-12+0006FMSM V0201601N005110099019N0200001N1+02461+02101102181ADDAA199000091AY121031AY221031GA1031+005109089GA2051+009909069GF107991071081004501999999MA1999999102111MD1810141+9999MW1151REMSYN094AAXX  20094 67143 31470 71610 10246 20210 30211 40218 58014 71522 878// 333 83817 85633 92438;EQDQ01  00002PRCP99
0201671430999992000062012004-21200+048360FM-12+0006FMSM V0201601N003112200019N0300001N1+02521+01941102081ADDAA199000091GA1021+006009089GF103991031081008001001001MA1999999102011MD1710101+9999REMSYN088AAXX  20124 67143 32580 31606 10252 20194 30201 40208 57010 83800 333 0//00 82820 92438;EQDQ01  00002PRCP99
0214671430999992000062015004-21200+048360FM-12+0006FMSM V0201601N003112200019N0350001N1+02381+02081102121ADDAA199000091GA1011+005109089GF101991011081004501001001KA1120M+02521MA1999999102051MD1510041+9999REMSYN088AAXX  20154 67143 32481 11606 10238 20208 30205 40212 55004 81800 333 10252 81817 92438;EQDQ01  00002PRCP99
0236671430999992000062100004-21200+048360FM-12+0006FMSM V0201601N002110099019N0200001N1+01961+01801102121ADDAA106000191AC11C9AY161061GA1021+005109089GA2061+009909069GF107991071081004501999999MA1999999102051MD1810051+9999MW1211REMSYN106AAXX  21004 67143 11470 71604 10196 20180 30205 40212 58005 69911 7216/ 878// 333 0//11 82817 86633 92438;
0232671430999992000062103004-21200+048360FM-12+0006FMSM V0202601N003110099019N0200001N1+01931+01751102101ADDAA112000591AY161031AY221031GA1021+005109089GA2071+009909069GF107991071081004501999999MA1999999102031MD1610021+9999MW1211REMSYN100AAXX  21034 67143 21470 72606 10193 20175 30203 40210 56002 72162 878// 333 69952 82817 87633 92438;
0254671430999992000062106004-21200+048360FM-12+0006FMSM V0202601N004110120019N0300001N1+02101+01881102221ADDAA199000021GA1021+006009089GA2041+012009069GF105991051081008001001001KA1120M+02521KA2120N+01901MA1999999102151MD1210121+9999REMSYN118AAXX  21064 67143 32580 52608 10210 20188 30215 40222 52012 85800 333 0//00 10252 20190 50//4 55/// 82820 84640 92438;
0232671430999992000062109004-21200+048360FM-12+0006FMSM V0202601N001010099019N0200001N1+02381+02051102181ADDAA106000391AY161031AY221031GA1021+005109089GA2071+009909069GF107991071081004501999999MA1999999102111MD1810041+9999MW1151REMSYN100AAXX  21094 67143 21470 72602 10238 20205 30211 40218 58004 71562 878// 333 69931 82817 87633 92438;
0204671430999992000062112004-21200+048360FM-12+0006FMSM V0202201N001010120019N0300001N1+02301+02031102051ADDAA199000021GA1021+006009089GA2041+012009069GF105991051081008001001001MA1999999101981MD1710131+9999REMSYN094AAXX  21124 67143 32580 52202 10230 20203 30198 40205 57013 85800 333 0//00 82820 84640 92438;
0195671430999992000062115004-21200+048360FM-12+0006FMSM V0200801N001012200019N0300001N1+02261+01951102101ADDAA199000021GA1011+005109089GF101991011081004501001001KA1120M+02381MA1999999102031MD1310051+9999REMSYN088AAXX  21154 67143 32480 10802 10226 20195 30203 40210 53005 81800 333 10238 81817 92438;
0204671430999992000062203004-21200+048360FM-12+0006FMSM V0201601N001012200019N0300001N1+01861+01701102031ADDAA112003091GA1011+006009089GA2021+009909069GF102991021081008001001001MA1999999101961MD1610081+9999REMSYN094AAXX  22034 67143 22580 21602 10186 20170 30196 40203 56008 82800 333 60032 81820 82633 92438;
0266671430999992000062206004-21200+048360FM-12+0006FMSM V0203201N001012200019N0300001N1+02221+01981102181ADDAA124003091AC13I9GA1011+006009089GA2021+012009069GF102991021081008001001001KA1120M+02381KA2120N+01851MA1999999102111MD1210151+9999REMSYN124AAXX  22064 67143 12580 23202 10222 20198 30211 40218 52015 60034 82800 333 0//97 10238 20185 50//4 55/// 81820 82640 92438;
0217671430999992000062209004-21200+048360FM-12+0006FMSM V0203201N002110120019N0300001N1+02431+01961102081ADDAA199000091GA1021+006009089GA2051+012009069GF106991061081008001001001MA1999999102011MD1710101+9999REMSYN088AAXX  22094 67143 32580 63204 10243 20196 30201 40208 57010 86800 333 82820 85640 92438;EQDQ01  00002PRCP99
0251671430999992000062212004-21200+048360FM-12+0006FMSM V0203201N002110099019N0150001N1+02601+01941101981ADDAA199000091AY121061AY211061GA1031+006009089GA2061+009909069GF106991061081008001001001MA1999999101911MD1610101+9999MW1151REMSYN100AAXX  22124 67143 31565 63204 10260 20194 30191 40198 56010 71521 86800 333 0//00 83820 86633 92438;EQDQ01  00002PRCP99
0236671430999992000062215004-21200+048360FM-12+0006FMSM V0200801N001010099019N0300001N1+02381+02111102021ADDAA199000091GA1021+006009089GA2041+009909069GF105991051081008001001001KA1120M+02611MA1999999101951MD1310041+9999REMSYN094AAXX  22154 67143 32580 50802 10238 20211 30195 40202 53004 85800 333 10261 82820 84633 92438;EQDQ01  00002PRCP99
0217671430999992000062303004-21200+048360FM-12+0006FMSM V0200801N001012200019N0300001N1+01901+01741102081ADDAA199000091GA1011+006009089GA2041+012009069GF104991041081008001001001MA1999999102011MD1310021+9999REMSYN088AAXX  23034 67143 32580 40802 10190 20174 30201 40208 53002 84800 333 81820 84640 92438;EQDQ01  00002PRCP99
0223671430999992000062712004-21200+048360FM-12+0006FMSM V0201601N009310120019N0300001N1+02501+02011101871ADDAA199000091GA1021+006009089GA2061+012009069GF107991071081008001999999MA1999999101801MD1710101+9999REMSYN094AAXX  27124 67143 32580 71618 10250 20201 30180 40187 57010 878// 333 0//00 82820 86640 92438;EQDQ01  00002PRCP99
0232671430999992000062803004-21200+048360FM-12+0006FMSM V0201801N008210090019N0080001N1+02001+01841102171ADDAA112002091AY121031AY211031GA1041+003909079GA2071+009009069GF108991081051004501999999MA1999999102101MD1310191+9999MW1611REMSYN100AAXX  28034 67143 21458 81816 10200 20184 30210 40217 53019 76121 885// 333 60022 84713 87630 92436;
0232671430999992000062903004-21200+048360FM-12+0006FMSM V0202201N002110099019N0150001N1+01671+01521102461ADDAA112018091AY161031AY221031GA1041+003909079GA2071+009909069GF107991071051004501999999MA1999999102391MD1310061+9999MW1151REMSYN100AAXX  29034 67143 21465 72204 10167 20152 30239 40246 53006 71562 875// 333 60182 84713 87633 92437;
0244671430999992000062912004-21200+048360FM-12+0006FMSM V0202201N003110099019N0100001N1+01881+01681102361ADDAA106015091AC11I9AY161061AY221061GA1031+003909079GA2071+009909069GF108991081051004501999999MA1999999102291MD1710181+9999MW1211REMSYN106AAXX  29124 67143 11460 82206 10188 20168 30229 40236 57018 60151 72162 885// 333 0//95 83713 87633 92437;
0251671430999992000062915004-21200+048360FM-12+0006FMSM V0202401N002110099019N0100001N1+01781+01621102411ADDAA106000791AY161031AY221031GA1041+003909079GA2071+009909069GF108991081051004501999999KA1120M+01941MA1999999102341MD1310051+9999MW1151REMSYN106AAXX  29154 67143 21460 82404 10178 20162 30234 40241 53005 71562 885// 333 10194 69971 84713 87633 92437;
0232671430999992000063003004-21200+048360FM-12+0006FMSM V0202401N002110090019N0080001N1+01681+01601102551ADDAA112013091AY161031AY221031GA1041+003009079GA2081+009009069GF108991081051004501999999MA1999999102481MD1310071+9999MW1211REMSYN100AAXX  30034 67143 21458 82404 10168 20160 30248 40255 53007 72162 885// 333 60132 84710 88630 92436;
0244671430999992000063012004-21200+048360FM-12+0006FMSM V0202401N002110060019N0200001N1+02041+01821102461ADDAA106017091AC10I9AY161061AY221061GA1051+006009089GA2031+009909069GF106991061081008001001001MA1999999102391MD1710131+9999MW1151REMSYN106AAXX  30124 67143 11570 62404 10204 20182 30239 40246 57013 60171 71562 86800 333 0//24 85820 83633 92438;
0232671430999992000070103004-21200+048360FM-12+0006FMSM V0201201N005110099019N0200001N1+01901+01561102551ADDAA112011091AY161031AY221031GA1021+005109089GA2061+009909069GF107991071081004501999999MA1999999102481MD1510001+9999MW1151REMSYN100AAXX  01034 67143 21470 71210 10190 20156 30248 40255 55000 71562 878// 333 60112 82817 86633 92438;
0294671430999992000070106004-21200+048360FM-12+0006FMSM V0201601N006210099019N0200001N1+02021+01691102671ADDAA124030091AC11C9AY161061AY221061GA1031+005109089GA2051+009909069GF107991071081004501999999KA1120M+02221KA2120N+01731MA1999999102601MD1210121+9999MW1151REMSYN130AAXX  01064 67143 11470 71612 10202 20169 30260 40267 52012 60304 71562 878// 333 0//91 10222 20173 50//4 55/// 83817 85633 92438;
0217671430999992000070109004-21200+048360FM-12+0006FMSM V0201001N003110120019N0350001N1+02301+01621102611ADDAA199000091GA1041+006009089GA2031+012009069GF106991061081008001001001MA1999999102541MD1810061+9999REMSYN088AAXX  01094 67143 32581 61006 10230 20162 30254 40261 58006 86800 333 84820 83640 92438;EQDQ01  00002PRCP99
0251671430999992000070112004-21200+048360FM-12+0006FMSM V02099999999990120019N0070001N1+02181+02111102411ADDAA199000091AY121061AY221061GA1031+005109089GA2041+012009069GF107991071081004501999999MA1999999102341MD1710201+9999MW1151REMSYN100AAXX  01124 67143 31457 7//04 10218 20211 30234 40241 57020 71522 878// 333 0//00 83817 84640 92438;EQDQ01  00002PRCP99
0244671430999992000070212004-21200+048360FM-12+0006FMSM V0202201N001010099019N0080001N1+02301+02081102301ADDAA106021191AC11C9AY161061AY221061GA1021+005109089GA2071+009909069GF108991081081004501999999MA1999999102231MD1710091+9999MW1611REMSYN106AAXX  02124 67143 11458 82202 10230 20208 30223 40230 57009 60211 76162 888// 333 0//91 82817 87633 92436;
0244671430999992000070312004-21200+048360FM-12+0006FMSM V0201601N010810099019N0150001N1+02241+01961102141ADDAA106011991AC11C9AY161061AY221061GA1031+005109089GA2061+009909069GF108991081081004501999999MA1999999102071MD1710161+9999MW1601REMSYN106AAXX  03124 67143 11465 81621 10224 20196 30207 40214 57016 60121 76062 888// 333 0//91 83817 86633 92437;
0251671430999992000070315004-21200+048360FM-12+0006FMSM V0201601N008210099019N0200001N1+01901+01641102231ADDAA106006091AY161031AY221031GA1031+005109089GA2061+009909069GF107991071081004501999999KA1120M+02241MA1999999102161MD1310091+9999MW1211REMSYN106AAXX  03154 67143 21470 71616 10190 20164 30216 40223 53009 72162 878// 333 10224 60061 83817 86633 92438;
0236671430999992000070400004-21200+048360FM-12+0006FMSM V0201601N003110090019N0050001N1+01441+01351102081ADDAA106005191AC11I9AY161061GA1041+003009079GA2081+009009069GF108991081051004501999999MA1999999102011MD1710081+9999MW1611REMSYN106AAXX  04004 67143 11450 81606 10144 20135 30201 40208 57008 60051 7616/ 885// 333 0//95 84710 88630 924/8;
0232671430999992000070403004-21200+048360FM-12+0006FMSM V0201501N002110090019N0200001N1+01391+01241102081ADDAA112009091AY161031AY221031GA1031+003909079GA2071+009009069GF107991071051004501999999MA1999999102011MD1510001+9999MW1211REMSYN100AAXX  04034 67143 21470 71504 10139 20124 30201 40208 55000 72162 875// 333 60092 83713 87630 92438;
0294671430999992000070406004-21200+048360FM-12+0006FMSM V0202601N002110099019N0200001N1+01821+01701102191ADDAA124023191AC10I9AY161061AY221061GA1021+005109089GA2071+009909069GF107991071081004501999999KA1120M+02241KA2120N+01371MA1999999102121MD1110111+9999MW1151REMSYN130AAXX  04064 67143 11470 72604 10182 20170 30212 40219 51011 60234 71562 878// 333 0//94 10224 20137 50//4 55/// 82817 87633 92438;
0204671430999992000070412004-21200+048360FM-12+0006FMSM V0201801N003110120019N0300001N1+02231+01761101961ADDAA199000021GA1031+006009089GA2061+012009069GF107991071081008001999999MA1999999101881MD1710141+9999REMSYN094AAXX  04124 67143 32580 71806 10223 20176 30188 40196 57014 878// 333 0//00 83820 86640 92438;
0217671430999992000070415004-21200+048360FM-12+0006FMSM V0201801N001010120019N0300001N1+02041+01681102021ADDAA199000021GA1021+006009089GA2061+012009069GF106991061081008001001001KA1120M+02331MA1999999101951MD1310061+9999REMSYN094AAXX  04154 67143 32580 61802 10204 20168 30195 40202 53006 86800 333 10233 82820 86640 92438;
0182671430999992000070503004-21200+048360FM-12+0006FMSM V0201801N001012200019N0300001N1+01631+01511101961ADDAA112024091GA1011+006009089GF102991021081008001001001MA1999999101891MD1510001+9999REMSYN088AAXX  05034 67143 22580 21802 10163 20151 30189 40196 55000 82800 333 60242 81820 92438;
0260671430999992000070506004-21200+048360FM-12+0006FMSM V0202401N002110099019N0300001N1+01901+01641102071ADDAA124024991GA1011+006009089GA2071+009909069GF107991071081008001999999KA1120M+02331KA2120N+01501MA1999999102001MD1210091+9999REMSYN124AAXX  05064 67143 12580 72404 10190 20164 30200 40207 52009 60254 878// 333 0//99 10233 20150 50//4 55/// 81820 87633 92438;
0245671430999992000070509004-21200+048360FM-12+0006FMSM V0202401N001010099019N0200001N1+02161+01781101981ADDAA199000091AY121031AY221031GA1021+006009089GA2071+009909069GF107991071081008001999999MA1999999101911MD1810091+9999MW1151REMSYN094AAXX  05094 67143 31570 72402 10216 20178 30191 40198 58009 71522 878// 333 82820 87633 92438;EQDQ01  00002PRCP99
0251671430999992000070512004-21200+048360FM-12+0006FMSM V0202401N001010099019N0200001N1+02141+01891101921ADDAA199000091AY121061AY221061GA1031+006009089GA2061+009909069GF107991071081008001999999MA1999999101851MD1610061+9999MW1151REMSYN100AAXX  05124 67143 31570 72402 10214 20189 30185 40192 56006 71522 878// 333 0//00 83820 86633 92438;EQDQ01  00002PRCP99
0264671430999992000070515004-21200+048360FM-12+0006FMSM V0202401N001010099019N0200001N1+01901+01741101961ADDAA199000091AY121031AY221031GA1021+006009089GA2071+009909069GF107991071081008001999999KA1120M+02261MA1999999101891MD1310041+9999MW1151REMSYN100AAXX  05154 67143 31570 72402 10190 20174 30189 40196 53004 71522 878// 333 10226 82820 87633 92438;EQDQ01  00002PRCP99
0232671430999992000070603004-21200+048360FM-12+0006FMSM V0202401N001010099019N0200001N1+01701+01561102021ADDAA112002091AY121031AY221031GA1021+005109089GA2071+009909069GF107991071081004501999999MA1999999101951MD1310121+9999MW1151REMSYN100AAXX  06034 67143 21470 72402 10170 20156 30195 40202 53012 71522 878// 333 60022 82817 87633 92438;
0245671430999992000070609004-21200+048360FM-12+0006FMSM V0202401N003110099019N0200001N1+02221+01881102061ADDAA199000091AY121031AY221031GA1031+006009089GA2071+009909069GF107991071081008001999999MA1999999101991MD1610041+9999MW1151REMSYN094AAXX  06094 67143 31570 72406 10222 20188 30199 40206 56004 71522 878// 333 83820 87633 92438;EQDQ01  00002PRCP99
0244671430999992000070612004-21200+048360FM-12+0006FMSM V0202601N003110099019N0150001N1+02061+01841101981ADDAA106007991AC13C9AY161061AY221061GA1031+005109089GA2071+009909069GF108991081081004501999999MA1999999101911MD1610081+9999MW1211REMSYN106AAXX  06124 67143 11465 82606 10206 20184 30191 40198 56008 60081 72162 888// 333 0//53 83817 87633 92437;
0261671430999992000070615004-21200+048360FM-12+0006FMSM V0202601N001010090019N0100001N1+01921+01761102101ADDAA106003091AY161031AY221031GA1041+003909079GA2081+009009069GF108991081081004501999999KA1120M+02221MA1999999102031MD1310121+9999MW1611REMSYN116AAXX  06154 67143 21460 82602 10192 20176 30203 40210 53012 76162 888// 333 10222 60031 84713 88630 92436 555 82817;
0236671430999992000070700004-21200+048360FM-12+0006FMSM V0202801N002110099019N0150001N1+01751+01561102021ADDAA106007991AC11C9AY161061GA1011+005109089GA2071+009909069GF107991071081004501999999MA1999999101951MD1710081+9999MW1601REMSYN106AAXX  07004 67143 11465 72804 10175 20156 30195 40202 57008 60081 7606/ 878// 333 0//91 81817 87633 924/7;
0232671430999992000070703004-21200+048360FM-12+0006FMSM V0202601N004110099019N0200001N1+01701+01491101931ADDAA112011091AY161031AY221031GA1011+005109089GA2071+009909069GF107991071081004501999999MA1999999101861MD1710091+9999MW1151REMSYN100AAXX  07034 67143 21470 72608 10170 20149 30186 40193 57009 71562 878// 333 60112 81817 87633 92438;
0294671430999992000070706004-21200+048360FM-12+0006FMSM V0202601N005110099019N0200001N1+01841+01561102021ADDAA124024991AC12C9AY161061AY221061GA1011+005109089GA2071+009909069GF107991071081004501999999KA1120M+02221KA2120N+01681MA1999999101951MD1210091+9999MW1151REMSYN130AAXX  07064 67143 11470 72610 10184 20156 30195 40202 52009 60254 71562 878// 333 0//92 10222 20168 50//4 55/// 81817 87633 92438;
0204671430999992000070709004-21200+048360FM-12+0006FMSM V0202601N003110099019N0250001N1+02101+01751101941ADDAA106000291GA1021+005109089GA2071+009909069GF108991081081004501999999MA1999999101871MD1810081+9999REMSYN094AAXX  07094 67143 22475 82606 10210 20175 30187 40194 58008 888// 333 69921 82817 87633 92438;
0244671430999992000070712004-21200+048360FM-12+0006FMSM V0202601N001010099019N0250001N1+02241+01861101791ADDAA106000391AC11C9AY161061AY221061GA1021+005109089GA2061+009909069GF107991071081004501999999MA1999999101721MD1710151+9999MW1211REMSYN106AAXX  07124 67143 11475 72602 10224 20186 30172 40179 57015 69931 72162 878// 333 0//11 82817 86633 92438;
0232671430999992000070803004-21200+048360FM-12+0006FMSM V0202601N002110099019N0150001N1+01781+01621102031ADDAA112024091AY161031AY221031GA1011+005109089GA2081+009909069GF108991081081004501999999MA1999999101961MD1310081+9999MW1601REMSYN100AAXX  08034 67143 21465 82604 10178 20162 30196 40203 53008 76062 888// 333 60242 81817 88633 92437;
0294671430999992000070806004-21200+048360FM-12+0006FMSM V0202601N002110099019N0150001N1+01901+01741102201ADDAA124034091AC11C9AY161061AY261061GA1011+005109089GA2071+009909069GF108991081081004501999999KA1120M+02241KA2120N+01681MA1999999102131MD1210171+9999MW1601REMSYN130AAXX  08064 67143 11465 82604 10190 20174 30213 40220 52017 60344 76066 888// 333 0//91 10224 20168 50//4 55/// 81817 87633 92437;
0226671430999992000070809004-21200+048360FM-12+0006FMSM V0201401N002110120019N0200001N1+02261+01921102131ADDAA199000021AY121031AY221031GA1031+005109089GA2051+012009069GF107991071081004501999999MA1999999102061MD1810071+9999MW1151REMSYN094AAXX  08094 67143 31470 71404 10226 20192 30206 40213 58007 71522 878// 333 83817 85640 92438;
0244671430999992000070812004-21200+048360FM-12+0006FMSM V0201401N001010099019N0150001N1+02181+01901102021ADDAA106003091AC11C9AY161061AY221061GA1021+005109089GA2071+009909059GF108991081081004501999999MA1999999101951MD1710111+9999MW1601REMSYN106AAXX  08124 67143 11465 81402 10218 20190 30195 40202 57011 60031 76062 888// 333 0//11 82817 87533 92437;
0251671430999992000070815004-21200+048360FM-12+0006FMSM V0201401N001010099019N0200001N1+02061+01801102211ADDAA106003091AY161031AY221031GA1031+005109089GA2051+009909069GF107991071081004501999999KA1120M+02261MA1999999102141MD1210111+9999MW1151REMSYN106AAXX  08154 67143 21470 71402 10206 20180 30214 40221 52011 71562 878// 333 10226 60031 83817 85633 92438;
0232671430999992000070900004-21200+048360FM-12+0006FMSM V0201401N001010099019N0080001N1+01901+01741102401ADDAA112021091AY161061AY221061GA1021+005109089GA2071+009909069GF108991081081004501999999MA1999999102331MD1310111+9999MW1601REMSYN100AAXX  09004 67143 21458 81402 10190 20174 30233 40240 53011 76062 888// 333 60212 82817 87633 92438;
0294671430999992000070906004-21200+048360FM-12+0006FMSM V0202601N003110051019N0200001N1+02041+01821102521ADDAA124038191AC11C9AY161061AY221061GA1051+005109089GA2031+009909069GF107991071081004501999999KA1120M+02261KA2120N+01781MA1999999102451MD1210121+9999MW1151REMSYN130AAXX  09064 67143 11470 72606 10204 20182 30245 40252 52012 60384 71562 878// 333 0//91 10226 20178 50//4 55/// 85817 83633 92438;
0232671430999992000070909004-21200+048360FM-12+0006FMSM V0200801N007210099019N0200001N1+02281+02001102461ADDAA106014091AY161031AY221031GA1041+005109089GA2051+009909069GF108991081081004501999999MA1999999102391MD1810061+9999MW1601REMSYN100AAXX  09094 67143 21470 80814 10228 20200 30239 40246 58006 76062 888// 333 60141 84817 85633 92438;
0232671430999992000070912004-21200+048360FM-12+0006FMSM V0200801N009310051019N0200001N1+02321+01951102361ADDAA199000021AY121061AY221061GA1051+005109089GA2041+009909069GF107991071081004501999999MA1999999102291MD1710101+9999MW1151REMSYN100AAXX  09124 67143 31470 70818 10232 20195 30229 40236 57010 71522 878// 333 0//00 85817 84633 92438;
0245671430999992000070915004-21200+048360FM-12+0006FMSM V0201001N007210099019N0200001N1+02201+01821102401ADDAA199000021AY121031AY221031GA1021+005109089GA2061+009909069GF107991071081004501999999KA1120M+02401MA1999999102331MD1310041+9999MW1151REMSYN100AAXX  09154 67143 31470 71014 10220 20182 30233 40240 53004 71522 878// 333 10240 82817 86633 92438;
0223671430999992000071000004-21200+048360FM-12+0006FMSM V0201001N004110120019N0300001N1+02261+01641102441ADDAA199000091GA1011+006009089GA2051+012009069GF105991051081008001001001MA1999999102371MD1710051+9999REMSYN094AAXX  10004 67143 33580 51008 10226 20164 30237 40244 57005 85800 333 0//00 81820 85640 924/8;EQDQ01  00002PRCP99
0204671430999992000071003004-21200+048360FM-12+0006FMSM V0201001N005112200019N0300001N1+02301+01801102421ADDAA112000691GA1011+006009089GA2041+012009069GF104991041081008001001001MA1999999102351MD1510021+9999REMSYN094AAXX  10034 67143 32580 41010 10230 20180 30235 40242 55002 84800 333 69962 81820 84640 92438;
0288671430999992000071006004-21200+048360FM-12+0006FMSM V0201001N004110099019N0200001N1+02351+01801102581ADDAA124013091AY121061AY211061GA1031+006009089GA2031+009909069GF105991051081008001001001KA1120M+02401KA2120N+02241MA1999999102511MD1210161+9999MW1151REMSYN130AAXX  10064 67143 11570 51008 10235 20180 30251 40258 52016 60134 71521 85800 333 0//99 10240 20224 50//4 55/// 83820 83633 92438;
0232671430999992000071009004-21200+048360FM-12+0006FMSM V0201001N004110099019N0200001N1+02271+01781102481ADDAA106004091AY161031AY221031GA1031+006009089GA2061+009909069GF107991071081008001999999MA1999999102411MD1810101+9999MW1151REMSYN100AAXX  10094 67143 21570 71008 10227 20178 30241 40248 58010 71562 878// 333 60041 83820 86633 92438;
0244671430999992000071012004-21200+048360FM-12+0006FMSM V0201001N001010099019N0150001N1+01991+01741102391ADDAA106005191AC12I9AY161061AY221061GA1031+003909079GA2061+009909069GF107991071081004501999999MA1999999102321MD1710091+9999MW1151REMSYN106AAXX  10124 67143 11465 71002 10199 20174 30232 40239 57009 60051 71562 878// 333 0//16 83713 86633 92437;
0232671430999992000071103004-21200+048360FM-12+0006FMSM V0209999C000010099019N0150001N1+01751+01581102381ADDAA112002091AY161031AY221031GA1021+003909079GA2061+009909069GF107991071081004501999999MA1999999102311MD1510021+9999MW1211REMSYN100AAXX  11034 67143 21465 70000 10175 20158 30231 40238 55002 72162 878// 333 60022 82713 86633 92437;
0294671430999992000071106004-21200+048360FM-12+0006FMSM V0201401N004110099019N0100001N1+02051+01701102511ADDAA124006191AC10I9AY161061AY221061GA1041+003909079GA2071+009909069GF107991071081004501999999KA1120M+02331KA2120N+01751MA1999999102441MD1210131+9999MW1151REMSYN130AAXX  11064 67143 11460 71408 10205 20170 30244 40251 52013 60064 71562 878// 333 0//14 10233 20175 50//4 55/// 84713 87633 92436;
0248671430999992000071109004-21200+048360FM-12+0006FMSM V0201401N003110060019N0150001N1+02181+01641102471ADDAA199000021AY121031AY221031GA1021+003909079GA2041+006009089GA3061+009909069GF107991071081004501999999MA1999999102401MD1810041+9999MW1151REMSYN100AAXX  11094 67143 31465 71406 10218 20164 30240 40247 58004 71522 878// 333 82713 84820 86633 92438;
0266671430999992000071112004-21200+048360FM-12+0006FMSM V0201401N002110051019N0080001N1+02001+01841102331ADDAA106016091AC13C9AY161061AY221061GA1021+003909079GA2041+005109089GA3071+009909069GF108991081081004501999999MA1999999102261MD1710141+9999MW1611REMSYN112AAXX  11124 67143 11458 81404 10200 20184 30226 40233 57014 60161 76162 888// 333 0//23 82713 84817 87633 92436;
0261671430999992000071115004-21200+048360FM-12+0006FMSM V0201401N001010099019N0100001N1+01851+01741102401ADDAA106008091AY161031AY221031GA1031+003009079GA2071+009909069GF108991081081004501999999KA1120M+02321MA1999999102331MD1310071+9999MW1211REMSYN116AAXX  11154 67143 21460 81402 10185 20174 30233 40240 53007 72162 888// 333 10232 60081 83710 87633 92436 555 83817;
0242671430999992000071200004-21200+048360FM-12+0006FMSM V0201401N002110099019N0150001N1+01701+01531102361ADDAA112013091AY161061AY221061GA1031+003909079GA2071+009909069GF107991071081004501999999MA1999999102291MD1510041+9999MW1151REMSYN110AAXX  12004 67143 21465 71404 10170 20153 30229 40236 55004 71562 878// 333 60132 83713 87633 92437 555 82817;
0298671430999992000071206004-21200+048360FM-12+0006FMSM V0202201N002110090019N0030001N1+01781+01651102491ADDAA124050091AY161061AY221061GA1031+003909079GA2081+009009069GF108991081081004501999999KA1120M+02321KA2120N+01701MA1999999102421MD1310131+9999MW1631REMSYN140AAXX  12064 67143 11430 82204 10178 20165 30242 40249 53013 60504 76362 888// 333 0//99 10232 20170 50//4 55/// 83713 88630 92435 555 83817;
0232671430999992000071209004-21200+048360FM-12+0006FMSM V0202201N002110099019N0150001N1+02081+01891102331ADDAA106002091AY161031AY221031GA1041+005109089GA2061+009909069GF107991071081004501999999MA1999999102261MD1710161+9999MW1151REMSYN100AAXX  12094 67143 21465 72204 10208 20189 30226 40233 57016 71562 878// 333 60021 84817 86633 92437;
0244671430999992000071212004-21200+048360FM-12+0006FMSM V0202201N001010099019N0100001N1+02001+01771102201ADDAA106005191AC12I9AY161061AY211061GA1041+005109089GA2071+009909069GF108991081081004501999999MA1999999102131MD1710131+9999MW1211REMSYN106AAXX  12124 67143 11460 82202 10200 20177 30213 40220 57013 60051 72161 888// 333 0//96 84817 87633 92437;
0245671430999992000071215004-21200+048360FM-12+0006FMSM V0202201N002110099019N0200001N1+01921+01761102291ADDAA199000021AY121031AY221031GA1031+005109089GA2071+009909069GF108991081081004501999999KA1120M+02111MA1999999102221MD1310091+9999MW1151REMSYN100AAXX  12154 67143 31470 82204 10192 20176 30222 40229 53009 71522 888// 333 10211 83817 87633 92438;
0232671430999992000071303004-21200+048360FM-12+0006FMSM V0202201N001010099019N0200001N1+01701+01461102331ADDAA112010091AY161031AY221031GA1021+005109089GA2071+009909069GF107991071081004501999999MA1999999102261MD1310111+9999MW1151REMSYN100AAXX  13034 67143 21470 72202 10170 20146 30226 40233 53011 71562 878// 333 60102 82817 87633 92438;
0273671430999992000071306004-21200+048360FM-12+0006FMSM V0202201N002110099019N0300001N1+01861+01681102431ADDAA199000091GA1021+005109089GA2071+009909069GF107991071081004501999999KA1120M+02111KA2120N+01701MA1999999102361MD1210101+9999REMSYN118AAXX  13064 67143 32480 72204 10186 20168 30236 40243 52010 878// 333 0//00 10211 20170 50//4 55/// 82817 87633 92438;EQDQ01  00002PRCP99
0204671430999992000071309004-21200+048360FM-12+0006FMSM V0200801N002110099019N0250001N1+02101+01741102321ADDAA106001091GA1041+005109089GA2061+009909069GF107991071081004501999999MA1999999102251MD1810111+9999REMSYN094AAXX  13094 67143 22475 70804 10210 20174 30225 40232 58011 878// 333 60011 84817 86633 92438;
0223671430999992000071312004-21200+048360FM-12+0006FMSM V0200801N002110120019N0300001N1+02181+01731102181ADDAA199000091GA1011+006009089GA2051+012009069GF105991051081008001001001MA1999999102111MD1710141+9999REMSYN094AAXX  13124 67143 32580 50804 10218 20173 30211 40218 57014 85800 333 0//00 81820 85640 92438;EQDQ01  00002PRCP99
0236671430999992000071315004-21200+048360FM-12+0006FMSM V0200801N003110120019N0300001N1+02161+01711102221ADDAA199000091GA1011+006009089GA2071+012009069GF107991071081008001999999KA1120M+02201MA1999999102151MD1510041+9999REMSYN094AAXX  13154 67143 32580 70806 10216 20171 30215 40222 55004 878// 333 10220 81820 87640 92438;EQDQ01  00002PRCP99
0211671430999992000071400004-21200+048360FM-12+0006FMSM V0200801N001012200019N0300001N1+01721+01521102191ADDAA199000091GA1011+006009089GF102991021081008001001001MA1999999102121MD1710081+9999REMSYN098AAXX  14004 67143 33580 20802 10172 20152 30212 40219 57008 82800 333 0//00 81820 924/8 555 82640;EQDQ01  00002PRCP99
0261671430999992000071406004-21200+048360FM-12+0006FMSM V0209999C000012200019N0400001N1+02101+01801102301ADDAA199000091GA1011+006009089GF101991011081008001001001KA1120M+02201KA2120N+01681MA1999999102231MD1210071+9999REMSYN122AAXX  14064 67143 32582 10000 10210 20180 30223 40230 52007 81800 333 0//00 10220 20168 50//4 55/// 81820 92438 555 81640;EQDQ01  00002PRCP99
0217671430999992000071409004-21200+048360FM-12+0006FMSM V0200601N002110120019N0300001N1+02361+01921102191ADDAA199000091GA1031+006009089GA2051+012009069GF107991071081008001999999MA1999999102121MD1810111+9999REMSYN088AAXX  14094 67143 32580 70604 10236 20192 30212 40219 58011 878// 333 83820 85640 92438;EQDQ01  00002PRCP99
0223671430999992000071412004-21200+048360FM-12+0006FMSM V0200601N004112200019N0400001N1+02301+01691102041ADDAA199000091GA1031+006009089GA2031+012009069GF103991031081008001001001MA1999999101971MD1710151+9999REMSYN094AAXX  14124 67143 32582 30608 10230 20169 30197 40204 57015 83800 333 0//00 83820 83640 92438;EQDQ01  00002PRCP99
0236671430999992000071415004-21200+048360FM-12+0006FMSM V0200601N003110120019N0300001N1+02241+01901102081ADDAA199000091GA1011+006009089GA2071+012009069GF107991071081008001999999KA1120M+02401MA1999999102011MD1310041+9999REMSYN094AAXX  14154 67143 32580 70606 10224 20190 30201 40208 53004 878// 333 10240 81820 87640 92438;EQDQ01  00002PRCP99
0237671430999992000071503004-21200+048360FM-12+0006FMSM V0209999C000010099019N0150001N1+01841+01601101991ADDAA199000091AY121031GA1011+005109089GA2071+009909069GF107991071081004501999999MA1999999101921MD1610011+9999MW1151REMSYN094AAXX  15034 67143 31465 70000 10184 20160 30192 40199 56001 7152/ 878// 333 81817 87633 92438;EQDQ01  00002PRCP99
0294671430999992000071506004-21200+048360FM-12+0006FMSM V0202801N001010099019N0100001N1+02001+01841102211ADDAA124002091AC11C9AY161061AY221061GA1031+005109089GA2071+009909069GF108991081081004501999999KA1120M+02401KA2120N+01761MA1999999102141MD1210221+9999MW1601REMSYN130AAXX  15064 67143 11460 82802 10200 20184 30214 40221 52022 60024 76062 888// 333 0//11 10240 20176 5///4 55/// 83817 87633 92437;
0204671430999992000071509004-21200+048360FM-12+0006FMSM V0202601N002110099019N0250001N1+02081+01761102091ADDAA106003091GA1021+005109089GA2071+009909069GF108991081081004501999999MA1999999102021MD1810121+9999REMSYN094AAXX  15094 67143 22475 82604 10208 20176 30202 40209 58012 888// 333 60031 82817 87633 92438;
0204671430999992000071512004-21200+048360FM-12+0006FMSM V0203001N003110120019N0300001N1+02341+01871101931ADDAA199000021GA1021+006009089GA2071+012009069GF107991071081008001999999MA1999999101861MD1710131+9999REMSYN094AAXX  15124 67143 32580 73006 10234 20187 30186 40193 57013 878// 333 0//00 82820 87640 92438;
0217671430999992000071515004-21200+048360FM-12+0006FMSM V0200401N002110120019N0300001N1+02121+01701101941ADDAA199000021GA1011+006009089GA2071+012009069GF107991071081008001999999KA1120M+02381MA1999999101871MD1510011+9999REMSYN094AAXX  15154 67143 32580 70404 10212 20170 30187 40194 55001 878// 333 10238 81820 87640 92438;
0195671430999992000071600004-21200+048360FM-12+0006FMSM V02099999999992200019N0300001N1+01691+01641101871ADDAA199000091GA1011+006009089GF103991031081004501001001MA1999999101801MD1810031+9999REMSYN082AAXX  16004 67143 33480 3//// 10169 20164 30180 40187 58003 83800 333 81820 83633;EQDQ01  00002PRCP99
0260671430999992000071606004-21200+048360FM-12+0006FMSM V0203001N002110099019N0300001N1+02101+01811102051ADDAA124002091GA1011+006009089GA2071+009909069GF107991071081008001999999KA1120M+02381KA2120N+01771MA1999999101981MD1210081+9999REMSYN124AAXX  16064 67143 12580 73004 10210 20181 30198 40205 52008 60024 878// 333 0//59 10238 20177 50//4 55/// 81820 87633 92438;
0217671430999992000071609004-21200+048360FM-12+0006FMSM V0203001N003110120019N0300001N1+02461+01901102031ADDAA199000091GA1021+006009089GA2061+012009069GF107991071081008001999999MA1999999101961MD1810021+9999REMSYN088AAXX  16094 67143 32580 73006 10246 20190 30196 40203 58002 878// 333 82820 86640 92438;EQDQ01  00002PRCP99
0223671430999992000071612004-21200+048360FM-12+0006FMSM V0203001N003110120019N0300001N1+02361+01921101931ADDAA199000091GA1021+006009089GA2061+012009069GF107991071081008001999999MA1999999101861MD1710101+9999REMSYN094AAXX  16124 67143 32580 73006 10236 20192 30186 40193 57010 878// 333 0//00 82820 86640 92438;EQDQ01  00002PRCP99
0236671430999992000071615004-21200+048360FM-12+0006FMSM V0203001N003110120019N0300001N1+02301+01921101981ADDAA199000091GA1021+006009089GA2051+012009069GF105991051081008001001001KA1120M+02521MA1999999101911MD1310051+9999REMSYN094AAXX  16154 67143 32580 53006 10230 20192 30191 40198 53005 85800 333 10252 82820 85640 92438;EQDQ01  00002PRCP99
0217671430999992000071703004-21200+048360FM-12+0006FMSM V0203001N001010099019N0300001N1+01831+01681101871ADDAA199000091GA1011+006009089GA2071+009909069GF107991071081008001999999MA1999999101801MD1510031+9999REMSYN088AAXX  17034 67143 32580 73002 10183 20168 30180 40187 55003 878// 333 81820 87633 92438;EQDQ01  00002PRCP99
0273671430999992000071706004-21200+048360FM-12+0006FMSM V0202201N001012200019N0300001N1+02261+01881102031ADDAA199000091GA1011+006009089GA2021+012009069GF102991021081008001001001KA1120M+02521KA2120N+01761MA1999999101961MD1210161+9999REMSYN118AAXX  17064 67143 32580 22202 10226 20188 30196 40203 52016 82800 333 0//00 10252 20176 50//4 55/// 81820 82640 92438;EQDQ01  00002PRCP99
0201671430999992000071712004-21200+048360FM-12+0006FMSM V0202201N004112200019N0400001N1+02521+01941101851ADDAA199000091GA1021+006909089GF102991021021012501001001MA1999999101781MD1710131+9999REMSYN088AAXX  17124 67143 32682 22208 10252 20194 30178 40185 57013 82200 333 0//00 82823 92438;EQDQ01  00002PRCP99
0224671430999992000071715004-21200+048360FM-12+0006FMSM V0200401N002112200019N0300001N1+02301+01961101921ADDAA199000091GA1021+006009089GF102991021081008001001001KA1120M+02541MA1999999101851MD1310071+9999REMSYN098AAXX  17154 67143 32580 20404 10230 20196 30185 40192 53007 82800 333 10254 82820 92438 555 81640;EQDQ01  00002PRCP99
0258671430999992000071800004-21200+048360FM-12+0006FMSM V0200401N005110051019N0150001N1+02031+01881102041ADDAA106000591AC10I9AY161061GA1021+003909079GA2031+005109089GA3061+009909069GF106991061081004501001001MA1999999101971MD1010011+9999MW1151REMSYN112AAXX  18004 67143 11465 60410 10203 20188 30197 40204 50001 69951 7156/ 86800 333 0//14 82713 83817 86633 924/7;
0298671430999992000071806004-21200+048360FM-12+0006FMSM V0202201N004110090019N0100001N1+01921+01811102271ADDAA124010991AY161061AY221061GA1031+003009079GA2071+009009069GF108991081081004501999999KA1120M+02541KA2120N+01791MA1999999102201MD1210131+9999MW1211REMSYN140AAXX  18064 67143 11460 82208 10192 20181 30220 40227 52013 60114 72162 888// 333 0//99 10254 20179 50//4 55/// 83710 87630 92437 555 83817;
0244671430999992000071812004-21200+048360FM-12+0006FMSM V0202201N005110099019N0200001N1+02271+01671102071ADDAA106001091AC10I9AY161061AY221061GA1021+006009089GA2071+009909069GF107991071081008001999999MA1999999102001MD1710131+9999MW1151REMSYN106AAXX  18124 67143 11570 72210 10227 20167 30200 40207 57013 60011 71562 878// 333 0//14 82820 87633 92438;
0223671430999992000071900004-21200+048360FM-12+0006FMSM V0202201N002110120019N0300001N1+01501+01281102121ADDAA199000091GA1011+006009089GA2051+012009069GF105991051081008001001001MA1999999102051MD1710141+9999REMSYN094AAXX  19004 67143 33580 52204 10150 20128 30205 40212 57014 85800 333 0//00 81820 85640 924/8;EQDQ01  00002PRCP99
0261671430999992000071906004-21200+048360FM-12+0006FMSM V0202601N003112200019N0400001N1+02081+01541102211ADDAA199000091GA1011+006009089GF101991011081008001001001KA1120M+02311KA2120N+01501MA1999999102141MD1210081+9999REMSYN122AAXX  19064 67143 32582 12606 10208 20154 30214 40221 52008 81800 333 0//00 10231 20150 50//4 55/// 81820 92438 555 81640;EQDQ01  00002PRCP99
0223671430999992000071912004-21200+048360FM-12+0006FMSM V0200801N003110120019N0300001N1+02301+01341101991ADDAA199000091GA1011+006009089GA2061+012009069GF106991061081008001001001MA1999999101921MD1710131+9999REMSYN094AAXX  19124 67143 32580 60806 10230 20134 30192 40199 57013 86800 333 0//00 81820 86640 92438;EQDQ01  00002PRCP99
0189671430999992000072000004-21200+048360FM-12+0006FMSM V0200801N002112200019N0300001N1+01441+01101101981ADDAA199000091GA1001+999999999GF100991001001999999001001MA1999999101911MD1810061+9999REMSYN076AAXX  20004 67143 33980 00804 10144 20110 30191 40198 58006 333 0//00 924/8;EQDQ01  00002PRCP99
0273671430999992000072006004-21200+048360FM-12+0006FMSM V0202601N003110120019N0300001N1+01941+01631102141ADDAA199000091GA1011+006009089GA2071+012009069GF107991071081008001999999KA1120M+02361KA2120N+01361MA1999999102071MD1210101+9999REMSYN118AAXX  20064 67143 32580 72606 10194 20163 30207 40214 52010 878// 333 0//00 10236 20136 50//4 55/// 81820 87640 92438;EQDQ01  00002PRCP99
0223671430999992000072012004-21200+048360FM-12+0006FMSM V0200801N002110120019N0350001N1+02201+01461101781ADDAA199000091GA1021+006009089GA2051+012009069GF106991061081008001001001MA1999999101711MD1710231+9999REMSYN094AAXX  20124 67143 32581 60804 10220 20146 30171 40178 57023 86800 333 0//00 82820 85640 92438;EQDQ01  00002PRCP99
0201671430999992000072100004-21200+048360FM-12+0006FMSM V0200601N002112200019N0300001N1+01511+01101101851ADDAA199000091GA1011+006009089GF101991011081008001001001MA1999999101781MD1810091+9999REMSYN088AAXX  21004 67143 33580 10604 10151 20110 30178 40185 58009 81800 333 0//00 81820 924/8;EQDQ01  00002PRCP99
0195671430999992000072103004-21200+048360FM-12+0006FMSM V0200601N001012200019N0300001N1+01401+01021101871ADDAA199000091GA1011+006009089GF101991011021008001001001MA1999999101801MD1310021+9999REMSYN082AAXX  21034 67143 32580 10602 10140 20102 30180 40187 53002 81200 333 81820 92438;EQDQ01  00002PRCP99
0251671430999992000072106004-21200+048360FM-12+0006FMSM V0200601N002112200019N0300001N1+02001+01601102091ADDAA199000091GA1011+006009089GF101991011021008001001001KA1120M+02351KA2120N+01371MA1999999102021MD1210221+9999REMSYN112AAXX  21064 67143 32580 10604 10200 20160 30202 40209 52022 81200 333 0//00 10235 20137 50//4 55/// 81820 92438;EQDQ01  00002PRCP99
0201671430999992000072112004-21200+048360FM-12+0006FMSM V0202801N002112200019N0400001N1+02391+01841101801ADDAA199000091GA1011+006909089GF101991011021008001001001MA1999999101731MD1710191+9999REMSYN088AAXX  21124 67143 32582 12804 10239 20184 30173 40180 57019 81200 333 0//00 81823 92438;EQDQ01  00002PRCP99
0211671430999992000072200004-21200+048360FM-12+0006FMSM V0200801N001012200019N0300001N1+01531+01371101941ADDAA199000091GA1011+006009089GF101991011081008001001001MA1999999101871MD1710081+9999REMSYN098AAXX  22004 67143 33580 10802 10153 20137 30187 40194 57008 81800 333 0//00 81820 924/8 555 81640;EQDQ01  00002PRCP99
0251671430999992000072206004-21200+048360FM-12+0006FMSM V0202601N002112200019N0300001N1+01921+01551102111ADDAA199000091GA1011+006009089GF101991011021008001001001KA1120M+02401KA2120N+01431MA1999999102041MD1210141+9999REMSYN112AAXX  22064 67143 32580 12604 10192 20155 30204 40211 52014 81200 333 0//00 10240 20143 50//4 55/// 81820 92438;EQDQ01  00002PRCP99
0201671430999992000072212004-21200+048360FM-12+0006FMSM V0202601N003112200019N0400001N1+02401+01661101901ADDAA199000091GA1031+006909089GF103991031021008001001001MA1999999101831MD1710151+9999REMSYN088AAXX  22124 67143 32582 32606 10240 20166 30183 40190 57015 83200 333 0//00 83823 92436;EQDQ01  00002PRCP99
0236671430999992000072300004-21200+048360FM-12+0006FMSM V0202001N002110099019N0200001N1+01721+01561102141ADDAA106004191AC13C9AY161061GA1021+006009089GA2061+009909069GF106991061081008001001001MA1999999102071MD1810031+9999MW1151REMSYN106AAXX  23004 67143 11570 62004 10172 20156 30207 40214 58003 60041 7156/ 86800 333 0//93 82820 86633 924/8;
0294671430999992000072306004-21200+048360FM-12+0006FMSM V0202001N002110099019N0150001N1+01831+01501102331ADDAA124004191AC13I9AY121061AY221061GA1031+005109089GA2071+009909069GF107991071081004501999999KA1120M+02431KA2120N+01571MA1999999102261MD1210111+9999MW1151REMSYN130AAXX  23064 67143 11465 72004 10183 20150 30226 40233 52011 60044 71522 878// 333 0//98 10243 20157 50//4 55/// 83817 87633 92437;
0244671430999992000072312004-21200+048360FM-12+0006FMSM V0202001N002110099019N0080001N1+01901+01741102191ADDAA106002091AC13C9AY161061AY221061GA1041+003009079GA2081+009909069GF108991081051004501999999MA1999999102121MD1710121+9999MW1611REMSYN106AAXX  23124 67143 11458 82004 10190 20174 30212 40219 57012 60021 76162 885// 333 0//13 84710 88633 92436;
0236671430999992000072400004-21200+048360FM-12+0006FMSM V0202401N002110099019N0200001N1+01761+01521102181ADDAA106000191AC11I9AY161061GA1021+005109089GA2061+009909069GF107991071081004501999999MA1999999102111MD1710101+9999MW1151REMSYN106AAXX  24004 67143 11470 72404 10176 20152 30211 40218 57010 69911 7156/ 878// 333 0//15 82817 86633 924/8;
0301671430999992000072406004-21200+048360FM-12+0006FMSM V0202401N002110099019N0200001N1+01921+01661102301ADDAA199000091AY121061AY221061GA1031+005109089GA2061+009909069GF108991081081004501999999KA1120M+02201KA2120N+01711MA1999999102231MD1210101+9999MW1151REMSYN124AAXX  24064 67143 31470 82404 10192 20166 30223 40230 52010 71522 888// 333 0//00 10220 20171 50//4 55/// 83817 86633 92438;EQDQ01  00002PRCP99
0251671430999992000072412004-21200+048360FM-12+0006FMSM V0202401N003110099019N0200001N1+02041+01611102031ADDAA199000091AY121061AY221061GA1021+005109089GA2061+009909069GF107991071081004501999999MA1999999101961MD1710161+9999MW1151REMSYN100AAXX  24124 67143 31470 72406 10204 20161 30196 40203 57016 71522 878// 333 0//00 82817 86633 92438;EQDQ01  00002PRCP99
0236671430999992000072500004-21200+048360FM-12+0006FMSM V0202801N001010099019N0200001N1+01681+01441102061ADDAA106001091AC13C9AY161061GA1011+005109089GA2051+009909069GF105991051081004501001001MA1999999101991MD1710111+9999MW1151REMSYN106AAXX  25004 67143 11470 52802 10168 20144 30199 40206 57011 60011 7156/ 85800 333 0//13 81817 85633 924/8;
0217671430999992000072503004-21200+048360FM-12+0006FMSM V0209999C000012200019N0300001N1+01621+01341102061ADDAA199000091GA1011+005109089GA2041+009909069GF104991041081008001001001MA1999999101991MD1510001+9999REMSYN088AAXX  25034 67143 32580 40000 10162 20134 30199 40206 55000 84800 333 81817 84633 92438;EQDQ01  00002PRCP99
0251671430999992000072506004-21200+048360FM-12+0006FMSM V0209999C000012200019N0400001N1+02101+01641102221ADDAA199000091GA1011+006009089GF101991011081008001001001KA1120M+02131KA2120N+01561MA1999999102151MD1210161+9999REMSYN112AAXX  25064 67143 32582 10000 10210 20164 30215 40222 52016 81800 333 0//00 10213 20156 50//4 55/// 81820 92438;EQDQ01  00002PRCP99
0195671430999992000072509004-21200+048360FM-12+0006FMSM V0200601N003112200019N0350001N1+02321+01741102081ADDAA199000091GA1021+006009089GF102991021081008001001001MA1999999102011MD1810121+9999REMSYN082AAXX  25094 67143 32581 20606 10232 20174 30201 40208 58012 82800 333 82820 92438;EQDQ01  00002PRCP99
0211671430999992000072512004-21200+048360FM-12+0006FMSM V0200601N005112200019N0400001N1+02321+01601101951ADDAA199000091GA1011+006009089GF101991011081008001001001MA1999999101881MD1710131+9999REMSYN098AAXX  25124 67143 32582 10610 10232 20160 30188 40195 57013 81800 333 0//00 81820 92438 555 81640;EQDQ01  00002PRCP99
0236671430999992000072515004-21200+048360FM-12+0006FMSM V0200401N004110120019N0300001N1+02201+01751102111ADDAA199000091GA1011+006009089GA2051+012009069GF105991051081008001001001KA1120M+02421MA1999999102041MD1310161+9999REMSYN094AAXX  25154 67143 32580 50408 10220 20175 30204 40211 53016 85800 333 10242 81820 85640 92438;EQDQ01  00002PRCP99
0236671430999992000072600004-21200+048360FM-12+0006FMSM V0200401N002110099019N0200001N1+01981+01781102151ADDAA106005191AC12C9AY161061GA1011+005109089GA2061+009909069GF106991061081004501001001MA1999999102081MD1810031+9999MW1151REMSYN106AAXX  26004 67143 11470 60404 10198 20178 30208 40215 58003 60051 7156/ 86800 333 0//12 81817 86633 924/8;
0266671430999992000072606004-21200+048360FM-12+0006FMSM V0202801N002112200019N0300001N1+02241+01831102351ADDAA124005191AC13I9GA1011+006009089GA2031+012009069GF103991031081008001001001KA1120M+02421KA2120N+01741MA1999999102281MD1210121+9999REMSYN124AAXX  26064 67143 12580 32804 10224 20183 30228 40235 52012 60054 83800 333 0//18 10242 20174 50//4 55/// 81820 83640 92438;
0195671430999992000072609004-21200+048360FM-12+0006FMSM V0200601N004112200019N0400001N1+02451+01941102261ADDAA199000091GA1031+006009089GF103991031021008001001001MA1999999102191MD1810091+9999REMSYN082AAXX  26094 67143 32582 30608 10245 20194 30219 40226 58009 83200 333 83820 92438;EQDQ01  00002PRCP99
0201671430999992000072612004-21200+048360FM-12+0006FMSM V0200601N005112200019N0400001N1+02421+01921102081ADDAA199000091GA1011+006009089GF101991011021008001001001MA1999999102011MD1710181+9999REMSYN088AAXX  26124 67143 32582 10610 10242 20192 30201 40208 57018 81200 333 0//00 81820 92438;EQDQ01  00002PRCP99
0214671430999992000072615004-21200+048360FM-12+0006FMSM V0201601N006212200019N0300001N1+02261+01771102121ADDAA199000091GA1011+006009089GF101991011081008001001001KA1120M+02481MA1999999102051MD1310041+9999REMSYN088AAXX  26154 67143 32580 11612 10226 20177 30205 40212 53004 81800 333 10248 81820 92438;EQDQ01  00002PRCP99
0201671430999992000072700004-21200+048360FM-12+0006FMSM V0200601N002112200019N0300001N1+01741+01591102041ADDAA199000091GA1011+006009089GF101991011081008001001001MA1999999101971MD1710121+9999REMSYN088AAXX  27004 67143 33580 10604 10174 20159 30197 40204 57012 81800 333 0//00 81820 924/8;EQDQ01  00002PRCP99
0195671430999992000072703004-21200+048360FM-12+0006FMSM V0202801N001012200019N0300001N1+01761+01561102031ADDAA199000091GA1011+006009089GF101991011081008001001001MA1999999101961MD1510011+9999REMSYN082AAXX  27034 67143 32580 12802 10176 20156 30196 40203 55001 81800 333 81820 92438;EQDQ01  00002PRCP99
0273671430999992000072706004-21200+048360FM-12+0006FMSM V0200201N001012200019N0350001N1+02261+01721102141ADDAA199000091GA1011+006009089GA2031+012009069GF103991031081008001001001KA1120M+02481KA2120N+01661MA1999999102071MD1110111+9999REMSYN118AAXX  27064 67143 32581 30202 10226 20172 30207 40214 51011 83800 333 0//00 10248 20166 50//4 55/// 81820 83640 92438;EQDQ01  00002PRCP99
0239671430999992000072709004-21200+048360FM-12+0006FMSM V0200601N005110120019N0300001N1+02481+01961102081ADDAA199000091GA1021+006009089GA2031+012009069GA3031+030009039GF105991051081008001031001MA1999999102011MD1810061+9999REMSYN094AAXX  27094 67143 32580 50610 10248 20196 30201 40208 58006 85830 333 82820 83640 83360 92438;EQDQ01  00002PRCP99
0211671430999992000072712004-21200+048360FM-12+0006FMSM V0200601N006212200019N0300001N1+02501+02011101881ADDAA199000091GA1021+006009089GF103991031081008001001001MA1999999101811MD1710201+9999REMSYN098AAXX  27124 67143 32580 30612 10250 20201 30181 40188 57020 83800 333 0//00 82820 92438 555 82640;EQDQ01  00002PRCP99
0242671430999992000072803004-21200+048360FM-12+0006FMSM V0209999C000010099019N0200001N1+01901+01781102061ADDAA112006091AY161031AY221031GA1031+003909079GA2071+009909069GF108991081081004501999999MA1999999101981MD1310061+9999MW1211REMSYN110AAXX  28034 67143 21470 80000 10190 20178 30198 40206 53006 72162 888// 333 60062 83713 87633 92438 555 82820;
0294671430999992000072806004-21200+048360FM-12+0006FMSM V0200601N001010099019N0200001N1+02001+01801102211ADDAA124007191AC11C9AY161061AY221061GA1031+006009089GA2071+009909069GF107991071081008001999999KA1120M+02541KA2120N+01901MA1999999102141MD1210151+9999MW1151REMSYN130AAXX  28064 67143 11570 70602 10200 20180 30214 40221 52015 60074 71562 878// 333 0//91 10254 20190 50//4 55/// 83820 87633 92438;
0232671430999992000072809004-21200+048360FM-12+0006FMSM V0202601N001010099019N0200001N1+02101+01981102161ADDAA106000391AY161031AY221031GA1031+006009089GA2071+009909069GF108991081081008001999999MA1999999102091MD1810051+9999MW1151REMSYN100AAXX  28094 67143 21570 82602 10210 20198 30209 40216 58005 71562 888// 333 69931 83820 87633 92438;
0244671430999992000072812004-21200+048360FM-12+0006FMSM V0202601N001010099019N0100001N1+02021+01881102011ADDAA106004191AC12I9AY161061AY221061GA1021+006009089GA2061+009909069GF108991061081008001031999MA1999999101941MD1710151+9999MW1611REMSYN106AAXX  28124 67143 11560 82602 10202 20188 30194 40201 57015 60041 76162 8683/ 333 0//16 82820 86633 92437;
0256671430999992000072815004-21200+048360FM-12+0006FMSM V0209999C000010099019N0100001N1+01971+01861102101ADDAY161031AY221031GA1031+005109089GA2041+009909069GA3051+030009049GF108991051081004501071999KA1120M+02201MA1999999102031MD1310091+9999MW1611REMSYN106AAXX  28154 67143 21460 80000 10197 20186 30203 40210 53009 76162 8587/ 333 10220 83817 84633 85460 92437;
0232671430999992000072903004-21200+048360FM-12+0006FMSM V0209999C000010099019N0150001N1+01901+01791102121ADDAA112006091AY161031AY221031GA1041+003909079GA2081+009909069GF108991081051004501999999MA1999999102051MD1310021+9999MW1151REMSYN100AAXX  29034 67143 21465 80000 10190 20179 30205 40212 53002 71562 885// 333 60062 84713 88633 92437;
0294671430999992000072906004-21200+048360FM-12+0006FMSM V0209999C000010099019N0100001N1+02001+01841102211ADDAA124011991AC13I9AY121061AY221061GA1021+003909079GA2071+009909069GF107991071081004501999999KA1120M+02201KA2120N+01891MA1999999102141MD1210091+9999MW1151REMSYN130AAXX  29064 67143 11460 70000 10200 20184 30214 40221 52009 60124 71522 878// 333 0//17 10220 20189 50//4 55/// 82713 87633 92437;
0245671430999992000072909004-21200+048360FM-12+0006FMSM V0201001N001010120019N0200001N1+02301+02081102081ADDAA199000091AY121031AY221031GA1041+006009089GA2051+012009069GF106991061081008001001001MA1999999102011MD1810131+9999MW1151REMSYN094AAXX  29094 67143 31570 61002 10230 20208 30201 40208 58013 71522 86800 333 84820 85640 92438;EQDQ01  00002PRCP99
0233671430999992000072912004-21200+048360FM-12+0006FMSM V0200601N002112200019N0300001N1+02421+02081101881ADDAA199000091GA1021+006009089GA2031+012009069GF104991041081008001031001MA1999999101811MD1710201+9999REMSYN104AAXX  29124 67143 32580 40604 10242 20208 30181 40188 57020 84830 333 0//00 82820 83640 92438 555 81360;EQDQ01  00002PRCP99
0236671430999992000072915004-21200+048360FM-12+0006FMSM V0201001N002112200019N0300001N1+02281+02001102001ADDAA199000091GA1011+006009089GA2041+012009069GF104991041081008001001001KA1120M+02511MA1999999101931MD1310121+9999REMSYN094AAXX  29154 67143 32580 41004 10228 20200 30193 40200 53012 84800 333 10251 81820 84640 92438;EQDQ01  00002PRCP99
0217671430999992000073003004-21200+048360FM-12+0006FMSM V0209999C000012200019N0300001N1+01891+01711102101ADDAA199000091GA1011+006009089GA2041+012009069GF104991041081008001001001MA1999999102031MD1310101+9999REMSYN088AAXX  30034 67143 32580 40000 10189 20171 30203 40210 53010 84800 333 81820 84640 92438;EQDQ01  00002PRCP99
0273671430999992000073006004-21200+048360FM-12+0006FMSM V0203201N001012200019N0300001N1+02321+02111102151ADDAA199000091GA1021+006009089GA2041+012009069GF104991041081008001001001KA1120M+02511KA2120N+01771MA1999999102081MD1210051+9999REMSYN118AAXX  30064 67143 32580 43202 10232 20211 30208 40215 52005 84800 333 0//00 10251 20177 50//4 55/// 82820 84640 92438;EQDQ01  00002PRCP99
0217671430999992000073009004-21200+048360FM-12+0006FMSM V0203201N002110120019N0300001N1+02441+02081102051ADDAA199000091GA1041+006009089GA2051+012009069GF107991071081008001999999MA1999999101981MD1810101+9999REMSYN088AAXX  30094 67143 32580 73204 10244 20208 30198 40205 58010 878// 333 84820 85640 92438;EQDQ01  00002PRCP99
0195671430999992000073012004-21200+048360FM-12+0006FMSM V0203201N004112200019N0300001N1+02531+99999101861ADDAA199000091GA1031+006009089GF104991041081008001001001MA1999999101791MD1710191+9999REMSYN082AAXX  30124 67143 32580 43208 10253 30179 40186 57019 84800 333 0//00 83820 92438;EQDQ01  00002PRCP99
0214671430999992000073015004-21200+048360FM-12+0006FMSM V0200801N004112200019N0300001N1+02301+02091101921ADDAA199000091GA1011+006009089GF102991021081008001001001KA1120M+02531MA1999999101851MD1310061+9999REMSYN088AAXX  30154 67143 32580 20808 10230 20209 30185 40192 53006 82800 333 10253 81820 92438;EQDQ01  00002PRCP99
0201671430999992000073100004-21200+048360FM-12+0006FMSM V0209999C000012200019N0300001N1+01661+01461101981ADDAA199000091GA1011+006009089GF101991011081008001001001MA1999999101911MD1810071+9999REMSYN088AAXX  31004 67143 33580 10000 10166 20146 30191 40198 58007 81800 333 0//00 81820 924/8;EQDQ01  00002PRCP99
0251671430999992000073106004-21200+048360FM-12+0006FMSM V0203001N005112200019N0400001N1+02401+01801102121ADDAA199000091GA1011+006009089GF101991011021008001001001KA1120M+02531KA2120N+01661MA1999999102051MD1210101+9999REMSYN112AAXX  31064 67143 32582 13010 10240 20180 30205 40212 52010 81200 333 0//00 10253 20166 50//4 55/// 81820 92438;EQDQ01  00002PRCP99
0195671430999992000073109004-21200+048360FM-12+0006FMSM V0203201N005112200019N0400001N1+02501+01881101981ADDAA199000091GA1011+006009089GF101991011021008001001001MA1999999101911MD1710141+9999REMSYN082AAXX  31094 67143 32582 13210 10250 20188 30191 40198 57014 81200 333 81820 92438;EQDQ01  00002PRCP99
0211671430999992000073112004-21200+048360FM-12+0006FMSM V0203201N006212200019N0400001N1+02451+02041101781ADDAA199000091GA1011+006009089GF101991011081008001001001MA1999999101711MD1710201+9999REMSYN098AAXX  31124 67143 32582 13212 10245 20204 30171 40178 57020 81800 333 0//00 81820 92438 555 81640;EQDQ01  00002PRCP99
0224671430999992000073115004-21200+048360FM-12+0006FMSM V0200201N005112200019N0300001N1+02261+02021101801ADDAA199000091GA1011+006009089GF101991011081008001001001KA1120M+02501MA1999999101731MD1510021+9999REMSYN098AAXX  31154 67143 32580 10210 10226 20202 30173 40180 55002 81800 333 10250 81820 92438 555 81640;EQDQ01  00002PRCP99
0201671430999992000080100004-21200+048360FM-12+0006FMSM V0209999C000012200019N0300001N1+01661+01461101981ADDAA199000091GA1011+006009089GF101991011081008001001001MA1999999101911MD1810071+9999REMSYN088AAXX  01004 67143 33580 10000 10166 20146 30191 40198 58007 81800 333 0//00 81820 924/8;EQDQ01  00002PRCP99
0273671430999992000080106004-21200+048360FM-12+0006FMSM V0200401N002110120019N0300001N1+02341+01941102041ADDAA199000091GA1011+006009089GA2061+012009069GF106991061081008001001001KA1120M+02501KA2120N+01721MA1999999101971MD1210111+9999REMSYN118AAXX  01064 67143 32580 60404 10234 20194 30197 40204 52011 86800 333 0//00 10250 20172 50//4 55/// 81820 86640 92438;EQDQ01  00002PRCP99
0217671430999992000080109004-21200+048360FM-12+0006FMSM V0200401N004110120019N0300001N1+02461+02101101981ADDAA199000091GA1031+006009089GA2061+012009069GF107991071081008001999999MA1999999101911MD1810061+9999REMSYN088AAXX  01094 67143 32580 70408 10246 20210 30191 40198 58006 878// 333 83820 86640 92438;EQDQ01  00002PRCP99
0201671430999992000080112004-21200+048360FM-12+0006FMSM V0200401N003112200019N0400001N1+02471+02061101901ADDAA199000091GA1021+006909089GF102991021021012501031001MA1999999101831MD1710081+9999REMSYN088AAXX  01124 67143 32682 20406 10247 20206 30183 40190 57008 82230 333 0//00 82823 92438;EQDQ01  00002PRCP99
0214671430999992000080115004-21200+048360FM-12+0006FMSM V0200401N001012200019N0300001N1+02341+02101101951ADDAA199000091GA1011+006009089GF102991021081008001001001KA1120M+02541MA1999999101881MD1310051+9999REMSYN088AAXX  01154 67143 32580 20402 10234 20210 30188 40195 53005 82800 333 10254 81820 92438;EQDQ01  00002PRCP99
0201671430999992000080200004-21200+048360FM-12+0006FMSM V0200401N001012200019N0300001N1+01811+01621102101ADDAA199000091GA1011+006009089GF101991011081008001001001MA1999999102031MD1810031+9999REMSYN088AAXX  02004 67143 33580 10402 10181 20162 30203 40210 58003 81800 333 0//00 81820 924/8;EQDQ01  00002PRCP99
0195671430999992000080203004-21200+048360FM-12+0006FMSM V0200401N001012200019N0300001N1+01791+01641102121ADDAA199000091GA1021+006009089GF102991021081008001001001MA1999999102051MD1310021+9999REMSYN082AAXX  02034 67143 32580 20402 10179 20164 30205 40212 53002 82800 333 82820 92438;EQDQ01  00002PRCP99
0273671430999992000080206004-21200+048360FM-12+0006FMSM V0202401N001010120019N0300001N1+02261+02041102261ADDAA199000091GA1031+006009089GA2051+012009069GF106991061081008001001001KA1120M+02541KA2120N+01761MA1999999102191MD1210141+9999REMSYN118AAXX  02064 67143 32580 62402 10226 20204 30219 40226 52014 86800 333 0//00 10254 20176 5///4 55/// 83820 85640 92438;EQDQ01  00002PRCP99
0195671430999992000080209004-21200+048360FM-12+0006FMSM V0200801N003112200019N0300001N1+02521+02201102241ADDAA199000091GA1031+006009089GF104991041081008001001001MA1999999102171MD1810021+9999REMSYN082AAXX  02094 67143 32580 40806 10252 20220 30217 40224 58002 84800 333 83820 92438;EQDQ01  00002PRCP99
0233671430999992000080212004-21200+048360FM-12+0006FMSM V0200801N005110120019N0300001N1+02501+02201102141ADDAA199000091GA1031+006009089GA2051+012009069GF106991061081008001031001MA1999999102071MD1710101+9999REMSYN104AAXX  02124 67143 32580 60810 10250 20220 30207 40214 57010 86830 333 0//00 83820 85640 92438 555 81360;EQDQ01  00002PRCP99
0264671430999992000080215004-21200+048360FM-12+0006FMSM V0200401N004110099019N0200001N1+02281+02061102221ADDAA199000091AY121031AY221031GA1031+006009089GA2071+009909069GF107991071081008001999999KA1120M+02581MA1999999102151MD1310081+9999MW1151REMSYN100AAXX  02154 67143 31570 70408 10228 20206 30215 40222 53008 71522 878// 333 10258 83820 87633 92438;EQDQ01  00002PRCP99
0232671430999992000080303004-21200+048360FM-12+0006FMSM V0200401N004110090019N0100001N1+02081+01961102271ADDAA112033091AY161031AY221031GA1041+003009079GA2071+009009069GF108991081051004501999999MA1999999102201MD1310061+9999MW1211REMSYN100AAXX  03034 67143 21460 80408 10208 20196 30220 40227 53006 72162 885// 333 60332 84710 87630 92437;
0304671430999992000080306004-21200+048360FM-12+0006FMSM V0209999C000010099019N0200001N1+02201+02021102401ADDAA124034091AC12C9AY161061AY221061GA1031+003909079GA2061+009909069GF107991071081004501999999KA1120M+02581KA2120N+01941MA1999999102331MD1210131+9999MW1151REMSYN140AAXX  03064 67143 11470 70000 10220 20202 30233 40240 52013 60344 71562 878// 333 0//92 10258 20194 50//4 55/// 83713 86633 92438 555 82820;
0232671430999992000080309004-21200+048360FM-12+0006FMSM V0209999C000010099019N0300001N1+02301+02121102391ADDAA106000591AY161031AY221031GA1031+006009089GA2051+009909069GF106991061081008001001001MA1999999102321MD1810011+9999MW1011REMSYN100AAXX  03094 67143 21580 60000 10230 20212 30232 40239 58001 70162 86800 333 69951 83820 85633 92438;
0244671430999992000080312004-21200+048360FM-12+0006FMSM V0209999C000010099019N0100001N1+02271+02011102201ADDAA106000591AC11I9AY161061AY221061GA1041+006009089GA2061+009909069GF107991071081008001999999MA1999999102131MD1710191+9999MW1151REMSYN106AAXX  03124 67143 11560 70000 10227 20201 30213 40220 57019 69951 71562 878// 333 0//55 84820 86633 92437;
0236671430999992000080400004-21200+048360FM-12+0006FMSM V0209999C000012200019N0300001N1+01821+01661102311ADDAA106002091AC10I9AY161061GA1011+006009089GA2021+012009069GF102991021081999999001001MA1999999102241MD1710051+9999MW1001REMSYN106AAXX  04004 67143 11/80 20000 10182 20166 30224 40231 57005 60021 7006/ 82800 333 0//54 81820 82640 924/8;
0211671430999992000080403004-21200+048360FM-12+0006FMSM V0209999C000012200019N0300001N1+01691+01541102391ADDAA199000091GA1021+006009089GF199999011081008001001001MA1999999102311MD1310081+9999REMSYN082AAXX  04034 67143 32580 10000 10169 20154 30231 40239 53008 81800 333 82820 92438;EQDQ01+000012SCOTCVQ02  00002PRCP99
0260671430999992000080406004-21200+048360FM-12+0006FMSM V0209999C000012200019N0300001N1+02101+01881102491ADDAA124003091GA1011+006009089GA2041+012009069GF104991041081008001001001KA1120M+02501KA2120N+01691MA1999999102421MD1210101+9999REMSYN124AAXX  04064 67143 12580 40000 10210 20188 30242 40249 52010 60034 84800 333 0//59 10250 20169 50//4 55/// 81820 84640 92438;
0217671430999992000080409004-21200+048360FM-12+0006FMSM V0209999C000010120019N0300001N1+02381+02041102331ADDAA199000091GA1031+006009089GA2051+012009069GF106991061081008001001001MA1999999102261MD1810161+9999REMSYN088AAXX  04094 67143 32580 60000 10238 20204 30226 40233 58016 86800 333 83820 85640 92438;EQDQ01  00002PRCP99
0223671430999992000080412004-21200+048360FM-12+0006FMSM V0201201N002112200019N0300001N1+02481+02181102171ADDAA199000091GA1021+006009089GA2031+012009069GF104991041081008001001001MA1999999102101MD1710161+9999REMSYN094AAXX  04124 67143 32580 41204 10248 20218 30210 40217 57016 84800 333 0//00 82820 83640 92438;EQDQ01  00002PRCP99
0261671430999992000080506004-21200+048360FM-12+0006FMSM V0209999C000012200019N0300001N1+02281+01981102231ADDAA199000091GA1011+006009089GF101991011081008001001001KA1120M+02531KA2120N+01691MA1999999102161MD1210101+9999REMSYN122AAXX  05064 67143 32580 10000 10228 20198 30216 40223 52010 81800 333 0//00 10253 20169 50/// 55/// 81820 92438 555 81650;EQDQ01  00002PRCP99
0201671430999992000080512004-21200+048360FM-12+0006FMSM V0201401N003112200019N0400001N1+02431+02071101941ADDAA199000091GA1041+006909089GF104991041081008001001001MA1999999101871MD1710181+9999REMSYN088AAXX  05124 67143 32582 41406 10243 20207 30187 40194 57018 84800 333 0//00 84823 92438;EQDQ01  00002PRCP99
0236671430999992000080515004-21200+048360FM-12+0006FMSM V0201401N002110120019N0300001N1+02281+02041102101ADDAA199000091GA1031+006009089GA2041+012009069GF105991051081004501071001KA1120M+02521MA1999999102031MD1310061+9999REMSYN094AAXX  05154 67143 32480 51404 10228 20204 30203 40210 53006 85870 333 10252 83820 84640 92438;EQDQ01  00002PRCP99
0163671430999992000080603004-21200+048360FM-12+0006FMSM V0209999C000010120019N0300001N1+01901+01741102031ADDAA199000091GF106991061081008001001001MA1999999101961MD1510011+9999REMSYN066AAXX  06034 67143 32580 60000 10190 20174 30196 40203 55001 86800;EQDQ01  00002PRCP99
0217671430999992000080612004-21200+048360FM-12+0006FMSM V0202601N003112200019N0300001N1+02421+02061101931ADDAA199000091GA1011+015009069GF104991041081008001031001MA1999999101861MD1710111+9999REMSYN104AAXX  06124 67143 32580 42606 10242 20206 30186 40193 57011 84830 333 0//00 84820 92438 555 81650 81360;EQDQ01  00002PRCP99
0205671430999992000080703004-21200+048360FM-12+0006FMSM V0202601N001012200019N0300001N1+01601+01491102021ADDAA199000091GA1011+006009089GF101991011081008001001001MA1999999101951MD1510001+9999REMSYN092AAXX  07034 67143 33580 12602 10160 20149 30195 40202 55000 81800 333 81820 92438 555 81640;EQDQ01  00002PRCP99
0261671430999992000080706004-21200+048360FM-12+0006FMSM V0202601N002112200019N0300001N1+02081+01731102151ADDAA199000091GA1021+006009089GF102991021021008001031001KA1120M+02521KA2120N+01581MA1999999102081MD1210131+9999REMSYN122AAXX  07064 67143 32580 22604 10208 20173 30208 40215 52013 82230 333 0//00 10252 20158 50//4 55/// 82820 92438 555 81360;EQDQ01  00002PRCP99
0201671430999992000080712004-21200+048360FM-12+0006FMSM V0202601N003112200019N0400001N1+02421+01901101881ADDAA199000091GA1041+006909089GF104991041021008001001001MA1999999101811MD1710121+9999REMSYN088AAXX  07124 67143 32582 42606 10242 20190 30181 40188 57012 84200 333 0//00 84823 82438;EQDQ01  00002PRCP99
0326671430999992000080715004-21200+048360SY-MT+0006FMSM V0201801N005119999999N0290001N1+02281+01841102011ADDAA199000091GA1021+005109999GA2071+012009999GF103991031081008001001001KA1120M+02511MA1101901101941MD1310131+9999MW1001REMSYN088AAXX  07154 67143 32579 31810 10228 20184 30194 40201 53013 83800 333 10251 83820 92438;MET052FMSM 071500Z 22010KT 9999 FEW017 BKN040 21/19 Q1019;EQDQ01+000000PRSWM2Q02  00002PRCP99Q03 012003SCOCIG
0201671430999992000080800004-21200+048360FM-12+0006FMSM V0209999C000012200019N0300001N1+01701+01531102031ADDAA199000091GA1011+006009089GF101991011081008001001001MA1999999101961MD1710081+9999REMSYN088AAXX  08004 67143 33580 10000 10170 20153 30196 40203 57008 81800 333 0//00 81820 924/8;EQDQ01  00002PRCP99
0273671430999992000080806004-21200+048360FM-12+0006FMSM V0202401N002112200019N0300001N1+02181+01901102271ADDAA199000091GA1011+006009089GA2031+012009069GF103991031081008001001001KA1120M+02511KA2120N+01591MA1999999102201MD1210211+9999REMSYN118AAXX  08064 67143 32580 32404 10218 20190 30220 40227 52021 83800 333 0//00 10251 20159 50//4 55/// 81820 83640 92438;EQDQ01  00002PRCP99
0195671430999992000080809004-21200+048360FM-12+0006FMSM V0202401N003112200019N0300001N1+02401+02001102201ADDAA199000091GA1041+006009089GF104991041021008001031001MA1999999102131MD1810071+9999REMSYN082AAXX  08094 67143 32580 42406 10240 20200 30213 40220 58007 84230 333 84820 92438;EQDQ01  00002PRCP99
0211671430999992000080812004-21200+048360FM-12+0006FMSM V0202401N005112200019N0400001N1+02401+02101102061ADDAA199000091GA1041+006909089GF104991041021008001031001MA1999999101991MD1710141+9999REMSYN098AAXX  08124 67143 32582 42410 10240 20210 30199 40206 57014 84230 333 0//00 84823 92438 555 81360;EQDQ01  00002PRCP99
0236671430999992000080900004-21200+048360FM-12+0006FMSM V0201801N002110099019N0150001N1+01871+01761102151ADDAA106003091AC13C9AY161061GA1041+003909079GA2071+009909069GF108991081051004501999999MA1999999102081MD1710081+9999MW1211REMSYN106AAXX  09004 67143 11465 81804 10187 20176 30208 40215 57008 60031 7216/ 885// 333 0//13 84713 87633 924/7;
0242671430999992000080903004-21200+048360FM-12+0006FMSM V0201801N002110099019N0080001N1+01781+01681102231ADDAA112012091AY161031AY221031GA1031+003909079GA2071+009909069GF108991081081004501999999MA1999999102161MD1310081+9999MW1611REMSYN110AAXX  09034 67143 21458 81804 10178 20168 30216 40223 53008 76162 888// 333 60122 83713 87633 92436 555 82817;
0316671430999992000080906004-21200+048360FM-12+0006FMSM V0202401N002110051019N0200001N1+01961+01801102411ADDAA124015091AC13C9AY161061AY221061GA1021+003909079GA2031+005109089GA3071+009909069GF107991071081004501999999KA1120M+02501KA2120N+01771MA1999999102341MD1210181+9999MW1151REMSYN136AAXX  09064 67143 11470 72404 10196 20180 30234 40241 52018 60154 71562 878// 333 0//13 10250 20177 50//4 55/// 82713 83817 87633 92438;
0214671430999992000080909004-21200+048360FM-12+0006FMSM V0202401N00101012001CN0200001N1+02421+02091102281ADDAA199000021AY121031AY221031GA1041+006009089GF105991051081008001001001MA1999999102211MD1810131+9999MW1151REMSYN098AAXX  09094 67143 31570 52402 10242 20209 30221 40228 58013 71522 85800 333 84820 92438 555 82640;
0210671430999992000080912004-21200+048360FM-12+0006FMSM V0202401N002112200019N0120001N1+02351+02081102121ADDAA199000021AY121061AY211061GA1041+006009089GF104991041081008001001001MA1999999102051MD1710161+9999MW1151REMSYN094AAXX  09124 67143 31562 42404 10235 20208 30205 40212 57016 71521 84800 333 0//00 84820 92438;
0201671430999992000081000004-21200+048360FM-12+0006FMSM V0202401N001012200019N0300001N1+01601+01391102201ADDAA199000091GA1021+006009089GF103991011081008001001001MA1999999102131MD1710081+9999REMSYN088AAXX  10004 67143 33580 32402 10160 20139 30213 40220 57008 81800 333 0//00 82820 924/8;EQDQ01  00002PRCP99
0273671430999992000081006004-21200+048360FM-12+0006FMSM V0209999C000012200019N0300001N1+02161+01801102321ADDAA199000091GA1021+006009089GA2041+012009069GF104991041081008001001001KA1120M+02421KA2120N+01571MA1999999102251MD1210091+9999REMSYN118AAXX  10064 67143 32580 40000 10216 20180 30225 40232 52009 84800 333 0//00 10242 20157 50//4 55/// 82820 84640 92438;EQDQ01  00002PRCP99
0223671430999992000081012004-21200+048360FM-12+0006FMSM V0200601N001010120019N0300001N1+02341+01901101981ADDAA199000091GA1031+006009089GA2061+012009069GF107991071081008001999999MA1999999101911MD1710241+9999REMSYN094AAXX  10124 67143 32580 70602 10234 20190 30191 40198 57024 878// 333 0//00 83820 86640 92438;EQDQ01  00002PRCP99
0236671430999992000081015004-21200+048360FM-12+0006FMSM V0200201N001010099019N0300001N1+02231+01701102081ADDAA199000091GA1021+006009089GA2071+009909069GF107991071081008001999999KA1120M+02431MA1999999102011MD1310101+9999REMSYN094AAXX  10154 67143 32580 70202 10223 20170 30201 40208 53010 878// 333 10243 82820 87633 92438;EQDQ01  00002PRCP99
0236671430999992000081100004-21200+048360FM-12+0006FMSM V0209999C000010090019N0080001N1+01821+01661102061ADDAA106002091AC11C9AY161061GA1041+003009079GA2081+009009069GF108991081051004501999999MA1999999101991MD1710091+9999MW1611REMSYN106AAXX  11004 67143 11458 80000 10182 20166 30199 40206 57009 60021 7616/ 885// 333 0//51 84710 88630 924/6;
0232671430999992000081103004-21200+048360FM-12+0006FMSM V0209999C000010099019N0200001N1+01791+01601102041ADDAA112003091AY161031AY221031GA1031+005109089GA2071+009909069GF108991081081004501999999MA1999999101971MD1510021+9999MW1211REMSYN100AAXX  11034 67143 21470 80000 10179 20160 30197 40204 55002 72162 888// 333 60032 83817 87633 92438;
0294671430999992000081106004-21200+048360FM-12+0006FMSM V0209999C000010099019N0150001N1+02001+01781102151ADDAA124003091AC10I9AY161061AY221061GA1031+005109089GA2071+009909069GF107991071081004501999999KA1120M+02431KA2120N+01741MA1999999102081MD1210111+9999MW1151REMSYN130AAXX  11064 67143 11465 70000 10200 20178 30208 40215 52011 60034 71562 878// 333 0//14 10243 20174 50//4 55/// 83817 87633 92437;
0198671430999992000081109004-21200+048360FM-12+0006FMSM V0209999C000010099019N0300001N1+02301+01861101991ADDAA199000021GA1031+006009089GA2061+009909069GF107991071081008001999999MA1999999101921MD1810161+9999REMSYN088AAXX  11094 67143 32580 70000 10230 20186 30192 40199 58016 878// 333 83820 86633 92438;
0232671430999992000081112004-21200+048360FM-12+0006FMSM V0200401N001010099019N0200001N1+02271+01861101801ADDAA199000021AY121061AY221061GA1031+006009089GA2071+009909069GF107991071081008001999999MA1999999101731MD1710191+9999MW1151REMSYN100AAXX  11124 67143 31570 70402 10227 20186 30173 40180 57019 71522 878// 333 0//00 83820 87633 92438;
0217671430999992000081115004-21200+048360FM-12+0006FMSM V0209999C000010099019N0300001N1+02261+01851101851ADDAA199000021GA1021+006009089GA2071+009909069GF107991071081008001999999KA1120M+02341MA1999999101781MD1310051+9999REMSYN094AAXX  11154 67143 32580 70000 10226 20185 30178 40185 53005 878// 333 10234 82820 87633 92438;
0217671430999992000081203004-21200+048360FM-12+0006FMSM V0209999C000012200019N0300001N1+01741+01581101821ADDAA199000091GA1011+006009089GA2031+012009069GF103991031081008001001001MA1999999101751MD1510011+9999REMSYN088AAXX  12034 67143 32580 30000 10174 20158 30175 40182 55001 83800 333 81820 83640 92438;EQDQ01  00002PRCP99
0301671430999992000081206004-21200+048360FM-12+0006FMSM V0209999C000010099019N0200001N1+02101+01881101961ADDAA199000091AY121061AY211061GA1021+006009089GA2061+009909069GF106991061081008001001001KA1120M+02341KA2120N+01681MA1999999101891MD1210141+9999MW1151REMSYN124AAXX  12064 67143 31570 60000 10210 20188 30189 40196 52014 71521 86800 333 0//00 10234 20168 50//4 55/// 82820 86633 92438;EQDQ01  00002PRCP99
0201671430999992000081212004-21200+048360FM-12+0006FMSM V0203401N002112200019N0300001N1+02431+02041101661ADDAA199000091GA1031+006909089GF103991031021008001001001MA1999999101591MD1710211+9999REMSYN088AAXX  12124 67143 32580 33404 10243 20204 30159 40166 57021 83200 333 0//00 83823 92438;EQDQ01  00002PRCP99
0235671430999992000081300004-21200+048360FM-12+0006FMSM V0209999C000010099019N0200001N1+02051+01811101901ADDAA199000091GA1021+005109089GA2041+009909069GF105991051081004501001001MA1999999101831MD1710021+9999MW1151REMSYN100AAXX  13004 67143 31470 50000 10205 20181 30183 40190 57002 715// 85800 333 0//00 82817 84633 924/8;EQDQ01  00002PRCP99
0261671430999992000081306004-21200+048360FM-12+0006FMSM V0209999C000012200019N0300001N1+02421+02081102021ADDAA199000091GA1031+006009089GF104991041081008001001001KA1120M+02441KA2120N+01971MA1999999101951MD1110101+9999REMSYN122AAXX  13064 67143 32580 40000 10242 20208 30195 40202 51010 84800 333 0//00 10244 20197 5///4 55/// 83820 92438 555 82640;EQDQ01  00002PRCP99
0201671430999992000081312004-21200+048360FM-12+0006FMSM V0203601N002112200019N0400001N1+02501+02001101861ADDAA199000091GA1031+006909089GF103991031081008001001001MA1999999101791MD1610121+9999REMSYN088AAXX  13124 67143 32582 33604 10250 20200 30179 40186 56012 83800 333 0//00 83823 92438;EQDQ01  00002PRCP99
0214671430999992000081315004-21200+048360FM-12+0006FMSM V0203401N001012200019N0300001N1+02291+01881101911ADDAA199000091GA1011+006009089GF101991011081008001001001KA1120M+02531MA1999999101841MD1310051+9999REMSYN088AAXX  13154 67143 32580 13402 10229 20188 30184 40191 53005 81800 333 10253 81820 92438;EQDQ01  00002PRCP99
0201671430999992000081400004-21200+048360FM-12+0006FMSM V0209999C000012200019N0300001N1+01681+01501101981ADDAA199000091GA1011+006009089GF101991011081008001001001MA1999999101911MD1810031+9999REMSYN088AAXX  14004 67143 33580 10000 10168 20150 30191 40198 58003 81800 333 0//00 81820 924/8;EQDQ01  00002PRCP99
0251671430999992000081406004-21200+048360FM-12+0006FMSM V0209999C000012200019N0300001N1+02081+01621102131ADDAA199000091GA1011+006009089GF101991011021008001001001KA1120M+02531KA2120N+01551MA1999999102061MD1210141+9999REMSYN112AAXX  14064 67143 32580 10000 10208 20162 30206 40213 52014 81200 333 0//00 10253 20155 50//4 55/// 81820 92438;EQDQ01  00002PRCP99
0201671430999992000081412004-21200+048360FM-12+0006FMSM V0200401N003112200019N0400001N1+02441+02041101881ADDAA199000091GA1031+006909089GF103991031021008001001001MA1999999101811MD1710201+9999REMSYN088AAXX  14124 67143 32582 30406 10244 20204 30181 40188 57020 83200 333 0//00 83823 92438;EQDQ01  00002PRCP99
0205671430999992000081503004-21200+048360FM-12+0006FMSM V0202401N001012200019N0300001N1+01721+01581102121ADDAA199000091GA1041+006009089GF104991041081008001001001MA1999999102051MD1510011+9999REMSYN092AAXX  15034 67143 32580 42402 10172 20158 30205 40212 55001 84800 333 84820 92438 555 81640;EQDQ01  00002PRCP99
0317671430999992000081506004-21200+048360FM-12+0006FMSM V0201601N001010099019N0200001N1+01921+01701102301ADDAA199000091AY121061AY211061GA1031+006009089GA2071+009909069GF199999071081008001999999KA1120M+02511KA2120N+01661MA1999999102231MD1210181+9999MW1151REMSYN124AAXX  15064 67143 31570 61602 10192 20170 30223 40230 52018 71521 878// 333 0//00 10251 20166 50//4 55/// 83820 87633 92438;EQDQ01+000062SCOTCVQ02  00002PRCP99
0245671430999992000081509004-21200+048360FM-12+0006FMSM V0201601N001010099019N0200001N1+02301+02021102281ADDAA199000091AY121031AY221031GA1041+006009089GA2051+009909069GF106991061081008001001001MA1999999102211MD1810021+9999MW1151REMSYN094AAXX  15094 67143 31570 61602 10230 20202 30221 40228 58002 71522 86800 333 84820 85633 92438;EQDQ01  00002PRCP99
0201671430999992000081512004-21200+048360FM-12+0006FMSM V0200401N002112200019N0300001N1+02461+02101102151ADDAA199000091GA1041+006009089GF104991041021008001001001MA1999999102081MD1710131+9999REMSYN088AAXX  15124 67143 32580 40404 10246 20210 30208 40215 57013 84200 333 0//00 84820 92438;EQDQ01  00002PRCP99
0214671430999992000081515004-21200+048360FM-12+0006FMSM V0200601N002112200019N0300001N1+02321+02051102221ADDAA199000091GA1041+006009089GF104991041081008001001001KA1120M+02501MA1999999102151MD1310071+9999REMSYN088AAXX  15154 67143 32580 40604 10232 20205 30215 40222 53007 84800 333 10250 84820 92438;EQDQ01  00002PRCP99
0236671430999992000081600004-21200+048360FM-12+0006FMSM V0202201N002110099019N0100001N1+01821+01691102361ADDAA106016091AC10I9AY161061GA1031+003909079GA2071+009909069GF108991081081004501999999MA1999999102291MD1310331+9999MW1611REMSYN106AAXX  16004 67143 11460 82204 10182 20169 30229 40236 53033 60161 7616/ 888// 333 0//24 83713 87633 924/7;
0232671430999992000081603004-21200+048360FM-12+0006FMSM V0202001N002110099019N0200001N1+01781+01621102411ADDAA112017091AY161031AY221031GA1031+006009089GA2041+009909069GF107991051081008001001001MA1999999102341MD1310051+9999MW1211REMSYN100AAXX  16034 67143 21570 72004 10178 20162 30234 40241 53005 72162 85800 333 60172 83820 84633 92438;
0288671430999992000081606004-21200+048360FM-12+0006FMSM V0202001N001010099019N0080001N1+02001+01891102531ADDAA124019191AY161061AY221061GA1041+003909079GA2071+009909069GF108991081081004501999999KA1120M+02501KA2120N+01781MA1999999102461MD1210121+9999MW1611REMSYN130AAXX  16064 67143 11458 82002 10200 20189 30246 40253 52012 60194 76162 888// 333 0//99 10250 20178 50//4 55/// 84713 87633 92436;
0254671430999992000081609004-21200+048360FM-12+0006FMSM V0202401N001010060019N0150001N1+02121+01921102481ADDAA106015091AY161031AY221031GA1021+003909079GA2041+006009089GA3061+009909069GF107991071081004501999999MA1999999102411MD1810051+9999MW1211REMSYN106AAXX  16094 67143 21465 72402 10212 20192 30241 40248 58005 72162 878// 333 60151 82713 84820 86633 92437;
0244671430999992000081612004-21200+048360FM-12+0006FMSM V0200401N003110099019N0200001N1+02321+02031102301ADDAA106015091AC10I9AY161061AY221061GA1041+006009089GA2041+009909069GF106991061081008001001001MA1999999102231MD1710181+9999MW1151REMSYN106AAXX  16124 67143 11570 60406 10232 20203 30223 40230 57018 60151 71562 86800 333 0//24 84820 84633 92438;
0217671430999992000081615004-21200+048360FM-12+0006FMSM V0203601N001012200019N0300001N1+02221+02061102331ADDAA199000021GA1021+006009089GA2031+012009069GF104991041081008001001001KA1120M+02481MA1999999102261MD1310031+9999REMSYN094AAXX  16154 67143 32580 43602 10222 20206 30226 40233 53003 84800 333 10248 82820 83640 92438;
0223671430999992000081700004-21200+048360FM-12+0006FMSM V0202201N001010099019N0300001N1+01921+01791102271ADDAA199000091GA1011+006009089GA2051+009909069GF105991051081008001001001MA1999999102201MD1710101+9999REMSYN094AAXX  17004 67143 33580 52202 10192 20179 30220 40227 57010 85800 333 0//00 81820 85633 924/8;EQDQ01  00002PRCP99
0217671430999992000081703004-21200+048360FM-12+0006FMSM V0202401N001010099019N0300001N1+01801+01701102281ADDAA199000091GA1021+006009089GA2071+009909069GF107991071081008001999999MA1999999102211MD1310011+9999REMSYN088AAXX  17034 67143 32580 72402 10180 20170 30221 40228 53001 878// 333 82820 87633 92438;EQDQ01  00002PRCP99
0301671430999992000081706004-21200+048360FM-12+0006FMSM V0209999C000010120019N0200001N1+02101+01921102401ADDAA199000091AY121061AY221061GA1021+006009089GA2061+012009069GF107991071081008001999999KA1120M+02481KA2120N+01801MA1999999102331MD1210121+9999MW1151REMSYN124AAXX  17064 67143 31570 70000 10210 20192 30233 40240 52012 71522 878// 333 0//00 10248 20180 50//4 55/// 82820 86640 92438;EQDQ01  00002PRCP99
0233671430999992000081709004-21200+048360FM-12+0006FMSM V0200601N00211012001CN0200001N1+02441+02171102251ADDAA199000091AY121031AY221031GA1041+006009089GF105991051081008001001001MA1999999102181MD1810151+9999MW1151REMSYN098AAXX  17094 67143 31570 50604 10244 20217 30218 40225 58015 71522 85800 333 84820 92438 555 82640;EQDQ01  00002PRCP99
0251671430999992000081712004-21200+048360FM-12+0006FMSM V0200201N002110099019N0200001N1+02261+01951102081ADDAA199000091AY121061AY221061GA1021+006009089GA2071+009909069GF107991071081008001999999MA1999999102011MD1710171+9999MW1151REMSYN100AAXX  17124 67143 31570 70204 10226 20195 30201 40208 57017 71522 878// 333 0//00 82820 87633 92438;EQDQ01  00002PRCP99
0272671430999992000081806004-21200+048360FM-12+0006FMSM V0209999C000012200019N0300001N1+02371+02181102331ADDAA124003091AC12I9AY161061AY221061GA1041+006009089GF104991041081008001001001KA1120M+02511KA2120N+01831MA1999999102261MD1210121+9999MW1021REMSYN124AAXX  18064 67143 11580 40000 10237 20218 30226 40233 52012 60034 70262 84800 333 0//16 10251 20183 50//4 55/// 84820 92438;
0211671430999992000081812004-21200+048360FM-12+0006FMSM V0203601N002112200019N0300001N1+02451+02121102031ADDAA199000091GA1031+006009089GF103991031081008001001001MA1999999101961MD1710151+9999REMSYN098AAXX  18124 67143 32580 33604 10245 20212 30196 40203 57015 83800 333 0//00 83820 92438 555 81640;EQDQ01  00002PRCP99
0236671430999992000081900004-21200+048360FM-12+0006FMSM V0203201N001010099019N0200001N1+02001+01881102121ADDAA106002091AC11I9AY161061GA1011+006009089GA2051+009909069GF105991051081008001001001MA1999999102051MD1710071+9999MW1151REMSYN106AAXX  19004 67143 11570 53202 10200 20188 30205 40212 57007 60021 7156/ 85800 333 0//15 81820 85633 924/8;
0204671430999992000081903004-21200+048360FM-12+0006FMSM V0209999C000012200019N0300001N1+01901+01741102201ADDAA112002091GA1011+006009089GA2041+009909069GF104991041081008001001001MA1999999102131MD1310081+9999REMSYN094AAXX  19034 67143 22580 40000 10190 20174 30213 40220 53008 84800 333 60022 81820 84633 92438;
0244671430999992000081906004-21200+048360FM-12+0006FMSM V0203001N003112200019N0300001N1+02381+02111102271ADDAA124002091AC13I9GA1021+006009089GF102991021021008001001001KA1120M+02541KA2120N+01881MA1999999102201MD1210071+9999REMSYN118AAXX  19064 67143 12580 23006 10238 20211 30220 40227 52007 60024 82200 333 0//18 10254 20188 50//4 55/// 82820 92438;
0195671430999992000081909004-21200+048360FM-12+0006FMSM V0203601N003112200019N0300001N1+02541+02221102151ADDAA199000091GA1031+006009089GF103991031021008001001001MA1999999102081MD1810121+9999REMSYN082AAXX  19094 67143 32580 33606 10254 20222 30208 40215 58012 83200 333 83820 92438;EQDQ01  00002PRCP99
0223671430999992000081912004-21200+048360FM-12+0006FMSM V0203601N004112200019N0400001N1+02541+02241101991ADDAA199000091GA1011+006909089GA2031+015009069GF103991031081008001031001MA1999999101921MD1210161+9999REMSYN094AAXX  19124 67143 32582 33608 10254 20224 30192 40199 52016 83830 333 0//00 81823 83650 92438;EQDQ01  00002PRCP99
0236671430999992000081915004-21200+048360FM-12+0006FMSM V0203601N002112200019N0300001N1+02321+02171102121ADDAA199000091GA1011+006009089GA2031+012009069GF103991031081008001001001KA1120M+02611MA1999999102051MD1310131+9999REMSYN094AAXX  19154 67143 32580 33604 10232 20217 30205 40212 53013 83800 333 10261 81820 83640 92438;EQDQ01  00002PRCP99
0217671430999992000082003004-21200+048360FM-12+0006FMSM V0209999C000010099019N0300001N1+01981+01841102301ADDAA199000091GA1011+006009089GA2061+009909069GF106991061081008001001001MA1999999102231MD1310051+9999REMSYN088AAXX  20034 67143 32580 60000 10198 20184 30223 40230 53005 86800 333 81820 86633 92436;EQDQ01  00002PRCP99
0294671430999992000082006004-21200+048360FM-12+0006FMSM V0209999C000010099019N0150001N1+02131+01961102401ADDAA124000591AC11C9AY161061AY221061GA1031+005109089GA2071+009909069GF107991071081004501999999KA1120M+02611KA2120N+01901MA1999999102331MD1210101+9999MW1211REMSYN130AAXX  20064 67143 11465 70000 10213 20196 30233 40240 52010 69944 72162 878// 333 0//11 10261 20190 50//4 55/// 83817 87633 92437;
0226671430999992000082009004-21200+048360FM-12+0006FMSM V0200601N006210099019N0200001N1+02301+02061102381ADDAA199000021AY121031AY221031GA1031+006009089GA2061+009909069GF107991071081008001999999MA1999999102311MD1810021+9999MW1151REMSYN094AAXX  20094 67143 31570 70612 10230 20206 30231 40238 58002 71522 878// 333 83820 86633 92438;
0254671430999992000082012004-21200+048360FM-12+0006FMSM V0201601N002110099019N0150001N1+01981+01851102281ADDAA106000591AC11C9AY121061AY221061GA1031+006009089GA2051+009909069GF107991051081008001071001MA1999999102211MD1710101+9999MW1211REMSYN116AAXX  20124 67143 11565 71604 10198 20185 30221 40228 57010 69951 72122 85870 333 0//11 83820 85633 92437 555 83460;
0255671430999992000082015004-21200+048360FM-12+0006FMSM V0202001N001010099019N0200001N1+02181+01941102341ADDAA199000021AY121031AY221031GA1031+005109089GA2061+009909069GF107991061081004501071999KA1120M+02501MA1999999102271MD1310061+9999MW1151REMSYN110AAXX  20154 67143 31470 72002 10218 20194 30227 40234 53006 71522 8687/ 333 10250 83817 86633 92438 555 82460;
0232671430999992000082103004-21200+048360FM-12+0006FMSM V0202201N001010090019N0080001N1+01801+01721102341ADDAA112020091AY161031AY221031GA1031+003009079GA2071+009009069GF108991081051004501999999MA1999999102271MD1310021+9999MW1611REMSYN100AAXX  21034 67143 21458 82202 10180 20172 30227 40234 53002 76162 885// 333 60202 83710 87630 92436;
0304671430999992000082106004-21200+048360FM-12+0006FMSM V0202201N001010090019N0200001N1+01911+01761102431ADDAA124023191AC11C9AY161061AY221061GA1031+003909079GA2071+009009069GF108991081081004501999999KA1120M+02501KA2120N+01801MA1999999102361MD1210091+9999MW1211REMSYN140AAXX  21064 67143 11470 82202 10191 20176 30236 40243 52009 60234 72162 888// 333 0//51 10250 20180 5///4 55/// 83713 87630 92438 555 82817;
0232671430999992000082109004-21200+048360FM-12+0006FMSM V0209999C000010099019N0150001N1+02201+01981102381ADDAA106000591AY161031AY221031GA1021+006009089GA2071+009909069GF107991071081008001999999MA1999999102311MD1810051+9999MW1151REMSYN100AAXX  21094 67143 21565 70000 10220 20198 30231 40238 58005 71562 878// 333 69951 82820 87633 92438;
0244671430999992000082112004-21200+048360FM-12+0006FMSM V0200401N004110099019N0200001N1+02291+02031102231ADDAA106000591AC11I9AY161061AY221061GA1031+006009089GA2071+009909069GF107991071081008001999999MA1999999102161MD1710151+9999MW1151REMSYN106AAXX  21124 67143 11570 70408 10229 20203 30216 40223 57015 69951 71562 878// 333 0//55 83820 87633 92438;
0245671430999992000082115004-21200+048360FM-12+0006FMSM V0209999C000010099019N0200001N1+02001+01781102321ADDAA199000021AY121031AY221031GA1031+006009089GA2051+009909069GF106991031081008001001001KA1120M+02401MA1999999102251MD1310091+9999MW1151REMSYN100AAXX  21154 67143 31570 60000 10200 20178 30225 40232 53009 71522 83800 333 10240 83820 85633 92438;
0201671430999992000082200004-21200+048360FM-12+0006FMSM V0202201N002112200019N0300001N1+01741+01581102281ADDAA199000091GA1011+006009089GF102991021081008001001001MA1999999102211MD1710101+9999REMSYN088AAXX  22004 67143 33580 22204 10174 20158 30221 40228 57010 82800 333 0//00 81820 924/8;EQDQ01  00002PRCP99
0107671430999992000082203004-21200+048360FM-12+0006FMSM V02099999999999999999N9999999N1+99999+99999102251ADDMA1999999102181MD1510031+9999REMSYN066AAXX  22034 67143 ///// ///// 20156 30218 40225 55003 7120/ 85800;
0301671430999992000082206004-21200+048360FM-12+0006FMSM V0202001N001010099019N0150001N1+01941+01781102391ADDAA199000091AY121061AY211061GA1021+006009089GA2071+009909069GF107991071081008001999999KA1120M+02401KA2120N+01671MA1999999102321MD1210141+9999MW1151REMSYN124AAXX  22064 67143 31565 72002 10194 20178 30232 40239 52014 71521 878// 333 0//00 10240 20167 5///4 55/// 82820 87633 92438;EQDQ01  00002PRCP99
0217671430999992000082209004-21200+048360FM-12+0006FMSM V0200601N002110099019N0300001N1+02301+02001102281ADDAA199000091GA1031+006009089GA2061+009909069GF106991061081008001001001MA1999999102211MD1810111+9999REMSYN088AAXX  22094 67143 32580 60604 10230 20200 30221 40228 58011 86800 333 83820 86633 92438;EQDQ01  00002PRCP99
0201671430999992000082212004-21200+048360FM-12+0006FMSM V0200601N003112200019N0400001N1+02381+02021102081ADDAA199000091GA1041+006909089GF104991041021008001001001MA1999999102011MD1710201+9999REMSYN088AAXX  22124 67143 32582 40606 10238 20202 30201 40208 57020 84200 333 0//00 84823 92438;EQDQ01  00002PRCP99
0224671430999992000082215004-21200+048360FM-12+0006FMSM V0200401N002112200019N0300001N1+02181+02021102171ADDAA199000091GA1031+006009089GF103991031081008001001001KA1120M+02431MA1999999102101MD1310091+9999REMSYN098AAXX  22154 67143 32580 30404 10218 20202 30210 40217 53009 83800 333 10243 83820 92438 555 81640;EQDQ01  00002PRCP99
0204671430999992000082303004-21200+048360FM-12+0006FMSM V0209999C000012200019N0300001N1+01691+01541102421ADDAA112003091GA1011+006009089GA2031+009909069GF103991031081008001001001MA1999999102351MD1310121+9999REMSYN094AAXX  23034 67143 22580 30000 10169 20154 30235 40242 53012 83800 333 60032 81820 83633 92438;
0261671430999992000082306004-21200+048360FM-12+0006FMSM V0202401N001012200019N0350001N1+02241+01991102581ADDAA199000091GA1011+006009089GF101991011081008001001001KA1120M+02431KA2120N+01661MA1999999102511MD1210161+9999REMSYN122AAXX  23064 67143 32581 12402 10224 20199 30251 40258 52016 81800 333 0//00 10243 20166 50//4 55/// 81820 92438 555 81640;EQDQ01  00002PRCP99
0217671430999992000082309004-21200+048360FM-12+0006FMSM V0200401N005110099019N0300001N1+02221+02041102521ADDAA199000091GA1021+005109089GA2061+009909069GF107991071081004501999999MA1999999102451MD1810061+9999REMSYN088AAXX  23094 67143 32480 70410 10222 20204 30245 40252 58006 878// 333 82817 86633 92438;EQDQ01  00002PRCP99
0251671430999992000082312004-21200+048360FM-12+0006FMSM V0200201N003110099019N0150001N1+02321+02081102371ADDAA199000091AY121061AY221061GA1031+006009089GA2061+009909069GF107991071081008001999999MA1999999102301MD1710151+9999MW1151REMSYN100AAXX  23124 67143 31565 70206 10232 20208 30230 40237 57015 71522 878// 333 0//00 83820 86633 92438;EQDQ01  00002PRCP99
0162671430999992000082315004-21200+048360FM-15+0006FMSM V0201201N005110120019N0112651N1+02301+01701999999ADDGA1021+005109999GA2071+012009999GF107991999999999999999999MA1102401999999MW1001REMMET052FMSM 231500Z 12010KT 9999 SCT017 BKN040 23/17 Q1024;EQDQ01+000000PRSWM2
0202671430999992000082400004-21200+048360FM-12+0006FMSM V0202401N001012200019N0350001N1+01801+01641102401ADDAA106000191AY161061GA1011+006009089GF101991011081008001001001MA1999999102331MD1710121+9999MW1001REMSYN094AAXX  24004 67143 11581 12402 10180 20164 30233 40240 57012 69921 7006/ 81800 333 81820 924//;
0182671430999992000082403004-21200+048360FM-12+0006FMSM V0202401N001012200019N0300001N1+01681+01511102441ADDAA112000291GA1011+006009089GF102991021081008001001001MA1999999102371MD1310041+9999REMSYN088AAXX  24034 67143 22580 22402 10168 20151 30237 40244 53004 82800 333 69922 81820 92438;
0282671430999992000082406004-21200+048360FM-12+0006FMSM V0202201N002110099019N0250001N1+01981+01821102561ADDAA124000591AY161061AY201061GA1021+005109089GA2061+009909069GF107991071081004501999999KA1120M+02441KA2120N+01681MA1999999102491MD1210121+9999MW1211REMSYN124AAXX  24064 67143 11475 72204 10198 20182 30249 40256 52012 69944 72160 878// 333 10244 20168 50//4 55/// 82817 86633 92438;
0226671430999992000082409004-21200+048360FM-12+0006FMSM V0200201N006210099019N0200001N1+02041+01901102461ADDAA199000021AY121031AY221031GA1021+005109089GA2061+009909069GF107991071081004501999999MA1999999102391MD1810101+9999MW1151REMSYN094AAXX  24094 67143 31470 70212 10204 20190 30239 40246 58010 71522 878// 333 82817 86633 92438;
0232671430999992000082412004-21200+048360FM-12+0006FMSM V0200401N004110099019N0200001N1+02201+01931102311ADDAA199000021AY121061AY221061GA1021+006009089GA2051+009909069GF106991061081008001001001MA1999999102241MD1710151+9999MW1151REMSYN100AAXX  24124 67143 31570 60408 10220 20193 30224 40231 57015 71522 86800 333 0//00 82820 85633 92438;
0245671430999992000082415004-21200+048360FM-12+0006FMSM V0200201N005110099019N0200001N1+02061+01891102401ADDAA199000021AY121031AY221031GA1031+005109089GA2061+009909069GF107991071081004501999999KA1120M+02501MA1999999102331MD1310091+9999MW1151REMSYN100AAXX  24154 67143 31470 70210 10206 20189 30233 40240 53009 71522 878// 333 10250 83817 86633 92438;
0212671430999992000082500004-21200+048360FM-12+0006FMSM V0202401N001012200019N0300001N1+01781+01621102221ADDAA106000191AY161061GA1021+005109089GF103991031081004501001001MA1999999102151MD1710111+9999MW1001REMSYN104AAXX  25004 67143 11480 32402 10178 20162 30215 40222 57011 69921 7006/ 83800 333 82817 924/8 555 82633;
0232671430999992000082503004-21200+048360FM-12+0006FMSM V0201601N001010099019N0200001N1+01721+01581102261ADDAA112000291AY161031AY221031GA1031+005109089GA2051+009909069GF107991071081004501999999MA1999999102191MD1310041+9999MW1151REMSYN100AAXX  25034 67143 21470 71602 10172 20158 30219 40226 53004 71562 878// 333 69922 83817 85633 92438;
0201671430999992000082512004-21200+048360FM-12+0006FMSM V0201601N002112200019N0300001N1+02401+02131102071ADDAA199000091GA1031+006009089GF103991031081008001001001MA1999999102001MD1710191+9999REMSYN088AAXX  25124 67143 32580 31604 10240 20213 30200 40207 57019 83800 333 0//00 83820 92438;EQDQ01  00002PRCP99
0214671430999992000082515004-21200+048360FM-12+0006FMSM V0203601N005119999999N0350001N1+02241+02021102181ADDAA199000091GA1011+006009089GF106991011081008001001001KA1120M+02421MA1999999102111MD1310111+9999REMSYN088AAXX  25154 67143 32581 63610 10224 20202 30211 40218 53011 81800 333 10242 81820 92438;EQDQ01  00002PRCP99
0229671430999992000082603004-21200+048360FM-12+0006FMSM V0202401N001010099019N0200001N1+01701+01541102211ADDAA199000091GA1011+005109089GA2071+009909069GF107991071081004501999999MA1999999102141MD1310031+9999MW1151REMSYN094AAXX  26034 67143 31470 72402 10170 20154 30214 40221 53003 715// 878// 333 81817 87633 924/8;EQDQ01  00002PRCP99
0301671430999992000082606004-21200+048360FM-12+0006FMSM V0202001N001010099019N0200001N1+02001+01841102351ADDAA199000091AY121061AY221061GA1031+005109089GA2051+009909069GF107991071081004501999999KA1120M+02421KA2120N+01701MA1999999102281MD1210141+9999MW1151REMSYN124AAXX  26064 67143 31470 72002 10200 20184 30228 40235 52014 71522 878// 333 0//00 10242 20170 50//4 55/// 83817 85633 92438;EQDQ01  00002PRCP99
0251671430999992000082812004-21200+048360FM-12+0006FMSM V0200601N004110099019N0200001N1+02201+01981102201ADDAA199000091AY121061AY221061GA1031+005109089GA2051+009909069GF107991071081004501999999MA1999999102131MD1710131+9999MW1151REMSYN100AAXX  28124 67143 31470 70608 10220 20198 30213 40220 57013 71522 878// 333 0//00 83817 85633 92438;EQDQ01  00002PRCP99
0217671430999992000082903004-21200+048360FM-12+0006FMSM V0202601N001010099019N0300001N1+01881+01721102211ADDAA199000091GA1021+005109089GA2061+009909069GF107991071081004501999999MA1999999102141MD1510001+9999REMSYN088AAXX  29034 67143 33480 72602 10188 20172 30214 40221 55000 878// 333 82817 86633 92438;EQDQ01  00002PRCP99
0273671430999992000082906004-21200+048360FM-12+0006FMSM V0202801N001010120019N0300001N1+02141+01891102351ADDAA199000091GA1021+006009089GA2041+012009069GF105991051081008001001001KA1120M+02361KA2120N+01851MA1999999102281MD1210141+9999REMSYN118AAXX  29064 67143 32580 52802 10214 20189 30228 40235 52014 85800 333 0//00 10236 20185 50//4 55/// 82820 84640 92438;EQDQ01  00002PRCP99
0205671430999992000082909004-21200+048360FM-12+0006FMSM V0200601N003112200019N0300001N1+02461+02101102231ADDAA199000091GA1031+006009089GF104991041081008001001001MA1999999102161MD1810101+9999REMSYN092AAXX  29094 67143 32580 40606 10246 20210 30216 40223 58010 84800 333 83820 92438 555 82640;EQDQ01  00002PRCP99
0217671430999992000083003004-21200+048360FM-12+0006FMSM V0200601N001012200019N0300001N1+01641+01441102181ADDAA199000091GA1011+006009089GA2031+012009069GF103991031081008001001001MA1999999102031MD1310041+9999REMSYN088AAXX  30034 67143 33580 30602 10164 20144 30203 40218 53004 83800 333 81820 83640 92438;EQDQ01  00002PRCP99
0251671430999992000083006004-21200+048360FM-12+0006FMSM V0200601N001012200019N0300001N1+02361+01991102251ADDAA199000091GA1011+006009089GF101991011081008001001001KA1120M+02461KA2120N+01641MA1999999102151MD1210121+9999REMSYN112AAXX  30064 67143 32580 10602 10236 20199 30215 40225 52012 81800 333 0//00 10246 20164 50//4 55/// 81820 92438;EQDQ01  00002PRCP99
0217671430999992000083009004-21200+048360FM-12+0006FMSM V0202801N003110120019N0300001N1+02301+02061102081ADDAA199000091GA1011+006009089GA2061+012009069GF106991061081008001001001MA1999999102011MD1810141+9999REMSYN088AAXX  30094 67143 32580 62806 10230 20206 30201 40208 58014 86800 333 81820 86640 92438;EQDQ01  00002PRCP99
0233671430999992000083012004-21200+048360FM-12+0006FMSM V0203401N004112200019N0300001N1+02401+02071101891ADDAA199000091GA1011+006009089GA2031+012009069GF103991031081008001001021MA1999999101821MD1710191+9999REMSYN104AAXX  30124 67143 32580 33408 10240 20207 30182 40189 57019 83802 333 0//00 81820 83640 92438 555 82073;EQDQ01  00002PRCP99
0236671430999992000083015004-21200+048360FM-12+0006FMSM V0203401N008212200019N0300001N1+02241+02031101901ADDAA199000091GA1011+006009089GA2031+012009069GF103991031081008001001001KA1120M+02501MA1999999101831MD1610011+9999REMSYN094AAXX  30154 67143 32580 33416 10224 20203 30183 40190 56001 83800 333 10250 81820 83640 92438;EQDQ01  00002PRCP99
0261671430999992000083106004-21200+048360FM-12+0006FMSM V0203601N006212200019N0400001N1+02501+02131102041ADDAA199000091GA1011+006009089GF101991011081008001001001KA1120M+02501KA2120N+01761MA1999999101971MD1210161+9999REMSYN122AAXX  31064 67143 32582 13612 10250 20213 30197 40204 52016 81800 333 0//00 10250 20176 50//4 55/// 81820 92438 555 81640;EQDQ01  00002PRCP99
0205671430999992000083109004-21200+048360FM-12+0006FMSM V0203601N008212200019N0400001N1+02581+02201101871ADDAA199000091GA1021+006009089GF102991021081008001001001MA1999999101801MD1810171+9999REMSYN092AAXX  31094 67143 32582 23616 10258 20220 30180 40187 58017 82800 333 82820 92438 555 81640;EQDQ01  00002PRCP99
0201671430999992000083112004-21200+048360FM-12+0006FMSM V0200401N005112200019N0400001N1+02501+02201101731ADDAA199000091GA1011+006009089GF101991011081008001001001MA1999999101661MD1310141+9999REMSYN088AAXX  31124 67143 32582 10410 10250 20220 30166 40173 53014 81800 333 0//00 81820 92438;EQDQ01  00002PRCP99
0214671430999992000083115004-21200+048360FM-12+0006FMSM V0200401N004112200019N0400001N1+02301+02021101881ADDAA199000091GA1011+006009089GF101991011081008001001001KA1120M+02501MA1999999101811MD1310081+9999REMSYN088AAXX  31154 67143 32582 10408 10230 20202 30181 40188 53008 81800 333 10250 81820 92438;EQDQ01  00002PRCP99
0195671430999992000090103004-21200+048360FM-12+0006FMSM V0200401N001012200019N0300001N1+01781+01621101911ADDAA199000091GA1011+006009089GF101991011081008001001001MA1999999101841MD1310011+9999REMSYN082AAXX  01034 67143 33580 10402 10178 20162 30184 40191 53001 81800 333 81820 92438;EQDQ01  00002PRCP99
0251671430999992000090106004-21200+048360FM-12+0006FMSM V0200401N005112200019N0400001N1+02501+02171102021ADDAA199000091GA1011+006009089GF101991011011008001001001KA1120M+02581KA2120N+01781MA1999999101951MD1210111+9999REMSYN112AAXX  01064 67143 32582 10410 10250 20217 30195 40202 52011 81100 333 0//00 10258 20178 50//4 55/// 81820 92438;EQDQ01  00002PRCP99
0195671430999992000090109004-21200+048360FM-12+0006FMSM V0200401N005112200019N0400001N1+02581+02261102021ADDAA199000091GA1011+006009089GF101991011011008001001001MA1999999101951MD1810051+9999REMSYN082AAXX  01094 67143 32582 10410 10258 20226 30195 40202 58005 81100 333 81820 92438;EQDQ01  00002PRCP99
0201671430999992000090112004-21200+048360FM-12+0006FMSM V0200401N006212200019N0400001N1+02501+02251101881ADDAA199000091GA1011+006009089GF101991011011008001001001MA1999999101811MD1710141+9999REMSYN088AAXX  01124 67143 32582 10412 10250 20225 30181 40188 57014 81100 333 0//00 81820 92438;EQDQ01  00002PRCP99
0224671430999992000090115004-21200+048360FM-12+0006FMSM V0200401N005112200019N0300001N1+02361+02141101971ADDAA199000091GA1031+005109089GF103991031081004501001001KA1120M+02581MA1999999101901MD1310091+9999REMSYN098AAXX  01154 67143 32480 30410 10236 20214 30190 40197 53009 83800 333 10258 83817 92438 555 81633;EQDQ01  00002PRCP99
0217671430999992000090203004-21200+048360FM-12+0006FMSM V0202601N001010120019N0300001N1+01731+01541102101ADDAA199000091GA1031+006009089GA2041+012009069GF106991061081008001001001MA1999999102031MD1310131+9999REMSYN088AAXX  02034 67143 33580 62602 10173 20154 30203 40210 53013 86800 333 83820 84640 92438;EQDQ01  00002PRCP99
0261671430999992000090206004-21200+048360FM-12+0006FMSM V0202801N003112200019N0300001N1+02561+02241102241ADDAA199000091GA1041+006009089GF104991041081008001001001KA1120M+02581KA2120N+01731MA1999999102171MD1210141+9999REMSYN122AAXX  02064 67143 32580 42806 10256 20224 30217 40224 52014 84800 333 0//00 10258 20173 50//4 55/// 84820 92438 555 81640;EQDQ01  00002PRCP99
0195671430999992000090303004-21200+048360FM-12+0006FMSM V0202801N002112200019N0300001N1+01801+01631102111ADDAA199000091GA1031+006009089GF103991031081008001001001MA1999999102041MD1510001+9999REMSYN082AAXX  03034 67143 33580 32804 10180 20163 30204 40211 55000 83800 333 83820 92438;EQDQ01  00002PRCP99
0251671430999992000090306004-21200+048360FM-12+0006FMSM V0200601N002112200019N0400001N1+02421+02131102221ADDAA199000091GA1021+006009089GF102991021021008001001001KA1120M+02601KA2120N+01801MA1999999102151MD1110111+9999REMSYN112AAXX  03064 67143 32582 20604 10242 20213 30215 40222 51011 82200 333 0//00 10260 20180 50//4 55/// 82820 92438;EQDQ01  00002PRCP99
0244671430999992000090406004-21200+048360FM-12+0006FMSM V0203401N003112200019N0300001N1+02461+02101102191ADDAA124000191AC12C9GA1031+006009089GF103991031021008001001001KA1120M+02601KA2120N+01851MA1999999102121MD1210191+9999REMSYN118AAXX  04064 67143 12580 33406 10246 20210 30212 40219 52019 69914 83200 333 0//12 10260 20185 50//4 55/// 83820 92438;
0195671430999992000090409004-21200+048360FM-12+0006FMSM V0203401N004112200019N0400001N1+02581+02201102081ADDAA199000091GA1021+006009089GF102991021021008001001001MA1999999102011MD1810111+9999REMSYN082AAXX  04094 67143 32582 23408 10258 20220 30201 40208 58011 82200 333 82820 92438;EQDQ01  00002PRCP99
0201671430999992000090412004-21200+048360FM-12+0006FMSM V0200601N005112200019N0400001N1+02521+02191101901ADDAA199000091GA1011+006009089GF101991011011008001001001MA1999999101831MD1710181+9999REMSYN088AAXX  04124 67143 32582 10610 10252 20219 30183 40190 57018 81100 333 0//00 81820 92438;EQDQ01  00002PRCP99
0214671430999992000090415004-21200+048360FM-12+0006FMSM V0200601N005112200019N0300001N1+02381+02171101971ADDAA199000091GA1021+005109089GF102991021021004501001001KA1120M+02621MA1999999101901MD1310071+9999REMSYN088AAXX  04154 67143 32480 20610 10238 20217 30190 40197 53007 82200 333 10262 82817 92438;EQDQ01  00002PRCP99
0201671430999992000090500004-21200+048360FM-12+0006FMSM V0200601N003112200019N0300001N1+01851+01671101911ADDAA199000091GA1011+006009089GF101991011081008001001001MA1999999101841MD1710141+9999REMSYN088AAXX  05004 67143 33580 10606 10185 20167 30184 40191 57014 81800 333 0//00 81820 924/8;EQDQ01  00002PRCP99
0195671430999992000090503004-21200+048360FM-12+0006FMSM V0200401N001012200019N0300001N1+01641+01431101911ADDAA199000091GA1011+006009089GF101991011081008001001001MA1999999101841MD1510001+9999REMSYN082AAXX  05034 67143 32580 10402 10164 20143 30184 40191 55000 81800 333 81820 92438;EQDQ01  00002PRCP99
0273671430999992000090506004-21200+048360FM-12+0006FMSM V0202801N002110120019N0300001N1+02421+02151102051ADDAA199000091GA1021+006009089GA2061+012009069GF107991071081008001999999KA1120M+02621KA2120N+01641MA1999999101981MD1210141+9999REMSYN118AAXX  05064 67143 32580 72804 10242 20215 30198 40205 52014 878// 333 0//00 10262 20164 50//4 55/// 82820 86640 92438;EQDQ01  00002PRCP99
0195671430999992000090509004-21200+048360FM-12+0006FMSM V0202801N004112200019N0300001N1+02541+02221101921ADDAA199000091GA1031+006009089GF104991041081008001001001MA1999999101851MD1810131+9999REMSYN082AAXX  05094 67143 32580 42808 10254 20222 30185 40192 58013 84800 333 83820 92438;EQDQ01  00002PRCP99
0211671430999992000090512004-21200+048360FM-12+0006FMSM V0200601N004112200019N0400001N1+02501+02221101741ADDAA199000091GA1011+006009089GF101991011081008001001001MA1999999101671MD1710181+9999REMSYN098AAXX  05124 67143 32582 10608 10250 20222 30167 40174 57018 81800 333 0//00 81820 92438 555 81640;EQDQ01  00002PRCP99
0224671430999992000090515004-21200+048360FM-12+0006FMSM V0200401N003112200019N0300001N1+02321+02051101801ADDAA199000091GA1011+006009089GF101991011081008001001001KA1120M+02581MA1999999101731MD1310061+9999REMSYN098AAXX  05154 67143 32580 10406 10232 20205 30173 40180 53006 81800 333 10258 81820 92438 555 81640;EQDQ01  00002PRCP99
0198671430999992000090600004-21200+048360FM-12+0006FMSM V0200401N001012200019N0400001N1+01701+01531101731ADDAA112001091GA1011+012009069GF101991011081008001001021MA1999999101661MD1510011+9999REMSYN104AAXX  06004 67143 22582 10402 10170 20153 30166 40173 55001 81802 333 60012 81820 92438 555 81640 81073;
0270671430999992000090606004-21200+048360FM-12+0006FMSM V0209999C000012200019N0400001N1+02361+02151101831ADDAA124001091GA1021+006009089GA2031+069009009GF104991041081008001001021KA1120M+02581KA2120N+01701MA1999999101761MD1210101+9999REMSYN134AAXX  06064 67143 12582 40000 10236 20215 30176 40183 52010 60014 84802 333 0//19 10258 20170 50//4 55/// 82820 83073 92438 555 82640;
0227671430999992000090609004-21200+048360FM-12+0006FMSM V0200601N005112200019N0300001N1+02501+02201101731ADDAA199000091GA1011+006009089GA2031+012009069GF103991031081008001001021MA1999999101661MD1810101+9999REMSYN098AAXX  06094 67143 32580 30610 10250 20220 30166 40173 58010 83802 333 81820 83640 92438 555 82073;EQDQ01  00002PRCP99
0189671430999992000090612004-21200+048360FM-12+0006FMSM V0200601N005112200019N0400001N1+02621+02301101381ADDAA199000091GA1001+999999999GF100991001001999999001001MA1999999101311MD1710351+9999REMSYN076AAXX  06124 67143 32982 00610 10262 20230 30131 40138 57035 333 0//00 92438;EQDQ01  00002PRCP99
0202671430999992000090615004-21200+048360FM-12+0006FMSM V0200601N005112200019N0350001N1+02381+02141101491ADDAA199000091GA1001+999999999GF100991001001999999001001KA1120M+02621MA1999999101421MD1310111+9999REMSYN076AAXX  06154 67143 32981 00610 10238 20214 30142 40149 53011 333 10262 92438;EQDQ01  00002PRCP99
0183671430999992000090703004-21200+048360FM-12+0006FMSM V0200201N002112200019N0400001N1+01821+01621101421ADDAA199000091GA1001+999999999GF100991001001999999001001MA1999999101351MD1310041+9999REMSYN070AAXX  07034 67143 32982 00204 10182 20162 30135 40142 53004 333 92438;EQDQ01  00002PRCP99
0251671430999992000090706004-21200+048360FM-12+0006FMSM V0203201N006212200019N0400001N1+02401+02041101521ADDAA199000091GA1011+006009089GF101991011021008001001001KA1120M+02621KA2120N+01821MA1999999101451MD1110101+9999REMSYN112AAXX  07064 67143 32582 13212 10240 20204 30145 40152 51010 81200 333 0//00 10262 20182 50//4 55/// 81820 92438;EQDQ01  00002PRCP99
0217671430999992000090709004-21200+048360FM-12+0006FMSM V0203601N008210690019N0400001N1+02681+02271101271ADDAA199000091GA1011+006009089GA2051+069009009GF105991011021008001001021MA1999999101201MD1810251+9999REMSYN088AAXX  07094 67143 32582 53616 10268 20227 30120 40127 58025 81202 333 81820 85073 92438;EQDQ01  00002PRCP99
0201671430999992000090712004-21200+048360FM-12+0006FMSM V0203601N006212200019N0400001N1+02601+02281101171ADDAA199000091GA1041+069009009GF104991001001999999001021MA1999999101101MD1710101+9999REMSYN088AAXX  07124 67143 32982 43612 10260 20228 30110 40117 57010 80002 333 0//00 84073 92438;EQDQ01  00002PRCP99
0224671430999992000090715004-21200+048360FM-12+0006FMSM V0203601N006212200019N0300001N1+02361+02151101221ADDAA199000091GA1011+012009069GF101991011051012501001021KA1120M+02681MA1999999101151MD1310051+9999REMSYN098AAXX  07154 67143 32680 13612 10236 20215 30115 40122 53005 81502 333 10268 81640 92438 555 81073;EQDQ01  00002PRCP99
0211671430999992000090800004-21200+048360FM-12+0006FMSM V0203601N003112200019N0300001N1+01901+01741101281ADDAA199000091GA1011+006009089GF101991011021008001001021MA1999999101211MD1710081+9999REMSYN098AAXX  08004 67143 33580 13606 10190 20174 30121 40128 57008 81202 333 0//00 81820 924/8 555 81073;EQDQ01  00002PRCP99
0233671430999992000090803004-21200+048360FM-12+0006FMSM V0203601N003112200019N0050001N1+01671+01521101321ADDAA199000091AY101031AY201031GA1021+006009089GF102991021021008001001021MA1999999101251MD1310041+9999MW1401REMSYN098AAXX  08034 67143 31550 23606 10167 20152 30125 40132 53004 74000 82202 333 82820 92438 555 81073;EQDQ01  00002PRCP99
0251671430999992000090806004-21200+048360FM-12+0006FMSM V0203601N003112200019N0300001N1+02401+02061101401ADDAA199000091GA1011+006009089GF101991011021008001001001KA1120M+02681KA2120N+01671MA1999999101331MD1210081+9999REMSYN112AAXX  08064 67143 32580 13606 10240 20206 30133 40140 52008 81200 333 0//00 10268 20167 50//4 55/// 81820 92438;EQDQ01  00002PRCP99
0195671430999992000090809004-21200+048360FM-12+0006FMSM V0203601N006212200019N0300001N1+02601+02221101271ADDAA199000091GA1011+006009089GF101991011021008001001001MA1999999101201MD1810131+9999REMSYN082AAXX  08094 67143 32580 13612 10260 20222 30120 40127 58013 81200 333 81820 92438;EQDQ01  00002PRCP99
0201671430999992000090812004-21200+048360FM-12+0006FMSM V0200201N005112200019N0300001N1+02601+02301101081ADDAA199000091GA1011+006009089GF101991011021008001001001MA1999999101011MD1710191+9999REMSYN088AAXX  08124 67143 32580 10210 10260 20230 30101 40108 57019 81200 333 0//00 81820 92438;EQDQ01  00002PRCP99
0214671430999992000090815004-21200+048360FM-12+0006FMSM V0200201N002112200019N0300001N1+02381+02201101211ADDAA199000091GA1011+006009089GF101991011081008001001001KA1120M+02721MA1999999101141MD1310131+9999REMSYN088AAXX  08154 67143 32580 10204 10238 20220 30114 40121 53013 81800 333 10272 81820 92438;EQDQ01  00002PRCP99
0236671430999992000090900004-21200+048360FM-12+0006FMSM V0203201N008210099019N0150001N1+02281+01901101851ADDAA106004191AC11I9AY161061GA1031+003909079GA2061+009909069GF106991061081004501001001MA1999999101781MD1310021+9999MW1151REMSYN106AAXX  09004 67143 11465 63216 10228 20190 30178 40185 53002 60041 7156/ 86800 333 0//65 83713 86633 924/7;
0288671430999992000090906004-21200+048360FM-12+0006FMSM V0203001N004110099019N0150001N1+02201+01821102471ADDAA124004191AY121061AY221061GA1031+005109089GA2051+009909069GF106991061081004501001021KA1120M+02721KA2120N+01981MA1999999102401MD1210291+9999MW1151REMSYN130AAXX  09064 67143 11465 63008 10220 20182 30240 40247 52029 60044 71522 86802 333 0//69 10272 20198 50//4 55/// 83817 85633 92437;
0223671430999992000090909004-21200+048360FM-12+0006FMSM V0203001N00511012001CN0200001N1+02321+01821102441ADDAA199000091AY121031AY221031GA1041+006009089GF106991061081008001001021MA1999999102371MD1810031+9999MW1151REMSYN088AAXX  09094 67143 31570 63010 10232 20182 30237 40244 58003 71522 86802 333 84820 92438;EQDQ01  00002PRCP99
0211671430999992000090912004-21200+048360FM-12+0006FMSM V0203001N004110900019N0300001N1+02341+01701102261ADDAA199000091GA1041+006009089GF105991041021008001001021MA1999999102191MD1710181+9999REMSYN098AAXX  09124 67143 32580 53008 10234 20170 30219 40226 57018 84202 333 0//00 84820 92438 555 83073;EQDQ01  00002PRCP99
0224671430999992000090915004-21200+048360FM-12+0006FMSM V0203001N002112200019N0300001N1+02221+01741102401ADDAA199000091GA1021+006009089GF103991021021008001001021KA1120M+02401MA1999999102331MD1310141+9999REMSYN098AAXX  09154 67143 32580 33004 10222 20174 30233 40240 53014 82202 333 10240 82820 92438 555 82073;EQDQ01  00002PRCP99
0205671430999992000091000004-21200+048360FM-12+0006FMSM V0203001N002110099019N0200001N1+01821+01621102401ADDGA1031+005109089GA2041+009909069GF106991061081004501001001MA1999999102331MD1710111+9999MW1151REMSYN100AAXX  10004 67143 11470 63004 10182 20162 30233 40240 57011 715// 86800 333 0//00 83817 84633 924/8;
0245671430999992000091003004-21200+048360FM-12+0006FMSM V0203001N001010099019N0150001N1+01741+01581102471ADDAA199000091AY121031AY221031GA1031+005109089GA2061+009909069GF107991071081004501999999MA1999999102401MD1310071+9999MW1151REMSYN094AAXX  10034 67143 31465 73002 10174 20158 30240 40247 53007 71522 878// 333 83817 86633 92437;EQDQ01  00002PRCP99
0273671430999992000091006004-21200+048360FM-12+0006FMSM V0203001N001010099019N0300001N1+02141+01781102551ADDAA199000091GA1031+005109089GA2061+009909069GF107991071081004501999999KA1120M+02401KA2120N+01701MA1999999102481MD1210081+9999REMSYN118AAXX  10064 67143 32480 73002 10214 20178 30248 40255 52008 878// 333 0//00 10240 20170 50//4 55/// 83817 86633 92438;EQDQ01  00002PRCP99
0245671430999992000091009004-21200+048360FM-12+0006FMSM V0203001N002110099019N0200001N1+02321+01881102471ADDAA199000091AY121031AY221031GA1031+006009089GA2051+009909069GF107991071081008001999999MA1999999102401MD1810081+9999MW1151REMSYN094AAXX  10094 67143 31570 73004 10232 20188 30240 40247 58008 71522 878// 333 83820 85633 92438;EQDQ01  00002PRCP99
0214671430999992000091015004-21200+048360FM-12+0006FMSM V0202801N003112200019N0300001N1+02201+01861102201ADDAA199000091GA1021+006009089GF102991021021008001001001KA1120M+02431MA1999999102131MD1310021+9999REMSYN088AAXX  10154 67143 32580 22806 10220 20186 30213 40220 53002 82200 333 10243 82820 92438;EQDQ01  00002PRCP99
0223671430999992000091100004-21200+048360FM-12+0006FMSM V0209999C000012200019N0300001N1+01781+01541101981ADDAA199000091GA1011+006009089GA2031+012009069GF103991031081008001001001MA1999999101911MD1710251+9999REMSYN094AAXX  11004 67143 33580 30000 10178 20154 30191 40198 57025 83800 333 0//00 81820 83640 924/8;EQDQ01  00002PRCP99
0195671430999992000091103004-21200+048360FM-12+0006FMSM V0209999C000012200019N0400001N1+01581+01351102131ADDAA199000091GA1011+006009089GF101991011081008001001001MA1999999102061MD1310151+9999REMSYN082AAXX  11034 67143 32582 10000 10158 20135 30206 40213 53015 81800 333 81820 92438;EQDQ01  00002PRCP99
0251671430999992000091106004-21200+048360FM-12+0006FMSM V0202801N005112200019N0400001N1+02361+01931102271ADDAA199000091GA1011+006009089GF101991011021008001001001KA1120M+02431KA2120N+01581MA1999999102201MD1210141+9999REMSYN112AAXX  11064 67143 32582 12810 10236 20193 30220 40227 52014 81200 333 0//00 10243 20158 50//4 55/// 81820 92438;EQDQ01  00002PRCP99
0195671430999992000091109004-21200+048360FM-12+0006FMSM V0203601N006212200019N0400001N1+02541+01781102081ADDAA199000091GA1011+006009089GF101991011011008001001001MA1999999102011MD1710171+9999REMSYN082AAXX  11094 67143 32582 13612 10254 20178 30201 40208 57017 81100 333 81820 92438;EQDQ01  00002PRCP99
0189671430999992000091112004-21200+048360FM-12+0006FMSM V0200201N005112200019N0400001N1+02441+01741101871ADDAA199000091GA1001+999999999GF100991001001999999001001MA1999999101801MD1710211+9999REMSYN076AAXX  11124 67143 32982 00210 10244 20174 30180 40187 57021 333 0//00 92438;EQDQ01  00002PRCP99
0202671430999992000091115004-21200+048360FM-12+0006FMSM V0200201N007212200019N0400001N1+02251+01961101901ADDAA199000091GA1001+999999999GF100991001001999999001001KA1120M+02541MA1999999101831MD1510031+9999REMSYN076AAXX  11154 67143 32982 00214 10225 20196 30183 40190 55003 333 10254 92438;EQDQ01  00002PRCP99
0205671430999992000091203004-21200+048360FM-12+0006FMSM V0202801N002112200019N0300001N1+01481+01261102331ADDAA199000091GA1011+006009089GF102991021081008001001001MA1999999102261MD1310241+9999REMSYN092AAXX  12034 67143 32580 22804 10148 20126 30226 40233 53024 82800 333 81820 92438 555 82640;EQDQ01  00002PRCP99
0273671430999992000091206004-21200+048360FM-12+0006FMSM V0202801N002110120019N0300001N1+02241+01761102531ADDAA199000091GA1021+006009089GA2041+012009069GF105991051081008001001001KA1120M+02541KA2120N+01481MA1999999102461MD1210201+9999REMSYN118AAXX  12064 67143 32580 52804 10224 20176 30246 40253 52020 85800 333 0//00 10254 20148 50//4 55/// 82820 84640 92438;EQDQ01  00002PRCP99
0205671430999992000091209004-21200+048360FM-12+0006FMSM V0200601N002112200019N0300001N1+02441+01921102371ADDAA199000091GA1021+006009089GF103991031081008001001001MA1999999102301MD1710161+9999REMSYN092AAXX  12094 67143 32580 30604 10244 20192 30230 40237 57016 83800 333 82820 92438 555 82640;EQDQ01  00002PRCP99
0201671430999992000091212004-21200+048360FM-12+0006FMSM V0200401N004112200019N0400001N1+02481+01921102181ADDAA199000091GA1011+006009089GF101991011011008001001001MA1999999102111MD1710191+9999REMSYN088AAXX  12124 67143 32582 10408 10248 20192 30211 40218 57019 81100 333 0//00 81820 92438;EQDQ01  00002PRCP99
0214671430999992000091215004-21200+048360FM-12+0006FMSM V0200401N003112200019N0400001N1+02251+01791102201ADDAA199000091GA1011+006009089GF101991011081008001001001KA1120M+02521MA1999999102131MD1510021+9999REMSYN088AAXX  12154 67143 32582 10406 10225 20179 30213 40220 55002 81800 333 10252 81820 92438;EQDQ01  00002PRCP99
0223671430999992000091300004-21200+048360FM-12+0006FMSM V0202801N002110099019N0300001N1+01851+01641102291ADDAA199000091GA1011+005109089GA2061+009909069GF106991061081004501001001MA1999999102221MD1710071+9999REMSYN094AAXX  13004 67143 33480 62804 10185 20164 30222 40229 57007 86800 333 0//00 81817 86633 924/8;EQDQ01  00002PRCP99
0273671430999992000091306004-21200+048360FM-12+0006FMSM V0202801N002110120019N0350001N1+02321+01751102421ADDAA199000091GA1011+006009089GA2051+012009069GF105991051081008001001001KA1120M+02521KA2120N+01801MA1999999102351MD1110111+9999REMSYN118AAXX  13064 67143 32581 52804 10232 20175 30235 40242 51011 85800 333 0//00 10252 20180 50//4 55/// 81820 85640 92438;EQDQ01  00002PRCP99
0201671430999992000091312004-21200+048360FM-12+0006FMSM V0203201N003112200019N0400001N1+02441+01981102071ADDAA199000091GA1011+006009089GF101991011011008001001001MA1999999102001MD1710191+9999REMSYN088AAXX  13124 67143 32582 13206 10244 20198 30200 40207 57019 81100 333 0//00 81820 92438;EQDQ01  00002PRCP99
0202671430999992000091315004-21200+048360FM-12+0006FMSM V0203201N003112200019N0300001N1+02281+02001102151ADDAA199000091GA1001+999999999GF100991001001999999001001KA1120M+02501MA1999999102081MD1310061+9999REMSYN076AAXX  13154 67143 32980 03206 10228 20200 30208 40215 53006 333 10250 92438;EQDQ01  00002PRCP99
0201671430999992000091400004-21200+048360FM-12+0006FMSM V0201601N002112200019N0300001N1+01821+01621102131ADDAA199000091GA1011+006009089GF101991011021008001001001MA1999999102061MD1710131+9999REMSYN088AAXX  14004 67143 33580 11604 10182 20162 30206 40213 57013 81200 333 0//00 81820 924/8;EQDQ01  00002PRCP99
0205671430999992000091403004-21200+048360FM-12+0006FMSM V0200601N001012200019N0300001N1+01681+01511102201ADDAA199000091GA1011+006009089GF101991011081008001001001MA1999999102131MD1310071+9999REMSYN092AAXX  14034 67143 32580 10602 10168 20151 30213 40220 53007 81800 333 81820 92438 555 81640;EQDQ01  00002PRCP99
0261671430999992000091406004-21200+048360FM-12+0006FMSM V0203201N002112200019N0300001N1+02401+02041102331ADDAA199000091GA1031+006009089GF103991031081008001001001KA1120M+02501KA2120N+01681MA1999999102261MD1210131+9999REMSYN122AAXX  14064 67143 32580 33204 10240 20204 30226 40233 52013 83800 333 0//00 10250 20168 50//4 55/// 83820 92438 555 81640;EQDQ01  00002PRCP99
0195671430999992000091409004-21200+048360FM-12+0006FMSM V0203201N002112200019N0300001N1+02501+02181102181ADDAA199000091GA1031+006009089GF103991031021008001001001MA1999999102111MD1810151+9999REMSYN082AAXX  14094 67143 32580 33204 10250 20218 30211 40218 58015 83200 333 83820 92438;EQDQ01  00002PRCP99
0201671430999992000091412004-21200+048360FM-12+0006FMSM V0203201N003112200019N0400001N1+02501+02121101961ADDAA199000091GA1011+006009089GF101991011021008001001001MA1999999101891MD1710221+9999REMSYN088AAXX  14124 67143 32582 13206 10250 20212 30189 40196 57022 81200 333 0//00 81820 92438;EQDQ01  00002PRCP99
0214671430999992000091415004-21200+048360FM-12+0006FMSM V0200801N004112200019N0300001N1+02321+02111101991ADDAA199000091GA1011+006009089GF101991011021008001001001KA1120M+02521MA1999999101921MD1310031+9999REMSYN088AAXX  14154 67143 32580 10808 10232 20211 30192 40199 53003 81200 333 10252 81820 92438;EQDQ01  00002PRCP99
0195671430999992000091503004-21200+048360FM-12+0006FMSM V0200801N001012200019N0300001N1+01691+01501101961ADDAA199000091GA1011+006009089GF101991011021008001001001MA1999999101891MD1310021+9999REMSYN082AAXX  15034 67143 32580 10802 10169 20150 30189 40196 53002 81200 333 81820 92438;EQDQ01  00002PRCP99
0251671430999992000091506004-21200+048360FM-12+0006FMSM V0203201N001012200019N0300001N1+02501+02181102021ADDAA199000091GA1011+006009089GF101991011021008001001001KA1120M+02521KA2120N+01601MA1999999101951MD1210061+9999REMSYN112AAXX  15064 67143 32580 13202 10250 20218 30195 40202 52006 81200 333 0//00 10252 20160 50//4 55/// 81820 92438;EQDQ01  00002PRCP99
0183671430999992000091509004-21200+048360FM-12+0006FMSM V0203601N004112200019N0300001N1+02571+02201101901ADDAA199000091GA1001+999999999GF100991001001999999001001MA1999999101831MD1810121+9999REMSYN070AAXX  15094 67143 32980 03608 10257 20220 30183 40190 58012 333 92438;EQDQ01  00002PRCP99
0189671430999992000091512004-21200+048360FM-12+0006FMSM V0200801N005112200019N0400001N1+02601+02221101721ADDAA199000091GA1001+999999999GF100991001001999999001001MA1999999101651MD1710181+9999REMSYN076AAXX  15124 67143 32982 00810 10260 20222 30165 40172 57018 333 0//00 92438;EQDQ01  00002PRCP99
0202671430999992000091515004-21200+048360FM-12+0006FMSM V0200801N003112200019N0400001N1+02321+02141101801ADDAA199000091GA1001+999999999GF100991001001999999001001KA1120M+02631MA1999999101731MD1310081+9999REMSYN076AAXX  15154 67143 32982 00806 10232 20214 30173 40180 53008 333 10263 92438;EQDQ01  00002PRCP99
0217671430999992000091603004-21200+048360FM-12+0006FMSM V0200801N001010099019N0300001N1+01801+01601101931ADDAA199000091GA1011+006009089GA2051+009909069GF105991051081008001001001MA1999999101861MD1310071+9999REMSYN088AAXX  16034 67143 32580 50802 10180 20160 30186 40193 53007 85800 333 81820 85633 92438;EQDQ01  00002PRCP99
0294671430999992000091606004-21200+048360FM-12+0006FMSM V0202401N003110099019N0100001N1+02131+02001102111ADDAA124000791AC11C9AY161061AY221061GA1021+005109089GA2081+009909069GF108991081081004501999999KA1120M+02631KA2120N+01761MA1999999102041MD1210181+9999MW1601REMSYN130AAXX  16064 67143 11460 82406 10213 20200 30204 40211 52018 69904 76062 888// 333 0//11 10263 20176 50//4 55/// 82817 88633 92437;
0242671430999992000091609004-21200+048360FM-12+0006FMSM V0201401N007210300019N0100001N1+02281+02161101991ADDAA106005091AY161031AY221031GA1031+003909079GA2081+030009059GF108991081081004501999999MA1999999101921MD1810121+9999MW1601REMSYN110AAXX  16094 67143 21460 81414 10228 20216 30192 40199 58012 76062 888// 333 60051 83713 88560 92437 555 82817;
0244671430999992000091612004-21200+048360FM-12+0006FMSM V0201401N006210090019N0100001N1+02231+02081101921ADDAA106005191AC13I9AY161061AY221061GA1041+003909079GA2071+009009069GF108991081081004501999999MA1999999101851MD1610071+9999MW1211REMSYN106AAXX  16124 67143 11460 81412 10223 20208 30185 40192 56007 60051 72162 888// 333 0//97 84713 87630 92437;
0251671430999992000091615004-21200+048360FM-12+0006FMSM V0201401N006210090019N0150001N1+02311+02081102081ADDAA106000191AY161031AY221031GA1041+003909079GA2081+009009069GF108991081081004501999999KA1120M+02401MA1999999102011MD1310161+9999MW1151REMSYN106AAXX  16154 67143 21465 81412 10231 20208 30201 40208 53016 71562 888// 333 10240 69911 84713 88630 92437;
0232671430999992000091703004-21200+048360FM-12+0006FMSM V0200601N005110099019N0200001N1+02181+01901102361ADDAA112005091AY121031AY221031GA1031+005109089GA2061+009909069GF108991081081004501999999MA1999999102291MD1310181+9999MW1151REMSYN100AAXX  17034 67143 21470 80610 10218 20190 30229 40236 53018 71522 888// 333 60052 83817 86633 92438;
0288671430999992000091706004-21200+048360FM-12+0006FMSM V0201201N004110099019N0200001N1+02321+02021102491ADDAA124008991AY121061AY221061GA1041+005109089GA2041+009909069GF107991071081004501999999KA1120M+02401KA2120N+02181MA1999999102421MD1210131+9999MW1151REMSYN130AAXX  17064 67143 11470 71208 10232 20202 30242 40249 52013 60094 71522 878// 333 0//99 10240 20218 50//4 55/// 84817 84633 92438;
0217671430999992000091709004-21200+048360FM-12+0006FMSM V0201201N001010120019N0350001N1+02441+02001102371ADDAA199000091GA1031+006009089GA2051+012009069GF107991071081008001999999MA1999999102301MD1710121+9999REMSYN088AAXX  17094 67143 32581 71202 10244 20200 30230 40237 57012 878// 333 83820 85640 92438;EQDQ01  00002PRCP99
0211671430999992000091712004-21200+048360FM-12+0006FMSM V0201201N005112200019N0400001N1+02421+01961102201ADDAA199000091GA1021+006009089GF103991031081008001001001MA1999999102131MD1710171+9999REMSYN098AAXX  17124 67143 32582 31210 10242 20196 30213 40220 57017 83800 333 0//00 82820 92438 555 82640;EQDQ01  00002PRCP99
0264671430999992000091715004-21200+048360FM-12+0006FMSM V0201201N004110099019N0200001N1+02261+01921102281ADDAA199000091AY121031AY221031GA1031+005109089GA2051+009909069GF107991071081004501999999KA1120M+02521MA1999999102211MD1310081+9999MW1151REMSYN100AAXX  17154 67143 31470 71208 10226 20192 30221 40228 53008 71522 878// 333 10252 83817 85633 92438;EQDQ01  00002PRCP99
0223671430999992000091800004-21200+048360FM-12+0006FMSM V0201201N002110099019N0300001N1+02161+01971102281ADDAA199000091GA1011+005109089GA2061+009909069GF106991061081008001001001MA1999999102211MD1710061+9999REMSYN094AAXX  18004 67143 33580 61204 10216 20197 30221 40228 57006 86800 333 0//00 81817 86633 924/8;EQDQ01  00002PRCP99
0217671430999992000091803004-21200+048360FM-12+0006FMSM V0209999C000010099019N0300001N1+02001+01761102371ADDAA199000091GA1021+005109089GA2061+009909069GF107991071081008001999999MA1999999102301MD1310091+9999REMSYN088AAXX  18034 67143 32580 70000 10200 20176 30230 40237 53009 878// 333 82817 86633 92438;EQDQ01  00002PRCP99
0301671430999992000091806004-21200+048360FM-12+0006FMSM V0200601N005110099019N0200001N1+02301+01961102481ADDAA199000091AY121061AY221061GA1031+005109089GA2051+009909069GF107991071081004501999999KA1120M+02521KA2120N+02001MA1999999102411MD1810111+9999MW1151REMSYN124AAXX  18064 67143 31470 70610 10230 20196 30241 40248 58011 71522 878// 333 0//00 10252 20200 50//4 55/// 83817 85633 92438;EQDQ01  00002PRCP99
0205671430999992000091809004-21200+048360FM-12+0006FMSM V0200801N003112200019N0300001N1+02421+01721102311ADDAA199000091GA1031+006009089GF104991041081008001001001MA1999999102241MD1810171+9999REMSYN092AAXX  18094 67143 32580 40806 10242 20172 30224 40231 58017 84800 333 83820 92438 555 82640;EQDQ01  00002PRCP99
0201671430999992000091812004-21200+048360FM-12+0006FMSM V0201001N004112200019N0300001N1+02381+01811102161ADDAA199000091GA1011+006009089GF101991011011008001001001MA1999999102091MD1710151+9999REMSYN088AAXX  18124 67143 32580 11008 10238 20181 30209 40216 57015 81100 333 0//00 81820 92438;EQDQ01  00002PRCP99
0214671430999992000091815004-21200+048360FM-12+0006FMSM V0201001N002112200019N0350001N1+02281+01921102201ADDAA199000091GA1011+012009069GF101991011051012501001001KA1120M+02421MA1999999102131MD1310041+9999REMSYN088AAXX  18154 67143 32681 11004 10228 20192 30213 40220 53004 81500 333 10242 81640 92438;EQDQ01  00002PRCP99
0237671430999992000091903004-21200+048360FM-12+0006FMSM V0209999C000010099019N0200001N1+01861+01631102211ADDAA199000091AY121031GA1011+005109089GA2071+009909069GF107991071081004501999999MA1999999102141MD1510021+9999MW1151REMSYN094AAXX  19034 67143 31470 70000 10186 20163 30214 40221 55002 7152/ 878// 333 81817 87633 92438;EQDQ01  00002PRCP99
0294671430999992000091906004-21200+048360FM-12+0006FMSM V0202401N002110099019N0200001N1+02361+02061102331ADDAA124000191AC13C9AY161061AY221061GA1031+005109089GA2061+009909069GF107991071081004501999999KA1120M+02421KA2120N+01861MA1999999102261MD1210121+9999MW1151REMSYN130AAXX  19064 67143 11470 72404 10236 20206 30226 40233 52012 69924 71562 878// 333 0//13 10242 20186 50//4 55/// 83817 86633 92438;
0217671430999992000091909004-21200+048360FM-12+0006FMSM V0201001N003110120019N0300001N1+02461+02101102231ADDAA199000091GA1021+006009089GA2051+012009069GF106991061081008001001001MA1999999102161MD1810101+9999REMSYN088AAXX  19094 67143 32580 61006 10246 20210 30216 40223 58010 86800 333 82820 85640 92438;EQDQ01  00002PRCP99
0211671430999992000091912004-21200+048360FM-12+0006FMSM V0201001N003112200019N0300001N1+02401+02041102061ADDAA199000091GA1021+006009089GF102991021081008001001001MA1999999101991MD1710171+9999REMSYN098AAXX  19124 67143 32580 21006 10240 20204 30199 40206 57017 82800 333 0//00 82820 92438 555 81640;EQDQ01  00002PRCP99
0224671430999992000091915004-21200+048360FM-12+0006FMSM V0201001N002112200019N0300001N1+02301+01961102171ADDAA199000091GA1011+006009089GF102991021081008001001001KA1120M+02461MA1999999102101MD1310111+9999REMSYN098AAXX  19154 67143 32580 21004 10230 20196 30210 40217 53011 82800 333 10246 81820 92438 555 82640;EQDQ01  00002PRCP99
0246671430999992000092000004-21200+048360FM-12+0006FMSM V0202601N001010099019N0150001N1+02001+01781102181ADDAA106000591AC12C9AY161061GA1031+003909079GA2031+009909069GF106991061061004501001001MA1999999102111MD1710091+9999MW1211REMSYN116AAXX  20004 67143 11465 62602 10200 20178 30211 40218 57009 69961 7216/ 86600 333 0//12 83713 83633 924/7 555 83820;
0242671430999992000092003004-21200+048360FM-12+0006FMSM V0209999C000010099019N0080001N1+01901+01741102201ADDAA112003091AY161031AY221031GA1031+003909079GA2061+009909069GF107991071081004501999999MA1999999102131MD1310021+9999MW1611REMSYN110AAXX  20034 67143 21458 70000 10190 20174 30213 40220 53002 76162 878// 333 60032 83713 86633 92436 555 82820;
0294671430999992000092006004-21200+048360FM-12+0006FMSM V0202201N001010099019N0300001N1+02241+01961102301ADDAA124003091AC13C9AY161061AY221061GA1021+006009089GA2051+009909069GF106991061081008001001001KA1120M+02461KA2120N+01901MA1999999102231MD1110101+9999MW1021REMSYN130AAXX  20064 67143 11580 62202 10224 20196 30223 40230 51010 60034 70262 86800 333 0//13 10246 20190 5//44 55/// 82820 85633 92438;
0176671430999992000092009004-21200+048360FM-12+0006FMSM V0202401N001012200019N0300001N1+02481+01921102181ADDAA199000021GA1041+006009089GF104991041021008001001001MA1999999102111MD1810121+9999REMSYN082AAXX  20094 67143 32580 42402 10248 20192 30211 40218 58012 84200 333 84820 92438;
0182671430999992000092012004-21200+048360FM-12+0006FMSM V0202401N004112200019N0300001N1+02501+01881102011ADDAA199000021GA1041+006009089GF104991041021008001001001MA1999999101941MD1710171+9999REMSYN088AAXX  20124 67143 32580 42408 10250 20188 30194 40201 57017 84200 333 0//00 84820 92438;
0217671430999992000092015004-21200+048360FM-12+0006FMSM V0202401N005110120019N0300001N1+02331+02001102101ADDAA199000021GA1021+006009089GA2061+012009069GF107991071081008001999999KA1120M+02611MA1999999102031MD1310091+9999REMSYN094AAXX  20154 67143 32580 72410 10233 20200 30203 40210 53009 878// 333 10261 82820 86640 92438;
0232671430999992000092100004-21200+048360FM-12+0006FMSM V0209999C000010099019N0200001N1+01971+01781102081ADDAA112001091AY161061AY221061GA1011+006009089GA2061+009909069GF106991061081008001001001MA1999999102011MD1310081+9999MW1151REMSYN100AAXX  21004 67143 21570 60000 10197 20178 30201 40208 53008 71562 86800 333 60012 81820 86633 92438;
0294671430999992000092106004-21200+048360FM-12+0006FMSM V0209999C000010099019N0100001N1+02081+01921102231ADDAA124005191AC11C9AY161061AY221061GA1031+005109089GA2071+009909069GF108991081081004501999999KA1120M+02611KA2120N+01971MA1999999102161MD1210151+9999MW1211REMSYN130AAXX  21064 67143 11460 80000 10208 20192 30216 40223 52015 60054 72162 888// 333 0//11 10261 20197 50//4 55/// 83817 87633 92436;
0226671430999992000092109004-21200+048360FM-12+0006FMSM V0201001N002110099019N0200001N1+02521+02101102101ADDAA199000021AY121031AY221031GA1031+006009089GA2071+009909069GF107991071081008001999999MA1999999102031MD1710131+9999MW1151REMSYN094AAXX  21094 67143 31570 71004 10252 20210 30203 40210 57013 71522 878// 333 83820 87633 92438;
0204671430999992000092112004-21200+048360FM-12+0006FMSM V0209999C000010099019N0300001N1+02481+02021101921ADDAA199000021GA1021+006009089GA2061+009909069GF107991071081008001999999MA1999999101851MD1710081+9999REMSYN094AAXX  21124 67143 32580 70000 10248 20202 30185 40192 57008 878// 333 0//00 82820 86633 92438;
0217671430999992000092115004-21200+048360FM-12+0006FMSM V0209999C000010099019N0300001N1+02371+02041102071ADDAA199000021GA1021+006009089GA2071+009909069GF107991071081008001999999KA1120M+02521MA1999999102001MD1310151+9999REMSYN094AAXX  21154 67143 32580 70000 10237 20204 30200 40207 53015 878// 333 10252 82820 87633 92438;
0246671430999992000092200004-21200+048360FM-12+0006FMSM V0201001N001010099019N0150001N1+01981+01821102091ADDAA106001091AC12C9AY161061GA1031+003909079GA2051+009909069GF106991061081004501001001MA1999999102021MD1710041+9999MW1211REMSYN116AAXX  22004 67143 11465 61002 10198 20182 30202 40209 57004 60011 7216/ 86800 333 0//12 83713 85633 924/7 555 83820;
0242671430999992000092203004-21200+048360FM-12+0006FMSM V0209999C000010099019N0150001N1+01861+01661102151ADDAA112001091AY121031AY221031GA1021+003909079GA2061+009909069GF106991061081004501001001MA1999999102081MD1310061+9999MW1151REMSYN110AAXX  22034 67143 21465 60000 10186 20166 30208 40215 53006 71522 86800 333 60012 82713 86633 92437 555 82820;
0282671430999992000092206004-21200+048360FM-12+0006FMSM V0209999C00001012001CN0300001N1+02241+01901102301ADDAA124001091AC13C9AY161061AY221061GA1041+006009089GF105991051081008001001001KA1120M+02521KA2120N+01861MA1999999102231MD1210151+9999MW1011REMSYN134AAXX  22064 67143 11580 50000 10224 20190 30223 40230 52015 60014 70162 85800 333 0//13 10252 20186 50//4 55/// 84820 92438 555 82640;
0182671430999992000092212004-21200+048360FM-12+0006FMSM V0201001N003112200019N0400001N1+02501+02081101981ADDAA199000021GA1041+006009089GF104991041081008001001001MA1999999101911MD1610161+9999REMSYN088AAXX  22124 67143 32582 41006 10250 20208 30191 40198 56016 84800 333 0//00 84820 92438;
0236671430999992000092215004-21200+048360FM-12+0006FMSM V0201001N003112200019N0300001N1+02381+02081102051ADDAA199000091GA1021+006009089GA2031+012009069GF104991041081008001001001KA1120M+02621MA1999999101981MD1310071+9999REMSYN094AAXX  22154 67143 32580 41006 10238 20208 30198 40205 53007 84800 333 10262 82820 83640 92438;EQDQ01  00002PRCP99
0235671430999992000092300004-21200+048360FM-12+0006FMSM V0202201N001010099019N0200001N1+02061+01841102021ADDAA199000091GA1011+005109089GA2071+009909069GF107991071081004501999999MA1999999101951MD1710121+9999MW1151REMSYN100AAXX  23004 67143 31470 72202 10206 20184 30195 40202 57012 715// 878// 333 0//00 81817 87633 924/8;EQDQ01  00002PRCP99
0224671430999992000092303004-21200+048360FM-12+0006FMSM V0202801N001010099019N0200001N1+01981+01761102081ADDAA112002091AY161031GA1021+005109089GA2071+009909069GF107991071081004501999999MA1999999102011MD1310061+9999MW1151REMSYN100AAXX  23034 67143 21470 72802 10198 20176 30201 40208 53006 7156/ 878// 333 60022 82817 87633 92438;
0294671430999992000092306004-21200+048360FM-12+0006FMSM V0202001N001010099019N0150001N1+02121+01931102201ADDAA124003091AC11C9AY161061AY221061GA1031+003909079GA2051+009909069GF108991081081004501999999KA1120M+02621KA2120N+01981MA1999999102131MD1810121+9999MW1601REMSYN130AAXX  23064 67143 11465 82002 10212 20193 30213 40220 58012 60034 76062 888// 333 0//11 10262 20198 50//4 55/// 83713 85633 92437;
0232671430999992000092309004-21200+048360FM-12+0006FMSM V0203001N001010099019N0200001N1+02201+01961102071ADDAA106001091AY161031AY221031GA1041+005109089GA2051+009909069GF108991081081004501999999MA1999999102001MD1710131+9999MW1211REMSYN100AAXX  23094 67143 21470 83002 10220 20196 30200 40207 57013 72162 888// 333 60011 84817 85633 92438;
0204671430999992000092312004-21200+048360FM-12+0006FMSM V0209999C000010099019N0300001N1+02421+02151101921ADDAA199000021GA1021+006009089GA2061+009909069GF107991071081008001999999MA1999999101851MD1710151+9999REMSYN094AAXX  23124 67143 32580 70000 10242 20215 30185 40192 57015 878// 333 0//00 82820 86633 92438;
0217671430999992000092315004-21200+048360FM-12+0006FMSM V0200401N002110099019N0300001N1+02361+02091101981ADDAA199000021GA1021+005109089GA2061+009909069GF107991071081004501999999KA1120M+02421MA1999999101911MD1310061+9999REMSYN094AAXX  23154 67143 32480 70404 10236 20209 30191 40198 53006 878// 333 10242 82817 86633 92438;
0217671430999992000092400004-21200+048360FM-12+0006FMSM V0202801N001012200019N0300001N1+01751+01501102121ADDAA199000091GA1011+006009089GA2031+012009069GF103991031081008001001001MA1999999102051MD1310131+9999REMSYN088AAXX  24004 67143 32580 32802 10175 20150 30205 40212 53013 83800 333 81820 83640 92438;EQDQ01  00002PRCP99
0273671430999992000092406004-21200+048360FM-12+0006FMSM V0202801N001012200019N0350001N1+02441+02081102301ADDAA199000091GA1021+006009089GA2031+012009069GF104991041081008001001001KA1120M+02421KA2120N+01751MA1999999102231MD1210181+9999REMSYN118AAXX  24064 67143 32581 42802 10244 20208 30223 40230 52018 84800 333 0//00 10242 20175 50//4 55/// 82820 83640 92438;EQDQ01  00002PRCP99
0255671430999992000092409004-21200+048360FM-12+0006FMSM V0202601N002110120019N0200001N1+02501+02201102201ADDAA199000091AY121031AY221031GA1021+006009089GA2051+012009069GF107991061081008001031001MA1999999102131MD1810101+9999MW1151REMSYN104AAXX  24094 67143 31570 72604 10250 20220 30213 40220 58010 71522 86830 333 82820 85640 92438 555 82360;EQDQ01  00002PRCP99
0223671430999992000092412004-21200+048360FM-12+0006FMSM V0201001N002110120019N0300001N1+02481+02121102121ADDAA199000091GA1031+006009089GA2031+012009069GF105991051081008001001001MA1999999102051MD1710081+9999REMSYN094AAXX  24124 67143 32580 51004 10248 20212 30205 40212 57008 85800 333 0//00 83820 83640 92438;EQDQ01  00002PRCP99
0202671430999992000092500004-21200+048360FM-12+0006FMSM V0203401N002112200019N0300001N1+02201+01921102341ADDAA106000191AC10I9AY161061GA1001+999999999GF100991001001999999001001MA1999999102271MD1710061+9999MW1001REMSYN088AAXX  25004 67143 11980 03404 10220 20192 30227 40234 57006 69911 7006/ 333 0//14 924/8;
0182671430999992000092503004-21200+048360FM-12+0006FMSM V0202801N001012200019N0300001N1+01821+01561102451ADDAA112000191GA1031+006009089GF103991031081008001001001MA1999999102381MD1310111+9999REMSYN088AAXX  25034 67143 22580 32802 10182 20156 30238 40245 53011 83800 333 69912 83820 92438;
0251671430999992000092506004-21200+048360FM-12+0006FMSM V0209999C000012200019N0300001N1+02521+02161102521ADDAA199000091GA1031+006009089GF103991031021008001001001KA1120M+02541KA2120N+01821MA1999999102541MD1110071+9999REMSYN112AAXX  25064 67143 32580 30000 10252 20216 30254 40252 51007 83200 333 0//00 10254 20182 50//4 55/// 83820 92438;EQDQ01  00002PRCP99
0195671430999992000092509004-21200+048360FM-12+0006FMSM V0200801N005112200019N0300001N1+02601+02061102361ADDAA199000091GA1031+006009089GF103991031021008001001001MA1999999102291MD1710161+9999REMSYN082AAXX  25094 67143 32580 30810 10260 20206 30229 40236 57016 83200 333 83820 92438;EQDQ01  00002PRCP99
0211671430999992000092512004-21200+048360FM-12+0006FMSM V0200801N004112200019N0400001N1+02521+02071102191ADDAA199000091GA1021+006009089GF103991031081008001001001MA1999999102121MD1710171+9999REMSYN098AAXX  25124 67143 32582 30808 10252 20207 30212 40219 57017 83800 333 0//00 82820 92438 555 82640;EQDQ01  00002PRCP99
0224671430999992000092515004-21200+048360FM-12+0006FMSM V0200801N004112200019N0300001N1+02341+02071102301ADDAA199000091GA1041+005109089GF104991041081004501001001KA1120M+02601MA1999999102231MD1310111+9999REMSYN098AAXX  25154 67143 32480 40808 10234 20207 30223 40230 53011 84800 333 10260 84817 92438 555 81640;EQDQ01  00002PRCP99
0232671430999992000092603004-21200+048360FM-12+0006FMSM V0200801N001010099019N0100001N1+01801+01641102211ADDAA112002091AY121031AY211031GA1021+006009089GA2061+009909069GF106991061081008001001001MA1999999102141MD1310031+9999MW1151REMSYN100AAXX  26034 67143 21560 60802 10180 20164 30214 40221 53003 71521 86800 333 60022 82820 86633 92436;
0294671430999992000092606004-21200+048360FM-12+0006FMSM V0203201N002110099019N0150001N1+02081+01911102301ADDAA124003091AC12C9AY161061AY221061GA1021+006009089GA2071+009909069GF107991071081008001999999KA1120M+02601KA2120N+01761MA1999999102231MD1210091+9999MW1151REMSYN130AAXX  26064 67143 11565 73204 10208 20191 30223 40230 52009 60034 71562 878// 333 0//22 10260 20176 50//4 55/// 82820 87633 92437;
0217671430999992000092609004-21200+048360FM-12+0006FMSM V0203201N005110120019N0300001N1+02621+01981102121ADDAA199000091GA1031+006009089GA2041+012009069GF105991051081008001001001MA1999999102051MD1810181+9999REMSYN088AAXX  26094 67143 32580 53210 10262 20198 30205 40212 58018 85800 333 83820 84640 92438;EQDQ01  00002PRCP99
0223671430999992000092612004-21200+048360FM-12+0006FMSM V0203201N004110120019N0300001N1+02581+02001101941ADDAA199000091GA1031+006009089GA2031+012009069GF105991051081008001001001MA1999999101871MD1710181+9999REMSYN094AAXX  26124 67143 32580 53208 10258 20200 30187 40194 57018 85800 333 0//00 83820 83640 92438;EQDQ01  00002PRCP99
0214671430999992000092615004-21200+048360FM-12+0006FMSM V0200601N004112200019N0300001N1+02331+02141102021ADDAA199000091GA1021+006009089GF103991031081008001001001KA1120M+02711MA1999999101951MD1310081+9999REMSYN088AAXX  26154 67143 32580 30608 10233 20214 30195 40202 53008 83800 333 10271 82820 92438;EQDQ01  00002PRCP99
0223671430999992000092700004-21200+048360FM-12+0006FMSM V0209999C000012200019N0300001N1+01921+01741101921ADDAA199000091GA1011+006009089GA2031+012009069GF103991031081008001001001MA1999999101851MD1710121+9999REMSYN094AAXX  27004 67143 33580 30000 10192 20174 30185 40192 57012 83800 333 0//00 81820 83640 924/8;EQDQ01  00002PRCP99
0245671430999992000092703004-21200+048360FM-12+0006FMSM V0209999C000010120019N0200001N1+01881+01721102021ADDAA199000091AY121031AY201031GA1011+006009089GA2061+012009069GF106991061081008001001001MA1999999101951MD1310101+9999MW1151REMSYN094AAXX  27034 67143 31570 60000 10188 20172 30195 40202 53010 71520 86800 333 81820 86640 92438;EQDQ01  00002PRCP99
0251671430999992000092706004-21200+048360FM-12+0006FMSM V0202801N005112200019N0300001N1+02541+01991102041ADDAA199000091GA1021+006009089GF102991021021008001001001KA1120M+02711KA2120N+01861MA1999999101971MD1110021+9999REMSYN112AAXX  27064 67143 32580 22810 10254 20199 30197 40204 51002 82200 333 0//00 10271 20186 50//4 55/// 82820 92438;EQDQ01  00002PRCP99
0195671430999992000092709004-21200+048360FM-12+0006FMSM V0203001N005112200019N0300001N1+02701+02261101931ADDAA199000091GA1031+006009089GF103991031081008001001001MA1999999101861MD1810111+9999REMSYN082AAXX  27094 67143 32580 33010 10270 20226 30186 40193 58011 83800 333 83820 92438;EQDQ01  00002PRCP99
0189671430999992000092712004-21200+048360FM-12+0006FMSM V0203001N005112200019N0400001N1+02581+02221101781ADDAA199000091GA1001+999999999GF100991001001999999001001MA1999999101711MD1710151+9999REMSYN076AAXX  27124 67143 32982 03010 10258 20222 30171 40178 57015 333 0//00 92438;EQDQ01  00002PRCP99
0246671430999992000092715004-21200+048360FM-12+0006FMSM V0203001N004112200019N0300001N1+02381+02041101811ADDAA199000091GA1011+006009089GA2021+012009069GF102991021081008001031001KA1120M+02731MA1999999101741MD1310031+9999REMSYN104AAXX  27154 67143 32580 23008 10238 20204 30174 40181 53003 82830 333 10273 81820 82640 92438 555 81360;EQDQ01  00002PRCP99
0201671430999992000092800004-21200+048360FM-12+0006FMSM V0200801N003112200019N0300001N1+01851+01661101821ADDAA199000091GA1011+006009089GF101991011021008001001001MA1999999101751MD1710061+9999REMSYN088AAXX  28004 67143 33580 10806 10185 20166 30175 40182 57006 81200 333 0//00 81820 924/8;EQDQ01  00002PRCP99
0217671430999992000092803004-21200+048360FM-12+0006FMSM V0209999C000012200019N0300001N1+01671+01521101931ADDAA199000091GA1011+006009089GA2021+012009069GF102991021081008001001001MA1999999101861MD1310111+9999REMSYN088AAXX  28034 67143 32580 20000 10167 20152 30186 40193 53011 82800 333 81820 82640 92438;EQDQ01  00002PRCP99
0261671430999992000092806004-21200+048360FM-12+0006FMSM V0203001N003112200019N0300001N1+02421+02091102041ADDAA199000091GA1021+006009089GF102991021021008001071001KA1120M+02731KA2120N+01671MA1999999101971MD1310111+9999REMSYN122AAXX  28064 67143 32580 23006 10242 20209 30197 40204 53011 82270 333 0//00 10273 20167 50//4 55/// 82820 92438 555 81360;EQDQ01  00002PRCP99
0205671430999992000092809004-21200+048360FM-12+0006FMSM V0200601N003112200019N0300001N1+02601+02281101971ADDAA199000091GA1041+006009089GF104991041021008001031001MA1999999101901MD1810071+9999REMSYN092AAXX  28094 67143 32580 40606 10260 20228 30190 40197 58007 84230 333 84820 92438 555 81360;EQDQ01  00002PRCP99
0201671430999992000092812004-21200+048360FM-12+0006FMSM V0200601N003112200019N0400001N1+02581+02231101781ADDAA199000091GA1011+006009089GF101991011021008001001001MA1999999101711MD1710191+9999REMSYN088AAXX  28124 67143 32582 10606 10258 20223 30171 40178 57019 81200 333 0//00 81820 92438;EQDQ01  00002PRCP99
0214671430999992000092815004-21200+048360FM-12+0006FMSM V0200601N002112200019N0300001N1+02401+02161101871ADDAA199000091GA1011+006009089GF101991011021008001001001KA1120M+02631MA1999999101801MD1310091+9999REMSYN088AAXX  28154 67143 32580 10604 10240 20216 30180 40187 53009 81200 333 10263 81820 92438;EQDQ01  00002PRCP99
0223671430999992000092900004-21200+048360FM-12+0006FMSM V0200401N002112200019N0300001N1+01901+01701101981ADDAA199000091GA1011+006009089GA2031+012009069GF103991031081008001001001MA1999999101911MD1710071+9999REMSYN094AAXX  29004 67143 33580 30404 10190 20170 30191 40198 57007 83800 333 0//00 81820 83640 924/8;EQDQ01  00002PRCP99
0237671430999992000092903004-21200+048360FM-12+0006FMSM V0202801N001010099019N0200001N1+01961+01741102151ADDAA199000091AY121031GA1031+005109089GA2051+009909069GF107991071081004501999999MA1999999102081MD1310171+9999MW1151REMSYN094AAXX  29034 67143 31470 72802 10196 20174 30208 40215 53017 7152/ 878// 333 83817 85633 92438;EQDQ01  00002PRCP99
0272671430999992000092906004-21200+048360FM-12+0006FMSM V0202801N002112200019N0350001N1+02301+02021102311ADDAA124000591AC13C9AY161061AY221061GA1041+006009089GF104991041081008001001001KA1120M+02631KA2120N+01861MA1999999102241MD1210161+9999MW1011REMSYN124AAXX  29064 67143 11581 42804 10230 20202 30224 40231 52016 69964 70162 84800 333 0//13 10263 20186 50//4 55/// 84820 92438;
0245671430999992000092909004-21200+048360FM-12+0006FMSM V0200801N002110120019N0200001N1+02521+02231102101ADDAA199000091AY121031AY221031GA1031+005109089GA2041+012009069GF106991061081004501071001MA1999999102031MD1710211+9999MW1151REMSYN094AAXX  29094 67143 31470 60804 10252 20223 30203 40210 57021 71522 86870 333 83817 84640 92438;EQDQ01  00002PRCP99
0223671430999992000092912004-21200+048360FM-12+0006FMSM V0200801N005110120019N0300001N1+02581+02201101971ADDAA199000091GA1011+006009089GA2061+012009069GF106991061081008001001001MA1999999101901MD1710031+9999REMSYN094AAXX  29124 67143 32580 60810 10258 20220 30190 40197 57003 86800 333 0//00 81820 86640 92438;EQDQ01  00002PRCP99
0214671430999992000092915004-21200+048360FM-12+0006FMSM V0200801N003112200019N0300001N1+02401+02101102121ADDAA199000091GA1011+012009069GF101991011051012501001001KA1120M+02641MA1999999102051MD1310151+9999REMSYN088AAXX  29154 67143 32680 10806 10240 20210 30205 40212 53015 81500 333 10264 81640 92438;EQDQ01  00002PRCP99
0189671430999992000093000004-21200+048360FM-12+0006FMSM V0200801N003112200019N0300001N1+01921+01621102161ADDAA199000091GA1001+999999999GF100991001001999999001001MA1999999102091MD1710121+9999REMSYN076AAXX  30004 67143 33980 00806 10192 20162 30209 40216 57012 333 0//00 924/8;EQDQ01  00002PRCP99
0183671430999992000093003004-21200+048360FM-12+0006FMSM V0202801N003112200019N0400001N1+01821+01581102151ADDAA199000091GA1001+999999999GF100991001001999999001001MA1999999102081MD1610011+9999REMSYN070AAXX  30034 67143 32982 02806 10182 20158 30208 40215 56001 333 92438;EQDQ01  00002PRCP99
0261671430999992000093006004-21200+048360FM-12+0006FMSM V0200401N003112200019N0400001N1+02581+02201102201ADDAA199000091GA1031+006009089GF103991031081008001001001KA1120M+02641KA2120N+01821MA1999999102131MD1210051+9999REMSYN122AAXX  30064 67143 32582 30406 10258 20220 30213 40220 52005 83800 333 0//00 10264 20182 50//4 55/// 83820 92438 555 81640;EQDQ01  00002PRCP99
0205671430999992000093009004-21200+048360FM-12+0006FMSM V0200401N004112200019N0400001N1+02551+02241102101ADDAA199000091GA1021+006009089GF102991021081008001001001MA1999999102031MD1810101+9999REMSYN092AAXX  30094 67143 32582 20408 10255 20224 30203 40210 58010 82800 333 82820 92438 555 81640;EQDQ01  00002PRCP99
0201671430999992000093012004-21200+048360FM-12+0006FMSM V0200401N006212200019N0400001N1+02581+02291101971ADDAA199000091GA1021+006009089GF102991021081008001001001MA1999999101901MD1710131+9999REMSYN088AAXX  30124 67143 32582 20412 10258 20229 30190 40197 57013 82800 333 0//00 82820 92438;EQDQ01  00002PRCP99
0264671430999992000093015004-21200+048360FM-12+0006FMSM V0200401N005110099019N0200001N1+02501+02261102001ADDAA199000091AY121031AY221031GA1041+005109089GA2051+009909069GF108991081081004501999999KA1120M+02701MA1999999101931MD1510031+9999MW1151REMSYN100AAXX  30154 67143 31470 80410 10250 20226 30193 40200 55003 71522 888// 333 10270 84817 85633 92438;EQDQ01  00002PRCP99
0236671430999992000100100004-21200+048360FM-12+0006FMSM V0200401N002110099019N0150001N1+02381+02171101981ADDAA106000891AC11C9AY161061GA1021+005109089GA2061+009909069GF107991071081004501999999MA1999999101911MD1710101+9999MW1601REMSYN106AAXX  01004 67143 11465 70404 10238 20217 30191 40198 57010 69981 7606/ 878// 333 0//11 82817 86633 924/8;
0232671430999992000100103004-21200+048360FM-12+0006FMSM V0203201N002110099019N0200001N1+02221+02001102001ADDAA112000891AY161031AY221031GA1021+005109089GA2071+009909069GF108991081081004501999999MA1999999101931MD1310021+9999MW1151REMSYN100AAXX  01034 67143 21470 83204 10222 20200 30193 40200 53002 71562 888// 333 69982 82817 87633 92438;
0294671430999992000100106004-21200+048360FM-12+0006FMSM V0203601N004110099019N0150001N1+02321+02111102171ADDAA124002091AC11C9AY161061AY221061GA1011+005109089GA2081+009909069GF108991081081004501999999KA1120M+02701KA2120N+02221MA1999999102101MD1210171+9999MW1601REMSYN130AAXX  01064 67143 11465 83608 10232 20211 30210 40217 52017 60024 76062 888// 333 0//11 10270 20222 50//4 55/// 81817 88633 92437;
0232671430999992000100109004-21200+048360FM-12+0006FMSM V0203601N005110099019N0200001N1+02421+02211102091ADDAA106002091AY161031AY221031GA1021+005109089GA2051+009909069GF106991061081004501071001MA1999999102021MD1810081+9999MW1151REMSYN100AAXX  01094 67143 21470 63610 10242 20221 30202 40209 58008 71562 86870 333 60021 82817 85633 92438;
0204671430999992000100112004-21200+048360FM-12+0006FMSM V0203601N005110120019N0300001N1+02661+02371101901ADDAA199000021GA1021+006009089GA2061+012009069GF107991071081008001999999MA1999999101831MD1710191+9999REMSYN094AAXX  01124 67143 32580 73610 10266 20237 30183 40190 57019 878// 333 0//00 82820 86640 92438;
0223671430999992000100200004-21200+048360FM-12+0006FMSM V0202601N004112200019N0300001N1+02461+02221101971ADDAA199000091GA1021+006009089GA2031+012009069GF104991041081008001001001MA1999999101901MD1710021+9999REMSYN094AAXX  02004 67143 32580 42608 10246 20222 30190 40197 57002 84800 333 0//00 82820 83640 924/8;EQDQ01  00002PRCP99
0245671430999992000100203004-21200+048360FM-12+0006FMSM V0202601N005110099019N0200001N1+02391+02181102011ADDAA199000091AY121031AY211031GA1021+006009089GA2071+009909069GF107991071081008001999999MA1999999101941MD1310041+9999MW1151REMSYN094AAXX  02034 67143 31570 72610 10239 20218 30194 40201 53004 71521 878// 333 82820 87633 92438;EQDQ01  00002PRCP99
0273671430999992000100206004-21200+048360FM-12+0006FMSM V0203601N002110120019N0300001N1+02601+02311102131ADDAA199000091GA1041+006009089GA2031+012009069GF106991061081008001001001KA1120M+02701KA2120N+02271MA1999999102061MD1210121+9999REMSYN118AAXX  02064 67143 32580 63604 10260 20231 30206 40213 52012 86800 333 0//00 10270 20227 5///4 55/// 84820 83640 92438;EQDQ01  00002PRCP99
0205671430999992000100209004-21200+048360FM-12+0006FMSM V0200401N003112200019N0300001N1+02681+02341102031ADDAA199000091GA1031+006009089GF104991041081008001001001MA1999999101961MD1810101+9999REMSYN092AAXX  02094 67143 32580 40406 10268 20234 30196 40203 58010 84800 333 83820 92438 555 82650;EQDQ01  00002PRCP99
0223671430999992000100212004-21200+048360FM-12+0006FMSM V0200401N003110120019N0300001N1+02601+02221101861ADDAA199000091GA1031+006009089GA2051+012009069GF106991061081008001031001MA1999999101791MD1710171+9999REMSYN094AAXX  02124 67143 32580 60406 10260 20222 30179 40186 57017 86830 333 0//00 83820 85640 92438;EQDQ01  00002PRCP99
0236671430999992000100215004-21200+048360FM-12+0006FMSM V0200401N003110120019N0300001N1+02471+02301101921ADDAA199000091GA1021+006009089GA2061+012009069GF106991061081008001001001KA1120M+02741MA1999999101851MD1310061+9999REMSYN094AAXX  02154 67143 32580 60406 10247 20230 30185 40192 53006 86800 333 10274 82820 86640 92438;EQDQ01  00002PRCP99
0201671430999992000100300004-21200+048360FM-12+0006FMSM V0209999C000012200019N0300001N1+02061+01901101881ADDAA199000091GA1011+006009089GF101991011081008001001001MA1999999101811MD1710081+9999REMSYN088AAXX  03004 67143 33580 10000 10206 20190 30181 40188 57008 81800 333 0//00 81820 924/8;EQDQ01  00002PRCP99
0195671430999992000100303004-21200+048360FM-12+0006FMSM V0209999C000012200019N0300001N1+01771+01621101941ADDAA199000091GA1031+006009089GF103991031081008001001001MA1999999101871MD1310061+9999REMSYN082AAXX  03034 67143 32580 30000 10177 20162 30187 40194 53006 83800 333 83820 92438;EQDQ01  00002PRCP99
0251671430999992000100306004-21200+048360FM-12+0006FMSM V0203201N002110060019N0300001N1+02561+01821102021ADDAA199000091GA1051+006009089GF105991051081008001001001KA1120M+02741KA2120N+01771MA1999999101951MD1110081+9999REMSYN112AAXX  03064 67143 32580 53204 10256 20182 30195 40202 51008 85800 333 0//00 10274 20177 50//4 55/// 85820 92438;EQDQ01  00002PRCP99
0195671430999992000100309004-21200+048360FM-12+0006FMSM V0203201N002112200019N0300001N1+02601+02281101891ADDAA199000091GA1041+006009089GF104991041081008001001001MA1999999101821MD1710131+9999REMSYN082AAXX  03094 67143 32580 43204 10260 20228 30182 40189 57013 84800 333 84820 92438;EQDQ01  00002PRCP99
0236671430999992000100315004-21200+048360FM-12+0006FMSM V0200601N005112200019N0300001N1+02401+02221101771ADDAA199000091GA1021+006009089GA2031+012009069GF104991041081008001001001KA1120M+02631MA1999999101701MD1310081+9999REMSYN094AAXX  03154 67143 32580 40610 10240 20222 30170 40177 53008 84800 333 10263 82820 83640 92438;EQDQ01  00002PRCP99
0201671430999992000100400004-21200+048360FM-12+0006FMSM V0200601N002112200019N0300001N1+02061+01841101701ADDAA199000091GA1011+012009069GF101991011051012501001001MA1999999101631MD1710101+9999REMSYN088AAXX  04004 67143 33680 10604 10206 20184 30163 40170 57010 81500 333 0//00 81640 924/8;EQDQ01  00002PRCP99
0217671430999992000100403004-21200+048360FM-12+0006FMSM V0200601N001012200019N0300001N1+01981+01781101781ADDAA199000091GA1011+006009089GA2041+012009069GF104991041081008001001001MA1999999101711MD1310081+9999REMSYN088AAXX  04034 67143 32580 40602 10198 20178 30171 40178 53008 84800 333 81820 84640 92438;EQDQ01  00002PRCP99
0273671430999992000100406004-21200+048360FM-12+0006FMSM V0200601N002110120019N0300001N1+02541+02241101891ADDAA199000091GA1021+006009089GA2061+012009069GF106991061081008001001001KA1120M+02631KA2120N+01971MA1999999101821MD1210111+9999REMSYN118AAXX  04064 67143 32580 60604 10254 20224 30182 40189 52011 86800 333 0//00 10263 20197 5///4 55/// 82820 86640 92438;EQDQ01  00002PRCP99
0211671430999992000100409004-21200+048360FM-12+0006FMSM V0200601N002112200019N0400001N1+02671+02351101801ADDAA199000091GA1011+015009069GF103991031081008001031001MA1999999101731MD1810091+9999REMSYN098AAXX  04094 67143 32582 30604 10267 20235 30173 40180 58009 83830 333 83823 92438 555 81650 81360;EQDQ01  00002PRCP99
0201671430999992000100412004-21200+048360FM-12+0006FMSM V0203001N003112200019N0400001N1+02601+02241101691ADDAA199000091GA1021+006909089GF102991021021008001001001MA1999999101621MD1710111+9999REMSYN088AAXX  04124 67143 32582 23006 10260 20224 30162 40169 57011 82200 333 0//00 82823 92438;EQDQ01  00002PRCP99
0195671430999992000100503004-21200+048360FM-12+0006FMSM V0209999C000012200019N0300001N1+01921+01781101881ADDAA199000091GA1011+006009089GF101991011081008001001001MA1999999101811MD1310161+9999REMSYN082AAXX  05034 67143 32580 10000 10192 20178 30181 40188 53016 81800 333 81820 92438;EQDQ01  00002PRCP99
0251671430999992000100506004-21200+048360FM-12+0006FMSM V0200801N002112200019N0300001N1+02601+02311101991ADDAA199000091GA1041+006009089GF104991041021008001001001KA1120M+02721KA2120N+01891MA1999999101921MD1210111+9999REMSYN112AAXX  05064 67143 32580 40804 10260 20231 30192 40199 52011 84200 333 0//00 10272 20189 50//4 55/// 84820 92438;EQDQ01  00002PRCP99
0195671430999992000100509004-21200+048360FM-12+0006FMSM V0200801N003112200019N0300001N1+02721+02381101861ADDAA199000091GA1011+006009089GF101991011021008001001001MA1999999101791MD1310131+9999REMSYN082AAXX  05094 67143 32580 10806 10272 20238 30179 40186 53013 81200 333 81820 92438;EQDQ01  00002PRCP99
0211671430999992000100512004-21200+048360FM-12+0006FMSM V0200801N004112200019N0300001N1+02681+02331101691ADDAA199000091GA1011+006009089GF101991011081008001001001MA1999999101621MD1710171+9999REMSYN098AAXX  05124 67143 32580 10808 10268 20233 30162 40169 57017 81800 333 0//00 81820 92438 555 81640;EQDQ01  00002PRCP99
0224671430999992000100515004-21200+048360FM-12+0006FMSM V0200801N004112200019N0300001N1+02501+02241101841ADDAA199000091GA1041+005109089GF104991041081004501001001KA1120M+02761MA1999999101771MD1310151+9999REMSYN098AAXX  05154 67143 32480 40808 10250 20224 30177 40184 53015 84800 333 10276 84817 92438 555 81640;EQDQ01  00002PRCP99
0211671430999992000100600004-21200+048360FM-12+0006FMSM V0200801N004112200019N0300001N1+02451+02231101831ADDAA199000091GA1031+006009089GF104991041081008001001001MA1999999101761MD1710101+9999REMSYN098AAXX  06004 67143 33580 40808 10245 20223 30176 40183 57010 84800 333 0//00 83820 924/8 555 82640;EQDQ01  00002PRCP99
0207671430999992000100603004-21200+048360FM-12+0006FMSM V0200801N001010099019N0200001N1+02201+01981101891ADDAY121031GA1041+005109089GA2041+009909069GF107991071081004501999999MA1999999101821MD1310061+9999MW1151REMSYN094AAXX  06034 67143 41470 70802 10220 20198 30182 40189 53006 7152/ 878// 333 84817 84633 92438;
0195671430999992000100703004-21200+048360FM-12+0006FMSM V0200201N002112200019N0300001N1+01981+01751101981ADDAA199000091GA1021+006009089GF102991021081008001001001MA1999999101911MD1310181+9999REMSYN082AAXX  07034 67143 32580 20204 10198 20175 30191 40198 53018 82800 333 82820 92438;EQDQ01  00002PRCP99
0251671430999992000100706004-21200+048360FM-12+0006FMSM V0200601N004112200019N0300001N1+02741+02461102111ADDAA199000091GA1041+006009089GF104991041021008001001001KA1120M+02701KA2120N+01981MA1999999102041MD1210111+9999REMSYN112AAXX  07064 67143 32580 40608 10274 20246 30204 40211 52011 84200 333 0//00 10270 20198 50//4 55/// 84820 92438;EQDQ01  00002PRCP99
0195671430999992000100709004-21200+048360FM-12+0006FMSM V0200401N006212200019N0300001N1+02761+02481101931ADDAA199000091GA1011+006009089GF101991011021008001001001MA1999999101861MD1710181+9999REMSYN082AAXX  07094 67143 32580 10412 10276 20248 30186 40193 57018 81200 333 81820 92438;EQDQ01  00002PRCP99
0201671430999992000100712004-21200+048360FM-12+0006FMSM V0200401N006212200019N0400001N1+02761+02421101811ADDAA199000091GA1011+006009089GF101991011011008001001001MA1999999101741MD1710121+9999REMSYN088AAXX  07124 67143 32582 10412 10276 20242 30174 40181 57012 81100 333 0//00 81820 92438;EQDQ01  00002PRCP99
0214671430999992000100715004-21200+048360FM-12+0006FMSM V0200401N007212200019N0400001N1+02581+02321101881ADDAA199000091GA1011+030009039GF101991011001008001071001KA1120M+02841MA1999999101811MD1310071+9999REMSYN088AAXX  07154 67143 32582 10414 10258 20232 30181 40188 53007 81070 333 10284 81360 92438;EQDQ01  00002PRCP99
0214671430999992000100800004-21200+048360FM-12+0006FMSM V0200401N003112200019N0300001N1+02321+02081101981ADDAA106002091AC10I9AY161061GA1021+006009089GF102991021021008001001001MA1999999101911MD1710021+9999MW1001REMSYN100AAXX  08004 67143 11580 20406 10232 20208 30191 40198 57002 60021 7006/ 82200 333 0//14 82820 924/8;
0192671430999992000100803004-21200+048360FM-12+0006FMSM V0200401N002112200019N0300001N1+02071+01841102041ADDAA112002091GA1031+006009089GF103991031081008001001001MA1999999101971MD1310061+9999REMSYN098AAXX  08034 67143 22580 30404 10207 20184 30197 40204 53006 83800 333 60022 83820 92438 555 81640;
0244671430999992000100806004-21200+048360FM-12+0006FMSM V0200401N002110060019N0300001N1+02671+02381102161ADDAA124002091AC13I9GA1051+006009089GF105991051021008001001001KA1120M+02841KA2120N+02071MA1999999102091MD1210121+9999REMSYN118AAXX  08064 67143 12580 50404 10267 20238 30209 40216 52012 60024 85200 333 0//18 10284 20207 50//4 55/// 85820 92438;
0195671430999992000100809004-21200+048360FM-12+0006FMSM V0203401N003112200019N0300001N1+02581+02261102021ADDAA199000091GA1041+006009089GF104991041021008001001001MA1999999101951MD1710141+9999REMSYN082AAXX  08094 67143 32580 43406 10258 20226 30195 40202 57014 84200 333 84820 92438;EQDQ01  00002PRCP99
0201671430999992000100812004-21200+048360FM-12+0006FMSM V0200601N002112200019N0400001N1+02601+02221101901ADDAA199000091GA1031+006909089GF103991031021008001001021MA1999999101831MD1710121+9999REMSYN088AAXX  08124 67143 32582 30604 10260 20222 30183 40190 57012 83202 333 0//00 83823 92438;EQDQ01  00002PRCP99
0214671430999992000100815004-21200+048360FM-12+0006FMSM V0200601N001012200019N0300001N1+02381+02101102011ADDAA199000091GA1041+006009089GF104991041081008001001021KA1120M+02721MA1999999101941MD1310111+9999REMSYN088AAXX  08154 67143 32580 40602 10238 20210 30194 40201 53011 84802 333 10272 84820 92438;EQDQ01  00002PRCP99
0214671430999992000100900004-21200+048360FM-12+0006FMSM V0200401N001012200019N0300001N1+01921+01761102001ADDAA106000591AC12I9AY161061GA1021+006009089GF102991021021008001001001MA1999999101931MD1710091+9999MW1001REMSYN100AAXX  09004 67143 11580 20402 10192 20176 30193 40200 57009 69951 7006/ 82200 333 0//16 82820 924/8;
0244671430999992000100906004-21200+048360FM-12+0006FMSM V0203001N002112200019N0300001N1+02601+02221102121ADDAA124000591AC13I9GA1041+006009089GF104991041021008001001001KA1120M+02721KA2120N+01841MA1999999102051MD1210051+9999REMSYN118AAXX  09064 67143 12580 43004 10260 20222 30205 40212 52005 69954 84200 333 0//18 10272 20184 50//4 55/// 84820 92438;
0195671430999992000100909004-21200+048360FM-12+0006FMSM V0203001N004112200019N0300001N1+02621+02141101951ADDAA199000091GA1041+006009089GF104991041081008001001001MA1999999101881MD1710171+9999REMSYN082AAXX  09094 67143 32580 43008 10262 20214 30188 40195 57017 84800 333 84820 92438;EQDQ01  00002PRCP99
0211671430999992000100912004-21200+048360FM-12+0006FMSM V0203001N004112200019N0300001N1+02581+02221101771ADDAA199000091GA1041+006009089GF104991041081008001001001MA1999999101701MD1710181+9999REMSYN098AAXX  09124 67143 32580 43008 10258 20222 30170 40177 57018 84800 333 0//00 84820 92438 555 81640;EQDQ01  00002PRCP99
0224671430999992000100915004-21200+048360FM-12+0006FMSM V0203001N001012200019N0300001N1+02401+02181101801ADDAA199000091GA1031+006009089GF103991031081008001001001KA1120M+02741MA1999999101731MD1310031+9999REMSYN098AAXX  09154 67143 32580 33002 10240 20218 30173 40180 53003 83800 333 10274 83820 92438 555 81640;EQDQ01  00002PRCP99
0201671430999992000101000004-21200+048360FM-12+0006FMSM V0209999C000012200019N0300001N1+01901+01701101901ADDAA199000091GA1011+006009089GF101991011021008001001001MA1999999101791MD1210111+9999REMSYN088AAXX  10004 67143 33580 10000 10190 20170 30179 40190 52011 81200 333 0//00 81820 924/8;EQDQ01  00002PRCP99
0195671430999992000101003004-21200+048360FM-12+0006FMSM V0209999C000012200019N0300001N1+01861+01701101951ADDAA199000091GA1021+006009089GF102991021081008001001001MA1999999101881MD1310091+9999REMSYN082AAXX  10034 67143 32580 20000 10186 20170 30188 40195 53009 82800 333 82820 81640;EQDQ01  00002PRCP99
0261671430999992000101006004-21200+048360FM-12+0006FMSM V0203601N004112200019N0300001N1+02551+02181102021ADDAA199000091GA1031+006009089GF103991031021008001031001KA1120M+02741KA2120N+01781MA1999999101951MD1210071+9999REMSYN122AAXX  10064 67143 32580 33608 10255 20218 30195 40202 52007 83230 333 0//00 10274 20178 5///4 55/// 83820 92438 555 81360;EQDQ01  00002PRCP99
0205671430999992000101009004-21200+048360FM-12+0006FMSM V0203601N004112200019N0300001N1+02701+02281101881ADDAA199000091GA1031+006009089GF103991031081008001001001MA1999999101811MD1810141+9999REMSYN092AAXX  10094 67143 32580 33608 10270 20228 30181 40188 58014 83800 333 83820 92438 555 81650;EQDQ01  00002PRCP99
0201671430999992000101012004-21200+048360FM-12+0006FMSM V0200601N004112200019N0400001N1+02641+02321101741ADDAA199000091GA1031+006909089GF103991031081008001001001MA1999999101671MD1710141+9999REMSYN088AAXX  10124 67143 32582 30608 10264 20232 30167 40174 57014 83800 333 0//00 83823 92438;EQDQ01  00002PRCP99
0201671430999992000101100004-21200+048360FM-12+0006FMSM V0200601N001012200019N0300001N1+01951+01741101891ADDAA199000091GA1011+006009089GF101991011081008001001001MA1999999101821MD1710101+9999REMSYN088AAXX  11004 67143 33580 10602 10195 20174 30182 40189 57010 81800 333 0//00 81820 924/8;EQDQ01  00002PRCP99
0195671430999992000101103004-21200+048360FM-12+0006FMSM V0209999C000012200019N0300001N1+01781+01541102071ADDAA199000091GA1011+006009089GF101991011081008001001001MA1999999102001MD1310181+9999REMSYN082AAXX  11034 67143 32580 10000 10178 20154 30200 40207 53018 81800 333 81820 92438;EQDQ01  00002PRCP99
0251671430999992000101106004-21200+048360FM-12+0006FMSM V0200601N004112200019N0300001N1+02501+02201102201ADDAA199000091GA1041+006009089GF104991041021008001001001KA1120M+02801KA2120N+01781MA1999999102131MD1210131+9999REMSYN112AAXX  11064 67143 32580 40608 10250 20220 30213 40220 52013 84200 333 0//00 10280 20178 50//4 55/// 84820 92438;EQDQ01  00002PRCP99
0195671430999992000101109004-21200+048360FM-12+0006FMSM V0200601N004112200019N0400001N1+02541+02231102111ADDAA199000091GA1011+006009089GF101991011021008001001001MA1999999102041MD1810091+9999REMSYN082AAXX  11094 67143 32582 10608 10254 20223 30204 40211 58009 81200 333 81820 92438;EQDQ01  00002PRCP99
0201671430999992000101112004-21200+048360FM-12+0006FMSM V0200601N005112200019N0400001N1+02501+02131101961ADDAA199000091GA1011+006009089GF101991011021008001001001MA1999999101891MD1710151+9999REMSYN088AAXX  11124 67143 32582 10610 10250 20213 30189 40196 57015 81200 333 0//00 81820 92438;EQDQ01  00002PRCP99
0202671430999992000101115004-21200+048360FM-12+0006FMSM V0200601N005112200019N0400001N1+02221+01981102051ADDAA199000091GA1001+999999999GF100991001001999999001001KA1120M+02601MA1999999101981MD1310091+9999REMSYN076AAXX  11154 67143 32982 00610 10222 20198 30198 40205 53009 333 10260 92438;EQDQ01  00002PRCP99
0227671430999992000101203004-21200+048360FM-12+0006FMSM V0203201N001012200019N0300001N1+01801+01551102121ADDAA199000091GA1011+006009089GA2031+012009069GF103991031081008001071001MA1999999102051MD1310061+9999REMSYN098AAXX  12034 67143 32580 33202 10180 20155 30205 40212 53006 83870 333 81820 83640 92438 555 82360;EQDQ01  00002PRCP99
0251671430999992000101206004-21200+048360FM-12+0006FMSM V0203201N004112200019N0400001N1+02521+02161102191ADDAA199000091GA1011+006009089GF101991011021008001001001KA1120M+02601KA2120N+01661MA1999999102121MD1110061+9999REMSYN112AAXX  12064 67143 32582 13208 10252 20216 30212 40219 51006 81200 333 0//00 10260 20166 5///4 55/// 81820 92438;EQDQ01  00002PRCP99
0195671430999992000101209004-21200+048360FM-12+0006FMSM V0203201N005112200019N0400001N1+02621+02241102101ADDAA199000091GA1011+006009089GF101991011011008001001001MA1999999102031MD1710091+9999REMSYN082AAXX  12094 67143 32582 13210 10262 20224 30203 40210 57009 81100 333 81820 92438;EQDQ01  00002PRCP99
0189671430999992000101212004-21200+048360FM-12+0006FMSM V0200601N004112200019N0400001N1+02601+02231101931ADDAA199000091GA1001+999999999GF100991001001999999001001MA1999999101861MD1710071+9999REMSYN076AAXX  12124 67143 32982 00608 10260 20223 30186 40193 57007 333 0//00 92438;EQDQ01  00002PRCP99
0202671430999992000101215004-21200+048360FM-12+0006FMSM V0200601N003112200019N0400001N1+02421+02151102051ADDAA199000091GA1001+999999999GF100991001001999999001001KA1120M+02681MA1999999101981MD1310121+9999REMSYN076AAXX  12154 67143 32982 00606 10242 20215 30198 40205 53012 333 10268 92438;EQDQ01  00002PRCP99
0217671430999992000101303004-21200+048360FM-12+0006FMSM V0202801N001010120019N0300001N1+02001+01761102121ADDAA199000091GA1021+006009089GA2041+012009069GF105991051081008001001001MA1999999102051MD1510011+9999REMSYN088AAXX  13034 67143 32580 52802 10200 20176 30205 40212 55001 85800 333 82820 84640 92438;EQDQ01  00002PRCP99
0301671430999992000101306004-21200+048360FM-12+0006FMSM V0201601N004110099019N0200001N1+02461+02221102251ADDAA199000091AY121061AY221061GA1041+005109089GA2041+009909069GF107991071081004501999999KA1120M+02681KA2120N+01941MA1999999102181MD1210131+9999MW1151REMSYN124AAXX  13064 67143 31470 71608 10246 20222 30218 40225 52013 71522 878// 333 0//00 10268 20194 50004 55/// 84817 84633 92438;EQDQ01  00002PRCP99
0217671430999992000101309004-21200+048360FM-12+0006FMSM V0201601N003110120019N0300001N1+02561+02301102181ADDAA199000091GA1031+006009089GA2051+012009069GF107991071081008001999999MA1999999102111MD1810071+9999REMSYN088AAXX  13094 67143 32580 71606 10256 20230 30211 40218 58007 878// 333 83820 85640 92438;EQDQ01  00002PRCP99
0244671430999992000101312004-21200+048360FM-12+0006FMSM V0201601N006210099019N0200001N1+02341+02101102031ADDAA106005191AC11C9AY161061AY221061GA1031+005109089GA2051+009909069GF107991071081004501999999MA1999999101961MD1710051+9999MW1151REMSYN106AAXX  13124 67143 11470 71612 10234 20210 30196 40203 57005 60051 71562 878// 333 0//51 83817 85633 92438;
0264671430999992000101315004-21200+048360FM-12+0006FMSM V0201601N003110099019N0200001N1+02141+01951102071ADDAA199000091AY121031AY221031GA1021+005109089GA2061+009909069GF107991071081004501999999KA1120M+02561MA1999999102001MD1310041+9999MW1151REMSYN100AAXX  13154 67143 31470 71606 10214 20195 30200 40207 53004 71522 878// 333 10256 82817 86633 92438;EQDQ01  00002PRCP99
0242671430999992000101403004-21200+048360FM-12+0006FMSM V0201801N002110099019N0150001N1+01671+01501102191ADDAA112003091AY121031AY211031GA1031+003909079GA2061+009909069GF107991071081004501999999MA1999999102121MD1310081+9999MW1151REMSYN110AAXX  14034 67143 21465 71804 10167 20150 30212 40219 53008 71521 878// 333 60032 83713 86633 92439 555 82820;
0266671430999992000101406004-21200+048360FM-12+0006FMSM V0201801N004110099019N0300001N1+02321+02021102241ADDAA124007991AC13I9GA1021+006009089GA2061+009909069GF107991071081008001999999KA1120M+02561KA2120N+01621MA1999999102171MD1110051+9999REMSYN124AAXX  14064 67143 12580 71808 10232 20202 30217 40224 51005 60084 878// 333 0//17 10256 20162 5///4 55/// 82820 86633 92438;
0217671430999992000101409004-21200+048360FM-12+0006FMSM V0201801N005110120019N0300001N1+02411+02001102101ADDAA199000091GA1031+006009089GA2041+012009069GF105991051081008001001001MA1999999102031MD1710141+9999REMSYN088AAXX  14094 67143 32580 51810 10241 20200 30203 40210 57014 85800 333 83820 84640 92438;EQDQ01  00002PRCP99
0201671430999992000101412004-21200+048360FM-12+0006FMSM V0201801N004112200019N0300001N1+02471+02021101881ADDAA199000091GA1041+006009089GF104991041081008001001001MA1999999101811MD1710221+9999REMSYN088AAXX  14124 67143 32580 41808 10247 20202 30181 40188 57022 84800 333 0//00 84820 92438;EQDQ01  00002PRCP99
0195671430999992000101500004-21200+048360FM-12+0006FMSM V0201801N002112200019N0300001N1+01721+01681101931ADDAA199000091GA1011+006009029GF102991021081008001001001MA1999999101861MD1710141+9999REMSYN082AAXX  15004 67143 33580 21804 10172 20168 30186 40193 57014 82800 333 0//00 81820;EQDQ01  00002PRCP99
0217671430999992000101503004-21200+048360FM-12+0006FMSM V0201801N002112200019N0300001N1+01641+01541101951ADDAA199000091GA1011+006009089GA2041+012009069GF104991041081008001001001MA1999999101881MD1310021+9999REMSYN088AAXX  15034 67143 32580 41804 10164 20154 30188 40195 53002 84800 333 81820 84640 92438;EQDQ01  00002PRCP99
0251671430999992000101506004-21200+048360FM-12+0006FMSM V0201801N002112200019N0300001N1+02461+02061102021ADDAA199000091GA1041+006009089GF104991041021008001001001KA1120M+02541KA2120N+01581MA1999999101951MD1210071+9999REMSYN112AAXX  15064 67143 32580 41804 10246 20206 30195 40202 52007 84200 333 0//00 10254 20158 5///4 55/// 84820 92438;EQDQ01  00002PRCP99
0195671430999992000101509004-21200+048360FM-12+0006FMSM V0201401N004112200019N0300001N1+02421+01941101881ADDAA199000091GA1021+006009089GF102991021021008001001001MA1999999101811MD1710141+9999REMSYN082AAXX  15094 67143 32580 21408 10242 20194 30181 40188 57014 82200 333 82820 92438;EQDQ01  00002PRCP99
0189671430999992000101512004-21200+048360FM-12+0006FMSM V0201401N003112200019N0300001N1+02401+01901101691ADDAA199000091GA1001+999999999GF100991001001999999001001MA1999999101621MD1710191+9999REMSYN076AAXX  15124 67143 32980 01406 10240 20190 30162 40169 57019 333 0//00 92438;EQDQ01  00002PRCP99
0201671430999992000101600004-21200+048360FM-12+0006FMSM V0201401N002112200019N0300001N1+01551+01381101831ADDAA199000091GA1011+006009089GF101991011021008001001001MA1999999101761MD1710071+9999REMSYN088AAXX  16004 67143 33580 11404 10155 20138 30176 40183 57007 81200 333 0//00 81820 924/8;EQDQ01  00002PRCP99
0251671430999992000101606004-21200+048360FM-12+0006FMSM V0201201N001012200019N0300001N1+02501+02141101921ADDAA199000091GA1031+006009089GF103991031021008001001001KA1120M+02541KA2120N+01481MA1999999101851MD1210071+9999REMSYN112AAXX  16064 67143 32580 31202 10250 20214 30185 40192 52007 83200 333 0//00 10254 20148 5///4 55/// 83820 92438;EQDQ01  00002PRCP99
0201671430999992000101612004-21200+048360FM-12+0006FMSM V0201401N005112200019N0400001N1+02541+02021101751ADDAA199000091GA1011+006909089GF101991011021008001001001MA1999999101681MD1710121+9999REMSYN088AAXX  16124 67143 32582 11410 10254 20202 30168 40175 57012 81200 333 0//00 81823 92438;EQDQ01  00002PRCP99
0201671430999992000101700004-21200+048360FM-12+0006FMSM V0203401N002112200019N0300001N1+01991+01751101891ADDAA199000091GA1011+006009089GF102991021081008001001001MA1999999101821MD1710031+9999REMSYN088AAXX  17004 67143 33580 23404 10199 20175 30182 40189 57003 82800 333 0//00 81820 924/8;EQDQ01  00002PRCP99
0217671430999992000101703004-21200+048360FM-12+0006FMSM V0202801N001012200019N0300001N1+01851+01651101951ADDAA199000091GA1011+006009089GA2031+012009069GF103991031081008001001001MA1999999101881MD1310061+9999REMSYN088AAXX  17034 67143 32580 32802 10185 20165 30188 40195 53006 83800 333 81820 83640 92438;EQDQ01  00002PRCP99
0251671430999992000101706004-21200+048360FM-12+0006FMSM V0202801N002112200019N0300001N1+02561+02201102071ADDAA199000091GA1041+006009089GF104991041081008001001001KA1120M+02631KA2120N+01851MA1999999102001MD1210121+9999REMSYN112AAXX  17064 67143 32580 42804 10256 20220 30200 40207 52012 84800 333 0//00 10263 20185 50//4 55/// 84820 92438;EQDQ01  00002PRCP99
0217671430999992000101709004-21200+048360FM-12+0006FMSM V0203201N006210120019N0300001N1+02451+02191101971ADDAA199000091GA1031+006009089GA2051+012009069GF107991071081008001999999MA1999999101901MD1810101+9999REMSYN088AAXX  17094 67143 32580 73212 10245 20219 30190 40197 58010 878// 333 83820 85640 92438;EQDQ01  00002PRCP99
0223671430999992000101712004-21200+048360FM-12+0006FMSM V0200801N005110099019N0250001N1+02301+02091101801ADDAA199000091GA1031+005109089GA2051+009909069GF107991071081004501999999MA1999999101731MD1710171+9999REMSYN094AAXX  17124 67143 32475 70810 10230 20209 30173 40180 57017 878// 333 0//00 83817 85633 92438;EQDQ01  00002PRCP99
0264671430999992000101715004-21200+048360FM-12+0006FMSM V0200801N005110099019N0200001N1+02181+01981101871ADDAA199000091AY121031AY221031GA1021+005109089GA2061+009909069GF107991071081004501999999KA1120M+02581MA1999999101801MD1310071+9999MW1151REMSYN100AAXX  17154 67143 31470 70810 10218 20198 30180 40187 53007 71522 878// 333 10258 82817 86633 92438;EQDQ01  00002PRCP99
0235671430999992000101800004-21200+048360FM-12+0006FMSM V0200401N002110099019N0200001N1+01901+01671101791ADDAA199000091GA1011+005109089GA2061+009909069GF106991061081004501001001MA1999999101721MD1710121+9999MW1151REMSYN100AAXX  18004 67143 31470 60404 10190 20167 30172 40179 57012 715// 86800 333 0//00 81817 86633 924/8;EQDQ01  00002PRCP99
0247671430999992000101803004-21200+048360FM-12+0006FMSM V0202801N002110099019N0200001N1+01821+01581101801ADDAA199000091AY121031GA1011+005109089GA2061+009909069GF108991061081004501071999MA1999999101731MD1510011+9999MW1151REMSYN104AAXX  18034 67143 31470 82804 10182 20158 30173 40180 55001 7152/ 8687/ 333 81817 86633 92436 555 82360;EQDQ01  00002PRCP99
0301671430999992000101806004-21200+048360FM-12+0006FMSM V0202801N003110120019N0200001N1+02261+02011101831ADDAA199000091AY121061AY221061GA1031+006009089GA2051+012009069GF107991071081008001999999KA1120M+02581KA2120N+01821MA1999999101761MD1210031+9999MW1151REMSYN124AAXX  18064 67143 31570 72806 10226 20201 30176 40183 52003 71522 878// 333 0//00 10258 20182 50//4 55/// 83820 85640 92438;EQDQ01  00002PRCP99
0239671430999992000101809004-21200+048360FM-12+0006FMSM V0203401N004110099019N0250001N1+02221+01951101711ADDAA199000091GA1021+005109089GA2041+009909069GA3031+030009039GF108991061081004501071999MA1999999101641MD1810121+9999REMSYN094AAXX  18094 67143 32475 83408 10222 20195 30164 40171 58012 8687/ 333 82817 84633 83360 92438;EQDQ01  00002PRCP99
0223671430999992000101812004-21200+048360FM-12+0006FMSM V0203401N003110120019N0250001N1+02281+01801101631ADDAA199000091GA1011+006009089GA2061+012009069GF108991061081008001071999MA1999999101561MD1710081+9999REMSYN094AAXX  18124 67143 32575 83406 10228 20180 30156 40163 57008 8687/ 333 0//00 81820 86640 92438;EQDQ01  00002PRCP99
0258671430999992000101815004-21200+048360FM-12+0006FMSM V0200601N002110099019N0250001N1+02201+01861101681ADDAA199000091GA1011+005109089GA2061+009909069GA3031+030009039GF108991061081004501071999KA1120M+02321MA1999999101611MD1310051+9999REMSYN100AAXX  18154 67143 32475 80604 10220 20186 30161 40168 53005 8687/ 333 10232 81817 86633 83360 92438;EQDQ01  00002PRCP99
0223671430999992000101900004-21200+048360FM-12+0006FMSM V0203401N002110120019N0300001N1+01891+01641101581ADDAA199000091GA1011+006009089GA2061+012009069GF106991061081008001001001MA1999999101511MD1710141+9999REMSYN094AAXX  19004 67143 33580 63404 10189 20164 30151 40158 57014 86800 333 0//00 81820 86640 924/8;EQDQ01  00002PRCP99
0237671430999992000101903004-21200+048360FM-12+0006FMSM V0209999C000010120019N0160001N1+02001+01761101681ADDAA199000091AY121031GA1011+005109089GA2061+012009069GF106991061081004501001001MA1999999101611MD1310101+9999MW1151REMSYN094AAXX  19034 67143 31466 60000 10200 20176 30161 40168 53010 7152/ 86800 333 81817 86640 92438;EQDQ01  00002PRCP99
0289671430999992000101906004-21200+048360FM-12+0006FMSM V0203401N005110120019N0300001N1+02561+02141101771ADDAA199000091GA1031+006009089GA2031+012009069GF105991051081008001001001KA1120M+99999KA2120N+01891MA1999999101701MD1110091+9999REMSYN118AAXX  19064 67143 32580 53410 10256 20214 30170 40177 51009 85800 333 0//00 10232 20189 50//4 55/// 83820 83640 92438;EQDQ01  00002PRCP99Q02 +02322ATMX  
0217671430999992000101909004-21200+048360FM-12+0006FMSM V0200801N005112200019N0300001N1+02601+02231101641ADDAA199000091GA1021+006009089GA2031+012009069GF104991041081008001001001MA1999999101571MD1710131+9999REMSYN088AAXX  19094 67143 32580 40810 10260 20223 30157 40164 57013 84800 333 82820 83640 92438;EQDQ01  00002PRCP99
0223671430999992000101912004-21200+048360FM-12+0006FMSM V0200601N005112200019N0300001N1+02451+02101101481ADDAA199000091GA1011+005109089GA2031+012009069GF103991031081004501001001MA1999999101411MD1710161+9999REMSYN094AAXX  19124 67143 32480 30610 10245 20210 30141 40148 57016 83800 333 0//00 81817 83640 92438;EQDQ01  00002PRCP99
0236671430999992000101915004-21200+048360FM-12+0006FMSM V0200401N006210120019N0300001N1+02361+02151101561ADDAA199000091GA1011+005109089GA2061+012009069GF106991061081004501001001KA1120M+02661MA1999999101491MD1310081+9999REMSYN094AAXX  19154 67143 32480 60412 10236 20215 30149 40156 53008 86800 333 10266 81817 86640 92438;EQDQ01  00002PRCP99
0223671430999992000102000004-21200+048360FM-12+0006FMSM V0200401N003112200019N0300001N1+02011+01761101591ADDAA199000091GA1011+006009089GA2021+012009069GF102991021081008001001001MA1999999101521MD1710081+9999REMSYN094AAXX  20004 67143 33580 20406 10201 20176 30152 40159 57008 82800 333 0//00 81820 82640 924/8;EQDQ01  00002PRCP99
0217671430999992000102003004-21200+048360FM-12+0006FMSM V0209999C000012200019N0300001N1+01961+01761101721ADDAA199000091GA1011+006009089GA2041+012009069GF104991041081008001001001MA1999999101651MD1310131+9999REMSYN088AAXX  20034 67143 32580 40000 10196 20176 30165 40172 53013 84800 333 81820 84640 92438;EQDQ01  00002PRCP99
0251671430999992000102006004-21200+048360FM-12+0006FMSM V0200401N005112200019N0300001N1+02601+02311101781ADDAA199000091GA1031+006009089GF103991031021008001001001KA1120M+02661KA2120N+01891MA1999999101711MD1210061+9999REMSYN112AAXX  20064 67143 32580 30410 10260 20231 30171 40178 52006 83200 333 0//00 10266 20189 50//4 55/// 83820 92438;EQDQ01  00002PRCP99
0195671430999992000102009004-21200+048360FM-12+0006FMSM V0200401N005112200019N0300001N1+02731+02401101681ADDAA199000091GA1031+006009089GF103991031021008001001001MA1999999101611MD1810101+9999REMSYN082AAXX  20094 67143 32580 30410 10273 20240 30161 40168 58010 83200 333 83820 92438;EQDQ01  00002PRCP99
0201671430999992000102012004-21200+048360FM-12+0006FMSM V0200401N005112200019N0400001N1+02581+02201101481ADDAA199000091GA1011+006909089GF101991011021008001001001MA1999999101411MD1210201+9999REMSYN088AAXX  20124 67143 32582 10410 10258 20220 30141 40148 52020 81200 333 0//00 81823 92438;EQDQ01  00002PRCP99
0195671430999992000102103004-21200+048360FM-12+0006FMSM V0209999C000012200019N0300001N1+02001+01781101811ADDAA199000091GA1031+006009089GF104991041081008001001001MA1999999101741MD1310131+9999REMSYN082AAXX  21034 67143 32580 40000 10200 20178 30174 40181 53013 84800 333 83820 92438;EQDQ01  00002PRCP99
0251671430999992000102106004-21200+048360FM-12+0006FMSM V0200601N006212200019N0300001N1+02601+02311101901ADDAA199000091GA1041+006009089GF104991041021008001001001KA1120M+02741KA2120N+01991MA1999999101831MD1210091+9999REMSYN112AAXX  21064 67143 32580 40612 10260 20231 30183 40190 52009 84200 333 0//00 10274 20199 50//4 55/// 84820 92438;EQDQ01  00002PRCP99
0195671430999992000102109004-21200+048360FM-12+0006FMSM V0200601N005112200019N0300001N1+02641+02321101781ADDAA199000091GA1021+006009089GF102991021021008001001001MA1999999101711MD1810121+9999REMSYN082AAXX  21094 67143 32580 20610 10264 20232 30171 40178 58012 82200 333 82820 92438;EQDQ01  00002PRCP99
0189671430999992000102112004-21200+048360FM-12+0006FMSM V0200601N006212200019N0400001N1+02621+02271101501ADDAA199000091GA1001+999999999GF100991001001999999001001MA1999999101431MD1710281+9999REMSYN076AAXX  21124 67143 32982 00612 10262 20227 30143 40150 57028 333 0//00 92438;EQDQ01  00002PRCP99
0252671430999992000102115004-21200+048360FM-12+0006FMSM V0200601N005112200019N0150001N1+02421+02181101661ADDAA199000091AY101031AY201031GA1031+006009089GF103991031021008001031001KA1120M+02811MA1999999101591MD1310161+9999MW1041REMSYN104AAXX  21154 67143 31565 30610 10242 20218 30159 40166 53016 70400 83230 333 10281 83820 924/7 555 81360;EQDQ01  00002PRCP99
0239671430999992000102203004-21200+048360FM-12+0006FMSM V0200601N002112200019N0150001N1+02001+01841101681ADDAA199000091AY101031AY201031GA1011+012009069GF103991021081008001001021MA1999999101611MD1310081+9999MW1101REMSYN104AAXX  22034 67143 31565 30604 10200 20184 30161 40168 53008 71000 82802 333 82820 92437 555 81640 82073;EQDQ01  00002PRCP99
0261671430999992000102206004-21200+048360FM-12+0006FMSM V0203601N006212200019N0300001N1+02641+02351101731ADDAA199000091GA1041+006009089GF104991041021008001001021KA1120M+02811KA2120N+01941MA1999999101661MD1210051+9999REMSYN122AAXX  22064 67143 32580 43612 10264 20235 30166 40173 52005 84202 333 0//00 10281 20194 5///4 55/// 84820 92438 555 81073;EQDQ01  00002PRCP99
0205671430999992000102209004-21200+048360FM-12+0006FMSM V0200801N004112200019N0300001N1+02801+02491101641ADDAA199000091GA1031+006909089GF103991031021008001001021MA1999999101571MD1810091+9999REMSYN092AAXX  22094 67143 32580 30808 10280 20249 30157 40164 58009 83202 333 83823 92438 555 81073;EQDQ01  00002PRCP99
0201671430999992000102212004-21200+048360FM-12+0006FMSM V0200801N005110360019N0300001N1+02571+02261101411ADDAA199000091GA1031+006009089GF105991031021008001031021MA1999999101341MD1710231+9999REMSYN088AAXX  22124 67143 32580 50810 10257 20226 30134 40141 57023 83232 333 0//00 83820 92438;EQDQ01  00002PRCP99
0195671430999992000102303004-21200+048360FM-12+0006FMSM V0209999C000012200019N0300001N1+01981+01721101631ADDAA199000091GA1011+006009089GF101991011081008001001021MA1999999101161MD1310161+9999REMSYN082AAXX  23034 67143 3/580 10000 10198 20172 30116 40163 53016 81802 333 81820 92438;EQDQ01  00002PRCP99
0251671430999992000102306004-21200+048360FM-12+0006FMSM V0203201N005112200019N0300001N1+02621+02301101721ADDAA199000091GA1011+006009089GF101991011011008001001001KA1120M+02841KA2120N+01901MA1999999101651MD1110091+9999REMSYN112AAXX  23064 67143 32580 13210 10262 20230 30165 40172 51009 81100 333 0//00 10284 20190 50//4 55/// 81820 92438;EQDQ01  00002PRCP99
0195671430999992000102309004-21200+048360FM-12+0006FMSM V0200801N004112200019N0300001N1+02641+02291101501ADDAA199000091GA1011+006009089GF101991011011008001001001MA1999999101431MD1710221+9999REMSYN082AAXX  23094 67143 32580 10808 10264 20229 30143 40150 57022 81100 333 81820 92438;EQDQ01  00002PRCP99
0279671430999992000102312004-21200+048360FM-12+0006FMSM V0200801N004112200019N0200001N1+02601+02281101301ADDAA199000091AY101061AY201061GA1011+006009099GA2011+006009089GF103991031091008001001021MA1999999101231MD1710201+9999MW1041REMSYN128AAXX  23124 67143 31570 30808 10260 20228 30123 40130 57020 70400 83902 333 0//00 81820 81920 94996 94997 95837 92438 555 82073;EQDQ01  00002PRCP99
0223671430999992000102400004-21200+048360FM-12+0006FMSM V0202801N002112200019N0200001N1+02051+01811101441ADDAA199000091AY101061AY201061GA1011+012009069GF101991011051012501001001MA1999999101421MD1510021+9999MW1021REMSYN088AAXX  24004 67143 31670 12804 10205 20181 30142 40144 55002 70200 81500 333 81640 92438;EQDQ01  00002PRCP99
0251671430999992000102406004-21200+048360FM-12+0006FMSM V0200801N002112200019N0300001N1+02661+02281101581ADDAA199000091GA1011+006009089GF101991011011008001001001KA1120M+02701KA2120N+02001MA1999999101511MD1110091+9999REMSYN112AAXX  24064 67143 32580 10804 10266 20228 30151 40158 51009 81100 333 0//00 10270 20200 50//4 55/// 81820 92438;EQDQ01  00002PRCP99
0183671430999992000102409004-21200+048360FM-12+0006FMSM V0200801N004112200019N0300001N1+02801+02401101441ADDAA199000091GA1001+999999999GF100991001001999999001001MA1999999101371MD1810141+9999REMSYN070AAXX  24094 67143 32980 00808 10280 20240 30137 40144 58014 333 92438;EQDQ01  00002PRCP99
0201671430999992000102412004-21200+048360FM-12+0006FMSM V0200801N004112200019N0300001N1+02651+02351101291ADDAA199000091GA1011+005109089GF101991011011004501001001MA1999999101221MD1710151+9999REMSYN088AAXX  24124 67143 32480 10808 10265 20235 30122 40129 57015 81100 333 0//00 81817 92438;EQDQ01  00002PRCP99
0223671430999992000102503004-21200+048360FM-12+0006FMSM V0200801N002112200019N0200001N1+02251+01891101601ADDAA199000091AY101031AY201031GA1011+006009089GF101991011081008001001021MA1999999101531MD1310071+9999MW1101REMSYN088AAXX  25034 67143 31570 10804 10225 20189 30153 40160 53007 71000 81802 333 81820 92438;EQDQ01  00002PRCP99
0251671430999992000102506004-21200+048360FM-12+0006FMSM V0200801N005112200019N0300001N1+02701+02371101721ADDAA199000091GA1041+006009089GF104991041081008001001001KA1120M+02801KA2120N+02211MA1999999101651MD1210121+9999REMSYN112AAXX  25064 67143 32580 40810 10270 20237 30165 40172 52012 84800 333 0//00 10280 20221 50//4 55/// 84820 92438;EQDQ01  00002PRCP99
0195671430999992000102509004-21200+048360FM-12+0006FMSM V0203601N006212200019N0300001N1+02801+02451101681ADDAA199000091GA1031+006009089GF103991031021008001001001MA1999999101611MD1810041+9999REMSYN082AAXX  25094 67143 32580 33612 10280 20245 30161 40168 58004 83200 333 83820 92438;EQDQ01  00002PRCP99
0229671430999992000102512004-21200+048360FM-12+0006FMSM V0200801N006212200019N0200001N1+02701+02411101551ADDAA199000091AY101061AY201061GA1011+005109089GF101991011011004501001001MA1999999101481MD1710131+9999MW1101REMSYN094AAXX  25124 67143 31470 10812 10270 20241 30148 40155 57013 71000 81100 333 0//00 81817 92438;EQDQ01  00002PRCP99
0264671430999992000102515004-21200+048360FM-12+0006FMSM V0200801N007210099019N0200001N1+02541+02281101731ADDAA199000091AY121031AY201031GA1041+005109089GA2041+009909069GF107991071081004501999999KA1120M+02841MA1999999101661MD1310181+9999MW1101REMSYN100AAXX  25154 67143 31470 70814 10254 20228 30166 40173 53018 71020 878// 333 10284 84817 84633 92438;EQDQ01  00002PRCP99
0211671430999992000102600004-21200+048360FM-12+0006FMSM V0200801N005112200019N0300001N1+02421+02121101721ADDAA199000091GA1031+005109089GF104991041081004501001001MA1999999101651MD1810111+9999REMSYN098AAXX  26004 67143 33480 40810 10242 20212 30165 40172 58011 84800 333 0//00 83817 924/8 555 82640;EQDQ01  00002PRCP99
0237671430999992000102603004-21200+048360FM-12+0006FMSM V0200801N003110099019N0200001N1+02451+02001101831ADDAA199000091AY121031GA1021+005109089GA2061+009909069GF107991071081004501999999MA1999999101761MD1310111+9999MW1151REMSYN094AAXX  26034 67143 31470 70806 10245 20200 30176 40183 53011 7152/ 878// 333 82817 86633 92438;EQDQ01  00002PRCP99
0251671430999992000102606004-21200+048360FM-12+0006FMSM V0200801N004112200019N0350001N1+02721+02441101951ADDAA199000091GA1041+006009089GF104991041021008001001001KA1120M+02841KA2120N+02411MA1999999101881MD1210121+9999REMSYN112AAXX  26064 67143 32581 40808 10272 20244 30188 40195 52012 84200 333 0//00 10284 20241 50//4 55/// 84820 92438;EQDQ01  00002PRCP99
0195671430999992000102609004-21200+048360FM-12+0006FMSM V0200801N005112200019N0300001N1+02821+02481101901ADDAA199000091GA1011+005109089GF101991011011004501001001MA1999999101831MD1710051+9999REMSYN082AAXX  26094 67143 32480 10810 10282 20248 30183 40190 57005 81100 333 81817 92438;EQDQ01  00002PRCP99
0201671430999992000102612004-21200+048360FM-12+0006FMSM V0200801N006212200019N0300001N1+02661+02311101761ADDAA199000091GA1021+006009089GF102991021011008001001001MA1999999101691MD1710141+9999REMSYN088AAXX  26124 67143 32580 20812 10266 20231 30169 40176 57014 82100 333 0//00 82820 92438;EQDQ01  00002PRCP99
0214671430999992000102615004-21200+048360FM-12+0006FMSM V0200801N007212200019N0300001N1+02501+02201101821ADDAA199000091GA1041+005109089GF104991041081008001001001KA1120M+02861MA1999999101751MD1310061+9999REMSYN088AAXX  26154 67143 32580 40814 10250 20220 30175 40182 53006 84800 333 10286 84817 92438;EQDQ01  00002PRCP99
0217671430999992000102703004-21200+048360FM-12+0006FMSM V0203401N003110120019N0350001N1+02151+01881101881ADDAA199000091GA1011+006009089GA2061+012009069GF106991061081008001001001MA1999999101811MD1510021+9999REMSYN088AAXX  27034 67143 32581 63406 10215 20188 30181 40188 55002 86800 333 81820 86640 92438;EQDQ01  00002PRCP99
0251671430999992000102706004-21200+048360FM-12+0006FMSM V0200801N006212200019N0350001N1+02641+02321101951ADDAA199000091GA1021+006009089GF102991021081008001001021KA1120M+02861KA2120N+02101MA1999999101881MD1110071+9999REMSYN112AAXX  27064 67143 32581 20812 10264 20232 30188 40195 51007 82802 333 0//00 10286 20210 50//4 55/// 82820 92438;EQDQ01  00002PRCP99
0195671430999992000102709004-21200+048360FM-12+0006FMSM V0200801N006212200019N0300001N1+02701+02341101781ADDAA199000091GA1011+006009089GF101991011011008001001021MA1999999101711MD1710171+9999REMSYN082AAXX  27094 67143 32580 10812 10270 20234 30171 40178 57017 81102 333 81820 92438;EQDQ01  00002PRCP99
0189671430999992000102712004-21200+048360FM-12+0006FMSM V0200801N006212200019N0350001N1+02661+02361101571ADDAA199000091GA1001+999999999GF100991001001999999001001MA1999999101501MD1710211+9999REMSYN076AAXX  27124 67143 32981 00812 10266 20236 30150 40157 57021 333 0//00 92438;EQDQ01  00002PRCP99
0214671430999992000102715004-21200+048360FM-12+0006FMSM V0200801N007212200019N0350001N1+02461+02191101621ADDAA199000091GA1011+012009069GF101991011051012501001001KA1120M+02841MA1999999101551MD1310051+9999REMSYN088AAXX  27154 67143 32681 10814 10246 20219 30155 40162 53005 81500 333 10284 81640 92438;EQDQ01  00002PRCP99
0183671430999992000102803004-21200+048360FM-12+0006FMSM V0203601N005112200019N0300001N1+02121+01801101591ADDAA199000091GA1001+999999999GF100991001001999999001001MA1999999101521MD1510011+9999REMSYN070AAXX  28034 67143 33980 03610 10212 20180 30152 40159 55001 333 92438;EQDQ01  00002PRCP99
0251671430999992000102806004-21200+048360FM-12+0006FMSM V0203601N007212200019N0400001N1+02721+02171101651ADDAA199000091GA1011+012009069GF101991011051012501001001KA1120M+02841KA2120N+02081MA1999999101581MD1110061+9999REMSYN112AAXX  28064 67143 32682 13614 10272 20217 30158 40165 51006 81500 333 0//00 10284 20208 50//4 55/// 81640 92438;EQDQ01  00002PRCP99
0243671430999992000102903004-21200+048360FM-12+0006FMSM V0200601N005112200019N0250001N1+02241+01961101291ADDAA112000491AY161031GA1011+005109089GA2061+009909069GF199999061081004501031001MA1999999101221MD1510001+9999MW1001REMSYN100AAXX  29034 67143 21475 20610 10224 20196 30122 40129 55000 7006/ 86830 333 69942 81817 86633 92438;EQDQ01+000022SCOTCV
0273671430999992000102906004-21200+048360FM-12+0006FMSM V0200401N007210120019N0300001N1+02641+02231101351ADDAA199000091GA1011+005109089GA2051+012009069GF105991051081004501001021KA1120M+02841KA2120N+01981MA1999999101281MD1210061+9999REMSYN118AAXX  29064 67143 32480 50414 10264 20223 30128 40135 52006 85802 333 0//00 10284 20198 50//4 55/// 81817 85640 92438;EQDQ01  00002PRCP99
0273671430999992000103006004-21200+048360FM-12+0006FMSM V0201001N004110120019N0300001N1+02561+02201101451ADDAA199000091GA1031+006009089GA2031+012009069GF105991051081008001001001KA1120M+02821KA2120N+02121MA1999999101381MD1210091+9999REMSYN118AAXX  30064 67143 32580 51008 10256 20220 30138 40145 52009 85800 333 0//00 10282 20212 5///4 55/// 83820 83640 92438;EQDQ01  00002PRCP99
0195671430999992000103009004-21200+048360FM-12+0006FMSM V0201001N005112200019N0300001N1+02581+02181101341ADDAA199000091GA1011+006009089GF101991011011008001001001MA1999999101271MD1710111+9999REMSYN082AAXX  30094 67143 32580 11010 10258 20218 30127 40134 57011 81100 333 81820 92438;EQDQ01  00002PRCP99
0285671430999992000103012004-21200+048360FM-12+0006FMSM V0201201N005110120019N0200001N1+02651+02321101261ADDAA199000091AY121061AY201061GA1011+005109099GA2021+005109089GA3041+012009069GF105991051091004501031001MA1999999101191MD1710081+9999MW1041REMSYN118AAXX  30124 67143 31470 51210 10265 20232 30119 40126 57008 70420 85930 333 0//00 82817 81917 84640 94995 95835 92438;EQDQ01  00002PRCP99
0236671430999992000103100004-21200+048360FM-12+0006FMSM V0200801N005110099019N0080001N1+02461+02191101421ADDAA106009991AC11C9AY161061GA1021+005109089GA2071+009909069GF108991081081004501999999MA1999999101351MD1710071+9999MW1601REMSYN106AAXX  31004 67143 11458 80810 10246 20219 30135 40142 57007 60101 7606/ 888// 333 0//91 82817 87633 924/6;
0294671430999992000103106004-21200+048360FM-12+0006FMSM V0200801N004110120019N0200001N1+02421+02121101731ADDAA124021191AC12C9AY161061AY221061GA1041+006009089GA2051+012009069GF107991071081008001999999KA1120M+02721KA2120N+02281MA1999999101661MD1210121+9999MW1151REMSYN130AAXX  31064 67143 11570 70808 10242 20212 30166 40173 52012 60214 71562 878// 333 0//92 10272 20228 50//4 55/// 84820 85640 92438;
0198671430999992000103109004-21200+048360FM-12+0006FMSM V0200801N004110120019N0300001N1+01721+99999101641ADDAA199000021GA1021+006009089GA2041+012009069GF105991051081008001001001MA1999999101571MD1810091+9999REMSYN088AAXX  31094 67143 32580 50808 10172 20234 30157 40164 58009 85800 333 82820 84640 92437;
0192671430999992000103112004-21200+048360FM-12+0006FMSM V0200801N005112200019N0300001N1+02681+02301101411ADDAA199000021GA1021+006009089GF102991021081008001001001MA1999999101341MD1710231+9999REMSYN098AAXX  31124 67143 32580 20810 10268 20230 30134 40141 57023 82800 333 0//00 82820 92438 555 81640;
0247671430999992000110100004-21200+048360FM-12+0006FMSM V0200801N003110099019N0200001N1+02421+02151101731ADDAA199000091AY121061GA1031+005109089GA2051+009909069GF107991061081004501071999MA1999999101661MD1310111+9999MW1151REMSYN104AAXX  01004 67143 31470 70806 10242 20215 30166 40173 53011 7152/ 8687/ 333 83817 85633 92438 555 82360;EQDQ01  00002PRCP99
0285671430999992000110106004-21200+048360FM-12+0006FMSM V0200801N00411007501CN0300001N1+02721+02401101821ADDAA199000091GA1011+006009099GA2031+006009089GF107991071091008001999999KA1120M+02801KA2120N+02401MA1999999101751MD1210091+9999REMSYN130AAXX  01064 67143 32580 70808 10272 20240 30175 40182 52009 879// 333 0//00 10280 20240 50//4 55/// 83820 81920 94996 95836 92438;EQDQ01  00002PRCP99
0273671430999992000110112004-21200+048360FM-12+0006FMSM V0200801N00411090001CN0300001N1+02581+02281101581ADDAA199000091GA1011+006009099GA2021+006009089GA3041+012509099GA4061+069009009GF107991021091008001001021MA1999999101511MD1710161+9999REMSYN112AAXX  01124 67143 32580 70808 10258 20228 30151 40158 57016 82902 333 0//00 82820 81920 86073 84996 95836 92438;EQDQ01  00002PRCP99
0276671430999992000110115004-21200+048360FM-12+0006FMSM V0200801N004110099019N0300001N1+02481+02321101591ADDAA199000091GA1011+006009099GA2021+006009089GA3061+009909069GF107991051091008001071999KA1120M+02901MA1999999101521MD1310011+9999REMSYN118AAXX  01154 67143 32580 70808 10248 20232 30152 40159 53001 8597/ 333 10290 82820 81920 86633 94995 94996 95836 92438;EQDQ01  00002PRCP99
0223671430999992000110200004-21200+048360FM-12+0006FMSM V0200801N001012200019N0300001N1+02141+01861101501ADDAA199000091GA1011+006009089GA2021+012009069GF102991021081008001001001MA1999999101431MD1710151+9999REMSYN094AAXX  02004 67143 33580 20802 10214 20186 30143 40150 57015 82800 333 0//00 81820 82640 924/8;EQDQ01  00002PRCP99
0211671430999992000110412004-21200+048360FM-12+0006FMSM V0201001N003112200019N0400001N1+02651+02191101681ADDAA199000091GA1031+006909089GF104991031021008001001021MA1999999101611MD1710121+9999REMSYN098AAXX  04124 67143 32582 41006 10265 20219 30161 40168 57012 83202 333 0//00 83823 92438 555 82075;EQDQ01  00002PRCP99
0236671430999992000110415004-21200+048360FM-12+0006FMSM V0201001N003110690019N0300001N1+02501+02171101821ADDAA199000091GA1031+006009089GA2041+069009009GF106991041081008001001021KA1120M+02891MA1999999101751MD1310141+9999REMSYN094AAXX  04154 67143 32580 61006 10250 20217 30175 40182 53014 84802 333 10289 83820 84073 92438;EQDQ01  00002PRCP99
0227671430999992000110503004-21200+048360FM-12+0006FMSM V0201001N001010120019N0300001N1+02141+01881101951ADDAA199000091GA1021+006009089GA2061+012009069GF106991061081008001001021MA1999999101881MD1310121+9999REMSYN098AAXX  05034 67143 32580 61002 10214 20188 30188 40195 53012 86802 333 82820 86640 92438 555 81073;EQDQ01  00002PRCP99
0261671430999992000110506004-21200+048360FM-12+0006FMSM V0200601N002112200019N0300001N1+02581+02201102001ADDAA199000091GA1041+006009089GF104991041021008001031001KA1120M+02891KA2120N+01971MA1999999101931MD1110051+9999REMSYN122AAXX  05064 67143 32580 40604 10258 20220 30193 40200 51005 84230 333 0//00 10289 20197 50//4 55/// 84820 92438 555 81360;EQDQ01  00002PRCP99
0211671430999992000110509004-21200+048360FM-12+0006FMSM V0200201N003112200019N0400001N1+02721+02281101901ADDAA199000091GA1011+030009039GF104991041021008001031021MA1999999101831MD1710101+9999REMSYN098AAXX  05094 67143 32582 40206 10272 20228 30183 40190 57010 84232 333 84823 92438 555 81360 81075;EQDQ01  00002PRCP99
0223671430999992000110512004-21200+048360FM-12+0006FMSM V0203601N003112200019N0350001N1+02661+02251101751ADDAA199000091GA1031+006009089GA2031+069009009GF104991031021008001001021MA1999999101681MD1710151+9999REMSYN094AAXX  05124 67143 32581 43606 10266 20225 30168 40175 57015 83202 333 0//00 83820 83073 92438;EQDQ01  00002PRCP99
0236671430999992000110515004-21200+048360FM-12+0006FMSM V0203601N003110690019N0300001N1+02501+02141101791ADDAA199000091GA1021+006009089GA2061+069009009GF106991021081008001001021KA1120M+02821MA1999999101721MD1310041+9999REMSYN094AAXX  05154 67143 32580 63606 10250 20214 30172 40179 53004 82802 333 10282 82820 86073 92438;EQDQ01  00002PRCP99
0236671430999992000110600004-21200+048360FM-12+0006FMSM V0203601N001010099019N0080001N1+02201+01981101771ADDAA106001091AC11C9AY161061GA1021+005109089GA2071+009909069GF107991071081004501999999MA1999999101701MD1710131+9999MW1611REMSYN106AAXX  06004 67143 11458 73602 10220 20198 30170 40177 57013 60011 7616/ 878// 333 0//51 82817 87633 924/6;
0232671430999992000110603004-21200+048360FM-12+0006FMSM V0203601N001010690019N0300001N1+02211+01981101751ADDAA112001091AY161031AY221031GA1031+006009089GA2041+069009009GF106991041081008001001021MA1999999101681MD1610021+9999MW1011REMSYN100AAXX  06034 67143 21580 63602 10221 20198 30168 40175 56002 70162 84802 333 60012 83820 84073 92438;
0294671430999992000110606004-21200+048360FM-12+0006FMSM V0201001N003110690019N0300001N1+02651+02321101831ADDAA124001091AC12I9AY161061AY221061GA1031+006009089GA2061+069009009GF106991031021008001001021KA1120M+02821KA2120N+02201MA1999999101761MD1210081+9999MW1021REMSYN130AAXX  06064 67143 11580 61006 10265 20232 30176 40183 52008 60014 70262 83202 333 0//16 10282 20220 50//4 55/// 83820 86073 92438;
0261671430999992000110706004-21200+048360FM-12+0006FMSM V0200601N00101012001CN0300001N1+02721+02341101541ADDAA199000091GA1041+006009089GF105991051081008001001001KA1120M+02831KA2120N+02091MA1999999101471MD1110071+9999REMSYN122AAXX  07064 67143 32580 50602 10272 20234 30147 40154 51007 85800 333 0//00 10283 20209 5///4 55/// 84820 92438 555 82640;EQDQ01  00002PRCP99
0205671430999992000110709004-21200+048360FM-12+0006FMSM V0200601N001012200019N0350001N1+02741+02321101421ADDAA199000091GA1021+006009089GF103991031081008001001001MA1999999101351MD1810121+9999REMSYN092AAXX  07094 67143 32581 30602 10274 20232 30135 40142 58012 83800 333 82820 92438 555 81640;EQDQ01  00002PRCP99
0201671430999992000110712004-21200+048360FM-12+0006FMSM V0200601N001012200019N0400001N1+02681+02301101281ADDAA199000091GA1011+006009089GF101991011011008001001001MA1999999101211MD1710141+9999REMSYN088AAXX  07124 67143 32582 10602 10268 20230 30121 40128 57014 81100 333 0//00 81820 92438;EQDQ01  00002PRCP99
0214671430999992000110715004-21200+048360FM-12+0006FMSM V0200601N001012200019N0300001N1+02481+02181101421ADDAA199000091GA1011+006009089GF101991011081008001001001KA1120M+02841MA1999999101351MD1310141+9999REMSYN088AAXX  07154 67143 32580 10602 10248 20218 30135 40142 53014 81800 333 10284 81820 92438;EQDQ01  00002PRCP99
0229671430999992000110803004-21200+048360FM-12+0006FMSM V0200401N002112200019N0080001N1+02151+01881101521ADDAA199000091GA1011+006009089GA2041+069009009GF104991021081008001001021MA1999999101451MD1310061+9999MW1401REMSYN094AAXX  08034 67143 31558 40404 10215 20188 30145 40152 53006 740// 82802 333 81820 84073 92438;EQDQ01  00002PRCP99
0251671430999992000110806004-21200+048360FM-12+0006FMSM V0200401N003112200019N0300001N1+02601+02221101591ADDAA199000091GA1021+006009089GF103991031081008001001021KA1120M+02841KA2120N+02071MA1999999101521MD1110071+9999REMSYN112AAXX  08064 67143 32580 30406 10260 20222 30152 40159 51007 83802 333 0//00 10284 20207 50//4 55/// 82820 92438;EQDQ01  00002PRCP99
0217671430999992000110809004-21200+048360FM-12+0006FMSM V0200401N004110120019N0300001N1+02681+02301101481ADDAA199000091GA1031+006009089GA2061+012009069GF106991061081008001001021MA1999999101411MD1810111+9999REMSYN088AAXX  08094 67143 32580 60408 10268 20230 30141 40148 58011 86802 333 83820 86640 92438;EQDQ01  00002PRCP99
0233671430999992000110812004-21200+048360FM-12+0006FMSM V0200401N004110120019N0350001N1+02801+02401101281ADDAA199000091GA1021+006909089GA2051+012009069GF105991051081008001001021MA1999999101211MD1710201+9999REMSYN104AAXX  08124 67143 32581 50408 10280 20240 30121 40128 57020 85802 333 0//00 82823 85640 92438 555 81075;EQDQ01  00002PRCP99
0302671430999992000110815004-21200+048360FM-12+0006FMSM V0201001N003110300019N0200001N1+02481+02151101311ADDAA199000091AY121031AY221031GA1011+006009099GA2031+006009089GA3051+030009039GF107991041091008001071999KA1120M+02931MA1999999101241MD1210031+9999MW1151REMSYN122AAXX  08154 67143 31570 71006 10248 20215 30124 40131 52003 71522 8497/ 333 10293 83820 81920 85360 94996 94997 555 82633;EQDQ01  00002PRCP99
0234671430999992000110903004-21200+048360FM-12+0006FMSM V0201001N002110099019N0150001N1+02301+02121101411ADDAA112001091AY161031GA1031+003909079GA2061+009909069GF107991071081004501999999MA1999999101341MD1310071+9999MW1211REMSYN110AAXX  09034 67143 11465 71004 10230 20212 30134 40141 53007 7216/ 878// 333 60012 83713 86633 92437 555 82820;
0304671430999992000110906004-21200+048360FM-12+0006FMSM V0201001N004110090019N0100001N1+02301+02151101521ADDAA124004191AC11C9AY161061AY221061GA1031+003009079GA2071+009009069GF108991081081004501999999KA1120M+02931KA2120N+02181MA1999999101451MD1110111+9999MW1211REMSYN140AAXX  09064 67143 11460 81008 10230 20215 30145 40152 51011 60044 72162 888// 333 0//11 10293 20218 5///4 55/// 83710 87630 92436 555 82820;
0232671430999992000110909004-21200+048360FM-12+0006FMSM V0201001N004110120019N0300001N1+02801+02461101401ADDAA106000291AY161031AY221031GA1021+006009089GA2061+012009069GF106991061081008001001001MA1999999101331MD1810121+9999MW1011REMSYN100AAXX  09094 67143 21580 61008 10280 20246 30133 40140 58012 70162 86800 333 69921 82820 86640 92438;
0222671430999992000110912004-21200+048360FM-12+0006FMSM V0201001N004112200019N0300001N1+02701+02201101241ADDAA106000191AC11I9AY161061AY221061GA1041+006009089GF104991041081008001001021MA1999999101171MD1710161+9999MW1011REMSYN100AAXX  09124 67143 11580 41008 10270 20220 30117 40124 57016 69921 70162 84802 333 0//15 84820 92438;
0217671430999992000111003004-21200+048360FM-12+0006FMSM V0201001N001010099019N0300001N1+02321+02061101381ADDAA199000091GA1011+006009089GA2071+009909069GF107991071081008001999999MA1999999101311MD1310051+9999REMSYN088AAXX  10034 67143 32580 71002 10232 20206 30131 40138 53005 878// 333 81820 87633 92438;EQDQ01  00002PRCP99
0273671430999992000111006004-21200+048360FM-12+0006FMSM V0200801N002110099019N0300001N1+02571+02231101521ADDAA199000091GA1021+006009089GA2071+009909069GF107991071081008001999999KA1120M+02801KA2120N+02281MA1999999101451MD1210141+9999REMSYN118AAXX  10064 67143 32580 70804 10257 20223 30145 40152 52014 878// 333 0//00 10280 20228 50//4 55/// 82820 87633 92438;EQDQ01  00002PRCP99
0195671430999992000111009004-21200+048360FM-12+0006FMSM V0200801N004112200019N0300001N1+02901+02361101381ADDAA199000091GA1041+006009089GF104991041021008001001021MA1999999101311MD1710141+9999REMSYN082AAXX  10094 67143 32580 40808 10290 20236 30131 40138 57014 84202 333 84820 92438;EQDQ01  00002PRCP99
0217671430999992000111012004-21200+048360FM-12+0006FMSM V0200801N004112200019N0300001N1+02681+02271101311ADDAA199000091GA1021+030009039GF104991031021008001031021MA1999999101241MD1610071+9999REMSYN104AAXX  10124 67143 32580 40808 10268 20227 30124 40131 56007 83232 333 0//00 83820 92438 555 82360 83073;EQDQ01  00002PRCP99
0292671430999992000111015004-21200+048360FM-12+0006FMSM V0200801N004110300019N0300001N1+02541+02241101421ADDAA199000091GA1011+006009099GA2031+006009089GA3061+030009039GF107991041091008001071999KA1120M+02841MA1999999101361MD1310111+9999REMSYN134AAXX  10154 67143 32580 70808 10254 20224 30136 40142 53011 8497/ 333 10284 83820 81920 86360 94996 94997 95836 95837 92438 555 82640;EQDQ01  00002PRCP99
0227671430999992000111103004-21200+048360FM-12+0006FMSM V0200801N001010120019N0300001N1+02271+02101101701ADDAA199000091GA1021+006009089GA2041+012009069GF105991051081008001001021MA1999999101631MD1310201+9999REMSYN098AAXX  11034 67143 33580 50802 10227 20210 30163 40170 53020 85802 333 82820 84640 92438 555 81073;EQDQ01  00002PRCP99
0261671430999992000111106004-21200+048360FM-12+0006FMSM V0200601N003112200019N0300001N1+02681+02271101821ADDAA199000091GA1041+006009089GF104991041021008001001021KA1120M+02941KA2120N+02271MA1999999101751MD1210121+9999REMSYN122AAXX  11064 67143 32580 40606 10268 20227 30175 40182 52012 84202 333 0//00 10294 20227 5///4 55/// 84820 92438 555 81073;EQDQ01  00002PRCP99
0235671430999992000111200004-21200+048360FM-12+0006FMSM V0209999C00001012001CN0150001N1+02171+02001101671ADDAA199000091GA1021+006009089GA2051+999999089GF105991051081008001001021MA1999999101601MD1710131+9999MW1151REMSYN100AAXX  12004 67143 31565 50000 10217 20200 30160 40167 57013 715// 85802 333 0//00 82820 85853 924/8;EQDQ01  00002PRCP99
0245671430999992000111203004-21200+048360FM-12+0006FMSM V0203401N00101012001CN0200001N1+02281+02071101721ADDAA199000091AY121031AY221031GA1041+006009089GA2041+006009089GF107991061081008001001021MA1999999101651MD1310051+9999MW1151REMSYN094AAXX  12034 67143 31570 73402 10228 20207 30165 40172 53005 71522 86802 333 84820 84820 92438;EQDQ01  00002PRCP99
0301671430999992000111206004-21200+048360FM-12+0006FMSM V0203401N001010099019N0150001N1+02671+02281101801ADDAA199000091AY121061AY221061GA1041+006009089GA2051+009909069GF107991061081008001001021KA1120M+02941KA2120N+02171MA1999999101731MD1210081+9999MW1151REMSYN124AAXX  12064 67143 31565 73402 10267 20228 30173 40180 52008 71522 86802 333 0//00 10294 20217 50//4 55/// 84820 85633 92438;EQDQ01  00002PRCP99
0245671430999992000111209004-21200+048360FM-12+0006FMSM V0203401N001010099019N0200001N1+02761+02321101661ADDAA199000091AY121031AY221031GA1041+006009089GA2041+009909069GF106991061081008001001021MA1999999101591MD1710141+9999MW1151REMSYN094AAXX  12094 67143 31570 63402 10276 20232 30159 40166 57014 71522 86802 333 84820 84633 92438;EQDQ01  00002PRCP99
0217671430999992000111212004-21200+048360FM-12+0006FMSM V0200601N003110360019N0300001N1+02801+02341101451ADDAA199000091GA1031+030009039GF106991041021008001031021MA1999999101381MD1710211+9999REMSYN104AAXX  12124 67143 32580 60606 10280 20234 30138 40145 57021 84232 333 0//00 84820 92438 555 83360 82073;EQDQ01  00002PRCP99
0292671430999992000111215004-21200+048360FM-12+0006FMSM V0200601N003110690019N0300001N1+02581+02361101521ADDAA199000091GA1011+006009099GA2031+006009089GA3051+069009009GF107991031091008001001021KA1120M+02921MA1999999101451MD1310071+9999REMSYN134AAXX  12154 67143 32580 70606 10258 20236 30145 40152 53007 83902 333 10292 83820 81920 85073 94996 94997 95836 95837 92438 555 82640;EQDQ01  00002PRCP99
0223671430999992000111300004-21200+048360FM-12+0006FMSM V0200601N001012200019N0300001N1+02441+02141101481ADDAA199000091GA1011+006009089GA2041+012009069GF104991041081008001001001MA1999999101411MD1710151+9999REMSYN094AAXX  13004 67143 33580 40602 10244 20214 30141 40148 57015 84800 333 0//00 81820 84640 924/8;EQDQ01  00002PRCP99
0217671430999992000111303004-21200+048360FM-12+0006FMSM V0209999C000010120019N0350001N1+02301+02081101481ADDAA199000091GA1021+006009089GA2061+012009069GF107991071081008001999999MA1999999101411MD1510001+9999REMSYN088AAXX  13034 67143 32581 70000 10230 20208 30141 40148 55000 878// 333 82820 86640 92438;EQDQ01  00002PRCP99
0273671430999992000111306004-21200+048360FM-12+0006FMSM V0200601N003110120019N0300001N1+02741+02081101591ADDAA199000091GA1041+006009089GA2041+012009069GF107991071081008001999999KA1120M+02921KA2120N+02161MA1999999101521MD1210111+9999REMSYN118AAXX  13064 67143 32580 70606 10274 20208 30152 40159 52011 878// 333 0//00 10292 20216 50//4 55/// 84820 84640 92438;EQDQ01  00002PRCP99
0223671430999992000111312004-21200+048360FM-12+0006FMSM V0200801N004110120019N0300001N1+02601+02021101361ADDAA199000091GA1011+006009089GA2051+012009069GF105991051081008001001001MA1999999101291MD1710151+9999REMSYN094AAXX  13124 67143 32580 50808 10260 20202 30129 40136 57015 85800 333 0//00 81820 85640 92438;EQDQ01  00002PRCP99
0236671430999992000111400004-21200+048360FM-12+0006FMSM V0203601N001010099019N0200001N1+02221+02001101401ADDAA106000591AC13C9AY161061GA1021+005109089GA2061+009909069GF107991071081004501999999MA1999999101331MD1710091+9999MW1151REMSYN106AAXX  14004 67143 11470 73602 10222 20200 30133 40140 57009 69941 7156/ 878// 333 0//13 82817 86633 9248/;
0304671430999992000111406004-21200+048360FM-12+0006FMSM V0203601N001010120019N0200001N1+02401+02101101561ADDAA124005191AC12C9AY161061AY221061GA1021+005109089GA2051+012009069GF107991061081004501071999KA1120M+02821KA2120N+02101MA1999999101491MD1110091+9999MW1021REMSYN140AAXX  14064 67143 11470 73602 10240 20210 30149 40156 51009 60054 70262 8687/ 333 0//12 10282 20210 50//4 55/// 82817 85640 92438 555 83360;
0205671430999992000111409004-21200+048360FM-12+0006FMSM V0200801N004112200019N0300001N1+02761+02141101481ADDAA199000091GA1031+006009089GF104991041081008001001001MA1999999101411MD1710081+9999REMSYN092AAXX  14094 67143 32580 40808 10276 20214 30141 40148 57008 84800 333 83820 92438 555 82640;EQDQ01  00002PRCP99
0245671430999992000111412004-21200+048360FM-12+0006FMSM V0203601N004112200019N0300001N1+02721+02031101311ADDAA199000091GA1011+006009099GA2011+006009089GF101991011091008001001001MA1999999101241MD1710171+9999REMSYN116AAXX  14124 67143 32580 13608 10272 20203 30124 40131 57017 81900 333 0//00 81820 81920 94997 95837 92438 555 81640;EQDQ01  00002PRCP99
0224671430999992000111415004-21200+048360FM-12+0006FMSM V0200801N005112200019N0400001N1+02501+02171101421ADDAA199000091GA1041+005109089GF104991041081004501001001KA1120M+02841MA1999999101351MD1310111+9999REMSYN098AAXX  14154 67143 32482 40810 10250 20217 30135 40142 53011 84800 333 10284 84817 92438 555 81640;EQDQ01  00002PRCP99
0217671430999992000111500004-21200+048360FM-12+0006FMSM V0209999C000012200019N0300001N1+02081+01861101501ADDAA199000091GA1011+012009069GF102991021081008001031001MA1999999101431MD1710021+9999REMSYN104AAXX  15004 67143 33580 20000 10208 20186 30143 40150 57002 82830 333 0//00 82820 924/8 555 81640 81360;EQDQ01  00002PRCP99
0217671430999992000111503004-21200+048360FM-12+0006FMSM V0209999C000012200019N0300001N1+02001+01801101541ADDAA199000091GA1021+006009089GA2031+012009069GF103991031081008001001001MA1999999101471MD1310041+9999REMSYN088AAXX  15034 67143 32580 30000 10200 20180 30147 40154 53004 83800 333 82820 83640 92438;EQDQ01  00002PRCP99
0251671430999992000111506004-21200+048360FM-12+0006FMSM V0200201N002112200019N0300001N1+02681+02081101601ADDAA199000091GA1041+006009089GF104991041021008001031001KA1120M+02841KA2120N+01961MA1999999101531MD1110061+9999REMSYN112AAXX  15064 67143 32580 40204 10268 20208 30153 40160 51006 84230 333 0//00 10284 20196 5///4 55/// 84820 81360;EQDQ01  00002PRCP99
0204671430999992000111509004-21200+048360FM-12+0006FMSM V0200201N002112200019N0400001N1+02701+02141101471ADDAA199000091GA1021+006009089GF102991021021008001001021MA1999999101401MD1210131+9999REMSYN091AAXX  15094 67143 32582 20204 10270 20214 30140 40147 52013 82202 333 82820 9238 555 81075;EQDQ01  00002PRCP99
0229671430999992000111512004-21200+048360FM-12+0006FMSM V0200801N004112200019N0100001N1+02761+02261101261ADDAA199000091AY101061AY201061GA1011+006909089GF101991011021008001031001MA1999999101191MD1710211+9999MW1101REMSYN094AAXX  15124 67143 31560 10808 10276 20226 30119 40126 57021 71000 81230 333 0//00 81823 92438;EQDQ01  00002PRCP99
0236671430999992000111515004-21200+048360FM-12+0006FMSM V0200801N001012200019N0300001N1+02501+02041101311ADDAA199000091GA1011+006009089GA2021+012009069GF102991021081008001001021KA1120M+02821MA1999999101241MD1310051+9999REMSYN094AAXX  15154 67143 32580 20802 10250 20204 30124 40131 53005 82802 333 10282 81820 82640 92438;EQDQ01  00002PRCP99
0223671430999992000111600004-21200+048360FM-12+0006FMSM V0200801N001012200019N0300001N1+02041+01851101261ADDAA199000091GA1011+006009089GA2021+012009069GF102991021081008001001021MA1999999101191MD1710141+9999REMSYN094AAXX  16004 67143 33580 20802 10204 20185 30119 40126 57014 82802 333 0//00 81820 82640 924/8;EQDQ01  00002PRCP99
0233671430999992000111612004-21200+048360FM-12+0006FMSM V0200801N003110750019N0300001N1+02571+02171100981ADDAA199000091GA1021+006009089GA2061+075009009GF106991021021008001031021MA1999999100911MD1710221+9999REMSYN104AAXX  16124 67143 32580 60806 10257 20217 30091 40098 57022 82232 333 0//00 82820 86075 92438 555 81360;EQDQ01  00002PRCP99
0239671430999992000111700004-21200+048360FM-12+0006FMSM V0200401N001012200019N0300001N1+02091+01841101011ADDAA199000091GA1021+012009069GA2011+030009039GF103991021081008001071021MA1999999100941MD1710101+9999REMSYN110AAXX  17004 67143 33580 30402 10209 20184 30094 40101 57010 82872 333 0//00 81820 924/8 555 82640 81360 82073;EQDQ01  00002PRCP99
0264671430999992000111715004-21200+048360FM-12+0006FMSM V0200401N002110099019N0100001N1+02491+02281100921ADDAA199000091AY121031AY221031GA1031+005109089GA2081+009909069GF108991081081004501999999KA1120M+03001MA1999999100851MD1310131+9999MW1151REMSYN100AAXX  17154 67143 31460 80404 10249 20228 30085 40092 53013 71522 888// 333 10300 83817 88633 92436;EQDQ01  00002PRCP99
0236671430999992000111800004-21200+048360FM-12+0006FMSM V0209999C000010099019N0150001N1+02351+02121100761ADDAA106000391AC13C9AY161061GA1021+005109089GA2061+009909069GF107991061081004501071999MA1999999100691MD1710131+9999MW1151REMSYN106AAXX  18004 67143 11465 70000 10235 20212 30069 40076 57013 69931 7156/ 8687/ 333 0//13 82817 86633 9247/;
0356671430999992000111806004-21200+048360FM-12+0006FMSM V0203401N003110090019N0050001N1+02201+01981101071ADDAA124006191AC11C9AY191061AY261061GA1011+005109099GA2031+005109089GA3041+009009069GA4061+030009039GF108991051091004501071999KA1120M+03001KA2120N+02201MA1999999101001MD1210221+9999MW1951REMSYN160AAXX  18064 67143 11450 83406 10220 20198 30100 40107 52022 60064 79596 8597/ 333 0//51 10300 20220 50//4 55/// 83817 81917 84630 86360 94991 94992 95832 92436;
0272671430999992000111809004-21200+048360FM-12+0006FMSM V0209999C00001030001CN0200001N1+02401+02061100901ADDAA106003091AY161031AY221031GA1011+005109099GA2041+005109089GA3051+030009039GF107991051091004501071999MA1999999100831MD1710171+9999MW1151REMSYN124AAXX  18094 67143 21470 70000 10240 20206 30083 40090 57017 71562 8597/ 333 60031 84817 81917 85360 94991 94992 95832 92438;
0183671430999992000111812004-21200+048360FM-12+0006FMSM V0203601N002119999999N0300001N1+99999+99999999999ADDGF106991999999008001999999REMSYN145AAXX  18124 67143 11580 63604 0263 20226 30069 40076 57014 60031 70162 86902 333 0//55 83820 81920 84640 94995 94996 95835 95836 92438 555 82073;
0242671430999992000111903004-21200+048360FM-12+0006FMSM V0201001N001010090019N0100001N1+02281+02101101091ADDAA112034091AY161031AY221031GA1041+003009079GA2081+009009069GF108991081081004501999999MA1999999101121MD1310081+9999MW1211REMSYN110AAXX  19034 67143 21460 81002 10228 20210 30112 40109 53008 72162 888// 333 60342 84710 88630 92437 555 82817;
0242671430999992000112003004-21200+048360FM-12+0006FMSM V0201001N006210099019N0150001N1+02371+02121101561ADDAA112014091AY161031AY221031GA1031+003909079GA2071+009909069GF107991071081004501999999MA1999999101491MD1310171+9999MW1151REMSYN110AAXX  20034 67143 21465 71012 10237 20212 30149 40156 53017 71562 878// 333 60142 83713 87633 92437 555 83817;
0264671430999992000112015004-21200+048360FM-12+0006FMSM V0201201N002110099019N0150001N1+02571+02301101631ADDAA199000091AY121031AY221031GA1031+005109089GA2071+009909069GF107991071081004501999999KA1120M+02731MA1999999101561MD1310161+9999MW1151REMSYN100AAXX  20154 67143 31465 71204 10257 20230 30156 40163 53016 71522 878// 333 10273 83817 87633 92437;EQDQ01  00002PRCP99
0245671430999992000112100004-21200+048360FM-12+0006FMSM V0201201N002110099019N0100001N1+02471+02251101631ADDAA199000091GA1021+003909079GA2051+009909069GF105991051081008001001001MA1999999101561MD1710091+9999MW1151REMSYN110AAXX  21004 67143 31560 51204 10247 20225 30156 40163 57009 715// 85800 333 0//00 82713 85633 924/7 555 82820;EQDQ01  00002PRCP99
0294671430999992000112106004-21200+048360FM-12+0006FMSM V0201201N004110099019N0100001N1+02531+02281101811ADDAA124000191AC12C9AY161061AY221061GA1041+005109089GA2071+009909069GF108991081081004501999999KA1120M+02731KA2120N+02401MA1999999101741MD1110041+9999MW1151REMSYN130AAXX  21064 67143 11460 81208 10253 20228 30174 40181 51004 69914 71562 888// 333 0//52 10273 20240 50//4 55/// 84817 87633 92437;
0232671430999992000112109004-21200+048360FM-12+0006FMSM V0201201N005110051019N0100001N1+02621+02301101691ADDAA106000391AY161031AY221031GA1051+005109089GA2061+009909069GF108991081081004501999999MA1999999101621MD1810121+9999MW1151REMSYN100AAXX  21094 67143 21460 81210 10262 20230 30162 40169 58012 71562 888// 333 69931 85817 86633 92437;
0217671430999992000112203004-21200+048360FM-12+0006FMSM V0209999C000010099019N0300001N1+02271+02041101551ADDAA199000091GA1031+005109089GA2071+009909069GF107991071081008001999999MA1999999101481MD1310051+9999REMSYN088AAXX  22034 67143 32580 70000 10227 20204 30148 40155 53005 878// 333 83817 87633 92438;EQDQ01  00002PRCP99
0193671430999992000112300004-21200+048360FM-12+0006FMSM V0201201N002110099019N0300001N1+02461+02221101481ADDGA1021+006009089GA2051+009909069GF105991051081008001001001MA1999999101411MD1710101+9999REMSYN094AAXX  23004 67143 23580 51204 10246 20222 30141 40148 57010 85800 333 0//00 82820 85633 924/8;
0217671430999992000112309004-21200+048360FM-12+0006FMSM V0200201N004110120019N0300001N1+02781+02411101581ADDAA199000091GA1041+006009089GA2051+012009069GF107991071081008001999999MA1999999101511MD1810111+9999REMSYN088AAXX  23094 67143 32580 70208 10278 20241 30151 40158 58011 878// 333 84820 85640 92438;EQDQ01  00002PRCP99
0201671430999992000112312004-21200+048360FM-12+0006FMSM V0200201N004112200019N0300001N1+02861+02521101381ADDAA199000091GA1031+006009089GF103991031081008001001001MA1999999101311MD1710201+9999REMSYN088AAXX  23124 67143 32580 30208 10286 20252 30131 40138 57020 83800 333 0//00 83820 92438;EQDQ01  00002PRCP99
0236671430999992000112400004-21200+048360FM-12+0006FMSM V0209999C000010099019N0200001N1+02361+02151101471ADDAA106002091AC11C9AY161061GA1021+005109089GA2061+009909069GF107991071081004501999999MA1999999101401MD1810161+9999MW1151REMSYN106AAXX  24004 67143 11470 70000 10236 20215 30140 40147 58016 60021 7156/ 878// 333 0//11 82817 86633 924/8;
0273671430999992000112406004-21200+048360FM-12+0006FMSM V0203601N004110120019N0300001N1+02651+02411101621ADDAA199000091GA1031+005109089GA2041+012009069GF107991061081004501071999KA1120M+02921KA2120N+02321MA1999999101551MD1210061+9999REMSYN118AAXX  24064 67143 32480 73608 10265 20241 30155 40162 52006 8687/ 333 0//00 10292 20232 50//4 55/// 83817 84640 92438;EQDQ01  00002PRCP99
0223671430999992000112412004-21200+048360FM-12+0006FMSM V0200601N004112200019N0300001N1+02801+02491101381ADDAA199000091GA1021+006009089GA2031+012009069GF104991041081008001001001MA1999999101311MD1710151+9999REMSYN094AAXX  24124 67143 32580 40608 10280 20249 30131 40138 57015 84800 333 0//00 82820 83640 92438;EQDQ01  00002PRCP99
0273671430999992000112506004-21200+048360FM-12+0006FMSM V0200601N004110120019N0350001N1+02841+02561101621ADDAA199000091GA1041+006009089GA2041+012009069GF107991071081008001999999KA1120M+02801KA2120N+02341MA1999999101551MD1210061+9999REMSYN118AAXX  25064 67143 32581 70608 10284 20256 30155 40162 52006 878// 333 0//00 10280 20234 50//4 55/// 84820 84640 92438;EQDQ01  00002PRCP99
0289671430999992000112606004-21200+048360FM-12+0006FMSM V0200601N003110120019N0300001N1+02721+02411101721ADDAA199000091GA1021+006009089GA2061+012009069GF106991999081008001999999KA1120M+02941KA2120N+02201MA1999999101651MD1110071+9999REMSYN118AAXX  26064 67143 32580 60606 10272 20241 30165 40172 51007 878// 333 0//00 10294 20220 50//4 55/// 82820 86640 92438;EQDQ01+000072SCOTLCQ02  00002PRCP99
0294671430999992000112706004-21200+048360FM-12+0006FMSM V0200601N002110099019N0200001N1+02741+02541101861ADDAA124000891AC12C9AY161061AY221061GA1031+006009089GA2061+009909069GF107991071081008001999999KA1120M+02951KA2120N+02601MA1999999101791MD1110131+9999MW1151REMSYN130AAXX  27064 67143 11570 70604 10274 20254 30179 40186 51013 69984 71562 878// 333 0//12 10295 20260 50//4 55/// 83820 86633 92438;
0223671430999992000112712004-21200+048360FM-12+0006FMSM V0200601N004110120019N0350001N1+02781+02531101501ADDAA199000091GA1011+006009089GA2061+012009069GF106991061081008001001001MA1999999101431MD1710201+9999REMSYN094AAXX  27124 67143 32581 60608 10278 20253 30143 40150 57020 86800 333 0//00 81820 86640 92438;EQDQ01  00002PRCP99
0223671430999992000112800004-21200+048360FM-12+0006FMSM V0200601N002112200019N0300001N1+02461+02251101521ADDAA199000091GA1011+006009089GA2041+012009069GF104991041081008001001001MA1999999101451MD1710151+9999REMSYN094AAXX  28004 67143 33580 40604 10246 20225 30145 40152 57015 84800 333 0//00 81820 84640 924/8;EQDQ01  00002PRCP99
0251671430999992000112806004-21200+048360FM-12+0006FMSM V0200601N002112200019N0300001N1+02721+02411101721ADDAA199000091GA1041+006009089GF104991041081008001001001KA1120M+02901KA2120N+02401MA1999999101651MD1210091+9999REMSYN112AAXX  28064 67143 32580 40604 10272 20241 30165 40172 52009 84800 333 0//00 10290 20240 50//4 55/// 84820 92438;EQDQ01  00002PRCP99
0211671430999992000112812004-21200+048360FM-12+0006FMSM V0200601N003112200019N0300001N1+02801+02491101391ADDAA199000091GA1011+006009089GF101991011081008001001001MA1999999101301MD1710151+9999REMSYN098AAXX  28124 67143 32580 10606 10280 20249 30130 40139 57015 81800 333 0//00 81820 92438 555 81640;EQDQ01  00002PRCP99
0211671430999992000112900004-21200+048360FM-12+0006FMSM V0209999C000012200019N0300001N1+02221+02001101491ADDAA199000091GA1011+006009089GF101991011081008001001001MA1999999101421MD1710091+9999REMSYN098AAXX  29004 67143 33580 10000 10222 20200 30142 40149 57009 81800 333 0//00 81820 92438 555 81640;EQDQ01  00002PRCP99
0261671430999992000112906004-21200+048360FM-12+0006FMSM V0200601N003112200019N0300001N1+02761+02461101641ADDAA199000091GA1041+006009089GF104991041081008001001001KA1120M+02921KA2120N+02101MA1999999101571MD1210041+9999REMSYN122AAXX  29064 67143 32580 40606 10276 20246 30157 40164 52004 84800 333 0//00 10292 20210 50//4 55/// 84820 92438 555 81640;EQDQ01  00002PRCP99
0204671430999992000112909004-21200+048360FM-12+0006FMSM V0200601N004112200019N0300001N1+02721+02461101481ADDAA199000091GA1021+006009089GF102991021081008001001001MA1999999101411MD1710161+9999REMSYN091AAXX  29094 67143 32580 20608 10272 20246 30141 40148 57016 82800 333 82820 92438 55581640;EQDQ01  00002PRCP99
0201671430999992000112912004-21200+048360FM-12+0006FMSM V0200601N004112200019N0300001N1+02821+02541101341ADDAA199000091GA1011+006009089GF101991011081008001001001MA1999999101271MD1710141+9999REMSYN088AAXX  29124 67143 32580 10608 10282 20254 30127 40134 57014 81800 333 0//00 81820 92438;EQDQ01  00002PRCP99
0214671430999992000112915004-21200+048360FM-12+0006FMSM V0200601N004112200019N0300001N1+02401+02131101461ADDAA199000091GA1041+006009089GF104991041081004501001001KA1120M+02821MA1999999101391MD1310121+9999REMSYN088AAXX  29154 67143 32480 40608 10240 20213 30139 40146 53012 84800 333 10282 84820 92438;EQDQ01  00002PRCP99
0211671430999992000113000004-21200+048360FM-12+0006FMSM V0203401N002112200019N0300001N1+02051+01841101491ADDAA199000091GA1011+006009089GF102991021081008001001001MA1999999101421MD1710101+9999REMSYN098AAXX  30004 67143 33580 23404 10205 20184 30142 40149 57010 82800 333 0//00 81820 924/8 555 82640;EQDQ01  00002PRCP99
0205671430999992000113003004-21200+048360FM-12+0006FMSM V0203401N001012200019N0300001N1+02421+02161101551ADDAA199000091GA1011+006009089GF101991011081008001001001MA1999999101481MD1310061+9999REMSYN092AAXX  30034 67143 32580 13402 10242 20216 30148 40155 53006 81800 333 81820 92438 555 81640;EQDQ01  00002PRCP99
0261671430999992000113006004-21200+048360FM-12+0006FMSM V0200401N005112200019N0300001N1+02701+02401101611ADDAA199000091GA1041+006009089GF104991041021008001001021KA1120M+02821KA2120N+01961MA1999999101541MD1110061+9999REMSYN122AAXX  30064 67143 32580 40410 10270 20240 30154 40161 51006 84202 333 0//00 10282 20196 50//4 55/// 84820 92438 555 81073;EQDQ01  00002PRCP99
0205671430999992000113009004-21200+048360FM-12+0006FMSM V0200401N004112200019N0300001N1+02761+02461101421ADDAA199000091GA1011+006009089GF101991011081008001001001MA1999999101351MD1710191+9999REMSYN092AAXX  30094 67143 32580 10408 10276 20246 30135 40142 57019 81800 333 81820 92438 555 81640;EQDQ01  00002PRCP99
0217671430999992000113012004-21200+048360FM-12+0006FMSM V0200401N006212200019N0300001N1+02861+02571101271ADDAA199000091GA1021+012009069GF102991021081008001001021MA1999999101201MD1710151+9999REMSYN104AAXX  30124 67143 32580 20412 10286 20257 30120 40127 57015 82802 333 0//00 81820 92438 555 82640 80173;EQDQ01  00002PRCP99
0246671430999992000113015004-21200+048360FM-12+0006FMSM V0200401N005110120019N0300001N1+02501+02261101301ADDAA199000091GA1011+006009089GA2061+012009069GF107991061081004501071999KA1120M+02861MA1999999101231MD1310031+9999REMSYN104AAXX  30154 67143 32480 70410 10250 20226 30123 40130 53003 8687/ 333 10286 81820 86640 92438 555 82360;EQDQ01  00002PRCP99
0211671430999992000120100004-21200+048360FM-12+0006FMSM V0203401N004112200019N0300001N1+02421+02211101241ADDAA199000091GA1011+006009089GF101991011081008001001001MA1999999101171MD1810131+9999REMSYN098AAXX  01004 67143 33580 13408 10242 20221 30117 40124 58013 81800 333 0//00 81820 924/8 555 81640;EQDQ01  00002PRCP99
0267671430999992000120106004-21200+048360FM-12+0006FMSM V0200601N006212200019N0300001N1+02661+02371101201ADDAA199000091GA1021+005109089GF199999021011004501001001KA1120M+02861KA2120N+02321MA1999999101131MD1010041+9999REMSYN112AAXX  01064 67143 32480 10612 10266 20237 30113 40120 50004 82100 333 0//00 10286 20232 50//4 55/// 82817 92438;EQDQ01+000012SCOTCVQ02  00002PRCP99
0285671430999992000120112004-21200+048360FM-12+0006FMSM V0200601N004110120019N0300001N1+02501+02271101011ADDAA199000091GA1011+005109099GA2011+005109089GA3061+012009069GA4031+030009039GF107991061091004501071999MA1999999100941MD1710071+9999REMSYN124AAXX  01124 67143 32480 70608 10250 20227 30094 40101 57007 8697/ 333 0//00 81817 81917 86640 83360 94995 94996 95836 92438;EQDQ01  00002PRCP99
0258671430999992000120115004-21200+048360FM-12+0006FMSM V0200601N002110120019N0300001N1+02481+02241101201ADDAA199000091GA1041+005109089GA2031+012009069GA3031+030009039GF107991061081004501071999KA1120M+02861MA1999999101131MD1310191+9999REMSYN100AAXX  01154 67143 32480 70604 10248 20224 30113 40120 53019 8687/ 333 10286 84817 83640 83360 92438;EQDQ01  00002PRCP99
0219671430999992000120200004-21200+048360FM-12+0006FMSM V0200201N002112200019N0200001N1+02321+02161101291ADDAA199000091GA1011+006009089GF104991041081008001001001MA1999999101221MD1710071+9999MW1151REMSYN100AAXX  02004 67143 31570 40204 10232 20216 30122 40129 57007 715// 84800 333 0//00 81820 94640 924/8;EQDQ01  00002PRCP99
0237671430999992000120203004-21200+048360FM-12+0006FMSM V0202801N001010120019N0200001N1+02361+02201101561ADDAA199000091AY121031GA1011+006009089GA2061+012009069GF107991061081008001071999MA1999999101471MD1310251+9999MW1151REMSYN094AAXX  02034 67143 31570 72802 10236 20220 30147 40156 53025 7152/ 8687/ 333 81820 86640 92438;EQDQ01  00002PRCP99
0267671430999992000120206004-21200+048360FM-12+0006FMSM V0200601N006212200019N0300001N1+02661+02371101201ADDAA199000091GA1021+005109089GF199999021011004501001001KA1120M+02861KA2120N+02321MA1999999101131MD1010041+9999REMSYN112AAXX  02064 67143 32480 10612 10266 20237 30113 40120 50004 82100 333 0//00 10286 20232 50//4 55/// 82817 92438;EQDQ01+000012SCOTCVQ02  00002PRCP99
0251671430999992000120209004-21200+048360FM-12+0006FMSM V0202201N004110120019N0300001N1+02781+02531101541ADDAA199000091GA1011+006009099GA2021+006009089GA3061+012009069GF107991071091008001999999MA1999999101471MD1710091+9999REMSYN106AAXX  02094 67143 32580 72208 10278 20253 30147 40154 57009 879// 333 82820 81920 86640 94996 95836 92438;EQDQ01  00002PRCP99
0235671430999992000120212004-21200+048360FM-12+0006FMSM V0201001N00311007501CN0300001N1+02801+02581101441ADDAA199000091GA1011+006009099GA2011+006009089GF106991061091008001001031MA1999999101371MD1710101+9999REMSYN106AAXX  02124 67143 32580 61006 10280 20258 30137 40144 57010 86903 333 0//00 81820 81920 94996 95836 92438;EQDQ01  00002PRCP99
0246671430999992000120215004-21200+048360FM-12+0006FMSM V0200601N003110120019N0300001N1+02541+02341101501ADDAA199000091GA1011+006009089GA2061+012009069GF106991061081008001031001KA1120M+02801MA1999999101431MD1310061+9999REMSYN104AAXX  02154 67143 32580 60606 10254 20234 30143 40150 53006 86830 333 10280 81820 86640 92438 555 82360;EQDQ01  00002PRCP99
0223671430999992000120300004-21200+048360FM-12+0006FMSM V0201201N002110099019N0300001N1+02261+02081101521ADDAA199000091GA1031+006009089GA2051+009909069GF105991051081008001001001MA1999999101451MD1710061+9999REMSYN094AAXX  03004 67143 33580 51204 10226 20208 30145 40152 57006 85800 333 0//00 83820 85633 924/8;EQDQ01  00002PRCP99
0227671430999992000120303004-21200+048360FM-12+0006FMSM V0201201N00211009901CN0300001N1+02331+02101101611ADDAA199000091GA1021+006009089GA2031+009909069GF106991041081008001001011MA1999999101541MD1310091+9999REMSYN098AAXX  03034 67143 32580 61204 10233 20210 30154 40161 53009 84801 333 82820 83633 92438 555 83073;EQDQ01  00002PRCP99
0283671430999992000120306004-21200+048360FM-12+0006FMSM V0201201N001010690019N0300001N1+02701+02421101711ADDAA199000091GA1041+006009089GA2061+069009009GF107991041081008001001021KA1120M+02801KA2120N+02251MA1999999101641MD1210201+9999REMSYN128AAXX  03064 67143 32580 71202 10270 20242 30164 40171 52020 84802 333 0//00 10280 20225 50//4 55/// 84820 86073 92438 555 82640;EQDQ01  00002PRCP99
0278671430999992000120312004-21200+048360FM-12+0006FMSM V0201201N003110060019N0200001N1+02521+02221101501ADDAA106000391AC11C9AY191061AY261061GA1031+006009099GA2031+006009089GA3051+030009049GF107991061091008001071999MA1999999101431MD1710101+9999MW1211REMSYN124AAXX  03124 67143 11570 71206 10252 20222 30143 40150 57010 69931 72196 8697/ 333 0//51 83820 83920 85460 94999 95832 92438;
0273671430999992000120315004-21200+048360FM-12+0006FMSM V0201201N00101009901CN0200001N1+02401+02161101621ADDAA199000021AY121031AY221031GA1011+006009099GA2041+006009089GA3051+009909069GF108991061091008001071999KA1120M+02801MA1999999101551MD1310121+9999MW1151REMSYN112AAXX  03154 67143 31570 81202 10240 20216 30155 40162 53012 71522 8697/ 333 10280 84820 81920 85633 94995 95836;
0232671430999992000120403004-21200+048360FM-12+0006FMSM V0209999C000010099019N0080001N1+02231+02061101671ADDAA112001091AY161031AY221031GA1021+006009089GA2061+009909069GF107991061081008001001021MA1999999101601MD1310071+9999MW1401REMSYN100AAXX  04034 67143 21558 70000 10223 20206 30160 40167 53007 74062 86802 333 60012 82820 86633 92438;
0294671430999992000120406004-21200+048360FM-12+0006FMSM V0201201N002110099019N0300001N1+02601+02371101731ADDAA124001091AC13C9AY161061AY221061GA1031+006009089GA2061+009909069GF107991071081008001999999KA1120M+02801KA2120N+02181MA1999999101661MD1210061+9999MW1021REMSYN130AAXX  04064 67143 11580 71204 10260 20237 30166 40173 52006 60014 70262 878// 333 0//13 10280 20218 50//4 55/// 83820 86633 92438;
0217671430999992000120409004-21200+048360FM-12+0006FMSM V0201201N003110120019N0300001N1+02741+02461101601ADDAA199000091GA1041+006009089GA2051+012009069GF107991051081008001031999MA1999999101531MD1810131+9999REMSYN088AAXX  04094 67143 32580 71206 10274 20246 30153 40160 58013 8583/ 333 84820 85640 92438;EQDQ01  00002PRCP99
0285671430999992000120412004-21200+048360FM-12+0006FMSM V0201201N00311012001CN0300001N1+02721+02401101481ADDAA199000091GA1011+006009099GA2041+006009089GA3051+012009069GF107991051091008001001021MA1999999101411MD1710121+9999REMSYN140AAXX  04124 67143 32580 71206 10272 20240 30141 40148 57012 85902 333 0//00 84820 81920 85640 94994 94995 94996 95835 95836 92438 555 82073;EQDQ01  00002PRCP99
0214671430999992000120503004-21200+048360FM-12+0006FMSM V0201201N002110099019N0300001N1+02301+02221101631ADDAA112005091GA1021+006009089GA2051+009909069GF107991051081008001001021MA1999999101561MD1310111+9999REMSYN104AAXX  05034 67143 22580 71204 10230 20222 30156 40163 53011 85802 333 60052 82820 85633 92438 555 83073;
0260671430999992000120506004-21200+048360FM-12+0006FMSM V0203201N00311012001CN0300001N1+02741+02421101671ADDAA124004191AC13I9GA1021+012009069GF106991061081008001001021KA1120M+02891KA2120N+02271MA1999999101601MD1210041+9999REMSYN134AAXX  05064 67143 12580 63206 10274 20242 30160 40167 52004 60044 86802 333 0//17 10289 20227 50//4 55/// 84820 92438 555 82640 81073;
0227671430999992000120509004-21200+048360FM-12+0006FMSM V0200601N002110099019N0300001N1+02741+02351101531ADDAA199000091GA1021+006009089GA2061+009909069GF106991061081008001001021MA1999999101461MD1710141+9999REMSYN098AAXX  05094 67143 32580 60604 10274 20235 30146 40153 57014 86802 333 82820 86633 92438 555 81073;EQDQ01  00002PRCP99
0235671430999992000120512004-21200+048360FM-12+0006FMSM V0200601N005112200019N0300001N1+02801+02321101301ADDAA199000091GA1011+006009099GA2031+006009089GF103991031091008001001021MA1999999101231MD1710231+9999REMSYN106AAXX  05124 67143 32580 30610 10280 20232 30123 40130 57023 83902 333 0//00 83820 81920 94996 95836 92438;EQDQ01  00002PRCP99
0326671430999992000120515004-21200+048360FM-12+0006FMSM V0203401N005110099019N0200001N1+02561+02201101421ADDAA199000091AY121031AY211031GA1011+006009099GA2031+006009089GA3051+009909069GF106991061091008001001021KA1120M+02831MA1999999101351MD1310121+9999MW1151REMSYN146AAXX  05154 67143 31570 63410 10256 20220 30135 40142 53012 71521 86902 333 10283 83820 81920 85633 94996 94997 94998 95836 95837 92438 555 81073;EQDQ01  00002PRCP99
0217671430999992000120603004-21200+048360FM-12+0006FMSM V0200401N001010120019N0300001N1+02381+02201101581ADDAA199000091GA1021+006009089GA2051+012009069GF107991061081008001001021MA1999999101511MD1310141+9999REMSYN088AAXX  06034 67143 33580 70402 10238 20220 30151 40158 53014 86802 333 82820 85640 82073;EQDQ01  00002PRCP99
0273671430999992000120606004-21200+048360FM-12+0006FMSM V0200601N005110120019N0300001N1+02831+02301101621ADDAA199000091GA1031+006009089GA2051+012009069GF106991061081008001001021KA1120M+02831KA2120N+02301MA1999999101551MD1110041+9999REMSYN118AAXX  06064 67143 32580 60610 10283 20230 30155 40162 51004 86802 333 0//00 10283 20230 5///4 55/// 83820 85640 92438;EQDQ01  00002PRCP99
0195671430999992000120609004-21200+048360FM-12+0006FMSM V0200601N004112200019N0300001N1+02831+02261101521ADDAA199000091GA1031+006009089GF104991031081008001001021MA1999999101451MD1710101+9999REMSYN082AAXX  06094 67143 32580 40608 10283 20226 30145 40152 57010 83802 333 83820 92438;EQDQ01  00002PRCP99
0247671430999992000120612004-21200+048360FM-12+0006FMSM V0200601N004110900019N0300001N1+02921+02461101301ADDAA199000091GA1021+015009069GF105991031091008001001021MA1999999101231MD1710221+9999REMSYN134AAXX  06124 67143 32580 50608 10292 20246 30123 40130 57022 83902 333 0//00 83820 81920 94996 94997 95836 95837 92438 555 82650 82076;EQDQ01  00002PRCP99
0234671430999992000120703004-21200+048360FM-12+0006FMSM V0209999C000012200019N0300001N1+02301+02141101631ADDAA112001091AY161031GA1011+006009089GA2041+012009069GF104991041081008001001021MA1999999101561MD1310111+9999MW1001REMSYN110AAXX  07034 67143 21580 40000 10230 20214 30156 40163 53011 7006/ 84802 333 60012 81820 84640 92438 555 81073;
0288671430999992000120706004-21200+048360FM-12+0006FMSM V0203401N001012200019N0300001N1+02751+02361101671ADDAA124001091AC13I9AY161061AY211061GA1011+030009039GF104991041021008001031021KA1120M+02931KA2120N+02261MA1999999101601MD1110041+9999MW1021REMSYN140AAXX  07064 67143 11580 43402 10275 20236 30160 40167 51004 60014 70261 84232 333 0//17 10293 20226 50//4 55/// 84820 92438 555 81360 81073;
0205671430999992000120709004-21200+048360FM-12+0006FMSM V0200801N004112200019N0400001N1+02801+02401101561ADDAA199000091GA1041+006009089GF104991041081008001001001MA1999999101491MD1710111+9999REMSYN092AAXX  07094 67143 32582 40808 10280 20240 30149 40156 57011 84800 333 84820 92438 555 81650;EQDQ01  00002PRCP99
0201671430999992000120712004-21200+048360FM-12+0006FMSM V0200801N003112200019N0400001N1+02821+02391101311ADDAA199000091GA1031+006909089GF103991031021008001001021MA1999999101241MD1710251+9999REMSYN088AAXX  07124 67143 32582 30806 10282 20239 30124 40131 57025 83202 333 0//00 83823 92438;EQDQ01  00002PRCP99
0224671430999992000120803004-21200+048360FM-12+0006FMSM V0209999C000010099019N0080001N1+02381+02231101571ADDAA112001091AY161031GA1031+005109089GA2071+009909069GF107991071081004501999999MA1999999101501MD1310111+9999MW1611REMSYN100AAXX  08034 67143 21458 70000 10238 20223 30150 40157 53011 7616/ 878// 333 60012 83817 87633 92436;
0294671430999992000120806004-21200+048360FM-12+0006FMSM V0203201N001010060019N0150001N1+02551+02361101621ADDAA124003091AC11I9AY161061AY221061GA1051+006009089GA2041+009909069GF107991071081008001999999KA1120M+02921KA2120N+02321MA1999999101551MD1110051+9999MW1151REMSYN130AAXX  08064 67143 11565 73202 10255 20236 30155 40162 51005 60034 71562 878// 333 0//15 10292 20232 50//4 55/// 85820 84633 92437;
0198671430999992000120809004-21200+048360FM-12+0006FMSM V0201001N003110120019N0300001N1+02821+02421101491ADDAA199000021GA1031+006009089GA2061+012009069GF107991071081008001999999MA1999999101421MD1810131+9999REMSYN088AAXX  08094 67143 32580 71006 10282 20242 30142 40149 58013 878// 333 83820 86640 92438;
0214671430999992000120812004-21200+048360FM-12+0006FMSM V0201001N003112200019N0400001N1+02841+02381101281ADDAA199000021GA1011+006009089GA2031+015009069GF103991031081008001001021MA1999999101211MD1710211+9999REMSYN104AAXX  08124 67143 32582 31006 10284 20238 30121 40128 57021 83802 333 0//00 81820 83650 92438 555 81075;
0233671430999992000120900004-21200+048360FM-12+0006FMSM V0201001N001012200019N0300001N1+02261+02041101291ADDAA199000091GA1021+006009089GA2031+012009069GF104991041081008001001021MA1999999101221MD1810131+9999REMSYN104AAXX  09004 67143 33580 41002 10226 20204 30122 40129 58013 84802 333 0//00 82820 83640 924/8 555 82073;EQDQ01  00002PRCP99
0227671430999992000120903004-21200+048360FM-12+0006FMSM V0201001N001012200019N0300001N1+02271+02101101331ADDAA199000091GA1011+006009089GA2041+012009069GF104991041081008001001021MA1999999101261MD1310041+9999REMSYN098AAXX  09034 67143 32580 41002 10227 20210 30126 40133 53004 84802 333 81820 84640 92438 555 81073;EQDQ01  00002PRCP99
0251671430999992000120906004-21200+048360FM-12+0006FMSM V0200601N003112200019N0300001N1+02801+02281101351ADDAA199000091GA1031+006009089GF103991031021008001001001KA1120M+02901KA2120N+02191MA1999999101281MD1110021+9999REMSYN112AAXX  09064 67143 32580 30606 10280 20228 30128 40135 51002 83200 333 0//00 10290 20219 50//4 55/// 83820 92438;EQDQ01  00002PRCP99
0205671430999992000120909004-21200+048360FM-12+0006FMSM V0200601N004112200019N0300001N1+02861+02281101241ADDAA199000091GA1021+006009089GF103991031081008001001001MA1999999101171MD1710111+9999REMSYN092AAXX  09094 67143 32580 30608 10286 20228 30117 40124 57011 83800 333 82820 92438 555 82640;EQDQ01  00002PRCP99
0241671430999992000120912004-21200+048360FM-12+0006FMSM V0200601N004112200019N0400001N1+02901+02361101061ADDAA199000091GA1011+006009099GA2021+006009089GF102991021031008001001001MA1999999100991MD1710181+9999REMSYN112AAXX  09124 67143 32582 20608 10290 20236 30099 40106 57018 82300 333 0//00 82820 81920 94996 94998 95836 92438;EQDQ01  00002PRCP99
0270671430999992000120915004-21200+048360FM-12+0006FMSM V0200601N004112200019N0300001N1+02661+02221101121ADDAA199000091GA1011+006009099GA2021+006009089GF103991021091008001001021KA1120M+02931MA1999999101051MD1310061+9999REMSYN128AAXX  09154 67143 32580 30608 10266 20222 30105 40112 53006 82902 333 10293 82820 81920 94996 94997 95836 95837 92438 555 82073;EQDQ01  00002PRCP99
0223671430999992000121000004-21200+048360FM-12+0006FMSM V0203401N001012200019N0300001N1+02261+01951101011ADDAA199000091GA1011+006009089GA2031+012009069GF103991031081008001001021MA1999999100941MD1710131+9999REMSYN094AAXX  10004 67143 33580 33402 10226 20195 30094 40101 57013 83802 333 0//00 81820 83640 924/8;EQDQ01  00002PRCP99
0217671430999992000121003004-21200+048360FM-12+0006FMSM V0203401N001010120019N0300001N1+02341+02001101111ADDAA199000091GA1011+006009089GA2051+012009069GF107991051081008001001021MA1999999101041MD1310101+9999REMSYN088AAXX  10034 67143 32580 73402 10234 20200 30104 40111 53010 85802 333 81820 85640 92438;EQDQ01  00002PRCP99
0293671430999992000121012004-21200+048360FM-12+0006FMSM V0201201N00411007501CN0200001N1+02761+02441100901ADDAA199000091AY191061AY211061GA1021+012009069GF106991051091008001001021MA1999999100831MD1810101+9999MW1171REMSYN158AAXX  10124 67143 31570 61208 10276 20244 30083 40090 58010 71791 85902 333 0//00 83820 82920 94995 94996 94997 94998 95836 95837 95838 92438 555 82640 83073;EQDQ01  00002PRCP99
0298671430999992000121015004-21200+048360FM-12+0006FMSM V0201201N005110120019N0300001N1+02641+02381101011ADDAA199000091GA1011+006009099GA2031+006009089GA3051+012009069GF107991051091008001001021KA1120M+02931MA1999999100941MD1310111+9999REMSYN140AAXX  10154 67143 32580 71210 10264 20238 30094 40101 53011 85902 333 10293 83820 81920 85640 94993 94994 94995 95834 95835 92438 555 83073;EQDQ01  00002PRCP99
0217671430999992000121100004-21200+048360FM-12+0006FMSM V0201201N001012200019N0300001N1+02321+02051101041ADDAA199000091GA1021+012009069GF102991021081008001001021MA1999999100971MD1610071+9999REMSYN104AAXX  11004 67143 33580 21202 10232 20205 30097 40104 56007 82802 333 0//00 81820 924/8 555 82640 81073;EQDQ01  00002PRCP99
0205671430999992000121103004-21200+048360FM-12+0006FMSM V0201201N001012200019N0300001N1+02381+02041101111ADDAA199000091GA1021+006009089GF103991031081008001001001MA1999999101041MD1310071+9999REMSYN092AAXX  11034 67143 32580 31202 10238 20204 30104 40111 53007 83800 333 82820 92438 555 82640;EQDQ01  00002PRCP99
0279671430999992000121106004-21200+048360FM-12+0006FMSM V0200401N001012200019N0150001N1+02801+02301101161ADDAA199000091AY111061AY201061GA1041+006009089GF104991041021008001001001KA1120M+02931KA2120N+02161MA1999999101091MD1110051+9999MW1101REMSYN118AAXX  11064 67143 31565 40402 10280 20230 30109 40116 51005 71010 84200 333 0//00 10293 20216 50//4 55/// 84820 92438;EQDQ01  00002PRCP99
0245671430999992000121109004-21200+048360FM-12+0006FMSM V0200401N002110690019N0100001N1+02881+02401100981ADDAA199000091AY121031AY211031GA1041+006009089GA2051+069009009GF106991041021008001001021MA1999999100911MD1710181+9999MW1101REMSYN094AAXX  11094 67143 31560 60404 10288 20240 30091 40098 57018 71021 84202 333 84820 85073 92438;EQDQ01  00002PRCP99
0251671430999992000121112004-21200+048360FM-12+0006FMSM V0200401N004110750019N0100001N1+02981+02561100861ADDAA199000091AY121061AY211061GA1021+006009089GA2061+075009009GF106991021021008001001021MA1999999100791MD1610121+9999MW1101REMSYN100AAXX  11124 67143 31560 60408 10298 20256 30079 40086 56012 71021 82202 333 0//00 82820 86075 92438;EQDQ01  00002PRCP99
0248671430999992000121115004-21200+048360FM-12+0006FMSM V0200401N003110060019N0300001N1+02701+02381100851ADDAA199000091GA1011+006009099GA2041+006009089GF106991061091008001001021KA1120M+03121MA1999999100781MD1510011+9999REMSYN106AAXX  11154 67143 32580 60406 10270 20238 30078 40085 55001 86902 333 10312 84820 81920 94995 95836 92438;EQDQ01  00002PRCP99
0195671430999992000121203004-21200+048360FM-12+0006FMSM V0200401N001012200019N0300001N1+02461+02221100921ADDAA199000091GA1021+006009089GF103991031081008001001021MA1999999100851MD1310081+9999REMSYN082AAXX  12034 67143 32580 30402 10246 20222 30085 40092 53008 83802 333 82820 92438;EQDQ01  00002PRCP99
0279671430999992000121206004-21200+048360FM-12+0006FMSM V0200401N004112200019N0100001N1+02821+02341100991ADDAA199000091AY101061AY201061GA1021+006009089GF102991021081008001001001KA1120M+03121KA2120N+02421MA1999999100921MD1110071+9999MW1101REMSYN118AAXX  12064 67143 31560 20408 10282 20234 30092 40099 51007 71000 82800 333 0//00 10312 20242 50//4 55/// 82820 92438;EQDQ01  00002PRCP99
0223671430999992000121209004-21200+048360FM-12+0006FMSM V0200401N005112200019N0150001N1+02901+02381100871ADDAA199000091AY101031AY201031GA1011+006009089GF101991011021008001001001MA1999999100801MD1710121+9999MW1101REMSYN088AAXX  12094 67143 31565 10410 10290 20238 30080 40087 57012 71000 81200 333 81820 92438;EQDQ01  00002PRCP99
0273671430999992000121212004-21200+048360FM-12+0006FMSM V0200401N005112200019N0080001N1+02981+02411100661ADDAA199000091AY101061AY201061GA1011+006009099GA2011+006009089GF101991011091008001001021MA1999999100591MD1710211+9999MW1041REMSYN122AAXX  12124 67143 31558 10410 10298 20241 30059 40066 57021 70400 81902 333 0//00 81820 81920 94998 95818 92438 555 81073;EQDQ01  00002PRCP99
0304671430999992000121215004-21200+048360FM-12+0006FMSM V0200401N005110690019N0100001N1+02701+02361100721ADDAA199000091AY121031AY201031GA1011+006009099GA2011+006009089GA3051+069009009GF106991021091008001001021KA1120M+03031MA1999999100651MD1310061+9999MW1101REMSYN124AAXX  12154 67143 31560 60410 10270 20236 30065 40072 53006 71020 82902 333 10303 81820 81920 85073 94991 94998 95838 92438;EQDQ01  00002PRCP99
0223671430999992000121300004-21200+048360FM-12+0006FMSM V0200401N003112200019N0300001N1+02471+02101100701ADDAA199000091GA1011+006009089GA2031+012009069GF103991031081008001001001MA1999999100631MD1710071+9999REMSYN094AAXX  13004 67143 33580 30406 10247 20210 30063 40070 57007 83800 333 0//00 81820 83640 924/8;EQDQ01  00002PRCP99
0227671430999992000121303004-21200+048360FM-12+0006FMSM V0200401N002110120019N0300001N1+02381+01981100801ADDAA199000091GA1011+006009089GA2061+012009069GF107991061081008001071999MA1999999100731MD1310101+9999REMSYN098AAXX  13034 67143 32580 70404 10238 20198 30073 40080 53010 8687/ 333 81820 86640 92438 555 82360;EQDQ01  00002PRCP99
0245671430999992000121309004-21200+048360FM-12+0006FMSM V0200401N007212200019N0250001N1+02921+02471100681ADDAA199000091AY111031AY201031GA1011+006009089GA2031+012009069GF103991031081008001001001MA1999999100611MD1710151+9999MW1041REMSYN094AAXX  13094 67143 31575 30414 10292 20247 30061 40068 57015 70410 83800 333 81820 83640 92438;EQDQ01  00002PRCP99
0233671430999992000121312004-21200+048360FM-12+0006FMSM V0200401N005112200019N0300001N1+02901+02421100571ADDAA199000091GA1011+006009089GA2031+012009069GF103991031081008001001021MA1999999100501MD1710111+9999REMSYN104AAXX  13124 67143 32580 30410 10290 20242 30050 40057 57011 83802 333 0//00 81820 83640 92438 555 82073;EQDQ01  00002PRCP99
0270671430999992000121315004-21200+048360FM-12+0006FMSM V0200401N004112200019N0300001N1+02661+02191100691ADDAA199000091GA1011+006009099GA2011+006009089GA3041+012009069GF104991041091008001001021KA1120M+02961MA1999999100621MD1310121+9999REMSYN112AAXX  13154 67143 32580 40408 10266 20219 30062 40069 53012 84902 333 10296 81820 81920 84640 94995 95835 92438;EQDQ01  00002PRCP99
0217671430999992000121403004-21200+048360FM-12+0006FMSM V0209999C000010120019N0300001N1+02661+02221101111ADDAA199000091GA1011+006009089GA2061+012009069GF106991061081008001001021MA1999999101041MD1310111+9999REMSYN088AAXX  14034 67143 32580 60000 10266 20222 30104 40111 53011 86802 333 81820 86640 92438;EQDQ01  00002PRCP99
0251671430999992000121406004-21200+048360FM-12+0006FMSM V0201001N002112200019N0300001N1+02861+02461101141ADDAA199000091GA1031+006009089GF104991041081008001001001KA1120M+02961KA2120N+02521MA1999999101071MD1110031+9999REMSYN112AAXX  14064 67143 32580 41004 10286 20246 30107 40114 51003 84800 333 0//00 10296 20252 50//4 55/// 83820 92438;EQDQ01  00002PRCP99
0211671430999992000121409004-21200+048360FM-12+0006FMSM V0201001N004112200019N0400001N1+03021+01851100971ADDAA199000091GA1021+006009089GF199999011081008001001021MA1999999100901MD1810171+9999REMSYN082AAXX  14094 67143 32582 11008 10302 20185 30090 40097 58017 81802 333 82820 92438;EQDQ01+000012SCOTCVQ02  00002PRCP99
0217671430999992000121412004-21200+048360FM-12+0006FMSM V0201001N005112200019N0400001N1+03001+02491100851ADDAA199000091GA1011+012009069GF101991011081008001001021MA1999999100781MD1710121+9999REMSYN104AAXX  14124 67143 32582 11010 10300 20249 30078 40085 57012 81802 333 0//00 81820 92438 555 81640 81073;EQDQ01  00002PRCP99
0236671430999992000121415004-21200+048360FM-12+0006FMSM V0201001N005110120019N0300001N1+02781+02411100871ADDAA199000091GA1011+005109089GA2061+012009069GF106991061081004501001001KA1120M+03101MA1999999100801MD1310021+9999REMSYN094AAXX  14154 67143 32480 61010 10278 20241 30080 40087 53002 86800 333 10310 81817 86640 92438;EQDQ01  00002PRCP99
0236671430999992000121500004-21200+048360FM-12+0006FMSM V0203401N002110099019N0200001N1+02281+01971101021ADDAA106006191AC11C9AY161061GA1011+005109089GA2071+009909069GF107991071081004501999999MA1999999100951MD1510101+9999MW1211REMSYN106AAXX  15004 67143 11470 73404 10228 20197 30095 40102 55010 60061 7216/ 878// 333 0//11 81817 87633 924/8;
0242671430999992000121503004-21200+048360FM-12+0006FMSM V0209999C000010120019N0300001N1+02401+02041101221ADDAA112006091AY161031AY221031GA1011+006009089GA2061+012009069GF106991061081008001031001MA1999999101151MD1310201+9999MW1011REMSYN110AAXX  15034 67143 21580 60000 10240 20204 30115 40122 53020 70162 86830 333 60062 81820 86640 92438 555 82360;
0264671430999992000121506004-21200+048360FM-12+0006FMSM V0200601N004110120019N0300001N1+02981+02521101201ADDAA199000021GA1011+006009089GA2051+012009069GF105991051081008001031001KA1120M+03101KA2120N+02261MA1999999101131MD1010081+9999REMSYN128AAXX  15064 67143 32580 50608 10298 20252 30113 40120 50008 85830 333 0//00 10310 20226 50//4 55/// 81820 85640 92438 555 82360;
0208671430999992000121509004-21200+048360FM-12+0006FMSM V0200601N001010120019N0300001N1+02721+02321101091ADDAA199000021GA1011+006009089GA2061+012009069GF106991061081008001001021MA1999999101021MD1710111+9999REMSYN098AAXX  15094 67143 32580 60602 10272 20232 30102 40109 57011 86802 333 81820 86640 92438 555 82073;
0267671430999992000121512004-21200+048360FM-12+0006FMSM V0200601N004610105019N0300001N1+02801+02401100991ADDAA199000021GA1011+006009099GA2011+006009089GA3051+010509089GA4051+012009069GF105991999091008001001021MA1999999100921MD1710101+9999REMSYN106AAXX  15124 67143 32580 50609 10280 20240 30092 40099 57010 86902 333 0//00 81820 81920 85835 85640 92438;EQDQ01+000062SCOTLC
0278671430999992000121603004-21200+048360FM-12+0006FMSM V0200201N002110099019N0150001N1+02471+02301101331ADDAA112011091AY191031AY261031GA1011+005109099GA2031+005109089GA3081+009909069GF108991081091004501999999MA1999999101261MD1310161+9999MW1151REMSYN130AAXX  16034 67143 21465 80204 10247 20230 30126 40133 53016 71596 889// 333 60112 83817 81917 88633 94992 94993 95832 95833 92437;
0328671430999992000121606004-21200+048360FM-12+0006FMSM V0202401N00311009901CN0100001N1+02381+02231101421ADDAA124018091AC11C9AY191061AY261061GA1011+005109099GA2041+005109089GA3081+009909069GF108991081091004501999999KA1120M+02981KA2120N+02361MA1999999101351MD1210091+9999MW1211REMSYN148AAXX  16064 67143 11460 82406 10238 20223 30135 40142 52009 60184 72196 889// 333 0//91 10298 20236 50//4 55/// 84817 81917 88633 94993 95813 92437;
0232671430999992000121609004-21200+048360FM-12+0006FMSM V0200201N003110099019N0200001N1+02601+02311101321ADDAA106003091AY161031AY221031GA1041+006009089GA2071+009909069GF107991071081008001999999MA1999999101251MD1810101+9999MW1151REMSYN100AAXX  16094 67143 21570 70206 10260 20231 30125 40132 58010 71562 878// 333 60031 84820 87633 92438;
0254671430999992000121612004-21200+048360FM-12+0006FMSM V0201401N003110120019N0300001N1+02701+02291101231ADDAA106003091AC11I9AY161061AY221061GA1031+006009089GA2051+012009069GF106991061081008001001021MA1999999101161MD1610091+9999MW1011REMSYN116AAXX  16124 67143 11580 61406 10270 20229 30116 40123 56009 60031 70162 86802 333 0//65 83820 85640 92438 555 81073;
0205671430999992000121615004-21200+048360FM-12+0006FMSM V0201401N00211012001CN0300001N1+02561+02261101361ADDAA199000021GA1031+006009089GF105991051081008001001021KA1120M+02841MA1999999101291MD1310131+9999REMSYN098AAXX  16154 67143 32580 51404 10256 20226 30129 40136 53013 85802 333 10284 83820 92438 555 81640;
0242671430999992000121700004-21200+048360FM-12+0006FMSM V0201401N001010090019N0080001N1+02301+02151101611ADDAA112019091AY161061AY221061GA1041+003909079GA2081+009009069GF108991081081004501999999MA1999999101541MD1310221+9999MW1601REMSYN110AAXX  17004 67143 21458 81402 10230 20215 30154 40161 53022 76062 888// 333 60192 84713 88630 92436 555 82817;
0282671430999992000121706004-21200+048360FM-12+0006FMSM V0203201N001010060019N0300001N1+02561+02371101621ADDAA124019191AC13C9AY161061AY221061GA1051+006009089GF107991071081008001999999KA1120M+02841KA2120N+02301MA1999999101551MD1110011+9999MW1011REMSYN134AAXX  17064 67143 11580 73202 10256 20237 30155 40162 51001 60194 70162 878// 333 0//13 10284 20230 5///4 55/// 85820 92438 555 84633;
0186671430999992000121709004-21200+048360FM-12+0006FMSM V0203201N002110900019N0300001N1+02731+02431101501ADDAA199000021GA1031+006009089GF105991031021008001001021MA1999999101431MD1210121+9999REMSYN092AAXX  17094 67143 32580 53204 10273 20243 30143 40150 52012 83202 333 83820 92438 555 83073;
0204671430999992000121712004-21200+048360FM-12+0006FMSM V0201001N003110690019N0300001N1+02801+02431101351ADDAA199000021GA1031+006009089GA2041+069009009GF106991031021008001001021MA1999999101281MD1710151+9999REMSYN094AAXX  17124 67143 32580 61006 10280 20243 30128 40135 57015 83202 333 0//00 83820 84073 92438;
0282671430999992000121715004-21200+048360FM-12+0006FMSM V0201001N002110690019N0300001N1+02661+02461101421ADDAA199000091GA1011+006009099GA2031+006009089GA3041+069009009GF106991051091008001001021KA1120M+02821MA1999999101351MD1310071+9999REMSYN124AAXX  17154 67143 32580 61004 10266 20246 30135 40142 53007 85902 333 10282 83820 81920 84073 94996 94997 95836 95837 92438;EQDQ01  00002PRCP99
0236671430999992000121800004-21200+048360FM-12+0006FMSM V0201001N001012200019N0300001N1+02521+02381101501ADDAA106006191AC10I9AY161061GA1021+006009089GA2031+009909069GF104991041081008001001021MA1999999101431MD1810101+9999MW1001REMSYN106AAXX  18004 67143 11580 41002 10252 20238 30143 40150 58010 60061 7006/ 84802 333 0//64 82820 83633 924/8;
0238671430999992000121806004-21200+048360FM-12+0006FMSM V0201001N002112200019N0300001N1+02771+02441101681ADDAA124006191GA1041+006009089GF104991041021008001001021KA1120M+02821KA2120N+02481MA1999999101611MD1210081+9999REMSYN118AAXX  18064 67143 12580 41004 10277 20244 30161 40168 52008 60064 84202 333 0//69 10282 20248 50//4 55/// 84820 92438;
0195671430999992000121809004-21200+048360FM-12+0006FMSM V0201001N002112200019N0400001N1+02881+02521101591ADDAA199000091GA1041+006009089GF104991041021008001001001MA1999999101521MD1810091+9999REMSYN082AAXX  18094 67143 32582 41004 10288 20252 30152 40159 58009 84200 333 84820 92438;EQDQ01  00002PRCP99
0233671430999992000121812004-21200+048360FM-12+0006FMSM V0201201N003110120019N0300001N1+02871+02461101401ADDAA199000091GA1031+006009089GA2051+012009069GF106991061081008001001021MA1999999101331MD1710191+9999REMSYN104AAXX  18124 67143 32580 61206 10287 20246 30133 40140 57019 86802 333 0//00 83820 85640 92438 555 81073;EQDQ01  00002PRCP99
0246671430999992000121815004-21200+048360FM-12+0006FMSM V0201201N003110690019N0300001N1+02701+02291101501ADDAA199000091GA1031+006009089GA2041+069009009GF106991041081008001001021KA1120M+03001MA1999999101431MD1310101+9999REMSYN104AAXX  18154 67143 32580 61206 10270 20229 30143 40150 53010 84802 333 10300 83820 84073 92438 555 82640;EQDQ01  00002PRCP99
0239671430999992000121900004-21200+048360FM-12+0006FMSM V0209999C000010690019N0300001N1+02361+02061101521ADDAA199000091GA1011+006009089GA2041+012009069GA3031+069009009GF106991041081008001001021MA1999999101451MD1310091+9999REMSYN094AAXX  19004 67143 32580 60000 10236 20206 30145 40152 53009 84802 333 81820 84640 83073 92438;EQDQ01  00002PRCP99
0285671430999992000121906004-21200+048360FM-12+0006FMSM V0200601N002112200019N0300001N1+02861+02281101601ADDAA199000091GA1011+012009069GF104991041091008001001031KA1120M+03001KA2120N+02241MA1999999101531MD1110081+9999REMSYN146AAXX  19064 67143 32580 40604 10286 20228 30153 40160 51008 84903 333 0//00 10300 20224 5///4 55/// 84820 81920 94998 95838 92438 555 81640 81073;EQDQ01  00002PRCP99
0211671430999992000121909004-21200+048360FM-12+0006FMSM V0200601N005112200019N0400001N1+02881+02301101491ADDAA199000091GA1011+012009069GF102991021081008001001021MA1999999101421MD1710111+9999REMSYN098AAXX  19094 67143 32582 20610 10288 20230 30142 40149 57011 82802 333 82820 92438 555 81640 81073;EQDQ01  00002PRCP99
0223671430999992000121912004-21200+048360FM-12+0006FMSM V0200601N00411012001CN0300001N1+02901+02251101331ADDAA199000091GA1021+006009089GA2031+012009069GF107991031081008001001021MA1999999101261MD1710161+9999REMSYN094AAXX  19124 67143 32580 70608 10290 20225 30126 40133 57016 83802 333 0//00 82820 83640 92438;EQDQ01  00002PRCP99
0214671430999992000121915004-21200+048360FM-12+0006FMSM V0200601N004112200019N0300001N1+02681+02211101361ADDAA199000091GA1021+006009089GF102991021081008001001021KA1120M+02961MA1999999101291MD1510031+9999REMSYN088AAXX  19154 67143 32580 20608 10268 20221 30129 40136 55003 82802 333 10296 82820 92438;EQDQ01  00002PRCP99
0235671430999992000122012004-21200+048360FM-12+0006FMSM V0200201N004112200019N0300001N1+02881+02181101311ADDAA199000091GA1011+012009069GF104991011091008001001021MA1999999101241MD1710091+9999REMSYN122AAXX  20124 67143 32580 40208 10288 20218 30124 40131 57009 81902 333 0//00 81820 81920 94997 95837 92438 555 81640 84073;EQDQ01  00002PRCP99
0230671430999992000122015004-21200+048360FM-12+0006FMSM V0200801N004112200019N0300001N1+02681+02141101371ADDAA199000091GA1021+012009069GF103991021081004501001021KA1120M+02901MA1999999101301MD1310061+9999REMSYN104AAXX  20154 67143 32480 30808 10268 20214 30130 40137 53006 82802 333 10290 81817 92438 555 82640 82073;EQDQ01  00002PRCP99
0236671430999992000122100004-21200+048360FM-12+0006FMSM V0200801N004110099019N0200001N1+02241+01961101421ADDAA106000891AC12C9AY161061GA1011+005109089GA2051+009909069GF105991051081004501001001MA1999999101351MD1610071+9999MW1151REMSYN106AAXX  21004 67143 11470 50808 10224 20196 30135 40142 56007 69971 7156/ 85800 333 0//12 81817 85633 924/8;
0214671430999992000122103004-21200+048360FM-12+0006FMSM V0203001N001010099019N0300001N1+02181+01831101621ADDAA112000791GA1021+005109089GA2051+009909069GF107991061081004501071999MA1999999101551MD1310201+9999REMSYN104AAXX  21034 67143 22480 73002 10218 20183 30155 40162 53020 8687/ 333 69972 82817 85633 92438 555 82360;
0283671430999992000122106004-21200+048360FM-12+0006FMSM V0203001N003110120019N0300001N1+02801+02211101631ADDAA199000091GA1021+006009089GA2051+012009069GF107991051081008001071999KA1120M+02901KA2120N+02181MA1999999101561MD1010111+9999REMSYN128AAXX  21064 67143 32580 73006 10280 20221 30156 40163 50011 8587/ 333 0//00 10290 20218 50//4 55/// 82820 85640 92438 555 82360;EQDQ01  00002PRCP99
0261671430999992000122109004-21200+048360FM-12+0006FMSM V0200601N004110120019N0300001N1+02761+02201101491ADDAA199000091GA1011+006009099GA2031+006009089GA3041+012009069GF107991061091008001071999MA1999999101421MD1710211+9999REMSYN116AAXX  21094 67143 32580 70608 10276 20220 30142 40149 57021 8697/ 333 83820 81920 84640 94995 95835 92438 555 82360;EQDQ01  00002PRCP99
0241671430999992000122112004-21200+048360FM-12+0006FMSM V0200801N004110360019N0300001N1+02781+02221101331ADDAA199000091GA1021+030009039GF106991041091008001071021MA1999999101261MD1710161+9999REMSYN128AAXX  21124 67143 32580 60808 10278 20222 30126 40133 57016 84972 333 0//00 81820 81920 84640 94995 95835 92438 555 82360 81073;EQDQ01  00002PRCP99
0260671430999992000122115004-21200+048360FM-12+0006FMSM V0200801N003110360019N0300001N1+02701+02261101341ADDAA199000091GA1021+030009039GF106991041091008001031021KA1120M+02821MA1999999101271MD1310011+9999REMSYN134AAXX  21154 67143 32580 60806 10270 20226 30127 40134 53001 84932 333 10282 81820 81920 84640 94995 94996 95836 92438 555 82360 81073;EQDQ01  00002PRCP99
0201671430999992000122200004-21200+048360FM-12+0006FMSM V0200801N001012200019N0300001N1+02201+01891101361ADDAA199000091GA1011+006009089GF102991021081008001001001MA1999999101291MD1710121+9999REMSYN088AAXX  22004 67143 33580 20802 10220 20189 30129 40136 57012 82800 333 0//00 81820 924/8;EQDQ01  00002PRCP99
0217671430999992000122203004-21200+048360FM-12+0006FMSM V0209999C000012200019N0350001N1+02281+01941101421ADDAA199000091GA1021+006009089GA2031+012009069GF104991031081008001001021MA1999999101351MD1310061+9999REMSYN088AAXX  22034 67143 32581 40000 10228 20194 30135 40142 53006 83802 333 82820 83640 92438;EQDQ01  00002PRCP99
0251671430999992000122206004-21200+048360FM-12+0006FMSM V0200201N002112200019N0300001N1+02721+02191101441ADDAA199000091GA1021+006009089GF103991031081008001001001KA1120M+02821KA2120N+02201MA1999999101371MD1010021+9999REMSYN112AAXX  22064 67143 32580 30204 10272 20219 30137 40144 50002 83800 333 0//00 10282 20220 50//4 55/// 82820 92438;EQDQ01  00002PRCP99
0195671430999992000122209004-21200+048360FM-12+0006FMSM V0200201N004112200019N0400001N1+02821+02271101261ADDAA199000091GA1021+006009089GF102991021081008001001001MA1999999101191MD1710181+9999REMSYN082AAXX  22094 67143 32582 20208 10282 20227 30119 40126 57018 82800 333 82820 92438;EQDQ01  00002PRCP99
0211671430999992000122212004-21200+048360FM-12+0006FMSM V0200601N005112200019N0400001N1+02881+02331100991ADDAA199000091GA1011+006009089GF101991011081008001001001MA1999999100921MD1710271+9999REMSYN098AAXX  22124 67143 32582 10610 10288 20233 30092 40099 57027 81800 333 0//00 81820 92438 555 81640;EQDQ01  00002PRCP99
0286671430999992000122215004-21200+048360FM-12+0006FMSM V0200601N002110900019N0300001N1+02651+02161101091ADDAA199000091GA1011+006009099GA2011+006009089GA3041+012009069GF106991041091008001001021KA1120M+02951MA1999999101021MD1310101+9999REMSYN128AAXX  22154 67143 32580 60604 10265 20216 30102 40109 53010 84902 333 10295 81920 81820 84640 92438 94995 94996 95836 555 83073;EQDQ01  00002PRCP99
0233671430999992000122300004-21200+048360FM-12+0006FMSM V0200601N002112200019N0300001N1+02241+01901101041ADDAA199000091GA1011+006009089GA2031+012009069GF104991031081008001001021MA1999999100971MD1710141+9999REMSYN104AAXX  23004 67143 33580 40604 10224 20190 30097 40104 57014 83802 333 0//00 81820 83640 924/8 555 82073;EQDQ01  00002PRCP99
0261671430999992000122306004-21200+048360FM-12+0006FMSM V0200601N002110900019N0300001N1+02861+02281101221ADDAA199000091GA1041+006009089GF106991041021008001001021KA1120M+02951KA2120N+02101MA1999999101151MD1210161+9999REMSYN122AAXX  23064 67143 32580 60604 10286 20228 30115 40122 52016 84202 333 0//00 10295 20210 5///4 55/// 84820 92438 555 83073;EQDQ01  00002PRCP99
0217671430999992000122309004-21200+048360FM-12+0006FMSM V0200601N002110690019N0300001N1+02821+02391101111ADDAA199000091GA1031+006009089GA2061+069009009GF106991031021008001001021MA1999999101041MD1710111+9999REMSYN088AAXX  23094 67143 32580 60604 10282 20239 30104 40111 57011 83202 333 83820 86073 92438;EQDQ01  00002PRCP99
0257671430999992000122312004-21200+048360FM-12+0006FMSM V0200601N002110690019N0300001N1+02801+02371100931ADDAA199000091GA1011+006009099GA2031+006009089GA3061+069009009GF107991031091008001001021MA1999999100861MD1710181+9999REMSYN112AAXX  23124 67143 32580 70604 10280 20237 30086 40093 57018 83902 333 0//00 83820 81920 86073 94995 95835 92438;EQDQ01  00002PRCP99
0270671430999992000122315004-21200+048360FM-12+0006FMSM V0203601N00211006001CN0300001N1+02671+02341101011ADDAA199000091GA1021+006009099GA2031+006009089GA3061+069009009GF107991041091008001001021KA1120M+02941MA1999999100941MD1710081+9999REMSYN112AAXX  23154 67143 32580 73604 10267 20234 30094 40101 57008 84902 333 10294 83820 82920 86073 94995 95836 92438;EQDQ01  00002PRCP99
0227671430999992000122403004-21200+048360FM-12+0006FMSM V0203601N001010690019N0300001N1+02201+01981101071ADDAA199000091GA1011+006009089GA2041+069009009GF105991021081008001001021MA1999999101001MD1310101+9999REMSYN098AAXX  24034 67143 32580 53602 10220 20198 30100 40107 53010 82802 333 81820 84073 92438 555 82640;EQDQ01  00002PRCP99
0299671430999992000122406004-21200+048360FM-12+0006FMSM V0200401N002110690019N0300001N1+02781+02221101201ADDAA199000091GA1011+006009089GA2071+069009009GF199999011021008001071021KA1120M+02941KA2120N+02081MA1999999101131MD1210131+9999REMSYN128AAXX  24064 67143 32580 50404 10278 20222 30113 40120 52013 81272 333 0//00 10294 20208 50//4 55/// 81820 87073 92438 555 81360;EQDQ01+000052SCOTCVQ02  00002PRCP99
0217671430999992000122409004-21200+048360FM-12+0006FMSM V0203601N003110690019N0300001N1+02901+02301101081ADDAA199000091GA1021+006009089GA2051+069009009GF106991021021008001001021MA1999999101011MD1710121+9999REMSYN088AAXX  24094 67143 32580 63606 10290 20230 30101 40108 57012 82202 333 82820 85073 92438;EQDQ01  00002PRCP99
0251671430999992000122412004-21200+048360FM-12+0006FMSM V0200801N003110360019N0300001N1+02881+02431100861ADDAA199000091GA1011+006009099GA2011+006009089GF107991041091008001071021MA1999999100791MD1710221+9999REMSYN122AAXX  24124 67143 32580 70806 10288 20243 30079 40086 57022 84972 333 0//00 81820 81920 94996 94997 95836 92438 555 82360;EQDQ01  00002PRCP99
0258671430999992000122415004-21200+048360FM-12+0006FMSM V0203601N002110360019N0300001N1+02721+02351100991ADDAA199000091GA1021+006009099GA2021+006009089GF107991041091008001071021KA1120M+02901MA1999999100921MD1310131+9999REMSYN116AAXX  24154 67143 32580 73604 10272 20235 30092 40099 53013 84972 333 10290 82820 82920 94996 95836 92438 555 82073;EQDQ01  00002PRCP99
0269671430999992000122500004-21200+048360FM-12+0006FMSM V0203601N002110099019N0300001N1+02341+02161100951ADDAA199000091GA1011+006009099GA2021+006009089GA3051+009909069GF106991061091008001001001MA1999999100881MD1710151+9999REMSYN124AAXX  25004 67143 33580 63604 10234 20216 30088 40095 57015 86900 333 0//00 82820 81920 85633 94991 94992 95831 95832 924/8;EQDQ01  00002PRCP99
0217671430999992000122503004-21200+048360FM-12+0006FMSM V0209999C000010099019N0300001N1+02321+02171100951ADDAA199000091GA1021+006009089GA2051+009909069GF107991051081008001001031MA1999999100881MD1510001+9999REMSYN088AAXX  25034 67143 32580 70000 10232 20217 30088 40095 55000 85803 333 82820 85633 82073;EQDQ01  00002PRCP99
0283671430999992000122506004-21200+048360FM-12+0006FMSM V0201401N001010120019N0300001N1+02701+02201101011ADDAA199000091GA1021+006009089GA2051+012009069GF107991061081008001031999KA1120M+02901KA2120N+02301MA1999999100941MD1110061+9999REMSYN128AAXX  25064 67143 32580 71402 10270 20220 30094 40101 51006 8683/ 333 0//00 10290 20230 5///4 55/// 82820 85640 92438 555 83360;EQDQ01  00002PRCP99
0255671430999992000122509004-21200+048360FM-12+0006FMSM V0201401N002110099019N0200001N1+02701+02381100901ADDAA199000091AY121031AY221031GA1031+006009089GA2061+009909069GF107991061081008001031999MA1999999100831MD1710111+9999MW1151REMSYN104AAXX  25094 67143 31570 71404 10270 20238 30083 40090 57011 71522 8683/ 333 83820 86633 92438 555 82360;EQDQ01  00002PRCP99
0301671430999992000122512004-21200+048360FM-12+0006FMSM V0201401N002110099019N0200001N1+02801+02541100751ADDAA199000091AY121061AY221061GA1011+006009099GA2031+006009089GA3061+009909069GF107991061091008001031999MA1999999100681MD1710151+9999MW1151REMSYN134AAXX  25124 67143 31570 71404 10280 20254 30068 40075 57015 71522 8693/ 333 0//00 83820 81920 86633 94995 94996 95836 92438 555 83360;EQDQ01  00002PRCP99
0328671430999992000122515004-21200+048360FM-12+0006FMSM V0201401N003110060019N0150001N1+02661+02461100761ADDAA199000091AY191031AY221031GA1021+006009099GA2031+006009089GA3061+030009049GF108991051091008001071999KA1120M+02901MA1999999100691MD1310011+9999MW1171REMSYN148AAXX  25154 67143 31565 81406 10266 20246 30069 40076 53001 71792 8597/ 333 10290 83820 82920 86460 94995 94996 94997 94998 95836 95837 95838 92437;EQDQ01  00002PRCP99
0232671430999992000122603004-21200+048360FM-12+0006FMSM V0200201N001010120019N0100001N1+02501+02171100701ADDAA112000691AY161031AY221031GA1011+006009089GA2051+012009069GF105991051081008001001021MA1999999100631MD1310071+9999MW1401REMSYN100AAXX  26034 67143 21560 50202 10250 20217 30063 40070 53007 74062 85802 333 69962 81820 85640 92438;
0260671430999992000122606004-21200+048360FM-12+0006FMSM V0200201N002110120019N0300001N1+02801+02431100771ADDAA124000591GA1011+006009089GA2071+012009069GF107991071081008001999999KA1120M+02901KA2120N+02491MA1999999100701MD1210071+9999REMSYN124AAXX  26064 67143 12580 70204 10280 20243 30070 40077 52007 69964 878// 333 0//19 10290 20249 5///4 55/// 81820 87640 92438;
0229671430999992000122609004-21200+048360FM-12+0006FMSM V0201201N004112200019N0300001N1+02961+02511100641ADDAA199000091GA1011+006009099GA2021+006009089GF103991031091008001001021MA1999999100571MD1810131+9999REMSYN100AAXX  26094 67143 32580 31208 10296 20251 30057 40064 58013 83902 333 82820 81920 94991 95831 92438;EQDQ01  00002PRCP99
0275671430999992000122612004-21200+048360FM-12+0006FMSM V0200601N005112200019N0300001N1+02921+02471100501ADDAA199000091AY101061AY201061GA1021+012009069GF103991031091008001001021MA1999999100431MD1710141+9999MW1171REMSYN140AAXX  26124 67143 31580 30610 10292 20247 30043 40050 57014 71700 83902 333 82820 82920 94995 94996 94997 95835 95837 92438 555 82640 81073;EQDQ01  00002PRCP99
0280671430999992000122615004-21200+048360FM-12+0006FMSM V0200601N005110120019N0300001N1+02701+02381100681ADDAA199000091GA1011+005109099GA2021+005109089GA3051+012009069GF105991051091004501001021KA1120M+03021MA1999999100611MD1310181+9999REMSYN122AAXX  26154 67143 32480 50610 10270 20238 30061 40068 53018 85902 333 10302 82817 81917 85640 94998 95838 92438 555 81073;EQDQ01  00002PRCP99
0227671430999992000122703004-21200+048360FM-12+0006FMSM V0202601N003112200019N0300001N1+02501+02301101101ADDAA199000091GA1011+006009089GA2041+012009069GF104991041081008001031001MA1999999101031MD1210131+9999REMSYN098AAXX  27034 67143 32580 42606 10250 20230 30103 40110 52013 84830 333 81820 84640 92438 555 81360;EQDQ01  00002PRCP99
0273671430999992000122706004-21200+048360FM-12+0006FMSM V0201601N005110120019N0300001N1+02961+02481101211ADDAA199000091GA1041+006009089GA2041+012009069GF107991071081008001999999KA1120M+03021KA2120N+02371MA1999999101141MD1210111+9999REMSYN118AAXX  27064 67143 32580 71610 10296 20248 30114 40121 52011 878// 333 0//00 10302 20237 5///4 55/// 84820 84640 92438;EQDQ01  00002PRCP99
0217671430999992000122709004-21200+048360FM-12+0006FMSM V0201601N006210120019N0300001N1+02721+02351101211ADDAA199000091GA1031+006009089GA2041+012009069GF106991061081008001001001MA1999999101141MD1010001+9999REMSYN088AAXX  27094 67143 32580 61612 10272 20235 30114 40121 50000 86800 333 83820 84640 92438;EQDQ01  00002PRCP99
0223671430999992000122712004-21200+048360FM-12+0006FMSM V0201601N007212200019N0300001N1+02751+02321101131ADDAA199000091GA1021+006009089GA2031+012009069GF104991041081008001001001MA1999999101061MD1710081+9999REMSYN094AAXX  27124 67143 32580 41614 10275 20232 30106 40113 57008 84800 333 0//00 82820 83640 92438;EQDQ01  00002PRCP99
0242671430999992000122715004-21200+048360FM-12+0006FMSM V0202801N005110120019N0300001N1+02581+02291101201ADDAA199000091GA1021+006009089GA2061+012009069GF107991071081008001999999KA1120M+02961MA1999999101131MD1310071+9999REMSYN100AAXX  27154 67143 32580 72810 10258 20229 30113 40120 53007 878// 333 0//00 10296 82820 86640 92438;EQDQ01  00002PRCP99
0242671430999992000122803004-21200+048360FM-12+0006FMSM V0200801N006210099019N0050001N1+02421+02151101251ADDAA112012091AY161031AY261031GA1041+003909079GA2061+009909069GF108991081081004501999999MA1999999101181MD1510021+9999MW1611REMSYN110AAXX  28034 67143 21450 80812 10242 20215 30118 40125 55002 76166 888// 333 60122 84713 86633 92436 555 81817;
0304671430999992000122806004-21200+048360FM-12+0006FMSM V0201401N008210099019N0150001N1+02561+02331101381ADDAA124016091AC11C9AY161061AY221061GA1021+003909079GA2061+009909069GF108991081081004501999999KA1120M+02961KA2120N+02281MA1999999101311MD1210131+9999MW1151REMSYN140AAXX  28064 67143 11465 81416 10256 20233 30131 40138 52013 60164 71562 888// 333 0//91 10296 20228 50//4 55/// 82713 86633 92437 555 81817;
0254671430999992000122812004-21200+048360FM-12+0006FMSM V0202801N003110099019N0200001N1+02401+02101101331ADDAA106009991AC12C9AY161061AY221061GA1021+003909079GA2061+009909069GF108991081081004501999999MA1999999101261MD1810111+9999MW1211REMSYN116AAXX  28124 67143 11470 82806 10240 20210 30126 40133 58011 60101 72162 888// 333 0//92 82713 86633 92438 555 82817;
0248671430999992000122900004-21200+048360FM-12+0006FMSM V0203201N003110090019N0050001N1+02161+02021101151ADDAA106108091AY161061AY261061GA1041+003009079GA2061+009009069GF108991061051004501021999MA1999999101081MD1710171+9999MW1611REMSYN116AAXX  29004 67143 11450 83206 10216 20202 30108 40115 57017 61081 76166 8652/ 333 0//69 84710 86630 924/6 555 83460;
0242671430999992000122903004-21200+048360FM-12+0006FMSM V0203201N002110099019N0200001N1+02111+01901101161ADDAA112117091AY161031AY221031GA1031+005109089GA2051+009909069GF107991061081004501021999MA1999999101091MD1310011+9999MW1151REMSYN110AAXX  29034 67143 21470 73204 10211 20190 30109 40116 53001 71562 8682/ 333 61172 83817 85633 92438 555 82460;
0294671430999992000122906004-21200+048360FM-12+0006FMSM V0202801N003110099019N0200001N1+02331+02061101321ADDAA124120991AC11I9AY161061AY221061GA1031+005109089GA2071+009909069GF107991071081004501999999KA1120M+02571KA2120N+02091MA1999999101251MD1210161+9999MW1151REMSYN130AAXX  29064 67143 11470 72806 10233 20206 30125 40132 52016 61214 71562 878// 333 0//95 10257 20209 50//4 55/// 83817 87633 92438;
0198671430999992000122909004-21200+048360FM-12+0006FMSM V0202801N002110099019N0300001N1+02601+02341101271ADDAA199000021GA1041+005109089GA2071+009909069GF107991071081004501999999MA1999999101201MD1810051+9999REMSYN088AAXX  29094 67143 32480 72804 10260 20234 30120 40127 58005 878// 333 84817 87633 92438;
0204671430999992000122912004-21200+048360FM-12+0006FMSM V0200401N001010120019N0300001N1+02781+02461101031ADDAA199000021GA1031+006009089GA2061+012009069GF107991071081008001999999MA1999999100961MD1710241+9999REMSYN094AAXX  29124 67143 32580 70402 10278 20246 30096 40103 57024 878// 333 0//00 83820 86640 92438;
0246671430999992000122915004-21200+048360FM-12+0006FMSM V0200401N002110120019N0300001N1+02621+02361101011ADDAA199000091GA1031+006009089GA2061+012009069GF107991061081008001031999KA1120M+02781MA1999999100941MD1510021+9999REMSYN104AAXX  29154 67143 32580 70404 10262 20236 30094 40101 55002 8683/ 333 10278 83820 86640 92438 555 82360;EQDQ01  00002PRCP99
0232671430999992000123003004-21200+048360FM-12+0006FMSM V0201201N005110090019N0050001N1+02301+02181101221ADDAA112047091AY161031AY261031GA1041+003909079GA2071+009009069GF108991081051004501999999MA1999999101151MD1210141+9999MW1611REMSYN100AAXX  30034 67143 21450 81210 10230 20218 30115 40122 52014 76166 885// 333 60472 84713 87630 92436;
0294671430999992000123006004-21200+048360FM-12+0006FMSM V0200401N004110090019N0050001N1+02241+02061101351ADDAA124059991AC11C9AY161061AY261061GA1031+003909079GA2071+009009069GF108991081051004501999999KA1120M+02781KA2120N+02181MA1999999101281MD1110131+9999MW1611REMSYN130AAXX  30064 67143 11450 80408 10224 20206 30128 40135 51013 60604 76166 885// 333 0//91 10278 20218 5///4 55/// 83713 87630 92436;
0232671430999992000123009004-21200+048360FM-12+0006FMSM V0200401N001010099019N0150001N1+02341+02241101241ADDAA106001091AY161031AY221031GA1031+005109089GA2071+009909069GF107991071081004501999999MA1999999101171MD1710111+9999MW1211REMSYN100AAXX  30094 67143 21465 70402 10234 20224 30117 40124 57011 72162 878// 333 60011 83817 87633 92437;
0254671430999992000123012004-21200+048360FM-12+0006FMSM V0200401N001010120019N0300001N1+02701+02361101061ADDAA106001091AC10I9AY161061AY221061GA1031+006009089GA2051+012009069GF107991061081008001031999MA1999999100991MD1710181+9999MW1021REMSYN116AAXX  30124 67143 11580 70402 10270 20236 30099 40106 57018 60011 70262 8683/ 333 0//14 83820 85640 92438 555 83360;
0236671430999992000123100004-21200+048360FM-12+0006FMSM V0200601N001010099019N0150001N1+02321+02141101191ADDAA106000391AC12C9AY161061GA1031+005109089GA2071+009909069GF107991071081004501999999MA1999999101121MD1710101+9999MW1151REMSYN106AAXX  31004 67143 11465 70602 10232 20214 30112 40119 57010 69931 7156/ 878// 333 0//12 83817 87633 924/8;
0242671430999992000123103004-21200+048360FM-12+0006FMSM V0200601N001010099019N0100001N1+02301+02091101341ADDAA112000391AY121031AY221031GA1041+005109089GA2061+009909069GF107991061081004501031999MA1999999101271MD1310151+9999MW1151REMSYN110AAXX  31034 67143 21460 70602 10230 20209 30127 40134 53015 71522 8683/ 333 69932 84817 86633 92438 555 82360;
0304671430999992000123106004-21200+048360FM-12+0006FMSM V0209999C000010099019N0150001N1+02501+02241101421ADDAA124002091AC13I9AY121061AY221061GA1041+005109089GA2051+009909069GF107991061081004501031999KA1120M+02721KA2120N+02301MA1999999101351MD1110081+9999MW1151REMSYN140AAXX  31064 67143 11465 70000 10250 20224 30135 40142 51008 60024 71522 8683/ 333 0//18 10272 20230 50//4 55/// 84817 85633 92437 555 82360;
0227671430999992000123109004-21200+048360FM-12+0006FMSM V0200401N004110120019N0300001N1+02781+02331101351ADDAA199000091GA1031+006009089GA2051+012009069GF106991051081008001031001MA1999999101281MD1610071+9999REMSYN098AAXX  31094 67143 32580 60408 10278 20233 30128 40135 56007 85830 333 83820 85640 92438 555 82360;EQDQ01  00002PRCP99
0223671430999992000123112004-21200+048360FM-12+0006FMSM V0200401N003110120019N0300001N1+02821+02361101221ADDAA199000091GA1031+006009089GA2041+012009069GF105991051081008001001021MA1999999101151MD1710131+9999REMSYN094AAXX  31124 67143 32580 50406 10282 20236 30115 40122 57013 85802 333 0//00 83820 84640 92438;EQDQ01  00002PRCP99
0298671430999992000123115004-21200+048360FM-12+0006FMSM V0200401N004110099019N0200001N1+02671+02301101311ADDAA199000091AY121031AY221031GA1011+006009099GA2031+006009089GA3071+009909069GF107991071091008001999999KA1120M+02921MA1999999101241MD1310091+9999MW1151REMSYN118AAXX  31154 67143 31570 70408 10267 20230 30124 40131 53009 71522 879// 333 10292 83820 81920 87633 94996 95836 92438;EQDQ01  00002PRCP99
