0217678610999992000010106004-18220+028930FM-12+1282FVGO V0201101N004612200019N0500001N1+02351+01631999999ADDAA106000091GA1031+030009079GF103991031001999999081011KA1120N+01861MA1999999087171MD1999999-0071ME1315009REMSYN082AAXX  01064 67861 32984 31109 10235 20163 38717 48500 83081 333 20186 59007 83360;EQDQ01  00002PRCP06
0202678610999992000010112004-18220+028930FM-12+1282FVGO V0200501N00101045001CN0300001N1+02791+01611999999ADDAY191061AY281061GA1011+012009099GF107991041021017501071031MA1999999086891MD1999999-0071ME1314739MW1211REMSYN088AAXX  01124 67861 41780 70502 10279 20161 38689 48473 72198 84273 333 59007 81940 84850;
0202678610999992000010115004-18220+028930FM-12+1282FVGO V0203501N00261045001CN0500001N1+02791+01681999999ADDAY191031AY221031GA1011+015009099GF107991031021017501071031MA1999999086761MD1999999-0061ME1314609MW1171REMSYN088AAXX  01154 67861 41784 73505 10279 20168 38676 48460 71792 83273 333 59006 81950 83856;
0221678610999992000010118004-18220+028930FM-12+1282FVGO V0201001N00211105001CN0500001N1+02151+01691999999ADDAY191061AY221061GA1011+015009099GF106991011091017501071031KA1120M+03041MA1999999086921MD1999999-0091ME1314739MW1131REMSYN094AAXX  01184 67861 41784 61004 10215 20169 38692 48473 71392 81973 333 10304 59009 81950 84460;
0238678610999992000010206004-18220+028930FM-12+1282FVGO V0200901N00461045001CN0500001N1+02191+01641999999ADDAA124000191AY191061AY211061GA1011+012009099GF107991011091012501071031KA1120N+01921MA1999999087141MD1999999-0031ME1314959MW1291REMSYN100AAXX  02064 67861 11684 70909 10219 20164 38714 48495 69924 72991 81973 333 20192 59003 81940 87460;
0174678610999992000010209004-18220+028930FM-12+1282FVGO V0200601N003110450019N0500001N1+02531+01771999999ADDGA1021+009609089GF107991021011012501041081MA1999999087211MD1999999+0091ME1315039REMSYN082AAXX  02094 67861 42684 70606 10253 20177 38721 48503 82148 333 58009 82832 87299;
0202678610999992000010212004-18220+028930FM-12+1282FVGO V0200501N00211012001CN0500001N1+02651+01661999999ADDAY121061AY221061GA1011+009009099GF107991061021012501031031MA1999999086981MD1999999+0091ME1314819MW1171REMSYN088AAXX  02124 67861 41684 70504 10265 20166 38698 48481 71722 86233 333 58009 81930 86841;
0224678610999992000010215004-18220+028930FM-12+1282FVGO V0203301N002110450019N0500001N1+02591+01691999999ADDAY191031AY221031GA1011+009009099GA2031+012309089GF107991031021012501071031MA1999999086881MD1999999+0121ME1314709MW1021REMSYN094AAXX  02154 67861 41684 73304 10259 20169 38688 48470 70292 83273 333 58012 81930 83841 86299;
0260678610999992000010306004-18220+028930FM-12+1282FVGO V0201701N003610450019N0450001N1+02001+01881999999ADDAA124000591AY191061AY261061GA1011+002709079GA2021+006009099GF107991021091008001071031KA1120N+01931MA1999999087291MD1999999+0151ME1315109MW1151REMSYN106AAXX  03064 67861 11583 71707 10200 20188 38729 48510 69954 71596 82973 333 20193 58015 82920 81709 87460;
0202678610999992000010309004-18220+028930FM-12+1282FVGO V0201301N00261045001CN0500001N1+02451+01731999999ADDAY191031AY221031GA1011+009009099GF107991011021012501071031MA1999999087291MD1999999+0081ME1315119MW1021REMSYN088AAXX  03094 67861 41684 71305 10245 20173 38729 48511 70292 81273 333 58008 81930 86460;
0174678610999992000010312004-18220+028930FM-12+1282FVGO V0203601N002110150019N0500001N1+02361+01701999999ADDGA1051+015009089GF107991051021017501071031MA1999999087031MD1999999+0051ME1314859REMSYN082AAXX  03124 67861 42784 73604 10236 20170 38703 48485 85273 333 58005 85850 83099;
0202678610999992000010315004-18220+028930FM-12+1282FVGO V0203601N00051045001CN0500001N1+02601+01611999999ADDAY121031AY221031GA1031+015009089GF107991021021017501071021MA1999999087001MD1999999+0121ME1314829MW1151REMSYN088AAXX  03154 67861 41784 73601 10260 20161 38700 48482 71522 82272 333 58012 83850 87460;
0174678610999992000010409004-18220+028930FM-12+1282FVGO V0200801N004110450019N0500001N1+02681+01671999999ADDGA1031+012309089GF107991031021012501031021MA1999999087211MD1999999-0081ME1315049REMSYN082AAXX  04094 67861 42684 70808 10268 20167 38721 48504 83232 333 59008 83841 84099;
0168678610999992000010412004-18220+028930FM-12+1282FVGO V0201001N004112200019N0500001N1+02971+01511999999ADDGA1041+018009029GF106991041021017501001011MA1999999087041MD1999999+0011ME1314899REMSYN076AAXX  04124 67861 42784 61008 10297 20151 38704 48489 84201 333 58001 84856;
0174678610999992000010415004-18220+028930FM-12+1282FVGO V0201001N003111050019N0500001N1+02971+01021999999ADDGA1011+021009089GF105991011021017501031011MA1999999086931MD1999999-0071ME1314789REMSYN082AAXX  04154 67861 42784 51006 10297 20102 38693 48478 81231 333 59007 81857 85099;
0187678610999992000010418004-18220+028930FM-12+1282FVGO V0201001N003619999999N0500001N1+02601+01291999999ADDGA1041+030009079GF105991041001999999031011KA1120M+03091MA1999999087021MD1999999-0091ME1314869REMSYN082AAXX  04184 67861 42984 51007 10260 20129 38702 48486 84031 333 10309 59009 84360;
0196678610999992000010500004-18220+028930FM-12+1282FVGO V0201001N005112200019N0500001N1+02221+01501999999ADDAY111061AY211061GA1011+009009099GF102991011091012501071031MA1999999087121MD1999999-0021ME1314959MW1131REMSYN082AAXX  05004 67861 41684 21010 10222 20150 38712 48495 71311 81973 333 59002 81930;
0168678610999992000010503004-18220+028930FM-12+1282FVGO V0201201N003119999999N0500001N1+01941+01681999999ADDGA1041+030009079GF106991041001999999041021MA1999999087151MD1999999-0041ME1314969REMSYN076AAXX  05034 67861 42984 61206 10194 20168 38715 48496 84042 333 59004 84360;
0224678610999992000010515004-18220+028930FM-12+1282FVGO V0200701N00571045001CN0300001N1+02471+01771999999ADDAY191031AY261031GA1011+021009099GA2031+021009089GF107991031021022501071031MA1999999086961MD1999999+0031ME1314809MW1951REMSYN094AAXX  05154 67861 41880 70711 10247 20177 38696 48480 79596 83273 333 58003 81957 83857 85460;
0202678610999992000010603004-18220+028930FM-12+1282FVGO V0200301N00101045001CN0300001N1+02031+01831999999ADDAY161031AY221031GA1031+012009069GF105991031051012501071021MA1999999087181MD1999999+0031ME1314999MW1151REMSYN088AAXX  06034 67861 41680 50302 10203 20183 38718 48499 71562 83572 333 58003 83640 83360;
0238678610999992000010606004-18220+028930FM-12+1282FVGO V0200201N002110450019N0450001N1+02361+01861999999ADDAA124002091AY161061AY221061GA1021+006009069GF107991021051008001081021KA1120N+02001MA1999999087311MD1999999-0031ME1315149MW1021REMSYN100AAXX  06064 67861 11583 70204 10236 20186 38731 48514 60024 70262 82582 333 20200 59003 82620 86099;
0168678610999992000010609004-18220+028930FM-12+1282FVGO V0200401N003110114019N0500001N1+02631+01711999999ADDGA1051+011409029GF105991051021012501001011MA1999999087231MD1999999-0101ME1315069REMSYN076AAXX  06094 67861 42684 50406 10263 20171 38723 48506 85201 333 59010 85838;
0174678610999992000010615004-18220+028930FM-12+1282FVGO V0209999C000012200019N0500001N1+03041+01541999999ADDGA1011+018009099GF103991031021017501001031MA1999999086701MD1999999-0261ME1314559REMSYN082AAXX  06154 67861 42784 30000 10304 20154 38670 48455 83203 333 59026 81956 83856;
0202678610999992000010703004-18220+028930FM-12+1282FVGO V0201501N00101045001CN0300001N1+02001+01931999999ADDAY191031AY261031GA1011+006009099GF107991011091008001071031MA1999999086971MD1999999-0211ME1314789MW1911REMSYN088AAXX  07034 67861 41580 71502 10200 20193 38697 48478 79196 81973 333 59021 81920 87460;
0238678610999992000010706004-18220+028930FM-12+1282FVGO V0201601N005110027019N0300001N1+01901+01811999999ADDAA124017091AY191061AY261061GA1051+002709079GF108991051061002501071999KA1120N+01861MA1999999087121MD1999999-0191ME1314929MW1021REMSYN100AAXX  07064 67861 11380 81610 10190 20181 38712 48492 60174 70296 8567/ 333 20186 59019 85709 88460;
0174678610999992000010709004-18220+028930FM-12+1282FVGO V0203601N00461045001CN0350001N1+01951+01641999999ADDGA1031+003009079GF107991031061004501071999MA1999999087191MD1999999-0171ME1314999REMSYN082AAXX  07094 67861 42481 73609 10195 20164 38719 48499 8367/ 333 59017 83710 87460;
0187678610999992000010712004-18220+028930FM-12+1282FVGO V0200701N00151045001CN0500001N1+02461+01701094801ADDGA1011+009609089GA2031+030009049GF107991011011012501071021MA1999999086991MD1999999+0051REMSYN088AAXX  07124 67861 42684 70703 10246 20170 38699 49480 81172 333 58005 81832 83460 85099;
0174678610999992000010715004-18220+028930FM-12+1282FVGO V0201801N001012200019N0500001N1+02701+01641999999ADDGA1011+013509089GF103991011021012501031021MA1999999086751MD1999999+0051ME1314589REMSYN082AAXX  07154 67861 42684 31802 10270 20164 38675 48458 81232 333 58005 81845 83099;
0193678610999992000010718004-18220+028930FM-12+1282FVGO V0209999C000012200019N0300001N1+02151+01921999999ADDGA1011+030009039GF103991011001999999061021KA1120M+02701MA1999999086831MD1999999-0051ME1314649REMSYN088AAXX  07184 67861 42980 30000 10215 20192 38683 48464 81062 333 10270 59005 81360 83099;
0174678610999992000010809004-18220+028930FM-12+1282FVGO V0203301N004610450019N0500001N1+02741+01741999999ADDGA1031+013509089GF106991031021012501041021MA1999999086881MD1999999-0311ME1314719REMSYN082AAXX  08094 67861 42684 63309 10274 20174 38688 48471 83242 333 59031 83845 83099;
0174678610999992000010812004-18220+028930FM-12+1282FVGO V0202701N004111050019N0500001N1+02901+01641999999ADDGA1021+015009089GF105991021021017501031021MA1999999086681MD1999999-0311ME1314529REMSYN082AAXX  08124 67861 42784 52708 10290 20164 38668 48452 82232 333 59031 82850 83099;
0202678610999992000010815004-18220+028930FM-12+1282FVGO V0201501N005110150019N0300001N1+02261+01981999999ADDAY191031AY261031GA1011+015009099GF107991051021017501071031MA1999999086611MD1999999-0141ME1314439MW1961REMSYN088AAXX  08154 67861 41780 71510 10226 20198 38661 48443 79696 85273 333 59014 81950 85850;
0221678610999992000010818004-18220+028930FM-12+1282FVGO V0209999C00001045001CN0250001N1+02201+01901999999ADDAY191061AY261061GA1011+015009099GF107991011091017501071999KA1120M+03041MA1999999086701MD1999999-0131ME1314519MW1601REMSYN094AAXX  08184 67861 41775 70000 10220 20190 38670 48451 76096 8197/ 333 10304 59013 81950 87460;
0224678610999992000010900004-18220+028930FM-12+1282FVGO V0200801N00511002401CN0250001N1+02051+01831999999ADDAY161061AY221061GA1051+002409079GA2011+009009099GF107991051061002501071999MA1999999086801MD1999999-0091ME1314609MW1131REMSYN094AAXX  09004 67861 41375 70810 10205 20183 38680 48460 71362 8567/ 333 59009 81930 85708 87460;
0224678610999992000010903004-18220+028930FM-12+1282FVGO V0200901N005710450019N0200001N1+01801+01731999999ADDAY191031AY261031GA1031+002409079GA2011+009009099GF108991031061002501071999MA1999999086741MD1999999+0001ME1314539MW1611REMSYN094AAXX  09034 67861 41370 80911 10180 20173 38674 48453 76196 8367/ 333 58000 81930 83708 88460;
0196678610999992000010909004-18220+028930FM-12+1282FVGO V0200501N00261045001CN0500001N1+02351+01691999999ADDGA1011+007509089GA2031+030009039GF107991011021008001041081MA1999999086821MD1999999-0061ME1314639REMSYN088AAXX  09094 67861 42584 70505 10235 20169 38682 48463 81248 333 59006 81825 83360 85299;
0243678610999992000010912004-18220+028930FM-12+1282FVGO V0201501N00721045001CN0500001N1+02401+01811999999ADDAY191061AY221061GA1011+009009099GA2031+010509089GF107991031021012501071031MA1999999086082MD1999999+0001ME1314499MW1171REMSYN094AAXX  09124 67861 41684 71514 10240 20181 38608 48449 71792 83273 333 58000 81930 83835 85460;EQDQ01+086083APOSP 
0202678610999992000010915004-18220+028930FM-12+1282FVGO V0200501N00051045001CN0500001N1+02101+01941999999ADDAY191031AY221031GA1011+009009099GF107991021021012501071031MA1999999086591MD1999999-0021ME1314389MW1291REMSYN088AAXX  09154 67861 41684 70501 10210 20194 38659 48438 72992 82273 333 59002 81930 87460;
0221678610999992000010918004-18220+028930FM-12+1282FVGO V0209999C00001045001CN0300001N1+02001+01931999999ADDAY191061AY221061GA1011+009009099GF107991011091012501071031KA1120M+02641MA1999999086711MD1999999+0011ME1314519MW1131REMSYN094AAXX  09184 67861 41680 70000 10200 20193 38671 48451 71392 81973 333 10264 58001 81930 87460;
0224678610999992000011000004-18220+028930FM-12+1282FVGO V0200501N00621002401CN0300001N1+01951+01901999999ADDAY121061AY221061GA1051+002409079GA2011+006009099GF107991051061012501071999MA1999999086961MD1999999-0041ME1314569MW1131REMSYN094AAXX  10004 67861 41680 70512 10195 20190 38696 48456 71322 8567/ 333 59004 81920 85708 87460;
0202678610999992000011003004-18220+028930FM-12+1282FVGO V0200501N005710024019N0200001N1+01941+01881999999ADDAY161031AY221031GA1051+002409079GF108991051061002501071999MA1999999086701MD1999999-0041ME1314509MW1601REMSYN088AAXX  10034 67861 41370 80511 10194 20188 38670 48450 76062 8567/ 333 59004 85708 87460;
0260678610999992000011006004-18220+028930FM-12+1282FVGO V0203501N00051002401CN0050001N1+01791+01791999999ADDAA124004191AY191061AY261061GA1071+002409079GA2011+006009099GF108991071061002501071999KA1120N+01751MA1999999086801MD1999999+0001ME1314599MW1951REMSYN106AAXX  10064 67861 11350 83501 10179 20179 38680 48459 60044 79596 8767/ 333 20175 58000 81920 87708 88460;
0202678610999992000011015004-18220+028930FM-12+1282FVGO V0203301N00211045001CN0500001N1+02201+01951999999ADDAY161031AY221031GA1031+006009069GF107991031051008001071999MA1999999086611MD1999999+0021ME1314429MW1021REMSYN088AAXX  10154 67861 41584 73304 10220 20195 38661 48442 70262 8357/ 333 58002 83620 87460;
0221678610999992000011018004-18220+028930FM-12+1282FVGO V0209999C000010300019N0500001N1+02001+01861999999ADDAY161061AY221061GA1051+030009049GF107991051001999999071021KA1120M+02251MA1999999086721MD1999999+0011ME1314529MW1021REMSYN094AAXX  10184 67861 41984 70000 10200 20186 38672 48452 70262 85072 333 10225 58001 85460 84099;
0202678610999992000011100004-18220+028930FM-12+1282FVGO V0209999C00001045001CN0250001N1+02021+01801999999ADDAY161061AY221061GA1041+002709079GF107991041071002501071999MA1999999086771MD1999999+0011ME1314579MW1601REMSYN088AAXX  11004 67861 41375 70000 10202 20180 38677 48457 76062 8477/ 333 58001 84709 87460;
0202678610999992000011103004-18220+028930FM-12+1282FVGO V0209999C00001045001CN0260001N1+01941+01881999999ADDAY161031AY221031GA1021+002709079GF107991021061002501071999MA1999999086721MD1999999+0021ME1314529MW1021REMSYN088AAXX  11034 67861 41376 70000 10194 20188 38672 48452 70262 8267/ 333 58002 82709 87460;
0224678610999992000011109004-18220+028930FM-12+1282FVGO V0201801N00151002401CN0050001N1+01761+01711999999ADDAY191031AY261031GA1051+002409079GA2011+004509099GF108991051071004501071031MA1999999086981MD1999999+0151ME1314779MW1631REMSYN094AAXX  11094 67861 41450 81803 10176 20171 38698 48477 76396 85773 333 58015 81915 85708 88460;
0202678610999992000011112004-18220+028930FM-12+1282FVGO V0209999C00001045001CN0300001N1+02041+01751999999ADDAY191061AY261061GA1021+003009079GF107991021061004501071999MA1999999086801MD1999999+0101ME1314599MW1211REMSYN088AAXX  11124 67861 41480 70000 10204 20175 38680 48459 72196 8267/ 333 58010 82710 87460;
0202678610999992000011115004-18220+028930FM-12+1282FVGO V0203001N00101045001CN0500001N1+02101+01831999999ADDAY161031AY221031GA1031+003009079GF107991031061004501071999MA1999999086721MD1999999+0111ME1314519MW1151REMSYN088AAXX  11154 67861 41484 73002 10210 20183 38672 48451 71562 8367/ 333 58011 83710 87460;
0215678610999992000011118004-18220+028930FM-12+1282FVGO V0209999C000010300019N0280001N1+01961+01871999999ADDAY161061AY221061GA1071+030009019GF107991071001999999071999KA1120M+02201MA1999999086861MD1999999+0141ME1314669MW1021REMSYN088AAXX  11184 67861 41978 70000 10196 20187 38686 48466 70262 8707/ 333 10220 58014 87460;
0174678610999992000011200004-18220+028930FM-12+1282FVGO V0209999C000010024019N0300001N1+01951+01901999999ADDGA1051+002409079GF107991051061002501071999MA1999999086841MD1999999+0071ME1314649REMSYN082AAXX  12004 67861 42380 70000 10195 20190 38684 48464 8567/ 333 58007 85708 87460;
0174678610999992000011203004-18220+028930FM-12+1282FVGO V0203601N00051045001CN0300001N1+01901+01901999999ADDGA1041+002409079GF108991041061002501071999MA1999999086841MD1999999+0121ME1314649REMSYN082AAXX  12034 67861 42380 83601 10190 20190 38684 48464 8467/ 333 58012 84708 88460;
0246678610999992000011206004-18220+028930FM-12+1282FVGO V0200301N00101045001CN0500001N1+02051+01751999999ADDAA124072991AY161061AY221061GA1011+002709079GA2031+003009069GF107991031051004501071999KA1120N+01651MA1999999086941ME1314759MW1021REMSYN106AAXX  12064 67861 11484 70302 10205 20175 38694 48475 60734 70262 8357/ 333 20165 38002 81709 83610 87460;
0224678610999992000011212004-18220+028930FM-12+1282FVGO V0203501N002110450019N0060001N1+01901+01811999999ADDAY191061AY281061GA1011+002409079GA2021+006009099GF107991021091008001071031MA1999999086701MD1999999-0101ME1314509MW1951REMSYN094AAXX  12124 67861 41556 73504 10190 20181 38670 48450 79598 82973 333 59010 82920 81708 87460;
0202678610999992000011215004-18220+028930FM-12+1282FVGO V0203401N00101045001CN0500001N1+02101+02021999999ADDAY191031AY261031GA1011+006009099GF107991011021008001071031MA1999999086581MD1999999-0051ME1314399MW1171REMSYN088AAXX  12154 67861 41584 73402 10210 20202 38658 48439 71796 81273 333 59005 81920 87460;
0221678610999992000011218004-18220+028930FM-12+1282FVGO V0202901N00101045001CN0300001N1+01991+01841999999ADDAY191061AY261061GA1011+006009099GF107991011091008001071031KA1120M+02561MA1999999086731MD1999999-0131ME1314539MW1171REMSYN094AAXX  12184 67861 41580 72902 10199 20184 38673 48453 71796 81973 333 10256 59013 81920 87460;
0168678610999992000011303004-18220+028930FM-12+1282FVGO V0201201N001510300019N0300001N1+01811+01741999999ADDGA1071+030009019GF107991071001999999071999MA1999999086881MD1999999+0041ME1314659REMSYN076AAXX  13034 67861 42980 71203 10181 20174 38688 48465 8707/ 333 58004 87460;
0210678610999992000011306004-18220+028930FM-12+1282FVGO V0201001N003619999999N0500001N1+02171+01631999999ADDAA124034091GA1041+030009039GF107991041001999999041021KA1120N+01751MA1999999086971MD1999999+0031ME1314789REMSYN094AAXX  13064 67861 12984 71007 10217 20163 38697 48478 60344 84042 333 20175 58003 84360 85099;
0206678610999992000011415004-18220+028930FM-12+128299999V0200601N002610450019N0400001N1+02061+01671999999ADDAY191031AY221031GA1011+009009099GF107991041021012501071031MA1999999086881MD1999999+0141ME1314679MW1021REMSYN092    AAXX  14154 67861 41682 70605 10206 20167 38688 48467 70292 84273 333 58014 81930 84839;
0219678610999992000011418004-18220+028930FM-12+128299999V0200301N000510300019N0300001N1+01941+01811999999ADDAY191061AY261061GA1071+030009019GF107991071001999999071999KA1120M+02601MA1999999087071MD1999999+0151ME1314879MW1021REMSYN092    AAXX  14184 67861 41980 70301 10194 20181 38707 48487 70296 8707/ 333 10260 58015 87460;
0206678610999992000011512004-18220+028930FM-12+128299999V0203501N00151045001CN0250001N1+01831+01761999999ADDAY191061AY261061GA1011+002409079GF108991011051004501071999MA1999999087031MD1999999+0071ME1314839MW1911REMSYN092    AAXX  15124 67861 41475 83503 10183 20176 38703 48483 79196 8157/ 333 58007 81708 88460;
0206678610999992000011515004-18220+028930FM-12+128299999V0200401N00261045001CN0500001N1+02011+01831999999ADDAY161031AY221031GA1011+004509069GF107991011051004501071021MA1999999086921MD1999999+0041ME1314719MW1021REMSYN092    AAXX  15154 67861 41484 70405 10201 20183 38692 48471 70262 81572 333 58004 81615 87460;
0206678610999992000011615004-18220+028930FM-12+128299999V0203401N003110075019N0500001N1+02421+01911999999ADDAY181031AY261031GA1051+007509089GF107991051021008001071021MA1999999086631MD1999999-0291ME1314459MW1251REMSYN092    AAXX  16154 67861 41584 73406 10242 20191 38663 48445 72586 85272 333 59029 85825 83099;
0202678610999992000012015004-18220+028930FM-12+1282FVGO V0201101N000510090019N0500001N1+02201+01701999999ADDAY181031AY261031GA1051+009009089GF107991051021012501071999MA1999999087451MD1999999+0181ME1315269MW1801REMSYN088AAXX  20154 67861 41684 71101 10220 20170 38745 48526 78086 8527/ 333 58018 85830 87460;
0215678610999992000012018004-18220+028930FM-12+1282FVGO V0201201N002110300019N0500001N1+02111+01551999999ADDAY181061AY261061GA1071+030009019GF107991071001999999071999KA1120M+02361MA1999999087591MD1999999+0091ME1315409MW1021REMSYN088AAXX  20184 67861 41984 71204 10211 20155 38759 48540 70286 8707/ 333 10236 58009 87460;
0168678610999992000012103004-18220+028930FM-12+1282FVGO V0201001N003610300019N0300001N1+01721+01361999999ADDGA1071+030009019GF107991071001999999071999MA1999999087511MD1999999-0141ME1315309REMSYN076AAXX  21034 67861 42980 71007 10172 20136 38751 48530 8707/ 333 59014 87460;
0210678610999992000012106004-18220+028930FM-12+1282FVGO V0201001N00361045001CN0500001N1+01801+01311999999ADDAA124000591GA1011+006309089GF107991011011008001071999KA1120N+01621MA1999999087641MD1999999-0141ME1315429REMSYN094AAXX  21064 67861 12584 71007 10180 20131 38764 48542 69944 8117/ 333 20162 59014 81821 87460;
0174678610999992000012109004-18220+028930FM-12+1282FVGO V0201001N00571045001CN0500001N1+02091+01441999999ADDGA1011+009009089GF107991011011012501071021MA1999999087691MD1999999-0121ME1315479REMSYN082AAXX  21094 67861 42684 71011 10209 20144 38769 48547 81172 333 59012 81830 86460;
0174678610999992000012112004-18220+028930FM-12+1282FVGO V0200701N002110105019N0500001N1+02401+01561999999ADDGA1051+010509089GF107991051021012501031021MA1999999087471MD1999999-0131ME1315289REMSYN082AAXX  21124 67861 42684 70704 10240 20156 38747 48528 85232 333 59013 85835 83360;
0202678610999992000012115004-18220+028930FM-12+1282FVGO V0201501N003610105019N0500001N1+02261+01581999999ADDAY121031AY221031GA1051+010509089GF107991051021012501071021MA1999999087321MD1999999-0131ME1315129MW1151REMSYN088AAXX  21154 67861 41684 71507 10226 20158 38732 48512 71522 85272 333 59013 85835 83460;
0193678610999992000012118004-18220+028930FM-12+1282FVGO V0209999C000019999999N0300001N1+02041+01591999999ADDGA1041+030009039GF107991041001999999061021KA1120M+02501MA1999999087411MD1999999-0181ME1315219REMSYN088AAXX  21184 67861 42980 70000 10204 20159 38741 48521 84062 333 10250 59018 84360 83099;
0168678610999992000012200004-18220+028930FM-12+1282FVGO V0201001N004112200019N0300001N1+01841+01531999999ADDGA1031+030009079GF103991031001999999031011MA1999999087261MD1999999-0271ME1315069REMSYN076AAXX  22004 67861 42980 31008 10184 20153 38726 48506 83031 333 59027 83360;
0223678610999992000012206004-18220+028930FM-12+1282FVGO V0200901N003110075019N0500001N1+01841+01431999999ADDAA199000091GA1051+007509069GF107991051051008001031011KA1120N+01621MA1999999087461MD1999999-0181ME1315239REMSYN088AAXX  22064 67861 32584 70906 10184 20143 38746 48523 85531 333 20162 59018 85625 86360;EQDQ01  00002PRCP99
0174678610999992000012209004-18220+028930FM-12+1282FVGO V0200601N00261045001CN0500001N1+02191+01581999999ADDGA1031+007809089GF107991031011008001031011MA1999999087471MD1999999-0221ME1315289REMSYN082AAXX  22094 67861 42584 70605 10219 20158 38747 48528 83131 333 59022 83826 86360;
0174678610999992000012212004-18220+028930FM-12+1282FVGO V0200801N00211045001CN0500001N1+02351+01621999999ADDGA1041+009309089GF107991041021012501071999MA1999999087301MD1999999-0171ME1315119REMSYN082AAXX  22124 67861 42684 70804 10235 20162 38730 48511 8427/ 333 59017 84831 87460;
0168678610999992000012215004-18220+028930FM-12+1282FVGO V0200801N002112200019N0500001N1+02541+01451999999ADDGA1011+011709099GF103991021021012501031031MA1999999087121MD1999999-0201ME1314939REMSYN076AAXX  22154 67861 42684 30804 10254 20145 38712 48493 82233 333 59020 81939;
0187678610999992000012218004-18220+028930FM-12+1282FVGO V0209999C000012200019N0500001N1+02021+01641999999ADDGA1011+011709059GF101991011041012501001021KA1120M+02581MA1999999087201MD1999999-0211ME1315009REMSYN082AAXX  22184 67861 42684 10000 10202 20164 38720 48500 81402 333 10258 59021 81639;
0168678610999992000012303004-18220+028930FM-12+1282FVGO V0200801N003112200019N0300001N1+01801+01451999999ADDGA1031+030009079GF104991031001999999031011MA1999999087181MD1999999-0111ME1314989REMSYN076AAXX  23034 67861 42980 40806 10180 20145 38718 48498 83031 333 59011 83360;
0223678610999992000012306004-18220+028930FM-12+1282FVGO V0200601N00261045001CN0500001N1+02051+01551999999ADDAA199000091GA1011+006009089GF106991011011008001031011KA1120N+01751MA1999999087401MD1999999-0061ME1315219REMSYN088AAXX  23064 67861 32584 60605 10205 20155 38740 48521 81131 333 20175 59006 81820 86360;EQDQ01  00002PRCP99
0168678610999992000012309004-18220+028930FM-12+1282FVGO V0200201N002612200019N0500001N1+02441+01631999999ADDGA1041+010209029GF104991041021012501031001MA1999999087371MD1999999-0101ME1315189REMSYN076AAXX  23094 67861 42684 40205 10244 20163 38737 48518 84230 333 59010 84834;
0168678610999992000012312004-18220+028930FM-12+1282FVGO V0200201N002610150019N0500001N1+02811+01621999999ADDGA1061+015009029GF106991061021017501001001MA1999999087221MD1999999-0081ME1315069REMSYN076AAXX  23124 67861 42784 60205 10281 20162 38722 48506 86200 333 59008 86850;
0202678610999992000012315004-18220+028930FM-12+1282FVGO V0201701N00101045001CN0500001N1+02591+01621999999ADDAY121031AY221031GA1021+015009089GF105991021021017501031001MA1999999087081MD1999999-0041ME1314909MW1151REMSYN088AAXX  23154 67861 41784 51702 10259 20162 38708 48490 71522 82230 333 59004 82850 84360;
0187678610999992000012318004-18220+028930FM-12+1282FVGO V0209999C000012200019N0500001N1+02201+01721999999ADDGA1021+030009079GF102991021001999999031011KA1120M+02841MA1999999087221MD1999999+0021ME1315049REMSYN082AAXX  23184 67861 42984 20000 10220 20172 38722 48504 82031 333 10284 58002 82360;
0174678610999992000012403004-18220+028930FM-12+1282FVGO V0201301N00721045001CN0300001N1+02881+01301999999ADDGA1011+012009039GF107991031051012501071999MA1999999087361MD1999999+0181ME1315179REMSYN082AAXX  24034 67861 42680 71314 10288 20130 38736 48517 8357/ 333 58018 81340 87460;
0251678610999992000012406004-18220+028930FM-12+1282FVGO V0200701N003110075019N0500001N1+02051+01501999999ADDAA199000091AY111061AY211061GA1051+007509069GF107991051051008001071021KA1120N+01791MA1999999087471MD1999999+0071ME1315279MW1151REMSYN094AAXX  24064 67861 31584 70706 10205 20150 38747 48527 71511 85572 333 20179 58007 85625 83460;EQDQ01  00002PRCP99
0174678610999992000012409004-18220+028930FM-12+1282FVGO V0203501N003110093019N0500001N1+02371+01641999999ADDGA1051+009309089GF107991051011012501031021MA1999999087431MD1999999+0061ME1315249REMSYN082AAXX  24094 67861 42684 73506 10237 20164 38743 48524 85132 333 58006 85831 83099;
0196678610999992000012412004-18220+028930FM-12+1282FVGO V0200501N002610123019N0500001N1+02711+01731999999ADDAY121061AY221061GA1061+012309029GF107991061021012501031021MA1999999087251MD1999999+0031ME1315089MW1151REMSYN082AAXX  24124 67861 41684 70505 10271 20173 38725 48508 71522 86232 333 58003 86841;
0202678610999992000012415004-18220+028930FM-12+1282FVGO V0200301N00151045001CN0500001N1+02661+01651999999ADDAY121031AY221031GA1031+012609089GF105991031021012501061021MA1999999087071MD1999999-0011ME1314909MW1151REMSYN088AAXX  24154 67861 41684 50303 10266 20165 38707 48490 71522 83262 333 59001 83842 83360;
0187678610999992000012418004-18220+028930FM-12+1282FVGO V0209999C000012200019N0500001N1+02251+01761999999ADDGA1021+030009079GF102991021001999999061001KA1120M+02741MA1999999087231MD1999999+0011ME1315069REMSYN082AAXX  24184 67861 42984 20000 10225 20176 38723 48506 82060 333 10274 58001 82360;
0168678610999992000012500004-18220+028930FM-12+1282FVGO V0201201N002610090019N0300001N1+02061+01661999999ADDGA1061+009009059GF106991061051012501001001MA1999999087301MD1999999-0011ME1315139REMSYN076AAXX  25004 67861 42680 61205 10206 20166 38730 48513 86500 333 59001 86630;
0174678610999992000012503004-18220+028930FM-12+1282FVGO V0200801N00311045001CN0500001N1+01911+01711999999ADDGA1031+009009069GF107991031051012501031001MA1999999087371MD1999999+0011ME1315189REMSYN082AAXX  25034 67861 42684 70806 10191 20171 38737 48518 83530 333 58001 83630 87360;
0223678610999992000012506004-18220+028930FM-12+1282FVGO V0200901N002611050019N0500001N1+02141+01751999999ADDAA199000091GA1011+006009089GF105991011011008001031021KA1120N+01821MA1999999087521MD1999999+0051ME1315339REMSYN088AAXX  25064 67861 32584 50905 10214 20175 38752 48533 81132 333 20182 58005 81820 83360;EQDQ01  00002PRCP99
0174678610999992000012509004-18220+028930FM-12+1282FVGO V0203601N002111050019N0500001N1+02541+01731999999ADDGA1041+010209089GF106991041011012501001021MA1999999087431MD1999999+0001ME1315249REMSYN082AAXX  25094 67861 42684 63604 10254 20173 38743 48524 84102 333 58000 84834 83099;
0168678610999992000012512004-18220+028930FM-12+1282FVGO V0202701N000510135019N0500001N1+02681+01671999999ADDGA1051+013509029GF105991051021012501001021MA1999999087331MD1999999+0081ME1315169REMSYN076AAXX  25124 67861 42684 52701 10268 20167 38733 48516 85202 333 58008 85845;
0221678610999992000012518004-18220+028930FM-12+1282FVGO V0209999C000012200019N0300001N1+02261+01721999999ADDAY111061AY211061GA1011+013509099GF103991011091012501061031KA1120M+02851MA1999999087231MD1999999+0001ME1315069MW1131REMSYN094AAXX  25184 67861 41680 30000 10226 20172 38723 48506 71311 81963 333 10285 58000 81945 83099;
0202678610999992000012603004-18220+028930FM-12+1282FVGO V0209999C00001045001CN0300001N1+01951+01881999999ADDAY161031AY221031GA1021+009009069GF107991021051012501071999MA1999999087301MD1999999-0071ME1315129MW1211REMSYN088AAXX  26034 67861 41680 70000 10195 20188 38730 48512 72162 8257/ 333 59007 82630 87460;
0232678610999992000012606004-18220+028930FM-12+1282FVGO V0209999C000012200019N0500001N1+02451+01811999999ADDAA124002091AY161061AY221061GA1011+007509029GF101991011011008001041021KA1120N+01891MA1999999087451MD1999999-0071ME1315299MW1031REMSYN094AAXX  26064 67861 11584 10000 10245 20181 38745 48529 60024 70362 81142 333 20189 59007 81825;
0202678610999992000012609004-18220+028930FM-12+1282FVGO V0203601N002610075019N0500001N1+02461+01931999999ADDAY191031AY211031GA1011+006009099GF106991061021008001001031MA1999999087341MD1999999-0091ME1315189MW1171REMSYN088AAXX  26094 67861 41584 63605 10246 20193 38734 48518 71791 86203 333 59009 81920 86825;
0202678610999992000012612004-18220+028930FM-12+1282FVGO V0203401N00211012001CN0500001N1+02701+01871999999ADDAY191061AY281061GA1011+009009099GF107991061021012501001031MA1999999087181MD1999999-0151ME1315039MW1801REMSYN088AAXX  26124 67861 41684 73404 10270 20187 38718 48503 78098 86203 333 59015 81930 86835;
0202678610999992000012700004-18220+028930FM-12+1282FVGO V0209999C000019999999N0500001N1+01971+01781999999ADDAY191061AY211061GA1041+030009039GF106991041001999999031021MA1999999087101MD1999999-0241ME1314919MW1021REMSYN088AAXX  27004 67861 41984 60000 10197 20178 38710 48491 70291 84032 333 59024 84360 83099;
0174678610999992000012703004-18220+028930FM-12+1282FVGO V0209999C000019999999N0500001N1+01871+01781999999ADDGA1021+030009039GF106991021001999999031021MA1999999087101MD1999999-0201ME1314919REMSYN082AAXX  27034 67861 42984 60000 10187 20178 38710 48491 82032 333 59020 82360 85099;
0210678610999992000012706004-18220+028930FM-12+1282FVGO V0203501N000510450019N0500001N1+02101+01881999999ADDAA124006191GA1011+003009089GF107991011011004501041081KA1120N+01801MA1999999087301MD1999999-0151ME1315119REMSYN094AAXX  27064 67861 12484 73501 10210 20188 38730 48511 60064 81148 333 20180 59015 81810 87299;
0174678610999992000012709004-18220+028930FM-12+1282FVGO V0202701N00211045001CN0500001N1+02541+01911999999ADDGA1041+007509089GF107991041021008001031021MA1999999087261MD1999999+0181ME1315109REMSYN082AAXX  27094 67861 42584 72704 10254 20191 38726 48510 84232 333 58018 84825 83360;
0224678610999992000012712004-18220+028930FM-12+1282FVGO V0200901N00411045001CN0300001N1+02021+01871999999ADDAY191061AY261061GA1011+007509099GA2031+007509089GF107991031021008001071031MA1999999087151MD1999999-0031ME1314959MW1171REMSYN094AAXX  27124 67861 41580 70908 10202 20187 38715 48495 71796 83273 333 59003 81925 83825 87460;
0202678610999992000012715004-18220+028930FM-12+1282FVGO V0209999C00001045001CN0500001N1+02151+01931999999ADDAY191031AY261031GA1011+007509099GF107991011091008001071031MA1999999086971MD1999999-0101ME1314779MW1291REMSYN088AAXX  27154 67861 41584 70000 10215 20193 38697 48477 72996 81973 333 59010 81925 87460;
0221678610999992000012718004-18220+028930FM-12+1282FVGO V0209999C00001045001CN0300001N1+02011+01981999999ADDAY191061AY261061GA1011+007509099GF107991011091008001071031KA1120M+02661MA1999999087191MD1999999+0001ME1314999MW1131REMSYN094AAXX  27184 67861 41580 70000 10201 20198 38719 48499 71396 81973 333 10266 58000 81925 86460;
0168678610999992000012800004-18220+028930FM-12+1282FVGO V0209999C000010300019N0280001N1+01931+01891999999ADDGA1071+030009019GF107991071001999999071999MA1999999087021MD1999999-0081ME1314839REMSYN076AAXX  28004 67861 42978 70000 10193 20189 38702 48483 8707/ 333 59008 87460;
0168678610999992000012803004-18220+028930FM-12+1282FVGO V0209999C000010300019N0300001N1+01901+01781999999ADDGA1071+030009019GF107991071001999999071999MA1999999087031MD1999999-0071ME1314849REMSYN076AAXX  28034 67861 42980 70000 10190 20178 38703 48484 8707/ 333 59007 87460;
0210678610999992000012806004-18220+028930FM-12+1282FVGO V0202701N001010030019N0450001N1+02051+01841999999ADDAA124001091GA1051+003009079GF107991051061004501071999KA1120N+01831MA1999999087121MD1999999-0181ME1314929REMSYN094AAXX  28064 67861 12483 72702 10205 20184 38712 48492 60014 8567/ 333 20183 59018 85710 87460;
0202678610999992000012809004-18220+028930FM-12+1282FVGO V0203301N00151004201CN0300001N1+02071+01961999999ADDAY191031AY261031GA1011+003009099GF107991051021004501071031MA1999999087051MD1999999-0211ME1314869MW1951REMSYN088AAXX  28094 67861 41480 73303 10207 20196 38705 48486 79596 85273 333 59021 81910 85815;
0224678610999992000012812004-18220+028930FM-12+1282FVGO V0202701N00051045001CN0450001N1+02121+02021999999ADDAY191061AY261061GA1011+004509099GA2031+006009089GF107991031021008001071031MA1999999086951MD1999999-0201ME1314769MW1171REMSYN094AAXX  28124 67861 41583 72701 10212 20202 38695 48476 71796 83273 333 59020 81915 83820 87460;
0215678610999992000012818004-18220+028930FM-12+1282FVGO V0200501N001010300019N0300001N1+02001+01861999999ADDAY191061AY261061GA1071+030009019GF107991071001999999071999KA1120M+02351MA1999999086971MD1999999-0221ME1314779MW1291REMSYN088AAXX  28184 67861 41980 70502 10200 20186 38697 48477 72996 8707/ 333 10235 59022 87460;
0168678610999992000012903004-18220+028930FM-12+1282FVGO V0209999C000012200019N0300001N1+01851+01761999999ADDGA1011+030009079GF101991011001999999031021MA1999999086931MD1999999-0101ME1314749REMSYN076AAXX  29034 67861 42980 10000 10185 20176 38693 48474 81032 333 59010 81360;
0210678610999992000012906004-18220+028930FM-12+1282FVGO V0201901N000519999999N0450001N1+02181+02061999999ADDAA124004191GA1011+030009039GF107991011001999999081081KA1120N+01801MA1999999087121MD1999999+0001ME1314939REMSYN094AAXX  29064 67861 12983 71901 10218 20206 38712 48493 60044 81088 333 20180 58000 81360 87299;
0174678610999992000012909004-18220+028930FM-12+1282FVGO V0201501N001011050019N0350001N1+02571+01961999999ADDGA1021+008109089GF105991021021008001031021MA1999999087121MD1999999+0071ME1314949REMSYN082AAXX  29094 67861 42581 51502 10257 20196 38712 48494 82232 333 58007 82827 86099;
0224678610999992000012912004-18220+028930FM-12+1282FVGO V0201501N00151045001CN0500001N1+02601+01691999999ADDAY191061AY221061GA1011+009009099GA2031+012009089GF107991031021012501071031MA1999999086991MD1999999+0041ME1314819MW1171REMSYN094AAXX  29124 67861 41684 71503 10260 20169 38699 48481 71792 83273 333 58004 81930 83840 85460;
0202678610999992000012915004-18220+028930FM-12+1282FVGO V0209999C00001045001CN0500001N1+02501+01781999999ADDAY191031AY221031GA1011+009009099GF107991011021012501071031MA1999999086911MD1999999+0131ME1314729MW1291REMSYN088AAXX  29154 67861 41684 70000 10250 20178 38691 48472 72992 81273 333 58013 81930 86460;
0215678610999992000012918004-18220+028930FM-12+1282FVGO V0209999C000019999999N0300001N1+02211+01941999999ADDAY191061AY221061GA1031+030009079GF105991031001999999031021KA1120M+02861MA1999999087051MD1999999+0081ME1314869MW1021REMSYN088AAXX  29184 67861 41980 50000 10221 20194 38705 48486 70292 83032 333 10286 58008 83360;
0202678610999992000013000004-18220+028930FM-12+1282FVGO V0201001N001011050019N0300001N1+02151+01691999999ADDAY121061AY221061GA1011+009009099GF105991011091012501031031MA1999999087011MD1999999+0021ME1314849MW1131REMSYN088AAXX  30004 67861 41680 51002 10215 20169 38701 48484 71322 81933 333 58002 81930 85099;
0168678610999992000013003004-18220+028930FM-12+1282FVGO V0200501N002112200019N0350001N1+02131+01441999999ADDGA1011+030009079GF101991011001999999041001MA1999999087041MD1999999+0111ME1314869REMSYN076AAXX  30034 67861 42981 10504 10213 20144 38704 48486 81040 333 58011 81360;
0223678610999992000013006004-18220+028930FM-12+1282FVGO V0203601N001512200019N0500001N1+02451+01611999999ADDAA199000091GA1011+030009039GF103991011001999999081021KA1120N+02041MA1999999087251MD1999999+0131ME1315099REMSYN088AAXX  30064 67861 32984 33603 10245 20161 38725 48509 81082 333 20204 58013 81360 83099;EQDQ01  00002PRCP99
0174678610999992000013009004-18220+028930FM-12+1282FVGO V0203501N002111050019N0500001N1+02751+01441999999ADDGA1011+015009089GF105991011011017501041021MA1999999087251MD1999999+1031ME1315099REMSYN082AAXX  30094 67861 42784 53504 10275 20144 38725 48509 81142 333 58103 81850 85099;
0174678610999992000013015004-18220+028930FM-12+1282FVGO V0203001N000519999999N0500001N1+03001+01091999999ADDGA1021+024009089GF105991021021999999001021MA1999999086991MD1999999+0081ME1314849REMSYN082AAXX  30154 67861 42984 53001 10300 20109 38699 48484 82202 333 58008 82858 83099;
0187678610999992000013018004-18220+028930FM-12+1282FVGO V0209999C000012200019N0300001N1+02301+01361999999ADDGA1011+030009079GF101991011001999999061001KA1120M+03071MA1999999087211MD1999999+0161ME1315049REMSYN082AAXX  30184 67861 42980 10000 10230 20136 38721 48504 81060 333 10307 58016 81360;
0168678610999992000013100004-18220+028930FM-12+1282FVGO V0200701N001012200019N0300001N1+02251+01161999999ADDGA1011+030009079GF101991011001999999031001MA1999999087231MD1999999+0221ME1315079REMSYN076AAXX  31004 67861 42980 10702 10225 20116 38723 48507 81030 333 58022 81360;
0168678610999992000013103004-18220+028930FM-12+1282FVGO V0200901N003612200019N0300001N1+02001+01501999999ADDGA1011+030009079GF101991011001999999041001MA1999999087211MD1999999+0171ME1315039REMSYN076AAXX  31034 67861 42980 10907 10200 20150 38721 48503 81040 333 58017 81360;
0223678610999992000013106004-18220+028930FM-12+1282FVGO V0203501N004619999999N0400001N1+02151+01811999999ADDAA199000091GA1011+030009039GF105991011001999999031081KA1120N+01931MA1999999087401MD1999999+0121ME1315219REMSYN088AAXX  31064 67861 32982 53509 10215 20181 38740 48521 81038 333 20193 58012 81360 85299;EQDQ01  00002PRCP99
0174678610999992000013109004-18220+028930FM-12+1282FVGO V0203301N004611050019N0500001N1+02601+01781999999ADDGA1011+010509089GF107991011011012501001081MA1999999087401MD1999999+0151ME1315229REMSYN082AAXX  31094 67861 42684 73309 10260 20178 38740 48522 81108 333 58015 81835 87299;
0174678610999992000013112004-18220+028930FM-12+1282FVGO V0200901N004111050019N0500001N1+02851+01361999999ADDGA1031+018009089GF107991031021022501001081MA1999999087261MD1999999+0151ME1315109REMSYN082AAXX  31124 67861 42884 70908 10285 20136 38726 48510 83208 333 58015 83856 87299;
0174678610999992000013115004-18220+028930FM-12+1282FVGO V0201001N002611050019N0500001N1+02861+01361999999ADDGA1021+021009089GF106991021021022501001021MA1999999087081MD1999999+0091ME1314929REMSYN082AAXX  31154 67861 42884 61005 10286 20136 38708 48492 82202 333 58009 82857 85099;
0187678610999992000013118004-18220+028930FM-12+1282FVGO V0209999C000012200019N0300001N1+02251+01641999999ADDGA1011+030009079GF101991011001999999061001KA1120M+03031MA1999999087181MD1999999-0031ME1315009REMSYN082AAXX  31184 67861 42980 10000 10225 20164 38718 48500 81060 333 10303 59003 81360;
0156678610999992000020103004-18220+028930FM-12+1282FVGO V0200901N003112200019N0300001N1+02051+01541999999ADDGA1001+999999999GF100991001001999999001001MA1999999087231MD1999999+0021ME1315069REMSYN064AAXX  01034 67861 42980 00906 10205 20154 38723 48506 333 58002;
0217678610999992000020106004-18220+028930FM-12+1282FVGO V0203501N003119999999N0400001N1+02231+01651999999ADDAA199000091GA1071+999999089GF107991001001999999001081KA1120N+02001MA1999999087401MD1999999+0001ME1315219REMSYN082AAXX  01064 67861 32982 73506 10223 20165 38740 48521 80008 333 20200 58000 87299;EQDQ01  00002PRCP99
0174678610999992000020112004-18220+028930FM-12+1282FVGO V0200301N003111050019N0500001N1+02751+01641999999ADDGA1031+018009089GF107991031021017501001081MA1999999087171MD1999999-0091ME1315019REMSYN082AAXX  01124 67861 42784 70306 10275 20164 38717 48501 83208 333 59009 83856 85299;
0174678610999992000020115004-18220+028930FM-12+1282FVGO V0200701N00151045001CN0500001N1+02891+01121999999ADDGA1011+018009069GF107991011041017501061081MA1999999087011MD1999999-0071ME1314859REMSYN082AAXX  01154 67861 42784 70703 10289 20112 38701 48485 81468 333 59007 81656 86299;
0193678610999992000020118004-18220+028930FM-12+1282FVGO V0209999C000019999999N0300001N1+02471+01581999999ADDGA1011+030009039GF107991011001999999061081KA1120M+03001MA1999999087201MD1999999+0021ME1315049REMSYN088AAXX  01184 67861 42980 70000 10247 20158 38720 48504 81068 333 10300 58002 81360 87299;
0196678610999992000020312004-18220+028930FM-12+1282FVGO V0201201N001510150019N0500001N1+02781+01601999999ADDAY121061AY221061GA1061+015009029GF107991061021017501031021MA1999999087081MD1999999+0071ME1314929MW1151REMSYN082AAXX  03124 67861 41784 71203 10278 20160 38708 48492 71522 86232 333 58007 86850;
0202678610999992000020315004-18220+028930FM-12+1282FVGO V0201601N00211045001CN0500001N1+02151+01871999999ADDAY191031AY281031GA1011+012009099GF107991021021017501071031MA1999999087001MD1999999+0031ME1314809MW1171REMSYN088AAXX  03154 67861 41784 71604 10215 20187 38700 48480 71798 82273 333 58003 81940 87460;
0221678610999992000020318004-18220+028930FM-12+1282FVGO V0201601N00411105001CN0500001N1+01961+01811999999ADDAY191061AY281061GA1011+015009099GF106991011091017501071031KA1120M+02921MA1999999087091MD1999999-0021ME1314899MW1131REMSYN094AAXX  03184 67861 41784 61608 10196 20181 38709 48489 71398 81973 333 10292 59002 81950 84460;
0174678610999992000020400004-18220+028930FM-12+1282FVGO V0201401N004619999999N0400001N1+01851+01571999999ADDGA1031+030009039GF105991031001999999031021MA1999999087151MD1999999+0021ME1314969REMSYN082AAXX  04004 67861 42982 51409 10185 20157 38715 48496 83032 333 58002 83360 83099;
0174678610999992000020403004-18220+028930FM-12+1282FVGO V0201601N004112200019N0400001N1+01751+01581999999ADDGA1021+030009039GF104991021001999999041021MA1999999087091MD1999999-0081ME1314899REMSYN082AAXX  04034 67861 42982 41608 10175 20158 38709 48489 82042 333 59008 82360 83099;
0210678610999992000020406004-18220+028930FM-12+1282FVGO V0201601N00361045001CN0400001N1+02091+01611999999ADDAA124001091GA1031+006009089GF106991031011008001031021KA1120N+01691MA1999999087241MD1999999-0071ME1315049REMSYN094AAXX  04064 67861 12582 61607 10209 20161 38724 48504 60014 83132 333 20169 59007 83820 84360;
0202678610999992000020415004-18220+028930FM-12+1282FVGO V0201801N00261045001CN0500001N1+02311+01781999999ADDAY121031AY221031GA1011+009009099GF107991021021012501071031MA1999999086991MD1999999-0011ME1314849MW1151REMSYN088AAXX  04154 67861 41684 71805 10231 20178 38699 48484 71522 82273 333 59001 81930 86460;
0221678610999992000020418004-18220+028930FM-12+1282FVGO V0201501N00261105001CN0500001N1+01951+01771999999ADDAY161061AY221061GA1011+009009099GF106991011091012501071031KA1120M+02551MA1999999087151MD1999999+0061ME1314959MW1131REMSYN094AAXX  04184 67861 41684 61505 10195 20177 38715 48495 71362 81973 333 10255 58006 81930 85460;
0174678610999992000020503004-18220+028930FM-12+1282FVGO V0201501N00311045001CN0300001N1+01821+01661999999ADDGA1011+006009069GF106991011051008001071011MA1999999086911MD1999999-0181ME1314719REMSYN082AAXX  05034 67861 42580 61506 10182 20166 38691 48471 81571 333 59018 81620 86460;
0238678610999992000020506004-18220+028930FM-12+1282FVGO V0201701N00151045001CN0300001N1+01931+01771999999ADDAA124002091AY161061AY251061GA1041+002709079GF107991041071002501071999KA1120N+01721MA1999999087071MD1999999-0171ME1314879MW1581REMSYN100AAXX  05064 67861 11380 71703 10193 20177 38707 48487 60024 75865 8477/ 333 20172 59017 84709 87460;
0202678610999992000020509004-18220+028930FM-12+1282FVGO V0201501N00261045001CN0450001N1+02111+01871999999ADDAY161031AY251031GA1041+004509069GF107991041051004501071999MA1999999087051MD1999999-0221ME1314869MW1601REMSYN088AAXX  05094 67861 41483 71505 10211 20187 38705 48486 76065 8457/ 333 59022 84615 87460;
0202678610999992000020512004-18220+028930FM-12+1282FVGO V0200401N00261045001CN0500001N1+02301+01871999999ADDAY161061AY251061GA1031+006009089GF107991031011008001071999MA1999999086901MD1999999-0201ME1314729MW1211REMSYN088AAXX  05124 67861 41584 70405 10230 20187 38690 48472 72165 8317/ 333 59020 83820 87460;
0202678610999992000020515004-18220+028930FM-12+1282FVGO V0201701N00101045001CN0250001N1+01991+01881999999ADDAY191031AY261031GA1021+006009099GF108991021091008001071031MA1999999086831MD1999999-0161ME1314639MW1951REMSYN088AAXX  05154 67861 41575 81702 10199 20188 38683 48463 79596 82973 333 59016 82920 88460;
0215678610999992000020518004-18220+028930FM-12+1282FVGO V0209999C000010300019N0300001N1+02021+01981999999ADDAY191061AY261061GA1081+030009019GF108991081001999999071999KA1120M+02471MA1999999086971MD1999999-0181ME1314779MW1021REMSYN088AAXX  05184 67861 41980 80000 10202 20198 38697 48477 70296 8807/ 333 10247 59018 88460;
0202678610999992000020600004-18220+028930FM-12+1282FVGO V0201101N00151002101CN0250001N1+01911+01871999999ADDAY161061AY251061GA1031+003009069GF108991051061002501071999MA1999999086891MD1999999+0101ME1314699MW1021REMSYN088AAXX  06004 67861 41375 81103 10191 20187 38689 48469 70265 8567/ 333 58010 83610 86360;
0202678610999992000020603004-18220+028930FM-12+1282FVGO V0209999C000010024019N0100001N1+01921+01891999999ADDAY161031AY251031GA1061+002409079GF108991061071002501071999MA1999999086921MD1999999+0011ME1314729MW1591REMSYN088AAXX  06034 67861 41360 80000 10192 20189 38692 48472 75965 8677/ 333 58001 86708 88460;
0238678610999992000020606004-18220+028930FM-12+1282FVGO V0200401N00211045001CN0300001N1+01991+01931999999ADDAA124009991AY161061AY251061GA1041+002709079GF107991041071002501071999KA1120N+01861MA1999999087081MD1999999+0011ME1314889MW1581REMSYN100AAXX  06064 67861 11380 70404 10199 20193 38708 48488 60104 75865 8477/ 333 20186 58001 84709 87460;
0202678610999992000020609004-18220+028930FM-12+1282FVGO V0203601N002610060019N0500001N1+02181+01921999999ADDAY161031AY251031GA1051+006009069GF107991051051008001071021MA1999999087091MD1999999+0041ME1314909MW1021REMSYN088AAXX  06094 67861 41584 73605 10218 20192 38709 48490 70265 85572 333 58004 85620 86460;
0196678610999992000020612004-18220+028930FM-12+1282FVGO V0203401N001510015019N0010001N1+01961+01941999999ADDAY191061AY261061GA1081+001509069GF108991081071001501999999MA1999999087061MD1999999+0161ME1314879MW1581REMSYN082AAXX  06124 67861 41210 83403 10196 20194 38706 48487 75896 887// 333 58016 88705;
0202678610999992000020615004-18220+028930FM-12+1282FVGO V0203501N00151045001CN0300001N1+01961+01921999999ADDAY161031AY251031GA1041+002709079GF108991041071002501071999MA1999999086991MD1999999+0161ME1314809MW1581REMSYN088AAXX  06154 67861 41380 83503 10196 20192 38699 48480 75865 8477/ 333 58016 84709 88460;
0203678610999992000020618004-18220+028930FM-12+1282FVGO V0200201N001010001519N0001001N1+01941+01931999999ADDAY161061AY251061GA1091+999999999GF109991091999999999999999KA1120M+02371MA1999999087131MD1999999+0161ME1314939MW1471REMSYN076AAXX  06184 67861 41/01 90202 10194 20193 38713 48493 74765 333 10237 58016;
0196678610999992000020700004-18220+028930FM-12+1282FVGO V0200101N002110024019N0050001N1+01951+01941999999ADDAY161061AY251061GA1081+002409069GF108991081071002501999999MA1999999087181MD1999999+0291ME1314999MW1581REMSYN082AAXX  07004 67861 41350 80104 10195 20194 38718 48499 75865 887// 333 58029 88708;
0196678610999992000020703004-18220+028930FM-12+1282FVGO V0200401N003110015019N0030001N1+01911+01891999999ADDAY161031AY251031GA1081+001509069GF108991081071001501999999MA1999999087211MD1999999+0291ME1315019MW1581REMSYN082AAXX  07034 67861 41230 80406 10191 20189 38721 48501 75865 887// 333 58029 88705;
0232678610999992000020706004-18220+028930FM-12+1282FVGO V0200401N002610027019N0220001N1+01921+01891999999ADDAA124017091AY161061AY251061GA1081+002709069GF108991081061002501999999KA1120N+01811MA1999999087391MD1999999+0311ME1315199MW1281REMSYN094AAXX  07064 67861 11372 80405 10192 20189 38739 48519 60174 72865 886// 333 20181 58031 88709;
0174678610999992000020709004-18220+028930FM-12+1282FVGO V0203601N00411045001CN0280001N1+02301+01961999999ADDGA1031+004509089GF107991031021004501071999MA1999999087461MD1999999+0371ME1315289REMSYN082AAXX  07094 67861 42478 73608 10230 20196 38746 48528 8327/ 333 58037 83815 87460;
0202678610999992000020712004-18220+028930FM-12+1282FVGO V0202701N002611050019N0350001N1+02501+01861999999ADDAY161061AY221061GA1021+009009089GF105991021021012501031021MA1999999087271MD1999999+0211ME1315099MW1151REMSYN088AAXX  07124 67861 41681 52705 10250 20186 38727 48509 71562 82232 333 58021 82830 83099;
0202678610999992000020715004-18220+028930FM-12+1282FVGO V0202701N00101045001CN0400001N1+02451+01861999999ADDAY121031AY221031GA1031+010509089GF107991031021012501071021MA1999999087151MD1999999+0161ME1314969MW1151REMSYN088AAXX  07154 67861 41682 72702 10245 20186 38715 48496 71522 83272 333 58016 83835 83460;
0221678610999992000020718004-18220+028930FM-12+1282FVGO V0209999C00001105001CN0250001N1+02101+01931999999ADDAY191061AY221061GA1011+010509099GF106991011091012501071031KA1120M+02621MA1999999087311MD1999999+0181ME1315129MW1131REMSYN094AAXX  07184 67861 41675 60000 10210 20193 38731 48512 71392 81973 333 10262 58018 81935 85460;
0156678610999992000020800004-18220+028930FM-12+1282FVGO V0200701N002612200019N0300001N1+01951+01831999999ADDGA1001+999999999GF100991001001999999001001MA1999999087261MD1999999+0081ME1315089REMSYN064AAXX  08004 67861 42980 00705 10195 20183 38726 48508 333 58008;
0184678610999992000020803004-18220+028930FM-12+1282FVGO V0200501N002112200019N0040001N1+01801+01791999999ADDAY101031AY201031GA1001+999999999GF100991001001999999001001MA1999999087261MD1999999+0051ME1315069MW1401REMSYN070AAXX  08034 67861 41940 00504 10180 20179 38726 48506 74000 333 58005;
0232678610999992000020806004-18220+028930FM-12+1282FVGO V0200501N001510060019N0050001N1+02051+01811999999ADDAA124000791AY111061AY211061GA1061+006009059GF107991061051008001031001KA1120N+01751MA1999999087321MD1999999-0071ME1315129MW1051REMSYN094AAXX  08064 67861 11550 70503 10205 20181 38732 48512 69904 70511 86530 333 20175 59007 86620;
0202678610999992000020809004-18220+028930FM-12+1282FVGO V0203001N003110060019N0180001N1+02301+01871999999ADDAY121031AY221031GA1051+006009089GF107991051021008001071021MA1999999087371MD1999999-0091ME1315209MW1151REMSYN088AAXX  08094 67861 41568 73006 10230 20187 38737 48520 71522 85272 333 59009 85820 83460;
0202678610999992000020812004-18220+028930FM-12+1282FVGO V0203301N00261045001CN0200001N1+02551+01891999999ADDAY181061AY221061GA1031+007509089GF107991031021012501071021MA1999999087251MD1999999-0021ME1315089MW1251REMSYN088AAXX  08124 67861 41670 73305 10255 20189 38725 48508 72582 83272 333 59002 83825 85460;
0202678610999992000020815004-18220+028930FM-12+1282FVGO V0209999C000011050019N0250001N1+02561+02041999999ADDAY191031AY281031GA1011+009009099GF105991021021012501071031MA1999999087081MD1999999-0031ME1314909MW1171REMSYN088AAXX  08154 67861 41675 50000 10256 20204 38708 48490 71798 82273 333 59003 81930 83460;
0215678610999992000020818004-18220+028930FM-12+1282FVGO V0209999C000012200019N0200001N1+02151+01971999999ADDAY191061AY281061GA1011+030009079GF101991011001999999061001KA1120M+02651MA1999999087211MD1999999-0101ME1315039MW1011REMSYN088AAXX  08184 67861 41970 10000 10215 20197 38721 48503 70198 81060 333 10265 59010 81360;
0168678610999992000020903004-18220+028930FM-12+1282FVGO V0201001N003112200019N0300001N1+02001+01891999999ADDGA1031+999999019GF103991001001999999001021MA1999999087271MD1999999+0011ME1315099REMSYN076AAXX  09034 67861 42980 31006 10200 20189 38727 48509 80002 333 58001 83099;
0238678610999992000020906004-18220+028930FM-12+1282FVGO V0200501N003611050019N0150001N1+02151+01881999999ADDAA124003091AY111061AY211061GA1011+004509089GF107991011011004501001021KA1120N+01931MA1999999087401MD1999999+0081ME1315219MW1051REMSYN100AAXX  09064 67861 11465 70507 10215 20188 38740 48521 60034 70511 81102 333 20193 58008 81815 87099;
0174678610999992000020909004-18220+028930FM-12+1282FVGO V0200501N003111050019N0250001N1+02481+01921999999ADDGA1011+006909089GF107991011011008001001081MA1999999087311MD1999999-0061ME1315139REMSYN082AAXX  09094 67861 42575 70506 10248 20192 38731 48513 81108 333 59006 81823 87299;
0202678610999992000020915004-18220+028930FM-12+1282FVGO V0209999C00001045001CN0400001N1+02351+01901999999ADDAY191031AY281031GA1011+009009099GF107991021021012501071031MA1999999087031MD1999999-0051ME1314849MW1291REMSYN088AAXX  09154 67861 41682 70000 10235 20190 38703 48484 72998 82273 333 59005 81930 85460;
0221678610999992000020918004-18220+028930FM-12+1282FVGO V0209999C000011050019N0400001N1+02151+01911999999ADDAY191061AY281061GA1011+009009099GF105991011091012501031031KA1120M+02811MA1999999087161MD1999999-0051ME1314979MW1131REMSYN094AAXX  09184 67861 41682 50000 10215 20191 38716 48497 71398 81933 333 10281 59005 81930 83360;
0202678610999992000021000004-18220+028930FM-12+1282FVGO V0201101N002111050019N0300001N1+02041+01891999999ADDAY121061AY221061GA1011+009009099GF106991011091012501041031MA1999999087241MD1999999-0081ME1315069MW1131REMSYN088AAXX  10004 67861 41680 61104 10204 20189 38724 48506 71322 81943 333 59008 81930 85099;
0174678610999992000021003004-18220+028930FM-12+1282FVGO V0201001N003112200019N0300001N1+01951+01811999999ADDGA1011+030009039GF104991011001999999041021MA1999999087231MD1999999-0041ME1315059REMSYN082AAXX  10034 67861 42980 41006 10195 20181 38723 48505 81042 333 59004 81360 84099;
0210678610999992000021006004-18220+028930FM-12+1282FVGO V0200501N001519999999N0500001N1+02191+01831999999ADDAA124002091GA1011+030009039GF106991011001999999041021KA1120N+01861MA1999999087341MD1999999-0061ME1315169REMSYN094AAXX  10064 67861 12984 60503 10219 20183 38734 48516 60024 81042 333 20186 59006 81360 86099;
0174678610999992000021009004-18220+028930FM-12+1282FVGO V0200701N00461045001CN0500001N1+02521+01911999999ADDGA1031+009009089GF107991031021012501031021MA1999999087381MD1999999+0071ME1315209REMSYN082AAXX  10094 67861 42684 70709 10252 20191 38738 48520 83232 333 58007 83830 84360;
0202678610999992000021012004-18220+028930FM-12+1282FVGO V0209999C00001012001CN0300001N1+02201+01941999999ADDAY191061AY281061GA1011+009009099GF107991051021012501071031MA1999999087251MD1999999+0111ME1315079MW1801REMSYN088AAXX  10124 67861 41680 70000 10220 20194 38725 48507 78098 85273 333 58011 81930 85835;
0202678610999992000021015004-18220+028930FM-12+1282FVGO V0203501N00101045001CN0500001N1+02401+01871999999ADDAY191031AY281031GA1011+009009099GF107991011091012501071031MA1999999087141MD1999999+0111ME1314959MW1021REMSYN088AAXX  10154 67861 41684 73502 10240 20187 38714 48495 70298 81973 333 58011 81930 85460;
0221678610999992000021018004-18220+028930FM-12+1282FVGO V0200501N001019999999N0300001N1+02161+01911999999ADDAY191061AY281061GA1011+030009039GF105991011001999999031021KA1120M+02701MA1999999087201MD1999999+0041ME1315029MW1021REMSYN094AAXX  10184 67861 41980 50502 10216 20191 38720 48502 70298 81032 333 10270 58004 81360 85099;
0174678610999992000021100004-18220+028930FM-12+1282FVGO V0200301N002119999999N0300001N1+02001+01761999999ADDGA1011+030009039GF107991011001999999031081MA1999999087261MD1999999+0021ME1315089REMSYN082AAXX  11004 67861 42980 70304 10200 20176 38726 48508 81038 333 58002 81360 87299;
0203678610999992000021103004-18220+028930FM-12+1282FVGO V0200501N004612200019N0300001N1+02051+01601999999ADDGA1021+030009079GF102991021001999999041001MA1999999999999MD1999999-0011ME1315039REMSYN076AAXX  11034 67861 42980 20509 10205 20160 38922 48503 82040 333 59001 82360;EQDQ01+089223APOSP Q02 089223APOSP 
0229678610999992000021106004-18220+028930FM-12+1282FVGO V0203501N003619999999N0400001N1+02391+01811999999ADDAA124000391GA1011+030009039GF105991011001999999041041KA1120N+01921MA1999999087352MD1999999+0011ME1315169REMSYN094AAXX  11064 67861 12982 53507 10239 20181 38735 48516 69934 81044 333 20192 58001 81360 85099;EQDQ01+087353APOSP 
0168678610999992000021109004-18220+028930FM-12+1282FVGO V0200301N003110087019N0500001N1+02521+01861999999ADDGA1051+008709029GF106991051021008001001011MA1999999087251MD1999999-0131ME1315099REMSYN076AAXX  11094 67861 42584 60306 10252 20186 38725 48509 85201 333 59013 85829;
0174678610999992000021112004-18220+028930FM-12+1282FVGO V0200401N00261012001CN0500001N1+02701+01811999999ADDGA1011+011409099GF106991061021012501001031MA1999999087001MD1999999-0251ME1314839REMSYN082AAXX  11124 67861 42684 60405 10270 20181 38700 48483 86203 333 59025 81938 86838;
0202678610999992000021115004-18220+028930FM-12+1282FVGO V0203501N002110450019N0500001N1+02641+01801999999ADDAY191031AY221031GA1011+012009099GF107991041021012501071031MA1999999086881MD1999999-0261ME1314709MW1171REMSYN088AAXX  11154 67861 41684 73504 10264 20180 38688 48470 71792 84273 333 59026 81940 84840;
0215678610999992000021118004-18220+028930FM-12+1282FVGO V0209999C000010300019N0500001N1+02331+01841999999ADDAY191061AY261061GA1071+030009019GF107991071001999999071999KA1120M+02831MA1999999087061MD1999999-0141ME1314889MW1151REMSYN088AAXX  11184 67861 41984 70000 10233 20184 38706 48488 71596 8707/ 333 10283 59014 87460;
0224678610999992000021200004-18220+028930FM-12+1282FVGO V0209999C000010450019N0010001N1+01801+01731999999ADDAY191061AY261061GA1031+002409079GA2011+006009099GF108991031061002501071999MA1999999087211MD1999999-0051ME1315009MW1611REMSYN094AAXX  12004 67861 41310 80000 10180 20173 38721 48500 76196 8367/ 333 59005 81920 83708 88460;
0202678610999992000021203004-18220+028930FM-12+1282FVGO V0200301N000510024019N0010001N1+01751+01751999999ADDAY191031AY261031GA1051+002409079GF108991051061002501071999MA1999999087261MD1999999+0041ME1315059MW1611REMSYN088AAXX  12034 67861 41310 80301 10175 20175 38726 48505 76196 8567/ 333 58004 85708 88460;
0202678610999992000021209004-18220+028930FM-12+1282FVGO V0209999C00001045001CN0450001N1+02211+01771999999ADDAY161031AY221031GA1011+006009089GF107991011011008001071999MA1999999087311MD1999999+0061ME1315119MW1211REMSYN088AAXX  12094 67861 41583 70000 10221 20177 38731 48511 72162 8117/ 333 58006 81820 87460;
0196678610999992000021212004-18220+028930FM-12+1282FVGO V0200501N001010300019N0500001N1+02551+01731999999ADDGA1031+010509089GA2031+030009039GF107991031021012501031021MA1999999087161MD1999999+0161ME1314989REMSYN088AAXX  12124 67861 42684 70502 10255 20173 38716 48498 83232 333 58016 83835 83360 85099;
0224678610999992000021215004-18220+028930FM-12+1282FVGO V0203501N000510450019N0500001N1+02351+01901999999ADDAY121031AY221031GA1011+010509099GA2031+010509089GF107991041021012501061031MA1999999087001MD1999999+0061ME1314819MW1151REMSYN094AAXX  12154 67861 41684 73501 10235 20190 38700 48481 71522 84263 333 58006 81935 83835 85099;
0221678610999992000021218004-18220+028930FM-12+1282FVGO V0209999C000010105019N0300001N1+02101+01791999999ADDAY191061AY221061GA1051+010509069GF107991051041012501001021KA1120M+02711MA1999999087201MD1999999+0141ME1315019MW1021REMSYN094AAXX  12184 67861 41680 70000 10210 20179 38720 48501 70292 85402 333 10271 58014 85635 83099;
0196678610999992000021300004-18220+028930FM-12+1282FVGO V0203501N002110027019N0250001N1+02011+01951999999ADDAY121061AY221061GA1061+002709069GF106991061061002501001011MA1999999087131MD1999999-0081ME1314949MW1151REMSYN082AAXX  13004 67861 41375 63504 10201 20195 38713 48494 71522 86601 333 59008 86709;
0202678610999992000021303004-18220+028930FM-12+1282FVGO V0209999C00001045001CN0250001N1+01921+01891999999ADDAY191031AY221031GA1031+002109079GF107991021061002501071999MA1999999087151MD1999999-0041ME1314959MW1131REMSYN088AAXX  13034 67861 41375 70000 10192 20189 38715 48495 71392 8267/ 333 59004 83707 86460;
0232678610999992000021306004-18220+028930FM-12+1282FVGO V0201801N001510300019N0300001N1+01951+01881999999ADDAA124001091AY191061AY261061GA1071+030009019GF107991071001999999071021KA1120N+01781MA1999999087311MD1999999-0091ME1315119MW1601REMSYN094AAXX  13064 67861 11980 71803 10195 20188 38731 48511 60014 76096 87072 333 20178 59009 87460;
0202678610999992000021309004-18220+028930FM-12+1282FVGO V0201901N00051045001CN0400001N1+02301+01871999999ADDAY161031AY221031GA1021+006009089GF107991021011008001071021MA1999999087321MD1999999+0011ME1315159MW1601REMSYN088AAXX  13094 67861 41582 71901 10230 20187 38732 48515 76062 82172 333 58001 82820 87460;
0224678610999992000021312004-18220+028930FM-12+1282FVGO V0202501N00211045001CN0500001N1+02591+01761999999ADDAY191061AY261061GA1011+009009099GA2041+010509089GF107991041021012501031031MA1999999087041MD1999999-0121ME1314869MW1171REMSYN094AAXX  13124 67861 41684 72504 10259 20176 38704 48486 71796 84233 333 59012 81930 84835 85360;
0202678610999992000021315004-18220+028930FM-12+1282FVGO V0203301N00211045001CN0500001N1+02361+01731999999ADDAY191031AY261031GA1011+009009099GF107991021021012501071031MA1999999087011MD1999999+0011ME1314829MW1171REMSYN088AAXX  13154 67861 41684 73304 10236 20173 38701 48482 71796 82273 333 58001 81930 86460;
0196678610999992000021400004-18220+028930FM-12+1282FVGO V0201201N002610300019N0280001N1+01921+01831999999ADDAY161061AY221061GA1081+030009019GF108991081001999999071999MA1999999087151MD1999999+0021ME1314969MW1021REMSYN082AAXX  14004 67861 41978 81205 10192 20183 38715 48496 70262 8807/ 333 58002 88460;
0224678610999992000021403004-18220+028930FM-12+1282FVGO V0201101N00311002701CN0280001N1+01841+01781999999ADDAY191031AY221031GA1051+002709079GA2011+004509099GF108991051061002501071031MA1999999087091MD1999999-0061ME1314889MW1171REMSYN094AAXX  14034 67861 41378 81106 10184 20178 38709 48488 71792 85673 333 59006 81915 85709 88460;
0238678610999992000021406004-18220+028930FM-12+1282FVGO V0200701N00151045001CN0450001N1+02001+01691999999ADDAA124000891AY191061AY241061GA1011+004509069GF107991011051004501071021KA1120N+01741MA1999999087161MD1999999-0151ME1314969MW1021REMSYN100AAXX  14064 67861 11483 70703 10200 20169 38716 48496 69974 70294 81572 333 20174 59015 81615 87460;
0221678610999992000021418004-18220+028930FM-12+1282FVGO V0209999C000010300019N0350001N1+01961+01861999999ADDAY191061AY261061GA1051+030009039GF107991051001999999031021KA1120M+02331MA1999999087001MD1999999-0121ME1314809MW1021REMSYN094AAXX  14184 67861 41981 70000 10196 20186 38700 48480 70296 85032 333 10233 59012 85360 83099;
0168678610999992000021500004-18220+028930FM-12+1282FVGO V0209999C000010024019N0250001N1+01951+01911999999ADDGA1071+002409069GF107991071061002501999999MA1999999086981MD1999999-0171ME1314789REMSYN076AAXX  15004 67861 42375 70000 10195 20191 38698 48478 876// 333 59017 87708;
0168678610999992000021503004-18220+028930FM-12+1282FVGO V0209999C000012200019N0250001N1+01851+01791999999ADDGA1031+030009079GF103991031001999999031021MA1999999086941MD1999999-0131ME1314749REMSYN076AAXX  15034 67861 42975 30000 10185 20179 38694 48474 83032 333 59013 83360;
0220678610999992000021506004-18220+028930FM-12+1282FVGO V0203601N002110001519N0001001N1+01901+01881999999ADDAA124000591AY161061AY251061GA1091+999999999GF109991091999999999999999KA1120N+01801MA1999999087041MD1999999-0141ME1314849MW1471REMSYN082AAXX  15064 67861 11/01 93604 10190 20188 38704 48484 69944 74765 333 20180 59014;
0202678610999992000021509004-18220+028930FM-12+1282FVGO V0203601N002110027019N0150001N1+02191+01911999999ADDAY161031AY251031GA1051+002709079GF107991051071002501999999MA1999999086991MD1999999-0271ME1314809MW1581REMSYN088AAXX  15094 67861 41365 73604 10219 20191 38699 48480 75865 857// 333 59027 85709 87620;
0202678610999992000021512004-18220+028930FM-12+1282FVGO V0203501N00261045001CN0400001N1+02051+01831999999ADDAY191061AY261061GA1011+004509099GF107991021021008001071031MA1999999086831MD1999999-0211ME1314649MW1171REMSYN088AAXX  15124 67861 41582 73505 10205 20183 38683 48464 71796 82273 333 59021 81915 86460;
0224678610999992000021515004-18220+028930FM-12+1282FVGO V0203301N00151045001CN0300001N1+02361+01971999999ADDAY191031AY261031GA1011+006009099GA2031+007509089GF107991031021008001071031MA1999999086681MD1999999-0281ME1314509MW1151REMSYN094AAXX  15154 67861 41580 73303 10236 20197 38668 48450 71596 83273 333 59028 81920 83825 85460;
0221678610999992000021518004-18220+028930FM-12+1282FVGO V0203401N00211045001CN0260001N1+01941+01881999999ADDAY191061AY261061GA1021+006009099GF108991021091008001071031KA1120M+02501MA1999999086901MD1999999-0101ME1314709MW1951REMSYN094AAXX  15184 67861 41576 83404 10194 20188 38690 48470 79596 82973 333 10250 59010 82920 88460;
0202678610999992000021600004-18220+028930FM-12+1282FVGO V0201201N00101045001CN0100001N1+01881+01771999999ADDAY191061AY261061GA1041+002709079GF108991041071002501071999MA1999999086921MD1999999-0061ME1314719MW1601REMSYN088AAXX  16004 67861 41360 81202 10188 20177 38692 48471 76096 8477/ 333 59006 84709 88460;
0202678610999992000021603004-18220+028930FM-12+1282FVGO V0203601N002110024019N0080001N1+01751+01671999999ADDAY191031AY261031GA1051+002409079GF108991051071008001071999MA1999999086951MD1999999+0011ME1314749MW1911REMSYN088AAXX  16034 67861 41558 83604 10175 20167 38695 48474 79196 8577/ 333 58001 85708 88460;
0238678610999992000021606004-18220+028930FM-12+1282FVGO V0202801N00101045001CN0300001N1+01911+01791999999ADDAA124029091AY191061AY261061GA1011+004509069GF108991011051004501071999KA1120N+01711MA1999999087131MD1999999+0091ME1314939MW1601REMSYN100AAXX  16064 67861 11480 82802 10191 20179 38713 48493 60294 76096 8157/ 333 20171 58009 81615 88460;
0202678610999992000021609004-18220+028930FM-12+1282FVGO V0203001N00101045001CN0300001N1+02001+01801999999ADDAY161031AY221031GA1031+002709079GF108991031061002501071999MA1999999087271MD1999999+0281ME1315079MW1601REMSYN088AAXX  16094 67861 41380 83002 10200 20180 38727 48507 76062 8367/ 333 58028 83709 88460;
0224678610999992000021612004-18220+028930FM-12+1282FVGO V0200201N003610060019N0500001N1+02251+01731999999ADDAY161061AY221061GA1011+006009099GA2051+006009089GF107991051021008001071031MA1999999087071MD1999999+0271ME1314899MW1211REMSYN094AAXX  16124 67861 41584 70207 10225 20173 38707 48489 72162 85273 333 58027 81920 85820 87460;
0224678610999992000021615004-18220+028930FM-12+1282FVGO V0209999C00001003001CN0250001N1+01961+01871999999ADDAY191031AY261031GA1051+003009079GA2011+006009099GF108991051061002501071999MA1999999087011MD1999999+0331ME1314819MW1611REMSYN094AAXX  16154 67861 41375 80000 10196 20187 38701 48481 76196 8567/ 333 58033 81920 85710 88460;
0221678610999992000021618004-18220+028930FM-12+1282FVGO V0200301N000510030019N0200001N1+01951+01901999999ADDAY191061AY261061GA1051+003009079GF108991051061004501071999KA1120M+02321MA1999999087181MD1999999+0281ME1314989MW1611REMSYN094AAXX  16184 67861 41470 80301 10195 20190 38718 48498 76196 8567/ 333 10232 58028 85710 88460;
0202678610999992000021700004-18220+028930FM-12+1282FVGO V0200601N003110024019N0280001N1+01801+01741999999ADDAY161061AY221061GA1071+002409079GF107991071081002501071999MA1999999087141MD1999999+0221ME1314939MW1021REMSYN088AAXX  17004 67861 41378 70606 10180 20174 38714 48493 70262 8787/ 333 58022 87708 85458;
0202678610999992000021703004-18220+028930FM-12+1282FVGO V0200901N002110024019N0150001N1+01801+01681999999ADDAY161031AY251031GA1051+002409079GF107991051061002501071999MA1999999087091MD1999999+0141ME1314889MW1581REMSYN088AAXX  17034 67861 41365 70904 10180 20168 38709 48488 75865 8567/ 333 58014 85708 87460;
0224678610999992000021712004-18220+028930FM-12+1282FVGO V0200101N00151045001CN0300001N1+02341+01981999999ADDAY191061AY281061GA1011+006009099GA2031+007509089GF107991031021008001071031MA1999999086921MD1999999-0151ME1314749MW1171REMSYN094AAXX  17124 67861 41580 70103 10234 20198 38692 48474 71798 83273 333 59015 81920 83825 87460;
0202678610999992000021715004-18220+028930FM-12+1282FVGO V0201701N00261045001CN0400001N1+01951+01841999999ADDAY191031AY261031GA1011+006009099GF108991011021008001071031MA1999999086931MD1999999-0081ME1314739MW1601REMSYN088AAXX  17154 67861 41582 81705 10195 20184 38693 48473 76096 81273 333 59008 81920 88460;
0202678610999992000021800004-18220+028930FM-12+1282FVGO V0201401N00361045001CN0080001N1+01821+01771999999ADDAY161061AY221061GA1041+002409079GF108991041071002501071999MA1999999087091MD1999999-0051ME1314899MW1631REMSYN088AAXX  18004 67861 41358 81407 10182 20177 38709 48489 76362 8477/ 333 59005 84708 88460;
0221678610999992000021803004-18220+028930FM-12+1282FVGO V0201501N005710024019N0060001N1+01801+01731999999ADDAY161031AY251031GA1061+002409079GF107991061071002501071999MA1999999999999MD1999999-0021ME1314869MW1591REMSYN088AAXX  18034 67861 41356 71511 10180 20173 38907 48486 75965 8677/ 333 59002 86708 87460;EQDQ01 089073APOSP 
0202678610999992000021812004-18220+028930FM-12+1282FVGO V0203601N00571012001CN0500001N1+02461+01641999999ADDAY121061AY221061GA1011+009009099GF106991061021012501031031MA1999999087071MD1999999+0151ME1314889MW1151REMSYN088AAXX  18124 67861 42684 63611 10246 20164 38707 48488 71522 86233 333 58015 81930 86835;
0174678610999992000021815004-18220+028930FM-12+1282FVGO V0200301N004611050019N0500001N1+02601+01561999999ADDGA1011+009009099GF105991021021012501031031MA1999999087001MD1999999+0071ME1314829REMSYN082AAXX  18154 67861 42684 50309 10260 20156 38700 48482 82233 333 58007 81930 84099;
0204678610999992000021906004-18220+028930FM-12+1282FVGO V0200301N002610060019N0500001N1+01951+01631999999ADDAA124000791GA1051+006009059GF106991051051008001041021KA1120N+01731MA1999999087441MD1999999+0241ME1315239REMSYN088AAXX  19064 67861 12584 60305 10195 20163 38744 48523 69904 85542 333 20173 58024 85620;
0168678610999992000021909004-18220+028930FM-12+1282FVGO V0200901N003110090019N0500001N1+02251+01661999999ADDGA1051+009009029GF106991051021012501031021MA1999999087441MD1999999+0161ME1315249REMSYN076AAXX  19094 67861 42684 60906 10225 20166 38744 48524 85232 333 58016 85830;
0202678610999992000022312004-18220+028930FM-12+1282FVGO V0202701N005710024019N0200001N1+01871+01831999999ADDAY161061AY261061GA1051+002409079GF108991051071008001071999MA1999999086281MD1999999-0691ME1314089MW1631REMSYN088AAXX  23124 67861 41570 82711 10187 20183 38628 48408 76366 8577/ 333 59069 85708 88460;
0206678610999992000022315004-18220+028930FM-12+1282FVGO V0202801N003610021019N0060001N1+01801+01791999999ADDAY161031AY251031GA1061+002109079GF108991061071002501071999MD1999999-0651ME1313989MW1591REMSYN088AAXX  23154 67861 41356 82807 10180 20179 39618 48398 75965 8677/ 333 59065 86707 88460;EQDQ01+096183APOSP 
0221678610999992000022318004-18220+028930FM-12+1282FVGO V0202801N002610021019N0060001N1+01821+01811999999ADDAY161061AY251061GA1061+002109079GF108991061071002501071999KA1120M+01891MA1999999086821MD1999999-0621ME1314069MW1621REMSYN094AAXX  23184 67861 41356 82805 10182 20181 38682 48406 76265 8677/ 333 10189 59062 86707 88460;
0202678610999992000022403004-18220+028930FM-12+1282FVGO V0201801N010310015019N0015001N1+01751+01751999999ADDAY161031AY251031GA1071+001509079GF108991071071001501071999MA1999999086481MD1999999-0061ME1314279MW1591REMSYN088AAXX  24034 67861 41215 81820 10175 20175 38648 48427 75965 8777/ 333 59006 87705 88460;
0238678610999992000022406004-18220+028930FM-12+1282FVGO V0202701N011810018019N0040001N1+01751+01711999999ADDAA124098091AY161061AY251061GA1071+001809079GF108991071071002501071999KA1120N+01701MA1999999086611MD1999999-0021ME1314409MW1611REMSYN100AAXX  24064 67861 11340 82723 10175 20171 38661 48440 60984 76165 8777/ 333 20170 59002 87706 88460;
0202678610999992000022409004-18220+028930FM-12+1282FVGO V0202701N010310021019N0050001N1+01891+01761999999ADDAY161031AY251031GA1071+002109079GF107991071071002501071999MA1999999086721MD1999999+0281ME1314529MW1581REMSYN088AAXX  24094 67861 41350 72720 10189 20176 38672 48452 75865 8777/ 333 58028 87707 88460;
0202678610999992000022412004-18220+028930FM-12+1282FVGO V0202701N008710024019N0150001N1+01851+01811999999ADDAY161061AY251061GA1051+002409079GF108991051071002501071999MA1999999086721MD1999999+0441ME1314529MW1611REMSYN088AAXX  24124 67861 41365 82717 10185 20181 38672 48452 76165 8577/ 333 58044 85708 88460;
0224678610999992000022415004-18220+028930FM-12+1282FVGO V0203001N00571045001CN0200001N1+02001+01691999999ADDAY161031AY221031GA1031+002709079GA2031+004509069GF107991031061002501071999MA1999999086741MD1999999+0561ME1314549MW1601REMSYN094AAXX  24154 67861 41370 73011 10200 20169 38674 48454 76062 8367/ 333 58056 83709 83615 86460;
0196678610999992000022503004-18220+028930FM-12+1282FVGO V0200401N002610300019N0300001N1+01801+01741999999ADDAY161031AY221031GA1071+030009019GF107991071001999999071999MA1999999086891MD1999999+0411ME1314689MW1601REMSYN082AAXX  25034 67861 41980 70405 10180 20174 38689 48468 76062 8707/ 333 58041 87460;
0232678610999992000022506004-18220+028930FM-12+1282FVGO V0200501N002110027019N0280001N1+01901+01891999999ADDAA124010991AY161061AY221061GA1081+002709069GF108991081061002501999999KA1120N+01731MA1999999087071MD1999999+0461ME1314879MW1211REMSYN094AAXX  25064 67861 11378 80504 10190 20189 38707 48487 60114 72162 886// 333 20173 58046 88709;
0202678610999992000022509004-18220+028930FM-12+1282FVGO V0200601N002610060019N0500001N1+02251+01801999999ADDAY161031AY221031GA1071+006009069GF107991071051008001071999MA1999999087091MD1999999+0371ME1314909MW1021REMSYN088AAXX  25094 67861 41584 70605 10225 20180 38709 48490 70262 8757/ 333 58037 87620 85460;
0224678610999992000022512004-18220+028930FM-12+1282FVGO V0200301N00311045001CN0300001N1+02221+01891999999ADDAY161061AY221061GA1011+006009099GA2031+007509089GF107991031021008001071031MA1999999086961MD1999999+0241ME1314779MW1601REMSYN094AAXX  25124 67861 41580 70306 10222 20189 38696 48477 76062 83273 333 58024 81920 83825 86460;
0202678610999992000022515004-18220+028930FM-12+1282FVGO V0203601N00151045001CN0500001N1+02381+01731999999ADDAY191031AY261031GA1011+007509099GF107991021021012501071031MA1999999086871MD1999999+0131ME1314689MW1151REMSYN088AAXX  25154 67861 41684 73603 10238 20173 38687 48468 71596 82273 333 58013 81925 88460;
0221678610999992000022518004-18220+028930FM-12+1282FVGO V0200401N00151045001CN0060001N1+01931+01861999999ADDAY191061AY261061GA1041+002709079GF108991041071002501071999KA1120M+02481MA1999999087041MD1999999+0201ME1314849MW1611REMSYN094AAXX  25184 67861 41356 80403 10193 20186 38704 48484 76196 8477/ 333 10248 58020 84709 88460;
0196678610999992000022603004-18220+028930FM-12+1282FVGO V0200601N002110300019N0300001N1+01861+01801999999ADDAY161031AY221031GA1071+030009019GF107991071001999999071999MA1999999087071MD1999999+0181ME1314889MW1021REMSYN082AAXX  26034 67861 41980 70604 10186 20180 38707 48488 70262 8707/ 333 58018 87460;
0238678610999992000022606004-18220+028930FM-12+1282FVGO V0200301N00101045001CN0300001N1+01901+01871999999ADDAA124006191AY161061AY221061GA1041+002709079GF108991041061002501071999KA1120N+01821MA1999999087221MD1999999+0151ME1315029MW1601REMSYN100AAXX  26064 67861 11380 80302 10190 20187 38722 48502 60064 76062 8467/ 333 20182 58015 84709 88460;
0202678610999992000022609004-18220+028930FM-12+1282FVGO V0203601N001010027019N0350001N1+02111+02011999999ADDAY191031AY261031GA1051+002709079GF107991051071002501071999MA1999999087171MD1999999+0081ME1314989MW1601REMSYN088AAXX  26094 67861 41381 73602 10211 20201 38717 48498 76096 8577/ 333 58008 85709 87846;
0202678610999992000022615004-18220+028930FM-12+1282FVGO V0209999C00001045001CN0450001N1+02051+01871999999ADDAY191031AY261031GA1011+004509099GF107991021021008001071031MA1999999087001MD1999999+0131ME1314799MW1021REMSYN088AAXX  26154 67861 41583 70000 10205 20187 38700 48479 70296 82273 333 58013 81915 87460;
0215678610999992000022618004-18220+028930FM-12+1282FVGO V0201401N001510300019N0300001N1+01951+01841999999ADDAY191061AY261061GA1071+030009019GF107991071001999999071999KA1120M+02171MA1999999087021MD1999999-0021ME1314829MW1021REMSYN088AAXX  26184 67861 41980 71403 10195 20184 38702 48482 70296 8707/ 333 10217 59002 87460;
0168678610999992000022700004-18220+028930FM-12+1282FVGO V0201201N00211105001CN0300001N1+01871+01751999999ADDGA1051+999999019GF105991001001999999001021MA1999999087031MD1999999-0051ME1314849REMSYN076AAXX  27004 67861 42980 51204 10187 20175 38703 48484 80002 333 59005 85099;
0168678610999992000022703004-18220+028930FM-12+1282FVGO V0200801N002612200019N0300001N1+01851+01741999999ADDGA1031+030009079GF103991031001999999031001MA1999999087001MD1999999-0081ME1314899REMSYN076AAXX  27034 67861 42980 30805 10185 20174 38700 48489 83030 333 59008 83360;
0204678610999992000022706004-18220+028930FM-12+1282FVGO V0200501N003610027019N0220001N1+01911+01881999999ADDAA124004191GA1081+002709069GF108991081061002501999999KA1120N+01811MA1999999087191MD1999999-0031ME1314999REMSYN088AAXX  27064 67861 12372 80507 10191 20188 38719 48499 60044 886// 333 20181 59003 88709;
0202678610999992000022709004-18220+028930FM-12+1282FVGO V0203501N001019999999N0300001N1+02101+01931999999ADDAY161031AY251031GA1031+002709079GF107991031061002501999999MA1999999087231MD1999999+0061ME1315059MW1021REMSYN088AAXX  27094 67861 41380 73502 10210 20193 38723 48505 70265 836// 333 58006 83709 87615;
0174678610999992000022712004-18220+028930FM-12+1282FVGO V0203301N00261045001CN0500001N1+02271+01871999999ADDGA1041+006009089GF107991041011008001071999MA1999999087071MD1999999+0061ME1314899REMSYN082AAXX  27124 67861 42584 73305 10227 20187 38707 48489 8417/ 333 58006 84820 87460;
0174678610999992000022715004-18220+028930FM-12+1282FVGO V0202601N00151045001CN0500001N1+02181+01711999999ADDGA1021+007509089GF107991021011008001071999MA1999999087031MD1999999+0031ME1314849REMSYN082AAXX  27154 67861 42584 72603 10218 20171 38703 48484 8217/ 333 58003 82825 87460;
0193678610999992000022718004-18220+028930FM-12+1282FVGO V0209999C000012200019N0500001N1+01901+01751999999ADDGA1011+030009039GF104991011001999999041021KA1120M+02291MA1999999087071MD1999999+0051ME1314879REMSYN088AAXX  27184 67861 42984 40000 10190 20175 38707 48487 81042 333 10229 58005 81360 84099;
0168678610999992000022803004-18220+028930FM-12+1282FVGO V0201201N003610300019N0300001N1+01811+01761999999ADDGA1071+030009079GF107991071001999999031021MA1999999087191MD1999999+0191ME1314999REMSYN076AAXX  28034 67861 42980 71207 10181 20176 38719 48499 87032 333 58019 87360;
0210678610999992000022806004-18220+028930FM-12+1282FVGO V0200901N00361045001CN0400001N1+01931+01761999999ADDAA124002091GA1011+003009069GF107991011051004501071021KA1120N+01791MA1999999087391MD1999999+0201ME1315199REMSYN094AAXX  28064 67861 12482 70907 10193 20176 38739 48519 60024 81572 333 20179 58020 81610 87360;
0174678610999992000022809004-18220+028930FM-12+1282FVGO V0201001N004110075019N0500001N1+02351+01841999999ADDGA1051+007509069GF107991051051008001031001MA1999999087541MD1999999+0211ME1315279REMSYN082AAXX  28094 67861 42584 71008 10235 20184 38754 48527 85530 333 58021 85625 83360;
0168678610999992000022812004-18220+028930FM-12+1282FVGO V0203601N001010450019N0500001N1+02601+01711999999ADDGA1041+012009029GF105991041021012501031021MA1999999087251MD1999999+0181ME1315089REMSYN076AAXX  28124 67861 42684 53602 10260 20171 38725 48508 84232 333 58018 84840;
0224678610999992000022815004-18220+028930FM-12+1282FVGO V0200501N001010450019N0500001N1+02501+01861999999ADDAY191031AY221031GA1011+012009099GA2031+012009089GF107991031021012501071031MA1999999087121MD1999999+0091ME1314939MW1171REMSYN094AAXX  28154 67861 41684 70502 10250 20186 38712 48493 71792 83273 333 58009 81940 83840 85099;
0221678610999992000022818004-18220+028930FM-12+1282FVGO V0201001N00361045001CN0050001N1+01941+01881999999ADDAY191061AY261061GA1011+012009099GF107991011091012501071031KA1120M+02801MA1999999087271MD1999999+0201ME1315079MW1951REMSYN094AAXX  28184 67861 41650 71007 10194 20188 38727 48507 79596 81973 333 10280 58020 81940 87460;
0202678610999992000022900004-18220+028930FM-12+1282FVGO V0200701N004110024019N0100001N1+01901+01791999999ADDAY191061AY261061GA1061+002409079GF108991061071002501071999MA1999999087311MD1999999+0141ME1315119MW1611REMSYN088AAXX  29004 67861 41360 80708 10190 20179 38731 48511 76196 8677/ 333 58014 86708 88460;
0202678610999992000022903004-18220+028930FM-12+1282FVGO V0201001N00571105001CN0300001N1+01871+01741999999ADDAY191031AY261031GA1011+006009099GF105991011091008001071031MA1999999087291MD1999999+0101ME1315109MW1131REMSYN088AAXX  29034 67861 41580 51011 10187 20174 38729 48510 71396 81973 333 58010 81920 85460;
0238678610999992000022906004-18220+028930FM-12+1282FVGO V0200501N00311045001CN0450001N1+02001+01691999999ADDAA124046091AY191061AY261061GA1011+004509089GF107991011011004501071021KA1120N+01801MA1999999087521MD1999999+0131ME1315329MW1031REMSYN100AAXX  29064 67861 11483 70506 10200 20169 38752 48532 60464 70396 81172 333 20180 58013 81815 87360;
0168678610999992000022909004-18220+028930FM-12+1282FVGO V0200901N003110450019N0500001N1+02441+01921999999ADDGA1041+006909029GF106991041011008001031021MA1999999087471MD1999999+0031ME1315309REMSYN076AAXX  29094 67861 42584 60906 10244 20192 38747 48530 84132 333 58003 84823;
0202678610999992000022915004-18220+028930FM-12+1282FVGO V0200801N001510450019N0500001N1+02531+01891999999ADDAY191031AY281031GA1011+009009099GF106991031021012501031031MA1999999087131MD1999999+0011ME1314949MW1151REMSYN088AAXX  29154 67861 41684 60803 10253 20189 38713 48494 71598 83233 333 58001 81930 83837;
0221678610999992000022918004-18220+028930FM-12+1282FVGO V0200701N00151045001CN0500001N1+02161+01931999999ADDAY191061AY281061GA1011+009009099GF107991011091012501071031KA1120M+02721MA1999999087291MD1999999+0021ME1315119MW1131REMSYN094AAXX  29184 67861 41684 70703 10216 20193 38729 48511 71398 81973 333 10272 58002 81930 84460;
0202678610999992000030103004-18220+028930FM-12+1282FVGO V0201001N00311045001CN0300001N1+01961+01791999999ADDAY191031AY261031GA1011+009009099GF107991011091012501071031MA1999999087271MD1999999-0021ME1315099MW1131REMSYN088AAXX  01034 67861 41680 71006 10196 20179 38727 48509 71396 81973 333 59002 81930 87460;
0238678610999992000030106004-18220+028930FM-12+1282FVGO V0200801N00461045001CN0400001N1+02171+01861999999ADDAA124000191AY191061AY261061GA1041+004509069GF107991041051004501031021KA1120N+01881MA1999999087371MD1999999-0151ME1315199MW1021REMSYN100AAXX  01064 67861 11482 70809 10217 20186 38737 48519 69924 70296 84532 333 20188 59015 84615 84360;
0168678610999992000030112004-18220+028930FM-12+1282FVGO V0203301N001510117019N0500001N1+02701+01821999999ADDGA1061+011709029GF106991061021012501001021MA1999999087211MD1999999+0021ME1315049REMSYN076AAXX  01124 67861 42684 63303 10270 20182 38721 48504 86202 333 58002 86839;
0202678610999992000030115004-18220+028930FM-12+1282FVGO V0200501N000510120019N0500001N1+02501+01831999999ADDAY191031AY221031GA1011+012009099GF107991051021012501001031MA1999999087021MD1999999-0111ME1314839MW1171REMSYN088AAXX  01154 67861 41684 70501 10250 20183 38702 48483 71792 85203 333 59011 81940 85840;
0243678610999992000030118004-18220+028930FM-12+1282FVGO V0209999C00001045001CN0300001N1+02151+01941999999ADDAY191061AY221061GA1011+012009099GA2031+030009049GF107991011091012501071031KA1120M+02801MA1999999087141MD1999999-0151ME1314959MW1131REMSYN100AAXX  01184 67861 41680 70000 10215 20194 38714 48495 71392 81973 333 10280 59015 81940 83460 85099;
0202678610999992000030203004-18220+028930FM-12+1282FVGO V0200901N00261045001CN0200001N1+01831+01781999999ADDAY191031AY261031GA1011+006009099GF107991011091008001071031MA1999999087151MD1999999-0121ME1314959MW1171REMSYN088AAXX  02034 67861 41570 70905 10183 20178 38715 48495 71796 81973 333 59012 81920 85460;
0260678610999992000030206004-18220+028930FM-12+1282FVGO V0203301N00151045001CN0300001N1+02001+01881999999ADDAA124004191AY191061AY261061GA1031+002709079GA2031+006009069GF107991031071002501071021KA1120N+01761MA1999999087341MD1999999-0031ME1315149MW1291REMSYN106AAXX  02064 67861 11380 73303 10200 20188 38734 48514 60044 72996 83772 333 20176 59003 83709 83620 85460;
0174678610999992000030209004-18220+028930FM-12+1282FVGO V0200201N00261045001CN0500001N1+02471+01131999999ADDGA1041+009009089GF106991041021012501031021MA1999999087361MD1999999-0101ME1315189REMSYN082AAXX  02094 67861 42684 60205 10247 20113 38736 48518 84232 333 59010 84830 83360;
0168678610999992000030212004-18220+028930FM-12+1282FVGO V0203601N002610099019N0500001N1+02641+01881999999ADDGA1061+009909029GF106991061021012501001001MA1999999087131MD1999999-0081ME1314959REMSYN076AAXX  02124 67861 42684 63605 10264 20188 38713 48495 86200 333 59008 86833;
0174678610999992000030215004-18220+028930FM-12+1282FVGO V0200501N001012200019N0500001N1+02681+01761999999ADDGA1011+009009099GF104991031021012501001031MA1999999087001MD1999999-0021ME1314839REMSYN082AAXX  02154 67861 42684 40502 10268 20176 38700 48483 83203 333 59002 81930 83838;
0187678610999992000030218004-18220+028930FM-12+1282FVGO V0209999C000012200019N0500001N1+02161+01941999999ADDGA1011+999999019GF101991001001999999001021KA1120M+02741MA1999999087091MD1999999-0051ME1314909REMSYN082AAXX  02184 67861 42984 10000 10216 20194 38709 48490 80002 333 10274 59005 81099;
0202678610999992000030300004-18220+028930FM-12+1282FVGO V0201201N00461105001CN0400001N1+02121+01791999999ADDAY191061AY211061GA1011+009009099GF105991011091012501071031MA1999999087211MD1999999+0041ME1315049MW1171REMSYN088AAXX  03004 67861 41682 51209 10212 20179 38721 48504 71791 81973 333 58004 81930 84460;
0202678610999992000030303004-18220+028930FM-12+1282FVGO V0201301N00211105001CN0400001N1+01921+01831999999ADDAY191031AY261031GA1011+009009099GF106991011091012501071031MA1999999087201MD1999999+0051ME1315019MW1171REMSYN088AAXX  03034 67861 41682 61304 10192 20183 38720 48501 71796 81973 333 58005 81930 85460;
0238678610999992000030306004-18220+028930FM-12+1282FVGO V0201101N005112200019N0500001N1+02101+01771999999ADDAA124000791AY191061AY261061GA1011+004509069GF104991011051004501071021KA1120N+01851MA1999999087301MD1999999-0041ME1315119MW1021REMSYN100AAXX  03064 67861 11484 41110 10210 20177 38730 48511 69904 70296 81572 333 20185 59004 81615 83460;
0174678610999992000030309004-18220+028930FM-12+1282FVGO V0200501N00151045001CN0500001N1+02461+01811999999ADDGA1041+006609089GF106991041021008001031021MA1999999087421MD1999999+0061ME1315269REMSYN082AAXX  03094 67861 42584 60503 10246 20181 38742 48526 84232 333 58006 84822 83360;
0168678610999992000030312004-18220+028930FM-12+1282FVGO V0203601N00101012001CN0500001N1+02731+01821999999ADDGA1031+011409029GF105991051021012501001021MA1999999087201MD1999999+0071ME1315039REMSYN076AAXX  03124 67861 42684 53602 10273 20182 38720 48503 85202 333 58007 83838;
0224678610999992000030315004-18220+028930FM-12+1282FVGO V0201801N000510450019N0500001N1+02391+01881999999ADDAY191031AY281031GA1011+010509099GA2031+012009089GF107991031021012501071031MA1999999087101MD1999999+0101ME1314919MW1291REMSYN094AAXX  03154 67861 41684 71801 10239 20188 38710 48491 72998 83273 333 58010 81935 83840 85099;
0221678610999992000030318004-18220+028930FM-12+1282FVGO V0200801N002110450019N0300001N1+02151+01861999999ADDAY191061AY281061GA1011+010509099GF106991031051012501031031KA1120M+02741MA1999999087161MD1999999+0071ME1314979MW1131REMSYN094AAXX  03184 67861 41680 60804 10215 20186 38716 48497 71398 83533 333 10274 58007 81935 85099;
0224678610999992000030403004-18220+028930FM-12+1282FVGO V0201501N002610450019N0300001N1+01821+01631999999ADDAY191031AY261031GA1031+002709079GA2011+004509099GF107991031071002501071999MA1999999087251MD1999999+0051ME1315049MW1131REMSYN094AAXX  04034 67861 41380 71505 10182 20163 38725 48504 71396 8377/ 333 58005 81915 83709 87460;
0122678610999992000030409004-18220+028930FM-12+1282FVGO V0200701N002110075019N0500001N1+02351+01761999999ADDGF106991061021008001031001MA1999999087451ME1315289REMSYN060AAXX  04094 67861 42584 60704 10235 20176 38745 48528 86230;
0168678610999992000030412004-18220+028930FM-12+1282FVGO V0203001N003610105019N0500001N1+02591+01721999999ADDGA1051+010509029GF105991051021012501031001MA1999999087241MD1999999+0041ME1315079REMSYN076AAXX  04124 67861 42684 53007 10259 20172 38724 48507 85230 333 58004 85835;
0187678610999992000030418004-18220+028930FM-12+1282FVGO V0209999C000012200019N0300001N1+02131+01801999999ADDGA1011+030009079GF101991011001999999061021KA1120M+02731MA1999999087161MD1999999+0001ME1314979REMSYN082AAXX  04184 67861 42980 10000 10213 20180 38716 48497 81062 333 10273 58000 81360;
0232678610999992000030506004-18220+028930FM-12+1282FVGO V0200301N001510450019N0450001N1+02061+01741999999ADDAA124000791AY151061AY221061GA1031+003009059GF107991031031004501081021KA1120N+01311MA1999999087521MD1999999+0071ME1315329MW1201REMSYN094AAXX  05064 67861 11483 70303 10206 20174 38752 48532 69904 72052 83382 333 20131 58007 83610;
0168678610999992000030509004-18220+028930FM-12+1282FVGO V0203601N002110090019N0500001N1+02371+01671999999ADDGA1051+009009029GF106991051021012501031001MA1999999087521MD1999999+0071ME1315339REMSYN076AAXX  05094 67861 42684 63604 10237 20167 38752 48533 85230 333 58007 85830;
0174678610999992000030515004-18220+028930FM-12+1282FVGO V0200301N001512200019N0500001N1+02701+01721999999ADDGA1011+013509099GF103991021021017501041021MA1999999087141MD1999999+0041ME1314979REMSYN082AAXX  05154 67861 42784 30303 10270 20172 38714 48497 82242 333 58004 81945 83360;
0221678610999992000030518004-18220+028930FM-12+1282FVGO V0209999C000011050019N0300001N1+02131+01541999999ADDAY191061AY221061GA1011+013509099GF105991011091017501071031KA1120M+02771MA1999999087241MD1999999+0081ME1315049MW1291REMSYN094AAXX  05184 67861 41780 50000 10213 20154 38724 48504 72992 81973 333 10277 58008 81945 83460;
0168678610999992000030600004-18220+028930FM-12+1282FVGO V0200901N001512200019N0300001N1+01951+01691999999ADDGA1041+006009059GF104991041051008001001001MA1999999087321MD1999999-0031ME1315129REMSYN076AAXX  06004 67861 42580 40903 10195 20169 38732 48512 84500 333 59003 84620;
0168678610999992000030603004-18220+028930FM-12+1282FVGO V0201001N002112200019N0300001N1+01871+01751999999ADDGA1021+030009079GF102991021001999999031001MA1999999087221MD1999999-0081ME1315139REMSYN076AAXX  06034 67861 42980 21004 10187 20175 38722 48513 82030 333 59008 82360;
0223678610999992000030606004-18220+028930FM-12+1282FVGO V0200501N00151045001CN0400001N1+02051+01771999999ADDAA199000091GA1011+004509089GF106991011011004501071001KA1120N+01841MA1999999087481MD1999999-0041ME1315299REMSYN088AAXX  06064 67861 32482 60503 10205 20177 38748 48529 81170 333 20184 59004 81815 86360;EQDQ01  00002PRCP99
0168678610999992000030609004-18220+028930FM-12+1282FVGO V0200601N002610090019N0500001N1+02421+01711999999ADDGA1061+009009029GF106991061021012501031001MA1999999087431MD1999999-0091ME1315249REMSYN076AAXX  06094 67861 42684 60605 10242 20171 38743 48524 86230 333 59009 86830;
0174678610999992000030612004-18220+028930FM-12+1282FVGO V0203601N00261012001CN0500001N1+02761+01731999999ADDGA1011+012009099GF105991051021012501001031MA1999999087191MD1999999-0111ME1315039REMSYN082AAXX  06124 67861 42684 53605 10276 20173 38719 48503 85203 333 59011 81940 85844;
0202678610999992000030615004-18220+028930FM-12+1282FVGO V0202201N00151045001CN0500001N1+02111+01921999999ADDAY181031AY261031GA1011+012009099GF107991021021012501071031MA1999999087031MD1999999-0111ME1314849MW1601REMSYN088AAXX  06154 67861 41684 72203 10211 20192 38703 48484 76086 82273 333 59011 81940 86460;
0196678610999992000030703004-18220+028930FM-12+1282FVGO V0200901N003112200019N0300001N1+01871+01701999999ADDAY101031AY201031GA1011+009009099GF102991011091012501031031MA1999999087161MD1999999-0161ME1314979MW1131REMSYN082AAXX  07034 67861 41680 20906 10187 20170 38716 48497 71300 81933 333 59016 81930;
0210678610999992000030706004-18220+028930FM-12+1282FVGO V0201201N00361105001CN0450001N1+02091+01761999999ADDAA124002091GA1021+007509069GF105991021051008001081021KA1120N+01831MA1999999087381MD1999999-0131ME1315159REMSYN094AAXX  07064 67861 12583 51207 10209 20176 38738 48515 60024 82582 333 20183 59013 82625 84360;
0168678610999992000030709004-18220+028930FM-12+1282FVGO V0201501N004110075019N0450001N1+02441+01881999999ADDGA1051+007509059GF107991051051008001031021MA1999999087421MD1999999-0011ME1315259REMSYN076AAXX  07094 67861 42583 71508 10244 20188 38742 48525 85532 333 59001 85625;
0168678610999992000030712004-18220+028930FM-12+1282FVGO V0200901N004610090019N0500001N1+02501+01841999999ADDGA1061+009009029GF107991061021012501001021MA1999999087301MD1999999+0111ME1315129REMSYN076AAXX  07124 67861 42684 70909 10250 20184 38730 48512 86202 333 58011 86830;
0224678610999992000030715004-18220+028930FM-12+1282FVGO V0200901N00101045001CN0500001N1+02101+01941999999ADDAY191031AY281031GA1011+009009099GA2031+010509089GF107991031021012501071031MA1999999087161MD1999999+0131ME1314979MW1801REMSYN094AAXX  07154 67861 41684 70902 10210 20194 38716 48497 78098 83273 333 58013 81930 83835 85460;
0156678610999992000030800004-18220+028930FM-12+1282FVGO V0201501N004112200019N0300001N1+01901+01661999999ADDGA1001+999999999GF100991001001999999001001MA1999999087261MD1999999+0081ME1315079REMSYN064AAXX  08004 67861 42980 01508 10190 20166 38726 48507 333 58008;
0196678610999992000030803004-18220+028930FM-12+1282FVGO V0201001N004612200019N0300001N1+01771+01581999999ADDAY101031AY201031GA1011+009009099GF101991011091012501031041MA1999999087291MD1999999+0131ME1315099MW1131REMSYN082AAXX  08034 67861 41680 11009 10177 20158 38729 48509 71300 81934 333 58013 81930;
0210678610999992000030806004-18220+028930FM-12+1282FVGO V0200301N003619999999N0400001N1+02031+01601999999ADDAA124000591GA1021+030009039GF105991021001999999041021KA1120N+01741MA1999999087421MD1999999+0071ME1315229REMSYN094AAXX  08064 67861 12982 50307 10203 20160 38742 48522 69954 82042 333 20174 58007 82360 83099;
0174678610999992000030809004-18220+028930FM-12+1282FVGO V0200701N00411105001CN0500001N1+02441+01581999999ADDGA1021+010809089GF105991021011012501031021MA1999999087351MD1999999-0071ME1315169REMSYN082AAXX  08094 67861 42684 50708 10244 20158 38735 48516 82132 333 59007 82836 83360;
0202678610999992000030812004-18220+028930FM-12+1282FVGO V0200901N00211012001CN0500001N1+02641+01491999999ADDAY111061AY211061GA1011+012009099GF106991051021012501031031MA1999999087181MD1999999-0121ME1315009MW1151REMSYN088AAXX  08124 67861 41684 60904 10264 20149 38718 48500 71511 85233 333 59012 81940 85848;
0224678610999992000030815004-18220+028930FM-12+1282FVGO V0209999C00001045001CN0300001N1+02521+01741999999ADDAY191031AY221031GA1011+012009099GA2031+014409089GF107991031021012501071031MA1999999087111MD1999999-0051ME1314929MW1171REMSYN094AAXX  08154 67861 42680 70000 10252 20174 38711 48492 71792 83273 333 59005 81940 83848 85460;
0221678610999992000030818004-18220+028930FM-12+1282FVGO V0209999C00001045001CN0500001N1+02051+01991999999ADDAY191061AY281061GA1011+012009099GF107991011091012501071031KA1120M+02741MA1999999087231MD1999999+0011ME1315049MW1131REMSYN094AAXX  08184 67861 41684 70000 10205 20199 38723 48504 71398 81973 333 10274 58001 81940 87460;
0168678610999992000030900004-18220+028930FM-12+1282FVGO V0201301N004112200019N0300001N1+01821+01631999999ADDGA1031+030009079GF103991031001999999031021MA1999999087271MD1999999+0011ME1315079REMSYN076AAXX  09004 67861 42980 31308 10182 20163 38727 48507 83032 333 58001 83360;
0196678610999992000030903004-18220+028930FM-12+1282FVGO V0201201N004612200019N0300001N1+01741+01571999999ADDAY101031AY201031GA1011+009009099GF102991011091012501031031MA1999999087291MD1999999+0001ME1315099MW1131REMSYN082AAXX  09034 67861 41680 21209 10174 20157 38729 48509 71300 81933 333 58000 81930;
0204678610999992000030906004-18220+028930FM-12+1282FVGO V0201401N003612200019N0500001N1+01941+01581999999ADDAA124007991GA1021+004509029GF103991021011004501041021KA1120N+01671MA1999999087431MD1999999+0011ME1315229REMSYN088AAXX  09064 67861 12484 31407 10194 20158 38743 48522 60084 82142 333 20167 58001 82815;
0174678610999992000030909004-18220+028930FM-12+1282FVGO V0201801N005110450019N0500001N1+02301+01611999999ADDGA1041+009009089GF107991041011012501041021MA1999999087531MD1999999+0181ME1315339REMSYN082AAXX  09094 67861 42684 71810 10230 20161 38753 48533 84142 333 58018 84830 84099;
0174678610999992000030912004-18220+028930FM-12+1282FVGO V0201501N002610120019N0500001N1+02601+01641999999ADDGA1051+012009089GF107991051021012501001021MA1999999087261MD1999999+0081ME1315099REMSYN082AAXX  09124 67861 42684 71505 10260 20164 38726 48509 85202 333 58008 85840 84099;
0224678610999992000030915004-18220+028930FM-12+1282FVGO V0200701N00101045001CN0300001N1+02101+01721999999ADDAY191031AY281031GA1011+012009099GA2041+013509089GF107991041021012501071031MA1999999087211MD1999999+0101ME1315029MW1801REMSYN094AAXX  09154 67861 41680 70702 10210 20172 38721 48502 78098 84273 333 58010 81940 84845 83460;
0243678610999992000030918004-18220+028930FM-12+1282FVGO V0200301N00051045001CN0280001N1+01931+01861999999ADDAY191061AY281061GA1011+012009099GA2031+030009049GF107991011091012501071031KA1120M+02701MA1999999087271MD1999999+0041ME1315079MW1131REMSYN100AAXX  09184 67861 41678 70301 10193 20186 38727 48507 71398 81973 333 10270 58004 81940 83460 85099;
0168678610999992000031000004-18220+028930FM-12+1282FVGO V0201301N003112200019N0250001N1+01851+01701999999ADDGA1021+030009079GF102991021001999999041001MA1999999087291MD1999999+0201ME1315089REMSYN076AAXX  10004 67861 42975 21306 10185 20170 38729 48508 82040 333 58020 82360;
0204678610999992000031006004-18220+028930FM-12+1282FVGO V0201801N004612200019N0300001N1+02051+01661999999ADDAA124000791GA1031+004509059GF103991031051004501081021KA1120N+01761MA1999999087411MD1999999-0021ME1315219REMSYN088AAXX  10064 67861 12480 31809 10205 20166 38741 48521 69904 83582 333 20176 59002 83615;
0168678610999992000031009004-18220+028930FM-12+1282FVGO V0200801N003612200019N0500001N1+02411+01771999999ADDGA1041+008109029GF104991041021008001001021MA1999999087321MD1999999-0211ME1315159REMSYN076AAXX  10094 67861 42584 40807 10241 20177 38732 48515 84202 333 59021 84827;
0202678610999992000031012004-18220+028930FM-12+1282FVGO V0200801N00051012001CN0500001N1+02581+01691999999ADDAY191061AY211061GA1011+009009099GF106991051021012501031031MA1999999087051MD1999999-0211ME1314879MW1171REMSYN088AAXX  10124 67861 41684 60801 10258 20169 38705 48487 71791 85233 333 59021 81930 85838;
0202678610999992000031100004-18220+028930FM-12+1282FVGO V0201201N003612200019N0500001N1+02031+01651999999ADDAY111061AY211061GA1011+009009099GF103991011091012501031031MA1999999087161MD1999999-0111ME1314979MW1131REMSYN088AAXX  11004 67861 41684 31207 10203 20165 38716 48497 71311 81933 333 59011 81930 83360;
0217678610999992000031106004-18220+028930FM-12+1282FVGO V0201101N003110045019N0500001N1+02031+01811999999ADDAA199000091GA1061+004509059GF107991061051004501041021KA1120N+01881MA1999999087281MD1999999-0131ME1315089REMSYN082AAXX  11064 67861 32484 71106 10203 20181 38728 48508 86542 333 20188 59013 86615;EQDQ01  00002PRCP99
0168678610999992000031109004-18220+028930FM-12+1282FVGO V0200501N002110090019N0500001N1+02471+01771999999ADDGA1061+009009029GF106991061021012501001021MA1999999087761MD1999999+0041ME1315189REMSYN076AAXX  11094 67861 42684 60504 10247 20177 38776 48518 86202 333 58004 86830;
0215678610999992000031112004-18220+028930FM-12+1282FVGO V0200701N002610141019N0500001N1+02541+01641999999ADDAY121061AY221061GA1061+014109029GF106991061021012501031021MA1999999087112MD1999999+0061ME1314929MW1151REMSYN082AAXX  11124 67861 41684 60705 10254 20164 38711 48492 71522 86232 333 58006 86847;EQDQ01+087113APOSP 
0174678610999992000031203004-18220+028930FM-12+1282FVGO V0201101N003112200019N0500001N1+01941+01661999999ADDGA1011+030009039GF103991011001999999041021MA1999999087141MD1999999-0021ME1314959REMSYN082AAXX  12034 67861 42984 31106 10194 20166 38714 48495 81042 333 59002 81360 83099;
0223678610999992000031206004-18220+028930FM-12+1282FVGO V0200801N00361045001CN0500001N1+02111+01771999999ADDAA199000091GA1011+004509089GF107991011011004501031021KA1120N+01891MA1999999087281MD1999999+0001ME1315099REMSYN088AAXX  12064 67861 32484 70807 10211 20177 38728 48509 81132 333 20189 58000 81815 86360;EQDQ01  00002PRCP99
0168678610999992000031209004-18220+028930FM-12+1282FVGO V0200501N003112200019N0500001N1+02581+01871999999ADDGA1021+009309029GF103991021011012501031021MA1999999087281MD1999999-0081ME1315119REMSYN076AAXX  12094 67861 42684 30506 10258 20187 38728 48511 82132 333 59008 82831;
0202678610999992000031212004-18220+028930FM-12+1282FVGO V0203601N00211012001CN0500001N1+02861+01721999999ADDAY191061AY211061GA1011+012009099GF106991061021012501041031MA1999999087061MD1999999-0051ME1314909MW1171REMSYN088AAXX  12124 67861 41684 63604 10286 20172 38706 48490 71791 86243 333 59005 81940 86847;
0202678610999992000031215004-18220+028930FM-12+1282FVGO V0209999C00001045001CN0450001N1+02101+01871999999ADDAY191031AY281031GA1011+012009099GF107991021021012501071031MA1999999087041MD1999999+0041ME1314839MW1171REMSYN088AAXX  12154 67861 41683 70000 10210 20187 38704 48483 71798 82273 333 58004 81940 87460;
0221678610999992000031218004-18220+028930FM-12+1282FVGO V0209999C00001045001CN0450001N1+02081+01961999999ADDAY191061AY281061GA1011+012009099GF107991011091012501071031KA1120M+02901MA1999999087141MD1999999+0011ME1314959MW1131REMSYN094AAXX  12184 67861 41683 70000 10208 20196 38714 48495 71398 81973 333 10290 58001 81940 87460;
0196678610999992000031300004-18220+028930FM-12+1282FVGO V0201201N002610300019N0400001N1+01981+01861999999ADDAY161061AY221061GA1051+030009019GF105991051001999999071021MA1999999087081MD1999999-0101ME1314899MW1211REMSYN082AAXX  13004 67861 41982 51205 10198 20186 38708 48489 72162 85072 333 59010 85460;
0174678610999992000031303004-18220+028930FM-12+1282FVGO V0201401N003112200019N0400001N1+01861+01741999999ADDGA1021+030009039GF104991021001999999041021MA1999999087001MD1999999-0141ME1314819REMSYN082AAXX  13034 67861 42982 41406 10186 20174 38700 48481 82042 333 59014 82360 83099;
0210678610999992000031306004-18220+028930FM-12+1282FVGO V0201401N004111050019N0500001N1+02101+01711999999ADDAA124017091GA1011+004809089GF105991011011004501041021KA1120N+01801MA1999999087201MD1999999-0081ME1315019REMSYN094AAXX  13064 67861 12484 51408 10210 20171 38720 48501 60174 81142 333 20180 59008 81816 85099;
0174678610999992000031309004-18220+028930FM-12+1282FVGO V0201001N003610075019N0500001N1+02371+01741999999ADDGA1051+007509089GF107991051021008001041021MA1999999087271MD1999999-0011ME1315109REMSYN082AAXX  13094 67861 42584 71007 10237 20174 38727 48510 85242 333 59001 85825 83099;
0202678610999992000031312004-18220+028930FM-12+1282FVGO V0200301N002610090019N0500001N1+02501+01761999999ADDAY181061AY221061GA1061+009009089GF107991061021012501041021MA1999999087001MD1999999-0061ME1314819MW1021REMSYN088AAXX  13124 67861 41684 70305 10250 20176 38700 48481 70282 86242 333 59006 86830 83099;
0202678610999992000031315004-18220+028930FM-12+1282FVGO V0200501N00311012001CN0500001N1+02351+01841999999ADDAY191031AY281031GA1011+009009099GF107991051021012501071031MA1999999087001MD1999999-0041ME1314819MW1171REMSYN088AAXX  13154 67861 41684 70506 10235 20184 38700 48481 71798 85273 333 59004 81930 85835;
0221678610999992000031318004-18220+028930FM-12+1282FVGO V0209999C00001045001CN0300001N1+02121+01951999999ADDAY191061AY281061GA1011+009009099GF107991011091012501071031KA1120M+02601MA1999999087091MD1999999-0051ME1314909MW1171REMSYN094AAXX  13184 67861 41680 70000 10212 20195 38709 48490 71798 81973 333 10260 59005 81930 87460;
0202678610999992000031400004-18220+028930FM-12+1282FVGO V0200201N001012200019N0300001N1+01941+01741999999ADDAY191061AY211061GA1011+006009099GF103991011091008001071031MA1999999087071MD1999999-0011ME1314889MW1131REMSYN088AAXX  14004 67861 41580 30202 10194 20174 38707 48488 71391 81973 333 59001 81920 83099;
0168678610999992000031403004-18220+028930FM-12+1282FVGO V0200701N002612200019N0300001N1+01821+01701999999ADDGA1021+030009079GF102991021001999999041001MA1999999087051MD1999999+0051ME1314859REMSYN076AAXX  14034 67861 42980 20705 10182 20170 38705 48485 82040 333 58005 82360;
0232678610999992000031406004-18220+028930FM-12+1282FVGO V0200901N00311045001CN0500001N1+02051+01681999999ADDAA124000791GA1011+004509089GA2031+030009039GF107991011011004501031021KA1120N+01751MA1999999087171MD1999999-0031ME1314989REMSYN100AAXX  14064 67861 12484 70906 10205 20168 38717 48498 69904 81132 333 20175 59003 81815 83360 86099;
0168678610999992000031409004-18220+028930FM-12+1282FVGO V0200701N002110066019N0500001N1+02341+01821999999ADDGA1061+006609029GF107991061021008001001021MA1999999087091MD1999999-0181ME1314919REMSYN076AAXX  14094 67861 42584 70704 10234 20182 38709 48491 86202 333 59018 86822;
0202678610999992000031412004-18220+028930FM-12+1282FVGO V0203301N00211012001CN0500001N1+02571+01791999999ADDAY191061AY281061GA1011+009009099GF107991061021012501031031MA1999999086851MD1999999-0151ME1314679MW1291REMSYN088AAXX  14124 67861 41684 73304 10257 20179 38685 48467 72998 86233 333 59015 81930 86833;
0224678610999992000031415004-18220+028930FM-12+1282FVGO V0203501N002110450019N0300001N1+02231+02021999999ADDAY191031AY261031GA1031+002709079GA2011+009009099GF107991031061002501071031MA1999999086911MD1999999-0091ME1314729MW1171REMSYN094AAXX  14154 67861 41380 73504 10223 20202 38691 48472 71796 83673 333 59009 81930 83709 87460;
0215678610999992000031418004-18220+028930FM-12+1282FVGO V0209999C000010300019N0300001N1+02001+01921999999ADDAY191061AY281061GA1071+030009019GF107991071001999999071999KA1120M+02641MA1999999086981MD1999999-0111ME1314799MW1601REMSYN088AAXX  14184 67861 41980 70000 10200 20192 38698 48479 76098 8707/ 333 10264 59011 87460;
0202678610999992000031500004-18220+028930FM-12+1282FVGO V0209999C00001105001CN0300001N1+01901+01851999999ADDAY121061AY221061GA1011+007509099GF106991011091008001071031MA1999999086981MD1999999-0091ME1314799MW1131REMSYN088AAXX  15004 67861 41580 60000 10190 20185 38698 48479 71322 81973 333 59009 81925 84460;
0184678610999992000031503004-18220+028930FM-12+1282FVGO V0200901N000510001519N0001001N1+01881+01881999999ADDAY141031AY221031GA1091+999999999GF109991091999999999999999MA1999999087021MD1999999-0031ME1314829MW1471REMSYN070AAXX  15034 67861 41/01 90901 10188 20188 38702 48482 74742 333 59003;
0238678610999992000031506004-18220+028930FM-12+1282FVGO V0200401N00151045001CN0300001N1+02081+01961999999ADDAA124004191AY141061AY221061GA1031+003909069GF107991031051004501071021KA1120N+01811MA1999999087241MD1999999+0071ME1315059MW1021REMSYN100AAXX  15064 67861 11480 70403 10208 20196 38724 48505 60044 70242 83572 333 20181 58007 83613 86460;
0202678610999992000031509004-18220+028930FM-12+1282FVGO V0202701N003110027019N0250001N1+01901+01831999999ADDAY161031AY221031GA1061+002709079GF107991061061002501071999MA1999999087321MD1999999+0231ME1315129MW1611REMSYN088AAXX  15094 67861 41375 72706 10190 20183 38732 48512 76162 8667/ 333 58023 86709 87460;
0224678610999992000031512004-18220+028930FM-12+1282FVGO V0202501N003610300019N0500001N1+02251+01801999999ADDAY191061AY261061GA1011+006009099GA2041+030009039GF107991021021008001031031MA1999999087121MD1999999+0271ME1314949MW1291REMSYN094AAXX  15124 67861 41584 72507 10225 20180 38712 48494 72996 82233 333 58027 81920 84360 85099;
0202678610999992000031515004-18220+028930FM-12+1282FVGO V0201801N00051045001CN0500001N1+02301+01781999999ADDAY191031AY221031GA1011+006009099GF107991011021008001031031MA1999999087021MD1999999+0111ME1314829MW1021REMSYN088AAXX  15154 67861 41584 71801 10230 20178 38702 48482 70292 81233 333 58011 81920 83460;
0187678610999992000031518004-18220+028930FM-12+1282FVGO V0209999C000010300019N0350001N1+02051+01831999999ADDGA1071+030009019GF107991071001999999071999KA1120M+02341MA1999999087111MD1999999+0131ME1314929REMSYN082AAXX  15184 67861 42981 70000 10205 20183 38711 48492 8707/ 333 10234 58013 87460;
0187678610999992000031600004-18220+028930FM-12+1282FVGO V0200301N001010300019N0300001N1+02001+01771999999ADDGA1051+030009019GF105991051001999999071999MA1999999087191MD1999999+0211ME1315009REMSYN076AAXX  16004 67861 42980 50302 10200 20177 38719 48500 85070 333 58021 85460;EQDQ01+000002SCOHCG
0168678610999992000031603004-18220+028930FM-12+1282FVGO V0200501N001010300019N0250001N1+01981+01791999999ADDGA1061+030009019GF106991061001999999071021MA1999999087201MD1999999+0181ME1315029REMSYN076AAXX  16034 67861 42975 60502 10198 20179 38720 48502 86072 333 58018 86460;
0232678610999992000031606004-18220+028930FM-12+1282FVGO V0203301N00211045001CN0300001N1+02111+01881999999ADDAA124000191GA1011+002709079GA2031+004509059GF107991031051004501071999KA1120N+01851MA1999999087401MD1999999+0161ME1315219REMSYN100AAXX  16064 67861 12480 73304 10211 20188 38740 48521 69924 8357/ 333 20185 58016 81709 83515 86360;
0168678610999992000031709004-18220+028930FM-12+1282FVGO V0202701N000512200019N0500001N1+02501+01611999999ADDGA1011+009009029GF101991011011012501041021MA1999999087371MD1999999+0021ME1315199REMSYN076AAXX  17094 67861 42684 12701 10250 20161 38737 48519 81142 333 58002 81830;
0168678610999992000031712004-18220+028930FM-12+1282FVGO V0203301N002112200019N0500001N1+02771+01781999999ADDGA1031+013509029GF103991031011012501031021MA1999999087121MD1999999+0011ME1314969REMSYN076AAXX  17124 67861 42684 33304 10277 20178 38712 48496 83132 333 58001 83845;
0174678610999992000031715004-18220+028930FM-12+1282FVGO V0209999C000011050019N0500001N1+02791+01771999999ADDGA1021+013509089GF105991021011012501001021MA1999999086981MD1999999-0081ME1314829REMSYN082AAXX  17154 67861 42684 50000 10279 20177 38698 48482 82102 333 59008 82845 85099;
0221678610999992000031718004-18220+028930FM-12+1282FVGO V0209999C00001045001CN0300001N1+02301+01851999999ADDAY111061AY211061GA1011+013509099GF107991011091012501071031KA1120M+02831MA1999999087141MD1999999-0041ME1314969MW1131REMSYN094AAXX  17184 67861 41680 70000 10230 20185 38714 48496 71311 81973 333 10283 59004 81945 87460;
0202678610999992000031800004-18220+028930FM-12+1282FVGO V0200201N001510024019N0250001N1+01751+01661999999ADDAY161061AY221061GA1061+002409079GF108991061061002501071999MA1999999087251MD1999999+0081ME1315049MW1611REMSYN088AAXX  18004 67861 41375 80203 10175 20166 38725 48504 76162 8667/ 333 58008 86708 88460;
0202678610999992000031803004-18220+028930FM-12+1282FVGO V0209999C000010024019N0200001N1+01701+01631999999ADDAY161031AY221031GA1051+002409079GF108991051061002501071999MA1999999087221MD1999999+0041ME1315019MW1131REMSYN088AAXX  18034 67861 41370 80000 10170 20163 38722 48501 71362 8567/ 333 58004 85708 88460;
0202678610999992000031809004-18220+028930FM-12+1282FVGO V0203601N00361045001CN0400001N1+02201+01781999999ADDAY161031AY221031GA1011+004509089GF107991011011004501071999MA1999999087471MD1999999+0101ME1315269MW1211REMSYN088AAXX  18094 67861 41482 73607 10220 20178 38747 48526 72162 8117/ 333 58010 81815 87460;
0202678610999992000031812004-18220+028930FM-12+1282FVGO V0202701N003110027019N0200001N1+02201+01931999999ADDAY181061AY221061GA1071+002709079GF108991071061002501071999MA1999999087231MD1999999+0111ME1315059MW1601REMSYN088AAXX  18124 67861 41370 82706 10220 20193 38723 48505 76082 8767/ 333 58011 87709 88460;
0202678610999992000031815004-18220+028930FM-12+1282FVGO V0209999C00001045001CN0450001N1+02181+01741999999ADDAY191031AY281031GA1011+006009089GF107991011021008001061021MA1999999087061MD1999999+0081ME1314869MW1021REMSYN088AAXX  18154 67861 41583 70000 10218 20174 38706 48486 70298 81262 333 58008 81820 87360;
0221678610999992000031818004-18220+028930FM-12+1282FVGO V0209999C000012200019N0300001N1+01951+01761999999ADDAY191061AY261061GA1011+030009039GF103991011001999999061021KA1120M+02431MA1999999087111MD1999999-0031ME1314919MW1021REMSYN094AAXX  18184 67861 41980 30000 10195 20176 38711 48491 70296 81062 333 10243 59003 81360 83099;
0202678610999992000031900004-18220+028930FM-12+1282FVGO V0209999C00001045001CN0300001N1+01901+01571999999ADDAY161061AY211061GA1041+004509069GF108991041051004501071999MA1999999087271MD1999999+0021ME1315079MW1601REMSYN088AAXX  19004 67861 41480 80000 10190 20157 38727 48507 76061 8457/ 333 58002 84615 88460;
0224678610999992000031903004-18220+028930FM-12+1282FVGO V0200301N001011050019N0300001N1+01871+01701999999ADDAY191031AY261031GA1011+004509099GA2031+030009049GF106991011091004501041031MA1999999087251MD1999999+0031ME1315069MW1131REMSYN094AAXX  19034 67861 41480 60302 10187 20170 38725 48506 71396 81943 333 58003 81915 83460 85099;
0238678610999992000031906004-18220+028930FM-12+1282FVGO V0200101N002611050019N0500001N1+02131+01811999999ADDAA124007191AY191061AY261061GA1011+004509089GF105991011011004501041021KA1120N+01841MA1999999087331MD1999999+0001ME1315149MW1031REMSYN100AAXX  19064 67861 11484 50105 10213 20181 38733 48514 60074 70396 81142 333 20184 58000 81815 85099;
0174678610999992000031909004-18220+028930FM-12+1282FVGO V0203601N003612200019N0500001N1+02451+01781999999ADDGA1011+009009089GF103991011011012501031021MA1999999087421MD1999999-0051ME1315239REMSYN082AAXX  19094 67861 42684 33607 10245 20178 38742 48523 81132 333 59005 81830 83099;
0224678610999992000031912004-18220+028930FM-12+1282FVGO V0203501N00211045001CN0500001N1+02651+01741999999ADDAY191061AY221061GA1011+011409099GA2031+012909089GF107991041021012501071031MA1999999087211MD1999999+0101ME1315019MW1171REMSYN094AAXX  19124 67861 42684 73504 10265 20174 38721 48501 71792 84273 333 58010 81938 83843 85460;
0174678610999992000032009004-18220+028930FM-12+1282FVGO V0200601N004110084019N0500001N1+02441+01781999999ADDGA1051+008409089GF107991051011008001001021MA1999999087471MD1999999+0051ME1315309REMSYN082AAXX  20094 67861 42584 70608 10244 20178 38747 48530 85102 333 58005 85828 83099;
0174678610999992000032012004-18220+028930FM-12+1282FVGO V0200301N00311012001CN0500001N1+02701+01801999999ADDGA1011+011409099GF106991051021012501001031MA1999999087171MD1999999-0041ME1315009REMSYN082AAXX  20124 67861 42684 60306 10270 20180 38717 48500 85203 333 59004 81938 85838;
0202678610999992000032015004-18220+028930FM-12+1282FVGO V0200401N002110450019N0500001N1+02451+01811999999ADDAY191031AY281031GA1011+012009099GF107991041021012501031031MA1999999087111MD1999999+0071ME1314929MW1171REMSYN088AAXX  20154 67861 41684 70404 10245 20181 38711 48492 71798 84233 333 58007 81940 84842;
0215678610999992000032018004-18220+028930FM-12+1282FVGO V0200801N003110300019N0300001N1+02081+01731999999ADDAY191061AY281061GA1061+030009019GF107991061001999999071021KA1120M+02761MA1999999087271MD1999999+0051ME1315089MW1021REMSYN088AAXX  20184 67861 41980 70806 10208 20173 38727 48508 70298 86072 333 10276 58005 86460;
0168678610999992000032100004-18220+028930FM-12+1282FVGO V0200901N002612200019N0300001N1+01901+01731999999ADDGA1041+030009079GF104991041001999999031001MA1999999087341MD1999999+0081ME1315159REMSYN076AAXX  21004 67861 42980 40905 10190 20173 38734 48515 84030 333 58008 84360;
0204678610999992000032106004-18220+028930FM-12+1282FVGO V0201001N002612200019N0450001N1+02111+01751999999ADDAA124000791GA1011+004809029GF103991011011004501041011KA1120N+01841MA1999999087481MD1999999+0021ME1315289REMSYN088AAXX  21064 67861 12483 31005 10211 20175 38748 48528 69904 81141 333 20184 58002 81816;
0168678610999992000032109004-18220+028930FM-12+1282FVGO V0203601N005710075019N0500001N1+02251+01711999999ADDGA1071+007509029GF107991071021008001041001MA1999999087531MD1999999+0061ME1315359REMSYN076AAXX  21094 67861 42584 73611 10225 20171 38753 48535 87240 333 58006 87825;
0168678610999992000032112004-18220+028930FM-12+1282FVGO V0200101N003110105019N0500001N1+02501+01671999999ADDGA1051+010509029GF105991051021012501001021MA1999999087341MD1999999+0171ME1315169REMSYN076AAXX  21124 67861 42684 50106 10250 20167 38734 48516 85202 333 58017 85835;
0174678610999992000032115004-18220+028930FM-12+1282FVGO V0203501N001012200019N0500001N1+02551+01581999999ADDGA1011+010509089GF103991011021012501001021MA1999999087251MD1999999+0121ME1315069REMSYN082AAXX  21154 67861 42684 33502 10255 20158 38725 48506 81202 333 58012 81835 83099;
0168678610999992000032203004-18220+028930FM-12+1282FVGO V0201001N002112200019N0300001N1+01871+01691999999ADDGA1021+030009079GF102991021001999999041021MA1999999087461MD1999999+0081ME1315079REMSYN076AAXX  22034 67861 42980 21004 10187 20169 38746 48507 82042 333 58008 82360;
0238678610999992000032206004-18220+028930FM-12+1282FVGO V0200301N003612200019N0500001N1+02051+01741999999ADDAA124000791AY161061AY211061GA1011+004509089GF103991011011004501001021KA1120N+01841MA1999999087551MD1999999+0081ME1315369MW1031REMSYN100AAXX  22064 67861 11484 30307 10205 20174 38755 48536 69904 70361 81102 333 20184 58008 81815 83099;
0168678610999992000032209004-18220+028930FM-12+1282FVGO V0203601N003111050019N0500001N1+02361+01661999999ADDGA1031+009009029GF105991031011012501001021MA1999999087621MD1999999+0091ME1315429REMSYN076AAXX  22094 67861 42684 53606 10236 20166 38762 48542 83102 333 58009 83830;
0168678610999992000032215004-18220+028930FM-12+1282FVGO V0200201N000510120019N0500001N1+02531+01761999999ADDGA1061+012009029GF107991061021012501001021MA1999999087371MD1999999+0141ME1315199REMSYN076AAXX  22154 67861 42684 70201 10253 20176 38737 48519 86202 333 58014 86840;
0221678610999992000032218004-18220+028930FM-12+1282FVGO V0209999C000010120019N0300001N1+02201+01831999999ADDAY181061AY221061GA1011+010509099GF107991061041012501031031KA1120M+02741MA1999999087501MD1999999+0141ME1315319MW1131REMSYN094AAXX  22184 67861 41680 70000 10220 20183 38750 48531 71382 86433 333 10274 58014 81935 86640;
0204678610999992000032306004-18220+028930FM-12+1282FVGO V0200501N004112200019N0500001N1+02071+01661999999ADDAA124000791GA1011+004509029GF101991011011004501041001KA1120N+01781MA1999999087601MD1999999+0051ME1315409REMSYN088AAXX  23064 67861 12484 10508 10207 20166 38760 48540 69904 81140 333 20178 58005 81815;
0168678610999992000032309004-18220+028930FM-12+1282FVGO V0200301N002612200019N0500001N1+02461+01711999999ADDGA1011+009009029GF101991011011012501041001MA1999999087621MD1999999+0001ME1315439REMSYN076AAXX  23094 67861 42684 10305 10246 20171 38762 48543 81140 333 58000 81830;
0203678610999992000032312004-18220+028930FM-12+1282FVGO V0200801N002112200019N0500001N1+02701+01641999999ADDAY101061AY201061GA1041+013209029GF104991999999012501999999MA1999999087341MD1999999-0161ME1315179REMSYN076AAXX  23124 67861 42684 40804 10270 20164 38734 48517 74200 333 59016 84844;EQDQ01+000422PRSWM1
0174678610999992000032315004-18220+028930FM-12+1282FVGO V0200801N001512200019N0500001N1+02601+01611999999ADDGA1011+012009099GF103991031021012501061031MA1999999087241MD1999999-0131ME1315079REMSYN082AAXX  23154 67861 42684 30803 10260 20161 38724 48507 83263 333 59013 81940 83845;
0221678610999992000032318004-18220+028930FM-12+1282FVGO V0201001N00151045001CN0400001N1+02301+01781999999ADDAY111061AY211061GA1011+014409099GF107991011091012501071031KA1120M+02801MA1999999087371MD1999999-0131ME1315209MW1131REMSYN094AAXX  23184 67861 41682 71003 10230 20178 38737 48520 71311 81973 333 10280 59013 81948 86460;
0168678610999992000032403004-18220+028930FM-12+1282FVGO V0201101N004110330019N0400001N1+01851+01641999999ADDGA1061+033009079GF106991061001999999031001MA1999999087431MD1999999-0111ME1315249REMSYN076AAXX  24034 67861 42982 61108 10185 20164 38743 48524 86030 333 59011 86361;
0168678610999992000032412004-18220+028930FM-12+1282FVGO V0200101N002110123019N0500001N1+02641+01601999999ADDGA1061+012309029GF106991061021012501001001MA1999999087601MD1999999+0021ME1315199REMSYN076AAXX  24124 67861 42684 60104 10264 2016/ 3876/ 48519 86200 333 58002 86841;
0174678610999992000032415004-18220+028930FM-12+1282FVGO V0209999C00001045001CN0500001N1+02421+01681999999ADDGA1011+012009099GF105991041021012501061031MA1999999087231MD1999999-0011ME1315059REMSYN082AAXX  24154 67861 42684 50000 10242 20168 38723 48505 84263 333 59001 81940 83360;
0215678610999992000032418004-18220+028930FM-12+1282FVGO V0203601N001012200019N0500001N1+02071+01761999999ADDAY191061AY211061GA1011+012009099GF102991011091012501061031KA1120M+02741MA1999999087351MD1999999-0021ME1315169MW1131REMSYN088AAXX  24184 67861 41684 23602 10207 20176 38735 48516 71391 81963 333 10274 59002 81940;
0202678610999992000032500004-18220+028930FM-12+1282FVGO V0209999C00001105001CN0300001N1+01801+01731999999ADDAY191061AY261061GA1011+009009099GF106991011091012501071031MA1999999087371MD1999999-0041ME1315179MW1131REMSYN088AAXX  25004 67861 41680 60000 10180 20173 38737 48517 71396 81973 333 59004 81930 86460;
0174678610999992000032503004-18220+028930FM-12+1282FVGO V0201001N00151045001CN0300001N1+01881+01771999999ADDGA1021+006009069GF107991021051008001071021MA1999999087431MD1999999-0031ME1315229REMSYN082AAXX  25034 67861 42580 71003 10188 20177 38743 48522 82572 333 59003 82620 87460;
0260678610999992000032506004-18220+028930FM-12+1282FVGO V0200301N003110060019N0500001N1+01941+01861999999ADDAA124002091AY191061AY261061GA1021+002709079GA2031+006009069GF106991051051008001071021KA1120N+01741MA1999999087561MD1999999+0041ME1315369MW1021REMSYN106AAXX  25064 67861 11584 60306 10194 20186 38756 48536 60024 70296 85572 333 20174 58004 82709 83620 85460;
0168678610999992000032509004-18220+028930FM-12+1282FVGO V0200401N002610060019N0500001N1+02361+01831999999ADDGA1051+006009029GF105991051021008001041001MA1999999087561MD1999999+0011ME1315389REMSYN076AAXX  25094 67861 42584 50405 10236 20183 38756 48538 85240 333 58001 85820;
0202678610999992000032512004-18220+028930FM-12+1282FVGO V0203501N00211012001CN0500001N1+02661+01651999999ADDAY191061AY211061GA1011+012009099GF105991051021012501001031MA1999999087281MD1999999-0081ME1315119MW1291REMSYN088AAXX  25124 67861 41684 53504 10266 20165 38728 48511 72991 85203 333 59008 81940 85842;
0202678610999992000032515004-18220+028930FM-12+1282FVGO V0202901N00101045001CN0500001N1+02411+01801999999ADDAY191031AY221031GA1011+012009099GF107991021021012501031031MA1999999087161MD1999999-0071ME1314979MW1021REMSYN088AAXX  25154 67861 41684 72902 10241 20180 38716 48497 70292 82233 333 59007 81940 84360;
0221678610999992000032518004-18220+028930FM-12+1282FVGO V0201701N001012200019N0500001N1+02091+01821999999ADDAY191061AY211061GA1011+012009099GF104991011091012501031031KA1120M+02781MA1999999087321MD1999999-0031ME1315139MW1131REMSYN094AAXX  25184 67861 41684 41702 10209 20182 38732 48513 71391 81933 333 10278 59003 81940 83360;
0202678610999992000032600004-18220+028930FM-12+1282FVGO V0200901N00261002101CN0300001N1+01771+01731999999ADDAY111061AY211061GA1011+009009099GF105991051061002501041031MA1999999087381MD1999999+0011ME1315179MW1131REMSYN088AAXX  26004 67861 41380 50905 10177 20173 38738 48517 71311 85643 333 58001 81930 85709;
0196678610999992000032603004-18220+028930FM-12+1282FVGO V0200801N001010024019N0250001N1+01701+01671999999ADDAY191031AY221031GA1061+002409069GF107991061061002501041021MA1999999087351MD1999999-0081ME1315149MW1021REMSYN082AAXX  26034 67861 41375 70802 10170 20167 38735 48514 70292 86642 333 59008 86708;
0251678610999992000032606004-18220+028930FM-12+1282FVGO V0203601N00211045001CN0500001N1+02011+01801999999ADDAA199000091AY191061AY221061GA1011+004509069GF106991011051004501041021KA1120N+01661MA1999999087521MD1999999-0041ME1315329MW1021REMSYN094AAXX  26064 67861 31484 63604 10201 20180 38752 48532 70292 81542 333 20166 59004 81615 85360;EQDQ01  00002PRCP99
0174678610999992000032615004-18220+028930FM-12+1282FVGO V0203201N000510450019N0500001N1+02641+01671999999ADDGA1011+012009099GF105991041021012501061031MA1999999087101MD1999999-0061ME1314929REMSYN082AAXX  26154 67861 42684 53201 10264 20167 38710 48492 84263 333 59006 81940 84840;
0187678610999992000032618004-18220+028930FM-12+1282FVGO V0209999C000012200019N0500001N1+02091+01821999999ADDGA1011+030009079GF102991011001999999061021KA1120M+02741MA1999999087251MD1999999-0071ME1315069REMSYN082AAXX  26184 67861 42984 20000 10209 20182 38725 48506 81062 333 10274 59007 81360;
0168678610999992000032700004-18220+028930FM-12+1282FVGO V0201201N002112200019N0300001N1+01981+01661999999ADDGA1031+030009079GF103991031001999999031021MA1999999087321MD1999999-0061ME1315149REMSYN076AAXX  27004 67861 42980 31204 10198 20166 38732 48514 83032 333 59006 83360;
0168678610999992000032703004-18220+028930FM-12+1282FVGO V0200901N003112200019N0300001N1+01801+01641999999ADDGA1031+030009079GF104991031001999999031021MA1999999087301MD1999999-0051ME1315109REMSYN076AAXX  27034 67861 42980 40906 10180 20164 38730 48510 83032 333 59005 83360;
0223678610999992000032706004-18220+028930FM-12+1282FVGO V0200701N00211045001CN0400001N1+01921+01741999999ADDAA199000091GA1041+002709079GF107991041061002501031021KA1120N+01721MA1999999087541MD1999999+0021ME1315339REMSYN088AAXX  27064 67861 32382 70704 10192 20174 38754 48533 84632 333 20172 58002 84709 85360;EQDQ01  00002PRCP99
0174678610999992000032709004-18220+028930FM-12+1282FVGO V0200101N00261045001CN0400001N1+02251+01721999999ADDGA1031+006609089GF106991031011008001031021MA1999999087531MD1999999+0051ME1315359REMSYN082AAXX  27094 67861 42582 60105 10225 20172 38753 48535 83132 333 58005 83822 83360;
0174678610999992000032712004-18220+028930FM-12+1282FVGO V0200201N00211045001CN0500001N1+02491+01691999999ADDGA1041+010509089GF107991041021012501031021MA1999999087311MD1999999+0041ME1315139REMSYN082AAXX  27124 67861 42684 70204 10249 20169 38731 48513 84232 333 58004 84835 83360;
0224678610999992000032715004-18220+028930FM-12+1282FVGO V0203601N001010450019N0500001N1+02651+01641999999ADDAY121031AY221031GA1011+011409099GA2031+013509089GF107991031021012501031031MA1999999087161MD1999999+0061ME1314999MW1151REMSYN094AAXX  27154 67861 41684 73602 10265 20164 38716 48499 71522 83233 333 58006 81938 83845 85099;
0221678610999992000032718004-18220+028930FM-12+1282FVGO V0200701N002612200019N0300001N1+02201+01401999999ADDAY111061AY211061GA1011+010509099GF103991011091012501061031KA1120M+02701MA1999999087251MD1999999+0001ME1315079MW1131REMSYN094AAXX  27184 67861 41680 30705 10220 20140 38725 48507 71311 81963 333 10270 58000 81935 83099;
0202678610999992000032803004-18220+028930FM-12+1282FVGO V0200901N002110027019N0150001N1+01811+01721999999ADDAY161031AY251031GA1051+002709079GF107991051061002501071999MA1999999087311MD1999999+0011ME1315109MW1501REMSYN088AAXX  28034 67861 41365 70904 10181 20172 38731 48510 75065 8567/ 333 58001 85709 87460;
0260678610999992000032806004-18220+028930FM-12+1282FVGO V0200701N00151045001CN0300001N1+01941+01811999999ADDAA124000791AY161061AY241061GA1011+002709079GA2031+003009069GF107991031051004501071001KA1120N+01771MA1999999087821MD1999999-0021ME1315319MW1581REMSYN106AAXX  28064 67861 11480 70703 10194 20181 38782 48531 69904 75864 83570 333 20177 59002 81709 83610 85460;
0202678610999992000032809004-18220+028930FM-12+1282FVGO V0200201N00261045001CN0300001N1+02381+01771999999ADDAY161031AY251031GA1041+007809089GF107991041021008001031021MA1999999087851MD1999999+0021ME1315379MW1031REMSYN088AAXX  28094 67861 41580 70205 10238 20177 38785 48537 70365 84232 333 58002 84826 86360;
0224678610999992000032812004-18220+028930FM-12+1282FVGO V0200301N00211045001CN0500001N1+02651+01661999999ADDAY161061AY251061GA1011+012009099GA2041+012009089GF107991041021012501031031MA1999999087301MD1999999-0011ME1315139MW1021REMSYN094AAXX  28124 67861 41684 70304 10265 20166 38730 48513 70265 84233 333 59001 81940 84840 86360;
0202678610999992000032815004-18220+028930FM-12+1282FVGO V0209999C000010450019N0500001N1+02481+01751999999ADDAY191031AY221031GA1011+012009099GF107991031021012501071031MA1999999087261MD1999999+0101ME1315089MW1291REMSYN088AAXX  28154 67861 41684 70000 10248 20175 38726 48508 72992 83273 333 58010 81940 83843;
0215678610999992000032818004-18220+028930FM-12+1282FVGO V0209999C000012200019N0500001N1+02051+01831999999ADDAY191061AY211061GA1011+012009099GF103991011091012501031031KA1120M+02791MA1999999087411MD1999999+0161ME1315229MW1131REMSYN088AAXX  28184 67861 41684 30000 10205 20183 38741 48522 71391 81933 333 10279 58016 81940;
0202678610999992000032900004-18220+028930FM-12+1282FVGO V0200301N002612200019N0300001N1+02001+01611999999ADDAY101061AY201061GA1011+006009099GF103991011091008001041031MA1999999087461MD1999999+0161ME1315279MW1131REMSYN088AAXX  29004 67861 41580 30305 10200 20161 38746 48527 71300 81943 333 58016 81920 83099;
0203678610999992000032903004-18220+028930FM-12+1282FVGO V0200901N002612200019N0300001N1+01861+01771999999ADDGA1011+027009079GF101991011001004501041021MA1999999999999MD1999999+0131ME1315189REMSYN076AAXX  29034 67861 41480 10905 10186 20177 38950 48518 81042 333 58013 81359;EQDQ01+089503APOSP Q02 089503APOSP 
0245678610999992000032906004-18220+028930FM-12+1282FVGO V0203001N99999045001CN0400001N1+02051+01791999999ADDAA124000791GA1021+004509069GF106991021051004501041021KA1120N+01791MA1999999087592MD1999999+0071ME1315399REMSYN094AAXX  29064 67861 12482 68080 10205 20179 38759 48539 69904 82542 333 20179 58007 82615 85360;EQDQ01+009251WOSPD Q02+087593APOSP 
0168678610999992000032909004-18220+028930FM-12+1282FVGO V0201301N004110090019N0500001N1+02451+01751999999ADDGA1051+009009029GF105991051021012501041001MA1999999087681MD1999999+0131ME1315499REMSYN076AAXX  29094 67861 42684 51308 10245 20175 38768 48549 85240 333 58013 85830;
0174678610999992000032912004-18220+028930FM-12+1282FVGO V0203501N00211012001CN0500001N1+02701+01551999999ADDGA1011+013509099GF105991051021012501001031MA1999999087461MD1999999+0161ME1315299REMSYN082AAXX  29124 67861 42684 53504 10270 20155 38746 48529 85203 333 58016 81945 85845;
0224678610999992000032915004-18220+028930FM-12+1282FVGO V0200201N000510450019N0500001N1+02511+01661999999ADDAY121031AY221031GA1011+012009099GA2031+013509089GF107991031021012501071031MA1999999087441MD1999999+0181ME1315259MW1151REMSYN094AAXX  29154 67861 41684 70201 10251 20166 38744 48525 71522 83273 333 58018 81940 83845 85099;
0187678610999992000032918004-18220+028930FM-12+1282FVGO V0209999C000019999999N0300001N1+02301+01721999999ADDGA1031+030009079GF105991031001999999061021KA1120M+02841MA1999999087481MD1999999+0071ME1315309REMSYN082AAXX  29184 67861 42980 50000 10230 20172 38748 48530 83062 333 10284 58007 83360;
0168678610999992000033003004-18220+028930FM-12+1282FVGO V0200701N003110300019N0250001N1+02041+01701999999ADDGA1071+030009019GF107991071001999999071999MA1999999087821MD1999999+0021ME1315339REMSYN076AAXX  30034 67861 42975 70706 10204 20170 38782 48533 8707/ 333 58002 87460;
0245678610999992000033006004-18220+028930FM-12+1282FVGO V0200201N00211045001CN0400001N1+02201+01761999999ADDAA199000091GA1011+006009089GA2031+030009039GF107991011011008001031021KA1120N+01931MA1999999087621MD1999999+0031ME1315439REMSYN094AAXX  30064 67861 32582 70204 10220 20176 38762 48543 81132 333 20193 58003 81820 83360 86099;EQDQ01  00002PRCP99
0174678610999992000033009004-18220+028930FM-12+1282FVGO V0200201N002110450019N0500001N1+02521+01731999999ADDGA1041+007209089GF106991041021012501041021MA1999999087661MD1999999-0021ME1315479REMSYN082AAXX  30094 67861 42684 60204 10252 20173 38766 48547 84242 333 59002 84824 84099;
0174678610999992000033012004-18220+028930FM-12+1282FVGO V0200501N002610450019N0500001N1+02701+01561999999ADDGA1011+012009099GF106991041021012501031031MA1999999087401MD1999999-0061ME1315239REMSYN082AAXX  30124 67861 42684 60505 10270 20156 38740 48523 84233 333 59006 81940 84848;
0202678610999992000033015004-18220+028930FM-12+1282FVGO V0209999C000011050019N0500001N1+02671+01591999999ADDAY111031AY211031GA1011+012009099GF106991021021012501061031MA1999999087241MD1999999-0201ME1315079MW1151REMSYN088AAXX  30154 67861 41684 60000 10267 20159 38724 48507 71511 82263 333 59020 81940 85099;
0221678610999992000033018004-18220+028930FM-12+1282FVGO V0209999C000012200019N0500001N1+02151+01861999999ADDAY111061AY211061GA1011+012009099GF104991011091012501061031KA1120M+02801MA1999999087341MD1999999-0141ME1315169MW1131REMSYN094AAXX  30184 67861 41684 40000 10215 20186 38734 48516 71311 81963 333 10280 59014 81940 84099;
0196678610999992000033100004-18220+028930FM-12+1282FVGO V0200901N001012200019N0300001N1+01941+01681999999ADDAY101061AY201061GA1011+009009099GF103991011091012501031031MA1999999087361MD1999999-0151ME1315179MW1131REMSYN082AAXX  31004 67861 41680 30902 10194 20168 38736 48517 71300 81933 333 59015 81930;
0196678610999992000033103004-18220+028930FM-12+1282FVGO V0201001N002112200019N0300001N1+01861+01711999999ADDAY101031AY201031GA1011+009009099GF102991011091012501041031MA1999999087341MD1999999-0181ME1315159MW1131REMSYN082AAXX  31034 67861 41680 21004 10186 20171 38734 48515 71300 81943 333 59018 81930;
0217678610999992000033106004-18220+028930FM-12+1282FVGO V0200801N002612200019N0450001N1+02141+01751999999ADDAA199000091GA1011+030009079GF102991011001999999041021KA1120N+01751MA1999999087481MD1999999-0141ME1315299REMSYN082AAXX  31064 67861 32983 20805 10214 20175 38748 48529 81042 333 20175 59014 81360;EQDQ01  00002PRCP99
0168678610999992000033109004-18220+028930FM-12+1282FVGO V0201001N001510090019N0450001N1+02451+01761999999ADDGA1051+009009029GF105991051021012501041001MA1999999087571MD1999999-0091ME1315389REMSYN076AAXX  31094 67861 42683 51003 10245 20176 38757 48538 85240 333 59009 85830;
0202678610999992000033112004-18220+028930FM-12+1282FVGO V0209999C00001012001CN0300001N1+02251+01961999999ADDAY191061AY281061GA1011+009009099GF107991061021012501071031MA1999999087341MD1999999-0061ME1315179MW1951REMSYN088AAXX  31124 67861 41680 70000 10225 20196 38734 48517 79598 86273 333 59006 81930 86835;
0202678610999992000033115004-18220+028930FM-12+1282FVGO V0209999C00001012001CN0400001N1+02211+01911999999ADDAY191031AY281031GA1011+009009099GF107991051021012501071031MA1999999087211MD1999999-0031ME1315019MW1291REMSYN088AAXX  31154 67861 41682 70000 10221 20191 38721 48501 72998 85273 333 59003 81930 85835;
0221678610999992000033118004-18220+028930FM-12+1282FVGO V0209999C000011050019N0300001N1+02001+01631999999ADDAY191061AY281061GA1011+009009099GF106991011091012501061031KA1120M+02651MA1999999087361MD1999999+0021ME1315169MW1131REMSYN094AAXX  31184 67861 41680 60000 10200 20163 38736 48516 71398 81963 333 10265 58002 81930 86099;
0202678610999992000040100004-18220+028930FM-12+1282FVGO V0200301N001511050019N0280001N1+01931+01741999999ADDAY191061AY221061GA1011+006009099GF105991011091008001071031MA1999999087321MD1999999-0041ME1315139MW1171REMSYN088AAXX  01004 67861 41578 50303 10193 20174 38732 48513 71792 81973 333 59004 81920 85099;
0224678610999992000040103004-18220+028930FM-12+1282FVGO V0200501N002610450019N0250001N1+01801+01641999999ADDAY191031AY261031GA1031+002409079GA2011+006009099GF107991031061002501071031MA1999999087411MD1999999+0071ME1315199MW1601REMSYN094AAXX  01034 67861 41375 70505 10180 20164 38741 48519 76096 83673 333 58007 81920 83708 87460;
0238678610999992000040106004-18220+028930FM-12+1282FVGO V0200301N007210024019N0250001N1+01701+01621999999ADDAA124007191AY191061AY261061GA1051+002409079GF108991051061002501071999KA1120N+01651MA1999999087631MD1999999+0151ME1315409MW1601REMSYN100AAXX  01064 67861 11375 80314 10170 20162 38763 48540 60074 76096 8567/ 333 20165 58015 85708 88460;
0202678610999992000040109004-18220+028930FM-12+1282FVGO V0203601N00261045001CN0450001N1+01931+01661999999ADDAY161031AY221031GA1011+004509089GF107991011011004501071001MA1999999087681MD1999999+0111ME1315449MW1211REMSYN088AAXX  01094 67861 41483 73605 10193 20166 38768 48544 72162 81170 333 58011 81815 87460;
0202678610999992000040112004-18220+028930FM-12+1282FVGO V0200401N00361045001CN0500001N1+02201+01351999999ADDAY161061AY221061GA1011+010509089GF107991011011012501071001MA1999999087471MD1999999+0131ME1315269MW1021REMSYN088AAXX  01124 67861 41684 70407 10220 20135 38747 48526 70262 81170 333 58013 81835 87460;
0174678610999992000040115004-18220+028930FM-12+1282FVGO V0200501N002111050019N0500001N1+02401+01551999999ADDGA1011+010509099GF105991011091012501061031MA1999999087401MD1999999+0191ME1315219REMSYN082AAXX  01154 67861 42684 50504 10240 20155 38740 48521 81963 333 58019 81935 85099;
0221678610999992000040118004-18220+028930FM-12+1282FVGO V0200301N005111050019N0300001N1+02001+01691999999ADDAY121061AY221061GA1011+010509099GF105991011091012501061031KA1120M+02491MA1999999087471MD1999999+0111ME1315259MW1131REMSYN094AAXX  01184 67861 41680 50310 10200 20169 38747 48525 71322 81963 333 10249 58011 81935 85099;
0174678610999992000040200004-18220+028930FM-12+1282FVGO V0201501N006712200019N0300001N1+01741+01451999999ADDGA1011+030009039GF103991011001999999041021MA1999999087491MD1999999+0171ME1315289REMSYN082AAXX  02004 67861 42980 31513 10174 20145 38749 48528 81042 333 58017 81360 83099;
0174678610999992000040203004-18220+028930FM-12+1282FVGO V0200701N005112200019N0300001N1+01741+01441999999ADDGA1021+030009039GF104991021001999999041021MA1999999087511MD1999999+0101ME1315309REMSYN082AAXX  02034 67861 42980 40710 10174 20144 38751 48530 82042 333 58010 82360 83099;
0204678610999992000040206004-18220+028930FM-12+1282FVGO V0200401N004612200019N0450001N1+01991+01521999999ADDAA124000791GA1011+007509059GF101991011051008001041001KA1120N+01701MA1999999087631MD1999999+0001ME1315439REMSYN088AAXX  02064 67861 12583 10409 10199 20152 38763 48543 69904 81540 333 20170 58000 81625;
0168678610999992000040209004-18220+028930FM-12+1282FVGO V0200401N003112200019N0500001N1+02401+01641999999ADDGA1031+009609029GF103991031011012501001001MA1999999087741MD1999999+0061ME1315549REMSYN076AAXX  02094 67861 42684 30406 10240 20164 38774 48554 83100 333 58006 83832;
0168678610999992000040212004-18220+028930FM-12+1282FVGO V0200601N003612200019N0500001N1+02601+01601999999ADDGA1041+012009029GF104991041021012501001001MA1999999087591MD1999999+0121ME1315419REMSYN076AAXX  02124 67861 42684 40607 10260 20160 38759 48541 84200 333 58012 84840;
0168678610999992000040215004-18220+028930FM-12+1282FVGO V0200201N002112200019N0500001N1+02551+01651999999ADDGA1011+013509099GF102991021021012501001031MA1999999087451MD1999999+0051ME1315279REMSYN076AAXX  02154 67861 42684 20204 10255 20165 38745 48527 82203 333 58005 81945;
0243678610999992000040218004-18220+028930FM-12+1282FVGO V0200301N00211045001CN0300001N1+02011+01811999999ADDAY191061AY261061GA1011+013509099GA2031+030009049GF107991021021012501071031KA1120M+02771MA1999999087601MD1999999+0131ME1315409MW1601REMSYN100AAXX  02184 67861 41680 70304 10201 20181 38760 48540 76096 82273 333 10277 58013 81945 83460 85099;
0196678610999992000040300004-18220+028930FM-12+1282FVGO V0200701N004110450019N0300001N1+01701+01621999999ADDAY191061AY261061GA1031+006009059GF105991031051008001071021MA1999999087471MD1999999-0021ME1315249MW1021REMSYN082AAXX  03004 67861 41580 50708 10170 20162 38747 48524 70296 83572 333 59002 83620;
0196678610999992000040303004-18220+028930FM-12+1282FVGO V0200501N001510060019N0250001N1+01721+01571999999ADDAY191031AY221031GA1071+006009059GF107991071051008001999999MA1999999087941MD1999999-0021ME1315269MW1021REMSYN082AAXX  03034 67861 41575 70503 10172 20157 38794 48526 70292 875// 333 59002 87620;
0232678610999992000040306004-18220+028930FM-12+1282FVGO V0200301N002612200019N0400001N1+02001+01561999999ADDAA124004191AY191061AY221061GA1021+030009079GF102991999999999999999999KA1120N+01651MA1999999087701MD1999999-0071ME1315499MW1021REMSYN094AAXX  03064 67861 11982 20305 10200 20156 38770 48549 60044 70292 92080 333 20165 59007 82360;
0168678610999992000040309004-18220+028930FM-12+1282FVGO V0200401N002612200019N0500001N1+02381+01681999999ADDGA1011+009009029GF101991011011012501001001MA1999999087671MD1999999-0071ME1315479REMSYN076AAXX  03094 67861 42684 10405 10238 20168 38767 48547 81100 333 59007 81830;
0168678610999992000040312004-18220+028930FM-12+1282FVGO V0200801N001510096019N0500001N1+02551+01671999999ADDGA1061+009609029GF106991061021012501001001MA1999999087491MD1999999-0101ME1315319REMSYN076AAXX  03124 67861 42684 60803 10255 20167 38749 48531 86200 333 59010 86832;
0202678610999992000040315004-18220+028930FM-12+1282FVGO V0209999C000012200019N0500001N1+02461+01831999999ADDAY111031AY211031GA1011+012009099GF104991011021012501071031MA1999999087391MD1999999-0061ME1315219MW1151REMSYN088AAXX  03154 67861 41684 40000 10246 20183 38739 48521 71511 81273 333 59006 81940 83460;
0215678610999992000040318004-18220+028930FM-12+1282FVGO V0209999C000012200019N0500001N1+02011+01771999999ADDAY111061AY211061GA1011+012009099GF102991011091012501031031KA1120M+02741MA1999999087451MD1999999-0151ME1315259MW1131REMSYN088AAXX  03184 67861 41684 20000 10201 20177 38745 48525 71311 81933 333 10274 59015 81940;
0156678610999992000040400004-18220+028930FM-12+1282FVGO V0201201N002112200019N0300001N1+01951+01541999999ADDGA1001+999999999GF100991001001999999001001MA1999999087411MD1999999-0061ME1315229REMSYN064AAXX  04004 67861 42980 01204 10195 20154 38741 48522 333 59006;
0156678610999992000040403004-18220+028930FM-12+1282FVGO V0201001N001512200019N0300001N1+01811+01611999999ADDGA1001+999999999GF100991001001999999001001MA1999999087421MD1999999-0071ME1315229REMSYN064AAXX  04034 67861 42980 01003 10181 20161 38742 48522 333 59007;
0217678610999992000040406004-18220+028930FM-12+1282FVGO V0200501N001012200019N0500001N1+02201+01741999999ADDAA199000091GA1011+999999019GF101991001001999999001011KA1120N+01701MA1999999087511MD1999999-0191ME1315329REMSYN082AAXX  04064 67861 32984 10502 10220 20174 38751 48532 80001 333 20170 59019 81099;EQDQ01  00002PRCP99
0168678610999992000040409004-18220+028930FM-12+1282FVGO V0202701N000512200019N0500001N1+02651+01681999999ADDGA1031+012009029GF103991031011012501001001MA1999999087561MD1999999-0111ME1315399REMSYN076AAXX  04094 67861 42684 32701 10265 20168 38756 48539 83100 333 59011 83840;
0125678610999992000040412004-18220+028930FM-12+1282FVGO V0203501N001519999999N0500001N1+02771+99999999999ADDGF105991999999012501999999REMSYN087AAXX  04124 67861 41684 53503 10277 2017 38728 48512 71511 84273 333 59021 81940 84845;
0224678610999992000040415004-18220+028930FM-12+1282FVGO V0203301N00051045001CN0400001N1+02131+01631999999ADDAY191031AY261031GA1011+012009099GA2031+013509089GF107991031021012501071031MA1999999087221MD1999999-0171ME1315019MW1291REMSYN094AAXX  04154 67861 41682 73301 10213 20163 38722 48501 72996 83273 333 59017 81940 83845 85460;
0201678610999992000040418004-18220+028930FM-12+1282FVGO V0209999C000011050019N0300001N1+01981+01801999999ADDAY191061AY261061GA1011+012009099GF105991011091012501071031KA1120M+02861MA1999999087301ME1315129MW1171REMSYN088AAXX  04184 67861 41680 50000 10198 20180 38730 48512 71796 81973 333 10286 81940 83460;
0168678610999992000040503004-18220+028930FM-12+1282FVGO V0200901N000512200019N0300001N1+01801+01561999999ADDGA1031+006009059GF103991031051008001041001MA1999999087281MD1999999-0141ME1315089REMSYN076AAXX  05034 67861 42580 30901 10180 20156 38728 48508 83540 333 59014 83620;
0210678610999992000040506004-18220+028930FM-12+1282FVGO V0203401N00101045001CN0300001N1+01931+01721999999ADDAA124019191GA1031+002709079GF107991031061002501041001KA1120N+01711MA1999999087461MD1999999-0051ME1315259REMSYN094AAXX  05064 67861 12380 73402 10193 20172 38746 48525 60194 83640 333 20171 59005 83709 86620;
0168678610999992000040509004-18220+028930FM-12+1282FVGO V0200201N001510078019N0500001N1+02401+01791999999ADDGA1061+007809029GF106991061011008001001001MA1999999087441MD1999999-0121ME1315279REMSYN076AAXX  05094 67861 42584 60203 10240 20179 38744 48527 86100 333 59012 86826;
0202678610999992000040512004-18220+028930FM-12+1282FVGO V0200801N002110120019N0500001N1+02571+01801999999ADDAY191061AY221061GA1011+999999099GF105991051021012501001031MA1999999087201MD1999999-0051ME1315039MW1021REMSYN088AAXX  05124 67861 41684 50804 10257 20180 38720 48503 70292 85203 333 59005 819// 85848;
0224678610999992000040515004-18220+028930FM-12+1282FVGO V0203301N00151010501CN0400001N1+01861+01611999999ADDAY191031AY281031GA1021+009009099GA2031+010509089GF107991021091012501071031MA1999999087201MD1999999-0021ME1314999MW1951REMSYN094AAXX  05154 67861 41682 73303 10186 20161 38720 48499 79598 82973 333 59002 82930 83835 86460;
0221678610999992000040518004-18220+028930FM-12+1282FVGO V0200901N003112200019N0300001N1+01831+01711999999ADDAY191061AY281061GA1011+009009099GF104991011091012501071031KA1120M+02721MA1999999087311MD1999999+0011ME1315129MW1171REMSYN094AAXX  05184 67861 41680 40906 10183 20171 38731 48512 71798 81973 333 10272 58001 81930 84460;
0196678610999992000040600004-18220+028930FM-12+1282FVGO V0200901N003112200019N0400001N1+01711+01601999999ADDAY191061AY201061GA1011+999999019GF101991011001999999041021MA1999999087301MD1999999+0011ME1315109MW1021REMSYN082AAXX  06004 67861 41982 10906 10171 20160 38730 48510 70290 81042 333 58001 81099;
0174678610999992000040603004-18220+028930FM-12+1282FVGO V0201001N002610027019N0300001N1+01701+01591999999ADDGA1051+002709079GF106991051061002501041021MA1999999087301MD1999999+0021ME1315089REMSYN082AAXX  06034 67861 42380 61005 10170 20159 38730 48508 85642 333 58002 85709 83360;
0210678610999992000040606004-18220+028930FM-12+1282FVGO V0201201N00311045001CN0500001N1+01811+01641999999ADDAA124007191GA1031+004509069GF106991031051004501031021KA1120N+01621MA1999999087441MD1999999-0021ME1315229REMSYN094AAXX  06064 67861 12484 61206 10181 20164 38744 48522 60074 83532 333 20162 59002 83615 83360;
0168678610999992000040609004-18220+028930FM-12+1282FVGO V0200901N001012200019N0500001N1+02371+01691999999ADDGA1021+008109029GF102991021011012501031021MA1999999087541MD1999999+0101ME1315379REMSYN076AAXX  06094 67861 42684 20902 10237 20169 38754 48537 82132 333 58010 82827;
0202678610999992000040612004-18220+028930FM-12+1282FVGO V0201001N00151012001CN0500001N1+02401+01731999999ADDAY181061AY211061GA1011+007509099GF106991051021012501001031MA1999999087331MD1999999+0131ME1315149MW1151REMSYN088AAXX  06124 67861 41684 61003 10240 20173 38733 48514 71581 85203 333 58013 81925 85830;
0224678610999992000040615004-18220+028930FM-12+1282FVGO V0209999C000010450019N0500001N1+02291+01641999999ADDAY191031AY281031GA1011+007509099GA2031+009009089GF107991031021012501071031MA1999999087261MD1999999+0061ME1315069MW1171REMSYN094AAXX  06154 67861 41684 70000 10229 20164 38726 48506 71798 83273 333 58006 81925 83830 85099;
0215678610999992000040618004-18220+028930FM-12+1282FVGO V0209999C000012200019N0400001N1+01951+01721999999ADDAY191061AY211061GA1011+030009079GF101991011001999999061001KA1120M+02601MA1999999087371MD1999999+0061ME1315179MW1011REMSYN088AAXX  06184 67861 41982 10000 10195 20172 38737 48517 70191 81060 333 10260 58006 81360;
0168678610999992000040703004-18220+028930FM-12+1282FVGO V0200301N006712200019N0300001N1+01601+01501999999ADDGA1011+006009059GF101991011051008001001001MA1999999087371MD1999999+0071ME1315169REMSYN076AAXX  07034 67861 42580 10313 10160 20150 38737 48516 81500 333 58007 81620;
0204678610999992000040706004-18220+028930FM-12+1282FVGO V0200501N003610027019N0500001N1+01721+01461999999ADDAA124000791GA1071+002709069GF107991071061002501041001KA1120N+01551MA1999999087521MD1999999+0081ME1315289REMSYN088AAXX  07064 67861 12384 70507 10172 20146 38752 48528 69904 87640 333 20155 58008 87709;
0168678610999992000040709004-18220+028930FM-12+1282FVGO V0201201N002110060019N0500001N1+02061+01631999999ADDGA1071+006009059GF107991071051008001999999MA1999999087611MD1999999+0071ME1315419REMSYN076AAXX  07094 67861 42584 71204 10206 20163 38761 48541 875// 333 58007 87620;
0168678610999992000040712004-18220+028930FM-12+1282FVGO V0200701N001010096019N0500001N1+02381+01611999999ADDGA1051+009609029GF105991051021012501001011MA1999999087441MD1999999+0111ME1315259REMSYN076AAXX  07124 67861 42684 50702 10238 20161 38744 48525 85201 333 58011 85832;
0168678610999992000040715004-18220+028930FM-12+1282FVGO V0201301N000512200019N0500001N1+02471+01591999999ADDGA1011+009009099GF102991021021012501001031MA1999999087381MD1999999+0121ME1315209REMSYN076AAXX  07154 67861 42684 21301 10247 20159 38738 48520 82203 333 58012 81930;
0187678610999992000040718004-18220+028930FM-12+1282FVGO V0209999C000012200019N0500001N1+01941+01641999999ADDGA1011+999999019GF101991001001999999001021KA1120M+02591MA1999999087471MD1999999+0101ME1315269REMSYN082AAXX  07184 67861 42984 10000 10194 20164 38747 48526 80002 333 10259 58010 81099;
0168678610999992000040800004-18220+028930FM-12+1282FVGO V0201201N005112200019N0400001N1+01571+01391999999ADDGA1011+999999019GF101991001001999999001021MA1999999087511MD1999999+0091ME1315299REMSYN076AAXX  08004 67861 42982 11210 10157 20139 38751 48529 80002 333 58009 81099;
0168678610999992000040803004-18220+028930FM-12+1282FVGO V0201301N004112200019N0400001N1+01441+01341999999ADDGA1011+999999019GF101991001001999999001021MA1999999087461MD1999999+0091ME1315239REMSYN076AAXX  08034 67861 42982 11308 10144 20134 38746 48523 80002 333 58009 81099;
0217678610999992000040806004-18220+028930FM-12+1282FVGO V0201301N005112200019N0450001N1+01661+01241999999ADDAA199000091GA1011+004509059GF101991011051004501041021KA1120N+01391MA1999999087601MD1999999+0081ME1315379REMSYN082AAXX  08064 67861 32483 11310 10166 20124 38760 48537 81542 333 20139 58008 81615;EQDQ01  00002PRCP99
0168678610999992000040809004-18220+028930FM-12+1282FVGO V0200901N002112200019N0500001N1+02171+99999999999ADDGA1011+010209029GF101991011011012501031001MA1999999087641MD1999999+0031ME1315439REMSYN076AAXX  08094 67861 42684 10904 10217 20237 38764 48543 81130 333 58003 81834;
0168678610999992000040812004-18220+028930FM-12+1282FVGO V0201201N002610147019N0500001N1+02501+01341999999ADDGA1051+014709029GF105991051021012501001001MA1999999087441MD1999999+0001ME1315259REMSYN076AAXX  08124 67861 42684 51205 10250 20134 38744 48525 85200 333 58000 85849;
0168678610999992000040815004-18220+028930FM-12+1282FVGO V0200801N000510135019N0500001N1+02341+01491999999ADDGA1051+013509029GF105991051021012501001001MA1999999087381MD1999999+0001ME1315189REMSYN076AAXX  08154 67861 42684 50801 10234 20149 38738 48518 85200 333 58000 85845;
0187678610999992000040818004-18220+028930FM-12+1282FVGO V0209999C000012200019N0500001N1+01891+01541999999ADDGA1011+030009079GF101991011001999999061001KA1120M+02601MA1999999087421MD1999999-0051ME1315229REMSYN082AAXX  08184 67861 42984 10000 10189 20154 38742 48522 81060 333 10260 59005 81360;
0156678610999992000040900004-18220+028930FM-12+1282FVGO V0201101N003112200019N0300001N1+01601+01171999999ADDGA1001+999999999GF100991001001999999001001MA1999999087431MD1999999-0081ME1315219REMSYN064AAXX  09004 67861 42980 01106 10160 20117 38743 48521 333 59008;
0156678610999992000040903004-18220+028930FM-12+1282FVGO V0201001N002612200019N0300001N1+01451+01181999999ADDGA1001+999999999GF100991001001999999001001MA1999999087461MD1999999+0001ME1315239REMSYN064AAXX  09034 67861 42980 01005 10145 20118 38746 48523 333 58000;
0217678610999992000040906004-18220+028930FM-12+1282FVGO V0201201N004112200019N0400001N1+01791+01161999999ADDAA199000091GA1011+030009079GF101991011001999999041001KA1120N+01421MA1999999087621MD1999999+0021ME1315409REMSYN082AAXX  09064 67861 32982 11208 10179 20116 38762 48540 81040 333 20142 58002 81360;EQDQ01  00002PRCP99
0168678610999992000040909004-18220+028930FM-12+1282FVGO V0201001N003112200019N0400001N1+02231+01211999999ADDGA1011+012909029GF101991011011012501041001MA1999999087611MD1999999-0031ME1315409REMSYN076AAXX  09094 67861 42682 11006 10223 20121 38761 48540 81140 333 59003 81843;
0168678610999992000040912004-18220+028930FM-12+1282FVGO V0200501N001510147019N0500001N1+02301+01341999999ADDGA1061+014709029GF106991061021012501001001MA1999999087431MD1999999-0011ME1315239REMSYN076AAXX  09124 67861 42684 60503 10230 20134 38743 48523 86200 333 59001 86849;
0175678610999992000040918004-18220+028930FM-12+1282FVGO V0209999C000012200019N0500001N1+01851+01241999999ADDGA1001+999999999GF100991001001999999001001KA1120M+02631MA1999999087481MD1999999+0061ME1315289REMSYN070AAXX  09184 67861 42984 00000 10185 20124 38748 48528 333 10263 58006;
0168678610999992000041003004-18220+028930FM-12+1282FVGO V0201201N003612200019N0300001N1+01531+01131999999ADDGA1011+030009079GF101991011001999999041001MA1999999087441MD1999999-0021ME1315219REMSYN076AAXX  10034 67861 42980 11207 10153 20113 38744 48521 81040 333 59002 81360;
0223678610999992000041006004-18220+028930FM-12+1282FVGO V0201101N00461045001CN0450001N1+01731+01151999999ADDAA199000091GA1041+006009069GF106991041051008001031001KA1120N+01481MA1999999087631MD1999999+0011ME1315409REMSYN088AAXX  10064 67861 32583 61109 10173 20115 38763 48540 84530 333 20148 58001 84620 83360;EQDQ01  00002PRCP99
0080678610999992000041009004-18220+028930FM-12+1282FVGO V0201501N002619999999N0500001N1+02211+01401999999ADDGF106991999999012501999999REMSYN042AAXX  10094 67861 42684 61505 10221 20140;
0174678610999992000041012004-18220+028930FM-12+1282FVGO V0201801N00101045001CN0500001N1+02401+01461999999ADDGA1011+012009089GF107991011011012501031001MA1999999087531MD1999999+0101ME1315349REMSYN082AAXX  10124 67861 42684 71802 10240 20146 38753 48534 81130 333 58010 81840 86360;
0168678610999992000041015004-18220+028930FM-12+1282FVGO V0209999C000012200019N0500001N1+02411+01451999999ADDGA1011+013509029GF101991011011012501061001MA1999999087471MD1999999+0101ME1315289REMSYN076AAXX  10154 67861 42684 10000 10241 20145 38747 48528 81160 333 58010 81845;
0187678610999992000041018004-18220+028930FM-12+1282FVGO V0209999C000012200019N0350001N1+01971+01461999999ADDGA1011+030009079GF101991011001999999061001KA1120M+02571MA1999999087571MD1999999+0091ME1315369REMSYN082AAXX  10184 67861 42981 10000 10197 20146 38757 48536 81060 333 10257 58009 81360;
0168678610999992000041100004-18220+028930FM-12+1282FVGO V0200801N002112200019N0300001N1+01801+01391999999ADDGA1041+004509059GF104991041051004501001001MA1999999087491MD1999999+0111ME1315279REMSYN076AAXX  11004 67861 42480 40804 10180 20139 38749 48527 84500 333 58011 84615;
0168678610999992000041103004-18220+028930FM-12+1282FVGO V0201001N004610045019N0300001N1+01761+01401999999ADDGA1061+004509059GF106991061051004501001001MA1999999087501MD1999999+0061ME1315279REMSYN076AAXX  11034 67861 42480 61009 10176 20140 38750 48527 86500 333 58006 86615;
0217678610999992000041106004-18220+028930FM-12+1282FVGO V0201801N005110045019N0450001N1+01831+01461999999ADDAA199000091GA1071+004509059GF107991071051004501041999KA1120N+01711MA1999999087601MD1999999-0031ME1315389REMSYN082AAXX  11064 67861 32483 71810 10183 20146 38760 48538 8754/ 333 20171 59003 87615;EQDQ01  00002PRCP99
0168678610999992000041109004-18220+028930FM-12+1282FVGO V0201101N003112200019N0500001N1+02411+01511999999ADDGA1031+011409029GF103991031011012501041001MA1999999087621MD1999999-0071ME1315429REMSYN076AAXX  11094 67861 42684 31106 10241 20151 38762 48542 83140 333 59007 83838;
0168678610999992000041112004-18220+028930FM-12+1282FVGO V0200601N002110114019N0500001N1+02421+01571999999ADDGA1061+011409029GF106991061021012501001001MA1999999087421MD1999999-0111ME1315239REMSYN076AAXX  11124 67861 42684 60604 10242 20157 38742 48523 86200 333 59011 86838;
0168678610999992000041115004-18220+028930FM-12+1282FVGO V0200101N001012200019N0500001N1+02551+01571999999ADDGA1011+012009099GF102991021021012501061031MA1999999087351MD1999999-0121ME1315189REMSYN076AAXX  11154 67861 42684 20102 10255 20157 38735 48518 82263 333 59012 81940;
0215678610999992000041118004-18220+028930FM-12+1282FVGO V0209999C000012200019N0500001N1+01991+01621999999ADDAY111061AY211061GA1011+012009099GF101991011091012501061031KA1120M+02691MA1999999087461MD1999999-0111ME1315269MW1131REMSYN088AAXX  11184 67861 41684 10000 10199 20162 38746 48526 71311 81963 333 10269 59011 81940;
0168678610999992000041200004-18220+028930FM-12+1282FVGO V0201001N004112200019N0300001N1+01841+01541999999ADDGA1021+030009079GF103991021001999999031021MA1999999087461MD1999999-0031ME1315269REMSYN076AAXX  12004 67861 42980 31008 10184 20154 38746 48526 82032 333 59003 82360;
0168678610999992000041203004-18220+028930FM-12+1282FVGO V0200901N003612200019N0300001N1+01681+01511999999ADDGA1011+030009079GF101991011001999999031021MA1999999087461MD1999999-0041ME1315259REMSYN076AAXX  12034 67861 42980 10907 10168 20151 38746 48525 81032 333 59004 81360;
0217678610999992000041206004-18220+028930FM-12+1282FVGO V0201001N003112200019N0300001N1+01961+01571999999ADDAA199000091GA1011+030009079GF101991011001999999041021KA1120N+01611MA1999999087591MD1999999-0011ME1315399REMSYN082AAXX  12064 67861 32980 11006 10196 20157 38759 48539 81042 333 20161 59001 81360;EQDQ01  00002PRCP99
0168678610999992000041209004-18220+028930FM-12+1282FVGO V0202001N001512200019N0500001N1+02371+01561999999ADDGA1011+010509029GF101991011011012501031001MA1999999087671MD1999999+0051ME1315479REMSYN076AAXX  12094 67861 42684 12003 10237 20156 38767 48547 81130 333 58005 81835;
0202678610999992000041215004-18220+028930FM-12+1282FVGO V0209999C00001045001CN0300001N1+02271+01361999999ADDAY191031AY281031GA1011+010509099GF107991021021012501071021MA1999999087371MD1999999+0021ME1315179MW1151REMSYN088AAXX  12154 67861 41680 70000 10227 20136 38737 48517 71598 82272 333 58002 81935 85460;
0282678610999992000041218004-18220+028930FM-12+1282FVGO V0202001N999992200019N0300001N1+01901+01401999999ADDAY191061AY281061GA1071+030009079GF199999999001999999001001KA1120M+02601MA1999999087521MD1999999+0061ME1315329MW1021REMSYN088AAXX  12184 67861 41980 07030 10190 20140 38752 48532 70298 8707/ 333 10260 58006 87360;EQDQ01+006683WOSPD Q02+000002SCOTCVQ03+000002SCOTLCQ040006683WOSPD 
0168678610999992000041303004-18220+028930FM-12+1282FVGO V0200301N001012200019N0300001N1+01701+01541999999ADDGA1011+030009079GF101991011001999999041001MA1999999087401MD1999999-0061ME1315199REMSYN076AAXX  13034 67861 42980 10302 10170 20154 38740 48519 81040 333 59006 81360;
0202678610999992000041315004-18220+028930FM-12+1282FVGO V0201001N00101045001CN0500001N1+02051+01671999999ADDAY191031AY281031GA1011+009009099GF107991011021012501071031MA1999999087351MD1999999-0021ME1315149MW1211REMSYN088AAXX  13154 67861 41684 71002 10205 20167 38735 48514 72198 81273 333 59002 81930 87460;
0215678610999992000041318004-18220+028930FM-12+1282FVGO V0201201N000510300019N0300001N1+01881+01761999999ADDAY191061AY281061GA1071+030009019GF107991071001999999071999KA1120M+02591MA1999999087441MD1999999-0081ME1315239MW1021REMSYN088AAXX  13184 67861 41980 71201 10188 20176 38744 48523 70298 8707/ 333 10259 59008 87460;
0168678610999992000041400004-18220+028930FM-12+1282FVGO V0201201N003110300019N0300001N1+01841+01281999999ADDGA1071+030009019GF107991071001999999071999MA1999999087421MD1999999+0031ME1315229REMSYN076AAXX  14004 67861 42980 71206 10184 20128 38742 48522 8707/ 333 58003 87460;
0187678610999992000041403004-18220+028930FM-12+1282FVGO V0201301N004112200019N0300001N1+01781+00961999999ADDGA1041+030009019GF104991041001999999071999MA1999999087421MD1999999+0021ME1315229REMSYN076AAXX  14034 67861 42980 41308 10178 20096 38742 48522 84070 333 58002 84460;EQDQ01+000002SCOHCG
0166678610999992000041406004-18220+028930FM-12+1282FVGO V0201201N004610300019N0400001N1+01911+01171999999ADDGA1051+030009079GF105991051001999999071001KA1120N+01651MD1999999+0021ME1315419REMSYN076AAXX  14064 67861 12982 51209 10191 20117 48541 85070 333 20165 58002 85360;
0168678610999992000041409004-18220+028930FM-12+1282FVGO V0201801N003112200019N0500001N1+02291+01201999999ADDGA1011+030009079GF101991011001999999081001MA1999999087711MD1999999+0141ME1315509REMSYN076AAXX  14094 67861 42984 11806 10229 20120 38771 48550 81080 333 58014 81360;
0168678610999992000041415004-18220+028930FM-12+1282FVGO V0209999C000012200019N0500001N1+02471+01221999999ADDGA1021+015009029GF103991021021017501031001MA1999999087401MD1999999+0051ME1315219REMSYN076AAXX  14154 67861 42784 30000 10247 20122 38740 48521 82230 333 58005 82850;
0187678610999992000041418004-18220+028930FM-12+1282FVGO V0209999C000010300019N0500001N1+01951+01451999999ADDGA1051+030009079GF105991051001999999071001KA1120M+02661MA1999999087501MD1999999+0061ME1315309REMSYN082AAXX  14184 67861 42984 50000 10195 20145 38750 48530 85070 333 10266 58006 85360;
0196678610999992000041503004-18220+028930FM-12+1282FVGO V0201001N002612200019N0400001N1+01601+01311999999ADDAY101031AY201031GA1011+006009099GF101991011091008001041031MA1999999087501MD1999999+0081ME1315289MW1131REMSYN082AAXX  15034 67861 41582 11005 10160 20131 38750 48528 71300 81943 333 58008 81920;
0217678610999992000041506004-18220+028930FM-12+1282FVGO V0201801N004112200019N0450001N1+01811+01391999999ADDAA199000091GA1011+030009079GF101991011001999999041001KA1120N+01581MA1999999087601MD1999999-0021ME1315389REMSYN082AAXX  15064 67861 32983 11808 10181 20139 38760 48538 81040 333 20158 59002 81360;EQDQ01  00002PRCP99
0168678610999992000041509004-18220+028930FM-12+1282FVGO V0201001N001012200019N0500001N1+02301+01621999999ADDGA1011+009009029GF101991011011012501041001MA1999999087631MD1999999-0081ME1315439REMSYN076AAXX  15094 67861 42684 11002 10230 20162 38763 48543 81140 333 59008 81830;
0174678610999992000041512004-18220+028930FM-12+1282FVGO V0200801N00101012001CN0500001N1+02391+01661999999ADDGA1011+009009099GF106991051021012501071031MA1999999087381MD1999999-0091ME1315189REMSYN082AAXX  15124 67861 42684 60802 10239 20166 38738 48518 85273 333 59009 81930 85835;
0202678610999992000041515004-18220+028930FM-12+1282FVGO V0200201N001010450019N0500001N1+02301+01451999999ADDAY191031AY211031GA1011+009009099GF105991031021012501071031MA1999999087341MD1999999-0061ME1315149MW1171REMSYN088AAXX  15154 67861 41684 50202 10230 20145 38734 48514 71791 83273 333 59006 81930 83835;
0221678610999992000041518004-18220+028930FM-12+1282FVGO V0209999C000012200019N0500001N1+02351+01381999999ADDAY191061AY211061GA1011+009009099GF103991011091012501061031KA1120M+02521MA1999999087471MD1999999-0031ME1315269MW1131REMSYN094AAXX  15184 67861 41684 30000 10235 20138 38747 48526 71391 81963 333 10252 59003 81930 83360;
0168678610999992000041600004-18220+028930FM-12+1282FVGO V0200801N002112200019N0450001N1+01751+01511999999ADDGA1041+030009079GF104991041001999999031001MA1999999087501MD1999999+0021ME1315309REMSYN076AAXX  16004 67861 42983 40804 10175 20151 38750 48530 84030 333 58002 84360;
0168678610999992000041609004-18220+028930FM-12+1282FVGO V0200201N003112200019N0500001N1+02381+01601999999ADDGA1031+009609029GF104991031011012501041021MA1999999087781MD1999999+0151ME1315589REMSYN076AAXX  16094 67861 42684 40206 10238 20160 38778 48558 83142 333 58015 83832;
0172678610999992000041612004-18220+028930FM-12+1282FVGO V0200601N002110114019N0500001N1+02471+01681999999ADDGA1051+011409029GF105991051021012501001001MD1999999+0141ME1315339REMSYN076AAXX  16124 67861 42684 50604 10247 20168 38652 48533 85200 333 58014 85838;EQDQ01+086523APOSP 
0202678610999992000041615004-18220+028930FM-12+1282FVGO V0209999C000010450019N0500001N1+02371+01511999999ADDAY191031AY281031GA1011+010509099GF106991031021012501031031MA1999999087471MD1999999+0131ME1315289MW1291REMSYN088AAXX  16154 67861 41684 60000 10237 20151 38747 48528 72998 83233 333 58013 81935 83840;
0221678610999992000041618004-18220+028930FM-12+1282FVGO V0209999C000011050019N0500001N1+01951+01641999999ADDAY111061AY211061GA1011+010509099GF105991011091012501061031KA1120M+02601MA1999999087551MD1999999+0081ME1315359MW1131REMSYN094AAXX  16184 67861 41684 50000 10195 20164 38755 48535 71311 81963 333 10260 58008 81935 83099;
0168678610999992000041700004-18220+028930FM-12+1282FVGO V0200901N001512200019N0500001N1+01651+01451999999ADDGA1011+030009079GF101991011001999999041001MA1999999087601MD1999999+0101ME1315399REMSYN076AAXX  17004 67861 42984 10903 10165 20145 38760 48539 81040 333 58010 81360;
0168678610999992000041703004-18220+028930FM-12+1282FVGO V0200501N001012200019N0300001N1+01531+01401999999ADDGA1021+030009079GF102991021001999999031001MA1999999087601MD1999999+0141ME1315379REMSYN076AAXX  17034 67861 42980 20502 10153 20140 38760 48537 82030 333 58014 82360;
0204678610999992000041706004-18220+028930FM-12+1282FVGO V0201701N001512200019N0450001N1+02001+01531999999ADDAA124000791GA1011+030009079GF101991011001999999041001KA1120N+01511MA1999999087811MD1999999+0101ME1315609REMSYN088AAXX  17064 67861 12983 11703 10200 20153 38781 48560 69904 81040 333 20151 58010 81360;
0168678610999992000041709004-18220+028930FM-12+1282FVGO V0200401N001510096019N0500001N1+02311+01551999999ADDGA1051+009609029GF105991051021012501001001MA1999999087751MD1999999-0031ME1315549REMSYN076AAXX  17094 67861 42684 50403 10231 20155 38775 48554 85200 333 59003 85832;
0174678610999992000041712004-18220+028930FM-12+1282FVGO V0200501N00311012001CN0500001N1+02551+01481999999ADDGA1011+012009099GF105991051021012501031031MA1999999087471MD1999999-0051ME1315299REMSYN082AAXX  17124 67861 42684 50506 10255 20148 38747 48529 85233 333 59005 81940 85848;
0202678610999992000041715004-18220+028930FM-12+1282FVGO V0201801N000510450019N0500001N1+02471+01591999999ADDAY191031AY281031GA1011+012009099GF107991031021012501031031MA1999999087441MD1999999-0031ME1315259MW1151REMSYN088AAXX  17154 67861 41684 71801 10247 20159 38744 48525 71598 83233 333 59003 81940 83848;
0215678610999992000041718004-18220+028930FM-12+1282FVGO V0209999C000010300019N0500001N1+02111+01721999999ADDAY191061AY281061GA1071+030009079GF107991071001999999031021KA1120M+02691MA1999999087501MD1999999-0051ME1315309MW1021REMSYN088AAXX  17184 67861 41984 70000 10211 20172 38750 48530 70298 87032 333 10269 59005 87360;
0168678610999992000041800004-18220+028930FM-12+1282FVGO V0201401N002112200019N0300001N1+01841+01561999999ADDGA1021+030009079GF102991021001999999031001MA1999999087461MD1999999-0141ME1315269REMSYN076AAXX  18004 67861 42980 21404 10184 20156 38746 48526 82030 333 59014 82360;
0168678610999992000041803004-18220+028930FM-12+1282FVGO V0201501N003112200019N0300001N1+01711+01541999999ADDGA1011+030009079GF101991011001999999031001MA1999999087451MD1999999-0151ME1315249REMSYN076AAXX  18034 67861 42980 11506 10171 20154 38745 48524 81030 333 59015 81360;
0204678610999992000041806004-18220+028930FM-12+1282FVGO V0200901N003612200019N0280001N1+01901+01571999999ADDAA124000791GA1011+030009079GF101991011001999999041001KA1120N+01621MA1999999087641MD1999999-0171ME1315429REMSYN088AAXX  18064 67861 12978 10907 10190 20157 38764 48542 69904 81040 333 20162 59017 81360;
0168678610999992000041809004-18220+028930FM-12+1282FVGO V0203601N001510105019N0450001N1+02351+01581999999ADDGA1051+010509029GF105991051021012501001001MA1999999087761MD1999999+0011ME1315569REMSYN076AAXX  18094 67861 42683 53603 10235 20158 38776 48556 85200 333 58001 85835;
0168678610999992000041812004-18220+028930FM-12+1282FVGO V0200301N003110135019N0500001N1+02601+01521999999ADDGA1051+013509029GF105991051021012501001001MA1999999087551MD1999999+0081ME1315379REMSYN076AAXX  18124 67861 42684 50306 10260 20152 38755 48537 85200 333 58008 85845;
0174678610999992000041815004-18220+028930FM-12+1282FVGO V0200601N001011050019N0500001N1+02351+01571999999ADDGA1011+013509099GF105991041021012501001031MA1999999087511MD1999999+0071ME1315329REMSYN082AAXX  18154 67861 42684 50602 10235 20157 38751 48532 84203 333 58007 81945 84848;
0221678610999992000041818004-18220+028930FM-12+1282FVGO V0200301N000511050019N0500001N1+02091+01501999999ADDAY191061AY211061GA1011+013509099GF105991011091012501061031KA1120M+02741MA1999999087571MD1999999+0071ME1315389MW1131REMSYN094AAXX  18184 67861 41684 50301 10209 20150 38757 48538 71391 81963 333 10274 58007 81945 85099;
0202678610999992000041900004-18220+028930FM-12+1282FVGO V0200901N00311045001CN0350001N1+01701+01621999999ADDAY191061AY261061GA1031+002709079GF107991031061002501071999MA1999999087591MD1999999+0131ME1315369MW1611REMSYN088AAXX  19004 67861 41381 70906 10170 20162 38759 48536 76196 8367/ 333 58013 83709 87460;
0215678610999992000041903004-18220+028930FM-12+1282FVGO V0200701N001510300019N0350001N1+01631+01411999999ADDAY161031AY221031GA1061+030009019GF106991061001999999071999MA1999999087581MD1999999+0131ME1315369MW1021REMSYN082AAXX  19034 67861 41981 60703 10163 20141 38758 48536 70262 86070 333 58013 86460;EQDQ01+000002SCOHCG
0232678610999992000041906004-18220+028930FM-12+1282FVGO V0200801N00211045001CN0400001N1+01731+01361999999ADDAA124011991AY161061AY221061GA1021+027009079GF107991021051008001071001KA1120N+01591MA1999999087791MD1999999+0121ME1315569MW1021REMSYN094AAXX  19064 67861 11582 70804 10173 20136 38779 48556 60124 70262 82570 333 20159 58012 82359;
0174678610999992000041909004-18220+028930FM-12+1282FVGO V0200901N002612200019N0400001N1+02201+01571999999ADDGA1011+008109089GF103991011011008001031001MA1999999087841MD1999999+0081ME1315629REMSYN082AAXX  19094 67861 42582 30905 10220 20157 38784 48562 81130 333 58008 81827 83360;
0168678610999992000041912004-18220+028930FM-12+1282FVGO V0200801N002612200019N0500001N1+02411+01621999999ADDGA1041+011409029GF104991041021012501031001MA1999999087581MD1999999+0031ME1315399REMSYN076AAXX  19124 67861 42684 40805 10241 20162 38758 48539 84230 333 58003 84838;
0168678610999992000041915004-18220+028930FM-12+1282FVGO V0200801N002112200019N0500001N1+02381+01601999999ADDGA1011+011409099GF101991011021012501001031MA1999999087561MD1999999+0051ME1315379REMSYN076AAXX  19154 67861 42684 10804 10238 20160 38756 48537 81203 333 58005 81938;
0215678610999992000041918004-18220+028930FM-12+1282FVGO V0209999C000012200019N0500001N1+01891+01661999999ADDAY101061AY201061GA1011+011409099GF101991011091012501001031KA1120M+02521MA1999999087651MD1999999+0081ME1315449MW1131REMSYN088AAXX  19184 67861 41684 10000 10189 20166 38765 48544 71300 81903 333 10252 58008 81938;
0205678610999992000042006004-18220+028930FM-12+1282FVGO V0200501N001012200019N0500001N1+01801+01381999999ADDAA199000091GA1001+999999999GF100991001001999999001001KA1120N+01491MA1999999087771MD1999999-0021ME1315559REMSYN070AAXX  20064 67861 32984 00502 10180 20138 38777 48555 333 20149 59002;EQDQ01  00002PRCP99
0168678610999992000042009004-18220+028930FM-12+1282FVGO V0200301N001012200019N0500001N1+02201+01561999999ADDGA1021+007509029GF102991021011008001001001MA1999999087851MD1999999+0011ME1315669REMSYN076AAXX  20094 67861 42584 20302 10220 20156 38785 48566 82100 333 58001 82825;
0168678610999992000042012004-18220+028930FM-12+1282FVGO V0200901N001012200019N0500001N1+02451+01781999999ADDGA1021+009009029GF102991021011012501001001MA1999999087621MD1999999+0041ME1315439REMSYN076AAXX  20124 67861 42684 20902 10245 20178 38762 48543 82100 333 58004 82830;
0168678610999992000042015004-18220+028930FM-12+1282FVGO V0201601N000512200019N0500001N1+02391+01461999999ADDGA1021+012009029GF102991021021012501001001MA1999999087551MD1999999-0011ME1315369REMSYN076AAXX  20154 67861 42684 21601 10239 20146 38755 48536 82200 333 59001 82840;
0168678610999992000042100004-18220+028930FM-12+1282FVGO V0201201N001512200019N0300001N1+01711+01511999999ADDGA1011+030009079GF101991011001999999041001MA1999999087561MD1999999-0131ME1315359REMSYN076AAXX  21004 67861 42980 11203 10171 20151 38756 48535 81040 333 59013 81360;
0168678610999992000042103004-18220+028930FM-12+1282FVGO V0200801N001010300019N0300001N1+01741+01591999999ADDGA1071+030009079GF107991071001999999031001MA1999999087591MD1999999-0111ME1315389REMSYN076AAXX  21034 67861 42980 70802 10174 20159 38759 48538 87030 333 59011 87360;
0217678610999992000042106004-18220+028930FM-12+1282FVGO V0200701N002610300019N0400001N1+01731+01521999999ADDAA199000091GA1061+030009079GF106991061001999999031001KA1120N+01621MA1999999087711MD1999999-0061ME1315489REMSYN082AAXX  21064 67861 32982 60705 10173 20152 38771 48548 86030 333 20162 59006 86360;EQDQ01  00002PRCP99
0174678610999992000042109004-18220+028930FM-12+1282FVGO V0200501N00211045001CN0450001N1+02311+01511999999ADDGA1021+010209089GF105991021011012501031001MA1999999087791MD1999999-0061ME1315589REMSYN082AAXX  21094 67861 42683 50504 10231 20151 38779 48558 82130 333 59006 82834 84360;
0174678610999992000042112004-18220+028930FM-12+1282FVGO V0200801N002110120019N0500001N1+02441+01471999999ADDGA1051+012009089GF106991051021012501031001MA1999999087571MD1999999-0051ME1315389REMSYN082AAXX  21124 67861 42684 60804 10244 20147 38757 48538 85230 333 59005 85840 84360;
0168678610999992000042115004-18220+028930FM-12+1282FVGO V0200401N002112200019N0500001N1+02391+01501999999ADDGA1011+012309029GF101991011021012501001001MA1999999087481MD1999999-0071ME1315299REMSYN076AAXX  21154 67861 42684 10404 10239 20150 38748 48529 81200 333 59007 81841;
0187678610999992000042118004-18220+028930FM-12+1282FVGO V0209999C000012200019N0500001N1+01951+01611999999ADDGA1041+030009079GF104991041001999999031001KA1120M+02541MA1999999087581MD1999999-0051ME1315379REMSYN082AAXX  21184 67861 42984 40000 10195 20161 38758 48537 84030 333 10254 59005 84360;
0168678610999992000042203004-18220+028930FM-12+1282FVGO V0200901N002612200019N0300001N1+01711+01281999999ADDGA1021+030009079GF102991021001999999031001MA1999999087611MD1999999+0021ME1315409REMSYN076AAXX  22034 67861 42980 20905 10171 20128 38761 48540 82030 333 58002 82360;
0217678610999992000042206004-18220+028930FM-12+1282FVGO V0200601N003112200019N0400001N1+01901+01491999999ADDAA199000091GA1011+030009079GF101991011001999999031001KA1120N+01601MA1999999087751MD1999999+0041ME1315549REMSYN082AAXX  22064 67861 32982 10606 10190 20149 38775 48554 81030 333 20160 58004 81360;EQDQ01  00002PRCP99
0168678610999992000042209004-18220+028930FM-12+1282FVGO V0203601N001510090019N0500001N1+02341+01621999999ADDGA1051+009009029GF105991051011012501031001MA1999999087771MD1999999-0011ME1315569REMSYN076AAXX  22094 67861 42684 53603 10234 20162 38777 48556 85130 333 59001 85830;
0168678610999992000042215004-18220+028930FM-12+1282FVGO V0209999C000012200019N0500001N1+02331+01591999999ADDGA1031+013509029GF103991031021012501061001MA1999999087531MD1999999+0051ME1315339REMSYN076AAXX  22154 67861 42684 30000 10233 20159 38753 48533 83260 333 58005 83845;
0187678610999992000042218004-18220+028930FM-12+1282FVGO V0209999C000012200019N0500001N1+01811+01381999999ADDGA1011+030009079GF101991011001012501061001KA1120M+02691MA1999999087581MD1999999+0001ME1315389REMSYN082AAXX  22184 67861 42684 10000 10181 20138 38758 48538 81060 333 10269 58000 81360;
0156678610999992000042300004-18220+028930FM-12+1282FVGO V0201301N003112200019N0300001N1+01711+01301999999ADDGA1001+999999999GF100991001001999999001001MA1999999087561MD1999999-0071ME1315359REMSYN064AAXX  23004 67861 42980 01306 10171 20130 38756 48535 333 59007;
0156678610999992000042303004-18220+028930FM-12+1282FVGO V0201501N003612200019N0300001N1+01641+01401999999ADDGA1001+999999999GF100991001001999999001001MA1999999087551MD1999999-0061ME1315339REMSYN064AAXX  23034 67861 42980 01507 10164 20140 38755 48533 333 59006;
0205678610999992000042306004-18220+028930FM-12+1282FVGO V0201201N002612200019N0400001N1+01981+01531999999ADDAA199000091GA1001+999999999GF100991001001999999001001KA1120N+01551MA1999999087711MD1999999-0041ME1315509REMSYN070AAXX  23064 67861 32982 01205 10198 20153 38771 48550 333 20155 59004;EQDQ01  00002PRCP99
0168678610999992000042309004-18220+028930FM-12+1282FVGO V0201801N001012200019N0400001N1+02401+01331999999ADDGA1021+012009029GF102991021011012501001001MA1999999087701MD1999999-0071ME1315509REMSYN076AAXX  23094 67861 42682 21802 10240 20133 38770 48550 82100 333 59007 82840;
0168678610999992000042312004-18220+028930FM-12+1282FVGO V0203601N001012200019N0500001N1+02761+01581999999ADDGA1021+015009029GF102991021011017501001001MA1999999087451MD1999999-0131ME1315299REMSYN076AAXX  23124 67861 42784 23602 10276 20158 38745 48529 82100 333 59013 82850;
0168678610999992000042315004-18220+028930FM-12+1282FVGO V0200801N001012200019N0500001N1+02561+01601999999ADDGA1021+015009029GF102991021021017501001001MA1999999087441MD1999999-0091ME1315269REMSYN076AAXX  23154 67861 42784 20802 10256 20160 38744 48526 82200 333 59009 82850;
0175678610999992000042318004-18220+028930FM-12+1282FVGO V0209999C000012200019N0500001N1+01781+01251999999ADDGA1001+999999999GF100991001001999999001001KA1120M+02821MA1999999087541MD1999999-0041ME1315359REMSYN070AAXX  23184 67861 42984 00000 10178 20125 38754 48535 333 10282 59004;
0156678610999992000042400004-18220+028930FM-12+1282FVGO V0201501N001512200019N0300001N1+01781+00921999999ADDGA1001+999999999GF100991001001999999001001MA1999999087501MD1999999-0061ME1315309REMSYN064AAXX  24004 67861 42980 01503 10178 20092 38750 48530 333 59006;
0156678610999992000042403004-18220+028930FM-12+1282FVGO V0201401N002612200019N0300001N1+01721+00921999999ADDGA1001+999999999GF100991001001999999001001MA1999999087491MD1999999-0061ME1315289REMSYN064AAXX  24034 67861 42980 01405 10172 20092 38749 48528 333 59006;
0205678610999992000042406004-18220+028930FM-12+1282FVGO V0201001N002612200019N0300001N1+02041+01291999999ADDAA199000091GA1001+999999999GF100991001001999999001001KA1120N+01561MA1999999087641MD1999999-0071ME1315449REMSYN070AAXX  24064 67861 32980 01005 10204 20129 38764 48544 333 20156 59007;EQDQ01  00002PRCP99
0168678610999992000042409004-18220+028930FM-12+1282FVGO V0201001N002112200019N0350001N1+02441+00651999999ADDGA1011+021009029GF101991011011022501001001MA1999999087741MD1999999+0041ME1315549REMSYN076AAXX  24094 67861 42881 11004 10244 20065 38774 48554 81100 333 58004 81857;
0168678610999992000042415004-18220+028930FM-12+1282FVGO V0200301N000512200019N0450001N1+02541+01101999999ADDGA1011+021009029GF101991011011022501001001MA1999999087461MD1999999+0021ME1315279REMSYN076AAXX  24154 67861 42883 10301 10254 20110 38746 48527 81100 333 58002 81857;
0175678610999992000042418004-18220+028930FM-12+1282FVGO V0209999C000012200019N0300001N1+01851+01161999999ADDGA1001+999999999GF100991001001999999001001KA1120M+02731MA1999999087561MD1999999+0021ME1315379REMSYN070AAXX  24184 67861 42980 00000 10185 20116 38756 48537 333 10273 58002;
0205678610999992000042506004-18220+028930FM-12+1282FVGO V0201301N002112200019N0300001N1+02071+00661999999ADDAA199000091GA1001+999999999GF100991001001999999001001KA1120N+01511MA1999999087711MD1999999+0071ME1315519REMSYN070AAXX  25064 67861 32980 01304 10207 20066 38771 48551 333 20151 58007;EQDQ01  00002PRCP99
0168678610999992000042509004-18220+028930FM-12+1282FVGO V0201401N002112200019N0300001N1+02401+01161999999ADDGA1011+015009029GF101991011011999999001001MA1999999087781MD1999999+0041ME1315589REMSYN076AAXX  25094 67861 42980 11404 10240 20116 38778 48558 81100 333 58004 81850;
0168678610999992000042512004-18220+028930FM-12+1282FVGO V0201701N003112200019N0350001N1+02651+00891999999ADDGA1011+021009029GF101991011011022501001001MA1999999087531MD1999999+0031ME1315369REMSYN076AAXX  25124 67861 42881 11706 10265 20089 38753 48536 81100 333 58003 81857;
0168678610999992000042515004-18220+028930FM-12+1282FVGO V0201001N001012200019N0300001N1+02481+00931999999ADDGA1011+021009029GF101991011011022501001001MA1999999087411MD1999999-0051ME1315229REMSYN076AAXX  25154 67861 42880 11002 10248 20093 38741 48522 81100 333 59005 81857;
0175678610999992000042518004-18220+028930FM-12+1282FVGO V0209999C000012200019N0300001N1+01831+01191999999ADDGA1001+999999999GF100991001001999999001001KA1120M+02741MA1999999087481MD1999999-0081ME1315299REMSYN070AAXX  25184 67861 42980 00000 10183 20119 38748 48529 333 10274 59008;
0156678610999992000042600004-18220+028930FM-12+1282FVGO V0201301N002612200019N0300001N1+01781+00471999999ADDGA1001+999999999GF100991001001999999001001MA1999999087401MD1999999-0121ME1315209REMSYN064AAXX  26004 67861 42980 01305 10178 20047 38740 48520 333 59012;
0156678610999992000042603004-18220+028930FM-12+1282FVGO V0201101N002112200019N0300001N1+01791+00611999999ADDGA1001+999999999GF100991001001999999001001MA1999999087381MD1999999-0191ME1315189REMSYN064AAXX  26034 67861 42980 01104 10179 20061 38738 48518 333 59019;
0205678610999992000042606004-18220+028930FM-12+1282FVGO V0200901N002112200019N0280001N1+02001+01201999999ADDAA199000091GA1001+999999999GF100991001001999999001001KA1120N+01511MA1999999087601MD1999999-0111ME1315409REMSYN070AAXX  26064 67861 32978 00904 10200 20120 38760 48540 333 20151 59011;EQDQ01  00002PRCP99
0168678610999992000042609004-18220+028930FM-12+1282FVGO V0201701N001512200019N0300001N1+02381+01261999999ADDGA1011+015009029GF101991011011017501001001MA1999999087691MD1999999-0091ME1315499REMSYN076AAXX  26094 67861 42780 11703 10238 20126 38769 48549 81100 333 59009 81850;
0168678610999992000042612004-18220+028930FM-12+1282FVGO V0201501N000512200019N0300001N1+02611+00951999999ADDGA1011+021009029GF101991011011022501001001MA1999999087501MD1999999-0031ME1315329REMSYN076AAXX  26124 67861 42880 11501 10261 20095 38750 48532 81100 333 59003 81857;
0187678610999992000042615004-18220+028930FM-12+1282FVGO V0201301N000512200019N0300001N1+02401+00891999999ADDGA1011+021009059GF101991011041022501999001MA1999999087451MD1999999+0041ME1315269REMSYN076AAXX  26154 67861 42880 11301 10240 20089 38745 48526 81400 333 58004 81657;EQDQ01+000002SCOMCG
0175678610999992000042618004-18220+028930FM-12+1282FVGO V0209999C000012200019N0250001N1+01651+01091999999ADDGA1001+999999999GF100991001001999999001001KA1120M+02701MA1999999087571MD1999999+0091ME1315389REMSYN070AAXX  26184 67861 42975 00000 10165 20109 38757 48538 333 10270 58009;
0156678610999992000042700004-18220+028930FM-12+1282FVGO V0200901N001012200019N0300001N1+01401+01041999999ADDGA1001+999999999GF100991001001999999001001MA1999999087561MD1999999+0161ME1315329REMSYN064AAXX  27004 67861 42980 00902 10140 20104 38756 48532 333 58016;
0156678610999992000042703004-18220+028930FM-12+1282FVGO V0201201N001512200019N0250001N1+01301+00971999999ADDGA1001+999999999GF100991001001999999001001MA1999999087501MD1999999+0121ME1315269REMSYN064AAXX  27034 67861 42975 01203 10130 20097 38750 48526 333 58012;
0205678610999992000042706004-18220+028930FM-12+1282FVGO V0200201N001512200019N0220001N1+02071+01011999999ADDAA199000091GA1001+999999999GF100991001001999999001001KA1120N+01201MA1999999087671MD1999999+0071ME1315479REMSYN070AAXX  27064 67861 32972 00203 10207 20101 38767 48547 333 20120 58007;EQDQ01  00002PRCP99
0156678610999992000042709004-18220+028930FM-12+1282FVGO V0200801N002612200019N0250001N1+02571+00801999999ADDGA1001+999999999GF100991001001999999001001MA1999999087661MD1999999-0031ME1315489REMSYN064AAXX  27094 67861 42975 00805 10257 20080 38766 48548 333 59003;
0168678610999992000042712004-18220+028930FM-12+1282FVGO V0202501N001512200019N0260001N1+02701+00471999999ADDGA1011+027009029GF101991011011999999001001MA1999999087471MD1999999-0031ME1315309REMSYN076AAXX  27124 67861 42976 12503 10270 20047 38747 48530 81100 333 59003 81859;
0156678610999992000042715004-18220+028930FM-12+1282FVGO V0200801N001012200019N0280001N1+02571+00721999999ADDGA1001+999999999GF100991001001999999001001MA1999999087491MD1999999+0041ME1315319REMSYN064AAXX  27154 67861 42978 00802 10257 20072 38749 48531 333 58004;
0175678610999992000042718004-18220+028930FM-12+1282FVGO V0209999C000012200019N0280001N1+01781+01131999999ADDGA1001+999999999GF100991001001999999001001KA1120M+02821MA1999999087621MD1999999+0051ME1315439REMSYN070AAXX  27184 67861 42978 00000 10178 20113 38762 48543 333 10282 58005;
0156678610999992000042800004-18220+028930FM-12+1282FVGO V0201601N002612200019N0300001N1+01961+00681999999ADDGA1001+999999999GF100991001001999999001001MA1999999087601MD1999999+0041ME1315419REMSYN064AAXX  28004 67861 42980 01605 10196 20068 38760 48541 333 58004;
0156678610999992000042803004-18220+028930FM-12+1282FVGO V0201501N003612200019N0300001N1+01681+00801999999ADDGA1001+999999999GF100991001001999999001001MA1999999087591MD1999999+0091ME1315389REMSYN064AAXX  28034 67861 42980 01507 10168 20080 38759 48538 333 58009;
0205678610999992000042806004-18220+028930FM-12+1282FVGO V0201401N004612200019N0280001N1+01891+01231999999ADDAA199000091GA1001+999999999GF100991001001999999001001KA1120N+01501MA1999999087871MD1999999+0201ME1315659REMSYN070AAXX  28064 67861 32978 01409 10189 20123 38787 48565 333 20150 58020;EQDQ01  00002PRCP99
0168678610999992000042812004-18220+028930FM-12+1282FVGO V0201501N002112200019N0280001N1+02551+01141999999ADDGA1021+018009029GF102991021021017501001001MA1999999087771MD1999999+0301ME1315599REMSYN076AAXX  28124 67861 42778 21504 10255 20114 38777 48559 82200 333 58030 82856;
0187678610999992000042815004-18220+028930FM-12+1282FVGO V0201301N004112200019N0500001N1+02431+01031999999ADDGA1011+018009059GF101991011041017501999001MA1999999087761MD1999999+0271ME1315569REMSYN076AAXX  28154 67861 42784 11308 10243 20103 38776 48556 81400 333 58027 81656;EQDQ01+000002SCOMCG
0175678610999992000042818004-18220+028930FM-12+1282FVGO V0201901N003612200019N0250001N1+01951+01241999999ADDGA1001+999999999GF100991001001999999001001KA1120M+02721MA1999999087871MD1999999+0251ME1315679REMSYN070AAXX  28184 67861 42975 01907 10195 20124 38787 48567 333 10272 58025;
0156678610999992000042900004-18220+028930FM-12+1282FVGO V0201001N006212200019N0250001N1+01651+01231999999ADDGA1001+999999999GF100991001001999999001001MA1999999087951MD1999999+0351ME1315729REMSYN064AAXX  29004 67861 42975 01012 10165 20123 38795 48572 333 58035;
0168678610999992000042903004-18220+028930FM-12+1282FVGO V0200901N005112200019N0300001N1+01531+01291999999ADDGA1011+030009079GF101991011001999999041001MA1999999087901MD1999999+0311ME1315669REMSYN076AAXX  29034 67861 42980 10910 10153 20129 38790 48566 81040 333 58031 81360;
0168678610999992000042909004-18220+028930FM-12+1282FVGO V0202001N005112200019N0300001N1+02151+01301999999ADDGA1031+010509029GF103991031021012501001001MA1999999088111MD1999999+0171ME1315899REMSYN076AAXX  29094 67861 42680 32010 10215 20130 38811 48589 83200 333 58017 83835;
0168678610999992000042912004-18220+028930FM-12+1282FVGO V0202701N004610126019N0300001N1+02251+01261999999ADDGA1051+012609029GF105991051021012501001001MA1999999087951MD1999999+0181ME1315749REMSYN076AAXX  29124 67861 42680 52709 10225 20126 38795 48574 85200 333 58018 85842;
0168678610999992000042915004-18220+028930FM-12+1282FVGO V0201501N002112200019N0300001N1+02211+01241999999ADDGA1031+012609059GF103991031041012501061001MA1999999087921MD1999999+0161ME1315709REMSYN076AAXX  29154 67861 42680 31504 10221 20124 38792 48570 83460 333 58016 83642;
0175678610999992000042918004-18220+028930FM-12+1282FVGO V0201901N006212200019N0250001N1+01581+01381999999ADDGA1001+999999999GF100991001001999999001001KA1120M+02451MA1999999087991MD1999999+0121ME1315769REMSYN070AAXX  29184 67861 42975 01912 10158 20138 38799 48576 333 10245 58012;
0168678610999992000043000004-18220+028930FM-12+1282FVGO V0201001N004112200019N0250001N1+01431+01151999999ADDGA1011+030009079GF101991011001999999041001MA1999999087951MD1999999+0001ME1315709REMSYN076AAXX  30004 67861 42975 11008 10143 20115 38795 48570 81040 333 58000 81360;
0168678610999992000043003004-18220+028930FM-12+1282FVGO V0201801N005712200019N0280001N1+01341+01091999999ADDGA1011+030009079GF101991011001999999031001MA1999999087921MD1999999+0021ME1315609REMSYN076AAXX  30034 67861 42978 11811 10134 20109 38792 48560 81030 333 58002 81360;
0217678610999992000043006004-18220+028930FM-12+1282FVGO V0201801N005112200019N0250001N1+01571+01101999999ADDAA199000091GA1011+030009079GF101991011001999999041001KA1120N+01281MA1999999088031MD1999999+0011ME1315789REMSYN082AAXX  30064 67861 32975 11810 10157 20110 38803 48578 81040 333 20128 58001 81360;EQDQ01  00002PRCP99
0187678610999992000043009004-18220+028930FM-12+1282FVGO V0201501N004612200019N0300001N1+02001+01161999999ADDGA1011+010509029GF102991999011012501001001MA1999999088121MD1999999+0011ME1315889REMSYN076AAXX  30094 67861 42680 21509 10200 20116 38812 48588 81100 333 58001 81835;EQDQ01+000012SCOTLC
0168678610999992000043012004-18220+028930FM-12+1282FVGO V0200701N003112200019N0300001N1+02281+01151999999ADDGA1021+013509029GF102991021021012501001001MA1999999087951MD1999999-0061ME1315689REMSYN076AAXX  30124 67861 42680 20706 10228 20115 38795 48568 82200 333 59006 82845;
0168678610999992000043015004-18220+028930FM-12+1282FVGO V0200301N000512200019N0300001N1+02241+01181999999ADDGA1031+015009059GF103991031041017501061001MA1999999087861MD1999999-0061ME1315649REMSYN076AAXX  30154 67861 42780 30301 10224 20118 38786 48564 83460 333 59006 83650;
0187678610999992000043018004-18220+028930FM-12+1282FVGO V0200501N003112200019N0260001N1+01941+01131999999ADDGA1031+030009079GF103991031001999999061001KA1120M+02561MA1999999087921MD1999999-0071ME1315709REMSYN082AAXX  30184 67861 42976 30506 10194 20113 38792 48570 83060 333 10256 59007 83360;
0156678610999992000050103004-18220+028930FM-12+1282FVGO V0200701N004112200019N0250001N1+01301+00931999999ADDGA1001+999999999GF100991001001999999001001MA1999999087901MD1999999-0021ME1315689REMSYN064AAXX  01034 67861 42975 00708 10130 20093 38790 48568 333 59002;
0217678610999992000050106004-18220+028930FM-12+1282FVGO V0201801N002612200019N0400001N1+01491+00961999999ADDAA199000091GA1011+030009079GF101991011001999999041001KA1120N+01201MA1999999087961MD1999999-0071ME1315749REMSYN082AAXX  01064 67861 32982 11805 10149 20096 38796 48574 81040 333 20120 59007 81360;EQDQ01  00002PRCP99
0168678610999992000050109004-18220+028930FM-12+1282FVGO V0200601N001512200019N0300001N1+02011+01171999999ADDGA1041+010509029GF104991041011012501001001MA1999999087891MD1999999-0231ME1315659REMSYN076AAXX  01094 67861 42680 40603 10201 20117 38789 48565 84100 333 59023 84835;
0168678610999992000050112004-18220+028930FM-12+1282FVGO V0200801N001510147019N0300001N1+02301+01141999999ADDGA1061+014709029GF106991061011012501001001MA1999999087591MD1999999-0181ME1315399REMSYN076AAXX  01124 67861 42680 60803 10230 20114 38759 48539 86100 333 59018 86849;
0168678610999992000050115004-18220+028930FM-12+1282FVGO V0200301N001512200019N0300001N1+02201+01211999999ADDGA1041+015009029GF104991041011017501001001MA1999999087551MD1999999-0311ME1315349REMSYN076AAXX  01154 67861 42780 40303 10220 20121 38755 48534 84100 333 59031 84850;
0206678610999992000050118004-18220+028930FM-12+1282FVGO V0209999C000012200019N0300001N1+01821+01091999999ADDGA1011+015009059GF101991011041017501999001KA1120M+02531MA1999999087631MD1999999-0291ME1315429REMSYN082AAXX  01184 67861 42780 10000 10182 20109 38763 48542 81400 333 10253 59029 81650;EQDQ01    003SCOMCG
0156678610999992000050200004-18220+028930FM-12+1282FVGO V0201201N002112200019N0280001N1+01561+00851999999ADDGA1001+999999999GF100991001001999999001001MA1999999087541MD1999999-0381ME1315339REMSYN064AAXX  02004 67861 42978 01204 10156 20085 38754 48533 333 59038;
0156678610999992000050203004-18220+028930FM-12+1282FVGO V0201101N002612200019N0280001N1+01371+00971999999ADDGA1001+999999999GF100991001001999999001001MA1999999087531MD1999999-0371ME1315329REMSYN064AAXX  02034 67861 42978 01105 10137 20097 38753 48532 333 59037;
0205678610999992000050206004-18220+028930FM-12+1282FVGO V0200801N002612200019N0250001N1+01601+01211999999ADDAA199000091GA1001+999999999GF100991001001999999001001KA1120N+01281MA1999999087721MD1999999-0241ME1315519REMSYN070AAXX  02064 67861 32975 00805 10160 20121 38772 48551 333 20128 59024;EQDQ01  00002PRCP99
0168678610999992000050209004-18220+028930FM-12+1282FVGO V0200901N002612200019N0280001N1+02131+01261999999ADDGA1011+010509029GF101991011011012501001001MA1999999087801MD1999999-0091ME1315579REMSYN076AAXX  02094 67861 42678 10905 10213 20126 38780 48557 81100 333 59009 81835;
0168678610999992000050212004-18220+028930FM-12+1282FVGO V0200501N001512200019N0350001N1+02411+01051999999ADDGA1011+015009029GF101991011011017501001001MA1999999087641MD1999999+0051ME1315449REMSYN076AAXX  02124 67861 42781 10503 10241 20105 38764 48544 81100 333 58005 81850;
0168678610999992000050215004-18220+028930FM-12+1282FVGO V0209999C000012200019N0350001N1+02321+01161999999ADDGA1011+018009029GF101991011011017501001001MA1999999087491MD1999999-0061ME1315299REMSYN076AAXX  02154 67861 42781 10000 10232 20116 38749 48529 81100 333 59006 81856;
0175678610999992000050218004-18220+028930FM-12+1282FVGO V0209999C000012200019N0280001N1+01731+01171999999ADDGA1001+999999999GF100991001001999999001001KA1120M+02531MA1999999087691MD1999999+0061ME1315489REMSYN070AAXX  02184 67861 42978 00000 10173 20117 38769 48548 333 10253 58006;
0156678610999992000050300004-18220+028930FM-12+1282FVGO V0209999C000012200019N0280001N1+01401+01121999999ADDGA1001+999999999GF100991001001999999001001MA1999999087701MD1999999+0161ME1315499REMSYN064AAXX  03004 67861 42978 00000 10140 20112 38770 48549 333 58016;
0156678610999992000050303004-18220+028930FM-12+1282FVGO V0209999C000012200019N0280001N1+01251+01071999999ADDGA1001+999999999GF100991001001999999001001MA1999999087631MD1999999+0101ME1315429REMSYN064AAXX  03034 67861 42978 00000 10125 20107 38763 48542 333 58010;
0205678610999992000050306004-18220+028930FM-12+1282FVGO V0201701N001512200019N0240001N1+01801+01291999999ADDAA199000091GA1001+999999999GF100991001001999999001001KA1120N+01201MA1999999087711MD1999999-0011ME1315509REMSYN070AAXX  03064 67861 32974 01703 10180 20129 38771 48550 333 20120 59001;EQDQ01  00002PRCP99
0156678610999992000050309004-18220+028930FM-12+1282FVGO V0201501N002612200019N0300001N1+02211+01211999999ADDGA1001+999999999GF100991001001999999001001MA1999999087851MD1999999+0051ME1315639REMSYN064AAXX  03094 67861 42980 01505 10221 20121 38785 48563 333 58005;
0168678610999992000050312004-18220+028930FM-12+1282FVGO V0200901N002112200019N0300001N1+02551+01141999999ADDGA1011+018009029GF101991011011017501001001MA1999999087641MD1999999+0001ME1315469REMSYN076AAXX  03124 67861 42780 10904 10255 20114 38764 48546 81100 333 58000 81856;
0187678610999992000050315004-18220+028930FM-12+1282FVGO V0209999C000012200019N0300001N1+02401+01151999999ADDGA1011+018009059GF101991011041017501999001MA1999999087571MD1999999+0081ME1315389REMSYN076AAXX  03154 67861 42780 10000 10240 20115 38757 48538 81400 333 58008 81656;EQDQ01+000002SCOMCG
0156678610999992000050400004-18220+028930FM-12+1282FVGO V0209999C000012200019N0280001N1+01701+01091999999ADDGA1001+999999999GF100991001001999999001001MA1999999087601MD1999999-0101ME1315409REMSYN064AAXX  04004 67861 42978 00000 10170 20109 38760 48540 333 59010;
0156678610999992000050403004-18220+028930FM-12+1282FVGO V0201001N001012200019N0250001N1+01691+01291999999ADDGA1001+999999999GF100991001001999999001001MA1999999087611MD1999999-0021ME1315419REMSYN064AAXX  04034 67861 42975 01002 10169 20129 38761 48541 333 59002;
0205678610999992000050406004-18220+028930FM-12+1282FVGO V0201001N001512200019N0220001N1+01971+01371999999ADDAA199000091GA1001+999999999GF100991001001999999001001KA1120N+01461MA1999999087781MD1999999+0061ME1315579REMSYN070AAXX  04064 67861 32972 01003 10197 20137 38778 48557 333 20146 58006;EQDQ01  00002PRCP99
0168678610999992000050409004-18220+028930FM-12+1282FVGO V0200301N003612200019N0250001N1+02371+01421999999ADDGA1011+011709029GF101991011011012501001001MA1999999087721MD1999999-0131ME1315529REMSYN076AAXX  04094 67861 42675 10307 10237 20142 38772 48552 81100 333 59013 81839;
0168678610999992000050412004-18220+028930FM-12+1282FVGO V0203601N002610150019N0300001N1+02671+01461999999ADDGA1051+015009029GF105991051021017501001001MA1999999087461MD1999999-0181ME1315299REMSYN076AAXX  04124 67861 42780 53605 10267 20146 38746 48529 85200 333 59018 85850;
0168678610999992000050415004-18220+028930FM-12+1282FVGO V0200401N001012200019N0300001N1+02521+01441999999ADDGA1021+015009029GF102991021021017501001001MA1999999087371MD1999999-0201ME1315199REMSYN076AAXX  04154 67861 42780 20402 10252 20144 38737 48519 82200 333 59020 82850;
0206678610999992000050418004-18220+028930FM-12+1282FVGO V0209999C000012200019N0300001N1+01881+01491999999ADDGA1011+015009059GF101991011041017501999001KA1120M+02741MA1999999087431MD1999999-0251ME1315249REMSYN082AAXX  04184 67861 42780 10000 10188 20149 38743 48524 81400 333 10274 59025 81650;EQDQ01    003SCOMCG
0202678610999992000050503004-18220+028930FM-12+1282FVGO V0201001N00211045001CN0100001N1+01601+01521999999ADDAY191031AY261031GA1021+009009099GF108991021091012501071031MA1999999087471MD1999999-0141ME1315249MW1951REMSYN088AAXX  05034 67861 41660 81004 10160 20152 38747 48524 79596 82973 333 59014 82930 88460;
0202678610999992000050509004-18220+028930FM-12+1282FVGO V0200301N00211045001CN0150001N1+01681+01621999999ADDAY161031AY221031GA1021+002409079GF108991021071002501071999MA1999999087661MD1999999-0061ME1315439MW1601REMSYN088AAXX  05094 67861 41365 80304 10168 20162 38766 48543 76062 8277/ 333 59006 82708 88460;
0202678610999992000050512004-18220+028930FM-12+1282FVGO V0200201N00261045001CN0200001N1+01711+01671999999ADDAY161061AY221061GA1031+002409079GF108991031071002501071999MA1999999087551MD1999999+0091ME1315339MW1601REMSYN088AAXX  05124 67861 41370 80205 10171 20167 38755 48533 76062 8377/ 333 58009 83708 88460;
0202678610999992000050515004-18220+028930FM-12+1282FVGO V0200401N00101045001CN0250001N1+01641+01551999999ADDAY161031AY251031GA1021+002709079GF108991021061002501071999MA1999999087491MD1999999+0121ME1315269MW1021REMSYN088AAXX  05154 67861 41375 80402 10164 20155 38749 48526 70265 8267/ 333 58012 82709 88460;
0221678610999992000050518004-18220+028930FM-12+1282FVGO V0209999C00001045001CN0250001N1+01561+01481999999ADDAY161061AY251061GA1011+003009069GF108991011051004501071999KA1120M+01821MA1999999087501MD1999999+0071ME1315239MW1021REMSYN094AAXX  05184 67861 41475 80000 10156 20148 38750 48523 70265 8157/ 333 10182 58007 81610 88460;
0187678610999992000050600004-18220+028930FM-12+1282FVGO V0201501N002110300019N0300001N1+01491+01411999999ADDGA1061+030009019GF106991061001999999071999MA1999999087401MD1999999+0071ME1315139REMSYN076AAXX  06004 67861 42980 61504 10149 20141 38740 48513 86070 333 58007 86460;EQDQ01+000002SCOHCG
0168678610999992000050603004-18220+028930FM-12+1282FVGO V0201001N001510300019N0300001N1+01501+01401999999ADDGA1071+030009019GF107991071001999999071999MA1999999087421MD1999999-0051ME1315159REMSYN076AAXX  06034 67861 42980 71003 10150 20140 38742 48515 8707/ 333 59005 87460;
0210678610999992000050606004-18220+028930FM-12+1282FVGO V0200901N001510300019N0500001N1+01641+01411999999ADDAA124003091GA1051+030009049GF107991051001999999071081KA1120N+01431MA1999999087641MD1999999+0051ME1315369REMSYN094AAXX  06064 67861 12984 70903 10164 20141 38764 48536 60034 85078 333 20143 58005 85460 86299;
0174678610999992000050609004-18220+028930FM-12+1282FVGO V0200401N00151045001CN0500001N1+01881+01431999999ADDGA1011+004509069GF107991011051004501071021MA1999999087751MD1999999+0091ME1315509REMSYN082AAXX  06094 67861 42484 70403 10188 20143 38775 48550 81572 333 58009 81615 87460;
0174678610999992000050612004-18220+028930FM-12+1282FVGO V0200301N00101045001CN0500001N1+02231+01441999999ADDGA1031+011409089GF107991031021012501071021MA1999999087581MD1999999+0031ME1315379REMSYN082AAXX  06124 67861 42684 70302 10223 20144 38758 48537 83272 333 58003 83838 86460;
0174678610999992000050615004-18220+028930FM-12+1282FVGO V0203301N00051045001CN0500001N1+02001+01511999999ADDGA1011+011409089GF107991011021012501071021MA1999999087551MD1999999+0061ME1315329REMSYN082AAXX  06154 67861 42684 73301 10200 20151 38755 48532 81272 333 58006 81838 86460;
0187678610999992000050618004-18220+028930FM-12+1282FVGO V0209999C000010300019N0500001N1+01761+01421999999ADDGA1071+030009019GF107991071001999999071999KA1120M+02351MA1999999087661MD1999999+0161ME1315439REMSYN082AAXX  06184 67861 42984 70000 10176 20142 38766 48543 8707/ 333 10235 58016 87460;
0168678610999992000050700004-18220+028930FM-12+1282FVGO V0201601N002110300019N0300001N1+01741+01341999999ADDGA1071+030009019GF107991071001999999071999MA1999999087631MD1999999+0231ME1315409REMSYN076AAXX  07004 67861 42980 71604 10174 20134 38763 48540 8707/ 333 58023 87460;
0168678610999992000050703004-18220+028930FM-12+1282FVGO V0201501N002610300019N0300001N1+01621+01411999999ADDGA1071+030009019GF107991071001999999071999MA1999999087601MD1999999+0181ME1315379REMSYN076AAXX  07034 67861 42980 71505 10162 20141 38760 48537 8707/ 333 58018 87460;
0195678610999992000050706004-18220+028930FM-12+1282FVGO V0201601N003619999999N0500001N1+01641+01491999999ADDAA199000091GF107991071001999999071001KA1120N+01551MA1999999087721MD1999999+0081ME1315499REMSYN076AAXX  07064 67861 32984 71607 10164 20149 38772 48549 87070 333 20155 58008;EQDQ01  00002PRCP99
0200678610999992000050709004-18220+028930FM-12+1282FVGO V0201601N002110045019N0500001N1+01721+01531999999ADDAY141031AY221031GA1081+004509059GF108991081051008001999999MD1999999+0091ME1315609MW1051REMSYN082AAXX  07094 67861 42584 81604 10172 20153 38633 48560 70542 885// 333 58009 88615;EQDQ01+086333APOSP 
0174678610999992000050712004-18220+028930FM-12+1282FVGO V0201301N00261045001CN0500001N1+02421+01291999999ADDGA1041+014409089GF106991041021012501031001MA1999999087581MD1999999+0001ME1315399REMSYN082AAXX  07124 67861 42684 61305 10242 20129 38758 48539 84230 333 58000 84848 83360;
0168678610999992000050715004-18220+028930FM-12+1282FVGO V0200801N001012200019N0500001N1+02361+01331999999ADDGA1021+014709029GF102991021021012501031001MA1999999087501MD1999999-0051ME1315319REMSYN076AAXX  07154 67861 42684 20802 10236 20133 38750 48531 82230 333 59005 82849;
0187678610999992000050718004-18220+028930FM-12+1282FVGO V0200901N002610147019N0500001N1+02041+01421999999ADDGA1051+014709059GF105991051041012501001001KA1120M+02551MA1999999087631MD1999999-0031ME1315429REMSYN082AAXX  07184 67861 42684 50905 10204 20142 38763 48542 85400 333 10255 59003 85649;
0168678610999992000050803004-18220+028930FM-12+1282FVGO V0201301N003612200019N0300001N1+01501+01231999999ADDGA1031+030009079GF103991031001999999031021MA1999999087621MD1999999+0021ME1315419REMSYN076AAXX  08034 67861 42980 31307 10150 20123 38762 48541 83032 333 58002 83360;
0210678610999992000050806004-18220+028930FM-12+1282FVGO V0201201N00361045001CN0500001N1+01581+01311999999ADDAA124000791GA1041+004509069GF107991041051004501031001KA1120N+01411MA1999999087761MD1999999+0041ME1315559REMSYN094AAXX  08064 67861 12484 71207 10158 20131 38776 48555 69904 84530 333 20141 58004 84615 84359;
0168678610999992000050809004-18220+028930FM-12+1282FVGO V0200901N003110090019N0500001N1+02091+01381999999ADDGA1051+009009029GF106991051011012501031001MA1999999087851MD1999999+0051ME1315629REMSYN076AAXX  08094 67861 42684 60906 10209 20138 38785 48562 85130 333 58005 85830;
0168678610999992000050812004-18220+028930FM-12+1282FVGO V0200901N003610105019N0500001N1+02301+01501999999ADDGA1051+010509029GF106991051021012501031001MA1999999087601MD1999999+0021ME1315409REMSYN076AAXX  08124 67861 42684 60907 10230 20150 38760 48540 85230 333 58002 85835;
0202678610999992000050815004-18220+028930FM-12+1282FVGO V0209999C00001012001CN0400001N1+01771+01541999999ADDAY181031AY221031GA1011+009009099GF107991051021012501071031MA1999999087621MD1999999+0121ME1315379MW1251REMSYN088AAXX  08154 67861 41682 70000 10177 20154 38762 48537 72582 85273 333 58012 81930 85835;
0215678610999992000050818004-18220+028930FM-12+1282FVGO V0209999C000010300019N0250001N1+01701+01461999999ADDAY181061AY221061GA1061+030009079GF106991061001999999061001KA1120M+02351MA1999999087721MD1999999+0091ME1315499MW1021REMSYN088AAXX  08184 67861 41975 60000 10170 20146 38772 48549 70282 86060 333 10235 58009 86360;
0168678610999992000050900004-18220+028930FM-12+1282FVGO V0201301N003612200019N0280001N1+99999+99999999999ADDGA1011+030009079GF101991011001999999041001MA1999999087631MD1999999-0031ME1315409REMSYN076AAXX  09004 67861 42978 11307 19153 20140 38763 48540 81040 333 59003 81360;
0168678610999992000050903004-18220+028930FM-12+1282FVGO V0201501N002612200019N0250001N1+01501+01301999999ADDGA1031+002709069GF104991031061002501041001MA1999999087631MD1999999+0011ME1315379REMSYN076AAXX  09034 67861 42375 41505 10150 20130 38763 48537 83640 333 58001 83709;
0168678610999992000050909004-18220+028930FM-12+1282FVGO V0201801N001512200019N0350001N1+02001+01361999999ADDGA1031+009009029GF103991031011012501031001MA1999999087821MD1999999+0001ME1315589REMSYN076AAXX  09094 67861 42681 31803 10200 20136 38782 48558 83130 333 59000 83830;
0202678610999992000050912004-18220+028930FM-12+1282FVGO V0201501N002112200019N0500001N1+02201+01211999999ADDAY111061AY211061GA1011+010509099GF104991041021012501061031MA1999999087511MD1999999-0091ME1315309MW1151REMSYN088AAXX  09124 67861 41684 41504 10220 20121 38751 48530 71511 84263 333 59009 81935 84840;
0202678610999992000050915004-18220+028930FM-12+1282FVGO V0201501N00261045001CN0200001N1+01601+01461999999ADDAY191031AY281031GA1021+010509099GF107991021091012501071031MA1999999087541MD1999999-0091ME1315309MW1951REMSYN088AAXX  09154 67861 41670 71505 10160 20146 38754 48530 79598 82973 333 59009 82935 86459;
0243678610999992000050918004-18220+028930FM-12+1282FVGO V0201301N00151009001CN0150001N1+01501+01461999999ADDAY191061AY281061GA1041+002109079GA2011+009009099GF107991041071002501071031KA1120M+02351MA1999999087611MD1999999-0031ME1315449MW1611REMSYN100AAXX  09184 67861 41365 71303 10150 20146 38761 48544 76198 84773 333 10235 59003 81930 84707 87458;
0202678610999992000051000004-18220+028930FM-12+1282FVGO V0201301N00411045001CN0150001N1+01451+01361999999ADDAY161061AY221061GA1031+002109079GF107991031071002501071999MA1999999087691MD1999999+0061ME1315439MW1611REMSYN088AAXX  10004 67861 41365 71308 10145 20136 38769 48543 76162 8377/ 333 58006 83707 87459;
0202678610999992000051003004-18220+028930FM-12+1282FVGO V0200901N003610021019N0250001N1+01451+01271999999ADDAY161031AY221031GA1061+002109079GF107991061061002501071999MA1999999087721MD1999999+0091ME1315469MW1021REMSYN088AAXX  10034 67861 41375 70907 10145 20127 38772 48546 70262 8667/ 333 58009 86707 87459;
0238678610999992000051006004-18220+028930FM-12+1282FVGO V0201301N001510021019N0250001N1+01451+01291999999ADDAA124049091AY161061AY221061GA1071+002109079GF107991071071002501071999KA1120N+01421MA1999999087821MD1999999-0011ME1315559MW1601REMSYN100AAXX  10064 67861 11375 71303 10145 20129 38782 48555 60494 76062 8777/ 333 20142 59001 87707 87459;
0202678610999992000051012004-18220+028930FM-12+1282FVGO V0201401N00261045001CN0400001N1+01711+01361999999ADDAY161061AY221061GA1031+003009069GF107991031051004501071999MA1999999087681MD1999999+0171ME1315449MW1601REMSYN088AAXX  10124 67861 41482 71405 10171 20136 38768 48544 76062 8357/ 333 58017 83610 87460;
0202678610999992000051015004-18220+028930FM-12+1282FVGO V0201701N00211045001CN0500001N1+01741+01381999999ADDAY161031AY221031GA1021+004509069GF106991021051004501071011MA1999999087641MD1999999+0101ME1315409MW1021REMSYN088AAXX  10154 67861 41484 61704 10174 20138 38764 48540 70262 82571 333 58010 82615 85460;
0234678610999992000051018004-18220+028930FM-12+1282FVGO V0201501N004112200019N0500001N1+01501-00302999999ADDAY161061AY211061GA1041+030009079GF104991041001999999031001KA1120M+01891MA1999999087731MD1999999+0041ME1315459MW1021REMSYN088AAXX  10184 67861 41984 41508 10150 21030 38773 48545 70261 84030 333 10189 58004 84360;EQDQ01-000303ATOD  
0202678610999992000051103004-18220+028930FM-12+1282FVGO V0201101N00311045001CN0250001N1+01401+01251999999ADDAY161031AY221031GA1021+002409079GF107991021071002501071999MA1999999087701MD1999999-0021ME1315439MW1601REMSYN088AAXX  11034 67861 41375 71106 10140 20125 38770 48543 76062 8277/ 333 59002 82708 87460;
0232678610999992000051106004-18220+028930FM-12+1282FVGO V0201001N003610300019N0500001N1+01501+01281999999ADDAA124002091AY161061AY221061GA1071+030009019GF107991071001999999071999KA1120N+01351MA1999999087841MD1999999+0021ME1315569MW1021REMSYN094AAXX  11064 67861 11984 71007 10150 20128 38784 48556 60024 70262 8707/ 333 20135 58002 87460;
0174678610999992000051109004-18220+028930FM-12+1282FVGO V0201001N00311045001CN0500001N1+01741+01351999999ADDGA1011+006009069GF107991011051008001031001MA1999999087911MD1999999+0011ME1315649REMSYN082AAXX  11094 67861 42584 71006 10174 20135 38791 48564 81530 333 58001 81620 87360;
0224678610999992000051112004-18220+028930FM-12+1282FVGO V0200801N00261045001CN0500001N1+01951+01351999999ADDAY191061AY221061GA1011+004509099GA2031+006009089GF107991031021008001071031MA1999999087771MD1999999+0091ME1315569MW1291REMSYN094AAXX  11124 67861 41584 70805 10195 20135 38777 48556 72992 83273 333 58009 81915 83820 85460;
0224678610999992000051115004-18220+028930FM-12+1282FVGO V0209999C000010450019N0400001N1+01831+01371999999ADDAY191031AY221031GA1011+007509099GA2031+009009089GF107991031021012501071031MA1999999087701MD1999999+0061ME1315459MW1021REMSYN094AAXX  11154 67861 41682 70000 10183 20137 38770 48545 70292 83273 333 58006 81925 83830 85099;
0215678610999992000051118004-18220+028930FM-12+1282FVGO V0200301N001010300019N0300001N1+01601+01441999999ADDAY191061AY261061GA1071+030009019GF107991071001999999071999KA1120M+02101MA1999999087811MD1999999+0081ME1315569MW1601REMSYN088AAXX  11184 67861 41980 70302 10160 20144 38781 48556 76096 8707/ 333 10210 58008 87460;
0174678610999992000051203004-18220+028930FM-12+1282FVGO V0201001N00461045001CN0250001N1+01301+01021999999ADDGA1031+004509069GF107991031051004501071999MA1999999087761MD1999999+0061ME1315489REMSYN082AAXX  12034 67861 42475 71009 10130 20102 38776 48548 8357/ 333 58006 83615 85460;
0204678610999992000051206004-18220+028930FM-12+1282FVGO V0202001N005710300019N0400001N1+01401+01031999999ADDAA124000591GA1071+030009019GF107991071001999999071999KA1120N+01251MA1999999087881MD1999999+0041ME1315629REMSYN088AAXX  12064 67861 12982 72011 10140 20103 38788 48562 69954 8707/ 333 20125 58004 87460;
0178678610999992000051209004-18220+028930FM-12+1282FVGO V0201501N00511045001CN0500001N1+01611+01061999999ADDGA1011+006309089GF107991011081008001071021MD1999999+0031ME1315669REMSYN082AAXX  12094 67861 42584 71510 10161 20106 38974 48566 81872 333 58003 81821 86460;EQDQ01+089743APOSP 
0174678610999992000051212004-18220+028930FM-12+1282FVGO V0201501N005110105019N0500001N1+01801+01121999999ADDGA1051+010509089GF107991051011012501031001MA1999999087741MD1999999-0031ME1315499REMSYN082AAXX  12124 67861 42684 71510 10180 20112 38774 48549 85130 333 59003 85835 86360;
0202678610999992000051215004-18220+028930FM-12+1282FVGO V0202001N002110045019N0300001N1+01651+01231999999ADDAY161031AY221031GA1051+004509069GF107991051051004501071999MA1999999087771MD1999999+0071ME1315529MW1601REMSYN088AAXX  12154 67861 41480 72004 10165 20123 38777 48552 76062 8557/ 333 58007 85615 87460;
0221678610999992000051218004-18220+028930FM-12+1282FVGO V0201601N00211045001CN0250001N1+01401+01171999999ADDAY161061AY221061GA1011+004509069GF107991011051004501071001KA1120M+01951MA1999999087911MD1999999+0101ME1315639MW1021REMSYN094AAXX  12184 67861 41475 71604 10140 20117 38791 48563 70262 81570 333 10195 58010 81615 86460;
0238678610999992000051306004-18220+028930FM-12+1282FVGO V0201501N00461045001CN0300001N1+01151+00661999999ADDAA124000191AY161061AY251061GA1041+002109079GF107991041061002501071999KA1120N+01081MA1999999088011MD1999999+0131ME1315719MW1021REMSYN100AAXX  13064 67861 11380 71509 10115 20066 38801 48571 69924 70265 8467/ 333 20108 58013 84707 87459;
0174678610999992000051309004-18220+028930FM-12+1282FVGO V0201601N00511045001CN0500001N1+01461+00811999999ADDGA1011+004509069GF107991011051004501071999MA1999999088071MD1999999+0131ME1315789REMSYN082AAXX  13094 67861 42484 71610 10146 20081 38807 48578 8157/ 333 58013 81615 87460;
0202678610999992000051312004-18220+028930FM-12+1282FVGO V0201501N00261045001CN0500001N1+01601+00861999999ADDAY161061AY221061GA1011+006009069GF107991011051008001071999MA1999999087861MD1999999+0121ME1315599MW1211REMSYN088AAXX  13124 67861 41584 71505 10160 20086 38786 48559 72162 8157/ 333 58012 81620 87460;
0174678610999992000051315004-18220+028930FM-12+1282FVGO V0201601N002110060019N0500001N1+01521+00861999999ADDGA1051+006009069GF107991051051008001071001MA1999999087861MD1999999+0091ME1315599REMSYN082AAXX  13154 67861 42584 71604 10152 20086 38786 48559 85570 333 58009 85620 85460;
0193678610999992000051318004-18220+028930FM-12+1282FVGO V0201701N00261045001CN0500001N1+01341+00801999999ADDGA1031+006009069GF107991031051008001071999KA1120M+01651MA1999999087971MD1999999+0061ME1315689REMSYN088AAXX  13184 67861 42584 71705 10134 20080 38797 48568 8357/ 333 10165 58006 83620 87460;
0168678610999992000051400004-18220+028930FM-12+1282FVGO V0201601N003610300019N0300001N1+01001+00561999999ADDGA1061+030009079GF106991061001999999031001MA1999999087851MD1999999-0011ME1315559REMSYN076AAXX  14004 67861 42980 61607 10100 20056 38785 48555 86030 333 59001 86360;
0168678610999992000051403004-18220+028930FM-12+1282FVGO V0201201N003112200019N0300001N1+00941+00581999999ADDGA1021+030009079GF102991021001999999041001MA1999999087831MD1999999+0031ME1315539REMSYN076AAXX  14034 67861 42980 21206 10094 20058 38783 48553 82040 333 58003 82360;
0210678610999992000051406004-18220+028930FM-12+1282FVGO V0200901N002610045019N0500001N1+01111+00661999999ADDAA124000791GA1051+004509069GF107991051051004501031001KA1120N+00851MA1999999088001MD1999999-0011ME1315699REMSYN094AAXX  14064 67861 12484 70905 10111 20066 38800 48569 69904 85530 333 20085 59001 85615 87360;
0174678610999992000051409004-18220+028930FM-12+1282FVGO V0201601N002610105019N0500001N1+01481+00711999999ADDGA1061+010509069GF107991061051012501071999MA1999999088041MD1999999-0231ME1315759REMSYN082AAXX  14094 67861 42684 71605 10148 20071 38804 48575 8657/ 333 59023 86635 87460;
0174678610999992000051412004-18220+028930FM-12+1282FVGO V0201101N00101045001CN0500001N1+01931+01021999999ADDGA1031+011109089GF107991031021012501031001MA1999999087801MD1999999-0061ME1315559REMSYN082AAXX  14124 67861 42684 71102 10193 20102 38780 48555 83230 333 59006 83837 85360;
0168678610999992000051415004-18220+028930FM-12+1282FVGO V0201801N000512200019N0500001N1+01921+00831999999ADDGA1021+012009029GF103991021011012501031001MA1999999087751MD1999999-0111ME1315509REMSYN076AAXX  14154 67861 42684 31801 10192 20083 38775 48550 82130 333 59011 82840;
0187678610999992000051418004-18220+028930FM-12+1282FVGO V0209999C000012200019N0300001N1+01251+00971999999ADDGA1031+030009079GF103991031001999999031001KA1120M+02051MA1999999087861MD1999999-0111ME1315549REMSYN082AAXX  14184 67861 42980 30000 10125 20097 38786 48554 83030 333 10205 59011 83360;
0168678610999992000051500004-18220+028930FM-12+1282FVGO V0201501N001010300019N0300001N1+01311+00541999999ADDGA1071+030009079GF107991071001999999031001MA1999999087801MD1999999-0051ME1315539REMSYN076AAXX  15004 67861 42980 71502 10131 20054 38780 48553 87030 333 59005 87360;
0168678610999992000051503004-18220+028930FM-12+1282FVGO V0201401N002110300019N0300001N1+01271+00521999999ADDGA1071+030009079GF107991071001999999031001MA1999999087841MD1999999+0011ME1315579REMSYN076AAXX  15034 67861 42980 71404 10127 20052 38784 48557 87030 333 58001 87360;
0217678610999992000051506004-18220+028930FM-12+1282FVGO V0201601N002610300019N0300001N1+01521+00551999999ADDAA199000091GA1051+030009079GF105991051001999999031001KA1120N+01071MA1999999087981MD1999999-0021ME1315719REMSYN082AAXX  15064 67861 32980 51605 10152 20055 38798 48571 85030 333 20107 59002 85360;EQDQ01  00002PRCP99
0174678610999992000051512004-18220+028930FM-12+1282FVGO V0200601N00101045001CN0500001N1+02001+00961999999ADDGA1021+013209089GF107991021011012501031001MA1999999087871MD1999999+0071ME1315639REMSYN082AAXX  15124 67861 42684 70602 10200 20096 38787 48563 82130 333 58007 82844 86360;
0202678610999992000051515004-18220+028930FM-12+1282FVGO V0201001N00051045001CN0500001N1+01801+01111999999ADDAY121031AY221031GA1011+013209089GF107991011011012501071999MA1999999087801MD1999999+0051ME1315549MW1151REMSYN088AAXX  15154 67861 41684 71001 10180 20111 38780 48554 71522 8117/ 333 58005 81844 87460;
0187678610999992000051518004-18220+028930FM-12+1282FVGO V0209999C000010300019N0500001N1+01681+01011999999ADDGA1071+030009019GF107991071001999999071999KA1120M+02081MA1999999087931MD1999999+0071ME1315669REMSYN082AAXX  15184 67861 42984 70000 10168 20101 38793 48566 8707/ 333 10208 58007 87460;
0196678610999992000051600004-18220+028930FM-12+1282FVGO V0201201N003610300019N0300001N1+01501+00521999999ADDAY161061AY221061GA1071+030009019GF107991071001999999071999MA1999999087831MD1999999+0031ME1315569MW1211REMSYN082AAXX  16004 67861 41980 71207 10150 20052 38783 48556 72162 8707/ 333 58003 87460;
0187678610999992000051603004-18220+028930FM-12+1282FVGO V0201301N003610300019N0300001N1+01341+00651999999ADDGA1061+030009019GF106991061001999999071999MA1999999087841MD1999999+0001ME1315579REMSYN076AAXX  16034 67861 42980 61307 10134 20065 38784 48557 86070 333 58000 86460;EQDQ01+000002SCOHCG
0210678610999992000051606004-18220+028930FM-12+1282FVGO V0201001N003610300019N0500001N1+01541+00821999999ADDAA124000791GA1051+030009039GF106991051001999999031011KA1120N+01191MA1999999088041MD1999999+0061ME1315779REMSYN094AAXX  16064 67861 12984 61007 10154 20082 38804 48577 69904 85031 333 20119 58006 85360 83099;
0168678610999992000051609004-18220+028930FM-12+1282FVGO V0203201N002619999999N0500001N1+01901+00941999999ADDGA1031+030009079GF105991021001999999031011MA1999999088131MD1999999+0141ME1315879REMSYN076AAXX  16094 67861 42984 53205 10190 20094 38813 48587 82031 333 58014 83360;
0174678610999992000051612004-18220+028930FM-12+1282FVGO V0203101N000510450019N0500001N1+02101+00941999999ADDGA1011+013509089GF107991011011012501031021MA1999999087831MD1999999-0041ME1315609REMSYN082AAXX  16124 67861 42684 73101 10210 20094 38783 48560 81132 333 59004 81845 87099;
0174678610999992000051615004-18220+028930FM-12+1282FVGO V0203301N000510450019N0500001N1+01921+01081999999ADDGA1011+013509069GF107991011041012501061081MA1999999087811MD1999999+0011ME1315569REMSYN082AAXX  16154 67861 42684 73301 10192 20108 38781 48556 81468 333 58001 81645 87299;
0193678610999992000051618004-18220+028930FM-12+1282FVGO V0209999C000019999999N0300001N1+01651+01451999999ADDGA1021+030009039GF107991021001999999061081KA1120M+02221MA1999999087901MD1999999-0031ME1315659REMSYN088AAXX  16184 67861 42980 70000 10165 20145 38790 48565 82068 333 10222 59003 82360 85299;
0168678610999992000051700004-18220+028930FM-12+1282FVGO V0203301N002610300019N0300001N1+01401+00761999999ADDGA1071+030009079GF107991071001999999071001MA1999999087901MD1999999+0071ME1315659REMSYN076AAXX  17004 67861 42980 73305 10140 20076 38790 48565 87070 333 58007 87360;
0168678610999992000051703004-18220+028930FM-12+1282FVGO V0203601N003112200019N0300001N1+01301+00841999999ADDGA1031+030009079GF103991031001999999031001MA1999999087861MD1999999+0021ME1315619REMSYN076AAXX  17034 67861 42980 33606 10130 20084 38786 48561 83030 333 58002 83360;
0217678610999992000051706004-18220+028930FM-12+1282FVGO V0203501N003112200019N0300001N1+01551+00941999999ADDAA199000091GA1011+030009079GF101991011001999999041021KA1120N+01201MA1999999087961MD1999999-0081ME1315719REMSYN082AAXX  17064 67861 32980 13506 10155 20094 38796 48571 81042 333 20120 59008 81360;EQDQ01  00002PRCP99
0168678610999992000051712004-18220+028930FM-12+1282FVGO V0200501N003112200019N0500001N1+02271+01091999999ADDGA1031+015009029GF104991031011017501031021MA1999999087741MD1999999-0091ME1315539REMSYN076AAXX  17124 67861 42784 40506 10227 20109 38774 48553 83132 333 59009 83850;
0168678610999992000051715004-18220+028930FM-12+1282FVGO V0200901N001512200019N0500001N1+02091+01101999999ADDGA1011+018009059GF101991011041017501041001MA1999999087671MD1999999-0141ME1315459REMSYN076AAXX  17154 67861 42784 10903 10209 20110 38767 48545 81440 333 59014 81656;
0206678610999992000051718004-18220+028930FM-12+1282FVGO V0209999C000012200019N0300001N1+01701+01091999999ADDGA1011+018009059GF101991011041017501999001KA1120M+02361MA1999999087811MD1999999-0091ME1315579REMSYN082AAXX  17184 67861 42780 10000 10170 20109 38781 48557 81400 333 10236 59009 81656;EQDQ01+000002SCOMCG
0156678610999992000051800004-18220+028930FM-12+1282FVGO V0201101N003112200019N0300001N1+01421+00301999999ADDGA1001+999999999GF100991001001999999001001MA1999999087701MD1999999-0071ME1315479REMSYN064AAXX  18004 67861 42980 01106 10142 20030 38770 48547 333 59007;
0156678610999992000051803004-18220+028930FM-12+1282FVGO V0201501N002612200019N0300001N1+01321+00961999999ADDGA1001+999999999GF100991001001999999001001MA1999999087731MD1999999-0131ME1315509REMSYN064AAXX  18034 67861 42980 01505 10132 20096 38773 48550 333 59013;
0168678610999992000051809004-18220+028930FM-12+1282FVGO V0200701N002112200019N0400001N1+02031+01121999999ADDGA1011+011409029GF101991011011012501001001MA1999999087981MD1999999-0041ME1315749REMSYN076AAXX  18094 67861 42682 10704 10203 20112 38798 48574 81100 333 59004 81838;
0168678610999992000051812004-18220+028930FM-12+1282FVGO V0200801N001010150019N0450001N1+02171+00951999999ADDGA1051+015009029GF105991051011017501001001MA1999999087751MD1999999+0011ME1315549REMSYN076AAXX  18124 67861 42783 50802 10217 20095 38775 48554 85100 333 58001 85850;
0187678610999992000051815004-18220+028930FM-12+1282FVGO V0200401N001512200019N0450001N1+02191+01051999999ADDGA1031+015009059GF103991031041017501999001MA1999999087731MD1999999+0061ME1315529REMSYN076AAXX  18154 67861 42783 30403 10219 20105 38773 48552 83400 333 58006 83650;EQDQ01    003SCOMCG
0175678610999992000051818004-18220+028930FM-12+1282FVGO V0209999C000012200019N0450001N1+01451+01031999999ADDGA1001+999999999GF100991001001999999001001KA1120M+02401MA1999999087821MD1999999+0011ME1315599REMSYN070AAXX  18184 67861 42983 00000 10145 20103 38782 48559 333 10240 58001;
0156678610999992000051900004-18220+028930FM-12+1282FVGO V0201501N003612200019N0400001N1+01381+00541999999ADDGA1001+999999999GF100991001001999999001001MA1999999087751MD1999999+0051ME1315539REMSYN064AAXX  19004 67861 42982 01507 10138 20054 38775 48553 333 58005;
0168678610999992000051903004-18220+028930FM-12+1282FVGO V0201201N004112200019N0400001N1+01301+00911999999ADDGA1011+030009079GF101991011001999999041001MA1999999087751MD1999999+0021ME1315539REMSYN076AAXX  19034 67861 42982 11208 10130 20091 38775 48553 81040 333 58002 81360;
0217678610999992000051906004-18220+028930FM-12+1282FVGO V0201001N004112200019N0400001N1+01491+00971999999ADDAA199000091GA1011+004509059GF101991011051004501041001KA1120N+01191MA1999999087941MD1999999+0031ME1315719REMSYN082AAXX  19064 67861 32482 11008 10149 20097 38794 48571 81540 333 20119 58003 81615;EQDQ01  00002PRCP99
0168678610999992000051909004-18220+028930FM-12+1282FVGO V0203101N003112200019N0450001N1+01951+01141999999ADDGA1031+010509029GF103991031011012501001001MA1999999088101MD1999999+0121ME1315869REMSYN076AAXX  19094 67861 42683 33106 10195 20114 38810 48586 83100 333 58012 83835;
0168678610999992000051912004-18220+028930FM-12+1282FVGO V0202701N000512200019N0500001N1+02241+00951999999ADDGA1031+013509029GF103991031011012501001001MA1999999087821MD1999999+0071ME1315609REMSYN076AAXX  19124 67861 42684 32701 10224 20095 38782 48560 83100 333 58007 83845;
0168678610999992000051915004-18220+028930FM-12+1282FVGO V0209999C000010135019N0500001N1+02121+00981999999ADDGA1051+013509059GF105991051041012501001001MA1999999087821MD1999999+0091ME1315599REMSYN076AAXX  19154 67861 42684 50000 10212 20098 38782 48559 85400 333 58009 85645;
0187678610999992000051918004-18220+028930FM-12+1282FVGO V0209999C000012200019N0350001N1+01601+01151999999ADDGA1031+030009079GF103991031001999999031001KA1120M+02301MA1999999087871MD1999999+0051ME1315639REMSYN082AAXX  19184 67861 42981 30000 10160 20115 38787 48563 83030 333 10230 58005 83360;
0168678610999992000052000004-18220+028930FM-12+1282FVGO V0200201N003612200019N0350001N1+01381+00541999999ADDGA1021+030009079GF102991021001999999031001MA1999999087851MD1999999+0101ME1315619REMSYN076AAXX  20004 67861 42981 20207 10138 20054 38785 48561 82030 333 58010 82360;
0168678610999992000052003004-18220+028930FM-12+1282FVGO V0203601N003612200019N0350001N1+01271+00601999999ADDGA1011+030009079GF101991011001999999041001MA1999999087861MD1999999+0111ME1315629REMSYN076AAXX  20034 67861 42981 13607 10127 20060 38786 48562 81040 333 58011 81360;
0168678610999992000052009004-18220+028930FM-12+1282FVGO V0201301N002612200019N0500001N1+01881+01041999999ADDGA1031+011409029GF104991031011012501041001MA1999999088021MD1999999-0081ME1315779REMSYN076AAXX  20094 67861 42684 41305 10188 20104 38802 48577 83140 333 59008 83838;
0187678610999992000052015004-18220+028930FM-12+1282FVGO V0201301N001512200019N0500001N1+02151+00781999999ADDGA1021+018009059GF102991021041022501999001MA1999999087751MD1999999-0071ME1315549REMSYN076AAXX  20154 67861 42884 21303 10215 20078 38775 48554 82400 333 59007 82656;EQDQ01+000002SCOMCG
0175678610999992000052018004-18220+028930FM-12+1282FVGO V0200901N001012200019N0300001N1+01451+00941999999ADDGA1001+999999999GF100991001001999999001001KA1120M+02301MA1999999087801MD1999999-0071ME1315569REMSYN070AAXX  20184 67861 42980 00902 10145 20094 38780 48556 333 10230 59007;
0168678610999992000052100004-18220+028930FM-12+1282FVGO V0201301N003612200019N0300001N1+01381+00591999999ADDGA1011+027009079GF101991011001999999031001MA1999999087811MD1999999-0041ME1315579REMSYN076AAXX  21004 67861 42980 11307 10138 20059 38781 48557 81030 333 59004 81359;
0168678610999992000052103004-18220+028930FM-12+1282FVGO V0200901N004112200019N0300001N1+01301+00731999999ADDGA1011+004509059GF101991011051004501031001MA1999999087781MD1999999-0081ME1315559REMSYN076AAXX  21034 67861 42480 10908 10130 20073 38778 48555 81530 333 59008 81615;
0196678610999992000052109004-18220+028930FM-12+1282FVGO V0200901N002112200019N0200001N1+01911+01051999999ADDAY111031AY211031GA1011+010809029GF101991011011012501041001MA1999999087951MD1999999-0071ME1315709MW1051REMSYN082AAXX  21094 67861 41670 10904 10191 20105 38795 48570 70511 81140 333 59007 81836;
0168678610999992000052112004-18220+028930FM-12+1282FVGO V0203301N000510180019N0250001N1+02031+00721999999ADDGA1051+018009029GF105991051021017501001001MA1999999087781MD1999999-0011ME1315559REMSYN076AAXX  21124 67861 42775 53301 10203 20072 38778 48555 85200 333 59001 85856;
0168678610999992000052115004-18220+028930FM-12+1282FVGO V0209999C000012200019N0300001N1+02051+00691999999ADDGA1011+018009059GF101991011041017501061001MA1999999087771MD1999999+0021ME1315559REMSYN076AAXX  21154 67861 42780 10000 10205 20069 38777 48555 81460 333 58002 81656;
0175678610999992000052118004-18220+028930FM-12+1282FVGO V0209999C000012200019N0250001N1+01351+00891999999ADDGA1001+999999999GF100991001001999999001001KA1120M+02221MA1999999087781MD1999999+0081ME1315639REMSYN070AAXX  21184 67861 42975 00000 10135 20089 38778 48563 333 10222 58008;
0156678610999992000052203004-18220+028930FM-12+1282FVGO V0203601N002112200019N0300001N1+01251+00631999999ADDGA1001+999999999GF100991001001999999001001MA1999999087811MD1999999+0031ME1315569REMSYN064AAXX  22034 67861 42980 03604 10125 20063 38781 48556 333 58003;
0245678610999992000052206004-18220+028930FM-12+1282FVGO V0203401N001010060019N0180001N1+01571+01001999999ADDAA199000091AY111061AY211061GA1051+006009059GF105991051051008001001001KA1120N+01201MA1999999087911MD1999999-0011ME1315669MW1051REMSYN088AAXX  22064 67861 31568 53402 10157 20100 38791 48566 70511 85500 333 20120 59001 85620;EQDQ01  00002PRCP99
0168678610999992000052209004-18220+028930FM-12+1282FVGO V0200201N001512200019N0500001N1+01951+01001999999ADDGA1031+012009029GF104991031011012501041001MA1999999087941MD1999999-0011ME1315709REMSYN076AAXX  22094 67861 42684 40203 10195 20100 38794 48570 83140 333 59001 83840;
0168678610999992000052212004-18220+028930FM-12+1282FVGO V0200701N001512200019N0500001N1+02051+00921999999ADDGA1041+014109029GF104991041011012501001001MA1999999087721MD1999999-0061ME1315509REMSYN076AAXX  22124 67861 42684 40703 10205 20092 38772 48550 84100 333 59006 84847;
0187678610999992000052215004-18220+028930FM-12+1282FVGO V0203101N001012200019N0500001N1+02201+01001999999ADDGA1011+018009059GF101991011041022501999001MA1999999087671MD1999999-0101ME1315469REMSYN076AAXX  22154 67861 42884 13102 10220 20100 38767 48546 81400 333 59010 81656;EQDQ01+000002SCOMCG
0186678610999992000052218004-18220+028930FM-12+1282FVGO V0209999C000012200019N0300001N1+00502+00131999999ADDGA1011+090009019GF101991001001999999001021KA1120M+02331MA1999999087761ME1315539REMSYN076AAXX  22184 67861 42980 10000 10050 20013 38776 48553 80002 333 10233 81080;EQDQ01+000503ATOT  
0168678610999992000052303004-18220+028930FM-12+1282FVGO V0209999C000019999999N0300001N1+01001+00801999999ADDGA1011+027009079GF105991011001999999031081MA1999999087611MD1999999-0201ME1315389REMSYN076AAXX  23034 67861 42980 50000 10100 20080 38761 48538 81038 333 59020 81359;
0217678610999992000052306004-18220+028930FM-12+1282FVGO V0201101N001512200019N0300001N1+01601+00851999999ADDAA199000091GA1011+027009079GF101991011001999999041021KA1120N+00981MA1999999087731MD1999999-0181ME1315509REMSYN082AAXX  23064 67861 32980 11103 10160 20085 38773 48550 81042 333 20098 59018 81359;EQDQ01  00002PRCP99
0168678610999992000052309004-18220+028930FM-12+1282FVGO V0201001N001012200019N0300001N1+02211+00891999999ADDGA1041+015009029GF104991041011017501001021MA1999999087801MD1999999-0141ME1315589REMSYN076AAXX  23094 67861 42780 41002 10221 20089 38780 48558 84102 333 59014 84850;
0168678610999992000052312004-18220+028930FM-12+1282FVGO V0202901N001512200019N0300001N1+02401+00841999999ADDGA1041+018009029GF104991041011022501001021MA1999999087581MD1999999-0141ME1315399REMSYN076AAXX  23124 67861 42880 42903 10240 20084 38758 48539 84102 333 59014 84856;
0187678610999992000052315004-18220+028930FM-12+1282FVGO V0203001N000512200019N0300001N1+02201+01021999999ADDGA1021+018009059GF103991021041022501999021MA1999999087521MD1999999-0151ME1315319REMSYN076AAXX  23154 67861 42880 33001 10220 20102 38752 48531 82402 333 59015 82656;EQDQ01+000002SCOMCG
0206678610999992000052318004-18220+028930FM-12+1282FVGO V0209999C000012200019N0250001N1+01601+01171999999ADDGA1021+018009059GF102991021041022501999021KA1120M+02451MA1999999087801MD1999999+0041ME1315579REMSYN082AAXX  23184 67861 42875 20000 10160 20117 38780 48557 82402 333 10245 58004 82656;EQDQ01+000002SCOMCG
0156678610999992000052400004-18220+028930FM-12+1282FVGO V0209999C000012200019N0300001N1+01191+00951999999ADDGA1001+999999999GF100991001001999999001001MA1999999087541MD1999999-0151ME1315329REMSYN064AAXX  24004 67861 42980 00000 10119 20095 38754 48532 333 59015;
0156678610999992000052403004-18220+028930FM-12+1282FVGO V0209999C000012200019N0300001N1+01141+00881999999ADDGA1001+999999999GF100991001001999999001001MA1999999087541MD1999999-0071ME1315329REMSYN064AAXX  24034 67861 42980 00000 10114 20088 38754 48532 333 59007;
0233678610999992000052406004-18220+028930FM-12+1282FVGO V0209999C000012200019N0200001N1+01641+01111999999ADDAA199000091AY101061AY201061GA1001+999999999GF100991001001999999001001KA1120N+01011MA1999999087641MD1999999-0091ME1315429MW1051REMSYN076AAXX  24064 67861 31970 00000 10164 20111 38764 48542 70500 333 20101 59009;EQDQ01  00002PRCP99
0196678610999992000052409004-18220+028930FM-12+1282FVGO V0200301N001012200019N0200001N1+02151+00701999999ADDAY101031AY201031GA1011+018009029GF101991011011017501001001MA1999999087751MD1999999-0051ME1315549MW1051REMSYN082AAXX  24094 67861 41770 10302 10215 20070 38775 48554 70500 81100 333 59005 81856;
0168678610999992000052412004-18220+028930FM-12+1282FVGO V0203001N001012200019N0300001N1+02351+00911999999ADDGA1011+018009029GF101991011011017501001001MA1999999087561MD1999999-0021ME1315379REMSYN076AAXX  24124 67861 42780 13002 10235 20091 38756 48537 81100 333 59002 81856;
0187678610999992000052415004-18220+028930FM-12+1282FVGO V0202901N000512200019N0300001N1+02151+00941999999ADDGA1011+018009059GF101991011041017501999001MA1999999087541MD1999999+0021ME1315339REMSYN076AAXX  24154 67861 42780 12901 10215 20094 38754 48533 81400 333 58002 81656;EQDQ01+000002SCOMCG
0175678610999992000052418004-18220+028930FM-12+1282FVGO V0209999C000012200019N0250001N1+01501+01011999999ADDGA1001+999999999GF100991001001999999001001KA1120M+02471MA1999999087621MD1999999+0021ME1315409REMSYN070AAXX  24184 67861 42975 00000 10150 20101 38762 48540 333 10247 58002;
0156678610999992000052500004-18220+028930FM-12+1282FVGO V0203601N001512200019N0300001N1+01451+00701999999ADDGA1001+999999999GF100991001001999999001001MA1999999087651MD1999999+0111ME1315439REMSYN064AAXX  25004 67861 42980 03603 10145 20070 38765 48543 333 58011;
0156678610999992000052503004-18220+028930FM-12+1282FVGO V0203601N002612200019N0400001N1+01351+01141999999ADDGA1001+999999999GF100991001001999999001001MA1999999087631MD1999999+0091ME1315419REMSYN064AAXX  25034 67861 42982 03605 10135 20114 38763 48541 333 58009;
0233678610999992000052506004-18220+028930FM-12+1282FVGO V0203301N001012200019N0150001N1+01661+00931999999ADDAA199000091AY101061AY201061GA1001+999999999GF100991001001999999001001KA1120N+01191MA1999999087751MD1999999+0111ME1315539MW1051REMSYN076AAXX  25064 67861 31965 03302 10166 20093 38775 48553 70500 333 20119 58011;EQDQ01  00002PRCP99
0168678610999992000052509004-18220+028930FM-12+1282FVGO V0200401N001512200019N0500001N1+02201+01061999999ADDGA1011+014709029GF101991011011012501001001MA1999999087761MD1999999+0011ME1315559REMSYN076AAXX  25094 67861 42684 10403 10220 20106 38776 48555 81100 333 58001 81849;
0168678610999992000052512004-18220+028930FM-12+1282FVGO V0200701N001512200019N0500001N1+02311+00941999999ADDGA1031+018009029GF103991031011022501001001MA1999999087521MD1999999-0041ME1315329REMSYN076AAXX  25124 67861 42884 30703 10231 20094 38752 48532 83100 333 59004 83856;
0206678610999992000052518004-18220+028930FM-12+1282FVGO V0209999C000012200019N0300001N1+01651+01131999999ADDGA1011+021009059GF101991011041022501999001KA1120M+02461MA1999999087581MD1999999-0141ME1315369REMSYN082AAXX  25184 67861 42880 10000 10165 20113 38758 48536 81400 333 10246 59014 81657;EQDQ01+000002SCOMCG
0156678610999992000052600004-18220+028930FM-12+1282FVGO V0201801N001012200019N0300001N1+01201+00821999999ADDGA1001+999999999GF100991001001999999001001MA1999999087521MD1999999-0131ME1315309REMSYN064AAXX  26004 67861 42980 01802 10120 20082 38752 48530 333 59013;
0156678610999992000052603004-18220+028930FM-12+1282FVGO V0201601N002612200019N0300001N1+01601+00761999999ADDGA1001+999999999GF100991001001999999001001MA1999999087431MD1999999-0201ME1315219REMSYN064AAXX  26034 67861 42980 01605 10160 20076 38743 48521 333 59020;
0205678610999992000052606004-18220+028930FM-12+1282FVGO V0201301N000512200019N0300001N1+01851+01021999999ADDAA199000091GA1001+999999999GF100991001001999999001001KA1120N+01131MA1999999087631MD1999999-0121ME1315419REMSYN070AAXX  26064 67861 32980 01301 10185 20102 38763 48541 333 20113 59012;EQDQ01  00002PRCP99
0156678610999992000052609004-18220+028930FM-12+1282FVGO V0200101N001512200019N0280001N1+02201+01011999999ADDGA1001+999999999GF100991001001999999001001MA1999999087681MD1999999-0081ME1315479REMSYN064AAXX  26094 67861 42978 00103 10220 20101 38768 48547 333 59008;
0168678610999992000052612004-18220+028930FM-12+1282FVGO V0203301N002612200019N0300001N1+02401+00881999999ADDGA1011+018009029GF101991011011017501001001MA1999999087411MD1999999-0111ME1315229REMSYN076AAXX  26124 67861 42780 13305 10240 20088 38741 48522 81100 333 59011 81856;
0156678610999992000052615004-18220+028930FM-12+1282FVGO V0209999C000012200019N0300001N1+02311+01021999999ADDGA1001+999999999GF100991001001999999001001MA1999999087391MD1999999-0091ME1315199REMSYN064AAXX  26154 67861 42980 00000 10231 20102 38739 48519 333 59009;
0175678610999992000052618004-18220+028930FM-12+1282FVGO V0209999C000012200019N0250001N1+01741+00961999999ADDGA1001+999999999GF100991001001999999001001KA1120M+02521MA1999999087481MD1999999-0101ME1315279REMSYN070AAXX  26184 67861 42975 00000 10174 20096 38748 48527 333 10252 59010;
0168678610999992000052700004-18220+028930FM-12+1282FVGO V0209999C000012200019N0250001N1+01301+00961999999ADDGA1021+030009079GF102991021001999999031001MA1999999087391MD1999999-0131ME1315199REMSYN076AAXX  27004 67861 42975 20000 10130 20096 38739 48519 82030 333 59013 82360;
0168678610999992000052703004-18220+028930FM-12+1282FVGO V0209999C000012200019N0250001N1+01381+00931999999ADDGA1011+030009079GF101991011001999999031001MA1999999087341MD1999999-0091ME1315149REMSYN076AAXX  27034 67861 42975 10000 10138 20093 38734 48514 81030 333 59009 81360;
0205678610999992000052706004-18220+028930FM-12+1282FVGO V0203601N000512200019N0260001N1+01951+01021999999ADDAA199000091GA1001+999999999GF100991001001999999001001KA1120N+01241MA1999999087491MD1999999-0141ME1315289REMSYN070AAXX  27064 67861 32976 03601 10195 20102 38749 48528 333 20124 59014;EQDQ01  00002PRCP99
0156678610999992000052709004-18220+028930FM-12+1282FVGO V0202301N002612200019N0300001N1+02351+00771999999ADDGA1001+999999999GF100991001001999999001001MA1999999087571MD1999999-0111ME1315389REMSYN064AAXX  27094 67861 42980 02305 10235 20077 38757 48538 333 59011;
0168678610999992000052712004-18220+028930FM-12+1282FVGO V0203501N001012200019N0300001N1+02521+00771999999ADDGA1011+021009029GF101991011011022501001001MA1999999087401MD1999999-0011ME1315219REMSYN076AAXX  27124 67861 42880 13502 10252 20077 38740 48521 81100 333 59001 81857;
0187678610999992000052715004-18220+028930FM-12+1282FVGO V0202701N000512200019N0300001N1+02411+00981999999ADDGA1011+021009059GF101991011041022501999001MA1999999087291MD1999999-0101ME1315109REMSYN076AAXX  27154 67861 42880 12701 10241 20098 38729 48510 81400 333 59010 81657;EQDQ01+000002SCOMCG
0175678610999992000052718004-18220+028930FM-12+1282FVGO V0209999C000012200019N0280001N1+01671+01011999999ADDGA1001+999999999GF100991001001999999001001KA1120M+02601MA1999999087441MD1999999-0041ME1315249REMSYN070AAXX  27184 67861 42978 00000 10167 20101 38744 48524 333 10260 59004;
0156678610999992000052800004-18220+028930FM-12+1282FVGO V0209999C000012200019N0300001N1+01251+00841999999ADDGA1001+999999999GF100991001001999999001001MA1999999087401MD1999999+0011ME1315209REMSYN064AAXX  28004 67861 42980 00000 10125 20084 38740 48520 333 58001;
0156678610999992000052803004-18220+028930FM-12+1282FVGO V0209999C000012200019N0280001N1+01101+00751999999ADDGA1001+999999999GF100991001001999999001001MA1999999087331MD1999999-0011ME1315139REMSYN064AAXX  28034 67861 42978 00000 10110 20075 38733 48513 333 59001;
0233678610999992000052806004-18220+028930FM-12+1282FVGO V0209999C000012200019N0200001N1+01911+00841999999ADDAA199000091AY101061AY201061GA1001+999999999GF100991001001999999001001KA1120N+01051MA1999999087521MD1999999+0031ME1315329MW1051REMSYN076AAXX  28064 67861 31970 00000 10191 20084 38752 48532 70500 333 20105 58003;EQDQ01  00002PRCP99
0156678610999992000052809004-18220+028930FM-12+1282FVGO V0203401N001512200019N0250001N1+02411+00821999999ADDGA1001+999999999GF100991001001999999001001MA1999999087561MD1999999-0011ME1315379REMSYN064AAXX  28094 67861 42975 03403 10241 20082 38756 48537 333 59001;
0168678610999992000052812004-18220+028930FM-12+1282FVGO V0203301N002610270019N0300001N1+02541+00631999999ADDGA1051+027009029GF105991051011999999001001MA1999999087391MD1999999-0011ME1315219REMSYN076AAXX  28124 67861 42980 53305 10254 20063 38739 48521 85100 333 59001 85859;
0168678610999992000052815004-18220+028930FM-12+1282FVGO V0203501N001012200019N0300001N1+02321+00911999999ADDGA1031+024009029GF103991031011999999001001MA1999999087391MD1999999+0101ME1315199REMSYN076AAXX  28154 67861 42980 33502 10232 20091 38739 48519 83100 333 58010 83858;
0206678610999992000052818004-18220+028930FM-12+1282FVGO V0209999C000012200019N0300001N1+01671+00921999999ADDGA1011+024009059GF101991011041999999999001KA1120M+02641MA1999999087531MD1999999+0091ME1315339REMSYN082AAXX  28184 67861 42980 10000 10167 20092 38753 48533 81400 333 10264 58009 81658;EQDQ01+000002SCOMCG
0156678610999992000052900004-18220+028930FM-12+1282FVGO V0200801N000512200019N0280001N1+01401+00741999999ADDGA1001+999999999GF100991001001999999001001MA1999999087471MD1999999+0071ME1315279REMSYN064AAXX  29004 67861 42978 00801 10140 20074 38747 48527 333 58007;
0168678610999992000052903004-18220+028930FM-12+1282FVGO V0201001N003612200019N0280001N1+01321+01141999999ADDGA1011+030009079GF101991011001999999031001MA1999999087531MD1999999+0201ME1315339REMSYN076AAXX  29034 67861 42978 11007 10132 20114 38753 48533 81030 333 58020 81360;
0233678610999992000053006004-18220+028930FM-12+1282FVGO V0203001N001012200019N0150001N1+01751+01171999999ADDAA199000091AY101061AY201061GA1001+999999999GF100991001001999999001001KA1120N+01151MA1999999087791MD1999999+0091ME1315589MW1051REMSYN076AAXX  30064 67861 31965 03002 10175 20117 38779 48558 70500 333 20115 58009;EQDQ01  00002PRCP99
0168678610999992000053009004-18220+028930FM-12+1282FVGO V0203201N001012200019N0300001N1+02251+01071999999ADDGA1011+015009029GF101991011011017501001001MA1999999087801MD1999999-0031ME1315599REMSYN076AAXX  30094 67861 42780 13202 10225 20107 38780 48559 81100 333 59003 81850;
0168678610999992000053012004-18220+028930FM-12+1282FVGO V0202901N001512200019N0300001N1+02401+00841999999ADDGA1041+018009029GF104991041021022501061001MA1999999087591MD1999999+0001ME1315409REMSYN076AAXX  30124 67861 42880 42903 10240 20084 38759 48540 84260 333 58000 84856;
0168678610999992000053015004-18220+028930FM-12+1282FVGO V0203301N001012200019N0300001N1+02351+00881999999ADDGA1031+018009029GF104991031021022501061001MA1999999087561MD1999999-0041ME1315379REMSYN076AAXX  30154 67861 42880 43302 10235 20088 38756 48537 83260 333 59004 83856;
0187678610999992000053018004-18220+028930FM-12+1282FVGO V0209999C000012200019N0300001N1+01631+01061999999ADDGA1011+021009059GF101991011041022501061001KA1120M+02531MA1999999087671MD1999999-0011ME1315469REMSYN082AAXX  30184 67861 42880 10000 10163 20106 38767 48546 81460 333 10253 59001 81657;
0156678610999992000053100004-18220+028930FM-12+1282FVGO V0202701N002612200019N0300001N1+01601+00591999999ADDGA1001+999999999GF100991001001999999001001MA1999999087601MD1999999-0031ME1315399REMSYN064AAXX  31004 67861 42980 02705 10160 20059 38760 48539 333 59003;
0156678610999992000053103004-18220+028930FM-12+1282FVGO V0202401N001512200019N0300001N1+01401+00651999999ADDGA1001+999999999GF100991001001999999001001MA1999999087561MD1999999-0051ME1315359REMSYN064AAXX  31034 67861 42980 02403 10140 20065 38756 48535 333 59005;
0205678610999992000053106004-18220+028930FM-12+1282FVGO V0201001N001512200019N0300001N1+01701+00761999999ADDAA199000091GA1001+999999999GF100991001001999999001001KA1120N+01181MA1999999087741MD1999999-0051ME1315539REMSYN070AAXX  31064 67861 32980 01003 10170 20076 38774 48553 333 20118 59005;EQDQ01  00002PRCP99
0156678610999992000053109004-18220+028930FM-12+1282FVGO V0201701N001512200019N0300001N1+02301+00321999999ADDGA1001+999999999GF100991001001999999001001MA1999999087851MD1999999+0051ME1315649REMSYN064AAXX  31094 67861 42980 01703 10230 20032 38785 48564 333 58005;
0168678610999992000053112004-18220+028930FM-12+1282FVGO V0200801N002112200019N0280001N1+02501+00461999999ADDGA1011+024009029GF101991011011999999001001MA1999999087641MD1999999+0051ME1315459REMSYN076AAXX  31124 67861 42978 10804 10250 20046 38764 48545 81100 333 58005 81858;
0156678610999992000053115004-18220+028930FM-12+1282FVGO V0200701N000512200019N0280001N1+02271+00611999999ADDGA1001+999999999GF100991001001999999001001MA1999999087621MD1999999+0061ME1315429REMSYN064AAXX  31154 67861 42978 00701 10227 20061 38762 48542 333 58006;
0175678610999992000053118004-18220+028930FM-12+1282FVGO V0209999C000012200019N0280001N1+01411+00801999999ADDGA1001+999999999GF100991001001999999001001KA1120M+02551MA1999999087761MD1999999+0091ME1315559REMSYN070AAXX  31184 67861 42978 00000 10141 20080 38776 48555 333 10255 58009;
0156678610999992000060103004-18220+028930FM-12+1282FVGO V0201001N002612200019N0250001N1+01351+00241999999ADDGA1001+999999999GF100991001001999999001001MA1999999087741MD1999999+0181ME1315539REMSYN064AAXX  01034 67861 42975 01005 10135 20024 38774 48553 333 58018;
0205678610999992000060106004-18220+028930FM-12+1282FVGO V0201301N003612200019N0220001N1+01551+00181999999ADDAA199000091GA1001+999999999GF100991001001999999001001KA1120N+01191MA1999999087961MD1999999+0221ME1315749REMSYN070AAXX  01064 67861 32972 01307 10155 20018 38796 48574 333 20119 58022;EQDQ01  00002PRCP99
0156678610999992000060109004-18220+028930FM-12+1282FVGO V0202001N002612200019N0300001N1+02001+00431999999ADDGA1001+999999999GF100991001001999999001001MA1999999087991MD1999999+0141ME1315759REMSYN064AAXX  01094 67861 42980 02005 10200 20043 38799 48575 333 58014;
0156678610999992000060112004-18220+028930FM-12+1282FVGO V0200801N003612200019N0300001N1+02281+00141999999ADDGA1001+999999999GF100991001001999999001001MA1999999087751MD1999999+0091ME1315549REMSYN064AAXX  01124 67861 42980 00807 10228 20014 38775 48554 333 58009;
0156678610999992000060115004-18220+028930FM-12+1282FVGO V0201201N001512200019N0300001N1+02151-00031999999ADDGA1001+999999999GF100991001001999999001001MA1999999087691MD1999999+0071ME1315489REMSYN064AAXX  01154 67861 42980 01203 10215 21003 38769 48548 333 58007;
0175678610999992000060118004-18220+028930FM-12+1282FVGO V0200801N001512200019N0300001N1+01751-00171999999ADDGA1001+999999999GF100991001001999999001001KA1120M+02351MA1999999087801MD1999999+0041ME1315569REMSYN070AAXX  01184 67861 42980 00803 10175 21017 38780 48556 333 10235 58004;
0156678610999992000060200004-18220+028930FM-12+1282FVGO V0201301N004112200019N0300001N1+01221+00571999999ADDGA1001+999999999GF100991001001999999001001MA1999999087761MD1999999+0021ME1315539REMSYN064AAXX  02004 67861 42980 01308 10122 20057 38776 48553 333 58002;
0156678610999992000060203004-18220+028930FM-12+1282FVGO V0201101N003612200019N0300001N1+01111+00701999999ADDGA1001+999999999GF100991001001999999001001MA1999999087801MD1999999+0061ME1315569REMSYN064AAXX  02034 67861 42980 01107 10111 20070 38780 48556 333 58006;
0168678610999992000060312004-18220+028930FM-12+1282FVGO V0200101N003612200019N0300001N1+01981+00711999999ADDGA1031+015009029GF103991031011017501001001MA1999999087661MD1999999-0071ME1315439REMSYN076AAXX  03124 67861 42780 30107 10198 20071 38766 48543 83100 333 59007 83850;
0187678610999992000060315004-18220+028930FM-12+1282FVGO V0200201N000512200019N0300001N1+01901+00781999999ADDGA1011+015009059GF101991011041017501999001MA1999999087361MD1999999-0051ME1315399REMSYN076AAXX  03154 67861 42780 10201 10190 20078 38736 48539 81400 333 59005 81650;EQDQ01    003SCOMCG
0206678610999992000060318004-18220+028930FM-12+1282FVGO V0209999C000012200019N0300001N1+01221+00791999999ADDGA1011+015009059GF101991011041017501999001KA1120M+02061MA1999999087761MD1999999+0001ME1315509REMSYN082AAXX  03184 67861 42780 10000 10122 20079 38776 48550 81400 333 10206 58000 81650;EQDQ01    003SCOMCG
0168678610999992000060403004-18220+028930FM-12+1282FVGO V0200901N003112200019N0280001N1+01321+00811999999ADDGA1011+030009079GF101991011001999999031001MA1999999087781MD1999999+0101ME1315529REMSYN076AAXX  04034 67861 42978 10906 10132 20081 38778 48552 81030 333 58010 81360;
0168678610999992000060412004-18220+028930FM-12+1282FVGO V0201301N001512200019N0400001N1+02101+00961999999ADDGA1041+014709029GF104991041021012501001001MA1999999087851MD1999999+0191ME1315629REMSYN076AAXX  04124 67861 42682 41303 10210 20096 38785 48562 84200 333 58019 84849;
0168678610999992000060415004-18220+028930FM-12+1282FVGO V0209999C000012200019N0400001N1+02091+00921999999ADDGA1031+015009029GF103991031021017501031001MA1999999087821MD1999999+0191ME1315599REMSYN076AAXX  04154 67861 42782 30000 10209 20092 38782 48559 83230 333 58019 83850;
0206678610999992000060418004-18220+028930FM-12+1282FVGO V0209999C000012200019N0300001N1+01491+00971999999ADDGA1011+015009059GF101991011041017501999001KA1120M+02291MA1999999087931MD1999999+0171ME1315689REMSYN082AAXX  04184 67861 42780 10000 10149 20097 38793 48568 81400 333 10229 58017 81650;EQDQ01    003SCOMCG
0168678610999992000060500004-18220+028930FM-12+1282FVGO V0201201N003610045019N0250001N1+01401+01061999999ADDGA1051+004509059GF105991051051004501031001MA1999999087961MD1999999+0191ME1315689REMSYN076AAXX  05004 67861 42475 51207 10140 20106 38796 48568 85530 333 58019 85615;
0223678610999992000060506004-18220+028930FM-12+1282FVGO V0201401N00511045001CN0250001N1+01361+01151999999ADDAA199000091GA1041+004509069GF107991041051004501031001KA1120N+01261MA1999999088021MD1999999+0071ME1315749REMSYN088AAXX  05064 67861 32475 71410 10136 20115 38802 48574 84530 333 20126 58007 84615 85360;EQDQ01  00002PRCP99
0174678610999992000060509004-18220+028930FM-12+1282FVGO V0201501N005110060019N0300001N1+01501+01061999999ADDGA1051+006009069GF107991051051008001071999MA1999999088121MD1999999+0111ME1315859REMSYN082AAXX  05094 67861 42580 71510 10150 20106 38812 48585 8557/ 333 58011 85620 86460;
0202678610999992000060512004-18220+028930FM-12+1282FVGO V0201401N003610045019N0300001N1+01451+01001999999ADDAY161061AY221061GA1061+004509069GF108991061051008001071999MA1999999087981MD1999999+0141ME1315709MW1601REMSYN088AAXX  05124 67861 41580 81407 10145 20100 38798 48570 76062 8657/ 333 58014 86615 88459;
0202678610999992000060515004-18220+028930FM-12+1282FVGO V0201301N002110060019N0300001N1+01361+01081999999ADDAY161031AY221031GA1061+006009069GF108991061051004501071999MA1999999087931MD1999999+0111ME1315529MW1601REMSYN088AAXX  05154 67861 41480 81304 10136 20108 38793 48552 76062 8657/ 333 58011 86620 88459;
0221678610999992000060518004-18220+028930FM-12+1282FVGO V0200701N001010045019N0300001N1+01201+01081999999ADDAY161061AY221061GA1051+004509069GF108991051051004501071999KA1120M+01591MA1999999088021MD1999999+0231ME1315789MW1611REMSYN094AAXX  05184 67861 41480 80702 10120 20108 38802 48578 76162 8557/ 333 10159 58023 85615 88459;
0238678610999992000060606004-18220+028930FM-12+1282FVGO V0201601N003110045019N0300001N1+01201+01021999999ADDAA124005191AY161061AY251061GA1061+004509069GF107991061051004501031001KA1120N+01131MA1999999088021MD1999999+0001ME1315729MW1021REMSYN100AAXX  06064 67861 11480 71606 10120 20102 38802 48572 60054 70265 86530 333 20113 58000 86615 85359;
0168678610999992000060609004-18220+028930FM-12+1282FVGO V0201301N003612200019N0400001N1+01651+01041999999ADDGA1031+007809029GF104991031011008001031001MA1999999088101MD1999999-0021ME1315849REMSYN076AAXX  06094 67861 42582 41307 10165 20104 38810 48584 83130 333 59002 83826;
0168678610999992000060612004-18220+028930FM-12+1282FVGO V0200801N003110120019N0500001N1+01961+00991999999ADDGA1051+012009029GF105991051011012501031001MA1999999087911MD1999999-0071ME1315679REMSYN076AAXX  06124 67861 42684 50806 10196 20099 38791 48567 85130 333 59007 85840;
0168678610999992000060615004-18220+028930FM-12+1282FVGO V0200901N001512200019N0500001N1+01801+01011999999ADDGA1031+012009059GF103991031041012501001001MA1999999087861MD1999999-0071ME1315609REMSYN076AAXX  06154 67861 42684 30903 10180 20101 38786 48560 83400 333 59007 83640;
0187678610999992000060618004-18220+028930FM-12+1282FVGO V0201001N002112200019N0500001N1+01641+00971999999ADDGA1031+012009059GF103991031041012501001001KA1120M+02011MA1999999087891MD1999999-0131ME1315629REMSYN082AAXX  06184 67861 42684 31004 10164 20097 38789 48562 83400 333 10201 59013 83640;
0168678610999992000060700004-18220+028930FM-12+1282FVGO V0201301N004112200019N0500001N1+01331+01181999999ADDGA1011+004509059GF102991011051004501031001MA1999999087911MD1999999+0001ME1315649REMSYN076AAXX  07004 67861 42484 21308 10133 20118 38791 48564 81530 333 58000 81615;
0168678610999992000060703004-18220+028930FM-12+1282FVGO V0201301N003612200019N0400001N1+01161+01051999999ADDGA1011+030009079GF101991011001999999031001MA1999999087841MD1999999-0061ME1315579REMSYN076AAXX  07034 67861 42982 11307 10116 20105 38784 48557 81030 333 59006 81360;
0217678610999992000060706004-18220+028930FM-12+1282FVGO V0201401N005112200019N0400001N1+01401+01141999999ADDAA199000091GA1011+004509029GF101991011011004501001001KA1120N+01101MA1999999087951MD1999999-0071ME1315689REMSYN082AAXX  07064 67861 32482 11410 10140 20114 38795 48568 81100 333 20110 59007 81815;EQDQ01  00002PRCP99
0168678610999992000060709004-18220+028930FM-12+1282FVGO V0201501N004112200019N0300001N1+01751+01131999999ADDGA1011+007809029GF101991011011008001041001MA1999999087901MD1999999-0111ME1315739REMSYN076AAXX  07094 67861 42580 11508 10175 20113 38790 48573 81140 333 59011 81826;
0168678610999992000060715004-18220+028930FM-12+1282FVGO V0200701N001012200019N0300001N1+01901+01081999999ADDGA1031+013509059GF103991031041012501061001MA1999999087771MD1999999-0091ME1315529REMSYN076AAXX  07154 67861 42680 30702 10190 20108 38777 48552 83460 333 59009 83645;
0221678610999992000060718004-18220+028930FM-12+1282FVGO V0200601N000510450019N0250001N1+01571+01281999999ADDAY181061AY211061GA1011+010509099GF105991031021012501061031KA1120M+02161MA1999999087921MD1999999+0031ME1315659MW1801REMSYN094AAXX  07184 67861 41675 50601 10157 20128 38792 48565 78081 83263 333 10216 58003 81935 83840;
0196678610999992000060800004-18220+028930FM-12+1282FVGO V0200601N002612200019N0250001N1+01301+01121999999ADDAY181061AY211061GA1031+027009079GF103991031001999999031001MA1999999087911MD1999999+0001ME1315659MW1011REMSYN082AAXX  08004 67861 41975 30605 10130 20112 38791 48565 70181 83030 333 58000 83359;
0153678610999992000060803004-18220+028930FM-12+1282FVGO V0201401N002112200019N0250001N1+01301+01121999999ADDGA1011+027009079GF101991011001999999031001MA1999999087881MD1999999+0011REMSYN070AAXX  08034 67861 42975 11404 10130 20112 38788 81030 333 58001 81359;
0204678610999992000060806004-18220+028930FM-12+1282FVGO V0201301N003612200019N0250001N1+01401+01231999999ADDAA124001091GA1011+027009079GF101991011001999999031001KA1120N+01221MA1999999088001MD1999999+0051ME1315749REMSYN088AAXX  08064 67861 12975 11307 10140 20123 38800 48574 60014 81030 333 20122 58005 81359;
0168678610999992000060809004-18220+028930FM-12+1282FVGO V0200801N003112200019N0400001N1+01901+01231999999ADDGA1031+008409029GF103991031011008001041001MA1999999088031MD1999999+0041ME1315809REMSYN076AAXX  08094 67861 42582 30806 10190 20123 38803 48580 83140 333 58004 83828;
0168678610999992000060812004-18220+028930FM-12+1282FVGO V0203601N002110105019N0500001N1+02001+01311999999ADDGA1061+010509029GF106991061021012501001001MA1999999087901MD1999999+0081ME1315669REMSYN076AAXX  08124 67861 42684 63604 10200 20131 38790 48566 86200 333 58008 86835;
0168678610999992000060815004-18220+028930FM-12+1282FVGO V0200301N000510450019N0500001N1+01851+01291999999ADDGA1041+010809029GF105991041041012501031001MA1999999087881MD1999999+0111ME1315639REMSYN076AAXX  08154 67861 42684 50301 10185 20129 38788 48563 84430 333 58011 84836;
0187678610999992000060818004-18220+028930FM-12+1282FVGO V0209999C000012200019N0500001N1+01481+01311999999ADDGA1021+010809059GF102991021041012501001001KA1120M+02151MA1999999087961MD1999999+0041ME1315709REMSYN082AAXX  08184 67861 42684 20000 10148 20131 38796 48570 82400 333 10215 58004 82636;
0217678610999992000060906004-18220+028930FM-12+1282FVGO V0201501N000510300019N0300001N1+01481+01211999999ADDAA199000091GA1071+030009079GF107991071001999999031001KA1120N+01301MA1999999088081MD1999999+0081ME1315829REMSYN082AAXX  09064 67861 32980 71501 10148 20121 38808 48582 87030 333 20130 58008 87360;EQDQ01  00002PRCP99
0168678610999992000060909004-18220+028930FM-12+1282FVGO V0201401N002112200019N0300001N1+02071+01151999999ADDGA1011+011409029GF101991011011012501031001MA1999999088091MD1999999+0061ME1315869REMSYN076AAXX  09094 67861 42680 11404 10207 20115 38809 48586 81130 333 58006 81838;
0168678610999992000060912004-18220+028930FM-12+1282FVGO V0201101N002612200019N0500001N1+02351+01041999999ADDGA1021+015009029GF102991021021017501031001MA1999999087851MD1999999-0051ME1315859REMSYN076AAXX  09124 67861 42784 21105 10235 20104 38785 48585 82230 333 59005 82850;
0202678610999992000060915004-18220+028930FM-12+1282FVGO V0201101N00051045001CN0500001N1+02101+01091999999ADDAY111031AY211031GA1011+015009099GF107991021021017501071031MA1999999087811MD1999999-0071ME1315589MW1151REMSYN088AAXX  09154 67861 41784 71101 10210 20109 38781 48558 71511 82273 333 59007 81950 86559;
0193678610999992000060918004-18220+028930FM-12+1282FVGO V0209999C00001045001CN0300001N1+01751+01201999999ADDGA1011+018009069GF106991011041017501061001KA1120M+02401MA1999999087971MD1999999+0011ME1315749REMSYN088AAXX  09184 67861 42780 60000 10175 20120 38797 48574 81460 333 10240 58001 81656 86359;
0168678610999992000061009004-18220+028930FM-12+1282FVGO V0200501N001510450019N0400001N1+02061+01111999999ADDGA1031+011709029GF105991031011012501081001MA1999999088031MD1999999-0061ME1315809REMSYN076AAXX  10094 67861 42682 50503 10206 20111 38803 48580 83180 333 59006 83839;
0174678610999992000061012004-18220+028930FM-12+1282FVGO V0200401N00101045001CN0500001N1+02051+01131999999ADDGA1021+013509089GF107991021021012501071011MA1999999087841MD1999999-0011ME1315689REMSYN082AAXX  10124 67861 42684 70402 10205 20113 38784 48568 82271 333 59001 82845 87459;
0174678610999992000061015004-18220+028930FM-12+1282FVGO V0209999C00001045001CN0400001N1+02001+01301999999ADDGA1011+015009069GF107991011041017501071001MA1999999087821MD1999999+0011ME1315589REMSYN082AAXX  10154 67861 42782 70000 10200 20130 38782 48558 81470 333 58001 81650 87359;
0217678610999992000061106004-18220+028930FM-12+1282FVGO V0201301N003610270019N0300001N1+01561+01121999999ADDAA199000091GA1071+027009079GF107991071001999999071999KA1120N+01421MA1999999087961MD1999999-0061ME1315719REMSYN082AAXX  11064 67861 32980 71307 10156 20112 38796 48571 8707/ 333 20142 59006 87359;EQDQ01  00002PRCP99
0168678610999992000061109004-18220+028930FM-12+1282FVGO V0200701N001512200019N0300001N1+02101+01111999999ADDGA1011+012009029GF102991011011012501031001MA1999999088011MD1999999-0021ME1315789REMSYN076AAXX  11094 67861 42680 20703 10210 20111 38801 48578 81130 333 59002 81840;
0168678610999992000061112004-18220+028930FM-12+1282FVGO V0200301N001510129019N0500001N1+02001+01161999999ADDGA1051+012909029GF106991051021012501061001MA1999999087811MD1999999-0031ME1315719REMSYN076AAXX  11124 67861 42684 60303 10200 20116 38781 48571 85260 333 59003 85843;
0174678610999992000061115004-18220+028930FM-12+1282FVGO V0203301N00101045001CN0500001N1+02051+01271999999ADDGA1011+013509089GF107991031041017501061001MA1999999087761MD1999999-0061ME1315549REMSYN082AAXX  11154 67861 42784 73302 10205 20127 38776 48554 83460 333 59006 81845 83650;
0187678610999992000061118004-18220+028930FM-12+1282FVGO V0209999C000012200019N0300001N1+01451+01101999999ADDGA1041+027009079GF104991041001999999061001KA1120M+02261MA1999999087871MD1999999-0051ME1315629REMSYN082AAXX  11184 67861 42980 40000 10145 20110 38787 48562 84060 333 10226 59005 84359;
0168678610999992000061200004-18220+028930FM-12+1282FVGO V0201501N004112200019N0300001N1+01501+00651999999ADDGA1011+027009079GF101991011001999999081001MA1999999087851MD1999999+0011ME1315609REMSYN076AAXX  12004 67861 42980 11508 10150 20065 38785 48560 81080 333 58001 81359;
0168678610999992000061203004-18220+028930FM-12+1282FVGO V0201601N004112200019N0300001N1+01451+00451999999ADDGA1011+027009079GF101991011001999999031001MA1999999087881MD1999999-0011ME1315589REMSYN076AAXX  12034 67861 42980 11608 10145 20045 38788 48558 81030 333 59001 81359;
0217678610999992000061206004-18220+028930FM-12+1282FVGO V0201401N003612200019N0300001N1+01611+00431999999ADDAA199000091GA1011+027009079GF101991011001999999031001KA1120N+01311MA1999999087961MD1999999+0001ME1315719REMSYN082AAXX  12064 67861 32980 11407 10161 20043 38796 48571 81030 333 20131 58000 81359;EQDQ01  00002PRCP99
0168678610999992000061212004-18220+028930FM-12+1282FVGO V0200801N002612200019N0500001N1+02151+00451999999ADDGA1031+021009029GF103991031011022501001001MA1999999087801MD1999999-0011ME1315589REMSYN076AAXX  12124 67861 42884 30805 10215 20045 38780 48558 83100 333 59001 83857;
0187678610999992000061215004-18220+028930FM-12+1282FVGO V0200901N001512200019N0500001N1+02091+00461999999ADDGA1011+021009059GF101991011041022501999001MA1999999087821MD1999999+0061ME1315599REMSYN076AAXX  12154 67861 42884 10903 10209 20046 38782 48559 81400 333 58006 81657;EQDQ01+000002SCOMCG
0175678610999992000061218004-18220+028930FM-12+1282FVGO V0209999C000012200019N0300001N1+01501+00541999999ADDGA1001+999999999GF100991001001999999001001KA1120M+02281MA1999999087921MD1999999+0051ME1315679REMSYN070AAXX  12184 67861 42980 00000 10150 20054 38792 48567 333 10228 58005;
0168678610999992000061300004-18220+028930FM-12+1282FVGO V0201201N004112200019N0300001N1+01391+00301999999ADDGA1021+030009079GF102991021001999999031001MA1999999087931MD1999999+0081ME1315689REMSYN076AAXX  13004 67861 42980 21208 10139 20030 38793 48568 82030 333 58008 82360;
0168678610999992000061303004-18220+028930FM-12+1282FVGO V0201301N004612200019N0300001N1+01311+00641999999ADDGA1031+030009079GF103991031001999999031001MA1999999087961MD1999999+0131ME1315719REMSYN076AAXX  13034 67861 42980 31309 10131 20064 38796 48571 83030 333 58013 83360;
0197678610999992000061306004-18220+028930FM-12+1282FVGO V0200901N001510300019N0300001N1+01261+00761999999ADDAA199000091GA1051+030009079GF105991051001999999031001KA1120N+01181MA1999999088161ME1315909REMSYN076AAXX  13064 67861 32980 50903 10126 20076 38816 48590 85030 333 20118 85360;EQDQ01  00002PRCP99
0168678610999992000061309004-18220+028930FM-12+1282FVGO V0201301N003612200019N0300001N1+01901+00701999999ADDGA1011+030009079GF101991011001999999031001MA1999999088191MD1999999+0181ME1315939REMSYN076AAXX  13094 67861 42980 11307 10190 20070 38819 48593 81030 333 58018 81360;
0168678610999992000061312004-18220+028930FM-12+1282FVGO V0201101N001512200019N0500001N1+02001+00661999999ADDGA1041+018009029GF104991041011001501041001MA1999999088001MD1999999+0201ME1315769REMSYN076AAXX  13124 67861 42284 41103 10200 20066 38800 48576 84140 333 58020 84856;
0206678610999992000061318004-18220+028930FM-12+1282FVGO V0201401N001510210019N0300001N1+01771+00511999999ADDGA1071+021009059GF107991071041022501999001KA1120M+02201MA1999999088021MD1999999+0011ME1315779REMSYN082AAXX  13184 67861 42880 71403 10177 20051 38802 48577 87400 333 10220 58001 87657;EQDQ01+000002SCOMCG
0156678610999992000061400004-18220+028930FM-12+1282FVGO V0201501N003112200019N0300001N1+01331+00661999999ADDGA1001+999999999GF100991001001999999001001MA1999999087991MD1999999+0061ME1315749REMSYN064AAXX  14004 67861 42980 01506 10133 20066 38799 48574 333 58006;
0156678610999992000061403004-18220+028930FM-12+1282FVGO V0201301N001012200019N0300001N1+01101+00701999999ADDGA1001+999999999GF100991001001999999001001MA1999999087981MD1999999+0021ME1315739REMSYN064AAXX  14034 67861 42980 01302 10110 20070 38798 48573 333 58002;
0217678610999992000061406004-18220+028930FM-12+1282FVGO V0201301N001512200019N0300001N1+01451+00761999999ADDAA199000091GA1011+027009079GF101991011001999999031001KA1120N+00981MA1999999088111MD1999999-0051ME1315859REMSYN082AAXX  14064 67861 32980 11303 10145 20076 38811 48585 81030 333 20098 59005 81359;EQDQ01  00002PRCP99
0168678610999992000061409004-18220+028930FM-12+1282FVGO V0200701N003612200019N0400001N1+01801+00691999999ADDGA1011+014109029GF101991011011012501001001MA1999999088181MD1999999-0011ME1315929REMSYN076AAXX  14094 67861 42682 10707 10180 20069 38818 48592 81100 333 59001 81847;
0168678610999992000061412004-18220+028930FM-12+1282FVGO V0200801N002610180019N0400001N1+01851+00571999999ADDGA1061+018009029GF106991061011022501001001MA1999999087931MD1999999-0071ME1315689REMSYN076AAXX  14124 67861 42882 60805 10185 20057 38793 48568 86100 333 59007 86856;
0187678610999992000061415004-18220+028930FM-12+1282FVGO V0209999C000012200019N0400001N1+01761+00681999999ADDGA1041+018009059GF104991041041022501999001MA1999999087891MD1999999-0041ME1315639REMSYN076AAXX  14154 67861 42882 40000 10176 20068 38789 48563 84400 333 59004 84656;EQDQ01+000002SCOMCG
0187678610999992000061418004-18220+028930FM-12+1282FVGO V0209999C000010300019N0300001N1+01501+00781999999ADDGA1071+030009079GF107991071001999999031001KA1120M+02121MA1999999087921MD1999999-0101ME1315669REMSYN082AAXX  14184 67861 42980 70000 10150 20078 38792 48566 87030 333 10212 59010 87360;
0168678610999992000061500004-18220+028930FM-12+1282FVGO V0209999C000012200019N0300001N1+01151+00661999999ADDGA1011+030009079GF101991011001999999041001MA1999999087841MD1999999-0151ME1315589REMSYN076AAXX  15004 67861 42980 10000 10115 20066 38784 48558 81040 333 59015 81360;
0168678610999992000061503004-18220+028930FM-12+1282FVGO V0201301N001012200019N0300001N1+01261+00741999999ADDGA1011+030009079GF101991011001999999041001MA1999999087841MD1999999-0141ME1315589REMSYN076AAXX  15034 67861 42980 11302 10126 20074 38784 48558 81040 333 59014 81360;
0217678610999992000061506004-18220+028930FM-12+1282FVGO V0201301N003612200019N0300001N1+01531+00861999999ADDAA199000091GA1041+030009079GF104991041001999999031001KA1120N+01021MA1999999087951MD1999999-0161ME1315699REMSYN082AAXX  15064 67861 32980 41307 10153 20086 38795 48569 84030 333 20102 59016 84360;EQDQ01  00002PRCP99
0168678610999992000061509004-18220+028930FM-12+1282FVGO V0200301N002612200019N0400001N1+01931+00771999999ADDGA1011+012009029GF101991011011012501031001MA1999999088031MD1999999-0151ME1315789REMSYN076AAXX  15094 67861 42682 10305 10193 20077 38803 48578 81130 333 59015 81840;
0174678610999992000061512004-18220+028930FM-12+1282FVGO V0200101N00361045001CN0500001N1+02101+00751999999ADDGA1031+015009089GF107991031011017501061001MA1999999087781MD1999999-0151ME1315569REMSYN082AAXX  15124 67861 42784 70107 10210 20075 38778 48556 83160 333 59015 83850 84656;
0168678610999992000061515004-18220+028930FM-12+1282FVGO V0200501N001510180019N0500001N1+01951+00781999999ADDGA1071+018009059GF107991071041017501061001MA1999999087781MD1999999-0161ME1315509REMSYN076AAXX  15154 67861 42784 70503 10195 20078 38778 48550 87460 333 59016 87656;
0168678610999992000061600004-18220+028930FM-12+1282FVGO V0201301N002112200019N0300001N1+01401+00891999999ADDGA1011+027009079GF101991011001999999031001MA1999999087741MD1999999-0101ME1315499REMSYN076AAXX  16004 67861 42980 11304 10140 20089 38774 48549 81030 333 59010 81359;
0168678610999992000061603004-18220+028930FM-12+1282FVGO V0201501N003610270019N0300001N1+01401+00991999999ADDGA1061+027009079GF106991061001999999031001MA1999999087711MD1999999-0131ME1315469REMSYN076AAXX  16034 67861 42980 61507 10140 20099 38771 48546 86030 333 59013 86359;
0217678610999992000061605004-18220+028930FM-12+1282FVGO V0200701N002610270019N0300001N1+01451+01041999999ADDAA199000091GA1061+027009079GF106991061001999999031001KA1120N+01291MA1999999087851MD1999999-0101ME1315609REMSYN082AAXX  16054 67861 32980 60705 10145 20104 38785 48560 86030 333 20129 59010 86359;EQDQ01  00002PRCP99
0168678610999992000061609004-18220+028930FM-12+1282FVGO V0200601N003110270019N0300001N1+01801+01101999999ADDGA1071+027009079GF107991071001999999031001MA1999999087931MD1999999-0101ME1315679REMSYN076AAXX  16094 67861 42980 70606 10180 20110 38793 48567 87030 333 59010 87359;
0174678610999992000061612004-18220+028930FM-12+1282FVGO V0200501N00311045001CN0400001N1+01971+00901999999ADDGA1011+014409089GF107991011011012501071001MA1999999087731MD1999999-0051ME1315509REMSYN082AAXX  16124 67861 42682 70506 10197 20090 38773 48550 81170 333 59005 81848 87358;
0174678610999992000061615004-18220+028930FM-12+1282FVGO V0200701N00211045001CN0400001N1+01851+00961999999ADDGA1011+014409089GF107991011011012501031001MA1999999087671MD1999999-0061ME1315439REMSYN082AAXX  16154 67861 42682 70704 10185 20096 38767 48543 81130 333 59006 81848 87659;
0187678610999992000061618004-18220+028930FM-12+1282FVGO V0200801N001010300019N0400001N1+01661+00911999999ADDGA1071+030009079GF107991071001999999031999KA1120M+02151MA1999999087761MD1999999-0071ME1315519REMSYN082AAXX  16184 67861 42982 70802 10166 20091 38776 48551 8703/ 333 10215 59007 87360;
0168678610999992000061700004-18220+028930FM-12+1282FVGO V0200901N001012200019N0300001N1+01391+00661999999ADDGA1021+030009079GF102991021001999999031001MA1999999087661MD1999999-0081ME1315419REMSYN076AAXX  17004 67861 42980 20902 10139 20066 38766 48541 82030 333 59008 82360;
0168678610999992000061703004-18220+028930FM-12+1282FVGO V0200901N001510300019N0300001N1+01541+00581999999ADDGA1071+030009079GF107991071001999999031999MA1999999087741MD1999999+0031ME1315499REMSYN076AAXX  17034 67861 42980 70903 10154 20058 38774 48549 8703/ 333 58003 87360;
0217678610999992000061706004-18220+028930FM-12+1282FVGO V0201501N003610180019N0400001N1+01461+00681999999ADDAA199000091GA1071+018009059GF107991071051017501999999KA1120N+01331MA1999999087891MD1999999+0041ME1315639REMSYN082AAXX  17064 67861 32782 71507 10146 20068 38789 48563 875// 333 20133 58004 87656;EQDQ01  00002PRCP99
0168678610999992000061709004-18220+028930FM-12+1282FVGO V0200901N003110180019N0400001N1+01681+00691999999ADDGA1071+018009059GF107991071051017501999999MA1999999087991MD1999999+0061ME1315729REMSYN076AAXX  17094 67861 42782 70906 10168 20069 38799 48572 875// 333 58006 87656;
0168678610999992000061715004-18220+028930FM-12+1282FVGO V0209999C000010210019N0400001N1+01791+00961999999ADDGA1071+021009059GF107991071051022501999999MA1999999087761MD1999999+0091ME1315519REMSYN076AAXX  17154 67861 42882 70000 10179 20096 38776 48551 875// 333 58009 87657;
0174678610999992000061809004-18220+028930FM-12+1282FVGO V0201001N00361045001CN0400001N1+02071+00921999999ADDGA1011+014709089GF107991011021012501031001MA1999999088051MD1999999+0061ME1315829REMSYN082AAXX  18094 67861 42682 71007 10207 20092 38805 48582 81230 333 58006 81849 87360;
0187678610999992000062215004-18220+028930FM-12+1282FVGO V0203601N000512200019N0300001N1+02151+00941999999ADDGA1031+015009059GF103991031041017501999001MA1999999087581MD1999999-0011ME1315379REMSYN076AAXX  22154 67861 42780 33601 10215 20094 38758 48537 83400 333 59001 83650;EQDQ01    003SCOMCG
0175678610999992000062218004-18220+028930FM-12+1282FVGO V0209999C000012200019N0300001N1+01401+00991999999ADDGA1001+999999999GF100991001001999999001001KA1120M+02331MA1999999087611MD1999999-0091ME1315389REMSYN070AAXX  22184 67861 42980 00000 10140 20099 38761 48538 333 10233 59009;
0168678610999992000062309004-18220+028930FM-12+1282FVGO V0200401N001012200019N0500001N1+02151+01051999999ADDGA1011+013509029GF101991011011012501041001MA1999999087781MD1999999-0081ME1315579REMSYN076AAXX  23094 67861 42684 10402 10215 20105 38778 48557 81140 333 59008 81845;
0168678610999992000062312004-18220+028930FM-12+1282FVGO V0203401N003612200019N0500001N1+02351+00881999999ADDGA1041+021009029GF104991041011022501001001MA1999999087621MD1999999+0031ME1315429REMSYN076AAXX  23124 67861 42884 43407 10235 20088 38762 48542 84100 333 58003 84857;
0187678610999992000062315004-18220+028930FM-12+1282FVGO V0200501N001512200019N0500001N1+02201+00771999999ADDGA1011+021009059GF101991011041022501999001MA1999999087671MD1999999+0091ME1315469REMSYN076AAXX  23154 67861 42884 10503 10220 20077 38767 48546 81400 333 58009 81657;EQDQ01+000002SCOMCG
0206678610999992000062318004-18220+028930FM-12+1282FVGO V0209999C000012200019N0300001N1+01501+00841999999ADDGA1011+021009059GF101991011041022501999001KA1120M+02441MA1999999087751MD1999999+0141ME1315539REMSYN082AAXX  23184 67861 42880 10000 10150 20084 38775 48553 81400 333 10244 58014 81657;EQDQ01+000002SCOMCG
0187678610999992000062403004-18220+028930FM-12+1282FVGO V0201301N001010180019N0300001N1+01551+00811999999ADDGA1061+018009059GF106991061051017501999001MA1999999087731MD1999999+0121ME1315519REMSYN076AAXX  24034 67861 42780 61302 10155 20081 38773 48551 86500 333 58012 86656;EQDQ01+000002SCOMCG
0233678610999992000062406004-18220+028930FM-12+1282FVGO V0201201N001510180019N0300001N1+01601+00861999999ADDAA199000091GA1061+018009059GF106991061051017501999001KA1120N+01281MA1999999087851MD1999999+0091ME1315629REMSYN082AAXX  24064 67861 32780 61203 10160 20086 38785 48562 86500 333 20128 58009 86656;EQDQ01+000002SCOMCGQ02  00002PRCP99
0174678610999992000062409004-18220+028930FM-12+1282FVGO V0200901N00361045001CN0300001N1+02151+01031999999ADDGA1021+014409089GF105991021011012501031001MA1999999087931MD1999999+0151ME1315719REMSYN082AAXX  24094 67861 42680 50907 10215 20103 38793 48571 82130 333 58015 82848 84360;
0168678610999992000062412004-18220+028930FM-12+1282FVGO V0201401N001512200019N0500001N1+02301+00861999999ADDGA1031+018009029GF103991031011017501061001MA1999999087741MD1999999+0121ME1315539REMSYN076AAXX  24124 67861 42784 31403 10230 20086 38774 48553 83160 333 58012 83856;
0174678610999992000062415004-18220+028930FM-12+1282FVGO V0201301N001512200019N0500001N1+02141+00841999999ADDGA1011+018009089GF104991041041022501061001MA1999999087751MD1999999+0081ME1315539REMSYN082AAXX  24154 67861 42884 41303 10214 20084 38775 48553 84460 333 58008 81856 84657;
0206678610999992000062418004-18220+028930FM-12+1282FVGO V0200201N001010210019N0300001N1+01951+00781999999ADDGA1071+021009059GF107991071041022501999001KA1120M+02451MA1999999087851MD1999999+0101ME1315629REMSYN082AAXX  24184 67861 42880 70202 10195 20078 38785 48562 87400 333 10245 58010 87657;EQDQ01+000002SCOMCG
0187678610999992000062500004-18220+028930FM-12+1282FVGO V0201301N003110210019N0300001N1+01401+01141999999ADDGA1061+021009059GF106991061051022501999001MA1999999087891MD1999999+0151ME1315669REMSYN076AAXX  25004 67861 42880 61306 10140 20114 38789 48566 86500 333 58015 86657;EQDQ01+000002SCOMCG
0233678610999992000062506004-18220+028930FM-12+1282FVGO V0201501N003612200019N0300001N1+01451+01071999999ADDAA199000091GA1041+021009059GF104991041051022501999001KA1120N+01231MA1999999088011MD1999999+0161ME1315789REMSYN082AAXX  25064 67861 32880 41507 10145 20107 38801 48578 84500 333 20123 58016 84657;EQDQ01+000002SCOMCGQ02  00002PRCP99
0168678610999992000062509004-18220+028930FM-12+1282FVGO V0201501N003112200019N0300001N1+02001+01131999999ADDGA1011+010809029GF101991011081022501001001MA1999999088051MD1999999+0121ME1315819REMSYN076AAXX  25094 67861 42880 11506 10200 20113 38805 48581 81800 333 58012 81836;
0168678610999992000062512004-18220+028930FM-12+1282FVGO V0201601N002112200019N0500001N1+02281+00401999999ADDGA1031+024009029GF103991031011999999001001MA1999999087871MD1999999+0131ME1315669REMSYN076AAXX  25124 67861 42984 31604 10228 20040 38787 48566 83100 333 58013 83858;
0168678610999992000062515004-18220+028930FM-12+1282FVGO V0201401N001012200019N0500001N1+02071+00541999999ADDGA1021+024009059GF102991021041999999061001MA1999999087851MD1999999+0101ME1315629REMSYN076AAXX  25154 67861 42984 21402 10207 20054 38785 48562 82460 333 58010 82658;
0206678610999992000062518004-18220+028930FM-12+1282FVGO V0201101N001012200019N0300001N1+01541+00601999999ADDGA1011+024009059GF101991011041999999999001KA1120M+02361MA1999999087991MD1999999+0141ME1315759REMSYN082AAXX  25184 67861 42980 11102 10154 20060 38799 48575 81400 333 10236 58014 81658;EQDQ01+000002SCOMCG
0168678610999992000062600004-18220+028930FM-12+1282FVGO V0201601N004112200019N0300001N1+01401+00841999999ADDGA1011+027009079GF101991011001999999041001MA1999999087941MD1999999+0051ME1315709REMSYN076AAXX  26004 67861 42980 11608 10140 20084 38794 48570 81040 333 58005 81359;
0168678610999992000062603004-18220+028930FM-12+1282FVGO V0201501N003612200019N0300001N1+01321+01001999999ADDGA1011+027009079GF101991011001999999041001MA1999999087951MD1999999+0111ME1315719REMSYN076AAXX  26034 67861 42980 11507 10132 20100 38795 48571 81040 333 58011 81359;
0217678610999992000062606004-18220+028930FM-12+1282FVGO V0201501N004112200019N0300001N1+01491+00971999999ADDAA199000091GA1011+027009079GF101991011001999999041001KA1120N+01241MA1999999088111MD1999999+0101ME1315879REMSYN082AAXX  26064 67861 32980 11508 10149 20097 38811 48587 81040 333 20124 58010 81359;EQDQ01  00002PRCP99
0168678610999992000062609004-18220+028930FM-12+1282FVGO V0200801N002612200019N0300001N1+02001+00981999999ADDGA1031+012609029GF103991031011012501001001MA1999999088191MD1999999+0141ME1315959REMSYN076AAXX  26094 67861 42680 30805 10200 20098 38819 48595 83100 333 58014 83842;
0168678610999992000062612004-18220+028930FM-12+1282FVGO V0200701N002110180019N0300001N1+02171+00641999999ADDGA1051+018009029GF105991051011017501001001MA1999999087961MD1999999+0091ME1315749REMSYN076AAXX  26124 67861 42780 50704 10217 20064 38796 48574 85100 333 58009 85856;
0187678610999992000062615004-18220+028930FM-12+1282FVGO V0200801N001512200019N0300001N1+02101+00631999999ADDGA1011+018009059GF101991011041022501999001MA1999999087941MD1999999+0091ME1315719REMSYN076AAXX  26154 67861 42880 10803 10210 20063 38794 48571 81400 333 58009 81656;EQDQ01+000002SCOMCG
0206678610999992000062618004-18220+028930FM-12+1282FVGO V0209999C000012200019N0300001N1+01301+00731999999ADDGA1011+018009059GF101991011041022501999001KA1120M+02381MA1999999087991MD1999999+0001ME1315759REMSYN082AAXX  26184 67861 42880 10000 10130 20073 38799 48575 81400 333 10238 58000 81656;EQDQ01+000002SCOMCG
0156678610999992000062700004-18220+028930FM-12+1282FVGO V0201401N003612200019N0300001N1+01301+00641999999ADDGA1001+999999999GF100991001001999999001001MA1999999087991MD1999999+0051ME1315759REMSYN064AAXX  27004 67861 42980 01407 10130 20064 38799 48575 333 58005;
0162678610999992000062703004-18220+028930FM-12+1282FVGO V0201201N004112200019N0300001N1+01091+00681999999ADDGA1011+030009079GF101991999999999999999999MA1999999088051MD1999999+0101ME1315819REMSYN070AAXX  27034 67861 42980 11208 10109 20068 38805 48581 333 58010 81360;
0217678610999992000062706004-18220+028930FM-12+1282FVGO V0201301N003112200019N0250001N1+01381+00711999999ADDAA199000091GA1011+030009079GF101991011001999999041001KA1120N+01001MA1999999088201MD1999999+0091ME1315959REMSYN082AAXX  27064 67861 32975 11306 10138 20071 38820 48595 81040 333 20100 58009 81360;EQDQ01  00002PRCP99
0168678610999992000062709004-18220+028930FM-12+1282FVGO V0201501N002612200019N0300001N1+01901+00781999999ADDGA1011+030009079GF101991011001999999041001MA1999999088201MD1999999+0011ME1315939REMSYN076AAXX  27094 67861 42980 11505 10190 20078 38820 48593 81040 333 58001 81360;
0168678610999992000062712004-18220+028930FM-12+1282FVGO V0201401N002612200019N0500001N1+02151+00301999999ADDGA1011+007509059GF101991011011022501001001MA1999999087961MD1999999+0041ME1315749REMSYN076AAXX  27124 67861 42884 11405 10215 20030 38796 48574 81100 333 58004 81625;
0187678610999992000062715004-18220+028930FM-12+1282FVGO V0201201N001012200019N0500001N1+02151+00501999999ADDGA1011+027009059GF101991011041999999999001MA1999999087941MD1999999+0001ME1315729REMSYN076AAXX  27154 67861 42984 11202 10215 20050 38794 48572 81400 333 58000 81659;EQDQ01+000002SCOMCG
0175678610999992000062718004-18220+028930FM-12+1282FVGO V0209999C000012200019N0300001N1+01301+00611999999ADDGA1001+999999999GF100991001001999999001001KA1120M+02301MA1999999087991MD1999999+0001ME1315749REMSYN070AAXX  27184 67861 42980 00000 10130 20061 38799 48574 333 10230 58000;
0156678610999992000062800004-18220+028930FM-12+1282FVGO V0201301N003612200019N0300001N1+01241+00721999999ADDGA1001+999999999GF100991001001999999001001MA1999999088041MD1999999+0051ME1315809REMSYN064AAXX  28004 67861 42980 01307 10124 20072 38804 48580 333 58005;
0156678610999992000062803004-18220+028930FM-12+1282FVGO V0201501N004112200019N0300001N1+01161+00751999999ADDGA1001+999999999GF100991001001999999001001MA1999999088001MD1999999-0051ME1315769REMSYN064AAXX  28034 67861 42980 01508 10116 20075 38800 48576 333 59005;
0205678610999992000062806004-18220+028930FM-12+1282FVGO V0201601N001512200019N0300001N1+01201+00831999999ADDAA199000091GA1001+999999999GF100991001001999999001001KA1120N+00931MA1999999088151MD1999999-0051ME1315919REMSYN070AAXX  28064 67861 32980 01603 10120 20083 38815 48591 333 20093 59005;EQDQ01  00002PRCP99
0168678610999992000062809004-18220+028930FM-12+1282FVGO V0201401N002112200019N0300001N1+01781+00711999999ADDGA1011+015009029GF101991011011012501001001MA1999999088211MD1999999+0031ME1315949REMSYN076AAXX  28094 67861 42680 11404 10178 20071 38821 48594 81100 333 58003 81850;
0168678610999992000062812004-18220+028930FM-12+1282FVGO V0201501N002612200019N0300001N1+02161-00251999999ADDGA1011+027009029GF101991011011999999001001MA1999999088001MD1999999+0041ME1315789REMSYN076AAXX  28124 67861 42980 11505 10216 21025 38800 48578 81100 333 58004 81859;
0187678610999992000062815004-18220+028930FM-12+1282FVGO V0201001N003612200019N0300001N1+01981+00061999999ADDGA1011+027009059GF101991011041999999999001MA1999999088001MD1999999+0061ME1315769REMSYN076AAXX  28154 67861 42980 11007 10198 20006 38800 48576 81400 333 58006 81659;EQDQ01+000002SCOMCG
0175678610999992000062818004-18220+028930FM-12+1282FVGO V0201201N002112200019N0300001N1+01641+00111999999ADDGA1001+999999999GF100991001001999999001001KA1120M+02211MA1999999088061MD1999999+0071ME1315819REMSYN070AAXX  28184 67861 42980 01204 10164 20011 38806 48581 333 10221 58007;
0132678610999992000062900004-18220+028930FM-12+1282FVGO V0201201N003112200019N0300001N1+01131+00481999999ADDGA1001+999999999GF100991001001999999001001MA1999999088081REMSYN063AAXX  29004 67861 42980 01206 10113 20048 38808 4883 333 58004;
0156678610999992000062903004-18220+028930FM-12+1282FVGO V0201301N001512200019N0300001N1+00951+00741999999ADDGA1001+999999999GF100991001001999999001001MA1999999088121MD1999999+0121ME1315869REMSYN064AAXX  29034 67861 42980 01303 10095 20074 38812 48586 333 58012;
0217678610999992000062906004-18220+028930FM-12+1282FVGO V0201501N004112200019N0280001N1+01121+00981999999ADDAA199000091GA1011+030009079GF101991011001999999031001KA1120N+00851MA1999999088251MD1999999+0101ME1315989REMSYN082AAXX  29064 67861 32978 11508 10112 20098 38825 48598 81030 333 20085 58010 81360;EQDQ01  00002PRCP99
0168678610999992000062912004-18220+028930FM-12+1282FVGO V0201301N003612200019N0500001N1+02001+00451999999ADDGA1011+018009029GF101991011011022501001001MA1999999088021MD1999999+0021ME1315789REMSYN076AAXX  29124 67861 42884 11307 10200 20045 38802 48578 81100 333 58002 81856;
0187678610999992000062915004-18220+028930FM-12+1282FVGO V0201601N003112200019N0500001N1+01851+00511999999ADDGA1011+021009059GF101991011041022501999001MA1999999087981MD1999999-0021ME1315739REMSYN076AAXX  29154 67861 42884 11606 10185 20051 38798 48573 81400 333 59002 81657;EQDQ01+000002SCOMCG
0175678610999992000062918004-18220+028930FM-12+1282FVGO V0201501N004112200019N0300001N1+01501+00511999999ADDGA1001+999999999GF100991001001999999001001KA1120M+02051MA1999999088011MD1999999-0051ME1315749REMSYN070AAXX  29184 67861 42980 01508 10150 20051 38801 48574 333 10205 59005;
0168678610999992000063000004-18220+028930FM-12+1282FVGO V0201501N001512200019N0300001N1+01151+00651999999ADDGA1011+027009079GF101991011001999999031001MA1999999087981MD1999999-0101ME1315719REMSYN076AAXX  30004 67861 42980 11503 10115 20065 38798 48571 81030 333 59010 81359;
0168678610999992000063003004-18220+028930FM-12+1282FVGO V0201501N003110150019N0300001N1+01211+00711999999ADDGA1071+015009059GF107991071051017501999999MA1999999088001MD1999999-0101ME1315739REMSYN076AAXX  30034 67861 42780 71506 10121 20071 38800 48573 875// 333 59010 87650;
0233678610999992000063006004-18220+028930FM-12+1282FVGO V0201601N003610150019N0300001N1+01301+00861999999ADDAA199000091GA1071+015009059GF107991071051017501999001KA1120N+01041MA1999999088111MD1999999-0141ME1315649REMSYN082AAXX  30064 67861 32780 71607 10130 20086 38811 48564 87500 333 20104 59014 87650;EQDQ01  00002PRCP99Q02    003SCOMCG
0168678610999992000063009004-18220+028930FM-12+1282FVGO V0201001N004110114019N0400001N1+01651+00741999999ADDGA1061+011409029GF107991061011012501031001MA1999999088211MD1999999-0011ME1315939REMSYN076AAXX  30094 67861 42682 71008 10165 20074 38821 48593 86130 333 59001 86838;
0174678610999992000063012004-18220+028930FM-12+1282FVGO V0201301N00311018001CN0400001N1+01701+00601999999ADDGA1011+011409089GF107991071081017501999999MA1999999088051MD1999999+0031ME1315789REMSYN082AAXX  30124 67861 42782 71306 10170 20060 38805 48578 878// 333 58003 81838 87650;
0168678610999992000063015004-18220+028930FM-12+1282FVGO V0201501N001510180019N0400001N1+01651+00561999999ADDGA1071+018009059GF107991071051017501999999MA1999999087991MD1999999+0011ME1315729REMSYN076AAXX  30154 67861 42782 71503 10165 20056 38799 48572 875// 333 58001 87656;
0206678610999992000063018004-18220+028930FM-12+1282FVGO V0201601N001512200019N0400001N1+01301+00581999999ADDGA1021+018009059GF102991021041017501999001KA1120M+01801MA1999999088081MD1999999+0071ME1315799REMSYN082AAXX  30184 67861 42782 21603 10130 20058 38808 48579 82400 333 10180 58007 82656;EQDQ01+000002SCOMCG
0156678610999992000070100004-18220+028930FM-12+1282FVGO V0200501N004112200019N0280001N1+01001+00361999999ADDGA1001+999999999GF100991001001999999001001MA1999999088041MD1999999+0061ME1315759REMSYN064AAXX  01004 67861 42978 00508 10100 20036 38804 48575 333 58006;
0156678610999992000070103004-18220+028930FM-12+1282FVGO V0200501N004612200019N0250001N1+00911+00471999999ADDGA1001+999999999GF100991001001999999001001MA1999999088021MD1999999+0021ME1315739REMSYN064AAXX  01034 67861 42975 00509 10091 20047 38802 48573 333 58002;
0217678610999992000070106004-18220+028930FM-12+1282FVGO V0200301N005112200019N0250001N1+01101+00601999999ADDAA199000091GA1011+006009029GF101991011011008001041001KA1120N+00811MA1999999088211MD1999999+0101ME1315919REMSYN082AAXX  01064 67861 32575 10310 10110 20060 38821 48591 81140 333 20081 58010 81820;EQDQ01  00002PRCP99
0168678610999992000070109004-18220+028930FM-12+1282FVGO V0200301N005112200019N0300001N1+01601+00471999999ADDGA1011+013509029GF101991011011012501001001MA1999999088251MD1999999+0041ME1315969REMSYN076AAXX  01094 67861 42680 10310 10160 20047 38825 48596 81100 333 58004 81845;
0168678610999992000070112004-18220+028930FM-12+1282FVGO V0200301N005110180019N0450001N1+01801+00441999999ADDGA1061+018009029GF106991061021022501001001MA1999999088101MD1999999+0051ME1315849REMSYN076AAXX  01124 67861 42883 60310 10180 20044 38810 48584 86200 333 58005 86856;
0175678610999992000070118004-18220+028930FM-12+1282FVGO V0200301N001012200019N0300001N1+01261+00431999999ADDGA1001+999999999GF100991001001999999001001KA1120M+01961MA1999999088161MD1999999+0081ME1315879REMSYN070AAXX  01184 67861 42980 00302 10126 20043 38816 48587 333 10196 58008;
0156678610999992000070200004-18220+028930FM-12+1282FVGO V0200401N005712200019N0300001N1+00951+00771999999ADDGA1001+999999999GF100991001001999999001001MA1999999088091MD1999999+0051ME1315819REMSYN064AAXX  02004 67861 42980 00411 10095 20077 38809 48581 333 58005;
0205678610999992000070206004-18220+028930FM-12+1282FVGO V0200801N004112200019N0400001N1+01191+00711999999ADDAA199000091GA1001+999999999GF100991001001999999001001KA1120N+00901MA1999999088211MD1999999+0001ME1315929REMSYN070AAXX  02064 67861 32982 00808 10119 20071 38821 48592 333 20090 58000;EQDQ01  00002PRCP99
0168678610999992000070209004-18220+028930FM-12+1282FVGO V0201601N006212200019N0500001N1+01621+00641999999ADDGA1041+012309029GF104991041011012501001001MA1999999088261MD1999999+0011ME1315979REMSYN076AAXX  02094 67861 42684 41612 10162 20064 38826 48597 84100 333 58001 84841;
0168678610999992000070212004-18220+028930FM-12+1282FVGO V0201901N005112200019N0500001N1+01891+00481999999ADDGA1041+018009029GF104991041011017501001001MA1999999088061MD1999999-0041ME1315819REMSYN076AAXX  02124 67861 42784 41910 10189 20048 38806 48581 84100 333 59004 84856;
0174678610999992000070215004-18220+028930FM-12+1282FVGO V0201601N00311021001CN0500001N1+01751+00491999999ADDGA1011+018009089GF106991061041022501001001MA1999999088021MD1999999+0021ME1315769REMSYN082AAXX  02154 67861 42884 61606 10175 20049 38802 48576 86400 333 58002 81856 86656;
0234678610999992000070218004-18220+028930FM-12+1282FVGO V0200801N003112200019N0300001N1+01301+00761999999ADDAY151061AY211061GA1011+018009059GF101991011041022501999001KA1120M+01961MA1999999088111MD1999999-0051ME1315839MW1021REMSYN088AAXX  02184 67861 41880 10806 10130 20076 38811 48583 70251 81400 333 10196 59005 81656;EQDQ01+000002SCOMCG
0168678610999992000070303004-18220+028930FM-12+1282FVGO V0200401N006212200019N0300001N1+01001+00751999999ADDGA1011+030009079GF101991011001999999041001MA1999999088101MD1999999+0021ME1315829REMSYN076AAXX  03034 67861 42980 10412 10100 20075 38810 48582 81040 333 58002 81360;
0204678610999992000070306004-18220+028930FM-12+1282FVGO V0201601N007712200019N0300001N1+01111+00761999999ADDAA124000791GA1011+004509059GF101991011051004501041001KA1120N+00871MA1999999088081MD1999999-0131ME1315809REMSYN088AAXX  03064 67861 12480 11615 10111 20076 38808 48580 69904 81540 333 20087 59013 81615;
0168678610999992000070309004-18220+028930FM-12+1282FVGO V0201501N007712200019N0400001N1+01601+00411999999ADDGA1011+015009029GF101991011011017501041001MA1999999088201MD1999999-0061ME1315919REMSYN076AAXX  03094 67861 42782 11515 10160 20041 38820 48591 81140 333 59006 81850;
0168678610999992000070312004-18220+028930FM-12+1282FVGO V0201501N005712200019N0500001N1+01891+00041999999ADDGA1021+024009029GF102991021011999999001001MA1999999087991MD1999999-0071ME1315749REMSYN076AAXX  03124 67861 42984 21511 10189 20004 38799 48574 82100 333 59007 82858;
0174678610999992000070315004-18220+028930FM-12+1282FVGO V0201601N006212200019N0500001N1+01701+00391999999ADDGA1011+021009089GF104991041041999999001001MA1999999087941MD1999999-0081ME1315679REMSYN082AAXX  03154 67861 42984 41612 10170 20039 38794 48567 84400 333 59008 81857 83658;
0156678610999992000070403004-18220+028930FM-12+1282FVGO V0201801N001012200019N0300001N1+00901+00701999999ADDGA1001+999999999GF100991001001999999001001MA1999999087951MD1999999-0151ME1315689REMSYN064AAXX  04034 67861 42980 01802 10090 20070 38795 48568 333 59015;
0205678610999992000070406004-18220+028930FM-12+1282FVGO V0201601N007712200019N0300001N1+01101+00701999999ADDAA199000091GA1001+999999999GF100991001001999999001001KA1120N+00871MA1999999087971MD1999999-0111ME1315709REMSYN070AAXX  04064 67861 32980 01615 10110 20070 38797 48570 333 20087 59011;EQDQ01  00002PRCP99
0168678610999992000070409004-18220+028930FM-12+1282FVGO V0201401N004612200019N0500001N1+01661+00551999999ADDGA1011+014409029GF101991011011012501001001MA1999999088091MD1999999-0111ME1315829REMSYN076AAXX  04094 67861 42684 11409 10166 20055 38809 48582 81100 333 59011 81848;
0168678610999992000070412004-18220+028930FM-12+1282FVGO V0201101N004112200019N0500001N1+01971-00011999999ADDGA1011+024009029GF101991011011999999001001MA1999999087921MD1999999-0071ME1315689REMSYN076AAXX  04124 67861 42984 11108 10197 21001 38792 48568 81100 333 59007 81858;
0187678610999992000070415004-18220+028930FM-12+1282FVGO V0200901N003612200019N0500001N1+01841+00071999999ADDGA1011+024009059GF101991011041999999999001MA1999999087891MD1999999-0051ME1315639REMSYN076AAXX  04154 67861 42984 10907 10184 20007 38789 48563 81400 333 59005 81658;EQDQ01+000002SCOMCG
0206678610999992000070418004-18220+028930FM-12+1282FVGO V0201001N004112200019N0010001N1+01481+00241999999ADDGA1011+024009059GF101991011041022501999001KA1120M+01991MA1999999087981MD1999999-0031ME1315709REMSYN082AAXX  04184 67861 42894 11008 10148 20024 38798 48570 81400 333 10199 59003 81658;EQDQ01+000002SCOMCG
0156678610999992000070500004-18220+028930FM-12+1282FVGO V0201501N005112200019N0300001N1+00991+00761999999ADDGA1001+999999999GF100991001001999999001001MA1999999088021MD1999999+0011ME1315749REMSYN064AAXX  05004 67861 42980 01510 10099 20076 38802 48574 333 58001;
0156678610999992000070503004-18220+028930FM-12+1282FVGO V0201401N006212200019N0300001N1+00891+00711999999ADDGA1001+999999999GF100991001001999999001001MA1999999088011MD1999999+0061ME1315739REMSYN064AAXX  05034 67861 42980 01412 10089 20071 38801 48573 333 58006;
0217678610999992000070506004-18220+028930FM-12+1282FVGO V0201501N006212200019N0300001N1+01071+00741999999ADDAA199000091GA1011+004509029GF101991011011004501001001KA1120N+00851MA1999999088101MD1999999+0131ME1315829REMSYN082AAXX  05064 67861 32480 11512 10107 20074 38810 48582 81100 333 20085 58013 81815;EQDQ01  00002PRCP99
0168678610999992000070509004-18220+028930FM-12+1282FVGO V0200601N005712200019N0400001N1+01651+00511999999ADDGA1011+012009029GF101991011011012501001001MA1999999088211MD1999999+0121ME1315939REMSYN076AAXX  05094 67861 42682 10611 10165 20051 38821 48593 81100 333 58012 81840;
0168678610999992000070512004-18220+028930FM-12+1282FVGO V0200301N004112200019N0450001N1+01901+00511999999ADDGA1011+018009029GF101991011011017501001011MA1999999088041MD1999999+0121ME1315799REMSYN076AAXX  05124 67861 42783 10308 10190 20051 38804 48579 81101 333 58012 81856;
0168678610999992000070515004-18220+028930FM-12+1282FVGO V0203201N00151045001CN0450001N1+01901+00561999999ADDGA1041+018009059GF105991041041017501061011MA1999999087961MD1999999+0071ME1315719REMSYN076AAXX  05154 67861 42783 53203 10190 20056 38796 48571 84461 333 58007 84656;
0206678610999992000070518004-18220+028930FM-12+1282FVGO V0200501N002112200019N0300001N1+01401+00611999999ADDGA1021+018009059GF102991021041017501999001KA1120M+02031MA1999999088061MD1999999+0081ME1315799REMSYN082AAXX  05184 67861 42780 20504 10140 20061 38806 48579 82400 333 10203 58008 82656;EQDQ01+000002SCOMCG
0156678610999992000070600004-18220+028930FM-12+1282FVGO V0200301N003612200019N0300001N1+01021+00691999999ADDGA1001+999999999GF100991001001999999001001MA1999999088091MD1999999+0071ME1315829REMSYN064AAXX  06004 67861 42980 00307 10102 20069 38809 48582 333 58007;
0156678610999992000070603004-18220+028930FM-12+1282FVGO V0200301N004612200019N0300001N1+00941+00551999999ADDGA1001+999999999GF100991001001999999001001MA1999999088071MD1999999+0031ME1315809REMSYN064AAXX  06034 67861 42980 00309 10094 20055 38807 48580 333 58003;
0217678610999992000070606004-18220+028930FM-12+1282FVGO V0200501N004612200019N0300001N1+01061+00541999999ADDAA199000091GA1011+030009079GF101991011001999999041001KA1120N+00841MA1999999088191MD1999999+0091ME1315929REMSYN082AAXX  06064 67861 32980 10509 10106 20054 38819 48592 81040 333 20084 58009 81360;EQDQ01  00002PRCP99
0168678610999992000070609004-18220+028930FM-12+1282FVGO V0201801N005712200019N0500001N1+01621+00391999999ADDGA1011+015009029GF101991011011017501001021MA1999999088251MD1999999+0041ME1315769REMSYN076AAXX  06094 67861 42784 11811 10162 20039 38825 48576 81102 333 58004 81850;
0168678610999992000070612004-18220+028930FM-12+1282FVGO V0201501N005112200019N0500001N1+01881+00401999999ADDGA1011+018009029GF106991011011017501001061MA1999999088031MD1999999+0011ME1315789REMSYN076AAXX  06124 67861 42784 61510 10188 20040 38803 48578 81106 333 58001 81856;
0174678610999992000070615004-18220+028930FM-12+1282FVGO V0201301N00411105001CN0500001N1+01801+00351999999ADDGA1021+021009069GF107991021041022501001081MA1999999088021MD1999999+0061ME1315769REMSYN082AAXX  06154 67861 42884 71308 10180 20035 38802 48576 82408 333 58006 82657 87280;
0187678610999992000070618004-18220+028930FM-12+1282FVGO V0202001N004112200019N0300001N1+01331+00461999999ADDGA1031+090009019GF103991001001999999001021KA1120M+01961MA1999999088111MD1999999+0061ME1315839REMSYN082AAXX  06184 67861 42980 32008 10133 20046 38811 48583 80002 333 10196 58006 83080;
0156678610999992000070700004-18220+028930FM-12+1282FVGO V0202301N007712200019N0300001N1+01001+00761999999ADDGA1001+999999999GF100991001001999999001001MA1999999088071MD1999999-0021ME1315799REMSYN064AAXX  07004 67861 42980 02315 10100 20076 38807 48579 333 59002;
0156678610999992000070703004-18220+028930FM-12+1282FVGO V0202001N006712200019N0300001N1+00901+00641999999ADDGA1001+999999999GF100991001001999999001001MA1999999088051MD1999999-0061ME1315779REMSYN064AAXX  07034 67861 42980 02013 10090 20064 38805 48577 333 59006;
0217678610999992000070706004-18220+028930FM-12+1282FVGO V0201601N006712200019N0300001N1+01101+00691999999ADDAA199000091GA1011+005409059GF101991011051004501001001KA1120N+00841MA1999999088161MD1999999-0031ME1315889REMSYN082AAXX  07064 67861 32480 11613 10110 20069 38816 48588 81500 333 20084 59003 81618;EQDQ01  00002PRCP99
0168678610999992000070709004-18220+028930FM-12+1282FVGO V0201301N005112200019N0400001N1+01641+00731999999ADDGA1011+011409029GF101991011011012501001001MA1999999088321MD1999999-0021ME1315949REMSYN076AAXX  07094 67861 42682 11310 10164 20073 38832 48594 81100 333 59002 81838;
0168678610999992000070712004-18220+028930FM-12+1282FVGO V0200901N004110150019N0500001N1+01831+00661999999ADDGA1071+015009029GF107991071011017501001001MA1999999088061MD1999999+0031ME1315809REMSYN076AAXX  07124 67861 42784 70908 10183 20066 38806 48580 87100 333 58003 87850;
0206678610999992000070718004-18220+028930FM-12+1282FVGO V0201301N004112200019N0500001N1+01351+00641999999ADDGA1011+015009059GF101991011041017501999001KA1120M+01961MA1999999088121MD1999999+0011ME1315849REMSYN082AAXX  07184 67861 42784 11308 10135 20064 38812 48584 81400 333 10196 58001 81650;EQDQ01    003SCOMCG
0156678610999992000070800004-18220+028930FM-12+1282FVGO V0201601N006212200019N0300001N1+01021+00681999999ADDGA1001+999999999GF100991001001999999001001MA1999999088081MD1999999+0011ME1315809REMSYN064AAXX  08004 67861 42980 01612 10102 20068 38808 48580 333 58001;
0217678610999992000070806004-18220+028930FM-12+1282FVGO V0201701N007212200019N0300001N1+01091+00701999999ADDAA199000091GA1011+005109029GF101991011011004501001001KA1120N+00861MA1999999088151MD1999999-0011ME1315879REMSYN082AAXX  08064 67861 32480 11714 10109 20070 38815 48587 81100 333 20086 59001 81817;EQDQ01  00002PRCP99
0168678610999992000070809004-18220+028930FM-12+1282FVGO V0203601N004112200019N0450001N1+01651+00611999999ADDGA1011+013509029GF101991011011012501001001MA1999999088251MD1999999+0021ME1315979REMSYN076AAXX  08094 67861 42683 13608 10165 20061 38825 48597 81100 333 58002 81845;
0168678610999992000070812004-18220+028930FM-12+1282FVGO V0200301N003112200019N0500001N1+02001+00501999999ADDGA1011+018009029GF101991011011022501001001MA1999999088031MD1999999-0031ME1315809REMSYN076AAXX  08124 67861 42884 10306 10200 20050 38803 48580 81100 333 59003 81856;
0187678610999992000070815004-18220+028930FM-12+1282FVGO V0203601N002612200019N0500001N1+01941+00261999999ADDGA1011+018009059GF101991011041022501999001MA1999999088001MD1999999-0021ME1315759REMSYN076AAXX  08154 67861 42884 13605 10194 20026 38800 48575 81400 333 59002 81656;EQDQ01+000002SCOMCG
0175678610999992000070818004-18220+028930FM-12+1282FVGO V0200301N001012200019N0300001N1+01441+00341999999ADDGA1001+999999999GF100991001001999999001001KA1120M+02091MA1999999088111MD1999999-0011ME1315849REMSYN070AAXX  08184 67861 42980 00302 10144 20034 38811 48584 333 10209 59001;
0156678610999992000070900004-18220+028930FM-12+1282FVGO V0203601N003112200019N0300001N1+01051+00401999999ADDGA1001+999999999GF100991001001999999001001MA1999999088141MD1999999+0061ME1315879REMSYN064AAXX  09004 67861 42980 03606 10105 20040 38814 48587 333 58006;
0168678610999992000070903004-18220+028930FM-12+1282FVGO V0200201N004112200019N0100001N1+00951+00601999999ADDGA1011+030009079GF101991011001004501041001MA1999999088111MD1999999+0051ME1315849REMSYN076AAXX  09034 67861 42460 10208 10095 20060 38811 48584 81040 333 58005 81360;
0217678610999992000070906004-18220+028930FM-12+1282FVGO V0200301N003612200019N0350001N1+01171+00541999999ADDAA199000091GA1011+006009059GF101991011051008001041001KA1120N+00851MA1999999088231MD1999999+0081ME1315959REMSYN082AAXX  09064 67861 32581 10307 10117 20054 38823 48595 81540 333 20085 58008 81620;EQDQ01  00002PRCP99
0168678610999992000070909004-18220+028930FM-12+1282FVGO V0201001N004112200019N0400001N1+01771+00611999999ADDGA1011+014709029GF101991011011012501001001MA1999999088181MD1999999-0071ME1315929REMSYN076AAXX  09094 67861 42682 11008 10177 20061 38818 48592 81100 333 59007 81849;
0168678610999992000070912004-18220+028930FM-12+1282FVGO V0201001N002612200019N0500001N1+02091+00381999999ADDGA1011+021009029GF101991011011022501001001MA1999999087911MD1999999-0121ME1315689REMSYN076AAXX  09124 67861 42884 11005 10209 20038 38791 48568 81100 333 59012 81857;
0168678610999992000070915004-18220+028930FM-12+1282FVGO V0200801N002112200019N0400001N1+01991+00411999999ADDGA1011+021009029GF101991011011022501001001MA1999999087861MD1999999-0141ME1315629REMSYN076AAXX  09154 67861 42882 10804 10199 20041 38786 48562 81100 333 59014 81857;
0206678610999992000070918004-18220+028930FM-12+1282FVGO V0201101N003612200019N0400001N1+01441+00341999999ADDGA1011+018009059GF101991011041022501999001KA1120M+02241MA1999999087921MD1999999-0091ME1315669REMSYN082AAXX  09184 67861 42882 11107 10144 20034 38792 48566 81400 333 10224 59009 81656;EQDQ01+000002SCOMCG
0168678610999992000071000004-18220+028930FM-12+1282FVGO V0201501N004612200019N0300001N1+01071+00741999999ADDGA1021+030009079GF102991021001999999031001MA1999999087991MD1999999-0151ME1315739REMSYN076AAXX  10004 67861 42980 21509 10107 20074 38799 48573 82030 333 59015 82360;
0168678610999992000071003004-18220+028930FM-12+1282FVGO V0201301N004112200019N0300001N1+01001+00711999999ADDGA1011+030009079GF101991011001999999041001MA1999999087951MD1999999-0161ME1315699REMSYN076AAXX  10034 67861 42980 11308 10100 20071 38795 48569 81040 333 59016 81360;
0217678610999992000071006004-18220+028930FM-12+1282FVGO V0200901N002612200019N0400001N1+01211+00741999999ADDAA199000091GA1011+030009079GF101991011001999999041001KA1120N+00931MA1999999088091MD1999999-0141ME1315839REMSYN082AAXX  10064 67861 32982 10905 10121 20074 38809 48583 81040 333 20093 59014 81360;EQDQ01  00002PRCP99
0187678610999992000071009004-18220+028930FM-12+1282FVGO V0203301N999992200019N0500001N1+01701+00701999999ADDGA1011+030009079GF101991011001999999041001MA1999999088131MD1999999-0051ME1315869REMSYN076AAXX  10094 67861 42984 13360 10170 20070 38813 48586 81040 333 59005 81360;EQDQ01+003083WOSPD 
0168678610999992000071012004-18220+028930FM-12+1282FVGO V0203301N002112200019N0500001N1+02051+00461999999ADDGA1011+018009029GF101991011011022501001001MA1999999087851MD1999999-0061ME1315629REMSYN076AAXX  10124 67861 42884 13304 10205 20046 38785 48562 81100 333 59006 81856;
0187678610999992000071015004-18220+028930FM-12+1282FVGO V0203601N001010180019N0500001N1+02001+00341999999ADDGA1061+018009059GF106991061041022501999001MA1999999087801MD1999999-0061ME1315569REMSYN076AAXX  10154 67861 42884 63602 10200 20034 38780 48556 86400 333 59006 86656;EQDQ01+000002SCOMCG
0206678610999992000071018004-18220+028930FM-12+1282FVGO V0209999C000010180019N0300001N1+01401+00641999999ADDGA1071+018009059GF107991071041022501999001KA1120M+02151MA1999999087911MD1999999-0011ME1315659REMSYN082AAXX  10184 67861 42880 70000 10140 20064 38791 48565 87400 333 10215 59001 87656;EQDQ01+000002SCOMCG
0168678610999992000071103004-18220+028930FM-12+1282FVGO V0203601N002112200019N0280001N1+01171+00851999999ADDGA1011+006009059GF101991011051008001001001MA1999999087961MD1999999+0011ME1315709REMSYN076AAXX  11034 67861 42578 13604 10117 20085 38796 48570 81500 333 58001 81620;
0217678610999992000071106004-18220+028930FM-12+1282FVGO V0203601N002612200019N0350001N1+01351+00791999999ADDAA199000091GA1011+007509029GF101991011011008001041001KA1120N+01101MA1999999088001MD1999999-0091ME1315949REMSYN082AAXX  11064 67861 32581 13605 10135 20079 38800 48594 81140 333 20110 59009 81825;EQDQ01  00002PRCP99
0168678610999992000071109004-18220+028930FM-12+1282FVGO V0201001N002112200019N0400001N1+01881+00841999999ADDGA1011+014409029GF101991011011012501001001MA1999999088061MD1999999-0061ME1315819REMSYN076AAXX  11094 67861 42682 11004 10188 20084 38806 48581 81100 333 59006 81848;
0168678610999992000071112004-18220+028930FM-12+1282FVGO V0200601N002612200019N0500001N1+01951+00561999999ADDGA1041+015009029GF104991041021017501001001MA1999999087921MD1999999-0031ME1315589REMSYN076AAXX  11124 67861 42784 40605 10195 20056 38792 48558 84200 333 59003 84850;
0187678610999992000071115004-18220+028930FM-12+1282FVGO V0200701N000512200019N0500001N1+01921+00601999999ADDGA1041+018009059GF104991041041017501999001MA1999999087711MD1999999-0091ME1315469REMSYN076AAXX  11154 67861 42784 40701 10192 20060 38771 48546 84400 333 59009 84656;EQDQ01+000002SCOMCG
0206678610999992000071118004-18220+028930FM-12+1282FVGO V0201301N003110210019N0300001N1+01551+00711999999ADDGA1061+021009059GF106991061041022501999001KA1120M+02151MA1999999087841MD1999999-0071ME1315589REMSYN082AAXX  11184 67861 42880 61306 10155 20071 38784 48558 86400 333 10215 59007 86657;EQDQ01+000002SCOMCG
0187678610999992000071203004-18220+028930FM-12+1282FVGO V0201101N001510210019N0300001N1+01401+00841999999ADDGA1061+021009059GF106991061051022501999001MA1999999087821MD1999999-0141ME1315569REMSYN076AAXX  12034 67861 42880 61103 10140 20084 38782 48556 86500 333 59014 86657;EQDQ01+000002SCOMCG
0168678610999992000071212004-18220+028930FM-12+1282FVGO V0200801N001510210019N0300001N1+02121+00431999999ADDGA1011+021009029GF105991051011022501001001MA1999999087741MD1999999-0081ME1315529REMSYN076AAXX  12124 67861 42880 50803 10212 20043 38774 48552 85100 333 59008 81857;
0187678610999992000071215004-18220+028930FM-12+1282FVGO V0200401N002112200019N0300001N1+02001+00341999999ADDGA1031+021009059GF103991031041022501999001MA1999999087681MD1999999-0031ME1315459REMSYN076AAXX  12154 67861 42880 30404 10200 20034 38768 48545 83400 333 59003 83657;EQDQ01+000002SCOMCG
0206678610999992000071218004-18220+028930FM-12+1282FVGO V0200301N000510210019N0300001N1+01681+00781999999ADDGA1071+021009059GF107991071041022501999001KA1120M+02241MA1999999087781MD1999999-0061ME1315539REMSYN082AAXX  12184 67861 42880 70301 10168 20078 38778 48553 87400 333 10224 59006 87657;EQDQ01+000002SCOMCG
0174678610999992000071300004-18220+028930FM-12+1282FVGO V0200801N000510150019N0300001N1+01391+00851999999ADDGA1051+015009069GF107991051051017501031001MA1999999087761MD1999999-0121ME1315519REMSYN082AAXX  13004 67861 42780 70801 10139 20085 38776 48551 85530 333 59012 85650 83360;
0168678610999992000071303004-18220+028930FM-12+1282FVGO V0200701N001512200019N0300001N1+01381+00991999999ADDGA1011+015009059GF102991011051017501041001MA1999999087721MD1999999-0101ME1315479REMSYN076AAXX  13034 67861 42780 20703 10138 20099 38772 48547 81540 333 59010 81650;
0233678610999992000071306004-18220+028930FM-12+1282FVGO V0200601N001512200019N0260001N1+01591+01051999999ADDAA199000091GA1071+030009079GF199999011001999999041001KA1120N+01151MA1999999087791MD1999999-0151ME1315549REMSYN082AAXX  13064 67861 32976 10603 10159 20105 38779 48554 81040 333 20115 59015 87360;EQDQ01+000012SCOTCVQ02  00002PRCP99
0168678610999992000071309004-18220+028930FM-12+1282FVGO V0202801N002112200019N0300001N1+01921+01031999999ADDGA1021+010509029GF102991021011012501001001MA1999999087901MD1999999-0091ME1315659REMSYN076AAXX  13094 67861 42680 22804 10192 20103 38790 48565 82100 333 59009 82835;
0168678610999992000071312004-18220+028930FM-12+1282FVGO V0200501N001510150019N0400001N1+02091+00711999999ADDGA1061+015009029GF106991061021017501001001MA1999999087631MD1999999-0111ME1315419REMSYN076AAXX  13124 67861 42782 60503 10209 20071 38763 48541 86200 333 59011 86850;
0196678610999992000071315004-18220+028930FM-12+1282FVGO V0209999C000010150019N0400001N1+01871+00621999999ADDAY181031AY221031GA1061+015009059GF107991061041017501061001MA1999999087601MD1999999-0061ME1315369MW1021REMSYN082AAXX  13154 67861 41782 70000 10187 20062 38760 48536 70282 86460 333 59006 86650;
0206678610999992000071318004-18220+028930FM-12+1282FVGO V0209999C000010150019N0300001N1+01601+00761999999ADDGA1061+015009059GF106991061041017501999001KA1120M+02201MA1999999087711MD1999999-0061ME1315469REMSYN082AAXX  13184 67861 42780 60000 10160 20076 38771 48546 86400 333 10220 59006 86650;EQDQ01    003SCOMCG
0168678610999992000071403004-18220+028930FM-12+1282FVGO V0200301N000510075019N0300001N1+01271+00751999999ADDGA1061+007509059GF106991061051008001001001MA1999999087631MD1999999-0091ME1315399REMSYN076AAXX  14034 67861 42580 60301 10127 20075 38763 48539 86500 333 59009 86625;
0210678610999992000071406004-18220+028930FM-12+1282FVGO V0203601N001010105019N0280001N1+01661+00851999999ADDAA124001091GA1051+010509069GF107991051051012501031001KA1120N+01221MA1999999087711MD1999999-0081ME1315469REMSYN094AAXX  14064 67861 12678 73602 10166 20085 38771 48546 69994 85530 333 20122 59008 85635 83360;
0168678610999992000071409004-18220+028930FM-12+1282FVGO V0200301N002112200019N0500001N1+02101+00921999999ADDGA1011+015009029GF101991011011017501041001MA1999999087681MD1999999-0221ME1315469REMSYN076AAXX  14094 67861 42784 10304 10210 20092 38768 48546 81140 333 59022 81850;
0168678610999992000071412004-18220+028930FM-12+1282FVGO V0203301N001512200019N0500001N1+02391+00601999999ADDGA1031+021009029GF104991031021022501061001MA1999999087421MD1999999-0191ME1315239REMSYN076AAXX  14124 67861 42884 43303 10239 20060 38742 48523 83260 333 59019 83857;
0174678610999992000071415004-18220+028930FM-12+1282FVGO V0202701N000519999999N0500001N1+02151+00611999999ADDGA1011+021009089GF106991061041999999061001MA1999999087391MD1999999-0211ME1315199REMSYN082AAXX  14154 67861 42984 62701 10215 20061 38739 48519 86460 333 59021 81857 86658;
0206678610999992000071418004-18220+028930FM-12+1282FVGO V0209999C000012200019N0300001N1+01601+00761999999ADDGA1021+024009059GF102991021041999999999001KA1120M+02461MA1999999087501MD1999999-0211ME1315289REMSYN082AAXX  14184 67861 42980 20000 10160 20076 38750 48528 82400 333 10246 59021 82658;EQDQ01+000002SCOMCG
0205678610999992000071506004-18220+028930FM-12+1282FVGO V0200701N001012200019N0300001N1+01771+00831999999ADDAA199000091GA1001+999999999GF100991001001999999001001KA1120N+00941MA1999999087541MD1999999-0171ME1315329REMSYN070AAXX  15064 67861 32980 00702 10177 20083 38754 48532 333 20094 59017;EQDQ01  00002PRCP99
0168678610999992000071509004-18220+028930FM-12+1282FVGO V0200101N001512200019N0300001N1+02271+00831999999ADDGA1021+018009029GF102991021011017501001011MA1999999087641MD1999999-0041ME1315449REMSYN076AAXX  15094 67861 42780 20103 10227 20083 38764 48544 82101 333 59004 82856;
0168678610999992000071512004-18220+028930FM-12+1282FVGO V0203501N003110210019N0300001N1+02491+00751999999ADDGA1061+021009029GF106991061011022501001001MA1999999087411MD1999999-0011ME1315229REMSYN076AAXX  15124 67861 42880 63506 10249 20075 38741 48522 86100 333 59001 86857;
0187678610999992000071515004-18220+028930FM-12+1282FVGO V0203301N000512200019N0300001N1+02371+99999999999ADDGA1031+024009059GF103991031041999999999001MA1999999087401MD1999999+0011ME1315219REMSYN076AAXX  15154 67861 42980 33301 10237 20606 38740 48521 83400 333 58001 83658;EQDQ01+000002SCOMCG
0193678610999992000071518004-18220+028930FM-12+1282FVGO V0209999C000012200019N0300001N1+01491+00811999999ADDGA1011+024009059GF101991011041999999999011MA1999999087531MD1999999+0031ME1315329REMSYN082AAXX  15184 67861 42980 10000 10149 20081 38753 48532 81401 333 10925 58003 81658;EQDQ01+000002SCOMCG
0168678610999992000071600004-18220+028930FM-12+1282FVGO V0209999C000012200019N0300001N1+01151+00531999999ADDGA1011+999999019GF101991001001999999001011MA1999999087611MD1999999+0141ME1315409REMSYN076AAXX  16004 67861 42980 10000 10115 20053 38761 48540 80001 333 58014 81099;
0168678610999992000071603004-18220+028930FM-12+1282FVGO V0201601N001512200019N0300001N1+01241+00541999999ADDGA1041+999999019GF104991001001999999001021MA1999999087571MD1999999+0221ME1315369REMSYN076AAXX  16034 67861 42980 41603 10124 20054 38757 48536 80002 333 58022 84099;
0217678610999992000071606004-18220+028930FM-12+1282FVGO V0201701N001512200019N0300001N1+01751+00651999999ADDAA199000091GA1031+999999019GF103991001001999999001021KA1120N+01021MA1999999087751MD1999999+0211ME1315549REMSYN082AAXX  16064 67861 32980 31703 10175 20065 38775 48554 80002 333 20102 58021 83099;EQDQ01  00002PRCP99
0168678610999992000071609004-18220+028930FM-12+1282FVGO V0201801N002110900019N0500001N1+02031+00451999999ADDGA1061+090009089GF106991001001999999001081MA1999999087861MD1999999+0021ME1315659REMSYN076AAXX  16094 67861 42984 61804 10203 20045 38786 48565 80008 333 58002 86280;
0168678610999992000071612004-18220+028930FM-12+1282FVGO V0200801N003112200019N0300001N1+02301-00191999999ADDGA1031+090009019GF103991001001999999001021MA1999999087751MD1999999+0241ME1315479REMSYN076AAXX  16124 67861 42980 30806 10230 21019 38775 48547 80002 333 58024 83080;
0187678610999992000071615004-18220+028930FM-12+1282FVGO V0209999C000012200019N0300001N1+02451-00131999999ADDGA1021+090009019GF102991001001999999001021MA1999999087791MD1999999+0291ME1315609REMSYN076AAXX  16154 67861 42880 20000 10245 21013 38779 48560 80002 333 58029 82080;EQDQ01+022502SCOLCB
0175678610999992000071618004-18220+028930FM-12+1282FVGO V0200601N002612200019N0300001N1+01821-00131999999ADDGA1001+999999999GF100991001001999999001001KA1120M+02651MA1999999087861MD1999999+0331ME1315659REMSYN070AAXX  16184 67861 42980 00605 10182 21013 38786 48565 333 10265 58033;
0156678610999992000071700004-18220+028930FM-12+1282FVGO V0200301N002612200019N0300001N1+01111-00301999999ADDGA1001+999999999GF100991001001999999001001MA1999999087951MD1999999+0311ME1315749REMSYN064AAXX  17004 67861 42980 00305 10111 21030 38795 48574 333 58031;
0156678610999992000071703004-18220+028930FM-12+1282FVGO V0200301N003112200019N0300001N1+00911-00241999999ADDGA1001+999999999GF100991001001999999001001MA1999999087961MD1999999+0391ME1315759REMSYN064AAXX  17034 67861 42980 00306 10091 21024 38796 48575 333 58039;
0221678610999992000071706004-18220+028930FM-12+1282FVGO V0203001N034422200019N0250001N1+01171-00201999999ADDAA199000091GA1001+999999999GF100991001001999999001001KA1120N+00881MA1999999088081MD1999999+0331ME1315879REMSYN070AAXX  17064 67861 32975 03067 10117 21020 38808 48587 333 20088 58033;EQDQ01+003443WOSPD Q02  00002PRCP99
0156678610999992000071715004-18220+028930FM-12+1282FVGO V0200801N001012200019N0300001N1+02241-00161999999ADDGA1001+999999999GF100991001001999999001001MA1999999087961MD1999999+0171ME1315749REMSYN064AAXX  17154 67861 42980 00802 10224 21016 38796 48574 333 58017;
0175678610999992000071718004-18220+028930FM-12+1282FVGO V0209999C000012200019N0300001N1+01291+00121999999ADDGA1001+999999999GF100991001001999999001001KA1120M+02441MA1999999088031MD1999999+0171ME1315809REMSYN070AAXX  17184 67861 42980 00000 10129 20012 38803 48580 333 10244 58017;
0156678610999992000071800004-18220+028930FM-12+1282FVGO V0201001N002612200019N0300001N1+01241-00291999999ADDGA1001+999999999GF100991001001999999001001MA1999999088021MD1999999+0071ME1315799REMSYN064AAXX  18004 67861 42980 01005 10124 21029 38802 48579 333 58007;
0156678610999992000071803004-18220+028930FM-12+1282FVGO V0200801N001512200019N0300001N1+01191+00311999999ADDGA1001+999999999GF100991001001999999001001MA1999999087961MD1999999+0001ME1315739REMSYN064AAXX  18034 67861 42980 00803 10119 20031 38796 48573 333 58000;
0233678610999992000071806004-18220+028930FM-12+1282FVGO V0200901N001012200019N0200001N1+01471+00431999999ADDAA199000091AY101061AY201061GA1001+999999999GF100991001001999999001001KA1120N+01021MA1999999088031MD1999999-0051ME1315809MW1051REMSYN076AAXX  18064 67861 31970 00902 10147 20043 38803 48580 70500 333 20102 59005;EQDQ01  00002PRCP99
0184678610999992000071809004-18220+028930FM-12+1282FVGO V0202801N001512200019N0200001N1+01961+00271999999ADDAY101031AY201031GA1001+999999999GF100991001001999999001001MA1999999088111MD1999999-0071ME1315879MW1051REMSYN070AAXX  18094 67861 41970 02803 10196 20027 38811 48587 70500 333 59007;
0156678610999992000071812004-18220+028930FM-12+1282FVGO V0200301N001512200019N0250001N1+02351-00191999999ADDGA1001+999999999GF100991001001999999001001MA1999999087841MD1999999-0141ME1315649REMSYN064AAXX  18124 67861 42975 00303 10235 21019 38784 48564 333 59014;
0160678610999992000071815004-18220+028930FM-12+1282FVGO V0203301N001012200019N0280001N1+02221-00131999999ADDGA1001+999999999GF100991001001999999001001MD1999999-0211ME1315549REMSYN064AAXX  18154 67861 42978 03302 10222 21013 37875 48554 333 59021;EQDQ01+078753APOSP 
0203678610999992000071818004-18220+028930FM-12+1282FVGO V0209999C000012200019N0200001N1+01201+00231999999ADDAY101061AY201061GA1001+999999999GF100991001001999999001001KA1120M+02431MA1999999087831MD1999999-0201ME1315609MW1051REMSYN076AAXX  18184 67861 41970 00000 10120 20023 38783 48560 70500 333 10243 59020;
0156678610999992000071903004-18220+028930FM-12+1282FVGO V0209999C000012200019N0300001N1+00951-00141999999ADDGA1001+999999999GF100991001001999999001001MA1999999087881MD1999999-0081ME1315659REMSYN064AAXX  19034 67861 42980 00000 10095 21014 38788 48565 333 59008;
0190678610999992000071906004-18220+028930FM-12+1282FVGO V0209999C000012200019N0180001N1+01621+00111999999ADDAA199000091AY101061AY201061GA1001+999999999GF100991001001999999001001MA1999999087731ME1315519MW1051REMSYN060AAXX  19064 67861 31968 00000 10162 20011 38773 48551 70500;EQDQ01  00002PRCP99
0184678610999992000071909004-18220+028930FM-12+1282FVGO V0203401N002112200019N0200001N1+02081+00211999999ADDAY101031AY201031GA1001+999999999GF100991001001999999001001MA1999999087711MD1999999-0401ME1315499MW1051REMSYN070AAXX  19094 67861 41970 03404 10208 20021 38771 48549 70500 333 59040;
0156678610999992000071912004-18220+028930FM-12+1282FVGO V0203201N002612200019N0260001N1+02421+00241999999ADDGA1001+999999999GF100991001001999999001001MA1999999087451MD1999999-0391ME1315269REMSYN064AAXX  19124 67861 42976 03205 10242 20024 38745 48526 333 59039;
0156678610999992000071915004-18220+028930FM-12+1282FVGO V0203201N002112200019N0280001N1+02301+00411999999ADDGA1001+999999999GF100991001001999999001001MA1999999087361MD1999999-0391ME1315169REMSYN064AAXX  19154 67861 42978 03204 10230 20041 38736 48516 333 59039;
0175678610999992000071918004-18220+028930FM-12+1282FVGO V0209999C000012200019N0300001N1+01741+00281999999ADDGA1001+999999999GF100991001001999999001001KA1120M+02521MA1999999087421MD1999999-0411ME1315219REMSYN070AAXX  19184 67861 42980 00000 10174 20028 38742 48521 333 10252 59041;
0156678610999992000072000004-18220+028930FM-12+1282FVGO V0201901N002112200019N0240001N1+01431+00001999999ADDGA1001+999999999GF100991001001999999001001MA1999999087401MD1999999-0161ME1315199REMSYN064AAXX  20004 67861 42974 01904 10143 20000 38740 48519 333 59016;
0156678610999992000072003004-18220+028930FM-12+1282FVGO V0201801N001012200019N0280001N1+01451+00431999999ADDGA1001+999999999GF100991001001999999001001MA1999999087371MD1999999-0181ME1315179REMSYN064AAXX  20034 67861 42978 01802 10145 20043 38737 48517 333 59018;
0233678610999992000072006004-18220+028930FM-12+1282FVGO V0201801N001512200019N0200001N1+01491+00541999999ADDAA199000091AY101061AY201061GA1001+999999999GF100991001001999999001001KA1120N+00951MA1999999087561MD1999999-0171ME1315379MW1051REMSYN076AAXX  20064 67861 31970 01803 10149 20054 38756 48537 70500 333 20095 59017;EQDQ01  00002PRCP99
0184678610999992000072009004-18220+028930FM-12+1282FVGO V0200801N001512200019N0200001N1+02371+00001999999ADDAY101031AY201031GA1001+999999999GF100991001001999999001001MA1999999087651MD1999999-0061ME1315459MW1051REMSYN070AAXX  20094 67861 41970 00803 10237 20000 38765 48545 70500 333 59006;
0156678610999992000072015004-18220+028930FM-12+1282FVGO V0209999C000012200019N0300001N1+02531-00191999999ADDGA1001+999999999GF100991001001999999001001MA1999999087451MD1999999+0091ME1315269REMSYN064AAXX  20154 67861 42980 00000 10253 21019 38745 48526 333 58009;
0183678610999992000072018004-18220+028930FM-12+1282FVGO V0209999C000012200019N0200001N1+01561+00261999999ADDAY101061AY201061GA1001+999999999GF100991001001999999001001KA1999M+02731MA1999999087521ME1315339MW1051REMSYN070AAXX  20184 67861 41970 00000 10156 20026 38752 48533 70500 333 10273;
0156678610999992000072103004-18220+028930FM-12+1282FVGO V0200201N002612200019N0300001N1+01551-00501999999ADDGA1001+999999999GF100991001001999999001001MA1999999087551MD1999999+0181ME1315369REMSYN064AAXX  21034 67861 42980 00205 10155 21050 38755 48536 333 58018;
0233678610999992000072106004-18220+028930FM-12+1282FVGO V0200501N003112200019N0200001N1+01651-00291999999ADDAA199000091AY101061AY201061GA1001+999999999GF100991001001999999001001KA1120N+01341MA1999999087801MD1999999+0241ME1315609MW1051REMSYN076AAXX  21064 67861 31970 00506 10165 21029 38780 48560 70500 333 20134 58024;EQDQ01  00002PRCP99
0156678610999992000072109004-18220+028930FM-12+1282FVGO V0201201N005112200019N0250001N1+02221-00361999999ADDGA1001+999999999GF100991001001999999001001MA1999999087791MD1999999+0141ME1315589REMSYN064AAXX  21094 67861 42975 01210 10222 21036 38779 48558 333 58014;
0156678610999992000072112004-18220+028930FM-12+1282FVGO V0200801N004612200019N0260001N1+02421-00501999999ADDGA1001+999999999GF100991001001999999001001MA1999999087601MD1999999+0131ME1315409REMSYN064AAXX  21124 67861 42976 00809 10242 21050 38760 48540 333 58013;
0156678610999992000072115004-18220+028930FM-12+1282FVGO V0201101N002112200019N0280001N1+02361-00331999999ADDGA1001+999999999GF100991001001999999001001MA1999999087531MD1999999+0081ME1315349REMSYN064AAXX  21154 67861 42978 01104 10236 21033 38753 48534 333 58008;
0175678610999992000072118004-18220+028930FM-12+1282FVGO V0201201N005112200019N0300001N1+01771+00451999999ADDGA1001+999999999GF100991001001999999001001KA1120M+02521MA1999999087671MD1999999+0151ME1315469REMSYN070AAXX  21184 67861 42980 01210 10177 20045 38767 48546 333 10252 58015;
0233678610999992000072206004-18220+028930FM-12+1282FVGO V0203601N002612200019N0150001N1+01311+00741999999ADDAA199000091AY101061AY201061GA1001+999999999GF100991001001999999001001KA1120N+01021MA1999999088001MD1999999+0201ME1315789MW1051REMSYN076AAXX  22064 67861 31965 03605 10131 20074 38800 48578 70500 333 20102 58020;EQDQ01  00002PRCP99
0184678610999992000072209004-18220+028930FM-12+1282FVGO V0203601N003612200019N0170001N1+01901+00881999999ADDAY101031AY201031GA1001+999999999GF100991001001999999001001MA1999999087991MD1999999+0201ME1315749MW1051REMSYN070AAXX  22094 67861 41967 03607 10190 20088 38799 48574 70500 333 58020;
0184678610999992000072212004-18220+028930FM-12+1282FVGO V0203401N003112200019N0200001N1+02251+00001999999ADDAY101061AY201061GA1001+999999999GF100991001001999999001001MA1999999087831MD1999999+0231ME1315629MW1051REMSYN070AAXX  22124 67861 41970 03406 10225 20000 38783 48562 70500 333 58023;
0184678610999992000072215004-18220+028930FM-12+1282FVGO V0203601N001012200019N0200001N1+02151+00151999999ADDAY101031AY201031GA1001+999999999GF100991001001999999001001MA1999999087811MD1999999+0281ME1315599MW1051REMSYN070AAXX  22154 67861 41970 03602 10215 20015 38781 48559 70500 333 58028;
0203678610999992000072218004-18220+028930FM-12+1282FVGO V0209999C000012200019N0150001N1+01501+00351999999ADDAY101061AY201061GA1001+999999999GF100991001001999999001001KA1120M+02341MA1999999087891MD1999999+0221ME1315659MW1051REMSYN076AAXX  22184 67861 41965 00000 10150 20035 38789 48565 70500 333 10234 58022;
0156678610999992000072300004-18220+028930FM-12+1282FVGO V0203601N003112200019N0300001N1+01351+00181999999ADDGA1001+999999999GF100991001001999999001001MA1999999087951MD1999999+0121ME1315719REMSYN064AAXX  23004 67861 42980 03606 10135 20018 38795 48571 333 58012;
0156678610999992000072303004-18220+028930FM-12+1282FVGO V0200201N003112200019N0280001N1+01151+00251999999ADDGA1001+999999999GF100991001001999999001001MA1999999088001MD1999999+0151ME1315769REMSYN064AAXX  23034 67861 42978 00206 10115 20025 38800 48576 333 58015;
0233678610999992000072306004-18220+028930FM-12+1282FVGO V0200301N004112200019N0100001N1+01321+00981999999ADDAA199000091AY101061AY201061GA1001+999999999GF100991001001999999001001KA1120N+01021MA1999999088141MD1999999+0141ME1315909MW1051REMSYN076AAXX  23064 67861 31960 00308 10132 20098 38814 48590 70500 333 20102 58014;EQDQ01  00002PRCP99
0196678610999992000072312004-18220+028930FM-12+1282FVGO V0200201N003612200019N0180001N1+02061+00411999999ADDAY101061AY201061GA1031+021009029GF103991031011022501001001MA1999999088051MD1999999+0221ME1315829MW1051REMSYN082AAXX  23124 67861 41868 30207 10206 20041 38805 48582 70500 83100 333 58022 83857;
0168678610999992000072409004-18220+028930FM-12+1282FVGO V0200301N005112200019N0250001N1+01561+00491999999ADDGA1011+030009079GF101991011001999999041001MA1999999088141MD1999999-0101ME1315869REMSYN076AAXX  24094 67861 42975 10310 10156 20049 38814 48586 81040 333 59010 81360;
0168678610999992000072412004-18220+028930FM-12+1282FVGO V0200701N002612200019N0400001N1+01951+00401999999ADDGA1011+018009029GF101991011011022501001001MA1999999087901MD1999999-0151ME1315669REMSYN076AAXX  24124 67861 42882 10705 10195 20040 38790 48566 81100 333 59015 81856;
0175678610999992000072418004-18220+028930FM-12+1282FVGO V0201601N000512200019N0300001N1+01211+00511999999ADDGA1001+999999999GF100991001001999999001001KA1120M+02101MA1999999087921MD1999999-0161ME1315669REMSYN070AAXX  24184 67861 42980 01601 10121 20051 38792 48566 333 10210 59016;
0156678610999992000072503004-18220+028930FM-12+1282FVGO V0201301N002612200019N0300001N1+01051+00571999999ADDGA1001+999999999GF100991001001999999001001MA1999999087821MD1999999-0161ME1315569REMSYN064AAXX  25034 67861 42980 01305 10105 20057 38782 48556 333 59016;
0205678610999992000072506004-18220+028930FM-12+1282FVGO V0201101N003112200019N0300001N1+01371+00611999999ADDAA199000091GA1001+999999999GF100991001001999999001001KA1120N+01041MA1999999087951MD1999999-0211ME1315699REMSYN070AAXX  25064 67861 32980 01106 10137 20061 38795 48569 333 20104 59021;EQDQ01  00002PRCP99
0156678610999992000072509004-18220+028930FM-12+1282FVGO V0201001N002112200019N0300001N1+01771+00601999999ADDGA1001+999999999GF100991001001999999001001MA1999999088011MD1999999-0131ME1315759REMSYN064AAXX  25094 67861 42980 01004 10177 20060 38801 48575 333 59013;
0156678610999992000072512004-18220+028930FM-12+1282FVGO V0200801N002112200019N0300001N1+02181+00301999999ADDGA1001+999999999GF100991001001999999001001MA1999999087791MD1999999-0111ME1315589REMSYN064AAXX  25124 67861 42980 00804 10218 20030 38779 48558 333 59011;
0175678610999992000072518004-18220+028930FM-12+1282FVGO V0209999C000012200019N0300001N1+01361+00441999999ADDGA1001+999999999GF100991001001999999001001KA1120M+02311MA1999999087891MD1999999-0031ME1315659REMSYN070AAXX  25184 67861 42980 00000 10136 20044 38789 48565 333 10231 59003;
0156678610999992000072603004-18220+028930FM-12+1282FVGO V0200901N005112200019N0300001N1+01221+00391999999ADDGA1001+999999999GF100991001001999999001001MA1999999088021MD1999999+0201ME1315789REMSYN064AAXX  26034 67861 42980 00910 10122 20039 38802 48578 333 58020;
0205678610999992000072606004-18220+028930FM-12+1282FVGO V0201201N004612200019N0260001N1+01301+00551999999ADDAA199000091GA1001+999999999GF100991001001999999001001KA1120N+01031MA1999999088251MD1999999+0301ME1316009REMSYN070AAXX  26064 67861 32976 01209 10130 20055 38825 48600 333 20103 58030;EQDQ01  00002PRCP99
0187678610999992000072609004-18220+028930FM-12+1282FVGO V0201301N005112200019N0300001N1+01771+00551999999ADDGA1011+013509029GF199999001001999999001001MA1999999088361MD1999999+0351ME1316099REMSYN076AAXX  26094 67861 42680 01310 10177 20055 38836 48609 81100 333 58035 81845;EQDQ01+000002SCOTCV
0168678610999992000072612004-18220+028930FM-12+1282FVGO V0203601N005112200019N0300001N1+02091+00371999999ADDGA1011+021009029GF101991011011022501001001MA1999999088151MD1999999+0361ME1315929REMSYN076AAXX  26124 67861 42880 13610 10209 20037 38815 48592 81100 333 58036 81857;
0187678610999992000072615004-18220+028930FM-12+1282FVGO V0203601N004112200019N0300001N1+01971+00381999999ADDGA1011+021009059GF101991011041022501999001MA1999999088101MD1999999+0311ME1315869REMSYN076AAXX  26154 67861 42880 13608 10197 20038 38810 48586 81400 333 58031 81657;EQDQ01+000002SCOMCG
0175678610999992000072618004-18220+028930FM-12+1282FVGO V0200301N003612200019N0250001N1+01651+00351999999ADDGA1001+999999999GF100991001001999999001001KA1120M+02201MA1999999088211MD1999999+0321ME1315949REMSYN070AAXX  26184 67861 42975 00307 10165 20035 38821 48594 333 10220 58032;
0233678610999992000072706004-18220+028930FM-12+1282FVGO V0200301N005112200019N0100001N1+01201+00701999999ADDAA199000091AY101061AY201061GA1001+999999999GF100991001001999999001001KA1120N+00951MA1999999088381MD1999999+0131ME1316119MW1051REMSYN076AAXX  27064 67861 31960 00310 10120 20070 38838 48611 70500 333 20095 58013;EQDQ01  00002PRCP99
0168678610999992000072709004-18220+028930FM-12+1282FVGO V0201101N003112200019N0300001N1+01751+00531999999ADDGA1021+015009029GF102991021011017501001001MA1999999088301MD1999999-0061ME1316039REMSYN076AAXX  27094 67861 42780 21106 10175 20053 38830 48603 82100 333 59006 82850;
0168678610999992000072712004-18220+028930FM-12+1282FVGO V0201101N003112200019N0500001N1+01951+00491999999ADDGA1031+018009029GF103991031011017501001001MA1999999087931MD1999999-0171ME1315749REMSYN076AAXX  27124 67861 42784 31106 10195 20049 38793 48574 83100 333 59017 83856;
0175678610999992000072718004-18220+028930FM-12+1282FVGO V0201101N001012200019N0300001N1+01401+00841999999ADDGA1001+999999999GF100991001001999999001001KA1120M+02071MA1999999088051MD1999999-0161ME1315789REMSYN070AAXX  27184 67861 42980 01102 10140 20084 38805 48578 333 10207 59016;
0156678610999992000072800004-18220+028930FM-12+1282FVGO V0201101N004112200019N0300001N1+01001+00361999999ADDGA1001+999999999GF100991001001999999001001MA1999999087931MD1999999-0351ME1315669REMSYN064AAXX  28004 67861 42980 01108 10100 20036 38793 48566 333 59035;
0156678610999992000072803004-18220+028930FM-12+1282FVGO V0201201N002612200019N0300001N1+00901+00501999999ADDGA1001+999999999GF100991001001999999001001MA1999999087881MD1999999-0381ME1315619REMSYN064AAXX  28034 67861 42980 01205 10090 20050 38788 48561 333 59038;
0205678610999992000072806004-18220+028930FM-12+1282FVGO V0201301N002112200019N0300001N1+01101+00441999999ADDAA199000091GA1001+999999999GF100991001001999999001001KA1120N+00781MA1999999087971MD1999999-0411ME1315709REMSYN070AAXX  28064 67861 32980 01304 10110 20044 38797 48570 333 20078 59041;EQDQ01  00002PRCP99
0172678610999992000072809004-18220+028930FM-12+1282FVGO V0201701N001512200019N0300001N1+01551+00301999999ADDGA1011+015009029GF101991011011017501001001MD1999999-0301ME1315719REMSYN076AAXX  28094 67861 42780 11703 10155 20030 38645 48571 81100 333 59030 81850;EQDQ01+086453APOSP 
0156678610999992000072815004-18220+028930FM-12+1282FVGO V0203601N001512200019N0300001N1+01911+00421999999ADDGA1001+999999999GF100991001001999999001001MA1999999087631MD1999999-0301ME1315399REMSYN064AAXX  28154 67861 42980 03603 10191 20042 38763 48539 333 59030;
0175678610999992000072818004-18220+028930FM-12+1282FVGO V0209999C000012200019N0300001N1+01101+00561999999ADDGA1001+999999999GF100991001001999999001001KA1120M+02111MA1999999087731MD1999999-0321ME1315489REMSYN070AAXX  28184 67861 42980 00000 10110 20056 38773 48548 333 10211 59032;
0156678610999992000072900004-18220+028930FM-12+1282FVGO V0201201N003612200019N0300001N1+01131+00341999999ADDGA1001+999999999GF100991001001999999001001MA1999999087631MD1999999-0301ME1315389REMSYN064AAXX  29004 67861 42980 01207 10113 20034 38763 48538 333 59030;
0168678610999992000073000004-18220+028930FM-12+1282FVGO V0201101N003110180019N0300001N1+01401+00391999999ADDGA1071+018009059GF107991071051017501999999MA1999999089601MD1999999-0031ME1315359REMSYN076AAXX  30004 67861 42780 71106 10140 20039 38960 48535 875// 333 59003 87656;
0175678610999992000073003004-18220+028930FM-12+1282FVGO V0200601N001012200019N0300001N1+00901+00481999999ADDGA1001+999999999GF100991001001999999001001MA1999999087552MD1999999-0011ME1315319REMSYN064AAXX  30034 67861 42980 00602 10090 20048 38755 48531 333 59001;EQDQ01+087553APOSP 
0233678610999992000073006004-18220+028930FM-12+1282FVGO V0201101N002612200019N0300001N1+01561+00611999999ADDAA199000091GA1011+018009059GF101991011051017501999001KA1120N+00741MA1999999087761MD1999999+0051ME1315519REMSYN082AAXX  30064 67861 32780 11105 10156 20061 38776 48551 81500 333 20074 58005 81656;EQDQ01+000002SCOMCGQ02  00002PRCP99
0168678610999992000073009004-18220+028930FM-12+1282FVGO V0200301N003112200019N0300001N1+01971+00441999999ADDGA1011+018009029GF101991011011022501001001MA1999999087791MD1999999-0111ME1315569REMSYN076AAXX  30094 67861 42880 10306 10197 20044 38779 48556 81100 333 59011 81856;
0168678610999992000073103004-18220+028930FM-12+1282FVGO V0201301N003610300019N0300001N1+01391+00581999999ADDGA1061+030009079GF106991061001999999031001MA1999999087641MD1999999+0091ME1315409REMSYN076AAXX  31034 67861 42980 61307 10139 20058 38764 48540 86030 333 58009 86360;
0168678610999992000073109004-18220+028930FM-12+1282FVGO V0200301N003610300019N0300001N1+02001+00781999999ADDGA1061+030009079GF106991061001999999031001MA1999999087891MD1999999+0101ME1315659REMSYN076AAXX  31094 67861 42980 60307 10200 20078 38789 48565 86030 333 58010 86360;
0174678610999992000073112004-18220+028930FM-12+1282FVGO V0203401N00151045001CN0500001N1+02351+00561999999ADDGA1031+021009089GF107991031021022501031001MA1999999087631MD1999999+0061ME1315419REMSYN082AAXX  31124 67861 42884 73403 10235 20056 38763 48541 83230 333 58006 83857 85360;
0174678610999992000073115004-18220+028930FM-12+1282FVGO V0201201N001519999999N0500001N1+02101+00541999999ADDGA1011+021009089GF107991071041999999061999MA1999999087561MD1999999+0011ME1315349REMSYN082AAXX  31154 67861 42984 71203 10210 20054 38756 48534 8746/ 333 58001 81857 87658;
0187678610999992000073118004-18220+028930FM-12+1282FVGO V0201401N000510240019N0300001N1+01621+00751999999ADDGA1051+024009059GF105991051041999999061001KA1120M+02421MA1999999087671MD1999999+0021ME1315459REMSYN082AAXX  31184 67861 42980 51401 10162 20075 38767 48545 85460 333 10242 58002 85658;
0156678610999992000080100004-18220+028930FM-12+1282FVGO V0201301N004612200019N0300001N1+01361+00701999999ADDGA1001+999999999GF100991001001999999001001MA1999999087681MD1999999+0061ME1315469REMSYN064AAXX  01004 67861 42980 01309 10136 20070 38768 48546 333 58006;
0168678610999992000080103004-18220+028930FM-12+1282FVGO V0201501N005112200019N0300001N1+01301+00741999999ADDGA1011+027009079GF101991011001999999031001MA1999999087641MD1999999+0001ME1315429REMSYN076AAXX  01034 67861 42980 11510 10130 20074 38764 48542 81030 333 58000 81359;
0217678610999992000080106004-18220+028930FM-12+1282FVGO V0201301N004110270019N0300001N1+01561+00841999999ADDAA199000091GA1061+027009079GF106991061001999999031001KA1120N+01231MA1999999087801MD1999999-0021ME1315579REMSYN082AAXX  01064 67861 32980 61308 10156 20084 38780 48557 86030 333 20123 59002 86359;EQDQ01  00002PRCP99
0168678610999992000080109004-18220+028930FM-12+1282FVGO V0200201N002612200019N0300001N1+02001+00841999999ADDGA1011+015009029GF101991011011017501031001MA1999999087901MD1999999+0011ME1315669REMSYN076AAXX  01094 67861 42780 10205 10200 20084 38790 48566 81130 333 58001 81850;
0168678610999992000080115004-18220+028930FM-12+1282FVGO V0203601N001010240019N0300001N1+02131+00211999999ADDGA1051+024009059GF105991051041999999061001MA1999999087671MD1999999+0111ME1315459REMSYN076AAXX  01154 67861 42980 53602 10213 20021 38767 48545 85460 333 58011 85658;
0206678610999992000080118004-18220+028930FM-12+1282FVGO V0209999C000010240019N0280001N1+01651+00411999999ADDGA1061+024009059GF106991061041999999999001KA1120M+02361MA1999999087761MD1999999+0091ME1315539REMSYN082AAXX  01184 67861 42978 60000 10165 20041 38776 48553 86400 333 10236 58009 86658;EQDQ01+000002SCOMCG
0233678610999992000080206004-18220+028930FM-12+1282FVGO V0200301N003112200019N0150001N1+01371+00871999999ADDAA199000091AY101061AY201061GA1001+999999999GF100991001001999999001001KA1120N+01131MA1999999087911MD1999999+0111ME1315679MW1051REMSYN076AAXX  02064 67861 31965 00306 10137 20087 38791 48567 70500 333 20113 58011;EQDQ01  00002PRCP99
0184678610999992000080209004-18220+028930FM-12+1282FVGO V0201101N004112200019N0200001N1+01851+00821999999ADDAY101031AY201031GA1001+999999999GF100991001001999999001001MA1999999088001MD1999999+0101ME1315759MW1051REMSYN070AAXX  02094 67861 41970 01108 10185 20082 38800 48575 70500 333 58010;
0168678610999992000080212004-18220+028930FM-12+1282FVGO V0201101N004110210019N0500001N1+02201+00431999999ADDGA1051+021009029GF105991051011022501001001MA1999999087741MD1999999-0011ME1315539REMSYN076AAXX  02124 67861 42884 51108 10220 20043 38774 48553 85100 333 59001 85857;
0187678610999992000080215004-18220+028930FM-12+1282FVGO V0201301N002612200019N0300001N1+02061+00561999999ADDGA1031+024009059GF103991031041999999999001MA1999999087681MD1999999-0011ME1315459REMSYN076AAXX  02154 67861 42980 31305 10206 20056 38768 48545 83400 333 59001 83658;EQDQ01+000002SCOMCG
0175678610999992000080218004-18220+028930FM-12+1282FVGO V0201401N001012200019N0300001N1+01501+00551999999ADDGA1001+999999999GF100991001001999999001001KA1120M+02361MA1999999087731MD1999999-0031ME1315509REMSYN070AAXX  02184 67861 42980 01402 10150 20055 38773 48550 333 10236 59003;
0245678610999992000080306004-18220+028930FM-12+1282FVGO V0200501N001510300019N0200001N1+01971+00311999999ADDAA199000091AY111061AY211061GA1061+030009079GF106991061001999999031001KA1120N+00961MA1999999087921MD1999999+0011ME1315689MW1051REMSYN088AAXX  03064 67861 31970 60503 10197 20031 38792 48568 70511 86030 333 20096 58001 86360;EQDQ01  00002PRCP99
0168678610999992000080309004-18220+028930FM-12+1282FVGO V0202701N002112200019N0280001N1+01981+00751999999ADDGA1011+018009029GF101991011011017501001001MA1999999088001MD1999999+0001ME1315769REMSYN076AAXX  03094 67861 42778 12704 10198 20075 38800 48576 81100 333 58000 81856;
0168678610999992000080312004-18220+028930FM-12+1282FVGO V0202701N001012200019N0350001N1+02251+00541999999ADDGA1011+021009029GF101991011011022501001001MA1999999087671MD1999999-0071ME1315479REMSYN076AAXX  03124 67861 42881 12702 10225 20054 38767 48547 81100 333 59007 81857;
0187678610999992000080315004-18220+028930FM-12+1282FVGO V0203601N000512200019N0350001N1+02221+00501999999ADDGA1011+021009059GF101991011041022501999001MA1999999087701MD1999999+0021ME1315499REMSYN076AAXX  03154 67861 42881 13601 10222 20050 38770 48549 81400 333 58002 81657;EQDQ01+000002SCOMCG
0175678610999992000080318004-18220+028930FM-12+1282FVGO V0209999C000012200019N0300001N1+01751+00501999999ADDGA1001+999999999GF100991001001999999001001KA1120M+02341MA1999999087801MD1999999+0071ME1315569REMSYN070AAXX  03184 67861 42980 00000 10175 20050 38780 48556 333 10234 58007;
0156678610999992000080400004-18220+028930FM-12+1282FVGO V0200201N001512200019N0300001N1+01501+00631999999ADDGA1001+999999999GF100991001001999999001001MA1999999087831MD1999999+0051ME1315599REMSYN064AAXX  04004 67861 42980 00203 10150 20063 38783 48559 333 58005;
0156678610999992000080403004-18220+028930FM-12+1282FVGO V0200401N001012200019N0300001N1+01201+00501999999ADDGA1001+999999999GF100991001001999999001001MA1999999087821MD1999999+0051ME1315589REMSYN064AAXX  04034 67861 42980 00402 10120 20050 38782 48558 333 58005;
0205678610999992000080406004-18220+028930FM-12+1282FVGO V0201301N003612200019N0300001N1+01501+00601999999ADDAA199000091GA1001+999999999GF100991001001999999001001KA1120N+01091MA1999999087901MD1999999-0021ME1315669REMSYN070AAXX  04064 67861 32980 01307 10150 20060 38790 48566 333 20109 59002;EQDQ01  00002PRCP99
0168678610999992000080409004-18220+028930FM-12+1282FVGO V0201401N001012200019N0400001N1+02151+00831999999ADDGA1011+015009029GF101991011011017501001001MA1999999087941MD1999999-0061ME1315729REMSYN076AAXX  04094 67861 42782 11402 10215 20083 38794 48572 81100 333 59006 81850;
0168678610999992000080412004-18220+028930FM-12+1282FVGO V0200501N001512200019N0500001N1+02451+00241999999ADDGA1011+027009029GF101991011011999999001001MA1999999087701MD1999999+0031ME1315519REMSYN076AAXX  04124 67861 42984 10503 10245 20024 38770 48551 81100 333 58003 81859;
0187678610999992000080415004-18220+028930FM-12+1282FVGO V0201401N001512200019N0500001N1+02391+00051999999ADDGA1011+030009059GF101991011041999999999001MA1999999087691MD1999999-0011ME1315499REMSYN076AAXX  04154 67861 42984 11403 10239 20005 38769 48549 81400 333 59001 81660;EQDQ01+000002SCOMCG
0147678610999992000080418004-18220+028930FM-12+1282FVGO V0209999C000012200019N0300001N1+01561+00611999999ADDGA1001+999999999GF100991001001999999001001MA1999999087791ME1315589REMSYN069AAXX  04184 67861 42980 00000 10156 20061 38779 48558 33 10260 59001;
0217678610999992000080506004-18220+028930FM-12+1282FVGO V0201501N002612200019N0300001N1+01651+00601999999ADDAA199000091GA1011+030009079GF101991011001999999031001KA1120N+01331MA1999999088071MD1999999+0171ME1315869REMSYN082AAXX  05064 67861 32980 11505 10165 20060 38807 48586 81030 333 20133 58017 81360;EQDQ01  00002PRCP99
0198678610999992000080509004-18220+028930FM-12+1282FVGO V0201301N005112200019N0500001N1+02181+00501999999ADDAA199000091GA1011+021009029GF101991011011022501041001MA1999999088091MD1999999+0151ME1315879REMSYN076AAXX  05094 67861 31884 11310 10218 20050 38809 48587 81140 333 58015 81857;EQDQ01  00002PRCP99
0168678610999992000080512004-18220+028930FM-12+1282FVGO V0201401N003112200019N0500001N1+02401+00251999999ADDGA1031+027009029GF103991031011999999001001MA1999999087851MD1999999+0151ME1315659REMSYN076AAXX  05124 67861 42984 31406 10240 20025 38785 48565 83100 333 58015 83859;
0217678610999992000080606004-18220+028930FM-12+1282FVGO V0201601N005112200019N0300001N1+01401+00591999999ADDAA199000091GA1011+027009079GF101991011001999999041001KA1120N+01131MA1999999088121MD1999999+0051ME1315909REMSYN082AAXX  06064 67861 32980 11610 10140 20059 38812 48590 81040 333 20113 58005 81359;EQDQ01  00002PRCP99
0156678610999992000080609004-18220+028930FM-12+1282FVGO V0201601N004612200019N0300001N1+02021+00231999999ADDGA1001+999999999GF100991001001999999001001MA1999999088121MD1999999+0031ME1315889REMSYN064AAXX  06094 67861 42980 01609 10202 20023 38812 48588 333 58003;
0187678610999992000080612004-18220+028930FM-12+1282FVGO V0201401N002612200019N0400001N1+02301-00081999999ADDGA1011+030009029GF101991011011999999001999MA1999999087921MD1999999+0071ME1315719REMSYN076AAXX  06124 67861 42982 11405 10230 21008 38792 48571 81100 333 58007 81860;EQDQ01+000002SCOHCG
0168678610999992000080615004-18220+028930FM-12+1282FVGO V0201601N004110330019N0300001N1+02251+00101999999ADDGA1051+033009079GF105991051001999999061001MA1999999087881MD1999999+0061ME1315679REMSYN076AAXX  06154 67861 42980 51608 10225 20010 38788 48567 85060 333 58006 85361;
0156678610999992000080618004-18220+028930FM-12+1282FVGO V0201101N001512200019N0300001N1+01801+00151999999ADDGF101991011001999999061001KA1120M+02461MA1999999087981ME1315759REMSYN081AAXX  06184 67861 42980 11103 10180 20015 38798 48575 81060 333 10246 5800 81360;
0156678610999992000080700004-18220+028930FM-12+1282FVGO V0201601N004612200019N0300001N1+01301+00841999999ADDGA1001+999999999GF100991001001999999001001MA1999999087971MD1999999-0011ME1315749REMSYN064AAXX  07004 67861 42980 01609 10130 20084 38797 48574 333 59001;
0156678610999992000080703004-18220+028930FM-12+1282FVGO V0201501N004112200019N0300001N1+01191+00841999999ADDGA1001+999999999GF100991001001999999001001MA1999999087901MD1999999-0041ME1315679REMSYN064AAXX  07034 67861 42980 01508 10119 20084 38790 48567 333 59004;
0245678610999992000080706004-18220+028930FM-12+1282FVGO V0201601N004112200019N0100001N1+01241+00891999999ADDAA199000091AY101061AY201061GA1011+002109069GF101991011061002501001001KA1120N+01031MA1999999088081MD1999999-0041ME1315859MW1051REMSYN088AAXX  07064 67861 31360 11608 10124 20089 38808 48585 70500 81600 333 20103 59004 81707;EQDQ01  00002PRCP99
0196678610999992000080709004-18220+028930FM-12+1282FVGO V0203201N004112200019N0150001N1+01771+00721999999ADDAY101031AY201031GA1011+013509029GF101991011011012501001001MA1999999088141MD1999999+0021ME1315889MW1051REMSYN082AAXX  07094 67861 41665 13208 10177 20072 38814 48588 70500 81100 333 58002 81845;
0196678610999992000080712004-18220+028930FM-12+1282FVGO V0200301N002612200019N0200001N1+02031+00561999999ADDAY101061AY201061GA1031+018009029GF103991031021022501001001MA1999999087901MD1999999-0021ME1315669MW1051REMSYN082AAXX  07124 67861 41870 30305 10203 20056 38790 48566 70500 83200 333 59002 83856;
0215678610999992000080715004-18220+028930FM-12+1282FVGO V0200401N001512200019N0200001N1+02051-00101999999ADDAY101031AY201031GA1021+018009059GF102991021041022501999001MA1999999087831MD1999999-0051ME1315609MW1051REMSYN082AAXX  07154 67861 41870 20403 10205 21010 38783 48560 70500 82400 333 59005 82656;EQDQ01+000002SCOMCG
0234678610999992000080718004-18220+028930FM-12+1282FVGO V0200801N002612200019N0150001N1+01601+00161999999ADDAY101061AY201061GA1011+018009059GF101991011041022501999001KA1120M+02201MA1999999087981MD1999999+0001ME1315739MW1051REMSYN088AAXX  07184 67861 41865 10805 10160 20016 38798 48573 70500 81400 333 10220 58000 81656;EQDQ01+000002SCOMCG
0156678610999992000080800004-18220+028930FM-12+1282FVGO V0203601N003112200019N0250001N1+01101+00251999999ADDGA1001+999999999GF100991001001999999001001MA1999999087961MD1999999-0011ME1315719REMSYN064AAXX  08004 67861 42975 03606 10110 20025 38796 48571 333 59001;
0156678610999992000080803004-18220+028930FM-12+1282FVGO V0200201N002612200019N0250001N1+01051+00301999999ADDGA1001+999999999GF100991001001999999001001MA1999999087941MD1999999+0041ME1315699REMSYN064AAXX  08034 67861 42975 00205 10105 20030 38794 48569 333 58004;
0205678610999992000080806004-18220+028930FM-12+1282FVGO V0200201N002112200019N0250001N1+01251+00521999999ADDAA199000091GA1001+999999999GF100991001001999999001001KA1120N+00941MA1999999088081MD1999999+0051ME1315839REMSYN070AAXX  08064 67861 32975 00204 10125 20052 38808 48583 333 20094 58005;EQDQ01  00002PRCP99
0168678610999992000080809004-18220+028930FM-12+1282FVGO V0201201N004112200019N0400001N1+01711+00251999999ADDGA1011+018009029GF101991011011022501001001MA1999999088121MD1999999-0021ME1315869REMSYN076AAXX  08094 67861 42882 11208 10171 20025 38812 48586 81100 333 59002 81856;
0187678610999992000080812004-18220+028930FM-12+1282FVGO V0201101N004112200019N0500001N1+02051+00131999999ADDGA1021+024009029GF102991999011999999001001MA1999999087891MD1999999-0011ME1315669REMSYN076AAXX  08124 67861 42984 21108 10205 20013 38789 48566 81100 333 59001 82858;EQDQ01+000012SCOTLC
0187678610999992000080815004-18220+028930FM-12+1282FVGO V0201201N002612200019N0500001N1+01951+00151999999ADDGA1021+024009059GF102991021041999999999001MA1999999087891MD1999999+0061ME1315659REMSYN076AAXX  08154 67861 42984 21205 10195 20015 38789 48565 82400 333 58006 82658;EQDQ01+000002SCOMCG
0187678610999992000080818004-18220+028930FM-12+1282FVGO V0201201N001510270019N0300001N1+01651+00351999999ADDGA1071+027009079GF107991071001999999061001KA1120M+02151MA1999999087941MD1999999-0041ME1315689REMSYN082AAXX  08184 67861 42980 71203 10165 20035 38794 48568 87060 333 10215 59004 87359;
0217678610999992000080906004-18220+028930FM-12+1282FVGO V0201801N004110120019N0300001N1+01271+00461999999ADDAA199000091GA1071+012009059GF107991071051012501031001KA1120N+01021MA1999999088021MD1999999-0061ME1315769REMSYN082AAXX  09064 67861 32680 71808 10127 20046 38802 48576 87530 333 20102 59006 87640;EQDQ01  00002PRCP99
0187678610999992000080915004-18220+028930FM-12+1282FVGO V0203601N001012200019N0400001N1+01931+00311999999ADDGA1021+018009059GF102991021041022501999001MA1999999087571MD1999999-0141ME1315509REMSYN076AAXX  09154 67861 42882 23602 10193 20031 38757 48550 82400 333 59014 82656;EQDQ01+000002SCOMCG
0175678610999992000080918004-18220+028930FM-12+1282FVGO V0209999C000012200019N0300001N1+01251+00491999999ADDGA1001+999999999GF100991001001999999001001KA1120M+02141MA1999999087851MD1999999-0091ME1315599REMSYN070AAXX  09184 67861 42980 00000 10125 20049 38785 48559 333 10214 59009;
0156678610999992000081003004-18220+028930FM-12+1282FVGO V0209999C000012200019N0300001N1+00841+00381999999ADDGA1001+999999999GF100991001001999999001001MA1999999087841MD1999999-0061ME1315589REMSYN064AAXX  10034 67861 42980 00000 10084 20038 38784 48558 333 59006;
0205678610999992000081006004-18220+028930FM-12+1282FVGO V0209999C000012200019N0300001N1+01591+00691999999ADDAA199000091GA1001+999999999GF100991001001999999001001KA1120N+00751MA1999999087891MD1999999-0131ME1315639REMSYN070AAXX  10064 67861 32980 00000 10159 20069 38789 48563 333 20075 59013;EQDQ01  00002PRCP99
0168678610999992000081009004-18220+028930FM-12+1282FVGO V0203301N002612200019N0450001N1+01931+00481999999ADDGA1011+018009029GF101991011011017501001001MA1999999087911MD1999999-0191ME1315669REMSYN076AAXX  10094 67861 42783 13305 10193 20048 38791 48566 81100 333 59019 81856;
0168678610999992000081012004-18220+028930FM-12+1282FVGO V0203501N002112200019N0500001N1+02051+00451999999ADDGA1031+021009029GF103991031011022501001001MA1999999087651MD1999999-0151ME1315439REMSYN076AAXX  10124 67861 42884 33504 10205 20045 38765 48543 83100 333 59015 83857;
0187678610999992000081015004-18220+028930FM-12+1282FVGO V0209999C000012200019N0500001N1+02201+00391999999ADDGA1011+018009059GF101991011041022501999001MA1999999087571MD1999999-0181ME1315369REMSYN076AAXX  10154 67861 42884 10000 10220 20039 38757 48536 81400 333 59018 81656;EQDQ01+000002SCOMCG
0175678610999992000081018004-18220+028930FM-12+1282FVGO V0209999C000012200019N0300001N1+01471+00561999999ADDGA1001+999999999GF100991001001999999001001KA1120M+02331MA1999999087651MD1999999-0201ME1315429REMSYN070AAXX  10184 67861 42980 00000 10147 20056 38765 48542 333 10233 59020;
0168678610999992000081100004-18220+028930FM-12+1282FVGO V0202201N001012200019N0300001N1+01301+00421999999ADDGA1011+027009079GF101991011001999999031001MA1999999087581MD1999999-0271ME1315359REMSYN076AAXX  11004 67861 42980 12202 10130 20042 38758 48535 81030 333 59027 81359;
0168678610999992000081103004-18220+028930FM-12+1282FVGO V0201501N001510120019N0300001N1+01341+00461999999ADDGA1071+012009059GF107991071051012501031001MA1999999087641MD1999999-0201ME1315419REMSYN076AAXX  11034 67861 42680 71503 10134 20046 38764 48541 87530 333 59020 87640;
0174678610999992000081109004-18220+028930FM-12+1282FVGO V0200401N001512200019N0300001N1+02101+00501999999ADDGA1011+018009089GF104991011011022501031001MA1999999087811MD1999999-0101ME1315589REMSYN082AAXX  11094 67861 42880 40403 10210 20050 38781 48558 81130 333 59010 81856 83359;
0168678610999992000081112004-18220+028930FM-12+1282FVGO V0202501N001510270019N0500001N1+02201+00151999999ADDGA1051+027009029GF106991051011999999031001MA1999999087591MD1999999-0061ME1315389REMSYN076AAXX  11124 67861 42984 62503 10220 20015 38759 48538 85130 333 59006 85859;
0168678610999992000081115004-18220+028930FM-12+1282FVGO V0202701N001010270019N0500001N1+02201+00211999999ADDGA1051+027009059GF105991051041999999061001MA1999999087571MD1999999+0001ME1315369REMSYN076AAXX  11154 67861 42984 52702 10220 20021 38757 48536 85460 333 58000 85659;
0187678610999992000081118004-18220+028930FM-12+1282FVGO V0209999C000012200019N0300001N1+01501+00521999999ADDGA1011+027009059GF101991011041999999061001KA1120M+02451MA1999999087701MD1999999+0051ME1315489REMSYN082AAXX  11184 67861 42980 10000 10150 20052 38770 48548 81460 333 10245 58005 81659;
0168678610999992000081200004-18220+028930FM-12+1282FVGO V0203601N002112200019N0300001N1+00991+00611999999ADDGA1011+030009079GF101991011001999999031001MA1999999087701MD1999999+0121ME1315489REMSYN076AAXX  12004 67861 42980 13604 10099 20061 38770 48548 81030 333 58012 81360;
0156678610999992000081203004-18220+028930FM-12+1282FVGO V0200701N003112200019N0300001N1+00931+00551999999ADDGA1001+999999999GF100991001001999999001001MA1999999087761MD1999999+0121ME1315549REMSYN064AAXX  12034 67861 42980 00706 10093 20055 38776 48554 333 58012;
0205678610999992000081206004-18220+028930FM-12+1282FVGO V0200301N002612200019N0300001N1+01701+01351999999ADDAA199000091GA1001+999999999GF100991001001999999001001KA1120N+01301MA1999999087911MD1999999+0111ME1315689REMSYN070AAXX  12064 67861 32980 00305 10170 20135 38791 48568 333 20130 58011;EQDQ01  00002PRCP99
0156678610999992000081212004-18220+028930FM-12+1282FVGO V0200501N004112200019N0450001N1+02391-00652999999ADDGA1001+999999999GF100991001001999999001001MA1999999087801MD1999999+0211ME1315609REMSYN064AAXX  12124 67861 42983 00508 10239 21065 38780 48560 333 58021;
0187678610999992000081215004-18220+028930FM-12+1282FVGO V0200501N004610300019N0450001N1+02191-00211999999ADDGA1051+030009059GF105991051041999999999001MA1999999087761MD1999999+0191ME1315559REMSYN076AAXX  12154 67861 42983 50509 10219 21021 38776 48555 85400 333 58019 85660;EQDQ01+000002SCOMCG
0175678610999992000081218004-18220+028930FM-12+1282FVGO V0200301N003112200019N0300001N1+01701+00041999999ADDGA1001+999999999GF100991001001999999001001KA1120M+02461MA1999999087881MD1999999+0181ME1315659REMSYN070AAXX  12184 67861 42980 00306 10170 20004 38788 48565 333 10246 58018;
0156678610999992000081303004-18220+028930FM-12+1282FVGO V0203601N003612200019N0300001N1+01131+00581999999ADDGA1001+999999999GF100991001001999999001001MA1999999087961MD1999999+0201ME1315739REMSYN064AAXX  13034 67861 42980 03607 10113 20058 38796 48573 333 58020;
0233678610999992000081306004-18220+028930FM-12+1282FVGO V0200501N005712200019N0150001N1+01301+00731999999ADDAA199000091AY101061AY201061GA1001+999999999GF100991001001999999001001KA1120N+01051MA1999999088161MD1999999+0251ME1315939MW1051REMSYN076AAXX  13064 67861 31965 00511 10130 20073 38816 48593 70500 333 20105 58025;EQDQ01  00002PRCP99
0196678610999992000081309004-18220+028930FM-12+1282FVGO V0200101N005112200019N0200001N1+01851+00391999999ADDAY101031AY201031GA1011+015009029GF101991011011017501001001MA1999999088241MD1999999+0241ME1315979MW1051REMSYN082AAXX  13094 67861 41770 10110 10185 20039 38824 48597 70500 81100 333 58024 81850;
0196678610999992000081312004-18220+028930FM-12+1282FVGO V0203601N004612200019N0200001N1+02111+01191999999ADDAY101061AY201061GA1011+021009029GF101991011011022501001001MA1999999088031MD1999999+0231ME1315809MW1051REMSYN082AAXX  13124 67861 41870 13609 10211 20119 38803 48580 70500 81100 333 58023 81857;
0206678610999992000081318004-18220+028930FM-12+1282FVGO V0201001N015412200019N0300001N1+01701+00261999999ADDGA1011+024009059GF101991011041999999999001KA1120M+02171MA1999999088011MD1999999+0131ME1315759REMSYN082AAXX  13184 67861 42980 11030 10170 20026 38801 48575 81400 333 10217 58013 81658;EQDQ01+000002SCOMCG
0156678610999992000081403004-18220+028930FM-12+1282FVGO V0200201N004112200019N0300001N1+01071+00641999999ADDGA1001+999999999GF100991001001999999001001MA1999999088081MD1999999+0121ME1315829REMSYN064AAXX  14034 67861 42980 00208 10107 20064 38808 48582 333 58012;
0217678610999992000081406004-18220+028930FM-12+1282FVGO V0200601N007712200019N0300001N1+01311+00721999999ADDAA199000091GA1011+007509029GF101991011011008001041001KA1120N+01011MA1999999088271MD1999999+0111ME1316009REMSYN082AAXX  14064 67861 32580 10615 10131 20072 38827 48600 81140 333 20101 58011 81825;EQDQ01  00002PRCP99
0168678610999992000081409004-18220+028930FM-12+1282FVGO V0201401N005110150019N0400001N1+01811+00531999999ADDGA1051+015009029GF105991051011017501031001MA1999999088311MD1999999+0071ME1316049REMSYN076AAXX  14094 67861 42782 51410 10181 20053 38831 48604 85130 333 58007 85850;
0168678610999992000081412004-18220+028930FM-12+1282FVGO V0201301N004610210019N0500001N1+01901+00181999999ADDGA1051+021009029GF105991051011022501001001MA1999999088061MD1999999+0031ME1315819REMSYN076AAXX  14124 67861 42884 51309 10190 20018 38806 48581 85100 333 58003 85857;
0187678610999992000081415004-18220+028930FM-12+1282FVGO V0201501N005112200019N0500001N1+02001-00151999999ADDGA1011+027009059GF101991011041999999999001MA1999999087981MD1999999+0021ME1315749REMSYN076AAXX  14154 67861 42984 11510 10200 21015 38798 48574 81400 333 58002 81659;EQDQ01+000002SCOMCG
0187678610999992000081418004-18220+028930FM-12+1282FVGO V0201301N004112200019N0300001N1+01501-00051999999ADDGA1011+027009079GF101991011001999999061001KA1120M+02151MA1999999088131MD1999999+0121ME1315879REMSYN082AAXX  14184 67861 42980 11308 10150 21005 38813 48587 81060 333 10215 58012 81359;
0156678610999992000081500004-18220+028930FM-12+1282FVGO V0201601N004612200019N0300001N1+01051+00301999999ADDGA1001+999999999GF100991001001999999001001MA1999999088191MD1999999+0091ME1315939REMSYN064AAXX  15004 67861 42980 01609 10105 20030 38819 48593 333 58009;
0156678610999992000081503004-18220+028930FM-12+1282FVGO V0201801N005112200019N0300001N1+01001+00721999999ADDGA1001+999999999GF100991001001999999001001MA1999999088131MD1999999+0051ME1315879REMSYN064AAXX  15034 67861 42980 01810 10100 20072 38813 48587 333 58005;
0217678610999992000081506004-18220+028930FM-12+1282FVGO V0201301N005112200019N0300001N1+01271+00721999999ADDAA199000091GA1011+027009079GF101991011001999999041001KA1120N+00921MA1999999088301MD1999999+0031ME1316039REMSYN082AAXX  15064 67861 32980 11310 10127 20072 38830 48603 81040 333 20092 58003 81359;EQDQ01  00002PRCP99
0168678610999992000081509004-18220+028930FM-12+1282FVGO V0201301N006712200019N0400001N1+01751+00251999999ADDGA1021+015009029GF102991021011017501001001MA1999999088411MD1999999+0101ME1316139REMSYN076AAXX  15094 67861 42782 21313 10175 20025 38841 48613 82100 333 58010 82850;
0168678610999992000081512004-18220+028930FM-12+1282FVGO V0203601N005712200019N0450001N1+02001+00311999999ADDGA1031+021009029GF103991031011022501001001MA1999999088151MD1999999+0091ME1315919REMSYN076AAXX  15124 67861 42883 33611 10200 20031 38815 48591 83100 333 58009 83857;
0156678610999992000081603004-18220+028930FM-12+1282FVGO V0200401N003612200019N0300001N1+01001+00611999999ADDGA1001+999999999GF100991001001999999001001MA1999999088101MD1999999-0031ME1315849REMSYN064AAXX  16034 67861 42980 00407 10100 20061 38810 48584 333 59003;
0217678610999992000081606004-18220+028930FM-12+1282FVGO V0200301N003612200019N0300001N1+01251+00761999999ADDAA199000091GA1011+006009029GF101991011011008001031001KA1120N+00941MA1999999088161MD1999999-0141ME1315909REMSYN082AAXX  16064 67861 32580 10307 10125 20076 38816 48590 81130 333 20094 59014 81820;EQDQ01  00002PRCP99
0168678610999992000081609004-18220+028930FM-12+1282FVGO V0201501N004112200019N0400001N1+01861+00661999999ADDGA1031+015009029GF103991031011017501041001MA1999999088161MD1999999-0251ME1315849REMSYN076AAXX  16094 67861 42782 31508 10186 20066 38816 48584 83140 333 59025 83850;
0168678610999992000081612004-18220+028930FM-12+1282FVGO V0200701N006210180019N0500001N1+02001+00601999999ADDGA1051+018009029GF105991051011022501001001MA1999999087931MD1999999-0221ME1315699REMSYN076AAXX  16124 67861 42884 50712 10200 20060 38793 48569 85100 333 59022 85856;
0174678610999992000081615004-18220+028930FM-12+1282FVGO V0201101N003612200019N0500001N1+02051+00691999999ADDGA1011+018009089GF103991031041022501061001MA1999999087831MD1999999-0201ME1315609REMSYN082AAXX  16154 67861 42884 31107 10205 20069 38783 48560 83460 333 59020 81856 83657;
0168678610999992000081700004-18220+028930FM-12+1282FVGO V0201301N003612200019N0300001N1+01151+00851999999ADDGA1011+027009079GF101991011001999999031001MA1999999087901MD1999999-0261ME1315659REMSYN076AAXX  17004 67861 42980 11307 10115 20085 38790 48565 81030 333 59026 81359;
0156678610999992000081703004-18220+028930FM-12+1282FVGO V0201101N002112200019N0300001N1+01101+00741999999ADDGA1001+999999999GF100991001001999999001001MA1999999087841MD1999999-0261ME1315599REMSYN064AAXX  17034 67861 42980 01104 10110 20074 38784 48559 333 59026;
0217678610999992000081706004-18220+028930FM-12+1282FVGO V0200701N005712200019N0300001N1+01301+00771999999ADDAA199000091GA1011+027009079GF101991011001999999041001KA1120N+00981MA1999999087981MD1999999-0181ME1315739REMSYN082AAXX  17064 67861 32980 10711 10130 20077 38798 48573 81040 333 20098 59018 81359;EQDQ01  00002PRCP99
0168678610999992000081709004-18220+028930FM-12+1282FVGO V0201001N003612200019N0500001N1+01991+00701999999ADDGA1011+015009029GF101991011011017501001001MA1999999088061MD1999999-0101ME1315829REMSYN076AAXX  17094 67861 42784 11007 10199 20070 38806 48582 81100 333 59010 81850;
0168678610999992000081712004-18220+028930FM-12+1282FVGO V0202901N001512200019N0500001N1+02301+00211999999ADDGA1021+024009029GF102991021011999999001001MA1999999087811MD1999999-0121ME1315599REMSYN076AAXX  17124 67861 42984 22903 10230 20021 38781 48559 82100 333 59012 82858;
0187678610999992000081718004-18220+028930FM-12+1282FVGO V0209999C000012200019N0300001N1+01351+00541999999ADDGA1011+030009079GF101991011001999999061001KA1120M+02301MA1999999087821MD1999999-0131ME1315589REMSYN082AAXX  17184 67861 42980 10000 10135 20054 38782 48558 81060 333 10230 59013 81360;
0156678610999992000081800004-18220+028930FM-12+1282FVGO V0209999C000012200019N0300001N1+01251+00441999999ADDGA1001+999999999GF100991001001999999001001MA1999999087841MD1999999-0061ME1315609REMSYN064AAXX  18004 67861 42980 00000 10125 20044 38784 48560 333 59006;
0156678610999992000081803004-18220+028930FM-12+1282FVGO V0209999C000012200019N0300001N1+01011+00541999999ADDGA1001+999999999GF100991001001999999001001MA1999999087821MD1999999-0021ME1315589REMSYN064AAXX  18034 67861 42980 00000 10101 20054 38782 48558 333 59002;
0233678610999992000081806004-18220+028930FM-12+1282FVGO V0203301N001012200019N0200001N1+01501+00531999999ADDAA199000091AY101061AY201061GA1001+999999999GF100991001001999999001001KA1120N+00921MA1999999088001MD1999999+0021ME1315769MW1051REMSYN076AAXX  18064 67861 31970 03302 10150 20053 38800 48576 70500 333 20092 58002;EQDQ01  00002PRCP99
0168678610999992000081809004-18220+028930FM-12+1282FVGO V0200201N001512200019N0300001N1+01991+00721999999ADDGA1011+015009029GF101991011011017501001001MA1999999088041MD1999999-0021ME1315809REMSYN076AAXX  18094 67861 42780 10203 10199 20072 38804 48580 81100 333 59002 81850;
0168678610999992000081812004-18220+028930FM-12+1282FVGO V0202401N001012200019N0500001N1+02301+00331999999ADDGA1041+024009029GF104991041011999999001001MA1999999087781MD1999999-0031ME1315579REMSYN076AAXX  18124 67861 42984 42402 10230 20033 38778 48557 84100 333 59003 84858;
0175678610999992000081818004-18220+028930FM-12+1282FVGO V0201501N000512200019N0300001N1+01551+00521999999ADDGA1001+999999999GF100991001001999999001001KA1120M+02441MA1999999087781MD1999999-0041ME1315569REMSYN070AAXX  18184 67861 42980 01501 10155 20052 38778 48556 333 10244 59004;
0156678610999992000081900004-18220+028930FM-12+1282FVGO V0201501N002612200019N0300001N1+01401+00251999999ADDGA1001+999999999GF100991001001999999001001MA1999999087871MD1999999+0031ME1315649REMSYN064AAXX  19004 67861 42980 01505 10140 20025 38787 48564 333 58003;
0156678610999992000081903004-18220+028930FM-12+1282FVGO V0201601N001512200019N0300001N1+01281+00331999999ADDGA1001+999999999GF100991001001999999001001MA1999999087891MD1999999+0071ME1315669REMSYN064AAXX  19034 67861 42980 01603 10128 20033 38789 48566 333 58007;
0217678610999992000081906004-18220+028930FM-12+1282FVGO V0201301N003612200019N0300001N1+01641+00361999999ADDAA199000091GA1011+027009079GF101991011001999999041001KA1120N+01241MA1999999088021MD1999999+0021ME1315799REMSYN082AAXX  19064 67861 32980 11307 10164 20036 38802 48579 81040 333 20124 58002 81359;EQDQ01  00002PRCP99
0156678610999992000081909004-18220+028930FM-12+1282FVGO V0200501N004112200019N0300001N1+02161+00571999999ADDGA1001+999999999GF100991001001999999001001MA1999999088061MD1999999+0021ME1315849REMSYN064AAXX  19094 67861 42980 00508 10216 20057 38806 48584 333 58002;
0168678610999992000081912004-18220+028930FM-12+1282FVGO V0200701N005112200019N0500001N1+02351+00411999999ADDGA1011+024009029GF101991011011999999001001MA1999999087791MD1999999+0011ME1315599REMSYN076AAXX  19124 67861 42984 10710 10235 20041 38779 48559 81100 333 58001 81858;
0187678610999992000081915004-18220+028930FM-12+1282FVGO V0203601N000512200019N0500001N1+02331+00551999999ADDGA1031+027009059GF103991031041999999999001MA1999999087751MD1999999+0081ME1315549REMSYN076AAXX  19154 67861 42984 33601 10233 20055 38775 48554 83400 333 58008 83659;EQDQ01+000002SCOMCG
0168678610999992000082003004-18220+028930FM-12+1282FVGO V0201101N004610270019N0300001N1+01401+00641999999ADDGA1071+027009079GF107991071001999999031999MA1999999087921MD1999999+0031ME1315699REMSYN076AAXX  20034 67861 42980 71109 10140 20064 38792 48569 8703/ 333 58003 87359;
0217678610999992000082006004-18220+028930FM-12+1282FVGO V0201201N004110270019N0300001N1+01461+00741999999ADDAA199000091GA1071+027009079GF107991071001999999031001KA1120N+01281MA1999999088091MD1999999+0071ME1315869REMSYN082AAXX  20064 67861 32980 71208 10146 20074 38809 48586 87030 333 20128 58007 87359;EQDQ01  00002PRCP99
0168678610999992000082009004-18220+028930FM-12+1282FVGO V0200701N002110270019N0300001N1+02151+00701999999ADDGA1051+027009079GF105991051001999999031001MA1999999088061MD1999999+0001ME1315849REMSYN076AAXX  20094 67861 42980 50704 10215 20070 38806 48584 85030 333 58000 85359;
0168678610999992000082012004-18220+028930FM-12+1282FVGO V0201101N002112200019N0400001N1+02351+00641999999ADDGA1031+021009029GF103991031011022501031001MA1999999087831MD1999999+0041ME1315639REMSYN076AAXX  20124 67861 42882 31104 10235 20064 38783 48563 83130 333 58004 83857;
0168678610999992000082015004-18220+028930FM-12+1282FVGO V0201301N001019999999N0500001N1+02301+00551999999ADDGA1041+024009029GF105991041021999999031001MA1999999087731MD1999999-0021ME1315529REMSYN076AAXX  20154 67861 42984 51302 10230 20055 38773 48552 84230 333 59002 84858;
0187678610999992000082018004-18220+028930FM-12+1282FVGO V0201101N000510240019N0300001N1+02001+00611999999ADDGA1051+024009029GF105991051041999999031001KA1120M+02501MA1999999087821MD1999999-0081ME1315599REMSYN082AAXX  20184 67861 42980 51101 10200 20061 38782 48559 85430 333 10250 59008 85858;
0156678610999992000082100004-18220+028930FM-12+1282FVGO V0201301N002112200019N0300001N1+01521+00951999999ADDGA1001+999999999GF100991001001999999001001MA1999999087851MD1999999-0121ME1315639REMSYN064AAXX  21004 67861 42980 01304 10152 20095 38785 48563 333 59012;
0156678610999992000082103004-18220+028930FM-12+1282FVGO V0201101N003612200019N0300001N1+01411+00931999999ADDGA1001+999999999GF100991001001999999001001MA1999999087811MD1999999-0121ME1315539REMSYN064AAXX  21034 67861 42980 01107 10141 20093 38781 48553 333 59012;
0217678610999992000082106004-18220+028930FM-12+1282FVGO V0201301N002612200019N0150001N1+01611+00891999999ADDAA199000091GA1011+027009079GF101991011001999999031001KA1120N+01381MA1999999087931MD1999999-0161ME1315719REMSYN082AAXX  21064 67861 31965 11305 10161 20089 38793 48571 81030 333 20138 59016 81359;EQDQ01  00002PRCP99
0168678610999992000082109004-18220+028930FM-12+1282FVGO V0202701N000512200019N0180001N1+02151+00791999999ADDGA1011+030009079GF101991011001999999031001MA1999999087981MD1999999-0081ME1315769REMSYN076AAXX  21094 67861 41968 12701 10215 20079 38798 48576 81030 333 59008 81360;
0168678610999992000082112004-18220+028930FM-12+1282FVGO V0202901N000512200019N0280001N1+02471+00771999999ADDGA1011+021009029GF101991011011022501001001MA1999999087761MD1999999-0071ME1315579REMSYN076AAXX  21124 67861 42878 12901 10247 20077 38776 48557 81100 333 59007 81857;
0275678610999992000082115004-18220+028930FM-12+1282FVGO V0209999C999992200019N0250001N1+02211+00651999999ADDAY181031AY211031GA1011+021009099GA2031+021009089GF199999999999999999001001MA1999999087701MD1999999-0131ME1315499MW1251REMSYN094AAXX  21154 67861 41875 07000 10221 20065 38770 48549 72581 85273 333 59013 81957 83857 83857;EQDQ01+000002SCOTCVQ02+000002SCOTLCQ03+000002SCOLCG
0215678610999992000082118004-18220+028930FM-12+1282FVGO V0209999C000010210019N0250001N1+01941+00671999999ADDAY181061AY211061GA1051+021009059GF105991051041022501061001KA1120M+02591MA1999999087741MD1999999-0081ME1315539MW1021REMSYN088AAXX  21184 67861 41875 50000 10194 20067 38774 48553 70281 85460 333 10259 59008 85657;
0167678610999992000082200004-18220+028930FM-12+1282FVGO V0200201N001012200019N0300001N1+01601+00701999999ADDGA1011+030009079GF101991011001999999031001MA1999999087711MD1999999-0141ME1315509REMSYN075AAXX  22004 67861 42980 10202 10160 20070 38771 48550 81030 333 5901481360;
0156678610999992000082203004-18220+028930FM-12+1282FVGO V0209999C000012200019N0300001N1+01411+00891999999ADDGA1001+999999999GF100991001001999999001001MA1999999087731MD1999999-0071ME1315529REMSYN064AAXX  22034 67861 42980 00000 10141 20089 38773 48552 333 59007;
0220678610999992000082206004-18220+028930FM-12+1282FVGO V0203301N000512200019N0200001N1+01731+01011999999ADDAA124001091AY101061AY201061GA1001+999999999GF100991001001999999001001KA1120N+01361MA1999999087831MD1999999-0101ME1315619MW1051REMSYN082AAXX  22064 67861 11970 03301 10173 20101 38783 48561 69994 70500 333 20136 59010;
0168678610999992000082209004-18220+028930FM-12+1282FVGO V0203601N002612200019N0250001N1+02251+00961999999ADDGA1011+015009029GF101991011011017501001021MA1999999087811MD1999999-0171ME1315609REMSYN076AAXX  22094 67861 42775 13605 10225 20096 38781 48560 81102 333 59017 81850;
0168678610999992000082212004-18220+028930FM-12+1282FVGO V0201101N001510210019N0500001N1+02351+00661999999ADDGA1051+021009029GF105991051021022501061021MA1999999087581MD1999999-0181ME1315399REMSYN076AAXX  22124 67861 42884 51103 10235 20066 38758 48539 85262 333 59018 85857;
0174678610999992000082215004-18220+028930FM-12+1282FVGO V0201301N001019999999N0500001N1+02201+00801999999ADDGA1011+021009089GF107991071041999999061001MA1999999087571MD1999999-0131ME1315369REMSYN082AAXX  22154 67861 42984 71302 10220 20080 38757 48536 87460 333 59013 81857 87658;
0206678610999992000082218004-18220+028930FM-12+1282FVGO V0209999C000010240019N0300001N1+01901+01041999999ADDGA1071+024009059GF107991071041999999999001KA1120M+02571MA1999999087701MD1999999-0041ME1315499REMSYN082AAXX  22184 67861 42980 70000 10190 20104 38770 48549 87400 333 10257 59004 87658;EQDQ01+000002SCOMCG
0168678610999992000082300004-18220+028930FM-12+1282FVGO V0201401N004110270019N0250001N1+01761+00351999999ADDGA1071+027009079GF107991071001999999031999MA1999999087791MD1999999+0091ME1315589REMSYN076AAXX  23004 67861 42975 71408 10176 20035 38779 48558 8703/ 333 58009 87359;
0168678610999992000082303004-18220+028930FM-12+1282FVGO V0201801N003112200019N0250001N1+01551+00461999999ADDGA1041+027009079GF104991041001999999031001MA1999999087811MD1999999+0081ME1315599REMSYN076AAXX  23034 67861 42975 41806 10155 20046 38781 48559 84030 333 58008 84359;
0217678610999992000082306004-18220+028930FM-12+1282FVGO V0201201N004112200019N0250001N1+01751+00611999999ADDAA199000091GA1031+027009079GF104991031001999999031021KA1120N+01381MA1999999087971MD1999999+0141ME1315759REMSYN082AAXX  23064 67861 32975 41208 10175 20061 38797 48575 83032 333 20138 58014 83359;EQDQ01  00002PRCP99
0168678610999992000082309004-18220+028930FM-12+1282FVGO V0203301N002112200019N0300001N1+02271+00771999999ADDGA1011+999999019GF101991001001999999001021MA1999999088071MD1999999+0261ME1315869REMSYN076AAXX  23094 67861 42980 13304 10227 20077 38807 48586 80002 333 58026 81099;
0168678610999992000082312004-18220+028930FM-12+1282FVGO V0200701N002112200019N0350001N1+02561+00641999999ADDGA1041+024009029GF104991041011999999001021MA1999999087851MD1999999+0271ME1315679REMSYN076AAXX  23124 67861 42981 40704 10256 20064 38785 48567 84102 333 58027 84858;
0168678610999992000082315004-18220+028930FM-12+1282FVGO V0200301N002112200019N0350001N1+02401+00361999999ADDGA1021+024009099GF103991021041999999001021MA1999999087761MD1999999+0191ME1315569REMSYN076AAXX  23154 67861 42981 30304 10240 20036 38776 48556 82402 333 58019 82958;
0175678610999992000082318004-18220+028930FM-12+1282FVGO V0200401N002612200019N0250001N1+01981+00251999999ADDGA1001+999999999GF100991001001999999001001KA1120M+02651MA1999999087901MD1999999+0201ME1315699REMSYN070AAXX  23184 67861 42975 00405 10198 20025 38790 48569 333 10265 58020;
0156678610999992000082403004-18220+028930FM-12+1282FVGO V0200401N002612200019N0300001N1+01271+00351999999ADDGA1001+999999999GF100991001001999999001001MA1999999087911MD1999999+0101ME1315709REMSYN064AAXX  24034 67861 42980 00405 10127 20035 38791 48570 333 58010;
0245678610999992000082406004-18220+028930FM-12+1282FVGO V0200301N003612200019N0150001N1+01451+00441999999ADDAA199000091AY101061AY201061GA1011+999999019GF101991001001999999001021KA1120N+01101MA1999999088051MD1999999+0081ME1315849MW1051REMSYN088AAXX  24064 67861 31965 10307 10145 20044 38805 48584 70500 80002 333 20110 58008 81099;EQDQ01  00002PRCP99
0168678610999992000082412004-18220+028930FM-12+1282FVGO V0201801N004112200019N0500001N1+02401-00501999999ADDGA1011+090009019GF101991001001999999001021MA1999999087781MD1999999-0071ME1315589REMSYN076AAXX  24124 67861 42984 11808 10240 21050 38778 48558 80002 333 59007 81080;
0168678610999992000082415004-18220+028930FM-12+1282FVGO V0201601N004112200019N0500001N1+02311-00101999999ADDGA1011+090009019GF101991001001999999001021MA1999999087731MD1999999-0031ME1315529REMSYN076AAXX  24154 67861 42984 11608 10231 21010 38773 48552 80002 333 59003 81080;
0175678610999992000082418004-18220+028930FM-12+1282FVGO V0201501N001512200019N0300001N1+01911+00201999999ADDGA1001+999999999GF100991001001999999001001KA1120M+02501MA1999999087891MD1999999-0011ME1315679REMSYN070AAXX  24184 67861 42980 01503 10191 20020 38789 48567 333 10250 59001;
0156678610999992000082503004-18220+028930FM-12+1282FVGO V0201601N004612200019N0300001N1+01251+00661999999ADDGA1001+999999999GF100991001001999999001001MA1999999087881MD1999999-0031ME1315669REMSYN064AAXX  25034 67861 42980 01609 10125 20066 38788 48566 333 59003;
0205678610999992000082506004-18220+028930FM-12+1282FVGO V0201501N004112200019N0250001N1+01501+00711999999ADDAA199000091GA1001+999999999GF100991001001999999001001KA1120N+01141MA1999999088021MD1999999-0031ME1315809REMSYN070AAXX  25064 67861 32975 01508 10150 20071 38802 48580 333 20114 59003;EQDQ01  00002PRCP99
0168678610999992000082509004-18220+028930FM-12+1282FVGO V0200801N003112200019N0300001N1+02031+00561999999ADDGA1011+018009029GF101991011011022501001001MA1999999088061MD1999999+0031ME1315829REMSYN076AAXX  25094 67861 42880 10806 10203 20056 38806 48582 81100 333 58003 81856;
0168678610999992000082512004-18220+028930FM-12+1282FVGO V0203301N001512200019N0500001N1+02251+00531999999ADDGA1011+021009029GF101991011011022501001001MA1999999087751MD1999999-0031ME1315549REMSYN076AAXX  25124 67861 42884 13303 10225 20053 38775 48554 81100 333 59003 81857;
0175678610999992000082518004-18220+028930FM-12+1282FVGO V0200401N000512200019N0300001N1+01961+00151999999ADDGA1001+999999999GF100991001001999999001001KA1120M+02441MA1999999087791MD1999999-0101ME1315579REMSYN070AAXX  25184 67861 42980 00401 10196 20015 38779 48557 333 10244 59010;
0203678610999992000082706004-18220+028930FM-12+1282FVGO V0200801N004112200019N0150001N1+01501+00811999999ADDAY101061AY201061GA1001+999999999GF100991001001999999001001KA1120N+01201MA1999999088001MD1999999+0051ME1315789MW1051REMSYN076AAXX  27064 67861 41965 00808 10150 20081 38800 48578 70500 333 20120 58005;
0156678610999992000082709004-18220+028930FM-12+1282FVGO V0203601N005112200019N0350001N1+02061+00301999999ADDGA1001+999999999GF100991001001999999001001MA1999999088121MD1999999+0191ME1315899REMSYN064AAXX  27094 67861 42981 03610 10206 20030 38812 48589 333 58019;
0187678610999992000082712004-18220+028930FM-12+1282FVGO V0200401N004112200019N0500001N1+02441-00091999999ADDGA1011+030009029GF101991011011999999001999MA1999999087811MD1999999+0031ME1315619REMSYN076AAXX  27124 67861 42984 10408 10244 21009 38781 48561 81100 333 58003 81860;EQDQ01+000002SCOHCG
0156678610999992000082715004-18220+028930FM-12+1282FVGO V0200701N002112200019N0500001N1+02401-00451999999ADDGA1001+999999999GF100991001001999999001001MA1999999087701MD1999999+0041ME1315509REMSYN064AAXX  27154 67861 42984 00704 10240 21045 38770 48550 333 58004;
0175678610999992000082718004-18220+028930FM-12+1282FVGO V0200301N001012200019N0300001N1+01921-00391999999ADDGA1001+999999999GF100991001001999999001001KA1120M+02501MA1999999087781MD1999999+0001ME1315579REMSYN070AAXX  27184 67861 42980 00302 10192 21039 38778 48557 333 10250 58000;
0156678610999992000082800004-18220+028930FM-12+1282FVGO V0200301N001012200019N0250001N1+01201+00341999999ADDGA1001+999999999GF100991001001999999001001MA1999999087811MD1999999-0021ME1315599REMSYN064AAXX  28004 67861 42975 00302 10120 20034 38781 48559 333 59002;
0156678610999992000082803004-18220+028930FM-12+1282FVGO V0200501N002112200019N0250001N1+01161+00291999999ADDGA1001+999999999GF100991001001999999001001MA1999999087781MD1999999-0031ME1315579REMSYN064AAXX  28034 67861 42975 00504 10116 20029 38778 48557 333 59003;
0205678610999992000082806004-18220+028930FM-12+1282FVGO V0200601N003612200019N0300001N1+01971-00091999999ADDAA199000091GA1001+999999999GF100991001001999999001001KA1120N+01101MA1999999087951MD1999999-0051ME1315739REMSYN070AAXX  28064 67861 32980 00607 10197 21009 38795 48573 333 20110 59005;EQDQ01  00002PRCP99
0156678610999992000082812004-18220+028930FM-12+1282FVGO V0201601N003112200019N0500001N1+02371-00241999999ADDGA1001+999999999GF100991001001999999001001MA1999999087791MD1999999-0021ME1315599REMSYN064AAXX  28124 67861 42984 01606 10237 21024 38779 48559 333 59002;
0156678610999992000082815004-18220+028930FM-12+1282FVGO V0201801N002612200019N0500001N1+02351-00371999999ADDGA1001+999999999GF100991001001999999001001MA1999999087691MD1999999-0011ME1315499REMSYN064AAXX  28154 67861 42984 01805 10235 21037 38769 48549 333 59001;
0156678610999992000082900004-18220+028930FM-12+1282FVGO V0201501N002612200019N0300001N1+01551+00181999999ADDGA1001+999999999GF100991001001999999001001MA1999999087811MD1999999+0001ME1315599REMSYN064AAXX  29004 67861 42980 01505 10155 20018 38781 48559 333 58000;
0156678610999992000082903004-18220+028930FM-12+1282FVGO V0201501N004112200019N0250001N1+01351+00301999999ADDGA1001+999999999GF100991001001999999001001MA1999999087751MD1999999-0031ME1315549REMSYN064AAXX  29034 67861 42975 01508 10135 20030 38775 48554 333 59003;
0205678610999992000082906004-18220+028930FM-12+1282FVGO V0201201N004612200019N0300001N1+01651+00491999999ADDAA199000091GA1001+999999999GF100991001001999999001001KA1120N+00271MA1999999087881MD1999999-0071ME1315669REMSYN070AAXX  29064 67861 32980 01209 10165 20049 38788 48566 333 20027 59007;EQDQ01  00002PRCP99
0205678610999992000083006004-18220+028930FM-12+1282FVGO V0203601N001012200019N0300001N1+01841+00631999999ADDAA199000091GA1001+999999999GF100991001001999999001001KA1120N+01291MA1999999087751MD1999999-0131ME1315549REMSYN070AAXX  30064 67861 32980 03602 10184 20063 38775 48554 333 20129 59013;EQDQ01  00002PRCP99
0156678610999992000083009004-18220+028930FM-12+1282FVGO V0201001N002612200019N0300001N1+02201+00161999999ADDGA1001+999999999GF100991001001999999001001MA1999999087721MD1999999-0211ME1315519REMSYN064AAXX  30094 67861 42980 01005 10220 20016 38772 48551 333 59021;
0187678610999992000083015004-18220+028930FM-12+1282FVGO V0201001N001012200019N0450001N1+02501-00031999999ADDGA1011+030009059GF101991011041999999999001MA1999999087291MD1999999-0251ME1315119REMSYN076AAXX  30154 67861 42983 11002 10250 21003 38729 48511 81400 333 59025 81660;EQDQ01+000002SCOMCG
0175678610999992000083018004-18220+028930FM-12+1282FVGO V0209999C000012200019N0250001N1+01701+00251999999ADDGA1001+999999999GF100991001001999999001001KA1120M+02691MA1999999087501MD1999999-0151ME1315309REMSYN070AAXX  30184 67861 42975 00000 10170 20025 38750 48530 333 10269 59015;
0156678610999992000083100004-18220+028930FM-12+1282FVGO V0209999C000012200019N0250001N1+01321+00011999999ADDGA1001+999999999GF100991001001999999001001MA1999999087501MD1999999-0131ME1315309REMSYN064AAXX  31004 67861 42975 00000 10132 20001 38750 48530 333 59013;
0205678610999992000083106004-18220+028930FM-12+1282FVGO V0209999C000012200019N0300001N1+02081-00031999999ADDAA199000091GA1001+999999999GF100991001001999999001001KA1120N+01091MA1999999087651MD1999999-0101ME1315459REMSYN070AAXX  31064 67861 32980 00000 10208 21003 38765 48545 333 20109 59010;EQDQ01  00002PRCP99
0156678610999992000083109004-18220+028930FM-12+1282FVGO V0203301N002112200019N0400001N1+02571-00351999999ADDGA1001+999999999GF100991001001999999001001MA1999999087661MD1999999-0061ME1315489REMSYN064AAXX  31094 67861 42982 03304 10257 21035 38766 48548 333 59006;
0156678610999992000083112004-18220+028930FM-12+1282FVGO V0202901N003612200019N0500001N1+02801-00391999999ADDGA1001+999999999GF100991001001999999001001MA1999999087371MD1999999-0021ME1315219REMSYN064AAXX  31124 67861 42984 02907 10280 21039 38737 48521 333 59002;
0156678610999992000083115004-18220+028930FM-12+1282FVGO V0200301N002112200019N0500001N1+02661-00731999999ADDGA1001+999999999GF100991001001999999001001MA1999999087291MD1999999+0001ME1315129REMSYN064AAXX  31154 67861 42984 00304 10266 21073 38729 48512 333 58000;
0156678610999992000090109004-18220+028930FM-12+1282FVGO V0200201N003612200019N0250001N1+02651-00161999999ADDGA1001+999999999GF100991001001999999001001MA1999999087661MD1999999+0001ME1315499REMSYN064AAXX  01094 67861 42975 00207 10265 21016 38766 48549 333 58000;
0156678610999992000090112004-18220+028930FM-12+1282FVGO V0200301N002612200019N0500001N1+02851-00451999999ADDGA1001+999999999GF100991001001999999001001MA1999999087441MD1999999+0071ME1315289REMSYN064AAXX  01124 67861 42984 00305 10285 21045 38744 48528 333 58007;
0156678610999992000090115004-18220+028930FM-12+1282FVGO V0201001N001512200019N0500001N1+02801-00301999999ADDGA1001+999999999GF100991001001999999001001MA1999999087361MD1999999+0071ME1315209REMSYN064AAXX  01154 67861 42984 01003 10280 21030 38736 48520 333 58007;
0156678610999992000090203004-18220+028930FM-12+1282FVGO V0201401N001012200019N0300001N1+01881-00141999999ADDGA1001+999999999GF100991001001999999001001MA1999999087441MD1999999-0011ME1315259REMSYN064AAXX  02034 67861 42980 01402 10188 21014 38744 48525 333 59001;
0233678610999992000090206004-18220+028930FM-12+1282FVGO V0201201N003612200019N0060001N1+02101-00141999999ADDAA199000091AY101061AY201061GA1001+999999999GF100991001001999999001001KA1120N+01771MA1999999087601MD1999999-0021ME1315409MW1051REMSYN076AAXX  02064 67861 31956 01207 10210 21014 38760 48540 70500 333 20177 59002;EQDQ01  00002PRCP99
0184678610999992000090209004-18220+028930FM-12+1282FVGO V0200101N003612200019N0050001N1+02701-00141999999ADDAY101031AY201031GA1001+999999999GF100991001001999999001001MA1999999087631MD1999999-0031ME1315469MW1051REMSYN070AAXX  02094 67861 41950 00107 10270 21014 38763 48546 70500 333 59003;
0184678610999992000090212004-18220+028930FM-12+1282FVGO V0200701N004112200019N0150001N1+02851-00461999999ADDAY101061AY201061GA1001+999999999GF100991001001999999001001MA1999999087301MD1999999-0141ME1315149MW1051REMSYN070AAXX  02124 67861 41965 00708 10285 21046 38730 48514 70500 333 59014;
0203678610999992000090218004-18220+028930FM-12+1282FVGO V0201101N001012200019N0150001N1+01661+00091999999ADDAY101061AY201061GA1001+999999999GF100991001001999999001001KA1120M+03011MA1999999087331MD1999999-0111ME1315169MW1051REMSYN076AAXX  02184 67861 41965 01102 10166 20009 38733 48516 70500 333 10301 59011;
0184678610999992000090300004-18220+028930FM-12+1282FVGO V0200901N001012200019N0150001N1+01751+00071999999ADDAY101061AY201061GA1001+999999999GF100991001001999999001001MA1999999087251MD1999999-0211ME1315059MW1051REMSYN070AAXX  03004 67861 41965 00902 10175 20007 38725 48505 70500 333 59021;
0184678610999992000090303004-18220+028930FM-12+1282FVGO V0201401N003112200019N0150001N1+01851-00271999999ADDAY101031AY201031GA1001+999999999GF100991001001999999001001MA1999999087231MD1999999-0211ME1315049MW1051REMSYN070AAXX  03034 67861 41965 01406 10185 21027 38723 48504 70500 333 59021;
0233678610999992000090306004-18220+028930FM-12+1282FVGO V0201101N004112200019N0040001N1+02001+00081999999ADDAA199000091AY101061AY201061GA1001+999999999GF100991001001999999001001KA1120N+01621MA1999999087351MD1999999-0251ME1315159MW1051REMSYN076AAXX  03064 67861 31940 01108 10200 20008 38735 48515 70500 333 20162 59025;EQDQ01  00002PRCP99
0184678610999992000090309004-18220+028930FM-12+1282FVGO V0200701N003612200019N0050001N1+02501+00261999999ADDAY101031AY201031GA1001+999999999GF100991001001999999001001MA1999999087331MD1999999-0301ME1315159MW1051REMSYN070AAXX  03094 67861 41950 00707 10250 20026 38733 48515 70500 333 59030;
0184678610999992000090312004-18220+028930FM-12+1282FVGO V0203501N002612200019N0150001N1+02851-00391999999ADDAY101061AY201061GA1001+999999999GF100991001001999999001001MA1999999087081MD1999999-0221ME1314929MW1051REMSYN070AAXX  03124 67861 41965 03505 10285 21039 38708 48492 70500 333 59022;
0184678610999992000090315004-18220+028930FM-12+1282FVGO V0200201N000512200019N0150001N1+02801+00101999999ADDAY101031AY201031GA1001+999999999GF100991001001999999001001MA1999999087021MD1999999-0161ME1314869MW1051REMSYN070AAXX  03154 67861 41965 00201 10280 20010 38702 48486 70500 333 59016;
0203678610999992000090318004-18220+028930FM-12+1282FVGO V0200101N000512200019N0150001N1+01921+00441999999ADDAY101061AY201061GA1001+999999999GF100991001001999999001001KA1120M+03011MA1999999087171MD1999999-0161ME1315009MW1051REMSYN076AAXX  03184 67861 41965 00101 10192 20044 38717 48500 70500 333 10301 59016;
0184678610999992000090403004-18220+028930FM-12+1282FVGO V0200801N000512200019N0150001N1+01701+00551999999ADDAY101031AY201031GA1001+999999999GF100991001001999999001001MA1999999087241MD1999999+0011ME1315049MW1051REMSYN070AAXX  04034 67861 41965 00801 10170 20055 38724 48504 70500 333 58001;
0245678610999992000090406004-18220+028930FM-12+1282FVGO V0201101N001512200019N0040001N1+02161+00581999999ADDAA199000091AY101061AY201061GA1011+090009019GF101991001001999999001021KA1120N+01551MA1999999087351MD1999999+0001ME1315179MW1051REMSYN088AAXX  04064 67861 31940 11103 10216 20058 38735 48517 70500 80002 333 20155 58000 81080;EQDQ01  00002PRCP99
0184678610999992000090409004-18220+028930FM-12+1282FVGO V0202901N001512200019N0050001N1+02691+00551999999ADDAY101031AY201031GA1001+999999999GF100991001001999999001001MA1999999087461MD1999999+0131ME1315299MW1051REMSYN070AAXX  04094 67861 41950 02903 10269 20055 38746 48529 70500 333 58013;
0184678610999992000090412004-18220+028930FM-12+1282FVGO V0201001N000512200019N0100001N1+02991-00201999999ADDAY101061AY201061GA1001+999999999GF100991001001999999001001MA1999999087231MD1999999+0151ME1315089MW1051REMSYN070AAXX  04124 67861 41960 01001 10299 21020 38723 48508 70500 333 58015;
0184678610999992000090415004-18220+028930FM-12+1282FVGO V0200201N000512200019N0200001N1+02871-00051999999ADDAY101031AY201031GA1001+999999999GF100991001001999999001001MA1999999087141MD1999999+0121ME1314989MW1051REMSYN070AAXX  04154 67861 41970 00201 10287 21005 38714 48498 70500 333 58012;
0203678610999992000090418004-18220+028930FM-12+1282FVGO V0209999C000012200019N0200001N1+02151+00201999999ADDAY101061AY201061GA1001+999999999GF100991001001999999001001KA1120M+03151MA1999999087261MD1999999+0091ME1315109MW1051REMSYN076AAXX  04184 67861 41970 00000 10215 20020 38726 48510 70500 333 10315 58009;
0156678610999992000090503004-18220+028930FM-12+1282FVGO V0200301N002612200019N0250001N1+02001-00091999999ADDGA1001+999999999GF100991001001999999001001MA1999999087391MD1999999+0151ME1315219REMSYN064AAXX  05034 67861 42975 00305 10200 21009 38739 48521 333 58015;
0196678610999992000090509004-18220+028930FM-12+1282FVGO V0200801N003612200019N0030001N1+02561+00551999999ADDAY101031AY201031GA1011+999999019GF101991001001999999001021MA1999999087551MD1999999+0091ME1315379MW1051REMSYN082AAXX  05094 67861 41930 10807 10256 20055 38755 48537 70500 80002 333 58009 81099;
0196678610999992000090512004-18220+028930FM-12+1282FVGO V0200501N003112200019N0020001N1+02891+00421999999ADDAY101061AY201061GA1011+999999019GF101991001001999999001021MA1999999087311MD1999999+0081ME1315159MW1051REMSYN082AAXX  05124 67861 41920 10506 10289 20042 38731 48515 70500 80002 333 58008 81099;
0196678610999992000090515004-18220+028930FM-12+1282FVGO V0209999C000012200019N0020001N1+02801+00491999999ADDAY101031AY201031GA1011+999999019GF101991001001999999001021MA1999999087341MD1999999+0201ME1315189MW1051REMSYN082AAXX  05154 67861 41920 10000 10280 20049 38734 48518 70500 80002 333 58020 81099;
0203678610999992000090518004-18220+028930FM-12+1282FVGO V0209999C000012200019N0020001N1+02261+00371999999ADDAY101061AY201061GA1001+999999999GF100991001001999999001001KA1120M+02961MA1999999087491MD1999999+0231ME1315319MW1051REMSYN076AAXX  05184 67861 41920 00000 10226 20037 38749 48531 70500 333 10296 58023;
0184678610999992000090600004-18220+028930FM-12+1282FVGO V0200901N002612200019N0050001N1+02051+00471999999ADDAY101061AY201061GA1001+999999999GF100991001001999999001001MA1999999087461MD1999999+0091ME1315289MW1051REMSYN070AAXX  06004 67861 41950 00905 10205 20047 38746 48528 70500 333 58009;
0184678610999992000090603004-18220+028930FM-12+1282FVGO V0201001N003612200019N0050001N1+01851+00801999999ADDAY101031AY201031GA1001+999999999GF100991001001999999001001MA1999999087441MD1999999+0051ME1315259MW1051REMSYN070AAXX  06034 67861 41950 01007 10185 20080 38744 48525 70500 333 58005;
0245678610999992000090606004-18220+028930FM-12+1282FVGO V0200801N003612200019N0030001N1+01971+00981999999ADDAA199000091AY101061AY201061GA1031+999999019GF103991001001999999001021KA1120N+01741MA1999999087581MD1999999-0011ME1315389MW1051REMSYN088AAXX  06064 67861 31930 30807 10197 20098 38758 48538 70500 80002 333 20174 59001 83099;EQDQ01  00002PRCP99
0184678610999992000090609004-18220+028930FM-12+1282FVGO V0203301N001012200019N0050001N1+02451+01031999999ADDAY101031AY201031GA1001+999999999GF100991001001999999001001MA1999999087671MD1999999+0071ME1315439MW1051REMSYN070AAXX  06094 67861 41950 03302 10245 20103 38767 48543 70500 333 58007;
0203678610999992000090618004-18220+028930FM-12+1282FVGO V0209999C000012200019N0200001N1+02051+00801999999ADDAY101061AY201061GA1001+999999999GF100991001001999999001001KA1120M+02901MA1999999087331MD1999999-0161ME1315169MW1051REMSYN076AAXX  06184 67861 41970 00000 10205 20080 38733 48516 70500 333 10290 59016;
0156678610999992000090703004-18220+028930FM-12+1282FVGO V0209999C000012200019N0250001N1+01541+00861999999ADDGA1001+999999999GF100991001001999999001001MA1999999087281MD1999999-0161ME1315069REMSYN064AAXX  07034 67861 42975 00000 10154 20086 38728 48506 333 59016;
0233678610999992000090706004-18220+028930FM-12+1282FVGO V0209999C000012200019N0040001N1+02101+00981999999ADDAA199000091AY101061AY201061GA1001+999999999GF100991001001999999001001KA1120N+01451MA1999999087451MD1999999-0131ME1315269MW1051REMSYN076AAXX  07064 67861 31940 00000 10210 20098 38745 48526 70500 333 20145 59013;EQDQ01  00002PRCP99
0184678610999992000090712004-18220+028930FM-12+1282FVGO V0202701N001012200019N0060001N1+03001+00791999999ADDAY101061AY201061GA1001+999999999GF100991001001999999001001MA1999999087071MD1999999-0251ME1314929MW1051REMSYN070AAXX  07124 67861 41956 02702 10300 20079 38707 48492 70500 333 59025;
0245678610999992000090806004-18220+028930FM-12+1282FVGO V0201501N006219999999N0040001N1+02001+00961999999ADDAA199000091AY101061AY201061GA1041+030009079GF105991041001999999031021KA1120N+01791MA1999999087481MD1999999+0031ME1315289MW1051REMSYN088AAXX  08064 67861 31940 51512 10200 20096 38748 48528 70500 84032 333 20179 58003 84360;EQDQ01  00002PRCP99
0196678610999992000090809004-18220+028930FM-12+1282FVGO V0200901N004112200019N0100001N1+02381+01161999999ADDAY111031AY211031GA1021+999999019GF102991001001999999001021MA1999999087591MD1999999+0251ME1315409MW1051REMSYN082AAXX  08094 67861 41960 20908 10238 20116 38759 48540 70511 80002 333 58025 82099;
0203678610999992000090818004-18220+028930FM-12+1282FVGO V0200901N004112200019N0040001N1+02291+00931999999ADDAY101061AY201061GA1001+999999999GF100991001001999999001001KA1120M+02721MA1999999087501MD1999999+0311ME1315319MW1051REMSYN076AAXX  08184 67861 41940 00908 10229 20093 38750 48531 70500 333 10272 58031;
0184678610999992000090900004-18220+028930FM-12+1282FVGO V0200901N005112200019N0040001N1+01651+01201999999ADDAY101061AY201061GA1001+999999999GF100991001001999999001001MA1999999087511MD1999999+0301ME1315309MW1051REMSYN070AAXX  09004 67861 41940 00910 10165 20120 38751 48530 70500 333 58030;
0184678610999992000090909004-18220+028930FM-12+1282FVGO V0201001N003612200019N0050001N1+02211+01091999999ADDAY101031AY201031GA1001+999999999GF100991001001999999001001MA1999999087801MD1999999+0211ME1315589MW1051REMSYN070AAXX  09094 67861 41950 01007 10221 20109 38780 48558 70500 333 58021;
0184678610999992000090912004-18220+028930FM-12+1282FVGO V0201501N004112200019N0100001N1+02631+00991999999ADDAY101061AY201061GA1001+999999999GF100991001001999999001001MA1999999087571MD1999999+0231ME1315399MW1051REMSYN070AAXX  09124 67861 41960 01508 10263 20099 38757 48539 70500 333 58023;
0196678610999992000090915004-18220+028930FM-12+1282FVGO V0201501N001012200019N0100001N1+02571+00921999999ADDAY101031AY201031GA1011+021009029GF101991011011022501001001MA1999999087531MD1999999+0201ME1315359MW1051REMSYN082AAXX  09154 67861 41860 11502 10257 20092 38753 48535 70500 81100 333 58020 81857;
0233678610999992000091006004-18220+028930FM-12+1282FVGO V0203401N002112200019N0050001N1+01801+01121999999ADDAA199000091AY101061AY201061GA1001+999999999GF100991001001999999001001KA1120N+01231MA1999999087801MD1999999+0041ME1315579MW1051REMSYN076AAXX  10064 67861 31950 03404 10180 20112 38780 48557 70500 333 20123 58004;EQDQ01  00002PRCP99
0184678610999992000091012004-18220+028930FM-12+1282FVGO V0200501N003612200019N0080001N1+02771+00591999999ADDAY101061AY201061GA1001+999999999GF100991001001999999001001MA1999999087451MD1999999-0121ME1315299MW1051REMSYN070AAXX  10124 67861 41958 00507 10277 20059 38745 48529 70500 333 59012;
0184678610999992000091015004-18220+028930FM-12+1282FVGO V0209999C000012200019N0100001N1+02791+00391999999ADDAY101031AY201031GA1001+999999999GF100991001001999999001001MA1999999087401MD1999999-0131ME1315249MW1051REMSYN070AAXX  10154 67861 41960 00000 10279 20039 38740 48524 70500 333 59013;
0203678610999992000091018004-18220+028930FM-12+1282FVGO V0209999C000012200019N0150001N1+01951+00531999999ADDAY101061AY201061GA1001+999999999GF100991001001999999001001KA1120M+02901MA1999999087541MD1999999-0131ME1315369MW1051REMSYN076AAXX  10184 67861 41965 00000 10195 20053 38754 48536 70500 333 10290 59013;
0215678610999992000091112004-18220+028930FM-12+1282FVGO V0200201N005712200019N0100001N1+03091+00111999999ADDAY101061AY201061GA1011+030009029GF101991011011008001001999MA1999999087431MD1999999-0021ME1315299MW1051REMSYN082AAXX  11124 67861 41560 10211 10309 20011 38743 48529 70500 81100 333 59002 81860;EQDQ01+000002SCOHCG
0184678610999992000091209004-18220+028930FM-12+1282FVGO V0201101N006212200019N0050001N1+02201+01001999999ADDAY101031AY201031GA1001+999999999GF100991001001999999001001MA1999999087801MD1999999+0141ME1315589MW1051REMSYN070AAXX  12094 67861 41950 01112 10220 20100 38780 48558 70500 333 58014;
0196678610999992000091212004-18220+028930FM-12+1282FVGO V0200501N004112200019N0050001N1+02691+00821999999ADDAY101061AY201061GA1011+024009029GF101991011011999999001001MA1999999087541MD1999999+0111ME1315379MW1051REMSYN082AAXX  12124 67861 41950 10508 10269 20082 38754 48537 70500 81100 333 58011 81858;
0184678610999992000091215004-18220+028930FM-12+1282FVGO V0200601N002612200019N0050001N1+02621+00631999999ADDAY101031AY201031GA1001+999999999GF100991001001999999001001MA1999999087441MD1999999+0131ME1315269MW1051REMSYN070AAXX  12154 67861 41950 00605 10262 20063 38744 48526 70500 333 58013;
0184678610999992000091300004-18220+028930FM-12+1282FVGO V0200701N004612200019N0040001N1+01751+00841999999ADDAY101061AY201061GA1001+999999999GF100991001001999999001001MA1999999087611MD1999999+0041ME1315419MW1051REMSYN070AAXX  13004 67861 41940 00709 10175 20084 38761 48541 70500 333 58004;
0184678610999992000091303004-18220+028930FM-12+1282FVGO V0200901N004112200019N0040001N1+01161+00931999999ADDAY101031AY201031GA1001+999999999GF100991001001999999001001MA1999999087541MD1999999-0071ME1315339MW1051REMSYN070AAXX  13034 67861 41940 00908 10116 20093 38754 48533 70500 333 59007;
0184678610999992000091309004-18220+028930FM-12+1282FVGO V0200401N004112200019N0040001N1+02451+01021999999ADDAY101031AY201031GA1001+999999999GF100991001001999999001001MA1999999087711MD1999999-0091ME1315529MW1051REMSYN070AAXX  13094 67861 41940 00408 10245 20102 38771 48552 70500 333 59009;
0196678610999992000091312004-18220+028930FM-12+1282FVGO V0200501N003612200019N0050001N1+02801+00641999999ADDAY101061AY201061GA1011+024009029GF101991011011999999001001MA1999999087401MD1999999-0141ME1315249MW1051REMSYN082AAXX  13124 67861 41950 10507 10280 20064 38740 48524 70500 81100 333 59014 81858;
0215678610999992000091315004-18220+028930FM-12+1282FVGO V0200201N003612200019N0060001N1+02771+00501999999ADDAY101031AY201031GA1011+027009059GF101991011041999999999001MA1999999087331MD1999999-0111ME1315129MW1051REMSYN082AAXX  13154 67861 41956 10207 10277 20050 38733 48512 70500 81400 333 59011 81659;EQDQ01+000002SCOMCG
0203678610999992000091318004-18220+028930FM-12+1282FVGO V0209999C000012200019N0080001N1+02011+00891999999ADDAY101061AY201061GA1001+999999999GF100991001001999999001001KA1120M+02911MA1999999087441MD1999999-0161ME1315269MW1051REMSYN076AAXX  13184 67861 41958 00000 10201 20089 38744 48526 70500 333 10291 59016;
0184678610999992000091400004-18220+028930FM-12+1282FVGO V0209999C000012200019N0080001N1+01821+01001999999ADDAY101061AY201061GA1001+999999999GF100991001001999999001001MA1999999087461MD1999999-0151ME1315269MW1051REMSYN070AAXX  14004 67861 41958 00000 10182 20100 38746 48526 70500 333 59015;
0184678610999992000091403004-18220+028930FM-12+1282FVGO V0200501N004112200019N0080001N1+01831+00771999999ADDAY101031AY201031GA1001+999999999GF100991001001999999001001MA1999999087411MD1999999-0131ME1315219MW1051REMSYN070AAXX  14034 67861 41958 00508 10183 20077 38741 48521 70500 333 59013;
0233678610999992000091406004-18220+028930FM-12+1282FVGO V0200701N003612200019N0040001N1+02131+00761999999ADDAA199000091AY101061AY201061GA1001+999999999GF100991001001999999001001KA1120N+01681MA1999999087541MD1999999-0191ME1315359MW1051REMSYN076AAXX  14064 67861 31940 00707 10213 20076 38754 48535 70500 333 20168 59019;EQDQ01  00002PRCP99
0184678610999992000091415004-18220+028930FM-12+1282FVGO V0203601N002112200019N0050001N1+02981+00301999999ADDAY101031AY201031GA1001+999999999GF100991001001999999001001MA1999999087211MD1999999-0121ME1315069MW1051REMSYN070AAXX  14154 67861 41950 03604 10298 20030 38721 48506 70500 333 59012;
0203678610999992000091418004-18220+028930FM-12+1282FVGO V0209999C000012200019N0040001N1+02131+00701999999ADDAY101061AY201061GA1001+999999999GF100991001001999999001001KA1120M+03141MA1999999087401MD1999999-0041ME1315249MW1051REMSYN076AAXX  14184 67861 41940 00000 10213 20070 38740 48524 70500 333 10314 59004;
0184678610999992000091500004-18220+028930FM-12+1282FVGO V0203301N002112200019N0100001N1+02201+00541999999ADDAY101061AY201061GA1001+999999999GF100991001001999999001001MA1999999087461MD1999999+0001ME1315299MW1051REMSYN070AAXX  15004 67861 41960 03304 10220 20054 38746 48529 70500 333 58000;
0184678610999992000091503004-18220+028930FM-12+1282FVGO V0203601N001012200019N0100001N1+02101+00551999999ADDAY101031AY201031GA1001+999999999GF100991001001999999001001MA1999999087521MD1999999+0111ME1315349MW1051REMSYN070AAXX  15034 67861 41960 03602 10210 20055 38752 48534 70500 333 58011;
0184678610999992000091506004-18220+028930FM-12+1282FVGO V0201501N003612200019N0045001N1+02791+00531999999ADDAY101061AY201061GA1001+999999999GF100991001001999999001001MA1999999087711MD1999999+0091ME1315559MW1051REMSYN070AAXX  15064 67861 41945 01507 10279 20053 38771 48555 70500 333 58009;
0202678610999992000091912004-18220+028930FM-12+1282FVGO V0201501N003112200019N0040001N1+02781+00531999999ADDAY101061AY201061GA1011+030009089GF104991011011999999001011MA1999999087671MD1999999+0341ME1315519MW1051REMSYN088AAXX  19124 67861 41940 41506 10278 20053 38767 48551 70500 81101 333 58034 81860 84099;
0168678610999992000092012004-18220+028930FM-12+1282FVGO V0200601N004112200019N0250001N1+02701+00811999999ADDGA1041+024009029GF104991041011999999001001MA1999999087551MD1999999-0121ME1315389REMSYN076AAXX  20124 67861 42975 40608 10270 20081 38755 48538 84100 333 59012 84858;
0187678610999992000092515004-18220+028930FM-12+1282FVGO V0200401N000510300019N0300001N1+02751+00531999999ADDGA1051+030009059GF105991051041999999999001MA1999999087321MD1999999+0001ME1315169REMSYN076AAXX  25154 67861 42980 50401 10275 20053 38732 48516 85400 333 58000 85660;EQDQ01+000002SCOMCG
0215678610999992000092712004-18220+028930FM-12+1282FVGO V0201401N004112200019N0150001N1+03051-00121999999ADDAY101061AY201061GA1011+030009029GF101991011011999999001999MA1999999087501MD1999999+0211ME1315369MW1051REMSYN082AAXX  27124 67861 41965 11408 10305 21012 38750 48536 70500 81100 333 58021 81860;EQDQ01+000002SCOHCG
0215678610999992000092715004-18220+028930FM-12+1282FVGO V0201501N002612200019N0150001N1+02851+00031999999ADDAY101031AY201031GA1011+033009059GF101991011041999999999001MA1999999087441MD1999999+0211ME1315289MW1051REMSYN082AAXX  27154 67861 41965 11505 10285 20003 38744 48528 70500 81400 333 58021 81661;EQDQ01+000002SCOMCG
0203678610999992000092718004-18220+028930FM-12+1282FVGO V0201401N001012200019N0100001N1+02451+00381999999ADDAY101061AY201061GA1001+999999999GF100991001001999999001001KA1120M+03121MA1999999087561MD1999999+0181ME1315409MW1051REMSYN076AAXX  27184 67861 41960 01402 10245 20038 38756 48540 70500 333 10312 58018;
0184678610999992000092800004-18220+028930FM-12+1282FVGO V0201501N004612200019N0100001N1+01961+00961999999ADDAY101061AY201061GA1001+999999999GF100991001001999999001001MA1999999087601MD1999999+0121ME1315419MW1051REMSYN070AAXX  28004 67861 41960 01509 10196 20096 38760 48541 70500 333 58012;
0184678610999992000092803004-18220+028930FM-12+1282FVGO V0201301N004112200019N0100001N1+01701+01031999999ADDAY101031AY201031GA1001+999999999GF100991001001999999001001MA1999999087591MD1999999+0151ME1315389MW1051REMSYN070AAXX  28034 67861 41960 01308 10170 20103 38759 48538 70500 333 58015;
0233678610999992000092806004-18220+028930FM-12+1282FVGO V0201101N006212200019N0060001N1+02081+00951999999ADDAA199000091AY101061AY201061GA1001+999999999GF100991001001999999001001KA1120N+01641MA1999999087791MD1999999+0081ME1315599MW1051REMSYN076AAXX  28064 67861 31956 01112 10208 20095 38779 48559 70500 333 20164 58008;EQDQ01  00002PRCP99
0187678610999992000092812004-18220+028930FM-12+1282FVGO V0200801N004612200019N0250001N1+02991-00151999999ADDGA1011+030009029GF101991011011999999001999MA1999999087491MD1999999-0011ME1315349REMSYN076AAXX  28124 67861 42975 10809 10299 21015 38749 48534 81100 333 59001 81860;EQDQ01+000002SCOHCG
0187678610999992000092815004-18220+028930FM-12+1282FVGO V0201401N003112200019N0250001N1+02821+00001999999ADDGA1011+030009059GF101991011041999999999001MA1999999087391MD1999999-0051ME1315239REMSYN076AAXX  28154 67861 42975 11406 10282 20000 38739 48523 81400 333 59005 81660;EQDQ01+000002SCOMCG
0175678610999992000092818004-18220+028930FM-12+1282FVGO V0201001N002112200019N0250001N1+02501-00341999999ADDGA1001+999999999GF100991001001999999001001KA1120M+03001MA1999999087511MD1999999-0051ME1315349REMSYN070AAXX  28184 67861 42975 01004 10250 21034 38751 48534 333 10300 59005;
0156678610999992000092900004-18220+028930FM-12+1282FVGO V0200801N002612200019N0250001N1+01911+00221999999ADDGA1001+999999999GF100991001001999999001001MA1999999087531MD1999999-0071ME1315349REMSYN064AAXX  29004 67861 42975 00805 10191 20022 38753 48534 333 59007;
0156678610999992000092903004-18220+028930FM-12+1282FVGO V0200901N003112200019N0250001N1+01801+00491999999ADDGA1001+999999999GF100991001001999999001001MA1999999087561MD1999999-0031ME1315369REMSYN064AAXX  29034 67861 42975 00906 10180 20049 38756 48536 333 59003;
0205678610999992000092906004-18220+028930FM-12+1282FVGO V0200501N002612200019N0220001N1+02111+00691999999ADDAA199000091GA1001+999999999GF100991001001999999001001KA1120N+01661MA1999999087761MD1999999-0061ME1315569REMSYN070AAXX  29064 67861 32972 00505 10211 20069 38776 48556 333 20166 59006;EQDQ01  00002PRCP99
0156678610999992000092909004-18220+028930FM-12+1282FVGO V0200301N002612200019N0250001N1+02601+00361999999ADDGA1001+999999999GF100991001001999999001001MA1999999087731MD1999999-0061ME1315559REMSYN064AAXX  29094 67861 42975 00305 10260 20036 38773 48555 333 59006;
0156678610999992000092912004-18220+028930FM-12+1282FVGO V0200701N002612200019N0300001N1+02881+00011999999ADDGA1001+999999999GF100991001001999999001001MA1999999087411MD1999999-0081ME1315259REMSYN064AAXX  29124 67861 42980 00705 10288 20001 38741 48525 333 59008;
0156678610999992000092915004-18220+028930FM-12+1282FVGO V0200501N003112200019N0300001N1+02851+00211999999ADDGA1001+999999999GF100991001001999999001001MA1999999087331MD1999999-0061ME1315179REMSYN064AAXX  29154 67861 42980 00506 10285 20021 38733 48517 333 59006;
0175678610999992000092918004-18220+028930FM-12+1282FVGO V0209999C000012200019N0300001N1+02171+00291999999ADDGA1001+999999999GF100991001001999999001001KA1120M+02991MA1999999087461MD1999999-0051ME1315289REMSYN070AAXX  29184 67861 42980 00000 10217 20029 38746 48528 333 10299 59005;
0156678610999992000093000004-18220+028930FM-12+1282FVGO V0203601N002612200019N0250001N1+02051+00251999999ADDGA1001+999999999GF100991001001999999001001MA1999999087491MD1999999-0041ME1315319REMSYN064AAXX  30004 67861 42975 03605 10205 20025 38749 48531 333 59004;
0156678610999992000093003004-18220+028930FM-12+1282FVGO V0203501N002112200019N0250001N1+01951+00261999999ADDGA1001+999999999GF100991001001999999001001MA1999999087501MD1999999-0061ME1315319REMSYN064AAXX  30034 67861 42975 03504 10195 20026 38750 48531 333 59006;
0205678610999992000093006004-18220+028930FM-12+1282FVGO V0203301N002612200019N0220001N1+02241+00341999999ADDAA199000091GA1001+999999999GF100991001001999999001001KA1120N+01841MA1999999087671MD1999999-0091ME1315489REMSYN070AAXX  30064 67861 32972 03305 10224 20034 38767 48548 333 20184 59009;EQDQ01  00002PRCP99
0156678610999992000093009004-18220+028930FM-12+1282FVGO V0202701N003112200019N0250001N1+02751+00341999999ADDGA1001+999999999GF100991001001999999001001MA1999999087661MD1999999-0071ME1315509REMSYN064AAXX  30094 67861 42975 02706 10275 20034 38766 48550 333 59007;
0156678610999992000093012004-18220+028930FM-12+1282FVGO V0201201N002112200019N0300001N1+02971+00251999999ADDGA1001+999999999GF100991001001999999001001MA1999999087411MD1999999+0001ME1315269REMSYN064AAXX  30124 67861 42980 01204 10297 20025 38741 48526 333 58000;
0156678610999992000093015004-18220+028930FM-12+1282FVGO V0201501N002612200019N0300001N1+02951+00241999999ADDGA1001+999999999GF100991001001999999001001MA1999999087301MD1999999-0031ME1315159REMSYN064AAXX  30154 67861 42980 01505 10295 20024 38730 48515 333 59003;
0175678610999992000093018004-18220+028930FM-12+1282FVGO V0209999C000012200019N0220001N1+02301+00101999999ADDGA1001+999999999GF100991001001999999001001KA1120M+03011MA1999999087421MD1999999-0041ME1315259REMSYN070AAXX  30184 67861 42972 00000 10230 20010 38742 48525 333 10301 59004;
0156678610999992000100100004-18220+028930FM-12+1282FVGO V0209999C000012200019N0220001N1+01961+00651999999ADDGA1001+999999999GF100991001001999999001001MA1999999087401MD1999999-0091ME1315209REMSYN064AAXX  01004 67861 42972 00000 10196 20065 38740 48520 333 59009;
0156678610999992000100103004-18220+028930FM-12+1282FVGO V0200501N001512200019N0220001N1+01981+00511999999ADDGA1001+999999999GF100991001001999999001001MA1999999087461MD1999999-0041ME1315279REMSYN064AAXX  01034 67861 42972 00503 10198 20051 38746 48527 333 59004;
0233678610999992000100106004-18220+028930FM-12+1282FVGO V0200401N002612200019N0040001N1+02311+00601999999ADDAA199000091AY101061AY201061GA1001+999999999GF100991001001999999001001KA1120N+01781MA1999999087631MD1999999-0041ME1315459MW1051REMSYN076AAXX  01064 67861 31940 00405 10231 20060 38763 48545 70500 333 20178 59004;EQDQ01  00002PRCP99
0184678610999992000100109004-18220+028930FM-12+1282FVGO V0200501N003612200019N0040001N1+02821+00441999999ADDAY101031AY201031GA1001+999999999GF100991001001999999001001MA1999999087571MD1999999-0091ME1315419MW1051REMSYN070AAXX  01094 67861 41940 00507 10282 20044 38757 48541 70500 333 59009;
0215678610999992000100112004-18220+028930FM-12+1282FVGO V0200801N003112200019N0060001N1+03011+00101999999ADDAY101061AY201061GA1011+030009029GF101991011011999999001999MA1999999087311MD1999999-0101ME1315169MW1051REMSYN082AAXX  01124 67861 41956 10806 10301 20010 38731 48516 70500 81100 333 59010 81860;EQDQ01+000002SCOHCG
0215678610999992000100115004-18220+028930FM-12+1282FVGO V0200401N001512200019N0060001N1+03021+00301999999ADDAY101031AY201031GA1011+030009059GF101991011041999999999001MA1999999087241MD1999999-0091ME1315099MW1051REMSYN082AAXX  01154 67861 41956 10403 10302 20030 38724 48509 70500 81400 333 59009 81660;EQDQ01+000002SCOMCG
0234678610999992000100118004-18220+028930FM-12+1282FVGO V0209999C000012200019N0060001N1+02331+00491999999ADDAY101061AY201061GA1011+030009059GF101991011041999999999001KA1120M+03181MA1999999087321MD1999999-0141ME1315169MW1051REMSYN088AAXX  01184 67861 41956 10000 10233 20049 38732 48516 70500 81400 333 10318 59014 81660;EQDQ01+000002SCOMCG
0184678610999992000100200004-18220+028930FM-12+1282FVGO V0201201N004112200019N0100001N1+02331+00201999999ADDAY101061AY201061GA1001+999999999GF100991001001999999001001MA1999999087371MD1999999-0031ME1315219MW1051REMSYN070AAXX  02004 67861 41960 01208 10233 20020 38737 48521 70500 333 59003;
0184678610999992000100203004-18220+028930FM-12+1282FVGO V0200801N002112200019N0100001N1+02081+00391999999ADDAY101031AY201031GA1001+999999999GF100991001001999999001001MA1999999087441MD1999999-0021ME1315269MW1051REMSYN070AAXX  02034 67861 41960 00804 10208 20039 38744 48526 70500 333 59002;
0233678610999992000100206004-18220+028930FM-12+1282FVGO V0200701N004112200019N0040001N1+02381+00601999999ADDAA199000091AY101061AY201061GA1001+999999999GF100991001001999999001001KA1120N+01991MA1999999087651MD1999999+0021ME1315489MW1051REMSYN076AAXX  02064 67861 31940 00708 10238 20060 38765 48548 70500 333 20199 58002;EQDQ01  00002PRCP99
0184678610999992000100209004-18220+028930FM-12+1282FVGO V0201001N003112200019N0040001N1+02881+00671999999ADDAY101031AY201031GA1001+999999999GF100991001001999999001001MA1999999087621MD1999999+0051ME1315479MW1051REMSYN070AAXX  02094 67861 41940 01006 10288 20067 38762 48547 70500 333 58005;
0215678610999992000100212004-18220+028930FM-12+1282FVGO V0200901N003612200019N0050001N1+03101+00451999999ADDAY101061AY201061GA1011+030009029GF101991011011999999001999MA1999999087401MD1999999+0091ME1315269MW1051REMSYN082AAXX  02124 67861 41950 10907 10310 20045 38740 48526 70500 81100 333 58009 81860;EQDQ01+000002SCOHCG
0215678610999992000100215004-18220+028930FM-12+1282FVGO V0201501N003612200019N0050001N1+03021+00331999999ADDAY101031AY201031GA1011+030009059GF101991011041999999999001MA1999999087331MD1999999+0091ME1315189MW1051REMSYN082AAXX  02154 67861 41950 11507 10302 20033 38733 48518 70500 81400 333 58009 81660;EQDQ01+000002SCOMCG
0234678610999992000100218004-18220+028930FM-12+1282FVGO V0201301N003612200019N0040001N1+02751+00161999999ADDAY101061AY201061GA1011+030009059GF101991011041999999999001KA1120M+03201MA1999999087411MD1999999+0091ME1315249MW1051REMSYN088AAXX  02184 67861 41940 11307 10275 20016 38741 48524 70500 81400 333 10320 58009 81660;EQDQ01+000002SCOMCG
0184678610999992000100300004-18220+028930FM-12+1282FVGO V0203601N005112200019N0100001N1+02051+00911999999ADDAY101061AY201061GA1001+999999999GF100991001001999999001001MA1999999087471MD1999999+0101ME1315299MW1051REMSYN070AAXX  03004 67861 41960 03610 10205 20091 38747 48529 70500 333 58010;
0184678610999992000100303004-18220+028930FM-12+1282FVGO V0200301N005712200019N0100001N1+01851+01061999999ADDAY101031AY201031GA1001+999999999GF100991001001999999001001MA1999999087501MD1999999+0061ME1315319MW1051REMSYN070AAXX  03034 67861 41960 00311 10185 20106 38750 48531 70500 333 58006;
0233678610999992000100306004-18220+028930FM-12+1282FVGO V0203601N006712200019N0030001N1+01951+01201999999ADDAA199000091AY101061AY201061GA1001+999999999GF100991001001999999001001KA1120N+01661MA1999999087751MD1999999+0101ME1315549MW1051REMSYN076AAXX  03064 67861 31930 03613 10195 20120 38775 48554 70500 333 20166 58010;EQDQ01  00002PRCP99
0184678610999992000100309004-18220+028930FM-12+1282FVGO V0203301N005112200019N0050001N1+02451+01131999999ADDAY101031AY201031GA1001+999999999GF100991001001999999001001MA1999999087691MD1999999+0071ME1315509MW1051REMSYN070AAXX  03094 67861 41950 03310 10245 20113 38769 48550 70500 333 58007;
0196678610999992000100312004-18220+028930FM-12+1282FVGO V0200301N004112200019N0100001N1+02901+00731999999ADDAY101061AY201061GA1011+027009029GF101991011011999999001001MA1999999087411MD1999999+0011ME1315259MW1051REMSYN082AAXX  03124 67861 41960 10308 10290 20073 38741 48525 70500 81100 333 58001 81859;
0215678610999992000100315004-18220+028930FM-12+1282FVGO V0203401N002112200019N0100001N1+02851+00461999999ADDAY101031AY201031GA1011+027009059GF101991011041999999999001MA1999999087311MD1999999-0021ME1315159MW1051REMSYN082AAXX  03154 67861 41960 13404 10285 20046 38731 48515 70500 81400 333 59002 81659;EQDQ01+000002SCOMCG
0203678610999992000100318004-18220+028930FM-12+1282FVGO V0200301N001512200019N0100001N1+02421+00351999999ADDAY101061AY201061GA1001+999999999GF100991001001999999001001KA1120M+02971MA1999999087431MD1999999+0021ME1315259MW1051REMSYN076AAXX  03184 67861 41960 00303 10242 20035 38743 48525 70500 333 10297 58002;
0184678610999992000100400004-18220+028930FM-12+1282FVGO V0200801N003612200019N0100001N1+01981+00611999999ADDAY101061AY201061GA1001+999999999GF100991001001999999001001MA1999999087391MD1999999-0081ME1315219MW1051REMSYN070AAXX  04004 67861 41960 00807 10198 20061 38739 48521 70500 333 59008;
0184678610999992000100403004-18220+028930FM-12+1282FVGO V0201201N003612200019N0100001N1+01801+00691999999ADDAY101031AY201031GA1001+999999999GF100991001001999999001001MA1999999087431MD1999999-0071ME1315239MW1051REMSYN070AAXX  04034 67861 41960 01207 10180 20069 38743 48523 70500 333 59007;
0233678610999992000100406004-18220+028930FM-12+1282FVGO V0201001N003112200019N0040001N1+02051+00801999999ADDAA199000091AY101061AY201061GA1001+999999999GF100991001001999999001001KA1120N+01691MA1999999087621MD1999999-0131ME1315429MW1051REMSYN076AAXX  04064 67861 31940 01006 10205 20080 38762 48542 70500 333 20169 59013;EQDQ01  00002PRCP99
0184678610999992000100409004-18220+028930FM-12+1282FVGO V0200801N002612200019N0050001N1+02661+00711999999ADDAY101031AY201031GA1001+999999999GF100991001001999999001001MA1999999087511MD1999999-0181ME1315349MW1051REMSYN070AAXX  04094 67861 41950 00805 10266 20071 38751 48534 70500 333 59018;
0184678610999992000100412004-18220+028930FM-12+1282FVGO V0200601N003612200019N0090001N1+03001+00181999999ADDAY101061AY201061GA1001+999999999GF100991001001999999001001MA1999999087241MD1999999-0171ME1315099MW1051REMSYN070AAXX  04124 67861 41959 00607 10300 20018 38724 48509 70500 333 59017;
0184678610999992000100415004-18220+028930FM-12+1282FVGO V0201301N002112200019N0100001N1+02951+00191999999ADDAY101031AY201031GA1001+999999999GF100991001001999999001001MA1999999087191MD1999999-0121ME1315049MW1051REMSYN070AAXX  04154 67861 41960 01304 10295 20019 38719 48504 70500 333 59012;
0203678610999992000100418004-18220+028930FM-12+1282FVGO V0201401N001012200019N0100001N1+02321+00211999999ADDAY101061AY201061GA1001+999999999GF100991001001999999001001KA1120M+03391MA1999999087331MD1999999-0061ME1315169MW1051REMSYN076AAXX  04184 67861 41960 01402 10232 20021 38733 48516 70500 333 10339 59006;
0184678610999992000100500004-18220+028930FM-12+1282FVGO V0201001N003112200019N0150001N1+02141+00061999999ADDAY101061AY201061GA1001+999999999GF100991001001999999001001MA1999999087261MD1999999-0131ME1315099MW1051REMSYN070AAXX  05004 67861 41965 01006 10214 20006 38726 48509 70500 333 59013;
0184678610999992000100503004-18220+028930FM-12+1282FVGO V0200901N002612200019N0150001N1+01951+00311999999ADDAY101031AY201031GA1001+999999999GF100991001001999999001001MA1999999087331MD1999999-0101ME1315159MW1051REMSYN070AAXX  05034 67861 41965 00905 10195 20031 38733 48515 70500 333 59010;
0233678610999992000100506004-18220+028930FM-12+1282FVGO V0200501N003612200019N0050001N1+02261+00571999999ADDAA199000091AY101061AY201061GA1001+999999999GF100991001001999999001001KA1120N+01891MA1999999087561MD1999999-0061ME1315389MW1051REMSYN076AAXX  05064 67861 31950 00507 10226 20057 38756 48538 70500 333 20189 59006;EQDQ01  00002PRCP99
0184678610999992000100509004-18220+028930FM-12+1282FVGO V0203001N002112200019N0200001N1+02801+00441999999ADDAY101031AY201031GA1001+999999999GF100991001001999999001001MA1999999087531MD1999999+0021ME1315379MW1051REMSYN070AAXX  05094 67861 41970 03004 10280 20044 38753 48537 70500 333 58002;
0184678610999992000100603004-18220+028930FM-12+1282FVGO V0200301N001012200019N0100001N1+02131+00601999999ADDAY101031AY201031GA1001+999999999GF100991001001999999001001MA1999999087311MD1999999-0021ME1315149MW1051REMSYN070AAXX  06034 67861 41960 00302 10213 20060 38731 48514 70500 333 59002;
0233678610999992000100606004-18220+028930FM-12+1282FVGO V0203501N002612200019N0040001N1+02351+00661999999ADDAA199000091AY101061AY201061GA1001+999999999GF100991001001999999001001KA1120N+02051MA1999999087601MD1999999+0041ME1315439MW1051REMSYN076AAXX  06064 67861 31940 03505 10235 20066 38760 48543 70500 333 20205 58004;EQDQ01  00002PRCP99
0184678610999992000100609004-18220+028930FM-12+1282FVGO V0200201N003612200019N0045001N1+02861+00661999999ADDAY101031AY201031GA1001+999999999GF100991001001999999001001MA1999999087481MD1999999-0051ME1315329MW1051REMSYN070AAXX  06094 67861 41945 00207 10286 20066 38748 48532 70500 333 59005;
0184678610999992000100612004-18220+028930FM-12+1282FVGO V0200101N003112200019N0045001N1+03201+00431999999ADDAY101061AY201061GA1001+999999999GF100991001001999999001001MA1999999087211MD1999999-0041ME1315089MW1051REMSYN070AAXX  06124 67861 41945 00106 10320 20043 38721 48508 70500 333 59004;
0184678610999992000100615004-18220+028930FM-12+1282FVGO V0203601N002612200019N0045001N1+03171+00361999999ADDAY101031AY201031GA1001+999999999GF100991001001999999001001MA1999999087181MD1999999+0001ME1315059MW1051REMSYN070AAXX  06154 67861 41945 03605 10317 20036 38718 48505 70500 333 58000;
0203678610999992000100618004-18220+028930FM-12+1282FVGO V0209999C000012200019N0050001N1+02851+00241999999ADDAY101061AY201061GA1001+999999999GF100991001001999999001001KA1120M+03301MA1999999087281MD1999999+0021ME1315139MW1051REMSYN076AAXX  06184 67861 41950 00000 10285 20024 38728 48513 70500 333 10330 58002;
0184678610999992000100703004-18220+028930FM-12+1282FVGO V0201301N003612200019N0040001N1+02051+00311999999ADDAY101031AY201031GA1001+999999999GF100991001001999999001001MA1999999087391MD1999999+0031ME1315229MW1051REMSYN070AAXX  07034 67861 41940 01307 10205 20031 38739 48522 70500 333 58003;
0245678610999992000100706004-18220+028930FM-12+1282FVGO V0200901N003112200019N0030001N1+02301+00681999999ADDAA199000091AY101061AY201061GA1011+030009079GF101991011001999999031001KA1120N+01881MA1999999087581MD1999999-0021ME1315409MW1051REMSYN088AAXX  07064 67861 31930 10906 10230 20068 38758 48540 70500 81030 333 20188 59002 81360;EQDQ01  00002PRCP99
0184678610999992000100709004-18220+028930FM-12+1282FVGO V0200201N005112200019N0040001N1+02851+00661999999ADDAY101031AY201031GA1001+999999999GF100991001001999999001001MA1999999087561MD1999999+0081ME1315419MW1051REMSYN070AAXX  07094 67861 41940 00210 10285 20066 38756 48541 70500 333 58008;
0215678610999992000100712004-18220+028930FM-12+1282FVGO V0200601N003612200019N0050001N1+03201+00541999999ADDAY101061AY201061GA1011+030009029GF101991011011999999001999MA1999999087301MD1999999+0091ME1315179MW1051REMSYN082AAXX  07124 67861 41950 10607 10320 20054 38730 48517 70500 81100 333 58009 81860;EQDQ01+000002SCOHCG
0215678610999992000100715004-18220+028930FM-12+1282FVGO V0200701N002612200019N0060001N1+03111+00381999999ADDAY101031AY201031GA1041+030009029GF104991041011999999001999MA1999999087261MD1999999+0081ME1315129MW1051REMSYN082AAXX  07154 67861 41956 40705 10311 20038 38726 48512 70500 84100 333 58008 84860;EQDQ01+000002SCOHCG
0203678610999992000100718004-18220+028930FM-12+1282FVGO V0200501N003112200019N0050001N1+02721+00511999999ADDAY111061AY211061GA1001+999999999GF100991001001999999001001KA1120M+03321MA1999999087381MD1999999+0101ME1315239MW1051REMSYN076AAXX  07184 67861 41950 00506 10272 20051 38738 48523 70511 333 10332 58010;
0184678610999992000100800004-18220+028930FM-12+1282FVGO V0200801N003112200019N0080001N1+02151+00911999999ADDAY101061AY201061GA1001+999999999GF100991001001999999001001MA1999999087411MD1999999+0061ME1315249MW1051REMSYN070AAXX  08004 67861 41958 00806 10215 20091 38741 48524 70500 333 58006;
0184678610999992000100803004-18220+028930FM-12+1282FVGO V0200901N003612200019N0080001N1+01991+01131999999ADDAY101031AY201031GA1001+999999999GF100991001001999999001001MA1999999087501MD1999999+0111ME1315319MW1051REMSYN070AAXX  08034 67861 41958 00907 10199 20113 38750 48531 70500 333 58011;
0215678610999992000100812004-18220+028930FM-12+1282FVGO V0200701N004112200019N0060001N1+03151+00651999999ADDAY101061AY201061GA1041+030009029GF104991041011999999001999MA1999999087341MD1999999+0041ME1315219MW1051REMSYN082AAXX  08124 67861 41956 40708 10315 20065 38734 48521 70500 84100 333 58004 84860;EQDQ01+000002SCOHCG
0215678610999992000100815004-18220+028930FM-12+1282FVGO V0201101N002112200019N0100001N1+03101+00041999999ADDAY101031AY201031GA1021+033009059GF102991021041999999999001MA1999999087261MD1999999+0001ME1315129MW1051REMSYN082AAXX  08154 67861 41960 21104 10310 20004 38726 48512 70500 82400 333 58000 82661;EQDQ01+000002SCOMCG
0215678610999992000100818004-18220+028930FM-12+1282FVGO V0201201N001512200019N0100001N1+02501+00321999999ADDAY101061AY201061GA1011+036009079GF101991011001999999061001KA1120M+03201MA1999999087351MD1999999-0031ME1315199MW1051REMSYN088AAXX  08184 67861 41960 11203 10250 20032 38735 48519 70500 81060 333 10320 59003 81362;
0233678610999992000101006004-18220+028930FM-12+1282FVGO V0200601N002612200019N0050001N1+02541+00711999999ADDAA199000091AY101061AY201061GA1001+999999999GF100991001001999999001001KA1120N+02081MA1999999087541MD1999999-0041ME1315389MW1051REMSYN076AAXX  10064 67861 31950 00605 10254 20071 38754 48538 70500 333 20208 59004;EQDQ01  00002PRCP99
0215678610999992000101012004-18220+028930FM-12+1282FVGO V0201501N003612200019N0150001N1+03301-00191999999ADDAY101061AY201061GA1011+030009029GF101991011011999999001999MA1999999087221MD1999999+0021ME1315099MW1051REMSYN082AAXX  10124 67861 41965 11507 10330 21019 38722 48509 70500 81100 333 58002 81860;EQDQ01+000002SCOHCG
0215678610999992000101015004-18220+028930FM-12+1282FVGO V0201401N002112200019N0150001N1+03201-00111999999ADDAY101031AY201031GA1011+033009059GF101991011041999999999001MA1999999087191MD1999999+0061ME1315069MW1051REMSYN082AAXX  10154 67861 41965 11404 10320 21011 38719 48506 70500 81400 333 58006 81661;EQDQ01+000002SCOMCG
0215678610999992000101018004-18220+028930FM-12+1282FVGO V0209999C000012200019N0150001N1+02651+00121999999ADDAY101061AY201061GA1011+036009079GF101991011001999999061001KA1120M+03381MA1999999087281MD1999999+0021ME1315139MW1051REMSYN088AAXX  10184 67861 41965 10000 10265 20012 38728 48513 70500 81060 333 10338 58002 81362;
0184678610999992000101100004-18220+028930FM-12+1282FVGO V0201301N003112200019N0100001N1+02401+00131999999ADDAY101061AY201061GA1001+999999999GF100991001001999999001001MA1999999087391MD1999999+0071ME1315239MW1051REMSYN070AAXX  11004 67861 41960 01306 10240 20013 38739 48523 70500 333 58007;
0184678610999992000101103004-18220+028930FM-12+1282FVGO V0201101N002112200019N0100001N1+02201+00521999999ADDAY101031AY201031GA1001+999999999GF100991001001999999001001MA1999999087521MD1999999+0141ME1315359MW1051REMSYN070AAXX  11034 67861 41960 01104 10220 20052 38752 48535 70500 333 58014;
0233678610999992000101106004-18220+028930FM-12+1282FVGO V0201401N004112200019N0040001N1+02401+00541999999ADDAA199000091AY101061AY201061GA1001+999999999GF100991001001999999001001KA1120N+02171MA1999999087811MD1999999+0271ME1315649MW1051REMSYN076AAXX  11064 67861 31940 01408 10240 20054 38781 48564 70500 333 20217 58027;EQDQ01  00002PRCP99
0215678610999992000101112004-18220+028930FM-12+1282FVGO V0201401N005112200019N0045001N1+03061+00411999999ADDAY101061AY201061GA1011+030009029GF101991011011999999001999MA1999999087581MD1999999+0361ME1315449MW1051REMSYN082AAXX  11124 67861 41945 11410 10306 20041 38758 48544 70500 81100 333 58036 81860;EQDQ01+000002SCOHCG
0203678610999992000101118004-18220+028930FM-12+1282FVGO V0201001N004612200019N0080001N1+02561+00081999999ADDAY101061AY201061GA1001+999999999GF100991001001999999001001KA1120M+03111MA1999999087731MD1999999+0451ME1315579MW1051REMSYN076AAXX  11184 67861 41958 01009 10256 20008 38773 48557 70500 333 10311 58045;
0184678610999992000101203004-18220+028930FM-12+1282FVGO V0201001N005112200019N0100001N1+01751+01241999999ADDAY101031AY201031GA1001+999999999GF100991001001999999001001MA1999999087931MD1999999+0411ME1315729MW1051REMSYN070AAXX  12034 67861 41960 01010 10175 20124 38793 48572 70500 333 58041;
0233678610999992000101206004-18220+028930FM-12+1282FVGO V0200901N007212200019N0050001N1+02041+00921999999ADDAA199000091AY101061AY201061GA1001+999999999GF100991001001999999001001KA1120N+01681MA1999999088091MD1999999+0281ME1315889MW1051REMSYN076AAXX  12064 67861 31950 00914 10204 20092 38809 48588 70500 333 20168 58028;EQDQ01  00002PRCP99
0215678610999992000101212004-18220+028930FM-12+1282FVGO V0201301N004612200019N0150001N1+02751+00361999999ADDAY101061AY201061GA1031+030009029GF103991031011999999001999MA1999999087851MD1999999+0251ME1315679MW1051REMSYN082AAXX  12124 67861 41965 31309 10275 20036 38785 48567 70500 83100 333 58025 83860;EQDQ01+000002SCOHCG
0215678610999992000101215004-18220+028930FM-12+1282FVGO V0201501N004112200019N0150001N1+02651+00351999999ADDAY101031AY201031GA1041+030009059GF104991041041999999999001MA1999999087761MD1999999+0221ME1315599MW1051REMSYN082AAXX  12154 67861 41965 41508 10265 20035 38776 48559 70500 84400 333 58022 84660;EQDQ01+000002SCOMCG
0215678610999992000101218004-18220+028930FM-12+1282FVGO V0201201N005710300019N0150001N1+02401+00741999999ADDAY111061AY211061GA1051+030009079GF105991051001999999031001KA1120M+02951MA1999999087921MD1999999+0191ME1315739MW1051REMSYN088AAXX  12184 67861 41965 51211 10240 20074 38792 48573 70511 85030 333 10295 58019 85360;
0184678610999992000101300004-18220+028930FM-12+1282FVGO V0201301N006212200019N0150001N1+01601+01161999999ADDAY111061AY211061GA1001+999999999GF100991001001999999001001MA1999999087881MD1999999+0021ME1315659MW1051REMSYN070AAXX  13004 67861 41965 01312 10160 20116 38788 48565 70511 333 58002;
0196678610999992000101303004-18220+028930FM-12+1282FVGO V0201201N005112200019N0150001N1+01551+01121999999ADDAY101031AY201031GA1011+030009079GF101991011001999999031001MA1999999087881MD1999999-0051ME1315659MW1051REMSYN082AAXX  13034 67861 41965 11210 10155 20112 38788 48565 70500 81030 333 59005 81360;
0217678610999992000101306004-18220+028930FM-12+1282FVGO V0201401N004612200019N0250001N1+01921+01021999999ADDAA199000091GA1011+036009079GF101991011001999999041001KA1120N+01481MA1999999088041MD1999999-0051ME1315829REMSYN082AAXX  13064 67861 32975 11409 10192 20102 38804 48582 81040 333 20148 59005 81362;EQDQ01  00002PRCP99
0168678610999992000101309004-18220+028930FM-12+1282FVGO V0200801N003612200019N0250001N1+02401+00791999999ADDGA1011+018009029GF101991011011022501001001MA1999999087971MD1999999-0121ME1315779REMSYN076AAXX  13094 67861 41875 10807 10240 20079 38797 48577 81100 333 59012 81856;
0156678610999992000101315004-18220+028930FM-12+1282FVGO V0200801N003612200019N0250001N1+02741+00001999999ADDGA1001+999999999GF100991001001999999001001MA1999999087511MD1999999-0251ME1315349REMSYN064AAXX  13154 67861 42975 00807 10274 20000 38751 48534 333 59025;
0175678610999992000101318004-18220+028930FM-12+1282FVGO V0200601N001012200019N0250001N1+02331+00161999999ADDGA1001+999999999GF100991001001999999001001KA1120M+02861MA1999999087581MD1999999-0341ME1315399REMSYN070AAXX  13184 67861 42975 00602 10233 20016 38758 48539 333 10286 59034;
0156678610999992000101400004-18220+028930FM-12+1282FVGO V0201301N004112200019N0240001N1+01901+00821999999ADDGA1001+999999999GF100991001001999999001001MA1999999087591MD1999999-0291ME1315409REMSYN064AAXX  14004 67861 42974 01308 10190 20082 38759 48540 333 59029;
0205678610999992000101406004-18220+028930FM-12+1282FVGO V0200901N003612200019N0220001N1+02091+01011999999ADDAA199000091GA1001+999999999GF100991001001999999001001KA1120N+01411MA1999999087781MD1999999-0261ME1315589REMSYN070AAXX  14064 67861 32972 00907 10209 20101 38778 48558 333 20141 59026;EQDQ01  00002PRCP99
0156678610999992000101409004-18220+028930FM-12+1282FVGO V0201201N004112200019N0250001N1+02601+00361999999ADDGA1001+999999999GF100991001001999999001001MA1999999087701MD1999999-0271ME1315529REMSYN064AAXX  14094 67861 42975 01208 10260 20036 38770 48552 333 59027;
0156678610999992000101412004-18220+028930FM-12+1282FVGO V0201401N004112200019N0400001N1+02951-00091999999ADDGA1001+999999999GF100991001001999999001001MA1999999087351MD1999999-0281ME1315209REMSYN064AAXX  14124 67861 42982 01408 10295 21009 38735 48520 333 59028;
0156678610999992000101415004-18220+028930FM-12+1282FVGO V0201101N003112200019N0500001N1+02951-00381999999ADDGA1001+999999999GF100991001001999999001001MA1999999087241MD1999999-0271ME1315099REMSYN064AAXX  14154 67861 42984 01106 10295 21038 38724 48509 333 59027;
0156678610999992000101503004-18220+028930FM-12+1282FVGO V0201101N003112200019N0250001N1+01951+00251999999ADDGA1001+999999999GF100991001001999999001001MA1999999087511MD1999999-0111ME1315329REMSYN064AAXX  15034 67861 42975 01106 10195 20025 38751 48532 333 59011;
0205678610999992000101506004-18220+028930FM-12+1282FVGO V0201401N004112200019N0250001N1+02251+00531999999ADDAA199000091GA1001+999999999GF100991001001999999001001KA1120N+01831MA1999999087701MD1999999-0081ME1315529REMSYN070AAXX  15064 67861 32975 01408 10225 20053 38770 48552 333 20183 59008;EQDQ01  00002PRCP99
0156678610999992000101509004-18220+028930FM-12+1282FVGO V0200901N003612200019N0250001N1+02751+00201999999ADDGA1001+999999999GF100991001001999999001001MA1999999087711MD1999999+0011ME1315559REMSYN064AAXX  15094 67861 42975 00907 10275 20020 38771 48555 333 58001;
0156678610999992000101512004-18220+028930FM-12+1282FVGO V0200801N003112200019N0220001N1+03021-00111999999ADDGA1001+999999999GF100991001001999999001001MA1999999087451MD1999999+0101ME1315309REMSYN064AAXX  15124 67861 42972 00806 10302 21011 38745 48530 333 58010;
0156678610999992000101515004-18220+028930FM-12+1282FVGO V0201001N002612200019N0240001N1+03051-00301999999ADDGA1001+999999999GF100991001001999999001001MA1999999087361MD1999999+0121ME1315229REMSYN064AAXX  15154 67861 42974 01005 10305 21030 38736 48522 333 58012;
0175678610999992000101518004-18220+028930FM-12+1282FVGO V0201101N000512200019N0250001N1+02521-00201999999ADDGA1001+999999999GF100991001001999999001001KA1120M+03151MA1999999087481MD1999999+0091ME1315329REMSYN070AAXX  15184 67861 42975 01101 10252 21020 38748 48532 333 10315 58009;
0156678610999992000101600004-18220+028930FM-12+1282FVGO V0200901N002612200019N0250001N1+02141+00191999999ADDGA1001+999999999GF100991001001999999001001MA1999999087571MD1999999+0121ME1315399REMSYN064AAXX  16004 67861 42975 00905 10214 20019 38757 48539 333 58012;
0156678610999992000101603004-18220+028930FM-12+1282FVGO V0200801N001512200019N0250001N1+01901+00311999999ADDGA1001+999999999GF100991001001999999001001MA1999999087621MD1999999+0111ME1315429REMSYN064AAXX  16034 67861 42975 00803 10190 20031 38762 48542 333 58011;
0233678610999992000101606004-18220+028930FM-12+1282FVGO V0200701N004112200019N0200001N1+02151+00541999999ADDAA199000091AY101061AY201061GA1001+999999999GF100991001001999999001001KA1120N+01821MA1999999087801MD1999999+0101ME1315619MW1051REMSYN076AAXX  16064 67861 31970 00708 10215 20054 38780 48561 70500 333 20182 58010;EQDQ01  00002PRCP99
0184678610999992000101609004-18220+028930FM-12+1282FVGO V0201401N004112200019N0100001N1+02701+00211999999ADDAY101031AY201031GA1001+999999999GF100991001001999999001001MA1999999087771MD1999999+0061ME1315609MW1051REMSYN070AAXX  16094 67861 41960 01408 10270 20021 38777 48560 70500 333 58006;
0184678610999992000101612004-18220+028930FM-12+1282FVGO V0201201N003612200019N0200001N1+03111-00291999999ADDAY101061AY201061GA1001+999999999GF100991001001999999001001MA1999999087511MD1999999+0061ME1315379MW1051REMSYN070AAXX  16124 67861 41970 01207 10311 21029 38751 48537 70500 333 58006;
0184678610999992000101615004-18220+028930FM-12+1282FVGO V0201201N003612200019N0200001N1+03051-00811999999ADDAY101031AY201031GA1001+999999999GF100991001001999999001001MA1999999087431MD1999999+0071ME1315299MW1051REMSYN070AAXX  16154 67861 41970 01207 10305 21081 38743 48529 70500 333 58007;
0203678610999992000101618004-18220+028930FM-12+1282FVGO V0201101N001012200019N0150001N1+02491-00221999999ADDAY101061AY201061GA1001+999999999GF100991001001999999001001KA1120M+03191MA1999999087571MD1999999+0091ME1315429MW1051REMSYN076AAXX  16184 67861 41965 01102 10249 21022 38757 48542 70500 333 10319 58009;
0184678610999992000101703004-18220+028930FM-12+1282FVGO V0201401N003612200019N0050001N1+01911-00021999999ADDAY101031AY201031GA1001+999999999GF100991001001999999001001MA1999999087751MD1999999+0131ME1315559MW1051REMSYN070AAXX  17034 67861 41950 01407 10191 21002 38775 48555 70500 333 58013;
0233678610999992000101706004-18220+028930FM-12+1282FVGO V0201301N003612200019N0040001N1+02301+00151999999ADDAA199000091AY101061AY201061GA1001+999999999GF100991001001999999001001KA1120N+01641MA1999999087841MD1999999+0041ME1315669MW1051REMSYN076AAXX  17064 67861 31940 01307 10230 20015 38784 48566 70500 333 20164 58004;EQDQ01  00002PRCP99
0184678610999992000101709004-18220+028930FM-12+1282FVGO V0200801N003612200019N0060001N1+02841-00161999999ADDAY101031AY201031GA1001+999999999GF100991001001999999001001MA1999999087761MD1999999-0011ME1315609MW1051REMSYN070AAXX  17094 67861 41956 00807 10284 21016 38776 48560 70500 333 59001;
0184678610999992000101712004-18220+028930FM-12+1282FVGO V0200701N004112200019N0100001N1+03161-00521999999ADDAY101061AY201061GA1001+999999999GF100991001001999999001001MA1999999087511MD1999999+0001ME1315389MW1051REMSYN070AAXX  17124 67861 41960 00708 10316 21052 38751 48538 70500 333 58000;
0184678610999992000101715004-18220+028930FM-12+1282FVGO V0200901N002612200019N0100001N1+03071-00431999999ADDAY101031AY201031GA1001+999999999GF100991001001999999001001MA1999999087401MD1999999-0231ME1315269MW1051REMSYN070AAXX  17154 67861 41960 00905 10307 21043 38740 48526 70500 333 59023;
0203678610999992000101718004-18220+028930FM-12+1282FVGO V0201001N003112200019N0100001N1+02651-01011999999ADDAY101061AY201061GA1001+999999999GF100991001001999999001001KA1120M+03201MA1999999087461MD1999999-0111ME1315309MW1051REMSYN076AAXX  17184 67861 41960 01006 10265 21101 38746 48530 70500 333 10320 59011;
0156678610999992000101800004-18220+028930FM-12+1282FVGO V0201401N003612200019N0250001N1+02101-00691999999ADDGA1001+999999999GF100991001001999999001001MA1999999087471MD1999999-0191ME1315299REMSYN064AAXX  18004 67861 42975 01407 10210 21069 38747 48529 333 59019;
0156678610999992000101803004-18220+028930FM-12+1282FVGO V0201801N003112200019N0250001N1+01941-00161999999ADDGA1001+999999999GF100991001001999999001001MA1999999087541MD1999999-0211ME1315359REMSYN064AAXX  18034 67861 42975 01806 10194 21016 38754 48535 333 59021;
0184678610999992000101809004-18220+028930FM-12+1282FVGO V0201101N004112200019N0150001N1+02851-00181999999ADDAY101031AY201031GA1001+999999999GF100991001001999999001001MA1999999087611MD1999999-0191ME1315469MW1051REMSYN070AAXX  18094 67861 41965 01108 10285 21018 38761 48546 70500 333 59019;
0184678610999992000101812004-18220+028930FM-12+1282FVGO V0200701N003112200019N0200001N1+03101-00391999999ADDAY101061AY201061GA1001+999999999GF100991001001999999001001MA1999999087351MD1999999-0211ME1315219MW1051REMSYN070AAXX  18124 67861 41970 00706 10310 21039 38735 48521 70500 333 59021;
0184678610999992000101815004-18220+028930FM-12+1282FVGO V0200201N001012200019N0200001N1+02061-00551999999ADDAY101031AY201031GA1001+999999999GF100991001001999999001001MA1999999087231MD1999999-0171ME1315099MW1051REMSYN070AAXX  18154 67861 41970 00202 10206 21055 38723 48509 70500 333 59017;
0184678610999992000101900004-18220+028930FM-12+1282FVGO V0201301N002612200019N0150001N1+02201-00241999999ADDAY101061AY201061GA1001+999999999GF100991001001999999001001MA1999999087361MD1999999-0111ME1315199MW1051REMSYN070AAXX  19004 67861 41965 01305 10220 21024 38736 48519 70500 333 59011;
0245678610999992000101906004-18220+028930FM-12+1282FVGO V0201201N003112200019N0100001N1+02401+00201999999ADDAA199000091AY101061AY201061GA1011+090009019GF101991001001999999001021KA1120N+01921MA1999999087551MD1999999-0151ME1315359MW1051REMSYN088AAXX  19064 67861 31960 11206 10240 20020 38755 48535 70500 80002 333 20192 59015 81080;EQDQ01  00002PRCP99
0196678610999992000101909004-18220+028930FM-12+1282FVGO V0200401N003612200019N0100001N1+02861+00361999999ADDAY101031AY201031GA1031+999999019GF103991001001999999001021MA1999999087451MD1999999-0161ME1315299MW1051REMSYN082AAXX  19094 67861 41960 30407 10286 20036 38745 48529 70500 80002 333 59016 83099;
0196678610999992000101912004-18220+028930FM-12+1282FVGO V0201201N003612200019N0150001N1+03161-00081999999ADDAY101061AY201061GA1011+999999019GF101991001001999999001021MA1999999087181MD1999999-0171ME1315059MW1051REMSYN082AAXX  19124 67861 41965 11207 10316 21008 38718 48505 70500 80002 333 59017 81099;
0203678610999992000101918004-18220+028930FM-12+1282FVGO V0209999C000012200019N0150001N1+02401+00411999999ADDAY101061AY201061GA1001+999999999GF100991001001999999001001KA1120M+03241MA1999999087221MD1999999-0051ME1315069MW1051REMSYN076AAXX  19184 67861 41965 00000 10240 20041 38722 48506 70500 333 10324 59005;
0196678610999992000102003004-18220+028930FM-12+1282FVGO V0200901N003612200019N0200001N1+02121+00151999999ADDAY101031AY201031GA1011+999999019GF101991001001999999001021MA1999999087471MD1999999+0051ME1315299MW1051REMSYN082AAXX  20034 67861 41970 10907 10212 20015 38747 48529 70500 80002 333 58005 81099;
0245678610999992000102006004-18220+028930FM-12+1282FVGO V0201201N004112200019N0040001N1+02431+00411999999ADDAA199000091AY101061AY201061GA1011+999999019GF101991001001999999001021KA1120N+01991MA1999999087661MD1999999+0111ME1315499MW1051REMSYN088AAXX  20064 67861 31940 11208 10243 20041 38766 48549 70500 80002 333 20199 58011 81099;EQDQ01  00002PRCP99
0184678610999992000102009004-18220+028930FM-12+1282FVGO V0201301N005712200019N0045001N1+02811+00421999999ADDAY101031AY201031GA1001+999999999GF100991001001999999001001MA1999999087611MD1999999+0161ME1315469MW1051REMSYN070AAXX  20094 67861 41945 01311 10281 20042 38761 48546 70500 333 58016;
0215678610999992000102012004-18220+028930FM-12+1282FVGO V0200801N004612200019N0150001N1+03101+00041999999ADDAY101061AY201061GA1031+030009029GF103991031011999999001999MA1999999087351MD1999999+0171ME1315219MW1051REMSYN082AAXX  20124 67861 41965 30809 10310 20004 38735 48521 70500 83100 333 58017 83860;EQDQ01+000002SCOHCG
0215678610999992000102017004-18220+028930FM-12+1282FVGO V0201101N004112200019N0150001N1+03001+00181999999ADDAY101999AY201999GA1031+033009059GF103991031041999999999001MA1999999087311MD1999999+0181ME1315169MW1051REMSYN082AAXX  20174 67861 41965 31108 10300 20018 38731 48516 70500 83400 333 58018 83661;EQDQ01+000002SCOMCG
0213678610999992000102018004-18220+028930FM-12+1282FVGO V0201301N002612200019N0150001N1+02601+00091999999ADDAY101061AY201061GA1001+999999999GF100991001001999999001001KA1120M+03201MA1999999087441MD1812802+0221MW1051REMSYN076AAXX  20184 67861 41965 01305 10260 20009 38744 5828/ 70500 333 10320 58022;EQDQ01+002802APC3  
0184678610999992000102100004-18220+028930FM-12+1282FVGO V0201201N003612200019N0200001N1+01941+01241999999ADDAY101061AY201061GA1001+999999999GF100991001001999999001001MA1999999087571MD1999999+0211ME1315389MW1051REMSYN070AAXX  21004 67861 41970 01207 10194 20124 38757 48538 70500 333 58021;
0184678610999992000102103004-18220+028930FM-12+1282FVGO V0201401N003612200019N0200001N1+01711+01271999999ADDAY101031AY201031GA1001+999999999GF100991001001999999001001MA1999999087691MD1999999+0221ME1315489MW1051REMSYN070AAXX  21034 67861 41970 01407 10171 20127 38769 48548 70500 333 58022;
0203678610999992000102118004-18220+028930FM-12+1282FVGO V0200401N001012200019N0050001N1+02501+00391999999ADDAY101061AY201061GA1001+999999999GF100991001001999999001001KA1120M+03041MA1999999087581MD1999999+0141ME1315419MW1051REMSYN076AAXX  21184 67861 41950 00402 10250 20039 38758 48541 70500 333 10304 58014;
0187678610999992000102312004-18220+028930FM-12+1282FVGO V0200201N001512200019N0300001N1+02951+00591999999ADDGA1011+030009029GF101991011011999999001999MA1999999087391MD1999999-0131ME1315169REMSYN076AAXX  23124 67861 42980 10203 10295 20059 38739 48516 81100 333 59013 81860;EQDQ01+000002SCOHCG
0168678610999992000102315004-18220+028930FM-12+1282FVGO V0201201N001012200019N0300001N1+02931+00591999999ADDGA1011+030009029GF101991011011999999001011MA1999999087201MD1999999-0181ME1315049REMSYN076AAXX  23154 67861 42980 11202 10293 20059 38720 48504 81101 333 59018 81860;
0175678610999992000102318004-18220+028930FM-12+1282FVGO V0209999C000012200019N0250001N1+02251+00741999999ADDGA1001+999999999GF100991001001999999001001KA1120M+03001MA1999999087251MD1999999-0201ME1315089REMSYN070AAXX  23184 67861 42975 00000 10225 20074 38725 48508 333 10300 59020;
0184678610999992000102400004-18220+028930FM-12+1282FVGO V0209999C000012200019N0150001N1+01901+00831999999ADDAY101061AY201061GA1001+999999999GF100991001001999999001001MA1999999087221MD1999999-0221ME1315039MW1051REMSYN070AAXX  24004 67861 41965 00000 10190 20083 38722 48503 70500 333 59022;
0184678610999992000102403004-18220+028930FM-12+1282FVGO V0201201N001012200019N0100001N1+01951+00851999999ADDAY101031AY201031GA1001+999999999GF100991001001999999001001MA1999999087221MD1999999-0291ME1315049MW1051REMSYN070AAXX  24034 67861 41960 01202 10195 20085 38722 48504 70500 333 59029;
0168678610999992000102415004-18220+028930FM-12+1282FVGO V0200701N001012200019N0250001N1+03101+00681999999ADDGA1031+030009029GF103991031011999999041011MA1999999086961MD1999999-0241ME1314829REMSYN076AAXX  24154 67861 42975 30702 10310 20068 38696 48482 83141 333 59024 83860;
0206678610999992000102418004-18220+028930FM-12+1282FVGO V0209999C000012200019N0250001N1+02401+00951999999ADDGA1011+030009059GF101991011041999999999011KA1120M+03221MA1999999087081MD1999999-0171ME1314829REMSYN082AAXX  24184 67861 42975 10000 10240 20095 38708 48482 81401 333 10322 59017 81660;EQDQ01+000002SCOMCG
0168678610999992000102500004-18220+028930FM-12+1282FVGO V0201101N001512200019N0250001N1+02251+00741999999ADDGA1011+090009019GF101991001001999999001011MA1999999087091MD1999999-0131ME1314929REMSYN076AAXX  25004 67861 42975 11103 10225 20074 38709 48492 80001 333 59013 81080;
0174678610999992000102503004-18220+028930FM-12+1282FVGO V0200901N002119999999N0250001N1+02251+00661999999ADDGA1011+036009039GF106991011001999999031081MA1999999087171MD1999999-0051ME1315019REMSYN082AAXX  25034 67861 42975 60904 10225 20066 38717 48501 81038 333 59005 81362 86280;
0223678610999992000102506004-18220+028930FM-12+1282FVGO V0200501N003110360019N0250001N1+02561+00821999999ADDAA199000091GA1051+036009039GF107991051001999999031081KA1120N+01981MA1999999087361MD1999999-0091ME1315209REMSYN088AAXX  25064 67861 32975 70506 10256 20082 38736 48520 85038 333 20198 59009 85362 86280;EQDQ01  00002PRCP99
0174678610999992000102509004-18220+028930FM-12+1282FVGO V0203501N003619999999N0250001N1+03001+00671999999ADDGA1011+030009039GF107991011001999999031081MA1999999087411MD1999999+0061ME1315269REMSYN082AAXX  25094 67861 42975 73507 10300 20067 38741 48526 81038 333 58006 81360 86280;
0174678610999992000102512004-18220+028930FM-12+1282FVGO V0200301N003119999999N0250001N1+03271+00671999999ADDGA1011+030009089GF107991011011999999001081MA1999999087161MD1999999+0131ME1315039REMSYN082AAXX  25124 67861 42975 70306 10327 20067 38716 48503 81108 333 58013 81860 87280;
0174678610999992000102515004-18220+028930FM-12+1282FVGO V0203001N000519999999N0250001N1+03171+00651999999ADDGA1021+030009069GF107991021041999999031081MA1999999087051MD1999999+0091ME1314929REMSYN082AAXX  25154 67861 42975 73001 10317 20065 38705 48492 82438 333 58009 82660 85299;
0193678610999992000102518004-18220+028930FM-12+1282FVGO V0209999C000012200019N0220001N1+02931+00731999999ADDGA1011+030009039GF104991011001999999061081KA1120M+03341MA1999999087201MD1999999+0121ME1315059REMSYN088AAXX  25184 67861 42972 40000 10293 20073 38720 48505 81068 333 10334 58012 81360 84299;
0168678610999992000102603004-18220+028930FM-12+1282FVGO V0201801N002112200019N0250001N1+02351+00881999999ADDGA1011+030009079GF101991011001999999031001MA1999999087341MD1999999+0171ME1315189REMSYN076AAXX  26034 67861 42975 11804 10235 20088 38734 48518 81030 333 58017 81360;
0202678610999992000102609004-18220+028930FM-12+1282FVGO V0200301N004619999999N0100001N1+03151+01041999999ADDAY111031AY211031GA1031+030009039GF107991031001999999031081MA1999999087441MD1999999+0031ME1315319MW1051REMSYN088AAXX  26094 67861 41960 70309 10315 20104 38744 48531 70511 83038 333 58003 83360 87280;
0202678610999992000102615004-18220+028930FM-12+1282FVGO V0202501N001510300019N0150001N1+03001+00891999999ADDAY121031AY221031GA1051+030009089GF107991051021999999001081MA1999999087191MD1999999+0141ME1315049MW1051REMSYN088AAXX  26154 67861 41965 72503 10300 20089 38719 48504 70522 85208 333 58014 85860 87280;
0217678610999992000102706004-18220+028930FM-12+1282FVGO V0201201N005110300019N0300001N1+02211+01301999999ADDAA199000091GA1071+030009019GF107991071001999999071021KA1120N+01901MA1999999087631MD1999999+0131ME1315449REMSYN082AAXX  27064 67861 32980 71210 10221 20130 38763 48544 87072 333 20190 58013 87460;EQDQ01  00002PRCP99
0196678610999992000102709004-18220+028930FM-12+1282FVGO V0201501N006710300019N0400001N1+02201+01401999999ADDAY161031AY221031GA1071+030009019GF107991071001999999071999MA1999999087661MD1999999+0221ME1315479MW1601REMSYN082AAXX  27094 67861 41982 71513 10220 20140 38766 48547 76062 8707/ 333 58022 87460;
0215678610999992000102712004-18220+028930FM-12+1282FVGO V0201001N004110300019N0450001N1+02561+01471999999ADDAY161061AY221061GA1061+030009019GF106991061001999999071999MA1999999087501MD1999999+0261ME1315329MW1021REMSYN082AAXX  27124 67861 41983 61008 10256 20147 38750 48532 70262 86070 333 58026 86460;EQDQ01+000002SCOHCG
0168678610999992000102715004-18220+028930FM-12+1282FVGO V0201501N005710300019N0500001N1+02591+01441999999ADDGA1051+030009079GF105991051001999999031001MA1999999087411MD1999999+0221ME1315239REMSYN076AAXX  27154 67861 42984 51511 10259 20144 38741 48523 85030 333 58022 85360;
0174678610999992000102809004-18220+028930FM-12+1282FVGO V0201001N003110081019N0300001N1+02161+01551999999ADDGA1051+008109089GF107991051011008001071999MA1999999087711MD1999999+0051ME1315519REMSYN082AAXX  28094 67861 42580 71006 10216 20155 38771 48551 8517/ 333 58005 85827 86460;
0238678610999992000102906004-18220+028930FM-12+1282FVGO V0201001N00211045001CN0300001N1+01711+01571999999ADDAA124006191AY191061AY261061GA1011+002709079GF107991021051008001071999KA1120N+01531MA1999999087651MD1999999-0051ME1315429MW1601REMSYN100AAXX  29064 67861 11580 71004 10171 20157 38765 48542 60064 76096 8257/ 333 20153 59005 81709 87460;
0202678610999992000102909004-18220+028930FM-12+1282FVGO V02099999999990060019N0500001N1+02051+01561999999ADDAY161031AY221031GA1051+006009089GF107991051011008001031021MA1999999087571MD1999999-0141ME1315379MW1031REMSYN088AAXX  29094 67861 41584 78910 10205 20156 38757 48537 70362 85132 333 59014 85820 87360;
0224678610999992000102912004-18220+028930FM-12+1282FVGO V0200701N004610102019N0500001N1+02181+01511999999ADDAY161061AY221061GA1011+007509099GA2051+010209089GF107991051021012501071031MA1999999087371MD1999999-0121ME1315179MW1151REMSYN094AAXX  29124 67861 41684 70709 10218 20151 38737 48517 71562 85273 333 59012 81925 85834 88460;
0224678610999992000102915004-18220+028930FM-12+1282FVGO V0201401N00411045001CN0300001N1+02001+01661999999ADDAY191031AY281031GA1011+007509099GA2031+009009089GF107991011021012501071031MA1999999087251MD1999999-0091ME1315059MW1171REMSYN094AAXX  29154 67861 41680 71408 10200 20166 38725 48505 71798 81273 333 59009 81925 83830 86459;
0234678610999992000102918004-18220+028930FM-12+1282FVGO V0201301N001010270019N0250001N1+01851+01781999999ADDAY191061AY281061GA1051+027009019GF105991999001999999071021KA1120M+02271MA1999999087331MD1999999-0231ME1315109MW1021REMSYN088AAXX  29184 67861 41975 51302 10185 20178 38733 48510 70298 87072 333 10227 59023 85459;EQDQ01+000072SCOTLC
0168678610999992000103000004-18220+028930FM-12+1282FVGO V0201101N004612200019N0250001N1+01701+01541999999ADDGA1021+027009079GF102991021001999999031021MA1999999087211MD1999999-0331ME1315019REMSYN076AAXX  30004 67861 42975 21109 10170 20154 38721 48501 82032 333 59033 82359;
0168678610999992000103003004-18220+028930FM-12+1282FVGO V0200901N003612200019N0250001N1+01701+01541999999ADDGA1011+027009079GF101991011001999999041021MA1999999087201MD1999999-0281ME1315009REMSYN076AAXX  30034 67861 42975 10907 10170 20154 38720 48500 81042 333 59028 81359;
0210678610999992000103006004-18220+028930FM-12+1282FVGO V0201101N00411045001CN0300001N1+01961+01641999999ADDAA124007191GA1011+004509089GF107991011011004501081021KA1120N+01631MA1999999087421MD1999999-0251ME1315229REMSYN094AAXX  30064 67861 12480 71108 10196 20164 38742 48522 60074 81182 333 20163 59025 81815 86359;
0168678610999992000103009004-18220+028930FM-12+1282FVGO V0200801N001510117019N0500001N1+02481+01561999999ADDGA1051+011709029GF105991051021012501001001MA1999999087371MD1999999-0201ME1315199REMSYN076AAXX  30094 67861 42684 50803 10248 20156 38737 48519 85200 333 59020 85839;
0202678610999992000103012004-18220+028930FM-12+1282FVGO V0201801N004110150019N0400001N1+02101+01611999999ADDAY191061AY281061GA1011+012009099GF107991061021017501071031MA1999999087171MD1999999-0201ME1314989MW1911REMSYN088AAXX  30124 67861 41782 71808 10210 20161 38717 48498 79198 86273 333 59020 81940 86850;
0202678610999992000103015004-18220+028930FM-12+1282FVGO V0201701N00051045001CN0500001N1+02221+01701999999ADDAY161031AY221031GA1011+012009099GF107991021021017501071031MA1999999087081MD1999999-0171ME1314889MW1211REMSYN088AAXX  30154 67861 41784 71701 10222 20170 38708 48488 72162 82273 333 59017 81940 87460;
0215678610999992000103018004-18220+028930FM-12+1282FVGO V0201301N004112200019N0500001N1+01981+01531999999ADDAY161061AY211061GA1011+012009099GF103991011091012501031031KA1120M+02741MA1999999087281MD1999999-0051ME1315099MW1131REMSYN088AAXX  30184 67861 41684 31308 10198 20153 38728 48509 71361 81933 333 10274 59005 81940;
0168678610999992000103100004-18220+028930FM-12+1282FVGO V0201301N003112200019N0300001N1+01771+01631999999ADDGA1041+030009079GF104991041001999999031001MA1999999087331MD1999999+0121ME1315139REMSYN076AAXX  31004 67861 42980 41306 10177 20163 38733 48513 84030 333 58012 84360;
0238678610999992000103106004-18220+028930FM-12+1282FVGO V0200801N00361045001CN0300001N1+01981+01581999999ADDAA124002091AY191061AY211061GA1011+006009099GF107991021021012501071031KA1120N+01611MA1999999087521MD1999999+0101ME1315329MW1171REMSYN100AAXX  31064 67861 11680 70807 10198 20158 38752 48532 60024 71791 82273 333 20161 58010 81920 86460;
0224678610999992000103109004-18220+028930FM-12+1282FVGO V0200901N000510450019N0200001N1+01671+01551999999ADDAY191031AY261031GA1041+002709079GA2021+007509099GF107991021091008001071021MA1999999087561MD1999999+0191ME1315329MW1951REMSYN094AAXX  31094 67861 41570 70901 10167 20155 38756 48532 79596 82972 333 58019 82925 84709 87460;
0196678610999992000103112004-18220+028930FM-12+1282FVGO V0201501N001012200019N0500001N1+02271+01511999999ADDAY191061AY261061GA1011+012009099GF101991011091012501041031MA1999999087211MD1999999+0041ME1315039MW1021REMSYN082AAXX  31124 67861 41684 11502 10227 20151 38721 48503 70296 81943 333 58004 81940;
0202678610999992000103115004-18220+028930FM-12+1282FVGO V0209999C00001045001CN0300001N1+02401+01541999999ADDAY191031AY261031GA1011+012009099GF107991031021012501071031MA1999999087171MD1999999+0091ME1314939MW1951REMSYN088AAXX  31154 67861 41680 70000 10240 20154 38717 48493 79596 83273 333 58009 81940 85460;
0221678610999992000103118004-18220+028930FM-12+1282FVGO V0201501N00101045001CN0250001N1+02071+00741999999ADDAY191061AY261061GA1011+012009099GF107991011091012501071031KA1120M+02641MA1999999087291MD1999999+0011ME1315099MW1131REMSYN094AAXX  31184 67861 41675 71502 10207 20074 38729 48509 71396 81973 333 10264 58001 81940 85460;
0168678610999992000110100004-18220+028930FM-12+1282FVGO V0203301N002612200019N0300001N1+01601+01441999999ADDGA1011+030009079GF101991011001999999041001MA1999999087291MD1999999-0041ME1315089REMSYN076AAXX  01004 67861 42980 13305 10160 20144 38729 48508 81040 333 59004 81360;
0168678610999992000110103004-18220+028930FM-12+1282FVGO V0203501N002610300019N0300001N1+01551+01381999999ADDGA1061+030009079GF106991061001999999071021MA1999999087291MD1999999-0091ME1315089REMSYN076AAXX  01034 67861 42980 63505 10155 20138 38729 48508 86072 333 59009 86360;
0232678610999992000110106004-18220+028930FM-12+1282FVGO V0203601N00411045001CN0450001N1+01761+01381999999ADDAA124008991GA1011+002709079GA2031+030009049GF107991011061002501071081KA1120N+01451MA1999999087501MD1999999-0021ME1315289REMSYN100AAXX  01064 67861 12383 73608 10176 20138 38750 48528 60094 81678 333 20145 59002 81709 83460 85299;
0174678610999992000110109004-18220+028930FM-12+1282FVGO V0203301N00261105001CN0500001N1+02201+01501999999ADDGA1031+009309089GF107991031011012501001081MA1999999087391MD1999999-0171ME1315199REMSYN082AAXX  01094 67861 42684 73305 10220 20150 38739 48519 83108 333 59017 83831 87280;
0174678610999992000110112004-18220+028930FM-12+1282FVGO V0203501N00211105001CN0500001N1+02341+01211999999ADDGA1031+012609089GF107991031011012501001081MA1999999087231MD1999999+0021ME1315939REMSYN082AAXX  01124 67861 42684 73504 10234 20121 38723 48593 83108 333 58002 83842 87280;
0174678610999992000110115004-18220+028930FM-12+1282FVGO V0203301N00411105001CN0500001N1+02431+01451999999ADDGA1011+013509069GF107991011041012501001081MA1999999087001MD1999999-0171ME1314819REMSYN082AAXX  01154 67861 42684 73308 10243 20145 38700 48481 81408 333 59017 81645 87280;
0187678610999992000110118004-18220+028930FM-12+1282FVGO V0209999C000012200019N0300001N1+01961+01561999999ADDGA1011+090009019GF102991001001999999001021KA1120M+02501MA1999999087091MD1999999-0201ME1314899REMSYN082AAXX  01184 67861 42980 20000 10196 20156 38709 48489 80002 333 10250 59020 81080;
0168678610999992000110200004-18220+028930FM-12+1282FVGO V0201101N003110270019N0250001N1+02051+01411999999ADDGA1071+027009079GF107991071001999999031021MA1999999087071MD1999999-0221ME1314899REMSYN076AAXX  02004 67861 42975 71106 10205 20141 38707 48489 87032 333 59022 87359;
0168678610999992000110203004-18220+028930FM-12+1282FVGO V0201001N003610300019N0250001N1+01921+01411999999ADDGA1071+030009019GF107991071001999999081021MA1999999087141MD1999999-0051ME1314959REMSYN076AAXX  02034 67861 42975 71007 10192 20141 38714 48495 87082 333 59005 87460;
0217678610999992000110206004-18220+028930FM-12+1282FVGO V0200601N001010270019N0300001N1+02101+01461999999ADDAA199000091GA1061+027009079GF107991061001999999031021KA1120N+01691MA1999999087281MD1999999-0221ME1315099REMSYN082AAXX  02064 67861 32980 70602 10210 20146 38728 48509 86032 333 20169 59022 86359;EQDQ01  00002PRCP99
0174678610999992000110209004-18220+028930FM-12+1282FVGO V0200101N00311105001CN0500001N1+02631+01561999999ADDGA1021+013809089GF105991021021012501031021MA1999999087171MD1999999-0221ME1314939REMSYN082AAXX  02094 67861 42684 50106 10263 20156 38717 48493 82232 333 59022 82846 84360;
0196678610999992000110212004-18220+028930FM-12+1282FVGO V0200401N001510150019N0500001N1+02761+01441999999ADDAY121061AY221061GA1051+015009029GF106991051021017501001021MA1999999086851MD1999999-0381ME1314699MW1151REMSYN082AAXX  02124 67861 41784 60403 10276 20144 38685 48469 71522 85202 333 59038 85850;
0221678610999992000110218004-18220+028930FM-12+1282FVGO V0201001N00211045001CN0250001N1+01881+01601999999ADDAY191061AY281061GA1011+012009099GF107991011091012501071031KA1120M+02881MA1999999087011MD1999999-0081ME1314819MW1131REMSYN094AAXX  02184 67861 41675 71004 10188 20160 38701 48481 71398 81973 333 10288 59008 81940 87460;
0174678610999992000110300004-18220+028930FM-12+1282FVGO V0200901N003119999999N0300001N1+01841+01441999999ADDGA1041+030009049GF107991041001999999071081MA1999999086881MD1999999-0191ME1314689REMSYN082AAXX  03004 67861 42980 70906 10184 20144 38688 48468 84078 333 59019 84460 87299;
0202678610999992000110303004-18220+028930FM-12+1282FVGO V0201201N003610300019N0250001N1+01731+01531999999ADDAY161031AY221031GA1061+030009049GF107991061001008001071031MA1999999086921MD1999999-0221ME1314719MW1601REMSYN088AAXX  03034 67861 41575 71207 10173 20153 38692 48471 76062 86073 333 59022 86460 85299;
0260678610999992000110306004-18220+028930FM-12+1282FVGO V0201901N00671002701CN0050001N1+01691+01551999999ADDAA124052191AY191061AY261061GA1051+002709079GA2011+007509099GF107991051061002501071031KA1120N+01621MA1999999087101MD1999999-0181ME1314889MW1171REMSYN106AAXX  03064 67861 11350 71913 10169 20155 38710 48488 60524 71796 85673 333 20162 59018 81925 85709 87460;
0224678610999992000110309004-18220+028930FM-12+1282FVGO V0201201N00621002701CN0250001N1+01551+01471999999ADDAY191031AY261031GA1051+002709079GA2021+007509099GF108991021091008001071031MA1999999087271MD1999999+0101ME1315049MW1951REMSYN094AAXX  03094 67861 41575 81212 10155 20147 38727 48504 79596 82973 333 58010 82925 85709 88460;
0202678610999992000110312004-18220+028930FM-12+1282FVGO V0200901N00211045001CN0500001N1+01951+01411999999ADDAY191061AY261061GA1011+009009099GF107991011011012501071031MA1999999087051MD1999999+0251ME1314859MW1601REMSYN088AAXX  03124 67861 41684 70904 10195 20141 38705 48485 76096 81173 333 58025 81930 87460;
0221678610999992000110318004-18220+028930FM-12+1282FVGO V0203001N00101045001CN0300001N1+01721+01601999999ADDAY191061AY261061GA1011+009009069GF105991011041012501031001KA1120M+02101MA1999999087021MD1999999+0011ME1314809MW1021REMSYN094AAXX  03184 67861 41680 53002 10172 20160 38702 48480 70296 81430 333 10210 58001 81630 85360;
0156678610999992000110400004-18220+028930FM-12+1282FVGO V0200201N000512200019N0300001N1+01651+01451999999ADDGA1001+999999999GF100991001001999999001001MA1999999087001MD1999999+0121ME1314809REMSYN064AAXX  04004 67861 42980 00201 10165 20145 38700 48480 333 58012;
0168678610999992000110403004-18220+028930FM-12+1282FVGO V0209999C000012200019N0300001N1+01501+01341999999ADDGA1011+030009079GF101991011001999999041001MA1999999087101MD1999999+0181ME1314889REMSYN076AAXX  04034 67861 42980 10000 10150 20134 38710 48488 81040 333 58018 81360;
0204678610999992000110406004-18220+028930FM-12+1282FVGO V0202701N001012200019N0500001N1+02221+01571999999ADDAA124013091GA1011+030009079GF101991011001999999081021KA1120N+01471MA1999999087401MD1999999+0301ME1315219REMSYN088AAXX  04064 67861 12984 12702 10222 20157 38740 48521 60134 81082 333 20147 58030 81360;
0168678610999992000110415004-18220+028930FM-12+1282FVGO V0203401N001512200019N0300001N1+02811+01431999999ADDGA1031+018009029GF103991031021017501001021MA1999999087091MD1999999+0151ME1314939REMSYN076AAXX  04154 67861 42780 33403 10281 20143 38709 48493 83202 333 58015 83856;
0187678610999992000110418004-18220+028930FM-12+1282FVGO V0209999C000012200019N0300001N1+02251+01461999999ADDGA1011+027009079GF101991011001999999061021KA1120M+02951MA1999999087281MD1999999+0261ME1315139REMSYN082AAXX  04184 67861 42980 10000 10225 20146 38728 48513 81062 333 10295 58026 81359;
0168678610999992000110500004-18220+028930FM-12+1282FVGO V0209999C000012200019N0250001N1+02171+01041999999ADDGA1011+030009079GF101991011001999999041021MA1999999087041MD1999999+0241ME1315069REMSYN076AAXX  05004 67861 42975 10000 10217 20104 38704 48506 81042 333 58024 81360;
0168678610999992000110503004-18220+028930FM-12+1282FVGO V0200601N001012200019N0250001N1+02251+01371999999ADDGA1011+030009079GF102991011001999999031021MA1999999087351MD1999999+0251ME1315199REMSYN076AAXX  05034 67861 42975 20602 10225 20137 38735 48519 81032 333 58025 81360;
0221678610999992000110506004-18220+028930FM-12+1282FVGO V0200201N002612200019N0450001N1+01951+01661999999ADDAA199000091GA1001+999999999GF100991001001999999001001KA1120N+99999MA1999999087571MD1999999+0171ME1315379REMSYN070AAXX  05064 67861 32983 00205 10195 20166 38757 48537 333 20205 58017;EQDQ01  00002PRCP99Q02 +02052ATMN  
0168678610999992000110509004-18220+028930FM-12+1282FVGO V0201501N004612200019N0500001N1+02831+01391999999ADDGA1021+018009029GF102991021021022501001021MA1999999087531MD1999999+0201ME1315379REMSYN076AAXX  05094 67861 42884 21509 10283 20139 38753 48537 82202 333 58020 82856;
0168678610999992000110512004-18220+028930FM-12+1282FVGO V0200301N004112200019N0500001N1+03021+01091999999ADDGA1041+024009029GF104991041021999999001021MA1999999087281MD1999999+0141ME1315139REMSYN076AAXX  05124 67861 42984 40308 10302 20109 38728 48513 84202 333 58014 84858;
0202678610999992000110515004-18220+028930FM-12+1282FVGO V0203301N006219999999N0500001N1+02841+00801999999ADDAY111031AY211031GA1011+021009099GF107991051021999999071031MA1999999087241MD1999999+0151ME1315089MW1151REMSYN088AAXX  05154 67861 41984 73312 10284 20080 38724 48508 71511 85273 333 58015 81957 85859;
0193678610999992000110518004-18220+028930FM-12+1282FVGO V0200301N001012200019N0300001N1+02601+00811999999ADDGA1011+030009039GF103991011001999999031021KA1120M+03111MA1999999087371MD1999999+0091ME1315219REMSYN088AAXX  05184 67861 42980 30302 10260 20081 38737 48521 81032 333 10311 58009 81360 83099;
0168678610999992000110603004-18220+028930FM-12+1282FVGO V0203501N004112200019N0350001N1+01951+01291999999ADDGA1011+030009079GF101991011001999999031021MA1999999087361MD1999999+0011ME1315189REMSYN076AAXX  06034 67861 42981 13508 10195 20129 38736 48518 81032 333 58001 81360;
0217678610999992000110606004-18220+028930FM-12+1282FVGO V0203601N002612200019N0500001N1+02301+01491999999ADDAA199000091GA1011+030009079GF101991011001999999041021KA1120N+01851MA1999999087531MD1999999-0041ME1315359REMSYN082AAXX  06064 67861 32984 13605 10230 20149 38753 48535 81042 333 20185 59004 81360;EQDQ01  00002PRCP99
0168678610999992000110609004-18220+028930FM-12+1282FVGO V0200501N004112200019N0500001N1+02701+01281999999ADDGA1021+018009029GF102991021011017501001011MA1999999087411MD1999999-0121ME1315249REMSYN076AAXX  06094 67861 42784 20508 10270 20128 38741 48524 82101 333 59012 82856;
0168678610999992000110612004-18220+028930FM-12+1282FVGO V0200801N003110210019N0500001N1+02971+01081999999ADDGA1051+021009029GF105991051021022501001001MA1999999087141MD1999999-0141ME1314999REMSYN076AAXX  06124 67861 42884 50806 10297 20108 38714 48499 85200 333 59014 85857;
0168678610999992000110615004-18220+028930FM-12+1282FVGO V0200701N001512200019N0500001N1+02951+00831999999ADDGA1031+015009029GF103991031021999999001021MA1999999087071MD1999999-0121ME1314919REMSYN076AAXX  06154 67861 42984 30703 10295 20083 38707 48491 83202 333 59012 83850;
0215678610999992000110618004-18220+028930FM-12+1282FVGO V0209999C000010300019N0300001N1+02551+01091999999ADDAY161061AY211061GA1071+030009019GF107991071001999999071999KA1120M+03071MA1999999087211MD1999999-0161ME1315059MW1211REMSYN088AAXX  06184 67861 41980 70000 10255 20109 38721 48505 72161 8707/ 333 10307 59016 87460;
0204678610999992000110706004-18220+028930FM-12+1282FVGO V0200801N004612200019N0500001N1+02191+01411999999ADDAA124000791GA1011+009909029GF101991011011012501031021KA1120N+01761MA1999999087321MD1999999-0211ME1315149REMSYN088AAXX  07064 67861 12684 10809 10219 20141 38732 48514 69904 81132 333 20176 59021 81833;
0168678610999992000110709004-18220+028930FM-12+1282FVGO V0200501N003612200019N0500001N1+02621+01361999999ADDGA1011+015009029GF101991011011017501001001MA1999999087311MD1999999-0101ME1315149REMSYN076AAXX  07094 67861 42784 10507 10262 20136 38731 48514 81100 333 59010 81850;
0196678610999992000110715004-18220+028930FM-12+1282FVGO V0200801N003619999999N0500001N1+02901+00881999999ADDGA1011+024009099GA2031+024009089GF105991031021999999061061MA1999999086941MD1999999-0131ME1314789REMSYN088AAXX  07154 67861 42984 50807 10290 20088 38694 48478 83266 333 59013 81958 83858 85299;
0217678610999992000110806004-18220+028930FM-12+1282FVGO V0200101N004612200019N0500001N1+02231+01411999999ADDAA199000091GA1011+010809029GF102991011011012501031021KA1120N+01811MA1999999087491MD1999999+0171ME1315309REMSYN082AAXX  08064 67861 32684 20109 10223 20141 38749 48530 81132 333 20181 58017 81836;EQDQ01  00002PRCP99
0122678610999992000110809004-18220+028930FM-12+1282FVGO V0202701N003112200019N0500001N1+02651+01351999999ADDGF103991031011017501031021MA1999999087471ME1315309REMSYN060AAXX  08094 67861 42784 32706 10265 20135 38747 48530 83132;
0196678610999992000110812004-18220+028930FM-12+1282FVGO V0200101N00261105001CN0500001N1+02841+01251999999ADDGA1011+015009099GA2031+021009089GF106991031021022501001031MA1999999087171MD1999999+0081ME1315019REMSYN088AAXX  08124 67861 42884 60105 10284 20125 38717 48501 83203 333 58008 81950 83857 85080;
0221678610999992000110818004-18220+028930FM-12+1282FVGO V0201201N00311045001CN0300001N1+01831+01561999999ADDAY191061AY261061GA1011+015009099GF107991011091022501071031KA1120M+02951MA1999999087241MD1999999+0131ME1315039MW1291REMSYN094AAXX  08184 67861 41880 71206 10183 20156 38724 48503 72996 81973 333 10295 58013 81950 87460;
0196678610999992000110900004-18220+028930FM-12+1282FVGO V0203601N002110300019N0300001N1+01951+01311999999ADDAY191061AY261061GA1071+030009019GF107991071001999999071999MA1999999087201MD1999999+0021ME1315029MW1021REMSYN082AAXX  09004 67861 41980 73604 10195 20131 38720 48502 70296 8707/ 333 58002 87460;
0168678610999992000110903004-18220+028930FM-12+1282FVGO V0203601N001510300019N0300001N1+01831+01541999999ADDGA1071+030009019GF107991071001999999071999MA1999999087211MD1999999-0031ME1315019REMSYN076AAXX  09034 67861 42980 73603 10183 20154 38721 48501 8707/ 333 59003 87460;
0202678610999992000110909004-18220+028930FM-12+1282FVGO V0200601N00261045001CN0500001N1+02351+01601999999ADDAY161031AY221031GA1011+009009089GF107991011011012501071021MA1999999087311MD1999999-0161ME1315119MW1211REMSYN088AAXX  09094 67861 41684 70605 10235 20160 38731 48511 72162 81172 333 59016 81830 87460;
0202678610999992000110912004-18220+028930FM-12+1282FVGO V0202701N001012200019N0500001N1+02701+01501999999ADDAY161061AY211061GA1011+015009099GF104991031021017501031031MA1999999086961MD1999999-0211ME1314799MW1151REMSYN088AAXX  09124 67861 41784 42702 10270 20150 38696 48479 71561 83233 333 59021 81950 83850;
0202678610999992000110915004-18220+028930FM-12+1282FVGO V0201301N00261045001CN0035001N1+01751+01531999999ADDAY191031AY281031GA1021+013509099GF107991021091012501071031MA1999999087031MD1999999-0041ME1314819MW1951REMSYN088AAXX  09154 67861 41635 71305 10175 20153 38703 48481 79598 82973 333 59004 82945 86459;
0215678610999992000110918004-18220+028930FM-12+1282FVGO V0200201N002110300019N0300001N1+02001+01261999999ADDAY191061AY281061GA1071+030009019GF107991071001999999071999KA1120M+02861MA1999999087101MD1999999-0141ME1314909MW1021REMSYN088AAXX  09184 67861 41980 70204 10200 20126 38710 48490 70298 8707/ 333 10286 59014 87460;
0168678610999992000111000004-18220+028930FM-12+1282FVGO V0203601N000512200019N0300001N1+01851+01251999999ADDGA1011+030009079GF101991011001999999041001MA1999999087121MD1999999-0081ME1314939REMSYN076AAXX  10004 67861 42980 13601 10185 20125 38712 48493 81040 333 59008 81360;
0204678610999992000111006004-18220+028930FM-12+1282FVGO V0202701N003112200019N0500001N1+02101+01471999999ADDAA124007991GA1011+030009079GF101991011001999999041001KA1120N+01641MA1999999087231MD1999999-0081ME1315049REMSYN088AAXX  10064 67861 12984 12706 10210 20147 38723 48504 60084 81040 333 20164 59008 81360;
0168678610999992000111009004-18220+028930FM-12+1282FVGO V0200301N003112200019N0500001N1+02491+01491999999ADDGA1011+012609029GF101991011011012501001021MA1999999087181MD1999999-0131ME1314999REMSYN076AAXX  10094 67861 42684 10306 10249 20149 38718 48499 81102 333 59013 81842;
0168678610999992000111012004-18220+028930FM-12+1282FVGO V0200701N001012200019N0500001N1+02781+01231999999ADDGA1021+018009029GF102991021011022501001001MA1999999086951MD1999999-0011ME1314799REMSYN076AAXX  10124 67861 42884 20702 10278 20123 38695 48479 82100 333 59001 82856;
0168678610999992000111015004-18220+028930FM-12+1282FVGO V0209999C000012200019N0500001N1+02911+01211999999ADDGA1011+021009099GF102991021021022501001031MA1999999086731MD1999999-0301ME1314579REMSYN076AAXX  10154 67861 42884 20000 10291 20121 38673 48457 82203 333 59030 81957;
0196678610999992000111100004-18220+028930FM-12+1282FVGO V0200501N001012200019N0300001N1+02151+01291999999ADDAY111061AY211061GA1011+018009099GF102991011091017501031031MA1999999086981MD1999999-0141ME1314819MW1131REMSYN082AAXX  11004 67861 41780 20502 10215 20129 38698 48481 71311 81933 333 59014 81956;
0217678610999992000111106004-18220+028930FM-12+1282FVGO V0200601N002112200019N0400001N1+02301+01681999999ADDAA199000091GA1011+018009099GF103991011021017501031031KA1120N+01801MA1999999087301MD1999999+0071ME1315139REMSYN082AAXX  11064 67861 32782 30604 10230 20168 38730 48513 81233 333 20180 58007 81956;EQDQ01  00002PRCP99
0174678610999992000111109004-18220+028930FM-12+1282FVGO V0201001N00211105001CN0500001N1+02641+01391999999ADDGA1011+018009099GF105991021021017501031031MA1999999087241MD1999999+0061ME1315079REMSYN082AAXX  11094 67861 42784 51004 10264 20139 38724 48507 82233 333 58006 81956 83080;
0202678610999992000111112004-18220+028930FM-12+1282FVGO V0200901N00101045001CN0500001N1+02941+01081999999ADDAY191061AY221061GA1011+018009099GF105991031021022501031031MA1999999087011MD1999999+0061ME1314859MW1291REMSYN088AAXX  11124 67861 41884 50902 10294 20108 38701 48485 72992 83233 333 58006 81956 83857;
0224678610999992000111115004-18220+028930FM-12+1282FVGO V0209999C00001045001CN0500001N1+02771+01121999999ADDAY191031AY221031GA1011+018009099GA2031+021009089GF107991031021022501071031MA1999999086871MD1999999+0141ME1314719MW1021REMSYN094AAXX  11154 67861 41884 70000 10277 20112 38687 48471 70292 83273 333 58014 81956 83857 85080;
0173678610999992000111118004-18220+028930FM-12+1282FVGO V0202501N005710450019N0300001N1+02401+01161999999ADDAY191061AY221061GF107991011091017501071081KA1999M+03031MA1999999087091ME1314929MW1131REMSYN076AAXX  11184 67861 41780 72511 10240 20116 38709 48492 71392 81978 333 10303;
0202678610999992000111200004-18220+028930FM-12+1282FVGO V0202001N00051045001CN0300001N1+01951+01201999999ADDAY121061AY221061GA1011+015009099GF107991011091017501031081MA1999999086981MD1999999+0001ME1314799MW1131REMSYN088AAXX  12004 67861 41780 72001 10195 20120 38698 48479 71322 81938 333 58000 81950 87280;
0168678610999992000111203004-18220+028930FM-12+1282FVGO V0200901N003112200019N0300001N1+01851+01341999999ADDGA1031+027009079GF103991031001999999081021MA1999999087081MD1999999-0051ME1314899REMSYN076AAXX  12034 67861 42980 30906 10185 20134 38708 48489 83082 333 59005 83359;
0217678610999992000111206004-18220+028930FM-12+1282FVGO V0200301N004612200019N0300001N1+02251+01551999999ADDAA199000091GA1011+027009079GF102991011001999999081021KA1120N+01771MA1999999087261MD1999999-0041ME1315099REMSYN082AAXX  12064 67861 32980 20309 10225 20155 38726 48509 81082 333 20177 59004 81359;EQDQ01  00002PRCP99
0174678610999992000111212004-18220+028930FM-12+1282FVGO V0203301N004112200019N0500001N1+02981+01461999999ADDGA1011+018009099GF104991041021017501001031MA1999999086841MD1999999-0171ME1314699REMSYN082AAXX  12124 67861 42784 43308 10298 20146 38684 48469 84203 333 59017 81956 84856;
0196678610999992000111215004-18220+028930FM-12+1282FVGO V0203401N002612200019N0500001N1+02981+01241999999ADDAY191031AY201031GA1011+018009099GF102991021021022501061031MA1999999086741MD1999999-0131ME1314599MW1021REMSYN082AAXX  12154 67861 41884 23405 10298 20124 38674 48459 70290 82263 333 59013 81956;
0215678610999992000111218004-18220+028930FM-12+1282FVGO V0200801N002112200019N0500001N1+02401+01411999999ADDAY191061AY201061GA1011+018009099GF104991021021022501061031KA1120M+03041MA1999999086941MD1999999-0151ME1314779MW1131REMSYN088AAXX  12184 67861 41884 40804 10240 20141 38694 48477 71390 82263 333 10304 59015 81956;
0174678610999992000111303004-18220+028930FM-12+1282FVGO V0200701N00211045001CN0300001N1+01751+01541999999ADDGA1011+015009099GF106991011091017501031081MA1999999086921MD1999999-0161ME1314729REMSYN082AAXX  13034 67861 42780 60704 10175 20154 38692 48472 81938 333 59016 81950 86280;
0223678610999992000111306004-18220+028930FM-12+1282FVGO V0200101N002119999999N0500001N1+02261+01561999999ADDAA199000091GA1041+030009039GF107991041001999999081081KA1120N+01701MA1999999087191MD1999999-0071ME1315019REMSYN088AAXX  13064 67861 32984 70104 10226 20156 38719 48501 84088 333 20170 59007 84360 86280;EQDQ01  00002PRCP99
0174678610999992000111309004-18220+028930FM-12+1282FVGO V0201201N00361045001CN0500001N1+02631+01311999999ADDGA1011+015009089GF106991011011017501031021MA1999999087221MD1999999+0071ME1315059REMSYN082AAXX  13094 67861 42784 61207 10263 20131 38722 48505 81132 333 58007 81850 83360;
0221678610999992000111318004-18220+028930FM-12+1282FVGO V0209999C000012200019N0300001N1+02301+01081999999ADDAY111061AY211061GA1011+021009099GF103991011091022501061031KA1120M+02941MA1999999086971MD1999999+0031ME1314799MW1131REMSYN094AAXX  13184 67861 41880 30000 10230 20108 38697 48479 71311 81963 333 10294 58003 81957 83080;
0168678610999992000111403004-18220+028930FM-12+1282FVGO V0209999C000012200019N0350001N1+01701+01391999999ADDGA1011+030009079GF101991011001999999041001MA1999999087031MD1999999+0111ME1314839REMSYN076AAXX  14034 67861 42981 10000 10170 20139 38703 48483 81040 333 58011 81360;
0205678610999992000111406004-18220+028930FM-12+1282FVGO V0200501N003112200019N0500001N1+02431+01311999999ADDAA199000091GA1001+999999999GF100991001001999999001001KA1120N+01651MA1999999087161MD1999999-0031ME1314999REMSYN070AAXX  14064 67861 32984 00506 10243 20131 38716 48499 333 20165 59003;EQDQ01  00002PRCP99
0196678610999992000111409004-18220+028930FM-12+1282FVGO V0200301N001512200019N0500001N1+02801+01311999999ADDAY101031AY201031GA1011+018009099GF102991021021017501001031MA1999999087081MD1999999-0141ME1314929MW1151REMSYN082AAXX  14094 67861 41784 20303 10280 20131 38708 48492 71500 82203 333 59014 81956;
0206678610999992000111415004-18220+028930FM-12+1282FVGO V0209999C000012200019N0500001N1+02951+01261999999ADDAY101031AY201031GA1031+039009029GF104991999999999999999999MA1999999086751MD1999999-0141ME1314609MW1151REMSYN092AAXX  14154 67861 41984 40000 10295 20126 38675 48460 71500 333 83263 555 59014 81958 83858;
0215678610999992000111418004-18220+028930FM-12+1282FVGO V0209999C000012200019N0300001N1+02451+01291999999ADDAY101061AY201061GA1011+024009099GF101991011091999999061031KA1120M+03241MA1999999086891MD1999999-0081ME1314739MW1131REMSYN088AAXX  14184 67861 41980 10000 10245 20129 38689 48473 71300 81963 333 10324 59008 81958;
0196678610999992000111500004-18220+028930FM-12+1282FVGO V0200901N005712200019N0300001N1+02051+01411999999ADDAY101061AY201061GA1011+021009099GF101991011091022501031031MA1999999087051MD1999999+0051ME1314879MW1131REMSYN082AAXX  15004 67861 41880 10911 10205 20141 38705 48487 71300 81933 333 58005 81957;
0168678610999992000111503004-18220+028930FM-12+1282FVGO V0200901N005112200019N0300001N1+01901+01421999999ADDGA1041+027009079GF104991041001999999081021MA1999999087101MD1999999+0071ME1314919REMSYN076AAXX  15034 67861 42980 40910 10190 20142 38710 48491 84082 333 58007 84359;
0217678610999992000111506004-18220+028930FM-12+1282FVGO V0201101N004612200019N0300001N1+02191+01501999999ADDAA199000091GA1041+027009079GF104991041001999999081021KA1120N+01791MA1999999087251MD1999999+0041ME1315079REMSYN082AAXX  15064 67861 32980 41109 10219 20150 38725 48507 84082 333 20179 58004 84359;EQDQ01  00002PRCP99
0168678610999992000111509004-18220+028930FM-12+1282FVGO V0200801N003612200019N0500001N1+02671+01441999999ADDGA1021+015009029GF102991021011017501001021MA1999999087211MD1999999+0131ME1315049REMSYN076AAXX  15094 67861 42784 20807 10267 20144 38721 48504 82102 333 58013 82850;
0174678610999992000111512004-18220+028930FM-12+1282FVGO V0200401N002110210019N0500001N1+03031+01261999999ADDGA1011+021009099GF105991051021022501001031MA1999999086901MD1999999+0031ME1314759REMSYN082AAXX  15124 67861 42884 50404 10303 20126 38690 48475 85203 333 58003 81957 85857;
0168678610999992000111515004-18220+028930FM-12+1282FVGO V0203301N000512200019N0500001N1+03001+01081999999ADDGA1011+024009099GF102991021021999999061031MA1999999086791MD1999999+0041ME1314649REMSYN076AAXX  15154 67861 42984 23301 10300 20108 38679 48464 82263 333 58004 81958;
0215678610999992000111518004-18220+028930FM-12+1282FVGO V0201401N004112200019N0500001N1+02351+01241999999ADDAY191061AY211061GA1011+024009099GF102991011091999999061031KA1120M+03101MA1999999086961MD1999999+0071ME1314799MW1171REMSYN088AAXX  15184 67861 41984 21408 10235 20124 38696 48479 71791 81963 333 10310 58007 81958;
0196678610999992000111600004-18220+028930FM-12+1282FVGO V0201301N003612200019N0500001N1+01841+01191999999ADDAY191061AY281061GA1011+015009099GF102991011091017501031031MA1999999087061MD1999999+0011ME1314869MW1021REMSYN082AAXX  16004 67861 41784 21307 10184 20119 38706 48486 70298 81933 333 58001 81950;
0174678610999992000111603004-18220+028930FM-12+1282FVGO V0201401N003112200019N0500001N1+01801+01251999999ADDAY191031AY211031GF102991011091017501041031MA1999999087071MD1999999-0031ME1314879MW1151REMSYN076AAXX  16034 67861 41784 21406 10180 20125 38707 48487 71591 81943 333 59003;
0168678610999992000111609004-18220+028930FM-12+1282FVGO V0201201N003112200019N0500001N1+02551+01551999999ADDGA1021+012009029GF102991021011012501001021MA1999999087241MD1999999+0031ME1315079REMSYN076AAXX  16094 67861 41684 21206 10255 20155 38724 48507 82102 333 58003 82840;
0202678610999992000111615004-18220+028930FM-12+1282FVGO V0201301N00311045001CN0500001N1+02251+01421999999ADDAY191031AY281031GA1011+013509099GF107991021021012501071031MA1999999086891MD1999999+0101ME1314699MW1151REMSYN088AAXX  16154 67861 41684 71306 10225 20142 38689 48469 71598 82273 333 58010 81945 86459;
0215678610999992000111618004-18220+028930FM-12+1282FVGO V0200901N002112200019N0300001N1+02151+01461999999ADDAY191061AY281061GA1011+027009079GF101991011001999999061021KA1120M+02761MA1999999087021MD1999999+0061ME1314839MW1011REMSYN088AAXX  16184 67861 41980 10904 10215 20146 38702 48483 70198 81062 333 10276 58006 81359;
0168678610999992000111703004-18220+028930FM-12+1282FVGO V0200901N005712200019N0300001N1+01751+01251999999ADDGA1021+027009079GF102991021001999999081001MA1999999087121MD1999999+0051ME1314929REMSYN076AAXX  17034 67861 42980 20911 10175 20125 38712 48492 82080 333 58005 82359;
0204678610999992000111706004-18220+028930FM-12+1282FVGO V0200901N005712200019N0300001N1+02101+01231999999ADDAA124020191GA1011+027009079GF101991011001999999081011KA1120N+01491MA1999999087241MD1999999-0031ME1315059REMSYN088AAXX  17064 67861 12980 10911 10210 20123 38724 48505 60204 81081 333 20149 59003 81359;
0168678610999992000111709004-18220+028930FM-12+1282FVGO V0200901N004112200019N0500001N1+02551+01381999999ADDGA1021+014709029GF103991021011012501081011MA1999999087181MD1999999-0061ME1315009REMSYN076AAXX  17094 67861 42684 30908 10255 20138 38718 48500 82181 333 59006 82849;
0168678610999992000111712004-18220+028930FM-12+1282FVGO V0203001N00261045001CN0500001N1+02801+01621999999ADDGA1041+018009029GF105991041021017501031011MA1999999086911MD1999999-0091ME1314759REMSYN076AAXX  17124 67861 42784 53005 10280 20162 38691 48475 84231 333 59009 84856;
0196678610999992000111715004-18220+028930FM-12+1282FVGO V0200201N001512200019N0500001N1+02721+01531999999ADDAY191031AY211031GA1011+018009099GF102991021021022501061031MA1999999086751MD1999999-0141ME1314589MW1291REMSYN082AAXX  17154 67861 41884 20203 10272 20153 38675 48458 72991 82263 333 59014 81956;
0215678610999992000111718004-18220+028930FM-12+1282FVGO V0200301N000512200019N0500001N1+02251+01721999999ADDAY191061AY211061GA1011+018009099GF102991011091022501061031KA1120M+02951MA1999999086891MD1999999-0131ME1314719MW1131REMSYN088AAXX  17184 67861 41884 20301 10225 20172 38689 48471 71391 81963 333 10295 59013 81956;
0224678610999992000111803004-18220+028930FM-12+1282FVGO V0209999C00001002401CN0150001N1+01601+01531999999ADDAY191031AY261031GA1051+002409079GA2011+009009099GF108991051061002501071999MA1999999087061MD1999999-0061ME1314849MW1611REMSYN094AAXX  18034 67861 41365 80000 10160 20153 38706 48484 76196 8567/ 333 59006 81930 85708 88460;
0238678610999992000111806004-18220+028930FM-12+1282FVGO V0201801N001010027019N0200001N1+01651+01571999999ADDAA124023191AY191061AY261061GA1061+002709079GF108991061061002501071999KA1120N+01551MA1999999087211MD1999999-0031ME1314999MW1611REMSYN100AAXX  18064 67861 11370 81802 10165 20157 38721 48499 60234 76196 8667/ 333 20155 59003 86709 88460;
0224678610999992000111809004-18220+028930FM-12+1282FVGO V0200801N00311006001CN0200001N1+01701+01641999999ADDAY191031AY261031GA1041+002409079GA2011+006009099GF108991041071002501071031MA1999999087031MD1999999-0151ME1314819MW1911REMSYN094AAXX  18094 67861 41370 80806 10170 20164 38703 48481 79196 84773 333 59015 81920 84708 88460;
0224678610999992000111812004-18220+028930FM-12+1282FVGO V0200601N003110300019N0500001N1+02221+01741999999ADDAY191061AY261061GA1031+006009089GA2041+030009039GF107991031011008001031021MA1999999086771MD1999999-0141ME1314589MW1021REMSYN094AAXX  18124 67861 41584 70606 10222 20174 38677 48458 70296 83132 333 59014 83820 84360 85080;
0168678610999992000111815004-18220+028930FM-12+1282FVGO V0200101N003112200019N0500001N1+02351+01651999999ADDGA1011+009309029GF101991011011012501001021MA1999999086601MD1999999-0151ME1314419REMSYN076AAXX  18154 67861 42684 10106 10235 20165 38660 48441 81102 333 59015 81831;
0187678610999992000111818004-18220+028930FM-12+1282FVGO V0200301N001512200019N0500001N1+01981+01661999999ADDGA1011+090009019GF101991001001999999001021KA1120M+02401MA1999999086601MD1999999-0291ME1314409REMSYN082AAXX  18184 67861 42984 10303 10198 20166 38660 48440 80002 333 10240 59029 81080;
0210678610999992000111906004-18220+028930FM-12+1282FVGO V0201901N00411045001CN0500001N1+02011+01361999999ADDAA124004191GA1011+008409089GF106991011011008001041001KA1120N+01601MA1999999086701MD1999999-0511ME1314509REMSYN094AAXX  19064 67861 12584 61908 10201 20136 38670 48450 60044 81140 333 20160 59051 81828 85360;
0168678610999992000111909004-18220+028930FM-12+1282FVGO V0202501N003612200019N0500001N1+02481+00911999999ADDGA1011+018009029GF101991011011022501041001MA1999999086591MD1999999-0441ME1314409REMSYN076AAXX  19094 67861 42884 12507 10248 20091 38659 48440 81140 333 59044 81856;
0168678610999992000111912004-18220+028930FM-12+1282FVGO V0202701N005112200019N0500001N1+02501+00471999999ADDGA1011+027009029GF101991011021999999001001MA1999999086541MD1999999-0231ME1314359REMSYN076AAXX  19124 67861 42984 12710 10250 20047 38654 48435 81200 333 59023 81859;
0156678610999992000111915004-18220+028930FM-12+1282FVGO V0202701N004612200019N0500001N1+02451+00141999999ADDGA1001+999999999GF100991001001999999001001MA1999999086521MD1999999-0081ME1314339REMSYN064AAXX  19154 67861 42984 02709 10245 20014 38652 48433 333 59008;
0175678610999992000111918004-18220+028930FM-12+1282FVGO V0202201N001012200019N0300001N1+01921-00041999999ADDGA1001+999999999GF100991001001999999001001KA1120M+02581MA1999999086821MD1999999+0221ME1314629REMSYN070AAXX  19184 67861 42980 02202 10192 21004 38682 48462 333 10258 58022;
0217678610999992000112006004-18220+028930FM-12+1282FVGO V0202301N004112200019N0300001N1+02001-00041999999ADDAA199000091GA1011+090009019GF101991001001999999001011KA1120N+01031MA1999999086901MD1999999+0231ME1314739REMSYN082AAXX  20064 67861 32980 12308 10200 21004 38690 48473 80001 333 20103 58023 81080;EQDQ01  00002PRCP99
0168678610999992000112009004-18220+028930FM-12+1282FVGO V0201801N003112200019N0500001N1+02421+00731999999ADDGA1011+090009019GF101991001001999999001011MA1999999086931MD1999999+0341ME1314749REMSYN076AAXX  20094 67861 42984 11806 10242 20073 38693 48474 80001 333 58034 81080;
0168678610999992000112012004-18220+028930FM-12+1282FVGO V0202601N003612200019N0500001N1+02601+00641999999ADDGA1041+024009029GF104991041011999999001001MA1999999086801MD1999999+0261ME1314629REMSYN076AAXX  20124 67861 42984 42607 10260 20064 38680 48462 84100 333 58026 84858;
0168678610999992000112015004-18220+028930FM-12+1282FVGO V0202401N002112200019N0500001N1+02531+00691999999ADDGA1021+024009029GF103991021011999999031001MA1999999086741MD1999999+0221ME1314559REMSYN076AAXX  20154 67861 42984 32404 10253 20069 38674 48455 82130 333 58022 82858;
0206678610999992000112018004-18220+028930FM-12+1282FVGO V0209999C000010240019N0500001N1+02201+01041999999ADDGA1051+024009059GF105991051041999999999001KA1120M+02671MA1999999086911MD1999999+0091ME1314729REMSYN082AAXX  20184 67861 42984 50000 10220 20104 38691 48472 85400 333 10267 58009 85658;EQDQ01+000002SCOMCG
0168678610999992000112100004-18220+028930FM-12+1282FVGO V0201701N003112200019N0300001N1+01891+01041999999ADDGA1011+030009079GF101991011001999999031001MA1999999086891MD1999999+0111ME1314709REMSYN076AAXX  21004 67861 42980 11706 10189 20104 38689 48470 81030 333 58011 81360;
0187678610999992000112103004-18220+028930FM-12+1282FVGO V0201601N003612200019N0300001N1+01241+00991999999ADDGA1011+030009029GF101991011001999999041999MA1999999086961MD1999999+0141ME1314769REMSYN076AAXX  21034 67861 42980 11607 10124 20099 38696 48476 81040 333 58014 81560;EQDQ01+000002SCOHCG
0217678610999992000112106004-18220+028930FM-12+1282FVGO V0201001N003112200019N0300001N1+02241+00971999999ADDAA199000091GA1011+030009079GF101991011001999999041011KA1120N+01751MA1999999087131MD1999999+0201ME1314949REMSYN082AAXX  21064 67861 32980 11006 10224 20097 38713 48494 81041 333 20175 58020 81360;EQDQ01  00002PRCP99
0168678610999992000112109004-18220+028930FM-12+1282FVGO V0201801N001512200019N0500001N1+02701+00931999999ADDGA1011+021009029GF101991011011022501001001MA1999999087151MD1999999+0221ME1314989REMSYN076AAXX  21094 67861 42884 11803 10270 20093 38715 48498 81100 333 58022 81857;
0168678610999992000112112004-18220+028930FM-12+1282FVGO V0209999C000010210019N0500001N1+02731+00981999999ADDGA1061+021009029GF106991061021022501001001MA1999999087041MD1999999+0241ME1314879REMSYN076AAXX  21124 67861 42884 60000 10273 20098 38704 48487 86200 333 58024 86857;
0168678610999992000112200004-18220+028930FM-12+1282FVGO V0200401N005112200019N0300001N1+02001+01211999999ADDGA1031+030009079GF103991031001999999031001MA1999999087201MD1999999+0311ME1315029REMSYN076AAXX  22004 67861 42980 30410 10200 20121 38720 48502 83030 333 58031 83360;
0168678610999992000112203004-18220+028930FM-12+1282FVGO V0200701N006710300019N0350001N1+01801+01211999999ADDGA1071+030009079GF107991071001999999071999MA1999999087371MD1999999+0311ME1315079REMSYN076AAXX  22034 67861 42981 70713 10180 20121 38737 48507 8707/ 333 58031 87360;
0174678610999992000112215004-18220+028930FM-12+1282FVGO V0201301N002110210019N0500001N1+02501+01301999999ADDGA1011+018009089GF107991071041022501061021MA1999999087151MD1999999+0161ME1314969REMSYN082AAXX  22154 67861 42884 71304 10250 20130 38715 48496 87462 333 58016 81856 86657;
0187678610999992000112218004-18220+028930FM-12+1282FVGO V0201401N003612200019N0300001N1+02121+01201999999ADDGA1011+090009019GF101991001001999999001021KA1120M+02761MA1999999087361MD1999999+0221ME1315179REMSYN082AAXX  22184 67861 42980 11407 10212 20120 38736 48517 80002 333 10276 58022 81080;
0217678610999992000112306004-18220+028930FM-12+1282FVGO V0200901N004612200019N0300001N1+02001+01261999999ADDAA199000091GA1011+027009079GF101991011001999999031021KA1120N+01541MA1999999087571MD1999999+0141ME1315379REMSYN082AAXX  23064 67861 32980 10909 10200 20126 38757 48537 81032 333 20154 58014 81359;EQDQ01  00002PRCP99
0168678610999992000112309004-18220+028930FM-12+1282FVGO V0200201N002112200019N0500001N1+02391+01451999999ADDGA1031+012009029GF103991031011012501001021MA1999999087481MD1999999+0071ME1315299REMSYN076AAXX  23094 67861 42684 30204 10239 20145 38748 48529 83102 333 58007 83840;
0168678610999992000112312004-18220+028930FM-12+1282FVGO V0203501N002610150019N0500001N1+02751+01451999999ADDGA1061+015009029GF106991061021017501001001MA1999999087251MD1999999+0031ME1315099REMSYN076AAXX  23124 67861 42784 63505 10275 20145 38725 48509 86200 333 58003 86850;
0187678610999992000112318004-18220+028930FM-12+1282FVGO V0209999C000012200019N0500001N1+02271+01451999999ADDGA1011+030009079GF101991011001999999061001KA1120M+02891MA1999999087231MD1999999-0131ME1315069REMSYN082AAXX  23184 67861 42984 10000 10227 20145 38723 48506 81060 333 10289 59013 81360;
0168678610999992000112400004-18220+028930FM-12+1282FVGO V0209999C000012200019N0300001N1+01861+01461999999ADDGA1011+030009079GF101991011001999999031001MA1999999087211MD1999999-0221ME1315029REMSYN076AAXX  24004 67861 42980 10000 10186 20146 38721 48502 81030 333 59022 81360;
0168678610999992000112403004-18220+028930FM-12+1282FVGO V0209999C000012200019N0300001N1+01761+01511999999ADDGA1011+030009079GF101991011001999999031011MA1999999087251MD1999999-0211ME1315059REMSYN076AAXX  24034 67861 42980 10000 10176 20151 38725 48505 81031 333 59021 81360;
0217678610999992000112406004-18220+028930FM-12+1282FVGO V0200601N001512200019N0400001N1+02391+01541999999ADDAA199000091GA1011+090009019GF101991001001999999001011KA1120N+01681MA1999999087411MD1999999-0161ME1315249REMSYN082AAXX  24064 67861 32982 10603 10239 20154 38741 48524 80001 333 20168 59016 81080;EQDQ01  00002PRCP99
0168678610999992000112409004-18220+028930FM-12+1282FVGO V0200301N001512200019N0500001N1+02781+01511999999ADDGA1011+015009029GF101991011011017501001001MA1999999087401MD1999999-0081ME1315249REMSYN076AAXX  24094 67861 42784 10303 10278 20151 38740 48524 81100 333 59008 81850;
0168678610999992000112412004-18220+028930FM-12+1282FVGO V0201501N003112200019N0500001N1+03031+01221999999ADDGA1021+021009029GF102991021021017501001001MA1999999087211MD1999999-0041ME1315069REMSYN076AAXX  24124 67861 42784 21506 10303 20122 38721 48506 82200 333 59004 82857;
0174678610999992000112415004-18220+028930FM-12+1282FVGO V0201301N001512200019N0500001N1+02981+01271999999ADDGA1011+021009069GF104991011041017501061001MA1999999087011MD1999999-0141ME1314869REMSYN082AAXX  24154 67861 42784 41303 10298 20127 38701 48486 81460 333 59014 81657 83360;
0187678610999992000112418004-18220+028930FM-12+1282FVGO V0209999C000012200019N0300001N1+02351+01411999999ADDGA1011+030009079GF101991011001999999061001KA1120M+03121MA1999999087101MD1999999-0131ME1314939REMSYN082AAXX  24184 67861 42980 10000 10235 20141 38710 48493 81060 333 10312 59013 81360;
0168678610999992000112500004-18220+028930FM-12+1282FVGO V0200501N002112200019N0300001N1+02351+01291999999ADDGA1041+030009079GF104991041001999999031001MA1999999087211MD1999999+0001ME1315059REMSYN076AAXX  25004 67861 42980 40504 10235 20129 38721 48505 84030 333 58000 84360;
0168678610999992000112503004-18220+028930FM-12+1282FVGO V0203601N002112200019N0300001N1+02201+01401999999ADDGA1011+030009079GF101991011001999999041021MA1999999087241MD1999999-0011ME1315079REMSYN076AAXX  25034 67861 42980 13604 10220 20140 38724 48507 81042 333 59001 81360;
0223678610999992000112506004-18220+028930FM-12+1282FVGO V0203501N003119999999N0400001N1+02471+01571999999ADDAA199000091GA1021+030009039GF105991021001999999081021KA1120N+02021MA1999999087481MD1999999+0071ME1315329REMSYN088AAXX  25064 67861 32982 53506 10247 20157 38748 48532 82082 333 20202 58007 82360 84080;EQDQ01  00002PRCP99
0174678610999992000112509004-18220+028930FM-12+1282FVGO V0203301N00151105001CN0500001N1+02801+01551999999ADDGA1011+015009089GF107991011021017501001081MA1999999087471MD1999999+0071ME1315319REMSYN082AAXX  25094 67861 42784 73303 10280 20155 38747 48531 81208 333 58007 81850 87280;
0174678610999992000112512004-18220+028930FM-12+1282FVGO V0203601N00261105001CN0500001N1+03041+01441999999ADDGA1031+021009089GF107991031021022501001081MA1999999087251MD1999999+0041ME1315109REMSYN082AAXX  25124 67861 42884 73605 10304 20144 38725 48510 83208 333 58004 83857 84280;
0221678610999992000112518004-18220+028930FM-12+1282FVGO V0201101N002119999999N0300001N1+02411+01471999999ADDAY191061AY221061GA1011+027009039GF105991011001999999061021KA1120M+03151MA1999999087331MD1999999+0231ME1315619MW1021REMSYN094AAXX  25184 67861 41980 51104 10241 20147 38733 48561 70292 81062 333 10315 58023 81359 85080;
0168678610999992000112600004-18220+028930FM-12+1282FVGO V0201201N003619999999N0300001N1+02151+01351999999ADDGA1031+030009079GF106991061001999999031021MA1999999087371MD1999999+0261ME1315209REMSYN076AAXX  26004 67861 42980 61207 10215 20135 38737 48520 86032 333 58026 83360;
0168678610999992000112603004-18220+028930FM-12+1282FVGO V0201401N004110270019N0300001N1+02051+01411999999ADDGA1061+027009079GF106991061001999999031021MA1999999087411MD1999999+0171ME1315239REMSYN076AAXX  26034 67861 42980 61408 10205 20141 38741 48523 86032 333 58017 86359;
0217678610999992000112606004-18220+028930FM-12+1282FVGO V0200901N006210270019N0300001N1+02301+01381999999ADDAA199000091GA1061+027009079GF106991061001999999081021KA1120N+01931MA1999999087611MD1999999+0131ME1315439REMSYN082AAXX  26064 67861 32980 60912 10230 20138 38761 48543 86082 333 20193 58013 86359;EQDQ01  00002PRCP99
0168678610999992000112609004-18220+028930FM-12+1282FVGO V0201101N005110150019N0500001N1+02651+01401999999ADDGA1051+015009029GF105991051011017501041021MA1999999087541MD1999999+0071ME1315379REMSYN076AAXX  26094 67861 42784 51110 10265 20140 38754 48537 85142 333 58007 85850;
0168678610999992000112612004-18220+028930FM-12+1282FVGO V0200901N003612200019N0500001N1+02901+01491999999ADDGA1031+018009029GF103991031021017501001021MA1999999087281MD1999999+0031ME1315129REMSYN076AAXX  26124 67861 42784 30907 10290 20149 38728 48512 83202 333 58003 83856;
0174678610999992000112615004-18220+028930FM-12+1282FVGO V0200301N00211045001CN0500001N1+02851+01361999999ADDGA1021+018009089GF107991021021017501061081MA1999999087151MD1999999-0061ME1314999REMSYN082AAXX  26154 67861 42784 70304 10285 20136 38715 48499 82268 333 59006 82856 86280;
0202678610999992000112700004-18220+028930FM-12+1282FVGO V0209999C00001045001CN0300001N1+01921+01761999999ADDAY191061AY261061GA1021+009009099GF107991021091012501071031MA1999999087501MD1999999+0131ME1315299MW1951REMSYN088AAXX  27004 67861 41680 70000 10192 20176 38750 48529 79596 82973 333 58013 82930 87460;
0224678610999992000112703004-18220+028930FM-12+1282FVGO V0203201N001510450019N0300001N1+01931+01761999999ADDAY191031AY261031GA1031+002709079GA2011+009009099GF107991031061002501071031MA1999999087491MD1999999+0081ME1315289MW1171REMSYN094AAXX  27034 67861 42380 73203 10193 20176 38749 48528 71796 83673 333 58008 81930 83709 87460;
0238678610999992000112706004-18220+028930FM-12+1282FVGO V0203401N002610027019N0300001N1+01951+01751999999ADDAA124006191AY191061AY261061GA1051+002709079GF108991051061002501071999KA1120N+01841MA1999999087671MD1999999+0061ME1315469MW1601REMSYN100AAXX  27064 67861 11380 83405 10195 20175 38767 48546 60064 76096 8567/ 333 20184 58006 85709 88460;
0202678610999992000112709004-18220+028930FM-12+1282FVGO V0203401N00211045001CN0300001N1+02151+01791999999ADDAY161031AY221031GA1011+002709079GF108991011021008001071999MA1999999087651MD1999999+0111ME1315459MW1601REMSYN088AAXX  27094 67861 41580 83404 10215 20179 38765 48545 76062 8127/ 333 58011 81709 88460;
0224678610999992000112712004-18220+028930FM-12+1282FVGO V0203201N00151045001CN0500001N1+02601+01731999999ADDAY191061AY261061GA1011+013809099GA2041+013809089GF107991041021012501031031MA1999999087381MD1999999+0101ME1315219MW1171REMSYN094AAXX  27124 67861 41684 73203 10260 20173 38738 48521 71796 84233 333 58010 81946 84846 86280;
0224678610999992000112715004-18220+028930FM-12+1282FVGO V0203001N001510270019N0500001N1+02351+01841999999ADDAY191031AY281031GA1021+012009099GA2041+027009049GF107991021091012501071031MA1999999087331MD1999999+0181ME1315149MW1171REMSYN094AAXX  27154 67861 41684 73003 10235 20184 38733 48514 71798 82973 333 58018 82940 84459 87280;
0221678610999992000112718004-18220+028930FM-12+1282FVGO V0201301N00411045001CN0300001N1+01951+01641999999ADDAY191061AY281061GA1011+012009099GF107991011091012501061031KA1120M+02701MA1999999087531MD1999999+0221ME1315339MW1291REMSYN094AAXX  27184 67861 41680 71308 10195 20164 38753 48533 72998 81963 333 10270 58022 81940 86280;
0210678610999992000112806004-18220+028930FM-12+1282FVGO V0200301N004110027019N0300001N1+02001+01801999999ADDAA124000791GA1061+002709069GF107991061051002501071021KA1120N+01831MA1999999087581MD1999999-0041ME1315389REMSYN094AAXX  28064 67861 12380 70308 10200 20180 38758 48538 69904 86572 333 20183 59004 86609 87459;
0174678610999992000112812004-18220+028930FM-12+1282FVGO V0200501N00311012001CN0500001N1+02601+01721999999ADDGA1011+009009099GF107991061021012501041031MA1999999087231MD1999999-0151ME1315069REMSYN082AAXX  28124 67861 42684 70506 10260 20172 38723 48506 86243 333 59015 81930 86837;
0221678610999992000112818004-18220+028930FM-12+1282FVGO V0200701N00211045001CN0500001N1+02091+01731999999ADDAY191061AY281061GA1011+009009099GF107991011091012501071031KA1120M+02701MA1999999087311MD1999999-0221ME1315129MW1131REMSYN094AAXX  28184 67861 41684 70704 10209 20173 38731 48512 71398 81973 333 10270 59022 81930 87460;
0168678610999992000112903004-18220+028930FM-12+1282FVGO V0200901N001010300019N0300001N1+01901+01751999999ADDGA1071+030009019GF107991071001999999071021MA1999999087241MD1999999-0251ME1315059REMSYN076AAXX  29034 67861 42980 70902 10190 20175 38724 48505 87072 333 59025 87460;
0210678610999992000112906004-18220+028930FM-12+1282FVGO V0200901N00261045001CN0300001N1+02091+01811999999ADDAA124000591GA1031+004509069GF107991031051004501071021KA1120N+01831MA1999999087341MD1999999-0241ME1315149REMSYN094AAXX  29064 67861 12480 70905 10209 20181 38734 48514 69954 83572 333 20183 59024 83615 87460;
0174678610999992000112909004-18220+028930FM-12+1282FVGO V0201301N00151007501CN0500001N1+02331+01771999999ADDGA1011+007509099GF107991051021008001071031MA1999999087401MD1999999-0091ME1315209REMSYN082AAXX  29094 67861 42584 71303 10233 20177 38740 48520 85273 333 59009 81925 85830;
0224678610999992000112915004-18220+028930FM-12+1282FVGO V0209999C00001045001CN0500001N1+02451+01861999999ADDAY191031AY221031GA1011+009009009GA2031+030009049GF107991021021012501071031MA1999999087011MD1999999-0121ME1314829MW1291REMSYN094AAXX  29154 67861 41684 70000 10245 20186 38701 48482 72992 82273 333 59012 81030 83460 86080;
0221678610999992000112918004-18220+028930FM-12+1282FVGO V0209999C00001045001CN0500001N1+02291+01791999999ADDAY191061AY221061GA1011+009009099GF107991011091012501071031KA1120M+02781MA1999999087241MD1999999-0071ME1315079MW1131REMSYN094AAXX  29184 67861 41684 70000 10229 20179 38724 48507 71392 81973 333 10278 59007 81930 87460;
0221678610999992000113018004-18220+028930FM-12+1282FVGO V0201701N00411045001CN0250001N1+00911+99999999999ADDAY161061AY221061GA1011+002709079GF107991011061002501071021KA1120M+02251MA1999999087461MD1999999+0221ME1315259MW1021REMSYN094AAXX  30184 67861 41375 71708 10091 20146 38746 48525 70262 81672 333 10225 58022 81709 87459;
0194678610999992000120106004-18220+028930FM-12+1282FVGO V0201601N003610450019N0300001N1+01901+01601999999ADDAA124001091GF108991041071002501071999KA1120N+01811MA1999999087841MD1999999+0341ME1315629MW1601REMSYN088AAXX  01064 67861 11380 81607 10190 2016/ 38784 48562 60014 760/2 8477/ 333 20181 58034;
0202678610999992000120109004-18220+028930FM-12+1282FVGO V0203601N004110075019N0500001N1+02251+01651999999ADDAY161031AY221031GA1051+007509089GF107991051021008001031021MA1999999087651MD1999999+0221ME1315479MW1021REMSYN088AAXX  01094 67861 41584 73608 10225 20165 38765 48547 70262 85232 333 58022 85825 83360;
0202678610999992000120112004-18220+028930FM-12+1282FVGO V0200301N002110096019N0500001N1+02351+01591999999ADDAY181061AY261061GA1051+009609089GF107991051021012501071031MA1999999087461MD1999999+0321ME1315279MW1801REMSYN088AAXX  01124 67861 41684 70304 10235 20159 38746 48527 78086 85273 333 58032 85832 83460;
0202678610999992000120115004-18220+028930FM-12+1282FVGO V0200701N00311045001CN0500001N1+02061+01821999999ADDAY191031AY281031GA1011+011709099GF107991031021012501071031MA1999999087361MD1999999+0271ME1315169MW1951REMSYN088AAXX  01154 67861 41684 70706 10206 20182 38736 48516 79598 83273 333 58027 81939 87460;
0215678610999992000120118004-18220+028930FM-12+1282FVGO V0201501N005110300019N0300001N1+01971+01791999999ADDAY191061AY281061GA1071+030009019GF107991071001999999071999KA1120M+02631MA1999999087551MD1999999+0271ME1315249MW1601REMSYN088AAXX  01184 67861 41980 71510 10197 20179 38755 48524 76098 8707/ 333 10263 58027 87460;
0202678610999992000120200004-18220+028930FM-12+1282FVGO V0200401N004619999999N0300001N1+01801+01601999999ADDAY161061AY221061GA1041+030009049GF107991041001999999071081MA1999999087591MD1999999+0171ME1315399MW1021REMSYN088AAXX  02004 67861 41980 70409 10180 20160 38759 48539 70262 84078 333 58017 84460 86280;
0215678610999992000120212004-18220+028930FM-12+1282FVGO V0200901N002612200019N0500001N1+02411+01611999999ADDAY161061AY221061GA1061+009609029GF199999061021012501031021MA1999999087441MD1999999-0021ME1315259MW1021REMSYN082AAXX  02124 67861 41684 20905 10241 20161 38744 48525 70262 86232 333 59002 86832;EQDQ01+000022SCOTCV
0217678610999992000120406004-18220+028930FM-12+1282FVGO V0200401N004111050019N0500001N1+02201+01741999999ADDAA199000091GA1011+005409029GF105991011011008001081021KA1120N+01811MA1999999087501MD1999999-0071ME1315319REMSYN082AAXX  04064 67861 32584 50408 10220 20174 38750 48531 81182 333 20181 59007 81818;EQDQ01  00002PRCP99
0168678610999992000120409004-18220+028930FM-12+1282FVGO V0201501N002110135019N0500001N1+02701+01641999999ADDGA1051+013509029GF105991051021012501001021MA1999999087521MD1999999+0071ME1315359REMSYN076AAXX  04094 67861 42684 51504 10270 20164 38752 48535 85202 333 58007 85845;
0202678610999992000120412004-18220+028930FM-12+1282FVGO V0201401N00101045001CN0500001N1+02941+01191999999ADDAY121061AY221061GA1011+015009099GF105991041021022501071031MA1999999087211MD1999999+0011ME1315059MW1151REMSYN088AAXX  04124 67861 41884 51402 10294 20119 38721 48505 71522 84273 333 58001 81950 84857;
0174678610999992000120415004-18220+028930FM-12+1282FVGO V0201801N00261045001CN0500001N1+02771+01191999999ADDGA1011+015009099GF107991021021022501071031MA1999999087111MD1999999+0081ME1314959REMSYN082AAXX  04154 67861 42884 71805 10277 20119 38711 48495 82273 333 58008 81950 85080;
0187678610999992000120418004-18220+028930FM-12+1282FVGO V0209999C000010300019N0300001N1+02551+01351999999ADDGA1071+030009019GF107991071001999999071999KA1120M+03061MA1999999087211MD1999999+0041ME1315059REMSYN082AAXX  04184 67861 42980 70000 10255 20135 38721 48505 8707/ 333 10306 58004 87460;
0196678610999992000120500004-18220+028930FM-12+1282FVGO V0203601N003612200019N0300001N1+01901+01241999999ADDAY111061AY211061GA1011+009009099GF101991011091012501001031MA1999999087331MD1999999+0051ME1315149MW1131REMSYN082AAXX  05004 67861 41680 13607 10190 20124 38733 48514 71311 81903 333 58005 81930;
0202678610999992000120503004-18220+028930FM-12+1282FVGO V0200201N002112200019N0300001N1+01801+01211999999ADDAY101031AY201031GA1011+009009099GF103991011091012501071031MA1999999087411MD1999999+0081ME1315219MW1131REMSYN088AAXX  05034 67861 41680 30204 10180 20121 38741 48521 71300 81973 333 58008 81930 83080;
0223678610999992000120506004-18220+028930FM-12+1282FVGO V0203401N003619999999N0500001N1+02201+01311999999ADDAA199000091GA1021+030009039GF107991021001999999041021KA1120N+01711MA1999999087601MD1999999+0101ME1315419REMSYN088AAXX  05064 67861 32984 73407 10220 20131 38760 48541 82042 333 20171 58010 82360 86080;EQDQ01  00002PRCP99
0174678610999992000120509004-18220+028930FM-12+1282FVGO V0200901N00311045001CN0500001N1+02501+01201999999ADDGA1011+015009089GF107991011011017501081081MA1999999087571MD1999999+0051ME1315379REMSYN082AAXX  05094 67861 42784 70906 10250 20120 38757 48537 81188 333 58005 81850 87280;
0174678610999992000120512004-18220+028930FM-12+1282FVGO V0203401N001519999999N0500001N1+02701+01601999999ADDGA1011+024009089GF107991011011999999041081MA1999999087331MD1999999+0121ME1315169REMSYN082AAXX  05124 67861 42984 73403 10270 2016/ 38733 48516 81148 333 58012 81858 87280;
0174678610999992000120515004-18220+028930FM-12+1282FVGO V0203301N001019999999N0500001N1+02701+01261999999ADDGA1011+024009089GF107991011021999999001081MA1999999087221MD1999999+0111ME1315059REMSYN082AAXX  05154 67861 42984 73302 10270 20126 38722 48505 81208 333 58011 81858 87280;
0168678610999992000120600004-18220+028930FM-12+1282FVGO V0200901N005712200019N0300001N1+02151+00941999999ADDGA1011+027009079GF101991011001999999041011MA1999999087371MD1999999+0041ME1315209REMSYN076AAXX  06004 67861 42980 10911 10215 20094 38737 48520 81041 333 58004 81359;
0174678610999992000120603004-18220+028930FM-12+1282FVGO V0201101N004119999999N0300001N1+01951+01001999999ADDGA1021+027009039GF107991021001999999081081MA1999999087451MD1999999+0041ME1315269REMSYN082AAXX  06034 67861 42980 71108 10195 20100 38745 48526 82088 333 58004 82359 86280;
0223678610999992000120606004-18220+028930FM-12+1282FVGO V0200801N003619999999N0400001N1+02201+01541999999ADDAA199000091GA1021+027009039GF107991021001999999081081KA1120N+01851MA1999999087531MD1999999-0011ME1315409REMSYN088AAXX  06064 67861 32982 70807 10220 20154 38753 48540 82088 333 20185 59001 82359 87280;EQDQ01  00002PRCP99
0174678610999992000120609004-18220+028930FM-12+1282FVGO V0200401N00211105001CN0400001N1+02691+01161999999ADDGA1021+018009089GF107991021011017501001081MA1999999087521MD1999999-0051ME1315359REMSYN082AAXX  06094 67861 42782 70404 10269 20116 38752 48535 82108 333 59005 82856 86280;
0168678610999992000120612004-18220+028930FM-12+1282FVGO V0200501N003110180019N0500001N1+02861+01261999999ADDGA1051+018009029GF106991051021022501001021MA1999999087271MD1999999-0061ME1315119REMSYN076AAXX  06124 67861 42884 60506 10286 20126 38727 48511 85202 333 59006 85856;
0168678610999992000120615004-18220+028930FM-12+1282FVGO V0200501N002612200019N0400001N1+02911+01211999999ADDGA1031+021009029GF103991031021022501061021MA1999999087131MD1999999-0091ME1314829REMSYN076AAXX  06154 67861 42882 30505 10291 20121 38713 48482 83262 333 59009 83857;
0174678610999992000120700004-18220+028930FM-12+1282FVGO V0200501N002112200019N0300001N1+02141+01481999999ADDGA1031+030009039GF104991031001999999031021MA1999999087351MD1999999-0021ME1315189REMSYN082AAXX  07004 67861 42980 40504 10214 20148 38735 48518 83032 333 59002 83360 83080;
0174678610999992000120703004-18220+028930FM-12+1282FVGO V0200401N001519999999N0300001N1+01941+01611999999ADDGA1011+030009039GF106991011001999999041081MA1999999087441MD1999999-0011ME1315259REMSYN082AAXX  07034 67861 42980 60403 10194 20161 38744 48525 81048 333 59001 81360 86280;
0223678610999992000120706004-18220+028930FM-12+1282FVGO V0200401N00411045001CN0400001N1+02291+01701999999ADDAA199000091GA1041+007509089GF107991041011008001041021KA1120N+01861MA1999999087561MD1999999-0031ME1315379REMSYN088AAXX  07064 67861 32582 70408 10229 20170 38756 48537 84142 333 20186 59003 84825 84080;EQDQ01  00002PRCP99
0168678610999992000120709004-18220+028930FM-12+1282FVGO V0202501N002112200019N0500001N1+02741+01621999999ADDGA1031+015009029GF103991031011017501001001MA1999999087481MD1999999-0041ME1315319REMSYN076AAXX  07094 67861 42784 32504 10274 20162 38748 48531 83100 333 59004 83850;
0187678610999992000120718004-18220+028930FM-12+1282FVGO V0209999C000010300019N0050001N1+02551+01461999999ADDGA1051+030009079GF105991051001999999061001KA1120M+03201MA1999999087201MD1999999-0061ME1315049REMSYN082AAXX  07184 67861 42950 50000 10255 20146 38720 48504 85060 333 10320 59006 85360;
0168678610999992000120803004-18220+028930FM-12+1282FVGO V0203101N001012200019N0350001N1+02001+01691999999ADDGA1041+030009079GF104991041001999999031001MA1999999087331MD1999999-0111ME1315159REMSYN076AAXX  08034 67861 42981 43102 10200 20169 38733 48515 84030 333 59011 84360;
0223678610999992000120806004-18220+028930FM-12+1282FVGO V0200501N00361045001CN0500001N1+02231+01761999999ADDAA199000091GA1041+009009069GF107991041051012501081001KA1120N+01951MA1999999087441MD1999999-0121ME1315259REMSYN088AAXX  08064 67861 32684 70507 10223 20176 38744 48525 84580 333 20195 59012 84630 86360;EQDQ01  00002PRCP99
0168678610999992000120809004-18220+028930FM-12+1282FVGO V0203401N003612200019N0500001N1+02811+01611999999ADDGA1041+015009029GF104991041021017501041021MA1999999087341MD1999999-0141ME1315189REMSYN076AAXX  08094 67861 42784 43407 10281 20161 38734 48518 84242 333 59014 84850;
0202678610999992000120812004-18220+028930FM-12+1282FVGO V0203301N001510150019N0250001N1+02351+01671999999ADDAY191061AY281061GA1011+013509099GF106991061021017501061031MA1999999087161MD1999999-0041ME1314989MW1951REMSYN088AAXX  08124 67861 41775 63303 10235 20167 38716 48498 79598 86263 333 59004 81945 85850;
0202678610999992000120912004-18220+028930FM-12+1282FVGO V0200601N00151045001CN0500001N1+02091+01871999999ADDAY191061AY261061GA1031+004509069GF107991031051004501071021MA1999999087361MD1999999+0201ME1315179MW1601REMSYN088AAXX  09124 67861 41484 70603 10209 20187 38736 48517 76096 83572 333 58020 83615 87460;
0174678610999992000121003004-18220+028930FM-12+1282FVGO V0200901N002119999999N0300001N1+01821+01661999999ADDGA1031+027009039GF106991031001999999081021MA1999999087261MD1999999+0021ME1315069REMSYN082AAXX  10034 67861 42980 60904 10182 20166 38726 48506 83082 333 58002 83359 84080;
0210678610999992000121006004-18220+028930FM-12+1282FVGO V0200501N00211045001CN0400001N1+02021+01831999999ADDAA124005191GA1031+002709079GF107991031061002501081021KA1120N+01751MA1999999087441MD1999999+0031ME1315249REMSYN094AAXX  10064 67861 12382 70504 10202 20183 38744 48524 60054 83682 333 20175 58003 83709 86620;
0224678610999992000121012004-18220+028930FM-12+1282FVGO V0200701N001510060019N0250001N1+02101+01631999999ADDAY191061AY281061GA1011+004509099GA2051+006009089GF107991051021008001071031MA1999999087181MD1999999-0181ME1314999MW1801REMSYN094AAXX  10124 67861 41575 70703 10210 20163 38718 48499 78098 85273 333 59018 81915 85820 87459;
0202678610999992000121015004-18220+028930FM-12+1282FVGO V0209999C00001045001CN0500001N1+02351+01701999999ADDAY191031AY281031GA1011+004509099GF107991021021008001071031MA1999999087131MD1999999+0001ME1314949MW1171REMSYN088AAXX  10154 67861 41584 70000 10235 20170 38713 48494 71798 82273 333 59000 81915 87459;
0215678610999992000121018004-18220+028930FM-12+1282FVGO V0209999C000010300019N0300001N1+02151+01761999999ADDAY191061AY281061GA1071+030009019GF107991071001999999071999KA1120M+02551MA1999999087291MD1999999-0021ME1315119MW1601REMSYN088AAXX  10184 67861 41980 70000 10215 20176 38729 48511 76098 8707/ 333 10255 59002 87460;
0168678610999992000121100004-18220+028930FM-12+1282FVGO V0209999C000010300019N0300001N1+02001+01721999999ADDGA1071+030009019GF107991071001999999071999MA1999999087271MD1999999+0041ME1315099REMSYN076AAXX  11004 67861 42980 70000 10200 20172 38727 48509 8707/ 333 58004 87460;
0174678610999992000121103004-18220+028930FM-12+1282FVGO V0203601N000512200019N0400001N1+01901+01741999999ADDGA1021+030009039GF104991021001999999041021MA1999999087251MD1999999-0011ME1315069REMSYN082AAXX  11034 67861 42982 43601 10190 20174 38725 48506 82042 333 59001 82360 83080;
0210678610999992000121106004-18220+028930FM-12+1282FVGO V0203101N00261045001CN0500001N1+02251+01881999999ADDAA124017091GA1011+007509089GF106991011011008001041021KA1120N+01841MA1999999087291MD1999999-0181ME1315129REMSYN094AAXX  11064 67861 12584 63105 10225 20188 38729 48512 60174 81142 333 20184 59018 81825 86080;
0195678610999992000121118004-18220+028930FM-12+1282FVGO V0209999C000010300019N0500001N1+02331+01831999999ADDAY161061AY221061GA1071+030009019GF107991071001999999071999KA1120M+02801MA1999999087031ME1314859MW1021REMSYN082AAXX  11184 67861 41984 70000 10233 20183 38703 48485 70262 8707/ 333 10280 87460;
0196678610999992000121200004-18220+028930FM-12+1282FVGO V0201901N003610270019N0300001N1+02001+01841999999ADDAY161061AY221061GA1071+027009019GF107991071001999999071999MA1999999087011MD1999999-0261ME1314829MW1021REMSYN082AAXX  12004 67861 41980 71907 10200 20184 38701 48482 70262 8707/ 333 59026 87459;
0168678610999992000121203004-18220+028930FM-12+1282FVGO V0201901N000510270019N0300001N1+01901+01721999999ADDGA1071+027009019GF107991071001999999071999MA1999999087101MD1999999-0151ME1314919REMSYN076AAXX  12034 67861 42980 71901 10190 20172 38710 48491 8707/ 333 59015 87459;
0221678610999992000121218004-18220+028930FM-12+1282FVGO V0209999C00001045001CN0300001N1+02101+01891999999ADDAY191061AY261061GA1011+010509099GF107991011091012501071031KA1120M+02861MA1999999087011MD1999999-0021ME1314829MW1131REMSYN094AAXX  12184 67861 41680 70000 10210 20189 38701 48482 71396 81973 333 10286 59002 81935 85080;
0202678610999992000121300004-18220+028930FM-12+1282FVGO V0203601N003110024019N0250001N1+01801+01731999999ADDAY191061AY261061GA1051+002409079GF108991051071002501071999MA1999999087041MD1999999+0031ME1314839MW1611REMSYN088AAXX  13004 67861 41375 83606 10180 20173 38704 48483 76196 8577/ 333 58003 85708 88460;
0202678610999992000121303004-18220+028930FM-12+1282FVGO V0200401N00311045001CN0250001N1+01771+01661999999ADDAY191031AY261031GA1041+002409079GF107991041061002501071999MA1999999087071MD1999999-0031ME1314869MW1211REMSYN088AAXX  13034 67861 41375 70406 10177 20166 38707 48486 72196 8467/ 333 59003 84708 87460;
0238678610999992000121306004-18220+028930FM-12+1282FVGO V0200901N004110024019N0280001N1+01761+01591999999ADDAA124023191AY191061AY261061GA1061+002409079GF108991061061002501071999KA1120N+01711MA1999999087181MD1999999-0031ME1314979MW1601REMSYN100AAXX  13064 67861 11378 80908 10176 20159 38718 48497 60234 76096 8667/ 333 20171 59003 86708 88460;
0202678610999992000121309004-18220+028930FM-12+1282FVGO V0201201N00461045001CN0250001N1+01791+01661999999ADDAY161031AY261031GA1041+002409079GF108991041071002501071999MA1999999087241MD1999999+0071ME1315039MW1611REMSYN088AAXX  13094 67861 41375 81209 10179 20166 38724 48503 76166 8477/ 333 58007 84708 88460;
0202678610999992000121315004-18220+028930FM-12+1282FVGO V0201401N00571045001CN0200001N1+01631+01511999999ADDAY161031AY251031GA1031+002409079GF108991031071002501071999MA1999999087111MD1999999+0161ME1314889MW1601REMSYN088AAXX  13154 67861 41370 81411 10163 20151 38711 48488 76065 8377/ 333 58016 83708 88460;
0221678610999992000121318004-18220+028930FM-12+1282FVGO V0201501N00621045001CN0250001N1+01551+01391999999ADDAY161061AY251061GA1031+002409079GF108991031071002501071999KA1120M+01851MA1999999087231MD1999999+0221ME1315009MW1601REMSYN094AAXX  13184 67861 41375 81512 10155 20139 38723 48500 76065 8377/ 333 10185 58022 83708 88460;
0202678610999992000121400004-18220+028930FM-12+1282FVGO V0201401N00411045001CN0100001N1+01461+01341999999ADDAY161061AY221061GA1021+002409079GF108991021071002501071999MA1999999087181MD1999999+0141ME1314949MW1601REMSYN088AAXX  14004 67861 41360 81408 10146 20134 38718 48494 76062 8277/ 333 58014 82708 88460;
0202678610999992000121403004-18220+028930FM-12+1282FVGO V0201301N003610024019N0150001N1+01411+01361999999ADDAY161031AY251031GA1051+002409079GF108991051071002501071999MA1999999087241MD1999999+0171ME1315009MW1581REMSYN088AAXX  14034 67861 41365 81307 10141 20136 38724 48500 75865 8577/ 333 58017 85708 88460;
0238678610999992000121406004-18220+028930FM-12+1282FVGO V0201501N003610027019N0250001N1+01551+01441999999ADDAA124004191AY161061AY251061GA1061+002709079GF108991061061002501071999KA1120N+01351MA1999999087401MD1999999+0221ME1315169MW1021REMSYN100AAXX  14064 67861 11375 81507 10155 20144 38740 48516 60044 70265 8667/ 333 20135 58022 86709 88460;
0202678610999992000121409004-18220+028930FM-12+1282FVGO V0201001N00261045001CN0300001N1+02221+01101999999ADDAY161031AY221031GA1031+002709079GF107991031061002501071999MA1999999087431MD1999999+0191ME1315249MW1211REMSYN088AAXX  14094 67861 41380 71005 10222 20110 38743 48524 72162 8367/ 333 58019 83709 87460;
0202678610999992000121412004-18220+028930FM-12+1282FVGO V0203101N002110030019N0400001N1+01871+01611999999ADDAY161061AY251061GA1051+003009079GF108991051061004501071999MA1999999087361MD1999999+0181ME1315159MW1151REMSYN088AAXX  14124 67861 41482 83104 10187 20161 38736 48515 71565 8567/ 333 58018 85710 88460;
0202678610999992000121415004-18220+028930FM-12+1282FVGO V0201801N00151045001CN0450001N1+01911+01631999999ADDAY161031AY251031GA1041+003009079GF108991041061004501071999MA1999999087321MD1999999+0211ME1315129MW1021REMSYN088AAXX  14154 67861 41483 81803 10191 20163 38732 48512 70265 8467/ 333 58021 84710 88460;
0202678610999992000121503004-18220+028930FM-12+1282FVGO V0203601N001510024019N0280001N1+01701+01621999999ADDAY161031AY251031GA1051+002409079GF107991051061002501071999MA1999999087331MD1999999+0091ME1315119MW1021REMSYN088AAXX  15034 67861 41378 73603 10170 20162 38733 48511 70265 8567/ 333 58009 85708 87460;
0238678610999992000121506004-18220+028930FM-12+1282FVGO V0203601N00101045001CN0300001N1+01841+01651999999ADDAA124000591AY161061AY251061GA1041+002109079GF108991041071002501071999KA1120N+01501MA1999999087541MD1999999+0141ME1315329MW1021REMSYN100AAXX  15064 67861 11380 83602 10184 20165 38754 48532 69954 70265 8477/ 333 20150 58014 84707 88460;
0174678610999992000121509004-18220+028930FM-12+1282FVGO V0201001N003110042019N0300001N1+02051+01671999999ADDGA1051+004209069GF107991051051004501071999MA1999999087521MD1999999+0091ME1315329REMSYN082AAXX  15094 67861 42480 71006 10205 20167 38752 48532 8557/ 333 58009 85614 87460;
0174678610999992000121512004-18220+028930FM-12+1282FVGO V0200801N003110087019N0500001N1+02331+01661999999ADDGA1051+008709089GF107991051021008001071021MA1999999087351MD1999999-0011ME1315189REMSYN082AAXX  15124 67861 42584 70806 10233 20166 38735 48518 85272 333 59001 85829 86460;
0174678610999992000121515004-18220+028930FM-12+1282FVGO V0201001N00361045001CN0500001N1+02311+01621999999ADDGA1031+009009089GF107991031021012501031021MA1999999087331MD1999999+0011ME1315139REMSYN082AAXX  15154 67861 42684 71007 10231 20162 38733 48513 83232 333 58001 83830 86360;
0174678610999992000121612004-18220+028930FM-12+1282FVGO V0200301N00051105001CN0500001N1+02571+01561999999ADDGA1041+012909089GF107991041021012501001021MA1999999087401MD1999999+0051ME1315229REMSYN082AAXX  16124 67861 42684 70301 10257 20156 38740 48522 84202 333 58005 84843 86360;
0202678610999992000121615004-18220+028930FM-12+1282FVGO V0201001N000510450019N0500001N1+02551+01521999999ADDAY121031AY221031GA1011+012009099GF105991041021012501061031MA1999999087261MD1999999-0071ME1315099MW1151REMSYN088AAXX  16154 67861 41684 51001 10255 20152 38726 48509 71522 84263 333 59007 81940 84845;
0221678610999992000121618004-18220+028930FM-12+1282FVGO V0209999C00001045001CN0300001N1+02171+01831999999ADDAY181061AY261061GA1011+012009099GF107991011091012501071021KA1120M+02701MA1999999087421MD1999999-0021ME1315239MW1601REMSYN094AAXX  16184 67861 41680 70000 10217 20183 38742 48523 76086 81972 333 10270 59002 81940 86459;
0174678610999992000121703004-18220+028930FM-12+1282FVGO V0200701N00311045001CN0250001N1+01901+01751999999ADDGA1031+004509069GF107991031051004501081021MA1999999087471MD1999999+0031ME1315269REMSYN082AAXX  17034 67861 42475 70706 10190 20175 38747 48526 83582 333 58003 83615 86359;
0210678610999992000121706004-18220+028930FM-12+1282FVGO V0200901N00211045001CN0400001N1+02041+01721999999ADDAA124000791GA1011+004509069GF106991011051004501081011KA1120N+01831MA1999999087601MD1999999+0001ME1315409REMSYN094AAXX  17064 67861 12482 60904 10204 20172 38760 48540 69904 81581 333 20183 58000 81615 86359;
0168678610999992000121709004-18220+028930FM-12+1282FVGO V0202701N001512200019N0500001N1+02501+01671999999ADDGA1011+010509029GF102991011011012501031021MA1999999087561MD1999999+0021ME1315379REMSYN076AAXX  17094 67861 42684 22703 10250 20167 38756 48537 81132 333 58002 81835;
0202678610999992000121712004-18220+028930FM-12+1282FVGO V0201001N002112200019N0300001N1+02851+01491999999ADDAY191061AY211061GA1011+013509099GF104991041021017501071031MA1999999087331MD1999999-0071ME1315179MW1171REMSYN088AAXX  17124 67861 41780 41004 10285 20149 38733 48517 71791 84273 333 59007 81945 84850;
0232678610999992000121806004-18220+028930FM-12+1282FVGO V0200701N003110300019N0500001N1+02251+01861999999ADDAA124000391GA1011+004509089GA2041+030009039GF107991011011004501081081KA1120N+01841MA1999999087551MD1999999-0051ME1315379REMSYN100AAXX  18064 67861 12484 70706 10225 20186 38755 48537 69934 81188 333 20184 59005 81815 84360 86280;
0174678610999992000121809004-18220+028930FM-12+1282FVGO V0203601N00101045001CN0500001N1+02601+01821999999ADDGA1041+010209089GF107991041011012501031081MA1999999087481MD1999999-0081ME1315309REMSYN082AAXX  18094 67861 42684 73602 10260 20182 38748 48530 84138 333 59008 84834 85280;
0202678610999992000121812004-18220+028930FM-12+1282FVGO V0203501N00261045001CN0300001N1+02501+01921999999ADDAY191061AY281061GA1011+015009099GF107991031021012501061031MA1999999087231MD1999999-0101ME1315079MW1801REMSYN088AAXX  18124 67861 41680 73505 10250 20192 38723 48507 78098 83263 333 59010 81950 85856;
0224678610999992000121815004-18220+028930FM-12+1282FVGO V0201801N00411012001CN0300001N1+02201+01601999999ADDAY191031AY281031GA1021+010509099GA2031+012009089GF107991021091012501071021MA1999999087311MD1999999+0081ME1315139MW1951REMSYN094AAXX  18154 67861 41680 71808 10220 20160 38731 48513 79598 82972 333 58008 82935 83840 86459;
0221678610999992000121818004-18220+028930FM-12+1282FVGO V0201501N00361045001CN0050001N1+01901+01831999999ADDAY191061AY281061GA1021+009009099GF107991021091012501071031KA1120M+02891MA1999999087461MD1999999+0121ME1315269MW1951REMSYN094AAXX  18184 67861 41650 71507 10190 20183 38746 48526 79598 82973 333 10289 58012 82930 87459;
0196678610999992000121900004-18220+028930FM-12+1282FVGO V0200901N001512200019N0250001N1+01901+01501999999ADDAY191061AY261061GA1031+027009079GF103991031001999999031021MA1999999087221MD1999999-0101ME1315029MW1011REMSYN082AAXX  19004 67861 41975 30903 10190 20150 38722 48502 70196 83032 333 59010 83359;
0174678610999992000121903004-18220+028930FM-12+1282FVGO V0200901N002619999999N0250001N1+01901+01451999999ADDGA1011+027009039GF107991011001999999081081MA1999999087291MD1999999+0031ME1315109REMSYN082AAXX  19034 67861 42975 70905 10190 20145 38729 48510 81088 333 58003 81359 87280;
0210678610999992000121906004-18220+028930FM-12+1282FVGO V0201101N002119999999N0300001N1+02301+01661999999ADDAA124006191GA1041+027009039GF107991041001999999081081KA1120N+01691MA1999999087471MD1999999-0081ME1315299REMSYN094AAXX  19064 67861 12980 71104 10230 20166 38747 48529 60064 84088 333 20169 59008 84359 86280;
0168678610999992000121909004-18220+028930FM-12+1282FVGO V0200501N004110450019N0500001N1+02601+01701999999ADDGA1031+011109029GF106991031021012501031021MA1999999087391MD1999999-0091ME1315229REMSYN076AAXX  19094 67861 42684 60508 10260 20170 38739 48522 83232 333 59009 83837;
0174678610999992000121912004-18220+028930FM-12+1282FVGO V0200201N002111050019N0500001N1+02711+01691999999ADDGA1011+012009099GF105991041021012501001031MA1999999087151MD1999999-0081ME1314989REMSYN082AAXX  19124 67861 42684 50204 10271 20169 38715 48498 84203 333 59008 81940 84842;
0243678610999992000121918004-18220+028930FM-12+1282FVGO V0202501N003110300019N0500001N1+02191+01661999999ADDAY191061AY221061GA1011+012009099GA2041+030009049GF107991011021012501071081KA1120M+02891MA1999999087271MD1999999-0191ME1315099MW1131REMSYN100AAXX  19184 67861 41684 72506 10219 20166 38727 48509 71392 81278 333 10289 59019 81940 84460 86280;
0223678610999992000122006004-18220+028930FM-12+1282FVGO V0200701N000519999999N0500001N1+02441+01631999999ADDAA199000091GA1021+030009039GF107991021001999999041081KA1120N+01881MA1999999087261MD1999999-0211ME1315099REMSYN088AAXX  20064 67861 32984 70701 10244 20163 38726 48509 82048 333 20188 59021 82360 87280;EQDQ01  00002PRCP99
0174678610999992000122009004-18220+028930FM-12+1282FVGO V0201001N002111050019N0500001N1+02651+01761999999ADDGA1011+010509099GF105991021021012501031031MA1999999087321MD1999999-0071ME1315159REMSYN082AAXX  20094 67861 42684 51004 10265 20176 38732 48515 82233 333 59007 81935 83360;
0224678610999992000122012004-18220+028930FM-12+1282FVGO V0202001N00211013501CN0400001N1+02201+01641999999ADDAY191061AY221061GA1021+012009099GA2031+013509089GF107991021091012501071031MA1999999087211MD1999999+0061ME1315019MW1171REMSYN094AAXX  20124 67861 41682 72004 10220 20164 38721 48501 71792 82973 333 58006 82940 83845 86460;
0202678610999992000122015004-18220+028930FM-12+1282FVGO V0201001N00211045001CN0500001N1+02301+01711999999ADDAY191031AY221031GA1011+012009099GF107991011091012501071031MA1999999086981MD1999999-0101ME1314789MW1291REMSYN088AAXX  20154 67861 41684 71004 10230 20171 38698 48478 72992 81973 333 59010 81940 85460;
0243678610999992000122018004-18220+028930FM-12+1282FVGO V0200701N00211045001CN0300001N1+02151+01711999999ADDAY191061AY221061GA1011+012009099GA2031+030009049GF107991011091012501071031KA1120M+02851MA1999999087121MD1999999-0151ME1314939MW1131REMSYN100AAXX  20184 67861 41680 70704 10215 20171 38712 48493 71392 81973 333 10285 59015 81940 83460 86080;
0168678610999992000122100004-18220+028930FM-12+1282FVGO V0209999C000010300019N0300001N1+01951+01881999999ADDGA1051+030009079GF105991051001999999031001MA1999999087161MD1999999-0021ME1314979REMSYN076AAXX  21004 67861 42980 50000 10195 20188 38716 48497 85030 333 59002 85360;
0238678610999992000122106004-18220+028930FM-12+1282FVGO V0209999C000010027019N0300001N1+01871+01871999999ADDAA124004191AY191061AY261061GA1061+002709079GF108991061061002501071999KA1120N+01751MA1999999087411MD1999999+0151ME1315209MW1611REMSYN100AAXX  21064 67861 11380 80000 10187 20187 38741 48520 60044 76196 8667/ 333 20175 58015 86709 88460;
0202678610999992000122109004-18220+028930FM-12+1282FVGO V0200901N00211045001CN0500001N1+02511+01661999999ADDAY161031AY221031GA1011+009009099GF107991021021012501041031MA1999999087361MD1999999+0041ME1315189MW1021REMSYN088AAXX  21094 67861 41684 70904 10251 20166 38736 48518 70262 82243 333 58004 81930 86080;
0224678610999992000122112004-18220+028930FM-12+1282FVGO V0203301N00151045001CN0500001N1+02721+01791999999ADDAY161061AY221061GA1011+011109099GA2031+012009089GF106991031021012501061031MA1999999087021MD1999999-0191ME1314859MW1151REMSYN094AAXX  21124 67861 41684 63303 10272 20179 38702 48485 71562 83263 333 59019 81937 83840 85280;
0224678610999992000122115004-18220+028930FM-12+1282FVGO V0203001N00211045001CN0250001N1+01951+01821999999ADDAY191031AY281031GA1011+010509099GA2031+012009089GF107991041021012501071031MA1999999087091MD1999999+0111ME1314899MW1951REMSYN094AAXX  21154 67861 41675 73004 10195 20182 38709 48489 79598 84273 333 58011 81935 83840 87459;
0221678610999992000122118004-18220+028930FM-12+1282FVGO V0201301N00311045001CN0250001N1+02001+01691999999ADDAY191061AY261061GA1021+010509099GF107991021091012501071031KA1120M+02721MA1999999087391MD1999999+0071ME1315099MW1951REMSYN094AAXX  21184 67861 41675 71306 10200 20169 38739 48509 79596 82973 333 10272 58007 82935 87459;
0196678610999992000122200004-18220+028930FM-12+1282FVGO V0200901N001010270019N0250001N1+01861+01711999999ADDAY191061AY261061GA1071+027009019GF107991071001999999071999MA1999999087321MD1999999+0161ME1315129MW1601REMSYN082AAXX  22004 67861 41975 70902 10186 20171 38732 48512 76096 8707/ 333 58016 87459;
0196678610999992000122203004-18220+028930FM-12+1282FVGO V0200701N002610270019N0250001N1+02001+01621999999ADDAY161031AY221031GA1071+027009019GF107991071001999999071021MA1999999087291MD1999999+0061ME1315119MW1021REMSYN082AAXX  22034 67861 41975 70705 10200 20162 38729 48511 70262 87072 333 58006 87459;
0232678610999992000122206004-18220+028930FM-12+1282FVGO V0200801N002110270019N0300001N1+02101+01791999999ADDAA124027991AY161061AY221061GA1071+027009019GF107991071001999999071021KA1120N+01621MA1999999087371MD1999999-0041ME1315189MW1021REMSYN094AAXX  22064 67861 11980 70804 10210 20179 38737 48518 60284 70262 87072 333 20162 59004 87459;
0174678610999992000122209004-18220+028930FM-12+1282FVGO V0200801N00151045001CN0500001N1+02201+01751999999ADDGA1011+006009089GF107991011011008001071999MA1999999087441MD1999999+0081ME1315239REMSYN082AAXX  22094 67861 42584 70803 10220 20175 38744 48523 8117/ 333 58008 81820 87460;
0202678610999992000122212004-18220+028930FM-12+1282FVGO V0201201N002610450019N0500001N1+02631+01681999999ADDAY161061AY221061GA1011+012009099GF106991041021012501031031MA1999999087091MD1999999+0071ME1314919MW1031REMSYN088AAXX  22124 67861 41684 61205 10263 20168 38709 48491 70362 84233 333 58007 81940 84840;
0202678610999992000122215004-18220+028930FM-12+1282FVGO V0200601N00261045001CN0300001N1+02001+01931999999ADDAY191031AY281031GA1021+009009099GF107991021091012501071031MA1999999087101MD1999999+0011ME1314919MW1951REMSYN088AAXX  22154 67861 41680 70605 10200 20193 38710 48491 79598 82973 333 58001 82930 87460;
0221678610999992000122218004-18220+028930FM-12+1282FVGO V0209999C00001045001CN0060001N1+01851+01781999999ADDAY191061AY281061GA1021+002109079GF108991021071002501071999KA1120M+02641MA1999999087271MD1999999-0121ME1315079MW1621REMSYN094AAXX  22184 67861 41356 80000 10185 20178 38727 48507 76298 8277/ 333 10264 59012 82707 88460;
0174678610999992000122709004-18220+028930FM-12+1282FVGO V0201101N001010081019N0500001N1+02331+01711999999ADDGA1061+008109089GF107991061021008001031021MA1999999087581MD1999999+0291ME1315389REMSYN082AAXX  27094 67861 42584 71102 10233 20171 38758 48538 86232 333 58029 86827 83360;
0174678610999992000122712004-18220+028930FM-12+1282FVGO V0200401N00101045001CN0500001N1+02411+01631999999ADDGA1041+009909089GF107991041021012501031021MA1999999087351MD1999999+0231ME1315169REMSYN082AAXX  27124 67861 42684 70402 10241 20163 38735 48516 84232 333 58023 84833 84360;
0202678610999992000122715004-18220+028930FM-12+1282FVGO V0201201N001510450019N0400001N1+02441+01821999999ADDAY191031AY281031GA1011+009009099GF107991041021012501031031MA1999999087251MD1999999+0211ME1315069MW1171REMSYN088AAXX  27154 67861 41682 71203 10244 20182 38725 48506 71798 84233 333 58021 81930 84836;
0221678610999992000122718004-18220+028930FM-12+1282FVGO V0201201N00051045001CN0300001N1+02111+01861999999ADDAY191061AY281061GA1011+009009099GF107991011091012501071031KA1120M+02641MA1999999087381MD1999999+0081ME1315199MW1131REMSYN094AAXX  27184 67861 41680 71201 10211 20186 38738 48519 71398 81973 333 10264 58008 81930 86460;
0174678610999992000122803004-18220+028930FM-12+1282FVGO V0201201N00051045001CN0300001N1+01861+01741999999ADDGA1011+006009069GF107991011051008001031021MA1999999087441MD1999999+0101ME1315259REMSYN082AAXX  28034 67861 42580 71201 10186 20174 38744 48525 81532 333 58010 81620 87360;
0210678610999992000122806004-18220+028930FM-12+1282FVGO V0201001N00151045001CN0500001N1+02041+01771999999ADDAA124000791GA1041+012009089GF107991041011008001041021KA1120N+01791MA1999999087491MD1999999-0011ME1315299REMSYN094AAXX  28064 67861 12584 71003 10204 20177 38749 48529 69904 84142 333 20179 59001 84840 83360;
0168678610999992000122809004-18220+028930FM-12+1282FVGO V0203601N002110075019N0500001N1+02411+01791999999ADDGA1051+007509029GF107991051011008001041021MA1999999087551MD1999999-0031ME1315369REMSYN076AAXX  28094 67861 42584 73604 10241 20179 38755 48536 85142 333 59003 85825;
0174678610999992000122812004-18220+028930FM-12+1282FVGO V0200501N001510450019N0500001N1+02601+01791999999ADDGA1011+009009099GF106991041021012501031031MA1999999087341MD1999999-0011ME1315179REMSYN082AAXX  28124 67861 42684 60503 10260 20179 38734 48517 84233 333 59001 81930 84835;
0224678610999992000122815004-18220+028930FM-12+1282FVGO V0209999C00001045001CN0500001N1+02401+01811999999ADDAY191031AY281031GA1011+009009099GA2031+010509089GF107991031021012501071031MA1999999087201MD1999999-0051ME1315019MW1291REMSYN094AAXX  28154 67861 41684 70000 10240 20181 38720 48501 72998 83273 333 59005 81930 83835 85080;
0168678610999992000122903004-18220+028930FM-12+1282FVGO V0203601N001010300019N0250001N1+01891+01691999999ADDGA1051+030009079GF105991051001999999031001MA1999999087251MD1999999-0191ME1315069REMSYN076AAXX  29034 67861 42975 53602 10189 20169 38725 48506 85030 333 59019 85360;
0210678610999992000122906004-18220+028930FM-12+1282FVGO V0200301N00101045001CN0400001N1+02061+01821999999ADDAA124000791GA1031+004509069GF107991031051004501071001KA1120N+01821MA1999999087351MD1999999-0141ME1315159REMSYN094AAXX  29064 67861 12482 70302 10206 20182 38735 48515 69904 83570 333 20182 59014 83615 87359;
0174678610999992000122909004-18220+028930FM-12+1282FVGO V0200501N00151045001CN0500001N1+02511+01841999999ADDGA1041+008409089GF107991041011008001031021MA1999999087381MD1999999-0171ME1315229REMSYN082AAXX  29094 67861 42584 70503 10251 20184 38738 48522 84132 333 59017 84828 86359;
0215678610999992000122918004-18220+028930FM-12+1282FVGO V0209999C000012200019N0300001N1+02001+01851999999ADDAY191061AY281061GA1011+027009079GF101991011001999999061021KA1120M+02851MA1999999086991MD1999999-0271ME1315799MW1011REMSYN088AAXX  29184 67861 41980 10000 10200 20185 38699 48579 70198 81062 333 10285 59027 81359;
0168678610999992000123000004-18220+028930FM-12+1282FVGO V0201201N001512200019N0300001N1+01821+01711999999ADDGA1011+027009079GF101991011001999999041021MA1999999087121MD1999999-0151ME1314929REMSYN076AAXX  30004 67861 42980 11203 10182 20171 38712 48492 81042 333 59015 81359;
0210678610999992000123006004-18220+028930FM-12+1282FVGO V0201101N001512200019N0300001N1+02301+01721999999ADDAA124000791GA1011+027009039GF103991011001999999081021KA1120N+01761MA1999999087281MD1999999-0071ME1315119REMSYN094AAXX  30064 67861 12980 31103 10230 20172 38728 48511 69904 81082 333 20176 59007 81359 83080;
0168678610999992000123009004-18220+028930FM-12+1282FVGO V0201201N001012200019N0500001N1+02681+01731999999ADDGA1021+010509029GF103991021011012501001021MA1999999087211MD1999999-0171ME1315049REMSYN076AAXX  30094 67861 42684 31202 10268 20173 38721 48504 82102 333 59017 82835;
0202678610999992000123012004-18220+028930FM-12+1282FVGO V0203501N00101045001CN0500001N1+02821+01761999999ADDAY191061AY221061GA1011+015009099GF106991041021017501061031MA1999999086781MD1999999-0221ME1314629MW1171REMSYN088AAXX  30124 67861 41784 63502 10282 20176 38678 48462 71792 84263 333 59022 81950 84850;
0221678610999992000123018004-18220+028930FM-12+1282FVGO V0201901N00151045001CN0400001N1+02221+01661999999ADDAY191061AY281061GA1011+015009099GF107991011091017501071031KA1120M+03031MA1999999086991MD1999999+0001ME1314809MW1171REMSYN094AAXX  30184 67861 41782 71903 10222 20166 38699 48480 71798 81973 333 10303 58000 81950 87460;
0202678610999992000123103004-18220+028930FM-12+1282FVGO V0203501N00101105001CN0300001N1+01831+01631999999ADDAY111031AY211031GA1011+009009099GF106991011091012501071031MA1999999087091MD1999999-0071ME1314899MW1131REMSYN088AAXX  31034 67861 41680 63502 10183 20163 38709 48489 71311 81973 333 59007 81930 86460;
0210678610999992000123106004-18220+028930FM-12+1282FVGO V0200101N001019999999N0400001N1+02291+01591999999ADDAA124000391GA1031+030009039GF107991031001999999031081KA1120N+01721MA1999999087221MD1999999-0061ME1315059REMSYN094AAXX  31064 67861 12982 70102 10229 20159 38722 48505 69934 83038 333 20172 59006 83360 87280;
0174678610999992000123109004-18220+028930FM-12+1282FVGO V0203401N00101045001CN0500001N1+02551+01811999999ADDGA1041+009609089GF107991041011012501041081MA1999999087231MD1999999+0021ME1315059REMSYN082AAXX  31094 67861 42684 73402 10255 20181 38723 48505 84148 333 58002 84832 86280;
0202678610999992000123112004-18220+028930FM-12+1282FVGO V0203301N00211045001CN0500001N1+02881+01691999999ADDAY121061AY221061GA1011+013509099GF105991041021017501061031MA1999999087061MD1999999+0111ME1314909MW1151REMSYN088AAXX  31124 67861 41784 53304 10288 20169 38706 48490 71522 84263 333 58011 81945 84850;
0202678610999992000123115004-18220+028930FM-12+1282FVGO V0203001N001012200019N0500001N1+02901+01711999999ADDAY111031AY211031GA1011+013509099GF103991031021017501061031MA1999999086851MD1999999+0071ME1314699MW1151REMSYN088AAXX  31154 67861 41784 33002 10290 20171 38685 48469 71511 83263 333 58007 81945 83850;
0221678610999992000123118004-18220+028930FM-12+1282FVGO V0209999C00001105001CN0300001N1+02451+01781999999ADDAY191061AY211061GA1011+013509099GF105991011091012501061081KA1120M+02981MA1999999086971MD1999999-0021ME1314819MW1171REMSYN094AAXX  31184 67861 41680 50000 10245 20178 38697 48481 71791 81968 333 10298 59002 81945 85280;
