0178080270999992000010100004+43300-002050FM-12+025999999V0202401N004110075019N0300001N1+00801+00581102871ADDAA106000191AY161061AY221061GF108991081071008001999999MA1999999099711MD1110081+9999MW1021REMSYN078AAXX  01004 08027 11580 82408 10080 20058 39971 40287 51008 69921 70262 887//;
0133080270999992000010103004+43300-002050FM-12+025999999V0202601N002110075019N0300001N1+00821+00651102871ADDGF108991081071008001999999MA1999999099711MD1410001+9999REMSYN066AAXX  01034 08027 42580 82604 10082 20065 39971 40287 54000 887//;
0209080270999992000010106004+43300-002050FM-12+025999999V0202301N002110075019N0300001N1+00841+00581102831ADDAA112000191GF108991081071008001999999IA1119IA2999+00709KA1120N+00721MA1999999099671MD1510041+9999REMSYN100AAXX  01064 08027 12580 82304 10084 20058 39967 40283 55004 69922 887// 333 20072 32007 50020 55000;
0161080270999992000010109004+43300-002050FM-12+025999999V0202801N002110075019N0200001N1+00821+00651102941ADDAY151031AY221031GF108991081071008001999999MA1999999099781MD1210111+9999MW1501REMSYN072AAXX  01094 08027 41570 82804 10082 20065 39978 40294 52011 75052 887//;
0178080270999992000010112004+43300-002050FM-12+025999999V0203401N001010075019N0150001N1+00881+00751102951ADDAA106000791AY151061AY221061GF108991081071008001999999MA1999999099791MD1010011+9999MW1021REMSYN078AAXX  01124 08027 11565 83402 10088 20075 39979 40295 50001 69901 70252 887//;
0201080270999992000010118004+43300-002050FM-12+025999999V0209999C000010075019N0100001N1+00841+00761102901ADDAA112000191AY151061AY221061GF108991081071008001999999KA1999M+00941MA1999999099741MD1110031+9999MW1021REMSYN088AAXX  01184 08027 11560 80000 10084 20076 39974 40290 51003 69922 70252 887// 333 10094;
0171080270999992000010121004+43300-002050FM-12+025999999V0201301N001510003019N0004001N1+00781+00741102921ADDAY151031AY241031GA1091+999999999GF109991091999999999999999MA1999999099751MD1110011+9999MW1471REMSYN066AAXX  01214 08027 41/04 91303 10078 20074 39975 40292 51001 74754;
0178080270999992000010200004+43300-002050FM-12+025999999V0200101N001010075019N0120001N1+00741+00701102951ADDAA106000591AY141061AY221061GF108991081071008001999999MA1999999099781MD1310031+9999MW1021REMSYN078AAXX  02004 08027 11562 80102 10074 20070 39978 40295 53003 69951 70242 887//;
0171080270999992000010203004+43300-002050FM-12+025999999V0202901N002610003019N0004001N1+00801+00711102911ADDAY141031AY221031GA1091+999999999GF109991091999999999999999MA1999999099751MD1510031+9999MW1471REMSYN066AAXX  02034 08027 41/04 92905 10080 20071 39975 40291 55003 74742;
0237080270999992000010206004+43300-002050FM-12+025999999V0203101N001010075019N0100001N1+00781+00741102821ADDAA112000591AY141061AY221061GF108991081071008001999999IA1099IA2999+00809KA1120N+00721MA1999999099661MD1610091+9999MW1021REMSYN106AAXX  02064 08027 11560 83102 10078 20074 39966 40282 56009 69952 70242 887// 333 20072 31008 50020 55000;
0171080270999992000010209004+43300-002050FM-12+025999999V0200101N002110006019N0007001N1+00821+00781103021ADDAY161031AY241031GA1091+999999999GF109991091999999999999999MA1999999099861MD1110121+9999MW1471REMSYN066AAXX  02094 08027 41/07 90104 10082 20078 39986 40302 51012 74764;
0178080270999992000010212004+43300-002050FM-12+025999999V0203301N002110021019N0020001N1+00881+00881102891ADDAA106000891AY161061AY241061GF108991081061002501999999MA1999999099741MD1810121+9999MW1101REMSYN078AAXX  02124 08027 11320 83304 10088 20088 39974 40289 58012 69981 71064 886//;
0201080270999992000010218004+43300-002050FM-12+025999999V0200701N002110090019N0030001N1+00841+00801102771ADDAA112000891AY121061AY221061GF108991081081004501999999KA1999M+00941MA1999999099621MD1410001+9999MW1101REMSYN088AAXX  02184 08027 11430 80704 10084 20080 39962 40277 54000 69982 71022 888// 333 10094;
0161080270999992000010221004+43300-002050FM-12+025999999V0200801N002110042019N0030001N1+00861+00821102771ADDAY121031AY221031GF108991081061004501999999MA1999999099621MD1510001+9999MW1101REMSYN072AAXX  02214 08027 41430 80804 10086 20082 39962 40277 55000 71022 886//;
0201080270999992000010300004+43300-002050FM-12+025999999V0201501N002112200019N0040001N1+00741+00701102791ADDAA106000091AY111061AY201061GA1001+999999999GF100991001001999999001001MA1999999099621MD1410001+9999MW1101REMSYN066AAXX  03004 08027 31940 01504 10074 20070 39962 40279 54000 71010;EQDQ01  00002PRCP06
0143080270999992000010303004+43300-002050FM-12+025999999V0201701N005112200019N0300001N1+00621+00391102761ADDGA1001+999999999GF100991001001999999001001MA1999999099581MD1810041+9999REMSYN060AAXX  03034 08027 42980 01710 10062 20039 39958 40276 58004;
0232080270999992000010306004+43300-002050FM-12+025999999V0201701N007212200019N0150001N1+00681+00191102681ADDAA106000091GA1001+999999999GF100991001001999999001001IA1099IA2999+00509KA1120N+00581MA1999999099511MD1710071+9999REMSYN088AAXX  03064 08027 32965 01714 10068 20019 39951 40268 57007 333 20058 31005 50060 55001;EQDQ01  00002PRCP06
0133080270999992000010309004+43300-002050FM-12+025999999V0201601N009812200019N0200001N1+00781+00201102701ADDGF101991001001999999001011MA1999999099541MD1310031+9999REMSYN066AAXX  03094 08027 42970 11619 10078 20020 39954 40270 53003 80001;
0163080270999992000010312004+43300-002050FM-12+025999999V0201601N007212200019N0200001N1+01081+00301102671ADDAA106000091GF103991001001999999001011MA1999999099541MD1010001+9999REMSYN066AAXX  03124 08027 32970 31614 10108 20030 39954 40267 50000 80001;EQDQ01  00002PRCP06
0186080270999992000010318004+43300-002050FM-12+025999999V0201601N008212200019N0250001N1+00961+00141102601ADDAA106000091GF101991001001999999001011KA1999M+01201MA1999999099461MD1510001+9999REMSYN076AAXX  03184 08027 32975 11616 10096 20014 39946 40260 55000 80001 333 10120;EQDQ01  00002PRCP06
0143080270999992000010321004+43300-002050FM-12+025999999V0201601N008212200019N0250001N1+00901+00181102651ADDGA1001+999999999GF100991001001999999001001MA1999999099501MD1110041+9999REMSYN060AAXX  03214 08027 42975 01616 10090 20018 39950 40265 51004;
0173080270999992000010400004+43300-002050FM-12+025999999V0201701N009312200019N0250001N1+00841+00161102621ADDAA106000091GA1001+999999999GF100991001001999999001001MA1999999099471MD1710031+9999REMSYN060AAXX  04004 08027 32975 01718 10084 20016 39947 40262 57003;EQDQ01  00002PRCP06
0143080270999992000010403004+43300-002050FM-12+025999999V0201701N009312200019N0250001N1+00821+00141102591ADDGA1001+999999999GF100991001001999999001001MA1999999099431MD1610041+9999REMSYN060AAXX  04034 08027 42975 01718 10082 20014 39943 40259 56004;
0133080270999992000010409004+43300-002050FM-12+025999999V0201801N004112200019N0200001N1+00801+00051102741ADDGF101991001001999999001011MA1999999099581MD1210121+9999REMSYN066AAXX  04094 08027 42970 11808 10080 20005 39958 40274 52012 80001;
0163080270999992000010412004+43300-002050FM-12+025999999V0201701N006212200019N0250001N1+01101+00161102711ADDAA106000091GF101991001001999999001011MA1999999099581MD1010001+9999REMSYN066AAXX  04124 08027 32975 11712 10110 20016 39958 40271 50000 80001;EQDQ01  00002PRCP06
0186080270999992000010418004+43300-002050FM-12+025999999V0201601N002112200019N0250001N1+01121+00121102631ADDAA106000091GF103991001001999999001011KA1999M+01321MA1999999099511MD1110041+9999REMSYN076AAXX  04184 08027 32975 31604 10112 20012 39951 40263 51004 80001 333 10132;EQDQ01  00002PRCP06
0133080270999992000010421004+43300-002050FM-12+025999999V0203101N004612200019N0250001N1+01101+00331102751ADDGF102991011001017501051011MA1999999099621MD1310111+9999REMSYN066AAXX  04214 08027 42775 23109 10110 20033 39962 40275 53011 81051;
0163080270999992000010500004+43300-002050FM-12+025999999V0201801N002610360019N0200001N1+00881+00381102771ADDAA106000091GF108991031061012501071999MA1999999099621MD1010001+9999REMSYN066AAXX  05004 08027 32670 81805 10088 20038 39962 40277 50000 8367/;EQDQ01  00002PRCP06
0143080270999992000010503004+43300-002050FM-12+025999999V0201801N002112200019N0300001N1+00781+00261102581ADDGA1001+999999999GF100991001001999999001001MA1999999099421MD1710201+9999REMSYN060AAXX  05034 08027 42980 01804 10078 20026 39942 40258 57020;
0232080270999992000010506004+43300-002050FM-12+025999999V0201701N003112200019N0250001N1+00781+00261102371ADDAA106000091GA1001+999999999GF100991001001999999001001IA1019IA2999+00609KA1120N+00721MA1999999099221MD1710201+9999REMSYN088AAXX  05064 08027 32975 01706 10078 20026 39922 40237 57020 333 20072 30006 50150 55065;EQDQ01  00002PRCP06
0133080270999992000010509004+43300-002050FM-12+025999999V0201601N006710360019N0250001N1+00741+00261102301ADDGF106991011011012501041051MA1999999099151MD1610071+9999REMSYN066AAXX  05094 08027 42675 61613 10074 20026 39915 40230 56007 81145;
0163080270999992000010512004+43300-002050FM-12+025999999V0201801N008210360019N0220001N1+00981+00341102141ADDAA106000091GF106991011011012501041051MA1999999099021MD1810131+9999REMSYN066AAXX  05124 08027 32672 61816 10098 20034 39902 40214 58013 81145;EQDQ01  00002PRCP06
0133080270999992000010521004+43300-002050FM-12+025999999V0201601N014912200019N0200001N1+00961-00171101691ADDGF102991011011012501041001MA1999999098581MD1710011+9999REMSYN066AAXX  05214 08027 42670 21629 10096 21017 39858 40169 57001 81140;
0143080270999992000010603004+43300-002050FM-12+025999999V0201601N012912200019N0300001N1+00761-00201101841ADDGA1001+999999999GF100991001001999999001001MA1999999098701MD1210071+9999REMSYN060AAXX  06034 08027 42980 01625 10076 21020 39870 40184 52007;
0232080270999992000010606004+43300-002050FM-12+025999999V0201801N008212200019N0300001N1+00741-00031101921ADDAA106000091GA1001+999999999GF100991001001999999001001IA1019IA2999+00709KA1120N+00661MA1999999098781MD1110081+9999REMSYN088AAXX  06064 08027 32980 01816 10074 21003 39878 40192 51008 333 20066 30007 50350 55004;EQDQ01  00002PRCP06
0133080270999992000010609004+43300-002050FM-12+025999999V0201601N008219999999N0300001N1+00841-00021102081ADDGF106991001001999999001011MA1999999098941MD1210161+9999REMSYN066AAXX  06094 08027 42980 61616 10084 21002 39894 40208 52016 80001;
0163080270999992000010612004+43300-002050FM-12+025999999V0202001N004119999999N0400001N1+01181+00091102251ADDAA106000091GF106991001001999999001011MA1999999099141MD1110201+9999REMSYN066AAXX  06124 08027 32982 62008 10118 20009 39914 40225 51020 80001;EQDQ01  00002PRCP06
0133080270999992000010621004+43300-002050FM-12+025999999V0201801N002112200019N0300001N1+00841+00221102611ADDGF102991011001017501081011MA1999999099461MD1210111+9999REMSYN066AAXX  06214 08027 42780 21804 10084 20022 39946 40261 52011 81081;
0163080270999992000010700004+43300-002050FM-12+025999999V0201601N003112200019N0250001N1+00801+00171102631ADDAA106000091GF102991011001017501081011MA1999999099471MD1110011+9999REMSYN066AAXX  07004 08027 32775 21606 10080 20017 39947 40263 51001 81081;EQDQ01  00002PRCP06
0133080270999992000010703004+43300-002050FM-12+025999999V0201601N002110150019N0200001N1+00901+00241102691ADDGF107991071001017501071999MA1999999099541MD1110071+9999REMSYN066AAXX  07034 08027 42770 71604 10090 20024 39954 40269 51007 8707/;
0222080270999992000010706004+43300-002050FM-12+025999999V0201601N002110150019N0200001N1+00961+00201102611ADDAA106000091GF107991071001017501051999IA1099IA2999+00709KA1120N+00761MA1999999099471MD1610071+9999REMSYN094AAXX  07064 08027 32770 71604 10096 20020 39947 40261 56007 8705/ 333 20076 31007 50010 55078;EQDQ01  00002PRCP06
0133080270999992000010709004+43300-002050FM-12+025999999V0201801N002110150019N0400001N1+00981+00231102681ADDGF107991071001017501051999MA1999999099541MD1310071+9999REMSYN066AAXX  07094 08027 42782 71804 10098 20023 39954 40268 53007 8705/;
0163080270999992000010712004+43300-002050FM-12+025999999V0203401N001012200019N0300001N1+01121+00561102621ADDAA106000091GF101991011001017501041001MA1999999099501MD1810041+9999REMSYN066AAXX  07124 08027 32780 13402 10112 20056 39950 40262 58004 81040;EQDQ01  00002PRCP06
0186080270999992000010718004+43300-002050FM-12+025999999V0209999C000012200019N0150001N1+01001+00361102481ADDAA106000091GF101991011001017501041001KA1999M+01381MA1999999099351MD1410001+9999REMSYN076AAXX  07184 08027 32765 10000 10100 20036 39935 40248 54000 81040 333 10138;EQDQ01  00002PRCP06
0133080270999992000010721004+43300-002050FM-12+025999999V0201701N003110150019N0150001N1+01021+00491102481ADDGF107991071001017501051999MA1999999099351MD1410001+9999REMSYN066AAXX  07214 08027 42765 71706 10102 20049 39935 40248 54000 8705/;
0163080270999992000010800004+43300-002050FM-12+025999999V0200301N001010150019N0100001N1+01101+00441102471ADDAA106000091GF107991071001017501051999MA1999999099351MD1410001+9999REMSYN066AAXX  08004 08027 32760 70302 10110 20044 39935 40247 54000 8705/;EQDQ01  00002PRCP06
0133080270999992000010803004+43300-002050FM-12+025999999V0203001N002110075019N0150001N1+01101+00331102421ADDGF107991071051008001999999MA1999999099301MD1810051+9999REMSYN066AAXX  08034 08027 42565 73004 10110 20033 39930 40242 58005 875//;
0222080270999992000010806004+43300-002050FM-12+025999999V0201701N001010075019N0150001N1+00981+00451102361ADDAA106000091GF107991071051008001999999IA1099IA2999+00909KA1120N+00921MA1999999099231MD1710071+9999REMSYN094AAXX  08064 08027 32565 71702 10098 20045 39923 40236 57007 875// 333 20092 31009 50010 55075;EQDQ01  00002PRCP06
0133080270999992000010809004+43300-002050FM-12+025999999V0201701N002110150019N0100001N1+01021+00391102401ADDGF107991071001017501051999MA1999999099271MD1310041+9999REMSYN066AAXX  08094 08027 42760 71704 10102 20039 39927 40240 53004 8705/;
0163080270999992000010812004+43300-002050FM-12+025999999V0201501N003110150019N0150001N1+01201+00461102331ADDAA106000091GF107991071001017501051999MA1999999099231MD1810041+9999REMSYN066AAXX  08124 08027 32765 71506 10120 20046 39923 40233 58004 8705/;EQDQ01  00002PRCP06
0186080270999992000010818004+43300-002050FM-12+025999999V0203201N001512200019N0150001N1+01161+00411102331ADDAA106000091GF104991041041012501001001KA1999M+01341MA1999999099221MD1310071+9999REMSYN076AAXX  08184 08027 32665 43203 10116 20041 39922 40233 53007 84400 333 10134;EQDQ01  00002PRCP06
0133080270999992000010821004+43300-002050FM-12+025999999V0201301N001012200019N0150001N1+01061+00491102341ADDGF104991041001017501071001MA1999999099221MD1410001+9999REMSYN066AAXX  08214 08027 42765 41302 10106 20049 39922 40234 54000 84070;
0163080270999992000010900004+43300-002050FM-12+025999999V0203201N003112200019N0150001N1+01001+00521102301ADDAA106000091GF103991031001017501071001MA1999999099181MD1810041+9999REMSYN066AAXX  09004 08027 32765 33206 10100 20052 39918 40230 58004 83070;EQDQ01  00002PRCP06
0133080270999992000010903004+43300-002050FM-12+025999999V0203101N004110360019N0150001N1+00961+00571102271ADDGF106991031051008001071001MA1999999099141MD1510041+9999REMSYN066AAXX  09034 08027 42565 63108 10096 20057 39914 40227 55004 83570;
0188080270999992000010909004+43300-002050FM-12+025999999V0200101N008210090019N0050001N1+00741+00651102631ADDAY161031AY221031GF108991081081004501999999MA1999999099471MD1310331+9999MW1611OA149902681REMSYN088AAXX  09094 08027 41450 80116 10074 20065 39947 40263 53033 76162 888// 333 91152 91535;
0178080270999992000010912004+43300-002050FM-12+025999999V0200301N003610120019N0120001N1+00761+00541102831ADDAA106002091AY161061AY221061GF107991051081008001071001MA1999999099661MD1210191+9999MW1021REMSYN078AAXX  09124 08027 11562 70307 10076 20054 39966 40283 52019 60021 70262 85870;
0201080270999992000010918004+43300-002050FM-12+025999999V0203501N004110120019N0150001N1+00621+00481102971ADDAA112003091AY161061AY221061GF107991071081008001999999KA1999M+00961MA1999999099781MD1310121+9999MW1611REMSYN088AAXX  09184 08027 11565 73508 10062 20048 39978 40297 53012 60032 76162 878// 333 10096;
0161080270999992000010921004+43300-002050FM-12+025999999V0209999V001510075019N0100001N1+00521+00431103071ADDAY161031AY261031GF108991081071008001999999MA1999999099871MD1110091+9999MW1211REMSYN072AAXX  09214 08027 41560 89903 10052 20043 39987 40307 51009 72166 887//;
0178080270999992000011000004+43300-002050FM-12+025999999V0200701N003110075019N0100001N1+00521+00431103141ADDAA106009991AY161061AY221061GF108991081071008001999999MA1999999099941MD1310071+9999MW1211REMSYN078AAXX  10004 08027 11560 80706 10052 20043 39994 40314 53007 60101 72162 887//;
0133080270999992000011003004+43300-002050FM-12+025999999V0200401N005110075019N0100001N1+00441+00341103241ADDGF107991071071008001999999MA1999999100021MD1310081+9999REMSYN066AAXX  10034 08027 42560 70410 10044 20034 30002 40324 53008 877//;
0209080270999992000011006004+43300-002050FM-12+025999999V0200401N003612200019N0100001N1+00361+00311103331ADDAA112009991GF102991021071008001999999IA1119IA2999+00409KA1120N+00361MA1999999100101MD1310081+9999REMSYN100AAXX  10064 08027 12560 20407 10036 20031 30010 40333 53008 60102 827// 333 20036 32004 50200 55022;
0161080270999992000011009004+43300-002050FM-12+025999999V0209999V001010090019N0040001N1+00321+00221103461ADDAY121031AY221031GF106991061081004501999999MA1999999100221MD1310121+9999MW1101REMSYN072AAXX  10094 08027 41440 69902 10032 20022 30022 40346 53012 71022 868//;
0163080270999992000011012004+43300-002050FM-12+025999999V0200201N002112200019N0120001N1+00401+00201103501ADDAA106000091GF103991031021008001999999MA1999999100271MD1010051+9999REMSYN066AAXX  10124 08027 32562 30204 10040 20020 30027 40350 50005 832//;EQDQ01  00002PRCP06
0186080270999992000011018004+43300-002050FM-12+025999999V0200301N002112200019N0300001N1+00401+00091103531ADDAA106000091GF103991031021008001001001KA1999M+00521MA1999999100301MD1110121+9999REMSYN076AAXX  10184 08027 32580 30304 10040 20009 30030 40353 51012 83200 333 10052;EQDQ01  00002PRCP06
0133080270999992000011021004+43300-002050FM-12+025999999V0200101N002112200019N0300001N1+00401+00031103531ADDGF103991031021008001001001MA1999999100301MD1410001+9999REMSYN066AAXX  10214 08027 42580 30104 10040 20003 30030 40353 54000 83200;
0163080270999992000011100004+43300-002050FM-12+025999999V0209999V001012200019N0300001N1+00381+00011103531ADDAA106000091GF103991031051008001001001MA1999999100301MD1410001+9999REMSYN066AAXX  11004 08027 32580 39902 10038 20001 30030 40353 54000 83500;EQDQ01  00002PRCP06
0222080270999992000011106004+43300-002050FM-12+025999999V0200101N001012200019N0300001N1+00241+00081103591ADDAA106000091GF103991031051008001001001IA1099IA2999+00009KA1120N+00161MA1999999100341MD1310041+9999REMSYN094AAXX  11064 08027 32580 30102 10024 20008 30034 40359 53004 83500 333 20016 31000 50010 55057;EQDQ01  00002PRCP06
0133080270999992000011109004+43300-002050FM-12+025999999V0200801N001010075019N0150001N1+00281+00011103681ADDGF106991061071008001001001MA1999999100431MD1210091+9999REMSYN066AAXX  11094 08027 42565 60802 10028 20001 30043 40368 52009 86700;
0163080270999992000011112004+43300-002050FM-12+025999999V0203401N001012200019N0200001N1+00361+00101103581ADDAA106000091GF104991041051008001001001MA1999999100341MD1810091+9999REMSYN066AAXX  11124 08027 32570 43402 10036 20010 30034 40358 58009 84500;EQDQ01  00002PRCP06
0214080270999992000011118004+43300-002050FM-12+025999999V0200901N001510042019N0040001N1+00361+00211103461ADDAA106000091AY121061AY221061GF108991081061004501999999KA1999M+00501MA1999999100231MD1210051+9999MW1101REMSYN082AAXX  11184 08027 31440 80903 10036 20021 30023 40346 52005 71022 886// 333 10050;EQDQ01  00002PRCP06
0161080270999992000011121004+43300-002050FM-12+025999999V0201601N002112200019N0050001N1+00261+00101103431ADDAY111031AY201031GF102991021061004501001001MA1999999100191MD1810041+9999MW1101REMSYN072AAXX  11214 08027 41450 21604 10026 20010 30019 40343 58004 71010 82600;
0173080270999992000011200004+43300-002050FM-12+025999999V0203201N001512200019N0200001N1+00261+00161103341ADDAA106000091GA1001+999999999GF100991001001999999001001MA1999999100101MD1710091+9999REMSYN060AAXX  12004 08027 32970 03203 10026 20016 30010 40334 57009;EQDQ01  00002PRCP06
0161080270999992000011203004+43300-002050FM-12+025999999V0203001N002112200019N0050001N1+00301+00251103211ADDAY101031AY201031GF102991021061004501001001MA1999999099981MD1710121+9999MW1101REMSYN072AAXX  12034 08027 41450 23004 10030 20025 39998 40321 57012 71000 82600;
0266080270999992000011206004+43300-002050FM-12+025999999V0201601N002112200019N0150001N1+00061+00061103121ADDAA106000091AY101061AY201061GA1001+999999999GF100991001001999999001001IA1149IA2999+00109KA1120N+00021MA1999999099861MD1710121+9999MW1101REMSYN100AAXX  12064 08027 32965 01604 10006 20006 39986 40312 57012 71000 82600 333 20002 34001 50010 55051;EQDQ01  00002PRCP06
0191080270999992000011212004+43300-002050FM-12+025999999V0209999C000012200019N0050001N1+00421+00321102951ADDAA106000091AY101061AY201061GF101991011001017501041001MA1999999099741MD1810131+9999MW1101REMSYN072AAXX  12124 08027 31750 10000 10042 20032 39974 40295 58013 71000 81040;EQDQ01  00002PRCP06
0224080270999992000011218004+43300-002050FM-12+025999999V0201801N002112200019N0020001N1+00361+00261102751ADDAA106000091AY141061AY201061GA1001+999999999GF100991001001999999001001KA1999M+00441MA1999999099541MD1710041+9999MW1101REMSYN076AAXX  12184 08027 31920 01804 10036 20026 39954 40275 57004 71040 333 10044;EQDQ01  00002PRCP06
0171080270999992000011221004+43300-002050FM-12+025999999V0201901N002112200019N0020001N1+00481-00111102631ADDAY101031AY201031GA1001+999999999GF100991001001999999001001MA1999999099431MD1710111+9999MW1051REMSYN066AAXX  12214 08027 41920 01904 10048 21011 39943 40263 57011 70500;
0173080270999992000011300004+43300-002050FM-12+025999999V0201701N005112200019N0350001N1+00481-00111102451ADDAA106000091GA1001+999999999GF100991001001999999001001MA1999999099261MD1710171+9999REMSYN060AAXX  13004 08027 32981 01710 10048 21011 39926 40245 57017;EQDQ01  00002PRCP06
0143080270999992000011303004+43300-002050FM-12+025999999V0201801N005112200019N0350001N1+00521-00061102211ADDGA1001+999999999GF100991001001999999001001MA1999999099031MD1810231+9999REMSYN060AAXX  13034 08027 42981 01810 10052 21006 39903 40221 58023;
0222080270999992000011306004+43300-002050FM-12+025999999V0201601N005110150019N0350001N1+00521-00061102041ADDAA106000091GF107991071001017501051999IA1099IA2999+00409KA1120N+00301MA1999999098871MD1710161+9999REMSYN094AAXX  13064 08027 32781 71610 10052 21006 39887 40204 57016 8705/ 333 20030 31004 50130 55080;EQDQ01  00002PRCP06
0133080270999992000011309004+43300-002050FM-12+025999999V0201701N007210150019N0150001N1+00681+00021101931ADDGF107991061001017501051011MA1999999098781MD1610091+9999REMSYN066AAXX  13094 08027 42765 71714 10068 20002 39878 40193 56009 86051;
0163080270999992000011312004+43300-002050FM-12+025999999V0201801N009810150019N0100001N1+00761+00001101731ADDAA106000091GF107991071001017501071999MA1999999098591MD1710191+9999REMSYN066AAXX  13124 08027 32760 71819 10076 20000 39859 40173 57019 8707/;EQDQ01  00002PRCP06
0173080270999992000011318004+43300-002050FM-12+025999999V0201601N008210075019N0100001N1+00861-00051101421ADDAA112000791GF108991051051008001071999KA1999M+00901MA1999999098301MD1710081+9999REMSYN082AAXX  13184 08027 12560 81616 10086 21005 39830 40142 57008 69902 8557/ 333 10090;
0137080270999992000011321004+43300-002050FM-12+025999999V0201601N008210075019N0100001N1+00821-00101101341ADDGF108991051051008001071999MA1999999098221MD1810081+9999REMSYN070    AAXX  13214 08027 42560 81616 10082 21010 39822 40134 58008 8557/;
0167080270999992000011400004+43300-002050FM-12+025999999V0201601N007210360019N0150001N1+00821-00321101221ADDAA199000091GF107991031051008001071001MA1999999098101MD1810121+9999REMSYN070    AAXX  14004 08027 32565 71614 10082 21032 39810 40122 58012 83570;EQDQ01  00002PRCP99
0137080270999992000011403004+43300-002050FM-12+025999999V0201601N009810360019N0150001N1+00801-00271101131ADDGF108991041051008001071999MA1999999098021MD1710081+9999REMSYN070    AAXX  14034 08027 42565 81619 10080 21027 39802 40113 57008 8457/;
0226080270999992000011406004+43300-002050FM-12+025999999V0201601N007210075019N0150001N1+00741-00081101071ADDAA199000091GF108991051051008001071999IA1019IA2999+00709KA1120N+00681MA1999999097951MD1610071+9999REMSYN098    AAXX  14064 08027 32565 81614 10074 21008 39795 40107 56007 8557/ 333 20068 30007 50160 55007;EQDQ01  00002PRCP99
0137080270999992000011409004+43300-002050FM-12+025999999V0201501N003110360019N0150001N1+00701+00051101071ADDGF106991031051012501071011MA1999999097951MD1410001+9999REMSYN070    AAXX  14094 08027 42665 61506 10070 20005 39795 40107 54000 83571;
0167080270999992000011412004+43300-002050FM-12+025999999V0201401N002610900019N0150001N1+00961+00091101081ADDAA199000091GF105991021051012501071011MA1999999097991MD1010081+9999REMSYN070    AAXX  14124 08027 32665 51405 10096 20009 39799 40108 50008 82571;EQDQ01  00002PRCP99
0190080270999992000011418004+43300-002050FM-12+025999999V0200801N002110120019N0250001N1+00861+00251101131ADDAA199000091GF108991051051012501071999KA1999M+01041MA1999999098021MD1210151+9999REMSYN080    AAXX  14184 08027 32675 80804 10086 20025 39802 40113 52015 8557/ 333 10104;EQDQ01  00002PRCP99
0137080270999992000011421004+43300-002050FM-12+025999999V0201401N002610120019N0250001N1+00801+00061101271ADDGF108991051051012501071999MA1999999098151MD1210131+9999REMSYN070    AAXX  14214 08027 42675 81405 10080 20006 39815 40127 52013 8557/;
0167080270999992000011500004+43300-002050FM-12+025999999V0201901N003110120019N0250001N1+00821+00021101461ADDAA199000091GF108991051051012501071999MA1999999098341MD1210191+9999REMSYN070    AAXX  15004 08027 32675 81906 10082 20002 39834 40146 52019 8557/;EQDQ01  00002PRCP99
0137080270999992000011503004+43300-002050FM-12+025999999V0200301N002610120019N0250001N1+00821+00251101541ADDGF108991051071012501071999MA1999999098421MD1310081+9999REMSYN070    AAXX  15034 08027 42675 80305 10082 20025 39842 40154 53008 8577/;
0226080270999992000011506004+43300-002050FM-12+025999999V0201801N00101036001CN0140001N1+00701+00381101681ADDAA199000091GF106991021051012501071999IA1019IA2999+00709KA1120N+00681MA1999999098541MD1310121+9999REMSYN098    AAXX  15064 08027 32664 61802 10070 20038 39854 40168 53012 8257/ 333 20068 30007 50160 55015;EQDQ01  00002PRCP99
0137080270999992000011509004+43300-002050FM-12+025999999V0202101N00211036001CN0100001N1+00721+00241101931ADDGF106991021051012501071999MA1999999098781MD1210241+9999REMSYN070    AAXX  15094 08027 42660 62104 10072 20024 39878 40193 52024 8257/;
0195080270999992000011512004+43300-002050FM-12+025999999V0200101N002112200019N0050001N1+00801+00631102051ADDAA199000091AY121061AY221061GF104991041001017501051999MA1999999098911MD1110131+9999MW1101REMSYN076    AAXX  15124 08027 31750 40104 10080 20063 39891 40205 51013 71022 8405/;EQDQ01  00002PRCP99
0190080270999992000011518004+43300-002050FM-12+025999999V0209999V001012200019N0150001N1+00701+00321102301ADDAA199000091GF102991021051012501001001KA1999M+00921MA1999999099141MD1210161+9999REMSYN080    AAXX  15184 08027 32665 29902 10070 20032 39914 40230 52016 82500 333 10092;EQDQ01  00002PRCP99
0137080270999992000011521004+43300-002050FM-12+025999999V0202801N002112200019N0150001N1+00641+00501102481ADDGF102991021051012501001001MA1999999099311MD1210171+9999REMSYN070    AAXX  15214 08027 42665 22804 10064 20050 39931 40248 52017 82500;
0167080270999992000011600004+43300-002050FM-12+025999999V0209999C000012200019N0150001N1+00561+00421102601ADDAA199000091GF101991011051008001001001MA1999999099421MD1110111+9999REMSYN070    AAXX  16004 08027 32565 10000 10056 20042 39942 40260 51011 81500;EQDQ01  00002PRCP99
0137080270999992000011603004+43300-002050FM-12+025999999V0209999C000012200019N0150001N1+00561+00421102601ADDGF101991011051008001001001MA1999999099421MD1410001+9999REMSYN070    AAXX  16034 08027 42565 10000 10056 20042 39942 40260 54000 81500;
0226080270999992000011606004+43300-002050FM-12+025999999V0201701N002112200019N0150001N1+00501+00361102661ADDAA199000091GF103991031051008001001001IA1099IA2999+00309KA1120N+00441MA1999999099471MD1310051+9999REMSYN098    AAXX  16064 08027 32565 31704 10050 20036 39947 40266 53005 83500 333 20044 31003 50030 55044;EQDQ01  00002PRCP99
0165080270999992000011609004+43300-002050FM-12+025999999V0203601N001010075019N0050001N1+00681+00591102721ADDAY121031AY221031GF108991081061008001999999MA1999999099551MD1110081+9999MW1101REMSYN076    AAXX  16094 08027 41550 83602 10068 20059 39955 40272 51008 71022 886//;
0195080270999992000011612004+43300-002050FM-12+025999999V0203601N005110075019N0040001N1+00461+00411102831ADDAA199000091AY121061AY221061GF108991081061008001999999MA1999999099631MD1110081+9999MW1101REMSYN076    AAXX  16124 08027 31540 83610 10046 20041 39963 40283 51008 71022 886//;EQDQ01  00002PRCP99
0190080270999992000011618004+43300-002050FM-12+025999999V0203101N002110075019N0150001N1+00461+00311102871ADDAA199000091GF108991081061008001999999KA1999M+00701MA1999999099671MD1110041+9999REMSYN080    AAXX  16184 08027 32565 83104 10046 20031 39967 40287 51004 886// 333 10070;EQDQ01  00002PRCP99
0137080270999992000011621004+43300-002050FM-12+025999999V0202601N003110075019N0150001N1+00501+00411102951ADDGF108991081061008001999999MA1999999099751MD1110081+9999REMSYN070    AAXX  16214 08027 42565 82606 10050 20041 39975 40295 51008 886//;
0137080270999992000011703004+43300-002050FM-12+025999999V0202601N002110075019N0150001N1+00501+00311103031ADDGF108991081061008001999999MA1999999099831MD1410001+9999REMSYN070    AAXX  17034 08027 42565 82604 10050 20031 39983 40303 54000 886//;
0226080270999992000011706004+43300-002050FM-12+025999999V0200701N002110075019N0200001N1+00421+00271103161ADDAA199000091GF108991081061008001999999IA1099IA2999+00409KA1120N+00421MA1999999099941MD1110111+9999REMSYN098    AAXX  17064 08027 32570 80704 10042 20027 39994 40316 51011 886// 333 20042 31004 50060 55000;EQDQ01  00002PRCP99
0165080270999992000011709004+43300-002050FM-12+025999999V0200401N002110075019N0050001N1+00401+00251103241ADDAY121031AY221031GF108991081061008001999999MA1999999100021MD1310081+9999MW1101REMSYN076    AAXX  17094 08027 41550 80404 10040 20025 30002 40324 53008 71022 886//;
0195080270999992000011712004+43300-002050FM-12+025999999V0200201N003110075019N0050001N1+00421+00221103291ADDAA199000091AY121061AY221061GF108991081061008001999999MA1999999100071MD1110051+9999MW1101REMSYN076    AAXX  17124 08027 31550 80206 10042 20022 30007 40329 51005 71022 886//;EQDQ01  00002PRCP99
0218080270999992000011718004+43300-002050FM-12+025999999V0203501N001010042019N0030001N1+00401+00201103241ADDAA199000091AY121061AY221061GF108991081051004501999999KA1999M+00461MA1999999100021MD1310031+9999MW1101REMSYN086    AAXX  17184 08027 31430 83502 10040 20020 30002 40324 53003 71022 885// 333 10046;EQDQ01  00002PRCP99
0165080270999992000011721004+43300-002050FM-12+025999999V0201701N001010042019N0030001N1+00401+00141103241ADDAY121031AY221031GF107991071051004501999999MA1999999100021MD1410001+9999MW1101REMSYN076    AAXX  17214 08027 41430 71702 10040 20014 30002 40324 54000 71022 875//;
0195080270999992000011800004+43300-002050FM-12+025999999V0201201N001010042019N0020001N1+00281+00071103221ADDAA199000091AY121061AY221061GF106991061051004501999999MA1999999099981MD1810041+9999MW1101REMSYN076    AAXX  18004 08027 31420 61202 10028 20007 39998 40322 58004 71022 865//;EQDQ01  00002PRCP99
0165080270999992000011803004+43300-002050FM-12+025999999V0200401N002110042019N0020001N1+00281+00121103131ADDAY121031AY221031GF108991081061004501999999MA1999999099901MD1810081+9999MW1101REMSYN076    AAXX  18034 08027 41420 80404 10028 20012 39990 40313 58008 71022 886//;
0254080270999992000011806004+43300-002050FM-12+025999999V0201801N001010042019N0020001N1+00281+00011103021ADDAA199000091AY121061AY221061GF108991081061004501999999IA1099IA2999+00009KA1120N+00201MA1999999099791MD1710111+9999MW1101REMSYN104    AAXX  18064 08027 31420 81802 10028 20001 39979 40302 57011 71022 886// 333 20020 31000 50090 55006;EQDQ01  00002PRCP99
0175080270999992000011809004+43300-002050FM-12+025999999V0203601N001010006019N0008001N1+00321+00221103061ADDAY121031AY221031GA1091+999999999GF109991091999999999999999MA1999999099831MD1310041+9999MW1471REMSYN070    AAXX  18094 08027 41/08 93602 10032 20022 39983 40306 53004 74722;
0205080270999992000011812004+43300-002050FM-12+025999999V0200101N002110003019N0002001N1+00361+00311103041ADDAA199000091AY141061AY221061GA1091+999999999GF109991091999999999999999MA1999999099821MD1810011+9999MW1471REMSYN070    AAXX  18124 08027 31/02 90104 10036 20031 39982 40304 58001 74742;EQDQ01  00002PRCP99
0218080270999992000011818004+43300-002050FM-12+025999999V0202201N001010042019N0080001N1+00421+00371102911ADDAA199000091AY121061AY221061GF108991081051004501999999KA1999M+00441MA1999999099701MD1410001+9999MW1101REMSYN086    AAXX  18184 08027 31458 82202 10042 20037 39970 40291 54000 71022 885// 333 10044;EQDQ01  00002PRCP99
0175080270999992000011821004+43300-002050FM-12+025999999V0200301N004610003019N0002001N1+00361+00361103011ADDAY141031AY221031GA1091+999999999GF109991091999999999999999MA1999999099791MD1210091+9999MW1451REMSYN070    AAXX  18214 08027 41/02 90309 10036 20036 39979 40301 52009 74542;
0205080270999992000011900004+43300-002050FM-12+025999999V0200601N003110003019N0003001N1+00241+00241103021ADDAA199000091AY141061AY241061GA1091+999999999GF109991091999999999999999MA1999999099791MD1410001+9999MW1451REMSYN070    AAXX  19004 08027 31/03 90606 10024 20024 39979 40302 54000 74544;EQDQ01  00002PRCP99
0165080270999992000011903004+43300-002050FM-12+025999999V0202001N001510021019N0050001N1+00261+00211102981ADDAY141031AY221031GF108991081061002501999999MA1999999099751MD1810041+9999MW1101REMSYN076    AAXX  19034 08027 41350 82003 10026 20021 39975 40298 58004 71042 886//;
0254080270999992000011906004+43300-002050FM-12+025999999V0202901N000510042019N0080001N1+00401+00301102951ADDAA199000091AY121061AY221061GF108991081061004501999999IA1099IA2999+00209KA1120N+00221MA1999999099741MD1610011+9999MW1101REMSYN104    AAXX  19064 08027 31458 82901 10040 20030 39974 40295 56001 71022 886// 333 20022 31002 50050 55000;EQDQ01  00002PRCP99
0165080270999992000011909004+43300-002050FM-12+025999999V0203601N003110042019N0080001N1+00521+00381102991ADDAY121031AY221031GF108991081051004501999999MA1999999099791MD1210051+9999MW1101REMSYN076    AAXX  19094 08027 41458 83606 10052 20038 39979 40299 52005 71022 885//;
0195080270999992000011912004+43300-002050FM-12+025999999V0200201N004110042019N0080001N1+00541+00401102991ADDAA199000091AY121061AY221061GF107991071051004501001001MA1999999099791MD1010001+9999MW1101REMSYN076    AAXX  19124 08027 31458 70208 10054 20040 39979 40299 50000 71022 87500;EQDQ01  00002PRCP99
0186080270999992000011918004+43300-002050FM-12+025999999V0203601N002610075019N0100001N1+00561+00101103021ADDAA199000091GF108991081051008001999999KA1999M+00621MA1999999099821MD1210071+9999REMSYN076AAXX  19184 08027 32560 83605 10056 20010 39982 40302 52007 885// 333 10062;EQDQ01  00002PRCP99
0133080270999992000011921004+43300-002050FM-12+025999999V0200201N004110042019N0100001N1+00541+00021103061ADDGF108991081051004501999999MA1999999099861MD1210041+9999REMSYN066AAXX  19214 08027 42460 80208 10054 20002 39986 40306 52004 885//;
0163080270999992000012000004+43300-002050FM-12+025999999V0200201N005710075019N0100001N1+00481+00071103071ADDAA199000091GF108991081051008001999999MA1999999099861MD1410001+9999REMSYN066AAXX  20004 08027 32560 80211 10048 20007 39986 40307 54000 885//;EQDQ01  00002PRCP99
0250080270999992000012006004+43300-002050FM-12+025999999V0200601N001510075019N0080001N1+00321+00001103141ADDAA199000091AY121061AY221061GF108991081051008001999999IA1099IA2999+00409KA1120N+00261MA1999999099911MD1210051+9999MW1051REMSYN100AAXX  20064 08027 31558 80603 10032 20000 39991 40314 52005 70522 885// 333 20026 31004 50010 55001;EQDQ01  00002PRCP99
0133080270999992000012009004+43300-002050FM-12+025999999V0200201N002110075019N0100001N1+00321-00121103291ADDGF108991081051008001999999MA1999999100061MD1110151+9999REMSYN066AAXX  20094 08027 42560 80204 10032 21012 30006 40329 51015 885//;
0163080270999992000012012004+43300-002050FM-12+025999999V0200201N002110075019N0100001N1+00421-00071103281ADDAA199000091GF107991071051008001999999MA1999999100061MD1010001+9999REMSYN066AAXX  20124 08027 32560 70204 10042 21007 30006 40328 50000 875//;EQDQ01  00002PRCP99
0186080270999992000012018004+43300-002050FM-12+025999999V0203401N001510075019N0150001N1+00441-00101103281ADDAA199000091GF107991071051008001999999KA1999M+00501MA1999999100061MD1210081+9999REMSYN076AAXX  20184 08027 32565 73403 10044 21010 30006 40328 52008 875// 333 10050;EQDQ01  00002PRCP99
0133080270999992000012021004+43300-002050FM-12+025999999V0209999C000010075019N0100001N1+00421-00011103321ADDGF108991081051008001999999MA1999999100101MD1110041+9999REMSYN066AAXX  20214 08027 42560 80000 10042 21001 30010 40332 51004 885//;
0163080270999992000012100004+43300-002050FM-12+025999999V0203201N003110075019N0100001N1+00501-00031103271ADDAA199000091GF107991071051008001999999MA1999999100061MD1710041+9999REMSYN066AAXX  21004 08027 32560 73206 10050 21003 30006 40327 57004 875//;EQDQ01  00002PRCP99
0133080270999992000012103004+43300-002050FM-12+025999999V0203401N004110075019N0100001N1+00521+00001103201ADDGF107991071051008001999999MA1999999099991MD1610071+9999REMSYN066AAXX  21034 08027 42560 73408 10052 20000 39999 40320 56007 875//;
0222080270999992000012106004+43300-002050FM-12+025999999V0203401N001010360019N0150001N1+00481+00071103231ADDAA199000091GF108991041061004501071999IA1019IA2999+00709KA1120N+00361MA1999999100021MD1210031+9999REMSYN094AAXX  21064 08027 32465 83402 10048 20007 30002 40323 52003 8467/ 333 20036 30007 50070 55013;EQDQ01  00002PRCP99
0161080270999992000012109004+43300-002050FM-12+025999999V0200201N004110042019N0050001N1+00381+00071103331ADDAY121031AY221031GF108991071071004501071999MA1999999100101MD1310081+9999MW1101REMSYN072AAXX  21094 08027 41450 80208 10038 20007 30010 40333 53008 71022 8777/;
0163080270999992000012112004+43300-002050FM-12+025999999V0200201N002110150019N0100001N1+00401-00031103331ADDAA199000091GF108991071041017501071999MA1999999100101MD1410001+9999REMSYN066AAXX  21124 08027 32760 80204 10040 21003 30010 40333 54000 8747/;EQDQ01  00002PRCP99
0186080270999992000012118004+43300-002050FM-12+025999999V0200801N003610042019N0100001N1+00321-00191103211ADDAA199000091GF108991061071004501071999KA1999M+00481MA1999999099981MD1510001+9999REMSYN076AAXX  21184 08027 32460 80807 10032 21019 39998 40321 55000 8677/ 333 10048;EQDQ01  00002PRCP99
0133080270999992000012121004+43300-002050FM-12+025999999V0200601N001510042019N0100001N1+00281-00311103151ADDGF108991081071004501999999MA1999999099911MD1810071+9999REMSYN066AAXX  21214 08027 42460 80603 10028 21031 39991 40315 58007 887//;
0163080270999992000012200004+43300-002050FM-12+025999999V0201001N001010360019N0150001N1+00321-00251103051ADDAA199000091GF108991041071008001071999MA1999999099821MD1810091+9999REMSYN066AAXX  22004 08027 32565 81002 10032 21025 39982 40305 58009 8477/;EQDQ01  00002PRCP99
0133080270999992000012203004+43300-002050FM-12+025999999V0201401N002610360019N0150001N1+00301-00281102901ADDGF108991041071008001071999MA1999999099671MD1610151+9999REMSYN066AAXX  22034 08027 42565 81405 10030 21028 39967 40290 56015 8477/;
0222080270999992000012206004+43300-002050FM-12+025999999V0201601N001510360019N0150001N1+00281-00241102811ADDAA199000091GF108991041071008001071999IA1019IA2999+00209KA1120N+00241MA1999999099591MD1710081+9999REMSYN094AAXX  22064 08027 32565 81603 10028 21024 39959 40281 57008 8477/ 333 20024 30002 50020 55000;EQDQ01  00002PRCP99
0133080270999992000012209004+43300-002050FM-12+025999999V0201301N002110360019N0120001N1+00281-00241102891ADDGF107991011051008001081999MA1999999099661MD1210071+9999REMSYN066AAXX  22094 08027 42562 71304 10028 21024 39966 40289 52007 8158/;
0163080270999992000012212004+43300-002050FM-12+025999999V0209999V00101036001CN0140001N1+00421-00191102831ADDAA199000091GF106991011051008001081999MA1999999099621MD1810041+9999REMSYN066AAXX  22124 08027 32564 69902 10042 21019 39962 40283 58004 8158/;EQDQ01  00002PRCP99
0201080270999992000012218004+43300-002050FM-12+025999999V0202701N003110042019N0040001N1+00421-00061102621ADDAA112000791AY121061AY221061GF108991081071004501999999KA1999M+00481MA1999999099421MD1710121+9999MW1501REMSYN088AAXX  22184 08027 11440 82706 10042 21006 39942 40262 57012 69902 75022 887// 333 10048;
0161080270999992000012221004+43300-002050FM-12+025999999V0202801N005110042019N0040001N1+00501+00361102461ADDAY151031AY221031GF108991081071004501999999MA1999999099271MD1710151+9999MW1511REMSYN072AAXX  22214 08027 41440 82810 10050 20036 39927 40246 57015 75152 887//;
0178080270999992000012300004+43300-002050FM-12+025999999V0203101N008710120019N0150001N1+00751+00411102261ADDAA106001091AY181061AY251061GF107991071081008001999999MA1999999099111MD1710161+9999MW1011REMSYN078AAXX  23004 08027 11565 73117 10075 20041 39911 40226 57016 60011 70185 878//;
0161080270999992000012303004+43300-002050FM-12+025999999V0203501N011810120019N0100001N1+00721+00351102181ADDAY181031AY221031GF107991071081008001999999MA1999999099031MD1710081+9999MW1011REMSYN072AAXX  23034 08027 41560 73523 10072 20035 39903 40218 57008 70182 878//;
0237080270999992000012306004+43300-002050FM-12+025999999V0203601N004110120019N0040001N1+00561+00271102201ADDAA112001091AY121061AY221061GF107991071081008001999999IA1099IA2999+00509KA1120N+00401MA1999999099031MD1410001+9999MW1101REMSYN106AAXX  23064 08027 11540 73608 10056 20027 39903 40220 54000 60012 71022 878// 333 20040 31005 50020 55015;
0161080270999992000012309004+43300-002050FM-12+025999999V0200401N004110120019N0050001N1+00381+00281102391ADDAY181031AY221031GF107991071081008001999999MA1999999099191MD1310161+9999MW1101REMSYN072AAXX  23094 08027 41550 70408 10038 20028 39919 40239 53016 71082 878//;
0173080270999992000012318004+43300-002050FM-12+025999999V0209999C000010075019N0100001N1+00461+00041102411ADDAA112000791GF108991081051008001999999KA1999M+00661MA1999999099221MD1410001+9999REMSYN082AAXX  23184 08027 12560 80000 10046 20004 39922 40241 54000 69902 885// 333 10066;
0161080270999992000012321004+43300-002050FM-12+025999999V0200601N002110120019N0100001N1+00361+00161102431ADDAY161031AY221031GF107991071081008001001001MA1999999099231MD1110011+9999MW1211REMSYN072AAXX  23214 08027 41560 70604 10036 20016 39923 40243 51001 72162 87800;
0150080270999992000012400004+43300-002050FM-12+025999999V0201301N001510120019N0150001N1+00341+00081102421ADDAA106000591GF107991071081008001001001MA1999999099221MD1710011+9999REMSYN072AAXX  24004 08027 12565 71303 10034 20008 39922 40242 57001 69941 87800;
0133080270999992000012403004+43300-002050FM-12+025999999V0201001N001010120019N0200001N1+00361-00271102381ADDGF107991071081008001001001MA1999999099181MD1610041+9999REMSYN066AAXX  24034 08027 42570 71002 10036 21027 39918 40238 56004 87800;
0209080270999992000012406004+43300-002050FM-12+025999999V0201701N003110120019N0200001N1+00181-00221102321ADDAA112000591GF107991071081008001001001IA1099IA2999+00009KA1120N+00161MA1999999099101MD1810081+9999REMSYN100AAXX  24064 08027 12570 71706 10018 21022 39910 40232 58008 69942 87800 333 20016 31000 50010 55044;
0133080270999992000012409004+43300-002050FM-12+025999999V0209999C000010120019N0200001N1+00301-00281102351ADDGF107991071081008001001001MA1999999099141MD1310041+9999REMSYN066AAXX  24094 08027 42570 70000 10030 21028 39914 40235 53004 87800;
0163080270999992000012412004+43300-002050FM-12+025999999V0209999C000010120019N0200001N1+00421-00121102291ADDAA199000091GF108991081081008001999999MA1999999099101MD1810041+9999REMSYN066AAXX  24124 08027 32570 80000 10042 21012 39910 40229 58004 888//;EQDQ01  00002PRCP99
0186080270999992000012418004+43300-002050FM-12+025999999V0200301N003110120019N0250001N1+00401-00211102131ADDAA199000091GF108991081081008001999999KA1999M+00521MA1999999098941MD1410001+9999REMSYN076AAXX  24184 08027 32575 80306 10040 21021 39894 40213 54000 888// 333 10052;EQDQ01  00002PRCP99
0133080270999992000012421004+43300-002050FM-12+025999999V0200101N002110120019N0250001N1+00321-00321102141ADDGF106991061081008001001001MA1999999098941MD1410001+9999REMSYN066AAXX  24214 08027 42575 60104 10032 21032 39894 40214 54000 86800;
0163080270999992000012500004+43300-002050FM-12+025999999V0200901N003112200019N0250001N1+00181-00431102161ADDAA199000091GF104991041081008001001001MA1999999098941MD1410001+9999REMSYN066AAXX  25004 08027 32575 40906 10018 21043 39894 40216 54000 84800;EQDQ01  00002PRCP99
0133080270999992000012503004+43300-002050FM-12+025999999V0200901N003112200019N0250001N1+00181-00431102161ADDGF104991041081008001001001MA1999999098941MD1410001+9999REMSYN066AAXX  25034 08027 42575 40906 10018 21043 39894 40216 54000 84800;
0226080270999992000012506004+43300-002050FM-12+025999999V0201601N002112200019N0300001N1+00061-00171102171ADDAA199000091GA1001+999999999GF100991001001999999001001IA1149IA2999+01309KA1120N+00061MA1999999098941MD1410001+9999REMSYN082AAXX  25064 08027 32980 01604 10006 21017 39894 40217 54000 333 20006 34013 55010;EQDQ01  00002PRCP99
0133080270999992000012509004+43300-002050FM-12+025999999V0201401N002112200019N0200001N1+00041-00321102221ADDGF102991021081008001001001MA1999999098991MD1310051+9999REMSYN066AAXX  25094 08027 42570 21404 10004 21032 39899 40222 53005 82800;
0163080270999992000012512004+43300-002050FM-12+025999999V0201501N002110150019N0150001N1+00261-00191102231ADDAA199000091GF106991061081012501001001MA1999999099021MD1010031+9999REMSYN066AAXX  25124 08027 32665 61504 10026 21019 39902 40223 50003 86800;EQDQ01  00002PRCP99
0186080270999992000012518004+43300-002050FM-12+025999999V0201101N001010120019N0200001N1+00161-00311102241ADDAA199000091GF106991061081008001001001KA1999M+00301MA1999999099021MD1210081+9999REMSYN076AAXX  25184 08027 32570 61102 10016 21031 39902 40224 52008 86800 333 10030;EQDQ01  00002PRCP99
0133080270999992000012521004+43300-002050FM-12+025999999V0201501N002112200019N0200001N1+00021-00351102301ADDGF103991031081008001001001MA1999999099061MD1110041+9999REMSYN066AAXX  25214 08027 42570 31504 10002 21035 39906 40230 51004 83800;
0163080270999992000012600004+43300-002050FM-12+025999999V0201601N002112200019N0200001N1-00081-00331102321ADDAA199000091GF102991021081008001001001MA1999999099071MD1110011+9999REMSYN066AAXX  26004 08027 32570 21604 11008 21033 39907 40232 51001 82800;EQDQ01  00002PRCP99
0133080270999992000012603004+43300-002050FM-12+025999999V0201601N002112200019N0200001N1-00081-00331102321ADDGF102991021081008001001001MA1999999099071MD1410001+9999REMSYN066AAXX  26034 08027 42570 21604 11008 21033 39907 40232 54000 82800;
0226080270999992000012606004+43300-002050FM-12+025999999V0201501N002112200019N0200001N1+00161-00461102291ADDAA199000091GA1001+999999999GF100991001001999999001001IA1149IA2999-00309KA1120N-00881MA1999999099071MD1510001+9999REMSYN082AAXX  26064 08027 32970 01504 10016 21046 39907 40229 55000 333 21088 34103 55081;EQDQ01  00002PRCP99
0133080270999992000012609004+43300-002050FM-12+025999999V0201501N005112200019N0250001N1+00461-00341102341ADDGF102991011081008001011001MA1999999099151MD1310081+9999REMSYN066AAXX  26094 08027 42575 21510 10046 21034 39915 40234 53008 81810;
0163080270999992000012612004+43300-002050FM-12+025999999V0201601N008712200019N0300001N1+00821-00401102331ADDAA199000091GF101991011051012501001001MA1999999099181MD1010031+9999REMSYN066AAXX  26124 08027 32680 11617 10082 21040 39918 40233 50003 81500;EQDQ01  00002PRCP99
0186080270999992000012618004+43300-002050FM-12+025999999V0201601N006212200019N0300001N1+00881-00461102421ADDAA199000091GF101991011061008001001001KA1999M+01001MA1999999099271MD1210091+9999REMSYN076AAXX  26184 08027 32580 11612 10088 21046 39927 40242 52009 81600 333 10100;EQDQ01  00002PRCP99
0133080270999992000012621004+43300-002050FM-12+025999999V0201601N009812200019N0300001N1+00841-00451102531ADDGF101991011061008001001001MA1999999099381MD1210111+9999REMSYN066AAXX  26214 08027 42580 11619 10084 21045 39938 40253 52011 81600;
0173080270999992000012700004+43300-002050FM-12+025999999V0201601N012912200019N0300001N1+00821-00051102541ADDAA199000091GA1001+999999999GF100991001001999999001001MA1999999099391MD1110011+9999REMSYN060AAXX  27004 08027 32980 01625 10082 21005 39939 40254 51001;EQDQ01  00002PRCP99
0133080270999992000012703004+43300-002050FM-12+025999999V0201601N012910360019N0200001N1+00861+00071102531ADDGF106991041061008001071999MA1999999099381MD1810011+9999REMSYN066AAXX  27034 08027 42570 61625 10086 20007 39938 40253 58001 8467/;
0253080270999992000012706004+43300-002050FM-12+025999999V0201601N012910360019N0200001N1+00861+00071102541ADDAA199000091GF106991031061008001071999GJ105589IA1019IA2999+00709KA1120N+00761MA1999999099391MD1210011+9999OA149902111REMSYN106AAXX  27064 08027 32570 61625 10086 20007 39939 40254 52001 8367/ 333 20076 30007 50300 55093 91141 91216;EQDQ01  00002PRCP99
0161080270999992000012709004+43300-002050FM-12+025999999V0201601N008210075019N0300001N1+00921+00091102701ADDAY181031AY221031GF107991071051008001071999MA1999999099551MD1210161+9999MW1021REMSYN072AAXX  27094 08027 42580 71616 10092 20009 39955 40270 52016 70282 8757/;
0173080270999992000012718004+43300-002050FM-12+025999999V0201601N005112200019N0300001N1+00941+00231102641ADDAA112000791GF103991011001017501041011KA1999M+01161MA1999999099501MD1410001+9999REMSYN082AAXX  27184 08027 12780 31610 10094 20023 39950 40264 54000 69902 81041 333 10116;
0133080270999992000012721004+43300-002050FM-12+025999999V0201601N005112200019N0300001N1+00861+00191102701ADDGF102991011001017501041011MA1999999099551MD1110051+9999REMSYN066AAXX  27214 08027 42780 21610 10086 20019 39955 40270 51005 81041;
0173080270999992000012800004+43300-002050FM-12+025999999V0202001N004612200019N0300001N1+00841+00161102711ADDAA199000091GA1001+999999999GF100991001001999999001001MA1999999099551MD1410001+9999REMSYN060AAXX  28004 08027 32980 02009 10084 20016 39955 40271 54000;EQDQ01  00002PRCP99
0143080270999992000012803004+43300-002050FM-12+025999999V0201601N005112200019N0300001N1+00761+00231102671ADDGA1001+999999999GF100991001001999999001001MA1999999099511MD1810041+9999REMSYN060AAXX  28034 08027 42980 01610 10076 20023 39951 40267 58004;
0232080270999992000012806004+43300-002050FM-12+025999999V0201601N002112200019N0300001N1+00721+00291102671ADDAA199000091GA1001+999999999GF100991001001999999001001IA1019IA2999+00509KA1120N+00661MA1999999099501MD1710011+9999REMSYN088AAXX  28064 08027 32980 01604 10072 20029 39950 40267 57001 333 20066 30005 50240 55047;EQDQ01  00002PRCP99
0133080270999992000012809004+43300-002050FM-12+025999999V0201801N002112200019N0150001N1+00761+00291102701ADDGF102991001001999999001011MA1999999099541MD1210041+9999REMSYN066AAXX  28094 08027 42965 21804 10076 20029 39954 40270 52004 80001;
0163080270999992000012812004+43300-002050FM-12+025999999V0203301N002112200019N0100001N1+01021+00281102681ADDAA199000091GF101991011001017501041001MA1999999099541MD1410001+9999REMSYN066AAXX  28124 08027 32760 13304 10102 20028 39954 40268 54000 81040;EQDQ01  00002PRCP99
0196080270999992000012818004+43300-002050FM-12+025999999V0201901N001512200019N0100001N1+00841+00381102651ADDAA199000091GA1001+999999999GF100991001001999999001001KA1999M+01101MA1999999099501MD1110031+9999REMSYN070AAXX  28184 08027 32960 01903 10084 20038 39950 40265 51003 333 10110;EQDQ01  00002PRCP99
0143080270999992000012821004+43300-002050FM-12+025999999V0202101N002112200019N0100001N1+00741+00321102681ADDGA1001+999999999GF100991001001999999001001MA1999999099511MD1210011+9999REMSYN060AAXX  28214 08027 42960 02104 10074 20032 39951 40268 52001;
0163080270999992000012900004+43300-002050FM-12+025999999V0202501N003610075019N0100001N1+00841+00101102711ADDAA199000091GF105991051051008001001001MA1999999099551MD1110041+9999REMSYN066AAXX  29004 08027 32560 52507 10084 20010 39955 40271 51004 85500;EQDQ01  00002PRCP99
0133080270999992000012903004+43300-002050FM-12+025999999V0202301N003110360019N0100001N1+00781+00201102701ADDGF106991041051008001071001MA1999999099541MD1810011+9999REMSYN066AAXX  29034 08027 42560 62306 10078 20020 39954 40270 58001 84570;
0232080270999992000012906004+43300-002050FM-12+025999999V0202401N005112200019N0100001N1+00781+00411102701ADDAA199000091GA1001+999999999GF100991001001999999001001IA1019IA2999+00609KA1120N+00681MA1999999099541MD1010001+9999REMSYN088AAXX  29064 08027 32960 02410 10078 20041 39954 40270 50000 333 20068 30006 50040 55087;EQDQ01  00002PRCP99
0133080270999992000012909004+43300-002050FM-12+025999999V0202301N003112200019N0150001N1+00841+00481102861ADDGF102991011001022501071011MA1999999099701MD1210161+9999REMSYN066AAXX  29094 08027 42865 22306 10084 20048 39970 40286 52016 81071;
0163080270999992000012912004+43300-002050FM-12+025999999V0202801N005710120019N0150001N1+01081+00191102921ADDAA199000091GF107991051051012501071001MA1999999099781MD1110081+9999REMSYN066AAXX  29124 08027 32665 72811 10108 20019 39978 40292 51008 85570;EQDQ01  00002PRCP99
0186080270999992000012918004+43300-002050FM-12+025999999V0202801N005710120019N0200001N1+01021+00681102961ADDAA199000091GF108991061051012501071999KA1999M+01121MA1999999099821MD1310081+9999REMSYN076AAXX  29184 08027 32670 82811 10102 20068 39982 40296 53008 8657/ 333 10112;EQDQ01  00002PRCP99
0133080270999992000012921004+43300-002050FM-12+025999999V0202701N005110120019N0200001N1+01101+00631103091ADDGF108991061051012501071999MA1999999099951MD1210131+9999REMSYN066AAXX  29214 08027 42670 82710 10110 20063 39995 40309 52013 8657/;
0163080270999992000013000004+43300-002050FM-12+025999999V0203101N008210120019N0200001N1+01101+00861103201ADDAA199000091GF108991061051012501071999MA1999999100061MD1210111+9999REMSYN066AAXX  30004 08027 32670 83116 10110 20086 30006 40320 52011 8657/;EQDQ01  00002PRCP99
0133080270999992000013003004+43300-002050FM-12+025999999V0203001N006210120019N0200001N1+01061+00901103251ADDGF108991081051012501999999MA1999999100111MD1310051+9999REMSYN066AAXX  30034 08027 42670 83012 10106 20090 30011 40325 53005 885//;
0222080270999992000013006004+43300-002050FM-12+025999999V0202901N004110120019N0200001N1+01081+00751103331ADDAA199000091GF108991061051012501071999IA1019IA2999+01009KA1120N+00961MA1999999100181MD1310071+9999REMSYN094AAXX  30064 08027 32670 82908 10108 20075 30018 40333 53007 8657/ 333 20096 30010 50210 55016;EQDQ01  00002PRCP99
0133080270999992000013009004+43300-002050FM-12+025999999V0202701N002110120019N0200001N1+01061+00811103451ADDGF108991051051012501071999MA1999999100301MD1110121+9999REMSYN066AAXX  30094 08027 42670 82704 10106 20081 30030 40345 51012 8557/;
0163080270999992000013012004+43300-002050FM-12+025999999V0202201N002110120019N0150001N1+01121+00881103491ADDAA199000091GF108991081051012501999999MA1999999100351MD1010051+9999REMSYN066AAXX  30124 08027 32665 82204 10112 20088 30035 40349 50005 885//;EQDQ01  00002PRCP99
0196080270999992000013018004+43300-002050FM-12+025999999V0200601N002112200019N0300001N1+01001+00711103181ADDAA199000091GA1001+999999999GF100991001001999999001001KA1999M+01241MA1999999100031MD1610081+9999REMSYN070AAXX  30184 08027 32980 00604 10100 20071 30003 40318 56008 333 10124;EQDQ01  00002PRCP99
0143080270999992000013021004+43300-002050FM-12+025999999V0201201N002112200019N0300001N1+00941+00771103231ADDGA1001+999999999GF100991001001999999001001MA1999999100071MD1110041+9999REMSYN060AAXX  30214 08027 42980 01204 10094 20077 30007 40323 51004;
0173080270999992000013100004+43300-002050FM-12+025999999V0203101N002112200019N0200001N1+00901+00771103271ADDAA199000091GA1001+999999999GF100991001001999999001001MA1999999100111MD1110041+9999REMSYN060AAXX  31004 08027 32970 03104 10090 20077 30011 40327 51004;EQDQ01  00002PRCP99
0143080270999992000013103004+43300-002050FM-12+025999999V0203101N002112200019N0200001N1+00861+00741103271ADDGA1001+999999999GF100991001001999999001001MA1999999100111MD1410001+9999REMSYN060AAXX  31034 08027 42970 03104 10086 20074 30011 40327 54000;
0232080270999992000013106004+43300-002050FM-12+025999999V0201501N005112200019N0150001N1+00681+00591103011ADDAA199000091GA1001+999999999GF100991001001999999001001IA1099IA2999+00509KA1120N+00681MA1999999099831MD1710231+9999REMSYN088AAXX  31064 08027 32965 01510 10068 20059 39983 40301 57023 333 20068 31005 50070 55026;EQDQ01  00002PRCP99
0180080270999992000013109004+43300-002050FM-12+025999999V0203401N002112200019N0005001N1+00821+00821102861ADDAY101031AY201031GF103991001001999999001081MA1999999099701MD1610131+9999MW1461REMSYN072AAXX  31094 08027 41905 33404 10082 20082 39970 40286 56013 74600 83008;EQDQ01+000032SCOTLC
0191080270999992000013112004+43300-002050FM-12+025999999V0203601N001012200019N0150001N1+00961+00881102801ADDAA199000091AY141061AY221061GF103991011001012501011081MA1999999099661MD1810041+9999MW1021REMSYN072AAXX  31124 08027 31665 33602 10096 20088 39966 40280 58004 70242 81018;EQDQ01  00002PRCP99
0214080270999992000013118004+43300-002050FM-12+025999999V0209999V002119999999N0030001N1+01161+00751102571ADDAA199000091AY121061AY211061GF105991001001999999001081KA1999M+01681MA1999999099461MD1410001+9999MW1051REMSYN082AAXX  31184 08027 31930 59904 10116 20075 39946 40257 54000 70521 80008 333 10168;EQDQ01  00002PRCP99
0161080270999992000013121004+43300-002050FM-12+025999999V0209999V002119999999N0030001N1+00981+00641102591ADDAY121031AY221031GF105991001001999999001081MA1999999099461MD1410001+9999MW1051REMSYN072AAXX  31214 08027 41930 59904 10098 20064 39946 40259 54000 70522 80008;
0163080270999992000020100004+43300-002050FM-12+025999999V0201601N008712200019N0150001N1+01441+00341102551ADDAA199000091GF102991001001999999001011MA1999999099461MD1010001+9999REMSYN066AAXX  01004 08027 32965 21617 10144 20034 39946 40255 50000 80001;EQDQ01  00002PRCP99
0133080270999992000020103004+43300-002050FM-12+025999999V0201901N007212200019N0350001N1+01581+00131102461ADDGF103991031001017501041001MA1999999099391MD1810071+9999REMSYN066AAXX  01034 08027 42781 31914 10158 20013 39939 40246 58007 83040;
0222080270999992000020106004+43300-002050FM-12+025999999V0201901N007212200019N0350001N1+01521+00031102181ADDAA199000091GF103991031001017501041001IA1019IA2999+01309KA1120N+00861MA1999999099111MD1810281+9999REMSYN094AAXX  01064 08027 32781 31914 10152 20003 39911 40218 58028 83040 333 20086 30013 50180 55062;EQDQ01  00002PRCP99
0133080270999992000020109004+43300-002050FM-12+025999999V0201701N008210900019N0200001N1+01561+00411102251ADDGF107991041001017501071071MA1999999099191MD1310081+9999REMSYN066AAXX  01094 08027 42770 71716 10156 20041 39919 40225 53008 84077;
0163080270999992000020112004+43300-002050FM-12+025999999V0201801N006210150019N0200001N1+01781+00661102231ADDAA199000091GF107991071001017501071999MA1999999099191MD1410001+9999REMSYN066AAXX  01124 08027 32770 71812 10178 20066 39919 40223 54000 8707/;EQDQ01  00002PRCP99
0186080270999992000020118004+43300-002050FM-12+025999999V0201801N006210150019N0250001N1+01721+00781102101ADDAA199000091GF107991071001017501071001KA1999M+01861MA1999999099061MD1310041+9999REMSYN076AAXX  01184 08027 32775 71812 10172 20078 39906 40210 53004 87070 333 10186;EQDQ01  00002PRCP99
0133080270999992000020121004+43300-002050FM-12+025999999V0202701N004110360019N0200001N1+01461+00921102331ADDGF108991031051008001071999MA1999999099261MD1210201+9999REMSYN066AAXX  01214 08027 42570 82708 10146 20092 39926 40233 52020 8357/;
0163080270999992000020200004+43300-002050FM-12+025999999V0201901N003110360019N0200001N1+01461+00871102341ADDAA199000091GF108991031051008001071999MA1999999099271MD1110011+9999REMSYN066AAXX  02004 08027 32570 81906 10146 20087 39927 40234 51001 8357/;EQDQ01  00002PRCP99
0133080270999992000020203004+43300-002050FM-12+025999999V0202101N005110360019N0200001N1+01481+00811102301ADDGF108991021051012501071999MA1999999099231MD1710041+9999REMSYN066AAXX  02034 08027 42670 82110 10148 20081 39923 40230 57004 8257/;
0222080270999992000020206004+43300-002050FM-12+025999999V0203001N007210360019N0150001N1+01261+00991102411ADDAA199000091GF108991041051008001071999IA1019IA2999+01209KA1120N+01261MA1999999099311MD1310081+9999REMSYN094AAXX  02064 08027 32565 83014 10126 20099 39931 40241 53008 8457/ 333 20126 30012 50320 55012;EQDQ01  00002PRCP99
0161080270999992000020209004+43300-002050FM-12+025999999V0202801N005710021019N0020001N1+01141+01141102701ADDAY161031AY241031GF108991081071002501999999MA1999999099581MD1210271+9999MW1631REMSYN072AAXX  02094 08027 41320 82811 10114 20114 39958 40270 52027 76364 887//;
0178080270999992000020212004+43300-002050FM-12+025999999V0202901N008210120019N0100001N1+01201+01121102781ADDAA106005191AY161061AY261061GF108991061081008001071999MA1999999099671MD1110091+9999MW1211REMSYN078AAXX  02124 08027 11560 82916 10120 20112 39967 40278 51009 60051 72166 8687/;
0211080270999992000020218004+43300-002050FM-12+025999999V0203001N010810001519N0000001N1+01061+01061102991ADDAA112007191AY161061AY241061GA1091+999999999GF109991091999999999999999KA1999M+01261MA1999999099861MD1310161+9999MW1601REMSYN082AAXX  02184 08027 11/00 93021 10106 20106 39986 40299 53016 60072 76064 333 10126;
0171080270999992000020221004+43300-002050FM-12+025999999V0203401N009810001519N0000001N1+01101+01101103241ADDAY161031AY241031GA1091+999999999GF109991091999999999999999MA1999999100101MD1210241+9999MW1611REMSYN066AAXX  02214 08027 41/00 93419 10110 20110 30010 40324 52024 76164;
0178080270999992000020300004+43300-002050FM-12+025999999V0203501N006210090019N0100001N1+00921+00881103511ADDAA106004191AY161061AY241061GF108991081081004501999999MA1999999100341MD1210241+9999MW1211REMSYN078AAXX  03004 08027 11460 83512 10092 20088 30034 40351 52024 60041 72164 888//;
0133080270999992000020303004+43300-002050FM-12+025999999V0203601N004110120019N0150001N1+00861+00551103531ADDGF105991051081008001001001MA1999999100351MD1110011+9999REMSYN066AAXX  03034 08027 42565 53608 10086 20055 30035 40353 51001 85800;
0209080270999992000020306004+43300-002050FM-12+025999999V0203601N003110120019N0150001N1+00861+00451103571ADDAA112004191GF107991071081008001999999IA1119IA2999+00709KA1120N+00801MA1999999100391MD1310041+9999REMSYN100AAXX  03064 08027 12565 73606 10086 20045 30039 40357 53004 60042 878// 333 20080 32007 50240 55000;
0133080270999992000020309004+43300-002050FM-12+025999999V0200101N001010360019N0100001N1+00861+00551103721ADDGF107991041051008001051999MA1999999100541MD1210151+9999REMSYN066AAXX  03094 08027 42560 70102 10086 20055 30054 40372 52015 8455/;
0144080270999992000020312004+43300-002050FM-12+025999999V0200201N002110120019N0150001N1+00961+00471103791ADDAA199000021GF106991061051012501001001MA1999999100621MD1010081+9999REMSYN066AAXX  03124 08027 32665 60204 10096 20047 30062 40379 50008 86500;
0196080270999992000020318004+43300-002050FM-12+025999999V0200501N003112200019N0300001N1+00781+00511103651ADDAA199000091GA1001+999999999GF100991001001999999001001KA1999M+01061MA1999999100461MD1610041+9999REMSYN070AAXX  03184 08027 32980 00506 10078 20051 30046 40365 56004 333 10106;EQDQ01  00002PRCP99
0143080270999992000020321004+43300-002050FM-12+025999999V0201401N002112200019N0300001N1+00721+00491103711ADDGA1001+999999999GF100991001001999999001001MA1999999100511MD1110051+9999REMSYN060AAXX  03214 08027 42980 01404 10072 20049 30051 40371 51005;
0173080270999992000020400004+43300-002050FM-12+025999999V0201701N003112200019N0300001N1+00641+00461103641ADDAA199000091GA1001+999999999GF100991001001999999001001MA1999999100431MD1810081+9999REMSYN060AAXX  04004 08027 32980 01706 10064 20046 30043 40364 58008;EQDQ01  00002PRCP99
0143080270999992000020403004+43300-002050FM-12+025999999V0201701N003112200019N0300001N1+00581+00441103641ADDGA1001+999999999GF100991001001999999001001MA1999999100431MD1410001+9999REMSYN060AAXX  04034 08027 42980 01706 10058 20044 30043 40364 54000;
0232080270999992000020406004+43300-002050FM-12+025999999V0201601N002112200019N0300001N1+00601+00151103481ADDAA199000091GA1001+999999999GF100991001001999999001001IA1099IA2999+00309KA1120N+00601MA1999999100271MD1610081+9999REMSYN088AAXX  04064 08027 32980 01604 10060 20015 30027 40348 56008 333 20060 31003 50070 55049;EQDQ01  00002PRCP99
0133080270999992000020409004+43300-002050FM-12+025999999V0201501N002112200019N0300001N1+00781+00361103461ADDGF101991001001999999001011MA1999999100271MD1410001+9999REMSYN066AAXX  04094 08027 42980 11504 10078 20036 30027 40346 54000 80001;
0163080270999992000020412004+43300-002050FM-12+025999999V0201701N002112200019N0350001N1+01181+00431103331ADDAA199000091GF101991001001999999001081MA1999999100191MD1810081+9999REMSYN066AAXX  04124 08027 32981 11704 10118 20043 30019 40333 58008 80008;EQDQ01  00002PRCP99
0186080270999992000020418004+43300-002050FM-12+025999999V0201201N003112200019N0300001N1+01421+00431103051ADDAA199000091GF103991001001999999001011KA1999M+01461MA1999999099951MD1610031+9999REMSYN076AAXX  04184 08027 32980 31206 10142 20043 39995 40305 56003 80001 333 10146;EQDQ01  00002PRCP99
0133080270999992000020421004+43300-002050FM-12+025999999V0201701N008712200019N0300001N1+01581-00161103041ADDGF102991001001999999001011MA1999999099951MD1410001+9999REMSYN066AAXX  04214 08027 42980 21717 10158 21016 39995 40304 54000 80001;
0163080270999992000020500004+43300-002050FM-12+025999999V0201601N010312200019N0300001N1+01601-00371103001ADDAA199000091GF103991001001999999001081MA1999999099911MD1610041+9999REMSYN066AAXX  05004 08027 32980 31620 10160 21037 39991 40300 56004 80008;EQDQ01  00002PRCP99
0133080270999992000020503004+43300-002050FM-12+025999999V0201601N010812200019N0300001N1+01541-00411102881ADDGF104991001001999999001081MA1999999099791MD1710121+9999REMSYN066AAXX  05034 08027 42980 41621 10154 21041 39979 40288 57012 80008;
0222080270999992000020506004+43300-002050FM-12+025999999V0201601N009812200019N0300001N1+01501-00401102841ADDAA199000091GF104991001001999999001081IA1019IA2999+01409KA1120N+01321MA1999999099751MD1610041+9999REMSYN094AAXX  05064 08027 32980 41619 10150 21040 39975 40284 56004 80008 333 20132 30014 50420 55081;EQDQ01  00002PRCP99
0133080270999992000020509004+43300-002050FM-12+025999999V0201801N013412200019N0300001N1+01501-00151102841ADDGF104991001001999999001081MA1999999099751MD1510001+9999REMSYN066AAXX  05094 08027 42980 41826 10150 21015 39975 40284 55000 80008;
0163080270999992000020512004+43300-002050FM-12+025999999V0201701N008212200019N0300001N1+01781-00011102881ADDAA199000091GF104991001001999999001081MA1999999099821MD1110071+9999REMSYN066AAXX  05124 08027 32980 41716 10178 21001 39982 40288 51007 80008;EQDQ01  00002PRCP99
0186080270999992000020518004+43300-002050FM-12+025999999V0203001N003119999999N0300001N1+01261+00481102941ADDAA199000091GF105991001001999999001081KA1999M+01961MA1999999099821MD1210031+9999REMSYN076AAXX  05184 08027 32980 53006 10126 20048 39982 40294 52003 80008 333 10196;EQDQ01  00002PRCP99
0133080270999992000020521004+43300-002050FM-12+025999999V0201801N002112200019N0300001N1+01221+00431102981ADDGF103991001001999999001011MA1999999099861MD1110041+9999REMSYN066AAXX  05214 08027 42980 31804 10122 20043 39986 40298 51004 80001;
0163080270999992000020600004+43300-002050FM-12+025999999V0201601N002112200019N0300001N1+01161+00241102961ADDAA199000091GF102991001001999999001011MA1999999099831MD1810031+9999REMSYN066AAXX  06004 08027 32980 21604 10116 20024 39983 40296 58003 80001;EQDQ01  00002PRCP99
0143080270999992000020603004+43300-002050FM-12+025999999V0201601N003612200019N0300001N1+01081+00001102881ADDGA1001+999999999GF100991001001999999001001MA1999999099741MD1810091+9999REMSYN060AAXX  06034 08027 42980 01607 10108 20000 39974 40288 58009;
0232080270999992000020606004+43300-002050FM-12+025999999V0201601N003612200019N0300001N1+01021+00041102771ADDAA199000091GA1001+999999999GF100991001001999999001001IA1099IA2999+00409KA1120N+00921MA1999999099631MD1710111+9999REMSYN088AAXX  06064 08027 32980 01607 10102 20004 39963 40277 57011 333 20092 31004 50320 55051;EQDQ01  00002PRCP99
0133080270999992000020609004+43300-002050FM-12+025999999V0202201N001019999999N0100001N1+01101+00331102791ADDGF106991001001999999001081MA1999999099661MD1310031+9999REMSYN066AAXX  06094 08027 42960 62202 10110 20033 39966 40279 53003 80008;
0163080270999992000020612004+43300-002050FM-12+025999999V0209999C000010900019N0100001N1+01221+00531102731ADDAA199000091GF108991021001017501041081MA1999999099621MD1710041+9999REMSYN066AAXX  06124 08027 32760 80000 10122 20053 39962 40273 57004 82048;EQDQ01  00002PRCP99
0214080270999992000020618004+43300-002050FM-12+025999999V0203001N004110150019N0020001N1+01041+00471102711ADDAA199000091AY121061AY221061GF107991071001017501071999KA1999M+01501MA1999999099581MD1310111+9999MW1051REMSYN082AAXX  06184 08027 31720 73008 10104 20047 39958 40271 53011 70522 8707/ 333 10150;EQDQ01  00002PRCP99
0133080270999992000020621004+43300-002050FM-12+025999999V0201701N003110150019N0100001N1+00961+00621102801ADDGF107991071001017501071999MA1999999099661MD1210081+9999REMSYN066AAXX  06214 08027 42760 71706 10096 20062 39966 40280 52008 8707/;
0163080270999992000020700004+43300-002050FM-12+025999999V0202801N007210150019N0100001N1+01341+00431102851ADDAA199000091GF107991071001017501071999MA1999999099741MD1210081+9999REMSYN066AAXX  07004 08027 32760 72814 10134 20043 39974 40285 52008 8707/;EQDQ01  00002PRCP99
0161080270999992000020703004+43300-002050FM-12+025999999V0203001N007210120019N0100001N1+01021+00981103001ADDAY181031AY221031GF108991081081008001999999MA1999999099861MD1210121+9999MW1251REMSYN072AAXX  07034 08027 41560 83014 10102 20098 39986 40300 52012 72582 888//;
0237080270999992000020706004+43300-002050FM-12+025999999V0202501N002610360019N0100001N1+00981+00861103011ADDAA112001091AY181061AY221061GF107991041081008001051999IA1119IA2999+00909KA1120N+00901MA1999999099861MD1410001+9999MW1011REMSYN106AAXX  07064 08027 11560 72505 10098 20086 39986 40301 54000 60012 70182 8485/ 333 20090 32009 50120 55017;
0133080270999992000020709004+43300-002050FM-12+025999999V0201901N002110900019N0100001N1+01101+00901103121ADDGF107991021051008001001071MA1999999099981MD1310121+9999REMSYN066AAXX  07094 08027 42560 71904 10110 20090 39998 40312 53012 82507;
0144080270999992000020712004+43300-002050FM-12+025999999V0201701N003110900019N0150001N1+01341+00911103051ADDAA199000021GF107991011051008001001081MA1999999099941MD1810041+9999REMSYN066AAXX  07124 08027 32565 71706 10134 20091 39994 40305 58004 81508;
0201080270999992000020718004+43300-002050FM-12+025999999V0202701N004110360019N0100001N1+01301+00771102981ADDAA112000791AY121061AY221061GF108991021051008001071999KA1999M+01501MA1999999099871MD1310081+9999MW1601REMSYN088AAXX  07184 08027 11560 82708 10130 20077 39987 40298 53008 69902 76022 8257/ 333 10150;
0161080270999992000020721004+43300-002050FM-12+025999999V0201601N004110360019N0100001N1+01121+00751102991ADDAY161031AY221031GF108991041051012501071999MA1999999099861MD1810011+9999MW1211REMSYN072AAXX  07214 08027 41660 81608 10112 20075 39986 40299 58001 72162 8457/;
0150080270999992000020800004+43300-002050FM-12+025999999V0202201N003110360019N0100001N1+01321+00751102901ADDAA106000191GF108991041051012501071999MA1999999099791MD1610071+9999REMSYN072AAXX  08004 08027 12660 82206 10132 20075 39979 40290 56007 69921 8457/;
0161080270999992000020803004+43300-002050FM-12+025999999V0201801N003110360019N0100001N1+01241+00881102781ADDAY121031AY221031GF108991041051008001071999MA1999999099671MD1010121+9999MW1211REMSYN072AAXX  08034 08027 41560 81806 10124 20088 39967 40278 50012 72122 8457/;
0209080270999992000020806004+43300-002050FM-12+025999999V0202701N003110075019N0100001N1+01301+00911102731ADDAA112000391GF108991051051008001071999IA1099IA2999+01109KA1120N+01101MA1999999099631MD1610041+9999REMSYN100AAXX  08064 08027 12560 82706 10130 20091 39963 40273 56004 69932 8557/ 333 20110 31011 50030 55006;
0161080270999992000020809004+43300-002050FM-12+025999999V0201401N002110360019N0050001N1+01121+01081102861ADDAY141031AY221031GF106991021051012501071081MA1999999099741MD1010111+9999MW1101REMSYN072AAXX  08094 08027 41650 61404 10112 20108 39974 40286 50011 71042 82578;
0144080270999992000020812004+43300-002050FM-12+025999999V0203401N002112200019N0100001N1+01261+00911102821ADDAA199000021GF104991011011012501001081MA1999999099711MD1510031+9999REMSYN066AAXX  08124 08027 32660 43404 10126 20091 39971 40282 55003 81108;
0223080270999992000020818004+43300-002050FM-12+025999999V0203001N008210003019N0000001N1+01161+01121102901ADDAA112000791AY121061AY221061GA1091+000309999GF109991091999999999999999KA1120M+01521MA1999999099781MD1310191+9999MW1601REMSYN094AAXX  08184 08027 11/00 93016 10116 20112 39978 40290 53019 69902 76022 333 10152 89/01 96047;
0181080270999992000020821004+43300-002050FM-12+025999999V0202601N008710003019N0000001N1+01161+01161103061ADDAY161031AY241031GA1091+000309999GF109991091999999999999999MA1999999099941MD1310161+9999MW1451REMSYN076AAXX  08214 08027 41/00 92617 10116 20116 39994 40306 53016 74564 333 89/01;
0188080270999992000020900004+43300-002050FM-12+025999999V0203001N011810006019N0008001N1+01081+01081103241ADDAA106004191AY141061AY241061GA1091+999999999GF109991091999999999999999MA1999999100101MD1210161+9999MW1431REMSYN072AAXX  09004 08027 11/08 93023 10108 20108 30010 40324 52016 60041 74344;
0161080270999992000020903004+43300-002050FM-12+025999999V0203301N005110042019N0050001N1+00981+00941103301ADDAY161031AY241031GF108991081061004501999999MA1999999100151MD1310051+9999MW1101REMSYN072AAXX  09034 08027 41450 83310 10098 20094 30015 40330 53005 71064 886//;
0209080270999992000020906004+43300-002050FM-12+025999999V0202901N002610120019N0100001N1+00881+00881103361ADDAA112005191GF106991061051012501999999IA1099IA2999+00809KA1120N+00881MA1999999100191MD1310041+9999REMSYN100AAXX  09064 08027 12660 62905 10088 20088 30019 40336 53004 60052 865// 333 20088 31008 50180 55044;
0161080270999992000020909004+43300-002050FM-12+025999999V0202901N004110090019N0050001N1+00921+00881103471ADDAY121031AY221031GF107991071081004501999999MA1999999100301MD1310111+9999MW1101REMSYN072AAXX  09094 08027 41450 72908 10092 20088 30030 40347 53011 71022 878//;
0178080270999992000020912004+43300-002050FM-12+025999999V0203001N003110090019N0050001N1+01001+00881103541ADDAA106000191AY161061AY221061GF107991071081004501999999MA1999999100381MD1010081+9999MW1101REMSYN078AAXX  09124 08027 11450 73006 10100 20088 30038 40354 50008 69911 71062 878//;
0173080270999992000020918004+43300-002050FM-12+025999999V0201201N003112200019N0100001N1+01001+00711103141ADDAA112000591GF102991001001999999001011KA1999M+01181MA1999999099991MD1710151+9999REMSYN082AAXX  09184 08027 12960 21206 10100 20071 39999 40314 57015 69942 80001 333 10118;
0133080270999992000020921004+43300-002050FM-12+025999999V0201401N004612200019N0100001N1+00821+00511103191ADDGF101991001001999999001011MA1999999100021MD1110031+9999REMSYN066AAXX  09214 08027 42960 11409 10082 20051 30002 40319 51003 80001;
0173080270999992000021000004+43300-002050FM-12+025999999V0201601N004112200019N0100001N1+00721+00401103051ADDAA199000091GA1001+999999999GF100991001001999999001001MA1999999099871MD1710151+9999REMSYN060AAXX  10004 08027 32960 01608 10072 20040 39987 40305 57015;EQDQ01  00002PRCP99
0143080270999992000021003004+43300-002050FM-12+025999999V0201601N003612200019N0100001N1+00781+00261102911ADDGA1001+999999999GF100991001001999999001001MA1999999099741MD1810131+9999REMSYN060AAXX  10034 08027 42960 01607 10078 20026 39974 40291 58013;
0232080270999992000021006004+43300-002050FM-12+025999999V0201601N005112200019N0100001N1+00841+00221102791ADDAA199000091GA1001+999999999GF100991001001999999001001IA1099IA2999+00509KA1120N+00661MA1999999099631MD1710111+9999REMSYN088AAXX  10064 08027 32960 01610 10084 20022 39963 40279 57011 333 20066 31005 50080 55040;EQDQ01  00002PRCP99
0133080270999992000021009004+43300-002050FM-12+025999999V0201601N005112200019N0300001N1+01161+00461102701ADDGF106991041001017501041011MA1999999099581MD1510051+9999REMSYN066AAXX  10094 08027 42780 61610 10116 20046 39958 40270 55005 84041;
0163080270999992000021012004+43300-002050FM-12+025999999V0201601N003110150019N0300001N1+01461+00641102671ADDAA199000091GF108991081001017501061999MA1999999099581MD1410001+9999REMSYN066AAXX  10124 08027 32780 81606 10146 20064 39958 40267 54000 8806/;EQDQ01  00002PRCP99
0186080270999992000021018004+43300-002050FM-12+025999999V0203401N008210360019N0100001N1+01541+00791102571ADDAA199000091GF108991041061008001071999KA1999M+01581MA1999999099501MD1310031+9999REMSYN076AAXX  10184 08027 32560 83416 10154 20079 39950 40257 53003 8467/ 333 10158;EQDQ01  00002PRCP99
0171080270999992000021021004+43300-002050FM-12+025999999V0201601N002110042019N0050001N1+01101+01021102751ADDAY121031AY221031GF108991081061004501999999MA1999999099631MD1110131+9999MW1511REMSYN082AAXX  10214 08027 41450 81604 10110 20102 39963 40275 51013 75122 886// 333 96010;
0188080270999992000021100004+43300-002050FM-12+025999999V0202701N001010042019N0050001N1+01041+01001102751ADDAA106001091AY151061AY221061GF108991081061004501999999MA1999999099621MD1710011+9999MW1501REMSYN088AAXX  11004 08027 11450 82702 10104 20100 39962 40275 57001 60011 75052 886// 333 96010;
0251080270999992000021106004+43300-002050FM-12+025999999V0200201N002110042019N0080001N1+00561+00511102981ADDAA112007991AY161061AY241061GF108991081071004501999999GJ101389IA1119IA2999+00509KA1120N+00521MA1999999099791MD1310131+9999MW1501REMSYN112AAXX  11064 08027 11458 80204 10056 20051 39979 40298 53013 60082 75064 887// 333 20052 32005 50160 55023 96010;
0161080270999992000021109004+43300-002050FM-12+025999999V0201601N002110042019N0080001N1+00641+00601103061ADDAY151031AY221031GF108991081051004501999999MA1999999099871MD1210081+9999MW1101REMSYN072AAXX  11094 08027 41458 81604 10064 20060 39987 40306 52008 71052 885//;
0188080270999992000021112004+43300-002050FM-12+025999999V0200201N004110042019N0050001N1+00601+00511103061ADDAA106000191AY151061AY221061GF108991081051004501999999MA1999999099871MD1410001+9999MW1501REMSYN088AAXX  11124 08027 11450 80208 10060 20051 39987 40306 54000 69921 75052 885// 333 96010;
0173080270999992000021118004+43300-002050FM-12+025999999V0203501N002610120019N0150001N1+00621+00171102971ADDAA112000191GF107991051051012501071001KA1999M+00721MA1999999099781MD1510011+9999REMSYN082AAXX  11184 08027 12665 73505 10062 20017 39978 40297 55001 69922 85570 333 10072;
0133080270999992000021121004+43300-002050FM-12+025999999V0203501N002610360019N0150001N1+00601+00031103011ADDGF107991021051008001071001MA1999999099821MD1210041+9999REMSYN066AAXX  11214 08027 42565 73505 10060 20003 39982 40301 52004 82570;
0144080270999992000021200004+43300-002050FM-12+025999999V0203401N004112200019N0150001N1+00601+00031103021ADDAA199000021GF102991011051008001071001MA1999999099831MD1210011+9999REMSYN066AAXX  12004 08027 32565 23408 10060 20003 39983 40302 52001 81570;
0133080270999992000021203004+43300-002050FM-12+025999999V0202901N002110360019N0150001N1+00581+00241103061ADDGF106991041051008001071001MA1999999099861MD1210031+9999REMSYN066AAXX  12034 08027 42565 62904 10058 20024 39986 40306 52003 84570;
0222080270999992000021206004+43300-002050FM-12+025999999V0203601N002612200019N0150001N1+00581+00131103151ADDAA199000091GF103991021051008001071001IA1099IA2999+00409KA1120N+00561MA1999999099951MD1210091+9999REMSYN094AAXX  12064 08027 32565 33605 10058 20013 39995 40315 52009 82570 333 20056 31004 50030 55000;EQDQ01  00002PRCP99
0133080270999992000021209004+43300-002050FM-12+025999999V0203601N002612200019N0150001N1+00641+00081103341ADDGF104991041051008001001001MA1999999100141MD1210191+9999REMSYN066AAXX  12094 08027 42565 43605 10064 20008 30014 40334 52019 84500;
0163080270999992000021212004+43300-002050FM-12+025999999V0203601N004112200019N0200001N1+00761+00061103421ADDAA199000091GF104991041051008001001001MA1999999100231MD1110091+9999REMSYN066AAXX  12124 08027 32570 43608 10076 20006 30023 40342 51009 84500;EQDQ01  00002PRCP99
0186080270999992000021218004+43300-002050FM-12+025999999V0209999C000012200019N0300001N1+00681+00011103381ADDAA199000091GF103991031001017501041999KA1999M+00901MA1999999100181MD1510041+9999REMSYN076AAXX  12184 08027 32780 30000 10068 20001 30018 40338 55004 8304/ 333 10090;EQDQ01  00002PRCP99
0133080270999992000021221004+43300-002050FM-12+025999999V0201901N001512200019N0300001N1+00481+00071103441ADDGF103991001001999999001051MA1999999100221MD1110041+9999REMSYN066AAXX  12214 08027 42980 31903 10048 20007 30022 40344 51004 80005;
0163080270999992000021300004+43300-002050FM-12+025999999V0209999V001012200019N0300001N1+00401+00031103291ADDAA199000091GF101991001001999999001051MA1999999100071MD1810151+9999REMSYN066AAXX  13004 08027 32980 19902 10040 20003 30007 40329 58015 80005;EQDQ01  00002PRCP99
0143080270999992000021303004+43300-002050FM-12+025999999V0201601N002112200019N0300001N1+00401+00031103161ADDGA1001+999999999GF100991001001999999001001MA1999999099941MD1710131+9999REMSYN060AAXX  13034 08027 42980 01604 10040 20003 39994 40316 57013;
0222080270999992000021306004+43300-002050FM-12+025999999V0201801N002110150019N0300001N1+00461+00041102991ADDAA199000091GF107991071001017501071999IA1019IA2999+00009KA1120N+00361MA1999999099781MD1710161+9999REMSYN094AAXX  13064 08027 32780 71804 10046 20004 39978 40299 57016 8707/ 333 20036 30000 50080 55080;EQDQ01  00002PRCP99
0133080270999992000021309004+43300-002050FM-12+025999999V0203001N002110150019N0300001N1+00781+00141103001ADDGF107991071001017501071999MA1999999099831MD1310051+9999REMSYN066AAXX  13094 08027 42780 73004 10078 20014 39983 40300 53005 8707/;
0163080270999992000021312004+43300-002050FM-12+025999999V0202501N004610150019N0300001N1+01081+00361103011ADDAA199000091GF107991071001017501071999MA1999999099871MD1110041+9999REMSYN066AAXX  13124 08027 32780 72509 10108 20036 39987 40301 51004 8707/;EQDQ01  00002PRCP99
0211080270999992000021318004+43300-002050FM-12+025999999V0202701N008210006019N0008001N1+00861+00821102911ADDAA112004191AY151061AY221061GA1091+999999999GF109991091999999999999999KA1999M+01181MA1999999099751MD1610031+9999MW1511REMSYN082AAXX  13184 08027 11/08 92716 10086 20082 39975 40291 56003 60042 75152 333 10118;
0161080270999992000021321004+43300-002050FM-12+025999999V0202901N008710042019N0100001N1+01001+00921102891ADDAY151031AY241031GF108991081071004501999999MA1999999099751MD1410001+9999MW1201REMSYN072AAXX  13214 08027 41460 82917 10100 20092 39975 40289 54000 72054 887//;
0188080270999992000021400004+43300-002050FM-12+025999999V0202801N008210003019N0004001N1+00981+00981102891ADDAA106005191AY161061AY241061GA1091+999999999GF109991091999999999999999MA1999999099751MD1410001+9999MW1611REMSYN072AAXX  14004 08027 11/04 92816 10098 20098 39975 40289 54000 60051 76164;
0171080270999992000021403004+43300-002050FM-12+025999999V0203001N010810001519N0000001N1+01021+01021102791ADDAY161031AY241031GA1091+999999999GF109991091999999999999999MA1999999099661MD1810091+9999MW1611REMSYN066AAXX  14034 08027 41/00 93021 10102 20102 39966 40279 58009 76164;
0247080270999992000021406004+43300-002050FM-12+025999999V0203001N011810001519N0000001N1+01041+01041102791ADDAA112014091AY161061AY241061GA1091+999999999GF109991091999999999999999IA1119IA2999+01009KA1120N+00841MA1999999099661MD1510001+9999MW1511REMSYN100AAXX  14064 08027 11/00 93023 10104 20104 39966 40279 55000 60142 75164 333 20084 32010 50330 55011;
0171080270999992000021409004+43300-002050FM-12+025999999V0203101N010810001519N0000001N1+01061+01061102871ADDAY161031AY241031GA1091+999999999GF109991091999999999999999MA1999999099741MD1310081+9999MW1611REMSYN066AAXX  14094 08027 41/00 93121 10106 20106 39974 40287 53008 76164;
0188080270999992000021412004+43300-002050FM-12+025999999V0203001N010810001519N0000001N1+01041+01041102961ADDAA106009991AY161061AY241061GA1091+999999999GF109991091999999999999999MA1999999099821MD1210081+9999MW1611REMSYN072AAXX  14124 08027 11/00 93021 10104 20104 39982 40296 52008 60101 76164;
0201080270999992000021418004+43300-002050FM-12+025999999V0203001N006210120019N0300001N1+01061+00981103041ADDAA112010991AY161061AY241061GF108991081081008001999999KA1999M+01061MA1999999099901MD1110111+9999MW1021REMSYN088AAXX  14184 08027 11580 83012 10106 20098 39990 40304 51011 60112 70264 888// 333 10106;
0171080270999992000021421004+43300-002050FM-12+025999999V0202801N007210003019N0004001N1+00981+00981103101ADDAY161031AY241031GA1091+999999999GF109991091999999999999999MA1999999099951MD1110051+9999MW1611REMSYN066AAXX  14214 08027 41/04 92814 10098 20098 39995 40310 51005 76164;
0178080270999992000021500004+43300-002050FM-12+025999999V0202801N005110120019N0300001N1+00981+00901103101ADDAA106002091AY161061AY241061GF108991081081008001999999MA1999999099951MD1410001+9999MW1021REMSYN078AAXX  15004 08027 11580 82810 10098 20090 39995 40310 54000 60021 70264 888//;
0133080270999992000021503004+43300-002050FM-12+025999999V0202801N005110120019N0300001N1+00981+00901103101ADDGF108991081081008001999999MA1999999099951MD1410001+9999REMSYN066AAXX  15034 08027 42580 82810 10098 20090 39995 40310 54000 888//;
0209080270999992000021506004+43300-002050FM-12+025999999V0202801N004110120019N0300001N1+00981+00901103021ADDAA112007191GF108991081081008001999999IA1119IA2999+00809KA1120N+00941MA1999999099871MD1510041+9999REMSYN100AAXX  15064 08027 12580 82808 10098 20090 39987 40302 55004 60072 888// 333 20094 32008 50390 55000;
0133080270999992000021509004+43300-002050FM-12+025999999V0202501N004110120019N0300001N1+01041+00791103011ADDGF108991081081008001999999MA1999999099871MD1410001+9999REMSYN066AAXX  15094 08027 42580 82508 10104 20079 39987 40301 54000 888//;
0163080270999992000021512004+43300-002050FM-12+025999999V0201901N002110120019N0300001N1+01121+00961102951ADDAA199000091GF108991081081008001999999MA1999999099821MD1810051+9999REMSYN066AAXX  15124 08027 32580 81904 10112 20096 39982 40295 58005 888//;EQDQ01  00002PRCP99
0186080270999992000021518004+43300-002050FM-12+025999999V0202901N004110120019N0300001N1+01021+00901102671ADDAA199000091GF108991081081008001999999KA1999M+01221MA1999999099541MD1610041+9999REMSYN076AAXX  15184 08027 32580 82908 10102 20090 39954 40267 56004 888// 333 10122;EQDQ01  00002PRCP99
0133080270999992000021521004+43300-002050FM-12+025999999V0202901N005110120019N0300001N1+01041+00791102631ADDGF108991081081008001999999MA1999999099501MD1810041+9999REMSYN066AAXX  15214 08027 42580 82910 10104 20079 39950 40263 58004 888//;
0163080270999992000021600004+43300-002050FM-12+025999999V0202801N006210120019N0300001N1+01161+00611102491ADDAA199000091GF108991081081008001999999MA1999999099381MD1710121+9999REMSYN066AAXX  16004 08027 32580 82812 10116 20061 39938 40249 57012 888//;EQDQ01  00002PRCP99
0133080270999992000021603004+43300-002050FM-12+025999999V0202801N006210120019N0300001N1+01161+00611102491ADDGF108991081081008001999999MA1999999099381MD1410001+9999REMSYN066AAXX  16034 08027 42580 82812 10116 20061 39938 40249 54000 888//;
0237080270999992000021606004+43300-002050FM-12+025999999V0202801N006210120019N0300001N1+00841+00711102441ADDAA112005191AY181061AY221061GF108991081081008001999999IA1119IA2999+00809KA1120N+00841MA1999999099301MD1610121+9999MW1021REMSYN106AAXX  16064 08027 11580 82812 10084 20071 39930 40244 56012 60052 70282 888// 333 20084 32008 50160 55002;
0161080270999992000021609004+43300-002050FM-12+025999999V0202801N007210075019N0150001N1+00841+00761102441ADDAY161031AY221031GF108991081071008001999999MA1999999099301MD1510001+9999MW1601REMSYN072AAXX  16094 08027 41565 82814 10084 20076 39930 40244 55000 76062 887//;
0178080270999992000021612004+43300-002050FM-12+025999999V0202801N013910075019N0120001N1+00741+00651102501ADDAA106005191AY161061AY221061GF108991081071008001999999MA1999999099341MD1010041+9999MW1601REMSYN078AAXX  16124 08027 11562 82827 10074 20065 39934 40250 50004 60051 76062 887//;
0224080270999992000021618004+43300-002050FM-12+025999999V0203001N011810120019N0020001N1+00841+00711102281ADDAA112007991AY181061AY221061GF108991081081008001999999KA1120M+00941MA1999999099141MD1710081+9999MW1251OA149902111REMSYN100AAXX  16184 08027 11520 83023 10084 20071 39914 40228 57008 60082 72582 888// 333 10094 91141 91529;
0188080270999992000021621004+43300-002050FM-12+025999999V0203001N012910120019N0100001N1+00881+00531102401ADDAY181031AY221031GF108991081081008001999999MA1999999099261MD1310121+9999MW1021OA149902631REMSYN088AAXX  16214 08027 41560 83025 10088 20053 39926 40240 53012 70282 888// 333 91151 91530;
0205080270999992000021700004+43300-002050FM-12+025999999V0203101N015910090019N0020001N1+00841+00801102371ADDAA106004191AY181061AY221061GF108991081081004501999999MA1999999099231MD1810031+9999MW1251OA149902731REMSYN094AAXX  17004 08027 11420 83131 10084 20080 39923 40237 58003 60041 72582 888// 333 91153 91531;
0188080270999992000021703004+43300-002050FM-12+025999999V0203001N012910090019N0020001N1+00881+00841102281ADDAY181031AY221031GF108991081081004501999999MA1999999099151MD1710081+9999MW1801OA149902261REMSYN088AAXX  17034 08027 41420 83025 10088 20084 39915 40228 57008 78082 888// 333 91144 91531;
0237080270999992000021706004+43300-002050FM-12+025999999V0202801N008210120019N0030001N1+00821+00741102171ADDAA112007991AY181061AY221061GF108991081081008001999999IA1119IA2999+00809KA1120N+00741MA1999999099031MD1710121+9999MW1101REMSYN106AAXX  17064 08027 11530 82816 10082 20074 39903 40217 57012 60082 71082 888// 333 20074 32008 50680 55000;
0198080270999992000021709004+43300-002050FM-12+025999999V0203001N018010006019N0008001N1+01061+01061102051ADDAY161031AY241031GA1091+999999999GF109991091999999999999999MA1999999098941MD1510091+9999MW1611OA149902681REMSYN082AAXX  17094 08027 41/08 93035 10106 20106 39894 40205 55009 76164 333 91152 91530;
0215080270999992000021712004+43300-002050FM-12+025999999V0203101N014910001519N0000001N1+01101+01101102251ADDAA106006191AY181061AY241061GA1091+999999999GF109991091999999999999999MA1999999099141MD1310201+9999MW1801OA149902681REMSYN088AAXX  17124 08027 11/00 93129 10110 20110 39914 40225 53020 60061 78084 333 91152 91530;
0211080270999992000021718004+43300-002050FM-12+025999999V0203101N010810001519N0000001N1+01081+01081102541ADDAA112007191AY161061AY241061GA1091+999999999GF109991091999999999999999KA1999M+01101MA1999999099421MD1310201+9999MW1451REMSYN082AAXX  17184 08027 11/00 93121 10108 20108 39942 40254 53020 60072 74564 333 10110;
0171080270999992000021721004+43300-002050FM-12+025999999V0203101N008710001519N0000001N1+01081+01081102661ADDAY161031AY241031GA1091+999999999GF109991091999999999999999MA1999999099541MD1210121+9999MW1451REMSYN066AAXX  17214 08027 41/00 93117 10108 20108 39954 40266 52012 74564;
0188080270999992000021800004+43300-002050FM-12+025999999V0202901N008210001519N0000001N1+01021+01021102671ADDAA106002091AY161061AY241061GA1091+999999999GF109991091999999999999999MA1999999099541MD1410001+9999MW1451REMSYN072AAXX  18004 08027 11/00 92916 10102 20102 39954 40267 54000 60021 74564;
0171080270999992000021803004+43300-002050FM-12+025999999V0203001N008210001519N0000001N1+01041+01041102591ADDAY161031AY241031GA1091+999999999GF109991091999999999999999MA1999999099471MD1710071+9999MW1611REMSYN066AAXX  18034 08027 41/00 93016 10104 20104 39947 40259 57007 76164;
0247080270999992000021806004+43300-002050FM-12+025999999V0203001N008710001519N0001001N1+01041+01041102551ADDAA112003091AY161061AY241061GA1091+999999999GF109991091999999999999999IA1119IA2999+01009KA1120N+00961MA1999999099431MD1510041+9999MW1501REMSYN100AAXX  18064 08027 11/01 93017 10104 20104 39943 40255 55004 60032 75064 333 20096 32010 50280 55000;
0161080270999992000021809004+43300-002050FM-12+025999999V0202801N007710042019N0080001N1+01041+01041102591ADDAY161031AY241031GF108991081071004501999999MA1999999099471MD1110041+9999MW1101REMSYN072AAXX  18094 08027 41458 82815 10104 20104 39947 40259 51004 71064 887//;
0178080270999992000021812004+43300-002050FM-12+025999999V0202901N005110042019N0060001N1+01041+01041102631ADDAA106000391AY161061AY241061GF108991081071004501999999MA1999999099501MD1310031+9999MW1101REMSYN078AAXX  18124 08027 11456 82910 10104 20104 39950 40263 53003 69931 71064 887//;
0173080270999992000021818004+43300-002050FM-12+025999999V0203001N006210090019N0150001N1+01061+00901102541ADDAA112000391GF108991081081004501999999KA1999M+01101MA1999999099421MD1310041+9999REMSYN082AAXX  18184 08027 12465 83012 10106 20090 39942 40254 53004 69932 888// 333 10110;
0161080270999992000021821004+43300-002050FM-12+025999999V0202801N004110075019N0100001N1+01041+00921102601ADDAY161031AY221031GF108991081071008001999999MA1999999099471MD1010051+9999MW1631REMSYN072AAXX  18214 08027 41560 82808 10104 20092 39947 40260 50005 76362 887//;
0178080270999992000021900004+43300-002050FM-12+025999999V0203001N005110120019N0150001N1+01101+00861102501ADDAA106000191AY161061AY221061GF108991081081008001999999MA1999999099381MD1710091+9999MW1021REMSYN078AAXX  19004 08027 11565 83010 10110 20086 39938 40250 57009 69921 70262 888//;
0181080270999992000021903004+43300-002050FM-12+025999999V0203001N006210001519N0000001N1+01001+01001102391ADDAY121031AY221031GA1091+999999999GF109991091999999999999999MA1999999099271MD1710111+9999MW1631REMSYN076AAXX  19034 08027 41/00 93012 10100 20100 39927 40239 57011 76322 333 96047;
0237080270999992000021906004+43300-002050FM-12+025999999V0203001N006710042019N0030001N1+00941+00901102431ADDAA112001091AY161061AY221061GF108991081071004501999999IA1119IA2999+00909KA1120N+00901MA1999999099301MD1310031+9999MW1611REMSYN106AAXX  19064 08027 11430 83013 10094 20090 39930 40243 53003 60012 76162 887// 333 20090 32009 50020 55005;
0133080270999992000021909004+43300-002050FM-12+025999999V0202901N009810120019N0120001N1+01021+00821102461ADDGF108991081081008001999999MA1999999099341MD1310041+9999REMSYN066AAXX  19094 08027 42562 82919 10102 20082 39934 40246 53004 888//;
0178080270999992000021912004+43300-002050FM-12+025999999V0202901N008210042019N0040001N1+01021+00901102511ADDAA106000791AY121061AY221061GF108991081071004501999999MA1999999099381MD1210041+9999MW1611REMSYN078AAXX  19124 08027 11440 82916 10102 20090 39938 40251 52004 69901 76122 887//;
0211080270999992000021918004+43300-002050FM-12+025999999V0203501N005110003019N0004001N1+00881+00881102481ADDAA112007191AY161061AY241061GA1091+999999999GF109991091999999999999999KA1999M+01061MA1999999099341MD1310071+9999MW1601REMSYN082AAXX  19184 08027 11/04 93510 10088 20088 39934 40248 53007 60072 76064 333 10106;
0161080270999992000021921004+43300-002050FM-12+025999999V0203401N007210120019N0060001N1+00841+00801102621ADDAY161031AY241031GF108991081081008001999999MA1999999099471MD1210131+9999MW1601REMSYN072AAXX  19214 08027 41556 83414 10084 20080 39947 40262 52013 76064 888//;
0178080270999992000022000004+43300-002050FM-12+025999999V0203001N005110120019N0050001N1+00841+00801102691ADDAA106003091AY161061AY221061GF108991081081008001999999MA1999999099541MD1110071+9999MW1601REMSYN078AAXX  20004 08027 11550 83010 10084 20080 39954 40269 51007 60031 76062 888//;
0161080270999992000022003004+43300-002050FM-12+025999999V0203001N005110120019N0050001N1+00841+00801102691ADDAY161031AY221031GF108991081081008001999999MA1999999099541MD1410001+9999MW1601REMSYN072AAXX  20034 08027 42550 83010 10084 20080 39954 40269 54000 76062 888//;
0237080270999992000022006004+43300-002050FM-12+025999999V0202901N001010120019N0250001N1+00701+00571102601ADDAA112004191AY161061AY221061GF108991081081008001999999IA1129IA2999+00209KA1120N+00701MA1999999099431MD1610111+9999MW1021REMSYN106AAXX  20064 08027 11575 82902 10070 20057 39943 40260 56011 60042 70262 888// 333 20070 33002 50210 55000;
0133080270999992000022009004+43300-002050FM-12+025999999V0201201N002110120019N0250001N1+00801+00671102741ADDGF106991061081008001001001MA1999999099581MD1310151+9999REMSYN066AAXX  20094 08027 42575 61204 10080 20067 39958 40274 53015 86800;
0144080270999992000022012004+43300-002050FM-12+025999999V0200201N004112200019N0300001N1+00921+00421102771ADDAA199000021GF103991031081008001001001MA1999999099621MD1110041+9999REMSYN066AAXX  20124 08027 32580 30208 10092 20042 39962 40277 51004 83800;
0186080270999992000022018004+43300-002050FM-12+025999999V0200201N002612200019N0300001N1+00761+00441102711ADDAA199000091GF102991021011008001041001KA1999M+01041MA1999999099551MD1310011+9999REMSYN076AAXX  20184 08027 32580 20205 10076 20044 39955 40271 53001 82140 333 10104;EQDQ01  00002PRCP99
0133080270999992000022021004+43300-002050FM-12+025999999V0201201N002112200019N0300001N1+00721+00401102721ADDGF101991011011008001041001MA1999999099551MD1410001+9999REMSYN066AAXX  20214 08027 42580 11204 10072 20040 39955 40272 54000 81140;
0163080270999992000022100004+43300-002050FM-12+025999999V0200901N002112200019N0300001N1+00641+00311102731ADDAA199000091GF101991001001999999001011MA1999999099551MD1410001+9999REMSYN066AAXX  21004 08027 32980 10904 10064 20031 39955 40273 54000 80001;EQDQ01  00002PRCP99
0143080270999992000022103004+43300-002050FM-12+025999999V0203201N001512200019N0300001N1+00561+00371102701ADDGA1001+999999999GF100991001001999999001001MA1999999099511MD1810041+9999REMSYN060AAXX  21034 08027 42980 03203 10056 20037 39951 40270 58004;
0222080270999992000022106004+43300-002050FM-12+025999999V0203001N002112200019N0300001N1+00441+00391102701ADDAA199000091GF101991011001017501041001IA1099IA2999+00209KA1120N+00401MA1999999099501MD1610011+9999REMSYN094AAXX  21064 08027 32780 13004 10044 20039 39950 40270 56001 81040 333 20040 31002 50220 55082;EQDQ01  00002PRCP99
0161080270999992000022109004+43300-002050FM-12+025999999V0203201N001012200019N0080001N1+00541+00451102741ADDAY111031AY201031GF102991001001999999001011MA1999999099551MD1310051+9999MW1101REMSYN072AAXX  21094 08027 41958 23202 10054 20045 39955 40274 53005 71010 80001;
0191080270999992000022112004+43300-002050FM-12+025999999V0203001N001019999999N0050001N1+00781+00601102741ADDAA199000091AY121061AY211061GF107991001001999999001081MA1999999099581MD1110031+9999MW1101REMSYN072AAXX  21124 08027 31950 73002 10078 20060 39958 40274 51003 71021 80008;EQDQ01  00002PRCP99
0186080270999992000022118004+43300-002050FM-12+025999999V0200401N002110900019N0250001N1+00681+00081102731ADDAA199000091GF105991011001017501041021KA1999M+00861MA1999999099551MD1310051+9999REMSYN076AAXX  21184 08027 32775 50404 10068 20008 39955 40273 53005 81042 333 10086;EQDQ01  00002PRCP99
0133080270999992000022121004+43300-002050FM-12+025999999V0209999C000019999999N0250001N1+00541+00081102731ADDGF105991001001999999001011MA1999999099541MD1610011+9999REMSYN066AAXX  21214 08027 42975 50000 10054 20008 39954 40273 56001 80001;
0163080270999992000022200004+43300-002050FM-12+025999999V0202701N004119999999N0250001N1+00481+00011102741ADDAA199000091GF106991001001999999001081MA1999999099541MD1410001+9999REMSYN066AAXX  22004 08027 32975 62708 10048 20001 39954 40274 54000 80008;EQDQ01  00002PRCP99
0133080270999992000022203004+43300-002050FM-12+025999999V0202301N002110150019N0150001N1+00501+00201102741ADDGF107991071001017501051999MA1999999099541MD1010001+9999REMSYN066AAXX  22034 08027 42765 72304 10050 20020 39954 40274 50000 8705/;
0222080270999992000022206004+43300-002050FM-12+025999999V0202501N003112200019N0150001N1+00461+00211102671ADDAA199000091GF104991011051008001041001IA1099IA2999+00309KA1120N+00401MA1999999099471MD1510071+9999REMSYN094AAXX  22064 08027 32565 42506 10046 20021 39947 40267 55007 81540 333 20040 31003 50100 55092;EQDQ01  00002PRCP99
0133080270999992000022209004+43300-002050FM-12+025999999V0202501N003110900019N0200001N1+00681+00351102641ADDGF105991011051008001001071MA1999999099471MD1410001+9999REMSYN066AAXX  22094 08027 42570 52506 10068 20035 39947 40264 54000 81507;
0163080270999992000022212004+43300-002050FM-12+025999999V0203001N003110360019N0150001N1+00841+00271102701ADDAA199000091GF107991011011008001041081MA1999999099541MD1310071+9999REMSYN066AAXX  22124 08027 32565 73006 10084 20027 39954 40270 53007 81148;EQDQ01  00002PRCP99
0186080270999992000022218004+43300-002050FM-12+025999999V0202901N001010360019N0150001N1+00761+00391102581ADDAA199000091GF108991011051012501071999KA1999M+00861MA1999999099421MD1710011+9999REMSYN076AAXX  22184 08027 32665 82902 10076 20039 39942 40258 57001 8157/ 333 10086;EQDQ01  00002PRCP99
0133080270999992000022221004+43300-002050FM-12+025999999V0201501N001510900019N0150001N1+00721+00401102631ADDGF107991031001022501071081MA1999999099461MD1110041+9999REMSYN066AAXX  22214 08027 42865 71503 10072 20040 39946 40263 51004 83078;
0163080270999992000022300004+43300-002050FM-12+025999999V0201601N003112200019N0150001N1+00601+00361102641ADDAA199000091GF102991021001022501031001MA1999999099461MD1010001+9999REMSYN066AAXX  23004 08027 32865 21606 10060 20036 39946 40264 50000 82030;EQDQ01  00002PRCP99
0133080270999992000022303004+43300-002050FM-12+025999999V0201601N001510360019N0150001N1+00621+00341102641ADDGF107991031051012501071001MA1999999099461MD1410001+9999REMSYN066AAXX  23034 08027 42665 71603 10062 20034 39946 40264 54000 83570;
0222080270999992000022306004+43300-002050FM-12+025999999V0201801N003112200019N0150001N1+00661+00481102631ADDAA199000091GF103991021051012501071001IA1099IA2999+00409KA1120N+00521MA1999999099461MD1410001+9999REMSYN094AAXX  23064 08027 32665 31806 10066 20048 39946 40263 54000 82570 333 20052 31004 50030 55043;EQDQ01  00002PRCP99
0133080270999992000022309004+43300-002050FM-12+025999999V0202601N001010120019N0150001N1+00921+00711102781ADDGF107991051051012501071001MA1999999099631MD1210171+9999REMSYN066AAXX  23094 08027 42665 72602 10092 20071 39963 40278 52017 85570;
0178080270999992000022312004+43300-002050FM-12+025999999V0202801N002610090019N0030001N1+01021+00981102831ADDAA106000591AY161061AY221061GF108991061081004501071999MA1999999099701MD1110071+9999MW1211REMSYN078AAXX  23124 08027 11430 82805 10102 20098 39970 40283 51007 69941 72162 8687/;
0211080270999992000022318004+43300-002050FM-12+025999999V0203001N007210003019N0003001N1+01021+01021102961ADDAA112003091AY161061AY241061GA1091+999999999GF109991091999999999999999KA1999M+01061MA1999999099821MD1310121+9999MW1451REMSYN082AAXX  23184 08027 11/03 93014 10102 20102 39982 40296 53012 60032 74564 333 10106;
0171080270999992000022321004+43300-002050FM-12+025999999V0202901N006210001519N0001001N1+01001+01001103081ADDAY141031AY241031GA1091+999999999GF109991091999999999999999MA1999999099941MD1110121+9999MW1471REMSYN066AAXX  23214 08027 41/01 92912 10100 20100 39994 40308 51012 74744;
0188080270999992000022400004+43300-002050FM-12+025999999V0202901N002610001519N0001001N1+01001+01001103091ADDAA106000891AY151061AY241061GA1091+999999999GF109991091999999999999999MA1999999099951MD1110011+9999MW1511REMSYN072AAXX  24004 08027 11/01 92905 10100 20100 39995 40309 51001 69971 75154;
0171080270999992000022403004+43300-002050FM-12+025999999V0202901N005110001519N0001001N1+01061+01061103081ADDAY151031AY241031GA1091+999999999GF109991091999999999999999MA1999999099941MD1810011+9999MW1451REMSYN066AAXX  24034 08027 41/01 92910 10106 20106 39994 40308 58001 74554;
0247080270999992000022406004+43300-002050FM-12+025999999V0203001N004110001519N0001001N1+01041+01041103081ADDAA112004191AY151061AY241061GA1091+999999999GF109991091999999999999999IA1099IA2999+01009KA1120N+00941MA1999999099941MD1510001+9999MW1451REMSYN100AAXX  24064 08027 11/01 93008 10104 20104 39994 40308 55000 60042 74554 333 20094 31010 50020 55002;
0171080270999992000022409004+43300-002050FM-12+025999999V0203101N003610001519N0001001N1+01061+01061103201ADDAY141031AY241031GA1091+999999999GF109991091999999999999999MA1999999100061MD1310121+9999MW1451REMSYN066AAXX  24094 08027 41/01 93107 10106 20106 30006 40320 53012 74544;
0144080270999992000022412004+43300-002050FM-12+025999999V0203501N001510120019N0100001N1+01101+01021103201ADDAA199000021GF106991051081008001041011MA1999999100061MD1010001+9999REMSYN066AAXX  24124 08027 32560 63503 10110 20102 30006 40320 50000 85841;
0166080270999992000022418004+43300-002050FM-12+025999999V0200701N003112200019N0350001N1+01181+00941102951ADDGA1001+999999999GF100991001001999999001001KA1999M+01401MA1999999099831MD1610071+9999REMSYN070AAXX  24184 08027 42981 00706 10118 20094 39983 40295 56007 333 10140;
0143080270999992000022421004+43300-002050FM-12+025999999V0201501N005112200019N0400001N1+01041+00841102921ADDGA1001+999999999GF100991001001999999001001MA1999999099781MD1610051+9999REMSYN060AAXX  24214 08027 42982 01510 10104 20084 39978 40292 56005;
0173080270999992000022500004+43300-002050FM-12+025999999V0201601N004112200019N0400001N1+01161+00611102821ADDAA199000091GA1001+999999999GF100991001001999999001001MA1999999099701MD1710081+9999REMSYN060AAXX  25004 08027 32982 01608 10116 20061 39970 40282 57008;EQDQ01  00002PRCP99
0143080270999992000022503004+43300-002050FM-12+025999999V0201601N004112200019N0400001N1+01161+00611102821ADDGA1001+999999999GF100991001001999999001001MA1999999099701MD1410001+9999REMSYN060AAXX  25034 08027 42982 01608 10116 20061 39970 40282 54000;
0232080270999992000022506004+43300-002050FM-12+025999999V0203401N002112200019N0400001N1+01061+00491102791ADDAA199000091GA1001+999999999GF100991001001999999001001IA1099IA2999+00709KA1120N+01021MA1999999099661MD1510041+9999REMSYN088AAXX  25064 08027 32982 03404 10106 20049 39966 40279 55004 333 20102 31007 50060 55053;EQDQ01  00002PRCP99
0171080270999992000022509004+43300-002050FM-12+025999999V0203101N003110003019N0002001N1+00981+00981103091ADDAY141031AY241031GA1091+999999999GF109991091999999999999999MA1999999099941MD1210281+9999MW1451REMSYN066AAXX  25094 08027 41/02 93106 10098 20098 39994 40309 52028 74544;
0201080270999992000022512004+43300-002050FM-12+025999999V0203201N003110003019N0005001N1+01081+01041103161ADDAA199000091AY141061AY241061GA1091+999999999GF109991091999999999999999MA1999999100021MD1110081+9999MW1451REMSYN066AAXX  25124 08027 31/05 93206 10108 20104 30002 40316 51008 74544;EQDQ01  00002PRCP99
0230080270999992000022518004+43300-002050FM-12+025999999V0209999C000010001519N0005001N1+01001+01001102961ADDAA199000091AY141061AY241061GA1091+000159999GF109991091999999999999999KA1120M+01121MA1999999099821MD1710081+9999MW1451REMSYN082AAXX  25184 08027 31/05 90000 10100 20100 39982 40296 57008 74544 333 10112 89/00;EQDQ01  00002PRCP99
0171080270999992000022521004+43300-002050FM-12+025999999V0209999C000010003019N0003001N1+00941+00941102981ADDAY141031AY241031GA1091+999999999GF109991091999999999999999MA1999999099831MD1110011+9999MW1451REMSYN066AAXX  25214 08027 41/03 90000 10094 20094 39983 40298 51001 74544;
0201080270999992000022600004+43300-002050FM-12+025999999V0209999C000010003019N0002001N1+00941+00941102971ADDAA199000091AY141061AY241061GA1091+999999999GF109991091999999999999999MA1999999099821MD1710011+9999MW1451REMSYN066AAXX  26004 08027 31/02 90000 10094 20094 39982 40297 57001 74544;EQDQ01  00002PRCP99
0171080270999992000022603004+43300-002050FM-12+025999999V0201601N002610003019N0005001N1+00961+00961102841ADDAY141031AY241031GA1091+999999999GF109991091999999999999999MA1999999099701MD1710121+9999MW1451REMSYN066AAXX  26034 08027 41/05 91605 10096 20096 39970 40284 57012 74544;
0274080270999992000022606004+43300-002050FM-12+025999999V0201401N002110001519N0001001N1+00841+00841102821ADDAA199000091AY141061AY241061GA1091+000159999GF109991091999999999999999GJ100009IA1099IA2999+00609KA1120N+00801MA1999999099661MD1610041+9999MW1451REMSYN100AAXX  26064 08027 31/01 91404 10084 20084 39966 40282 56004 74544 333 20080 31006 50010 55000 89/00;EQDQ01  00002PRCP99
0161080270999992000022609004+43300-002050FM-12+025999999V0201601N002112200019N0007001N1+00841+00841102861ADDAY141031AY241031GF102991001001999999001011MA1999999099701MD1210041+9999MW1421REMSYN072AAXX  26094 08027 41907 21604 10084 20084 39970 40286 52004 74244 80001;
0191080270999992000022612004+43300-002050FM-12+025999999V0201601N001519999999N0050001N1+01401+01181102761ADDAA199000091AY141061AY221061GF105991001001999999001011MA1999999099671MD1710031+9999MW1101REMSYN072AAXX  26124 08027 31950 51603 10140 20118 39967 40276 57003 71042 80001;EQDQ01  00002PRCP99
0214080270999992000022618004+43300-002050FM-12+025999999V0200901N002119999999N0020001N1+01361+01021102601ADDAA199000091AY121061AY221061GF106991001001999999001011KA1999M+01841MA1999999099511MD1510031+9999MW1101REMSYN082AAXX  26184 08027 31920 60904 10136 20102 39951 40260 55003 71022 80001 333 10184;EQDQ01  00002PRCP99
0161080270999992000022621004+43300-002050FM-12+025999999V0201601N003119999999N0020001N1+01421+00871102601ADDAY121031AY221031GF105991001001999999001011MA1999999099511MD1010001+9999MW1051REMSYN072AAXX  26214 08027 41920 51606 10142 20087 39951 40260 50000 70522 80001;
0191080270999992000022700004+43300-002050FM-12+025999999V0201501N002112200019N0010001N1+00881+00841102661ADDAA199000091AY111061AY201061GF102991001001999999001011MA1999999099511MD1410001+9999MW1281REMSYN072AAXX  27004 08027 31910 21504 10088 20084 39951 40266 54000 72810 80001;EQDQ01  00002PRCP99
0171080270999992000022703004+43300-002050FM-12+025999999V0203201N002110001519N0000001N1+00801+00801102611ADDAY141031AY211031GA1091+999999999GF109991091999999999999999MA1999999099461MD1810051+9999MW1471REMSYN066AAXX  27034 08027 41/00 93204 10080 20080 39946 40261 58005 74741;
0260080270999992000022706004+43300-002050FM-12+025999999V0203601N002110001519N0000001N1+00741+00741102541ADDAA199000091AY141061AY241061GA1091+999999999GF109991091999999999999999IA1099IA2999+00509KA1120N+00641MA1999999099381MD1510081+9999MW1451REMSYN094AAXX  27064 08027 31/00 93604 10074 20074 39938 40254 55008 74544 333 20064 31005 50180 55088;EQDQ01  00002PRCP99
0171080270999992000022709004+43300-002050FM-12+025999999V0203501N001010001519N0000001N1+00821+00821102581ADDAY141031AY241031GA1091+999999999GF109991091999999999999999MA1999999099431MD1310051+9999MW1451REMSYN066AAXX  27094 08027 41/00 93502 10082 20082 39943 40258 53005 74544;
0201080270999992000022712004+43300-002050FM-12+025999999V0203301N002112200019N0008001N1+01221+01111102491ADDAA199000091AY141061AY211061GA1001+999999999GF100991001001999999001001MA1999999099391MD1810041+9999MW1421REMSYN066AAXX  27124 08027 31908 03304 10122 20111 39939 40249 58004 74241;EQDQ01  00002PRCP99
0224080270999992000022718004+43300-002050FM-12+025999999V0202901N001010001519N0001001N1+00841+00841102401ADDAA199000091AY141061AY241061GA1091+999999999GF109991091999999999999999KA1999M+01281MA1999999099261MD1310041+9999MW1451REMSYN076AAXX  27184 08027 31/01 92902 10084 20084 39926 40240 53004 74544 333 10128;EQDQ01  00002PRCP99
0171080270999992000022721004+43300-002050FM-12+025999999V0203201N003110001519N0001001N1+00821+00821102501ADDAY141031AY241031GA1091+999999999GF109991091999999999999999MA1999999099351MD1310091+9999MW1451REMSYN066AAXX  27214 08027 41/01 93206 10082 20082 39935 40250 53009 74544;
0201080270999992000022800004+43300-002050FM-12+025999999V0203501N001510001519N0001001N1+00761+00761102371ADDAA199000091AY141061AY241061GA1091+999999999GF109991091999999999999999MA1999999099221MD1810131+9999MW1451REMSYN066AAXX  28004 08027 31/01 93503 10076 20076 39922 40237 58013 74544;EQDQ01  00002PRCP99
0171080270999992000022803004+43300-002050FM-12+025999999V0203601N001510001519N0001001N1+00721+00721102291ADDAY141031AY241031GA1091+999999999GF109991091999999999999999MA1999999099141MD1710081+9999MW1451REMSYN066AAXX  28034 08027 41/01 93603 10072 20072 39914 40229 57008 74544;
0260080270999992000022806004+43300-002050FM-12+025999999V0203301N002610003019N0003001N1+00761+00761102371ADDAA199000091AY141061AY241061GA1091+999999999GF109991091999999999999999IA1099IA2999+00609KA1120N+00661MA1999999099221MD1310081+9999MW1431REMSYN094AAXX  28064 08027 31/03 93305 10076 20076 39922 40237 53008 74344 333 20066 31006 50090 55027;EQDQ01  00002PRCP99
0161080270999992000022809004+43300-002050FM-12+025999999V0202901N002612200019N0040001N1+00901+00861102521ADDAY141031AY211031GF104991011061001501031081MA1999999099381MD1310161+9999MW1101REMSYN072AAXX  28094 08027 41240 42905 10090 20086 39938 40252 53016 71041 81638;
0163080270999992000022812004+43300-002050FM-12+025999999V0202101N001510360019N0120001N1+01481+00851102501ADDAA199000091GF108991041051012501071999MA1999999099421MD1310041+9999REMSYN066AAXX  28124 08027 32662 82103 10148 20085 39942 40250 53004 8457/;EQDQ01  00002PRCP99
0214080270999992000022818004+43300-002050FM-12+025999999V0203001N003610075019N0150001N1+00981+00771102771ADDAA199000091AY141061AY221061GF108991061051008001071999KA1999M+01581MA1999999099631MD1310201+9999MW1021REMSYN082AAXX  28184 08027 31565 83007 10098 20077 39963 40277 53020 70242 8657/ 333 10158;EQDQ01  00002PRCP99
0133080270999992000022821004+43300-002050FM-12+025999999V0203201N001010075019N0150001N1+00941+00771102811ADDGF108991061051008001071999MA1999999099671MD1110041+9999REMSYN066AAXX  28214 08027 42565 83202 10094 20077 39967 40281 51004 8657/;
0163080270999992000022900004+43300-002050FM-12+025999999V0201801N001010120019N0200001N1+00881+00711102771ADDAA199000091GF108991061051012501071999MA1999999099621MD1810051+9999REMSYN066AAXX  29004 08027 32670 81802 10088 20071 39962 40277 58005 8657/;EQDQ01  00002PRCP99
0133080270999992000022903004+43300-002050FM-12+025999999V0201501N003610360019N0300001N1+00761+00581102551ADDGF106991041051012501071999MA1999999099391MD1810231+9999REMSYN066AAXX  29034 08027 42680 61507 10076 20058 39939 40255 58023 8457/;
0222080270999992000022906004+43300-002050FM-12+025999999V0202601N001010360019N0200001N1+00821+00461102411ADDAA199000091GF106991041051012501071999IA1099IA2999+00509KA1120N+00701MA1999999099261MD1510131+9999REMSYN094AAXX  29064 08027 32670 62602 10082 20046 39926 40241 55013 8457/ 333 20070 31005 50060 55018;EQDQ01  00002PRCP99
0133080270999992000022909004+43300-002050FM-12+025999999V0202201N002119999999N0130001N1+01021+00681102471ADDGF107991041001012501071051MA1999999099341MD1310081+9999REMSYN066AAXX  29094 08027 42663 72204 10102 20068 39934 40247 53008 84075;
0163080270999992000022912004+43300-002050FM-12+025999999V0203001N003110900019N0130001N1+01121+00701102471ADDAA199000091GF106991011001017501041051MA1999999099351MD1010011+9999REMSYN066AAXX  29124 08027 32763 63006 10112 20070 39935 40247 50001 81045;EQDQ01  00002PRCP99
0186080270999992000022918004+43300-002050FM-12+025999999V0203001N006210360019N0300001N1+01061+00541102181ADDAA199000091GF107991021061008001071001KA1999M+01261MA1999999099071MD1710121+9999REMSYN076AAXX  29184 08027 32580 73012 10106 20054 39907 40218 57012 82670 333 10126;EQDQ01  00002PRCP99
0133080270999992000022921004+43300-002050FM-12+025999999V0202301N004110360019N0300001N1+01021+00391102191ADDGF106991021061008001071001MA1999999099071MD1010001+9999REMSYN066AAXX  29214 08027 42580 62308 10102 20039 39907 40219 50000 82670;
0163080270999992000030100004+43300-002050FM-12+025999999V0202401N004110360019N0300001N1+01101+00331102061ADDAA199000091GF106991021051008001071001MA1999999098951MD1610121+9999REMSYN066AAXX  01004 08027 32580 62408 10110 20033 39895 40206 56012 82570;EQDQ01  00002PRCP99
0133080270999992000030103004+43300-002050FM-12+025999999V0202401N005110360019N0300001N1+01101+00331102021ADDGF106991021051008001071001MA1999999098911MD1710041+9999REMSYN066AAXX  01034 08027 42580 62410 10110 20033 39891 40202 57004 82570;
0222080270999992000030106004+43300-002050FM-12+025999999V0202401N007210075019N0250001N1+01081+00571101851ADDAA199000091GF108991081061008001999999IA1099IA2999+00909KA1120N+01021MA1999999098751MD1610161+9999REMSYN094AAXX  01064 08027 32575 82414 10108 20057 39875 40185 56016 886// 333 20102 31009 50090 55030;EQDQ01  00002PRCP99
0161080270999992000030109004+43300-002050FM-12+025999999V0202401N007210075019N0015001N1+00901+00901101991ADDAY161031AY221031GF108991081071008001999999MA1999999098871MD1310121+9999MW1801REMSYN072AAXX  01094 08027 41515 82414 10090 20090 39887 40199 53012 78062 887//;
0178080270999992000030112004+43300-002050FM-12+025999999V0203001N009810075019N0200001N1+01061+00941102101ADDAA106010991AY181061AY261061GF108991081071008001999999MA1999999098991MD1110121+9999MW1251REMSYN078AAXX  01124 08027 11570 83019 10106 20094 39899 40210 51012 60111 72586 887//;
0201080270999992000030118004+43300-002050FM-12+025999999V0203201N011810075019N0050001N1+00921+00661102521ADDAA112010991AY181061AY221061GF108991081051008001999999KA1999M+01081MA1999999099381MD1210311+9999MW1251REMSYN088AAXX  01184 08027 11550 83223 10092 20066 39938 40252 52031 60112 72582 885// 333 10108;
0161080270999992000030121004+43300-002050FM-12+025999999V0203401N009810042019N0050001N1+00901+00451102781ADDAY121031AY251031GF106991061071004501999999MA1999999099631MD1210251+9999MW1201REMSYN072AAXX  01214 08027 41450 63419 10090 20045 39963 40278 52025 72025 867//;
0178080270999992000030200004+43300-002050FM-12+025999999V0203401N008210075019N0100001N1+00881+00431102941ADDAA106000191AY181061AY221061GF106991061051008001999999MA1999999099781MD1210151+9999MW1011REMSYN078AAXX  02004 08027 11560 63416 10088 20043 39978 40294 52015 69911 70182 865//;
0133080270999992000030203004+43300-002050FM-12+025999999V0203401N006212200019N0200001N1+00801+00331102991ADDGF102991021081008001001001MA1999999099821MD1110041+9999REMSYN066AAXX  02034 08027 42570 23412 10080 20033 39982 40299 51004 82800;
0209080270999992000030206004+43300-002050FM-12+025999999V0200201N004110120019N0200001N1+00801+00221103031ADDAA112000191GF106991061081008001999999IA1099IA2999+00709KA1120N+00741MA1999999099861MD1310041+9999REMSYN100AAXX  02064 08027 12570 60208 10080 20022 39986 40303 53004 69912 868// 333 20074 31007 50120 55005;
0133080270999992000030209004+43300-002050FM-12+025999999V0203601N002112200019N0300001N1+00881+00321103141ADDGF104991021081008001081001MA1999999099981MD1310121+9999REMSYN066AAXX  02094 08027 42580 43604 10088 20032 39998 40314 53012 82880;
0163080270999992000030212004+43300-002050FM-12+025999999V0203401N002112200019N0300001N1+00961+00471103141ADDAA199000091GF102991021041008001001001MA1999999099991MD1110011+9999REMSYN066AAXX  02124 08027 32580 23404 10096 20047 39999 40314 51001 82400;EQDQ01  00002PRCP99
0186080270999992000030218004+43300-002050FM-12+025999999V0200301N003112200019N0100001N1+00821+00361102821ADDAA199000091GF101991001001999999001011KA1999M+01081MA1999999099661MD1710081+9999REMSYN076AAXX  02184 08027 32960 10306 10082 20036 39966 40282 57008 80001 333 10108;EQDQ01  00002PRCP99
0143080270999992000030221004+43300-002050FM-12+025999999V0201601N004112200019N0200001N1+00721+00291102751ADDGA1001+999999999GF100991001001999999001001MA1999999099581MD1710081+9999REMSYN060AAXX  02214 08027 42970 01608 10072 20029 39958 40275 57008;
0173080270999992000030300004+43300-002050FM-12+025999999V0202101N002112200019N0200001N1+00701+00221102641ADDAA199000091GA1001+999999999GF100991001001999999001001MA1999999099471MD1710111+9999REMSYN060AAXX  03004 08027 32970 02104 10070 20022 39947 40264 57011;EQDQ01  00002PRCP99
0143080270999992000030303004+43300-002050FM-12+025999999V0203101N001012200019N0200001N1+00681+00141102471ADDGA1001+999999999GF100991001001999999001001MA1999999099301MD1810171+9999REMSYN060AAXX  03034 08027 42970 03102 10068 20014 39930 40247 58017;
0222080270999992000030306004+43300-002050FM-12+025999999V0203101N002112200019N0200001N1+00721+00181102461ADDAA199000091GF101991001001999999001011IA1099IA2999+00309KA1120N+00581MA1999999099301MD1510001+9999REMSYN094AAXX  03064 08027 32970 13104 10072 20018 39930 40246 55000 80001 333 20058 31003 50260 55093;EQDQ01  00002PRCP99
0133080270999992000030309004+43300-002050FM-12+025999999V0209999C000012200019N0100001N1+00841+00381102491ADDGF102991001001999999001021MA1999999099341MD1310041+9999REMSYN066AAXX  03094 08027 42960 20000 10084 20038 39934 40249 53004 80002;
0163080270999992000030312004+43300-002050FM-12+025999999V0203201N002112200019N0150001N1+01081+00461102461ADDAA199000091GF103991001001999999001011MA1999999099341MD1010001+9999REMSYN066AAXX  03124 08027 32965 33204 10108 20046 39934 40246 50000 80001;EQDQ01  00002PRCP99
0214080270999992000030318004+43300-002050FM-12+025999999V0203001N002610075019N0080001N1+00941+00771102431ADDAA199000091AY121061AY221061GF108991061051008001071999KA1999M+01241MA1999999099301MD1310031+9999MW1101REMSYN082AAXX  03184 08027 31558 83005 10094 20077 39930 40243 53003 71022 8657/ 333 10124;EQDQ01  00002PRCP99
0161080270999992000030321004+43300-002050FM-12+025999999V0201701N002612200019N0080001N1+00861+00781102521ADDAY121031AY211031GF102991021051008001001001MA1999999099381MD1110081+9999MW1101REMSYN072AAXX  03214 08027 41558 21705 10086 20078 39938 40252 51008 71021 82500;
0163080270999992000030400004+43300-002050FM-12+025999999V0202401N004112200019N0150001N1+00841+00481102531ADDAA199000091GF103991011051008001001011MA1999999099381MD1010001+9999REMSYN066AAXX  04004 08027 32565 32408 10084 20048 39938 40253 50000 81501;EQDQ01  00002PRCP99
0133080270999992000030403004+43300-002050FM-12+025999999V0202601N004110120019N0150001N1+00981+00591102471ADDGF108991081081008001999999MA1999999099341MD1610041+9999REMSYN066AAXX  04034 08027 42565 82608 10098 20059 39934 40247 56004 888//;
0222080270999992000030406004+43300-002050FM-12+025999999V0202601N006210120019N0150001N1+01001+00661102481ADDAA199000091GF108991061081008001071999IA1099IA2999+00709KA1120N+00781MA1999999099351MD1310011+9999REMSYN094AAXX  04064 08027 32565 82612 10100 20066 39935 40248 53001 8687/ 333 20078 31007 50030 55089;EQDQ01  00002PRCP99
0133080270999992000030409004+43300-002050FM-12+025999999V0202501N006710120019N0100001N1+01081+00791102551ADDGF108991081081008001999999MA1999999099431MD1210081+9999REMSYN066AAXX  04094 08027 42560 82513 10108 20079 39943 40255 52008 888//;
0188080270999992000030412004+43300-002050FM-12+025999999V0202901N006210001519N0001001N1+00981+00941102671ADDAA106001091AY161061AY241061GA1091+999999999GF109991091999999999999999MA1999999099541MD1210111+9999MW1631REMSYN072AAXX  04124 08027 11/01 92912 10098 20094 39954 40267 52011 60011 76364;
0201080270999992000030418004+43300-002050FM-12+025999999V0203301N001512200019N0060001N1+00701+00701102831ADDAA112008991AY161061AY241061GF104991021071004501071091KA1999M+01121MA1999999099661MD1210121+9999MW1211REMSYN088AAXX  04184 08027 11456 43303 10070 20070 39966 40283 52012 60092 72164 82779 333 10112;
0133080270999992000030421004+43300-002050FM-12+025999999V0202801N001512200019N0100001N1+00681+00551103001ADDGF102991021051004501001001MA1999999099821MD1110161+9999REMSYN066AAXX  04214 08027 42460 22803 10068 20055 39982 40300 51016 82500;
0144080270999992000030500004+43300-002050FM-12+025999999V0200501N005112200019N0150001N1+00641+00361103101ADDAA199000021GF101991011051008001001001MA1999999099911MD1110091+9999REMSYN066AAXX  05004 08027 32565 10510 10064 20036 39991 40310 51009 81500;
0143080270999992000030503004+43300-002050FM-12+025999999V0201401N004112200019N0150001N1+00441+00191103111ADDGA1001+999999999GF100991001001999999001001MA1999999099901MD1710011+9999REMSYN060AAXX  05034 08027 42965 01408 10044 20019 39990 40311 57001;
0213080270999992000030505004+43300-002050FM-12+025999999V0202701N001012200019N0200001N1+00381+00181103121ADDAA199000021GA1001+999999999GF100991001001999999001001IA1099IA2999+00009KA1120N+00281MA1999999099901MD1510001+9999REMSYN088AAXX  05054 08027 32970 02702 10038 20018 39990 40312 55000 333 20028 31100 50220 55000;
0213080270999992000030506004+43300-002050FM-12+025999999V0202701N001012200019N0200001N1+00381+00181103121ADDAA199000021GA1001+999999999GF100991001001999999001001IA1099IA2999+00009KA1120N+00281MA1999999099901MD1510001+9999REMSYN088AAXX  05064 08027 32970 02702 10038 20018 39990 40312 55000 333 20028 31100 50220 55000;
0133080270999992000030509004+43300-002050FM-12+025999999V0201501N001012200019N0100001N1+00501+00411103231ADDGF101991011061000751001001MA1999999100021MD1310121+9999REMSYN066AAXX  05094 08027 42160 11502 10050 20041 30002 40323 53012 81600;
0163080270999992000030512004+43300-002050FM-12+025999999V0203601N001512200019N0100001N1+00621+00431103221ADDAA199000091GF101991011011004501001001MA1999999100021MD1010001+9999REMSYN066AAXX  05124 08027 32460 13603 10062 20043 30002 40322 50000 81100;EQDQ01  00002PRCP99
0196080270999992000030518004+43300-002050FM-12+025999999V0200401N003112200019N0350001N1+00741+00321102951ADDAA199000091GA1001+999999999GF100991001001999999001001KA1999M+00801MA1999999099781MD1610051+9999REMSYN070AAXX  05184 08027 32981 00406 10074 20032 39978 40295 56005 333 10080;EQDQ01  00002PRCP99
0143080270999992000030521004+43300-002050FM-12+025999999V0201701N002112200019N0350001N1+00661+00111102961ADDGA1001+999999999GF100991001001999999001001MA1999999099781MD1410001+9999REMSYN060AAXX  05214 08027 42981 01704 10066 20011 39978 40296 54000;
0173080270999992000030600004+43300-002050FM-12+025999999V0201701N003112200019N0350001N1+00601+00211102901ADDAA199000091GA1001+999999999GF100991001001999999001001MA1999999099711MD1610071+9999REMSYN060AAXX  06004 08027 32981 01706 10060 20021 39971 40290 56007;EQDQ01  00002PRCP99
0143080270999992000030603004+43300-002050FM-12+025999999V0201201N002112200019N0350001N1+00741+00091102761ADDGA1001+999999999GF100991001001999999001001MA1999999099591MD1810121+9999REMSYN060AAXX  06034 08027 42981 01204 10074 20009 39959 40276 58012;
0232080270999992000030606004+43300-002050FM-12+025999999V0201801N002112200019N0300001N1+00801+00231102711ADDAA199000091GA1001+999999999GF100991001001999999001001IA1099IA2999+00509KA1120N+00601MA1999999099551MD1610041+9999REMSYN088AAXX  06064 08027 32980 01804 10080 20023 39955 40271 56004 333 20060 31005 50120 55095;EQDQ01  00002PRCP99
0133080270999992000030609004+43300-002050FM-12+025999999V0201601N004112200019N0300001N1+01081+00301102681ADDGF101991001001999999001011MA1999999099551MD1410001+9999REMSYN066AAXX  06094 08027 42980 11608 10108 20030 39955 40268 54000 80001;
0163080270999992000030612004+43300-002050FM-12+025999999V0201601N003112200019N0300001N1+01601+00821102621ADDAA199000091GF101991001001999999001011MA1999999099551MD1410001+9999REMSYN066AAXX  06124 08027 32980 11606 10160 20082 39955 40262 54000 80001;EQDQ01  00002PRCP99
0186080270999992000030618004+43300-002050FM-12+025999999V0209999C000012200019N0200001N1+01201+00611102651ADDAA199000091GF104991011001017501081011KA1999M+01741MA1999999099541MD1310031+9999REMSYN076AAXX  06184 08027 32770 40000 10120 20061 39954 40265 53003 81081 333 10174;EQDQ01  00002PRCP99
0133080270999992000030621004+43300-002050FM-12+025999999V0209999C000012200019N0200001N1+00981+00441102761ADDGF106991021001017501081011MA1999999099621MD1110081+9999REMSYN066AAXX  06214 08027 42770 60000 10098 20044 39962 40276 51008 82081;
0163080270999992000030700004+43300-002050FM-12+025999999V0203001N003612200019N0200001N1+00841+00761102781ADDAA199000091GF102991001001999999001011MA1999999099631MD1210011+9999REMSYN066AAXX  07004 08027 32970 23007 10084 20076 39963 40278 52001 80001;EQDQ01  00002PRCP99
0143080270999992000030703004+43300-002050FM-12+025999999V0203001N001512200019N0200001N1+00881+00671102771ADDGA1001+999999999GF100991001001999999001001MA1999999099621MD1810011+9999REMSYN060AAXX  07034 08027 42970 03003 10088 20067 39962 40277 58001;
0222080270999992000030706004+43300-002050FM-12+025999999V0203001N001012200019N0200001N1+00881+00841102811ADDAA199000091GF106991041001017501081011IA1099IA2999+00509KA1120N+00801MA1999999099661MD1310041+9999REMSYN094AAXX  07064 08027 32770 63002 10088 20084 39966 40281 53004 84081 333 20080 31005 50230 55098;EQDQ01  00002PRCP99
0133080270999992000030709004+43300-002050FM-12+025999999V0201601N002112200019N0100001N1+00981+00821102921ADDGF103991001001999999001011MA1999999099781MD1110121+9999REMSYN066AAXX  07094 08027 42960 31604 10098 20082 39978 40292 51012 80001;
0173080270999992000030712004+43300-002050FM-12+025999999V0203401N003112200019N0100001N1+01101+00861102951ADDAA199000091GA1001+999999999GF100991001001999999001001MA1999999099821MD1110041+9999REMSYN060AAXX  07124 08027 32960 03406 10110 20086 39982 40295 51004;EQDQ01  00002PRCP99
0224080270999992000030718004+43300-002050FM-12+025999999V0203301N002112200019N0030001N1+01001+00921102961ADDAA199000091AY101061AY201061GA1001+999999999GF100991001001999999001001KA1999M+01241MA1999999099821MD1310041+9999MW1101REMSYN076AAXX  07184 08027 31930 03304 10100 20092 39982 40296 53004 71000 333 10124;EQDQ01  00002PRCP99
0171080270999992000030721004+43300-002050FM-12+025999999V0201501N001012200019N0040001N1+00921+00841103051ADDAY101031AY201031GA1001+999999999GF100991001001999999001001MA1999999099901MD1210081+9999MW1101REMSYN066AAXX  07214 08027 41940 01502 10092 20084 39990 40305 52008 71000;
0201080270999992000030800004+43300-002050FM-12+025999999V0201101N001012200019N0003001N1+00861+00781103141ADDAA199000091AY141061AY201061GA1001+999999999GF100991001001999999001001MA1999999099981MD1210081+9999MW1461REMSYN066AAXX  08004 08027 31903 01102 10086 20078 39998 40314 52008 74640;EQDQ01  00002PRCP99
0171080270999992000030803004+43300-002050FM-12+025999999V0201501N002112200019N0030001N1+00741+00611103121ADDAY141031AY201031GA1001+999999999GF100991001001999999001001MA1999999099941MD1810041+9999MW1101REMSYN066AAXX  08034 08027 41930 01504 10074 20061 39994 40312 58004 71040;
0260080270999992000030806004+43300-002050FM-12+025999999V0201601N002612200019N0040001N1+00761+00541103121ADDAA199000091AY141061AY201061GA1001+999999999GF100991001001999999001001IA1099IA2999+00409KA1120N+00701MA1999999099941MD1510001+9999MW1101REMSYN094AAXX  08064 08027 31940 01605 10076 20054 39994 40312 55000 71040 333 20070 31004 50080 55092;EQDQ01  00002PRCP99
0171080270999992000030809004+43300-002050FM-12+025999999V0201701N002112200019N0030001N1+01001+00611103211ADDAY101031AY201031GA1001+999999999GF100991001001999999001001MA1999999100061MD1310121+9999MW1051REMSYN066AAXX  08094 08027 41930 01704 10100 20061 30006 40321 53012 70500;
0201080270999992000030812004+43300-002050FM-12+025999999V0201801N001012200019N0040001N1+01541+00641103151ADDAA199000091AY101061AY201061GA1001+999999999GF100991001001999999001001MA1999999100061MD1010001+9999MW1051REMSYN066AAXX  08124 08027 31940 01802 10154 20064 30006 40315 50000 70500;EQDQ01  00002PRCP99
0196080270999992000030818004+43300-002050FM-12+025999999V0201201N001012200019N0150001N1+01301+00531103141ADDAA199000091GA1001+999999999GF100991001001999999001001KA1999M+01661MA1999999100021MD1510001+9999REMSYN070AAXX  08184 08027 32965 01202 10130 20053 30002 40314 55000 333 10166;EQDQ01  00002PRCP99
0143080270999992000030821004+43300-002050FM-12+025999999V0201201N002612200019N0150001N1+01201+00511103151ADDGA1001+999999999GF100991001001999999001001MA1999999100021MD1410001+9999REMSYN060AAXX  08214 08027 42965 01205 10120 20051 30002 40315 54000;
0173080270999992000030900004+43300-002050FM-12+025999999V0201801N003112200019N0150001N1+01101+00591103131ADDAA199000091GA1001+999999999GF100991001001999999001001MA1999999099991MD1810031+9999REMSYN060AAXX  09004 08027 32965 01806 10110 20059 39999 40313 58003;EQDQ01  00002PRCP99
0143080270999992000030903004+43300-002050FM-12+025999999V0201401N002112200019N0150001N1+01201+00401103041ADDGA1001+999999999GF100991001001999999001001MA1999999099911MD1710081+9999REMSYN060AAXX  09034 08027 42965 01404 10120 20040 39991 40304 57008;
0232080270999992000030906004+43300-002050FM-12+025999999V0201701N002112200019N0150001N1+01061+00221103051ADDAA199000091GA1001+999999999GF100991001001999999001001IA1019IA2999+00809KA1120N+01061MA1999999099911MD1510001+9999REMSYN088AAXX  09064 08027 32965 01704 10106 20022 39991 40305 55000 333 20106 30008 50170 55118;EQDQ01  00002PRCP99
0143080270999992000030909004+43300-002050FM-12+025999999V0209999C000012200019N0150001N1+01301+00581103141ADDGA1001+999999999GF100991001001999999001001MA1999999100021MD1310111+9999REMSYN060AAXX  09094 08027 42965 00000 10130 20058 30002 40314 53011;
0173080270999992000030912004+43300-002050FM-12+025999999V0203301N002612200019N0100001N1+01421+00581103181ADDAA199000091GA1001+999999999GF100991001001999999001001MA1999999100071MD1210051+9999REMSYN060AAXX  09124 08027 32960 03305 10142 20058 30007 40318 52005;EQDQ01  00002PRCP99
0196080270999992000030918004+43300-002050FM-12+025999999V0200901N002112200019N0200001N1+01261+00901103101ADDAA199000091GA1001+999999999GF100991001001999999001001KA1999M+01621MA1999999099981MD1610011+9999REMSYN070AAXX  09184 08027 32970 00904 10126 20090 39998 40310 56001 333 10162;EQDQ01  00002PRCP99
0143080270999992000030921004+43300-002050FM-12+025999999V0209999C000012200019N0250001N1+01181+00321103151ADDGA1001+999999999GF100991001001999999001001MA1999999100021MD1310041+9999REMSYN060AAXX  09214 08027 42975 00000 10118 20032 30002 40315 53004;
0173080270999992000031000004+43300-002050FM-12+025999999V0201801N002112200019N0250001N1+01001+00611103181ADDAA199000091GA1001+999999999GF100991001001999999001001MA1999999100031MD1110011+9999REMSYN060AAXX  10004 08027 32975 01804 10100 20061 30003 40318 51001;EQDQ01  00002PRCP99
0143080270999992000031003004+43300-002050FM-12+025999999V0203201N001012200019N0250001N1+01001+00711103091ADDGA1001+999999999GF100991001001999999001001MA1999999099941MD1810091+9999REMSYN060AAXX  10034 08027 42975 03202 10100 20071 39994 40309 58009;
0232080270999992000031006004+43300-002050FM-12+025999999V0201701N002112200019N0200001N1+00821+00651103041ADDAA199000091GA1001+999999999GF100991001001999999001001IA1019IA2999+00309KA1120N+00761MA1999999099871MD1710071+9999REMSYN088AAXX  10064 08027 32970 01704 10082 20065 39987 40304 57007 333 20076 30003 50050 55107;EQDQ01  00002PRCP99
0143080270999992000031009004+43300-002050FM-12+025999999V0203401N001012200019N0100001N1+00981+00441103101ADDGA1001+999999999GF100991001001999999001001MA1999999099951MD1310081+9999REMSYN060AAXX  10094 08027 42960 03402 10098 20044 39995 40310 53008;
0173080270999992000031012004+43300-002050FM-12+025999999V0203301N003112200019N0200001N1+01201+00561103031ADDAA199000091GA1001+999999999GF100991001001999999001001MA1999999099911MD1810041+9999REMSYN060AAXX  10124 08027 32970 03306 10120 20056 39991 40303 58004;EQDQ01  00002PRCP99
0196080270999992000031018004+43300-002050FM-12+025999999V0209999C000012200019N0200001N1+01161+00611102831ADDAA199000091GA1001+999999999GF100991001001999999001001KA1999M+01321MA1999999099711MD1610041+9999REMSYN070AAXX  10184 08027 32970 00000 10116 20061 39971 40283 56004 333 10132;EQDQ01  00002PRCP99
0143080270999992000031021004+43300-002050FM-12+025999999V0203001N001012200019N0250001N1+01101+00681102841ADDGA1001+999999999GF100991001001999999001001MA1999999099711MD1410001+9999REMSYN060AAXX  10214 08027 42975 03002 10110 20068 39971 40284 54000;
0173080270999992000031100004+43300-002050FM-12+025999999V0202901N001012200019N0250001N1+00961+00621102761ADDAA199000091GA1001+999999999GF100991001001999999001001MA1999999099621MD1810091+9999REMSYN060AAXX  11004 08027 32975 02902 10096 20062 39962 40276 58009;EQDQ01  00002PRCP99
0143080270999992000031103004+43300-002050FM-12+025999999V0202901N002112200019N0250001N1+00861+00821102531ADDGA1001+999999999GF100991001001999999001001MA1999999099391MD1810231+9999REMSYN060AAXX  11034 08027 42975 02904 10086 20082 39939 40253 58023;
0260080270999992000031106004+43300-002050FM-12+025999999V0202901N001010001519N0001001N1+00821+00821102491ADDAA199000091AY141061AY221061GA1091+999999999GF109991091999999999999999IA1099IA2999+00409KA1120N+00801MA1999999099341MD1610051+9999MW1451REMSYN094AAXX  11064 08027 31/01 92902 10082 20082 39934 40249 56005 74542 333 20080 31004 50250 55105;EQDQ01  00002PRCP99
0171080270999992000031109004+43300-002050FM-12+025999999V0203201N001010001519N0001001N1+00921+00921102481ADDAY141031AY221031GA1091+999999999GF109991091999999999999999MA1999999099341MD1410001+9999MW1451REMSYN066AAXX  11094 08027 41/01 93202 10092 20092 39934 40248 54000 74542;
0201080270999992000031112004+43300-002050FM-12+025999999V0203401N002110001519N0001001N1+00961+00961102401ADDAA199000091AY141061AY221061GA1091+999999999GF109991091999999999999999MA1999999099271MD1810071+9999MW1451REMSYN066AAXX  11124 08027 31/01 93404 10096 20096 39927 40240 58007 74542;EQDQ01  00002PRCP99
0230080270999992000031118004+43300-002050FM-12+025999999V0203401N001010001519N0001001N1+00921+00921102191ADDAA199000091AY141061AY241061GA1091+000159999GF109991091999999999999999KA1120M+01061MA1999999099061MD1610041+9999MW1451REMSYN082AAXX  11184 08027 31/01 93402 10092 20092 39906 40219 56004 74544 333 10106 89/00;EQDQ01  00002PRCP99
0181080270999992000031121004+43300-002050FM-12+025999999V0203001N001010001519N0001001N1+00901+00901102191ADDAY141031AY241031GA1091+000159999GF109991091999999999999999MA1999999099061MD1410001+9999MW1451REMSYN076AAXX  11214 08027 41/01 93002 10090 20090 39906 40219 54000 74544 333 89/00;
0171080270999992000031203004+43300-002050FM-12+025999999V0201601N002110001519N0001001N1+00861+00861102071ADDAY141031AY241031GA1091+999999999GF109991091999999999999999MA1999999098941MD1810091+9999MW1451REMSYN066AAXX  12034 08027 41/01 91604 10086 20086 39894 40207 58009 74544;
0274080270999992000031206004+43300-002050FM-12+025999999V0201801N001010001519N0001001N1+00821+00821102031ADDAA199000091AY141061AY241061GA1091+000159999GF109991091999999999999999GJ100009IA1099IA2999+00609KA1120N+00801MA1999999098901MD1810041+9999MW1451REMSYN100AAXX  12064 08027 31/01 91802 10082 20082 39890 40203 58004 74544 333 20080 31006 50080 55000 89/00;EQDQ01  00002PRCP99
0181080270999992000031209004+43300-002050FM-12+025999999V0209999C000010001519N0007001N1+00841+00841102041ADDAY141031AY241031GA1091+000159999GF109991091999999999999999MA1999999098911MD1210111+9999MW1431REMSYN076AAXX  12094 08027 41/07 90000 10084 20084 39891 40204 52011 74344 333 89/00;
0191080270999992000031212004+43300-002050FM-12+025999999V0203601N002110021019N0020001N1+00941+00901102021ADDAA199000091AY141061AY241061GF108991081071002501999999MA1999999098901MD1710011+9999MW1101REMSYN072AAXX  12124 08027 31320 83604 10094 20090 39890 40202 57001 71044 887//;EQDQ01  00002PRCP99
0214080270999992000031218004+43300-002050FM-12+025999999V0203101N002110021019N0010001N1+00921+00841101981ADDAA199000091AY121061AY221061GF107991051061002501081999KA1999M+01121MA1999999098861MD1310071+9999MW1101REMSYN082AAXX  12184 08027 31310 73104 10092 20084 39886 40198 53007 71022 8568/ 333 10112;EQDQ01  00002PRCP99
0161080270999992000031221004+43300-002050FM-12+025999999V0202801N004110021019N0010001N1+00881+00841102111ADDAY121031AY221031GF107991051061002501081999MA1999999098981MD1310121+9999MW1101REMSYN072AAXX  12214 08027 41310 72808 10088 20084 39898 40211 53012 71022 8568/;
0191080270999992000031300004+43300-002050FM-12+025999999V0202801N003110042019N0010001N1+00941+00771102191ADDAA199000091AY121061AY221061GF107991061051004501071999MA1999999099061MD1210081+9999MW1101REMSYN072AAXX  13004 08027 31410 72806 10094 20077 39906 40219 52008 71022 8657/;EQDQ01  00002PRCP99
0161080270999992000031303004+43300-002050FM-12+025999999V0202601N002110042019N0010001N1+00961+00801102221ADDAY121031AY221031GF108991081061004501999999MA1999999099101MD1110041+9999MW1101REMSYN072AAXX  13034 08027 41410 82604 10096 20080 39910 40222 51004 71022 886//;
0250080270999992000031306004+43300-002050FM-12+025999999V0202601N004110042019N0010001N1+01001+00841102301ADDAA199000091AY121061AY221061GF108991081061004501999999IA1099IA2999+00809KA1120N+00841MA1999999099181MD1210081+9999MW1101REMSYN100AAXX  13064 08027 31410 82608 10100 20084 39918 40230 52008 71022 886// 333 20084 31008 50150 55012;EQDQ01  00002PRCP99
0161080270999992000031309004+43300-002050FM-12+025999999V0203001N006210021019N0010001N1+01001+00841102431ADDAY121031AY221031GF108991081061002501999999MA1999999099301MD1210121+9999MW1101REMSYN072AAXX  13094 08027 41310 83012 10100 20084 39930 40243 52012 71022 886//;
0191080270999992000031312004+43300-002050FM-12+025999999V0203101N006210042019N0030001N1+01041+00791102511ADDAA199000091AY121061AY221061GF107991071051004501999999MA1999999099391MD1210091+9999MW1101REMSYN072AAXX  13124 08027 31430 73112 10104 20079 39939 40251 52009 71022 875//;EQDQ01  00002PRCP99
0214080270999992000031318004+43300-002050FM-12+025999999V0203001N006210042019N0050001N1+00961+00751102641ADDAA199000091AY121061AY221061GF108991081051004501999999KA1999M+01161MA1999999099501MD1310081+9999MW1101REMSYN082AAXX  13184 08027 31450 83012 10096 20075 39950 40264 53008 71022 885// 333 10116;EQDQ01  00002PRCP99
0161080270999992000031321004+43300-002050FM-12+025999999V0203101N005110042019N0050001N1+00921+00711102811ADDAY121031AY221031GF107991071051004501001001MA1999999099661MD1110161+9999MW1101REMSYN072AAXX  13214 08027 41450 73110 10092 20071 39966 40281 51016 71022 87500;
0191080270999992000031400004+43300-002050FM-12+025999999V0202801N005110042019N0080001N1+00901+00771102891ADDAA199000091AY121061AY221061GF108991081051004501999999MA1999999099741MD1110081+9999MW1101REMSYN072AAXX  14004 08027 31458 82810 10090 20077 39974 40289 51008 71022 885//;EQDQ01  00002PRCP99
0161080270999992000031403004+43300-002050FM-12+025999999V0202901N004610042019N0080001N1+00901+00731102851ADDAY121031AY221031GF108991081051004501999999MA1999999099701MD1810041+9999MW1101REMSYN072AAXX  14034 08027 41458 82909 10090 20073 39970 40285 58004 71022 885//;
0250080270999992000031406004+43300-002050FM-12+025999999V0202801N004610042019N0080001N1+00921+00711102891ADDAA199000091AY121061AY221061GF108991081051004501999999IA1099IA2999+00909KA1120N+00881MA1999999099741MD1310041+9999MW1101REMSYN100AAXX  14064 08027 31458 82809 10092 20071 39974 40289 53004 71022 885// 333 20088 31009 50150 55034;EQDQ01  00002PRCP99
0161080270999992000031409004+43300-002050FM-12+025999999V0202801N004610042019N0050001N1+00981+00771103011ADDAY121031AY221031GF108991081051004501999999MA1999999099861MD1210121+9999MW1101REMSYN072AAXX  14094 08027 41450 82809 10098 20077 39986 40301 52012 71022 885//;
0191080270999992000031412004+43300-002050FM-12+025999999V0203101N004610042019N0070001N1+01101+00901103081ADDAA199000091AY121061AY221061GF107991071051004501001001MA1999999099951MD1110091+9999MW1101REMSYN072AAXX  14124 08027 31457 73109 10110 20090 39995 40308 51009 71022 87500;EQDQ01  00002PRCP99
0214080270999992000031418004+43300-002050FM-12+025999999V0202701N003110042019N0040001N1+01041+01001103091ADDAA199000091AY121061AY221061GF108991081061004501999999KA1999M+01141MA1999999099951MD1310041+9999MW1101REMSYN082AAXX  14184 08027 31440 82706 10104 20100 39995 40309 53004 71022 886// 333 10114;EQDQ01  00002PRCP99
0171080270999992000031421004+43300-002050FM-12+025999999V0202401N003112200019N0070001N1+00901+00861103181ADDAY121031AY211031GA1001+999999999GF100991001001999999001001MA1999999100021MD1110071+9999MW1101REMSYN066AAXX  14214 08027 41957 02406 10090 20086 30002 40318 51007 71021;
0163080270999992000031500004+43300-002050FM-12+025999999V0203101N001012200019N0100001N1+00881+00711103181ADDAA199000091GF103991031001017501081999MA1999999100021MD1410001+9999REMSYN066AAXX  15004 08027 32760 33102 10088 20071 30002 40318 54000 8308/;EQDQ01  00002PRCP99
0161080270999992000031503004+43300-002050FM-12+025999999V0202801N005710075019N0050001N1+00961+00881103091ADDAY121031AY211031GF108991081061008001999999MA1999999099941MD1810081+9999MW1101REMSYN072AAXX  15034 08027 41550 82811 10096 20088 39994 40309 58008 71021 886//;
0250080270999992000031506004+43300-002050FM-12+025999999V0203401N006210210019N0060001N1+00961+00921103101ADDAA199000091AY121061AY221061GF108991081061022501999999IA1019IA2999+00609KA1120N+00821MA1999999099951MD1310011+9999MW1101REMSYN100AAXX  15064 08027 31856 83412 10096 20092 39995 40310 53001 71022 886// 333 20082 30006 50100 55003;EQDQ01  00002PRCP99
0161080270999992000031509004+43300-002050FM-12+025999999V0203601N005110075019N0060001N1+00961+00841103271ADDAY121031AY221031GF108991081051008001999999MA1999999100111MD1310161+9999MW1101REMSYN072AAXX  15094 08027 41556 83610 10096 20084 30011 40327 53016 71022 885//;
0150080270999992000031512004+43300-002050FM-12+025999999V0203501N007210120019N0100001N1+00961+00751103311ADDAA106000791GF107991071081008001999999MA1999999100151MD1210041+9999REMSYN072AAXX  15124 08027 12560 73514 10096 20075 30015 40331 52004 69901 878//;
0173080270999992000031518004+43300-002050FM-12+025999999V0203601N006212200019N0300001N1+00861+00351103271ADDAA112000791GF103991031081008001001001KA1999M+01061MA1999999100101MD1410001+9999REMSYN082AAXX  15184 08027 12580 33612 10086 20035 30010 40327 54000 69902 83800 333 10106;
0133080270999992000031521004+43300-002050FM-12+025999999V0203501N004110120019N0300001N1+00841+00531103311ADDGF105991051081008001001001MA1999999100141MD1110041+9999REMSYN066AAXX  15214 08027 42580 53508 10084 20053 30014 40331 51004 85800;
0163080270999992000031600004+43300-002050FM-12+025999999V0203501N004110120019N0300001N1+00901+00641103311ADDAA199000091GF105991051081008001001001MA1999999100141MD1010001+9999REMSYN066AAXX  16004 08027 32580 53508 10090 20064 30014 40331 50000 85800;EQDQ01  00002PRCP99
0133080270999992000031603004+43300-002050FM-12+025999999V0203501N004110120019N0300001N1+00901+00641103311ADDGF105991051081008001001001MA1999999100141MD1410001+9999REMSYN066AAXX  16034 08027 42580 53508 10090 20064 30014 40331 54000 85800;
0232080270999992000031606004+43300-002050FM-12+025999999V0201501N005112200019N0300001N1+00601+00151103301ADDAA199000091GA1001+999999999GF100991001001999999001001IA1099IA2999+00409KA1120N+00601MA1999999100101MD1610041+9999REMSYN088AAXX  16064 08027 32980 01510 10060 20015 30010 40330 56004 333 20060 31004 50090 55051;EQDQ01  00002PRCP99
0143080270999992000031609004+43300-002050FM-12+025999999V0200101N001012200019N0300001N1+00781+00251103291ADDGA1001+999999999GF100991001001999999001001MA1999999100111MD1110011+9999REMSYN060AAXX  16094 08027 42980 00102 10078 20025 30011 40329 51001;
0173080270999992000031612004+43300-002050FM-12+025999999V0203501N005112200019N0300001N1+00801+00171103291ADDAA199000091GA1001+999999999GF100991001001999999001001MA1999999100111MD1010001+9999REMSYN060AAXX  16124 08027 32980 03510 10080 20017 30011 40329 50000;EQDQ01  00002PRCP99
0214080270999992000031618004+43300-002050FM-12+025999999V0202701N002112200019N0040001N1+00861+00131103111ADDAA199000091AY101061AY201061GF101991011051008001001001KA1999M+00981MA1999999099941MD1610051+9999MW1051REMSYN082AAXX  16184 08027 31540 12704 10086 20013 39994 40311 56005 70500 81500 333 10098;EQDQ01  00002PRCP99
0161080270999992000031621004+43300-002050FM-12+025999999V0202801N003112200019N0040001N1+00721+00341103121ADDAY101031AY201031GF101991011051008001001001MA1999999099941MD1510001+9999MW1051REMSYN072AAXX  16214 08027 41540 12806 10072 20034 39994 40312 55000 70500 81500;
0191080270999992000031700004+43300-002050FM-12+025999999V0202801N004112200019N0030001N1+00741+00561103081ADDAA199000091AY101061AY201061GF104991041051008001001001MA1999999099901MD1810041+9999MW1101REMSYN072AAXX  17004 08027 31530 42808 10074 20056 39990 40308 58004 71000 84500;EQDQ01  00002PRCP99
0171080270999992000031703004+43300-002050FM-12+025999999V0203001N003112200019N0030001N1+00761+00671102961ADDAY101031AY201031GA1001+999999999GF100991001001999999001001MA1999999099791MD1710111+9999MW1101REMSYN066AAXX  17034 08027 41930 03006 10076 20067 39979 40296 57011 71000;
0250080270999992000031706004+43300-002050FM-12+025999999V0202801N003112200019N0010001N1+00661+00621102961ADDAA199000091AY101061AY201061GF102991021061002501001001IA1099IA2999+00509KA1120N+00641MA1999999099781MD1610011+9999MW1101REMSYN100AAXX  17064 08027 31310 22806 10066 20062 39978 40296 56001 71000 82600 333 20064 31005 50250 55105;EQDQ01  00002PRCP99
0161080270999992000031709004+43300-002050FM-12+025999999V0202801N003112200019N0020001N1+00881+00711102981ADDAY111031AY201031GF101991011061002501001001MA1999999099821MD1310041+9999MW1101REMSYN072AAXX  17094 08027 41320 12806 10088 20071 39982 40298 53004 71010 81600;
0191080270999992000031712004+43300-002050FM-12+025999999V0203401N004112200019N0020001N1+00941+00591102971ADDAA199000091AY111061AY201061GF101991011011004501001001MA1999999099821MD1410001+9999MW1051REMSYN072AAXX  17124 08027 31420 13408 10094 20059 39982 40297 54000 70510 81100;EQDQ01  00002PRCP99
0186080270999992000031718004+43300-002050FM-12+025999999V0203401N005110042019N0100001N1+00881+00531102901ADDAA199000091GF105991051051004501001001KA1999M+01101MA1999999099741MD1510041+9999REMSYN076AAXX  17184 08027 32460 53410 10088 20053 39974 40290 55004 85500 333 10110;EQDQ01  00002PRCP99
0222080270999992000031806004+43300-002050FM-12+025999999V0200201N002610042019N0100001N1+00861+00641102861ADDAA199000091GF108991081051004501999999IA1099IA2999+00509KA1120N+00821MA1999999099701MD1510001+9999REMSYN094AAXX  18064 08027 32460 80205 10086 20064 39970 40286 55000 885// 333 20082 31005 50190 55075;EQDQ01  00002PRCP99
0161080270999992000031809004+43300-002050FM-12+025999999V0203601N003610360019N0060001N1+00901+00691102931ADDAY121031AY221031GF105991021051004501031001MA1999999099781MD1210081+9999MW1101REMSYN072AAXX  18094 08027 41456 53607 10090 20069 39978 40293 52008 71022 82530;
0191080270999992000031812004+43300-002050FM-12+025999999V0203301N004112200019N0060001N1+00981+00681102921ADDAA199000091AY121061AY211061GF103991031051004501001001MA1999999099781MD1410001+9999MW1101REMSYN072AAXX  18124 08027 31456 33308 10098 20068 39978 40292 54000 71021 83500;EQDQ01  00002PRCP99
0214080270999992000031818004+43300-002050FM-12+025999999V0203401N004610042019N0050001N1+00881+00751102851ADDAA199000091AY121061AY221061GF108991081061004501999999KA1999M+01101MA1999999099701MD1610041+9999MW1101REMSYN082AAXX  18184 08027 31450 83409 10088 20075 39970 40285 56004 71022 886// 333 10110;EQDQ01  00002PRCP99
0222080270999992000031906004+43300-002050FM-12+025999999V0200101N004610120019N0100001N1+00761+00441102791ADDAA199000091GF108991081081008001999999IA1019IA2999+00709KA1120N+00741MA1999999099621MD1510041+9999REMSYN094AAXX  19064 08027 32560 80109 10076 20044 39962 40279 55004 888// 333 20074 30007 50240 55028;EQDQ01  00002PRCP99
0161080270999992000031909004+43300-002050FM-12+025999999V0200301N003610075019N0050001N1+00701+00471102801ADDAY121031AY221031GF107991071051008001999999MA1999999099631MD1310011+9999MW1101REMSYN072AAXX  19094 08027 41550 70307 10070 20047 39963 40280 53001 71022 875//;
0178080270999992000031912004+43300-002050FM-12+025999999V0203601N007710075019N0050001N1+00621+00481102761ADDAA106000191AY161061AY221061GF107991071071008001999999MA1999999099581MD1810051+9999MW1211REMSYN078AAXX  19124 08027 11550 73615 10062 20048 39958 40276 58005 69911 72162 877//;
0173080270999992000031918004+43300-002050FM-12+025999999V0202901N002110075019N0150001N1+00601+00211102491ADDAA112000191GF107991071071008001001001KA1999M+00941MA1999999099311MD1610111+9999REMSYN082AAXX  19184 08027 12565 72904 10060 20021 39931 40249 56011 69912 87700 333 10094;
0209080270999992000032006004+43300-002050FM-12+025999999V0203601N001012200019N0150001N1+00581+00071102151ADDAA112000191GF104991021061008001011011IA1099IA2999+00009KA1120N+00421MA1999999098981MD1610111+9999REMSYN100AAXX  20064 08027 12565 43602 10058 20007 39898 40215 56011 69912 82611 333 20042 31000 50110 55009;
0143080270999992000032009004+43300-002050FM-12+025999999V0203101N001012200019N0150001N1+00781+00411102081ADDGA1001+999999999GF100991001001999999001001MA1999999098941MD1610041+9999REMSYN060AAXX  20094 08027 42765 03102 10078 20041 39894 40208 56004;
0163080270999992000032012004+43300-002050FM-12+025999999V0203301N004110120019N0150001N1+00861+00551101961ADDAA199000091GF105991051081008001001001MA1999999098831MD1610111+9999REMSYN066AAXX  20124 08027 32565 53308 10086 20055 39883 40196 56011 85800;EQDQ01  00002PRCP99
0214080270999992000032018004+43300-002050FM-12+025999999V0203301N002110900019N0010001N1+00761+00581101641ADDAA199000091AY111061AY201061GF105991041081008001001021KA1999M+00961MA1999999098511MD1710111+9999MW1101REMSYN082AAXX  20184 08027 31510 53304 10076 20058 39851 40164 57011 71010 84802 333 10096;EQDQ01  00002PRCP99
0250080270999992000032106004+43300-002050FM-12+025999999V0201401N009810120019N0040001N1+01061+00861101361ADDAA199000091AY121061AY221061GF107991061081008001071999IA1099IA2999+00009KA1120N+00521MA1999999098271MD1610041+9999MW1101REMSYN100AAXX  21064 08027 31540 71419 10106 20086 39827 40136 56004 71022 8687/ 333 20052 31000 50040 55068;EQDQ01  00002PRCP99
0133080270999992000032109004+43300-002050FM-12+025999999V0201601N014910360019N0100001N1+01241+00411101341ADDGF106991041081008001041001MA1999999098271MD1010001+9999REMSYN066AAXX  21094 08027 42560 61629 10124 20041 39827 40134 50000 84840;
0163080270999992000032112004+43300-002050FM-12+025999999V0201601N014910120019N0150001N1+01281+00461101291ADDAA199000091GF106991051081008001041001MA1999999098231MD1510041+9999REMSYN066AAXX  21124 08027 32565 61629 10128 20046 39823 40129 55004 85840;EQDQ01  00002PRCP99
0186080270999992000032118004+43300-002050FM-12+025999999V0201501N010812200019N0150001N1+01501+00441101271ADDAA199000091GF104991021041012501041001KA1999M+01561MA1999999098231MD1110041+9999REMSYN076AAXX  21184 08027 32665 41521 10150 20044 39823 40127 51004 82440 333 10156;EQDQ01  00002PRCP99
0222080270999992000032206004+43300-002050FM-12+025999999V0201501N012912200019N0150001N1+01281+00411101171ADDAA199000091GF104991011041012501081081IA1019IA2999+01009KA1120N+01241MA1999999098111MD1510001+9999REMSYN094AAXX  22064 08027 32665 41525 10128 20041 39811 40117 55000 81488 333 20124 30010 50530 55026;EQDQ01  00002PRCP99
0133080270999992000032209004+43300-002050FM-12+025999999V0201501N013910360019N0150001N1+01341+00491101291ADDGF107991011041012501071081MA1999999098231MD1310121+9999REMSYN066AAXX  22094 08027 42665 71527 10134 20049 39823 40129 53012 81478;
0190080270999992000032212004+43300-002050FM-12+025999999V0201501N015910360019N0150001N1+01441+00521101191ADDAA199000091GF108991021081012501071999MA1999999098151MD1810081+9999OA149902211REMSYN082AAXX  22124 08027 32665 81531 10144 20052 39815 40119 58008 8287/ 333 91143 91515;EQDQ01  00002PRCP99
0186080270999992000032218004+43300-002050FM-12+025999999V0201501N007210150019N0180001N1+01561+00301101141ADDAA199000091GF108991081001017501071999KA1999M+01641MA1999999098111MD1510041+9999REMSYN076AAXX  22184 08027 32768 81514 10156 20030 39811 40114 55004 8807/ 333 10164;EQDQ01  00002PRCP99
0222080270999992000032306004+43300-002050FM-12+025999999V0201601N005110360019N0300001N1+01261+00691100841ADDAA199000091GF108991021081012501071999IA1019IA2999+01109KA1120N+01261MA1999999097791MD1510041+9999REMSYN094AAXX  23064 08027 32680 81610 10126 20069 39779 40084 55004 8287/ 333 20126 30011 50480 55000;EQDQ01  00002PRCP99
0133080270999992000032309004+43300-002050FM-12+025999999V0201601N007710360019N0300001N1+01461+00741100861ADDGF106991041081012501071011MA1999999097831MD1110041+9999REMSYN066AAXX  23094 08027 42680 61615 10146 20074 39783 40086 51004 84871;
0163080270999992000032312004+43300-002050FM-12+025999999V0202901N004110120019N0150001N1+01621+00611100891ADDAA199000091GF107991051081008001071999MA1999999097871MD1010041+9999REMSYN066AAXX  23124 08027 32565 72908 10162 20061 39787 40089 50004 8587/;EQDQ01  00002PRCP99
0201080270999992000032318004+43300-002050FM-12+025999999V0202901N006210075019N0200001N1+00941+00901101071ADDAA112005191AY181061AY221061GF108991081071008001999999KA1999M+01681MA1999999097981MD1310151+9999MW1021REMSYN088AAXX  23184 08027 11570 82912 10094 20090 39798 40107 53015 60052 70282 887// 333 10168;
0237080270999992000032406004+43300-002050FM-12+025999999V0201801N003110120019N0200001N1+00881+00671101461ADDAA112003091AY181061AY221061GF106991061081008001001001IA1099IA2999+00609KA1120N+00841MA1999999098351MD1210051+9999MW1021REMSYN106AAXX  24064 08027 11570 61806 10088 20067 39835 40146 52005 60032 70282 86800 333 20084 31006 50190 55024;
0133080270999992000032409004+43300-002050FM-12+025999999V0201601N004110120019N0200001N1+01081+00801101521ADDGF105991051081008001001001MA1999999098431MD1210081+9999REMSYN066AAXX  24094 08027 42570 51608 10108 20080 39843 40152 52008 85800;
0163080270999992000032412004+43300-002050FM-12+025999999V0203501N002112200019N0250001N1+01401+00711101561ADDAA199000091GF104991041081008001001001MA1999999098501MD1010071+9999REMSYN066AAXX  24124 08027 32575 43504 10140 20071 39850 40156 50007 84800;EQDQ01  00002PRCP99
0186080270999992000032418004+43300-002050FM-12+025999999V0201201N001012200019N0150001N1+01261+00441101461ADDAA199000091GF102991011021008001041011KA1999M+01521MA1999999098391MD1410001+9999REMSYN076AAXX  24184 08027 32565 21202 10126 20044 39839 40146 54000 81241 333 10152;EQDQ01  00002PRCP99
0222080270999992000032506004+43300-002050FM-12+025999999V0202801N005110075019N0100001N1+00941+00601101611ADDAA199000091GF107991061051008001041001IA1099IA2999+00609KA1120N+00901MA1999999098501MD1310041+9999REMSYN094AAXX  25064 08027 32560 72810 10094 20060 39850 40161 53004 86540 333 20090 31006 50280 55090;EQDQ01  00002PRCP99
0181080270999992000032509004+43300-002050FM-12+025999999V0202901N007210001519N0000001N1+00841+00841101791ADDAY141031AY221031GA1091+000159999GF109991091999999999999999MA1999999098671MD1310171+9999MW1601REMSYN076AAXX  25094 08027 41/00 92914 10084 20084 39867 40179 53017 76042 333 89/00;
0178080270999992000032512004+43300-002050FM-12+025999999V0202901N004110120019N0200001N1+00861+00781101911ADDAA106004191AY161061AY241061GF108991051081008001071999MA1999999098781MD1210111+9999MW1211REMSYN078AAXX  25124 08027 11570 82908 10086 20078 39878 40191 52011 60041 72164 8587/;
0173080270999992000032518004+43300-002050FM-12+025999999V0202801N002610360019N0180001N1+00941+00641101981ADDAA112003091GF107991041081008001071011KA1999M+01061MA1999999098861MD1310031+9999REMSYN082AAXX  25184 08027 12568 72805 10094 20064 39886 40198 53003 60032 84871 333 10106;
0209080270999992000032606004+43300-002050FM-12+025999999V0202501N007210120019N0150001N1+00721+00351102091ADDAA112005191GF107991051081008001071001IA1119IA2999+00509KA1120N+00641MA1999999098941MD1810081+9999REMSYN100AAXX  26064 08027 12565 72514 10072 20035 39894 40209 58008 60052 85870 333 20064 32005 50050 55005;
0161080270999992000032609004+43300-002050FM-12+025999999V0202601N008210360019N0200001N1+00841+00481102121ADDAY161031AY221031GF108991041081008001071999MA1999999098981MD1310041+9999MW1211REMSYN072AAXX  26094 08027 41570 82616 10084 20048 39898 40212 53004 72162 8487/;
0166080270999992000032610004+43300-002050FM-12+025999999V0202801N009819999999N0200001N1+99999+99999102061ADDAA106000591AY161999AY221999GF108991999021008001071999MA1999999098901MD1819999+9999MW1021REMSYN066AAXX  26104 08027 11570 82819 3989/ 40206 58/04 69951 70262 8/27/;
0178080270999992000032612004+43300-002050FM-12+025999999V0202801N007710120019N0200001N1+01001+00521102061ADDAA106000591AY161061AY221061GF108991061081008001071999MA1999999098941MD1810041+9999MW1021REMSYN078AAXX  26124 08027 11570 82815 10100 20052 39894 40206 58004 69951 70262 8687/;
0201080270999992000032618004+43300-002050FM-12+025999999V0202601N009810120019N0150001N1+00881+00581101901ADDAA112000591AY121061AY221061GF108991071081008001071999KA1999M+01041MA1999999098781MD1510081+9999MW1601REMSYN088AAXX  26184 08027 11565 82619 10088 20058 39878 40190 55008 69962 76022 8787/ 333 10104;
0237080270999992000032706004+43300-002050FM-12+025999999V0202701N008210075019N0050001N1+00761+00721101431ADDAA112018091AY161061AY261061GF108991081071008001999999IA1119IA2999+00709KA1120N+00761MA1999999098311MD1710081+9999MW1621REMSYN106AAXX  27064 08027 11550 82716 10076 20072 39831 40143 57008 60182 76266 887// 333 20076 32007 50260 55000;
0161080270999992000032709004+43300-002050FM-12+025999999V0203401N007210042019N0040001N1+00681+00681101431ADDAY161031AY261031GF108991081071004501999999MA1999999098301MD1510011+9999MW1631REMSYN072AAXX  27094 08027 41440 83414 10068 20068 39830 40143 55001 76366 887//;
0178080270999992000032712004+43300-002050FM-12+025999999V0203001N007710042019N0050001N1+00641+00601101411ADDAA106021191AY161061AY261061GF108991081071004501999999MA1999999098271MD1810031+9999MW1631REMSYN078AAXX  27124 08027 11450 83015 10064 20060 39827 40141 58003 60211 76366 887//;
0201080270999992000032718004+43300-002050FM-12+025999999V0203401N005110042019N0050001N1+00461+00321101291ADDAA106014091AY181061AY261061GF108991081071004501999999KA1999M+00781MA1999999098141MD1510041+9999MW1801REMSYN088AAXX  27184 08027 11450 83410 10046 20032 39814 40129 55004 60141 78086 887// 333 10078;
0231080270999992000032806004+43300-002050FM-12+025999999V0202501N004110042019N0060001N1+00321+00271101111ADDAA112013091AY181061AY261061GF108991081071004501999999IA1119IA2999+00209KA1120N+00261MA1999999097951MD1610071+9999MW1801REMSYN100AAXX  28064 08027 11456 82508 10032 20027 39795 40111 56007 60132 78086 887// 333 20026 32002 55000;
0161080270999992000032809004+43300-002050FM-12+025999999V0202101N003110042019N0050001N1+00401+00351101101ADDAY181031AY221031GF108991081071004501999999MA1999999097951MD1510001+9999MW1601REMSYN072AAXX  28094 08027 41450 82106 10040 20035 39795 40110 55000 76082 887//;
0178080270999992000032812004+43300-002050FM-12+025999999V0203301N005110042019N0150001N1+00601+00371101151ADDAA106004191AY161061AY221061GF108991081071004501999999MA1999999098021MD1110071+9999MW1021REMSYN078AAXX  28124 08027 11465 83310 10060 20037 39802 40115 51007 60041 70262 887//;
0229080270999992000032818004+43300-002050FM-12+025999999V0203401N00821004201CN0050001N1+00541+00301101121ADDAA112007191AY181061AY221061GA1041+004509079GF108991081071004501999999KA1120M+00721MA1999999097981MD1510001+9999MW1801REMSYN100AAXX  28184 08027 11450 83416 10054 20030 39798 40112 55000 60072 78082 887// 333 10072 84794 87996;
0237080270999992000032906004+43300-002050FM-12+025999999V0202201N004110120019N0100001N1+00281+00181101231ADDAA112009991AY181061AY221061GF106991061081008001001001IA1119IA2999+00109KA1120N+00281MA1999999098061MD1610011+9999MW1021REMSYN106AAXX  29064 08027 11560 62208 10028 20018 39806 40123 56001 60102 70282 86800 333 20028 32001 50280 55011;
0161080270999992000032909004+43300-002050FM-12+025999999V0202401N003110120019N0050001N1+00541+00351101281ADDAY121031AY221031GF105991051081008001001001MA1999999098141MD1310081+9999MW1101REMSYN072AAXX  29094 08027 41550 52406 10054 20035 39814 40128 53008 71022 85800;
0191080270999992000032912004+43300-002050FM-12+025999999V0202901N003110120019N0050001N1+00781+00421101261ADDAA199000091AY121061AY221061GF108991081081008001999999MA1999999098141MD1410001+9999MW1051REMSYN072AAXX  29124 08027 31550 82906 10078 20042 39814 40126 54000 70522 888//;EQDQ01  00002PRCP99
0201080270999992000032918004+43300-002050FM-12+025999999V0202601N003110120019N0180001N1+00681+00451101351ADDAA112008991AY181061AY221061GF106991061081008001071001KA1999M+00841MA1999999098221MD1310081+9999MW1011REMSYN088AAXX  29184 08027 11568 62606 10068 20045 39822 40135 53008 60092 70182 86870 333 10084;
0232080270999992000033006004+43300-002050FM-12+025999999V0201701N002112200019N0150001N1+00401+00091101381ADDAA199000091GA1001+999999999GF100991001001999999001001IA1099IA2999+00009KA1120N+00381MA1999999098221MD1610041+9999REMSYN088AAXX  30064 08027 32965 01704 10040 20009 39822 40138 56004 333 20038 31100 50130 55012;EQDQ01  00002PRCP99
0133080270999992000033009004+43300-002050FM-12+025999999V0201501N004112200019N0200001N1+00861+00301101301ADDGF104991001001999999001011MA1999999098191MD1810031+9999REMSYN066AAXX  30094 08027 42970 41508 10086 20030 39819 40130 58003 80001;
0163080270999992000033012004+43300-002050FM-12+025999999V0201801N005112200019N0250001N1+01201+00461101261ADDAA199000091GF103991011011008001001011MA1999999098191MD1410001+9999REMSYN066AAXX  30124 08027 32575 31810 10120 20046 39819 40126 54000 81101;EQDQ01  00002PRCP99
0186080270999992000033018004+43300-002050FM-12+025999999V0200901N00051036001CN0250001N1+01241+00361101131ADDAA199000091GF105991021051012501071999KA1999M+01421MA1999999098071MD1610081+9999REMSYN076AAXX  30184 08027 32675 50901 10124 20036 39807 40113 56008 8257/ 333 10142;EQDQ01  00002PRCP99
0237080270999992000033106004+43300-002050FM-12+025999999V0203301N002610042019N0040001N1+00741+00701101011ADDAA112000591AY161061AY221061GF108991081071004501999999IA1099IA2999+00709KA1120N+00741MA1999999097901MD1610051+9999MW1611REMSYN106AAXX  31064 08027 11440 83305 10074 20070 39790 40101 56005 69942 76162 887// 333 20074 31007 50250 55082;
0133080270999992000033109004+43300-002050FM-12+025999999V0202701N005110360019N0200001N1+00941+00641101121ADDGF106991031081008001071999MA1999999098031MD1110131+9999REMSYN066AAXX  31094 08027 42570 62710 10094 20064 39803 40112 51013 8387/;
0178080270999992000033112004+43300-002050FM-12+025999999V0202901N009810042019N0050001N1+00741+00561101191ADDAA106005191AY161061AY221061GF108991081071004501999999MA1999999098071MD1310041+9999MW1611REMSYN078AAXX  31124 08027 11450 82919 10074 20056 39807 40119 53004 60051 76162 887//;
0173080270999992000033118004+43300-002050FM-12+025999999V0203001N008210120019N0250001N1+00921+00621101171ADDAA112005191GF105991051081008001001001KA1999M+01021MA1999999098071MD1110041+9999REMSYN082AAXX  31184 08027 12575 53016 10092 20062 39807 40117 51004 60052 85800 333 10102;
0209080270999992000040106004+43300-002050FM-12+025999999V0201901N002110120019N0300001N1+00681+00301101111ADDAA112000191GF106991061081008001001001IA1099IA2999+00309KA1120N+00641MA1999999097991MD1610081+9999REMSYN100AAXX  01064 08027 12580 61904 10068 20030 39799 40111 56008 69912 86800 333 20064 31003 50080 55030;
0133080270999992000040109004+43300-002050FM-12+025999999V0201501N004112200019N0300001N1+01061+00451100901ADDGF102991021081008001001001MA1999999097821MD1610041+9999REMSYN066AAXX  01094 08027 42580 21508 10106 20045 39782 40090 56004 82800;
0163080270999992000040112004+43300-002050FM-12+025999999V0201701N004112200019N0300001N1+01101+00471100661ADDAA199000091GF102991021081008001001001MA1999999097631MD1810191+9999REMSYN066AAXX  01124 08027 32580 21708 10110 20047 39763 40066 58019 82800;EQDQ01  00002PRCP99
0186080270999992000040118004+43300-002050FM-12+025999999V0201401N005110150019N0200001N1+01441+00361100071ADDAA199000091GF107991071001017501071999KA1999M+01641MA1999999097061MD1710281+9999REMSYN076AAXX  01184 08027 32770 71410 10144 20036 39706 40007 57028 8707/ 333 10164;EQDQ01  00002PRCP99
0253080270999992000040206004+43300-002050FM-12+025999999V0201501N011810150019N0200001N1+01381+00281099061ADDAA199000091GF107991071001017501071999GJ104689IA1019IA2999+00909KA1120N+01381MA1999999096071MD1610081+9999OA149902681REMSYN106AAXX  02064 08027 32770 71523 10138 20028 39607 49906 56008 8707/ 333 20138 30009 50430 55078 91152 91515;EQDQ01  00002PRCP99
0160080270999992000040209004+43300-002050FM-12+025999999V0201501N015910360019N0200001N1+01421+00401098881ADDGF107991011051008001071999MA1999999095901MD1710171+9999OA149902781REMSYN082AAXX  02094 08027 42570 71531 10142 20040 39590 49888 57017 8157/ 333 91154 91516;
0190080270999992000040212004+43300-002050FM-12+025999999V0201601N017010360019N0200001N1+01521+00541098741ADDAA199000091GF107991041051008001071999MA1999999095781MD1710121+9999OA149902931REMSYN082AAXX  02124 08027 32570 71633 10152 20054 39578 49874 57012 8457/ 333 91157 91515;EQDQ01  00002PRCP99
0209080270999992000040218004+43300-002050FM-12+025999999V0201501N012910360019N0200001N1+01501+00711098481ADDAA199000091GF107991041081012501071001KA1120M+01641MA1999999095531MD1510041+9999OA149902571REMSYN088AAXX  02184 08027 32670 71525 10150 20071 39553 49848 55004 84870 333 10164 91150 91515;EQDQ01  00002PRCP99
0222080270999992000040306004+43300-002050FM-12+025999999V0201701N011812200019N0250001N1+01121+00211098511ADDAA199000091GF104991031081008001071001IA1019IA2999+01009KA1120N+01101MA1999999095511MD1110091+9999REMSYN094AAXX  03064 08027 32575 41723 10112 20021 39551 49851 51009 83870 333 20110 30010 50670 55010;EQDQ01  00002PRCP99
0133080270999992000040309004+43300-002050FM-12+025999999V0201701N010810360019N0250001N1+01141+00241098551ADDGF107991031081008001071001MA1999999095551MD1210041+9999REMSYN066AAXX  03094 08027 42575 71721 10114 20024 39555 49855 52004 83870;
0163080270999992000040312004+43300-002050FM-12+025999999V0201601N009810360019N0300001N1+01441+00201098521ADDAA199000091GF105991031081008001071081MA1999999095551MD1010001+9999REMSYN066AAXX  03124 08027 32580 51619 10144 20020 39555 49852 50000 83878;EQDQ01  00002PRCP99
0201080270999992000040318004+43300-002050FM-12+025999999V0201801N008210120019N0300001N1+01321+00201098491ADDAA112000791AY121061AY221061GF108991081071012501999999KA1999M+01561MA1999999095511MD1310041+9999MW1601REMSYN088AAXX  03184 08027 11680 81816 10132 20020 39551 49849 53004 69902 76022 887// 333 10156;
0237080270999992000040406004+43300-002050FM-12+025999999V0202401N008210075019N0100001N1+00801+00581099241ADDAA112007191AY161061AY261061GF108991081071008001999999IA1099IA2999+00709KA1120N+00801MA1999999096191MD1310251+9999MW1601REMSYN106AAXX  04064 08027 11560 82416 10080 20058 39619 49924 53025 60072 76066 887// 333 20080 31007 50410 55048;
0161080270999992000040409004+43300-002050FM-12+025999999V0202601N007210120019N0150001N1+00801+00581099531ADDAY161031AY221031GF108991081081008001999999MA1999999096471MD1210281+9999MW1021REMSYN072AAXX  04094 08027 41565 82614 10080 20058 39647 49953 52028 70262 888//;
0178080270999992000040412004+43300-002050FM-12+025999999V0202801N009810120019N0200001N1+00921+00671099841ADDAA106001091AY161061AY221061GF108991081081008001999999MA1999999096781MD1210311+9999MW1021REMSYN078AAXX  04124 08027 11570 82819 10092 20067 39678 49984 52031 60011 70262 888//;
0173080270999992000040418004+43300-002050FM-12+025999999V0202901N008710120019N0200001N1+00841+00531100391ADDAA112001091GF107991071081008001001001KA1999M+01061MA1999999097311MD1210281+9999REMSYN082AAXX  04184 08027 12570 72917 10084 20053 39731 40039 52028 60012 87800 333 10106;
0231080270999992000040506004+43300-002050FM-12+025999999V0203001N009810075019N0250001N1+00681+00301101101ADDAA112018091AY181061AY261061GF107991071071008001001001IA1119IA2999+00509KA1120N+00521MA1999999097981MD1310201+9999MW1021REMSYN100AAXX  05064 08027 11575 73019 10068 20030 39798 40110 53020 60182 70286 87700 333 20052 32005 55018;
0161080270999992000040509004+43300-002050FM-12+025999999V0202901N008710090019N0250001N1+00621+00441101401ADDAY181031AY221031GF107991071081004501001001MA1999999098261MD1210281+9999MW1021REMSYN072AAXX  05094 08027 41475 72917 10062 20044 39826 40140 52028 70282 87800;
0178080270999992000040512004+43300-002050FM-12+025999999V0202701N007210090019N0250001N1+00721+00501101521ADDAA106002091AY181061AY261061GF107991071081004501001001MA1999999098391MD1110131+9999MW1021REMSYN078AAXX  05124 08027 11475 72714 10072 20050 39839 40152 51013 60021 70286 87800;
0229080270999992000040518004+43300-002050FM-12+025999999V0203401N00621007501CN0020001N1+00541+00401101831ADDAA112007191AY181061AY221061GA1041+008009099GF107991071091008001999999KA1120M+00881MA1999999098671MD1210161+9999MW1801REMSYN100AAXX  05184 08027 11520 73412 10054 20040 39867 40183 52016 60072 78082 879// 333 10088 84995 86696;
0237080270999992000040606004+43300-002050FM-12+025999999V0203001N001010120019N0100001N1+00501+00311102121ADDAA112002091AY181061AY221061GF107991071081008001999999IA1119IA2999+00309KA1120N+00461MA1999999098941MD1310041+9999MW1801REMSYN106AAXX  06064 08027 11560 73002 10050 20031 39894 40212 53004 60022 78082 878// 333 20046 32003 50150 55026;
0161080270999992000040609004+43300-002050FM-12+025999999V0201801N002110120019N0050001N1+00561+00511102231ADDAY181031AY221031GF107991071081008001999999MA1999999099061MD1310121+9999MW1281REMSYN072AAXX  06094 08027 41550 71804 10056 20051 39906 40223 53012 72882 878//;
0178080270999992000040612004+43300-002050FM-12+025999999V0200101N004112200019N0200001N1+00801+00391102251ADDAA106000591AY181061AY241061GF104991041081008001001001MA1999999099101MD1110041+9999MW1011REMSYN078AAXX  06124 08027 11570 40108 10080 20039 39910 40225 51004 69961 70184 84800;
0173080270999992000040618004+43300-002050FM-12+025999999V0200201N003612200019N0200001N1+00841+00431102241ADDAA112000591GF102991021051008001001001KA1999M+00961MA1999999099101MD1410001+9999REMSYN082AAXX  06184 08027 12570 20207 10084 20043 39910 40224 54000 69962 82500 333 10096;
0222080270999992000040706004+43300-002050FM-12+025999999V0201501N002112200019N0100001N1+00361+00261102301ADDAA199000091GF101991001001999999001011IA1099IA2999+00009KA1120N+00361MA1999999099101MD1710041+9999REMSYN094AAXX  07064 08027 32960 11504 10036 20026 39910 40230 57004 80001 333 20036 31000 50190 55078;EQDQ01  00002PRCP99
0133080270999992000040709004+43300-002050FM-12+025999999V0201701N001512200019N0120001N1+00901+00451102191ADDGF101991001001999999001011MA1999999099061MD1810041+9999REMSYN066AAXX  07094 08027 42962 11703 10090 20045 39906 40219 58004 80001;
0163080270999992000040712004+43300-002050FM-12+025999999V0203501N003112200019N0120001N1+01021+00591102101ADDAA199000091GF101991001001999999001011MA1999999098981MD1810081+9999REMSYN066AAXX  07124 08027 32962 13506 10102 20059 39898 40210 58008 80001;EQDQ01  00002PRCP99
0186080270999992000040718004+43300-002050FM-12+025999999V0203501N002119999999N0140001N1+01061+00901101801ADDAA199000091GF105991001001999999001081KA1999M+01201MA1999999098701MD1610091+9999REMSYN076AAXX  07184 08027 32964 53504 10106 20090 39870 40180 56009 80008 333 10120;EQDQ01  00002PRCP99
0222080270999992000040806004+43300-002050FM-12+025999999V0201401N004110150019N0300001N1+01361+01061101271ADDAA199000091GF106991061001017501051999IA1099IA2999+01009KA1120N+00961MA1999999098221MD1610161+9999REMSYN094AAXX  08064 08027 32780 61408 10136 20106 39822 40127 56016 8605/ 333 20096 31010 50240 55081;EQDQ01  00002PRCP99
0133080270999992000040809004+43300-002050FM-12+025999999V0201601N012310900019N0300001N1+01361+00121101161ADDGF108991041001017501071081MA1999999098111MD1610111+9999REMSYN066AAXX  08094 08027 42780 81624 10136 20012 39811 40116 56011 84078;
0178080270999992000040812004+43300-002050FM-12+025999999V0201601N016410360019N0130001N1+01081+00421101181ADDAA106000191AY161061AY221061GF107991021051008001071999MA1999999098101MD1510011+9999MW1611REMSYN078AAXX  08124 08027 11563 71632 10108 20042 39810 40118 55001 69911 76162 8257/;
0173080270999992000040818004+43300-002050FM-12+025999999V0201201N004110075019N0300001N1+01041+00521101151ADDAA112000191GF108991051051008001071999KA1999M+01361MA1999999098071MD1610071+9999REMSYN082AAXX  08184 08027 12580 81208 10104 20052 39807 40115 56007 69922 8557/ 333 10136;
0209080270999992000040906004+43300-002050FM-12+025999999V0201601N007210360019N0250001N1+01141+00641100611ADDAA112001091GF107991041051008001071001IA1099IA2999+00809KA1120N+01001MA1999999097551MD1610131+9999REMSYN100AAXX  09064 08027 12575 71614 10114 20064 39755 40061 56013 60012 84570 333 20100 31008 50050 55000;
0133080270999992000040909004+43300-002050FM-12+025999999V0201701N007210360019N0300001N1+01281+00711100501ADDGF106991041051008001071001MA1999999097461MD1610091+9999REMSYN066AAXX  09094 08027 42580 61714 10128 20071 39746 40050 56009 84570;
0163080270999992000040912004+43300-002050FM-12+025999999V0209999V002110075019N0300001N1+01361+00941100461ADDAA199000091GF107991051051008001071001MA1999999097431MD1810031+9999REMSYN066AAXX  09124 08027 32580 79904 10136 20094 39743 40046 58003 85570;EQDQ01  00002PRCP99
0217080270999992000040918004+43300-002050FM-12+025999999V0203001N005110001519N0000001N1+01041+01041100281ADDAA112005191AY141061AY221061GA1091+000159999GF109991091999999999999999KA1120M+01621MA1999999097231MD1410001+9999MW1801REMSYN088AAXX  09184 08027 11/00 93010 10104 20104 39723 40028 54000 60052 78042 333 10162 89/00;
0261080270999992000041006004+43300-002050FM-12+025999999V0202901N005110001519N0000001N1+00821+00821100221ADDAA112021191AY161061AY261061GA1091+000159999GF109991091999999999999999GJ101509IA1119IA2999+00809KA1120N+00821MA1999999097141MD1510001+9999MW1631REMSYN106AAXX  10064 08027 11/00 92910 10082 20082 39714 40022 55000 60212 76366 333 20082 32008 50450 55025 89/00;
0181080270999992000041009004+43300-002050FM-12+025999999V0202701N006210001519N0009001N1+00681+00641100371ADDAY161031AY261031GA1091+000159999GF109991091999999999999999MA1999999097271MD1310131+9999MW1611REMSYN076AAXX  10094 08027 41/09 92712 10068 20064 39727 40037 53013 76166 333 89/00;
0178080270999992000041012004+43300-002050FM-12+025999999V0203001N003110120019N0020001N1+00881+00761100381ADDAA106009991AY161061AY241061GF108991081081008001999999MA1999999097301MD1110031+9999MW1601REMSYN078AAXX  10124 08027 11520 83006 10088 20076 39730 40038 51003 60101 76064 888//;
0201080270999992000041018004+43300-002050FM-12+025999999V0202901N001510120019N0100001N1+00801+00721100431ADDAA112010991AY161061AY221061GF108991081081008001999999KA1999M+00901MA1999999097341MD1410001+9999MW1021REMSYN088AAXX  10184 08027 11560 82903 10080 20072 39734 40043 54000 60112 70262 888// 333 10090;
0247080270999992000041106004+43300-002050FM-12+025999999V0203201N008710001519N0001001N1+01021+01021100521ADDAA112009991AY161061AY261061GA1091+999999999GF109991091999999999999999IA1119IA2999+00709KA1120N+00761MA1999999097461MD1310031+9999MW1621REMSYN100AAXX  11064 08027 11/01 93217 10102 20102 39746 40052 53003 60102 76266 333 20076 32007 50270 55000;
0161080270999992000041109004+43300-002050FM-12+025999999V0203201N011810021019N0020001N1+00921+00881100711ADDAY161031AY241031GF108991081071002501999999MA1999999097631MD1210171+9999MW1211REMSYN072AAXX  11094 08027 41320 83223 10092 20088 39763 40071 52017 72164 887//;
0178080270999992000041112004+43300-002050FM-12+025999999V0203001N014410120019N0100001N1+00901+00501100871ADDAA106004191AY181061AY241061GF107991071081008001001001MA1999999097781MD1110151+9999MW1251REMSYN078AAXX  11124 08027 11560 73028 10090 20050 39778 40087 51015 60041 72584 87800;
0173080270999992000041118004+43300-002050FM-12+025999999V0202801N006210120019N0250001N1+00961+00571100621ADDAA112004191GF107991071051012501999999KA1999M+01181MA1999999097541MD1710171+9999REMSYN082AAXX  11184 08027 12675 72812 10096 20057 39754 40062 57017 60042 875// 333 10118;
0237080270999992000041206004+43300-002050FM-12+025999999V0202401N004610075019N0100001N1+00641+00601100291ADDAA112010991AY161061AY261061GF108991081071008001999999IA1119IA2999+00609KA1120N+00601MA1999999097191MD1310041+9999MW1601REMSYN106AAXX  12064 08027 11560 82409 10064 20060 39719 40029 53004 60112 76066 887// 333 20060 32006 50450 55022;
0161080270999992000041209004+43300-002050FM-12+025999999V0202001N002610075019N0100001N1+00701+00571100361ADDAY161031AY261031GF108991081071008001999999MA1999999097261MD1110071+9999MW1601REMSYN072AAXX  12094 08027 41560 82005 10070 20057 39726 40036 51007 76066 887//;
0178080270999992000041212004+43300-002050FM-12+025999999V0202201N003110075019N0100001N1+00881+00671100261ADDAA106002091AY161061AY261061GF108991081071008001999999MA1999999097191MD1810071+9999MW1601REMSYN078AAXX  12124 08027 11560 82206 10088 20067 39719 40026 58007 60021 76066 887//;
0201080270999992000041218004+43300-002050FM-12+025999999V0201301N001010075019N0150001N1+00781+00701100191ADDAA112004191AY161061AY221061GF108991081071008001999999KA1999M+00961MA1999999097111MD1610041+9999MW1601REMSYN088AAXX  12184 08027 11565 81302 10078 20070 39711 40019 56004 60042 76062 887// 333 10096;
0237080270999992000041306004+43300-002050FM-12+025999999V0201701N002110120019N0150001N1+00601+00511100371ADDAA112007991AY161061AY221061GF108991081081008001999999IA1119IA2999+00509KA1120N+00561MA1999999097261MD1410001+9999MW1601REMSYN106AAXX  13064 08027 11565 81704 10060 20051 39726 40037 54000 60082 76062 888// 333 20056 32005 50040 55000;
0161080270999992000041309004+43300-002050FM-12+025999999V0209999C000010360019N0250001N1+00881+00711100351ADDAY161031AY221031GF106991041081008001071001MA1999999097271MD1110011+9999MW1011REMSYN072AAXX  13094 08027 41575 60000 10088 20071 39727 40035 51001 70162 84870;
0178080270999992000041312004+43300-002050FM-12+025999999V0203401N002110120019N0300001N1+00921+00581100421ADDAA106000191AY161061AY221061GF108991081081008001999999MA1999999097351MD1110081+9999MW1021REMSYN078AAXX  13124 08027 11580 83404 10092 20058 39735 40042 51008 69911 70262 888//;
0201080270999992000041318004+43300-002050FM-12+025999999V0201201N004110120019N0300001N1+00821+00691100141ADDAA112001091AY121061AY221061GF107991071081008001999999KA1999M+01021MA1999999097061MD1810241+9999MW1251REMSYN088AAXX  13184 08027 11580 71208 10082 20069 39706 40014 58024 60012 72522 878// 333 10102;
0234080270999992000041406004+43300-002050FM-12+025999999V0201601N014910150019N0250001N1+01361+00471099351ADDAA199000021GF107991071001017501071999GJ101389IA1099IA2999+00509KA1120N+00801MA1999999096351MD1710161+9999OA149902421REMSYN106AAXX  14064 08027 32775 71629 10136 20047 39635 49935 57016 8707/ 333 20080 31005 50240 55023 91147 91516;
0133080270999992000041409004+43300-002050FM-12+025999999V0201801N010810360019N0400001N1+01581+00661099391ADDGF106991041051008001041011MA1999999096421MD1310071+9999REMSYN066AAXX  14094 08027 42582 61821 10158 20066 39642 49939 53007 84541;
0201080270999992000041418004+43300-002050FM-12+025999999V0203101N008710120019N0200001N1+00941+00781099871ADDAA112003091AY181061AY221061GF107991051081008001071001KA1999M+01981MA1999999096821MD1210201+9999MW1021REMSYN088AAXX  14184 08027 11570 73117 10094 20078 39682 49987 52020 60032 70282 85870 333 10198;
0222080270999992000041506004+43300-002050FM-12+025999999V0202101N005712200019N0300001N1+00761+00241100491ADDAA199000091GF101991011081008001001001IA1099IA2999+00509KA1120N+00761MA1999999097391MD1310041+9999REMSYN094AAXX  15064 08027 32580 12111 10076 20024 39739 40049 53004 81800 333 20076 31005 50390 55058;EQDQ01  00002PRCP99
0133080270999992000041509004+43300-002050FM-12+025999999V0202101N004112200019N0400001N1+01181+00281100591ADDGF102991011011008001001011MA1999999097541MD1110151+9999REMSYN066AAXX  15094 08027 42582 22108 10118 20028 39754 40059 51015 81101;
0163080270999992000041512004+43300-002050FM-12+025999999V0203601N003612200019N0400001N1+01141+00281100521ADDAA199000091GF103991011011008001001011MA1999999097461MD1810081+9999REMSYN066AAXX  15124 08027 32582 33607 10114 20028 39746 40052 58008 81101;EQDQ01  00002PRCP99
0186080270999992000041518004+43300-002050FM-12+025999999V0201401N005110900019N0300001N1+01261+00641100091ADDAA199000091GF108991011001017501041081KA1999M+01361MA1999999097061MD1710211+9999REMSYN076AAXX  15184 08027 32780 81410 10126 20064 39706 40009 57021 81048 333 10136;EQDQ01  00002PRCP99
0222080270999992000041606004+43300-002050FM-12+025999999V0201801N010810360019N0300001N1+01241+00671099311ADDAA199000091GF106991031081012501071081IA1099IA2999+01109KA1120N+01001MA1999999096301MD1510051+9999REMSYN094AAXX  16064 08027 32680 61821 10124 20067 39630 49931 55005 83878 333 20100 31011 50430 55068;EQDQ01  00002PRCP99
0133080270999992000041609004+43300-002050FM-12+025999999V0201901N006210360019N0220001N1+01341+00651099391ADDGF106991031081008001041999MA1999999096391MD1310091+9999REMSYN066AAXX  16094 08027 42572 61912 10134 20065 39639 49939 53009 8384/;
0163080270999992000041612004+43300-002050FM-12+025999999V0202401N008210360019N0300001N1+01461+00451099421ADDAA199000091GF106991031081012501071051MA1999999096431MD1010041+9999REMSYN066AAXX  16124 08027 32680 62416 10146 20045 39643 49942 50004 83875;EQDQ01  00002PRCP99
0201080270999992000041618004+43300-002050FM-12+025999999V0202901N002110360019N0400001N1+01081+00921099911ADDAA112000891AY121061AY221061GF106991031081008001071001KA1999M+01721MA1999999096871MD1010331+9999MW1251REMSYN088AAXX  16184 08027 11582 62904 10108 20092 39687 49991 50033 69982 72522 83870 333 10172;
0237080270999992000041706004+43300-002050FM-12+025999999V0201601N004112200019N0350001N1+00801+00721100851ADDAA112005191AY161061AY221061GF104991031081008001071001IA1099IA2999+00609KA1120N+00781MA1999999097751MD1210211+9999MW1011REMSYN106AAXX  17064 08027 11581 41608 10080 20072 39775 40085 52021 60052 70162 83870 333 20078 31006 50320 55058;
0133080270999992000041709004+43300-002050FM-12+025999999V0209999V001012200019N0400001N1+01281+00521100921ADDGF101991011081008001001001MA1999999097871MD1310121+9999REMSYN066AAXX  17094 08027 42582 19902 10128 20052 39787 40092 53012 81800;
0163080270999992000041712004+43300-002050FM-12+025999999V0201601N004112200019N0400001N1+01621+00331101011ADDAA199000091GF103991031081008001001001MA1999999097991MD1110121+9999REMSYN066AAXX  17124 08027 32582 31608 10162 20033 39799 40101 51012 83800;EQDQ01  00002PRCP99
0186080270999992000041718004+43300-002050FM-12+025999999V0203401N003112200019N0300001N1+01141+00641101221ADDAA199000091GF104991041081008001001001KA1999M+01761MA1999999098141MD1110151+9999REMSYN076AAXX  17184 08027 32580 43406 10114 20064 39814 40122 51015 84800 333 10176;EQDQ01  00002PRCP99
0133080270999992000041721004+43300-002050FM-12+025999999V0201601N002112200019N0300001N1+00941+00731101401ADDGF104991041081008001001001MA1999999098301MD1110161+9999REMSYN066AAXX  17214 08027 41580 41604 10094 20073 39830 40140 51016 84800;
0178080270999992000041800004+43300-002050FM-12+025999999V0201601N004112200019N0300001N1+00861+00601101291ADDAA106002091AY161061AY221061GF104991041081008001001001MA1999999098181MD1810121+9999MW1021REMSYN078AAXX  18004 08027 11580 41608 10086 20060 39818 40129 58012 60021 70262 84800;
0209080270999992000041806004+43300-002050FM-12+025999999V0201801N008212200019N0400001N1+01141+00391100931ADDAA112002091GF102991011051008001071001IA1019IA2999+00709KA1120N+00861MA1999999097861MD1710131+9999REMSYN100AAXX  18064 08027 12582 21816 10114 20039 39786 40093 57013 60022 81570 333 20086 30007 50270 55103;
0133080270999992000041809004+43300-002050FM-12+025999999V0201601N013910360019N0400001N1+01441+00411100621ADDGF106991021051008001011081MA1999999097591MD1710271+9999REMSYN066AAXX  18094 08027 42582 61627 10144 20041 39759 40062 57027 82518;
0178080270999992000041812004+43300-002050FM-12+025999999V0202201N005110075019N0200001N1+01181+00731100811ADDAA106000891AY161061AY221061GF108991081071008001999999MA1999999097751MD1310161+9999MW1601REMSYN078AAXX  18124 08027 11570 82210 10118 20073 39775 40081 53016 69981 76062 887//;
0201080270999992000041818004+43300-002050FM-12+025999999V0203101N008710120019N0150001N1+01161+00801101101ADDAA112003091AY181061AY221061GF107991071081008001999999KA1999M+01541MA1999999098031MD1310331+9999MW1031REMSYN088AAXX  18184 08027 11565 73117 10116 20080 39803 40110 53033 60032 70382 878// 333 10154;
0133080270999992000041821004+43300-002050FM-12+025999999V0203201N003110075019N0150001N1+01101+00731101301ADDGF108991081051008001999999MA1999999098221MD1210191+9999REMSYN066AAXX  18214 08027 42565 83206 10110 20073 39822 40130 52019 885//;
0144080270999992000041900004+43300-002050FM-12+025999999V0202201N002110075019N0400001N1+01081+00611101351ADDAA199000021GF108991081051008001999999MA1999999098261MD1110041+9999REMSYN066AAXX  19004 08027 32582 82204 10108 20061 39826 40135 51004 885//;
0133080270999992000041903004+43300-002050FM-12+025999999V0201601N002110075019N0350001N1+01021+00641101241ADDGF107991071051008001999999MA1999999098151MD1810111+9999REMSYN066AAXX  19034 08027 42581 71604 10102 20064 39815 40124 58011 875//;
0237080270999992000041906004+43300-002050FM-12+025999999V0201501N003110075019N0150001N1+01041+00711101241ADDAA112000791AY121061AY221061GF108991081051008001999999IA1099IA2999+00809KA1120N+00981MA1999999098151MD1410001+9999MW1601REMSYN106AAXX  19064 08027 11565 81506 10104 20071 39815 40124 54000 69902 76022 885// 333 20098 31008 50350 55059;
0161080270999992000041909004+43300-002050FM-12+025999999V0202101N003110075019N0040001N1+01321+01131101361ADDAY161031AY221031GF108991081051008001999999MA1999999098301MD1310151+9999MW1601REMSYN072AAXX  19094 08027 41540 82106 10132 20113 39830 40136 53015 76062 885//;
0178080270999992000041912004+43300-002050FM-12+025999999V0203101N002110075019N0300001N1+01741+01121101361ADDAA106000191AY161061AY221061GF107991051051008001071999MA1999999098351MD1110051+9999MW1011REMSYN078AAXX  19124 08027 11580 73104 10174 20112 39835 40136 51005 69911 70162 8557/;
0201080270999992000041918004+43300-002050FM-12+025999999V0200901N004110360019N0300001N1+01741+01041101281ADDAA112000191AY181061AY221061GF105991041081008001071001KA1999M+01861MA1999999098271MD1610081+9999MW1021REMSYN088AAXX  19184 08027 11580 50908 10174 20104 39827 40128 56008 69922 70282 84870 333 10186;
0133080270999992000041921004+43300-002050FM-12+025999999V0201601N005712200019N0250001N1+01641+01051101241ADDGF101991011001022501071001MA1999999098221MD1610051+9999REMSYN066AAXX  19214 08027 42875 11611 10164 20105 39822 40124 56005 81070;
0163080270999992000042000004+43300-002050FM-12+025999999V0201701N006212200019N0200001N1+01621+00851101171ADDAA199000091GF103991011001022501071081MA1999999098151MD1710071+9999REMSYN066AAXX  20004 08027 32870 31712 10162 20085 39815 40117 57007 81078;EQDQ01  00002PRCP99
0133080270999992000042003004+43300-002050FM-12+025999999V0201901N005712200019N0200001N1+01601+00781101091ADDGF105991021001022501071081MA1999999098071MD1610081+9999REMSYN066AAXX  20034 08027 42870 51911 10160 20078 39807 40109 56008 82078;
0222080270999992000042006004+43300-002050FM-12+025999999V0201801N005712200019N0300001N1+01561+00721101131ADDAA199000091GF105991031001022501071081IA1019IA2999+01209KA1120N+01561MA1999999098101MD1310031+9999REMSYN094AAXX  20064 08027 32880 51811 10156 20072 39810 40113 53003 83078 333 20156 30012 50300 55033;EQDQ01  00002PRCP99
0133080270999992000042009004+43300-002050FM-12+025999999V0201801N008212200019N0300001N1+01821+00731101141ADDGF103991021051012501071001MA1999999098141MD1110041+9999REMSYN066AAXX  20094 08027 42680 31816 10182 20073 39814 40114 51004 82570;
0163080270999992000042012004+43300-002050FM-12+025999999V0202101N008212200019N0400001N1+02141+00831101081ADDAA199000091GF103991011011008001001011MA1999999098111MD1710031+9999REMSYN066AAXX  20124 08027 32582 32116 10214 20083 39811 40108 57003 81101;EQDQ01  00002PRCP99
0186080270999992000042018004+43300-002050FM-12+025999999V0203001N006212200019N0300001N1+01821+01051101151ADDAA199000091GF105991041001017501041011KA1999M+02361MA1999999098151MD1310081+9999REMSYN076AAXX  20184 08027 32780 53012 10182 20105 39815 40115 53008 84041 333 10236;EQDQ01  00002PRCP99
0133080270999992000042021004+43300-002050FM-12+025999999V0201901N001510150019N0300001N1+01141+01061101471ADDGF106991061001017501051999MA1999999098391MD1110241+9999REMSYN066AAXX  20214 08027 42780 61903 10114 20106 39839 40147 51024 8605/;
0133080270999992000042103004+43300-002050FM-12+025999999V0209999V002610900019N0300001N1+01161+00841101511ADDGF106991021001017501041071MA1999999098431MD1710041+9999REMSYN066AAXX  21034 08027 42780 69905 10116 20084 39843 40151 57004 82047;
0222080270999992000042106004+43300-002050FM-12+025999999V0201201N002610360019N0300001N1+01281+00891101491ADDAA199000091GF106991011011012501071051IA1019IA2999+01009KA1120N+01041MA1999999098421MD1710011+9999REMSYN094AAXX  21064 08027 32680 61205 10128 20089 39842 40149 57001 81175 333 20104 30010 50490 55081;EQDQ01  00002PRCP99
0133080270999992000042109004+43300-002050FM-12+025999999V0201301N004110360019N0300001N1+01581+00971101421ADDGF107991011011017501071999MA1999999098391MD1810031+9999REMSYN066AAXX  21094 08027 42780 71308 10158 20097 39839 40142 58003 8117/;
0163080270999992000042112004+43300-002050FM-12+025999999V0201801N006210360019N0300001N1+02101+01141101271ADDAA199000091GF106991011011012501051071MA1999999098301MD1810091+9999REMSYN066AAXX  21124 08027 32680 61812 10210 20114 39830 40127 58009 81157;EQDQ01  00002PRCP99
0201080270999992000042118004+43300-002050FM-12+025999999V0201201N002110120019N0400001N1+01761+01101101061ADDAA112000191AY161061AY221061GF107991061081008001071001KA1999M+02241MA1999999098061MD1610051+9999MW1031REMSYN088AAXX  21184 08027 11582 71204 10176 20110 39806 40106 56005 69912 70362 86870 333 10224;
0161080270999992000042121004+43300-002050FM-12+025999999V0202401N001010120019N0400001N1+01601+00821101081ADDAY161031AY221031GF107991071081008001001001MA1999999098061MD1410001+9999MW1021REMSYN072AAXX  21214 08027 41582 72402 10160 20082 39806 40108 54000 70262 87800;
0178080270999992000042200004+43300-002050FM-12+025999999V0202101N004110120019N0400001N1+01641+01051101081ADDAA106000591AY161061AY221061GF107991071081008001001001MA1999999098061MD1410001+9999MW1021REMSYN078AAXX  22004 08027 11582 72108 10164 20105 39806 40108 54000 69941 70262 87800;
0133080270999992000042203004+43300-002050FM-12+025999999V0202701N007210120019N0400001N1+01301+00991101041ADDGF107991071081008001001001MA1999999097991MD1710071+9999REMSYN066AAXX  22034 08027 42582 72714 10130 20099 39799 40104 57007 87800;
0209080270999992000042206004+43300-002050FM-12+025999999V0209999V001010120019N0300001N1+01181+00951101091ADDAA112000591GF108991081081008001999999IA1099IA2999+01109KA1120N+01181MA1999999098031MD1110041+9999REMSYN100AAXX  22064 08027 12580 89902 10118 20095 39803 40109 51004 69942 888// 333 20118 31011 50230 55053;
0161080270999992000042209004+43300-002050FM-12+025999999V0209999C000010120019N0150001N1+01141+01021101091ADDAY161031AY221031GF108991081081008001999999MA1999999098021MD1810011+9999MW1211REMSYN072AAXX  22094 08027 41565 80000 10114 20102 39802 40109 58001 72162 888//;
0201080270999992000042218004+43300-002050FM-12+025999999V0202001N005110120019N0200001N1+01421+00741100901ADDAA112005191AY161061AY221061GF108991081081008001999999KA1999M+01521MA1999999097861MD1710011+9999MW1021REMSYN088AAXX  22184 08027 11570 82010 10142 20074 39786 40090 57001 60052 70262 888// 333 10152;
0161080270999992000042221004+43300-002050FM-12+025999999V0203001N004110042019N0100001N1+00941+00771101411ADDAY181031AY261031GF108991081071004501999999MA1999999098311MD1210451+9999MW1251REMSYN072AAXX  22214 08027 41460 83008 10094 20077 39831 40141 52045 72586 887//;
0178080270999992000042300004+43300-002050FM-12+025999999V0202401N004610042019N0100001N1+00901+00641101541ADDAA106001091AY181061AY221061GF108991081071004501999999MA1999999098431MD1210121+9999MW1501REMSYN078AAXX  23004 08027 11460 82409 10090 20064 39843 40154 52012 60011 75082 887//;
0161080270999992000042303004+43300-002050FM-12+025999999V0202401N007210120019N0100001N1+00881+00531101571ADDAY181031AY221031GF108991081081008001999999MA1999999098461MD1210031+9999MW1021REMSYN072AAXX  23034 08027 41560 82414 10088 20053 39846 40157 52003 70282 888//;
0237080270999992000042306004+43300-002050FM-12+025999999V0202401N005112200019N0350001N1+00841+00381101621ADDAA112001091AY161061AY221061GF102991011041008001041001IA1099IA2999+00609KA1120N+00801MA1999999098501MD1210041+9999MW1011REMSYN106AAXX  23064 08027 11581 22410 10084 20038 39850 40162 52004 60012 70162 81440 333 20080 31006 50190 55000;
0133080270999992000042309004+43300-002050FM-12+025999999V0203001N004112200019N0400001N1+01281+00461101751ADDGF102991021041008001001001MA1999999098671MD1210171+9999REMSYN066AAXX  23094 08027 42582 23008 10128 20046 39867 40175 52017 82400;
0144080270999992000042312004+43300-002050FM-12+025999999V0203201N006212200019N0300001N1+01261+00681101831ADDAA199000021GF103991031081008001001001MA1999999098751MD1210081+9999REMSYN066AAXX  23124 08027 32580 33212 10126 20068 39875 40183 52008 83800;
0201080270999992000042318004+43300-002050FM-12+025999999V0203101N002110360019N0150001N1+01101+00771101971ADDAA112000191AY181061AY221061GF107991031081008001071999KA1999M+01401MA1999999098871MD1210041+9999MW1031REMSYN088AAXX  23184 08027 11565 73104 10110 20077 39887 40197 52004 69922 70382 8387/ 333 10140;
0133080270999992000042321004+43300-002050FM-12+025999999V0201701N004110360019N0200001N1+00961+00711102061ADDGF107991021051008001071999MA1999999098941MD1210071+9999REMSYN066AAXX  23214 08027 42570 71708 10096 20071 39894 40206 52007 8257/;
0163080270999992000042400004+43300-002050FM-12+025999999V0201601N003110150019N0350001N1+00901+00601101981ADDAA199000091GF106991061001017501071999MA1999999098861MD1810081+9999REMSYN066AAXX  24004 08027 32781 61606 10090 20060 39886 40198 58008 8607/;EQDQ01  00002PRCP99
0143080270999992000042403004+43300-002050FM-12+025999999V0201701N008212200019N0400001N1+00921+00481101691ADDGA1001+999999999GF100991001001999999001001MA1999999098581MD1810281+9999REMSYN060AAXX  24034 08027 42982 01716 10092 20048 39858 40169 58028;
0222080270999992000042406004+43300-002050FM-12+025999999V0201701N009812200019N0350001N1+01121+00311101441ADDAA199000091GF103991011051008001041001IA1099IA2999+00709KA1120N+00781MA1999999098351MD1710231+9999REMSYN094AAXX  24064 08027 32581 31719 10112 20031 39835 40144 57023 81540 333 20078 31007 50320 55090;EQDQ01  00002PRCP99
0133080270999992000042409004+43300-002050FM-12+025999999V0201801N009810360019N0350001N1+01501+00491101311ADDGF106991011011008001041001MA1999999098271MD1710081+9999REMSYN066AAXX  24094 08027 42581 61819 10150 20049 39827 40131 57008 81140;
0201080270999992000042418004+43300-002050FM-12+025999999V0201701N009810360019N0400001N1+01761+00841100991ADDAA112000791AY121061AY221061GF107991041081012501071001KA1999M+02061MA1999999097991MD1610041+9999MW1801REMSYN088AAXX  24184 08027 11682 71719 10176 20084 39799 40099 56004 69902 78022 84870 333 10206;
0133080270999992000042421004+43300-002050FM-12+025999999V0201801N008710360019N0400001N1+01721+00841101001ADDGF107991021081012501071001MA1999999097991MD1410001+9999REMSYN066AAXX  24214 08027 42682 71817 10172 20084 39799 40100 54000 82870;
0178080270999992000042500004+43300-002050FM-12+025999999V0201701N012310360019N0300001N1+01661+00901100881ADDAA106000791AY181061AY221061GF108991041081012501071999MA1999999097871MD1710121+9999MW1801REMSYN078AAXX  25004 08027 11680 81724 10166 20090 39787 40088 57012 69901 78082 8487/;
0133080270999992000042503004+43300-002050FM-12+025999999V0202001N009810360019N0400001N1+01661+00851100791ADDGF108991021081012501071999MA1999999097781MD1710091+9999REMSYN066AAXX  25034 08027 42682 82019 10166 20085 39778 40079 57009 8287/;
0237080270999992000042506004+43300-002050FM-12+025999999V0201701N008210360019N0600001N1+01601+00871100831ADDAA112001091AY161061AY221061GF107991021081012501071001IA1099IA2999+01309KA1120N+01461MA1999999097821MD1210041+9999MW1211REMSYN106AAXX  25064 08027 11686 71716 10160 20087 39782 40083 52004 60012 72162 82870 333 20146 31013 50490 55062;
0161080270999992000042509004+43300-002050FM-12+025999999V0201701N003612200019N0400001N1+01841+01031100771ADDAY161031AY221031GF104991011011008001071011MA1999999097781MD1810041+9999MW1011REMSYN072AAXX  25094 08027 41582 41707 10184 20103 39778 40077 58004 70162 81171;
0209080270999992000042606004+43300-002050FM-12+025999999V0202401N005110120019N0300001N1+01281+00571100871ADDAA112000391GF106991051081008001041999IA1099IA2999+01009KA1120N+01001MA1999999097821MD1310111+9999REMSYN100AAXX  26064 08027 12580 62410 10128 20057 39782 40087 53011 69932 8584/ 333 20100 31010 50530 55072;
0163080270999992000042612004+43300-002050FM-12+025999999V0203601N005112200019N0300001N1+01281+00891101081ADDAA199000091GF103991021081008001071011MA1999999098031MD1110041+9999REMSYN066AAXX  26124 08027 32580 33610 10128 20089 39803 40108 51004 82871;EQDQ01  00002PRCP99
0186080270999992000042618004+43300-002050FM-12+025999999V0200101N003110120019N0400001N1+01121+00801101061ADDAA199000091GF107991071081008001001001KA1999M+01401MA1999999097991MD1410001+9999REMSYN076AAXX  26184 08027 32582 70106 10112 20080 39799 40106 54000 87800 333 10140;EQDQ01  00002PRCP99
0133080270999992000042621004+43300-002050FM-12+025999999V0203501N002110120019N0300001N1+01001+00881101121ADDGF108991081081008001999999MA1999999098031MD1110041+9999REMSYN066AAXX  26214 08027 41580 83504 10100 20088 39803 40112 51004 888//;
0178080270999992000042700004+43300-002050FM-12+025999999V0200101N003110120019N0150001N1+00901+00821101131ADDAA106004191AY161061AY221061GF108991081081008001999999MA1999999098031MD1510001+9999MW1601REMSYN078AAXX  27004 08027 11565 80106 10090 20082 39803 40113 55000 60041 76062 888//;
0161080270999992000042703004+43300-002050FM-12+025999999V0200101N003110120019N0150001N1+00901+00821101131ADDAY161031AY221031GF108991081081008001999999MA1999999098031MD1410001+9999MW1601REMSYN072AAXX  27034 08027 41565 80106 10090 20082 39803 40113 54000 76062 888//;
0237080270999992000042706004+43300-002050FM-12+025999999V0203201N007210075019N0100001N1+00821+00821100761ADDAA112020191AY161061AY221061GF108991081071008001999999IA1119IA2999+00709KA1120N+00781MA1999999097671MD1610111+9999MW1601REMSYN106AAXX  27064 08027 11560 83214 10082 20082 39767 40076 56011 60202 76062 887// 333 20078 32007 50230 55097;
0171080270999992000042709004+43300-002050FM-12+025999999V0203201N004110006019N0008001N1+00841+00841100831ADDAY161031AY241031GA1091+999999999GF109991091999999999999999MA1999999097741MD1310071+9999MW1611REMSYN066AAXX  27094 08027 41/08 93208 10084 20084 39774 40083 53007 76164;
0178080270999992000042712004+43300-002050FM-12+025999999V0202801N007210075019N0120001N1+00781+00781100891ADDAA106029091AY161061AY241061GF108991081071008001999999MA1999999097791MD1110051+9999MW1631REMSYN078AAXX  27124 08027 11562 82814 10078 20078 39779 40089 51005 60291 76364 887//;
0201080270999992000042718004+43300-002050FM-12+025999999V0203301N004110075019N0040001N1+00861+00821101001ADDAA112042991AY161061AY261061GF107991071071008001999999KA1999M+00961MA1999999097901MD1310071+9999MW1611REMSYN088AAXX  27184 08027 11540 73308 10086 20082 39790 40100 53007 60432 76166 877// 333 10096;
0161080270999992000042721004+43300-002050FM-12+025999999V0203201N007210120019N0300001N1+00941+00691101151ADDAY161031AY221031GF106991061081008001999999MA1999999098061MD1310161+9999MW1011REMSYN072AAXX  27214 08027 41580 63214 10094 20069 39806 40115 53016 70162 868//;
0178080270999992000042800004+43300-002050FM-12+025999999V0202801N005112200019N0200001N1+00801+00581101171ADDAA106004191AY181061AY221061GF104991041021008001001001MA1999999098061MD1410001+9999MW1011REMSYN078AAXX  28004 08027 11570 42810 10080 20058 39806 40117 54000 60041 70182 84200;
0161080270999992000042803004+43300-002050FM-12+025999999V0202401N004110120019N0300001N1+00741+00561101181ADDAY121031AY211031GF107991071081008001999999MA1999999098061MD1410001+9999MW1251REMSYN072AAXX  28034 08027 41580 72408 10074 20056 39806 40118 54000 72521 878//;
0231080270999992000042806004+43300-002050FM-12+025999999V0202501N005110120019N0150001N1+00761+00541101181ADDAA112006191AY181061AY221061GF107991071081008001999999IA1119IA2999+00509KA1120N+00681MA1999999098061MD1410001+9999MW1021REMSYN100AAXX  28064 08027 11565 72510 10076 20054 39806 40118 54000 60062 70282 878// 333 20068 32005 55000;
0133080270999992000042809004+43300-002050FM-12+025999999V0202701N004110120019N0100001N1+00921+00671101251ADDGF107991071081008001999999MA1999999098151MD1310091+9999REMSYN066AAXX  28094 08027 42560 72708 10092 20067 39815 40125 53009 878//;
0178080270999992000042812004+43300-002050FM-12+025999999V0203101N006210120019N0200001N1+01061+00681101231ADDAA106000591AY181061AY221061GF106991061081008001001001MA1999999098151MD1410001+9999MW1011REMSYN078AAXX  28124 08027 11570 63112 10106 20068 39815 40123 54000 69951 70182 86800;
0173080270999992000042818004+43300-002050FM-12+025999999V0203401N002110120019N0300001N1+01021+00641101321ADDAA112000591GF105991051081008001999999KA1999M+01241MA1999999098231MD1410001+9999REMSYN082AAXX  28184 08027 12580 53404 10102 20064 39823 40132 54000 69952 858// 333 10124;
0133080270999992000042821004+43300-002050FM-12+025999999V0201601N003112200019N0200001N1+00861+00601101341ADDGF102991021041008001001001MA1999999098231MD1410001+9999REMSYN066AAXX  28214 08027 42570 21606 10086 20060 39823 40134 54000 82400;
0163080270999992000042900004+43300-002050FM-12+025999999V0201601N006212200019N0200001N1+00921+00481101291ADDAA199000091GF102991011041008001041001MA1999999098191MD1810041+9999REMSYN066AAXX  29004 08027 32570 21612 10092 20048 39819 40129 58004 81440;EQDQ01  00002PRCP99
0133080270999992000042903004+43300-002050FM-12+025999999V0201601N006210360019N0200001N1+01001+00371101161ADDGF106991021071008001071001MA1999999098071MD1610121+9999REMSYN066AAXX  29034 08027 42570 61612 10100 20037 39807 40116 56012 82770;
0222080270999992000042906004+43300-002050FM-12+025999999V0201601N005110360019N0300001N1+01041+00371101151ADDAA199000091GF106991011041008001071081IA1099IA2999+00709KA1120N+00741MA1999999098061MD1510011+9999REMSYN094AAXX  29064 08027 32580 61610 10104 20037 39806 40115 55001 81478 333 20074 31007 50260 55061;EQDQ01  00002PRCP99
0133080270999992000042909004+43300-002050FM-12+025999999V0201601N005110360019N0300001N1+01361+00461101111ADDGF107991011011008001071011MA1999999098061MD1410001+9999REMSYN066AAXX  29094 08027 42580 71610 10136 20046 39806 40111 54000 81171;
0163080270999992000042912004+43300-002050FM-12+025999999V0201601N009810360019N0400001N1+01701+00151101081ADDAA199000091GF107991021041008001071999MA1999999098061MD1410001+9999REMSYN066AAXX  29124 08027 32582 71619 10170 20015 39806 40108 54000 8247/;EQDQ01  00002PRCP99
0186080270999992000042918004+43300-002050FM-12+025999999V0201501N008712200019N0300001N1+01741+00511101071ADDAA199000091GF103991021081008001001011KA1999M+01881MA1999999098061MD1510001+9999REMSYN076AAXX  29184 08027 32580 31517 10174 20051 39806 40107 55000 82801 333 10188;EQDQ01  00002PRCP99
0133080270999992000042921004+43300-002050FM-12+025999999V0201501N008210360019N0300001N1+01561+00411101211ADDGF105991031051008001071001MA1999999098181MD1210121+9999REMSYN066AAXX  29214 08027 42580 51516 10156 20041 39818 40121 52012 83570;
0163080270999992000043000004+43300-002050FM-12+025999999V0201501N012310360019N0250001N1+01561+00471101211ADDAA199000091GF106991031051008001071011MA1999999098181MD1010001+9999REMSYN066AAXX  30004 08027 32575 61524 10156 20047 39818 40121 50000 83571;EQDQ01  00002PRCP99
0133080270999992000043003004+43300-002050FM-12+025999999V0201501N010810360019N0250001N1+01501+00601101221ADDGF106991031051008001071001MA1999999098181MD1510001+9999REMSYN066AAXX  30034 08027 42575 61521 10150 20060 39818 40122 55000 83570;
0222080270999992000043006004+43300-002050FM-12+025999999V0201501N009810360019N0300001N1+01481+00671101271ADDAA199000091GF107991021051012501071001IA1099IA2999+01209KA1120N+01401MA1999999098231MD1210051+9999REMSYN094AAXX  30064 08027 32680 71519 10148 20067 39823 40127 52005 82570 333 20140 31012 50510 55077;EQDQ01  00002PRCP99
0133080270999992000043009004+43300-002050FM-12+025999999V0201601N009810360019N0300001N1+01681+00681101371ADDGF106991031051012501071001MA1999999098351MD1110121+9999REMSYN066AAXX  30094 08027 42680 61619 10168 20068 39835 40137 51012 83570;
0163080270999992000043012004+43300-002050FM-12+025999999V0201501N008710900019N0400001N1+01941+00581101341ADDAA199000091GF105991011011008001071081MA1999999098341MD1810011+9999REMSYN066AAXX  30124 08027 32582 51517 10194 20058 39834 40134 58001 81178;EQDQ01  00002PRCP99
0186080270999992000043018004+43300-002050FM-12+025999999V0201601N007710900019N0300001N1+01861+00461101311ADDAA199000091GF107991031001017501071081KA1999M+02161MA1999999098311MD1410001+9999REMSYN076AAXX  30184 08027 32780 71615 10186 20046 39831 40131 54000 83078 333 10216;EQDQ01  00002PRCP99
0133080270999992000043021004+43300-002050FM-12+025999999V0201501N006212200019N0300001N1+01701+00391101371ADDGF104991011001017501041011MA1999999098351MD1310041+9999REMSYN066AAXX  30214 08027 42780 41512 10170 20039 39835 40137 53004 81041;
0163080270999992000050100004+43300-002050FM-12+025999999V0201501N007212200019N0300001N1+01661+00451101341ADDAA199000091GF104991011001017501041011MA1999999098311MD1810041+9999REMSYN066AAXX  01004 08027 32780 41514 10166 20045 39831 40134 58004 81041;EQDQ01  00002PRCP99
0133080270999992000050103004+43300-002050FM-12+025999999V0201501N008712200019N0300001N1+01621+00441101291ADDGF105991031001017501051011MA1999999098261MD1810051+9999REMSYN066AAXX  01034 08027 42780 51517 10162 20044 39826 40129 58005 83051;
0222080270999992000050106004+43300-002050FM-12+025999999V0201101N003112200019N0300001N1+01521+00521101311ADDAA199000091GF106991041001017501071011IA1099IA2999+01309KA1120N+01501MA1999999098271MD1310011+9999REMSYN094AAXX  01064 08027 32780 61106 10152 20052 39827 40131 53001 84071 333 20150 31013 50580 55040;EQDQ01  00002PRCP99
0133080270999992000050109004+43300-002050FM-12+025999999V0201301N002610900019N0300001N1+01941+00641101311ADDGF107991011001017501041071MA1999999098311MD1110041+9999REMSYN066AAXX  01094 08027 42780 71305 10194 20064 39831 40131 51004 81047;
0163080270999992000050112004+43300-002050FM-12+025999999V0200201N005119999999N0300001N1+01941+00981101251ADDAA199000091GF106991001001999999001071MA1999999098261MD1810051+9999REMSYN066AAXX  01124 08027 32980 60210 10194 20098 39826 40125 58005 80007;EQDQ01  00002PRCP99
0186080270999992000050118004+43300-002050FM-12+025999999V0203401N003119999999N0300001N1+01681+01131101191ADDAA199000091GF105991001001999999001071KA1999M+02081MA1999999098181MD1510011+9999REMSYN076AAXX  01184 08027 32980 53406 10168 20113 39818 40119 55001 80007 333 10208;EQDQ01  00002PRCP99
0133080270999992000050121004+43300-002050FM-12+025999999V0202201N001012200019N0300001N1+01621+01151101251ADDGF103991001001999999001071MA1999999098231MD1310051+9999REMSYN066AAXX  01214 08027 42980 32202 10162 20115 39823 40125 53005 80007;
0173080270999992000050200004+43300-002050FM-12+025999999V0201601N002112200019N0300001N1+01581+01181101251ADDAA199000091GA1001+999999999GF100991001001999999001001MA1999999098221MD1710011+9999REMSYN060AAXX  02004 08027 32980 01604 10158 20118 39822 40125 57001;EQDQ01  00002PRCP99
0133080270999992000050203004+43300-002050FM-12+025999999V0202001N005110150019N0200001N1+01661+00901101211ADDGF108991081001017501071999MA1999999098191MD1610031+9999REMSYN066AAXX  02034 08027 42770 82010 10166 20090 39819 40121 56003 8807/;
0222080270999992000050206004+43300-002050FM-12+025999999V0201801N005110150019N0150001N1+01721+00741101251ADDAA199000091GF106991061001017501071999IA1099IA2999+01109KA1120N+01501MA1999999098231MD1310041+9999REMSYN094AAXX  02064 08027 32765 61810 10172 20074 39823 40125 53004 8607/ 333 20150 31011 50470 55097;EQDQ01  00002PRCP99
0133080270999992000050209004+43300-002050FM-12+025999999V0209999C000010150019N0200001N1+01941+01071101301ADDGF108991081001017501071999MA1999999098311MD1210081+9999REMSYN066AAXX  02094 08027 42770 80000 10194 20107 39831 40130 52008 8807/;
0163080270999992000050212004+43300-002050FM-12+025999999V0203401N004110900019N0200001N1+02041+00731101341ADDAA199000091GF106991021011008001001071MA1999999098351MD1110041+9999REMSYN066AAXX  02124 08027 32570 63408 10204 20073 39835 40134 51004 82107;EQDQ01  00002PRCP99
0186080270999992000050218004+43300-002050FM-12+025999999V0203201N001010360019N0200001N1+01861+01181101311ADDAA199000091GF107991011011008001071011KA1999M+02141MA1999999098311MD1210011+9999REMSYN076AAXX  02184 08027 32570 73202 10186 20118 39831 40131 52001 81171 333 10214;EQDQ01  00002PRCP99
0161080270999992000050221004+43300-002050FM-12+025999999V0203001N005112200019N0050001N1+01361+01321101511ADDAY111031AY201031GF103991031061004501001001MA1999999098461MD1310151+9999MW1101REMSYN072AAXX  02214 08027 41450 33010 10136 20132 39846 40151 53015 71010 83600;
0173080270999992000050300004+43300-002050FM-12+025999999V0201601N002112200019N0150001N1+01321+01171101491ADDAA199000091GA1001+999999999GF100991001001999999001001MA1999999098431MD1710031+9999REMSYN060AAXX  03004 08027 32965 01604 10132 20117 39843 40149 57003;EQDQ01  00002PRCP99
0143080270999992000050303004+43300-002050FM-12+025999999V0201401N002112200019N0150001N1+01361+00981101401ADDGA1001+999999999GF100991001001999999001001MA1999999098351MD1710081+9999REMSYN060AAXX  03034 08027 42965 01404 10136 20098 39835 40140 57008;
0222080270999992000050306004+43300-002050FM-12+025999999V0209999C000012200019N0100001N1+01341+01001101411ADDAA199000091GF105991031001017501081011IA1099IA2999+00909KA1120N+01261MA1999999098351MD1410001+9999REMSYN094AAXX  03064 08027 32760 50000 10134 20100 39835 40141 54000 83081 333 20126 31009 50330 55088;EQDQ01  00002PRCP99
0161080270999992000050309004+43300-002050FM-12+025999999V0201401N002112200019N0030001N1+01841+01071101351ADDAY111031AY211031GF105991021061001501001011MA1999999098351MD1410001+9999MW1111REMSYN072AAXX  03094 08027 41230 51404 10184 20107 39835 40135 54000 71111 82601;
0191080270999992000050312004+43300-002050FM-12+025999999V0203601N003119999999N0040001N1+01861+01451101261ADDAA199000091AY121061AY201061GF107991001001999999001011MA1999999098271MD1810081+9999MW1051REMSYN072AAXX  03124 08027 31940 73606 10186 20145 39827 40126 58008 70520 80001;EQDQ01  00002PRCP99
0214080270999992000050318004+43300-002050FM-12+025999999V0200701N003119999999N0050001N1+02201+01431101011ADDAA199000091AY121061AY221061GF107991001001999999001081KA1999M+02461MA1999999098061MD1710121+9999MW1051REMSYN082AAXX  03184 08027 31950 70706 10220 20143 39806 40101 57012 70522 80008 333 10246;EQDQ01  00002PRCP99
0133080270999992000050321004+43300-002050FM-12+025999999V0202401N003119999999N0100001N1+02141+00971101121ADDGF107991001001999999001081MA1999999098151MD1310091+9999REMSYN066AAXX  03214 08027 42960 72406 10214 20097 39815 40112 53009 80008;
0163080270999992000050400004+43300-002050FM-12+025999999V0201501N003119999999N0100001N1+02021+00991101051ADDAA199000091GF106991001001999999001081MA1999999098071MD1810081+9999REMSYN066AAXX  04004 08027 32960 61506 10202 20099 39807 40105 58008 80008;EQDQ01  00002PRCP99
0133080270999992000050403004+43300-002050FM-12+025999999V0201501N012910150019N0100001N1+02101+00501100911ADDGF107991071001017501071999MA1999999097941MD1810131+9999REMSYN066AAXX  04034 08027 42760 71525 10210 20050 39794 40091 58013 8707/;
0237080270999992000050406004+43300-002050FM-12+025999999V0201601N010810360019N0050001N1+02041+00341100931ADDAA112000791AY181061AY221061GF107991021061002501081071IA1019IA2999+01709KA1120N+01921MA1999999097951MD1310011+9999MW1051REMSYN106AAXX  04064 08027 11350 71621 10204 20034 39795 40093 53001 69902 70582 82687 333 20192 30017 50510 55087;
0161080270999992000050409004+43300-002050FM-12+025999999V0201501N015910021019N0050001N1+02001+00401100811ADDAY121031AY221031GF108991081061002501999999MA1999999097831MD1810121+9999MW1051REMSYN072AAXX  04094 08027 41350 81531 10200 20040 39783 40081 58012 70522 886//;
0191080270999992000050412004+43300-002050FM-12+025999999V0201601N002110360019N0050001N1+02001+00731100921ADDAA199000091AY121061AY221061GF108991021061002501071999MA1999999097941MD1310111+9999MW1051REMSYN072AAXX  04124 08027 31350 81604 10200 20073 39794 40092 53011 70522 8267/;EQDQ01  00002PRCP99
0186080270999992000050418004+43300-002050FM-12+025999999V0200601N003610360019N0100001N1+01981+01401100721ADDAA199000091GF108991011051008001071999KA1999M+02161MA1999999097751MD1710121+9999REMSYN076AAXX  04184 08027 32560 80607 10198 20140 39775 40072 57012 8157/ 333 10216;EQDQ01  00002PRCP99
0161080270999992000050421004+43300-002050FM-12+025999999V0201601N006210360019N0100001N1+01821+01221100891ADDAY191031AY221031GF108991021051008001021999MA1999999097901MD1310151+9999MW1601REMSYN072AAXX  04214 08027 41560 81612 10182 20122 39790 40089 53015 76092 8252/;
0150080270999992000050500004+43300-002050FM-12+025999999V0209999C000010360019N0100001N1+01541+01331100961ADDAA106000791GF106991031051008001071001MA1999999097941MD1210041+9999REMSYN072AAXX  05004 08027 12560 60000 10154 20133 39794 40096 52004 69901 83570;
0133080270999992000050503004+43300-002050FM-12+025999999V0201501N005112200019N0150001N1+01561+01081100881ADDGF102991021051008001001001MA1999999097861MD1610081+9999REMSYN066AAXX  05034 08027 42565 21510 10156 20108 39786 40088 56008 82500;
0209080270999992000050506004+43300-002050FM-12+025999999V0201701N006212200019N0300001N1+01601+00911100801ADDAA112000791GF101991011001022501071001IA1019IA2999+01309KA1120N+01501MA1999999097791MD1610071+9999REMSYN100AAXX  05064 08027 12880 11712 10160 20091 39779 40080 56007 69902 81070 333 20150 30013 50370 55005;
0133080270999992000050509004+43300-002050FM-12+025999999V0201201N002612200019N0300001N1+02081+01071100771ADDGF101991001001999999001011MA1999999097811MD1310021+9999REMSYN066AAXX  05094 08027 42980 11205 10208 20107 39781 40077 53002 80001;
0163080270999992000050512004+43300-002050FM-12+025999999V0201201N002112200019N0300001N1+02301+01191100751ADDAA199000091GF104991031081008001001011MA1999999097811MD1010001+9999REMSYN066AAXX  05124 08027 32580 41204 10230 20119 39781 40075 50000 83801;EQDQ01  00002PRCP99
0201080270999992000050518004+43300-002050FM-12+025999999V0200901N002610075019N0260001N1+01261+01151100921ADDAA112026991AY191061AY281061GF107991061071008001041011KA1999M+02341MA1999999097871MD1310181+9999MW1601REMSYN088AAXX  05184 08027 11576 70905 10126 20115 39787 40092 53018 60272 76098 86741 333 10234;
0161080270999992000050521004+43300-002050FM-12+025999999V0202001N002110120019N0300001N1+01281+01051100991ADDAY161031AY221031GF107991061081008001041001MA1999999097941MD1310071+9999MW1021REMSYN072AAXX  05214 08027 41580 72004 10128 20105 39794 40099 53007 70262 86840;
0150080270999992000050600004+43300-002050FM-12+025999999V0201701N005110120019N0300001N1+01401+01021100911ADDAA106000891GF108991061081008001071999MA1999999097871MD1610071+9999REMSYN072AAXX  06004 08027 12580 81710 10140 20102 39787 40091 56007 69981 8687/;
0133080270999992000050603004+43300-002050FM-12+025999999V0201701N005112200019N0300001N1+01421+00961100861ADDGF103991011051012501041999MA1999999097831MD1610041+9999REMSYN066AAXX  06034 08027 42680 31710 10142 20096 39783 40086 56004 8154/;
0209080270999992000050606004+43300-002050FM-12+025999999V0201801N004612200019N0300001N1+01401+00941100951ADDAA112000891GF103991021051012501041011IA1099IA2999+01109KA1120N+01221MA1999999097911MD1310081+9999REMSYN100AAXX  06064 08027 12680 31809 10140 20094 39791 40095 53008 69982 82541 333 20122 31011 51110 55090;
0133080270999992000050609004+43300-002050FM-12+025999999V0209999V001510360019N0120001N1+01681+01291101001ADDGF105991041011012501071011MA1999999097991MD1210081+9999REMSYN066AAXX  06094 08027 42662 59903 10168 20129 39799 40100 52008 84171;
0191080270999992000050612004+43300-002050FM-12+025999999V0203201N004610360019N0050001N1+01581+01261101041ADDAA199000091AY121061AY221061GF105991041021004501041011MA1999999098021MD1310031+9999MW1101REMSYN072AAXX  06124 08027 31450 53209 10158 20126 39802 40104 53003 71022 84241;EQDQ01  00002PRCP99
0230080270999992000050618004+43300-002050FM-12+025999999V0203401N001010001519N0001001N1+01501+01251100961ADDAA199000091AY141061AY221061GA1091+000159999GF109991091999999999999999KA1120M+01781MA1999999097941MD1710051+9999MW1471REMSYN082AAXX  06184 08027 31/01 93402 10150 20125 39794 40096 57005 74742 333 10178 89/00;EQDQ01  00002PRCP99
0161080270999992000050621004+43300-002050FM-12+025999999V0201601N001512200019N0040001N1+01281+01211101111ADDAY121031AY221031GF103991031061004501001001MA1999999098061MD1210121+9999MW1101REMSYN072AAXX  06214 08027 41440 31603 10128 20121 39806 40111 52012 71022 83600;
0191080270999992000050700004+43300-002050FM-12+025999999V0209999C000010021019N0020001N1+01221+01181101131ADDAA199000091AY121061AY221061GF108991081061002501999999MA1999999098071MD1110011+9999MW1101REMSYN072AAXX  07004 08027 31320 80000 10122 20118 39807 40113 51001 71022 886//;EQDQ01  00002PRCP99
0181080270999992000050703004+43300-002050FM-12+025999999V0203201N001010001519N0001001N1+01201+01201101091ADDAY141031AY221031GA1091+000159999GF109991091999999999999999MA1999999098031MD1610041+9999MW1471REMSYN076AAXX  07034 08027 41/01 93202 10120 20120 39803 40109 56004 74742 333 89/00;
0251080270999992000050706004+43300-002050FM-12+025999999V0202001N001010021019N0015001N1+01201+01201101131ADDAA112000191AY141061AY221061GF108991081061002501999999GJ103969IA1099IA2999+01009KA1120N+01161MA1999999098071MD1210041+9999MW1201REMSYN112AAXX  07064 08027 11315 82002 10120 20120 39807 40113 52004 69922 72042 886// 333 20116 31010 50210 55066 96010;
0171080270999992000050709004+43300-002050FM-12+025999999V0201201N002110021019N0012001N1+01341+01341101201ADDAY151031AY241031GF108991081071002501999999MA1999999098161MD1310081+9999MW1501REMSYN082AAXX  07094 08027 41312 81204 10134 20134 39816 40120 53008 75054 887// 333 96010;
0178080270999992000050712004+43300-002050FM-12+025999999V0203401N003110360019N0040001N1+01501+01321101181ADDAA106000791AY151061AY221061GF107991041081008001081011MA1999999098151MD1410001+9999MW1101REMSYN078AAXX  07124 08027 11540 73406 10150 20132 39815 40118 54000 69901 71052 84881;
0223080270999992000050718004+43300-002050FM-12+025999999V0203201N003110001519N0009001N1+01361+01321101201ADDAA112014091AY191061AY241061GA1091+000159999GF109991091999999999999999KA1120M+01661MA1999999098151MD1010081+9999MW1601REMSYN094AAXX  07184 08027 11/09 93206 10136 20132 39815 40120 50008 60142 76094 333 10166 89/00 96047;
0161080270999992000050721004+43300-002050FM-12+025999999V0201401N004110360019N0080001N1+01321+01251101241ADDAY151031AY221031GF105991031061004501081001MA1999999098191MD1310041+9999MW1101REMSYN072AAXX  07214 08027 41458 51408 10132 20125 39819 40124 53004 71052 83680;
0172080270999992000050800004+43300-002050FM-12+025999999V0209999C000010360019N0080001N1+01261+01191101331ADDAA199000021AY121061AY221061GF107991031061004501071999MA1999999098271MD1110081+9999MW1101REMSYN072AAXX  08004 08027 31458 70000 10126 20119 39827 40133 51008 71022 8367/;
0161080270999992000050803004+43300-002050FM-12+025999999V0201601N001512200019N0050001N1+01181+01141101221ADDAY111031AY201031GF101991011001017501041001MA1999999098151MD1610121+9999MW1101REMSYN072AAXX  08034 08027 41750 11603 10118 20114 39815 40122 56012 71010 81040;
0203080270999992000050806004+43300-002050FM-12+025999999V0201601N007210120019N0300001N1+01321+01021101161ADDAA199000021GF107991051081008001071999IA1119IA2999+00909KA1120N+01161MA1999999098111MD1710041+9999REMSYN094AAXX  08064 08027 32580 71614 10132 20102 39811 40116 57004 8587/ 333 20116 32009 50320 55035;
0161080270999992000050809004+43300-002050FM-12+025999999V0202001N003610360019N0200001N1+01541+01181101411ADDAY151031AY221031GF108991041081008001071999MA1999999098381MD1110151+9999MW1031REMSYN072AAXX  08094 08027 41570 82007 10154 20118 39838 40141 51015 70352 8487/;
0178080270999992000050812004+43300-002050FM-12+025999999V0201601N004110120019N0250001N1+02041+01231101361ADDAA106000791AY151061AY221061GF107991051081008001071999MA1999999098381MD1410001+9999MW1011REMSYN078AAXX  08124 08027 11575 71608 10204 20123 39838 40136 54000 69901 70152 8587/;
0201080270999992000050818004+43300-002050FM-12+025999999V0200801N005110360019N0250001N1+01561+01271101341ADDAA112001091AY181061AY221061GF108991041081008001071999KA1999M+02201MA1999999098311MD1310041+9999MW1211REMSYN088AAXX  08184 08027 11575 80810 10156 20127 39831 40134 53004 69992 72182 8487/ 333 10220;
0133080270999992000050821004+43300-002050FM-12+025999999V0202001N002612200019N0250001N1+01561+01121101421ADDGF104991011051008001071001MA1999999098391MD1310081+9999REMSYN066AAXX  08214 08027 42575 42005 10156 20112 39839 40142 53008 81570;
0172080270999992000050900004+43300-002050FM-12+025999999V0202001N003112200019N0012001N1+01361+01251101441ADDAA199000021AY111061AY211061GF104991041061001501001001MA1999999098391MD1010001+9999MW1101REMSYN072AAXX  09004 08027 31212 42006 10136 20125 39839 40144 50000 71011 84600;
0161080270999992000050903004+43300-002050FM-12+025999999V0202501N004112200019N0250001N1+01341+01121101351ADDAY141031AY201031GF102991011061002501071001MA1999999098301MD1710091+9999MW1011REMSYN072AAXX  09034 08027 41375 22508 10134 20112 39830 40135 57009 70140 81670;
0203080270999992000050906004+43300-002050FM-12+025999999V0201301N002112200019N0150001N1+01281+01131101371ADDAA199000021GF103991011001022501081011IA1099IA2999+01009KA1120N+01241MA1999999098311MD1210011+9999REMSYN094AAXX  09064 08027 32865 31304 10128 20113 39831 40137 52001 81081 333 20124 31010 50280 55037;
0133080270999992000050909004+43300-002050FM-12+025999999V0203301N003612200019N0150001N1+01541+01251101381ADDGF103991011011008001081011MA1999999098351MD1010041+9999REMSYN066AAXX  09094 08027 42565 33307 10154 20125 39835 40138 50004 81181;
0201080270999992000050912004+43300-002050FM-12+025999999V0203401N004110001519N0001001N1+01441+01371101391ADDAA199000091AY141061AY211061GA1091+999999999GF109991091999999999999999MA1999999098351MD1010001+9999MW1451REMSYN066AAXX  09124 08027 31/01 93408 10144 20137 39835 40139 50000 74541;EQDQ01  00002PRCP99
0214080270999992000050918004+43300-002050FM-12+025999999V0201801N002110120019N0040001N1+01441+01261101231ADDAA199000091AY141061AY221061GF107991061081008001021999KA1999M+01701MA1999999098191MD1710071+9999MW1101REMSYN082AAXX  09184 08027 31540 71804 10144 20126 39819 40123 57007 71042 8682/ 333 10170;EQDQ01  00002PRCP99
0181080270999992000050921004+43300-002050FM-12+025999999V0203101N004110001519N0002001N1+01341+01341101311ADDAY121031AY221031GA1091+000159999GF109991091999999999999999MA1999999098261MD1310071+9999MW1451REMSYN076AAXX  09214 08027 41/02 93108 10134 20134 39826 40131 53007 74522 333 89/00;
0198080270999992000051000004+43300-002050FM-12+025999999V0203001N002110001519N0001001N1+01341+01341101281ADDAA106002091AY141061AY221061GA1091+000159999GF109991091999999999999999MA1999999098231MD1810031+9999MW1801REMSYN082AAXX  10004 08027 11/01 93004 10134 20134 39823 40128 58003 60021 78042 333 89/00;
0181080270999992000051003004+43300-002050FM-12+025999999V0202801N002110001519N0009001N1+01321+01281101201ADDAY181031AY241031GA1091+000159999GF109991091999999999999999MA1999999098151MD1710081+9999MW1431REMSYN076AAXX  10034 08027 41/09 92804 10132 20128 39815 40120 57008 74384 333 89/00;
0237080270999992000051006004+43300-002050FM-12+025999999V0202601N001010120019N0010001N1+01321+01251101191ADDAA112003091AY181061AY241061GF107991061081008001051999IA1119IA2999+01109KA1120N+01281MA1999999098141MD1510011+9999MW1101REMSYN106AAXX  10064 08027 11510 72602 10132 20125 39814 40119 55001 60032 71084 8685/ 333 20128 32011 50300 55080;
0161080270999992000051009004+43300-002050FM-12+025999999V0203501N002110120019N0020001N1+01641+01401101151ADDAY141031AY221031GF106991051081008001071999MA1999999098141MD1410001+9999MW1101REMSYN072AAXX  10094 08027 41520 63504 10164 20140 39814 40115 54000 71042 8587/;
0192080270999992000051012004+43300-002050FM-12+025999999V0203401N006210001519N0008001N1+01461+01391101171ADDAA199000021AY141061AY221061GA1091+000159999GF109991091999999999999999MA1999999098141MD1410001+9999MW1471REMSYN076AAXX  10124 08027 31/08 93412 10146 20139 39814 40117 54000 74742 333 89/00;
0214080270999992000051018004+43300-002050FM-12+025999999V0203101N004110042019N0050001N1+01421+01311101181ADDAA199000091AY121061AY221061GF108991081071004501999999KA1999M+01741MA1999999098141MD1310031+9999MW1101REMSYN082AAXX  10184 08027 31450 83108 10142 20131 39814 40118 53003 71022 887// 333 10174;EQDQ01  00002PRCP99
0133080270999992000051021004+43300-002050FM-12+025999999V0203101N003110075019N0100001N1+01341+01301101241ADDGF106991061071008001999999MA1999999098191MD1110051+9999REMSYN066AAXX  10214 08027 42560 63106 10134 20130 39819 40124 51005 867//;
0178080270999992000051100004+43300-002050FM-12+025999999V0203001N002110042019N0050001N1+01321+01281101281ADDAA106000791AY121061AY221061GF108991081071004501999999MA1999999098231MD1210041+9999MW1501REMSYN078AAXX  11004 08027 11450 83004 10132 20128 39823 40128 52004 69901 75022 887//;
0161080270999992000051103004+43300-002050FM-12+025999999V0209999C000010075019N0600001N1+01301+01261101231ADDAY151031AY221031GF108991081061008001999999MA1999999098181MD1710051+9999MW1021REMSYN072AAXX  11034 08027 41586 80000 10130 20126 39818 40123 57005 70252 886//;
0237080270999992000051106004+43300-002050FM-12+025999999V0202901N001510042019N0050001N1+01321+01281101321ADDAA112000191AY121061AY221061GF108991081061004501999999IA1099IA2999+01209KA1120N+01261MA1999999098271MD1310091+9999MW1101REMSYN106AAXX  11064 08027 11450 82903 10132 20128 39827 40132 53009 69922 71022 886// 333 20126 31012 50200 55054;
0161080270999992000051109004+43300-002050FM-12+025999999V0203101N003610042019N0030001N1+01281+01241101411ADDAY141031AY221031GF108991081061004501999999MA1999999098351MD1110081+9999MW1101REMSYN072AAXX  11094 08027 41430 83107 10128 20124 39835 40141 51008 71042 886//;
0172080270999992000051112004+43300-002050FM-12+025999999V0203501N002110042019N0060001N1+01381+01231101481ADDAA199000021AY121061AY221061GF108991081061004501999999MA1999999098431MD1110081+9999MW1101REMSYN072AAXX  11124 08027 31456 83504 10138 20123 39843 40148 51008 71022 886//;
0201080270999992000051118004+43300-002050FM-12+025999999V0203201N003110042019N0120001N1+01401+01261101591ADDAA112000591AY161061AY221061GF108991081061004501999999KA1999M+01661MA1999999098541MD1310071+9999MW1021REMSYN088AAXX  11184 08027 11462 83206 10140 20126 39854 40159 53007 69942 70262 886// 333 10166;
0161080270999992000051121004+43300-002050FM-12+025999999V0201301N001010042019N0100001N1+01391+01301101801ADDAY161031AY221031GF108991081061004501999999MA1999999098741MD1210201+9999MW1601REMSYN072AAXX  11214 08027 41460 81302 10139 20130 39874 40180 52020 76062 886//;
0178080270999992000051200004+43300-002050FM-12+025999999V0201401N003112200019N0150001N1+01301+01231101811ADDAA106001091AY161061AY221061GF104991041061008001001001MA1999999098741MD1010001+9999MW1011REMSYN078AAXX  12004 08027 11565 41406 10130 20123 39874 40181 50000 60011 70162 84600;
0133080270999992000051203004+43300-002050FM-12+025999999V0201401N003112200019N0150001N1+01301+01231101811ADDGF104991041061008001001001MA1999999098741MD1410001+9999REMSYN066AAXX  12034 08027 42565 41406 10130 20123 39874 40181 54000 84600;
0237080270999992000051206004+43300-002050FM-12+025999999V0201401N001010120019N0009001N1+01281+01241101811ADDAA112000891AY141061AY221061GF106991061081008001001001IA1099IA2999+00909KA1120N+01221MA1999999098741MD1410001+9999MW1421REMSYN106AAXX  12064 08027 11509 61402 10128 20124 39874 40181 54000 69982 74242 86800 333 20122 31009 50030 55004;
0133080270999992000051209004+43300-002050FM-12+025999999V0209999V001012200019N0650001N1+01661+01491101821ADDGF104991041081008001001001MA1999999098791MD1110051+9999REMSYN066AAXX  12094 08027 42587 49902 10166 20149 39879 40182 51005 84800;
0163080270999992000051212004+43300-002050FM-12+025999999V0200201N004110360019N0200001N1+01761+01181101811ADDAA199000091GF106991041081004501071001MA1999999098791MD1410001+9999REMSYN066AAXX  12124 08027 32470 60208 10176 20118 39879 40181 54000 84870;EQDQ01  00002PRCP99
0186080270999992000051218004+43300-002050FM-12+025999999V0201601N002110360019N0200001N1+01681+01401101701ADDAA199000091GF106991041081004501071999KA1999M+01961MA1999999098671MD1710111+9999REMSYN076AAXX  12184 08027 32470 61604 10168 20140 39867 40170 57011 8487/ 333 10196;EQDQ01  00002PRCP99
0161080270999992000051221004+43300-002050FM-12+025999999V0201401N005112200019N0050001N1+01461+01281101801ADDAY191031AY281031GF103991031081008001999999MA1999999098751MD1210081+9999MW1101REMSYN072AAXX  12214 08027 41550 31410 10146 20128 39875 40180 52008 71098 838//;
0160080270999992000051300004+43300-002050FM-12+025999999V0203001N003112200019N0100001N1+01461+01281101841ADDAA106000591GA1001+999999999GF100991001001999999001001MA1999999098791MD1210041+9999REMSYN066AAXX  13004 08027 12960 03006 10146 20128 39879 40184 52004 69941;
0143080270999992000051303004+43300-002050FM-12+025999999V0201601N002112200019N0100001N1+01361+01181101821ADDGA1001+999999999GF100991001001999999001001MA1999999098751MD1710041+9999REMSYN060AAXX  13034 08027 42960 01604 10136 20118 39875 40182 57004;
0219080270999992000051306004+43300-002050FM-12+025999999V0201601N004112200019N0300001N1+01521+00991101841ADDAA112000591GA1001+999999999GF100991001001999999001001IA1099IA2999+00909KA1120N+01121MA1999999098791MD1210041+9999REMSYN094AAXX  13064 08027 12980 01608 10152 20099 39879 40184 52004 69942 333 20112 31009 50200 55043;
0143080270999992000051309004+43300-002050FM-12+025999999V0201601N002112200019N0400001N1+02141+01271101851ADDGA1001+999999999GF100991001001999999001001MA1999999098861MD1210071+9999REMSYN060AAXX  13094 08027 42982 01604 10214 20127 39886 40185 52007;
0179080270999992000051312004+43300-002050FM-12+025999999V0200201N003612200019N0350001N1+02081+01111101821ADDAA199000091GF101991001001999999001011MA1999999098831MD1810031+9999REMSYN066AAXX  13124 08027 32581 10207 10208 20111 39883 40182 58003 80001;EQDQ01+008002SCOLCBQ02  00002PRCP99
0186080270999992000051318004+43300-002050FM-12+025999999V0200201N004112200019N0250001N1+02021+01081101791ADDAA199000091GF106991011011008001001011KA1999M+02341MA1999999098791MD1710031+9999REMSYN076AAXX  13184 08027 32575 60208 10202 20108 39879 40179 57003 81101 333 10234;EQDQ01  00002PRCP99
0133080270999992000051321004+43300-002050FM-12+025999999V0200801N003112200019N0300001N1+01861+01221101891ADDGF103991001001999999001011MA1999999098871MD1310081+9999REMSYN066AAXX  13214 08027 42980 30806 10186 20122 39887 40189 53008 80001;
0163080270999992000051400004+43300-002050FM-12+025999999V0201601N002112200019N0300001N1+01781+01211101891ADDAA199000091GF103991001001999999001011MA1999999098871MD1410001+9999REMSYN066AAXX  14004 08027 32980 31604 10178 20121 39887 40189 54000 80001;EQDQ01  00002PRCP99
0133080270999992000051403004+43300-002050FM-12+025999999V0201601N003112200019N0250001N1+01741+01201101821ADDGF103991001001999999001011MA1999999098791MD1810081+9999REMSYN066AAXX  14034 08027 42975 31606 10174 20120 39879 40182 58008 80001;
0222080270999992000051406004+43300-002050FM-12+025999999V0201501N003110900019N0200001N1+01841+01161101801ADDAA199000091GF107991011001017501081071IA1099IA2999+01209KA1120N+01681MA1999999098781MD1510011+9999REMSYN094AAXX  14064 08027 32770 71506 10184 20116 39878 40180 55001 81087 333 20168 31012 50060 55136;EQDQ01  00002PRCP99
0133080270999992000051409004+43300-002050FM-12+025999999V0201701N002119999999N0200001N1+02361+01541101771ADDGF107991001001999999001071MA1999999098811MD1310031+9999REMSYN066AAXX  14094 08027 42970 71704 10236 20154 39881 40177 53003 80007;
0163080270999992000051412004+43300-002050FM-12+025999999V0200301N005110900019N0150001N1+02381+01521101741ADDAA199000091GF107991011011008001001021MA1999999098781MD1810031+9999REMSYN066AAXX  14124 08027 32565 70310 10238 20152 39878 40174 58003 81102;EQDQ01  00002PRCP99
0186080270999992000051418004+43300-002050FM-12+025999999V0203201N003612200019N0150001N1+01901+01801101661ADDAA199000091GF102991001001999999001011KA1999M+02601MA1999999098661MD1610041+9999REMSYN076AAXX  14184 08027 32965 23207 10190 20180 39866 40166 56004 80001 333 10260;EQDQ01  00002PRCP99
0171080270999992000051421004+43300-002050FM-12+025999999V0203101N005710001519N0001001N1+01461+01461101841ADDAY141031AY241031GA1091+999999999GF109991091999999999999999MA1999999098791MD1210131+9999MW1451REMSYN066AAXX  14214 08027 41/01 93111 10146 20146 39879 40184 52013 74544;
0201080270999992000051500004+43300-002050FM-12+025999999V0202901N002110001519N0001001N1+01421+01421101921ADDAA199000091AY141061AY241061GA1091+999999999GF109991091999999999999999MA1999999098861MD1110071+9999MW1451REMSYN066AAXX  15004 08027 31/01 92904 10142 20142 39886 40192 51007 74544;EQDQ01  00002PRCP99
0171080270999992000051503004+43300-002050FM-12+025999999V0200401N002110003019N0002001N1+01491+01401101851ADDAY141031AY241031GA1091+999999999GF109991091999999999999999MA1999999098791MD1610071+9999MW1451REMSYN066AAXX  15034 08027 41/02 90404 10149 20140 39879 40185 56007 74544;
0260080270999992000051506004+43300-002050FM-12+025999999V0200601N001010001519N0001001N1+01401+01401101851ADDAA199000091AY141061AY241061GA1091+999999999GF109991091999999999999999IA1099IA2999+01309KA1120N+01381MA1999999098791MD1410001+9999MW1451REMSYN094AAXX  15064 08027 31/01 90602 10140 20140 39879 40185 54000 74544 333 20138 31013 50450 55128;EQDQ01  00002PRCP99
0171080270999992000051509004+43300-002050FM-12+025999999V0203501N002110003019N0003001N1+01401+01401101931ADDAY141031AY241031GA1091+999999999GF109991091999999999999999MA1999999098871MD1310081+9999MW1451REMSYN066AAXX  15094 08027 41/03 93504 10140 20140 39887 40193 53008 74544;
0201080270999992000051512004+43300-002050FM-12+025999999V0200101N003110006019N0008001N1+01581+01511101871ADDAA199000091AY141061AY241061GA1091+999999999GF109991091999999999999999MA1999999098831MD1810041+9999MW1431REMSYN066AAXX  15124 08027 31/08 90106 10158 20151 39883 40187 58004 74344;EQDQ01  00002PRCP99
0214080270999992000051518004+43300-002050FM-12+025999999V0203001N003610021019N0020001N1+01461+01391101761ADDAA199000091AY121061AY221061GF108991081061002501999999KA1999M+01761MA1999999098711MD1610041+9999MW1101REMSYN082AAXX  15184 08027 31320 83007 10146 20139 39871 40176 56004 71022 886// 333 10176;EQDQ01  00002PRCP99
0161080270999992000051521004+43300-002050FM-12+025999999V0203101N003110021019N0020001N1+01401+01331101811ADDAY121031AY221031GF108991081061002501999999MA1999999098751MD1110041+9999MW1101REMSYN072AAXX  15214 08027 41320 83106 10140 20133 39875 40181 51004 71022 886//;
0201080270999992000051600004+43300-002050FM-12+025999999V0203601N004110001519N0001001N1+01401+01361101731ADDAA199000091AY141061AY221061GA1091+999999999GF109991091999999999999999MA1999999098671MD1810081+9999MW1471REMSYN066AAXX  16004 08027 31/01 93608 10140 20136 39867 40173 58008 74742;EQDQ01  00002PRCP99
0161080270999992000051603004+43300-002050FM-12+025999999V0203501N001510021019N0020001N1+01361+01321101691ADDAY141031AY221031GF108991081061002501999999MA1999999098631MD1810041+9999MW1101REMSYN072AAXX  16034 08027 41320 83503 10136 20132 39863 40169 58004 71042 886//;
0250080270999992000051606004+43300-002050FM-12+025999999V0203301N001510021019N0010001N1+01361+01321101611ADDAA199000091AY121061AY221061GF108991081061002501999999IA1099IA2999+01209KA1120N+01321MA1999999098551MD1710081+9999MW1101REMSYN100AAXX  16064 08027 31310 83303 10136 20132 39855 40161 57008 71022 886// 333 20132 31012 50170 55022;EQDQ01  00002PRCP99
0161080270999992000051609004+43300-002050FM-12+025999999V0203601N002610021019N0020001N1+01481+01411101621ADDAY121031AY221031GF108991081061002501999999MA1999999098581MD1010031+9999MW1101REMSYN072AAXX  16094 08027 41320 83605 10148 20141 39858 40162 50003 71022 886//;
0191080270999992000051612004+43300-002050FM-12+025999999V0203401N003610021019N0025001N1+01521+01421101551ADDAA199000091AY121061AY221061GF108991081061002501999999MA1999999098511MD1810071+9999MW1101REMSYN072AAXX  16124 08027 31325 83407 10152 20142 39851 40155 58007 71022 886//;EQDQ01  00002PRCP99
0201080270999992000051618004+43300-002050FM-12+025999999V0203101N005110042019N0120001N1+01401+01291101851ADDAA112000191AY121061AY221061GF108991081061004501999999KA1999M+01601MA1999999098791MD1210281+9999MW1211REMSYN088AAXX  16184 08027 11462 83110 10140 20129 39879 40185 52028 69922 72122 886// 333 10160;
0133080270999992000051621004+43300-002050FM-12+025999999V0203101N020610042019N0150001N1+01361+01291101771ADDGF108991081061004501999999MA1999999098711MD1510081+9999REMSYN066AAXX  16214 08027 42465 83140 10136 20129 39871 40177 55008 886//;
0144080270999992000051700004+43300-002050FM-12+025999999V0203601N002110042019N0250001N1+01281+01211101781ADDAA199000021GF108991081061004501999999MA1999999098711MD1410001+9999REMSYN066AAXX  17004 08027 32475 83604 10128 20121 39871 40178 54000 886//;
0133080270999992000051703004+43300-002050FM-12+025999999V0203001N002110042019N0250001N1+01281+01211101781ADDGF108991081061004501999999MA1999999098711MD1410001+9999REMSYN066AAXX  17034 08027 42475 83004 10128 20121 39871 40178 54000 886//;
0237080270999992000051706004+43300-002050FM-12+025999999V0202801N002110042019N0200001N1+01261+01191101981ADDAA112000191AY161061AY221061GF108991081061004501999999IA1099IA2999+01109KA1120N+01221MA1999999098901MD1210191+9999MW1021REMSYN106AAXX  17064 08027 11470 82804 10126 20119 39890 40198 52019 69922 70262 886// 333 20122 31011 50070 55002;
0133080270999992000051709004+43300-002050FM-12+025999999V0203101N002110042019N0150001N1+01381+01161102061ADDGF108991081061004501999999MA1999999098991MD1310091+9999REMSYN066AAXX  17094 08027 42465 83104 10138 20116 39899 40206 53009 886//;
0163080270999992000051712004+43300-002050FM-12+025999999V0203101N004110042019N0150001N1+01361+01251102091ADDAA199000091GF108991081061004501999999MA1999999099021MD1110031+9999REMSYN066AAXX  17124 08027 32465 83108 10136 20125 39902 40209 51003 886//;EQDQ01  00002PRCP99
0186080270999992000051718004+43300-002050FM-12+025999999V0203401N003110075019N0100001N1+01361+01211102011ADDAA199000091GF108991081051008001999999KA1999M+01561MA1999999098941MD1610051+9999REMSYN076AAXX  17184 08027 32560 83406 10136 20121 39894 40201 56005 885// 333 10156;EQDQ01  00002PRCP99
0133080270999992000051721004+43300-002050FM-12+025999999V0203401N003610075019N0100001N1+01301+00991102071ADDGF108991081051008001999999MA1999999098991MD1210051+9999REMSYN066AAXX  17214 08027 42560 83407 10130 20099 39899 40207 52005 885//;
0163080270999992000051800004+43300-002050FM-12+025999999V0203201N002110075019N0100001N1+01261+00951101991ADDAA199000091GF108991081061008001999999MA1999999098911MD1710081+9999REMSYN066AAXX  18004 08027 32560 83204 10126 20095 39891 40199 57008 886//;EQDQ01  00002PRCP99
0133080270999992000051803004+43300-002050FM-12+025999999V0203201N002110075019N0100001N1+01221+00951101921ADDGF108991081061008001999999MA1999999098831MD1710081+9999REMSYN066AAXX  18034 08027 42560 83204 10122 20095 39883 40192 57008 886//;
0237080270999992000051806004+43300-002050FM-12+025999999V0202001N001010042019N0100001N1+01201+01051101871ADDAA112000791AY121061AY221061GF108991081061004501999999IA1099IA2999+01009KA1120N+01161MA1999999098781MD1610051+9999MW1501REMSYN106AAXX  18064 08027 11460 82002 10120 20105 39878 40187 56005 69902 75022 886// 333 20116 31010 50110 55003;
0161080270999992000051809004+43300-002050FM-12+025999999V0203001N004110042019N0100001N1+01221+01151101871ADDAY151031AY221031GF108991081071004501999999MA1999999098791MD1210011+9999MW1501REMSYN072AAXX  18094 08027 41460 83008 10122 20115 39879 40187 52001 75052 887//;
0178080270999992000051812004+43300-002050FM-12+025999999V0203201N006210042019N0100001N1+01401+01141101891ADDAA106000191AY151061AY221061GF108991081071004501999999MA1999999098831MD1110041+9999MW1021REMSYN078AAXX  18124 08027 11460 83212 10140 20114 39883 40189 51004 69921 70252 887//;
0201080270999992000051818004+43300-002050FM-12+025999999V0203101N006210120019N0100001N1+01301+00951101871ADDAA112000591AY181061AY221061GF107991071081008001999999KA1999M+01481MA1999999098791MD1810041+9999MW1011REMSYN088AAXX  18184 08027 11560 73112 10130 20095 39879 40187 58004 69952 70182 878// 333 10148;
0133080270999992000051821004+43300-002050FM-12+025999999V0202901N005110120019N0100001N1+01261+01191101911ADDGF107991071081008001999999MA1999999098831MD1310041+9999REMSYN066AAXX  18214 08027 42560 72910 10126 20119 39883 40191 53004 878//;
0178080270999992000051900004+43300-002050FM-12+025999999V0203401N004110120019N0040001N1+01221+01181101901ADDAA106000791AY121061AY221061GF108991081081008001999999MA1999999098821MD1810011+9999MW1801REMSYN078AAXX  19004 08027 11540 83408 10122 20118 39882 40190 58001 69901 78022 888//;
0133080270999992000051903004+43300-002050FM-12+025999999V0200101N001010120019N0200001N1+01141+01061101871ADDGF108991081081008001999999MA1999999098781MD1710041+9999REMSYN066AAXX  19034 08027 42570 80102 10114 20106 39878 40187 57004 888//;
0237080270999992000051906004+43300-002050FM-12+025999999V0202501N001010120019N0100001N1+01041+01041101881ADDAA112003091AY151061AY221061GF107991051081008001021999IA1099IA2999+00909KA1120N+01001MA1999999098781MD1510001+9999MW1801REMSYN106AAXX  19064 08027 11560 72502 10104 20104 39878 40188 55000 60032 78052 8582/ 333 20100 31009 50230 55021;
0161080270999992000051909004+43300-002050FM-12+025999999V0203301N004110120019N0040001N1+01341+01121101901ADDAY181031AY221031GF106991051081008001051001MA1999999098831MD1310051+9999MW1101REMSYN072AAXX  19094 08027 41540 63308 10134 20112 39883 40190 53005 71082 85850;
0178080270999992000051912004+43300-002050FM-12+025999999V0203101N005110360019N0200001N1+01441+00711101881ADDAA106000591AY181061AY221061GF107991021081008001051001MA1999999098821MD1810011+9999MW1031REMSYN078AAXX  19124 08027 11570 73110 10144 20071 39882 40188 58001 69951 70382 82850;
0173080270999992000051918004+43300-002050FM-12+025999999V0203201N004110360019N0250001N1+01341+00731101861ADDAA112000191GF105991041011008001041011KA1999M+01561MA1999999098791MD1310131+9999REMSYN082AAXX  19184 08027 12575 53208 10134 20073 39879 40186 53013 69922 84141 333 10156;
0163080270999992000052000004+43300-002050FM-12+025999999V0203501N001010075019N0250001N1+01141+00681101831ADDAA199000091GF106991061051008001001001MA1999999098741MD1810041+9999REMSYN066AAXX  20004 08027 32575 63502 10114 20068 39874 40183 58004 86500;EQDQ01  00002PRCP99
0222080270999992000052006004+43300-002050FM-12+025999999V0201701N002110360019N0230001N1+01001+00801101611ADDAA199000091GF106991041081012501041011IA1099IA2999+00509KA1120N+00941MA1999999098511MD1710081+9999REMSYN094AAXX  20064 08027 32673 61704 10100 20080 39851 40161 57008 84841 333 20094 31005 50290 55073;EQDQ01  00002PRCP99
0133080270999992000052009004+43300-002050FM-12+025999999V0200401N003112200019N0300001N1+01441+00851101511ADDGF101991011011012501001011MA1999999098461MD1810051+9999REMSYN066AAXX  20094 08027 42680 10406 10144 20085 39846 40151 58005 81101;
0163080270999992000052012004+43300-002050FM-12+025999999V0203601N005112200019N0300001N1+01501+00921101391ADDAA199000091GF101991011011012501001001MA1999999098351MD1810111+9999REMSYN066AAXX  20124 08027 32680 13610 10150 20092 39835 40139 58011 81100;EQDQ01  00002PRCP99
0186080270999992000052018004+43300-002050FM-12+025999999V0203601N003610075019N0250001N1+01501+01321101221ADDAA199000091GF105991051051008001001001KA1999M+01661MA1999999098191MD1610041+9999REMSYN076AAXX  20184 08027 32575 53607 10150 20132 39819 40122 56004 85500 333 10166;EQDQ01  00002PRCP99
0133080270999992000052021004+43300-002050FM-12+025999999V0200101N003110075019N0200001N1+01421+01281101311ADDGF107991071051008001001001MA1999999098271MD1310081+9999REMSYN066AAXX  20214 08027 42570 70106 10142 20128 39827 40131 53008 87500;
0163080270999992000052100004+43300-002050FM-12+025999999V0203401N003610075019N0150001N1+01401+01331101361ADDAA199000091GF107991071051008001001001MA1999999098311MD1110041+9999REMSYN066AAXX  21004 08027 32565 73407 10140 20133 39831 40136 51004 87500;EQDQ01  00002PRCP99
0133080270999992000052103004+43300-002050FM-12+025999999V0200201N001010042019N0100001N1+01401+01331101361ADDGF108991081051004501999999MA1999999098311MD1510001+9999REMSYN066AAXX  21034 08027 42460 80202 10140 20133 39831 40136 55000 885//;
0247080270999992000052106004+43300-002050FM-12+025999999V0203501N003110006019N0006001N1+01321+01281101411ADDAA112002091AY161061AY241061GA1091+999999999GF109991091999999999999999IA1119IA2999+01009KA1120N+01321MA1999999098351MD1310041+9999MW1621REMSYN100AAXX  21064 08027 11/06 93506 10132 20128 39835 40141 53004 60022 76264 333 20132 32010 50280 55110;
0161080270999992000052109004+43300-002050FM-12+025999999V0200101N003110042019N0050001N1+01321+01281101531ADDAY161031AY251031GF108991081071004501999999MA1999999098471MD1210121+9999MW1601REMSYN072AAXX  21094 08027 41450 80106 10132 20128 39847 40153 52012 76065 887//;
0178080270999992000052112004+43300-002050FM-12+025999999V0203501N004610120019N0150001N1+01441+01331101601ADDAA106002091AY161061AY221061GF108991081081008001999999MA1999999098551MD1210081+9999MW1021REMSYN078AAXX  21124 08027 11565 83509 10144 20133 39855 40160 52008 60021 70262 888//;
0173080270999992000052118004+43300-002050FM-12+025999999V0203501N007210120019N0150001N1+01321+00971101821ADDAA112002091GF108991081081008001999999KA1999M+01561MA1999999098751MD1110201+9999REMSYN082AAXX  21184 08027 12565 83514 10132 20097 39875 40182 51020 60022 888// 333 10156;
0133080270999992000052121004+43300-002050FM-12+025999999V0203301N003110120019N0200001N1+01261+00911101951ADDGF108991081081008001999999MA1999999098871MD1210121+9999REMSYN066AAXX  21214 08027 42570 83306 10126 20091 39887 40195 52012 888//;
0163080270999992000052200004+43300-002050FM-12+025999999V0203501N003112200019N0300001N1+01181+00771102051ADDAA199000091GF102991021081008001001001MA1999999098951MD1110081+9999REMSYN066AAXX  22004 08027 32580 23506 10118 20077 39895 40205 51008 82800;EQDQ01  00002PRCP99
0133080270999992000052203004+43300-002050FM-12+025999999V0203501N003112200019N0300001N1+01181+00771102051ADDGF102991021081008001001001MA1999999098951MD1410001+9999REMSYN066AAXX  22034 08027 42580 23506 10118 20077 39895 40205 54000 82800;
0209080270999992000052206004+43300-002050FM-12+025999999V0203501N003110120019N0150001N1+01221+00991102041ADDAA112000191GF106991061081008001001001IA1099IA2999+00809KA1120N+01161MA1999999098951MD1410001+9999REMSYN100AAXX  22064 08027 12565 63506 10122 20099 39895 40204 54000 69912 86800 333 20116 31008 50160 55006;
0133080270999992000052209004+43300-002050FM-12+025999999V0203601N003112200019N0200001N1+01481+01031102131ADDGF104991041081008001001001MA1999999099071MD1210121+9999REMSYN066AAXX  22094 08027 42570 43606 10148 20103 39907 40213 52012 84800;
0163080270999992000052212004+43300-002050FM-12+025999999V0203301N005112200019N0250001N1+01441+01021102211ADDAA199000091GF102991021081008001001001MA1999999099141MD1110071+9999REMSYN066AAXX  22124 08027 32575 23310 10144 20102 39914 40221 51007 82800;EQDQ01  00002PRCP99
0186080270999992000052218004+43300-002050FM-12+025999999V0203601N003119999999N0150001N1+01421+00871102101ADDAA199000091GF105991001001999999001011KA1999M+01641MA1999999099031MD1710111+9999REMSYN076AAXX  22184 08027 32965 53606 10142 20087 39903 40210 57011 80001 333 10164;EQDQ01  00002PRCP99
0133080270999992000052221004+43300-002050FM-12+025999999V0201201N001012200019N0150001N1+01261+00821102161ADDGF104991001001999999001011MA1999999099071MD1310041+9999REMSYN066AAXX  22214 08027 42965 41202 10126 20082 39907 40216 53004 80001;
0173080270999992000052300004+43300-002050FM-12+025999999V0201601N002112200019N0200001N1+01121+00841102131ADDAA199000091GA1001+999999999GF100991001001999999001001MA1999999099031MD1710041+9999REMSYN060AAXX  23004 08027 32970 01604 10112 20084 39903 40213 57004;EQDQ01  00002PRCP99
0143080270999992000052303004+43300-002050FM-12+025999999V0201601N002112200019N0200001N1+01061+00821102101ADDGA1001+999999999GF100991001001999999001001MA1999999098991MD1710041+9999REMSYN060AAXX  23034 08027 42970 01604 10106 20082 39899 40210 57004;
0232080270999992000052306004+43300-002050FM-12+025999999V0201601N003112200019N0180001N1+01121+00881102091ADDAA199000091GA1001+999999999GF100991001001999999001001IA1099IA2999+00609KA1120N+01001MA1999999098991MD1410001+9999REMSYN088AAXX  23064 08027 32968 01606 10112 20088 39899 40209 54000 333 20100 31006 50360 55111;EQDQ01  00002PRCP99
0143080270999992000052309004+43300-002050FM-12+025999999V0200201N001012200019N0100001N1+01641+01091102031ADDGA1001+999999999GF100991001001999999001001MA1999999098991MD1410001+9999REMSYN060AAXX  23094 08027 42960 00202 10164 20109 39899 40203 54000;
0163080270999992000052312004+43300-002050FM-12+025999999V0203601N003112200019N0100001N1+01761+01261101941ADDAA199000091GF101991011011008001001001MA1999999098911MD1810081+9999REMSYN066AAXX  23124 08027 32560 13606 10176 20126 39891 40194 58008 81100;EQDQ01  00002PRCP99
0214080270999992000052318004+43300-002050FM-12+025999999V0203501N003112200019N0040001N1+01801+01531101851ADDAA199000091AY101061AY201061GF102991011021008001001031KA1999M+02081MA1999999098831MD1610031+9999MW1101REMSYN082AAXX  23184 08027 31540 23506 10180 20153 39883 40185 56003 71000 81203 333 10208;EQDQ01  00002PRCP99
0171080270999992000052321004+43300-002050FM-12+025999999V0203501N001512200019N0040001N1+01521+01421102001ADDAY101031AY201031GA1001+999999999GF100991001001999999001001MA1999999098951MD1310121+9999MW1101REMSYN066AAXX  23214 08027 41940 03503 10152 20142 39895 40200 53012 71000;
0201080270999992000052400004+43300-002050FM-12+025999999V0202701N001012200019N0040001N1+01441+01371101961ADDAA199000091AY101061AY201061GA1001+999999999GF100991001001999999001001MA1999999098901MD1810051+9999MW1101REMSYN066AAXX  24004 08027 31940 02702 10144 20137 39890 40196 58005 71000;EQDQ01  00002PRCP99
0181080270999992000052403004+43300-002050FM-12+025999999V0201201N002610001519N0000001N1+01321+01281101891ADDAY101031AY201031GA1091+000159999GF109991091999999999999999MA1999999098821MD1710081+9999MW1471REMSYN076AAXX  24034 08027 41/00 91205 10132 20128 39882 40189 57008 74700 333 89/00;
0260080270999992000052406004+43300-002050FM-12+025999999V0203501N002112200019N0008001N1+01421+01351101851ADDAA199000091AY141061AY201061GA1001+999999999GF100991001001999999001001IA1099IA2999+00809KA1120N+01241MA1999999098791MD1610031+9999MW1421REMSYN094AAXX  24064 08027 31908 03504 10142 20135 39879 40185 56003 74240 333 20124 31008 50400 55139;EQDQ01  00002PRCP99
0161080270999992000052409004+43300-002050FM-12+025999999V0203001N001010042019N0050001N1+01621+01451101831ADDAY141031AY221031GF105991051061004501999999MA1999999098791MD1410001+9999MW1101REMSYN072AAXX  24094 08027 41450 53002 10162 20145 39879 40183 54000 71042 856//;
0191080270999992000052412004+43300-002050FM-12+025999999V0203401N004110021019N0010001N1+01721+01481101771ADDAA199000091AY141061AY221061GF106991061061002501999999MA1999999098751MD1810041+9999MW1101REMSYN072AAXX  24124 08027 31310 63408 10172 20148 39875 40177 58004 71042 866//;EQDQ01  00002PRCP99
0214080270999992000052418004+43300-002050FM-12+025999999V0203001N004110042019N0020001N1+01521+01381101841ADDAA199000091AY121061AY221061GF108991081061004501999999KA1999M+01741MA1999999098791MD1310091+9999MW1101REMSYN082AAXX  24184 08027 31420 83008 10152 20138 39879 40184 53009 71022 886// 333 10174;EQDQ01  00002PRCP99
0161080270999992000052421004+43300-002050FM-12+025999999V0202001N001510042019N0070001N1+01401+01261101931ADDAY121031AY221031GF108991081061004501999999MA1999999098871MD1110081+9999MW1101REMSYN072AAXX  24214 08027 41457 82003 10140 20126 39887 40193 51008 71022 886//;
0163080270999992000052500004+43300-002050FM-12+025999999V0201601N001510042019N0100001N1+01421+01241101851ADDAA199000091GF108991081061004501999999MA1999999098791MD1810081+9999REMSYN066AAXX  25004 08027 32460 81603 10142 20124 39879 40185 58008 886//;EQDQ01  00002PRCP99
0133080270999992000052503004+43300-002050FM-12+025999999V0201501N002110075019N0150001N1+01441+01221101841ADDGF108991081061008001999999MA1999999098781MD1610011+9999REMSYN066AAXX  25034 08027 42565 81504 10144 20122 39878 40184 56001 886//;
0250080270999992000052506004+43300-002050FM-12+025999999V0203301N002110360019N0060001N1+01521+01311101921ADDAA199000091AY121061AY221061GF108991041061008001071999IA1019IA2999+01309KA1120N+01381MA1999999098871MD1310091+9999MW1101REMSYN100AAXX  25064 08027 31556 83304 10152 20131 39887 40192 53009 71022 8467/ 333 20138 30013 50250 55057;EQDQ01  00002PRCP99
0161080270999992000052509004+43300-002050FM-12+025999999V0209999C000010042019N0040001N1+01421+01351102091ADDAY151031AY221031GF108991081061004501999999MA1999999099021MD1110151+9999MW1101REMSYN072AAXX  25094 08027 41440 80000 10142 20135 39902 40209 51015 71052 886//;
0178080270999992000052512004+43300-002050FM-12+025999999V0203001N004110042019N0070001N1+01401+01361102211ADDAA106003091AY161061AY221061GF108991081071004501999999MA1999999099141MD1110121+9999MW1101REMSYN078AAXX  25124 08027 11457 83008 10140 20136 39914 40221 51012 60031 71062 887//;
0173080270999992000052518004+43300-002050FM-12+025999999V0203501N001010042019N0200001N1+01521+01231102031ADDAA112003091GF107991071061004501001001KA1999M+01701MA1999999098981MD1610081+9999REMSYN082AAXX  25184 08027 12470 73502 10152 20123 39898 40203 56008 60032 87600 333 10170;
0133080270999992000052521004+43300-002050FM-12+025999999V0200401N001010042019N0200001N1+01401+01101102011ADDGF107991071061004501001001MA1999999098941MD1610041+9999REMSYN066AAXX  25214 08027 42470 70402 10140 20110 39894 40201 56004 87600;
0163080270999992000052600004+43300-002050FM-12+025999999V0201101N002110075019N0300001N1+01281+01171101821ADDAA199000091GF106991061051008001001001MA1999999098751MD1710191+9999REMSYN066AAXX  26004 08027 32580 61104 10128 20117 39875 40182 57019 86500;EQDQ01  00002PRCP99
0133080270999992000052603004+43300-002050FM-12+025999999V0201401N003110075019N0300001N1+01261+01151101541ADDGF105991051051008001001001MA1999999098471MD1710281+9999REMSYN066AAXX  26034 08027 42580 51406 10126 20115 39847 40154 57028 85500;
0222080270999992000052606004+43300-002050FM-12+025999999V0201801N006712200019N0300001N1+01701+01241101371ADDAA199000091GF102991011081008001041001IA1099IA2999+01209KA1120N+01161MA1999999098351MD1610121+9999REMSYN094AAXX  26064 08027 32580 21813 10170 20124 39835 40137 56012 81840 333 20116 31012 50160 55008;EQDQ01  00002PRCP99
0133080270999992000052609004+43300-002050FM-12+025999999V0201701N004612200019N0350001N1+02101+01311101281ADDGF102991011011008001041001MA1999999098311MD1610041+9999REMSYN066AAXX  26094 08027 42581 21709 10210 20131 39831 40128 56004 81140;
0163080270999992000052612004+43300-002050FM-12+025999999V0202101N003110120019N0400001N1+02341+01811101281ADDAA199000091GF107991061081008001041081MA1999999098341MD1310031+9999REMSYN066AAXX  26124 08027 32582 72106 10234 20181 39834 40128 53003 86848;EQDQ01  00002PRCP99
0201080270999992000052618004+43300-002050FM-12+025999999V0202901N008210042019N0120001N1+01261+01221101781ADDAA112006191AY181061AY221061GF108991081071004501999999KA1999M+02561MA1999999098711MD1210371+9999MW1811REMSYN088AAXX  26184 08027 11462 82916 10126 20122 39871 40178 52037 60062 78182 887// 333 10256;
0161080270999992000052621004+43300-002050FM-12+025999999V0203001N008210042019N0120001N1+01181+01141102001ADDAY181031AY221031GF108991081071004501999999MA1999999098911MD1210201+9999MW1811REMSYN072AAXX  26214 08027 41462 83016 10118 20114 39891 40200 52020 78182 887//;
0178080270999992000052700004+43300-002050FM-12+025999999V0202901N004110042019N0250001N1+01141+01021102121ADDAA106015091AY181061AY221061GF108991081071004501999999MA1999999099021MD1110111+9999MW1021REMSYN078AAXX  27004 08027 11475 82908 10114 20102 39902 40212 51011 60151 70282 887//;
0133080270999992000052703004+43300-002050FM-12+025999999V0202901N004110042019N0250001N1+01141+01021102121ADDGF108991081071004501999999MA1999999099021MD1410001+9999REMSYN066AAXX  27034 08027 42475 82908 10114 20102 39902 40212 54000 887//;
0237080270999992000052706004+43300-002050FM-12+025999999V0202401N002110120019N0140001N1+01101+00981102131ADDAA112016091AY181061AY221061GF107991061081008001041001IA1119IA2999+00909KA1120N+01061MA1999999099031MD1110011+9999MW1021REMSYN106AAXX  27064 08027 11564 72404 10110 20098 39903 40213 51001 60162 70282 86840 333 20106 32009 50770 55073;
0133080270999992000052709004+43300-002050FM-12+025999999V0201001N002110360019N0250001N1+01461+01171102131ADDGF105991041081008001011001MA1999999099071MD1010041+9999REMSYN066AAXX  27094 08027 42575 51004 10146 20117 39907 40213 50004 84810;
0163080270999992000052712004+43300-002050FM-12+025999999V0202901N004112200019N0250001N1+01481+00981102051ADDAA199000091GF103991031081008001001001MA1999999098991MD1710081+9999REMSYN066AAXX  27124 08027 32575 32908 10148 20098 39899 40205 57008 83800;EQDQ01  00002PRCP99
0230080270999992000052718004+43300-002050FM-12+025999999V0202501N001010900019N0040001N1+01761+01661101232ADDAA199000091AY121061AY211061GF107991011001017501041071KA1999M+01841MA1999999098231MD1710361+9999MW1101REMSYN082AAXX  27184 08027 31740 72502 10176 20166 39823 40123 57036 71021 81047 333 10184;EQDQ01+101233APOSLPQ02  00002PRCP99
0161080270999992000052721004+43300-002050FM-12+025999999V0202801N002110042019N0050001N1+01381+01121101431ADDAY121031AY211031GF108991081071004501999999MA1999999098381MD1310151+9999MW1601REMSYN072AAXX  27214 08027 41450 82804 10138 20112 39838 40143 53015 76021 887//;
0178080270999992000052800004+43300-002050FM-12+025999999V0201101N003110042019N0050001N1+01341+01161101281ADDAA106000191AY161061AY221061GF108991081071004501999999MA1999999098231MD1810151+9999MW1601REMSYN078AAXX  28004 08027 11450 81106 10134 20116 39823 40128 58015 69911 76062 887//;
0161080270999992000052803004+43300-002050FM-12+025999999V0203301N002110042019N0100001N1+01381+01161101281ADDAY161031AY221031GF108991081071004501999999MA1999999098231MD1510001+9999MW1021REMSYN072AAXX  28034 08027 41460 83304 10138 20116 39823 40128 55000 70262 887//;
0237080270999992000052806004+43300-002050FM-12+025999999V0201701N002110075019N0100001N1+01341+01271101481ADDAA112002091AY161061AY221061GF108991081051008001999999IA1099IA2999+01109KA1120N+01281MA1999999098421MD1310191+9999MW1021REMSYN106AAXX  28064 08027 11560 81704 10134 20127 39842 40148 53019 60022 70262 885// 333 20128 31011 50410 55086;
0133080270999992000052809004+43300-002050FM-12+025999999V0201801N002110075019N0100001N1+01641+01401101531ADDGF108991071051008001051999MA1999999098501MD1210081+9999REMSYN066AAXX  28094 08027 42560 81804 10164 20140 39850 40153 52008 8755/;
0144080270999992000052812004+43300-002050FM-12+025999999V0203501N004110360019N0100001N1+01721+01411101571ADDAA199000021GF107991031051008001051999MA1999999098551MD1210051+9999REMSYN066AAXX  28124 08027 32560 73508 10172 20141 39855 40157 52005 8355/;
0198080270999992000052818004+43300-002050FM-12+025999999V0203501N003610021019N0090001N1+01481+01451101711ADDAA199000091GF108991081061002501999999KA1999M+01851MA1999999098661MD1110031+9999MW1101REMSYN082AAXX  28184 08027 31359 83507 10148 20145 39866 40171 51003 710// 886// 333 10185;EQDQ01  00002PRCP99
0187080270999992000052821004+43300-002050FM-12+025999999V0201601N002110003019N0000001N1+01461+01461101761ADDAY141031AY221031GA1091+000309999GF109991091999999999999999MA1999999098711MD1310051+9999MW1601REMSYN082AAXX  28214 08027 41/00 91604 10146 20146 39871 40176 53005 76042 333 89/01 96047;
0178080270999992000052900004+43300-002050FM-12+025999999V0202001N002110075019N0100001N1+01521+01491101711ADDAA106002091AY161061AY241061GF108991081061008001999999MA1999999098671MD1610041+9999MW1501REMSYN078AAXX  29004 08027 11560 82004 10152 20149 39867 40171 56004 60021 75064 886//;
0187080270999992000052903004+43300-002050FM-12+025999999V0203001N005110003019N0000001N1+01521+01521101791ADDAY161031AY241031GA1091+000309999GF109991091999999999999999MA1999999098751MD1310081+9999MW1511REMSYN082AAXX  29034 08027 41/00 93010 10152 20152 39875 40179 53008 75164 333 89/01 97047;
0267080270999992000052906004+43300-002050FM-12+025999999V0202701N004110003019N0009001N1+01481+01481101921ADDAA112007191AY161061AY241061GA1091+000309999GF109991091999999999999999GJ100969IA1099IA2999+01209KA1120N+01421MA1999999098871MD1210121+9999MW1501REMSYN112AAXX  29064 08027 11/09 92708 10148 20148 39887 40192 52012 60072 75064 333 20142 31012 50110 55016 89/01 96043;
0171080270999992000052909004+43300-002050FM-12+025999999V0203201N005110001519N0000001N1+01501+01501102121ADDAY151031AY241031GA1091+999999999GF109991091999999999999999MA1999999099061MD1210191+9999MW1511REMSYN066AAXX  29094 08027 41/00 93210 10150 20150 39906 40212 52019 75154;
0178080270999992000052912004+43300-002050FM-12+025999999V0202901N006210090019N0080001N1+01721+01591102141ADDAA106002091AY151061AY241061GF107991061081004501071999MA1999999099111MD1110051+9999MW1101REMSYN078AAXX  29124 08027 11458 72912 10172 20159 39911 40214 51005 60021 71054 8687/;
0201080270999992000052918004+43300-002050FM-12+025999999V0203401N002110090019N0150001N1+01681+01471102191ADDAA112002091AY151061AY221061GF107991071081004501001001KA1999M+01861MA1999999099151MD1410001+9999MW1021REMSYN088AAXX  29184 08027 11465 73404 10168 20147 39915 40219 54000 60022 70252 87800 333 10186;
0133080270999992000052921004+43300-002050FM-12+025999999V0201701N003110120019N0250001N1+01641+01471102241ADDGF107991071081008001001001MA1999999099191MD1210041+9999REMSYN066AAXX  29214 08027 42575 71706 10164 20147 39919 40224 52004 87800;
0163080270999992000053000004+43300-002050FM-12+025999999V0202001N001010120019N0300001N1+01741+01391102221ADDAA199000091GF107991071081008001001001MA1999999099181MD1710011+9999REMSYN066AAXX  30004 08027 32580 72002 10174 20139 39918 40222 57001 87800;EQDQ01  00002PRCP99
0133080270999992000053003004+43300-002050FM-12+025999999V0202001N001010120019N0300001N1+01741+01391102221ADDGF107991071081008001001001MA1999999099181MD1410001+9999REMSYN066AAXX  30034 08027 42580 72002 10174 20139 39918 40222 54000 87800;
0222080270999992000053006004+43300-002050FM-12+025999999V0203201N003110075019N0150001N1+01721+01481102191ADDAA199000091GF107991071051008001001001IA1099IA2999+01309KA1120N+01601MA1999999099151MD1510001+9999REMSYN094AAXX  30064 08027 32565 73206 10172 20148 39915 40219 55000 87500 333 20160 31013 50190 55028;EQDQ01  00002PRCP99
0133080270999992000053009004+43300-002050FM-12+025999999V0203401N001010120019N0100001N1+01761+01591102181ADDGF107991071081008001001001MA1999999099151MD1010001+9999REMSYN066AAXX  30094 08027 42560 73402 10176 20159 39915 40218 50000 87800;
0191080270999992000053012004+43300-002050FM-12+025999999V0203401N005110021019N0012001N1+01641+01571102191ADDAA199000091AY121061AY221061GF108991081061002501999999MA1999999099151MD1410001+9999MW1101REMSYN072AAXX  30124 08027 31312 83410 10164 20157 39915 40219 54000 71022 886//;EQDQ01  00002PRCP99
0207080270999992000053018004+43300-002050FM-12+025999999V0202701N002110021019N0015001N1+01521+01491102211ADDAA112001091AY151061AY221061GF108991081061002501999999KA1120M+01901MA1999999099151MD1410001+9999MW1501REMSYN094AAXX  30184 08027 11315 82704 10152 20149 39915 40221 54000 60012 75052 886// 333 10190 96010;
0161080270999992000053021004+43300-002050FM-12+025999999V0202001N002110021019N0050001N1+01461+01421102261ADDAY121031AY221031GF106991061061002501999999MA1999999099191MD1210041+9999MW1101REMSYN072AAXX  30214 08027 41350 62004 10146 20142 39919 40226 52004 71022 866//;
0178080270999992000053100004+43300-002050FM-12+025999999V0203401N003112200019N0050001N1+01461+01421102261ADDAA106000791AY151061AY221061GF103991031061002501001001MA1999999099191MD1410001+9999MW1101REMSYN078AAXX  31004 08027 11350 33406 10146 20142 39919 40226 54000 69901 71052 83600;
0161080270999992000053103004+43300-002050FM-12+025999999V0203001N001510042019N0050001N1+01401+01401102251ADDAY121031AY221031GF106991061061004501999999MA1999999099181MD1710011+9999MW1101REMSYN072AAXX  31034 08027 41450 63003 10140 20140 39918 40225 57001 71022 866//;
0237080270999992000053106004+43300-002050FM-12+025999999V0209999C000010042019N0060001N1+01481+01231102291ADDAA112000791AY121061AY221061GF108991081061004501999999IA1099IA2999+01009KA1120N+01321MA1999999099221MD1210041+9999MW1101REMSYN106AAXX  31064 08027 11456 80000 10148 20123 39922 40229 52004 69902 71022 886// 333 20132 31010 50160 55023;
0161080270999992000053109004+43300-002050FM-12+025999999V0203401N002610021019N0040001N1+01561+01461102371ADDAY141031AY221031GF106991061071002501001001MA1999999099311MD1110091+9999MW1101REMSYN072AAXX  31094 08027 41340 63405 10156 20146 39931 40237 51009 71042 86700;
0191080270999992000053112004+43300-002050FM-12+025999999V0203401N003112200019N0050001N1+01661+01421102361ADDAA199000091AY121061AY221061GF105991031061004501001011MA1999999099311MD1410001+9999MW1101REMSYN072AAXX  31124 08027 31450 53406 10166 20142 39931 40236 54000 71022 83601;EQDQ01  00002PRCP99
0214080270999992000053118004+43300-002050FM-12+025999999V0203501N003110021019N0030001N1+01541+01331102321ADDAA199000091AY121061AY221061GF105991051071002501999999KA1999M+01741MA1999999099261MD1810051+9999MW1101REMSYN082AAXX  31184 08027 31330 53506 10154 20133 39926 40232 58005 71022 857// 333 10174;EQDQ01  00002PRCP99
0161080270999992000053121004+43300-002050FM-12+025999999V0200301N002110021019N0030001N1+01461+01351102331ADDAY121031AY221031GF108991081061002501999999MA1999999099261MD1510001+9999MW1101REMSYN072AAXX  31214 08027 41330 80304 10146 20135 39926 40233 55000 71022 886//;
0191080270999992000060100004+43300-002050FM-12+025999999V0200701N001010021019N0030001N1+01461+01351102261ADDAA199000091AY121061AY221061GF108991081061002501999999MA1999999099191MD1810071+9999MW1101REMSYN072AAXX  01004 08027 31330 80702 10146 20135 39919 40226 58007 71022 886//;EQDQ01  00002PRCP99
0161080270999992000060103004+43300-002050FM-12+025999999V0201701N003112200019N0030001N1+01341+01271102111ADDAY121031AY211031GF102991021061002501001001MA1999999099031MD1810161+9999MW1101REMSYN072AAXX  01034 08027 41330 21706 10134 20127 39903 40211 58016 71021 82600;
0250080270999992000060106004+43300-002050FM-12+025999999V0201401N003112200019N0020001N1+01321+01011101991ADDAA199000091AY111061AY201061GF101991011061002501001011IA1099IA2999+00909KA1120N+01161MA1999999098911MD1710121+9999MW1101REMSYN100AAXX  01064 08027 31320 11406 10132 20101 39891 40199 57012 71010 81601 333 20116 31009 50510 55094;EQDQ01  00002PRCP99
0161080270999992000060109004+43300-002050FM-12+025999999V0203301N001012200019N0030001N1+01801+01491101881ADDAY101031AY201031GF101991011001017501031001MA1999999098861MD1710051+9999MW1101REMSYN072AAXX  01094 08027 41730 13302 10180 20149 39886 40188 57005 71000 81030;
0207080270999992000060112004+43300-002050FM-12+025999999V0200301N001012200019N0040001N1+02461+01801101711ADDAA199000091AY101061AY201061GF101991001001999999001011MA1999999098771MD1710091+9999MW1051REMSYN072AAXX  01124 08027 31740 10302 10246 20180 39877 40171 57009 70500 80001;EQDQ01+017502SCOLCBQ02  00002PRCP99
0224080270999992000060118004+43300-002050FM-12+025999999V0201701N008210120019N0350001N1+02181+01481101601ADDAA112003091AY191061AY281061GF107991051041012501001081KA1120M+02781MA1999999098631MD1810041+9999MW1011OA149902111REMSYN100AAXX  01184 08027 11681 71716 10218 20148 39863 40160 58004 60032 70198 85408 333 10278 91141 91523;
0161080270999992000060121004+43300-002050FM-12+025999999V0203201N004112200019N0100001N1+01661+01591101861ADDAY141031AY241031GF105991021001017501061081MA1999999098831MD1210201+9999MW1021REMSYN072AAXX  01214 08027 41760 53208 10166 20159 39883 40186 52020 70244 82068;
0191080270999992000060200004+43300-002050FM-12+025999999V0203001N002112200019N0008001N1+01681+01471101971ADDAA199000091AY141061AY241061GF104991021061002501071081MA1999999098941MD1210111+9999MW1111REMSYN072AAXX  02004 08027 31308 43004 10168 20147 39894 40197 52011 71144 82678;EQDQ01  00002PRCP99
0181080270999992000060203004+43300-002050FM-12+025999999V0203301N002110003019N0000001N1+01561+01561101901ADDAY141031AY241031GA1091+000309999GF109991091999999999999999MA1999999098861MD1710081+9999MW1451REMSYN076AAXX  02034 08027 41/00 93304 10156 20156 39886 40190 57008 74544 333 89/01;
0274080270999992000060206004+43300-002050FM-12+025999999V0201801N001010018019N0003001N1+01521+01521101881ADDAA199000091AY141061AY241061GA1091+001809999GF109991091999999999999999GJ105469IA1099IA2999+01309KA1120N+01521MA1999999098831MD1610031+9999MW1431REMSYN100AAXX  02064 08027 31/03 91802 10152 20152 39883 40188 56003 74344 333 20152 31013 50310 55091 89/06;EQDQ01  00002PRCP99
0161080270999992000060209004+43300-002050FM-12+025999999V0200301N002610042019N0012001N1+01621+01551101911ADDAY141031AY241031GF108991081061004501999999MA1999999098871MD1310041+9999MW1101REMSYN072AAXX  02094 08027 41412 80305 10162 20155 39887 40191 53004 71044 886//;
0191080270999992000060212004+43300-002050FM-12+025999999V0200101N003610021019N0010001N1+01661+01591101861ADDAA199000091AY141061AY241061GF108991081061002501999999MA1999999098831MD1810041+9999MW1101REMSYN072AAXX  02124 08027 31310 80107 10166 20159 39883 40186 58004 71044 886//;EQDQ01  00002PRCP99
0223080270999992000060218004+43300-002050FM-12+025999999V0203101N004610003019N0000001N1+01541+01541101831ADDAA112000791AY151061AY241061GA1091+000309999GF109991091999999999999999KA1120M+01821MA1999999098791MD1310041+9999MW1501REMSYN094AAXX  02184 08027 11/00 93109 10154 20154 39879 40183 53004 69902 75054 333 10182 89/01 96047;
0171080270999992000060221004+43300-002050FM-12+025999999V0203101N003110001519N0000001N1+01501+01501101921ADDAY151031AY241031GA1091+999999999GF109991091999999999999999MA1999999098871MD1110081+9999MW1511REMSYN066AAXX  02214 08027 41/00 93106 10150 20150 39887 40192 51008 75154;
0188080270999992000060300004+43300-002050FM-12+025999999V0203101N004110001519N0000001N1+01461+01461101961ADDAA106001091AY151061AY241061GA1091+999999999GF109991091999999999999999MA1999999098901MD1110031+9999MW1501REMSYN072AAXX  03004 08027 11/00 93108 10146 20146 39890 40196 51003 69991 75054;
0171080270999992000060303004+43300-002050FM-12+025999999V0209999C000010006019N0009001N1+01441+01441101721ADDAY151031AY241031GA1091+999999999GF109991091999999999999999MA1999999098671MD1810231+9999MW1431REMSYN066AAXX  03034 08027 41/09 90000 10144 20144 39867 40172 58023 74354;
0237080270999992000060306004+43300-002050FM-12+025999999V0209999C000010042019N0020001N1+01481+01481101801ADDAA112002091AY151061AY241061GF108991081061004501999999IA1099IA2999+01309KA1120N+01421MA1999999098751MD1310081+9999MW1101REMSYN106AAXX  03064 08027 11420 80000 10148 20148 39875 40180 53008 60022 71054 886// 333 20142 31013 50280 55018;
0171080270999992000060309004+43300-002050FM-12+025999999V0203601N003610001519N0000001N1+01521+01521101841ADDAY151031AY241031GA1091+999999999GF109991091999999999999999MA1999999098791MD1110041+9999MW1511REMSYN066AAXX  03094 08027 41/00 93607 10152 20152 39879 40184 51004 75154;
0188080270999992000060312004+43300-002050FM-12+025999999V0203601N001010001519N0001001N1+01541+01541101831ADDAA106000391AY151061AY241061GA1091+999999999GF109991091999999999999999MA1999999098791MD1410001+9999MW1431REMSYN072AAXX  03124 08027 11/01 93602 10154 20154 39879 40183 54000 69931 74354;
0223080270999992000060318004+43300-002050FM-12+025999999V0203401N005110001519N0000001N1+01421+01421101921ADDAA112002091AY151061AY241061GA1091+000159999GF109991091999999999999999KA1120M+01601MA1999999098861MD1210071+9999MW1501REMSYN094AAXX  03184 08027 11/00 93410 10142 20142 39886 40192 52007 60022 75054 333 10160 89/00 96045;
0161080270999992000060321004+43300-002050FM-12+025999999V0203201N001010021019N0012001N1+01361+01361102021ADDAY151031AY241031GF108991081061002501999999MA1999999098951MD1210091+9999MW1501REMSYN072AAXX  03214 08027 41312 83202 10136 20136 39895 40202 52009 75054 886//;
0178080270999992000060400004+43300-002050FM-12+025999999V0203001N003110021019N0020001N1+01361+01321102021ADDAA106003091AY151061AY241061GF108991081061002501999999MA1999999098951MD1410001+9999MW1101REMSYN078AAXX  04004 08027 11320 83006 10136 20132 39895 40202 54000 60031 71054 886//;
0161080270999992000060403004+43300-002050FM-12+025999999V0202201N002110021019N0050001N1+01321+01321101981ADDAY151031AY221031GF108991081061002501999999MA1999999098911MD1710041+9999MW1501REMSYN072AAXX  04034 08027 41350 82204 10132 20132 39891 40198 57004 75052 886//;
0237080270999992000060406004+43300-002050FM-12+025999999V0203001N003110021019N0040001N1+01341+01341101941ADDAA112003091AY191061AY251061GF108991081061002501999999IA1099IA2999+01009KA1120N+01301MA1999999098871MD1710041+9999MW1101REMSYN106AAXX  04064 08027 11340 83006 10134 20134 39887 40194 57004 60032 71095 886// 333 20130 31010 50020 55000;
0181080270999992000060409004+43300-002050FM-12+025999999V0203201N003110001519N0006001N1+01421+01381101881ADDAY151031AY221031GA1091+000159999GF109991091999999999999999MA1999999098821MD1710051+9999MW1471REMSYN076AAXX  04094 08027 41/06 93206 10142 20138 39882 40188 57005 74752 333 89/00;
0178080270999992000060412004+43300-002050FM-12+025999999V0203001N008210021019N0020001N1+01481+01481101911ADDAA106000791AY151061AY241061GF108991081061002501999999MA1999999098861MD1210041+9999MW1101REMSYN078AAXX  04124 08027 11320 83016 10148 20148 39886 40191 52004 69901 71054 886//;
0188080270999992000060418004+43300-002050FM-12+025999999V0200201N005110001519N0000001N1+01521+01521101671ADDAA112000591AY161061AY241061GA1091+999999999GF109991091999999999999999MA1999999098631MD1610081+9999MW1471REMSYN072AAXX  04184 08027 11/00 90210 10152 20152 39863 40167 56008 69942 74764;
0187080270999992000060421004+43300-002050FM-12+025999999V0203601N004110001519N0000001N1+01521+01521101781ADDAY161031AY241031GA1091+000159999GF109991091999999999999999MA1999999098741MD1210111+9999MW1611REMSYN082AAXX  04214 08027 41/00 93608 10152 20152 39874 40178 52011 76164 333 89/00 96047;
0188080270999992000060500004+43300-002050FM-12+025999999V0203401N005110003019N0003001N1+01281+01281101911ADDAA106013091AY161061AY241061GA1091+999999999GF109991091999999999999999MA1999999098831MD1210091+9999MW1611REMSYN072AAXX  05004 08027 11/03 93410 10128 20128 39883 40191 52009 60131 76164;
0187080270999992000060503004+43300-002050FM-12+025999999V0203201N005110001519N0002001N1+01261+01261101911ADDAY161031AY241031GA1091+000159999GF109991091999999999999999MA1999999098831MD1410001+9999MW1501REMSYN082AAXX  05034 08027 41/02 93210 10126 20126 39883 40191 54000 75064 333 89/00 96045;
0237080270999992000060506004+43300-002050FM-12+025999999V0203201N004110075019N0100001N1+01141+01061102001ADDAA112017091AY161061AY241061GF108991081051008001999999IA1119IA2999+00909KA1120N+01101MA1999999098901MD1210071+9999MW1501REMSYN106AAXX  05064 08027 11560 83208 10114 20106 39890 40200 52007 60172 75064 885// 333 20110 32009 50410 55000;
0171080270999992000060509004+43300-002050FM-12+025999999V0203201N002110042019N0050001N1+01161+01121102131ADDAY161031AY221031GF108991081071004501999999MA1999999099031MD1110131+9999MW1631REMSYN082AAXX  05094 08027 41450 83204 10116 20112 39903 40213 51013 76362 887// 333 96010;
0188080270999992000060512004+43300-002050FM-12+025999999V0203201N003110042019N0080001N1+01241+01171102161ADDAA106001091AY151061AY221061GF108991081071004501999999MA1999999099071MD1110041+9999MW1501REMSYN088AAXX  05124 08027 11458 83206 10124 20117 39907 40216 51004 69991 75052 887// 333 96010;
0201080270999992000060518004+43300-002050FM-12+025999999V0203201N008210120019N0150001N1+01421+01201102251ADDAA112001091AY151061AY221061GF107991071081008001999999KA1999M+01441MA1999999099181MD1110031+9999MW1021REMSYN088AAXX  05184 08027 11565 73216 10142 20120 39918 40225 51003 69992 70252 878// 333 10144;
0133080270999992000060521004+43300-002050FM-12+025999999V0203401N006210120019N0300001N1+01301+00861102441ADDGF106991061081008001001001MA1999999099351MD1310171+9999REMSYN066AAXX  05214 08027 42580 63412 10130 20086 39935 40244 53017 86800;
0144080270999992000060600004+43300-002050FM-12+025999999V0203201N006210120019N0300001N1+01301+00911102441ADDAA199000021GF107991071081008001999999MA1999999099351MD1010001+9999REMSYN066AAXX  06004 08027 32580 73212 10130 20091 39935 40244 50000 878//;
0133080270999992000060603004+43300-002050FM-12+025999999V0203301N007210120019N0300001N1+01301+00991102441ADDGF107991071081008001999999MA1999999099351MD1410001+9999REMSYN066AAXX  06034 08027 42580 73314 10130 20099 39935 40244 54000 878//;
0222080270999992000060606004+43300-002050FM-12+025999999V0203301N006210120019N0150001N1+01281+00881102571ADDAA199000091GF107991071081008001999999IA1099IA2999+01009KA1120N+01241MA1999999099471MD1310121+9999REMSYN094AAXX  06064 08027 32565 73312 10128 20088 39947 40257 53012 878// 333 20124 31010 50240 55006;EQDQ01  00002PRCP99
0133080270999992000060609004+43300-002050FM-12+025999999V0203301N005110120019N0200001N1+01361+00931102641ADDGF107991071081008001999999MA1999999099551MD1210081+9999REMSYN066AAXX  06094 08027 42570 73310 10136 20093 39955 40264 52008 878//;
0163080270999992000060612004+43300-002050FM-12+025999999V0203301N005110120019N0200001N1+01421+00961102751ADDAA199000091GF105991051081008001001001MA1999999099661MD1210111+9999REMSYN066AAXX  06124 08027 32570 53310 10142 20096 39966 40275 52011 85800;EQDQ01  00002PRCP99
0186080270999992000060618004+43300-002050FM-12+025999999V0203401N003610075019N0250001N1+01411+01051102761ADDAA199000091GF105991051021008001001001KA1999M+01641MA1999999099671MD1810041+9999REMSYN076AAXX  06184 08027 32575 53407 10141 20105 39967 40276 58004 85200 333 10164;EQDQ01  00002PRCP99
0133080270999992000060621004+43300-002050FM-12+025999999V0203401N003612200019N0300001N1+01261+00951102821ADDGF104991041021008001001001MA1999999099711MD1310041+9999REMSYN066AAXX  06214 08027 42580 43407 10126 20095 39971 40282 53004 84200;
0133080270999992000060703004+43300-002050FM-12+025999999V0202901N002110075019N0350001N1+01161+00921102661ADDGF107991071051008001001001MA1999999099551MD1710121+9999REMSYN066AAXX  07034 08027 42581 72904 10116 20092 39955 40266 57012 87500;
0222080270999992000060706004+43300-002050FM-12+025999999V0202601N001510120019N0250001N1+01181+00991102621ADDAA199000091GF107991071081008001001001IA1099IA2999+00709KA1120N+01101MA1999999099511MD1510041+9999REMSYN094AAXX  07064 08027 32575 72603 10118 20099 39951 40262 55004 87800 333 20110 31007 50250 55064;EQDQ01  00002PRCP99
0133080270999992000060709004+43300-002050FM-12+025999999V0200101N002112200019N0250001N1+01481+01071102551ADDGF105991041021012501001081MA1999999099471MD1610041+9999REMSYN066AAXX  07094 08027 42675 50104 10148 20107 39947 40255 56004 84208;
0163080270999992000060712004+43300-002050FM-12+025999999V0203601N004612200019N0300001N1+01561+01161102411ADDAA199000091GF103991021011012501001081MA1999999099351MD1810121+9999REMSYN066AAXX  07124 08027 32680 33609 10156 20116 39935 40241 58012 82108;EQDQ01  00002PRCP99
0186080270999992000060718004+43300-002050FM-12+025999999V0200301N003612200019N0250001N1+01641+01321101951ADDAA199000091GF101991011011012501001011KA1999M+01641MA1999999098911MD1710271+9999REMSYN076AAXX  07184 08027 32675 10307 10164 20132 39891 40195 57027 81101 333 10164;EQDQ01  00002PRCP99
0133080270999992000060721004+43300-002050FM-12+025999999V0200801N002112200019N0280001N1+01441+01371101891ADDGF101991011011012501001011MA1999999098831MD1710081+9999REMSYN066AAXX  07214 08027 42678 10804 10144 20137 39883 40189 57008 81101;
0173080270999992000060800004+43300-002050FM-12+025999999V0201601N003612200019N0280001N1+01301+01231101661ADDAA199000091GA1001+999999999GF100991001001999999001001MA1999999098591MD1710241+9999REMSYN060AAXX  08004 08027 32978 01607 10130 20123 39859 40166 57024;EQDQ01  00002PRCP99
0143080270999992000060803004+43300-002050FM-12+025999999V0201701N006212200019N0300001N1+01481+01031101341ADDGA1001+999999999GF100991001001999999001001MA1999999098301MD1710291+9999REMSYN060AAXX  08034 08027 42980 01712 10148 20103 39830 40134 57029;
0232080270999992000060806004+43300-002050FM-12+025999999V0201801N008712200019N0300001N1+01821+00781101151ADDAA199000091GA1001+999999999GF100991001001999999001001IA1099IA2999+00909KA1120N+01241MA1999999098151MD1610151+9999REMSYN088AAXX  08064 08027 32980 01817 10182 20078 39815 40115 56015 333 20124 31009 50480 55130;EQDQ01  00002PRCP99
0143080270999992000060809004+43300-002050FM-12+025999999V0201601N009812200019N0300001N1+02361+00741101061ADDGA1001+999999999GF100991001001999999001001MA1999999098111MD1810041+9999REMSYN060AAXX  08094 08027 42980 01619 10236 20074 39811 40106 58004;
0173080270999992000060812004+43300-002050FM-12+025999999V0201601N008212200019N0300001N1+02761+01001100891ADDAA199000091GA1001+999999999GF100991001001999999001001MA1999999097991MD1810121+9999REMSYN060AAXX  08124 08027 32980 01616 10276 20100 39799 40089 58012;EQDQ01  00002PRCP99
0214080270999992000060818004+43300-002050FM-12+025999999V0203101N006210021019N0015001N1+01621+01551100751ADDAA199000091AY121061AY221061GF108991081061002501999999KA1999M+03001MA1999999097751MD1610021+9999MW1101REMSYN082AAXX  08184 08027 31315 83112 10162 20155 39775 40075 56002 71022 886// 333 10300;EQDQ01  00002PRCP99
0133080270999992000060821004+43300-002050FM-12+025999999V0203101N007210021019N0150001N1+01521+01451100971ADDGF108991081061002501999999MA1999999097951MD1310201+9999REMSYN066AAXX  08214 08027 42365 83114 10152 20145 39795 40097 53020 886//;
0180080270999992000060900004+43300-002050FM-12+025999999V0203301N012910090019N0300001N1+01301+00861999999ADDAA199000091GF108991081081004501999999MD1110191+9999REMSYN066AAXX  10124 08027 32480 83325 10130 20086 39914 40223 51019 888//;EQDQ01+099143APOSP Q02+102233APOSLPQ03  00002PRCP99
0133080270999992000060903004+43300-002050FM-12+025999999V0203101N007210042019N0150001N1+01461+01281101051ADDGF108991081061004501999999MA1999999098021MD1410001+9999REMSYN066AAXX  09034 08027 42465 83114 10146 20128 39802 40105 54000 886//;
0222080270999992000060906004+43300-002050FM-12+025999999V0203101N004110090019N0150001N1+01421+01351101011ADDAA199000091GF108991081081004501999999IA1019IA2999+00909KA1120N+01381MA1999999097981MD1510001+9999REMSYN094AAXX  09064 08027 32465 83108 10142 20135 39798 40101 55000 888// 333 20138 30009 50620 55125;EQDQ01  00002PRCP99
0178080270999992000060912004+43300-002050FM-12+025999999V0202901N005110090019N0100001N1+01301+01261101371ADDAA106001091AY161061AY221061GF108991081081004501999999MA1999999098311MD1210171+9999MW1601REMSYN078AAXX  09124 08027 11460 82910 10130 20126 39831 40137 52017 69991 76062 888//;
0201080270999992000060918004+43300-002050FM-12+025999999V0202901N008710042019N0120001N1+01181+01141101541ADDAA112010991AY181061AY221061GF108991081071004501999999KA1999M+01501MA1999999098461MD1210071+9999MW1801REMSYN088AAXX  09184 08027 11462 82917 10118 20114 39846 40154 52007 60112 78082 887// 333 10150;
0161080270999992000060921004+43300-002050FM-12+025999999V0202901N008710042019N0150001N1+01161+01121101761ADDAY161031AY221031GF108991081071004501999999MA1999999098671MD1310211+9999MW1601REMSYN072AAXX  09214 08027 41465 82917 10116 20112 39867 40176 53021 76062 887//;
0178080270999992000061000004+43300-002050FM-12+025999999V0203001N009810042019N0250001N1+01261+01191101831ADDAA106007191AY161061AY221061GF108991081071004501999999MA1999999098751MD1210081+9999MW1021REMSYN078AAXX  10004 08027 11475 83019 10126 20119 39875 40183 52008 60071 70262 887//;
0209080270999992000061006004+43300-002050FM-12+025999999V0203301N013910090019N0250001N1+01261+01071101901ADDAA112010991GF108991081081004501999999IA1119IA2999+00809KA1120N+01161MA1999999098821MD1310071+9999REMSYN100AAXX  10064 08027 12475 83327 10126 20107 39882 40190 53007 60112 888// 333 20116 32008 50570 55000;
0133080270999992000061009004+43300-002050FM-12+025999999V0203301N013910090019N0300001N1+01281+01131102031ADDGF108991081081004501999999MA1999999098951MD1110131+9999REMSYN066AAXX  10094 08027 42480 83327 10128 20113 39895 40203 51013 888//;
0201080270999992000061018004+43300-002050FM-12+025999999V0203301N009810120019N0200001N1+01421+00831102181ADDAA112000191AY181061AY221061GF107991061081008001051999KA1999M+01441MA1999999099111MD1810031+9999MW1021REMSYN088AAXX  10184 08027 11570 73319 10142 20083 39911 40218 58003 69912 70282 8685/ 333 10144;
0133080270999992000061021004+43300-002050FM-12+025999999V0203301N007210120019N0300001N1+01301+00951102241ADDGF107991071081008001001001MA1999999099151MD1310041+9999REMSYN066AAXX  10214 08027 42580 73314 10130 20095 39915 40224 53004 87800;
0163080270999992000061100004+43300-002050FM-12+025999999V0203301N005110120019N0300001N1+01281+00891102311ADDAA199000091GF107991071081008001001001MA1999999099221MD1210071+9999REMSYN066AAXX  11004 08027 32580 73310 10128 20089 39922 40231 52007 87800;EQDQ01  00002PRCP99
0133080270999992000061103004+43300-002050FM-12+025999999V0203301N005110120019N0300001N1+01281+00931102281ADDGF107991071081008001001001MA1999999099191MD1810031+9999REMSYN066AAXX  11034 08027 42580 73310 10128 20093 39919 40228 58003 87800;
0237080270999992000061106004+43300-002050FM-12+025999999V0202601N003110021019N0030001N1+01221+01111102331ADDAA112000791AY121061AY221061GF108991081071002501999999IA1099IA2999+00909KA1120N+01161MA1999999099231MD1310041+9999MW1211REMSYN106AAXX  11064 08027 11330 82606 10122 20111 39923 40233 53004 69902 72122 887// 333 20116 31009 50300 55025;
0161080270999992000061109004+43300-002050FM-12+025999999V0202801N006210021019N0010001N1+01221+01181102451ADDAY161031AY241031GF108991081071002501999999MA1999999099351MD1310121+9999MW1211REMSYN072AAXX  11094 08027 41310 82812 10122 20118 39935 40245 53012 72164 887//;
0178080270999992000061112004+43300-002050FM-12+025999999V0203201N008210075019N0100001N1+01481+01301102501ADDAA106000191AY161061AY241061GF108991081051008001999999MA1999999099431MD1210081+9999MW1021REMSYN078AAXX  11124 08027 11560 83216 10148 20130 39943 40250 52008 69921 70264 885//;
0173080270999992000061118004+43300-002050FM-12+025999999V0203301N005710360019N0300001N1+01521+01151102711ADDAA112000391GF105991031021008001031021KA1999M+01671MA1999999099631MD1310091+9999REMSYN082AAXX  11184 08027 12580 53311 10152 20115 39963 40271 53009 69932 83232 333 10167;
0133080270999992000061121004+43300-002050FM-12+025999999V0203101N004610075019N0300001N1+01421+01201102841ADDGF107991061021008001031001MA1999999099751MD1210121+9999REMSYN066AAXX  11214 08027 42580 73109 10142 20120 39975 40284 52012 86230;
0163080270999992000061200004+43300-002050FM-12+025999999V0202901N004110360019N0300001N1+01321+01171102891ADDAA199000091GF105991041081008001031001MA1999999099791MD1110041+9999REMSYN066AAXX  12004 08027 32580 52908 10132 20117 39979 40289 51004 84830;EQDQ01  00002PRCP99
0133080270999992000061203004+43300-002050FM-12+025999999V0202901N004610120019N0300001N1+01301+01031102891ADDGF107991071081008001001001MA1999999099781MD1810011+9999REMSYN066AAXX  12034 08027 42580 72909 10130 20103 39978 40289 58001 87800;
0222080270999992000061206004+43300-002050FM-12+025999999V0203201N005710075019N0150001N1+01361+01061102921ADDAA199000091GF107991061051008001071001IA1099IA2999+01009KA1120N+01271MA1999999099821MD1310041+9999REMSYN094AAXX  12064 08027 32565 73211 10136 20106 39982 40292 53004 86570 333 20127 31010 50110 55015;EQDQ01  00002PRCP99
0133080270999992000061209004+43300-002050FM-12+025999999V0203401N005110075019N0150001N1+01421+01001103041ADDGF107991071051008001001001MA1999999099941MD1310121+9999REMSYN066AAXX  12094 08027 42565 73410 10142 20100 39994 40304 53012 87500;
0163080270999992000061212004+43300-002050FM-12+025999999V0203601N004612200019N0200001N1+01621+01021103061ADDAA199000091GF105991041051008001001011MA1999999099981MD1110041+9999REMSYN066AAXX  12124 08027 32570 53609 10162 20102 39998 40306 51004 84501;EQDQ01  00002PRCP99
0186080270999992000061218004+43300-002050FM-12+025999999V0203601N004110360019N0120001N1+01541+01051102951ADDAA199000091GF105991041051008001041011KA1999M+01701MA1999999099871MD1610081+9999REMSYN076AAXX  12184 08027 32562 53608 10154 20105 39987 40295 56008 84541 333 10170;EQDQ01  00002PRCP99
0133080270999992000061221004+43300-002050FM-12+025999999V0203601N003610075019N0150001N1+01361+01141103001ADDGF106991061051008001999999MA1999999099901MD1310031+9999REMSYN066AAXX  12214 08027 42565 63607 10136 20114 39990 40300 53003 865//;
0163080270999992000061300004+43300-002050FM-12+025999999V0203601N003610075019N0100001N1+01381+01201102931ADDAA199000091GF108991081051008001999999MA1999999099831MD1810071+9999REMSYN066AAXX  13004 08027 32560 83607 10138 20120 39983 40293 58007 885//;EQDQ01  00002PRCP99
0133080270999992000061303004+43300-002050FM-12+025999999V0200101N003110075019N0120001N1+01381+01231102801ADDGF108991081051008001999999MA1999999099711MD1710121+9999REMSYN066AAXX  13034 08027 42562 80106 10138 20123 39971 40280 57012 885//;
0250080270999992000061306004+43300-002050FM-12+025999999V0203501N003110075019N0080001N1+01381+01231102791ADDAA199000091AY121061AY221061GF108991081051008001999999IA1099IA2999+01209KA1120N+01321MA1999999099701MD1510011+9999MW1101REMSYN100AAXX  13064 08027 31558 83506 10138 20123 39970 40279 55001 71022 885// 333 20132 31012 50440 55096;EQDQ01  00002PRCP99
0161080270999992000061309004+43300-002050FM-12+025999999V0200201N001510042019N0030001N1+01421+01351102801ADDAY151031AY221031GF108991081071004501999999MA1999999099711MD1010011+9999MW1101REMSYN072AAXX  13094 08027 41430 80203 10142 20135 39971 40280 50001 71052 887//;
0178080270999992000061312004+43300-002050FM-12+025999999V0203301N003110042019N0050001N1+01501+01391102791ADDAA106000891AY151061AY221061GF108991081071004501999999MA1999999099711MD1010001+9999MW1101REMSYN078AAXX  13124 08027 11450 83306 10150 20139 39971 40279 50000 69971 71052 887//;
0173080270999992000061318004+43300-002050FM-12+025999999V0203201N003110042019N0100001N1+01541+01441102731ADDAA112000891GF108991081071004501999999KA1999M+01741MA1999999099661MD1610011+9999REMSYN082AAXX  13184 08027 11460 83206 10154 20144 39966 40273 56001 69972 887// 333 10174;
0161080270999992000061321004+43300-002500FM-12+025999999V0200101N003110042019N0200001N1+01521+01451102771ADDAY151031AY221031GF108991081071004501999999MA1999999099701MD1310041+9999MW1021REMSYN072AAXX  13214 08027 41470 80106 10152 20145 39970 40277 53004 70252 887//;
0178080270999992000061400004+43300-002500FM-12+025999999V0200101N002110042019N0200001N1+01521+01451102831ADDAA106000191AY151061AY221061GF108991081071004501999999MA1999999099751MD1110011+9999MW1021REMSYN078AAXX  14004 08027 11470 80104 10152 20145 39975 40283 51001 69911 70252 887//;
0133080270999992000061403004+43300-002500FM-12+025999999V0200101N002110042019N0200001N1+01521+01451102831ADDGF108991081071004501999999MA1999999099751MD1410001+9999REMSYN066AAXX  14034 08027 42470 80104 10152 20145 39975 40283 54000 887//;
0209080270999992000061406004+43300-002500FM-12+025999999V0202001N001010042019N0120001N1+01521+01491102771ADDAA112000191GF108991081071004501999999IA1099IA2999+01209KA1120N+01481MA1999999099701MD1410001+9999REMSYN100AAXX  14064 08027 12462 82002 10152 20149 39970 40277 54000 69912 887// 333 20148 31012 50110 55009;
0133080270999992000061409004+43300-002500FM-12+025999999V0203601N002110042019N0120001N1+01581+01481102861ADDGF108991081071004501999999MA1999999099791MD1210091+9999REMSYN066AAXX  14094 08027 42462 83604 10158 20148 39979 40286 52009 887//;
0163080270999992000061412004+43300-002500FM-12+025999999V0203601N003110090019N0200001N1+01701+01531102851ADDAA199000091GF106991061081004501001001MA1999999099791MD1010001+9999REMSYN066AAXX  14124 08027 32470 63606 10170 20153 39979 40285 50000 86800;EQDQ01  00002PRCP99
0214080270999992000061418004+43300-002500FM-12+025999999V0203601N002110042019N0080001N1+01641+01501102721ADDAA199000091AY121061AY211061GF108991081061004501999999KA1999M+01841MA1999999099661MD1710051+9999MW1101REMSYN082AAXX  14184 08027 31458 83604 10164 20150 39966 40272 57005 71021 886// 333 10184;EQDQ01  00002PRCP99
0161080270999992000061421004+43300-002500FM-12+025999999V0209999C000010042019N0050001N1+01581+01551102771ADDAY121031AY221031GF108991081061004501999999MA1999999099701MD1210041+9999MW1101REMSYN072AAXX  14214 08027 41450 80000 10158 20155 39970 40277 52004 71022 886//;
0191080270999992000061500004+43300-002500FM-12+025999999V0201201N002110042019N0050001N1+01561+01531102771ADDAA199000091AY121061AY221061GF108991081061004501999999MA1999999099701MD1410001+9999MW1101REMSYN072AAXX  15004 08027 31450 81204 10156 20153 39970 40277 54000 71022 886//;EQDQ01  00002PRCP99
0181080270999992000061503004+43300-002500FM-12+025999999V0201601N002110001519N0002001N1+01561+01531102701ADDAY121031AY221031GA1091+000159999GF109991091999999999999999MA1999999099631MD1810071+9999MW1471REMSYN076AAXX  15034 08027 41/02 91604 10156 20153 39963 40270 58007 74722 333 89/00;
0274080270999992000061506004+43300-002500FM-12+025999999V0201601N001510001519N0002001N1+01541+01541102651ADDAA199000091AY141061AY221061GA1091+000159999GF109991091999999999999999GJ100669IA1099IA2999+01309KA1120N+01501MA1999999099581MD1710051+9999MW1451REMSYN100AAXX  15064 08027 31/02 91603 10154 20154 39958 40265 57005 74542 333 20150 31013 50260 55011 89/00;EQDQ01  00002PRCP99
0181080270999992000061509004+43300-002500FM-12+025999999V0200901N002110001519N0006001N1+01661+01661102631ADDAY141031AY241031GA1091+000159999GF109991091999999999999999MA1999999099581MD1410001+9999MW1451REMSYN076AAXX  15094 08027 41/06 90904 10166 20166 39958 40263 54000 74544 333 89/00;
0211080270999992000061512004+43300-002500FM-12+025999999V0203401N003110001519N0002001N1+01761+01731102591ADDAA199000091AY141061AY221061GA1091+000159999GF109991091999999999999999MA1999999099551MD1710031+9999MW1471REMSYN076AAXX  15124 08027 31/02 93406 10176 20173 39955 40259 57003 74742 333 89/00;EQDQ01  00002PRCP99
0230080270999992000061518004+43300-002500FM-12+025999999V0203601N004110001519N0001001N1+01861+01801102291ADDAA199000091AY141061AY241061GA1091+000159999GF109991091999999999999999KA1120M+02241MA1999999099271MD1710121+9999MW1451REMSYN082AAXX  15184 08027 31/01 93608 10186 20180 39927 40229 57012 74544 333 10224 89/00;EQDQ01  00002PRCP99
0171080270999992000061521004+43300-002500FM-12+025999999V0201601N001012200019N0010001N1+01841+01741102321ADDAY141031AY211031GA1001+999999999GF100991001001999999001001MA1999999099301MD1310031+9999MW1101REMSYN066AAXX  15214 08027 41910 01602 10184 20174 39930 40232 53003 71041;
0201080270999992000061600004+43300-002500FM-12+025999999V0201201N002112200019N0030001N1+02021+01691102281ADDAA199000091AY141061AY211061GA1001+999999999GF100991001001999999001001MA1999999099271MD1810031+9999MW1101REMSYN066AAXX  16004 08027 31930 01204 10202 20169 39927 40228 58003 71041;EQDQ01  00002PRCP99
0171080270999992000061603004+43300-002500FM-12+025999999V0201401N003112200019N0050001N1+01961+01601102151ADDAY101031AY201031GA1001+999999999GF100991001001999999001001MA1999999099141MD1810131+9999MW1051REMSYN066AAXX  16034 08027 41950 01406 10196 20160 39914 40215 58013 70500;
0232080270999992000061606004+43300-002500FM-12+025999999V0201601N004112200019N0100001N1+02021+01551102141ADDAA199000091GA1001+999999999GF100991001001999999001001IA1019IA2999+01409KA1120N+01781MA1999999099141MD1410001+9999REMSYN088AAXX  16064 08027 32960 01608 10202 20155 39914 40214 54000 333 20178 30014 50320 55054;EQDQ01  00002PRCP99
0143080270999992000061609004+43300-002500FM-12+025999999V0201501N002112200019N0100001N1+02641+01451102091ADDGA1001+999999999GF100991001001999999001001MA1999999099151MD1310011+9999REMSYN060AAXX  16094 08027 42960 01504 10264 20145 39915 40209 53001;
0173080270999992000061612004+43300-002500FM-12+025999999V0200301N001012200019N0100001N1+02841+01861102051ADDAA199000091GA1001+999999999GF100991001001999999001001MA1999999099131MD1810021+9999REMSYN060AAXX  16124 08027 32960 00302 10284 20186 39913 40205 58002;EQDQ01  00002PRCP99
0186080270999992000061618004+43300-002500FM-12+025999999V0200401N004612200019N0150001N1+02941+01681101871ADDAA199000091GF101991001001999999001011KA1999M+03141MA1999999098971MD1610051+9999REMSYN076AAXX  16184 08027 32965 10409 10294 20168 39897 40187 56005 80001 333 10314;EQDQ01  00002PRCP99
0133080270999992000061621004+43300-002500FM-12+025999999V0200901N004112200019N0250001N1+02541+01681101921ADDGF102991001001999999001011MA1999999098981MD1310011+9999REMSYN066AAXX  16214 08027 42975 20908 10254 20168 39898 40192 53001 80001;
0163080270999992000061700004+43300-002500FM-12+025999999V0201401N002112200019N0250001N1+02341+01661101931ADDAA199000091GF101991001001999999001011MA1999999098971MD1810011+9999REMSYN066AAXX  17004 08027 32975 11404 10234 20166 39897 40193 58001 80001;EQDQ01  00002PRCP99
0133080270999992000061703004+43300-002500FM-12+025999999V0201501N001512200019N0300001N1+02131+01441101901ADDGF101991001001999999001011MA1999999098911MD1810061+9999REMSYN066AAXX  17034 08027 42980 11503 10213 20144 39891 40190 58006 80001;
0222080270999992000061706004+43300-002500FM-12+025999999V0201501N002112200019N0250001N1+02181+01481101891ADDAA199000091GF101991001001999999001091IA1099IA2999+01409KA1120N+02041MA1999999098911MD1410001+9999REMSYN094AAXX  17064 08027 32975 11504 10218 20148 39891 40189 54000 80009 333 20204 31014 50550 55139;EQDQ01  00002PRCP99
0133080270999992000061709004+43300-002500FM-12+025999999V0201301N001012200019N0180001N1+02641+01451101891ADDGF101991001001999999001021MA1999999098951MD1210041+9999REMSYN066AAXX  17094 08027 42968 11302 10264 20145 39895 40189 52004 80002;
0163080270999992000061712004+43300-002500FM-12+025999999V0200301N003612200019N0180001N1+02671+01741101861ADDAA199000091GF101991011011012501001011MA1999999098931MD1810021+9999REMSYN066AAXX  17124 08027 32668 10307 10267 20174 39893 40186 58002 81101;EQDQ01  00002PRCP99
0196080270999992000061718004+43300-002500FM-12+025999999V0200501N004112200019N0300001N1+02941+01571101601ADDAA199000091GA1001+999999999GF100991001001999999001001KA1999M+02941MA1999999098701MD1810111+9999REMSYN070AAXX  17184 08027 32980 00508 10294 20157 39870 40160 58011 333 10294;EQDQ01  00002PRCP99
0143080270999992000061721004+43300-002500FM-12+025999999V0200801N004112200019N0300001N1+02561+01591101581ADDGA1001+999999999GF100991001001999999001001MA1999999098651MD1510051+9999REMSYN060AAXX  17214 08027 42980 00808 10256 20159 39865 40158 55005;
0173080270999992000061800004+43300-002500FM-12+025999999V0201501N004112200019N0300001N1+02421+01341101581ADDAA199000091GA1001+999999999GF100991001001999999001001MA1999999098631MD1610021+9999REMSYN060AAXX  18004 08027 32980 01508 10242 20134 39863 40158 56002;EQDQ01  00002PRCP99
0143080270999992000061803004+43300-002500FM-12+025999999V0201601N014412200019N0300001N1+02701+01101101371ADDGA1001+999999999GF100991001001999999001001MA1999999098451MD1510181+9999REMSYN060AAXX  18034 08027 42980 01628 10270 20110 39845 40137 55018;
0232080270999992000061806004+43300-002500FM-12+025999999V0201601N016412200019N0300001N1+02641+01111101421ADDAA199000091GA1001+999999999GF100991001001999999001001IA1019IA2999+01909KA1120N+02341MA1999999098491MD1310041+9999REMSYN088AAXX  18064 08027 32980 01632 10264 20111 39849 40142 53004 333 20234 30019 50930 55144;EQDQ01  00002PRCP99
0143080270999992000061809004+43300-002500FM-12+025999999V0201501N017012200019N0300001N1+02781+01081101481ADDGA1001+999999999GF100991001001999999001001MA1999999098571MD1110081+9999REMSYN060AAXX  18094 08027 42980 01533 10278 20108 39857 40148 51008;
0173080270999992000061812004+43300-002500FM-12+025999999V0201501N014912200019N0300001N1+03101+01031101451ADDAA199000091GA1001+999999999GF100991001001999999001001MA1999999098571MD1010001+9999REMSYN060AAXX  18124 08027 32980 01529 10310 20103 39857 40145 50000;EQDQ01  00002PRCP99
0196080270999992000061818004+43300-002500FM-12+025999999V0201501N011812200019N0400001N1+03241+01051101421ADDAA199000091GA1001+999999999GF100991001001999999001001KA1999M+03261MA1999999098551MD1410001+9999REMSYN070AAXX  18184 08027 32982 01523 10324 20105 39855 40142 54000 333 10326;EQDQ01  00002PRCP99
0143080270999992000061821004+43300-002500FM-12+025999999V0202901N002112200019N0400001N1+02101+01301101741ADDGA1001+999999999GF100991001001999999001001MA1999999098751MD1310201+9999REMSYN060AAXX  18214 08027 42982 02904 10210 20130 39875 40174 53020;
0173080270999992000061900004+43300-002500FM-12+025999999V0203101N005112200019N0400001N1+01761+01101101861ADDAA199000091GA1001+999999999GF100991001001999999001001MA1999999098831MD1110081+9999REMSYN060AAXX  19004 08027 32982 03110 10176 20110 39883 40186 51008;EQDQ01  00002PRCP99
0173080270999992000061903004+43300-002500FM-12+025999999V0203101N005112200019N0400001N1+01761+01101101861ADDAA199000091GA1001+999999999GF100991001001999999001001MA1999999098831MD1410001+9999REMSYN060AAXX  19034 08027 32982 03110 10176 20110 39883 40186 54000;EQDQ01  00002PRCP99
0202080270999992000061906004+43300-002500FM-12+025999999V0201701N008712200019N0300001N1+02341+01051101701ADDGA1001+999999999GF100991001001999999001001IA1019IA2999+01409KA1120N+01601MA1999999098741MD1610021+9999REMSYN088AAXX  19064 08027 42980 01717 10234 20105 39874 40170 56002 333 20160 30014 51240 55140;
0143080270999992000061909004+43300-002500FM-12+025999999V0201601N009812200019N0200001N1+02641+01061101631ADDGA1001+999999999GF100991001001999999001001MA1999999098701MD1710041+9999REMSYN060AAXX  19094 08027 42970 01619 10264 20106 39870 40163 57004;
0173080270999992000061912004+43300-002500FM-12+025999999V0201701N004112200019N0200001N1+02721+01821101621ADDAA199000091GA1001+999999999GF100991001001999999001001MA1999999098701MD1010001+9999REMSYN060AAXX  19124 08027 32970 01708 10272 20182 39870 40162 50000;EQDQ01  00002PRCP99
0186080270999992000061918004+43300-002500FM-12+025999999V0201201N004112200019N0200001N1+03061+01211101261ADDAA199000091GF101991011001017501041001KA1999M+03161MA1999999098381MD1810171+9999REMSYN076AAXX  19184 08027 32770 11208 10306 20121 39838 40126 58017 81040 333 10316;EQDQ01  00002PRCP99
0133080270999992000061921004+43300-002500FM-12+025999999V0201601N012912200019N0200001N1+02781+00931101221ADDGF102991011001017501041011MA1999999098311MD1710071+9999REMSYN066AAXX  19214 08027 42770 21625 10278 20093 39831 40122 57007 81041;
0191080270999992000062000004+43300-002500FM-12+025999999V0203201N006210021019N0020001N1+01721+01651101441ADDAA199000091AY121061AY221061GF108991081061002501999999MA1999999098431MD1110121+9999MW1101REMSYN072AAXX  20004 08027 31320 83212 10172 20165 39843 40144 51012 71022 886//;EQDQ01  00002PRCP99
0161080270999992000062003004+43300-002500FM-12+025999999V0203201N007210021019N0020001N1+01661+01631101481ADDAY121031AY221031GF108991081061002501999999MA1999999098461MD1210031+9999MW1101REMSYN072AAXX  20034 08027 41320 83214 10166 20163 39846 40148 52003 71022 886//;
0250080270999992000062006004+43300-002500FM-12+025999999V0203201N005110042019N0040001N1+01681+01611101491ADDAA199000091AY121061AY221061GF107991051061004501071011IA1099IA2999+01309KA1120N+01601MA1999999098471MD1210011+9999MW1101REMSYN100AAXX  20064 08027 31440 73210 10168 20161 39847 40149 52001 71022 85671 333 20160 31013 50980 55139;EQDQ01  00002PRCP99
0161080270999992000062009004+43300-002500FM-12+025999999V0203201N003610042019N0050001N1+01781+01611101551ADDAY121031AY221031GF107991051061004501071999MA1999999098541MD1110071+9999MW1101REMSYN072AAXX  20094 08027 41450 73207 10178 20161 39854 40155 51007 71022 8567/;
0191080270999992000062012004+43300-002500FM-12+025999999V0203401N003110360019N0050001N1+01941+01681101491ADDAA199000091AY121061AY221061GF105991031061004501071999MA1999999098501MD1810041+9999MW1101REMSYN072AAXX  20124 08027 31450 53406 10194 20168 39850 40149 58004 71022 8367/;EQDQ01  00002PRCP99
0201080270999992000062018004+43300-002500FM-12+025999999V0203201N002110042019N0010001N1+01841+01741101381ADDAA112000191AY121061AY221061GF107991071021004501999999KA1999M+02181MA1999999098381MD1610041+9999MW1251REMSYN088AAXX  20184 08027 11410 73204 10184 20174 39838 40138 56004 69922 72522 872// 333 10218;
0181080270999992000062021004+43300-002500FM-12+025999999V0202801N002110001519N0005001N1+01781+01711101511ADDAY181031AY221031GA1091+000159999GF109991091999999999999999MA1999999098501MD1310121+9999MW1171REMSYN076AAXX  20214 08027 41/05 92804 10178 20171 39850 40151 53012 71782 333 89/00;
0198080270999992000062100004+43300-002500FM-12+025999999V0202901N005110001519N0000001N1+01761+01731101561ADDAA106000591AY191061AY281061GA1091+000159999GF109991091999999999999999MA1999999098551MD1210051+9999MW1471REMSYN082AAXX  21004 08027 11/00 92910 10176 20173 39855 40156 52005 69941 74798 333 89/00;
0181080270999992000062103004+43300-002500FM-12+025999999V0201801N001010001519N0005001N1+01741+01711101561ADDAY141031AY241031GA1091+000159999GF109991091999999999999999MA1999999098551MD1410001+9999MW1431REMSYN076AAXX  21034 08027 41/05 91802 10174 20171 39855 40156 54000 74344 333 89/00;
0261080270999992000062106004+43300-002500FM-12+025999999V0203201N003110001519N0004001N1+01741+01741101631ADDAA112000591AY141061AY241061GA1091+000159999GF109991091999999999999999GJ102469IA1099IA2999+01309KA1120N+01681MA1999999098621MD1310071+9999MW1451REMSYN106AAXX  21064 08027 11/04 93206 10174 20174 39862 40163 53007 69942 74544 333 20168 31013 50360 55041 89/00;
0161080270999992000062109004+43300-002500FM-12+025999999V0203301N003110150019N0005001N1+01921+01761101751ADDAY141031AY241031GF106991061001017501051001MA1999999098751MD1310131+9999MW1421REMSYN072AAXX  21094 08027 41705 63306 10192 20176 39875 40175 53013 74244 86050;
0191080270999992000062112004+43300-002500FM-12+025999999V0203401N004110042019N0008001N1+02021+01731101821ADDAA199000091AY141061AY241061GF107991071051004501999999MA1999999098831MD1210081+9999MW1421REMSYN072AAXX  21124 08027 31408 73408 10202 20173 39883 40182 52008 74244 875//;EQDQ01  00002PRCP99
0207080270999992000062118004+43300-002500FM-12+025999999V0203601N004110042019N0060001N1+01781+01651101971ADDAA112000791AY141061AY241061GF108991081061004501999999KA1120M+02131MA1999999098951MD1310041+9999MW1501REMSYN094AAXX  21184 08027 11456 83608 10178 20165 39895 40197 53004 69902 75044 886// 333 10213 96010;
0161080270999992000062121004+43300-002500FM-12+025999999V0202901N005110042019N0080001N1+01601+01531102121ADDAY151031AY251031GF108991081071004501999999MA1999999099071MD1310121+9999MW1201REMSYN072AAXX  21214 08027 41458 82910 10160 20153 39907 40212 53012 72055 887//;
0237080270999992000062200004+43300-002500FM-12+025999999V0203101N003110090019N0150001N1+01441+01301102501ADDAA112000191AY161061AY221061GF108991081081004501999999IA1119IA2999+01009KA1120N+01441MA1999999099421MD1310031+9999MW1601REMSYN106AAXX  23064 08027 11465 83106 10144 20130 39942 40250 53003 69922 76062 888// 333 20144 32010 50180 55000;
0161080270999992000062203004+43300-002500FM-12+025999999V0209999C000010042019N0080001N1+01461+01431102161ADDAY161031AY241031GF108991081071004501999999MA1999999099101MD1410001+9999MW1211REMSYN072AAXX  22034 08027 41458 80000 10146 20143 39910 40216 54000 72164 887//;
0251080270999992000062206004+43300-002500FM-12+025999999V0202601N002110021019N0020001N1+01481+01461102211ADDAA112003091AY161061AY241061GF108991081071002501999999GJ102469IA1119IA2999+01209KA1120N+01431MA1999999099151MD1310051+9999MW1601REMSYN112AAXX  22064 08027 11320 82604 10148 20146 39915 40221 53005 60032 76064 887// 333 20143 32012 50220 55041 96028;
0171080270999992000062209004+43300-002500FM-12+025999999V0202901N002110021019N0008001N1+01481+01461102341ADDAY161031AY241031GF108991081071002501999999MA1999999099271MD1110121+9999MW1211REMSYN082AAXX  22094 08027 41308 82904 10148 20146 39927 40234 51012 72164 887// 333 96042;
0204080270999992000062212004+43300-002500FM-12+025999999V0203301N003110001519N0001001N1+01451+01431102381ADDAA106006191AY161061AY241061GA1091+000159999GF109991091999999999999999MA1999999099311MD1110041+9999MW1611REMSYN088AAXX  22124 08027 11/01 93306 10145 20143 39931 40238 51004 60061 76164 333 89/00 96045;
0173080270999992000062218004+43300-002500FM-12+025999999V0203401N004110090019N0250001N1+01641+01401102351ADDAA112006191GF108991081081004501999999KA1999M+01721MA1999999099301MD1410001+9999REMSYN082AAXX  22184 08027 12475 83408 10164 20140 39930 40235 54000 60062 888// 333 10172;
0133080270999992000062221004+43300-002500FM-12+025999999V0203301N006210090019N0250001N1+01601+01161102451ADDGF108991081081004501999999MA1999999099391MD1210091+9999REMSYN066AAXX  22214 08027 42475 83312 10160 20116 39939 40245 52009 888//;
0144080270999992000062300004+43300-002500FM-12+025999999V0203301N003110090019N0250001N1+01581+01181102521ADDAA199000021GF108991081081004501999999MA1999999099461MD1110071+9999REMSYN066AAXX  23004 08027 32475 83306 10158 20118 39946 40252 51007 888//;
0133080270999992000062303004+43300-002500FM-12+025999999V0203001N002110090019N0300001N1+01541+01251102461ADDGF108991081081004501999999MA1999999099391MD1710071+9999REMSYN066AAXX  23034 08027 42480 83004 10154 20125 39939 40246 57007 888//;
0161080270999992000062309004+43300-002500FM-12+025999999V0203401N004110090019N0200001N1+01501+01211102571ADDAY161031AY221031GF108991081081004501999999MA1999999099501MD1210081+9999MW1021REMSYN072AAXX  23094 08027 41470 83408 10150 20121 39950 40257 52008 70262 888//;
0178080270999992000062312004+43300-002500FM-12+025999999V0203301N004110090019N0250001N1+01621+01101102611ADDAA106000391AY161061AY221061GF108991081081004501999999MA1999999099551MD1110091+9999MW1021REMSYN078AAXX  23124 08027 11475 83308 10162 20110 39955 40261 51009 69931 70262 888//;
0173080270999992000062318004+43300-002500FM-12+025999999V0203501N004610120019N0200001N1+01661+01561102551ADDAA112000391GF105991051081008001999999KA1999M+01801MA1999999099501MD1710041+9999REMSYN082AAXX  23184 08027 12570 53509 10166 20156 39950 40255 57004 69932 858// 333 10180;
0133080270999992000062321004+43300-002500FM-12+025999999V0203501N003610120019N0200001N1+01521+01071102621ADDGF105991051081008001999999MA1999999099551MD1310051+9999REMSYN066AAXX  23214 08027 42570 53507 10152 20107 39955 40262 53005 858//;
0178080270999992000062400004+43300-002500FM-12+025999999V0200201N002110075019N0120001N1+01481+01231102581ADDAA106000791AY151061AY221061GF108991081071008001999999MA1999999099501MD1810051+9999MW1031REMSYN078AAXX  24004 08027 11562 80204 10148 20123 39950 40258 58005 69901 70352 887//;
0133080270999992000062403004+43300-002500FM-12+025999999V0203601N002610075019N0120001N1+01521+01231102491ADDGF107991071071008001999999MA1999999099421MD1710081+9999REMSYN066AAXX  24034 08027 42562 73605 10152 20123 39942 40249 57008 877//;
0237080270999992000062406004+43300-002500FM-12+025999999V0203401N004110120019N0100001N1+01461+01321102491ADDAA112000191AY151061AY221061GF108991081081008001999999IA1099IA2999+01209KA1120N+01441MA1999999099421MD1510001+9999MW1031REMSYN106AAXX  24064 08027 11560 83408 10146 20132 39942 40249 55000 69912 70352 888// 333 20144 31012 50240 55048;
0133080270999992000062409004+43300-002500FM-12+025999999V0203401N005110120019N0120001N1+01521+01271102531ADDGF108991081081008001999999MA1999999099461MD1110041+9999REMSYN066AAXX  24094 08027 42562 83410 10152 20127 39946 40253 51004 888//;
0178080270999992000062412004+43300-002500FM-12+025999999V0203301N005110120019N0120001N1+01621+01221102491ADDAA106000191AY151061AY221061GF107991061081008001071999MA1999999099431MD1610031+9999MW1011REMSYN078AAXX  24124 08027 11562 73310 10162 20122 39943 40249 56003 69911 70152 8687/;
0186080270999992000062418004+43300-002500FM-12+025999999V0203401N003110120019N0250001N1+01621+01341102321ADDAA199000091GF106991061081008001071999KA1999M+01841MA1999999099271MD1710111+9999REMSYN076AAXX  24184 08027 32575 63406 10162 20134 39927 40232 57011 8687/ 333 10184;EQDQ01  00002PRCP99
0133080270999992000062421004+43300-002500FM-12+025999999V0203401N002110120019N0200001N1+01481+01231102371ADDGF106991061081008001999999MA1999999099301MD1210031+9999REMSYN066AAXX  24214 08027 42570 63404 10148 20123 39930 40237 52003 868//;
0163080270999992000062500004+43300-002500FM-12+025999999V0203001N002112200019N0200001N1+01401+01221102311ADDAA199000091GF103991031081008001999999MA1999999099231MD1810071+9999REMSYN066AAXX  25004 08027 32570 33004 10140 20122 39923 40231 58007 838//;EQDQ01  00002PRCP99
0133080270999992000062503004+43300-002500FM-12+025999999V0202401N002110360019N0200001N1+01361+01181102191ADDGF105991031081008001071999MA1999999099111MD1710121+9999REMSYN066AAXX  25034 08027 42570 52404 10136 20118 39911 40219 57012 8387/;
0222080270999992000062506004+43300-002500FM-12+025999999V0201601N006212200019N0300001N1+01321+01211102141ADDAA199000091GF104991041001017501071999IA1099IA2999+00809KA1120N+01241MA1999999099061MD1610051+9999REMSYN094AAXX  25064 08027 32780 41612 10132 20121 39906 40214 56005 8407/ 333 20124 31008 50140 55038;EQDQ01  00002PRCP99
0133080270999992000062509004+43300-002500FM-12+025999999V0201801N001010360019N0300001N1+01681+01471102101ADDGF107991031051008001071999MA1999999099061MD1410001+9999REMSYN066AAXX  25094 08027 42580 71802 10168 20147 39906 40210 54000 8357/;
0163080270999992000062512004+43300-002500FM-12+025999999V0200201N004112200019N0300001N1+01761+01381102061ADDAA199000091GF102991011011008001001011MA1999999099031MD1810031+9999REMSYN066AAXX  25124 08027 32580 20208 10176 20138 39903 40206 58003 81101;EQDQ01  00002PRCP99
0186080270999992000062518004+43300-002500FM-12+025999999V0203601N003112200019N0200001N1+01861+01491101841ADDAA199000091GF101991001001999999001021KA1999M+01941MA1999999098831MD1710041+9999REMSYN076AAXX  25184 08027 32970 13606 10186 20149 39883 40184 57004 80002 333 10194;EQDQ01  00002PRCP99
0133080270999992000062521004+43300-002500FM-12+025999999V0200501N002112200019N0200001N1+01641+01431101861ADDGF101991011011008001001001MA1999999098831MD1410001+9999REMSYN066AAXX  25214 08027 42570 10504 10164 20143 39883 40186 54000 81100;
0163080270999992000062600004+43300-002500FM-12+025999999V0201201N001010075019N0200001N1+01601+01471101911ADDAA199000091GF107991071051008001999999MA1999999098871MD1310041+9999REMSYN066AAXX  26004 08027 32570 71202 10160 20147 39887 40191 53004 875//;EQDQ01  00002PRCP99
0133080270999992000062603004+43300-002500FM-12+025999999V0200801N002112200019N0150001N1+01561+01421101791ADDGF101991001001999999001021MA1999999098751MD1810121+9999REMSYN066AAXX  26034 08027 42965 10804 10156 20142 39875 40179 58012 80002;
0250080270999992000062606004+43300-002500FM-12+025999999V0201501N001012200019N0020001N1+01601+01431101781ADDAA199000091AY101061AY201061GF103991031061002501001001IA1099IA2999+01009KA1120N+01461MA1999999098741MD1610011+9999MW1101REMSYN100AAXX  26064 08027 31320 31502 10160 20143 39874 40178 56001 71000 83600 333 20146 31010 50500 55110;EQDQ01  00002PRCP99
0161080270999992000062609004+43300-002500FM-12+025999999V0203301N002112200019N0040001N1+01861+01631101661ADDAY101031AY201031GF101991011061002501001001MA1999999098661MD1810081+9999MW1101REMSYN072AAXX  26094 08027 41340 13304 10186 20163 39866 40166 58008 71000 81600;
0201080270999992000062612004+43300-002500FM-12+025999999V0203601N002112200019N0040001N1+02081+01691101641ADDAA199000091AY101061AY201061GA1001+999999999GF100991001001999999001001MA1999999098661MD1410001+9999MW1101REMSYN066AAXX  26124 08027 31940 03604 10208 20169 39866 40164 54000 71000;EQDQ01  00002PRCP99
0214080270999992000062618004+43300-002500FM-12+025999999V0209999C000019999999N0100001N1+02401+01861101251ADDAA199000091AY111061AY211061GF108991061001012501071071KA1999M+02701MA1999999098311MD1610121+9999MW1171REMSYN082AAXX  26184 08027 31660 80000 10240 20186 39831 40125 56012 71711 86077 333 10270;EQDQ01  00002PRCP99
0161080270999992000062621004+43300-002500FM-12+025999999V0201701N003110075019N0150001N1+01951+01841101661ADDAY191031AY281031GF107991061021008001071001MA1999999098671MD1110361+9999MW1131REMSYN072AAXX  26214 08027 41565 71706 10195 20184 39867 40166 51036 71398 86270;
0178080270999992000062700004+43300-002500FM-12+025999999V0202001N008210360019N0250001N1+02151+01701101331ADDAA106005191AY191061AY281061GF107991041051008001071001MA1999999098371MD1810301+9999MW1011REMSYN078AAXX  27004 08027 11575 72016 10215 20170 39837 40133 58030 60051 70198 84570;
0143080270999992000062703004+43300-002500FM-12+025999999V0201901N005112200019N0300001N1+02441+01401101191ADDGA1001+999999999GF100991001001999999001001MA1999999098251MD1510121+9999REMSYN060AAXX  27034 08027 42980 01910 10244 20140 39825 40119 55012;
0237080270999992000062706004+43300-002500FM-12+025999999V0203101N005110021019N0015001N1+01751+01721101511ADDAA112005191AY111061AY211061GF108991081061002501999999IA1099IA2999+01509KA1120N+01741MA1999999098501MD1210251+9999MW1101REMSYN106AAXX  27064 08027 11315 83110 10175 20172 39850 40151 52025 60052 71011 886// 333 20174 31015 50570 55105;
0141080270999992000062709004+43300-002500FM-12+025999999V0203101N003110360019N0060001N1+01961+01731101581ADDAY121031AY221031GF107991031061004501031041MA1999999098591MW1101REMSYN066AAXX  27094 08027 41456 73106 10196 20173 39859 40158 71022 83634;
0191080270999992000062712004+43300-002500FM-12+025999999V0203101N004112200019N0090001N1+02321+01851101601ADDAA199000091AY111061AY211061GF102991021061004501001001MA1999999098651MD1310061+9999MW1051REMSYN072AAXX  27124 08027 31459 23108 10232 20185 39865 40160 53006 70511 82600;EQDQ01  00002PRCP99
0186080270999992000062718004+43300-002500FM-12+025999999V0203101N003110150019N0200001N1+02061+01741101781ADDAA199000091GF106991061001017501051999KA1999M+02421MA1999999098791MD1310121+9999REMSYN076AAXX  27184 08027 32770 63106 10206 20174 39879 40178 53012 8605/ 333 10242;EQDQ01  00002PRCP99
0143080270999992000062721004+43300-002500FM-12+025999999V0203001N002112200019N0150001N1+01801+01631101931ADDGA1001+999999999GF100991001001999999001001MA1999999098911MD1310121+9999REMSYN060AAXX  27214 08027 42965 03004 10180 20163 39891 40193 53012;
0173080270999992000062800004+43300-002500FM-12+025999999V0202801N001512200019N0120001N1+01741+01641101931ADDAA199000091GA1001+999999999GF100991001001999999001001MA1999999098911MD1010001+9999REMSYN060AAXX  28004 08027 32962 02803 10174 20164 39891 40193 50000;EQDQ01  00002PRCP99
0143080270999992000062803004+43300-002500FM-12+025999999V0202201N001012200019N0300001N1+01621+01451101871ADDGA1001+999999999GF100991001001999999001001MA1999999098831MD1610081+9999REMSYN060AAXX  28034 08027 42980 02202 10162 20145 39883 40187 56008;
0232080270999992000062806004+43300-002500FM-12+025999999V0203101N001012200019N0120001N1+01761+01631101961ADDAA199000091GA1001+999999999GF100991001001999999001001IA1099IA2999+01109KA1120N+01601MA1999999098941MD1310111+9999REMSYN088AAXX  28064 08027 32962 03102 10176 20163 39894 40196 53011 333 20160 31011 50500 55068;EQDQ01  00002PRCP99
0133080270999992000062809004+43300-002500FM-12+025999999V0203601N002112200019N0130001N1+01981+01621101991ADDGF102991021041008001999999MA1999999098991MD1110051+9999REMSYN066AAXX  28094 08027 42563 23604 10198 20162 39899 40199 51005 824//;
0163080270999992000062812004+43300-002500FM-12+025999999V0203601N004112200019N0120001N1+02001+01671101991ADDAA199000091GF103991031041008001999999MA1999999098991MD1410001+9999REMSYN066AAXX  28124 08027 32562 33608 10200 20167 39899 40199 54000 834//;EQDQ01  00002PRCP99
0186080270999992000062818004+43300-002500FM-12+025999999V0203601N004110120019N0200001N1+01861+01591102001ADDAA199000091GF107991071081008001001001KA1999M+02161MA1999999098991MD1410001+9999REMSYN076AAXX  28184 08027 32570 73608 10186 20159 39899 40200 54000 87800 333 10216;EQDQ01  00002PRCP99
0133080270999992000062821004+43300-002500FM-12+025999999V0203501N003110120019N0200001N1+01821+01621102091ADDGF107991071081008001001001MA1999999099071MD1210081+9999REMSYN066AAXX  28214 08027 42570 73506 10182 20162 39907 40209 52008 87800;
0163080270999992000062900004+43300-002500FM-12+025999999V0201401N002110120019N0200001N1+01781+01611102101ADDAA199000091GF107991071081008001001001MA1999999099071MD1010001+9999REMSYN066AAXX  29004 08027 32570 71404 10178 20161 39907 40210 50000 87800;EQDQ01  00002PRCP99
0133080270999992000062903004+43300-002500FM-12+025999999V0209999V002110120019N0200001N1+01781+01611102101ADDGF107991071081008001001001MA1999999099071MD1410001+9999REMSYN066AAXX  29034 08027 42570 79904 10178 20161 39907 40210 54000 87800;
0222080270999992000062906004+43300-002500FM-12+025999999V0201501N002110120019N0150001N1+01781+01581102051ADDAA199000091GF107991071081008001001001IA1019IA2999+01309KA1120N+01741MA1999999099031MD1510001+9999REMSYN094AAXX  29064 08027 32565 71504 10178 20158 39903 40205 55000 87800 333 20174 30013 50140 55098;EQDQ01  00002PRCP99
0133080270999992000062909004+43300-002500FM-12+025999999V0201001N002112200019N0150001N1+02141+01541101981ADDGF103991031081008001001001MA1999999098991MD1810041+9999REMSYN066AAXX  29094 08027 42565 31004 10214 20154 39899 40198 58004 83800;
0163080270999992000062912004+43300-002500FM-12+025999999V0203501N005112200019N0150001N1+01961+01561101991ADDAA199000091GF104991041081008001001001MA1999999098991MD1410001+9999REMSYN066AAXX  29124 08027 32565 43510 10196 20156 39899 40199 54000 84800;EQDQ01  00002PRCP99
0186080270999992000062918004+43300-002500FM-12+025999999V0200201N005112200019N0100001N1+01961+01671101871ADDAA199000091GF102991021041008001001001KA1999M+02181MA1999999098871MD1710081+9999REMSYN076AAXX  29184 08027 32560 20210 10196 20167 39887 40187 57008 82400 333 10218;EQDQ01  00002PRCP99
0133080270999992000062921004+43300-002500FM-12+025999999V0200401N001010042019N0100001N1+01841+01681101921ADDGF107991071061004501999999MA1999999098911MD1210041+9999REMSYN066AAXX  29214 08027 42460 70402 10184 20168 39891 40192 52004 876//;
0163080270999992000063000004+43300-002500FM-12+025999999V0209999C000010042019N0100001N1+01821+01691101871ADDAA199000091GF108991081061004501999999MA1999999098861MD1810051+9999REMSYN066AAXX  30004 08027 32460 80000 10182 20169 39886 40187 58005 886//;EQDQ01  00002PRCP99
0133080270999992000063003004+43300-002500FM-12+025999999V0209999C000010042019N0100001N1+01781+01711101641ADDGF108991081061004501999999MA1999999098631MD1810231+9999REMSYN066AAXX  30034 08027 42460 80000 10178 20171 39863 40164 58023 886//;
0250080270999992000063006004+43300-002500FM-12+025999999V0209999C000010042019N0040001N1+01781+01681101561ADDAA199000091AY121061AY221061GF108991081061004501999999IA1099IA2999+01409KA1120N+01741MA1999999098551MD1710081+9999MW1101REMSYN100AAXX  30064 08027 31440 80000 10178 20168 39855 40156 57008 71022 886// 333 20174 31014 50630 55116;EQDQ01  00002PRCP99
0161080270999992000063009004+43300-002500FM-12+025999999V0203601N002112200019N0050001N1+01961+01631101491ADDAY121031AY221031GF104991041061004501999999MA1999999098501MD1810051+9999MW1101REMSYN072AAXX  30094 08027 41450 43604 10196 20163 39850 40149 58005 71022 846//;
0191080270999992000063012004+43300-002500FM-12+025999999V0203601N003112200019N0050001N1+02061+01741101401ADDAA199000091AY121061AY211061GF101991011011008001001001MA1999999098431MD1710071+9999MW1101REMSYN072AAXX  30124 08027 31550 13606 10206 20174 39843 40140 57007 71021 81100;EQDQ01  00002PRCP99
0214080270999992000063018004+43300-002500FM-12+025999999V0203601N003112200019N0030001N1+02041+01791101071ADDAA199000091AY101061AY201061GF101991001001999999001021KA1999M+02261MA1999999098101MD1710161+9999MW1101REMSYN082AAXX  30184 08027 31930 13606 10204 20179 39810 40107 57016 71000 80002 333 10226;EQDQ01  00002PRCP99
0161080270999992000063021004+43300-002500FM-12+025999999V0203201N004110150019N0030001N1+01921+01731101251ADDAY121031AY211031GF108991081001017501081999MA1999999098271MD1310171+9999MW1101REMSYN072AAXX  30214 08027 41730 83208 10192 20173 39827 40125 53017 71021 8808/;
0191080270999992000070100004+43300-002500FM-12+025999999V0201401N003112200019N0050001N1+01901+01741101131ADDAA199000091AY111061AY201061GF104991041001017501081001MA1999999098151MD1810121+9999MW1101REMSYN072AAXX  01004 08027 31750 41406 10190 20174 39815 40113 58012 71010 84080;EQDQ01  00002PRCP99
0171080270999992000070103004+43300-002500FM-12+025999999V0201601N001012200019N0030001N1+01801+01641100971ADDAY101031AY201031GA1001+999999999GF100991001001999999001001MA1999999097981MD1710171+9999MW1101REMSYN066AAXX  01034 08027 41930 01602 10180 20164 39798 40097 57017 71000;
0260080270999992000070106004+43300-002500FM-12+025999999V0203101N002612200019N0010001N1+01861+01761101001ADDAA199000091AY101061AY201061GA1001+999999999GF100991001001999999001001IA1099IA2999+01209KA1120N+01721MA1999999098021MD1310041+9999MW1101REMSYN094AAXX  01064 08027 31910 03105 10186 20176 39802 40100 53004 71000 333 20172 31012 50700 55122;EQDQ01  00002PRCP99
0161080270999992000070109004+43300-002500FM-12+025999999V0203101N004110021019N0010001N1+02081+01861101091ADDAY101031AY201031GF106991061061002501001001MA1999999098131MD1310111+9999MW1101REMSYN072AAXX  01094 08027 41310 63108 10208 20186 39813 40109 53011 71000 86600;
0191080270999992000070112004+43300-002500FM-12+025999999V0203401N005110021019N0010001N1+01981+01791101111ADDAA199000091AY121061AY211061GF108991081061002501999999MA1999999098141MD1110011+9999MW1101REMSYN072AAXX  01124 08027 31310 83410 10198 20179 39814 40111 51001 71021 886//;EQDQ01  00002PRCP99
0214080270999992000070118004+43300-002500FM-12+025999999V0200201N002110360019N0080001N1+01881+01671101181ADDAA199000091AY121061AY221061GF108991031051008001071999KA1999M+02171MA1999999098191MD1810041+9999MW1101REMSYN082AAXX  01184 08027 31558 80204 10188 20167 39819 40118 58004 71022 8357/ 333 10217;EQDQ01  00002PRCP99
0187080270999992000070121004+43300-002500FM-12+025999999V0203501N001510001519N0001001N1+01731+01711101231ADDAY151031AY241031GA1091+000159999GF109991091999999999999999MA1999999098231MD1310041+9999MW1501REMSYN082AAXX  01214 08027 41/01 93503 10173 20171 39823 40123 53004 75054 333 89/00 96046;
0188080270999992000070200004+43300-002500FM-12+025999999V0201701N001010042019N0050001N1+01701+01681101151ADDAA106001091AY161061AY251061GF108991081071004501999999MA1999999098151MD1810081+9999MW1211REMSYN088AAXX  02004 08027 11450 81702 10170 20168 39815 40115 58008 60011 72165 887// 333 96028;
0133080270999992000070203004+43300-002500FM-12+025999999V0201501N001512200019N0120001N1+01681+01651100951ADDGF102991021061004501001001MA1999999097951MD1710201+9999REMSYN066AAXX  02034 08027 42462 21503 10168 20165 39795 40095 57020 82600;
0237080270999992000070206004+43300-002500FM-12+025999999V0209999C000012200019N0080001N1+01721+01621100901ADDAA112001091AY111061AY211061GF102991001001999999001021IA1099IA2999+01109KA1120N+01601MA1999999097901MD1610051+9999MW1101REMSYN106AAXX  02064 08027 11958 20000 10172 20162 39790 40090 56005 60012 71011 80002 333 20160 31011 50150 55046;
0161080270999992000070209004+43300-002500FM-12+025999999V0202301N005710360019N0080001N1+02301+01551100881ADDAY111031AY211031GF106991011011012501041021MA1999999097941MD1310041+9999MW1051REMSYN072AAXX  02094 08027 41658 62311 10230 20155 39794 40088 53004 70511 81142;
0144080270999992000070212004+43300-002500FM-12+025999999V0203101N008710360019N0100001N1+02101+01771101051ADDAA199000021GF107991011011008001041021MA1999999098091MD1310151+9999REMSYN066AAXX  02124 08027 32560 73117 10210 20177 39809 40105 53015 81142;
0186080270999992000070218004+43300-002500FM-12+025999999V0203401N005110360019N0300001N1+01881+01471101251ADDAA199000091GF107991041081008001041021KA1999M+02501MA1999999098261MD1810011+9999REMSYN076AAXX  02184 08027 32580 73410 10188 20147 39826 40125 58001 84842 333 10250;EQDQ01  00002PRCP99
0133080270999992000070221004+43300-002500FM-12+025999999V0200601N001010360019N0300001N1+01801+01461101261ADDGF106991031081008001041021MA1999999098261MD1410001+9999REMSYN066AAXX  02214 08027 42580 60602 10180 20146 39826 40126 54000 83842;
0163080270999992000070300004+43300-002500FM-12+025999999V0200201N001010360019N0300001N1+01781+01511101231ADDAA199000091GF106991031081004501041011MA1999999098231MD1810031+9999REMSYN066AAXX  03004 08027 32480 60202 10178 20151 39823 40123 58003 83841;EQDQ01  00002PRCP99
0133080270999992000070303004+43300-002500FM-12+025999999V0209999V001010360019N0300001N1+01781+01511101231ADDGF106991031081004501041011MA1999999098231MD1410001+9999REMSYN066AAXX  03034 08027 42480 69902 10178 20151 39823 40123 54000 83841;
0222080270999992000070306004+43300-002500FM-12+025999999V0201601N004112200019N0350001N1+01721+01451101031ADDAA199000091GF101991011041008001001001IA1019IA2999+01109KA1120N+01561MA1999999098031MD1710081+9999REMSYN094AAXX  03064 08027 32581 11608 10172 20145 39803 40103 57008 81400 333 20156 30011 50320 55070;EQDQ01  00002PRCP99
0133080270999992000070309004+43300-002500FM-12+025999999V0201701N002112200019N0350001N1+02241+01511100921ADDGF102991011011008001011001MA1999999097971MD1610061+9999REMSYN066AAXX  03094 08027 42581 21704 10224 20151 39797 40092 56006 81110;
0163080270999992000070312004+43300-002500FM-12+025999999V0203201N003112200019N0400001N1+02541+01491100811ADDAA199000091GF104991041011008001001001MA1999999097901MD1710071+9999REMSYN066AAXX  03124 08027 32582 43206 10254 20149 39790 40081 57007 84100;EQDQ01  00002PRCP99
0195080270999992000070318004+43300-002500FM-12+025999999V0203201N007210125019N0030001N1+01861+01731100891ADDAA112003091GA1081+012509099GF108991081091017501999999KA1120M+02741MA1999999097911MD1410001+9999REMSYN088AAXX  03184 08027 11730 83214 10186 20173 39791 40089 54000 60032 889// 333 10274 88996;
0171080270999992000070321004+43300-002500FM-12+025999999V0203001N005110042019N0040001N1+01521+01491101261ADDAY191031AY221031GF108991081071004501999999MA1999999098231MD1210321+9999MW1921REMSYN082AAXX  03214 08027 41440 83010 10152 20149 39823 40126 52032 79292 887// 333 96010;
0178080270999992000070400004+43300-002500FM-12+025999999V0202201N003612200019N0200001N1+01461+01241101261ADDAA106019191AY191061AY281061GF101991011001017501041001MA1999999098221MD1610011+9999MW1011REMSYN078AAXX  04004 08027 11770 12207 10146 20124 39822 40126 56001 60191 70198 81040;
0133080270999992000070403004+43300-002500FM-12+025999999V0202401N004110150019N0200001N1+01581+01061101261ADDGF106991061001017501071999MA1999999098231MD1210011+9999REMSYN066AAXX  04034 08027 42770 62408 10158 20106 39823 40126 52001 8607/;
0209080270999992000070406004+43300-002500FM-12+025999999V0202401N005110360019N0300001N1+01581+01181101341ADDAA112019191GF107991021041008001071999IA1099IA2999+01009KA1120N+01421MA1999999098311MD1210081+9999REMSYN100AAXX  04064 08027 12580 72410 10158 20118 39831 40134 52008 60192 8247/ 333 20142 31010 51140 55102;
0133080270999992000070409004+43300-002500FM-12+025999999V0202701N004110075019N0250001N1+01861+01301101461ADDGF107991051021008001071999MA1999999098461MD1210151+9999REMSYN066AAXX  04094 08027 41575 72708 10186 20130 39846 40146 52015 8527/;
0163080270999992000070412004+43300-002500FM-12+025999999V0203201N007210075019N0300001N1+01881+01281101541ADDAA199000091GF106991061021008001041999MA1999999098541MD1210081+9999REMSYN066AAXX  04124 08027 32580 63214 10188 20128 39854 40154 52008 8624/;EQDQ01  00002PRCP99
0186080270999992000070418004+43300-002500FM-12+025999999V0203401N004110120019N0100001N1+01761+01341101611ADDAA199000091GF107991071081008001999999KA1999M+02021MA1999999098591MD1810041+9999REMSYN076AAXX  04184 08027 32560 73408 10176 20134 39859 40161 58004 878// 333 10202;EQDQ01  00002PRCP99
0163080270999992000070500004+43300-002500FM-12+025999999V0202201N002110360019N0150001N1+01581+01371101781ADDAA199000091GF107991011051008001051001MA1999999098741MD1210071+9999REMSYN066AAXX  05004 08027 32565 72204 10158 20137 39874 40178 52007 81550;EQDQ01  00002PRCP99
0133080270999992000070503004+43300-002500FM-12+025999999V0201801N001012200019N0150001N1+01521+01311101791ADDGF101991001001999999001011MA1999999098741MD1010001+9999REMSYN066AAXX  05034 08027 42965 11802 10152 20131 39874 40179 50000 80001;
0250080270999992000070506004+43300-002500FM-12+025999999V0201501N002110150019N0050001N1+01481+01231101761ADDAA199000091AY111061AY201061GF105991051001017501071001IA1099IA2999+01009KA1120N+01401MA1999999098711MD1710031+9999MW1101REMSYN100AAXX  05064 08027 31750 51504 10148 20123 39871 40176 57003 71010 85070 333 20140 31010 50420 55068;EQDQ01  00002PRCP99
0133080270999992000070509004+43300-002500FM-12+025999999V0201001N003112200019N0100001N1+01981+01441101751ADDGF103991011001017501031011MA1999999098751MD1310041+9999REMSYN066AAXX  05094 08027 42760 31006 10198 20144 39875 40175 53004 81031;
0163080270999992000070512004+43300-002500FM-12+025999999V0200101N005112200019N0100001N1+01981+01551101661ADDAA199000091GF103991001001999999001011MA1999999098671MD1810081+9999REMSYN066AAXX  05124 08027 32960 30110 10198 20155 39867 40166 58008 80001;EQDQ01  00002PRCP99
0186080270999992000070518004+43300-002500FM-12+025999999V0200101N002610360019N0180001N1+01931+01671101581ADDAA199000091GF107991011051008001041041KA1999M+02121MA1999999098591MD1410001+9999REMSYN076AAXX  05184 08027 32568 70105 10193 20167 39859 40158 54000 81544 333 10212;EQDQ01  00002PRCP99
0133080270999992000070521004+43300-002500FM-12+025999999V0202701N002110900019N0180001N1+01821+01691101581ADDGF106991011051008001041041MA1999999098581MD1810011+9999REMSYN066AAXX  05214 08027 42568 62704 10182 20169 39858 40158 58001 81544;
0163080270999992000070600004+43300-002500FM-12+025999999V0201701N001012200019N0200001N1+01761+01661101481ADDAA199000091GF104991011051008001001011MA1999999098471MD1810111+9999REMSYN066AAXX  06004 08027 32570 41702 10176 20166 39847 40148 58011 81501;EQDQ01  00002PRCP99
0133080270999992000070603004+43300-002500FM-12+025999999V0201501N002119999999N0200001N1+01731+01651101441ADDGF106991001001999999001041MA1999999098431MD1710041+9999REMSYN066AAXX  06034 08027 42970 61504 10173 20165 39843 40144 57004 80004;
0222080270999992000070606004+43300-002500FM-12+025999999V0201801N002110360019N0100001N1+01801+01721101181ADDAA199000091GF107991011051012501011011IA1099IA2999+01309KA1120N+01651MA1999999098191MD1610241+9999REMSYN094AAXX  06064 08027 32660 71804 10180 20172 39819 40118 56024 81511 333 20165 31013 50390 55105;EQDQ01  00002PRCP99
0133080270999992000070609004+43300-002500FM-12+025999999V0201501N009312200019N0200001N1+02541+01451101061ADDGF105991011021012501051091MA1999999098141MD1810051+9999REMSYN066AAXX  06094 08027 42670 51518 10254 20145 39814 40106 58005 81259;
0163080270999992000070612004+43300-002500FM-12+025999999V0201601N007210900019N0250001N1+02961+01711100971ADDAA199000091GF105991041001017501051021MA1999999098091MD1610051+9999REMSYN066AAXX  06124 08027 32775 51614 10296 20171 39809 40097 56005 84052;EQDQ01  00002PRCP99
0186080270999992000070618004+43300-002500FM-12+025999999V0203101N009810090019N0150001N1+01861+01761100971ADDAA199000091GF108991081081004501999999KA1999M+03341MA1999999097991MD1310061+9999REMSYN076AAXX  06184 08027 32465 83119 10186 20176 39799 40097 53006 888// 333 10334;EQDQ01  00002PRCP99
0133080270999992000070621004+43300-002500FM-12+025999999V0203001N007210090019N0200001N1+01901+01641101341ADDGF108991081081004501999999MA1999999098351MD1310361+9999REMSYN066AAXX  06214 08027 42470 83014 10190 20164 39835 40134 53036 888//;
0163080270999992000070700004+43300-002500FM-12+025999999V0202701N005112200019N0250001N1+01801+01421101471ADDAA199000091GF104991041081008001001001MA1999999098461MD1210111+9999REMSYN066AAXX  07004 08027 32575 42710 10180 20142 39846 40147 52011 84800;EQDQ01  00002PRCP99
0133080270999992000070703004+43300-002500FM-12+025999999V0202701N005112200019N0250001N1+01801+01421101471ADDGF104991041081008001001001MA1999999098461MD1410001+9999REMSYN066AAXX  07034 08027 42575 42710 10180 20142 39846 40147 54000 84800;
0222080270999992000070706004+43300-002500FM-12+025999999V0202601N003112200019N0250001N1+01781+01331101561ADDAA199000091GF104991041081008001001001IA1099IA2999+01309KA1120N+01701MA1999999098551MD1210051+9999REMSYN094AAXX  07064 08027 32575 42606 10178 20133 39855 40156 52005 84800 333 20170 31013 50410 55086;EQDQ01  00002PRCP99
0133080270999992000070709004+43300-002500FM-12+025999999V0203101N004110120019N0250001N1+01981+01471101711ADDGF105991051081008001001001MA1999999098711MD1110161+9999REMSYN066AAXX  07094 08027 42575 53108 10198 20147 39871 40171 51016 85800;
0163080270999992000070712004+43300-002500FM-12+025999999V0203101N006212200019N0300001N1+02001+01461101821ADDAA199000091GF104991041081008001001001MA1999999098821MD1210111+9999REMSYN066AAXX  07124 08027 32580 43112 10200 20146 39882 40182 52011 84800;EQDQ01  00002PRCP99
0201080270999992000070718004+43300-002500FM-12+025999999V0203101N009810120019N0100001N1+01741+01501102051ADDAA112000791AY121061AY211061GF108991081081008001999999KA1999M+02121MA1999999099021MD1210031+9999MW1501REMSYN088AAXX  07184 08027 11560 83119 10174 20150 39902 40205 52003 69902 75021 888// 333 10212;
0161080270999992000070721004+43300-002500FM-12+025999999V0203001N007210042019N0050001N1+01641+01501102181ADDAY181031AY221031GF108991081071004501999999MA1999999099141MD1210121+9999MW1501REMSYN072AAXX  07214 08027 41450 83014 10164 20150 39914 40218 52012 75082 887//;
0178080270999992000070800004+43300-002500FM-12+025999999V0203001N006210042019N0050001N1+01661+01451102151ADDAA106000591AY151061AY221061GF106991061061004501999999MA1999999099111MD1710031+9999MW1101REMSYN078AAXX  08004 08027 11450 63012 10166 20145 39911 40215 57003 69951 71052 866//;
0161080270999992000070803004+43300-002500FM-12+025999999V0203201N008210042019N0050001N1+01661+01491102061ADDAY121031AY221031GF106991061061004501999999MA1999999099021MD1710091+9999MW1101REMSYN072AAXX  08034 08027 41450 63216 10166 20149 39902 40206 57009 71022 866//;
0251080270999992000070806004+43300-002500FM-12+025999999V0203201N005110042019N0040001N1+01621+01481102071ADDAA112008991AY181061AY221061GF108991081071004501999999GJ102949IA1119IA2999+01109KA1120N+01541MA1999999099031MD1210011+9999MW1501REMSYN112AAXX  08064 08027 11440 83210 10162 20148 39903 40207 52001 60092 75082 887// 333 20154 32011 50750 55049 96010;
0161080270999992000070809004+43300-002500FM-12+025999999V0203601N006210075019N0080001N1+01681+01401102221ADDAY181031AY221031GF107991051051008001041999MA1999999099181MD1210151+9999MW1101REMSYN072AAXX  08094 08027 41558 73612 10168 20140 39918 40222 52015 71082 8554/;
0178080270999992000070812004+43300-002500FM-12+025999999V0203401N005110120019N0150001N1+01861+01761102291ADDAA106005191AY181061AY221061GF105991051081008001999999MA1999999099271MD1210091+9999MW1011REMSYN078AAXX  08124 08027 11565 53410 10186 20176 39927 40229 52009 60051 70182 858//;
0201080270999992000070818004+43300-002500FM-12+025999999V0203401N003112200019N0050001N1+01741+01321102341ADDAA112007191AY121061AY211061GF103991021021008001051001KA1999M+01961MA1999999099301MD1810051+9999MW1051REMSYN088AAXX  08184 08027 11550 33406 10174 20132 39930 40234 58005 60072 70521 82250 333 10196;
0133080270999992000070821004+43300-002500FM-12+025999999V0203301N003112200019N0100001N1+01601+01201102401ADDGF103991031021008001001001MA1999999099341MD1310041+9999REMSYN066AAXX  08214 08027 42560 33306 10160 20120 39934 40240 53004 83200;
0163080270999992000070900004+43300-002500FM-12+025999999V0202701N003110075019N0100001N1+01521+01311102331ADDAA199000091GF105991051021008001001001MA1999999099271MD1810071+9999REMSYN066AAXX  09004 08027 32560 52706 10152 20131 39927 40233 58007 85200;EQDQ01  00002PRCP99
0133080270999992000070903004+43300-002500FM-12+025999999V0202201N004112200019N0100001N1+01461+01201102121ADDGF103991031001017501031001MA1999999099061MD1810211+9999REMSYN066AAXX  09034 08027 42760 32208 10146 20120 39906 40212 58021 83030;
0250080270999992000070906004+43300-002500FM-12+025999999V0201801N002110042019N0040001N1+01441+01221102081ADDAA199000091AY111061AY201061GF106991061051004501001001IA1099IA2999+00909KA1120N+01401MA1999999099021MD1610041+9999MW1101REMSYN100AAXX  09064 08027 31440 61804 10144 20122 39902 40208 56004 71010 86500 333 20140 31009 50630 55087;EQDQ01  00002PRCP99
0161080270999992000070909004+43300-002500FM-12+025999999V0202801N003110360019N0080001N1+01841+01471101971ADDAY121031AY211031GF107991031021008001051001MA1999999098951MD1810071+9999MW1051REMSYN072AAXX  09094 08027 41558 72806 10184 20147 39895 40197 58007 70521 83250;
0163080270999992000070912004+43300-002500FM-12+025999999V0203201N003112200019N0100001N1+01961+01381101781ADDAA199000091GF103991011011008001031001MA1999999098781MD1810171+9999REMSYN066AAXX  09124 08027 32560 33206 10196 20138 39878 40178 58017 81130;EQDQ01  00002PRCP99
0214080270999992000070918004+43300-002500FM-12+025999999V0203201N002112200019N0080001N1+01771+01521101361ADDAA199000091AY111061AY211061GF103991031061004501001001KA1999M+02051MA1999999098351MD1710201+9999MW1101REMSYN082AAXX  09184 08027 31458 33204 10177 20152 39835 40136 57020 71011 83600 333 10205;EQDQ01  00002PRCP99
0133080270999992000070921004+43300-002500FM-12+025999999V0209999C000012200019N0100001N1+01661+01491101231ADDGF102991021001017501031001MA1999999098221MD1610131+9999REMSYN066AAXX  09214 08027 42760 20000 10166 20149 39822 40123 56013 82030;
0163080270999992000071000004+43300-002500FM-12+025999999V0202001N002110042019N0120001N1+01681+01551101081ADDAA199000091GF108991081051004501999999MA1999999098071MD1810151+9999REMSYN066AAXX  10004 08027 32462 82004 10168 20155 39807 40108 58015 885//;EQDQ01  00002PRCP99
0161080270999992000071003004+43300-002500FM-12+025999999V0202601N006210075019N0180001N1+01681+01481100831ADDAY161031AY261031GF108991051051008001071999MA1999999097831MD1710241+9999MW1021REMSYN072AAXX  10034 08027 41568 82612 10168 20148 39783 40083 57024 70266 8557/;
0237080270999992000071006004+43300-002500FM-12+025999999V0202401N006710360019N0080001N1+01551+01391100761ADDAA112002091AY161061AY261061GF108991041081008001071999IA1119IA2999+01209KA1120N+01551MA1999999097751MD1610081+9999MW1611REMSYN106AAXX  10064 08027 11558 82413 10155 20139 39775 40076 56008 60022 76166 8487/ 333 20155 32012 50580 55087;
0171080270999992000071009004+43300-002500FM-12+025999999V0202701N005710042019N0080001N1+01431+01411100851ADDAY161031AY241031GF108991061071004501071999MA1999999097821MD1310071+9999MW1601REMSYN082AAXX  10094 08027 41458 82711 10143 20141 39782 40085 53007 76064 8677/ 333 96010;
0178080270999992000071012004+43300-002500FM-12+025999999V0202901N008210075019N0050001N1+01521+01311100921ADDAA106041991AY161061AY241061GF108991081071008001999999MA1999999097901MD1110081+9999MW1161REMSYN078AAXX  10124 08027 11550 82916 10152 20131 39790 40092 51008 60421 71664 887//;
0201080270999992000071018004+43300-002500FM-12+025999999V0202901N008710120019N0100001N1+01541+01221100931ADDAA112041991AY181061AY221061GF107991061081008001071999KA1999M+01701MA1999999097911MD1810281+9999MW1251REMSYN088AAXX  10184 08027 11560 72917 10154 20122 39791 40093 58028 60422 72582 8687/ 333 10170;
0181080270999992000071021004+43300-002500FM-12+025999999V0203001N009810001519N0008001N1+01321+01281101031ADDAY181031AY221031GA1091+000159999GF109991091999999999999999MA1999999097991MD1310081+9999MW1811REMSYN076AAXX  10214 08027 41/08 93019 10132 20128 39799 40103 53008 78182 333 89/00;
0178080270999992000071100004+43300-002500FM-12+025999999V0202901N010810120019N0010001N1+01321+01211101041ADDAA106013091AY181061AY241061GF108991081081008001999999MA1999999097991MD1410001+9999MW1801REMSYN078AAXX  11004 08027 11510 82921 10132 20121 39799 40104 54000 60131 78084 888//;
0161080270999992000071103004+43300-002500FM-12+025999999V0203201N012910360019N0350001N1+01421+00831101031ADDAY181031AY221031GF106991021081008001031001MA1999999097991MD1410001+9999MW1011REMSYN072AAXX  11034 08027 41581 63225 10142 20083 39799 40103 54000 70182 82830;
0231080270999992000071106004+43300-002500FM-12+025999999V0202901N008210120019N0150001N1+01361+00981101201ADDAA112015091AY181061AY221061GF106991061081008001999999IA1119IA2999+01009KA1120N+01301MA1999999098151MD1310161+9999MW1021REMSYN100AAXX  11064 08027 11565 62916 10136 20098 39815 40120 53016 60152 70282 868// 333 20130 32010 55012;
0161080270999992000071109004+43300-002500FM-12+025999999V0202701N008210120019N0030001N1+01341+01121101401ADDAY181031AY221031GF107991071081008001999999MA1999999098341MD1210191+9999MW1251REMSYN072AAXX  11094 08027 41530 72716 10134 20112 39834 40140 52019 72582 878//;
0178080270999992000071112004+43300-002500FM-12+025999999V0203001N008210120019N0100001N1+01601+01081101491ADDAA106004191AY181061AY221061GF107991071081008001999999MA1999999098461MD1210121+9999MW1021REMSYN078AAXX  11124 08027 11560 73016 10160 20108 39846 40149 52012 60041 70282 878//;
0201080270999992000071118004+43300-002500FM-12+025999999V0203101N009810120019N0150001N1+01521+01071101621ADDAA112005191AY121061AY221061GF107991061081008001001011KA1999M+01721MA1999999098581MD1110031+9999MW1251REMSYN088AAXX  11184 08027 11565 73119 10152 20107 39858 40162 51003 60052 72522 86801 333 10172;
0161080270999992000071121004+43300-002500FM-12+025999999V0203201N009810120019N0150001N1+01461+00961101811ADDAY181031AY221031GF106991061081008001001001MA1999999098751MD1310171+9999MW1251REMSYN072AAXX  11214 08027 41565 63219 10146 20096 39875 40181 53017 72582 86800;
0178080270999992000071200004+43300-002500FM-12+025999999V0203301N008210120019N0150001N1+01401+01141101841ADDAA106002091AY181061AY221061GF108991081081008001999999MA1999999098781MD1110031+9999MW1251REMSYN078AAXX  12004 08027 11565 83316 10140 20114 39878 40184 51003 60021 72582 888//;
0161080270999992000071203004+43300-002500FM-12+025999999V0203201N009810120019N0300001N1+01401+01141101881ADDAY181031AY221031GF107991071081008001001001MA1999999098821MD1210041+9999MW1251REMSYN072AAXX  12034 08027 41580 73219 10140 20114 39882 40188 52004 72582 87800;
0237080270999992000071206004+43300-002500FM-12+025999999V0203501N007210120019N0150001N1+01421+01161102061ADDAA112002091AY181061AY221061GF107991071081008001999999IA1119IA2999+00909KA1120N+00301MA1999999098991MD1310171+9999MW1021REMSYN106AAXX  12064 08027 11565 73514 10142 20116 39899 40206 53017 60022 70282 878// 333 20030 32009 50590 55079;
0133080270999992000071209004+43300-002500FM-12+025999999V0203401N006210360019N0200001N1+01641+01041102191ADDGF106991041081008001071001MA1999999099141MD1210151+9999REMSYN066AAXX  12094 08027 42570 63412 10164 20104 39914 40219 52015 84870;
0178080270999992000071212004+43300-002500FM-12+025999999V0203301N003110120019N0200001N1+01621+01261102321ADDAA106001091AY181061AY221061GF106991061081008001001001MA1999999099271MD1210131+9999MW1021REMSYN078AAXX  12124 08027 11570 63306 10162 20126 39927 40232 52013 60011 70282 86800;
0173080270999992000071218004+43300-002500FM-12+025999999V0203401N002612200019N0500001N1+01701+01111102351ADDAA112001091GF101991011021012501001001KA1999M+01841MA1999999099301MD1410001+9999REMSYN082AAXX  12184 08027 12684 13405 10170 20111 39930 40235 54000 60012 81200 333 10184;
0143080270999992000071221004+43300-002500FM-12+025999999V0209999C000012200019N0400001N1+01471+01101102341ADDGA1001+999999999GF100991001001999999001001MA1999999099271MD1810031+9999REMSYN060AAXX  12214 08027 42982 00000 10147 20110 39927 40234 58003;
0163080270999992000071300004+43300-002500FM-12+025999999V0202201N002112200019N0400001N1+01361+01061102351ADDAA199000091GF101991011051012501041001MA1999999099271MD1410001+9999REMSYN066AAXX  13004 08027 32682 12204 10136 20106 39927 40235 54000 81540;EQDQ01  00002PRCP99
0152080270999992000071303004+43300-002500FM-12+025999999V0202801N003112200019N0350001N1+01341+01011102311ADDGF102991001001999999001021MA1999999099231MD1710041+9999REMSYN066AAXX  13034 08027 42881 22806 10134 20101 39923 40231 57004 80002;EQDQ01+022502SCOLCB
0237080270999992000071306004+43300-002500FM-12+025999999V0202701N004110075019N0080001N1+01431+01191102331ADDAA112000791AY111061AY211061GF108991081051008001999999IA1099IA2999+00809KA1120N+01341MA1999999099261MD1310031+9999MW1601REMSYN106AAXX  13064 08027 11558 82708 10143 20119 39926 40233 53003 69902 76011 885// 333 20134 31008 50080 55093;
0161080270999992000071309004+43300-002500FM-12+025999999V0202101N003610075019N0150001N1+01641+01361102361ADDAY161031AY261031GF107991071051008001001001MA1999999099311MD1110051+9999MW1011REMSYN072AAXX  13094 08027 41565 72107 10164 20136 39931 40236 51005 70166 87500;
0178080270999992000071312004+43300-002500FM-12+025999999V0203101N002610075019N0150001N1+01701+01371102401ADDAA106000791AY161061AY261061GF108991081051008001999999MA1999999099351MD1310041+9999MW1211REMSYN078AAXX  13124 08027 11565 83105 10170 20137 39935 40240 53004 69901 72166 885//;
0201080270999992000071318004+43300-002500FM-12+025999999V0203101N007210042019N0200001N1+01681+01401102401ADDAA112000191AY161061AY221061GF107991071051004501001001KA1999M+01861MA1999999099351MD1410001+9999MW1021REMSYN088AAXX  13184 08027 11470 73114 10168 20140 39935 40240 54000 69922 70262 87500 333 10186;
0133080270999992000071321004+43300-002500FM-12+025999999V0203101N007210090019N0200001N1+01621+01411102401ADDGF107991071081004501001001MA1999999099351MD1410001+9999REMSYN066AAXX  13214 08027 42470 73114 10162 20141 39935 40240 54000 87800;
0144080270999992000071400004+43300-002500FM-12+025999999V0202701N004110090019N0250001N1+01601+01391102411ADDAA199000021GF107991071081004501001001MA1999999099351MD1010001+9999REMSYN066AAXX  14004 08027 32475 72708 10160 20139 39935 40241 50000 87800;
0133080270999992000071403004+43300-002500FM-12+025999999V0202701N004110090019N0250001N1+01601+01391102411ADDGF107991071081004501001001MA1999999099351MD1410001+9999REMSYN066AAXX  14034 08027 42475 72708 10160 20139 39935 40241 54000 87800;
0237080270999992000071406004+43300-002500FM-12+025999999V0202901N007210042019N0120001N1+01521+01521102241ADDAA112002091AY161061AY221061GF108991081071004501999999IA1119IA2999+01109KA1120N+01501MA1999999099181MD1410001+9999MW1601REMSYN106AAXX  14064 08027 11462 82914 10152 20152 39918 40224 54000 60022 76062 887// 333 20150 32011 50210 55010;
0161080270999992000071409004+43300-002500FM-12+025999999V0203001N006210042019N0150001N1+01601+01571102201ADDAY151031AY221031GF108991081071004501999999MA1999999099151MD1810031+9999MW1501REMSYN072AAXX  14094 08027 41465 83012 10160 20157 39915 40220 58003 75052 887//;
0188080270999992000071412004+43300-002500FM-12+025999999V0203101N009810003019N0002001N1+01601+01601102191ADDAA106001091AY151061AY241061GA1091+999999999GF109991091999999999999999MA1999999099141MD1610011+9999MW1501REMSYN072AAXX  14124 08027 11702 93119 10160 20160 39914 40219 56001 60011 75054;
0211080270999992000071418004+43300-002500FM-12+025999999V0203201N011810003019N0002001N1+01601+01601102101ADDAA112003091AY151061AY241061GA1091+999999999GF109991091999999999999999KA1999M+01661MA1999999099061MD1710041+9999MW1501REMSYN082AAXX  14184 08027 11/02 93223 10160 20160 39906 40210 57004 60032 75054 333 10166;
0171080270999992000071421004+43300-002500FM-12+025999999V0203301N011810003019N0002001N1+01581+01581102151ADDAY151031AY241031GA1091+999999999GF109991091999999999999999MA1999999099101MD1110041+9999MW1501REMSYN066AAXX  14214 08027 41/02 93323 10158 20158 39910 40215 51004 75054;
0188080270999992000071500004+43300-002500FM-12+025999999V0203201N009810003019N0002001N1+01561+01561102151ADDAA106002091AY151061AY241061GA1091+999999999GF109991091999999999999999MA1999999099101MD1010001+9999MW1501REMSYN072AAXX  15004 08027 11/02 93219 10156 20156 39910 40215 50000 60021 75054;
0171080270999992000071503004+43300-002500FM-12+025999999V0203201N009810003019N0002001N1+01561+01561102041ADDAY151031AY241031GA1091+999999999GF109991091999999999999999MA1999999098991MD1710111+9999MW1501REMSYN066AAXX  15034 08027 41/02 93219 10156 20156 39899 40204 57011 75054;
0261080270999992000071506004+43300-002500FM-12+025999999V0203201N007210001519N0002001N1+01541+01541101961ADDAA112004191AY151061AY241061GA1091+000159999GF109991091999999999999999GJ100009IA1119IA2999+01109KA1120N+01501MA1999999098911MD1610081+9999MW1501REMSYN106AAXX  15064 08027 11/02 93214 10154 20154 39891 40196 56008 60042 75054 333 20150 32011 50020 55000 89/00;
0161080270999992000071509004+43300-002500FM-12+025999999V0203101N008210042019N0020001N1+01581+01581101911ADDAY151031AY241031GF108991081071004501999999MA1999999098871MD1610041+9999MW1501REMSYN072AAXX  15094 08027 41420 83116 10158 20158 39887 40191 56004 75054 887//;
0178080270999992000071512004+43300-002500FM-12+025999999V0203101N009810021019N0150001N1+01621+01591101911ADDAA106002091AY151061AY221061GF108991081071002501999999MA1999999098871MD1410001+9999MW1501REMSYN078AAXX  15124 08027 11365 83119 10162 20159 39887 40191 54000 60021 75052 887//;
0217080270999992000071518004+43300-002500FM-12+025999999V0203001N008710003019N0001001N1+01541+01521101751ADDAA112005191AY181061AY261061GA1091+000309999GF109991091999999999999999KA1120M+01681MA1999999098711MD1810081+9999MW1611REMSYN088AAXX  15184 08027 11/01 93017 10154 20152 39871 40175 58008 60052 76186 333 10168 89/01;
0178080270999992000071600004+43300-002500FM-12+025999999V0203401N005110042019N0120001N1+01521+01501101781ADDAA106011991AY161061AY241061GF108991081071004501999999MA1999999098741MD1810011+9999MW1211REMSYN078AAXX  16004 08027 11462 83410 10152 20150 39874 40178 58001 60121 72164 887//;
0171080270999992000071603004+43300-002500FM-12+025999999V0203501N004610003019N0004001N1+01501+01481101711ADDAY161031AY241031GA1091+999999999GF109991091999999999999999MA1999999098671MD1610071+9999MW1601REMSYN066AAXX  16034 08027 41/04 93509 10150 20148 39867 40171 56007 76064;
0237080270999992000071606004+43300-002500FM-12+025999999V0200101N002610042019N0150001N1+01461+01441101751ADDAA112014091AY161061AY241061GF106991051021004501031001IA1119IA2999+01109KA1120N+01461MA1999999098701MD1310031+9999MW1011REMSYN106AAXX  16064 08027 11465 60105 10146 20144 39870 40175 53003 60142 70164 85230 333 20146 32011 50230 55000;
0133080270999992000071609004+43300-002500FM-12+025999999V0200101N003612200019N0220001N1+01641+01431101781ADDGF103991031021008001001001MA1999999098751MD1110051+9999REMSYN066AAXX  16094 08027 42572 30107 10164 20143 39875 40178 51005 83200;
0144080270999992000071612004+43300-002500FM-12+025999999V0203601N003612200019N0250001N1+01751+01311101731ADDAA199000021GF103991031021008001001011MA1999999098711MD1810041+9999REMSYN066AAXX  16124 08027 32575 33607 10175 20131 39871 40173 58004 83201;
0202080270999992000071618004+43300-002500FM-12+025999999V0200201N004112200019N0200001N1+01741+01361101601ADDAA199000091GF102991021021008001001001KA1999M+01901MA1999999098581MD1710522+9999REMSYN076AAXX  16184 08027 32570 20208 10174 20136 39858 40160 57052 82200 333 10190;EQDQ01+000522APC3  Q02  00002PRCP99
0133080270999992000071621004+43300-002500FM-12+025999999V0200301N003610120019N0200001N1+01621+01381101661ADDGF106991061081008001999999MA1999999098631MD1310051+9999REMSYN066AAXX  16214 08027 42570 60307 10162 20138 39863 40166 53005 868//;
0163080270999992000071700004+43300-002500FM-12+025999999V0209999C000012200019N0300001N1+01561+01351101581ADDAA199000091GF101991011001017501041001MA1999999098541MD1810091+9999REMSYN066AAXX  17004 08027 32780 10000 10156 20135 39854 40158 58009 81040;EQDQ01  00002PRCP99
0133080270999992000071703004+43300-002500FM-12+025999999V0209999C000012200019N0250001N1+01461+01391101511ADDGF101991011081008001071999MA1999999098471MD1710071+9999REMSYN066AAXX  17034 08027 42575 10000 10146 20139 39847 40151 57007 8187/;
0222080270999992000071706004+43300-002500FM-12+025999999V0201501N003112200019N0150001N1+01301+01261101531ADDAA199000091GF104991011051012501041081IA1099IA2999+00809KA1120N+01301MA1999999098471MD1410001+9999REMSYN094AAXX  17064 08027 32665 41506 10130 20126 39847 40153 54000 81548 333 20130 31008 50450 55118;EQDQ01  00002PRCP99
0133080270999992000071709004+43300-002500FM-12+025999999V0200901N002610360019N0220001N1+01861+01261101471ADDGF106991021051012501071081MA1999999098471MD1510001+9999REMSYN066AAXX  17094 08027 42672 60905 10186 20126 39847 40147 55000 82578;
0163080270999992000071712004+43300-002500FM-12+025999999V0200301N004612200019N0250001N1+02101+01351101411ADDAA199000091GF103991011011012501071051MA1999999098431MD1710041+9999REMSYN066AAXX  17124 08027 32675 30309 10210 20135 39843 40141 57004 81175;EQDQ01  00002PRCP99
0180080270999992000071718004+43300-002500FM-12+025999999V0200201N004112200019N0400001N1+02001+01601101411ADDAA199000091GF103991999999999999999999KA1999M+02241MA1999999098431MD1410001+9999REMSYN070AAXX  17184 08027 32982 30208 10200 20160 39843 40141 54000 333 10224;EQDQ01  00002PRCP99
0133080270999992000071721004+43300-002050FM-12+025999999V0203101N001010360019N0400001N1+01901+01511101511ADDGF106991021081008001071001MA1999999098511MD1110081+9999REMSYN066AAXX  17214 08027 42582 63102 10190 20151 39851 40151 51008 82870;
0163080270999992000071800004+43300-002050FM-12+025999999V0202801N004112200019N0400001N1+01781+01611101561ADDAA199000091GF104991041001012501071001MA1999999098551MD1110041+9999REMSYN066AAXX  18004 08027 32682 42808 10178 20161 39855 40156 51004 84070;EQDQ01  00002PRCP99
0133080270999992000071803004+43300-002050FM-12+025999999V0202801N004112200019N0400001N1+01741+01581101561ADDGF104991041001012501071001MA1999999098551MD1410001+9999REMSYN066AAXX  18034 08027 42682 42808 10174 20158 39855 40156 54000 84070;
0237080270999992000071806004+43300-002050FM-12+025999999V0200201N002112200019N0150001N1+01701+01601101491ADDAA112000591AY161061AY221061GF104991041051008001001001IA1099IA2999+01309KA1120N+01641MA1999999098471MD1610081+9999MW1021REMSYN106AAXX  18064 08027 11565 40204 10170 20160 39847 40149 56008 69962 70262 84500 333 20164 31013 50250 55126;
0152080270999992000071809004+43300-002050FM-12+025999999V0203301N002112200019N0150001N1+01921+01691101531ADDGF104991999051008001001001MA1999999098541MD1110071+9999REMSYN066AAXX  18094 08027 42565 43304 10192 20169 39854 40153 51007 82500;EQDQ01+000022SCOTLC
0133080270999992000071812004+43300-002050FM-12+025999999V0203401N003112200019N0200001N1+02001+01571101531ADDGF101991011001008001011001MA1999999098541MD1410001+9999REMSYN066AAXX  18124 08027 42570 13406 10200 20157 39854 40153 54000 81010;
0186080270999992000071818004+43300-002050FM-12+025999999V0203301N003112200019N0200001N1+01941+01541101631ADDAA199000091GF103991031001012501011001KA1999M+02161MA1999999098631MD1410001+9999REMSYN076AAXX  18184 08027 32670 33306 10194 20154 39863 40163 54000 83010 333 10216;EQDQ01  00002PRCP99
0133080270999992000071821004+43300-002050FM-12+025999999V0202901N003112200019N0250001N1+01801+01671101761ADDGF103991031001012501011001MA1999999098751MD1310121+9999REMSYN066AAXX  18214 08027 42675 32906 10180 20167 39875 40176 53012 83010;
0163080270999992000071900004+43300-002050FM-12+025999999V0202801N003112200019N0300001N1+01761+01591101811ADDAA199000091GF104991041051008001001001MA1999999098791MD1010041+9999REMSYN066AAXX  19004 08027 32580 42806 10176 20159 39879 40181 50004 84500;EQDQ01  00002PRCP99
0133080270999992000071903004+43300-002050FM-12+025999999V0202801N002112200019N0300001N1+01661+01561101691ADDGF104991041051008001001001MA1999999098661MD1810131+9999REMSYN066AAXX  19034 08027 42580 42804 10166 20156 39866 40169 58013 84500;
0222080270999992000071906004+43300-002050FM-12+025999999V0209999C000010021019N0150001N1+01681+01611101721ADDAA199000091GF106991061061002501001001IA1099IA2999+01209KA1120N+01641MA1999999098701MD1310041+9999REMSYN094AAXX  19064 08027 32365 60000 10168 20161 39870 40172 53004 86600 333 20164 31012 50340 55122;EQDQ01  00002PRCP99
0133080270999992000071909004+43300-002050FM-12+025999999V0209999V001012200019N0150001N1+01941+01641101671ADDGF102991021061004501001001MA1999999098671MD1810031+9999REMSYN066AAXX  19094 08027 42465 29902 10194 20164 39867 40167 58003 82600;
0163080270999992000071912004+43300-002050FM-12+025999999V0203501N003112200019N0200001N1+01961+01701101661ADDAA199000091GF102991011011004501011001MA1999999098671MD1410001+9999REMSYN066AAXX  19124 08027 32470 23506 10196 20170 39867 40166 54000 81110;EQDQ01  00002PRCP99
0186080270999992000071918004+43300-002050FM-12+025999999V0201601N001512200019N0120001N1+02041+01751101611ADDAA199000091GF104991011011008001041011KA1999M+02101MA1999999098631MD1810041+9999REMSYN076AAXX  19184 08027 32562 41603 10204 20175 39863 40161 58004 81141 333 10210;EQDQ01  00002PRCP99
0133080270999992000071921004+43300-002050FM-12+025999999V0203001N003110075019N0100001N1+01861+01831101711ADDGF108991081051008001999999MA1999999098711MD1310081+9999REMSYN066AAXX  19214 08027 42560 83006 10186 20183 39871 40171 53008 885//;
0163080270999992000072000004+43300-002050FM-12+025999999V0202901N003610042019N0100001N1+01821+01791101721ADDAA199000091GF108991081071004501999999MA1999999098711MD1010001+9999REMSYN066AAXX  20004 08027 32460 82907 10182 20179 39871 40172 50000 887//;EQDQ01  00002PRCP99
0133080270999992000072003004+43300-002050FM-12+025999999V0202601N001512200019N0100001N1+01721+01651101731ADDGF101991011061004501001001MA1999999098711MD1410001+9999REMSYN066AAXX  20034 08027 42460 12603 10172 20165 39871 40173 54000 81600;
0222080270999992000072006004+43300-002050FM-12+025999999V0209999C000012200019N0270001N1+01701+01631101731ADDAA199000091GF103991031001017501051999IA1019IA2999+01209KA1120N+01681MA1999999098711MD1510001+9999REMSYN094AAXX  20064 08027 32777 30000 10170 20163 39871 40173 55000 8305/ 333 20168 30012 50740 55110;EQDQ01  00002PRCP99
0133080270999992000072009004+43300-002050FM-12+025999999V0203401N002112200019N0200001N1+02001+01711101731ADDGF101991011011008001001001MA1999999098741MD1110031+9999REMSYN066AAXX  20094 08027 42570 13404 10200 20171 39874 40173 51003 81100;
0173080270999992000072012004+43300-002050FM-12+025999999V0203401N003112200019N0150001N1+02081+01891101681ADDAA199000091GA1001+999999999GF100991001001999999001001MA1999999098701MD1810041+9999REMSYN060AAXX  20124 08027 32965 03406 10208 20189 39870 40168 58004;EQDQ01  00002PRCP99
0186080270999992000072018004+43300-002050FM-12+025999999V0203401N002112200019N0180001N1+02181+01661101521ADDAA199000091GF101991011011012501001001KA1999M+02231MA1999999098551MD1610041+9999REMSYN076AAXX  20184 08027 32668 13404 10218 20166 39855 40152 56004 81100 333 10223;EQDQ01  00002PRCP99
0143080270999992000072021004+43300-002050FM-12+025999999V0202801N001012200019N0200001N1+02001+01511101581ADDGA1001+999999999GF100991001001999999001001MA1999999098591MD1310041+9999REMSYN060AAXX  20214 08027 42970 02802 10200 20151 39859 40158 53004;
0173080270999992000072100004+43300-002050FM-12+025999999V0209999C000012200019N0250001N1+01921+01541101581ADDAA199000091GA1001+999999999GF100991001001999999001001MA1999999098581MD1810011+9999REMSYN060AAXX  21004 08027 32975 00000 10192 20154 39858 40158 58001;EQDQ01  00002PRCP99
0143080270999992000072103004+43300-002050FM-12+025999999V0201401N002112200019N0200001N1+01871+01521101471ADDGA1001+999999999GF100991001001999999001001MA1999999098471MD1710111+9999REMSYN060AAXX  21034 08027 42970 01404 10187 20152 39847 40147 57011;
0232080270999992000072106004+43300-002050FM-12+025999999V0201701N001012200019N0100001N1+01901+01531101461ADDAA199000091GA1001+999999999GF100991001001999999001001IA1099IA2999+01209KA1120N+01831MA1999999098461MD1810011+9999REMSYN088AAXX  21064 08027 32960 01702 10190 20153 39846 40146 58001 333 20183 31012 50430 55126;EQDQ01  00002PRCP99
0171080270999992000072109004+43300-002050FM-12+025999999V0201401N001512200019N0080001N1+02521+01941101351ADDAY101031AY201031GA1001+999999999GF100991001001999999001001MA1999999098421MD1810041+9999MW1051REMSYN066AAXX  21094 08027 41958 01403 10252 20194 39842 40135 58004 70500;
0173080270999992000072112004+43300-002050FM-12+025999999V0200301N002612200019N0120001N1+02781+02081101221ADDAA199000091GA1001+999999999GF100991001001999999001001MA1999999098331MD1710091+9999REMSYN060AAXX  21124 08027 32962 00305 10278 20208 39833 40122 57009;EQDQ01  00002PRCP99
0186080270999992000072118004+43300-002050FM-12+025999999V0200901N004612200019N0220001N1+02861+02021100871ADDAA199000091GF103991021001017501031091KA1999M+03101MA1999999097991MD1710191+9999REMSYN076AAXX  21184 08027 32772 30909 10286 20202 39799 40087 57019 82039 333 10310;EQDQ01  00002PRCP99
0143080270999992000072121004+43300-002050FM-12+025999999V0201001N004612200019N0220001N1+02581+01971100891ADDGA1001+999999999GF100991001001999999001001MA1999999097981MD1610011+9999REMSYN060AAXX  21214 08027 42972 01009 10258 20197 39798 40089 56001;
0173080270999992000072200004+43300-002050FM-12+025999999V0201501N007212200019N0200001N1+02831+01401100741ADDAA199000091GA1001+999999999GF100991001001999999001001MA1999999097851MD1810131+9999REMSYN060AAXX  22004 08027 32970 01514 10283 20140 39785 40074 58013;EQDQ01  00002PRCP99
0170080270999992000072203004+43300-002050FM-12+025999999V0201501N013912200019N0220001N1+02841+01221100501ADDGA1001+999999999GF100991001001999999001001MA1999999097621MD1610231+9999OA149902321REMSYN076AAXX  22034 08027 42972 01527 10284 20122 39762 40050 56023 333 91145 91516;
0281080270999992000072206004+43300-002050FM-12+025999999V0203201N003610021019N0005001N1+02001+01871100851ADDAA199000091AY111061AY211061GF107991061061002501001011GJ107629IA1019IA2999+01609KA1120N+02001MA1999999097891MD1310271+9999MW1461OA149902321REMSYN112AAXX  22064 08027 31305 73207 10200 20187 39789 40085 53027 74611 86601 333 20200 30016 50800 55127 91145 91516;EQDQ01  00002PRCP99
0171080270999992000072209004+43300-002050FM-12+025999999V0203101N005110021019N0013001N1+01901+01791101131ADDAY141031AY241031GF108991081061002501999999MA1999999098151MD1210261+9999MW1281REMSYN082AAXX  22094 08027 41313 83110 10190 20179 39815 40113 52026 72844 886// 333 96010;
0191080270999992000072212004+43300-002050FM-12+025999999V0203201N005710042019N0030001N1+01861+01591101261ADDAA199000091AY141061AY241061GF108991081061004501999999MA1999999098271MD1110121+9999MW1101REMSYN072AAXX  22124 08027 31430 83211 10186 20159 39827 40126 51012 71044 886//;EQDQ01  00002PRCP99
0214080270999992000072218004+43300-002050FM-12+025999999V0203501N001510075019N0070001N1+01821+01551101341ADDAA199000091AY121061AY221061GF108991081061008001999999KA1999M+02931MA1999999098341MD1810011+9999MW1101REMSYN082AAXX  22184 08027 31557 83503 10182 20155 39834 40134 58001 71022 886// 333 10293;EQDQ01  00002PRCP99
0133080270999992000072221004+43300-002050FM-12+025999999V0209999C000010075019N0100001N1+01761+01631101301ADDGF108991081061008001999999MA1999999098301MD1710041+9999REMSYN066AAXX  22214 08027 42560 80000 10176 20163 39830 40130 57004 886//;
0163080270999992000072300004+43300-002050FM-12+025999999V0200201N001010075019N0100001N1+01741+01611101231ADDAA199000091GF108991081061008001999999MA1999999098231MD1810071+9999REMSYN066AAXX  23004 08027 32560 80202 10174 20161 39823 40123 58007 886//;EQDQ01  00002PRCP99
0133080270999992000072303004+43300-002050FM-12+025999999V0200201N002110075019N0100001N1+01721+01621101111ADDGF108991081061008001999999MA1999999098111MD1610121+9999REMSYN066AAXX  23034 08027 42560 80204 10172 20162 39811 40111 56012 886//;
0250080270999992000072306004+43300-002050FM-12+025999999V0201501N000510075019N0070001N1+01701+01601101031ADDAA199000091AY121061AY221061GF107991061061008001001011IA1019IA2999+01209KA1120N+01701MA1999999098031MD1810081+9999MW1101REMSYN100AAXX  23064 08027 31557 71501 10170 20160 39803 40103 58008 71022 86601 333 20170 30012 50280 55000;EQDQ01  00002PRCP99
0161080270999992000072309004+43300-002050FM-12+025999999V0209999V000510120019N0070001N1+01861+01701100931ADDAY121031AY221031GF107991061081008001071011MA1999999097951MD1710081+9999MW1101REMSYN072AAXX  23094 08027 41557 79901 10186 20170 39795 40093 57008 71022 86871;
0191080270999992000072312004+43300-002050FM-12+025999999V0203501N003610075019N0070001N1+01981+01651100831ADDAA199000091AY121061AY221061GF108991081051008001999999MA1999999097861MD1610091+9999MW1101REMSYN072AAXX  23124 08027 31557 83507 10198 20165 39786 40083 56009 71022 885//;EQDQ01  00002PRCP99
0201080270999992000072318004+43300-002050FM-12+025999999V0203501N004110090019N0150001N1+02001+01811100821ADDAA112000391AY161061AY221061GF108991081081004501999999KA1999M+02161MA1999999097861MD1510001+9999MW1021REMSYN088AAXX  23184 08027 11465 83508 10200 20181 39786 40082 55000 69932 70262 888// 333 10216;
0161080270999992000072321004+43300-002050FM-12+025999999V0201701N003110120019N0250001N1+01681+01581101081ADDAY161031AY221031GF108991081081008001999999MA1999999098071MD1010211+9999MW1021REMSYN072AAXX  23214 08027 41575 81706 10168 20158 39807 40108 50021 70262 888//;
0178080270999992000072400004+43300-002050FM-12+025999999V0203501N002110120019N0300001N1+01701+01501101121ADDAA106000191AY161061AY221061GF108991081081008001999999MA1999999098111MD1310041+9999MW1021REMSYN078AAXX  24004 08027 11580 83504 10170 20150 39811 40112 53004 69911 70262 888//;
0133080270999992000072403004+43300-002050FM-12+025999999V0203501N002110120019N0300001N1+01681+01521101121ADDGF108991081081008001999999MA1999999098111MD1410001+9999REMSYN066AAXX  24034 08027 42580 83504 10168 20152 39811 40112 54000 888//;
0209080270999992000072406004+43300-002050FM-12+025999999V0201601N002110120019N0300001N1+01621+01521101111ADDAA112000191GF106991061081008001001001IA1099IA2999+01109KA1120N+01581MA1999999098101MD1610011+9999REMSYN100AAXX  24064 08027 12580 61604 10162 20152 39810 40111 56001 69912 86800 333 20158 31011 50230 55061;
0133080270999992000072409004+43300-002050FM-12+025999999V0202901N003112200019N0300001N1+02061+01341101071ADDGF102991021081008001001001MA1999999098101MD1410001+9999REMSYN066AAXX  24094 08027 42580 22906 10206 20134 39810 40107 54000 82800;
0163080270999992000072412004+43300-002050FM-12+025999999V0203301N003110120019N0300001N1+02001+01351101081ADDAA199000091GF105991051081008001001001MA1999999098101MD1010001+9999REMSYN066AAXX  24124 08027 32580 53306 10200 20135 39810 40108 50000 85800;EQDQ01  00002PRCP99
0186080270999992000072418004+43300-002050FM-12+025999999V0200201N003112200019N0150001N1+01921+01551100931ADDAA199000091GF102991021081008001001001KA1999M+02161MA1999999097951MD1710081+9999REMSYN076AAXX  24184 08027 32565 20206 10192 20155 39795 40093 57008 82800 333 10216;EQDQ01  00002PRCP99
0133080270999992000072421004+43300-002050FM-12+025999999V0209999V001012200019N0150001N1+01781+01581100861ADDGF102991021081008001001001MA1999999097871MD1610081+9999REMSYN066AAXX  24214 08027 42565 29902 10178 20158 39787 40086 56008 82800;
0178080270999992000072500004+43300-002050FM-12+025999999V0201801N005110120019N0200001N1+01801+01641100771ADDAA106001091AY161061AY221061GF108991081081008001999999MA1999999097791MD1610081+9999MW1601REMSYN078AAXX  25004 08027 11570 81810 10180 20164 39779 40077 56008 60011 76062 888//;
0133080270999992000072503004+43300-002050FM-12+025999999V0209999V002110120019N0300001N1+02111+01601100521ADDGF108991081081008001999999MA1999999097571MD1610221+9999REMSYN066AAXX  25034 08027 42580 89904 10211 20160 39757 40052 56022 888//;
0237080270999992000072506004+43300-002050FM-12+025999999V0201801N003110042019N0200001N1+01801+01641100691ADDAA112004191AY161061AY221061GF107991071071004501001001IA1119IA2999+01309KA1120N+01801MA1999999097711MD1310141+9999MW1601REMSYN106AAXX  25064 08027 11470 71806 10180 20164 39771 40069 53014 60042 76062 87700 333 20180 32013 50440 55119;
0161080270999992000072509004+43300-002050FM-12+025999999V0202201N002110360019N0400001N1+02021+01701100651ADDAY161031AY221031GF106991041081008001041001MA1999999097691MD1510021+9999MW1021REMSYN072AAXX  25094 08027 41582 62204 10202 20170 39769 40065 55002 70262 84840;
0178080270999992000072512004+43300-002050FM-12+025999999V0203301N008210021019N0015001N1+01681+01611100751ADDAA106008991AY181061AY241061GF108991081071002501999999MA1999999097751MD1210061+9999MW1801REMSYN078AAXX  25124 08027 11315 83316 10168 20161 39775 40075 52006 60091 78084 887//;
0201080270999992000072518004+43300-002050FM-12+025999999V0209999C000010075019N0300001N1+01881+01441100931ADDAA112047091AY181061AY221061GF107991071051008001999999KA1999M+02141MA1999999097951MD1110081+9999MW1011REMSYN088AAXX  25184 08027 11580 70000 10188 20144 39795 40093 51008 60472 70182 875// 333 10214;
0133080270999992000072521004+43300-002050FM-12+025999999V0201701N001510360019N0300001N1+01741+01391101031ADDGF105991041051008001041999MA1999999098031MD1310081+9999REMSYN066AAXX  25214 08027 42580 51703 10174 20139 39803 40103 53008 8454/;
0154080270999992000072600004+43300-002050FM-12+025999999V0201801N002112200019N0300001N1+01601+01321101091ADDAA199000021GA1001+999999999GF100991001001999999001001MA1999999098071MD1110041+9999REMSYN060AAXX  26004 08027 32980 01804 10160 20132 39807 40109 51004;
0143080270999992000072603004+43300-002050FM-12+025999999V0201601N004112200019N0300001N1+01481+01261101021ADDGA1001+999999999GF100991001001999999001001MA1999999097991MD1710081+9999REMSYN060AAXX  26034 08027 42980 01608 10148 20126 39799 40102 57008;
0222080270999992000072606004+43300-002050FM-12+025999999V0201801N002612200019N0300001N1+01581+01141101091ADDAA199000091GF101991011051012501041999IA1099IA2999+00909KA1120N+01481MA1999999098071MD1310081+9999REMSYN094AAXX  26064 08027 32680 11805 10158 20114 39807 40109 53008 8154/ 333 20148 31009 50780 55021;EQDQ01  00002PRCP99
0133080270999992000072609004+43300-002050FM-12+025999999V0209999V003112200019N0300001N1+02161+01461101211ADDGF101991011011012501041999MA1999999098251MD1210181+9999REMSYN066AAXX  26094 08027 42680 19906 10216 20146 39825 40121 52018 8114/;
0163080270999992000072612004+43300-002050FM-12+025999999V0203201N006212200019N0300001N1+02041+01541101411ADDAA199000091GF102991011051012501041999MA1999999098431MD1210181+9999REMSYN066AAXX  26124 08027 32680 23212 10204 20154 39843 40141 52018 8154/;EQDQ01  00002PRCP99
0186080270999992000072618004+43300-002050FM-12+025999999V0203401N002110360019N0300001N1+02061+01631101521ADDAA199000091GF106991031081012501071021KA1999M+02291MA1999999098541MD1810011+9999REMSYN076AAXX  26184 08027 32680 63404 10206 20163 39854 40152 58001 83872 333 10229;EQDQ01  00002PRCP99
0133080270999992000072621004+43300-002050FM-12+025999999V0203401N001010150019N0250001N1+01861+01591101631ADDGF107991051001017501071021MA1999999098631MD1310091+9999REMSYN066AAXX  26214 08027 42775 73402 10186 20159 39863 40163 53009 85072;
0163080270999992000072700004+43300-002050FM-12+025999999V0201601N002112200019N0250001N1+01721+01551101651ADDAA199000091GF101991001001999999001021MA1999999098631MD1010001+9999REMSYN066AAXX  27004 08027 32975 11604 10172 20155 39863 40165 50000 80002;EQDQ01  00002PRCP99
0133080270999992000072703004+43300-002050FM-12+025999999V0201301N002112200019N0250001N1+01621+01471101541ADDGF102991001001999999001021MA1999999098511MD1610121+9999REMSYN066AAXX  27034 08027 42975 21304 10162 20147 39851 40154 56012 80002;
0222080270999992000072706004+43300-002050FM-12+025999999V0200601N001010900019N0130001N1+01741+01611101561ADDAA199000091GF106991041061004501001021IA1099IA2999+01009KA1120N+01611MA1999999098551MD1310041+9999REMSYN094AAXX  27064 08027 32463 60602 10174 20161 39855 40156 53004 84602 333 20161 31010 50370 55127;EQDQ01  00002PRCP99
0161080270999992000072709004+43300-002050FM-12+025999999V0201201N001010360019N0080001N1+01851+01641101621ADDAY121031AY221031GF108991041061004501011999MA1999999098621MD1010071+9999MW1101REMSYN072AAXX  27094 08027 41458 81202 10185 20164 39862 40162 50007 71022 8461/;
0191080270999992000072712004+43300-002050FM-12+025999999V0203601N003110075019N0080001N1+01921+01711101631ADDAA199000091AY121061AY221061GF108991051051008001071999MA1999999098631MD1310011+9999MW1101REMSYN072AAXX  27124 08027 31558 83606 10192 20171 39863 40163 53001 71022 8557/;EQDQ01  00002PRCP99
0186080270999992000072718004+43300-002050FM-12+025999999V0203401N003610075019N0100001N1+01921+01731101781ADDAA199000091GF108991071051008001031999KA1999M+02021MA1999999098781MD1210111+9999REMSYN076AAXX  27184 08027 32560 83407 10192 20173 39878 40178 52011 8753/ 333 10202;EQDQ01  00002PRCP99
0133080270999992000072721004+43300-002050FM-12+025999999V0202701N001510900019N0150001N1+01791+01661101931ADDGF105991021061004501031011MA1999999098911MD1310131+9999REMSYN066AAXX  27214 08027 42465 52703 10179 20166 39891 40193 53013 82631;
0163080270999992000072800004+43300-002050FM-12+025999999V0202701N002612200019N0200001N1+01741+01671101931ADDAA199000091GF103991001001999999001041MA1999999098911MD1510001+9999REMSYN066AAXX  28004 08027 32970 32705 10174 20167 39891 40193 55000 80004;EQDQ01  00002PRCP99
0133080270999992000072803004+43300-002050FM-12+025999999V0202801N003612200019N0150001N1+01721+01571101941ADDGF104991031061004501031001MA1999999098911MD1410001+9999REMSYN066AAXX  28034 08027 42465 42807 10172 20157 39891 40194 54000 83630;
0250080270999992000072806004+43300-002050FM-12+025999999V0202801N003110360019N0070001N1+01751+01631102011ADDAA199000091AY121061AY221061GF107991021061004501031001IA1099IA2999+01309KA1120N+01721MA1999999098981MD1310071+9999MW1101REMSYN100AAXX  28064 08027 31457 72806 10175 20163 39898 40201 53007 71022 82630 333 20172 31013 50230 55003;EQDQ01  00002PRCP99
0161080270999992000072809004+43300-002050FM-12+025999999V0203101N003110042019N0070001N1+01821+01671102131ADDAY151031AY251031GF107991061051004501031001MA1999999099111MD1210131+9999MW1201REMSYN072AAXX  28094 08027 41457 73106 10182 20167 39911 40213 52013 72055 86530;
0178080270999992000072812004+43300-002050FM-12+025999999V0203501N003112200019N0150001N1+02041+01721102181ADDAA106000791AY151061AY251061GF104991041021008001001001MA1999999099181MD1310071+9999MW1011REMSYN078AAXX  28124 08027 11565 43506 10204 20172 39918 40218 53007 69901 70155 84200;
0167080270999992000072818004+43300-002050FM-12+025999999V0203601N002112200019N0280001N1+01981+01581102231ADDAA199000021GF101991011011008001001001KA1999M+02141MA1999999099221MD1410001+9999REMSYN076AAXX  28184 08027 32578 13604 10198 20158 39922 40223 54000 81100 333 10214;
0133080270999992000072821004+43300-002050FM-12+025999999V0203401N001012200019N0300001N1+01761+01561102341ADDGF103991031041008001999999MA1999999099301MD1310081+9999REMSYN066AAXX  28214 08027 42580 33402 10176 20156 39930 40234 53008 834//;
0163080270999992000072900004+43300-002050FM-12+025999999V0202901N001510075019N0250001N1+01701+01571102351ADDAA199000091GF106991061041008001999999MA1999999099311MD1110011+9999REMSYN066AAXX  29004 08027 32575 62903 10170 20157 39931 40235 51001 864//;EQDQ01  00002PRCP99
0133080270999992000072903004+43300-002050FM-12+025999999V0202201N001012200019N0250001N1+01621+01411102281ADDGF104991041041008001999999MA1999999099231MD1810081+9999REMSYN066AAXX  29034 08027 42575 42202 10162 20141 39923 40228 58008 844//;
0222080270999992000072906004+43300-002050FM-12+025999999V0201901N001012200019N0150001N1+01601+01531102281ADDAA199000091GF103991031051008001999999IA1019IA2999+01009KA1120N+01561MA1999999099231MD1410001+9999REMSYN094AAXX  29064 08027 32565 31902 10160 20153 39923 40228 54000 835// 333 20156 30010 50370 55088;EQDQ01  00002PRCP99
0133080270999992000072909004+43300-002050FM-12+025999999V0203201N002112200019N0100001N1+01941+01541102331ADDGF103991031081008001999999MA1999999099311MD1310081+9999REMSYN066AAXX  29094 08027 42560 33204 10194 20154 39931 40233 53008 838//;
0157080270999992000072912004+43300-002050FM-12+025999999V0203501N004112200019N0100001N1+02041+01681999999ADDAA199000091GF102991021081008001999999MA1999999099311MD1010001+9999REMSYN060AAXX  29124 08027 32560 23508 10204 20168 39931 50000 828//;EQDQ01  00002PRCP99
0186080270999992000072918004+43300-002050FM-12+025999999V0203601N002612200019N0350001N1+01941+01571102291ADDAA199000091GF103991031081008001001001KA1999M+02141MA1999999099271MD1810041+9999REMSYN076AAXX  29184 08027 32581 33605 10194 20157 39927 40229 58004 83800 333 10214;EQDQ01  00002PRCP99
0133080270999992000072921004+43300-002050FM-12+025999999V0200201N002110075019N0300001N1+01771+01521102381ADDGF105991051051008001001001MA1999999099341MD1310071+9999REMSYN066AAXX  29214 08027 42580 50204 10177 20152 39934 40238 53007 85500;
0163080270999992000073000004+43300-002050FM-12+025999999V0201301N000512200019N0300001N1+01701+01551102351ADDAA199000091GF103991031051008001001001MA1999999099311MD1810031+9999REMSYN066AAXX  30004 08027 32580 31301 10170 20155 39931 40235 58003 83500;EQDQ01  00002PRCP99
0133080270999992000073003004+43300-002050FM-12+025999999V0201201N002110075019N0300001N1+01681+01511102301ADDGF105991051051008001001001MA1999999099261MD1710051+9999REMSYN066AAXX  30034 08027 42580 51204 10168 20151 39926 40230 57005 85500;
0222080270999992000073006004+43300-002050FM-12+025999999V0201301N002112200019N0250001N1+01561+01421102321ADDAA199000091GF102991011021008001041001IA1099IA2999+01109KA1120N+01551MA1999999099261MD1510001+9999REMSYN094AAXX  30064 08027 32575 21304 10156 20142 39926 40232 55000 81240 333 20155 31011 50640 55132;EQDQ01  00002PRCP99
0133080270999992000073009004+43300-002050FM-12+025999999V0200501N002112200019N0200001N1+01961+01601102281ADDGF103991031011008001001001MA1999999099271MD1210011+9999REMSYN066AAXX  30094 08027 42570 30504 10196 20160 39927 40228 52001 83100;
0163080270999992000073012004+43300-002050FM-12+025999999V0200201N005112200019N0200001N1+01961+01601102231ADDAA199000091GF102991021051008001001001MA1999999099221MD1810051+9999REMSYN066AAXX  30124 08027 32570 20210 10196 20160 39922 40223 58005 82500;EQDQ01  00002PRCP99
0196080270999992000073018004+43300-002050FM-12+025999999V0200101N004112200019N0400001N1+02021+01731102141ADDAA199000091GA1001+999999999GF100991001001999999001001KA1999M+02161MA1999999099141MD1710051+9999REMSYN070AAXX  30184 08027 32982 00108 10202 20173 39914 40214 57005 333 10216;EQDQ01  00002PRCP99
0133080270999992000073021004+43300-002050FM-12+025999999V0209999C000012200019N0400001N1+01881+01751102211ADDGF102991021051008001001001MA1999999099191MD1310051+9999REMSYN066AAXX  30214 08027 42582 20000 10188 20175 39919 40221 53005 82500;
0163080270999992000073100004+43300-002050FM-12+025999999V0201701N001012200019N0400001N1+01761+01631102221ADDAA199000091GF102991021051008001001001MA1999999099191MD1010001+9999REMSYN066AAXX  31004 08027 32582 21702 10176 20163 39919 40222 50000 82500;EQDQ01  00002PRCP99
0163080270999992000073103004+43300-002050FM-12+025999999V0209999V001012200019N0400001N1+01761+01631102221ADDAA199000091GF102991021051008001001001MA1999999099191MD1410001+9999REMSYN066AAXX  31034 08027 32582 29902 10176 20163 39919 40222 54000 82500;EQDQ01  00002PRCP99
0238080270999992000073106004+43300-002050FM-12+025999999V0201801N002112200019N0350001N1+01701+01571102011ADDAA199000091GA1001+999999999GF100991001001999999001001IA1099IA2999+01109KA1120N+01681MA1999999098981MD1610051+9999REMSYN094AAXX  31064 08027 32981 01804 10170 20157 39898 40201 56005 86005 333 20168 31011 50050 55137;EQDQ01  00002PRCP99
0143080270999992000073109004+43300-002050FM-12+025999999V0201601N001012200019N0350001N1+02261+01851101951ADDGA1001+999999999GF100991001001999999001001MA1999999098981MD1410001+9999REMSYN060AAXX  31094 08027 42981 01602 10226 20185 39898 40195 54000;
0173080270999992000073112004+43300-002050FM-12+025999999V0209999V001012200019N0350001N1+02441+02011101921ADDAA199000091GA1001+999999999GF100991001001999999001001MA1999999098971MD1710011+9999REMSYN060AAXX  31124 08027 32981 09902 10244 20201 39897 40192 57001;EQDQ01  00002PRCP99
0196080270999992000073118004+43300-002050FM-12+025999999V0203101N006212200019N0300001N1+02241+01931101881ADDAA199000091GA1001+999999999GF100991001001999999001001KA1999M+02681MA1999999098911MD1510001+9999REMSYN070AAXX  31184 08027 32980 03112 10224 20193 39891 40188 55000 333 10268;EQDQ01  00002PRCP99
0133080270999992000073121004+43300-002050FM-12+025999999V0202901N004612200019N0200001N1+02021+01931102061ADDGF102991021051008001999999MA1999999099061MD1310151+9999REMSYN066AAXX  31214 08027 42570 22909 10202 20193 39906 40206 53015 825//;
0191080270999992000080100004+43300-002050FM-12+025999999V0203001N003110042019N0050001N1+01961+01931102071ADDAA199000091AY121061AY211061GF108991081061004501999999MA1999999099071MD1010011+9999MW1101REMSYN072AAXX  01004 08027 31450 83006 10196 20193 39907 40207 50001 71021 886//;EQDQ01  00002PRCP99
0161080270999992000080103004+43300-002050FM-12+025999999V0202901N003610042019N0040001N1+01921+01791102071ADDAY121031AY221031GF108991081061004501999999MA1999999099061MD1610011+9999MW1101REMSYN072AAXX  01034 08027 41440 82907 10192 20179 39906 40207 56001 71022 886//;
0250080270999992000080106004+43300-002050FM-12+025999999V0203201N004110042019N0040001N1+01901+01741102031ADDAA199000091AY121061AY221061GF108991081061004501999999IA1019IA2999+01509KA1120N+01901MA1999999099021MD1710041+9999MW1101REMSYN100AAXX  01064 08027 31440 83208 10190 20174 39902 40203 57004 71022 886// 333 20190 30015 50690 55132;EQDQ01  00002PRCP99
0161080270999992000080109004+43300-002050FM-12+025999999V0202801N003110042019N0040001N1+02001+01741102061ADDAY121031AY221031GF107991071061004501999999MA1999999099061MD1010041+9999MW1101REMSYN072AAXX  01094 08027 41440 72806 10200 20174 39906 40206 50004 71022 876//;
0191080270999992000080112004+43300-002050FM-12+025999999V0203201N004610042019N0040001N1+01941+01751102081ADDAA199000091AY121061AY221061GF108991081061004501999999MA1999999099071MD1310011+9999MW1101REMSYN072AAXX  01124 08027 31440 83209 10194 20175 39907 40208 53001 71022 886//;EQDQ01  00002PRCP99
0201080270999992000080118004+43300-002050FM-12+025999999V0202901N004110021019N0100001N1+01901+01771102081ADDAA112000191AY161061AY221061GF108991081061002501999999KA1999M+02061MA1999999099071MD1510001+9999MW1021REMSYN088AAXX  01184 08027 11360 82908 10190 20177 39907 40208 55000 69922 70262 886// 333 10206;
0161080270999992000080121004+43300-002050FM-12+025999999V0203201N004110021019N0250001N1+01761+01661102221ADDAY161031AY221031GF108991081061002501999999MA1999999099191MD1110121+9999MW1021REMSYN072AAXX  01214 08027 41375 83208 10176 20166 39919 40222 51012 70262 886//;
0178080270999992000080200004+43300-002050FM-12+025999999V0202801N003110021019N0150001N1+01721+01621102271ADDAA106002091AY161061AY221061GF108991081061002501999999MA1999999099231MD1210041+9999MW1021REMSYN078AAXX  02004 08027 11365 82806 10172 20162 39923 40227 52004 60021 70262 886//;
0133080270999992000080203004+43300-002050FM-12+025999999V0209999V002110021019N0150001N1+01721+01621102271ADDGF108991081061002501999999MA1999999099231MD1410001+9999REMSYN066AAXX  02034 08027 42365 89904 10172 20162 39923 40227 54000 886//;
0237080270999992000080206004+43300-002050FM-12+025999999V0201801N001010021019N0012001N1+01681+01681102231ADDAA112004191AY161061AY241061GF108991081071002501999999IA1119IA2999+01309KA1120N+01681MA1999999099191MD1410001+9999MW1601REMSYN106AAXX  02064 08027 11312 81802 10168 20168 39919 40223 54000 60042 76064 887// 333 20168 32013 50120 55000;
0161080270999992000080209004+43300-002050FM-12+025999999V0201301N001010042019N0120001N1+01801+01671102341ADDAY161031AY241031GF108991081071004501999999MA1999999099311MD1110121+9999MW1021REMSYN072AAXX  02094 08027 41462 81302 10180 20167 39931 40234 51012 70264 887//;
0178080270999992000080212004+43300-002050FM-12+025999999V0200201N001010090019N0200001N1+01881+01681102411ADDAA106002091AY161061AY221061GF108991081081004501999999MA1999999099391MD1110081+9999MW1021REMSYN078AAXX  02124 08027 11470 80202 10188 20168 39939 40241 51008 60021 70262 888//;
0173080270999992000080218004+43300-002050FM-12+025999999V0203301N003110120019N0300001N1+01841+01541102331ADDAA112002091GF107991061081008001051999KA1999M+02061MA1999999099301MD1810081+9999REMSYN082AAXX  02184 08027 12580 73306 10184 20154 39930 40233 58008 60022 8685/ 333 10206;
0133080270999992000080221004+43300-002050FM-12+025999999V0203501N003110360019N0350001N1+01741+01361102351ADDGF105991021081008001051001MA1999999099311MD1310011+9999REMSYN066AAXX  02214 08027 42581 53506 10174 20136 39931 40235 53001 82850;
0163080270999992000080300004+43300-002050FM-12+025999999V0203601N003110360019N0350001N1+01741+01361102311ADDAA199000091GF107991041081008001071999MA1999999099271MD1810041+9999REMSYN066AAXX  03004 08027 32581 73606 10174 20136 39927 40231 58004 8487/;EQDQ01  00002PRCP99
0133080270999992000080303004+43300-002050FM-12+025999999V0203201N005110120019N0300001N1+01721+01481102231ADDGF107991051081008001071999MA1999999099191MD1810081+9999REMSYN066AAXX  03034 08027 42580 73210 10172 20148 39919 40223 58008 8587/;
0237080270999992000080306004+43300-002050FM-12+025999999V0202001N002110120019N0180001N1+01481+01481102251ADDAA112003091AY181061AY221061GF108991061081008001071999IA1119IA2999+01109KA1120N+01481MA1999999099191MD1410001+9999MW1251REMSYN106AAXX  03064 08027 11568 82004 10148 20148 39919 40225 54000 60032 72582 8687/ 333 20148 32011 50590 55006;
0178080270999992000080312004+43300-002050FM-12+025999999V0203401N007210120019N0040001N1+01781+01441102291ADDAA106005191AY181061AY241061GF107991071081008001999999MA1999999099261MD1110031+9999MW1251REMSYN078AAXX  03124 08027 11540 73414 10178 20144 39926 40229 51003 60051 72584 878//;
0201080270999992000080318004+43300-002050FM-12+025999999V0203001N006210075019N0200001N1+01781+01251102421ADDAA112006191AY181061AY281061GF106991061021008001041001KA1999M+01941MA1999999099381MD1110071+9999MW1251REMSYN088AAXX  03184 08027 11570 63012 10178 20125 39938 40242 51007 60062 72588 86240 333 10194;
0161080270999992000080321004+43300-002050FM-12+025999999V0203001N007710042019N0230001N1+01681+01331102471ADDAY181031AY281031GF106991061021004501001001MA1999999099421MD1310041+9999MW1031REMSYN072AAXX  03214 08027 41473 63015 10168 20133 39942 40247 53004 70388 86200;
0178080270999992000080400004+43300-002050FM-12+025999999V0203101N003610042019N0250001N1+01571+01381102481ADDAA106000191AY181061AY281061GF107991071071004501001001MA1999999099421MD1510001+9999MW1251REMSYN078AAXX  04004 08027 11475 73107 10157 20138 39942 40248 55000 69911 72588 87700;
0161080270999992000080403004+43300-002050FM-12+025999999V0203401N006210042019N0250001N1+01581+01331102451ADDAY181031AY281031GF106991061021004501001001MA1999999099391MD1810031+9999MW1151REMSYN072AAXX  04034 08027 41475 63412 10158 20133 39939 40245 58003 71588 86200;
0237080270999992000080406004+43300-002050FM-12+025999999V0203201N006210042019N0100001N1+01541+01401102451ADDAA112008991AY181061AY281061GF107991071021004501001001IA1119IA2999+01009KA1120N+01431MA1999999099391MD1410001+9999MW1801REMSYN106AAXX  04064 08027 11460 73212 10154 20140 39939 40245 54000 60092 78088 87200 333 20143 32010 50330 55020;
0161080270999992000080409004+43300-002050FM-12+025999999V0203401N007710075019N0150001N1+01701+01351102511ADDAY181031AY281031GF107991061021008001041001MA1999999099461MD1210071+9999MW1151REMSYN072AAXX  04094 08027 41565 73415 10170 20135 39946 40251 52007 71588 86240;
0178080270999992000080412004+43300-002050FM-12+025999999V0202801N006210360019N0030001N1+01641+01571102561ADDAA106003091AY181061AY281061GF106991041021008001071001MA1999999099511MD1310051+9999MW1801REMSYN078AAXX  04124 08027 11530 62812 10164 20157 39951 40256 53005 60031 78088 84270;
0201080270999992000080418004+43300-002050FM-12+025999999V0203201N007210120019N0100001N1+01681+01361102551ADDAA112007991AY181061AY221061GF107991071081008001999999KA1999M+01861MA1999999099501MD1510001+9999MW1021REMSYN088AAXX  04184 08027 11560 73214 10168 20136 39950 40255 55000 60082 70282 878// 333 10186;
0161080270999992000080421004+43300-002050FM-12+025999999V0202901N006210120019N0100001N1+01541+01471102581ADDAY181031AY221031GF107991071081008001999999MA1999999099511MD1310011+9999MW1021REMSYN072AAXX  04214 08027 41560 72912 10154 20147 39951 40258 53001 70282 878//;
0178080270999992000080500004+43300-002050FM-12+025999999V0203401N006210120019N0100001N1+01641+01361102561ADDAA106002091AY181061AY221061GF107991071081008001999999MA1999999099501MD1810011+9999MW1021REMSYN078AAXX  05004 08027 11560 73412 10164 20136 39950 40256 58001 60021 70282 878//;
0133080270999992000080503004+43300-002050FM-12+025999999V0203301N008710120019N0100001N1+01641+01501102441ADDGF107991071081008001999999MA1999999099391MD1810111+9999REMSYN066AAXX  05034 08027 42560 73317 10164 20150 39939 40244 58011 878//;
0251080270999992000080506004+43300-002050FM-12+025999999V0202201N002110042019N0050001N1+01381+01341102461ADDAA112011991AY181061AY221061GF108991081071004501999999GJ101989IA1119IA2999+00909KA1120N+01361MA1999999099381MD1510011+9999MW1251REMSYN112AAXX  05064 08027 11450 82204 10138 20134 39938 40246 55001 60122 72582 887// 333 20136 32009 50310 55033 96060;
0133080270999992000080509004+43300-002050FM-12+025999999V0203001N001510075019N0100001N1+01681+01541102551ADDGF107991071071008001999999MA1999999099501MD1210121+9999REMSYN066AAXX  05094 08027 42560 73003 10168 20154 39950 40255 52012 877//;
0178080270999992000080512004+43300-002050FM-12+025999999V0203401N004110120019N0100001N1+01801+01491102541ADDAA106000591AY161061AY221061GF107991071081008001999999MA1999999099501MD1010001+9999MW1021REMSYN078AAXX  05124 08027 11560 73408 10180 20149 39950 40254 50000 69941 70262 878//;
0173080270999992000080518004+43300-002050FM-12+025999999V0203501N004610120019N0150001N1+01781+01401102541ADDAA112000591GF106991061081008001999999KA1999M+01981MA1999999099501MD1510011+9999REMSYN082AAXX  05184 08027 12565 63509 10178 20140 39950 40254 55001 69942 868// 333 10198;
0133080270999992000080521004+43300-002050FM-12+025999999V0203501N003610120019N0150001N1+01661+01311102651ADDGF106991061081008001999999MA1999999099591MD1310091+9999REMSYN066AAXX  05214 08027 42565 63507 10166 20131 39959 40265 53009 868//;
0163080270999992000080600004+43300-002050FM-12+025999999V0203501N003612200019N0170001N1+01641+01321102651ADDAA199000091GF104991041081008001999999MA1999999099591MD1410001+9999REMSYN066AAXX  06004 08027 32567 43507 10164 20132 39959 40265 54000 848//;EQDQ01  00002PRCP99
0133080270999992000080603004+43300-002050FM-12+025999999V0203501N003610120019N0170001N1+01641+01321102611ADDGF107991071081008001999999MA1999999099551MD1610041+9999REMSYN066AAXX  06034 08027 42567 73507 10164 20132 39955 40261 56004 878//;
0251080270999992000080606004+43300-002050FM-12+025999999V0201401N002610021019N0007001N1+01481+01451102621ADDAA112000391AY181061AY221061GF108991081071002501999999GJ104029IA1099IA2999+01009KA1120N+01481MA1999999099551MD1510001+9999MW1801REMSYN112AAXX  06064 08027 11307 81405 10148 20145 39955 40262 55000 69932 78082 887// 333 20148 31010 50140 55067 96046;
0133080270999992000080609004+43300-002050FM-12+025999999V0203201N001010075019N0100001N1+01661+01521102651ADDGF107991071071008001999999MA1999999099591MD1210041+9999REMSYN066AAXX  06094 08027 42560 73202 10166 20152 39959 40265 52004 877//;
0178080270999992000080612004+43300-002050FM-12+025999999V0203601N004110120019N0100001N1+01701+01461102641ADDAA106006191AY161061AY221061GF107991071081008001999999MA1999999099591MD1410001+9999MW1021REMSYN078AAXX  06124 08027 11560 73608 10170 20146 39959 40264 54000 60061 70262 878//;
0173080270999992000080618004+43300-002050FM-12+025999999V0203301N004110360019N0180001N1+01801+01491102551ADDAA112006191GF105991031021008001051021KA1999M+02001MA1999999099511MD1810081+9999REMSYN082AAXX  06184 08027 12568 53308 10180 20149 39951 40255 58008 60062 83252 333 10200;
0161080270999992000080621004+43300-002050FM-12+025999999V0200201N004110120019N0100001N1+01721+01591102601ADDAY121031AY221031GF107991071081008001999999MA1999999099551MD1310041+9999MW1251REMSYN072AAXX  06214 08027 41560 70208 10172 20159 39955 40260 53004 72522 878//;
0178080270999992000080700004+43300-002050FM-12+025999999V0200201N003110120019N0100001N1+01681+01511102601ADDAA106000191AY181061AY221061GF107991071081008001999999MA1999999099551MD1410001+9999MW1021REMSYN078AAXX  07004 08027 11560 70206 10168 20151 39955 40260 54000 69921 70282 878//;
0161080270999992000080703004+43300-002050FM-12+025999999V0209999C000010042019N0050001N1+01641+01501102511ADDAY121031AY221031GF107991071051004501999999MA1999999099461MD1810091+9999MW1101REMSYN072AAXX  07034 08027 41450 70000 10164 20150 39946 40251 58009 71022 875//;
0237080270999992000080706004+43300-002050FM-12+025999999V0201901N000510042019N0040001N1+01581+01551102491ADDAA112000191AY121061AY221061GF107991071051004501999999IA1099IA2999+01009KA1120N+01561MA1999999099431MD1610031+9999MW1101REMSYN106AAXX  07064 08027 11440 71901 10158 20155 39943 40249 56003 69922 71022 875// 333 20156 31010 50120 55059;
0161080270999992000080709004+43300-002050FM-12+025999999V0201301N001010042019N0080001N1+01741+01501102471ADDAY121031AY221031GF107991071051004501999999MA1999999099431MD1410001+9999MW1101REMSYN072AAXX  07094 08027 41458 71302 10174 20150 39943 40247 54000 71022 875//;
0163080270999992000080712004+43300-002050FM-12+025999999V0200101N004112200019N0100001N1+01861+01561102421ADDAA199000091GF101991011011008001001001MA1999999099391MD1810041+9999REMSYN066AAXX  07124 08027 32560 10108 10186 20156 39939 40242 58004 81100;EQDQ01  00002PRCP99
0186080270999992000080718004+43300-002050FM-12+025999999V0203501N002612200019N0180001N1+01901+01551102201ADDAA199000091GF101991011041012501001001KA1999M+02161MA1999999099181MD1710091+9999REMSYN076AAXX  07184 08027 32668 13505 10190 20155 39918 40220 57009 81400 333 10216;EQDQ01  00002PRCP99
0133080270999992000080721004+43300-002050FM-12+025999999V0200701N001510360019N0150001N1+01781+01681102251ADDGF105991041051008001031001MA1999999099221MD1310041+9999REMSYN066AAXX  07214 08027 42565 50703 10178 20168 39922 40225 53004 84530;
0163080270999992000080800004+43300-002050FM-12+025999999V0202101N001010042019N0150001N1+01701+01631102191ADDAA199000091GF108991081061004501999999MA1999999099151MD1810071+9999REMSYN066AAXX  08004 08027 32465 82102 10170 20163 39915 40219 58007 886//;EQDQ01  00002PRCP99
0133080270999992000080803004+43300-002050FM-12+025999999V0201701N003112200019N0100001N1+01641+01571102071ADDGF102991021061004501001001MA1999999099031MD1710121+9999REMSYN066AAXX  08034 08027 42460 21706 10164 20157 39903 40207 57012 82600;
0260080270999992000080806004+43300-002050FM-12+025999999V0201501N001512200019N0060001N1+01621+01541102031ADDAA199000091AY111061AY211061GA1001+999999999GF100991001001999999001001IA1099IA2999+01009KA1120N+01561MA1999999098991MD1510041+9999MW1101REMSYN094AAXX  08064 08027 31956 01503 10162 20154 39899 40203 55004 71011 333 20156 31010 50250 55095;EQDQ01  00002PRCP99
0161080270999992000080809004+43300-002050FM-12+025999999V0201201N000512200019N0060001N1+02061+01701101941ADDAY111031AY201031GF102991011061004501001011MA1999999098951MD1710041+9999MW1101REMSYN072AAXX  08094 08027 41456 21201 10206 20170 39895 40194 57004 71010 81601;
0191080270999992000080812004+43300-002050FM-12+025999999V0203601N001012200019N0050001N1+02141+01891101931ADDAA199000091AY111061AY211061GF107991011061004501001041MA1999999098951MD1810081+9999MW1101REMSYN072AAXX  08124 08027 31450 73602 10214 20189 39895 40193 58008 71011 81604;EQDQ01  00002PRCP99
0186080270999992000080818004+43300-002050FM-12+025999999V0203301N002112200019N0100001N1+02141+01951101881ADDAA199000091GF104991001001999999001041KA1999M+02341MA1999999098901MD1410001+9999REMSYN076AAXX  08184 08027 32960 43304 10214 20195 39890 40188 54000 80004 333 10234;EQDQ01  00002PRCP99
0133080270999992000080821004+43300-002050FM-12+025999999V0201901N002112200019N0120001N1+01941+01781101981ADDGF102991001001999999001041MA1999999098981MD1210081+9999REMSYN066AAXX  08214 08027 42962 21904 10194 20178 39898 40198 52008 80004;
0163080270999992000080900004+43300-002050FM-12+025999999V0203601N000512200019N0130001N1+01901+01641101961ADDAA199000091GF101991001001999999001041MA1999999098951MD1810031+9999REMSYN066AAXX  09004 08027 32963 13601 10190 20164 39895 40196 58003 80004;EQDQ01  00002PRCP99
0143080270999992000080903004+43300-002050FM-12+025999999V0209999C000012200019N0130001N1+01861+01631101921ADDGA1001+999999999GF100991001001999999001001MA1999999098911MD1610041+9999REMSYN060AAXX  09034 08027 42963 00000 10186 20163 39891 40192 56004;
0232080270999992000080906004+43300-002050FM-12+025999999V0201701N000512200019N0100001N1+01761+01661101931ADDAA199000091GA1001+999999999GF100991001001999999001001IA1099IA2999+01109KA1120N+01741MA1999999098911MD1510001+9999REMSYN088AAXX  09064 08027 32960 01701 10176 20166 39891 40193 55000 333 20174 31011 50370 55126;EQDQ01  00002PRCP99
0143080270999992000080909004+43300-002050FM-12+025999999V0201301N001012200019N0100001N1+02241+01831101921ADDGA1001+999999999GF100991001001999999001001MA1999999098951MD1110041+9999REMSYN060AAXX  09094 08027 42960 01302 10224 20183 39895 40192 51004;
0163080270999992000080912004+43300-002050FM-12+025999999V0203501N002612200019N0130001N1+02301+01931101981ADDAA199000091GF101991011011012501001001MA1999999099011MD1010061+9999REMSYN066AAXX  09124 08027 32663 13505 10230 20193 39901 40198 50006 81100;EQDQ01  00002PRCP99
0196080270999992000080918004+43300-002050FM-12+025999999V0203601N002112200019N0300001N1+02281+01841101781ADDAA199000091GA1001+999999999GF100991001001999999001001KA1999M+02521MA1999999098821MD1610071+9999REMSYN070AAXX  09184 08027 32980 03604 10228 20184 39882 40178 56007 333 10252;EQDQ01  00002PRCP99
0173080270999992000081000004+43300-002050FM-12+025999999V0201501N001012200019N0300001N1+01981+01651101791ADDAA199000091GA1001+999999999GF100991001001999999001001MA1999999098791MD1710081+9999REMSYN060AAXX  10004 08027 32980 01502 10198 20165 39879 40179 57008;EQDQ01  00002PRCP99
0143080270999992000081003004+43300-002050FM-12+025999999V0201601N001012200019N0300001N1+01981+01651101791ADDGA1001+999999999GF100991001001999999001001MA1999999098791MD1410001+9999REMSYN060AAXX  10034 08027 42980 01602 10198 20165 39879 40179 54000;
0232080270999992000081006004+43300-002050FM-12+025999999V0201601N003112200019N0120001N1+01881+01551101701ADDAA199000091GA1001+999999999GF100991001001999999001001IA1019IA2999+01209KA1120N+01861MA1999999098701MD1410001+9999REMSYN088AAXX  10064 08027 32962 01606 10188 20155 39870 40170 54000 333 20186 30012 50250 55131;EQDQ01  00002PRCP99
0143080270999992000081009004+43300-002050FM-12+025999999V0201301N002612200019N0150001N1+02341+01741101651ADDGA1001+999999999GF100991001001999999001001MA1999999098701MD1410001+9999REMSYN060AAXX  10094 08027 42965 01305 10234 20174 39870 40165 54000;
0173080270999992000081012004+43300-002050FM-12+025999999V0201001N003112200019N0150001N1+02821+01761101491ADDAA199000091GA1001+999999999GF100991001001999999001001MA1999999098591MD1810111+9999REMSYN060AAXX  10124 08027 32965 01006 10282 20176 39859 40149 58011;EQDQ01  00002PRCP99
0214080270999992000081018004+43300-002050FM-12+025999999V0200601N002112200019N0030001N1+02941+02111101251ADDAA199000091AY101061AY201061GF101991011001017501081001KA1999M+03121MA1999999098371MD1810101+9999MW1051REMSYN082AAXX  10184 08027 31730 10604 10294 20211 39837 40125 58010 70500 81080 333 10312;EQDQ01  00002PRCP99
0161080270999992000081021004+43300-002050FM-12+025999999V0209999C000012200019N0030001N1+02501+02111101271ADDAY101031AY201031GF102991021001017501081001MA1999999098351MD1510021+9999MW1051REMSYN072AAXX  10214 08027 41730 20000 10250 20211 39835 40127 55002 70500 82080;
0207080270999992000081100004+43300-002050FM-12+025999999V0203101N005112200019N0006001N1+02041+02011101321ADDAA199000091AY101061AY201061GF104991999081002501001001MA1999999098351MD1510001+9999MW1421REMSYN072AAXX  11004 08027 31306 43110 10204 20201 39835 40132 55000 74200 82800;EQDQ01+000022SCOTLCQ02  00002PRCP99
0171080270999992000081103004+43300-002050FM-12+025999999V0203101N005110006019N0006001N1+02001+01981101321ADDAY141031AY241031GA1091+999999999GF109991091999999999999999MA1999999098351MD1410001+9999MW1471REMSYN066AAXX  11034 08027 41306 93110 10200 20198 39835 40132 54000 74744;
0274080270999992000081106004+43300-002050FM-12+025999999V0201401N001510001519N0003001N1+01941+01941101211ADDAA199000091AY141061AY241061GA1091+000159999GF109991091999999999999999GJ107629IA1099IA2999+01509KA1120N+01941MA1999999098231MD1810111+9999MW1451REMSYN100AAXX  11064 08027 31/03 91403 10194 20194 39823 40121 58011 74544 333 20194 31015 50630 55127 89/00;EQDQ01  00002PRCP99
0181080270999992000081109004+43300-002050FM-12+025999999V0201201N000510001519N0008001N1+02101+01981101231ADDAY141031AY241031GA1091+000159999GF109991091999999999999999MA1999999098271MD1310041+9999MW1451REMSYN076AAXX  11094 08027 41/08 91201 10210 20198 39827 40123 53004 74544 333 89/00;
0191080270999992000081112004+43300-002050FM-12+025999999V0203301N003110021019N0010001N1+02141+01951101211ADDAA199000091AY141061AY221061GF108991081061002501999999MA1999999098251MD1810021+9999MW1101REMSYN072AAXX  11124 08027 31310 83306 10214 20195 39825 40121 58002 71042 886//;EQDQ01  00002PRCP99
0214080270999992000081118004+43300-002050FM-12+025999999V0203001N009810042019N0100001N1+01961+01731101321ADDAA199000091AY191061AY291061GF108991081071004501999999KA1999M+02201MA1999999098341MD1310111+9999MW1021REMSYN082AAXX  11184 08027 31460 83019 10196 20173 39834 40132 53011 70299 887// 333 10220;EQDQ01  00002PRCP99
0161080270999992000081121004+43300-002050FM-12+025999999V0202901N003610021019N0120001N1+01741+01611101481ADDAY191031AY281031GF108991081071002501999999MA1999999098471MD1010131+9999MW1801REMSYN072AAXX  11214 08027 41362 82907 10174 20161 39847 40148 50013 78098 887//;
0178080270999992000081200004+43300-002050FM-12+025999999V0202701N008210075019N0200001N1+01761+01631101441ADDAA106009991AY191061AY281061GF108991081051008001999999MA1999999098431MD1810041+9999MW1251REMSYN078AAXX  12004 08027 11570 82716 10176 20163 39843 40144 58004 60101 72598 885//;
0161080270999992000081203004+43300-002050FM-12+025999999V0202701N006210042019N0150001N1+01721+01651101441ADDAY181031AY281031GF108991081071004501999999MA1999999098431MD1510001+9999MW1251REMSYN072AAXX  12034 08027 41465 82712 10172 20165 39843 40144 55000 72588 887//;
0237080270999992000081206004+43300-002050FM-12+025999999V0202701N005710042019N0120001N1+01741+01571101561ADDAA112010991AY181061AY281061GF108991081071004501999999IA1119IA2999+01309KA1120N+01721MA1999999098551MD1310121+9999MW1151REMSYN106AAXX  12064 08027 11462 82711 10174 20157 39855 40156 53012 60112 71588 887// 333 20172 32013 50170 55000;
0161080270999992000081209004+43300-002050FM-12+025999999V0202701N004110042019N0015001N1+01681+01661101681ADDAY161031AY261031GF108991081071004501999999MA1999999098661MD1310111+9999MW1601REMSYN072AAXX  12094 08027 41415 82708 10168 20166 39866 40168 53011 76066 887//;
0178080270999992000081212004+43300-002050FM-12+025999999V0203101N006710042019N0060001N1+01761+01661101731ADDAA106004191AY161061AY241061GF108991081071004501999999MA1999999098711MD1210051+9999MW1211REMSYN078AAXX  12124 08027 11456 83113 10176 20166 39871 40173 52005 60041 72164 887//;
0201080270999992000081218004+43300-002050FM-12+025999999V0203201N001012200019N0200001N1+02021+01731101701ADDAA112004191AY161061AY221061GF104991031021004501071001KA1999M+02041MA1999999098711MD1410001+9999MW1011REMSYN088AAXX  12184 08027 11470 43202 10202 20173 39871 40170 54000 60042 70162 83270 333 10204;
0133080270999992000081221004+43300-002050FM-12+025999999V0200201N001012200019N0300001N1+01781+01581101811ADDGF102991021051004501001001MA1999999098791MD1310081+9999REMSYN066AAXX  12214 08027 42480 20202 10178 20158 39879 40181 53008 82500;
0144080270999992000081300004+43300-002050FM-12+025999999V0201601N002112200019N0300001N1+01701+01571101821ADDAA199000021GF102991021051004501001001MA1999999098791MD1410001+9999REMSYN066AAXX  13004 08027 32480 21604 10170 20157 39879 40182 54000 82500;
0222080270999992000081306004+43300-002050FM-12+025999999V0201501N004110360019N0200001N1+01621+01481101661ADDAA199000091GF107991021051004501011001IA1099IA2999+01109KA1120N+01561MA1999999098631MD1510121+9999REMSYN094AAXX  13064 08027 32470 71508 10162 20148 39863 40166 55012 82510 333 20156 31011 50030 55022;EQDQ01  00002PRCP99
0152080270999992000081309004+43300-002050FM-12+025999999V0201701N002119999999N0150001N1+02081+01621101731ADDGF106991999001012501011001MA1999999098751MD1210121+9999REMSYN066AAXX  13094 08027 42665 61704 10208 20162 39875 40173 52012 81010;EQDQ01+000012SCOTLC
0173080270999992000081312004+43300-002050FM-12+025999999V0203101N002112200019N0200001N1+02261+01921101711ADDAA199000091GA1001+999999999GF100991001001999999001001MA1999999098751MD1410001+9999REMSYN060AAXX  13124 08027 32970 03104 10226 20192 39875 40171 54000;EQDQ01  00002PRCP99
0180080270999992000081318004+43300-002050FM-12+025999999V0203101N004112200019N0200001N1+02141+01861101841ADDAA199000091GF101991999999012501999999KA1999M+02461MA1999999098861MD1110101+9999REMSYN070AAXX  13184 08027 32670 13108 10214 20186 39886 40184 51010 333 10246;EQDQ01  00002PRCP99
0133080270999992000081321004+43300-002050FM-12+025999999V0202901N002112200019N0200001N1+01941+01781102081ADDGF101991011001012501011001MA1999999099071MD1210211+9999REMSYN066AAXX  13214 08027 42670 12904 10194 20178 39907 40208 52021 81010;
0143080270999992000081403004+43300-002050FM-12+025999999V0209999V001012200019N0300001N1+01841+01711102171ADDGA1001+999999999GF100991001001999999001001MA1999999099151MD1410001+9999REMSYN060AAXX  14034 08027 42980 09902 10184 20171 39915 40217 54000;
0232080270999992000081406004+43300-002050FM-12+025999999V0209999C000012200019N0200001N1+01801+01701102091ADDAA199000091GA1001+999999999GF100991001001999999001001IA1099IA2999+01309KA1120N+01801MA1999999099071MD1410001+9999REMSYN088AAXX  14064 08027 32970 00000 10180 20170 39907 40209 54000 333 20180 31013 50190 55101;EQDQ01  00002PRCP99
0143080270999992000081409004+43300-002050FM-12+025999999V0203201N002112200019N0200001N1+02141+01861102141ADDGA1001+999999999GF100991001001999999001001MA1999999099151MD1210081+9999REMSYN060AAXX  14094 08027 42970 03204 10214 20186 39915 40214 52008;
0173080270999992000081412004+43300-002050FM-12+025999999V0203601N002112200019N0250001N1+02181+01901102211ADDAA199000091GA1001+999999999GF100991001001999999001001MA1999999099231MD1110081+9999REMSYN060AAXX  14124 08027 32975 03604 10218 20190 39923 40221 51008;EQDQ01  00002PRCP99
0214080270999992000081418004+43300-002050FM-12+025999999V0203301N003110042019N0080001N1+02141+01921102221ADDAA199000091AY121061AY211061GF107991071051004501999999KA1999M+02341MA1999999099231MD1310051+9999MW1101REMSYN082AAXX  14184 08027 31458 73306 10214 20192 39923 40222 53005 71021 875// 333 10234;EQDQ01  00002PRCP99
0161080270999992000081421004+43300-002050FM-12+025999999V0203301N004110042019N0050001N1+02021+01931102441ADDAY121031AY221031GF107991071051004501999999MA1999999099431MD1310201+9999MW1101REMSYN072AAXX  14214 08027 41450 73308 10202 20193 39943 40244 53020 71022 875//;
0191080270999992000081500004+43300-002050FM-12+025999999V0203301N001010021019N0030001N1+01981+01891102441ADDAA199000091AY121061AY221061GF108991081061002501999999MA1999999099431MD1410001+9999MW1101REMSYN072AAXX  15004 08027 31330 83302 10198 20189 39943 40244 54000 71022 886//;EQDQ01  00002PRCP99
0161080270999992000081503004+43300-002050FM-12+025999999V0203401N002110021019N0030001N1+01961+01931102401ADDAY121031AY221031GF107991071061002501999999MA1999999099391MD1810041+9999MW1101REMSYN072AAXX  15034 08027 41330 73404 10196 20193 39939 40240 58004 71022 876//;
0237080270999992000081506004+43300-002050FM-12+025999999V0203501N002110021019N0030001N1+01941+01881102391ADDAA112000791AY121061AY221061GF108991081061002501999999IA1099IA2999+01509KA1120N+01941MA1999999099381MD1510011+9999MW1501REMSYN106AAXX  15064 08027 11330 83504 10194 20188 39938 40239 55001 69902 75022 886// 333 20194 31015 50610 55115;
0181080270999992000081509004+43300-002050FM-12+025999999V0201001N002110001519N0000001N1+01901+01871102411ADDAY151031AY241031GA1091+000159999GF109991091999999999999999MA1999999099391MD1310011+9999MW1511REMSYN076AAXX  15094 08027 41/00 91004 10190 20187 39939 40241 53001 75154 333 89/00;
0178080270999992000081512004+43300-002050FM-12+025999999V0200301N003110021019N0010001N1+02021+01961102271ADDAA106002091AY151061AY241061GF107991071061002501999999MA1999999099271MD1810121+9999MW1101REMSYN078AAXX  15124 08027 11310 70306 10202 20196 39927 40227 58012 60021 71054 876//;
0201080270999992000081518004+43300-002050FM-12+025999999V0200201N002610042019N0015001N1+01971+01921102141ADDAA112002091AY121061AY221061GF108991081071004501999999KA1999M+02241MA1999999099141MD1810011+9999MW1501REMSYN088AAXX  15184 08027 11415 80205 10197 20192 39914 40214 58001 60022 75022 887// 333 10224;
0161080270999992000081521004+43300-002050FM-12+025999999V0200201N001010042019N0120001N1+01981+01921102141ADDAY151031AY251031GF108991081071004501999999MA1999999099141MD1510001+9999MW1021REMSYN072AAXX  15214 08027 41462 80202 10198 20192 39914 40214 55000 70255 887//;
0178080270999992000081600004+43300-002050FM-12+025999999V0203201N001010042019N0120001N1+01961+01901102071ADDAA106000791AY151061AY251061GF108991081071004501999999MA1999999099071MD1610071+9999MW1021REMSYN078AAXX  16004 08027 11462 83202 10196 20190 39907 40207 56007 69901 70255 887//;
0161080270999992000081609004+43300-002050FM-12+025999999V0203101N002110042019N0050001N1+02121+01901101811ADDAY121031AY221031GF106991061051004501001001MA1999999098831MD1810041+9999MW1101REMSYN072AAXX  16094 08027 41450 63104 10212 20190 39883 40181 58004 71022 86500;
0191080270999992000081612004+43300-002050FM-12+025999999V0203301N003112200019N0060001N1+02181+01961101711ADDAA199000091AY121061AY211061GF103991031051008001001001MA1999999098741MD1810091+9999MW1101REMSYN072AAXX  16124 08027 31556 33306 10218 20196 39874 40171 58009 71021 83500;EQDQ01  00002PRCP99
0214080270999992000081618004+43300-002050FM-12+025999999V0203201N003610075019N0060001N1+02021+01861101701ADDAA199000091AY121061AY221061GF108991081051008001999999KA1999M+02281MA1999999098711MD1510001+9999MW1101REMSYN082AAXX  16184 08027 31556 83207 10202 20186 39871 40170 55000 71022 885// 333 10228;EQDQ01  00002PRCP99
0161080270999992000081621004+43300-002050FM-12+025999999V0203401N003610042019N0060001N1+01941+01841101831ADDAY151031AY221031GF108991081071004501999999MA1999999098831MD1210121+9999MW1201REMSYN072AAXX  16214 08027 41456 83407 10194 20184 39883 40183 52012 72052 887//;
0178080270999992000081700004+43300-002050FM-12+025999999V0209999C000010042019N0030001N1+01921+01891101821ADDAA106000591AY151061AY221061GF108991081071004501999999MA1999999098821MD1610011+9999MW1201REMSYN078AAXX  17004 08027 11430 80000 10192 20189 39882 40182 56001 69951 72052 887//;
0161080270999992000081703004+43300-002050FM-12+025999999V0201601N001010042019N0040001N1+01881+01821101711ADDAY121031AY221031GF108991081071004501999999MA1999999098711MD1810111+9999MW1501REMSYN072AAXX  17034 08027 41440 81602 10188 20182 39871 40171 58011 75022 887//;
0209080270999992000081706004+43300-002050FM-12+025999999V0201501N002110075019N0100001N1+01821+01761101721ADDAA112000591GF108991081051008001999999IA1099IA2999+01409KA1120N+01821MA1999999098711MD1510001+9999REMSYN100AAXX  17064 08027 12560 81504 10182 20176 39871 40172 55000 69952 885// 333 20182 31014 50370 55069;
0133080270999992000081709004+43300-002050FM-12+025999999V0201601N001010075019N0100001N1+02041+01781101741ADDGF108991061051008001071999MA1999999098751MD1210041+9999REMSYN066AAXX  17094 08027 42560 81602 10204 20178 39875 40174 52004 8657/;
0144080270999992000081712004+43300-002050FM-12+025999999V0200101N003110120019N0100001N1+02121+01871101641ADDAA199000021GF107991051081008001071999MA1999999098671MD1810081+9999REMSYN066AAXX  17124 08027 32560 70106 10212 20187 39867 40164 58008 8587/;
0186080270999992000081718004+43300-002050FM-12+025999999V0200201N002610075019N0100001N1+01961+01871101541ADDAA199000091GF108991061051008001071001KA1999M+02181MA1999999098551MD1710031+9999REMSYN076AAXX  17184 08027 32560 80205 10196 20187 39855 40154 57003 86570 333 10218;EQDQ01  00002PRCP99
0133080270999992000081721004+43300-002050FM-12+025999999V0200301N002610075019N0100001N1+01961+01731101541ADDGF108991061051008001071999MA1999999098551MD1510001+9999REMSYN066AAXX  17214 08027 42560 80305 10196 20173 39855 40154 55000 8657/;
0178080270999992000081800004+43300-002050FM-12+025999999V0200701N002110075019N0100001N1+01921+01791101461ADDAA106000591AY181061AY221061GF108991061051008001071999MA1999999098471MD1710081+9999MW1021REMSYN078AAXX  18004 08027 11560 80704 10192 20179 39847 40146 57008 69941 70282 8657/;
0133080270999992000081803004+43300-002050FM-12+025999999V0200801N001010360019N0150001N1+01861+01731101301ADDGF107991041051008001071001MA1999999098311MD1710161+9999REMSYN066AAXX  18034 08027 42565 70802 10186 20173 39831 40130 57016 84570;
0209080270999992000081806004+43300-002050FM-12+025999999V0201701N001010360019N0150001N1+01781+01651101231ADDAA112000591GF105991031051002501071001IA1099IA2999+01209KA1120N+01781MA1999999098231MD1710081+9999REMSYN100AAXX  18064 08027 12365 51702 10178 20165 39823 40123 57008 69942 83570 333 20178 31012 50094 55013;
0133080270999992000081809004+43300-002050FM-12+025999999V0203301N001512200019N0150001N1+02021+01661101071ADDGF102991021051004501001001MA1999999098101MD1710131+9999REMSYN066AAXX  18094 08027 42465 23303 10202 20166 39810 40107 57013 82500;
0163080270999992000081812004+43300-002050FM-12+025999999V0203301N003112200019N0150001N1+02141+01821101001ADDAA199000091GF101991011051008001001001MA1999999098051MD1710051+9999REMSYN066AAXX  18124 08027 32565 13306 10214 20182 39805 40100 57005 81500;EQDQ01  00002PRCP99
0186080270999992000081818004+43300-002050FM-12+025999999V0202901N005110120019N0200001N1+02041+01721101161ADDAA199000091GF107991071081008001001001KA1999M+02301MA1999999098191MD1310131+9999REMSYN076AAXX  18184 08027 32570 72910 10204 20172 39819 40116 53013 87800 333 10230;EQDQ01  00002PRCP99
0161080270999992000081821004+43300-002050FM-12+025999999V0209999V002110120019N0200001N1+01941+01811101331ADDAY191031AY281031GF107991071081008001001001MA1999999098351MD1210161+9999MW1021REMSYN072AAXX  18214 08027 41570 79904 10194 20181 39835 40133 52016 70298 87800;
0178080270999992000081900004+43300-002050FM-12+025999999V0201601N002112200019N0250001N1+01861+01701101341ADDAA106000191AY191061AY281061GF104991041081008001001001MA1999999098351MD1010001+9999MW1011REMSYN078AAXX  19004 08027 11575 41604 10186 20170 39835 40134 50000 69921 70198 84800;
0209080270999992000081906004+43300-002050FM-12+025999999V0200201N002112200019N0250001N1+01881+01681101181ADDAA112000191GF102991021051008001001001IA1019IA2999+01109KA1120N+01741MA1999999098191MD1610161+9999REMSYN100AAXX  19064 08027 12575 20204 10188 20168 39819 40118 56016 69922 82500 333 20174 30011 50450 55095;
0133080270999992000081909004+43300-002050FM-12+025999999V0203201N004112200019N0150001N1+02081+01861101241ADDGF103991031051008001001001MA1999999098271MD1110081+9999REMSYN066AAXX  19094 08027 42565 33208 10208 20186 39827 40124 51008 83500;
0163080270999992000081912004+43300-002050FM-12+025999999V0203401N002112200019N0150001N1+02221+02011101131ADDAA199000091GF102991021051008001001001MA1999999098181MD1810091+9999REMSYN066AAXX  19124 08027 32565 23404 10222 20201 39818 40113 58009 82500;EQDQ01  00002PRCP99
0214080270999992000081918004+43300-002050FM-12+025999999V0203101N006210021019N0030001N1+02161+02041100971ADDAA199000091AY121061AY211061GF107991071061002501999999KA1999M+02561MA1999999098021MD1510001+9999MW1101REMSYN082AAXX  19184 08027 31330 73112 10216 20204 39802 40097 55000 71021 876// 333 10256;EQDQ01  00002PRCP99
0161080270999992000081921004+43300-002050FM-12+025999999V0203401N004110021019N0030001N1+02061+01901101311ADDAY121031AY221031GF108991081061002501999999MA1999999098341MD1310321+9999MW1501REMSYN072AAXX  19214 08027 41330 83408 10206 20190 39834 40131 53032 75022 886//;
0178080270999992000082000004+43300-002050FM-12+025999999V0203601N002110021019N0030001N1+02001+01911101281ADDAA106000791AY151061AY221061GF108991081061002501999999MA1999999098311MD1810031+9999MW1101REMSYN078AAXX  20004 08027 11330 83604 10200 20191 39831 40128 58003 69901 71052 886//;
0161080270999992000082003004+43300-002050FM-12+025999999V0200901N001010021019N0030001N1+01961+01931101241ADDAY121031AY221031GF108991081061002501999999MA1999999098261MD1710051+9999MW1101REMSYN072AAXX  20034 08027 41330 80902 10196 20193 39826 40124 57005 71022 886//;
0261080270999992000082006004+43300-002050FM-12+025999999V0201401N002110001519N0006001N1+01881+01751101121ADDAA112000791AY121061AY221061GA1091+000159999GF109991091999999999999999GJ105349IA1099IA2999+01309KA1120N+01861MA1999999098141MD1810121+9999MW1471REMSYN106AAXX  20064 08027 11/06 91404 10188 20175 39814 40112 58012 69902 74722 333 20186 31013 50370 55089 89/00;
0161080270999992000082009004+43300-002050FM-12+025999999V0203101N002110900019N0020001N1+02141+01891101101ADDAY141031AY221031GF107991031001017501031021MA1999999098141MD1510001+9999MW1101REMSYN072AAXX  20094 08027 41720 73104 10214 20189 39814 40110 55000 71042 83032;
0191080270999992000082012004+43300-002050FM-12+025999999V0203201N005110360019N0020001N1+02261+01981101201ADDAA199000091AY141061AY221061GF107991031081008001051999MA1999999098251MD1310111+9999MW1101REMSYN072AAXX  20124 08027 31520 73210 10226 20198 39825 40120 53011 71042 8385/;EQDQ01  00002PRCP99
0186080270999992000082018004+43300-002050FM-12+025999999V0203001N008210360019N0180001N1+01961+01631101541ADDAA199000091GF107991011051008001071001KA1999M+02571MA1999999098551MD1010041+9999REMSYN076AAXX  20184 08027 32568 73016 10196 20163 39855 40154 50004 81570 333 10257;EQDQ01  00002PRCP99
0161080270999992000082021004+43300-002050FM-12+025999999V0202901N005110075019N0200001N1+01861+01801101671ADDAY181031AY281031GF108991061021008001071999MA1999999098671MD1010121+9999MW1801REMSYN072AAXX  20214 08027 41570 82910 10186 20180 39867 40167 50012 78088 8627/;
0178080270999992000082100004+43300-002050FM-12+025999999V0203401N004110042019N0200001N1+01771+01721101641ADDAA106001091AY181061AY281061GF108991081071004501999999MA1999999098631MD1610041+9999MW1801REMSYN078AAXX  21004 08027 11470 83408 10177 20172 39863 40164 56004 60011 78088 887//;
0161080270999992000082103004+43300-002050FM-12+025999999V0200601N002110075019N0150001N1+01661+01591101561ADDAY181031AY281031GF108991081051008001999999MA1999999098541MD1710091+9999MW1601REMSYN072AAXX  21034 08027 41565 80604 10166 20159 39854 40156 57009 76088 885//;
0237080270999992000082106004+43300-002050FM-12+025999999V0201501N002110120019N0200001N1+01641+01541101521ADDAA112017091AY181061AY261061GF107991071081008001031001IA1119IA2999+01109KA1120N+01641MA1999999098501MD1510041+9999MW1021REMSYN106AAXX  21064 08027 11570 71504 10164 20154 39850 40152 55004 60172 70286 87830 333 20164 32011 50400 55052;
0161080270999992000082109004+43300-002050FM-12+025999999V0200101N005110042019N0150001N1+01541+01361101581ADDAY181031AY281031GF108991081071004501999999MA1999999098541MD1310041+9999MW1801REMSYN072AAXX  21094 08027 41465 80110 10154 20136 39854 40158 53004 78088 887//;
0178080270999992000082112004+43300-002050FM-12+025999999V0203301N002110075019N0250001N1+01741+01541101801ADDAA106001091AY181061AY281061GF107991061021008001041001MA1999999098781MD1110241+9999MW1011REMSYN078AAXX  21124 08027 11575 73304 10174 20154 39878 40180 51024 60011 70188 86240;
0201080270999992000082118004+43300-002050FM-12+025999999V0203201N003112200019N0250001N1+01761+01451101841ADDAA112002091AY181061AY221061GF101991011021008001999999KA1999M+01921MA1999999098821MD1810051+9999MW1011REMSYN088AAXX  21184 08027 11575 13206 10176 20145 39882 40184 58005 60022 70182 812// 333 10192;
0133080270999992000082121004+43300-002050FM-12+025999999V0201601N001012200019N0300001N1+01561+01381101921ADDGF101991011021008001999999MA1999999098871MD1110051+9999REMSYN066AAXX  21214 08027 42580 11602 10156 20138 39887 40192 51005 812//;
0163080270999992000082200004+43300-002050FM-12+025999999V0201701N001512200019N0250001N1+01481+01341101761ADDAA199000091GF101991011021008001999999MA1999999098711MD1710161+9999REMSYN066AAXX  22004 08027 32575 11703 10148 20134 39871 40176 57016 812//;EQDQ01  00002PRCP99
0133080270999992000082203004+43300-002050FM-12+025999999V0201901N002612200019N0300001N1+01361+01321101601ADDGF101991011001017501041999MA1999999098541MD1710171+9999REMSYN066AAXX  22034 08027 42780 11905 10136 20132 39854 40160 57017 8104/;
0222080270999992000082206004+43300-002050FM-12+025999999V0201601N003112200019N0300001N1+01361+01211101401ADDAA199000091GF102991011001017501071011IA1099IA2999+00709KA1120N+01321MA1999999098351MD1710191+9999REMSYN094AAXX  22064 08027 32780 21606 10136 20121 39835 40140 57019 81071 333 20132 31007 50210 55061;EQDQ01  00002PRCP99
0133080270999992000082209004+43300-002050FM-12+025999999V0202001N002612200019N0300001N1+02081+01661101281ADDGF104991001001999999001051MA1999999098311MD1610041+9999REMSYN066AAXX  22094 08027 42980 42005 10208 20166 39831 40128 56004 80005;
0163080270999992000082212004+43300-002050FM-12+025999999V0201601N008219999999N0300001N1+02461+01471101121ADDAA199000091GF106991001001999999001081MA1999999098191MD1810121+9999REMSYN066AAXX  22124 08027 32980 61616 10246 20147 39819 40112 58012 80008;EQDQ01  00002PRCP99
0186080270999992000082218004+43300-002050FM-12+025999999V0200201N004112200019N0200001N1+02341+01871100861ADDAA199000091GF102991001001999999001011KA1999M+02761MA1999999097931MD1710141+9999REMSYN076AAXX  22184 08027 32970 20208 10234 20187 39793 40086 57014 80001 333 10276;EQDQ01  00002PRCP99
0133080270999992000082221004+43300-002050FM-12+025999999V0202801N002112200019N0200001N1+02201+01721101001ADDGF101991001001999999001011MA1999999098051MD1310121+9999REMSYN066AAXX  22214 08027 42970 12804 10220 20172 39805 40100 53012 80001;
0173080270999992000082300004+43300-002050FM-12+025999999V0201801N003112200019N0250001N1+02161+01421101071ADDAA199000091GA1001+999999999GF100991001001999999001001MA1999999098111MD1310061+9999REMSYN060AAXX  23004 08027 32975 01806 10216 20142 39811 40107 53006;EQDQ01  00002PRCP99
0143080270999992000082303004+43300-002050FM-12+025999999V0201601N006212200019N0300001N1+02121+00691101121ADDGA1001+999999999GF100991001001999999001001MA1999999098151MD1210041+9999REMSYN060AAXX  23034 08027 42980 01612 10212 20069 39815 40112 52004;
0222080270999992000082306004+43300-002050FM-12+025999999V0202001N002112200019N0300001N1+01941+00791101261ADDAA199000091GF102991001001999999001011IA1019IA2999+01209KA1120N+01941MA1999999098271MD1210121+9999REMSYN094AAXX  23064 08027 32980 22004 10194 20079 39827 40126 52012 80001 333 20194 30012 50534 55120;EQDQ01  00002PRCP99
0133080270999992000082309004+43300-002050FM-12+025999999V0203001N002612200019N0250001N1+02301+01391101291ADDGF102991001001999999001011MA1999999098341MD1310071+9999REMSYN066AAXX  23094 08027 42975 23005 10230 20139 39834 40129 53007 80001;
0163080270999992000082312004+43300-002050FM-12+025999999V0203401N003612200019N0250001N1+02561+01591101301ADDAA199000091GF103991011001999999031011MA1999999098381MD1210041+9999REMSYN066AAXX  23124 08027 32975 33407 10256 20159 39838 40130 52004 81031;EQDQ01  00002PRCP99
0186080270999992000082318004+43300-002050FM-12+025999999V0200101N001012200019N0300001N1+02101+01811101481ADDAA199000091GF102991021081008001001001KA1999M+02621MA1999999098511MD1310131+9999REMSYN076AAXX  23184 08027 32580 20102 10210 20181 39851 40148 53013 82800 333 10262;EQDQ01  00002PRCP99
0133080270999992000082321004+43300-002050FM-12+025999999V0209999V001012200019N0300001N1+01981+01791101701ADDGF102991021081008001001001MA1999999098711MD1310201+9999REMSYN066AAXX  23214 08027 42580 29902 10198 20179 39871 40170 53020 82800;
0163080270999992000082400004+43300-002050FM-12+025999999V0201601N001012200019N0300001N1+01841+01681101721ADDAA199000091GF102991021081008001001001MA1999999098711MD1010001+9999REMSYN066AAXX  24004 08027 32580 21602 10184 20168 39871 40172 50000 82800;EQDQ01  00002PRCP99
0133080270999992000082403004+43300-002050FM-12+025999999V0209999V001012200019N0300001N1+01841+01681101721ADDGF102991021081008001001001MA1999999098711MD1410001+9999REMSYN066AAXX  24034 08027 42580 29902 10184 20168 39871 40172 54000 82800;
0222080270999992000082406004+43300-002050FM-12+025999999V0201501N003112200019N0300001N1+01761+01421101611ADDAA199000091GF102991021051008001001001IA1019IA2999+01009KA1120N+01721MA1999999098591MD1410001+9999REMSYN094AAXX  24064 08027 32580 21506 10176 20142 39859 40161 54000 82500 333 20172 30010 50620 55118;EQDQ01  00002PRCP99
0133080270999992000082409004+43300-002050FM-12+025999999V0203201N004112200019N0300001N1+02041+01681101611ADDGF102991021051008001001001MA1999999098631MD1310041+9999REMSYN066AAXX  24094 08027 42580 23208 10204 20168 39863 40161 53004 82500;
0163080270999992000082412004+43300-002050FM-12+025999999V0203301N004112200019N0300001N1+02181+01901101601ADDAA199000091GF101991011051008001001001MA1999999098631MD1010001+9999REMSYN066AAXX  24124 08027 32580 13308 10218 20190 39863 40160 50000 81500;EQDQ01  00002PRCP99
0224080270999992000082418004+43300-002050FM-12+025999999V0200301N002112200019N0080001N1+02381+01881101321ADDAA199000091AY101061AY201061GA1001+999999999GF100991001001999999001001KA1999M+02541MA1999999098381MD1710081+9999MW1051REMSYN076AAXX  24184 08027 31958 00304 10238 20188 39838 40132 57008 70500 333 10254;EQDQ01  00002PRCP99
0133080270999992000082421004+43300-002050FM-12+025999999V0202901N003112200019N0100001N1+02121+01801101361ADDGF101991001001999999001021MA1999999098391MD1310011+9999REMSYN066AAXX  24214 08027 42960 12906 10212 20180 39839 40136 53001 80002;
0163080270999992000082500004+43300-002050FM-12+025999999V0203201N002112200019N0100001N1+02081+01731101321ADDAA199000091GF101991001001999999001021MA1999999098351MD1810041+9999REMSYN066AAXX  25004 08027 32960 13204 10208 20173 39835 40132 58004 80002;EQDQ01  00002PRCP99
0133080270999992000082503004+43300-002050FM-12+025999999V0203201N002112200019N0100001N1+02081+01731101321ADDGF101991001001999999001021MA1999999098351MD1810041+9999REMSYN066AAXX  25034 08027 42960 13204 10208 20173 39835 40132 58004 80002;
0250080270999992000082506004+43300-002050FM-12+025999999V0203301N006212200019N0004001N1+01921+01921101241ADDAA199000091AY141061AY201061GF104991001001999999001021IA1099IA2999+01309KA1120N+01921MA1999999098261MD1710041+9999MW1461REMSYN100AAXX  25064 08027 31904 43312 10192 20192 39826 40124 57004 74640 80002 333 20192 31013 50530 55121;EQDQ01  00002PRCP99
0161080270999992000082509004+43300-002050FM-12+025999999V0203301N002110150019N0009001N1+02121+01901101251ADDAY141031AY221031GF107991071001017501091999MA1999999098291MD1310031+9999MW1421REMSYN072AAXX  25094 08027 41709 73304 10212 20190 39829 40125 53003 74242 8709/;
0211080270999992000082512004+43300-002050FM-12+025999999V0200501N001010001519N0006001N1+02041+01981101191ADDAA199000091AY141061AY221061GA1091+000159999GF109991091999999999999999MA1999999098221MD1810071+9999MW1471REMSYN076AAXX  25124 08027 31/06 90502 10204 20198 39822 40119 58007 74742 333 89/00;EQDQ01  00002PRCP99
0201080270999992000082518004+43300-002050FM-12+025999999V0209999C000010021019N0015001N1+02001+01971101041ADDAA112000791AY161061AY261061GF108991081061002501999999KA1999M+02151MA1999999098071MD1010051+9999MW1101REMSYN088AAXX  25184 08027 11315 80000 10200 20197 39807 40104 50005 69902 71066 886// 333 10215;
0161080270999992000082521004+43300-002050FM-12+025999999V0203001N006210042019N0080001N1+01951+01921101211ADDAY191031AY281031GF108991081071004501999999MA1999999098231MD1010161+9999MW1911REMSYN072AAXX  25214 08027 41458 83012 10195 20192 39823 40121 50016 79198 887//;
0178080270999992000082600004+43300-002050FM-12+025999999V0202901N007210042019N0150001N1+01841+01741101251ADDAA106001091AY191061AY281061GF108991081071004501999999MA1999999098261MD1110031+9999MW1291REMSYN078AAXX  26004 08027 11465 82914 10184 20174 39826 40125 51003 69991 72998 887//;
0187080270999992000082603004+43300-002050FM-12+025999999V0202901N005710045019N0150001N1+01701+01631101201ADDAY191031AY281031GA1061+004509099GF108991081091004501999999MA1999999098191MD1610071+9999MW1951REMSYN082AAXX  26034 08027 41465 82911 10170 20163 39819 40120 56007 79598 889// 333 86994;
0237080270999992000082606004+43300-002050FM-12+025999999V0202701N005710360019N0150001N1+01701+01511101361ADDAA112006191AY191061AY281061GF106991041081008001071001IA1099IA2999+01109KA1120N+01701MA1999999098351MD1310161+9999MW1011REMSYN106AAXX  26064 08027 11565 62711 10170 20151 39835 40136 53016 60062 70198 84870 333 20170 31011 50120 55020;
0133080270999992000082609004+43300-002050FM-12+025999999V0202801N005110360019N0100001N1+01861+01591101501ADDGF107991041081008001071001MA1999999098501MD1210151+9999REMSYN066AAXX  26094 08027 41560 72810 10186 20159 39850 40150 52015 84870;
0144080270999992000082612004+43300-002050FM-12+025999999V0203001N008210075019N0100001N1+01981+01791101581ADDAA199000021GF107991061021008001041001MA1999999098591MD1110091+9999REMSYN066AAXX  26124 08027 32560 73016 10198 20179 39859 40158 51009 86240;
0222080270999992000082618004+43300-002050FM-12+025999999V0203201N005110120019N0100001N1+01861+01701101761ADDAA112002091AY181061AY221061GF106991051081008001071011KA1999M+02081MA1999999098751MW1021REMSYN088AAXX  26184 08027 11560 63210 10186 20170 39875 40176 53845 60022 70282 85871 333 10208;EQDQ01+000037APCTENQ02+008457APC3  
0161080270999992000082621004+43300-002050FM-12+025999999V0202501N004110090019N0050001N1+01681+01581101941ADDAY181031AY221031GF108991081081004501999999MA1999999098911MD1210161+9999MW1821REMSYN072AAXX  26214 08027 41450 82508 10168 20158 39891 40194 52016 78282 888//;
0178080270999992000082700004+43300-002050FM-12+025999999V0202601N005110075019N0050001N1+01541+01511102041ADDAA106019191AY191061AY281061GF108991081071008001999999MA1999999098991MD1310081+9999MW1611REMSYN078AAXX  27004 08027 11550 82610 10154 20151 39899 40204 53008 60191 76198 887//;
0178080270999992000082703004+43300-002050FM-12+025999999V0202601N005110075019N0050001N1+01541+01511102041ADDAA106019191AY191031AY281031GF108991081071008001999999MA1999999098991MD1310081+9999MW1611REMSYN078AAXX  27034 08027 11550 82610 10154 20151 39899 40204 53008 60191 76198 887//;
0237080270999992000082706004+43300-002050FM-12+025999999V0202301N002610075019N0100001N1+01581+01481102111ADDAA112021191AY161061AY221061GF108991081071008001999999IA1119IA2999+00909KA1120N+01541MA1999999099061MD1310081+9999MW1031REMSYN106AAXX  27064 08027 11560 82305 10158 20148 39906 40211 53008 60212 70362 887// 333 20154 32009 50660 55039;
0133080270999992000082709004+43300-002050FM-12+025999999V0202701N004110120019N0110001N1+01841+01571102211ADDGF107991051081008001071999MA1999999099191MD1110131+9999REMSYN066AAXX  27094 08027 42561 72708 10184 20157 39919 40221 51013 8587/;
0150080270999992000082712004+43300-002050FM-12+025999999V0203201N008210360019N0150001N1+01861+01701102251ADDAA106000591GF106991041081008001071011MA1999999099231MD1110041+9999REMSYN072AAXX  27124 08027 12565 63216 10186 20170 39923 40225 51004 69941 84871;
0201080270999992000082718004+43300-002050FM-12+025999999V0201701N001010360019N0150001N1+01821+01721102301ADDAA112002091AY181061AY221061GF105991031081008001071001KA1999M+01951MA1999999099271MD1710041+9999MW1021REMSYN088AAXX  27184 08027 11565 51702 10182 20172 39927 40230 57004 60022 70282 83870 333 10195;
0133080270999992000082721004+43300-002050FM-12+025999999V0202801N001512200019N0200001N1+01561+01421102371ADDGF102991021081008001001001MA1999999099311MD1310041+9999REMSYN066AAXX  27214 08027 42570 22803 10156 20142 39931 40237 53004 82800;
0173080270999992000082800004+43300-002050FM-12+025999999V0201601N001512200019N0250001N1+01461+01391102371ADDAA199000091GA1001+999999999GF100991001001999999001001MA1999999099301MD1710011+9999REMSYN060AAXX  28004 08027 32975 01603 10146 20139 39930 40237 57001;EQDQ01  00002PRCP99
0143080270999992000082803004+43300-002050FM-12+025999999V0201601N003112200019N0250001N1+01421+01351102251ADDGA1001+999999999GF100991001001999999001001MA1999999099181MD1710121+9999REMSYN060AAXX  28034 08027 42975 01606 10142 20135 39918 40225 57012;
0222080270999992000082806004+43300-002050FM-12+025999999V0201601N002112200019N0200001N1+01341+01271102231ADDAA199000091GF102991001001999999001011IA1099IA2999+00709KA1120N+01321MA1999999099151MD1710031+9999REMSYN094AAXX  28064 08027 32970 21604 10134 20127 39915 40223 57003 80001 333 20132 31007 50084 55043;EQDQ01  00002PRCP99
0133080270999992000082809004+43300-002050FM-12+025999999V0201501N002119999999N0200001N1+01721+01521102191ADDGF106991001001999999001071MA1999999099151MD1410001+9999REMSYN066AAXX  28094 08027 42970 61504 10172 20152 39915 40219 54000 80007;
0163080270999992000082812004+43300-002050FM-12+025999999V0203501N003610360019N0150001N1+01941+01711102081ADDAA199000091GF106991011011008001071071MA1999999099071MD1810081+9999REMSYN066AAXX  28124 08027 32565 63507 10194 20171 39907 40208 58008 81177;EQDQ01  00002PRCP99
0186080270999992000082818004+43300-002050FM-12+025999999V0200401N002112200019N0300001N1+01981+01441101871ADDAA199000091GF103991011051008001001071KA1999M+02141MA1999999098871MD1610041+9999REMSYN076AAXX  28184 08027 32580 30404 10198 20144 39887 40187 56004 81507 333 10214;EQDQ01  00002PRCP99
0133080270999992000082821004+43300-002050FM-12+025999999V0209999V001012200019N0300001N1+01841+01321101961ADDGF102991021051008001001001MA1999999098941MD1110071+9999REMSYN066AAXX  28214 08027 42580 29902 10184 20132 39894 40196 51007 82500;
0163080270999992000082900004+43300-002050FM-12+025999999V0202401N001012200019N0300001N1+01681+01401101861ADDAA199000091GF101991011051008001001001MA1999999098831MD1710111+9999REMSYN066AAXX  29004 08027 32580 12402 10168 20140 39883 40186 57011 81500;EQDQ01  00002PRCP99
0133080270999992000082903004+43300-002050FM-12+025999999V0209999V001012200019N0300001N1+01681+01401101861ADDGF101991011051008001001001MA1999999098831MD1410001+9999REMSYN066AAXX  29034 08027 42580 19902 10168 20140 39883 40186 54000 81500;
0232080270999992000082906004+43300-002050FM-12+025999999V0209999C000012200019N0200001N1+01681+01471101571ADDAA199000091GA1001+999999999GF100991001001999999001001IA1099IA2999+00809KA1120N+01561MA1999999098551MD1610121+9999REMSYN088AAXX  29064 08027 32970 00000 10168 20147 39855 40157 56012 333 20156 31008 50020 55090;EQDQ01  00002PRCP99
0143080270999992000082909004+43300-002050FM-12+025999999V0201501N002112200019N0200001N1+02121+01741101511ADDGA1001+999999999GF100991001001999999001001MA1999999098541MD1810011+9999REMSYN060AAXX  29094 08027 42970 01504 10212 20174 39854 40151 58001;
0173080270999992000082912004+43300-002050FM-12+025999999V0203601N001012200019N0200001N1+02561+02181101371ADDAA199000091GA1001+999999999GF100991001001999999001001MA1999999098451MD1710091+9999REMSYN060AAXX  29124 08027 32970 03602 10256 20218 39845 40137 57009;EQDQ01  00002PRCP99
0214080270999992000082918004+43300-002050FM-12+025999999V0202901N010812200019N0008001N1+01941+01881101291ADDAA199000091AY101061AY201061GF103991031081008001001001KA1999M+02741MA1999999098311MD1310011+9999MW1461REMSYN082AAXX  29184 08027 31508 32921 10194 20188 39831 40129 53001 74600 83800 333 10274;EQDQ01  00002PRCP99
0161080270999992000082921004+43300-002050FM-12+025999999V0202401N002110120019N0040001N1+01881+01781101411ADDAY141031AY201031GF107991071081008001999999MA1999999098421MD1310111+9999MW1101REMSYN072AAXX  29214 08027 41540 72404 10188 20178 39842 40141 53011 71040 878//;
0191080270999992000083000004+43300-002050FM-12+025999999V0202401N004110120019N0100001N1+01881+01721101501ADDAA199000091AY191061AY221061GF107991071081008001999999MA1999999098501MD1210081+9999MW1021REMSYN072AAXX  30004 08027 31560 72408 10188 20172 39850 40150 52008 70292 878//;EQDQ01  00002PRCP99
0133080270999992000083003004+43300-002050FM-12+025999999V0202401N004110120019N0100001N1+01781+01611101391ADDGF107991071081008001999999MA1999999098391MD1810111+9999REMSYN066AAXX  30034 08027 42560 72408 10178 20161 39839 40139 58011 878//;
0250080270999992000083006004+43300-002050FM-12+025999999V0202701N003110360019N0030001N1+01741+01611101361ADDAA199000091AY121061AY221061GF107991031061002501071999IA1099IA2999+01109KA1120N+01741MA1999999098351MD1510041+9999MW1101REMSYN100AAXX  30064 08027 31330 72706 10174 20161 39835 40136 55004 71022 8367/ 333 20174 31011 50690 55109;EQDQ01  00002PRCP99
0161080270999992000083009004+43300-002050FM-12+025999999V0202501N003110360019N0030001N1+01881+01681101341ADDAY121031AY221031GF108991031061002501071999MA1999999098351MD1510001+9999MW1101REMSYN072AAXX  30094 08027 41330 82506 10188 20168 39835 40134 55000 71022 8367/;
0191080270999992000083012004+43300-002050FM-12+025999999V0203001N007210021019N0030001N1+01841+01781101341ADDAA199000091AY121061AY221061GF108991081071002501999999MA1999999098351MD1010001+9999MW1101REMSYN072AAXX  30124 08027 31330 83014 10184 20178 39835 40134 50000 71022 887//;EQDQ01  00002PRCP99
0186080270999992000083018004+43300-002050FM-12+025999999V0203001N004610360019N0200001N1+01801+01671101341ADDAA199000091GF107991041081008001041001KA1999M+02001MA1999999098341MD1810041+9999REMSYN076AAXX  30184 08027 32570 73009 10180 20167 39834 40134 58004 84840 333 10200;EQDQ01  00002PRCP99
0133080270999992000083021004+43300-002050FM-12+025999999V0202601N003612200019N0300001N1+01661+01521101491ADDGF104991031051008001041001MA1999999098471MD1110131+9999REMSYN066AAXX  30214 08027 42580 42607 10166 20152 39847 40149 51013 83540;
0178080270999992000083100004+43300-002050FM-12+025999999V0202401N005112200019N0250001N1+01601+01501101461ADDAA106000791AY161061AY261061GF103991021051008001041001MA1999999098431MD1810041+9999MW1211REMSYN078AAXX  31004 08027 11575 32410 10160 20150 39843 40146 58004 69901 72166 82540;
0133080270999992000083103004+43300-002050FM-12+025999999V0202401N005112200019N0250001N1+01621+01451101411ADDGF104991021051008001041001MA1999999098391MD1610041+9999REMSYN066AAXX  31034 08027 42575 42410 10162 20145 39839 40141 56004 82540;
0209080270999992000083106004+43300-002050FM-12+025999999V0202601N006210075019N0200001N1+01701+01531101401ADDAA112000791GF108991071051008001071999IA1099IA2999+01009KA1120N+01601MA1999999098391MD1510001+9999REMSYN100AAXX  31064 08027 12570 82612 10170 20153 39839 40140 55000 69902 8757/ 333 20160 31010 50150 55009;
0133080270999992000083109004+43300-002050FM-12+025999999V0202801N005712200019N0120001N1+01921+01691101461ADDGF103991021051008001041001MA1999999098471MD1110081+9999REMSYN066AAXX  31094 08027 42562 32811 10192 20169 39847 40146 51008 82540;
0144080270999992000083112004+43300-002050FM-12+025999999V0203101N006712200019N0150001N1+01941+01641101501ADDAA199000021GF103991031021008001001001MA1999999098511MD1110041+9999REMSYN066AAXX  31124 08027 32565 33113 10194 20164 39851 40150 51004 83200;
0186080270999992000083118004+43300-002050FM-12+025999999V0203201N003112200019N0150001N1+01921+01621101341ADDAA199000091GF101991011041008001001001KA1999M+02111MA1999999098351MD1710151+9999REMSYN076AAXX  31184 08027 32565 13206 10192 20162 39835 40134 57015 81400 333 10211;EQDQ01  00002PRCP99
0133080270999992000083121004+43300-002050FM-12+025999999V0209999C000012200019N0150001N1+01701+01531101401ADDGF101991011041008001001001MA1999999098391MD1210041+9999REMSYN066AAXX  31214 08027 42565 10000 10170 20153 39839 40140 52004 81400;
0163080270999992000090100004+43300-002050FM-12+025999999V0201601N000512200019N0150001N1+01581+01511101381ADDAA199000091GF101991011041008001001001MA1999999098351MD1610041+9999REMSYN066AAXX  01004 08027 32565 11601 10158 20151 39835 40138 56004 81400;EQDQ01  00002PRCP99
0143080270999992000090103004+43300-002050FM-12+025999999V0201801N001512200019N0200001N1+01501+01471101331ADDGA1001+999999999GF100991001001999999001001MA1999999098301MD1810051+9999REMSYN060AAXX  01034 08027 42970 01803 10150 20147 39830 40133 58005;
0232080270999992000090106004+43300-002050FM-12+025999999V0209999C000012200019N0130001N1+01501+01401101301ADDAA199000091GA1001+999999999GF100991001001999999001001IA1099IA2999+00809KA1120N+01461MA1999999098271MD1510031+9999REMSYN088AAXX  01064 08027 32963 00000 10150 20140 39827 40130 55003 333 20146 31008 50480 55101;EQDQ01  00002PRCP99
0133080270999992000090109004+43300-002050FM-12+025999999V0202701N004112200019N0140001N1+01901+01571101341ADDGF101991011011008001001011MA1999999098351MD1210081+9999REMSYN066AAXX  01094 08027 42564 12708 10190 20157 39835 40134 52008 81101;
0163080270999992000090112004+43300-002050FM-12+025999999V0203101N004610075019N0100001N1+02021+01661101451ADDAA199000091GF107991051051008001041999MA1999999098471MD1210121+9999REMSYN066AAXX  01124 08027 32560 73109 10202 20166 39847 40145 52012 8554/;EQDQ01  00002PRCP99
0186080270999992000090118004+43300-002050FM-12+025999999V0202801N002610120019N0200001N1+01741+01571101561ADDAA199000091GF107991061081008001041001KA1999M+02121MA1999999098551MD1410001+9999REMSYN076AAXX  01184 08027 32570 72805 10174 20157 39855 40156 54000 86840 333 10212;EQDQ01  00002PRCP99
0133080270999992000090121004+43300-002050FM-12+025999999V0202601N003110360019N0200001N1+01681+01371101691ADDGF106991041081008001041001MA1999999098661MD1310111+9999REMSYN066AAXX  01214 08027 42570 62606 10168 20137 39866 40169 53011 84840;
0163080270999992000090200004+43300-002050FM-12+025999999V0202301N003110360019N0200001N1+01661+01341101701ADDAA199000091GF106991041051008001041001MA1999999098671MD1210011+9999REMSYN066AAXX  02004 08027 32570 62306 10166 20134 39867 40170 52001 84540;EQDQ01  00002PRCP99
0133080270999992000090203004+43300-002050FM-12+025999999V0202601N004110360019N0200001N1+01641+01321101661ADDGF106991031051008001071001MA1999999098631MD1810041+9999REMSYN066AAXX  02034 08027 42570 62608 10164 20132 39863 40166 58004 83570;
0222080270999992000090206004+43300-002050FM-12+025999999V0202701N005710075019N0200001N1+01601+01241101711ADDAA199000091GF106991051051008001071001IA1099IA2999+01009KA1120N+01581MA1999999098671MD1210041+9999REMSYN094AAXX  02064 08027 32570 62711 10160 20124 39867 40171 52004 85570 333 20158 31010 50180 55051;EQDQ01  00002PRCP99
0161080270999992000090209004+43300-002050FM-12+025999999V0202701N004610075019N0150001N1+01681+01401101781ADDAY151031AY221031GF107991051051008001071001MA1999999098751MD1210081+9999MW1021REMSYN072AAXX  02094 08027 41565 72709 10168 20140 39875 40178 52008 70252 85570;
0178080270999992000090212004+43300-002050FM-12+025999999V0203001N003610360019N0200001N1+01941+01431101791ADDAA106000191AY151061AY221061GF106991041051008001071001MA1999999098791MD1210041+9999MW1021REMSYN078AAXX  02124 08027 11570 63007 10194 20143 39879 40179 52004 69911 70252 84570;
0201080270999992000090218004+43300-002050FM-12+025999999V0203401N002110120019N0150001N1+01641+01571101891ADDAA112000191AY121061AY221061GF107991071081008001999999KA1999M+02041MA1999999098861MD1210031+9999MW1211REMSYN088AAXX  02184 08027 11565 73404 10164 20157 39886 40189 52003 69912 72122 878// 333 10204;
0133080270999992000090221004+43300-002050FM-12+025999999V0202201N002110120019N0150001N1+01661+01561101931ADDGF108991081081008001999999MA1999999098901MD1210041+9999REMSYN066AAXX  02214 08027 42565 82204 10166 20156 39890 40193 52004 888//;
0204080270999992000090300004+43300-002050FM-12+025999999V0201901N001010001519N0001001N1+01601+01601101911ADDAA106001091AY121061AY221061GA1091+000159999GF109991091999999999999999MA1999999098871MD1810031+9999MW1251REMSYN088AAXX  03004 08027 11/01 91902 10160 20160 39887 40191 58003 60011 72522 333 89/00 96047;
0161080270999992000090303004+43300-002050FM-12+025999999V0202901N002110120019N0150001N1+01601+01571101831ADDAY141031AY221031GF108991081081008001999999MA1999999098791MD1810081+9999MW1251REMSYN072AAXX  03034 08027 42565 82904 10160 20157 39879 40183 58008 72542 888//;
0237080270999992000090306004+43300-002050FM-12+025999999V0202501N002110120019N0100001N1+01581+01511101871ADDAA112002091AY181061AY241061GF107991071081008001999999IA1119IA2999+01009KA1120N+01541MA1999999098831MD1310041+9999MW1251REMSYN106AAXX  03064 08027 11560 72504 10158 20151 39883 40187 53004 60022 72584 878// 333 20154 32010 50150 55036;
0161080270999992000090309004+43300-002050FM-12+025999999V0202901N003110120019N0150001N1+01741+01541101891ADDAY181031AY221031GF107991061081008001071999MA1999999098871MD1210041+9999MW1021REMSYN072AAXX  03094 08027 41565 72906 10174 20154 39887 40189 52004 70282 8687/;
0178080270999992000090312004+43300-002050FM-12+025999999V0203201N005110120019N0250001N1+01881+01281101881ADDAA106000391AY181061AY221061GF107991051081008001031021MA1999999098871MD1410001+9999MW1021REMSYN078AAXX  03124 08027 11575 73210 10188 20128 39887 40188 54000 69931 70282 85832;
0201080270999992000090318004+43300-002050FM-12+025999999V0203001N002110360019N0250001N1+01571+01451101951ADDAA112004191AY181061AY241061GF107991021021004501071001KA1999M+01971MA1999999098911MD1010001+9999MW1251REMSYN088AAXX  03184 08027 11475 73004 10157 20145 39891 40195 50000 60042 72584 82270 333 10197;
0161080270999992000090321004+43300-002050FM-12+025999999V0202901N003610042019N0200001N1+01591+01421101991ADDAY181031AY241031GF107991061071004501071001MA1999999098951MD1110041+9999MW1801REMSYN072AAXX  03214 08027 41470 72907 10159 20142 39895 40199 51004 78084 86770;
0178080270999992000090400004+43300-002050FM-12+025999999V0200101N003110042019N0250001N1+01621+01341102021ADDAA106000591AY181061AY281061GF105991051071004501001001MA1999999098981MD1010031+9999MW1011REMSYN078AAXX  04004 08027 11475 50106 10162 20134 39898 40202 50003 69941 70188 85700;
0133080270999992000090403004+43300-002050FM-12+025999999V0203301N004110075019N0300001N1+01641+01251101991ADDGF105991051021008001001001MA1999999098951MD1510031+9999REMSYN066AAXX  04034 08027 42580 53308 10164 20125 39895 40199 55003 85200;
0237080270999992000090406004+43300-002050FM-12+025999999V0200301N001010360019N0150001N1+01501+01391102081ADDAA112005191AY181061AY281061GF107991031021008001071001IA1119IA2999+01009KA1120N+01501MA1999999099021MD1310071+9999MW1601REMSYN106AAXX  04064 08027 11565 70302 10150 20139 39902 40208 53007 60052 76088 83270 333 20150 32010 50390 55029;
0161080270999992000090409004+43300-002050FM-12+025999999V0203501N001012200019N0150001N1+01761+01431102211ADDAY181031AY281031GF104991021021008001031001MA1999999099181MD1210161+9999MW1011REMSYN072AAXX  04094 08027 41565 43502 10176 20143 39918 40221 52016 70188 82230;
0178080270999992000090412004+43300-002050FM-12+025999999V0203301N002612200019N0300001N1+01841+01461102291ADDAA106000191AY181061AY281061GF104991031021008001041001MA1999999099261MD1310081+9999MW1021REMSYN078AAXX  04124 08027 11580 43305 10184 20146 39926 40229 53008 69911 70288 83240;
0173080270999992000090418004+43300-002050FM-12+025999999V0203401N002612200019N0200001N1+01801+01271102261ADDAA112000191GF101991011021008001001011KA1999M+02021MA1999999099231MD1610031+9999REMSYN082AAXX  04184 08027 12570 13405 10180 20127 39923 40226 56003 69912 81201 333 10202;
0133080270999992000090421004+43300-002050FM-12+025999999V0203601N003610075019N0240001N1+01701+01351102401ADDGF106991061041008001999999MA1999999099351MD1310121+9999REMSYN066AAXX  04214 08027 42574 63607 10170 20135 39935 40240 53012 864//;
0163080270999992000090500004+43300-002050FM-12+025999999V0200201N003112200019N0300001N1+01641+01251102431ADDAA199000091GF101991011011008001001001MA1999999099381MD1110031+9999REMSYN066AAXX  05004 08027 32580 10206 10164 20125 39938 40243 51003 81100;EQDQ01  00002PRCP99
0143080270999992000090503004+43300-002050FM-12+025999999V0209999V000512200019N0250001N1+01541+01171102371ADDGA1001+999999999GF100991001001999999001001MA1999999099311MD1810071+9999REMSYN060AAXX  05034 08027 42975 09901 10154 20117 39931 40237 58007;
0222080270999992000090506004+43300-002050FM-12+025999999V0203101N001512200019N0220001N1+01421+01201102381ADDAA199000091GF101991011011012501041011IA1099IA2999+00509KA1120N+01401MA1999999099301MD1610011+9999REMSYN094AAXX  05064 08027 32672 13103 10142 20120 39930 40238 56001 81141 333 20140 31005 50380 55098;EQDQ01  00002PRCP99
0133080270999992000090509004+43300-002050FM-12+025999999V0203401N001512200019N0270001N1+01701+01461102381ADDGF101991011011012501001001MA1999999099341MD1210041+9999REMSYN066AAXX  05094 08027 42677 13403 10170 20146 39934 40238 52004 81100;
0163080270999992000090512004+43300-002050FM-12+025999999V0203301N004112200019N0250001N1+01781+01471102391ADDAA199000091GF101991011011012501001001MA1999999099351MD1010011+9999REMSYN066AAXX  05124 08027 32675 13308 10178 20147 39935 40239 50001 81100;EQDQ01  00002PRCP99
0172080270999992000090518004+43300-002050FM-12+025999999V0203401N002612200019N0250001N1+01781+01081102271ADDAA199000091GF102991999999999999999999MA1999999099231MD1710041+9999REMSYN075AAXX  05184 08027 32975 23405 10178 20108 39923 40227 57004 8001 333 10196;EQDQ01  00002PRCP99
0133080270999992000090521004+43300-002050FM-12+025999999V0201101N001012200019N0250001N1+01641+01001102281ADDGF102991001001999999001011MA1999999099231MD1410001+9999REMSYN066AAXX  05214 08027 42975 21102 10164 20100 39923 40228 54000 80001;
0163080270999992000090600004+43300-002050FM-12+025999999V0201501N002112200019N0250001N1+01441+01061102251ADDAA199000091GF102991001001999999001011MA1999999099181MD1710051+9999REMSYN066AAXX  06004 08027 32975 21504 10144 20106 39918 40225 57005 80001;EQDQ01  00002PRCP99
0133080270999992000090603004+43300-002050FM-12+025999999V0201601N003112200019N0250001N1+01341+01121102181ADDGF102991001001999999001011MA1999999099101MD1710081+9999REMSYN066AAXX  06034 08027 42975 21606 10134 20112 39910 40218 57008 80001;
0222080270999992000090606004+43300-002050FM-12+025999999V0201601N002612200019N0250001N1+01281+01091102111ADDAA199000091GF102991011001999999031011IA1099IA2999+00609KA1120N+01261MA1999999099031MD1710071+9999REMSYN094AAXX  06064 08027 32975 21605 10128 20109 39903 40211 57007 81031 333 20126 31006 50260 55114;EQDQ01  00002PRCP99
0133080270999992000090609004+43300-002050FM-12+025999999V0202001N001012200019N0250001N1+01781+01321102061ADDGF102991001001999999001011MA1999999099031MD1410001+9999REMSYN066AAXX  06094 08027 42975 22002 10178 20132 39903 40206 54000 80001;
0163080270999992000090612004+43300-002050FM-12+025999999V0203601N002612200019N0250001N1+01901+01381102041ADDAA199000091GF103991001001999999001011MA1999999099031MD1410001+9999REMSYN066AAXX  06124 08027 32975 33605 10190 20138 39903 40204 54000 80001;EQDQ01  00002PRCP99
0186080270999992000090618004+43300-002050FM-12+025999999V0203101N002119999999N0100001N1+01781+01471102011ADDAA199000091GF107991001001999999001081KA1999M+02021MA1999999098991MD1810041+9999REMSYN076AAXX  06184 08027 32960 73104 10178 20147 39899 40201 58004 80008 333 10202;EQDQ01  00002PRCP99
0133080270999992000090621004+43300-002050FM-12+025999999V0202501N003119999999N0150001N1+01621+01481102071ADDGF106991001001999999001081MA1999999099031MD1310041+9999REMSYN066AAXX  06214 08027 42965 62506 10162 20148 39903 40207 53004 80008;
0163080270999992000090700004+43300-002050FM-12+025999999V0202301N004112200019N0150001N1+01581+01181102081ADDAA199000091GF101991001001999999001021MA1999999099031MD1410001+9999REMSYN066AAXX  07004 08027 32965 12308 10158 20118 39903 40208 54000 80002;EQDQ01  00002PRCP99
0133080270999992000090703004+43300-002050FM-12+025999999V0202001N002110042019N0150001N1+01621+01261102031ADDGF107991071061004501999999MA1999999098991MD1810041+9999REMSYN066AAXX  07034 08027 42465 72004 10162 20126 39899 40203 58004 876//;
0237080270999992000090706004+43300-002050FM-12+025999999V0202701N003110042019N0040001N1+01641+01571101991ADDAA112000391AY121061AY221061GF108991081071004501999999IA1099IA2999+01009KA1120N+01561MA1999999098951MD1710041+9999MW1251REMSYN106AAXX  07064 08027 11440 82706 10164 20157 39895 40199 57004 69932 72522 887// 333 20156 31010 50430 55093;
0161080270999992000090709004+43300-002050FM-12+025999999V0202801N004110075019N0080001N1+01861+01591102041ADDAY121031AY221031GF107991071051008001999999MA1999999099021MD1310071+9999MW1101REMSYN072AAXX  07094 08027 41558 72808 10186 20159 39902 40204 53007 71022 875//;
0144080270999992000090712004+43300-002050FM-12+025999999V0203201N005110075019N0150001N1+02001+01741102071ADDAA199000021GF107991071051008001999999MA1999999099071MD1210051+9999REMSYN066AAXX  07124 08027 32565 73210 10200 20174 39907 40207 52005 875//;
0167080270999992000090718004+43300-002050FM-12+025999999V0203301N001512200019N0200001N1+01901+01641102041ADDAA199000021GF102991021081008001999999KA1999M+02061MA1999999099031MD1810031+9999REMSYN076AAXX  07184 08027 32570 23303 10190 20164 39903 40204 58003 828// 333 10206;
0133080270999992000090721004+43300-002050FM-12+025999999V0200201N001012200019N0200001N1+01741+01611102101ADDGF102991021081008001999999MA1999999099071MD1110041+9999REMSYN066AAXX  07214 08027 42570 20202 10174 20161 39907 40210 51004 828//;
0163080270999992000090800004+43300-002050FM-12+025999999V0209999C000012200019N0200001N1+01701+01601102061ADDAA199000091GF101991011041008001001001MA1999999099031MD1710041+9999REMSYN066AAXX  08004 08027 32570 10000 10170 20160 39903 40206 57004 81400;EQDQ01  00002PRCP99
0143080270999992000090803004+43300-002050FM-12+025999999V0201401N001012200019N0220001N1+01581+01511101991ADDGA1001+999999999GF100991001001999999001001MA1999999098951MD1610081+9999REMSYN060AAXX  08034 08027 42972 01402 10158 20151 39895 40199 56008;
0222080270999992000090806004+43300-002050FM-12+025999999V0201401N001012200019N0200001N1+01481+01411102011ADDAA199000091GF101991011041008001001001IA1019IA2999+00809KA1120N+01481MA1999999098951MD1510001+9999REMSYN094AAXX  08064 08027 32570 11402 10148 20141 39895 40201 55000 81400 333 20148 30008 50280 55064;EQDQ01  00002PRCP99
0133080270999992000090809004+43300-002050FM-12+025999999V0203301N000512200019N0230001N1+01821+01551102001ADDGF102991021011008001001001MA1999999098981MD1310031+9999REMSYN066AAXX  08094 08027 42573 23301 10182 20155 39898 40200 53003 82100;
0163080270999992000090812004+43300-002050FM-12+025999999V0200101N003112200019N0200001N1+01881+01621101921ADDAA199000091GF101991011011008001001001MA1999999098911MD1610071+9999REMSYN066AAXX  08124 08027 32570 10106 10188 20162 39891 40192 56007 81100;EQDQ01  00002PRCP99
0186080270999992000090818004+43300-002050FM-12+025999999V0200301N001512200019N0200001N1+02021+01701101731ADDAA199000091GF101991011061008001001001KA1999M+02151MA1999999098741MD1610011+9999REMSYN076AAXX  08184 08027 32570 10303 10202 20170 39874 40173 56001 81600 333 10215;EQDQ01  00002PRCP99
0133080270999992000090821004+43300-002050FM-12+025999999V0201801N001512200019N0200001N1+01921+01671101821ADDGF101991011061004501001001MA1999999098821MD1310081+9999REMSYN066AAXX  08214 08027 42470 11803 10192 20167 39882 40182 53008 81600;
0173080270999992000090900004+43300-002050FM-12+025999999V0201601N002112200019N0200001N1+01861+01731101791ADDAA199000091GA1001+999999999GF100991001001999999001001MA1999999098781MD1810041+9999REMSYN060AAXX  09004 08027 32970 01604 10186 20173 39878 40179 58004;EQDQ01  00002PRCP99
0143080270999992000090903004+43300-002050FM-12+025999999V0201001N001012200019N0200001N1+01941+01731101751ADDGA1001+999999999GF100991001001999999001001MA1999999098751MD1610031+9999REMSYN060AAXX  09034 08027 42970 01002 10194 20173 39875 40175 56003;
0232080270999992000090906004+43300-002050FM-12+025999999V0201701N001512200019N0150001N1+01921+01711101781ADDAA199000091GA1001+999999999GF100991001001999999001001IA1099IA2999+01109KA1120N+01851MA1999999098781MD1310031+9999REMSYN088AAXX  09064 08027 32965 01703 10192 20171 39878 40178 53003 333 20185 31011 50340 55112;EQDQ01  00002PRCP99
0143080270999992000090909004+43300-002050FM-12+025999999V0201701N005112200019N0180001N1+02381+01731101781ADDGA1001+999999999GF100991001001999999001001MA1999999098831MD1110051+9999REMSYN060AAXX  09094 08027 42968 01710 10238 20173 39883 40178 51005;
0173080270999992000090912004+43300-002050FM-12+025999999V0201701N002612200019N0150001N1+02761+01801101751ADDAA199000091GA1001+999999999GF100991001001999999001001MA1999999098831MD1010001+9999REMSYN060AAXX  09124 08027 32965 01705 10276 20180 39883 40175 50000;EQDQ01  00002PRCP99
0186080270999992000090918004+43300-002050FM-12+025999999V0200601N003112200019N0150001N1+02681+01951101631ADDAA199000091GF102991001001999999001011KA1999M+02801MA1999999098711MD1710061+9999REMSYN076AAXX  09184 08027 32965 20606 10268 20195 39871 40163 57006 80001 333 10280;EQDQ01  00002PRCP99
0133080270999992000090921004+43300-002050FM-12+025999999V0201401N003112200019N0150001N1+02441+01981101711ADDGF102991001001999999001011MA1999999098771MD1310061+9999REMSYN066AAXX  09214 08027 42965 21406 10244 20198 39877 40171 53006 80001;
0163080270999992000091000004+43300-002050FM-12+025999999V0201601N005712200019N0200001N1+02481+01571101711ADDAA199000091GF102991001001999999001011MA1999999098771MD1410001+9999REMSYN066AAXX  10004 08027 32970 21611 10248 20157 39877 40171 54000 80001;EQDQ01  00002PRCP99
0133080270999992000091003004+43300-002050FM-12+025999999V0201601N008212200019N0200001N1+02401+01391101621ADDGF102991001001999999001011MA1999999098671MD1710101+9999REMSYN066AAXX  10034 08027 42970 21616 10240 20139 39867 40162 57010 80001;
0222080270999992000091006004+43300-002050FM-12+025999999V0201501N008212200019N0200001N1+02321+01251101621ADDAA199000091GF101991011001999999031001IA1019IA2999+01709KA1120N+02321MA1999999098661MD1710011+9999REMSYN094AAXX  10064 08027 32970 11516 10232 20125 39866 40162 57001 81030 333 20232 30017 50260 55115;EQDQ01  00002PRCP99
0143080270999992000091009004+43300-002050FM-12+025999999V0201601N007212200019N0200001N1+02461+01351101681ADDGA1001+999999999GF100991001001999999001001MA1999999098731MD1310071+9999REMSYN060AAXX  10094 08027 42970 01614 10246 20135 39873 40168 53007;
0173080270999992000091012004+43300-002050FM-12+025999999V0201501N004612200019N0200001N1+02901+01631101601ADDAA199000091GA1001+999999999GF100991001001999999001001MA1999999098701MD1810031+9999REMSYN060AAXX  10124 08027 32970 01509 10290 20163 39870 40160 58003;EQDQ01  00002PRCP99
0186080270999992000091018004+43300-002050FM-12+025999999V0200801N003112200019N0200001N1+02661+01601101411ADDAA199000091GF101991001001999999001021KA1999M+03121MA1999999098491MD1710051+9999REMSYN076AAXX  10184 08027 32970 10806 10266 20160 39849 40141 57005 80002 333 10312;EQDQ01  00002PRCP99
0181080270999992000091021004+43300-002050FM-12+025999999V0203001N009810001519N0000001N1+02041+02011101601ADDAY101031AY201031GA1091+000159999GF109991091999999999999999MA1999999098621MD1310131+9999MW1471REMSYN076AAXX  10214 08027 41/00 93019 10204 20201 39862 40160 53013 74700 333 89/00;
0211080270999992000091100004+43300-002050FM-12+025999999V0202801N001010001519N0002001N1+01941+01911101611ADDAA199000091AY141061AY201061GA1091+000159999GF109991091999999999999999MA1999999098621MD1410001+9999MW1431REMSYN076AAXX  11004 08027 31/02 92802 10194 20191 39862 40161 54000 74340 333 89/00;EQDQ01  00002PRCP99
0161080270999992000091103004+43300-002050FM-12+025999999V0201601N003112200019N0004001N1+01881+01821101491ADDAY141031AY201031GF101991001001999999001021MA1999999098501MD1810121+9999MW1421REMSYN072AAXX  11034 08027 41904 11606 10188 20182 39850 40149 58012 74240 80002;
0250080270999992000091106004+43300-002050FM-12+025999999V0201501N004110900019N0010001N1+01761+01691101441ADDAA199000091AY141061AY211061GF106991021001017501081021IA1099IA2999+01309KA1120N+01761MA1999999098431MD1710071+9999MW1101REMSYN100AAXX  11064 08027 31710 61508 10176 20169 39843 40144 57007 71041 82082 333 20176 31013 50920 55115;EQDQ01  00002PRCP99
0181080270999992000091109004+43300-002050FM-12+025999999V0202901N007210001519N0006001N1+02021+01831101481ADDAY121031AY221031GA1091+000159999GF109991091999999999999999MA1999999098501MD1310071+9999MW1471REMSYN076AAXX  11094 08027 41/06 92914 10202 20183 39850 40148 53007 74722 333 89/00;
0211080270999992000091112004+43300-002050FM-12+025999999V0203401N002110001519N0006001N1+02121+01931101551ADDAA199000091AY141061AY221061GA1091+000159999GF109991091999999999999999MA1999999098581MD1010081+9999MW1451REMSYN076AAXX  11124 08027 31/06 93404 10212 20193 39858 40155 50008 74542 333 89/00;EQDQ01  00002PRCP99
0201080270999992000091118004+43300-002050FM-12+025999999V0201201N001510360019N0030001N1+01981+01891101331ADDAA112000591AY191061AY281061GF108991021061002501011999KA1999M+02401MA1999999098351MD1610151+9999MW1101REMSYN088AAXX  11184 08027 11330 81203 10198 20189 39835 40133 56015 69962 71098 8261/ 333 10240;
0161080270999992000091121004+43300-002050FM-12+025999999V0203001N001010360019N0040001N1+01961+01931101481ADDAY161031AY261031GF108991021061002501071999MA1999999098501MD1110151+9999MW1601REMSYN072AAXX  11214 08027 41340 83002 10196 20193 39850 40148 51015 76066 8267/;
0178080270999992000091200004+43300-002050FM-12+025999999V0202701N003110150019N0080001N1+01881+01821101461ADDAA106000191AY161061AY261061GF106991061001017501031001MA1999999098471MD1810031+9999MW1101REMSYN078AAXX  12004 08027 11758 62706 10188 20182 39847 40146 58003 69911 71066 86030;
0133080270999992000091203004+43300-002050FM-12+025999999V0209999C000012200019N0120001N1+01801+01671101501ADDGF104991041001017501011001MA1999999098501MD1310031+9999REMSYN066AAXX  12034 08027 42762 40000 10180 20167 39850 40150 53003 84010;
0237080270999992000091206004+43300-002050FM-12+025999999V0202801N002610075019N0040001N1+01861+01801101501ADDAA112000191AY111061AY221061GF108991061051008001071999IA1099IA2999+01109KA1120N+01801MA1999999098501MD1510001+9999MW1101REMSYN106AAXX  12064 08027 11540 82805 10186 20180 39850 40150 55000 69912 71012 8657/ 333 20180 31011 50100 55033;
0161080270999992000091209004+43300-002050FM-12+025999999V0203201N002610360019N0030001N1+02021+01801101571ADDAY121031AY221031GF106991041061004501031001MA1999999098591MD1310091+9999MW1101REMSYN072AAXX  12094 08027 41430 63205 10202 20180 39859 40157 53009 71022 84630;
0191080270999992000091212004+43300-002050FM-12+025999999V0203201N003110021019N0030001N1+02061+01901101561ADDAA199000091AY121061AY221061GF107991051061002501031001MA1999999098581MD1810011+9999MW1101REMSYN072AAXX  12124 08027 31330 73206 10206 20190 39858 40156 58001 71022 85630;EQDQ01  00002PRCP99
0214080270999992000091218004+43300-002050FM-12+025999999V0203401N002110042019N0030001N1+01961+01831101531ADDAA199000091AY121061AY221061GF108991081061004501999999KA1999M+02141MA1999999098541MD1510001+9999MW1101REMSYN082AAXX  12184 08027 31430 83404 10196 20183 39854 40153 55000 71022 886// 333 10214;EQDQ01  00002PRCP99
0161080270999992000091221004+43300-002050FM-12+025999999V0203601N001010042019N0030001N1+01921+01761101581ADDAY121031AY221031GF108991081061004501999999MA1999999098591MD1310051+9999MW1101REMSYN072AAXX  12214 08027 41430 83602 10192 20176 39859 40158 53005 71022 886//;
0191080270999992000091300004+43300-002050FM-12+025999999V0203401N001010042019N0030001N1+01881+01821101591ADDAA199000091AY121061AY221061GF108991081061004501999999MA1999999098591MD1010001+9999MW1101REMSYN072AAXX  13004 08027 31430 83402 10188 20182 39859 40159 50000 71022 886//;EQDQ01  00002PRCP99
0161080270999992000091303004+43300-002050FM-12+025999999V0200501N002110042019N0030001N1+01841+01781101471ADDAY121031AY221031GF107991071061004501999999MA1999999098471MD1710121+9999MW1101REMSYN072AAXX  13034 08027 41430 70504 10184 20178 39847 40147 57012 71022 876//;
0250080270999992000091306004+43300-002050FM-12+025999999V0200901N001510021019N0020001N1+01801+01771101431ADDAA199000091AY121061AY221061GF108991081061002501999999IA1019IA2999+01309KA1120N+01801MA1999999098431MD1610041+9999MW1101REMSYN100AAXX  13064 08027 31320 80903 10180 20177 39843 40143 56004 71022 886// 333 20180 30013 50260 55025;EQDQ01  00002PRCP99
0161080270999992000091309004+43300-002050FM-12+025999999V0201101N002110090019N0030001N1+02041+01781101411ADDAY121031AY221031GF105991051081004501999999MA1999999098431MD1410001+9999MW1101REMSYN072AAXX  13094 08027 41430 51104 10204 20178 39843 40141 54000 71022 858//;
0191080270999992000091312004+43300-002050FM-12+025999999V0203601N002612200019N0040001N1+02081+01791101361ADDAA199000091AY121061AY211061GF104991001001999999001051MA1999999098391MD1810041+9999MW1101REMSYN072AAXX  13124 08027 31940 43605 10208 20179 39839 40136 58004 71021 80005;EQDQ01  00002PRCP99
0230080270999992000091318004+43300-002050FM-12+025999999V0203301N002110001519N0008001N1+01961+01831101411ADDAA199000091AY121061AY211061GA1091+000159999GF109991091999999999999999KA1120M+02241MA1999999098431MD1310051+9999MW1471REMSYN082AAXX  13184 08027 31/08 93304 10196 20183 39843 40141 53005 74721 333 10224 89/00;EQDQ01  00002PRCP99
0171080270999992000091321004+43300-002050FM-12+025999999V0203101N001012200019N0008001N1+01861+01801101511ADDAY141031AY211031GA1001+999999999GF100991001001999999001001MA1999999098511MD1210081+9999MW1421REMSYN066AAXX  13214 08027 41908 03102 10186 20180 39851 40151 52008 74241;
0211080270999992000091400004+43300-002050FM-12+025999999V0203401N001010001519N0005001N1+01881+01821101501ADDAA199000091AY141061AY211061GA1091+000159999GF109991091999999999999999MA1999999098511MD1410001+9999MW1471REMSYN076AAXX  14004 08027 31/05 93402 10188 20182 39851 40150 54000 74741 333 89/00;EQDQ01  00002PRCP99
0171080270999992000091403004+43300-002050FM-12+025999999V0200401N001010003019N0005001N1+01881+01821101491ADDAY141031AY241031GA1091+999999999GF109991091999999999999999MA1999999098501MD1810011+9999MW1451REMSYN066AAXX  14034 08027 41/05 90402 10188 20182 39850 40149 58001 74544;
0274080270999992000091406004+43300-002050FM-12+025999999V0200101N001010001519N0006001N1+01881+01781101491ADDAA199000091AY141061AY241061GA1091+000159999GF109991091999999999999999GJ104209IA1099IA2999+01309KA1120N+01821MA1999999098501MD1510001+9999MW1451REMSYN100AAXX  14064 08027 31/06 90102 10188 20178 39850 40149 55000 74544 333 20182 31013 50290 55070 89/00;EQDQ01  00002PRCP99
0161080270999992000091409004+43300-002050FM-12+025999999V0200201N001010021019N0005001N1+02101+01851101441ADDAY141031AY221031GF106991061061002501999999MA1999999098471MD1810031+9999MW1421REMSYN072AAXX  14094 08027 41305 60202 10210 20185 39847 40144 58003 74242 866//;
0191080270999992000091412004+43300-002050FM-12+025999999V0200201N002112200019N0010001N1+02201+01851101391ADDAA199000091AY141061AY211061GF103991001001999999001021MA1999999098431MD1710041+9999MW1101REMSYN072AAXX  14124 08027 31910 30204 10220 20185 39843 40139 57004 71041 80002;EQDQ01  00002PRCP99
0224080270999992000091418004+43300-002050FM-12+025999999V0203001N004112200019N0050001N1+02261+02081101171ADDAA199000091AY111061AY211061GA1001+999999999GF100991001001999999001001KA1999M+02661MA1999999098231MD1710081+9999MW1101REMSYN076AAXX  14184 08027 31950 03008 10226 20208 39823 40117 57008 71011 333 10266;EQDQ01  00002PRCP99
0191080270999992000091500004+43300-002050FM-12+025999999V0202901N002610360019N0050001N1+01921+01861101451ADDAA199000091AY121061AY211061GF106991021061002501031011MA1999999098461MD1410001+9999MW1101REMSYN072AAXX  15004 08027 31350 62905 10192 20186 39846 40145 54000 71021 82631;EQDQ01  00002PRCP99
0161080270999992000091503004+43300-002050FM-12+025999999V0202901N002610360019N0050001N1+01921+01861101421ADDAY121031AY211031GF107991041061002501031011MA1999999098431MD1810031+9999MW1101REMSYN072AAXX  15034 08027 41350 72905 10192 20186 39843 40142 58003 71021 84631;
0250080270999992000091506004+43300-002050FM-12+025999999V0202701N001010042019N0040001N1+01861+01731101461ADDAA199000091AY121061AY221061GF107991061061004501031001IA1019IA2999+01309KA1120N+01851MA1999999098461MD1210031+9999MW1101REMSYN100AAXX  15064 08027 31440 72702 10186 20173 39846 40146 52003 71022 86630 333 20185 30013 50100 55092;EQDQ01  00002PRCP99
0161080270999992000091509004+43300-002050FM-12+025999999V0201401N001010360019N0060001N1+02021+01801101521ADDAY121031AY221031GF106991021061004501021011MA1999999098541MD1210081+9999MW1101REMSYN072AAXX  15094 08027 41456 61402 10202 20180 39854 40152 52008 71022 82621;
0214080270999992000091518004+43300-002050FM-12+025999999V0203301N003610042019N0040001N1+01961+01801101541ADDAA199000091AY121061AY211061GF108991081061004501999999KA1999M+02221MA1999999098551MD1310131+9999MW1101REMSYN082AAXX  15184 08027 31440 83307 10196 20180 39855 40154 53013 71021 886// 333 10222;EQDQ01  00002PRCP99
0161080270999992000091521004+43300-002050FM-12+025999999V0202801N002110042019N0040001N1+01881+01751101711ADDAY121031AY221031GF108991081061004501999999MA1999999098711MD1210161+9999MW1101REMSYN072AAXX  15214 08027 41440 82804 10188 20175 39871 40171 52016 71022 886//;
0191080270999992000091600004+43300-002050FM-12+025999999V0202501N002110042019N0040001N1+01821+01721101791ADDAA199000091AY121061AY221061GF106991061061004501999999MA1999999098781MD1310071+9999MW1101REMSYN072AAXX  16004 08027 31440 62504 10182 20172 39878 40179 53007 71022 866//;EQDQ01  00002PRCP99
0161080270999992000091603004+43300-002050FM-12+025999999V0209999C000010042019N0040001N1+01841+01711101761ADDAY121031AY221031GF108991081061004501999999MA1999999098751MD1810031+9999MW1101REMSYN072AAXX  16034 08027 41440 80000 10184 20171 39875 40176 58003 71022 886//;
0250080270999992000091606004+43300-002050FM-12+025999999V0209999C000010042019N0030001N1+01861+01661101761ADDAA199000091AY121061AY221061GF108991081061004501999999IA1019IA2999+01209KA1120N+01821MA1999999098751MD1510001+9999MW1101REMSYN100AAXX  16064 08027 31430 80000 10186 20166 39875 40176 55000 71022 886// 333 20182 30012 50440 55074;EQDQ01  00002PRCP99
0161080270999992000091609004+43300-002050FM-12+025999999V0203501N001010042019N0030001N1+02041+01751101781ADDAY121031AY221031GF106991061061004501999999MA1999999098791MD1210041+9999MW1101REMSYN072AAXX  16094 08027 41430 63502 10204 20175 39879 40178 52004 71022 866//;
0191080270999992000091612004+43300-002050FM-12+025999999V0203401N003110042019N0040001N1+02081+01831101761ADDAA199000091AY121061AY221061GF105991051021004501999999MA1999999098781MD1810011+9999MW1101REMSYN072AAXX  16124 08027 31440 53406 10208 20183 39878 40176 58001 71022 852//;EQDQ01  00002PRCP99
0186080270999992000091618004+43300-002050FM-12+025999999V0200201N002610120019N0150001N1+01901+01701101631ADDAA199000091GF107991061081008001071001KA1999M+02151MA1999999098631MD1710081+9999REMSYN076AAXX  16184 08027 32565 70205 10190 20170 39863 40163 57008 86870 333 10215;EQDQ01  00002PRCP99
0133080270999992000091621004+43300-002050FM-12+025999999V0200201N003610360019N0150001N1+01861+01631101721ADDGF106991041051004501071001MA1999999098711MD1310081+9999REMSYN066AAXX  16214 08027 42465 60207 10186 20163 39871 40172 53008 84570;
0163080270999992000091700004+43300-002050FM-12+025999999V0200401N003610360019N0200001N1+01761+01561101691ADDAA199000091GF106991031051008001071001MA1999999098671MD1710041+9999REMSYN066AAXX  17004 08027 32570 60407 10176 20156 39867 40169 57004 83570;EQDQ01  00002PRCP99
0133080270999992000091703004+43300-002050FM-12+025999999V0201001N001512200019N0200001N1+01681+01511101601ADDGF104991011051008001031001MA1999999098581MD1710091+9999REMSYN066AAXX  17034 08027 42570 41003 10168 20151 39858 40160 57009 81530;
0222080270999992000091706004+43300-002050FM-12+025999999V0200701N002110360019N0200001N1+01561+01391101531ADDAA199000091GF106991041051008001071001IA1019IA2999+00909KA1120N+01551MA1999999098501MD1610081+9999REMSYN094AAXX  17064 08027 32570 60704 10156 20139 39850 40153 56008 84570 333 20155 30009 50140 55061;EQDQ01  00002PRCP99
0133080270999992000091709004+43300-002050FM-12+025999999V0201401N003612200019N0200001N1+01801+01421101521ADDGF104991011011008001071001MA1999999098511MD1310011+9999REMSYN066AAXX  17094 08027 42570 41407 10180 20142 39851 40152 53001 81170;
0163080270999992000091712004+43300-002050FM-12+025999999V0200101N003110360019N0250001N1+01901+01381101471ADDAA199000091GF107991021081008001071001MA1999999098471MD1810041+9999REMSYN066AAXX  17124 08027 32575 70106 10190 20138 39847 40147 58004 82870;EQDQ01  00002PRCP99
0186080270999992000091718004+43300-002050FM-12+025999999V0209999C000012200019N0400001N1+01721+01451101351ADDAA199000091GF103991021081008001011011KA1999M+02001MA1999999098341MD1610011+9999REMSYN076AAXX  17184 08027 32582 30000 10172 20145 39834 40135 56001 82811 333 10200;EQDQ01  00002PRCP99
0133080270999992000091721004+43300-002050FM-12+025999999V0201801N001012200019N0400001N1+01621+01451101401ADDGF102991021081008001001001MA1999999098381MD1310041+9999REMSYN066AAXX  17214 08027 42582 21802 10162 20145 39838 40140 53004 82800;
0163080270999992000091800004+43300-002050FM-12+025999999V0209999V001012200019N0400001N1+01561+01391101301ADDAA199000091GF102991021021008001001001MA1999999098271MD1710111+9999REMSYN066AAXX  18004 08027 32582 29902 10156 20139 39827 40130 57011 82200;EQDQ01  00002PRCP99
0133080270999992000091803004+43300-002050FM-12+025999999V0209999V001012200019N0400001N1+01561+01391101301ADDGF102991021021008001001001MA1999999098271MD1410001+9999REMSYN066AAXX  18034 08027 42582 29902 10156 20139 39827 40130 54000 82200;
0222080270999992000091806004+43300-002050FM-12+025999999V0201501N003112200019N0400001N1+01361+01211101111ADDAA199000091GF101991011051008001001001IA1099IA2999+00709KA1120N+01361MA1999999098071MD1710081+9999REMSYN094AAXX  18064 08027 32582 11506 10136 20121 39807 40111 57008 81500 333 20136 31007 50440 55083;EQDQ01  00002PRCP99
0143080270999992000091809004+43300-002050FM-12+025999999V0201701N001012200019N0400001N1+01901+01391101051ADDGA1001+999999999GF100991001001999999001001MA1999999098071MD1510001+9999REMSYN060AAXX  18094 08027 42982 01702 10190 20139 39807 40105 55000;
0163080270999992000091812004+43300-002050FM-12+025999999V0203201N004110120019N0350001N1+01901+01641100931ADDAA199000091GF105991051081008001001001MA1999999097951MD1710121+9999REMSYN066AAXX  18124 08027 32581 53208 10190 20164 39795 40093 57012 85800;EQDQ01  00002PRCP99
0214080270999992000091818004+43300-002050FM-12+025999999V0200101N002110042019N0080001N1+01801+01531100521ADDAA199000091AY121061AY221061GF108991081051004501999999KA1999M+02061MA1999999097541MD1810161+9999MW1101REMSYN082AAXX  18184 08027 31458 80104 10180 20153 39754 40052 58016 71022 885// 333 10206;EQDQ01  00002PRCP99
0133080270999992000091821004+43300-002050FM-12+025999999V0201101N001010042019N0100001N1+01781+01551100321ADDGF108991081051004501999999MA1999999097351MD1710191+9999REMSYN066AAXX  18214 08027 42460 81102 10178 20155 39735 40032 57019 885//;
0163080270999992000091900004+43300-002050FM-12+025999999V0201001N001010042019N0100001N1+01681+01511100161ADDAA199000091GF108991081051004501999999MA1999999097181MD1710171+9999REMSYN066AAXX  19004 08027 32460 81002 10168 20151 39718 40016 57017 885//;EQDQ01  00002PRCP99
0161080270999992000091903004+43300-002050FM-12+025999999V0201801N005110120019N0100001N1+01681+01441099881ADDAY191031AY281031GF108991081081008001999999MA1999999096911MD1810271+9999MW1291REMSYN072AAXX  19034 08027 41560 81810 10168 20144 39691 49988 58027 72998 888//;
0267080270999992000091906004+43300-002050FM-12+025999999V0203001N008710080019N0080001N1+01601+01461099841ADDAA112000891AY191061AY281061GA1081+008009099GF108991081091008001999999GJ104869IA1119IA2999+01009KA1120N+01581MA1999999096861MD1510051+9999MW1951REMSYN112AAXX  19064 08027 11558 83017 10160 20146 39686 49984 55005 69972 79598 889// 333 20158 32010 50400 55081 88995;
0161080270999992000091909004+43300-002050FM-12+025999999V0203001N005110120019N0040001N1+01281+01171100051ADDAY191031AY261031GF108991081081008001999999MA1999999097031MD1310171+9999MW1611REMSYN072AAXX  19094 08027 41540 83010 10128 20117 39703 40005 53017 76196 888//;
0178080270999992000091912004+43300-002050FM-12+025999999V0202501N008210120019N0250001N1+01261+01031100221ADDAA106004191AY191061AY261061GF107991071081008001999999MA1999999097191MD1210161+9999MW1211REMSYN078AAXX  19124 08027 11575 72516 10126 20103 39719 40022 52016 60041 72196 878//;
0173080270999992000091918004+43300-002050FM-12+025999999V0200101N001512200019N0300001N1+01541+00751100191ADDAA112004191GF104991021081008001041011KA1999M+01781MA1999999097191MD1410001+9999REMSYN082AAXX  19184 08027 12580 40103 10154 20075 39719 40019 54000 60042 82841 333 10178;
0187080270999992000091921004+43300-002050FM-12+025999999V0201601N004112200019N0300001N1+01221+00911100141ADDAY111031AY211031GA1011+008009099GF103991011031008001041011MA1999999097111MD1810081+9999MW1131REMSYN082AAXX  19214 08027 41580 31608 10122 20091 39711 40014 58008 71311 81341 333 81995;
0204080270999992000092000004+43300-002050FM-12+025999999V0202301N00771007501CN0300001N1+01461+00501100201ADDAA199000021AY121061AY211061GA1011+008009099GF108991081031008001999999MA1999999097191MD1310081+9999MW1131REMSYN088AAXX  20004 08027 31580 82315 10146 20050 39719 40020 53008 71321 883// 333 81995 87595;
0133080270999992000092003004+43300-002050FM-12+025999999V0202701N006210075019N0300001N1+01241+01011100331ADDGF108991081051008001999999MA1999999097301MD1310111+9999REMSYN066AAXX  20034 08027 42580 82712 10124 20101 39730 40033 53011 885//;
0222080270999992000092006004+43300-002050FM-12+025999999V0202501N006210360019N0300001N1+01221+00641100461ADDAA199000091GF107991041081008001071051IA1099IA2999+00609KA1120N+01201MA1999999097421MD1310121+9999REMSYN094AAXX  20064 08027 32580 72512 10122 20064 39742 40046 53012 84875 333 20120 31006 50270 55051;EQDQ01  00002PRCP99
0161080270999992000092009004+43300-002050FM-12+025999999V0202101N002110075019N0150001N1+01121+01041100811ADDAY161031AY261031GF107991051071008001071051MA1999999097751MD1210331+9999MW1611REMSYN072AAXX  20094 08027 41565 72104 10112 20104 39775 40081 52033 76166 85775;
0178080270999992000092012004+43300-002050FM-12+025999999V0203201N004110075019N0050001N1+01121+01001101141ADDAA106006191AY161061AY221061GF108991081071008001999999MA1999999098071MD1310321+9999MW1611REMSYN078AAXX  20124 08027 11550 83208 10112 20100 39807 40114 53032 60061 76162 887//;
0201080270999992000092018004+43300-002050FM-12+025999999V0202301N002112200019N0150001N1+01421+01081101431ADDAA112021191AY191061AY261061GF104991041081008001001001KA1999M+01501MA1999999098381MD1210111+9999MW1011REMSYN088AAXX  20184 08027 11565 42304 10142 20108 39838 40143 52011 60212 70196 84800 333 10150;
0133080270999992000092021004+43300-002050FM-12+025999999V0201801N002112200019N0200001N1+01301+01071101621ADDGF103991031081008001001001MA1999999098551MD1210171+9999REMSYN066AAXX  20214 08027 42570 31804 10130 20107 39855 40162 52017 83800;
0154080270999992000092100004+43300-002050FM-12+025999999V0201601N003612200019N0200001N1+01201+00971101711ADDAA199000021GA1001+999999999GF100991001001999999001001MA1999999098631MD1210081+9999REMSYN060AAXX  21004 08027 32970 01607 10120 20097 39863 40171 52008;
0143080270999992000092103004+43300-002050FM-12+025999999V0201801N005112200019N0200001N1+01261+00781101671ADDGA1001+999999999GF100991001001999999001001MA1999999098591MD1810041+9999REMSYN060AAXX  21034 08027 42970 01810 10126 20078 39859 40167 58004;
0222080270999992000092106004+43300-002050FM-12+025999999V0201701N004112200019N0250001N1+01301+00731101691ADDAA199000091GF101991011001999999071001IA1099IA2999+00509KA1120N+01141MA1999999098621MD1310031+9999REMSYN094AAXX  21064 08027 32975 11708 10130 20073 39862 40169 53003 81070 333 20114 31005 50110 55025;EQDQ01  00002PRCP99
0133080270999992000092109004+43300-002050FM-12+025999999V0201501N002612200019N0200001N1+01701+00941101811ADDGF104991031001999999071011MA1999999098781MD1210161+9999REMSYN066AAXX  21094 08027 42970 41505 10170 20094 39878 40181 52016 83071;
0163080270999992000092112004+43300-002050FM-12+025999999V0201601N001512200019N0250001N1+01981+01201101871ADDAA199000091GF104991021001999999011011MA1999999098871MD1210091+9999REMSYN066AAXX  21124 08027 32975 41603 10198 20120 39887 40187 52009 82011;EQDQ01  00002PRCP99
0166080270999992000092118004+43300-002050FM-12+025999999V0200801N003112200019N0400001N1+01901+01101101841ADDGA1001+999999999GF100991001001999999001001KA1999M+02301MA1999999098831MD1410001+9999REMSYN070AAXX  21184 08027 43982 00806 10190 20110 39883 40184 54000 333 10230;
0143080270999992000092121004+43300-002050FM-12+025999999V0201701N003112200019N0400001N1+01721+01051101901ADDGA1001+999999999GF100991001001999999001001MA1999999098871MD1310041+9999REMSYN060AAXX  21214 08027 42982 01706 10172 20105 39887 40190 53004;
0173080270999992000092200004+43300-002050FM-12+025999999V0201601N002112200019N0400001N1+01641+01091101911ADDAA199000091GA1001+999999999GF100991001001999999001001MA1999999098871MD1410001+9999REMSYN060AAXX  22004 08027 32982 01604 10164 20109 39887 40191 54000;EQDQ01  00002PRCP99
0143080270999992000092203004+43300-002050FM-12+025999999V0201601N002112200019N0400001N1+01641+01091101911ADDGA1001+999999999GF100991001001999999001001MA1999999098871MD1410001+9999REMSYN060AAXX  22034 08027 42982 01604 10164 20109 39887 40191 54000;
0232080270999992000092206004+43300-002050FM-12+025999999V0201601N003112200019N0400001N1+01581+00971101841ADDAA199000091GA1001+999999999GF100991001001999999001001IA1099IA2999+00709KA1120N+01561MA1999999098791MD1510001+9999REMSYN088AAXX  22064 08027 32982 01606 10158 20097 39879 40184 55000 333 20156 31007 50230 55093;EQDQ01  00002PRCP99
0143080270999992000092209004+43300-002050FM-12+025999999V0201401N003112200019N0300001N1+02001+01221101901ADDGA1001+999999999GF100991001001999999001001MA1999999098901MD1210111+9999REMSYN060AAXX  22094 08027 42980 01406 10200 20122 39890 40190 52011;
0173080270999992000092212004+43300-002050FM-12+025999999V0201501N002112200019N0300001N1+02421+01381101771ADDAA199000091GA1001+999999999GF100991001001999999001001MA1999999098821MD1810081+9999REMSYN060AAXX  22124 08027 32980 01504 10242 20138 39882 40177 58008;EQDQ01  00002PRCP99
0186080270999992000092218004+43300-002050FM-12+025999999V0200801N003612200019N0250001N1+02341+01441101571ADDAA199000091GF101991001001999999001011KA1999M+02581MA1999999098611MD1710101+9999REMSYN076AAXX  22184 08027 32975 10807 10234 20144 39861 40157 57010 80001 333 10258;EQDQ01  00002PRCP99
0133080270999992000092221004+43300-002050FM-12+025999999V0201501N003112200019N0250001N1+02061+01451101571ADDGF101991001001999999001011MA1999999098591MD1710021+9999REMSYN066AAXX  22214 08027 42975 11506 10206 20145 39859 40157 57002 80001;
0173080270999992000092300004+43300-002050FM-12+025999999V0201501N006712200019N0250001N1+02241+00711101481ADDAA199000091GA1001+999999999GF100991001001999999001001MA1999999098511MD1710081+9999REMSYN060AAXX  23004 08027 32975 01513 10224 20071 39851 40148 57008;EQDQ01  00002PRCP99
0143080270999992000092303004+43300-002050FM-12+025999999V0201501N012912200019N0250001N1+02261+00801101331ADDGA1001+999999999GF100991001001999999001001MA1999999098371MD1710141+9999REMSYN060AAXX  23034 08027 42975 01525 10226 20080 39837 40133 57014;
0222080270999992000092306004+43300-002050FM-12+025999999V0201501N012912200019N0250001N1+02221+00891101301ADDAA199000091GF101991001001999999001011IA1019IA2999+01509KA1120N+02061MA1999999098331MD1710041+9999REMSYN094AAXX  23064 08027 32975 11525 10222 20089 39833 40130 57004 80001 333 20206 30015 50880 55110;EQDQ01  00002PRCP99
0133080270999992000092309004+43300-002050FM-12+025999999V0201701N013912200019N0250001N1+02301+00911101261ADDGF101991001001999999001011MA1999999098301MD1710031+9999REMSYN066AAXX  23094 08027 42975 11727 10230 20091 39830 40126 57003 80001;
0163080270999992000092312004+43300-002050FM-12+025999999V0201601N008212200019N0250001N1+02641+01251101191ADDAA199000091GF103991001001999999001011MA1999999098271MD1710031+9999REMSYN066AAXX  23124 08027 32975 31616 10264 20125 39827 40119 57003 80001;EQDQ01  00002PRCP99
0186080270999992000092318004+43300-002050FM-12+025999999V0201501N006712200019N0300001N1+02621+01131100961ADDAA199000091GF103991011001017501041021KA1999M+02941MA1999999098051MD1610051+9999REMSYN076AAXX  23184 08027 32780 31513 10262 20113 39805 40096 56005 81042 333 10294;EQDQ01  00002PRCP99
0133080270999992000092321004+43300-002050FM-12+025999999V0201801N008210150019N0300001N1+02541+01011101081ADDGF105991051001017501051999MA1999999098151MD1310101+9999REMSYN066AAXX  23214 08027 42780 51816 10254 20101 39815 40108 53010 8505/;
0163080270999992000092400004+43300-002050FM-12+025999999V0203101N010310075019N0200001N1+01761+01661101441ADDAA199000091GF106991061051008001999999MA1999999098431MD1110281+9999REMSYN066AAXX  24004 08027 32570 63120 10176 20166 39843 40144 51028 865//;EQDQ01  00002PRCP99
0133080270999992000092403004+43300-002050FM-12+025999999V0203001N005110075019N0200001N1+01741+01571101521ADDGF108991081071008001999999MA1999999098511MD1110081+9999REMSYN066AAXX  24034 08027 42570 83010 10174 20157 39851 40152 51008 887//;
0222080270999992000092406004+43300-002050FM-12+025999999V0203201N004110075019N0150001N1+01681+01541101681ADDAA199000091GF108991081071008001999999IA1019IA2999+01109KA1120N+01681MA1999999098661MD1310151+9999REMSYN094AAXX  24064 08027 32565 83208 10168 20154 39866 40168 53015 887// 333 20168 30011 50620 55092;EQDQ01  00002PRCP99
0161080270999992000092409004+43300-002050FM-12+025999999V0203001N004610075019N0120001N1+01681+01541101891ADDAY151031AY221031GF107991071071008001999999MA1999999098861MD1210201+9999MW1021REMSYN072AAXX  24094 08027 41562 73009 10168 20154 39886 40189 52020 70252 877//;
0150080270999992000092412004+43300-002050FM-12+025999999V0203101N004110075019N0150001N1+01741+01471101981ADDAA106000191GF108991081051008001999999MA1999999098951MD1110091+9999REMSYN072AAXX  24124 08027 12565 83108 10174 20147 39895 40198 51009 69911 885//;
0201080270999992000092418004+43300-002050FM-12+025999999V0209999C000010042019N0050001N1+01601+01501101991ADDAA112000191AY151061AY221061GF108991081061004501999999KA1999M+01781MA1999999098951MD1510001+9999MW1101REMSYN088AAXX  24184 08027 11450 80000 10160 20150 39895 40199 55000 69912 71052 886// 333 10178;
0161080270999992000092421004+43300-002050FM-12+025999999V0201701N001010021019N0030001N1+01581+01481102121ADDAY141031AY221031GF108991081061002501999999MA1999999099071MD1310121+9999MW1101REMSYN072AAXX  24214 08027 41330 81702 10158 20148 39907 40212 53012 71042 886//;
0163080270999992000092500004+43300-002050FM-12+025999999V0209999C000010042019N0100001N1+01621+01451102111ADDAA199000091GF108991081061004501999999MA1999999099071MD1410001+9999REMSYN066AAXX  25004 08027 32460 80000 10162 20145 39907 40211 54000 886//;EQDQ01  00002PRCP99
0133080270999992000092503004+43300-002050FM-12+025999999V0209999C000010042019N0050001N1+01621+01451102111ADDGF108991081061004501999999MA1999999099071MD1410001+9999REMSYN066AAXX  25034 08027 41450 80000 10162 20145 39907 40211 54000 886//;
0250080270999992000092506004+43300-002050FM-12+025999999V0202801N001010150019N0080001N1+01501+01391102051ADDAA199000091AY121061AY221061GF107991071001017501071999IA1099IA2999+00709KA1120N+01501MA1999999098991MD1610031+9999MW1101REMSYN100AAXX  25064 08027 31758 72802 10150 20139 39899 40205 56003 71022 8707/ 333 20150 31007 50180 55001;EQDQ01  00002PRCP99
0133080270999992000092509004+43300-002050FM-12+025999999V0201801N001012200019N0100001N1+01861+01521102011ADDGF104991001001999999001021MA1999999098991MD1410001+9999REMSYN066AAXX  25094 08027 42960 41802 10186 20152 39899 40201 54000 80002;
0163080270999992000092512004+43300-002050FM-12+025999999V0203501N001012200019N0100001N1+02061+01741101901ADDAA199000091GF102991001001999999001021MA1999999098911MD1810081+9999REMSYN066AAXX  25124 08027 32960 23502 10206 20174 39891 40190 58008 80002;EQDQ01  00002PRCP99
0156080270999992000092518004+43300-002050FM-12+025999999V0203001N002112200019N0100001N1+01821+01761101791ADDGF104991021061004501071011KA1999M+02341MA1999999098781MD1410001+9999REMSYN076AAXX  25184 08027 42460 43004 10182 20176 39878 40179 54000 82671 333 10234;
0133080270999992000092521004+43300-002050FM-12+025999999V0203001N001012200019N0150001N1+01761+01631101881ADDGF103991031061004501001001MA1999999098861MD1110081+9999REMSYN066AAXX  25214 08027 42465 33002 10176 20163 39886 40188 51008 83600;
0163080270999992000092600004+43300-002050FM-12+025999999V0202801N002112200019N0150001N1+01721+01621101841ADDAA199000091GF102991021061004501001001MA1999999098821MD1710041+9999REMSYN066AAXX  26004 08027 32465 22804 10172 20162 39882 40184 57004 82600;EQDQ01  00002PRCP99
0222080270999992000092606004+43300-002050FM-12+025999999V0201801N006212200019N0150001N1+01861+01591101671ADDAA199000091GF104991021051008001041011IA1099IA2999+00909KA1120N+01661MA1999999098671MD1610071+9999REMSYN094AAXX  26064 08027 32565 41812 10186 20159 39867 40167 56007 82541 333 20166 31009 50050 55088;EQDQ01  00002PRCP99
0161080270999992000092609004+43300-002050FM-12+025999999V0203101N007210042019N0050001N1+01841+01741101961ADDAY141031AY211031GF106991061061004501001001MA1999999098951MD1210281+9999MW1101REMSYN072AAXX  26094 08027 41450 63114 10184 20174 39895 40196 52028 71041 86600;
0163080270999992000092612004+43300-002050FM-12+025999999V0203401N002110075019N0150001N1+01981+01651102031ADDAA199000091GF107991071051008001001001MA1999999099031MD1110081+9999REMSYN066AAXX  26124 08027 32565 73404 10198 20165 39903 40203 51008 87500;EQDQ01  00002PRCP99
0223080270999992000092618004+43300-002050FM-12+025999999V0203101N004110080019N0010001N1+01781+01751102011ADDAA112002091AY121061AY221061GA1081+008009099GF108991081091008001999999KA1120M+02121MA1999999098991MD1810111+9999MW1811REMSYN094AAXX  26184 08027 11510 83108 10178 20175 39899 40201 58011 60022 78122 889// 333 10212 88995;
0161080270999992000092621004+43300-002050FM-12+025999999V0202901N005110120019N0040001N1+01641+01541102071ADDAY161031AY221031GF108991081081008001999999MA1999999099031MD1310041+9999MW1101REMSYN072AAXX  26214 08027 41540 82910 10164 20154 39903 40207 53004 71062 888//;
0178080270999992000092700004+43300-002050FM-12+025999999V0203101N004110090019N0040001N1+01641+01571102071ADDAA106003091AY161061AY221061GF108991081081004501999999MA1999999099031MD1410001+9999MW1501REMSYN078AAXX  27004 08027 11440 83108 10164 20157 39903 40207 54000 60031 75062 888//;
0161080270999992000092703004+43300-002050FM-12+025999999V0203001N004110090019N0040001N1+01641+01611102061ADDAY151031AY221031GF108991081081004501999999MA1999999099021MD1810011+9999MW1501REMSYN072AAXX  27034 08027 41440 83008 10164 20161 39902 40206 58001 75052 888//;
0261080270999992000092706004+43300-002050FM-12+025999999V0203101N002110001519N0001001N1+01601+01571102071ADDAA112003091AY151061AY221061GA1091+000159999GF109991091999999999999999GJ102289IA1119IA2999+01009KA1120N+01581MA1999999099031MD1310011+9999MW1471REMSYN106AAXX  27064 08027 11/01 93104 10160 20157 39903 40207 53001 60032 74752 333 20158 32010 50220 55038 89/00;
0161080270999992000092709004+43300-002050FM-12+025999999V0201701N001010075019N0100001N1+01681+01581102071ADDAY141031AY221031GF107991071051008001999999MA1999999099031MD1010001+9999MW1011REMSYN072AAXX  27094 08027 41560 71702 10168 20158 39903 40207 50000 70142 875//;
0172080270999992000092712004+43300-002050FM-12+025999999V0203601N002110042019N0100001N1+01781+01581101851ADDAA199000021AY141061AY221061GF106991051051004501001011MA1999999098831MD1810201+9999MW1011REMSYN072AAXX  27124 08027 31460 63604 10178 20158 39883 40185 58020 70142 85501;
0186080270999992000092718004+43300-002050FM-12+025999999V0203301N003112200019N0150001N1+01781+01611101601ADDAA199000091GF103991001001999999001011KA1999M+02001MA1999999098591MD1710041+9999REMSYN076AAXX  27184 08027 32965 33306 10178 20161 39859 40160 57004 80001 333 10200;EQDQ01  00002PRCP99
0133080270999992000092721004+43300-002050FM-12+025999999V0202501N002112200019N0150001N1+01741+01611101521ADDGF104991011051008001001011MA1999999098511MD1710081+9999REMSYN066AAXX  27214 08027 42565 42504 10174 20161 39851 40152 57008 81501;
0163080270999992000092800004+43300-002050FM-12+025999999V0201501N004612200019N0150001N1+01641+01611101241ADDAA199000091GF102991021061002501001001MA1999999098231MD1710281+9999REMSYN066AAXX  28004 08027 32365 21509 10164 20161 39823 40124 57028 82600;EQDQ01  00002PRCP99
0133080270999992000092803004+43300-002050FM-12+025999999V0201701N007212200019N0150001N1+02021+01371100951ADDGF104991021051004501031001MA1999999097981MD1710251+9999REMSYN066AAXX  28034 08027 42465 41714 10202 20137 39798 40095 57025 82530;
0222080270999992000092806004+43300-002050FM-12+025999999V0201601N008210360019N0150001N1+01981+01281100841ADDAA199000091GF107991031051008001071001IA1019IA2999+00909KA1120N+01621MA1999999097871MD1710111+9999REMSYN094AAXX  28064 08027 32565 71616 10198 20128 39787 40084 57011 83570 333 20162 30009 50200 55071;EQDQ01  00002PRCP99
0133080270999992000092809004+43300-002050FM-12+025999999V0202601N005710360019N0150001N1+01961+01261100891ADDGF107991031051008001071001MA1999999097911MD1310041+9999REMSYN066AAXX  28094 08027 42565 72611 10196 20126 39791 40089 53004 83570;
0163080270999992000092812004+43300-002050FM-12+025999999V0203201N003610360019N0100001N1+01821+01721100811ADDAA199000091GF108991031051004501071001MA1999999097831MD1810081+9999REMSYN066AAXX  28124 08027 32460 83207 10182 20172 39783 40081 58008 83570;EQDQ01  00002PRCP99
0201080270999992000092818004+43300-002050FM-12+025999999V0202101N006210075019N0300001N1+01801+00941100411ADDAA112000391AY161061AY221061GF107991071051008001999999KA1999M+02041MA1999999097431MD1110051+9999MW1011REMSYN088AAXX  28184 08027 11580 72112 10180 20094 39743 40041 51005 69932 70162 875// 333 10204;
0161080270999992000092821004+43300-002050FM-12+025999999V0202801N001510075019N0280001N1+01461+01321100511ADDAY161031AY221031GF108991081051008001999999MA1999999097501MD1010071+9999MW1211REMSYN072AAXX  28214 08027 41578 82803 10146 20132 39750 40051 50007 72162 885//;
0178080270999992000092900004+43300-002050FM-12+025999999V0202901N005710075019N0150001N1+01321+01281100371ADDAA106000591AY161061AY221061GF108991081071008001999999MA1999999097351MD1610151+9999MW1211REMSYN078AAXX  29004 08027 11565 82911 10132 20128 39735 40037 56015 69951 72162 887//;
0161080270999992000092903004+43300-002050FM-12+025999999V0201701N003610075019N0120001N1+01201+01091100301ADDAY161031AY261031GF108991081071008001999999MA1999999097261MD1810091+9999MW1211REMSYN072AAXX  29034 08027 41562 81707 10120 20109 39726 40030 58009 72166 887//;
0237080270999992000092906004+43300-002050FM-12+025999999V0202601N008710075019N0060001N1+01241+01011100391ADDAA112006191AY161061AY261061GF108991081071008001999999IA1099IA2999+00609KA1120N+01201MA1999999097351MD1310091+9999MW1601REMSYN106AAXX  29064 08027 11556 82617 10124 20101 39735 40039 53009 60062 76066 887// 333 20120 31006 50230 55000;
0161080270999992000092909004+43300-002050FM-12+025999999V0202201N004110075019N0300001N1+01201+00931100471ADDAY161031AY221031GF107991051021008001071999MA1999999097431MD1310081+9999MW1011REMSYN072AAXX  29094 08027 41580 72208 10120 20093 39743 40047 53008 70162 8527/;
0178080270999992000092912004+43300-002050FM-12+025999999V0202801N005110075019N0300001N1+01321+00891100501ADDAA106001091AY161061AY221061GF107991051021008001071999MA1999999097471MD1310041+9999MW1601REMSYN078AAXX  29124 08027 11580 72810 10132 20089 39747 40050 53004 69991 76062 8527/;
0201080270999992000092918004+43300-002050FM-12+025999999V0202701N003110120019N0300001N1+01181+01031100641ADDAA112005191AY181061AY261061GF106991061081008001001001KA1999M+01701MA1999999097591MD1310091+9999MW1251REMSYN088AAXX  29184 08027 11580 62706 10118 20103 39759 40064 53009 60052 72586 86800 333 10170;
0161080270999992000092921004+43300-002050FM-12+025999999V0202201N003110120019N0300001N1+01221+00991100721ADDAY161031AY221031GF106991061081008001001001MA1999999097671MD1310081+9999MW1021REMSYN072AAXX  29214 08027 41580 62206 10122 20099 39767 40072 53008 70262 86800;
0178080270999992000093000004+43300-002050FM-12+025999999V0202401N003112200019N0400001N1+01241+00891100761ADDAA106001091AY161061AY221061GF104991041081008001001001MA1999999097711MD1110041+9999MW1021REMSYN078AAXX  30004 08027 11582 42406 10124 20089 39771 40076 51004 60011 70262 84800;
0133080270999992000093003004+43300-002050FM-12+025999999V0202401N003112200019N0400001N1+01241+00891100761ADDGF104991041081008001001001MA1999999097711MD1410001+9999REMSYN066AAXX  30034 08027 42582 42406 10124 20089 39771 40076 54000 84800;
0237080270999992000093006004+43300-002050FM-12+025999999V0202601N008210042019N0200001N1+01221+01071100801ADDAA112001091AY181061AY261061GF108991081071004501999999IA1099IA2999+00509KA1120N+01181MA1999999097751MD1210041+9999MW1801REMSYN106AAXX  30064 08027 11470 82616 10122 20107 39775 40080 52004 60012 78086 887// 333 20118 31005 50110 55062;
0133080270999992000093009004+43300-002050FM-12+025999999V0202701N006210120019N0300001N1+01421+01001100981ADDGF107991071081008001001001MA1999999097941MD1210191+9999REMSYN066AAXX  30094 08027 42580 72712 10142 20100 39794 40098 52019 87800;
0178080270999992000093012004+43300-002050FM-12+025999999V0202901N005110120019N0300001N1+01401+01261101021ADDAA106001091AY161061AY221061GF106991061081008001001001MA1999999097981MD1110041+9999MW1021REMSYN078AAXX  30124 08027 11580 62910 10140 20126 39798 40102 51004 60011 70262 86800;
0201080270999992000093018004+43300-002050FM-12+025999999V0202701N007210120019N0010001N1+01201+01051101081ADDAA112006191AY181061AY221061GF108991081081008001999999KA1999M+01641MA1999999098021MD1310031+9999MW1801REMSYN088AAXX  30184 08027 11510 82714 10120 20105 39802 40108 53003 60062 78082 888// 333 10164;
0161080270999992000093021004+43300-002050FM-12+025999999V0202601N007210120019N0010001N1+01201+01011101091ADDAY161031AY261031GF108991081081008001999999MA1999999098031MD1010011+9999MW1611REMSYN072AAXX  30214 08027 41510 82614 10120 20101 39803 40109 50001 76166 888//;
0178080270999992000100100004+43300-002050FM-12+025999999V0202501N008710120019N0010001N1+01161+01051101101ADDAA106009991AY161061AY261061GF108991081081008001999999MA1999999098031MD1410001+9999MW1611REMSYN078AAXX  01004 08027 11510 82517 10116 20105 39803 40110 54000 60101 76166 888//;
0161080270999992000100103004+43300-002050FM-12+025999999V0202601N005110120019N0010001N1+01121+01041101091ADDAY161031AY221031GF108991081081008001999999MA1999999098021MD1810011+9999MW1611REMSYN072AAXX  01034 08027 41510 82610 10112 20104 39802 40109 58001 76162 888//;
0237080270999992000100106004+43300-002050FM-12+025999999V0202501N006210120019N0050001N1+01181+01101101041ADDAA112019191AY181061AY221061GF108991081081008001999999IA1119IA2999+00509KA1120N+01101MA1999999097981MD1510041+9999MW1801REMSYN106AAXX  01064 08027 11550 82512 10118 20110 39798 40104 55004 60192 78082 888// 333 20110 32005 50580 55033;
0161080270999992000100109004+43300-002050FM-12+025999999V0202401N004110120019N0050001N1+01221+01111101131ADDAY161031AY261031GF107991071081008001999999MA1999999098071MD1310091+9999MW1631REMSYN072AAXX  01094 08027 41550 72408 10122 20111 39807 40113 53009 76366 878//;
0178080270999992000100112004+43300-002050FM-12+025999999V0202301N003110120019N0100001N1+01401+01291101191ADDAA106017091AY161061AY221061GF108991081081008001999999MA1999999098151MD1210081+9999MW1021REMSYN078AAXX  01124 08027 11560 82306 10140 20129 39815 40119 52008 60171 70262 888//;
0201080270999992000100118004+43300-002050FM-12+025999999V0202201N003110150019N0220001N1+01421+01121101151ADDAA112017091AY161061AY261061GF108991081001017501071999KA1999M+01521MA1999999098111MD1610041+9999MW1021REMSYN088AAXX  01184 08027 11772 82206 10142 20112 39811 40115 56004 60172 70266 8807/ 333 10152;
0161080270999992000100121004+43300-002050FM-12+025999999V0202201N005119999999N0080001N1+01321+01271101231ADDAY161031AY261031GF108991081001012501071999MA1999999098181MD1310071+9999MW1611REMSYN072AAXX  01214 08027 41658 82210 10132 20127 39818 40123 53007 76166 8807/;
0205080270999992000100200004+43300-002050FM-12+025999999V0203101N013910075019N0250001N1+01581+00911101511ADDAA106007191AY161061AY261061GF108991061051008001071999MA1999999098471MD1210291+9999MW1021OA149902421REMSYN094AAXX  02004 08027 11575 83127 10158 20091 39847 40151 52029 60071 70266 8657/ 333 91147 91531;
0188080270999992000100203004+43300-002050FM-12+025999999V0203101N009310075019N0200001N1+01391+01071101721ADDAY181031AY281031GF108991051051008001071999MA1999999098661MD1110191+9999MW1251OA149902321REMSYN088AAXX  02034 08027 41570 83118 10139 20107 39866 40172 51019 72588 8557/ 333 91145 91531;
0268080270999992000100206004+43300-002050FM-12+025999999V0203001N008210120019N0100001N1+01421+01081101851ADDAA112007191AY181061AY281061GF108991081081008001999999GJ100249IA1119IA2999+00609KA1120N+01251MA1999999098791MD1310131+9999MW1251OA149902321REMSYN118AAXX  02064 08027 11560 83016 10142 20108 39879 40185 53013 60072 72588 888// 333 20125 32006 50390 55004 91145 91531;
0161080270999992000100209004+43300-002050FM-12+025999999V0203001N008210120019N0150001N1+01461+01201102051ADDAY181031AY281031GF107991071081008001001001MA1999999098991MD1210201+9999MW1021REMSYN072AAXX  02094 08027 41565 73016 10146 20120 39899 40205 52020 70288 87800;
0178080270999992000100212004+43300-002050FM-12+025999999V0203101N010810120019N0150001N1+01541+01011102171ADDAA106001091AY181061AY281061GF107991071081008001001001MA1999999099111MD1110121+9999MW1021REMSYN078AAXX  02124 08027 11565 73121 10154 20101 39911 40217 51012 69991 70288 87800;
0173080270999992000100218004+43300-002050FM-12+025999999V0203201N008210120019N0100001N1+01541+01091102361ADDAA112001091GF108991081081008001999999KA1999M+01621MA1999999099301MD1310081+9999REMSYN082AAXX  02184 08027 12560 83216 10154 20109 39930 40236 53008 69992 888// 333 10162;
0133080270999992000100221004+43300-002050FM-12+025999999V0203201N004610075019N0100001N1+01521+00991102461ADDGF107991071051008001999999MA1999999099391MD1210091+9999REMSYN066AAXX  02214 08027 42560 73209 10152 20099 39939 40246 52009 875//;
0163080270999992000100300004+43300-002050FM-12+025999999V0202501N002610075019N0100001N1+01401+01101102461ADDAA199000091GF108991081051008001999999MA1999999099381MD1810011+9999REMSYN066AAXX  03004 08027 32560 82505 10140 20110 39938 40246 58001 885//;EQDQ01  00002PRCP99
0133080270999992000100303004+43300-002050FM-12+025999999V0201701N001010075019N0100001N1+01301+01111102361ADDGF108991081051008001999999MA1999999099271MD1710111+9999REMSYN066AAXX  03034 08027 42560 81702 10130 20111 39927 40236 57011 885//;
0222080270999992000100306004+43300-002050FM-12+025999999V0201701N002612200019N0230001N1+01161+01001102331ADDAA199000091GF102991021001017501041999IA1099IA2999+00309KA1120N+01161MA1999999099231MD1810041+9999REMSYN094AAXX  03064 08027 32773 21705 10116 20100 39923 40233 58004 8204/ 333 20116 31003 50120 55014;EQDQ01  00002PRCP99
0163080270999992000100312004+43300-002050FM-12+025999999V0209999V002112200019N0150001N1+01661+01311102191ADDAA199000091GF102991011011012501001051MA1999999099151MD1810071+9999REMSYN066AAXX  03124 08027 32665 29904 10166 20131 39915 40219 58007 81105;EQDQ01  00002PRCP99
0186080270999992000100318004+43300-002050FM-12+025999999V0209999V001012200019N0150001N1+01621+01371102061ADDAA199000091GF103991021001017501041011KA1999M+01861MA1999999099021MD1510011+9999REMSYN076AAXX  03184 08027 32765 39902 10162 20137 39902 40206 55001 82041 333 10186;EQDQ01  00002PRCP99
0133080270999992000100321004+43300-002050FM-12+025999999V0203001N000512200019N0100001N1+01501+01361102201ADDGF101991011001017501041001MA1999999099141MD1310121+9999REMSYN066AAXX  03214 08027 42760 13001 10150 20136 39914 40220 53012 81040;
0173080270999992000100400004+43300-002050FM-12+025999999V0202901N003112200019N0100001N1+01421+01081102171ADDAA199000091GA1001+999999999GF100991001001999999001001MA1999999099101MD1810041+9999REMSYN060AAXX  04004 08027 32960 02906 10142 20108 39910 40217 58004;EQDQ01  00002PRCP99
0143080270999992000100403004+43300-002050FM-12+025999999V0202901N003112200019N0100001N1+01421+01081102171ADDGA1001+999999999GF100991001001999999001001MA1999999099101MD1810041+9999REMSYN060AAXX  04034 08027 42960 02906 10142 20108 39910 40217 58004;
0250080270999992000100406004+43300-002050FM-12+025999999V0201601N003112200019N0040001N1+01201+01051102121ADDAA199000091AY101061AY201061GF101991001001999999001011IA1099IA2999+00409KA1120N+01181MA1999999099031MD1710041+9999MW1101REMSYN100AAXX  04064 08027 31940 11606 10120 20105 39903 40212 57004 71000 80001 333 20118 31004 50210 55096;EQDQ01  00002PRCP99
0133080270999992000100409004+43300-002050FM-12+025999999V0201601N002112200019N0100001N1+01501+01131102091ADDGF103991001001999999001021MA1999999099031MD1410001+9999REMSYN066AAXX  04094 08027 42960 31604 10150 20113 39903 40209 54000 80002;
0191080270999992000100412004+43300-002050FM-12+025999999V0200101N003112200019N0050001N1+01681+01291101991ADDAA199000091AY101061AY201061GF103991001001999999001021MA1999999098951MD1810081+9999MW1051REMSYN072AAXX  04124 08027 31950 30106 10168 20129 39895 40199 58008 70500 80002;EQDQ01  00002PRCP99
0186080270999992000100418004+43300-002050FM-12+025999999V0203201N002112200019N0250001N1+01541+01291101911ADDAA199000091GF104991021051008001041011KA1999M+01841MA1999999098861MD1510001+9999REMSYN076AAXX  04184 08027 32575 43204 10154 20129 39886 40191 55000 82541 333 10184;EQDQ01  00002PRCP99
0247080270999992000100506004+43300-002050FM-12+025999999V0200201N004110003019N0002001N1+01501+01501102041ADDAA112004191AY141061AY221061GA1091+999999999GF109991091999999999999999IA1119IA2999+00709KA1120N+01441MA1999999098991MD1410001+9999MW1251REMSYN100AAXX  05064 08027 11/02 90208 10150 20150 39899 40204 54000 60042 72542 333 20144 32007 50050 55082;
0161080270999992000100509004+43300-002050FM-12+025999999V0200401N003110075019N0020001N1+01461+01421102261ADDAY161031AY201031GF108991081071008001999999MA1999999099191MD1310201+9999MW1601REMSYN072AAXX  05094 08027 41520 80406 10146 20142 39919 40226 53020 76060 887//;
0178080270999992000100512004+43300-002050FM-12+025999999V0200301N001010120019N0300001N1+01481+01341102381ADDAA106003091AY161061AY221061GF108991081081008001999999MA1999999099311MD1110121+9999MW1021REMSYN078AAXX  05124 08027 11580 80302 10148 20134 39931 40238 51012 60031 70262 888//;
0173080270999992000100518004+43300-002050FM-12+025999999V0203401N003610120019N0250001N1+01481+00981102381ADDAA112003091GF107991061081008001071001KA1999M+01651MA1999999099311MD1310041+9999REMSYN082AAXX  05184 08027 12575 73407 10148 20098 39931 40238 53004 60032 86870 333 10165;
0237080270999992000100606004+43300-002050FM-12+025999999V0201001N002110075019N0200001N1+01241+01091102561ADDAA112002091AY161061AY221061GF107991061051008001071001IA1099IA2999+00709KA1120N+01231MA1999999099461MD1410001+9999MW1021REMSYN106AAXX  06064 08027 11570 71004 10124 20109 39946 40256 54000 60022 70262 86570 333 20123 31007 50050 55003;
0133080270999992000100609004+43300-002050FM-12+025999999V0200301N003110360019N0200001N1+01381+01081102681ADDGF106991041051008001071001MA1999999099591MD1210131+9999REMSYN066AAXX  06094 08027 42570 60306 10138 20108 39959 40268 52013 84570;
0186080270999992000100618004+43300-002050FM-12+025999999V0203601N004612200019N0350001N1+01301+00681102731ADDAA199000091GF105991041021008001001011KA1999M+01571MA1999999099631MD1310041+9999REMSYN076AAXX  06184 08027 32581 53609 10130 20068 39963 40273 53004 84201 333 10157;EQDQ01  00002PRCP99
0222080270999992000100706004+43300-002050FM-12+025999999V0201601N002612200019N0300001N1+00881+00571102701ADDAA199000091GF101991001001999999001011IA1099IA2999+00009KA1120N+00881MA1999999099551MD1810031+9999REMSYN094AAXX  07064 08027 32980 11605 10088 20057 39955 40270 58003 80001 333 20088 31000 50310 55073;EQDQ01  00002PRCP99
0133080270999992000100709004+43300-002050FM-12+025999999V0201701N001519999999N0220001N1+01141+00681102751ADDGF105991001001999999001041MA1999999099631MD1310081+9999REMSYN066AAXX  07094 08027 42972 51703 10114 20068 39963 40275 53008 80004;
0163080270999992000100712004+43300-002050FM-12+025999999V0203501N003112200019N0300001N1+01381+00641102681ADDAA199000091GF104991001001999999001021MA1999999099591MD1810041+9999REMSYN066AAXX  07124 08027 32980 43506 10138 20064 39959 40268 58004 80002;EQDQ01  00002PRCP99
0196080270999992000100718004+43300-002050FM-12+025999999V0200501N002612200019N0300001N1+01281+00711102571ADDAA199000091GA1001+999999999GF100991001001999999001001KA1999M+01551MA1999999099471MD1710031+9999REMSYN070AAXX  07184 08027 32980 00505 10128 20071 39947 40257 57003 333 10155;EQDQ01  00002PRCP99
0222080270999992000100806004+43300-002050FM-12+025999999V0201701N003612200019N0250001N1+00881+00621102291ADDAA199000091GF102991011001999999031011IA1019IA2999+00109KA1120N+00881MA1999999099151MD1710151+9999REMSYN094AAXX  08064 08027 32975 21707 10088 20062 39915 40229 57015 81031 333 20088 30001 50170 55105;EQDQ01  00002PRCP99
0133080270999992000100809004+43300-002050FM-12+025999999V0201401N001512200019N0300001N1+01181+00901102331ADDGF102991001001999999001011MA1999999099231MD1210081+9999REMSYN066AAXX  08094 08027 42980 21403 10118 20090 39923 40233 52008 80001;
0163080270999992000100812004+43300-002050FM-12+025999999V0203201N003119999999N0250001N1+01381+01041102311ADDAA199000091GF105991001001999999001041MA1999999099231MD1410001+9999REMSYN066AAXX  08124 08027 32975 53206 10138 20104 39923 40231 54000 80004;EQDQ01  00002PRCP99
0186080270999992000100818004+43300-002050FM-12+025999999V0202801N002110075019N0250001N1+01401+01181102311ADDAA199000091GF106991061051008001001001KA1999M+01601MA1999999099231MD1310081+9999REMSYN076AAXX  08184 08027 32575 62804 10140 20118 39923 40231 53008 86500 333 10160;EQDQ01  00002PRCP99
0209080270999992000100906004+43300-002050FM-12+025999999V0202101N002110075019N0250001N1+01301+01231101931ADDAA112003091GF108991081051008001999999IA1169IA2999+00109KA1120N+01301MA1999999098861MD1710161+9999REMSYN100AAXX  09064 08027 11575 82104 10130 20123 39886 40193 57016 60032 885// 333 20130 35001 50130 55098;
0133080270999992000100909004+43300-002050FM-12+025999999V0202201N002112200019N0300001N1+01481+01231101831ADDGF104991041051008001001001MA1999999098781MD1810081+9999REMSYN066AAXX  09094 08027 42580 42204 10148 20123 39878 40183 58008 84500;
0163080270999992000100912004+43300-002050FM-12+025999999V0203301N001012200019N0300001N1+01601+01201101611ADDAA199000091GF104991011011008001011001MA1999999098581MD1810201+9999REMSYN066AAXX  09124 08027 32580 43302 10160 20120 39858 40161 58020 81110;EQDQ01  00002PRCP99
0214080270999992000100918004+43300-002050FM-12+025999999V0202201N001010150019N0050001N1+01461+01211101051ADDAA199000091AY111061AY201061GF107991071001017501071999KA1999M+01701MA1999999098021MD1710241+9999MW1101REMSYN082AAXX  09184 08027 31750 72202 10146 20121 39802 40105 57024 71010 8707/ 333 10170;EQDQ01  00002PRCP99
0237080270999992000101006004+43300-002050FM-12+025999999V0203001N007210120019N0050001N1+01181+01101101001ADDAA112014091AY181061AY221061GF108991081081008001999999IA1119IA2999+00409KA1120N+01081MA1999999097941MD1310041+9999MW1801REMSYN106AAXX  10064 08027 11550 83014 10118 20110 39794 40100 53004 60142 78082 888// 333 20108 32004 50450 55065;
0181080270999992000101009004+43300-002050FM-12+025999999V0202601N007210001519N0008001N1+01201+01011101081ADDAY181031AY221031GA1091+000159999GF109991091999999999999999MA1999999098021MD1210081+9999MW1801REMSYN076AAXX  10094 08027 41/08 92614 10120 20101 39802 40108 52008 78082 333 89/00;
0178080270999992000101012004+43300-002050FM-12+025999999V0202701N006212200019N0150001N1+01481+01031100861ADDAA106004191AY181061AY241061GF104991031021008001041001MA1999999097831MD1810191+9999MW1011REMSYN078AAXX  10124 08027 11565 42712 10148 20103 39783 40086 58019 60041 70184 83240;
0201080270999992000101018004+43300-002050FM-12+025999999V0201501N003610150019N0200001N1+01441+01071100241ADDAA112004191AY161061AY261061GF108991081001017501071999KA1999M+01701MA1999999097231MD1710241+9999MW1211REMSYN088AAXX  10184 08027 11770 81507 10144 20107 39723 40024 57024 60042 72166 8807/ 333 10170;
0268080270999992000101106004+43300-002050FM-12+025999999V0202901N013410042019N0070001N1+01241+01091099561ADDAA112023191AY181061AY261061GF108991081071004501999999GJ101989IA1119IA2999+00609KA1120N+01241MA1999999096551MD1110051+9999MW1811OA149902321REMSYN118AAXX  11064 08027 11457 82926 10124 20109 39655 49956 51005 60232 78186 887// 333 20124 32006 50590 55033 91145 91522;
0161080270999992000101109004+43300-002050FM-12+025999999V0202501N008210360019N0040001N1+01101+00981099701ADDAY161031AY261031GF108991041071008001071999MA1999999096671MD1310121+9999MW1611REMSYN072AAXX  11094 08027 41540 82516 10110 20098 39667 49970 53012 76166 8477/;
0178080270999992000101112004+43300-002050FM-12+025999999V0202401N006210360019N0170001N1+01181+00821099681ADDAA106007191AY161061AY261061GF108991021071008001071999MA1999999096661MD1810011+9999MW1601REMSYN078AAXX  11124 08027 11567 82412 10118 20082 39666 49968 58001 60071 76066 8277/;
0201080270999992000101118004+43300-002050FM-12+025999999V0202101N002110075019N0150001N1+01121+00921099651ADDAA112006191AY161061AY221061GF107991051071008001071001KA1999M+01901MA1999999096621MD1410001+9999MW1601REMSYN088AAXX  11184 08027 11565 72104 10112 20092 39662 49965 54000 60062 76062 85770 333 10190;
0209080270999992000101206004+43300-002050FM-12+025999999V0202101N001510360019N0250001N1+01101+00551099701ADDAA112000891GF105991031081008001031011IA1099IA2999+00309KA1120N+01001MA1999999096671MD1310081+9999REMSYN100AAXX  12064 08027 12575 52103 10110 20055 39667 49970 53008 69972 83831 333 20100 31003 50090 55010;
0133080270999992000101209004+43300-002050FM-12+025999999V0202101N005112200019N0300001N1+01241+00521099841ADDGF102991011011008001001011MA1999999096821MD1210151+9999REMSYN066AAXX  12094 08027 42580 22110 10124 20052 39682 49984 52015 81101;
0163080270999992000101212004+43300-002050FM-12+025999999V0202601N003610360019N0250001N1+01481+00581099951ADDAA199000091GF107991041081008001071001MA1999999096951MD1210131+9999REMSYN066AAXX  12124 08027 32575 72607 10148 20058 39695 49995 52013 84870;EQDQ01  00002PRCP99
0186080270999992000101218004+43300-002050FM-12+025999999V0202701N005110360019N0250001N1+01221+00731100351ADDAA199000091GF107991031081008001071001KA1999M+01641MA1999999097311MD1210251+9999REMSYN076AAXX  12184 08027 32575 72710 10122 20073 39731 40035 52025 83870 333 10164;EQDQ01  00002PRCP99
0237080270999992000101306004+43300-002050FM-12+025999999V0202501N005110075019N0300001N1+00921+00711101041ADDAA112015091AY181061AY221061GF108991081071008001999999IA1119IA2999+00309KA1120N+00901MA1999999097951MD1210091+9999MW1021REMSYN106AAXX  13064 08027 11580 82510 10092 20071 39795 40104 52009 60152 70282 887// 333 20090 32003 50500 55050;
0161080270999992000101309004+43300-002050FM-12+025999999V0209999V002110075019N0150001N1+00941+00861101321ADDAY181031AY221031GF108991081071008001999999MA1999999098221MD1210271+9999MW1251REMSYN072AAXX  13094 08027 41565 89904 10094 20086 39822 40132 52027 72582 887//;
0178080270999992000101312004+43300-002050FM-12+025999999V0202601N005110075019N0250001N1+01281+01131101291ADDAA106008991AY191061AY281061GF108991081071008001999999MA1999999098231MD1010011+9999MW1251REMSYN078AAXX  13124 08027 11575 82610 10128 20113 39823 40129 50001 60091 72598 887//;
0237080270999992000101406004+43300-002050FM-12+025999999V0203501N010810120019N0250001N1+01301+00871101571ADDAA112006191AY181061AY221061GF107991051081008001071001IA1099IA2999+00509KA1120N+01101MA1999999098501MD1310041+9999MW1021REMSYN106AAXX  14064 08027 11575 73521 10130 20087 39850 40157 53004 60062 70282 85870 333 20110 31005 50400 55030;
0161080270999992000101409004+43300-002050FM-12+025999999V0203301N011310120019N0250001N1+01281+01011101621ADDAY181031AY221031GF107991061081008001071001MA1999999098551MD1310051+9999MW1021REMSYN072AAXX  14094 08027 41575 73322 10128 20101 39855 40162 53005 70282 86870;
0178080270999992000101412004+43300-002050FM-12+025999999V0203101N009310042019N0060001N1+01161+01081101661ADDAA106004191AY181061AY221061GF108991061071004501071001MA1999999098581MD1210031+9999MW1801REMSYN078AAXX  14124 08027 11456 83118 10116 20108 39858 40166 52003 60041 78082 86770;
0201080270999992000101418004+43300-002050FM-12+025999999V0203201N005110360019N0150001N1+01161+00841101591ADDAA112006191AY181061AY261061GF108991041071008001071999KA1999M+01361MA1999999098511MD1510001+9999MW1601REMSYN088AAXX  14184 08027 11565 83210 10116 20084 39851 40159 55000 60062 76086 8477/ 333 10136;
0209080270999992000101506004+43300-002050FM-12+025999999V0203301N006210120019N0300001N1+01261+00821101081ADDAA112007991GF108991061081008001071999IA1119IA2999+00309KA1120N+01021MA1999999098021MD1710211+9999REMSYN100AAXX  15064 08027 12580 83312 10126 20082 39802 40108 57021 60082 8687/ 333 20102 32003 50130 55000;
0161080270999992000101509004+43300-002050FM-12+025999999V0203201N006710075019N0080001N1+01241+00931101051ADDAY181031AY281031GF108991071051008001071999MA1999999097991MD1510031+9999MW1251REMSYN072AAXX  15094 08027 41558 83213 10124 20093 39799 40105 55003 72588 8757/;
0178080270999992000101512004+43300-002050FM-12+025999999V0203401N007210075019N0150001N1+01321+00931101031ADDAA106000191AY181061AY281061GF108991071051008001071999MA1999999097981MD1610011+9999MW1021REMSYN078AAXX  15124 08027 11565 83414 10132 20093 39798 40103 56001 69921 70288 8757/;
0201080270999992000101518004+43300-002050FM-12+025999999V0200201N006210075019N0200001N1+01201+01131100931ADDAA112003091AY181061AY221061GF108991061051008001071001KA1999M+01351MA1999999097871MD1410001+9999MW1601REMSYN088AAXX  15184 08027 11570 80212 10120 20113 39787 40093 54000 60032 76082 86570 333 10135;
0231080270999992000101606004+43300-002050FM-12+025999999V0202601N008210075019N0150001N1+01181+01101101131ADDAA112064091AY161061AY221061GF108991081051008001001001IA1119IA2999+00509KA1120N+01041MA1999999098071MD1210121+9999MW1611REMSYN100AAXX  16064 08027 11565 82616 10118 20110 39807 40113 52012 60642 76162 88500 333 20104 32005 55000;
0161080270999992000101609004+43300-002050FM-12+025999999V0202601N010310075019N0150001N1+01201+00971101491ADDAY161031AY221031GF108991061051008001071001MA1999999098421MD1210351+9999MW1021REMSYN072AAXX  16094 08027 41565 82620 10120 20097 39842 40149 52035 70262 86570;
0173080270999992000101618004+43300-002050FM-12+025999999V0202701N003110120019N0200001N1+01301+00991102111ADDAA112003091GF106991051081008001071001KA1999M+01541MA1999999099031MD1210201+9999REMSYN082AAXX  16184 08027 12570 62706 10130 20099 39903 40211 52020 60032 85870 333 10154;
0222080270999992000101706004+43300-002050FM-12+025999999V0202101N002110075019N0300001N1+01361+00801102481ADDAA199000091GF108991081051008001999999IA1149IA2999+00109KA1120N+01101MA1999999099391MD1310071+9999REMSYN094AAXX  17064 08027 32580 82104 10136 20080 39939 40248 53007 885// 333 20110 34001 50460 55029;EQDQ01  00002PRCP99
0133080270999992000101709004+43300-002050FM-12+025999999V0201501N002110075019N0300001N1+01401+01021102641ADDGF105991051051008001001001MA1999999099551MD1210161+9999REMSYN066AAXX  17094 08027 42580 51504 10140 20102 39955 40264 52016 85500;
0163080270999992000101712004+43300-002050FM-12+025999999V0203301N001012200019N0300001N1+01641+01171102651ADDAA199000091GF103991031051008001001001MA1999999099591MD1110041+9999REMSYN066AAXX  17124 08027 32580 33302 10164 20117 39959 40265 51004 83500;EQDQ01  00002PRCP99
0218080270999992000101718004+43300-002050FM-12+025999999V0200901N002112200019N0350001N1+01541+01171102571ADDAA199000091GF101991999001999999001001KA1999M+01841MA1999999099501MD1410001+9999REMSYN076AAXX  17184 08027 32981 10904 10154 20117 39950 40257 54000 84000 333 10184;EQDQ01+000042SCOTLCQ02+000002SCOTLCQ03  00002PRCP99
0222080270999992000101806004+43300-002050FM-12+025999999V0201501N003112200019N0400001N1+01301+00821102401ADDAA199000091GF101991001001999999001011IA1099IA2999+00509KA1120N+01261MA1999999099311MD1710091+9999REMSYN094AAXX  18064 08027 32982 11506 10130 20082 39931 40240 57009 80001 333 20126 31005 50220 55073;EQDQ01  00002PRCP99
0133080270999992000101809004+43300-002050FM-12+025999999V0201701N004112200019N0400001N1+01661+00941102321ADDGF102991001001999999001081MA1999999099271MD1610041+9999REMSYN066AAXX  18094 08027 42982 21708 10166 20094 39927 40232 56004 80008;
0163080270999992000101812004+43300-002050FM-12+025999999V0201801N006212200019N0350001N1+02101+01091102191ADDAA199000091GF103991021001012501041081MA1999999099191MD1710081+9999REMSYN066AAXX  18124 08027 32681 31812 10210 20109 39919 40219 57008 82048;EQDQ01  00002PRCP99
0186080270999992000101818004+43300-002050FM-12+025999999V0201601N002110150019N0100001N1+01821+01251102001ADDAA199000091GF107991071001017501071999KA1999M+02281MA1999999098981MD1710051+9999REMSYN076AAXX  18184 08027 32760 71604 10182 20125 39898 40200 57005 8707/ 333 10228;EQDQ01  00002PRCP99
0222080270999992000101906004+43300-002050FM-12+025999999V0201501N003110150019N0100001N1+01381+01271102061ADDAA199000091GF107991071001017501071999IA1099IA2999+00509KA1120N+01381MA1999999098991MD1310011+9999REMSYN094AAXX  19064 08027 32760 71506 10138 20127 39899 40206 53001 8707/ 333 20138 31005 50220 55081;EQDQ01  00002PRCP99
0161080270999992000101909004+43300-002050FM-12+025999999V0209999C000010150019N0100001N1+01641+01361102031ADDAY121031AY221031GF107991071001017501071999MA1999999098991MD1510001+9999MW1201REMSYN072AAXX  19094 08027 41760 70000 10164 20136 39899 40203 55000 72022 8707/;
0198080270999992000101912004+43300-002050FM-12+025999999V0203201N004110001519N0000001N1+01641+01571101951ADDAA106000791AY151061AY241061GA1091+000159999GF109991091999999999999999MA1999999098911MD1810081+9999MW1471REMSYN082AAXX  19124 08027 11/00 93208 10164 20157 39891 40195 58008 69901 74754 333 89/00;
0211080270999992000101918004+43300-002050FM-12+025999999V0200101N001010001519N0000001N1+01541+01511101831ADDAA112000791AY151061AY241061GA1091+999999999GF109991091999999999999999KA1999M+01851MA1999999098791MD1410001+9999MW1451REMSYN082AAXX  19184 08027 11/00 90102 10154 20151 39879 40183 54000 69902 74554 333 10185;
0222080270999992000102006004+43300-002050FM-12+025999999V0201501N011310900019N0200001N1+01861+00831101051ADDAA199000091GF105991021051008001031011IA1019IA2999+00909KA1120N+01521MA1999999098061MD1710211+9999REMSYN094AAXX  20064 08027 32570 51522 10186 20083 39806 40105 57021 82531 333 20152 30009 50414 55029;EQDQ01  00002PRCP99
0133080270999992000102009004+43300-002050FM-12+025999999V0201601N019010360019N0150001N1+01881+00811100941ADDGF107991011051008001071011MA1999999097951MD1610111+9999REMSYN066AAXX  20094 08027 42565 71637 10188 20081 39795 40094 56011 81571;
0163080270999992000102012004+43300-002050FM-12+025999999V0201501N011319999999N0150001N1+02001+00921100841ADDAA199000091GF107991031001999999071071MA1999999097871MD1810081+9999REMSYN066AAXX  20124 08027 32965 71522 10200 20092 39787 40084 58008 83077;EQDQ01  00002PRCP99
0186080270999992000102018004+43300-002050FM-12+025999999V0201601N009810360019N0200001N1+01901+00881100771ADDAA199000091GF108991011051012501071999KA1999M+02161MA1999999097791MD1210041+9999REMSYN076AAXX  20184 08027 32670 81619 10190 20088 39779 40077 52004 8157/ 333 10216;EQDQ01  00002PRCP99
0237080270999992000102106004+43300-002050FM-12+025999999V0202601N006210075019N0120001N1+01061+00981101521ADDAA112014091AY161061AY261061GF108991061051008001071999IA1119IA2999+00509KA1120N+01061MA1999999098431MD1110161+9999MW1611REMSYN106AAXX  21064 08027 11562 82612 10106 20098 39843 40152 51016 60142 76166 8657/ 333 20106 32005 50700 55000;
0161080270999992000102109004+43300-002050FM-12+025999999V0202701N004110042019N0060001N1+01081+01041101751ADDAY161031AY261031GF108991061071004501071999MA1999999098661MD1210231+9999MW1611REMSYN072AAXX  21094 08027 41456 82708 10108 20104 39866 40175 52023 76166 8677/;
0178080270999992000102112004+43300-002050FM-12+025999999V0202601N004610360019N0060001N1+01101+01021101921ADDAA106013091AY161061AY261061GF108991041071004501071999MA1999999098821MD1110161+9999MW1611REMSYN078AAXX  21124 08027 11456 82609 10110 20102 39882 40192 51016 60131 76166 8477/;
0201080270999992000102118004+43300-002050FM-12+025999999V0203201N003110042019N0040001N1+01181+01141102171ADDAA112030091AY161061AY261061GF108991071071004501071999KA1999M+01201MA1999999099071MD1210161+9999MW1611REMSYN088AAXX  21184 08027 11440 83206 10118 20114 39907 40217 52016 60302 76166 8777/ 333 10120;
0237080270999992000102206004+43300-002050FM-12+025999999V0209999V001010075019N0200001N1+01161+01121102371ADDAA112004191AY161061AY261061GF107991051051008001071001IA1119IA2999+00609KA1120N+01141MA1999999099271MD1510001+9999MW1021REMSYN106AAXX  22064 08027 11570 79902 10116 20112 39927 40237 55000 60042 70266 85570 333 20114 32006 50130 55000;
0161080270999992000102209004+43300-002050FM-12+025999999V0201601N001510360019N0030001N1+01241+01221102441ADDAY141031AY241031GF106991031061002501031021MA1999999099341MD1110071+9999MW1281REMSYN072AAXX  22094 08027 41330 61603 10124 20122 39934 40244 51007 72844 83632;
0191080270999992000102212004+43300-002050FM-12+025999999V0201501N006210900019N0250001N1+01801+01381102181ADDAA199000091AY141061AY241061GF105991011021012501041081MA1999999099151MD1810191+9999MW1021REMSYN072AAXX  22124 08027 31675 51512 10180 20138 39915 40218 58019 70244 81248;EQDQ01  00002PRCP99
0186080270999992000102218004+43300-002050FM-12+025999999V0201501N004110150019N0250001N1+01841+01031102011ADDAA199000091GF107991061001017501071011KA1999M+02081MA1999999098991MD1610041+9999REMSYN076AAXX  22184 08027 32775 71508 10184 20103 39899 40201 56004 86071 333 10208;EQDQ01  00002PRCP99
0261080270999992000102306004+43300-002050FM-12+025999999V0203201N003110001519N0000001N1+01521+01521102081ADDAA112000791AY161061AY241061GA1091+000159999GF109991091999999999999999GJ102589IA1119IA2999+00509KA1120N+01521MA1999999099031MD1410001+9999MW1471REMSYN106AAXX  23064 08027 11/00 93206 10152 20152 39903 40208 54000 69902 74764 333 20152 32005 50210 55043 89/00;
0181080270999992000102309004+43300-002050FM-12+025999999V0202901N004110001519N0000001N1+01541+01541102201ADDAY161031AY241031GA1091+000159999GF109991091999999999999999MA1999999099151MD1310121+9999MW1611REMSYN076AAXX  23094 08027 41/00 92908 10154 20154 39915 40220 53012 76164 333 89/00;
0198080270999992000102312004+43300-002050FM-12+025999999V0202901N002110001519N0004001N1+01541+01541102201ADDAA106002091AY161061AY241061GA1091+000159999GF109991091999999999999999MA1999999099151MD1410001+9999MW1611REMSYN082AAXX  23124 08027 11/04 92904 10154 20154 39915 40220 54000 60021 76164 333 89/00;
0223080270999992000102318004+43300-002050FM-12+025999999V0203201N003110001519N0002001N1+01461+01461102381ADDAA112005191AY161061AY241061GA1091+000159999GF109991091999999999999999KA1120M+01561MA1999999099311MD1210121+9999MW1511REMSYN094AAXX  23184 08027 11/02 93206 10146 20146 39931 40238 52012 60052 75164 333 10156 89/00 96045;
0261080270999992000102406004+43300-002050FM-12+025999999V0200201N003110001519N0008001N1+01401+01401102391ADDAA112002091AY151061AY241061GA1091+000159999GF109991091999999999999999GJ100009IA1119IA2999+00909KA1120N+01401MA1999999099311MD1810041+9999MW1451REMSYN106AAXX  24064 08027 11/08 90206 10140 20140 39931 40239 58004 60022 74554 333 20140 32009 50100 55000 89/00;
0171080270999992000102409004+43300-002050FM-12+025999999V0209999C000010006019N0008001N1+01521+01521102411ADDAY151031AY241031GA1091+999999999GF109991091999999999999999MA1999999099351MD1310041+9999MW1431REMSYN066AAXX  24094 08027 41/08 90000 10152 20152 39935 40241 53004 74354;
0201080270999992000102412004+43300-002050FM-12+025999999V0203201N001010001519N0001001N1+01561+01561102331ADDAA199000091AY141061AY241061GA1091+999999999GF109991091999999999999999MA1999999099271MD1810081+9999MW1451REMSYN066AAXX  24124 08027 31/01 93202 10156 20156 39927 40233 58008 74544;EQDQ01  00002PRCP99
0224080270999992000102418004+43300-002050FM-12+025999999V0201401N003110003019N0002001N1+01541+01541102081ADDAA199000091AY141061AY221061GA1091+999999999GF109991091999999999999999KA1999M+01641MA1999999099031MD1610121+9999MW1451REMSYN076AAXX  24184 08027 31/02 91406 10154 20154 39903 40208 56012 74542 333 10164;EQDQ01  00002PRCP99
0232080270999992000102506004+43300-002050FM-12+025999999V0201701N010812200019N0400001N1+01641+00871101751ADDAA199000091GA1001+999999999GF100991001001999999001001IA1019IA2999+00709KA1120N+01421MA1999999098711MD1410001+9999REMSYN088AAXX  25064 08027 32982 01721 10164 20087 39871 40175 54000 333 20142 30007 50030 55003;EQDQ01  00002PRCP99
0143080270999992000102509004+43300-002050FM-12+025999999V0201601N008212200019N0400001N1+01761+00841101821ADDGA1001+999999999GF100991001001999999001001MA1999999098791MD1110081+9999REMSYN060AAXX  25094 08027 42982 01616 10176 20084 39879 40182 51008;
0191080270999992000102512004+43300-002050FM-12+025999999V0203201N005110021019N0030001N1+01601+01531101941ADDAA199000091AY121061AY221061GF108991081061002501999999MA1999999098901MD1110221+9999MW1101REMSYN072AAXX  25124 08027 31330 83210 10160 20153 39890 40194 51022 71022 886//;EQDQ01  00002PRCP99
0214080270999992000102518004+43300-002050FM-12+025999999V0203201N001010021019N0050001N1+01501+01431101831ADDAA199000091AY121061AY221061GF108991081061002501999999KA1999M+01861MA1999999098781MD1410001+9999MW1101REMSYN082AAXX  25184 08027 31350 83202 10150 20143 39878 40183 54000 71022 886// 333 10186;EQDQ01  00002PRCP99
0241080270999992000102606004+43300-002050FM-12+025999999V0203101N003110001519N0001001N1+01441+01441101951ADDAA112000891AY121061AY221061GA1091+999999999GF109991091999999999999999IA1099IA2999+00809KA1120N+01441MA1999999098901MD1210051+9999MW1601REMSYN094AAXX  26064 08027 11/01 93106 10144 20144 39890 40195 52005 69972 76022 333 20144 31008 55049;
0171080270999992000102609004+43300-002050FM-12+025999999V0203001N003110003019N0002001N1+01461+01461102161ADDAY161031AY241031GA1091+999999999GF109991091999999999999999MA1999999099101MD1210201+9999MW1451REMSYN066AAXX  26094 08027 41/02 93006 10146 20146 39910 40216 52020 74564;
0178080270999992000102612004+43300-002050FM-12+025999999V0202801N003110120019N0120001N1+01541+01441102201ADDAA106000021AY161061AY221061GF108991081081008001999999MA1999999099141MD1010041+9999MW1021REMSYN078AAXX  26124 08027 11562 82806 10154 20144 39914 40220 50004 60001 70262 888//;
0217080270999992000102618004+43300-002050FM-12+025999999V0200201N002110001519N0003001N1+01381+01381102221ADDAA112002091AY151061AY241061GA1091+000159999GF109991091999999999999999KA1120M+01561MA1999999099151MD1310011+9999MW1511REMSYN088AAXX  26184 08027 11/03 90204 10138 20138 39915 40222 53001 60022 75154 333 10156 89/00;
0237080270999992000102706004+43300-002050FM-12+025999999V0201601N001010042019N0040001N1+01321+01251102231ADDAA112000891AY121061AY221061GF108991081061004501999999IA1099IA2999+00709KA1120N+01281MA1999999099151MD1610031+9999MW1101REMSYN106AAXX  27064 08027 11440 81602 10132 20125 39915 40223 56003 69972 71022 886// 333 20128 31007 50230 55000;
0161080270999992000102709004+43300-002050FM-12+025999999V0201601N003110042019N0040001N1+01441+01261102291ADDAY121031AY221031GF107991071051004501999999MA1999999099221MD1310071+9999MW1101REMSYN072AAXX  27094 08027 41440 71606 10144 20126 39922 40229 53007 71022 875//;
0191080270999992000102712004+43300-002050FM-12+025999999V0203201N002110075019N0040001N1+01661+01311102271ADDAA199000091AY121061AY221061GF107991071051008001999999MA1999999099221MD1410001+9999MW1101REMSYN072AAXX  27124 08027 31540 73204 10166 20131 39922 40227 54000 71022 875//;EQDQ01  00002PRCP99
0186080270999992000102718004+43300-002050FM-12+025999999V0209999C000012200019N0150001N1+01621+01221102231ADDAA199000091GF103991011051008001031011KA1999M+01801MA1999999099181MD1310031+9999REMSYN076AAXX  27184 08027 32565 30000 10162 20122 39918 40223 53003 81531 333 10180;EQDQ01  00002PRCP99
0232080270999992000102806004+43300-002050FM-12+025999999V0201601N007212200019N0200001N1+01581+01101101701ADDAA199000091GA1001+999999999GF100991001001999999001001IA1019IA2999+00509KA1120N+01261MA1999999098661MD1710211+9999REMSYN088AAXX  28064 08027 32970 01614 10158 20110 39866 40170 57021 333 20126 30005 50030 55005;EQDQ01  00002PRCP99
0143080270999992000102809004+43300-002050FM-12+025999999V0201701N008712200019N0200001N1+01701+00941101581ADDGA1001+999999999GF100991001001999999001001MA1999999098551MD1710111+9999REMSYN060AAXX  28094 08027 42970 01717 10170 20094 39855 40158 57011;
0163080270999992000102812004+43300-002050FM-12+025999999V0201901N008712200019N0200001N1+02141+01101101391ADDAA199000091GF104991011011008001001011MA1999999098421MD1710131+9999REMSYN066AAXX  28124 08027 32570 41917 10214 20110 39842 40139 57013 81101;EQDQ01  00002PRCP99
0186080270999992000102818004+43300-002050FM-12+025999999V0203001N005112200019N0100001N1+01561+01461101821ADDAA199000091GF104991011061002501001011KA1999M+02231MA1999999098781MD1210351+9999REMSYN076AAXX  28184 08027 32360 43010 10156 20146 39878 40182 52035 81601 333 10223;EQDQ01  00002PRCP99
0237080270999992000102906004+43300-002050FM-12+025999999V0202301N002110075019N0150001N1+01121+00961102301ADDAA112004191AY181061AY281061GF108991051051008001071999IA1119IA2999+00509KA1120N+01121MA1999999099191MD1310041+9999MW1021REMSYN106AAXX  29064 08027 11565 82304 10112 20096 39919 40230 53004 60042 70288 8557/ 333 20112 32005 50270 55083;
0133080270999992000102909004+43300-002050FM-12+025999999V0202401N004110120019N0150001N1+01161+00921102461ADDGF107991051051012501071001MA1999999099351MD1210161+9999REMSYN066AAXX  29094 08027 42665 72408 10116 20092 39935 40246 52016 85570;
0163080270999992000102912004+43300-002050FM-12+025999999V0203101N002610900019N0180001N1+01401+00851102391ADDAA199000091GF106991021021012501001021MA1999999099311MD1810041+9999REMSYN066AAXX  29124 08027 32668 63105 10140 20085 39931 40239 58004 82202;EQDQ01  00002PRCP99
0186080270999992000102918004+43300-002050FM-12+025999999V0209999C000012200019N0250001N1+01161+00751102201ADDAA199000091GF103991001001999999001011KA1999M+01471MA1999999099101MD1610091+9999REMSYN076AAXX  29184 08027 32975 30000 10116 20075 39910 40220 56009 80001 333 10147;EQDQ01  00002PRCP99
0222080270999992000103006004+43300-002050FM-12+025999999V0201701N010312200019N0250001N1+01321+00351101171ADDAA199000091GF104991011051012501001021IA1099IA2999+00109KA1120N+00961MA1999999098111MD1810401+9999REMSYN094AAXX  30064 08027 32675 41720 10132 20035 39811 40117 58040 81502 333 20096 31001 50130 55056;EQDQ01  00002PRCP99
0160080270999992000103009004+43300-002050FM-12+025999999V0201701N014910900019N0250001N1+01421+00491100861ADDGF105991021001017501041021MA1999999097821MD1710291+9999OA149902471REMSYN082AAXX  30094 08027 42775 51729 10142 20049 39782 40086 57029 82042 333 91148 91518;
0190080270999992000103012004+43300-002050FM-12+025999999V0201801N017510900019N0300001N1+01641+00641100501ADDAA199000091GF107991041001017501071021MA1999999097501MD1710321+9999OA149902731REMSYN082AAXX  30124 08027 32780 71834 10164 20064 39750 40050 57032 84072 333 91153 91518;EQDQ01  00002PRCP99
0201080270999992000103018004+43300-002050FM-12+025999999V0202201N008210360019N0100001N1+01561+01001100311ADDAA112000791AY121061AY221061GF108991011051008001071999KA1999M+01701MA1999999097311MD1710071+9999MW1601REMSYN088AAXX  30184 08027 11560 82216 10156 20100 39731 40031 57007 69902 76022 8157/ 333 10170;
0237080270999992000103106004+43300-002050FM-12+025999999V0202501N008210360019N0200001N1+01041+00421100831ADDAA112020191AY161061AY221061GF107991031081008001071999IA1099IA2999+00209KA1120N+00821MA1999999097751MD1310041+9999MW1021REMSYN106AAXX  31064 08027 11570 72516 10104 20042 39775 40083 53004 60202 70262 8387/ 333 20082 31002 50630 55025;
0161080270999992000103109004+43300-002050FM-12+025999999V0202701N010810120019N0100001N1+01121+00611101051ADDAY181031AY221031GF107991071081008001999999MA1999999097981MD1310231+9999MW1251REMSYN072AAXX  31094 08027 41560 72721 10112 20061 39798 40105 53023 72582 878//;
0178080270999992000103112004+43300-002050FM-12+025999999V0202301N005110120019N0030001N1+01001+00881101281ADDAA106004191AY161061AY221061GF108991081081008001999999MA1999999098191MD1310211+9999MW1611REMSYN078AAXX  31124 08027 11530 82310 10100 20088 39819 40128 53021 60041 76162 888//;
0201080270999992000103118004+43300-002050FM-12+025999999V0202601N006710360019N0150001N1+01061+00771101471ADDAA112007991AY181061AY221061GF105991031081008001071001KA1999M+01161MA1999999098381MD1210151+9999MW1011REMSYN088AAXX  31184 08027 11565 52613 10106 20077 39838 40147 52015 60082 70182 83870 333 10116;
0222080270999992000110106004+43300-002050FM-12+025999999V0201701N004612200019N0200001N1+00921+00431101381ADDAA199000091GF102991011051008001031001IA1099IA2999+00209KA1120N+00861MA1999999098271MD1710121+9999REMSYN094AAXX  01064 08027 32570 21709 10092 20043 39827 40138 57012 81530 333 20086 31002 50210 55017;EQDQ01  00002PRCP99
0133080270999992000110109004+43300-002050FM-12+025999999V0201801N004612200019N0250001N1+01061+00441101431ADDGF101991011051008001001001MA1999999098341MD1210071+9999REMSYN066AAXX  01094 08027 42575 11809 10106 20044 39834 40143 52007 81500;
0186080270999992000110118004+43300-002050FM-12+025999999V0201901N008219999999N0400001N1+01321+00521101081ADDAA199000091GF108991081001012501011999KA1999M+01501MA1999999098031MD1610121+9999REMSYN076AAXX  01184 08027 32682 81916 10132 20052 39803 40108 56012 8801/ 333 10150;EQDQ01  00002PRCP99
0268080270999992000110206004+43300-002050FM-12+025999999V0201701N012910120019N0400001N1+01341+00691100171ADDAA112000191AY161061AY221061GF108991081081008001999999GJ103309IA1019IA2999+00809KA1120N+01141MA1999999097151MD1610111+9999MW1021OA149902211REMSYN118AAXX  02064 08027 11582 81725 10134 20069 39715 40017 56011 69912 70262 888// 333 20114 30008 50020 55055 91143 91517;
0133080270999992000110209004+43300-002050FM-12+025999999V0201901N009810120019N0400001N1+01361+00811100291ADDGF107991071081008001001001MA1999999097271MD1110121+9999REMSYN066AAXX  02094 08027 42582 71919 10136 20081 39727 40029 51012 87800;
0178080270999992000110212004+43300-002050FM-12+025999999V0202901N005110042019N0120001N1+01281+01211100491ADDAA106000391AY121061AY221061GF108991081071004501999999MA1999999097461MD1110191+9999MW1601REMSYN078AAXX  02124 08027 11462 82910 10128 20121 39746 40049 51019 69931 76022 887//;
0201080270999992000110218004+43300-002050FM-12+025999999V0202501N002110042019N0300001N1+01061+01021100521ADDAA112009991AY161061AY221061GF108991081071004501999999KA1999M+01361MA1999999097461MD1510001+9999MW1601REMSYN088AAXX  02184 08027 11480 82504 10106 20102 39746 40052 55000 60102 76062 887// 333 10136;
0237080270999992000110306004+43300-002050FM-12+025999999V0202301N005112200019N0400001N1+00801+00391100551ADDAA112005191AY161061AY221061GF104991041081008001001001IA1099IA2999+00109KA1120N+00741MA1999999097461MD1110101+9999MW1021REMSYN106AAXX  03064 08027 11582 42310 10080 20039 39746 40055 51010 60052 70262 84800 333 20074 31001 50400 55000;
0161080270999992000110309004+43300-002050FM-12+025999999V0202501N008212200019N0350001N1+00841+00391100801ADDAY181031AY221031GF104991041081008001001001MA1999999097701MD1210241+9999MW1021REMSYN072AAXX  03094 08027 41581 42516 10084 20039 39770 40080 52024 70282 84800;
0178080270999992000110312004+43300-002050FM-12+025999999V0202501N007210042019N0250001N1+00941+00501100921ADDAA106001091AY181061AY261061GF108991081071004501999999MA1999999097831MD1110131+9999MW1601REMSYN078AAXX  03124 08027 11475 82514 10094 20050 39783 40092 51013 69991 76086 887//;
0201080270999992000110318004+43300-002050FM-12+025999999V0202501N006210120019N0150001N1+00801+00491101221ADDAA112003091AY181061AY221061GF106991061081008001999999KA1999M+01081MA1999999098111MD1310161+9999MW1011REMSYN088AAXX  03184 08027 11565 62512 10080 20049 39811 40122 53016 60032 70182 868// 333 10108;
0237080270999992000110406004+43300-002050FM-12+025999999V0202701N007210042019N0040001N1+00821+00461101581ADDAA112007991AY161061AY221061GF108991081071004501999999IA1119IA2999+00109KA1120N+00721MA1999999098461MD1310161+9999MW1601REMSYN106AAXX  04064 08027 11440 82714 10082 20046 39846 40158 53016 60082 76062 887// 333 20072 32001 50020 55037;
0161080270999992000110409004+43300-002050FM-12+025999999V0202301N006210075019N0150001N1+00861+00691101701ADDAY161031AY221031GF107991071051008001999999MA1999999098581MD1210121+9999MW1211REMSYN072AAXX  04094 08027 41565 72312 10086 20069 39858 40170 52012 72162 875//;
0178080270999992000110412004+43300-002050FM-12+025999999V0202601N003110075019N0050001N1+00921+00621101781ADDAA106003091AY161061AY221061GF108991081051008001999999MA1999999098661MD1210081+9999MW1611REMSYN078AAXX  04124 08027 11550 82606 10092 20062 39866 40178 52008 60031 76162 885//;
0201080270999992000110418004+43300-002050FM-12+025999999V0201501N001012200019N0150001N1+01001+00841101811ADDAA112004191AY161061AY221061GF104991011051008001031011KA1999M+01161MA1999999098701MD1310031+9999MW1011REMSYN088AAXX  04184 08027 11565 41502 10100 20084 39870 40181 53003 60042 70162 81531 333 10116;
0222080270999992000110506004+43300-002050FM-12+025999999V0201801N013910360019N0250001N1+01181+00441100891ADDAA199000091GF107991031051008001071001IA1099IA2999+00209KA1120N+00861MA1999999097831MD1710361+9999REMSYN094AAXX  05064 08027 32575 71827 10118 20044 39783 40089 57036 83570 333 20086 31002 50080 55013;EQDQ01  00002PRCP99
0178080270999992000110512004+43300-002050FM-12+025999999V0201601N015410360019N0150001N1+01061+00781100371ADDAA106001091AY161061AY221061GF108991041051008001071999MA1999999097311MD1710361+9999MW1211REMSYN078AAXX  05124 08027 11565 81630 10106 20078 39731 40037 57036 60011 72162 8457/;
0224080270999992000110518004+43300-002050FM-12+025999999V0201601N014910360019N0250001N1+01141+00931099691ADDAA112003091AY161061AY261061GF108991041051008001071999KA1120M+01281MA1999999096661MD1710391+9999MW1601OA149902421REMSYN100AAXX  05184 08027 11575 81629 10114 20093 39666 49969 57039 60032 76066 8457/ 333 10128 91147 91517;
0209080270999992000110606004+43300-002050FM-12+025999999V0202101N008210360019N0300001N1+01081+00321099091ADDAA112026991GF105991031051008001071001IA1119IA2999+00409KA1120N+01021MA1999999096071MD1610031+9999REMSYN100AAXX  06064 08027 12580 52116 10108 20032 39607 49909 56003 60272 83570 333 20102 32004 50050 55000;
0133080270999992000110609004+43300-002050FM-12+025999999V0202101N008212200019N0300001N1+01161+00421099201ADDGF104991031051012501041001MA1999999096191MD1110121+9999REMSYN066AAXX  06094 08027 42680 42116 10116 20042 39619 49920 51012 83540;
0178080270999992000110612004+43300-002050FM-12+025999999V0202601N009810360019N0300001N1+01241+00371099281ADDAA106000791AY161061AY261061GF106991031081008001031001MA1999999096271MD1310081+9999MW1211REMSYN078AAXX  06124 08027 11580 62619 10124 20037 39627 49928 53008 69901 72166 83830;
0224080270999992000110618004+43300-002050FM-12+025999999V0202801N008210075019N0250001N1+01101+00231099381ADDAA112000791AY161061AY261061GF108991051051008001071999KA1120M+01361MA1999999096351MD1310081+9999MW1031OA149902421REMSYN100AAXX  06184 08027 11575 82816 10110 20023 39635 49938 53008 69902 70366 8557/ 333 10136 91147 91528;
0268080270999992000110706004+43300-002050FM-12+025999999V0202301N008710360019N0250001N1+00801+00181099851ADDAA112007191AY181061AY281061GF106991041051008001041001GJ103489IA1119IA2999+00009KA1120N+00641MA1999999096781MD1310071+9999MW1031OA149902521REMSYN118AAXX  07064 08027 11575 62317 10080 20018 39678 49985 53007 60072 70388 84540 333 20064 32000 50320 55058 91149 91525;
0161080270999992000110709004+43300-002050FM-12+025999999V0202501N009810075019N0200001N1+00881+00221099981ADDAY181031AY281031GF107991051051008001041011MA1999999096911MD1210131+9999MW1031REMSYN072AAXX  07094 08027 41570 72519 10088 20022 39691 49998 52013 70388 85541;
0178080270999992000110712004+43300-002050FM-12+025999999V0202601N008210360019N0200001N1+01001+00371100091ADDAA106000191AY181061AY281061GF107991041051008001031011MA1999999097031MD1010121+9999MW1021REMSYN078AAXX  07124 08027 11570 72616 10100 20037 39703 40009 50012 69911 70288 84531;
0173080270999992000110718004+43300-002050FM-12+025999999V0202401N005110360019N0250001N1+00881+00051100221ADDAA112000191GF107991041081008001071999KA1999M+01121MA1999999097141MD1210081+9999REMSYN082AAXX  07184 08027 12575 72410 10088 20005 39714 40022 52008 69912 8487/ 333 10112;
0222080270999992000110806004+43300-002050FM-12+025999999V0202001N005110120019N0250001N1+00821+00031100191ADDAA199000091GF107991051081008001071999IA1119IA2999+00009KA1120N+00781MA1999999097111MD1410001+9999REMSYN094AAXX  08064 08027 32575 72010 10082 20003 39711 40019 54000 8587/ 333 20078 32000 50240 55026;EQDQ01  00002PRCP99
0133080270999992000110809004+43300-002050FM-12+025999999V0202001N007210360019N0250001N1+00901+00141100301ADDGF107991041051008001071999MA1999999097221MD1310111+9999REMSYN066AAXX  08094 08027 42575 72014 10090 20014 39722 40030 53011 8457/;
0163080270999992000110812004+43300-002050FM-12+025999999V0202101N006210360019N0250001N1+01081+00261100411ADDAA199000091GF107991041051008001071999MA1999999097351MD1210131+9999REMSYN066AAXX  08124 08027 32575 72112 10108 20026 39735 40041 52013 8457/;EQDQ01  00002PRCP99
0186080270999992000110818004+43300-002050FM-12+025999999V0202601N006210075019N0200001N1+00981+00401100751ADDAA199000091GF107991051051008001071001KA1999M+01271MA1999999097671MD1210291+9999REMSYN076AAXX  08184 08027 32570 72612 10098 20040 39767 40075 52029 85570 333 10127;EQDQ01  00002PRCP99
0237080270999992000110906004+43300-002050FM-12+025999999V0202201N005112200019N0250001N1+00721+00131101311ADDAA112000191AY181061AY221061GF102991011051008001011001IA1099IA2999-00109KA1120N+00701MA1999999098181MD1210121+9999MW1021REMSYN106AAXX  09064 08027 11575 22210 10072 20013 39818 40131 52012 69922 70282 81510 333 20070 31101 50270 55038;
0133080270999992000110909004+43300-002050FM-12+025999999V0201801N007712200019N0300001N1+00761+00061101431ADDGF101991011021008001001001MA1999999098301MD1210121+9999REMSYN066AAXX  09094 08027 42580 11815 10076 20006 39830 40143 52012 81200;
0163080270999992000110912004+43300-002050FM-12+025999999V0202101N004610360019N0300001N1+01081+00141101471ADDAA199000091GF106991041081008001071001MA1999999098381MD1210081+9999REMSYN066AAXX  09124 08027 32580 62109 10108 20014 39838 40147 52008 84870;EQDQ01  00002PRCP99
0173080270999992000110918004+43300-002050FM-12+025999999V0202401N003110075019N0350001N1+00801+00531101711ADDAA112001091GF108991081071008001999999KA1999M+01141MA1999999098581MD1310151+9999REMSYN082AAXX  09184 08027 12581 82406 10080 20053 39858 40171 53015 60012 887// 333 10114;
0209080270999992000111006004+43300-002050FM-12+025999999V0202201N002112200019N0400001N1+00721+00241101971ADDAA112000891GF102991021081008001001001IA1099IA2999+00109KA1120N+00721MA1999999098821MD1210091+9999REMSYN100AAXX  10064 08027 12582 22204 10072 20024 39882 40197 52009 69972 82800 333 20072 31001 50050 55054;
0133080270999992000111009004+43300-002050FM-12+025999999V0201601N002112200019N0400001N1+00801+00391102371ADDGF101991011081008001001001MA1999999099221MD1210151+9999REMSYN066AAXX  10094 08027 42582 11604 10080 20039 39922 40237 52015 81800;
0163080270999992000111012004+43300-002050FM-12+025999999V0203301N002112200019N0400001N1+01061+00491102351ADDAA199000091GF102991021081008001001001MA1999999099231MD1110011+9999REMSYN066AAXX  10124 08027 32582 23304 10106 20049 39923 40235 51001 82800;EQDQ01  00002PRCP99
0196080270999992000111018004+43300-002050FM-12+025999999V0200901N002112200019N0400001N1+00941+00501102311ADDAA199000091GA1001+999999999GF100991001001999999001001KA1999M+01241MA1999999099191MD1410001+9999REMSYN070AAXX  10184 08027 32982 00904 10094 20050 39919 40231 54000 333 10124;EQDQ01  00002PRCP99
0232080270999992000111106004+43300-002050FM-12+025999999V0201501N011812200019N0400001N1+01001+00021102031ADDAA199000091GA1001+999999999GF100991001001999999001001IA1019IA2999+00109KA1120N+00781MA1999999098911MD1610081+9999REMSYN088AAXX  11064 08027 32982 01523 10100 20002 39891 40203 56008 333 20078 30001 50080 55091;EQDQ01  00002PRCP99
0133080270999992000111109004+43300-002050FM-12+025999999V0201501N011812200019N0400001N1+01141+00221102051ADDGF102991021051008001001001MA1999999098951MD1110041+9999REMSYN066AAXX  11094 08027 42582 21523 10114 20022 39895 40205 51004 82500;
0163080270999992000111112004+43300-002050FM-12+025999999V0201501N011812200019N0400001N1+01341+00141101911ADDAA199000091GF104991021051008001041001MA1999999098831MD1710121+9999REMSYN066AAXX  11124 08027 32582 41523 10134 20014 39883 40191 57012 82540;EQDQ01  00002PRCP99
0186080270999992000111118004+43300-002050FM-12+025999999V0201501N013912200019N0250001N1+01261+00331101621ADDAA199000091GF104991041001017501041001KA1999M+01441MA1999999098541MD1710131+9999REMSYN076AAXX  11184 08027 32775 41527 10126 20033 39854 40162 57013 84040 333 10144;EQDQ01  00002PRCP99
0222080270999992000111206004+43300-002050FM-12+025999999V0201601N009812200019N0250001N1+01321+00521100921ADDAA199000091GF106991041001017501041011IA1019IA2999+00109KA1120N+01261MA1999999097871MD1810321+9999REMSYN094AAXX  12064 08027 32775 61619 10132 20052 39787 40092 58032 84041 333 20126 30001 50420 55072;EQDQ01  00002PRCP99
0133080270999992000111209004+43300-002050FM-12+025999999V0201701N012910360019N0150001N1+01441+00571100701ADDGF107991041051008001071999MA1999999097671MD1710201+9999REMSYN066AAXX  12094 08027 42565 71725 10144 20057 39767 40070 57020 8457/;
0163080270999992000111212004+43300-002050FM-12+025999999V0201801N012910360019N0150001N1+01521+00631100651ADDAA199000091GF108991021051008001071999MA1999999097631MD1710041+9999REMSYN066AAXX  12124 08027 32565 81825 10152 20063 39763 40065 57004 8257/;EQDQ01  00002PRCP99
0201080270999992000111218004+43300-002050FM-12+025999999V0202201N005110075019N0100001N1+01361+01021100401ADDAA112000891AY161061AY221061GF108991051051008001071999KA1999M+01561MA1999999097381MD1710011+9999MW1601REMSYN088AAXX  12184 08027 11560 82210 10136 20102 39738 40040 57001 69982 76062 8557/ 333 10156;
0237080270999992000111306004+43300-002050FM-12+025999999V0202601N004110075019N0200001N1+00921+00841100421ADDAA112020191AY161061AY221061GF107991051051008001071001IA1119IA2999+00409KA1120N+00901MA1999999097351MD1210011+9999MW1601REMSYN106AAXX  13064 08027 11570 72608 10092 20084 39735 40042 52001 60202 76062 85570 333 20090 32004 50210 55002;
0161080270999992000111309004+43300-002050FM-12+025999999V0202601N002112200019N0250001N1+00921+00531100551ADDAY161031AY221031GF104991031081008001051001MA1999999097471MD1210121+9999MW1011REMSYN072AAXX  13094 08027 41575 42604 10092 20053 39747 40055 52012 70162 83850;
0178080270999992000111312004+43300-002050FM-12+025999999V0203001N005110360019N0250001N1+01181+00641100561ADDAA106000591AY161061AY221061GF105991031081008001031001MA1999999097511MD1210041+9999MW1021REMSYN078AAXX  13124 08027 11575 53010 10118 20064 39751 40056 52004 69961 70262 83830;
0229080270999992000111318004+43300-002050FM-12+025999999V0202201N004112200019N0250001N1+00881+00531100681ADDAA112000591AY111061AY211061GA1031+008009099GF104991031091008001031001KA1120M+01201MA1999999097591MD1310121+9999MW1171REMSYN100AAXX  13184 08027 11575 42208 10088 20053 39759 40068 53012 69962 71711 83930 333 10120 83995 96015;
0250080270999992000111406004+43300-002050FM-12+025999999V0201701N002610360019N0250001N1+00601+00371100781ADDAA199000091AY121061AY221061GF106991021021008001031011IA1099IA2999-00109KA1120N+00551MA1999999097661MD1510001+9999MW1131REMSYN100AAXX  14064 08027 31575 61705 10060 20037 39766 40078 55000 71322 82231 333 20055 31101 50320 55034;EQDQ01  00002PRCP99
0159080270999992000111409004+43300-002050FM-12+025999999V0201701N003610360019N0300001N1+00701+00271100901ADDGA1021+008009099GF106991021091008001031021MA1999999097781MD1210121+9999REMSYN076AAXX  14094 08027 42580 61707 10070 20027 39778 40090 52012 82932 333 82995;
0163080270999992000111412004+43300-002050FM-12+025999999V0202601N004110075019N0250001N1+01021+00291100991ADDAA199000091GF105991051021008001041021MA1999999097911MD1010131+9999REMSYN066AAXX  14124 08027 32575 52608 10102 20029 39791 40099 50013 85242;EQDQ01  00002PRCP99
0186080270999992000111418004+43300-002050FM-12+025999999V0202701N003112200019N0300001N1+00841+00531101261ADDAA199000091GF103991011061004501041001KA1999M+01171MA1999999098151MD1210131+9999REMSYN076AAXX  14184 08027 32480 32706 10084 20053 39815 40126 52013 81640 333 10117;EQDQ01  00002PRCP99
0201080270999992000111506004+43300-002050FM-12+025999999V0201501N002112200019N0300001N1+00481+00131101661ADDAA199000091GF102991021021008001041001IA1099IA2999-00309KA1120N+00481MD1310071+9999REMSYN088AAXX  15064 08027 32580 21504 10048 20013 40166 53007 82240 333 20048 31103 50090 55043;EQDQ01  00002PRCP99
0133080270999992000111509004+43300-002050FM-12+025999999V0201701N002112200019N0300001N1+00681+00301101811ADDGF104991031041008001041001MA1999999098661MD1210161+9999REMSYN066AAXX  15094 08027 42580 41704 10068 20030 39866 40181 52016 83440;
0189080270999992000111512004+43300-002050FM-12+025999999V0202801N006210360019N0300001N1+01041+00571101771ADDAA199000091GA1021+008009099GF105991041031008001071001MA1999999098671MD1010011+9999REMSYN076AAXX  15124 08027 32580 52812 10104 20057 39867 40177 50001 84370 333 82995;EQDQ01  00002PRCP99
0186080270999992000111518004+43300-002050FM-12+025999999V0202601N003110120019N0200001N1+00861+00461101781ADDAA199000091GF107991071081008001999999KA1999M+01081MA1999999098661MD1410001+9999REMSYN076AAXX  15184 08027 32570 72606 10086 20046 39866 40178 54000 878// 333 10108;EQDQ01  00002PRCP99
0222080270999992000111606004+43300-002050FM-12+025999999V0201801N003110120019N0200001N1+00721+00131101511ADDAA199000091GF108991081081008001999999IA1099IA2999-00309KA1120N+00621MA1999999098381MD1710121+9999REMSYN094AAXX  16064 08027 32570 81806 10072 20013 39838 40151 57012 888// 333 20062 31103 50130 55059;EQDQ01  00002PRCP99
0133080270999992000111609004+43300-002050FM-12+025999999V0201501N004110150019N0250001N1+00781+00181101481ADDGF108991081001017501071999MA1999999098351MD1610031+9999REMSYN066AAXX  16094 08027 42775 81508 10078 20018 39835 40148 56003 8807/;
0163080270999992000111612004+43300-002050FM-12+025999999V0202101N005110150019N0150001N1+00961+00321101451ADDAA199000091GF108991081001017501071999MA1999999098351MD1410001+9999REMSYN066AAXX  16124 08027 32765 82110 10096 20032 39835 40145 54000 8807/;EQDQ01  00002PRCP99
0201080270999992000111618004+43300-002050FM-12+025999999V0203101N005110120019N0150001N1+00901+00781101611ADDAA112005191AY161061AY221061GF108991061081008001071001KA1999M+01001MA1999999098501MD1210161+9999MW1631REMSYN088AAXX  16184 08027 11565 83110 10090 20078 39850 40161 52016 60052 76362 86870 333 10100;
0237080270999992000111706004+43300-002050FM-12+025999999V0203401N011310360019N0200001N1+00901+00451101941ADDAA112005191AY181061AY221061GF105991031081008001051001IA1099IA2999+00209KA1120N+00881MA1999999098821MD1210121+9999MW1021REMSYN106AAXX  17064 08027 11570 53422 10090 20045 39882 40194 52012 60052 70282 83850 333 20088 31002 50140 55000;
0161080270999992000111709004+43300-002050FM-12+025999999V0203301N008710120019N0250001N1+00981+00391102101ADDAY181031AY221031GF107991061081008001051001MA1999999098981MD1210161+9999MW1021REMSYN072AAXX  17094 08027 41575 73317 10098 20039 39898 40210 52016 70282 86850;
0178080270999992000111712004+43300-002050FM-12+025999999V0203101N011810120019N0250001N1+01021+00341102181ADDAA106002091AY181061AY221061GF107991061081008001051001MA1999999099061MD1110081+9999MW1021REMSYN078AAXX  17124 08027 11575 73123 10102 20034 39906 40218 51008 60021 70282 86850;
0201080270999992000111718004+43300-002050FM-12+025999999V0203001N006210075019N0400001N1+00901+00691102271ADDAA112007991AY161061AY221061GF108991081071008001999999KA1999M+01121MA1999999099141MD1210081+9999MW1211REMSYN088AAXX  17184 08027 11582 83012 10090 20069 39914 40227 52008 60082 72162 887// 333 10112;
0256080270999992000111806004+43300-002050FM-12+025999999V0203201N999990075019N0350001N1+00941+00771102231ADDAA112006191AY181061AY221061GF108991081071008001999999IA1119IA2999+00409KA1120N+00881MA1999999099101MD1410001+9999MW1021REMSYN106AAXX  18064 08027 11581 83282 10094 20077 39910 40223 54000 60062 70282 887// 333 20088 32004 50100 55019;EQDQ01+004223WOSPD 
0133080270999992000111809004+43300-002050FM-12+025999999V0202901N004110075019N0150001N1+00901+00781102231ADDGF108991081071008001999999MA1999999099101MD1410001+9999REMSYN066AAXX  18094 08027 42565 82908 10090 20078 39910 40223 54000 887//;
0173080270999992000111818004+43300-002050FM-12+025999999V0202201N002110120019N0300001N1+01061+00681101851ADDAA112003091GF108991081081008001001001KA1999M+01181MA1999999098751MD1610081+9999REMSYN082AAXX  18184 08027 12580 82204 10106 20068 39875 40185 56008 60032 88800 333 10118;
0237080270999992000111906004+43300-002050FM-12+025999999V0202201N004110120019N0300001N1+01081+01001101391ADDAA112005191AY161061AY221061GF108991081081008001999999IA1119IA2999+00309KA1120N+00921MA1999999098311MD1710201+9999MW1021REMSYN106AAXX  19064 08027 11580 82208 10108 20100 39831 40139 57020 60052 70262 888// 333 20092 32003 50110 55004;
0161080270999992000111909004+43300-002050FM-12+025999999V0202201N005110120019N0120001N1+01141+01061101351ADDAY161031AY221031GF108991081081008001999999MA1999999098271MD1610041+9999MW1601REMSYN072AAXX  19094 08027 41562 82210 10114 20106 39827 40135 56004 76062 888//;
0178080270999992000111912004+43300-002050FM-12+025999999V0202401N007210075019N0150001N1+01201+01091101261ADDAA106003091AY161061AY221061GF108991081071008001999999MA1999999098191MD1810081+9999MW1601REMSYN078AAXX  19124 08027 11565 82414 10120 20109 39819 40126 58008 60031 76062 887//;
0201080270999992000111918004+43300-002050FM-12+025999999V0202601N008210075019N0050001N1+01021+00731101281ADDAA112007991AY161061AY221061GF108991081071008001999999KA1999M+01261MA1999999098191MD1810081+9999MW1101REMSYN088AAXX  19184 08027 11550 82616 10102 20073 39819 40128 58008 60082 71062 887// 333 10126;
0237080270999992000112006004+43300-002050FM-12+025999999V0202501N006210042019N0030001N1+00801+00631100961ADDAA112005191AY161061AY221061GF108991081071004501999999IA1119IA2999+00209KA1120N+00741MA1999999097861MD1710091+9999MW1611REMSYN106AAXX  20064 08027 11430 82512 10080 20063 39786 40096 57009 60052 76162 887// 333 20074 32002 50240 55000;
0161080270999992000112009004+43300-002050FM-12+025999999V0202401N007210042019N0050001N1+00781+00611100931ADDAY161031AY261031GF108991081071004501999999MA1999999097821MD1710041+9999MW1611REMSYN072AAXX  20094 08027 41450 82414 10078 20061 39782 40093 57004 76166 887//;
0178080270999992000112012004+43300-002050FM-12+025999999V0202501N006210042019N0020001N1+00821+00651100841ADDAA106005191AY161061AY261061GF108991081071004501999999MA1999999097741MD1710081+9999MW1611REMSYN078AAXX  20124 08027 11420 82512 10082 20065 39774 40084 57008 60051 76166 887//;
0201080270999992000112018004+43300-002050FM-12+025999999V0202501N006210075019N0150001N1+00781+00561101011ADDAA112009991AY161061AY221061GF108991081051008001999999KA1999M+01001MA1999999097901MD1210231+9999MW1611REMSYN088AAXX  20184 08027 11565 82512 10078 20056 39790 40101 52023 60102 76162 885// 333 10100;
0237080270999992000112106004+43300-002050FM-12+025999999V0202201N006710900019N0200001N1+00961+00271101041ADDAA112002091AY161061AY221061GF105991011051008001071011IA1099IA2999+00009KA1120N+00681MA1999999097951MD1610041+9999MW1021REMSYN106AAXX  21064 08027 11570 52213 10096 20027 39795 40104 56004 60022 70262 81571 333 20068 31000 50220 55000;
0133080270999992000112109004+43300-002050FM-12+025999999V0201701N008210360019N0250001N1+01041+00471101061ADDGF107991031051008001071001MA1999999097981MD1310031+9999REMSYN066AAXX  21094 08027 42575 71716 10104 20047 39798 40106 53003 83570;
0163080270999992000112112004+43300-002050FM-12+025999999V0201701N009810360019N0250001N1+01321+00621100871ADDAA199000091GF107991041051008001071001MA1999999097821MD1810161+9999REMSYN066AAXX  21124 08027 32575 71719 10132 20062 39782 40087 58016 84570;EQDQ01  00002PRCP99
0201080270999992000112118004+43300-002050FM-12+025999999V0201801N013910360019N0250001N1+01331+00651100991ADDAA112000791AY121061AY221061GF108991031051012501021999KA1999M+01401MA1999999097941MD1310231+9999MW1601REMSYN088AAXX  21184 08027 11675 81827 10133 20065 39794 40099 53023 69902 76022 8352/ 333 10140;
0237080270999992000112206004+43300-002050FM-12+025999999V0201801N011310360019N0200001N1+01261+00731100841ADDAA112002091AY181061AY281061GF108991031051008001021999IA1099IA2999+00509KA1120N+01141MA1999999097791MD1110011+9999MW1801REMSYN106AAXX  22064 08027 11570 81822 10126 20073 39779 40084 51001 60022 78088 8352/ 333 20114 31005 50070 55011;
0161080270999992000112209004+43300-002050FM-12+025999999V0201601N008210120019N0080001N1+01041+00921101021ADDAY161031AY261031GF108991081001012501021999MA1999999097941MD1310151+9999MW1611REMSYN072AAXX  22094 08027 41658 81616 10104 20092 39794 40102 53015 76166 8802/;
0178080270999992000112212004+43300-002050FM-12+025999999V0201701N006210360019N0200001N1+01181+00861100851ADDAA106005191AY161061AY261061GF108991021051008001021999MA1999999097791MD1810151+9999MW1151REMSYN078AAXX  22124 08027 11570 81712 10118 20086 39779 40085 58015 60051 71566 8252/;
0201080270999992000112218004+43300-002050FM-12+025999999V0201501N009310360019N0200001N1+01301+00871100491ADDAA112006191AY161061AY261061GF108991041071008001021999KA1999M+01351MA1999999097461MD1810131+9999MW1601REMSYN088AAXX  22184 08027 11570 81518 10130 20087 39746 40049 58013 60062 76066 8472/ 333 10135;
0268080270999992000112306004+43300-002050FM-12+025999999V0202901N008210042019N0120001N1+00961+00921100321ADDAA112017091AY181061AY281061GF108991081071004501999999GJ100009IA1119IA2999-00609KA1120N+00921MA1999999097261MD1310191+9999MW1801OA149902161REMSYN118AAXX  23064 08027 11462 82916 10096 20092 39726 40032 53019 60172 78088 887// 333 20092 32106 50460 55000 91142 91529;
0161080270999992000112309004+43300-002050FM-12+025999999V0202601N009810042019N0080001N1+00861+00691100641ADDAY181031AY261031GF108991081071004501999999MA1999999097551MD1210291+9999MW1801REMSYN072AAXX  23094 08027 41458 82619 10086 20069 39755 40064 52029 78086 887//;
0178080270999992000112312004+43300-002050FM-12+025999999V0202601N008210120019N0050001N1+01001+00641100751ADDAA106009991AY181061AY261061GF107991061081008001071001MA1999999097671MD1110121+9999MW1161REMSYN078AAXX  23124 08027 11550 72616 10100 20064 39767 40075 51012 60101 71686 86870;
0201080270999992000112318004+43300-002050FM-12+025999999V0202701N007210120019N0020001N1+00781+00561101051ADDAA112016091AY181061AY221061GF107991071081008001999999KA1999M+01081MA1999999097941MD1310231+9999MW1801REMSYN088AAXX  23184 08027 11520 72714 10078 20056 39794 40105 53023 60162 78082 878// 333 10108;
0237080270999992000112406004+43300-002050FM-12+025999999V0202201N004110120019N0200001N1+00821+00601101581ADDAA112003091AY181061AY221061GF108991081081008001999999IA1119IA2999+00109KA1120N+00681MA1999999098461MD1110041+9999MW1801REMSYN106AAXX  24064 08027 11570 82208 10082 20060 39846 40158 51004 60032 78082 888// 333 20068 32001 50370 55013;
0133080270999992000112409004+43300-002050FM-12+025999999V0201601N005110900019N0300001N1+00801+00491101591ADDGF105991011021008001071081MA1999999098471MD1010011+9999REMSYN066AAXX  24094 08027 42580 51610 10080 20049 39847 40159 50001 81278;
0144080270999992000112412004+43300-002050FM-12+025999999V0201701N007210150019N0250001N1+00961+00211101321ADDAA199000021GF108991081001017501071999MA1999999098221MD1810251+9999REMSYN066AAXX  24124 08027 32775 81714 10096 20021 39822 40132 58025 8807/;
0201080270999992000112418004+43300-002050FM-12+025999999V0201701N009810120019N0150001N1+00761+00541101011ADDAA112002091AY161061AY221061GF108991061081008001071999KA1999M+01001MA1999999097901MD1610131+9999MW1611REMSYN088AAXX  24184 08027 11565 81719 10076 20054 39790 40101 56013 60022 76162 8687/ 333 10100;
0237080270999992000112506004+43300-002050FM-12+025999999V0201601N003110360019N0300001N1+01001+00711101201ADDAA112001091AY161061AY221061GF105991021051008001071001IA1099IA2999+00009KA1120N+00721MA1999999098111MD1410001+9999MW1021REMSYN106AAXX  25064 08027 11580 51606 10100 20071 39811 40120 54000 60012 70262 82570 333 20072 31000 50100 55015;
0133080270999992000112509004+43300-002050FM-12+025999999V0201601N005110360019N0300001N1+01141+00821101261ADDGF107991031051008001071071MA1999999098181MD1310071+9999REMSYN066AAXX  25094 08027 42580 71610 10114 20082 39818 40126 53007 83577;
0163080270999992000112512004+43300-002050FM-12+025999999V0201701N006719999999N0300001N1+01461+00921101181ADDAA199000091GF107991021001999999071071MA1999999098141MD1810041+9999REMSYN066AAXX  25124 08027 32980 71713 10146 20092 39814 40118 58004 82077;EQDQ01  00002PRCP99
0211080270999992000112518004+43300-002050FM-12+025999999V0203101N012910003019N0002001N1+01301+01261100871ADDAA112003091AY121061AY221061GA1091+999999999GF109991091999999999999999KA1999M+01761MA1999999097831MD1410001+9999MW1811REMSYN082AAXX  25184 08027 11/02 93125 10130 20126 39783 40087 54000 60032 78122 333 10176;
0237080270999992000112606004+43300-002050FM-12+025999999V0200301N008710075019N0250001N1+01241+01051101531ADDAA112008991AY181061AY221061GF108991081071008001999999IA1119IA2999+00509KA1120N+01121MA1999999098461MD1110211+9999MW1021REMSYN106AAXX  26064 08027 11575 80317 10124 20105 39846 40153 51021 60092 70282 887// 333 20112 32005 50200 55004;
0161080270999992000112609004+43300-002050FM-12+025999999V0203001N008210120019N0250001N1+01161+00921101881ADDAY181031AY221031GF107991071081008001001001MA1999999098791MD1110331+9999MW1021REMSYN072AAXX  26094 08027 41575 73016 10116 20092 39879 40188 51033 70282 87800;
0178080270999992000112612004+43300-002050FM-12+025999999V0202701N006210120019N0350001N1+01381+00961102011ADDAA106004191AY181061AY221061GF105991051081008001001001MA1999999098941MD1110151+9999MW1011REMSYN078AAXX  26124 08027 11581 52712 10138 20096 39894 40201 51015 60041 70182 85800;
0201080270999992000112618004+43300-002050FM-12+025999999V0200901N003110075019N0250001N1+01121+01001101761ADDAA112006191AY161061AY221061GF108991081071008001999999KA1999M+01421MA1999999098671MD1610151+9999MW1601REMSYN088AAXX  26184 08027 11575 80906 10112 20100 39867 40176 56015 60062 76062 887// 333 10142;
0237080270999992000112706004+43300-002050FM-12+025999999V0202401N007219999999N0350001N1+01701+00991101561ADDAA112006191AY161061AY221061GF107991071001012501071001IA1099IA2999+00509KA1120N+01001MA1999999098541MD1310071+9999MW1021REMSYN106AAXX  27064 08027 11681 72414 10170 20099 39854 40156 53007 60062 70262 87070 333 20100 31005 50230 55016;
0133080270999992000112709004+43300-002050FM-12+025999999V0201801N004112200019N0400001N1+01621+01021101821ADDGF104991041001012501041001MA1999999098781MD1210241+9999REMSYN066AAXX  27094 08027 42682 41808 10162 20102 39878 40182 52024 84040;
0163080270999992000112712004+43300-002050FM-12+025999999V0201801N003112200019N0400001N1+01901+00971101801ADDAA199000091GF103991011001012501041071MA1999999098791MD1110011+9999REMSYN066AAXX  27124 08027 32682 31806 10190 20097 39879 40180 51001 81047;EQDQ01  00002PRCP99
0186080270999992000112718004+43300-002050FM-12+025999999V0201701N008219999999N0300001N1+01701+00941101781ADDAA199000091GF106991001001999999001081KA1999M+02041MA1999999098751MD1510041+9999REMSYN076AAXX  27184 08027 32980 61716 10170 20094 39875 40178 55004 80008 333 10204;EQDQ01  00002PRCP99
0222080270999992000112806004+43300-002050FM-12+025999999V0201401N009810150019N0300001N1+01721+00691101291ADDAA199000091GF108991081001017501071999IA1019IA2999+00509KA1120N+01501MA1999999098271MD1710121+9999REMSYN094AAXX  28064 08027 32780 81419 10172 20069 39827 40129 57012 8807/ 333 20150 30005 50540 55073;EQDQ01  00002PRCP99
0133080270999992000112809004+43300-002050FM-12+025999999V0201601N015910150019N0250001N1+01701+00561101281ADDGF108991081001017501071999MA1999999098261MD1510011+9999REMSYN066AAXX  28094 08027 42775 81631 10170 20056 39826 40128 55001 8807/;
0163080270999992000112812004+43300-002050FM-12+025999999V0201601N013910150019N0350001N1+01901+00581101221ADDAA199000091GF107991071001017501071999MA1999999098221MD1810041+9999REMSYN066AAXX  28124 08027 32781 71627 10190 20058 39822 40122 58004 8707/;EQDQ01  00002PRCP99
0186080270999992000112818004+43300-002050FM-12+025999999V0201501N013910150019N0300001N1+01921+00441100931ADDAA199000091GF106991051001017501071011KA1999M+02051MA1999999097941MD1710121+9999REMSYN076AAXX  28184 08027 32780 61527 10192 20044 39794 40093 57012 85071 333 10205;EQDQ01  00002PRCP99
0222080270999992000112906004+43300-002050FM-12+025999999V0201601N008712200019N0300001N1+01881+00441100531ADDAA199000091GF106991041001022501071011IA1019IA2999+01109KA1120N+01761MA1999999097551MD1510081+9999REMSYN094AAXX  29064 08027 32880 61617 10188 20044 39755 40053 55008 84071 333 20176 30011 50500 55030;EQDQ01  00002PRCP99
0133080270999992000112909004+43300-002050FM-12+025999999V0201601N009810210019N0300001N1+01741+00571100711ADDGF107991051001022501071011MA1999999097711MD1310161+9999REMSYN066AAXX  29094 08027 42880 71619 10174 20057 39771 40071 53016 85071;
0163080270999992000112912004+43300-002050FM-12+025999999V0201601N007710360019N0250001N1+01681+00781100841ADDAA199000091GF108991011081008001071999MA1999999097831MD1110121+9999REMSYN066AAXX  29124 08027 32575 81615 10168 20078 39783 40084 51012 8187/;EQDQ01  00002PRCP99
0201080270999992000112918004+43300-002050FM-12+025999999V0203501N005110042019N0050001N1+01101+01061101431ADDAA112009991AY161061AY261061GF108991081071004501999999KA1999M+01901MA1999999098351MD1210361+9999MW1611REMSYN088AAXX  29184 08027 11450 83510 10110 20106 39835 40143 52036 60102 76166 887// 333 10190;
0209080270999992000113006004+43300-002050FM-12+025999999V0201701N008212200019N0300001N1+01041+00841101431ADDAA112002091GF101991011001017501041001IA1099IA2999+00309KA1120N+00951MA1999999098341MD1610121+9999REMSYN100AAXX  30064 08027 12780 11716 10104 20084 39834 40143 56012 60022 81040 333 20095 31003 50390 55003;
0133080270999992000113009004+43300-002050FM-12+025999999V0201601N008210900019N0300001N1+01161+00411101351ADDGF106991041001022501041021MA1999999098271MD1510071+9999REMSYN066AAXX  30094 08027 42880 61616 10116 20041 39827 40135 55007 84042;
0178080270999992000113012004+43300-002050FM-12+025999999V0201601N009810150019N0250001N1+01361+00461101241ADDAA106000791AY121061AY221061GF108991081001017501071999MA1999999098191MD1810081+9999MW1601REMSYN078AAXX  30124 08027 11775 81619 10136 20046 39819 40124 58008 69901 76022 8807/;
0224080270999992000113018004+43300-002050FM-12+025999999V0201601N011812200019N0300001N1+01481+00411100861ADDAA112000191AY161061AY261061GF106991041001017501041011KA1120M+01531MA1999999097831MD1610041+9999MW1011OA149902421REMSYN100AAXX  30184 08027 11780 61623 10148 20041 39783 40086 56004 69912 70166 84041 333 10153 91147 91516;
0253080270999992000120106004+43300-002050FM-12+025999999V0201601N012910150019N0300001N1+01451+00531100811ADDAA199000091GF108991051001017501041011GJ100249IA1019IA2999+00909KA1120N+01381MA1999999097781MD1310151+9999OA149902781REMSYN106AAXX  01064 08027 32780 81625 10145 20053 39778 40081 53015 85041 333 20138 30009 50530 55004 91154 91516;EQDQ01  00002PRCP99
0160080270999992000120109004+43300-002050FM-12+025999999V0201601N018010360019N0250001N1+01441+00571100811ADDGF107991011051008001071001MA1999999097781MD1510001+9999OA149902571REMSYN082AAXX  01094 08027 42575 71635 10144 20057 39778 40081 55000 81570 333 91150 91515;
0205080270999992000120112004+43300-002050FM-12+025999999V0201601N013410360019N0300001N1+01361+00671100951ADDAA106000791AY161061AY261061GF107991011051008001071001MA1999999097911MD1010131+9999MW1021OA149902571REMSYN094AAXX  01124 08027 11580 71626 10136 20067 39791 40095 50013 69901 70266 81570 333 91150 91515;
0201080270999992000120118004+43300-002050FM-12+025999999V0201601N009812200019N0300001N1+01381+00741101281ADDAA112000791AY161061AY221061GF101991011001017501041001KA1999M+01621MA1999999098231MD1310201+9999MW1011REMSYN088AAXX  01184 08027 11780 11619 10138 20074 39823 40128 53020 69902 70162 81040 333 10162;
0222080270999992000120206004+43300-002050FM-12+025999999V0201601N008210075019N0150001N1+01341+00741101071ADDAA199000091GF108991081071008001999999IA1019IA2999+00609KA1120N+01341MA1999999098021MD1810251+9999REMSYN094AAXX  02064 08027 32565 81616 10134 20074 39802 40107 58025 887// 333 20134 30006 50290 55038;EQDQ01  00002PRCP99
0161080270999992000120209004+43300-002050FM-12+025999999V0202201N008710120019N0200001N1+01261+00591101211ADDAY161031AY221031GF107991071081008001999999MA1999999098151MD1310131+9999MW1021REMSYN072AAXX  02094 08027 41570 72217 10126 20059 39815 40121 53013 70262 878//;
0178080270999992000120212004+43300-002050FM-12+025999999V0202401N005110120019N0300001N1+01101+00731101561ADDAA106002091AY181061AY221061GF107991061081008001071999MA1999999098471MD1310321+9999MW1251REMSYN078AAXX  02124 08027 11580 72410 10110 20073 39847 40156 53032 60021 72582 8687/;
0173080270999992000120218004+43300-002050FM-12+025999999V0202601N003110360019N0250001N1+01061+00591101891ADDAA112002091GF105991031081008001071001KA1999M+01421MA1999999098791MD1210241+9999REMSYN082AAXX  02184 08027 12575 52606 10106 20059 39879 40189 52024 60022 83870 333 10142;
0219080270999992000120306004+43300-002050FM-12+025999999V0201701N003112200019N0250001N1+00661+00331102221ADDAA112006191GA1001+999999999GF100991001001999999001001IA1099IA2999-00109KA1120N+00621MA1999999099061MD1810011+9999REMSYN094AAXX  03064 08027 12975 01706 10066 20033 39906 40222 58001 60062 333 20062 31101 50080 55030;
0133080270999992000120309004+43300-002050FM-12+025999999V0201601N006712200019N0250001N1+00761+00291102211ADDGF102991011011008001001011MA1999999099061MD1410001+9999REMSYN066AAXX  03094 08027 42575 21613 10076 20029 39906 40221 54000 81101;
0163080270999992000120312004+43300-002050FM-12+025999999V0201701N006212200019N0250001N1+01101+00331102061ADDAA199000091GF105991011011008001001011MA1999999098951MD1810111+9999REMSYN066AAXX  03124 08027 32575 51712 10110 20033 39895 40206 58011 81101;EQDQ01  00002PRCP99
0186080270999992000120318004+43300-002050FM-12+025999999V0201801N009810120019N0300001N1+01201+00511101721ADDAA199000091GF108991081081008001999999KA1999M+01301MA1999999098631MD1610071+9999REMSYN076AAXX  03184 08027 32580 81819 10120 20051 39863 40172 56007 888// 333 10130;EQDQ01  00002PRCP99
0222080270999992000120406004+43300-002050FM-12+025999999V0201801N009810120019N0400001N1+01381+00741101231ADDAA199000091GF108991081081008001999999IA1099IA2999+00709KA1120N+01141MA1999999098181MD1510001+9999REMSYN094AAXX  04064 08027 32582 81819 10138 20074 39818 40123 55000 888// 333 20114 31007 50050 55043;EQDQ01  00002PRCP99
0133080270999992000120409004+43300-002050FM-12+025999999V0201601N008210360019N0400001N1+01501+00741101431ADDGF107991011051008001071001MA1999999098391MD1110211+9999REMSYN066AAXX  04094 08027 42582 71616 10150 20074 39839 40143 51021 81570;
0163080270999992000120412004+43300-002050FM-12+025999999V0201601N011810360019N0400001N1+01541+00841101421ADDAA199000091GF107991011051008001071001MA1999999098381MD1810011+9999REMSYN066AAXX  04124 08027 32582 71623 10154 20084 39838 40142 58001 81570;EQDQ01  00002PRCP99
0186080270999992000120418004+43300-002050FM-12+025999999V0201901N011812200019N0400001N1+01541+00841101501ADDAA199000091GF103991031001012501041001KA1999M+01641MA1999999098461MD1110191+9999REMSYN076AAXX  04184 08027 32682 31923 10154 20084 39846 40150 51019 83040 333 10164;EQDQ01  00002PRCP99
0222080270999992000120506004+43300-002050FM-12+025999999V0201601N013919999999N0400001N1+01501+00651100771ADDAA199000091GF107991071001012501071001IA1019IA2999+00709KA1120N+01401MA1999999097751MD1710231+9999REMSYN094AAXX  05064 08027 32682 71627 10150 20065 39775 40077 57023 87070 333 20140 30007 50450 55026;EQDQ01  00002PRCP99
0133080270999992000120509004+43300-002050FM-12+025999999V0201601N015910120019N0400001N1+01581+00551100851ADDGF107991051081008001071001MA1999999097831MD1310081+9999REMSYN066AAXX  05094 08027 42582 71631 10158 20055 39783 40085 53008 85870;
0163080270999992000120512004+43300-002050FM-12+025999999V0201601N012910360019N0400001N1+01621+00451100851ADDAA199000091GF107991021051008001071001MA1999999097831MD1010001+9999REMSYN066AAXX  05124 08027 32582 71625 10162 20045 39783 40085 50000 82570;EQDQ01  00002PRCP99
0186080270999992000120518004+43300-002050FM-12+025999999V0201601N012910360019N0400001N1+01561+00471100731ADDAA199000091GF106991031051008001071999KA1999M+01641MA1999999097711MD1310091+9999REMSYN076AAXX  05184 08027 32582 61625 10156 20047 39771 40073 53009 8357/ 333 10164;EQDQ01  00002PRCP99
0237080270999992000120606004+43300-002050FM-12+025999999V0201701N011810075019N0300001N1+01181+00861101001ADDAA112000191AY121061AY221061GF108991081051008001999999IA1099IA2999+00509KA1120N+01181MA1999999097941MD1310111+9999MW1251REMSYN106AAXX  06064 08027 11580 81723 10118 20086 39794 40100 53011 69922 72522 885// 333 20118 31005 50800 55000;
0133080270999992000120609004+43300-002050FM-12+025999999V0201801N012912200019N0400001N1+01401+00571100981ADDGF104991011051008001041001MA1999999097941MD1010001+9999REMSYN066AAXX  06094 08027 42582 41825 10140 20057 39794 40098 50000 81540;
0144080270999992000120612004+43300-002050FM-12+025999999V0201801N011812200019N0400001N1+01521+00521101091ADDAA199000021GF103991011011008001041001MA1999999098061MD1010121+9999REMSYN066AAXX  06124 08027 32582 31823 10152 20052 39806 40109 50012 81140;
0167080270999992000120618004+43300-002050FM-12+025999999V0201701N012910900019N0300001N1+01501+00701101051ADDAA199000021GF105991011011008001041011KA1999M+01621MA1999999098021MD1810051+9999REMSYN076AAXX  06184 08027 32580 51725 10150 20070 39802 40105 58005 81141 333 10162;
0222080270999992000120706004+43300-002050FM-12+025999999V0201501N021612200019N0400001N1+01641+00831099561ADDAA199000091GF104991021001022501041011IA1019IA2999+01009KA1120N+01451MA1999999096591MD1610071+9999REMSYN094AAXX  07064 08027 32882 41542 10164 20083 39659 49956 56007 82041 333 20145 30010 50370 55063;EQDQ01  00002PRCP99
0133080270999992000120709004+43300-002050FM-12+025999999V0201601N017010360019N0300001N1+01741+00681099451ADDGF107991011011008001071011MA1999999096491MD1610101+9999REMSYN066AAXX  07094 08027 42580 71633 10174 20068 39649 49945 56010 81171;
0163080270999992000120712004+43300-002050FM-12+025999999V0201501N020012200019N0300001N1+01981+00551099201ADDAA199000091GF104991021001022501041011MA1999999096271MD1710221+9999REMSYN066AAXX  07124 08027 32880 41539 10198 20055 39627 49920 57022 82041;EQDQ01  00002PRCP99
0224080270999992000120718004+43300-002050FM-12+025999999V0202301N012910150019N0150001N1+01821+00901099481ADDAA112000791AY111061AY211061GF108991081001017501071999KA1120M+02131MA1999999096531MD1310401+9999MW1601OA149903401REMSYN100AAXX  07184 08027 11765 82325 10182 20090 39653 49948 53040 69902 76011 8807/ 333 10213 91166 91516;
0209080270999992000120806004+43300-002050FM-12+025999999V0201801N006212200019N0250001N1+01221+00391100761ADDAA112000891GF101991011001017501031001IA1099IA2999+00309KA1120N+01041MA1999999097711MD1310081+9999REMSYN100AAXX  08064 08027 12775 11812 10122 20039 39771 40076 53008 69972 81030 333 20104 31003 50520 55029;
0133080270999992000120809004+43300-002050FM-12+025999999V0201801N011312200019N0350001N1+01341+00331100831ADDGF103991011041012501041011MA1999999097791MD1110081+9999REMSYN066AAXX  08094 08027 42681 31822 10134 20033 39779 40083 51008 81441;
0163080270999992000120812004+43300-002050FM-12+025999999V0201901N008212200019N0400001N1+01521+00411100901ADDAA199000091GF102991011021012501041021MA1999999097871MD1010081+9999REMSYN066AAXX  08124 08027 32682 21916 10152 20041 39787 40090 50008 81242;EQDQ01  00002PRCP99
0224080270999992000120818004+43300-002050FM-12+025999999V0201801N009812200019N0300001N1+01321+00571101121ADDAA112000791AY181061AY281061GF104991011021012501031011KA1120M+01551MA1999999098071MD1310201+9999MW1021OA149902111REMSYN100AAXX  08184 08027 11680 41819 10132 20057 39807 40112 53020 69902 70288 81231 333 10155 91141 91518;
0222080270999992000120906004+43300-002050FM-12+025999999V0201901N006212200019N0300001N1+01121+00391101561ADDAA199000091GF103991011051012501041001IA1099IA2999+01009KA1120N+01101MA1999999098471MD1510001+9999REMSYN094AAXX  09064 08027 32680 31912 10112 20039 39847 40156 55000 81540 333 20110 31010 50330 55063;EQDQ01  00002PRCP99
0159080270999992000120909004+43300-002050FM-12+025999999V0201901N008710360019N0400001N1+01181+00381101721ADDGA1011+008009099GF106991021091008001041021MA1999999098631MD1210161+9999REMSYN076AAXX  09094 08027 42582 61917 10118 20038 39863 40172 52016 82942 333 81995;
0186080270999992000120918004+43300-002050FM-12+025999999V0201801N007210360019N0400001N1+01261+00381101861ADDAA199000091GF107991011011008001071001KA1999M+01421MA1999999098781MD1410001+9999REMSYN076AAXX  09184 08027 32582 71814 10126 20038 39878 40186 54000 81170 333 10142;EQDQ01  00002PRCP99
0237080270999992000121006004+43300-002050FM-12+025999999V0201801N010810150019N0400001N1+01541+00601101831ADDAA112000791AY121061AY221061GF108991081001017501071999IA1019IA2999+00509KA1120N+01261MA1999999098781MD1310031+9999MW1211REMSYN106AAXX  10064 08027 11782 81821 10154 20060 39878 40183 53003 69902 72122 8807/ 333 20126 30005 50360 55049;
0133080270999992000121009004+43300-002050FM-12+025999999V0201801N010810120019N0350001N1+01541+00691102201ADDGF107991061051012501051999MA1999999099141MD1310361+9999REMSYN066AAXX  10094 08027 42681 71821 10154 20069 39914 40220 53036 8655/;
0144080270999992000121012004+43300-002050FM-12+025999999V0201801N007210900019N0350001N1+01701+00901102361ADDAA199000021GF107991011011008001001081MA1999999099311MD1210171+9999REMSYN066AAXX  10124 08027 32581 71814 10170 20090 39931 40236 52017 81108;
0167080270999992000121018004+43300-002050FM-12+025999999V0201501N005112200019N0300001N1+01421+00781102631ADDAA199000021GF104991021001022501051011KA1999M+01711MA1999999099541MD1210111+9999REMSYN076AAXX  10184 08027 32880 41510 10142 20078 39954 40263 52011 82051 333 10171;
0237080270999992000121106004+43300-002050FM-12+025999999V0201501N008210360019N0150001N1+01401+00891102641ADDAA112000391AY161061AY221061GF108991021051008001071999IA1099IA2999+00609KA1120N+01381MA1999999099551MD1210051+9999MW1601REMSYN106AAXX  11064 08027 11565 81516 10140 20089 39955 40264 52005 69932 76062 8257/ 333 20138 31006 50290 55031;
0150080270999992000121112004+43300-002050FM-12+025999999V0201701N009812200019N0300001N1+01641+00721102571ADDAA106000191GF105991041001022501041011MA1999999099511MD1310011+9999REMSYN072AAXX  11124 08027 12880 51719 10164 20072 39951 40257 53001 69921 84041;
0173080270999992000121118004+43300-002050FM-12+025999999V0201601N008712200019N0400001N1+01621+00701102581ADDAA112000191GF104991041001012501071001KA1999M+01821MA1999999099511MD1310161+9999REMSYN082AAXX  11184 08027 12682 41617 10162 20070 39951 40258 53016 69922 84070 333 10182;
0222080270999992000121206004+43300-002050FM-12+025999999V0201601N011812200019N0400001N1+01561+00161102301ADDAA199000091GF104991041001012501011001IA1019IA2999+00809KA1120N+01501MA1999999099231MD1510121+9999REMSYN094AAXX  12064 08027 32682 41623 10156 20016 39923 40230 55012 84010 333 20150 30008 50370 55056;EQDQ01  00002PRCP99
0133080270999992000121209004+43300-002050FM-12+025999999V0201801N018019999999N0400001N1+01641+00031102201ADDGF107991041001012501071081MA1999999099141MD1810091+9999REMSYN066AAXX  12094 08027 42682 71835 10164 20003 39914 40220 58009 84078;
0163080270999992000121212004+43300-002050FM-12+025999999V0201801N018019999999N0400001N1+01881+00041102251ADDAA199000091GF105991031001012501041081MA1999999099221MD1310081+9999REMSYN066AAXX  12124 08027 32682 51835 10188 20004 39922 40225 53008 83048;EQDQ01  00002PRCP99
0186080270999992000121218004+43300-002050FM-12+025999999V0201701N008719999999N0400001N1+01921+00111102081ADDAA199000091GF106991021001012501041081KA1999M+02041MA1999999099061MD1010001+9999REMSYN076AAXX  12184 08027 32682 61717 10192 20011 39906 40208 50000 82048 333 10204;EQDQ01  00002PRCP99
0222080270999992000121306004+43300-002050FM-12+025999999V0209999C000012200019N0400001N1+01301+00861102731ADDAA199000091GF104991021001012501011081IA1019IA2999+00509KA1120N+01301MA1999999099631MD1410001+9999REMSYN094AAXX  13064 08027 32682 40000 10130 20086 39963 40273 54000 82018 333 20130 30005 50610 55020;EQDQ01  00002PRCP99
0133080270999992000121309004+43300-002050FM-12+025999999V0209999C000019999999N0250001N1+01261+00861102821ADDGF107991061001012501041081MA1999999099711MD1310081+9999REMSYN066AAXX  13094 08027 42675 70000 10126 20086 39971 40282 53008 86048;
0163080270999992000121312004+43300-002050FM-12+025999999V0201401N002119999999N0250001N1+01361+00931102851ADDAA199000091GF107991061001012501041081MA1999999099751MD1110041+9999REMSYN066AAXX  13124 08027 32675 71404 10136 20093 39975 40285 51004 86048;EQDQ01  00002PRCP99
0186080270999992000121318004+43300-002050FM-12+025999999V0201501N002610900019N0150001N1+01261+00951102491ADDAA199000091GF107991011001017501071071KA1999M+01441MA1999999099391MD1710121+9999REMSYN076AAXX  13184 08027 32765 71505 10126 20095 39939 40249 57012 81077 333 10144;EQDQ01  00002PRCP99
0256080270999992000121406004+43300-002050FM-12+025999999V0201701N008210360019N0300001N1+01341+00731101441ADDAA112007191AY161061AY221061GF107991031051012501041001IA1099IA2999+00409KA1120N+01041MA1999999098381MD1810572+9999MW1021REMSYN106AAXX  14064 08027 11680 71716 10134 20073 39838 40144 58057 60072 70262 83540 333 20104 31004 50360 55024;EQDQ01+000572APC3  
0181080270999992000121409004+43300-002050FM-12+025999999V0202901N008710001519N0008001N1+01121+01041101641ADDAY121031AY221031GA1091+000159999GF109991091999999999999999MA1999999098551MD1310171+9999MW1501REMSYN076AAXX  14094 08027 41/08 92917 10112 20104 39855 40164 53017 75022 333 89/00;
0178080270999992000121412004+43300-002050FM-12+025999999V0201901N003110075019N0150001N1+01041+00961101691ADDAA106001091AY151061AY221061GF108991081051008001999999MA1999999098591MD1010041+9999MW1501REMSYN078AAXX  14124 08027 11565 81906 10104 20096 39859 40169 50004 60011 75052 885//;
0201080270999992000121418004+43300-002050FM-12+025999999V0202401N006210075019N0200001N1+01061+00821101691ADDAA112003091AY161061AY251061GF108991081051008001999999KA1999M+01451MA1999999098591MD1310011+9999MW1601REMSYN088AAXX  14184 08027 11570 82412 10106 20082 39859 40169 53001 60032 76065 885// 333 10145;
0237080270999992000121506004+43300-002050FM-12+025999999V0202501N007210360019N0250001N1+00681+00401101891ADDAA112008991AY181061AY221061GF106991031051008001071001IA1099IA2999+00009KA1120N+00651MA1999999098741MD1310041+9999MW1021REMSYN106AAXX  15064 08027 11575 62514 10068 20040 39874 40189 53004 60092 70282 83570 333 20065 31000 50230 55000;
0161080270999992000121509004+43300-002050FM-12+025999999V0202601N008210120019N0300001N1+00681+00351102021ADDAY161031AY221031GF105991051081008001001001MA1999999098871MD1210131+9999MW1021REMSYN072AAXX  15094 08027 41580 52616 10068 20035 39887 40202 52013 70262 85800;
0178080270999992000121512004+43300-002050FM-12+025999999V0202801N007210120019N0300001N1+00821+00511102001ADDAA106002091AY161061AY221061GF107991051081008001071001MA1999999098871MD1010001+9999MW1021REMSYN078AAXX  15124 08027 11580 72814 10082 20051 39887 40200 50000 60021 70262 85870;
0201080270999992000121518004+43300-002050FM-12+025999999V0202501N008210042019N0200001N1+00621+00481102141ADDAA112006191AY181061AY281061GF108991081071004501999999KA1999M+00961MA1999999098981MD1010121+9999MW1251REMSYN088AAXX  15184 08027 11470 82516 10062 20048 39898 40214 50012 60062 72588 887// 333 10096;
0237080270999992000121606004+43300-002050FM-12+025999999V0202701N007710075019N0200001N1+00781+00511102211ADDAA112004191AY181061AY281061GF108991081051008001999999IA1119IA2999+00009KA1120N+00621MA1999999099061MD1310041+9999MW1801REMSYN106AAXX  16064 08027 11570 82715 10078 20051 39906 40221 53004 60042 78088 885// 333 20062 32100 50050 55024;
0161080270999992000121609004+43300-002050FM-12+025999999V0202501N004110075019N0150001N1+00761+00581102291ADDAY161031AY261031GF107991071051008001001001MA1999999099141MD1110081+9999MW1611REMSYN072AAXX  16094 08027 41565 72508 10076 20058 39914 40229 51008 76166 87500;
0178080270999992000121612004+43300-002050FM-12+025999999V0202101N002610360019N0250001N1+00921+00661102201ADDAA106000591AY161061AY261061GF107991041051012501071011MA1999999099071MD1810071+9999MW1021REMSYN078AAXX  16124 08027 11675 72105 10092 20066 39907 40220 58007 69941 70266 84571;
0173080270999992000121618004+43300-002050FM-12+025999999V0201701N001010360019N0200001N1+00871+00591102071ADDAA112000591GF105991041051012501031001KA1999M+01051MA1999999098941MD1810041+9999REMSYN082AAXX  16184 08027 12670 51702 10087 20059 39894 40207 58004 69962 84530 333 10105;
0222080270999992000121706004+43300-002050FM-12+025999999V0201601N004112200019N0300001N1+00721+00291101841ADDAA199000091GF101991011001012501041011IA1099IA2999-00109KA1120N+00721MA1999999098701MD1810081+9999REMSYN094AAXX  17064 08027 32680 11608 10072 20029 39870 40184 58008 81041 333 20072 31101 50040 55018;EQDQ01  00002PRCP99
0133080270999992000121709004+43300-002050FM-12+025999999V0201601N006212200019N0250001N1+00741+00241101841ADDGF102991011021012501001011MA1999999098701MD1510001+9999REMSYN066AAXX  17094 08027 42675 21612 10074 20024 39870 40184 55000 81201;
0163080270999992000121712004+43300-002050FM-12+025999999V0201701N006219999999N0300001N1+01101+00331101731ADDAA199000091GF105991001001999999001081MA1999999098631MD1810071+9999REMSYN066AAXX  17124 08027 32980 51712 10110 20033 39863 40173 58007 80008;EQDQ01  00002PRCP99
0186080270999992000121718004+43300-002050FM-12+025999999V0201601N009810150019N0300001N1+01001+00081101651ADDAA199000091GF108991081001017501071999KA1999M+01221MA1999999098541MD1510011+9999REMSYN076AAXX  17184 08027 32780 81619 10100 20008 39854 40165 55001 8807/ 333 10122;EQDQ01  00002PRCP99
0222080270999992000121806004+43300-002050FM-12+025999999V0201801N008210150019N0400001N1+01181+00491101551ADDAA199000091GF106991061001017501071999IA1099IA2999-00109KA1120N+00981MA1999999098471MD1710081+9999REMSYN094AAXX  18064 08027 32782 61816 10118 20049 39847 40155 57008 8607/ 333 20098 31101 50350 55055;EQDQ01  00002PRCP99
0161080270999992000121809004+43300-002050FM-12+025999999V0201501N005110120019N0350001N1+01261+00541101581ADDAY181031AY221031GF106991051051012501001081MA1999999098511MD1310041+9999MW1021REMSYN072AAXX  18094 08027 41681 61510 10126 20054 39851 40158 53004 70282 85508;
0178080270999992000121812004+43300-002050FM-12+025999999V0201901N013910360019N0400001N1+01361+00561101531ADDAA106000591AY181061AY221061GF107991021051008001071999MA1999999098471MD1810041+9999MW1031REMSYN078AAXX  18124 08027 11582 71927 10136 20056 39847 40153 58004 69951 70382 8257/;
0173080270999992000121818004+43300-002050FM-12+025999999V0201801N010810360019N0300001N1+01481+00671101641ADDAA112000591GF107991021051008001071001KA1999M+01601MA1999999098591MD1410001+9999REMSYN082AAXX  18184 08027 12580 71821 10148 20067 39859 40164 54000 69952 82570 333 10160;
0222080270999992000121906004+43300-002050FM-12+025999999V0201401N005112200019N0300001N1+01361+00461101411ADDAA199000091GF106991041001022501051011IA1019IA2999+00709KA1120N+01351MA1999999098351MD1710151+9999REMSYN094AAXX  19064 08027 32880 61410 10136 20046 39835 40141 57015 84051 333 20135 30007 50510 55017;EQDQ01  00002PRCP99
0133080270999992000121909004+43300-002050FM-12+025999999V0201501N008710360019N0300001N1+01481+00351101431ADDGF108991011051008001071999MA1999999098381MD1310031+9999REMSYN066AAXX  19094 08027 42580 81517 10148 20035 39838 40143 53003 8157/;
0163080270999992000121912004+43300-002050FM-12+025999999V0201601N011810210019N0300001N1+01501+00321101351ADDAA199000091GF108991061001022501071071MA1999999098311MD1810071+9999REMSYN066AAXX  19124 08027 32880 81623 10150 20032 39831 40135 58007 86077;EQDQ01  00002PRCP99
0186080270999992000121918004+43300-002050FM-12+025999999V0201601N007210360019N0400001N1+01401+00051101271ADDAA199000091GF108991021051008001071001KA1999M+01621MA1999999098221MD1010001+9999REMSYN076AAXX  19184 08027 32582 81614 10140 20005 39822 40127 50000 82570 333 10162;EQDQ01  00002PRCP99
0222080270999992000122006004+43300-002050FM-12+025999999V0201601N007212200019N0400001N1+01181+00221101021ADDAA199000091GF104991021051008001071001IA1019IA2999+00509KA1120N+01161MA1999999097951MD1710071+9999REMSYN094AAXX  20064 08027 32582 41614 10118 20022 39795 40102 57007 82570 333 20116 30005 50400 55002;EQDQ01  00002PRCP99
0133080270999992000122009004+43300-002050FM-12+025999999V0201801N010812200019N0350001N1+01141+00391100981ADDGF104991011001008001011081MA1999999097911MD1610041+9999REMSYN066AAXX  20094 08027 42581 41821 10114 20039 39791 40098 56004 81018;
0163080270999992000122012004+43300-002050FM-12+025999999V0201601N012912200019N0350001N1+01381+00381100901ADDAA199000091GF103991001001999999001081MA1999999097861MD1510051+9999REMSYN066AAXX  20124 08027 32981 31625 10138 20038 39786 40090 55005 80008;EQDQ01  00002PRCP99
0186080270999992000122018004+43300-002050FM-12+025999999V0201501N010812200019N0350001N1+01121+00251100861ADDAA199000091GF102991001001999999001081KA1999M+01421MA1999999097791MD1010041+9999REMSYN076AAXX  20184 08027 32981 21521 10112 20025 39779 40086 50004 80008 333 10142;EQDQ01  00002PRCP99
0232080270999992000122106004+43300-002050FM-12+025999999V0201501N012912200019N0400001N1+01141+00441100771ADDAA199000091GA1001+999999999GF100991001001999999001001IA1019IA2999+00509KA1120N+01121MA1999999097711MD1710101+9999REMSYN088AAXX  21064 08027 32982 01525 10114 20044 39771 40077 57010 333 20112 30005 50320 55044;EQDQ01  00002PRCP99
0133080270999992000122109004+43300-002050FM-12+025999999V0201601N010812200019N0400001N1+01181+00491100851ADDGF101991011051004501001001MA1999999097791MD1310081+9999REMSYN066AAXX  21094 08027 42482 11621 10118 20049 39779 40085 53008 81500;
0163080270999992000122112004+43300-002050FM-12+025999999V0201601N010812200019N0400001N1+01281+00471100761ADDAA199000091GF102991021051004501001001MA1999999097711MD1810081+9999REMSYN066AAXX  21124 08027 32482 21621 10128 20047 39771 40076 58008 82500;EQDQ01  00002PRCP99
0186080270999992000122118004+43300-002050FM-12+025999999V0201501N009812200019N0180001N1+01321+00411100621ADDAA199000091GF102991021011008001001001KA1999M+01401MA1999999097581MD1710041+9999REMSYN076AAXX  21184 08027 32568 21519 10132 20041 39758 40062 57004 82100 333 10140;EQDQ01  00002PRCP99
0222080270999992000122206004+43300-002050FM-12+025999999V0201601N014910075019N0350001N1+01341+00491100091ADDAA199000091GF106991061011008001001001IA1019IA2999+00509KA1120N+01321MA1999999097071MD1710161+9999REMSYN094AAXX  22064 08027 32581 61629 10134 20049 39707 40009 57016 86100 333 20132 30005 50580 55074;EQDQ01  00002PRCP99
0133080270999992000122209004+43300-002050FM-12+025999999V0201501N014910075019N0250001N1+01381+00441100091ADDGF107991061051008001071999MA1999999097071MD1510001+9999REMSYN066AAXX  22094 08027 42575 71529 10138 20044 39707 40009 55000 8657/;
0163080270999992000122212004+43300-002050FM-12+025999999V0201601N013910075019N0350001N1+01441+00421099961ADDAA199000091GF107991061051008001071999MA1999999096951MD1710121+9999REMSYN066AAXX  22124 08027 32581 71627 10144 20042 39695 49996 57012 8657/;EQDQ01  00002PRCP99
0209080270999992000122218004+43300-002050FM-12+025999999V0201601N017010360019N0300001N1+01461+00391099861ADDAA199000091GF108991011051008001041999KA1120M+01531MA1999999096861MD1710051+9999OA149902781REMSYN088AAXX  22184 08027 32580 81633 10146 20039 39686 49986 57005 8154/ 333 10153 91154 91515;EQDQ01  00002PRCP99
0222080270999992000122306004+43300-002050FM-12+025999999V0201601N008210360019N0300001N1+01121+00421100191ADDAA199000091GF108991011051008001041999IA1019IA2999+00509KA1120N+01121MA1999999097141MD1510011+9999REMSYN094AAXX  23064 08027 32580 81616 10112 20042 39714 40019 55001 8154/ 333 20112 30005 50450 55000;EQDQ01  00002PRCP99
0161080270999992000122309004+43300-002050FM-12+025999999V0201601N008710360019N0250001N1+00981+00601100291ADDAY161031AY261031GF107991011051008001071001MA1999999097231MD1210091+9999MW1611REMSYN072AAXX  23094 08027 41575 71617 10098 20060 39723 40029 52009 76166 81570;
0178080270999992000122312004+43300-002050FM-12+025999999V0201701N009810360019N0350001N1+01121+00471100241ADDAA106002091AY161061AY261061GF106991031081012501031011MA1999999097191MD1810041+9999MW1021REMSYN078AAXX  23124 08027 11681 61719 10112 20047 39719 40024 58004 60021 70266 83831;
0173080270999992000122318004+43300-002050FM-12+025999999V0201601N012912200019N0350001N1+01181+00421100031ADDAA112002091GF101991011051008001001011KA1999M+01341MA1999999096991MD1810081+9999REMSYN082AAXX  23184 08027 12581 11625 10118 20042 39699 40003 58008 60022 81501 333 10134;
0253080270999992000122406004+43300-002050FM-12+025999999V0201501N012910360019N0300001N1+01181+00451099491ADDAA199000091GF106991021051012501041001GJ102229IA1019IA2999+00509KA1120N+01141MA1999999096471MD1710231+9999OA149902831REMSYN106AAXX  24064 08027 32680 61525 10118 20045 39647 49949 57023 82540 333 20114 30005 50260 55037 91155 91516;EQDQ01  00002PRCP99
0160080270999992000122409004+43300-002050FM-12+025999999V0201601N013910900019N0250001N1+01221+00551099431ADDGF105991011021012501041011MA1999999096421MD1810051+9999OA149902681REMSYN082AAXX  24094 08027 42675 51627 10122 20055 39642 49943 58005 81241 333 91152 91516;
0190080270999992000122412004+43300-002050FM-12+025999999V0201501N013410900019N0300001N1+01381+00551099301ADDAA199000091GF105991011021012501041021MA1999999096311MD1810111+9999OA149902681REMSYN082AAXX  24124 08027 32680 51526 10138 20055 39631 49930 58011 81242 333 91152 91516;EQDQ01  00002PRCP99
0186080270999992000122418004+43300-002050FM-12+025999999V0201601N005110360019N0400001N1+01261+00451099281ADDAA199000091GF107991021011008001071999KA1999M+01381MA1999999096271MD1310091+9999REMSYN076AAXX  24184 08027 32582 71610 10126 20045 39627 49928 53009 8217/ 333 10138;EQDQ01  00002PRCP99
0222080270999992000122506004+43300-002050FM-12+025999999V0201901N004110150019N0400001N1+01001+00381099471ADDAA199000091GF106991061001017501041001IA1019IA2999+00309KA1120N+01001MA1999999096431MD1210041+9999REMSYN094AAXX  25064 08027 32782 61908 10100 20038 39643 49947 52004 86040 333 20100 30003 50340 55032;EQDQ01  00002PRCP99
0133080270999992000122509004+43300-002050FM-12+025999999V0201701N005112200019N0400001N1+01021+00351099551ADDGF101991011021008001001001MA1999999096511MD1210081+9999REMSYN066AAXX  25094 08027 42582 11710 10102 20035 39651 49955 52008 81200;
0163080270999992000122512004+43300-002050FM-12+025999999V0201901N005112200019N0400001N1+01261+00451099561ADDAA199000091GF102991021011008001001001MA1999999096551MD1010041+9999REMSYN066AAXX  25124 08027 32582 21910 10126 20045 39655 49956 50004 82100;EQDQ01  00002PRCP99
0186080270999992000122518004+43300-002050FM-12+025999999V0201701N008210360019N0400001N1+01181+00291099321ADDAA199000091GF108991011041008001071999KA1999M+01381MA1999999096301MD1810161+9999REMSYN076AAXX  25184 08027 32582 81716 10118 20029 39630 49932 58016 8147/ 333 10138;EQDQ01  00002PRCP99
0222080270999992000122606004+43300-002050FM-12+025999999V0201901N008212200019N0400001N1+01141+00231098911ADDAA199000091GF104991011011008001041001IA1019IA2999+00309KA1120N+01141MA1999999095901MD1810011+9999REMSYN094AAXX  26064 08027 32582 41916 10114 20023 39590 49891 58001 81140 333 20114 30003 50300 55054;EQDQ01  00002PRCP99
0133080270999992000122609004+43300-002050FM-12+025999999V0201901N008712200019N0400001N1+01141+00121098881ADDGF104991011011008001051001MA1999999095871MD1710031+9999REMSYN066AAXX  26094 08027 42582 41917 10114 20012 39587 49888 57003 81150;
0163080270999992000122612004+43300-002050FM-12+025999999V0202201N011812200019N0400001N1+01341+00041098771ADDAA199000091GF102991011011008001041001MA1999999095791MD1710081+9999REMSYN066AAXX  26124 08027 32582 22223 10134 20004 39579 49877 57008 81140;EQDQ01  00002PRCP99
0186080270999992000122618004+43300-002050FM-12+025999999V0201801N011810360019N0300001N1+01261+00111098741ADDAA199000091GF105991021081008001041001KA1999M+01421MA1999999095751MD1310041+9999REMSYN076AAXX  26184 08027 32580 51823 10126 20011 39575 49874 53004 82840 333 10142;EQDQ01  00002PRCP99
0222080270999992000122706004+43300-002050FM-12+025999999V0202101N008712200019N0300001N1+00921+00171099021ADDAA199000091GF104991011051008001041011IA1019IA2999+00209KA1120N+00901MA1999999095991MD1210081+9999REMSYN094AAXX  27064 08027 32580 42117 10092 20017 39599 49902 52008 81541 333 20090 30002 50300 55071;EQDQ01  00002PRCP99
0133080270999992000122709004+43300-002050FM-12+025999999V0201801N004110360019N0300001N1+00901+00311099191ADDGF106991041051008001071001MA1999999096151MD1210161+9999REMSYN066AAXX  27094 08027 42580 61808 10090 20031 39615 49919 52016 84570;
0163080270999992000122712004+43300-002050FM-12+025999999V0202201N006210360019N0300001N1+01141+00341099241ADDAA199000091GF106991041081008001041001MA1999999096221MD1010071+9999REMSYN066AAXX  27124 08027 32580 62212 10114 20034 39622 49924 50007 84840;EQDQ01  00002PRCP99
0201080270999992000122718004+43300-002050FM-12+025999999V0202401N008210075019N0300001N1+00701+00481099711ADDAA112001091AY181061AY221061GF108991081071008001999999KA1999M+01261MA1999999096631MD1210361+9999MW1251REMSYN088AAXX  27184 08027 11580 82416 10070 20048 39663 49971 52036 60012 72582 887// 333 10126;
0237080270999992000122806004+43300-002050FM-12+025999999V0202201N004110120019N0350001N1+00521+00121100751ADDAA112006191AY181061AY221061GF106991061081008001001001IA1099IA2999-00209KA1120N+00521MA1999999097621MD1810081+9999MW1021REMSYN106AAXX  28064 08027 11581 62208 10052 20012 39762 40075 58008 60062 70282 86800 333 20052 31102 50140 55035;
0133080270999992000122809004+43300-002050FM-12+025999999V0201601N008210360019N0300001N1+00461+00211100521ADDGF107991011051008001071081MA1999999097391MD1810231+9999REMSYN066AAXX  28094 08027 42580 71616 10046 20021 39739 40052 58023 81578;
0178080270999992000122812004+43300-002050FM-12+025999999V0201701N011810120019N0350001N1+00561+00171100001ADDAA106000791AY161061AY221061GF106991061081008001001001MA1999999096901MD1810491+9999MW1021REMSYN078AAXX  28124 08027 11581 61723 10056 20017 39690 40000 58049 69901 70262 86800;
0169080270999992000122818004+43300-002050FM-12+025999999V0202201N009810120019N0300001N1+01161+00321099162ADDAA112000791GF105991051081008001001001MA1999999096151MD1610081+9999REMSYN072AAXX  28184 08027 11580 52219 10116 20032 39615 49916 56008 69902 85800;EQDQ01+099163APOSLP
0237080270999992000122906004+43300-002050FM-12+025999999V0202901N008210042019N0150001N1+00681+00591100781ADDAA112016091AY181061AY221061GF108991081071004501999999IA1119IA2999+00009KA1120N+00601MA1999999097671MD1210401+9999MW1811REMSYN106AAXX  29064 08027 11465 82916 10068 20059 39767 40078 52040 60162 78182 887// 333 20060 32000 50060 55011;
0161080270999992000122909004+43300-002050FM-12+025999999V0202601N008210042019N0150001N1+00721+00541100981ADDAY181031AY221031GF108991081071004501999999MA1999999097871MD1210201+9999MW1021REMSYN072AAXX  29094 08027 41465 82616 10072 20054 39787 40098 52020 70282 887//;
0178080270999992000122912004+43300-002050FM-12+025999999V0202601N008210042019N0150001N1+00741+00561101141ADDAA106007191AY181061AY261061GF108991081071004501999999MA1999999098021MD1110151+9999MW1801REMSYN078AAXX  29124 08027 11465 82616 10074 20056 39802 40114 51015 60071 78086 887//;
0201080270999992000122918004+43300-002050FM-12+025999999V0201501N003110120019N0300001N1+00681+00551100901ADDAA112014091AY181061AY261061GF108991051081008001071999KA1999M+00801MA1999999097781MD1710161+9999MW1021REMSYN088AAXX  29184 08027 11580 81506 10068 20055 39778 40090 57016 60142 70286 8587/ 333 10080;
0237080270999992000123006004+43300-002050FM-12+025999999V0202601N010810075019N0300001N1+00841+00411099651ADDAA112006191AY181061AY281061GF108991061051008001071999IA1119IA2999+00109KA1120N+00661MA1999999096591MD1610321+9999MW1251REMSYN106AAXX  30064 08027 11580 82621 10084 20041 39659 49965 56032 60062 72588 8657/ 333 20066 32001 50300 55005;
0188080270999992000123009004+43300-002050FM-12+025999999V0202601N014910042019N0080001N1+00561+00471100171ADDAY181031AY281031GF108991081071004501999999MA1999999097061MD1310471+9999MW1251OA149903091REMSYN088AAXX  30094 08027 41458 82629 10056 20047 39706 40017 53047 72588 887// 333 91160 91536;
0205080270999992000123012004+43300-002050FM-12+025999999V0203501N011810075019N0200001N1+00681+00251100981ADDAA106002091AY181061AY281061GF106991051021008001031011MA1999999097861MD1210801+9999MW1251OA149903091REMSYN094AAXX  30124 08027 11570 63523 10068 20025 39786 40098 52080 60021 72588 85231 333 91160 91536;
0173080270999992000123018004+43300-002050FM-12+025999999V0203601N008212200019N0300001N1+00621-00121101741ADDAA112002091GF104991021021008001031001KA1999M+00911MA1999999098591MD1210291+9999REMSYN082AAXX  30184 08027 12580 43616 10062 21012 39859 40174 52029 60022 82230 333 10091;
0222080270999992000123106004+43300-002050FM-12+025999999V0201601N005112200019N0250001N1+00261-00131101901ADDAA199000091GF102991011051008001031001IA1099IA2999-00509KA1120N+00241MA1999999098701MD1810121+9999REMSYN094AAXX  31064 08027 32575 21610 10026 21013 39870 40190 58012 81530 333 20024 31105 50270 55012;EQDQ01  00002PRCP99
0133080270999992000123109004+43300-002050FM-12+025999999V0201701N008212200019N0300001N1+00481-00381101581ADDGF104991021001022501031011MA1999999098421MD1710281+9999REMSYN066AAXX  31094 08027 42880 41716 10048 21038 39842 40158 57028 82031;
0163080270999992000123112004+43300-002050FM-12+025999999V0201601N011812200019N0300001N1+00901+00071101211ADDAA199000091GF106991041001022501051011MA1999999098111MD1710311+9999REMSYN066AAXX  31124 08027 32880 61623 10090 20007 39811 40121 57031 84051;EQDQ01  00002PRCP99
0186080270999992000123118004+43300-002050FM-12+025999999V0201701N015910360019N0200001N1+01081+00471100781ADDAA199000091GF108991031051008001071999KA1999M+01151MA1999999097711MD1710121+9999REMSYN076AAXX  31184 08027 32570 81731 10108 20047 39771 40078 57012 8357/ 333 10115;EQDQ01  00002PRCP99
