0237118410999992000010100004+49230+018620FM-12+031599999V0209999C000010012019N0022001N1-00761-00811102731ADDAA106000091AY141061AY221061GA1081+001209079GF108991081061001501999999GJ100489MA1999999098721MD1110021+9999MW1101REMSYN094AAXX  01001 11841 31222 80000 11076 21081 39872 40273 51002 71042 886// 333 55008 88704 93501;EQDQ01  00002PRCP06
0101118410999992000010103004+49230+018620FM-12+031599999V0209999C000019999999N9999999N1-00761-00831102801ADDMA1999999098791MD1210081+9999REMSYN060AAXX  01031 11841 46/// /0000 11076 21083 39879 40280 52008;
0289118410999992000010106004+49230+018620FM-12+031599999V0209999C000010009019N0028001N1-00771-00841102871ADDAA106000091AJ100219199999999AY121061AY221061GA1081+000909079GF108991081061001501999999IA1279IA2999-01609KA1120N-01241MA1999999098851MD1310061+9999MW1101REMSYN106AAXX  01061 11841 31228 80000 11077 21084 39885 40287 53006 71022 886// 333 21124 3/116 43021 88703 93501;EQDQ01  00002PRCP06
0193118410999992000010109004+49230+018620FM-12+031599999V0200801N001010012019N0020001N1-00791-00871102901ADDAY121031AY221031GA1081+001209079GF108991081061001501999999MA1999999098881MD1110031+9999MW1101REMSYN088AAXX  01091 11841 41220 80801 11079 21087 39888 40290 51003 71022 886// 333 88704 93501;
0217118410999992000010112004+49230+018620FM-12+031599999V0200901N001012200019N0050001N1-00621-00861102731ADDAA106000091AY111061AY211061GA1031+051009019GF103991001001999999001021MA1999999098741MD1710141+9999MW1101REMSYN082AAXX  01121 11841 31950 30901 11062 21086 39874 40273 57014 71011 80002 333 83067;EQDQ01  00002PRCP06
0193118410999992000010115004+49230+018620FM-12+031599999V0201001N00201090001CN0024001N1-00621-00731102691ADDAY111031AY211031GA1041+015009069GF107991041051017501001061MA1999999098701MD1610041+9999MW1101REMSYN088AAXX  01151 11841 41724 71002 11062 21073 39870 40269 56004 71011 84506 333 84650 86265;
0242118410999992000010118004+49230+018620FM-12+031599999V0200901N00101007501CN0035001N1-00701-00781102691ADDAA106000091AY111061AY211061GA1021+006309069GF107991071051008001999999KA1120M-00551MA1999999098691MD1610011+9999MW1101REMSYN094AAXX  01181 11841 31535 70901 11070 21078 39869 40269 56001 71011 875// 333 11055 82621 87650;EQDQ01  00002PRCP06
0187118410999992000010121004+49230+018620FM-12+031599999V0200701N002010090019N0032001N1-00631-00741102651ADDAY121031AY221031GA1081+009009059GF108991081051008001999999MA1999999098661MD1810031+9999MW1101REMSYN082AAXX  01211 11841 41532 80702 11063 21074 39866 40265 58003 71022 885// 333 88630;
0231118410999992000010200004+49230+018620FM-12+031599999V0200801N002010090019N0026001N1-00571-00681102641ADDAA106000091AY121061AY221061GA1081+009009059GF108991081051008001999999GJ100789MA1999999098661MD1510001+9999MW1101REMSYN088AAXX  02001 11841 31526 80802 11057 21068 39866 40264 55000 71022 885// 333 55013 88630;EQDQ01  00002PRCP06
0206118410999992000010203004+49230+018620FM-12+031599999V0201101N001012200019N0028001N1-00721-00831102711ADDAY111031AY211031GA1021+015009059GF102991021051017501999001MA1999999098711MD1110051+9999MW1101REMSYN082AAXX  02031 11841 41728 21101 11072 21083 39871 40271 51005 71011 82500 333 82650;EQDQ01    003SCOMCG
0276118410999992000010206004+49230+018620FM-12+031599999V0200801N00201007501CN0028001N1-00691-00781102851ADDAA112000791AJ100219199999999AY171061AY221061GA1041+008409069GF108991081051008001999999IA1279IA2999-01209KA1120N-00901MA1999999098851MD1310141+9999MW1101REMSYN112AAXX  02061 11841 11528 80802 11069 21078 39885 40285 53014 69902 71072 885// 333 21090 3/112 43021 84628 88633;
0187118410999992000010209004+49230+018620FM-12+031599999V0209999C000010066019N0048001N1-00521-00691103021ADDAY121031AY221031GA1081+006609059GF108991081051008001999999MA1999999099041MD1210191+9999MW1101REMSYN082AAXX  02091 11841 41548 80000 11052 21069 39904 40302 52019 71022 885// 333 88622;
0217118410999992000010212004+49230+018620FM-12+031599999V0209999C000010048019N0050001N1-00361-00611103031ADDAA106000091AY121061AY221061GA1081+004809059GF108991081051004501999999MA1999999099071MD1210031+9999MW1101REMSYN082AAXX  02121 11841 31450 80000 11036 21061 39907 40303 52003 71022 885// 333 88616;EQDQ01  00002PRCP06
0187118410999992000010215004+49230+018620FM-12+031599999V0209999C000010045019N0045001N1-00341-00561103061ADDAY121031AY221031GA1081+004509069GF108991081061004501999999MA1999999099101MD1310031+9999MW1101REMSYN082AAXX  02151 11841 41445 80000 11034 21056 39910 40306 53003 71022 886// 333 88715;
0236118410999992000010218004+49230+018620FM-12+031599999V0209999C000010045019N0037001N1-00361-00471103141ADDAA106000091AY121061AY221061GA1081+004509069GF108991081061004501999999KA1120M-00301MA1999999099171MD1110071+9999MW1101REMSYN088AAXX  02181 11841 31437 80000 11036 21047 39917 40314 51007 71022 886// 333 11030 88715;EQDQ01  00002PRCP06
0187118410999992000010221004+49230+018620FM-12+031599999V0209999C000010024019N0035001N1-00361-00411103141ADDAY171031AY221031GA1081+002409069GF108991081061002501999999MA1999999099171MD1010001+9999MW1221REMSYN082AAXX  02211 11841 41335 80000 11036 21041 39917 40314 50000 72272 886// 333 88708;
0218118410999992000010300004+49230+018620FM-12+031599999V0209999C000010024019N0032001N1-00351-00401103111ADDAA106000791AY171061AY221061GA1081+002409069GF108991081061002501999999GJ100009MA1999999099151MD1810021+9999MW1101REMSYN094AAXX  03001 11841 11332 80000 11035 21040 39915 40311 58002 69901 71072 886// 333 55000 88708;
0270118410999992000010306004+49230+018620FM-12+031599999V0202701N003010015019N0060001N1-00251-00321102901ADDAA112000791AJ100219199999999AY121061AY221061GA1081+001509069GF108991081061001501999999IA1279IA2999-00409KA1120N-00371MA1999999098961MD1610071+9999MW1101REMSYN106AAXX  03061 11841 11256 82703 11025 21032 39896 40290 56007 69902 71022 886// 333 21037 3/104 43021 88705;
0187118410999992000010309004+49230+018620FM-12+031599999V0202601N003010012019N0020001N1-00221-00291102961ADDAY171031AY221031GA1081+001209069GF108991081071001501999999MA1999999099021MD1110061+9999MW1711REMSYN082AAXX  03091 11841 41220 82603 11022 21029 39902 40296 51006 77172 887// 333 88704;
0204118410999992000010312004+49230+018620FM-12+031599999V0202701N004010024019N0025001N1-00141-00211102771ADDAA106000791AY171061AY221061GA1081+002409069GF108991081071002501999999MA1999999098851MD1710171+9999MW1221REMSYN088AAXX  03121 11841 11325 82704 11014 21021 39885 40277 57017 69901 72272 887// 333 88708;
0187118410999992000010315004+49230+018620FM-12+031599999V0202601N001010018019N0020001N1-00151-00221102711ADDAY121031AY221031GA1081+001809069GF108991081061001501999999MA1999999098791MD1710061+9999MW1101REMSYN082AAXX  03151 11841 41220 82601 11015 21022 39879 40271 57006 71022 886// 333 88706;
0223118410999992000010318004+49230+018620FM-12+031599999V0202601N002010021019N0030001N1-00171-00221102651ADDAA112000791AY121061AY221061GA1081+002109069GF108991081061002501999999KA1120M-00131MA1999999098731MD1810061+9999MW1101REMSYN094AAXX  03181 11841 11330 82602 11017 21022 39873 40265 58006 69902 71022 886// 333 11013 88707;
0187118410999992000010321004+49230+018620FM-12+031599999V0202601N002010012019N0022001N1-00171-00201102601ADDAY121031AY221031GA1081+001209069GF108991081061001501999999MA1999999098681MD1610051+9999MW1101REMSYN082AAXX  03211 11841 41222 82602 11017 21020 39868 40260 56005 71022 886// 333 88704;
0231118410999992000010400004+49230+018620FM-12+031599999V0202801N002010015019N0022001N1-00171-00211102541ADDAA106000091AY121061AY221061GA1081+001509069GF108991081061001501999999GJ100009MA1999999098631MD1610051+9999MW1101REMSYN088AAXX  04001 11841 31222 82802 11017 21021 39863 40254 56005 71022 886// 333 55000 88705;EQDQ01  00002PRCP06
0187118410999992000010403004+49230+018620FM-12+031599999V0209999C000010021019N0028001N1-00191-00241102481ADDAY171031AY221031GA1081+002109069GF108991081071002501999999MA1999999098571MD1610061+9999MW1701REMSYN082AAXX  04031 11841 41328 80000 11019 21024 39857 40248 56006 77072 887// 333 88707;
0270118410999992000010406004+49230+018620FM-12+031599999V0202901N001010024019N0035001N1-00181-00251102451ADDAA112000791AJ100219199999999AY171061AY221061GA1081+002409069GF108991081061002501999999IA1239IA2999-00209KA1120N-00201MA1999999098541MD1610031+9999MW1101REMSYN106AAXX  04061 11841 11335 82901 11018 21025 39854 40245 56003 69902 71072 886// 333 21020 3/102 47021 88708;
0101118410999992000010409004+49230+018620FM-12+031599999V0202801N002019999999N9999999N1-00101-00241102491ADDMA1999999098591MD1210051+9999REMSYN060AAXX  04091 11841 46/// /2802 11010 21024 39859 40249 52005;
0217118410999992000010412004+49230+018620FM-12+031599999V0202801N002010018019N0040001N1-00071-00181102361ADDAA106000091AY121061AY221061GA1081+001809069GF108991081061002501999999MA1999999098471MD1610131+9999MW1101REMSYN082AAXX  04121 11841 31340 82802 11007 21018 39847 40236 56013 71022 886// 333 88706;EQDQ01  00002PRCP06
0187118410999992000010415004+49230+018620FM-12+031599999V0202901N002010012019N0017001N1-00061-00121102371ADDAY121031AY221031GA1081+001209069GF108991081071001501999999MA1999999098481MD1310011+9999MW1101REMSYN082AAXX  04151 11841 41217 82902 11006 21012 39848 40237 53001 71022 887// 333 88704;
0236118410999992000010418004+49230+018620FM-12+031599999V0202601N002010030019N0050001N1-00111-00191102381ADDAA106000091AY121061AY221061GA1081+003009069GF108991081061004501999999KA1120M-00041MA1999999098481MD1510001+9999MW1101REMSYN088AAXX  04181 11841 31450 82602 11011 21019 39848 40238 55000 71022 886// 333 11004 88710;EQDQ01  00002PRCP06
0101118410999992000010421004+49230+018620FM-12+031599999V0202701N002019999999N9999999N1-00111-00191102301ADDMA1999999098411MD1710061+9999REMSYN060AAXX  04211 11841 46/// /2702 11011 21019 39841 40230 57006;
0231118410999992000010500004+49230+018620FM-12+031599999V0202501N002010015019N0012001N1-00121-00161102211ADDAA106000091AY121061AY221061GA1081+001509069GF108991081061001501999999GJ100009MA1999999098321MD1610091+9999MW1101REMSYN088AAXX  05001 11841 31212 82502 11012 21016 39832 40221 56009 71022 886// 333 55000 88705;EQDQ01  00002PRCP06
0187118410999992000010503004+49230+018620FM-12+031599999V0202501N001010018019N0012001N1-00131-00201102091ADDAY171031AY221031GA1081+001809069GF108991081071002501999999MA1999999098201MD1610121+9999MW1701REMSYN082AAXX  05031 11841 41312 82501 11013 21020 39820 40209 56012 77072 887// 333 88706;
0270118410999992000010506004+49230+018620FM-12+031599999V0202701N002010018019N0012001N1-00161-00231102131ADDAA112000391AJ100219199999999AY171061AY221061GA1081+001809069GF108991081071002501999999IA1239IA2999-00209KA1120N-00161MA1999999098231MD1110031+9999MW1701REMSYN106AAXX  05061 11841 11312 82702 11016 21023 39823 40213 51003 69932 77072 887// 333 21016 3/102 47021 88706;
0187118410999992000010509004+49230+018620FM-12+031599999V0202801N001010027019N0040001N1-00121-00221102201ADDAY171031AY221031GA1081+002709069GF108991081071002501999999MA1999999098311MD1210081+9999MW1701REMSYN082AAXX  05091 11841 41340 82801 11012 21022 39831 40220 52008 77072 887// 333 88709;
0204118410999992000010512004+49230+018620FM-12+031599999V0202601N004010027019N0035001N1-00041-00151102201ADDAA106000791AY171061AY221061GA1081+002709069GF108991081071002501999999MA1999999098321MD1010011+9999MW1701REMSYN088AAXX  05121 11841 11335 82604 11004 21015 39832 40220 50001 69901 77072 887// 333 88709;
0187118410999992000010515004+49230+018620FM-12+031599999V0202401N002012200019N0028001N1-00201-00301102351ADDAY171031AY211031GA1031+009309029GF103991031011008001001001MA1999999098441MD1310121+9999MW1101REMSYN082AAXX  05151 11841 41528 32402 11020 21030 39844 40235 53012 71071 83100 333 83831;
0217118410999992000010518004+49230+018620FM-12+031599999V0201301N001010006019N0002001N1-00351-00361102531ADDAA112000791AY171061AY211061GA1091+000609999GF109991091999999999999999KA1120M+00111MA1999999098591MD1210151+9999MW1451REMSYN088AAXX  05181 11841 11/02 91301 11035 21036 39859 40253 52015 69902 74571 333 10011 89/02;
0187118410999992000010521004+49230+018620FM-12+031599999V0209999C000010003019N0002001N1-00491-00501102691ADDAY141031AY241031GA1091+000309999GF109991091999999999999999MA1999999098721MD1110131+9999MW1451REMSYN082AAXX  05211 11841 41/02 90000 11049 21050 39872 40269 51013 74544 333 89/01 93501;
0187118410999992000010603004+49230+018620FM-12+031599999V0209999C000010003019N0002001N1-00641-00681102761ADDAY141031AY241031GA1091+000309999GF109991091999999999999999MA1999999098771MD1010021+9999MW1471REMSYN082AAXX  06031 11841 41/02 90000 11064 21068 39877 40276 50002 74744 333 89/01 93502;
0289118410999992000010606004+49230+018620FM-12+031599999V0209999C000010003019N0010001N1-00711-00761102821ADDAA106000091AJ100219199999999AY141061AY221061GA1081+000309079GF108991081061000251999999IA1239IA2999-00809KA1120N-00711MA1999999098811MD1310041+9999MW1281REMSYN106AAXX  06061 11841 31010 80000 11071 21076 39881 40282 53004 72842 886// 333 21071 3/108 47021 88701 93502;EQDQ01  00002PRCP06
0193118410999992000010609004+49230+018620FM-12+031599999V0209999C000010006019N0008001N1-00621-00691102791ADDAY141031AY221031GA1051+000609079GF105991051061000751001001MA1999999098801MD1810011+9999MW1421REMSYN088AAXX  06091 11841 41108 50000 11062 21069 39880 40279 58001 74242 85600 333 85702 93503;
0201118410999992000010612004+49230+018620FM-12+031599999V0209999C000012200019N0030001N1-00291-00361102681ADDAA106000091AY141061AY211061GA1001+999999999GF100991001001999999001001MA1999999098741MD1710061+9999MW1101REMSYN066AAXX  06121 11841 31930 00000 11029 21036 39874 40268 57006 71041;EQDQ01  00002PRCP06
0193118410999992000010615004+49230+018620FM-12+031599999V0201001N001012200019N0048001N1-00391-00471102681ADDAY101031AY201031GA1011+060009009GF101991001001999999001011MA1999999098731MD1510011+9999MW1101REMSYN088AAXX  06151 11841 41948 11001 11039 21047 39873 40268 55001 71000 80001 333 81070 93503;
0230118410999992000010618004+49230+018620FM-12+031599999V0209999C000012200019N0012001N1-00961-01011102801ADDAA106000091AY101061AY201061GA1001+999999999GF100991001001999999001001KA1120M-00251MA1999999098761MD1310031+9999MW1101REMSYN082AAXX  06181 11841 31912 00000 11096 21101 39876 40280 53003 71000 333 11025 93503;EQDQ01  00002PRCP06
0193118410999992000010621004+49230+018620FM-12+031599999V0209999C000010001519N0006001N1-00791-00831102801ADDAY141031AY211031GA1081+000159079GF108991081061000251999999MA1999999098781MD1210021+9999MW1441REMSYN088AAXX  06211 11841 41006 80000 11079 21083 39878 40280 52002 74441 886// 333 88700 93503;
0231118410999992000010700004+49230+018620FM-12+031599999V0209999C000010003019N0006001N1-00761-00801102821ADDAA106000091AY141061AY211061GA1091+000309999GF109991091999999999999999GJ102349MA1999999098811MD1110031+9999MW1431REMSYN088AAXX  07001 11841 31/06 90000 11076 21080 39881 40282 51003 74341 333 55039 89/01 93504;EQDQ01  00002PRCP06
0311118410999992000010706004+49230+018620FM-12+031599999V0209999C000010096019N0025001N1-00751-00801102921ADDAA106000091AJ100219199999999AY141061AY221061GA1021+000609079GA2061+009609069GF107991071051000751001001IA1239IA2999-01409KA1120N-01011MA1999999098901MD1010031+9999MW1101REMSYN112AAXX  07061 11841 31125 70000 11075 21080 39890 40292 50003 71042 87500 333 21101 3/114 47021 82702 86632 93505;EQDQ01  00002PRCP06
0193118410999992000010709004+49230+018620FM-12+031599999V0209999C000010066019N0022001N1-00651-00721102991ADDAY121031AY221031GA1081+006609069GF108991081051008001999999MA1999999098991MD1210091+9999MW1101REMSYN088AAXX  07091 11841 41522 80000 11065 21072 39899 40299 52009 71022 885// 333 88622 93507;
0131118410999992000010712004+49230+018620FM-12+031599999V0202801N001019999999N9999999N1-00481-00541102931ADDAA106000091MA1999999098961MD1710021+9999REMSYN060AAXX  07121 11841 36/// /2801 11048 21054 39896 40293 57002;EQDQ01  00002PRCP06
0193118410999992000010715004+49230+018620FM-12+031599999V0209999C000010036019N0015001N1-00391-00431102981ADDAY121031AY221031GA1081+003609079GF108991081061004501999999MA1999999099021MD1210061+9999MW1101REMSYN088AAXX  07151 11841 41415 80000 11039 21043 39902 40298 52006 71022 886// 333 88712 93506;
0242118410999992000010718004+49230+018620FM-12+031599999V0209999C000010021019N0023001N1-00361-00401102971ADDAA106000091AY121061AY221061GA1081+002109079GF108991081061002501999999KA1120M-00361MA1999999099011MD1510011+9999MW1101REMSYN094AAXX  07181 11841 31323 80000 11036 21040 39901 40297 55001 71022 886// 333 11036 88707 93506;EQDQ01  00002PRCP06
0193118410999992000010721004+49230+018620FM-12+031599999V0209999C000010027019N0025001N1-00351-00401103011ADDAY121031AY221031GA1081+002709079GF108991081061002501999999MA1999999099051MD1110041+9999MW1101REMSYN088AAXX  07211 11841 41325 80000 11035 21040 39905 40301 51004 71022 886// 333 88709 93506;
0237118410999992000010800004+49230+018620FM-12+031599999V0202701N001010024019N0028001N1-00351-00401102951ADDAA106000091AY121061AY221061GA1081+002409079GF108991081061002501999999GJ100009MA1999999098991MD1710061+9999MW1101REMSYN094AAXX  08001 11841 31328 82701 11035 21040 39899 40295 57006 71022 886// 333 55000 88708 93506;EQDQ01  00002PRCP06
0193118410999992000010803004+49230+018620FM-12+031599999V0209999C000010021019N0032001N1-00341-00381102891ADDAY121031AY221031GA1081+002109079GF108991081061002501999999MA1999999098941MD1710051+9999MW1101REMSYN088AAXX  08031 11841 41332 80000 11034 21038 39894 40289 57005 71022 886// 333 88707 93506;
0289118410999992000010806004+49230+018620FM-12+031599999V0209999C000010024019N0024001N1-00331-00371102851ADDAA106000091AJ100219199999999AY121061AY221061GA1081+002409079GF108991081061002501999999IA1239IA2999-00409KA1120N-00371MA1999999098901MD1510041+9999MW1101REMSYN106AAXX  08061 11841 31324 80000 11033 21037 39890 40285 55004 71022 886// 333 21037 3/104 47021 88708 93506;EQDQ01  00002PRCP06
0215118410999992000010809004+49230+018620FM-12+031599999V0203001N001010027019N0023001N1-00221-00301102901ADDAY121031AY221031GA1051+002709079GA2071+015009069GF107991071051002501001001MA1999999098971MD1110071+9999MW1101REMSYN094AAXX  08091 11841 41323 73001 11022 21030 39897 40290 51007 71022 87500 333 85709 87650 93506;
0223118410999992000010812004+49230+018620FM-12+031599999V0202501N003010030019N0030001N1-00101-00231102821ADDAA106000091AY121061AY221061GA1081+003009079GF108991081061004501999999MA1999999098901MD1810071+9999MW1101REMSYN088AAXX  08121 11841 31430 82503 11010 21023 39890 40282 58007 71022 886// 333 88710 93506;EQDQ01  00002PRCP06
0193118410999992000010815004+49230+018620FM-12+031599999V0202701N00201004201CN0034001N1-00081-00211102781ADDAY121031AY221031GA1041+003009079GF108991081051004501999999MA1999999098871MD1510031+9999MW1101REMSYN088AAXX  08151 11841 41434 82702 11008 21021 39887 40278 55003 71022 885// 333 84710 88633;
0242118410999992000010818004+49230+018620FM-12+031599999V0202801N00201004201CN0038001N1-00121-00221102841ADDAA106000091AY121061AY221061GA1031+003009079GF108991081051004501999999KA1120M-00071MA1999999098921MD1310051+9999MW1101REMSYN094AAXX  08181 11841 31438 82802 11012 21022 39892 40284 53005 71022 885// 333 11007 83710 88631;EQDQ01  00002PRCP06
0187118410999992000010821004+49230+018620FM-12+031599999V0202501N003010102019N0050001N1-00141-00241102821ADDAY121031AY221031GA1081+010209059GF108991081051012501999999MA1999999098901MD1510021+9999MW1101REMSYN082AAXX  08211 11841 41650 82503 11014 21024 39890 40282 55002 71022 885// 333 88634;
0231118410999992000010900004+49230+018620FM-12+031599999V0202601N002010093019N0050001N1-00161-00241102801ADDAA106000091AY121061AY221061GA1081+009309059GF108991081051008001999999GJ100009MA1999999098881MD1810021+9999MW1101REMSYN088AAXX  09001 11841 31550 82602 11016 21024 39888 40280 58002 71022 885// 333 55000 88631;EQDQ01  00002PRCP06
0187118410999992000010903004+49230+018620FM-12+031599999V0209999C000010087019N0048001N1-00171-00251102761ADDAY121031AY221031GA1081+008709059GF108991081051008001999999MA1999999098841MD1810041+9999MW1101REMSYN082AAXX  09031 11841 41548 80000 11017 21025 39884 40276 58004 71022 885// 333 88629;
0187118410999992000010909004+49230+018620FM-12+031599999V0202801N001010078019N0050001N1-00101-00231102841ADDAY121031AY221031GA1081+007809059GF108991081051008001999999MA1999999098921MD1210071+9999MW1101REMSYN082AAXX  09091 11841 41550 82801 11010 21023 39892 40284 52007 71022 885// 333 88626;
0217118410999992000010912004+49230+018620FM-12+031599999V0202501N002010060019N0050001N1-00011-00201102751ADDAA106000091AY141061AY211061GA1071+006009069GF107991071071008001999999MA1999999098851MD1610071+9999MW1101REMSYN082AAXX  09121 11841 31550 72502 11001 21020 39885 40275 56007 71041 877// 333 87720;EQDQ01  00002PRCP06
0101118410999992000010915004+49230+018620FM-12+031599999V0203001N001019999999N9999999N1-00041-00201102761ADDMA1999999098861MD1410001+9999REMSYN060AAXX  09151 11841 46/// /3001 11004 21020 39886 40276 54000;
0154118410999992000010918004+49230+018620FM-12+031599999V0203001N001019999999N9999999N1-00111-00221102831ADDAA106000091KA1999M+00021MA1999999098921MD1210071+9999REMSYN070AAXX  09181 11841 36/// /3001 11011 21022 39892 40283 52007 333 10002;EQDQ01  00002PRCP06
0101118410999992000010921004+49230+018620FM-12+031599999V0202901N001019999999N9999999N1-00171-00241102921ADDMA1999999099001MD1210091+9999REMSYN060AAXX  09211 11841 46/// /2901 11017 21024 39900 40292 52009;
0217118410999992000011000004+49230+018620FM-12+031599999V0209999C000010075019N0050001N1-00201-00271103021ADDAA106000091AY121061AY221061GA1081+007509059GF108991081051008001999999MA1999999099081MD1110081+9999MW1101REMSYN082AAXX  10001 11841 31550 80000 11020 21027 39908 40302 51008 71022 885// 333 88625;EQDQ01  00002PRCP06
0187118410999992000011003004+49230+018620FM-12+031599999V0202701N001010042019N0060001N1-00181-00251103081ADDAY121031AY221031GA1081+004209069GF108991081061004501999999MA1999999099141MD1110061+9999MW1101REMSYN082AAXX  10031 11841 41456 82701 11018 21025 39914 40308 51006 71022 886// 333 88714;
0270118410999992000011006004+49230+018620FM-12+031599999V0209999C000010030019N0030001N1-00191-00231103181ADDAA112000791AJ100209199999999AY171061AY221061GA1081+003009069GF108991081071004501999999IA1239IA2999-00409KA1120N-00241MA1999999099241MD1110101+9999MW1701REMSYN106AAXX  10061 11841 11430 80000 11019 21023 39924 40318 51010 69902 77072 887// 333 21024 3/104 47020 88710;
0187118410999992000011009004+49230+018620FM-12+031599999V0209999C000010009019N0028001N1-00101-00201103331ADDAY171031AY221031GA1081+000909069GF108991081061000751999999MA1999999099401MD1110161+9999MW1101REMSYN082AAXX  10091 11841 41128 80000 11010 21020 39940 40333 51016 71072 886// 333 88703;
0204118410999992000011012004+49230+018620FM-12+031599999V0209999C000010018019N0040001N1+00071-00201103361ADDAA106000791AY171061AY221061GA1081+001809069GF108991081061001501999999MA1999999099451MD1110051+9999MW1101REMSYN088AAXX  10121 11841 11240 80000 10007 21020 39945 40336 51005 69901 71072 886// 333 88706;
0193118410999992000011015004+49230+018620FM-12+031599999V0209999C000010033019N0060001N1+00011-00161103481ADDAY121031AY221031GA1061+003309079GF108991081051004501999999MA1999999099561MD1310111+9999MW1101REMSYN088AAXX  10151 11841 41456 80000 10001 21016 39956 40348 53011 71022 885// 333 86711 88623;
0195118410999992000011018004+49230+018620FM-12+031599999V0200701N001010096019N0150001N1+00051-00271103591ADDAA112000791GA1071+009609059GF107991071051008001001001KA1120M+00091MA1999999099671MD1210111+9999REMSYN088AAXX  10181 11841 12565 70701 10005 21027 39967 40359 52011 69902 87500 333 10009 87632;
0159118410999992000011021004+49230+018620FM-12+031599999V0209999C000010108019N0200001N1-00061-00231103721ADDGA1081+010809059GF108991081051012501999999MA1999999099781MD1310111+9999REMSYN076AAXX  10211 11841 42670 80000 11006 21023 39978 40372 53011 885// 333 88636;
0203118410999992000011100004+49230+018620FM-12+031599999V0200901N001012200019N0200001N1-00161-00271103761ADDAA106000091GA1041+012609059GF104991041051012501001001GJ100009MA1999999099801MD1210021+9999REMSYN082AAXX  11001 11841 32670 40901 11016 21027 39980 40376 52002 84500 333 55000 84642;EQDQ01  00002PRCP06
0159118410999992000011103004+49230+018620FM-12+031599999V0201201N002012200019N0200001N1-00491-00601103861ADDGA1021+013809059GF102991021051012501001001MA1999999099851MD1210051+9999REMSYN076AAXX  11031 11841 42670 21202 11049 21060 39985 40386 52005 82500 333 82646;
0255118410999992000011106004+49230+018620FM-12+031599999V0209999C000010135019N0100001N1-00581-00671103971ADDAA106000091AJ100199199999999GA1071+013509059GF107991071051012501001001IA1279IA2999-01109KA1120N-00731MA1999999099941MD1210091+9999REMSYN094AAXX  11061 11841 32660 70000 11058 21067 39994 40397 52009 87500 333 21073 3/111 43019 87645;EQDQ01  00002PRCP06
0187118410999992000011109004+49230+018620FM-12+031599999V0201001N002012200019N0060001N1-00101-00371103971ADDAY111031AY211031GA1041+012609059GF104991041051012501001001MA1999999100011MD1110071+9999MW1101REMSYN082AAXX  11091 11841 41656 41002 11010 21037 30001 40397 51007 71011 84500 333 84642;
0189118410999992000011112004+49230+018620FM-12+031599999V0200801N002012200019N0200001N1+00211-00531103871ADDAA106000091GA1011+012909029GF102991011011012501031001MA1999999099961MD1810051+9999REMSYN076AAXX  11121 11841 32670 20802 10021 21053 39996 40387 58005 81130 333 81843;EQDQ01  00002PRCP06
0159118410999992000011115004+49230+018620FM-12+031599999V0209999C000010129019N0200001N1+00071-00381103911ADDGA1071+012909059GF107991071051012501001001MA1999999099981MD1210021+9999REMSYN076AAXX  11151 11841 42670 70000 10007 21038 39998 40391 52002 87500 333 87643;
0208118410999992000011118004+49230+018620FM-12+031599999V0209999C000010123019N0100001N1-00171-00311103981ADDAA106000091GA1071+012309059GF107991071051012501001001KA1120M+00331MA1999999100011MD1010031+9999REMSYN082AAXX  11181 11841 32660 70000 11017 21031 30001 40398 50003 87500 333 10033 87641;EQDQ01  00002PRCP06
0187118410999992000011121004+49230+018620FM-12+031599999V0209999C000010126019N0080001N1-00251-00321104021ADDAY121031AY221031GA1071+012609059GF107991071051012501001001MA1999999100041MD1110031+9999MW1101REMSYN082AAXX  11211 11841 41658 70000 11025 21032 30004 40402 51003 71022 87500 333 87642;
0141118410999992000011200004+49230+018620FM-12+031599999V0209999C000019999999N9999999N1-00421-00511103981ADDAA106000091MA1999999099981MD1710071+9999REMSYN070AAXX  12001 11841 36/// /0000 11042 21051 39998 40398 57007 333 55044;EQDQ01  00002PRCP06
0187118410999992000011203004+49230+018620FM-12+031599999V0209999C000012200019N0018001N1-00701-00711103981ADDAY101031AY201031GA1011+011109059GF101991011051012501001001MA1999999099931MD1610031+9999MW1101REMSYN082AAXX  12031 11841 41618 10000 11070 21071 39993 40398 56003 71000 81500 333 81637;
0283118410999992000011206004+49230+018620FM-12+031599999V0209999C000012200019N0050001N1-00801-00851103981ADDAA106000091AJ100189199999999AY111061AY211061GA1011+012309059GF101991011051012501001001IA1279IA2999-01309KA1120N-00831MA1999999099921MD1810011+9999MW1101REMSYN100AAXX  12061 11841 31650 10000 11080 21085 39992 40398 58001 71011 81500 333 21083 3/113 43018 81641;EQDQ01  00002PRCP06
0171118410999992000011209004+49230+018620FM-12+031599999V0209999C000012200019N0025001N1-00661-00881103981ADDAY101031AY201031GA1001+999999999GF100991001001999999001001MA1999999099941MD1110021+9999MW1111REMSYN066AAXX  12091 11841 41925 00000 11066 21088 39994 40398 51002 71100;
0201118410999992000011212004+49230+018620FM-12+031599999V0209999C000012200019N0080001N1-00061-00721103701ADDAA106000091AY101061AY201061GA1001+999999999GF100991001001999999001001MA1999999099751MD1710191+9999MW1051REMSYN066AAXX  12121 11841 31958 00000 11006 21072 39975 40370 57019 70500;EQDQ01  00002PRCP06
0159118410999992000011215004+49230+018620FM-12+031599999V0201201N001012200019N0120001N1-00271-00581103631ADDGA1011+010809029GF101991011011012501001001MA1999999099661MD1610091+9999REMSYN076AAXX  12151 11841 42662 11201 11027 21058 39966 40363 56009 81100 333 81836;
0224118410999992000011218004+49230+018620FM-12+031599999V0209999C000012200019N0030001N1-00821-00861103681ADDAA106000091AY101061AY201061GA1001+999999999GF100991001001999999001001KA1999M+00021MA1999999099621MD1710041+9999MW1111REMSYN076AAXX  12181 11841 31930 00000 11082 21086 39962 40368 57004 71100 333 10002;EQDQ01  00002PRCP06
0187118410999992000011221004+49230+018620FM-12+031599999V0209999C000012200019N0002001N1-01271-01331103711ADDAY141031AY201031GA1021+000309069GF102991021061000251001001MA1999999099581MD1810041+9999MW1461REMSYN082AAXX  12211 11841 41002 20000 11127 21133 39958 40371 58004 74640 82600 333 82701;
0237118410999992000011300004+49230+018620FM-12+031599999V0209999C000010006019N0005001N1-01111-01161103631ADDAA106000091AY141061AY211061GA1081+000609079GF108991081061000751999999GJ103669MA1999999099531MD1710051+9999MW1461REMSYN094AAXX  13001 11841 31105 80000 11111 21116 39953 40363 57005 74641 886// 333 55061 88702 93501;EQDQ01  00002PRCP06
0187118410999992000011303004+49230+018620FM-12+031599999V0209999C000010003019N0002001N1-01181-01241103471ADDAY141031AY241031GA1091+000309999GF109991091999999999999999MA1999999099371MD1710161+9999MW1471REMSYN082AAXX  13031 11841 41/02 90000 11118 21124 39937 40347 57016 74744 333 89/01 93502;
0283118410999992000011306004+49230+018620FM-12+031599999V0209999C000010003019N0002001N1-01351-01451103401ADDAA106000091AJ100179199999999AY141061AY241061GA1091+000309999GF109991091999999999999999IA1279IA2999-01709KA1120N-01351MA1999999099271MD1710101+9999MW1471REMSYN100AAXX  13061 11841 31/02 90000 11135 21145 39927 40340 57010 74744 333 21135 3/117 43017 89/01 93503;EQDQ01  00002PRCP06
0193118410999992000011309004+49230+018620FM-12+031599999V0209999C000012200019N0012001N1-01221-01321103401ADDAY171031AY241031GA1041+001509079GF104991041061001501001001MA1999999099291MD1010021+9999MW1221REMSYN088AAXX  13091 11841 41212 40000 11122 21132 39929 40340 50002 72274 84600 333 84705 93505;
0210118410999992000011312004+49230+018620FM-12+031599999V0209999C000012200019N0045001N1-00661-00771103081ADDAA106000791AY171061AY241061GA1041+010809069GF104991041051012501001001MA1999999099071MD1710221+9999MW1101REMSYN094AAXX  13121 11841 11645 40000 11066 21077 39907 40308 57022 69901 71074 84500 333 84636 93504;
0193118410999992000011315004+49230+018620FM-12+031599999V0209999C000010120019N0080001N1-00531-00681102911ADDAY111031AY211031GA1051+012009069GF105991051051012501001001MA1999999098931MD1610141+9999MW1101REMSYN088AAXX  13151 11841 41658 50000 11053 21068 39893 40291 56014 71011 85500 333 85640 93501;
0229118410999992000011318004+49230+018620FM-12+031599999V0209999C000010102019N0045001N1-00631-00681102891ADDAA112000791AY111061AY211061GA1071+010209069GF107991071051012501001001KA1120M-00471MA1999999098891MD1610041+9999MW1101REMSYN100AAXX  13181 11841 11645 70000 11063 21068 39889 40289 56004 69902 71011 87500 333 11047 87634 93501;
0191118410999992000011321004+49230+018620FM-12+031599999V0202601N003010075019N0070001N1-00271-00501102761ADDAY121031AY221031GA1081+007509059GF108991081051008001999999MA1999999098821MD1810071+9999MW1101REMSYN086    AAXX  13211 11841 41557 82603 11027 21050 39882 40276 58007 71022 885// 333 88625;
0207118410999992000011400004+49230+018620FM-12+031599999V0202601N002010081019N0100001N1-00221-00481102681ADDAA199000091GA1081+008109059GF108991081051008001999999GJ101929MA1999999098751MD1710071+9999REMSYN086    AAXX  14001 11841 32560 82602 11022 21048 39875 40268 57007 885// 333 55032 88627;EQDQ01  00002PRCP99
0163118410999992000011403004+49230+018620FM-12+031599999V0202201N002010084019N0120001N1-00151-00501102661ADDGA1081+008409059GF108991081051008001999999MA1999999098741MD1810011+9999REMSYN080    AAXX  14031 11841 42562 82202 11015 21050 39874 40266 58001 885// 333 88628;
0259118410999992000011406004+49230+018620FM-12+031599999V0202901N001010066019N0100001N1-00191-00441102671ADDAA199000091AJ100179199999999GA1081+006609059GF108991081051008001999999IA1279IA2999-00709KA1120N-00631MA1999999098751MD1310011+9999REMSYN098    AAXX  14061 11841 32560 82901 11019 21044 39875 40267 53001 885// 333 21063 3/107 43017 88622;EQDQ01  00002PRCP99
0163118410999992000011409004+49230+018620FM-12+031599999V0202701N002010060019N0120001N1-00121-00391102751ADDGA1081+006009059GF108991081051008001999999MA1999999098831MD1210081+9999REMSYN080    AAXX  14091 11841 42562 82702 11012 21039 39883 40275 52008 885// 333 88620;
0221118410999992000011412004+49230+018620FM-12+031599999V0202801N002010060019N0070001N1-00051-00291102701ADDAA199000091AY121061AY221061GA1081+006009059GF108991081051008001999999MA1999999098801MD1710031+9999MW1101REMSYN086    AAXX  14121 11841 31557 82802 11005 21029 39880 40270 57003 71022 885// 333 88620;EQDQ01  00002PRCP99
0191118410999992000011415004+49230+018620FM-12+031599999V0202501N002010069019N0060001N1-00091-00281102711ADDAY121031AY221031GA1081+006909059GF108991081051008001999999MA1999999098801MD1010001+9999MW1101REMSYN086    AAXX  14151 11841 41556 82502 11009 21028 39880 40271 50000 71022 885// 333 88623;
0240118410999992000011418004+49230+018620FM-12+031599999V0202401N002010060019N0090001N1-00141-00311102821ADDAA199000091AY121061AY221061GA1081+006009059GF108991081051008001999999KA1120M-00021MA1999999098901MD1210101+9999MW1101REMSYN092    AAXX  14181 11841 31559 82402 11014 21031 39890 40282 52010 71022 885// 333 11002 88620;EQDQ01  00002PRCP99
0191118410999992000011421004+49230+018620FM-12+031599999V0202501N001010060019N0080001N1-00191-00301102921ADDAY121031AY221031GA1081+006009059GF108991081051008001999999MA1999999098991MD1210091+9999MW1101REMSYN086    AAXX  14211 11841 41558 82501 11019 21030 39899 40292 52009 71022 885// 333 88620;
0235118410999992000011500004+49230+018620FM-12+031599999V0209999C000010060019N0080001N1-00221-00321102961ADDAA199000091AY121061AY221061GA1081+006009059GF108991081051008001999999GJ100009MA1999999099021MD1110031+9999MW1101REMSYN092    AAXX  15001 11841 31558 80000 11022 21032 39902 40296 51003 71022 885// 333 55000 88620;EQDQ01  00002PRCP99
0191118410999992000011503004+49230+018620FM-12+031599999V0202701N001010051019N0080001N1-00241-00351102951ADDAY121031AY221031GA1081+005109059GF108991081051004501999999MA1999999099011MD1810011+9999MW1101REMSYN086    AAXX  15031 11841 41458 82701 11024 21035 39901 40295 58001 71022 885// 333 88617;
0287118410999992000011506004+49230+018620FM-12+031599999V0209999C000010051019N0050001N1-00241-00351102951ADDAA199000091AJ100179199999999AY121061AY221061GA1081+005109059GF108991081051004501999999IA1279IA2999-00309KA1120N-00251MA1999999099011MD1510001+9999MW1101REMSYN104    AAXX  15061 11841 31450 80000 11024 21035 39901 40295 55000 71022 885// 333 21025 3/103 43017 88617;EQDQ01  00002PRCP99
0191118410999992000011509004+49230+018620FM-12+031599999V0209999C000010048019N0050001N1-00131-00351102991ADDAY121031AY221031GA1081+004809059GF108991081051004501999999MA1999999099061MD1110051+9999MW1101REMSYN086    AAXX  15091 11841 41450 80000 11013 21035 39906 40299 51005 71022 885// 333 88616;
0221118410999992000011512004+49230+018620FM-12+031599999V0202601N002010111019N0080001N1-00091-00391102901ADDAA199000091AY121061AY221061GA1081+011109059GF108991081051012501999999MA1999999098981MD1810081+9999MW1101REMSYN086    AAXX  15121 11841 31658 82602 11009 21039 39898 40290 58008 71022 885// 333 88637;EQDQ01  00002PRCP99
0169118410999992000011515004+49230+018620FM-12+031599999V0202501N00201004201CN0100001N1-00121-00371102831ADDGA1021+004809079GF108991081051004501999999MA1999999098911MD1710071+9999REMSYN086    AAXX  15151 11841 42460 82502 11012 21037 39891 40283 57007 885// 333 82716 88639;
0212118410999992000011518004+49230+018620FM-12+031599999V0209999C000010108019N0120001N1-00191-00391102861ADDAA199000091GA1081+010809059GF108991081051012501999999KA1120M-00031MA1999999098931MD1110021+9999REMSYN086    AAXX  15181 11841 32662 80000 11019 21039 39893 40286 51002 885// 333 11003 88636;EQDQ01  00002PRCP99
0197118410999992000011521004+49230+018620FM-12+031599999V0209999C00001012001CN0150001N1-00201-00461102881ADDAY181031AY221031GA1031+009009089GF108991081081008001999999MA1999999098951MD1010021+9999MW1251REMSYN092    AAXX  15211 11841 41565 80000 11020 21046 39895 40288 50002 72582 888// 333 83830 88650;
0222118410999992000011600004+49230+018620FM-12+031599999V0209999C000010063019N0060001N1-00311-00351102881ADDAA106000191AY181061AY271061GA1081+006309059GF108991081051008001999999GJ100009MA1999999098931MD1710021+9999MW1711REMSYN098    AAXX  16001 11841 11556 80000 11031 21035 39893 40288 57002 69921 77187 885// 333 55000 88621;
0197118410999992000011603004+49230+018620FM-12+031599999V0209999C00001007501CN0100001N1-00351-00381102921ADDAY171031AY221031GA1031+006609069GF108991081051008001999999MA1999999098961MD1110031+9999MW1711REMSYN092    AAXX  16031 11841 41560 80000 11035 21038 39896 40292 51003 77172 885// 333 83622 88643;
0274118410999992000011606004+49230+018620FM-12+031599999V0209999C000010102019N0035001N1-00371-00401102971ADDAA112000891AJ100219199999999AY171061AY221061GA1081+010209059GF108991081051012501999999IA1279IA2999-00409KA1120N-00401MA1999999099011MD1310051+9999MW1711REMSYN110    AAXX  16061 11841 11635 80000 11037 21040 39901 40297 53005 69972 77172 885// 333 21040 3/104 43021 88634;
0197118410999992000011609004+49230+018620FM-12+031599999V0209999C00001004201CN0020001N1-00271-00371103111ADDAY171031AY271031GA1021+003609079GF107991071051004501001001MA1999999099161MD1210151+9999MW1711REMSYN092    AAXX  16091 11841 41420 70000 11027 21037 39916 40311 52015 77177 87500 333 82712 87623;
0208118410999992000011612004+49230+018620FM-12+031599999V0209999C000010096019N0100001N1-00101-00401103031ADDAA106000591AY171061AY221061GA1071+009609059GF107991071051008001001001MA1999999099111MD1810051+9999MW1701REMSYN092    AAXX  16121 11841 11560 70000 11010 21040 39911 40303 58005 69951 77072 87500 333 87632;
0197118410999992000011615004+49230+018620FM-12+031599999V0209999C00001007501CN0150001N1-00191-00421102981ADDAY171031AY271031GA1021+009009069GF107991071051008001001001MA1999999099051MD1610061+9999MW1021REMSYN092    AAXX  16151 11841 41565 70000 11019 21042 39905 40298 56006 70277 87500 333 82630 87643;
0233118410999992000011618004+49230+018620FM-12+031599999V0209999C00001007501CN0080001N1-00311-00411102971ADDAA112000591AY171061AY271061GA1021+008109069GF106991061051008001001001KA1120M+00051MA1999999099021MD1810031+9999MW1101REMSYN104    AAXX  16181 11841 11558 60000 11031 21041 39902 40297 58003 69952 71077 86500 333 10005 82627 86645;
0210118410999992000011621004+49230+018620FM-12+031599999V0209999C000012200019N0010001N1-00851-00921102841ADDAY111031AY211031GA1011+015009059GF101991011051017501999001MA1999999098811MD1810211+9999MW1101REMSYN086    AAXX  16211 11841 41710 10000 11085 21092 39881 40284 58021 71011 81500 333 81650;EQDQ01    003SCOMCG
0216118410999992000011700004+49230+018620FM-12+031599999V0200801N001010060019N0025001N1-00561-00601102531ADDAA199000021AY111061AY211061GA1081+006009059GF108991081051008001999999GJ100189MA1999999098561MD1810251+9999MW1101REMSYN092    AAXX  17001 11841 31525 80801 11056 21060 39856 40253 58025 71011 885// 333 55003 88620;
0197118410999992000011703004+49230+018620FM-12+031599999V0202401N00301004201CN0060001N1-00371-00511102071ADDAY121031AY221031GA1041+003609079GF108991081051004501999999MA1999999098141MD1710421+9999MW1101REMSYN092    AAXX  17031 11841 41456 82403 11037 21051 39814 40207 57042 71022 885// 333 84712 88620;
0280118410999992000011706004+49230+018620FM-12+031599999V0202601N00401007501CN0020001N1-00381-00451101701ADDAA112000791AJ100239199999999AY171061AY221061GA1041+007509069GF108991081051008001999999IA1239IA2999-01309KA1120N-00921MA1999999097791MD1710351+9999MW1701REMSYN116    AAXX  17061 11841 11520 82604 11038 21045 39779 40170 57035 69902 77072 885// 333 21092 3/113 47023 84625 88640;
0197118410999992000011709004+49230+018620FM-12+031599999V0209999C00001001201CN0021001N1-00211-00291101401ADDAY171031AY271031GA1021+001509079GF108991081071001501999999MA1999999097521MD1610271+9999MW1711REMSYN092    AAXX  17091 11841 41221 80000 11021 21029 39752 40140 56027 77177 887// 333 82705 88714;
0197118410999992000011715004+49230+018620FM-12+031599999V0202501N00501002101CN0080001N1+00231+00081100381ADDAY171031AY221031GA1021+002109079GF108991081051002501999999MA1999999096601MD1710391+9999MW1611REMSYN092    AAXX  17151 11841 41358 82505 10023 20008 39660 40038 57039 76172 885// 333 82707 88625;
0233118410999992000011718004+49230+018620FM-12+031599999V0202401N004010069019N0100001N1+00271+00151100121ADDAA112002091AY171061AY261061GA1061+006909069GF108991081051008001999999KA1120M+00291MA1999999096361MD1610241+9999MW1611REMSYN104    AAXX  17181 11841 11560 82404 10027 20015 39636 40012 56024 60022 76176 885// 333 10029 86623 88633;
0191118410999992000011721004+49230+018620FM-12+031599999V0203201N007010108019N0100001N1+00421+00121099861ADDAY171031AY261031GA1081+010809059GF108991081051012501999999MA1999999096131MD1610231+9999MW1611REMSYN086    AAXX  17211 11841 41660 83207 10042 20012 39613 49986 56023 76176 885// 333 88636;
0222118410999992000011800004+49230+018620FM-12+031599999V0203001N002010078019N0080001N1+00121-00021100131ADDAA106005191AY161061AY221061GA1081+007809059GF108991081051008001999999GJ100009MA1999999096351MD1110221+9999MW1711REMSYN098    AAXX  18001 11841 11558 83002 10012 21002 39635 40013 51022 60051 77162 885// 333 55000 88626;
0191118410999992000011803004+49230+018620FM-12+031599999V0202701N002010120019N0060001N1+00121-00061100051ADDAY171031AY221031GA1081+012009059GF108991081051012501999999MA1999999096271MD1710081+9999MW1711REMSYN086    AAXX  18031 11841 41656 82702 10012 21006 39627 40005 57008 77172 885// 333 88640;
0274118410999992000011806004+49230+018620FM-12+031599999V0201801N001010018019N0013001N1+00021-00011099911ADDAA112008991AJ100229199999999AY171061AY221061GA1081+001809069GF108991081071001501999999IA1239IA2999+00009KA1120N+00001MA1999999096121MD1810151+9999MW1731REMSYN110    AAXX  18061 11841 11213 81801 10002 21001 39612 49991 58015 60092 77372 887// 333 20000 3/100 47022 88706;
0197118410999992000011809004+49230+018620FM-12+031599999V0209999C000010039019N0045001N1+00091-00131099741ADDAY171031AY271031GA1051+003909079GF108991081051004501999999MA1999999095971MD1710151+9999MW1711REMSYN092    AAXX  18091 11841 41445 80000 10009 21013 39597 49974 57015 77177 885// 333 85713 88630;
0214118410999992000011812004+49230+018620FM-12+031599999V0200301N00101004201CN0030001N1-00071-00151099801ADDAA106006191AY171061AY221061GA1041+004509079GF108991081051004501999999MA1999999096001MD1310031+9999MW1711REMSYN098    AAXX  18121 11841 11430 80301 11007 21015 39600 49980 53003 60061 77172 885// 333 84715 88630;
0197118410999992000011815004+49230+018620FM-12+031599999V0203401N00401007501CN0100001N1-00021-00361100111ADDAY171031AY221031GA1021+006909069GF107991071051008001001001MA1999999096311MD1310311+9999MW1711REMSYN092    AAXX  18151 11841 41560 73404 11002 21036 39631 40011 53031 77172 87500 333 82623 87636;
0233118410999992000011818004+49230+018620FM-12+031599999V0203001N00301007501CN0100001N1+00031-00361100481ADDAA112006191AY171061AY221061GA1031+009009069GF108991081051008001999999KA1120M+00091MA1999999096671MD1210361+9999MW1711REMSYN104    AAXX  18181 11841 11560 83003 10003 21036 39667 40048 52036 60062 77172 885// 333 10009 83630 87648;
0105118410999992000011821004+49230+018620FM-12+031599999V0202501N003019999999N9999999N1-00101-00171100621ADDMA1999999096791MD1210151+9999REMSYN064    AAXX  18211 11841 46/// /2503 11010 21017 39679 40062 52015;
0222118410999992000011900004+49230+018620FM-12+031599999V0203001N004010090019N0100001N1+00021-00271100641ADDAA106000591AY171061AY221061GA1071+009009059GF107991071051008001001001GJ100009MA1999999096831MD1110041+9999MW1701REMSYN098    AAXX  19001 11841 11560 73004 10002 21027 39683 40064 51004 69961 77072 87500 333 55000 87630;
0191118410999992000011903004+49230+018620FM-12+031599999V0200301N003010105019N0150001N1-00081-00521100881ADDAY171031AY221031GA1071+010509059GF107991071051012501001001MA1999999097041MD1210211+9999MW1701REMSYN086    AAXX  19031 11841 41665 70303 11008 21052 39704 40088 52021 77072 87500 333 87635;
0280118410999992000011906004+49230+018620FM-12+031599999V0203601N00301012001CN0200001N1-00141-00671101141ADDAA112001091AJ100369199999999AY171061AY221061GA1031+009909069GF108991081051012501999999IA1239IA2999-00309KA1120N-00181MA1999999097281MD1110241+9999MW1031REMSYN116    AAXX  19061 11841 11670 83603 11014 21067 39728 40114 51024 60012 70372 885// 333 21018 3/103 47036 83633 88650;
0197118410999992000011909004+49230+018620FM-12+031599999V0201701N001010018019N0010001N1-00211-00381101311ADDAY171031AY221031GA1051+001809079GF108991081051002501999999MA1999999097441MD1210161+9999MW1721REMSYN092    AAXX  19091 11841 41310 81701 11021 21038 39744 40131 52016 77272 885// 333 85706 88618;
0214118410999992000011912004+49230+018620FM-12+031599999V0203201N003012200019N0150001N1-00161-00811101501ADDAA106000591AY171061AY211061GA1021+009009089GF103991021021008001001011MA1999999097621MD1110181+9999MW1261REMSYN098    AAXX  19121 11841 11565 33203 11016 21081 39762 40150 51018 69941 72671 82201 333 82830 91009;
0191118410999992000011915004+49230+018620FM-12+031599999V0203401N004010084019N0080001N1-00171-00591101661ADDAY181031AY211031GA1071+008409029GF107991071021008001001001MA1999999097781MD1110161+9999MW1851REMSYN086    AAXX  19151 11841 41558 73404 11017 21059 39778 40166 51016 78581 87200 333 87828;
0223118410999992000011918004+49230+018620FM-12+031599999V0203401N003010099019N0100001N1-00161-00641101891ADDAA112000591AY181061AY211061GA1071+009909059GF107991071051012501001001KA1120M-00101MA1999999098001MD1110221+9999MW1261REMSYN094AAXX  19181 11841 11660 73403 11016 21064 39800 40189 51022 69952 72681 87500 333 11010 87633;
0193118410999992000011921004+49230+018620FM-12+031599999V0203001N00101004201CN0100001N1-00181-00551102091ADDAY181031AY221031GA1011+003309079GF106991061021004501001001MA1999999098191MD1210191+9999MW1851REMSYN088AAXX  19211 11841 41460 63001 11018 21055 39819 40209 52019 78582 86200 333 81711 86833;
0128118410999992000012000004+49230+018620FM-12+031599999V0209999V004019999999N9999999N1-00231-00371102261ADDAA106001091MA1999999098351MD1210201+9999REMSYN076AAXX  20001 11841 16/// /9904 11023 21037 39835 40226 52020 60011 333 55007;
0101118410999992000012003004+49230+018620FM-12+031599999V0202801N001019999999N9999999N1-00341-00451102341ADDMA1999999098411MD1210091+9999REMSYN060AAXX  20031 11841 46/// /2801 11034 21045 39841 40234 52009;
0270118410999992000012006004+49230+018620FM-12+031599999V0202901N002010078019N0150001N1-00451-00501102401ADDAA112002091AJ100489199999999AY181061AY221061GA1071+007809059GF107991071051008001001001IA1239IA2999-00409KA1120N-00521MA1999999098451MD1310041+9999MW1261REMSYN106AAXX  20061 11841 11565 72902 11045 21050 39845 40240 53004 60022 72682 87500 333 21052 3/104 47048 87626;
0159118410999992000012009004+49230+018620FM-12+031599999V0202201N003012200019N0200001N1-00261-00611102401ADDGA1031+009009029GF104991031011008001041001MA1999999098481MD1110031+9999REMSYN076AAXX  20091 11841 42570 42203 11026 21061 39848 40240 51003 83140 333 83830;
0112118410999992000012012004+49230+018620FM-12+031599999V0202501N006019999999N9999999N1-00201-00471102041ADDAA199000021MA1999999098141MD1710331+9999REMSYN060AAXX  20121 11841 36/// /2506 11020 21047 39814 40204 57033;
0193118410999992000012015004+49230+018620FM-12+031599999V0202501N00301004201CN0014001N1-00251-00361101841ADDAY171031AY221031GA1041+003909079GF108991081051004501999999MA1999999097941MD1710211+9999MW1711REMSYN088AAXX  20151 11841 41414 82503 11025 21036 39794 40184 57021 77172 885// 333 84713 88617;
0229118410999992000012018004+49230+018620FM-12+031599999V0202601N003010024019N0011001N1-00181-00211101531ADDAA112001091AY171061AY221061GA1061+002409079GF108991081051002501999999KA1120M-00161MA1999999097651MD1710291+9999MW1711REMSYN100AAXX  20181 11841 11311 82603 11018 21021 39765 40153 57029 60012 77172 885// 333 11016 86708 88615;
0212118410999992000012021004+49230+018620FM-12+031599999V0202401N006010015019N0010001N1-00051-00061101171ADDAY171031AY271031GA1071+001509079GF108991999071001501021999MA1999999097331MD1710321+9999MW1711REMSYN088AAXX  20211 11841 41210 82406 11005 21006 39733 40117 57032 77177 8872/ 333 87705 88520;EQDQ01+000082SCOTLC
0224118410999992000012100004+49230+018620FM-12+031599999V0202301N005010018019N0013001N1+00011-00031100841ADDAA106004191AY171061AY271061GA1051+001809079GF108991051071002501021999GJ100009MA1999999097021MD1710311+9999MW1711REMSYN100AAXX  21001 11841 11313 82305 10001 21003 39702 40084 57031 60041 77177 8572/ 333 55000 85706 88516;
0101118410999992000012103004+49230+018620FM-12+031599999V0202501N005019999999N9999999N1+00091-00021100431ADDMA1999999096641MD1710421+9999REMSYN060AAXX  21031 11841 46/// /2505 10009 21002 39664 40043 57042;
0270118410999992000012106004+49230+018620FM-12+031599999V0202401N007010027019N0012001N1+00041-00021100011ADDAA112007191AJ100579199999999AY171061AY271061GA1081+002709069GF108991081071002501999999IA1279IA2999-00109KA1120N-00181MA1999999096221MD1710381+9999MW1711REMSYN106AAXX  21061 11841 11312 82407 10004 21002 39622 40001 57038 60072 77177 887// 333 21018 3/101 43057 88709;
0215118410999992000012109004+49230+018620FM-12+031599999V0200301N003010078019N0150001N1-00081-00331100241ADDAY171031AY221031GA1011+002709079GA2051+007809069GF107991071051002501999999MA1999999096431MD1310211+9999MW1221REMSYN094AAXX  21091 11841 41365 70303 11008 21033 39643 40024 53021 72272 875// 333 81709 85626 87636;
0210118410999992000012112004+49230+018620FM-12+031599999V0203301N001010063019N0028001N1-00211-00381100481ADDAA106002091AY171061AY221061GA1061+006309069GF108991081051008001999999MA1999999096641MD1110211+9999MW1711REMSYN094AAXX  21121 11841 11528 83301 11021 21038 39664 40048 51021 60021 77172 885// 333 86621 88640;
0193118410999992000012115004+49230+018620FM-12+031599999V0203401N00401036001CN0100001N1-00411-00751100871ADDAY171031AY221031GA1021+007809069GF106991021051008001031011MA1999999096981MD1310341+9999MW1221REMSYN088AAXX  21151 11841 41560 63404 11041 21075 39698 40087 53034 72272 82531 333 82626 83358;
0229118410999992000012118004+49230+018620FM-12+031599999V0203401N004010108019N0150001N1-00491-00971101351ADDAA112002091AY181061AY271061GA1051+010809089GF106991051021012501031001KA1120M+00091MA1999999097431MD1110451+9999MW1851REMSYN100AAXX  21181 11841 11665 63404 11049 21097 39743 40135 51045 60022 78587 85230 333 10009 85836 91009;
0193118410999992000012121004+49230+018620FM-12+031599999V0203001N00301002101CN0050001N1-00621-00821101651ADDAY181031AY221031GA1021+002409079GF108991081051002501999999MA1999999097701MD1110271+9999MW1711REMSYN088AAXX  21211 11841 41350 83003 11062 21082 39770 40165 51027 77182 885// 333 82708 88621;
0218118410999992000012200004+49230+018620FM-12+031599999V0202301N005010075019N0038001N1-00661-00821101891ADDAA106000791AY181061AY271061GA1051+007509029GF105991051021008001001001GJ100009MA1999999097931MD1210231+9999MW1851REMSYN094AAXX  22001 11841 11538 52305 11066 21082 39793 40189 52023 69901 78587 85200 333 55000 85825;
0101118410999992000012203004+49230+018620FM-12+031599999V0202501N001019999999N9999999N1-00821-00901101981ADDMA1999999098001MD1210101+9999REMSYN060AAXX  22031 11841 46/// /2501 11082 21090 39800 40198 52010;
0276118410999992000012206004+49230+018620FM-12+031599999V0209999C00001036001CN0150001N1-01181-01271102001ADDAA112000791AJ100619199999999AY181061AY221061GA1011+006009089GF107991011071008001011001IA1239IA2999-01609KA1120N-01181MA1999999097961MD1510041+9999MW1021REMSYN112AAXX  22061 11841 11565 70000 11118 21127 39796 40200 55004 69902 70282 81710 333 21118 3/116 47061 81820 87461;
0165118410999992000012209004+49230+018620FM-12+031599999V0209999C000012200019N0100001N1-00881-01131101881ADDGA1021+045009039GF104991021001999999031011MA1999999097891MD1810071+9999REMSYN082AAXX  22091 11841 42960 40000 11088 21113 39789 40188 58007 82031 333 82365 83070;
0176118410999992000012212004+49230+018620FM-12+031599999V0209999C00001036001CN0250001N1-00681-01121101651ADDAA199000021GA1021+013509069GF107991021051012501071001MA1999999097691MD1810201+9999REMSYN082AAXX  22121 11841 32675 70000 11068 21112 39769 40165 58020 82570 333 82645 87358;
0193118410999992000012215004+49230+018620FM-12+031599999V0202401N00101036001CN0100001N1-00731-00911101491ADDAY121031AY221031GA1041+014409069GF108991041051012501021999MA1999999097531MD1810161+9999MW1701REMSYN088AAXX  22151 11841 41660 82401 11073 21091 39753 40149 58016 77022 8452/ 333 84648 88458;
0223118410999992000012218004+49230+018620FM-12+031599999V0209999C000010060019N0060001N1-00771-00861101341ADDAA112000191AY171061AY221061GA1081+006009059GF108991081051008001999999KA1120M-00611MA1999999097381MD1710151+9999MW1711REMSYN094AAXX  22181 11841 11556 80000 11077 21086 39738 40134 57015 69912 77172 885// 333 11061 88620;
0187118410999992000012221004+49230+018620FM-12+031599999V0209999C000010060019N0015001N1-00771-00841101281ADDAY171031AY221031GA1081+006009059GF108991081051008001999999MA1999999097331MD1610051+9999MW1711REMSYN082AAXX  22211 11841 41515 80000 11077 21084 39733 40128 56005 77172 885// 333 88620;
0224118410999992000012300004+49230+018620FM-12+031599999V0209999C000010105019N0030001N1-00871-00951101241ADDAA106000591AY171061AY221061GA1051+010509069GF108991051051012501021999GJ100009MA1999999097271MD1610061+9999MW1701REMSYN100AAXX  23001 11841 11630 80000 11087 21095 39727 40124 56006 69961 77072 8552/ 333 55000 85635 88458;
0187118410999992000012303004+49230+018620FM-12+031599999V0209999C000010105019N0045001N1-00771-00841101191ADDAY171031AY221031GA1081+010509059GF108991081051012501999999MA1999999097241MD1510031+9999MW1701REMSYN082AAXX  23031 11841 41645 80000 11077 21084 39724 40119 55003 77072 885// 333 88635;
0139118410999992000012306004+49230+018620FM-12+031599999V0209999C000019999999N9999999N1-00751-00831101111ADDAA199000021IA2999-00809KA1120N-00751MA1999999097171REMSYN076AAXX  23061 11841 36/// /0000 11075 21083 39717 40111 5//// 333 21075 3/108;
0187118410999992000012309004+49230+018620FM-12+031599999V0209999C000010096019N0040001N1-00521-00761101151ADDAY171031AY221031GA1081+009609059GF108991081051008001999999MA1999999097241MD1310071+9999MW1701REMSYN082AAXX  23091 11841 41540 80000 11052 21076 39724 40115 53007 77072 885// 333 88632;
0193118410999992000012315004+49230+018620FM-12+031599999V0202101N001010036019N0025001N1-00501-00611101191ADDAY171031AY221031GA1051+003609079GF108991081051004501999999MA1999999097281MD1310021+9999MW1711REMSYN088AAXX  23151 11841 41425 82101 11050 21061 39728 40119 53002 77172 885// 333 85712 88631;
0229118410999992000012318004+49230+018620FM-12+031599999V0202101N004019999999N0100001N1-00671-00991101371ADDAA112000791AY171061AY221061GA1021+024009039GF106991021001999999031081KA1120M-00211MA1999999097431MD1210151+9999MW1021REMSYN100AAXX  23181 11841 11960 62104 11067 21099 39743 40137 52015 69902 70272 82038 333 11021 82358 86272;
0193118410999992000012321004+49230+018620FM-12+031599999V0200301N005012200019N0100001N1-00751-01131101521ADDAY131031AY211031GA1011+006609069GF104991011051008001001021MA1999999097561MD1110131+9999MW1361REMSYN088AAXX  23211 11841 41560 40305 11075 21113 39756 40152 51013 73631 81502 333 81622 83072;
0122118410999992000012400004+49230+018620FM-12+031599999V0202201N003019999999N9999999N1-01101-01451101711ADDAA199000021MA1999999097691MD1210141+9999REMSYN070AAXX  24001 11841 36/// /2203 11110 21145 39769 40171 52014 333 55005;
0159118410999992000012403004+49230+018620FM-12+031599999V0209999C000012200019N0100001N1-01601-01851101891ADDGA1011+007509029GF101991011011008001001001MA1999999097781MD1210101+9999REMSYN076AAXX  24031 11841 42560 10000 11160 21185 39778 40189 52010 81100 333 81825;
0255118410999992000012406004+49230+018620FM-12+031599999V0200201N001012200019N0120001N1-01411-01521101971ADDAA199000091AJ100559199999999GA1031+007809059GF104991031051008001041001IA1239IA2999-02609KA1120N-01791MA1999999097891MD1310111+9999REMSYN094AAXX  24061 11841 32562 40201 11141 21152 39789 40197 53011 83540 333 21179 3/126 47055 83626;EQDQ01  00002PRCP99
0159118410999992000012409004+49230+018620FM-12+031599999V0200301N004012200019N0150001N1-00911-01411102061ADDGA1021+007809029GF102991021011008001001001MA1999999098051MD1110161+9999REMSYN076AAXX  24091 11841 42565 20304 11091 21141 39805 40206 51016 82100 333 82826;
0189118410999992000012412004+49230+018620FM-12+031599999V0201201N001012200019N0200001N1-00481-01291101971ADDAA199000091GA1011+009009029GF102991011011008001041001MA1999999098031MD1810021+9999REMSYN076AAXX  24121 11841 32570 21201 11048 21129 39803 40197 58002 81140 333 81830;EQDQ01  00002PRCP99
0178118410999992000012415004+49230+018620FM-12+031599999V0200301N002012200019N0150001N1-00701-01121102121ADDGA1041+021009079GF104991041999022501041001MA1999999098141MD1310111+9999REMSYN076AAXX  24151 11841 42865 40302 11070 21112 39814 40212 53011 84040 333 84357;EQDQ01+000002SCOLCG
0229118410999992000012418004+49230+018620FM-12+031599999V0200701N002012200019N0100001N1-01021-01181102301ADDAA112000791AY181061AY211061GA1011+010209089GF104991041081012501001001KA1120M-00291MA1999999098271MD1310131+9999MW1851REMSYN100AAXX  24181 11841 11660 40702 11102 21118 39827 40230 53013 69902 78581 84800 333 11029 81834 83646;
0187118410999992000012421004+49230+018620FM-12+031599999V0201101N001012200019N0060001N1-01091-01221102391ADDAY181031AY211031GA1031+011109029GF103991031021012501001001MA1999999098341MD1310071+9999MW1851REMSYN082AAXX  24211 11841 41656 31101 11109 21122 39834 40239 53007 78581 83200 333 83837;
0218118410999992000012500004+49230+018620FM-12+031599999V0209999C000010078019N0030001N1-01421-01561102591ADDAA106000791AY181061AY271061GA1081+007809059GF108991081051008001999999GJ102289MA1999999098481MD1110141+9999MW1701REMSYN094AAXX  25001 11841 11530 80000 11142 21156 39848 40259 51014 69901 77087 885// 333 55038 88626;
0193118410999992000012503004+49230+018620FM-12+031599999V0209999C00001004201CN0034001N1-01601-01701102741ADDAY171031AY211031GA1031+003309079GF105991051051004501001001MA1999999098601MD1110121+9999MW1221REMSYN088AAXX  25031 11841 41434 50000 11160 21170 39860 40274 51012 72271 85500 333 83711 85620;
0270118410999992000012506004+49230+018620FM-12+031599999V0209999C000012200019N0027001N1-01931-02131102931ADDAA112000791AJ100509199999999AY171061AY211061GA1031+009609059GF103991031051008001001001IA1239IA2999-02509KA1120N-01931MA1999999098731MD1110131+9999MW1221REMSYN106AAXX  25061 11841 11527 30000 11193 21213 39873 40293 51013 69902 72271 83500 333 21193 3/125 47050 83632;
0171118410999992000012509004+49230+018620FM-12+031599999V0209999C000012200019N0020001N1-01611-01821103061ADDAY141031AY201031GA1001+999999999GF100991001001999999001001MA1999999098901MD1110171+9999MW1101REMSYN066AAXX  25091 11841 41920 00000 11161 21182 39890 40306 51017 71040;
0188118410999992000012512004+49230+018620FM-12+031599999V0209999C000012200019N0038001N1-00721-01381102891ADDAA106000791AY141061AY211061GA1001+999999999GF100991001001999999001001MA1999999098881MD1710021+9999MW1051REMSYN072AAXX  25121 11841 11938 00000 11072 21138 39888 40289 57002 69901 70541;
0187118410999992000012515004+49230+018620FM-12+031599999V0209999C000012200019N0050001N1-00961-01301102961ADDAY101031AY201031GA1011+030009079GF101991011001999999031001MA1999999098911MD1310031+9999MW1051REMSYN082AAXX  25151 11841 41950 10000 11096 21130 39891 40296 53003 70500 81030 333 81360;
0223118410999992000012518004+49230+018620FM-12+031599999V0209999C000012200019N0025001N1-01411-01541103141ADDAA112000791AY101061AY201061GA1041+030009079GF104991041001999999031001KA1120M-00631MA1999999099011MD1010101+9999MW1101REMSYN094AAXX  25181 11841 11925 40000 11141 21154 39901 40314 50010 69902 71000 84030 333 11063 84360;
0187118410999992000012521004+49230+018620FM-12+031599999V0209999C000010270019N0020001N1-01381-01511103151ADDAY111031AY211031GA1071+027009079GF107991071001999999071999MA1999999099031MD1310021+9999MW1101REMSYN082AAXX  25211 11841 41920 70000 11138 21151 39903 40315 53002 71011 8707/ 333 87359;
0247118410999992000012600004+49230+018620FM-12+031599999V0200101N001010210019N0025001N1-01251-01371103041ADDAA199000091AY121061AY221061GA1081+021009079GF108991081999022501071999GJ103249MA1999999098941MD1710091+9999MW1101REMSYN088AAXX  26001 11841 31825 80101 11125 21137 39894 40304 57009 71022 8807/ 333 55054 88357;EQDQ01+000002SCOLCGQ02  00002PRCP99
0187118410999992000012603004+49230+018620FM-12+031599999V0209999C000010090019N0025001N1-01111-01211102911ADDAY121031AY221031GA1081+009009059GF108991081051008001999999MA1999999098841MD1610101+9999MW1711REMSYN082AAXX  26031 11841 41525 80000 11111 21121 39884 40291 56010 77122 885// 333 88630;
0270118410999992000012606004+49230+018620FM-12+031599999V0202101N001010150019N0045001N1-01061-01161102851ADDAA112000791AJ100449199999999AY171061AY221061GA1081+015009059GF108991081051017501999999IA1239IA2999-01709KA1120N-01481MA1999999098791MD1510051+9999MW1221REMSYN106AAXX  26061 11841 11745 82101 11106 21116 39879 40285 55005 69902 72272 885// 333 21148 3/117 47044 88650;
0187118410999992000012609004+49230+018620FM-12+031599999V0202201N003010120019N0038001N1-00811-01091102881ADDAY171031AY221031GA1071+012009059GF107991071051012501001001MA1999999098861MD1010071+9999MW1701REMSYN082AAXX  26091 11841 41638 72203 11081 21109 39886 40288 50007 77072 87500 333 87640;
0204118410999992000012612004+49230+018620FM-12+031599999V0202601N003010081019N0100001N1-00751-01041102841ADDAA106000191AY171061AY221061GA1081+008109059GF108991081051008001999999MA1999999098831MD1710031+9999MW1021REMSYN088AAXX  26121 11841 11560 82603 11075 21104 39883 40284 57003 69921 70272 885// 333 88627;
0165118410999992000012615004+49230+018620FM-12+031599999V0202501N00301004201CN0100001N1-00721-00931102791ADDGA1031+003909079GF108991081051004501999999MA1999999098781MD1610051+9999REMSYN082AAXX  26151 11841 42460 82503 11072 21093 39878 40279 56005 885// 333 83713 88623;
0229118410999992000012618004+49230+018620FM-12+031599999V0200801N00101004201CN0080001N1-00741-00881102901ADDAA112000191AY121061AY221061GA1031+004509079GF108991081051004501999999KA1120M-00701MA1999999098891MD1310111+9999MW1101REMSYN100AAXX  26181 11841 11458 80801 11074 21088 39889 40290 53011 69922 71022 885// 333 11070 83715 88623;
0187118410999992000012621004+49230+018620FM-12+031599999V0209999C000010075019N0060001N1-00721-00861102911ADDAY121031AY221031GA1081+007509059GF108991081051008001999999MA1999999098901MD1210011+9999MW1101REMSYN082AAXX  26211 11841 41556 80000 11072 21086 39890 40291 52001 71022 885// 333 88625;
0237118410999992000012700004+49230+018620FM-12+031599999V0209999C00001004201CN0060001N1-00691-00841102881ADDAA199000091AY121061AY221061GA1041+003909079GF108991081051004501999999GJ100009MA1999999098881MD1710021+9999MW1101REMSYN094AAXX  27001 11841 31456 80000 11069 21084 39888 40288 57002 71022 885// 333 55000 84713 88626;EQDQ01  00002PRCP99
0187118410999992000012703004+49230+018620FM-12+031599999V0200401N001010036019N0060001N1-00651-00791102821ADDAY121031AY221031GA1081+003609069GF108991081061004501999999MA1999999098821MD1810061+9999MW1101REMSYN082AAXX  27031 11841 41456 80401 11065 21079 39882 40282 58006 71022 886// 333 88712;
0283118410999992000012706004+49230+018620FM-12+031599999V0209999C000010039019N0060001N1-00591-00731102821ADDAA199000091AJ100469199999999AY121061AY221061GA1081+003909069GF108991081061004501999999IA1239IA2999-00809KA1120N-00741MA1999999098831MD1210011+9999MW1101REMSYN100AAXX  27061 11841 31456 80000 11059 21073 39883 40282 52001 71022 886// 333 21074 3/108 47046 88713;EQDQ01  00002PRCP99
0187118410999992000012709004+49230+018620FM-12+031599999V0209999C000010027019N0028001N1-00501-00651102871ADDAY171031AY221031GA1081+002709069GF108991081071002501999999MA1999999098891MD1010061+9999MW1221REMSYN082AAXX  27091 11841 41328 80000 11050 21065 39889 40287 50006 72272 887// 333 88709;
0118118410999992000012712004+49230+018620FM-12+031599999V0209999C000019999999N9999999N1-00331-00561102731ADDAA106000191MA1999999098791MD1710111+9999REMSYN066AAXX  27121 11841 16/// /0000 11033 21056 39879 40273 57011 69911;
0187118410999992000012715004+49230+018620FM-12+031599999V0201401N001010015019N0015001N1-00291-00371102641ADDAY171031AY221031GA1081+001509069GF108991081071001501999999MA1999999098701MD1710081+9999MW1761REMSYN082AAXX  27151 11841 41215 81401 11029 21037 39870 40264 57008 77672 887// 333 88705;
0223118410999992000012718004+49230+018620FM-12+031599999V0209999C000010015019N0016001N1-00281-00321102551ADDAA112000191AY171061AY221061GA1081+001509069GF108991081061001501999999KA1120M-00271MA1999999098621MD1710081+9999MW1101REMSYN094AAXX  27181 11841 11216 80000 11028 21032 39862 40255 57008 69912 71072 886// 333 11027 88705;
0187118410999992000012721004+49230+018620FM-12+031599999V0202301N004010048019N0018001N1+00031-00271102371ADDAY121031AY221031GA1081+004809069GF108991081071004501999999MA1999999098491MD1710131+9999MW1101REMSYN082AAXX  27211 11841 41418 82304 10003 21027 39849 40237 57013 71022 887// 333 88716;
0122118410999992000012800004+49230+018620FM-12+031599999V0202401N004019999999N9999999N1-00081-00371102301ADDAA199000021MA1999999098411MD1710101+9999REMSYN070AAXX  28001 11841 36/// /2404 11008 21037 39841 40230 57010 333 55000;
0101118410999992000012803004+49230+018620FM-12+031599999V0202601N004019999999N9999999N1-00231-00481102251ADDMA1999999098341MD1710071+9999REMSYN060AAXX  28031 11841 46/// /2604 11023 21048 39834 40225 57007;
0255118410999992000012806004+49230+018620FM-12+031599999V0202401N005010066019N0100001N1-00261-00481102221ADDAA199000091AJ100459199999999GA1081+006609059GF108991081051008001999999IA1239IA2999-00309KA1120N-00291MA1999999098301MD1510041+9999REMSYN094AAXX  28061 11841 32560 82405 11026 21048 39830 40222 55004 885// 333 21029 3/103 47045 88622;EQDQ01  00002PRCP99
0159118410999992000012809004+49230+018620FM-12+031599999V0202501N003010069019N0100001N1-00221-00501102211ADDGA1071+006909059GF107991071051008001001001MA1999999098301MD1010001+9999REMSYN076AAXX  28091 11841 42560 72503 11022 21050 39830 40221 50000 87500 333 87623;
0195118410999992000012812004+49230+018620FM-12+031599999V0202401N003012200019N0150001N1+00071-00601101941ADDAA199000091GA1011+030009039GF104991011001999999041011MA1999999098081MD1710221+9999REMSYN082AAXX  28121 11841 32965 42403 10007 21060 39808 40194 57022 81041 333 81360 84070;EQDQ01  00002PRCP99
0165118410999992000012815004+49230+018620FM-12+031599999V0202501N00401090001CN0150001N1-00231-00801102001ADDGA1021+012909069GF105991021051012501001021MA1999999098101MD1310021+9999REMSYN082AAXX  28151 11841 42665 52504 11023 21080 39810 40200 53002 82502 333 82643 84070;
0224118410999992000012818004+49230+018620FM-12+031599999V0201001N001010180019N0120001N1-00321-00571102081ADDAA199000091GA1071+018009059GF107991071051017501999001KA1120M+00131MA1999999098161MD1110061+9999REMSYN082AAXX  28181 11841 32762 71001 11032 21057 39816 40208 51006 87500 333 10013 87656;EQDQ01+000002SCOMCGQ02  00002PRCP99
0159118410999992000012821004+49230+018620FM-12+031599999V0209999C000012200019N0100001N1-00801-00881102101ADDGA1041+030009079GF104991041001999999031001MA1999999098111MD1610051+9999REMSYN076AAXX  28211 11841 42960 40000 11080 21088 39811 40210 56005 84030 333 84360;
0203118410999992000012900004+49230+018620FM-12+031599999V0202601N001010300019N0100001N1-00701-00791102001ADDAA199000091GA1061+030009079GF106991061001999999031001GJ101569MA1999999098031MD1610081+9999REMSYN082AAXX  29001 11841 32960 62601 11070 21079 39803 40200 56008 86030 333 55026 86360;EQDQ01  00002PRCP99
0187118410999992000012903004+49230+018620FM-12+031599999V0202501N001010150019N0070001N1-00631-00741101841ADDAY121031AY221031GA1081+015009059GF108991081051017501999999MA1999999097891MD1710141+9999MW1701REMSYN082AAXX  29031 11841 41757 82501 11063 21074 39789 40184 57014 77022 885// 333 88650;
0276118410999992000012906004+49230+018620FM-12+031599999V0209999C000010054019N0015001N1-00541-00641101681ADDAA112000591AJ100459199999999AY171061AY221061GA1051+005409069GF108991081051004501999999IA1239IA2999-01209KA1120N-00891MA1999999097741MD1710151+9999MW1711REMSYN112AAXX  29061 11841 11415 80000 11054 21064 39774 40168 57015 69952 77172 885// 333 21089 3/112 47045 85618 88622;
0187118410999992000012909004+49230+018620FM-12+031599999V0209999C000010099019N0028001N1-00451-00571101541ADDAY171031AY221031GA1081+009909059GF108991081051012501999999MA1999999097621MD1610121+9999MW1711REMSYN082AAXX  29091 11841 41628 80000 11045 21057 39762 40154 56012 77172 885// 333 88633;
0204118410999992000012912004+49230+018620FM-12+031599999V0209999C000010108019N0035001N1-00231-00431101141ADDAA106000191AY171061AY221061GA1081+010809059GF108991081051012501999999MA1999999097271MD1710351+9999MW1701REMSYN088AAXX  29121 11841 11635 80000 11023 21043 39727 40114 57035 69921 77072 885// 333 88636;
0187118410999992000012915004+49230+018620FM-12+031599999V0201901N001010069019N0016001N1-00131-00291100791ADDAY171031AY221031GA1081+006909059GF108991081051008001999999MA1999999096951MD1610321+9999MW1711REMSYN082AAXX  29151 11841 41516 81901 11013 21029 39695 40079 56032 77172 885// 333 88623;
0229118410999992000012918004+49230+018620FM-12+031599999V0202601N00401001201CN0010001N1-00011-00011100611ADDAA112003091AY171061AY221061GA1031+001509079GF108991081071001501999999KA1120M+00001MA1999999096791MD1710161+9999MW1731REMSYN100AAXX  29181 11841 11210 82604 11001 21001 39679 40061 57016 60032 77372 887// 333 10000 83705 88710;
0193118410999992000012921004+49230+018620FM-12+031599999V0202701N00401001201CN0018001N1+00021+00021100471ADDAY171031AY271031GA1031+001809079GF108991081071001501999999MA1999999096661MD1610131+9999MW1711REMSYN088AAXX  29211 11841 41218 82704 10002 20002 39666 40047 56013 77177 887// 333 83706 88714;
0224118410999992000013000004+49230+018620FM-12+031599999V0202501N002010018019N0020001N1+00041+00031100271ADDAA106006191AY171061AY221061GA1051+001809079GF108991081071001501999999GJ100009MA1999999096471MD1710191+9999MW1711REMSYN100AAXX  30001 11841 11220 82502 10004 20003 39647 40027 57019 60061 77172 887// 333 55000 85706 88711;
0193118410999992000013003004+49230+018620FM-12+031599999V0200801N00101001201CN0026001N1+00031+00021100101ADDAY171031AY221031GA1041+001809079GF108991081071001501999999MA1999999096311MD1710161+9999MW1681REMSYN088AAXX  30031 11841 41226 80801 10003 20002 39631 40010 57016 76872 887// 333 84706 88712;
0298118410999992000013006004+49230+018620FM-12+031599999V0200201N001010039019N0060001N1+00161+00151100001ADDAA112014091AJ100499199999999AY171061AY271061GA1021+001809079GA2041+003909079GF108991081051001501999999IA1279IA2999+00009KA1120N-00011MA1999999096231MD1510081+9999MW1611REMSYN118AAXX  30061 11841 11256 80201 10016 20015 39623 40000 55008 60142 76177 885// 333 21001 3/100 43049 82706 84713 88620;
0193118410999992000013009004+49230+018620FM-12+031599999V0203001N00101009001CN0100001N1+00221+00181100381ADDAY181031AY261031GA1031+005409089GF107991071081004501001001MA1999999096601MD1210371+9999MW1801REMSYN088AAXX  30091 11841 41460 73001 10022 20018 39660 40038 52037 78086 87800 333 83818 84621;
0204118410999992000013012004+49230+018620FM-12+031599999V0202701N005012200019N0200001N1+00441-00121100601ADDAA106000191AY181061AY261061GA1041+011709029GF104991041021012501061001MA1999999096841MD1210241+9999MW1011REMSYN088AAXX  30121 11841 11670 42705 10044 21012 39684 40060 52024 69911 70186 84260 333 84839;
0165118410999992000013015004+49230+018620FM-12+031599999V0202701N007012200019N0200001N1+00441-00181100951ADDGA1031+013809089GF103991031021012501061001MA1999999097181MD1210341+9999REMSYN082AAXX  30151 11841 42670 32707 10044 21018 39718 40095 52034 83260 333 83846 91012;
0195118410999992000013018004+49230+018620FM-12+031599999V0202601N005012200019N0200001N1+00311-00261101291ADDAA112000191GA1021+030009079GF102991021001999999041001KA1120M+00621MA1999999097491MD1310311+9999REMSYN088AAXX  30181 11841 12970 22605 10031 21026 39749 40129 53031 69912 82040 333 10062 82360;
0178118410999992000013021004+49230+018620FM-12+031599999V0202701N002012200019N0150001N1-00011-00361101641ADDGA1021+018009059GF103991021051017501999011MA1999999097781MD1310291+9999REMSYN076AAXX  30211 11841 42765 32702 11001 21036 39778 40164 53029 82501 333 82656;EQDQ01+000002SCOMCG
0203118410999992000013100004+49230+018620FM-12+031599999V0200601N001010300019N0100001N1+00031-00141101721ADDAA199000091GA1071+030009079GF107991071001999999071999GJ101749MA1999999097871MD1010091+9999REMSYN082AAXX  31001 11841 32960 70601 10003 21014 39787 40172 50009 8707/ 333 55029 87360;EQDQ01  00002PRCP99
0193118410999992000013103004+49230+018620FM-12+031599999V0202801N002010006019N0028001N1+00061+00021101571ADDAY171031AY221031GA1061+000609079GF108991081071000751999999MA1999999097731MD1810141+9999MW1681REMSYN088AAXX  31031 11841 41128 82802 10006 20002 39773 40157 58014 76872 887// 333 86702 88711;
0276118410999992000013106004+49230+018620FM-12+031599999V0203601N001010006019N0070001N1+00101+00061101451ADDAA112003091AJ100379199999999AY171061AY261061GA1061+000609079GF108991081071000751999999IA1279IA2999-00509KA1120N-00061MA1999999097621MD1610111+9999MW1611REMSYN112AAXX  31061 11841 11157 83601 10010 20006 39762 40145 56011 60032 76176 887// 333 21006 3/105 43037 86702 88708;
0193118410999992000013109004+49230+018620FM-12+031599999V0200601N002010045019N0070001N1+00121+00091101431ADDAY161031AY221031GA1051+004509079GF108991081051004501999999MA1999999097601MD1710021+9999MW1601REMSYN088AAXX  31091 11841 41457 80602 10012 20009 39760 40143 57002 76062 885// 333 85715 88620;
0210118410999992000013112004+49230+018620FM-12+031599999V0202401N00601004201CN0300001N1+00601+00321101361ADDAA106001091AY161061AY221061GA1041+004809079GF108991081051004501999999MA1999999097601MD1010001+9999MW1211REMSYN094AAXX  31121 11841 11480 82406 10060 20032 39760 40136 50000 60011 72162 885// 333 84716 88633;
0187118410999992000013115004+49230+018620FM-12+031599999V0202601N006010081019N0150001N1+00541+00291101521ADDAY161031AY221031GA1081+008109059GF108991081051008001999999MA1999999097741MD1310141+9999MW1601REMSYN082AAXX  31151 11841 41565 82606 10054 20029 39774 40152 53014 76062 885// 333 88627;
0223118410999992000013118004+49230+018620FM-12+031599999V0202601N006010360019N0150001N1+00611+00221101871ADDAA112001091AY161061AY221061GA1041+012609059GF105991041051012501031001KA1120M+00691MA1999999098091MD1210351+9999MW1011REMSYN094AAXX  31181 11841 11665 52606 10061 20022 39809 40187 52035 60012 70162 84530 333 10069 84642;
0159118410999992000013121004+49230+018620FM-12+031599999V0203001N002012200019N0100001N1+00281+00051102261ADDGA1011+009909059GF101991011051012501001001MA1999999098421MD1210331+9999REMSYN076AAXX  31211 11841 42660 13002 10028 20005 39842 40226 52033 81500 333 81633;
0122118410999992000020100004+49230+018620FM-12+031599999V0201201N001019999999N9999999N1-00071-00101102511ADDAA199000021MA1999999098621MD1210231+9999REMSYN070AAXX  01001 11841 36/// /1201 11007 21010 39862 40251 52023 333 55000;
0187118410999992000020103004+49230+018620FM-12+031599999V0201101N001010600019N0018001N1-00241-00251102531ADDAY111031AY211031GA1061+060009019GF106991001001999999001021MA1999999098611MD1810021+9999MW1101REMSYN082AAXX  01031 11841 41918 61101 11024 21025 39861 40253 58002 71011 80002 333 86070;
0298118410999992000020106004+49230+018620FM-12+031599999V0209999C000010015019N0014001N1-00031-00071102561ADDAA112000791AJ100289199999999AY151061AY211061GA1051+001509079GA2081+003009079GF108991081071001501999999IA1279IA2999-00609KA1120N-00341MA1999999098671MD1110061+9999MW1561REMSYN118AAXX  01061 11841 11214 80000 11003 21007 39867 40256 51006 69902 75651 887// 333 21034 3/106 43028 85705 88710 93401;
0215118410999992000020109004+49230+018620FM-12+031599999V0209999C000010009019N0012001N1+00111+00041102541ADDAY151031AY221031GA1051+000909079GA2081+005109069GF108991081051000751999999MA1999999098671MD1010001+9999MW1101REMSYN094AAXX  01091 11841 41112 80000 10011 20004 39867 40254 50000 71052 885// 333 85703 88617 93401;
0210118410999992000020112004+49230+018620FM-12+031599999V0201201N00101090001CN0650001N1+00481+00221102301ADDAA106000191AY151061AY221061GA1041+006609069GF107991041051008001001081MA1999999098491MD1810181+9999MW1021REMSYN094AAXX  01121 11841 11587 71201 10048 20022 39849 40230 58018 69911 70252 84508 333 84622 85270;
0165118410999992000020115004+49230+018620FM-12+031599999V0209999C000012200019N0250001N1+00701+00271102111ADDGA1011+030009039GF104991011001999999041021MA1999999098331MD1610161+9999REMSYN082AAXX  01151 11841 42975 40000 10070 20027 39833 40211 56016 81042 333 81360 83070;
0195118410999992000020118004+49230+018620FM-12+031599999V0209999C000012200019N0100001N1+00061+00051102161ADDAA112000191GA1021+069009019GF102991001001999999001021KA1120M+00871MA1999999098291MD1610041+9999REMSYN088AAXX  01181 11841 12960 20000 10006 20005 39829 40216 56004 69912 80002 333 10087 82073;
0101118410999992000020121004+49230+018620FM-12+031599999V0209999C000019999999N9999999N1-00091-00101102111ADDMA1999999098231MD1710061+9999REMSYN060AAXX  01211 11841 46/// /0000 11009 21010 39823 40211 57006;
0141118410999992000020200004+49230+018620FM-12+031599999V0209999C000019999999N9999999N1-00081-00081101971ADDAA199000091MA1999999098101MD1710151+9999REMSYN070AAXX  02001 11841 36/// /0000 11008 21008 39810 40197 57015 333 55039;EQDQ01  00002PRCP99
0181118410999992000020203004+49230+018620FM-12+031599999V0209999C000010003019N0002001N1-00081-00081101831ADDAY141031AY241031GA1091+000309999GF109991091999999999999999MA1999999097961MD1710141+9999MW1451REMSYN076AAXX  02031 11841 41/02 90000 11008 21008 39796 40183 57014 74544 333 89/01;
0277118410999992000020206004+49230+018620FM-12+031599999V0202401N001010009019N0002001N1-00041-00041101731ADDAA199000091AJ100269199999999AY141061AY241061GA1091+000909999GF109991091999999999999999IA1279IA2999-00209KA1120N-00181MA1999999097871MD1710091+9999MW1471REMSYN094AAXX  02061 11841 31/02 92401 11004 21004 39787 40173 57009 74744 333 21018 3/102 43026 89/03;EQDQ01  00002PRCP99
0181118410999992000020209004+49230+018620FM-12+031599999V0202601N004010009019N0002001N1+00141+00141101631ADDAY141031AY241031GA1091+000909999GF109991091999999999999999MA1999999097801MD1810071+9999MW1451REMSYN076AAXX  02091 11841 41/02 92604 10014 20014 39780 40163 58007 74544 333 89/03;
0223118410999992000020212004+49230+018620FM-12+031599999V0200601N00101001201CN0011001N1+00301+00171101491ADDAA199000091AY141061AY241061GA1041+001809079GF108991081051001501999999MA1999999097681MD1810121+9999MW1281REMSYN088AAXX  02121 11841 31211 80601 10030 20017 39768 40149 58012 72844 885// 333 84706 88630;EQDQ01  00002PRCP99
0159118410999992000020215004+49230+018620FM-12+031599999V0203201N001010360019N0100001N1+00381+00201101351ADDGA1041+012009059GF106991041051012501031011MA1999999097561MD1610121+9999REMSYN076AAXX  02151 11841 42660 63201 10038 20020 39756 40135 56012 84531 333 84640;
0236118410999992000020218004+49230+018620FM-12+031599999V0209999C000010120019N0045001N1+00101+00061101421ADDAA199000091AY121061AY221061GA1071+012009059GF107991071051012501001001KA1120M+00511MA1999999097591MD1310031+9999MW1101REMSYN088AAXX  02181 11841 31645 70000 10010 20006 39759 40142 53003 71022 87500 333 10051 87640;EQDQ01  00002PRCP99
0187118410999992000020221004+49230+018620FM-12+031599999V0209999C000010102019N0045001N1+00231+00131101431ADDAY121031AY221031GA1081+010209059GF108991081051012501999999MA1999999097621MD1310031+9999MW1101REMSYN082AAXX  02211 11841 41645 80000 10023 20013 39762 40143 53003 71022 885// 333 88634;
0224118410999992000020300004+49230+018620FM-12+031599999V0200601N00101007501CN0045001N1+00191+00121101501ADDAA106000791AY161061AY221061GA1041+007809069GF108991081051008001999999GJ100249MA1999999097681MD1310061+9999MW1211REMSYN100AAXX  03001 11841 11545 80601 10019 20012 39768 40150 53006 69901 72162 885// 333 55004 84626 88645;
0159118410999992000020303004+49230+018620FM-12+031599999V0202801N006012200019N0250001N1+00451-00151101711ADDGA1021+013809059GF102991021051012501001001MA1999999097911MD1310231+9999REMSYN076AAXX  03031 11841 42675 22806 10045 21015 39791 40171 53023 82500 333 82646;
0242118410999992000020306004+49230+018620FM-12+031599999V0202601N004012200019N0300001N1+00231-00261101961ADDAA112000791AJ100259199999999GA1011+013809059GF101991011051012501001001IA1279IA2999-00109KA1120N+00081MA1999999098121MD1310211+9999REMSYN100AAXX  03061 11841 12680 12604 10023 21026 39812 40196 53021 69902 81500 333 20008 3/101 43025 81646;
0159118410999992000020309004+49230+018620FM-12+031599999V0202601N006010123019N0300001N1+00471-00171102041ADDGA1071+012309059GF107991071041012501001001MA1999999098231MD1110111+9999REMSYN076AAXX  03091 11841 42680 72606 10047 21017 39823 40204 51011 87400 333 87641;
0210118410999992000020312004+49230+018620FM-12+031599999V0202501N00501012001CN0300001N1+00341-00041102131ADDAA106000791AY181061AY221061GA1021+009909089GF107991071081008001001001MA1999999098301MD1110071+9999MW1801REMSYN094AAXX  03121 11841 11580 72505 10034 21004 39830 40213 51007 69901 78082 87800 333 82833 85636;
0193118410999992000020315004+49230+018620FM-12+031599999V0203101N00501007501CN0120001N1+00271+00011102381ADDAY181031AY281031GA1021+007209099GF107991071031008001001001MA1999999098531MD1310231+9999MW1831REMSYN088AAXX  03151 11841 41562 73105 10027 20001 39853 40238 53023 78388 87300 333 82924 84630;
0229118410999992000020318004+49230+018620FM-12+031599999V0203101N00201012001CN0100001N1+00171-00071102561ADDAA112000191AY181061AY281061GA1021+010809099GF107991071031012501001001KA1120M+00671MA1999999098691MD1310161+9999MW1831REMSYN100AAXX  03181 11841 11660 73102 10017 21007 39869 40256 53016 69922 78388 87300 333 10067 82936 85639;
0193118410999992000020321004+49230+018620FM-12+031599999V0203101N00201012001CN0100001N1+00161-00021102941ADDAY181031AY211031GA1021+008709089GF107991071081008001999999MA1999999099061MD1210371+9999MW1851REMSYN088AAXX  03211 11841 41560 73102 10016 21002 39906 40294 52037 78581 878// 333 82829 85643;
0224118410999992000020400004+49230+018620FM-12+031599999V0202301N002012200019N0100001N1+00051-00091103231ADDAA106000891AY181061AY211061GA1011+009309089GF104991041081008001001001GJ101329MA1999999099321MD1210261+9999MW1261REMSYN100AAXX  04001 11841 11560 42302 10005 21009 39932 40323 52026 69971 72681 84800 333 55022 81831 83644;
0101118410999992000020403004+49230+018620FM-12+031599999V0209999C000019999999N9999999N1-00241-00371103521ADDMA1999999099561MD1210261+9999REMSYN060AAXX  04031 11841 46/// /0000 11024 21037 39956 40352 52026;
0270118410999992000020406004+49230+018620FM-12+031599999V0202301N001012200019N0150001N1-00511-00601103791ADDAA112001091AJ100239199999999AY181061AY211061GA1021+009009059GF102991021051008001001011IA1239IA2999-01009KA1120N-00521MA1999999099781MD1210171+9999MW1011REMSYN106AAXX  04061 11841 11565 22301 11051 21060 39978 40379 52017 69992 70181 82501 333 21052 3/110 47023 82630;
0165118410999992000020409004+49230+018620FM-12+031599999V0209999C000012200019N0200001N1-00181-00551103841ADDGA1031+063009009GF103991001001999999001011MA1999999099871MD1210091+9999REMSYN082AAXX  04091 11841 42970 30000 11018 21055 39987 40384 52009 80001 333 83071 93501;
0176118410999992000020412004+49230+018620FM-12+031599999V0202401N003010108019N0300001N1+00441-00461103611ADDAA199000021GA1051+010809069GF105991051051012501001001MA1999999099741MD1810131+9999REMSYN082AAXX  04121 11841 32680 52403 10044 21046 39974 40361 58013 85500 333 85636 91008;
0159118410999992000020415004+49230+018620FM-12+031599999V0202401N002010108019N0300001N1+00291-00261103401ADDGA1061+010809059GF106991061051012501001011MA1999999099521MD1710221+9999REMSYN076AAXX  04151 11841 42680 62402 10029 21026 39952 40340 57022 86501 333 86636;
0214118410999992000020418004+49230+018620FM-12+031599999V0202701N003012200019N0250001N1+00081-00181103311ADDAA199000091GA1011+015009069GF104991011051017501041001KA1120M+00551MA1999999099401MD1610121+9999REMSYN088AAXX  04181 11841 32775 42703 10008 21018 39940 40331 56012 81540 333 10055 81650 84363;EQDQ01  00002PRCP99
0193118410999992000020421004+49230+018620FM-12+031599999V0202701N004010099019N0300001N1+00181-00061103101ADDAY171031AY221031GA1051+009909069GF107991071051008001001001MA1999999099211MD1710191+9999MW1681REMSYN088AAXX  04211 11841 41580 72704 10018 21006 39921 40310 57019 76872 87500 333 85633 87645;
0246118410999992000020500004+49230+018620FM-12+031599999V0202601N006010033019N0060001N1+00071+00011102931ADDAA106001091AY171061AY211061GA1021+002109079GA2061+003309079GF108991081051002501999999GJ103429MA1999999099041MD1710171+9999MW1681REMSYN106AAXX  05001 11841 11356 82606 10007 20001 39904 40293 57017 60011 76871 885// 333 55057 82707 86711 88620;
0187118410999992000020503004+49230+018620FM-12+031599999V0202601N004010027019N0250001N1+00131+00041102741ADDAY171031AY271031GA1081+002709069GF108991081061002501999999MA1999999098861MD1610181+9999MW1231REMSYN082AAXX  05031 11841 41375 82604 10013 20004 39886 40274 56018 72377 886// 333 88709;
0270118410999992000020506004+49230+018620FM-12+031599999V0202901N001010030019N0035001N1+00131+00101102661ADDAA112004191AJ100199199999999AY171061AY221061GA1081+003009069GF108991081071004501999999IA1279IA2999+00009KA1120N+00051MA1999999098791MD1610071+9999MW1681REMSYN106AAXX  05061 11841 11435 82901 10013 20010 39879 40266 56007 60042 76872 887// 333 20005 3/100 43019 88710;
0101118410999992000020509004+49230+018620FM-12+031599999V0202801N003019999999N9999999N1+00251+00201102671ADDMA1999999098821MD1210031+9999REMSYN060AAXX  05091 11841 46/// /2803 10025 20020 39882 40267 52003;
0210118410999992000020512004+49230+018620FM-12+031599999V0200101N00101001201CN0025001N1+00331+00261102681ADDAA106000591AY161061AY221061GA1041+001809079GF108991081051001501999999MA1999999098831MD1010021+9999MW1601REMSYN094AAXX  05121 11841 11225 80101 10033 20026 39883 40268 50002 69941 76062 885// 333 84706 88617;
0101118410999992000020515004+49230+018620FM-12+031599999V0209999V001019999999N9999999N1+00251+00221102651ADDMA1999999098801MD1710041+9999REMSYN060AAXX  05151 11841 46/// /9901 10025 20022 39880 40265 57004;
0229118410999992000020518004+49230+018620FM-12+031599999V0209999C00001002101CN0010001N1+00201+00181102771ADDAA112000591AY161061AY221061GA1041+002109079GF108991081051002501999999KA1120M+00361MA1999999098901MD1210111+9999MW1211REMSYN100AAXX  05181 11841 11310 80000 10020 20018 39890 40277 52011 69942 72162 885// 333 10036 84707 88618;
0101118410999992000020521004+49230+018620FM-12+031599999V0200801N001019999999N9999999N1+00151+00151102851ADDMA1999999098981MD1210101+9999REMSYN060AAXX  05211 11841 46/// /0801 10015 20015 39898 40285 52010;
0212118410999992000020600004+49230+018620FM-12+031599999V0209999C000010006019N0004001N1+00091+00091102901ADDAA106000791AY141061AY221061GA1091+000609999GF109991091999999999999999GJ100009MA1999999099011MD1110031+9999MW1471REMSYN088AAXX  06001 11841 11/04 90000 10009 20009 39901 40290 51003 69901 74742 333 55000 89/02;
0181118410999992000020603004+49230+018620FM-12+031599999V0209999C000010003019N0002001N1+00121+00121102901ADDAY141031AY241031GA1091+000309999GF109991091999999999999999MA1999999099011MD1410001+9999MW1451REMSYN076AAXX  06031 11841 41/02 90000 10012 20012 39901 40290 54000 74544 333 89/01;
0264118410999992000020606004+49230+018620FM-12+031599999V0209999C000010003019N0002001N1+00101+00101102891ADDAA112000791AJ100189199999999AY141061AY241061GA1091+000309999GF109991091999999999999999IA1279IA2999+00009KA1120N+00071MA1999999099001MD1710011+9999MW1451REMSYN100AAXX  06061 11841 11/02 90000 10010 20010 39900 40289 57001 69902 74544 333 20007 3/000 43018 89/01;
0187118410999992000020609004+49230+018620FM-12+031599999V0209999C000010009019N0005001N1+00231+00231102891ADDAY141031AY241031GA1081+000909069GF108991081061001501999999MA1999999099021MD1110021+9999MW1441REMSYN082AAXX  06091 11841 41205 80000 10023 20023 39902 40289 51002 74444 886// 333 88703;
0217118410999992000020612004+49230+018620FM-12+031599999V0209999C000010033019N0020001N1+00541+00281102751ADDAA199000091AY141061AY241061GA1071+003309069GF107991071061004501001001MA1999999098931MD1810091+9999MW1101REMSYN082AAXX  06121 11841 31420 70000 10054 20028 39893 40275 58009 71044 87600 333 87711;EQDQ01  00002PRCP99
0187118410999992000020615004+49230+018620FM-12+031599999V0200801N002010015019N0020001N1+00421+00331102621ADDAY121031AY221031GA1081+001509069GF108991081061001501999999MA1999999098791MD1610141+9999MW1101REMSYN082AAXX  06151 11841 41220 80802 10042 20033 39879 40262 56014 71022 886// 333 88705;
0230118410999992000020618004+49230+018620FM-12+031599999V0201101N001010006019N0007001N1+00241+00221102641ADDAA199000091AY121061AY221061GA1091+000609999GF109991091999999999999999KA1120M+00621MA1999999098781MD1510011+9999MW1471REMSYN082AAXX  06181 11841 31/07 91101 10024 20022 39878 40264 55001 74722 333 10062 89/02;EQDQ01  00002PRCP99
0181118410999992000020621004+49230+018620FM-12+031599999V0200901N001010006019N0005001N1+00181+00181102551ADDAY141031AY241031GA1091+000609999GF109991091999999999999999MA1999999098691MD1810091+9999MW1451REMSYN076AAXX  06211 11841 41/05 90901 10018 20018 39869 40255 58009 74544 333 89/02;
0225118410999992000020700004+49230+018620FM-12+031599999V0200601N001010006019N0004001N1+00081+00081102421ADDAA199000091AY141061AY241061GA1091+000609999GF109991091999999999999999GJ100009MA1999999098551MD1710141+9999MW1451REMSYN082AAXX  07001 11841 31/04 90601 10008 20008 39855 40242 57014 74544 333 55000 89/02;EQDQ01  00002PRCP99
0181118410999992000020703004+49230+018620FM-12+031599999V0209999C000010006019N0004001N1+00041+00041102261ADDAY141031AY241031GA1091+000609999GF109991091999999999999999MA1999999098391MD1610161+9999MW1451REMSYN076AAXX  07031 11841 41/04 90000 10004 20004 39839 40226 56016 74544 333 89/02;
0277118410999992000020706004+49230+018620FM-12+031599999V0209999C000010006019N0003001N1+00021+00021102241ADDAA199000091AJ100189199999999AY141061AY241061GA1091+000609999GF109991091999999999999999IA1279IA2999+00009KA1120N+00011MA1999999098371MD1510021+9999MW1471REMSYN094AAXX  07061 11841 31/03 90000 10002 20002 39837 40224 55002 74744 333 20001 3/100 43018 89/02;EQDQ01  00002PRCP99
0181118410999992000020709004+49230+018620FM-12+031599999V0209999C000010003019N0003001N1+00081+00081102241ADDAY141031AY241031GA1091+000309999GF109991091999999999999999MA1999999098371MD1010001+9999MW1451REMSYN076AAXX  07091 11841 41/03 90000 10008 20008 39837 40224 50000 74544 333 89/01;
0211118410999992000020712004+49230+018620FM-12+031599999V0209999C000010006019N0002001N1+00181+00031102131ADDAA199000091AY141061AY241061GA1091+000609999GF109991091999999999999999MA1999999098281MD1810091+9999MW1471REMSYN076AAXX  07121 11841 31/02 90000 10018 20003 39828 40213 58009 74744 333 89/02;EQDQ01  00002PRCP99
0193118410999992000020715004+49230+018620FM-12+031599999V0201001N001010300019N0080001N1+00341+00211102021ADDAY141031AY221031GA1051+030009039GF107991051001999999031081MA1999999098201MD1610081+9999MW1101REMSYN088AAXX  07151 11841 41958 71001 10034 20021 39820 40202 56008 71042 85038 333 85360 87270;
0223118410999992000020718004+49230+018620FM-12+031599999V0201101N001010270019N0025001N1+00201+00161102051ADDAA112000791AY141061AY221061GA1081+027009019GF108991081001999999071999KA1120M+00421MA1999999098211MD1010011+9999MW1601REMSYN094AAXX  07181 11841 11925 81101 10020 20016 39821 40205 50001 69902 76042 8807/ 333 10042 88459;
0187118410999992000020721004+49230+018620FM-12+031599999V0200801N001010009019N0003001N1+00181+00151102021ADDAY161031AY221031GA1081+000909069GF108991081061000751999999MA1999999098181MD1810031+9999MW1461REMSYN082AAXX  07211 11841 41103 80801 10018 20015 39818 40202 58003 74662 886// 333 88703;
0212118410999992000020800004+49230+018620FM-12+031599999V0209999C000010006019N0002001N1+00161+00131101931ADDAA106000391AY161061AY221061GA1091+000609999GF109991091999999999999999GJ100009MA1999999098091MD1610091+9999MW1451REMSYN088AAXX  08001 11841 11/02 90000 10016 20013 39809 40193 56009 69931 74562 333 55000 89/02;
0181118410999992000020803004+49230+018620FM-12+031599999V0202501N001010006019N0002001N1+00171+00161101731ADDAY141031AY241031GA1091+000609999GF109991091999999999999999MA1999999097901MD1610191+9999MW1451REMSYN076AAXX  08031 11841 41/02 92501 10017 20016 39790 40173 56019 74544 333 89/02;
0264118410999992000020806004+49230+018620FM-12+031599999V0209999C000010003019N0001001N1+00151+00141101581ADDAA112000391AJ100169199999999AY141061AY241061GA1091+000309999GF109991091999999999999999IA1279IA2999+00009KA1120N+00141MA1999999097751MD1710151+9999MW1471REMSYN100AAXX  08061 11841 11/01 90000 10015 20014 39775 40158 57015 69932 74744 333 20014 3/000 43016 89/01;
0187118410999992000020809004+49230+018620FM-12+031599999V0202701N005010054019N0050001N1+00351+00261101441ADDAY141031AY241031GA1081+005409059GF108991081051004501999999MA1999999097641MD1810111+9999MW1611REMSYN082AAXX  08091 11841 41450 82705 10035 20026 39764 40144 58011 76144 885// 333 88618;
0204118410999992000020812004+49230+018620FM-12+031599999V0202501N006010078019N0150001N1+00581+00331101141ADDAA106000591AY161061AY241061GA1081+007809059GF108991081051008001999999MA1999999097391MD1710251+9999MW1601REMSYN088AAXX  08121 11841 11565 82506 10058 20033 39739 40114 57025 69941 76064 885// 333 88626;
0193118410999992000020815004+49230+018620FM-12+031599999V0202601N001010063019N0100001N1+00471+00351101021ADDAY161031AY221031GA1061+006309069GF108991081051008001999999MA1999999097261MD1610131+9999MW1021REMSYN088AAXX  08151 11841 41560 82601 10047 20035 39726 40102 56013 70262 885// 333 86621 88630;
0229118410999992000020818004+49230+018620FM-12+031599999V0200601N00101004201CN0030001N1+00221+00181100861ADDAA112000591AY161061AY221061GA1021+003609079GF108991081051004501999999KA1120M+00661MA1999999097071MD1610191+9999MW1101REMSYN100AAXX  08181 11841 11430 80601 10022 20018 39707 40086 56019 69942 71062 885// 333 10066 82712 88650;
0193118410999992000020821004+49230+018620FM-12+031599999V0209999C00001001201CN0008001N1+00201+00181100591ADDAY141031AY241031GA1031+001509079GF108991081051001501999999MA1999999096801MD1710271+9999MW1611REMSYN088AAXX  08211 11841 41208 80000 10020 20018 39680 40059 57027 76144 885// 333 83705 88620;
0224118410999992000020900004+49230+018620FM-12+031599999V0209999C000010015019N0005001N1+00231+00231100451ADDAA106007191AY161061AY261061GA1061+001509079GF108991081051001501999999GJ100009MA1999999096671MD1610131+9999MW1611REMSYN100AAXX  09001 11841 11205 80000 10023 20023 39667 40045 56013 60071 76166 885// 333 55000 86705 88623;
0193118410999992000020903004+49230+018620FM-12+031599999V0202701N00101001201CN0060001N1+00471+00461100421ADDAY161031AY241031GA1021+001809079GF108991081051001501999999MA1999999096681MD1010011+9999MW1611REMSYN088AAXX  09031 11841 41256 82701 10047 20046 39668 40042 50001 76164 885// 333 82706 88621;
0276118410999992000020906004+49230+018620FM-12+031599999V0209999C00001036001CN0150001N1+00401+00301100801ADDAA112007991AJ100139199999999AY161061AY221061GA1031+015009069GF108991031051017501071999IA1279IA2999+00009KA1120N+00161MA1999999097041MD1110391+9999MW1021REMSYN112AAXX  09061 11841 11765 80000 10040 20030 39704 40080 51039 60082 70262 8357/ 333 20016 3/000 43013 83650 88358;
0193118410999992000020909004+49230+018620FM-12+031599999V0202801N00301036001CN0250001N1+00511+00161101061ADDAY161031AY221031GA1041+010509089GF107991041021012501071001MA1999999097301MD1210261+9999MW1021REMSYN088AAXX  09091 11841 41675 72803 10051 20016 39730 40106 52026 70262 84270 333 84835 86361;
0210118410999992000020912004+49230+018620FM-12+031599999V0202801N00501220001CN0300001N1+00491-00031101281ADDAA106000391AY161061AY221061GA1031+009609089GF106991031021008001001061MA1999999097511MD1310211+9999MW1211REMSYN094AAXX  09121 11841 11580 62805 10049 21003 39751 40128 53021 69931 72162 83206 333 83832 86273;
0159118410999992000020915004+49230+018620FM-12+031599999V0202801N003012200019N0300001N1+00431-00251101451ADDGA1031+012009029GF105991031021012501001081MA1999999097661MD1310151+9999REMSYN076AAXX  09151 11841 42680 52803 10043 21025 39766 40145 53015 83208 333 83840;
0223118410999992000020918004+49230+018620FM-12+031599999V0202301N003012200019N0250001N1+00261-00161101781ADDAA112000391AY181061AY211061GA1021+010809029GF102991021021012501001001KA1120M+00561MA1999999097961MD1210301+9999MW1251REMSYN094AAXX  09181 11841 11675 22303 10026 21016 39796 40178 52030 69932 72581 82200 333 10056 82836;
0159118410999992000020921004+49230+018620FM-12+031599999V0200901N001010096019N0300001N1+00101-00041101861ADDGA1071+009609059GF107991071051008001001001MA1999999098011MD1010051+9999REMSYN076AAXX  09211 11841 42580 70901 10010 21004 39801 40186 50005 87500 333 87632;
0218118410999992000021000004+49230+018620FM-12+031599999V0202401N005010051019N0100001N1+00121+00001101861ADDAA106000891AY161061AY221061GA1081+005109059GF108991081051004501999999GJ100729MA1999999098011MD1510001+9999MW1601REMSYN094AAXX  10001 11841 11460 82405 10012 20000 39801 40186 55000 69971 76062 885// 333 55012 88617;
0187118410999992000021003004+49230+018620FM-12+031599999V0203001N003010084019N0200001N1+00141+00041101991ADDAY161031AY221031GA1081+008409059GF108991081051008001999999MA1999999098141MD1210131+9999MW1601REMSYN082AAXX  10031 11841 41570 83003 10014 20004 39814 40199 52013 76062 885// 333 88628;
0276118410999992000021006004+49230+018620FM-12+031599999V0203001N00101007501CN0150001N1+00131+00061102251ADDAA112002091AJ100119199999999AY161061AY221061GA1031+007809069GF108991081051008001999999IA1279IA2999+00009KA1120N+00061MA1999999098391MD1310251+9999MW1601REMSYN112AAXX  10061 11841 11565 83001 10013 20006 39839 40225 53025 60022 76062 885// 333 20006 3/100 43011 83626 88650;
0193118410999992000021009004+49230+018620FM-12+031599999V0202701N00201001201CN0150001N1+00221+00121102601ADDAY161031AY221031GA1011+001509079GF106991051051001501041091MA1999999098741MD1210351+9999MW1211REMSYN088AAXX  10091 11841 41265 62702 10022 20012 39874 40260 52035 72162 85549 333 81705 85630;
0204118410999992000021012004+49230+018620FM-12+031599999V0203301N001010117019N0300001N1+00351+00041102591ADDAA106000391AY161061AY221061GA1071+011709059GF107991071051012501001001MA1999999098751MD1010011+9999MW1021REMSYN088AAXX  10121 11841 11680 73301 10035 20004 39875 40259 50001 69931 70262 87500 333 87639;
0159118410999992000021015004+49230+018620FM-12+031599999V0200601N003012200019N0250001N1+00311+00001102481ADDGA1031+014109059GF103991031051012501001001MA1999999098641MD1610111+9999REMSYN076AAXX  10151 11841 42675 30603 10031 21000 39864 40248 56011 83500 333 83647;
0214118410999992000021018004+49230+018620FM-12+031599999V0201301N001012200019N0100001N1+00001-00071102521ADDAA112000391GA1011+015009059GF101991011051017501999001KA1120M+00561MA1999999098631MD1810011+9999REMSYN088AAXX  10181 11841 12760 11301 10000 21007 39863 40252 58001 69932 81500 333 10056 81650;EQDQ01    003SCOMCG
0181118410999992000021021004+49230+018620FM-12+031599999V0209999C000010003019N0003001N1-00091-00101102521ADDAY141031AY241031GA1091+000309999GF109991091999999999999999MA1999999098621MD1810011+9999MW1471REMSYN076AAXX  10211 11841 41/03 90000 11009 21010 39862 40252 58001 74744 333 89/01;
0225118410999992000021100004+49230+018620FM-12+031599999V0209999C000010003019N0002001N1-00191-00191102421ADDAA199000091AY141061AY241061GA1091+000309999GF109991091999999999999999GJ101389MA1999999098511MD1810111+9999MW1451REMSYN082AAXX  11001 11841 31/02 90000 11019 21019 39851 40242 58011 74544 333 55023 89/01;EQDQ01  00002PRCP99
0181118410999992000021103004+49230+018620FM-12+031599999V0209999C000010003019N0002001N1-00331-00331102401ADDAY141031AY241031GA1091+000309999GF109991091999999999999999MA1999999098471MD1710041+9999MW1451REMSYN076AAXX  11031 11841 41/02 90000 11033 21033 39847 40240 57004 74544 333 89/01;
0277118410999992000021106004+49230+018620FM-12+031599999V0209999C000010003019N0002001N1-00441-00441102461ADDAA199000091AJ100109199999999AY141061AY241061GA1091+000309999GF109991091999999999999999IA1279IA2999-00409KA1120N-00441MA1999999098511MD1310041+9999MW1451REMSYN094AAXX  11061 11841 31/02 90000 11044 21044 39851 40246 53004 74544 333 21044 3/104 43010 89/01;EQDQ01  00002PRCP99
0193118410999992000021109004+49230+018620FM-12+031599999V0209999C000010030019N0017001N1-00231-00301102581ADDAY141031AY241031GA1061+003009079GF108991061061004501071999MA1999999098661MD1210151+9999MW1101REMSYN088AAXX  11091 11841 41417 80000 11023 21030 39866 40258 52015 71044 8667/ 333 86710 88360;
0223118410999992000021112004+49230+018620FM-12+031599999V0200301N00101004201CN0022001N1+00061-00071102711ADDAA199000091AY141061AY241061GA1031+003609079GF108991081051004501999999MA1999999098821MD1210161+9999MW1101REMSYN088AAXX  11121 11841 31422 80301 10006 21007 39882 40271 52016 71044 885// 333 83712 88636;EQDQ01  00002PRCP99
0187118410999992000021115004+49230+018620FM-12+031599999V0201001N001010078019N0080001N1+00221+00071102801ADDAY121031AY221031GA1081+007809059GF108991081051008001999999MA1999999098931MD1210111+9999MW1101REMSYN082AAXX  11151 11841 41558 81001 10022 20007 39893 40280 52011 71022 885// 333 88626;
0236118410999992000021118004+49230+018620FM-12+031599999V0209999C000010135019N0050001N1+00051+00011103001ADDAA199000091AY121061AY221061GA1081+013509059GF108991081051012501999999KA1120M+00221MA1999999099101MD1110171+9999MW1101REMSYN088AAXX  11181 11841 31650 80000 10005 20001 39910 40300 51017 71022 885// 333 10022 88645;EQDQ01  00002PRCP99
0187118410999992000021121004+49230+018620FM-12+031599999V0209999C000010120019N0050001N1+00071+00061103081ADDAY161031AY221031GA1081+012009059GF108991081051012501999999MA1999999099181MD1210081+9999MW1101REMSYN082AAXX  11211 11841 41650 80000 10007 20006 39918 40308 52008 71062 885// 333 88640;
0198118410999992000021200004+49230+018620FM-12+031599999V0201201N002012200019N0030001N1-00081-00091103101ADDAA106000791AY161061AY211061GA1001+999999999GF100991001001999999001001MA1999999099181MD1410001+9999MW1101REMSYN082AAXX  12001 11841 11930 01202 11008 21009 39918 40310 54000 69901 71061 333 55000;
0206118410999992000021203004+49230+018620FM-12+031599999V0201001N002012200019N0038001N1-00121-00151103041ADDAY101031AY201031GA1041+015009059GF104991041051017501999001MA1999999099111MD1810071+9999MW1101REMSYN082AAXX  12031 11841 41738 41002 11012 21015 39911 40304 58007 71000 84500 333 84650;EQDQ01    003SCOMCG
0276118410999992000021206004+49230+018620FM-12+031599999V0201001N00101012001CN0080001N1-00121-00161102961ADDAA112000791AJ100109199999999AY111061AY211061GA1021+010809069GF106991061051012501001001IA1279IA2999-00409KA1120N-00221MA1999999099041MD1710071+9999MW1101REMSYN112AAXX  12061 11841 11658 61001 11012 21016 39904 40296 57007 69902 71011 86500 333 21022 3/104 43010 82636 85650;
0178118410999992000021209004+49230+018620FM-12+031599999V0200801N002010150019N0150001N1+00051-00091102851ADDGA1071+015009059GF107991071051017501999001MA1999999098961MD1810081+9999REMSYN076AAXX  12091 11841 42765 70802 10005 21009 39896 40285 58008 87500 333 87650;EQDQ01    003SCOMCG
0189118410999992000021212004+49230+018620FM-12+031599999V0200801N001010150019N0150001N1+00291-00091102641ADDAA199000091GA1071+015009059GF107991071051017501999999MA1999999098791MD1810171+9999REMSYN076AAXX  12121 11841 32765 70801 10029 21009 39879 40264 58017 875// 333 87650;EQDQ01  00002PRCP99
0178118410999992000021215004+49230+018620FM-12+031599999V0200801N001010150019N0150001N1+00331-00051102461ADDGA1071+015009059GF107991071051017501999001MA1999999098621MD1710171+9999REMSYN076AAXX  12151 11841 42765 70801 10033 21005 39862 40246 57017 87500 333 87650;EQDQ01    003SCOMCG
0242118410999992000021218004+49230+018620FM-12+031599999V0209999C00001012001CN0080001N1+00171+00021102441ADDAA199000091AY121061AY221061GA1041+013509069GF108991081051012501999999KA1120M+00371MA1999999098581MD1610041+9999MW1101REMSYN094AAXX  12181 11841 31658 80000 10017 20002 39858 40244 56004 71022 885// 333 10037 84645 88647;EQDQ01  00002PRCP99
0193118410999992000021221004+49230+018620FM-12+031599999V0202301N001010066019N0050001N1+00111+00021102381ADDAY121031AY221031GA1051+006609069GF108991081051008001999999MA1999999098511MD1610071+9999MW1101REMSYN088AAXX  12211 11841 41550 82301 10011 20002 39851 40238 56007 71022 885// 333 85622 88627;
0218118410999992000021300004+49230+018620FM-12+031599999V0202601N002010120019N0050001N1+00271+00081102271ADDAA106000791AY161061AY221061GA1081+012009059GF108991081051012501999999GJ100009MA1999999098431MD1710081+9999MW1101REMSYN094AAXX  13001 11841 11650 82602 10027 20008 39843 40227 57008 69901 71062 885// 333 55000 88640;
0187118410999992000021303004+49230+018620FM-12+031599999V0202301N005010111019N0060001N1+00311-00021102161ADDAY121031AY221031GA1051+011109059GF105991051051012501001001MA1999999098331MD1610101+9999MW1101REMSYN082AAXX  13031 11841 41656 52305 10031 21002 39833 40216 56010 71022 85500 333 85637;
0248118410999992000021306004+49230+018620FM-12+031599999V0202301N00301007501CN0120001N1+00191-00151102191ADDAA112000791AJ100089199999999GA1031+009609069GF107991071051008001001001IA1289IA2999+00009KA1120N+00101MA1999999098341MD1010011+9999REMSYN106AAXX  13061 11841 12562 72303 10019 21015 39834 40219 50001 69902 87500 333 20010 3/000 44008 83632 86650;
0159118410999992000021309004+49230+018620FM-12+031599999V0202601N004010093019N0250001N1+00221-00211102161ADDGA1081+009309059GF108991081051008001999999MA1999999098311MD1810031+9999REMSYN076AAXX  13091 11841 42575 82604 10022 21021 39831 40216 58003 885// 333 88631;
0189118410999992000021312004+49230+018620FM-12+031599999V0202601N004010114019N0300001N1+00351-00121101911ADDAA199000091GA1071+011409059GF107991071051012501001001MA1999999098091MD1810221+9999REMSYN076AAXX  13121 11841 32680 72604 10035 21012 39809 40191 58022 87500 333 87638;EQDQ01  00002PRCP99
0159118410999992000021315004+49230+018620FM-12+031599999V0202101N002010135019N0250001N1+00531-00141101641ADDGA1071+013509059GF107991071051012501001001MA1999999097861MD1610231+9999REMSYN076AAXX  13151 11841 42675 72102 10053 21014 39786 40164 56023 87500 333 87645;
0229118410999992000021318004+49230+018620FM-12+031599999V0209999C00001004201CN0080001N1+00191+00131101561ADDAA112002091AY121061AY221061GA1041+003309079GF108991081051004501999999KA1120M+00601MA1999999097741MD1710121+9999MW1611REMSYN100AAXX  13181 11841 11458 80000 10019 20013 39774 40156 57012 60022 76122 885// 333 10060 84711 88620;
0193118410999992000021321004+49230+018620FM-12+031599999V0202501N006010030019N0060001N1+00251+00131101471ADDAY161031AY261031GA1051+003009079GF108991081051004501999999MA1999999097661MD1510081+9999MW1611REMSYN088AAXX  13211 11841 41456 82506 10025 20013 39766 40147 55008 76166 885// 333 85710 88620;
0224118410999992000021400004+49230+018620FM-12+031599999V0200201N00301004201CN0060001N1+00131+00031101701ADDAA106003091AY161061AY261061GA1031+003309079GF108991081051004501999999GJ101509MA1999999097861MD1310201+9999MW1101REMSYN100AAXX  14001 11841 11456 80203 10013 20003 39786 40170 53020 60031 71066 885// 333 55025 83711 88625;
0193118410999992000021403004+49230+018620FM-12+031599999V0209999C00001007501CN0070001N1+00061+00031101801ADDAY161031AY221031GA1031+009009069GF107991071051008001001001MA1999999097951MD1110091+9999MW1221REMSYN088AAXX  14031 11841 41557 70000 10006 20003 39795 40180 51009 72262 87500 333 83630 87648;
0276118410999992000021406004+49230+018620FM-12+031599999V0202501N00301007501CN0100001N1+00041-00101101881ADDAA112004191AJ100079199999999AY171061AY261061GA1031+008409069GF108991081051008001999999IA1289IA2999+00009KA1120N+00031MA1999999098021MD1110071+9999MW1701REMSYN112AAXX  14061 11841 11560 82503 10004 21010 39802 40188 51007 60042 77076 885// 333 20003 3/100 44007 83628 88650;
0193118410999992000021409004+49230+018620FM-12+031599999V0202501N00401012001CN0020001N1+00071-00061101861ADDAY181031AY271031GA1021+007809089GF107991071081008001999999MA1999999098011MD1810011+9999MW1851REMSYN088AAXX  14091 11841 41520 72504 10007 21006 39801 40186 58001 78587 878// 333 82826 85630;
0210118410999992000021412004+49230+018620FM-12+031599999V0202401N00401012001CN0012001N1+00111+00001101741ADDAA106000591AY181061AY271061GA1031+006009089GF107991071081008001999999MA1999999097901MD1810111+9999MW1851REMSYN094AAXX  14121 11841 11512 72404 10011 21000 39790 40174 58011 69951 78587 878// 333 83820 84626;
0187118410999992000021415004+49230+018620FM-12+031599999V0203101N001010069019N0100001N1+00061-00101101781ADDAY181031AY221031GA1061+006909029GF106991061021008001001001MA1999999097931MD1310031+9999MW1851REMSYN082AAXX  14151 11841 41560 63101 10006 21010 39793 40178 53003 78582 86200 333 86823;
0223118410999992000021418004+49230+018620FM-12+031599999V0201201N001010105019N0120001N1-00121-00371102091ADDAA112002091AY181061AY211061GA1051+010509059GF105991051051012501001001KA1120M+00271MA1999999098201MD1210271+9999MW1031REMSYN094AAXX  14181 11841 11662 51201 11012 21037 39820 40209 52027 60022 70381 85500 333 10027 85635;
0193118410999992000021421004+49230+018620FM-12+031599999V0209999C00001012001CN0100001N1-00321-00391102241ADDAY181031AY211031GA1021+009009089GF106991061081008001001001MA1999999098321MD1210121+9999MW1851REMSYN088AAXX  14211 11841 41560 60000 11032 21039 39832 40224 52012 78581 86800 333 82830 86650;
0218118410999992000021500004+49230+018620FM-12+031599999V0201601N001012200019N0040001N1-00451-00521102301ADDAA106000191AY181061AY211061GA1021+012909059GF102991021051012501001001GJ100009MA1999999098351MD1010031+9999MW1261REMSYN094AAXX  15001 11841 11640 21601 11045 21052 39835 40230 50003 69911 72681 82500 333 55000 82643;
0171118410999992000021503004+49230+018620FM-12+031599999V0209999C000012200019N0010001N1-00471-00501102221ADDAY101031AY201031GA1001+999999999GF100991001001999999001001MA1999999098271MD1810081+9999MW1101REMSYN066AAXX  15031 11841 41910 00000 11047 21050 39827 40222 58008 71000;
0270118410999992000021506004+49230+018620FM-12+031599999V0209999C000010006019N0005001N1-00491-00531102171ADDAA112000191AJ100079199999999AY141061AY221061GA1081+000609069GF108991081061000751999999IA1249IA2999-01209KA1120N-00621MA1999999098221MD1510051+9999MW1461REMSYN106AAXX  15061 11841 11105 80000 11049 21053 39822 40217 55005 69912 74642 886// 333 21062 3/112 48007 88702;
0187118410999992000021509004+49230+018620FM-12+031599999V0209999C000010006019N0014001N1-00341-00481102081ADDAY141031AY221031GA1051+000609069GF106991051061000751001011MA1999999098161MD1810061+9999MW1281REMSYN082AAXX  15091 11841 41114 60000 11034 21048 39816 40208 58006 72842 85601 333 85702;
0210118410999992000021512004+49230+018620FM-12+031599999V0202701N00201002101CN0040001N1-00111-00271101871ADDAA106000191AY141061AY221061GA1031+002409079GF108991081051002501999999MA1999999097991MD1810171+9999MW1711REMSYN094AAXX  15121 11841 11340 82702 11011 21027 39799 40187 58017 69911 77142 885// 333 83708 88621;
0187118410999992000021515004+49230+018620FM-12+031599999V0202501N001010015019N0013001N1-00051-00101101751ADDAY171031AY221031GA1081+001509069GF108991081071001501999999MA1999999097881MD1710111+9999MW1701REMSYN082AAXX  15151 11841 41213 82501 11005 21010 39788 40175 57011 77072 887// 333 88705;
0141118410999992000021518004+49230+018620FM-12+031599999V0202501N001019999999N9999999N1-00051-00081101741ADDAA112002091KA1999M+00011MA1999999097881MD1710011+9999REMSYN076AAXX  15181 11841 16/// /2501 11005 21008 39788 40174 57001 60022 333 10001;
0101118410999992000021521004+49230+018620FM-12+031599999V0202801N001019999999N9999999N1-00051-00091101671ADDMA1999999097811MD1710071+9999REMSYN060AAXX  15211 11841 46/// /2801 11005 21009 39781 40167 57007;
0128118410999992000021600004+49230+018620FM-12+031599999V0209999C000019999999N9999999N1-00041-00081101501ADDAA106000191MA1999999097651MD1710161+9999REMSYN076AAXX  16001 11841 16/// /0000 11004 21008 39765 40150 57016 69911 333 55016;
0187118410999992000021603004+49230+018620FM-12+031599999V0209999C000010012019N0010001N1-00041-00051101271ADDAY121031AY221031GA1081+001209069GF108991081071001501999999MA1999999097421MD1710221+9999MW1101REMSYN082AAXX  16031 11841 41210 80000 11004 21005 39742 40127 57022 71022 887// 333 88704;
0276118410999992000021606004+49230+018620FM-12+031599999V0202201N00201002101CN0018001N1-00031-00041100991ADDAA112000591AJ100119199999999AY171061AY221061GA1041+002109079GF108991081051002501999999IA1289IA2999-00109KA1120N-00061MA1999999097161MD1610261+9999MW1221REMSYN112AAXX  16061 11841 11318 82202 11003 21004 39716 40099 56026 69952 72272 885// 333 21006 3/101 44011 84707 88637;
0193118410999992000021609004+49230+018620FM-12+031599999V0202701N00101004201CN0020001N1+00091+00001100771ADDAY171031AY221031GA1031+003309079GF108991081051004501999999MA1999999096961MD1810201+9999MW1701REMSYN088AAXX  16091 11841 41420 82701 10009 20000 39696 40077 58020 77072 885// 333 83711 88626;
0210118410999992000021612004+49230+018620FM-12+031599999V0202501N00201004201CN0070001N1+00291+00131100491ADDAA106001091AY171061AY221061GA1031+004509079GF108991081051004501999999MA1999999096721MD1610241+9999MW1681REMSYN094AAXX  16121 11841 11457 82502 10029 20013 39672 40049 56024 69991 76872 885// 333 83715 88625;
0193118410999992000021615004+49230+018620FM-12+031599999V0209999C00001004201CN0050001N1+00201+00111100421ADDAY171031AY221031GA1041+004509079GF108991081051004501999999MA1999999096641MD1710081+9999MW1611REMSYN088AAXX  16151 11841 41450 80000 10020 20011 39664 40042 57008 76172 885// 333 84715 88620;
0229118410999992000021618004+49230+018620FM-12+031599999V0209999C00001004201CN0025001N1+00071+00061100461ADDAA112004191AY171061AY261061GA1041+003909079GF108991081051004501999999KA1120M+00501MA1999999096661MD1010021+9999MW1601REMSYN100AAXX  16181 11841 11425 80000 10007 20006 39666 40046 50002 60042 76076 885// 333 10050 84713 88626;
0193118410999992000021621004+49230+018620FM-12+031599999V0201201N00101007501CN0020001N1+00061+00051100461ADDAY161031AY261031GA1031+009309069GF107991071051008001001001MA1999999096661MD1410001+9999MW1101REMSYN088AAXX  16211 11841 41520 71201 10006 20005 39666 40046 54000 71066 87500 333 83631 87650;
0218118410999992000021700004+49230+018620FM-12+031599999V0209999C000010012019N0010001N1+00011+00001100351ADDAA106001091AY161061AY221061GA1081+001209069GF108991081061001501999999GJ100009MA1999999096551MD1810111+9999MW1101REMSYN094AAXX  17001 11841 11210 80000 10001 21000 39655 40035 58011 60011 71062 886// 333 55000 88704;
0193118410999992000021703004+49230+018620FM-12+031599999V0202401N00101001201CN0008001N1+00011+00011100211ADDAY121031AY221031GA1041+001509079GF108991081051001501999999MA1999999096411MD1610141+9999MW1441REMSYN088AAXX  17031 11841 41208 82401 10001 20001 39641 40021 56014 74422 885// 333 84705 88625;
0276118410999992000021706004+49230+018620FM-12+031599999V0209999C00001036001CN0005001N1-00071-00071100231ADDAA112001091AJ100099199999999AY141061AY221061GA1041+001509079GF108991041061001501071999IA1289IA2999-00209KA1120N-00091MA1999999096421MD1110011+9999MW1461REMSYN112AAXX  17061 11841 11205 80000 11007 21007 39642 40023 51001 60012 74642 8467/ 333 21009 3/102 44009 84705 88360;
0193118410999992000021709004+49230+018620FM-12+031599999V0202801N00101036001CN0150001N1+00061-00021100211ADDAY141031AY221031GA1011+007209089GF108991011011008001071999MA1999999096421MD1510001+9999MW1021REMSYN088AAXX  17091 11841 41565 82801 10006 21002 39642 40021 55000 70242 8117/ 333 81824 88357;
0210118410999992000021712004+49230+018620FM-12+031599999V0200201N001010087019N0150001N1+00201-00181100201ADDAA106000791AY141061AY221061GA1061+008709069GF108991061051008001071999MA1999999096431MD1310011+9999MW1701REMSYN094AAXX  17121 11841 11565 80201 10020 21018 39643 40020 53001 69901 77042 8657/ 333 86629 88357;
0193118410999992000021715004+49230+018620FM-12+031599999V0203401N00101036001CN0250001N1+00211-00151100321ADDAY171031AY221031GA1031+012609069GF106991031051012501071011MA1999999096541MD1210111+9999MW1011REMSYN088AAXX  17151 11841 41675 63401 10021 21015 39654 40032 52011 70172 83571 333 83642 84358;
0223118410999992000021718004+49230+018620FM-12+031599999V0209999C000012200019N0150001N1-00131-00211100601ADDAA112000791AY171061AY211061GA1011+012309059GF102991011051012501001011KA1120M+00281MA1999999096771MD1310231+9999MW1021REMSYN094AAXX  17181 11841 11665 20000 11013 21021 39677 40060 53023 69902 70271 81501 333 10028 81641;
0187118410999992000021721004+49230+018620FM-12+031599999V0209999C000012200019N0021001N1-00501-00531100851ADDAY101031AY201031GA1021+010809059GF102991021051012501001001MA1999999096951MD1110181+9999MW1111REMSYN082AAXX  17211 11841 41621 20000 11050 21053 39695 40085 51018 71100 82500 333 82636;
0218118410999992000021800004+49230+018620FM-12+031599999V0200701N00101000601CN0004001N1-00511-00511100971ADDAA199000021AY141061AY211061GA1021+000609079GF105991051051000751001001GJ100189MA1999999097071MD1210121+9999MW1461REMSYN094AAXX  18001 11841 31104 50701 11051 21051 39707 40097 52012 74641 85500 333 55003 82702 84647;
0187118410999992000021803004+49230+018620FM-12+031599999V0209999C000010003019N0003001N1-00521-00521101101ADDAY141031AY241031GA1091+000309999GF109991091999999999999999MA1999999097191MD1210121+9999MW1471REMSYN082AAXX  18031 11841 41/03 90000 11052 21052 39719 40110 52012 74744 333 89/01 93501;
0270118410999992000021806004+49230+018620FM-12+031599999V0202501N001010075019N0030001N1-00391-00431101231ADDAA112000791AJ100089199999999AY141061AY221061GA1071+007509059GF108991071051008001071999IA1289IA2999-00909KA1120N-00611MA1999999097331MD1310141+9999MW1701REMSYN106AAXX  18061 11841 11530 82501 11039 21043 39733 40123 53014 69902 77042 8757/ 333 21061 3/109 44008 87625;
0193118410999992000021809004+49230+018620FM-12+031599999V0209999C00001036001CN0080001N1-00151-00341101281ADDAY171031AY221031GA1021+004509079GF107991021061004501071999MA1999999097421MD1110091+9999MW1101REMSYN088AAXX  18091 11841 41458 70000 11015 21034 39742 40128 51009 71072 8267/ 333 82715 86360;
0204118410999992000021812004+49230+018620FM-12+031599999V0202701N003010129019N0200001N1+00231-00401101131ADDAA106000791AY171061AY221061GA1061+012909059GF106991061051012501001001MA1999999097321MD1810101+9999MW1701REMSYN088AAXX  18121 11841 11670 62703 10023 21040 39732 40113 58010 69901 77072 86500 333 86643;
0159118410999992000021815004+49230+018620FM-12+031599999V0201901N001012200019N0300001N1+00261-00531101011ADDGA1031+014409059GF103991031051012501001001MA1999999097211MD1610111+9999REMSYN076AAXX  18151 11841 42680 31901 10026 21053 39721 40101 56011 83500 333 83648;
0214118410999992000021818004+49230+018620FM-12+031599999V0209999C000012200019N0200001N1-00241-00441101081ADDAA112000791GA1011+015009059GF101991011051017501999001KA1120M+00361MA1999999097211MD1010001+9999REMSYN088AAXX  18181 11841 12770 10000 11024 21044 39721 40108 50000 69902 81500 333 10036 81650;EQDQ01    003SCOMCG
0143118410999992000021821004+49230+018620FM-12+031599999V0201301N001012200019N0100001N1-00481-00521100991ADDGA1001+999999999GF100991001001999999001001MA1999999097091MD1810121+9999REMSYN060AAXX  18211 11841 42960 01301 11048 21052 39709 40099 58012;
0184118410999992000021900004+49230+018620FM-12+031599999V0209999C000012200019N0012001N1-00801-00831100921ADDAA199000021GA1011+003009059GF101991011051999999001001GJ100009MA1999999096981MD1610111+9999REMSYN082AAXX  19001 11841 32912 10000 11080 21083 39698 40092 56011 81500 333 55000 81610;
0171118410999992000021903004+49230+018620FM-12+031599999V0209999C000012200019N0012001N1-00751-00781100831ADDAY101031AY201031GA1001+999999999GF100991001001999999001001MA1999999096901MD1710081+9999MW1101REMSYN066AAXX  19031 11841 41912 00000 11075 21078 39690 40083 57008 71000;
0270118410999992000021906004+49230+018620FM-12+031599999V0209999C000010090019N0012001N1-00471-00521100751ADDAA112000191AJ100089199999999AY111061AY211061GA1081+009009059GF108991081051008001999999IA1289IA2999-01109KA1120N-00821MA1999999096861MD1610041+9999MW1711REMSYN106AAXX  19061 11841 11512 80000 11047 21052 39686 40075 56004 69912 77111 885// 333 21082 3/111 44008 88630;
0101118410999992000021909004+49230+018620FM-12+031599999V0209999C000019999999N9999999N1-00211-00421100741ADDMA1999999096891MD1210021+9999REMSYN060AAXX  19091 11841 46/// /0000 11021 21042 39689 40074 52002;
0204118410999992000021912004+49230+018620FM-12+031599999V0202801N002010078019N0100001N1+00011-00181100731ADDAA106000191AY171061AY221061GA1071+007809059GF107991071051008001999999MA1999999096911MD1110011+9999MW1021REMSYN088AAXX  19121 11841 11560 72802 10001 21018 39691 40073 51001 69911 70272 875// 333 87626;
0159118410999992000021915004+49230+018620FM-12+031599999V0202501N001010780019N0100001N1+00071-00201100761ADDGA1081+078009059GF108991081051999999999999MA1999999096951MD1310041+9999REMSYN076AAXX  19151 11841 42960 82501 10007 21020 39695 40076 53004 885// 333 88676;
0223118410999992000021918004+49230+018620FM-12+031599999V0202901N002010078019N0100001N1-00041-00121100871ADDAA112000191AY181061AY211061GA1071+007809059GF107991071051008001999999KA1120M+00131MA1999999097041MD1110091+9999MW1261REMSYN094AAXX  19181 11841 11560 72902 11004 21012 39704 40087 51009 69912 72681 875// 333 10013 87626;
0187118410999992000021921004+49230+018620FM-12+031599999V0209999C000010099019N0100001N1-00041-00101100981ADDAY171031AY221031GA1071+009909059GF107991071051012501001001MA1999999097141MD1310101+9999MW1701REMSYN082AAXX  19211 11841 41660 70000 11004 21010 39714 40098 53010 77072 87500 333 87633;
0128118410999992000022000004+49230+018620FM-12+031599999V0209999C000019999999N9999999N1-00021-00091101031ADDAA106000191MA1999999097201MD1210071+9999REMSYN076AAXX  20001 11841 16/// /0000 11002 21009 39720 40103 52007 69911 333 55002;
0159118410999992000022003004+49230+018620FM-12+031599999V0209999C000010030019N0100001N1-00021-00091101041ADDGA1081+003009069GF108991081061004501999999MA1999999097211MD1610021+9999REMSYN076AAXX  20031 11841 42460 80000 11002 21009 39721 40104 56002 886// 333 88710;
0270118410999992000022006004+49230+018620FM-12+031599999V0209999C000010018019N0011001N1-00031-00081101151ADDAA112001091AJ100099199999999AY171061AY221061GA1081+001809069GF108991081061002501999999IA1249IA2999-00109KA1120N-00061MA1999999097311MD1210101+9999MW1221REMSYN106AAXX  20061 11841 11311 80000 11003 21008 39731 40115 52010 69992 72272 886// 333 21006 3/101 48009 88706;
0187118410999992000022009004+49230+018620FM-12+031599999V0209999C000010021019N0015001N1+00141-00071101291ADDAY171031AY271031GA1081+002109069GF108991081071002501999999MA1999999097471MD1110161+9999MW1711REMSYN082AAXX  20091 11841 41315 80000 10014 21007 39747 40129 51016 77177 887// 333 88707;
0210118410999992000022012004+49230+018620FM-12+031599999V0202501N00101004201CN0050001N1+00211-00061101461ADDAA106000191AY171061AY221061GA1021+003609079GF108991081051004501999999MA1999999097641MD1210171+9999MW1701REMSYN094AAXX  20121 11841 11450 82501 10021 21006 39764 40146 52017 69921 77072 885// 333 82712 88620;
0193118410999992000022015004+49230+018620FM-12+031599999V0200301N00401036001CN0120001N1+00161-00291101661ADDAY171031AY221031GA1041+010809089GF107991041021012501071001MA1999999097821MD1310181+9999MW1021REMSYN088AAXX  20151 11841 41662 70304 10016 21029 39782 40166 53018 70272 84270 333 84836 85357;
0223118410999992000022018004+49230+018620FM-12+031599999V0200401N002010129019N0150001N1+00001-00351101941ADDAA112000191AY171061AY221061GA1081+012909059GF108991081051012501999999KA1120M+00331MA1999999098071MD1110251+9999MW1021REMSYN094AAXX  20181 11841 11665 80402 10000 21035 39807 40194 51025 69922 70272 885// 333 10033 88643;
0193118410999992000022021004+49230+018620FM-12+031599999V0200601N003010093019N0150001N1-00051-00381102081ADDAY171031AY221031GA1051+009309069GF107991051051008001071999MA1999999098201MD1210131+9999MW1701REMSYN088AAXX  20211 11841 41565 70603 11005 21038 39820 40208 52013 77072 8557/ 333 85631 87358;
0218118410999992000022100004+49230+018620FM-12+031599999V0200201N001010078019N0100001N1-00081-00451102221ADDAA106000791AY171061AY221061GA1081+007809059GF108991081051008001999999GJ100009MA1999999098331MD1110131+9999MW1711REMSYN094AAXX  21001 11841 11560 80201 11008 21045 39833 40222 51013 69901 77172 885// 333 55000 88626;
0187118410999992000022103004+49230+018620FM-12+031599999V0200601N003010099019N0150001N1-00201-00661102331ADDAY171031AY221031GA1081+009909059GF108991081051012501999999MA1999999098421MD1110091+9999MW1701REMSYN082AAXX  21031 11841 41665 80603 11020 21066 39842 40233 51009 77072 885// 333 88633;
0276118410999992000022106004+49230+018620FM-12+031599999V0200101N003010078019N0120001N1-00271-00651102491ADDAA112000791AJ100089199999999AY171061AY221061GA1061+007809069GF108991081051008001999999IA1289IA2999-00309KA1120N-00271MA1999999098561MD1310141+9999MW1701REMSYN112AAXX  21061 11841 11562 80103 11027 21065 39856 40249 53014 69902 77072 885// 333 21027 3/103 44008 86626 88640;
0193118410999992000022109004+49230+018620FM-12+031599999V0200201N00301007501CN0120001N1-00221-00831102641ADDAY171031AY221031GA1041+009009069GF107991071051008001001001MA1999999098711MD1210151+9999MW1221REMSYN088AAXX  21091 11841 41562 70203 11022 21083 39871 40264 52015 72272 87500 333 84630 87634;
0165118410999992000022115004+49230+018620FM-12+031599999V0203401N00101036001CN0250001N1-00021-00601102641ADDGA1031+008709089GF105991031021008001031021MA1999999098741MD1110021+9999REMSYN082AAXX  21151 11841 42575 53401 11002 21060 39874 40264 51002 83232 333 83829 83073;
0223118410999992000022118004+49230+018620FM-12+031599999V0209999C000010132019N0120001N1-00241-00441102761ADDAA112000791AY181061AY221061GA1051+013209029GF106991051021012501001011KA1120M+00011MA1999999098831MD1210091+9999MW1021REMSYN094AAXX  21181 11841 11662 60000 11024 21044 39883 40276 52009 69902 70282 85201 333 10001 85844;
0187118410999992000022121004+49230+018620FM-12+031599999V0200901N001010114019N0050001N1-00381-00521102831ADDAY181031AY211031GA1061+011409029GF106991061021012501001001MA1999999098871MD1210041+9999MW1851REMSYN082AAXX  21211 11841 41650 60901 11038 21052 39887 40283 52004 78581 86200 333 86838;
0218118410999992000022200004+49230+018620FM-12+031599999V0209999C000012200019N0035001N1-00591-00661102861ADDAA106000191AY181061AY211061GA1041+009609029GF104991041021008001001001GJ100429MA1999999098871MD1410001+9999MW1261REMSYN094AAXX  22001 11841 11535 40000 11059 21066 39887 40286 54000 69911 72681 84200 333 55007 84832;
0193118410999992000022203004+49230+018620FM-12+031599999V0209999C00001000601CN0024001N1-00601-00651102821ADDAY181031AY211031GA1031+000909079GF107991071061000751001001MA1999999098831MD1810041+9999MW1851REMSYN088AAXX  22031 11841 41124 70000 11060 21065 39883 40282 58004 78581 87600 333 83703 86824;
0270118410999992000022206004+49230+018620FM-12+031599999V0209999C000012200019N0005001N1-00921-01011102931ADDAA112000191AJ100109199999999AY181061AY211061GA1011+009609059GF101991011051008001001001IA1289IA2999-01409KA1120N-00921MA1999999098891MD1310061+9999MW1461REMSYN106AAXX  22061 11841 11505 10000 11092 21101 39889 40293 53006 69922 74681 81500 333 21092 3/114 44010 81632;
0187118410999992000022209004+49230+018620FM-12+031599999V0209999C000012200019N0040001N1-00401-00681102871ADDAY141031AY211031GA1041+009009029GF104991041021008001001011MA1999999098911MD1110021+9999MW1261REMSYN082AAXX  22091 11841 41540 40000 11040 21068 39891 40287 51002 72641 84201 333 84830;
0204118410999992000022212004+49230+018620FM-12+031599999V0201201N001010129019N0150001N1+00181-00801102681ADDAA106000791AY181061AY241061GA1051+012909029GF105991051021012501001001MA1999999098811MD1710101+9999MW1011REMSYN088AAXX  22121 11841 11665 51201 10018 21080 39881 40268 57010 69901 70184 85200 333 85843;
0159118410999992000022215004+49230+018620FM-12+031599999V0209999C000012200019N0200001N1+00121-00861102591ADDGA1031+012909029GF104991031021012501041011MA1999999098711MD1610101+9999REMSYN076AAXX  22151 11841 42670 40000 10012 21086 39871 40259 56010 83241 333 83843;
0183118410999992000022218004+49230+018620FM-12+031599999V0209999C000012200019N0150001N1-00391-00701102661ADDAA112000791GA1001+999999999GF100991001001999999001001KA1999M+00311MA1999999098711MD1410001+9999REMSYN076AAXX  22181 11841 12965 00000 11039 21070 39871 40266 54000 69902 333 10031;
0159118410999992000022221004+49230+018620FM-12+031599999V0209999C000012200019N0100001N1-00701-00851102741ADDGA1031+060009019GF103991001001999999001011MA1999999098741MD1110031+9999REMSYN076AAXX  22211 11841 42960 30000 11070 21085 39874 40274 51003 80001 333 83070;
0201118410999992000022300004+49230+018620FM-12+031599999V0201001N001010150019N0100001N1-00681-00821102721ADDAA199000091GA1051+015009069GF107991051051017501031001MA1999999098721MD1810021+9999REMSYN088AAXX  23001 11841 32760 71001 11068 21082 39872 40272 58002 85530 333 55470 85650 87361;EQDQ01  00002PRCP99
0101118410999992000022303004+49230+018620FM-12+031599999V0200701N002019999999N9999999N1-00591-00751102641ADDMA1999999098661MD1710071+9999REMSYN060AAXX  23031 11841 46/// /0702 11059 21075 39866 40264 57007;
0270118410999992000022306004+49230+018620FM-12+031599999V0200801N001010150019N0050001N1-00581-00731102631ADDAA112000791AJ100099199999999AY171061AY211061GA1071+015009059GF107991071051017501999999IA1289IA2999-01109KA1120N-00781MA1999999098651MD1610031+9999MW1701REMSYN106AAXX  23061 11841 11750 70801 11058 21073 39865 40263 56003 69902 77071 875// 333 21078 3/111 44009 87650;
0101118410999992000022309004+49230+018620FM-12+031599999V0200801N001019999999N9999999N1-00341-00561102621ADDMA1999999098681MD1210041+9999REMSYN060AAXX  23091 11841 46/// /0801 11034 21056 39868 40262 52004;
0210118410999992000022312004+49230+018620FM-12+031599999V0209999C00001004201CN0050001N1+00041-00391102541ADDAA106000191AY181061AY271061GA1031+004809079GF108991081051004501999999MA1999999098661MD1610031+9999MW1711REMSYN094AAXX  23121 11841 11450 80000 10004 21039 39866 40254 56003 69911 77187 885// 333 83716 88630;
0193118410999992000022315004+49230+018620FM-12+031599999V0202701N00301036001CN0150001N1-00021-00271102551ADDAY171031AY221031GA1041+012609069GF107991041051012501071999MA1999999098661MD1510001+9999MW1021REMSYN088AAXX  23151 11841 41665 72703 11002 21027 39866 40255 55000 70272 8457/ 333 84642 87357;
0223118410999992000022318004+49230+018620FM-12+031599999V0202701N002010051019N0050001N1-00111-00221102641ADDAA112000191AY171061AY221061GA1081+005109059GF108991081051004501999999KA1120M+00121MA1999999098731MD1310071+9999MW1101REMSYN094AAXX  23181 11841 11450 82702 11011 21022 39873 40264 53007 69912 71072 885// 333 10012 88617;
0193118410999992000022321004+49230+018620FM-12+031599999V0202901N00201004201CN0025001N1-00141-00211102711ADDAY171031AY221031GA1041+003609079GF108991081051004501999999MA1999999098791MD1210061+9999MW1701REMSYN088AAXX  23211 11841 41425 82902 11014 21021 39879 40271 52006 77072 885// 333 84712 88629;
0224118410999992000022400004+49230+018620FM-12+031599999V0202701N00201004201CN0025001N1-00181-00241102771ADDAA106000191AY171061AY221061GA1041+003009079GF108991081051004501999999GJ100789MA1999999098851MD1310061+9999MW1701REMSYN100AAXX  24001 11841 11425 82702 11018 21024 39885 40277 53006 69911 77072 885// 333 55013 84710 88630;
0193118410999992000022403004+49230+018620FM-12+031599999V0209999C000010012019N0020001N1-00191-00231102791ADDAY171031AY221031GA1051+001209079GF108991081051001501999999MA1999999098861MD1310011+9999MW1701REMSYN088AAXX  24031 11841 41220 80000 11019 21023 39886 40279 53001 77072 885// 333 85704 88630;
0298118410999992000022406004+49230+018620FM-12+031599999V0201201N001010087019N0015001N1-00251-00281102881ADDAA112000191AJ100109199999999AY171061AY221061GA1031+001509079GA2051+008709069GF108991051051001501071999IA1289IA2999-00409KA1120N-00271MA1999999098941MD1310081+9999MW1701REMSYN118AAXX  24061 11841 11215 81201 11025 21028 39894 40288 53008 69912 77072 8557/ 333 21027 3/104 44010 83705 85629 87357;
0187118410999992000022409004+49230+018620FM-12+031599999V0209999C000010024019N0015001N1+00011-00281102901ADDAY171031AY221031GA1071+002409069GF107991071061002501999999MA1999999099001MD1310061+9999MW1101REMSYN082AAXX  24091 11841 41315 70000 10001 21028 39900 40290 53006 71072 876// 333 87708;
0204118410999992000022412004+49230+018620FM-12+031599999V0202301N002012200019N0100001N1+00321-00321102781ADDAA106000791AY171061AY211061GA1041+009009029GF104991041021008001001001MA1999999098921MD1810081+9999MW1011REMSYN088AAXX  24121 11841 11560 42302 10032 21032 39892 40278 58008 69901 70171 84200 333 84830;
0159118410999992000022415004+49230+018620FM-12+031599999V0202501N005010111019N0120001N1+00271-00181102621ADDGA1071+011109059GF107991071041012501001001MA1999999098761MD1610161+9999REMSYN076AAXX  24151 11841 42662 72505 10027 21018 39876 40262 56016 87400 333 87637;
0195118410999992000022418004+49230+018620FM-12+031599999V0202401N003010066019N0100001N1+00231-00131102561ADDAA112000791GA1081+006609059GF108991081051008001999999KA1120M+00591MA1999999098701MD1810061+9999REMSYN088AAXX  24181 11841 12560 82403 10023 21013 39870 40256 58006 69902 885// 333 10059 88622;
0193118410999992000022421004+49230+018620FM-12+031599999V0202601N003010033019N0016001N1+00041+00001102511ADDAY171031AY221031GA1061+003309079GF108991081051004501999999MA1999999098631MD1610071+9999MW1711REMSYN088AAXX  24211 11841 41416 82603 10004 21000 39863 40251 56007 77172 885// 333 86711 88615;
0128118410999992000022500004+49230+018620FM-12+031599999V0202801N002019999999N9999999N1+00031+00011102431ADDAA106002091MA1999999098551MD1710101+9999REMSYN076AAXX  25001 11841 16/// /2802 10003 20001 39855 40243 57010 60021 333 55034;
0187118410999992000022503004+49230+018620FM-12+031599999V0202601N003010030019N0024001N1+00041+00011102351ADDAY171031AY221031GA1081+003009069GF108991081071004501999999MA1999999098471MD1610031+9999MW1711REMSYN082AAXX  25031 11841 41424 82603 10004 20001 39847 40235 56003 77172 887// 333 88710;
0270118410999992000022506004+49230+018620FM-12+031599999V0209999C000010006019N0012001N1+00031+00021102181ADDAA112004191AJ100119199999999AY171061AY221061GA1081+000609069GF108991081071000751999999IA1289IA2999+00009KA1120N+00021MA1999999098311MD1810161+9999MW1711REMSYN106AAXX  25061 11841 11112 80000 10003 20002 39831 40218 58016 60042 77172 887// 333 20002 3/000 44011 88702;
0193118410999992000022509004+49230+018620FM-12+031599999V0202701N001010006019N0013001N1+00131+00041101971ADDAY171031AY271031GA1061+000609079GF108991081071000751999999MA1999999098121MD1710191+9999MW1711REMSYN088AAXX  25091 11841 41113 82701 10013 20004 39812 40197 57019 77177 887// 333 86702 88709;
0204118410999992000022512004+49230+018620FM-12+031599999V0201301N001010018019N0018001N1+00141+00081101761ADDAA106004191AY171061AY221061GA1081+001809069GF108991081071001501999999MA1999999097921MD1610201+9999MW1681REMSYN088AAXX  25121 11841 11218 81301 10014 20008 39792 40176 56020 60041 76872 887// 333 88706;
0187118410999992000022515004+49230+018620FM-12+031599999V0209999C000010012019N0010001N1+00141+00111101501ADDAY161031AY261031GA1081+001209069GF108991081071001501999999MA1999999097671MD1610251+9999MW1631REMSYN082AAXX  25151 11841 41210 80000 10014 20011 39767 40150 56025 76366 887// 333 88704;
0229118410999992000022518004+49230+018620FM-12+031599999V0200101N003010066019N0150001N1+00321+00031102141ADDAA112013091AY171061AY221061GA1061+006609069GF108991081051008001999999KA1120M+00461MA1999999098311MD1310641+9999MW1611REMSYN100AAXX  25181 11841 11565 80103 10032 20003 39831 40214 53064 60132 76172 885// 333 10046 86622 88630;
0187118410999992000022521004+49230+018620FM-12+031599999V0202801N002010075019N0150001N1+00211-00031102491ADDAY161031AY221031GA1081+007509059GF108991081051008001999999MA1999999098631MD1110321+9999MW1601REMSYN082AAXX  25211 11841 41565 82802 10021 21003 39863 40249 51032 76062 885// 333 88625;
0122118410999992000022600004+49230+018620FM-12+031599999V0203101N002019999999N9999999N1+00201-00041102731ADDAA199000021MA1999999098871MD1210271+9999REMSYN070AAXX  26001 11841 36/// /3102 10020 21004 39887 40273 52027 333 55000;
0159118410999992000022603004+49230+018620FM-12+031599999V0203001N001010138019N0100001N1+00081-00031102841ADDGA1071+013809059GF107991071051012501999999MA1999999098951MD1210081+9999REMSYN076AAXX  26031 11841 42660 73001 10008 21003 39895 40284 52008 875// 333 87646;
0242118410999992000022606004+49230+018620FM-12+031599999V0202801N003010150019N0150001N1+00121-00121102891ADDAA112000191AJ100109199999999GA1071+015009059GF107991071051017501999999IA1289IA2999-00109KA1120N+00041MA1999999099001MD1010051+9999REMSYN100AAXX  26061 11841 12765 72803 10012 21012 39900 40289 50005 69912 875// 333 20004 3/101 44010 87650;
0165118410999992000022609004+49230+018620FM-12+031599999V0202501N00401015001CN0200001N1+00241-00101103041ADDGA1031+015009069GF106991051051017501001011MA1999999099161MD1210161+9999REMSYN082AAXX  26091 11841 42770 62504 10024 21010 39916 40304 52016 85501 333 83650 85656;
0195118410999992000022612004+49230+018620FM-12+031599999V0202601N00301015001CN0250001N1+00411-00151103011ADDAA199000091GA1031+010809089GF106991061081012501001001MA1999999099161MD1010001+9999REMSYN082AAXX  26121 11841 32675 62603 10041 21015 39916 40301 50000 86800 333 83836 85647;EQDQ01  00002PRCP99
0165118410999992000022615004+49230+018620FM-12+031599999V0202801N00201015001CN0300001N1+00441-00141103041ADDGA1031+010509089GF106991061081012501001001MA1999999099191MD1310031+9999REMSYN082AAXX  26151 11841 42680 62802 10044 21014 39919 40304 53003 86800 333 83835 85646;
0224118410999992000022618004+49230+018620FM-12+031599999V0209999C000010150019N0300001N1+00121-00061103171ADDAA199000091GA1071+015009059GF107991071051017501999001KA1120M+00481MA1999999099271MD1310081+9999REMSYN082AAXX  26181 11841 32780 70000 10012 21006 39927 40317 53008 87500 333 10048 87650;EQDQ01  00002PRCP99Q02    003SCOMCG
0159118410999992000022621004+49230+018620FM-12+031599999V0209999C000010150019N0250001N1+00011-00101103231ADDGA1081+015009059GF108991081051017501999999MA1999999099321MD1310051+9999REMSYN076AAXX  26211 11841 42775 80000 10001 21010 39932 40323 53005 885// 333 88650;
0203118410999992000022700004+49230+018620FM-12+031599999V0209999C000010150019N0150001N1-00081-00121103291ADDAA199000091GA1081+015009059GF108991081051017501999999GJ100369MA1999999099361MD1210041+9999REMSYN082AAXX  27001 11841 32765 80000 11008 21012 39936 40329 52004 885// 333 55006 88650;EQDQ01  00002PRCP99
0165118410999992000022703004+49230+018620FM-12+031599999V0209999C00001007501CN0100001N1-00071-00141103311ADDGA1041+009909069GF108991081051008001999999MA1999999099381MD1310021+9999REMSYN082AAXX  27031 11841 42560 80000 11007 21014 39938 40331 53002 885// 333 84633 88650;
0271118410999992000022706004+49230+018620FM-12+031599999V0209999C000010150019N0100001N1-00081-00141103341ADDAA199000091AJ100099199999999GA1071+015009059GF107991071051017501999001IA1289IA2999-00209KA1120N-00091MA1999999099411MD1210031+9999REMSYN094AAXX  27061 11841 32760 70000 11008 21014 39941 40334 52003 87500 333 21009 3/102 44009 87650;EQDQ01  00002PRCP99Q02    003SCOMCG
0178118410999992000022709004+49230+018620FM-12+031599999V0209999C000010150019N0100001N1+00221-00101103431ADDGA1071+015009059GF107991071051017501999001MA1999999099541MD1210131+9999REMSYN076AAXX  27091 11841 42760 70000 10022 21010 39954 40343 52013 87500 333 87650;EQDQ01    003SCOMCG
0189118410999992000022712004+49230+018620FM-12+031599999V0209999C00001036001CN0150001N1+00791-00191103331ADDAA199000091GA1041+015009059GF105991041051017501061001MA1999999099521MD1810021+9999REMSYN076AAXX  27121 11841 32765 50000 10079 21019 39952 40333 58002 84560 333 84650;EQDQ01  00002PRCP99
0178118410999992000022715004+49230+018620FM-12+031599999V0200701N002012200019N0300001N1+00551-00261103371ADDGA1031+018009059GF103991031051017501999001MA1999999099521MD1510001+9999REMSYN076AAXX  27151 11841 42780 30702 10055 21026 39952 40337 55000 83500 333 83656;EQDQ01+000002SCOMCG
0196118410999992000022718004+49230+018620FM-12+031599999V0201101N001012200019N0300001N1-00051-00271103491ADDAA199000091GA1001+999999999GF100991001001999999001001KA1999M+00951MA1999999099561MD1210041+9999REMSYN070AAXX  27181 11841 32980 01101 11005 21027 39956 40349 52004 333 10095;EQDQ01  00002PRCP99
0143118410999992000022721004+49230+018620FM-12+031599999V0209999C000012200019N0150001N1-00261-00311103621ADDGA1001+999999999GF100991001001999999001001MA1999999099651MD1310091+9999REMSYN060AAXX  27211 11841 42965 00000 11026 21031 39965 40362 53009;
0211118410999992000022800004+49230+018620FM-12+031599999V0209999C000012200019N0040001N1-00481-00491103611ADDAA199000091AY101061AY201061GA1001+999999999GF100991001001999999001001MA1999999099611MD1810041+9999MW1101REMSYN076AAXX  28001 11841 31940 00000 11048 21049 39961 40361 58004 71000 333 55022;EQDQ01  00002PRCP99
0171118410999992000022803004+49230+018620FM-12+031599999V0209999C000012200019N0005001N1-00621-00631103561ADDAY101031AY201031GA1001+999999999GF100991001001999999001001MA1999999099541MD1810071+9999MW1441REMSYN066AAXX  28031 11841 41905 00000 11062 21063 39954 40356 58007 74400;
0277118410999992000022806004+49230+018620FM-12+031599999V0202801N001012200019N0005001N1-00621-00631103531ADDAA199000091AJ100099199999999AY101061AY201061GA1001+999999999GF100991001001999999001001IA1289IA2999-00809KA1120N-00651MA1999999099511MD1510031+9999MW1441REMSYN094AAXX  28061 11841 31905 02801 11062 21063 39951 40353 55003 74400 333 21065 3/108 44009 93501;EQDQ01  00002PRCP99
0171118410999992000022809004+49230+018620FM-12+031599999V0202601N002012200019N0150001N1+00421-00431103241ADDAY141031AY241031GA1001+999999999GF100991001001999999001001MA1999999099381MD1810131+9999MW1021REMSYN066AAXX  28091 11841 41965 02602 10042 21043 39938 40324 58013 70244;
0201118410999992000022812004+49230+018620FM-12+031599999V0202001N006012200019N0200001N1+00811-00681102991ADDAA199000091AY141061AY241061GA1001+999999999GF100991001001999999001001MA1999999099191MD1810191+9999MW1021REMSYN066AAXX  28121 11841 31970 02006 10081 21068 39919 40299 58019 70244;EQDQ01  00002PRCP99
0143118410999992000022815004+49230+018620FM-12+031599999V0201901N005012200019N0200001N1+00891-00611102791ADDGA1001+999999999GF100991001001999999001001MA1999999099011MD1710181+9999REMSYN060AAXX  28151 11841 42970 01905 10089 21061 39901 40279 57018;
0196118410999992000022818004+49230+018620FM-12+031599999V0201601N001012200019N0150001N1+00311-00391102831ADDAA199000091GA1001+999999999GF100991001001999999001001KA1999M+00931MA1999999098971MD1710041+9999REMSYN070AAXX  28181 11841 32965 01601 10031 21039 39897 40283 57004 333 10093;EQDQ01  00002PRCP99
0143118410999992000022821004+49230+018620FM-12+031599999V0201201N001012200019N0150001N1+00241-00501102791ADDGA1001+999999999GF100991001001999999001001MA1999999098921MD1610051+9999REMSYN060AAXX  28211 11841 42965 01201 10024 21050 39892 40279 56005;
0183118410999992000022900004+49230+018620FM-12+031599999V0202201N003012200019N0150001N1+00421-00581102761ADDAA199000091GA1001+999999999GF100991001001999999001001MA1999999098921MD1010001+9999REMSYN070AAXX  29001 11841 32965 02203 10042 21058 39892 40276 50000 333 55092;EQDQ01  00002PRCP99
0143118410999992000022903004+49230+018620FM-12+031599999V0209999C000012200019N0150001N1-00291-00491102801ADDGA1001+999999999GF100991001001999999001001MA1999999098861MD1710061+9999REMSYN060AAXX  29031 11841 42965 00000 11029 21049 39886 40280 57006;
0237118410999992000022906004+49230+018620FM-12+031599999V0200401N001012200019N0150001N1-00441-00551102791ADDAA199000091AJ100079199999999GA1001+999999999GF100991001001999999001001IA2999-00609KA1120N-00461MA1999999098831MD1710031+9999REMSYN082AAXX  29061 11841 32965 00401 11044 21055 39883 40279 57003 333 21046 3/106 42007;EQDQ01  00002PRCP99
0101118410999992000022909004+49230+018620FM-12+031599999V0209999C000019999999N9999999N1+00361-00391102561ADDMA1999999098721MD1710111+9999REMSYN060AAXX  29091 11841 46/// /0000 10036 21039 39872 40256 57011;
0205118410999992000022912004+49230+018620FM-12+031599999V0202501N004012200019N0250001N1+00901-00141102181ADDAA199000091GA1021+021009059GF102991021051022501999001MA1999999098431MD1710281+9999REMSYN076AAXX  29121 11841 32875 22504 10090 21014 39843 40218 57028 82500 333 82657;EQDQ01+000002SCOMCGQ02  00002PRCP99
0165118410999992000022915004+49230+018620FM-12+031599999V0202201N00401021001CN0250001N1+00791-00331101941ADDGA1021+021009039GF107991051001022501071081MA1999999098181MD1610251+9999REMSYN082AAXX  29151 11841 42875 72204 10079 21033 39818 40194 56025 85078 333 82357 84458;
0208118410999992000022918004+49230+018620FM-12+031599999V0200701N001012200019N0150001N1+00421-00221101871ADDAA199000091GA1031+060009019GF103991001001999999001021KA1120M+00941MA1999999098061MD1810121+9999REMSYN082AAXX  29181 11841 32965 30701 10042 21022 39806 40187 58012 80002 333 10094 83070;EQDQ01  00002PRCP99
0178118410999992000022921004+49230+018620FM-12+031599999V0201501N004012200019N0150001N1+00651-00241101511ADDGA1021+015009059GF102991021051017501999001MA1999999097751MD1710311+9999REMSYN076AAXX  29211 11841 42765 21504 10065 21024 39775 40151 57031 82500 333 82650;EQDQ01    003SCOMCG
0209118410999992000030100004+49230+018620FM-12+031599999V0201101N00101220001CN0100001N1+00381-00141101291ADDAA199000091GA1021+018009069GF105991021051017501001061GJ104329MA1999999097501MD1710251+9999REMSYN088AAXX  01001 11841 32760 51101 10038 21014 39750 40129 57025 82506 333 55072 82656 84268;EQDQ01  00002PRCP99
0165118410999992000030103004+49230+018620FM-12+031599999V0200401N00101036001CN0120001N1+00421-00101100941ADDGA1041+011109069GF107991041051012501071001MA1999999097171MD1610331+9999REMSYN082AAXX  01031 11841 42662 70401 10042 21010 39717 40094 56033 84570 333 84637 87357;
0255118410999992000030106004+49230+018620FM-12+031599999V0209999C000010093019N0200001N1+00541+00001100741ADDAA199000091AJ100069199999999GA1051+009309059GF108991071051008001071999IA1309IA2999+00009KA1120N+00251MA1999999096991MD1710181+9999REMSYN094AAXX  01061 11841 32570 80000 10054 21000 39699 40074 57018 8757/ 333 20025 3/100 42006 85631;EQDQ01  00002PRCP99
0159118410999992000030109004+49230+018620FM-12+031599999V0201601N002010093019N0200001N1+00671+00041100681ADDGA1071+009309059GF107991071051008001001001MA1999999096951MD1810041+9999REMSYN076AAXX  01091 11841 42570 71602 10067 20004 39695 40068 58004 87500 333 87631;
0189118410999992000030112004+49230+018620FM-12+031599999V0202101N005010102019N0200001N1+00701+00041100521ADDAA199000091GA1081+010209059GF108991081051012501999999MA1999999096801MD1810151+9999REMSYN076AAXX  01121 11841 32670 82105 10070 20004 39680 40052 58015 885// 333 88634;EQDQ01  00002PRCP99
0159118410999992000030115004+49230+018620FM-12+031599999V0202001N004010144019N0250001N1+00771+00111100391ADDGA1061+014409059GF107991061051012501071001MA1999999096691MD1510111+9999REMSYN076AAXX  01151 11841 42675 72004 10077 20011 39669 40039 55011 86570 333 86648;
0229118410999992000030118004+49230+018620FM-12+031599999V0200101N001010090019N0200001N1+00471+00141100511ADDAA112000791AY161061AY221061GA1061+009009069GF108991081051008001999999KA1120M+00861MA1999999096761MD1310071+9999MW1611REMSYN100AAXX  01181 11841 11570 80101 10047 20014 39676 40051 53007 69902 76162 885// 333 10086 86630 88650;
0187118410999992000030121004+49230+018620FM-12+031599999V0203201N001010081019N0050001N1+00261+00201100561ADDAY161031AY261031GA1081+008109059GF108991081051008001999999MA1999999096781MD1210021+9999MW1611REMSYN082AAXX  01211 11841 41550 83201 10026 20020 39678 40056 52002 76166 885// 333 88627;
0224118410999992000030200004+49230+018620FM-12+031599999V0209999C00001001201CN0015001N1+00211+00181100571ADDAA106003091AY161061AY261061GA1031+001209079GF108991081051001501999999GJ100129MA1999999096791MD1310011+9999MW1611REMSYN100AAXX  02001 11841 11215 80000 10021 20018 39679 40057 53001 60031 76166 885// 333 55002 83704 88626;
0215118410999992000030203004+49230+018620FM-12+031599999V0201201N001010075019N0050001N1+00151+00141100621ADDAY161031AY261031GA1021+001509079GA2051+007509069GF108991051051001501021999MA1999999096831MD1310041+9999MW1611REMSYN094AAXX  02031 11841 41250 81201 10015 20014 39683 40062 53004 76166 8552/ 333 82705 85625 88458;
0276118410999992000030206004+49230+018620FM-12+031599999V0200601N00101001201CN0050001N1+00111+00081100951ADDAA112007991AJ100029199999999AY161061AY261061GA1021+001209079GF108991081051001501999999IA1309IA2999+00109KA1120N+00111MA1999999097141MD1210311+9999MW1611REMSYN112AAXX  02061 11841 11250 80601 10011 20008 39714 40095 52031 60082 76166 885// 333 20011 3/001 42002 82704 88624;
0215118410999992000030209004+49230+018620FM-12+031599999V0200501N002010075019N0300001N1+00401-00081101301ADDAY161031AY221031GA1011+004509079GA2051+007509069GF108991051051004501071999MA1999999097511MD1210371+9999MW1611REMSYN094AAXX  02091 11841 41480 80502 10040 21008 39751 40130 52037 76162 8557/ 333 81715 85625 88358;
0232118410999992000030212004+49230+018620FM-12+031599999V0200201N00201009001CN0300001N1+00391-00051101511ADDAA106000191AY161061AY221061GA1011+004509079GA2031+007509089GF106991051081004501001011MA1999999097711MD1110201+9999MW1211REMSYN100AAXX  02121 11841 11480 60202 10039 21005 39771 40151 51020 69921 72162 85801 333 81715 83825 85650;
0193118410999992000030215004+49230+018620FM-12+031599999V0209999C00001012001CN0250001N1+00391+00011101641ADDAY181031AY211031GA1031+009009089GF106991061081008001001001MA1999999097841MD1310131+9999MW1251REMSYN088AAXX  02151 11841 41575 60000 10039 20001 39784 40164 53013 72581 86800 333 83830 85650;
0242118410999992000030218004+49230+018620FM-12+031599999V0203301N002012200019N0150001N1+00111-00081101971ADDAA112000391AY181061AY211061GA1021+015009059GF102991021051017501999001KA1120M+00581MA1999999098121MD1310281+9999MW1011REMSYN094AAXX  02181 11841 11765 23302 10011 21008 39812 40197 53028 69932 70181 82500 333 10058 82650;EQDQ01    003SCOMCG
0171118410999992000030221004+49230+018620FM-12+031599999V0209999C000012200019N0060001N1-00111-00161102161ADDAY101031AY201031GA1001+999999999GF100991001001999999001001MA1999999098271MD1210151+9999MW1101REMSYN066AAXX  02211 11841 41956 00000 11011 21016 39827 40216 52015 71000;
0192118410999992000030300004+49230+018620FM-12+031599999V0209999C000012200019N0015001N1-00301-00311102131ADDAA199000021AY101061AY201061GA1001+999999999GF100991001001999999001001MA1999999098211MD1810061+9999MW1101REMSYN076AAXX  03001 11841 31915 00000 11030 21031 39821 40213 58006 71000 333 55019;
0181118410999992000030303004+49230+018620FM-12+031599999V0202401N001010009019N0004001N1-00311-00311102021ADDAY101031AY201031GA1091+000909999GF109991091999999999999999MA1999999098111MD1710101+9999MW1471REMSYN076AAXX  03031 11841 41/04 92401 11031 21031 39811 40202 57010 74700 333 89/03;
0299118410999992000030306004+49230+018620FM-12+031599999V0201001N001012200019N0005001N1-00431-00431101841ADDAA199000091AJ199992999999999AY101061AY201061GA1011+060009019GF101991001001999999001011IA1259IA2999-00509KA1120N-00431MA1999999097911MD1810201+9999MW1421REMSYN100AAXX  03061 11841 31905 11001 11043 21043 39791 40184 58020 74200 80001 333 21043 3/105 41998 81070;EQDQ01  00002PRCP99Q02  09972SNDP  
0187118410999992000030309004+49230+018620FM-12+031599999V0202701N001019999999N0150001N1-00101-00181101661ADDAY141031AY211031GA1041+030009079GF107991041001999999031011MA1999999097791MD1710121+9999MW1021REMSYN082AAXX  03091 11841 41965 72701 11010 21018 39779 40166 57012 70241 84031 333 84360;
0223118410999992000030312004+49230+018620FM-12+031599999V0202601N007010120019N0150001N1+00341-00191101361ADDAA199000091AY141061AY211061GA1051+012009069GF108991081051012501999999MA1999999097561MD1610231+9999MW1021REMSYN088AAXX  03121 11841 31665 82607 10034 21019 39756 40136 56023 70241 885// 333 85640 88650;EQDQ01  00002PRCP99
0193118410999992000030315004+49230+018620FM-12+031599999V0201201N00101001201CN0150001N1+00181+00111101191ADDAY171031AY221031GA1031+001809079GF108991051071001501071999MA1999999097381MD1810181+9999MW1681REMSYN088AAXX  03151 11841 41265 81201 10018 20011 39738 40119 58018 76872 8577/ 333 83706 88457;
0229118410999992000030318004+49230+018620FM-12+031599999V0200701N00101012001CN0100001N1+00151+00091101201ADDAA112000591AY171061AY261061GA1041+012909069GF108991081051012501999999KA1120M+00381MA1999999097381MD1510001+9999MW1021REMSYN100AAXX  03181 11841 11660 80701 10015 20009 39738 40120 55000 69962 70276 885// 333 10038 84643 88650;
0187118410999992000030321004+49230+018620FM-12+031599999V0209999C000010060019N0100001N1+00231+00161101141ADDAY121031AY221031GA1081+006009059GF108991081051008001999999MA1999999097341MD1810041+9999MW1611REMSYN082AAXX  03211 11841 41560 80000 10023 20016 39734 40114 58004 76122 885// 333 88620;
0218118410999992000030400004+49230+018620FM-12+031599999V0209999C000010024019N0015001N1+00151+00141100981ADDAA106003091AY161061AY261061GA1081+002409069GF108991081071002501999999GJ100009MA1999999097171MD1610171+9999MW1611REMSYN094AAXX  04001 11841 11315 80000 10015 20014 39717 40098 56017 60031 76166 887// 333 55000 88708;
0187118410999992000030403004+49230+018620FM-12+031599999V0209999C000010030019N0022001N1+00131+00121100741ADDAY161031AY261031GA1081+003009069GF108991081071004501999999MA1999999096941MD1710231+9999MW1211REMSYN082AAXX  04031 11841 41422 80000 10013 20012 39694 40074 57023 72166 887// 333 88710;
0295118410999992000030406004+49230+018620FM-12+031599999V0209999C00001001201CN0020001N1+00181+00161100631ADDAA112006191AJ199992999999999AY161061AY261061GA1031+001209079GF108991081071001501999999IA1259IA2999+00009KA1120N+00111MA1999999096841MD1610101+9999MW1611REMSYN112AAXX  04061 11841 11220 80000 10018 20016 39684 40063 56010 60062 76166 887// 333 20011 3/000 41998 83704 88712;EQDQ01  09972SNDP  
0215118410999992000030409004+49230+018620FM-12+031599999V0202301N004010045019N0100001N1+00381+00221100781ADDAY161031AY261031GA1031+001209079GA2061+004509079GF108991081051001501999999MA1999999097011MD1310171+9999MW1611REMSYN094AAXX  04091 11841 41260 82304 10038 20022 39701 40078 53017 76166 885// 333 83704 86715 88621;
0210118410999992000030412004+49230+018620FM-12+031599999V0202401N00301012001CN0200001N1+00451+00141100971ADDAA106005191AY161061AY221061GA1041+008709089GF107991071081008001001001MA1999999097201MD1210191+9999MW1211REMSYN094AAXX  04121 11841 11570 72403 10045 20014 39720 40097 52019 60051 72162 87800 333 84829 86646;
0101118410999992000030415004+49230+018620FM-12+031599999V0202701N006019999999N9999999N1+00411-00031101201ADDMA1999999097421MD1210231+9999REMSYN060AAXX  04151 11841 46/// /2706 10041 21003 39742 40120 52023;
0223118410999992000030418004+49230+018620FM-12+031599999V0202701N004012200019N0200001N1+00131-00341101561ADDAA112005191AY181061AY211061GA1011+036009079GF102991011001999999041011KA1120M+00471MA1999999097721MD1210291+9999MW1011REMSYN094AAXX  04181 11841 11970 22704 10013 21034 39772 40156 52029 60052 70181 81041 333 10047 81362;
0187118410999992000030421004+49230+018620FM-12+031599999V0203201N002012200019N0120001N1-00071-00421101861ADDAY181031AY211031GA1011+010809059GF101991011051012501001001MA1999999097991MD1210271+9999MW1011REMSYN082AAXX  04211 11841 41662 13202 11007 21042 39799 40186 52027 70181 81500 333 81636;
0218118410999992000030500004+49230+018620FM-12+031599999V0202001N002012200019N0150001N1+00021-00481101941ADDAA106000791AY181061AY211061GA1031+009309059GF103991031051008001001001GJ100849MA1999999098071MD1210081+9999MW1031REMSYN094AAXX  05001 11841 11565 32002 10002 21048 39807 40194 52008 69901 70381 83500 333 55014 83631;
0187118410999992000030503004+49230+018620FM-12+031599999V0202401N005012200019N0100001N1-00061-00451101991ADDAY181031AY211031GA1031+009609059GF104991031051008001001011MA1999999098111MD1110041+9999MW1261REMSYN082AAXX  05031 11841 41560 42405 11006 21045 39811 40199 51004 72681 83501 333 83632;
0270118410999992000030506004+49230+018620FM-12+031599999V0202301N005010084019N0250001N1-00111-00511102161ADDAA112000791AJ100019199999999AY181061AY211061GA1061+008409059GF107991061051008001001011IA1289IA2999-00509KA1120N-00191MA1999999098271MD1210161+9999MW1021REMSYN106AAXX  05061 11841 11575 72305 11011 21051 39827 40216 52016 69902 70281 86501 333 21019 3/105 44001 86628;
0187118410999992000030509004+49230+018620FM-12+031599999V0202501N005012200019N0250001N1-00031-00451102351ADDAY181031AY211031GA1041+009009029GF104991041021008001001001MA1999999098461MD1110191+9999MW1261REMSYN082AAXX  05091 11841 41575 42505 11003 21045 39846 40235 51019 72681 84200 333 84830;
0210118410999992000030512004+49230+018620FM-12+031599999V0202701N005012200019N0250001N1+00201-00541102361ADDAA106000791AY181061AY211061GA1041+010809089GF104991041021012501001011MA1999999098501MD1010041+9999MW1261REMSYN094AAXX  05121 11841 11675 42705 10020 21054 39850 40236 50004 69901 72681 84201 333 84836 91010;
0187118410999992000030515004+49230+018620FM-12+031599999V0202101N002012200019N0200001N1-00051-00491102501ADDAY181031AY211031GA1021+009909029GF103991021021012501001031MA1999999098601MD1010101+9999MW1261REMSYN082AAXX  05151 11841 41670 32102 11005 21049 39860 40250 50010 72681 82203 333 82833;
0223118410999992000030518004+49230+018620FM-12+031599999V0201201N001012200019N0150001N1-00241-00441102711ADDAA112000391AY181061AY211061GA1021+012909029GF102991021021012501001001KA1120M+00261MA1999999098781MD1210181+9999MW1021REMSYN094AAXX  05181 11841 11665 21201 11024 21044 39878 40271 52018 69932 70281 82200 333 10026 82843;
0187118410999992000030521004+49230+018620FM-12+031599999V0209999C000010120019N0022001N1-00311-00381102951ADDAY181031AY211031GA1061+012009099GF106991061091012501001001MA1999999099001MD1210221+9999MW1851REMSYN082AAXX  05211 11841 41622 60000 11031 21038 39900 40295 52022 78581 86900 333 86940;
0218118410999992000030600004+49230+018620FM-12+031599999V0209999C000010108019N0100001N1-00401-00431103041ADDAA106001091AY181061AY221061GA1081+010809059GF108991081051012501999999GJ102229MA1999999099071MD1210071+9999MW1711REMSYN094AAXX  06001 11841 11660 80000 11040 21043 39907 40304 52007 69991 77182 885// 333 55037 88636;
0187118410999992000030603004+49230+018620FM-12+031599999V0209999C000010150019N0100001N1-00451-00501103101ADDAY171031AY211031GA1081+015009059GF108991081051017501999999MA1999999099121MD1110051+9999MW1711REMSYN082AAXX  06031 11841 41760 80000 11045 21050 39912 40310 51005 77171 885// 333 88650;
0270118410999992000030606004+49230+018620FM-12+031599999V0201101N001010108019N0150001N1-00291-00341103181ADDAA112001091AJ100039199999999AY171061AY211061GA1051+010809029GF105991051021012501001001IA1239IA2999-01209KA1120N-00601MA1999999099221MD1110101+9999MW1851REMSYN106AAXX  06061 11841 11665 51101 11029 21034 39922 40318 51010 69992 78571 85200 333 21060 3/112 47003 85836;
0187118410999992000030609004+49230+018620FM-12+031599999V0209999C000012200019N0200001N1+00191-00381103161ADDAY181031AY211031GA1031+009009029GF103991031021008001001001MA1999999099271MD1010051+9999MW1031REMSYN082AAXX  06091 11841 41570 30000 10019 21038 39927 40316 50005 70381 83200 333 83830;
0210118410999992000030612004+49230+018620FM-12+031599999V0202201N005010120019N0200001N1+00261-00371103031ADDAA106000791AY181061AY211061GA1021+009009089GF107991071081008001001001MA1999999099161MD1810111+9999MW1021REMSYN094AAXX  06121 11841 11570 72205 10026 21037 39916 40303 58011 69901 70281 87800 333 82830 87640;
0159118410999992000030615004+49230+018620FM-12+031599999V0202401N004010102019N0250001N1+00291-00261102901ADDGA1071+010209059GF107991071051012501001001MA1999999099041MD1710121+9999REMSYN076AAXX  06151 11841 42675 72404 10029 21026 39904 40290 57012 87500 333 87634;
0201118410999992000030618004+49230+018620FM-12+031599999V0209999C000010129019N0250001N1+00201-00161102851ADDAA112000791GA1051+012909069GF107991051051012501071001KA1120M+00431MA1999999098981MD1510061+9999REMSYN094AAXX  06181 11841 12675 70000 10020 21016 39898 40285 55006 69902 85570 333 10043 85643 87362;
0159118410999992000030621004+49230+018620FM-12+031599999V0201101N001012200019N0250001N1+00011-00161102801ADDGA1041+033009079GF104991041001999999071001MA1999999098901MD1610081+9999REMSYN076AAXX  06211 11841 42975 41101 10001 21016 39890 40280 56008 84070 333 84361;
0203118410999992000030700004+49230+018620FM-12+031599999V0209999C000010300019N0250001N1-00131-00211102661ADDAA199000091GA1051+030009079GF105991051001999999031001GJ101449MA1999999098751MD1710151+9999REMSYN082AAXX  07001 11841 32975 50000 11013 21021 39875 40266 57015 85030 333 55024 85360;EQDQ01  00002PRCP99
0165118410999992000030703004+49230+018620FM-12+031599999V0203101N001019999999N0200001N1-00091-00141102501ADDGA1031+024009039GF106991061001999999071001MA1999999098601MD1710151+9999REMSYN082AAXX  07031 11841 42970 63101 11009 21014 39860 40250 57015 86070 333 83358 86460;
0271118410999992000030706004+49230+018620FM-12+031599999V0209999C000010300019N0150001N1-00111-00211102461ADDAA199000091AJ199992999999999GA1051+030009079GF105991051001999999071001IA1259IA2999-00309KA1120N-00141MA1999999098561MD1810041+9999REMSYN094AAXX  07061 11841 32965 50000 11011 21021 39856 40246 58004 85070 333 21014 3/103 41998 85360;EQDQ01  00002PRCP99Q02  09972SNDP  
0159118410999992000030709004+49230+018620FM-12+031599999V0202701N004010081019N0150001N1+00241-00181102391ADDGA1081+008109059GF108991081051008001999999MA1999999098541MD1810021+9999REMSYN076AAXX  07091 11841 42565 82704 10024 21018 39854 40239 58002 885// 333 88627;
0189118410999992000030712004+49230+018620FM-12+031599999V0202401N007012200019N0200001N1+00701+00021102191ADDAA199000091GA1031+009909029GF103991031011012501001001MA1999999098411MD1710131+9999REMSYN076AAXX  07121 11841 32670 32407 10070 20002 39841 40219 57013 83100 333 83833;EQDQ01  00002PRCP99
0159118410999992000030715004+49230+018620FM-12+031599999V0202501N006010120019N0200001N1+00851+00211102001ADDGA1051+012009059GF105991051041012501001001MA1999999098251MD1710161+9999REMSYN076AAXX  07151 11841 42670 52506 10085 20021 39825 40200 57016 85400 333 85640;
0208118410999992000030718004+49230+018620FM-12+031599999V0203601N001010114019N0150001N1+00571+00201102051ADDAA199000091GA1071+011409059GF107991071051012501999999KA1120M+00961MA1999999098261MD1110011+9999REMSYN082AAXX  07181 11841 32665 73601 10057 20020 39826 40205 51001 875// 333 10096 87638;EQDQ01  00002PRCP99
0159118410999992000030721004+49230+018620FM-12+031599999V0203301N001010105019N0120001N1+00381+00201102001ADDGA1071+010509059GF107991071051012501001001MA1999999098181MD1610081+9999REMSYN076AAXX  07211 11841 42662 73301 10038 20020 39818 40200 56008 87500 333 87635;
0237118410999992000030800004+49230+018620FM-12+031599999V0209999C000010210019N0100001N1+00241+00181101911ADDAA106000191AY161061AY211061GA1071+021009079GF107991071999022501071999GJ101749MA1999999098081MD1810101+9999MW1031REMSYN094AAXX  08001 11841 11860 70000 10024 20018 39808 40191 58010 69911 70361 8707/ 333 55029 87357;EQDQ01+000002SCOLCG
0193118410999992000030803004+49230+018620FM-12+031599999V0202601N003010129019N0100001N1+00321+00261101841ADDAY161031AY221031GA1051+012909069GF108991051051012501021999MA1999999098021MD1510061+9999MW1611REMSYN088AAXX  08031 11841 41660 82603 10032 20026 39802 40184 55006 76162 8552/ 333 85643 88456;
0295118410999992000030806004+49230+018620FM-12+031599999V0203001N00201002101CN0150001N1+00521+00421101861ADDAA112003091AJ199992999999999AY161061AY221061GA1011+002409079GF108991081051002501999999IA1259IA2999+00009KA1120N+00221MA1999999098071MD1310051+9999MW1211REMSYN112AAXX  08061 11841 11365 83002 10052 20042 39807 40186 53005 60032 72162 885// 333 20022 3/000 41998 81708 88621;EQDQ01  09972SNDP  
0159118410999992000030809004+49230+018620FM-12+031599999V0209999C000010060019N0120001N1+00501+00431101921ADDGA1081+006009059GF108991081051008001999999MA1999999098131MD1010061+9999REMSYN076AAXX  08091 11841 42562 80000 10050 20043 39813 40192 50006 885// 333 88620;
0210118410999992000030812004+49230+018620FM-12+031599999V0202401N00501004201CN0045001N1+00751+00601101731ADDAA106000191AY121061AY221061GA1021+004509079GF108991081051004501999999MA1999999097981MD1810151+9999MW1611REMSYN094AAXX  08121 11841 11445 82405 10075 20060 39798 40173 58015 69911 76122 885// 333 82715 88620;
0193118410999992000030815004+49230+018620FM-12+031599999V0202601N00401007501CN0100001N1+00701+00581101571ADDAY161031AY261031GA1041+006009069GF108991081051008001999999MA1999999097821MD1710161+9999MW1611REMSYN088AAXX  08151 11841 41560 82604 10070 20058 39782 40157 57016 76166 885// 333 84620 88628;
0229118410999992000030818004+49230+018620FM-12+031599999V0202501N00301004201CN0050001N1+00741+00651101471ADDAA112007991AY161061AY261061GA1041+003909079GF108991081051004501999999KA1120M+00791MA1999999097731MD1610091+9999MW1611REMSYN100AAXX  08181 11841 11450 82503 10074 20065 39773 40147 56009 60082 76166 885// 333 10079 84713 88621;
0193118410999992000030821004+49230+018620FM-12+031599999V0202401N00401004201CN0050001N1+00781+00661101431ADDAY161031AY221031GA1041+004209079GF108991081051004501999999MA1999999097691MD1810041+9999MW1601REMSYN088AAXX  08211 11841 41450 82404 10078 20066 39769 40143 58004 76062 885// 333 84714 88621;
0224118410999992000030900004+49230+018620FM-12+031599999V0202301N007010039019N0120001N1+00831+00641101261ADDAA106003091AY161061AY221061GA1051+003909079GF108991081051004501999999GJ100009MA1999999097541MD1810151+9999MW1211REMSYN100AAXX  09001 11841 11462 82307 10083 20064 39754 40126 58015 60031 72162 885// 333 55000 85713 88620;
0193118410999992000030903004+49230+018620FM-12+031599999V0202401N006010039019N0150001N1+00841+00651101081ADDAY121031AY221031GA1051+003909079GF108991081051004501999999MA1999999097361MD1710181+9999MW1601REMSYN088AAXX  09031 11841 41465 82406 10084 20065 39736 40108 57018 76022 885// 333 85713 88622;
0253118410999992000030906004+49230+018620FM-12+031599999V0202201N00701004201CN0300001N1+00941+00681101021ADDAA112003091AY161061AY221061GA1041+003309079GF108991081051004501999999IA1119IA2999+00509KA1120N+00721MA1999999097321MD1810041+9999MW1601REMSYN106AAXX  09061 11841 11480 82207 10094 20068 39732 40102 58004 60032 76062 885// 333 20072 32005 84711 88621;
0187118410999992000030909004+49230+018620FM-12+031599999V0202701N003010051019N0150001N1+00891+00751100831ADDAY161031AY221031GA1081+005109059GF108991081051004501999999MA1999999097131MD1810191+9999MW1611REMSYN082AAXX  09091 11841 41465 82703 10089 20075 39713 40083 58019 76162 885// 333 88617;
0204118410999992000030912004+49230+018620FM-12+031599999V0202601N005010090019N0300001N1+01031+00811100571ADDAA106002091AY161061AY221061GA1081+009009059GF108991081051008001999999MA1999999096901MD1810231+9999MW1211REMSYN088AAXX  09121 11841 11580 82605 10103 20081 39690 40057 58023 60021 72162 885// 333 88630;
0221118410999992000030915004+49230+018620FM-12+031599999V0202801N010010099019N0300001N1+00941+00601100541ADDAY161031AY221031GA1021+006909069GA2081+009909069GF108991081051008001999999MA1999999096861MD1510041+9999MW1611REMSYN100AAXX  09151 11841 41580 82810 10094 20060 39686 40054 55004 76162 885// 333 82623 88633 91016 91121;
0257118410999992000030918004+49230+018620FM-12+031599999V0202801N006010138019N0200001N1+00961+00501100701ADDAA112005191AY181061AY261061GA1031+010809069GA2051+013809069GF107991071051012501001001KA1120M+01151MA1999999097011MD1110151+9999MW1211REMSYN112AAXX  09181 11841 11670 72806 10096 20050 39701 40070 51015 60052 72186 87500 333 10115 83636 85646 91011 91121;
0193118410999992000030921004+49230+018620FM-12+031599999V0203001N002010075019N0150001N1+00561+00461100981ADDAY161031AY221031GA1061+007509069GF108991081051008001999999MA1999999097231MD1210221+9999MW1611REMSYN088AAXX  09211 11841 41565 83002 10056 20046 39723 40098 52022 76162 885// 333 86625 88636;
0218118410999992000031000004+49230+018620FM-12+031599999V0200601N002010066019N0200001N1+00321+00091101281ADDAA106005191AY161061AY221061GA1081+006609059GF108991081051008001999999GJ100129MA1999999097481MD1210251+9999MW1601REMSYN094AAXX  10001 11841 11570 80602 10032 20009 39748 40128 52025 60051 76062 885// 333 55002 88622;
0187118410999992000031003004+49230+018620FM-12+031599999V0203301N001010120019N0200001N1+00261-00051101421ADDAY161031AY221031GA1081+012009059GF108991081051012501999999MA1999999097611MD1310131+9999MW1211REMSYN082AAXX  10031 11841 41670 83301 10026 21005 39761 40142 53013 72162 885// 333 88640;
0247118410999992000031006004+49230+018620FM-12+031599999V0203301N003010078019N0022001N1+00141-00181101751ADDAA112005191AY171061AY261061GA1061+007809029GF106991061021008001041001IA1119IA2999+00009KA1120N+00131MA1999999097911MD1210301+9999MW1851REMSYN100AAXX  10061 11841 11522 63303 10014 21018 39791 40175 52030 60052 78576 86240 333 20013 32000 86826;
0193118410999992000031009004+49230+018620FM-12+031599999V0203501N00201012001CN0150001N1+00281-00331101931ADDAY181031AY221031GA1031+009609089GF105991051081008001001001MA1999999098101MD1110191+9999MW1851REMSYN088AAXX  10091 11841 41565 53502 10028 21033 39810 40193 51019 78582 85800 333 83832 85650;
0232118410999992000031012004+49230+018620FM-12+031599999V0203201N007010180019N0300001N1+00281-00741102021ADDAA106000791AY181061AY211061GA1021+014109089GA2041+018009069GF105991051081012501001001MA1999999098191MD1310091+9999MW1031REMSYN100AAXX  10121 11841 11680 53207 10028 21074 39819 40202 53009 69901 70381 85800 333 82847 84656 91012;
0187118410999992000031015004+49230+018620FM-12+031599999V0200101N006012200019N0300001N1+00181-00601102201ADDAY181031AY211031GA1021+014109029GF103991021021012501061001MA1999999098351MD1310161+9999MW1021REMSYN082AAXX  10151 11841 41680 30106 10018 21060 39835 40220 53016 70281 82260 333 82847;
0242118410999992000031018004+49230+018620FM-12+031599999V0202601N001012200019N0300001N1+00001-00441102471ADDAA112000791AY181061AY211061GA1011+018009059GF101991011041017501999011KA1120M+00431MA1999999098581MD1110231+9999MW1011REMSYN094AAXX  10181 11841 11780 12601 10000 21044 39858 40247 51023 69902 70181 81401 333 10043 81656;EQDQ01+000002SCOMCG
0143118410999992000031021004+49230+018620FM-12+031599999V0209999C000012200019N0300001N1-00201-00391102541ADDGA1001+999999999GF100991001001999999001001MA1999999098621MD1110041+9999REMSYN060AAXX  10211 11841 42980 00000 11020 21039 39862 40254 51004;
0203118410999992000031100004+49230+018620FM-12+031599999V0201201N001012200019N0300001N1-00281-00391102471ADDAA199000091GA1021+054009019GF102991001001999999001011GJ103009MA1999999098541MD1510081+9999REMSYN082AAXX  11001 11841 32980 21201 11028 21039 39854 40247 55008 80001 333 55050 82068;EQDQ01  00002PRCP99
0165118410999992000031103004+49230+018620FM-12+031599999V0209999C00001007501CN0250001N1-00291-00391102231ADDGA1031+007809069GF107991071051008001001001MA1999999098311MD1710231+9999REMSYN082AAXX  11031 11841 42575 70000 11029 21039 39831 40223 57023 87500 333 83626 87650;
0289118410999992000031106004+49230+018620FM-12+031599999V0209999C000010084019N0045001N1-00231-00311101901ADDAA112000191AJ199993999999999AY111061AY211061GA1081+008409059GF108991081051008001999999IA1239IA2999-00409KA1120N-00311MA1999999098001MD1710311+9999MW1711REMSYN106AAXX  11061 11841 11545 80000 11023 21031 39800 40190 57031 69912 77111 885// 333 21031 3/104 47997 88628;EQDQ01  09982SNDP  
0187118410999992000031109004+49230+018620FM-12+031599999V0203301N001010051019N0013001N1-00071-00181101521ADDAY171031AY271031GA1081+005109059GF108991081051004501999999MA1999999097661MD1710341+9999MW1731REMSYN082AAXX  11091 11841 41413 83301 11007 21018 39766 40152 57034 77377 885// 333 88617;
0232118410999992000031112004+49230+018620FM-12+031599999V0202601N003010039019N0040001N1+00081-00031101271ADDAA106003091AY171061AY271061GA1021+001809079GA2051+003909079GF108991081051001501999999MA1999999097441MD1710221+9999MW1601REMSYN100AAXX  11121 11841 11240 82603 10008 21003 39744 40127 57022 60031 76077 885// 333 82706 85713 88621;
0193118410999992000031115004+49230+018620FM-12+031599999V0202601N00201001201CN0080001N1+00051+00011101061ADDAY171031AY261031GA1031+001809079GF108991081051001501999999MA1999999097231MD1610211+9999MW1701REMSYN088AAXX  11151 11841 41258 82602 10005 20001 39723 40106 56021 77076 885// 333 83706 88620;
0229118410999992000031118004+49230+018620FM-12+031599999V0200601N00101001201CN0025001N1+00021+00011100941ADDAA112007991AY171061AY261061GA1041+001509079GF108991081071001501999999KA1120M+00081MA1999999097111MD1710121+9999MW1711REMSYN100AAXX  11181 11841 11225 80601 10002 20001 39711 40094 57012 60082 77176 887// 333 10008 84705 88711;
0193118410999992000031121004+49230+018620FM-12+031599999V0202801N00301007501CN0100001N1+00141+00101101021ADDAY171031AY221031GA1031+006009069GF108991081051008001999999MA1999999097211MD1310101+9999MW1611REMSYN088AAXX  11211 11841 41560 82803 10014 20010 39721 40102 53010 76172 885// 333 83620 88628;
0224118410999992000031200004+49230+018620FM-12+031599999V0201401N00101007501CN0100001N1+00091+00061101201ADDAA106005191AY161061AY221061GA1041+006309069GF108991081051008001999999GJ100009MA1999999097371MD1310161+9999MW1611REMSYN100AAXX  12001 11841 11560 81401 10009 20006 39737 40120 53016 60051 76162 885// 333 55000 84621 88630;
0193118410999992000031203004+49230+018620FM-12+031599999V0202901N00201007501CN0100001N1+00181+00161101371ADDAY161031AY261031GA1041+006909069GF108991081051008001999999MA1999999097551MD1310181+9999MW1611REMSYN088AAXX  12031 11841 41560 82902 10018 20016 39755 40137 53018 76166 885// 333 84623 88630;
0270118410999992000031206004+49230+018620FM-12+031599999V0203401N003010060019N0150001N1+00221-00101101921ADDAA112005191AJ100029199999999AY161061AY261061GA1081+006009059GF108991081051008001999999IA1279IA2999+00009KA1120N+00021MA1999999098081MD1210531+9999MW1021REMSYN106AAXX  12061 11841 11565 83403 10022 21010 39808 40192 52053 60052 70266 885// 333 20002 3/000 43002 88620;
0193118410999992000031209004+49230+018620FM-12+031599999V0200201N00401004201CN0200001N1+00151-00261102341ADDAY171031AY221031GA1021+004509079GF108991081051004501999999MA1999999098481MD1210401+9999MW1231REMSYN088AAXX  12091 11841 41470 80204 10015 21026 39848 40234 52040 72372 885// 333 82715 88630;
0204118410999992000031212004+49230+018620FM-12+031599999V0200601N00401012001CN0300001N1+00271-00321102611ADDAA106000791AY171061AY221061GA1031+009909029GF105991051081008001001001MA1999999098751MD1110271+9999MW1011REMSYN088AAXX  12121 11841 11580 50604 10027 21032 39875 40261 51027 69901 70172 85800 333 83833;
0159118410999992000031215004+49230+018620FM-12+031599999V0200801N003012200019N0300001N1+00361-00481102601ADDGA1011+013509029GF102991011021012501001011MA1999999098761MD1310011+9999REMSYN076AAXX  12151 11841 42680 20803 10036 21048 39876 40260 53001 81201 333 81845;
0195118410999992000031218004+49230+018620FM-12+031599999V0201201N001012200019N0300001N1-00051-00321102761ADDAA112000791GA1011+069009019GF101991001001999999001011KA1120M+00411MA1999999098851MD1310091+9999REMSYN088AAXX  12181 11841 12980 11201 11005 21032 39885 40276 53009 69902 80001 333 10041 81073;
0143118410999992000031221004+49230+018620FM-12+031599999V0209999C000012200019N0120001N1-00251-00381102821ADDGA1001+999999999GF100991001001999999001001MA1999999098881MD1010031+9999REMSYN060AAXX  12211 11841 42962 00000 11025 21038 39888 40282 50003;
0183118410999992000031300004+49230+018620FM-12+031599999V0201101N001012200019N0100001N1-00341-00421102881ADDAA199000091GA1001+999999999GF100991001001999999001001MA1999999098931MD1310051+9999REMSYN070AAXX  13001 11841 32960 01101 11034 21042 39893 40288 53005 333 55045;EQDQ01  00002PRCP99
0187118410999992000031303004+49230+018620FM-12+031599999V0209999C000012200019N0080001N1-00391-00461102891ADDAY101031AY201031GA1011+060009019GF101991001001999999001011MA1999999098931MD1010001+9999MW1101REMSYN082AAXX  13031 11841 41958 10000 11039 21046 39893 40289 50000 71000 80001 333 81070;
0299118410999992000031306004+49230+018620FM-12+031599999V0209999C000010120019N0050001N1-00401-00481102981ADDAA199000091AJ199992999999999AY111061AY211061GA1051+012009059GF105991051051012501001001IA1259IA2999-00609KA1120N-00521MA1999999099021MD1210091+9999MW1101REMSYN100AAXX  13061 11841 31650 50000 11040 21048 39902 40298 52009 71011 85500 333 21052 3/106 41998 85640;EQDQ01  00002PRCP99Q02  09972SNDP  
0159118410999992000031309004+49230+018620FM-12+031599999V0201101N001010111019N0120001N1-00141-00341102981ADDGA1071+011109059GF107991071051012501999999MA1999999099051MD1110031+9999REMSYN076AAXX  13091 11841 42662 71101 11014 21034 39905 40298 51003 875// 333 87637;
0189118410999992000031312004+49230+018620FM-12+031599999V0209999C000010126019N0150001N1+00301-00251102801ADDAA199000091GA1071+012609059GF107991071051012501001001MA1999999098941MD1810111+9999REMSYN076AAXX  13121 11841 32665 70000 10030 21025 39894 40280 58011 87500 333 87642;EQDQ01  00002PRCP99
0159118410999992000031315004+49230+018620FM-12+031599999V0209999C000010132019N0150001N1+00431-00211102681ADDGA1071+013209059GF107991071051012501001001MA1999999098841MD1610101+9999REMSYN076AAXX  13151 11841 42665 70000 10043 21021 39884 40268 56010 87500 333 87644;
0208118410999992000031318004+49230+018620FM-12+031599999V0209999C000010135019N0100001N1+00211-00061102681ADDAA199000091GA1071+013509059GF107991071051012501001001KA1120M+00461MA1999999098811MD1610031+9999REMSYN082AAXX  13181 11841 32660 70000 10021 21006 39881 40268 56003 87500 333 10046 87645;EQDQ01  00002PRCP99
0206118410999992000031321004+49230+018620FM-12+031599999V0209999C000010150019N0080001N1+00011-00101102721ADDAY121031AY221031GA1051+015009059GF105991051051017501999011MA1999999098831MD1110021+9999MW1101REMSYN082AAXX  13211 11841 41758 50000 10001 21010 39883 40272 51002 71022 85501 333 85650;EQDQ01    003SCOMCG
0231118410999992000031400004+49230+018620FM-12+031599999V0209999C000010270019N0080001N1-00041-00111102641ADDAA199000091AY111061AY211061GA1061+027009079GF106991061001999999031001GJ100009MA1999999098741MD1610091+9999MW1101REMSYN088AAXX  14001 11841 31958 60000 11004 21011 39874 40264 56009 71011 86030 333 55000 86359;EQDQ01  00002PRCP99
0187118410999992000031403004+49230+018620FM-12+031599999V0209999C000010048019N0050001N1-00041-00071102501ADDAY121031AY221031GA1081+004809059GF108991081051004501999999MA1999999098611MD1610131+9999MW1711REMSYN082AAXX  14031 11841 41450 80000 11004 21007 39861 40250 56013 77122 885// 333 88616;
0276118410999992000031406004+49230+018620FM-12+031599999V0209999C00001000601CN0013001N1+00001-00031102411ADDAA112000891AJ100019199999999AY171061AY221061GA1041+000909079GF108991081061000751999999IA1279IA2999-00209KA1120N-00061MA1999999098531MD1810081+9999MW1101REMSYN112AAXX  14061 11841 11113 80000 10000 21003 39853 40241 58008 69972 71072 886// 333 21006 3/102 43001 84703 88708;
0187118410999992000031409004+49230+018620FM-12+031599999V0209999C000010024019N0021001N1+00111-00021102301ADDAY121031AY221031GA1081+002409069GF108991081061002501999999MA1999999098441MD1710091+9999MW1101REMSYN082AAXX  14091 11841 41321 80000 10011 21002 39844 40230 57009 71022 886// 333 88708;
0204118410999992000031412004+49230+018620FM-12+031599999V0209999C00001004201CN0032001N1+00381+00181102071ADDAA199000021AY121061AY221061GA1041+003909079GF107991071051004501001001MA1999999098251MD1810191+9999MW1101REMSYN088AAXX  14121 11841 31432 70000 10038 20018 39825 40207 58019 71022 87500 333 84713 87616;
0193118410999992000031415004+49230+018620FM-12+031599999V0209999C00001004201CN0028001N1+00401+00311101851ADDAY161031AY221031GA1041+004209079GF108991081051004501999999MA1999999098041MD1710211+9999MW1611REMSYN088AAXX  14151 11841 41428 80000 10040 20031 39804 40185 57021 76162 885// 333 84714 88620;
0229118410999992000031418004+49230+018620FM-12+031599999V0200801N00101004201CN0012001N1+00271+00241101641ADDAA112002091AY161061AY221061GA1031+003009079GF108991081071004501999999KA1120M+00421MA1999999097821MD1710221+9999MW1611REMSYN100AAXX  14181 11841 11412 80801 10027 20024 39782 40164 57022 60022 76162 887// 333 10042 83710 88715;
0193118410999992000031421004+49230+018620FM-12+031599999V0209999C00001001201CN0013001N1+00221+00201101301ADDAY161031AY261031GA1041+001509079GF108991081071001501999999MA1999999097491MD1710331+9999MW1611REMSYN088AAXX  14211 11841 41213 80000 10022 20020 39749 40130 57033 76166 887// 333 84705 88715;
0224118410999992000031500004+49230+018620FM-12+031599999V0200701N001010009019N0018001N1+00321+00301100861ADDAA106007191AY161061AY261061GA1051+000909079GF108991081071000751999999GJ100009MA1999999097081MD1710411+9999MW1611REMSYN100AAXX  15001 11841 11118 80701 10032 20030 39708 40086 57041 60071 76166 887// 333 55000 85703 88715;
0193118410999992000031503004+49230+018620FM-12+031599999V0203301N00301004201CN0150001N1+00381+00141100851ADDAY161031AY261031GA1041+003609079GF108991081051004501999999MA1999999097081MD1510001+9999MW1611REMSYN088AAXX  15031 11841 41465 83303 10038 20014 39708 40085 55000 76166 885// 333 84712 88630;
0253118410999992000031506004+49230+018620FM-12+031599999V0202701N00401002101CN0150001N1+00251+00101101161ADDAA112016091AY161061AY261061GA1041+002109079GF108991081051002501999999IA1119IA2999+00209KA1120N+00191MA1999999097361MD1110281+9999MW1611REMSYN106AAXX  15061 11841 11365 82704 10025 20010 39736 40116 51028 60162 76166 885// 333 20019 32002 84707 88620;
0193118410999992000031509004+49230+018620FM-12+031599999V0202801N005012200019N0200001N1+00321-00321101511ADDAY181031AY271031GA1031+007809089GF103991031021008001001001MA1999999097701MD1210341+9999MW1011REMSYN088AAXX  15091 11841 41570 32805 10032 21032 39770 40151 52034 70187 83200 333 83826 91010;
0204118410999992000031512004+49230+018620FM-12+031599999V0202801N006010108019N0300001N1+00401-00351101551ADDAA106000191AY181061AY271061GA1051+010809029GF105991051021012501001001MA1999999097751MD1010051+9999MW1021REMSYN088AAXX  15121 11841 11680 52806 10040 21035 39775 40155 50005 69911 70287 85200 333 85836;
0165118410999992000031515004+49230+018620FM-12+031599999V0202701N006012200019N0300001N1+00391-00341101661ADDGA1021+009909099GF104991041091012501001001MA1999999097861MD1210111+9999REMSYN082AAXX  15151 11841 42680 42706 10039 21034 39786 40166 52011 84900 333 82933 82836;
0229118410999992000031518004+49230+018620FM-12+031599999V0202901N001012200019N0150001N1+00021-00171101911ADDAA112000591AY111061AY211061GA1021+009009099GF103991031091008001001001KA1120M+00441MA1999999098051MD1310191+9999MW1851REMSYN100AAXX  15181 11841 11565 32901 10002 21017 39805 40191 53019 69942 78511 83900 333 10044 82930 81833;
0187118410999992000031521004+49230+018620FM-12+031599999V0202701N002010120019N0150001N1-00251-00281102041ADDAY181031AY211031GA1051+012009059GF105991051051012501001001MA1999999098131MD1010081+9999MW1021REMSYN082AAXX  15211 11841 41665 52702 11025 21028 39813 40204 50008 70281 85500 333 85640;
0218118410999992000031600004+49230+018620FM-12+031599999V0202401N004010120019N0150001N1-00011-00381101921ADDAA106000891AY181061AY211061GA1061+012009059GF106991061051012501001001GJ102529MA1999999098051MD1710081+9999MW1021REMSYN094AAXX  16001 11841 11665 62404 11001 21038 39805 40192 57008 69981 70281 86500 333 55042 86640;
0165118410999992000031603004+49230+018620FM-12+031599999V0202301N004010120019N0150001N1-00051-00381101611ADDGA1051+012009069GF108991051051012501021999MA1999999097751MD1710301+9999REMSYN082AAXX  16031 11841 42665 82304 11005 21038 39775 40161 57030 8552/ 333 85640 88458;
0270118410999992000031606004+49230+018620FM-12+031599999V0200501N003010060019N0017001N1-00191-00291101351ADDAA112001091AJ100029199999999AY121061AY221061GA1081+006009059GF108991081051008001999999IA1239IA2999-00709KA1120N-00321MA1999999097481MD1610271+9999MW1711REMSYN106AAXX  16061 11841 11517 80503 11019 21029 39748 40135 56027 60012 77122 885// 333 21032 3/107 47002 88620;
0193118410999992000031609004+49230+018620FM-12+031599999V0200601N00301004201CN0060001N1+00001-00241101381ADDAY171031AY221031GA1031+004509079GF108991081051004501999999MA1999999097531MD1310051+9999MW1701REMSYN088AAXX  16091 11841 41456 80603 10000 21024 39753 40138 53005 77072 885// 333 83715 88626;
0210118410999992000031612004+49230+018620FM-12+031599999V0200601N00501012001CN0100001N1+00061-00281101621ADDAA106000591AY171061AY221061GA1011+006009089GF106991051081008001001011MA1999999097771MD1210241+9999MW1221REMSYN094AAXX  16121 11841 11560 60605 10006 21028 39777 40162 52024 69951 72272 85801 333 81820 85633;
0187118410999992000031615004+49230+018620FM-12+031599999V0203601N003012200019N0200001N1+00111-00471101801ADDAY181031AY211031GA1041+009009029GF105991041021008001001011MA1999999097951MD1210181+9999MW1261REMSYN082AAXX  16151 11841 41570 53603 10011 21047 39795 40180 52018 72681 84201 333 84830;
0223118410999992000031618004+49230+018620FM-12+031599999V0203001N001012200019N0250001N1-00051-00461102081ADDAA112000591AY181061AY211061GA1011+012009059GF102991011051012501001011KA1120M+00331MA1999999098201MD1110251+9999MW1021REMSYN094AAXX  16181 11841 11675 23001 11005 21046 39820 40208 51025 69952 70281 81501 333 10033 81640;
0187118410999992000031621004+49230+018620FM-12+031599999V0203301N001012200019N0060001N1-00421-00461102211ADDAY181031AY211031GA1041+012909059GF104991041051012501001001MA1999999098271MD1110071+9999MW1261REMSYN082AAXX  16211 11841 41656 43301 11042 21046 39827 40221 51007 72681 84500 333 84643;
0218118410999992000031700004+49230+018620FM-12+031599999V0201101N001012200019N0045001N1-00681-00771102161ADDAA106000891AY181061AY211061GA1011+012909059GF102991011051012501001011GJ101809MA1999999098191MD1710081+9999MW1101REMSYN094AAXX  17001 11841 11645 21101 11068 21077 39819 40216 57008 69971 71081 81501 333 55030 81643;
0206118410999992000031703004+49230+018620FM-12+031599999V0201101N001012200019N0040001N1-00511-00541101911ADDAY111031AY211031GA1041+015009059GF105991041051017501999011MA1999999097971MD1810221+9999MW1261REMSYN082AAXX  17031 11841 41740 51101 11051 21054 39797 40191 58022 72611 84501 333 84650;EQDQ01    003SCOMCG
0276118410999992000031706004+49230+018620FM-12+031599999V0209999C00001012001CN0022001N1-00421-00471101621ADDAA112000891AJ100039199999999AY181061AY211061GA1011+009009089GF106991061081008001001001IA1239IA2999-01209KA1120N-00701MA1999999097701MD1610271+9999MW1851REMSYN112AAXX  17061 11841 11522 60000 11042 21047 39770 40162 56027 69972 78581 86800 333 21070 3/112 47003 81830 85646;
0193118410999992000031709004+49230+018620FM-12+031599999V0209999C00001012001CN0014001N1-00061-00341101421ADDAY181031AY221031GA1021+009009089GF107991071081008001999999MA1999999097561MD1610141+9999MW1851REMSYN088AAXX  17091 11841 41514 70000 11006 21034 39756 40142 56014 78582 878// 333 82830 85636;
0210118410999992000031712004+49230+018620FM-12+031599999V0202601N00201015001CN0012001N1-00041-00211101401ADDAA106000891AY181061AY221061GA1031+009909089GF107991071081012501001001MA1999999097551MD1510011+9999MW1861REMSYN094AAXX  17121 11841 11612 72602 11004 21021 39755 40140 55001 69971 78682 87800 333 83833 85640;
0187118410999992000031715004+49230+018620FM-12+031599999V0203401N004010099019N0013001N1-00011-00301101551ADDAY181031AY211031GA1061+009909029GF106991061021012501001001MA1999999097701MD1210151+9999MW1851REMSYN082AAXX  17151 11841 41613 63404 11001 21030 39770 40155 52015 78581 86200 333 86833;
0229118410999992000031718004+49230+018620FM-12+031599999V0209999C00001002101CN0100001N1-00131-00301101791ADDAA112002091AY181061AY221061GA1021+002109079GF106991061051002501001001KA1120M+00231MA1999999097911MD1210211+9999MW1031REMSYN100AAXX  17181 11841 11360 60000 11013 21030 39791 40179 52021 60022 70382 86500 333 10023 82707 86636;
0193118410999992000031721004+49230+018620FM-12+031599999V0209999C00001015001CN0100001N1-00161-00301101721ADDAY181031AY221031GA1021+009909089GF107991071081012501001001MA1999999097841MD1610071+9999MW1851REMSYN088AAXX  17211 11841 41660 70000 11016 21030 39784 40172 56007 78582 87800 333 82833 85643;
0128118410999992000031800004+49230+018620FM-12+031599999V0202701N003019999999N9999999N1-00201-00261101591ADDAA106000391MA1999999097711MD1710151+9999REMSYN076AAXX  18001 11841 16/// /2703 11020 21026 39771 40159 57015 69931 333 55018;
0193118410999992000031803004+49230+018620FM-12+031599999V0202601N00101015001CN0022001N1-00271-00351101521ADDAY181031AY221031GA1021+009909089GF107991071081012501001001MA1999999097631MD1610101+9999MW1851REMSYN088AAXX  18031 11841 41622 72601 11027 21035 39763 40152 56010 78582 87800 333 82833 85640;
0314118410999992000031806004+49230+018620FM-12+031599999V0202401N002010078019N0010001N1-00181-00261101581ADDAA112002091AJ100099199999999AL10600591AY181061AY271061GA1041+001809079GA2081+007809069GF108991081051002501999999IA1239IA2999-00309KA1120N-00281MA1999999097701MD1310071+9999MW1731REMSYN124AAXX  18061 11841 11310 82402 11018 21026 39770 40158 53007 60022 77387 885// 333 21028 3/103 47009 84706 88626 90730 93105;
0187118410999992000031809004+49230+018620FM-12+031599999V0209999C000010093019N0080001N1+00131-00361101831ADDAY171031AY221031GA1061+009309029GF106991061021008001001011MA1999999097981MD1210281+9999MW1261REMSYN082AAXX  18091 11841 41558 60000 10013 21036 39798 40183 52028 72672 86201 333 86831;
0176118410999992000031812004+49230+018620FM-12+031599999V0203401N004012200019N0150001N1+00221-00411102001ADDAA106000191GA1041+010509029GF104991041021012501001001MA1999999098161MD1110181+9999REMSYN082AAXX  18121 11841 12665 43404 10022 21041 39816 40200 51018 69911 84200 333 84835;
0187118410999992000031815004+49230+018620FM-12+031599999V0203601N004012200019N0150001N1+00121-00381102191ADDAY181031AY211031GA1031+012009029GF103991031021012501001001MA1999999098331MD1210171+9999MW1261REMSYN082AAXX  18151 11841 41665 33604 10012 21038 39833 40219 52017 72681 83200 333 83840;
0141118410999992000031818004+49230+018620FM-12+031599999V0209999V002019999999N9999999N1-00071-00541102401ADDAA112000191KA1999M+00261MA1999999098511MD1210201+9999REMSYN076AAXX  18181 11841 16/// /9902 11007 21054 39851 40240 52020 69922 333 10026;
0187118410999992000031821004+49230+018620FM-12+031599999V0209999C000012200019N0080001N1-00201-00401102461ADDAY101031AY201031GA1021+063009019GF102991001001999999001011MA1999999098541MD1210091+9999MW1101REMSYN082AAXX  18211 11841 41958 20000 11020 21040 39854 40246 52009 71000 80001 333 82071;
0218118410999992000031900004+49230+018620FM-12+031599999V0202901N001010105019N0060001N1-00271-00341102441ADDAA106000791AY181061AY211061GA1071+010509029GF107991071021012501001001GJ102529MA1999999098511MD1610031+9999MW1851REMSYN094AAXX  19001 11841 11656 72901 11027 21034 39851 40244 56003 69901 78581 87200 333 55042 87835;
0187118410999992000031903004+49230+018620FM-12+031599999V0201501N001010108019N0060001N1-00301-00371102311ADDAY181031AY221031GA1071+010809059GF107991071051012501001001MA1999999098391MD1710121+9999MW1261REMSYN082AAXX  19031 11841 41656 71501 11030 21037 39839 40231 57012 72682 87500 333 87636;
0270118410999992000031906004+49230+018620FM-12+031599999V0202801N001010090019N0032001N1-00231-00311102261ADDAA112000191AJ100109199999999AY181061AY271061GA1081+009009059GF108991081051008001999999IA1239IA2999-00509KA1120N-00321MA1999999098351MD1510041+9999MW1711REMSYN106AAXX  19061 11841 11532 82801 11023 21031 39835 40226 55004 69912 77187 885// 333 21032 3/105 47010 88630;
0187118410999992000031909004+49230+018620FM-12+031599999V0201401N001010108019N0080001N1+00141-00201102171ADDAY181031AY271031GA1051+010809029GF106991051021012501031001MA1999999098311MD1510041+9999MW1851REMSYN082AAXX  19091 11841 41658 61401 10014 21020 39831 40217 55004 78587 85230 333 85836;
0210118410999992000031912004+49230+018620FM-12+031599999V0203601N00401015001CN0035001N1+00141-00381102161ADDAA106000191AY181061AY271061GA1031+010809089GF107991071081012501001001MA1999999098301MD1510011+9999MW1851REMSYN094AAXX  19121 11841 11635 73604 10014 21038 39830 40216 55001 69921 78587 87800 333 83836 85643;
0187118410999992000031915004+49230+018620FM-12+031599999V0202301N001012200019N0150001N1+00051-00161102231ADDAY181031AY221031GA1031+010809029GF105991031021012501001011MA1999999098361MD1110061+9999MW1261REMSYN082AAXX  19151 11841 41665 52301 10005 21016 39836 40223 51006 72682 83201 333 83836;
0229118410999992000031918004+49230+018620FM-12+031599999V0200401N002010150019N0100001N1+00011-00311102321ADDAA112000191AY181061AY221061GA1011+010809089GF106991061081012501001001KA1120M+00241MA1999999098441MD1310081+9999MW1851REMSYN100AAXX  19181 11841 11660 60402 10001 21031 39844 40232 53008 69922 78582 86800 333 10024 81836 85650;
0187118410999992000031921004+49230+018620FM-12+031599999V0200201N002010129019N0150001N1-00041-00461102461ADDAY181031AY221031GA1071+012909059GF107991071051012501001001MA1999999098571MD1110131+9999MW1031REMSYN082AAXX  19211 11841 41665 70202 11004 21046 39857 40246 51013 70382 87500 333 87643;
0122118410999992000032000004+49230+018620FM-12+031599999V0209999V002019999999N9999999N1-00051-00441102531ADDAA199000021MA1999999098641MD1210071+9999REMSYN070AAXX  20001 11841 36/// /9902 11005 21044 39864 40253 52007 333 55014;
0101118410999992000032003004+49230+018620FM-12+031599999V0209999V001019999999N9999999N1-00101-00651102561ADDMA1999999098661MD1210031+9999REMSYN060AAXX  20031 11841 46/// /9901 11010 21065 39866 40256 52003;
0242118410999992000032006004+49230+018620FM-12+031599999V0201301N001010129019N0150001N1-00151-00471102671ADDAA112000791AJ100029199999999GA1071+012909059GF107991071051012501001001IA1239IA2999-00409KA1120N-00171MA1999999098751MD1310051+9999REMSYN100AAXX  20061 11841 12665 71301 11015 21047 39875 40267 53005 69902 87500 333 21017 3/104 47002 87643;
0159118410999992000032009004+49230+018620FM-12+031599999V0200301N00401012001CN0200001N1+00081-00651102671ADDGA1031+007809029GF105991051081008001001001MA1999999098781MD1210031+9999REMSYN076AAXX  20091 11841 42570 50304 10008 21065 39878 40267 52003 85800 333 83826;
0195118410999992000032012004+49230+018620FM-12+031599999V0200401N004012200019N0300001N1+00211-00531102491ADDAA199000091GA1021+010509089GF104991021011012501041011MA1999999098631MD1710151+9999REMSYN082AAXX  20121 11841 32680 40404 10021 21053 39863 40249 57015 82141 333 82835 83070;EQDQ01  00002PRCP99
0165118410999992000032015004+49230+018620FM-12+031599999V0200801N00301090001CN0300001N1+00221-00371102331ADDGA1011+012009089GF105991011011012501041041MA1999999098481MD1610151+9999REMSYN082AAXX  20151 11841 42680 50803 10022 21037 39848 40233 56015 81144 333 81840 84070;
0208118410999992000032018004+49230+018620FM-12+031599999V0201001N001010300019N0180001N1+00031-00341102341ADDAA199000091GA1071+030009079GF107991071001999999071001KA1120M+00321MA1999999098461MD1610021+9999REMSYN082AAXX  20181 11841 32968 71001 10003 21034 39846 40234 56002 87070 333 10032 87360;EQDQ01  00002PRCP99
0165118410999992000032021004+49230+018620FM-12+031599999V0209999C00001036001CN0150001N1-00051-00291102321ADDGA1011+012009069GF107991011051012501071001MA1999999098431MD1510031+9999REMSYN082AAXX  20211 11841 42665 70000 11005 21029 39843 40232 55003 81570 333 81640 87360;
0224118410999992000032100004+49230+018620FM-12+031599999V0200801N001010090019N0100001N1-00071-00171102241ADDAA106000191AY171061AY221061GA1051+009009069GF108991051051008001021999GJ102469MA1999999098351MD1810081+9999MW1701REMSYN100AAXX  21001 11841 11560 80801 11007 21017 39835 40224 58008 69911 77072 8552/ 333 55041 85630 88459;
0193118410999992000032103004+49230+018620FM-12+031599999V0209999C000010060019N0020001N1-00081-00121102141ADDAY171031AY221031GA1061+006009069GF108991061051008001021999MA1999999098251MD1610101+9999MW1681REMSYN088AAXX  21031 11841 41520 80000 11008 21012 39825 40214 56010 76872 8652/ 333 86620 88458;
0295118410999992000032106004+49230+018620FM-12+031599999V0209999C00001004201CN0025001N1-00021-00091102121ADDAA112000591AJ199993999999999AY171061AY271061GA1041+003009079GF108991081051004501999999IA1289IA2999-00109KA1120N-00091MA1999999098241MD1710011+9999MW1101REMSYN112AAXX  21061 11841 11425 80000 11002 21009 39824 40212 57001 69952 71077 885// 333 21009 3/101 44997 84710 88620;EQDQ01  09982SNDP  
0187118410999992000032109004+49230+018620FM-12+031599999V0209999C000010018019N0012001N1+00111+00001102221ADDAY171031AY221031GA1081+001809069GF108991081071001501999999MA1999999098361MD1110121+9999MW1701REMSYN082AAXX  21091 11841 41212 80000 10011 21000 39836 40222 51012 77072 887// 333 88706;
0118118410999992000032112004+49230+018620FM-12+031599999V0209999V001019999999N9999999N1+00321+00111102191ADDAA106000391MA1999999098361MD1210011+9999REMSYN066AAXX  21121 11841 16/// /9901 10032 20011 39836 40219 52001 69931;
0187118410999992000032115004+49230+018620FM-12+031599999V0200801N002010021019N0038001N1+00311+00191102131ADDAY161031AY221031GA1081+002109069GF108991081071002501999999MA1999999098301MD1810051+9999MW1601REMSYN082AAXX  21151 11841 41338 80802 10031 20019 39830 40213 58005 76062 887// 333 88707;
0141118410999992000032118004+49230+018620FM-12+031599999V0201101N001019999999N9999999N1+00251+00211102181ADDAA112000391KA1999M+00341MA1999999098351MD1210031+9999REMSYN076AAXX  21181 11841 16/// /1101 10025 20021 39835 40218 52003 69932 333 10034;
0101118410999992000032121004+49230+018620FM-12+031599999V0201001N001019999999N9999999N1+00201+00161102271ADDMA1999999098421MD1210091+9999REMSYN060AAXX  21211 11841 46/// /1001 10020 20016 39842 40227 52009;
0224118410999992000032200004+49230+018620FM-12+031599999V0203201N001010015019N0022001N1+00201+00161102221ADDAA106000791AY161061AY221061GA1061+001509079GF108991081051001501999999GJ100009MA1999999098371MD1610051+9999MW1101REMSYN100AAXX  22001 11841 11222 83201 10020 20016 39837 40222 56005 69901 71062 885// 333 55000 86705 88621;
0187118410999992000032203004+49230+018620FM-12+031599999V0200801N001010015019N0015001N1+00161+00131102141ADDAY121031AY221031GA1081+001509069GF108991081061001501999999MA1999999098291MD1710081+9999MW1101REMSYN082AAXX  22031 11841 41215 80801 10016 20013 39829 40214 57008 71022 886// 333 88705;
0247118410999992000032206004+49230+018620FM-12+031599999V0200801N001010015019N0018001N1+00191+00151102161ADDAA112000791AY121061AY221061GA1081+001509069GF108991081061001501999999IA1099IA2999+00209KA1120N+00161MA1999999098311MD1310021+9999MW1101REMSYN100AAXX  22061 11841 11218 80801 10019 20015 39831 40216 53002 69902 71022 886// 333 20016 31002 88705;
0187118410999992000032209004+49230+018620FM-12+031599999V0200801N001010021019N0025001N1+00391+00261102181ADDAY121031AY221031GA1081+002109069GF108991081061002501999999MA1999999098361MD1010051+9999MW1101REMSYN082AAXX  22091 11841 41325 80801 10039 20026 39836 40218 50005 71022 886// 333 88707;
0189118410999992000032212004+49230+018620FM-12+031599999V0200701N002012200019N0150001N1+00911+00131102001ADDAA199000091GA1011+007809029GF101991011011008001001001MA1999999098251MD1810111+9999REMSYN076AAXX  22121 11841 32565 10702 10091 20013 39825 40200 58011 81100 333 81826;EQDQ01  00002PRCP99
0159118410999992000032215004+49230+018620FM-12+031599999V0200701N001012200019N0200001N1+01151+00251101741ADDGA1011+060009019GF101991001001999999001011MA1999999098041MD1710211+9999REMSYN076AAXX  22151 11841 42970 10701 10115 20025 39804 40174 57021 80001 333 81070;
0196118410999992000032218004+49230+018620FM-12+031599999V0201101N002012200019N0150001N1+00471+00271101901ADDAA199000091GA1001+999999999GF100991001001999999001001KA1999M+01171MA1999999098101MD1310061+9999REMSYN070AAXX  22181 11841 32965 01102 10047 20027 39810 40190 53006 333 10117;EQDQ01  00002PRCP99
0171118410999992000032221004+49230+018620FM-12+031599999V0209999C000012200019N0060001N1+00111+00051102031ADDAY101031AY201031GA1001+999999999GF100991001001999999001001MA1999999098181MD1310081+9999MW1101REMSYN066AAXX  22211 11841 41956 00000 10011 20005 39818 40203 53008 71000;
0225118410999992000032300004+49230+018620FM-12+031599999V0200801N001010009019N0004001N1+00021+00011102031ADDAA199000091AY101061AY201061GA1091+000909999GF109991091999999999999999GJ103729MA1999999098161MD1810021+9999MW1471REMSYN082AAXX  23001 11841 31/04 90801 10002 20001 39816 40203 58002 74700 333 55062 89/03;EQDQ01  00002PRCP99
0181118410999992000032303004+49230+018620FM-12+031599999V0200701N002010009019N0004001N1-00021-00021101931ADDAY141031AY241031GA1091+000909999GF109991091999999999999999MA1999999098061MD1610101+9999MW1451REMSYN076AAXX  23031 11841 41/04 90702 11002 21002 39806 40193 56010 74544 333 89/03;
0254118410999992000032306004+49230+018620FM-12+031599999V0200901N002010009019N0005001N1-00011-00011101901ADDAA199000091AY141061AY241061GA1091+000909999GF109991091999999999999999IA1099IA2999-00209KA1120N-00041MA1999999098031MD1710031+9999MW1451REMSYN088AAXX  23061 11841 31/05 90902 11001 21001 39803 40190 57003 74544 333 21004 31102 89/03;EQDQ01  00002PRCP99
0187118410999992000032309004+49230+018620FM-12+031599999V0200501N001010018019N0008001N1+00241+00221101831ADDAY141031AY241031GA1071+001809069GF107991071061001501001001MA1999999098001MD1810031+9999MW1421REMSYN082AAXX  23091 11841 41208 70501 10024 20022 39800 40183 58003 74244 87600 333 87706;
0223118410999992000032312004+49230+018620FM-12+031599999V0202501N005012200019N0100001N1+01402+00511101411ADDAA199000091AY141061AY241061GA1011+012009089GF104991011021012501001011MA1999999097751MD1610251+9999MW1021REMSYN088AAXX  23121 11841 31660 42505 10140 20051 39775 40141 56025 70244 81201 333 81840 83070;EQDQ01  00002PRCP99
0208118410999992000032318004+49230+018620FM-12+031599999V0200901N002012200019N0180001N1+00661+00211101451ADDAA199000091GA1011+069009019GF101991001001999999001011KA1120M+01511MA1999999097691MD1310071+9999REMSYN082AAXX  23181 11841 32968 10902 10066 20021 39769 40145 53007 80001 333 10151 81073;EQDQ01  00002PRCP99
0143118410999992000032321004+49230+018620FM-12+031599999V0200501N001012200019N0120001N1+00221+00091101591ADDGA1001+999999999GF100991001001999999001001MA1999999097771MD1110081+9999REMSYN060AAXX  23211 11841 42962 00501 10022 20009 39777 40159 51008;
0211118410999992000032400004+49230+018620FM-12+031599999V0201001N001012200019N0050001N1+00061+00021101601ADDAA199000091AY101061AY201061GA1001+999999999GF100991001001999999001001MA1999999097761MD1810011+9999MW1101REMSYN076AAXX  24001 11841 31950 01001 10006 20002 39776 40160 58001 71000 333 55044;EQDQ01  00002PRCP99
0206118410999992000032403004+49230+018620FM-12+031599999V0200801N003012200019N0060001N1+00141+00051101501ADDAY101031AY201031GA1031+015009059GF103991031051017501999001MA1999999097671MD1710091+9999MW1101REMSYN082AAXX  24031 11841 41756 30803 10014 20005 39767 40150 57009 71000 83500 333 83650;EQDQ01    003SCOMCG
0266118410999992000032406004+49230+018620FM-12+031599999V0200601N00401036001CN0048001N1+00201+00081101491ADDAA199000091AY111061AY211061GA1041+015009069GF107991041051017501051001IA1099IA2999-00109KA1120N+00051MA1999999097671MD1510001+9999MW1101REMSYN100AAXX  24061 11841 31748 70604 10020 20008 39767 40149 55000 71011 84550 333 20005 31101 84650 87360;EQDQ01  00002PRCP99
0193118410999992000032409004+49230+018620FM-12+031599999V0200601N00401090001CN0050001N1+00561+00241101431ADDAY121031AY221031GA1031+012909069GF108991031051012501001071MA1999999097661MD1810011+9999MW1101REMSYN088AAXX  24091 11841 41650 80604 10056 20024 39766 40143 58001 71022 83507 333 83643 88270;
0223118410999992000032412004+49230+018620FM-12+031599999V0200601N002010105019N0060001N1+00981+00441101331ADDAA199000091AY121061AY221061GA1051+010509069GF108991051051012501011999MA1999999097621MD1810041+9999MW1101REMSYN088AAXX  24121 11841 31656 80602 10098 20044 39762 40133 58004 71022 8551/ 333 85635 88460;EQDQ01  00002PRCP99
0187118410999992000032415004+49230+018620FM-12+031599999V0201001N002012200019N0070001N1+01251+00351101251ADDAY111031AY211031GA1031+015009059GF103991031051017501031001MA1999999097581MD1710041+9999MW1101REMSYN082AAXX  24151 11841 41757 31002 10125 20035 39758 40125 57004 71011 83530 333 83650;
0242118410999992000032418004+49230+018620FM-12+031599999V0200801N001019999999N0080001N1+00651+00351101491ADDAA199000091AY111061AY211061GA1021+030009039GF105991021001999999031041KA1120M+01261MA1999999097731MD1310151+9999MW1101REMSYN094AAXX  24181 11841 31958 50801 10065 20035 39773 40149 53015 71011 82034 333 10126 82360 85070;EQDQ01  00002PRCP99
0187118410999992000032421004+49230+018620FM-12+031599999V0201001N001012200019N0080001N1+00381+00181101601ADDAY111031AY211031GA1021+060009019GF102991001001999999001011MA1999999097801MD1110071+9999MW1101REMSYN082AAXX  24211 11841 41958 21001 10038 20018 39780 40160 51007 71011 80001 333 82070;
0237118410999992000032500004+49230+018620FM-12+031599999V0200901N001012200019N0070001N1+00151+00081101721ADDAA199000091AY111061AY211061GA1011+030009039GF104991011001999999031011GJ100429MA1999999097881MD1110081+9999MW1101REMSYN094AAXX  25001 11841 31957 40901 10015 20008 39788 40172 51008 71011 81031 333 55007 81360 84070;EQDQ01  00002PRCP99
0193118410999992000032503004+49230+018620FM-12+031599999V0200801N00401036001CN0080001N1+00201+00081101731ADDAY111031AY211031GA1031+014409069GF107991031051012501031001MA1999999097901MD1210021+9999MW1101REMSYN088AAXX  25031 11841 41658 70804 10020 20008 39790 40173 52002 71011 83530 333 83648 86360;
0266118410999992000032506004+49230+018620FM-12+031599999V0200701N00301036001CN0050001N1+00241+00111101821ADDAA199000091AY111061AY211061GA1031+015009069GF107991031051017501071001IA1099IA2999-00109KA1120N+00111MA1999999097991MD1210091+9999MW1101REMSYN100AAXX  25061 11841 31750 70703 10024 20011 39799 40182 52009 71011 83570 333 20011 31101 83650 87359;EQDQ01  00002PRCP99
0193118410999992000032509004+49230+018620FM-12+031599999V0200701N002010126019N0028001N1+00401+00251101901ADDAY161031AY221031GA1061+012609069GF108991061051012501021999MA1999999098091MD1110101+9999MW1611REMSYN088AAXX  25091 11841 41628 80702 10040 20025 39809 40190 51010 76162 8652/ 333 86642 88457;
0210118410999992000032512004+49230+018620FM-12+031599999V0200801N001010015019N0011001N1+00471+00381101871ADDAA106003091AY161061AY221061GA1061+001509079GF108991081051001501999999MA1999999098071MD1710021+9999MW1611REMSYN094AAXX  25121 11841 11211 80801 10047 20038 39807 40187 57002 60031 76162 885// 333 86705 88625;
0193118410999992000032515004+49230+018620FM-12+031599999V0200601N002010018019N0012001N1+00591+00501101771ADDAY161031AY221031GA1061+001809079GF108991081051001501999999MA1999999097991MD1710081+9999MW1211REMSYN088AAXX  25151 11841 41212 80602 10059 20050 39799 40177 57008 72162 885// 333 86706 88624;
0229118410999992000032518004+49230+018620FM-12+031599999V0209999C000010001519N0012001N1+00551+00481101791ADDAA112006191AY121061AY211061GA1061+000159079GF108991061051000251999999KA1120M+00631MA1999999098011MD1110021+9999MW1611REMSYN100AAXX  25181 11841 11012 80000 10055 20048 39801 40179 51002 60062 76121 865// 333 10063 86700 88620;
0101118410999992000032521004+49230+018620FM-12+031599999V0200301N001019999999N9999999N1+00471+00421101801ADDMA1999999098011MD1210011+9999REMSYN060AAXX  25211 11841 46/// /0301 10047 20042 39801 40180 52001;
0122118410999992000032600004+49230+018620FM-12+031599999V0209999C000019999999N9999999N1+00461+00421101791ADDAA199000021MA1999999098001MD1410001+9999REMSYN070AAXX  26001 11841 36/// /0000 10046 20042 39800 40179 54000 333 55000;
0187118410999992000032603004+49230+018620FM-12+031599999V0201201N001010012019N0008001N1+00471+00431101641ADDAY171031AY271031GA1081+001209069GF108991081061001501999999MA1999999097851MD1710141+9999MW1421REMSYN082AAXX  26031 11841 41208 81201 10047 20043 39785 40164 57014 74277 886// 333 88704;
0241118410999992000032606004+49230+018620FM-12+031599999V0200701N001010018019N0015001N1+00471+00411101601ADDAA199000021AY141061AY241061GA1081+001809069GF108991081061001501999999IA1099IA2999+00409KA1120N+00431MA1999999097811MD1610041+9999MW1281REMSYN094AAXX  26061 11841 31215 80701 10047 20041 39781 40160 56004 72844 886// 333 20043 31004 88706;
0187118410999992000032609004+49230+018620FM-12+031599999V0200801N001010036019N0045001N1+00741+00521101541ADDAY121031AY221031GA1071+003609069GF107991071061004501071001MA1999999097791MD1810021+9999MW1101REMSYN082AAXX  26091 11841 41445 70801 10074 20052 39779 40154 58002 71022 87670 333 87712;
0210118410999992000032612004+49230+018620FM-12+031599999V0203601N001010150019N0060001N1+01231+00681101251ADDAA106000191AY161061AY221061GA1031+010809089GF106991061081012501001001MA1999999097581MD1810211+9999MW1101REMSYN094AAXX  26121 11841 11656 63601 10123 20068 39758 40125 58021 69911 71062 86800 333 83836 85650;
0165118410999992000032615004+49230+018620FM-12+031599999V0201501N00301036001CN0150001N1+01301+00591101041ADDGA1031+014409089GF106991031021012501061001MA1999999097381MD1610201+9999REMSYN082AAXX  26151 11841 42665 61503 10130 20059 39738 40104 56020 83260 333 83848 85359;
0214118410999992000032618004+49230+018620FM-12+031599999V0200401N001012200019N0150001N1+00881+00611101061ADDAA112000191GA1041+015009059GF104991041051017501999001KA1120M+01321MA1999999097351MD1610031+9999REMSYN088AAXX  26181 11841 12765 40401 10088 20061 39735 40106 56003 69912 84500 333 10132 84650;EQDQ01    003SCOMCG
0165118410999992000032621004+49230+018620FM-12+031599999V0209999C000012200019N0200001N1+00471+00401101091ADDGA1011+015009069GF103991011051017501001011MA1999999097321MD1810031+9999REMSYN082AAXX  26211 11841 42770 30000 10047 20040 39732 40109 58003 81501 333 81650 83070;
0218118410999992000032700004+49230+018620FM-12+031599999V0209999C000010120019N0100001N1+00411+00351100981ADDAA106000791AY161061AY211061GA1081+012009059GF108991081051012501999999GJ100549MA1999999097211MD1810111+9999MW1601REMSYN094AAXX  27001 11841 11660 80000 10041 20035 39721 40098 58011 69901 76061 885// 333 55009 88640;
0187118410999992000032703004+49230+018620FM-12+031599999V0200801N001010105019N0070001N1+00471+00401100811ADDAY161031AY221031GA1081+010509059GF108991081051012501999999MA1999999097051MD1610161+9999MW1601REMSYN082AAXX  27031 11841 41657 80801 10047 20040 39705 40081 56016 76062 885// 333 88635;
0275118410999992000032706004+49230+018620FM-12+031599999V0200801N003010030019N0080001N1+00501+00441100711ADDAA112000591AY161061AY221061GA1021+000909069GA2041+003009069GF107991071051000751001001IA1099IA2999+00109KA1120N+00351MA1999999096961MD1810091+9999MW1211REMSYN112AAXX  27061 11841 11158 70803 10050 20044 39696 40071 58009 69942 72162 87500 333 20035 31001 82603 84610 87633;
0187118410999992000032709004+49230+018620FM-12+031599999V0200601N003010120019N0100001N1+00971+00711100571ADDAY161031AY221031GA1061+012009059GF106991061051012501001001MA1999999096891MD1810071+9999MW1021REMSYN082AAXX  27091 11841 41660 60603 10097 20071 39689 40057 58007 70262 86500 333 86640;
0118118410999992000032712004+49230+018620FM-12+031599999V0200701N003019999999N9999999N1+01141+00681100491ADDAA106000191MA1999999096841MD1710071+9999REMSYN066AAXX  27121 11841 16/// /0703 10114 20068 39684 40049 57007 69911;
0159118410999992000032715004+49230+018620FM-12+031599999V0200801N003010120019N0150001N1+01211+00641100371ADDGA1071+012009059GF107991071051012501999999MA1999999096731MD1710121+9999REMSYN076AAXX  27151 11841 42665 70803 10121 20064 39673 40037 57012 875// 333 87640;
0229118410999992000032718004+49230+018620FM-12+031599999V0200501N002010120019N0100001N1+00861+00641100531ADDAA112000791AY161061AY221061GA1051+012009069GF108991051051012501021999KA1120M+01331MA1999999096841MD1310111+9999MW1601REMSYN100AAXX  27181 11841 11660 80502 10086 20064 39684 40053 53011 69902 76062 8552/ 333 10133 85640 88459;
0159118410999992000032721004+49230+018620FM-12+031599999V0201101N001010150019N0100001N1+00671+00521100631ADDGA1071+015009059GF107991071051017501999999MA1999999096911MD1110071+9999REMSYN076AAXX  27211 11841 42760 71101 10067 20052 39691 40063 51007 875// 333 87650;
0218118410999992000032800004+49230+018620FM-12+031599999V0201101N002010120019N0100001N1+00591+00481100691ADDAA106000791AY161061AY221061GA1081+012009059GF108991081051012501999999GJ100369MA1999999096951MD1010041+9999MW1601REMSYN094AAXX  28001 11841 11660 81102 10059 20048 39695 40069 50004 69901 76062 885// 333 55006 88640;
0187118410999992000032803004+49230+018620FM-12+031599999V0200601N001012200019N0100001N1+00361+00321100711ADDAY161031AY211031GA1021+001809069GF102991021061002501001011MA1999999096941MD1510011+9999MW1011REMSYN082AAXX  28031 11841 41360 20601 10036 20032 39694 40071 55001 70161 82601 333 82706;
0253118410999992000032806004+49230+018620FM-12+031599999V0200701N00101007501CN0080001N1+00431+00361100781ADDAA112000791AY161061AY211061GA1031+009009069GF107991071051008001999999IA1099IA2999+00009KA1120N+00301MA1999999097021MD1210081+9999MW1601REMSYN106AAXX  28061 11841 11558 70701 10043 20036 39702 40078 52008 69902 76061 875// 333 20030 31000 83630 87650;
0193118410999992000032809004+49230+018620FM-12+031599999V0200801N00201012001CN0150001N1+00781+00561100861ADDAY161031AY221031GA1021+009009089GF106991051081008001001011MA1999999097141MD1110121+9999MW1021REMSYN088AAXX  28091 11841 41565 60802 10078 20056 39714 40086 51012 70262 85801 333 82830 83636;
0204118410999992000032812004+49230+018620FM-12+031599999V0200601N001012200019N0150001N1+01141+00371100911ADDAA106000891AY181061AY261061GA1041+009909029GF106991041021012501001011MA1999999097241MD1210101+9999MW1021REMSYN088AAXX  28121 11841 11665 60601 10114 20037 39724 40091 52010 69981 70286 84201 333 84833;
0193118410999992000032815004+49230+018620FM-12+031599999V0201401N00201015001CN0200001N1+00891+00511101041ADDAY181031AY221031GA1031+009909089GF107991071081012501001001MA1999999097331MD1110091+9999MW1251REMSYN088AAXX  28151 11841 41670 71402 10089 20051 39733 40104 51009 72582 87800 333 83833 84640;
0223118410999992000032818004+49230+018620FM-12+031599999V0203401N002010360019N0150001N1+00581+00431101301ADDAA112000891AY181061AY221061GA1031+012009029GF105991031021012501041021KA1120M+01151MA1999999097541MD1310211+9999MW1021REMSYN094AAXX  28181 11841 11665 53402 10058 20043 39754 40130 53021 69982 70282 83242 333 10115 83840;
0159118410999992000032821004+49230+018620FM-12+031599999V0209999C000010360019N0100001N1+00431+00361101481ADDGA1041+012909059GF105991041051012501031001MA1999999097691MD1110151+9999REMSYN076AAXX  28211 11841 42660 50000 10043 20036 39769 40148 51015 84530 333 84643;
0184118410999992000032900004+49230+018620FM-12+031599999V0209999C000012200019N0100001N1+00371+00311101541ADDAA199000021GA1021+012909059GF102991021051012501001001GJ100369MA1999999097741MD1110051+9999REMSYN082AAXX  29001 11841 32660 20000 10037 20031 39774 40154 51005 82500 333 55006 82643;
0187118410999992000032903004+49230+018620FM-12+031599999V0200801N001012200019N0100001N1+00241+00211101581ADDAY161031AY211031GA1011+015009059GF102991011051017501031001MA1999999097761MD1110021+9999MW1021REMSYN082AAXX  29031 11841 41760 20801 10024 20021 39776 40158 51002 70261 81530 333 81650;
0247118410999992000032906004+49230+018620FM-12+031599999V0200501N003010009019N0008001N1+00231+00221101641ADDAA112000591AY161061AY241061GA1071+000909069GF107991071061000751999999IA1099IA2999+00009KA1120N+00161MA1999999097821MD1310061+9999MW1461REMSYN100AAXX  29061 11841 11108 70503 10023 20022 39782 40164 53006 69942 74664 876// 333 20016 31100 87703;
0193118410999992000032909004+49230+018620FM-12+031599999V0200801N00201090001CN0150001N1+00811+00521101561ADDAY141031AY221031GA1011+007809089GF105991011011008001051011MA1999999097821MD1010001+9999MW1021REMSYN088AAXX  29091 11841 41565 50802 10081 20052 39782 40156 50000 70242 81151 333 81826 85070;
0223118410999992000032912004+49230+018620FM-12+031599999V0201101N00201036001CN0150001N1+01271+00421101371ADDAA199000091AY141061AY221061GA1041+013809069GF107991041051012501011001MA1999999097701MD1810121+9999MW1031REMSYN088AAXX  29121 11841 31665 71102 10127 20042 39770 40137 58012 70342 84510 333 84646 87460;EQDQ01  00002PRCP99
0165118410999992000032915004+49230+018620FM-12+031599999V0200701N00401090001CN0250001N1+01401+00381101181ADDGA1011+015009069GF107991011051017501001081MA1999999097531MD1710171+9999REMSYN082AAXX  29151 11841 42775 70704 10140 20038 39753 40118 57017 81508 333 81650 87273;
0214118410999992000032918004+49230+018620FM-12+031599999V0201101N00101036001CN0150001N1+01041+00521101191ADDAA199000091GA1031+015009069GF107991031051017501011001KA1120M+01401MA1999999097491MD1610041+9999REMSYN088AAXX  29181 11841 32765 71101 10104 20052 39749 40119 56004 83510 333 10140 83650 87460;EQDQ01  00002PRCP99
0159118410999992000032921004+49230+018620FM-12+031599999V0200801N003010300019N0100001N1+00951+00411101031ADDGA1071+030009019GF107991071001999999071999MA1999999097331MD1710161+9999REMSYN076AAXX  29211 11841 42960 70803 10095 20041 39733 40103 57016 8707/ 333 87460;
0224118410999992000033000004+49230+018620FM-12+031599999V0200701N004010099019N0100001N1+00811+00541100841ADDAA106000591AY161061AY221061GA1051+009909069GF108991051051012501021999GJ101329MA1999999097131MD1710201+9999MW1611REMSYN100AAXX  30001 11841 11660 80704 10081 20054 39713 40084 57020 69941 76162 8552/ 333 55022 85633 88459;
0215118410999992000033003004+49230+018620FM-12+031599999V0200901N001010090019N0100001N1+00721+00631100591ADDAY161031AY261031GA1021+002409079GA2061+009009069GF108991061051002501021999MA1999999096881MD1710251+9999MW1611REMSYN094AAXX  30031 11841 41360 80901 10072 20063 39688 40059 57025 76166 8652/ 333 82708 86630 88459;
0253118410999992000033006004+49230+018620FM-12+031599999V0202401N00101012001CN0250001N1+00691+00631100591ADDAA112005191AY161061AY261061GA1021+007509089GF106991061081008001001001IA1119IA2999+00609KA1120N+00641MA1999999096871MD1510011+9999MW1021REMSYN106AAXX  30061 11841 11575 62401 10069 20063 39687 40059 55001 60052 70266 86800 333 20064 32006 82825 84628;
0187118410999992000033009004+49230+018620FM-12+031599999V0202401N003010078019N0300001N1+00931+00311100681ADDAY121031AY221031GA1051+007809029GF107991071081008001001001MA1999999096991MD1010121+9999MW1251REMSYN082AAXX  30091 11841 41580 72403 10093 20031 39699 40068 50012 72522 87800 333 85826;
0232118410999992000033012004+49230+018620FM-12+031599999V0202201N004010078019N0250001N1+00771+00321100781ADDAA106002091AY181061AY221061GA1021+004509079GA2031+007809089GF107991071081004501001001MA1999999097061MD1310071+9999MW1251REMSYN100AAXX  30121 11841 11475 72204 10077 20032 39706 40078 53007 60021 72582 87800 333 82715 83826 85636;
0193118410999992000033015004+49230+018620FM-12+031599999V0202501N005010120019N0300001N1+00681+00321100721ADDAY181031AY221031GA1011+009009089GF107991071081008001001001MA1999999096991MD1710071+9999MW1021REMSYN088AAXX  30151 11841 41580 72505 10068 20032 39699 40072 57007 70282 87800 333 81830 87640;
0251118410999992000033018004+49230+018620FM-12+031599999V0202801N002010129019N0300001N1+00531+00321100761ADDAA112002091AY181061AY221061GA1011+004509079GA2051+012909069GF107991051051004501071001KA1120M+00981MA1999999097011MD1310021+9999MW1211REMSYN106AAXX  30181 11841 11480 72802 10053 20032 39701 40076 53002 60022 72182 85570 333 10098 81715 85643 87359;
0165118410999992000033021004+49230+018620FM-12+031599999V0202301N00201036001CN0200001N1+00481+00131100741ADDGA1031+013509069GF106991031051012501071001MA1999999096981MD1810031+9999REMSYN082AAXX  30211 11841 42670 62302 10048 20013 39698 40074 58003 83570 333 83645 85360;
0190118410999992000033100004+49230+018620FM-12+031599999V0202001N00301036001CN0300001N1+00521+00081100601ADDAA199000021GA1031+013509069GF107991031051012501071001GJ100729MA1999999096851MD1710131+9999REMSYN088AAXX  31001 11841 32680 72003 10052 20008 39685 40060 57013 83570 333 55012 83645 87360;
0193118410999992000033103004+49230+018620FM-12+031599999V0202301N003010108019N0150001N1+00381+00181100551ADDAY161031AY221031GA1051+010809069GF108991051051012501021999MA1999999096791MD1710061+9999MW1611REMSYN088AAXX  31031 11841 41665 82303 10038 20018 39679 40055 57006 76162 8552/ 333 85636 88458;
0253118410999992000033106004+49230+018620FM-12+031599999V0202301N00401004201CN0100001N1+00351+00171100541ADDAA112002091AY161061AY221061GA1031+004509079GF108991081051004501999999IA1119IA2999+00209KA1120N+00281MA1999999096781MD1510011+9999MW1611REMSYN106AAXX  31061 11841 11460 82304 10035 20017 39678 40054 55001 60022 76162 885// 333 20028 32002 83715 88626;
0215118410999992000033109004+49230+018620FM-12+031599999V0202301N006010045019N0100001N1+00451+00271100621ADDAY161031AY221031GA1011+001509079GA2051+004509079GF107991071051001501999999MA1999999096871MD1210091+9999MW1611REMSYN094AAXX  31091 11841 41260 72306 10045 20027 39687 40062 52009 76162 875// 333 81705 85715 87626;
0210118410999992000033112004+49230+018620FM-12+031599999V0202301N005010045019N0090001N1+00501+00321100691ADDAA106002091AY161061AY221061GA1051+004509079GF108991081051004501999999MA1999999096941MD1110071+9999MW1611REMSYN094AAXX  31121 11841 11459 82305 10050 20032 39694 40069 51007 60021 76162 885// 333 85715 88623;
0193118410999992000033115004+49230+018620FM-12+031599999V0202501N00401007501CN0150001N1+00641+00321100741ADDAY161031AY221031GA1031+006009069GF107991071051008001999999MA1999999097011MD1110071+9999MW1211REMSYN088AAXX  31151 11841 41565 72504 10064 20032 39701 40074 51007 72162 875// 333 83620 87640;
0223118410999992000033118004+49230+018620FM-12+031599999V0202901N001010060019N0100001N1+00511+00381100781ADDAA112002091AY161061AY221061GA1081+006009059GF108991081051008001999999KA1120M+00641MA1999999097031MD1210021+9999MW1021REMSYN094AAXX  31181 11841 11560 82901 10051 20038 39703 40078 52002 60022 70262 885// 333 10064 88620;
0187118410999992000033121004+49230+018620FM-12+031599999V0209999C000010108019N0100001N1+00461+00371100821ADDAY161031AY221031GA1081+010809059GF108991081051012501999999MA1999999097061MD1210031+9999MW1211REMSYN082AAXX  31211 11841 41660 80000 10046 20037 39706 40082 52003 72162 885// 333 88636;
0218118410999992000040100004+49230+018620FM-12+031599999V0209999C000010120019N0100001N1+00391+00331100821ADDAA106000191AY161061AY221061GA1081+012009059GF108991081051012501999999GJ100009MA1999999097051MD1610011+9999MW1021REMSYN094AAXX  01001 11841 11660 80000 10039 20033 39705 40082 56001 69921 70262 885// 333 55000 88640;
0187118410999992000040103004+49230+018620FM-12+031599999V0209999C000010015019N0008001N1+00171+00161100821ADDAY111031AY211031GA1081+001509069GF108991081061001501999999MA1999999097021MD1510031+9999MW1461REMSYN082AAXX  01031 11841 41208 80000 10017 20016 39702 40082 55003 74611 886// 333 88705;
0241118410999992000040106004+49230+018620FM-12+031599999V0203301N001010009019N0004001N1+00111+00111100851ADDAA112000191AY111061AY211061GA1091+000909999GF109991091999999999999999IA1099IA2999-00109KA1120N+00101MA1999999097041MD1310021+9999MW1431REMSYN094AAXX  01061 11841 11/04 93301 10011 20011 39704 40085 53002 69922 74311 333 20010 31101 89/03;
0187118410999992000040109004+49230+018620FM-12+031599999V0201101N001012200019N0150001N1+00761+00421100691ADDAY141031AY211031GA1011+030009079GF102991011001999999031011MA1999999096981MD1810061+9999MW1281REMSYN082AAXX  01091 11841 41965 21101 10076 20042 39698 40069 58006 72841 81031 333 81360;
0217118410999992000040112004+49230+018620FM-12+031599999V0200301N002012200019N0200001N1+01261+00251100441ADDAA199000091AY141061AY211061GA1021+012009029GF103991021021012501001011MA1999999096801MD1710181+9999MW1021REMSYN082AAXX  01121 11841 31670 30302 10126 20025 39680 40044 57018 70241 82201 333 82840;EQDQ01  00002PRCP99
0159118410999992000040115004+49230+018620FM-12+031599999V0200501N001012200019N0250001N1+01361+00101100341ADDGA1021+012009029GF102991021021012501001001MA1999999096711MD1710091+9999REMSYN076AAXX  01151 11841 42675 20501 10136 20010 39671 40034 57009 82200 333 82840;
0214118410999992000040118004+49230+018620FM-12+031599999V0201201N001012200019N0200001N1+00831+00381100461ADDAA199000091GA1021+015009069GF104991021051017501001041KA1120M+01431MA1999999096761MD1310051+9999REMSYN088AAXX  01181 11841 32770 41201 10083 20038 39676 40046 53005 82504 333 10143 82650 84070;EQDQ01  00002PRCP99
0159118410999992000040121004+49230+018620FM-12+031599999V0209999C000010138019N0200001N1+00761+00361100551ADDGA1061+013809059GF106991061051012501001001MA1999999096841MD1210081+9999REMSYN076AAXX  01211 11841 42670 60000 10076 20036 39684 40055 52008 86500 333 86646;
0218118410999992000040200004+49230+018620FM-12+031599999V0201201N001010108019N0120001N1+00621+00481100581ADDAA106000591AY161061AY221061GA1081+010809059GF108991081051012501999999GJ104689MA1999999096851MD1010011+9999MW1611REMSYN094AAXX  02001 11841 11662 81201 10062 20048 39685 40058 50001 69951 76162 885// 333 55078 88636;
0101118410999992000040203004+49230+018620FM-12+031599999V0209999C000019999999N9999999N1+00581+00461100571ADDMA1999999096841MD1710021+9999REMSYN060AAXX  02031 11841 46/// /0000 10058 20046 39684 40057 57002;
0275118410999992000040206004+49230+018620FM-12+031599999V0200701N002010075019N0100001N1+00601+00431100651ADDAA112002091AY161061AY221061GA1031+002409079GA2041+007509069GF108991081051002501999999IA1119IA2999+00509KA1120N+00551MA1999999096921MD1310071+9999MW1611REMSYN112AAXX  02061 11841 11360 80702 10060 20043 39692 40065 53007 60022 76162 885// 333 20055 32005 83708 84625 88630;
0193118410999992000040209004+49230+018620FM-12+031599999V0200301N003010099019N0150001N1+00741+00401100731ADDAY161031AY221031GA1051+009909069GF107991051051012501071001MA1999999097011MD1310091+9999MW1011REMSYN088AAXX  02091 11841 41665 70303 10074 20040 39701 40073 53009 70162 85570 333 85633 87359;
0204118410999992000040212004+49230+018620FM-12+031599999V0200601N004010099019N0250001N1+00911+00411100731ADDAA106000391AY161061AY221061GA1051+009909029GF106991051021012501001021MA1999999097031MD1010021+9999MW1011REMSYN088AAXX  02121 11841 11675 60604 10091 20041 39703 40073 50002 69931 70162 85202 333 85833;
0159118410999992000040215004+49230+018620FM-12+031599999V0200601N003010099019N0250001N1+00891+00371100761ADDGA1051+009909059GF106991051051012501031001MA1999999097061MD1010031+9999REMSYN076AAXX  02151 11841 42675 60603 10089 20037 39706 40076 50003 85530 333 85633;
0195118410999992000040218004+49230+018620FM-12+031599999V0201201N001012200019N0150001N1+00601+00331100851ADDAA112000391GA1011+030009079GF101991011001999999041001KA1120M+00971MA1999999097111MD1310051+9999REMSYN088AAXX  02181 11841 12965 11201 10060 20033 39711 40085 53005 69932 81040 333 10097 81360;
0143118410999992000040221004+49230+018620FM-12+031599999V0201201N001012200019N0100001N1+00201+00131100961ADDGA1001+999999999GF100991001001999999001001MA1999999097161MD1010051+9999REMSYN060AAXX  02211 11841 42960 01201 10020 20013 39716 40096 50005;
0141118410999992000040300004+49230+018620FM-12+031599999V0201001N002019999999N9999999N1+00101+00061100961ADDAA199000091MA1999999097151MD1710011+9999REMSYN070AAXX  03001 11841 36/// /1002 10010 20006 39715 40096 57001 333 55007;EQDQ01  00002PRCP99
0178118410999992000040303004+49230+018620FM-12+031599999V0200901N002010600019N0100001N1+00071+00041100841ADDGA1061+060009089GF106991999001999999001081MA1999999097031MD1710151+9999REMSYN076AAXX  03031 11841 42960 60902 10007 20004 39703 40084 57015 80008 333 86270;EQDQ01+000002SCOTLC
0266118410999992000040306004+49230+018620FM-12+031599999V0201101N003012200019N0080001N1+00161+00091100711ADDAA199000091AY111061AY211061GA1021+009909089GF104991021021012501001041IA1099IA2999-00209KA1120N-00021MA1999999096911MD1810121+9999MW1101REMSYN100AAXX  03061 11841 31658 41103 10016 20009 39691 40071 58012 71011 82204 333 21002 31102 82833 84070;EQDQ01  00002PRCP99
0187118410999992000040309004+49230+018620FM-12+031599999V0201601N006010150019N0200001N1+01271+00171100441ADDGA1031+012909089GA2051+015009069GF106991061081012501001011MA1999999096801MD1510111+9999REMSYN088AAXX  03091 11841 42670 61606 10127 20017 39680 40044 55011 86801 333 83843 85650 91013;
0195118410999992000040312004+49230+018620FM-12+031599999V0201801N00301036001CN0200001N1+01461+00221100241ADDAA199000091GA1031+013809089GF106991031021012501031061MA1999999096631MD1810171+9999REMSYN082AAXX  03121 11841 32670 61803 10146 20022 39663 40024 58017 83236 333 83846 85271;EQDQ01  00002PRCP99
0165118410999992000040315004+49230+018620FM-12+031599999V0201401N00301036001CN0300001N1+01281+00321100131ADDGA1021+015009069GF107991021051017501071001MA1999999096501MD1610131+9999REMSYN082AAXX  03151 11841 42780 71403 10128 20032 39650 40013 56013 82570 333 82650 87360;
0236118410999992000040318004+49230+018620FM-12+031599999V0201601N003010300019N0250001N1+01161+00411100041ADDAA199000091GA1021+012909069GA2051+030009039GF105991021051012501031001KA1120M+01521MA1999999096401MD1610101+9999REMSYN094AAXX  03181 11841 32675 51603 10116 20041 39640 40004 56010 82530 333 10152 82643 85360 91008;EQDQ01  00002PRCP99
0165118410999992000040321004+49230+018620FM-12+031599999V0201801N00201036001CN0250001N1+01161+00261099981ADDGA1041+012009069GF107991041051012501031001MA1999999096341MD1810061+9999REMSYN082AAXX  03211 11841 42675 71802 10116 20026 39634 49998 58006 84530 333 84640 86360;
0209118410999992000040400004+49230+018620FM-12+031599999V0200901N001010120019N0250001N1+01161+00291099861ADDAA199000091GA1051+012009069GF107991051051012501071001GJ102409MA1999999096231MD1710111+9999REMSYN088AAXX  04001 11841 32675 70901 10116 20029 39623 49986 57011 85570 333 55040 85640 87359;EQDQ01  00002PRCP99
0159118410999992000040403004+49230+018620FM-12+031599999V0202301N002010129019N0250001N1+01021+00391099701ADDGA1081+012909059GF108991081051012501999999MA1999999096051MD1610181+9999REMSYN076AAXX  04031 11841 42675 82302 10102 20039 39605 49970 56018 885// 333 88643;
0260118410999992000040406004+49230+018620FM-12+031599999V0203201N002010300019N0200001N1+01051+00461099641ADDAA199000091GA1011+015009069GA2051+030009039GF107991011051017501071081IA1099IA2999+00509KA1120N+00691MA1999999096001MD1710051+9999REMSYN100AAXX  04061 11841 32770 73202 10105 20046 39600 49964 57005 81578 333 20069 31005 81650 85360 87270;EQDQ01  00002PRCP99
0193118410999992000040409004+49230+018620FM-12+031599999V0203301N001010138019N0200001N1+01241+00461099701ADDAY161031AY221031GA1061+013809069GF108991061051012501071999MA1999999096081MD1010081+9999MW1211REMSYN088AAXX  04091 11841 41670 83301 10124 20046 39608 49970 50008 72162 8657/ 333 86646 88459;
0204118410999992000040412004+49230+018620FM-12+031599999V0201901N004010138019N0200001N1+01311+00651099781ADDAA106000791AY161061AY221061GA1081+013809059GF108991081051012501999999MA1999999096171MD1210091+9999MW1031REMSYN088AAXX  04121 11841 11670 81904 10131 20065 39617 49978 52009 69901 70362 885// 333 88646;
0159118410999992000040415004+49230+018620FM-12+031599999V0201301N003010129019N0200001N1+01451+00731099751ADDGA1061+012909059GF107991061051012501031001MA1999999096161MD1510011+9999REMSYN076AAXX  04151 11841 42670 71303 10145 20073 39616 49975 55001 86530 333 86643;
0195118410999992000040418004+49230+018620FM-12+031599999V0201101N001012200019N0200001N1+01121+00751099841ADDAA112000791GA1011+013809059GF103991011051012501031011KA1120M+01481MA1999999096211MD1310051+9999REMSYN088AAXX  04181 11841 12670 31101 10112 20075 39621 49984 53005 69902 81531 333 10148 81646;
0159118410999992000040421004+49230+018620FM-12+031599999V0200901N001012200019N0150001N1+00711+00591099891ADDGA1011+030009079GF102991011001999999031011MA1999999096201MD1810011+9999REMSYN076AAXX  04211 11841 42965 20901 10071 20059 39620 49989 58001 81031 333 81360;
0203118410999992000040500004+49230+018620FM-12+031599999V0201001N001012200019N0100001N1+00591+00501099791ADDAA199000091GA1011+030009079GF103991011001999999031011GJ100369MA1999999096091MD1610111+9999REMSYN082AAXX  05001 11841 32960 31001 10059 20050 39609 49979 56011 81031 333 55006 81360;EQDQ01  00002PRCP99
0165118410999992000040503004+49230+018620FM-12+031599999V0200701N00101036001CN0100001N1+00631+00541099641ADDGA1041+014109069GF108991041051012501021999MA1999999095951MD1810141+9999REMSYN082AAXX  05031 11841 42660 80701 10063 20054 39595 49964 58014 8452/ 333 84647 88460;
0253118410999992000040506004+49230+018620FM-12+031599999V0201001N002010099019N0060001N1+00731+00661099561ADDAA112002091AY111061AY211061GA1061+009909069GF108991061051012501021999IA1099IA2999+00309KA1120N+00531MA1999999095891MD1510061+9999MW1611REMSYN106AAXX  05061 11841 11656 81002 10073 20066 39589 49956 55006 60022 76111 8652/ 333 20053 31003 86633 88458;
0215118410999992000040509004+49230+018620FM-12+031599999V0200901N001010099019N0100001N1+01011+00801099421ADDAY161031AY261031GA1011+002709079GA2051+009909069GF108991051051002501021999MA1999999095791MD1710101+9999MW1611REMSYN094AAXX  05091 11841 41360 80901 10101 20080 39579 49942 57010 76166 8552/ 333 81709 85633 88457;
0254118410999992000040512004+49230+018620FM-12+031599999V0200401N003010114019N0200001N1+01101+00771099421ADDAA106006191AY161061AY261061GA1021+004509079GA2051+011409069GA3081+018009059GF108991051051004501021999MA1999999095801MD1310011+9999MW1611REMSYN106AAXX  05121 11841 11470 80403 10110 20077 39580 49942 53001 60061 76166 8552/ 333 82715 85638 88556 91008;
0215118410999992000040515004+49230+018620FM-12+031599999V0200501N003010120019N0200001N1+01051+00761099521ADDAY161031AY261031GA1031+006009069GA2051+012009069GF108991061051008001021999MA1999999095891MD1310091+9999MW1611REMSYN094AAXX  05151 11841 41570 80503 10105 20076 39589 49952 53009 76166 8652/ 333 83620 85640 88556;
0229118410999992000040518004+49230+018620FM-12+031599999V0200201N002010069019N0200001N1+00971+00731099791ADDAA112007191AY161061AY261061GA1051+006909069GF108991051051008001021999KA1120M+01111MA1999999096141MD1310251+9999MW1611REMSYN100AAXX  05181 11841 11570 80202 10097 20073 39614 49979 53025 60072 76166 8552/ 333 10111 85623 88556;
0193118410999992000040521004+49230+018620FM-12+031599999V0203401N004010069019N0180001N1+00851+00561100121ADDAY161031AY261031GA1051+006909069GF108991051051008001021999MA1999999096441MD1210301+9999MW1611REMSYN088AAXX  05211 11841 41568 83404 10085 20056 39644 40012 52030 76166 8552/ 333 85623 88556;
0224118410999992000040600004+49230+018620FM-12+031599999V0200301N002010069019N0200001N1+00391+00041100571ADDAA106003091AY161061AY261061GA1061+006909069GF108991061051008001021999GJ100009MA1999999096811MD1110371+9999MW1611REMSYN100AAXX  06001 11841 11570 80302 10039 20004 39681 40057 51037 60031 76166 8652/ 333 55000 86623 88556;
0215118410999992000040603004+49230+018620FM-12+031599999V0203401N004010090019N0300001N1+00171-00301100931ADDAY161031AY261031GA1061+009009069GA2081+024009049GF108991061051008001021999MA1999999097121MD1210311+9999MW1021REMSYN094AAXX  06031 11841 41580 83404 10017 21030 39712 40093 52031 70266 8652/ 333 86630 88458 91010;
0247118410999992000040606004+49230+018620FM-12+031599999V0203601N002010057019N0120001N1+00041-00251101221ADDAA112003091AY161061AY221061GA1081+005709059GF108991081051004501999999IA1119IA2999+00009KA1120N+00041MA1999999097391MD1210271+9999MW1701REMSYN100AAXX  06061 11841 11462 83602 10004 21025 39739 40122 52027 60032 77062 885// 333 20004 32000 88619;
0187118410999992000040609004+49230+018620FM-12+031599999V0202601N002010069019N0120001N1+00041-00331101511ADDAY171031AY221031GA1081+006909059GF108991081051008001999999MA1999999097661MD1210271+9999MW1701REMSYN082AAXX  06091 11841 41562 82602 10004 21033 39766 40151 52027 77072 885// 333 88623;
0232118410999992000040612004+49230+018620FM-12+031599999V0203601N002010150019N0200001N1+00251-00321101671ADDAA106000791AY171061AY221061GA1041+008409069GA2061+015009069GF107991071081008001001001MA1999999097851MD1110191+9999MW1261REMSYN100AAXX  06121 11841 11570 73602 10025 21032 39785 40167 51019 69901 72672 87800 333 84628 86650 91007;
0187118410999992000040615004+49230+018620FM-12+031599999V0200301N005010690019N0250001N1+00541-00621101721ADDGA1031+009909089GA2031+069009009GF105991031021012501001011MA1999999097931MD1310081+9999REMSYN088AAXX  06151 11841 42675 50305 10054 21062 39793 40172 53008 83201 333 83833 83073 91010;
0195118410999992000040618004+49230+018620FM-12+031599999V0200201N002012200019N0250001N1+00501-00751101961ADDAA112000791GA1011+013809029GF102991011011012501041011KA1120M+00591MA1999999098161MD1310231+9999REMSYN088AAXX  06181 11841 12675 20202 10050 21075 39816 40196 53023 69902 81141 333 10059 81846;
0101118410999992000040621004+49230+018620FM-12+031599999V0209999V003019999999N9999999N1+00421-00871102071ADDMA1999999098261MD1210151+9999REMSYN060AAXX  06211 11841 46/// /9903 10042 21087 39826 40207 52015;
0164118410999992000040700004+49230+018620FM-12+031599999V0200301N003012200019N0150001N1+00231-00811102251ADDAA199000021GA1001+999999999GF100991001001999999001001MA1999999098401MD1810111+9999REMSYN070AAXX  07001 11841 32965 00303 10023 21081 39840 40225 58011 333 55016;
0159118410999992000040703004+49230+018620FM-12+031599999V0203401N001012200019N0150001N1+00071-00781102391ADDGA1011+069009019GF101991001001999999001011MA1999999098511MD1210111+9999REMSYN076AAXX  07031 11841 42965 13401 10007 21078 39851 40239 52011 80001 333 81073;
0238118410999992000040706004+49230+018620FM-12+031599999V0202501N001012200019N0250001N1+00141-00551102481ADDAA199000091GA1021+030009039GF104991021001999999041011IA1099IA2999-00409KA1120N-00141MA1999999098611MD1110101+9999REMSYN094AAXX  07061 11841 32975 42501 10014 21055 39861 40248 51010 82041 333 21014 31104 82360 84070;EQDQ01  00002PRCP99
0193118410999992000040709004+49230+018620FM-12+031599999V0209999C00001007501CN0150001N1+00261-00391102461ADDAY171031AY221031GA1021+007809069GF108991081051008001999999MA1999999098611MD1410001+9999MW1711REMSYN088AAXX  07091 11841 41565 80000 10026 21039 39861 40246 54000 77172 885// 333 82626 88643;
0204118410999992000040712004+49230+018620FM-12+031599999V0200601N003010129019N0150001N1+00281-00101102351ADDAA106000791AY171061AY211061GA1081+012909059GF108991081051012501999999MA1999999098511MD1810101+9999MW1701REMSYN088AAXX  07121 11841 11665 80603 10028 21010 39851 40235 58010 69901 77071 885// 333 88643;
0193118410999992000040715004+49230+018620FM-12+031599999V0200701N00101036001CN0150001N1+00481+00131102221ADDAY171031AY261031GA1041+010809069GF107991041051012501071001MA1999999098411MD1610101+9999MW1601REMSYN088AAXX  07151 11841 41665 70701 10048 20013 39841 40222 56010 76076 84570 333 84636 87459;
0229118410999992000040718004+49230+018620FM-12+031599999V0209999C000010078019N0150001N1+00421+00191102251ADDAA112000791AY171061AY261061GA1051+007809069GF108991081051008001999999KA1120M+00551MA1999999098431MD1110021+9999MW1601REMSYN100AAXX  07181 11841 11565 80000 10042 20019 39843 40225 51002 69902 76076 885// 333 10055 85626 88633;
0187118410999992000040721004+49230+018620FM-12+031599999V0209999C000010078019N0100001N1+00351+00151102311ADDAY161031AY221031GA1081+007809059GF108991081051008001999999MA1999999098481MD1110051+9999MW1601REMSYN082AAXX  07211 11841 41560 80000 10035 20015 39848 40231 51005 76062 885// 333 88626;
0218118410999992000040800004+49230+018620FM-12+031599999V0202901N002010069019N0100001N1+00301+00181102191ADDAA106000791AY161061AY221061GA1081+006909059GF108991081051008001999999GJ101089MA1999999098361MD1810121+9999MW1601REMSYN094AAXX  08001 11841 11560 82902 10030 20018 39836 40219 58012 69901 76062 885// 333 55018 88623;
0101118410999992000040803004+49230+018620FM-12+031599999V0202501N002019999999N9999999N1+00221+00161102131ADDMA1999999098291MD1710091+9999REMSYN060AAXX  08031 11841 46/// /2502 10022 20016 39829 40213 57009;
0297118410999992000040806004+49230+018620FM-12+031599999V0200401N002010069019N0022001N1+00231+00141102181ADDAA112003091AY161061AY221061GA1021+001509079GA2031+006909089GA3051+007809069GF107991071081001501001001IA1099IA2999+00109KA1120N+00211MA1999999098341MD1310031+9999MW1841REMSYN118AAXX  08061 11841 11222 70402 10023 20014 39834 40218 53003 60032 78462 87800 333 20021 31001 82705 83823 85626 91007;
0187118410999992000040809004+49230+018620FM-12+031599999V0203501N003010078019N0300001N1+00351-00351102241ADDAY181031AY221031GA1051+007809029GF105991051021008001001001MA1999999098411MD1210071+9999MW1021REMSYN082AAXX  08091 11841 41580 53503 10035 21035 39841 40224 52007 70282 85200 333 85826;
0204118410999992000040812004+49230+018620FM-12+031599999V0200401N001010090019N0250001N1+00331-00311102241ADDAA106000191AY181061AY221061GA1061+009009029GF106991061021008001001001MA1999999098411MD1010001+9999MW1021REMSYN088AAXX  08121 11841 11575 60401 10033 21031 39841 40224 50000 69911 70282 86200 333 86830;
0187118410999992000040815004+49230+018620FM-12+031599999V0209999C00001015001CN0300001N1+00311-00351102261ADDAY181031AY221031GA1031+010809029GF105991051081012501001001MA1999999098421MD1010011+9999MW1021REMSYN082AAXX  08151 11841 41680 50000 10031 21035 39842 40226 50001 70282 85800 333 83836;
0242118410999992000040818004+49230+018620FM-12+031599999V0201001N001012200019N0250001N1+00171-00261102251ADDAA112000191AY181061AY211061GA1021+018009059GF102991021051017501999001KA1120M+00471MA1999999098391MD1510031+9999MW1011REMSYN094AAXX  08181 11841 11775 21001 10017 21026 39839 40225 55003 69912 70181 82500 333 10047 82656;EQDQ01+000002SCOMCG
0143118410999992000040821004+49230+018620FM-12+031599999V0201501N001012200019N0150001N1-00191-00321102251ADDGA1001+999999999GF100991001001999999001001MA1999999098341MD1810051+9999REMSYN060AAXX  08211 11841 42965 01501 11019 21032 39834 40225 58005;
0183118410999992000040900004+49230+018620FM-12+031599999V0209999C000012200019N0100001N1-00251-00321102221ADDAA199000091GA1001+999999999GF100991001001999999001001MA1999999098311MD1810031+9999REMSYN070AAXX  09001 11841 32960 00000 11025 21032 39831 40222 58003 333 55021;EQDQ01  00002PRCP99
0143118410999992000040903004+49230+018620FM-12+031599999V0209999C000012200019N0100001N1-00371-00421102201ADDGA1001+999999999GF100991001001999999001001MA1999999098271MD1610041+9999REMSYN060AAXX  09031 11841 42960 00000 11037 21042 39827 40220 56004;
0260118410999992000040906004+49230+018620FM-12+031599999V0200601N002012200019N0044001N1-00151-00281102151ADDAA199000091AY111061AY211061GA1041+002709069GF104991041061002501001001IA1149IA2999-00709KA1120N-00401MA1999999098251MD1810021+9999MW1101REMSYN094AAXX  09061 11841 31344 40602 11015 21028 39825 40215 58002 71011 84600 333 21040 34107 84709;EQDQ01  00002PRCP99
0159118410999992000040909004+49230+018620FM-12+031599999V0200501N002012200019N0300001N1+00511-00221101971ADDGA1021+009009029GF102991021011008001001001MA1999999098171MD1810081+9999REMSYN076AAXX  09091 11841 42580 20502 10051 21022 39817 40197 58008 82100 333 82830;
0189118410999992000040912004+49230+018620FM-12+031599999V0203301N002012200019N0300001N1+00821-00671101801ADDAA199000091GA1011+014409029GF102991011011012501001011MA1999999098051MD1610121+9999REMSYN076AAXX  09121 11841 32680 23302 10082 21067 39805 40180 56012 81101 333 81848;EQDQ01  00002PRCP99
0159118410999992000040915004+49230+018620FM-12+031599999V0203301N001012200019N0300001N1+00951-00721101561ADDGA1011+018009029GF101991011011017501001011MA1999999097831MD1610221+9999REMSYN076AAXX  09151 11841 42780 13301 10095 21072 39783 40156 56022 81101 333 81856;
0208118410999992000040918004+49230+018620FM-12+031599999V0201601N001012200019N0200001N1+00431-00251101631ADDAA199000091GA1011+063009019GF101991001001999999001011KA1120M+01001MA1999999097831MD1010001+9999REMSYN082AAXX  09181 11841 32970 11601 10043 21025 39783 40163 50000 80001 333 10100 81071;EQDQ01  00002PRCP99
0159118410999992000040921004+49230+018620FM-12+031599999V0201301N001012200019N0100001N1+00061-00241101711ADDGA1011+063009019GF101991001001999999001011MA1999999097861MD1110031+9999REMSYN076AAXX  09211 11841 42960 11301 10006 21024 39786 40171 51003 80001 333 81071;
0141118410999992000041000004+49230+018620FM-12+031599999V0201001N001019999999N9999999N1+00081-00171101651ADDAA199000091MA1999999097811MD1710061+9999REMSYN070AAXX  10001 11841 36/// /1001 10008 21017 39781 40165 57006 333 55105;EQDQ01  00002PRCP99
0159118410999992000041003004+49230+018620FM-12+031599999V0200801N001010099019N0100001N1+00201-00111101561ADDGA1071+009909059GF107991071051012501001001MA1999999097741MD1810071+9999REMSYN076AAXX  10031 11841 42660 70801 10020 21011 39774 40156 58007 87500 333 87633;
0232118410999992000041006004+49230+018620FM-12+031599999V0200901N001010138019N0200001N1+00301-00061101491ADDAA199000091GA1081+013809059GF108991081051012501999999IA1099IA2999-00109KA1120N-00011MA1999999097681MD1610061+9999REMSYN088AAXX  10061 11841 32670 80901 10030 21006 39768 40149 56006 885// 333 21001 31101 88646;EQDQ01  00002PRCP99
0159118410999992000041009004+49230+018620FM-12+031599999V0200401N005010138019N0200001N1+00771-00031101351ADDGA1071+013809059GF107991071051012501001001MA1999999097611MD1810071+9999REMSYN076AAXX  10091 11841 42670 70405 10077 21003 39761 40135 58007 87500 333 87646;
0189118410999992000041012004+49230+018620FM-12+031599999V0201601N003010138019N0200001N1+01061-00311101141ADDAA199000091GA1071+013809059GF107991071051012501001001MA1999999097441MD1610171+9999REMSYN076AAXX  10121 11841 32670 71603 10106 21031 39744 40114 56017 87500 333 87646;EQDQ01  00002PRCP99
0159118410999992000041015004+49230+018620FM-12+031599999V0202301N003019999999N0250001N1+01111-00271100941ADDGA1041+030009079GF105991041001999999041021MA1999999097261MD1710181+9999REMSYN076AAXX  10151 11841 42975 52303 10111 21027 39726 40094 57018 84042 333 84360;
0224118410999992000041018004+49230+018620FM-12+031599999V0209999C000012200019N0300001N1+00821-00081100921ADDAA199000091GA1021+018009059GF103991021051017501999011KA1120M+01191MA1999999097201MD1610061+9999REMSYN082AAXX  10181 11841 32780 30000 10082 21008 39720 40092 56006 82501 333 10119 82656;EQDQ01+000002SCOMCGQ02  00002PRCP99
0159118410999992000041021004+49230+018620FM-12+031599999V0209999C000012200019N0150001N1+00231-00061100981ADDGA1011+060009019GF101991001001999999001011MA1999999097181MD1810021+9999REMSYN076AAXX  10211 11841 42965 10000 10023 21006 39718 40098 58002 80001 333 81070;
0219118410999992000041100004+49230+018620FM-12+031599999V0209999C000012200019N0100001N1+00121-00041100861ADDAA199000091GA1021+015009059GF103991021051017501999011GJ100729MA1999999097051MD1810131+9999REMSYN082AAXX  11001 11841 32760 30000 10012 21004 39705 40086 58013 82501 333 55012 82650;EQDQ01  00002PRCP99Q02    003SCOMCG
0178118410999992000041103004+49230+018620FM-12+031599999V0209999C000010150019N0100001N1+00091-00061100711ADDGA1051+015009059GF105991051051017501999001MA1999999096901MD1610151+9999REMSYN076AAXX  11031 11841 42760 50000 10009 21006 39690 40071 56015 85500 333 85650;EQDQ01    003SCOMCG
0238118410999992000041106004+49230+018620FM-12+031599999V0200901N002010138019N0150001N1+00311+00071100541ADDAA199000091GA1051+013809069GF108991051051012501071999IA1099IA2999-00209KA1120N+00021MA1999999096771MD1710131+9999REMSYN094AAXX  11061 11841 32665 80902 10031 20007 39677 40054 57013 8557/ 333 20002 31102 85646 88358;EQDQ01  00002PRCP99
0165118410999992000041109004+49230+018620FM-12+031599999V0200201N001010138019N0150001N1+00881+00151100331ADDGA1061+013809069GF108991061051012501071999MA1999999096641MD1710131+9999REMSYN082AAXX  11091 11841 42665 80201 10088 20015 39664 40033 57013 8657/ 333 86646 88359;
0217118410999992000041112004+49230+018620FM-12+031599999V0201801N004010138019N0150001N1+01251-00071100171ADDAA199000091GA1011+012009089GA2061+013809069GF108991061081012501071999MA1999999096531MD1710111+9999REMSYN088AAXX  11121 11841 32665 81804 10125 21007 39653 40017 57011 8687/ 333 81840 86646 88360;EQDQ01  00002PRCP99
0193118410999992000041115004+49230+018620FM-12+031599999V0201901N002010120019N0150001N1+01161+00311100091ADDAY161031AY221031GA1071+012009069GF108991071051012501021999MA1999999096451MD1610081+9999MW1611REMSYN088AAXX  11151 11841 41665 81902 10116 20031 39645 40009 56008 76162 8752/ 333 87640 88460;
0229118410999992000041118004+49230+018620FM-12+031599999V0201601N001010120019N0150001N1+00951+00391100141ADDAA112001091AY161061AY221061GA1061+012009069GF108991061051012501071999KA1120M+01281MA1999999096471MD1210021+9999MW1211REMSYN100AAXX  11181 11841 11665 81601 10095 20039 39647 40014 52002 60012 72162 8657/ 333 10128 86640 88360;
0159118410999992000041121004+49230+018620FM-12+031599999V0201801N002010120019N0150001N1+00981+00421100071ADDGA1081+012009059GF108991081051012501999999MA1999999096411MD1710061+9999REMSYN076AAXX  11211 11841 42665 81802 10098 20042 39641 40007 57006 885// 333 88640;
0190118410999992000041200004+49230+018620FM-12+031599999V0200801N002010120019N0100001N1+00941+00421100011ADDAA199000021GA1051+012009069GF108991051051012501071999GJ100009MA1999999096341MD1810071+9999REMSYN088AAXX  12001 11841 32660 80802 10094 20042 39634 40001 58007 8557/ 333 55000 85640 88360;
0165118410999992000041203004+49230+018620FM-12+031599999V0201001N002010108019N0100001N1+00921+00401099921ADDGA1051+010809069GF107991051051012501071999MA1999999096251MD1810091+9999REMSYN082AAXX  12031 11841 42660 71002 10092 20040 39625 49992 58009 8557/ 333 85636 87360;
0253118410999992000041206004+49230+018620FM-12+031599999V0201601N002010120019N0150001N1+00971+00511099841ADDAA112000791AY161061AY221061GA1051+012009069GF108991051051012501071999IA1099IA2999+00409KA1120N+00711MA1999999096191MD1610061+9999MW1211REMSYN106AAXX  12061 11841 11665 81602 10097 20051 39619 49984 56006 69902 72162 8557/ 333 20071 31004 85640 88359;
0187118410999992000041209004+49230+018620FM-12+031599999V0201401N004010120019N0150001N1+01181+00541099791ADDAY161031AY221031GA1061+012009059GF107991061051012501071001MA1999999096161MD1810031+9999MW1211REMSYN082AAXX  12091 11841 41665 71404 10118 20054 39616 49979 58003 72162 86570 333 86640;
0210118410999992000041212004+49230+018620FM-12+031599999V0201501N004010120019N0150001N1+01421+00631099561ADDAA106000791AY161061AY221061GA1071+012009089GF107991071021012501061001MA1999999095971MD1610191+9999MW1211REMSYN094AAXX  12121 11841 11665 71504 10142 20063 39597 49956 56019 69901 72162 87260 333 87840 91009;
0193118410999992000041215004+49230+018620FM-12+031599999V0201501N00201036001CN0150001N1+01321+00631099521ADDAY161031AY221031GA1041+010809069GF107991041051012501071001MA1999999095921MD1610051+9999MW1211REMSYN088AAXX  12151 11841 41665 71502 10132 20063 39592 49952 56005 72162 84570 333 84636 87359;
0229118410999992000041218004+49230+018620FM-12+031599999V0202301N00501007501CN0120001N1+01001+00831099741ADDAA112004191AY181061AY261061GA1021+007809099GF107991071091008001999999KA1120M+01481MA1999999096101MD1310181+9999MW1911REMSYN100AAXX  12181 11841 11562 72305 10100 20083 39610 49974 53018 60042 79186 879// 333 10148 82926 85630;
0187118410999992000041221004+49230+018620FM-12+031599999V0202201N004010108019N0150001N1+00791+00431100261ADDAY191031AY281031GA1081+010809059GF108991081051012501999999MA1999999096571MD1210471+9999MW1601REMSYN082AAXX  12211 11841 41665 82204 10079 20043 39657 40026 52047 76098 885// 333 88636;
0218118410999992000041300004+49230+018620FM-12+031599999V0201201N001010300019N0200001N1+00451+00361100381ADDAA106000591AY191061AY281061GA1061+030009079GF106991061001999999031001GJ100549MA1999999096641MD1310071+9999MW1031REMSYN094AAXX  13001 11841 11970 61201 10045 20036 39664 40038 53007 69941 70398 86030 333 55009 86360;
0187118410999992000041303004+49230+018620FM-12+031599999V0202201N002010120019N0120001N1+00441+00401100471ADDAY161031AY221031GA1081+012009059GF108991081051012501999999MA1999999096721MD1110081+9999MW1211REMSYN082AAXX  13031 11841 41662 82202 10044 20040 39672 40047 51008 72162 885// 333 88640;
0247118410999992000041306004+49230+018620FM-12+031599999V0201201N001012200019N0100001N1+00651+00451100461ADDAA112000591AY161061AY211061GA1011+005409029GF102991011011004501031001IA1099IA2999+00209KA1120N+00411MA1999999096741MD1310021+9999MW1011REMSYN100AAXX  13061 11841 11460 21201 10065 20045 39674 40046 53002 69942 70161 81130 333 20041 31002 81818;
0159118410999992000041309004+49230+018620FM-12+031599999V0202801N003012200019N0150001N1+01211+00501100411ADDGA1011+006909029GF102991011011008001041011MA1999999096761MD1310021+9999REMSYN076AAXX  13091 11841 42565 22803 10121 20050 39676 40041 53002 81141 333 81823;
0176118410999992000041312004+49230+018620FM-12+031599999V0202201N00801015001CN0200001N1+01611+00601100191ADDAA199000021GA1011+010809089GF106991061081012501001001MA1999999096601MD1710161+9999REMSYN082AAXX  13121 11841 32670 62208 10161 20060 39660 40019 57016 86800 333 81836 86646;
0193118410999992000041315004+49230+018620FM-12+031599999V0202201N001010150019N0200001N1+01351+00771100241ADDAY181031AY221031GA1041+012009089GF107991071081012501999999MA1999999096621MD1010021+9999MW1801REMSYN088AAXX  13151 11841 41670 72201 10135 20077 39662 40024 50002 78082 878// 333 84840 84650;
0223118410999992000041318004+49230+018620FM-12+031599999V0201001N002012200019N0150001N1+01121+00881100271ADDAA112000191AY181061AY211061GA1011+012009029GF102991011021012501041011KA1120M+01641MA1999999096621MD1010001+9999MW1011REMSYN094AAXX  13181 11841 11665 21002 10112 20088 39662 40027 50000 69912 70181 81241 333 10164 81840;
0187118410999992000041321004+49230+018620FM-12+031599999V0209999C000012200019N0080001N1+00681+00601100501ADDAY101031AY201031GA1041+012909059GF104991041051012501001001MA1999999096781MD1210161+9999MW1101REMSYN082AAXX  13211 11841 41658 40000 10068 20060 39678 40050 52016 71000 84500 333 84643;
0212118410999992000041400004+49230+018620FM-12+031599999V0209999C000010129019N0080001N1+00731+00661100601ADDAA199000021AY111061AY211061GA1071+012909059GF107991071051012501999999GJ104329MA1999999096891MD1110111+9999MW1101REMSYN088AAXX  14001 11841 31658 70000 10073 20066 39689 40060 51011 71011 875// 333 55072 87643;
0159118410999992000041403004+49230+018620FM-12+031599999V0202801N001012200019N0100001N1+00501+00381100711ADDGA1011+030009079GF101991011001999999031001MA1999999096961MD1310071+9999REMSYN076AAXX  14031 11841 42960 12801 10050 20038 39696 40071 53007 81030 333 81360;
0232118410999992000041406004+49230+018620FM-12+031599999V0209999C000010300019N0200001N1+00691+00441100811ADDAA199000091GA1051+030009079GF105991051001999999041011IA1099IA2999+00109KA1120N+00331MA1999999097081MD1110121+9999REMSYN088AAXX  14061 11841 32970 50000 10069 20044 39708 40081 51012 85041 333 20033 31001 85360;EQDQ01  00002PRCP99
0159118410999992000041409004+49230+018620FM-12+031599999V0202601N001012200019N0250001N1+01451+00451100671ADDGA1031+030009079GF103991031001999999041031MA1999999097041MD1610041+9999REMSYN076AAXX  14091 11841 42975 32601 10145 20045 39704 40067 56004 83043 333 83360;
0159118410999992000041415004+49230+018620FM-12+031599999V0202001N005012200019N0300001N1+01821+00401100281ADDGA1031+015009029GF104991031011017501001011MA1999999096711MD1710141+9999REMSYN076AAXX  14151 11841 42780 42005 10182 20040 39671 40028 57014 83101 333 83850;
0224118410999992000041418004+49230+018620FM-12+031599999V0201401N003010150019N0200001N1+01651+00551100281ADDAA199000091GA1061+015009059GF106991061051017501999001KA1120M+01911MA1999999096691MD1610021+9999REMSYN082AAXX  14181 11841 32770 61403 10165 20055 39669 40028 56002 86500 333 10191 86650;EQDQ01  00002PRCP99Q02    003SCOMCG
0159118410999992000041421004+49230+018620FM-12+031599999V0201901N003012200019N0150001N1+01481+00561100291ADDGA1031+030009079GF104991041001999999031001MA1999999096681MD1610011+9999REMSYN076AAXX  14211 11841 42965 41903 10148 20056 39668 40029 56001 84030 333 83360;
0141118410999992000041500004+49230+018620FM-12+031599999V0202001N002019999999N9999999N1+01371+00401100251ADDAA199000091MA1999999096631MD1710051+9999REMSYN070AAXX  15001 11841 36/// /2002 10137 20040 39663 40025 57005 333 55077;EQDQ01  00002PRCP99
0143118410999992000041503004+49230+018620FM-12+031599999V0209999C000012200019N0100001N1+00631+00401100351ADDGA1001+999999999GF100991001001999999001001MA1999999096631MD1610031+9999REMSYN060AAXX  15031 11841 42960 00000 10063 20040 39663 40035 56003;
0232118410999992000041506004+49230+018620FM-12+031599999V0203201N001012200019N0250001N1+00841+00481100381ADDAA199000091GA1011+060009019GF101991001001999999001011IA1099IA2999+00109KA1120N+00501MA1999999096691MD1210061+9999REMSYN088AAXX  15061 11841 32975 13201 10084 20048 39669 40038 52006 80001 333 20050 31001 81070;EQDQ01  00002PRCP99
0143118410999992000041509004+49230+018620FM-12+031599999V0202801N001012200019N0250001N1+01791+00551100231ADDGA1001+999999999GF100991001001999999001001MA1999999096661MD1810031+9999REMSYN060AAXX  15091 11841 42975 02801 10179 20055 39666 40023 58003;
0195118410999992000041512004+49230+018620FM-12+031599999V0201801N004010147019N0250001N1+01931+00431100121ADDAA199000091GA1051+014709089GF105991051021012501001001MA1999999096571MD1610091+9999REMSYN082AAXX  15121 11841 32675 51804 10193 20043 39657 40012 56009 85200 333 85849 91009;EQDQ01  00002PRCP99
0159118410999992000041515004+49230+018620FM-12+031599999V0201601N004010150019N0250001N1+02031+00521099951ADDGA1051+015009029GF106991051021017501001021MA1999999096421MD1610151+9999REMSYN076AAXX  15151 11841 42775 61604 10203 20052 39642 49995 56015 85202 333 85850;
0208118410999992000041518004+49230+018620FM-12+031599999V0201401N002010138019N0250001N1+01781+00671099981ADDAA199000091GA1051+013809029GF105991051021012501001001KA1120M+02051MA1999999096421MD1510001+9999REMSYN082AAXX  15181 11841 32675 51402 10178 20067 39642 49998 55000 85200 333 10205 85846;EQDQ01  00002PRCP99
0178118410999992000041521004+49230+018620FM-12+031599999V0201401N003012200019N0250001N1+01591+00721100061ADDGA1031+018009059GF103991031051017501999001MA1999999096481MD1210061+9999REMSYN076AAXX  15211 11841 42775 31403 10159 20072 39648 40006 52006 83500 333 83656;EQDQ01+000002SCOMCG
0219118410999992000041600004+49230+018620FM-12+031599999V0202101N003012200019N0200001N1+01551+00621100111ADDAA199000091GA1041+015009059GF105991041051017501999011GJ105349MA1999999096521MD1110041+9999REMSYN082AAXX  16001 11841 32770 52103 10155 20062 39652 40011 51004 84501 333 55089 84650;EQDQ01  00002PRCP99Q02    003SCOMCG
0159118410999992000041603004+49230+018620FM-12+031599999V0202301N006010129019N0200001N1+01231+00801100311ADDGA1071+012909059GF107991071051012501001001MA1999999096671MD1010151+9999REMSYN076AAXX  16031 11841 42670 72306 10123 20080 39667 40031 50015 87500 333 87643;
0247118410999992000041606004+49230+018620FM-12+031599999V0202401N006010072019N0120001N1+00831+00661100611ADDAA112004191AY161061AY221061GA1081+007209059GF108991081051008001999999IA1099IA2999+00809KA1120N+00831MA1999999096911MD1210241+9999MW1211REMSYN100AAXX  16061 11841 11562 82406 10083 20066 39691 40061 52024 60042 72162 885// 333 20083 31008 88624;
0193118410999992000041609004+49230+018620FM-12+031599999V0202401N00501002101CN0150001N1+00781+00531100881ADDAY161031AY261031GA1041+002109079GF108991081051002501999999MA1999999097161MD1110251+9999MW1611REMSYN088AAXX  16091 11841 41365 82405 10078 20053 39716 40088 51025 76166 885// 333 84707 88624;
0204118410999992000041612004+49230+018620FM-12+031599999V0202001N003010120019N0300001N1+01221+00421100811ADDAA106002091AY161061AY221061GA1051+012009029GF105991051021012501001001MA1999999097151MD1610011+9999MW1021REMSYN088AAXX  16121 11841 11680 52003 10122 20042 39715 40081 56001 60021 70262 85200 333 85840;
0159118410999992000041615004+49230+018620FM-12+031599999V0202401N005012200019N0300001N1+01581+00451100641ADDGA1021+015009029GF102991021021017501001011MA1999999097031MD1710121+9999REMSYN076AAXX  16151 11841 42780 22405 10158 20045 39703 40064 57012 82201 333 82850;
0195118410999992000041618004+49230+018620FM-12+031599999V0201401N002012200019N0300001N1+01161+00441100781ADDAA112002091GA1031+066009019GF103991001001999999001021KA1120M+01591MA1999999097111MD1210081+9999REMSYN088AAXX  16181 11841 12980 31402 10116 20044 39711 40078 52008 60022 80002 333 10159 83072;
0159118410999992000041621004+49230+018620FM-12+031599999V0209999C000012200019N0200001N1+00721+00451100871ADDGA1021+060009019GF102991001001999999001021MA1999999097141MD1210031+9999REMSYN076AAXX  16211 11841 42970 20000 10072 20045 39714 40087 52003 80002 333 82070;
0141118410999992000041700004+49230+018620FM-12+031599999V0201001N002019999999N9999999N1+00621+00451100821ADDAA199000091MA1999999097091MD1710051+9999REMSYN070AAXX  17001 11841 36/// /1002 10062 20045 39709 40082 57005 333 55066;EQDQ01  00002PRCP99
0159118410999992000041703004+49230+018620FM-12+031599999V0200301N001012200019N0150001N1+00421+00301100721ADDGA1011+066009019GF101991001001999999001011MA1999999096961MD1710091+9999REMSYN076AAXX  17031 11841 42965 10301 10042 20030 39696 40072 57009 80001 333 81072;
0232118410999992000041706004+49230+018620FM-12+031599999V0209999C000012200019N0300001N1+00871+00391100651ADDAA199000091GA1021+060009019GF102991001001999999001011IA1099IA2999+00109KA1120N+00361MA1999999096951MD1510011+9999REMSYN088AAXX  17061 11841 32980 20000 10087 20039 39695 40065 55001 80001 333 20036 31001 82070;EQDQ01  00002PRCP99
0165118410999992000041709004+49230+018620FM-12+031599999V0201901N004012200019N0350001N1+01941+00401100451ADDGA1041+060009009GF104991001001999999001021MA1999999096891MD1810061+9999REMSYN082AAXX  17091 11841 42981 41904 10194 20040 39689 40045 58006 80002 333 84070 91009;
0189118410999992000041712004+49230+018620FM-12+031599999V0201701N004010600019N0300001N1+02051+00411100421ADDAA199000091GA1061+060009019GF106991001001999999001021MA1999999096881MD1610011+9999REMSYN076AAXX  17121 11841 32980 61704 10205 20041 39688 40042 56001 80002 333 86070;EQDQ01  00002PRCP99
0101118410999992000041715004+49230+018620FM-12+031599999V0202201N004019999999N9999999N1+02101+00501100401ADDMA1999999096871MD1710011+9999REMSYN060AAXX  17151 11841 46/// /2204 10210 20050 39687 40040 57001;
0214118410999992000041718004+49230+018620FM-12+031599999V0201301N002019999999N0250001N1+01571+00751100561ADDAA199000091GA1021+030009039GF105991021001999999041011KA1120M+02201MA1999999096951MD1310061+9999REMSYN088AAXX  17181 11841 32975 51302 10157 20075 39695 40056 53006 82041 333 10220 82360 85070;EQDQ01  00002PRCP99
0143118410999992000041721004+49230+018620FM-12+031599999V0201301N001012200019N0200001N1+01011+00631100751ADDGA1001+999999999GF100991001001999999001001MA1999999097071MD1110121+9999REMSYN060AAXX  17211 11841 42970 01301 10101 20063 39707 40075 51012;
0183118410999992000041800004+49230+018620FM-12+031599999V0209999C000012200019N0150001N1+00701+00531100851ADDAA199000091GA1001+999999999GF100991001001999999001001MA1999999097121MD1110051+9999REMSYN070AAXX  18001 11841 32965 00000 10070 20053 39712 40085 51005 333 55052;EQDQ01  00002PRCP99
0159118410999992000041803004+49230+018620FM-12+031599999V0200901N001012200019N0200001N1+00601+00481100931ADDGA1031+060009019GF103991001001999999001011MA1999999097191MD1110071+9999REMSYN076AAXX  18031 11841 42970 30901 10060 20048 39719 40093 51007 80001 333 83070;
0232118410999992000041806004+49230+018620FM-12+031599999V0200801N004012200019N0300001N1+00931+00601101031ADDAA199000091GA1011+069009019GF101991001001999999001011IA1099IA2999+00309KA1120N+00591MA1999999097331MD1210141+9999REMSYN088AAXX  18061 11841 32980 10804 10093 20060 39733 40103 52014 80001 333 20059 31003 81073;EQDQ01  00002PRCP99
0159118410999992000041809004+49230+018620FM-12+031599999V0200901N002012200019N0300001N1+01821+00881100861ADDGA1021+069009019GF102991001001999999001011MA1999999097281MD1810051+9999REMSYN076AAXX  18091 11841 42980 20902 10182 20088 39728 40086 58005 80001 333 82073;
0189118410999992000041812004+49230+018620FM-12+031599999V0200601N001012200019N0300001N1+02401+00721100631ADDAA199000091GA1021+069009019GF102991001001999999001011MA1999999097121MD1710161+9999REMSYN076AAXX  18121 11841 32980 20601 10240 20072 39712 40063 57016 80001 333 82073;EQDQ01  00002PRCP99
0159118410999992000041815004+49230+018620FM-12+031599999V0200401N004012200019N0300001N1+02231+00951100551ADDGA1021+069009019GF102991001001999999001011MA1999999097031MD1610091+9999REMSYN076AAXX  18151 11841 42980 20404 10223 20095 39703 40055 56009 80001 333 82073;
0229118410999992000041818004+49230+018620FM-12+031599999V0201001N00401036001CN0250001N1+01681+01001100781ADDAA112000391AY181061AY211061GA1021+009909099GF107991021091012501071001KA1120M+02461MA1999999097181MD1010151+9999MW1951REMSYN100AAXX  18181 11841 11675 71004 10168 20100 39718 40078 50015 69932 79581 82970 333 10246 82933 85359;
0187118410999992000041821004+49230+018620FM-12+031599999V0201201N003012200019N0180001N1+01251+01061100821ADDAY191031AY281031GA1011+012009059GF101991011051012501001001MA1999999097171MD1810011+9999MW1011REMSYN082AAXX  18211 11841 41668 11203 10125 20106 39717 40082 58001 70198 81500 333 81640;
0218118410999992000041900004+49230+018620FM-12+031599999V0201101N002012200019N0100001N1+01031+00951100801ADDAA106000391AY191061AY281061GA1011+012009059GF101991011051012501001001GJ105289MA1999999097121MD1810051+9999MW1021REMSYN094AAXX  19001 11841 11660 11102 10103 20095 39712 40080 58005 69931 70298 81500 333 55088 81640;
0143118410999992000041903004+49230+018620FM-12+031599999V0201101N001012200019N0100001N1+00921+00841100751ADDGA1001+999999999GF100991001001999999001001MA1999999097061MD1610061+9999REMSYN060AAXX  19031 11841 42960 01101 10092 20084 39706 40075 56006;
0219118410999992000041906004+49230+018620FM-12+031599999V0200801N003012200019N0150001N1+01151+00961100731ADDAA112000391GA1011+069009019GF101991001001999999001011IA1099IA2999+00509KA1120N+00831MA1999999097071MD1110011+9999REMSYN094AAXX  19061 11841 12965 10803 10115 20096 39707 40073 51001 69932 80001 333 20083 31005 81073;
0159118410999992000041909004+49230+018620FM-12+031599999V0200701N002012200019N0300001N1+02041+01211100581ADDGA1011+009009029GF101991011011008001001001MA1999999097041MD1810031+9999REMSYN076AAXX  19091 11841 42580 10702 10204 20121 39704 40058 58003 81100 333 81830;
0189118410999992000041912004+49230+018620FM-12+031599999V0200401N001012200019N0300001N1+02621+00521100431ADDAA199000091GA1011+013809029GF101991011021012501001001MA1999999096951MD1710091+9999REMSYN076AAXX  19121 11841 32680 10401 10262 20052 39695 40043 57009 81200 333 81846;EQDQ01  00002PRCP99
0193118410999992000041915004+49230+018620FM-12+031599999V0201401N00401012001CN0250001N1+02151+00741100561ADDAY111031AY211031GA1031+010809099GF107991061031012501071001MA1999999097021MD1310071+9999MW1951REMSYN088AAXX  19151 11841 41675 71404 10215 20074 39702 40056 53007 79511 86370 333 83936 83850;
0135118410999992000041918004+49230+018620FM-12+031599999V0209999V001019999999N9999999N1+01651+00931100811ADDAA199000021KA1999M+02681MA1999999097211MD1210231+9999REMSYN070AAXX  19181 11841 36/// /9901 10165 20093 39721 40081 52023 333 10268;
0159118410999992000041921004+49230+018620FM-12+031599999V0201201N002012200019N0200001N1+01171+00841101041ADDGA1031+060009019GF103991001001999999001021MA1999999097371MD1210151+9999REMSYN076AAXX  19211 11841 42970 31202 10117 20084 39737 40104 52015 80002 333 83070;
0122118410999992000042000004+49230+018620FM-12+031599999V0201101N003019999999N9999999N1+01111+00871101141ADDAA199000021MA1999999097461MD1210101+9999REMSYN070AAXX  20001 11841 36/// /1103 10111 20087 39746 40114 52010 333 55082;
0159118410999992000042003004+49230+018620FM-12+031599999V0201201N003012200019N0150001N1+00981+00791101221ADDGA1011+069009019GF101991001001999999001011MA1999999097521MD1310041+9999REMSYN076AAXX  20031 11841 42965 11203 10098 20079 39752 40122 53004 80001 333 81073;
0232118410999992000042006004+49230+018620FM-12+031599999V0201001N002012200019N0200001N1+01261+00921101301ADDAA199000091GA1021+060009019GF102991001001999999001011IA1099IA2999+00809KA1120N+00881MA1999999097631MD1110111+9999REMSYN088AAXX  20061 11841 32970 21002 10126 20092 39763 40130 51011 80001 333 20088 31008 82070;EQDQ01  00002PRCP99
0159118410999992000042009004+49230+018620FM-12+031599999V0200601N003012200019N0150001N1+01961+01061101211ADDGA1011+060009019GF101991001001999999001011MA1999999097631MD1010001+9999REMSYN076AAXX  20091 11841 42965 10603 10196 20106 39763 40121 50000 80001 333 81070;
0189118410999992000042012004+49230+018620FM-12+031599999V0200301N004012200019N0150001N1+02381+00871101041ADDAA199000091GA1011+010809029GF101991011021012501001001MA1999999097521MD1610111+9999REMSYN076AAXX  20121 11841 32665 10304 10238 20087 39752 40104 56011 81200 333 81836;EQDQ01  00002PRCP99
0165118410999992000042015004+49230+018620FM-12+031599999V0200401N006012200019N0150001N1+02281+00991101021ADDGA1011+013809099GF102991021091012501031001MA1999999097491MD1810031+9999REMSYN082AAXX  20151 11841 42665 20406 10228 20099 39749 40102 58003 82930 333 81946 81850;
0208118410999992000042018004+49230+018620FM-12+031599999V0200301N005012200019N0150001N1+01911+01241101231ADDAA199000091GA1011+030009079GF101991011001999999041001KA1120M+02391MA1999999097651MD1310161+9999REMSYN082AAXX  20181 11841 32965 10305 10191 20124 39765 40123 53016 81040 333 10239 81360;EQDQ01  00002PRCP99
0143118410999992000042021004+49230+018620FM-12+031599999V0201401N002012200019N0100001N1+01461+01191101401ADDGA1001+999999999GF100991001001999999001001MA1999999097761MD1110111+9999REMSYN060AAXX  20211 11841 42960 01402 10146 20119 39776 40140 51011;
0171118410999992000042103004+49230+018620FM-12+031599999V0201101N002012200019N0038001N1+01041+00961101531ADDAY101031AY201031GA1001+999999999GF100991001001999999001001MA1999999097831MD1210031+9999MW1101REMSYN066AAXX  21031 11841 41938 01102 10104 20096 39783 40153 52003 71000;
0248118410999992000042106004+49230+018620FM-12+031599999V0200801N002012200019N0022001N1+01231+01041101581ADDAA199000091AY101061AY201061GA1001+999999999GF100991001001999999001001IA1099IA2999+00809KA1120N+00951MA1999999097901MD1110071+9999MW1101REMSYN082AAXX  21061 11841 31922 00802 10123 20104 39790 40158 51007 71000 333 20095 31008;EQDQ01  00002PRCP99
0159118410999992000042109004+49230+018620FM-12+031599999V0201101N002012200019N0150001N1+02221+01071101371ADDGA1011+010809029GF101991011021012501001001MA1999999097821MD1810081+9999REMSYN076AAXX  21091 11841 42665 11102 10222 20107 39782 40137 58008 81200 333 81836;
0189118410999992000042112004+49230+018620FM-12+031599999V0200701N004012200019N0300001N1+02481+00461101241ADDAA199000091GA1011+015009029GF101991011021017501001001MA1999999097721MD1710101+9999REMSYN076AAXX  21121 11841 32780 10704 10248 20046 39772 40124 57010 81200 333 81850;EQDQ01  00002PRCP99
0159118410999992000042115004+49230+018620FM-12+031599999V0200501N005012200019N0300001N1+02441+00421101231ADDGA1011+069009019GF101991001001999999001011MA1999999097701MD1510021+9999REMSYN076AAXX  21151 11841 42980 10505 10244 20042 39770 40123 55002 80001 333 81073;
0208118410999992000042118004+49230+018620FM-12+031599999V0200801N002012200019N0300001N1+02001+00531101401ADDAA199000091GA1011+069009019GF101991001001999999001011KA1120M+02531MA1999999097821MD1310121+9999REMSYN082AAXX  21181 11841 32980 10802 10200 20053 39782 40140 53012 80001 333 10253 81073;EQDQ01  00002PRCP99
0143118410999992000042121004+49230+018620FM-12+031599999V0209999C000012200019N0250001N1+01301+00681101671ADDGA1001+999999999GF100991001001999999001001MA1999999097991MD1110171+9999REMSYN060AAXX  21211 11841 42975 00000 10130 20068 39799 40167 51017;
0183118410999992000042200004+49230+018620FM-12+031599999V0201001N001012200019N0200001N1+00971+00711101741ADDAA199000091GA1001+999999999GF100991001001999999001001MA1999999098021MD1010031+9999REMSYN070AAXX  22001 11841 32970 01001 10097 20071 39802 40174 50003 333 55099;EQDQ01  00002PRCP99
0159118410999992000042203004+49230+018620FM-12+031599999V0201101N002012200019N0150001N1+00881+00691101781ADDGA1011+069009019GF101991001001999999001011MA1999999098041MD1310021+9999REMSYN076AAXX  22031 11841 42965 11102 10088 20069 39804 40178 53002 80001 333 81073;
0220118410999992000042206004+49230+018620FM-12+031599999V0200801N003012200019N0150001N1+01201+00831101801ADDAA199000091GA1001+999999999GF100991001001999999001001IA1019IA2999+00609KA1120N+00841MA1999999098101MD1110061+9999REMSYN076AAXX  22061 11841 32965 00803 10120 20083 39810 40180 51006 333 20084 30006;EQDQ01  00002PRCP99
0159118410999992000042209004+49230+018620FM-12+031599999V0203501N001012200019N0150001N1+02241+00991101581ADDGA1011+009009029GF101991011011008001001001MA1999999098021MD1810081+9999REMSYN076AAXX  22091 11841 42565 13501 10224 20099 39802 40158 58008 81100 333 81830;
0159118410999992000042215004+49230+018620FM-12+031599999V0200501N002012200019N0200001N1+02521+00381101251ADDGA1011+021009059GF101991011041022501061001MA1999999097731MD1610111+9999REMSYN076AAXX  22151 11841 42870 10502 10252 20038 39773 40125 56011 81460 333 81657;
0208118410999992000042218004+49230+018620FM-12+031599999V0200601N002012200019N0200001N1+01881+00601101391ADDAA199000091GA1011+069009019GF101991001001999999001011KA1120M+02601MA1999999097791MD1310061+9999REMSYN082AAXX  22181 11841 32970 10602 10188 20060 39779 40139 53006 80001 333 10260 81073;EQDQ01  00002PRCP99
0143118410999992000042221004+49230+018620FM-12+031599999V0201301N002012200019N0200001N1+01261+00501101571ADDGA1001+999999999GF100991001001999999001001MA1999999097891MD1010101+9999REMSYN060AAXX  22211 11841 42970 01302 10126 20050 39789 40157 50010;
0183118410999992000042300004+49230+018620FM-12+031599999V0200901N001012200019N0200001N1+00891+00551101631ADDAA199000091GA1001+999999999GF100991001001999999001001MA1999999097901MD1010011+9999REMSYN070AAXX  23001 11841 32970 00901 10089 20055 39790 40163 50001 333 55114;EQDQ01  00002PRCP99
0143118410999992000042303004+49230+018620FM-12+031599999V0209999C000012200019N0200001N1+00801+00551101661ADDGA1001+999999999GF100991001001999999001001MA1999999097921MD1110021+9999REMSYN060AAXX  23031 11841 42970 00000 10080 20055 39792 40166 51002;
0220118410999992000042306004+49230+018620FM-12+031599999V0200801N003012200019N0200001N1+01141+00631101671ADDAA199000091GA1001+999999999GF100991001001999999001001IA1019IA2999+00409KA1120N+00701MA1999999097971MD1110051+9999REMSYN076AAXX  23061 11841 32970 00803 10114 20063 39797 40167 51005 333 20070 30004;EQDQ01  00002PRCP99
0143118410999992000042309004+49230+018620FM-12+031599999V0200501N003012200019N0200001N1+02151+00621101441ADDGA1001+999999999GF100991001001999999001001MA1999999097871MD1810101+9999REMSYN060AAXX  23091 11841 42970 00503 10215 20062 39787 40144 58010;
0173118410999992000042312004+49230+018620FM-12+031599999V0200601N002012200019N0200001N1+02541+00511101141ADDAA199000091GA1001+999999999GF100991001001999999001001MA1999999097631MD1710241+9999REMSYN060AAXX  23121 11841 32970 00602 10254 20051 39763 40114 57024;EQDQ01  00002PRCP99
0143118410999992000042315004+49230+018620FM-12+031599999V0201101N002012200019N0200001N1+02601+00391100911ADDGA1001+999999999GF100991001001999999001001MA1999999097411MD1610221+9999REMSYN060AAXX  23151 11841 42970 01102 10260 20039 39741 40091 56022;
0208118410999992000042318004+49230+018620FM-12+031599999V0202801N002012200019N0250001N1+02011+00821101001ADDAA199000091GA1011+060009019GF101991001001999999001011KA1120M+02651MA1999999097431MD1310021+9999REMSYN082AAXX  23181 11841 32975 12802 10201 20082 39743 40100 53002 80001 333 10265 81070;EQDQ01  00002PRCP99
0143118410999992000042321004+49230+018620FM-12+031599999V0209999C000012200019N0200001N1+01291+00781101171ADDGA1001+999999999GF100991001001999999001001MA1999999097511MD1010081+9999REMSYN060AAXX  23211 11841 42970 00000 10129 20078 39751 40117 50008;
0183118410999992000042400004+49230+018620FM-12+031599999V0200801N001012200019N0150001N1+01001+00761101161ADDAA199000091GA1001+999999999GF100991001001999999001001MA1999999097461MD1810051+9999REMSYN070AAXX  24001 11841 32965 00801 10100 20076 39746 40116 58005 333 55131;EQDQ01  00002PRCP99
0143118410999992000042403004+49230+018620FM-12+031599999V0201101N001012200019N0150001N1+00841+00641101091ADDGA1001+999999999GF100991001001999999001001MA1999999097371MD1610091+9999REMSYN060AAXX  24031 11841 42965 01101 10084 20064 39737 40109 56009;
0220118410999992000042406004+49230+018620FM-12+031599999V0200901N002012200019N0200001N1+01221+00771100961ADDAA199000091GA1001+999999999GF100991001001999999001001IA1019IA2999+00409KA1120N+00781MA1999999097301MD1810071+9999REMSYN076AAXX  24061 11841 32970 00902 10122 20077 39730 40096 58007 333 20078 30004;EQDQ01  00002PRCP99
0143118410999992000042409004+49230+018620FM-12+031599999V0200501N002012200019N0250001N1+02241+00581100661ADDGA1001+999999999GF100991001001999999001001MA1999999097131MD1710171+9999REMSYN060AAXX  24091 11841 42975 00502 10224 20058 39713 40066 57017;
0159118410999992000042415004+49230+018620FM-12+031599999V0201601N001010300019N0250001N1+02581+00191100141ADDGA1051+030009079GF105991051001999999061001MA1999999096661MD1610211+9999REMSYN076AAXX  24151 11841 42975 51601 10258 20019 39666 40014 56021 85060 333 85360;
0208118410999992000042418004+49230+018620FM-12+031599999V0200401N005012200019N0250001N1+02081+00671100261ADDAA199000091GA1021+018009059GF103991021051022501031011KA1120M+02721MA1999999096731MD1310071+9999REMSYN082AAXX  24181 11841 32875 30405 10208 20067 39673 40026 53007 82531 333 10272 82656;EQDQ01  00002PRCP99
0178118410999992000042421004+49230+018620FM-12+031599999V0209999C000012200019N0250001N1+01481+00871100501ADDGA1021+024009079GF102991021999999999031001MA1999999096891MD1210161+9999REMSYN076AAXX  24211 11841 42975 20000 10148 20087 39689 40050 52016 82030 333 82358;EQDQ01    003SCOLCG
0203118410999992000042500004+49230+018620FM-12+031599999V0209999C000012200019N0250001N1+01141+00841100671ADDAA199000091GA1011+030009079GF101991011001999999031001GJ106849MA1999999097011MD1110121+9999REMSYN082AAXX  25001 11841 32975 10000 10114 20084 39701 40067 51012 81030 333 55114 81360;EQDQ01  00002PRCP99
0159118410999992000042503004+49230+018620FM-12+031599999V0209999C000012200019N0250001N1+01001+00891100861ADDGA1021+027009079GF103991021001999999031011MA1999999097171MD1210161+9999REMSYN076AAXX  25031 11841 42975 30000 10100 20089 39717 40086 52016 82031 333 82359;
0247118410999992000042506004+49230+018620FM-12+031599999V0209999C000010072019N0120001N1+01151+01021100971ADDAA112000191AY111061AY211061GA1061+007209029GF107991061021008001071001IA1099IA2999+00609KA1120N+00951MA1999999097301MD1210131+9999MW1801REMSYN100AAXX  25061 11841 11562 70000 10115 20102 39730 40097 52013 69912 78011 86270 333 20095 31006 86824;
0193118410999992000042509004+49230+018620FM-12+031599999V0200101N00101001201CN0060001N1+01361+01151101081ADDAY181031AY221031GA1011+001809079GF107991061021001501071001MA1999999097431MD1110131+9999MW1801REMSYN088AAXX  25091 11841 41256 70101 10136 20115 39743 40108 51013 78082 86270 333 81706 86829;
0232118410999992000042512004+49230+018620FM-12+031599999V0201001N001010075019N0200001N1+01431+01131101151ADDAA106007991AY181061AY221061GA1011+004509079GA2041+007509089GF107991071081004501001001MA1999999097511MD1210081+9999MW1251REMSYN100AAXX  25121 11841 11470 71001 10143 20113 39751 40115 52008 60081 72582 87800 333 81715 84825 86643;
0159118410999992000042515004+49230+018620FM-12+031599999V0200401N003010066019N0300001N1+01381+01001101211ADDGA1071+006609059GF107991071051008001001001MA1999999097561MD1310051+9999REMSYN076AAXX  25151 11841 42580 70403 10138 20100 39756 40121 53005 87500 333 87622;
0195118410999992000042518004+49230+018620FM-12+031599999V0200501N002010066019N0200001N1+01271+00991101321ADDAA112007991GA1071+006609059GF107991071051008001999999KA1120M+01551MA1999999097651MD1310091+9999REMSYN088AAXX  25181 11841 12570 70502 10127 20099 39765 40132 53009 60082 875// 333 10155 87622;
0101118410999992000042521004+49230+018620FM-12+031599999V0209999C000019999999N9999999N1+01211+01051101401ADDMA1999999097731MD1210111+9999REMSYN060AAXX  25211 11841 46/// /0000 10121 20105 39773 40140 52011;
0184118410999992000042600004+49230+018620FM-12+031599999V0209999C000010039019N0100001N1+01191+01001101411ADDAA199000021GA1081+003909069GF108991081061004501999999GJ100009MA1999999097731MD1010001+9999REMSYN082AAXX  26001 11841 32460 80000 10119 20100 39773 40141 50000 886// 333 55000 88713;
0165118410999992000042603004+49230+018620FM-12+031599999V0201001N00101004201CN0150001N1+01131+01001101391ADDGA1041+004809079GF107991071051004501999999MA1999999097701MD1610031+9999REMSYN082AAXX  26031 11841 42465 71001 10113 20100 39770 40139 56003 875// 333 84716 87632;
0238118410999992000042606004+49230+018620FM-12+031599999V0200901N00101004201CN0250001N1+01251+00991101451ADDAA199000091GA1021+004509079GF106991051051004501031001IA1099IA2999+01009KA1120N+01061MA1999999097781MD1210081+9999REMSYN094AAXX  26061 11841 32475 60901 10125 20099 39778 40145 52008 85530 333 20106 31010 82715 84636;EQDQ01  00002PRCP99
0159118410999992000042609004+49230+018620FM-12+031599999V0200701N002012200019N0300001N1+01681+01001101421ADDGA1041+012009029GF104991041021012501001001MA1999999097801MD1310021+9999REMSYN076AAXX  26091 11841 42680 40702 10168 20100 39780 40142 53002 84200 333 84840;
0189118410999992000042612004+49230+018620FM-12+031599999V0202401N001012200019N0300001N1+02071+00931101301ADDAA199000091GA1031+015009029GF103991031021017501001001MA1999999097731MD1810071+9999REMSYN076AAXX  26121 11841 32780 32401 10207 20093 39773 40130 58007 83200 333 83850;EQDQ01  00002PRCP99
0159118410999992000042615004+49230+018620FM-12+031599999V0201101N002012200019N0300001N1+02161+00951101191ADDGA1021+015009029GF103991021021017501061001MA1999999097641MD1610091+9999REMSYN076AAXX  26151 11841 42780 31102 10216 20095 39764 40119 56009 82260 333 82850;
0208118410999992000042618004+49230+018620FM-12+031599999V0201201N001012200019N0250001N1+01661+01151101381ADDAA199000091GA1011+018009029GF102991011021017501061001KA1120M+02261MA1999999097761MD1310121+9999REMSYN082AAXX  26181 11841 32775 21201 10166 20115 39776 40138 53012 81260 333 10226 81856;EQDQ01  00002PRCP99
0143118410999992000042621004+49230+018620FM-12+031599999V0201201N001012200019N0250001N1+01171+01011101601ADDGA1001+999999999GF100991001001999999001001MA1999999097911MD1110151+9999REMSYN060AAXX  26211 11841 42975 01201 10117 20101 39791 40160 51015;
0183118410999992000042700004+49230+018620FM-12+031599999V0200601N001012200019N0100001N1+00961+00851101671ADDAA199000091GA1001+999999999GF100991001001999999001001MA1999999097951MD1310041+9999REMSYN070AAXX  27001 11841 32960 00601 10096 20085 39795 40167 53004 333 55106;EQDQ01  00002PRCP99
0171118410999992000042703004+49230+018620FM-12+031599999V0201001N002012200019N0050001N1+00861+00801101751ADDAY101031AY201031GA1001+999999999GF100991001001999999001001MA1999999098011MD1110061+9999MW1101REMSYN066AAXX  27031 11841 41950 01002 10086 20080 39801 40175 51006 71000;
0266118410999992000042706004+49230+018620FM-12+031599999V0200601N00301000601CN0018001N1+01011+00961101841ADDAA199000091AY141061AY211061GA1021+000309079GF105991051061000751001001IA1019IA2999+00609KA1120N+00841MA1999999098121MD1210111+9999MW1281REMSYN100AAXX  27061 11841 31118 50603 10101 20096 39812 40184 52011 72841 85600 333 20084 30006 82701 84706;EQDQ01  00002PRCP99
0159118410999992000042709004+49230+018620FM-12+031599999V0200201N001012200019N0150001N1+02051+01091101631ADDGA1011+010509029GF101991011021012501001001MA1999999098051MD1810071+9999REMSYN076AAXX  27091 11841 42665 10201 10205 20109 39805 40163 58007 81200 333 81835;
0189118410999992000042712004+49230+018620FM-12+031599999V0201301N001012200019N0200001N1+02321+00771101481ADDAA199000091GA1031+015009029GF103991031021017501001001MA1999999097931MD1710121+9999REMSYN076AAXX  27121 11841 32770 31301 10232 20077 39793 40148 57012 83200 333 83850;EQDQ01  00002PRCP99
0165118410999992000042715004+49230+018620FM-12+031599999V0202201N00101036001CN0250001N1+02311+00991101381ADDGA1021+021009089GF105991021021022501061001MA1999999097841MD1710091+9999REMSYN082AAXX  27151 11841 42875 52201 10231 20099 39784 40138 57009 82260 333 82857 84361;
0214118410999992000042718004+49230+018620FM-12+031599999V0201201N001012200019N0250001N1+01701+01151101551ADDAA199000091GA1011+018009069GF104991011041017501041001KA1120M+02491MA1999999097931MD1310091+9999REMSYN088AAXX  27181 11841 32775 41201 10170 20115 39793 40155 53009 81440 333 10249 81656 84361;EQDQ01  00002PRCP99
0159118410999992000042721004+49230+018620FM-12+031599999V0200601N001012200019N0250001N1+01381+01001101701ADDGA1011+030009079GF101991011001999999031001MA1999999098031MD1110101+9999REMSYN076AAXX  27211 11841 42975 10601 10138 20100 39803 40170 51010 81030 333 81360;
0183118410999992000042800004+49230+018620FM-12+031599999V0209999C000012200019N0200001N1+01001+00861101751ADDAA199000091GA1001+999999999GF100991001001999999001001MA1999999098031MD1510001+9999REMSYN070AAXX  28001 11841 32970 00000 10100 20086 39803 40175 55000 333 55089;EQDQ01  00002PRCP99
0159118410999992000042803004+49230+018620FM-12+031599999V0200801N001012200019N0150001N1+00871+00811101741ADDGA1011+009009029GF101991011011008001001001MA1999999098011MD1610021+9999REMSYN076AAXX  28031 11841 42565 10801 10087 20081 39801 40174 56002 81100 333 81830;
0220118410999992000042806004+49230+018620FM-12+031599999V0200801N002012200019N0150001N1+01331+00991101691ADDAA199000091GA1001+999999999GF100991001001999999001001IA1099IA2999+00409KA1120N+00841MA1999999098021MD1010011+9999REMSYN076AAXX  28061 11841 32965 00802 10133 20099 39802 40169 50001 333 20084 31004;EQDQ01  00002PRCP99
0101118410999992000042809004+49230+018620FM-12+031599999V0201101N002019999999N9999999N1+02251+00961101481ADDMA1999999097931MD1710111+9999REMSYN060AAXX  28091 11841 46/// /1102 10225 20096 39793 40148 57011;
0210118410999992000042812004+49230+018620FM-12+031599999V0201301N00101015001CN0250001N1+02191+01041101461ADDAA106000191AY181061AY211061GA1021+015009099GF105991051091017501001011MA1999999097901MD1510031+9999MW1171REMSYN094AAXX  28121 11841 11775 51301 10219 20104 39790 40146 55003 69921 71781 85901 333 82950 83856;
0187118410999992000042815004+49230+018620FM-12+031599999V0201401N002010900019N0250001N1+02161+01021101441ADDAY191031AY281031GA1021+015009029GF105991021021017501031031MA1999999097881MD1510021+9999MW1251REMSYN082AAXX  28151 11841 41775 51402 10216 20102 39788 40144 55002 72598 82233 333 82850;
0223118410999992000042818004+49230+018620FM-12+031599999V0201301N001012200019N0200001N1+01951+01161101551ADDAA112000191AY191061AY281061GA1011+018009029GF102991011021017501061021KA1120M+02501MA1999999097961MD1310081+9999MW1011REMSYN094AAXX  28181 11841 11770 21301 10195 20116 39796 40155 53008 69922 70198 81262 333 10250 81856;
0159118410999992000042821004+49230+018620FM-12+031599999V0209999C000012200019N0150001N1+01281+00941101781ADDGA1011+060009019GF101991001001999999001011MA1999999098101MD1110141+9999REMSYN076AAXX  28211 11841 42965 10000 10128 20094 39810 40178 51014 80001 333 81070;
0164118410999992000042900004+49230+018620FM-12+031599999V0200701N001012200019N0100001N1+01051+00881101821ADDAA199000021GA1001+999999999GF100991001001999999001001MA1999999098111MD1010011+9999REMSYN070AAXX  29001 11841 32960 00701 10105 20088 39811 40182 50001 333 55111;
0143118410999992000042903004+49230+018620FM-12+031599999V0201101N001012200019N0150001N1+00921+00811101871ADDGA1001+999999999GF100991001001999999001001MA1999999098141MD1110031+9999REMSYN060AAXX  29031 11841 42965 01101 10092 20081 39814 40187 51003;
0232118410999992000042906004+49230+018620FM-12+031599999V0200801N002012200019N0250001N1+01471+01031101851ADDAA199000091GA1011+030009079GF101991011001999999041001IA1099IA2999+00609KA1120N+00851MA1999999098191MD1110051+9999REMSYN088AAXX  29061 11841 32975 10802 10147 20103 39819 40185 51005 81040 333 20085 31006 81360;EQDQ01  00002PRCP99
0159118410999992000042909004+49230+018620FM-12+031599999V0200501N003012200019N0300001N1+02331+00821101741ADDGA1011+012009029GF101991011011012501001001MA1999999098181MD1610011+9999REMSYN076AAXX  29091 11841 42680 10503 10233 20082 39818 40174 56001 81100 333 81840;
0189118410999992000042912004+49230+018620FM-12+031599999V0201601N003012200019N0300001N1+02641+00651101581ADDAA199000091GA1041+018009029GF104991041021017501001001MA1999999098071MD1810111+9999REMSYN076AAXX  29121 11841 32780 41603 10264 20065 39807 40158 58011 84200 333 84856;EQDQ01  00002PRCP99
0193118410999992000042915004+49230+018620FM-12+031599999V0202301N00201015001CN0300001N1+02391+00881101601ADDAY191031AY211031GA1011+015009099GF105991051091017501001031MA1999999098061MD1510011+9999MW1171REMSYN088AAXX  29151 11841 41780 52302 10239 20088 39806 40160 55001 71791 85903 333 81950 83856;
0242118410999992000042918004+49230+018620FM-12+031599999V0209999C000010900019N0250001N1+01981+01281101701ADDAA199000091AY191061AY211061GA1011+018009089GF105991041081017501001021KA1120M+02711MA1999999098111MD1310051+9999MW1031REMSYN094AAXX  29181 11841 31775 50000 10198 20128 39811 40170 53005 70391 84802 333 10271 81856 83656;EQDQ01  00002PRCP99
0187118410999992000042921004+49230+018620FM-12+031599999V0200901N001012200019N0150001N1+01411+01201101981ADDAY191031AY281031GA1021+012909099GF103991021091012501001011MA1999999098311MD1210201+9999MW1171REMSYN082AAXX  29211 11841 41665 30901 10141 20120 39831 40198 52020 71798 82901 333 82943;
0198118410999992000043000004+49230+018620FM-12+031599999V0201001N001012200019N0100001N1+01041+00951102121ADDAA106000191AY191061AY281061GA1001+999999999GF100991001001999999001001MA1999999098391MD1110081+9999MW1021REMSYN082AAXX  30001 11841 11960 01001 10104 20095 39839 40212 51008 69921 70298 333 55126;
0178118410999992000043003004+49230+018620FM-12+031599999V0200901N001012200019N0150001N1+00861+00781102141ADDGA1041+018009059GF104991041051017501999001MA1999999098391MD1510001+9999REMSYN076AAXX  30031 11841 42765 40901 10086 20078 39839 40214 55000 84500 333 84656;EQDQ01+000002SCOMCG
0219118410999992000043006004+49230+018620FM-12+031599999V0200801N002012200019N0200001N1+01381+00941102081ADDAA112000191GA1011+010809029GF101991011011012501001001IA1099IA2999+00609KA1120N+00861MA1999999098401MD1010011+9999REMSYN094AAXX  30061 11841 12670 10802 10138 20094 39840 40208 50001 69922 81100 333 20086 31006 81836;
0159118410999992000043009004+49230+018620FM-12+031599999V0209999C000012200019N0200001N1+02301+00871101941ADDGA1011+015009029GF102991011021017501001041MA1999999098371MD1810031+9999REMSYN076AAXX  30091 11841 42770 20000 10230 20087 39837 40194 58003 81204 333 81850;
0189118410999992000043012004+49230+018620FM-12+031599999V0201201N002012200019N0250001N1+02591+00661101751ADDAA199000091GA1021+015009029GF103991021021017501001041MA1999999098221MD1710151+9999REMSYN076AAXX  30121 11841 32775 31202 10259 20066 39822 40175 57015 82204 333 82850;EQDQ01  00002PRCP99
0165118410999992000043015004+49230+018620FM-12+031599999V0202801N00301036001CN0250001N1+02251+01031101721ADDGA1021+018009089GF107991021021022501061061MA1999999098161MD1610061+9999REMSYN082AAXX  30151 11841 42875 72803 10225 20103 39816 40172 56006 82266 333 82856 87275;
0214118410999992000043018004+49230+018620FM-12+031599999V0201501N001019999999N0250001N1+01861+01191101811ADDAA199000091GA1031+042009039GF106991031001999999061081KA1120M+02691MA1999999098201MD1310041+9999REMSYN088AAXX  30181 11841 32975 61501 10186 20119 39820 40181 53004 83068 333 10269 83364 85273;EQDQ01  00002PRCP99
0143118410999992000043021004+49230+018620FM-12+031599999V0200801N001012200019N0250001N1+01351+01051101911ADDGA1001+999999999GF100991001001999999001001MA1999999098231MD1010031+9999REMSYN060AAXX  30211 11841 42975 00801 10135 20105 39823 40191 50003;
0219118410999992000050100004+49230+018620FM-12+031599999V0209999C000012200019N0250001N1+01121+00931101881ADDAA199000091GA1011+024009079GF101991011999999999031001GJ104149MA1999999098171MD1810061+9999REMSYN082AAXX  01001 11841 32975 10000 10112 20093 39817 40188 58006 81030 333 55069 81358;EQDQ01  00002PRCP99Q02    003SCOLCG
0178118410999992000050103004+49230+018620FM-12+031599999V0201101N002010690019N0200001N1+00981+00871101831ADDGA1061+069009089GF106991999001999999001061MA1999999098111MD1710061+9999REMSYN076AAXX  01031 11841 42970 61102 10098 20087 39811 40183 57006 80006 333 86273;EQDQ01+000002SCOTLC
0238118410999992000050106004+49230+018620FM-12+031599999V0200601N00301220001CN0250001N1+01361+01021101761ADDAA199000091GA1011+012309089GF105991011021012501001081IA1099IA2999+00809KA1120N+00951MA1999999098091MD1610021+9999REMSYN094AAXX  01061 11841 32675 50603 10136 20102 39809 40176 56002 81208 333 20095 31008 81841 85273;EQDQ01  00002PRCP99
0159118410999992000050109004+49230+018620FM-12+031599999V0201001N001012200019N0300001N1+02301+01111101521ADDGA1011+012009029GF102991011021012501001011MA1999999097971MD1710121+9999REMSYN076AAXX  01091 11841 42680 21001 10230 20111 39797 40152 57012 81201 333 81840;
0189118410999992000050112004+49230+018620FM-12+031599999V0203201N003010150019N0300001N1+02481+00661101311ADDAA199000091GA1051+015009029GF105991051021017501001001MA1999999097791MD1710181+9999REMSYN076AAXX  01121 11841 32780 53203 10248 20066 39779 40131 57018 85200 333 85850;EQDQ01  00002PRCP99
0193118410999992000050115004+49230+018620FM-12+031599999V0200101N00101036001CN0300001N1+01631+01281101581ADDAY191031AY281031GA1031+015009089GF107991031021017501071001MA1999999097951MD1110161+9999MW1031REMSYN088AAXX  01151 11841 41780 70101 10163 20128 39795 40158 51016 70398 83270 333 83850 85360;
0242118410999992000050118004+49230+018620FM-12+031599999V0209999C000012200019N0300001N1+01451+01301101581ADDAA112000591AY191061AY281061GA1041+015009059GF105991041051017501999011KA1120M+02691MA1999999097931MD1510021+9999MW1021REMSYN094AAXX  01181 11841 11780 50000 10145 20130 39793 40158 55002 69962 70298 84501 333 10269 84650;EQDQ01    003SCOMCG
0178118410999992000050121004+49230+018620FM-12+031599999V0200901N002012200019N0150001N1+01241+01131101671ADDGA1021+018009059GF102991021051017501999001MA1999999097991MD1110061+9999REMSYN076AAXX  01211 11841 42765 20902 10124 20113 39799 40167 51006 82500 333 82656;EQDQ01+000002SCOMCG
0183118410999992000050200004+49230+018620FM-12+031599999V0200401N001012200019N0120001N1+00991+00881101671ADDAA199000091GA1001+999999999GF100991001001999999001001MA1999999097951MD1810041+9999REMSYN070AAXX  02001 11841 32962 00401 10099 20088 39795 40167 58004 333 55054;EQDQ01  00002PRCP99
0159118410999992000050203004+49230+018620FM-12+031599999V0200801N001012200019N0100001N1+00911+00851101681ADDGA1011+069009019GF101991001001999999001011MA1999999097951MD1510001+9999REMSYN076AAXX  02031 11841 42960 10801 10091 20085 39795 40168 55000 80001 333 81073;
0238118410999992000050206004+49230+018620FM-12+031599999V0200601N004012200019N0200001N1+01611+01021101651ADDAA199000091GA1021+060009019GF102991001001999999001011IA1099IA2999+00609KA1120N+00861MA1999999098011MD1310061+9999REMSYN094AAXX  02061 11841 32970 20604 10161 20102 39801 40165 53006 80001 333 20086 31006 50102 82070;EQDQ01  00002PRCP99
0159118410999992000050209004+49230+018620FM-12+031599999V0200701N006012200019N0300001N1+01961+00251101691ADDGA1011+009009029GF101991011011008001001001MA1999999098091MD1110081+9999REMSYN076AAXX  02091 11841 42580 10706 10196 20025 39809 40169 51008 81100 333 81830;
0189118410999992000050212004+49230+018620FM-12+031599999V0200501N008012200019N0300001N1+02041-00471101721ADDAA199000091GA1011+060009019GF101991001001999999001011MA1999999098121MD1110031+9999REMSYN076AAXX  02121 11841 32980 10508 10204 21047 39812 40172 51003 80001 333 81070;EQDQ01  00002PRCP99
0143118410999992000050215004+49230+018620FM-12+031599999V0200201N007012200019N0300001N1+01941-00281101701ADDGA1001+999999999GF100991001001999999001001MA1999999098091MD1610031+9999REMSYN060AAXX  02151 11841 42980 00207 10194 21028 39809 40170 56003;
0196118410999992000050218004+49230+018620FM-12+031599999V0200601N005012200019N0300001N1+01391-00091101921ADDAA199000091GA1001+999999999GF100991001001999999001001KA1999M+02111MA1999999098241MD1310151+9999REMSYN070AAXX  02181 11841 32980 00605 10139 21009 39824 40192 53015 333 10211;EQDQ01  00002PRCP99
0143118410999992000050221004+49230+018620FM-12+031599999V0200601N005012200019N0300001N1+01071-00231102111ADDGA1001+999999999GF100991001001999999001001MA1999999098381MD1110141+9999REMSYN060AAXX  02211 11841 42980 00605 10107 21023 39838 40211 51014;
0183118410999992000050300004+49230+018620FM-12+031599999V0201401N001012200019N0300001N1+00501-00171102281ADDAA199000091GA1001+999999999GF100991001001999999001001MA1999999098471MD1110091+9999REMSYN070AAXX  03001 11841 32980 01401 10050 21017 39847 40228 51009 333 55130;EQDQ01  00002PRCP99
0143118410999992000050303004+49230+018620FM-12+031599999V0200701N001012200019N0300001N1+00261-00231102301ADDGA1001+999999999GF100991001001999999001001MA1999999098451MD1510021+9999REMSYN060AAXX  03031 11841 42980 00701 10026 21023 39845 40230 55002;
0226118410999992000050306004+49230+018620FM-12+031599999V0200601N002012200019N0300001N1+00781-00141102261ADDAA199000091GA1001+999999999GF100991001001999999001001IA1019IA2999-00109KA1120N+00161MA1999999098491MD1110041+9999REMSYN082AAXX  03061 11841 32980 00602 10078 21014 39849 40226 51004 333 20016 30101 50632;EQDQ01  00002PRCP99
0159118410999992000050309004+49230+018620FM-12+031599999V0202501N004012200019N0300001N1+01541-00081102131ADDGA1011+060009019GF101991001001999999001011MA1999999098461MD1810031+9999REMSYN076AAXX  03091 11841 42980 12504 10154 21008 39846 40213 58003 80001 333 81070;
0189118410999992000050312004+49230+018620FM-12+031599999V0203001N002012200019N0250001N1+01931+00041101921ADDAA199000091GA1031+060009019GF103991001001999999001011MA1999999098301MD1710161+9999REMSYN076AAXX  03121 11841 32975 33002 10193 20004 39830 40192 57016 80001 333 83070;EQDQ01  00002PRCP99
0159118410999992000050315004+49230+018620FM-12+031599999V0202501N004012200019N0250001N1+02081+00171101791ADDGA1011+060009019GF101991001001999999001011MA1999999098201MD1610101+9999REMSYN076AAXX  03151 11841 42975 12504 10208 20017 39820 40179 56010 80001 333 81070;
0208118410999992000050318004+49230+018620FM-12+031599999V0202801N002012200019N0250001N1+01471+00441101911ADDAA199000091GA1021+060009019GF102991001001999999001011KA1120M+02131MA1999999098241MD1310041+9999REMSYN082AAXX  03181 11841 32975 22802 10147 20044 39824 40191 53004 80001 333 10213 82070;EQDQ01  00002PRCP99
0143118410999992000050321004+49230+018620FM-12+031599999V0209999C000012200019N0200001N1+00851+00381102161ADDGA1001+999999999GF100991001001999999001001MA1999999098401MD1110161+9999REMSYN060AAXX  03211 11841 42970 00000 10085 20038 39840 40216 51016;
0183118410999992000050400004+49230+018620FM-12+031599999V0209999C000012200019N0200001N1+00561+00331102201ADDAA199000091GA1001+999999999GF100991001001999999001001MA1999999098401MD1010001+9999REMSYN070AAXX  04001 11841 32970 00000 10056 20033 39840 40220 50000 333 55140;EQDQ01  00002PRCP99
0143118410999992000050403004+49230+018620FM-12+031599999V0200901N001012200019N0200001N1+00421+00291102231ADDGA1001+999999999GF100991001001999999001001MA1999999098411MD1010011+9999REMSYN060AAXX  04031 11841 42970 00901 10042 20029 39841 40223 50001;
0226118410999992000050406004+49230+018620FM-12+031599999V0200701N001012200019N0250001N1+00991+00511102151ADDAA199000091GA1001+999999999GF100991001001999999001001IA1019IA2999+00109KA1120N+00361MA1999999098411MD1510001+9999REMSYN082AAXX  04061 11841 32975 00701 10099 20051 39841 40215 55000 333 20036 30001 50402;EQDQ01  00002PRCP99
0159118410999992000050409004+49230+018620FM-12+031599999V0202601N004012200019N0250001N1+01791+00711101991ADDGA1021+012909029GF102991021011012501001001MA1999999098361MD1610051+9999REMSYN076AAXX  04091 11841 42675 22604 10179 20071 39836 40199 56005 82100 333 82843;
0189118410999992000050412004+49230+018620FM-12+031599999V0202401N003012200019N0250001N1+02051+00651101831ADDAA199000091GA1031+015009029GF103991031021017501001011MA1999999098241MD1710121+9999REMSYN076AAXX  04121 11841 32775 32403 10205 20065 39824 40183 57012 83201 333 83850;EQDQ01  00002PRCP99
0165118410999992000050415004+49230+018620FM-12+031599999V0202601N003012200019N0250001N1+02141+00531101691ADDGA1011+018009089GF103991011021017501001011MA1999999098111MD1710131+9999REMSYN082AAXX  04151 11841 42775 32603 10214 20053 39811 40169 57013 81201 333 81856 83073;
0214118410999992000050418004+49230+018620FM-12+031599999V0202201N002012200019N0250001N1+01651+00641101771ADDAA199000091GA1011+036009039GF104991011001999999041011KA1120M+02141MA1999999098131MD1310021+9999REMSYN088AAXX  04181 11841 32975 42202 10165 20064 39813 40177 53002 81041 333 10214 81362 84073;EQDQ01  00002PRCP99
0159118410999992000050421004+49230+018620FM-12+031599999V0209999C000012200019N0200001N1+00991+00621101981ADDGA1021+066009019GF102991001001999999001011MA1999999098251MD1210121+9999REMSYN076AAXX  04211 11841 42970 20000 10099 20062 39825 40198 52012 80001 333 82072;
0203118410999992000050500004+49230+018620FM-12+031599999V0209999C000012200019N0200001N1+00731+00561102041ADDAA199000091GA1011+060009019GF101991001001999999001011GJ106909MA1999999098271MD1110021+9999REMSYN082AAXX  05001 11841 32970 10000 10073 20056 39827 40204 51002 80001 333 55115 81070;EQDQ01  00002PRCP99
0238118410999992000050506004+49230+018620FM-12+031599999V0200801N001012200019N0200001N1+01141+00731101961ADDAA199000091GA1011+069009019GF101991001001999999001011IA1019IA2999+00309KA1120N+00571MA1999999098251MD1810021+9999REMSYN094AAXX  05061 11841 32970 10801 10114 20073 39825 40196 58002 80001 333 20057 30003 50292 81073;EQDQ01  00002PRCP99
0159118410999992000050509004+49230+018620FM-12+031599999V0202601N001012200019N0300001N1+01981+00511101781ADDGA1011+012009029GF101991011021012501001001MA1999999098181MD1810071+9999REMSYN076AAXX  05091 11841 42680 12601 10198 20051 39818 40178 58007 81200 333 81840;
0189118410999992000050512004+49230+018620FM-12+031599999V0202401N002012200019N0300001N1+02281+00661101631ADDAA199000091GA1021+015009029GF102991021021017501001001MA1999999098071MD1710111+9999REMSYN076AAXX  05121 11841 32780 22402 10228 20066 39807 40163 57011 82200 333 82850;EQDQ01  00002PRCP99
0159118410999992000050515004+49230+018620FM-12+031599999V0203001N003012200019N0300001N1+02271+00651101501ADDGA1031+018009029GF104991031021017501061001MA1999999097951MD1610121+9999REMSYN076AAXX  05151 11841 42780 43003 10227 20065 39795 40150 56012 83260 333 83856;
0208118410999992000050518004+49230+018620FM-12+031599999V0202501N001012200019N0250001N1+01751+00921101611ADDAA199000091GA1031+018009029GF103991031021017501001001KA1120M+02441MA1999999097991MD1310041+9999REMSYN082AAXX  05181 11841 32775 32501 10175 20092 39799 40161 53004 83200 333 10244 83856;EQDQ01  00002PRCP99
0178118410999992000050521004+49230+018620FM-12+031599999V0209999C000012200019N0200001N1+01201+00851101801ADDGA1011+018009059GF101991011051017501999001MA1999999098111MD1210121+9999REMSYN076AAXX  05211 11841 42770 10000 10120 20085 39811 40180 52012 81500 333 81656;EQDQ01+000002SCOMCG
0183118410999992000050600004+49230+018620FM-12+031599999V0209999C000012200019N0200001N1+00851+00701101921ADDAA199000091GA1001+999999999GF100991001001999999001001MA1999999098171MD1210061+9999REMSYN070AAXX  06001 11841 32970 00000 10085 20070 39817 40192 52006 333 55117;EQDQ01  00002PRCP99
0159118410999992000050603004+49230+018620FM-12+031599999V0209999C000012200019N0120001N1+00691+00601101951ADDGA1011+069009019GF101991001001999999001011MA1999999098181MD1310011+9999REMSYN076AAXX  06031 11841 42962 10000 10069 20060 39818 40195 53001 80001 333 81073;
0238118410999992000050606004+49230+018620FM-12+031599999V0200701N002012200019N0200001N1+01221+00811101901ADDAA199000091GA1011+069009019GF101991001001999999001011IA1019IA2999+00409KA1120N+00661MA1999999098201MD1010021+9999REMSYN094AAXX  06061 11841 32970 10702 10122 20081 39820 40190 50002 80001 333 20066 30004 50252 81073;EQDQ01  00002PRCP99
0159118410999992000050609004+49230+018620FM-12+031599999V0202801N001012200019N0300001N1+02111+00701101691ADDGA1011+011409029GF102991011021012501001011MA1999999098111MD1810091+9999REMSYN076AAXX  06091 11841 42680 22801 10211 20070 39811 40169 58009 81201 333 81838;
0131118410999992000050612004+49230+018620FM-12+031599999V0202501N002019999999N9999999N1+02571+00471101501ADDAA199000091MA1999999097981MD1710141+9999REMSYN060AAXX  06121 11841 36/// /2502 10257 20047 39798 40150 57014;EQDQ01  00002PRCP99
0159118410999992000050615004+49230+018620FM-12+031599999V0202601N003012200019N0300001N1+02531+00701101411ADDGA1031+018009029GF103991031021017501061001MA1999999097891MD1710091+9999REMSYN076AAXX  06151 11841 42780 32603 10253 20070 39789 40141 57009 83260 333 83856;
0229118410999992000050618004+49230+018620FM-12+031599999V0201401N00201015001CN0300001N1+02021+00791101521ADDAA112000791AY181061AY221061GA1021+018009069GF105991051041017501061001KA1120M+02621MA1999999097941MD1310051+9999MW1251REMSYN100AAXX  06181 11841 11780 51402 10202 20079 39794 40152 53005 69902 72582 85460 333 10262 82656 83357;
0143118410999992000050621004+49230+018620FM-12+031599999V0209999C000012200019N0200001N1+01361+00931101751ADDGA1001+999999999GF100991001001999999001001MA1999999098081MD1210141+9999REMSYN060AAXX  06211 11841 42970 00000 10136 20093 39808 40175 52014;
0164118410999992000050700004+49230+018620FM-12+031599999V0201101N001012200019N0100001N1+00991+00801101921ADDAA199000021GA1001+999999999GF100991001001999999001001MA1999999098191MD1110111+9999REMSYN070AAXX  07001 11841 32960 01101 10099 20080 39819 40192 51011 333 55125;
0159118410999992000050703004+49230+018620FM-12+031599999V0200701N001012200019N0120001N1+00811+00691101981ADDGA1011+069009019GF101991001001999999001011MA1999999098231MD1110041+9999REMSYN076AAXX  07031 11841 42962 10701 10081 20069 39823 40198 51004 80001 333 81073;
0219118410999992000050706004+49230+018620FM-12+031599999V0200701N003012200019N0150001N1+01271+00841101991ADDAA199000021GA1011+060009019GF101991001001999999001021IA1019IA2999+00509KA1120N+00811MA1999999098301MD1310071+9999REMSYN094AAXX  07061 11841 32965 10703 10127 20084 39830 40199 53007 80002 333 20081 30005 50342 81070;
0159118410999992000050709004+49230+018620FM-12+031599999V0200601N001012200019N0200001N1+02301+00721101811ADDGA1021+009009029GF102991021021008001001001MA1999999098251MD1610051+9999REMSYN076AAXX  07091 11841 42570 20601 10230 20072 39825 40181 56005 82200 333 82830;
0189118410999992000050712004+49230+018620FM-12+031599999V0201601N001012200019N0200001N1+02461+00681101711ADDAA199000091GA1031+018009029GF103991031021017501061001MA1999999098171MD1610081+9999REMSYN076AAXX  07121 11841 32770 31601 10246 20068 39817 40171 56008 83260 333 83856;EQDQ01  00002PRCP99
0159118410999992000050715004+49230+018620FM-12+031599999V0202501N002012200019N0200001N1+02621+00581101621ADDGA1021+018009029GF102991021021022501001001MA1999999098101MD1610071+9999REMSYN076AAXX  07151 11841 42870 22502 10262 20058 39810 40162 56007 82200 333 82856;
0224118410999992000050718004+49230+018620FM-12+031599999V0202901N001012200019N0200001N1+02041+00901101731ADDAA199000091GA1011+018009059GF101991011041022501999001KA1120M+02721MA1999999098141MD1310041+9999REMSYN082AAXX  07181 11841 32870 12901 10204 20090 39814 40173 53004 81400 333 10272 81656;EQDQ01+000002SCOMCGQ02  00002PRCP99
0143118410999992000050721004+49230+018620FM-12+031599999V0201101N001012200019N0150001N1+01271+00801101991ADDGA1001+999999999GF100991001001999999001001MA1999999098301MD1110161+9999REMSYN060AAXX  07211 11841 42965 01101 10127 20080 39830 40199 51016;
0183118410999992000050800004+49230+018620FM-12+031599999V0200601N001012200019N0150001N1+00991+00751102061ADDAA199000091GA1001+999999999GF100991001001999999001001MA1999999098331MD1110031+9999REMSYN070AAXX  08001 11841 32965 00601 10099 20075 39833 40206 51003 333 55121;EQDQ01  00002PRCP99
0143118410999992000050803004+49230+018620FM-12+031599999V0201001N001012200019N0150001N1+00921+00731102071ADDGA1001+999999999GF100991001001999999001001MA1999999098331MD1510001+9999REMSYN060AAXX  08031 11841 42965 01001 10092 20073 39833 40207 55000;
0244118410999992000050806004+49230+018620FM-12+031599999V0201101N001012200019N0250001N1+01441+00861101981ADDAA199000091GA1011+011409089GF104991011011012501031021IA1019IA2999+00609KA1120N+00891MA1999999098311MD1610021+9999REMSYN100AAXX  08061 11841 32675 41101 10144 20086 39831 40198 56002 81132 333 20089 30006 50312 81838 83072;EQDQ01  00002PRCP99
0165118410999992000050809004+49230+018620FM-12+031599999V0203101N00101090001CN0300001N1+02361+00891101811ADDGA1011+013809089GF105991011011012501031021MA1999999098261MD1610051+9999REMSYN082AAXX  08091 11841 42680 53101 10236 20089 39826 40181 56005 81132 333 81846 84357;
0210118410999992000050812004+49230+018620FM-12+031599999V0202601N00201036001CN0300001N1+02481+01341101711ADDAA106000791AY111061AY211061GA1041+018009089GF106991041021017501031001MA1999999098181MD1810081+9999MW1251REMSYN094AAXX  08121 11841 11780 62602 10248 20134 39818 40171 58008 69901 72511 84230 333 84856 83360;
0193118410999992000050815004+49230+018620FM-12+031599999V0202601N001010360019N0250001N1+01771+01361101881ADDAY191031AY281031GA1041+018009069GF107991041051017501071001MA1999999098261MD1310081+9999MW1291REMSYN088AAXX  08151 11841 41775 72601 10177 20136 39826 40188 53008 72998 84570 333 84656 84362;
0223118410999992000050818004+49230+018620FM-12+031599999V0209999C00001036001CN0200001N1+01711+01491101841ADDAA112000891AY191061AY281061GA1031+015009059GF105991031051017501031021KA1120M+02631MA1999999098221MD1510041+9999MW1011REMSYN094AAXX  08181 11841 11770 50000 10171 20149 39822 40184 55004 69972 70198 83532 333 10263 83650;
0187118410999992000050821004+49230+018620FM-12+031599999V0201801N001010360019N0100001N1+01351+01241101931ADDAY191031AY221031GA1041+012309059GF105991041051012501031021MA1999999098251MD1110031+9999MW1011REMSYN082AAXX  08211 11841 41660 51801 10135 20124 39825 40193 51003 70192 84532 333 84641;
0128118410999992000050900004+49230+018620FM-12+031599999V0201201N001019999999N9999999N1+01131+01081101931ADDAA106002091MA1999999098231MD1710011+9999REMSYN076AAXX  09001 11841 16/// /1201 10113 20108 39823 40193 57001 60021 333 55062;
0181118410999992000050903004+49230+018620FM-12+031599999V0200801N001010006019N0002001N1+01091+01061101981ADDAY101031AY201031GA1091+000609999GF109991091999999999999999MA1999999098271MD1210041+9999MW1471REMSYN076AAXX  09031 11841 41/02 90801 10109 20106 39827 40198 52004 74700 333 89/02;
0259118410999992000050906004+49230+018620FM-12+031599999V0200801N00201004201CN0080001N1+01371+01181101971ADDAA112002091AY141061AY211061GA1011+003009079GF106991061051004501001001IA1099IA2999+00909KA1120N+01041MA1999999098291MD1210021+9999MW1101REMSYN112AAXX  09061 11841 11458 60802 10137 20118 39829 40197 52002 60022 71041 86500 333 20104 31009 50242 81710 86656;
0159118410999992000050909004+49230+018620FM-12+031599999V0203301N001010123019N0200001N1+02061+01311101841ADDGA1051+012309029GF106991061081012501001001MA1999999098261MD1710031+9999REMSYN076AAXX  09091 11841 42670 63301 10206 20131 39826 40184 57003 86800 333 85841;
0204118410999992000050912004+49230+018620FM-12+031599999V0202501N002010144019N0200001N1+02111+01381101831ADDAA106000791AY121061AY221061GA1051+014409029GF107991071081012501001001MA1999999098251MD1810011+9999MW1251REMSYN088AAXX  09121 11841 11670 72502 10211 20138 39825 40183 58001 69901 72522 87800 333 85848;
0187118410999992000050915004+49230+018620FM-12+031599999V0202301N003010360019N0300001N1+02241+01271101691ADDAY181031AY221031GA1041+014709029GF105991041021012501061001MA1999999098131MD1610121+9999MW1021REMSYN082AAXX  09151 11841 41680 52303 10224 20127 39813 40169 56012 70282 84260 333 84849;
0223118410999992000050918004+49230+018620FM-12+031599999V0201001N002012200019N0200001N1+01741+01541101781ADDAA112001091AY181061AY211061GA1011+015009029GF103991011021017501061011KA1120M+02391MA1999999098161MD1210031+9999MW1021REMSYN094AAXX  09181 11841 11770 31002 10174 20154 39816 40178 52003 69992 70281 81261 333 10239 81850;
0143118410999992000050921004+49230+018620FM-12+031599999V0201301N001012200019N0100001N1+01351+01241101901ADDGA1001+999999999GF100991001001999999001001MA1999999098231MD1010071+9999REMSYN060AAXX  09211 11841 42960 01301 10135 20124 39823 40190 50007;
0206118410999992000051000004+49230+018620FM-12+031599999V0201101N001010009019N0007001N1+01181+01131101891ADDAA199000021AY111061AY211061GA1091+000909999GF109991091999999999999999GJ102589MA1999999098191MD1810041+9999MW1471REMSYN082AAXX  10001 11841 31/07 91101 10118 20113 39819 40189 58004 74711 333 55043 89/03;
0181118410999992000051003004+49230+018620FM-12+031599999V0200801N001010009019N0004001N1+01151+01121101861ADDAY141031AY241031GA1091+000909999GF109991091999999999999999MA1999999098161MD1710031+9999MW1471REMSYN076AAXX  10031 11841 41/04 90801 10115 20112 39816 40186 57003 74744 333 89/03;
0266118410999992000051006004+49230+018620FM-12+031599999V0201101N001010012019N0010001N1+01281+01251101821ADDAA199000091AY141061AY241061GA1061+001209069GF106991061061001501001001IA1099IA2999+01009KA1120N+01121MA1999999098141MD1510021+9999MW1281REMSYN100AAXX  10061 11841 31210 61101 10128 20125 39814 40182 55002 72844 86600 333 20112 31010 50132 86704;EQDQ01  00002PRCP99
0159118410999992000051009004+49230+018620FM-12+031599999V0202401N003012200019N0150001N1+02241+01351101621ADDGA1021+012009029GF102991021021012501001001MA1999999098071MD1810071+9999REMSYN076AAXX  10091 11841 42665 22403 10224 20135 39807 40162 58007 82200 333 82840;
0189118410999992000051012004+49230+018620FM-12+031599999V0202401N004012200019N0200001N1+02491+01321101451ADDAA199000091GA1021+012909029GF102991021021012501001001MA1999999097931MD1710141+9999REMSYN076AAXX  10121 11841 32670 22404 10249 20132 39793 40145 57014 82200 333 82843;EQDQ01  00002PRCP99
0165118410999992000051015004+49230+018620FM-12+031599999V0202301N005012200019N0200001N1+02551+01271101301ADDGA1011+012009099GF103991031091012501001001MA1999999097791MD1610141+9999REMSYN082AAXX  10151 11841 42670 32305 10255 20127 39779 40130 56014 83900 333 81940 82843;
0229118410999992000051018004+49230+018620FM-12+031599999V0200601N004010138019N0080001N1+01891+01421101491ADDAA112002091AY111061AY211061GA1051+013809099GF107991071091012501001021KA1120M+02621MA1999999097901MD1310111+9999MW1801REMSYN100AAXX  10181 11841 11658 70604 10189 20142 39790 40149 53011 60022 78011 87902 333 10262 85946 82850;
0171118410999992000051021004+49230+018620FM-12+031599999V0201001N001012200019N0100001N1+01451+01341101641ADDAY181031AY211031GA1001+999999999GF100991001001999999001001MA1999999097991MD1110091+9999MW1021REMSYN066AAXX  10211 11841 41960 01001 10145 20134 39799 40164 51009 70281;
0218118410999992000051100004+49230+018620FM-12+031599999V0201101N002012200019N0060001N1+01271+01211101681ADDAA106000791AY181061AY211061GA1011+001509069GF101991011061001501001001GJ106429MA1999999098001MD1010011+9999MW1101REMSYN094AAXX  11001 11841 11256 11102 10127 20121 39800 40168 50001 69901 71081 81600 333 55107 81705;
0187118410999992000051103004+49230+018620FM-12+031599999V0200701N003010009019N0018001N1+01301+01221101631ADDAY111031AY211031GA1081+000909069GF108991081061000751999999MA1999999097961MD1710041+9999MW1101REMSYN082AAXX  11031 11841 41118 80703 10130 20122 39796 40163 57004 71011 886// 333 88703;
0259118410999992000051106004+49230+018620FM-12+031599999V0200801N00201001201CN0050001N1+01421+01281101671ADDAA112000791AY111061AY211061GA1031+001509079GF107991071061001501001001IA1099IA2999+01009KA1120N+01251MA1999999098011MD1010051+9999MW1101REMSYN112AAXX  11061 11841 11250 70802 10142 20128 39801 40167 50005 69902 71011 87600 333 20125 31010 50332 83705 84712;
0159118410999992000051109004+49230+018620FM-12+031599999V0200801N002012200019N0300001N1+02341+01151101471ADDGA1011+009009029GF101991011011008001001001MA1999999097931MD1710081+9999REMSYN076AAXX  11091 11841 42580 10802 10234 20115 39793 40147 57008 81100 333 81830;
0131118410999992000051112004+49230+018620FM-12+031599999V0200901N003019999999N9999999N1+02651+00871101291ADDAA199000091MA1999999097791MD1710151+9999REMSYN060AAXX  11121 11841 36/// /0903 10265 20087 39779 40129 57015;EQDQ01  00002PRCP99
0159118410999992000051115004+49230+018620FM-12+031599999V0203601N003012200019N0300001N1+02531+00961101191ADDGA1021+018009029GF102991021021022501001001MA1999999097681MD1610111+9999REMSYN076AAXX  11151 11841 42880 23603 10253 20096 39768 40119 56011 82200 333 82856;
0208118410999992000051118004+49230+018620FM-12+031599999V0201201N001012200019N0300001N1+02071+00871101311ADDAA199000091GA1011+033009079GF101991011001999999041011KA1120M+02791MA1999999097741MD1310061+9999REMSYN082AAXX  11181 11841 32980 11201 10207 20087 39774 40131 53006 81041 333 10279 81361;EQDQ01  00002PRCP99
0143118410999992000051121004+49230+018620FM-12+031599999V0201201N001012200019N0150001N1+01361+00871101541ADDGA1001+999999999GF100991001001999999001001MA1999999097871MD1110131+9999REMSYN060AAXX  11211 11841 42965 01201 10136 20087 39787 40154 51013;
0183118410999992000051200004+49230+018620FM-12+031599999V0201201N001012200019N0100001N1+01161+00971101601ADDAA199000091GA1001+999999999GF100991001001999999001001MA1999999097911MD1110041+9999REMSYN070AAXX  12001 11841 32960 01201 10116 20097 39791 40160 51004 333 55111;EQDQ01  00002PRCP99
0159118410999992000051203004+49230+018620FM-12+031599999V0201201N002012200019N0100001N1+01041+00931101661ADDGA1011+030009079GF101991011001999999031001MA1999999097951MD1210041+9999REMSYN076AAXX  12031 11841 42960 11202 10104 20093 39795 40166 52004 81030 333 81360;
0238118410999992000051206004+49230+018620FM-12+031599999V0200801N002012200019N0100001N1+01501+01101101641ADDAA199000091GA1031+036009079GF103991031001999999041001IA1019IA2999+00809KA1120N+00981MA1999999097991MD1210041+9999REMSYN094AAXX  12061 11841 32960 30802 10150 20110 39799 40164 52004 83040 333 20098 30008 50282 83362;EQDQ01  00002PRCP99
0159118410999992000051209004+49230+018620FM-12+031599999V0200201N006012200019N0120001N1+02131+01111101641ADDGA1011+012009029GF101991011021012501001001MA1999999098071MD1210081+9999REMSYN076AAXX  12091 11841 42662 10206 10213 20111 39807 40164 52008 81200 333 81840;
0195118410999992000051212004+49230+018620FM-12+031599999V0200301N005012200019N0150001N1+02251+00831101631ADDAA199000091GA1011+014409089GF101991011021012501001001MA1999999098071MD1010001+9999REMSYN082AAXX  12121 11841 32665 10305 10225 20083 39807 40163 50000 81200 333 81848 91011;EQDQ01  00002PRCP99
0159118410999992000051215004+49230+018620FM-12+031599999V0200201N004012200019N0150001N1+02021+00581101641ADDGA1011+060009019GF101991001001999999001011MA1999999098051MD1610021+9999REMSYN076AAXX  12151 11841 42965 10204 10202 20058 39805 40164 56002 80001 333 81070;
0208118410999992000051218004+49230+018620FM-12+031599999V0200601N005012200019N0250001N1+01511+00131101881ADDAA199000091GA1021+063009019GF102991001001999999001041KA1120M+02281MA1999999098221MD1310171+9999REMSYN082AAXX  12181 11841 32975 20605 10151 20013 39822 40188 53017 80004 333 10228 82071;EQDQ01  00002PRCP99
0143118410999992000051221004+49230+018620FM-12+031599999V0200301N005012200019N0300001N1+01201-00221102101ADDGA1001+999999999GF100991001001999999001001MA1999999098391MD1110171+9999REMSYN060AAXX  12211 11841 42980 00305 10120 21022 39839 40210 51017;
0183118410999992000051300004+49230+018620FM-12+031599999V0200301N002012200019N0300001N1+00671+00021102281ADDAA199000091GA1001+999999999GF100991001001999999001001MA1999999098491MD1210101+9999REMSYN070AAXX  13001 11841 32980 00302 10067 20002 39849 40228 52010 333 55123;EQDQ01  00002PRCP99
0101118410999992000051303004+49230+018620FM-12+031599999V0200501N004019999999N9999999N1+00531-00041102361ADDMA1999999098551MD1210061+9999REMSYN060AAXX  13031 11841 46/// /0504 10053 21004 39855 40236 52006;
0226118410999992000051306004+49230+018620FM-12+031599999V0200701N005012200019N0250001N1+01061-00051102381ADDAA199000091GA1001+999999999GF100991001001999999001001IA1019IA2999+00109KA1120N+00481MA1999999098641MD1110091+9999REMSYN082AAXX  13061 11841 32975 00705 10106 21005 39864 40238 51009 333 20048 30001 50482;EQDQ01  00002PRCP99
0143118410999992000051309004+49230+018620FM-12+031599999V0200601N004012200019N0300001N1+01641-00211102251ADDGA1001+999999999GF100991001001999999001001MA1999999098591MD1810051+9999REMSYN060AAXX  13091 11841 42980 00604 10164 21021 39859 40225 58005;
0173118410999992000051312004+49230+018620FM-12+031599999V0200401N003012200019N0300001N1+02061-00061102111ADDAA199000091GA1001+999999999GF100991001001999999001001MA1999999098501MD1710091+9999REMSYN060AAXX  13121 11841 32980 00403 10206 21006 39850 40211 57009;EQDQ01  00002PRCP99
0143118410999992000051315004+49230+018620FM-12+031599999V0200201N004012200019N0300001N1+02001+00101102091ADDGA1001+999999999GF100991001001999999001001MA1999999098481MD1510021+9999REMSYN060AAXX  13151 11841 42980 00204 10200 20010 39848 40209 55002;
0196118410999992000051318004+49230+018620FM-12+031599999V0200101N001012200019N0300001N1+01571-00051102231ADDAA199000091GA1001+999999999GF100991001001999999001001KA1999M+02141MA1999999098561MD1310081+9999REMSYN070AAXX  13181 11841 32980 00101 10157 21005 39856 40223 53008 333 10214;EQDQ01  00002PRCP99
0143118410999992000051321004+49230+018620FM-12+031599999V0209999C000012200019N0200001N1+00881+00081102501ADDGA1001+999999999GF100991001001999999001001MA1999999098731MD1110171+9999REMSYN060AAXX  13211 11841 42970 00000 10088 20008 39873 40250 51017;
0183118410999992000051400004+49230+018620FM-12+031599999V0200901N001012200019N0200001N1+00561+00061102591ADDAA199000091GA1001+999999999GF100991001001999999001001MA1999999098781MD1110051+9999REMSYN070AAXX  14001 11841 32970 00901 10056 20006 39878 40259 51005 333 55145;EQDQ01  00002PRCP99
0143118410999992000051403004+49230+018620FM-12+031599999V0201101N001012200019N0250001N1+00451+00061102601ADDGA1001+999999999GF100991001001999999001001MA1999999098771MD1610011+9999REMSYN060AAXX  14031 11841 42975 01101 10045 20006 39877 40260 56001;
0226118410999992000051406004+49230+018620FM-12+031599999V0201101N002012200019N0300001N1+01161+00241102521ADDAA199000091GA1001+999999999GF100991001001999999001001IA1019IA2999+00109KA1120N+00411MA1999999098791MD1010021+9999REMSYN082AAXX  14061 11841 32980 01102 10116 20024 39879 40252 50002 333 20041 30001 50462;EQDQ01  00002PRCP99
0159118410999992000051409004+49230+018620FM-12+031599999V0200801N004012200019N0350001N1+01961+00161102381ADDGA1011+060009019GF101991001001999999001011MA1999999098751MD1610041+9999REMSYN076AAXX  14091 11841 42981 10804 10196 20016 39875 40238 56004 80001 333 81070;
0189118410999992000051412004+49230+018620FM-12+031599999V0200301N002012200019N0350001N1+02291+00351102211ADDAA199000091GA1011+013809029GF101991011011012501001011MA1999999098631MD1710121+9999REMSYN076AAXX  14121 11841 32681 10302 10229 20035 39863 40221 57012 81101 333 81846;EQDQ01  00002PRCP99
0159118410999992000051415004+49230+018620FM-12+031599999V0203601N004012200019N0350001N1+02261+00421102121ADDGA1011+018009029GF102991011011017501001011MA1999999098541MD1610091+9999REMSYN076AAXX  14151 11841 42781 23604 10226 20042 39854 40212 56009 81101 333 81856;
0208118410999992000051418004+49230+018620FM-12+031599999V0200301N003012200019N0350001N1+01921+00461102211ADDAA199000091GA1031+060009019GF103991001001999999001021KA1120M+02731MA1999999098591MD1310051+9999REMSYN082AAXX  14181 11841 32981 30303 10192 20046 39859 40221 53005 80002 333 10273 83070;EQDQ01  00002PRCP99
0159118410999992000051421004+49230+018620FM-12+031599999V0201301N001012200019N0300001N1+01211+00601102431ADDGA1021+060009019GF102991001001999999001011MA1999999098711MD1210121+9999REMSYN076AAXX  14211 11841 42980 21301 10121 20060 39871 40243 52012 80001 333 82070;
0203118410999992000051500004+49230+018620FM-12+031599999V0201001N001010600019N0350001N1+00871+00561102501ADDAA199000091GA1051+060009019GF105991001001999999001011GJ108589MA1999999098731MD1010021+9999REMSYN082AAXX  15001 11841 32981 51001 10087 20056 39873 40250 50002 80001 333 55143 85070;EQDQ01  00002PRCP99
0143118410999992000051503004+49230+018620FM-12+031599999V0201101N002012200019N0350001N1+00781+00561102521ADDGA1001+999999999GF100991001001999999001001MA1999999098741MD1110011+9999REMSYN060AAXX  15031 11841 42981 01102 10078 20056 39874 40252 51001;
0238118410999992000051506004+49230+018620FM-12+031599999V0200801N003012200019N0300001N1+01361+00691102451ADDAA199000091GA1011+060009019GF101991001001999999001011IA1019IA2999+00409KA1120N+00721MA1999999098751MD1010011+9999REMSYN094AAXX  15061 11841 32980 10803 10136 20069 39875 40245 50001 80001 333 20072 30004 50432 81070;EQDQ01  00002PRCP99
0159118410999992000051509004+49230+018620FM-12+031599999V0203401N001012200019N0300001N1+02311+00411102261ADDGA1011+013809029GF101991011011012501001011MA1999999098681MD1810071+9999REMSYN076AAXX  15091 11841 42680 13401 10231 20041 39868 40226 58007 81101 333 81846;
0189118410999992000051512004+49230+018620FM-12+031599999V0201901N002012200019N0300001N1+02541+00011102091ADDAA199000091GA1011+021009029GF101991011021022501001001MA1999999098541MD1810141+9999REMSYN076AAXX  15121 11841 32880 11902 10254 20001 39854 40209 58014 81200 333 81857;EQDQ01  00002PRCP99
0159118410999992000051515004+49230+018620FM-12+031599999V0200901N001012200019N0300001N1+02691+00211101861ADDGA1011+021009029GF101991011011022501061001MA1999999098341MD1710201+9999REMSYN076AAXX  15151 11841 42880 10901 10269 20021 39834 40186 57020 81160 333 81857;
0208118410999992000051518004+49230+018620FM-12+031599999V0203101N001012200019N0300001N1+02141+00761101911ADDAA199000091GA1011+030009079GF101991011001999999061001KA1120M+02751MA1999999098331MD1510011+9999REMSYN082AAXX  15181 11841 32980 13101 10214 20076 39833 40191 55001 81060 333 10275 81360;EQDQ01  00002PRCP99
0143118410999992000051521004+49230+018620FM-12+031599999V0201301N001012200019N0300001N1+01321+00761102131ADDGA1001+999999999GF100991001001999999001001MA1999999098441MD1110111+9999REMSYN060AAXX  15211 11841 42980 01301 10132 20076 39844 40213 51011;
0141118410999992000051600004+49230+018620FM-12+031599999V0201101N001019999999N9999999N1+00981+00751102181ADDAA199000091MA1999999098451MD1210021+9999REMSYN070AAXX  16001 11841 36/// /1101 10098 20075 39845 40218 52002 333 55132;EQDQ01  00002PRCP99
0226118410999992000051606004+49230+018620FM-12+031599999V0200701N002012200019N0300001N1+01481+00871102081ADDAA199000091GA1001+999999999GF100991001001999999001001IA1019IA2999+00409KA1120N+00731MA1999999098411MD1810011+9999REMSYN082AAXX  16061 11841 32980 00702 10148 20087 39841 40208 58001 333 20073 30004 50392;EQDQ01  00002PRCP99
0159118410999992000051609004+49230+018620FM-12+031599999V0202701N003012200019N0300001N1+02411+00691101861ADDGA1011+013809029GF101991011021012501001001MA1999999098311MD1710101+9999REMSYN076AAXX  16091 11841 42680 12703 10241 20069 39831 40186 57010 81200 333 81846;
0189118410999992000051612004+49230+018620FM-12+031599999V0202801N004012200019N0300001N1+02671+00771101681ADDAA199000091GA1011+018009029GF101991011021017501001001MA1999999098171MD1710141+9999REMSYN076AAXX  16121 11841 32780 12804 10267 20077 39817 40168 57014 81200 333 81856;EQDQ01  00002PRCP99
0159118410999992000051615004+49230+018620FM-12+031599999V0202601N004012200019N0300001N1+02751+00521101531ADDGA1011+018009029GF101991011021017501001001MA1999999098031MD1610141+9999REMSYN076AAXX  16151 11841 42780 12604 10275 20052 39803 40153 56014 81200 333 81856;
0208118410999992000051618004+49230+018620FM-12+031599999V0202901N002012200019N0300001N1+02211+00751101581ADDAA199000091GA1011+018009029GF101991011021022501001001KA1120M+02791MA1999999098021MD1510011+9999REMSYN082AAXX  16181 11841 32880 12902 10221 20075 39802 40158 55001 81200 333 10279 81856;EQDQ01  00002PRCP99
0143118410999992000051621004+49230+018620FM-12+031599999V0209999C000012200019N0300001N1+01361+00721101781ADDGA1001+999999999GF100991001001999999001001MA1999999098111MD1210091+9999REMSYN060AAXX  16211 11841 42980 00000 10136 20072 39811 40178 52009;
0183118410999992000051700004+49230+018620FM-12+031599999V0202501N001012200019N0300001N1+00901+00661101861ADDAA199000091GA1001+999999999GF100991001001999999001001MA1999999098121MD1010011+9999REMSYN070AAXX  17001 11841 32980 02501 10090 20066 39812 40186 50001 333 55141;EQDQ01  00002PRCP99
0143118410999992000051703004+49230+018620FM-12+031599999V0201001N002012200019N0300001N1+00921+00721101801ADDGA1001+999999999GF100991001001999999001001MA1999999098071MD1710051+9999REMSYN060AAXX  17031 11841 42980 01002 10092 20072 39807 40180 57005;
0226118410999992000051706004+49230+018620FM-12+031599999V0200801N002012200019N0300001N1+01551+00871101671ADDAA199000091GA1001+999999999GF100991001001999999001001IA1019IA2999+00509KA1120N+00831MA1999999098021MD1810051+9999REMSYN082AAXX  17061 11841 32980 00802 10155 20087 39802 40167 58005 333 20083 30005 50412;EQDQ01  00002PRCP99
0159118410999992000051709004+49230+018620FM-12+031599999V0202601N003012200019N0350001N1+02501+00891101401ADDGA1011+036009079GF101991011001999999041001MA1999999097881MD1710141+9999REMSYN076AAXX  17091 11841 42981 12603 10250 20089 39788 40140 57014 81040 333 81362;
0189118410999992000051712004+49230+018620FM-12+031599999V0202601N006012200019N0350001N1+02771+00701101201ADDAA199000091GA1011+015009029GF101991011021017501001001MA1999999097711MD1810171+9999REMSYN076AAXX  17121 11841 32781 12606 10277 20070 39771 40120 58017 81200 333 81850;EQDQ01  00002PRCP99
0159118410999992000051715004+49230+018620FM-12+031599999V0202101N003012200019N0350001N1+02761+00701100961ADDGA1021+021009029GF102991021021022501001001MA1999999097481MD1710231+9999REMSYN076AAXX  17151 11841 42881 22103 10276 20070 39748 40096 57023 82200 333 82857;
0208118410999992000051718004+49230+018620FM-12+031599999V0202001N002012200019N0400001N1+02371+00821100961ADDAA199000091GA1011+036009079GF101991011001999999061001KA1120M+02881MA1999999097441MD1610041+9999REMSYN082AAXX  17181 11841 32982 12002 10237 20082 39744 40096 56004 81060 333 10288 81362;EQDQ01  00002PRCP99
0143118410999992000051721004+49230+018620FM-12+031599999V0209999C000012200019N0300001N1+01461+00831101151ADDGA1001+999999999GF100991001001999999001001MA1999999097511MD1310071+9999REMSYN060AAXX  17211 11841 42980 00000 10146 20083 39751 40115 53007;
0183118410999992000051800004+49230+018620FM-12+031599999V0209999C000012200019N0300001N1+01101+00791101121ADDAA199000091GA1001+999999999GF100991001001999999001001MA1999999097441MD1710071+9999REMSYN070AAXX  18001 11841 32980 00000 10110 20079 39744 40112 57007 333 55142;EQDQ01  00002PRCP99
0159118410999992000051803004+49230+018620FM-12+031599999V0201001N001012200019N0200001N1+00981+00811101071ADDGA1011+036009079GF101991011001999999041001MA1999999097371MD1610071+9999REMSYN076AAXX  18031 11841 42970 11001 10098 20081 39737 40107 56007 81040 333 81362;
0238118410999992000051806004+49230+018620FM-12+031599999V0202601N001012200019N0200001N1+01621+00961100941ADDAA199000091GA1011+030009079GF102991011001999999041021IA1019IA2999+00809KA1120N+00941MA1999999097331MD1610041+9999REMSYN094AAXX  18061 11841 32970 22601 10162 20096 39733 40094 56004 81042 333 20094 30008 50442 81360;EQDQ01  00002PRCP99
0159118410999992000051809004+49230+018620FM-12+031599999V0202801N001012200019N0250001N1+02511+00861100671ADDGA1011+012009029GF103991011021012501041001MA1999999097171MD1710161+9999REMSYN076AAXX  18091 11841 42675 32801 10251 20086 39717 40067 57016 81240 333 81840;
0189118410999992000051812004+49230+018620FM-12+031599999V0202601N004012200019N0250001N1+02581+00881100501ADDAA199000091GA1021+015009029GF104991021021017501041001MA1999999097021MD1710151+9999REMSYN076AAXX  18121 11841 32775 42604 10258 20088 39702 40050 57015 82240 333 82850;EQDQ01  00002PRCP99
0165118410999992000051815004+49230+018620FM-12+031599999V0202401N006012200019N0250001N1+02521+01071100371ADDGA1011+018009099GF104991021091017501001031MA1999999096891MD1610131+9999REMSYN082AAXX  18151 11841 42775 42406 10252 20107 39689 40037 56013 82903 333 81956 81856;
0229118410999992000051818004+49230+018620FM-12+031599999V0209999C000012200019N0250001N1+02061+01471100451ADDAA112000791AY191061AY281061GA1011+018009099GF104991021091017501031021KA1120M+02721MA1999999096921MD1210031+9999MW1021REMSYN100AAXX  18181 11841 11775 40000 10206 20147 39692 40045 52003 69902 70298 82932 333 10272 81956 81856;
0187118410999992000051821004+49230+018620FM-12+031599999V0202601N003010090019N0200001N1+01371+01121100671ADDAY191031AY281031GA1061+009009099GF107991061091008001071001MA1999999097041MD1310121+9999MW1951REMSYN082AAXX  18211 11841 41570 72603 10137 20112 39704 40067 53012 79598 86970 333 86930;
0218118410999992000051900004+49230+018620FM-12+031599999V0200601N002010150019N0100001N1+01331+01241100651ADDAA106020191AY191061AY281061GA1071+015009059GF107991071051017501999999GJ105889MA1999999097021MD1810021+9999MW1291REMSYN094AAXX  19001 11841 11760 70602 10133 20124 39702 40065 58002 60201 72998 875// 333 55098 87650;
0193118410999992000051903004+49230+018620FM-12+031599999V0202401N00101004201CN0100001N1+01321+01241100641ADDAY161031AY221031GA1021+003309079GF108991081051004501999999MA1999999097011MD1810011+9999MW1021REMSYN088AAXX  19031 11841 41460 82401 10132 20124 39701 40064 58001 70262 885// 333 82711 88626;
0281118410999992000051906004+49230+018620FM-12+031599999V0203101N001010045019N0100001N1+01231+01041100771ADDAA112021191AY161061AY221061GA1021+001509079GA2041+004509079GF108991081051001501999999IA1119IA2999+01209KA1120N+01191MA1999999097121MD1310111+9999MW1601REMSYN118AAXX  19061 11841 11260 83101 10123 20104 39712 40077 53011 60212 76062 885// 333 20119 32012 50442 82705 84715 88626;
0215118410999992000051909004+49230+018620FM-12+031599999V0202401N002010033019N0050001N1+01231+01091100881ADDAY161031AY221031GA1021+001509079GA2041+003309069GF108991081051001501999999MA1999999097221MD1110101+9999MW1601REMSYN094AAXX  19091 11841 41250 82402 10123 20109 39722 40088 51010 76062 885// 333 82705 84611 88628;
0210118410999992000051912004+49230+018620FM-12+031599999V0202501N001010039019N0150001N1+01291+01101100841ADDAA106000391AY161061AY221061GA1051+003909079GF108991081051004501999999MA1999999097191MD1810031+9999MW1601REMSYN094AAXX  19121 11841 11465 82501 10129 20110 39719 40084 58003 69931 76062 885// 333 85713 88636;
0215118410999992000051915004+49230+018620FM-12+031599999V0202701N001010069019N0150001N1+01241+00961100841ADDAY161031AY221031GA1021+004509079GA2031+006909069GF108991061051004501021999MA1999999097191MD1010001+9999MW1611REMSYN094AAXX  19151 11841 41465 82701 10124 20096 39719 40084 50000 76162 8652/ 333 82715 83623 86643;
0251118410999992000051918004+49230+018620FM-12+031599999V0202101N001010090019N0150001N1+01131+00971100891ADDAA112003091AY161061AY221061GA1021+003009079GA2061+009009069GF108991061051004501021999KA1120M+01301MA1999999097221MD1310031+9999MW1611REMSYN106AAXX  19181 11841 11465 82101 10113 20097 39722 40089 53003 60032 76162 8652/ 333 10130 82710 86630 88458;
0206118410999992000051921004+49230+018620FM-12+031599999V0209999C000010150019N0150001N1+01031+00951100931ADDAY161031AY261031GA1061+015009059GF106991061051017501999001MA1999999097251MD1110031+9999MW1011REMSYN082AAXX  19211 11841 41765 60000 10103 20095 39725 40093 51003 70166 86500 333 86650;EQDQ01    003SCOMCG
0224118410999992000052000004+49230+018620FM-12+031599999V0202701N00101004201CN0080001N1+00941+00831100971ADDAA106000191AY161061AY261061GA1031+004509079GF106991061051004501001001GJ100009MA1999999097271MD1310021+9999MW1101REMSYN100AAXX  20001 11841 11458 62701 10094 20083 39727 40097 53002 69921 71066 86500 333 55000 83715 85633;
0193118410999992000052003004+49230+018620FM-12+031599999V0203301N00101001201CN0045001N1+00821+00731101001ADDAY121031AY221031GA1031+001209079GF108991081061001501999999MA1999999097281MD1310011+9999MW1101REMSYN088AAXX  20031 11841 41245 83301 10082 20073 39728 40100 53001 71022 886// 333 83704 88710;
0225118410999992000052006004+49230+018620FM-12+031599999V0202701N002010018019N0100001N1+00881+00761101021ADDAA112000191GA1081+001809069GF108991081061001501999999IA1099IA2999+00809KA1120N+00811MA1999999097311MD1310031+9999REMSYN100AAXX  20061 11841 12260 82702 10088 20076 39731 40102 53003 69922 886// 333 20081 31008 50212 88706;
0165118410999992000052009004+49230+018620FM-12+031599999V0202701N00201090001CN0150001N1+01171+00841100981ADDGA1021+003909079GF108991021061004501001071MA1999999097311MD1010001+9999REMSYN082AAXX  20091 11841 42465 82702 10117 20084 39731 40098 50000 82607 333 82713 88275;
0232118410999992000052012004+49230+018620FM-12+031599999V0202401N004010150019N0100001N1+01161+00881100981ADDAA106000791AY181061AY221061GA1021+010809089GA2041+015009069GF108991051081012501001071MA1999999097311MD1010001+9999MW1801REMSYN100AAXX  20121 11841 11660 82404 10116 20088 39731 40098 50000 69901 78082 85807 333 82836 84650 88274;
0187118410999992000052015004+49230+018620FM-12+031599999V0202401N003010087019N0250001N1+01271+00801100861ADDAY181031AY221031GA1051+008709029GF107991071081008001031001MA1999999097211MD1810101+9999MW1031REMSYN082AAXX  20151 11841 41575 72403 10127 20080 39721 40086 58010 70382 87830 333 85829;
0223118410999992000052018004+49230+018620FM-12+031599999V0202401N002010360019N0300001N1+01091+00781100901ADDAA112001091AY181061AY221061GA1031+006609029GF105991031021008001061001KA1120M+01301MA1999999097221MD1310011+9999MW1011REMSYN094AAXX  20181 11841 11580 52402 10109 20078 39722 40090 53001 60012 70182 83260 333 10130 83822;
0165118410999992000052021004+49230+018620FM-12+031599999V0202501N002010360019N0250001N1+00811+00751100981ADDGA1021+001509079GF105991041051001501031001MA1999999097261MD1110041+9999REMSYN082AAXX  20211 11841 42275 52502 10081 20075 39726 40098 51004 84530 333 82705 84623;
0184118410999992000052100004+49230+018620FM-12+031599999V0202801N002012200019N0200001N1+00621+00521101021ADDAA199000021GA1021+007809059GF102991021051008001001001GJ100369MA1999999097281MD1310021+9999REMSYN082AAXX  21001 11841 32570 22802 10062 20052 39728 40102 53002 82500 333 55006 82626;
0193118410999992000052103004+49230+018620FM-12+031599999V0202601N00101009001CN0200001N1+00651+00541101071ADDAY181031AY211031GA1021+004509089GF106991061081004501001001MA1999999097331MD1310051+9999MW1251REMSYN088AAXX  21031 11841 41470 62601 10065 20054 39733 40107 53005 72581 86800 333 82815 85636;
0259118410999992000052106004+49230+018620FM-12+031599999V0202501N00301004201CN0150001N1+00891+00641101121ADDAA112000191AY181061AY211061GA1011+003009079GF107991071051004501001001IA1099IA2999+00409KA1120N+00571MA1999999097411MD1210081+9999MW1031REMSYN112AAXX  21061 11841 11465 72503 10089 20064 39741 40112 52008 69912 70381 87500 333 20057 31004 50182 81710 87634;
0159118410999992000052109004+49230+018620FM-12+031599999V0202401N003010081019N0300001N1+01301+00641101061ADDGA1051+008109029GF106991051021008001031001MA1999999097401MD1810011+9999REMSYN076AAXX  21091 11841 42580 62403 10130 20064 39740 40106 58001 85230 333 85827;
0204118410999992000052112004+49230+018620FM-12+031599999V0202201N004010150019N0300001N1+01351+00611101051ADDAA199000021AY131061AY221061GA1041+012009089GF107991071081012501001001MA1999999097401MD1010001+9999MW1021REMSYN088AAXX  21121 11841 31680 72204 10135 20061 39740 40105 50000 70232 87800 333 84840 84650;
0101118410999992000052115004+49230+018620FM-12+031599999V0201601N001019999999N9999999N1+01461+00551101061ADDMA1999999097431MD1210031+9999REMSYN060AAXX  21151 11841 46/// /1601 10146 20055 39743 40106 52003;
0154118410999992000052118004+49230+018620FM-12+031599999V0201501N001019999999N9999999N1+01281+00791101061ADDAA199000091KA1999M+01591MA1999999097411MD1710031+9999REMSYN070AAXX  21181 11841 36/// /1501 10128 20079 39741 40106 57003 333 10159;EQDQ01  00002PRCP99
0159118410999992000052121004+49230+018620FM-12+031599999V0209999C000012200019N0120001N1+00721+00581101211ADDGA1011+069009019GF101991001001999999001011MA1999999097471MD1110061+9999REMSYN076AAXX  21211 11841 42962 10000 10072 20058 39747 40121 51006 80001 333 81073;
0203118410999992000052200004+49230+018620FM-12+031599999V0201001N001012200019N0100001N1+00661+00571101151ADDAA199000091GA1021+030009079GF102991021001999999031001GJ102769MA1999999097411MD1810061+9999REMSYN082AAXX  22001 11841 32960 21001 10066 20057 39741 40115 58006 82030 333 55046 82360;EQDQ01  00002PRCP99
0178118410999992000052203004+49230+018620FM-12+031599999V0200801N002010210019N0150001N1+00781+00671101101ADDGA1061+021009079GF106991061999022501071001MA1999999097381MD1610031+9999REMSYN076AAXX  22031 11841 42865 60802 10078 20067 39738 40110 56003 86070 333 86357;EQDQ01+000002SCOLCG
0254118410999992000052206004+49230+018620FM-12+031599999V0209999C000010240019N0200001N1+01181+00771101001ADDAA199000091GA1051+024009079GF106991051999022501031011IA1099IA2999+00509KA1120N+00631MA1999999097331MD1610051+9999REMSYN094AAXX  22061 11841 32870 60000 10118 20077 39733 40100 56005 85031 333 20063 31005 50222 85358;EQDQ01  00002PRCP99Q02    003SCOLCG
0193118410999992000052209004+49230+018620FM-12+031599999V0202401N004010138019N0100001N1+01361+00911101001ADDAY121031AY221031GA1071+013809069GF108991071051012501021999MA1999999097361MD1310031+9999MW1611REMSYN088AAXX  22091 11841 41660 82404 10136 20091 39736 40100 53003 76122 8752/ 333 87646 88459;
0232118410999992000052212004+49230+018620FM-12+031599999V0202401N003010090019N0070001N1+01121+00941101131ADDAA106002091AY161061AY221061GA1031+002109079GA2051+009009069GF108991081051002501999999MA1999999097451MD1110091+9999MW1611REMSYN100AAXX  22121 11841 11357 82403 10112 20094 39745 40113 51009 60021 76162 885// 333 83707 85630 88643;
0215118410999992000052215004+49230+018620FM-12+031599999V0202501N001010066019N0070001N1+00971+00831101281ADDAY161031AY261031GA1041+002109079GA2061+006609069GF108991071051002501999999MA1999999097571MD1110121+9999MW1631REMSYN094AAXX  22151 11841 41357 82501 10097 20083 39757 40128 51012 76366 875// 333 84707 86622 88540;
0229118410999992000052218004+49230+018620FM-12+031599999V0209999C00001002101CN0060001N1+00961+00821101281ADDAA112013091AY161061AY221061GA1021+002709079GF107991071051002501999999KA1120M+01521MA1999999097571MD1510001+9999MW1601REMSYN100AAXX  22181 11841 11356 70000 10096 20082 39757 40128 55000 60132 76062 875// 333 10152 82709 87622;
0187118410999992000052221004+49230+018620FM-12+031599999V0202901N002010090019N0100001N1+00881+00761101391ADDAY161031AY221031GA1081+009009059GF108991081051008001999999MA1999999097671MD1210101+9999MW1021REMSYN082AAXX  22211 11841 41560 82902 10088 20076 39767 40139 52010 70262 885// 333 88630;
0218118410999992000052300004+49230+018620FM-12+031599999V0202501N003010066019N0100001N1+00941+00741101401ADDAA106000191AY161061AY261061GA1081+006609059GF108991081051008001999999GJ100909MA1999999097691MD1210021+9999MW1601REMSYN094AAXX  23001 11841 11560 82503 10094 20074 39769 40140 52002 69911 76066 885// 333 55015 88622;
0193118410999992000052303004+49230+018620FM-12+031599999V0202601N00301001201CN0060001N1+00931+00791101451ADDAY161031AY221031GA1021+001509079GF108991081051001501999999MA1999999097731MD1310041+9999MW1211REMSYN088AAXX  23031 11841 41256 82603 10093 20079 39773 40145 53004 72162 885// 333 82705 88623;
0259118410999992000052306004+49230+018620FM-12+031599999V0202801N00201002101CN0100001N1+01031+00871101611ADDAA112000191AY161061AY221061GA1041+001809079GF107991061051002501071001IA1119IA2999+00809KA1120N+00871MA1999999097901MD1210171+9999MW1601REMSYN112AAXX  23061 11841 11360 72802 10103 20087 39790 40161 52017 69912 76062 86570 333 20087 32008 50102 84706 86626;
0193118410999992000052309004+49230+018620FM-12+031599999V0202301N00101001201CN0100001N1+01251+00901101761ADDAY161031AY221031GA1031+001509079GF108991081051001501999999MA1999999098071MD1210171+9999MW1021REMSYN088AAXX  23091 11841 41260 82301 10125 20090 39807 40176 52017 70262 885// 333 83705 88623;
0204118410999992000052312004+49230+018620FM-12+031599999V0202801N001010069019N0100001N1+01511+01031101781ADDAA106000891AY161061AY221061GA1061+006909029GF106991061021008001001001MA1999999098131MD1010061+9999MW1011REMSYN088AAXX  23121 11841 11560 62801 10151 20103 39813 40178 50006 69971 70162 86200 333 86823;
0229118410999992000052318004+49230+018620FM-12+031599999V0200901N002012200019N0100001N1+01321+01091101991ADDAA112001091AY181061AY261061GA1011+000909079GF104991041081001501001001KA1120M+01741MA1999999098311MD1310071+9999MW1251REMSYN100AAXX  23181 11841 11260 40902 10132 20109 39831 40199 53007 60012 72586 84800 333 10174 81703 84829;
0187118410999992000052321004+49230+018620FM-12+031599999V0209999C000010006019N0030001N1+00981+00921102141ADDAY121031AY221031GA1051+000609069GF105991051061000751001001MA1999999098411MD1110101+9999MW1101REMSYN082AAXX  23211 11841 41130 50000 10098 20092 39841 40214 51010 71022 85600 333 85702;
0212118410999992000052400004+49230+018620FM-12+031599999V0203401N002010012019N0060001N1+00951+00891102101ADDAA199000021AY111061AY211061GA1071+001209069GF107991071061001501999999GJ101029MA1999999098361MD1810051+9999MW1101REMSYN088AAXX  24001 11841 31256 73402 10095 20089 39836 40210 58005 71011 876// 333 55017 87704;
0187118410999992000052403004+49230+018620FM-12+031599999V0200401N002010012019N0050001N1+00941+00851102081ADDAY121031AY221031GA1071+001209069GF107991071061001501999999MA1999999098341MD1610021+9999MW1101REMSYN082AAXX  24031 11841 41250 70402 10094 20085 39834 40208 56002 71022 876// 333 87704;
0247118410999992000052406004+49230+018620FM-12+031599999V0200701N002010015019N0035001N1+00991+00851102061ADDAA199000021AY121061AY221061GA1081+001509069GF108991081051001501999999IA1119IA2999+00809KA1120N+00911MA1999999098331MD1510011+9999MW1101REMSYN100AAXX  24061 11841 31235 80702 10099 20085 39833 40206 55001 71022 885// 333 20091 32008 50122 88705;
0159118410999992000052409004+49230+018620FM-12+031599999V0202101N001012200019N0120001N1+01741+01031101861ADDGA1011+009909029GF102991011021012501001011MA1999999098231MD1810101+9999REMSYN076AAXX  24091 11841 42662 22101 10174 20103 39823 40186 58010 81201 333 81833;
0189118410999992000052412004+49230+018620FM-12+031599999V0202601N004012200019N0200001N1+02081+00811101691ADDAA199000091GA1031+014409029GF105991031021012501001011MA1999999098111MD1610121+9999REMSYN076AAXX  24121 11841 32670 52604 10208 20081 39811 40169 56012 83201 333 83848;EQDQ01  00002PRCP99
0165118410999992000052415004+49230+018620FM-12+031599999V0202501N00501220001CN0250001N1+02071+00901101631ADDGA1021+015009089GF105991021021017501001041MA1999999098051MD1610061+9999REMSYN082AAXX  24151 11841 42775 52505 10207 20090 39805 40163 56006 82204 333 82850 85073;
0214118410999992000052418004+49230+018620FM-12+031599999V0209999C000012200019N0200001N1+01751+01021101651ADDAA199000091GA1011+036009039GF104991011001999999041011KA1120M+02141MA1999999098031MD1510021+9999REMSYN088AAXX  24181 11841 32970 40000 10175 20102 39803 40165 55002 81041 333 10214 81362 84075;EQDQ01  00002PRCP99
0159118410999992000052421004+49230+018620FM-12+031599999V0209999C000012200019N0200001N1+01081+00861101851ADDGA1031+072009019GF103991001001999999001011MA1999999098141MD1110111+9999REMSYN076AAXX  24211 11841 42970 30000 10108 20086 39814 40185 51011 80001 333 83074;
0219118410999992000052500004+49230+018620FM-12+031599999V0200801N001010210019N0200001N1+01051+00921101841ADDAA199000091GA1061+021009079GF106991061999022501031001GJ105469MA1999999098131MD1810011+9999REMSYN082AAXX  25001 11841 32870 60801 10105 20092 39813 40184 58001 86030 333 55091 86357;EQDQ01+000002SCOLCGQ02  00002PRCP99
0165118410999992000052503004+49230+018620FM-12+031599999V0201001N001012200019N0150001N1+00921+00831101811ADDGA1011+030009039GF104991011001999999041011MA1999999098081MD1610051+9999REMSYN082AAXX  25031 11841 42965 41001 10092 20083 39808 40181 56005 81041 333 81360 84070;
0244118410999992000052506004+49230+018620FM-12+031599999V0200901N002012200019N0150001N1+01341+01001101761ADDAA199000091GA1011+030009039GF103991011001999999031011IA1099IA2999+00709KA1120N+00901MA1999999098091MD1010011+9999REMSYN100AAXX  25061 11841 32965 30902 10134 20100 39809 40176 50001 81031 333 20090 31007 50202 81360 83070;EQDQ01  00002PRCP99
0159118410999992000052509004+49230+018620FM-12+031599999V0202301N004012200019N0200001N1+02181+01031101581ADDGA1021+009909029GF102991021011012501001001MA1999999098011MD1810081+9999REMSYN076AAXX  25091 11841 42670 22304 10218 20103 39801 40158 58008 82100 333 82833;
0189118410999992000052512004+49230+018620FM-12+031599999V0202301N005012200019N0300001N1+02371+00931101441ADDAA199000091GA1021+018009029GF102991021011017501001011MA1999999097901MD1810111+9999REMSYN076AAXX  25121 11841 32780 22305 10237 20093 39790 40144 58011 82101 333 82856;EQDQ01  00002PRCP99
0159118410999992000052515004+49230+018620FM-12+031599999V0202501N006012200019N0350001N1+02411+01011101331ADDGA1021+018009029GF102991021011017501001001MA1999999097801MD1610101+9999REMSYN076AAXX  25151 11841 42781 22506 10241 20101 39780 40133 56010 82100 333 82856;
0229118410999992000052518004+49230+018620FM-12+031599999V0202101N002012200019N0300001N1+02211+00901101421ADDAA199000091GA1011+030009079GA2031+060009019GF103991011001999999041021KA1999M+02481MA1999999097861MD1310061+9999REMSYN087AAXX  25181 11841 32980 32102 10221 20090 39786 40142 53006 81042333 10248 81360 83070;EQDQ01  00002PRCP99
0143118410999992000052521004+49230+018620FM-12+031599999V0201701N001012200019N0150001N1+01371+01101101681ADDGA1001+999999999GF100991001001999999001001MA1999999098011MD1310151+9999REMSYN060AAXX  25211 11841 42965 01701 10137 20110 39801 40168 53015;
0141118410999992000052600004+49230+018620FM-12+031599999V0209999V001019999999N9999999N1+01171+01051101801ADDAA199000091MA1999999098111MD1210121+9999REMSYN070AAXX  26001 11841 36/// /9901 10117 20105 39811 40180 52012 333 55125;EQDQ01  00002PRCP99
0159118410999992000052603004+49230+018620FM-12+031599999V0201201N001010300019N0100001N1+01111+00981101871ADDGA1051+030009079GF105991051001999999051001MA1999999098161MD1110061+9999REMSYN076AAXX  26031 11841 42960 51201 10111 20098 39816 40187 51006 85050 333 85360;
0253118410999992000052606004+49230+018620FM-12+031599999V0200801N002010330019N0150001N1+01421+01191101901ADDAA112000791AY161061AY211061GA1071+033009079GF107991071001999999051001IA1099IA2999+00909KA1120N+01101MA1999999098231MD1110071+9999MW1211REMSYN106AAXX  26061 11841 11965 70802 10142 20119 39823 40190 51007 69902 72161 87050 333 20110 31009 50312 87361;
0193118410999992000052609004+49230+018620FM-12+031599999V0201301N00101036001CN0150001N1+02001+01301101881ADDAY161031AY221031GA1011+009909089GF107991011021012501031001MA1999999098291MD1010061+9999MW1021REMSYN088AAXX  26091 11841 41665 71301 10200 20130 39829 40188 50006 70262 81230 333 81833 87360;
0187118410999992000052612004+49230+018620FM-12+031599999V0202501N001012200019N0150001N1+02481+01211101691ADDAA106000791AY161061AY211061GF102991999999012501999999MA1999999098161MD1810131+9999MW1011REMSYN087AAXX  26121 11841 11665 22501 10248 20121 39816 40169 58013 69901 70161 8120 333 81843;
0195118410999992000052618004+49230+018620FM-12+031599999V0201201N001012200019N0200001N1+02151+01371101571ADDAA112000791GA1011+018009029GF102991011021017501061001KA1120M+02601MA1999999098011MD1510021+9999REMSYN088AAXX  26181 11841 12770 21201 10215 20137 39801 40157 55002 69902 81260 333 10260 81856;
0143118410999992000052621004+49230+018620FM-12+031599999V0200801N001012200019N0150001N1+01531+01321101681ADDGA1001+999999999GF100991001001999999001001MA1999999098041MD1010031+9999REMSYN060AAXX  26211 11841 42965 00801 10153 20132 39804 40168 50003;
0183118410999992000052700004+49230+018620FM-12+031599999V0201301N001012200019N0100001N1+01291+01161101661ADDAA199000091GA1001+999999999GF100991001001999999001001MA1999999097991MD1710051+9999REMSYN070AAXX  27001 11841 32960 01301 10129 20116 39799 40166 57005 333 55065;EQDQ01  00002PRCP99
0171118410999992000052703004+49230+018620FM-12+031599999V0209999C000012200019N0050001N1+01081+01001101621ADDAY101031AY201031GA1001+999999999GF100991001001999999001001MA1999999097921MD1610071+9999MW1121REMSYN066AAXX  27031 11841 41950 00000 10108 20100 39792 40162 56007 71200;
0226118410999992000052706004+49230+018620FM-12+031599999V0209999C000012200019N0200001N1+01691+01241101481ADDAA199000091GA1001+999999999GF100991001001999999001001IA1019IA2999+00809KA1120N+01071MA1999999097861MD1710061+9999REMSYN082AAXX  27061 11841 32970 00000 10169 20124 39786 40148 57006 333 20107 30008 50272;EQDQ01  00002PRCP99
0165118410999992000052709004+49230+018620FM-12+031599999V0202201N006012200019N0300001N1+02591+00931101251ADDGA1011+013509089GF101991011011012501001001MA1999999097741MD1810121+9999REMSYN082AAXX  27091 11841 42680 12206 10259 20093 39774 40125 58012 81100 333 81845 91011;
0131118410999992000052712004+49230+018620FM-12+031599999V0202101N004019999999N9999999N1+02741+00911101111ADDAA199000091MA1999999097631MD1710121+9999REMSYN060AAXX  27121 11841 36/// /2104 10274 20091 39763 40111 57012;EQDQ01  00002PRCP99
0159118410999992000052715004+49230+018620FM-12+031599999V0202001N002012200019N0300001N1+02801+00931100931ADDGA1011+018009029GF101991011011022501001001MA1999999097461MD1010001+9999REMSYN076AAXX  27151 11841 42880 12002 10280 20093 39746 40093 50000 81100 333 81856;
0208118410999992000052718004+49230+018620FM-12+031599999V0201801N002012200019N0300001N1+02581+00961101061ADDAA199000091GA1011+018009029GF101991011011022501001001KA1120M+02841MA1999999097561MD1210101+9999REMSYN082AAXX  27181 11841 32880 11802 10258 20096 39756 40106 52010 81100 333 10284 81856;EQDQ01  00002PRCP99
0159118410999992000052721004+49230+018620FM-12+031599999V0203101N001012200019N0300001N1+01851+01321101321ADDGA1031+013509059GF103991031051012501001001MA1999999097731MD1210171+9999REMSYN076AAXX  27211 11841 42680 33101 10185 20132 39773 40132 52017 83500 333 83645;
0183118410999992000052800004+49230+018620FM-12+031599999V0200701N002012200019N0300001N1+01631+01321101531ADDAA199000091GA1001+999999999GF100991001001999999001001MA1999999097901MD1210171+9999REMSYN070AAXX  28001 11841 32980 00702 10163 20132 39790 40153 52017 333 55122;EQDQ01  00002PRCP99
0143118410999992000052803004+49230+018620FM-12+031599999V0201201N001012200019N0200001N1+01361+01221101491ADDGA1001+999999999GF100991001001999999001001MA1999999097831MD1810071+9999REMSYN060AAXX  28031 11841 42970 01201 10136 20122 39783 40149 58007;
0220118410999992000052806004+49230+018620FM-12+031599999V0200801N001012200019N0300001N1+01891+01331101331ADDAA199000091GA1001+999999999GF100991001001999999001001IA1019IA2999+01109KA1120N+01341MA1999999097741MD1710091+9999REMSYN076AAXX  28061 11841 32980 00801 10189 20133 39774 40133 57009 333 20134 30011;EQDQ01  00002PRCP99
0159118410999992000052809004+49230+018620FM-12+031599999V0202101N003012200019N0300001N1+02651+00941101011ADDGA1021+069009019GF102991001001999999001011MA1999999097521MD1810221+9999REMSYN076AAXX  28091 11841 42980 22103 10265 20094 39752 40101 58022 80001 333 82073;
0195118410999992000052812004+49230+018620FM-12+031599999V0202101N005012200019N0350001N1+02731+01101100861ADDAA199000091GA1011+015009089GF102991011011017501041001MA1999999097391MD1710131+9999REMSYN082AAXX  28121 11841 32781 22105 10273 20110 39739 40086 57013 81140 333 81850 91010;EQDQ01  00002PRCP99
0165118410999992000052815004+49230+018620FM-12+031599999V0202101N006012200019N0300001N1+02741+01191100641ADDGA1021+018009089GF104991021021017501031021MA1999999097171MD1810221+9999REMSYN082AAXX  28151 11841 42780 42106 10274 20119 39717 40064 58022 82232 333 82856 91012;
0214118410999992000052818004+49230+018620FM-12+031599999V0201801N003012200019N0300001N1+02521+01101100551ADDAA199000091GA1021+018009089GF104991021011017501041081KA1120M+02821MA1999999097061MD1710111+9999REMSYN088AAXX  28181 11841 32780 41803 10252 20110 39706 40055 57011 82148 333 10282 82856 84270;EQDQ01  00002PRCP99
0159118410999992000052821004+49230+018620FM-12+031599999V0202101N003012200019N0200001N1+02271+01021100641ADDGA1021+063009019GF102991001001999999001021MA1999999097121MD1010061+9999REMSYN076AAXX  28211 11841 42970 22103 10227 20102 39712 40064 50006 80002 333 82071;
0203118410999992000052900004+49230+018620FM-12+031599999V0202401N004012200019N0150001N1+01881+01191100721ADDAA199000091GA1011+003309019GF101991001001999999001011GJ106849MA1999999097151MD1310031+9999REMSYN082AAXX  29001 11841 32965 12404 10188 20119 39715 40072 53003 80001 333 55114 81011;EQDQ01  00002PRCP99
0187118410999992000052903004+49230+018620FM-12+031599999V0202401N003010120019N0200001N1+01381+01181101021ADDAY161031AY221031GA1051+012009059GF107991051051012501071999MA1999999097381MD1310231+9999MW1211REMSYN082AAXX  29031 11841 41670 72403 10138 20118 39738 40102 53023 72162 8557/ 333 85640;
0281118410999992000052906004+49230+018620FM-12+031599999V0202501N003010069019N0060001N1+01281+01141101101ADDAA112004191AY161061AY211061GA1031+003009079GA2061+006909069GF108991061051004501021999IA1099IA2999+01309KA1120N+01281MA1999999097441MD1310061+9999MW1611REMSYN118AAXX  29061 11841 11456 82503 10128 20114 39744 40110 53006 60042 76161 8652/ 333 20128 31013 50342 83710 86623 88459;
0215118410999992000052909004+49230+018620FM-12+031599999V0202201N001010129019N0100001N1+01151+00911101411ADDAY161031AY261031GA1021+003309079GA2061+012909069GF108991061051004501021999MA1999999097721MD1110281+9999MW1611REMSYN094AAXX  29091 11841 41460 82201 10115 20091 39772 40141 51028 76166 8652/ 333 82711 86643 88458;
0210118410999992000052912004+49230+018620FM-12+031599999V0202501N00201012001CN0300001N1+01441+00881101251ADDAA106010991AY161061AY261061GA1031+007509089GF107991051081008001071001MA1999999097611MD1510111+9999MW1021REMSYN094AAXX  29121 11841 11580 72502 10144 20088 39761 40125 55011 60111 70266 85870 333 83825 87359;
0165118410999992000052915004+49230+018620FM-12+031599999V0202601N00101036001CN0300001N1+01511+00811101181ADDGA1021+008409089GF107991041081008001071001MA1999999097551MD1810061+9999REMSYN082AAXX  29151 11841 42580 72601 10151 20081 39755 40118 58006 84870 333 82828 87360;
0229118410999992000052918004+49230+018620FM-12+031599999V0209999C00001036001CN0300001N1+01291+00821101281ADDAA112010991AY181061AY221061GA1041+013809069GF108991041051012501071999KA1120M+01591MA1999999097621MD1210071+9999MW1601REMSYN100AAXX  29181 11841 11680 80000 10129 20082 39762 40128 52007 60112 76082 8457/ 333 10159 84646 88360;
0187118410999992000052921004+49230+018620FM-12+031599999V0202501N002010099019N0200001N1+01111+00941101541ADDAY161031AY221031GA1061+009909059GF106991061051012501001001MA1999999097841MD1110221+9999MW1251REMSYN082AAXX  29211 11841 41670 62502 10111 20094 39784 40154 51022 72562 86500 333 86633;
0198118410999992000053000004+49230+018620FM-12+031599999V0202601N001012200019N0200001N1+00791+00651101681ADDAA106000891AY181061AY261061GA1001+999999999GF100991001001999999001001MA1999999097931MD1110091+9999MW1011REMSYN082AAXX  30001 11841 11970 02601 10079 20065 39793 40168 51009 69971 70186 333 55004;
0159118410999992000053003004+49230+018620FM-12+031599999V0203201N001012200019N0120001N1+00541+00481101811ADDGA1011+060009019GF101991001001999999001011MA1999999098031MD1110101+9999REMSYN076AAXX  30031 11841 42962 13201 10054 20048 39803 40181 51010 80001 333 81070;
0253118410999992000053006004+49230+018620FM-12+031599999V0200901N00101000601CN0080001N1+00881+00691101821ADDAA112000891AY111061AY211061GA1041+000909069GF105991051011000751001001IA1099IA2999+00309KA1120N+00531MA1999999098081MD1010051+9999MW1281REMSYN106AAXX  30061 11841 11158 50901 10088 20069 39808 40182 50005 69972 72811 85100 333 20053 31003 50232 84703;
0159118410999992000053009004+49230+018620FM-12+031599999V0202701N002010108019N0250001N1+01521+00461101721ADDGA1051+010809029GF105991051021012501001001MA1999999098061MD1710021+9999REMSYN076AAXX  30091 11841 42675 52702 10152 20046 39806 40172 57002 85200 333 85836;
0189118410999992000053012004+49230+018620FM-12+031599999V0202801N003012200019N0300001N1+01681+00351101621ADDAA199000091GA1041+015009029GF104991041021017501001001MA1999999097991MD1810071+9999REMSYN076AAXX  30121 11841 32780 42803 10168 20035 39799 40162 58007 84200 333 84850;EQDQ01  00002PRCP99
0159118410999992000053015004+49230+018620FM-12+031599999V0202401N003012200019N0300001N1+01631+00301101501ADDGA1021+018009029GF102991021021017501001001MA1999999097861MD1710131+9999REMSYN076AAXX  30151 11841 42780 22403 10163 20030 39786 40150 57013 82200 333 82856;
0214118410999992000053018004+49230+018620FM-12+031599999V0202801N00101220001CN0300001N1+01391+00501101481ADDAA199000091GA1011+018009089GF105991011021017501001011KA1120M+01801MA1999999097821MD1610041+9999REMSYN088AAXX  30181 11841 32780 52801 10139 20050 39782 40148 56004 81201 333 10180 81856 84070;EQDQ01  00002PRCP99
0159118410999992000053021004+49230+018620FM-12+031599999V0201301N001012200019N0100001N1+00721+00421101601ADDGA1011+060009019GF101991001001999999001011MA1999999097851MD1110031+9999REMSYN076AAXX  30211 11841 42960 11301 10072 20042 39785 40160 51003 80001 333 81070;
0141118410999992000053100004+49230+018620FM-12+031599999V0200901N002019999999N9999999N1+00761+00561101441ADDAA199000091MA1999999097701MD1710161+9999REMSYN070AAXX  31001 11841 36/// /0902 10076 20056 39770 40144 57016 333 55080;EQDQ01  00002PRCP99
0125118410999992000053103004+49230+018620FM-12+031599999V0200901N002019999999N0100001N1+00811+00621999999ADDGF108991999999012501999999REMSYN087AAXX  31031 11841 41660 80902 10081 20062 9760 40133 57010 76162 8452/ 333 84646 88457;
0281118410999992000053106004+49230+018620FM-12+031599999V0200801N003010150019N0120001N1+00891+00781101181ADDAA112002091AY161061AY221061GA1021+001209079GA2061+015009069GF108991081051001501999999IA1099IA2999+00509KA1120N+00581MA1999999097471MD1810131+9999MW1601REMSYN118AAXX  31061 11841 11262 80803 10089 20078 39747 40118 58013 60022 76062 885// 333 20058 31005 50282 82704 86650 88650;
0215118410999992000053109004+49230+018620FM-12+031599999V0203401N001010066019N0040001N1+01021+00901101271ADDAY161031AY221031GA1041+001209079GA2061+006609069GF108991081051001501999999MA1999999097571MD1310101+9999MW1611REMSYN094AAXX  31091 11841 41240 83401 10102 20090 39757 40127 53010 76162 885// 333 84704 86622 88625;
0232118410999992000053112004+49230+018620FM-12+031599999V0202501N001010030019N0070001N1+01131+01041101371ADDAA106005191AY161061AY221061GA1041+001209079GA2061+003009079GF108991081051001501999999MA1999999097681MD1310111+9999MW1601REMSYN100AAXX  31121 11841 11257 82501 10113 20104 39768 40137 53011 60051 76062 885// 333 84704 86710 88615;
0193118410999992000053115004+49230+018620FM-12+031599999V0202401N00201002101CN0100001N1+01341+01081101441ADDAY161031AY221031GA1011+002409079GF107991061051002501071001MA1999999097781MD1110101+9999MW1211REMSYN088AAXX  31151 11841 41360 72402 10134 20108 39778 40144 51010 72162 86570 333 81708 86628;
0229118410999992000053118004+49230+018620FM-12+031599999V0201201N00101002101CN0120001N1+01161+00861101801ADDAA112007191AY181061AY261061GA1021+002409079GF107991071051002501001001KA1120M+01371MA1999999098101MD1210321+9999MW1021REMSYN100AAXX  31181 11841 11362 71201 10116 20086 39810 40180 52032 60072 70286 87500 333 10137 82708 87626;
0187118410999992000053121004+49230+018620FM-12+031599999V0200101N001010081019N0100001N1+01041+00821102081ADDAY181031AY221031GA1071+008109059GF107991071051008001999999MA1999999098351MD1210251+9999MW1251REMSYN082AAXX  31211 11841 41560 70101 10104 20082 39835 40208 52025 72582 875// 333 87627;
0224118410999992000060100004+49230+018620FM-12+031599999V0200501N00101007501CN0100001N1+01011+00741102261ADDAA106000191AY181061AY221061GA1041+008409069GF108991081051008001999999GJ100009MA1999999098521MD1110171+9999MW1021REMSYN100AAXX  01001 11841 11560 80501 10101 20074 39852 40226 51017 69911 70282 885// 333 55000 84628 88643;
0159118410999992000060103004+49230+018620FM-12+031599999V0209999C000010129019N0100001N1+00691+00621102471ADDGA1051+012909059GF105991051051012501001001MA1999999098681MD1110161+9999REMSYN076AAXX  01031 11841 42660 50000 10069 20062 39868 40247 51016 85500 333 85643;
0225118410999992000060106004+49230+018620FM-12+031599999V0200801N002010108019N0250001N1+01091+00591102551ADDAA112000191GA1051+010809059GF105991051051012501001001IA1099IA2999+00409KA1120N+00671MA1999999098811MD1110131+9999REMSYN100AAXX  01061 11841 12675 50802 10109 20059 39881 40255 51013 69912 85500 333 20067 31004 50142 85636;
0159118410999992000060109004+49230+018620FM-12+031599999V0200301N006012200019N0300001N1+01471+00161102561ADDGA1021+013509029GF103991021021012501001011MA1999999098871MD1110061+9999REMSYN076AAXX  01091 11841 42680 30306 10147 20016 39887 40256 51006 82201 333 82845;
0189118410999992000060112004+49230+018620FM-12+031599999V0200301N003012200019N0300001N1+01701+00331102501ADDAA199000091GA1021+015009029GF102991021011017501001001MA1999999098841MD1710031+9999REMSYN076AAXX  01121 11841 32780 20303 10170 20033 39884 40250 57003 82100 333 82850;EQDQ01  00002PRCP99
0159118410999992000060115004+49230+018620FM-12+031599999V0200201N003012200019N0300001N1+01851+00061102371ADDGA1011+018009029GF102991011011017501001011MA1999999098731MD1610111+9999REMSYN076AAXX  01151 11841 42780 20203 10185 20006 39873 40237 56011 81101 333 81856;
0208118410999992000060118004+49230+018620FM-12+031599999V0201101N001012200019N0300001N1+01601+00501102451ADDAA199000091GA1011+069009019GF101991001001999999001011KA1120M+01861MA1999999098781MD1310051+9999REMSYN082AAXX  01181 11841 32980 11101 10160 20050 39878 40245 53005 80001 333 10186 81073;EQDQ01  00002PRCP99
0159118410999992000060121004+49230+018620FM-12+031599999V0201301N001012200019N0250001N1+00791+00471102691ADDGA1011+069009019GF101991001001999999001011MA1999999098911MD1110131+9999REMSYN076AAXX  01211 11841 42975 11301 10079 20047 39891 40269 51013 80001 333 81073;
0141118410999992000060200004+49230+018620FM-12+031599999V0201001N001019999999N9999999N1+00551+00401102761ADDAA199000091MA1999999098951MD1210041+9999REMSYN070AAXX  02001 11841 36/// /1001 10055 20040 39895 40276 52004 333 55114;EQDQ01  00002PRCP99
0143118410999992000060203004+49230+018620FM-12+031599999V0201201N001012200019N0250001N1+00451+00361102791ADDGA1001+999999999GF100991001001999999001001MA1999999098961MD1310011+9999REMSYN060AAXX  02031 11841 42975 01201 10045 20036 39896 40279 53001;
0238118410999992000060206004+49230+018620FM-12+031599999V0200701N002012200019N0300001N1+01081+00641102741ADDAA199000091GA1011+060009019GF101991001001999999001011IA1099IA2999+00309KA1120N+00431MA1999999098991MD1110031+9999REMSYN094AAXX  02061 11841 32980 10702 10108 20064 39899 40274 51003 80001 333 20043 31003 50442 81070;EQDQ01  00002PRCP99
0159118410999992000060209004+49230+018620FM-12+031599999V0202801N003012200019N0300001N1+01851+00791102551ADDGA1011+009909029GF102991011011012501001011MA1999999098911MD1810081+9999REMSYN076AAXX  02091 11841 42680 22803 10185 20079 39891 40255 58008 81101 333 81833;
0189118410999992000060212004+49230+018620FM-12+031599999V0202601N004012200019N0300001N1+02131+00861102351ADDAA199000091GA1011+013809029GF102991011021012501001011MA1999999098751MD1610161+9999REMSYN076AAXX  02121 11841 32680 22604 10213 20086 39875 40235 56016 81201 333 81846;EQDQ01  00002PRCP99
0159118410999992000060215004+49230+018620FM-12+031599999V0202601N004012200019N0300001N1+02201+00711102191ADDGA1021+060009019GF102991001001999999001011MA1999999098601MD1710151+9999REMSYN076AAXX  02151 11841 42980 22604 10220 20071 39860 40219 57015 80001 333 82070;
0208118410999992000060218004+49230+018620FM-12+031599999V0202401N003012200019N0300001N1+01901+00891102191ADDAA199000091GA1011+060009019GF101991001001999999001021KA1120M+02231MA1999999098571MD1510031+9999REMSYN082AAXX  02181 11841 32980 12403 10190 20089 39857 40219 55003 80002 333 10223 81070;EQDQ01  00002PRCP99
0143118410999992000060221004+49230+018620FM-12+031599999V0209999C000012200019N0150001N1+01101+00791102351ADDGA1001+999999999GF100991001001999999001001MA1999999098621MD1010051+9999REMSYN060AAXX  02211 11841 42965 00000 10110 20079 39862 40235 50005;
0183118410999992000060300004+49230+018620FM-12+031599999V0209999C000012200019N0100001N1+00821+00681102411ADDAA199000091GA1001+999999999GF100991001001999999001001MA1999999098641MD1210021+9999REMSYN070AAXX  03001 11841 32960 00000 10082 20068 39864 40241 52002 333 55150;EQDQ01  00002PRCP99
0143118410999992000060303004+49230+018620FM-12+031599999V0209999C000012200019N0150001N1+00701+00611102421ADDGA1001+999999999GF100991001001999999001001MA1999999098641MD1510001+9999REMSYN060AAXX  03031 11841 42965 00000 10070 20061 39864 40242 55000;
0226118410999992000060306004+49230+018620FM-12+031599999V0200901N001012200019N0150001N1+01391+00941102321ADDAA199000091GA1001+999999999GF100991001001999999001001IA1099IA2999+00509KA1120N+00691MA1999999098631MD1510011+9999REMSYN082AAXX  03061 11841 32965 00901 10139 20094 39863 40232 55001 333 20069 31005 50332;EQDQ01  00002PRCP99
0159118410999992000060309004+49230+018620FM-12+031599999V0202601N004012200019N0200001N1+02181+01061102161ADDGA1011+060009019GF101991001001999999001011MA1999999098571MD1810061+9999REMSYN076AAXX  03091 11841 42970 12604 10218 20106 39857 40216 58006 80001 333 81070;
0189118410999992000060312004+49230+018620FM-12+031599999V0202701N004012200019N0200001N1+02481+01031101981ADDAA199000091GA1011+015009029GF101991011011017501001001MA1999999098441MD1810131+9999REMSYN076AAXX  03121 11841 32770 12704 10248 20103 39844 40198 58013 81100 333 81850;EQDQ01  00002PRCP99
0159118410999992000060315004+49230+018620FM-12+031599999V0202601N004012200019N0250001N1+02651+00981101851ADDGA1011+018009029GF101991011011017501001001MA1999999098331MD1710111+9999REMSYN076AAXX  03151 11841 42775 12604 10265 20098 39833 40185 57011 81100 333 81856;
0208118410999992000060318004+49230+018620FM-12+031599999V0202601N002012200019N0250001N1+02291+01341101851ADDAA199000091GA1011+030009079GF101991011001999999031001KA1120M+02661MA1999999098291MD1510041+9999REMSYN082AAXX  03181 11841 32975 12602 10229 20134 39829 40185 55004 81030 333 10266 81360;EQDQ01  00002PRCP99
0143118410999992000060321004+49230+018620FM-12+031599999V0209999C000012200019N0250001N1+01491+01201102071ADDGA1001+999999999GF100991001001999999001001MA1999999098411MD1110121+9999REMSYN060AAXX  03211 11841 42975 00000 10149 20120 39841 40207 51012;
0183118410999992000060400004+49230+018620FM-12+031599999V0201101N001012200019N0200001N1+01221+01081102111ADDAA199000091GA1001+999999999GF100991001001999999001001MA1999999098411MD1010001+9999REMSYN070AAXX  04001 11841 32970 01101 10122 20108 39841 40211 50000 333 55144;EQDQ01  00002PRCP99
0143118410999992000060403004+49230+018620FM-12+031599999V0201301N001012200019N0120001N1+01101+01021102091ADDGA1001+999999999GF100991001001999999001001MA1999999098371MD1810041+9999REMSYN060AAXX  04031 11841 42962 01301 10110 20102 39837 40209 58004;
0220118410999992000060406004+49230+018620FM-12+031599999V0200801N001012200019N0200001N1+01711+01261101941ADDAA199000091GA1001+999999999GF100991001001999999001001IA1019IA2999+00809KA1120N+01061MA1999999098311MD1810061+9999REMSYN076AAXX  04061 11841 32970 00801 10171 20126 39831 40194 58006 333 20106 30008;EQDQ01  00002PRCP99
0159118410999992000060409004+49230+018620FM-12+031599999V0202601N003012200019N0300001N1+02501+01191101781ADDGA1011+069009019GF101991001001999999001011MA1999999098251MD1810061+9999REMSYN076AAXX  04091 11841 42980 12603 10250 20119 39825 40178 58006 80001 333 81073;
0189118410999992000060412004+49230+018620FM-12+031599999V0202601N006012200019N0300001N1+02771+00961101661ADDAA199000091GA1011+069009019GF101991001001999999001011MA1999999098161MD1610091+9999REMSYN076AAXX  04121 11841 32980 12606 10277 20096 39816 40166 56009 80001 333 81073;EQDQ01  00002PRCP99
0159118410999992000060415004+49230+018620FM-12+031599999V0202601N005012200019N0300001N1+02821+00951101551ADDGA1021+069009019GF102991001001999999001011MA1999999098061MD1810101+9999REMSYN076AAXX  04151 11841 42980 22605 10282 20095 39806 40155 58010 80001 333 82073;
0214118410999992000060418004+49230+018620FM-12+031599999V0202601N001012200019N0300001N1+02451+01401101631ADDAA199000091GA1011+039009039GF104991011001999999041011KA1120M+02831MA1999999098101MD1210041+9999REMSYN088AAXX  04181 11841 32980 42601 10245 20140 39810 40163 52004 81041 333 10283 81363 83073;EQDQ01  00002PRCP99
0178118410999992000060421004+49230+018620FM-12+031599999V0209999C000012200019N0300001N1+01621+01241101901ADDGA1011+015009059GF102991011051017501999011MA1999999098261MD1110161+9999REMSYN076AAXX  04211 11841 42780 20000 10162 20124 39826 40190 51016 81501 333 81650;EQDQ01    003SCOMCG
0203118410999992000060500004+49230+018620FM-12+031599999V0200801N001012200019N0180001N1+01361+01131101931ADDAA199000091GA1011+069009019GF101991001001999999001011GJ108349MA1999999098251MD1810011+9999REMSYN082AAXX  05001 11841 32968 10801 10136 20113 39825 40193 58001 80001 333 55139 81073;EQDQ01  00002PRCP99
0178118410999992000060503004+49230+018620FM-12+031599999V0200901N001012200019N0250001N1+01231+01071101911ADDGA1011+018009059GF102991011051017501999011MA1999999098221MD1610031+9999REMSYN076AAXX  05031 11841 42775 20901 10123 20107 39822 40191 56003 81501 333 81656;EQDQ01+000002SCOMCG
0238118410999992000060506004+49230+018620FM-12+031599999V0200801N001012200019N0250001N1+01831+01321101821ADDAA199000091GA1021+039009079GF102991021001999999041001IA1019IA2999+01009KA1120N+01211MA1999999098211MD1610011+9999REMSYN094AAXX  05061 11841 32975 20801 10183 20132 39821 40182 56001 82040 333 20121 30010 50472 82363;EQDQ01  00002PRCP99
0159118410999992000060509004+49230+018620FM-12+031599999V0209999C000012200019N0300001N1+02641+01211101621ADDGA1011+010809029GF101991011011012501001001MA1999999098111MD1710101+9999REMSYN076AAXX  05091 11841 42680 10000 10264 20121 39811 40162 57010 81100 333 81836;
0189118410999992000060512004+49230+018620FM-12+031599999V0202701N002012200019N0300001N1+02931+01311101421ADDAA199000091GA1021+015009029GF102991021021017501001001MA1999999097951MD1710161+9999REMSYN076AAXX  05121 11841 32780 22702 10293 20131 39795 40142 57016 82200 333 82850;EQDQ01  00002PRCP99
0159118410999992000060515004+49230+018620FM-12+031599999V0202601N003012200019N0300001N1+02971+01181101241ADDGA1011+018009029GF101991011021017501001001MA1999999097781MD1710171+9999REMSYN076AAXX  05151 11841 42780 12603 10297 20118 39778 40124 57017 81200 333 81856;
0208118410999992000060518004+49230+018620FM-12+031599999V0202101N002012200019N0300001N1+02671+01201101211ADDAA199000091GA1011+060009019GF101991001001999999001031KA1120M+03021MA1999999097721MD1710061+9999REMSYN082AAXX  05181 11841 32980 12102 10267 20120 39772 40121 57006 80003 333 10302 81070;EQDQ01  00002PRCP99
0143118410999992000060521004+49230+018620FM-12+031599999V0209999C000012200019N0150001N1+01741+01251101381ADDGA1001+999999999GF100991001001999999001001MA1999999097771MD1010051+9999REMSYN060AAXX  05211 11841 42965 00000 10174 20125 39777 40138 50005;
0183118410999992000060600004+49230+018620FM-12+031599999V0201301N001012200019N0100001N1+01411+01181101361ADDAA199000091GA1001+999999999GF100991001001999999001001MA1999999097711MD1810061+9999REMSYN070AAXX  06001 11841 32960 01301 10141 20118 39771 40136 58006 333 55146;EQDQ01  00002PRCP99
0159118410999992000060603004+49230+018620FM-12+031599999V0201201N001012200019N0150001N1+01211+01071101301ADDGA1011+036009079GF101991011001999999041001MA1999999097631MD1610081+9999REMSYN076AAXX  06031 11841 42965 11201 10121 20107 39763 40130 56008 81040 333 81362;
0281118410999992000060606004+49230+018620FM-12+031599999V0202701N00101036001CN0150001N1+01621+01311101201ADDAA112000791AY181061AY211061GA1011+012009099GA2011+015009089GF106991021031012501071001IA1019IA2999+01009KA1120N+01201MA1999999097591MD1810041+9999MW1171REMSYN118AAXX  06061 11841 11665 62701 10162 20131 39759 40120 58004 69902 71781 82370 333 20120 30010 50342 81940 81850 84358;
0193118410999992000060609004+49230+018620FM-12+031599999V0202601N003012200019N0250001N1+02521+01471101081ADDAY191031AY211031GA1011+015009089GF104991011021017501031011MA1999999097581MD1810011+9999MW1031REMSYN088AAXX  06091 11841 41775 42603 10252 20147 39758 40108 58001 70391 81231 333 81850 83358;
0223118410999992000060612004+49230+018620FM-12+031599999V0202401N00401036001CN0250001N1+02591+01591100991ADDAA199000091AY191061AY211061GA1021+018009089GF106991021021017501071001MA1999999097501MD1810081+9999MW1291REMSYN088AAXX  06121 11841 31775 62404 10259 20159 39750 40099 58008 72991 82270 333 82856 85360;EQDQ01  00002PRCP99
0193118410999992000060615004+49230+018620FM-12+031599999V0200501N00601036001CN0250001N1+02481+01651100911ADDAY191031AY211031GA1021+015009099GF106991041031017501031011MA1999999097411MD1610091+9999MW1171REMSYN088AAXX  06151 11841 41775 60506 10248 20165 39741 40091 56009 71791 84331 333 82950 82856;
0229118410999992000060618004+49230+018620FM-12+031599999V0201401N00101090001CN0200001N1+01931+01691101101ADDAA112000891AY191061AY281061GA1021+018009089GF105991021021017501031021KA1120M+02811MA1999999097531MD1110121+9999MW1011REMSYN100AAXX  06181 11841 11770 51401 10193 20169 39753 40110 51012 69982 70198 82232 333 10281 82856 83070;
0165118410999992000060621004+49230+018620FM-12+031599999V0201001N001010180019N0120001N1+01731+01581101261ADDGA1051+018009069GF107991051051017501071001MA1999999097661MD1110131+9999REMSYN082AAXX  06211 11841 42762 71001 10173 20158 39766 40126 51013 85570 333 85656 83362;
0128118410999992000060700004+49230+018620FM-12+031599999V0200801N001019999999N9999999N1+01671+01581101331ADDAA106007191MA1999999097721MD1210071+9999REMSYN076AAXX  07001 11841 16/// /0801 10167 20158 39772 40133 52007 60071 333 55077;
0159118410999992000060703004+49230+018620FM-12+031599999V0200301N001010072019N0200001N1+01381+01021101631ADDGA1071+007209059GF107991071051008001001001MA1999999097971MD1310251+9999REMSYN076AAXX  07031 11841 42570 70301 10138 20102 39797 40163 53025 87500 333 87624;
0259118410999992000060706004+49230+018620FM-12+031599999V0201101N001010078019N0200001N1+01291+01041101781ADDAA112009991AY191061AY281061GA1061+007809069GF108991061051008001021999IA1119IA2999+01309KA1120N+01261MA1999999098101MD1210131+9999MW1211REMSYN112AAXX  07061 11841 11570 81101 10129 20104 39810 40178 52013 60102 72198 8652/ 333 20126 32013 50342 86626 88459;
0215118410999992000060709004+49230+018620FM-12+031599999V0203101N001010111019N0250001N1+01401+01041101871ADDAY121031AY221031GA1021+003009079GA2051+011109069GF108991081051004501999999MA1999999098201MD1210101+9999MW1611REMSYN094AAXX  07091 11841 41475 83101 10140 20104 39820 40187 52010 76122 885// 333 82710 85637 88648;
0182118410999992000060712004+49230+018620FM-12+031599999V0201901N00101036001CN0250001N1+01761+00871101741ADDAA106000791GA1031+009909089GF106991031021008001031081MA1999999098121MD1810081+9999REMSYN088AAXX  07121 11841 12575 61901 10176 20087 39812 40174 58008 69901 83238 333 83833 86273;
0193118410999992000060715004+49230+018620FM-12+031599999V0202201N00201036001CN0250001N1+01701+01111101681ADDAY181031AY221031GA1011+012909089GF105991011021012501071001MA1999999098051MD1510071+9999MW1801REMSYN088AAXX  07151 11841 41675 52202 10170 20111 39805 40168 55007 78082 81270 333 81843 85358;
0229118410999992000060718004+49230+018620FM-12+031599999V0202701N003012200019N0300001N1+01551+00801101851ADDAA112000191AY181061AY211061GA1011+012609089GF103991011021012501061001KA1120M+02051MA1999999098201MD1110151+9999MW1011REMSYN100AAXX  07181 11841 11680 32703 10155 20080 39820 40185 51015 69922 70181 81260 333 10205 81842 83361;
0159118410999992000060721004+49230+018620FM-12+031599999V0209999C000012200019N0300001N1+01071+00911102171ADDGA1011+030009079GF101991011001999999031001MA1999999098451MD1310251+9999REMSYN076AAXX  07211 11841 42980 10000 10107 20091 39845 40217 53025 81030 333 81360;
0184118410999992000060800004+49230+018620FM-12+031599999V0203201N001012200019N0250001N1+00791+00721102331ADDAA199000021GA1011+036009079GF101991011001999999041001GJ102529MA1999999098561MD1110111+9999REMSYN082AAXX  08001 11841 32975 13201 10079 20072 39856 40233 51011 81040 333 55042 81362;
0187118410999992000060803004+49230+018620FM-12+031599999V0201101N001010009019N0012001N1+00701+00661102411ADDAY111031AY211031GA1081+000909069GF108991081061000751999999MA1999999098631MD1210071+9999MW1101REMSYN082AAXX  08031 11841 41112 81101 10070 20066 39863 40241 52007 71011 886// 333 88703;
0266118410999992000060806004+49230+018620FM-12+031599999V0200701N001012200019N0080001N1+01111+00871102421ADDAA199000091AY141061AY211061GA1011+000609069GF101991011061000751001001IA1099IA2999+00509KA1120N+00641MA1999999098691MD1110061+9999MW1101REMSYN100AAXX  08061 11841 31158 10701 10111 20087 39869 40242 51006 71041 81600 333 20064 31005 50272 81702;EQDQ01  00002PRCP99
0159118410999992000060809004+49230+018620FM-12+031599999V0201301N001012200019N0300001N1+01741+00541102311ADDGA1031+011109029GF104991031021012501001011MA1999999098661MD1810031+9999REMSYN076AAXX  08091 11841 42680 41301 10174 20054 39866 40231 58003 83201 333 83837;
0189118410999992000060812004+49230+018620FM-12+031599999V0202301N002012200019N0300001N1+01991+00631102141ADDAA199000091GA1031+015009029GF104991031021017501001011MA1999999098531MD1710131+9999REMSYN076AAXX  08121 11841 32780 42302 10199 20063 39853 40214 57013 83201 333 83850;EQDQ01  00002PRCP99
0165118410999992000060815004+49230+018620FM-12+031599999V0202101N001012200019N0400001N1+02141+00361101981ADDGA1011+018009089GF103991011011017501001011MA1999999098391MD1710141+9999REMSYN082AAXX  08151 11841 42782 32101 10214 20036 39839 40198 57014 81101 333 81856 83073;
0143118410999992000060821004+49230+018620FM-12+031599999V0201201N001012200019N0150001N1+01151+00801102301ADDGA1001+999999999GF100991001001999999001001MA1999999098581MD1210171+9999REMSYN060AAXX  08211 11841 42965 01201 10115 20080 39858 40230 52017;
0183118410999992000060900004+49230+018620FM-12+031599999V0201201N001012200019N0150001N1+00911+00701102361ADDAA199000091GA1001+999999999GF100991001001999999001001MA1999999098611MD1210031+9999REMSYN070AAXX  09001 11841 32965 01201 10091 20070 39861 40236 52003 333 55113;EQDQ01  00002PRCP99
0178118410999992000060903004+49230+018620FM-12+031599999V0201101N001012200019N0250001N1+00781+00641102361ADDGA1011+024009079GF101991011999999999041001MA1999999098591MD1510021+9999REMSYN076AAXX  09031 11841 42975 11101 10078 20064 39859 40236 55002 81040 333 81358;EQDQ01    003SCOLCG
0238118410999992000060906004+49230+018620FM-12+031599999V0200601N002010150019N0250001N1+01331+00861102321ADDAA199000091GA1051+015009059GF106991051051017501031001IA1099IA2999+00609KA1120N+00771MA1999999098621MD1110031+9999REMSYN094AAXX  09061 11841 32775 60602 10133 20086 39862 40232 51003 85530 333 20077 31006 50352 85650;EQDQ01  00002PRCP99
0159118410999992000060909004+49230+018620FM-12+031599999V0209999C000012200019N0250001N1+02131+00861102121ADDGA1011+013509029GF101991011011012501001001MA1999999098531MD1810091+9999REMSYN076AAXX  09091 11841 42675 10000 10213 20086 39853 40212 58009 81100 333 81845;
0189118410999992000060912004+49230+018620FM-12+031599999V0203601N001012200019N0250001N1+02451+00851101951ADDAA199000091GA1011+018009029GF101991011011017501001011MA1999999098401MD1810131+9999REMSYN076AAXX  09121 11841 32775 13601 10245 20085 39840 40195 58013 81101 333 81856;EQDQ01  00002PRCP99
0159118410999992000060915004+49230+018620FM-12+031599999V0202801N001012200019N0300001N1+02581+00961101761ADDGA1011+018009029GF101991011011022501001001MA1999999098231MD1710171+9999REMSYN076AAXX  09151 11841 42880 12801 10258 20096 39823 40176 57017 81100 333 81856;
0196118410999992000060918004+49230+018620FM-12+031599999V0203201N001012200019N0300001N1+02261+01391101741ADDAA199000091GA1001+999999999GF100991001001999999001001KA1999M+02651MA1999999098181MD1610051+9999REMSYN070AAXX  09181 11841 32980 03201 10226 20139 39818 40174 56005 333 10265;EQDQ01  00002PRCP99
0143118410999992000060921004+49230+018620FM-12+031599999V0201301N001012200019N0250001N1+01551+01211101971ADDGA1001+999999999GF100991001001999999001001MA1999999098321MD1110141+9999REMSYN060AAXX  09211 11841 42975 01301 10155 20121 39832 40197 51014;
0183118410999992000061000004+49230+018620FM-12+031599999V0200501N001012200019N0200001N1+01281+01101102031ADDAA199000091GA1001+999999999GF100991001001999999001001MA1999999098341MD1210021+9999REMSYN070AAXX  10001 11841 32970 00501 10128 20110 39834 40203 52002 333 55118;EQDQ01  00002PRCP99
0143118410999992000061003004+49230+018620FM-12+031599999V0200901N001012200019N0200001N1+01131+01001102011ADDGA1001+999999999GF100991001001999999001001MA1999999098301MD1510041+9999REMSYN060AAXX  10031 11841 42970 00901 10113 20100 39830 40201 55004;
0226118410999992000061006004+49230+018620FM-12+031599999V0200601N002012200019N0200001N1+01801+01221101931ADDAA199000091GA1001+999999999GF100991001001999999001001IA1099IA2999+00909KA1120N+01121MA1999999098311MD1010011+9999REMSYN082AAXX  10061 11841 32970 00602 10180 20122 39831 40193 50001 333 20112 31009 50252;EQDQ01  00002PRCP99
0143118410999992000061009004+49230+018620FM-12+031599999V0200201N001012200019N0200001N1+02581+01201101751ADDGA1001+999999999GF100991001001999999001001MA1999999098231MD1810081+9999REMSYN060AAXX  10091 11841 42970 00201 10258 20120 39823 40175 58008;
0189118410999992000061012004+49230+018620FM-12+031599999V0203301N001012200019N0250001N1+02911+01171101571ADDAA199000091GA1011+012909029GF101991011011012501001001MA1999999098091MD1710141+9999REMSYN076AAXX  10121 11841 32675 13301 10291 20117 39809 40157 57014 81100 333 81843;EQDQ01  00002PRCP99
0159118410999992000061015004+49230+018620FM-12+031599999V0202201N003012200019N0300001N1+02971+00981101431ADDGA1011+018009029GF101991011011017501001001MA1999999097961MD1710131+9999REMSYN076AAXX  10151 11841 42780 12203 10297 20098 39796 40143 57013 81100 333 81856;
0196118410999992000061018004+49230+018620FM-12+031599999V0203101N001012200019N0300001N1+02611+01581101451ADDAA199000091GA1001+999999999GF100991001001999999001001KA1999M+03061MA1999999097951MD1510011+9999REMSYN070AAXX  10181 11841 32980 03101 10261 20158 39795 40145 55001 333 10306;EQDQ01  00002PRCP99
0143118410999992000061021004+49230+018620FM-12+031599999V0209999C000012200019N0200001N1+01721+01331101731ADDGA1001+999999999GF100991001001999999001001MA1999999098111MD1110161+9999REMSYN060AAXX  10211 11841 42970 00000 10172 20133 39811 40173 51016;
0183118410999992000061100004+49230+018620FM-12+031599999V0209999C000012200019N0200001N1+01401+01131101761ADDAA199000091GA1001+999999999GF100991001001999999001001MA1999999098101MD1810011+9999REMSYN070AAXX  11001 11841 32970 00000 10140 20113 39810 40176 58001 333 55150;EQDQ01  00002PRCP99
0143118410999992000061103004+49230+018620FM-12+031599999V0200701N001012200019N0150001N1+01191+01061101791ADDGA1001+999999999GF100991001001999999001001MA1999999098101MD1410001+9999REMSYN060AAXX  11031 11841 42965 00701 10119 20106 39810 40179 54000;
0238118410999992000061106004+49230+018620FM-12+031599999V0200501N001012200019N0300001N1+01951+01301101731ADDAA199000091GA1011+066009019GF101991001001999999001011IA1019IA2999+00909KA1120N+01191MA1999999098141MD1310041+9999REMSYN094AAXX  11061 11841 32980 10501 10195 20130 39814 40173 53004 80001 333 20119 30009 50342 81072;EQDQ01  00002PRCP99
0159118410999992000061109004+49230+018620FM-12+031599999V0202601N001012200019N0400001N1+02861+01371101571ADDGA1011+013209029GF101991011011012501001011MA1999999098091MD1810051+9999REMSYN076AAXX  11091 11841 42682 12601 10286 20137 39809 40157 58005 81101 333 81844;
0189118410999992000061112004+49230+018620FM-12+031599999V0202101N003012200019N0400001N1+03051+01101101451ADDAA199000091GA1031+018009029GF103991031011017501001001MA1999999097991MD1710101+9999REMSYN076AAXX  11121 11841 32782 32103 10305 20110 39799 40145 57010 83100 333 83856;EQDQ01  00002PRCP99
0101118410999992000061115004+49230+018620FM-12+031599999V0202101N002019999999N9999999N1+03101+01011101351ADDMA1999999097901MD1710111+9999REMSYN060AAXX  11151 11841 46/// /2102 10310 20101 39790 40135 57011;
0224118410999992000061118004+49230+018620FM-12+031599999V0201801N002012200019N0400001N1+02841+01151101351ADDAA199000091GA1011+024009079GF101991011999022501061001KA1120M+03161MA1999999097871MD1610031+9999REMSYN082AAXX  11181 11841 32882 11802 10284 20115 39787 40135 56003 81060 333 10316 81358;EQDQ01  00002PRCP99Q02    003SCOLCG
0143118410999992000061121004+49230+018620FM-12+031599999V0209999C000012200019N0250001N1+01961+01421101631ADDGA1001+999999999GF100991001001999999001001MA1999999098041MD1310171+9999REMSYN060AAXX  11211 11841 42975 00000 10196 20142 39804 40163 53017;
0183118410999992000061200004+49230+018620FM-12+031599999V0200401N001012200019N0150001N1+01581+01381101751ADDAA199000091GA1001+999999999GF100991001001999999001001MA1999999098111MD1210071+9999REMSYN070AAXX  12001 11841 32965 00401 10158 20138 39811 40175 52007 333 55133;EQDQ01  00002PRCP99
0159118410999992000061203004+49230+018620FM-12+031599999V0209999C000012200019N0150001N1+01481+01301101871ADDGA1011+069009019GF101991001001999999001011MA1999999098211MD1310101+9999REMSYN076AAXX  12031 11841 42965 10000 10148 20130 39821 40187 53010 80001 333 81073;
0238118410999992000061206004+49230+018620FM-12+031599999V0209999C000012200019N0200001N1+02071+01501101891ADDAA199000091GA1021+030009079GF102991021001999999031001IA1019IA2999+01209KA1120N+01431MA1999999098311MD1110101+9999REMSYN094AAXX  12061 11841 32970 20000 10207 20150 39831 40189 51010 82030 333 20143 30012 50402 82360;EQDQ01  00002PRCP99
0159118410999992000061209004+49230+018620FM-12+031599999V0202601N004012200019N0200001N1+02811+01581101911ADDGA1011+009009029GF101991011021008001001001MA1999999098411MD1210101+9999REMSYN076AAXX  12091 11841 42570 12604 10281 20158 39841 40191 52010 81200 333 81830;
0189118410999992000061212004+49230+018620FM-12+031599999V0202401N004012200019N0200001N1+03031+01521101931ADDAA199000091GA1021+012909029GF102991021021012501001001MA1999999098461MD1110051+9999REMSYN076AAXX  12121 11841 32670 22404 10303 20152 39846 40193 51005 82200 333 82843;EQDQ01  00002PRCP99
0165118410999992000061215004+49230+018620FM-12+031599999V0202501N003012200019N0200001N1+03091+01581101951ADDGA1011+013809099GF103991031031012501001031MA1999999098481MD1210021+9999REMSYN082AAXX  12151 11841 42670 32503 10309 20158 39848 40195 52002 83303 333 81946 82850;
0208118410999992000061218004+49230+018620FM-12+031599999V0200601N002012200019N0200001N1+02541+01861102161ADDAA199000091GA1011+069009019GF101991001001999999001031KA1120M+03121MA1999999098631MD1210151+9999REMSYN082AAXX  12181 11841 32970 10602 10254 20186 39863 40216 52015 80003 333 10312 81073;EQDQ01  00002PRCP99
0143118410999992000061221004+49230+018620FM-12+031599999V0209999C000012200019N0150001N1+02051+01751102431ADDGA1001+999999999GF100991001001999999001001MA1999999098831MD1110201+9999REMSYN060AAXX  12211 11841 42965 00000 10205 20175 39883 40243 51020;
0183118410999992000061300004+49230+018620FM-12+031599999V0201301N001012200019N0150001N1+01811+01641102541ADDAA199000091GA1001+999999999GF100991001001999999001001MA1999999098911MD1110081+9999REMSYN070AAXX  13001 11841 32965 01301 10181 20164 39891 40254 51008 333 55129;EQDQ01  00002PRCP99
0159118410999992000061303004+49230+018620FM-12+031599999V0201401N001012200019N0150001N1+01641+01511102611ADDGA1011+069009019GF101991001001999999001011MA1999999098951MD1310041+9999REMSYN076AAXX  13031 11841 42965 11401 10164 20151 39895 40261 53004 80001 333 81073;
0226118410999992000061306004+49230+018620FM-12+031599999V0201001N001012200019N0150001N1+02221+01581102531ADDAA199000091GA1001+999999999GF100991001001999999001001IA1019IA2999+01409KA1120N+01611MA1999999098941MD1810011+9999REMSYN082AAXX  13061 11841 32965 01001 10222 20158 39894 40253 58001 333 20161 30014 50312;EQDQ01  00002PRCP99
0143118410999992000061309004+49230+018620FM-12+031599999V0203101N001012200019N0150001N1+02741+01611102371ADDGA1001+999999999GF100991001001999999001001MA1999999098851MD1810091+9999REMSYN060AAXX  13091 11841 42965 03101 10274 20161 39885 40237 58009;
0189118410999992000061312004+49230+018620FM-12+031599999V0202501N003012200019N0200001N1+03111+01391102181ADDAA199000091GA1011+018009029GF101991011021017501001001MA1999999098711MD1810141+9999REMSYN076AAXX  13121 11841 32770 12503 10311 20139 39871 40218 58014 81200 333 81856;EQDQ01  00002PRCP99
0159118410999992000061315004+49230+018620FM-12+031599999V0202501N003012200019N0200001N1+03161+01481102001ADDGA1021+018009029GF103991021021017501001021MA1999999098541MD1710171+9999REMSYN076AAXX  13151 11841 42770 32503 10316 20148 39854 40200 57017 82202 333 82856;
0214118410999992000061318004+49230+018620FM-12+031599999V0202401N002012200019N0200001N1+02841+01911102011ADDAA199000091GA1011+018009099GF104991011091017501001021KA1120M+03251MA1999999098521MD1510021+9999REMSYN088AAXX  13181 11841 32770 42402 10284 20191 39852 40201 55002 81902 333 10325 81956 83070;EQDQ01  00002PRCP99
0159118410999992000061321004+49230+018610FM-12+031599999V0209999C000012200019N0150001N1+02141+01721102141ADDGA1031+060009019GF103991001001999999001021MA1999999098561MD1010041+9999REMSYN076AAXX  13211 11841 42965 30000 10214 20172 39856 40214 50004 80002 333 83070;
0219118410999992000061400004+49230+018610FM-12+031599999V0201001N002010600019N0100001N1+01931+01691102121ADDAA199000091GA1051+060009089GF105991999001999999001081GJ107629MA1999999098511MD1710051+9999REMSYN082AAXX  14001 11841 32960 51002 10193 20169 39851 40212 57005 80008 333 55127 85270;EQDQ01+000002SCOTLCQ02  00002PRCP99
0165118410999992000061403004+49230+018610FM-12+031599999V0200301N00201036001CN0150001N1+01841+01671102121ADDGA1011+015009069GF107991011051017501071081MA1999999098501MD1510011+9999REMSYN082AAXX  14031 11841 42765 70302 10184 20167 39850 40212 55001 81578 333 81650 86273;
0238118410999992000061406004+49230+018610FM-12+031599999V0201001N00101036001CN0200001N1+02261+01711102021ADDAA199000091GA1031+015009059GF106991031051017501031011IA1019IA2999+01609KA1120N+01821MA1999999098461MD1810041+9999REMSYN094AAXX  14061 11841 32770 61001 10226 20171 39846 40202 58004 83531 333 20182 30016 50362 83650;EQDQ01  00002PRCP99
0101118410999992000061409004+49230+018610FM-12+031599999V0209999V001019999999N9999999N1+02931+01581101801ADDMA1999999098331MD1710161+9999REMSYN060AAXX  14091 11841 46/// /9901 10293 20158 39833 40180 57016;
0221118410999992000061412004+49230+018610FM-12+031599999V0201401N004012200019N0300001N1+02851+01611101611ADDAA199000091GA1041+012909029GF105991041021012501001011MA1999999098131MD1710191+9999REMSYN076AAXX  14121 11841 32680 51404 10285 20161 39813 40161 50200 84201 333 84843;EQDQ01+000002APCTENQ02+002002APC3  Q03  00002PRCP99
0193118410999992000061415004+49230+018610FM-12+031599999V0201001N00201012001CN0150001N1+01881+01701101841ADDAY121031AY221031GA1021+012009099GF107991071091012501001001MA1999999098241MD1010111+9999MW1951REMSYN088AAXX  14151 11841 41665 71002 10188 20170 39824 40184 50011 79522 87900 333 82940 85845;
0229118410999992000061418004+49230+018610FM-12+031599999V0202701N00201012001CN0150001N1+01971+01841101731ADDAA112024991AY191061AY281061GA1021+012009099GF107991071091012501001001KA1120M+03071MA1999999098151MD1510091+9999MW1171REMSYN100AAXX  14181 11841 11665 72702 10197 20184 39815 40173 55009 60252 71798 87900 333 10307 82940 85845;
0101118410999992000061421004+49230+018610FM-12+031599999V0209999V002019999999N9999999N1+01691+01521101851ADDMA1999999098231MD1210091+9999REMSYN060AAXX  14211 11841 46/// /9902 10169 20152 39823 40185 52009;
0218118410999992000061500004+49230+018610FM-12+031599999V0203601N002012200019N0100001N1+01601+01521101801ADDAA106000191AY191061AY291061GA1021+013809059GF102991021051012501001001GJ102709MA1999999098161MD1710081+9999MW1021REMSYN094AAXX  15001 11841 11660 23602 10160 20152 39816 40180 57008 69911 70299 82500 333 55045 82646;
0193118410999992000061503004+49230+018610FM-12+031599999V0209999C000012200019N0040001N1+01601+01521101761ADDAY111031AY211031GA1011+001209079GF105991041051001501001011MA1999999098131MD1810031+9999MW1101REMSYN088AAXX  15031 11841 41240 50000 10160 20152 39813 40176 58003 71011 84501 333 81704 84643;
0253118410999992000061506004+49230+018610FM-12+031599999V0209999C000010360019N0035001N1+01861+01571101731ADDAA112000191AY111061AY211061GA1031+001509069GF105991031061001501031011IA1099IA2999+01409KA1120N+01571MA1999999098131MD1510001+9999MW1101REMSYN106AAXX  15061 11841 11235 50000 10186 20157 39813 40173 55000 69912 71011 83631 333 20157 31014 50342 83705;
0159118410999992000061509004+49230+018610FM-12+031599999V0202501N003010360019N0250001N1+02431+01711101541ADDGA1031+009009029GF105991031021008001031011MA1999999098021MD1610111+9999REMSYN076AAXX  15091 11841 42575 52503 10243 20171 39802 40154 56011 83231 333 83830;
0210118410999992000061512004+49230+018610FM-12+031599999V0203001N00301007501CN0150001N1+02281+01681101411ADDAA106000191AY191061AY221061GA1021+008109099GF106991051031008001031021MA1999999097871MD1710151+9999MW1801REMSYN094AAXX  15121 11841 11565 63003 10228 20168 39787 40141 57015 69921 78092 85332 333 82927 82833;
0215118410999992000061515004+49230+018610FM-12+031599999V0203201N003010210019N0150001N1+01911+01631101531ADDAY191031AY281031GA1031+015009089GA2041+021009039GF107991031021017501071001MA1999999097941MD1310071+9999MW1251REMSYN094AAXX  15151 11841 41765 73203 10191 20163 39794 40153 53007 72598 83270 333 83850 84357 91009;
0223118410999992000061518004+49230+018610FM-12+031599999V0203401N001010270019N0150001N1+01861+01531101411ADDAA112002091AY191061AY281061GA1071+027009079GF107991071001999999071001KA1120M+02621MA1999999097821MD1710121+9999MW1031REMSYN094AAXX  15181 11841 11965 73401 10186 20153 39782 40141 57012 60022 70398 87070 333 10262 87359;
0101118410999992000061521004+49230+018610FM-12+031599999V0209999C000019999999N9999999N1+01521+01381101671ADDMA1999999098031MD1210211+9999REMSYN060AAXX  15211 11841 46/// /0000 10152 20138 39803 40167 52021;
0128118410999992000061600004+49230+018610FM-12+031599999V0203001N001019999999N9999999N1+01401+01161101771ADDAA106005191MA1999999098111MD1210091+9999REMSYN076AAXX  16001 11841 16/// /3001 10140 20116 39811 40177 52009 60051 333 55066;
0187118410999992000061603004+49230+018610FM-12+031599999V0203501N001010081019N0150001N1+01201+00881101901ADDAY161031AY221031GA1051+008109059GF106991051051008001071001MA1999999098201MD1210091+9999MW1011REMSYN082AAXX  16031 11841 41565 63501 10120 20088 39820 40190 52009 70162 85570 333 85627;
0253118410999992000061606004+49230+018610FM-12+031599999V0203401N002012200019N0200001N1+01331+00711101921ADDAA112005191AY161061AY211061GA1021+009009029GF103991021021008001031001IA1099IA2999+01009KA1120N+01141MA1999999098241MD1210041+9999MW1021REMSYN106AAXX  16061 11841 11570 33402 10133 20071 39824 40192 52004 60052 70261 82230 333 20114 31010 50322 82830;
0159118410999992000061609004+49230+018610FM-12+031599999V0200201N003010360019N0250001N1+01561+00551101941ADDGA1021+012009029GF105991041081012501031001MA1999999098281MD1310041+9999REMSYN076AAXX  16091 11841 42675 50203 10156 20055 39828 40194 53004 84830 333 82840;
0204118410999992000061612004+49230+018610FM-12+031599999V0202801N005012200019N0250001N1+01761+00621101841ADDAA106000391AY181061AY211061GA1021+012009029GF103991021021012501031001MA1999999098211MD1810071+9999MW1251REMSYN088AAXX  16121 11841 11675 32805 10176 20062 39821 40184 58007 69931 72581 82230 333 82840;
0165118410999992000061615004+49230+018610FM-12+031599999V0203501N003010180019N0250001N1+01511+00451101921ADDGA1021+015009089GF106991051081017501031001MA1999999098261MD1310051+9999REMSYN082AAXX  16151 11841 42775 63503 10151 20045 39826 40192 53005 85830 333 82850 83656;
0141118410999992000061618004+49230+018610FM-12+031599999V0209999V001019999999N9999999N1+01341+00541102041ADDAA112000391KA1999M+01801MA1999999098361MD1210121+9999REMSYN076AAXX  16181 11841 16/// /9901 10134 20054 39836 40204 52012 69932 333 10180;
0187118410999992000061621004+49230+018610FM-12+031599999V0203301N001012200019N0200001N1+01081+00361102241ADDAY161031AY211031GA1011+018009059GF103991011051017501031001MA1999999098511MD1110151+9999MW1211REMSYN082AAXX  16211 11841 41770 33301 10108 20036 39851 40224 51015 72161 81530 333 81656;
0193118410999992000061700004+49230+018610FM-12+031599999V0203001N001012200019N0200001N1+00731+00501102301ADDAA106000791AY161061AY211061GF103991021021017501031001MA1999999098521MD1210011+9999MW1021REMSYN093AAXX  17001 11841 11770 33001 10073 20050 39852 40230 52001 69901 70261 82230 33 55058 82856;
0193118410999992000061703004+49230+018610FM-12+031599999V0203601N00101012001CN0200001N1+00611+00501102361ADDAY161031AY211031GA1031+010809069GF107991071051012501999999MA1999999098571MD1310051+9999MW1601REMSYN088AAXX  17031 11841 41670 73601 10061 20050 39857 40236 53005 76061 875// 333 83636 87650;
0259118410999992000061706004+49230+018610FM-12+031599999V0202401N00301012001CN0200001N1+00871+00601102471ADDAA112002091AY161061AY211061GA1031+007509089GF107991071081008001001001IA1099IA2999+00409KA1120N+00551MA1999999098711MD1310141+9999MW1601REMSYN112AAXX  17061 11841 11570 72403 10087 20060 39871 40247 53014 60022 76061 87800 333 20055 31004 50302 83825 87636;
0187118410999992000061709004+49230+018610FM-12+031599999V0200101N003012200019N0250001N1+01151+00621102591ADDAY161031AY221031GA1031+009009029GF104991031021008001061001MA1999999098861MD1110151+9999MW1211REMSYN082AAXX  17091 11841 41575 40103 10115 20062 39886 40259 51015 72162 83260 333 83830;
0204118410999992000061712004+49230+018610FM-12+031599999V0200601N002012200019N0250001N1+01341+00561102631ADDAA106001091AY181061AY261061GA1031+010809029GF104991031021012501031001MA1999999098921MD1110061+9999MW1011REMSYN088AAXX  17121 11841 11675 40602 10134 20056 39892 40263 51006 60011 70186 83230 333 83836;
0159118410999992000061715004+49230+018610FM-12+031599999V0203501N004012200019N0300001N1+01621+00231102591ADDGA1031+012909029GF103991031021012501001001MA1999999098911MD1510011+9999REMSYN076AAXX  17151 11841 42680 33504 10162 20023 39891 40259 55001 83200 333 83843;
0229118410999992000061718004+49230+018610FM-12+031599999V0203401N001012200019N0300001N1+01301+00611102751ADDAA112002091AY181061AY201061GA1011+018009089GF103991031081017501001001KA1120M+01681MA1999999099031MD1310121+9999MW1251REMSYN100AAXX  17181 11841 11780 33401 10130 20061 39903 40275 53012 60022 72580 83800 333 10168 81856 83657;
0159118410999992000061721004+49230+018610FM-12+031599999V0209999C000012200019N0300001N1+00791+00571102991ADDGA1011+030009079GF101991011001999999031001MA1999999099201MD1110171+9999REMSYN076AAXX  17211 11841 42980 10000 10079 20057 39920 40299 51017 81030 333 81360;
0184118410999992000061800004+49230+018610FM-12+031599999V0209999C000012200019N0300001N1+00581+00481103071ADDAA199000021GA1011+060009019GF101991001001999999001011GJ104269MA1999999099241MD1310041+9999REMSYN082AAXX  18001 11841 32980 10000 10058 20048 39924 40307 53004 80001 333 55071 81070;
0159118410999992000061803004+49230+018610FM-12+031599999V0209999C000012200019N0120001N1+00401+00331103091ADDGA1041+001209069GF105991041061001501001011MA1999999099241MD1510001+9999REMSYN076AAXX  18031 11841 42262 50000 10040 20033 39924 40309 55000 84601 333 84704;
0247118410999992000061806004+49230+018610FM-12+031599999V0200501N001010015019N0008001N1+00801+00651103041ADDAA199000021AY111061AY211061GA1061+001509069GF106991061061001501001001IA1099IA2999+00309KA1120N+00391MA1999999099251MD1010011+9999MW1421REMSYN100AAXX  18061 11841 31208 60501 10080 20065 39925 40304 50001 74211 86600 333 20039 31003 50332 86705;
0193118410999992000061809004+49230+018610FM-12+031599999V0203001N00101012001CN0300001N1+01551+00751102871ADDAY141031AY241031GA1041+009609089GF107991071081008001001001MA1999999099181MD1710071+9999MW1031REMSYN088AAXX  18091 11841 41580 73001 10155 20075 39918 40287 57007 70344 87800 333 84832 86650;
0223118410999992000061812004+49230+018610FM-12+031599999V0200101N00301015001CN0300001N1+01801+00421102681ADDAA199000091AY141061AY241061GA1031+014409089GF107991061081012501001011MA1999999099021MD1710161+9999MW1031REMSYN088AAXX  18121 11841 31680 70103 10180 20042 39902 40268 57016 70344 86801 333 83848 86656;EQDQ01  00002PRCP99
0165118410999992000061815004+49230+018610FM-12+031599999V0203601N002010180019N0300001N1+01781+00511102661ADDGA1021+015009089GF106991051081017501031001MA1999999099001MD1710021+9999REMSYN082AAXX  18151 11841 42780 63602 10178 20051 39900 40266 57002 85830 333 82850 84656;
0208118410999992000061818004+49230+018610FM-12+031599999V0200801N002012200019N0300001N1+01611+00731102671ADDAA199000091GA1031+030009079GF104991031001999999031011KA1120M+01921MA1999999098991MD1510011+9999REMSYN082AAXX  18181 11841 32980 40802 10161 20073 39899 40267 55001 83031 333 10192 83360;EQDQ01  00002PRCP99
0178118410999992000061821004+49230+018610FM-12+031599999V0201501N001012200019N0300001N1+01031+00741102871ADDGA1021+018009059GF102991021051017501999001MA1999999099111MD1210121+9999REMSYN076AAXX  18211 11841 42780 21501 10103 20074 39911 40287 52012 82500 333 82656;EQDQ01+000002SCOMCG
0183118410999992000061900004+49230+018610FM-12+031599999V0201301N001012200019N0250001N1+00771+00621102901ADDAA199000091GA1001+999999999GF100991001001999999001001MA1999999099111MD1010001+9999REMSYN070AAXX  19001 11841 32975 01301 10077 20062 39911 40290 50000 333 55069;EQDQ01  00002PRCP99
0143118410999992000061903004+49230+018610FM-12+031599999V0209999C000012200019N0300001N1+00611+00521102931ADDGA1001+999999999GF100991001001999999001001MA1999999099111MD1510001+9999REMSYN060AAXX  19031 11841 42980 00000 10061 20052 39911 40293 55000;
0238118410999992000061906004+49230+018610FM-12+031599999V0200601N002012200019N0250001N1+01231+00821102821ADDAA199000091GA1011+069009019GF101991001001999999001011IA1099IA2999+00509KA1120N+00601MA1999999099091MD1810021+9999REMSYN094AAXX  19061 11841 32975 10602 10123 20082 39909 40282 58002 80001 333 20060 31005 50302 81073;EQDQ01  00002PRCP99
0159118410999992000061909004+49230+018610FM-12+031599999V0202501N004012200019N0400001N1+01931+00801102591ADDGA1011+011409029GF101991011011012501001011MA1999999098961MD1710131+9999REMSYN076AAXX  19091 11841 42682 12504 10193 20080 39896 40259 57013 81101 333 81838;
0131118410999992000061912004+49230+018610FM-12+031599999V0202401N003019999999N9999999N1+02211+00741102341ADDAA199000091MA1999999098751MD1710241+9999REMSYN060AAXX  19121 11841 36/// /2403 10221 20074 39875 40234 57024;EQDQ01  00002PRCP99
0159118410999992000061915004+49230+018610FM-12+031599999V0202401N004012200019N0500001N1+02411+00891102131ADDGA1021+018009029GF102991021011017501041011MA1999999098571MD1610181+9999REMSYN076AAXX  19151 11841 42784 22404 10241 20089 39857 40213 56018 82141 333 82856;
0224118410999992000061918004+49230+018610FM-12+031599999V0203201N002012200019N0500001N1+02151+01181102071ADDAA199000091GA1011+021009079GF101991011999022501061011KA1120M+02441MA1999999098491MD1610081+9999REMSYN082AAXX  19181 11841 32884 13202 10215 20118 39849 40207 56008 81061 333 10244 81357;EQDQ01+000002SCOLCGQ02  00002PRCP99
0159118410999992000061921004+49230+018610FM-12+031599999V0209999C000012200019N0150001N1+01401+01081102241ADDGA1011+060009019GF101991001001999999001011MA1999999098561MD1010071+9999REMSYN076AAXX  19211 11841 42965 10000 10140 20108 39856 40224 50007 80001 333 81070;
0183118410999992000062000004+49230+018610FM-12+031599999V0209999C000012200019N0100001N1+01111+00981102261ADDAA199000091GA1001+999999999GF100991001001999999001001MA1999999098541MD1810021+9999REMSYN070AAXX  20001 11841 32960 00000 10111 20098 39854 40226 58002 333 55140;EQDQ01  00002PRCP99
0187118410999992000062003004+49230+018610FM-12+031599999V0209999C000012200019N0250001N1+01001+00911102221ADDAY101031AY201031GA1011+060009019GF101991001001999999001011MA1999999098491MD1610051+9999MW1111REMSYN082AAXX  20031 11841 41975 10000 10100 20091 39849 40222 56005 71100 80001 333 81070;
0226118410999992000062006004+49230+018610FM-12+031599999V0200601N002012200019N0250001N1+01621+01201102141ADDAA199000091GA1001+999999999GF100991001001999999001001IA1099IA2999+00809KA1120N+01001MA1999999098491MD1510001+9999REMSYN082AAXX  20061 11841 32975 00602 10162 20120 39849 40214 55000 333 20100 31008 50302;EQDQ01  00002PRCP99
0159118410999992000062009004+49230+018610FM-12+031599999V0202201N001012200019N0250001N1+02461+01221101951ADDGA1011+063009019GF101991001001999999001011MA1999999098411MD1710081+9999REMSYN076AAXX  20091 11841 42975 12201 10246 20122 39841 40195 57008 80001 333 81071;
0189118410999992000062012004+49230+018610FM-12+031599999V0202901N001012200019N0250001N1+02781+00921101771ADDAA199000091GA1011+015009029GF101991011011017501001011MA1999999098271MD1710141+9999REMSYN076AAXX  20121 11841 32775 12901 10278 20092 39827 40177 57014 81101 333 81850;EQDQ01  00002PRCP99
0159118410999992000062015004+49230+018610FM-12+031599999V0202301N001012200019N0250001N1+02911+00651101601ADDGA1021+018009029GF102991021021017501001001MA1999999098111MD1710161+9999REMSYN076AAXX  20151 11841 42775 22301 10291 20065 39811 40160 57016 82200 333 82856;
0208118410999992000062018004+49230+018610FM-12+031599999V0209999C000012200019N0300001N1+02451+01181101611ADDAA199000091GA1021+027009079GF102991021001999999061001KA1120M+03061MA1999999098081MD1710031+9999REMSYN082AAXX  20181 11841 32980 20000 10245 20118 39808 40161 57003 82060 333 10306 82359;EQDQ01  00002PRCP99
0159118410999992000062021004+49230+018610FM-12+031599999V0201401N001012200019N0300001N1+01641+01221101841ADDGA1011+069009019GF101991001001999999001011MA1999999098201MD1110121+9999REMSYN076AAXX  20211 11841 42980 11401 10164 20122 39820 40184 51012 80001 333 81073;
0183118410999992000062100004+49230+018610FM-12+031599999V0209999C000012200019N0250001N1+01291+01081101851ADDAA199000091GA1001+999999999GF100991001001999999001001MA1999999098171MD1610031+9999REMSYN070AAXX  21001 11841 32975 00000 10129 20108 39817 40185 56003 333 55142;EQDQ01  00002PRCP99
0159118410999992000062103004+49230+018610FM-12+031599999V0209999C000012200019N0200001N1+01121+01001101811ADDGA1011+063009019GF101991001001999999001011MA1999999098111MD1610061+9999REMSYN076AAXX  21031 11841 42970 10000 10112 20100 39811 40181 56006 80001 333 81071;
0226118410999992000062106004+49230+018610FM-12+031599999V0200501N001012200019N0250001N1+01791+01281101681ADDAA199000091GA1001+999999999GF100991001001999999001001IA1019IA2999+00909KA1120N+01101MA1999999098071MD1810041+9999REMSYN082AAXX  21061 11841 32975 00501 10179 20128 39807 40168 58004 333 20110 30009 50262;EQDQ01  00002PRCP99
0159118410999992000062109004+49230+018610FM-12+031599999V0202601N001012200019N0400001N1+02671+01351101461ADDGA1011+010509029GF101991011011012501001001MA1999999097961MD1710111+9999REMSYN076AAXX  21091 11841 42682 12601 10267 20135 39796 40146 57011 81100 333 81835;
0189118410999992000062112004+49230+018610FM-12+031599999V0201801N001012200019N0500001N1+03211+01021101251ADDAA199000091GA1021+015009029GF102991021021017501001001MA1999999097811MD1710151+9999REMSYN076AAXX  21121 11841 32784 21801 10321 20102 39781 40125 57015 82200 333 82850;EQDQ01  00002PRCP99
0159118410999992000062115004+49230+018610FM-12+031599999V0202301N001012200019N0500001N1+03211+00961101141ADDGA1011+018009029GF101991011011022501001001MA1999999097711MD1810101+9999REMSYN076AAXX  21151 11841 42884 12301 10321 20096 39771 40114 58010 81100 333 81856;
0154118410999992000062118004+49230+018610FM-12+031599999V0202901N001019999999N9999999N1+02631+01361101201ADDAA199000091KA1999M+03241MA1999999097711MD1710021+9999REMSYN070AAXX  21181 11841 36/// /2901 10263 20136 39771 40120 57002 333 10324;EQDQ01  00002PRCP99
0101118410999992000062121004+49230+018610FM-12+031599999V0209999C000019999999N9999999N1+01731+01251101481ADDMA1999999097871MD1210181+9999REMSYN060AAXX  21211 11841 46/// /0000 10173 20125 39787 40148 52018;
0183118410999992000062200004+49230+018610FM-12+031599999V0201101N001012200019N0100001N1+01431+01151101581ADDAA199000091GA1001+999999999GF100991001001999999001001MA1999999097931MD1210061+9999REMSYN070AAXX  22001 11841 32960 01101 10143 20115 39793 40158 52006 333 55145;EQDQ01  00002PRCP99
0159118410999992000062203004+49230+018610FM-12+031599999V0200901N001012200019N0250001N1+01251+01091101661ADDGA1011+033009079GF101991011001999999041001MA1999999097981MD1310051+9999REMSYN076AAXX  22031 11841 42975 10901 10125 20109 39798 40166 53005 81040 333 81361;
0226118410999992000062206004+49230+018610FM-12+031599999V0200801N002012200019N0300001N1+01891+01201101581ADDAA199000091GA1001+999999999GF100991001001999999001001IA1019IA2999+01009KA1120N+01241MA1999999097981MD1010001+9999REMSYN082AAXX  22061 11841 32980 00802 10189 20120 39798 40158 50000 333 20124 30010 50362;EQDQ01  00002PRCP99
0159118410999992000062209004+49230+018610FM-12+031599999V0200201N001012200019N0300001N1+02841+01281101351ADDGA1011+012009029GF101991011011012501001001MA1999999097871MD1810111+9999REMSYN076AAXX  22091 11841 42680 10201 10284 20128 39787 40135 58011 81100 333 81840;
0189118410999992000062212004+49230+018610FM-12+031599999V0202401N004012200019N0300001N1+03301+01101101161ADDAA199000091GA1011+015009029GF101991011021017501001001MA1999999097741MD1810131+9999REMSYN076AAXX  22121 11841 32780 12404 10330 20110 39774 40116 58013 81200 333 81850;EQDQ01  00002PRCP99
0159118410999992000062215004+49230+018610FM-12+031599999V0202301N004012200019N0300001N1+03191+01171101081ADDGA1011+015009099GF103991021031017501001011MA1999999097651MD1710091+9999REMSYN076AAXX  22151 11841 42780 32304 10319 20117 39765 40108 57009 82301 333 81950;
0208118410999992000062218004+49230+018610FM-12+031599999V0209999C000012200019N0300001N1+02761+01561101161ADDAA199000091GA1011+018009029GF102991011021017501001011KA1120M+03351MA1999999097681MD1310031+9999REMSYN082AAXX  22181 11841 32780 20000 10276 20156 39768 40116 53003 81201 333 10335 81856;EQDQ01  00002PRCP99
0159118410999992000062221004+49230+018610FM-12+031599999V0209999C000012200019N0300001N1+01951+01481101391ADDGA1011+060009019GF101991001001999999001011MA1999999097811MD1110131+9999REMSYN076AAXX  22211 11841 42980 10000 10195 20148 39781 40139 51013 80001 333 81070;
0183118410999992000062300004+49230+018610FM-12+031599999V0200901N002012200019N0200001N1+01751+01441101491ADDAA199000091GA1001+999999999GF100991001001999999001001MA1999999097881MD1310071+9999REMSYN070AAXX  23001 11841 32970 00902 10175 20144 39788 40149 53007 333 55129;EQDQ01  00002PRCP99
0159118410999992000062303004+49230+018610FM-12+031599999V0200901N002012200019N0150001N1+01631+01401101421ADDGA1011+039009079GF102991011001999999041011MA1999999097801MD1710081+9999REMSYN076AAXX  23031 11841 42965 20902 10163 20140 39780 40142 57008 81041 333 81363;
0238118410999992000062306004+49230+018610FM-12+031599999V0200901N002012200019N0250001N1+02151+01581101271ADDAA199000091GA1011+069009019GF101991001001999999001011IA1019IA2999+01409KA1120N+01631MA1999999097721MD1610081+9999REMSYN094AAXX  23061 11841 32975 10902 10215 20158 39772 40127 56008 80001 333 20163 30014 50352 81073;EQDQ01  00002PRCP99
0159118410999992000062309004+49230+018610FM-12+031599999V0202501N002012200019N0400001N1+03001+01381101071ADDGA1011+010509029GF101991011011012501001091MA1999999097621MD1610101+9999REMSYN076AAXX  23091 11841 42682 12502 10300 20138 39762 40107 56010 81109 333 81835;
0195118410999992000062312004+49230+018610FM-12+031599999V0203501N005012200019N0300001N1+02921+01711101011ADDAA199000091GA1011+015009099GF104991041091017501001001MA1999999097561MD1710061+9999REMSYN082AAXX  23121 11841 32780 43505 10292 20171 39756 40101 57006 84900 333 81950 83650;EQDQ01  00002PRCP99
0193118410999992000062315004+49230+018610FM-12+031599999V0203501N00301012001CN0200001N1+02071+01691101431ADDAY181031AY211031GA1021+013509099GF106991061031012501001001MA1999999097871MD1310311+9999MW1291REMSYN088AAXX  23151 11841 41670 63503 10207 20169 39787 40143 53031 72981 86300 333 82945 84650;
0242118410999992000062318004+49230+018610FM-12+031599999V0209999C000010150019N0200001N1+01921+01321101661ADDAA112015091AY191061AY281061GA1071+015009059GF107991071051017501999001KA1120M+03211MA1999999098061MD1110191+9999MW1021REMSYN094AAXX  23181 11841 11770 70000 10192 20132 39806 40166 51019 60152 70298 87500 333 10321 87650;EQDQ01    003SCOMCG
0101118410999992000062321004+49230+018610FM-12+031599999V0201001N001019999999N9999999N1+01671+01481101681ADDMA1999999098061MD1210021+9999REMSYN060AAXX  23211 11841 46/// /1001 10167 20148 39806 40168 52002;
0212118410999992000062400004+49230+018610FM-12+031599999V0209999C000010150019N0100001N1+01591+01411101621ADDAA199000021AY121061AY221061GA1081+015009059GF108991081051017501999999GJ105109MA1999999097991MD1610141+9999MW1601REMSYN088AAXX  24001 11841 31760 80000 10159 20141 39799 40162 56014 76022 885// 333 55085 88650;
0193118410999992000062403004+49230+018610FM-12+031599999V0201201N00101036001CN0150001N1+01471+01361101541ADDAY161031AY221031GA1021+015009069GF107991021051017501071001MA1999999097891MD1810101+9999MW1211REMSYN088AAXX  24031 11841 41765 71201 10147 20136 39789 40154 58010 72162 82570 333 82650 87359;
0253118410999992000062406004+49230+018610FM-12+031599999V0201201N001010144019N0250001N1+01661+01221101441ADDAA112000191AY161061AY221061GA1071+014409059GF107991071051012501001001IA1099IA2999+01409KA1120N+01451MA1999999097821MD1710071+9999MW1021REMSYN106AAXX  24061 11841 11675 71201 10166 20122 39782 40144 57007 69922 70262 87500 333 20145 31014 50352 87648;
0165118410999992000062409004+49230+018610FM-12+031599999V0200801N005012200019N0300001N1+02001+01121101301ADDGA1011+015009089GF103991011011017501071001MA1999999097731MD1810091+9999REMSYN082AAXX  24091 11841 42780 30805 10200 20112 39773 40130 58009 81170 333 81850 83360;
0210118410999992000062412004+49230+018610FM-12+031599999V0202601N00101036001CN0350001N1+02131+01251101111ADDAA106000191AY181061AY211061GA1041+015009089GF107991041021017501071001MA1999999097561MD1610171+9999MW1251REMSYN094AAXX  24121 11841 11781 72601 10213 20125 39756 40111 56017 69911 72581 84270 333 84850 87359;
0215118410999992000062415004+49230+018610FM-12+031599999V0209999C000010150019N0300001N1+01771+01441101221ADDAY161031AY221031GA1021+006909089GA2061+015009069GF108991061081008001021999MA1999999097621MD1010061+9999MW1211REMSYN094AAXX  24151 11841 41580 80000 10177 20144 39762 40122 50006 72162 8682/ 333 82823 86650 88459;
0223118410999992000062418004+49230+018610FM-12+031599999V0200601N001012200019N0300001N1+01701+01391101191ADDAA112003091AY161061AY211061GA1031+036009079GF103991031001999999041001KA1120M+02201MA1999999097591MD1510031+9999MW1011REMSYN094AAXX  24181 11841 11980 30601 10170 20139 39759 40119 55003 60032 70161 83040 333 10220 83362;
0187118410999992000062421004+49230+018610FM-12+031599999V0201301N001012200019N0050001N1+01271+01181101231ADDAY101031AY201031GA1041+000909069GF104991041061001501001001MA1999999097571MD1710021+9999MW1101REMSYN082AAXX  24211 11841 41250 41301 10127 20118 39757 40123 57002 71000 84600 333 84703;
0184118410999992000062500004+49230+018610FM-12+031599999V0201301N001010015019N0150001N1+01251+01141101231ADDAA199000021GA1071+001509069GF107991071061001501001001GJ101149MA1999999097571MD1010001+9999REMSYN082AAXX  25001 11841 32265 71301 10125 20114 39757 40123 50000 87600 333 55019 87705;
0159118410999992000062503004+49230+018610FM-12+031599999V0209999C000010021019N0100001N1+01311+01181101241ADDGA1081+002109069GF108991081061002501999999MA1999999097581MD1010011+9999REMSYN076AAXX  25031 11841 42360 80000 10131 20118 39758 40124 50001 886// 333 88707;
0281118410999992000062506004+49230+018610FM-12+031599999V0201201N001010099019N0100001N1+01391+01231101231ADDAA112000191AY161061AY221061GA1031+001809079GA2051+009909069GF108991051051002501021999IA1099IA2999+01209KA1120N+01241MA1999999097581MD1510001+9999MW1601REMSYN118AAXX  25061 11841 11360 81201 10139 20123 39758 40123 55000 69922 76062 8552/ 333 20124 31012 50112 83706 85633 88459;
0215118410999992000062509004+49230+018610FM-12+031599999V0203201N002010069019N0100001N1+01361+01151101271ADDAY161031AY261031GA1041+003009079GA2061+006909069GF108991081051004501999999MA1999999097621MD1310041+9999MW1611REMSYN094AAXX  25091 11841 41460 83202 10136 20115 39762 40127 53004 76166 885// 333 84710 86623 88631;
0232118410999992000062512004+49230+018610FM-12+031599999V0200801N002010063019N0120001N1+01301+01071101341ADDAA106009991AY161061AY261061GA1031+001809079GA2061+006309069GF108991081051002501999999MA1999999097681MD1110061+9999MW1611REMSYN100AAXX  25121 11841 11362 80802 10130 20107 39768 40134 51006 60101 76166 885// 333 83706 86621 88650;
0215118410999992000062515004+49230+018610FM-12+031599999V0200201N003010063019N0150001N1+01381+00901101321ADDAY161031AY261031GA1021+003009079GA2051+006309069GF108991081051004501999999MA1999999097671MD1510011+9999MW1031REMSYN094AAXX  25151 11841 41465 80203 10138 20090 39767 40132 55001 70366 885// 333 82710 85621 88656;
0251118410999992000062518004+49230+018610FM-12+031599999V0209999C00001009901CN0120001N1+01261+01021101411ADDAA112009991AY161061AY221061GA1021+001809079GA2031+009909069GF106991031051002501071001KA1120M+01461MA1999999097741MD1110071+9999MW1601REMSYN106AAXX  25181 11841 11362 60000 10126 20102 39774 40141 51007 60102 76062 83570 333 10146 82706 83633 86358;
0193118410999992000062521004+49230+018610FM-12+031599999V0201401N001010360019N0100001N1+01081+00971101511ADDAY161031AY221031GA1011+003009079GF105991041051004501031001MA1999999097811MD1110071+9999MW1011REMSYN088AAXX  25211 11841 41460 51401 10108 20097 39781 40151 51007 70162 84530 333 81710 84640;
0224118410999992000062600004+49230+018610FM-12+031599999V0209999C00001001201CN0060001N1+01101+00991101591ADDAA106000791AY161061AY221061GA1031+001509079GF108991081061001501999999GJ100129MA1999999097891MD1210081+9999MW1101REMSYN100AAXX  26001 11841 11256 80000 10110 20099 39789 40159 52008 69901 71062 886// 333 55002 83705 88711;
0187118410999992000062603004+49230+018610FM-12+031599999V0209999C000010018019N0050001N1+01001+00891101661ADDAY121031AY221031GA1081+001809069GF108991081061002501999999MA1999999097951MD1310061+9999MW1101REMSYN082AAXX  26031 11841 41350 80000 10100 20089 39795 40166 53006 71022 886// 333 88706;
0253118410999992000062606004+49230+018610FM-12+031599999V0202801N001010042019N0080001N1+01171+00941101681ADDAA112000791AY121061AY221061GA1061+004209069GF107991061061004501031001IA1099IA2999+00909KA1120N+00981MA1999999097991MD1110041+9999MW1101REMSYN106AAXX  26061 11841 11458 72801 10117 20094 39799 40168 51004 69902 71022 86630 333 20098 31009 50142 86714;
0193118410999992000062609004+49230+018610FM-12+031599999V0202501N00301012001CN0180001N1+01491+01051101641ADDAY181031AY221031GA1031+007509089GF106991051081008001031001MA1999999097991MD1010001+9999MW1251REMSYN088AAXX  26091 11841 41568 62503 10149 20105 39799 40164 50000 72582 85830 333 83825 85650;
0204118410999992000062612004+49230+018610FM-12+031599999V0202401N00401015001CN0250001N1+01611+00951101541ADDAA106000791AY181061AY221061GA1041+012309029GF106991061081012501001001MA1999999097911MD1610081+9999MW1251REMSYN088AAXX  26121 11841 11675 62404 10161 20095 39791 40154 56008 69901 72582 86800 333 84841;
0193118410999992000062615004+49230+018610FM-12+031599999V0200101N00101015001CN0300001N1+01561+00761101641ADDAY181031AY211031GA1021+014409089GF106991051081012501061001MA1999999097991MD1310081+9999MW1011REMSYN088AAXX  26151 11841 41680 60101 10156 20076 39799 40164 53008 70181 85860 333 82848 83656;
0223118410999992000062618004+49230+018610FM-12+031599999V0200701N003012200019N0300001N1+01411+00971101691ADDAA112000191AY181061AY211061GA1021+013509029GF103991021021012501061001KA1120M+01891MA1999999098031MD1310041+9999MW1011REMSYN094AAXX  26181 11841 11680 30703 10141 20097 39803 40169 53004 69912 70181 82260 333 10189 82845;
0178118410999992000062621004+49230+018610FM-12+031599999V0203101N002012200019N0200001N1+00881+00721101931ADDGA1011+015009059GF101991011051017501999001MA1999999098191MD1110161+9999REMSYN076AAXX  26211 11841 42770 13102 10088 20072 39819 40193 51016 81500 333 81650;EQDQ01    003SCOMCG
0184118410999992000062700004+49230+018610FM-12+031599999V0209999C000010270019N0180001N1+00811+00701101921ADDAA199000021GA1051+027009079GF105991051001999999031001GJ102169MA1999999098171MD1810021+9999REMSYN082AAXX  27001 11841 32968 50000 10081 20070 39817 40192 58002 85030 333 55036 85359;
0187118410999992000062703004+49230+018610FM-12+031599999V0201401N001010021019N0050001N1+00821+00731101911ADDAY121031AY221031GA1071+002109069GF107991071061002501001001MA1999999098161MD1710011+9999MW1101REMSYN082AAXX  27031 11841 41350 71401 10082 20073 39816 40191 57001 71022 87600 333 87707;
0244118410999992000062706004+49230+018610FM-12+031599999V0200901N00101036001CN0150001N1+01081+00821101891ADDAA199000091GA1031+012909069GF106991031051012501031001IA1099IA2999+00709KA1120N+00771MA1999999098181MD1110021+9999REMSYN100AAXX  27061 11841 32665 60901 10108 20082 39818 40189 51002 83530 333 20077 31007 50302 83643 86359;EQDQ01  00002PRCP99
0165118410999992000062709004+49230+018610FM-12+031599999V0202701N00601012001CN0200001N1+01331+00311101841ADDGA1031+009009089GF107991071081008001001001MA1999999098161MD1510021+9999REMSYN082AAXX  27091 11841 42570 72706 10133 20031 39816 40184 55002 87800 333 83830 87656;
0210118410999992000062712004+49230+018610FM-12+031599999V0202701N00201012001CN0200001N1+01481+00391101731ADDAA106000791AY181061AY221061GA1021+009009089GF106991061081008001001001MA1999999098071MD1510091+9999MW1251REMSYN094AAXX  27121 11841 11570 62702 10148 20039 39807 40173 55009 69901 72582 86800 333 82830 84656;
0159118410999992000062715004+49230+018610FM-12+031599999V0202801N006012200019N0250001N1+01551+00091101671ADDGA1041+018009029GF104991041011017501001001MA1999999098021MD1510051+9999REMSYN076AAXX  27151 11841 42775 42806 10155 20009 39802 40167 55005 84100 333 84856;
0214118410999992000062718004+49230+018610FM-12+031599999V0202901N003012200019N0250001N1+01451+00041101701ADDAA112000791GA1041+018009059GF104991041051017501999001KA1120M+01691MA1999999098031MD1310011+9999REMSYN088AAXX  27181 11841 12775 42903 10145 20004 39803 40170 53001 69902 84500 333 10169 84656;EQDQ01+000002SCOMCG
0159118410999992000062721004+49230+018610FM-12+031599999V0202601N001012200019N0200001N1+00781+00381101881ADDGA1011+030009079GF101991011001999999031001MA1999999098121MD1110091+9999REMSYN076AAXX  27211 11841 42970 12601 10078 20038 39812 40188 51009 81030 333 81360;
0122118410999992000062800004+49230+018610FM-12+031599999V0209999C000019999999N9999999N1+00461+00351101881ADDAA199000021MA1999999098091MD1710031+9999REMSYN070AAXX  28001 11841 36/// /0000 10046 20035 39809 40188 57003 333 55050;
0159118410999992000062803004+49230+018610FM-12+031599999V0201201N001010300019N0150001N1+00601+00481101841ADDGA1061+030009079GF106991061001999999031001MA1999999098061MD1610061+9999REMSYN076AAXX  28031 11841 42965 61201 10060 20048 39806 40184 56006 86030 333 86360;
0254118410999992000062806004+49230+018610FM-12+031599999V0209999C000010210019N0150001N1+00911+00561101761ADDAA199000091GA1071+021009079GF107991071999022501031001IA1099IA2999+00209KA1120N+00421MA1999999098031MD1810031+9999REMSYN094AAXX  28061 11841 32865 70000 10091 20056 39803 40176 58003 87030 333 20042 31002 50402 87357;EQDQ01+000002SCOLCGQ02  00002PRCP99
0159118410999992000062809004+49230+018610FM-12+031599999V0202201N003012200019N0200001N1+01691+00251101541ADDGA1041+012909029GF104991041021012501061001MA1999999097911MD1810121+9999REMSYN076AAXX  28091 11841 42670 42203 10169 20025 39791 40154 58012 84260 333 84843;
0189118410999992000062812004+49230+018610FM-12+031599999V0202801N002010900019N0200001N1+01861+00401101321ADDAA199000091GA1041+015009029GF105991041021017501001021MA1999999097721MD1810191+9999REMSYN076AAXX  28121 11841 32770 52802 10186 20040 39772 40132 58019 84202 333 84850;EQDQ01  00002PRCP99
0159118410999992000062815004+49230+018610FM-12+031599999V0202701N004012200019N0250001N1+01901+00281101231ADDGA1031+018009029GF103991031021017501001011MA1999999097641MD1710081+9999REMSYN076AAXX  28151 11841 42775 32704 10190 20028 39764 40123 57008 83201 333 83856;
0208118410999992000062818004+49230+018610FM-12+031599999V0203501N001012200019N0250001N1+01661+00531101271ADDAA199000091GA1011+021009029GF102991011041022501061001KA1120M+01991MA1999999097651MD1310011+9999REMSYN082AAXX  28181 11841 32875 23501 10166 20053 39765 40127 53001 81460 333 10199 81857;EQDQ01  00002PRCP99
0159118410999992000062821004+49230+018610FM-12+031599999V0201501N002012200019N0300001N1+01001+00621101541ADDGA1041+036009079GF104991041001999999031001MA1999999097831MD1110181+9999REMSYN076AAXX  28211 11841 42980 41502 10100 20062 39783 40154 51018 84030 333 84362;
0203118410999992000062900004+49230+018610FM-12+031599999V0209999C000010300019N0250001N1+01011+00681101561ADDAA199000091GA1071+030009079GF107991071001999999031001GJ104689MA1999999097851MD1010021+9999REMSYN082AAXX  29001 11841 32975 70000 10101 20068 39785 40156 50002 87030 333 55078 87360;EQDQ01  00002PRCP99
0159118410999992000062903004+49230+018610FM-12+031599999V0201301N001012200019N0250001N1+00761+00521101561ADDGA1021+030009079GF102991021001999999031001MA1999999097811MD1610041+9999REMSYN076AAXX  29031 11841 42975 21301 10076 20052 39781 40156 56004 82030 333 82360;
0238118410999992000062906004+49230+018610FM-12+031599999V0202601N00201036001CN0300001N1+01161+00711101561ADDAA199000091GA1041+018009059GF105991041051017501031001IA1099IA2999+00609KA1120N+00681MA1999999097871MD1310061+9999REMSYN094AAXX  29061 11841 32780 52602 10116 20071 39787 40156 53006 84530 333 20068 31006 50352 84656;EQDQ01  00002PRCP99
0159118410999992000062909004+49230+018610FM-12+031599999V0202801N005010135019N0300001N1+01661+00301101461ADDGA1051+013509029GF105991051021012501001001MA1999999097831MD1610041+9999REMSYN076AAXX  29091 11841 42680 52805 10166 20030 39783 40146 56004 85200 333 85845;
0189118410999992000062912004+49230+018610FM-12+031599999V0202601N003010150019N0300001N1+01791+00381101391ADDAA199000091GA1061+015009029GF106991061021017501001001MA1999999097781MD1710051+9999REMSYN076AAXX  29121 11841 32780 62603 10179 20038 39778 40139 57005 86200 333 86850;EQDQ01  00002PRCP99
0159118410999992000062915004+49230+018610FM-12+031599999V0202701N004010180019N0300001N1+01841+00531101351ADDGA1051+018009029GF106991051021017501001011MA1999999097751MD1710031+9999REMSYN076AAXX  29151 11841 42780 62704 10184 20053 39775 40135 57003 85201 333 85856;
0208118410999992000062918004+49230+018610FM-12+031599999V0202801N003012200019N0300001N1+01691+00391101421ADDAA199000091GA1011+018009029GF104991031081017501001011KA1120M+01941MA1999999097801MD1110051+9999REMSYN082AAXX  29181 11841 32780 42803 10169 20039 39780 40142 51005 83801 333 10194 81856;EQDQ01  00002PRCP99
0178118410999992000062921004+49230+018610FM-12+031599999V0202801N001012200019N0300001N1+01081+00541101661ADDGA1011+018009059GF102991011051017501999011MA1999999097951MD1110151+9999REMSYN076AAXX  29211 11841 42780 22801 10108 20054 39795 40166 51015 81501 333 81656;EQDQ01+000002SCOMCG
0183118410999992000063000004+49230+018610FM-12+031599999V0209999C000012200019N0200001N1+00681+00461101721ADDAA199000091GA1001+999999999GF100991001001999999001001MA1999999097961MD1110011+9999REMSYN070AAXX  30001 11841 32970 00000 10068 20046 39796 40172 51001 333 55066;EQDQ01  00002PRCP99
0178118410999992000063003004+49230+018610FM-12+031599999V0201501N001012200019N0180001N1+00481+00361101711ADDGA1021+018009059GF102991021051017501999001MA1999999097921MD1510041+9999REMSYN076AAXX  30031 11841 42768 21501 10048 20036 39792 40171 55004 82500 333 82656;EQDQ01+000002SCOMCG
0248118410999992000063006004+49230+018610FM-12+031599999V0209999C000010240019N0200001N1+00971+00601101681ADDAA199000091GA1071+024009079GF107991071999999999031001IA1019IA2999+00209KA1120N+00471MA1999999097961MD1210041+9999REMSYN088AAXX  30061 11841 32970 70000 10097 20060 39796 40168 52004 87030 333 20047 30002 87358;EQDQ01  00002PRCP99Q02    003SCOLCG
0165118410999992000063009004+49230+018610FM-12+031599999V0202201N00301036001CN0200001N1+01491+00401101541ADDGA1021+014409089GF106991021021012501031001MA1999999097891MD1810071+9999REMSYN082AAXX  30091 11841 42670 62203 10149 20040 39789 40154 58007 82230 333 82848 86359;
0195118410999992000063012004+49230+018610FM-12+031599999V0202201N00501220001CN0250001N1+01811+00431101401ADDAA199000091GA1021+018009089GF105991021021017501001041MA1999999097791MD1810101+9999REMSYN082AAXX  30121 11841 32775 52205 10181 20043 39779 40140 58010 82204 333 82856 85070;EQDQ01  00002PRCP99
0159118410999992000063015004+49230+018610FM-12+031599999V0202201N002012200019N0400001N1+01941+00271101271ADDGA1031+021009029GF104991031021022501061001MA1999999097681MD1710111+9999REMSYN076AAXX  30151 11841 42882 42202 10194 20027 39768 40127 57011 83260 333 83857;
0208118410999992000063018004+49230+018610FM-12+031599999V0209999C000012200019N0350001N1+01761+00711101201ADDAA199000091GA1031+027009079GF103991031001999999031001KA1120M+01981MA1999999097601MD1610081+9999REMSYN082AAXX  30181 11841 32981 30000 10176 20071 39760 40120 56008 83030 333 10198 83359;EQDQ01  00002PRCP99
0159118410999992000063021004+49230+018610FM-12+031599999V0209999C000012200019N0300001N1+01051+00681101371ADDGA1031+036009079GF103991031001999999031001MA1999999097671MD1110071+9999REMSYN076AAXX  30211 11841 42980 30000 10105 20068 39767 40137 51007 83030 333 83362;
0203118410999992000070100004+49230+018610FM-12+031599999V0209999C000012200019N0300001N1+00811+00621101381ADDAA199000091GA1021+027009079GF102991021001999999031001GJ103609MA1999999097651MD1810021+9999REMSYN082AAXX  01001 11841 32980 20000 10081 20062 39765 40138 58002 82030 333 55060 82359;EQDQ01  00002PRCP99
0159118410999992000070103004+49230+018610FM-12+031599999V0209999C000010270019N0200001N1+00771+00621101381ADDGA1061+027009079GF106991061001999999031001MA1999999097641MD1510011+9999REMSYN076AAXX  01031 11841 42970 60000 10077 20062 39764 40138 55001 86030 333 86359;
0254118410999992000070106004+49230+018610FM-12+031599999V0200501N001012200019N0300001N1+01291+00901101361ADDAA199000091GA1011+018009059GF101991011051017501999001IA1019IA2999+00609KA1120N+00741MA1999999097691MD1110051+9999REMSYN094AAXX  01061 11841 32780 10501 10129 20090 39769 40136 51005 81500 333 20074 30006 50362 81656;EQDQ01+000002SCOMCGQ02  00002PRCP99
0159118410999992000070109004+49230+018610FM-12+031599999V0202201N005012200019N0300001N1+02101+00901101191ADDGA1011+013509029GF102991011011012501041011MA1999999097631MD1710061+9999REMSYN076AAXX  01091 11841 42680 22205 10210 20090 39763 40119 57006 81141 333 81845;
0189118410999992000070112004+49230+018610FM-12+031599999V0202401N006012200019N0300001N1+02431+00991101091ADDAA199000091GA1031+015009029GF103991031021017501001001MA1999999097571MD1710061+9999REMSYN076AAXX  01121 11841 32780 32406 10243 20099 39757 40109 57006 83200 333 83850;EQDQ01  00002PRCP99
0159118410999992000070115004+49230+018610FM-12+031599999V0202401N005012200019N0300001N1+02481+00921101051ADDGA1021+018009029GF102991021021022501001001MA1999999097541MD1610031+9999REMSYN076AAXX  01151 11841 42880 22405 10248 20092 39754 40105 56003 82200 333 82856;
0224118410999992000070118004+49230+018610FM-12+031599999V0209999C000010180019N0300001N1+02211+01241101081ADDAA199000091GA1051+018009059GF105991051051017501999001KA1120M+02571MA1999999097541MD1510001+9999REMSYN082AAXX  01181 11841 32780 50000 10221 20124 39754 40108 55000 85500 333 10257 85656;EQDQ01+000002SCOMCGQ02  00002PRCP99
0178118410999992000070121004+49230+018610FM-12+031599999V0209999C000010180019N0250001N1+01761+01291101201ADDGA1071+018009059GF107991071051017501999001MA1999999097601MD1110061+9999REMSYN076AAXX  01211 11841 42775 70000 10176 20129 39760 40120 51006 87500 333 87656;EQDQ01+000002SCOMCG
0183118410999992000070200004+49230+018610FM-12+031599999V0209999C000012200019N0200001N1+01271+01041101231ADDAA199000091GA1001+999999999GF100991001001999999001001MA1999999097571MD1510031+9999REMSYN070AAXX  02001 11841 32970 00000 10127 20104 39757 40123 55003 333 55105;EQDQ01  00002PRCP99
0159118410999992000070203004+49230+018610FM-12+031599999V0209999C000012200019N0200001N1+01131+00991101191ADDGA1021+033009079GF102991021001999999041011MA1999999097511MD1710061+9999REMSYN076AAXX  02031 11841 42970 20000 10113 20099 39751 40119 57006 82041 333 82361;
0244118410999992000070206004+49230+018610FM-12+031599999V0202201N00101090001CN0250001N1+01601+01161101181ADDAA199000091GA1011+009309089GF105991011011008001041061IA1019IA2999+00909KA1120N+01101MA1999999097561MD1010051+9999REMSYN100AAXX  02061 11841 32575 52201 10160 20116 39756 40118 50005 81146 333 20110 30009 50382 81831 84268;EQDQ01  00002PRCP99
0101118410999992000070209004+49230+018610FM-12+031599999V0202501N004019999999N9999999N1+02291+01461101171ADDMA1999999097641MD1210081+9999REMSYN060AAXX  02091 11841 46/// /2504 10229 20146 39764 40117 52008;
0131118410999992000070212004+49230+018610FM-12+031599999V0202501N005019999999N9999999N1+02421+01361101221ADDAA199000091MA1999999097701MD1210091+9999REMSYN060AAXX  02121 11841 36/// /2505 10242 20136 39770 40122 52009;EQDQ01  00002PRCP99
0159118410999992000070215004+49230+018610FM-12+031599999V0202401N00401036001CN0300001N1+02511+01371101161ADDGA1041+015009029GF106991041021017501041001MA1999999097651MD1610051+9999REMSYN076AAXX  02151 11841 42780 62404 10251 20137 39765 40116 56005 84240 333 84850;
0224118410999992000070218004+49230+018610FM-12+031599999V0203301N001012200019N0300001N1+02391+01291101181ADDAA199000091GA1011+021009079GF101991011999022501061011KA1120M+02661MA1999999097661MD1110011+9999REMSYN082AAXX  02181 11841 32880 13301 10239 20129 39766 40118 51001 81061 333 10266 81357;EQDQ01+000002SCOLCGQ02  00002PRCP99
0159118410999992000070221004+49230+018610FM-12+031599999V0209999C000012200019N0150001N1+01581+01261101301ADDGA1011+066009019GF101991001001999999001011MA1999999097681MD1110021+9999REMSYN076AAXX  02211 11841 42965 10000 10158 20126 39768 40130 51002 80001 333 81072;
0141118410999992000070300004+49230+018610FM-12+031599999V0200601N001019999999N9999999N1+01431+01261101211ADDAA199000091MA1999999097571MD1710121+9999REMSYN070AAXX  03001 11841 36/// /0601 10143 20126 39757 40121 57012 333 55087;EQDQ01  00002PRCP99
0159118410999992000070303004+49230+018610FM-12+031599999V0200801N001012200019N0150001N1+01281+01151101191ADDGA1041+033009079GF104991041001999999031001MA1999999097531MD1710061+9999REMSYN076AAXX  03031 11841 42965 40801 10128 20115 39753 40119 57006 84030 333 84361;
0253118410999992000070306004+49230+018610FM-12+031599999V0200501N00401090001CN0120001N1+01701+01431101091ADDAA112002091AY191061AY281061GA1011+009009079GF105991011061008001031021IA1099IA2999+01109KA1120N+01281MA1999999097491MD1810041+9999MW1291REMSYN106AAXX  03061 11841 11562 50504 10170 20143 39749 40109 58004 60022 72998 81632 333 20128 31011 81730 84360;
0165118410999992000070309004+49230+018610FM-12+031599999V0202401N00101036001CN0150001N1+02221+01531101001ADDGA1011+009009089GF107991011061008001071001MA1999999097471MD1510021+9999REMSYN082AAXX  03091 11841 42565 72401 10222 20153 39747 40100 55002 81670 333 81830 87360;
0189118410999992000070312004+49230+018610FM-12+031599999V0203101N003012200019N0200001N1+02821+01041100841ADDAA199000091GA1031+012909029GF104991031021012501001021MA1999999097371MD1710101+9999REMSYN076AAXX  03121 11841 32670 43103 10282 20104 39737 40084 57010 83202 333 83843;EQDQ01  00002PRCP99
0165118410999992000070315004+49230+018610FM-12+031599999V0202501N00301090001CN0200001N1+02811+01331100761ADDGA1011+013809089GF105991011021012501001021MA1999999097301MD1810071+9999REMSYN082AAXX  03151 11841 42670 52503 10281 20133 39730 40076 58007 81202 333 81846 85070;
0208118410999992000070318004+49230+018610FM-12+031599999V0203401N001012200019N0200001N1+02451+01541100711ADDAA199000091GA1031+015009029GF103991031011017501001011KA1120M+02901MA1999999097211MD1610091+9999REMSYN082AAXX  03181 11841 32770 33401 10245 20154 39721 40071 56009 83101 333 10290 83850;EQDQ01  00002PRCP99
0159118410999992000070321004+49230+018610FM-12+031599999V0203201N004010108019N0150001N1+02061+01541100841ADDGA1061+010809059GF106991061051012501001001MA1999999097291MD1110081+9999REMSYN076AAXX  03211 11841 42665 63204 10206 20154 39729 40084 51008 86500 333 86636;
0128118410999992000070400004+49230+018610FM-12+031599999V0209999V001019999999N9999999N1+01791+01681100841ADDAA106003091MA1999999097271MD1710011+9999REMSYN076AAXX  04001 11841 16/// /9901 10179 20168 39727 40084 57001 60031 333 55092;
0159118410999992000070403004+49230+018610FM-12+031599999V0200601N002010129019N0100001N1+01701+01641100811ADDGA1071+012909059GF107991071051012501001001MA1999999097221MD1610111+9999REMSYN076AAXX  04031 11841 42660 70602 10170 20164 39722 40081 56011 87500 333 87643;
0231118410999992000070406004+49230+018610FM-12+031599999V0202701N002012200019N0200001N1+02101+01641100821ADDAA112003091GA1011+009009089GF103991011011008001001011IA1099IA2999+01509KA1120N+01651MA1999999097281MD1110061+9999REMSYN106AAXX  04061 11841 12570 32702 10210 20164 39728 40082 51006 60032 81101 333 20165 31015 50292 81830 83070;
0165118410999992000070409004+49230+018610FM-12+031599999V0203001N002012200019N0200001N1+02541+01491100711ADDGA1011+013809089GF104991011011012501001041MA1999999097221MD1810061+9999REMSYN082AAXX  04091 11841 42670 43002 10254 20149 39722 40071 58006 81104 333 81846 84071;
0189118410999992000070412004+49230+018610FM-12+031599999V0200601N002012200019N0300001N1+02861+01371100361ADDAA199000091GA1041+060009019GF104991001001999999001011MA1999999096921MD1710301+9999REMSYN076AAXX  04121 11841 32980 40602 10286 20137 39692 40036 57030 80001 333 84070;EQDQ01  00002PRCP99
0165118410999992000070415004+49230+018610FM-12+031599999V0202001N002019999999N0300001N1+02901+01251100181ADDGA1041+030009039GF108991041001999999071071MA1999999096751MD1610171+9999REMSYN082AAXX  04151 11841 42980 82002 10290 20125 39675 40018 56017 84077 333 84360 88273;
0251118410999992000070418004+49230+018610FM-12+031599999V0201201N002010300019N0300001N1+01881+01701100541ADDAA112004191AY191061AY281061GA1021+012009089GA2041+030009039GF105991021021012501061021KA1120M+03071MA1999999096991MD1310241+9999MW1291REMSYN106AAXX  04181 11841 11680 51202 10188 20170 39699 40054 53024 60042 72998 82262 333 10307 82840 84360 91132;
0231118410999992000070500004+49230+018610FM-12+031599999V0201201N001012200019N0300001N1+01631+01571100951ADDAA199000091GA1011+030009039GA2041+060009009GF104991011001999999031011GJ105349MA1999999097351MD1110081+9999REMSYN094AAXX  05001 11841 32980 41201 10163 20157 39735 40095 51008 81031 333 55089 81360 84070 91009;EQDQ01  00002PRCP99
0165118410999992000070503004+49230+018610FM-12+031599999V0201301N00101001201CN0200001N1+01591+01511100981ADDGA1011+001509079GF107991071051001501001001MA1999999097371MD1310021+9999REMSYN082AAXX  05031 11841 42270 71301 10159 20151 39737 40098 53002 87500 333 81705 87630;
0272118410999992000070506004+49230+018610FM-12+031599999V0202701N00201000601CN0030001N1+01651+01541101141ADDAA199000091AY111061AY211061GA1041+000909079GF107991071051000751001001IA1099IA2999+01409KA1120N+01541MA1999999097531MD1310161+9999MW1101REMSYN106AAXX  05061 11841 31130 72702 10165 20154 39753 40114 53016 71011 87500 333 20154 31014 50352 84703 87626;EQDQ01  00002PRCP99
0187118410999992000070509004+49230+018610FM-12+031599999V0202401N004012200019N0300001N1+02051+01371101131ADDAY181031AY211031GA1021+013509029GF104991021021012501031031MA1999999097571MD1010041+9999MW1011REMSYN082AAXX  05091 11841 41680 42404 10205 20137 39757 40113 50004 70181 82233 333 82845;
0204118410999992000070512004+49230+018610FM-12+031599999V0202201N004010150019N0300001N1+02261+01371101051ADDAA106000191AY181061AY211061GA1051+015009029GF105991051021017501001001MA1999999097521MD1810051+9999MW1021REMSYN088AAXX  05121 11841 11780 52204 10226 20137 39752 40105 58005 69921 70281 85200 333 85850;
0159118410999992000070515004+49230+018610FM-12+031599999V0202601N008012200019N0300001N1+02471+00871101081ADDGA1041+018009029GF104991041021017501001001MA1999999097561MD1310041+9999REMSYN076AAXX  05151 11841 42780 42608 10247 20087 39756 40108 53004 84200 333 84856;
0195118410999992000070518004+49230+018610FM-12+031599999V0202701N003012200019N0300001N1+02261+01041101161ADDAA112000191GA1011+018009029GF102991011021017501061011KA1120M+02511MA1999999097621MD1310061+9999REMSYN088AAXX  05181 11841 12780 22703 10226 20104 39762 40116 53006 69922 81261 333 10251 81856;
0143118410999992000070521004+49230+018610FM-12+031599999V0209999C000012200019N0300001N1+01411+01091101461ADDGA1001+999999999GF100991001001999999001001MA1999999097811MD1110191+9999REMSYN060AAXX  05211 11841 42980 00000 10141 20109 39781 40146 51019;
0183118410999992000070600004+49230+018610FM-12+031599999V0209999C000012200019N0200001N1+01121+00981101651ADDAA199000091GA1001+999999999GF100991001001999999001001MA1999999097951MD1210141+9999REMSYN070AAXX  06001 11841 32970 00000 10112 20098 39795 40165 52014 333 55061;EQDQ01  00002PRCP99
0178118410999992000070603004+49230+018610FM-12+031599999V0209999C000012200019N0200001N1+00951+00861101731ADDGA1011+018009059GF101991011051017501999001MA1999999098011MD1310061+9999REMSYN076AAXX  06031 11841 42770 10000 10095 20086 39801 40173 53006 81500 333 81656;EQDQ01+000002SCOMCG
0238118410999992000070606004+49230+018610FM-12+031599999V0209999C000012200019N0200001N1+01551+01131101631ADDAA199000091GA1011+010809029GF101991011011012501001001IA1019IA2999+00709KA1120N+00921MA1999999097991MD1810021+9999REMSYN094AAXX  06061 11841 32670 10000 10155 20113 39799 40163 58002 81100 333 20092 30007 50392 81836;EQDQ01  00002PRCP99
0159118410999992000070609004+49230+018610FM-12+031599999V0202801N005012200019N0250001N1+02241+00921101541ADDGA1041+010809029GF104991041021012501001001MA1999999097981MD1510011+9999REMSYN076AAXX  06091 11841 42675 42805 10224 20092 39798 40154 55001 84200 333 84836;
0205118410999992000070612004+49230+018610FM-12+031599999V0202801N005010150019N0250001N1+02201+00891101541ADDAA199000091GA1051+015009059GF105991051021017501999001MA1999999097981MD1010001+9999REMSYN076AAXX  06121 11841 32775 52805 10220 20089 39798 40154 50000 85200 333 85650;EQDQ01  00002PRCP99Q02    003SCOMCG
0165118410999992000070615004+49230+018610FM-12+031599999V0202901N006012200019N0250001N1+02211+00861101551ADDGA1011+018009089GF104991041081017501001001MA1999999097991MD1310011+9999REMSYN082AAXX  06151 11841 42775 42906 10221 20086 39799 40155 53001 84800 333 81856 83656;
0224118410999992000070618004+49230+018610FM-12+031599999V0203001N001010180019N0250001N1+02121+00981101581ADDAA199000091GA1051+018009059GF105991051051017501999001KA1120M+02371MA1999999098011MD1310021+9999REMSYN082AAXX  06181 11841 32775 53001 10212 20098 39801 40158 53002 85500 333 10237 85656;EQDQ01+000002SCOMCGQ02  00002PRCP99
0143118410999992000070621004+49230+018610FM-12+031599999V0201901N001012200019N0200001N1+01501+01081101801ADDGA1001+999999999GF100991001001999999001001MA1999999098151MD1210141+9999REMSYN060AAXX  06211 11841 42970 01901 10150 20108 39815 40180 52014;
0183118410999992000070700004+49230+018610FM-12+031599999V0201701N001012200019N0200001N1+01151+00991101851ADDAA199000091GA1001+999999999GF100991001001999999001001MA1999999098151MD1010001+9999REMSYN070AAXX  07001 11841 32970 01701 10115 20099 39815 40185 50000 333 55105;EQDQ01  00002PRCP99
0159118410999992000070703004+49230+018610FM-12+031599999V0209999C000012200019N0150001N1+00981+00891101811ADDGA1011+060009019GF101991001001999999001011MA1999999098091MD1610061+9999REMSYN076AAXX  07031 11841 42965 10000 10098 20089 39809 40181 56006 80001 333 81070;
0226118410999992000070706004+49230+018610FM-12+031599999V0200601N002012200019N0200001N1+01601+01221101581ADDAA199000091GA1001+999999999GF100991001001999999001001IA1019IA2999+00709KA1120N+00981MA1999999097951MD1810141+9999REMSYN082AAXX  07061 11841 32970 00602 10160 20122 39795 40158 58014 333 20098 30007 50462;EQDQ01  00002PRCP99
0165118410999992000070709004+49230+018610FM-12+031599999V0203601N00101220001CN0350001N1+02321+01061101391ADDGA1011+011409089GF106991011021012501001061MA1999999097851MD1710101+9999REMSYN082AAXX  07091 11841 42681 63601 10232 20106 39785 40139 57010 81206 333 81838 86266;
0195118410999992000070712004+49230+018610FM-12+031599999V0202601N00201036001CN0350001N1+02321+00961101211ADDAA199000091GA1011+013809089GF107991011011012501071999MA1999999097671MD1610181+9999REMSYN082AAXX  07121 11841 32681 72602 10232 20096 39767 40121 56018 8117/ 333 81846 87356;EQDQ01  00002PRCP99
0187118410999992000070715004+49230+018610FM-12+031599999V0201401N001010180019N0200001N1+01901+01491101101ADDAY161031AY221031GA1081+018009059GF108991081051017501999999MA1999999097531MD1710141+9999MW1601REMSYN082AAXX  07151 11841 41770 81401 10190 20149 39753 40110 57014 76062 885// 333 88656;
0214118410999992000070718004+49230+018610FM-12+031599999V0200601N002010210019N0250001N1+01871+01361100911ADDAA112000791GA1071+021009079GF107991071999022501071001KA1120M+02441MA1999999097341MD1710191+9999REMSYN088AAXX  07181 11841 12875 70602 10187 20136 39734 40091 57019 69902 87070 333 10244 87357;EQDQ01+000002SCOLCG
0101118410999992000070721004+49230+018610FM-12+031599999V0209999V001019999999N9999999N1+01641+01401100761ADDMA1999999097171MD1710191+9999REMSYN060AAXX  07211 11841 46/// /9901 10164 20140 39717 40076 57019;
0128118410999992000070800004+49230+018610FM-12+031599999V0201301N001019999999N9999999N1+01501+01401100681ADDAA106001091MA1999999097071MD1710151+9999REMSYN076AAXX  08001 11841 16/// /1301 10150 20140 39707 40068 57015 60011 333 55066;
0193118410999992000070803004+49230+018610FM-12+031599999V0201301N00101002101CN0080001N1+01441+01381100531ADDAY161031AY221031GA1021+002409079GF108991081051002501999999MA1999999096921MD1710111+9999MW1211REMSYN088AAXX  08031 11841 41358 81301 10144 20138 39692 40053 57011 72162 885// 333 82708 88650;
0211118410999992000070806004+49230+018610FM-12+031599999V0202901N001010012019N0050001N1+01531+01431100501ADDAA112002091AY161061AY221061GF108991081051001501999999MA1999999096901MD1510021+9999MW1211REMSYN111AAXX  08061 11841 11250 82901 10153 20143 39690 40050 55002 60022 72162 885// 33 20143 31013 50242 83706 88633;
0165118410999992000070809004+49230+018610FM-12+031599999V0202501N002010120019N0150001N1+01991+01431100371ADDGA1031+006009089GF107991071081008001001001MA1999999096831MD1810071+9999REMSYN082AAXX  08091 11841 42565 72502 10199 20143 39683 40037 58007 87800 333 83820 86640;
0204118410999992000070812004+49230+018610FM-12+031599999V0202401N004012200019N0200001N1+02291+01371100231ADDAA106000791AY181061AY211061GA1031+011409029GF104991041081012501001001MA1999999096731MD1810101+9999MW1011REMSYN088AAXX  08121 11841 11670 42404 10229 20137 39673 40023 58010 69901 70181 84800 333 83838;
0193118410999992000070815004+49230+018610FM-12+031599999V0202401N006012200019N0300001N1+02161+01401100271ADDAY181031AY211031GA1011+013509089GF104991021081012501031001MA1999999096751MD1210021+9999MW1251REMSYN088AAXX  08151 11841 41680 42406 10216 20140 39675 40027 52002 72581 82830 333 81845 83359;
0223118410999992000070818004+49230+018610FM-12+031599999V0203401N00401015001CN0200001N1+01761+01411100451ADDAA112000591AY181061AY211061GA1041+012009029GF106991061081012501001001KA1120M+02431MA1999999096881MD1310131+9999MW1251REMSYN094AAXX  08181 11841 11670 63404 10176 20141 39688 40045 53013 69952 72581 86800 333 10243 84840;
0187118410999992000070821004+49230+018610FM-12+031599999V0202401N001010081019N0250001N1+01451+00951100721ADDAY181031AY221031GA1071+008109059GF107991071051008001001001MA1999999097101MD1110221+9999MW1031REMSYN082AAXX  08211 11841 41575 72401 10145 20095 39710 40072 51022 70382 87500 333 87627;
0218118410999992000070900004+49230+018610FM-12+031599999V0200201N002010075019N0250001N1+01301+00851100851ADDAA106000791AY181061AY221061GA1071+007509059GF107991071051008001001001GJ102049MA1999999097201MD1010101+9999MW1021REMSYN094AAXX  09001 11841 11575 70202 10130 20085 39720 40085 50010 69901 70282 87500 333 55034 87625;
0159118410999992000070903004+49230+018610FM-12+031599999V0203601N003010075019N0300001N1+01251+00761100811ADDGA1081+007509059GF108991081051008001999999MA1999999097161MD1710041+9999REMSYN076AAXX  09031 11841 42580 83603 10125 20076 39716 40081 57004 885// 333 88625;
0281118410999992000070906004+49230+018610FM-12+031599999V0201901N001010078019N0100001N1+01101+00861100861ADDAA112001091AY121061AY221061GA1011+001809079GA2041+007809069GF108991081051002501999999IA1099IA2999+01109KA1120N+01101MA1999999097191MD1310031+9999MW1611REMSYN118AAXX  09061 11841 11360 81901 10110 20086 39719 40086 53003 60012 76122 885// 333 20110 31011 50302 81706 84626 88650;
0215118410999992000070909004+49230+018610FM-12+031599999V0201001N001010069019N0150001N1+01241+00901100821ADDAY161031AY261031GA1021+002409079GA2051+006909069GF108991081051002501999999MA1999999097171MD1810021+9999MW1611REMSYN094AAXX  09091 11841 41365 81001 10124 20090 39717 40082 58002 76166 885// 333 82708 85623 88650;
0210118410999992000070912004+49230+018610FM-12+031599999V0200701N00201036001CN0200001N1+01451+00851100761ADDAA106002091AY161061AY221061GA1041+009009069GF107991041051008001071999MA1999999097131MD1610041+9999MW1021REMSYN094AAXX  09121 11841 11570 70702 10145 20085 39713 40076 56004 60021 70262 8457/ 333 84630 87358;
0159118410999992000070915004+49230+018610FM-12+031599999V0200901N002012200019N0250001N1+01631+00801100661ADDGA1031+010809029GF104991031021012501031021MA1999999097061MD1610071+9999REMSYN076AAXX  09151 11841 42675 40902 10163 20080 39706 40066 56007 83232 333 83836;
0195118410999992000070918004+49230+018610FM-12+031599999V0201101N002012200019N0250001N1+01441+00901100661ADDAA112002091GA1031+015009059GF103991031051017501031001KA1120M+01831MA1999999097041MD1510021+9999REMSYN088AAXX  09181 11841 12775 31102 10144 20090 39704 40066 55002 60022 83530 333 10183 83650;
0159118410999992000070921004+49230+018610FM-12+031599999V0209999C000012200019N0150001N1+00911+00771100801ADDGA1011+060009019GF101991001001999999001011MA1999999097101MD1110061+9999REMSYN076AAXX  09211 11841 42965 10000 10091 20077 39710 40080 51006 80001 333 81070;
0183118410999992000071000004+49230+018610FM-12+031599999V0209999C000012200019N0100001N1+00741+00651100791ADDAA199000091GA1001+999999999GF100991001001999999001001MA1999999097071MD1810031+9999REMSYN070AAXX  10001 11841 32960 00000 10074 20065 39707 40079 58003 333 55032;EQDQ01  00002PRCP99
0101118410999992000071003004+49230+018610FM-12+031599999V0200801N001019999999N9999999N1+00791+00721100641ADDMA1999999096941MD1710151+9999REMSYN060AAXX  10031 11841 46/// /0801 10079 20072 39694 40064 57015;
0254118410999992000071006004+49230+018610FM-12+031599999V0209999C000010240019N0200001N1+01341+00961100441ADDAA199000091GA1071+024009079GF107991071999022501071001IA1099IA2999+00509KA1120N+00691MA1999999096811MD1610181+9999REMSYN094AAXX  10061 11841 32870 70000 10134 20096 39681 40044 56018 87070 333 20069 31005 50272 87358;EQDQ01  00002PRCP99Q02    003SCOLCG
0165118410999992000071009004+49230+018610FM-12+031599999V0201801N004012200019N0300001N1+02021+00761100231ADDGA1011+014709089GF104991011021012501041021MA1999999096691MD1610121+9999REMSYN082AAXX  10091 11841 42680 41804 10202 20076 39669 40023 56012 81242 333 81849 83066;
0189118410999992000071012004+49230+018610FM-12+031599999V0202001N004012200019N0350001N1+02301+00801100071ADDAA199000091GA1031+015009029GF104991031021017501041011MA1999999096571MD1710121+9999REMSYN076AAXX  10121 11841 32781 42004 10230 20080 39657 40007 57012 83241 333 83850;EQDQ01  00002PRCP99
0159118410999992000071015004+49230+018610FM-12+031599999V0202001N004012200019N0400001N1+02501+00721100041ADDGA1011+021009059GF102991011041022501041021MA1999999096561MD1510011+9999REMSYN076AAXX  10151 11841 42882 22004 10250 20072 39656 40004 55001 81442 333 81657;
0208118410999992000071018004+49230+018610FM-12+031599999V0201801N002012200019N0400001N1+02271+00731100071ADDAA199000091GA1011+033009079GF102991011001999999041011KA1120M+02551MA1999999096571MD1310011+9999REMSYN082AAXX  10181 11841 32982 21802 10227 20073 39657 40007 53001 81041 333 10255 81361;EQDQ01  00002PRCP99
0101118410999992000071021004+49230+018610FM-12+031599999V0201301N002019999999N9999999N1+01861+00851100141ADDMA1999999096591MD1210031+9999REMSYN060AAXX  10211 11841 46/// /1302 10186 20085 39659 40014 52003;
0141118410999992000071100004+49230+018610FM-12+031599999V0201401N003019999999N9999999N1+01791+00911100141ADDAA199000091MA1999999096581MD1710021+9999REMSYN070AAXX  11001 11841 36/// /1403 10179 20091 39658 40014 57002 333 55100;EQDQ01  00002PRCP99
0159118410999992000071103004+49230+018610FM-12+031599999V0201401N001012200019N0200001N1+01521+00981100081ADDGA1011+030009079GF102991011001999999031011MA1999999096491MD1610101+9999REMSYN076AAXX  11031 11841 42970 21401 10152 20098 39649 40008 56010 81031 333 81360;
0244118410999992000071106004+49230+018610FM-12+031599999V0203001N00101036001CN0300001N1+01961+01241100031ADDAA199000091GA1041+015009069GF106991041051017501051001IA1099IA2999+01109KA1120N+01341MA1999999096501MD1010011+9999REMSYN100AAXX  11061 11841 32780 63001 10196 20124 39650 40003 50001 84550 333 20134 31011 50402 84650 85359;EQDQ01  00002PRCP99
0193118410999992000071109004+49230+018610FM-12+031599999V0203201N00201012001CN0250001N1+02011+01281099981ADDAY161031AY221031GA1021+012009069GF107991071051012501001001MA1999999096461MD1810041+9999MW1601REMSYN088AAXX  11091 11841 41675 73202 10201 20128 39646 49998 58004 76062 87500 333 82640 87656;
0210118410999992000071112004+49230+018610FM-12+031599999V0202201N00301012001CN0200001N1+02091+01161099941ADDAA106000791AY161061AY221061GA1031+012609069GF108991081051012501999999MA1999999096421MD1610041+9999MW1601REMSYN094AAXX  11121 11841 11670 82203 10209 20116 39642 49994 56004 69901 76062 885// 333 83642 88656;
0215118410999992000071115004+49230+018610FM-12+031599999V0209999C000010180019N0250001N1+01801+01511099861ADDAY161031AY221031GA1021+012909069GA2061+018009069GF108991061051012501021999MA1999999096321MD1710101+9999MW1211REMSYN094AAXX  11151 11841 41675 80000 10180 20151 39632 49986 57010 72162 8652/ 333 82643 86656 88458;
0229118410999992000071118004+49230+018610FM-12+031599999V0202401N00501007501CN0150001N1+01701+01501099991ADDAA112000891AY161061AY221061GA1031+008409069GF108991061051008001021999KA1120M+02181MA1999999096431MD1310111+9999MW1601REMSYN100AAXX  11181 11841 11565 82405 10170 20150 39643 49999 53011 69982 76062 8652/ 333 10218 83628 88458;
0193118410999992000071121004+49230+018610FM-12+031599999V0202301N00401004201CN0100001N1+01471+01341100271ADDAY161031AY221031GA1031+003009079GF108991081051004501999999MA1999999096671MD1210241+9999MW1601REMSYN088AAXX  11211 11841 41460 82304 10147 20134 39667 40027 52024 76062 885// 333 83710 88624;
0218118410999992000071200004+49230+018610FM-12+031599999V0201601N001012200019N0150001N1+01111+01001100391ADDAA106000191AY161061AY211061GA1021+013509059GF103991021051012501031001GJ100249MA1999999096741MD1110071+9999MW1011REMSYN094AAXX  12001 11841 11665 31601 10111 20100 39674 40039 51007 69911 70161 82530 333 55004 82645;
0193118410999992000071203004+49230+018610FM-12+031599999V0201401N00101001201CN0060001N1+01081+01001100431ADDAY111031AY211031GA1031+001809079GF107991071051001501001001MA1999999096771MD1210031+9999MW1101REMSYN088AAXX  12031 11841 41256 71401 10108 20100 39677 40043 52003 71011 87500 333 83706 87627;
0281118410999992000071206004+49230+018610FM-12+031599999V0202801N00101036001CN0090001N1+01341+01141100561ADDAA112000191AY111061AY211061GA1011+001809079GA2041+006309069GF107991041051002501071001IA1099IA2999+00809KA1120N+01041MA1999999096931MD1210161+9999MW1101REMSYN118AAXX  12061 11841 11359 72801 10134 20114 39693 40056 52016 69912 71011 84570 333 20104 31008 50082 81706 84621 86359;
0165118410999992000071209004+49230+018610FM-12+031599999V0202501N00301012001CN0250001N1+01731+01181100621ADDGA1031+006609089GF107991061081008001031001MA1999999097041MD1210111+9999REMSYN082AAXX  12091 11841 42575 72503 10173 20118 39704 40062 52011 86830 333 83822 84629;
0195118410999992000071212004+49230+018610FM-12+031599999V0202401N00501036001CN0300001N1+01891+01051100671ADDAA199000091GA1031+009609089GF107991031021008001011001MA1999999097101MD1110061+9999REMSYN082AAXX  12121 11841 32580 72405 10189 20105 39710 40067 51006 83210 333 83832 85459;EQDQ01  00002PRCP99
0193118410999992000071215004+49230+018610FM-12+031599999V0202301N00401036001CN0100001N1+01351+01071100931ADDAY191031AY281031GA1041+009609099GF107991041031008001071001MA1999999097291MD1310191+9999MW1801REMSYN088AAXX  12151 11841 41560 72304 10135 20107 39729 40093 53019 78098 84370 333 84932 83358;
0223118410999992000071218004+49230+018610FM-12+031599999V0202901N001012200019N0250001N1+01421+01101101041ADDAA112001091AY191061AY281061GA1021+009609059GF104991021051008001041011KA1120M+01971MA1999999097401MD1210111+9999MW1011REMSYN094AAXX  12181 11841 11575 42901 10142 20110 39740 40104 52011 60012 70198 82541 333 10197 82632;
0187118410999992000071221004+49230+018610FM-12+031599999V0209999C000010099019N0100001N1+01271+01181101151ADDAY181031AY221031GA1061+009909059GF106991061051008001001001MA1999999097491MD1310091+9999MW1021REMSYN082AAXX  12211 11841 41560 60000 10127 20118 39749 40115 53009 70282 86500 333 86633;
0128118410999992000071300004+49230+018610FM-12+031599999V0203101N002019999999N9999999N1+01101+01031101201ADDAA106000591MA1999999097521MD1210031+9999REMSYN076AAXX  13001 11841 16/// /3102 10110 20103 39752 40120 52003 69961 333 55063;
0159118410999992000071303004+49230+018610FM-12+031599999V0203201N001010120019N0120001N1+01071+00961101261ADDGA1071+012009059GF107991071051012501001001MA1999999097571MD1310051+9999REMSYN076AAXX  13031 11841 42662 73201 10107 20096 39757 40126 53005 87500 333 87640;
0231118410999992000071306004+49230+018610FM-12+031599999V0201201N001012200019N0150001N1+01301+00941101241ADDAA112000591GA1011+007809089GF104991041081008001001011IA1099IA2999+00909KA1120N+01071MA1999999097581MD1310011+9999REMSYN106AAXX  13061 11841 12565 41201 10130 20094 39758 40124 53001 69962 84801 333 20107 31009 50192 81826 83656;
0159118410999992000071309004+49230+018610FM-12+031599999V0203401N003010120019N0200001N1+01501+00761101201ADDGA1071+012009059GF107991071041012501001001MA1999999097561MD1610021+9999REMSYN076AAXX  13091 11841 42670 73403 10150 20076 39756 40120 56002 87400 333 87640;
0195118410999992000071312004+49230+018610FM-12+031599999V0200801N00201015001CN0200001N1+01541+00771101181ADDAA199000091GA1031+013809089GF106991061081012501001011MA1999999097551MD1810011+9999REMSYN082AAXX  13121 11841 32670 60802 10154 20077 39755 40118 58001 86801 333 83846 84656;EQDQ01  00002PRCP99
0159118410999992000071315004+49230+018610FM-12+031599999V0203501N00201036001CN0200001N1+01721+00611101041ADDGA1031+015009029GF105991031021017501041001MA1999999097441MD1610111+9999REMSYN076AAXX  13151 11841 42770 53502 10172 20061 39744 40104 56011 83240 333 83850;
0208118410999992000071318004+49230+018610FM-12+031599999V0203401N001012200019N0200001N1+01671+00541101051ADDAA199000091GA1041+030009079GF104991041001999999031011KA1120M+01871MA1999999097441MD1510001+9999REMSYN082AAXX  13181 11841 32970 43401 10167 20054 39744 40105 55000 84031 333 10187 84360;EQDQ01  00002PRCP99
0159118410999992000071321004+49230+018610FM-12+031599999V0201801N001012200019N0150001N1+00931+00721101141ADDGA1011+060009019GF101991001001999999001011MA1999999097431MD1810011+9999REMSYN076AAXX  13211 11841 42965 11801 10093 20072 39743 40114 58001 80001 333 81070;
0183118410999992000071400004+49230+018610FM-12+031599999V0209999C000012200019N0120001N1+00651+00541101101ADDAA199000091GA1001+999999999GF100991001001999999001001MA1999999097361MD1810071+9999REMSYN070AAXX  14001 11841 32962 00000 10065 20054 39736 40110 58007 333 55024;EQDQ01  00002PRCP99
0187118410999992000071403004+49230+018610FM-12+031599999V0209999C000010024019N0012001N1+00561+00501101011ADDAY111031AY211031GA1081+002409069GF108991081061002501999999MA1999999097261MD1610101+9999MW1101REMSYN082AAXX  14031 11841 41312 80000 10056 20050 39726 40101 56010 71011 886// 333 88708;
0266118410999992000071406004+49230+018610FM-12+031599999V0209999C000010003019N0008001N1+00811+00721100901ADDAA199000091AY141061AY211061GA1071+000309069GF107991071061000251999999IA1099IA2999+00209KA1120N+00481MA1999999097191MD1710071+9999MW1421REMSYN100AAXX  14061 11841 31008 70000 10081 20072 39719 40090 57007 74241 876// 333 20048 31002 50312 87701;EQDQ01  00002PRCP99
0193118410999992000071409004+49230+018610FM-12+031599999V0202501N005012200019N0300001N1+01671+00821100581ADDAY141031AY211031GA1021+010809089GF104991021021012501041001MA1999999096991MD1810201+9999MW1011REMSYN088AAXX  14091 11841 41680 42505 10167 20082 39699 40058 58020 70141 82240 333 82836 83358;
0223118410999992000071412004+49230+018610FM-12+031599999V0202501N00501036001CN0300001N1+01681+00881100461ADDAA199000091AY141061AY211061GA1041+014409089GF107991041021012501071001MA1999999096871MD1610121+9999MW1031REMSYN088AAXX  14121 11841 31680 72505 10168 20088 39687 40046 56012 70341 84270 333 84848 86357;EQDQ01  00002PRCP99
0159118410999992000071415004+49230+018610FM-12+031599999V0202201N001010111019N0300001N1+01691+00941100401ADDGA1071+011109059GF107991071051012501001001MA1999999096821MD1610051+9999REMSYN076AAXX  14151 11841 42680 72201 10169 20094 39682 40040 56005 87500 333 87637;
0229118410999992000071418004+49230+018610FM-12+031599999V0201401N00101036001CN0250001N1+01541+01121100321ADDAA112000791AY161061AY221061GA1031+012309069GF107991031051012501071001KA1120M+01901MA1999999096721MD1710101+9999MW1021REMSYN100AAXX  14181 11841 11675 71401 10154 20112 39672 40032 57010 69902 70262 83570 333 10190 83641 87358;
0187118410999992000071421004+49230+018610FM-12+031599999V0203301N001010105019N0100001N1+01371+01141100301ADDAY121031AY221031GA1081+010509059GF108991081051012501999999MA1999999096681MD1610041+9999MW1601REMSYN082AAXX  14211 11841 41660 83301 10137 20114 39668 40030 56004 76022 885// 333 88635;
0218118410999992000071500004+49230+018610FM-12+031599999V0202701N002010096019N0100001N1+01231+01141100361ADDAA106000591AY161061AY221061GA1081+009609059GF108991081051008001999999GJ101989MA1999999096731MD1110051+9999MW1211REMSYN094AAXX  15001 11841 11560 82702 10123 20114 39673 40036 51005 69951 72162 885// 333 55033 88632;
0187118410999992000071503004+49230+018610FM-12+031599999V0209999C000010099019N0070001N1+01201+01141100301ADDAY121031AY221031GA1071+009909059GF107991071051008001001001MA1999999096661MD1810071+9999MW1101REMSYN082AAXX  15031 11841 41557 70000 10120 20114 39666 40030 58007 71022 87500 333 87633;
0231118410999992000071506004+49230+018610FM-12+031599999V0202601N00201012001CN0120001N1+01421+01141100291ADDAA112000591GA1031+011709069GF107991071051012501999999IA1099IA2999+01009KA1120N+01171MA1999999096681MD1310021+9999REMSYN106AAXX  15061 11841 12662 72602 10142 20114 39668 40029 53002 69952 875// 333 20117 31010 50242 83639 87643;
0215118410999992000071509004+49230+018610FM-12+031599999V0202501N003010150019N0120001N1+01431+01161100381ADDAY121031AY221031GA1011+001809079GA2061+015009069GF108991061051002501021999MA1999999096771MD1110091+9999MW1611REMSYN094AAXX  15091 11841 41362 82503 10143 20116 39677 40038 51009 76122 8652/ 333 81706 86650 88459;
0232118410999992000071512004+49230+018610FM-12+031599999V0202301N001010090019N0100001N1+01461+01081100381ADDAA106002091AY161061AY221061GA1021+003009079GA2051+009009069GF108991081051004501999999MA1999999096771MD1010001+9999MW1611REMSYN100AAXX  15121 11841 11460 82301 10146 20108 39677 40038 50000 60021 76162 885// 333 82710 85630 88656;
0193118410999992000071515004+49230+018610FM-12+031599999V0209999C00001007501CN0100001N1+01531+01071100391ADDAY161031AY261031GA1031+007809069GF108991081051008001999999MA1999999096791MD1110021+9999MW1611REMSYN088AAXX  15151 11841 41560 80000 10153 20107 39679 40039 51002 76166 885// 333 83626 88656;
0229118410999992000071518004+49230+018610FM-12+031599999V0209999C00001002101CN0100001N1+01331+01141100491ADDAA112004191AY161061AY221061GA1021+001809079GF108991081051002501999999KA1120M+01551MA1999999096851MD1310071+9999MW1611REMSYN100AAXX  15181 11841 11360 80000 10133 20114 39685 40049 53007 60042 76162 885// 333 10155 82706 88643;
0224118410999992000071600004+49230+018610FM-12+031599999V0209999C00001002101CN0050001N1+01241+01181100491ADDAA106003091AY161061AY221061GA1041+001809079GF108991081051002501999999GJ100009MA1999999096851MD1810071+9999MW1611REMSYN100AAXX  16001 11841 11350 80000 10124 20118 39685 40049 58007 60031 76162 885// 333 55000 84706 88626;
0101118410999992000071603004+49230+018610FM-12+031599999V0209999C000019999999N9999999N1+01201+01151100431ADDMA1999999096791MD1710081+9999REMSYN060AAXX  16031 11841 46/// /0000 10120 20115 39679 40043 57008;
0259118410999992000071606004+49230+018610FM-12+031599999V0202201N00101001201CN0100001N1+01281+01101100451ADDAA112009991AY161061AY261061GA1041+001509079GF108991081051001501999999IA1119IA2999+01209KA1120N+01201MA1999999096821MD1510001+9999MW1611REMSYN112AAXX  16061 11841 11260 82201 10128 20110 39682 40045 55000 60102 76166 885// 333 20120 32012 50042 84705 88633;
0215118410999992000071609004+49230+018610FM-12+031599999V0202101N002010060019N0150001N1+01271+01041100511ADDAY161031AY261031GA1031+001809079GA2051+006009069GF108991081051002501999999MA1999999096871MD1210051+9999MW1611REMSYN094AAXX  16091 11841 41365 82102 10127 20104 39687 40051 52005 76166 885// 333 83706 85620 88630;
0232118410999992000071612004+49230+018610FM-12+031599999V0202901N002010045019N0200001N1+01281+01141100561ADDAA106003091AY161061AY221061GA1021+001209079GA2041+004509079GF108991081051001501999999MA1999999096921MD1110051+9999MW1611REMSYN100AAXX  16121 11841 11270 82902 10128 20114 39692 40056 51005 60031 76162 885// 333 82704 84715 88624;
0193118410999992000071615004+49230+018610FM-12+031599999V0202701N00201004201CN0200001N1+01261+01121100621ADDAY161031AY221031GA1021+003309079GF108991081051004501999999MA1999999096981MD1110061+9999MW1601REMSYN088AAXX  16151 11841 41470 82702 10126 20112 39698 40062 51006 76062 885// 333 82711 88624;
0229118410999992000071618004+49230+018610FM-12+031599999V0202801N00201004201CN0200001N1+01251+01111100651ADDAA112004191AY161061AY221061GA1021+003009079GF108991081051004501999999KA1120M+01301MA1999999097011MD1110031+9999MW1021REMSYN100AAXX  16181 11841 11470 82802 10125 20111 39701 40065 51003 60042 70262 885// 333 10130 82710 88625;
0187118410999992000071621004+49230+018610FM-12+031599999V0202401N003010072019N0200001N1+01231+01051100651ADDAY161031AY221031GA1081+007209059GF108991081051008001999999MA1999999097001MD1810011+9999MW1211REMSYN082AAXX  16211 11841 41570 82403 10123 20105 39700 40065 58001 72162 885// 333 88624;
0224118410999992000071700004+49230+018610FM-12+031599999V0202501N00301002101CN0200001N1+01251+01121100611ADDAA106000591AY161061AY221061GA1021+002409079GF108991081051002501999999GJ100009MA1999999096971MD1510031+9999MW1611REMSYN100AAXX  17001 11841 11370 82503 10125 20112 39697 40061 55003 69961 76162 885// 333 55000 82708 88629;
0193118410999992000071703004+49230+018610FM-12+031599999V0202301N00401007501CN0250001N1+01251+01091100631ADDAY161031AY261031GA1041+008409069GF108991071051008001021999MA1999999096991MD1110021+9999MW1611REMSYN088AAXX  17031 11841 41575 82304 10125 20109 39699 40063 51002 76166 8752/ 333 84628 86656;
0259118410999992000071706004+49230+018610FM-12+031599999V0202301N00601002101CN0200001N1+01271+01081100651ADDAA112005191AY161061AY261061GA1011+002409079GF108991071051002501021999IA1119IA2999+01209KA1120N+01211MA1999999097011MD1210021+9999MW1611REMSYN112AAXX  17061 11841 11370 82306 10127 20108 39701 40065 52002 60052 76166 8752/ 333 20121 32012 50032 81708 87625;
0193118410999992000071709004+49230+018610FM-12+031599999V0202401N00601007501CN0200001N1+01331+01121100781ADDAY161031AY261031GA1031+007209069GF108991081051008001999999MA1999999097141MD1310131+9999MW1611REMSYN088AAXX  17091 11841 41570 82406 10133 20112 39714 40078 53013 76166 885// 333 83624 88630;
0210118410999992000071712004+49230+018610FM-12+031599999V0202401N005010054019N0200001N1+01361+01151100951ADDAA106004191AY161061AY261061GA1051+005409069GF108991081051004501999999MA1999999097311MD1210171+9999MW1611REMSYN094AAXX  17121 11841 11470 82405 10136 20115 39731 40095 52017 60041 76166 885// 333 85618 88626;
0193118410999992000071715004+49230+018610FM-12+031599999V0202401N004010060019N0200001N1+01381+01181101131ADDAY161031AY261031GA1061+006009069GF108991081051008001999999MA1999999097491MD1210181+9999MW1611REMSYN088AAXX  17151 11841 41570 82404 10138 20118 39749 40113 52018 76166 885// 333 86620 88630;
0229118410999992000071718004+49230+018610FM-12+031599999V0202401N00201004201CN0150001N1+01291+01151101311ADDAA112005191AY161061AY221061GA1041+004809069GF108991081051004501999999KA1120M+01401MA1999999097651MD1210161+9999MW1601REMSYN100AAXX  17181 11841 11465 82402 10129 20115 39765 40131 52016 60052 76062 885// 333 10140 84616 88630;
0187118410999992000071721004+49230+018610FM-12+031599999V0203001N002010072019N0150001N1+01321+01131101431ADDAY161031AY221031GA1081+007209059GF108991081051008001999999MA1999999097771MD1110121+9999MW1021REMSYN082AAXX  17211 11841 41565 83002 10132 20113 39777 40143 51012 70262 885// 333 88624;
0218118410999992000071800004+49230+018610FM-12+031599999V0202401N002010078019N0150001N1+01301+01111101511ADDAA106000791AY161061AY221061GA1081+007809059GF108991081051008001999999GJ100009MA1999999097841MD1110071+9999MW1021REMSYN094AAXX  18001 11841 11565 82402 10130 20111 39784 40151 51007 69901 70262 885// 333 55000 88626;
0193118410999992000071803004+49230+018610FM-12+031599999V0202601N001010078019N0150001N1+01241+01151101531ADDAY161031AY221031GA1051+007809069GF108991081051008001999999MA1999999097851MD1310011+9999MW1601REMSYN088AAXX  18031 11841 41565 82601 10124 20115 39785 40153 53001 76062 885// 333 85626 88630;
0281118410999992000071806004+49230+018610FM-12+031599999V0209999C000010099019N0060001N1+01241+01161101621ADDAA112001091AY161061AY221061GA1021+003009079GA2051+009909069GF108991081051004501999999IA1119IA2999+01209KA1120N+01221MA1999999097941MD1110091+9999MW1611REMSYN118AAXX  18061 11841 11456 80000 10124 20116 39794 40162 51009 60012 76162 885// 333 20122 32012 50142 82710 85633 88648;
0193118410999992000071809004+49230+018610FM-12+031599999V0200401N00101004201CN0150001N1+01431+01181101571ADDAY161031AY221031GA1041+003909079GF108991081051004501999999MA1999999097921MD1810021+9999MW1021REMSYN088AAXX  18091 11841 41465 80401 10143 20118 39792 40157 58002 70262 885// 333 84713 88633;
0232118410999992000071812004+49230+018610FM-12+031599999V0202201N00201018001CN0200001N1+01711+01121101471ADDAA106000191AY161061AY221061GA1021+010809089GA2041+018009069GF107991041081012501031001MA1999999097851MD1610071+9999MW1021REMSYN100AAXX  18121 11841 11670 72202 10171 20112 39785 40147 56007 69921 70262 84830 333 82836 84656 86360;
0187118410999992000071815004+49230+018610FM-12+031599999V0202101N00301018001CN0250001N1+01741+01101101411ADDGA1011+010809089GA2041+018009069GF107991041081012501071001MA1999999097801MD1810051+9999REMSYN088AAXX  18151 11841 42675 72103 10174 20110 39780 40141 58005 84870 333 81836 84656 86357;
0201118410999992000071818004+49230+018610FM-12+031599999V0203001N001010210019N0250001N1+01531+01191101431ADDAA112000191GA1051+021009039GF107991051001022501071061KA1120M+01831MA1999999097791MD1710011+9999REMSYN094AAXX  18181 11841 12875 73001 10153 20119 39779 40143 57001 69922 85076 333 10183 85357 87273;
0178118410999992000071821004+49230+018610FM-12+031599999V0203001N001010210019N0250001N1+01291+01151101531ADDGA1071+021009079GF107991071999022501071001MA1999999097861MD1110071+9999REMSYN076AAXX  18211 11841 42875 73001 10129 20115 39786 40153 51007 87070 333 87357;EQDQ01+000002SCOLCG
0219118410999992000071900004+49230+018610FM-12+031599999V0201501N001010210019N0200001N1+01201+01121101531ADDAA199000091GA1071+021009079GF107991071999022501071001GJ100369MA1999999097851MD1610011+9999REMSYN082AAXX  19001 11841 32870 71501 10120 20112 39785 40153 56001 87070 333 55006 87357;EQDQ01+000002SCOLCGQ02  00002PRCP99
0159118410999992000071903004+49230+018610FM-12+031599999V0209999C000010015019N0100001N1+01201+01141101501ADDGA1071+001509069GF108991081051001501999999MA1999999097821MD1810031+9999REMSYN076AAXX  19031 11841 42260 80000 10120 20114 39782 40150 58003 885// 333 87705;
0272118410999992000071906004+49230+018610FM-12+031599999V0200401N00101090001CN0080001N1+01341+01141101431ADDAA199000091AY121061AY221061GA1021+006609089GF105991021011008001031011IA1099IA2999+01209KA1120N+01181MA1999999097771MD1810051+9999MW1101REMSYN106AAXX  19061 11841 31558 50401 10134 20114 39777 40143 58005 71022 82131 333 20118 31012 50052 82822 83357;EQDQ01  00002PRCP99
0165118410999992000071909004+49230+018610FM-12+031599999V0203101N00101012001CN0200001N1+01681+01001101361ADDGA1041+009009089GF107991071081008001001001MA1999999097741MD1810031+9999REMSYN082AAXX  19091 11841 42570 73101 10168 20100 39774 40136 58003 87800 333 84830 83650;
0189118410999992000071912004+49230+018610FM-12+031599999V0202101N004010114019N0300001N1+01921+00801101231ADDAA199000091GA1051+011409029GF106991051021012501031011MA1999999097641MD1810101+9999REMSYN076AAXX  19121 11841 32680 62104 10192 20080 39764 40123 58010 85231 333 85838;EQDQ01  00002PRCP99
0159118410999992000071915004+49230+018610FM-12+031599999V0201701N001012200019N0250001N1+02021+00981101171ADDGA1031+015009029GF104991031021017501031001MA1999999097601MD1810041+9999REMSYN076AAXX  19151 11841 42775 41701 10202 20098 39760 40117 58004 83230 333 83850;
0214118410999992000071918004+49230+018610FM-12+031599999V0202801N001010900019N0250001N1+01751+00811101301ADDAA199000091GA1011+018009089GF105991011021017501041011KA1120M+02081MA1999999097691MD1310091+9999REMSYN088AAXX  19181 11841 32775 52801 10175 20081 39769 40130 53009 81241 333 10208 81856 83359;EQDQ01  00002PRCP99
0101118410999992000071921004+49230+018610FM-12+031599999V0203001N001019999999N9999999N1+01181+00971101491ADDMA1999999097811MD1210141+9999REMSYN060AAXX  19211 11841 46/// /3001 10118 20097 39781 40149 52014;
0141118410999992000072000004+49230+018610FM-12+031599999V0201401N001019999999N9999999N1+00941+00821101581ADDAA199000091MA1999999097861MD1210061+9999REMSYN070AAXX  20001 11841 36/// /1401 10094 20082 39786 40158 52006 333 55037;EQDQ01  00002PRCP99
0206118410999992000072003004+49230+018610FM-12+031599999V0201001N001012200019N0070001N1+00721+00641101631ADDAY101031AY201031GA1011+024009079GF102991011999999999041011MA1999999097881MD1310021+9999MW1101REMSYN082AAXX  20031 11841 41957 21001 10072 20064 39788 40163 53002 71000 81041 333 81358;EQDQ01    003SCOLCG
0272118410999992000072006004+49230+018610FM-12+031599999V0209999C00001007501CN0070001N1+01091+00931101631ADDAA199000091AY141061AY211061GA1031+007809069GF107991061051008001031001IA1099IA2999+00509KA1120N+00691MA1999999097931MD1210051+9999MW1281REMSYN106AAXX  20061 11841 31557 70000 10109 20093 39793 40163 52005 72841 86530 333 20069 31005 50162 83626 84640;EQDQ01  00002PRCP99
0187118410999992000072009004+49230+018610FM-12+031599999V0209999C000010066019N0150001N1+01351+01031101651ADDAY161031AY221031GA1081+006609059GF108991081051008001999999MA1999999097981MD1110051+9999MW1601REMSYN082AAXX  20091 11841 41565 80000 10135 20103 39798 40165 51005 76062 885// 333 88622;
0210118410999992000072012004+49230+018610FM-12+031599999V0202801N00201012001CN0200001N1+01641+01031101591ADDAA106000791AY161061AY221061GA1011+009009089GF108991081081008001999999MA1999999097961MD1810021+9999MW1021REMSYN094AAXX  20121 11841 11570 82802 10164 20103 39796 40159 58002 69901 70262 888// 333 81830 88636;
0159118410999992000072015004+49230+018610FM-12+031599999V0200601N001010120019N0200001N1+01551+01031101651ADDGA1081+012009059GF108991081051012501999999MA1999999098011MD1210051+9999REMSYN076AAXX  20151 11841 42670 80601 10155 20103 39801 40165 52005 885// 333 88640;
0195118410999992000072018004+49230+018610FM-12+031599999V0200801N002010129019N0250001N1+01351+01081101791ADDAA112000791GA1061+012909059GF107991061051012501071001KA1120M+01731MA1999999098121MD1210111+9999REMSYN088AAXX  20181 11841 12675 70802 10135 20108 39812 40179 52011 69902 86570 333 10173 86643;
0178118410999992000072021004+49230+018610FM-12+031599999V0201001N001012200019N0150001N1+01221+01031101861ADDGA1021+021009079GF103991021999022501031011MA1999999098171MD1110051+9999REMSYN076AAXX  20211 11841 42865 31001 10122 20103 39817 40186 51005 82031 333 82357;EQDQ01+000002SCOLCG
0203118410999992000072100004+49230+018610FM-12+031599999V0202801N001012200019N0100001N1+00851+00741101971ADDAA199000091GA1021+060009019GF102991001001999999001011GJ100009MA1999999098221MD1110051+9999REMSYN082AAXX  21001 11841 32960 22801 10085 20074 39822 40197 51005 80001 333 55000 82070;EQDQ01  00002PRCP99
0187118410999992000072103004+49230+018610FM-12+031599999V0202901N001010012019N0009001N1+00741+00701101911ADDAY111031AY211031GA1081+001209069GF108991081061001501999999MA1999999098151MD1610071+9999MW1461REMSYN082AAXX  21031 11841 41209 82901 10074 20070 39815 40191 56007 74611 886// 333 88704;
0266118410999992000072106004+49230+018610FM-12+031599999V0200301N001010009019N0015001N1+01021+00961101881ADDAA199000091AY141061AY211061GA1081+000909069GF108991081061000751999999IA1099IA2999+00409KA1120N+00671MA1999999098161MD1010011+9999MW1281REMSYN100AAXX  21061 11841 31115 80301 10102 20096 39816 40188 50001 72841 886// 333 20067 31004 50132 88703;EQDQ01  00002PRCP99
0187118410999992000072109004+49230+018610FM-12+031599999V0200101N00101036001CN0150001N1+01681+01091101731ADDGA1011+009009089GA2031+018009069GF107991031081008001071001MA1999999098101MD1710061+9999REMSYN088AAXX  21091 11841 42565 70101 10168 20109 39810 40173 57006 83870 333 81830 83656 87358;
0195118410999992000072112004+49230+018610FM-12+031599999V0202201N00201036001CN0250001N1+01861+01021101661ADDAA199000091GA1021+012909089GF106991021021012501071001MA1999999098051MD1810051+9999REMSYN082AAXX  21121 11841 32675 62202 10186 20102 39805 40166 58005 82270 333 82843 86359;EQDQ01  00002PRCP99
0187118410999992000072115004+49230+018610FM-12+031599999V0200901N00101036001CN0250001N1+01941+01091101571ADDGA1011+012009089GA2031+015009069GF106991031081012501031001MA1999999097981MD1610071+9999REMSYN088AAXX  21151 11841 42675 60901 10194 20109 39798 40157 56007 83830 333 81840 83650 85359;
0154118410999992000072118004+49230+018610FM-12+031599999V0209999C000019999999N9999999N1+01671+01311101671ADDAA199000091KA1999M+02131MA1999999098051MD1210051+9999REMSYN070AAXX  21181 11841 36/// /0000 10167 20131 39805 40167 52005 333 10213;EQDQ01  00002PRCP99
0159118410999992000072121004+49230+018610FM-12+031599999V0203401N001010330019N0250001N1+01381+01221101801ADDGA1081+033009019GF108991081001999999011999MA1999999098131MD1110081+9999REMSYN076AAXX  21211 11841 42975 83401 10138 20122 39813 40180 51008 8801/ 333 88461;
0203118410999992000072200004+49230+018610FM-12+031599999V0209999C000010360019N0200001N1+01261+01121101771ADDAA199000091GA1081+036009019GF108991081001999999011999GJ100969MA1999999098091MD1810041+9999REMSYN082AAXX  22001 11841 32970 80000 10126 20112 39809 40177 58004 8801/ 333 55016 88462;EQDQ01  00002PRCP99
0178118410999992000072203004+49230+018610FM-12+031599999V0209999C000010330019N0150001N1+01131+01041101761ADDGA1071+033009019GF107991071001999999011999MA1999999098061MD1710031+9999REMSYN076AAXX  22031 11841 42965 70000 10113 20104 39806 40176 57003 87010 333 87461;EQDQ01+000002SCOHCG
0266118410999992000072206004+49230+018610FM-12+031599999V0202801N00101010801CN0120001N1+01331+01081101751ADDAA199000091GA1021+006009069GA2031+010809069GF107991041051008001031001IA1099IA2999+01009KA1120N+01121MA1999999098081MD1210021+9999REMSYN106AAXX  22061 11841 32562 72801 10133 20108 39808 40175 52002 84530 333 20112 31010 50142 82620 83636 87360;EQDQ01  00002PRCP99
0165118410999992000072209004+49230+018610FM-12+031599999V0203001N00201012001CN0150001N1+01641+01051101721ADDGA1021+006909089GF108991081081008001999999MA1999999098081MD1010001+9999REMSYN082AAXX  22091 11841 42565 83002 10164 20105 39808 40172 50000 888// 333 82823 88636;
0195118410999992000072212004+49230+018610FM-12+031599999V0202401N00401015001CN0150001N1+01831+01091101641ADDAA199000091GA1021+012009089GF106991051081012501031001MA1999999098031MD1810051+9999REMSYN082AAXX  22121 11841 32665 62404 10183 20109 39803 40164 58005 85830 333 82840 83646;EQDQ01  00002PRCP99
0159118410999992000072215004+49230+018610FM-12+031599999V0202501N004012200019N0200001N1+01921+01131101581ADDGA1011+012909029GF103991011021012501041001MA1999999097991MD1510041+9999REMSYN076AAXX  22151 11841 42670 32504 10192 20113 39799 40158 55004 81240 333 81843;
0208118410999992000072218004+49230+018610FM-12+031599999V0209999C000012200019N0200001N1+01771+01201101581ADDAA199000091GA1031+030009079GF103991031001999999041001KA1120M+02071MA1999999097971MD1710021+9999REMSYN082AAXX  22181 11841 32970 30000 10177 20120 39797 40158 57002 83040 333 10207 83360;EQDQ01  00002PRCP99
0159118410999992000072221004+49230+018610FM-12+031599999V0201101N001010300019N0100001N1+01361+01151101701ADDGA1061+030009079GF106991061001999999031001MA1999999098031MD1110061+9999REMSYN076AAXX  22211 11841 42960 61101 10136 20115 39803 40170 51006 86030 333 86360;
0218118410999992000072300004+49230+018610FM-12+031599999V0209999C000010300019N0100001N1+01261+01131101711ADDAA106000791AY161061AY221061GA1071+030009079GF107991071001999999071001GJ102769MA1999999098031MD1010001+9999MW1211REMSYN094AAXX  23001 11841 11960 70000 10126 20113 39803 40171 50000 69901 72162 87070 333 55046 87360;
0178118410999992000072303004+49230+018610FM-12+031599999V0201001N001010240019N0100001N1+01111+01031101651ADDGA1051+024009079GF105991051999022501031001MA1999999097951MD1710081+9999REMSYN076AAXX  23031 11841 42860 51001 10111 20103 39795 40165 57008 85030 333 85358;EQDQ01    003SCOLCG
0244118410999992000072306004+49230+018610FM-12+031599999V0200601N001012200019N0150001N1+01581+01201101581ADDAA112000791GA1021+024009079GF102991021999022501041001IA1099IA2999+00809KA1120N+01071MA1999999097951MD1010001+9999REMSYN100AAXX  23061 11841 12865 20601 10158 20120 39795 40158 50000 69902 82040 333 20107 31008 50222 82358;EQDQ01    003SCOLCG
0159118410999992000072309004+49230+018610FM-12+031599999V0203501N001010360019N0250001N1+02251+01161101441ADDGA1031+011109029GF105991031021012501041001MA1999999097891MD1810061+9999REMSYN076AAXX  23091 11841 42675 53501 10225 20116 39789 40144 58006 83240 333 83837;
0112118410999992000072312004+49230+018610FM-12+031599999V0209999V002019999999N9999999N1+02391+01081101331ADDAA199000021MA1999999097801MD1710111+9999REMSYN060AAXX  23121 11841 36/// /9902 10239 20108 39780 40133 57011;
0101118410999992000072315004+49230+018610FM-12+031599999V0209999V001019999999N9999999N1+02351+01191101271ADDMA1999999097741MD1710081+9999REMSYN060AAXX  23151 11841 46/// /9901 10235 20119 39774 40127 57008;
0223118410999992000072318004+49230+018610FM-12+031599999V0209999C000012200019N0250001N1+02051+01481101261ADDAA112000191AY181061AY211061GA1011+018009029GF101991011021017501001011KA1120M+02481MA1999999097701MD1710041+9999MW1011REMSYN094AAXX  23181 11841 11775 10000 10205 20148 39770 40126 57004 69922 70181 81201 333 10248 81856;
0159118410999992000072321004+49230+018610FM-12+031599999V0209999C000012200019N0100001N1+01391+01211101431ADDGA1011+069009019GF101991001001999999001011MA1999999097781MD1110081+9999REMSYN076AAXX  23211 11841 42960 10000 10139 20121 39778 40143 51008 80001 333 81073;
0141118410999992000072400004+49230+018610FM-12+031599999V0200501N001019999999N9999999N1+01271+01161101361ADDAA199000091MA1999999097701MD1710071+9999REMSYN070AAXX  24001 11841 36/// /0501 10127 20116 39770 40136 57007 333 55096;EQDQ01  00002PRCP99
0159118410999992000072403004+49230+018610FM-12+031599999V0201401N001012200019N0120001N1+01211+01121101271ADDGA1031+030009079GF104991031001999999051011MA1999999097601MD1610101+9999REMSYN076AAXX  24031 11841 42962 41401 10121 20112 39760 40127 56010 83051 333 83360;
0238118410999992000072406004+49230+018610FM-12+031599999V0200801N002010300019N0150001N1+01471+01261101181ADDAA199000091GA1061+030009079GF106991061001999999031001IA1099IA2999+01109KA1120N+01201MA1999999097551MD1810051+9999REMSYN094AAXX  24061 11841 32965 60802 10147 20126 39755 40118 58005 86030 333 20120 31011 50222 86360;EQDQ01  00002PRCP99
0165118410999992000072409004+49230+018610FM-12+031599999V0200701N001010180019N0200001N1+02071+01341100941ADDGA1061+018009069GF108991061051017501001071MA1999999097391MD1610161+9999REMSYN082AAXX  24091 11841 42770 80701 10207 20134 39739 40094 56016 86507 333 86656 88268;
0195118410999992000072412004+49230+018610FM-12+031599999V0200701N001010150019N0250001N1+02301+01291100811ADDAA199000091GA1051+015009069GF108991051051017501071071MA1999999097291MD1710101+9999REMSYN082AAXX  24121 11841 32775 80701 10230 20129 39729 40081 57010 85577 333 85650 88271;EQDQ01  00002PRCP99
0159118410999992000072415004+49230+018610FM-12+031599999V0201801N002010135019N0250001N1+02311+01411100791ADDGA1071+013509059GF107991071051012501001001MA1999999097271MD1810021+9999REMSYN076AAXX  24151 11841 42675 71802 10231 20141 39727 40079 58002 87500 333 87645;
0214118410999992000072418004+49230+018610FM-12+031599999V0201301N001019999999N0200001N1+02171+01581100701ADDAA199000091GA1011+036009039GF105991051001999999041081KA1120M+02471MA1999999097171MD1610101+9999REMSYN088AAXX  24181 11841 32970 51301 10217 20158 39717 40070 56010 85048 333 10247 81362 85271;EQDQ01  00002PRCP99
0159118410999992000072421004+49230+018610FM-12+031599999V0200901N001012200019N0200001N1+01631+01481100771ADDGA1021+060009019GF102991001001999999001011MA1999999097171MD1010001+9999REMSYN076AAXX  24211 11841 42970 20901 10163 20148 39717 40077 50000 80001 333 82070;
0203118410999992000072500004+49230+018610FM-12+031599999V0201201N001012200019N0150001N1+01441+01341100651ADDAA199000091GA1041+039009079GF104991041001999999031001GJ100669MA1999999097031MD1810141+9999REMSYN082AAXX  25001 11841 32965 41201 10144 20134 39703 40065 58014 84030 333 55011 84363;EQDQ01  00002PRCP99
0193118410999992000072503004+49230+018610FM-12+031599999V0201701N001012200019N0035001N1+01361+01301100581ADDAY101031AY201031GA1021+012909069GF104991021051012501001011MA1999999096951MD1710081+9999MW1101REMSYN088AAXX  25031 11841 41635 41701 10136 20130 39695 40058 57008 71000 82501 333 82643 84070;
0238118410999992000072506004+49230+018610FM-12+031599999V0202601N001012200019N0100001N1+01761+01491100541ADDAA199000091GA1021+012009059GF103991021051012501041001IA1019IA2999+01209KA1120N+01331MA1999999096971MD1310021+9999REMSYN094AAXX  25061 11841 32660 32601 10176 20149 39697 40054 53002 82540 333 20133 30012 50162 82640;EQDQ01  00002PRCP99
0159118410999992000072509004+49230+018610FM-12+031599999V0202401N005010120019N0300001N1+02161+01501100631ADDGA1061+012009059GF106991061051012501001001MA1999999097101MD1110131+9999REMSYN076AAXX  25091 11841 42680 62405 10216 20150 39710 40063 51013 86500 333 86640;
0189118410999992000072512004+49230+018610FM-12+031599999V0202401N005010129019N0300001N1+02391+01401100611ADDAA199000091GA1071+012909059GF107991071051012501001001MA1999999097111MD1010011+9999REMSYN076AAXX  25121 11841 32680 72405 10239 20140 39711 40061 50001 87500 333 87643;EQDQ01  00002PRCP99
0187118410999992000072515004+49230+018610FM-12+031599999V0202601N004010360019N0300001N1+02491+01381100621ADDAY181031AY221031GA1031+012909029GF105991041081012501031001MA1999999097131MD1010021+9999MW1011REMSYN082AAXX  25151 11841 41680 52604 10249 20138 39713 40062 50002 70182 84830 333 83843;
0223118410999992000072518004+49230+018610FM-12+031599999V0202801N001012200019N0300001N1+02321+01281100681ADDAA112000791AY181061AY211061GA1011+060009019GF101991001001999999001011KA1120M+02561MA1999999097171MD1310041+9999MW1011REMSYN094AAXX  25181 11841 11980 12801 10232 20128 39717 40068 53004 69902 70181 80001 333 10256 81070;
0159118410999992000072521004+49230+018610FM-12+031599999V0201501N001012200019N0200001N1+01521+01291100911ADDGA1011+060009019GF101991001001999999001011MA1999999097291MD1110121+9999REMSYN076AAXX  25211 11841 42970 11501 10152 20129 39729 40091 51012 80001 333 81070;
0203118410999992000072600004+49230+018610FM-12+031599999V0209999C000012200019N0150001N1+01251+01121100991ADDAA199000091GA1011+060009019GF101991001001999999001011GJ103309MA1999999097331MD1210041+9999REMSYN082AAXX  26001 11841 32965 10000 10125 20112 39733 40099 52004 80001 333 55055 81070;EQDQ01  00002PRCP99
0159118410999992000072603004+49230+018610FM-12+031599999V0209999C000012200019N0120001N1+01161+01081100921ADDGA1011+060009019GF101991001001999999001011MA1999999097251MD1710081+9999REMSYN076AAXX  26031 11841 42962 10000 10116 20108 39725 40092 57008 80001 333 81070;
0238118410999992000072606004+49230+018610FM-12+031599999V0200701N002012200019N0150001N1+01671+01361100821ADDAA199000091GA1021+060009019GF102991001001999999001021IA1019IA2999+00909KA1120N+01121MA1999999097231MD1810021+9999REMSYN094AAXX  26061 11841 32965 20702 10167 20136 39723 40082 58002 80002 333 20112 30009 50262 82070;EQDQ01  00002PRCP99
0159118410999992000072609004+49230+018610FM-12+031599999V0200701N001012200019N0200001N1+02631+01481100521ADDGA1021+012909029GF103991021011012501001011MA1999999097051MD1810181+9999REMSYN076AAXX  26091 11841 42670 30701 10263 20148 39705 40052 58018 82101 333 82843;
0204118410999992000072612004+49230+018610FM-12+031599999V0203001N002010138019N0150001N1+02081+01721100471ADDAA106000191AY191061AY281061GA1051+013809059GF107991051051012501001031MA1999999096941MD1610111+9999MW1291REMSYN088AAXX  26121 11841 11665 73002 10208 20172 39694 40047 56011 69921 72998 85503 333 85646;
0193118410999992000072615004+49230+018610FM-12+031599999V0202401N00401004201CN0013001N1+01771+01621100721ADDAY191031AY281031GA1031+004809099GF107991071091004501001001MA1999999097141MD1210201+9999MW1951REMSYN088AAXX  26151 11841 41413 72404 10177 20162 39714 40072 52020 79598 87900 333 83916 84636;
0229118410999992000072618004+49230+018610FM-12+031599999V0209999C00001002101CN0150001N1+01681+01521100921ADDAA112022191AY191061AY281061GA1021+002409079GF106991061051002501041001KA1120M+02751MA1999999097331MD1310191+9999MW1211REMSYN100AAXX  26181 11841 11365 60000 10168 20152 39733 40092 53019 60222 72198 86540 333 10275 82708 86656;
0187118410999992000072621004+49230+018610FM-12+031599999V0202601N002010024019N0080001N1+01441+01361101101ADDAY121031AY221031GA1081+002409069GF108991081061002501999999MA1999999097471MD1310141+9999MW1101REMSYN082AAXX  26211 11841 41358 82602 10144 20136 39747 40110 53014 71022 886// 333 88708;
0212118410999992000072700004+49230+018610FM-12+031599999V0209999C000012200019N0060001N1+01401+01341101171ADDAA199000021AY111061AY211061GA1031+003009069GF103991031061004501001001GJ103429MA1999999097531MD1110061+9999MW1101REMSYN088AAXX  27001 11841 31456 30000 10140 20134 39753 40117 51006 71011 83600 333 55057 83710;
0187118410999992000072703004+49230+018610FM-12+031599999V0203601N001010012019N0020001N1+01421+01361101211ADDAY111031AY211031GA1081+001209069GF108991081061001501999999MA1999999097571MD1310041+9999MW1101REMSYN082AAXX  27031 11841 41220 83601 10142 20136 39757 40121 53004 71011 886// 333 88704;
0259118410999992000072706004+49230+018610FM-12+031599999V0202601N00401004201CN0030001N1+01711+01541101321ADDAA112000891AY181061AY211061GA1031+003309079GF106991061051004501001001IA1099IA2999+01209KA1120N+01381MA1999999097711MD1310141+9999MW1101REMSYN112AAXX  27061 11841 11430 62604 10171 20154 39771 40132 53014 69972 71081 86500 333 20138 31012 50182 83711 86630;
0193118410999992000072709004+49230+018610FM-12+031599999V0202301N00401004201CN0200001N1+01831+01461101431ADDAY181031AY221031GA1011+004809079GF107991071021004501001001MA1999999097831MD1310121+9999MW1801REMSYN088AAXX  27091 11841 41470 72304 10183 20146 39783 40143 53012 78082 87200 333 81716 87826;
0204118410999992000072712004+49230+018610FM-12+031599999V0202301N004010108019N0250001N1+02101+01401101391ADDAA106000791AY181061AY221061GA1051+010809029GF105991051021012501001001MA1999999097831MD1010001+9999MW1011REMSYN088AAXX  27121 11841 11675 52304 10210 20140 39783 40139 50000 69901 70182 85200 333 85836;
0159118410999992000072715004+49230+018610FM-12+031599999V0201101N00201015001CN0250001N1+02151+01471101401ADDGA1041+012309029GF105991051081012501001001MA1999999097841MD1310011+9999REMSYN076AAXX  27151 11841 42675 51102 10215 20147 39784 40140 53001 85800 333 84841;
0201118410999992000072718004+49230+018610FM-12+031599999V0200701N002012200019N0250001N1+01911+01541101461ADDAA112000791GA1011+012909089GF105991041081012501001011KA1120M+02391MA1999999097871MD1010031+9999REMSYN094AAXX  27181 11841 12675 50702 10191 20154 39787 40146 50003 69902 84801 333 10239 81843 83656;
0178118410999992000072721004+49230+018610FM-12+031599999V0201301N001012200019N0150001N1+01471+01341101561ADDGA1011+018009059GF101991011051017501999001MA1999999097911MD1210041+9999REMSYN076AAXX  27211 11841 42765 11301 10147 20134 39791 40156 52004 81500 333 81656;EQDQ01+000002SCOMCG
0231118410999992000072800004+49230+018610FM-12+031599999V0200901N001010036019N0080001N1+01371+01291101481ADDAA199000091AY111061AY211061GA1051+003609069GF105991051061004501001001GJ102169MA1999999097821MD1810091+9999MW1101REMSYN088AAXX  28001 11841 31458 50901 10137 20129 39782 40148 58009 71011 85600 333 55036 85712;EQDQ01  00002PRCP99
0187118410999992000072803004+49230+018610FM-12+031599999V0200701N001010015019N0025001N1+01411+01331101401ADDAY121031AY221031GA1081+001509069GF108991081061001501999999MA1999999097751MD1710071+9999MW1101REMSYN082AAXX  28031 11841 41225 80701 10141 20133 39775 40140 57007 71022 886// 333 88705;
0294118410999992000072806004+49230+018610FM-12+031599999V0200701N001010090019N0080001N1+01531+01351101341ADDAA199000091AY121061AY221061GA1031+003009079GA2051+009009069GF107991051051004501051001IA1099IA2999+01209KA1120N+01311MA1999999097711MD1610041+9999MW1101REMSYN112AAXX  28061 11841 31458 70701 10153 20135 39771 40134 56004 71022 85550 333 20131 31012 50222 83710 85630 87360;EQDQ01  00002PRCP99
0193118410999992000072809004+49230+018610FM-12+031599999V0202901N001010150019N0100001N1+01721+01471101271ADDAY161031AY221031GA1061+015009069GF108991061051017501021999MA1999999097671MD1610041+9999MW1601REMSYN088AAXX  28091 11841 41760 82901 10172 20147 39767 40127 56004 76062 8652/ 333 86650 88459;
0210118410999992000072812004+49230+018610FM-12+031599999V0209999C000010015019N0024001N1+01641+01511101201ADDAA106007191AY161061AY221061GA1061+001509079GF108991081051001501999999MA1999999097591MD1810081+9999MW1611REMSYN094AAXX  28121 11841 11224 80000 10164 20151 39759 40120 58008 60071 76162 885// 333 86705 88616;
0187118410999992000072815004+49230+018610FM-12+031599999V0203101N001010048019N0150001N1+01991+01491100961ADDAY161031AY221031GA1051+004809059GF106991051051004501001011MA1999999097401MD1610191+9999MW1021REMSYN082AAXX  28151 11841 41465 63101 10199 20149 39740 40096 56019 70262 85501 333 85616;
0229118410999992000072818004+49230+018610FM-12+031599999V0209999C000010300019N0150001N1+01791+01641100871ADDAA112007991AY161061AY221061GA1051+030009039GF107991051001999999031081KA1120M+02041MA1999999097291MD1610111+9999MW1031REMSYN100AAXX  28181 11841 11965 70000 10179 20164 39729 40087 56011 60082 70362 85038 333 10204 85360 87270;
0193118410999992000072821004+49230+018610FM-12+031599999V0202401N002010015019N0040001N1+01581+01481100911ADDAY161031AY221031GA1061+001509079GF108991061071001501021999MA1999999097301MD1310011+9999MW1611REMSYN088AAXX  28211 11841 41240 82402 10158 20148 39730 40091 53001 76162 8672/ 333 86705 88458;
0246118410999992000072900004+49230+018610FM-12+031599999V0202801N001010027019N0047001N1+01511+01451100781ADDAA106015091AY161061AY221061GA1051+002709079GA2061+006909069GF108991061061002501021999GJ100669MA1999999097171MD1810131+9999MW1631REMSYN106AAXX  29001 11841 11347 82801 10151 20145 39717 40078 58013 60151 76362 8662/ 333 55011 85709 86623 88556;
0193118410999992000072903004+49230+018610FM-12+031599999V0202801N00201004201CN0100001N1+01451+01371100721ADDAY161031AY261031GA1041+003009079GF108991081051004501999999MA1999999097101MD1610071+9999MW1611REMSYN088AAXX  29031 11841 41460 82802 10145 20137 39710 40072 56007 76166 885// 333 84710 88623;
0259118410999992000072906004+49230+018610FM-12+031599999V0202301N00301002101CN0150001N1+01431+01281100751ADDAA112027991AY161061AY261061GA1041+002409079GF108991081051002501999999IA1119IA2999+01409KA1120N+01421MA1999999097131MD1310031+9999MW1611REMSYN112AAXX  29061 11841 11365 82303 10143 20128 39713 40075 53003 60282 76166 885// 333 20142 32014 50052 84708 88632;
0215118410999992000072909004+49230+018610FM-12+031599999V0202501N003010072019N0150001N1+01501+01341100831ADDAY161031AY261031GA1041+001809079GA2061+007209069GF108991071051002501021999MA1999999097211MD1210081+9999MW1611REMSYN094AAXX  29091 11841 41365 82503 10150 20134 39721 40083 52008 76166 8752/ 333 84706 86624 88538;
0210118410999992000072912004+49230+018610FM-12+031599999V0202601N00401002101CN0200001N1+01641+01301100891ADDAA106004191AY161061AY221061GA1011+002709079GF108991081051002501999999MA1999999097291MD1210081+9999MW1211REMSYN094AAXX  29121 11841 11370 82604 10164 20130 39729 40089 52008 60041 72162 885// 333 81709 88627;
0165118410999992000072915004+49230+018610FM-12+031599999V0202601N00501036001CN0250001N1+01781+01231100931ADDGA1031+009009069GF107991031051008001071001MA1999999097341MD1210051+9999REMSYN082AAXX  29151 11841 42575 72605 10178 20123 39734 40093 52005 83570 333 83630 87359;
0229118410999992000072918004+49230+018610FM-12+031599999V0202401N00501036001CN0200001N1+01591+01171101011ADDAA112004191AY161061AY221061GA1031+009009069GF108991031051008001071999KA1120M+01831MA1999999097401MD1310061+9999MW1021REMSYN100AAXX  29181 11841 11570 82405 10159 20117 39740 40101 53006 60042 70262 8357/ 333 10183 83630 88358;
0159118410999992000072921004+49230+018610FM-12+031599999V0202501N003010081019N0100001N1+01501+01211101111ADDGA1081+008109059GF108991081051008001999999MA1999999097481MD1310081+9999REMSYN076AAXX  29211 11841 42560 82503 10150 20121 39748 40111 53008 885// 333 88627;
0184118410999992000073000004+49230+018610FM-12+031599999V0202401N004010084019N0100001N1+01521+01161101121ADDAA199000021GA1081+008409059GF108991081051008001999999GJ100009MA1999999097491MD1110011+9999REMSYN082AAXX  30001 11841 32560 82404 10152 20116 39749 40112 51001 885// 333 55000 88628;
0187118410999992000073003004+49230+018610FM-12+031599999V0202401N004010081019N0100001N1+01421+01241101181ADDAY161031AY221031GA1081+008109059GF108991081051008001999999MA1999999097541MD1210051+9999MW1211REMSYN082AAXX  30031 11841 41560 82404 10142 20124 39754 40118 52005 72162 885// 333 88627;
0259118410999992000073006004+49230+018610FM-12+031599999V0203201N00101002101CN0120001N1+01441+01311101391ADDAA112000391AY161061AY221061GA1041+002709079GF108991081051002501999999IA1119IA2999+01309KA1120N+01411MA1999999097751MD1310211+9999MW1601REMSYN112AAXX  30061 11841 11362 83201 10144 20131 39775 40139 53021 69932 76062 885// 333 20141 32013 50192 84709 88624;
0193118410999992000073009004+49230+018610FM-12+031599999V0203101N00301007501CN0300001N1+01581+00951101611ADDAY161031AY221031GA1041+009009069GF107991071051008001001011MA1999999097971MD1210221+9999MW1021REMSYN088AAXX  30091 11841 41580 73103 10158 20095 39797 40161 52022 70262 87501 333 84630 86649;
0210118410999992000073012004+49230+018610FM-12+031599999V0203601N00201220001CN0300001N1+01961+00771101641ADDAA106000191AY161061AY221061GA1041+013809089GF106991041021012501001061MA1999999098041MD1110071+9999MW1021REMSYN094AAXX  30121 11841 11680 63602 10196 20077 39804 40164 51007 69911 70262 84206 333 84846 86270;
0165118410999992000073015004+49230+018610FM-12+031599999V0200201N003012200019N0400001N1+02111+00701101621ADDGA1011+018009089GF103991011011017501041021MA1999999098041MD1010001+9999REMSYN082AAXX  30151 11841 42782 30203 10211 20070 39804 40162 50000 81142 333 81856 83073;
0195118410999992000073018004+49230+018610FM-12+031599999V0203301N002012200019N0400001N1+01801+01061101781ADDAA112000191GA1011+036009079GF102991011001999999041011KA1120M+02151MA1999999098161MD1310121+9999REMSYN088AAXX  30181 11841 12982 23302 10180 20106 39816 40178 53012 69912 81041 333 10215 81362;
0159118410999992000073021004+49230+018610FM-12+031599999V0201001N001012200019N0300001N1+01131+00921102061ADDGA1011+030009079GF101991011001999999041001MA1999999098351MD1110191+9999REMSYN076AAXX  30211 11841 42980 11001 10113 20092 39835 40206 51019 81040 333 81360;
0231118410999992000073100004+49230+018610FM-12+031599999V0201001N001010180019N0300001N1+01181+01041102131ADDAA199000091GA1021+015009069GA2051+018009069GF107991051051017501071001GJ103189MA1999999098421MD1110071+9999REMSYN094AAXX  31001 11841 32780 71001 10118 20104 39842 40213 51007 85570 333 55053 82650 85656 87358;EQDQ01  00002PRCP99
0187118410999992000073103004+49230+018610FM-12+031599999V0209999C000010072019N0250001N1+01181+01051102141ADDAY161031AY221031GA1061+007209059GF107991061051008001071001MA1999999098431MD1310011+9999MW1021REMSYN082AAXX  31031 11841 41575 70000 10118 20105 39843 40214 53001 70262 86570 333 86624;
0281118410999992000073106004+49230+018610FM-12+031599999V0200601N001010078019N0060001N1+01241+01161102221ADDAA112006191AY161061AY221061GA1041+001809079GA2051+007809069GF107991051051002501021999IA1099IA2999+01009KA1120N+01061MA1999999098521MD1210091+9999MW1611REMSYN118AAXX  31061 11841 11356 70601 10124 20116 39852 40222 52009 60062 76162 8552/ 333 20106 31010 50132 84706 85626 87457;
0215118410999992000073109004+49230+018610FM-12+031599999V0209999C000010084019N0100001N1+01601+01291102211ADDAY161031AY221031GA1031+001809079GA2041+008409069GF107991071051002501001001MA1999999098561MD1310041+9999MW1021REMSYN094AAXX  31091 11841 41360 70000 10160 20129 39856 40221 53004 70262 87500 333 83706 84628 87636;
0210118410999992000073112004+49230+018610FM-12+031599999V0202101N00101012001CN0150001N1+02021+01201102081ADDAA106002091AY181061AY261061GA1021+009609089GF105991051081008001001011MA1999999098481MD1810081+9999MW1251REMSYN094AAXX  31121 11841 11565 52101 10202 20120 39848 40208 58008 60021 72586 85801 333 82832 83650;
0159118410999992000073115004+49230+018610FM-12+031599999V0203101N004012200019N0200001N1+02091+00821102031ADDGA1031+015009029GF104991031021017501061001MA1999999098441MD1610041+9999REMSYN076AAXX  31151 11841 42770 43104 10209 20082 39844 40203 56004 83260 333 83850;
0214118410999992000073118004+49230+018610FM-12+031599999V0203401N001012200019N0200001N1+01811+01211102121ADDAA112002091GA1011+018009059GF101991011041017501999001KA1120M+02221MA1999999098491MD1310051+9999REMSYN088AAXX  31181 11841 12770 13401 10181 20121 39849 40212 53005 60022 81400 333 10222 81656;EQDQ01+000002SCOMCG
0178118410999992000073121004+49230+018610FM-12+031599999V0201001N001010180019N0100001N1+01351+01171102321ADDGA1061+018009059GF106991061051017501999001MA1999999098631MD1110141+9999REMSYN076AAXX  31211 11841 42760 61001 10135 20117 39863 40232 51014 86500 333 86656;EQDQ01+000002SCOMCG
0203118410999992000080100004+49230+018610FM-12+031599999V0209999C000012200019N0100001N1+01231+01091102351ADDAA199000021GA1031+015009059GF103991031051017501999001GJ104089MA1999999098641MD1010011+9999REMSYN082AAXX  01001 11841 32760 30000 10123 20109 39864 40235 50001 83500 333 55068 83650;EQDQ01    003SCOMCG
0187118410999992000080103004+49230+018610FM-12+031599999V0209999C000010009019N0005001N1+01061+01001102391ADDAY111031AY211031GA1061+000909069GF106991061061000751031001MA1999999098661MD1110021+9999MW1461REMSYN082AAXX  01031 11841 41105 60000 10106 20100 39866 40239 51002 74611 86630 333 86703;
0266118410999992000080106004+49230+018610FM-12+031599999V0209999C000012200019N0021001N1+01431+01161102361ADDAA199000091AY141061AY211061GA1031+000309069GF103991031061000751001001IA1099IA2999+00909KA1120N+01021MA1999999098681MD1010021+9999MW1101REMSYN100AAXX  01061 11841 31121 30000 10143 20116 39868 40236 50002 71041 83600 333 20102 31009 50222 83701;EQDQ01  00002PRCP99
0159118410999992000080109004+49230+018610FM-12+031599999V0202201N001012200019N0150001N1+02121+01101102191ADDGA1031+014409029GF104991031021012501061001MA1999999098601MD1710081+9999REMSYN076AAXX  01091 11841 42665 42201 10212 20110 39860 40219 57008 83260 333 83848;
0189118410999992000080112004+49230+018610FM-12+031599999V0201001N001012200019N0200001N1+02431+00911102051ADDAA199000091GA1041+018009029GF104991041021017501001001MA1999999098501MD1810101+9999REMSYN076AAXX  01121 11841 32770 41001 10243 20091 39850 40205 58010 84200 333 84856;EQDQ01  00002PRCP99
0159118410999992000080115004+49230+018610FM-12+031599999V0201401N001012200019N0200001N1+02421+00821101981ADDGA1021+018009029GF103991021021017501061001MA1999999098431MD1710071+9999REMSYN076AAXX  01151 11841 42770 31401 10242 20082 39843 40198 57007 82260 333 82856;
0224118410999992000080118004+49230+018610FM-12+031599999V0209999C000012200019N0200001N1+01901+01321102021ADDAA199000091GA1011+021009059GF101991011041022501999011KA1120M+02461MA1999999098411MD1510021+9999REMSYN082AAXX  01181 11841 32870 10000 10190 20132 39841 40202 55002 81401 333 10246 81657;EQDQ01+000002SCOMCGQ02  00002PRCP99
0143118410999992000080121004+49230+018610FM-12+031599999V0201501N001012200019N0200001N1+01351+01171102211ADDGA1001+999999999GF100991001001999999001001MA1999999098521MD1110111+9999REMSYN060AAXX  01211 11841 42970 01501 10135 20117 39852 40221 51011;
0183118410999992000080200004+49230+018610FM-12+031599999V0209999C000012200019N0200001N1+01171+01081102251ADDAA199000091GA1001+999999999GF100991001001999999001001MA1999999098541MD1110021+9999REMSYN070AAXX  02001 11841 32970 00000 10117 20108 39854 40225 51002 333 55088;EQDQ01  00002PRCP99
0143118410999992000080203004+49230+018610FM-12+031599999V0200701N001012200019N0100001N1+01101+01021102221ADDGA1001+999999999GF100991001001999999001001MA1999999098501MD1810041+9999REMSYN060AAXX  02031 11841 42960 00701 10110 20102 39850 40222 58004;
0226118410999992000080206004+49230+018610FM-12+031599999V0200601N001012200019N0150001N1+01511+01221102101ADDAA199000091GA1001+999999999GF100991001001999999001001IA1099IA2999+00909KA1120N+01081MA1999999098441MD1610061+9999REMSYN082AAXX  02061 11841 32965 00601 10151 20122 39844 40210 56006 333 20108 31009 50362;EQDQ01  00002PRCP99
0159118410999992000080209004+49230+018610FM-12+031599999V0202901N001012200019N0250001N1+02321+01311101881ADDGA1011+008409029GF101991011011008001001001MA1999999098321MD1710121+9999REMSYN076AAXX  02091 11841 42575 12901 10232 20131 39832 40188 57012 81100 333 81828;
0189118410999992000080212004+49230+018610FM-12+031599999V0202301N006012200019N0300001N1+02631+01281101741ADDAA199000091GA1011+011409029GF101991011011012501001001MA1999999098221MD1610101+9999REMSYN076AAXX  02121 11841 32680 12306 10263 20128 39822 40174 56010 81100 333 81838;EQDQ01  00002PRCP99
0159118410999992000080215004+49230+018610FM-12+031599999V0202201N003012200019N0350001N1+02721+01281101551ADDGA1011+015009029GF101991011011017501001001MA1999999098051MD1710171+9999REMSYN076AAXX  02151 11841 42781 12203 10272 20128 39805 40155 57017 81100 333 81850;
0154118410999992000080218004+49230+018610FM-12+031599999V0202001N001019999999N9999999N1+02451+01271101571ADDAA199000091KA1999M+02751MA1999999098041MD1710041+9999REMSYN070AAXX  02181 11841 36/// /2001 10245 20127 39804 40157 57004 333 10275;EQDQ01  00002PRCP99
0187118410999992000080221004+49230+018610FM-12+031599999V0209999C000012200019N0120001N1+01651+01401101721ADDAY101031AY201031GA1011+063009019GF101991001001999999001021MA1999999098091MD1110051+9999MW1131REMSYN082AAXX  02211 11841 41962 10000 10165 20140 39809 40172 51005 71300 80002 333 81071;
0224118410999992000080300004+49230+018610FM-12+031599999V0202701N00101007501CN0100001N1+01631+01501101911ADDAA106002091AY181061AY211061GA1021+007509099GF107991051031008001071001GJ107689MA1999999098271MD1310181+9999MW1951REMSYN100AAXX  03001 11841 11560 72701 10163 20150 39827 40191 53018 60021 79581 85370 333 55128 82925 83633;
0193118410999992000080303004+49230+018610FM-12+031599999V0209999C00001036001CN0100001N1+01641+01561101851ADDAY181031AY221031GA1021+008709069GF107991021051008001071001MA1999999098221MD1610051+9999MW1021REMSYN088AAXX  03031 11841 41560 70000 10164 20156 39822 40185 56005 70282 82570 333 82629 87358;
0259118410999992000080306004+49230+018610FM-12+031599999V0203101N00101036001CN0050001N1+01751+01621101921ADDAA112004191AY181061AY261061GA1031+001509079GF105991031061001501031001IA1099IA2999+01409KA1120N+01621MA1999999098301MD1310081+9999MW1101REMSYN112AAXX  03061 11841 11250 53101 10175 20162 39830 40192 53008 60042 71086 83630 333 20162 31014 50212 83705 85360;
0165118410999992000080309004+49230+018610FM-12+031599999V0202301N001012200019N0150001N1+02301+01631101831ADDGA1021+006009089GF104991021021008001031001MA1999999098281MD1810021+9999REMSYN082AAXX  03091 11841 42565 42301 10230 20163 39828 40183 58002 82230 333 82820 83360;
0176118410999992000080312004+49230+018610FM-12+031599999V0202601N00301036001CN0200001N1+02491+01221101701ADDAA199000021GA1021+009009089GF105991021021008001031001MA1999999098171MD1810111+9999REMSYN082AAXX  03121 11841 32570 52603 10249 20122 39817 40170 58011 82230 333 82830 85360;
0165118410999992000080315004+49230+018610FM-12+031599999V0203101N00201036001CN0200001N1+02501+01361101601ADDGA1021+015009089GF106991021011017501031001MA1999999098081MD1510091+9999REMSYN082AAXX  03151 11841 42770 63102 10250 20136 39808 40160 55009 82130 333 82850 86360;
0208118410999992000080318004+49230+018610FM-12+031599999V0209999C000010300019N0200001N1+02111+01631101561ADDAA199000091GA1061+030009079GF106991061001999999071001KA1120M+02671MA1999999098001MD1610081+9999REMSYN082AAXX  03181 11841 32970 60000 10211 20163 39800 40156 56008 86070 333 10267 86360;EQDQ01  00002PRCP99
0159118410999992000080321004+49230+018610FM-12+031599999V0201401N001010300019N0100001N1+01721+01501101551ADDGA1071+030009079GF107991071001999999031001MA1999999097941MD1610061+9999REMSYN076AAXX  03211 11841 42960 71401 10172 20150 39794 40155 56006 87030 333 87360;
0218118410999992000080400004+49230+018610FM-12+031599999V0201001N002010240019N0100001N1+01691+01621101511ADDAA106003091AY161061AY221061GA1081+024009019GF108991081001999999021999GJ103009MA1999999097901MD1810041+9999MW1611REMSYN094AAXX  04001 11841 11960 81002 10169 20162 39790 40151 58004 60031 76162 8802/ 333 55050 88458;
0193118410999992000080403004+49230+018610FM-12+031599999V0202701N00101002101CN0046001N1+01721+01661101541ADDAY161031AY221031GA1031+002409079GF108991051041002501001021MA1999999097931MD1310031+9999MW1611REMSYN088AAXX  04031 11841 41346 82701 10172 20166 39793 40154 53003 76162 85402 333 83708 85650;
0259118410999992000080406004+49230+018610FM-12+031599999V0200801N00101004201CN0250001N1+01671+01471101721ADDAA112016091AY161061AY221061GA1011+004509079GF107991071051004501001001IA1099IA2999+01609KA1120N+01601MA1999999098091MD1110161+9999MW1021REMSYN112AAXX  04061 11841 11475 70801 10167 20147 39809 40172 51016 60162 70262 87500 333 20160 31016 50252 81715 87646;
0159118410999992000080409004+49230+018610FM-12+031599999V0200801N003010138019N0250001N1+01931+01461101781ADDGA1071+013809059GF107991071051012501001001MA1999999098181MD1010091+9999REMSYN076AAXX  04091 11841 42675 70803 10193 20146 39818 40178 50009 87500 333 87646;
0204118410999992000080412004+49230+018610FM-12+031599999V0200801N002012200019N0300001N1+02321+01451101751ADDAA106000791AY181061AY211061GA1031+009009029GF104991031021008001001011MA1999999098201MD1010021+9999MW1011REMSYN088AAXX  04121 11841 11580 40802 10232 20145 39820 40175 50002 69901 70181 83201 333 83830;
0193118410999992000080415004+49230+018610FM-12+031599999V0203201N001010150019N0200001N1+02191+01751101701ADDAY181031AY211031GA1021+012009089GF107991061081012501001011MA1999999098141MD1710061+9999MW1251REMSYN088AAXX  04151 11841 41670 73201 10219 20175 39814 40170 57006 72581 86801 333 82840 84650;
0242118410999992000080418004+49230+018610FM-12+031599999V0203001N001010150019N0150001N1+01971+01601101791ADDAA112000191AY181061AY211061GA1071+015009059GF107991071051017501999001KA1120M+02381MA1999999098201MD1310061+9999MW1021REMSYN094AAXX  04181 11841 11765 73001 10197 20160 39820 40179 53006 69912 70281 87500 333 10238 87650;EQDQ01    003SCOMCG
0187118410999992000080421004+49230+018610FM-12+031599999V0209999C000010129019N0100001N1+01761+01561101891ADDAY161031AY221031GA1081+012909059GF108991081051012501999999MA1999999098271MD1210071+9999MW1211REMSYN082AAXX  04211 11841 41660 80000 10176 20156 39827 40189 52007 72162 885// 333 88643;
0218118410999992000080500004+49230+018610FM-12+031599999V0200601N002010120019N0100001N1+01731+01491101901ADDAA106000791AY161061AY221061GA1081+012009059GF108991081051012501999999GJ101509MA1999999098281MD1010011+9999MW1021REMSYN094AAXX  05001 11841 11660 80602 10173 20149 39828 40190 50001 69901 70262 885// 333 55025 88640;
0187118410999992000080503004+49230+018610FM-12+031599999V0209999C000010108019N0080001N1+01571+01441101821ADDAY121031AY221031GA1071+010809059GF107991071051012501001001MA1999999098181MD1610101+9999MW1101REMSYN082AAXX  05031 11841 41658 70000 10157 20144 39818 40182 56010 71022 87500 333 87636;
0225118410999992000080506004+49230+018610FM-12+031599999V0203101N001010069019N0120001N1+01701+01481101921ADDAA112000791GA1071+006909059GF107991071051008001001001IA1099IA2999+01509KA1120N+01521MA1999999098291MD1310111+9999REMSYN100AAXX  05061 11841 12562 73101 10170 20148 39829 40192 53011 69902 87500 333 20152 31015 50232 87623;
0165118410999992000080509004+49230+018610FM-12+031599999V0200701N00101220001CN0150001N1+02141+01531101851ADDGA1031+007509089GF106991031021008001001041MA1999999098281MD1710011+9999REMSYN082AAXX  05091 11841 42565 60701 10214 20153 39828 40185 57001 83204 333 83825 85073;
0195118410999992000080512004+49230+018610FM-12+031599999V0209999C00001090001CN0150001N1+02361+01541101801ADDAA199000091GA1021+010209089GF108991021021012501001071MA1999999098261MD1710021+9999REMSYN082AAXX  05121 11841 32665 80000 10236 20154 39826 40180 57002 82207 333 82834 88273;EQDQ01  00002PRCP99
0193118410999992000080515004+49230+018610FM-12+031599999V0203001N00101036001CN0150001N1+02031+01731101891ADDAY161031AY221031GA1021+009909069GF108991021051008001071071MA1999999098311MD1110051+9999MW1611REMSYN088AAXX  05151 11841 41565 83001 10203 20173 39831 40189 51005 76162 82577 333 82633 87360;
0206118410999992000080518004+49230+018610FM-12+031599999V0209999C000012200019N0150001N1+01911+01631101811ADDAA112000891AY161061AY211061GF103991999999999999999999KA1120M+02381MA1999999098211MD1510101+9999MW1011REMSYN093AAXX  05181 11841 11965 30000 10191 20163 39821 40181 55010 69972 70161 8201 333 10238 82360;
0159118410999992000080521004+49230+018610FM-12+031599999V0200601N001012200019N0120001N1+01601+01501101871ADDGA1041+039009079GF104991041001999999031001MA1999999098231MD1010021+9999REMSYN076AAXX  05211 11841 42962 40601 10160 20150 39823 40187 50002 84030 333 84363;
0184118410999992000080600004+49230+018610FM-12+031599999V0201201N002012200019N0100001N1+01461+01361101811ADDAA199000021GA1021+069009019GF102991001001999999001011GJ100309MA1999999098151MD1710081+9999REMSYN082AAXX  06001 11841 32960 21202 10146 20136 39815 40181 57008 80001 333 55005 82073;
0165118410999992000080603004+49230+018610FM-12+031599999V0201901N001019999999N0100001N1+01411+01331101741ADDGA1041+027009039GF107991041001999999031061MA1999999098081MD1610071+9999REMSYN082AAXX  06031 11841 42960 71901 10141 20133 39808 40174 56007 84036 333 84359 86265;
0244118410999992000080606004+49230+018610FM-12+031599999V0209999C000012200019N0150001N1+01851+01481101621ADDAA199000091GA1011+033009039GF104991011001999999041021IA1099IA2999+01309KA1120N+01411MA1999999098021MD1610061+9999REMSYN100AAXX  06061 11841 32965 40000 10185 20148 39802 40162 56006 81042 333 20141 31013 50102 81361 83069;EQDQ01  00002PRCP99
0193118410999992000080609004+49230+018610FM-12+031599999V0201101N00201036001CN0150001N1+01901+01621101591ADDAY161031AY211031GA1021+011409069GF106991021051012501071011MA1999999098001MD1810021+9999MW1211REMSYN088AAXX  06091 11841 41665 61102 10190 20162 39800 40159 58002 72161 82571 333 82638 86358;
0210118410999992000080612004+49230+018610FM-12+031599999V0200601N004010360019N0200001N1+02281+01661101411ADDAA106001091AY161061AY211061GA1011+012609089GF107991011011012501071001MA1999999097871MD1810131+9999MW1021REMSYN094AAXX  06121 11841 11670 70604 10228 20166 39787 40141 58013 60011 70261 81170 333 81842 87362;
0187118410999992000080615004+49230+018610FM-12+031599999V0200401N003010330019N0250001N1+02361+01741101281ADDAY161031AY221031GA1061+033009079GF106991061001999999071001MA1999999097761MD1710111+9999MW1211REMSYN082AAXX  06151 11841 41975 60403 10236 20174 39776 40128 57011 72162 86070 333 86361;
0141118410999992000080618004+49230+018610FM-12+031599999V0209999C000019999999N9999999N1+02111+01771101271ADDAA112001091KA1999M+02411MA1999999097721MD1710061+9999REMSYN076AAXX  06181 11841 16/// /0000 10211 20177 39772 40127 57006 60012 333 10241;
0178118410999992000080621004+49230+018610FM-12+031599999V0200901N001010240019N0100001N1+01781+01631101341ADDGA1071+024009079GF108991081999999999071999MA1999999097741MD1310021+9999REMSYN076AAXX  06211 11841 42960 80901 10178 20163 39774 40134 53002 8807/ 333 87358;EQDQ01    003SCOLCG
0122118410999992000080700004+49230+018610FM-12+031599999V0201401N002019999999N9999999N1+01791+01641101341ADDAA199000021MA1999999097751MD1210021+9999REMSYN070AAXX  07001 11841 36/// /1402 10179 20164 39775 40134 52002 333 55059;
0187118410999992000080703004+49230+018610FM-12+031599999V0209999C000010051019N0038001N1+01681+01601101381ADDAY121031AY221031GA1081+005109059GF108991081051004501999999MA1999999097771MD1010071+9999MW1101REMSYN082AAXX  07031 11841 41438 80000 10168 20160 39777 40138 50007 71022 885// 333 88617;
0259118410999992000080706004+49230+018610FM-12+031599999V0209999C000010027019N0021001N1+01761+01661101361ADDAA112000191AY121061AY221061GA1061+002709079GF108991081051002501999999IA1099IA2999+01609KA1120N+01621MA1999999097761MD1510011+9999MW1211REMSYN112AAXX  07061 11841 11321 80000 10176 20166 39776 40136 55001 69912 72122 885// 333 20162 31016 50132 86709 88625;
0187118410999992000080709004+49230+018610FM-12+031599999V0200301N00301007501CN0120001N1+01961+01571101391ADDGA1021+006009089GA2011+006909099GF107991071091008001001001MA1999999097811MD1210051+9999REMSYN088AAXX  07091 11841 42562 70303 10196 20157 39781 40139 52005 87900 333 82820 81923 84633;
0210118410999992000080712004+49230+018610FM-12+031599999V0203301N00101007501CN0100001N1+01871+01421101541ADDAA106000391AY191061AY281061GA1041+006009069GF107991071051008001001001MA1999999097941MD1310131+9999MW1021REMSYN094AAXX  07121 11841 11560 73301 10187 20142 39794 40154 53013 69931 70298 87500 333 84620 87632;
0159118410999992000080715004+49230+018610FM-12+031599999V0202601N00101012001CN0150001N1+02101+01351101491ADDGA1031+009009029GF105991051081008001001001MA1999999097921MD1810021+9999REMSYN076AAXX  07151 11841 42565 52601 10210 20135 39792 40149 58002 85800 333 83830;
0195118410999992000080718004+49230+018610FM-12+031599999V0209999C000012200019N0150001N1+01731+01441101571ADDAA112000391GA1021+012009059GF102991021051012501001001KA1120M+02101MA1999999097961MD1310041+9999REMSYN088AAXX  07181 11841 12665 20000 10173 20144 39796 40157 53004 69932 82500 333 10210 82640;
0187118410999992000080721004+49230+018610FM-12+031599999V0209999C000010123019N0080001N1+01441+01311101771ADDAY111031AY211031GA1051+012309059GF105991051051012501001001MA1999999098111MD1110151+9999MW1101REMSYN082AAXX  07211 11841 41658 50000 10144 20131 39811 40177 51015 71011 85500 333 85641;
0231118410999992000080800004+49230+018610FM-12+031599999V0209999C000010099019N0050001N1+01431+01321101821ADDAA199000091AY111061AY211061GA1061+009909059GF106991061051012501001001GJ101329MA1999999098161MD1110051+9999MW1101REMSYN088AAXX  08001 11841 31650 60000 10143 20132 39816 40182 51005 71011 86500 333 55022 86633;EQDQ01  00002PRCP99
0187118410999992000080803004+49230+018610FM-12+031599999V0200301N001010135019N0042001N1+01361+01281101861ADDAY121031AY221031GA1051+013509059GF105991051051012501001001MA1999999098191MD1310031+9999MW1101REMSYN082AAXX  08031 11841 41642 50301 10136 20128 39819 40186 53003 71022 85500 333 85645;
0244118410999992000080806004+49230+018610FM-12+031599999V0209999C00001012001CN0150001N1+01521+01291101931ADDAA199000091GA1011+007809089GF106991061081008001001001IA1099IA2999+01109KA1120N+01251MA1999999098281MD1110091+9999REMSYN100AAXX  08061 11841 32565 60000 10152 20129 39828 40193 51009 86800 333 20125 31011 50162 81826 85646;EQDQ01  00002PRCP99
0159118410999992000080809004+49230+018610FM-12+031599999V0200101N001012200019N0200001N1+01941+00811101871ADDGA1021+013809029GF102991021021012501001001MA1999999098261MD1710021+9999REMSYN076AAXX  08091 11841 42670 20101 10194 20081 39826 40187 57002 82200 333 82846;
0195118410999992000080812004+49230+018610FM-12+031599999V0203501N00201015001CN0200001N1+02081+00971101781ADDAA199000091GA1021+013809089GF106991051081012501001011MA1999999098201MD1710061+9999REMSYN082AAXX  08121 11841 32670 63502 10208 20097 39820 40178 57006 85801 333 82846 84656;EQDQ01  00002PRCP99
0165118410999992000080815004+49230+018610FM-12+031599999V0202401N001012200019N0200001N1+02201+01081101701ADDGA1011+015009089GF104991031081017501041001MA1999999098131MD1710071+9999REMSYN082AAXX  08151 11841 42770 42401 10220 20108 39813 40170 57007 83840 333 81850 83656;
0208118410999992000080818004+49230+018610FM-12+031599999V0201201N001012200019N0250001N1+01711+01241101791ADDAA199000091GA1041+030009079GF104991041001999999031001KA1120M+02261MA1999999098161MD1310031+9999REMSYN082AAXX  08181 11841 32975 41201 10171 20124 39816 40179 53003 84030 333 10226 84360;EQDQ01  00002PRCP99
0159118410999992000080821004+49230+018610FM-12+031599999V0209999C000010300019N0100001N1+01371+01181101941ADDGA1061+030009079GF106991061001999999031001MA1999999098271MD1110111+9999REMSYN076AAXX  08211 11841 42960 60000 10137 20118 39827 40194 51011 86030 333 86360;
0224118410999992000080900004+49230+018610FM-12+031599999V0201201N001010240019N0100001N1+01381+01271101931ADDAA106000791AY161061AY221061GA1061+024009039GF108991081001022501071999GJ103249MA1999999098261MD1810011+9999MW1211REMSYN100AAXX  09001 11841 11860 81201 10138 20127 39826 40193 58001 69901 72162 8807/ 333 55054 86358 88460;
0165118410999992000080903004+49230+018610FM-12+031599999V0201101N001010180019N0100001N1+01361+01261101931ADDGA1061+018009069GF108991061051017501071999MA1999999098261MD1510001+9999REMSYN082AAXX  09031 11841 42760 81101 10136 20126 39826 40193 55000 8657/ 333 86656 88460;
0253118410999992000080906004+49230+018610FM-12+031599999V0209999C000010300019N0080001N1+01591+01321101951ADDAA112000191AY161061AY221061GA1061+030009079GF106991061001999999031001IA1099IA2999+01209KA1120N+01361MA1999999098301MD1010041+9999MW1101REMSYN106AAXX  09061 11841 11958 60000 10159 20132 39830 40195 50004 69912 71062 86030 333 20136 31012 50192 86360;
0159118410999992000080909004+49230+018610FM-12+031599999V0202201N002012200019N0150001N1+02151+01321101881ADDGA1021+012009029GF103991021021012501031011MA1999999098301MD1410001+9999REMSYN076AAXX  09091 11841 42665 32202 10215 20132 39830 40188 54000 82231 333 82840;
0170118410999992000080912004+49230+018610FM-12+031599999V0202401N004010360019N0200001N1+02151+01261101841ADDAA199000021GA1041+014409029GF105991041021012501061001MA1999999098261MD1610041+9999REMSYN076AAXX  09121 11841 32670 52404 10215 20126 39826 40184 56004 84260 333 84848;
0165118410999992000080915004+49230+018610FM-12+031599999V0202601N00401036001CN0200001N1+02261+01281101791ADDGA1011+015009089GF106991011021017501061001MA1999999098231MD1510031+9999REMSYN082AAXX  09151 11841 42770 62604 10226 20128 39823 40179 55003 81260 333 81850 86359;
0208118410999992000080918004+49230+018610FM-12+031599999V0202901N001012200019N0200001N1+01951+01251101841ADDAA199000091GA1011+027009079GF101991011001999999041011KA1120M+02431MA1999999098241MD1310011+9999REMSYN082AAXX  09181 11841 32970 12901 10195 20125 39824 40184 53001 81041 333 10243 81359;EQDQ01  00002PRCP99
0143118410999992000080921004+49230+018610FM-12+031599999V0200201N001012200019N0200001N1+01331+01151102051ADDGA1001+999999999GF100991001001999999001001MA1999999098371MD1110131+9999REMSYN060AAXX  09211 11841 42970 00201 10133 20115 39837 40205 51013;
0183118410999992000081000004+49230+018610FM-12+031599999V0209999C000012200019N0150001N1+01171+01061102121ADDAA199000091GA1001+999999999GF100991001001999999001001MA1999999098411MD1010041+9999REMSYN070AAXX  10001 11841 32965 00000 10117 20106 39841 40212 50004 333 55058;EQDQ01  00002PRCP99
0171118410999992000081003004+49230+018610FM-12+031599999V0209999C000012200019N0018001N1+01021+00941102111ADDAY101031AY201031GA1001+999999999GF100991001001999999001001MA1999999098381MD1810031+9999MW1101REMSYN066AAXX  10031 11841 41918 00000 10102 20094 39838 40211 58003 71000;
0266118410999992000081006004+49230+018610FM-12+031599999V0200801N002010006019N0008001N1+01241+01181102091ADDAA199000091AY141061AY211061GA1051+000609069GF105991051061000751001001IA1099IA2999+00809KA1120N+01011MA1999999098391MD1110011+9999MW1421REMSYN100AAXX  10061 11841 31108 50802 10124 20118 39839 40209 51001 74241 85600 333 20101 31008 50232 85702;EQDQ01  00002PRCP99
0187118410999992000081009004+49230+018610FM-12+031599999V0200701N001012200019N0150001N1+02201+01441101901ADDAY141031AY211031GA1021+012009029GF102991021021012501001011MA1999999098331MD1710061+9999MW1031REMSYN082AAXX  10091 11841 41665 20701 10220 20144 39833 40190 57006 70341 82201 333 82840;
0217118410999992000081012004+49230+018610FM-12+031599999V0202501N004010150019N0250001N1+02491+01221101711ADDAA199000091AY141061AY211061GA1051+015009029GF106991051021017501061011MA1999999098181MD1610151+9999MW1031REMSYN082AAXX  10121 11841 31775 62504 10249 20122 39818 40171 56015 70341 85261 333 85850;EQDQ01  00002PRCP99
0165118410999992000081015004+49230+018610FM-12+031599999V0201901N001012200019N0250001N1+02561+01061101581ADDGA1021+018009089GF104991021021017501061011MA1999999098061MD1610121+9999REMSYN082AAXX  10151 11841 42775 41901 10256 20106 39806 40158 56012 82261 333 82856 84070;
0214118410999992000081018004+49230+018610FM-12+031599999V0209999C000012200019N0250001N1+01931+01301101611ADDAA199000091GA1021+030009039GF104991021001999999041011KA1120M+02611MA1999999098021MD1510041+9999REMSYN088AAXX  10181 11841 32975 40000 10193 20130 39802 40161 55004 82041 333 10261 82360 84070;EQDQ01  00002PRCP99
0143118410999992000081021004+49230+018610FM-12+031599999V0209999C000012200019N0100001N1+01441+01211101781ADDGA1001+999999999GF100991001001999999001001MA1999999098121MD1110101+9999REMSYN060AAXX  10211 11841 42960 00000 10144 20121 39812 40178 51010;
0183118410999992000081100004+49230+018610FM-12+031599999V0209999C000012200019N0150001N1+01231+01101101771ADDAA199000091GA1001+999999999GF100991001001999999001001MA1999999098081MD1610041+9999REMSYN070AAXX  11001 11841 32965 00000 10123 20110 39808 40177 56004 333 55099;EQDQ01  00002PRCP99
0159118410999992000081103004+49230+018610FM-12+031599999V0201001N001012200019N0100001N1+01161+01081101681ADDGA1031+000909069GF104991031061001501031001MA1999999097991MD1610091+9999REMSYN076AAXX  11031 11841 42260 41001 10116 20108 39799 40168 56009 83630 333 83703;
0238118410999992000081106004+49230+018610FM-12+031599999V0200601N001012200019N0120001N1+01511+01261101611ADDAA199000091GA1021+033009079GF102991021001999999041001IA1099IA2999+01009KA1120N+01111MA1999999097971MD1810021+9999REMSYN094AAXX  11061 11841 32962 20601 10151 20126 39797 40161 58002 82040 333 20111 31010 50262 82361;EQDQ01  00002PRCP99
0165118410999992000081109004+49230+018610FM-12+031599999V0202501N003012200019N0150001N1+02401+01361101421ADDGA1011+012009089GF103991011021012501031001MA1999999097891MD1710081+9999REMSYN082AAXX  11091 11841 42665 32503 10240 20136 39789 40142 57008 81230 333 81840 83360;
0189118410999992000081112004+49230+018610FM-12+031599999V0202501N005012200019N0200001N1+02731+01471101231ADDAA199000091GA1021+015009029GF103991021021017501041001MA1999999097751MD1810141+9999REMSYN076AAXX  11121 11841 32770 32505 10273 20147 39775 40123 58014 82240 333 82850;EQDQ01  00002PRCP99
0187118410999992000081115004+49230+018610FM-12+031599999V0202401N00301090001CN0200001N1+02521+01471101141ADDGA1011+015009099GA2021+018009089GF105991031031017501001021MA1999999097641MD1610111+9999REMSYN088AAXX  11151 11841 42770 52403 10252 20147 39764 40114 56011 83302 333 81950 82856 84071;
0236118410999992000081118004+49230+018610FM-12+031599999V0209999C000010330019N0250001N1+02101+01661101251ADDAA199000091AY191061AY211061GA1071+033009079GF107991071001999999071001KA1120M+02801MA1999999097701MD1210061+9999MW1031REMSYN088AAXX  11181 11841 31975 70000 10210 20166 39770 40125 52006 70391 87070 333 10280 87361;EQDQ01  00002PRCP99
0159118410999992000081121004+49230+018610FM-12+031599999V0201101N001012200019N0250001N1+01661+01461101401ADDGA1011+033009079GF101991011001999999041001MA1999999097781MD1210081+9999REMSYN076AAXX  11211 11841 42975 11101 10166 20146 39778 40140 52008 81040 333 81361;
0183118410999992000081200004+49230+018610FM-12+031599999V0209999C000012200019N0150001N1+01461+01361101411ADDAA199000091GA1001+999999999GF100991001001999999001001MA1999999097771MD1610011+9999REMSYN070AAXX  12001 11841 32965 00000 10146 20136 39777 40141 56001 333 55080;EQDQ01  00002PRCP99
0266118410999992000081206004+49230+018610FM-12+031599999V0200601N001012200019N0028001N1+01561+01511101421ADDAA199000091AY141061AY201061GA1011+012009029GF104991011021012501001021IA1019IA2999+01209KA1120N+01331MA1999999097791MD1210041+9999MW1281REMSYN100AAXX  12061 11841 31628 40601 10156 20151 39779 40142 52004 72840 81202 333 20133 30012 50282 81840;EQDQ01  00002PRCP99
0159118410999992000081209004+49230+018610FM-12+031599999V0202501N003012200019N0150001N1+02521+01611101281ADDGA1011+012009029GF102991011021012501001011MA1999999097771MD1710021+9999REMSYN076AAXX  12091 11841 42665 22503 10252 20161 39777 40128 57002 81201 333 81840;
0189118410999992000081212004+49230+018610FM-12+031599999V0202101N004012200019N0200001N1+02781+01181101201ADDAA199000091GA1021+013809029GF102991021021012501001001MA1999999097721MD1610051+9999REMSYN076AAXX  12121 11841 32670 22104 10278 20118 39772 40120 56005 82200 333 82846;EQDQ01  00002PRCP99
0159118410999992000081215004+49230+018610FM-12+031599999V0202401N003012200019N0250001N1+02741+01191101201ADDGA1011+015009029GF103991011021017501041001MA1999999097711MD1510011+9999REMSYN076AAXX  12151 11841 42775 32403 10274 20119 39771 40120 55001 81240 333 81850;
0159118410999992000081221004+49230+018610FM-12+031599999V0201201N001012200019N0100001N1+01771+01461101551ADDGA1021+027009079GF102991021001999999031001MA1999999097941MD1110131+9999REMSYN076AAXX  12211 11841 42960 21201 10177 20146 39794 40155 51013 82030 333 82359;
0203118410999992000081300004+49230+018610FM-12+031599999V0201001N002012200019N0100001N1+01601+01451101641ADDAA199000091GA1011+030009079GF101991011001999999031001GJ107449MA1999999098011MD1110071+9999REMSYN082AAXX  13001 11841 32960 11002 10160 20145 39801 40164 51007 81030 333 55124 81360;EQDQ01  00002PRCP99
0159118410999992000081303004+49230+018610FM-12+031599999V0201101N002012200019N0100001N1+01571+01421101661ADDGA1021+030009079GF102991021001999999031001MA1999999098021MD1010011+9999REMSYN076AAXX  13031 11841 42960 21102 10157 20142 39802 40166 50001 82030 333 82360;
0254118410999992000081306004+49230+018610FM-12+031599999V0200701N003012200019N0120001N1+01761+01521101721ADDAA199000091GA1041+021009079GF104991041999022501031001IA1019IA2999+01409KA1120N+01541MA1999999098111MD1310091+9999REMSYN094AAXX  13061 11841 32862 40703 10176 20152 39811 40172 53009 84030 333 20154 30014 50272 84357;EQDQ01+000002SCOLCGQ02  00002PRCP99
0159118410999992000081309004+49230+018610FM-12+031599999V0201001N002012200019N0150001N1+02631+01541101601ADDGA1011+009909029GF102991011021012501061001MA1999999098091MD1610021+9999REMSYN076AAXX  13091 11841 42665 21002 10263 20154 39809 40160 56002 81260 333 81833;
0217118410999992000081312004+49230+018610FM-12+031599999V0203401N004010150019N0200001N1+02781+01641101551ADDAA199000091AY191061AY211061GA1051+015009029GF105991051021017501061001MA1999999098061MD1610031+9999MW1291REMSYN082AAXX  13121 11841 31770 53404 10278 20164 39806 40155 56003 72991 85260 333 85850;EQDQ01  00002PRCP99
0193118410999992000081315004+49230+018610FM-12+031599999V0202201N003012200019N0200001N1+02571+01631101551ADDAY191031AY211031GA1011+015009099GF104991041091017501001031MA1999999098041MD1510021+9999MW1801REMSYN088AAXX  13151 11841 41770 42203 10257 20163 39804 40155 55002 78091 84903 333 81950 83856;
0223118410999992000081318004+49230+018610FM-12+031599999V0201301N001012200019N0200001N1+02251+01681101681ADDAA112000791AY181061AY211061GA1011+060009019GF101991001001999999001011KA1120M+03041MA1999999098131MD1310091+9999MW1011REMSYN094AAXX  13181 11841 11970 11301 10225 20168 39813 40168 53009 69902 70181 80001 333 10304 81070;
0143118410999992000081321004+49230+018610FM-12+031599999V0200901N001012200019N0150001N1+01741+01491101891ADDGA1001+999999999GF100991001001999999001001MA1999999098271MD1210141+9999REMSYN060AAXX  13211 11841 42965 00901 10174 20149 39827 40189 52014;
0122118410999992000081400004+49230+018610FM-12+031599999V0201101N001019999999N9999999N1+01511+01421101981ADDAA199000021MA1999999098331MD1210091+9999REMSYN070AAXX  14001 11841 36/// /1101 10151 20142 39833 40198 52009 333 55094;
0143118410999992000081403004+49230+018610FM-12+031599999V0201101N002012200019N0100001N1+01471+01361101991ADDGA1001+999999999GF100991001001999999001001MA1999999098331MD1610011+9999REMSYN060AAXX  14031 11841 42960 01102 10147 20136 39833 40199 56001;
0238118410999992000081406004+49230+018610FM-12+031599999V0200701N003012200019N0200001N1+01751+01481101981ADDAA199000091GA1011+008709029GF101991011011008001031001IA1019IA2999+01309KA1120N+01431MA1999999098351MD1110021+9999REMSYN094AAXX  14061 11841 32570 10703 10175 20148 39835 40198 51002 81130 333 20143 30013 50342 81829;EQDQ01  00002PRCP99
0165118410999992000081409004+49230+018610FM-12+031599999V0201001N001012200019N0250001N1+02561+01531101841ADDGA1011+009009089GF104991011011008001031091MA1999999098321MD1810031+9999REMSYN082AAXX  14091 11841 42575 41001 10256 20153 39832 40184 58003 81139 333 81830 83356;
0131118410999992000081412004+49230+018610FM-12+031599999V0209999V001019999999N9999999N1+02941+01091101741ADDAA199000091MA1999999098261MD1710071+9999REMSYN060AAXX  14121 11841 36/// /9901 10294 20109 39826 40174 57007;EQDQ01  00002PRCP99
0159118410999992000081415004+49230+018610FM-12+031599999V0200401N002012200019N0200001N1+02661+01541101711ADDGA1021+018009029GF103991021021017501001011MA1999999098201MD1610051+9999REMSYN076AAXX  14151 11841 42770 30402 10266 20154 39820 40171 56005 82201 333 82856;
0154118410999992000081418004+49230+018610FM-12+031599999V0209999C000019999999N9999999N1+02191+01531101811ADDAA199000091KA1999M+03051MA1999999098251MD1210051+9999REMSYN070AAXX  14181 11841 36/// /0000 10219 20153 39825 40181 52005 333 10305;EQDQ01  00002PRCP99
0159118410999992000081421004+49230+018610FM-12+031599999V0209999C000012200019N0100001N1+01631+01361102061ADDGA1011+069009019GF101991001001999999001011MA1999999098421MD1210171+9999REMSYN076AAXX  14211 11841 42960 10000 10163 20136 39842 40206 52017 80001 333 81073;
0203118410999992000081500004+49230+018610FM-12+031599999V0209999C000012200019N0100001N1+01381+01251102111ADDAA199000091GA1011+069009019GF101991001001999999001011GJ105409MA1999999098431MD1110011+9999REMSYN082AAXX  15001 11841 32960 10000 10138 20125 39843 40211 51001 80001 333 55090 81073;EQDQ01  00002PRCP99
0187118410999992000081503004+49230+018610FM-12+031599999V0200601N001012200019N0040001N1+01311+01231102081ADDAY101031AY201031GA1011+033009079GF101991011001999999041001MA1999999098391MD1810041+9999MW1101REMSYN082AAXX  15031 11841 41940 10601 10131 20123 39839 40208 58004 71000 81040 333 81361;
0254118410999992000081506004+49230+018610FM-12+031599999V0200801N002012200019N0090001N1+01621+01391102091ADDAA199000091AY101061AY201061GA1001+999999999GF100991001001999999001001IA1019IA2999+01009KA1120N+01261MA1999999098441MD1110051+9999MW1101REMSYN088AAXX  15061 11841 31959 00802 10162 20139 39844 40209 51005 71000 333 20126 30010 50332;EQDQ01  00002PRCP99
0143118410999992000081509004+49230+018610FM-12+031599999V0200701N001012200019N0200001N1+02411+01531101911ADDGA1001+999999999GF100991001001999999001001MA1999999098371MD1810071+9999REMSYN060AAXX  15091 11841 42970 00701 10241 20153 39837 40191 58007;
0131118410999992000081512004+49230+018610FM-12+031599999V0201801N001019999999N9999999N1+02861+01061101731ADDAA199000091MA1999999098241MD1710151+9999REMSYN060AAXX  15121 11841 36/// /1801 10286 20106 39824 40173 57015;EQDQ01  00002PRCP99
0159118410999992000081515004+49230+018610FM-12+031599999V0202001N001012200019N0300001N1+02981+01181101551ADDGA1011+015009029GF101991011011017501001001MA1999999098081MD1610161+9999REMSYN076AAXX  15151 11841 42780 12001 10298 20118 39808 40155 56016 81100 333 81850;
0208118410999992000081518004+49230+018610FM-12+031599999V0201301N001012200019N0300001N1+02121+01261101661ADDAA199000091GA1011+060009019GF101991001001999999001011KA1120M+03041MA1999999098091MD1310011+9999REMSYN082AAXX  15181 11841 32980 11301 10212 20126 39809 40166 53001 80001 333 10304 81070;EQDQ01  00002PRCP99
0143118410999992000081521004+49230+018610FM-12+031599999V0201101N001012200019N0120001N1+01491+01151101891ADDGA1001+999999999GF100991001001999999001001MA1999999098231MD1210141+9999REMSYN060AAXX  15211 11841 42962 01101 10149 20115 39823 40189 52014;
0183118410999992000081600004+49230+018610FM-12+031599999V0209999C000012200019N0100001N1+01281+01101101941ADDAA199000091GA1001+999999999GF100991001001999999001001MA1999999098251MD1010021+9999REMSYN070AAXX  16001 11841 32960 00000 10128 20110 39825 40194 50002 333 55130;EQDQ01  00002PRCP99
0143118410999992000081603004+49230+018610FM-12+031599999V0201101N002012200019N0150001N1+01201+01061101861ADDGA1001+999999999GF100991001001999999001001MA1999999098171MD1610081+9999REMSYN060AAXX  16031 11841 42965 01102 10120 20106 39817 40186 56008;
0226118410999992000081606004+49230+018610FM-12+031599999V0200801N002012200019N0150001N1+01551+01131101821ADDAA199000091GA1001+999999999GF100991001001999999001001IA1019IA2999+01009KA1120N+01191MA1999999098171MD1010001+9999REMSYN082AAXX  16061 11841 32965 00802 10155 20113 39817 40182 50000 333 20119 30010 50412;EQDQ01  00002PRCP99
0159118410999992000081609004+49230+018610FM-12+031599999V0209999C000012200019N0150001N1+02461+01221101631ADDGA1011+012909029GF102991011021012501031001MA1999999098101MD1710071+9999REMSYN076AAXX  16091 11841 42665 20000 10246 20122 39810 40163 57007 81230 333 81843;
0189118410999992000081612004+49230+018610FM-12+031599999V0202501N004012200019N0150001N1+03001+01541101391ADDAA199000091GA1021+015009029GF103991021021017501061001MA1999999097931MD1710171+9999REMSYN076AAXX  16121 11841 32765 32504 10300 20154 39793 40139 57017 82260 333 82850;EQDQ01  00002PRCP99
0187118410999992000081615004+49230+018610FM-12+031599999V0200701N002012200019N0150001N1+02681+01841101311ADDAY191031AY211031GA1011+018009029GF102991011021017501041001MA1999999097821MD1710111+9999MW1021REMSYN082AAXX  16151 11841 41765 20702 10268 20184 39782 40131 57011 70291 81240 333 81856;
0236118410999992000081618004+49230+018610FM-12+031599999V0200801N001012200019N0150001N1+02301+01881101401ADDAA199000091AY191061AY211061GA1011+030009079GF102991011001999999031021KA1120M+03001MA1999999097871MD1310051+9999MW1021REMSYN088AAXX  16181 11841 31965 20801 10230 20188 39787 40140 53005 70291 81032 333 10300 81360;EQDQ01  00002PRCP99
0143118410999992000081621004+49230+018610FM-12+031599999V0200901N001012200019N0100001N1+01801+01621101571ADDGA1001+999999999GF100991001001999999001001MA1999999097971MD1110101+9999REMSYN060AAXX  16211 11841 42960 00901 10180 20162 39797 40157 51010;
0183118410999992000081700004+49230+018610FM-12+031599999V0209999C000012200019N0100001N1+01611+01511101641ADDAA199000091GA1001+999999999GF100991001001999999001001MA1999999098011MD1110041+9999REMSYN070AAXX  17001 11841 32960 00000 10161 20151 39801 40164 51004 333 55096;EQDQ01  00002PRCP99
0171118410999992000081703004+49230+018610FM-12+031599999V0200901N001012200019N0050001N1+01541+01441101591ADDAY101031AY201031GA1001+999999999GF100991001001999999001001MA1999999097951MD1710061+9999MW1101REMSYN066AAXX  17031 11841 41950 00901 10154 20144 39795 40159 57006 71000;
0238118410999992000081706004+49230+018610FM-12+031599999V0200801N002012200019N0120001N1+01791+01541101561ADDAA199000091GA1011+009909059GF101991011051012501001011IA1019IA2999+01309KA1120N+01481MA1999999097961MD1110011+9999REMSYN094AAXX  17061 11841 32662 10802 10179 20154 39796 40156 51001 81501 333 20148 30013 50312 81633;EQDQ01  00002PRCP99
0159118410999992000081709004+49230+018610FM-12+031599999V0209999C000012200019N0200001N1+02741+01671101381ADDGA1011+012009029GF101991011021012501001001MA1999999097901MD1710061+9999REMSYN076AAXX  17091 11841 42670 10000 10274 20167 39790 40138 57006 81200 333 81840;
0189118410999992000081712004+49230+018610FM-12+031599999V0202401N005012200019N0300001N1+03051+01381101221ADDAA199000091GA1031+015009029GF103991031021017501061001MA1999999097771MD1810131+9999REMSYN076AAXX  17121 11841 32780 32405 10305 20138 39777 40122 58013 83260 333 83850;EQDQ01  00002PRCP99
0159118410999992000081715004+49230+018610FM-12+031599999V0202301N003012200019N0300001N1+03071+01351101071ADDGA1021+018009029GF102991021021017501041001MA1999999097631MD1710141+9999REMSYN076AAXX  17151 11841 42780 22303 10307 20135 39763 40107 57014 82240 333 82856;
0224118410999992000081718004+49230+018610FM-12+031599999V0209999C000012200019N0300001N1+02441+01641101151ADDAA199000091GA1011+018009059GF101991011041017501999021KA1120M+03111MA1999999097641MD1310011+9999REMSYN082AAXX  17181 11841 32780 10000 10244 20164 39764 40115 53001 81402 333 10311 81656;EQDQ01+000002SCOMCGQ02  00002PRCP99
0187118410999992000081721004+49230+018610FM-12+031599999V0209999C000012200019N0100001N1+01821+01561101421ADDAY101031AY201031GA1031+060009019GF103991001001999999001021MA1999999097821MD1210181+9999MW1131REMSYN082AAXX  17211 11841 41960 30000 10182 20156 39782 40142 52018 71300 80002 333 83070;
0231118410999992000081800004+49230+018610FM-12+031599999V0201601N001012200019N0150001N1+01871+01461101491ADDAA199000091AY191061AY211061GA1021+060009019GF102991001001999999001011GJ107629MA1999999097901MD1110081+9999MW1011REMSYN088AAXX  18001 11841 31965 21601 10187 20146 39790 40149 51008 70191 80001 333 55127 82070;EQDQ01  00002PRCP99
0159118410999992000081803004+49230+018610FM-12+031599999V0209999C000012200019N0150001N1+01511+01331101551ADDGA1011+030009079GF101991011001999999041001MA1999999097911MD1310011+9999REMSYN076AAXX  18031 11841 42965 10000 10151 20133 39791 40155 53001 81040 333 81360;
0238118410999992000081806004+49230+018610FM-12+031599999V0209999C000012200019N0250001N1+01901+01511101621ADDAA199000091GA1011+069009019GF101991001001999999001011IA1019IA2999+01109KA1120N+01421MA1999999098031MD1110121+9999REMSYN094AAXX  18061 11841 32975 10000 10190 20151 39803 40162 51012 80001 333 20142 30011 50412 81073;EQDQ01  00002PRCP99
0159118410999992000081809004+49230+018610FM-12+031599999V0209999C000012200019N0350001N1+02671+01641101511ADDGA1011+009309029GF101991011011008001001011MA1999999098011MD1610021+9999REMSYN076AAXX  18091 11841 42581 10000 10267 20164 39801 40151 56002 81101 333 81831;
0189118410999992000081812004+49230+018610FM-12+031599999V0202401N003012200019N0400001N1+03081+01401101401ADDAA199000091GA1021+013209029GF102991021021012501001001MA1999999097951MD1810061+9999REMSYN076AAXX  18121 11841 32682 22403 10308 20140 39795 40140 58006 82200 333 82844;EQDQ01  00002PRCP99
0159118410999992000081815004+49230+018610FM-12+031599999V0202501N004012200019N0400001N1+03091+01501101341ADDGA1011+015009029GF103991011021017501041011MA1999999097891MD1810061+9999REMSYN076AAXX  18151 11841 42782 32504 10309 20150 39789 40134 58006 81241 333 81850;
0208118410999992000081818004+49230+018610FM-12+031599999V0209999C000010330019N0350001N1+02391+01741101531ADDAA199000091GA1051+033009079GF105991051001999999071001KA1120M+03161MA1999999098001MD1210111+9999REMSYN082AAXX  18181 11841 32981 50000 10239 20174 39800 40153 52011 85070 333 10316 85361;EQDQ01  00002PRCP99
0101118410999992000081821004+49230+018610FM-12+031599999V0209999V001019999999N9999999N1+01981+01611101681ADDMA1999999098101MD1210121+9999REMSYN060AAXX  18211 11841 46/// /9901 10198 20161 39810 40168 52012;
0203118410999992000081900004+49230+018610FM-12+031599999V0201501N001012200019N0100001N1+01801+01601101741ADDAA199000091GA1011+069009019GF101991001001999999001011GJ106189MA1999999098131MD1310031+9999REMSYN082AAXX  19001 11841 32960 11501 10180 20160 39813 40174 53003 80001 333 55103 81073;EQDQ01  00002PRCP99
0159118410999992000081903004+49230+018610FM-12+031599999V0209999C000012200019N0100001N1+01621+01521101731ADDGA1011+033009079GF101991011001999999041011MA1999999098101MD1610031+9999REMSYN076AAXX  19031 11841 42960 10000 10162 20152 39810 40173 56003 81041 333 81361;
0238118410999992000081906004+49230+018610FM-12+031599999V0200601N001012200019N0150001N1+01971+01621101691ADDAA199000091GA1041+060009019GF104991001001999999001011IA1019IA2999+01309KA1120N+01551MA1999999098101MD1510001+9999REMSYN094AAXX  19061 11841 32965 40601 10197 20162 39810 40169 55000 80001 333 20155 30013 50402 84070;EQDQ01  00002PRCP99
0159118410999992000081909004+49230+018610FM-12+031599999V0200301N001012200019N0150001N1+02941+01661101531ADDGA1011+060009019GF101991001001999999001011MA1999999098061MD1810041+9999REMSYN076AAXX  19091 11841 42965 10301 10294 20166 39806 40153 58004 80001 333 81070;
0173118410999992000081912004+49230+018610FM-12+031599999V0202101N005012200019N0150001N1+03341+01071101361ADDAA199000091GA1001+999999999GF100991001001999999001001MA1999999097931MD1710131+9999REMSYN060AAXX  19121 11841 32965 02105 10334 20107 39793 40136 57013;EQDQ01  00002PRCP99
0143118410999992000081915004+49230+018610FM-12+031599999V0202201N004012200019N0200001N1+03351+01201101241ADDGA1001+999999999GF100991001001999999001001MA1999999097821MD1610111+9999REMSYN060AAXX  19151 11841 42970 02204 10335 20120 39782 40124 56011;
0208118410999992000081918004+49230+018610FM-12+031599999V0209999C000012200019N0150001N1+02571+01511101371ADDAA199000091GA1011+060009019GF101991001001999999001021KA1120M+03441MA1999999097861MD1310041+9999REMSYN082AAXX  19181 11841 32965 10000 10257 20151 39786 40137 53004 80002 333 10344 81070;EQDQ01  00002PRCP99
0143118410999992000081921004+49230+018610FM-12+031599999V0200901N001012200019N0100001N1+01961+01481101551ADDGA1001+999999999GF100991001001999999001001MA1999999097971MD1210111+9999REMSYN060AAXX  19211 11841 42960 00901 10196 20148 39797 40155 52011;
0183118410999992000082000004+49230+018610FM-12+031599999V0200901N001012200019N0100001N1+01711+01491101601ADDAA199000091GA1001+999999999GF100991001001999999001001MA1999999097981MD1010011+9999REMSYN070AAXX  20001 11841 32960 00901 10171 20149 39798 40160 50001 333 55132;EQDQ01  00002PRCP99
0143118410999992000082003004+49230+018610FM-12+031599999V0209999C000012200019N0100001N1+01541+01381101601ADDGA1001+999999999GF100991001001999999001001MA1999999097961MD1810021+9999REMSYN060AAXX  20031 11841 42960 00000 10154 20138 39796 40160 58002;
0238118410999992000082006004+49230+018610FM-12+031599999V0200801N002012200019N0150001N1+01901+01511101511ADDAA199000091GA1011+060009019GF101991001001999999001011IA1019IA2999+01209KA1120N+01461MA1999999097921MD1710041+9999REMSYN094AAXX  20061 11841 32965 10802 10190 20151 39792 40151 57004 80001 333 20146 30012 50512 81070;EQDQ01  00002PRCP99
0143118410999992000082009004+49230+018610FM-12+031599999V0200901N001012200019N0200001N1+03061+01471101301ADDGA1001+999999999GF100991001001999999001001MA1999999097851MD1810071+9999REMSYN060AAXX  20091 11841 42970 00901 10306 20147 39785 40130 58007;
0173118410999992000082012004+49230+018610FM-12+031599999V0202301N005012200019N0200001N1+03441+00821101121ADDAA199000091GA1001+999999999GF100991001001999999001001MA1999999097711MD1710141+9999REMSYN060AAXX  20121 11841 32970 02305 10344 20082 39771 40112 57014;EQDQ01  00002PRCP99
0159118410999992000082015004+49230+018610FM-12+031599999V0202601N004012200019N0250001N1+03421+01201101041ADDGA1011+036009079GF101991011001999999041001MA1999999097641MD1810071+9999REMSYN076AAXX  20151 11841 42975 12604 10342 20120 39764 40104 58007 81040 333 81362;
0208118410999992000082018004+49230+018610FM-12+031599999V0201401N001012200019N0250001N1+02471+01481101191ADDAA199000091GA1011+036009079GF101991011001999999041011KA1120M+03511MA1999999097681MD1310041+9999REMSYN082AAXX  20181 11841 32975 11401 10247 20148 39768 40119 53004 81041 333 10351 81362;EQDQ01  00002PRCP99
0143118410999992000082021004+49230+018610FM-12+031599999V0201401N001012200019N0250001N1+01901+01411101311ADDGA1001+999999999GF100991001001999999001001MA1999999097731MD1010051+9999REMSYN060AAXX  20211 11841 42975 01401 10190 20141 39773 40131 50005;
0183118410999992000082100004+49230+018610FM-12+031599999V0209999C000012200019N0250001N1+01621+01391101291ADDAA199000091GA1001+999999999GF100991001001999999001001MA1999999097671MD1610061+9999REMSYN070AAXX  21001 11841 32975 00000 10162 20139 39767 40129 56006 333 55128;EQDQ01  00002PRCP99
0143118410999992000082103004+49230+018610FM-12+031599999V0209999C000012200019N0200001N1+01461+01351101271ADDGA1001+999999999GF100991001001999999001001MA1999999097631MD1510041+9999REMSYN060AAXX  21031 11841 42970 00000 10146 20135 39763 40127 55004;
0226118410999992000082106004+49230+018610FM-12+031599999V0202801N001012200019N0200001N1+01801+01471101241ADDAA199000091GA1001+999999999GF100991001001999999001001IA1019IA2999+01109KA1120N+01411MA1999999097651MD1310021+9999REMSYN082AAXX  21061 11841 32970 02801 10180 20147 39765 40124 53002 333 20141 30011 50482;EQDQ01  00002PRCP99
0143118410999992000082109004+49230+018610FM-12+031599999V0202201N001012200019N0200001N1+02941+01401101111ADDGA1001+999999999GF100991001001999999001001MA1999999097651MD1010001+9999REMSYN060AAXX  21091 11841 42970 02201 10294 20140 39765 40111 50000;
0189118410999992000082112004+49230+018610FM-12+031599999V0202401N003012200019N0250001N1+03351+01511100961ADDAA199000091GA1011+018009029GF101991011011017501001001MA1999999097561MD1710091+9999REMSYN076AAXX  21121 11841 32775 12403 10335 20151 39756 40096 57009 81100 333 81856;EQDQ01  00002PRCP99
0159118410999992000082115004+49230+018610FM-12+031599999V0202401N003012200019N0200001N1+03271+01571100931ADDGA1011+018009029GF101991011021017501001001MA1999999097521MD1510041+9999REMSYN076AAXX  21151 11841 42770 12403 10327 20157 39752 40093 55004 81200 333 81856;
0196118410999992000082118004+49230+018610FM-12+031599999V0201001N001012200019N0150001N1+02561+01731101041ADDAA199000091GA1001+999999999GF100991001001999999001001KA1999M+03431MA1999999097551MD1310031+9999REMSYN070AAXX  21181 11841 32965 01001 10256 20173 39755 40104 53003 333 10343;EQDQ01  00002PRCP99
0143118410999992000082121004+49230+018610FM-12+031599999V0200701N001012200019N0100001N1+02011+01641101071ADDGA1001+999999999GF100991001001999999001001MA1999999097511MD1810041+9999REMSYN060AAXX  21211 11841 42960 00701 10201 20164 39751 40107 58004;
0183118410999992000082200004+49230+018610FM-12+031599999V0203201N001012200019N0100001N1+01711+01531100981ADDAA199000091GA1001+999999999GF100991001001999999001001MA1999999097391MD1610121+9999REMSYN070AAXX  22001 11841 32960 03201 10171 20153 39739 40098 56012 333 55130;EQDQ01  00002PRCP99
0143118410999992000082203004+49230+018610FM-12+031599999V0209999C000012200019N0100001N1+01611+01481101071ADDGA1001+999999999GF100991001001999999001001MA1999999097461MD1310071+9999REMSYN060AAXX  22031 11841 42960 00000 10161 20148 39746 40107 53007;
0238118410999992000082206004+49230+018610FM-12+031599999V0200801N001012200019N0200001N1+02111+01431101411ADDAA199000091GA1031+012009059GF103991031041012501031001IA1019IA2999+01409KA1120N+01551MA1999999097851MD1210391+9999REMSYN094AAXX  22061 11841 32670 30801 10211 20143 39785 40141 52039 83430 333 20155 30014 50382 83640;EQDQ01  00002PRCP99
0159118410999992000082209004+49230+018610FM-12+031599999V0203001N004012200019N0250001N1+02301+01261101591ADDGA1041+013209029GF104991041011012501001001MA1999999098041MD1210191+9999REMSYN076AAXX  22091 11841 42675 43004 10230 20126 39804 40159 52019 84100 333 84844;
0189118410999992000082212004+49230+018610FM-12+031599999V0203101N001012200019N0300001N1+02631+01091101561ADDAA199000091GA1021+013809029GF102991021011012501001001MA1999999098051MD1010011+9999REMSYN076AAXX  22121 11841 32680 23101 10263 20109 39805 40156 50001 82100 333 82846;EQDQ01  00002PRCP99
0165118410999992000082215004+49230+018610FM-12+031599999V0200301N003012200019N0300001N1+02481+01311101601ADDGA1011+015009089GF104991041081017501041001MA1999999098071MD1310021+9999REMSYN082AAXX  22151 11841 42780 40303 10248 20131 39807 40160 53002 84840 333 81850 83656;
0214118410999992000082218004+49230+018610FM-12+031599999V0200801N002012200019N0250001N1+01991+01341101821ADDAA199000091GA1011+015009069GF104991011051017501001061KA1120M+02771MA1999999098231MD1310161+9999REMSYN088AAXX  22181 11841 32775 40802 10199 20134 39823 40182 53016 81506 333 10277 81650 84070;EQDQ01  00002PRCP99
0178118410999992000082221004+49230+018610FM-12+031599999V0200101N002010600019N0150001N1+01831+01341101961ADDGA1071+060009089GF107991999001999999001081MA1999999098341MD1310111+9999REMSYN076AAXX  22211 11841 42965 70102 10183 20134 39834 40196 53011 80008 333 87270;EQDQ01+000002SCOTLC
0141118410999992000082300004+49230+018610FM-12+031599999V0201401N001019999999N9999999N1+01531+01281102051ADDAA199000091MA1999999098401MD1210081+9999REMSYN070AAXX  23001 11841 36/// /1401 10153 20128 39840 40205 52008 333 55062;EQDQ01  00002PRCP99
0159118410999992000082303004+49230+018610FM-12+031599999V0201301N001019999999N0120001N1+01411+01251102031ADDGA1041+030009079GF105991041001999999051021MA1999999098361MD1810061+9999REMSYN076AAXX  23031 11841 42962 51301 10141 20125 39836 40203 58006 84052 333 84360;
0226118410999992000082306004+49230+018610FM-12+031599999V0200801N003012200019N0150001N1+01731+01301102011ADDAA199000091GA1001+999999999GF100991001001999999001001IA1019IA2999+01109KA1120N+01341MA1999999098381MD1310021+9999REMSYN082AAXX  23061 11841 32965 00803 10173 20130 39838 40201 53002 333 20134 30011 50442;EQDQ01  00002PRCP99
0159118410999992000082309004+49230+018610FM-12+031599999V0203301N003012200019N0250001N1+02161+01221101921ADDGA1011+013809029GF101991011011012501001001MA1999999098341MD1710041+9999REMSYN076AAXX  23091 11841 42675 13303 10216 20122 39834 40192 57004 81100 333 81846;
0189118410999992000082312004+49230+018610FM-12+031599999V0200301N003012200019N0250001N1+02281+01061101851ADDAA199000091GA1031+015009029GF104991031021017501001011MA1999999098291MD1610051+9999REMSYN076AAXX  23121 11841 32775 40303 10228 20106 39829 40185 56005 83201 333 83850;EQDQ01  00002PRCP99
0165118410999992000082315004+49230+018610FM-12+031599999V0200101N003012200019N0250001N1+02291+00971101851ADDGA1011+015009089GF104991011021017501031011MA1999999098291MD1510001+9999REMSYN082AAXX  23151 11841 42775 40103 10229 20097 39829 40185 55000 81231 333 81850 83363;
0154118410999992000082318004+49230+018610FM-12+031599999V0201101N001019999999N9999999N1+01791+01091102041ADDAA199000091KA1999M+02451MA1999999098421MD1210131+9999REMSYN070AAXX  23181 11841 36/// /1101 10179 20109 39842 40204 52013 333 10245;EQDQ01  00002PRCP99
0143118410999992000082321004+49230+018610FM-12+031599999V0209999C000012200019N0120001N1+01281+00981102271ADDGA1001+999999999GF100991001001999999001001MA1999999098571MD1310151+9999REMSYN060AAXX  23211 11841 42962 00000 10128 20098 39857 40227 53015;
0183118410999992000082400004+49230+018610FM-12+031599999V0201401N001012200019N0100001N1+01141+00911102371ADDAA199000091GA1001+999999999GF100991001001999999001001MA1999999098651MD1110081+9999REMSYN070AAXX  24001 11841 32960 01401 10114 20091 39865 40237 51008 333 55090;EQDQ01  00002PRCP99
0143118410999992000082403004+49230+018610FM-12+031599999V0201101N001012200019N0120001N1+00941+00821102421ADDGA1001+999999999GF100991001001999999001001MA1999999098671MD1110021+9999REMSYN060AAXX  24031 11841 42962 01101 10094 20082 39867 40242 51002;
0226118410999992000082406004+49230+018610FM-12+031599999V0209999C000012200019N0150001N1+01321+01001102371ADDAA199000091GA1001+999999999GF100991001001999999001001IA1019IA2999+00609KA1120N+00871MA1999999098671MD1010001+9999REMSYN082AAXX  24061 11841 32965 00000 10132 20100 39867 40237 50000 333 20087 30006 50412;EQDQ01  00002PRCP99
0165118410999992000082409004+49230+018610FM-12+031599999V0201801N001012200019N0200001N1+02081+00671102241ADDGA1021+012009089GF104991021011012501001041MA1999999098641MD1810031+9999REMSYN082AAXX  24091 11841 42670 41801 10208 20067 39864 40224 58003 82104 333 82840 84070;
0195118410999992000082412004+49230+018610FM-12+031599999V0203401N00201220001CN0250001N1+02311+00411102011ADDAA199000091GA1031+013809089GF105991031011012501001011MA1999999098441MD1710201+9999REMSYN082AAXX  24121 11841 32675 53402 10231 20041 39844 40201 57020 83101 333 83846 84070;EQDQ01  00002PRCP99
0159118410999992000082415004+49230+018610FM-12+031599999V0202801N004012200019N0300001N1+02391+00671101831ADDGA1011+015009029GF103991011011017501001011MA1999999098281MD1710161+9999REMSYN076AAXX  24151 11841 42780 32804 10239 20067 39828 40183 57016 81101 333 81850;
0214118410999992000082418004+49230+018610FM-12+031599999V0209999C00001090001CN0200001N1+01741+01101101851ADDAA199000091GA1011+018009069GF105991011051017501001021KA1120M+02491MA1999999098221MD1510061+9999REMSYN088AAXX  24181 11841 32770 50000 10174 20110 39822 40185 55006 81502 333 10249 81656 85070;EQDQ01  00002PRCP99
0143118410999992000082421004+49230+018610FM-12+031599999V0201401N001012200019N0100001N1+01301+00981101881ADDGA1001+999999999GF100991001001999999001001MA1999999098201MD1610021+9999REMSYN060AAXX  24211 11841 42960 01401 10130 20098 39820 40188 56002;
0141118410999992000082500004+49230+018610FM-12+031599999V0209999C000019999999N9999999N1+01061+00911101781ADDAA199000091MA1999999098071MD1710131+9999REMSYN070AAXX  25001 11841 36/// /0000 10106 20091 39807 40178 57013 333 55104;EQDQ01  00002PRCP99
0159118410999992000082503004+49230+018610FM-12+031599999V0209999C000010300019N0100001N1+01151+01021101641ADDGA1061+030009079GF106991061001999999031001MA1999999097951MD1710171+9999REMSYN076AAXX  25031 11841 42960 60000 10115 20102 39795 40164 57017 86030 333 86360;
0254118410999992000082506004+49230+018610FM-12+031599999V0209999C000010180019N0120001N1+01331+01071101641ADDAA199000091GA1071+018009059GF107991071051022501999001IA1019IA2999+00809KA1120N+01051MA1999999097971MD1210021+9999REMSYN094AAXX  25061 11841 32862 70000 10133 20107 39797 40164 52002 87500 333 20105 30008 50372 87656;EQDQ01+000002SCOMCGQ02  00002PRCP99
0158118410999992000082509004+49230+018610FM-12+031599999V0203201N002010117019N0200001N1+01841+01001101561ADDGA1061+011709029GF106991061021012501031001MA1999999097961MD1810011+9999REMSYN075AAXX  25091 1184142670 63202 10184 20100 39796 40156 58001 86230 333 86839;
0189118410999992000082512004+49230+018610FM-12+031599999V0203001N00501036001CN0250001N1+01941+00651101571ADDAA199000091GA1041+015009029GF106991041021017501061011MA1999999097971MD1010011+9999REMSYN076AAXX  25121 11841 32775 63005 10194 20065 39797 40157 50001 84261 333 84850;EQDQ01  00002PRCP99
0165118410999992000082515004+49230+018610FM-12+031599999V0203601N00201036001CN0250001N1+01761+00871101671ADDGA1031+013809089GF108991031021012501031001MA1999999098051MD1010081+9999REMSYN082AAXX  25151 11841 42675 83602 10176 20087 39805 40167 50008 83230 333 83846 86357;
0223118410999992000082518004+49230+018610FM-12+031599999V0200901N002010096019N0250001N1+01471+01051101841ADDAA112000791AY181061AY221061GA1061+009609029GF106991061021008001001001KA1120M+02131MA1999999098181MD1110131+9999MW1801REMSYN094AAXX  25181 11841 11575 60902 10147 20105 39818 40184 51013 69902 78082 86200 333 10213 86832;
0206118410999992000082521004+49230+018610FM-12+031599999V0200401N001012200019N0150001N1+01271+01111101921ADDAY181031AY211031GA1041+021009079GF104991041999022501031001MA1999999098231MD1010051+9999MW1011REMSYN082AAXX  25211 11841 41865 40401 10127 20111 39823 40192 50005 70181 84030 333 84357;EQDQ01+000002SCOLCG
0198118410999992000082600004+49230+018610FM-12+031599999V0201501N001012200019N0150001N1+01031+00841101961ADDAA106000791AY181061AY211061GA1001+999999999GF100991001001999999001001MA1999999098241MD1310011+9999MW1021REMSYN082AAXX  26001 11841 11965 01501 10103 20084 39824 40196 53001 69901 70281 333 55027;
0178118410999992000082603004+49230+018610FM-12+031599999V0209999C000012200019N0150001N1+00861+00701102011ADDGA1031+015009059GF103991031051017501999001MA1999999098261MD1010021+9999REMSYN076AAXX  26031 11841 42765 30000 10086 20070 39826 40201 50002 83500 333 83650;EQDQ01    003SCOMCG
0231118410999992000082606004+49230+018610FM-12+031599999V0201101N001010150019N0150001N1+01301+00831101981ADDAA112000791GA1021+010809089GF106991061081012501001001IA1019IA2999+00509KA1120N+00731MA1999999098291MD1010031+9999REMSYN106AAXX  26061 11841 12665 61101 10130 20083 39829 40198 50003 69902 86800 333 20073 30005 50252 82836 85650;
0159118410999992000082609004+49230+018610FM-12+031599999V0200201N003010129019N0200001N1+01551+00781102021ADDGA1061+012909059GF106991061051012501001001MA1999999098361MD1110071+9999REMSYN076AAXX  26091 11841 42670 60203 10155 20078 39836 40202 51007 86500 333 86643;
0189118410999992000082612004+49230+018610FM-12+031599999V0200501N004010129019N0200001N1+01711+00771101971ADDAA199000091GA1061+012909059GF106991061051012501001001MA1999999098331MD1810031+9999REMSYN076AAXX  26121 11841 32670 60504 10171 20077 39833 40197 58003 86500 333 86643;EQDQ01  00002PRCP99
0159118410999992000082615004+49230+018610FM-12+031599999V0200401N005012200019N0200001N1+01751+00761101941ADDGA1041+015009059GF104991041051017501031001MA1999999098311MD1610021+9999REMSYN076AAXX  26151 11841 42770 40405 10175 20076 39831 40194 56002 84530 333 84650;
0224118410999992000082618004+49230+018610FM-12+031599999V0201001N002012200019N0200001N1+01461+00881102011ADDAA199000091GA1031+018009059GF103991031051017501999001KA1120M+01891MA1999999098341MD1310031+9999REMSYN082AAXX  26181 11841 32770 31002 10146 20088 39834 40201 53003 83500 333 10189 83656;EQDQ01+000002SCOMCGQ02  00002PRCP99
0143118410999992000082621004+49230+018610FM-12+031599999V0209999C000012200019N0120001N1+00981+00791102121ADDGA1001+999999999GF100991001001999999001001MA1999999098381MD1110041+9999REMSYN060AAXX  26211 11841 42962 00000 10098 20079 39838 40212 51004;
0183118410999992000082700004+49230+018610FM-12+031599999V0201001N002012200019N0100001N1+00801+00691102121ADDAA199000091GA1001+999999999GF100991001001999999001001MA1999999098361MD1810021+9999REMSYN070AAXX  27001 11841 32960 01002 10080 20069 39836 40212 58002 333 55057;EQDQ01  00002PRCP99
0101118410999992000082703004+49230+018610FM-12+031599999V0201301N001019999999N9999999N1+00711+00631102111ADDMA1999999098341MD1710031+9999REMSYN060AAXX  27031 11841 46/// /1301 10071 20063 39834 40211 57003;
0226118410999992000082706004+49230+018610FM-12+031599999V0200801N001012200019N0200001N1+01141+00861102051ADDAA199000091GA1001+999999999GF100991001001999999001001IA1019IA2999+00309KA1120N+00561MA1999999098341MD1610021+9999REMSYN082AAXX  27061 11841 32970 00801 10114 20086 39834 40205 56002 333 20056 30003 50312;EQDQ01  00002PRCP99
0159118410999992000082709004+49230+018610FM-12+031599999V0200601N003012200019N0400001N1+01961+00701101901ADDGA1011+011409029GF101991011011012501001001MA1999999098291MD1810051+9999REMSYN076AAXX  27091 11841 42682 10603 10196 20070 39829 40190 58005 81100 333 81838;
0189118410999992000082712004+49230+018610FM-12+031599999V0203301N002012200019N0400001N1+02301+00551101761ADDAA199000091GA1011+015009029GF101991011011017501001001MA1999999098201MD1710091+9999REMSYN076AAXX  27121 11841 32782 13302 10230 20055 39820 40176 57009 81100 333 81850;EQDQ01  00002PRCP99
0159118410999992000082715004+49230+018610FM-12+031599999V0203601N001012200019N0400001N1+02351+00631101651ADDGA1011+027009029GF101991011011999999001001MA1999999098101MD1610101+9999REMSYN076AAXX  27151 11841 42982 13601 10235 20063 39810 40165 56010 81100 333 81859;
0154118410999992000082718004+49230+018610FM-12+031599999V0201001N002019999999N9999999N1+01851+01031101811ADDAA199000091KA1999M+02451MA1999999098201MD1210091+9999REMSYN070AAXX  27181 11841 36/// /1002 10185 20103 39820 40181 52009 333 10245;EQDQ01  00002PRCP99
0159118410999992000082721004+49230+018610FM-12+031599999V0209999C000012200019N0150001N1+01321+00941102041ADDGA1011+069009019GF101991001001999999001011MA1999999098351MD1110141+9999REMSYN076AAXX  27211 11841 42965 10000 10132 20094 39835 40204 51014 80001 333 81073;
0183118410999992000082800004+49230+018610FM-12+031599999V0201101N001012200019N0120001N1+01001+00831102101ADDAA199000091GA1001+999999999GF100991001001999999001001MA1999999098371MD1110021+9999REMSYN070AAXX  28001 11841 32962 01101 10100 20083 39837 40210 51002 333 55114;EQDQ01  00002PRCP99
0159118410999992000082803004+49230+018610FM-12+031599999V0201201N001012200019N0100001N1+00871+00731102071ADDGA1011+033009079GF101991011001999999041011MA1999999098321MD1710051+9999REMSYN076AAXX  28031 11841 42960 11201 10087 20073 39832 40207 57005 81041 333 81361;
0238118410999992000082806004+49230+018610FM-12+031599999V0201001N001012200019N0200001N1+01151+00921102011ADDAA199000091GA1041+069009019GF104991001001999999001041IA1019IA2999+00709KA1120N+00841MA1999999098301MD1710021+9999REMSYN094AAXX  28061 11841 32970 41001 10115 20092 39830 40201 57002 80004 333 20084 30007 50342 84073;EQDQ01  00002PRCP99
0165118410999992000082809004+49230+018610FM-12+031599999V0202801N00101220001CN0200001N1+02151+00971101821ADDGA1011+015009089GF106991011021017501001061MA1999999098241MD1610061+9999REMSYN082AAXX  28091 11841 42770 62801 10215 20097 39824 40182 56006 81206 333 81850 86271;
0195118410999992000082812004+49230+018610FM-12+031599999V0202501N00201036001CN0200001N1+02271+01051101741ADDAA199000091GA1031+014709089GF107991031021012501041081MA1999999098181MD1610061+9999REMSYN082AAXX  28121 11841 32670 72502 10227 20105 39818 40174 56006 83248 333 83849 86270;EQDQ01  00002PRCP99
0165118410999992000082815004+49230+018610FM-12+031599999V0209999C00001036001CN0200001N1+02321+00921101651ADDGA1011+012909089GF107991011021012501031081MA1999999098101MD1610081+9999REMSYN082AAXX  28151 11841 42670 70000 10232 20092 39810 40165 56008 81238 333 81843 85359;
0224118410999992000082818004+49230+018610FM-12+031599999V0209999C000010240019N0200001N1+01781+01231101821ADDAA199000091GA1051+024009079GF106991051999999999031021KA1120M+02371MA1999999098201MD1310101+9999REMSYN082AAXX  28181 11841 32970 60000 10178 20123 39820 40182 53010 85032 333 10237 85358;EQDQ01  00002PRCP99Q02    003SCOLCG
0178118410999992000082821004+49230+018610FM-12+031599999V0209999C000010240019N0200001N1+01431+01131101941ADDGA1051+024009079GF105991051999022501031011MA1999999098271MD1110071+9999REMSYN076AAXX  28211 11841 42870 50000 10143 20113 39827 40194 51007 85031 333 85358;EQDQ01    003SCOLCG
0183118410999992000082900004+49230+018610FM-12+031599999V0201101N001012200019N0150001N1+01151+01021102021ADDAA199000091GA1001+999999999GF100991001001999999001001MA1999999098311MD1110041+9999REMSYN070AAXX  29001 11841 32965 01101 10115 20102 39831 40202 51004 333 55043;EQDQ01  00002PRCP99
0165118410999992000082903004+49230+018610FM-12+031599999V0201201N00101036001CN0100001N1+01041+00951102011ADDGA1021+000309079GF105991021061000251031001MA1999999098291MD1810021+9999REMSYN082AAXX  29031 11841 42060 51201 10104 20095 39829 40201 58002 82630 333 82701 85358;
0238118410999992000082906004+49230+018610FM-12+031599999V0200801N001012200019N0120001N1+01311+01121102001ADDAA199000091GA1011+033009079GF102991011001999999041011IA1019IA2999+00609KA1120N+00941MA1999999098311MD1010021+9999REMSYN094AAXX  29061 11841 32962 20801 10131 20112 39831 40200 50002 81041 333 20094 30006 50292 81361;EQDQ01  00002PRCP99
0159118410999992000082909004+49230+018610FM-12+031599999V0202201N001012200019N0300001N1+02211+01211101851ADDGA1021+010509029GF103991021021012501001011MA1999999098281MD1710031+9999REMSYN076AAXX  29091 11841 42680 32201 10221 20121 39828 40185 57003 82201 333 82835;
0189118410999992000082912004+49230+018610FM-12+031599999V0203401N00401036001CN0300001N1+02291+01221101761ADDAA199000091GA1041+015009029GF105991041021017501031011MA1999999098201MD1610081+9999REMSYN076AAXX  29121 11841 32780 53404 10229 20122 39820 40176 56008 84231 333 84850;EQDQ01  00002PRCP99
0215118410999992000082915004+49230+018610FM-12+031599999V0202801N005010150019N0150001N1+02021+01301101811ADDAY191031AY221031GA1021+015009099GA2031+015009089GF107991051031017501071001MA1999999098221MD1310021+9999MW1171REMSYN094AAXX  29151 11841 41765 72805 10202 20130 39822 40181 53002 71792 85370 333 82950 83850 83359;
0141118410999992000082918004+49230+018610FM-12+031599999V0201301N001019999999N9999999N1+01621+01501101921ADDAA112001091KA1999M+02541MA1999999098291MD1210111+9999REMSYN076AAXX  29181 11841 16/// /1301 10162 20150 39829 40192 52011 60012 333 10254;
0101118410999992000082921004+49230+018610FM-12+031599999V0201501N001019999999N9999999N1+01401+01341101981ADDMA1999999098311MD1210041+9999REMSYN060AAXX  29211 11841 46/// /1501 10140 20134 39831 40198 52004;
0225118410999992000083000004+49230+018610FM-12+031599999V0200401N002010003019N0005001N1+01361+01311101931ADDAA199000091AY141061AY221061GA1091+000309999GF109991091999999999999999GJ102349MA1999999098261MD1810041+9999MW1431REMSYN082AAXX  30001 11841 31/05 90402 10136 20131 39826 40193 58004 74342 333 55039 89/01;EQDQ01  00002PRCP99
0101118410999992000083003004+49230+018610FM-12+031599999V0200601N002019999999N9999999N1+01291+01241101851ADDMA1999999098171MD1710101+9999REMSYN060AAXX  30031 11841 46/// /0602 10129 20124 39817 40185 57010;
0266118410999992000083006004+49230+018610FM-12+031599999V0200601N003010006019N0009001N1+01301+01221101821ADDAA199000091AY141061AY221061GA1081+000609069GF108991081061000751999999IA1099IA2999+01309KA1120N+01251MA1999999098141MD1710031+9999MW1421REMSYN100AAXX  30061 11841 31109 80603 10130 20122 39814 40182 57003 74242 886// 333 20125 31013 50212 88702;EQDQ01  00002PRCP99
0187118410999992000083009004+49230+018610FM-12+031599999V0200601N001010033019N0045001N1+01761+01391101671ADDAY141031AY221031GA1051+003309069GF105991051061004501001001MA1999999098061MD1810081+9999MW1101REMSYN082AAXX  30091 11841 41445 50601 10176 20139 39806 40167 58008 71042 85600 333 85711;
0223118410999992000083012004+49230+018610FM-12+031599999V0203401N00301036001CN0150001N1+02191+01331101471ADDAA199000091AY141061AY211061GA1021+012909089GF106991021021012501061001MA1999999097911MD1610151+9999MW1031REMSYN088AAXX  30121 11841 31665 63403 10219 20133 39791 40147 56015 70341 82260 333 82843 84358;EQDQ01  00002PRCP99
0165118410999992000083015004+49230+018610FM-12+031599999V0200101N002012200019N0150001N1+02291+01201101341ADDGA1021+015009089GF104991021021017501031001MA1999999097801MD1610111+9999REMSYN082AAXX  30151 11841 42765 40102 10229 20120 39780 40134 56011 82230 333 82850 84360;
0224118410999992000083018004+49230+018610FM-12+031599999V0201401N001010600019N0120001N1+01771+01321101381ADDAA199000091GA1061+060009089GF106991999001999999001081KA1120M+02391MA1999999097781MD1510021+9999REMSYN082AAXX  30181 11841 32962 61401 10177 20132 39778 40138 55002 80008 333 10239 86270;EQDQ01+000002SCOTLCQ02  00002PRCP99
0178118410999992000083021004+49230+018610FM-12+031599999V0201301N001010600019N0100001N1+01431+01231101431ADDGA1081+060009089GF108991999001999999001071MA1999999097781MD1010001+9999REMSYN076AAXX  30211 11841 42960 81301 10143 20123 39778 40143 50000 80007 333 88270;EQDQ01+000002SCOTLC
0231118410999992000083100004+49230+018610FM-12+031599999V0200401N001012200019N0070001N1+01271+01141101371ADDAA199000091AY111061AY211061GA1031+060009019GF103991001001999999001011GJ102469MA1999999097701MD1610081+9999MW1101REMSYN088AAXX  31001 11841 31957 30401 10127 20114 39770 40137 56008 71011 80001 333 55041 83070;EQDQ01  00002PRCP99
0101118410999992000083103004+49230+018610FM-12+031599999V0201201N001019999999N9999999N1+01321+01201101251ADDMA1999999097601MD1710101+9999REMSYN060AAXX  31031 11841 46/// /1201 10132 20120 39760 40125 57010;
0259118410999992000083106004+49230+018610FM-12+031599999V0201201N00101036001CN0020001N1+01341+01241101301ADDAA112001091AY121061AY221061GA1041+009309069GF108991041051008001021999IA1099IA2999+01009KA1120N+01221MA1999999097651MD1110031+9999MW1611REMSYN112AAXX  31061 11841 11520 81201 10134 20124 39765 40130 51003 60012 76122 8452/ 333 20122 31010 50252 84631 88458;
0215118410999992000083109004+49230+018610FM-12+031599999V0209999C000010150019N0030001N1+01511+01351101211ADDAY161031AY221031GA1031+007509069GA2051+015009069GF108991051051008001021999MA1999999097581MD1710071+9999MW1601REMSYN094AAXX  31091 11841 41530 80000 10151 20135 39758 40121 57007 76062 8552/ 333 83625 85650 88457;
0232118410999992000083112004+49230+018610FM-12+031599999V0200701N001010069019N0025001N1+01641+01481101101ADDAA106003091AY161061AY221061GA1021+003909079GA2041+006909069GF108991081051004501999999MA1999999097491MD1710091+9999MW1601REMSYN100AAXX  31121 11841 11425 80701 10164 20148 39749 40110 57009 60031 76062 885// 333 82713 84623 88636;
0215118410999992000083115004+49230+018610FM-12+031599999V0200501N00101004201CN0070001N1+01681+01461100971ADDAY161031AY261031GA1011+004509079GA2031+009909069GF108991081051004501999999MA1999999097371MD1610121+9999MW1101REMSYN094AAXX  31151 11841 41457 80501 10168 20146 39737 40097 56012 71066 885// 333 81715 83633 88650;
0223118410999992000083118004+49230+018610FM-12+031599999V0201201N001010150019N0080001N1+01551+01441100861ADDAA112003091AY161061AY261061GA1081+015009059GF108991081051017501999999KA1120M+01681MA1999999097251MD1810121+9999MW1101REMSYN094AAXX  31181 11841 11758 81201 10155 20144 39725 40086 58012 60032 71066 885// 333 10168 88650;
0193118410999992000083121004+49230+018610FM-12+031599999V0201101N00101036001CN0050001N1+01461+01381100821ADDAY121031AY221031GA1041+015009069GF108991041051017501021999MA1999999097201MD1810051+9999MW1211REMSYN088AAXX  31211 11841 41750 81101 10146 20138 39720 40082 58005 72122 8452/ 333 84650 88458;
0224118410999992000090100004+49230+018610FM-12+031599999V0200901N00101036001CN0045001N1+01351+01291100691ADDAA106000191AY161061AY221061GA1031+015009069GF108991031051017501071999GJ100009MA1999999097061MD1710141+9999MW1101REMSYN100AAXX  01001 11841 11745 80901 10135 20129 39706 40069 57014 69911 71062 8357/ 333 55000 83650 88360;
0193118410999992000090103004+49230+018610FM-12+031599999V0200901N00201036001CN0050001N1+01341+01261100621ADDAY121031AY221031GA1011+015009069GF105991011051017501031001MA1999999096991MD1710071+9999MW1101REMSYN088AAXX  01031 11841 41750 50902 10134 20126 39699 40062 57007 71022 81530 333 81650 85360;
0231118410999992000090106004+49230+018610FM-12+031599999V0209999C00001220001CN0200001N1+01551+01301100601ADDAA112000191GA1021+006609089GF105991021021008001001041IA1099IA2999+00909KA1120N+01171MA1999999097001MD1110011+9999REMSYN106AAXX  01061 11841 12570 50000 10155 20130 39700 40060 51001 69912 82204 333 20117 31009 50122 82822 85071;
0159118410999992000090109004+49230+018610FM-12+031599999V0200701N006010090019N0200001N1+01931+01191100551ADDGA1051+009009029GF105991051021008001001001MA1999999096991MD1710011+9999REMSYN076AAXX  01091 11841 42570 50706 10193 20119 39699 40055 57001 85200 333 85830;
0189118410999992000090112004+49230+018610FM-12+031599999V0200401N003012200019N0200001N1+02171+01231100591ADDAA199000091GA1031+013809029GF104991031021012501061021MA1999999097061MD1210071+9999REMSYN076AAXX  01121 11841 32670 40403 10217 20123 39706 40059 52007 83262 333 83846;EQDQ01  00002PRCP99
0159118410999992000090115004+49230+018610FM-12+031599999V0200701N004012200019N0200001N1+02151+01101100561ADDGA1031+012909029GF104991041081012501001001MA1999999097031MD1610031+9999REMSYN076AAXX  01151 11841 42670 40704 10215 20110 39703 40056 56003 84800 333 83843;
0196118410999992000090118004+49230+018610FM-12+031599999V0201201N002012200019N0150001N1+01611+01261100691ADDAA199000091GA1001+999999999GF100991001001999999001001KA1999M+02181MA1999999097091MD1310061+9999REMSYN070AAXX  01181 11841 32965 01202 10161 20126 39709 40069 53006 333 10218;EQDQ01  00002PRCP99
0171118410999992000090121004+49230+018610FM-12+031599999V0201001N002012200019N0060001N1+01181+01091100811ADDAY101031AY201031GA1001+999999999GF100991001001999999001001MA1999999097151MD1010061+9999MW1101REMSYN066AAXX  01211 11841 41956 01002 10118 20109 39715 40081 50006 71000;
0231118410999992000090200004+49230+018610FM-12+031599999V0201001N002012200019N0021001N1+00981+00921100831ADDAA199000091AY101061AY201061GA1031+000609069GF103991031061000751001001GJ102889MA1999999097141MD1810011+9999MW1101REMSYN088AAXX  02001 11841 31121 31002 10098 20092 39714 40083 58001 71000 83600 333 55048 83702;EQDQ01  00002PRCP99
0187118410999992000090203004+49230+018610FM-12+031599999V0201001N001010003019N0004001N1+01021+00971100761ADDAY141031AY211031GA1081+000309069GF108991081061000751999999MA1999999097081MD1710061+9999MW1461REMSYN082AAXX  02031 11841 41104 81001 10102 20097 39708 40076 57006 74641 886// 333 88701;
0266118410999992000090206004+49230+018610FM-12+031599999V0200801N002010009019N0007001N1+01101+01021100781ADDAA199000091AY111061AY211061GA1081+000909069GF108991081061000751999999IA1019IA2999+00709KA1120N+00961MA1999999097111MD1110031+9999MW1421REMSYN100AAXX  02061 11841 31107 80802 10110 20102 39711 40078 51003 74211 886// 333 20096 30007 50242 88703;EQDQ01  00002PRCP99
0215118410999992000090209004+49230+018610FM-12+031599999V0200901N00101036001CN0045001N1+01361+01151100761ADDAY141031AY221031GA1011+003909079GA2041+013809069GF107991041051004501071001MA1999999097131MD1010021+9999MW1601REMSYN094AAXX  02091 11841 41445 70901 10136 20115 39713 40076 50002 76042 84570 333 81713 84646 87359;
0232118410999992000090212004+49230+018610FM-12+031599999V0203001N001010138019N0070001N1+01581+01331100781ADDAA106000191AY141061AY221061GA1011+006909089GA2051+013809069GF108991051081008001071999MA1999999097171MD1210041+9999MW1211REMSYN100AAXX  02121 11841 11557 83001 10158 20133 39717 40078 52004 69921 72142 8587/ 333 81823 85646 88359;
0193118410999992000090215004+49230+018610FM-12+031599999V0202201N001010150019N0120001N1+01651+01281100771ADDAY161031AY221031GA1051+015009069GF108991051051017501071999MA1999999097171MD1010001+9999MW1601REMSYN088AAXX  02151 11841 41762 82201 10165 20128 39717 40077 50000 76062 8557/ 333 85650 88359;
0251118410999992000090218004+49230+018610FM-12+031599999V0209999C000010138019N0100001N1+01441+01331100791ADDAA112000191AY161061AY221061GA1011+007509069GA2061+013809069GF108991061051008001071999KA1120M+01661MA1999999097171MD1510001+9999MW1601REMSYN106AAXX  02181 11841 11560 80000 10144 20133 39717 40079 55000 69922 76062 8657/ 333 10166 81625 86646 88359;
0193118410999992000090221004+49230+018610FM-12+031599999V0209999C000012200019N0045001N1+01281+01221100821ADDAY161031AY261031GA1011+006609069GF104991011051008001031001MA1999999097181MD1310011+9999MW1101REMSYN088AAXX  02211 11841 41545 40000 10128 20122 39718 40082 53001 71066 81530 333 81622 83360;
0218118410999992000090300004+49230+018610FM-12+031599999V0209999C000010045019N0060001N1+01201+01121100761ADDAA106000791AY161061AY261061GA1051+004509069GF106991051061004501031001GJ100009MA1999999097111MD1810071+9999MW1101REMSYN094AAXX  03001 11841 11456 60000 10120 20112 39711 40076 58007 69901 71066 85630 333 55000 85715;
0187118410999992000090303004+49230+018610FM-12+031599999V0209999C000010015019N0030001N1+01151+01071100631ADDAY121031AY221031GA1081+001509069GF108991081061001501999999MA1999999096971MD1710141+9999MW1101REMSYN082AAXX  03031 11841 41230 80000 10115 20107 39697 40063 57014 71022 886// 333 88705;
0259118410999992000090306004+49230+018610FM-12+031599999V0202901N00101004201CN0035001N1+01241+01151100691ADDAA112000791AY121061AY221061GA1031+003309079GF106991051051004501031001IA1099IA2999+00909KA1120N+01111MA1999999097041MD1110071+9999MW1101REMSYN112AAXX  03061 11841 11435 62901 10124 20115 39704 40069 51007 69902 71022 85530 333 20111 31009 50102 83711 84626;
0187118410999992000090309004+49230+018610FM-12+031599999V0202301N003010078019N0150001N1+01501+01061100681ADDAY181031AY221031GA1071+007809059GF107991071051008001001001MA1999999097071MD1310031+9999MW1031REMSYN082AAXX  03091 11841 41565 72303 10150 20106 39707 40068 53003 70382 87500 333 87626;
0210118410999992000090312004+49230+018610FM-12+031599999V0202301N00201036001CN0200001N1+01511+01091100771ADDAA106000591AY181061AY221061GA1031+012009089GF106991031021012501071001MA1999999097151MD1310081+9999MW1251REMSYN094AAXX  03121 11841 11670 62302 10151 20109 39715 40077 53008 69961 72582 83270 333 83840 86358;
0193118410999992000090315004+49230+018610FM-12+031599999V0202101N00401036001CN0200001N1+01321+01021100791ADDAY181031AY221031GA1021+013809089GF106991021021012501071001MA1999999097151MD1510001+9999MW1251REMSYN088AAXX  03151 11841 41670 62104 10132 20102 39715 40079 55000 72582 82270 333 82846 86358;
0229118410999992000090318004+49230+018610FM-12+031599999V0209999C00001036001CN0150001N1+01171+01041100831ADDAA112001091AY181061AY211061GA1011+000909079GF106991011061000751031001KA1120M+01771MA1999999097171MD1310021+9999MW1031REMSYN100AAXX  03181 11841 11165 60000 10117 20104 39717 40083 53002 60012 70381 81630 333 10177 81703 86359;
0187118410999992000090321004+49230+018610FM-12+031599999V0209999C000012200019N0100001N1+01171+01091100921ADDAY181031AY211031GA1041+007809059GF104991041051008001001001MA1999999097261MD1310091+9999MW1251REMSYN082AAXX  03211 11841 41560 40000 10117 20109 39726 40092 53009 72581 84500 333 84626;
0224118410999992000090400004+49230+018610FM-12+031599999V0202701N00301007501CN0100001N1+01231+01041100931ADDAA106000791AY181061AY221061GA1031+007809069GF107991071051008001999999GJ101089MA1999999097271MD1010011+9999MW1031REMSYN100AAXX  04001 11841 11560 72703 10123 20104 39727 40093 50001 69901 70382 875// 333 55018 83626 87630;
0187118410999992000090403004+49230+018610FM-12+031599999V0202201N004010093019N0120001N1+01271+00991100921ADDAY161031AY221031GA1081+009309059GF108991081051008001999999MA1999999097271MD1010001+9999MW1021REMSYN082AAXX  04031 11841 41562 82204 10127 20099 39727 40092 50000 70262 885// 333 88631;
0253118410999992000090406004+49230+018610FM-12+031599999V0202401N004010075019N0200001N1+01281+00981101071ADDAA112000791AY161061AY221061GA1081+007509059GF108991081051008001999999IA1099IA2999+01009KA1120N+01141MA1999999097411MD1210141+9999MW1211REMSYN106AAXX  04061 11841 11570 82404 10128 20098 39741 40107 52014 69902 72162 885// 333 20114 31010 50152 88625;
0193118410999992000090409004+49230+018610FM-12+031599999V0202401N00401012001CN0250001N1+01471+01011101191ADDAY161031AY221031GA1031+008109089GF107991071081008001001001MA1999999097551MD1210141+9999MW1211REMSYN088AAXX  04091 11841 41575 72404 10147 20101 39755 40119 52014 72162 87800 333 83827 87648;
0210118410999992000090412004+49230+018610FM-12+031599999V0202501N00501012001CN0300001N1+01621+01011101231ADDAA106000791AY161061AY221061GA1041+009009089GF107991071081008001001001MA1999999097611MD1210061+9999MW1031REMSYN094AAXX  04121 11841 11580 72505 10162 20101 39761 40123 52006 69901 70362 87800 333 84830 85650;
0165118410999992000090415004+49230+018610FM-12+031599999V0202801N003010150019N0300001N1+01721+00941101261ADDGA1021+011409089GF106991061081012501001001MA1999999097651MD1110041+9999REMSYN082AAXX  04151 11841 42680 62803 10172 20094 39765 40126 51004 86800 333 82838 85650;
0223118410999992000090418004+49230+018610FM-12+031599999V0200501N002010102019N0300001N1+01331+00961101461ADDAA112000791AY181061AY221061GA1051+010209059GF106991061051012501001001KA1120M+01771MA1999999097801MD1310151+9999MW1031REMSYN094AAXX  04181 11841 11680 60502 10133 20096 39780 40146 53015 69902 70382 86500 333 10177 85634;
0159118410999992000090421004+49230+018610FM-12+031599999V0202701N001012200019N0150001N1+01071+00931101591ADDGA1021+014409059GF102991021051012501001001MA1999999097891MD1110091+9999REMSYN076AAXX  04211 11841 42665 22701 10107 20093 39789 40159 51009 82500 333 82648;
0203118410999992000090500004+49230+018610FM-12+031599999V0202601N001010138019N0120001N1+01021+00911101621ADDAA199000091GA1061+013809059GF106991061051012501001001GJ100849MA1999999097911MD1010021+9999REMSYN082AAXX  05001 11841 32662 62601 10102 20091 39791 40162 50002 86500 333 55014 86646;EQDQ01  00002PRCP99
0187118410999992000090503004+49230+018610FM-12+031599999V0202701N002010090019N0100001N1+01051+00941101651ADDAY181031AY221031GA1071+009009059GF107991071051008001001001MA1999999097941MD1310031+9999MW1251REMSYN082AAXX  05031 11841 41560 72702 10105 20094 39794 40165 53003 72582 87500 333 87630;
0259118410999992000090506004+49230+018610FM-12+031599999V0203001N00201012001CN0250001N1+01031+00661101821ADDAA112003091AY181061AY261061GA1021+008709089GF107991071081008001999999IA1099IA2999+00809KA1120N+00991MA1999999098101MD1210161+9999MW1601REMSYN112AAXX  05061 11841 11575 73002 10103 20066 39810 40182 52016 60032 76086 878// 333 20099 31008 50182 82829 87641;
0193118410999992000090509004+49230+018610FM-12+031599999V0200401N00301012001CN0250001N1+01261+00551101871ADDAY161031AY221031GA1031+007509089GF106991051081008001071011MA1999999098181MD1110081+9999MW1011REMSYN088AAXX  05091 11841 41575 60403 10126 20055 39818 40187 51008 70162 85871 333 83825 85631;
0210118410999992000090512004+49230+018610FM-12+031599999V0203301N004010150019N0300001N1+01331+00501101841ADDAA106000791AY161061AY221061GA1021+012309089GF107991071081012501001001MA1999999098161MD1810021+9999MW1031REMSYN094AAXX  05121 11841 11680 73304 10133 20050 39816 40184 58002 69901 70362 87800 333 82841 86650;
0159118410999992000090515004+49230+018610FM-12+031599999V0200601N002010129019N0300001N1+01321+00511101801ADDGA1061+012909059GF107991061051012501041001MA1999999098121MD1610041+9999REMSYN076AAXX  05151 11841 42680 70602 10132 20051 39812 40180 56004 86540 333 86643;
0195118410999992000090518004+49230+018610FM-12+031599999V0202601N001010360019N0250001N1+01061+00671101901ADDAA112000791GA1041+013509029GF106991041021012501041001KA1120M+01451MA1999999098181MD1310061+9999REMSYN088AAXX  05181 11841 12675 62601 10106 20067 39818 40190 53006 69902 84240 333 10145 84845;
0101118410999992000090521004+49230+018610FM-12+031599999V0201301N001019999999N9999999N1+00771+00611101961ADDMA1999999098211MD1210061+9999REMSYN060AAXX  05211 11841 46/// /1301 10077 20061 39821 40196 52006;
0218118410999992000090600004+49230+018610FM-12+031599999V0209999C000010099019N0100001N1+00761+00641101951ADDAA106000791AY111061AY211061GA1081+009909059GF108991081051012501999999GJ101209MA1999999098191MD1810021+9999MW1601REMSYN094AAXX  06001 11841 11660 80000 10076 20064 39819 40195 58002 69901 76011 885// 333 55020 88633;
0187118410999992000090603004+49230+018610FM-12+031599999V0209999C000010093019N0060001N1+00741+00661101901ADDAY161031AY221031GA1071+009309059GF107991071051008001001001MA1999999098141MD1810051+9999MW1101REMSYN082AAXX  06031 11841 41556 70000 10074 20066 39814 40190 58005 71062 87500 333 87631;
0259118410999992000090606004+49230+018610FM-12+031599999V0209999C00001004201CN0080001N1+00791+00651101891ADDAA112000791AY161061AY211061GA1011+004809079GF106991061051004501001001IA1099IA2999+00409KA1120N+00611MA1999999098141MD1010001+9999MW1101REMSYN112AAXX  06061 11841 11458 60000 10079 20065 39814 40189 50000 69902 71061 86500 333 20061 31004 50222 81716 86656;
0159118410999992000090609004+49230+018610FM-12+031599999V0202601N001012200019N0300001N1+01551+00541101731ADDGA1041+009009029GF104991041021008001001001MA1999999098081MD1810061+9999REMSYN076AAXX  06091 11841 42580 42601 10155 20054 39808 40173 58006 84200 333 84830;
0170118410999992000090612004+49230+018610FM-12+031599999V0200101N002012200019N0300001N1+01611+00351101611ADDAA199000021GA1041+013209029GF104991041021012501001001MA1999999097971MD1610111+9999REMSYN076AAXX  06121 11841 32680 40102 10161 20035 39797 40161 56011 84200 333 84844;
0159118410999992000090615004+49230+018610FM-12+031599999V0200601N002012200019N0300001N1+01611+00421101501ADDGA1031+015009029GF103991031021017501001001MA1999999097861MD1710111+9999REMSYN076AAXX  06151 11841 42780 30602 10161 20042 39786 40150 57011 83200 333 83850;
0224118410999992000090618004+49230+018610FM-12+031599999V0201601N001012200019N0300001N1+00961+00521101541ADDAA199000091GA1011+018009059GF101991011041017501999001KA1120M+01721MA1999999097821MD1510041+9999REMSYN082AAXX  06181 11841 32780 11601 10096 20052 39782 40154 55004 81400 333 10172 81656;EQDQ01+000002SCOMCGQ02  00002PRCP99
0143118410999992000090621004+49230+018610FM-12+031599999V0201201N001012200019N0120001N1+00541+00391101541ADDGA1001+999999999GF100991001001999999001001MA1999999097761MD1810061+9999REMSYN060AAXX  06211 11841 42962 01201 10054 20039 39776 40154 58006;
0211118410999992000090700004+49230+018610FM-12+031599999V0209999C000012200019N0070001N1+00421+00351101431ADDAA199000091AY101061AY201061GA1001+999999999GF100991001001999999001001MA1999999097641MD1810121+9999MW1101REMSYN076AAXX  07001 11841 31957 00000 10042 20035 39764 40143 58012 71000 333 55067;EQDQ01  00002PRCP99
0206118410999992000090703004+49230+018610FM-12+031599999V0200801N002012200019N0060001N1+00441+00351101251ADDAY101031AY201031GA1041+018009059GF104991041051017501999001MA1999999097471MD1710171+9999MW1101REMSYN082AAXX  07031 11841 41756 40802 10044 20035 39747 40125 57017 71000 84500 333 84656;EQDQ01+000002SCOMCG
0238118410999992000090706004+49230+018610FM-12+031599999V0200701N002010150019N0120001N1+00591+00451101091ADDAA199000091GA1071+015009059GF107991071051017501999999IA1019IA2999+00009KA1120N+00291MA1999999097341MD1610131+9999REMSYN094AAXX  07061 11841 32762 70702 10059 20045 39734 40109 56013 875// 333 20029 30100 50262 87650;EQDQ01  00002PRCP99
0193118410999992000090709004+49230+018610FM-12+031599999V0209999C00001001201CN0100001N1+00841+00571101121ADDAY121031AY221031GA1021+001209079GF108991081051001501999999MA1999999097401MD1310061+9999MW1611REMSYN088AAXX  07091 11841 41260 80000 10084 20057 39740 40112 53006 76122 885// 333 82704 88632;
0210118410999992000090712004+49230+018610FM-12+031599999V0209999C00001002101CN0100001N1+01121+00811101091ADDAA106001091AY121061AY221061GA1031+002409079GF108991081051002501999999MA1999999097411MD1310011+9999MW1611REMSYN094AAXX  07121 11841 11360 80000 10112 20081 39741 40109 53001 60011 76122 885// 333 83708 88637;
0215118410999992000090715004+49230+018610FM-12+031599999V0209999C000010075019N0150001N1+01251+00921101211ADDAY161031AY221031GA1021+003009079GA2041+007509069GF108991081051004501999999MA1999999097541MD1210131+9999MW1021REMSYN094AAXX  07151 11841 41465 80000 10125 20092 39754 40121 52013 70262 885// 333 82710 84625 88627;
0223118410999992000090718004+49230+018610FM-12+031599999V0209999C000010150019N0070001N1+01061+00921101441ADDAA112001091AY161061AY221061GA1071+015009059GF107991071051017501999999KA1120M+01261MA1999999097741MD1210201+9999MW1101REMSYN094AAXX  07181 11841 11757 70000 10106 20092 39774 40144 52020 60012 71062 875// 333 10126 87650;
0193118410999992000090721004+49230+018610FM-12+031599999V0201101N00101002101CN0060001N1+01031+00921101661ADDAY121031AY221031GA1041+002409079GF107991071051002501999999MA1999999097951MD1210211+9999MW1101REMSYN088AAXX  07211 11841 41356 71101 10103 20092 39795 40166 52021 71022 875// 333 84708 87650;
0206118410999992000090800004+49230+018610FM-12+031599999V0209999C000010001519N0002001N1+00881+00821101841ADDAA199000021AY111061AY211061GA1091+000159999GF109991091999999999999999GJ100009MA1999999098101MD1210151+9999MW1471REMSYN082AAXX  08001 11841 31/02 90000 10088 20082 39810 40184 52015 74711 333 55000 89/00;
0181118410999992000090803004+49230+018610FM-12+031599999V0209999C000010003019N0002001N1+00801+00761102061ADDAY141031AY241031GA1091+000309999GF109991091999999999999999MA1999999098301MD1210201+9999MW1451REMSYN076AAXX  08031 11841 41/02 90000 10080 20076 39830 40206 52020 74544 333 89/01;
0266118410999992000090806004+49230+018610FM-12+031599999V0200501N002010018019N0019001N1+00931+00871102201ADDAA199000091AY141061AY221061GA1081+001809069GF108991081061001501999999IA1099IA2999+00609KA1120N+00791MA1999999098461MD1310161+9999MW1281REMSYN100AAXX  08061 11841 31219 80502 10093 20087 39846 40220 53016 72842 886// 333 20079 31006 50162 88706;EQDQ01  00002PRCP99
0187118410999992000090809004+49230+018610FM-12+031599999V0200901N001012200019N0070001N1+01521+00891102241ADDAY111031AY211031GA1021+007509029GF102991021021008001001001MA1999999098571MD1110111+9999MW1101REMSYN082AAXX  08091 11841 41557 20901 10152 20089 39857 40224 51011 71011 82200 333 82825;
0189118410999992000090812004+49230+018610FM-12+031599999V0202301N002012200019N0150001N1+02011+00611102111ADDAA199000091GA1021+014409029GF102991021021012501001011MA1999999098501MD1710071+9999REMSYN076AAXX  08121 11841 32665 22302 10201 20061 39850 40211 57007 82201 333 82848;EQDQ01  00002PRCP99
0165118410999992000090815004+49230+018610FM-12+031599999V0202401N003012200019N0150001N1+02011+00751102081ADDGA1011+018009089GF103991011011017501001011MA1999999098471MD1610031+9999REMSYN082AAXX  08151 11841 42765 32403 10201 20075 39847 40208 56003 81101 333 81856 83075;
0208118410999992000090818004+49230+018610FM-12+031599999V0201201N001012200019N0150001N1+01281+00911102351ADDAA199000091GA1021+069009019GF102991001001999999001011KA1120M+02121MA1999999098651MD1310181+9999REMSYN082AAXX  08181 11841 32965 21201 10128 20091 39865 40235 53018 80001 333 10212 82073;EQDQ01  00002PRCP99
0101118410999992000090821004+49230+018610FM-12+031599999V0209999C000019999999N9999999N1+00811+00661102631ADDMA1999999098861MD1210251+9999REMSYN060AAXX  08211 11841 46/// /0000 10081 20066 39886 40263 52025;
0211118410999992000090900004+49230+018610FM-12+031599999V0200601N001012200019N0050001N1+00621+00551102711ADDAA199000091AY101061AY201061GA1001+999999999GF100991001001999999001001MA1999999098901MD1010041+9999MW1101REMSYN076AAXX  09001 11841 31950 00601 10062 20055 39890 40271 50004 71000 333 55075;EQDQ01  00002PRCP99
0101118410999992000090903004+49230+018610FM-12+031599999V0201201N002019999999N9999999N1+00551+00491102771ADDMA1999999098961MD1210051+9999REMSYN060AAXX  09031 11841 46/// /1202 10055 20049 39896 40277 52005;
0266118410999992000090906004+49230+018610FM-12+031599999V0200901N002012200019N0030001N1+00741+00601102841ADDAA199000091AY101061AY201061GA1011+001209069GF101991011061001501001001IA1019IA2999+00109KA1120N+00431MA1999999099041MD1210081+9999MW1101REMSYN100AAXX  09061 11841 31230 10902 10074 20060 39904 40284 52008 71000 81600 333 20043 30001 50232 81704;EQDQ01  00002PRCP99
0159118410999992000090909004+49230+018610FM-12+031599999V0209999C000012200019N0150001N1+01681+00801102741ADDGA1021+060009019GF102991001001999999001011MA1999999099071MD1010031+9999REMSYN076AAXX  09091 11841 42965 20000 10168 20080 39907 40274 50003 80001 333 82070;
0189118410999992000090912004+49230+018610FM-12+031599999V0202501N005012200019N0150001N1+02231+00841102541ADDAA199000091GA1021+060009019GF102991001001999999001011MA1999999098941MD1710131+9999REMSYN076AAXX  09121 11841 32965 22505 10223 20084 39894 40254 57013 80001 333 82070;EQDQ01  00002PRCP99
0159118410999992000090915004+49230+018610FM-12+031599999V0202501N003012200019N0200001N1+02231+00691102451ADDGA1031+060009019GF103991001001999999001011MA1999999098861MD1610081+9999REMSYN076AAXX  09151 11841 42970 32503 10223 20069 39886 40245 56008 80001 333 83070;
0207118410999992000090918004+49230+018610FM-12+031599999V0203001N001012200019N0150001N1+01361+00961102621ADDAA199000091GA1021+060009019GF102991001001999999001011KA1120M+02311MA1999999098921MD1310061+9999REMSYN081AAXX  09181 1184132965 23001 10136 20096 39892 40262 53006 80001 333 10231 82070;EQDQ01  00002PRCP99
0143118410999992000090921004+49230+018610FM-12+031599999V0209999C000012200019N0100001N1+00951+00791102791ADDGA1001+999999999GF100991001001999999001001MA1999999099031MD1110111+9999REMSYN060AAXX  09211 11841 42960 00000 10095 20079 39903 40279 51011;
0183118410999992000091000004+49230+018610FM-12+031599999V0200301N001012200019N0100001N1+00671+00581102811ADDAA199000091GA1001+999999999GF100991001001999999001001MA1999999099011MD1810021+9999REMSYN070AAXX  10001 11841 32960 00301 10067 20058 39901 40281 58002 333 55109;EQDQ01  00002PRCP99
0171118410999992000091003004+49230+018610FM-12+031599999V0200701N001012200019N0022001N1+00511+00471102781ADDAY101031AY201031GA1001+999999999GF100991001001999999001001MA1999999098961MD1610051+9999MW1111REMSYN066AAXX  10031 11841 41922 00701 10051 20047 39896 40278 56005 71100;
0272118410999992000091006004+49230+018610FM-12+031599999V0200801N00301000301CN0003001N1+00761+00721102681ADDAA199000091AY141061AY211061GA1011+000309079GF107991071061000251001001IA1019IA2999+00209KA1120N+00481MA1999999098891MD1710071+9999MW1461REMSYN106AAXX  10061 11841 31003 70803 10076 20072 39889 40268 57007 74641 87600 333 20048 30002 50272 81701 86703;EQDQ01  00002PRCP99
0187118410999992000091009004+49230+018610FM-12+031599999V0200401N001012200019N0200001N1+01831+00971102481ADDAY141031AY211031GA1011+003609019GF101991001001999999001011MA1999999098841MD1810051+9999MW1021REMSYN082AAXX  10091 11841 41970 10401 10183 20097 39884 40248 58005 70241 80001 333 81012;
0189118410999992000091012004+49230+018610FM-12+031599999V0202601N003012200019N0250001N1+02341+00711102191ADDAA199000091GA1011+066009019GF101991001001999999001011MA1999999098621MD1610221+9999REMSYN076AAXX  10121 11841 32975 12603 10234 20071 39862 40219 56022 80001 333 81072;EQDQ01  00002PRCP99
0159118410999992000091015004+49230+018610FM-12+031599999V0202501N002012200019N0300001N1+02511+00591101951ADDGA1011+069009019GF101991001001999999001011MA1999999098411MD1810211+9999REMSYN076AAXX  10151 11841 42980 12502 10251 20059 39841 40195 58021 80001 333 81073;
0154118410999992000091018004+49230+018610FM-12+031599999V0209999C000019999999N9999999N1+01441+00831102091ADDAA199000091KA1999M+02551MA1999999098421MD1710021+9999REMSYN070AAXX  10181 11841 36/// /0000 10144 20083 39842 40209 57002 333 10255;EQDQ01  00002PRCP99
0143118410999992000091021004+49230+018610FM-12+031599999V0201201N001012200019N0150001N1+01041+00751102161ADDGA1001+999999999GF100991001001999999001001MA1999999098431MD1110051+9999REMSYN060AAXX  10211 11841 42965 01201 10104 20075 39843 40216 51005;
0141118410999992000091100004+49230+018610FM-12+031599999V0201001N001019999999N9999999N1+00781+00701102121ADDAA199000091MA1999999098361MD1710071+9999REMSYN070AAXX  11001 11841 36/// /1001 10078 20070 39836 40212 57007 333 55107;EQDQ01  00002PRCP99
0171118410999992000091103004+49230+018610FM-12+031599999V0201101N002012200019N0080001N1+00861+00751102021ADDAY101031AY201031GA1001+999999999GF100991001001999999001001MA1999999098271MD1810091+9999MW1101REMSYN066AAXX  11031 11841 41958 01102 10086 20075 39827 40202 58009 71000;
0266118410999992000091106004+49230+018610FM-12+031599999V0200801N003012200019N0060001N1+01071+00861101951ADDAA199000091AY101061AY201061GA1011+039009079GF101991011001999999041011IA1019IA2999+00409KA1120N+00701MA1999999098231MD1610041+9999MW1101REMSYN100AAXX  11061 11841 31956 10803 10107 20086 39823 40195 56004 71000 81041 333 20070 30004 50312 81363;EQDQ01  00002PRCP99
0101118410999992000091109004+49230+018610FM-12+031599999V0209999V001019999999N9999999N1+02191+01161101681ADDMA1999999098121MD1710111+9999REMSYN060AAXX  11091 11841 46/// /9901 10219 20116 39812 40168 57011;
0195118410999992000091112004+49230+018610FM-12+031599999V0203401N00201036001CN0200001N1+02341+01241101521ADDAA199000091GA1011+013809089GF106991031081012501031001MA1999999097981MD1710141+9999REMSYN082AAXX  11121 11841 32670 63402 10234 20124 39798 40152 57014 83830 333 81846 83656;EQDQ01  00002PRCP99
0165118410999992000091115004+49230+018610FM-12+031599999V0200301N00301036001CN0200001N1+02231+01231101431ADDGA1011+015009089GF105991011021017501031001MA1999999097881MD1710101+9999REMSYN082AAXX  11151 11841 42770 50303 10223 20123 39788 40143 57010 81230 333 81850 85358;
0224118410999992000091118004+49230+018610FM-12+031599999V0200901N002012200019N0100001N1+01651+01321101511ADDAA199000091GA1021+024009079GF102991021999022501031001KA1120M+02471MA1999999097891MD1310011+9999REMSYN082AAXX  11181 11841 32860 20902 10165 20132 39789 40151 53001 82030 333 10247 82358;EQDQ01  00002PRCP99Q02    003SCOLCG
0143118410999992000091121004+49230+018610FM-12+031599999V0200901N001012200019N0100001N1+01221+01111101651ADDGA1001+999999999GF100991001001999999001001MA1999999097971MD1310081+9999REMSYN060AAXX  11211 11841 42960 00901 10122 20111 39797 40165 53008;
0211118410999992000091200004+49230+018610FM-12+031599999V0200701N001012200019N0028001N1+00971+00911101721ADDAA199000091AY101061AY201061GA1001+999999999GF100991001001999999001001MA1999999098001MD1210031+9999MW1121REMSYN076AAXX  12001 11841 31928 00701 10097 20091 39800 40172 52003 71200 333 55052;EQDQ01  00002PRCP99
0187118410999992000091203004+49230+018610FM-12+031599999V0201001N002012200019N0025001N1+00971+00911101701ADDAY101031AY201031GA1011+027009079GF101991011001999999031001MA1999999097981MD1610021+9999MW1101REMSYN082AAXX  12031 11841 41925 11002 10097 20091 39798 40170 56002 71000 81030 333 81359;
0266118410999992000091206004+49230+018610FM-12+031599999V0201101N00301001201CN0018001N1+01151+01071101701ADDAA199000091AY141061AY211061GA1021+001209079GF106991061051001501001001IA1019IA2999+00609KA1120N+00881MA1999999098011MD1310031+9999MW1281REMSYN100AAXX  12061 11841 31218 61103 10115 20107 39801 40170 53003 72841 86500 333 20088 30006 82704 86628;EQDQ01  00002PRCP99
0193118410999992000091209004+49230+018610FM-12+031599999V0200701N00301012001CN0080001N1+01841+01311101621ADDAY111031AY211031GA1021+009009089GF106991061081008001001001MA1999999098021MD1310011+9999MW1101REMSYN088AAXX  12091 11841 41558 60703 10184 20131 39802 40162 53001 71011 86800 333 82830 85644;
0189118410999992000091212004+49230+018610FM-12+031599999V0201301N001012200019N0200001N1+02331+01111101421ADDAA199000091GA1021+012609029GF102991021021012501001001MA1999999097881MD1710141+9999REMSYN076AAXX  12121 11841 32670 21301 10233 20111 39788 40142 57014 82200 333 82842;EQDQ01  00002PRCP99
0159118410999992000091215004+49230+018610FM-12+031599999V0200701N002012200019N0200001N1+02311+01021101331ADDGA1011+015009029GF102991011011017501001011MA1999999097791MD1610091+9999REMSYN076AAXX  12151 11841 42770 20702 10231 20102 39779 40133 56009 81101 333 81850;
0191118410999992000091218004+49230+018610FM-12+031599999V0201201N001012200019N0200001N1+01601+01161101481ADDAA199000091GF101991999999999999999999KA1120M+02391MA1999999097851MD1310061+9999REMSYN081AAXX  12181 11841 32970 11201 10160 20116 39785 40148 53006 8001 333 10239 81070;EQDQ01  00002PRCP99
0159118410999992000091221004+49230+018610FM-12+031599999V0201101N002012200019N0120001N1+01081+00891101601ADDGA1011+060009019GF101991001001999999001011MA1999999097901MD1110051+9999REMSYN076AAXX  12211 11841 42962 11102 10108 20089 39790 40160 51005 80001 333 81070;
0203118410999992000091300004+49230+018610FM-12+031599999V0209999C000012200019N0100001N1+00941+00861101571ADDAA199000091GA1011+060009019GF101991001001999999001011GJ104149MA1999999097851MD1810051+9999REMSYN082AAXX  13001 11841 32960 10000 10094 20086 39785 40157 58005 80001 333 55069 81070;EQDQ01  00002PRCP99
0187118410999992000091303004+49230+018610FM-12+031599999V0209999C000012200019N0080001N1+00841+00761101531ADDAY101031AY201031GA1011+060009019GF101991001001999999001011MA1999999097801MD1810051+9999MW1101REMSYN082AAXX  13031 11841 41958 10000 10084 20076 39780 40153 58005 71000 80001 333 81070;
0238118410999992000091306004+49230+018610FM-12+031599999V0209999C000012200019N0150001N1+01041+00851101461ADDAA199000091GA1031+063009019GF103991001001999999001011IA1019IA2999+00409KA1120N+00721MA1999999097761MD1810041+9999REMSYN094AAXX  13061 11841 32965 30000 10104 20085 39776 40146 58004 80001 333 20072 30004 50262 83071;EQDQ01  00002PRCP99
0159118410999992000091309004+49230+018610FM-12+031599999V0200501N001012200019N0200001N1+02061+01131101201ADDGA1011+063009019GF101991001001999999001011MA1999999097641MD1710121+9999REMSYN076AAXX  13091 11841 42970 10501 10206 20113 39764 40120 57012 80001 333 81071;
0173118410999992000091312004+49230+018610FM-12+031599999V0202401N007012200019N0200001N1+02571+01041101001ADDAA199000091GA1001+999999999GF100991001001999999001001MA1999999097501MD1810141+9999REMSYN060AAXX  13121 11841 32970 02407 10257 20104 39750 40100 58014;EQDQ01  00002PRCP99
0159118410999992000091315004+49230+018610FM-12+031599999V0202201N004012200019N0200001N1+02551+01091100881ADDGA1031+036009079GF103991031001999999041011MA1999999097381MD1710121+9999REMSYN076AAXX  13151 11841 42970 32204 10255 20109 39738 40088 57012 83041 333 83362;
0214118410999992000091318004+49230+018610FM-12+031599999V0202601N00101090001CN0200001N1+01941+01341101071ADDAA199000091GA1041+015009089GF107991041021017501001061KA1120M+02631MA1999999097501MD1310121+9999REMSYN088AAXX  13181 11841 32770 72601 10194 20134 39750 40107 53012 84206 333 10263 84850 87275;EQDQ01  00002PRCP99
0206118410999992000091321004+49230+018610FM-12+031599999V0201001N001010210019N0120001N1+01601+01471101351ADDAY191031AY281031GA1071+021009079GF107991071999022501071001MA1999999097731MD1110231+9999MW1251REMSYN082AAXX  13211 11841 41862 71001 10160 20147 39773 40135 51023 72598 87070 333 87357;EQDQ01+000002SCOLCG
0224118410999992000091400004+49230+018610FM-12+031599999V0209999C00001000601CN0025001N1+01491+01431101321ADDAA106002091AY191061AY281061GA1041+000609079GF108991071061000751071999GJ105109MA1999999097691MD1810041+9999MW1101REMSYN100AAXX  14001 11841 11125 80000 10149 20143 39769 40132 58004 60021 71098 8767/ 333 55085 84702 87705;
0193118410999992000091403004+49230+018610FM-12+031599999V0201201N00101001201CN0030001N1+01451+01371101341ADDAY141031AY221031GA1041+001209079GF108991081061001501999999MA1999999097701MD1310011+9999MW1281REMSYN088AAXX  14031 11841 41230 81201 10145 20137 39770 40134 53001 72842 886// 333 84704 88713;
0253118410999992000091406004+49230+018610FM-12+031599999V0209999C000010012019N0030001N1+01531+01431101371ADDAA112002091AY141061AY221061GA1081+001209069GF108991081061001501999999IA1099IA2999+01409KA1120N+01441MA1999999097741MD1310041+9999MW1101REMSYN106AAXX  14061 11841 11230 80000 10153 20143 39774 40137 53004 60022 71042 886// 333 20144 31014 50262 88704;
0189118410999992000091412004+49230+018610FM-12+031599999V0202301N004012200019N0150001N1+02241+01401101261ADDAA199000091GA1031+009909029GF104991031021012501001011MA1999999097721MD1810091+9999REMSYN076AAXX  14121 11841 32665 42304 10224 20140 39772 40126 58009 83201 333 83833;EQDQ01  00002PRCP99
0224118410999992000091418004+49230+018610FM-12+031599999V0201401N002012200019N0150001N1+01511+01201101531ADDAA199000091GA1021+015009059GF103991021051017501999011KA1120M+02261MA1999999097891MD1210101+9999REMSYN082AAXX  14181 11841 32765 31402 10151 20120 39789 40153 52010 82501 333 10226 82650;EQDQ01  00002PRCP99Q02    003SCOMCG
0178118410999992000091421004+49230+018610FM-12+031599999V0200501N001012200019N0100001N1+01321+01141101711ADDGA1031+015009059GF103991031051017501999001MA1999999098041MD1210151+9999REMSYN076AAXX  14211 11841 42760 30501 10132 20114 39804 40171 52015 83500 333 83650;EQDQ01    003SCOMCG
0211118410999992000091500004+49230+018610FM-12+031599999V0201301N001012200019N0040001N1+01141+01051101751ADDAA199000091AY101061AY201061GA1001+999999999GF100991001001999999001001MA1999999098051MD1210011+9999MW1101REMSYN076AAXX  15001 11841 31940 01301 10114 20105 39805 40175 52001 71000 333 55017;EQDQ01  00002PRCP99
0187118410999992000091503004+49230+018610FM-12+031599999V0209999C000010009019N0005001N1+00941+00891101811ADDAY111031AY211031GA1051+000909069GF105991051061000751001001MA1999999098081MD1310031+9999MW1461REMSYN082AAXX  15031 11841 41105 50000 10094 20089 39808 40181 53003 74611 85600 333 85703;
0272118410999992000091506004+49230+018610FM-12+031599999V0201001N00101000601CN0003001N1+01081+01031101831ADDAA199000091AY141061AY211061GA1041+000309079GF108991081061000751999999IA1019IA2999+00709KA1120N+00941MA1999999098121MD1210041+9999MW1441REMSYN106AAXX  15061 11841 31103 81001 10108 20103 39812 40183 52004 74441 886// 333 20094 30007 50232 84701 88704;EQDQ01  00002PRCP99
0193118410999992000091509004+49230+018610FM-12+031599999V0200801N00201012001CN0100001N1+01601+01141101811ADDAY141031AY211031GA1021+008109089GF107991071081008001001001MA1999999098171MD1110051+9999MW1031REMSYN088AAXX  15091 11841 41560 70802 10160 20114 39817 40181 51005 70341 87800 333 82827 87645;
0223118410999992000091512004+49230+018610FM-12+031599999V0200301N003010150019N0150001N1+01731+01001101811ADDAA199000091AY141061AY211061GA1021+012009089GF107991061081012501001011MA1999999098181MD1010011+9999MW1021REMSYN088AAXX  15121 11841 31665 70303 10173 20100 39818 40181 50001 70241 86801 333 82840 86650;EQDQ01  00002PRCP99
0165118410999992000091515004+49230+018610FM-12+031599999V0200701N00501090001CN0200001N1+01681+00901101791ADDGA1021+010509089GF105991021021012501041011MA1999999098161MD1510021+9999REMSYN082AAXX  15151 11841 42670 50705 10168 20090 39816 40179 55002 82241 333 82835 84070;
0208118410999992000091518004+49230+018610FM-12+031599999V0209999C000010510019N0200001N1+01191+00861101891ADDAA199000091GA1051+051009019GF105991001001999999001041KA1120M+01821MA1999999098191MD1310031+9999REMSYN082AAXX  15181 11841 32970 50000 10119 20086 39819 40189 53003 80004 333 10182 85067;EQDQ01  00002PRCP99
0159118410999992000091521004+49230+018610FM-12+031599999V0209999C000012200019N0200001N1+00871+00701101931ADDGA1031+069009019GF103991001001999999001011MA1999999098191MD1510001+9999REMSYN076AAXX  15211 11841 42970 30000 10087 20070 39819 40193 55000 80001 333 83073;
0183118410999992000091600004+49230+018610FM-12+031599999V0201401N001012200019N0120001N1+00691+00581101901ADDAA199000091GA1001+999999999GF100991001001999999001001MA1999999098131MD1710061+9999REMSYN070AAXX  16001 11841 32962 01401 10069 20058 39813 40190 57006 333 55012;EQDQ01  00002PRCP99
0178118410999992000091603004+49230+018610FM-12+031599999V0209999C000012200019N0100001N1+00621+00551101801ADDGA1021+015009059GF102991021051017501999001MA1999999098031MD1710101+9999REMSYN076AAXX  16031 11841 42760 20000 10062 20055 39803 40180 57010 82500 333 82650;EQDQ01    003SCOMCG
0272118410999992000091606004+49230+018610FM-12+031599999V0200901N00101036001CN0070001N1+00831+00741101661ADDAA199000091AY111061AY211061GA1031+015009069GF107991031051017501071001IA1019IA2999+00309KA1120N+00601MA1999999097921MD1710111+9999MW1101REMSYN106AAXX  16061 11841 31757 70901 10083 20074 39792 40166 57011 71011 83570 333 20060 30003 50142 83650 86360;EQDQ01  00002PRCP99
0193118410999992000091609004+49230+018610FM-12+031599999V0200901N001010147019N0150001N1+01271+00931101461ADDAY161031AY221031GA1061+014709069GF108991061051012501071999MA1999999097791MD1610131+9999MW1211REMSYN088AAXX  16091 11841 41665 80901 10127 20093 39779 40146 56013 72162 8657/ 333 86649 88360;
0204118410999992000091612004+49230+018610FM-12+031599999V0200601N001010126019N0200001N1+01731+00971101201ADDAA106000791AY161061AY221061GA1081+012609059GF108991081051012501999999MA1999999097591MD1810201+9999MW1021REMSYN088AAXX  16121 11841 11670 80601 10173 20097 39759 40120 58020 69901 70262 885// 333 88642;
0165118410999992000091615004+49230+018610FM-12+031599999V0202301N00201036001CN0250001N1+01891+01001100921ADDGA1041+012009069GF107991041051012501071001MA1999999097341MD1610251+9999REMSYN082AAXX  16151 11841 42675 72302 10189 20100 39734 40092 56025 84570 333 84640 87360;
0201118410999992000091618004+49230+018610FM-12+031599999V0202601N00101036001CN0180001N1+01541+01161101051ADDAA112000791GA1031+012009069GF108991031051012501071999KA1120M+01971MA1999999097431MD1310091+9999REMSYN094AAXX  16181 11841 12668 82601 10154 20116 39743 40105 53009 69902 8357/ 333 10197 83640 88359;
0193118410999992000091621004+49230+018610FM-12+031599999V0200601N00101007501CN0100001N1+01301+01141101141ADDAY161031AY221031GA1021+006909099GF108991081091008001999999MA1999999097491MD1010061+9999MW1951REMSYN088AAXX  16211 11841 41560 80601 10130 20114 39749 40114 50006 79562 889// 333 82923 86628;
0224118410999992000091700004+49230+018610FM-12+031599999V0202701N00101004201CN0060001N1+01181+01121100941ADDAA106004191AY191061AY261061GA1031+003009079GF108991081051004501999999GJ100009MA1999999097281MD1710211+9999MW1611REMSYN100AAXX  17001 11841 11456 82701 10118 20112 39728 40094 57021 60041 76196 885// 333 55000 83710 88620;
0215118410999992000091703004+49230+018610FM-12+031599999V0202601N001010129019N0080001N1+01151+01021100781ADDAY161031AY261031GA1021+004509079GA2051+012909069GF108991051051004501021999MA1999999097121MD1610161+9999MW1611REMSYN094AAXX  17031 11841 41458 82601 10115 20102 39712 40078 56016 76166 8552/ 333 82715 85643 88458;
0259118410999992000091706004+49230+018610FM-12+031599999V0202401N00201001201CN0100001N1+01221+01041100751ADDAA112007191AY161061AY221061GA1041+001209079GF107991071051001501001001IA1099IA2999+01109KA1120N+01131MA1999999097101MD1810021+9999MW1021REMSYN112AAXX  17061 11841 11260 72402 10122 20104 39710 40075 58002 60072 70262 87500 333 20113 31011 50122 84704 87621;
0165118410999992000091709004+49230+018610FM-12+031599999V0202601N00301002101CN0150001N1+01491+01031100761ADDGA1011+002109079GF107991061051002501071001MA1999999097141MD1010041+9999REMSYN082AAXX  17091 11841 42365 72603 10149 20103 39714 40076 50004 86570 333 81707 86623;
0204118410999992000091712004+49230+018610FM-12+031599999V0202701N002010075019N0150001N1+01341+01141100801ADDAA106000791AY181061AY221061GA1071+007509029GF107991071021008001001001MA1999999097161MD1010021+9999MW1251REMSYN088AAXX  17121 11841 11565 72702 10134 20114 39716 40080 50002 69901 72582 87200 333 87825;
0193118410999992000091715004+49230+018610FM-12+031599999V0202201N00201012001CN0200001N1+01461+01081100751ADDAY181031AY221031GA1031+009009089GF107991061081008001041001MA1999999097131MD1510031+9999MW1021REMSYN088AAXX  17151 11841 41570 72202 10146 20108 39713 40075 55003 70282 86840 333 83830 84650;
0229118410999992000091718004+49230+018610FM-12+031599999V0202401N00201036001CN0120001N1+01281+01101100881ADDAA112000791AY181061AY221061GA1041+008409069GF107991041051008001071001KA1120M+01521MA1999999097231MD1210101+9999MW1251REMSYN100AAXX  17181 11841 11562 72402 10128 20110 39723 40088 52010 69902 72582 84570 333 10152 84628 86357;
0101118410999992000091721004+49230+018610FM-12+031599999V0202801N001019999999N9999999N1+01181+01101100971ADDMA1999999097311MD1210111+9999REMSYN060AAXX  17211 11841 46/// /2801 10118 20110 39731 40097 52011;
0224118410999992000091800004+49230+018610FM-12+031599999V0202801N00101001201CN0100001N1+01111+01021101021ADDAA106000791AY181061AY221061GA1021+001509079GF107991071051001501999999GJ100189MA1999999097341MD1110031+9999MW1021REMSYN100AAXX  18001 11841 11260 72801 10111 20102 39734 40102 51003 69901 70282 875// 333 55003 82705 87636;
0193118410999992000091803004+49230+018610FM-12+031599999V0202401N00101004201CN0050001N1+01081+00991101041ADDAY161031AY221031GA1021+003309079GF108991081051004501999999MA1999999097361MD1310021+9999MW1211REMSYN088AAXX  18031 11841 41450 82401 10108 20099 39736 40104 53002 72162 885// 333 82711 88627;
0259118410999992000091806004+49230+018610FM-12+031599999V0200701N002010051019N0200001N1+00951+00711101201ADDAA112000791AY161061AY221061GA1061+005109069GF108991081051004501999999IA1119IA2999+00909KA1120N+00951MA1999999097491MD1210131+9999MW1021REMSYN112AAXX  18061 11841 11470 80702 10095 20071 39749 40120 52013 69902 70262 885// 333 20095 32009 50062 86617 88623;
0165118410999992000091809004+49230+018610FM-12+031599999V0200301N00201001201CN0200001N1+00951+00621101321ADDGA1011+001809079GF108991081051001501999999MA1999999097611MD1210121+9999REMSYN082AAXX  18091 11841 42270 80302 10095 20062 39761 40132 52012 885// 333 81706 88623;
0170118410999992000091812004+49230+018610FM-12+031599999V0203501N003010078019N0200001N1+01031+00551101301ADDAA199000021GA1081+007809059GF108991081051008001999999MA1999999097601MD1810011+9999REMSYN076AAXX  18121 11841 32570 83503 10103 20055 39760 40130 58001 885// 333 88626;
0165118410999992000091815004+49230+018610FM-12+031599999V0200201N004010069019N0150001N1+00991+00471101291ADDGA1051+006909069GF107991071051008001999999MA1999999097581MD1810021+9999REMSYN082AAXX  18151 11841 42565 70204 10099 20047 39758 40129 58002 875// 333 85623 87630;
0208118410999992000091818004+49230+018610FM-12+031599999V0200401N002010084019N0100001N1+00871+00431101321ADDAA199000091GA1071+008409059GF107991071051008001999999KA1120M+01041MA1999999097601MD1310021+9999REMSYN082AAXX  18181 11841 32560 70402 10087 20043 39760 40132 53002 875// 333 10104 87628;EQDQ01  00002PRCP99
0159118410999992000091821004+49230+018610FM-12+031599999V0200801N002012200019N0100001N1+00571+00351101381ADDGA1011+030009079GF101991011001999999031001MA1999999097621MD1310021+9999REMSYN076AAXX  18211 11841 42960 10802 10057 20035 39762 40138 53002 81030 333 81360;
0183118410999992000091900004+49230+018610FM-12+031599999V0201101N001012200019N0100001N1+00311+00211101401ADDAA199000091GA1001+999999999GF100991001001999999001001MA1999999097601MD1810021+9999REMSYN070AAXX  19001 11841 32960 01101 10031 20021 39760 40140 58002 333 55000;EQDQ01  00002PRCP99
0143118410999992000091903004+49230+018610FM-12+031599999V0201201N001012200019N0100001N1+00181+00081101401ADDGA1001+999999999GF100991001001999999001001MA1999999097581MD1810021+9999REMSYN060AAXX  19031 11841 42960 01201 10018 20008 39758 40140 58002;
0238118410999992000091906004+49230+018610FM-12+031599999V0201101N001012200019N0120001N1+00321+00221101431ADDAA199000091GA1011+060009019GF101991001001999999001011IA1099IA2999-00109KA1120N+00141MA1999999097631MD1110051+9999REMSYN094AAXX  19061 11841 32962 11101 10032 20022 39763 40143 51005 80001 333 20014 31101 50142 81070;EQDQ01  00002PRCP99
0143118410999992000091909004+49230+018610FM-12+031599999V0200801N002012200019N0300001N1+01101+00451101311ADDGA1001+999999999GF100991001001999999001001MA1999999097621MD1810011+9999REMSYN060AAXX  19091 11841 42980 00802 10110 20045 39762 40131 58001;
0189118410999992000091912004+49230+018610FM-12+031599999V0202701N002012200019N0300001N1+01651+00771101071ADDAA199000091GA1011+009909029GF102991011011012501041001MA1999999097461MD1710161+9999REMSYN076AAXX  19121 11841 32680 22702 10165 20077 39746 40107 57016 81140 333 81833;EQDQ01  00002PRCP99
0159118410999992000091915004+49230+018610FM-12+031599999V0202501N003010138019N0300001N1+01471+00891101101ADDGA1071+013809059GF107991071051012501001001MA1999999097461MD1010001+9999REMSYN076AAXX  19151 11841 42680 72503 10147 20089 39746 40110 50000 87500 333 87646;
0208118410999992000091918004+49230+018610FM-12+031599999V0202901N001010096019N0150001N1+01301+00941101111ADDAA199000091GA1071+009609059GF107991071051008001999999KA1120M+01711MA1999999097451MD1510011+9999REMSYN082AAXX  19181 11841 32565 72901 10130 20094 39745 40111 55001 875// 333 10171 87632;EQDQ01  00002PRCP99
0159118410999992000091921004+49230+018610FM-12+031599999V0203301N001010078019N0120001N1+01201+00851101141ADDGA1081+007809059GF108991081051008001999999MA1999999097471MD1010021+9999REMSYN076AAXX  19211 11841 42562 83301 10120 20085 39747 40114 50002 885// 333 88626;
0203118410999992000092000004+49230+018610FM-12+031599999V0200801N001010075019N0100001N1+01111+00921101091ADDAA199000091GA1081+007509059GF108991081051008001999999GJ104509MA1999999097411MD1710061+9999REMSYN082AAXX  20001 11841 32560 80801 10111 20092 39741 40109 57006 885// 333 55075 88625;EQDQ01  00002PRCP99
0187118410999992000092003004+49230+018610FM-12+031599999V0203601N001010078019N0100001N1+01101+00931101021ADDAY161031AY221031GA1081+007809059GF108991081051008001999999MA1999999097341MD1610071+9999MW1601REMSYN082AAXX  20031 11841 41560 83601 10110 20093 39734 40102 56007 76062 885// 333 88626;
0225118410999992000092006004+49230+018610FM-12+031599999V0201101N001010072019N0150001N1+01171+00941101031ADDAA112000791GA1081+007209059GF108991081051008001999999IA1099IA2999+01009KA1120N+01101MA1999999097361MD1310021+9999REMSYN100AAXX  20061 11841 12565 81101 10117 20094 39736 40103 53002 69902 885// 333 20110 31010 50152 88624;
0159118410999992000092009004+49230+018610FM-12+031599999V0203301N002010063019N0100001N1+01371+01011101101ADDGA1081+006309059GF108991081051008001999999MA1999999097451MD1110091+9999REMSYN076AAXX  20091 11841 42560 83302 10137 20101 39745 40110 51009 885// 333 88621;
0170118410999992000092012004+49230+018610FM-12+031599999V0209999C000010108019N0150001N1+01711+01091101021ADDAA199000021GA1071+010809059GF107991071051012501999999MA1999999097421MD1810031+9999REMSYN076AAXX  20121 11841 32665 70000 10171 20109 39742 40102 58003 875// 333 87636;
0159118410999992000092015004+49230+018610FM-12+031599999V0200201N003010093019N0150001N1+01811+01121101001ADDGA1071+009309059GF107991071051008001001001MA1999999097411MD1510011+9999REMSYN076AAXX  20151 11841 42565 70203 10181 20112 39741 40100 55001 87500 333 87631;
0208118410999992000092018004+49230+018610FM-12+031599999V0200401N002010108019N0100001N1+01321+00931101221ADDAA199000091GA1071+010809059GF107991071051012501999999KA1120M+02011MA1999999097561MD1210151+9999REMSYN082AAXX  20181 11841 32660 70402 10132 20093 39756 40122 52015 875// 333 10201 87636;EQDQ01  00002PRCP99
0159118410999992000092021004+49230+018610FM-12+031599999V0200201N003010120019N0100001N1+01171+00871101331ADDGA1051+012009059GF105991051051012501001001MA1999999097651MD1110091+9999REMSYN076AAXX  20211 11841 42660 50203 10117 20087 39765 40133 51009 85500 333 85640;
0183118410999992000092100004+49230+018610FM-12+031599999V0200501N001012200019N0100001N1+00971+00761101381ADDAA199000091GA1001+999999999GF100991001001999999001001MA1999999097671MD1210021+9999REMSYN070AAXX  21001 11841 32960 00501 10097 20076 39767 40138 52002 333 55012;EQDQ01  00002PRCP99
0159118410999992000092103004+49230+018610FM-12+031599999V0209999C000010360019N0100001N1+01071+00851101211ADDGA1071+036009079GF107991071001999999051001MA1999999097521MD1710151+9999REMSYN076AAXX  21031 11841 42960 70000 10107 20085 39752 40121 57015 87050 333 87362;
0259118410999992000092106004+49230+018610FM-12+031599999V0209999C000019999999N0250001N1+01171+00841101161ADDAA112000791AY161061AY211061GA1031+039009039GF108991031001999999041071IA1099IA2999+00609KA1120N+00921MA1999999097481MD1810041+9999MW1021REMSYN112AAXX  21061 11841 11975 80000 10117 20084 39748 40116 58004 69902 70261 83047 333 20092 31006 50182 83363 88275;
0165118410999992000092109004+49230+018610FM-12+031599999V0200601N005019999999N0250001N1+01561+00691101011ADDGA1041+039009039GF107991041001999999031081MA1999999097391MD1810091+9999REMSYN082AAXX  21091 11841 42975 70605 10156 20069 39739 40101 58009 84038 333 84363 86267;
0210118410999992000092112004+49230+018610FM-12+031599999V0200701N00201036001CN0250001N1+01621+00691101051ADDAA106000791AY161061AY221061GA1031+015009069GF107991031051017501071021MA1999999097431MD1010041+9999MW1211REMSYN094AAXX  21121 11841 11775 70702 10162 20069 39743 40105 50004 69901 72162 83572 333 83650 87358;
0206118410999992000092115004+49230+018610FM-12+031599999V0200901N002010150019N0250001N1+01411+00891101201ADDAY161031AY221031GA1071+015009059GF107991071051017501999001MA1999999097551MD1210121+9999MW1021REMSYN082AAXX  21151 11841 41775 70902 10141 20089 39755 40120 52012 70262 87500 333 87650;EQDQ01    003SCOMCG
0223118410999992000092118004+49230+018610FM-12+031599999V0200801N004010180019N0200001N1+01131+00971101421ADDAA112000791AY191061AY261061GA1061+018009059GF107991061051017501071001KA1120M+01681MA1999999097731MD1110181+9999MW1611REMSYN094AAXX  21181 11841 11770 70804 10113 20097 39773 40142 51018 69902 76196 86570 333 10168 86656;
0193118410999992000092121004+49230+018610FM-12+031599999V0201001N002010150019N0200001N1+01061+00921101531ADDAY161031AY221031GA1061+015009069GF108991061051017501021999MA1999999097831MD1110101+9999MW1601REMSYN088AAXX  21211 11841 41770 81002 10106 20092 39783 40153 51010 76062 8652/ 333 86650 88458;
0224118410999992000092200004+49230+018610FM-12+031599999V0201001N00101036001CN0150001N1+01031+00891101601ADDAA106002091AY161061AY221061GA1041+015009069GF108991041051017501021999GJ100009MA1999999097891MD1310061+9999MW1611REMSYN100AAXX  22001 11841 11765 81001 10103 20089 39789 40160 53006 60021 76162 8452/ 333 55000 84650 88458;
0187118410999992000092203004+49230+018610FM-12+031599999V0201601N001010180019N0200001N1+01001+00861101661ADDAY161031AY221031GA1061+018009059GF107991061051017501031001MA1999999097951MD1210061+9999MW1011REMSYN082AAXX  22031 11841 41770 71601 10100 20086 39795 40166 52006 70162 86530 333 86656;
0281118410999992000092206004+49230+018610FM-12+031599999V0201101N00101036001CN0150001N1+01051+00891101821ADDAA112003091AY161061AY221061GA1021+004509079GA2041+007509069GF108991041051004501071999IA1119IA2999+00909KA1120N+00981MA1999999098111MD1310161+9999MW1601REMSYN118AAXX  22061 11841 11465 81101 10105 20089 39811 40182 53016 60032 76062 8457/ 333 20098 32009 50072 82715 84625 87357;
0193118410999992000092209004+49230+018610FM-12+031599999V0200401N00301004201CN0300001N1+01211+00861101931ADDAY161031AY221031GA1021+004809079GF108991081051004501999999MA1999999098231MD1210121+9999MW1021REMSYN088AAXX  22091 11841 41480 80403 10121 20086 39823 40193 52012 70262 885// 333 82716 88624;
0204118410999992000092212004+49230+018610FM-12+031599999V0200301N004010063019N0300001N1+01241+00831102081ADDAA106000791AY161061AY221061GA1081+006309059GF108991081051008001999999MA1999999098381MD1310151+9999MW1021REMSYN088AAXX  22121 11841 11580 80304 10124 20083 39838 40208 53015 69901 70262 885// 333 88621;
0165118410999992000092215004+49230+018610FM-12+031599999V0200301N00401004201CN0250001N1+01201+00831102211ADDGA1011+004509079GF108991081051004501999999MA1999999098501MD1210121+9999REMSYN082AAXX  22151 11841 42475 80304 10120 20083 39850 40221 52012 885// 333 81715 88620;
0195118410999992000092218004+49230+018610FM-12+031599999V0200501N003010081019N0250001N1+01191+00841102351ADDAA112000791GA1081+008109059GF108991081051008001999999KA1120M+01361MA1999999098631MD1210131+9999REMSYN088AAXX  22181 11841 12575 80503 10119 20084 39863 40235 52013 69902 885// 333 10136 88627;
0159118410999992000092221004+49230+018610FM-12+031599999V0200301N002010135019N0250001N1+01151+00821102421ADDGA1051+013509059GF105991051051012501001001MA1999999098701MD1210071+9999REMSYN076AAXX  22211 11841 42675 50302 10115 20082 39870 40242 52007 85500 333 85645;
0209118410999992000092300004+49230+018610FM-12+031599999V0200201N00401007501CN0250001N1+01121+00771102451ADDAA199000091GA1021+006009069GF107991071051008001001001GJ100009MA1999999098721MD1110021+9999REMSYN088AAXX  23001 11841 32575 70204 10112 20077 39872 40245 51002 87500 333 55000 82620 87633;EQDQ01  00002PRCP99
0193118410999992000092303004+49230+018610FM-12+031599999V0200701N001010099019N0250001N1+01041+00781102421ADDAY121031AY221031GA1051+009909069GF108991051051012501071999MA1999999098681MD1710041+9999MW1601REMSYN088AAXX  23031 11841 41675 80701 10104 20078 39868 40242 57004 76022 8557/ 333 85633 88359;
0259118410999992000092306004+49230+018610FM-12+031599999V0200601N00301007501CN0200001N1+01021+00801102491ADDAA112000591AY161061AY221061GA1031+006009069GF107991071051008001999999IA1099IA2999+00909KA1120N+01021MA1999999098751MD1310071+9999MW1601REMSYN112AAXX  23061 11841 11570 70603 10102 20080 39875 40249 53007 69942 76062 875// 333 20102 31009 50072 83620 87650;
0159118410999992000092312004+49230+018610FM-12+031599999V0200501N006010360019N0300001N1+01241+00561102531ADDGA1041+012009059GF105991041051012501031001MA1999999098811MD1310021+9999REMSYN076AAXX  23121 11841 42680 50506 10124 20056 39881 40253 53002 84530 333 84640;
0195118410999992000092318004+49230+018610FM-12+031599999V0200601N004012200019N0200001N1+00981+00441102611ADDAA112000191GA1031+011109059GF103991031051012501001001KA1120M+01541MA1999999098851MD1310041+9999REMSYN088AAXX  23181 11841 12670 30604 10098 20044 39885 40261 53004 69912 83500 333 10154 83637;
0143118410999992000092321004+49230+018610FM-12+031599999V0201501N001012200019N0200001N1+00741+00421102691ADDGA1001+999999999GF100991001001999999001001MA1999999098901MD1110051+9999REMSYN060AAXX  23211 11841 42970 01501 10074 20042 39890 40269 51005;
0203118410999992000092400004+49230+018610FM-12+031599999V0209999C000012200019N0150001N1+00441+00291102691ADDAA199000091GA1021+010809059GF102991021051012501001001GJ100549MA1999999098861MD1610041+9999REMSYN082AAXX  24001 11841 32665 20000 10044 20029 39886 40269 56004 82500 333 55009 82636;EQDQ01  00002PRCP99
0101118410999992000092403004+49230+018610FM-12+031599999V0201001N001019999999N9999999N1+00671+00471102601ADDMA1999999098811MD1710061+9999REMSYN060AAXX  24031 11841 46/// /1001 10067 20047 39881 40260 57006;
0238118410999992000092406004+49230+018610FM-12+031599999V0200601N001010111019N0200001N1+00731+00501102601ADDAA199000091GA1061+011109059GF106991061051012501001001IA1099IA2999+00309KA1120N+00431MA1999999098811MD1510011+9999REMSYN094AAXX  24061 11841 32670 60601 10073 20050 39881 40260 55001 86500 333 20043 31003 50242 86637;EQDQ01  00002PRCP99
0159118410999992000092409004+49230+018610FM-12+031599999V0200801N001012200019N0250001N1+01391+00501102511ADDGA1011+012009059GF102991011051012501031001MA1999999098811MD1010001+9999REMSYN076AAXX  24091 11841 42675 20801 10139 20050 39881 40251 50000 81530 333 81640;
0189118410999992000092412004+49230+018610FM-12+031599999V0201501N002012200019N0250001N1+01761+00561102371ADDAA199000091GA1031+012009029GF103991031021012501001001MA1999999098721MD1810091+9999REMSYN076AAXX  24121 11841 32675 31502 10176 20056 39872 40237 58009 83200 333 83840;EQDQ01  00002PRCP99
0159118410999992000092415004+49230+018610FM-12+031599999V0201501N001012200019N0250001N1+01421+00681102351ADDGA1021+015009029GF103991021021017501061011MA1999999098661MD1710061+9999REMSYN076AAXX  24151 11841 42775 31501 10142 20068 39866 40235 57006 82261 333 82850;
0214118410999992000092418004+49230+018610FM-12+031599999V0209999C000010150019N0250001N1+01011+00741102481ADDAA199000091GA1011+015009069GF105991051051017501001001KA1120M+01771MA1999999098741MD1310081+9999REMSYN088AAXX  24181 11841 32775 50000 10101 20074 39874 40248 53008 85500 333 10177 81650 85650;EQDQ01  00002PRCP99
0159118410999992000092421004+49230+018610FM-12+031599999V0209999C000010150019N0250001N1+00901+00741102531ADDGA1081+015009059GF108991081051017501999999MA1999999098771MD1210031+9999REMSYN076AAXX  24211 11841 42775 80000 10090 20074 39877 40253 52003 885// 333 88650;
0203118410999992000092500004+49230+018610FM-12+031599999V0201201N001010150019N0250001N1+00911+00761102511ADDAA199000091GA1081+015009059GF108991081051017501999999GJ104629MA1999999098751MD1610021+9999REMSYN082AAXX  25001 11841 32775 81201 10091 20076 39875 40251 56002 885// 333 55077 88650;EQDQ01  00002PRCP99
0159118410999992000092503004+49230+018610FM-12+031599999V0201001N001010150019N0250001N1+00911+00771102471ADDGA1081+015009059GF108991081051017501999999MA1999999098711MD1710041+9999REMSYN076AAXX  25031 11841 42775 81001 10091 20077 39871 40247 57004 885// 333 88650;
0238118410999992000092506004+49230+018610FM-12+031599999V0200901N001010150019N0200001N1+00991+00831102481ADDAA199000091GA1071+015009059GF107991071051017501999999IA1099IA2999+00809KA1120N+00881MA1999999098731MD1310021+9999REMSYN094AAXX  25061 11841 32770 70901 10099 20083 39873 40248 53002 875// 333 20088 31008 50182 87650;EQDQ01  00002PRCP99
0165118410999992000092509004+49230+018610FM-12+031599999V0200401N00101015001CN0200001N1+01341+00801102501ADDGA1011+009909089GF107991071081012501999999MA1999999098801MD1110071+9999REMSYN082AAXX  25091 11841 42670 70401 10134 20080 39880 40250 51007 878// 333 81833 87656;
0195118410999992000092512004+49230+018610FM-12+031599999V0201401N001010150019N0200001N1+01551+00681102421ADDAA199000091GA1011+012009089GF107991071081012501999999MA1999999098751MD1610051+9999REMSYN082AAXX  25121 11841 32670 71401 10155 20068 39875 40242 56005 878// 333 81840 87650;EQDQ01  00002PRCP99
0165118410999992000092515004+49230+018610FM-12+031599999V0202301N00101015001CN0200001N1+01541+00741102401ADDGA1011+012909089GF107991071081012501999999MA1999999098721MD1710031+9999REMSYN082AAXX  25151 11841 42670 72301 10154 20074 39872 40240 57003 878// 333 81843 87656;
0224118410999992000092518004+49230+018610FM-12+031599999V0209999C000010180019N0150001N1+01001+00781102531ADDAA199000091GA1061+018009059GF106991061051017501999001KA1120M+01651MA1999999098781MD1310061+9999REMSYN082AAXX  25181 11841 32765 60000 10100 20078 39878 40253 53006 86500 333 10165 86656;EQDQ01+000002SCOMCGQ02  00002PRCP99
0178118410999992000092521004+49230+018610FM-12+031599999V0201201N001010150019N0100001N1+00921+00761102601ADDGA1071+015009059GF107991071051017501999001MA1999999098841MD1210061+9999REMSYN076AAXX  25211 11841 42760 71201 10092 20076 39884 40260 52006 87500 333 87650;EQDQ01    003SCOMCG
0203118410999992000092600004+49230+018610FM-12+031599999V0200901N001010150019N0100001N1+00961+00791102611ADDAA199000091GA1071+015009059GF107991071051017501999999GJ100069MA1999999098851MD1110011+9999REMSYN082AAXX  26001 11841 32760 70901 10096 20079 39885 40261 51001 875// 333 55001 87650;EQDQ01  00002PRCP99
0159118410999992000092603004+49230+018610FM-12+031599999V0200701N002010150019N0100001N1+00921+00751102621ADDGA1071+015009059GF107991071051017501999999MA1999999098861MD1310011+9999REMSYN076AAXX  26031 11841 42760 70702 10092 20075 39886 40262 53001 875// 333 87650;
0238118410999992000092606004+49230+018610FM-12+031599999V0200901N002012200019N0180001N1+00881+00551102631ADDAA199000091GA1011+030009079GF103991011001999999041011IA1099IA2999+00709KA1120N+00771MA1999999098861MD1010001+9999REMSYN094AAXX  26061 11841 32968 30902 10088 20055 39886 40263 50000 81041 333 20077 31007 50122 81360;EQDQ01  00002PRCP99
0159118410999992000092609004+49230+018610FM-12+031599999V0200501N001012200019N0250001N1+01561+00691102561ADDGA1011+007809029GF102991011011008001001011MA1999999098881MD1010021+9999REMSYN076AAXX  26091 11841 42575 20501 10156 20069 39888 40256 50002 81101 333 81826;
0189118410999992000092612004+49230+018610FM-12+031599999V0202701N001012200019N0300001N1+01901+00441102381ADDAA199000091GA1031+060009019GF103991001001999999001011MA1999999098751MD1810131+9999REMSYN076AAXX  26121 11841 32980 32701 10190 20044 39875 40238 58013 80001 333 83070;EQDQ01  00002PRCP99
0159118410999992000092615004+49230+018610FM-12+031599999V0202401N001012200019N0250001N1+01831+00591102301ADDGA1041+060009019GF104991001001999999001011MA1999999098661MD1610091+9999REMSYN076AAXX  26151 11841 42975 42401 10183 20059 39866 40230 56009 80001 333 84070;
0208118410999992000092618004+49230+018610FM-12+031599999V0209999C000012200019N0180001N1+01081+00781102461ADDAA199000091GA1031+060009019GF103991001001999999001011KA1120M+01961MA1999999098731MD1310071+9999REMSYN082AAXX  26181 11841 32968 30000 10108 20078 39873 40246 53007 80001 333 10196 83070;EQDQ01  00002PRCP99
0143118410999992000092621004+49230+018610FM-12+031599999V0201101N001012200019N0100001N1+00771+00631102591ADDGA1001+999999999GF100991001001999999001001MA1999999098811MD1110081+9999REMSYN060AAXX  26211 11841 42960 01101 10077 20063 39881 40259 51008;
0211118410999992000092700004+49230+018610FM-12+031599999V0209999C000012200019N0035001N1+00621+00531102571ADDAA199000091AY101061AY201061GA1001+999999999GF100991001001999999001001MA1999999098771MD1710041+9999MW1101REMSYN076AAXX  27001 11841 31935 00000 10062 20053 39877 40257 57004 71000 333 55078;EQDQ01  00002PRCP99
0171118410999992000092703004+49230+018610FM-12+031599999V0209999C000012200019N0022001N1+00501+00441102591ADDAY101031AY201031GA1001+999999999GF100991001001999999001001MA1999999098771MD1510001+9999MW1101REMSYN066AAXX  27031 11841 41922 00000 10050 20044 39877 40259 55000 71000;
0266118410999992000092706004+49230+018610FM-12+031599999V0201101N001012200019N0012001N1+00561+00521102591ADDAA199000091AY101061AY201061GA1021+060009019GF102991001001999999001011IA1019IA2999+00209KA1120N+00451MA1999999098781MD1310011+9999MW1101REMSYN100AAXX  27061 11841 31912 21101 10056 20052 39878 40259 53001 71000 80001 333 20045 30002 50222 82070;EQDQ01  00002PRCP99
0159118410999992000092709004+49230+018610FM-12+031599999V0200701N001012200019N0150001N1+01491+00881102371ADDGA1011+060009019GF101991001001999999001011MA1999999098691MD1810091+9999REMSYN076AAXX  27091 11841 42965 10701 10149 20088 39869 40237 58009 80001 333 81070;
0205118410999992000092712004+49230+018610FM-12+031599999V0202601N003012200019N0250001N1+02021+00981102091ADDAA199000091GA1011+015009059GF102991011041017501999011MA1999999098491MD1810201+9999REMSYN076AAXX  27121 11841 32775 22603 10202 20098 39849 40209 58020 81401 333 81650;EQDQ01  00002PRCP99Q02    003SCOMCG
0143118410999992000092715004+49230+018610FM-12+031599999V0202501N004012200019N0200001N1+01971+01021101971ADDGA1001+999999999GF100991001001999999001001MA1999999098371MD1810121+9999REMSYN060AAXX  27151 11841 42970 02504 10197 20102 39837 40197 58012;
0196118410999992000092718004+49230+018610FM-12+031599999V0209999C000012200019N0150001N1+01221+00981102131ADDAA199000091GA1001+999999999GF100991001001999999001001KA1999M+02071MA1999999098431MD1310061+9999REMSYN070AAXX  27181 11841 32965 00000 10122 20098 39843 40213 53006 333 10207;EQDQ01  00002PRCP99
0171118410999992000092721004+49230+018610FM-12+031599999V0201001N001012200019N0070001N1+00851+00761102151ADDAY101031AY201031GA1001+999999999GF100991001001999999001001MA1999999098401MD1810031+9999MW1101REMSYN066AAXX  27211 11841 41957 01001 10085 20076 39840 40215 58003 71000;
0211118410999992000092800004+49230+018610FM-12+031599999V0209999C000012200019N0022001N1+00671+00611102191ADDAA199000091AY101061AY201061GA1001+999999999GF100991001001999999001001MA1999999098411MD1010011+9999MW1101REMSYN076AAXX  28001 11841 31922 00000 10067 20061 39841 40219 50001 71000 333 55091;EQDQ01  00002PRCP99
0101118410999992000092803004+49230+018610FM-12+031599999V0209999C000019999999N9999999N1+00671+00631102101ADDMA1999999098331MD1710081+9999REMSYN060AAXX  28031 11841 46/// /0000 10067 20063 39833 40210 57008;
0260118410999992000092806004+49230+018610FM-12+031599999V0201001N001010003019N0002001N1+00701+00661102111ADDAA199000091AY141061AY211061GA1091+000309999GF109991091999999999999999IA1019IA2999+00309KA1120N+00541MA1999999098341MD1510011+9999MW1451REMSYN094AAXX  28061 11841 31/02 91001 10070 20066 39834 40211 55001 74541 333 20054 30003 50192 89/01;EQDQ01  00002PRCP99
0187118410999992000092809004+49230+018610FM-12+031599999V0200801N001012200019N0100001N1+01441+00901101951ADDAY141031AY211031GA1041+075009019GF104991001001999999001021MA1999999098281MD1810061+9999MW1021REMSYN082AAXX  28091 11841 41960 40801 10144 20090 39828 40195 58006 70241 80002 333 84075;
0233118410999992000092812004+49230+018610FM-12+031599999V0202001N002010750019N0200001N1+01981+00661101711ADDAA199000091AY141061AY211061GA1061+075009089GF106991999001999999001081MA1999999098111MD1710171+9999MW1021REMSYN082AAXX  28121 11841 31970 62002 10198 20066 39811 40171 57017 70241 80008 333 86275;EQDQ01+000002SCOTLCQ02  00002PRCP99
0159118410999992000092815004+49230+018610FM-12+031599999V0202301N003012200019N0300001N1+01951+00631101581ADDGA1031+054009019GF103991001001999999001021MA1999999097981MD1610131+9999REMSYN076AAXX  28151 11841 42980 32303 10195 20063 39798 40158 56013 80002 333 83068;
0208118410999992000092818004+49230+018610FM-12+031599999V0202401N001012200019N0300001N1+01251+00801101671ADDAA199000091GA1011+060009019GF101991001001999999001011KA1120M+02111MA1999999097991MD1310011+9999REMSYN082AAXX  28181 11841 32980 12401 10125 20080 39799 40167 53001 80001 333 10211 81070;EQDQ01  00002PRCP99
0143118410999992000092821004+49230+018610FM-12+031599999V0209999C000012200019N0200001N1+00751+00551101781ADDGA1001+999999999GF100991001001999999001001MA1999999098021MD1110031+9999REMSYN060AAXX  28211 11841 42970 00000 10075 20055 39802 40178 51003;
0183118410999992000092900004+49230+018610FM-12+031599999V0209999C000012200019N0200001N1+00521+00421101761ADDAA199000091GA1001+999999999GF100991001001999999001001MA1999999097971MD1810051+9999REMSYN070AAXX  29001 11841 32970 00000 10052 20042 39797 40176 58005 333 55046;EQDQ01  00002PRCP99
0143118410999992000092903004+49230+018610FM-12+031599999V0209999C000012200019N0100001N1+00401+00341101691ADDGA1001+999999999GF100991001001999999001001MA1999999097891MD1610081+9999REMSYN060AAXX  29031 11841 42960 00000 10040 20034 39789 40169 56008;
0238118410999992000092906004+49230+018610FM-12+031599999V0209999C000012200019N0100001N1+00621+00481101661ADDAA199000091GA1011+069009019GF101991001001999999001011IA1019IA2999+00009KA1120N+00351MA1999999097891MD1510001+9999REMSYN094AAXX  29061 11841 32960 10000 10062 20048 39789 40166 55000 80001 333 20035 30000 50222 81073;EQDQ01  00002PRCP99
0159118410999992000092909004+49230+018610FM-12+031599999V0200801N003012200019N0200001N1+01641+00761101431ADDGA1011+069009019GF101991001001999999001011MA1999999097801MD1810091+9999REMSYN076AAXX  29091 11841 42970 10803 10164 20076 39780 40143 58009 80001 333 81073;
0189118410999992000092912004+49230+018610FM-12+031599999V0203001N001012200019N0250001N1+02211+00471101231ADDAA199000091GA1011+069009019GF101991001001999999001011MA1999999097681MD1710121+9999REMSYN076AAXX  29121 11841 32975 13001 10221 20047 39768 40123 57012 80001 333 81073;EQDQ01  00002PRCP99
0159118410999992000092915004+49230+018610FM-12+031599999V0201501N003012200019N0300001N1+02061+00461101151ADDGA1011+060009019GF101991001001999999001011MA1999999097581MD1610101+9999REMSYN076AAXX  29151 11841 42980 11503 10206 20046 39758 40115 56010 80001 333 81070;
0196118410999992000092918004+49230+018610FM-12+031599999V0209999C000012200019N0200001N1+01131+00721101351ADDAA199000091GA1001+999999999GF100991001001999999001001KA1999M+02261MA1999999097661MD1310081+9999REMSYN070AAXX  29181 11841 32970 00000 10113 20072 39766 40135 53008 333 10226;EQDQ01  00002PRCP99
0143118410999992000092921004+49230+018610FM-12+031599999V0209999C000012200019N0120001N1+00711+00511101511ADDGA1001+999999999GF100991001001999999001001MA1999999097761MD1110101+9999REMSYN060AAXX  29211 11841 42962 00000 10071 20051 39776 40151 51010;
0211118410999992000093000004+49230+018610FM-12+031599999V0209999C000012200019N0060001N1+00581+00461101551ADDAA199000091AY101061AY201061GA1001+999999999GF100991001001999999001001MA1999999097781MD1210021+9999MW1101REMSYN076AAXX  30001 11841 31956 00000 10058 20046 39778 40155 52002 71000 333 55101;EQDQ01  00002PRCP99
0171118410999992000093003004+49230+018610FM-12+031599999V0201001N001012200019N0030001N1+00491+00431101521ADDAY101031AY201031GA1001+999999999GF100991001001999999001001MA1999999097741MD1610041+9999MW1101REMSYN066AAXX  30031 11841 41930 01001 10049 20043 39774 40152 56004 71000;
0226118410999992000093006004+49230+018610FM-12+031599999V0209999C000012200019N0100001N1+00531+00441101551ADDAA199000091GA1001+999999999GF100991001001999999001001IA1019IA2999+00009KA1120N+00301MA1999999097771MD1310031+9999REMSYN082AAXX  30061 11841 32960 00000 10053 20044 39777 40155 53003 333 20030 30000 50212;EQDQ01  00002PRCP99
0101118410999992000093009004+49230+018610FM-12+031599999V0209999V001019999999N9999999N1+01901+00741101311ADDMA1999999097721MD1710051+9999REMSYN060AAXX  30091 11841 46/// /9901 10190 20074 39772 40131 57005;
0173118410999992000093012004+49230+018610FM-12+031599999V0201701N003012200019N0200001N1+02211+00601101201ADDAA199000091GA1001+999999999GF100991001001999999001001MA1999999097651MD1710071+9999REMSYN060AAXX  30121 11841 32970 01703 10221 20060 39765 40120 57007;EQDQ01  00002PRCP99
0143118410999992000093015004+49230+018610FM-12+031599999V0201501N002012200019N0200001N1+02111+00701101171ADDGA1001+999999999GF100991001001999999001001MA1999999097611MD1810041+9999REMSYN060AAXX  30151 11841 42970 01502 10211 20070 39761 40117 58004;
0208118410999992000093018004+49230+018610FM-12+031599999V0201401N001012200019N0150001N1+01651+00741101351ADDAA199000091GA1021+030009079GF102991021001999999041001KA1120M+02251MA1999999097731MD1210121+9999REMSYN082AAXX  30181 11841 32965 21401 10165 20074 39773 40135 52012 82040 333 10225 82360;EQDQ01  00002PRCP99
0159118410999992000093021004+49230+018610FM-12+031599999V0201001N002012200019N0100001N1+01371+00791101331ADDGA1021+039009079GF102991021001999999031001MA1999999097671MD1810061+9999REMSYN076AAXX  30211 11841 42960 21002 10137 20079 39767 40133 58006 82030 333 82363;
0203118410999992000100100004+49230+018610FM-12+031599999V0201801N003010300019N0100001N1+01821+00731101281ADDAA199000091GA1071+030009079GF107991071001999999051999GJ106309MA1999999097681MD1310011+9999REMSYN082AAXX  01001 11841 32960 71803 10182 20073 39768 40128 53001 8705/ 333 55105 87360;EQDQ01  00002PRCP99
0165118410999992000100103004+49230+018610FM-12+031599999V0201801N00401036001CN0100001N1+01711+00851101311ADDGA1021+018009069GF107991021051017501071001MA1999999097701MD1310021+9999REMSYN082AAXX  01031 11841 42760 71804 10171 20085 39770 40131 53002 82570 333 82656 86359;
0259118410999992000100106004+49230+018610FM-12+031599999V0203501N00201036001CN0120001N1+01381+01181101301ADDAA112000891AY161061AY221061GA1031+015009069GF107991031051017501071001IA1099IA2999+00909KA1120N+01201MA1999999097651MD1810051+9999MW1211REMSYN112AAXX  01061 11841 11762 73502 10138 20118 39765 40130 58005 69982 72162 83570 333 20120 31009 50172 83650 87358;
0165118410999992000100109004+49230+018610FM-12+031599999V0201601N004010150019N0250001N1+01801+01091101331ADDGA1011+011409089GF106991051081012501041091MA1999999097731MD1310081+9999REMSYN082AAXX  01091 11841 42675 61604 10180 20109 39773 40133 53008 85849 333 81838 85650;
0112118410999992000100112004+49230+018610FM-12+031599999V0201801N003019999999N9999999N1+02141+00951101171ADDAA199000021MA1999999097621MD1710081+9999REMSYN060AAXX  01121 11841 36/// /1803 10214 20095 39762 40117 57008;
0165118410999992000100115004+49230+018610FM-12+031599999V0201801N003019999999N0300001N1+02091+00951101121ADDGA1041+033009039GF106991041001999999041011MA1999999097561MD1710051+9999REMSYN082AAXX  01151 11841 42980 61803 10209 20095 39756 40112 57005 84041 333 84361 83068;
0189118410999992000100118004+49230+018610FM-12+031599999V0201001N001010150019N0200001N1+01711+01071101071ADDAA199000021GA1061+015009059GF107991061051017501071001KA1120M+02281MA1999999097471MD1710091+9999REMSYN082AAXX  01181 11841 32770 71001 10171 20107 39747 40107 57009 86570 333 10228 86650;
0101118410999992000100121004+49230+018610FM-12+031599999V0201401N003019999999N9999999N1+01981+00941100921ADDMA1999999097361MD1710121+9999REMSYN060AAXX  01211 11841 46/// /1403 10198 20094 39736 40092 57012;
0141118410999992000100200004+49230+018610FM-12+031599999V0201801N005019999999N9999999N1+01981+00931100781ADDAA199000091MA1999999097221MD1710171+9999REMSYN070AAXX  02001 11841 36/// /1805 10198 20093 39722 40078 57017 333 55052;EQDQ01  00002PRCP99
0193118410999992000100203004+49230+018610FM-12+031599999V0201301N002010132019N0120001N1+01561+01181100831ADDAY161031AY221031GA1051+013209069GF108991051051012501071999MA1999999097221MD1810011+9999MW1601REMSYN088AAXX  02031 11841 41662 81302 10156 20118 39722 40083 58001 76062 8557/ 333 85644 88357;
0253118410999992000100206004+49230+018610FM-12+031599999V0209999C000010090019N0150001N1+01411+01301100851ADDAA112006191AY161061AY221061GA1071+009009059GF107991071051008001031001IA1099IA2999+01309KA1120N+01411MA1999999097221MD1010001+9999MW1601REMSYN106AAXX  02061 11841 11565 70000 10141 20130 39722 40085 50000 60062 76062 87530 333 20141 31013 50202 87630;
0193118410999992000100209004+49230+018610FM-12+031599999V0201601N00301007501CN0120001N1+01811+01261100911ADDAY161031AY221031GA1031+007509069GF107991071051008001001001MA1999999097331MD1210111+9999MW1031REMSYN088AAXX  02091 11841 41562 71603 10181 20126 39733 40091 52011 70362 87500 333 83625 86646;
0204118410999992000100212004+49230+018610FM-12+031599999V0201701N003012200019N0150001N1+01951+01281100991ADDAA106000591AY161061AY221061GA1031+009309029GF105991041081008001001011MA1999999097421MD1310091+9999MW1011REMSYN088AAXX  02121 11841 11565 51703 10195 20128 39742 40099 53009 69941 70162 84801 333 83831;
0159118410999992000100215004+49230+018610FM-12+031599999V0201101N002010360019N0250001N1+01941+01201101081ADDGA1031+011409029GF105991031011012501031011MA1999999097511MD1210091+9999REMSYN076AAXX  02151 11841 42675 51102 10194 20120 39751 40108 52009 83131 333 83838;
0195118410999992000100218004+49230+018610FM-12+031599999V0209999C000010144019N0120001N1+01431+01221101361ADDAA112000591GA1051+014409059GF106991051051012501031001KA1120M+02011MA1999999097711MD1310201+9999REMSYN088AAXX  02181 11841 12662 60000 10143 20122 39771 40136 53020 69942 85530 333 10201 85648;
0187118410999992000100221004+49230+018610FM-12+031599999V0200901N00101036001CN0080001N1+01241+01131101481ADDAY111031AY211031GA1031+015009059GF105991031051017501031011MA1999999097801MD1210091+9999MW1101REMSYN082AAXX  02211 11841 41758 50901 10124 20113 39780 40148 52009 71011 83531 333 83650;
0224118410999992000100300004+49230+018610FM-12+031599999V0209999C00001036001CN0050001N1+01291+01211101621ADDAA106001091AY161061AY221061GA1041+012909069GF108991041051012501021999GJ101209MA1999999097951MD1310151+9999MW1611REMSYN100AAXX  03001 11841 11650 80000 10129 20121 39795 40162 53015 60011 76162 8452/ 333 55020 84643 88459;
0215118410999992000100303004+49230+018610FM-12+031599999V0200901N001010066019N0035001N1+01351+01291101641ADDAY161031AY261031GA1031+003009079GA2051+006609069GF108991051051004501021999MA1999999097981MD1210031+9999MW1611REMSYN094AAXX  03031 11841 41435 80901 10135 20129 39798 40164 52003 76166 8552/ 333 83710 85622 88548;
0281118410999992000100306004+49230+018610FM-12+031599999V0209999C000010045019N0070001N1+01361+01311101781ADDAA112011991AY161061AY261061GA1011+001209079GA2051+004509079GF108991061051001501021999IA1119IA2999+01009KA1120N+01221MA1999999098111MD1310131+9999MW1611REMSYN118AAXX  03061 11841 11257 80000 10136 20131 39811 40178 53013 60122 76166 8652/ 333 20122 32010 50172 81704 85715 88546;
0215118410999992000100309004+49230+018610FM-12+031599999V0200801N002010120019N0150001N1+01541+01431101891ADDAY161031AY221031GA1021+003909079GA2041+012009069GF107991051051004501071999MA1999999098241MD1210131+9999MW1601REMSYN094AAXX  03091 11841 41465 70802 10154 20143 39824 40189 52013 76062 8557/ 333 82713 84640 87458;
0210118410999992000100312004+49230+018610FM-12+031599999V0201101N001010150019N0150001N1+01811+01521101921ADDAA106000591AY161061AY221061GA1051+015009069GF107991051051017501071001MA1999999098301MD1110061+9999MW1021REMSYN094AAXX  03121 11841 11765 71101 10181 20152 39830 40192 51006 69951 70262 85570 333 85650 83358;
0165118410999992000100315004+49230+018610FM-12+031599999V0209999C00001036001CN0150001N1+01861+01581101911ADDGA1021+015009069GF106991021051017501041011MA1999999098301MD1510001+9999REMSYN082AAXX  03151 11841 42765 60000 10186 20158 39830 40191 55000 82541 333 82650 85070;
0214118410999992000100318004+49230+018610FM-12+031599999V0209999C000010240019N0100001N1+01481+01381102121ADDAA112000591GA1051+024009079GF105991051999022501031011KA1120M+01891MA1999999098461MD1310161+9999REMSYN088AAXX  03181 11841 12860 50000 10148 20138 39846 40212 53016 69952 85031 333 10189 85358;EQDQ01    003SCOLCG
0193118410999992000100321004+49230+018610FM-12+031599999V0201001N00101036001CN0080001N1+01401+01341102241ADDAY121031AY221031GA1021+002409079GF106991021061002501031001MA1999999098561MD1110101+9999MW1101REMSYN088AAXX  03211 11841 41358 61001 10140 20134 39856 40224 51010 71022 82630 333 82708 85358;
0231118410999992000100400004+49230+018610FM-12+031599999V0200501N003010021019N0050001N1+01441+01341102241ADDAA199000091AY121061AY221061GA1081+002109069GF108991081061002501999999GJ100129MA1999999098571MD1010011+9999MW1101REMSYN088AAXX  04001 11841 31350 80503 10144 20134 39857 40224 50001 71022 886// 333 55002 88707;EQDQ01  00002PRCP99
0187118410999992000100403004+49230+018610FM-12+031599999V0200601N002010018019N0060001N1+01391+01301102221ADDAY121031AY221031GA1081+001809069GF108991081061001501999999MA1999999098541MD1510031+9999MW1101REMSYN082AAXX  04031 11841 41256 80602 10139 20130 39854 40222 55003 71022 886// 333 88706;
0266118410999992000100406004+49230+018610FM-12+031599999V0200701N003010018019N0035001N1+01351+01241102261ADDAA199000091AY121061AY221061GA1071+001809069GF107991071061001501001001IA1099IA2999+01209KA1120N+01321MA1999999098571MD1210031+9999MW1101REMSYN100AAXX  04061 11841 31235 70703 10135 20124 39857 40226 52003 71022 87600 333 20132 31012 50102 87706;EQDQ01  00002PRCP99
0193118410999992000100409004+49230+018610FM-12+031599999V0200601N002010129019N0060001N1+01581+01311102231ADDAY121031AY221031GA1051+012909069GF107991051051012501031001MA1999999098571MD1410001+9999MW1101REMSYN088AAXX  04091 11841 41656 70602 10158 20131 39857 40223 54000 71022 85530 333 85643 86360;
0189118410999992000100412004+49230+018610FM-12+031599999V0201501N001012200019N0200001N1+02231+01371101961ADDAA199000091GA1021+030009079GF103991021001999999031011MA1999999098391MD1710181+9999REMSYN076AAXX  04121 11841 32970 31501 10223 20137 39839 40196 57018 82031 333 82360;EQDQ01  00002PRCP99
0159118410999992000100415004+49230+018610FM-12+031599999V0201401N001012200019N0200001N1+02341+01471101821ADDGA1011+030009079GF102991011001999999031011MA1999999098271MD1610121+9999REMSYN076AAXX  04151 11841 42970 21401 10234 20147 39827 40182 56012 81031 333 81360;
0208118410999992000100418004+49230+018610FM-12+031599999V0209999C000012200019N0200001N1+01671+01441101961ADDAA199000091GA1031+014409059GF104991031051012501031001KA1120M+02491MA1999999098321MD1110051+9999REMSYN082AAXX  04181 11841 32670 40000 10167 20144 39832 40196 51005 83530 333 10249 83648;EQDQ01  00002PRCP99
0178118410999992000100421004+49230+018610FM-12+031599999V0200801N001012200019N0150001N1+01411+01251102011ADDGA1031+015009059GF103991031051017501999001MA1999999098341MD1210021+9999REMSYN076AAXX  04211 11841 42765 30801 10141 20125 39834 40201 52002 83500 333 83650;EQDQ01    003SCOMCG
0211118410999992000100500004+49230+018610FM-12+031599999V0201001N001012200019N0060001N1+01261+01201102021ADDAA199000091AY101061AY201061GA1001+999999999GF100991001001999999001001MA1999999098331MD1810011+9999MW1101REMSYN076AAXX  05001 11841 31956 01001 10126 20120 39833 40202 58001 71000 333 55032;EQDQ01  00002PRCP99
0187118410999992000100503004+49230+018610FM-12+031599999V0201001N001012200019N0030001N1+01211+01151101951ADDAY101031AY201031GA1021+030009079GF102991021001999999031001MA1999999098251MD1610081+9999MW1101REMSYN082AAXX  05031 11841 41930 21001 10121 20115 39825 40195 56008 71000 82030 333 82360;
0260118410999992000100506004+49230+018610FM-12+031599999V0200401N002010003019N0004001N1+01241+01191101921ADDAA199000091AY141061AY211061GA1091+000309999GF109991091999999999999999IA1099IA2999+00809KA1120N+01141MA1999999098231MD1710021+9999MW1431REMSYN094AAXX  05061 11841 31/04 90402 10124 20119 39823 40192 57002 74341 333 20114 31008 50152 89/01;EQDQ01  00002PRCP99
0187118410999992000100509004+49230+018610FM-12+031599999V0200601N002010009019N0012001N1+01441+01361101861ADDAY141031AY221031GA1061+000909069GF106991061061000751001001MA1999999098201MD1810031+9999MW1281REMSYN082AAXX  05091 11841 41112 60602 10144 20136 39820 40186 58003 72842 86600 333 86703;
0217118410999992000100512004+49230+018610FM-12+031599999V0202601N002012200019N0300001N1+02351+01121101551ADDAA199000091AY141061AY211061GA1011+011709029GF101991011011012501001001MA1999999098011MD1710191+9999MW1021REMSYN082AAXX  05121 11841 31680 12602 10235 20112 39801 40155 57019 70241 81100 333 81839;EQDQ01  00002PRCP99
0159118410999992000100515004+49230+018610FM-12+031599999V0202401N001012200019N0400001N1+02311+01181101401ADDGA1011+018009029GF101991011011017501001001MA1999999097861MD1610151+9999REMSYN076AAXX  05151 11841 42782 12401 10231 20118 39786 40140 56015 81100 333 81856;
0196118410999992000100518004+49230+018610FM-12+031599999V0209999C000012200019N0150001N1+01391+01161101621ADDAA199000091GA1001+999999999GF100991001001999999001001KA1999M+02511MA1999999097961MD1310101+9999REMSYN070AAXX  05181 11841 32965 00000 10139 20116 39796 40162 53010 333 10251;EQDQ01  00002PRCP99
0101118410999992000100521004+49230+018610FM-12+031599999V0209999C000019999999N9999999N1+01101+01011101691ADDMA1999999097991MD1210051+9999REMSYN060AAXX  05211 11841 46/// /0000 10110 20101 39799 40169 52005;
0141118410999992000100600004+49230+018610FM-12+031599999V0209999C000019999999N9999999N1+00951+00891101711ADDAA199000091MA1999999097991MD1410001+9999REMSYN070AAXX  06001 11841 36/// /0000 10095 20089 39799 40171 54000 333 55070;EQDQ01  00002PRCP99
0101118410999992000100603004+49230+018610FM-12+031599999V0201101N002019999999N9999999N1+00951+00891101661ADDMA1999999097941MD1710051+9999REMSYN060AAXX  06031 11841 46/// /1102 10095 20089 39794 40166 57005;
0266118410999992000100606004+49230+018610FM-12+031599999V0200901N002010006019N0008001N1+00921+00871101681ADDAA199000091AY141061AY211061GA1071+000609069GF107991071061000751001001IA1019IA2999+00809KA1120N+00891MA1999999097951MD1310021+9999MW1421REMSYN100AAXX  06061 11841 31108 70902 10092 20087 39795 40168 53002 74241 87600 333 20089 30008 50152 87702;EQDQ01  00002PRCP99
0193118410999992000100609004+49230+018610FM-12+031599999V0200601N00101036001CN0060001N1+01211+01071101671ADDAY141031AY221031GA1021+001809079GF107991021061001501071001MA1999999097981MD1310031+9999MW1101REMSYN088AAXX  06091 11841 41256 70601 10121 20107 39798 40167 53003 71042 82670 333 82706 87361;
0223118410999992000100612004+49230+018610FM-12+031599999V0202501N00201021001CN0070001N1+01561+01221101591ADDAA199000091AY141061AY221061GA1031+024009039GF107991071001022501071001MA1999999097951MD1810031+9999MW1101REMSYN088AAXX  06121 11841 31857 72502 10156 20122 39795 40159 58003 71042 87070 333 83358 87361;EQDQ01  00002PRCP99
0119118410999992000100615004+49230+018610FM-12+031599999V0202901N001019999999N0070001N1+01651+99999999999ADDGF107991999999999999999999REMSYN081AAXX  06151 11841 41957 72901 10165 2136 39795 40158 55000 72162 87070 333 87359;
0229118410999992000100618004+49230+018610FM-12+031599999V0200601N00101036001CN0060001N1+01431+01321101731ADDAA112000791AY161061AY221061GA1021+012009069GF107991021051012501071001KA1120M+01651MA1999999098071MD1110121+9999MW1211REMSYN100AAXX  06181 11841 11656 70601 10143 20132 39807 40173 51012 69902 72162 82570 333 10165 82640 87358;
0206118410999992000100621004+49230+018610FM-12+031599999V0201101N001010240019N0025001N1+01231+01151101851ADDAY121031AY221031GA1061+024009079GF106991061999999999071001MA1999999098161MD1110091+9999MW1101REMSYN082AAXX  06211 11841 41925 61101 10123 20115 39816 40185 51009 71022 86070 333 86358;EQDQ01    003SCOLCG
0224118410999992000100700004+49230+018610FM-12+031599999V0201101N00101036001CN0050001N1+01161+01081101871ADDAA106000191AY161061AY221061GA1041+018009069GF107991041051017501071001GJ100009MA1999999098171MD1210011+9999MW1601REMSYN100AAXX  07001 11841 11750 71101 10116 20108 39817 40187 52001 69921 76062 84570 333 55000 84656 87363;
0193118410999992000100703004+49230+018610FM-12+031599999V0201201N001019999999N0050001N1+01131+01071101841ADDAY161031AY221031GA1041+024009039GF107991071001999999071001MA1999999098141MD1610031+9999MW1101REMSYN088AAXX  07031 11841 41950 71201 10113 20107 39814 40184 56003 71062 87070 333 84358 86364;
0253118410999992000100706004+49230+018610FM-12+031599999V0201101N001010360019N0060001N1+01301+01141101861ADDAA112001091AY161061AY221061GA1061+036009079GF106991061001999999031001IA1099IA2999+00909KA1120N+01091MA1999999098181MD1310041+9999MW1101REMSYN106AAXX  07061 11841 11956 61101 10130 20114 39818 40186 53004 69992 71062 86030 333 20109 31009 50072 86362;
0165118410999992000100709004+49230+018610FM-12+031599999V0200601N004012200019N0150001N1+01701+01171101761ADDGA1011+012009089GF103991011011012501041001MA1999999098131MD1810051+9999REMSYN082AAXX  07091 11841 42665 30604 10170 20117 39813 40176 58005 81140 333 81840 83361;
0170118410999992000100712004+49230+018610FM-12+031599999V0203401N003010330019N0150001N1+01781+01181101621ADDAA199000021GA1071+033009079GF107991071001999999071001MA1999999098011MD1710121+9999REMSYN076AAXX  07121 11841 32965 73403 10178 20118 39801 40162 57012 87070 333 87361;
0159118410999992000100715004+49230+018610FM-12+031599999V0200201N002010360019N0150001N1+01661+01151101571ADDGA1071+036009079GF107991071001999999041001MA1999999097941MD1610071+9999REMSYN076AAXX  07151 11841 42965 70202 10166 20115 39794 40157 56007 87040 333 87362;
0208118410999992000100718004+49230+018610FM-12+031599999V0201401N001012200019N0100001N1+01251+01061101731ADDAA199000091GA1011+030009079GF103991011001999999031011KA1120M+01921MA1999999098051MD1210111+9999REMSYN082AAXX  07181 11841 32960 31401 10125 20106 39805 40173 52011 81031 333 10192 81360;EQDQ01  00002PRCP99
0187118410999992000100721004+49230+018610FM-12+031599999V0209999C000010360019N0100001N1+01121+01001101741ADDAY161031AY261031GA1061+036009079GF106991061001999999071001MA1999999098041MD1810011+9999MW1211REMSYN082AAXX  07211 11841 41960 60000 10112 20100 39804 40174 58001 72166 86070 333 86362;
0218118410999992000100800004+49230+018610FM-12+031599999V0201201N001010360019N0060001N1+01111+01001101801ADDAA106000791AY161061AY261061GA1061+036009079GF106991061001999999071001GJ101089MA1999999098091MD1210051+9999MW1101REMSYN094AAXX  08001 11841 11956 61201 10111 20100 39809 40180 52005 69901 71066 86070 333 55018 86362;
0187118410999992000100803004+49230+018610FM-12+031599999V0209999C000010300019N0036001N1+01091+01011101801ADDAY121031AY221031GA1071+030009079GF107991071001999999071999MA1999999098091MD1510001+9999MW1101REMSYN082AAXX  08031 11841 41936 70000 10109 20101 39809 40180 55000 71022 8707/ 333 87360;
0253118410999992000100806004+49230+018610FM-12+031599999V0201101N001010039019N0048001N1+01141+01051101851ADDAA112000791AY161061AY221061GA1071+003909069GF107991071061004501001001IA1099IA2999+00909KA1120N+01041MA1999999098151MD1210061+9999MW1211REMSYN106AAXX  08061 11841 11448 71101 10114 20105 39815 40185 52006 69902 72162 87600 333 20104 31009 50102 87713;
0159118410999992000100809004+49230+018610FM-12+031599999V0200401N001010045019N0120001N1+01361+01041101841ADDGA1081+004509069GF108991081061004501999999MA1999999098171MD1110021+9999REMSYN076AAXX  08091 11841 42462 80401 10136 20104 39817 40184 51002 886// 333 88715;
0204118410999992000100812004+49230+018610FM-12+031599999V0200201N003010066019N0120001N1+01481+01021101691ADDAA106000791AY161061AY221061GA1071+006609059GF107991071051008001001001MA1999999098041MD1610131+9999MW1021REMSYN088AAXX  08121 11841 11562 70203 10148 20102 39804 40169 56013 69901 70262 87500 333 87622;
0165118410999992000100815004+49230+018610FM-12+031599999V0200401N00401004201CN0150001N1+01341+00951101691ADDGA1021+005709069GF107991071051004501001001MA1999999098021MD1510021+9999REMSYN082AAXX  08151 11841 42465 70404 10134 20095 39802 40169 55002 87500 333 82619 87622;
0189118410999992000100818004+49230+018610FM-12+031599999V0200301N002010087019N0150001N1+01301+00961101721ADDAA199000021GA1081+008709059GF108991081051008001999999KA1120M+01491MA1999999098041MD1010021+9999REMSYN082AAXX  08181 11841 32565 80302 10130 20096 39804 40172 50002 885// 333 10149 88629;
0178118410999992000100821004+49230+018610FM-12+031599999V0201501N001012200019N0250001N1+01051+00921101631ADDGA1031+015009059GF103991031051017501999001MA1999999097921MD1710121+9999REMSYN076AAXX  08211 11841 42775 31501 10105 20092 39792 40163 57012 83500 333 83650;EQDQ01    003SCOMCG
0183118410999992000100900004+49230+018610FM-12+031599999V0200901N001012200019N0100001N1+00781+00721101551ADDAA199000091GA1001+999999999GF100991001001999999001001MA1999999097811MD1810111+9999REMSYN070AAXX  09001 11841 32960 00901 10078 20072 39781 40155 58011 333 55000;EQDQ01  00002PRCP99
0165118410999992000100903004+49230+018610FM-12+031599999V0200601N00101001201CN0150001N1+00821+00731101411ADDGA1031+001209079GF106991061051001501001001MA1999999097681MD1610131+9999REMSYN082AAXX  09031 11841 42265 60601 10082 20073 39768 40141 56013 86500 333 83704 85656;
0266118410999992000100906004+49230+018610FM-12+031599999V0200801N002010009019N0026001N1+00881+00791101381ADDAA199000091AY111061AY211061GA1081+000909069GF108991081061001501999999IA1099IA2999+00409KA1120N+00751MA1999999097661MD1610021+9999MW1101REMSYN100AAXX  09061 11841 31226 80802 10088 20079 39766 40138 56002 71011 886// 333 20075 31004 50062 88703;EQDQ01  00002PRCP99
0206118410999992000100909004+49230+018610FM-12+031599999V0203001N001010210019N0070001N1+01251+00881101281ADDAY121031AY221031GA1061+021009079GF106991061999022501031001MA1999999097611MD1810051+9999MW1101REMSYN082AAXX  09091 11841 41857 63001 10125 20088 39761 40128 58005 71022 86030 333 86357;EQDQ01+000002SCOLCG
0195118410999992000100912004+49230+018610FM-12+031599999V0202401N00401012001CN0100001N1+01381+00961101161ADDAA199000091GA1041+011709069GF107991071051012501001001MA1999999097511MD1810101+9999REMSYN082AAXX  09121 11841 32660 72404 10138 20096 39751 40116 58010 87500 333 84639 87642;EQDQ01  00002PRCP99
0187118410999992000100915004+49230+018610FM-12+031599999V0202401N003010054019N0090001N1+01191+00931101181ADDAY121031AY221031GA1081+005409059GF108991081051004501999999MA1999999097511MD1010001+9999MW1101REMSYN082AAXX  09151 11841 41459 82403 10119 20093 39751 40118 50000 71022 885// 333 88618;
0223118410999992000100918004+49230+018610FM-12+031599999V0202701N002010048019N0060001N1+01061+00921101161ADDAA112000791AY161061AY221061GA1081+004809059GF108991081051004501999999KA1120M+01471MA1999999097471MD1810041+9999MW1601REMSYN094AAXX  09181 11841 11456 82702 10106 20092 39747 40116 58004 69902 76062 885// 333 10147 88616;
0193118410999992000100921004+49230+018610FM-12+031599999V0202501N002010039019N0070001N1+01061+00891101091ADDAY161031AY221031GA1051+003909079GF108991081051004501999999MA1999999097401MD1710071+9999MW1601REMSYN088AAXX  09211 11841 41457 82502 10106 20089 39740 40109 57007 76062 885// 333 85713 88616;
0218118410999992000101000004+49230+018610FM-12+031599999V0202501N002010030019N0050001N1+00971+00881100971ADDAA106000391AY161061AY221061GA1081+003009069GF108991081071004501999999GJ100669MA1999999097281MD1810121+9999MW1611REMSYN094AAXX  10001 11841 11450 82502 10097 20088 39728 40097 58012 69931 76162 887// 333 55011 88710;
0193118410999992000101003004+49230+018610FM-12+031599999V0209999C00001002101CN0060001N1+00941+00861100761ADDAY161031AY221031GA1041+002109079GF108991081051002501999999MA1999999097071MD1710211+9999MW1601REMSYN088AAXX  10031 11841 41356 80000 10094 20086 39707 40076 57021 76062 885// 333 84707 88650;
0259118410999992000101006004+49230+018610FM-12+031599999V0209999C00001001201CN0050001N1+00941+00861100621ADDAA112000591AY161061AY221061GA1041+001509079GF108991081051001501999999IA1099IA2999+00909KA1120N+00931MA1999999096941MD1610131+9999MW1101REMSYN112AAXX  10061 11841 11250 80000 10094 20086 39694 40062 56013 69942 71062 885// 333 20093 31009 50152 84705 88643;
0193118410999992000101009004+49230+018610FM-12+031599999V0209999C00001004201CN0050001N1+01031+00921100551ADDAY121031AY221031GA1021+003009079GF108991081051004501999999MA1999999096881MD1810061+9999MW1601REMSYN088AAXX  10091 11841 41450 80000 10103 20092 39688 40055 58006 76022 885// 333 82710 88629;
0232118410999992000101012004+49230+018610FM-12+031599999V0201801N004010144019N0250001N1+01311+00601100361ADDAA106000791AY161061AY221061GA1031+010509069GA2071+014409069GF107991071051012501001001MA1999999096731MD1710151+9999MW1011REMSYN100AAXX  10121 11841 11675 71804 10131 20060 39673 40036 57015 69901 70162 87500 333 83635 87648 91009;
0159118410999992000101015004+49230+018610FM-12+031599999V0202001N002010102019N0200001N1+01221+00601100351ADDGA1071+010209059GF107991071051012501001001MA1999999096711MD1810021+9999REMSYN076AAXX  10151 11841 42670 72002 10122 20060 39671 40035 58002 87500 333 87634;
0229118410999992000101018004+49230+018610FM-12+031599999V0202201N00101007501CN0200001N1+01081+00711100501ADDAA112000791AY121061AY221061GA1021+006909069GF108991081051008001999999KA1120M+01431MA1999999096841MD1210131+9999MW1601REMSYN100AAXX  10181 11841 11570 82201 10108 20071 39684 40050 52013 69902 76022 885// 333 10143 82623 88635;
0193118410999992000101021004+49230+018610FM-12+031599999V0209999C00001007501CN0150001N1+01021+00761100461ADDAY161031AY221031GA1041+009609069GF108991081051008001999999MA1999999096791MD1510051+9999MW1211REMSYN088AAXX  10211 11841 41565 80000 10102 20076 39679 40046 55005 72162 885// 333 84632 88650;
0224118410999992000101100004+49230+018610FM-12+031599999V0200701N00101012001CN0120001N1+00971+00781100421ADDAA106000191AY161061AY221061GA1041+010809069GF108991081051012501999999GJ100309MA1999999096751MD1810041+9999MW1031REMSYN100AAXX  11001 11841 11662 80701 10097 20078 39675 40042 58004 69911 70362 885// 333 55005 84636 88650;
0193118410999992000101103004+49230+018610FM-12+031599999V0200601N00201007501CN0070001N1+00961+00871100301ADDAY161031AY221031GA1031+007509069GF108991081051008001999999MA1999999096631MD1710121+9999MW1601REMSYN088AAXX  11031 11841 41557 80602 10096 20087 39663 40030 57012 76062 885// 333 83625 88630;
0274118410999992000101106004+49230+018610FM-12+031599999V0201201N00101036001CN0120001N1+01001+00921100141ADDAA112000891AY161061AY221061GA1011+000909079GA2061+999999039GF107991061051001501071001IA1099IA2999+00709KA1120N+00951MA1999999096481MD1710151+9999MW1601REMSYN111AAXX  11061 11841 11262 71201 10100 20092 39648 40014 57015 69972 76062 86570 333 20095 31007 50112 81703 8635;
0193118410999992000101109004+49230+018610FM-12+031599999V0201501N00201012001CN0250001N1+01431+00851100031ADDAY161031AY221031GA1021+009309089GF107991061081008001031001MA1999999096431MD1510051+9999MW1021REMSYN088AAXX  11091 11841 41575 71502 10143 20085 39643 40003 55005 70262 86830 333 82831 86656;
0204118410999992000101112004+49230+018610FM-12+031599999V0201401N003010087019N0250001N1+01461+00921100021ADDAA106000191AY161061AY221061GA1061+008709059GF107991061051008001041001MA1999999096421MD1810011+9999MW1021REMSYN088AAXX  11121 11841 11575 71403 10146 20092 39642 40002 58001 69911 70262 86540 333 86629;
0165118410999992000101115004+49230+018610FM-12+031599999V0201501N00101090001CN0250001N1+01621+00871100041ADDGA1041+011109089GF106991041021012501001021MA1999999096461MD1310041+9999REMSYN082AAXX  11151 11841 42675 61501 10162 20087 39646 40004 53004 84202 333 84837 83071;
0195118410999992000101118004+49230+018610FM-12+031599999V0209999C000010129019N0200001N1+01661+00951100081ADDAA112000191GA1051+012909059GF106991051051012501001021KA1120M+01691MA1999999096501MD1310041+9999REMSYN088AAXX  11181 11841 12670 60000 10166 20095 39650 40008 53004 69912 85502 333 10169 85643;
0165118410999992000101121004+49230+018610FM-12+031599999V0201801N002010129019N0750001N1+01671+00891100191ADDGA1051+012909069GF107991051051012501001021MA1999999096611MD1210111+9999REMSYN082AAXX  11211 11841 42689 71802 10167 20089 39661 40019 52011 85502 333 85643 83071;
0209118410999992000101200004+49230+018610FM-12+031599999V0202101N004010120019N0150001N1+01801+01011100221ADDAA199000091GA1071+012009069GF107991071051012501001001GJ100249MA1999999096661MD1210051+9999REMSYN088AAXX  12001 11841 32665 72104 10180 20101 39666 40022 52005 87500 333 55004 87640 91009;EQDQ01  00002PRCP99
0187118410999992000101203004+49230+018610FM-12+031599999V0202101N005010450019N0200001N1+01771+00881100271ADDGA1021+013209069GA2061+045009029GF107991021051012501001061MA1999999096701MD1310041+9999REMSYN088AAXX  12031 11841 42670 72105 10177 20088 39670 40027 53004 82506 333 82644 86265 91010;
0238118410999992000101206004+49230+018610FM-12+031599999V0201001N00201036001CN0300001N1+01711+00931100471ADDAA199000091GA1021+015009069GF107991021051017501071001IA1099IA2999+01309KA1120N+01541MA1999999096891MD1210191+9999REMSYN094AAXX  12061 11841 32780 71002 10171 20093 39689 40047 52019 82570 333 20154 31013 82650 86360;EQDQ01  00002PRCP99
0165118410999992000101209004+49230+018610FM-12+031599999V0201901N00301036001CN0300001N1+01951+00851100601ADDGA1021+018009089GF107991021021017501031001MA1999999097041MD1210151+9999REMSYN082AAXX  12091 11841 42780 71903 10195 20085 39704 40060 52015 82230 333 82856 86357;
0195118410999992000101212004+49230+018610FM-12+031599999V0201601N00401036001CN0300001N1+02011+01001100701ADDAA199000091GA1031+015009069GF106991031051017501031011MA1999999097151MD1010111+9999REMSYN082AAXX  12121 11841 32780 61604 10201 20100 39715 40070 50011 83531 333 83650 85073;EQDQ01  00002PRCP99
0165118410999992000101215004+49230+018610FM-12+031599999V0201601N003012200019N0350001N1+02081+01061100781ADDGA1021+018009089GF104991021011017501001011MA1999999097231MD1310081+9999REMSYN082AAXX  12151 11841 42781 41603 10208 20106 39723 40078 53008 82101 333 82856 84071;
0208118410999992000101218004+49230+018610FM-12+031599999V0201701N004012200019N0300001N1+02011+01021100941ADDAA199000091GA1011+018009029GF103991011011017501001011KA1120M+02131MA1999999097381MD1110151+9999REMSYN082AAXX  12181 11841 32780 31704 10201 20102 39738 40094 51015 81101 333 10213 81856;EQDQ01  00002PRCP99
0159118410999992000101221004+49230+018610FM-12+031599999V0201901N003012200019N0300001N1+02021+00951101071ADDGA1031+036009079GF103991031001999999041001MA1999999097501MD1210121+9999REMSYN076AAXX  12211 11841 42980 31903 10202 20095 39750 40107 52012 83040 333 83362;
0203118410999992000101300004+49230+018610FM-12+031599999V0200301N001012200019N0300001N1+01501+00981101191ADDAA199000091GA1021+027009079GF102991021001999999031001GJ101089MA1999999097561MD1110061+9999REMSYN082AAXX  13001 11841 32980 20301 10150 20098 39756 40119 51006 82030 333 55018 82359;EQDQ01  00002PRCP99
0143118410999992000101303004+49230+018610FM-12+031599999V0200301N001012200019N0300001N1+01441+01001101221ADDGA1001+999999999GF100991001001999999001001MA1999999097581MD1310021+9999REMSYN060AAXX  13031 11841 42980 00301 10144 20100 39758 40122 53002;
0244118410999992000101306004+49230+018610FM-12+031599999V0202201N00201090001CN0300001N1+01881+01061101281ADDAA199000091GA1011+009909089GF105991011011008001041081IA1019IA2999+00909KA1120N+01321MA1999999097691MD1310111+9999REMSYN100AAXX  13061 11841 32580 52202 10188 20106 39769 40128 53011 81148 333 20132 30009 50132 81833 84272;EQDQ01  00002PRCP99
0165118410999992000101309004+49230+018610FM-12+031599999V0202201N005012200019N0400001N1+02321+01061101361ADDGA1011+013509089GF103991011011012501001011MA1999999097821MD1210131+9999REMSYN082AAXX  13091 11841 42682 32205 10232 20106 39782 40136 52013 81101 333 81845 83075;
0189118410999992000101312004+49230+018610FM-12+031599999V0202201N004012200019N0400001N1+02601+00901101361ADDAA199000091GA1011+075009019GF101991001001999999001011MA1999999097851MD1310031+9999REMSYN076AAXX  13121 11841 32982 12204 10260 20090 39785 40136 53003 80001 333 81075;EQDQ01  00002PRCP99
0159118410999992000101315004+49230+018610FM-12+031599999V0202201N003012200019N0400001N1+02431+00911101441ADDGA1011+033009079GF102991011001999999041021MA1999999097911MD1310061+9999REMSYN076AAXX  13151 11841 42982 22203 10243 20091 39791 40144 53006 81042 333 81361;
0208118410999992000101318004+49230+018610FM-12+031599999V0209999C000012200019N0150001N1+01471+01071101731ADDAA199000091GA1011+069009019GF101991001001999999001011KA1120M+02621MA1999999098071MD1210161+9999REMSYN082AAXX  13181 11841 32965 10000 10147 20107 39807 40173 52016 80001 333 10262 81073;EQDQ01  00002PRCP99
0101118410999992000101321004+49230+018610FM-12+031599999V0209999C000019999999N9999999N1+01151+00971101841ADDMA1999999098141MD1210091+9999REMSYN060AAXX  13211 11841 46/// /0000 10115 20097 39814 40184 52009;
0203118410999992000101400004+49230+018610FM-12+031599999V0200701N001012200019N0100001N1+01021+00861101871ADDAA199000091GA1011+066009019GF101991001001999999001011GJ102289MA1999999098151MD1110011+9999REMSYN082AAXX  14001 11841 32960 10701 10102 20086 39815 40187 51001 80001 333 55038 81072;EQDQ01  00002PRCP99
0159118410999992000101403004+49230+018610FM-12+031599999V0200401N001012200019N0100001N1+00961+00871101861ADDGA1031+060009019GF103991001001999999001021MA1999999098131MD1510021+9999REMSYN076AAXX  14031 11841 42960 30401 10096 20087 39813 40186 55002 80002 333 83070;
0238118410999992000101406004+49230+018610FM-12+031599999V0209999C000012200019N0150001N1+00961+00881101861ADDAA199000091GA1011+069009019GF101991001001999999001021IA1019IA2999+00609KA1120N+00801MA1999999098131MD1510001+9999REMSYN094AAXX  14061 11841 32965 10000 10096 20088 39813 40186 55000 80002 333 20080 30006 50222 81073;EQDQ01  00002PRCP99
0159118410999992000101409004+49230+018610FM-12+031599999V0202301N001012200019N0150001N1+02051+01301101721ADDGA1011+039009079GF102991011001999999041021MA1999999098141MD1010011+9999REMSYN076AAXX  14091 11841 42965 22301 10205 20130 39814 40172 50001 81042 333 81363;
0189118410999992000101412004+49230+018610FM-12+031599999V0202301N006012200019N0200001N1+02621+00871101601ADDAA199000091GA1011+039009079GF101991011001999999041011MA1999999098081MD1510061+9999REMSYN076AAXX  14121 11841 32970 12306 10262 20087 39808 40160 55006 81041 333 81363;EQDQ01  00002PRCP99
0165118410999992000101415004+49230+018610FM-12+031599999V0202001N002019999999N0150001N1+02371+01011101591ADDGA1021+033009039GF107991021001999999031081MA1999999098051MD1610031+9999REMSYN082AAXX  14151 11841 42965 72002 10237 20101 39805 40159 56003 82038 333 82361 87272;
0224118410999992000101418004+49230+018610FM-12+031599999V0209999C000010660019N0100001N1+01461+01161101821ADDAA199000091GA1061+066009089GF106991999001999999001081KA1120M+02691MA1999999098161MD1210111+9999REMSYN082AAXX  14181 11841 32960 60000 10146 20116 39816 40182 52011 80008 333 10269 86272;EQDQ01+000002SCOTLCQ02  00002PRCP99
0159118410999992000101421004+49230+018610FM-12+031599999V0201101N001012200019N0100001N1+01201+01071101961ADDGA1011+069009019GF101991001001999999001011MA1999999098261MD1110101+9999REMSYN076AAXX  14211 11841 42960 11101 10120 20107 39826 40196 51010 80001 333 81073;
0183118410999992000101500004+49230+018610FM-12+031599999V0209999C000012200019N0100001N1+00901+00791102021ADDAA199000091GA1001+999999999GF100991001001999999001001MA1999999098281MD1110021+9999REMSYN070AAXX  15001 11841 32960 00000 10090 20079 39828 40202 51002 333 55057;EQDQ01  00002PRCP99
0171118410999992000101503004+49230+018610FM-12+031599999V0209999C000012200019N0012001N1+00791+00731102031ADDAY101031AY201031GA1001+999999999GF100991001001999999001001MA1999999098271MD1510011+9999MW1101REMSYN066AAXX  15031 11841 41912 00000 10079 20073 39827 40203 55001 71000;
0266118410999992000101506004+49230+018610FM-12+031599999V0209999C000012200019N0080001N1+00811+00761102041ADDAA199000091AY101061AY201061GA1011+069009019GF101991001001999999001011IA1019IA2999+00409KA1120N+00701MA1999999098281MD1210011+9999MW1111REMSYN100AAXX  15061 11841 31958 10000 10081 20076 39828 40204 52001 71100 80001 333 20070 30004 50142 81073;EQDQ01  00002PRCP99
0159118410999992000101509004+49230+018610FM-12+031599999V0200801N002012200019N0150001N1+01761+01161101831ADDGA1021+075009019GF102991001001999999001011MA1999999098211MD1810071+9999REMSYN076AAXX  15091 11841 42965 20802 10176 20116 39821 40183 58007 80001 333 82075;
0189118410999992000101512004+49230+018610FM-12+031599999V0202501N001012200019N0150001N1+02601+00941101551ADDAA199000091GA1021+075009019GF102991001001999999001011MA1999999098031MD1810181+9999REMSYN076AAXX  15121 11841 32965 22501 10260 20094 39803 40155 58018 80001 333 82075;EQDQ01  00002PRCP99
0159118410999992000101515004+49230+018610FM-12+031599999V0202201N001012200019N0150001N1+02361+01131101441ADDGA1011+075009019GF101991001001999999001011MA1999999097901MD1610131+9999REMSYN076AAXX  15151 11841 42965 12201 10236 20113 39790 40144 56013 80001 333 81075;
0196118410999992000101518004+49230+018610FM-12+031599999V0209999C000012200019N0200001N1+01281+00911101631ADDAA199000091GA1001+999999999GF100991001001999999001001KA1999M+02741MA1999999097951MD1210051+9999REMSYN070AAXX  15181 11841 32970 00000 10128 20091 39795 40163 52005 333 10274;EQDQ01  00002PRCP99
0143118410999992000101521004+49230+018610FM-12+031599999V0200701N001012200019N0200001N1+00961+00771101711ADDGA1001+999999999GF100991001001999999001001MA1999999097991MD1210041+9999REMSYN060AAXX  15211 11841 42970 00701 10096 20077 39799 40171 52004;
0211118410999992000101600004+49230+018610FM-12+031599999V0201001N001012200019N0060001N1+00741+00661101801ADDAA199000091AY101061AY201061GA1001+999999999GF100991001001999999001001MA1999999098041MD1110051+9999MW1111REMSYN076AAXX  16001 11841 31956 01001 10074 20066 39804 40180 51005 71100 333 55079;EQDQ01  00002PRCP99
0187118410999992000101603004+49230+018610FM-12+031599999V0209999C000012200019N0150001N1+00711+00601101801ADDAY101031AY201031GA1021+069009019GF102991001001999999001011MA1999999098041MD1010001+9999MW1111REMSYN082AAXX  16031 11841 41965 20000 10071 20060 39804 40180 50000 71100 80001 333 82073;
0238118410999992000101606004+49230+018610FM-12+031599999V0201001N002012200019N0150001N1+00791+00651101891ADDAA199000091GA1021+030009079GF103991021001999999031011IA1019IA2999+00209KA1120N+00551MA1999999098141MD1310101+9999REMSYN094AAXX  16061 11841 32965 31002 10079 20065 39814 40189 53010 82031 333 20055 30002 50122 82360;EQDQ01  00002PRCP99
0159118410999992000101609004+49230+018610FM-12+031599999V0209999C000010600019N0180001N1+01661+01051101761ADDGA1051+060009019GF105991001001999999001041MA1999999098131MD1610011+9999REMSYN076AAXX  16091 11841 42968 50000 10166 20105 39813 40176 56001 80004 333 85070;
0195118410999992000101612004+49230+018610FM-12+031599999V0202301N002010300019N0150001N1+02121+01071101701ADDAA199000091GA1051+030009039GF107991051001999999031081MA1999999098121MD1610011+9999REMSYN082AAXX  16121 11841 32965 72302 10212 20107 39812 40170 56001 85038 333 85360 87270;EQDQ01  00002PRCP99
0159118410999992000101615004+49230+018610FM-12+031599999V0209999C000010300019N0150001N1+01801+01161101771ADDGA1071+030009079GF107991071001999999071001MA1999999098151MD1010031+9999REMSYN076AAXX  16151 11841 42965 70000 10180 20116 39815 40177 50003 87070 333 87360;
0224118410999992000101618004+49230+018610FM-12+031599999V0209999C000010600019N0150001N1+01491+01091101871ADDAA199000091GA1071+060009089GF107991999001999999001081KA1120M+02121MA1999999098211MD1310061+9999REMSYN082AAXX  16181 11841 32965 70000 10149 20109 39821 40187 53006 80008 333 10212 87270;EQDQ01+000002SCOTLCQ02  00002PRCP99
0178118410999992000101621004+49230+018610FM-12+031599999V0209999C000010600019N0100001N1+01181+01021102001ADDGA1071+060009089GF107991999001999999001081MA1999999098301MD1210091+9999REMSYN076AAXX  16211 11841 42960 70000 10118 20102 39830 40200 52009 80008 333 87270;EQDQ01+000002SCOTLC
0231118410999992000101700004+49230+018610FM-12+031599999V0202001N001010300019N0080001N1+01121+01001102041ADDAA199000091AY121061AY221061GA1071+030009079GF107991071001999999071001GJ101449MA1999999098331MD1110031+9999MW1101REMSYN088AAXX  17001 11841 31958 72001 10112 20100 39833 40204 51003 71022 87070 333 55024 87360;EQDQ01  00002PRCP99
0187118410999992000101703004+49230+018610FM-12+031599999V0209999C000010300019N0060001N1+01091+01001102031ADDAY121031AY221031GA1071+030009079GF107991071001999999071001MA1999999098311MD1810021+9999MW1101REMSYN082AAXX  17031 11841 41956 70000 10109 20100 39831 40203 58002 71022 87070 333 87360;
0272118410999992000101706004+49230+018610FM-12+031599999V0209999C000019999999N0150001N1+00971+00891102121ADDAA199000091AY121061AY221061GA1021+036009039GF105991021001999999041021IA1019IA2999+00709KA1120N+00951MA1999999098381MD1210071+9999MW1111REMSYN106AAXX  17061 11841 31965 50000 10097 20089 39838 40212 52007 71122 82042 333 20095 30007 50172 82362 84073;EQDQ01  00002PRCP99
0159118410999992000101709004+49230+018610FM-12+031599999V0209999C000012200019N0120001N1+01731+01091102061ADDGA1041+063009019GF104991001001999999001021MA1999999098421MD1110041+9999REMSYN076AAXX  17091 11841 42962 40000 10173 20109 39842 40206 51004 80002 333 84071;
0195118410999992000101712004+49230+018610FM-12+031599999V0202501N004012200019N0250001N1+02171+01061101971ADDAA199000091GA1011+012009089GF104991011021012501001021MA1999999098391MD1810031+9999REMSYN082AAXX  17121 11841 32675 42504 10217 20106 39839 40197 58003 81202 333 81840 84070;EQDQ01  00002PRCP99
0178118410999992000101715004+49230+018610FM-12+031599999V0202601N002012200019N0250001N1+02021+01091102021ADDGA1011+018009059GF102991011041022501999011MA1999999098421MD1210031+9999REMSYN076AAXX  17151 11841 42875 22602 10202 20109 39842 40202 52003 81401 333 81656;EQDQ01+000002SCOMCG
0208118410999992000101718004+49230+018610FM-12+031599999V0209999C000010270019N0200001N1+01301+01021102281ADDAA199000091GA1061+027009079GF106991061001999999031001KA1120M+02231MA1999999098581MD1210161+9999REMSYN082AAXX  17181 11841 32970 60000 10130 20102 39858 40228 52016 86030 333 10223 86359;EQDQ01  00002PRCP99
0193118410999992000101721004+49230+018610FM-12+031599999V0202801N00101036001CN0200001N1+01181+01021102311ADDAY181031AY221031GA1021+012909069GF107991021051012501031001MA1999999098601MD1210021+9999MW1031REMSYN088AAXX  17211 11841 41670 72801 10118 20102 39860 40231 52002 70382 82530 333 82643 86361;
0246118410999992000101800004+49230+018610FM-12+031599999V0203101N00201036001CN0100001N1+01291+01211102421ADDAA106015091AY191061AY281061GA1011+006009099GA2021+010809069GF108991031091008001071999GJ102529MA1999999098721MD1010121+9999MW1921REMSYN106AAXX  18001 11841 11560 83102 10129 20121 39872 40242 50012 60151 79298 8397/ 333 55042 81920 82636 87357;
0187118410999992000101803004+49230+018610FM-12+031599999V0201401N001010450019N0200001N1+01191+01081102341ADDAY181031AY221031GA1071+045009079GF107991071001999999031001MA1999999098631MD1510091+9999MW1031REMSYN082AAXX  18031 11841 41970 71401 10119 20108 39863 40234 55009 70382 87030 333 87365;
0259118410999992000101806004+49230+018610FM-12+031599999V0201101N001012200019N0007001N1+01031+00981102381ADDAA112016091AY181061AY241061GA1021+002109079GF104991021061002501031001IA1119IA2999+00809KA1120N+00971MA1999999098641MD1310011+9999MW1421REMSYN112AAXX  18061 11841 11307 41101 10103 20098 39864 40238 53001 60162 74284 82630 333 20097 32008 50092 82707 83359;
0187118410999992000101809004+49230+018610FM-12+031599999V0201001N002010360019N0200001N1+01501+01121102341ADDAY141031AY241031GA1031+006009029GF105991041081008001031001MA1999999098671MD1010031+9999MW1021REMSYN082AAXX  18091 11841 41570 51002 10150 20112 39867 40234 50003 70244 84830 333 83820;
0198118410999992000101812004+49230+018610FM-12+031599999V0200601N002010072019N0250001N1+01611+01111102261ADDAA199000021AY141061AY241061GA1061+007209059GF106991061051008001001001MA1999999098601MD1810071+9999MW1021REMSYN082AAXX  18121 11841 31575 60602 10161 20111 39860 40226 58007 70244 86500 333 86624;
0159118410999992000101815004+49230+018610FM-12+031599999V0200101N002010090019N0250001N1+01551+01171102221ADDGA1061+009009059GF106991061051008001001001MA1999999098561MD1610041+9999REMSYN076AAXX  18151 11841 42575 60102 10155 20117 39856 40222 56004 86500 333 86630;
0223118410999992000101818004+49230+018610FM-12+031599999V0209999C000010069019N0100001N1+01371+01211102281ADDAA112000891AY161061AY221061GA1081+006909059GF108991081051008001999999KA1120M+01751MA1999999098591MD1210031+9999MW1611REMSYN094AAXX  18181 11841 11560 80000 10137 20121 39859 40228 52003 69982 76162 885// 333 10175 88623;
0187118410999992000101821004+49230+018610FM-12+031599999V0201001N001010360019N0045001N1+01211+01121102271ADDAY161031AY221031GA1041+009009059GF105991041051008001031001MA1999999098561MD1510031+9999MW1211REMSYN082AAXX  18211 11841 41545 51001 10121 20112 39856 40227 55003 72162 84530 333 84630;
0218118410999992000101900004+49230+018610FM-12+031599999V0201201N001012200019N0010001N1+01011+00961102311ADDAA106003091AY161061AY211061GA1041+013509059GF104991041051012501001001GJ100249MA1999999098571MD1310011+9999MW1101REMSYN094AAXX  19001 11841 11610 41201 10101 20096 39857 40231 53001 60031 71061 84500 333 55004 84645;
0187118410999992000101903004+49230+018610FM-12+031599999V0200701N002010009019N0007001N1+00951+00901102251ADDAY111031AY211031GA1051+000909069GF105991051061000751001001MA1999999098511MD1610061+9999MW1461REMSYN082AAXX  19031 11841 41107 50702 10095 20090 39851 40225 56006 74611 85600 333 85703;
0253118410999992000101906004+49230+018610FM-12+031599999V0200701N003010012019N0012001N1+01021+00961102301ADDAA112003091AY141061AY211061GA1081+001209069GF108991081061001501999999IA1119IA2999+00809KA1120N+00931MA1999999098561MD1310051+9999MW1281REMSYN106AAXX  19061 11841 11212 80703 10102 20096 39856 40230 53005 60032 72841 886// 333 20093 32008 50042 88704;
0217118410999992000101912004+49230+018610FM-12+031599999V0201401N001012200019N0090001N1+01571+01151102241ADDAA199000091AY111061AY211061GA1041+012009059GF104991041051012501001001MA1999999098581MD1810051+9999MW1101REMSYN082AAXX  19121 11841 31659 41401 10157 20115 39858 40224 58005 71011 84500 333 84640;EQDQ01  00002PRCP99
0165118410999992000101915004+49230+018610FM-12+031599999V0202401N002010150019N0100001N1+01601+01221102271ADDGA1011+012909089GF105991051081012501001001MA1999999098611MD1310031+9999REMSYN082AAXX  19151 11841 42660 52402 10160 20122 39861 40227 53003 85800 333 81843 84650;
0236118410999992000101918004+49230+018610FM-12+031599999V0209999C000010270019N0050001N1+01211+01121102521ADDAA199000091AY111061AY211061GA1061+027009079GF106991061001999999031001KA1120M+01731MA1999999098801MD1210191+9999MW1101REMSYN088AAXX  19181 11841 31950 60000 10121 20112 39880 40252 52019 71011 86030 333 10173 86359;EQDQ01  00002PRCP99
0187118410999992000101921004+49230+018610FM-12+031599999V0209999C000010030019N0035001N1+01161+01081102651ADDAY121031AY221031GA1081+003009069GF108991081061004501999999MA1999999098921MD1110121+9999MW1101REMSYN082AAXX  19211 11841 41435 80000 10116 20108 39892 40265 51012 71022 886// 333 88710;
0231118410999992000102000004+49230+018610FM-12+031599999V0203001N001010150019N0028001N1+01171+01091102701ADDAA199000091AY111061AY211061GA1081+015009069GF108991081061017501999999GJ101089MA1999999098971MD1110051+9999MW1101REMSYN088AAXX  20001 11841 31728 83001 10117 20109 39897 40270 51005 71011 886// 333 55018 88750;EQDQ01  00002PRCP99
0187118410999992000102003004+49230+018610FM-12+031599999V0202801N001010039019N0023001N1+01191+01131102751ADDAY151031AY221031GA1081+003909069GF108991081071004501999999MA1999999099021MD1110051+9999MW1501REMSYN082AAXX  20031 11841 41423 82801 10119 20113 39902 40275 51005 75052 887// 333 88713;
0241118410999992000102006004+49230+018610FM-12+031599999V0202801N001010057019N0150001N1+01111+00921102901ADDAA112000791AY151061AY221061GA1081+005709059GF108991081051004501999999IA2999+01109KA1120N+01111MA1999999099151MD1310131+9999MW1021REMSYN100AAXX  20061 11841 11465 82801 10111 20092 39915 40290 53013 69902 70252 885// 333 20111 3/011 88619;
0187118410999992000102009004+49230+018610FM-12+031599999V0209999C000010108019N0100001N1+01131+00921103011ADDAY161031AY221031GA1081+010809059GF108991081051012501999999MA1999999099261MD1210111+9999MW1211REMSYN082AAXX  20091 11841 41660 80000 10113 20092 39926 40301 52011 72162 885// 333 88636;
0210118410999992000102012004+49230+018610FM-12+031599999V0209999C00001012001CN0120001N1+01271+00861102931ADDAA106000191AY161061AY221061GA1021+007209089GF107991071081008001001001MA1999999099201MD1810061+9999MW1021REMSYN094AAXX  20121 11841 11562 70000 10127 20086 39920 40293 58006 69911 70262 87800 333 82824 86634;
0165118410999992000102015004+49230+018610FM-12+031599999V0209999C00001012001CN0150001N1+01361+00891102861ADDGA1031+009009089GF106991061081008001001001MA1999999099151MD1610051+9999REMSYN082AAXX  20151 11841 42565 60000 10136 20089 39915 40286 56005 86800 333 83830 85636;
0195118410999992000102018004+49230+018610FM-12+031599999V0202101N002010132019N0200001N1+01151+00491103031ADDAA112000191GA1071+013209059GF107991071051012501001001KA1120M+01491MA1999999099281MD1210131+9999REMSYN088AAXX  20181 11841 12670 72102 10115 20049 39928 40303 52013 69912 87500 333 10149 87644;
0143118410999992000102021004+49230+018610FM-12+031599999V0209999C000012200019N0200001N1+00641+00421103171ADDGA1001+999999999GF100991001001999999001001MA1999999099351MD1110071+9999REMSYN060AAXX  20211 11841 42970 00000 10064 20042 39935 40317 51007;
0211118410999992000102100004+49230+018610FM-12+031599999V0209999C000012200019N0035001N1+00341+00271103281ADDAA199000091AY101061AY201061GA1001+999999999GF100991001001999999001001MA1999999099411MD1110061+9999MW1101REMSYN076AAXX  21001 11841 31935 00000 10034 20027 39941 40328 51006 71000 333 55006;EQDQ01  00002PRCP99
0171118410999992000102103004+49230+018610FM-12+031599999V0200901N001012200019N0005001N1+00141+00081103351ADDAY101031AY201031GA1001+999999999GF100991001001999999001001MA1999999099451MD1110041+9999MW1461REMSYN066AAXX  21031 11841 41905 00901 10014 20008 39945 40335 51004 74600;
0254118410999992000102106004+49230+018610FM-12+031599999V0209999C000012200019N0003001N1+00021-00011103441ADDAA199000091AY141061AY201061GA1001+999999999GF100991001001999999001001IA1099IA2999-00209KA1120N-00021MA1999999099521MD1310071+9999MW1441REMSYN088AAXX  21061 11841 31903 00000 10002 21001 39952 40344 53007 74440 333 21002 31102 50182;EQDQ01  00002PRCP99
0171118410999992000102109004+49230+018610FM-12+031599999V0202601N004012200019N0250001N1+00971+00321103391ADDAY141031AY201031GA1001+999999999GF100991001001999999001001MA1999999099601MD1110081+9999MW1021REMSYN066AAXX  21091 11841 41975 02604 10097 20032 39960 40339 51008 70240;
0201118410999992000102112004+49230+018610FM-12+031599999V0202001N003012200019N0400001N1+01351+00051103261ADDAA199000091AY141061AY201061GA1001+999999999GF100991001001999999001001MA1999999099521MD1810081+9999MW1021REMSYN066AAXX  21121 11841 31982 02003 10135 20005 39952 40326 58008 70240;EQDQ01  00002PRCP99
0143118410999992000102115004+49230+018610FM-12+031599999V0202201N002012200019N0400001N1+01291+00221103211ADDGA1001+999999999GF100991001001999999001001MA1999999099471MD1610051+9999REMSYN060AAXX  21151 11841 42982 02202 10129 20022 39947 40321 56005;
0196118410999992000102118004+49230+018610FM-12+031599999V0200701N001012200019N0130001N1+00431+00221103471ADDAA199000091GA1001+999999999GF100991001001999999001001KA1999M+01501MA1999999099611MD1210141+9999REMSYN070AAXX  21181 11841 32963 00701 10043 20022 39961 40347 52014 333 10150;EQDQ01  00002PRCP99
0143118410999992000102121004+49230+018610FM-12+031599999V0209999C000012200019N0100001N1+00171+00051103601ADDGA1001+999999999GF100991001001999999001001MA1999999099691MD1110081+9999REMSYN060AAXX  21211 11841 42960 00000 10017 20005 39969 40360 51008;
0141118410999992000102200004+49230+018610FM-12+031599999V0200801N001019999999N9999999N1-00011-00041103641ADDAA199000091MA1999999099711MD1210031+9999REMSYN070AAXX  22001 11841 36/// /0801 11001 21004 39971 40364 52003 333 55087;EQDQ01  00002PRCP99
0181118410999992000102203004+49230+018610FM-12+031599999V0209999C000010003019N0002001N1+00111+00081103591ADDAY141031AY201031GA1091+000309999GF109991091999999999999999MA1999999099681MD1710031+9999MW1451REMSYN076AAXX  22031 11841 41/02 90000 10011 20008 39968 40359 57003 74540 333 89/01;
0260118410999992000102206004+49230+018610FM-12+031599999V0200901N001010003019N0002001N1+00061+00051103661ADDAA199000091AY111061AY211061GA1091+000309999GF109991091999999999999999IA1099IA2999-00209KA1120N-00011MA1999999099741MD1310061+9999MW1471REMSYN094AAXX  22061 11841 31/02 90901 10006 20005 39974 40366 53006 74711 333 21001 31102 50072 89/01;EQDQ01  00002PRCP99
0171118410999992000102209004+49230+018610FM-12+031599999V0209999C000012200019N0060001N1+00571+00401103601ADDAY141031AY211031GA1001+999999999GF100991001001999999001001MA1999999099751MD1010011+9999MW1281REMSYN066AAXX  22091 11841 41956 00000 10057 20040 39975 40360 50001 72841;
0201118410999992000102212004+49230+018610FM-12+031599999V0202401N003012200019N0200001N1+01371+00291103301ADDAA199000091AY141061AY241061GA1001+999999999GF100991001001999999001001MA1999999099571MD1810181+9999MW1021REMSYN066AAXX  22121 11841 31970 02403 10137 20029 39957 40330 58018 70244;EQDQ01  00002PRCP99
0143118410999992000102215004+49230+018610FM-12+031599999V0202401N002012200019N0200001N1+01311+00321103211ADDGA1001+999999999GF100991001001999999001001MA1999999099471MD1610101+9999REMSYN060AAXX  22151 11841 42970 02402 10131 20032 39947 40321 56010;
0196118410999992000102218004+49230+018610FM-12+031599999V0209999C000012200019N0100001N1+00411+00211103421ADDAA199000091GA1001+999999999GF100991001001999999001001KA1999M+01501MA1999999099561MD1210091+9999REMSYN070AAXX  22181 11841 32960 00000 10041 20021 39956 40342 52009 333 10150;EQDQ01  00002PRCP99
0171118410999992000102221004+49230+018610FM-12+031599999V0209999C000012200019N0060001N1+00161+00061103491ADDAY101031AY201031GA1001+999999999GF100991001001999999001001MA1999999099591MD1110031+9999MW1101REMSYN066AAXX  22211 11841 41956 00000 10016 20006 39959 40349 51003 71000;
0225118410999992000102300004+49230+018610FM-12+031599999V0209999C000010006019N0003001N1+00021-00011103451ADDAA199000091AY111061AY211061GA1091+000609999GF109991091999999999999999GJ104449MA1999999099531MD1710061+9999MW1471REMSYN082AAXX  23001 11841 31/03 90000 10002 21001 39953 40345 57006 74711 333 55074 89/02;EQDQ01  00002PRCP99
0181118410999992000102303004+49230+018610FM-12+031599999V0201401N001010006019N0004001N1+00021-00011103421ADDAY141031AY241031GA1091+000609999GF109991091999999999999999MA1999999099501MD1510031+9999MW1431REMSYN076AAXX  23031 11841 41/04 91401 10002 21001 39950 40342 55003 74344 333 89/02;
0260118410999992000102306004+49230+018610FM-12+031599999V0200901N001010003019N0001001N1+00051+00041103381ADDAA199000091AY141061AY241061GA1091+000309999GF109991091999999999999999IA1099IA2999-00209KA1120N-00021MA1999999099471MD1710031+9999MW1471REMSYN094AAXX  23061 11841 31/01 90901 10005 20004 39947 40338 57003 74744 333 21002 31102 50102 89/01;EQDQ01  00002PRCP99
0187118410999992000102309004+49230+018610FM-12+031599999V0200801N002012200019N0006001N1+00291+00261103351ADDAY141031AY241031GA1041+001209069GF104991041061001501001001MA1999999099471MD1010001+9999MW1421REMSYN082AAXX  23091 11841 41206 40802 10029 20026 39947 40335 50000 74244 84600 333 84704;
0217118410999992000102312004+49230+018610FM-12+031599999V0202601N002012200019N0100001N1+01371+00351102911ADDAA199000091AY141061AY241061GA1011+069009019GF101991001001999999001011MA1999999099191MD1710281+9999MW1021REMSYN082AAXX  23121 11841 31960 12602 10137 20035 39919 40291 57028 70244 80001 333 81073;EQDQ01  00002PRCP99
0159118410999992000102315004+49230+018610FM-12+031599999V0202301N001012200019N0200001N1+01331+00391102781ADDGA1011+069009019GF101991001001999999001011MA1999999099061MD1610131+9999REMSYN076AAXX  23151 11841 42970 12301 10133 20039 39906 40278 56013 80001 333 81073;
0196118410999992000102318004+49230+018610FM-12+031599999V0209999C000012200019N0120001N1+00401+00241102881ADDAA199000091GA1001+999999999GF100991001001999999001001KA1999M+01531MA1999999099041MD1810021+9999REMSYN070AAXX  23181 11841 32962 00000 10040 20024 39904 40288 58002 333 10153;EQDQ01  00002PRCP99
0171118410999992000102321004+49230+018610FM-12+031599999V0209999C000012200019N0020001N1+00071+00001102891ADDAY101031AY201031GA1001+999999999GF100991001001999999001001MA1999999099001MD1710041+9999MW1101REMSYN066AAXX  23211 11841 41920 00000 10007 21000 39900 40289 57004 71000;
0211118410999992000102400004+49230+018610FM-12+031599999V0209999C000012200019N0008001N1-00061-00091102791ADDAA199000091AY101061AY201061GA1001+999999999GF100991001001999999001001MA1999999098881MD1810121+9999MW1461REMSYN076AAXX  24001 11841 31908 00000 11006 21009 39888 40279 58012 74600 333 55065;EQDQ01  00002PRCP99
0181118410999992000102403004+49230+018610FM-12+031599999V0201401N001010009019N0003001N1-00041-00051102691ADDAY141031AY241031GA1091+000909999GF109991091999999999999999MA1999999098791MD1810091+9999MW1451REMSYN076AAXX  24031 11841 41/03 91401 11004 21005 39879 40269 58009 74544 333 89/03;
0260118410999992000102406004+49230+018610FM-12+031599999V0201101N001010006019N0002001N1-00051-00061102651ADDAA199000091AY141061AY241061GA1091+000609999GF109991091999999999999999IA1149IA2999-00309KA1120N-00101MA1999999098751MD1610041+9999MW1431REMSYN094AAXX  24061 11841 31/02 91101 11005 21006 39875 40265 56004 74344 333 21010 34103 50152 89/02;EQDQ01  00002PRCP99
0187118410999992000102409004+49230+018610FM-12+031599999V0209999C000012200019N0030001N1+00401+00361102521ADDAY141031AY241031GA1011+001509069GF101991011061001501041001MA1999999098691MD1810061+9999MW1281REMSYN082AAXX  24091 11841 41230 10000 10040 20036 39869 40252 58006 72844 81640 333 81705;
0217118410999992000102412004+49230+018610FM-12+031599999V0202601N004012200019N0150001N1+01321+00411102191ADDAA199000091AY141061AY241061GA1011+039009079GF101991011001999999041001MA1999999098491MD1810201+9999MW1021REMSYN082AAXX  24121 11841 31965 12604 10132 20041 39849 40219 58020 70244 81040 333 81363;EQDQ01  00002PRCP99
0165118410999992000102415004+49230+018610FM-12+031599999V0202601N00101036001CN0150001N1+01261+00501102121ADDGA1031+012009069GF107991031051012501071999MA1999999098421MD1510071+9999REMSYN082AAXX  24151 11841 42665 72601 10126 20050 39842 40212 55007 8357/ 333 83640 87358;
0224118410999992000102418004+49230+018610FM-12+031599999V0201601N001012200019N0100001N1+01001+00441102211ADDAA199000091GA1021+015009059GF102991021051017501999001KA1120M+01451MA1999999098471MD1310051+9999REMSYN082AAXX  24181 11841 32760 21601 10100 20044 39847 40221 53005 82500 333 10145 82650;EQDQ01  00002PRCP99Q02    003SCOMCG
0159118410999992000102421004+49230+018610FM-12+031599999V0209999C000012200019N0100001N1+00601+00421102271ADDGA1011+007809059GF101991011051008001001001MA1999999098481MD1010011+9999REMSYN076AAXX  24211 11841 42560 10000 10060 20042 39848 40227 50001 81500 333 81626;
0231118410999992000102500004+49230+018610FM-12+031599999V0209999C000010084019N0042001N1+00491+00371102251ADDAA199000091AY111061AY211061GA1051+008409059GF105991051051008001001001GJ103189MA1999999098441MD1810041+9999MW1101REMSYN088AAXX  25001 11841 31542 50000 10049 20037 39844 40225 58004 71011 85500 333 55053 85628;EQDQ01  00002PRCP99
0187118410999992000102503004+49230+018610FM-12+031599999V0209999C000010054019N0028001N1+00561+00441102111ADDAY121031AY221031GA1081+005409059GF108991081051004501999999MA1999999098321MD1710121+9999MW1101REMSYN082AAXX  25031 11841 41428 80000 10056 20044 39832 40211 57012 71022 885// 333 88618;
0272118410999992000102506004+49230+018610FM-12+031599999V0209999C00001036001CN0028001N1+00571+00461102051ADDAA199000091AY121061AY221061GA1041+009609069GF108991041051008001071999IA1099IA2999+00209KA1120N+00471MA1999999098261MD1510061+9999MW1101REMSYN106AAXX  25061 11841 31528 80000 10057 20046 39826 40205 55006 71022 8457/ 333 20047 31002 50102 84632 88360;EQDQ01  00002PRCP99
0187118410999992000102509004+49230+018610FM-12+031599999V0202901N001010063019N0022001N1+00811+00621101981ADDAY121031AY221031GA1081+006309059GF108991081051008001999999MA1999999098231MD1810031+9999MW1101REMSYN082AAXX  25091 11841 41522 82901 10081 20062 39823 40198 58003 71022 885// 333 88621;
0217118410999992000102512004+49230+018610FM-12+031599999V0209999C000010066019N0046001N1+01181+00791101701ADDAA199000091AY121061AY221061GA1081+006609059GF108991081051008001999999MA1999999098011MD1710221+9999MW1101REMSYN082AAXX  25121 11841 31546 80000 10118 20079 39801 40170 57022 71022 885// 333 88622;EQDQ01  00002PRCP99
0101118410999992000102515004+49230+018610FM-12+031599999V0202601N004019999999N9999999N1+01381+00931101501ADDMA1999999097841MD1710221+9999REMSYN060AAXX  25151 11841 46/// /2604 10138 20093 39784 40150 57022;
0154118410999992000102518004+49230+018610FM-12+031599999V0209999C000019999999N9999999N1+01081+00811101591ADDAA199000091KA1999M+01411MA1999999097891MD1210041+9999REMSYN070AAXX  25181 11841 36/// /0000 10108 20081 39789 40159 52004 333 10141;EQDQ01  00002PRCP99
0187118410999992000102521004+49230+018610FM-12+031599999V0202101N001010054019N0030001N1+00801+00711101621ADDAY121031AY221031GA1081+005409059GF108991081051004501999999MA1999999097881MD1610011+9999MW1101REMSYN082AAXX  25211 11841 41430 82101 10080 20071 39788 40162 56001 71022 885// 333 88618;
0141118410999992000102600004+49230+018610FM-12+031599999V0209999C000019999999N9999999N1+00761+00701101551ADDAA199000091MA1999999097811MD1710041+9999REMSYN070AAXX  26001 11841 36/// /0000 10076 20070 39781 40155 57004 333 55004;EQDQ01  00002PRCP99
0193118410999992000102603004+49230+018610FM-12+031599999V0209999C00001007501CN0020001N1+00711+00651101491ADDAY121031AY221031GA1021+008109069GF107991071051008001999999MA1999999097741MD1710061+9999MW1101REMSYN088AAXX  26031 11841 41520 70000 10071 20065 39774 40149 57006 71022 875// 333 82627 86650;
0272118410999992000102606004+49230+018610FM-12+031599999V0209999C00001090001CN0008001N1+00641+00601101511ADDAA199000091AY121061AY221061GA1021+001809079GF105991021061001501031011IA1099IA2999+00409KA1120N+00571MA1999999097751MD1310011+9999MW1421REMSYN106AAXX  26061 11841 31208 50000 10064 20060 39775 40151 53001 74222 82631 333 20057 31004 50112 82706 84360;EQDQ01  00002PRCP99
0193118410999992000102609004+49230+018610FM-12+031599999V0202801N00201090001CN0030001N1+01111+00881101421ADDAY141031AY241031GA1011+018009069GF105991011051017501031011MA1999999097731MD1810021+9999MW1101REMSYN088AAXX  26091 11841 41730 52802 10111 20088 39773 40142 58002 71044 81531 333 81656 84360;
0233118410999992000102612004+49230+018610FM-12+031599999V0202501N004010180019N0100001N1+01581+01081101191ADDAA199000091AY141061AY241061GA1061+018009059GF106991061051017501999001MA1999999097571MD1610161+9999MW1031REMSYN082AAXX  26121 11841 31760 62504 10158 20108 39757 40119 56016 70344 86500 333 86656;EQDQ01+000002SCOMCGQ02  00002PRCP99
0206118410999992000102615004+49230+018610FM-12+031599999V0202801N003010150019N0100001N1+01481+01001101191ADDAY161031AY221031GA1071+015009059GF107991071051017501999001MA1999999097551MD1510021+9999MW1601REMSYN082AAXX  26151 11841 41760 72803 10148 20100 39755 40119 55002 76062 87500 333 87650;EQDQ01    003SCOMCG
0229118410999992000102618004+49230+018610FM-12+031599999V0202801N00201036001CN0030001N1+01221+01081101361ADDAA112001091AY161061AY221061GA1041+015009069GF108991041051017501021999KA1120M+01661MA1999999097691MD1110141+9999MW1611REMSYN100AAXX  26181 11841 11730 82802 10122 20108 39769 40136 51014 60012 76162 8452/ 333 10166 84650 88458;
0193118410999992000102621004+49230+018610FM-12+031599999V0202501N001010042019N0050001N1+01121+01061101331ADDAY161031AY261031GA1051+004209069GF108991081051004501999999MA1999999097641MD1610051+9999MW1611REMSYN088AAXX  26211 11841 41450 82501 10112 20106 39764 40133 56005 76166 885// 333 85614 88620;
0224118410999992000102700004+49230+018610FM-12+031599999V0209999C00001004201CN0100001N1+01061+00981101311ADDAA106008991AY161061AY221061GA1021+004509079GF107991071051004501999999GJ100129MA1999999097621MD1810021+9999MW1021REMSYN100AAXX  27001 11841 11460 70000 10106 20098 39762 40131 58002 60091 70262 875// 333 55002 82715 87630;
0165118410999992000102703004+49230+018610FM-12+031599999V0202701N00101007501CN0100001N1+00831+00711101471ADDGA1021+007809069GF107991071051008001001001MA1999999097741MD1110121+9999REMSYN082AAXX  27031 11841 42560 72701 10083 20071 39774 40147 51012 87500 333 82626 86636;
0231118410999992000102706004+49230+018610FM-12+031599999V0202801N00101000601CN0100001N1+00651+00561101621ADDAA112008991GA1021+000909079GF106991051051000751071001IA1119IA2999+00509KA1120N+00651MA1999999097861MD1310121+9999REMSYN106AAXX  27061 11841 12160 62801 10065 20056 39786 40162 53012 60092 85570 333 20065 32005 50082 82703 85632;
0159118410999992000102709004+49230+018610FM-12+031599999V0202601N003010360019N0200001N1+01061+00501101701ADDGA1041+010809029GF105991041021012501061001MA1999999097991MD1310131+9999REMSYN076AAXX  27091 11841 42670 52603 10106 20050 39799 40170 53013 84260 333 84836;
0204118410999992000102712004+49230+018610FM-12+031599999V0202901N002010360019N0200001N1+01031+00401101771ADDAA106000791AY181061AY221061GA1041+013809029GF105991041021012501061001MA1999999098051MD1110061+9999MW1251REMSYN088AAXX  27121 11841 11670 52902 10103 20040 39805 40177 51006 69901 72582 84260 333 84846;
0178118410999992000102715004+49230+018610FM-12+031599999V0202701N003010150019N0200001N1+00961+00421101871ADDGA1051+015009059GF105991051051017501999001MA1999999098141MD1310091+9999REMSYN076AAXX  27151 11841 42770 52703 10096 20042 39814 40187 53009 85500 333 85650;EQDQ01    003SCOMCG
0214118410999992000102718004+49230+018610FM-12+031599999V0203001N001012200019N0150001N1+00491+00321102141ADDAA112000791GA1011+018009059GF101991011051017501999001KA1120M+01121MA1999999098331MD1210191+9999REMSYN088AAXX  27181 11841 12765 13001 10049 20032 39833 40214 52019 69902 81500 333 10112 81656;EQDQ01+000002SCOMCG
0178118410999992000102721004+49230+018610FM-12+031599999V0209999C000010210019N0100001N1+00481+00381102251ADDGA1071+021009079GF107991071999022501071999MA1999999098441MD1110111+9999REMSYN076AAXX  27211 11841 42860 70000 10048 20038 39844 40225 51011 8707/ 333 87357;EQDQ01+000002SCOLCG
0203118410999992000102800004+49230+018610FM-12+031599999V0202301N001010210019N0100001N1+00411+00341102311ADDAA199000021GA1071+021009079GF107991071999022501071999GJ101749MA1999999098491MD1110051+9999REMSYN082AAXX  28001 11841 32860 72301 10041 20034 39849 40231 51005 8707/ 333 55029 87357;EQDQ01+000002SCOLCG
0101118410999992000102803004+49230+018610FM-12+031599999V0209999C000019999999N9999999N1+00351+00311102301ADDMA1999999098481MD1410001+9999REMSYN060AAXX  28031 11841 46/// /0000 10035 20031 39848 40230 54000;
0272118410999992000102806004+49230+018610FM-12+031599999V0209999C00001001201CN0028001N1+00431+00371102351ADDAA199000091AY111061AY211061GA1041+001509079GF108991081051001501999999IA1099IA2999+00009KA1120N+00291MA1999999098531MD1310031+9999MW1101REMSYN106AAXX  28061 11841 31228 80000 10043 20037 39853 40235 53003 71011 885// 333 20029 31000 50112 84705 88622;EQDQ01  00002PRCP99
0193118410999992000102809004+49230+018610FM-12+031599999V0209999C000010063019N0038001N1+00621+00441102411ADDAY121031AY221031GA1051+006309069GF108991081051008001999999MA1999999098611MD1110081+9999MW1101REMSYN088AAXX  28091 11841 41538 80000 10062 20044 39861 40241 51008 71022 885// 333 85621 88634;
0195118410999992000102812004+49230+018610FM-12+031599999V0209999C00001036001CN0100001N1+00911+00551102291ADDAA199000091GA1041+007509069GF107991041051008001071001MA1999999098541MD1810071+9999REMSYN082AAXX  28121 11841 32560 70000 10091 20055 39854 40229 58007 84570 333 84625 87359;EQDQ01  00002PRCP99
0159118410999992000102815004+49230+018610FM-12+031599999V0203101N001010084019N0100001N1+01011+00681102181ADDGA1071+008409059GF107991071051008001001001MA1999999098451MD1710091+9999REMSYN076AAXX  28151 11841 42560 73101 10101 20068 39845 40218 57009 87500 333 87628;
0214118410999992000102818004+49230+018610FM-12+031599999V0209999C00001007501CN0100001N1+00921+00751102191ADDAA199000091GA1041+009309069GF108991081051008001999999KA1120M+01081MA1999999098441MD1710011+9999REMSYN088AAXX  28181 11841 32560 80000 10092 20075 39844 40219 57001 885// 333 10108 84631 88642;EQDQ01  00002PRCP99
0187118410999992000102821004+49230+018610FM-12+031599999V0209999C000010120019N0070001N1+00871+00761102161ADDAY121031AY221031GA1081+012009059GF108991081051012501999999MA1999999098411MD1810031+9999MW1101REMSYN082AAXX  28211 11841 41657 80000 10087 20076 39841 40216 58003 71022 885// 333 88640;
0171118410999992000102903004+49230+018610FM-12+031599999V0209999C000012200019N0035001N1+00441+00381102101ADDAY101031AY201031GA1001+999999999GF100991001001999999001001MA1999999098291MD1710101+9999MW1101REMSYN066AAXX  29031 11841 41935 00000 10044 20038 39829 40210 57010 71000;
0266118410999992000102906004+49230+018610FM-12+031599999V0209999C000012200019N0060001N1+00301+00261102151ADDAA199000091AY141061AY201061GA1011+033009079GF102991011001999999041011IA1099IA2999+00109KA1120N+00281MA1999999098321MD1310031+9999MW1111REMSYN100AAXX  29061 11841 31956 20000 10030 20026 39832 40215 53003 71140 81041 333 20028 31001 50062 81361;EQDQ01  00002PRCP99
0178118410999992000102909004+49230+018610FM-12+031599999V0202801N001012200019N0300001N1+01081+00601102081ADDGA1031+069009099GF103991999001999999001091MA1999999098361MD1110041+9999REMSYN076AAXX  29091 11841 42980 32801 10108 20060 39836 40208 51004 80009 333 83173;EQDQ01+000002SCOTLC
0189118410999992000102912004+49230+018610FM-12+031599999V0201901N003012200019N0400001N1+01561+00311101841ADDAA199000091GA1011+075009019GF101991001001999999001011MA1999999098181MD1810181+9999REMSYN076AAXX  29121 11841 32982 11903 10156 20031 39818 40184 58018 80001 333 81075;EQDQ01  00002PRCP99
0159118410999992000102915004+49230+018610FM-12+031599999V0202001N002012200019N0400001N1+01321+00411101791ADDGA1011+063009019GF101991001001999999001011MA1999999098111MD1710071+9999REMSYN076AAXX  29151 11841 42982 12002 10132 20041 39811 40179 57007 80001 333 81071;
0154118410999992000102918004+49230+018610FM-12+031599999V0200801N001019999999N9999999N1+00711+00481102001ADDAA199000091KA1999M+01651MA1999999098241MD1210131+9999REMSYN070AAXX  29181 11841 36/// /0801 10071 20048 39824 40200 52013 333 10165;EQDQ01  00002PRCP99
0101118410999992000102921004+49230+018610FM-12+031599999V0201401N001019999999N9999999N1+00531+00371102021ADDMA1999999098231MD1410001+9999REMSYN060AAXX  29211 11841 46/// /1401 10053 20037 39823 40202 54000;
0141118410999992000103000004+49230+018610FM-12+031599999V0209999C000019999999N9999999N1+00451+00341102011ADDAA199000091MA1999999098211MD1710031+9999REMSYN070AAXX  30001 11841 36/// /0000 10045 20034 39821 40201 57003 333 55066;EQDQ01  00002PRCP99
0187118410999992000103003004+49230+018610FM-12+031599999V0209999C000012200019N0060001N1+00261+00221101961ADDAY101031AY201031GA1011+027009079GF101991011001999999031001MA1999999098131MD1810071+9999MW1101REMSYN082AAXX  30031 11841 41956 10000 10026 20022 39813 40196 58007 71000 81030 333 81359;
0260118410999992000103006004+49230+018610FM-12+031599999V0200801N001010009019N0003001N1+00141+00111101951ADDAA199000091AY101061AY201061GA1091+000909999GF109991091999999999999999IA1099IA2999-00109KA1120N+00101MA1999999098101MD1510031+9999MW1471REMSYN094AAXX  30061 11841 31/03 90801 10014 20011 39810 40195 55003 74700 333 20010 31101 50102 89/03;EQDQ01  00002PRCP99
0171118410999992000103009004+49230+018610FM-12+031599999V0202201N001012200019N0120001N1+00841+00521101621ADDAY141031AY241031GA1001+999999999GF100991001001999999001001MA1999999097881MD1810221+9999MW1011REMSYN066AAXX  30091 11841 41962 02201 10084 20052 39788 40162 58022 70144;
0217118410999992000103012004+49230+018610FM-12+031599999V0201301N003012200019N0150001N1+01451+00661101201ADDAA199000091AY141061AY241061GA1021+010509029GF103991021011012501001011MA1999999097561MD1710321+9999MW1021REMSYN082AAXX  30121 11841 31665 31303 10145 20066 39756 40120 57032 70244 82101 333 82835;EQDQ01  00002PRCP99
0159118410999992000103015004+49230+018610FM-12+031599999V0201201N002010108019N0180001N1+01311+00691100931ADDGA1071+010809059GF107991071051012501001001MA1999999097281MD1810281+9999REMSYN076AAXX  30151 11841 42668 71202 10131 20069 39728 40093 58028 87500 333 87636;
0208118410999992000103018004+49230+018610FM-12+031599999V0201501N003010129019N0200001N1+01441+00811100761ADDAA199000091GA1071+012909059GF107991071051012501001001KA1120M+01551MA1999999097131MD1810151+9999REMSYN082AAXX  30181 11841 32670 71503 10144 20081 39713 40076 58015 87500 333 10155 87643;EQDQ01  00002PRCP99
0159118410999992000103021004+49230+018610FM-12+031599999V0201901N004010117019N0250001N1+01571+00851100701ADDGA1081+011709059GF108991081051012501999999MA1999999097091MD1510041+9999REMSYN076AAXX  30211 11841 42675 81904 10157 20085 39709 40070 55004 885// 333 88639;
0203118410999992000103100004+49230+018610FM-12+031599999V0201801N003010105019N0250001N1+01541+00891100651ADDAA199000091GA1081+010509059GF108991081051012501999999GJ102949MA1999999097041MD1510051+9999REMSYN082AAXX  31001 11841 32675 81803 10154 20089 39704 40065 55005 885// 333 55049 88635;EQDQ01  00002PRCP99
0159118410999992000103103004+49230+018610FM-12+031599999V0201201N002010102019N0250001N1+01481+00871100591ADDGA1081+010209059GF108991081051012501999999MA1999999096971MD1810071+9999REMSYN076AAXX  31031 11841 42675 81202 10148 20087 39697 40059 58007 885// 333 88634;
0238118410999992000103106004+49230+018610FM-12+031599999V0209999C000010099019N0250001N1+01441+00941100531ADDAA199000091GA1081+009909059GF108991081051012501999999IA1019IA2999+01109KA1120N+01351MA1999999096911MD1610061+9999REMSYN094AAXX  31061 11841 32675 80000 10144 20094 39691 40053 56006 885// 333 20135 30011 50102 88633;EQDQ01  00002PRCP99
0159118410999992000103109004+49230+018610FM-12+031599999V0201901N005010360019N0250001N1+01711+00931100421ADDGA1041+010809059GF106991041051012501031001MA1999999096841MD1710071+9999REMSYN076AAXX  31091 11841 42675 61905 10171 20093 39684 40042 57007 84530 333 84636;
0195118410999992000103112004+49230+018610FM-12+031599999V0202001N00501015001CN0250001N1+01921+00821100271ADDAA199000091GA1031+013809089GF106991061081012501001001MA1999999096721MD1710121+9999REMSYN082AAXX  31121 11841 32675 62005 10192 20082 39672 40027 57012 86800 333 83846 83656;EQDQ01  00002PRCP99
0178118410999992000103115004+49230+018610FM-12+031599999V0202101N005010150019N0250001N1+01961+00741100261ADDGA1051+015009059GF105991051051017501999001MA1999999096711MD1510011+9999REMSYN076AAXX  31151 11841 42775 52105 10196 20074 39671 40026 55001 85500 333 85650;EQDQ01    003SCOMCG
0224118410999992000103118004+49230+018610FM-12+031599999V0202201N005010150019N0200001N1+01901+00811100411ADDAA199000091GA1071+015009059GF107991071051017501999001KA1120M+02061MA1999999096851MD1110141+9999REMSYN082AAXX  31181 11841 32770 72205 10190 20081 39685 40041 51014 87500 333 10206 87650;EQDQ01  00002PRCP99Q02    003SCOMCG
0159118410999992000103121004+49230+018610FM-12+031599999V0202401N006010150019N0200001N1+01641+00911100581ADDGA1081+015009059GF108991081051017501999999MA1999999096981MD1310131+9999REMSYN076AAXX  31211 11841 42770 82406 10164 20091 39698 40058 53013 885// 333 88650;
0209118410999992000110100004+49230+018610FM-12+031599999V0202301N00401036001CN0200001N1+01301+00871100711ADDAA199000091GA1041+015009069GF107991041051017501031001GJ100789MA1999999097071MD1210091+9999REMSYN088AAXX  01001 11841 32770 72304 10130 20087 39707 40071 52009 84530 333 55013 84650 84358;EQDQ01  00002PRCP99
0187118410999992000110103004+49230+018610FM-12+031599999V0203401N002010150019N0100001N1+01091+00901100801ADDAY161031AY221031GA1081+015009059GF108991081051017501999999MA1999999097131MD1310061+9999MW1611REMSYN082AAXX  01031 11841 41760 83402 10109 20090 39713 40080 53006 76162 885// 333 88650;
0259118410999992000110106004+49230+018610FM-12+031599999V0203401N002010021019N0050001N1+00871+00781100831ADDAA112007191AY161061AY221061GA1051+002109079GF108991081051002501999999IA1119IA2999+00809KA1120N+00871MA1999999097131MD1510001+9999MW1631REMSYN112AAXX  01061 11841 11350 83402 10087 20078 39713 40083 55000 60072 76362 885// 333 20087 32008 50092 85707 88618;
0193118410999992000110109004+49230+018610FM-12+031599999V0202801N002010036019N0080001N1+00831+00721100931ADDAY161031AY261031GA1051+003609079GF108991081051004501999999MA1999999097221MD1110091+9999MW1611REMSYN088AAXX  01091 11841 41458 82802 10083 20072 39722 40093 51009 76166 885// 333 85712 88623;
0210118410999992000110112004+49230+018610FM-12+031599999V0202701N001010024019N0080001N1+00831+00711100931ADDAA106013091AY161061AY261061GA1061+002409079GF108991081051002501999999MA1999999097221MD1510001+9999MW1611REMSYN094AAXX  01121 11841 11358 82701 10083 20071 39722 40093 55000 60131 76166 885// 333 86708 88621;
0193118410999992000110115004+49230+018610FM-12+031599999V0202501N00101002101CN0090001N1+00801+00691100961ADDAY161031AY261031GA1041+002409079GF107991071051002501999999MA1999999097241MD1310021+9999MW1611REMSYN088AAXX  01151 11841 41359 72501 10080 20069 39724 40096 53002 76166 875// 333 84708 87625;
0229118410999992000110118004+49230+018610FM-12+031599999V0202801N001012200019N0120001N1+00711+00591101061ADDAA112017091AY161061AY211061GA1021+007809069GF103991021051008001031001KA1120M+00871MA1999999097331MD1010091+9999MW1011REMSYN100AAXX  01181 11841 11562 32801 10071 20059 39733 40106 50009 60172 70161 82530 333 10087 82626 83360;
0193118410999992000110121004+49230+018610FM-12+031599999V0209999C00001002101CN0080001N1+00661+00581101201ADDAY111031AY211031GA1031+001809079GF107991071051002501001001MA1999999097451MD1110121+9999MW1101REMSYN088AAXX  01211 11841 41358 70000 10066 20058 39745 40120 51012 71011 87500 333 83706 87621;
0218118410999992000110200004+49230+018610FM-12+031599999V0209999C000010075019N0070001N1+00691+00621101251ADDAA199000021AY111061AY211061GA1041+006309069GF108991081051008001999999GJ100009MA1999999097511MD1310061+9999MW1101REMSYN094AAXX  02001 11841 31557 80000 10069 20062 39751 40125 53006 71011 885// 333 55000 84621 88625;
0193118410999992000110203004+49230+018610FM-12+031599999V0209999C00001001201CN0070001N1+00691+00621101341ADDAY121031AY221031GA1031+001509079GF108991081051001501999999MA1999999097591MD1110081+9999MW1101REMSYN088AAXX  02031 11841 41257 80000 10069 20062 39759 40134 51008 71022 885// 333 83705 88622;
0260118410999992000110206004+49230+018610FM-12+031599999V0201101N002010024019N0030001N1+00531+00441101441ADDAA199000091AY121061AY221061GA1051+002409069GF105991051061002501001001IA1119IA2999+00309KA1120N+00531MA1999999097671MD1310081+9999MW1101REMSYN094AAXX  02061 11841 31330 51102 10053 20044 39767 40144 53008 71022 85600 333 20053 32003 85708;EQDQ01  00002PRCP99
0159118410999992000110209004+49230+018610FM-12+031599999V0201301N001012200019N0150001N1+00901+00541101391ADDGA1011+002109069GF103991021011002501001011MA1999999097671MD1010001+9999REMSYN076AAXX  02091 11841 42365 31301 10090 20054 39767 40139 50000 82101 333 81707;
0195118410999992000110212004+49230+018610FM-12+031599999V0202501N001012200019N0200001N1+01341+00601101171ADDAA199000091GA1011+009909089GF104991011011012501041011MA1999999097511MD1810161+9999REMSYN082AAXX  02121 11841 32670 42501 10134 20060 39751 40117 58016 81141 333 81833 83070;EQDQ01  00002PRCP99
0159118410999992000110215004+49230+018610FM-12+031599999V0209999C000012200019N0200001N1+01161+00681101141ADDGA1011+009909029GF102991011011012501001021MA1999999097461MD1510051+9999REMSYN076AAXX  02151 11841 42670 20000 10116 20068 39746 40114 55005 81102 333 81833;
0208118410999992000110218004+49230+018610FM-12+031599999V0209999C000012200019N0120001N1+00611+00441101191ADDAA199000091GA1011+009009059GF101991011051008001001001KA1120M+01471MA1999999097441MD1810021+9999REMSYN082AAXX  02181 11841 32562 10000 10061 20044 39744 40119 58002 81500 333 10147 81630;EQDQ01  00002PRCP99
0159118410999992000110221004+49230+018610FM-12+031599999V0200201N00101036001CN0100001N1+00551+00461101121ADDGA1041+018009059GF105991041051017501031001MA1999999097361MD1810081+9999REMSYN076AAXX  02211 11841 42760 50201 10055 20046 39736 40112 58008 84530 333 84656;
0209118410999992000110300004+49230+018610FM-12+031599999V0201201N00101036001CN0100001N1+01061+00601100981ADDAA199000091GA1021+012909069GF105991021051012501031001GJ104209MA1999999097291MD1710071+9999REMSYN088AAXX  03001 11841 32660 51201 10106 20060 39729 40098 57007 82530 333 55070 82643 83357;EQDQ01  00002PRCP99
0165118410999992000110303004+49230+018610FM-12+031599999V0201401N00201007501CN0100001N1+01041+00581101011ADDGA1041+008409069GF107991071051008001001001MA1999999097321MD1310031+9999REMSYN082AAXX  03031 11841 42560 71402 10104 20058 39732 40101 53003 87500 333 84628 84631;
0232118410999992000110306004+49230+018610FM-12+031599999V0201401N001010099019N0150001N1+01041+00621101011ADDAA199000091GA1071+009909059GF107991071051012501001001IA1099IA2999+00209KA1120N+00451MA1999999097321MD1510001+9999REMSYN088AAXX  03061 11841 32665 71401 10104 20062 39732 40101 55000 87500 333 20045 31002 87633;EQDQ01  00002PRCP99
0165118410999992000110309004+49230+018610FM-12+031599999V0201201N00201012001CN0200001N1+01161+00651100991ADDGA1041+010209069GF107991071051012501001001MA1999999097321MD1010001+9999REMSYN082AAXX  03091 11841 42670 71202 10116 20065 39732 40099 50000 87500 333 84634 86650;
0217118410999992000110312004+49230+018610FM-12+031599999V0201801N002010150019N0250001N1+01461+00591100821ADDAA199000091GA1021+009909089GA2041+015009069GF106991061081012501001001MA1999999097191MD1810131+9999REMSYN088AAXX  03121 11841 32675 61802 10146 20059 39719 40082 58013 86800 333 82833 84650 86656;EQDQ01  00002PRCP99
0178118410999992000110315004+49230+018610FM-12+031599999V0201601N005010150019N0250001N1+01421+00561100741ADDGA1061+015009059GF106991061051017501999001MA1999999097111MD1710081+9999REMSYN076AAXX  03151 11841 42775 61605 10142 20056 39711 40074 57008 86500 333 86650;EQDQ01    003SCOMCG
0224118410999992000110318004+49230+018610FM-12+031599999V0201301N002010180019N0300001N1+01171+00541100851ADDAA199000091GA1061+018009059GF106991061051017501999001KA1120M+01541MA1999999097181MD1010071+9999REMSYN082AAXX  03181 11841 32780 61302 10117 20054 39718 40085 50007 86500 333 10154 86656;EQDQ01+000002SCOMCGQ02  00002PRCP99
0165118410999992000110321004+49230+018610FM-12+031599999V0201601N00501036001CN0300001N1+01371+00721100791ADDGA1041+018009069GF107991041051017501031001MA1999999097151MD1510031+9999REMSYN082AAXX  03211 11841 42780 71605 10137 20072 39715 40079 55003 84530 333 84656 86360;
0219118410999992000110400004+49230+018610FM-12+031599999V0201101N003010150019N0250001N1+01451+00781100701ADDAA199000091GA1071+015009059GF107991071051017501999001GJ100189MA1999999097081MD1710071+9999REMSYN082AAXX  04001 11841 32775 71103 10145 20078 39708 40070 57007 87500 333 55003 87650;EQDQ01  00002PRCP99Q02    003SCOMCG
0165118410999992000110403004+49230+018610FM-12+031599999V0201601N003012200019N0250001N1+01461+00761100641ADDGA1011+027009039GF104991041001999999071001MA1999999097021MD1710061+9999REMSYN082AAXX  04031 11841 42975 41603 10146 20076 39702 40064 57006 84070 333 81359 84362;
0253118410999992000110406004+49230+018610FM-12+031599999V0201601N00501036001CN0250001N1+01431+00741100601ADDAA112000791AY161061AY221061GA1021+018009069GF107991021051017501071001IA1099IA2999+01009KA1120N+01141MA1999999096981MD1510041+9999MW1601REMSYN106AAXX  04061 11841 11775 71605 10143 20074 39698 40060 55004 69902 76062 82570 333 20114 31010 82656 87358;
0193118410999992000110409004+49230+018610FM-12+031599999V0201801N00301012001CN0150001N1+01331+00881100801ADDAY161031AY221031GA1031+009909069GF108991081051012501999999MA1999999097161MD1110181+9999MW1211REMSYN088AAXX  04091 11841 41665 81803 10133 20088 39716 40080 51018 72162 885// 333 83633 88650;
0210118410999992000110412004+49230+018610FM-12+031599999V0202301N001010069019N0100001N1+01231+00951100911ADDAA106000591AY161061AY221061GA1061+006909069GF108991081051008001999999MA1999999097251MD1110091+9999MW1211REMSYN094AAXX  04121 11841 11560 82301 10123 20095 39725 40091 51009 69961 72162 885// 333 86623 88640;
0215118410999992000110415004+49230+018610FM-12+031599999V0202701N001010033019N0015001N1+01081+01001100951ADDAY161031AY221031GA1031+001809079GA2051+003309079GF108991081051001501999999MA1999999097271MD1010021+9999MW1101REMSYN094AAXX  04151 11841 41215 82701 10108 20100 39727 40095 50002 71062 885// 333 83706 85711 88623;
0223118410999992000110418004+49230+018610FM-12+031599999V0209999C000010105019N0025001N1+01031+00971100851ADDAA112002091AY161061AY221061GA1081+010509059GF108991081051012501999999KA1120M+01461MA1999999097171MD1810101+9999MW1611REMSYN094AAXX  04181 11841 11625 80000 10103 20097 39717 40085 58010 60022 76162 885// 333 10146 88635;
0193118410999992000110421004+49230+018610FM-12+031599999V0202601N003010063019N0100001N1+00901+00731101001ADDAY161031AY261031GA1051+006309069GF108991081051008001999999MA1999999097301MD1110131+9999MW1631REMSYN088AAXX  04211 11841 41560 82603 10090 20073 39730 40100 51013 76366 885// 333 85621 88626;
0218118410999992000110500004+49230+018610FM-12+031599999V0202701N002010108019N0100001N1+00771+00681101171ADDAA106013091AY161061AY261061GA1081+010809059GF108991081051012501999999GJ100009MA1999999097441MD1310141+9999MW1611REMSYN094AAXX  05001 11841 11660 82702 10077 20068 39744 40117 53014 60131 76166 885// 333 55000 88636;
0193118410999992000110503004+49230+018610FM-12+031599999V0202601N00201002101CN0100001N1+00671+00561101471ADDAY161031AY261031GA1011+002109079GF108991081051002501999999MA1999999097721MD1210281+9999MW1611REMSYN088AAXX  05031 11841 41360 82602 10067 20056 39772 40147 52028 76166 885// 333 81707 88640;
0247118410999992000110506004+49230+018610FM-12+031599999V0202701N001010078019N0300001N1+00591+00471101691ADDAA112016091AY161061AY221061GA1061+007809059GF107991061051008001031001IA1119IA2999+00509KA1120N+00581MA1999999097921MD1210201+9999MW1211REMSYN100AAXX  05061 11841 11580 72701 10059 20047 39792 40169 52020 60162 72162 86530 333 20058 32005 86626;
0193118410999992000110509004+49230+018610FM-12+031599999V0202101N001010024019N0150001N1+00641+00521101841ADDAY161031AY221031GA1051+002409079GF108991081071002501999999MA1999999098071MD1210151+9999MW1601REMSYN088AAXX  05091 11841 41365 82101 10064 20052 39807 40184 52015 76062 887// 333 85708 88711;
0204118410999992000110512004+49230+018610FM-12+031599999V0202501N00301012001CN0200001N1+00901+00561101801ADDAA106000191AY161061AY221061GA1031+006009029GF106991051081008001001011MA1999999098061MD1810011+9999MW1021REMSYN088AAXX  05121 11841 11570 62503 10090 20056 39806 40180 58001 69921 70262 85801 333 83820;
0159118410999992000110515004+49230+018610FM-12+031599999V0201901N001012200019N0250001N1+00731+00391101781ADDGA1011+009009029GF101991011021008001001001MA1999999098021MD1610041+9999REMSYN076AAXX  05151 11841 42575 11901 10073 20039 39802 40178 56004 81200 333 81830;
0195118410999992000110518004+49230+018610FM-12+031599999V0209999C000012200019N0150001N1+00251+00181101831ADDAA112000191GA1041+000609069GF104991041061000751001001KA1120M+01031MA1999999098001MD1810021+9999REMSYN088AAXX  05181 11841 12165 40000 10025 20018 39800 40183 58002 69922 84600 333 10103 84702;
0187118410999992000110521004+49230+018610FM-12+031599999V0201401N001010003019N0004001N1+00201+00161101741ADDAY141031AY211031GA1081+000309069GF108991081061000251999999MA1999999097911MD1710091+9999MW1461REMSYN082AAXX  05211 11841 41004 81401 10020 20016 39791 40174 57009 74641 886// 333 88701;
0231118410999992000110600004+49230+018610FM-12+031599999V0200701N001010006019N0035001N1+00271+00241101531ADDAA199000091AY141061AY211061GA1081+000609069GF108991081061000751999999GJ102289MA1999999097721MD1710191+9999MW1281REMSYN088AAXX  06001 11841 31135 80701 10027 20024 39772 40153 57019 72841 886// 333 55038 88702;EQDQ01  00002PRCP99
0187118410999992000110603004+49230+018610FM-12+031599999V0203501N001010003019N0045001N1+00171+00131101321ADDAY121031AY221031GA1081+000309069GF108991081061000751999999MA1999999097501MD1610221+9999MW1101REMSYN082AAXX  06031 11841 41145 83501 10017 20013 39750 40132 56022 71022 886// 333 88701;
0232118410999992000110606004+49230+018610FM-12+031599999V0201201N001010099019N0120001N1+00261+00161100981ADDAA199000091GA1051+009909059GF105991051051012501001001IA1119IA2999+00109KA1120N+00131MA1999999097191MD1710311+9999REMSYN088AAXX  06061 11841 32662 51201 10026 20016 39719 40098 57031 85500 333 20013 32001 85633;EQDQ01  00002PRCP99
0159118410999992000110609004+49230+018610FM-12+031599999V0201701N004012200019N0300001N1+01171+00421100671ADDGA1021+008709029GF104991031081008001001011MA1999999097011MD1710181+9999REMSYN076AAXX  06091 11841 42580 41704 10117 20042 39701 40067 57018 83801 333 82829;
0189118410999992000110612004+49230+018610FM-12+031599999V0201701N004012200019N0300001N1+01331+00371100431ADDAA199000091GA1031+012909029GF105991041081012501001011MA1999999096801MD1810211+9999REMSYN076AAXX  06121 11841 32680 51704 10133 20037 39680 40043 58021 84801 333 83843;EQDQ01  00002PRCP99
0165118410999992000110615004+49230+018610FM-12+031599999V0201701N00501036001CN0300001N1+01231+00331100231ADDGA1031+015009069GF106991031051017501051011MA1999999096591MD1710211+9999REMSYN082AAXX  06151 11841 42780 61705 10123 20033 39659 40023 57021 83551 333 83650 85360;
0214118410999992000110618004+49230+018610FM-12+031599999V0201301N00101036001CN0300001N1+01201+00351100161ADDAA199000091GA1021+015009069GF107991021051017501071001KA1120M+01361MA1999999096521MD1810071+9999REMSYN088AAXX  06181 11841 32780 71301 10120 20035 39652 40016 58007 82570 333 10136 82650 87360;EQDQ01  00002PRCP99
0165118410999992000110621004+49230+018610FM-12+031599999V0201701N00401036001CN0300001N1+01241+00411100011ADDGA1031+015009069GF108991031051017501071999MA1999999096381MD1810141+9999REMSYN082AAXX  06211 11841 42780 81704 10124 20041 39638 40001 58014 8357/ 333 83650 88360;
0209118410999992000110700004+49230+018610FM-12+031599999V0201401N00101036001CN0300001N1+01261+00481099841ADDAA199000091GA1031+015009069GF108991031051017501071999GJ102709MA1999999096221MD1710161+9999REMSYN088AAXX  07001 11841 32780 81401 10126 20048 39622 49984 57016 8357/ 333 55045 83650 88360;EQDQ01  00002PRCP99
0187118410999992000110703004+49230+018610FM-12+031599999V0201501N006010270019N0300001N1+01311+00481099511ADDGA1021+015009069GA2061+027009039GF107991021051017501071011MA1999999095911MD1710311+9999REMSYN088AAXX  07031 11841 42780 71506 10131 20048 39591 49951 57031 82571 333 82650 86359 91012;
0247118410999992000110706004+49230+018610FM-12+031599999V0201601N006010108019N0200001N1+01181+00651099401ADDAA112000191AY161061AY221061GA1061+010809059GF107991061051012501071001IA1099IA2999+00909KA1120N+01161MA1999999095791MD1610121+9999MW1601REMSYN100AAXX  07061 11841 11670 71606 10118 20065 39579 49940 56012 69922 76062 86570 333 20116 31009 86636;
0193118410999992000110709004+49230+018610FM-12+031599999V0201901N00301012001CN0120001N1+01201+00831099451ADDAY161031AY221031GA1031+010809069GF108991081051012501999999MA1999999095841MD1310051+9999MW1611REMSYN088AAXX  07091 11841 41662 81903 10120 20083 39584 49945 53005 76162 885// 333 83636 88646;
0232118410999992000110712004+49230+018610FM-12+031599999V0201501N003010078019N0150001N1+01251+00841099291ADDAA106002091AY161061AY221061GA1011+003009079GA2061+007809069GF108991061051004501021999MA1999999095691MD1510151+9999MW1211REMSYN100AAXX  07121 11841 11465 81503 10125 20084 39569 49929 55015 60021 72162 8652/ 333 81710 86626 88460;
0187118410999992000110715004+49230+018610FM-12+031599999V0200701N001010078019N0150001N1+01131+00781099291ADDAY161031AY221031GA1051+007809059GF106991051051008001071001MA1999999095681MD1810011+9999MW1211REMSYN082AAXX  07151 11841 41565 60701 10113 20078 39568 49929 58001 72162 85570 333 85626;
0229118410999992000110718004+49230+018610FM-12+031599999V0201801N003010120019N0120001N1+01151+00621099491ADDAA112002091AY161061AY221061GA1051+012009069GF107991051051012501071999KA1120M+01301MA1999999095871MD1210191+9999MW1601REMSYN100AAXX  07181 11841 11662 71803 10115 20062 39587 49949 52019 60022 76062 8557/ 333 10130 85640 87356;
0193118410999992000110721004+49230+018610FM-12+031599999V0201601N00101012001CN0150001N1+01121+00711099681ADDAY161031AY221031GA1041+009909069GF107991071051012501001001MA1999999096051MD1310181+9999MW1211REMSYN088AAXX  07211 11841 41665 71601 10112 20071 39605 49968 53018 72162 87500 333 84633 87641;
0219118410999992000110806004+49230+018610FM-12+031599999V0202401N002012200019N0300001N1+01081+00471099901ADDAA112000791GA1041+010209059GF105991041051012501001011IA1099IA2999+00709KA1120N+00931MA1999999096261MD1510011+9999REMSYN094AAXX  08061 11841 12680 52402 10108 20047 39626 49990 55001 69902 84501 333 20093 31007 84634;
0159118410999992000110809004+49230+018610FM-12+031599999V0202101N006010102019N0300001N1+01181+00541100051ADDGA1071+010209059GF107991071051012501001001MA1999999096411MD1210151+9999REMSYN076AAXX  08091 11841 42680 72106 10118 20054 39641 40005 52015 87500 333 87634;
0204118410999992000110812004+49230+018610FM-12+031599999V0202201N003010084019N0300001N1+01121+00571100191ADDAA106000191AY161061AY221061GA1081+008409059GF108991081051008001999999MA1999999096541MD1210131+9999MW1601REMSYN088AAXX  08121 11841 11580 82203 10112 20057 39654 40019 52013 69911 76062 885// 333 88628;
0193118410999992000110815004+49230+018610FM-12+031599999V0202401N00201012001CN0250001N1+01011+00631100441ADDAY161031AY221031GA1021+007809089GF107991071081008001001001MA1999999096771MD1210231+9999MW1021REMSYN088AAXX  08151 11841 41575 72402 10101 20063 39677 40044 52023 70262 87800 333 82826 87634;
0242118410999992000110818004+49230+018610FM-12+031599999V0209999C000012200019N0150001N1+00791+00621100681ADDAA112000191AY161061AY211061GA1041+018009059GF104991041051017501999001KA1120M+01191MA1999999096971MD1210201+9999MW1011REMSYN094AAXX  08181 11841 11765 40000 10079 20062 39697 40068 52020 69912 70161 84500 333 10119 84656;EQDQ01+000002SCOMCG
0159118410999992000110821004+49230+018610FM-12+031599999V0201001N001012200019N0100001N1+00531+00431100801ADDGA1021+013509059GF104991031051012501031001MA1999999097051MD1010081+9999REMSYN076AAXX  08211 11841 42660 41001 10053 20043 39705 40080 50008 83530 333 82645;
0184118410999992000110900004+49230+018610FM-12+031599999V0201201N002012200019N0200001N1+00751+00481100731ADDAA199000021GA1031+013509059GF104991031051012501001011GJ100009MA1999999097011MD1810041+9999REMSYN082AAXX  09001 11841 32670 41202 10075 20048 39701 40073 58004 83501 333 55000 83645;
0178118410999992000110903004+49230+018610FM-12+031599999V0203501N001010150019N0200001N1+00711+00411100761ADDGA1051+015009059GF105991051051017501999001MA1999999097041MD1210031+9999REMSYN076AAXX  09031 11841 42770 53501 10071 20041 39704 40076 52003 85500 333 85650;EQDQ01    003SCOMCG
0253118410999992000110906004+49230+018610FM-12+031599999V0202101N00201007501CN0200001N1+00901+00571100851ADDAA112000791AY161061AY211061GA1031+007809069GF108991081051008001999999IA1099IA2999+00209KA1120N+00451MA1999999097151MD1210111+9999MW1611REMSYN106AAXX  09061 11841 11570 82102 10090 20057 39715 40085 52011 69902 76161 885// 333 20045 31002 83626 88640;
0193118410999992000110909004+49230+018610FM-12+031599999V0202001N00101004201CN0200001N1+00811+00701101071ADDAY161031AY221031GA1021+003009079GF107991071051004501001001MA1999999097351MD1310201+9999MW1611REMSYN088AAXX  09091 11841 41470 72001 10081 20070 39735 40107 53020 76162 87500 333 82710 86625;
0118118410999992000110912004+49230+018610FM-12+031599999V0202201N002019999999N9999999N1+01211+00551101141ADDAA106002091MA1999999097471MD1210171+9999REMSYN066AAXX  09121 11841 16/// /2202 10121 20055 39747 40114 52017 60021;
0159118410999992000110915004+49230+018610FM-12+031599999V0202601N002012200019N0250001N1+00951+00601101321ADDGA1011+012009029GF101991011011012501001001MA1999999097611MD1210141+9999REMSYN076AAXX  09151 11841 42675 12602 10095 20060 39761 40132 52014 81100 333 81840;
0211118410999992000110918004+49230+018610FM-12+031599999V0200601N001012200019N0080001N1+00431+00341101681ADDAA112002091AY101061AY201061GA1001+999999999GF100991001001999999001001KA1999M+01251MA1999999097881MD1210271+9999MW1101REMSYN082AAXX  09181 11841 11958 00601 10043 20034 39788 40168 52027 60022 71000 333 10125;
0181118410999992000110921004+49230+018610FM-12+031599999V0200701N001010003019N0002001N1+00281+00241101791ADDAY111031AY211031GA1091+000309999GF109991091999999999999999MA1999999097971MD1010091+9999MW1471REMSYN076AAXX  09211 11841 41/02 90701 10028 20024 39797 40179 50009 74711 333 89/01;
0225118410999992000111000004+49230+018610FM-12+031599999V0200601N002010003019N0002001N1+00311+00281101861ADDAA199000091AY141061AY211061GA1091+000309999GF109991091999999999999999GJ102409MA1999999098041MD1010071+9999MW1451REMSYN082AAXX  10001 11841 31/02 90602 10031 20028 39804 40186 50007 74541 333 55040 89/01;EQDQ01  00002PRCP99
0181118410999992000111003004+49230+018610FM-12+031599999V0200701N002010003019N0003001N1+00291+00261101831ADDAY141031AY241031GA1091+000309999GF109991091999999999999999MA1999999098011MD1710031+9999MW1451REMSYN076AAXX  10031 11841 41/03 90702 10029 20026 39801 40183 57003 74544 333 89/01;
0266118410999992000111006004+49230+018610FM-12+031599999V0200701N00201036001CN0050001N1+00311+00281101921ADDAA199000091AY141061AY241061GA1031+001509079GF108991031061001501021999IA1099IA2999+00009KA1120N+00231MA1999999098101MD1210091+9999MW1101REMSYN100AAXX  10061 11841 31250 80702 10031 20028 39810 40192 52009 71044 8362/ 333 20023 31100 83705 88459;EQDQ01  00002PRCP99
0193118410999992000111009004+49230+018610FM-12+031599999V0209999C00001036001CN0050001N1+00501+00351101971ADDAY161031AY221031GA1021+010809069GF108991021051012501011999MA1999999098171MD1210071+9999MW1211REMSYN088AAXX  10091 11841 41650 80000 10050 20035 39817 40197 52007 72162 8251/ 333 82636 88458;
0232118410999992000111012004+49230+018610FM-12+031599999V0209999C000010024019N0050001N1+00651+00421101971ADDAA106000591AY161061AY221061GA1011+001509079GA2061+002409079GF108991081051001501999999MA1999999098191MD1210021+9999MW1601REMSYN100AAXX  10121 11841 11250 80000 10065 20042 39819 40197 52002 69951 76062 885// 333 81705 86708 88656;
0193118410999992000111015004+49230+018610FM-12+031599999V0202601N00201036001CN0050001N1+00681+00561102031ADDAY121031AY221031GA1031+002409079GF107991031061002501031001MA1999999098261MD1310071+9999MW1101REMSYN088AAXX  10151 11841 41350 72602 10068 20056 39826 40203 53007 71022 83630 333 83708 87359;
0223118410999992000111018004+49230+018610FM-12+031599999V0201601N001010015019N0035001N1+00491+00431102201ADDAA112000591AY161061AY221061GA1081+001509069GF108991081061001501999999KA1120M+00701MA1999999098391MD1210131+9999MW1101REMSYN094AAXX  10181 11841 11235 81601 10049 20043 39839 40220 52013 69962 71062 886// 333 10070 88705;
0187118410999992000111021004+49230+018610FM-12+031599999V0202201N001010021019N0070001N1+00471+00381102391ADDAY121031AY221031GA1081+002109069GF108991081061002501999999MA1999999098571MD1210181+9999MW1101REMSYN082AAXX  10211 11841 41357 82201 10047 20038 39857 40239 52018 71022 886// 333 88707;
0212118410999992000111100004+49230+018610FM-12+031599999V0202801N002010021019N0070001N1+00421+00321102501ADDAA199000021AY121061AY221061GA1081+002109069GF108991081061002501999999GJ100009MA1999999098671MD1110101+9999MW1101REMSYN088AAXX  11001 11841 31357 82802 10042 20032 39867 40250 51010 71022 886// 333 55000 88707;
0159118410999992000111103004+49230+018610FM-12+031599999V0203301N001010021019N0100001N1+00361+00231102551ADDGA1081+002109069GF108991081061002501999999MA1999999098711MD1210041+9999REMSYN076AAXX  11031 11841 42360 83301 10036 20023 39871 40255 52004 886// 333 88707;
0260118410999992000111106004+49230+018610FM-12+031599999V0202301N001010024019N0060001N1+00361+00241102651ADDAA199000091AY121061AY221061GA1081+002409069GF108991081061002501999999IA1099IA2999+00309KA1120N+00361MA1999999098811MD1310101+9999MW1101REMSYN094AAXX  11061 11841 31356 82301 10036 20024 39881 40265 53010 71022 886// 333 20036 31003 88708;EQDQ01  00002PRCP99
0165118410999992000111109004+49230+018610FM-12+031599999V0202701N00201004201CN0100001N1+00531+00231102751ADDGA1041+003609079GF106991061051004501031001MA1999999098931MD1210121+9999REMSYN082AAXX  11091 11841 42460 62702 10053 20023 39893 40275 52012 86530 333 84712 86638;
0189118410999992000111112004+49230+018610FM-12+031599999V0202601N005012200019N0150001N1+00731+00341102671ADDAA199000091GA1021+010809029GF103991031021012501061001MA1999999098881MD1810051+9999REMSYN076AAXX  11121 11841 32665 32605 10073 20034 39888 40267 58005 83260 333 82836;EQDQ01  00002PRCP99
0159118410999992000111115004+49230+018610FM-12+031599999V0202101N001012200019N0150001N1+00591+00311102671ADDGA1031+010509059GF103991031041012501001001MA1999999098861MD1610021+9999REMSYN076AAXX  11151 11841 42665 32101 10059 20031 39886 40267 56002 83400 333 83635;
0224118410999992000111118004+49230+018610FM-12+031599999V0209999C000012200019N0060001N1+00131+00061102821ADDAA199000091AY101061AY201061GA1001+999999999GF100991001001999999001001KA1999M+00771MA1999999098941MD1110081+9999MW1101REMSYN076AAXX  11181 11841 31956 00000 10013 20006 39894 40282 51008 71000 333 10077;EQDQ01  00002PRCP99
0187118410999992000111121004+49230+018610FM-12+031599999V0209999C000010012019N0015001N1+00181+00121102801ADDAY111031AY211031GA1071+001209069GF107991071061001501001001MA1999999098931MD1810011+9999MW1101REMSYN082AAXX  11211 11841 41215 70000 10018 20012 39893 40280 58001 71011 87600 333 87704;
0231118410999992000111200004+49230+018610FM-12+031599999V0201001N001010006019N0007001N1+00221+00181102701ADDAA199000091AY111061AY211061GA1081+000609069GF108991081061000751999999GJ102109MA1999999098841MD1710091+9999MW1461REMSYN088AAXX  12001 11841 31107 81001 10022 20018 39884 40270 57009 74611 886// 333 55035 88702;EQDQ01  00002PRCP99
0187118410999992000111203004+49230+018610FM-12+031599999V0201501N001010009019N0005001N1+00101+00071102621ADDAY141031AY241031GA1081+000909069GF108991081071001501999999MA1999999098741MD1710101+9999MW1441REMSYN082AAXX  12031 11841 41205 81501 10010 20007 39874 40262 57010 74444 887// 333 88703;
0254118410999992000111206004+49230+018610FM-12+031599999V0209999C000010003019N0001001N1+00051+00021102491ADDAA199000091AY141061AY241061GA1091+000309999GF109991091999999999999999IA1099IA2999-00309KA1120N+00021MA1999999098611MD1810131+9999MW1471REMSYN088AAXX  12061 11841 31/01 90000 10005 20002 39861 40249 58013 74744 333 20002 31103 89/01;EQDQ01  00002PRCP99
0187118410999992000111209004+49230+018610FM-12+031599999V0200401N001010108019N0150001N1+00401+00361102391ADDAY141031AY241031GA1061+010809059GF106991061051012501001001MA1999999098561MD1610051+9999MW1281REMSYN082AAXX  12091 11841 41665 60401 10040 20036 39856 40239 56005 72844 86500 333 86636;
0217118410999992000111212004+49230+018610FM-12+031599999V0201501N003012200019N0200001N1+00981+00241102111ADDAA199000091AY141061AY241061GA1011+010809029GF103991011021012501041001MA1999999098371MD1810191+9999MW1021REMSYN082AAXX  12121 11841 31670 31503 10098 20024 39837 40211 58019 70244 81240 333 81836;EQDQ01  00002PRCP99
0159118410999992000111215004+49230+018610FM-12+031599999V0202201N001010360019N0200001N1+00881+00191101931ADDGA1051+036009079GF105991051001999999041001MA1999999098181MD1610191+9999REMSYN076AAXX  12151 11841 42970 52201 10088 20019 39818 40193 56019 85040 333 85362;
0208118410999992000111218004+49230+018610FM-12+031599999V0209999C000012200019N0150001N1+00431+00131101941ADDAA199000091GA1011+015009059GF102991011051017501041001KA1120M+01091MA1999999098131MD1710051+9999REMSYN082AAXX  12181 11841 32765 20000 10043 20013 39813 40194 57005 81540 333 10109 81650;EQDQ01  00002PRCP99
0159118410999992000111221004+49230+018610FM-12+031599999V0200701N001012200019N0100001N1+00271+00081101711ADDGA1011+012909059GF101991011051012501001001MA1999999097891MD1810241+9999REMSYN076AAXX  12211 11841 42660 10701 10027 20008 39789 40171 58024 81500 333 81643;
0203118410999992000111300004+49230+018610FM-12+031599999V0209999C000010105019N0100001N1+00311+00191101521ADDAA199000091GA1081+010509059GF108991081051012501999999GJ102109MA1999999097711MD1710181+9999REMSYN082AAXX  13001 11841 32660 80000 10031 20019 39771 40152 57018 885// 333 55035 88635;EQDQ01  00002PRCP99
0159118410999992000111303004+49230+018610FM-12+031599999V0209999C000010090019N0100001N1+00671+00311101321ADDGA1081+009009059GF108991081051008001999999MA1999999097571MD1710141+9999REMSYN076AAXX  13031 11841 42560 80000 10067 20031 39757 40132 57014 885// 333 88630;
0232118410999992000111306004+49230+018610FM-12+031599999V0209999C000010099019N0150001N1+00571+00341101241ADDAA199000091GA1051+009909059GF106991051051012501001011IA1099IA2999-00109KA1120N+00161MA1999999097481MD1710091+9999REMSYN088AAXX  13061 11841 32665 60000 10057 20034 39748 40124 57009 85501 333 20016 31101 85633;EQDQ01  00002PRCP99
0165118410999992000111309004+49230+018610FM-12+031599999V0202601N002012200019N0200001N1+01031+00471101211ADDGA1021+009909089GF103991021011012501001021MA1999999097511MD1110031+9999REMSYN082AAXX  13091 11841 42670 32602 10103 20047 39751 40121 51003 82102 333 82833 83070;
0159118410999992000111315004+49230+018610FM-12+031599999V0200501N002010108019N0150001N1+01031+00641101021ADDGA1071+010809059GF107991071051012501001001MA1999999097331MD1610071+9999REMSYN076AAXX  13151 11841 42665 70502 10103 20064 39733 40102 56007 87500 333 87636;
0208118410999992000111318004+49230+018610FM-12+031599999V0209999C000012200019N0120001N1+00631+00491101031ADDAA199000091GA1031+060009019GF103991001001999999001031KA1120M+01281MA1999999097291MD1610041+9999REMSYN082AAXX  13181 11841 32962 30000 10063 20049 39729 40103 56004 80003 333 10128 83070;EQDQ01  00002PRCP99
0159118410999992000111321004+49230+018610FM-12+031599999V0201001N002012200019N0150001N1+00771+00631100961ADDGA1021+009909059GF102991021051012501001001MA1999999097241MD1610051+9999REMSYN076AAXX  13211 11841 42665 21002 10077 20063 39724 40096 56005 82500 333 82633;
0203118410999992000111400004+49230+018610FM-12+031599999V0200801N001010099019N0150001N1+00901+00741100861ADDAA199000091GA1071+009909059GF107991071051012501001001GJ102829MA1999999097161MD1810081+9999REMSYN082AAXX  14001 11841 32665 70801 10090 20074 39716 40086 58008 87500 333 55047 87633;EQDQ01  00002PRCP99
0101118410999992000111403004+49230+018610FM-12+031599999V0202001N003019999999N9999999N1+01441+00861100741ADDMA1999999097121MD1710051+9999REMSYN060AAXX  14031 11841 46/// /2003 10144 20086 39712 40074 57005;
0232118410999992000111406004+49230+018610FM-12+031599999V0201601N001010129019N0150001N1+01481+00831100751ADDAA199000091GA1051+012909059GF105991051051012501001001IA1099IA2999+00309KA1120N+00381MA1999999097131MD1310011+9999REMSYN088AAXX  14061 11841 32665 51601 10148 20083 39713 40075 53001 85500 333 20038 31003 85643;EQDQ01  00002PRCP99
0101118410999992000111409004+49230+018610FM-12+031599999V0202201N004019999999N9999999N1+01711+00871100821ADDMA1999999097231MD1210111+9999REMSYN060AAXX  14091 11841 46/// /2204 10171 20087 39723 40082 52011;
0131118410999992000111412004+49230+018610FM-12+031599999V0202001N003019999999N9999999N1+01681+00951100801ADDAA199000091MA1999999097211MD1410001+9999REMSYN060AAXX  14121 11841 36/// /2003 10168 20095 39721 40080 54000;EQDQ01  00002PRCP99
0159118410999992000111415004+49230+018610FM-12+031599999V0201801N002012200019N0250001N1+01641+00941100801ADDGA1031+013509059GF104991031051012501041011MA1999999097201MD1810021+9999REMSYN076AAXX  14151 11841 42675 41802 10164 20094 39720 40080 58002 83541 333 83645;
0154118410999992000111418004+49230+018610FM-12+031599999V0201601N003019999999N9999999N1+01581+00881100831ADDAA199000091KA1999M+01841MA1999999097221MD1210011+9999REMSYN070AAXX  14181 11841 36/// /1603 10158 20088 39722 40083 52001 333 10184;EQDQ01  00002PRCP99
0101118410999992000111421004+49230+018610FM-12+031599999V0202301N003019999999N9999999N1+01641+00871100791ADDMA1999999097191MD1710031+9999REMSYN060AAXX  14211 11841 46/// /2303 10164 20087 39719 40079 57003;
0141118410999992000111500004+49230+018610FM-12+031599999V0202101N002019999999N9999999N1+01671+00801100891ADDAA199000091MA1999999097291MD1210071+9999REMSYN070AAXX  15001 11841 36/// /2102 10167 20080 39729 40089 52007 333 55048;EQDQ01  00002PRCP99
0159118410999992000111503004+49230+018610FM-12+031599999V0202201N005010120019N0100001N1+01491+00861101141ADDGA1071+012009059GF107991071051012501001001MA1999999097511MD1310201+9999REMSYN076AAXX  15031 11841 42660 72205 10149 20086 39751 40114 53020 87500 333 87640;
0232118410999992000111506004+49230+018610FM-12+031599999V0202501N005010129019N0100001N1+01031+00681101551ADDAA199000091GA1071+012909059GF107991071051012501001001IA1099IA2999+01009KA1120N+01031MA1999999097841MD1210331+9999REMSYN088AAXX  15061 11841 32660 72505 10103 20068 39784 40155 52033 87500 333 20103 31010 87643;EQDQ01  00002PRCP99
0165118410999992000111509004+49230+018610FM-12+031599999V0202901N00201007501CN0100001N1+01051+00681101761ADDGA1041+007809069GF108991081051008001999999MA1999999098051MD1110211+9999REMSYN082AAXX  15091 11841 42560 82902 10105 20068 39805 40176 51021 885// 333 84626 88650;
0210118410999992000111512004+49230+018610FM-12+031599999V0202701N00201012001CN0040001N1+01041+00801101801ADDAA106000891AY161061AY221061GA1041+010809069GF108991081051012501999999MA1999999098081MD1210031+9999MW1611REMSYN094AAXX  15121 11841 11640 82702 10104 20080 39808 40180 52003 69971 76162 885// 333 84636 88650;
0187118410999992000111515004+49230+018610FM-12+031599999V0200701N001010114019N0038001N1+00981+00861101791ADDAY161031AY221031GA1081+011409059GF108991081051012501999999MA1999999098071MD1510011+9999MW1101REMSYN082AAXX  15151 11841 41638 80701 10098 20086 39807 40179 55001 71062 885// 333 88638;
0223118410999992000111518004+49230+018610FM-12+031599999V0209999C000010090019N0025001N1+00941+00861101801ADDAA112002091AY161061AY221061GA1081+009009059GF108991081051008001999999KA1120M+01131MA1999999098071MD1010001+9999MW1101REMSYN094AAXX  15181 11841 11525 80000 10094 20086 39807 40180 50000 60022 71062 885// 333 10113 88630;
0187118410999992000111521004+49230+018610FM-12+031599999V0201301N001010108019N0020001N1+00901+00821101731ADDAY121031AY221031GA1071+010809059GF107991071051012501001001MA1999999098001MD1710071+9999MW1101REMSYN082AAXX  15211 11841 41620 71301 10090 20082 39800 40173 57007 71022 87500 333 87636;
0218118410999992000111600004+49230+018610FM-12+031599999V0209999C000010069019N0012001N1+00861+00801101591ADDAA106006191AY121061AY221061GA1081+006909059GF108991081051008001999999GJ100009MA1999999097861MD1710141+9999MW1611REMSYN094AAXX  16001 11841 11512 80000 10086 20080 39786 40159 57014 60061 76122 885// 333 55000 88623;
0193118410999992000111603004+49230+018610FM-12+031599999V0201201N00101002101CN0010001N1+00881+00841101361ADDAY161031AY261031GA1041+002109079GF108991081051002501999999MA1999999097641MD1710221+9999MW1611REMSYN088AAXX  16031 11841 41310 81201 10088 20084 39764 40136 57022 76166 885// 333 84707 88620;
0275118410999992000111606004+49230+018610FM-12+031599999V0209999C000010033019N0016001N1+00961+00911101331ADDAA112026991AY161061AY261061GA1041+001809079GA2061+003309079GF108991081051001501999999IA1119IA2999+00709KA1120N+00831MA1999999097621MD1710021+9999MW1611REMSYN112AAXX  16061 11841 11216 80000 10096 20091 39762 40133 57002 60272 76166 885// 333 20083 32007 84706 86711 88619;
0215118410999992000111609004+49230+018610FM-12+031599999V0203101N002010057019N0150001N1+00921+00761101721ADDAY161031AY221031GA1021+002409079GA2061+005709069GF108991081051002501999999MA1999999097991MD1210371+9999MW1601REMSYN094AAXX  16091 11841 41365 83102 10092 20076 39799 40172 52037 76062 885// 333 82708 86619 88646;
0204118410999992000111612004+49230+018610FM-12+031599999V0200401N003010090019N0200001N1+00991+00551101721ADDAA106002091AY161061AY221061GA1051+009009029GF106991051021008001061021MA1999999098001MD1010011+9999MW1011REMSYN088AAXX  16121 11841 11570 60403 10099 20055 39800 40172 50001 60021 70162 85262 333 85830;
0165118410999992000111615004+49230+018610FM-12+031599999V0201101N00101090001CN0200001N1+00731+00591101761ADDGA1021+009909069GF105991021051012501031011MA1999999098001MD1510001+9999REMSYN082AAXX  16151 11841 42670 51101 10073 20059 39800 40176 55000 82531 333 82633 85358;
0214118410999992000111618004+49230+018610FM-12+031599999V0200601N001012200019N0120001N1+00581+00491101771ADDAA112002091GA1031+021009079GF104991031999022501031011KA1120M+01101MA1999999097991MD1810011+9999REMSYN088AAXX  16181 11841 12862 40601 10058 20049 39799 40177 58001 60022 83031 333 10110 83357;EQDQ01+000002SCOLCG
0159118410999992000111621004+49230+018610FM-12+031599999V0200901N001010129019N0100001N1+00641+00501101711ADDGA1071+012909059GF107991071051012501001001MA1999999097941MD1610051+9999REMSYN076AAXX  16211 11841 42660 70901 10064 20050 39794 40171 56005 87500 333 87643;
0203118410999992000111700004+49230+018610FM-12+031599999V0209999C000010090019N0100001N1+00581+00511101631ADDAA199000091GA1071+009009059GF107991071051008001001001GJ100969MA1999999097861MD1810081+9999REMSYN082AAXX  17001 11841 32560 70000 10058 20051 39786 40163 58008 87500 333 55016 87630;EQDQ01  00002PRCP99
0187118410999992000111703004+49230+018610FM-12+031599999V0209999C000012200019N0070001N1+00491+00431101601ADDAY111031AY211031GA1031+060009019GF103991001001999999001011MA1999999097821MD1710041+9999MW1101REMSYN082AAXX  17031 11841 41957 30000 10049 20043 39782 40160 57004 71011 80001 333 83070;
0260118410999992000111706004+49230+018610FM-12+031599999V0201201N001012200019N0005001N1+00391+00351101491ADDAA199000091AY111061AY211061GA1031+001509069GF104991031061001501001011IA1099IA2999+00109KA1120N+00361MA1999999097701MD1610121+9999MW1461REMSYN094AAXX  17061 11841 31205 41201 10039 20035 39770 40149 56012 74611 83601 333 20036 31001 83705;EQDQ01  00002PRCP99
0193118410999992000111709004+49230+018610FM-12+031599999V0209999C00001090001CN0050001N1+00751+00661101381ADDAY141031AY241031GA1011+018009069GF105991011051017501031011MA1999999097641MD1710061+9999MW1101REMSYN088AAXX  17091 11841 41750 50000 10075 20066 39764 40138 57006 71044 81531 333 81656 84070;
0223118410999992000111712004+49230+018610FM-12+031599999V0201601N001019999999N0200001N1+01071+00881101151ADDAA199000091AY141061AY241061GA1021+030009039GF107991021001999999041081MA1999999097461MD1810181+9999MW1031REMSYN088AAXX  17121 11841 31970 71601 10107 20088 39746 40115 58018 70344 82048 333 82360 87270;EQDQ01  00002PRCP99
0165118410999992000111715004+49230+018610FM-12+031599999V0203601N00101036001CN0200001N1+00981+00861101081ADDGA1011+018009069GF106991011051017501041081MA1999999097381MD1710081+9999REMSYN082AAXX  17151 11841 42770 63601 10098 20086 39738 40108 57008 81548 333 81656 86270;
0208118410999992000111718004+49230+018610FM-12+031599999V0202501N001012200019N0120001N1+00651+00501101141ADDAA199000091GA1031+060009019GF103991001001999999001011KA1120M+01141MA1999999097391MD1210011+9999REMSYN082AAXX  17181 11841 32962 32501 10065 20050 39739 40114 52001 80001 333 10114 83070;EQDQ01  00002PRCP99
0187118410999992000111721004+49230+018610FM-12+031599999V0209999C000012200019N0080001N1+00611+00521101161ADDAY111031AY211031GA1041+030009079GF104991041001999999031001MA1999999097411MD1010021+9999MW1101REMSYN082AAXX  17211 11841 41958 40000 10061 20052 39741 40116 50002 71011 84030 333 84360;
0231118410999992000111800004+49230+018610FM-12+031599999V0202801N001012200019N0080001N1+00311+00251101191ADDAA199000091AY111061AY211061GA1011+030009079GF102991011001999999031011GJ100489MA1999999097401MD1510011+9999MW1101REMSYN088AAXX  18001 11841 31958 22801 10031 20025 39740 40119 55001 71011 81031 333 55008 81360;EQDQ01  00002PRCP99
0187118410999992000111803004+49230+018610FM-12+031599999V0209999C000010300019N0060001N1+00381+00341101171ADDAY111031AY211031GA1061+030009079GF106991061001999999071001MA1999999097391MD1810011+9999MW1101REMSYN082AAXX  18031 11841 41956 60000 10038 20034 39739 40117 58001 71011 86070 333 86360;
0253118410999992000111806004+49230+018610FM-12+031599999V0200101N001010150019N0080001N1+00571+00481101331ADDAA112000591AY111061AY211061GA1061+015009069GF108991081051017501999999IA1099IA2999+00009KA1120N+00301MA1999999097571MD1210181+9999MW1611REMSYN106AAXX  18061 11841 11758 80101 10057 20048 39757 40133 52018 69942 76111 885// 333 20030 31000 86650 88656;
0215118410999992000111809004+49230+018610FM-12+031599999V0202901N001010024019N0025001N1+00771+00701101361ADDAY161031AY261031GA1021+001509079GA2051+002409079GF108991081051001501999999MA1999999097621MD1210051+9999MW1611REMSYN094AAXX  18091 11841 41225 82901 10077 20070 39762 40136 52005 76166 885// 333 82705 85708 88618;
0204118410999992000111812004+49230+018610FM-12+031599999V0202701N002010042019N0013001N1+00731+00661101411ADDAA106007991AY161061AY261061GA1081+004209059GF108991081051004501999999MA1999999097671MD1310051+9999MW1611REMSYN088AAXX  18121 11841 11413 82702 10073 20066 39767 40141 53005 60081 76166 885// 333 88614;
0193118410999992000111815004+49230+018610FM-12+031599999V0203001N00101002101CN0050001N1+00641+00501101581ADDAY161031AY261031GA1041+001809079GF108991081051002501999999MA1999999097821MD1210151+9999MW1611REMSYN088AAXX  18151 11841 41350 83001 10064 20050 39782 40158 52015 76166 885// 333 84706 88616;
0229118410999992000111818004+49230+018610FM-12+031599999V0209999C00001002101CN0200001N1+00551+00421101711ADDAA112010991AY161061AY221061GA1021+002409079GF108991081051002501999999KA1120M+00781MA1999999097931MD1210111+9999MW1211REMSYN100AAXX  18181 11841 11370 80000 10055 20042 39793 40171 52011 60112 72162 885// 333 10078 82708 88626;
0165118410999992000111821004+49230+018610FM-12+031599999V0209999C000010063019N0200001N1+00521+00421101741ADDGA1051+006309069GF107991071051008001001001MA1999999097951MD1310021+9999REMSYN082AAXX  18211 11841 42570 70000 10052 20042 39795 40174 53002 87500 333 85621 87633;
0212118410999992000111900004+49230+018610FM-12+031599999V0200701N001010066019N0150001N1+00501+00431101731ADDAA199000021GA1021+000609079GA2051+006609069GF108991081051000751999999GJ100009MA1999999097941MD1810011+9999REMSYN094AAXX  19001 11841 32165 80701 10050 20043 39794 40173 58001 885// 333 55000 82702 85622 88635;
0159118410999992000111903004+49230+018610FM-12+031599999V0200901N002010093019N0150001N1+00491+00391101591ADDGA1071+009309059GF107991071051008001001001MA1999999097811MD1810131+9999REMSYN076AAXX  19031 11841 42565 70902 10049 20039 39781 40159 58013 87500 333 87631;
0219118410999992000111906004+49230+018610FM-12+031599999V0209999C00001000601CN0150001N1+00391+00331101491ADDAA199000021GA1041+000609079GF108991081061000751999999IA1119IA2999+00309KA1120N+00391MA1999999097701MD1510111+9999REMSYN094AAXX  19061 11841 32165 80000 10039 20033 39770 40149 55011 886// 333 20039 32003 84702 88712;
0159118410999992000111909004+49230+018610FM-12+031599999V0200801N001010021019N0150001N1+00581+00411101381ADDGA1081+002109069GF108991081061002501999999MA1999999097621MD1810081+9999REMSYN076AAXX  19091 11841 42365 80801 10058 20041 39762 40138 58008 886// 333 88707;
0217118410999992000111912004+49230+018610FM-12+031599999V0200601N002010018019N0070001N1+00721+00581101061ADDAA199000091AY121061AY221061GA1071+001809069GF107991071061001501001001MA1999999097331MD1710291+9999MW1101REMSYN082AAXX  19121 11841 31257 70602 10072 20058 39733 40106 57029 71022 87600 333 87706;EQDQ01  00002PRCP99
0193118410999992000111915004+49230+018610FM-12+031599999V0200201N00101001201CN0038001N1+00741+00651100921ADDAY121031AY221031GA1031+001809079GF106991061061001501031001MA1999999097201MD1610131+9999MW1101REMSYN088AAXX  19151 11841 41238 60201 10074 20065 39720 40092 56013 71022 86630 333 83706 86360;
0236118410999992000111918004+49230+018610FM-12+031599999V0209999C000010009019N0015001N1+00661+00601100901ADDAA199000091AY121061AY221061GA1081+000909069GF108991081061001501999999KA1120M+00831MA1999999097171MD1810031+9999MW1101REMSYN088AAXX  19181 11841 31215 80000 10066 20060 39717 40090 58003 71022 886// 333 10083 88703;EQDQ01  00002PRCP99
0193118410999992000111921004+49230+018610FM-12+031599999V0200301N00101002101CN0015001N1+00641+00601100891ADDAY141031AY221031GA1041+002409079GF108991081051002501999999MA1999999097151MD1810021+9999MW1281REMSYN088AAXX  19211 11841 41315 80301 10064 20060 39715 40089 58002 72842 885// 333 84708 88631;
0231118410999992000112000004+49230+018610FM-12+031599999V0209999C000010099019N0016001N1+00571+00501100831ADDAA199000091AY141061AY221061GA1081+009909059GF108991081051012501999999GJ100969MA1999999097091MD1610061+9999MW1101REMSYN088AAXX  20001 11841 31616 80000 10057 20050 39709 40083 56006 71042 885// 333 55016 88633;EQDQ01  00002PRCP99
0101118410999992000112003004+49230+018610FM-12+031599999V0209999V001019999999N9999999N1+00361+00331100801ADDMA1999999097031MD1710061+9999REMSYN060AAXX  20031 11841 46/// /9901 10036 20033 39703 40080 57006;
0253118410999992000112006004+49230+018610FM-12+031599999V0202601N001010105019N0014001N1+00521+00481100831ADDAA112000791AY161061AY221061GA1051+010509069GF108991081051012501999999IA1119IA2999+00109KA1120N+00301MA1999999097081MD1510011+9999MW1601REMSYN106AAXX  20061 11841 11614 82601 10052 20048 39708 40083 55001 69902 76062 885// 333 20030 32001 85635 88640;
0204118410999992000112012004+49230+018610FM-12+031599999V0202601N001010120019N0100001N1+00861+00641101001ADDAA106001091AY161061AY221061GA1081+012009059GF108991081051012501999999MA1999999097291MD1210101+9999MW1211REMSYN088AAXX  20121 11841 11660 82601 10086 20064 39729 40100 52010 60011 72162 885// 333 88640;
0159118410999992000112015004+49230+018610FM-12+031599999V0202601N003010108019N0100001N1+00751+00601101111ADDGA1071+010809059GF107991071051012501999999MA1999999097381MD1310091+9999REMSYN076AAXX  20151 11841 42660 72603 10075 20060 39738 40111 53009 875// 333 87636;
0195118410999992000112018004+49230+018610FM-12+031599999V0202501N003010105019N0100001N1+00671+00551101191ADDAA112001091GA1071+010509059GF107991071051012501999999KA1120M+00911MA1999999097451MD1210071+9999REMSYN088AAXX  20181 11841 12660 72503 10067 20055 39745 40119 52007 60012 875// 333 10091 87635;
0159118410999992000112021004+49230+018610FM-12+031599999V0200801N001012200019N0100001N1+00631+00521101281ADDGA1031+010809059GF104991031051012501001011MA1999999097531MD1010081+9999REMSYN076AAXX  20211 11841 42660 40801 10063 20052 39753 40128 50008 83501 333 83636;
0184118410999992000112100004+49230+018610FM-12+031599999V0209999C000010120019N0100001N1+00561+00491101281ADDAA199000021GA1071+012009059GF107991071051012501999999GJ100009MA1999999097521MD1610011+9999REMSYN082AAXX  21001 11841 32660 70000 10056 20049 39752 40128 56001 875// 333 55000 87640;
0159118410999992000112103004+49230+018610FM-12+031599999V0200801N002010150019N0100001N1+00811+00591101141ADDGA1081+015009059GF108991081051017501999999MA1999999097421MD1810101+9999REMSYN076AAXX  21031 11841 42760 80802 10081 20059 39742 40114 58010 885// 333 88650;
0232118410999992000112106004+49230+018610FM-12+031599999V0201801N001010150019N0150001N1+00891+00601101171ADDAA199000091GA1071+015009059GF107991071051017501999999IA1099IA2999+00209KA1120N+00461MA1999999097461MD1310041+9999REMSYN088AAXX  21061 11841 32765 71801 10089 20060 39746 40117 53004 875// 333 20046 31002 87650;EQDQ01  00002PRCP99
0165118410999992000112109004+49230+018610FM-12+031599999V0201301N00401015001CN0250001N1+01251+00471101121ADDGA1041+015009069GF106991061051017501001001MA1999999097451MD1510011+9999REMSYN082AAXX  21091 11841 42775 61304 10125 20047 39745 40112 55001 86500 333 84650 86656;
0189118410999992000112112004+49230+018610FM-12+031599999V0201601N003010150019N0250001N1+01431+00491100991ADDAA199000091GA1051+015009059GF106991051051017501031011MA1999999097351MD1810101+9999REMSYN076AAXX  21121 11841 32775 61603 10143 20049 39735 40099 58010 85531 333 85650;EQDQ01  00002PRCP99
0165118410999992000112115004+49230+018610FM-12+031599999V0201501N00201015001CN0250001N1+01301+00491101101ADDGA1041+015009069GF107991071051017501999999MA1999999097441MD1110091+9999REMSYN082AAXX  21151 11841 42775 71502 10130 20049 39744 40110 51009 875// 333 84650 87656;
0214118410999992000112118004+49230+018610FM-12+031599999V0202401N001010132019N0150001N1+01181+00541101231ADDAA199000091GA1051+013209069GF107991051051012501071999KA1120M+01441MA1999999097551MD1110111+9999REMSYN088AAXX  21181 11841 32665 72401 10118 20054 39755 40123 51011 8557/ 333 10144 85644 87357;EQDQ01  00002PRCP99
0215118410999992000112121004+49230+018610FM-12+031599999V0202901N002010150019N0150001N1+01151+00641101331ADDAY161031AY221031GA1031+011709069GA2061+015009069GF108991081051012501999999MA1999999097641MD1310091+9999MW1211REMSYN094AAXX  21211 11841 41665 82902 10115 20064 39764 40133 53009 72162 885// 333 83639 86650 88656;
0224118410999992000112200004+49230+018610FM-12+031599999V0209999C000010105019N0100001N1+00901+00741101401ADDAA106000791AY161061AY221061GA1061+010509069GF108991081051012501999999GJ100009MA1999999097681MD1110041+9999MW1601REMSYN100AAXX  22001 11841 11660 80000 10090 20074 39768 40140 51004 69901 76062 885// 333 55000 86635 88656;
0101118410999992000112203004+49230+018610FM-12+031599999V0209999C000019999999N9999999N1+00831+00731101401ADDMA1999999097681MD1210011+9999REMSYN060AAXX  22031 11841 46/// /0000 10083 20073 39768 40140 52001;
0247118410999992000112206004+49230+018610FM-12+031599999V0201201N002010138019N0150001N1+00711+00561101521ADDAA112000791AY161061AY221061GA1061+013809059GF106991061051012501001001IA1099IA2999+00409KA1120N+00691MA1999999097771MD1210061+9999MW1011REMSYN100AAXX  22061 11841 11665 61202 10071 20056 39777 40152 52006 69902 70162 86500 333 20069 31004 86646;
0159118410999992000112209004+49230+018610FM-12+031599999V0209999C000010093019N0180001N1+00891+00751101691ADDGA1071+009309059GF107991071051008001001001MA1999999097961MD1110191+9999REMSYN076AAXX  22091 11841 42568 70000 10089 20075 39796 40169 51019 87500 333 87631;
0210118410999992000112212004+49230+018610FM-12+031599999V0202701N00201220001CN0200001N1+01311+00801101571ADDAA106000791AY161061AY221061GA1021+013809069GF105991021051012501001011MA1999999097901MD1610061+9999MW1021REMSYN094AAXX  22121 11841 11670 52702 10131 20080 39790 40157 56006 69901 70262 82501 333 82646 84070;
0165118410999992000112215004+49230+018610FM-12+031599999V0209999C00001220001CN0200001N1+01111+00721101671ADDGA1031+012609069GF106991031051012501001011MA1999999097971MD1310071+9999REMSYN082AAXX  22151 11841 42670 60000 10111 20072 39797 40167 53007 83501 333 83642 84070;
0195118410999992000112218004+49230+018610FM-12+031599999V0209999C000012200019N0120001N1+00601+00501101821ADDAA112000791GA1021+060009019GF102991001001999999001011KA1120M+01341MA1999999098041MD1110071+9999REMSYN088AAXX  22181 11841 12962 20000 10060 20050 39804 40182 51007 69902 80001 333 10134 82070;
0187118410999992000112221004+49230+018610FM-12+031599999V0209999C000012200019N0045001N1+00511+00441101871ADDAY101031AY201031GA1021+060009019GF102991001001999999001011MA1999999098081MD1210041+9999MW1101REMSYN082AAXX  22211 11841 41945 20000 10051 20044 39808 40187 52004 71000 80001 333 82070;
0231118410999992000112300004+49230+018610FM-12+031599999V0201201N001010105019N0030001N1+00561+00501101821ADDAA199000091AY111061AY211061GA1071+010509059GF107991071051012501001001GJ100009MA1999999098041MD1810041+9999MW1101REMSYN088AAXX  23001 11841 31630 71201 10056 20050 39804 40182 58004 71011 87500 333 55000 87635;EQDQ01  00002PRCP99
0193118410999992000112303004+49230+018610FM-12+031599999V0200601N00101012001CN0035001N1+00651+00581101751ADDAY121031AY221031GA1031+011109069GF107991071051012501001001MA1999999097981MD1810061+9999MW1101REMSYN088AAXX  23031 11841 41635 70601 10065 20058 39798 40175 58006 71022 87500 333 83637 87656;
0232118410999992000112306004+49230+018610FM-12+031599999V0201001N001012200019N0100001N1+00681+00591101691ADDAA199000091GA1021+014409059GF104991031051012501001011IA1099IA2999+00209KA1120N+00421MA1999999097931MD1610051+9999REMSYN088AAXX  23061 11841 32660 41001 10068 20059 39793 40169 56005 83501 333 20042 31002 82648;EQDQ01  00002PRCP99
0165118410999992000112309004+49230+018610FM-12+031599999V0201701N001012200019N0150001N1+01391+00631101561ADDGA1011+014109089GF106991041081012501001041MA1999999097901MD1810031+9999REMSYN082AAXX  23091 11841 42665 61701 10139 20063 39790 40156 58003 84804 333 81847 84656;
0189118410999992000112312004+49230+018610FM-12+031599999V0201501N003010114019N0200001N1+01381+00621101381ADDAA199000091GA1051+011409059GF106991051051012501041021MA1999999097721MD1710181+9999REMSYN076AAXX  23121 11841 32670 61503 10138 20062 39772 40138 57018 85542 333 85638;EQDQ01  00002PRCP99
0165118410999992000112315004+49230+018610FM-12+031599999V0200601N001012200019N0200001N1+01191+00581101261ADDGA1011+010809089GF104991011011012501041011MA1999999097581MD1610141+9999REMSYN082AAXX  23151 11841 42670 40601 10119 20058 39758 40126 56014 81141 333 81836 84075;
0208118410999992000112318004+49230+018610FM-12+031599999V0201901N002012200019N0250001N1+01201+00521101261ADDAA199000091GA1011+012009059GF102991011051012501001011KA1120M+01471MA1999999097581MD1510001+9999REMSYN082AAXX  23181 11841 32675 21902 10120 20052 39758 40126 55000 81501 333 10147 81640;EQDQ01  00002PRCP99
0165118410999992000112321004+49230+018610FM-12+031599999V0200601N00101012001CN0300001N1+01161+00551101201ADDGA1031+011409069GF106991061051012501001001MA1999999097521MD1810061+9999REMSYN082AAXX  23211 11841 42680 60601 10116 20055 39752 40120 58006 86500 333 83638 85646;
0209118410999992000112400004+49230+018610FM-12+031599999V0200801N00101220001CN0250001N1+01141+00571101111ADDAA199000091GA1021+012009069GF106991021051012501001011GJ101149MA1999999097431MD1810091+9999REMSYN088AAXX  24001 11841 32675 60801 10114 20057 39743 40111 58009 82501 333 55019 82640 85072;EQDQ01  00002PRCP99
0159118410999992000112403004+49230+018610FM-12+031599999V0201601N003010126019N0250001N1+01261+00601101031ADDGA1061+012609059GF106991061051012501001001MA1999999097371MD1810061+9999REMSYN076AAXX  24031 11841 42675 61603 10126 20060 39737 40103 58006 86500 333 86642;
0260118410999992000112406004+49230+018610FM-12+031599999V0202001N005010690019N0250001N1+01291+00601100991ADDAA199000091GA1031+012609069GA2061+069009009GF107991031051012501001041IA1099IA2999+00609KA1120N+00961MA1999999097331MD1510041+9999REMSYN100AAXX  24061 11841 32675 72005 10129 20060 39733 40099 55004 83504 333 20096 31006 83642 86073 91012;EQDQ01  00002PRCP99
0159118410999992000112409004+49230+018610FM-12+031599999V0201801N003010123019N0250001N1+01361+00601101081ADDGA1061+012309059GF107991061051012501001021MA1999999097431MD1010101+9999REMSYN076AAXX  24091 11841 42675 71803 10136 20060 39743 40108 50010 86502 333 86641;
0189118410999992000112412004+49230+018610FM-12+031599999V0201701N005012200019N0250001N1+01391+00631101021ADDAA199000091GA1041+012609029GF105991041011012501001011MA1999999097381MD1810051+9999REMSYN076AAXX  24121 11841 32675 51705 10139 20063 39738 40102 58005 84101 333 84842;EQDQ01  00002PRCP99
0159118410999992000112415004+49230+018610FM-12+031599999V0202601N00301012001CN0300001N1+01191+00721101091ADDGA1021+013209059GF107991061051012501051001MA1999999097421MD1310041+9999REMSYN076AAXX  24151 11841 42680 72603 10119 20072 39742 40109 53004 86550 333 82644;
0208118410999992000112418004+49230+018610FM-12+031599999V0200801N002012200019N0150001N1+00771+00571101231ADDAA199000091GA1031+012609059GF103991031051012501001011KA1120M+01401MA1999999097501MD1210081+9999REMSYN082AAXX  24181 11841 32665 30802 10077 20057 39750 40123 52008 83501 333 10140 83642;EQDQ01  00002PRCP99
0159118410999992000112421004+49230+018610FM-12+031599999V0201001N001010150019N0100001N1+00651+00511101331ADDGA1051+015009059GF106991051051017501031001MA1999999097581MD1110081+9999REMSYN076AAXX  24211 11841 42760 61001 10065 20051 39758 40133 51008 85530 333 85650;
0141118410999992000112500004+49230+018610FM-12+031599999V0209999C000019999999N9999999N1+00641+00521101351ADDAA199000091MA1999999097601MD1210021+9999REMSYN070AAXX  25001 11841 36/// /0000 10064 20052 39760 40135 52002 333 55005;EQDQ01  00002PRCP99
0165118410999992000112503004+49230+018610FM-12+031599999V0209999C00001036001CN0100001N1+00591+00501101321ADDGA1031+012009069GF107991031051012501071001MA1999999097561MD1810041+9999REMSYN082AAXX  25031 11841 42660 70000 10059 20050 39756 40132 58004 83570 333 83640 86357;
0145118410999992000112506004+49230+018610FM-12+031599999V0201401N001019999999N9999999N1+00511+00461999999ADDAA199000091KA1120N+00451MA1999999097521REMSYN075AAXX  25061 11841 36/// /1401 10051 20046 39752 4028 57004 333 20045 3/002;EQDQ01  00002PRCP99
0193118410999992000112509004+49230+018610FM-12+031599999V0200601N00101036001CN0200001N1+00721+00581101291ADDAY161031AY221031GA1031+018009069GF107991031051017501071001MA1999999097551MD1210031+9999MW1211REMSYN088AAXX  25091 11841 41770 70601 10072 20058 39755 40129 52003 72162 83570 333 83656 87361;
0210118410999992000112512004+49230+018610FM-12+031599999V0202601N001010360019N0200001N1+01391+00701101101ADDAA106000791AY161061AY221061GA1021+018009069GF106991021051022501041021MA1999999097451MD1710101+9999MW1011REMSYN094AAXX  25121 11841 11870 62601 10139 20070 39745 40110 57010 69901 70162 82542 333 82656 84362;
0159118410999992000112515004+49230+018610FM-12+031599999V0201501N00101036001CN0200001N1+01201+00631101091ADDGA1041+021009059GF105991041051022501041001MA1999999097421MD1710031+9999REMSYN076AAXX  25151 11841 42870 51501 10120 20063 39742 40109 57003 84540 333 84657;
0195118410999992000112518004+49230+018610FM-12+031599999V0202301N001010180019N0200001N1+00841+00601101151ADDAA112000791GA1051+018009059GF106991051051017501031001KA1120M+01471MA1999999097431MD1310011+9999REMSYN088AAXX  25181 11841 12770 62301 10084 20060 39743 40115 53001 69902 85530 333 10147 85656;
0159118410999992000112521004+49230+018610FM-12+031599999V0209999C000010117019N0200001N1+00791+00641101071ADDGA1061+011709059GF107991071051012501001001MA1999999097351MD1710081+9999REMSYN076AAXX  25211 11841 42670 70000 10079 20064 39735 40107 57008 87500 333 86639;
0218118410999992000112600004+49230+018610FM-12+031599999V0201101N001010123019N0200001N1+00781+00641100881ADDAA106000791AY161061AY221061GA1071+012309059GF108991071051012501031001GJ100009MA1999999097161MD1810191+9999MW1021REMSYN094AAXX  26001 11841 11670 81101 10078 20064 39716 40088 58019 69901 70262 87530 333 55000 87641;
0165118410999992000112603004+49230+018610FM-12+031599999V0209999C00001036001CN0200001N1+00731+00581100641ADDGA1031+013209069GF107991031051012501071001MA1999999096931MD1710231+9999REMSYN082AAXX  26031 11841 42670 70000 10073 20058 39693 40064 57023 83570 333 83644 87358;
0253118410999992000112606004+49230+018610FM-12+031599999V0201801N00201036001CN0200001N1+01121+00641100411ADDAA112000791AY161061AY221061GA1041+013209069GF107991041051012501071999IA1099IA2999+00509KA1120N+00681MA1999999096751MD1710181+9999MW1601REMSYN106AAXX  26061 11841 11670 71802 10112 20064 39675 40041 57018 69902 76062 8457/ 333 20068 31005 84644 87357;
0193118410999992000112609004+49230+018610FM-12+031599999V0209999C000010102019N0120001N1+00931+00811100301ADDAY161031AY221031GA1071+010209069GF108991071051012501021999MA1999999096621MD1710131+9999MW1611REMSYN088AAXX  26091 11841 41662 80000 10093 20081 39662 40030 57013 76162 8752/ 333 87634 88457;
0232118410999992000112612004+49230+018610FM-12+031599999V0202501N003010051019N0080001N1+00861+00751100171ADDAA106001091AY161061AY221061GA1011+001509079GA2051+005109069GF108991081051001501999999MA1999999096491MD1610131+9999MW1611REMSYN100AAXX  26121 11841 11258 82503 10086 20075 39649 40017 56013 60011 76162 885// 333 81705 85617 88625;
0215118410999992000112615004+49230+018610FM-12+031599999V0202501N002010030019N0060001N1+00671+00531100341ADDAY161031AY261031GA1021+001209079GA2051+003009079GF108991081051001501999999MA1999999096631MD1210141+9999MW1611REMSYN094AAXX  26151 11841 41256 82502 10067 20053 39663 40034 52014 76166 885// 333 82704 85710 88619;
0229118410999992000112618004+49230+018610FM-12+031599999V0202201N004010021019N0050001N1+00561+00361100591ADDAA112006191AY161061AY261061GA1051+002109069GF108991081051002501999999KA1120M+01111MA1999999096851MD1210221+9999MW1611REMSYN100AAXX  26181 11841 11350 82204 10056 20036 39685 40059 52022 60062 76166 885// 333 10111 85607 88617;
0193118410999992000112621004+49230+018610FM-12+031599999V0209999C000010015019N0050001N1+00451+00321100811ADDAY161031AY261031GA1051+001509079GF108991081071001501999999MA1999999097051MD1210201+9999MW1611REMSYN088AAXX  26211 11841 41250 80000 10045 20032 39705 40081 52020 76166 887// 333 85705 88711;
0224118410999992000112700004+49230+018610FM-12+031599999V0202801N002010033019N0060001N1+00461+00371100911ADDAA106003091AY161061AY221061GA1051+003309079GF108991081051004501999999GJ100009MA1999999097151MD1310101+9999MW1601REMSYN100AAXX  27001 11841 11456 82802 10046 20037 39715 40091 53010 60031 76062 885// 333 55000 85711 88618;
0193118410999992000112703004+49230+018610FM-12+031599999V0209999C00001001201CN0050001N1+00481+00411101151ADDAY161031AY221031GA1031+001509079GF107991071051001501001001MA1999999097381MD1210231+9999MW1211REMSYN088AAXX  27031 11841 41250 70000 10048 20041 39738 40115 52023 72162 87500 333 83705 87617;
0253118410999992000112706004+49230+018610FM-12+031599999V0202801N001010048019N0038001N1+00511+00441101321ADDAA112003091AY161061AY221061GA1051+004809079GF108991081051004501999999IA1119IA2999+00409KA1120N+00451MA1999999097551MD1210171+9999MW1211REMSYN106AAXX  27061 11841 11438 82801 10051 20044 39755 40132 52017 60032 72162 885// 333 20045 32004 85716 88623;
0187118410999992000112709004+49230+018610FM-12+031599999V0202901N001010099019N0120001N1+00661+00511101551ADDGA1021+003009079GA2031+009909069GF107991071051004501001001MA1999999097791MD1310241+9999REMSYN088AAXX  27091 11841 42462 72901 10066 20051 39779 40155 53024 87500 333 82710 83633 87656;
0170118410999992000112712004+49230+018610FM-12+031599999V0202501N003010108019N0250001N1+00851+00431101591ADDAA199000021GA1071+010809059GF107991071051012501001001MA1999999097851MD1110061+9999REMSYN076AAXX  27121 11841 32675 72503 10085 20043 39785 40159 51006 87500 333 87636;
0101118410999992000112715004+49230+018610FM-12+031599999V0202601N002019999999N9999999N1+00681+00391101781ADDMA1999999098021MD1210181+9999REMSYN060AAXX  27151 11841 46/// /2602 10068 20039 39802 40178 52018;
0208118410999992000112718004+49230+018610FM-12+031599999V0202601N002010150019N0200001N1+00511+00331102001ADDAA199000021GA1051+015009059GF105991051051017501999001KA1120M+00861MA1999999098201MD1310241+9999REMSYN082AAXX  27181 11841 32770 52602 10051 20033 39820 40200 53024 85500 333 10086 85650;EQDQ01    003SCOMCG
0159118410999992000112721004+49230+018610FM-12+031599999V0209999C000010120019N0100001N1+00401+00311102221ADDGA1061+012009059GF106991061051012501001001MA1999999098401MD1210201+9999REMSYN076AAXX  27211 11841 42660 60000 10040 20031 39840 40222 52020 86500 333 86640;
0231118410999992000112800004+49230+018610FM-12+031599999V0209999C000010099019N0060001N1+00391+00321102281ADDAA199000091AY111061AY211061GA1051+009909059GF105991051051012501001001GJ100129MA1999999098461MD1010061+9999MW1101REMSYN088AAXX  28001 11841 31656 50000 10039 20032 39846 40228 50006 71011 85500 333 55002 85633;EQDQ01  00002PRCP99
0193118410999992000112803004+49230+018610FM-12+031599999V0203201N00101001201CN0045001N1+00271+00211102401ADDAY121031AY221031GA1041+001509079GF107991071051001501001001MA1999999098561MD1110101+9999MW1101REMSYN088AAXX  28031 11841 41245 73201 10027 20021 39856 40240 51010 71022 87500 333 84705 87633;
0260118410999992000112806004+49230+018610FM-12+031599999V0200701N001010012019N0007001N1+00181+00151102441ADDAA199000091AY121061AY221061GA1081+001209069GF108991081061001501999999IA1099IA2999+00109KA1120N+00171MA1999999098581MD1310021+9999MW1461REMSYN094AAXX  28061 11841 31207 80701 10018 20015 39858 40244 53002 74622 886// 333 20017 31001 88704;EQDQ01  00002PRCP99
0187118410999992000112809004+49230+018610FM-12+031599999V0201401N001010012019N0014001N1+00261+00191102541ADDAY141031AY221031GA1081+001209069GF108991081061001501999999MA1999999098691MD1110111+9999MW1281REMSYN082AAXX  28091 11841 41214 81401 10026 20019 39869 40254 51011 72842 886// 333 88704;
0217118410999992000112812004+49230+018610FM-12+031599999V0209999C000010024019N0080001N1+00361+00201102461ADDAA199000091AY141061AY221061GA1081+002409069GF108991081061002501999999MA1999999098631MD1610061+9999MW1101REMSYN082AAXX  28121 11841 31358 80000 10036 20020 39863 40246 56006 71042 886// 333 88708;EQDQ01  00002PRCP99
0187118410999992000112815004+49230+018610FM-12+031599999V0209999C000010024019N0050001N1+00341+00161102411ADDAY121031AY221031GA1081+002409069GF108991081061002501999999MA1999999098571MD1610061+9999MW1101REMSYN082AAXX  28151 11841 41350 80000 10034 20016 39857 40241 56006 71022 886// 333 88708;
0236118410999992000112818004+49230+018610FM-12+031599999V0209999C000010018019N0050001N1+00291+00171102461ADDAA199000091AY121061AY221061GA1081+001809069GF108991081061001501999999KA1120M+00401MA1999999098621MD1110051+9999MW1101REMSYN088AAXX  28181 11841 31250 80000 10029 20017 39862 40246 51005 71022 886// 333 10040 88706;EQDQ01  00002PRCP99
0187118410999992000112821004+49230+018610FM-12+031599999V0201301N001010018019N0050001N1+00281+00161102451ADDAY121031AY221031GA1081+001809069GF108991081061001501999999MA1999999098601MD1810021+9999MW1101REMSYN082AAXX  28211 11841 41250 81301 10028 20016 39860 40245 58002 71022 886// 333 88706;
0237118410999992000112900004+49230+018610FM-12+031599999V0203401N001010012019N0030001N1+00191+00121102451ADDAA199000091AY121061AY221061GA1081+001209079GF108991081061001501999999GJ100009MA1999999098591MD1810011+9999MW1101REMSYN094AAXX  29001 11841 31230 83401 10019 20012 39859 40245 58001 71022 886// 333 55000 88704 88704;EQDQ01  00002PRCP99
0187118410999992000112903004+49230+018610FM-12+031599999V0209999C000010108019N0050001N1+00251+00161102401ADDAY121031AY221031GA1081+010809059GF108991081051012501999999MA1999999098551MD1610041+9999MW1101REMSYN082AAXX  29031 11841 41650 80000 10025 20016 39855 40240 56004 71022 885// 333 88636;
0260118410999992000112906004+49230+018610FM-12+031599999V0209999C000010099019N0045001N1+00311+00191102371ADDAA199000091AY121061AY221061GA1081+009909059GF108991081051012501999999IA1099IA2999+00209KA1120N+00191MA1999999098531MD1510021+9999MW1101REMSYN094AAXX  29061 11841 31645 80000 10031 20019 39853 40237 55002 71022 885// 333 20019 31002 88633;EQDQ01  00002PRCP99
0187118410999992000112909004+49230+018610FM-12+031599999V0209999C000010084019N0080001N1+00431+00231102411ADDAY121031AY221031GA1081+008409059GF108991081051008001999999MA1999999098591MD1210061+9999MW1101REMSYN082AAXX  29091 11841 41558 80000 10043 20023 39859 40241 52006 71022 885// 333 88628;
0189118410999992000112912004+49230+018610FM-12+031599999V0200701N001010102019N0150001N1+00721+00191102281ADDAA199000091GA1081+010209059GF108991081051012501999999MA1999999098501MD1710091+9999REMSYN076AAXX  29121 11841 32665 80701 10072 20019 39850 40228 57009 885// 333 88634;EQDQ01  00002PRCP99
0165118410999992000112915004+49230+018610FM-12+031599999V0201101N001012200019N0150001N1+00691+00351102171ADDGA1011+030009039GF103991011001999999031011MA1999999098391MD1810111+9999REMSYN082AAXX  29151 11841 42965 31101 10069 20035 39839 40217 58011 81031 333 81360 83070;
0196118410999992000112918004+49230+018610FM-12+031599999V0209999C000012200019N0100001N1+00201+00101102251ADDAA199000091GA1001+999999999GF100991001001999999001001KA1999M+00831MA1999999098401MD1110011+9999REMSYN070AAXX  29181 11841 32960 00000 10020 20010 39840 40225 51001 333 10083;EQDQ01  00002PRCP99
0187118410999992000112921004+49230+018610FM-12+031599999V0209999C000012200019N0023001N1+00011-00051102321ADDAY101031AY201031GA1021+001509069GF102991021061001501001001MA1999999098441MD1010041+9999MW1101REMSYN082AAXX  29211 11841 41223 20000 10001 21005 39844 40232 50004 71000 82600 333 82705;
0225118410999992000113000004+49230+018610FM-12+031599999V0209999C000010006019N0001001N1-00021-00051102291ADDAA199000091AY111061AY211061GA1091+000609999GF109991091999999999999999GJ100069MA1999999098411MD1610031+9999MW1471REMSYN082AAXX  30001 11841 31/01 90000 11002 21005 39841 40229 56003 74711 333 55001 89/02;EQDQ01  00002PRCP99
0181118410999992000113003004+49230+018610FM-12+031599999V0209999C000010003019N0001001N1-00081-00091102341ADDAY141031AY241031GA1091+000309999GF109991091999999999999999MA1999999098451MD1110041+9999MW1451REMSYN076AAXX  30031 11841 41/01 90000 11008 21009 39845 40234 51004 74544 333 89/01;
0254118410999992000113006004+49230+018610FM-12+031599999V0209999C000010003019N0003001N1-00191-00201102411ADDAA199000091AY141061AY241061GA1091+000309999GF109991091999999999999999IA1149IA2999-00309KA1120N-00191MA1999999098501MD1310051+9999MW1431REMSYN088AAXX  30061 11841 31/03 90000 11019 21020 39850 40241 53005 74344 333 21019 34103 89/01;EQDQ01  00002PRCP99
0171118410999992000113009004+49230+018610FM-12+031599999V0209999C000012200019N0005001N1-00061-00091102501ADDAY141031AY241031GA1001+999999999GF100991001001999999001001MA1999999098601MD1110101+9999MW1441REMSYN066AAXX  30091 11841 41905 00000 11006 21009 39860 40250 51010 74444;
0217118410999992000113012004+49230+018610FM-12+031599999V0202801N002010600019N0200001N1+00641+00231102291ADDAA199000091AY141061AY211061GA1051+060009019GF105991001001999999001021MA1999999098501MD1710101+9999MW1021REMSYN082AAXX  30121 11841 31970 52802 10064 20023 39850 40229 57010 70241 80002 333 85070;EQDQ01  00002PRCP99
0159118410999992000113015004+49230+018610FM-12+031599999V0203401N001012200019N0200001N1+00511+00101102321ADDGA1041+060009019GF104991001001999999001021MA1999999098511MD1310011+9999REMSYN076AAXX  30151 11841 42970 43401 10051 20010 39851 40232 53001 80002 333 84070;
0208118410999992000113018004+49230+018610FM-12+031599999V0209999C000012200019N0100001N1+00061-00081102471ADDAA199000091GA1021+060009019GF102991001001999999001011KA1120M+00851MA1999999098591MD1110081+9999REMSYN082AAXX  30181 11841 32960 20000 10006 21008 39859 40247 51008 80001 333 10085 82070;EQDQ01  00002PRCP99
0187118410999992000113021004+49230+018610FM-12+031599999V0209999C000012200019N0080001N1-00061-00131102531ADDAY101031AY201031GA1021+060009019GF102991001001999999001011MA1999999098631MD1310041+9999MW1101REMSYN082AAXX  30211 11841 41958 20000 11006 21013 39863 40253 53004 71000 80001 333 82070;
0211118410999992000120100004+49230+018610FM-12+031599999V0209999C000012200019N0070001N1-00141-00201102561ADDAA199000091AY101061AY201061GA1001+999999999GF100991001001999999001001MA1999999098651MD1310021+9999MW1101REMSYN076AAXX  01001 11841 31957 00000 11014 21020 39865 40256 53002 71000 333 55029;EQDQ01  00002PRCP99
0181118410999992000120103004+49230+018610FM-12+031599999V0209999C000010006019N0003001N1-00181-00221102581ADDAY111031AY211031GA1091+000609999GF109991091999999999999999MA1999999098661MD1010011+9999MW1471REMSYN076AAXX  01031 11841 41/03 90000 11018 21022 39866 40258 50001 74711 333 89/02;
0266118410999992000120106004+49230+018610FM-12+031599999V0209999C000012200019N0015001N1-00251-00281102601ADDAA199000091AY141061AY211061GA1021+000909079GF104991021061000751001021IA1149IA2999-00609KA1120N-00261MA1999999098671MD1310011+9999MW1281REMSYN100AAXX  01061 11841 31115 40000 11025 21028 39867 40260 53001 72841 82602 333 21026 34106 82703 84070;EQDQ01  00002PRCP99
0187118410999992000120109004+49230+018610FM-12+031599999V0209999C000012200019N0009001N1-00031-00101102581ADDAY111031AY211031GA1011+001209069GF102991011061001501031001MA1999999098681MD1110011+9999MW1421REMSYN082AAXX  01091 11841 41209 20000 11003 21010 39868 40258 51001 74211 81630 333 81704;
0201118410999992000120112004+49230+018610FM-12+031599999V0209999C000012200019N0100001N1+00711-00011102261ADDAA199000091AY141061AY211061GA1001+999999999GF100991001001999999001001MA1999999098481MD1810201+9999MW1021REMSYN066AAXX  01121 11841 31960 00000 10071 21001 39848 40226 58020 70241;EQDQ01  00002PRCP99
0143118410999992000120115004+49230+018610FM-12+031599999V0201301N001012200019N0150001N1+00291+00011102281ADDGA1001+999999999GF100991001001999999001001MA1999999098441MD1710041+9999REMSYN060AAXX  01151 11841 42965 01301 10029 20001 39844 40228 57004;
0196118410999992000120118004+49230+018610FM-12+031599999V0209999C000012200019N0100001N1-00031-00131102331ADDAA199000091GA1001+999999999GF100991001001999999001001KA1999M+00731MA1999999098441MD1010001+9999REMSYN070AAXX  01181 11841 32960 00000 11003 21013 39844 40233 50000 333 10073;EQDQ01  00002PRCP99
0171118410999992000120121004+49230+018610FM-12+031599999V0209999C000012200019N0060001N1-00191-00241102351ADDAY101031AY201031GA1001+999999999GF100991001001999999001001MA1999999098441MD1410001+9999MW1101REMSYN066AAXX  01211 11841 41956 00000 11019 21024 39844 40235 54000 71000;
0211118410999992000120200004+49230+018610FM-12+031599999V0201201N001012200019N0018001N1-00291-00331102311ADDAA199000091AY101061AY201061GA1001+999999999GF100991001001999999001001MA1999999098391MD1810051+9999MW1101REMSYN076AAXX  02001 11841 31918 01201 11029 21033 39839 40231 58005 71000 333 55054;EQDQ01  00002PRCP99
0171118410999992000120203004+49230+018610FM-12+031599999V0209999C000012200019N0023001N1-00291-00321102331ADDAY101031AY201031GA1001+999999999GF100991001001999999001001MA1999999098411MD1310021+9999MW1101REMSYN066AAXX  02031 11841 41923 00000 11029 21032 39841 40233 53002 71000;
0254118410999992000120206004+49230+018610FM-12+031599999V0201301N001010006019N0003001N1-00231-00261102431ADDAA199000091AY111061AY211061GA1091+000609999GF109991091999999999999999IA1149IA2999-00709KA1120N-00361MA1999999098511MD1310101+9999MW1471REMSYN088AAXX  02061 11841 31/03 91301 11023 21026 39851 40243 53010 74711 333 21036 34107 89/02;EQDQ01  00002PRCP99
0187118410999992000120209004+49230+018610FM-12+031599999V0209999C000010012019N0005001N1-00101-00131102541ADDAY141031AY241031GA1081+001209069GF108991081061001501999999MA1999999098641MD1110131+9999MW1421REMSYN082AAXX  02091 11841 41205 80000 11010 21013 39864 40254 51013 74244 886// 333 88704;
0217118410999992000120212004+49230+018610FM-12+031599999V0200801N002010015019N0012001N1+00041-00031102431ADDAA199000091AY141061AY241061GA1081+001509069GF108991081061001501999999MA1999999098551MD1710091+9999MW1281REMSYN082AAXX  02121 11841 31212 80802 10004 21003 39855 40243 57009 72844 886// 333 88705;EQDQ01  00002PRCP99
0187118410999992000120215004+49230+018610FM-12+031599999V0201301N001010021019N0015001N1+00071-00021102351ADDAY121031AY221031GA1081+002109069GF108991081061002501999999MA1999999098481MD1610071+9999MW1101REMSYN082AAXX  02151 11841 41315 81301 10007 21002 39848 40235 56007 71022 886// 333 88707;
0236118410999992000120218004+49230+018610FM-12+031599999V0209999C000010012019N0020001N1+00031-00031102381ADDAA199000091AY121061AY221061GA1081+001209069GF108991081061001501999999KA1120M+00091MA1999999098501MD1310021+9999MW1101REMSYN088AAXX  02181 11841 31220 80000 10003 21003 39850 40238 53002 71022 886// 333 10009 88704;EQDQ01  00002PRCP99
0181118410999992000120221004+49230+018610FM-12+031599999V0201301N001010006019N0007001N1+00011-00031102371ADDAY121031AY221031GA1091+000609999GF109991091999999999999999MA1999999098491MD1810011+9999MW1471REMSYN076AAXX  02211 11841 41/07 91301 10001 21003 39849 40237 58001 74722 333 89/02;
0225118410999992000120300004+49230+018610FM-12+031599999V0201001N002010006019N0005001N1-00011-00041102321ADDAA199000091AY121061AY221061GA1091+000609999GF109991091999999999999999GJ100009MA1999999098441MD1810051+9999MW1451REMSYN082AAXX  03001 11841 31/05 91002 11001 21004 39844 40232 58005 74522 333 55000 89/02;EQDQ01  00002PRCP99
0187118410999992000120303004+49230+018610FM-12+031599999V0201801N001010012019N0012001N1-00071-00111102271ADDAY141031AY241031GA1081+001209069GF108991081061001501999999MA1999999098381MD1610061+9999MW1101REMSYN082AAXX  03031 11841 41212 81801 11007 21011 39838 40227 56006 71044 886// 333 88704;
0254118410999992000120306004+49230+018610FM-12+031599999V0209999C000010003019N0007001N1-00071-00101102311ADDAA199000091AY141061AY221061GA1091+000309999GF109991091999999999999999IA1099IA2999-00109KA1120N-00061MA1999999098421MD1310041+9999MW1471REMSYN088AAXX  03061 11841 31/07 90000 11007 21010 39842 40231 53004 74742 333 21006 31101 89/01;EQDQ01  00002PRCP99
0187118410999992000120309004+49230+018610FM-12+031599999V0201001N001010012019N0016001N1+00051-00061102321ADDAY141031AY221031GA1081+001209069GF108991081061001501999999MA1999999098451MD1110031+9999MW1101REMSYN082AAXX  03091 11841 41216 81001 10005 21006 39845 40232 51003 71042 886// 333 88704;
0217118410999992000120312004+49230+018610FM-12+031599999V0202801N001010021019N0022001N1+00201+00051102251ADDAA199000091AY141061AY221061GA1081+002109069GF108991081061002501999999MA1999999098401MD1810051+9999MW1101REMSYN082AAXX  03121 11841 31322 82801 10020 20005 39840 40225 58005 71042 886// 333 88707;EQDQ01  00002PRCP99
0101118410999992000120315004+49230+018610FM-12+031599999V0202701N002019999999N9999999N1+00251+00201102241ADDMA1999999098401MD1710021+9999REMSYN060AAXX  03151 11841 46/// /2702 10025 20020 39840 40224 57002;
0236118410999992000120318004+49230+018610FM-12+031599999V0202601N002010018019N0011001N1+00331+00291102341ADDAA199000091AY121061AY221061GA1081+001809069GF108991081061001501999999KA1120M+00331MA1999999098511MD1210111+9999MW1101REMSYN088AAXX  03181 11841 31211 82602 10033 20029 39851 40234 52011 71022 886// 333 10033 88706;EQDQ01  00002PRCP99
0187118410999992000120321004+49230+018610FM-12+031599999V0202201N002010015019N0010001N1+00421+00331102401ADDAY121031AY221031GA1081+001509069GF108991081061001501999999MA1999999098581MD1310071+9999MW1101REMSYN082AAXX  03211 11841 41210 82202 10042 20033 39858 40240 53007 71022 886// 333 88705;
0225118410999992000120400004+49230+018610FM-12+031599999V0209999C000010003019N0007001N1+00391+00321102391ADDAA199000091AY121061AY221061GA1091+000309999GF109991091999999999999999GJ100009MA1999999098561MD1810021+9999MW1471REMSYN082AAXX  04001 11841 31/07 90000 10039 20032 39856 40239 58002 74722 333 55000 89/01;EQDQ01  00002PRCP99
0187118410999992000120403004+49230+018610FM-12+031599999V0201101N001010012019N0018001N1+00371+00311102411ADDAY121031AY221031GA1081+001209069GF108991081061001501999999MA1999999098581MD1110021+9999MW1101REMSYN082AAXX  04031 11841 41218 81101 10037 20031 39858 40241 51002 71022 886// 333 88704;
0260118410999992000120406004+49230+018610FM-12+031599999V0200501N001010018019N0022001N1+00371+00311102391ADDAA199000091AY141061AY221061GA1081+001809069GF108991081061001501999999IA1099IA2999+00309KA1120N+00331MA1999999098561MD1510021+9999MW1101REMSYN094AAXX  04061 11841 31222 80501 10037 20031 39856 40239 55002 71042 886// 333 20033 31003 88706;EQDQ01  00002PRCP99
0187118410999992000120409004+49230+018610FM-12+031599999V0209999C000010024019N0080001N1+00421+00271102471ADDAY121031AY221031GA1081+002409069GF108991081061002501999999MA1999999098641MD1110081+9999MW1101REMSYN082AAXX  04091 11841 41358 80000 10042 20027 39864 40247 51008 71022 886// 333 88708;
0217118410999992000120412004+49230+018610FM-12+031599999V0201601N001010024019N0080001N1+00461+00291102371ADDAA199000091AY121061AY221061GA1081+002409069GF108991081061002501999999MA1999999098551MD1610091+9999MW1101REMSYN082AAXX  04121 11841 31358 81601 10046 20029 39855 40237 56009 71022 886// 333 88708;EQDQ01  00002PRCP99
0187118410999992000120415004+49230+018610FM-12+031599999V0201401N002010021019N0040001N1+00451+00331102381ADDAY121031AY221031GA1081+002109069GF108991081061002501999999MA1999999098561MD1310011+9999MW1101REMSYN082AAXX  04151 11841 41340 81402 10045 20033 39856 40238 53001 71022 886// 333 88707;
0236118410999992000120418004+49230+018610FM-12+031599999V0209999C000010021019N0060001N1+00421+00321102401ADDAA199000091AY121061AY221061GA1081+002109069GF108991081061002501999999KA1120M+00491MA1999999098581MD1110021+9999MW1101REMSYN088AAXX  04181 11841 31356 80000 10042 20032 39858 40240 51002 71022 886// 333 10049 88707;EQDQ01  00002PRCP99
0193118410999992000120421004+49230+018610FM-12+031599999V0202201N001010018019N0060001N1+00381+00311102491ADDAY121031AY221031GA1051+001809079GF108991081071001501999999MA1999999098661MD1310081+9999MW1501REMSYN088AAXX  04211 11841 41256 82201 10038 20031 39866 40249 53008 75022 887// 333 85706 88709;
0122118410999992000120500004+49230+018610FM-12+031599999V0202501N002019999999N9999999N1+00361+00311102521ADDAA199000021MA1999999098691MD1210041+9999REMSYN070AAXX  05001 11841 36/// /2502 10036 20031 39869 40252 52004 333 55000;
0101118410999992000120503004+49230+018610FM-12+031599999V0202401N001019999999N9999999N1+00361+00321102531ADDMA1999999098701MD1210011+9999REMSYN060AAXX  05031 11841 46/// /2401 10036 20032 39870 40253 52001;
0253118410999992000120506004+49230+018610FM-12+031599999V0202501N001010015019N0016001N1+00371+00331102591ADDAA112000791AY151061AY221061GA1051+001509079GF108991081071001501999999IA1099IA2999+00409KA1120N+00361MA1999999098751MD1110031+9999MW1501REMSYN106AAXX  05061 11841 11216 82501 10037 20033 39875 40259 51003 69902 75052 887// 333 20036 31004 85705 88709;
0193118410999992000120509004+49230+018610FM-12+031599999V0209999C00001001201CN0042001N1+00451+00391102681ADDAY151031AY221031GA1031+001209079GF108991081061001501999999MA1999999098851MD1210101+9999MW1101REMSYN088AAXX  05091 11841 41242 80000 10045 20039 39885 40268 52010 71052 886// 333 83704 88707;
0210118410999992000120512004+49230+018610FM-12+031599999V0202601N00101001201CN0060001N1+00511+00361102611ADDAA106000791AY151061AY221061GA1021+001209079GF108991081061001501999999MA1999999098791MD1810061+9999MW1101REMSYN094AAXX  05121 11841 11256 82601 10051 20036 39879 40261 58006 69901 71052 886// 333 82704 88708;
0187118410999992000120515004+49230+018610FM-12+031599999V0209999C000010021019N0042001N1+00501+00361102591ADDAY121031AY221031GA1081+002109069GF108991081061002501999999MA1999999098771MD1710021+9999MW1101REMSYN082AAXX  05151 11841 41342 80000 10050 20036 39877 40259 57002 71022 886// 333 88707;
0223118410999992000120518004+49230+018610FM-12+031599999V0200601N001010015019N0042001N1+00471+00381102651ADDAA112000791AY121061AY221061GA1081+001509069GF108991081061001501999999KA1120M+00521MA1999999098821MD1310051+9999MW1101REMSYN094AAXX  05181 11841 11242 80601 10047 20038 39882 40265 53005 69902 71022 886// 333 10052 88705;
0187118410999992000120521004+49230+018610FM-12+031599999V0209999C000010021019N0047001N1+00421+00301102651ADDAY121031AY221031GA1081+002109069GF108991081061002501999999MA1999999098821MD1510001+9999MW1101REMSYN082AAXX  05211 11841 41347 80000 10042 20030 39882 40265 55000 71022 886// 333 88707;
0231118410999992000120600004+49230+018610FM-12+031599999V0201001N002010018019N0042001N1+00361+00261102641ADDAA199000091AY121061AY221061GA1081+001809069GF108991081061001501999999GJ100009MA1999999098801MD1810021+9999MW1101REMSYN088AAXX  06001 11841 31242 81002 10036 20026 39880 40264 58002 71022 886// 333 55000 88706;EQDQ01  00002PRCP99
0187118410999992000120603004+49230+018610FM-12+031599999V0201301N001010012019N0028001N1+00271+00201102541ADDAY121031AY221031GA1081+001209069GF108991081061001501999999MA1999999098691MD1710111+9999MW1101REMSYN082AAXX  06031 11841 41228 81301 10027 20020 39869 40254 57011 71022 886// 333 88704;
0254118410999992000120606004+49230+018610FM-12+031599999V0201001N001010001519N0003001N1+00201+00171102571ADDAA199000091AY141061AY221061GA1091+000159999GF109991091999999999999999IA1099IA2999+00209KA1120N+00201MA1999999098711MD1310021+9999MW1471REMSYN088AAXX  06061 11841 31/03 91001 10020 20017 39871 40257 53002 74742 333 20020 31002 89/00;EQDQ01  00002PRCP99
0181118410999992000120609004+49230+018610FM-12+031599999V0200901N001010003019N0002001N1+00181+00141102581ADDAY141031AY241031GA1091+000309999GF109991091999999999999999MA1999999098721MD1010011+9999MW1451REMSYN076AAXX  06091 11841 41/02 90901 10018 20014 39872 40258 50001 74544 333 89/01;
0211118410999992000120612004+49230+018610FM-12+031599999V0202701N001010003019N0001001N1+00321+00251102431ADDAA199000091AY141061AY241061GA1091+000309999GF109991091999999999999999MA1999999098591MD1810131+9999MW1471REMSYN076AAXX  06121 11841 31/01 92701 10032 20025 39859 40243 58013 74744 333 89/01;EQDQ01  00002PRCP99
0181118410999992000120615004+49230+018610FM-12+031599999V0202501N001010003019N0001001N1+00351+00311102381ADDAY141031AY241031GA1091+000309999GF109991091999999999999999MA1999999098551MD1510041+9999MW1451REMSYN076AAXX  06151 11841 41/01 92501 10035 20031 39855 40238 55004 74544 333 89/01;
0230118410999992000120618004+49230+018610FM-12+031599999V0203201N002010001519N0001001N1+00211+00181102421ADDAA199000091AY141061AY241061GA1091+000159999GF109991091999999999999999KA1120M+00361MA1999999098571MD1010021+9999MW1451REMSYN082AAXX  06181 11841 31/01 93202 10021 20018 39857 40242 50002 74544 333 10036 89/00;EQDQ01  00002PRCP99
0181118410999992000120621004+49230+018610FM-12+031599999V0203301N002010003019N0001001N1+00021+00011102441ADDAY141031AY241031GA1091+000309999GF109991091999999999999999MA1999999098561MD1510011+9999MW1451REMSYN076AAXX  06211 11841 41/01 93302 10002 20001 39856 40244 55001 74544 333 89/01;
0141118410999992000120700004+49230+018610FM-12+031599999V0203001N001019999999N9999999N1-00011-00031102451ADDAA199000091MA1999999098571MD1210021+9999REMSYN070AAXX  07001 11841 36/// /3001 11001 21003 39857 40245 52002 333 55001;EQDQ01  00002PRCP99
0181118410999992000120703004+49230+018610FM-12+031599999V0203101N001010003019N0002001N1+00051+00041102421ADDAY141031AY241031GA1091+000309999GF109991091999999999999999MA1999999098541MD1610031+9999MW1431REMSYN076AAXX  07031 11841 41/02 93101 10005 20004 39854 40242 56003 74344 333 89/01;
0260118410999992000120706004+49230+018610FM-12+031599999V0202601N002010015019N0035001N1+00101+00091102431ADDAA199000091AY141061AY221061GA1081+001509069GF108991081061001501999999IA1099IA2999+00009KA1120N-00051MA1999999098561MD1310021+9999MW1101REMSYN094AAXX  07061 11841 31235 82602 10010 20009 39856 40243 53002 71042 886// 333 21005 31100 88705;EQDQ01  00002PRCP99
0193118410999992000120709004+49230+018610FM-12+031599999V0202401N00301001201CN0032001N1+00231+00161102431ADDAY121031AY221031GA1041+001809079GF107991071051001501999999MA1999999098581MD1010021+9999MW1101REMSYN088AAXX  07091 11841 41232 72403 10023 20016 39858 40243 50002 71022 875// 333 84706 86630;
0223118410999992000120712004+49230+018610FM-12+031599999V0202401N00401002101CN0040001N1+00281+00131102321ADDAA199000091AY121061AY221061GA1021+002709079GF107991071061002501999999MA1999999098481MD1810101+9999MW1101REMSYN088AAXX  07121 11841 31340 72404 10028 20013 39848 40232 58010 71022 876// 333 82709 87715;EQDQ01  00002PRCP99
0101118410999992000120715004+49230+018610FM-12+031599999V0202901N002019999999N9999999N1+00221+00111102221ADDMA1999999098381MD1710121+9999REMSYN060AAXX  07151 11841 46/// /2902 10022 20011 39838 40222 57012;
0242118410999992000120718004+49230+018610FM-12+031599999V0202801N002010015019N0035001N1+00191+00121102131ADDAA199000091AY121061AY221061GA1051+001509079GF107991071051001501999999KA1120M+00301MA1999999098281MD1710101+9999MW1101REMSYN094AAXX  07181 11841 31235 72802 10019 20012 39828 40213 57010 71022 875// 333 10030 85705 86625;EQDQ01  00002PRCP99
0193118410999992000120721004+49230+018610FM-12+031599999V0209999C00001001201CN0028001N1+00231+00161102001ADDAY121031AY221031GA1031+001509079GF108991081051001501999999MA1999999098161MD1710121+9999MW1101REMSYN088AAXX  07211 11841 41228 80000 10023 20016 39816 40200 57012 71022 885// 333 83705 88628;
0231118410999992000120800004+49230+018610FM-12+031599999V0200301N001010066019N0050001N1+00331+00241101791ADDAA199000091AY121061AY221061GA1081+006609059GF108991081051008001999999GJ100009MA1999999097981MD1610181+9999MW1101REMSYN088AAXX  08001 11841 31550 80301 10033 20024 39798 40179 56018 71022 885// 333 55000 88622;EQDQ01  00002PRCP99
0159118410999992000120803004+49230+018610FM-12+031599999V0201701N004010075019N0100001N1+00831+00391101611ADDGA1081+007509059GF108991081051008001999999MA1999999097871MD1610111+9999REMSYN076AAXX  08031 11841 42560 81704 10083 20039 39787 40161 56011 885// 333 88625;
0232118410999992000120806004+49230+018610FM-12+031599999V0202201N003010063019N0100001N1+00801+00361101671ADDAA199000091GA1081+006309059GF108991081051008001999999IA1099IA2999+00209KA1120N+00191MA1999999097921MD1310051+9999REMSYN088AAXX  08061 11841 32560 82203 10080 20036 39792 40167 53005 885// 333 20019 31002 88621;EQDQ01  00002PRCP99
0159118410999992000120809004+49230+018610FM-12+031599999V0202201N002010063019N0100001N1+00751+00391101701ADDGA1081+006309059GF108991081051008001999999MA1999999097951MD1010031+9999REMSYN076AAXX  08091 11841 42560 82202 10075 20039 39795 40170 50003 885// 333 88621;
0189118410999992000120812004+49230+018610FM-12+031599999V0202801N002010063019N0120001N1+00751+00411101691ADDAA199000091GA1081+006309059GF108991081051008001999999MA1999999097941MD1510011+9999REMSYN076AAXX  08121 11841 32562 82802 10075 20041 39794 40169 55001 885// 333 88621;EQDQ01  00002PRCP99
0187118410999992000120815004+49230+018610FM-12+031599999V0202601N003010075019N0100001N1+00681+00451101741ADDAY161031AY221031GA1081+007509059GF108991081051008001999999MA1999999097981MD1310041+9999MW1211REMSYN082AAXX  08151 11841 41560 82603 10068 20045 39798 40174 53004 72162 885// 333 88625;
0223118410999992000120818004+49230+018610FM-12+031599999V0209999C000010063019N0100001N1+00631+00451101801ADDAA112000791AY161061AY221061GA1071+006309059GF107991071051008001999999KA1120M+00811MA1999999098031MD1310051+9999MW1021REMSYN094AAXX  08181 11841 11560 70000 10063 20045 39803 40180 53005 69902 70262 875// 333 10081 87621;
0159118410999992000120821004+49230+018610FM-12+031599999V0201201N001010072019N0100001N1+00621+00421101821ADDGA1081+007209059GF108991081051008001999999MA1999999098041MD1010011+9999REMSYN076AAXX  08211 11841 42560 81201 10062 20042 39804 40182 50001 885// 333 88624;
0184118410999992000120900004+49230+018610FM-12+031599999V0201101N001010075019N0100001N1+00611+00431101801ADDAA199000021GA1081+007509059GF108991081051008001999999GJ100009MA1999999098021MD1810021+9999REMSYN082AAXX  09001 11841 32560 81101 10061 20043 39802 40180 58002 885// 333 55000 88625;
0187118410999992000120903004+49230+018610FM-12+031599999V0202401N001010087019N0100001N1+00571+00451101801ADDAY161031AY221031GA1081+008709059GF108991081051008001999999MA1999999098021MD1010001+9999MW1601REMSYN082AAXX  09031 11841 41560 82401 10057 20045 39802 40180 50000 76062 885// 333 88629;
0253118410999992000120906004+49230+018610FM-12+031599999V0202501N00301002101CN0060001N1+00591+00521101941ADDAA112001091AY161061AY221061GA1021+001809079GF108991081051002501999999IA1099IA2999+00509KA1120N+00531MA1999999098161MD1310141+9999MW1211REMSYN106AAXX  09061 11841 11356 82503 10059 20052 39816 40194 53014 69992 72162 885// 333 20053 31005 82706 88626;
0187118410999992000120909004+49230+018610FM-12+031599999V0202601N002010060019N0070001N1+00631+00451102021ADDAY121031AY221031GA1081+006009059GF108991081051008001999999MA1999999098241MD1310081+9999MW1101REMSYN082AAXX  09091 11841 41557 82602 10063 20045 39824 40202 53008 71022 885// 333 88620;
0198118410999992000120912004+49230+018610FM-12+031599999V0202401N004010054019N0080001N1+00651+00361102041ADDAA199000021AY121061AY221061GA1081+005409059GF108991081051004501999999MA1999999098261MD1310021+9999MW1101REMSYN082AAXX  09121 11841 31458 82404 10065 20036 39826 40204 53002 71022 885// 333 88618;
0193118410999992000120915004+49230+018610FM-12+031599999V0202701N002010054019N0033001N1+00561+00411102161ADDAY161031AY221031GA1061+005409069GF108991081051004501999999MA1999999098361MD1310101+9999MW1611REMSYN088AAXX  09151 11841 41433 82702 10056 20041 39836 40216 53010 76162 885// 333 86618 88656;
0223118410999992000120918004+49230+018610FM-12+031599999V0209999C000010021019N0022001N1+00491+00431102151ADDAA112002091AY161061AY221061GA1081+002109069GF108991081071002501999999KA1120M+00681MA1999999098351MD1510011+9999MW1211REMSYN094AAXX  09181 11841 11322 80000 10049 20043 39835 40215 55001 60022 72162 887// 333 10068 88707;
0187118410999992000120921004+49230+018610FM-12+031599999V0202801N001010021019N0022001N1+00471+00411102211ADDAY161031AY221031GA1081+002109069GF108991081061002501999999MA1999999098401MD1310051+9999MW1101REMSYN082AAXX  09211 11841 41322 82801 10047 20041 39840 40221 53005 71062 886// 333 88707;
0218118410999992000121000004+49230+018610FM-12+031599999V0209999C000010021019N0018001N1+00461+00401102211ADDAA106000791AY161061AY221061GA1081+002109069GF108991081071002501999999GJ100009MA1999999098401MD1010001+9999MW1211REMSYN094AAXX  10001 11841 11318 80000 10046 20040 39840 40221 50000 69901 72162 887// 333 55000 88707;
0187118410999992000121003004+49230+018610FM-12+031599999V0201001N001010024019N0018001N1+00471+00411102131ADDAY121031AY221031GA1081+002409069GF108991081061002501999999MA1999999098321MD1810081+9999MW1101REMSYN082AAXX  10031 11841 41318 81001 10047 20041 39832 40213 58008 71022 886// 333 88708;
0247118410999992000121006004+49230+018610FM-12+031599999V0201901N001010024019N0018001N1+00471+00411102131ADDAA112000191AY161061AY221061GA1081+002409069GF108991081061002501999999IA1099IA2999+00409KA1120N+00461MA1999999098321MD1510001+9999MW1211REMSYN100AAXX  10061 11841 11318 81901 10047 20041 39832 40213 55000 69912 72162 886// 333 20046 31004 88708;
0193118410999992000121009004+49230+018610FM-12+031599999V0209999C00001001201CN0012001N1+00531+00441102191ADDAY161031AY221031GA1031+000909079GF108991081061001501999999MA1999999098391MD1210071+9999MW1211REMSYN088AAXX  10091 11841 41212 80000 10053 20044 39839 40219 52007 72162 886// 333 83703 88707;
0204118410999992000121012004+49230+018610FM-12+031599999V0209999C000010015019N0013001N1+00671+00521102101ADDAA106000791AY121061AY221061GA1081+001509069GF108991081071001501999999MA1999999098321MD1810071+9999MW1601REMSYN088AAXX  10121 11841 11213 80000 10067 20052 39832 40210 58007 69901 76022 887// 333 88705;
0187118410999992000121015004+49230+018610FM-12+031599999V0200401N001010018019N0022001N1+00661+00561102091ADDAY161031AY221031GA1081+001809069GF108991081061001501999999MA1999999098311MD1510011+9999MW1101REMSYN082AAXX  10151 11841 41222 80401 10066 20056 39831 40209 55001 71062 886// 333 88706;
0141118410999992000121018004+49230+018610FM-12+031599999V0202401N003019999999N9999999N1+00681+00571102071ADDAA112001091KA1999M+00691MA1999999098301MD1410001+9999REMSYN076AAXX  10181 11841 16/// /2403 10068 20057 39830 40207 54000 60012 333 10069;
0101118410999992000121021004+49230+018610FM-12+031599999V0202701N002019999999N9999999N1+00631+00561102021ADDMA1999999098241MD1710061+9999REMSYN060AAXX  10211 11841 46/// /2702 10063 20056 39824 40202 57006;
0218118410999992000121100004+49230+018610FM-12+031599999V0202501N004010018019N0044001N1+00691+00551101921ADDAA106002091AY161061AY221061GA1081+001809069GF108991081071001501999999GJ100009MA1999999098151MD1710101+9999MW1601REMSYN094AAXX  11001 11841 11244 82504 10069 20055 39815 40192 57010 60021 76062 887// 333 55000 88706;
0101118410999992000121103004+49230+018610FM-12+031599999V0202701N004019999999N9999999N1+00721+00581101891ADDMA1999999098131MD1710041+9999REMSYN060AAXX  11031 11841 46/// /2704 10072 20058 39813 40189 57004;
0247118410999992000121106004+49230+018610FM-12+031599999V0202501N005010075019N0250001N1+00661+00411102081ADDAA112004191AY161061AY221061GA1081+007509059GF108991081051008001999999IA1099IA2999+00509KA1120N+00621MA1999999098301MD1310171+9999MW1601REMSYN100AAXX  11061 11841 11575 82505 10066 20041 39830 40208 53017 60042 76062 885// 333 20062 31005 88625;
0193118410999992000121109004+49230+018610FM-12+031599999V0202801N00201004201CN0200001N1+00681+00461102401ADDAY161031AY221031GA1021+004809079GF108991081051004501999999MA1999999098611MD1210311+9999MW1211REMSYN088AAXX  11091 11841 41470 82802 10068 20046 39861 40240 52031 72162 885// 333 82716 88627;
0232118410999992000121112004+49230+018610FM-12+031599999V0202401N00201004201CN0250001N1+00821+00481102441ADDAA106000591AY161061AY221061GA1011+004809079GA2031+009909069GF107991071051004501001001MA1999999098671MD1110061+9999MW1021REMSYN100AAXX  11121 11841 11475 72402 10082 20048 39867 40244 51006 69961 70262 87500 333 81716 83633 87650;
0159118410999992000121115004+49230+018610FM-12+031599999V0202501N002010123019N0250001N1+00721+00471102541ADDGA1071+012309059GF107991071051012501001001MA1999999098751MD1110081+9999REMSYN076AAXX  11151 11841 42675 72502 10072 20047 39875 40254 51008 87500 333 87641;
0195118410999992000121118004+49230+018610FM-12+031599999V0209999C000010075019N0180001N1+00671+00481102631ADDAA112000591GA1081+007509059GF108991081051008001999999KA1120M+00831MA1999999098831MD1110081+9999REMSYN088AAXX  11181 11841 12568 80000 10067 20048 39883 40263 51008 69962 885// 333 10083 88625;
0159118410999992000121121004+49230+018610FM-12+031599999V0209999C000010069019N0100001N1+00621+00531102701ADDGA1081+006909059GF108991081051008001999999MA1999999098891MD1110061+9999REMSYN076AAXX  11211 11841 42560 80000 10062 20053 39889 40270 51006 885// 333 88623;
0237118410999992000121200004+49230+018610FM-12+031599999V0203101N00101004201CN0050001N1+00611+00541102691ADDAA199000091AY121061AY221061GA1041+004209079GF108991081051004501999999GJ100009MA1999999098881MD1810011+9999MW1101REMSYN094AAXX  12001 11841 31450 83101 10061 20054 39888 40269 58001 71022 885// 333 55000 84714 88620;EQDQ01  00002PRCP99
0187118410999992000121203004+49230+018610FM-12+031599999V0202801N001010018019N0045001N1+00471+00401102681ADDAY121031AY221031GA1071+001809069GF107991071061001501001001MA1999999098851MD1810031+9999MW1101REMSYN082AAXX  12031 11841 41245 72801 10047 20040 39885 40268 58003 71022 87600 333 87706;
0260118410999992000121206004+49230+018610FM-12+031599999V0202501N001010015019N0048001N1+00511+00441102651ADDAA199000091AY121061AY221061GA1081+001509069GF108991081061001501999999IA1119IA2999+00309KA1120N+00471MA1999999098831MD1510021+9999MW1101REMSYN094AAXX  12061 11841 31248 82501 10051 20044 39883 40265 55002 71022 886// 333 20047 32003 88705;EQDQ01  00002PRCP99
0193118410999992000121209004+49230+018610FM-12+031599999V0209999C000010012019N0030001N1+00541+00451102621ADDAY121031AY221031GA1061+001209079GF108991081051001501999999MA1999999098801MD1710031+9999MW1611REMSYN088AAXX  12091 11841 41230 80000 10054 20045 39880 40262 57003 76122 885// 333 86704 88633;
0210118410999992000121212004+49230+018610FM-12+031599999V0209999C000010015019N0028001N1+00591+00501102501ADDAA106004191AY121061AY221061GA1061+001509079GF108991081071001501999999MA1999999098701MD1810101+9999MW1611REMSYN094AAXX  12121 11841 11228 80000 10059 20050 39870 40250 58010 60041 76122 887// 333 86705 88712;
0187118410999992000121215004+49230+018610FM-12+031599999V0202601N003010012019N0017001N1+00611+00551102451ADDAY161031AY261031GA1081+001209069GF108991081071001501999999MA1999999098651MD1510051+9999MW1611REMSYN082AAXX  12151 11841 41217 82603 10061 20055 39865 40245 55005 76166 887// 333 88704;
0223118410999992000121218004+49230+018610FM-12+031599999V0209999C000010072019N0080001N1+00631+00571102381ADDAA112005191AY161061AY221061GA1081+007209059GF108991081051008001999999KA1120M+00631MA1999999098591MD1610061+9999MW1211REMSYN094AAXX  12181 11841 11558 80000 10063 20057 39859 40238 56006 60052 72162 885// 333 10063 88624;
0193118410999992000121221004+49230+018610FM-12+031599999V0209999C00001002101CN0060001N1+00641+00581102331ADDAY161031AY221031GA1041+002409079GF108991081061002501999999MA1999999098541MD1710051+9999MW1101REMSYN088AAXX  12211 11841 41356 80000 10064 20058 39854 40233 57005 71062 886// 333 84708 88716;
0224118410999992000121300004+49230+018610FM-12+031599999V0209999C000010015019N0040001N1+00631+00571102221ADDAA106000191AY161061AY221061GA1051+001509079GF108991081051001501999999GJ100009MA1999999098431MD1810111+9999MW1211REMSYN100AAXX  13001 11841 11240 80000 10063 20057 39843 40222 58011 69921 72162 885// 333 55000 85705 88617;
0187118410999992000121303004+49230+018610FM-12+031599999V0202701N001010021019N0013001N1+00591+00531102081ADDAY161031AY221031GA1081+002109069GF108991081061002501999999MA1999999098291MD1810141+9999MW1211REMSYN082AAXX  13031 11841 41313 82701 10059 20053 39829 40208 58014 72162 886// 333 88707;
0247118410999992000121306004+49230+018610FM-12+031599999V0201801N001010012019N0008001N1+00591+00551101961ADDAA112000591AY161061AY221061GA1081+001209069GF108991081061001501999999IA1119IA2999+00509KA1120N+00571MA1999999098181MD1510111+9999MW1461REMSYN100AAXX  13061 11841 11208 81801 10059 20055 39818 40196 55011 69962 74662 886// 333 20057 32005 88704;
0187118410999992000121309004+49230+018610FM-12+031599999V0209999C000010012019N0011001N1+00651+00601101951ADDAY161031AY241031GA1081+001209069GF108991081061001501999999MA1999999098181MD1010001+9999MW1101REMSYN082AAXX  13091 11841 41211 80000 10065 20060 39818 40195 50000 71064 886// 333 88704;
0232118410999992000121312004+49230+018610FM-12+031599999V0201001N00101036001CN0030001N1+00721+00601101881ADDAA106000191AY161061AY241061GA1021+001509079GA2041+009009069GF108991041051001501071999MA1999999098121MD1610061+9999MW1101REMSYN100AAXX  13121 11841 11230 81001 10072 20060 39812 40188 56006 69911 71064 8457/ 333 82705 84630 88360;
0187118410999992000121315004+49230+018610FM-12+031599999V0201601N001010360019N0030001N1+00681+00591101911ADDAY161031AY221031GA1041+013509059GF105991041051012501031001MA1999999098141MD1310021+9999MW1101REMSYN082AAXX  13151 11841 41630 51601 10068 20059 39814 40191 53002 71062 84530 333 84645;
0223118410999992000121318004+49230+018610FM-12+031599999V0203301N001010012019N0007001N1+00501+00461101941ADDAA112000191AY161061AY221061GA1081+001209069GF108991081061001501999999KA1120M+00791MA1999999098141MD1010001+9999MW1461REMSYN094AAXX  13181 11841 11207 83301 10050 20046 39814 40194 50000 69912 74662 886// 333 10079 88704;
0181118410999992000121321004+49230+018610FM-12+031599999V0203301N001010006019N0003001N1+00481+00441101861ADDAY141031AY241031GA1091+000609999GF109991091999999999999999MA1999999098071MD1810071+9999MW1451REMSYN076AAXX  13211 11841 41/03 93301 10048 20044 39807 40186 58007 74544 333 89/02;
0225118410999992000121400004+49230+018610FM-12+031599999V0203301N001010003019N0002001N1+00431+00401101821ADDAA199000091AY141061AY241061GA1091+000309999GF109991091999999999999999GJ100009MA1999999098021MD1710051+9999MW1451REMSYN082AAXX  14001 11841 31/02 93301 10043 20040 39802 40182 57005 74544 333 55000 89/01;EQDQ01  00002PRCP99
0181118410999992000121403004+49230+018610FM-12+031599999V0201601N001010009019N0005001N1+00421+00391101701ADDAY141031AY241031GA1091+000909999GF109991091999999999999999MA1999999097901MD1810121+9999MW1431REMSYN076AAXX  14031 11841 41/05 91601 10042 20039 39790 40170 58012 74344 333 89/03;
0254118410999992000121406004+49230+018610FM-12+031599999V0209999C000010009019N0003001N1+00351+00321101601ADDAA199000091AY141061AY241061GA1091+000909999GF109991091999999999999999IA1119IA2999+00309KA1120N+00331MA1999999097801MD1610101+9999MW1431REMSYN088AAXX  14061 11841 31/03 90000 10035 20032 39780 40160 56010 74344 333 20033 32003 89/03;EQDQ01  00002PRCP99
0181118410999992000121409004+49230+018610FM-12+031599999V0209999C000010009019N0004001N1+00351+00321101581ADDAY141031AY241031GA1091+000909999GF109991091999999999999999MA1999999097781MD1510021+9999MW1431REMSYN076AAXX  14091 11841 41/04 90000 10035 20032 39778 40158 55002 74344 333 89/03;
0217118410999992000121412004+49230+018610FM-12+031599999V0209999C000010138019N0150001N1+00571+00421101331ADDAA199000091AY141061AY221061GA1071+013809059GF107991071051012501999999MA1999999097571MD1810211+9999MW1021REMSYN082AAXX  14121 11841 31665 70000 10057 20042 39757 40133 58021 70242 875// 333 87646;EQDQ01  00002PRCP99
0165118410999992000121415004+49230+018610FM-12+031599999V0201201N00101036001CN0150001N1+00601+00501101161ADDGA1011+013809069GF108991011051012501041071MA1999999097411MD1610161+9999REMSYN082AAXX  14151 11841 42665 81201 10060 20050 39741 40116 56016 81547 333 81646 88272;
0252118410999992000121418004+49230+018610FM-12+031599999V0209999C000010240019N0030001N1+00421+00361101051ADDAA199000091AY121061AY221061GA1071+024009079GF107991071999022501071999KA1120M+00691MA1999999097281MD1810131+9999MW1101REMSYN088AAXX  14181 11841 31830 70000 10042 20036 39728 40105 58013 71022 8707/ 333 10069 87358;EQDQ01  00002PRCP99Q02    003SCOLCG
0181118410999992000121421004+49230+018610FM-12+031599999V0209999C000010009019N0003001N1+00381+00341100851ADDAY121031AY221031GA1091+000909999GF109991091999999999999999MA1999999097081MD1810201+9999MW1471REMSYN076AAXX  14211 11841 41/03 90000 10038 20034 39708 40085 58020 74722 333 89/03;
0218118410999992000121500004+49230+018610FM-12+031599999V0209999C000010036019N0012001N1+00361+00331100721ADDAA106000791AY141061AY221061GA1081+003609069GF108991081071004501999999GJ100009MA1999999096951MD1810131+9999MW1601REMSYN094AAXX  15001 11841 11412 80000 10036 20033 39695 40072 58013 69901 76042 887// 333 55000 88712;
0193118410999992000121503004+49230+018610FM-12+031599999V0201001N00101001201CN0014001N1+00431+00401100521ADDAY161031AY221031GA1031+001509079GF108991081051001501999999MA1999999096771MD1710181+9999MW1211REMSYN088AAXX  15031 11841 41214 81001 10043 20040 39677 40052 57018 72162 885// 333 83705 88656;
0253118410999992000121506004+49230+018610FM-12+031599999V0202601N00201004201CN0048001N1+00461+00401100471ADDAA112000191AY161061AY221061GA1031+003009079GF107991071051004501999999IA1099IA2999+00209KA1120N+00351MA1999999096721MD1610051+9999MW1101REMSYN106AAXX  15061 11841 11448 72602 10046 20040 39672 40047 56005 69922 71062 875// 333 20035 31002 83710 87633;
0215118410999992000121509004+49230+018610FM-12+031599999V0209999C000010063019N0040001N1+00531+00411100411ADDAY161031AY221031GA1021+002409079GA2041+006309069GF108991081051002501999999MA1999999096681MD1510041+9999MW1211REMSYN094AAXX  15091 11841 41340 80000 10053 20041 39668 40041 55004 72162 885// 333 82708 84621 88625;
0210118410999992000121512004+49230+018610FM-12+031599999V0202501N004010060019N0090001N1+00651+00401100271ADDAA106000791AY161061AY221061GA1051+006009069GF108991081051008001999999MA1999999096561MD1610121+9999MW1621REMSYN094AAXX  15121 11841 11559 82504 10065 20040 39656 40027 56012 69901 76262 885// 333 85620 88625;
0187118410999992000121515004+49230+018610FM-12+031599999V0202801N003010042019N0080001N1+00571+00421100281ADDAY161031AY221031GA1081+004209059GF108991081051004501999999MA1999999096561MD1510001+9999MW1101REMSYN082AAXX  15151 11841 41458 82803 10057 20042 39656 40028 55000 71062 885// 333 88614;
0229118410999992000121518004+49230+018610FM-12+031599999V0202301N00501220001CN0100001N1+00581+00331100211ADDAA112000791AY161061AY221061GA1021+005709069GF105991021051004501001011KA1120M+00681MA1999999096491MD1510071+9999MW1011REMSYN100AAXX  15181 11841 11460 52305 10058 20033 39649 40021 55007 69902 70162 82501 333 10068 82619 85070;
0193118410999992000121521004+49230+018610FM-12+031599999V0202401N00401012001CN0100001N1+00481+00201100301ADDAY181031AY221031GA1041+013509069GF107991071051012501001001MA1999999096561MD1310071+9999MW1021REMSYN088AAXX  15211 11841 41660 72404 10048 20020 39656 40030 53007 70282 87500 333 84645 87650;
0237118410999992000121600004+49230+018610FM-12+031599999V0202301N004010150019N0150001N1+00381+00031100311ADDAA106000791AY181061AY221061GA1061+015009059GF106991061051017501999001GJ100009MA1999999096561MD1510001+9999MW1011REMSYN094AAXX  16001 11841 11765 62304 10038 20003 39656 40031 55000 69901 70182 86500 333 55000 86650;EQDQ01    003SCOMCG
0159118410999992000121603004+49230+018610FM-12+031599999V0202401N004010090019N0150001N1+00401+00051100301ADDGA1071+009009059GF107991071051008001001001MA1999999096551MD1510011+9999REMSYN076AAXX  16031 11841 42565 72404 10040 20005 39655 40030 55001 87500 333 87630;
0253118410999992000121606004+49230+018610FM-12+031599999V0202401N00501012001CN0150001N1+00361+00101100391ADDAA112000791AY181061AY221061GA1031+009309089GF107991061081008001071001IA1099IA2999+00209KA1120N+00331MA1999999096631MD1210081+9999MW1801REMSYN106AAXX  16061 11841 11565 72405 10036 20010 39663 40039 52008 69902 78082 86870 333 20033 31002 83831 85635;
0193118410999992000121609004+49230+018610FM-12+031599999V0202201N00501009001CN0200001N1+00421+00091100471ADDAY181031AY221031GA1031+005709089GF107991071081004501001001MA1999999096721MD1110091+9999MW1251REMSYN088AAXX  16091 11841 41470 72205 10042 20009 39672 40047 51009 72582 87800 333 83819 86650;
0210118410999992000121612004+49230+018610FM-12+031599999V0202401N00601012001CN0200001N1+00391-00121100421ADDAA106000391AY181061AY221061GA1031+009609089GF107991071081008001001001MA1999999096661MD1710061+9999MW1261REMSYN094AAXX  16121 11841 11570 72406 10039 21012 39666 40042 57006 69931 72682 87800 333 83832 86650;
0193118410999992000121615004+49230+018610FM-12+031599999V0202301N00601015001CN0250001N1+00321-00251100541ADDAY181031AY221031GA1021+010509089GF107991071081012501001001MA1999999096771MD1110111+9999MW1021REMSYN088AAXX  16151 11841 41675 72306 10032 21025 39677 40054 51011 70282 87800 333 82835 86645;
0229118410999992000121618004+49230+018610FM-12+031599999V0202401N00501004201CN0100001N1+00081-00031100691ADDAA112001091AY181061AY221061GA1021+004209079GF107991071021004501001001KA1120M+00461MA1999999096881MD1310111+9999MW1851REMSYN100AAXX  16181 11841 11460 72405 10008 21003 39688 40069 53011 69992 78582 87200 333 10046 82714 86821;
0187118410999992000121621004+49230+018610FM-12+031599999V0202401N007010093019N0250001N1+00261-00191100791ADDAY181031AY221031GA1081+009309059GF108991081051008001999999MA1999999097001MD1310121+9999MW1021REMSYN082AAXX  16211 11841 41575 82407 10026 21019 39700 40079 53012 70282 885// 333 88631;
0218118410999992000121700004+49230+018610FM-12+031599999V0202301N007010096019N0250001N1+00271-00221100921ADDAA106000391AY181061AY221061GA1081+009609059GF108991081051008001999999GJ100009MA1999999097131MD1210131+9999MW1021REMSYN094AAXX  17001 11841 11575 82307 10027 21022 39713 40092 52013 69931 70282 885// 333 55000 88632;
0159118410999992000121703004+49230+018610FM-12+031599999V0202401N006010102019N0250001N1+00251-00201101061ADDGA1081+010209059GF108991081051012501999999MA1999999097261MD1110131+9999REMSYN076AAXX  17031 11841 42675 82406 10025 21020 39726 40106 51013 885// 333 88634;
0225118410999992000121706004+49230+018610FM-12+031599999V0202501N00401036001CN0250001N1+00141-00241101201ADDAA112000391GA1041+012909069GF107991041051012501031001IA1099IA2999+00009KA1120N+00071MA1999999097381MD1110121+9999REMSYN100AAXX  17061 11841 12675 72504 10014 21024 39738 40120 51012 69932 84530 333 20007 31000 84643 86359;
0159118410999992000121709004+49230+018610FM-12+031599999V0202401N005010090019N0150001N1+00241-00141101311ADDGA1061+009009059GF107991061051008001031001MA1999999097501MD1110121+9999REMSYN076AAXX  17091 11841 42565 72405 10024 21014 39750 40131 51012 86530 333 86630;
0195118410999992000121712004+49230+018610FM-12+031599999V0202401N00301007501CN0200001N1+00261-00191101371ADDAA199000091GA1031+008709069GF107991071051008001001001MA1999999097561MD1110061+9999REMSYN082AAXX  17121 11841 32570 72403 10026 21019 39756 40137 51006 87500 333 83629 87635;EQDQ01  00002PRCP99
0159118410999992000121715004+49230+018610FM-12+031599999V0202601N003010078019N0200001N1+00211-00121101511ADDGA1071+007809059GF107991071051008001999999MA1999999097691MD1210131+9999REMSYN076AAXX  17151 11841 42570 72603 10021 21012 39769 40151 52013 875// 333 87626;
0224118410999992000121718004+49230+018610FM-12+031599999V0202601N002010150019N0150001N1+00161-00131101591ADDAA199000091GA1051+015009059GF105991051051017501999001KA1120M+00281MA1999999097761MD1310071+9999REMSYN082AAXX  17181 11841 32765 52602 10016 21013 39776 40159 53007 85500 333 10028 85650;EQDQ01  00002PRCP99Q02    003SCOMCG
0159118410999992000121721004+49230+018610FM-12+031599999V0202701N002012200019N0120001N1+00041-00171101711ADDGA1031+009909059GF103991031051008001001001MA1999999097861MD1210101+9999REMSYN076AAXX  17211 11841 42562 32702 10004 21017 39786 40171 52010 83500 333 83633;
0219118410999992000121800004+49230+018610FM-12+031599999V0209999C000010180019N0100001N1-00101-00211101831ADDAA199000091GA1061+018009059GF106991061051017501999001GJ100009MA1999999097951MD1110091+9999REMSYN082AAXX  18001 11841 32760 60000 11010 21021 39795 40183 51009 86500 333 55000 86656;EQDQ01+000002SCOMCGQ02  00002PRCP99
0159118410999992000121803004+49230+018610FM-12+031599999V0209999C000010138019N0100001N1-00071-00151101901ADDGA1071+013809059GF107991071051012501001001MA1999999098021MD1110071+9999REMSYN076AAXX  18031 11841 42660 70000 11007 21015 39802 40190 51007 87500 333 87646;
0247118410999992000121806004+49230+018610FM-12+031599999V0209999C000010060019N0100001N1+00001-00081102011ADDAA112000791AY121061AY221061GA1081+006009059GF108991081051008001999999IA1149IA2999-00409KA1120N-00121MA1999999098141MD1310121+9999MW1771REMSYN100AAXX  18061 11841 11560 80000 10000 21008 39814 40201 53012 69902 77722 885// 333 21012 34104 88620;
0193118410999992000121809004+49230+018610FM-12+031599999V0202801N00101001201CN0050001N1+00111-00041102171ADDAY171031AY221031GA1011+001809079GF107991071051001501001001MA1999999098311MD1110171+9999MW1221REMSYN088AAXX  18091 11841 41250 72801 10011 21004 39831 40217 51017 72272 87500 333 81706 87656;
0210118410999992000121812004+49230+018610FM-12+031599999V0202601N00301007501CN0100001N1+00201-00041102131ADDAA106000791AY171061AY221061GA1021+007809069GF107991071051008001999999MA1999999098281MD1810031+9999MW1021REMSYN094AAXX  18121 11841 11560 72603 10020 21004 39828 40213 58003 69901 70272 875// 333 82626 87635;
0159118410999992000121815004+49230+018610FM-12+031599999V0202401N002010069019N0150001N1+00191-00081102201ADDGA1061+006909059GF107991071051008001999999MA1999999098351MD1210071+9999REMSYN076AAXX  18151 11841 42565 72402 10019 21008 39835 40220 52007 875// 333 86623;
0195118410999992000121818004+49230+018610FM-12+031599999V0202301N002010078019N0100001N1+00111-00211102281ADDAA112000791GA1071+007809059GF107991071051008001999999KA1120M+00241MA1999999098421MD1310071+9999REMSYN088AAXX  18181 11841 12560 72302 10011 21021 39842 40228 53007 69902 875// 333 10024 87626;
0159118410999992000121821004+49230+018610FM-12+031599999V0201601N001010075019N0100001N1+00011-00201102321ADDGA1071+007509059GF107991071051008001999999MA1999999098441MD1310021+9999REMSYN076AAXX  18211 11841 42560 71601 10001 21020 39844 40232 53002 875// 333 87625;
0203118410999992000121900004+49230+018610FM-12+031599999V0202701N001010078019N0100001N1-00061-00161102341ADDAA199000091GA1081+007809059GF108991081051008001999999GJ100009MA1999999098451MD1310011+9999REMSYN082AAXX  19001 11841 32560 82701 11006 21016 39845 40234 53001 885// 333 55000 88626;EQDQ01  00002PRCP99
0260118410999992000121906004+49230+018610FM-12+031599999V0209999C000010330019N0080001N1-00241-00311102251ADDAA199000091AY111061AY211061GA1071+033009079GF107991071001999999031001IA1149IA2999-00609KA1120N-00241MA1999999098341MD1510041+9999MW1101REMSYN094AAXX  19061 11841 31958 70000 11024 21031 39834 40225 55004 71011 87030 333 21024 34106 87361;EQDQ01  00002PRCP99
0165118410999992000121909004+49230+018610FM-12+031599999V0200801N001012200019N0200001N1-00021-00181102281ADDGA1011+021009039GF104991011001022501031021MA1999999098401MD1110061+9999REMSYN082AAXX  19091 11841 42870 40801 11002 21018 39840 40228 51006 81032 333 81357 83065;
0195118410999992000121912004+49230+018610FM-12+031599999V0209999C00001036001CN0250001N1+00261-00161102181ADDAA199000091GA1011+011109089GF106991011011012501031001MA1999999098341MD1710061+9999REMSYN082AAXX  19121 11841 32675 60000 10026 21016 39834 40218 57006 81130 333 81837 86361;EQDQ01  00002PRCP99
0165118410999992000121915004+49230+018610FM-12+031599999V0200801N001012200019N0200001N1+00061-00181102321ADDGA1011+033009039GF103991011001999999041011MA1999999098451MD1310111+9999REMSYN082AAXX  19151 11841 42970 30801 10006 21018 39845 40232 53011 81041 333 81361 83065;
0208118410999992000121918004+49230+018610FM-12+031599999V0200101N001010093019N0100001N1+00001-00111102481ADDAA199000091GA1051+009309059GF106991051051008001001011KA1120M+00301MA1999999098591MD1110141+9999REMSYN082AAXX  19181 11841 32560 60101 10000 21011 39859 40248 51014 85501 333 10030 85631;EQDQ01  00002PRCP99
0187118410999992000121921004+49230+018610FM-12+031599999V0201101N001012200019N0100001N1+00001-00321102671ADDAY171031AY211031GA1021+008109059GF103991021051008001041011MA1999999098771MD1210181+9999MW1011REMSYN082AAXX  19211 11841 41560 31101 10000 21032 39877 40267 52018 70171 82541 333 82627;
0198118410999992000122000004+49230+018610FM-12+031599999V0200801N002012200019N0100001N1-00291-00551102881ADDAA106000191AY171061AY211061GA1001+999999999GF100991001001999999001001MA1999999098931MD1110161+9999MW1021REMSYN082AAXX  20001 11841 11960 00802 11029 21055 39893 40288 51016 69921 70271 333 55023;
0143118410999992000122003004+49230+018610FM-12+031599999V0200301N002012200019N0100001N1-00381-00611103011ADDGA1001+999999999GF100991001001999999001001MA1999999099051MD1110121+9999REMSYN060AAXX  20031 11841 42960 00302 11038 21061 39905 40301 51012;
0261118410999992000122006004+49230+018610FM-12+031599999V0201101N001012200019N0100001N1-00481-00661103121ADDAA112000191AJ199993999999999GA1011+033009079GF101991011001999999041001IA1239IA2999-00809KA1120N-00491MA1999999099141MD1210091+9999REMSYN100AAXX  20061 11841 12960 11101 11048 21066 39914 40312 52009 69922 81040 333 21049 3/108 47997 81361;EQDQ01  09982SNDP  
0159118410999992000122009004+49230+018610FM-12+031599999V0200701N003012200019N0200001N1-00121-00561103181ADDGA1011+009009029GF101991011011008001001001MA1999999099251MD1110111+9999REMSYN076AAXX  20091 11841 42570 10703 11012 21056 39925 40318 51011 81100 333 81830;
0189118410999992000122012004+49230+018610FM-12+031599999V0200801N005012200019N0250001N1+00061-00581103031ADDAA199000091GA1031+010509029GF103991031011012501001001MA1999999099131MD1810121+9999REMSYN076AAXX  20121 11841 32675 30805 10006 21058 39913 40303 58012 83100 333 83835;EQDQ01  00002PRCP99
0159118410999992000122015004+49230+018610FM-12+031599999V0200601N004012200019N0250001N1-00161-00641103111ADDGA1011+010809059GF101991011041012501001001MA1999999099171MD1310041+9999REMSYN076AAXX  20151 11841 42675 10604 11016 21064 39917 40311 53004 81400 333 81636;
0196118410999992000122018004+49230+018610FM-12+031599999V0200801N003012200019N0150001N1-00341-00791103181ADDAA199000091GA1001+999999999GF100991001001999999001001KA1999M+00081MA1999999099211MD1110041+9999REMSYN070AAXX  20181 11841 32965 00803 11034 21079 39921 40318 51004 333 10008;EQDQ01  00002PRCP99
0143118410999992000122021004+49230+018610FM-12+031599999V0201301N001012200019N0150001N1-00631-00891103321ADDGA1001+999999999GF100991001001999999001001MA1999999099311MD1210101+9999REMSYN060AAXX  20211 11841 42965 01301 11063 21089 39931 40332 52010;
0183118410999992000122100004+49230+018610FM-12+031599999V0201301N001012200019N0150001N1-00751-00941103341ADDAA199000091GA1001+999999999GF100991001001999999001001MA1999999099311MD1010001+9999REMSYN070AAXX  21001 11841 32965 01301 11075 21094 39931 40334 50000 333 55038;EQDQ01  00002PRCP99
0087118410999992000122103004+49230+018610FM-12+031599999V0201001N001019999999N9999999N1-00831-00981103361ADDMA1999999099311REMSYN060AAXX  21031 11841 43/// /1001 11083 21098 39931 40336 5////;
0232118410999992000122106004+49230+018610FM-12+031599999V0201101N001010090019N0100001N1-00771-00901103371ADDAA199000091GA1061+009009059GF106991061051008001001001IA1149IA2999-01009KA1120N-00861MA1999999099331MD1310021+9999REMSYN088AAXX  21061 11841 32560 61101 11077 21090 39933 40337 53002 86500 333 21086 34110 86630;EQDQ01  00002PRCP99
0159118410999992000122109004+49230+018610FM-12+031599999V0200701N002010090019N0200001N1-00541-00811103381ADDGA1061+009009059GF106991061051008001001001MA1999999099381MD1110051+9999REMSYN076AAXX  21091 11841 42570 60702 11054 21081 39938 40338 51005 86500 333 86630;
0189118410999992000122112004+49230+018610FM-12+031599999V0209999C000010093019N0250001N1-00281-00841103171ADDAA199000091GA1051+009309059GF105991051051008001001001MA1999999099211MD1710171+9999REMSYN076AAXX  21121 11841 32575 50000 11028 21084 39921 40317 57017 85500 333 85631;EQDQ01  00002PRCP99
0159118410999992000122115004+49230+018610FM-12+031599999V0201101N001010087019N0250001N1-00281-00861103191ADDGA1071+008709059GF107991071051008001001001MA1999999099231MD1310021+9999REMSYN076AAXX  21151 11841 42575 71101 11028 21086 39923 40319 53002 87500 333 87629;
0208118410999992000122118004+49230+018610FM-12+031599999V0200701N004010081019N0150001N1-00361-00841103201ADDAA199000091GA1071+008109059GF107991071051008001001001KA1120M-00221MA1999999099231MD1010001+9999REMSYN082AAXX  21181 11841 32565 70704 11036 21084 39923 40320 50000 87500 333 11022 87627;EQDQ01  00002PRCP99
0159118410999992000122121004+49230+018610FM-12+031599999V0200801N004010084019N0150001N1-00471-00991103251ADDGA1071+008409059GF107991071051008001001001MA1999999099261MD1110031+9999REMSYN076AAXX  21211 11841 42565 70804 11047 21099 39926 40325 51003 87500 333 87628;
0203118410999992000122200004+49230+018610FM-12+031599999V0200401N001010099019N0150001N1-00511-00921103211ADDAA199000091GA1071+009909059GF107991071051008001001001GJ100009MA1999999099221MD1810041+9999REMSYN082AAXX  22001 11841 32565 70401 11051 21092 39922 40321 58004 87500 333 55000 87633;EQDQ01  00002PRCP99
0143118410999992000122203004+49230+018610FM-12+031599999V0201201N001012200019N0100001N1-00861-01051103271ADDGA1001+999999999GF100991001001999999001001MA1999999099221MD1510001+9999REMSYN060AAXX  22031 11841 42960 01201 11086 21105 39922 40327 55000;
0220118410999992000122206004+49230+018610FM-12+031599999V0201201N001012200019N0100001N1-01001-01151103281ADDAA199000091GA1001+999999999GF100991001001999999001001IA1149IA2999-01109KA1120N-01001MA1999999099211MD1610011+9999REMSYN076AAXX  22061 11841 32960 01201 11100 21115 39921 40328 56001 333 21100 34111;EQDQ01  00002PRCP99
0143118410999992000122209004+49230+018610FM-12+031599999V0200601N002012200019N0100001N1-00661-00951103281ADDGA1001+999999999GF100991001001999999001001MA1999999099261MD1010051+9999REMSYN060AAXX  22091 11841 42960 00602 11066 21095 39926 40328 50005;
0173118410999992000122212004+49230+018610FM-12+031599999V0209999C000012200019N0150001N1-00161-00941103021ADDAA199000091GA1001+999999999GF100991001001999999001001MA1999999099091MD1810171+9999REMSYN060AAXX  22121 11841 32965 00000 11016 21094 39909 40302 58017;EQDQ01  00002PRCP99
0143118410999992000122215004+49230+018610FM-12+031599999V0201501N001012200019N0150001N1-00471-00881103011ADDGA1001+999999999GF100991001001999999001001MA1999999099031MD1610061+9999REMSYN060AAXX  22151 11841 42965 01501 11047 21088 39903 40301 56006;
0196118410999992000122218004+49230+018610FM-12+031599999V0209999C000012200019N0100001N1-00821-01001102981ADDAA199000091GA1001+999999999GF100991001001999999001001KA1999M-00031MA1999999098951MD1710081+9999REMSYN070AAXX  22181 11841 32960 00000 11082 21100 39895 40298 57008 333 11003;EQDQ01  00002PRCP99
0143118410999992000122221004+49230+018610FM-12+031599999V0209999C000012200019N0100001N1-00971-01091102971ADDGA1001+999999999GF100991001001999999001001MA1999999098921MD1810031+9999REMSYN060AAXX  22211 11841 42960 00000 11097 21109 39892 40297 58003;
0211118410999992000122300004+49230+018610FM-12+031599999V0209999C000012200019N0070001N1-01031-01161102841ADDAA199000091AY101061AY201061GA1001+999999999GF100991001001999999001001MA1999999098781MD1710141+9999MW1101REMSYN076AAXX  23001 11841 31957 00000 11103 21116 39878 40284 57014 71000 333 55031;EQDQ01  00002PRCP99
0171118410999992000122303004+49230+018610FM-12+031599999V0209999C000012200019N0060001N1-01061-01181102641ADDAY101031AY201031GA1001+999999999GF100991001001999999001001MA1999999098591MD1710191+9999MW1101REMSYN066AAXX  23031 11841 41956 00000 11106 21118 39859 40264 57019 71000;
0248118410999992000122306004+49230+018610FM-12+031599999V0202701N002012200019N0070001N1-00931-01051102481ADDAA199000091AY101061AY201061GA1001+999999999GF100991001001999999001001IA1149IA2999-01209KA1120N-01111MA1999999098451MD1610141+9999MW1101REMSYN082AAXX  23061 11841 31957 02702 11093 21105 39845 40248 56014 71000 333 21111 34112;EQDQ01  00002PRCP99
0187118410999992000122309004+49230+018610FM-12+031599999V0202501N003010600019N0090001N1-00611-00801102341ADDAY111031AY211031GA1051+060009019GF105991001001999999001051MA1999999098371MD1810081+9999MW1101REMSYN082AAXX  23091 11841 41959 52503 11061 21080 39837 40234 58008 71011 80005 333 85070;
0195118410999992000122312004+49230+018610FM-12+031599999V0202601N00401090001CN0180001N1-00291-00801102011ADDAA199000091GA1011+007809069GF105991011051008001001051MA1999999098101MD1810271+9999REMSYN082AAXX  23121 11841 32568 52604 11029 21080 39810 40201 58027 81505 333 81626 85070;EQDQ01  00002PRCP99
0159118410999992000122315004+49230+018610FM-12+031599999V0202401N003012200019N0200001N1-00461-00891101891ADDGA1041+060009019GF104991001001999999001011MA1999999097961MD1610141+9999REMSYN076AAXX  23151 11841 42970 42403 11046 21089 39796 40189 56014 80001 333 84070;
0208118410999992000122318004+49230+018610FM-12+031599999V0202101N001012200019N0150001N1-00641-00981101881ADDAA199000091GA1021+060009019GF102991001001999999001011KA1120M-00261MA1999999097921MD1810041+9999REMSYN082AAXX  23181 11841 32965 22101 11064 21098 39792 40188 58004 80001 333 11026 82070;EQDQ01  00002PRCP99
0159118410999992000122321004+49230+018610FM-12+031599999V0209999C000010081019N0100001N1-00871-01031101831ADDGA1061+008109059GF106991061051008001001001MA1999999097841MD1810081+9999REMSYN076AAXX  23211 11841 42560 60000 11087 21103 39784 40183 58008 86500 333 86627;
0203118410999992000122400004+49230+018610FM-12+031599999V0209999C000010072019N0100001N1-00851-01041101781ADDAA199000091GA1071+007209059GF107991071051008001001001GJ100009MA1999999097791MD1610051+9999REMSYN082AAXX  24001 11841 32560 70000 11085 21104 39779 40178 56005 87500 333 55000 87624;EQDQ01  00002PRCP99
0187118410999992000122403004+49230+018610FM-12+031599999V0209999C000012200019N0070001N1-00761-00911101611ADDAY111031AY211031GA1031+010809059GF103991031051012501001001MA1999999097641MD1810151+9999MW1101REMSYN082AAXX  24031 11841 41657 30000 11076 21091 39764 40161 58015 71011 83500 333 83636;
0260118410999992000122406004+49230+018610FM-12+031599999V0209999C000010090019N0060001N1-00861-00991101581ADDAA199000091AY111061AY211061GA1061+009009059GF106991061051008001001001IA1149IA2999-01209KA1120N-00931MA1999999097601MD1710041+9999MW1101REMSYN094AAXX  24061 11841 31556 60000 11086 21099 39760 40158 57004 71011 86500 333 21093 34112 86630;EQDQ01  00002PRCP99
0187118410999992000122409004+49230+018610FM-12+031599999V0202601N002012200019N0060001N1-00541-00801101501ADDAY111031AY211031GA1011+009909059GF101991011051012501031001MA1999999097571MD1810031+9999MW1101REMSYN082AAXX  24091 11841 41656 12602 11054 21080 39757 40150 58003 71011 81530 333 81633;
0189118410999992000122412004+49230+018610FM-12+031599999V0202301N002012200019N0150001N1-00201-00831101261ADDAA199000091GA1021+008109059GF104991021051008001031011MA1999999097391MD1610181+9999REMSYN076AAXX  24121 11841 32565 42302 11020 21083 39739 40126 56018 82531 333 82627;EQDQ01  00002PRCP99
0159118410999992000122415004+49230+018610FM-12+031599999V0202201N001012200019N0100001N1-00411-00791101141ADDGA1011+030009079GF101991011001999999041001MA1999999097241MD1710151+9999REMSYN076AAXX  24151 11841 42960 12201 11041 21079 39724 40114 57015 81040 333 81360;
0196118410999992000122418004+49230+018610FM-12+031599999V0209999C000012200019N0100001N1-00741-00891101161ADDAA199000091GA1001+999999999GF100991001001999999001001KA1999M-00171MA1999999097211MD1810031+9999REMSYN070AAXX  24181 11841 32960 00000 11074 21089 39721 40116 58003 333 11017;EQDQ01  00002PRCP99
0187118410999992000122421004+49230+018610FM-12+031599999V0202901N001012200019N0080001N1-00861-00951101031ADDAY101031AY201031GA1011+033009079GF101991011001999999031001MA1999999097071MD1610141+9999MW1101REMSYN082AAXX  24211 11841 41958 12901 11086 21095 39707 40103 56014 71000 81030 333 81361;
0231118410999992000122500004+49230+018610FM-12+031599999V0201601N001012200019N0070001N1-00971-01091100861ADDAA199000091AY101061AY201061GA1011+057009019GF101991001001999999001011GJ103429MA1999999096891MD1710181+9999MW1101REMSYN088AAXX  25001 11841 31957 11601 11097 21109 39689 40086 57018 71000 80001 333 55057 81069;EQDQ01  00002PRCP99
0171118410999992000122503004+49230+018610FM-12+031599999V0201001N001012200019N0050001N1-00961-01081100631ADDAY101031AY201031GA1001+999999999GF100991001001999999001001MA1999999096671MD1710221+9999MW1101REMSYN066AAXX  25031 11841 41950 01001 11096 21108 39667 40063 57022 71000;
0266118410999992000122506004+49230+018610FM-12+031599999V0200801N001012200019N0050001N1-00951-01071100491ADDAA199000091AY111061AY211061GA1011+033009039GF103991011001999999041021IA1149IA2999-01209KA1120N-01061MA1999999096541MD1810131+9999MW1101REMSYN100AAXX  25061 11841 31950 30801 11095 21107 39654 40049 58013 71011 81042 333 21106 34112 81361 83070;EQDQ01  00002PRCP99
0187118410999992000122509004+49230+018610FM-12+031599999V0200801N002010060019N0060001N1-00481-00581100281ADDAY111031AY211031GA1081+006009059GF108991081051008001999999MA1999999096411MD1810131+9999MW1101REMSYN082AAXX  25091 11841 41556 80802 11048 21058 39641 40028 58013 71011 885// 333 88620;
0217118410999992000122512004+49230+018610FM-12+031599999V0201301N001010057019N0080001N1-00221-00331100031ADDAA199000091AY111061AY211061GA1081+005709059GF108991081051004501999999MA1999999096201MD1710211+9999MW1101REMSYN082AAXX  25121 11841 31458 81301 11022 21033 39620 40003 57021 71011 885// 333 88619;EQDQ01  00002PRCP99
0187118410999992000122515004+49230+018610FM-12+031599999V0209999C000010060019N0045001N1-00141-00221099861ADDAY121031AY221031GA1081+006009059GF108991081051008001999999MA1999999096051MD1610151+9999MW1101REMSYN082AAXX  25151 11841 41545 80000 11014 21022 39605 49986 56015 71022 885// 333 88620;
0236118410999992000122518004+49230+018610FM-12+031599999V0202301N001010063019N0042001N1-00071-00151099821ADDAA199000091AY121061AY221061GA1081+006309059GF108991081051008001999999KA1120M-00071MA1999999096021MD1610031+9999MW1101REMSYN088AAXX  25181 11841 31542 82301 11007 21015 39602 49982 56003 71022 885// 333 11007 88621;EQDQ01  00002PRCP99
0193118410999992000122521004+49230+018610FM-12+031599999V0209999C00001004201CN0021001N1-00031-00071099881ADDAY151031AY221031GA1041+004209079GF108991081051004501999999MA1999999096091MD1310071+9999MW1501REMSYN088AAXX  25211 11841 41421 80000 11003 21007 39609 49988 53007 75052 885// 333 84714 88618;
0224118410999992000122600004+49230+018610FM-12+031599999V0209999C00001002101CN0015001N1+00011-00021099891ADDAA106000791AY151061AY221061GA1021+002109079GF108991081051002501999999GJ100009MA1999999096101MD1210011+9999MW1101REMSYN100AAXX  26001 11841 11315 80000 10001 21002 39610 49989 52001 69901 71052 885// 333 55000 82707 88618;
0193118410999992000122603004+49230+018610FM-12+031599999V0209999C00001004201CN0015001N1+00021-00011099851ADDAY121031AY221031GA1021+005109069GF108991081051004501999999MA1999999096071MD1810031+9999MW1101REMSYN088AAXX  26031 11841 41415 80000 10002 21001 39607 49985 58003 71022 885// 333 82617 88622;
0247118410999992000122606004+49230+018610FM-12+031599999V0209999C000010054019N0021001N1+00031-00011099831ADDAA112000791AY121061AY221061GA1081+005409059GF108991081051004501999999IA1149IA2999-00109KA1120N-00071MA1999999096051MD1710021+9999MW1101REMSYN100AAXX  26061 11841 11421 80000 10003 21001 39605 49983 57002 69902 71022 885// 333 21007 34101 88618;
0193118410999992000122609004+49230+018610FM-12+031599999V0200901N00101001201CN0022001N1+00131+00071099801ADDAY121031AY221031GA1011+001209079GF108991081051001501999999MA1999999096031MD1510021+9999MW1101REMSYN088AAXX  26091 11841 41222 80901 10013 20007 39603 49980 55002 71022 885// 333 81704 88620;
0210118410999992000122612004+49230+018610FM-12+031599999V0200801N00201001201CN0011001N1+00201+00161099561ADDAA106004191AY161061AY221061GA1031+001809079GF108991081051001501999999MA1999999095811MD1810221+9999MW1611REMSYN094AAXX  26121 11841 11211 80802 10020 20016 39581 49956 58022 60041 76162 885// 333 83706 88621;
0193118410999992000122615004+49230+018610FM-12+031599999V0209999C00001001201CN0002001N1+00201+00161099481ADDAY161031AY261031GA1041+001809079GF108991081071001501999999MA1999999095741MD1510071+9999MW1611REMSYN088AAXX  26151 11841 41202 80000 10020 20016 39574 49948 55007 76166 887// 333 84706 88711;
0229118410999992000122618004+49230+018610FM-12+031599999V0209999C00001000601CN0008001N1+00161+00121099541ADDAA112009991AY161061AY241061GA1041+000609079GF108991081071000751999999KA1120M+00231MA1999999095791MD1210051+9999MW1611REMSYN100AAXX  26181 11841 11108 80000 10016 20012 39579 49954 52005 60102 76164 887// 333 10023 84702 88711;
0193118410999992000122621004+49230+018610FM-12+031599999V0202201N00101000601CN0008001N1+00121+00091099641ADDAY161031AY241031GA1031+000609079GF108991081061000751999999MA1999999095881MD1310091+9999MW1441REMSYN088AAXX  26211 11841 41108 82201 10012 20009 39588 49964 53009 74464 886// 333 83702 88708;
0128118410999992000122700004+49230+018610FM-12+031599999V0200801N001019999999N9999999N1+00121+00091099651ADDAA106000391MA1999999095891MD1210041+9999REMSYN076AAXX  27001 11841 16/// /0801 10012 20009 39589 49965 52004 69931 333 55000;
0193118410999992000122703004+49230+018610FM-12+031599999V0201101N001010012019N0011001N1+00121+00091099681ADDAY141031AY241031GA1051+001209079GF108991081051001501999999MA1999999095921MD1110031+9999MW1281REMSYN088AAXX  27031 11841 41211 81101 10012 20009 39592 49968 51003 72844 885// 333 85704 88620;
0253118410999992000122706004+49230+018610FM-12+031599999V0200601N002010021019N0013001N1+00071+00041099661ADDAA112000591AY141061AY221061GA1051+002109079GF108991081051002501999999IA1119IA2999+00009KA1120N+00071MA1999999095891MD1510031+9999MW1611REMSYN106AAXX  27061 11841 11313 80602 10007 20004 39589 49966 55003 69962 76142 885// 333 20007 32100 85707 88628;
0193118410999992000122709004+49230+018610FM-12+031599999V0209999C00001001201CN0010001N1+00141+00111099801ADDAY161031AY261031GA1031+001509079GF108991081051001501999999MA1999999096041MD1310151+9999MW1611REMSYN088AAXX  27091 11841 41210 80000 10014 20011 39604 49980 53015 76166 885// 333 83705 88628;
0210118410999992000122712004+49230+018610FM-12+031599999V0209999C000010045019N0013001N1+00231+00201099791ADDAA106002091AY161061AY261061GA1051+004509079GF108991081051004501999999MA1999999096041MD1510001+9999MW1101REMSYN094AAXX  27121 11841 11413 80000 10023 20020 39604 49979 55000 60021 71066 885// 333 85715 88621;
0187118410999992000122715004+49230+018610FM-12+031599999V0200301N001012200019N0010001N1+00161+00121099811ADDAY121031AY221031GA1041+009009059GF105991041051008001001011MA1999999096051MD1010011+9999MW1101REMSYN082AAXX  27151 11841 41510 50301 10016 20012 39605 49981 50001 71022 84501 333 84630;
0217118410999992000122718004+49230+018610FM-12+031599999V0209999C000010009019N0002001N1+00081+00051099891ADDAA112002091AY121061AY221061GA1091+000909999GF109991091999999999999999KA1120M+00271MA1999999096111MD1210061+9999MW1471REMSYN088AAXX  27181 11841 11/02 90000 10008 20005 39611 49989 52006 60022 74722 333 10027 89/03;
0187118410999992000122721004+49230+018610FM-12+031599999V0200101N001010018019N0020001N1+00081+00051099791ADDAY141031AY241031GA1081+001809069GF108991081061001501999999MA1999999096021MD1710091+9999MW1101REMSYN082AAXX  27211 11841 41220 80101 10008 20005 39602 49979 57009 71044 886// 333 88706;
0237118410999992000122800004+49230+018610FM-12+031599999V0200801N00301002101CN0030001N1+00051+00021099651ADDAA199000091AY141061AY241061GA1041+002109079GF108991081051002501999999GJ100009MA1999999095881MD1810141+9999MW1101REMSYN094AAXX  28001 11841 31330 80803 10005 20002 39588 49965 58014 71044 885// 333 55000 84707 88628;EQDQ01  00002PRCP99
0193118410999992000122803004+49230+018610FM-12+031599999V0200701N00401007501CN0050001N1+00111+00071099451ADDAY121031AY221031GA1031+009009069GF108991081051008001999999MA1999999095691MD1710191+9999MW1611REMSYN088AAXX  28031 11841 41550 80704 10011 20007 39569 49945 57019 76122 885// 333 83630 88650;
0253118410999992000122806004+49230+018610FM-12+031599999V0201001N00101012001CN0100001N1+00151+00111099171ADDAA112004191AY121061AY221061GA1041+010809069GF108991081051012501999999IA1119IA2999+00009KA1120N+00041MA1999999095431MD1710261+9999MW1611REMSYN106AAXX  28061 11841 11660 81001 10015 20011 39543 49917 57026 60042 76122 885// 333 20004 32000 84636 88649;
0193118410999992000122809004+49230+018610FM-12+031599999V0201001N00101007501CN0100001N1+00261+00221099101ADDAY161031AY221031GA1021+006009069GF108991071051008001021999MA1999999095381MD1510051+9999MW1611REMSYN088AAXX  28091 11841 41560 81001 10026 20022 39538 49910 55005 76162 8752/ 333 82620 87631;
0210118410999992000122812004+49230+018610FM-12+031599999V0202501N001010009019N0008001N1+00291+00251099111ADDAA106006191AY161061AY261061GA1051+000909079GF108991081071001501999999MA1999999095391MD1310011+9999MW1611REMSYN094AAXX  28121 11841 11208 82501 10029 20025 39539 49911 53001 60061 76166 887// 333 85703 88712;
0193118410999992000122815004+49230+018610FM-12+031599999V0202401N00401001201CN0080001N1+00341+00251099321ADDAY161031AY241031GA1021+001509079GF108991081071001501999999MA1999999095601MD1310211+9999MW1211REMSYN088AAXX  28151 11841 41258 82404 10034 20025 39560 49932 53021 72164 887// 333 82705 88707;
0229118410999992000122818004+49230+018610FM-12+031599999V0202501N004010036019N0200001N1+00261+00131099581ADDAA112006191AY161061AY241061GA1051+003609079GF108991081051004501999999KA1120M+00411MA1999999095841MD1110241+9999MW1021REMSYN100AAXX  28181 11841 11470 82504 10026 20013 39584 49958 51024 60062 70264 885// 333 10041 85712 87618;
0165118410999992000122821004+49230+018610FM-12+031599999V0202801N00201002101CN0250001N1+00191+00131099781ADDGA1011+002109079GF107991071061002501001001MA1999999096021MD1210181+9999REMSYN082AAXX  28211 11841 42375 72802 10019 20013 39602 49978 52018 87600 333 81707 87713;
0224118410999992000122900004+49230+018610FM-12+031599999V0203001N00201004201CN0200001N1+00181+00091099941ADDAA106000791AY151061AY221061GA1041+003609079GF108991081051004501999999GJ100009MA1999999096181MD1210161+9999MW1501REMSYN100AAXX  29001 11841 11470 83002 10018 20009 39618 49994 52016 69901 75052 885// 333 55000 84712 87624;
0193118410999992000122903004+49230+018610FM-12+031599999V0200801N00101004201CN0200001N1+00151+00111100071ADDAY151031AY221031GA1021+003009079GF108991081051004501999999MA1999999096301MD1110121+9999MW1021REMSYN088AAXX  29031 11841 41470 80801 10015 20011 39630 40007 51012 70252 885// 333 82710 88616;
0247118410999992000122906004+49230+018610FM-12+031599999V0209999C000010078019N0012001N1+00071+00041100121ADDAA112000191AY151061AY221061GA1071+007809059GF107991071051008001001001IA1119IA2999-00109KA1120N+00051MA1999999096331MD1210031+9999MW1101REMSYN100AAXX  29061 11841 11512 70000 10007 20004 39633 40012 52003 69912 71052 87500 333 20005 32101 87626;
0193118410999992000122909004+49230+018610FM-12+031599999V0201101N00101001201CN0050001N1+00201+00161100191ADDAY141031AY221031GA1021+000909079GF107991071051001501001001MA1999999096421MD1110091+9999MW1101REMSYN088AAXX  29091 11841 41250 71101 10020 20016 39642 40019 51009 71042 87500 333 82703 87621;
0198118410999992000122912004+49230+018610FM-12+031599999V0200801N001010087019N0200001N1+00451+00061100081ADDAA199000021AY141061AY211061GA1071+008709059GF107991071051008001001001MA1999999096351MD1810071+9999MW1031REMSYN082AAXX  29121 11841 31570 70801 10045 20006 39635 40008 58007 70341 87500 333 87629;
0159118410999992000122915004+49230+018610FM-12+031599999V0200701N002010105019N0200001N1+00311+00181100091ADDGA1071+010509059GF107991071051012501001001MA1999999096341MD1810011+9999REMSYN076AAXX  29151 11841 42670 70702 10031 20018 39634 40009 58001 87500 333 87635;
0223118410999992000122918004+49230+018610FM-12+031599999V0201001N001010087019N0060001N1+00161+00091100121ADDAA112000791AY121061AY221061GA1081+008709059GF108991081051008001999999KA1120M+00491MA1999999096341MD1010001+9999MW1601REMSYN094AAXX  29181 11841 11556 81001 10016 20009 39634 40012 50000 69902 76022 885// 333 10049 88629;
0193118410999992000122921004+49230+018610FM-12+031599999V0200801N00201002101CN0022001N1+00161+00121100061ADDAY161031AY221031GA1031+001809079GF108991051051002501999999MA1999999096291MD1710051+9999MW1601REMSYN088AAXX  29211 11841 41322 80802 10016 20012 39629 40006 57005 76062 855// 333 83706 88620;
0128118410999992000123000004+49230+018610FM-12+031599999V0209999C000019999999N9999999N1+00131+00101099941ADDAA106002091MA1999999096171MD1710121+9999REMSYN076AAXX  30001 11841 16/// /0000 10013 20010 39617 49994 57012 60021 333 55013;
0193118410999992000123003004+49230+018610FM-12+031599999V0200701N00101001201CN0008001N1+00101+00071099761ADDAY161031AY241031GA1041+001509079GF108991081071001501999999MA1999999095991MD1810181+9999MW1601REMSYN088AAXX  30031 11841 41208 80701 10010 20007 39599 49976 58018 76064 887// 333 84705 88712;
0253118410999992000123006004+49230+018610FM-12+031599999V0200701N001010039019N0015001N1+00081+00051099591ADDAA112002091AY161061AY241061GA1051+003909079GF108991081051004501999999IA1119IA2999+00009KA1120N+00061MA1999999095821MD1710171+9999MW1601REMSYN106AAXX  30061 11841 11415 80701 10008 20005 39582 49959 57017 60022 76064 885// 333 20006 32100 85713 88642;
0193118410999992000123009004+49230+018610FM-12+031599999V0209999C000010021019N0010001N1+00021-00011099501ADDAY161031AY261031GA1061+002109079GF108991081051002501999999MA1999999095731MD1610091+9999MW1681REMSYN088AAXX  30091 11841 41310 80000 10002 21001 39573 49950 56009 76866 885// 333 86707 88620;
0210118410999992000123012004+49230+018610FM-12+031599999V0203301N004010015019N0015001N1+00031-00081099531ADDAA106005191AY161061AY241061GA1071+001509079GF108991071071001501021999MA1999999095761MD1310031+9999MW1711REMSYN094AAXX  30121 11841 11215 83304 10003 21008 39576 49953 53003 60051 77164 8772/ 333 87705 88521;
0215118410999992000123015004+49230+018610FM-12+031599999V0209999C000010069019N0030001N1-00051-00161099821ADDAY171031AY271031GA1031+003009079GA2061+006909069GF108991061051004501021999MA1999999096031MD1210271+9999MW1711REMSYN094AAXX  30151 11841 41430 80000 11005 21016 39603 49982 52027 77177 8652/ 333 83710 86623 88550;
0251118410999992000123018004+49230+018610FM-12+031599999V0202601N001010099019N0060001N1-00121-00161100171ADDAA112007191AY171061AY221061GA1021+004509079GA2061+009909069GF108991061051004501071999KA1120M+00101MA1999999096351MD1210321+9999MW1221REMSYN106AAXX  30181 11841 11456 82601 11012 21016 39635 40017 52032 60072 72272 8657/ 333 10010 82715 86633 88359;
0193118410999992000123021004+49230+018610FM-12+031599999V0202701N00101004201CN0080001N1-00091-00171100421ADDAY121031AY221031GA1021+004809079GF107991071051004501001001MA1999999096601MD1310251+9999MW1701REMSYN088AAXX  30211 11841 41458 72701 11009 21017 39660 40042 53025 77022 87500 333 82716 87630;
0246118410999992000123100004+49230+018610FM-12+031599999V0202601N002010096019N0080001N1-00111-00221100731ADDAA106000591AY171061AY221061GA1011+004809079GA2061+009609069GF108991061051004501071999GJ100009MA1999999096891MD1110291+9999MW1701REMSYN106AAXX  31001 11841 11458 82602 11011 21022 39689 40073 51029 69951 77072 8657/ 333 55000 81716 86632 88359;
0187118410999992000123103004+49230+018610FM-12+031599999V0202901N001010096019N0100001N1-00111-00251101011ADDAY171031AY221031GA1071+009609059GF107991071051008001001001MA1999999097161MD1110271+9999MW1011REMSYN082AAXX  31031 11841 41560 72901 11011 21025 39716 40101 51027 70172 87500 333 87632;
0276118410999992000123106004+49230+018610FM-12+031599999V0202801N00201007501CN0100001N1-00161-00271101201ADDAA112000591AJ100069199999999AY171061AY221061GA1021+007209069GF107991071051008001001001IA1279IA2999-00409KA1120N-00171MA1999999097341MD1210181+9999MW1021REMSYN112AAXX  31061 11841 11560 72802 11016 21027 39734 40120 52018 69952 70272 87500 333 21017 3/104 43006 82624 87642;
0159118410999992000123109004+49230+018610FM-12+031599999V0202401N004010078019N0150001N1-00061-00331101361ADDGA1071+007809059GF107991071051008001001001MA1999999097511MD1210171+9999REMSYN076AAXX  31091 11841 42565 72404 11006 21033 39751 40136 52017 87500 333 87626;
0170118410999992000123112004+49230+018610FM-12+031599999V0202401N002010051019N0200001N1-00071-00291101471ADDAA199000021GA1081+005109059GF108991081051004501999999MA1999999097611MD1110101+9999REMSYN076AAXX  31121 11841 32470 82402 11007 21029 39761 40147 51010 885// 333 88617;
0193118410999992000123115004+49230+018610FM-12+031599999V0202701N00201004201CN0250001N1-00101-00261101641ADDAY171031AY221031GA1031+005409069GF107991071051004501001001MA1999999097771MD1210161+9999MW1021REMSYN088AAXX  31151 11841 41475 72702 11010 21026 39777 40164 52016 70272 87500 333 83618 87646;
0229118410999992000123118004+49230+018610FM-12+031599999V0202201N00401012001CN0200001N1-00071-00391101751ADDAA112000191AY171061AY221061GA1041+010509069GF107991071051012501001001KA1120M-00021MA1999999097881MD1110111+9999MW1021REMSYN100AAXX  31181 11841 11670 72204 11007 21039 39788 40175 51011 69922 70272 87500 333 11002 84635 86656;
0159118410999992000123121004+49230+018610FM-12+031599999V0202301N002010123019N0200001N1-00381-00491101951ADDGA1051+012309059GF105991051051012501001001MA1999999098031MD1210151+9999REMSYN076AAXX  31211 11841 42670 52302 11038 21049 39803 40195 52015 85500 333 85641;
