0178133890999992000010100004+42980+021950FM-12+023299999V0203401N006010075019N0005001N1-00091-00191101961ADDAA106000591AY171061AY271061GF108991081001008001021999MA1999999099041MD1210181+9999MW1711REMSYN078AAXX  01001 13389 11593 83406 11009 21019 39904 40196 52018 69951 77177 8802/;
0172133890999992000010103004+42980+021950FM-12+023299999V0203401N005010075019N0100001N1-00131-00221102181ADDAA106000021AY171031AY221031GF108991081061008001999999MA1999999099261MD1210221+9999MW1021REMSYN072AAXX  01031 13389 31597 83405 11013 21022 39926 40218 52022 70272 886//;
0276133890999992000010106004+42980+021950FM-12+023299999V0203401N003010075019N0100001N1-00161-00291102431ADDAA112000891AJ100139199999999AL10601391AY121061AY271061GF108991081061008001999999IA1279IA2999-00209KA1120N-00171MA1999999099491MD1210231+9999MW1021REMSYN118AAXX  01061 13389 11597 83403 11016 21029 39949 40243 52023 69982 70227 886// 333 21017 3/102 43013 55000 93113 92801;
0191133890999992000010109004+42980+021950FM-12+023299999V0203301N001010075019N0040001N1-00161-00251102651ADDAA106000091AY171031AY221031GF108991081061008001999999MA1999999099701MD1210211+9999MW1101REMSYN072AAXX  01091 13389 31596 83301 11016 21025 39970 40265 52021 71072 886//;EQDQ01  00002PRCP06
0178133890999992000010112004+42980+021950FM-12+023299999V0203201N002010075019N0100001N1-00091-00331102641ADDAA106000191AY171061AY221061GF108991081071008001999999MA1999999099701MD1410001+9999MW1701REMSYN078AAXX  01121 13389 11597 83202 11009 21033 39970 40264 54000 69921 77072 887//;
0172133890999992000010115004+42980+021950FM-12+023299999V0203001N001010075019N0100001N1-00171-00361102711ADDAA106000021AY121031AY271031GF107991071061008001001001MA1999999099761MD1310061+9999MW1011REMSYN072AAXX  01151 13389 31597 73001 11017 21036 39976 40271 53006 70127 87600;
0163133890999992000010121004+42980+021950FM-12+023299999V0202001N001010075019N0100001N1-00301-00401102821ADDAA106000091GF108991081061008001999999MA1999999099861MD1110021+9999REMSYN066AAXX  01211 13389 32597 82001 11030 21040 39986 40282 51002 886//;EQDQ01  00002PRCP06
0163133890999992000010203004+42980+021950FM-12+023299999V0209999C000010120019N0100001N1-00381-00441102811ADDAA106000091GF108991081051012501999999MA1999999099841MD1410001+9999REMSYN066AAXX  02031 13389 32697 80000 11038 21044 39984 40281 54000 885//;EQDQ01  00002PRCP06
0163133890999992000010209004+42980+021950FM-12+023299999V0209999C000010120019N0100001N1-00221-00401103011ADDAA106000091GF107991071051012501001001MA1999999100051MD1210171+9999REMSYN066AAXX  02091 13389 32697 70000 11022 21040 30005 40301 52017 87500;EQDQ01  00002PRCP06
0163133890999992000010215004+42980+021950FM-12+023299999V0209999C000012200019N0100001N1-00271-00611103001ADDAA106000091GF103991011051012501031001MA1999999100031MD1310051+9999REMSYN066AAXX  02151 13389 32697 30000 11027 21061 30003 40300 53005 81530;EQDQ01  00002PRCP06
0163133890999992000010221004+42980+021950FM-12+023299999V0203301N002010120019N0100001N1-00241-00531103231ADDAA106000091GF108991081051012501999999MA1999999100261MD1210151+9999REMSYN066AAXX  02211 13389 32697 83302 11024 21053 30026 40323 52015 885//;EQDQ01  00002PRCP06
0163133890999992000010300004+42980+021950FM-12+023299999V0203001N001010120019N0100001N1-00281-00571103251ADDAA106000091GF108991081051012501999999MA1999999100271MD1110011+9999REMSYN066AAXX  03001 13389 32697 83001 11028 21057 30027 40325 51001 885//;EQDQ01  00002PRCP06
0163133890999992000010303004+42980+021950FM-12+023299999V0203101N001010120019N0200001N1-00311-00571103251ADDAA106000091GF108991081051012501999999MA1999999100271MD1410001+9999REMSYN066AAXX  03031 13389 32698 83101 11031 21057 30027 40325 54000 885//;EQDQ01  00002PRCP06
0163133890999992000010309004+42980+021950FM-12+023299999V0200501N001010075019N0100001N1-00281-00571103411ADDAA106000091GF108991081061008001999999MA1999999100431MD1110091+9999REMSYN066AAXX  03091 13389 32597 80501 11028 21057 30043 40341 51009 886//;EQDQ01  00002PRCP06
0179133890999992000010312004+42980+021950FM-12+023299999V0201601N002010075019N0100001N1-00161-00481103201ADDAA106000091GF108991081061008001999999MA1999999100241MD1710211+9999REMSYN066AAXX  03121 13389 32597 81602 11016 21048 30024 40320 57109 886//;EQDQ01+001092APC3  Q02  00002PRCP06
0209133890999992000010318004+42980+021950FM-12+023299999V0209999C000010360019N0200001N1-00361-00531103011ADDAA106000091AJ100089199999999GF108991041051012501071999KA1120M-00111MA1999999100031MD1510091+9999REMSYN082AAXX  03181 13389 32698 80000 11036 21053 30003 40301 55009 8457/ 333 11011 4/008;EQDQ01  00002PRCP06
0163133890999992000010321004+42980+021950FM-12+023299999V0201601N001019999999N0100001N1-00471-00571102991ADDAA106000091GF107991071001999999071001MA1999999100001MD1810031+9999REMSYN066AAXX  03211 13389 32997 71601 11047 21057 30000 40299 58003 87070;EQDQ01  00002PRCP06
0163133890999992000010400004+42980+021950FM-12+023299999V0202001N001010360019N0100001N1-00451-00571102851ADDAA106000091GF108991041051012501071999MA1999999099871MD1710131+9999REMSYN066AAXX  04001 13389 32697 82001 11045 21057 39987 40285 57013 8457/;EQDQ01  00002PRCP06
0163133890999992000010403004+42980+021950FM-12+023299999V0202001N001010120019N0100001N1-00521-00571102721ADDAA106000091GF108991081051012501999999MA1999999099741MD1710131+9999REMSYN066AAXX  04031 13389 32697 82001 11052 21057 39974 40272 57013 885//;EQDQ01  00002PRCP06
0239133890999992000010406004+42980+021950FM-12+023299999V0201801N001010360019N0100001N1-00511-00611102691ADDAA106000091AJ100089199999999GF108991031051012501071999IA1279IA2999-00709KA1120N-00541MA1999999099711MD1710031+9999REMSYN094AAXX  04061 13389 32697 81801 11051 21061 39971 40269 57003 8357/ 333 21054 3/107 43008 55000;EQDQ01  00002PRCP06
0163133890999992000010409004+42980+021950FM-12+023299999V0209999C000012200019N0100001N1-00081-00531102651ADDAA106000091GF104991041001999999071001MA1999999099711MD1410001+9999REMSYN066AAXX  04091 13389 32997 40000 11008 21053 39971 40265 54000 84070;EQDQ01  00002PRCP06
0163133890999992000010412004+42980+021950FM-12+023299999V0200501N001012200019N0100001N1+00161-00361102511ADDAA106000091GF103991001001999999001011MA1999999099611MD1810101+9999REMSYN066AAXX  04121 13389 32997 30501 10016 21036 39961 40251 58010 80001;EQDQ01  00002PRCP06
0163133890999992000010415004+42980+021950FM-12+023299999V0209999C000012200019N0100001N1+00101-00361102431ADDAA106000091GF101991001001999999001011MA1999999099561MD1610051+9999REMSYN066AAXX  04151 13389 32997 10000 10010 21036 39956 40243 56005 80001;EQDQ01  00002PRCP06
0247133890999992000010418004+42980+021950FM-12+023299999V0201701N001012200019N0040001N1-00421-00481102531ADDAA106000091AJ100069199999999AY101061AY211061GA1001+999999999GF100991001001999999001001KA1120M+00271MA1999999099561MD1410001+9999MW1101REMSYN082AAXX  04181 13389 31996 01701 11042 21048 39956 40253 54000 71001 333 10027 4/006;EQDQ01  00002PRCP06
0201133890999992000010421004+42980+021950FM-12+023299999V0209999C000012200019N0040001N1-00601-00661102621ADDAA106000091AY101031AY201031GA1001+999999999GF100991001001999999001001MA1999999099631MD1310071+9999MW1101REMSYN066AAXX  04211 13389 31996 00000 11060 21066 39963 40262 53007 71000;EQDQ01  00002PRCP06
0191133890999992000010500004+42980+021950FM-12+023299999V0201801N001012200019N0040001N1-00721-00811102631ADDAA106000091AY101061AY201061GF103991031001999999031001MA1999999099631MD1410001+9999MW1101REMSYN072AAXX  05001 13389 31996 31801 11072 21081 39963 40263 54000 71000 83030;EQDQ01  00002PRCP06
0201133890999992000010503004+42980+021950FM-12+023299999V0209999C000012200019N0040001N1-00861-00971102601ADDAA106000091AY101031AY201031GA1001+999999999GF100991001001999999001001MA1999999099581MD1810051+9999MW1101REMSYN066AAXX  05031 13389 31996 00000 11086 21097 39958 40260 58005 71000;EQDQ01  00002PRCP06
0277133890999992000010506004+42980+021950FM-12+023299999V0201501N001012200019N0040001N1-00961-01091102581ADDAA106000091AJ100069199999999AY101061AY201061GA1001+999999999GF100991001001999999001001IA1279IA2999-01309KA1120N-01001MA1999999099551MD1810031+9999MW1101REMSYN094AAXX  05061 13389 31996 01501 11096 21109 39955 40258 58003 71000 333 21100 3/113 43006 55065;EQDQ01  00002PRCP06
0191133890999992000010509004+42980+021950FM-12+023299999V0202001N001019999999N0010001N1-00441-00571102611ADDAA106000091AY101031AY201031GF105991041001999999031011MA1999999099641MD1310091+9999MW1101REMSYN072AAXX  05091 13389 31994 52001 11044 21057 39964 40261 53009 71000 84031;EQDQ01  00002PRCP06
0191133890999992000010512004+42980+021950FM-12+023299999V0200601N002010120019N0040001N1-00141-00401102541ADDAA106000091AY121061AY211061GF107991051051012501031001MA1999999099611MD1810031+9999MW1101REMSYN072AAXX  05121 13389 31696 70602 11014 21040 39961 40254 58003 71021 85530;EQDQ01  00002PRCP06
0191133890999992000010515004+42980+021950FM-12+023299999V0200201N001010120019N0040001N1-00041-00291102511ADDAA106000091AY121031AY221031GF108991081051012501999999MA1999999099581MD1610031+9999MW1101REMSYN072AAXX  05151 13389 31696 80201 11004 21029 39958 40251 56003 71022 885//;EQDQ01  00002PRCP06
0237133890999992000010518004+42980+021950FM-12+023299999V0202001N001010120019N0040001N1-00071-00221102621ADDAA106000091AJ100069199999999AY121061AY221061GF108991081051012501999999KA1120M-00031MA1999999099681MD1310101+9999MW1101REMSYN088AAXX  05181 13389 31696 82001 11007 21022 39968 40262 53010 71022 885// 333 11003 4/006;EQDQ01  00002PRCP06
0191133890999992000010521004+42980+021950FM-12+023299999V0209999C000010120019N0040001N1-00121-00221102641ADDAA106000091AY121031AY221031GF108991081051012501999999MA1999999099701MD1110021+9999MW1101REMSYN072AAXX  05211 13389 31696 80000 11012 21022 39970 40264 51002 71022 885//;EQDQ01  00002PRCP06
0191133890999992000010603004+42980+021950FM-12+023299999V0209999C000010120019N0040001N1-00121-00251102611ADDAA106000091AY121031AY221031GF107991071051012501001001MA1999999099671MD1410001+9999MW1101REMSYN072AAXX  06031 13389 31696 70000 11012 21025 39967 40261 54000 71022 87500;EQDQ01  00002PRCP06
0238133890999992000010606004+42980+021950FM-12+023299999V0201801N002010120019N0020001N1-00431-00481102641ADDAA106000091AY121061AY221061GF107991061051012501031001IA2999-00709KA1120N-00431MA1999999099471MD1410001+9999MW1101REMSYN094AAXX  06061 13389 31695 71802 11043 21048 39947 40264 54000 71022 86530 333 21043 3/107 55011;EQDQ01  00002PRCP06
0191133890999992000010609004+42980+021950FM-12+023299999V0209999C000010120019N0010001N1-00131-00251102671ADDAA106000091AY111031AY221031GF106991061051012501001001MA1999999099731MD1310061+9999MW1101REMSYN072AAXX  06091 13389 31694 60000 11013 21025 39973 40267 53006 71012 86500;EQDQ01  00002PRCP06
0191133890999992000010612004+42980+021950FM-12+023299999V0200401N003012200019N0040001N1+00231-00151102551ADDAA106000091AY111061AY211061GF103991031051012501001001MA1999999099651MD1810081+9999MW1101REMSYN072AAXX  06121 13389 31696 30403 10023 21015 39965 40255 58008 71011 83500;EQDQ01  00002PRCP06
0191133890999992000010615004+42980+021950FM-12+023299999V0209999C000012200019N0040001N1+00181-00221102521ADDAA106000091AY101031AY201031GF102991021051012501001001MA1999999099621MD1610031+9999MW1101REMSYN072AAXX  06151 13389 31696 20000 10018 21022 39962 40252 56003 71000 82500;EQDQ01  00002PRCP06
0191133890999992000010621004+42980+021950FM-12+023299999V0201601N001010120019N0040001N1-00131-00221102781ADDAA106000091AY121031AY201031GF108991081051012501999999MA1999999099841MD1210151+9999MW1101REMSYN072AAXX  06211 13389 32696 81601 11013 21022 39984 40278 52015 71020 885//;EQDQ01  00002PRCP06
0191133890999992000010700004+42980+021950FM-12+023299999V0202901N002010120019N0040001N1-00081-00251102871ADDAA106000091AY121061AY211061GF108991081051012501999999MA1999999099931MD1210091+9999MW1101REMSYN072AAXX  07001 13389 31696 82902 11008 21025 39993 40287 52009 71021 885//;EQDQ01  00002PRCP06
0191133890999992000010703004+42980+021950FM-12+023299999V0209999C000010120019N0040001N1-00081-00251102941ADDAA106000091AY121031AY221031GF108991081051012501999999MA1999999099991MD1210061+9999MW1101REMSYN072AAXX  07031 13389 31696 80000 11008 21025 39999 40294 52006 71022 885//;EQDQ01  00002PRCP06
0267133890999992000010706004+42980+021950FM-12+023299999V0209999C000010120019N0040001N1-00091-00291103001ADDAA106000091AJ100049199999999AY121061AY221061GF108991081051012501999999IA1279IA2999-00509KA1120N-00131MA1999999100051MD1210061+9999MW1101REMSYN100AAXX  07061 13389 31696 80000 11009 21029 30005 40300 52006 71022 885// 333 21013 3/105 43004 55051;EQDQ01  00002PRCP06
0191133890999992000010709004+42980+021950FM-12+023299999V0202901N002010120019N0040001N1-00041-00331103121ADDAA106000091AY121031AY221031GF108991081051012501999999MA1999999100181MD1210131+9999MW1101REMSYN072AAXX  07091 13389 31696 82902 11004 21033 30018 40312 52013 71022 885//;EQDQ01  00002PRCP06
0191133890999992000010712004+42980+021950FM-12+023299999V0202601N001010120019N0040001N1+00061-00331103061ADDAA106000091AY121061AY221061GF108991081051012501999999MA1999999100131MD1810051+9999MW1101REMSYN072AAXX  07121 13389 31696 82601 10006 21033 30013 40306 58005 71022 885//;EQDQ01  00002PRCP06
0191133890999992000010715004+42980+021950FM-12+023299999V0202501N001010120019N0040001N1-00021-00361103021ADDAA106000091AY121031AY221031GF107991071051012501001001MA1999999100081MD1610051+9999MW1101REMSYN072AAXX  07151 13389 31696 72501 11002 21036 30008 40302 56005 71022 87500;EQDQ01  00002PRCP06
0237133890999992000010718004+42980+021950FM-12+023299999V0202801N001010120019N0040001N1-00081-00331103061ADDAA106000091AJ100039199999999AY121061AY221061GF108991081051012501999999KA1120M+00061MA1999999100111MD1310031+9999MW1101REMSYN088AAXX  07181 13389 31696 82801 11008 21033 30011 40306 53003 71022 885// 333 10006 4/003;EQDQ01  00002PRCP06
0163133890999992000010721004+42980+021950FM-12+023299999V0203001N001010120019N0100001N1-00111-00331103121ADDAA106000091GF108991081051012501999999MA1999999100171MD1210061+9999REMSYN066AAXX  07211 13389 32697 83001 11011 21033 30017 40312 52006 885//;EQDQ01  00002PRCP06
0237133890999992000011018004+42980+021950FM-12+023299999V0209999C000010120019N0040001N1-00261-00401103481ADDAA106000091AJ100029199999999AY121061AY221061GF108991081051012501999999KA1120M-00231MA1999999100501MD1210141+9999MW1101REMSYN088AAXX  10181 13389 31696 80000 11026 21040 30050 40348 52014 71022 885// 333 11023 4/002;EQDQ01  00002PRCP06
0191133890999992000011021004+42980+021950FM-12+023299999V0203501N002010120019N0005001N1-00251-00401103591ADDAA106000091AY121031AY221031GF108991081051012501999999MA1999999100621MD1210121+9999MW1101REMSYN072AAXX  10211 13389 31693 83502 11025 21040 30062 40359 52012 71022 885//;EQDQ01  00002PRCP06
0191133890999992000011100004+42980+021950FM-12+023299999V0209999C000010120019N0040001N1-00261-00441103661ADDAA106000091AY121061AY221061GF108991081051012501999999MA1999999100671MD1110051+9999MW1101REMSYN072AAXX  11001 13389 31696 80000 11026 21044 30067 40366 51005 71022 885//;EQDQ01  00002PRCP06
0191133890999992000011103004+42980+021950FM-12+023299999V0201601N001010120019N0040001N1-00281-00361103701ADDAA106000091AY121031AY221031GF108991081051012501999999MA1999999100711MD1310041+9999MW1101REMSYN072AAXX  11031 13389 31696 81601 11028 21036 30071 40370 53004 71022 885//;EQDQ01  00002PRCP06
0267133890999992000011106004+42980+021950FM-12+023299999V0203401N001010075019N0040001N1-00241-00331103751ADDAA106000091AJ100029199999999AY121061AY221061GF108991081061008001999999IA1309IA2999-00309KA1120N-00281MA1999999100771MD1210061+9999MW1101REMSYN100AAXX  11061 13389 31596 83401 11024 21033 30077 40375 52006 71022 886// 333 21028 3/103 42002 55000;EQDQ01  00002PRCP06
0172133890999992000011109004+42980+021950FM-12+023299999V0209999C000010075019N0040001N1-00221-00291103841ADDAA106000021AY171031AY221031GF108991081001008001021999MA1999999100861MD1210091+9999MW1711REMSYN072AAXX  11091 13389 31596 80000 11022 21029 30086 40384 52009 77172 8802/;
0178133890999992000011112004+42980+021950FM-12+023299999V0201901N001010075019N0040001N1-00101-00221103831ADDAA106000591AY171061AY271061GF108991081001008001021999MA1999999100861MD1410001+9999MW1711REMSYN078AAXX  11121 13389 11596 81901 11010 21022 30086 40383 54000 69941 77177 8802/;
0172133890999992000011115004+42980+021950FM-12+023299999V0203101N001010075019N0100001N1-00121-00291103831ADDAA106000021AY171031AY271031GF108991081061008001999999MA1999999100861MD1410001+9999MW1111REMSYN072AAXX  11151 13389 31597 83101 11012 21029 30086 40383 54000 71177 886//;
0219133890999992000011118004+42980+021950FM-12+023299999V0202801N001010075019N0040001N1-00281+99999103841ADDAA112000591AJ100029199999999AL10699999AY121061AY271061GF108991081061008001999999KA1120M-00081MD1410001+9999MW1101REMSYN094AAXX  11181 13389 11596 82801 11028 21025 40384 54000 69942 71027 886// 333 11008 4/002 93197;
0191133890999992000011121004+42980+021950FM-12+023299999V0202701N001010075019N0040001N1-00191-00291103911ADDAA106000091AY121031AY221031GF108991081061008001999999MA1999999100931MD1310071+9999MW1101REMSYN072AAXX  11211 13389 31596 82701 11019 21029 30093 40391 53007 71022 886//;EQDQ01  00002PRCP06
0172133890999992000011203004+42980+021950FM-12+023299999V0202401N001010075019N0040001N1-00221-00291103861ADDAA106000021AY171031AY221031GF108991081071008001999999MA1999999100881MD1810051+9999MW1701REMSYN072AAXX  12031 13389 31596 82401 11022 21029 30088 40386 58005 77072 887//;
0264133890999992000011206004+42980+021950FM-12+023299999V0209999C000010360019N0040001N1-00241-00291103841ADDAA112000191AJ100029199999999AL10699999AY171061AY271061GF108991031071008001021999IA1279IA2999-00309KA1120N-00241MA1999999100861MD1610021+9999MW1711REMSYN106AAXX  12061 13389 11596 80000 11024 21029 30086 40384 56002 69922 77177 8372/ 333 21024 3/103 43002 93197;
0172133890999992000011209004+42980+021950FM-12+023299999V0202401N001010360019N0040001N1-00181-00251103841ADDAA106000021AY171031AY221031GF108991021071008001021999MA1999999100861MD1410001+9999MW1711REMSYN072AAXX  12091 13389 31596 82401 11018 21025 30086 40384 54000 77172 8272/;
0178133890999992000011212004+42980+021950FM-12+023299999V0200501N001010075019N0040001N1-00021-00291103711ADDAA106000791AY171061AY271061GF108991081061008001999999MA1999999100751MD1810111+9999MW1101REMSYN078AAXX  12121 13389 11596 80501 11002 21029 30075 40371 58011 69901 71077 886//;
0144133890999992000011215004+42980+021950FM-12+023299999V0200701N001010120019N0100001N1-00081-00441103681ADDAA106000021GF108991081051012501999999MA1999999100711MD1610041+9999REMSYN066AAXX  12151 13389 32697 80701 11008 21044 30071 40368 56004 885//;
0212133890999992000011218004+42980+021950FM-12+023299999V0201601N001010120019N0100001N1-00141-00361103681ADDAA112000791AJ100029199999999AL10699999GF108991081051012501999999KA1120M+00021MA1999999100711MD1410001+9999REMSYN094AAXX  12181 13389 12697 81601 11014 21036 30071 40368 54000 69902 885// 333 10002 4/002 93197;
0163133890999992000011221004+42980+021950FM-12+023299999V0209999C000010120019N0100001N1-00201-00331103691ADDAA106000091GF108991081051012501999999MA1999999100711MD1410001+9999REMSYN066AAXX  12211 13389 32697 80000 11020 21033 30071 40369 54000 885//;EQDQ01  00002PRCP06
0163133890999992000011300004+42980+021950FM-12+023299999V0209999C000010120019N0100001N1-00281-00331103591ADDAA106000091GF108991081051012501999999MA1999999100601MD1710111+9999REMSYN066AAXX  13001 13389 32697 80000 11028 21033 30060 40359 57011 885//;EQDQ01  00002PRCP06
0163133890999992000011303004+42980+021950FM-12+023299999V0201901N001010120019N0100001N1-00321-00361103481ADDAA106000091GF108991081051012501999999MA1999999100501MD1710101+9999REMSYN066AAXX  13031 13389 32697 81901 11032 21036 30050 40348 57010 885//;EQDQ01  00002PRCP06
0255133890999992000011306004+42980+021950FM-12+023299999V0201801N001010120019N0100001N1-00401-00441103491ADDAA106000091AJ100029199999999AL10699999GF108991081051012501999999IA1309IA2999-00509KA1120N-00401MA1999999100501MD1410001+9999REMSYN100AAXX  13061 13389 32697 81801 11040 21044 30050 40349 54000 885// 333 21040 3/105 42002 55000 93197;EQDQ01  00002PRCP06
0163133890999992000011309004+42980+021950FM-12+023299999V0209999C000012200019N0100001N1-00061-00401103471ADDAA106000091GF102991011001999999031011MA1999999100521MD1310021+9999REMSYN066AAXX  13091 13389 32997 20000 11006 21040 30052 40347 53002 81031;EQDQ01  00002PRCP06
0173133890999992000011312004+42980+021950FM-12+023299999V0201801N001012200019N0100001N1+00341-00361103191ADDAA106000091GA1001+999999999GF100991001001999999001001MA1999999100281MD1810241+9999REMSYN060AAXX  13121 13389 32997 01801 10034 21036 30028 40319 58024;EQDQ01  00002PRCP06
0173133890999992000011315004+42980+021950FM-12+023299999V0201601N001012200019N0100001N1+00171-00401103151ADDAA106000091GA1001+999999999GF100991001001999999001001MA1999999100231MD1710051+9999REMSYN060AAXX  13151 13389 32997 01601 10017 21040 30023 40315 57005;EQDQ01  00002PRCP06
0219133890999992000011318004+42980+021950FM-12+023299999V0201501N001012200019N0100001N1-00291-00701103191ADDAA106000091AJ100029199999999GA1001+999999999GF100991001001999999001001KA1120M+00481MA1999999100221MD1610011+9999REMSYN076AAXX  13181 13389 32997 01501 11029 21070 30022 40319 56001 333 10048 4/002;EQDQ01  00002PRCP06
0177133890999992000011321004+42980+021950FM-12+023299999V0209999C000012200019N0100001N1-00451-00531103171ADDAA199000091GA1001+999999999GF100991001001999999001001MA1999999100191MD1810031+9999REMSYN064    AAXX  13211 13389 32997 00000 11045 21053 30019 40317 58003;EQDQ01  00002PRCP99
0177133890999992000011400004+42980+021950FM-12+023299999V0201501N001012200019N0100001N1-00651-00711103231ADDAA199000091GA1001+999999999GF100991001001999999001001MA1999999100221MD1310031+9999REMSYN064    AAXX  14001 13389 32997 01501 11065 21071 30022 40323 53003;EQDQ01  00002PRCP99
0177133890999992000011403004+42980+021950FM-12+023299999V0209999C000012200019N0100001N1-00761-00811103231ADDAA199000091GA1001+999999999GF100991001001999999001001MA1999999100201MD1810021+9999REMSYN064    AAXX  14031 13389 32997 00000 11076 21081 30020 40323 58002;EQDQ01  00002PRCP99
0281133890999992000011406004+42980+021950FM-12+023299999V0201801N001012200019N0040001N1-00831-00911103261ADDAA199000091AJ100029199999999AY101061AY201061GA1001+999999999GF100991001001999999001001IA1309IA2999-01109KA1120N-00841MA1999999100231MD1310031+9999MW1101REMSYN098    AAXX  14061 13389 31996 01801 11083 21091 30023 40326 53003 71000 333 21084 3/111 42002 55073;EQDQ01  00002PRCP99
0205133890999992000011409004+42980+021950FM-12+023299999V0201801N001012200019N0040001N1-00411-00571103181ADDAA199000091AY101031AY201031GA1001+999999999GF100991001001999999001001MA1999999100201MD1810031+9999MW1101REMSYN070    AAXX  14091 13389 31996 01801 11041 21057 30020 40318 58003 71000;EQDQ01  00002PRCP99
0205133890999992000011412004+42980+021950FM-12+023299999V0200601N002012200019N0040001N1+00031-00401102981ADDAA199000091AY101061AY201061GA1001+999999999GF100991001001999999001001MA1999999100051MD1710151+9999MW1101REMSYN070    AAXX  14121 13389 31996 00602 10003 21040 30005 40298 57015 71000;EQDQ01  00002PRCP99
0177133890999992000011415004+42980+021950FM-12+023299999V0209999C000012200019N0100001N1+00111-00361102921ADDAA199000091GA1001+999999999GF100991001001999999001001MA1999999100001MD1610051+9999REMSYN064    AAXX  14151 13389 32997 00000 10011 21036 30000 40292 56005;EQDQ01  00002PRCP99
0223133890999992000011418004+42980+021950FM-12+023299999V0201801N001012200019N0100001N1-00341-00481103021ADDAA199000091AJ100029199999999GA1001+999999999GF100991001001999999001001KA1120M+00301MA1999999100051MD1310051+9999REMSYN080    AAXX  14181 13389 32997 01801 11034 21048 30005 40302 53005 333 10030 4/002;EQDQ01  00002PRCP99
0177133890999992000011421004+42980+021950FM-12+023299999V0202101N002012200019N0100001N1-00551-00661103061ADDAA199000091GA1001+999999999GF100991001001999999001001MA1999999100061MD1110011+9999REMSYN064    AAXX  14211 13389 32997 02102 11055 21066 30006 40306 51001;EQDQ01  00002PRCP99
0177133890999992000011500004+42980+021950FM-12+023299999V0209999C000012200019N0100001N1-00781-00861103111ADDAA199000091GA1001+999999999GF100991001001999999001001MA1999999100081MD1310021+9999REMSYN064    AAXX  15001 13389 32997 00000 11078 21086 30008 40311 53002;EQDQ01  00002PRCP99
0177133890999992000011503004+42980+021950FM-12+023299999V0209999C000012200019N0100001N1-00891-01031103121ADDAA199000091GA1001+999999999GF100991001001999999001001MA1999999100081MD1410001+9999REMSYN064    AAXX  15031 13389 32997 00000 11089 21103 30008 40312 54000;EQDQ01  00002PRCP99
0297133890999992000011506004+42980+021950FM-12+023299999V0209999C000012200019N0040001N1-01101-01151103081ADDAA199000091AJ100009199999999AY101061AY201061GA1001+999999999GF100991001001999999001001IA1309IA2999-01309KA1120N+99999MA1999999100031MD1810051+9999MW1101REMSYN098    AAXX  15061 13389 31996 00000 11110 21115 30003 40308 58005 71000 333 21100 31113 42000 55080;EQDQ01  00002PRCP99Q02 -01002ATMN  
0195133890999992000011509004+42980+021950FM-12+023299999V0209999C000019999999N0040001N1-00341-00531103031ADDAA199000091AY111031AY211031GF106991001001999999001061MA1999999100061MD1310031+9999MW1101REMSYN076    AAXX  15091 13389 31996 60000 11034 21053 30006 40303 53003 71011 80006;EQDQ01  00002PRCP99
0205133890999992000011512004+42980+021950FM-12+023299999V0209999C000012200019N0040001N1+00211-00331102751ADDAA199000091AY101061AY201061GA1001+999999999GF100991001001999999001001MA1999999099841MD1810221+9999MW1101REMSYN070    AAXX  15121 13389 31996 00000 10021 21033 39984 40275 58022 71000;EQDQ01  00002PRCP99
0167133890999992000011515004+42980+021950FM-12+023299999V0209999C000012200019N0200001N1+00151-00441102671ADDAA199000091GF102991001001999999001011MA1999999099761MD1710081+9999REMSYN070    AAXX  15151 13389 32998 20000 10015 21044 39976 40267 57008 80001;EQDQ01  00002PRCP99
0177133890999992000011521004+42980+021950FM-12+023299999V0202101N001012200019N0100001N1-00581-00761102871ADDAA199000091GA1001+999999999GF100991001001999999001001MA1999999099871MD1310021+9999REMSYN064    AAXX  15211 13389 32997 02101 11058 21076 39987 40287 53002;EQDQ01  00002PRCP99
0167133890999992000011600004+42980+021950FM-12+023299999V0201601N001010120019N0100001N1-00481-00531102901ADDAA199000091GF108991081051012501999999MA1999999099911MD1210041+9999REMSYN070    AAXX  16001 13389 32697 81601 11048 21053 39991 40290 52004 885//;EQDQ01  00002PRCP99
0167133890999992000011603004+42980+021950FM-12+023299999V0209999C000010120019N0100001N1-00361-00441102901ADDAA199000091GF108991081051012501999999MA1999999099921MD1110011+9999REMSYN070    AAXX  16031 13389 32697 80000 11036 21044 39992 40290 51001 885//;EQDQ01  00002PRCP99
0271133890999992000011606004+42980+021950FM-12+023299999V0209999C000010120019N0040001N1-00311-00401102941ADDAA199000091AJ100029199999999AY121061AY221061GF108991081051012501999999IA1309IA2999-01009KA1120N-00651MA1999999099971MD1310051+9999MW1101REMSYN104    AAXX  16061 13389 32696 80000 11031 21040 39997 40294 53005 71022 885// 333 21065 3/110 42002 55063;EQDQ01  00002PRCP99
0176133890999992000011609004+42980+021950FM-12+023299999V0202001N002010075019N0040001N1-00221-00331103001ADDAA199000021AY171031AY221031GF108991081071008001999999MA1999999100041MD1210071+9999MW1711REMSYN076    AAXX  16091 13389 31596 82002 11022 21033 30004 40300 52007 77172 887//;
0182133890999992000011612004+42980+021950FM-12+023299999V0209999C000010075019N0040001N1-00061-00401102901ADDAA106000191AY171061AY221061GF108991081061008001999999MA1999999099951MD1810091+9999MW1021REMSYN082    AAXX  16121 13389 11596 80000 11006 21040 39995 40290 58009 69911 70272 886//;
0176133890999992000011615004+42980+021950FM-12+023299999V0209999C000010360019N0040001N1-00131-00331102851ADDAA199000021AY171031AY241031GF108991021071008001021999MA1999999099911MD1610041+9999MW1711REMSYN076    AAXX  16151 13389 31596 80000 11013 21033 39991 40285 56004 77174 8272/;
0244133890999992000011618004+42980+021950FM-12+023299999V0209999C000010360019N0040001N1-00191-00331102891ADDAA112000191AJ100029199999999AL10699999AY171061AY271061GF108991021071008001021999KA1120M-00051MA1999999099941MD1310031+9999MW1711REMSYN104    AAXX  16181 13389 11596 80000 11019 21033 39994 40289 53003 69922 77177 8272/ 333 11005 4/002 93197;
0176133890999992000011621004+42980+021950FM-12+023299999V0209999C000010360019N0040001N1-00221-00331102851ADDAA199000021AY171031AY271031GF108991021071008001021999MA1999999099901MD1810041+9999MW1711REMSYN076    AAXX  16211 13389 31596 80000 11022 21033 39990 40285 58004 77177 8272/;
0182133890999992000011700004+42980+021950FM-12+023299999V0201801N001010360019N0040001N1-00261-00361102751ADDAA106000191AY171061AY271061GF108991021071008001011999MA1999999099791MD1710111+9999MW1711REMSYN082    AAXX  17001 13389 11596 81801 11026 21036 39979 40275 57011 69911 77177 8271/;
0176133890999992000011703004+42980+021950FM-12+023299999V0202501N001010075019N0040001N1-00261-00361102601ADDAA199000021AY171031AY271031GF108991081001008001021999MA1999999099641MD1710151+9999MW1711REMSYN076    AAXX  17031 13389 31596 82501 11026 21036 39964 40260 57015 77177 8802/;
0268133890999992000011706004+42980+021950FM-12+023299999V0203301N001010075019N0040001N1-00281-00571102471ADDAA112000191AJ100039199999999AL10600191AY121061AY271061GF108991081061008001999999IA1279IA2999-00309KA1120N-00281MA1999999099521MD1710121+9999MW1101REMSYN110    AAXX  17061 13389 11596 83301 11028 21057 39952 40247 57012 69922 71027 886// 333 21028 3/103 43003 93101;
0176133890999992000011709004+42980+021950FM-12+023299999V0202101N002012200019N0040001N1-00141-00331102201ADDAA199000021AY171031AY271031GF103991031081012501001001MA1999999099281MD1710241+9999MW1701REMSYN076    AAXX  17091 13389 31696 32102 11014 21033 39928 40220 57024 77077 83800;
0182133890999992000011712004+42980+021950FM-12+023299999V0201701N002010360019N0100001N1+00111-00711101761ADDAA106000791AY111061AY271061GF105991011011012501031001MA1999999098861MD1710421+9999MW1021REMSYN082    AAXX  17121 13389 11697 51702 10011 21071 39886 40176 57042 69901 70217 81130;
0148133890999992000011715004+42980+021950FM-12+023299999V0200701N002010360019N0200001N1-00061-00761101381ADDAA199000021GF106991021051012501031001MA1999999098481MD1710381+9999REMSYN070    AAXX  17151 13389 32698 60702 11006 21076 39848 40138 57038 82530;
0216133890999992000011718004+42980+021950FM-12+023299999V0209999C000010120019N0100001N1-00071-00661101141ADDAA112000791AJ100029199999999AL10699999GF108991081051012501999999KA1120M+00111MA1999999098251MD1710231+9999REMSYN098    AAXX  17181 13389 12697 80000 11007 21066 39825 40114 57023 69902 885// 333 10011 4/002 93197;
0176133890999992000011721004+42980+021950FM-12+023299999V0201401N001010075019N0100001N1-00061-00571100731ADDAA199000021AY171031AY221031GF108991081071008001999999MA1999999097851MD1710401+9999MW1701REMSYN076    AAXX  17211 13389 31597 81401 11006 21057 39785 40073 57040 77072 887//;
0182133890999992000011800004+42980+021950FM-12+023299999V0209999C000010075019N0040001N1-00101-00221100401ADDAA106000591AY171061AY271061GF108991081001008001021999MA1999999097531MD1710321+9999MW1711REMSYN082    AAXX  18001 13389 11596 80000 11010 21022 39753 40040 57032 69961 77177 8802/;
0176133890999992000011803004+42980+021950FM-12+023299999V0202301N002010075019N0040001N1+00061+00011100071ADDAA199000021AY171031AY271031GF108991081001008001021999MA1999999097231MD1710301+9999MW1711REMSYN076    AAXX  18031 13389 31596 82302 10006 20001 39723 40007 57030 77177 8802/;
0274133890999992000011806004+42980+021950FM-12+023299999V0203101N001010075019N0040001N1+00041+00011100061ADDAA112006191AJ100069199999999AL10600491AY171061AY271061GF108991081001008001021999IA1279IA2999-00209KA1120N-00101MA1999999097211MD1510021+9999MW1711REMSYN116    AAXX  18061 13389 11596 83101 10004 20001 39721 40006 55002 60062 77177 8802/ 333 21010 3/102 43006 55038 93104;
0180133890999992000011809004+42980+021950FM-12+023299999V0203401N002010120019N0100001N1+00141-00021100271ADDAA199000021AY171031AY261031GF108991081001012501021999MD1210211+9999MW1711REMSYN076    AAXX  18091 13389 31697 83402 10014 21002 37742 40027 52021 77176 8802/;EQDQ01+077423APOSP 
0182133890999992000011812004+42980+021950FM-12+023299999V0201601N002010150019N0200001N1+00271+00011100131ADDAA106000591AY171061AY261061GF107991071081012501001001MA1999999097311MD1810111+9999MW1021REMSYN082    AAXX  18121 13389 11698 71602 10027 20001 39731 40013 58011 69941 70276 87800;
0148133890999992000011815004+42980+021950FM-12+023299999V0209999C000010120019N0100001N1+00251-00091100001ADDAA199000021GF108991081051012501999999MA1999999097171MD1710141+9999REMSYN070    AAXX  18151 13389 32697 80000 10025 21009 39717 40000 57014 885//;
0231133890999992000011818004+42980+021950FM-12+023299999V0200401N001010075019N0100001N1+00051+00011099871ADDAA112002091AJ100039199999999AL10600191AY171061AY271061GF107991071061008001001001MA1999999097021MD1710151+9999MW1271REMSYN104    AAXX  18181 13389 11597 70401 10005 20001 39702 49987 57015 60022 72777 87600 333 10/// 4/003 93101;
0176133890999992000011821004+42980+021950FM-12+023299999V0203601N003010075019N0100001N1+00081+00011100451ADDAA199000021AY171031AY221031GF107991071061008001001001MA1999999097601MD1310581+9999MW1701REMSYN076    AAXX  18211 13389 31597 73603 10008 20001 39760 40045 53058 77072 87600;
0182133890999992000011900004+42980+021950FM-12+023299999V0203301N006010075019N0200001N1+00031-00331100751ADDAA106001091AY111061AY271061GF105991051061008001001001MA1999999097881MD1110281+9999MW1021REMSYN082    AAXX  19001 13389 11598 53306 10003 21033 39788 40075 51028 60011 70217 85600;
0148133890999992000011903004+42980+021950FM-12+023299999V0203201N002010075019N0200001N1+00021-00401100911ADDAA199000021GF107991071061008001001001MA1999999098031MD1310151+9999REMSYN070    AAXX  19031 13389 32598 73202 10002 21040 39803 40091 53015 87600;
0280133890999992000011906004+42980+021950FM-12+023299999V0202101N002010075019N0200001N1+00011-00361101021ADDAA112001091AJ100039199999999AL10600191AY171061AY271061GF108991081061008001999999IA1279IA2999-00209KA1120N+00041MA1999999098141MD1210111+9999MW1221REMSYN122    AAXX  19061 13389 11598 82102 10001 21036 39814 40102 52011 60012 72277 886// 333 20004 3/102 43003 55003 93101 92821;
0176133890999992000011909004+42980+021950FM-12+023299999V0202301N002010075019N0100001N1+00081-00151101131ADDAA199000021AY121031AY271031GF108991081071008001999999MA1999999098261MD1210121+9999MW1711REMSYN076    AAXX  19091 13389 31597 82302 10008 21015 39826 40113 52012 77127 887//;
0182133890999992000011912004+42980+021950FM-12+023299999V0203001N003010075019N0100001N1+00161-00191101201ADDAA106000191AY171061AY271061GF107991071061008001001001MA1999999098341MD1210081+9999MW1221REMSYN082    AAXX  19121 13389 11597 73003 10016 21019 39834 40120 52008 69921 72277 87600;
0172133890999992000011915004+42980+021950FM-12+023299999V0203101N003010150019N0100001N1+00021-00251101441ADDAA199000021AY121031AY271031GF106991061081012501001001MA1999999098551MD1210211+9999MW1021REMSYN072AAXX  19151 13389 31697 63103 10002 21025 39855 40144 52021 70227 86800;
0240133890999992000011918004+42980+021950FM-12+023299999V0203201N001010075019N0010001N1-00141-00221101691ADDAA112000591AJ100039199999999AL10600191AY171061AY271061GF108991081001008001021999KA1120M+00181MA1999999098781MD1210231+9999MW1731REMSYN100AAXX  19181 13389 11594 83201 11014 21022 39878 40169 52023 69962 77377 8802/ 333 10018 4/003 93101;
0172133890999992000011921004+42980+021950FM-12+023299999V0202501N001010120019N0040001N1-00111-00401101791ADDAA199000021AY171031AY271031GF108991081001012501021999MA1999999098881MD1310101+9999MW1711REMSYN072AAXX  19211 13389 31696 82501 11011 21040 39888 40179 53010 77177 8802/;
0178133890999992000012000004+42980+021950FM-12+023299999V0203201N006012200019N0100001N1-00271-00611102051ADDAA106000391AY171061AY271061GF104991041051012501001001MA1999999099111MD1210231+9999MW1021REMSYN078AAXX  20001 13389 11697 43206 11027 21061 39911 40205 52023 69931 70277 84500;
0172133890999992000012003004+42980+021950FM-12+023299999V0202501N002012200019N0100001N1-00371-00481102171ADDAA199000021AY171031AY211031GF104991041051012501001001MA1999999099221MD1210111+9999MW1221REMSYN072AAXX  20031 13389 31697 42502 11037 21048 39922 40217 52011 72271 84500;
0276133890999992000012006004+42980+021950FM-12+023299999V0201801N001010120019N0100001N1-00301-00661102361ADDAA112000591AJ100049199999999AL10600291AY171061AY271061GF107991071051012501001001IA1279IA2999-00809KA1120N-00401MA1999999099411MD1210191+9999MW1031REMSYN118AAXX  20061 13389 12697 71801 11030 21066 39941 40236 52019 69962 70377 87500 333 21040 3/108 43004 55003 92800 93102;
0144133890999992000012009004+42980+021950FM-12+023299999V0203401N003010120019N0100001N1-00141-00481102551ADDAA199000021GF106991061081008001001001MA1999999099621MD1210211+9999REMSYN066AAXX  20091 13389 32597 63403 11014 21048 39962 40255 52021 86800;
0144133890999992000012012004+42980+021950FM-12+023299999V0203401N003012200019N0100001N1-00041-00401102631ADDAA199000021GF104991041081012501001001MA1999999099701MD1110071+9999REMSYN066AAXX  20121 13389 32697 43403 11004 21040 39970 40263 51007 84800;
0172133890999992000012015004+42980+021950FM-12+023299999V0200401N001010150019N0100001N1-00081-00401102641ADDAA199000021AY171031AY221031GF106991061081012501001001MA1999999099701MD1410001+9999MW1021REMSYN072AAXX  20151 13389 31697 60401 11008 21040 39970 40264 54000 70272 86800;
0240133890999992000012018004+42980+021950FM-12+023299999V0201601N001012200019N0100001N1-00541-00711102681ADDAA112000791AJ100049199999999AL10699999AY121061AY271061GF102991021001999999031001KA1120M+00261MA1999999099701MD1410001+9999MW1011REMSYN100AAXX  20181 13389 11997 21601 11054 21071 39970 40268 54000 69902 70127 82030 333 10026 4/004 93197;
0173133890999992000012100004+42980+021950FM-12+023299999V0202001N001012200019N0100001N1-01141-01221102471ADDAA199000091GA1001+999999999GF100991001001999999001001MA1999999099431MD1810171+9999REMSYN060AAXX  21001 13389 32997 02001 11114 21122 39943 40247 58017;EQDQ01  00002PRCP99
0163133890999992000012103004+42980+021950FM-12+023299999V0201601N001019999999N0100001N1-00681-00761102111ADDAA199000091GF105991051001999999031001MA1999999099121MD1710311+9999REMSYN066AAXX  21031 13389 32997 51601 11068 21076 39912 40211 57031 85030;EQDQ01  00002PRCP99
0239133890999992000012106004+42980+021950FM-12+023299999V0209999C000019999999N0200001N1-00541-00861101831ADDAA199000091AJ100049199999999GF107991071001999999071001IA1279IA2999-01409KA1120N-01161MA1999999098871MD1710251+9999REMSYN094AAXX  21061 13389 32998 70000 11054 21086 39887 40183 57025 87070 333 21116 3/114 43004 55041;EQDQ01  00002PRCP99
0163133890999992000012109004+42980+021950FM-12+023299999V0201301N003012200019N0200001N1-00081-00911101581ADDAA199000091GF104991041001999999071001MA1999999098671MD1710201+9999REMSYN066AAXX  21091 13389 32998 41303 11008 21091 39867 40158 57020 84070;EQDQ01  00002PRCP99
0163133890999992000012112004+42980+021950FM-12+023299999V0200801N003010120019N0200001N1+00041-00711101191ADDAA199000091GF107991051051012501071001MA1999999098311MD1710361+9999REMSYN066AAXX  21121 13389 32698 70803 10004 21071 39831 40119 57036 85570;EQDQ01  00002PRCP99
0173133890999992000012115004+42980+021950FM-12+023299999V0202401N006010120019N0200001N1+00381-00151100901ADDAA199000091GF107991071051012501001001MA1999999098061MD1710251+9999REMSYN076AAXX  21151 13389 32698 72406 10038 21015 39806 40090 57025 87500 333 91111;EQDQ01  00002PRCP99
0215133890999992000012118004+42980+021950FM-12+023299999V0202401N006010360019N0200001N1+00411-00091100731ADDAA199000091AJ100039199999999GF107991031051012501071001KA1120M+00451MA1999999097901MD1710161+9999REMSYN088AAXX  21181 13389 32698 72406 10041 21009 39790 40073 57016 83570 333 10045 4/003 91112;EQDQ01  00002PRCP99
0172133890999992000012121004+42980+021950FM-12+023299999V0203101N004010120019N0100001N1+00101-00091101171ADDAA199000021AY171031AY261031GF108991081001012501021999MA1999999098301MD1310401+9999MW1711REMSYN072AAXX  21211 13389 31697 83104 10010 21009 39830 40117 53040 77176 8802/;
0189133890999992000012203004+42980+021950FM-12+023299999V0203401N005012200019N0200001N1-00351-01151102072ADDAA199000021GF103991031051012501001001MA1999999099122MD1210341+9999REMSYN076AAXX  22031 13389 32698 33405 11035 21115 39912 40207 52034 83500 333 91112;EQDQ01+099123APOSP Q02+102073APOSLP
0242133890999992000012206004+42980+021950FM-12+023299999V0203301N002012200019N0200001N1-00661-01221102281ADDAA112001091AJ100049199999999AL10600291GF102991021001999999031001IA1239IA2999-01209KA1120N-00661MA1999999099291MD1210171+9999REMSYN106AAXX  22061 13389 12998 23302 11066 21122 39929 40228 52017 60012 82030 333 21066 3/112 47004 55009 93102;
0144133890999992000012209004+42980+021950FM-12+023299999V0201301N002019999999N0200001N1-00291-01031102381ADDAA199000021GF107991001001999999001061MA1999999099431MD1110141+9999REMSYN066AAXX  22091 13389 32998 71302 11029 21103 39943 40238 51014 80006;
0163133890999992000012212004+42980+021950FM-12+023299999V0201201N002012200019N0200001N1-00121-01151102231ADDAA199000091GF102991001001999999001011MA1999999099311MD1810121+9999REMSYN066AAXX  22121 13389 32998 21202 11012 21115 39931 40223 58012 80001;EQDQ01  00002PRCP99
0163133890999992000012215004+42980+021950FM-12+023299999V0200601N002019999999N0200001N1-00181-01371102021ADDAA199000091GF107991001001999999001061MA1999999099091MD1710221+9999REMSYN066AAXX  22151 13389 32998 70602 11018 21137 39909 40202 57022 80006;EQDQ01  00002PRCP99
0209133890999992000012218004+42980+021950FM-12+023299999V0200401N001019999999N0200001N1-00511-01291101971ADDAA199000091AJ100039199999999GF107991001001999999001061KA1120M-00101MA1999999099011MD1610081+9999REMSYN082AAXX  22181 13389 32998 70401 11051 21129 39901 40197 56008 80006 333 11010 4/003;EQDQ01  00002PRCP99
0163133890999992000012221004+42980+021950FM-12+023299999V0201601N002019999999N0200001N1-00821-01151101901ADDAA199000091GF107991071001999999071001MA1999999098911MD1810101+9999REMSYN066AAXX  22211 13389 32998 71602 11082 21115 39891 40190 58010 87070;EQDQ01  00002PRCP99
0163133890999992000012300004+42980+021950FM-12+023299999V0202401N001019999999N0200001N1-00591-01151101671ADDAA199000091GF107991071001999999071001MA1999999098711MD1710201+9999REMSYN066AAXX  23001 13389 32998 72401 11059 21115 39871 40167 57020 87070;EQDQ01  00002PRCP99
0163133890999992000012303004+42980+021950FM-12+023299999V0200601N001010360019N0200001N1-00491-00911101471ADDAA199000091GF108991041051012501071999MA1999999098531MD1710181+9999REMSYN066AAXX  23031 13389 32698 80601 11049 21091 39853 40147 57018 8457/;EQDQ01  00002PRCP99
0239133890999992000012306004+42980+021950FM-12+023299999V0201201N001010120019N0200001N1-00401-00911101111ADDAA199000091AJ100039199999999GF108991081051012501999999IA1279IA2999-01209KA1120N-00881MA1999999098191MD1710341+9999REMSYN094AAXX  23061 13389 32698 81201 11040 21091 39819 40111 57034 885// 333 21088 3/112 43003 55058;EQDQ01  00002PRCP99
0163133890999992000012309004+42980+021950FM-12+023299999V0200601N002010120019N0200001N1-00161-00611100741ADDAA199000091GF107991051051012501031001MA1999999097891MD1710301+9999REMSYN066AAXX  23091 13389 32698 70602 11016 21061 39789 40074 57030 85530;EQDQ01  00002PRCP99
0163133890999992000012312004+42980+021950FM-12+023299999V0203601N003010120019N0200001N1+00361-00361100421ADDAA199000091GF107991071051012501001001MA1999999097601MD1710291+9999REMSYN066AAXX  23121 13389 32698 73603 10036 21036 39760 40042 57029 87500;EQDQ01  00002PRCP99
0163133890999992000012315004+42980+021950FM-12+023299999V0200201N002010120019N0200001N1+00381-00221100231ADDAA199000091GF107991071051012501001001MA1999999097411MD1610191+9999REMSYN066AAXX  23151 13389 32698 70202 10038 21022 39741 40023 56019 87500;EQDQ01  00002PRCP99
0224133890999992000012318004+42980+021950FM-12+023299999V0203601N003010120019N0100001N1+00211+00011100211ADDAA112000191AJ100029199999999AY161061AY221061GF108991081051012501999999KA1120M+00461MA1999999097371MD1810041+9999MW1611REMSYN094AAXX  23181 13389 11697 83603 10021 20001 39737 40021 58004 69912 76162 885// 333 10046 4/002;
0172133890999992000012321004+42980+021950FM-12+023299999V0203001N002010120019N0020001N1-00041-00121100261ADDAA199000021AY171031AY261031GF108991081001012501021999MA1999999097401MD1310031+9999MW1731REMSYN072AAXX  23211 13389 31695 83002 11004 21012 39740 40026 53003 77376 8802/;
0178133890999992000012400004+42980+021950FM-12+023299999V0202901N003010120019N0040001N1-00521-00661100611ADDAA106007191AY171061AY261061GF108991081001012501021999MA1999999097691MD1210291+9999MW1711REMSYN078AAXX  24001 13389 11696 82903 11052 21066 39769 40061 52029 60071 77176 8802/;
0172133890999992000012403004+42980+021950FM-12+023299999V0203401N003010075019N0020001N1-00531-00711100771ADDAA199000021AY171031AY271031GF108991081001008001021999MA1999999097851MD1210161+9999MW1731REMSYN072AAXX  24031 13389 31595 83403 11053 21071 39785 40077 52016 77377 8802/;
0172133890999992000012409004+42980+021950FM-12+023299999V0203201N003010360019N0020001N1-00541-00761101131ADDAA199000021AY171031AY271031GF108991021071008001021999MA1999999098191MD1210211+9999MW1711REMSYN072AAXX  24091 13389 31595 83203 11054 21076 39819 40113 52021 77177 8272/;
0178133890999992000012412004+42980+021950FM-12+023299999V0200401N001010075019N0005001N1-00401-00571101151ADDAA106001091AY171061AY271061GF108991081001008001021999MA1999999098231MD1210041+9999MW1751REMSYN078AAXX  24121 13389 11593 80401 11040 21057 39823 40115 52004 60011 77577 8802/;
0172133890999992000012415004+42980+021950FM-12+023299999V0209999C000010075019N0020001N1-00541-00711101381ADDAA199000021AY171031AY271031GF108991071021008001999999MA1999999098441MD1210211+9999MW1731REMSYN072AAXX  24151 13389 31595 80000 11054 21071 39844 40138 52021 77377 872//;
0240133890999992000012418004+42980+021950FM-12+023299999V0203601N004010360019N0020001N1-00621-00811101651ADDAA112002091AJ100229199999999AL10600691AY171061AY271061GF108991021071008001021999KA1120M-00371MA1999999098691MD1210251+9999MW1731REMSYN100AAXX  24181 13389 11595 83604 11062 21081 39869 40165 52025 60022 77377 8272/ 333 11037 4/022 93106;
0172133890999992000012421004+42980+021950FM-12+023299999V0209999C000010360019N0040001N1-00681-00861101901ADDAA199000021AY171031AY271031GF108991031071008001021999MA1999999098921MD1210231+9999MW1711REMSYN072AAXX  24211 13389 31596 80000 11068 21086 39892 40190 52023 77177 8372/;
0178133890999992000012500004+42980+021950FM-12+023299999V0202201N002010360019N0020001N1-00731-00811102111ADDAA106000591AY171061AY271061GF108991021071008001021999MA1999999099121MD1210201+9999MW1731REMSYN078AAXX  25001 13389 11595 82202 11073 21081 39912 40211 52020 69961 77377 8272/;
0172133890999992000012503004+42980+021950FM-12+023299999V0202701N001010360019N0100001N1-00941-01031102321ADDAA199000021AY171031AY221031GF107991021051012501071001MA1999999099311MD1210191+9999MW1011REMSYN072AAXX  25031 13389 31697 72701 11094 21103 39931 40232 52019 70172 82570;
0254133890999992000012506004+42980+021950FM-12+023299999V0202101N001012200019N0100001N1-01501-01711102611ADDAA112000891AJ100229199999999AY171061AY211061GF104991041001999999031001IA1239IA2999-02009KA1120N-01501MA1999999099521MD1210211+9999MW1021REMSYN106AAXX  25061 13389 11997 42101 11150 21171 39952 40261 52021 69982 70271 84030 333 21150 3/120 47022 55000;
0144133890999992000012509004+42980+021950FM-12+023299999V0209999C000012200019N0100001N1-00881-01291102811ADDAA199000021GF101991011001999999031001MA1999999099781MD1210261+9999REMSYN066AAXX  25091 13389 32997 10000 11088 21129 39978 40281 52026 81030;
0144133890999992000012512004+42980+021950FM-12+023299999V0201201N002012200019N0100001N1-00581-01451102791ADDAA199000021GF101991011081012501001001MA1999999099801MD1210021+9999REMSYN066AAXX  25121 13389 32697 11202 11058 21145 39980 40279 52002 81800;
0163133890999992000012515004+42980+021950FM-12+023299999V0203101N002012200019N0200001N1-00771-01531102951ADDAA199000091GF101991011001999999031001MA1999999099931MD1310131+9999REMSYN066AAXX  25151 13389 32998 13102 11077 21153 39993 40295 53013 81030;EQDQ01  00002PRCP99
0195133890999992000012518004+42980+021950FM-12+023299999V0201701N002012200019N0200001N1-01491-01821103251ADDAA199000091AJ100229199999999GF101991011001999999031001KA1120M-00571MA1999999100141REMSYN082AAXX  25181 13389 32998 11702 11149 21182 30014 40325 5//// 81030 333 11057 4/022;EQDQ01  00002PRCP99
0173133890999992000012521004+42980+021950FM-12+023299999V0202001N001012200019N0100001N1-02061-02341103421ADDAA199000091GA1001+999999999GF100991001001999999001001MA1999999100231MD1210091+9999REMSYN060AAXX  25211 13389 32997 02001 11206 21234 30023 40342 52009;EQDQ01  00002PRCP99
0163133890999992000012600004+42980+021950FM-12+023299999V0200701N001010360019N0100001N1-01821-02051103441ADDAA199000091GF108991031051012501071999MA1999999100241MD1110061+9999REMSYN066AAXX  26001 13389 32697 80701 11182 21205 30024 40344 51006 8357/;EQDQ01  00002PRCP99
0163133890999992000012603004+42980+021950FM-12+023299999V0201601N001010120019N0100001N1-01501-01711103411ADDAA199000091GF108991081051012501999999MA1999999100291MD1410001+9999REMSYN066AAXX  26031 13389 32697 81601 11150 21171 30029 40341 54000 885//;EQDQ01  00002PRCP99
0239133890999992000012606004+42980+021950FM-12+023299999V0203201N001010120019N0100001N1-01421-01621103391ADDAA199000091AJ100229199999999GF108991081051012501999999IA1239IA2999-02409KA1120N-02271MA1999999100291MD1410001+9999REMSYN094AAXX  26061 13389 32697 83201 11142 21162 30029 40339 54000 885// 333 21227 3/124 47022 55073;EQDQ01  00002PRCP99
0163133890999992000012609004+42980+021950FM-12+023299999V0209999C000012200019N0100001N1-01211-01621103421ADDAA199000091GF101991001001999999001011MA1999999100341MD1310051+9999REMSYN066AAXX  26091 13389 32997 10000 11121 21162 30034 40342 53005 80001;EQDQ01  00002PRCP99
0191133890999992000012612004+42980+021950FM-12+023299999V0200701N002012200019N0040001N1-00751-01451103231ADDAA199000091AY111061AY201061GF102991011001999999031011MA1999999100201MD1810141+9999MW1101REMSYN072AAXX  26121 13389 31996 20702 11075 21145 30020 40323 58014 71010 81031;EQDQ01  00002PRCP99
0163133890999992000012615004+42980+021950FM-12+023299999V0200301N001012200019N0200001N1-00741-01221103141ADDAA199000091GF101991011001999999031001MA1999999100121MD1610081+9999REMSYN066AAXX  26151 13389 32998 10301 11074 21122 30012 40314 56008 81030;EQDQ01  00002PRCP99
0209133890999992000012618004+42980+021950FM-12+023299999V0209999C000019999999N0100001N1-00981-01291103241ADDAA199000091AJ100219199999999GF105991051001999999031001KA1120M-00631MA1999999100191MD1310051+9999REMSYN082AAXX  26181 13389 32997 50000 11098 21129 30019 40324 53005 85030 333 11063 4/021;EQDQ01  00002PRCP99
0163133890999992000012621004+42980+021950FM-12+023299999V0209999C000012200019N0100001N1-01051-01291103271ADDAA199000091GF102991001001999999001011MA1999999100221MD1110031+9999REMSYN066AAXX  26211 13389 32997 20000 11105 21129 30022 40327 51003 80001;EQDQ01  00002PRCP99
0163133890999992000012700004+42980+021950FM-12+023299999V0209999C000012200019N0100001N1-01321-01531103341ADDAA199000091GF103991031001999999031001MA1999999100251MD1310031+9999REMSYN066AAXX  27001 13389 32997 30000 11132 21153 30025 40334 53003 83030;EQDQ01  00002PRCP99
0163133890999992000012703004+42980+021950FM-12+023299999V0209999C000019999999N0100001N1-01111-01221103351ADDAA199000091GF108991081001999999071999MA1999999100381MD1210031+9999REMSYN066AAXX  27031 13389 32997 80000 11111 21122 30038 40335 52003 8807/;EQDQ01  00002PRCP99
0267133890999992000012706004+42980+021950FM-12+023299999V0209999C000010120019N0020001N1-00971-01151103341ADDAA199000091AJ100219199999999AY121061AY211061GF108991081051012501999999IA1279IA2999-01509KA1120N-01391MA1999999100271MD1810011+9999MW1101REMSYN100AAXX  27061 13389 31695 80000 11097 21115 30027 40334 58001 71021 885// 333 21139 3/115 43021 55049;EQDQ01  00002PRCP99
0163133890999992000012709004+42980+021950FM-12+023299999V0203401N001010120019N0100001N1-00561-00911103331ADDAA199000091GF108991081051012501999999MA1999999100321MD1110051+9999REMSYN066AAXX  27091 13389 32697 83401 11056 21091 30032 40333 51005 885//;EQDQ01  00002PRCP99
0163133890999992000012712004+42980+021950FM-12+023299999V0200901N001012200019N0200001N1+00001-00911103091ADDAA199000091GF103991031001999999031001MA1999999100151MD1710171+9999REMSYN066AAXX  27121 13389 32998 30901 10000 21091 30015 40309 57017 83030;EQDQ01  00002PRCP99
0219133890999992000012718004+42980+021950FM-12+023299999V0201901N001012200019N0200001N1-00721-00861103061ADDAA199000091AJ100189199999999GA1001+999999999GF100991001001999999001001KA1120M+00241MA1999999100051MD1410001+9999REMSYN076AAXX  27181 13389 32998 01901 11072 21086 30005 40306 54000 333 10024 4/018;EQDQ01  00002PRCP99
0173133890999992000012721004+42980+021950FM-12+023299999V0209999C000012200019N0200001N1-01221-01371103141ADDAA199000091GA1001+999999999GF100991001001999999001001MA1999999100071MD1310021+9999REMSYN060AAXX  27211 13389 32998 00000 11122 21137 30007 40314 53002;EQDQ01  00002PRCP99
0173133890999992000012803004+42980+021950FM-12+023299999V0201601N001012200019N0200001N1-01551-01711102981ADDAA199000091GA1001+999999999GF100991001001999999001001MA1999999099861MD1710151+9999REMSYN060AAXX  28031 13389 32998 01601 11155 21171 39986 40298 57015;EQDQ01  00002PRCP99
0249133890999992000012806004+42980+021950FM-12+023299999V0201801N001012200019N0200001N1-01661-01821102961ADDAA199000091AJ100189199999999GA1001+999999999GF100991001001999999001001IA1279IA2999-01809KA1120N-01661MA1999999099831MD1610031+9999REMSYN088AAXX  28061 13389 32998 01801 11166 21182 39983 40296 56003 333 21166 3/118 43018 55034;EQDQ01  00002PRCP99
0173133890999992000012809004+42980+021950FM-12+023299999V0202101N001012200019N0200001N1-00741+99999102781ADDAA199000091GA1001+999999999GF100991001001999999001001MA1999999099771MD1810061+9999REMSYN060AAXX  28091 13389 32998 02101 11074 21019 39977 40278 58006;EQDQ01  00002PRCP99
0201133890999992000012812004+42980+021950FM-12+023299999V0200601N001012200019N0040001N1-00081-00711102461ADDAA199000091AY101061AY201061GA1001+999999999GF100991001001999999001001MA1999999099531MD1710241+9999MW1101REMSYN066AAXX  28121 13389 31996 00601 11008 21071 39953 40246 57024 71000;EQDQ01  00002PRCP99
0191133890999992000012815004+42980+021950FM-12+023299999V0209999C000012200019N0040001N1-00041-00761102371ADDAA199000091AY101031AY201031GF104991001001999999001011MA1999999099451MD1610081+9999MW1101REMSYN072AAXX  28151 13389 31996 40000 11004 21076 39945 40237 56008 71000 80001;EQDQ01  00002PRCP99
0247133890999992000012818004+42980+021950FM-12+023299999V0200901N001012200019N0040001N1-00741-00911102581ADDAA199000091AJ100069199999999AY101061AY201061GA1001+999999999GF100991001001999999001001KA1120M+00061MA1999999099531MD1110081+9999MW1101REMSYN082AAXX  28181 13389 31996 00901 11074 21091 39953 40258 51008 71000 333 10006 4/006;EQDQ01  00002PRCP99
0201133890999992000012821004+42980+021950FM-12+023299999V0201901N001012200019N0040001N1-01081-01151102681ADDAA199000091AY101031AY201031GA1001+999999999GF100991001001999999001001MA1999999099631MD1210101+9999MW1101REMSYN066AAXX  28211 13389 31996 01901 11108 21115 39963 40268 52010 71000;EQDQ01  00002PRCP99
0201133890999992000012900004+42980+021950FM-12+023299999V0201801N001012200019N0040001N1-01201-01371102691ADDAA199000091AY101061AY201061GA1001+999999999GF100991001001999999001001MA1999999099631MD1410001+9999MW1101REMSYN066AAXX  29001 13389 31996 01801 11120 21137 39963 40269 54000 71000;EQDQ01  00002PRCP99
0201133890999992000012903004+42980+021950FM-12+023299999V0202001N001012200019N0040001N1-01461-01621102721ADDAA199000091AY101031AY201031GA1001+999999999GF100991001001999999001001MA1999999099631MD1410001+9999MW1101REMSYN066AAXX  29031 13389 31996 02001 11146 21162 39963 40272 54000 71000;EQDQ01  00002PRCP99
0277133890999992000012906004+42980+021950FM-12+023299999V0201301N001012200019N0040001N1-01521-01711102791ADDAA199000091AJ100169199999999AY101061AY201061GA1001+999999999GF100991001001999999001001IA1279IA2999-01909KA1120N-01521MA1999999099691MD1110061+9999MW1101REMSYN094AAXX  29061 13389 31996 01301 11152 21171 39969 40279 51006 71000 333 21152 3/119 43016 55067;EQDQ01  00002PRCP99
0201133890999992000012909004+42980+021950FM-12+023299999V0201801N001012200019N0040001N1-00791-01091102741ADDAA199000091AY101031AY201031GA1001+999999999GF100991001001999999001001MA1999999099731MD1110041+9999MW1101REMSYN066AAXX  29091 13389 31996 01801 11079 21109 39973 40274 51004 71000;EQDQ01  00002PRCP99
0173133890999992000012912004+42980+021950FM-12+023299999V0200501N001012200019N0100001N1-00071-00611102361ADDAA199000091GA1001+999999999GF100991001001999999001001MA1999999099431MD1810301+9999REMSYN060AAXX  29121 13389 32997 00501 11007 21061 39943 40236 58030;EQDQ01  00002PRCP99
0173133890999992000012915004+42980+021950FM-12+023299999V0202301N001012200019N0200001N1+00051-00661102131ADDAA199000091GA1001+999999999GF100991001001999999001001MA1999999099221MD1710241+9999REMSYN060AAXX  29151 13389 32998 02301 10005 21066 39922 40213 57024;EQDQ01  00002PRCP99
0220133890999992000012918004+42980+021950FM-12+023299999V0201801N001012200019N0200001N1-00581-00811102231ADDAA199000091AJ100159199999999GA1001+999999999GF100991001001999999001001KA1120M+00191MD1310031+9999REMSYN076AAXX  29181 13389 32998 01801 11058 21081 39625 40223 53003 333 10019 4/015;EQDQ01+096253APOSP Q02  00002PRCP99
0173133890999992000012921004+42980+021950FM-12+023299999V0201501N001012200019N0200001N1-01001-01151102241ADDAA199000091GA1001+999999999GF100991001001999999001001MA1999999099221MD1810031+9999REMSYN060AAXX  29211 13389 32998 01501 11100 21115 39922 40224 58003;EQDQ01  00002PRCP99
0179133890999992000013000004+42980+021950FM-12+023299999V0202201N001012200019N0100001N1-00661-00861102091ADDAA199000091GF104991999001999999071999MA1999999099101MD1710081+9999REMSYN066AAXX  30001 13389 32997 42201 11066 21086 39910 40209 57008 8807/;EQDQ01+000082SCOTLCQ02  00002PRCP99
0163133890999992000013003004+42980+021950FM-12+023299999V0201601N001012200019N0100001N1-00531-00761101941ADDAA199000091GF104991031001999999031011MA1999999098981MD1710121+9999REMSYN066AAXX  30031 13389 32997 41601 11053 21076 39898 40194 57012 83031;EQDQ01  00002PRCP99
0245133890999992000013006004+42980+021950FM-12+023299999V0201401N003019999999N0200001N1+00121-00531101731ADDAA199000091AJ100159199999999GF106991061001999999071001IA1279IA2999-01309KA1120N-01061MA1999999098841MD1710141+9999REMSYN100AAXX  30061 13389 32998 61403 10012 21053 39884 40173 57014 86070 333 21106 3/113 43015 55081 92830;EQDQ01  00002PRCP99
0163133890999992000013009004+42980+021950FM-12+023299999V0201201N003019999999N0200001N1+00371-00401101741ADDAA199000091GF107991071001999999071001MA1999999098881MD1310041+9999REMSYN066AAXX  30091 13389 32998 71203 10037 21040 39888 40174 53004 87070;EQDQ01  00002PRCP99
0163133890999992000013012004+42980+021950FM-12+023299999V0201201N002010120019N0100001N1+00511-00251101651ADDAA199000091GF108991081051012501999999MA1999999098801MD1810081+9999REMSYN066AAXX  30121 13389 32697 81202 10051 21025 39880 40165 58008 885//;EQDQ01  00002PRCP99
0191133890999992000013015004+42980+021950FM-12+023299999V0201501N002010120019N0200001N1+00451+00011101691ADDAA199000091AY121031AY261031GF108991081051012501999999MA1999999098831MD1310031+9999MW1021REMSYN072AAXX  30151 13389 31698 81502 10045 20001 39883 40169 53003 70226 885//;EQDQ01  00002PRCP99
0224133890999992000013018004+42980+021950FM-12+023299999V0203601N001010120019N0200001N1+00241+00121101911ADDAA112001091AJ100129199999999AY161061AY261061GF108991081051012501999999KA1120M+00571MA1999999099041MD1210211+9999MW1211REMSYN094AAXX  30181 13389 11698 83601 10024 20012 39904 40191 52021 60012 72166 885// 333 10057 4/012;
0172133890999992000013021004+42980+021950FM-12+023299999V0203401N004010360019N0100001N1+00381+00281102281ADDAA199000021AY161031AY221031GF108991041051012501021999MA1999999099421MD1210381+9999MW1611REMSYN072AAXX  30211 13389 31697 83404 10038 20028 39942 40228 52038 76162 8452/;
0178133890999992000013100004+42980+021950FM-12+023299999V0201901N001010120019N0200001N1+00211+00151102441ADDAA106000591AY161061AY221061GF108991081051012501999999MA1999999099551MD1110131+9999MW1021REMSYN078AAXX  31001 13389 11698 81901 10021 20015 39955 40244 51013 69951 70262 885//;
0144133890999992000013103004+42980+021950FM-12+023299999V0209999C000012200019N0100001N1+00081+00041102551ADDAA199000021GF104991041051012501001001MA1999999099641MD1310091+9999REMSYN066AAXX  31031 13389 32697 40000 10008 20004 39964 40255 53009 84500;
0226133890999992000013106004+42980+021950FM-12+023299999V0201801N001010120019N0200001N1+00121+00061102681ADDAA112000591AJ100119199999999GF108991081051012501999999IA1279IA2999-00209KA1120N+00041MA1999999099761MD1210121+9999REMSYN100AAXX  31061 13389 12698 81801 10012 20006 39976 40268 52012 69952 885// 333 20004 3/102 43011 55000;
0226133890999992000013109004+42980+021950FM-12+023299999V0201801N001010120019N0200001N1+00121+00061102681ADDAA112000591AJ100119199999999GF108991081051012501999999IA1279IA2999-00209KA1120N+00041MA1999999099761MD1210121+9999REMSYN100AAXX  31091 13389 12698 81801 10012 20006 39976 40268 52012 69952 885// 333 20004 3/102 43011 55000;
0163133890999992000013112004+42980+021950FM-12+023299999V0200901N002012200019N0200001N1+01081+00181102231ADDAA199000091GF102991021001999999031001MA1999999099431MD1710271+9999REMSYN066AAXX  31121 13389 32998 20902 10108 20018 39943 40223 57027 82030;EQDQ01  00002PRCP99
0219133890999992000013118004+42980+021950FM-12+023299999V0202001N001012200019N0200001N1+00391+00151102401ADDAA199000091AJ100059199999999GA1001+999999999GF100991001001999999001001KA1120M+01201MA1999999099531MD1210211+9999REMSYN076AAXX  31181 13389 32998 02001 10039 20015 39953 40240 52021 333 10120 4/005;EQDQ01  00002PRCP99
0173133890999992000013121004+42980+021950FM-12+023299999V0201801N002012200019N0100001N1+00031-00061102661ADDAA199000091GA1001+999999999GF100991001001999999001001MA1999999099731MD1210201+9999REMSYN060AAXX  31211 13389 32997 01802 10003 21006 39973 40266 52020;EQDQ01  00002PRCP99
0163133890999992000020100004+42980+021950FM-12+023299999V0200601N001010120019N0100001N1+00081+00041102871ADDAA199000091GF107991071051012501001001MA1999999099951MD1210221+9999REMSYN066AAXX  01001 13389 32697 70601 10008 20004 39995 40287 52022 87500;EQDQ01  00002PRCP99
0163133890999992000020103004+42980+021950FM-12+023299999V0209999C000010120019N0100001N1+00081+00041102921ADDAA199000091GF107991071051012501001001MA1999999100001MD1110051+9999REMSYN066AAXX  01031 13389 32697 70000 10008 20004 30000 40292 51005 87500;EQDQ01  00002PRCP99
0227133890999992000020106004+42980+021950FM-12+023299999V0209999C000010120019N0200001N1+00061+00011103011ADDAA199000091AJ100059199999999GF107991071051012501001001IA2999-00409KA1120N+00021MA1999999100081MD1210081+9999REMSYN088AAXX  01061 13389 32698 70000 10006 20001 30008 40301 52008 87500 333 20002 3/104 43005;EQDQ01  00002PRCP99
0163133890999992000020109004+42980+021950FM-12+023299999V0209999C000019999999N0200001N1+00421+00231103131ADDAA199000091GF106991061001999999071001MA1999999100241MD1210161+9999REMSYN066AAXX  01091 13389 32998 60000 10042 20023 30024 40313 52016 86070;EQDQ01  00002PRCP99
0163133890999992000020112004+42980+021950FM-12+023299999V0209999C000012200019N0200001N1+01101+00281102991ADDAA199000091GF101991001001999999001011MA1999999100171MD1810071+9999REMSYN066AAXX  01121 13389 32998 10000 10110 20028 30017 40299 58007 80001;EQDQ01  00002PRCP99
0173133890999992000020115004+42980+021950FM-12+023299999V0200501N001012200019N0200001N1+01121+00251102821ADDAA199000091GA1001+999999999GF100991001001999999001001MA1999999100001MD1710171+9999REMSYN060AAXX  01151 13389 32998 00501 10112 20025 30000 40282 57017;EQDQ01  00002PRCP99
0173133890999992000020121004+42980+021950FM-12+023299999V0202001N001012200019N0200001N1-00041-00091102861ADDAA199000091GA1001+999999999GF100991001001999999001001MA1999999099931MD1810091+9999REMSYN060AAXX  01211 13389 32998 02001 11004 21009 39993 40286 58009;EQDQ01  00002PRCP99
0173133890999992000020203004+42980+021950FM-12+023299999V0209999C000012200019N0200001N1-00141-00221102631ADDAA199000091GA1001+999999999GF100991001001999999001001MA1999999099691MD1710111+9999REMSYN060AAXX  02031 13389 32998 00000 11014 21022 39969 40263 57011;EQDQ01  00002PRCP99
0249133890999992000020206004+42980+021950FM-12+023299999V0201801N003012200019N0200001N1-00061-00121102511ADDAA199000091AJ100029199999999GA1001+999999999GF100991001001999999001001IA1309IA2999-00609KA1120N-00251MA1999999099581MD1710111+9999REMSYN088AAXX  02061 13389 32998 01803 11006 21012 39958 40251 57011 333 21025 3/106 42002 55058;EQDQ01  00002PRCP99
0173133890999992000020209004+42980+021950FM-12+023299999V0209999C000012200019N0200001N1+00621+00251102311ADDAA199000091GA1001+999999999GF100991001001999999001001MA1999999099461MD1710121+9999REMSYN060AAXX  02091 13389 32998 00000 10062 20025 39946 40231 57012;EQDQ01  00002PRCP99
0173133890999992000020212004+42980+021950FM-12+023299999V0201201N003012200019N0500001N1+01421+00301101961ADDAA199000091GA1001+999999999GF100991001001999999001001MA1999999099201MD1710261+9999REMSYN060AAXX  02121 13389 32999 01203 10142 20030 39920 40196 57026;EQDQ01  00002PRCP99
0163133890999992000020215004+42980+021950FM-12+023299999V0200901N001012200019N0500001N1+01311+00251101781ADDAA199000091GF101991001001999999001011MA1999999099011MD1710191+9999REMSYN066AAXX  02151 13389 32999 10901 10131 20025 39901 40178 57019 80001;EQDQ01  00002PRCP99
0196133890999992000020218004+42980+021950FM-12+023299999V0209999C000012200019N0200001N1+00521+00181101951ADDAA199000091GA1001+999999999GF100991001001999999001001KA1999M+01431MA1999999099091MD1310081+9999REMSYN070AAXX  02181 13389 32998 00000 10052 20018 39909 40195 53008 333 10143;EQDQ01  00002PRCP99
0173133890999992000020221004+42980+021950FM-12+023299999V0202201N001012200019N0200001N1+00241+00061102041ADDAA199000091GA1001+999999999GF100991001001999999001001MA1999999099151MD1310061+9999REMSYN060AAXX  02211 13389 32998 02201 10024 20006 39915 40204 53006;EQDQ01  00002PRCP99
0173133890999992000020300004+42980+021950FM-12+023299999V0209999C000012200019N0100001N1+00021-00021102081ADDAA199000091GA1001+999999999GF100991001001999999001001MA1999999099171MD1110021+9999REMSYN060AAXX  03001 13389 32997 00000 10002 21002 39917 40208 51002;EQDQ01  00002PRCP99
0163133890999992000020303004+42980+021950FM-12+023299999V0209999C000012200019N0100001N1-00021-00061102081ADDAA199000091GF102991021001999999031001MA1999999099171MD1410001+9999REMSYN066AAXX  03031 13389 32997 20000 11002 21006 39917 40208 54000 82030;EQDQ01  00002PRCP99
0255133890999992000020306004+42980+021950FM-12+023299999V0203501N001010120019N0100001N1+00221+00151102051ADDAA199000091AJ199992999999999GF108991081051012501999999IA1259IA2999-00409KA1120N-00021MA1999999099171MD1410001+9999REMSYN094AAXX  03061 13389 32697 83501 10022 20015 39917 40205 54000 885// 333 21002 3/104 41998 55079;EQDQ01  00002PRCP99Q02  09972SNDP  
0163133890999992000020309004+42980+021950FM-12+023299999V0200601N001010120019N0100001N1+00391+00281102181ADDAA199000091GF108991081051012501999999MA1999999099321MD1310151+9999REMSYN066AAXX  03091 13389 32697 80601 10039 20028 39932 40218 53015 885//;EQDQ01  00002PRCP99
0191133890999992000020315004+42980+021950FM-12+023299999V0203401N001010150019N0200001N1+00621+00301102451ADDAA199000091AY121031AY261031GF108991081081012501999999MA1999999099601MD1210181+9999MW1021REMSYN072AAXX  03151 13389 31698 83401 10062 20030 39960 40245 52018 70226 888//;EQDQ01  00002PRCP99
0201133890999992000020318004+42980+021950FM-12+023299999V0202601N001010120019N0200001N1+00421+00041102741ADDAA112000791AY121061AY261061GF107991071051012501001001KA1999M+00711MA1999999099851MD1210251+9999MW1021REMSYN088AAXX  03181 13389 11698 72601 10042 20004 39985 40274 52025 69902 70226 87500 333 10071;
0163133890999992000020321004+42980+021950FM-12+023299999V0201501N001010120019N0200001N1+00341+00011102881ADDAA199000091GF107991071051012501001001MA1999999099981MD1210131+9999REMSYN066AAXX  03211 13389 32698 71501 10034 20001 39998 40288 52013 87500;EQDQ01  00002PRCP99
0163133890999992000020400004+42980+021950FM-12+023299999V0201801N001010120019N0200001N1+00181+00041103001ADDAA199000091GF108991081051012501999999MA1999999100081MD1110101+9999REMSYN066AAXX  04001 13389 32698 81801 10018 20004 30008 40300 51010 885//;EQDQ01  00002PRCP99
0163133890999992000020403004+42980+021950FM-12+023299999V0203301N003010120019N0200001N1+00341-00091103131ADDAA199000091GF106991061051012501001001MA1999999100221MD1210141+9999REMSYN066AAXX  04031 13389 32698 63303 10034 21009 30022 40313 52014 86500;EQDQ01  00002PRCP99
0255133890999992000020406004+42980+021950FM-12+023299999V0203401N004010120019N0200001N1+00311-00091103391ADDAA199000091AJ199992999999999GF107991071061012501001001IA1259IA2999-00109KA1120N+00191MA1999999100471MD1210251+9999REMSYN094AAXX  04061 13389 32698 73404 10031 21009 30047 40339 52025 87600 333 20019 3/101 41998 55000;EQDQ01  00002PRCP99Q02  09972SNDP  
0163133890999992000020409004+42980+021950FM-12+023299999V0203601N005010150019N0100001N1+00361+00041103581ADDAA199000091GF106991061081012501001001MA1999999100671MD1210201+9999REMSYN066AAXX  04091 13389 32697 63605 10036 20004 30067 40358 52020 86800;EQDQ01  00002PRCP99
0163133890999992000020412004+42980+021950FM-12+023299999V0203601N004010150019N0100001N1+00421+00041103661ADDAA199000091GF106991061081012501001001MA1999999100751MD1210081+9999REMSYN066AAXX  04121 13389 32697 63604 10042 20004 30075 40366 52008 86800;EQDQ01  00002PRCP99
0163133890999992000020415004+42980+021950FM-12+023299999V0203401N004012200019N0100001N1+00461-00331103641ADDAA199000091GF101991011021012501001001MA1999999100741MD1610011+9999REMSYN066AAXX  04151 13389 32697 13404 10046 21033 30074 40364 56001 81200;EQDQ01  00002PRCP99
0196133890999992000020418004+42980+021950FM-12+023299999V0202801N001012200019N0100001N1+00071-00331103821ADDAA199000091GA1001+999999999GF100991001001999999001001KA1999M+00521MA1999999100871MD1310131+9999REMSYN070AAXX  04181 13389 32997 02801 10007 21033 30087 40382 53013 333 10052;EQDQ01  00002PRCP99
0173133890999992000020421004+42980+021950FM-12+023299999V0201801N002012200019N0100001N1-00221-00331103901ADDAA199000091GA1001+999999999GF100991001001999999001001MA1999999100971MD1110101+9999REMSYN060AAXX  04211 13389 32997 01802 11022 21033 30097 40390 51010;EQDQ01  00002PRCP99
0173133890999992000020500004+42980+021950FM-12+023299999V0209999C000012200019N0100001N1-00401-00441103941ADDAA199000091GA1001+999999999GF100991001001999999001001MA1999999100931MD1810041+9999REMSYN060AAXX  05001 13389 32997 00000 11040 21044 30093 40394 58004;EQDQ01  00002PRCP99
0173133890999992000020503004+42980+021950FM-12+023299999V0201601N001012200019N0100001N1-00531-00611103731ADDAA199000091GA1001+999999999GF100991001001999999001001MA1999999100721MD1810211+9999REMSYN060AAXX  05031 13389 32997 01601 11053 21061 30072 40373 58021;EQDQ01  00002PRCP99
0216133890999992000020506004+42980+021950FM-12+023299999V0201201N001012200019N0200001N1-00561-00661103631ADDAA199000091GF102991001001999999001011IA1149IA2999-01009KA1120N-00571MA1999999100611MD1710111+9999REMSYN088AAXX  05061 13389 32998 21201 11056 21066 30061 40363 57011 80001 333 21057 34110 55029;EQDQ01  00002PRCP99
0163133890999992000020509004+42980+021950FM-12+023299999V0200701N001012200019N0200001N1+00161-00401103391ADDAA199000091GF104991001001999999001011MA1999999100461MD1710151+9999REMSYN066AAXX  05091 13389 32998 40701 10016 21040 30046 40339 57015 80001;EQDQ01  00002PRCP99
0163133890999992000020512004+42980+021950FM-12+023299999V0200701N002012200019N0200001N1+00681-00761103001ADDAA199000091GF103991001001999999001011MA1999999100141MD1710321+9999REMSYN066AAXX  05121 13389 32998 30702 10068 21076 30014 40300 57032 80001;EQDQ01  00002PRCP99
0163133890999992000020515004+42980+021950FM-12+023299999V0209999C000019999999N0200001N1+00781-00711102871ADDAA199000091GF107991071001999999071001MA1999999100021MD1710121+9999REMSYN066AAXX  05151 13389 32998 70000 10078 21071 30002 40287 57012 87070;EQDQ01  00002PRCP99
0186133890999992000020518004+42980+021950FM-12+023299999V0209999C000019999999N0100001N1+00461-00191102901ADDAA199000091GF108991081001999999071999KA1999M+00801MA1999999100021MD1410001+9999REMSYN076AAXX  05181 13389 32997 80000 10046 21019 30002 40290 54000 8807/ 333 10080;EQDQ01  00002PRCP99
0163133890999992000020521004+42980+021950FM-12+023299999V0201001N001010120019N0100001N1+00371+00011102981ADDAA199000091GF108991081051012501999999MA1999999100091MD1310071+9999REMSYN066AAXX  05211 13389 32697 81001 10037 20001 30009 40298 53007 885//;EQDQ01  00002PRCP99
0163133890999992000020600004+42980+021950FM-12+023299999V0201401N001010120019N0100001N1+00361-00021103011ADDAA199000091GF108991081051012501999999MA1999999100121MD1210031+9999REMSYN066AAXX  06001 13389 32697 81401 10036 21002 30012 40301 52003 885//;EQDQ01  00002PRCP99
0163133890999992000020603004+42980+021950FM-12+023299999V0203301N002010120019N0100001N1+00371+99999102981ADDAA199000091GF108991081051012501999999MA1999999100091MD1810031+9999REMSYN066AAXX  06031 13389 32697 83302 10037 20040 30009 40298 58003 885//;EQDQ01  00002PRCP99
0216133890999992000020606004+42980+021950FM-12+023299999V0200101N001010120019N0100001N1+00411+00201103011ADDAA199000091GF108991081051012501999999IA1099IA2999+00209KA1120N+00361MA1999999100131MD1310041+9999REMSYN088AAXX  06061 13389 32697 80101 10041 20020 30013 40301 53004 885// 333 20036 31002 55041;EQDQ01  00002PRCP99
0163133890999992000020609004+42980+021950FM-12+023299999V0200201N001010120019N0200001N1+00691+00451103021ADDAA199000091GF108991081051012501999999MA1999999100161MD1310031+9999REMSYN066AAXX  06091 13389 32698 80201 10069 20045 30016 40302 53003 885//;EQDQ01  00002PRCP99
0163133890999992000020612004+42980+021950FM-12+023299999V0209999C000010120019N0200001N1+00901+00491102961ADDAA199000091GF108991081051012501999999MA1999999100131MD1810031+9999REMSYN066AAXX  06121 13389 32698 80000 10090 20049 30013 40296 58003 885//;EQDQ01  00002PRCP99
0163133890999992000020615004+42980+021950FM-12+023299999V0201301N001010120019N0200001N1+00931+00561102911ADDAA199000091GF107991071051012501001001MA1999999100081MD1710051+9999REMSYN066AAXX  06151 13389 32698 71301 10093 20056 30008 40291 57005 87500;EQDQ01  00002PRCP99
0196133890999992000020618004+42980+021950FM-12+023299999V0209999C000012200019N0200001N1+00371+00251102961ADDAA199000091GA1001+999999999GF100991001001999999001001KA1999M+00971MA1999999100081MD1510001+9999REMSYN070AAXX  06181 13389 32998 00000 10037 20025 30008 40296 55000 333 10097;EQDQ01  00002PRCP99
0173133890999992000020621004+42980+021950FM-12+023299999V0209999C000012200019N0100001N1+00021-00021102981ADDAA199000091GA1001+999999999GF100991001001999999001001MA1999999100051MD1810031+9999REMSYN060AAXX  06211 13389 32997 00000 10002 21002 30005 40298 58003;EQDQ01  00002PRCP99
0201133890999992000020700004+42980+021950FM-12+023299999V0209999C000012200019N0040001N1-00141-00151102971ADDAA199000091AY101061AY201061GA1001+999999999GF100991001001999999001001MA1999999100021MD1710031+9999MW1101REMSYN066AAXX  07001 13389 31996 00000 11014 21015 30002 40297 57003 71000;EQDQ01  00002PRCP99
0201133890999992000020703004+42980+021950FM-12+023299999V0209999C000012200019N0040001N1-00171-00191102871ADDAA199000091AY101031AY201031GA1001+999999999GF100991001001999999001001MA1999999099921MD1710101+9999MW1101REMSYN066AAXX  07031 13389 31996 00000 11017 21019 39992 40287 57010 71000;EQDQ01  00002PRCP99
0254133890999992000020706004+42980+021950FM-12+023299999V0201801N001012200019N0040001N1-00271-00291102851ADDAA199000091AY101061AY201061GA1001+999999999GF100991001001999999001001IA1149IA2999-00609KA1120N-00271MA1999999099881MD1710041+9999MW1101REMSYN088AAXX  07061 13389 31996 01801 11027 21029 39988 40285 57004 71000 333 21027 34106 55000;EQDQ01  00002PRCP99
0201133890999992000020709004+42980+021950FM-12+023299999V0202101N001012200019N0040001N1+00281+00181102741ADDAA199000091AY101031AY201031GA1001+999999999GF100991001001999999001001MA1999999099841MD1710041+9999MW1101REMSYN066AAXX  07091 13389 31996 02101 10028 20018 39984 40274 57004 71000;EQDQ01  00002PRCP99
0173133890999992000020712004+42980+021950FM-12+023299999V0200901N002012200019N0200001N1+01231+00531102371ADDAA199000091GA1001+999999999GF100991001001999999001001MA1999999099581MD1710261+9999REMSYN060AAXX  07121 13389 32998 00902 10123 20053 39958 40237 57026;EQDQ01  00002PRCP99
0173133890999992000020715004+42980+021950FM-12+023299999V0201401N002012200019N0200001N1+01421+00401102161ADDAA199000091GA1001+999999999GF100991001001999999001001MA1999999099401MD1610181+9999REMSYN060AAXX  07151 13389 32998 01402 10142 20040 39940 40216 56018;EQDQ01  00002PRCP99
0196133890999992000020718004+42980+021950FM-12+023299999V0209999C000012200019N0200001N1+00591+00251102271ADDAA199000091GA1001+999999999GF100991001001999999001001KA1999M+01541MA1999999099431MD1310031+9999REMSYN070AAXX  07181 13389 32998 00000 10059 20025 39943 40227 53003 333 10154;EQDQ01  00002PRCP99
0173133890999992000020721004+42980+021950FM-12+023299999V0202001N001012200019N0200001N1+00231+00121102361ADDAA199000091GA1001+999999999GF100991001001999999001001MA1999999099471MD1110041+9999REMSYN060AAXX  07211 13389 32998 02001 10023 20012 39947 40236 51004;EQDQ01  00002PRCP99
0173133890999992000020800004+42980+021950FM-12+023299999V0201201N002012200019N0200001N1+00041-00021102391ADDAA199000091GA1001+999999999GF100991001001999999001001MA1999999099471MD1410001+9999REMSYN060AAXX  08001 13389 32998 01202 10004 21002 39947 40239 54000;EQDQ01  00002PRCP99
0173133890999992000020803004+42980+021950FM-12+023299999V0201701N001012200019N0200001N1-00061-00121102281ADDAA199000091GA1001+999999999GF100991001001999999001001MA1999999099351MD1810121+9999REMSYN060AAXX  08031 13389 32998 01701 11006 21012 39935 40228 58012;EQDQ01  00002PRCP99
0216133890999992000020806004+42980+021950FM-12+023299999V0202201N001012200019N0200001N1-00041-00091102251ADDAA199000091GF104991001001999999001011IA1149IA2999-00409KA1120N-00081MA1999999099341MD1510011+9999REMSYN088AAXX  08061 13389 32998 42201 11004 21009 39934 40225 55001 80001 333 21008 34104 55080;EQDQ01  00002PRCP99
0173133890999992000020809004+42980+021950FM-12+023299999V0200101N002012200019N0200001N1-00701+99999102171ADDAA199000091GA1001+999999999GF100991001001999999001001MA1999999099341MD1510001+9999REMSYN060AAXX  08091 13389 32998 00102 11070 20033 39934 40217 55000;EQDQ01  00002PRCP99
0179133890999992000020812004+42980+021950FM-12+023299999V0200901N001012200019N0200001N1+01432+00381101881ADDAA199000091GF102991001001999999001011MA1999999099131MD1710211+9999REMSYN066AAXX  08121 13389 32998 20901 10143 20038 39913 40188 57021 80001;EQDQ01+001433ATOT  Q02  00002PRCP99
0163133890999992000020815004+42980+021950FM-12+023299999V0201201N002012200019N0200001N1+01541+00331101671ADDAA199000091GF102991001001999999001011MA1999999098931MD1610201+9999REMSYN066AAXX  08151 13389 32998 21202 10154 20033 39893 40167 56020 80001;EQDQ01  00002PRCP99
0196133890999992000020818004+42980+021950FM-12+023299999V0201601N001012200019N0200001N1+00661+00381101831ADDAA199000091GA1001+999999999GF100991001001999999001001KA1999M+01611MA1999999099011MD1310081+9999REMSYN070AAXX  08181 13389 32998 01601 10066 20038 39901 40183 53008 333 10161;EQDQ01  00002PRCP99
0173133890999992000020821004+42980+021950FM-12+023299999V0202701N001012200019N0200001N1+00271+00151101831ADDAA199000091GA1001+999999999GF100991001001999999001001MA1999999098961MD1510051+9999REMSYN060AAXX  08211 13389 32998 02701 10027 20015 39896 40183 55005;EQDQ01  00002PRCP99
0173133890999992000020900004+42980+021950FM-12+023299999V0209999C000012200019N0200001N1+00081+00011101711ADDAA199000091GA1001+999999999GF100991001001999999001001MA1999999098821MD1810141+9999REMSYN060AAXX  09001 13389 32998 00000 10008 20001 39882 40171 58014;EQDQ01  00002PRCP99
0173133890999992000020903004+42980+021950FM-12+023299999V0209999C000012200019N0200001N1-00041-00091101631ADDAA199000091GA1001+999999999GF100991001001999999001001MA1999999098731MD1610091+9999REMSYN060AAXX  09031 13389 32998 00000 11004 21009 39873 40163 56009;EQDQ01  00002PRCP99
0216133890999992000020906004+42980+021950FM-12+023299999V0201801N001012200019N0200001N1-00081-00121101671ADDAA199000091GF102991001001999999001011IA1149IA2999-00509KA1120N-00101MA1999999098761MD1310031+9999REMSYN088AAXX  09061 13389 32998 21801 11008 21012 39876 40167 53003 80001 333 21010 34105 55080;EQDQ01  00002PRCP99
0163133890999992000020909004+42980+021950FM-12+023299999V0202401N001019999999N0200001N1+00621+00421101531ADDAA199000091GF107991071001999999071001MA1999999098711MD1810051+9999REMSYN066AAXX  09091 13389 32998 72401 10062 20042 39871 40153 58005 87070;EQDQ01  00002PRCP99
0172133890999992000020915004+42980+021950FM-12+023299999V0203301N003010120019N0040001N1+00721+00621101491ADDAA199000021AY161031AY221031GF108991051051012501021999MA1999999098681MD1310101+9999MW1631REMSYN072AAXX  09151 13389 31696 83303 10072 20062 39868 40149 53010 76362 8552/;
0201133890999992000020918004+42980+021950FM-12+023299999V0203301N001010360019N0040001N1+00601+00531101681ADDAA112004191AY161061AY261061GF108991021071008001021999KA1999M+01231MA1999999098851MD1210171+9999MW1611REMSYN088AAXX  09181 13389 11596 83301 10060 20053 39885 40168 52017 60042 76166 8272/ 333 10123;
0172133890999992000020921004+42980+021950FM-12+023299999V0202101N001010360019N0100001N1+00501+00451101831ADDAA199000021AY161031AY261031GF108991021071008001021999MA1999999098991MD1210141+9999MW1611REMSYN072AAXX  09211 13389 31597 82101 10050 20045 39899 40183 52014 76166 8272/;
0178133890999992000021000004+42980+021950FM-12+023299999V0203501N003010075019N0100001N1+00531+00251101971ADDAA106001091AY121061AY261061GF108991081071008001999999MA1999999099111MD1210121+9999MW1211REMSYN078AAXX  10001 13389 11597 83503 10053 20025 39911 40197 52012 60011 72126 887//;
0144133890999992000021003004+42980+021950FM-12+023299999V0203501N003010120019N0100001N1+00441+00041102091ADDAA199000021GF108991081051012501999999MA1999999099221MD1210111+9999REMSYN066AAXX  10031 13389 32697 83503 10044 20004 39922 40209 52011 885//;
0203133890999992000021006004+42980+021950FM-12+023299999V0203501N004010120019N0100001N1+00351-00021102291ADDAA112001091GF108991051051012501071999IA1099IA2999+00309KA1120N+00351MA1999999099421MD1210201+9999REMSYN094AAXX  10061 13389 12697 83504 10035 21002 39942 40229 52020 60012 8557/ 333 20035 31003 55000;
0144133890999992000021009004+42980+021950FM-12+023299999V0203601N004010360019N0200001N1+00441+00041102521ADDAA199000021GF108991021051012501071999MA1999999099641MD1210221+9999REMSYN066AAXX  10091 13389 32698 83604 10044 20004 39964 40252 52022 8257/;
0144133890999992000021012004+42980+021950FM-12+023299999V0203601N004010360019N0200001N1+00521-00021102511ADDAA199000021GF108991011051012501071999MA1999999099641MD1010001+9999REMSYN066AAXX  10121 13389 32698 83604 10052 21002 39964 40251 50000 8157/;
0163133890999992000021015004+42980+021950FM-12+023299999V0203601N003019999999N0100001N1+00461-00121102521ADDAA199000091GF108991081001999999071999MA1999999099651MD1310011+9999REMSYN066AAXX  10151 13389 32997 83603 10046 21012 39965 40252 53001 8807/;EQDQ01  00002PRCP99
0186133890999992000021018004+42980+021950FM-12+023299999V0209999C000019999999N0100001N1+00351+00181102631ADDAA199000091GF108991081001999999071999KA1999M+00541MA1999999099751MD1310101+9999REMSYN076AAXX  10181 13389 32997 80000 10035 20018 39975 40263 53010 8807/ 333 10054;EQDQ01  00002PRCP99
0163133890999992000021021004+42980+021950FM-12+023299999V0209999C000019999999N0100001N1+00281+00181102661ADDAA199000091GF107991071001999999071001MA1999999099761MD1010011+9999REMSYN066AAXX  10211 13389 32997 70000 10028 20018 39976 40266 50001 87070;EQDQ01  00002PRCP99
0163133890999992000021100004+42980+021950FM-12+023299999V0209999C000019999999N0100001N1+00201+00121102661ADDAA199000091GF108991081001999999071999MA1999999099761MD1410001+9999REMSYN066AAXX  11001 13389 32997 80000 10020 20012 39976 40266 54000 8807/;EQDQ01  00002PRCP99
0163133890999992000021103004+42980+021950FM-12+023299999V0209999C000019999999N0100001N1+00231+00181102571ADDAA199000091GF108991081001999999071999MA1999999099681MD1810081+9999REMSYN066AAXX  11031 13389 32997 80000 10023 20018 39968 40257 58008 8807/;EQDQ01  00002PRCP99
0216133890999992000021106004+42980+021950FM-12+023299999V0209999C000010360019N0100001N1+00231+00151102591ADDAA199000091GF107991041051012501031001IA1099IA2999+00009KA1120N+00201MA1999999099701MD1310021+9999REMSYN088AAXX  11061 13389 32697 70000 10023 20015 39970 40259 53002 84530 333 20020 31100 55000;EQDQ01  00002PRCP99
0163133890999992000021109004+42980+021950FM-12+023299999V0200601N001010120019N0100001N1+00511+00201102591ADDAA199000091GF107991051051012501031001MA1999999099721MD1110021+9999REMSYN066AAXX  11091 13389 32697 70601 10051 20020 39972 40259 51002 85530;EQDQ01  00002PRCP99
0163133890999992000021112004+42980+021950FM-12+023299999V0202501N001010360019N0100001N1+00881+00061102531ADDAA199000091GF107991021051012501031001MA1999999099701MD1810021+9999REMSYN066AAXX  11121 13389 32697 72501 10088 20006 39970 40253 58002 82530;EQDQ01  00002PRCP99
0179133890999992000021115004+42980+021950FM-12+023299999V0209999C000019999999N0100001N1+00891+00201102531ADDAA199000091GF107991999051012501999999MA1999999099701MD1510001+9999REMSYN066AAXX  11151 13389 32697 70000 10089 20020 39970 40253 55000 885//;EQDQ01+000082SCOTLCQ02  00002PRCP99
0186133890999992000021118004+42980+021950FM-12+023299999V0209999C000010120019N0100001N1+00721+00401102631ADDAA199000091GF107991071051012501001001KA1999M+00921MA1999999099791MD1210091+9999REMSYN076AAXX  11181 13389 32697 70000 10072 20040 39979 40263 52009 87500 333 10092;EQDQ01  00002PRCP99
0163133890999992000021121004+42980+021950FM-12+023299999V0209999C000010120019N0100001N1+00651+00401102701ADDAA199000091GF108991081051012501999999MA1999999099851MD1210061+9999REMSYN066AAXX  11211 13389 32697 80000 10065 20040 39985 40270 52006 885//;EQDQ01  00002PRCP99
0163133890999992000021200004+42980+021950FM-12+023299999V0202501N001010120019N0100001N1+00591+00451102771ADDAA199000091GF108991081051012501999999MA1999999099911MD1210061+9999REMSYN066AAXX  12001 13389 32697 82501 10059 20045 39991 40277 52006 885//;EQDQ01  00002PRCP99
0191133890999992000021203004+42980+021950FM-12+023299999V0201901N001010120019N0100001N1+00531+00421102731ADDAA199000091AY121031AY261031GF108991081051012501999999MA1999999099861MD1810051+9999MW1021REMSYN072AAXX  12031 13389 31697 81901 10053 20042 39986 40273 58005 70226 885//;EQDQ01  00002PRCP99
0231133890999992000021206004+42980+021950FM-12+023299999V0202501N001010120019N0100001N1+00521+00381102741ADDAA112000191AY121061AY261061GF108991081051012501999999IA1099IA2999+00409KA1120N+00491MA1999999099871MD1310011+9999MW1021REMSYN100AAXX  12061 13389 11697 82501 10052 20038 39987 40274 53001 69912 70226 885// 333 20049 31004 55006;
0191133890999992000021209004+42980+021950FM-12+023299999V0203401N001010120019N0040001N1+00581+00381102691ADDAA199000091AY121031AY221031GF108991081051012501999999MA1999999099841MD1810031+9999MW1101REMSYN072AAXX  12091 13389 31696 83401 10058 20038 39984 40269 58003 71022 885//;EQDQ01  00002PRCP99
0163133890999992000021212004+42980+021950FM-12+023299999V0203201N002010120019N0100001N1+00701+00331102551ADDAA199000091GF108991081051012501999999MA1999999099711MD1710131+9999REMSYN066AAXX  12121 13389 32697 83202 10070 20033 39971 40255 57013 885//;EQDQ01  00002PRCP99
0163133890999992000021215004+42980+021950FM-12+023299999V0203501N002010075019N0100001N1+00761+00351102401ADDAA199000091GF108991081061008001999999MA1999999099571MD1710141+9999REMSYN066AAXX  12151 13389 32597 83502 10076 20035 39957 40240 57014 886//;EQDQ01  00002PRCP99
0214133890999992000021218004+42980+021950FM-12+023299999V0202901N001010075019N0040001N1+00631+00351102451ADDAA199000091AY121061AY221061GF108991081061008001999999KA1999M+00871MA1999999099601MD1310031+9999MW1101REMSYN082AAXX  12181 13389 31596 82901 10063 20035 39960 40245 53003 71022 886// 333 10087;EQDQ01  00002PRCP99
0191133890999992000021300004+42980+021950FM-12+023299999V0202101N001010075019N0040001N1+00531+00401102371ADDAA199000091AY121061AY221061GF108991081061008001999999MA1999999099511MD1710071+9999MW1101REMSYN072AAXX  13001 13389 31596 82101 10053 20040 39951 40237 57007 71022 886//;EQDQ01  00002PRCP99
0191133890999992000021303004+42980+021950FM-12+023299999V0200201N001010075019N0040001N1+00501+00381102281ADDAA199000091AY121031AY221031GF108991081061008001999999MA1999999099431MD1710081+9999MW1101REMSYN072AAXX  13031 13389 31596 80201 10050 20038 39943 40228 57008 71022 886//;EQDQ01  00002PRCP99
0244133890999992000021306004+42980+021950FM-12+023299999V0209999C000010075019N0020001N1+00471+00381102281ADDAA199000091AY121061AY221061GF108991081061008001999999IA1099IA2999+00409KA1120N+00471MA1999999099431MD1410001+9999MW1101REMSYN094AAXX  13061 13389 31595 80000 10047 20038 39943 40228 54000 71022 886// 333 20047 31004 55000;EQDQ01  00002PRCP99
0191133890999992000021309004+42980+021950FM-12+023299999V0209999C000010075019N0040001N1+00601+00401102321ADDAA199000091AY121031AY221031GF108991081061008001999999MA1999999099471MD1110041+9999MW1101REMSYN072AAXX  13091 13389 31596 80000 10060 20040 39947 40232 51004 71022 886//;EQDQ01  00002PRCP99
0191133890999992000021312004+42980+021950FM-12+023299999V0203201N002010075019N0040001N1+00641+00281102291ADDAA199000091AY121061AY221061GF108991081061008001999999MA1999999099451MD1810021+9999MW1101REMSYN072AAXX  13121 13389 31596 83202 10064 20028 39945 40229 58002 71022 886//;EQDQ01  00002PRCP99
0191133890999992000021315004+42980+021950FM-12+023299999V0203101N002010075019N0040001N1+00601+00281102221ADDAA199000091AY121031AY221031GF108991081061008001999999MA1999999099381MD1710071+9999MW1101REMSYN072AAXX  13151 13389 31596 83102 10060 20028 39938 40222 57007 71022 886//;EQDQ01  00002PRCP99
0214133890999992000021318004+42980+021950FM-12+023299999V0202601N001010075019N0040001N1+00541+00281102271ADDAA199000091AY121061AY221061GF108991081061008001999999KA1999M+00651MA1999999099421MD1310041+9999MW1101REMSYN082AAXX  13181 13389 31596 82601 10054 20028 39942 40227 53004 71022 886// 333 10065;EQDQ01  00002PRCP99
0191133890999992000021321004+42980+021950FM-12+023299999V0209999C000010075019N0040001N1+00441+00281102221ADDAA199000091AY121031AY221031GF107991071061008001001001MA1999999099361MD1810061+9999MW1101REMSYN072AAXX  13211 13389 31596 70000 10044 20028 39936 40222 58006 71022 87600;EQDQ01  00002PRCP99
0201133890999992000021400004+42980+021950FM-12+023299999V0201801N001012200019N0040001N1+00121+00041102131ADDAA199000091AY111061AY201061GA1001+999999999GF100991001001999999001001MA1999999099231MD1710171+9999MW1101REMSYN066AAXX  14001 13389 31996 01801 10012 20004 39923 40213 57017 71010;EQDQ01  00002PRCP99
0191133890999992000021403004+42980+021950FM-12+023299999V0209999C000010120019N0040001N1-00021-00061102031ADDAA199000091AY121031AY211031GF107991071051012501001001MA1999999099221MD1710111+9999MW1101REMSYN072AAXX  14031 13389 31696 70000 11002 21006 39922 40203 57011 71021 87500;EQDQ01  00002PRCP99
0244133890999992000021406004+42980+021950FM-12+023299999V0209999C000012200019N0002001N1-00021-00061102001ADDAA199000091AY141061AY211061GF101991011001999999031001IA1149IA2999-00509KA1120N-00071MA1999999099091MD1710031+9999MW1441REMSYN094AAXX  14061 13389 31992 10000 11002 21006 39909 40200 57003 74441 81030 333 21007 34105 55000;EQDQ01  00002PRCP99
0201133890999992000021409004+42980+021950FM-12+023299999V0209999C000010003019N0002001N1+00141+00121102071ADDAA199000091AY141031AY241031GA1091+999999999GF109991091999999999999999MA1999999099171MD1110081+9999MW1451REMSYN066AAXX  14091 13389 31/92 90000 10014 20012 39917 40207 51008 74544;EQDQ01  00002PRCP99
0178133890999992000021412004+42980+021950FM-12+023299999V0202801N001010075019N0040001N1+00521+00281102051ADDAA106000191AY161061AY241061GF108991081071008001999999MA1999999099201MD1110031+9999MW1611REMSYN078AAXX  14121 13389 11596 82801 10052 20028 39920 40205 51003 69921 76164 887//;
0172133890999992000021415004+42980+021950FM-12+023299999V0200601N001010360019N0100001N1+00501+00331101951ADDAA199000021AY161031AY261031GF108991031071008001021999MA1999999099111MD1610091+9999MW1611REMSYN072AAXX  14151 13389 31597 80601 10050 20033 39911 40195 56009 76166 8372/;
0173133890999992000021418004+42980+021950FM-12+023299999V0200601N001012200019N0100001N1+00241+00041102001ADDAA112001091GF104991021051012501031001KA1999M+00551MA1999999099111MD1410001+9999REMSYN082AAXX  14181 13389 11697 40601 10024 20004 39911 40200 54000 60012 82530 333 10055;
0154133890999992000021421004+42980+021950FM-12+023299999V0209999C000012200019N0100001N1-00041-00121102201ADDAA199000021GA1001+999999999GF100991001001999999001001MA1999999099291MD1310191+9999REMSYN060AAXX  14211 13389 32997 00000 11004 21012 39929 40220 53019;
0144133890999992000021500004+42980+021950FM-12+023299999V0203601N001019999999N0100001N1-00131-00221102191ADDAA199000021GF105991051001999999031001MA1999999099271MD1810021+9999REMSYN066AAXX  15001 13389 32997 53601 11013 21022 39927 40219 58002 85030;
0172133890999992000021503004+42980+021950FM-12+023299999V0202401N003010120019N0100001N1+00001-00091102161ADDAA199000021AY121031AY271031GF107991071051012501001001MA1999999099251MD1610021+9999MW1021REMSYN072AAXX  15031 13389 31697 72403 10000 21009 39925 40216 56002 70227 87500;
0264133890999992000021506004+42980+021950FM-12+023299999V0203401N001010120019N0100001N1-00131-00361102251ADDAA112000891AJ100019199999999AL10600191AY121061AY271061GF107991071051012501001001IA1279IA2999-00509KA1120N-00221MA1999999099331MD1310081+9999MW1021REMSYN106AAXX  15061 13389 11697 73401 11013 21036 39933 40225 53008 69982 70227 87500 333 21022 3/105 43001 93101;
0163133890999992000021509004+42980+021950FM-12+023299999V0201601N002010120019N0200001N1+00041-00331102481ADDAA199000091GF107991071051012501001001MA1999999099561MD1210231+9999REMSYN066AAXX  15091 13389 32698 71602 10004 21033 39956 40248 52023 87500;EQDQ01  00002PRCP99
0163133890999992000021512004+42980+021950FM-12+023299999V0200901N001010150019N0100001N1+00151-00291102411ADDAA199000091GF106991061081012501001001MA1999999099511MD1410001+9999REMSYN066AAXX  15121 13389 32697 60901 10015 21029 39951 40241 54000 86800;EQDQ01  00002PRCP99
0163133890999992000021515004+42980+021950FM-12+023299999V0202001N002010150019N0200001N1+00301-00361102241ADDAA199000091GF105991051081012501001001MA1999999099361MD1710151+9999REMSYN066AAXX  15151 13389 32698 52002 10030 21036 39936 40224 57015 85800;EQDQ01  00002PRCP99
0196133890999992000021518004+42980+021950FM-12+023299999V0202001N001012200019N0200001N1-00141-00401102291ADDAA199000091GA1001+999999999GF100991001001999999001001KA1999M+00331MA1999999099361MD1410001+9999REMSYN070AAXX  15181 13389 32998 02001 11014 21040 39936 40229 54000 333 10033;EQDQ01  00002PRCP99
0173133890999992000021521004+42980+021950FM-12+023299999V0209999C000012200019N0200001N1-00341-00481102311ADDAA199000091GA1001+999999999GF100991001001999999001001MA1999999099361MD1410001+9999REMSYN060AAXX  15211 13389 32998 00000 11034 21048 39936 40231 54000;EQDQ01  00002PRCP99
0173133890999992000021600004+42980+021950FM-12+023299999V0201701N001012200019N0200001N1-00421-00611102261ADDAA199000091GA1001+999999999GF100991001001999999001001MA1999999099301MD1810061+9999REMSYN060AAXX  16001 13389 32998 01701 11042 21061 39930 40226 58006;EQDQ01  00002PRCP99
0173133890999992000021603004+42980+021950FM-12+023299999V0201801N001012200019N0200001N1-00501-00661102161ADDAA199000091GA1001+999999999GF100991001001999999001001MA1999999099191MD1710111+9999REMSYN060AAXX  16031 13389 32998 01801 11050 21066 39919 40216 57011;EQDQ01  00002PRCP99
0216133890999992000021606004+42980+021950FM-12+023299999V0209999C000012200019N0200001N1-00481-00611102121ADDAA199000091GF101991011001999999031001IA1149IA2999-01009KA1120N-00521MA1999999099151MD1510041+9999REMSYN088AAXX  16061 13389 32998 10000 11048 21061 39915 40212 55004 81030 333 21052 34110 55013;EQDQ01  00002PRCP99
0163133890999992000021609004+42980+021950FM-12+023299999V0202101N001012200019N0200001N1+00271-00481101891ADDAA199000091GF101991011001999999031001MA1999999099021MD1810131+9999REMSYN066AAXX  16091 13389 32998 12101 10027 21048 39902 40189 58013 81030;EQDQ01  00002PRCP99
0163133890999992000021612004+42980+021950FM-12+023299999V0201101N002010360019N0200001N1+00721-00711101591ADDAA199000091GF107991031051012501071001MA1999999098761MD1710261+9999REMSYN066AAXX  16121 13389 32698 71102 10072 21071 39876 40159 57026 83570;EQDQ01  00002PRCP99
0163133890999992000021615004+42980+021950FM-12+023299999V0201301N003019999999N0200001N1+00871-00571101321ADDAA199000091GF106991031001999999031011MA1999999098521MD1710241+9999REMSYN066AAXX  16151 13389 32998 61303 10087 21057 39852 40132 57024 83031;EQDQ01  00002PRCP99
0186133890999992000021618004+42980+021950FM-12+023299999V0201801N001012200019N0200001N1+00431-00661101271ADDAA199000091GF102991021001999999031001KA1999M+00971MA1999999098721MD1710101+9999REMSYN076AAXX  16181 13389 32998 21801 10043 21066 39872 40127 57010 82030 333 10097;EQDQ01  00002PRCP99
0163133890999992000021621004+42980+021950FM-12+023299999V0202901N001010360019N0200001N1+00371-00481101091ADDAA199000091GF106991021051012501031001MA1999999098251MD1710171+9999REMSYN066AAXX  16211 13389 32698 62901 10037 21048 39825 40109 57017 82530;EQDQ01  00002PRCP99
0163133890999992000021700004+42980+021950FM-12+023299999V0201101N004019999999N0100001N1+00521-00611100781ADDAA199000091GF108991081001999999071999MA1999999097961MD1710291+9999REMSYN066AAXX  17001 13389 32997 81104 10052 21061 39796 40078 57029 8807/;EQDQ01  00002PRCP99
0148133890999992000021703004+42980+021950FM-12+023299999V0200601N002019999999N0200001N1+00561-00011100481ADDAA199000091GF108991999999999999999999MA1999999097681REMSYN065AAXX  17031 13389 32998 80602 10056 21001 39768 40048 5702 8807/;EQDQ01  00002PRCP99
0216133890999992000021706004+42980+021950FM-12+023299999V0200401N001010075019N0200001N1+00591-00151100361ADDAA199000091GF108991081061008001999999IA1099IA2999-00209KA1120N+00301MA1999999097561MD1710121+9999REMSYN088AAXX  17061 13389 32598 80401 10059 21015 39756 40036 57012 886// 333 20030 31102 55065;EQDQ01  00002PRCP99
0163133890999992000021709004+42980+021950FM-12+023299999V0200701N001010360019N0200001N1+00841+00041100151ADDAA199000091GF108991031051012501071999MA1999999097371MD1710191+9999REMSYN066AAXX  17091 13389 32698 80701 10084 20004 39737 40015 57019 8357/;EQDQ01  00002PRCP99
0163133890999992000021712004+42980+021950FM-12+023299999V0203201N003010120019N0100001N1+00921+00181099881ADDAA199000091GF108991081051012501999999MA1999999097121MD1610261+9999REMSYN066AAXX  17121 13389 32697 83203 10092 20018 39712 49988 56026 885//;EQDQ01  00002PRCP99
0240133890999992000021718004+42980+021950FM-12+023299999V0203401N002010120019N0040001N1+00091+00011100421ADDAA112007991AJ100019199999999AL10600191AY171061AY261061GF108991081001012501021999KA1120M+00991MA1999999097571MD1110081+9999MW1711REMSYN100AAXX  17181 13389 11696 83402 10009 20001 39757 40042 51008 60082 77176 8802/ 333 10099 4/001 93101;
0172133890999992000021721004+42980+021950FM-12+023299999V0202901N003010120019N0040001N1+00061-00021100481ADDAA199000021AY171031AY271031GF108991081001012501021999MA1999999097631MD1310061+9999MW1731REMSYN072AAXX  17211 13389 31696 82903 10006 21002 39763 40048 53006 77377 8802/;
0178133890999992000021800004+42980+021950FM-12+023299999V0202201N002010075019N0020001N1+00021-00061100551ADDAA106005191AY171061AY271061GF108991081001008001021999MA1999999097681MD1110051+9999MW1751REMSYN078AAXX  18001 13389 11595 82202 10002 21006 39768 40055 51005 60051 77577 8802/;
0172133890999992000021803004+42980+021950FM-12+023299999V0202101N001010075019N0020001N1+00021-00061100551ADDAA199000021AY171031AY271031GF108991081001008001021999MA1999999097681MD1410001+9999MW1731REMSYN072AAXX  18031 13389 31595 82101 10002 21006 39768 40055 54000 77377 8802/;
0276133890999992000021806004+42980+021950FM-12+023299999V0202701N002010075019N0040001N1+00041-00091100671ADDAA112007991AJ100049199999999AL10600491AY171061AY271061GF108991081001008001021999IA1279IA2999+00009KA1120N+00021MA1999999097801MD1310121+9999MW1711REMSYN118AAXX  18061 13389 11596 82702 10004 21009 39780 40067 53012 60082 77177 8802/ 333 20002 3/000 43004 55000 92801 93104;
0172133890999992000021809004+42980+021950FM-12+023299999V0209999C000010075019N0100001N1+00091-00091100831ADDAA199000021AY121031AY271031GF108991081061008001999999MA1999999097961MD1210161+9999MW1021REMSYN072AAXX  18091 13389 31597 80000 10009 21009 39796 40083 52016 70227 886//;
0178133890999992000021812004+42980+021950FM-12+023299999V0202401N002010075019N0100001N1+00151-00221100961ADDAA106000191AY121061AY261061GF108991081061008001999999MA1999999098101MD1110141+9999MW1021REMSYN078AAXX  18121 13389 11597 82402 10015 21022 39810 40096 51014 69911 70226 886//;
0114133890999992000021815004+42980+021950FM-12+023299999V0202901N003019999999N0100001N1+99999+99999999999ADDAA199000021GF108991999999008001999999REMSYN065AAXX  18151 13389 32597 82903 1001 21048 39822 40108 53012 886//;
0212133890999992000021818004+42980+021950FM-12+023299999V0202601N002010075019N0100001N1+00111-00291101271ADDAA112000191AJ100039199999999AL10699999GF108991081051008001999999KA1120M+00201MA1999999098391MD1210171+9999REMSYN094AAXX  18181 13389 11597 82602 10011 21029 39839 40127 52017 69912 885// 333 10020 4/003 93197;
0163133890999992000021900004+42980+021950FM-12+023299999V0202401N002010120019N0100001N1+00021-00441101431ADDAA199000091GF107991071051012501001001MA1999999098541MD1210081+9999REMSYN066AAXX  19001 13389 32697 72402 10002 21044 39854 40143 52008 87500;EQDQ01  00002PRCP99
0173133890999992000021903004+42980+021950FM-12+023299999V0202001N001012200019N0100001N1-00321-00611101451ADDAA199000091GA1001+999999999GF100991001001999999001001MA1999999098531MD1810011+9999REMSYN060AAXX  19031 13389 32997 02001 11032 21061 39853 40145 58001;EQDQ01  00002PRCP99
0255133890999992000021906004+42980+021950FM-12+023299999V0202101N001012200019N0200001N1-00661-00811101541ADDAA199000091AJ100039199999999AL10699999GF101991011001999999031001IA1279IA2999-01009KA1120N-00661MA1999999098571MD1310041+9999REMSYN100AAXX  19061 13389 32998 12101 11066 21081 39857 40154 53004 81030 333 21066 3/110 43003 55000 93197;EQDQ01  00002PRCP99
0163133890999992000021909004+42980+021950FM-12+023299999V0200801N001012200019N0200001N1+00221-00611101401ADDAA199000091GF102991011001999999031011MA1999999098561MD1610041+9999REMSYN066AAXX  19091 13389 32998 20801 10022 21061 39856 40140 56004 81031;EQDQ01  00002PRCP99
0163133890999992000021912004+42980+021950FM-12+023299999V0201101N003019999999N0500001N1+00581-00481101311ADDAA199000091GF106991061001999999071001MA1999999098481MD1810051+9999REMSYN066AAXX  19121 13389 32999 61103 10058 21048 39848 40131 58005 86070;EQDQ01  00002PRCP99
0163133890999992000021915004+42980+021950FM-12+023299999V0209999C000019999999N0200001N1+00551-00361101231ADDAA199000091GF108991081001999999071999MA1999999098411MD1510071+9999REMSYN066AAXX  19151 13389 32998 80000 10055 21036 39841 40123 55007 8807/;EQDQ01  00002PRCP99
0186133890999992000021918004+42980+021950FM-12+023299999V0200701N002019999999N0200001N1+00451-00401101261ADDAA199000091GF108991081001999999071999KA1999M+00581MA1999999098411MD1410001+9999REMSYN076AAXX  19181 13389 32998 80702 10045 21040 39841 40126 54000 8807/ 333 10058;EQDQ01  00002PRCP99
0163133890999992000021921004+42980+021950FM-12+023299999V0201801N001010120019N0200001N1+00371-00291101221ADDAA199000091GF107991071051012501001001MA1999999098371MD1810041+9999REMSYN066AAXX  19211 13389 32698 71801 10037 21029 39837 40122 58004 87500;EQDQ01  00002PRCP99
0152133890999992000022000004+42980+021950FM-12+023299999V0201001N001019999999N0200001N1+00201-00021101201ADDGF106991999051012501999999MA1999999098341MD1710081+9999REMSYN066AAXX  20001 13389 11698 61001 10020 21002 39834 40120 57008 885//;EQDQ01+000082SCOTLC
0191133890999992000022003004+42980+021950FM-12+023299999V0209999C000010120019N0200001N1+00111-00021101031ADDAA199000091AY121031AY271031GF107991051051012501031001MA1999999098161MD1710181+9999MW1021REMSYN072AAXX  20031 13389 31698 70000 10011 21002 39816 40103 57018 70227 85530;EQDQ01  00002PRCP99
0289133890999992000022006004+42980+021950FM-12+023299999V0209999C000010120019N0100001N1+00081+00011101041ADDAA112001091AJ199992999999999AL10699999AY161061AY271061GF108991081001012501021999IA1259IA2999-00109KA1120N+00071MA1999999098171MD1310011+9999MW1611REMSYN112AAXX  20061 13389 11697 80000 10008 20001 39817 40104 53001 60012 76167 8802/ 333 20007 3/101 41998 55053 93197;EQDQ01  09972SNDP  
0172133890999992000022009004+42980+021950FM-12+023299999V0209999C000010075019N0040001N1+00061+00011101051ADDAA199000021AY171031AY271031GF108991081061008001999999MA1999999098181MD1310011+9999MW1221REMSYN072AAXX  20091 13389 31596 80000 10006 20001 39818 40105 53001 72277 886//;
0178133890999992000022012004+42980+021950FM-12+023299999V0201901N001010075019N0020001N1+00101+00061101121ADDAA106006191AY171061AY271061GF108991081001008001021999MA1999999098251MD1210071+9999MW1711REMSYN078AAXX  20121 13389 11595 81901 10010 20006 39825 40112 52007 60061 77177 8802/;
0172133890999992000022015004+42980+021950FM-12+023299999V0209999C000010075019N0010001N1+00121+00061101151ADDAA199000021AY171031AY271031GF108991081001008001021999MA1999999098261MD1110031+9999MW1711REMSYN072AAXX  20151 13389 31594 80000 10012 20006 39826 40115 51003 77177 8802/;
0240133890999992000022018004+42980+021950FM-12+023299999V0203201N003010075019N0010001N1+00141+00091101321ADDAA112008991AJ100029199999999AL10600291AY171061AY271061GF108991081001008001021999KA1120M+00141MA1999999098441MD1310161+9999MW1711REMSYN100AAXX  20181 13389 11594 83203 10014 20009 39844 40132 53016 60092 77177 8802/ 333 10014 4/002 93102;
0172133890999992000022021004+42980+021950FM-12+023299999V0200401N001010120019N0040001N1+00041+00041101401ADDAA199000021AY121031AY271031GF108991081051012501999999MA1999999098501MD1210081+9999MW1101REMSYN072AAXX  20211 13389 31696 80401 10004 20004 39850 40140 52008 71027 885//;
0178133890999992000022100004+42980+021950FM-12+023299999V0202401N001010075019N0040001N1+00131+00061101481ADDAA106001091AY171061AY271061GF108991081001008001021999MA1999999098601MD1210081+9999MW1681REMSYN078AAXX  21001 13389 11596 82401 10013 20006 39860 40148 52008 60011 76877 8802/;
0172133890999992000022103004+42980+021950FM-12+023299999V0203401N004010360019N0040001N1+00261+00201101481ADDAA199000021AY161031AY271031GF108991031071008001021999MA1999999098621MD1110021+9999MW1611REMSYN072AAXX  21031 13389 31596 83404 10026 20020 39862 40148 51002 76167 8372/;
0274133890999992000022106004+42980+021950FM-12+023299999V0203401N004010075019N0040001N1+00281+00041101631ADDAA112003091AJ100019199999999AL10600191AY161061AY261061GF108991051071008001021999IA1309IA2999+00009KA1120N+00081MA1999999098761MD1310141+9999MW1611REMSYN116AAXX  21061 13389 11596 83404 10028 20004 39876 40163 53014 60032 76166 8572/ 333 20008 3/000 42001 93101 555 55000;
0172133890999992000022109004+42980+021950FM-12+023299999V0203401N004010120019N0040001N1+00381-00091101821ADDAA199000021AY121031AY261031GF107991071081008001001001MA1999999098961MD1210201+9999MW1101REMSYN072AAXX  21091 13389 31596 73404 10038 21009 39896 40182 52020 71026 87800;
0172133890999992000022115004+42980+021950FM-12+023299999V0203401N002010360019N0040001N1+00041-00151102231ADDAA199000021AY171031AY271031GF108991041071008001021999MA1999999099321MD1210221+9999MW1711REMSYN072AAXX  21151 13389 31596 83402 10004 21015 39932 40223 52022 77177 8472/;
0240133890999992000022118004+42980+021950FM-12+023299999V0203401N002010360019N0040001N1+00041-00251102381ADDAA112000591AJ100019199999999AL10600191AY171061AY271061GF108991021071008001021999KA1120M+00411MA1999999099461MD1210141+9999MW1711REMSYN100AAXX  21181 13389 11596 83402 10004 21025 39946 40238 52014 69942 77177 8272/ 333 10041 4/001 93101;
0172133890999992000022121004+42980+021950FM-12+023299999V0202201N002010360019N0040001N1+00001-00121102501ADDAA199000021AY171031AY271031GF108991021071008001021999MA1999999099581MD1210121+9999MW1711REMSYN072AAXX  21211 13389 31596 82202 10000 21012 39958 40250 52012 77177 8272/;
0178133890999992000022200004+42980+021950FM-12+023299999V0203401N002010075019N0100001N1+00021-00331102571ADDAA106000191AY171061AY221061GF108991081061008001999999MA1999999099651MD1110071+9999MW1021REMSYN078AAXX  22001 13389 11597 83402 10002 21033 39965 40257 51007 69911 70272 886//;
0144133890999992000022203004+42980+021950FM-12+023299999V0203401N003010075019N0100001N1-00021-00441102571ADDAA199000021GF108991081061008001999999MA1999999099651MD1410001+9999REMSYN066AAXX  22031 13389 32597 83403 11002 21044 39965 40257 54000 886//;
0236133890999992000022206004+42980+021950FM-12+023299999V0202201N001010075019N0100001N1-00081-00291102621ADDAA112000191AJ100019199999999AL10600191GF108991081061008001999999IA1309IA2999-00209KA1120N-00081MA1999999099681MD1310031+9999REMSYN100AAXX  22061 13389 12597 82201 11008 21029 39968 40262 53003 69912 886// 333 21008 3/102 42001 93101;
0179133890999992000022209004+42980+021950FM-12+023299999V0200901N005010120019N0200001N1+00021-00571102581ADDAA199000021GF105991051051012501001001MA1999999999999MD1210031+9999REMSYN066AAXX  22091 13389 32698 50905 10002 21057 39720 40258 52003 85500;EQDQ01+097203APOSP Q02 097203APOSP 
0217133890999992000022218004+42980+021950FM-12+023299999V0203301N003010120019N0100001N1-00021-00531102631ADDAA112000391AL10699999AY121061AY271061GF108991081051012501999999KA1120M+00161MA1999999099701MD1310051+9999MW1021REMSYN094AAXX  22181 13389 11697 83303 11002 21053 39970 40263 53005 69932 70227 885// 333 10016 93197;
0163133890999992000022221004+42980+021950FM-12+023299999V0202401N002010120019N0100001N1-00041-00361102701ADDAA199000091GF108991081051012501999999MA1999999099771MD1210071+9999REMSYN066AAXX  22211 13389 32697 82402 11004 21036 39977 40270 52007 885//;EQDQ01  00002PRCP99
0163133890999992000022300004+42980+021950FM-12+023299999V0203201N002010120019N0100001N1-00081-00661102741ADDAA199000091GF108991081051012501999999MA1999999099801MD1110031+9999REMSYN066AAXX  23001 13389 32697 83202 11008 21066 39980 40274 51003 885//;EQDQ01  00002PRCP99
0163133890999992000022303004+42980+021950FM-12+023299999V0202901N001010120019N0100001N1-00141-00761102741ADDAA199000091GF108991081051012501999999MA1999999099801MD1410001+9999REMSYN066AAXX  23031 13389 32697 82901 11014 21076 39980 40274 54000 885//;EQDQ01  00002PRCP99
0232133890999992000022306004+42980+021950FM-12+023299999V0209999C000010120019N0100001N1-00201-00611102771ADDAA199000091AL10699999GF107991071051012501001001IA1149IA2999-00409KA1120N-00201MA1999999099821MD1310021+9999REMSYN094AAXX  23061 13389 32697 70000 11020 21061 39982 40277 53002 87500 333 21020 34104 55007 93197;EQDQ01  00002PRCP99
0163133890999992000022309004+42980+021950FM-12+023299999V0202401N001010150019N0100001N1-00011-00661102831ADDAA199000091GF107991071081012501001001MA1999999099901MD1210081+9999REMSYN066AAXX  23091 13389 32697 72401 11001 21066 39990 40283 52008 87800;EQDQ01  00002PRCP99
0163133890999992000022312004+42980+021950FM-12+023299999V0203201N001010150019N0100001N1+00141-00861102731ADDAA199000091GF105991051081012501001001MA1999999099811MD1810091+9999REMSYN066AAXX  23121 13389 32697 53201 10014 21086 39981 40273 58009 85800;EQDQ01  00002PRCP99
0163133890999992000022315004+42980+021950FM-12+023299999V0203201N002010120019N0100001N1+00141-00761102671ADDAA199000091GF107991071051012501001001MA1999999099751MD1610061+9999REMSYN066AAXX  23151 13389 32697 73202 10014 21076 39975 40267 56006 87500;EQDQ01  00002PRCP99
0186133890999992000022318004+42980+021950FM-12+023299999V0203201N002010120019N0100001N1+00001-00711102751ADDAA199000091GF108991081051012501999999KA1999M+00231MA1999999099821MD1310071+9999REMSYN076AAXX  23181 13389 32697 83202 10000 21071 39982 40275 53007 885// 333 10023;EQDQ01  00002PRCP99
0163133890999992000022321004+42980+021950FM-12+023299999V0203301N002010120019N0100001N1-00031-00661102801ADDAA199000091GF108991081051012501999999MA1999999099871MD1210051+9999REMSYN066AAXX  23211 13389 32697 83302 11003 21066 39987 40280 52005 885//;EQDQ01  00002PRCP99
0163133890999992000022403004+42980+021950FM-12+023299999V0202501N002010120019N0100001N1-00151-00531102861ADDAA199000091GF107991071051012501001001MA1999999099911MD1410001+9999REMSYN066AAXX  24031 13389 32697 72502 11015 21053 39991 40286 54000 87500;EQDQ01  00002PRCP99
0216133890999992000022406004+42980+021950FM-12+023299999V0202101N001010120019N0100001N1-00301-00531102961ADDAA199000091GF107991071051012501001001IA1149IA2999-00709KA1120N-00301MA1999999099991MD1310081+9999REMSYN088AAXX  24061 13389 32697 72101 11030 21053 39999 40296 53008 87500 333 21030 34107 55014;EQDQ01  00002PRCP99
0163133890999992000022409004+42980+021950FM-12+023299999V0201201N002010120019N0100001N1+00111-00531103001ADDAA199000091GF106991061051012501001001MA1999999100071MD1010081+9999REMSYN066AAXX  24091 13389 32697 61202 10011 21053 30007 40300 50008 86500;EQDQ01  00002PRCP99
0163133890999992000022412004+42980+021950FM-12+023299999V0203301N002010150019N0100001N1+00121-00711102991ADDAA199000091GF108991081081012501999999MA1999999100061MD1610011+9999REMSYN066AAXX  24121 13389 32697 83302 10012 21071 30006 40299 56001 888//;EQDQ01  00002PRCP99
0163133890999992000022415004+42980+021950FM-12+023299999V0203301N002012200019N0100001N1+00211-00761103001ADDAA199000091GF103991031081012501001001MA1999999100081MD1310021+9999REMSYN066AAXX  24151 13389 32697 33302 10021 21076 30008 40300 53002 83800;EQDQ01  00002PRCP99
0186133890999992000022418004+42980+021950FM-12+023299999V0202001N001010120019N0100001N1-00101-00441103211ADDAA199000091GF107991071051012501001001KA1999M+00221MA1999999100261MD1210181+9999REMSYN076AAXX  24181 13389 32697 72001 11010 21044 30026 40321 52018 87500 333 10022;EQDQ01  00002PRCP99
0173133890999992000022500004+42980+021950FM-12+023299999V0209999C000012200019N0100001N1-00461-00661103371ADDAA199000091GA1001+999999999GF100991001001999999001001MA1999999100371MD1010041+9999REMSYN060AAXX  25001 13389 32997 00000 11046 21066 30037 40337 50004;EQDQ01  00002PRCP99
0189133890999992000022503004+42980+021950FM-12+023299999V0201101N001012200019N0100001N1-00581-00711103351ADDAA199000091GA1001+999999999GF100991001001999999001001MA1999999999999MD1810031+9999REMSYN060AAXX  25031 13389 32997 01101 11058 21071 39934 40335 58003;EQDQ01  00002PRCP99Q02 099343APOSP 
0238133890999992000022506004+42980+021950FM-12+023299999V0202101N001012200019N0200001N1-00681-00861103381ADDAA199000091GF101991001001999999001011IA1149IA2999-01209KA1120N-00691MA1999999100362MD1310021+9999REMSYN094AAXX  25061 13389 32998 12101 11068 21086 30036 40338 53002 80001 333 21069 34112 55025 92611;EQDQ01+100363APOSP Q02  00002PRCP99
0163133890999992000022509004+42980+021950FM-12+023299999V0200901N002012200019N0100001N1+00071-00661103261ADDAA199000091GF101991011001999999031001MA1999999100331MD1810031+9999REMSYN066AAXX  25091 13389 32997 10902 10007 21066 30033 40326 58003 81030;EQDQ01  00002PRCP99
0163133890999992000022512004+42980+021950FM-12+023299999V0201101N002012200019N0100001N1+00561-00181102901ADDAA199000091GF103991031001999999031001MA1999999100031MD1710301+9999REMSYN066AAXX  25121 13389 32997 31102 10056 21018 30003 40290 57030 83030;EQDQ01  00002PRCP99
0163133890999992000022515004+42980+021950FM-12+023299999V0201101N003012200019N0100001N1+00781-00711102641ADDAA199000091GF101991011001999999031001MA1999999099801MD1710231+9999REMSYN066AAXX  25151 13389 32997 11103 10078 21071 39980 40264 57023 81030;EQDQ01  00002PRCP99
0186133890999992000022518004+42980+021950FM-12+023299999V0201501N001012200019N0200001N1+00291-00661102591ADDAA199000091GF102991021001999999031001KA1999M+00811MA1999999099701MD1610101+9999REMSYN076AAXX  25181 13389 32998 21501 10029 21066 39970 40259 56010 82030 333 10081;EQDQ01  00002PRCP99
0163133890999992000022521004+42980+021950FM-12+023299999V0201201N001010120019N0200001N1+00431-00611102551ADDAA199000091GF108991081051012501999999MA1999999099671MD1810031+9999REMSYN066AAXX  25211 13389 32698 81201 10043 21061 39967 40255 58003 885//;EQDQ01  00002PRCP99
0150133890999992000022600004+42980+021950FM-12+023299999V0201501N002010120019N0040001N1+00261-00021102701ADDAA106000191GF108991081001012501021999MA1999999099801MD1310131+9999REMSYN072AAXX  26001 13389 11696 81502 10026 21002 39980 40270 53013 69911 8802/;
0172133890999992000022603004+42980+021950FM-12+023299999V0201901N002010120019N0100001N1+00201+00061102811ADDAA199000021AY161031AY261031GF108991081001012501021999MA1999999099901MD1210101+9999MW1611REMSYN072AAXX  26031 13389 31697 81902 10020 20006 39990 40281 52010 76166 8802/;
0231133890999992000022606004+42980+021950FM-12+023299999V0203601N001010120019N0100001N1+00181+00011102911ADDAA112001091AY121061AY261061GF107991071051012501001001IA1099IA2999-00209KA1120N+00171MA1999999100001MD1210101+9999MW1021REMSYN100AAXX  26061 13389 11697 73601 10018 20001 30000 40291 52010 60012 70226 87500 333 20017 31102 55093;
0144133890999992000022609004+42980+021950FM-12+023299999V0203501N005012200019N0200001N1+00701-00091103111ADDAA199000021GF102991021081012501001001MA1999999100241MD1210241+9999REMSYN066AAXX  26091 13389 32698 23505 10070 21009 30024 40311 52024 82800;
0144133890999992000022612004+42980+021950FM-12+023299999V0200101N004012200019N0200001N1+00771-00191103111ADDAA199000021GF103991031081012501001001MA1999999100251MD1010011+9999REMSYN066AAXX  26121 13389 32698 30104 10077 21019 30025 40311 50001 83800;
0144133890999992000022615004+42980+021950FM-12+023299999V0203601N004012200019N0500001N1+00831-00331103071ADDAA199000021GF101991011011012501001001MA1999999100211MD1610041+9999REMSYN066AAXX  26151 13389 32699 13604 10083 21033 30021 40307 56004 81100;
0196133890999992000022618004+42980+021950FM-12+023299999V0203401N001012200019N0200001N1+00401-00401103201ADDAA199000091GA1001+999999999GF100991001001999999001001KA1999M+00851MA1999999100301MD1310091+9999REMSYN070AAXX  26181 13389 32998 03401 10040 21040 30030 40320 53009 333 10085;EQDQ01  00002PRCP99
0173133890999992000022621004+42980+021950FM-12+023299999V0202201N001012200019N0200001N1-00081-00251103361ADDAA199000091GA1001+999999999GF100991001001999999001001MA1999999100401MD1210101+9999REMSYN060AAXX  26211 13389 32998 02201 11008 21025 30040 40336 52010;EQDQ01  00002PRCP99
0173133890999992000022700004+42980+021950FM-12+023299999V0201101N001012200019N0200001N1-00241-00361103371ADDAA199000091GA1001+999999999GF100991001001999999001001MA1999999100401MD1410001+9999REMSYN060AAXX  27001 13389 32998 01101 11024 21036 30040 40337 54000;EQDQ01  00002PRCP99
0163133890999992000022703004+42980+021950FM-12+023299999V0209999C000012200019N0200001N1-00201-00291103371ADDAA199000091GF104991041001999999031001MA1999999100401MD1410001+9999REMSYN066AAXX  27031 13389 32998 40000 11020 21029 30040 40337 54000 84030;EQDQ01  00002PRCP99
0216133890999992000022706004+42980+021950FM-12+023299999V0201801N001010120019N0200001N1-00161-00251103331ADDAA199000091GF107991071051012501001001IA1099IA2999-00709KA1120N-00261MA1999999100361MD1610041+9999REMSYN088AAXX  27061 13389 32698 71801 11016 21025 30036 40333 56004 87500 333 21026 31107 55067;EQDQ01  00002PRCP99
0163133890999992000022709004+42980+021950FM-12+023299999V0209999C000010120019N0200001N1+00171-00121103341ADDAA199000091GF107991071051012501001001MA1999999100421MD1110061+9999REMSYN066AAXX  27091 13389 32698 70000 10017 21012 30042 40334 51006 87500;EQDQ01  00002PRCP99
0163133890999992000022712004+42980+021950FM-12+023299999V0203401N002010360019N0200001N1+00661-00251103251ADDAA199000091GF106991041081012501031001MA1999999100381MD1810041+9999REMSYN066AAXX  27121 13389 32698 63402 10066 21025 30038 40325 58004 84830;EQDQ01  00002PRCP99
0163133890999992000022715004+42980+021950FM-12+023299999V0203401N003010150019N0200001N1+00731-00401103221ADDAA199000091GF107991051081012501001011MA1999999100351MD1610031+9999REMSYN066AAXX  27151 13389 32698 73403 10073 21040 30035 40322 56003 85801;EQDQ01  00002PRCP99
0186133890999992000022718004+42980+021950FM-12+023299999V0203401N001012200019N0200001N1+00471-00331103331ADDAA199000091GF103991031051012501001001KA1999M+00801MA1999999100441MD1310091+9999REMSYN076AAXX  27181 13389 32698 33401 10047 21033 30044 40333 53009 83500 333 10080;EQDQ01  00002PRCP99
0163133890999992000022721004+42980+021950FM-12+023299999V0202001N002010120019N0200001N1+00281-00221103441ADDAA199000091GF107991071051012501001001MA1999999100521MD1210081+9999REMSYN066AAXX  27211 13389 32698 72002 10028 21022 30052 40344 52008 87500;EQDQ01  00002PRCP99
0163133890999992000022800004+42980+021950FM-12+023299999V0201601N001012200019N0200001N1+00041-00151103531ADDAA199000091GF102991021051012501001001MA1999999100581MD1210061+9999REMSYN066AAXX  28001 13389 32698 21601 10004 21015 30058 40353 52006 82500;EQDQ01  00002PRCP99
0163133890999992000022803004+42980+021950FM-12+023299999V0201101N001012200019N0200001N1-00101-00191103551ADDAA199000091GF102991021001999999031001MA1999999100591MD1110011+9999REMSYN066AAXX  28031 13389 32998 21101 11010 21019 30059 40355 51001 82030;EQDQ01  00002PRCP99
0216133890999992000022806004+42980+021950FM-12+023299999V0201801N001010360019N0100001N1-00171-00221103741ADDAA199000091GF105991041081012501031001IA1149IA2999-00609KA1120N-00201MA1999999100761MD1310171+9999REMSYN088AAXX  28061 13389 32697 51801 11017 21022 30076 40374 53017 84830 333 21020 34106 55014;EQDQ01  00002PRCP99
0163133890999992000022809004+42980+021950FM-12+023299999V0202501N001012200019N0100001N1+00421-00121103821ADDAA199000091GF101991011021012501001001MA1999999100901MD1110141+9999REMSYN066AAXX  28091 13389 32697 12501 10042 21012 30090 40382 51014 81200;EQDQ01  00002PRCP99
0163133890999992000022812004+42980+021950FM-12+023299999V0203601N002010150019N0100001N1+00881-00571103601ADDAA199000091GF105991051081012501001001MA1999999100741MD1710161+9999REMSYN066AAXX  28121 13389 32697 53602 10088 21057 30074 40360 57016 85800;EQDQ01  00002PRCP99
0163133890999992000022815004+42980+021950FM-12+023299999V0200401N004012200019N0200001N1+00861-00181103501ADDAA199000091GF103991031021012501001001MA1999999100641MD1610101+9999REMSYN066AAXX  28151 13389 32698 30404 10086 21018 30064 40350 56010 83200;EQDQ01  00002PRCP99
0196133890999992000022818004+42980+021950FM-12+023299999V0200401N001012200019N0200001N1+00321-00761103561ADDAA199000091GA1001+999999999GF100991001001999999001001KA1999M+01001MA1999999100641MD1410001+9999REMSYN070AAXX  28181 13389 32998 00401 10032 21076 30064 40356 54000 333 10100;EQDQ01  00002PRCP99
0173133890999992000022821004+42980+021950FM-12+023299999V0209999C000012200019N0200001N1+00041-00661103641ADDAA199000091GA1001+999999999GF100991001001999999001001MA1999999100691MD1310051+9999REMSYN060AAXX  28211 13389 32998 00000 10004 21066 30069 40364 53005;EQDQ01  00002PRCP99
0173133890999992000022900004+42980+021950FM-12+023299999V0202001N002012200019N0200001N1-00261-00441103621ADDAA199000091GA1001+999999999GF100991001001999999001001MA1999999100651MD1810041+9999REMSYN060AAXX  29001 13389 32998 02002 11026 21044 30065 40362 58004;EQDQ01  00002PRCP99
0173133890999992000022903004+42980+021950FM-12+023299999V0209999C000012200019N0200001N1-00531-00711103511ADDAA199000091GA1001+999999999GF100991001001999999001001MA1999999100591MD1710061+9999REMSYN060AAXX  29031 13389 32998 00000 11053 21071 30059 40351 57006;EQDQ01  00002PRCP99
0232133890999992000022906004+42980+021950FM-12+023299999V0209999C000012200019N0200001N1-00621-00711103531ADDAA199000091GA1001+999999999GF100991001001999999001001IA1149IA2999-01209KA1120N-00651MA1999999100511MD1410001+9999REMSYN088AAXX  29061 13389 32998 00000 11062 21071 30051 40353 54000 333 21065 34112 55085 92611;EQDQ01  00002PRCP99
0173133890999992000022909004+42980+021950FM-12+023299999V0200701N001012200019N0200001N1+00281-00611103331ADDAA199000091GA1001+999999999GF100991001001999999001001MA1999999100421MD1810091+9999REMSYN060AAXX  29091 13389 32998 00701 10028 21061 30042 40333 58009;EQDQ01  00002PRCP99
0173133890999992000022912004+42980+021950FM-12+023299999V0200701N001012200019N0200001N1+00801-00761103021ADDAA199000091GA1001+999999999GF100991001001999999001001MA1999999100161MD1710261+9999REMSYN060AAXX  29121 13389 32998 00701 10080 21076 30016 40302 57026;EQDQ01  00002PRCP99
0173133890999992000022915004+42980+021950FM-12+023299999V0201401N001012200019N0200001N1+01001-00811102771ADDAA199000091GA1001+999999999GF100991001001999999001001MA1999999099941MD1710221+9999REMSYN060AAXX  29151 13389 32998 01401 10100 21081 39994 40277 57022;EQDQ01  00002PRCP99
0196133890999992000022918004+42980+021950FM-12+023299999V0201801N002012200019N0200001N1+00201-00661102851ADDAA199000091GA1001+999999999GF100991001001999999001001KA1999M+01021MA1999999099941MD1410001+9999REMSYN070AAXX  29181 13389 32998 01802 10020 21066 39994 40285 54000 333 10102;EQDQ01  00002PRCP99
0174133890999992000022921004+42980+021950FM-12+023299999V0201401N001012200019N0200001N1-00211-00401102851ADDAA199000091GA1001+999999999GF100991001001999999001001MD1610041+9999REMSYN060AAXX  29211 13389 32998 01401 11021 21040 39900 40285 56004;EQDQ01+099003APOSP Q02  00002PRCP99
0173133890999992000030100004+42980+021950FM-12+023299999V0201101N001012200019N0200001N1-00221-00711102711ADDAA199000091GA1001+999999999GF100991001001999999001001MA1999999099761MD1710141+9999REMSYN060AAXX  01001 13389 32998 01101 11022 21071 39976 40271 57014;EQDQ01  00002PRCP99
0173133890999992000030103004+42980+021950FM-12+023299999V0201201N001012200019N0200001N1-00461-00611102481ADDAA199000091GA1001+999999999GF100991001001999999001001MA1999999099511MD1710251+9999REMSYN060AAXX  01031 13389 32998 01201 11046 21061 39951 40248 57025;EQDQ01  00002PRCP99
0216133890999992000030106004+42980+021950FM-12+023299999V0201801N001012200019N0200001N1-00421-00661102421ADDAA199000091GF102991001001999999001011IA1149IA2999-01009KA1120N-00461MA1999999099461MD1610051+9999REMSYN088AAXX  01061 13389 32998 21801 11042 21066 39946 40242 56005 80001 333 21046 34110 55100;EQDQ01  00002PRCP99
0163133890999992000030109004+42980+021950FM-12+023299999V0201201N003012200019N0200001N1+00821-00711102141ADDAA199000091GF103991001001999999001011MA1999999099311MD1810151+9999REMSYN066AAXX  01091 13389 32998 31203 10082 21071 39931 40214 58015 80001;EQDQ01  00002PRCP99
0163133890999992000030112004+42980+021950FM-12+023299999V0201101N004019999999N0200001N1+01181-00611101741ADDAA199000091GF107991001001999999001061MA1999999098961MD1710351+9999REMSYN066AAXX  01121 13389 32998 71104 10118 21061 39896 40174 57035 80006;EQDQ01  00002PRCP99
0163133890999992000030115004+42980+021950FM-12+023299999V0202001N004019999999N0200001N1+01221-00711101501ADDAA199000091GF107991021001999999031061MA1999999098731MD1610231+9999REMSYN066AAXX  01151 13389 32998 72004 10122 21071 39873 40150 56023 82036;EQDQ01  00002PRCP99
0186133890999992000030118004+42980+021950FM-12+023299999V0209999C000019999999N0200001N1+00401-00531101611ADDAA199000091GF106991041001999999031011KA1999M+01331MA1999999098751MD1310021+9999REMSYN076AAXX  01181 13389 32998 60000 10040 21053 39875 40161 53002 84031 333 10133;EQDQ01  00002PRCP99
0163133890999992000030121004+42980+021950FM-12+023299999V0203601N003019999999N0200001N1+00561-00401101401ADDAA199000091GF105991051001999999071001MA1999999098571MD1810181+9999REMSYN066AAXX  01211 13389 32998 53603 10056 21040 39857 40140 58018 85070;EQDQ01  00002PRCP99
0163133890999992000030200004+42980+021950FM-12+023299999V0203501N002010120019N0200001N1+00561-00401101251ADDAA199000091GF107991071051012501001001MA1999999098431MD1710141+9999REMSYN066AAXX  02001 13389 32698 73502 10056 21040 39843 40125 57014 87500;EQDQ01  00002PRCP99
0179133890999992000030203004+42980+021950FM-12+023299999V0201101N004012200019N0200001N1+00701-00401100911ADDAA199000091GF101991999051012501999999MA1999999098101MD1710331+9999REMSYN066AAXX  02031 13389 32698 11104 10070 21040 39810 40091 57033 885//;EQDQ01+000082SCOTLCQ02  00002PRCP99
0216133890999992000030206004+42980+021950FM-12+023299999V0201401N002010120019N0200001N1+00661-00291100781ADDAA199000091GF107991071051012501001001IA1099IA2999-00309KA1120N+00451MA1999999097981MD1710121+9999REMSYN088AAXX  02061 13389 32698 71402 10066 21029 39798 40078 57012 87500 333 20045 31103 55063;EQDQ01  00002PRCP99
0226133890999992000030806004+42980+021950FM-12+023299999V0200201N002012200019N0200001N1-00271-00441102821ADDAA199000091GA1001+999999999GF100991001001999999001001IA1149IA2999-00809KA1120N-00371MA1999999099861MD1310121+9999REMSYN082AAXX  08061 13389 32998 00202 11027 21044 39986 40282 53012 333 21037 34108 55107;EQDQ01  00002PRCP99
0173133890999992000030809004+42980+021950FM-12+023299999V0200301N001012200019N0200001N1+00641-00361102701ADDAA199000091GA1001+999999999GF100991001001999999001001MA1999999099841MD1810021+9999REMSYN060AAXX  08091 13389 32998 00301 10064 21036 39984 40270 58002;EQDQ01  00002PRCP99
0173133890999992000030812004+42980+021950FM-12+023299999V0201301N001012200019N0500001N1+01421-00251102421ADDAA199000091GA1001+999999999GF100991001001999999001001MA1999999099641MD1710201+9999REMSYN060AAXX  08121 13389 32999 01301 10142 21025 39964 40242 57020;EQDQ01  00002PRCP99
0173133890999992000030815004+42980+021950FM-12+023299999V0200601N002012200019N0200001N1+01461-00291102251ADDAA199000091GA1001+999999999GF100991001001999999001001MA1999999099481MD1710161+9999REMSYN060AAXX  08151 13389 32998 00602 10146 21029 39948 40225 57016;EQDQ01  00002PRCP99
0196133890999992000030818004+42980+021950FM-12+023299999V0201801N002012200019N0200001N1+00801+00061102301ADDAA199000091GA1001+999999999GF100991001001999999001001KA1999M+01501MA1999999099461MD1610021+9999REMSYN070AAXX  08181 13389 32998 01802 10080 20006 39946 40230 56002 333 10150;EQDQ01  00002PRCP99
0173133890999992000030821004+42980+021950FM-12+023299999V0209999C000012200019N0200001N1+00281-00011102391ADDAA199000091GA1001+999999999GF100991001001999999001001MA1999999099501MD1010041+9999REMSYN060AAXX  08211 13389 32998 00000 10028 21001 39950 40239 50004;EQDQ01  00002PRCP99
0173133890999992000030900004+42980+021950FM-12+023299999V0202201N001012200019N0200001N1+00061-00121102411ADDAA199000091GA1001+999999999GF100991001001999999001001MA1999999099501MD1410001+9999REMSYN060AAXX  09001 13389 32998 02201 10006 21012 39950 40241 54000;EQDQ01  00002PRCP99
0163133890999992000030903004+42980+021950FM-12+023299999V0209999C000012200019N0200001N1+00361-00121102351ADDAA199000091GF103991031001999999031001MA1999999099381MD1710121+9999REMSYN066AAXX  09031 13389 32998 30000 10036 21012 39938 40235 57012 83030;EQDQ01  00002PRCP99
0216133890999992000030906004+42980+021950FM-12+023299999V0200501N001012200019N0200001N1+00561-00121102151ADDAA199000091GF104991031001999999031011IA1099IA2999-00309KA1120N+00061MA1999999099301MD1510081+9999REMSYN088AAXX  09061 13389 32998 40501 10056 21012 39930 40215 55008 83031 333 20006 31103 55105;EQDQ01  00002PRCP99
0163133890999992000030909004+42980+021950FM-12+023299999V0200701N002019999999N0200001N1+01361-00061102061ADDAA199000091GF106991001001999999001061MA1999999099291MD1810011+9999REMSYN066AAXX  09091 13389 32998 60702 10136 21006 39929 40206 58001 80006;EQDQ01  00002PRCP99
0163133890999992000030912004+42980+021950FM-12+023299999V0202401N003012200019N0200001N1+01851+00181101761ADDAA199000091GF103991011001999999031011MA1999999099031MD1710261+9999REMSYN066AAXX  09121 13389 32998 32403 10185 20018 39903 40176 57026 81031;EQDQ01  00002PRCP99
0163133890999992000030915004+42980+021950FM-12+023299999V0202201N004019999999N0200001N1+02041+00281101401ADDAA199000091GF105991001001999999001091MA1999999098711MD1710321+9999REMSYN066AAXX  09151 13389 32998 52204 10204 20028 39871 40140 57032 80009;EQDQ01  00002PRCP99
0186133890999992000030918004+42980+021950FM-12+023299999V0202501N004012200019N0200001N1+01391+00151101391ADDAA199000091GF102991021001999999031001KA1999M+02051MA1999999098651MD1610061+9999REMSYN076AAXX  09181 13389 32998 22504 10139 20015 39865 40139 56006 82030 333 10205;EQDQ01  00002PRCP99
0163133890999992000030921004+42980+021950FM-12+023299999V0202501N003019999999N0200001N1+01341+00201101541ADDAA199000091GF108991081001999999071999MA1999999098771MD1310121+9999REMSYN066AAXX  09211 13389 32998 82503 10134 20020 39877 40154 53012 8807/;EQDQ01  00002PRCP99
0163133890999992000031000004+42980+021950FM-12+023299999V0201601N001019999999N0200001N1+00861+00351101671ADDAA199000091GF107991071001999999071001MA1999999098871MD1210101+9999REMSYN066AAXX  10001 13389 32998 71601 10086 20035 39887 40167 52010 87070;EQDQ01  00002PRCP99
0163133890999992000031003004+42980+021950FM-12+023299999V0200301N001019999999N0200001N1+00841+00471101591ADDAA199000091GF105991051001999999071001MA1999999098781MD1810091+9999REMSYN066AAXX  10031 13389 32998 50301 10084 20047 39878 40159 58009 85070;EQDQ01  00002PRCP99
0231133890999992000031006004+42980+021950FM-12+023299999V0202101N002010360019N0200001N1+00721+00491101541ADDAA112000191AY161061AY221061GF108991031051012501071999IA1099IA2999+00309KA1120N+00611MA1999999098731MD1710051+9999MW1021REMSYN100AAXX  10061 13389 11698 82102 10072 20049 39873 40154 57005 69922 70262 8357/ 333 20061 31003 55108;
0172133890999992000031009004+42980+021950FM-12+023299999V0203401N001010360019N0100001N1+01011+00601101691ADDAA199000021AY161031AY221031GF108991041051012501021999MA1999999098901MD1310171+9999MW1611REMSYN072AAXX  10091 13389 31697 83401 10101 20060 39890 40169 53017 76162 8452/;
0178133890999992000031012004+42980+021950FM-12+023299999V0203001N003010360019N0100001N1+00831+00601101891ADDAA106005191AY161061AY261061GF108991041071008001021999MA1999999099081MD1010181+9999MW1611REMSYN078AAXX  10121 13389 11597 83003 10083 20060 39908 40189 50018 60051 76166 8472/;
0172133890999992000031015004+42980+021950FM-12+023299999V0201501N001010150019N0200001N1+01141+00561101811ADDAA199000021AY121031AY261031GF107991071081012501001001MA1999999099031MD1810051+9999MW1031REMSYN072AAXX  10151 13389 31698 71501 10114 20056 39903 40181 58005 70326 87800;
0201133890999992000031018004+42980+021950FM-12+023299999V0203301N001012200019N0200001N1+00781+00251102061ADDAA112005191AY121061AY261061GF104991041051012501001001KA1999M+01201MA1999999099241MD1310211+9999MW1011REMSYN088AAXX  10181 13389 11698 43301 10078 20025 39924 40206 53021 60052 70126 84500 333 10120;
0144133890999992000031021004+42980+021950FM-12+023299999V0203401N004010120019N0200001N1+00821-00251102331ADDAA199000021GF107991071051012501001001MA1999999099491MD1210251+9999REMSYN066AAXX  10211 13389 32698 73404 10082 21025 39949 40233 52025 87500;
0154133890999992000031100004+42980+021950FM-12+023299999V0203501N004012200019N0200001N1+00441-00441102591ADDAA199000021GA1001+999999999GF100991001001999999001001MA1999999099711MD1210221+9999REMSYN060AAXX  11001 13389 32998 03504 10044 21044 39971 40259 52022;
0173133890999992000031103004+42980+021950FM-12+023299999V0202901N001012200019N0200001N1+00061-00531102691ADDAA199000091GA1001+999999999GF100991001001999999001001MA1999999099771MD1110061+9999REMSYN060AAXX  11031 13389 32998 02901 10006 21053 39977 40269 51006;EQDQ01  00002PRCP99
0232133890999992000031106004+42980+021950FM-12+023299999V0202001N001012200019N0200001N1-00061-00291102731ADDAA199000091GA1001+999999999GF100991001001999999001001IA1149IA2999-00609KA1120N-00141MA1999999099791MD1310021+9999REMSYN088AAXX  11061 13389 32998 02001 11006 21029 39979 40273 53002 333 21014 34106 55012 92600;EQDQ01  00002PRCP99
0179133890999992000031109004+42980+021950FM-12+023299999V0200701N002012200019N0200001N1+00611-00441102541ADDAA199000091GF101991999001999999031001MA1999999099681MD1810111+9999REMSYN066AAXX  11091 13389 32998 10702 10061 21044 39968 40254 58011 83030;EQDQ01+000032SCOTLCQ02  00002PRCP99
0163133890999992000031112004+42980+021950FM-12+023299999V0200601N003019999999N0200001N1+01141-00291102091ADDAA199000091GF107991071001999999071001MA1999999099291MD1710391+9999REMSYN066AAXX  11121 13389 32998 70603 10114 21029 39929 40209 57039 87070;EQDQ01  00002PRCP99
0163133890999992000031115004+42980+021950FM-12+023299999V0201201N004019999999N0200001N1+01361-00121101681ADDAA199000091GF107991071001999999071001MA1999999098931MD1710361+9999REMSYN066AAXX  11151 13389 32998 71204 10136 21012 39893 40168 57036 87070;EQDQ01  00002PRCP99
0186133890999992000031118004+42980+021950FM-12+023299999V0201201N004019999999N0200001N1+01361-00121101681ADDAA199000091GF107991071001999999071001KA1999M+01391MA1999999098931MD1710361+9999REMSYN076AAXX  11181 13389 32998 71204 10136 21012 39893 40168 57036 87070 333 10139;EQDQ01  00002PRCP99
0163133890999992000031121004+42980+021950FM-12+023299999V0201801N002019999999N0200001N1+01241-00021101491ADDAA199000091GF107991071001999999071001MA1999999098721MD1810121+9999REMSYN066AAXX  11211 13389 32998 71802 10124 21002 39872 40149 58012 87070;EQDQ01  00002PRCP99
0250133890999992000031206004+42980+021950FM-12+023299999V0203401N001010360019N0100001N1+00731+00491102031ADDAA112000591AY161061AY221061GF108991021071008001021999IA1099IA2999+00209KA1120N+00701MA1999999099201MD1210532+9999MW1611REMSYN100AAXX  12061 13389 11597 83401 10073 20049 39920 40203 52053 69942 76162 8272/ 333 20070 31002 55065;EQDQ01+000532APC3  
0172133890999992000031209004+42980+021950FM-12+023299999V0201801N003010120019N0200001N1+00981+00381102081ADDAA199000021AY161031AY221031GF107991071081008001001001MA1999999099281MD1210081+9999MW1021REMSYN072AAXX  12091 13389 31598 71803 10098 20038 39928 40208 52008 70262 87800;
0178133890999992000031212004+42980+021950FM-12+023299999V0203601N003010120019N0200001N1+01161+00121102101ADDAA106000191AY161061AY221061GF107991071081008001001001MA1999999099311MD1110031+9999MW1021REMSYN078AAXX  12121 13389 11598 73603 10116 20012 39931 40210 51003 69911 70262 87800;
0144133890999992000031215004+42980+021950FM-12+023299999V0203601N002010120019N0200001N1+01101-00021102171ADDAA199000021GF107991071081008001001001MA1999999099371MD1310061+9999REMSYN066AAXX  12151 13389 32598 73602 10110 21002 39937 40217 53006 87800;
0173133890999992000031218004+42980+021950FM-12+023299999V0203401N002010120019N0200001N1+01001+00041102391ADDAA112000191GF107991071051012501001001KA1999M+01341MA1999999099571MD1210201+9999REMSYN082AAXX  12181 13389 12698 73402 10100 20004 39957 40239 52020 69912 87500 333 10134;
0163133890999992000031221004+42980+021950FM-12+023299999V0203401N003010120019N0200001N1+00821-00021102621ADDAA199000091GF107991071051012501001001MA1999999099781MD1210211+9999REMSYN066AAXX  12211 13389 32698 73403 10082 21002 39978 40262 52021 87500;EQDQ01  00002PRCP99
0163133890999992000031300004+42980+021950FM-12+023299999V0209999C000012200019N0200001N1+00441-00061102771ADDAA199000091GF102991021001999999031001MA1999999099881MD1210101+9999REMSYN066AAXX  13001 13389 32998 20000 10044 21006 39988 40277 52010 82030;EQDQ01  00002PRCP99
0163133890999992000031303004+42980+021950FM-12+023299999V0200201N001012200019N0200001N1+00121-00061102851ADDAA199000091GF101991011001999999031001MA1999999099931MD1210051+9999REMSYN066AAXX  13031 13389 32998 10201 10012 21006 39993 40285 52005 81030;EQDQ01  00002PRCP99
0226133890999992000031306004+42980+021950FM-12+023299999V0209999C000012200019N0100001N1-00011-00121103011ADDAA199000091GA1001+999999999GF100991001001999999001001IA1149IA2999-00509KA1120N-00081MA1999999100071MD1210141+9999REMSYN082AAXX  13061 13389 32997 00000 11001 21012 30007 40301 52014 333 21008 34105 55029;EQDQ01  00002PRCP99
0163133890999992000031309004+42980+021950FM-12+023299999V0201601N001012200019N0100001N1+00791+00091102931ADDAA199000091GF101991011011012501001001MA1999999100081MD1010011+9999REMSYN066AAXX  13091 13389 32697 11601 10079 20009 30008 40293 50001 81100;EQDQ01  00002PRCP99
0163133890999992000031312004+42980+021950FM-12+023299999V0200301N002012200019N0200001N1+01131-00251102701ADDAA199000091GF101991011011012501001001MA1999999099881MD1710201+9999REMSYN066AAXX  13121 13389 32698 10302 10113 21025 39988 40270 57020 81100;EQDQ01  00002PRCP99
0173133890999992000031315004+42980+021950FM-12+023299999V0203001N003012200019N0200001N1+01351-00221102501ADDAA199000091GA1001+999999999GF100991001001999999001001MA1999999099721MD1710161+9999REMSYN060AAXX  13151 13389 32998 03003 10135 21022 39972 40250 57016;EQDQ01  00002PRCP99
0196133890999992000031318004+42980+021950FM-12+023299999V0203201N002012200019N0200001N1+00831-00331102601ADDAA199000091GA1001+999999999GF100991001001999999001001KA1999M+01421MA1999999099761MD1310041+9999REMSYN070AAXX  13181 13389 32998 03202 10083 21033 39976 40260 53004 333 10142;EQDQ01  00002PRCP99
0173133890999992000031321004+42980+021950FM-12+023299999V0202001N001012200019N0200001N1+00261+00011102751ADDAA199000091GA1001+999999999GF100991001001999999001001MA1999999099451MD1210091+9999REMSYN060AAXX  13211 13389 32998 02001 10026 20001 39945 40275 52009;EQDQ01  00002PRCP99
0173133890999992000031400004+42980+021950FM-12+023299999V0202001N001012200019N0200001N1-00101-00221102791ADDAA199000091GA1001+999999999GF100991001001999999001001MA1999999099851MD1410001+9999REMSYN060AAXX  14001 13389 32998 02001 11010 21022 39985 40279 54000;EQDQ01  00002PRCP99
0173133890999992000031403004+42980+021950FM-12+023299999V0209999C000012200019N0200001N1-00201-00331102801ADDAA199000091GA1001+999999999GF100991001001999999001001MA1999999099851MD1410001+9999REMSYN060AAXX  14031 13389 32998 00000 11020 21033 39985 40280 54000;EQDQ01  00002PRCP99
0226133890999992000031406004+42980+021950FM-12+023299999V0202001N001012200019N0200001N1-00241-00361102801ADDAA199000091GA1001+999999999GF100991001001999999001001IA1149IA2999-00709KA1120N-00281MA1999999099851MD1410001+9999REMSYN082AAXX  14061 13389 32998 02001 11024 21036 39985 40280 54000 333 21028 34107 55109;EQDQ01  00002PRCP99
0173133890999992000031409004+42980+021950FM-12+023299999V0203501N001012200019N0200001N1+00851+00061102581ADDAA199000091GA1001+999999999GF100991001001999999001001MA1999999099741MD1810111+9999REMSYN060AAXX  14091 13389 32998 03501 10085 20006 39974 40258 58011;EQDQ01  00002PRCP99
0163133890999992000031412004+42980+021950FM-12+023299999V0202401N002012200019N0200001N1+01501+00121102241ADDAA199000091GF102991011011012501031001MA1999999099471MD1710271+9999REMSYN066AAXX  14121 13389 32698 22402 10150 20012 39947 40224 57027 81130;EQDQ01  00002PRCP99
0163133890999992000031415004+42980+021950FM-12+023299999V0200701N002012200019N0200001N1+01511+00061102041ADDAA199000091GF102991011011012501001011MA1999999099281MD1710191+9999REMSYN066AAXX  14151 13389 32698 20702 10151 20006 39928 40204 57019 81101;EQDQ01  00002PRCP99
0186133890999992000031418004+42980+021950FM-12+023299999V0201601N001012200019N0200001N1+01101+00121102081ADDAA199000091GF101991011011012501001001KA1999M+01581MA1999999099281MD1510001+9999REMSYN076AAXX  14181 13389 32698 11601 10110 20012 39928 40208 55000 81100 333 10158;EQDQ01  00002PRCP99
0173133890999992000031421004+42980+021950FM-12+023299999V0209999C000012200019N0200001N1+00521+00231102111ADDAA199000091GA1001+999999999GF100991001001999999001001MA1999999099251MD1810031+9999REMSYN060AAXX  14211 13389 32998 00000 10052 20023 39925 40211 58003;EQDQ01  00002PRCP99
0173133890999992000031500004+42980+021950FM-12+023299999V0201801N001012200019N0200001N1+00271+00151102071ADDAA199000091GA1001+999999999GF100991001001999999001001MA1999999099191MD1710061+9999REMSYN060AAXX  15001 13389 32998 01801 10027 20015 39919 40207 57006;EQDQ01  00002PRCP99
0173133890999992000031503004+42980+021950FM-12+023299999V0209999C000012200019N0200001N1+00291+00181101911ADDAA199000091GA1001+999999999GF100991001001999999001001MA1999999099041MD1710151+9999REMSYN060AAXX  15031 13389 32998 00000 10029 20018 39904 40191 57015;EQDQ01  00002PRCP99
0216133890999992000031506004+42980+021950FM-12+023299999V0209999C000010120019N0200001N1+00481+00201101781ADDAA199000091GF107991051051012501031001IA1099IA2999-00309KA1120N+00161MA1999999098931MD1710111+9999REMSYN088AAXX  15061 13389 32698 70000 10048 20020 39893 40178 57011 85530 333 20016 31103 55092;EQDQ01  00002PRCP99
0163133890999992000031515004+42980+021950FM-12+023299999V0203401N006010150019N0200001N1+00961+00451101511ADDAA199000091GF108991081081012501999999MA1999999098731MD1310191+9999REMSYN066AAXX  15151 13389 32698 83406 10096 20045 39873 40151 53019 888//;EQDQ01  00002PRCP99
0208133890999992000031518004+42980+021950FM-12+023299999V0203201N003010120019N0200001N1+00581+00011102021ADDAA199000091GF108991081051012501999999KA1120M+01751MA1999999099772MD1210441+9999REMSYN082AAXX  15181 13389 32698 83203 10058 20001 39977 40202 52044 885// 333 10175 91114;EQDQ01+099773APOSP Q02  00002PRCP99
0163133890999992000031521004+42980+021950FM-12+023299999V0203401N003010120019N0200001N1+00501-00151102211ADDAA199000091GF108991081051012501999999MA1999999099351MD1210181+9999REMSYN066AAXX  15211 13389 32698 83403 10050 21015 39935 40221 52018 885//;EQDQ01  00002PRCP99
0163133890999992000031600004+42980+021950FM-12+023299999V0203001N002010120019N0200001N1+00371-00191102241ADDAA199000091GF108991081051012501999999MA1999999099371MD1110021+9999REMSYN066AAXX  16001 13389 32698 83002 10037 21019 39937 40224 51002 885//;EQDQ01  00002PRCP99
0172133890999992000031603004+42980+021950FM-12+023299999V0202201N001010120019N0040001N1+00111-00021102271ADDAA199000021AY171031AY221031GF108991081001012501021999MA1999999099361MD1810011+9999MW1681REMSYN072AAXX  16031 13389 31696 82201 10011 21002 39936 40227 58001 76872 8802/;
0247133890999992000031606004+42980+021950FM-12+023299999V0201701N001010360019N0200001N1+00101-00011102181ADDAA112000891AL10699999AY171061AY271061GF108991041051012501071999IA1099IA2999-00109KA1120N+00081MA1999999099281MD1710081+9999MW1021REMSYN106AAXX  16061 13389 11698 81701 10010 21001 39928 40218 57008 69972 70277 8457/ 333 20008 31101 55044 93197;
0144133890999992000031609004+42980+021950FM-12+023299999V0200301N002010150019N0200001N1+00421-00441101951ADDAA199000021GF106991061081012501001001MA1999999099081MD1710201+9999REMSYN066AAXX  16091 13389 32698 60302 10042 21044 39908 40195 57020 86800;
0144133890999992000031612004+42980+021950FM-12+023299999V0200601N002012200019N0200001N1+00761-00661101601ADDAA199000021GF103991011021012501001011MA1999999098781MD1710201+9999REMSYN066AAXX  16121 13389 32698 30602 10076 21066 39878 40160 57020 81201;
0144133890999992000031615004+42980+021950FM-12+023299999V0200501N002010360019N0200001N1+00741-00711101481ADDAA199000021GF107991021021012501071001MA1999999098661MD1610121+9999REMSYN066AAXX  16151 13389 32698 70502 10074 21071 39866 40148 56012 82270;
0186133890999992000031618004+42980+021950FM-12+023299999V0209999C000012200019N0200001N1+00481-00711101501ADDAA199000091GF103991011001999999031011KA1999M+00901MA1999999098661MD1410001+9999REMSYN076AAXX  16181 13389 32998 30000 10048 21071 39866 40150 54000 81031 333 10090;EQDQ01  00002PRCP99
0163133890999992000031621004+42980+021950FM-12+023299999V0201801N001010120019N0200001N1+00281-00121101521ADDAA199000091GF106991061051012501001001MA1999999098661MD1410001+9999REMSYN066AAXX  16211 13389 32698 61801 10028 21012 39866 40152 54000 86500;EQDQ01  00002PRCP99
0163133890999992000031700004+42980+021950FM-12+023299999V0203401N006010120019N0200001N1+00261-00441101751ADDAA199000091GF108991081051012501999999MA1999999098881MD1210221+9999REMSYN066AAXX  17001 13389 32698 83406 10026 21044 39888 40175 52022 885//;EQDQ01  00002PRCP99
0163133890999992000031703004+42980+021950FM-12+023299999V0202301N003010120019N0200001N1+00141-00711101811ADDAA199000091GF108991081051012501999999MA1999999098921MD1110041+9999REMSYN066AAXX  17031 13389 32698 82303 10014 21071 39892 40181 51004 885//;EQDQ01  00002PRCP99
0232133890999992000031706004+42980+021950FM-12+023299999V0202201N001019999999N0200001N1+00081-00531101811ADDAA199000091GF107991999081012501001001IA1099IA2999+00009KA1120N+00081MA1999999098921MD1410001+9999REMSYN088AAXX  17061 13389 32698 72201 10008 21053 39892 40181 54000 83800 333 20008 31000 55047;EQDQ01+000032SCOTLCQ02  00002PRCP99
0163133890999992000031709004+42980+021950FM-12+023299999V0203601N004012200019N0200001N1+00301-00661101711ADDAA199000091GF104991041081012501001001MA1999999098841MD1810081+9999REMSYN066AAXX  17091 13389 32698 43604 10030 21066 39884 40171 58008 84800;EQDQ01  00002PRCP99
0163133890999992000031712004+42980+021950FM-12+023299999V0203001N003012200019N0200001N1+00521-00711101421ADDAA199000091GF104991041081012501001001MA1999999098581MD1710261+9999REMSYN066AAXX  17121 13389 32698 43003 10052 21071 39858 40142 57026 84800;EQDQ01  00002PRCP99
0163133890999992000031715004+42980+021950FM-12+023299999V0203501N004012200019N0200001N1+00561-00811101141ADDAA199000091GF107991041081012501001011MA1999999098321MD1710261+9999REMSYN066AAXX  17151 13389 32698 73504 10056 21081 39832 40114 57026 84801;EQDQ01  00002PRCP99
0186133890999992000031718004+42980+021950FM-12+023299999V0201701N001019999999N0200001N1+00401-00861101141ADDAA199000091GF107991071001999999071001KA1999M+00591MA1999999098301MD1510021+9999REMSYN076AAXX  17181 13389 32998 71701 10040 21086 39830 40114 55002 87070 333 10059;EQDQ01  00002PRCP99
0163133890999992000031721004+42980+021950FM-12+023299999V0203601N006019999999N0200001N1+00231-00571101351ADDAA199000091GF108991081001999999071999MA1999999098481MD1210181+9999REMSYN066AAXX  17211 13389 32998 83606 10023 21057 39848 40135 52018 8807/;EQDQ01  00002PRCP99
0161133890999992000031800004+42980+021950FM-12+023299999V0203401N004010360019N0100001N1+00021-00291101501ADDAY171061AY221061GF108991031071008001021999MA1999999098611MD1210131+9999MW1711REMSYN072AAXX  18001 13389 11597 83404 10002 21029 39861 40150 52013 77172 8372/;
0172133890999992000031803004+42980+021950FM-12+023299999V0203401N002010120019N0200001N1-00061-00251101541ADDAA199000021AY171031AY221031GF106991061051012501001001MA1999999098641MD1110031+9999MW1701REMSYN072AAXX  18031 13389 31698 63402 11006 21025 39864 40154 51003 77072 86500;
0270133890999992000031806004+42980+021950FM-12+023299999V0203401N002010120019N0100001N1-00081-00401101591ADDAA112000891AJ100019199999999AL10600191AY171061AY221061GF106991061081008001001001IA1309IA2999-00209KA1120N-00091MA1999999098581MD1310041+9999MW1021REMSYN112AAXX  18061 13389 11597 63402 11008 21040 39858 40159 53004 69972 70272 86800 333 21009 3/102 42001 93101 92801;
0172133890999992000031809004+42980+021950FM-12+023299999V0203401N002010360019N0100001N1+00071-00441101671ADDAA199000021AY171031AY271031GF108991041081008001021999MA1999999098781MD1210101+9999MW1711REMSYN072AAXX  18091 13389 31597 83402 10007 21044 39878 40167 52010 77177 8482/;
0178133890999992000031812004+42980+021950FM-12+023299999V0203601N002010075019N0020001N1+00011-00121101661ADDAA106001091AY171061AY271061GF108991081001008001021999MA1999999098761MD1810021+9999MW1731REMSYN078AAXX  18121 13389 11595 83602 10001 21012 39876 40166 58002 60011 77377 8802/;
0172133890999992000031815004+42980+021950FM-12+023299999V0203101N003012200019N0100001N1+00121-00221101631ADDAA199000021AY121031AY271031GF106991041081012501001011MA1999999098741MD1610021+9999MW1031REMSYN072AAXX  18151 13389 31697 63103 10012 21022 39874 40163 56002 70327 84801;
0259133890999992000031818004+42980+021950FM-12+023299999V0203401N003010120019N0100001N1+00041-00291101811ADDAA112001091AJ199993999999999AL10699999AY121061AY271061GF107991071051012501001001KA1120M+00241MA1999999098911MD1310171+9999MW1021REMSYN100AAXX  18181 13389 11697 73403 10004 21029 39891 40181 53017 60012 70227 87500 333 10024 4/997 93197;EQDQ01  09982SNDP  
0144133890999992000031821004+42980+021950FM-12+023299999V0203401N004010120019N0100001N1+00011-00291102031ADDAA199000021GF107991071051012501001001MA1999999099121MD1210211+9999REMSYN066AAXX  18211 13389 32697 73404 10001 21029 39912 40203 52021 87500;
0178133890999992000031900004+42980+021950FM-12+023299999V0203201N003010120019N0100001N1-00011-00221102091ADDAA106000191AY121061AY271061GF107991071051012501001001MA1999999099181MD1210061+9999MW1021REMSYN078AAXX  19001 13389 11697 73203 11001 21022 39918 40209 52006 69921 70227 87500;
0163133890999992000031903004+42980+021950FM-12+023299999V0203401N003012200019N0200001N1-00081-00361102141ADDAA199000091GF103991031051012501001001MA1999999099221MD1210041+9999REMSYN066AAXX  19031 13389 32698 33403 11008 21036 39922 40214 52004 83500;EQDQ01  00002PRCP99
0255133890999992000031906004+42980+021950FM-12+023299999V0203201N001012200019N0100001N1-00061-00291102191ADDAA112000191AJ199993999999999AL10699999GF104991041051012501001001IA2999-00309KA1120N-00091MA1999999099271MD1210051+9999REMSYN106AAXX  19061 13389 12697 43201 11006 21029 39927 40219 52005 69922 84500 333 21009 3/103 4/997 55011 93197;EQDQ01  09982SNDP  
0172133890999992000031909004+42980+021950FM-12+023299999V0202001N002010120019N0100001N1+00191-00091102261ADDAA199000021AY171031AY271031GF107991071081008001001001MA1999999099361MD1210091+9999MW1221REMSYN072AAXX  19091 13389 31597 72002 10019 21009 39936 40226 52009 72277 87800;
0178133890999992000031912004+42980+021950FM-12+023299999V0203301N003010120019N0100001N1+00281-00571102141ADDAA106006191AY121061AY271061GF107991071081008001001001MA1999999099261MD1710101+9999MW1021REMSYN078AAXX  19121 13389 11597 73303 10028 21057 39926 40214 57010 60061 70227 87800;
0144133890999992000031915004+42980+021950FM-12+023299999V0200101N003010150019N0200001N1+00201-00151102081ADDAA199000021GF108991081081012501999999MA1999999099191MD1610071+9999REMSYN066AAXX  19151 13389 32698 80103 10020 21015 39919 40208 56007 888//;
0217133890999992000031918004+42980+021950FM-12+023299999V0202201N002010360019N0020001N1+00061-00021102191ADDAA112002091AL10699999AY171061AY221061GF108991021071008001021999KA1120M+00451MA1999999099291MD1310101+9999MW1731REMSYN094AAXX  19181 13389 11595 82202 10006 21002 39929 40219 53010 60022 77372 8272/ 333 10045 93197;
0172133890999992000031921004+42980+021950FM-12+023299999V0209999C000019999999N0100001N1+00021-00091102271ADDAA199000021AY121031AY271031GF108991081001999999071999MA1999999099351MD1110061+9999MW1021REMSYN072AAXX  19211 13389 31997 80000 10002 21009 39935 40227 51006 70227 8807/;
0178133890999992000032000004+42980+021950FM-12+023299999V0209999C000019999999N0100001N1-00051-00191102271ADDAA106000191AY121061AY271061GF105991051001999999071001MA1999999099351MD1410001+9999MW1021REMSYN078AAXX  20001 13389 11997 50000 11005 21019 39935 40227 54000 69921 70227 85070;
0172133890999992000032003004+42980+021950FM-12+023299999V0209999C000019999999N0100001N1-00041-00151102321ADDAA199000021AY171031AY221031GF108991081001999999071999MA1999999099401MD1310051+9999MW1711REMSYN072AAXX  20031 13389 31997 80000 11004 21015 39940 40232 53005 77172 8807/;
0287133890999992000032006004+42980+021950FM-12+023299999V0202001N001010075019N0100001N1-00011-00151102471ADDAA112000391AJ199992999999999AL10699999AY121061AY271061GF107991071061008001001001IA2999-00309KA1120N-00071MA1999999099551MD1110151+9999MW1021REMSYN116AAXX  20061 13389 11597 72001 11001 21015 39955 40247 51015 69932 70227 87600 333 21007 3/103 4/998 93197 555 55017;EQDQ01  09972SNDP  
0144133890999992000032009004+42980+021950FM-12+023299999V0200201N002010120019N0100001N1+00141-00361102531ADDAA199000021GF108991081081008001999999MA1999999099621MD1210071+9999REMSYN066AAXX  20091 13389 32597 80202 10014 21036 39962 40253 52007 888//;
0144133890999992000032012004+42980+021950FM-12+023299999V0202301N003010120019N0100001N1+00381-00291102441ADDAA199000021GF108991081081008001999999MA1999999099561MD1810061+9999REMSYN066AAXX  20121 13389 32597 82303 10038 21029 39956 40244 58006 888//;
0144133890999992000032015004+42980+021950FM-12+023299999V0203401N004010120019N0100001N1+00341-00341102301ADDAA199000021GF108991081081008001999999MA1999999099421MD1610141+9999REMSYN066AAXX  20151 13389 32597 83404 10034 21034 39942 40230 56014 888//;
0186133890999992000032018004+42980+021950FM-12+023299999V0203301N002019999999N0100001N1+00161-00291102311ADDAA199000091GF106991021001999999031061KA1999M+00521MA1999999099411MD1510011+9999REMSYN076AAXX  20181 13389 32997 63302 10016 21029 39941 40231 55001 82036 333 10052;EQDQ01  00002PRCP99
0163133890999992000032021004+42980+021950FM-12+023299999V0202301N001010360019N0100001N1+00041-00151102331ADDAA199000091GF108991031051012501071999MA1999999099411MD1410001+9999REMSYN066AAXX  20211 13389 32697 82301 10004 21015 39941 40233 54000 8357/;EQDQ01  00002PRCP99
0163133890999992000032100004+42980+021950FM-12+023299999V0202001N001010360019N0100001N1+00041-00121102271ADDAA199000091GF108991031051012501071999MA1999999099351MD1810061+9999REMSYN066AAXX  21001 13389 32697 82001 10004 21012 39935 40227 58006 8357/;EQDQ01  00002PRCP99
0172133890999992000032103004+42980+021950FM-12+023299999V0209999C000010075019N0010001N1+00001-00091102101ADDAA199000021AY171031AY221031GF108991081001008001021999MA1999999099191MD1710161+9999MW1731REMSYN072AAXX  21031 13389 31594 80000 10000 21009 39919 40210 57016 77372 8802/;
0235133890999992000032106004+42980+021950FM-12+023299999V0201801N001010075019N0005001N1-00011-00021102071ADDAA112002091AL10600491AY171061AY271061GF108991081001008001021999IA2999-00109KA1120N-00021MA1999999099161MD1710031+9999MW1751REMSYN100AAXX  21061 13389 11593 81801 11001 21002 39916 40207 57003 60022 77577 8802/ 333 21002 3/101 93104;
0172133890999992000032109004+42980+021950FM-12+023299999V0202001N001010075019N0100001N1+00231+00061102131ADDAA199000021AY171031AY271031GF107991071071008001001001MA1999999099241MD1310081+9999MW1701REMSYN072AAXX  21091 13389 31597 72001 10023 20006 39924 40213 53008 77077 87700;
0178133890999992000032112004+42980+021950FM-12+023299999V0202301N002012200019N0100001N1+00381+00091102071ADDAA106002091AY111061AY271061GF103991031081012501001001MA1999999099201MD1810041+9999MW1011REMSYN078AAXX  21121 13389 11697 32302 10038 20009 39920 40207 58004 60021 70117 83800;
0144133890999992000032115004+42980+021950FM-12+023299999V0200201N004010120019N0100001N1+00491-00331102041ADDAA199000021GF107991071081008001001001MA1999999099181MD1510021+9999REMSYN066AAXX  21151 13389 32597 70204 10049 21033 39918 40204 55002 87800;
0189133890999992000032118004+42980+021950FM-12+023299999V0202301N002010120019N0100001N1+00291-00291102201ADDAA112002091AL10699999GF106991061051012501001001KA1120M+00571MA1999999099321MD1210141+9999REMSYN088AAXX  21181 13389 12697 62302 10029 21029 39932 40220 52014 60022 86500 333 10057 93197;
0144133890999992000032121004+42980+021950FM-12+023299999V0202301N002010120019N0100001N1+00141-00251102421ADDAA199000021GF107991071051012501001001MA1999999099511MD1210191+9999REMSYN066AAXX  21211 13389 32697 72302 10014 21025 39951 40242 52019 87500;
0163133890999992000032200004+42980+021950FM-12+023299999V0201201N001010120019N0100001N1-00041-00221102501ADDAA199000091GF106991061051012501001001MA1999999099581MD1210071+9999REMSYN066AAXX  22001 13389 32697 61201 11004 21022 39958 40250 52007 86500;EQDQ01  00002PRCP99
0173133890999992000032203004+42980+021950FM-12+023299999V0202001N001012200019N0100001N1-00301-00401102461ADDAA199000091GA1001+999999999GF100991001001999999001001MA1999999099511MD1710071+9999REMSYN060AAXX  22031 13389 32997 02001 11030 21040 39951 40246 57007;EQDQ01  00002PRCP99
0216133890999992000032206004+42980+021950FM-12+023299999V0209999C000010150019N0100001N1-00261-00361102541ADDAA199000091GF105991051081012501001001IA1149IA2999-00709KA1120N-00321MA1999999099581MD1210071+9999REMSYN088AAXX  22061 13389 32697 50000 11026 21036 39958 40254 52007 85800 333 21032 34107 55012;EQDQ01  00002PRCP99
0163133890999992000032212004+42980+021950FM-12+023299999V0203201N002010120019N0200001N1+00711-00401102451ADDAA199000091GF106991061081008001001001MA1999999099581MD1710051+9999REMSYN066AAXX  22121 13389 32598 63202 10071 21040 39958 40245 57005 86800;EQDQ01  00002PRCP99
0163133890999992000032215004+42980+021950FM-12+023299999V0200301N003012200019N0200001N1+00861-00331102231ADDAA199000091GF101991011011012501001001MA1999999099411MD1710171+9999REMSYN066AAXX  22151 13389 32698 10303 10086 21033 39941 40223 57017 81100;EQDQ01  00002PRCP99
0196133890999992000032218004+42980+021950FM-12+023299999V0201801N001012200019N0100001N1+00391-00191102291ADDAA199000091GA1001+999999999GF100991001001999999001001KA1999M+00901MA1999999099421MD1310011+9999REMSYN070AAXX  22181 13389 32997 01801 10039 21019 39942 40229 53001 333 10090;EQDQ01  00002PRCP99
0173133890999992000032221004+42980+021950FM-12+023299999V0209999C000012200019N0100001N1-00051-00221102421ADDAA199000091GA1001+999999999GF100991001001999999001001MA1999999099501MD1210081+9999REMSYN060AAXX  22211 13389 32997 00000 11005 21022 39950 40242 52008;EQDQ01  00002PRCP99
0173133890999992000032300004+42980+021950FM-12+023299999V0209999C000012200019N0100001N1-00141-00221102411ADDAA199000091GA1001+999999999GF100991001001999999001001MA1999999099481MD1810021+9999REMSYN060AAXX  23001 13389 32997 00000 11014 21022 39948 40241 58002;EQDQ01  00002PRCP99
0173133890999992000032303004+42980+021950FM-12+023299999V0209999C000012200019N0100001N1-00341-00441102341ADDAA199000091GA1001+999999999GF100991001001999999001001MA1999999099391MD1710081+9999REMSYN060AAXX  23031 13389 32997 00000 11034 21044 39939 40234 57008;EQDQ01  00002PRCP99
0226133890999992000032306004+42980+021950FM-12+023299999V0209999C000012200019N0200001N1-00181-00291102331ADDAA199000091GA1001+999999999GF100991001001999999001001IA1149IA2999-00809KA1120N-00431MA1999999099391MD1510001+9999REMSYN082AAXX  23061 13389 32998 00000 11018 21029 39939 40233 55000 333 21043 34108 55097;EQDQ01  00002PRCP99
0173133890999992000032309004+42980+021950FM-12+023299999V0201101N002012200019N0200001N1+00741-00251102161ADDAA199000091GA1001+999999999GF100991001001999999001001MA1999999099321MD1710071+9999REMSYN060AAXX  23091 13389 32998 01102 10074 21025 39932 40216 57007;EQDQ01  00002PRCP99
0173133890999992000032312004+42980+021950FM-12+023299999V0200201N002012200019N0200001N1+01401-00251101821ADDAA199000091GA1001+999999999GF100991001001999999001001MA1999999099061MD1710261+9999REMSYN060AAXX  23121 13389 32998 00202 10140 21025 39906 40182 57026;EQDQ01  00002PRCP99
0173133890999992000032315004+42980+021950FM-12+023299999V0200401N002012200019N0500001N1+01621-00291101561ADDAA199000091GA1001+999999999GF100991001001999999001001MA1999999098821MD1710241+9999REMSYN060AAXX  23151 13389 32999 00402 10162 21029 39882 40156 57024;EQDQ01  00002PRCP99
0196133890999992000032318004+42980+021950FM-12+023299999V0201201N002012200019N0200001N1+00941-00061101611ADDAA199000091GA1001+999999999GF100991001001999999001001KA1999M+01601MA1999999098801MD1610021+9999REMSYN070AAXX  23181 13389 32998 01202 10094 21006 39880 40161 56002 333 10160;EQDQ01  00002PRCP99
0173133890999992000032403004+42980+021950FM-12+023299999V0201601N001012200019N0200001N1-00111-00221101811ADDAA199000091GA1001+999999999GF100991001001999999001001MA1999999098901MD1810041+9999REMSYN060AAXX  24031 13389 32998 01601 11011 21022 39890 40181 58004;EQDQ01  00002PRCP99
0216133890999992000032406004+42980+021950FM-12+023299999V0209999C000012200019N0200001N1-00021-00091101891ADDAA199000091GF102991001001999999001011IA1149IA2999-00609KA1120N-00231MA1999999098991MD1310091+9999REMSYN088AAXX  24061 13389 32998 20000 11002 21009 39899 40189 53009 80001 333 21023 34106 55112;EQDQ01  00002PRCP99
0163133890999992000032409004+42980+021950FM-12+023299999V0202701N001012200019N0200001N1+01141+00061101771ADDAA199000091GF103991001001999999001011MA1999999098981MD1810011+9999REMSYN066AAXX  24091 13389 32998 32701 10114 20006 39898 40177 58001 80001;EQDQ01  00002PRCP99
0163133890999992000032412004+42980+021950FM-12+023299999V0200201N002019999999N0200001N1+01681-00061101561ADDAA199000091GF105991001001999999001061MA1999999098831MD1710151+9999REMSYN066AAXX  24121 13389 32998 50202 10168 21006 39883 40156 57015 80006;EQDQ01  00002PRCP99
0163133890999992000032415004+42980+021950FM-12+023299999V0200501N001019999999N0200001N1+01721-00061101451ADDAA199000091GF107991071001999999071001MA1999999098731MD1610101+9999REMSYN066AAXX  24151 13389 32998 70501 10172 21006 39873 40145 56010 87070;EQDQ01  00002PRCP99
0186133890999992000032418004+42980+021950FM-12+023299999V0209999C000010360019N0200001N1+01041+00251101511ADDAA199000091GF108991031051012501071999KA1999M+01781MA1999999098731MD1410001+9999REMSYN076AAXX  24181 13389 32698 80000 10104 20025 39873 40151 54000 8357/ 333 10178;EQDQ01  00002PRCP99
0163133890999992000032421004+42980+021950FM-12+023299999V0201101N001010360019N0200001N1+00761+00121101691ADDAA199000091GF107991031051012501071001MA1999999098881MD1310151+9999REMSYN066AAXX  24211 13389 32698 71101 10076 20012 39888 40169 53015 83570;EQDQ01  00002PRCP99
0163133890999992000032500004+42980+021950FM-12+023299999V0209999C000012200019N0100001N1+00441+00201101751ADDAA199000091GF104991021051012501031001MA1999999098901MD1310021+9999REMSYN066AAXX  25001 13389 32697 40000 10044 20020 39890 40175 53002 82530;EQDQ01  00002PRCP99
0163133890999992000032503004+42980+021950FM-12+023299999V0202001N001010360019N0100001N1+00261+00181101861ADDAA199000091GF105991021051012501031001MA1999999098991MD1310091+9999REMSYN066AAXX  25031 13389 32697 52001 10026 20018 39899 40186 53009 82530;EQDQ01  00002PRCP99
0216133890999992000032506004+42980+021950FM-12+023299999V0201601N001010360019N0100001N1+00381+00251102031ADDAA199000091GF106991041051012501031001IA1099IA2999+00009KA1120N+00241MA1999999099171MD1210181+9999REMSYN088AAXX  25061 13389 32697 61601 10038 20025 39917 40203 52018 84530 333 20024 31100 55039;EQDQ01  00002PRCP99
0164133890999992000032509004+42980+021950FM-12+023299999V0202101N001019999999N0200001N1+01041+00231102071ADDAA199000091GF106991061001999999071001MD1210101+9999REMSYN066AAXX  25091 13389 32998 62101 10104 20023 39327 40207 52010 86070;EQDQ01+093273APOSP Q02  00002PRCP99
0163133890999992000032515004+42980+021950FM-12+023299999V0200601N002019999999N0200001N1+01861+00151101701ADDAA199000091GF107991071001999999071001MA1999999098991MD1710131+9999REMSYN066AAXX  25151 13389 32998 70602 10186 20015 39899 40170 57013 87070;EQDQ01  00002PRCP99
0186133890999992000032518004+42980+021950FM-12+023299999V0201101N001019999999N0200001N1+01481+00201101751ADDAA199000091GF108991081001999999071999KA1999M+01971MA1999999099001MD1310011+9999REMSYN076AAXX  25181 13389 32998 81101 10148 20020 39900 40175 53001 8807/ 333 10197;EQDQ01  00002PRCP99
0163133890999992000032600004+42980+021950FM-12+023299999V0209999C000019999999N0200001N1+00711+00251101881ADDAA199000091GF105991051001999999071001MA1999999099061MD1110021+9999REMSYN066AAXX  26001 13389 32998 50000 10071 20025 39906 40188 51002 85070;EQDQ01  00002PRCP99
0163133890999992000032603004+42980+021950FM-12+023299999V0200601N002010360019N0200001N1+00961+00231101851ADDAA199000091GF108991041051012501071999MA1999999099061MD1410001+9999REMSYN066AAXX  26031 13389 32698 80602 10096 20023 39906 40185 54000 8457/;EQDQ01  00002PRCP99
0216133890999992000032606004+42980+021950FM-12+023299999V0209999C000010360019N0200001N1+00871+00491101861ADDAA199000091GF107991031051012501071001IA1099IA2999+00209KA1120N+00671MA1999999099061MD1410001+9999REMSYN088AAXX  26061 13389 32698 70000 10087 20049 39906 40186 54000 83570 333 20067 31002 55025;EQDQ01  00002PRCP99
0163133890999992000032609004+42980+021950FM-12+023299999V0200901N002010360019N0200001N1+01521+00281101851ADDAA199000091GF108991031051012501071999MA1999999099101MD1310041+9999REMSYN066AAXX  26091 13389 32698 80902 10152 20028 39910 40185 53004 8357/;EQDQ01  00002PRCP99
0163133890999992000032612004+42980+021950FM-12+023299999V0200601N004019999999N0200001N1+01701+00491101651ADDAA199000091GF107991071001999999071001MA1999999098931MD1810171+9999REMSYN066AAXX  26121 13389 32998 70604 10170 20049 39893 40165 58017 87070;EQDQ01  00002PRCP99
0163133890999992000032615004+42980+021950FM-12+023299999V0202201N003010360019N0200001N1+01861+00351101411ADDAA199000091GF107991031081012501071001MA1999999098791MD1710221+9999REMSYN066AAXX  26151 13389 32698 72203 10186 20035 39879 40141 57022 83870;EQDQ01  00002PRCP99
0186133890999992000032618004+42980+021950FM-12+023299999V0202501N004010360019N0200001N1+01531+00331101521ADDAA199000091GF108991041051012501071999KA1999M+01961MA1999999098781MD1310071+9999REMSYN076AAXX  26181 13389 32698 82504 10153 20033 39878 40152 53007 8457/ 333 10196;EQDQ01  00002PRCP99
0163133890999992000032621004+42980+021950FM-12+023299999V0203401N001010360019N0200001N1+01221+00471101591ADDAA199000091GF108991041051012501071999MA1999999098821MD1110041+9999REMSYN066AAXX  26211 13389 32698 83401 10122 20047 39882 40159 51004 8457/;EQDQ01  00002PRCP99
0163133890999992000032700004+42980+021950FM-12+023299999V0203301N001010360019N0200001N1+01081+00531101491ADDAA199000091GF108991031051012501071999MA1999999098721MD1810101+9999REMSYN066AAXX  27001 13389 32698 83301 10108 20053 39872 40149 58010 8357/;EQDQ01  00002PRCP99
0163133890999992000032703004+42980+021950FM-12+023299999V0201601N001019999999N0200001N1+01141+00641101281ADDAA199000091GF105991051001999999071001MA1999999098511MD1710211+9999REMSYN066AAXX  27031 13389 32998 51601 10114 20064 39851 40128 57021 85070;EQDQ01  00002PRCP99
0216133890999992000032706004+42980+021950FM-12+023299999V0202001N001012200019N0200001N1+00901+00661101201ADDAA199000091GF102991011001999999031011IA1019IA2999+00409KA1120N+00791MA1999999098821MD1710091+9999REMSYN088AAXX  27061 13389 32998 22001 10090 20066 39882 40120 57009 81031 333 20079 30004 55004;EQDQ01  00002PRCP99
0163133890999992000032709004+42980+021950FM-12+023299999V0202901N001019999999N0200001N1+01701+00991101471ADDAA199000091GF107991071001999999071001MA1999999098271MD1710151+9999REMSYN066AAXX  27091 13389 32998 72901 10170 20099 39827 40147 57015 87070;EQDQ01  00002PRCP99
0173133890999992000032712004+42980+021950FM-12+023299999V0202001N007010150019N0100001N1+01681+00301100931ADDAA199000091GF108991081081012501999999MA1999999098231MD1510041+9999REMSYN076AAXX  27121 13389 32697 82007 10168 20030 39823 40093 55004 888// 333 91113;EQDQ01  00002PRCP99
0163133890999992000032715004+42980+021950FM-12+023299999V0202201N004010150019N0200001N1+01561+00531100961ADDAA199000091GF108991081081012501999999MA1999999098251MD1110021+9999REMSYN066AAXX  27151 13389 32698 82204 10156 20053 39825 40096 51002 888//;EQDQ01  00002PRCP99
0186133890999992000032718004+42980+021950FM-12+023299999V0202101N003019999999N0200001N1+01221+00491101071ADDAA199000091GF107991071001999999071001KA1999M+01841MA1999999098321MD1310071+9999REMSYN076AAXX  27181 13389 32998 72103 10122 20049 39832 40107 53007 87070 333 10184;EQDQ01  00002PRCP99
0163133890999992000032803004+42980+021950FM-12+023299999V0202001N002010360019N0200001N1+00951+00681101381ADDAA199000091GF107991021051012501071001MA1999999098601MD1210081+9999REMSYN066AAXX  28031 13389 32698 72002 10095 20068 39860 40138 52008 82570;EQDQ01  00002PRCP99
0216133890999992000032806004+42980+021950FM-12+023299999V0200101N002019999999N0200001N1+01081+00641101451ADDAA199000091GF107991021001999999031061IA1019IA2999+00609KA1120N+00871MA1999999098681MD1210081+9999REMSYN088AAXX  28061 13389 32998 70102 10108 20064 39868 40145 52008 82036 333 20087 30006 55030;EQDQ01  00002PRCP99
0163133890999992000032809004+42980+021950FM-12+023299999V0202101N004010360019N0200001N1+01641+00421101441ADDAA199000091GF107991011021012501031061MA1999999098721MD1110041+9999REMSYN066AAXX  28091 13389 32698 72104 10164 20042 39872 40144 51004 81236;EQDQ01  00002PRCP99
0163133890999992000032812004+42980+021950FM-12+023299999V0201901N004010360019N0200001N1+01821+00331101431ADDAA199000091GF108991031021012501071999MA1999999098721MD1410001+9999REMSYN066AAXX  28121 13389 32698 81904 10182 20033 39872 40143 54000 8327/;EQDQ01  00002PRCP99
0163133890999992000032815004+42980+021950FM-12+023299999V0202501N004010360019N0200001N1+01721+00281101481ADDAA199000091GF107991041081012501071001MA1999999098761MD1310041+9999REMSYN066AAXX  28151 13389 32698 72504 10172 20028 39876 40148 53004 84870;EQDQ01  00002PRCP99
0186133890999992000032818004+42980+021950FM-12+023299999V0202001N001012200019N0200001N1+01191+00281101621ADDAA199000091GF102991021001999999031001KA1999M+01861MA1999999098861MD1210091+9999REMSYN076AAXX  28181 13389 32998 22001 10119 20028 39886 40162 52009 82030 333 10186;EQDQ01  00002PRCP99
0173133890999992000032900004+42980+021950FM-12+023299999V0201101N001012200019N0200001N1+00451+00301101841ADDAA199000091GA1001+999999999GF100991001001999999001001MA1999999098991MD1110021+9999REMSYN060AAXX  29001 13389 32998 01101 10045 20030 39899 40184 51002;EQDQ01  00002PRCP99
0173133890999992000032903004+42980+021950FM-12+023299999V0201401N001012200019N0200001N1+00441+00251101821ADDAA199000091GA1001+999999999GF100991001001999999001001MA1999999098971MD1810021+9999REMSYN060AAXX  29031 13389 32998 01401 10044 20025 39897 40182 58002;EQDQ01  00002PRCP99
0216133890999992000032906004+42980+021950FM-12+023299999V0209999C000012200019N0200001N1+00531+00351101841ADDAA199000091GF104991021001999999031011IA1019IA2999+01009KA1120N+00371MA1999999099001MD1310031+9999REMSYN088AAXX  29061 13389 32998 40000 10053 20035 39900 40184 53003 82031 333 20037 30010 55000;EQDQ01  00002PRCP99
0163133890999992000032912004+42980+021950FM-12+023299999V0202001N006012200019N0200001N1+02372+00471101311ADDAA199000091GF102991021021012501001001MA1999999098661MD1710261+9999REMSYN066AAXX  29121 13389 32698 22006 10237 20047 39866 40131 57026 82200;EQDQ01  00002PRCP99
0163133890999992000032915004+42980+021950FM-12+023299999V0202001N005010150019N0200001N1+02131+00301101241ADDAA199000091GF107991071081012501001001MA1999999098561MD1710101+9999REMSYN066AAXX  29151 13389 32698 72005 10213 20030 39856 40124 57010 87800;EQDQ01  00002PRCP99
0186133890999992000032918004+42980+021950FM-12+023299999V0202101N002012200019N0200001N1+01581+00381101321ADDAA199000091GF101991011001999999031001KA1999M+02371MA1999999098601MD1310041+9999REMSYN076AAXX  29181 13389 32998 12102 10158 20038 39860 40132 53004 81030 333 10237;EQDQ01  00002PRCP99
0163133890999992000033000004+42980+021950FM-12+023299999V0203601N002012200019N0200001N1+01181+00511101311ADDAA199000091GF102991021001999999031001MA1999999098551MD1810071+9999REMSYN066AAXX  30001 13389 32998 23602 10118 20051 39855 40131 58007 82030;EQDQ01  00002PRCP99
0232133890999992000033006004+42980+021950FM-12+023299999V0209999C000010360019N0100001N1+00831+00511101561ADDAA199000091GF105991021051012501041001IA1099IA2999+00409KA1120N+00681MA1999999999999MD1510031+9999REMSYN088AAXX  30061 13389 32697 50000 10083 20051 39639 40156 55003 82540 333 20068 31004 55088;EQDQ01  00002PRCP99Q02 096393APOSP 
0179133890999992000033012004+42980+021950FM-12+023299999V0202001N005012200019N0200001N1+02281+00661101021ADDAA199000091GF104991041021012501001001MA1999999098372MD1710201+9999REMSYN066AAXX  30121 13389 32698 42005 10228 20066 39837 40102 57020 84200;EQDQ01+098373APOSP Q02  00002PRCP99
0163133890999992000033015004+42980+021950FM-12+023299999V0202401N006012200019N0200001N1+02221+00351100891ADDAA199000091GF102991021021012501001001MA1999999098231MD1710141+9999REMSYN066AAXX  30151 13389 32698 22406 10222 20035 39823 40089 57014 82200;EQDQ01  00002PRCP99
0186133890999992000033018004+42980+021950FM-12+023299999V0200701N003012200019N0200001N1+01531-00251101101ADDAA199000091GF101991001001999999001011KA1999M+02301MA1999999098361MD1310131+9999REMSYN076AAXX  30181 13389 32998 10703 10153 21025 39836 40110 53013 80001 333 10230;EQDQ01  00002PRCP99
0173133890999992000033021004+42980+021950FM-12+023299999V0202201N003012200019N0200001N1+01341-00611101371ADDAA199000091GA1001+999999999GF100991001001999999001001MA1999999098611MD1210251+9999REMSYN060AAXX  30211 13389 32998 02203 10134 21061 39861 40137 52025;EQDQ01  00002PRCP99
0173133890999992000033100004+42980+021950FM-12+023299999V0203401N001012200019N0200001N1+00781-00611101571ADDAA199000091GA1001+999999999GF100991001001999999001001MA1999999098751MD1210141+9999REMSYN060AAXX  31001 13389 32998 03401 10078 21061 39875 40157 52014;EQDQ01  00002PRCP99
0173133890999992000033103004+42980+021950FM-12+023299999V0203301N001012200019N0200001N1+00451-00411101551ADDAA199000091GA1001+999999999GF100991001001999999001001MA1999999098701MD1810051+9999REMSYN060AAXX  31031 13389 32998 03301 10045 21041 39870 40155 58005;EQDQ01  00002PRCP99
0216133890999992000033106004+42980+021950FM-12+023299999V0209999C000012200019N0200001N1+00481-00061101601ADDAA199000091GF102991001001999999001011IA1019IA2999-00409KA1120N+00151MA1999999098751MD1310051+9999REMSYN088AAXX  31061 13389 32998 20000 10048 21006 39875 40160 53005 80001 333 20015 30104 55101;EQDQ01  00002PRCP99
0163133890999992000033109004+42980+021950FM-12+023299999V0202001N001012200019N0200001N1+01671+00011101321ADDAA199000091GF101991011011012501001001MA1999999098601MD1810151+9999REMSYN066AAXX  31091 13389 32698 12001 10167 20001 39860 40132 58015 81100;EQDQ01  00002PRCP99
0163133890999992000033112004+42980+021950FM-12+023299999V0203601N002012200019N0200001N1+01981+00011100971ADDAA199000091GF103991011011012501001011MA1999999098281MD1710321+9999REMSYN066AAXX  31121 13389 32698 33602 10198 20001 39828 40097 57032 81101;EQDQ01  00002PRCP99
0163133890999992000033115004+42980+021950FM-12+023299999V0202701N004010360019N0200001N1+02101-00331100771ADDAA199000091GF106991011011012501031011MA1999999098141MD1610141+9999REMSYN066AAXX  31151 13389 32698 62704 10210 21033 39814 40077 56014 81131;EQDQ01  00002PRCP99
0186133890999992000033118004+42980+021950FM-12+023299999V0202601N003019999999N0200001N1+01601-00441100911ADDAA199000091GF107991001001999999001061KA1999M+02441MA1999999098191MD1310051+9999REMSYN076AAXX  31181 13389 32998 72603 10160 21044 39819 40091 53005 80006 333 10244;EQDQ01  00002PRCP99
0173133890999992000040100004+42980+021950FM-12+023299999V0202001N001012200019N0200001N1+00551-00061101131ADDAA199000091GA1001+999999999GF100991001001999999001001MA1999999098311MD1310021+9999REMSYN060AAXX  01001 13389 32998 02001 10055 21006 39831 40113 53002;EQDQ01  00002PRCP99
0173133890999992000040103004+42980+021950FM-12+023299999V0201201N001012200019N0200001N1+00221+00011101091ADDAA199000091GA1001+999999999GF100991001001999999001001MA1999999098231MD1810081+9999REMSYN060AAXX  01031 13389 32998 01201 10022 20001 39823 40109 58008;EQDQ01  00002PRCP99
0216133890999992000040106004+42980+021950FM-12+023299999V0202001N002019999999N0200001N1+00591+00201101011ADDAA199000091GF107991011001999999031061IA1019IA2999-00209KA1120N+00161MA1999999098201MD1710031+9999REMSYN088AAXX  01061 13389 32998 72002 10059 20020 39820 40101 57003 81036 333 20016 30102 55105;EQDQ01  00002PRCP99
0163133890999992000040109004+42980+021950FM-12+023299999V0203401N001019999999N0200001N1+01581+00381100731ADDAA199000091GF106991011001999999031061MA1999999098021MD1710181+9999REMSYN066AAXX  01091 13389 32998 63401 10158 20038 39802 40073 57018 81036;EQDQ01  00002PRCP99
0163133890999992000040112004+42980+021950FM-12+023299999V0202501N005010150019N0100001N1+01581+00561100691ADDAA199000091GF108991081081012501999999MA1999999097981MD1610041+9999REMSYN066AAXX  01121 13389 32697 82505 10158 20056 39798 40069 56004 888//;EQDQ01  00002PRCP99
0172133890999992000040115004+42980+021950FM-12+023299999V0201201N002010150019N0200001N1+01541+00811100551ADDAA199000021AY161031AY211031GF107991071081012501001001MA1999999097841MD1710141+9999MW1211REMSYN072AAXX  01151 13389 31698 71202 10154 20081 39784 40055 57014 72161 87800;
0201133890999992000040118004+42980+021950FM-12+023299999V0200701N002010150019N0200001N1+01381+00791100501ADDAA112000191AY121061AY261061GF105991051081012501001001KA1999M+01671MA1999999097781MD1610061+9999MW1021REMSYN088AAXX  01181 13389 11698 50702 10138 20079 39778 40050 56006 69922 70226 85800 333 10167;
0144133890999992000040121004+42980+021950FM-12+023299999V0200201N001012200019N0200001N1+01021+00811100631ADDAA199000021GF102991021001999999031001MA1999999097871MD1110091+9999REMSYN066AAXX  01211 13389 32998 20201 10102 20081 39787 40063 51009 82030;
0178133890999992000040200004+42980+021950FM-12+023299999V0200901N001010150019N0100001N1+00981+00851100711ADDAA106001091AY191061AY221061GF106991061081012501001001MA1999999097941MD1110071+9999MW1211REMSYN078AAXX  02001 13389 11697 60901 10098 20085 39794 40071 51007 60011 72192 86800;
0144133890999992000040203004+42980+021950FM-12+023299999V0200201N001012200019N0100001N1+00921+00791100911ADDAA199000021GF103991031051012501001001MA1999999097941MD1410001+9999REMSYN066AAXX  02031 13389 32697 30201 10092 20079 39794 40091 54000 83500;
0203133890999992000040206004+42980+021950FM-12+023299999V0201801N001010150019N0200001N1+00801+00701100901ADDAA112001091GF106991061081012501001001IA1099IA2999+00209KA1120N+00701MA1999999098111MD1210171+9999REMSYN094AAXX  02061 13389 12698 61801 10080 20070 39811 40090 52017 60012 86800 333 20070 31002 55013;
0144133890999992000040209004+42980+021950FM-12+023299999V0202101N003012200019N0200001N1+01691+00421100861ADDAA199000021GF103991031081012501001001MA1999999098161MD1110051+9999REMSYN066AAXX  02091 13389 32698 32103 10169 20042 39816 40086 51005 83800;
0144133890999992000040212004+42980+021950FM-12+023299999V0202501N004010150019N0200001N1+01761-00021100861ADDAA199000021GF106991061081012501001001MA1999999098161MD1510001+9999REMSYN066AAXX  02121 13389 32698 62504 10176 21002 39816 40086 55000 86800;
0163133890999992000040215004+42980+021950FM-12+023299999V0200201N003012200019N0200001N1+01801+00061100851ADDAA199000091GF102991021081012501001001MA1999999098151MD1810011+9999REMSYN066AAXX  02151 13389 32698 20203 10180 20006 39815 40085 58001 82800;EQDQ01  00002PRCP99
0186133890999992000040218004+42980+021950FM-12+023299999V0202001N002012200019N0200001N1+01281+00151101021ADDAA199000091GF102991021081012501001001KA1999M+01941MA1999999098271MD1310121+9999REMSYN076AAXX  02181 13389 32698 22002 10128 20015 39827 40102 53012 82800 333 10194;EQDQ01  00002PRCP99
0173133890999992000040221004+42980+021950FM-12+023299999V0202001N001012200019N0200001N1+00771+00401101301ADDAA199000091GA1001+999999999GF100991001001999999001001MA1999999098501MD1210231+9999REMSYN060AAXX  02211 13389 32998 02001 10077 20040 39850 40130 52023;EQDQ01  00002PRCP99
0173133890999992000040300004+42980+021950FM-12+023299999V0209999C000012200019N0200001N1+00381+00231101411ADDAA199000091GA1001+999999999GF100991001001999999001001MA1999999098571MD1210071+9999REMSYN060AAXX  03001 13389 32998 00000 10038 20023 39857 40141 52007;EQDQ01  00002PRCP99
0173133890999992000040303004+42980+021950FM-12+023299999V0201601N001012200019N0200001N1+00221+00091101441ADDAA199000091GA1001+999999999GF100991001001999999001001MA1999999098541MD1410001+9999REMSYN060AAXX  03031 13389 32998 01601 10022 20009 39854 40144 54000;EQDQ01  00002PRCP99
0216133890999992000040306004+42980+021950FM-12+023299999V0202201N001019999999N0200001N1+00401+00251101471ADDAA199000091GF106991001001999999001061IA1099IA2999-00309KA1120N+00071MA1999999098571MD1410001+0861REMSYN088AAXX  03061 13389 32998 62201 10040 20025 39857 40147 54000 80006 333 20007 31103 58086;EQDQ01  00002PRCP99
0163133890999992000040309004+42980+021950FM-12+023299999V0209999C000019999999N0200001N1+01221+00251101261ADDAA199000091GF108991081001999999071999MA1999999098501MD1810071+9999REMSYN066AAXX  03091 13389 32998 80000 10122 20025 39850 40126 58007 8807/;EQDQ01  00002PRCP99
0163133890999992000040312004+42980+021950FM-12+023299999V0201401N002010360019N0200001N1+01781+00011100961ADDAA199000091GF108991011011012501071999MA1999999098261MD1710291+9999REMSYN066AAXX  03121 13389 32698 81402 10178 20001 39826 40096 57029 8117/;EQDQ01  00002PRCP99
0163133890999992000040315004+42980+021950FM-12+023299999V0201201N002019999999N0200001N1+02101-00091100631ADDAA199000091GF107991071001999999071001MA1999999097961MD1710301+9999REMSYN066AAXX  03151 13389 32998 71202 10210 21009 39796 40063 57030 87070;EQDQ01  00002PRCP99
0186133890999992000040318004+42980+021950FM-12+023299999V0201701N003019999999N0200001N1+02021-00191100541ADDAA199000091GF108991081001999999071999KA1999M+02181MA1999999097871MD1610091+9999REMSYN076AAXX  03181 13389 32998 81703 10202 21019 39787 40054 56009 8807/ 333 10218;EQDQ01  00002PRCP99
0163133890999992000040321004+42980+021950FM-12+023299999V0201601N004019999999N0200001N1+01781-00061100541ADDAA199000091GF108991081001999999071999MA1999999097851MD1610021+9999REMSYN066AAXX  03211 13389 32998 81604 10178 21006 39785 40054 56002 8807/;EQDQ01  00002PRCP99
0163133890999992000040400004+42980+021950FM-12+023299999V0201601N002010360019N0200001N1+01561+00201100521ADDAA199000091GF108991041051012501071999MA1999999097811MD1810041+9999REMSYN066AAXX  04001 13389 32698 81602 10156 20020 39781 40052 58004 8457/;EQDQ01  00002PRCP99
0163133890999992000040403004+42980+021950FM-12+023299999V0203601N002019999999N0200001N1+01401+00581100511ADDAA199000091GF107991071001999999071001MA1999999097791MD1510021+9999REMSYN066AAXX  04031 13389 32998 73602 10140 20058 39779 40051 55002 87070;EQDQ01  00002PRCP99
0216133890999992000040406004+42980+021950FM-12+023299999V0203601N002019999999N0200001N1+01381+00811100601ADDAA199000091GF107991071001999999071001IA1019IA2999+01009KA1120N+01331MA1999999097881MD1210091+9999REMSYN088AAXX  04061 13389 32998 73602 10138 20081 39788 40060 52009 87070 333 20133 30010 55014;EQDQ01  00002PRCP99
0163133890999992000040412004+42980+021950FM-12+023299999V0202101N003012200019N0200001N1+02441+01081100461ADDAA199000091GF104991011011012501001061MA1999999097831MD1810051+9999REMSYN066AAXX  04121 13389 32698 42103 10244 20108 39783 40046 58005 81106;EQDQ01  00002PRCP99
0173133890999992000040415004+42980+021950FM-12+023299999V0201701N003012200019N0100001N1+02451+00971100261ADDAA199000091GA1001+999999999GF100991001001999999001001MA1999999097641MD1710191+9999REMSYN060AAXX  04151 13389 32997 01703 10245 20097 39764 40026 57019;EQDQ01  00002PRCP99
0214133890999992000040418004+42980+021950FM-12+023299999V0209999C000010120019N0040001N1+02111+01081100181ADDAA199000091AY121061AY221061GF108991081051012501999999KA1999M+02501MA1999999097871MD1710131+9999MW1051REMSYN082AAXX  04181 13389 31696 80000 10211 20108 39787 40018 57013 70522 885// 333 10250;EQDQ01  00002PRCP99
0163133890999992000040421004+42980+021950FM-12+023299999V0201201N002010120019N0100001N1+01971+00941099991ADDAA199000091GF107991071051012501001001MA1999999097341MD1710171+9999REMSYN066AAXX  04211 13389 32697 71202 10197 20094 39734 49999 57017 87500;EQDQ01  00002PRCP99
0163133890999992000040500004+42980+021950FM-12+023299999V0200701N001012200019N0100001N1+01841+00881099651ADDAA199000091GF103991031051012501001001MA1999999096991MD1710351+9999REMSYN066AAXX  05001 13389 32697 30701 10184 20088 39699 49965 57035 83500;EQDQ01  00002PRCP99
0163133890999992000040503004+42980+021950FM-12+023299999V0201101N001012200019N0100001N1+01891+00861099161ADDAA199000091GF103991031051012501001001MA1999999096531MD1710471+9999REMSYN066AAXX  05031 13389 32697 31101 10189 20086 39653 49916 57047 83500;EQDQ01  00002PRCP99
0231133890999992000040506004+42980+021950FM-12+023299999V0201801N007010075019N0100001N1+01611+01111099101ADDAA112003091AY191061AY281061GF107991071091008001001001IA1099IA2999+01309KA1120N+01491MA1999999096441MD1510081+9999MW1911REMSYN100AAXX  05061 13389 11597 71807 10161 20111 39644 49910 55008 60032 79198 87900 333 20149 31013 55085;
0172133890999992000040509004+42980+021950FM-12+023299999V0202001N006010360019N0200001N1+01811+00811099211ADDAA199000021AY191031AY261031GF106991021081012501031011MA1999999096561MD1310121+9999MW1021REMSYN072AAXX  05091 13389 31698 62006 10181 20081 39656 49921 53012 70296 82831;
0178133890999992000040512004+42980+021950FM-12+023299999V0202301N010010360019N0500001N1+01701+00561099491ADDAA106001091AY191061AY261061GF107991031081012501071001MA1999999096831MD1210271+9999MW1021REMSYN078AAXX  05121 13389 11699 72310 10170 20056 39683 49949 52027 60011 70296 83870;
0144133890999992000040515004+42980+021950FM-12+023299999V0202001N007010150019N0500001N1+01641+00601099861ADDAA199000021GF107991071081012501001001MA1999999097181MD1210351+9999REMSYN066AAXX  05151 13389 32699 72007 10164 20060 39718 49986 52035 87800;
0192133890999992000040518004+42980+021950FM-12+023299999V0202201N005012200019N0200001N1+01431+00401100311ADDAA112001091GF101991999051012501031001KA1999M+01901MA1999999097601MD1210421+9999REMSYN082AAXX  05181 13389 12698 12205 10143 20040 39760 40031 52042 60012 82530 333 10190;EQDQ01+000022SCOTLC
0163133890999992000040521004+42980+021950FM-12+023299999V0202201N004012200019N0200001N1+01321+00351100611ADDAA199000091GF102991021001999999031001MA1999999097481MD1210281+9999REMSYN066AAXX  05211 13389 32998 22204 10132 20035 39748 40061 52028 82030;EQDQ01  00002PRCP99
0173133890999992000040600004+42980+021950FM-12+023299999V0202101N002012200019N0200001N1+00841+00421100761ADDAA199000091GA1001+999999999GF100991001001999999001001MA1999999097981MD1210101+9999REMSYN060AAXX  06001 13389 32998 02102 10084 20042 39798 40076 52010;EQDQ01  00002PRCP99
0163133890999992000040603004+42980+021950FM-12+023299999V0202001N002012200019N0200001N1+00821+00561100711ADDAA199000091GF101991011001999999031001MA1999999098011MD1310031+9999REMSYN066AAXX  06031 13389 32998 12002 10082 20056 39801 40071 53003 81030;EQDQ01  00002PRCP99
0163133890999992000040609004+42980+021950FM-12+023299999V0202401N004010150019N0200001N1+01631+00621100801ADDAA199000091GF107991051081012501001011MA1999999098091MD1610011+9999REMSYN066AAXX  06091 13389 32698 72404 10163 20062 39809 40080 56001 85801;EQDQ01  00002PRCP99
0178133890999992000040612004+42980+021950FM-12+023299999V0203501N003010075019N0200001N1+01431+00681100911ADDAA106000791AY161061AY221061GF107991071091008001001001MA1999999098181MD1310091+9999MW1601REMSYN078AAXX  06121 13389 11598 73503 10143 20068 39818 40091 53009 69901 76062 87900;
0172133890999992000040615004+42980+021950FM-12+023299999V0202201N002010120019N0200001N1+01061+00901101071ADDAA199000021AY191031AY261031GF108991081081008001999999MA1999999098311MD1110131+9999MW1021REMSYN072AAXX  06151 13389 31598 82202 10106 20090 39831 40107 51013 70296 888//;
0201133890999992000040618004+42980+021950FM-12+023299999V0209999C000010120019N0200001N1+01091+00661101261ADDAA112003091AY191061AY261061GF107991071081008001001001KA1999M+01821MA1999999098491MD1210181+9999MW1021REMSYN088AAXX  06181 13389 11598 70000 10109 20066 39849 40126 52018 60032 70296 87800 333 10182;
0144133890999992000040621004+42980+021950FM-12+023299999V0203401N004010120019N0200001N1+00741-00021101661ADDAA199000021GF108991081051012501999999MA1999999098831MD1210341+9999REMSYN066AAXX  06211 13389 32698 83404 10074 21002 39883 40166 52034 885//;
0144133890999992000040700004+42980+021950FM-12+023299999V0203601N002010120019N0200001N1+00601-00151101881ADDAA199000021GF108991081051012501999999MA1999999099041MD1210211+9999REMSYN066AAXX  07001 13389 32698 83602 10060 21015 39904 40188 52021 885//;
0163133890999992000040703004+42980+021950FM-12+023299999V0203101N002012200019N0200001N1+00361-00481102001ADDAA199000091GF102991021051012501001001MA1999999099131MD1210091+9999REMSYN066AAXX  07031 13389 32698 23102 10036 21048 39913 40200 52009 82500;EQDQ01  00002PRCP99
0216133890999992000040706004+42980+021950FM-12+023299999V0202501N001010120019N0200001N1+00421-00401102121ADDAA199000091GF107991071051012501001001IA1099IA2999-00209KA1120N+00241MA1999999099251MD1210121+9999REMSYN088AAXX  07061 13389 32698 72501 10042 21040 39925 40212 52012 87500 333 20024 31102 55023;EQDQ01  00002PRCP99
0163133890999992000040709004+42980+021950FM-12+023299999V0203001N004010150019N0200001N1+00601-00331102131ADDAA199000091GF107991071081012501001001MA1999999099281MD1110031+9999REMSYN066AAXX  07091 13389 32698 73004 10060 21033 39928 40213 51003 87800;EQDQ01  00002PRCP99
0163133890999992000040712004+42980+021950FM-12+023299999V0203201N004010150019N0200001N1+00711-00441102021ADDAA199000091GF107991071081012501001001MA1999999099181MD1810101+9999REMSYN066AAXX  07121 13389 32698 73204 10071 21044 39918 40202 58010 87800;EQDQ01  00002PRCP99
0163133890999992000040715004+42980+021950FM-12+023299999V0203201N004010150019N0200001N1+00771-00481101941ADDAA199000091GF107991071081012501001001MA1999999099121MD1610061+9999REMSYN066AAXX  07151 13389 32698 73204 10077 21048 39912 40194 56006 87800;EQDQ01  00002PRCP99
0186133890999992000040718004+42980+021950FM-12+023299999V0202901N003012200019N0200001N1+00551-00531102091ADDAA199000091GF101991011051012501001001KA1999M+00881MA1999999099231MD1310111+9999REMSYN076AAXX  07181 13389 32698 12903 10055 21053 39923 40209 53011 81500 333 10088;EQDQ01  00002PRCP99
0157133890999992000040721004+42980+021950FM-12+023299999V0201901N002012200019N0200001N1+00091-00221102211ADDAA199000091GF101991999999999999999999MA1999999099681MD1110121+9999REMSYN060AAXX  07211 13389 32998 11902 10009 21022 39968 40221 51012;EQDQ01  00002PRCP99
0163133890999992000040800004+42980+021950FM-12+023299999V0209999C000010360019N0200001N1+00031-00191102211ADDAA199000091GF107991041051012501031001MA1999999099301MD1810041+9999REMSYN066AAXX  08001 13389 32698 70000 10003 21019 39930 40221 58004 84530;EQDQ01  00002PRCP99
0173133890999992000040803004+42980+021950FM-12+023299999V0209999C000012200019N0100001N1-00231-00331102161ADDAA199000091GA1001+999999999GF100991001001999999001001MA1999999099231MD1710071+9999REMSYN060AAXX  08031 13389 32997 00000 11023 21033 39923 40216 57007;EQDQ01  00002PRCP99
0247133890999992000040806004+42980+021950FM-12+023299999V0203201N001010120019N0200001N1+00121-00061102121ADDAA112000791AL10699999AY111061AY271061GF107991071051012501001001IA1099IA2999-00409KA1120N-00251MA1999999099291MD1310061+9999MW1021REMSYN106AAXX  08061 13389 11698 73201 10012 21006 39929 40212 53006 69902 70217 87500 333 21025 31104 55010 93197;
0163133890999992000040809004+42980+021950FM-12+023299999V0200701N002010120019N0100001N1+00581-00291102091ADDAA199000091GF108991081051012501999999MA1999999099241MD1810051+9999REMSYN066AAXX  08091 13389 32697 80702 10058 21029 39924 40209 58005 885//;EQDQ01  00002PRCP99
0172133890999992000040815004+42980+021950FM-12+023299999V0200601N002010150019N0100001N1+00501+00281101901ADDAA199000021AY161031AY221031GF106991061081012501001001MA1999999099051MD1610131+9999MW1211REMSYN072AAXX  08151 13389 31697 60602 10050 20028 39905 40190 56013 72162 86800;
0184133890999992000040818004+42980+021950FM-12+023299999V0203301N002010150019N0100001N1+00521+00181101961ADDAY161061AY221061GF107991071081012501001001KA1999M+00801MA1999999099101MD1310041+9999MW1611REMSYN082AAXX  08181 13389 11697 73302 10052 20018 39910 40196 53004 76162 87800 333 10080;
0172133890999992000040821004+42980+021950FM-12+023299999V0201601N002010150019N0100001N1+00471+00301102091ADDAA199000021AY161031AY261031GF107991071081012501001001MA1999999099241MD1110041+9999MW1211REMSYN072AAXX  08211 13389 31697 71602 10047 20030 39924 40209 51004 72166 87800;
0188133890999992000040900004+42980+021950FM-12+023299999V0201001N001012200019N0100001N1+00241-00041102091ADDAA106001091AY121061AY261061GA1001+999999999GF100991001001999999001001MA1999999099201MD1810041+9999MW1011REMSYN072AAXX  09001 13389 11997 01001 10024 21004 39920 40209 58004 60011 70126;
0144133890999992000040903004+42980+021950FM-12+023299999V0201501N001012200019N0100001N1+00041-00151102141ADDAA199000021GF104991041001999999031001MA1999999099231MD1310031+9999REMSYN066AAXX  09031 13389 32997 41501 10004 21015 39923 40214 53003 84030;
0203133890999992000040906004+42980+021950FM-12+023299999V0209999C000012200019N0200001N1+00141-00021102261ADDAA112001091GF104991041081012501001001IA1099IA2999-00409KA1120N-00331MA1999999099351MD1210121+9999REMSYN094AAXX  09061 13389 12698 40000 10014 21002 39935 40226 52012 60012 84800 333 21033 31104 55015;
0144133890999992000040909004+42980+021950FM-12+023299999V0200201N002012200019N0200001N1+00861-00611102091ADDAA199000021GF102991021021012501001001MA1999999099271MD1710081+9999REMSYN066AAXX  09091 13389 32698 20202 10086 21061 39927 40209 57008 82200;
0163133890999992000040912004+42980+021950FM-12+023299999V0200701N002012200019N0200001N1+01141-00531101961ADDAA199000091GF102991021021012501001001MA1999999099161MD1710111+9999REMSYN066AAXX  09121 13389 32698 20702 10114 21053 39916 40196 57011 82200;EQDQ01  00002PRCP99
0163133890999992000040915004+42980+021950FM-12+023299999V0200701N002012200019N0200001N1+01181-00611101761ADDAA199000091GF105991011021012501001011MA1999999098981MD1710181+9999REMSYN066AAXX  09151 13389 32698 50702 10118 21061 39898 40176 57018 81201;EQDQ01  00002PRCP99
0186133890999992000040918004+42980+021950FM-12+023299999V0201601N001012200019N0200001N1+00741-00251101751ADDAA199000091GF103991001001999999001011KA1999M+01221MA1999999098921MD1610061+9999REMSYN076AAXX  09181 13389 32998 31601 10074 21025 39892 40175 56006 80001 333 10122;EQDQ01  00002PRCP99
0173133890999992000040921004+42980+021950FM-12+023299999V0201901N001012200019N0200001N1+00301-00251101851ADDAA199000091GA1001+999999999GF100991001001999999001001MA1999999098921MD1110061+9999REMSYN060AAXX  09211 13389 32998 01901 10030 21025 39892 40185 51006;EQDQ01  00002PRCP99
0173133890999992000041000004+42980+021950FM-12+023299999V0209999C000012200019N0200001N1-00021-00291101821ADDAA199000091GA1001+999999999GF100991001001999999001001MA1999999098921MD1610061+9999REMSYN060AAXX  10001 13389 32998 00000 11002 21029 39892 40182 56006;EQDQ01  00002PRCP99
0173133890999992000041003004+42980+021950FM-12+023299999V0200401N001012200019N0200001N1-00101-00291101811ADDAA199000091GA1001+999999999GF100991001001999999001001MA1999999098901MD1610021+9999REMSYN060AAXX  10031 13389 32998 00401 11010 21029 39890 40181 56002;EQDQ01  00002PRCP99
0216133890999992000041006004+42980+021950FM-12+023299999V0209999C000012200019N0200001N1+00181-00121101781ADDAA199000091GF103991011001999999031011IA1099IA2999-00509KA1120N-00121MA1999999098901MD1410001+9999REMSYN088AAXX  10061 13389 32998 30000 10018 21012 39890 40178 54000 81031 333 21012 31105 55109;EQDQ01  00002PRCP99
0163133890999992000041009004+42980+021950FM-12+023299999V0203601N002019999999N0200001N1+01301-00221101501ADDAA199000091GF105991011001999999031011MA1999999098741MD1810161+9999REMSYN066AAXX  10091 13389 32998 53602 10130 21022 39874 40150 58016 81031;EQDQ01  00002PRCP99
0163133890999992000041012004+42980+021950FM-12+023299999V0202001N003010360019N0200001N1+01821-00151101451ADDAA199000091GF106991011011012501031011MA1999999098431MD1710311+9999REMSYN066AAXX  10121 13389 32698 62003 10182 21015 39843 40145 57031 81131;EQDQ01  00002PRCP99
0163133890999992000041015004+42980+021950FM-12+023299999V0202201N004019999999N0200001N1+01691-00221100871ADDAA199000091GF107991071001999999071001MA1999999098161MD1710271+9999REMSYN066AAXX  10151 13389 32998 72204 10169 21022 39816 40087 57027 87070;EQDQ01  00002PRCP99
0186133890999992000041018004+42980+021950FM-12+023299999V0202001N002019999999N0200001N1+01311-00331100921ADDAA199000091GF108991081001999999071999KA1999M+01931MA1999999098171MD1310011+9999REMSYN076AAXX  10181 13389 32998 82002 10131 21033 39817 40092 53001 8807/ 333 10193;EQDQ01  00002PRCP99
0163133890999992000041021004+42980+021950FM-12+023299999V0201401N002019999999N0200001N1+01241-00251100911ADDAA199000091GF108991081001999999071999MA1999999098151MD1810021+9999REMSYN066AAXX  10211 13389 32998 81402 10124 21025 39815 40091 58002 8807/;EQDQ01  00002PRCP99
0178133890999992000041100004+42980+021950FM-12+023299999V0200301N001010360019N0040001N1+00861+00421100941ADDAA106000591AY161061AY221061GF108991041071008001021999MA1999999098161MD1310011+9999MW1611REMSYN078AAXX  11001 13389 11596 80301 10086 20042 39816 40094 53001 69941 76162 8472/;
0172133890999992000041103004+42980+021950FM-12+023299999V0209999C000010360019N0040001N1+00761+00491100781ADDAA199000021AY161031AY261031GF108991031071008001021999MA1999999098001MD1810161+9999MW1611REMSYN072AAXX  11031 13389 31596 80000 10076 20049 39800 40078 58016 76166 8372/;
0231133890999992000041106004+42980+021950FM-12+023299999V0201501N001010360019N0200001N1+00781+00401100781ADDAA112001091AY161061AY261061GF108991041061008001071999IA1099IA2999+00609KA1120N+00751MA1999999098001MD1410001+9999MW1211REMSYN100AAXX  11061 13389 11598 81501 10078 20040 39800 40078 54000 60012 72166 8467/ 333 20075 31006 55089;
0144133890999992000041109004+42980+021950FM-12+023299999V0200701N001010360019N0200001N1+00941+00281100721ADDAA199000021GF108991031051012501071999MA1999999097951MD1810051+9999REMSYN066AAXX  11091 13389 32698 80701 10094 20028 39795 40072 58005 8357/;
0144133890999992000041112004+42980+021950FM-12+023299999V0203601N001010150019N0200001N1+01211+00151100651ADDAA199000021GF108991081081012501999999MA1999999097911MD1810041+9999REMSYN066AAXX  11121 13389 32698 83601 10121 20015 39791 40065 58004 888//;
0144133890999992000041115004+42980+021950FM-12+023299999V0209999C000010150019N0200001N1+01341+00121100571ADDAA199000021GF107991071081012501001001MA1999999097851MD1610081+9999REMSYN066AAXX  11151 13389 32698 70000 10134 20012 39785 40057 56008 87800;
0167133890999992000041118004+42980+021950FM-12+023299999V0201801N001010120019N0200001N1+01191+00381100581ADDAA199000021GF107991071051012501001001KA1999M+01401MA1999999097841MD1310011+9999REMSYN076AAXX  11181 13389 32698 71801 10119 20038 39784 40058 53001 87500 333 10140;
0173133890999992000041121004+42980+021950FM-12+023299999V0203401N001012200019N0200001N1+00721+00301100731ADDAA199000091GA1001+999999999GF100991001001999999001001MA1999999097941MD1110101+9999REMSYN060AAXX  11211 13389 32998 03401 10072 20030 39794 40073 51010;EQDQ01  00002PRCP99
0163133890999992000041200004+42980+021950FM-12+023299999V0201801N001012200019N0200001N1+00351+00151100861ADDAA199000091GF102991021001999999031001MA1999999097941MD1410001+9999REMSYN066AAXX  12001 13389 32998 21801 10035 20015 39794 40086 54000 82030;EQDQ01  00002PRCP99
0173133890999992000041203004+42980+021950FM-12+023299999V0201601N002012200019N0200001N1+00381+00181100741ADDAA199000091GA1001+999999999GF100991001001999999001001MA1999999097921MD1810021+9999REMSYN060AAXX  12031 13389 32998 01602 10038 20018 39792 40074 58002;EQDQ01  00002PRCP99
0216133890999992000041206004+42980+021950FM-12+023299999V0201601N001019999999N0200001N1+00631+00401100691ADDAA199000091GF105991021001999999031011IA1099IA2999+00009KA1120N+00311MA1999999097891MD1810031+9999REMSYN088AAXX  12061 13389 32998 51601 10063 20040 39789 40069 58003 82031 333 20031 31100 55000;EQDQ01  00002PRCP99
0163133890999992000041209004+42980+021950FM-12+023299999V0201201N002012200019N0200001N1+01601+00451100521ADDAA199000091GF106991011021012501001061MA1999999097821MD1610071+9999REMSYN066AAXX  12091 13389 32698 61202 10160 20045 39782 40052 56007 81206;EQDQ01  00002PRCP99
0163133890999992000041212004+42980+021950FM-12+023299999V0202201N002012200019N0200001N1+02021+00451100341ADDAA199000091GF107991031021012501001011MA1999999097681MD1710141+9999REMSYN066AAXX  12121 13389 32698 72202 10202 20045 39768 40034 57014 83201;EQDQ01  00002PRCP99
0163133890999992000041215004+42980+021950FM-12+023299999V0202201N003012200019N0200001N1+02241+00651100221ADDAA199000091GF105991031021012501001011MA1999999097581MD1710101+9999REMSYN066AAXX  12151 13389 32698 52203 10224 20065 39758 40022 57010 83201;EQDQ01  00002PRCP99
0196133890999992000041218004+42980+021950FM-12+023299999V0209999C000012200019N0200001N1+01521+00331100381ADDAA199000091GA1001+999999999GF100991001001999999001001KA1999M+02241MA1999999097671MD1310091+9999REMSYN070AAXX  12181 13389 32998 00000 10152 20033 39767 40038 53009 333 10224;EQDQ01  00002PRCP99
0173133890999992000041221004+42980+021950FM-12+023299999V0203301N001012200019N0200001N1+00901+00621100611ADDAA199000091GA1001+999999999GF100991001001999999001001MA1999999097841MD1210171+9999REMSYN060AAXX  12211 13389 32998 03301 10090 20062 39784 40061 52017;EQDQ01  00002PRCP99
0173133890999992000041300004+42980+021950FM-12+023299999V0202001N002012200019N0200001N1+00601+00471100751ADDAA199000091GA1001+999999999GF100991001001999999001001MA1999999097951MD1210111+9999REMSYN060AAXX  13001 13389 32998 02002 10060 20047 39795 40075 52011;EQDQ01  00002PRCP99
0163133890999992000041303004+42980+021950FM-12+023299999V0209999C000012200019N0200001N1+00391+00301100901ADDAA199000091GF101991011001999999031001MA1999999098071MD1210121+9999REMSYN066AAXX  13031 13389 32998 10000 10039 20030 39807 40090 52012 81030;EQDQ01  00002PRCP99
0216133890999992000041306004+42980+021950FM-12+023299999V0201001N001012200019N0200001N1+01031+00601100901ADDAA199000091GF101991001001999999001011IA1099IA2999+00009KA1120N+00391MA1999999098221MD1210151+9999REMSYN088AAXX  13061 13389 32998 11001 10103 20060 39822 40090 52015 80001 333 20039 31000 55091;EQDQ01  00002PRCP99
0163133890999992000041309004+42980+021950FM-12+023299999V0203401N002012200019N0200001N1+01901+00451100911ADDAA199000091GF103991011011012501001011MA1999999098231MD1110011+9999REMSYN066AAXX  13091 13389 32698 33402 10190 20045 39823 40091 51001 81101;EQDQ01  00002PRCP99
0163133890999992000041312004+42980+021950FM-12+023299999V0203601N002012200019N0200001N1+02261+00511100691ADDAA199000091GF102991021011012501001001MA1999999098051MD1810201+9999REMSYN066AAXX  13121 13389 32698 23602 10226 20051 39805 40069 58020 82100;EQDQ01  00002PRCP99
0163133890999992000041315004+42980+021950FM-12+023299999V0203001N004012200019N0200001N1+02491+00421100541ADDAA199000091GF101991011011012501001001MA1999999097921MD1610131+9999REMSYN066AAXX  13151 13389 32698 13004 10249 20042 39792 40054 56013 81100;EQDQ01  00002PRCP99
0186133890999992000041318004+42980+021950FM-12+023299999V0202501N006012200019N0200001N1+01941+00041100751ADDAA199000091GF101991011001999999031001KA1999M+02491MA1999999098061MD1310141+9999REMSYN076AAXX  13181 13389 32998 12506 10194 20004 39806 40075 53014 81030 333 10249;EQDQ01  00002PRCP99
0173133890999992000041321004+42980+021950FM-12+023299999V0200801N001012200019N0200001N1+01311-00021101051ADDAA199000091GA1001+999999999GF100991001001999999001001MA1999999098301MD1210241+9999REMSYN060AAXX  13211 13389 32998 00801 10131 21002 39830 40105 52024;EQDQ01  00002PRCP99
0163133890999992000041400004+42980+021950FM-12+023299999V0200601N001012200019N0200001N1+00921+00181101161ADDAA199000091GF102991001001999999001011MA1999999098371MD1210071+9999REMSYN066AAXX  14001 13389 32998 20601 10092 20018 39837 40116 52007 80001;EQDQ01  00002PRCP99
0163133890999992000041403004+42980+021950FM-12+023299999V0200901N002012200019N0200001N1+00701+00331101311ADDAA199000091GF102991001001999999001011MA1999999098501MD1210131+9999REMSYN066AAXX  14031 13389 32998 20902 10070 20033 39850 40131 52013 80001;EQDQ01  00002PRCP99
0216133890999992000041406004+42980+021950FM-12+023299999V0201201N001019999999N0200001N1+01141+00331101401ADDAA199000091GF106991001001999999001061IA1019IA2999+00109KA1120N+00651MA1999999098631MD1210131+9999REMSYN088AAXX  14061 13389 32998 61201 10114 20033 39863 40140 52013 80006 333 20065 30001 55024;EQDQ01  00002PRCP99
0163133890999992000041409004+42980+021950FM-12+023299999V0200701N002012200019N0200001N1+01991+00561101211ADDAA199000091GF106991011011012501001061MA1999999098531MD1810101+9999REMSYN066AAXX  14091 13389 32698 60702 10199 20056 39853 40121 58010 81106;EQDQ01  00002PRCP99
0163133890999992000041415004+42980+021950FM-12+023299999V0200601N002012200019N0200001N1+02381+00511100861ADDAA199000091GF101991001001999999001011MA1999999098161MD1710191+9999REMSYN066AAXX  14151 13389 32998 10602 10238 20051 39816 40086 57019 80001;EQDQ01  00002PRCP99
0186133890999992000041418004+42980+021950FM-12+023299999V0209999C000019999999N0200001N1+01771+00381100841ADDAA199000091GF106991061001999999071001KA1999M+02471MA1999999098161MD1510001+9999REMSYN076AAXX  14181 13389 32998 60000 10177 20038 39816 40084 55000 86070 333 10247;EQDQ01  00002PRCP99
0173133890999992000041421004+42980+021950FM-12+023299999V0200701N001012200019N0200001N1+01201+00481101041ADDAA199000091GA1001+999999999GF100991001001999999001001MA1999999098291MD1210131+9999REMSYN060AAXX  14211 13389 32998 00701 10120 20048 39829 40104 52013;EQDQ01  00002PRCP99
0173133890999992000041500004+42980+021950FM-12+023299999V0203101N001012200019N0200001N1+00881+00581101071ADDAA199000091GA1001+999999999GF100991001001999999001001MA1999999098291MD1410001+9999REMSYN060AAXX  15001 13389 32998 03101 10088 20058 39829 40107 54000;EQDQ01  00002PRCP99
0163133890999992000041503004+42980+021950FM-12+023299999V0201801N001012200019N0200001N1+00941+00531101071ADDAA199000091GF104991041001999999031001MA1999999098291MD1410001+9999REMSYN066AAXX  15031 13389 32998 41801 10094 20053 39829 40107 54000 84030;EQDQ01  00002PRCP99
0216133890999992000041506004+42980+021950FM-12+023299999V0201901N001010120019N0200001N1+01161+00681101181ADDAA199000091GF108991081051012501999999IA1019IA2999+00309KA1120N+00761MA1999999098431MD1210141+9999REMSYN088AAXX  15061 13389 32698 81901 10116 20068 39843 40118 52014 885// 333 20076 30003 55103;EQDQ01  00002PRCP99
0163133890999992000041509004+42980+021950FM-12+023299999V0200901N001010360019N0200001N1+01661+00831101141ADDAA199000091GF108991021081012501071999MA1999999098431MD1010001+9999REMSYN066AAXX  15091 13389 32698 80901 10166 20083 39843 40114 50000 8287/;EQDQ01  00002PRCP99
0163133890999992000041512004+42980+021950FM-12+023299999V0200301N003019999999N0200001N1+02161+00471100871ADDAA199000091GF108991081001999999071999MA1999999098271MD1710221+9999REMSYN066AAXX  15121 13389 32998 80303 10216 20047 39827 40087 57022 8807/;EQDQ01  00002PRCP99
0163133890999992000041515004+42980+021950FM-12+023299999V0200201N001019999999N0200001N1+02351+00281100681ADDAA199000091GF108991081001999999071999MA1999999098051MD1610161+9999REMSYN066AAXX  15151 13389 32998 80201 10235 20028 39805 40068 56016 8807/;EQDQ01  00002PRCP99
0186133890999992000041518004+42980+021950FM-12+023299999V0209999C000019999999N0200001N1+01821+00511100841ADDAA199000091GF108991081001999999071999KA1999M+02381MA1999999098151MD1310101+9999REMSYN076AAXX  15181 13389 32998 80000 10182 20051 39815 40084 53010 8807/ 333 10238;EQDQ01  00002PRCP99
0178133890999992000041600004+42980+021950FM-12+023299999V0200901N002019999999N0200001N1+01671+00761100881ADDAA106000791AY121061AY261061GF108991081001999999071999MA1999999098181MD1810091+9999MW1021REMSYN078AAXX  16001 13389 31998 80902 10167 20076 39818 40088 58009 69901 70226 8807/;
0163133890999992000041603004+42980+021950FM-12+023299999V0209999C000019999999N0200001N1+01261+00881100961ADDAA199000091GF108991081001999999071999MA1999999098221MD1310041+9999REMSYN066AAXX  16031 13389 32998 80000 10126 20088 39822 40096 53004 8807/;EQDQ01  00002PRCP99
0203133890999992000041606004+42980+021950FM-12+023299999V0201801N001012200019N0200001N1+01341+00951101071ADDAA112000791GF103991001001999999001011IA1019IA2999+00709KA1120N+01151MA1999999098331MD1210111+9999REMSYN094AAXX  16061 13389 12998 31801 10134 20095 39833 40107 52011 69902 80001 333 20115 30007 55000;
0163133890999992000041609004+42980+021950FM-12+023299999V0200401N001012200019N0200001N1+02141+00831101021ADDAA199000091GF102991001001999999001011MA1999999098351MD1110021+9999REMSYN066AAXX  16091 13389 32998 20401 10214 20083 39835 40102 51002 80001;EQDQ01  00002PRCP99
0163133890999992000041612004+42980+021950FM-12+023299999V0201401N002012200019N0200001N1+02621+00621100801ADDAA199000091GF101991011021012501001001MA1999999098181MD1710171+9999REMSYN066AAXX  16121 13389 32698 11402 10262 20062 39818 40080 57017 81200;EQDQ01  00002PRCP99
0163133890999992000041615004+42980+021950FM-12+023299999V0200501N002012200019N0200001N1+02681+00421100611ADDAA199000091GF103991001001999999001011MA1999999098001MD1810181+9999REMSYN066AAXX  16151 13389 32998 30502 10268 20042 39800 40061 58018 80001;EQDQ01  00002PRCP99
0186133890999992000041618004+42980+021950FM-12+023299999V0201801N001012200019N0200001N1+02001+00451100671ADDAA199000091GF101991001001999999001011KA1999M+02721MA1999999098081MD1310081+9999REMSYN076AAXX  16181 13389 32998 11801 10200 20045 39808 40067 53008 80001 333 10272;EQDQ01  00002PRCP99
0163133890999992000041621004+42980+021950FM-12+023299999V0203401N002012200019N0200001N1+01351+00721100951ADDAA199000091GF103991001001999999001011MA1999999098221MD1210141+9999REMSYN066AAXX  16211 13389 32998 33402 10135 20072 39822 40095 52014 80001;EQDQ01  00002PRCP99
0162133890999992000041700004+42980+021950FM-12+023299999V0201401N001012200019N0200001N1+01001+00701101001ADDAA199000091GF104991001001999999001011MA1999999098231MD1110011+9999REMSYN065AAXX  17001 13389 32998 41401 10100 2007039823 40100 51001 80001;EQDQ01  00002PRCP99
0216133890999992000041706004+42980+021950FM-12+023299999V0201801N002012200019N0200001N1+01191+00721101021ADDAA199000091GF103991001001999999001011IA1019IA2999+00209KA1120N+00691MA1999999098271MD1210021+9999REMSYN088AAXX  17061 13389 32998 31802 10119 20072 39827 40102 52002 80001 333 20069 30002 55081;EQDQ01  00002PRCP99
0163133890999992000041709004+42980+021950FM-12+023299999V0203601N002012200019N0200001N1+02241+00681100771ADDAA199000091GF102991001001999999001011MA1999999098121MD1710151+9999REMSYN066AAXX  17091 13389 32998 23602 10224 20068 39812 40077 57015 80001;EQDQ01  00002PRCP99
0163133890999992000041712004+42980+021950FM-12+023299999V0202701N002012200019N0200001N1+02781+00701100431ADDAA199000091GF103991011021012501001011MA1999999097841MD1710281+9999REMSYN066AAXX  17121 13389 32698 32702 10278 20070 39784 40043 57028 81201;EQDQ01  00002PRCP99
0163133890999992000041715004+42980+021950FM-12+023299999V0202901N002012200019N0200001N1+02941+00701100251ADDAA199000091GF106991041081012501001011MA1999999097661MD1710181+9999REMSYN066AAXX  17151 13389 32698 62902 10294 20070 39766 40025 57018 84801;EQDQ01  00002PRCP99
0214133890999992000041718004+42980+021950FM-12+023299999V0200901N003010150019N0200001N1+02341+00301100331ADDAA199000091AY191061AY221061GF107991071081012501001001KA1999M+02941MA1999999097721MD1310061+9999MW1021REMSYN082AAXX  17181 13389 31698 70903 10234 20030 39772 40033 53006 70292 87800 333 10294;EQDQ01  00002PRCP99
0163133890999992000041721004+42980+021950FM-12+023299999V0200901N002010360019N0200001N1+01961+00421100381ADDAA199000091GF106991041081008001031001MA1999999097721MD1410001+9999REMSYN066AAXX  17211 13389 32598 60902 10196 20042 39772 40038 54000 84830;EQDQ01  00002PRCP99
0163133890999992000041800004+42980+021950FM-12+023299999V0202201N001012200019N0200001N1+01661+00561100531ADDAA199000091GF104991021021012501031001MA1999999097841MD1210121+9999REMSYN066AAXX  18001 13389 32698 42201 10166 20056 39784 40053 52012 82230;EQDQ01  00002PRCP99
0173133890999992000041803004+42980+021950FM-12+023299999V0201601N001012200019N0200001N1+01401+00641100481ADDAA199000091GA1001+999999999GF100991001001999999001001MA1999999097761MD1610081+9999REMSYN060AAXX  18031 13389 32998 01601 10140 20064 39776 40048 56008;EQDQ01  00002PRCP99
0232133890999992000041806004+42980+021950FM-12+023299999V0209999C000012200019N0200001N1+01281+00661100491ADDAA199000091GA1001+999999999GF100991001001999999001001IA1019IA2999+00509KA1120N+01021MA1999999097861MD1310101+9999REMSYN088AAXX  18061 13389 32998 00000 10128 20066 39786 40049 53010 80001 333 20102 30005 55108;EQDQ01  00002PRCP99
0163133890999992000041809004+42980+021950FM-12+023299999V0202701N002019999999N0200001N1+02041+00461100471ADDAA199000091GF107991011001999999031061MA1999999097811MD1810051+9999REMSYN066AAXX  18091 13389 32998 72702 10204 20046 39781 40047 58005 81036;EQDQ01  00002PRCP99
0163133890999992000041812004+42980+021950FM-12+023299999V0203301N002010360019N0200001N1+02471+00581100211ADDAA199000091GF107991021021012501041061MA1999999097601MD1710211+9999REMSYN066AAXX  18121 13389 32698 73302 10247 20058 39760 40021 57021 82246;EQDQ01  00002PRCP99
0173133890999992000041815004+42980+021950FM-12+023299999V0200601N005012200019N0200001N1+02461+00511100021ADDAA199000091GF102991021021012501001001MA1999999097411MD1610191+9999REMSYN076AAXX  18151 13389 32698 20605 10246 20051 39741 40002 56019 82200 333 91113;EQDQ01  00002PRCP99
0186133890999992000041818004+42980+021950FM-12+023299999V0201101N001012200019N0200001N1+02001+00331100211ADDAA199000091GF104991021021012501001011KA1999M+02651MA1999999097551MD1310141+9999REMSYN076AAXX  18181 13389 32698 41101 10200 20033 39755 40021 53014 82201 333 10265;EQDQ01  00002PRCP99
0163133890999992000041821004+42980+021950FM-12+023299999V0200701N004012200019N0200001N1+01881+00581100351ADDAA199000091GF107991041081012501001011MA1999999097681MD1110131+9999REMSYN066AAXX  18211 13389 32698 70704 10188 20058 39768 40035 51013 84801;EQDQ01  00002PRCP99
0163133890999992000041900004+42980+021950FM-12+023299999V0200401N001010360019N0200001N1+01651+00741100381ADDAA199000091GF106991031051012501031001MA1999999097681MD1410001+9999REMSYN066AAXX  19001 13389 32698 60401 10165 20074 39768 40038 54000 83530;EQDQ01  00002PRCP99
0163133890999992000041903004+42980+021950FM-12+023299999V0202001N001012200019N0200001N1+00981+00771100381ADDAA199000091GF102991021001999999031001MA1999999097581MD1810101+9999REMSYN066AAXX  19031 13389 32998 22001 10098 20077 39758 40038 58010 82030;EQDQ01  00002PRCP99
0216133890999992000041906004+42980+021950FM-12+023299999V0209999C000019999999N0200001N1+01061+00811100401ADDAA199000091GF107991031001999999031011IA1019IA2999+00409KA1120N+00821MA1999999097681MD1310081+9999REMSYN088AAXX  19061 13389 32998 70000 10106 20081 39768 40040 53008 83031 333 20082 30004 55111;EQDQ01  00002PRCP99
0163133890999992000041909004+42980+021950FM-12+023299999V0203301N002012200019N0200001N1+01861+00831100301ADDAA199000091GF104991021021012501031011MA1999999097631MD1810031+9999REMSYN066AAXX  19091 13389 32698 43302 10186 20083 39763 40030 58003 82231;EQDQ01  00002PRCP99
0163133890999992000041912004+42980+021950FM-12+023299999V0203401N005010360019N0200001N1+02381+00601100041ADDAA199000091GF105991031011012501031011MA1999999097421MD1710211+9999REMSYN066AAXX  19121 13389 32698 53405 10238 20060 39742 40004 57021 83131;EQDQ01  00002PRCP99
0163133890999992000041915004+42980+021950FM-12+023299999V0200601N006010150019N0200001N1+02231+00401100021ADDAA199000091GF107991071081012501001001MA1999999097391MD1510031+9999REMSYN066AAXX  19151 13389 32698 70606 10223 20040 39739 40002 55003 87800;EQDQ01  00002PRCP99
0186133890999992000041918004+42980+021950FM-12+023299999V0200101N002010150019N0200001N1+01901+00681100221ADDAA199000091GF108991081081012501999999KA1999M+02431MA1999999097551MD1210161+9999REMSYN076AAXX  19181 13389 32698 80102 10190 20068 39755 40022 52016 888// 333 10243;EQDQ01  00002PRCP99
0178133890999992000042000004+42980+021950FM-12+023299999V0202501N001010120019N0200001N1+01261+01141100491ADDAA106002091AY121061AY261061GF108991081051012501999999MA1999999097761MD1310021+9999MW1021REMSYN078AAXX  20001 13389 12698 82501 10126 20114 39776 40049 53002 60021 70226 885//;
0172133890999992000042003004+42980+021950FM-12+023299999V0202001N002010360019N0100001N1+01251+01141100501ADDAA199000021AY161031AY261031GF108991041051012501021999MA1999999097761MD1410001+9999MW1611REMSYN072AAXX  20031 13389 31697 82002 10125 20114 39776 40050 54000 76166 8452/;
0231133890999992000042006004+42980+021950FM-12+023299999V0202401N001010150019N0100001N1+01311+01211100561ADDAA112004191AY161061AY261061GF107991071081012501001001IA1099IA2999+01109KA1120N+01231MA1999999097821MD1310061+9999MW1211REMSYN100AAXX  20061 13389 11697 72401 10131 20121 39782 40056 53006 60042 72166 87800 333 20123 31011 55044;
0172133890999992000042009004+42980+021950FM-12+023299999V0203401N004010360019N0100001N1+01441+01151100631ADDAA199000021AY161031AY221031GF108991031071008001021999MA1999999097911MD1310091+9999MW1611REMSYN072AAXX  20091 13389 31597 83404 10144 20115 39791 40063 53009 76162 8372/;
0178133890999992000042012004+42980+021950FM-12+023299999V0203101N003010360019N0100001N1+01621+01211100681ADDAA106000591AY161061AY221061GF108991031071008001021999MA1999999097971MD1310061+9999MW1611REMSYN078AAXX  20121 13389 11597 83103 10162 20121 39797 40068 53006 69951 76162 8372/;
0172133890999992000042015004+42980+021950FM-12+023299999V0201601N002010150019N0100001N1+01641+01361100701ADDAA199000021AY121031AY261031GF108991081081012501999999MA1999999097991MD1310021+9999MW1021REMSYN072AAXX  20151 13389 31697 81602 10164 20136 39799 40070 53002 70226 888//;
0201133890999992000042018004+42980+021950FM-12+023299999V0202201N001010150019N0200001N1+01481+01341100871ADDAA112001091AY161061AY261061GF108991081081012501999999KA1999M+01741MA1999999098151MD1210161+9999MW1021REMSYN088AAXX  20181 13389 11698 82201 10148 20134 39815 40087 52016 60012 70266 888// 333 10174;
0144133890999992000042021004+42980+021950FM-12+023299999V0201801N001010120019N0100001N1+01291+01151100971ADDAA199000021GF108991081051012501999999MA1999999098231MD1110081+9999REMSYN066AAXX  20211 13389 32697 81801 10129 20115 39823 40097 51008 885//;
0163133890999992000042103004+42980+021950FM-12+023299999V0209999C000010120019N0100001N1+01071+01001100991ADDAA199000091GF108991081051012501999999MA1999999098231MD1810011+9999REMSYN066AAXX  21031 13389 32697 80000 10107 20100 39823 40099 58001 885//;EQDQ01  00002PRCP99
0231133890999992000042106004+42980+021950FM-12+023299999V0209999C000010150019N0200001N1+01251+01171101081ADDAA112000191AY121061AY261061GF107991071081012501001001IA1099IA2999+00909KA1120N+01071MA1999999098331MD1310101+9999MW1011REMSYN100AAXX  21061 13389 11698 70000 10125 20117 39833 40108 53010 69922 70126 87800 333 20107 31009 5500/;
0163133890999992000042109004+42980+021950FM-12+023299999V0202201N002012200019N0200001N1+01841+01091101041ADDAA199000091GF101991011011012501001001MA1999999098341MD1110011+9999REMSYN066AAXX  21091 13389 32698 12202 10184 20109 39834 40104 51001 81100;EQDQ01  00002PRCP99
0163133890999992000042112004+42980+021950FM-12+023299999V0203601N003012200019N0200001N1+02301+00741100951ADDAA199000091GF103991021021012501001011MA1999999098301MD1810061+9999REMSYN066AAXX  21121 13389 32698 33603 10230 20074 39830 40095 58006 82201;EQDQ01  00002PRCP99
0163133890999992000042115004+42980+021950FM-12+023299999V0203301N003012200019N0200001N1+02361+00511100921ADDAA199000091GF103991031021012501001001MA1999999098281MD1610021+9999REMSYN066AAXX  21151 13389 32698 33303 10236 20051 39828 40092 56002 83200;EQDQ01  00002PRCP99
0186133890999992000042118004+42980+021950FM-12+023299999V0203101N003010150019N0200001N1+02041+00301101041ADDAA199000091GF105991051081012501001001KA1999M+02421MA1999999098361MD1310081+9999REMSYN076AAXX  21181 13389 32698 53103 10204 20030 39836 40104 53008 85800 333 10242;EQDQ01  00002PRCP99
0163133890999992000042121004+42980+021950FM-12+023299999V0201601N001012200019N0200001N1+01261+00771101251ADDAA199000091GF102991021001999999031001MA1999999098501MD1210141+9999REMSYN066AAXX  21211 13389 32998 21601 10126 20077 39850 40125 52014 82030;EQDQ01  00002PRCP99
0173133890999992000042200004+42980+021950FM-12+023299999V0202001N001012200019N0200001N1+00961+00721101361ADDAA199000091GA1001+999999999GF100991001001999999001001MA1999999098581MD1110081+9999REMSYN060AAXX  22001 13389 32998 02001 10096 20072 39858 40136 51008;EQDQ01  00002PRCP99
0173133890999992000042203004+42980+021950FM-12+023299999V0209999C000012200019N0200001N1+00641+00591101401ADDAA199000091GA1001+999999999GF100991001001999999001001MA1999999098581MD1410001+9999REMSYN060AAXX  22031 13389 32998 00000 10064 20059 39858 40140 54000;EQDQ01  00002PRCP99
0226133890999992000042206004+42980+021950FM-12+023299999V0209999C000012200019N0200001N1+01121+00701101451ADDAA199000091GA1001+999999999GF100991001001999999001001IA1099IA2999+00209KA1120N+00571MA1999999098681MD1210101+9999REMSYN082AAXX  22061 13389 32998 00000 10112 20070 39868 40145 52010 333 20057 31002 55108;EQDQ01  00002PRCP99
0163133890999992000042209004+42980+021950FM-12+023299999V0200201N002012200019N0200001N1+02061+00741101331ADDAA199000091GF102991011011012501001011MA1999999098651MD1810031+9999REMSYN066AAXX  22091 13389 32698 20202 10206 20074 39865 40133 58003 81101;EQDQ01  00002PRCP99
0163133890999992000042215004+42980+021950FM-12+023299999V0203201N007010150019N0200001N1+02121+00381101161ADDAA199000091GF106991061081012501001001MA1999999098491MD1810071+9999REMSYN066AAXX  22151 13389 32698 63207 10212 20038 39849 40116 58007 86800;EQDQ01  00002PRCP99
0186133890999992000042218004+42980+021950FM-12+023299999V0203101N003010900019N0200001N1+02011+00451101201ADDAA199000091GF105991021081012501031011KA1999M+02341MA1999999098521MD1310031+9999REMSYN076AAXX  22181 13389 32698 53103 10201 20045 39852 40120 53003 82831 333 10234;EQDQ01  00002PRCP99
0163133890999992000042221004+42980+021950FM-12+023299999V0203001N003012200019N0200001N1+01801+00511101281ADDAA199000091GF103991031001999999031001MA1999999098581MD1110061+9999REMSYN066AAXX  22211 13389 32998 33003 10180 20051 39858 40128 51006 83030;EQDQ01  00002PRCP99
0163133890999992000042300004+42980+021950FM-12+023299999V0201501N001012200019N0200001N1+01221+00771101361ADDAA199000091GF102991021001999999031001MA1999999098601MD1310021+9999REMSYN066AAXX  23001 13389 32998 21501 10122 20077 39860 40136 53002 82030;EQDQ01  00002PRCP99
0216133890999992000042306004+42980+021950FM-12+023299999V0202101N001012200019N0200001N1+01321+00771101451ADDAA199000091GF104991011001999999031011IA1099IA2999+00509KA1120N+00921MA1999999098701MD1210101+9999REMSYN088AAXX  23061 13389 32998 42101 10132 20077 39870 40145 52010 81031 333 20092 31005 55087;EQDQ01  00002PRCP99
0163133890999992000042309004+42980+021950FM-12+023299999V0203401N002012200019N0200001N1+02081+00811101351ADDAA199000091GF102991011011012501031001MA1999999098671MD1810031+9999REMSYN066AAXX  23091 13389 32698 23402 10208 20081 39867 40135 58003 81130;EQDQ01  00002PRCP99
0163133890999992000042312004+42980+021950FM-12+023299999V0200101N004010900019N0200001N1+02331+00601101181ADDAA199000091GF107991031081012501001061MA1999999098531MD1710141+9999REMSYN066AAXX  23121 13389 32698 70104 10233 20060 39853 40118 57014 83806;EQDQ01  00002PRCP99
0163133890999992000042315004+42980+021950FM-12+023299999V0203401N005012200019N0200001N1+02471+00601101011ADDAA199000091GF103991021021012501001011MA1999999098381MD1710151+9999REMSYN066AAXX  23151 13389 32698 33405 10247 20060 39838 40101 57015 82201;EQDQ01  00002PRCP99
0196133890999992000042318004+42980+021950FM-12+023299999V0202901N001012200019N0200001N1+01941+00511101081ADDAA199000091GA1001+999999999GF100991001001999999001001KA1999M+02481MA1999999098391MD1310011+9999REMSYN070AAXX  23181 13389 32998 02901 10194 20051 39839 40108 53001 333 10248;EQDQ01  00002PRCP99
0173133890999992000042321004+42980+021950FM-12+023299999V0202301N001012200019N0200001N1+01181+00791101181ADDAA199000091GA1001+999999999GF100991001001999999001001MA1999999098431MD1110041+9999REMSYN060AAXX  23211 13389 32998 02301 10118 20079 39843 40118 51004;EQDQ01  00002PRCP99
0173133890999992000042400004+42980+021950FM-12+023299999V0209999C000012200019N0200001N1+00791+00661101161ADDAA199000091GA1001+999999999GF100991001001999999001001MA1999999098371MD1810061+9999REMSYN060AAXX  24001 13389 32998 00000 10079 20066 39837 40116 58006;EQDQ01  00002PRCP99
0173133890999992000042403004+42980+021950FM-12+023299999V0209999C000012200019N0200001N1+00621+00511101061ADDAA199000091GA1001+999999999GF100991001001999999001001MA1999999098251MD1710121+9999REMSYN060AAXX  24031 13389 32998 00000 10062 20051 39825 40106 57012;EQDQ01  00002PRCP99
0216133890999992000042406004+42980+021950FM-12+023299999V0209999C000012200019N0200001N1+01201+00791100991ADDAA199000091GF101991011011012501001001IA1099IA2999+00209KA1120N+00541MA1999999098241MD1810011+9999REMSYN088AAXX  24061 13389 32698 10000 10120 20079 39824 40099 58001 81100 333 20054 31002 55104;EQDQ01  00002PRCP99
0163133890999992000042409004+42980+021950FM-12+023299999V0200601N002012200019N0200001N1+02101+00901100751ADDAA199000091GF102991021051012501001001MA1999999098091MD1710151+9999REMSYN066AAXX  24091 13389 32698 20602 10210 20090 39809 40075 57015 82500;EQDQ01  00002PRCP99
0163133890999992000042415004+42980+021950FM-12+023299999V0202401N004010120019N0200001N1+02581+00601100271ADDAA199000091GF106991061021012501001001MA1999999097661MD1610161+9999REMSYN066AAXX  24151 13389 32698 62404 10258 20060 39766 40027 56016 86200;EQDQ01  00002PRCP99
0187133890999992000042418004+42980+021950FM-12+023299999V0202401N004010360019N0200001N1+02141+00421100461ADDAA199000091GF105991031081012501031001KA1999M+02781MD1310141+9999REMSYN076AAXX  24181 13389 32698 52404 10214 20042 39970 40046 53014 83830 333 10278;EQDQ01+099703APOSP Q02  00002PRCP99
0163133890999992000042421004+42980+021950FM-12+023299999V0202501N002010120019N0200001N1+01781+00011100771ADDAA199000091GF108991081051012501999999MA1999999098071MD1210271+9999REMSYN066AAXX  24211 13389 32698 82502 10178 20001 39807 40077 52027 885//;EQDQ01  00002PRCP99
0163133890999992000042500004+42980+021950FM-12+023299999V0202001N002010120019N0200001N1+01501-00221100881ADDAA199000091GF107991071051012501001001MA1999999098151MD1110081+9999REMSYN066AAXX  25001 13389 32698 72002 10150 21022 39815 40088 51008 87500;EQDQ01  00002PRCP99
0163133890999992000042503004+42980+021950FM-12+023299999V0202201N001012200019N0200001N1+01141+00091100981ADDAA199000091GF104991041051012501001001MA1999999098211MD1110061+9999REMSYN066AAXX  25031 13389 32698 42201 10114 20009 39821 40098 51006 84500;EQDQ01  00002PRCP99
0172133890999992000042509004+42980+021950FM-12+023299999V0200301N002010150019N0200001N1+01601+00791101081ADDAA199000021AY161031AY221031GF107991051081012501031001MA1999999098361MD1010101+9999MW1211REMSYN072AAXX  25091 13389 31698 70302 10160 20079 39836 40108 50010 72162 85830;
0178133890999992000042512004+42980+021950FM-12+023299999V0203401N004010360019N0200001N1+01641+00831101061ADDAA106000191AY121061AY261061GF107991041081012501071001MA1999999098331MD1810031+9999MW1021REMSYN078AAXX  25121 13389 11698 73404 10164 20083 39833 40106 58003 69911 70226 84870;
0172133890999992000042515004+42980+021950FM-12+023299999V0203401N004010150019N0200001N1+01621+00921100991ADDAA199000021AY121031AY261031GF108991081081012501999999MA1999999098281MD1610051+9999MW1021REMSYN072AAXX  25151 13389 31698 83404 10162 20092 39828 40099 56005 70226 888//;
0201133890999992000042518004+42980+021950FM-12+023299999V0203401N004010120019N0040001N1+01251+01031101201ADDAA112001091AY161061AY221061GF108991081081008001999999KA1999M+01761MA1999999098451MD1310171+9999MW1651REMSYN088AAXX  25181 13389 11596 83404 10125 20103 39845 40120 53017 60012 76562 888// 333 10176;
0172133890999992000042521004+42980+021950FM-12+023299999V0202101N001010120019N0100001N1+01161+01031101291ADDAA199000021AY161031AY261031GF108991081081008001999999MA1999999098531MD1110081+9999MW1611REMSYN072AAXX  25211 13389 31597 82101 10116 20103 39853 40129 51008 76166 888//;
0178133890999992000042600004+42980+021950FM-12+023299999V0203201N002010120019N0040001N1+01181+00981101211ADDAA106007191AY161061AY261061GF108991081081008001999999MA1999999098531MD1410001+9999MW1611REMSYN078AAXX  26001 13389 11596 83202 10118 20098 39853 40121 54000 60071 76166 888//;
0172133890999992000042603004+42980+021950FM-12+023299999V0203401N003010120019N0200001N1+01221+01051101291ADDAA199000021AY161031AY221031GF108991081081008001999999MA1999999098531MD1410001+9999MW1021REMSYN072AAXX  26031 13389 31598 83403 10122 20105 39853 40129 54000 70262 888//;
0231133890999992000042606004+42980+021950FM-12+023299999V0203301N001010120019N0100001N1+01301+01051101431ADDAA112007991AY121061AY261061GF108991081081008001999999IA1099IA2999+01109KA1120N+01061MA1999999098981MD1310151+9999MW1021REMSYN100AAXX  26061 13389 11597 83301 10130 20105 39898 40143 53015 60082 70226 888// 333 20106 31011 55003;
0144133890999992000042609004+42980+021950FM-12+023299999V0203401N005010120019N0100001N1+01561+00921101481ADDAA199000021GF107991071081008001001001MA1999999098751MD1210071+9999REMSYN066AAXX  26091 13389 32597 73405 10156 20092 39875 40148 52007 87800;
0144133890999992000042612004+42980+021950FM-12+023299999V0203601N003010150019N0100001N1+01841+00881101461ADDAA199000021GF107991071081012501001001MA1999999098751MD1410001+9999REMSYN066AAXX  26121 13389 32697 73603 10184 20088 39875 40146 54000 87800;
0186133890999992000042618004+42980+021950FM-12+023299999V0201101N001012200019N0100001N1+01661+01151101441ADDAA199000091GF103991031081012501001001KA1999M+02041MA1999999098721MD1310011+9999REMSYN076AAXX  26181 13389 32697 31101 10166 20115 39872 40144 53001 83800 333 10204;EQDQ01  00002PRCP99
0163133890999992000042621004+42980+021950FM-12+023299999V0209999C000019999999N0100001N1+01261+01061101591ADDAA199000091GF105991031001999999031011MA1999999098831MD1110111+9999REMSYN066AAXX  26211 13389 32997 50000 10126 20106 39883 40159 51011 83031;EQDQ01  00002PRCP99
0173133890999992000042700004+42980+021950FM-12+023299999V0209999C000012200019N0100001N1+00911+00771101631ADDAA199000091GA1001+999999999GF100991001001999999001001MA1999999098831MD1410001+9999REMSYN060AAXX  27001 13389 32997 00000 10091 20077 39883 40163 54000;EQDQ01  00002PRCP99
0173133890999992000042703004+42980+021950FM-12+023299999V0201201N001012200019N0100001N1+00701+00581101681ADDAA199000091GA1001+999999999GF100991001001999999001001MA1999999098861MD1310031+9999REMSYN060AAXX  27031 13389 32997 01201 10070 20058 39886 40168 53003;EQDQ01  00002PRCP99
0254133890999992000042706004+42980+021950FM-12+023299999V0209999C000012200019N0040001N1+01011+00941101781ADDAA199000091AY141061AY201061GA1001+999999999GF100991001001999999001001IA1099IA2999+00309KA1120N+00651MA1999999098991MD1210131+9999MW1281REMSYN088AAXX  27061 13389 31996 00000 10101 20094 39899 40178 52013 72840 333 20065 31003 55015;EQDQ01  00002PRCP99
0163133890999992000042709004+42980+021950FM-12+023299999V0203401N001012200019N0100001N1+01831+01061101691ADDAA199000091GF101991011021012501001001MA1999999098981MD1810011+9999REMSYN066AAXX  27091 13389 32697 13401 10183 20106 39898 40169 58001 81200;EQDQ01  00002PRCP99
0163133890999992000042712004+42980+021950FM-12+023299999V0200101N002012200019N0100001N1+02251+00771101511ADDAA199000091GF103991021031012501031001MA1999999098841MD1710141+9999REMSYN066AAXX  27121 13389 32697 30102 10225 20077 39884 40151 57014 82330;EQDQ01  00002PRCP99
0172133890999992000042715004+42980+021950FM-12+023299999V0201201N001010120019N0200001N1+01521+01241101531ADDAA199000021AY161031AY291031GF107991071091012501001001MA1999999098791MD1510051+9999MW1611REMSYN072AAXX  27151 13389 31698 71201 10152 20124 39879 40153 55005 76169 87900;
0201133890999992000042718004+42980+021950FM-12+023299999V0203401N001012200019N0200001N1+01441+01241101561ADDAA112007991AY111061AY291061GF103991021031012501031001KA1999M+02371MA1999999098811MD1310021+9999MW1031REMSYN088AAXX  27181 13389 11698 33401 10144 20124 39881 40156 53002 60082 70319 82330 333 10237;
0144133890999992000042721004+42980+021950FM-12+023299999V0209999C000012200019N0200001N1+01081+00941101681ADDAA199000021GF103991031051012501001001MA1999999098901MD1210091+9999REMSYN066AAXX  27211 13389 32698 30000 10108 20094 39890 40168 52009 83500;
0154133890999992000042800004+42980+021950FM-12+023299999V0202001N002012200019N0200001N1+00931+00791101701ADDAA199000021GA1001+999999999GF100991001001999999001001MA1999999098901MD1410001+9999REMSYN060AAXX  28001 13389 32998 02002 10093 20079 39890 40170 54000;
0144133890999992000042803004+42980+021950FM-12+023299999V0202101N001012200019N0200001N1+00681+00581101751ADDAA199000021GF102991011001999999031011MA1999999098911MD1310011+9999REMSYN066AAXX  28031 13389 32998 22101 10068 20058 39891 40175 53001 81031;
0216133890999992000042806004+42980+021950FM-12+023299999V0209999C000012200019N0200001N1+01181+01061101801ADDAA199000091GF101991011001999999031001IA1099IA2999+00409KA1120N+00631MA1999999099031MD1210121+9999REMSYN088AAXX  28061 13389 32998 10000 10118 20106 39903 40180 52012 81030 333 20063 31004 55086;EQDQ01  00002PRCP99
0163133890999992000042809004+42980+021950FM-12+023299999V0200201N002012200019N0200001N1+01911+01151101631ADDAA199000091GF101991011021012501001001MA1999999098931MD1810101+9999REMSYN066AAXX  28091 13389 32698 10202 10191 20115 39893 40163 58010 81200;EQDQ01  00002PRCP99
0163133890999992000042812004+42980+021950FM-12+023299999V0200701N004012200019N0200001N1+02381+00851101391ADDAA199000091GF103991031021012501001001MA1999999098741MD1710191+9999REMSYN066AAXX  28121 13389 32698 30704 10238 20085 39874 40139 57019 83200;EQDQ01  00002PRCP99
0163133890999992000042815004+42980+021950FM-12+023299999V0200701N004012200019N0200001N1+02391+00811101261ADDAA199000091GF103991031021012501001001MA1999999098611MD1710131+9999REMSYN066AAXX  28151 13389 32698 30704 10239 20081 39861 40126 57013 83200;EQDQ01  00002PRCP99
0186133890999992000042818004+42980+021950FM-12+023299999V0200601N003012200019N0200001N1+01971+00761101451ADDAA199000091GF102991021001999999031001KA1999M+02431MA1999999098761MD1310151+9999REMSYN076AAXX  28181 13389 32998 20603 10197 20076 39876 40145 53015 82030 333 10243;EQDQ01  00002PRCP99
0173133890999992000042821004+42980+021950FM-12+023299999V0200901N002012200019N0200001N1+01601+00901101651ADDAA199000091GA1001+999999999GF100991001001999999001001MA1999999098921MD1210161+9999REMSYN060AAXX  28211 13389 32998 00902 10160 20090 39892 40165 52016;EQDQ01  00002PRCP99
0173133890999992000042900004+42980+021950FM-12+023299999V0201801N002012200019N0200001N1+01051+00881101711ADDAA199000091GA1001+999999999GF100991001001999999001001MA1999999098921MD1510001+9999REMSYN060AAXX  29001 13389 32998 01802 10105 20088 39892 40171 55000;EQDQ01  00002PRCP99
0173133890999992000042903004+42980+021950FM-12+023299999V0202001N001012200019N0200001N1+00781+00661101751ADDAA199000091GA1001+999999999GF100991001001999999001001MA1999999098921MD1410001+9999REMSYN060AAXX  29031 13389 32998 02001 10078 20066 39892 40175 54000;EQDQ01  00002PRCP99
0226133890999992000042906004+42980+021950FM-12+023299999V0200501N002012200019N0200001N1+01301+01021101791ADDAA199000091GA1001+999999999GF100991001001999999001001IA1099IA2999+00409KA1120N+00751MA1999999099031MD1310111+9999REMSYN082AAXX  29061 13389 32998 00502 10130 20102 39903 40179 53011 333 20075 31004 55132;EQDQ01  00002PRCP99
0163133890999992000042909004+42980+021950FM-12+023299999V0202401N002012200019N0200001N1+02021+00981101701ADDAA199000091GF101991011021012501001001MA1999999099001MD1810031+9999REMSYN066AAXX  29091 13389 32698 12402 10202 20098 39900 40170 58003 81200;EQDQ01  00002PRCP99
0163133890999992000042915004+42980+021950FM-12+023299999V0202101N002010120019N0200001N1+02371+00771101321ADDAA199000091GF105991051091012501001001MA1999999098671MD1610121+9999REMSYN066AAXX  29151 13389 32698 52102 10237 20077 39867 40132 56012 85900;EQDQ01  00002PRCP99
0186133890999992000042918004+42980+021950FM-12+023299999V0200701N001012200019N0200001N1+01731+01141101511ADDAA199000091GF101991011001999999031001KA1999M+02661MA1999999098791MD1310121+9999REMSYN076AAXX  29181 13389 32998 10701 10173 20114 39879 40151 53012 81030 333 10266;EQDQ01  00002PRCP99
0173133890999992000042921004+42980+021950FM-12+023299999V0209999C000012200019N0200001N1+01681+00791101701ADDAA199000091GA1001+999999999GF100991001001999999001001MA1999999098981MD1210191+9999REMSYN060AAXX  29211 13389 32998 00000 10168 20079 39898 40170 52019;EQDQ01  00002PRCP99
0163133890999992000043000004+42980+021950FM-12+023299999V0202001N002012200019N0200001N1+01241+00971101831ADDAA199000091GF103991031001999999031001MA1999999099061MD1210081+9999REMSYN066AAXX  30001 13389 32998 32002 10124 20097 39906 40183 52008 83030;EQDQ01  00002PRCP99
0142133890999992000043003004+42980+021950FM-12+023299999V0201401N002012200019N0200001N1+01181+00881101891ADDAA199000091GF102991021001999999031001MD1110041+9999REMSYN060AAXX  30031 13389 32998 21402 10118 20088 40189 51004 82030;EQDQ01  00002PRCP99
0216133890999992000043006004+42980+021950FM-12+023299999V0209999C000012200019N0200001N1+01281+01021101961ADDAA199000091GF103991031001999999031001IA1019IA2999+00609KA1120N+00991MA1999999099191MD1310091+9999REMSYN088AAXX  30061 13389 32998 30000 10128 20102 39919 40196 53009 83030 333 20099 30006 55107;EQDQ01  00002PRCP99
0163133890999992000043009004+42980+021950FM-12+023299999V0202401N001010150019N0200001N1+01971+01091101851ADDAA199000091GF107991061081012501031001MA1999999099151MD1810041+9999REMSYN066AAXX  30091 13389 32698 72401 10197 20109 39915 40185 58004 86830;EQDQ01  00002PRCP99
0163133890999992000043012004+42980+021950FM-12+023299999V0200901N003010360019N0200001N1+02401+00941101701ADDAA199000091GF106991031081012501031011MA1999999099041MD1710111+9999REMSYN066AAXX  30121 13389 32698 60903 10240 20094 39904 40170 57011 83831;EQDQ01  00002PRCP99
0172133890999992000043015004+42980+021950FM-12+023299999V0200601N002010150019N0200001N1+02111+01231101651ADDAA199000021AY161031AY221031GF106991061081012501001001MA1999999098961MD1710081+9999MW1211REMSYN072AAXX  30151 13389 31698 60602 10211 20123 39896 40165 57008 72162 86800;
0201133890999992000043018004+42980+021950FM-12+023299999V0209999C000010150019N0200001N1+01931+01321101621ADDAA112000791AY121061AY261061GF107991051081012501031001KA1999M+02441MA1999999098921MD1510041+9999MW1011REMSYN088AAXX  30181 13389 11698 70000 10193 20132 39892 40162 55004 69902 70126 85830 333 10244;
0172133890999992000043021004+42980+021950FM-12+023299999V0202901N002010150019N0200001N1+01641+01451101701ADDAA199000021AY191031AY221031GF108991081081012501999999MA1999999098981MD1110061+9999MW1211REMSYN072AAXX  30211 13389 31698 82902 10164 20145 39898 40170 51006 72192 888//;
0178133890999992000050100004+42980+021950FM-12+023299999V0202301N001010150019N0200001N1+01421+01201101731ADDAA106000591AY161061AY221061GF107991071081012501001001MA1999999098981MD1810041+9999MW1211REMSYN078AAXX  01001 13389 11698 72301 10142 20120 39898 40173 58004 69961 72162 87800;
0172133890999992000050103004+42980+021950FM-12+023299999V0202301N001010150019N0200001N1+01321+01111101701ADDAA199000021AY161031AY221031GF108991081081012501999999MA1999999098941MD1810041+9999MW1611REMSYN072AAXX  01031 13389 31698 82301 10132 20111 39894 40170 58004 76162 888//;
0231133890999992000050106004+42980+021950FM-12+023299999V0200601N001010360019N0100001N1+01241+01151101711ADDAA112009991AY161061AY261061GF108991031071008001021999IA1099IA2999+01109KA1120N+01241MA1999999098941MD1410001+9999MW1611REMSYN100AAXX  01061 13389 11597 80601 10124 20115 39894 40171 54000 60102 76166 8372/ 333 20124 31011 55054;
0172133890999992000050109004+42980+021950FM-12+023299999V0202201N001010150019N0100001N1+01501+01211101711ADDAA199000021AY161031AY221031GF107991071081012501001001MA1999999098971MD1010031+9999MW1211REMSYN072AAXX  01091 13389 31697 72201 10150 20121 39897 40171 50003 72162 87800;
0178133890999992000050112004+42980+021950FM-12+023299999V0200201N002010150019N0200001N1+01821+01111101471ADDAA106005191AY161061AY221061GF106991051081012501031001MA1999999098761MD1710211+9999MW1011REMSYN078AAXX  01121 13389 11698 60202 10182 20111 39876 40147 57021 60051 70162 85830;
0172133890999992000050115004+42980+021950FM-12+023299999V0200401N001010150019N0200001N1+01571+01361101321ADDAA199000021AY191031AY261031GF107991071081012501001001MA1999999098611MD1710151+9999MW1291REMSYN072AAXX  01151 13389 31698 70401 10157 20136 39861 40132 57015 72996 87800;
0201133890999992000050118004+42980+021950FM-12+023299999V0202301N001010075019N0100001N1+01461+01391101271ADDAA112008991AY191061AY261061GF107991071091008001001001KA1999M+01871MA1999999098551MD1610061+9999MW1171REMSYN088AAXX  01181 13389 11597 72301 10146 20139 39855 40127 56006 60092 71796 87900 333 10187;
0172133890999992000050121004+42980+021950FM-12+023299999V0201801N001010150019N0200001N1+01401+01351101281ADDAA199000021AY161031AY291031GF108991081081012501999999MA1999999098561MD1010011+9999MW1211REMSYN072AAXX  01211 13389 31698 81801 10140 20135 39856 40128 50001 72169 888//;
0178133890999992000050200004+42980+021950FM-12+023299999V0200801N001010150019N0100001N1+01321+01281101361ADDAA106002091AY161061AY221061GF108991081081012501999999MA1999999098611MD1010051+9999MW1611REMSYN078AAXX  02001 13389 11697 80801 10132 20128 39861 40136 50005 60021 76162 888//;
0172133890999992000050203004+42980+021950FM-12+023299999V0201801N001012200019N0100001N1+01121+01081101331ADDAA199000021AY111031AY261031GF103991031081012501001001MA1999999098561MD1710051+9999MW1011REMSYN072AAXX  02031 13389 31697 31801 10112 20108 39856 40133 57005 70116 83800;
0231133890999992000050206004+42980+021950FM-12+023299999V0201901N001010120019N0020001N1+01251+01201101341ADDAA112002091AY191061AY261061GF107991071081008001001001IA1099IA2999+00709KA1120N+01041MA1999999098581MD1310021+9999MW1101REMSYN100AAXX  02061 13389 11595 71901 10125 20120 39858 40134 53002 60022 71096 87800 333 20104 31007 55005;
0144133890999992000050209004+42980+021950FM-12+023299999V0203101N001010150019N0100001N1+01681+01281101311ADDAA199000021GF106991061081012501001001MA1999999098601MD1110021+9999REMSYN066AAXX  02091 13389 32697 63101 10168 20128 39860 40131 51002 86800;
0172133890999992000050212004+42980+021950FM-12+023299999V0201801N002010150019N0100001N1+01881+01381101101ADDAA199000021AY191061AY221061GF107991071081012501001001MA1999999098421MD1710171+9999MW1021REMSYN072AAXX  02121 13389 31697 71802 10188 20138 39842 40110 57017 70292 87800;
0172133890999992000050215004+42980+021950FM-12+023299999V0202101N002010120019N0100001N1+01301+01141101211ADDAA199000021AY191031AY281031GF108991081091012501999999MA1999999098461MD1310041+9999MW1951REMSYN072AAXX  02151 13389 31697 82102 10130 20114 39846 40121 53004 79598 889//;
0178133890999992000050300004+42980+021950FM-12+023299999V0202401N001010120019N0200001N1+01071+00901101701ADDAA106000591AY121061AY261061GF105991051051012501001001MA1999999098921MD1210181+9999MW1021REMSYN078AAXX  03001 13389 11698 52401 10107 20090 39892 40170 52018 69961 70226 85500;
0144133890999992000050303004+42980+021950FM-12+023299999V0200501N006012200019N0200001N1+01081+00511101881ADDAA199000021GF104991041051012501001001MA1999999099101MD1210181+9999REMSYN066AAXX  03031 13389 32698 40506 10108 20051 39910 40188 52018 84500;
0203133890999992000050306004+42980+021950FM-12+023299999V0200601N006010360019N0200001N1+01091+00201102091ADDAA112001091GF106991031081012501031011IA1099IA2999+00909KA1120N+00981MA1999999099291MD1210191+9999REMSYN094AAXX  03061 13389 12698 60606 10109 20020 39929 40209 52019 69992 83831 333 20098 31009 55016;
0163133890999992000050309004+42980+021950FM-12+023299999V0200601N005012200019N0200001N1+01341+00381102111ADDAA199000091GF104991021001999999031011MA1999999099341MD1110051+9999REMSYN066AAXX  03091 13389 32998 40605 10134 20038 39934 40211 51005 82031;EQDQ01  00002PRCP99
0163133890999992000050312004+42980+021950FM-12+023299999V0200401N005012200019N0200001N1+01821+00401101951ADDAA199000091GF103991011021012501001011MA1999999099231MD1810111+9999REMSYN066AAXX  03121 13389 32698 30405 10182 20040 39923 40195 58011 81201;EQDQ01  00002PRCP99
0164133890999992000050315004+42980+021950FM-12+023299999V0200401N004012200019N0200001N1+01881+00301101801ADDAA199000091GF102991011001999999031011MD1710111+9999REMSYN066AAXX  03151 13389 32998 20404 10188 20030 39812 40180 57011 81031;EQDQ01+098123APOSP Q02  00002PRCP99
0196133890999992000050318004+42980+021950FM-12+023299999V0200601N003012200019N0200001N1+01521+00151101851ADDAA199000091GA1001+999999999GF100991001001999999001001KA1999M+01931MA1999999099101MD1610021+9999REMSYN070AAXX  03181 13389 32998 00603 10152 20015 39910 40185 56002 333 10193;EQDQ01  00002PRCP99
0173133890999992000050321004+42980+021950FM-12+023299999V0201401N001012200019N0200001N1+01021+00381102101ADDAA199000091GA1001+999999999GF100991001001999999001001MA1999999099301MD1210201+9999REMSYN060AAXX  03211 13389 32998 01401 10102 20038 39930 40210 52020;EQDQ01  00002PRCP99
0173133890999992000050400004+42980+021950FM-12+023299999V0201801N002012200019N0200001N1+00641+00451102241ADDAA199000091GA1001+999999999GF100991001001999999001001MA1999999099401MD1210101+9999REMSYN060AAXX  04001 13389 32998 01802 10064 20045 39940 40224 52010;EQDQ01  00002PRCP99
0173133890999992000050403004+42980+021950FM-12+023299999V0209999C000012200019N0200001N1+00401+00251102261ADDAA199000091GA1001+999999999GF100991001001999999001001MA1999999099401MD1410001+9999REMSYN060AAXX  04031 13389 32998 00000 10040 20025 39940 40226 54000;EQDQ01  00002PRCP99
0226133890999992000050406004+42980+021950FM-12+023299999V0201701N001012200019N0200001N1+00941+00601102251ADDAA199000091GA1001+999999999GF100991001001999999001001IA1099IA2999+00009KA1120N+00361MA1999999099441MD1110041+9999REMSYN082AAXX  04061 13389 32998 01701 10094 20060 39944 40225 51004 333 20036 31100 55092;EQDQ01  00002PRCP99
0163133890999992000050409004+42980+021950FM-12+023299999V0202201N002012200019N0200001N1+01521+00561102131ADDAA199000091GF101991011011012501001001MA1999999099381MD1810061+9999REMSYN066AAXX  04091 13389 32698 12202 10152 20056 39938 40213 58006 81100;EQDQ01  00002PRCP99
0163133890999992000050412004+42980+021950FM-12+023299999V0203601N002012200019N0200001N1+01901+00091101921ADDAA199000091GF103991011011012501001011MA1999999099201MD1710181+9999REMSYN066AAXX  04121 13389 32698 33602 10190 20009 39920 40192 57018 81101;EQDQ01  00002PRCP99
0163133890999992000050415004+42980+021950FM-12+023299999V0203001N003010900019N0200001N1+02031+00181101731ADDAA199000091GF107991011011012501001061MA1999999099031MD1710171+9999REMSYN066AAXX  04151 13389 32698 73003 10203 20018 39903 40173 57017 81106;EQDQ01  00002PRCP99
0186133890999992000050418004+42980+021950FM-12+023299999V0203101N001019999999N0200001N1+01421+00181101761ADDAA199000091GF107991001001999999001061KA1999M+02061MA1999999099011MD1610021+9999REMSYN076AAXX  04181 13389 32998 73101 10142 20018 39901 40176 56002 80006 333 10206;EQDQ01  00002PRCP99
0173133890999992000050421004+42980+021950FM-12+023299999V0202001N001012200019N0200001N1+00881+00661101901ADDAA199000091GA1001+999999999GF100991001001999999001001MA1999999099101MD1310091+9999REMSYN060AAXX  04211 13389 32998 02001 10088 20066 39910 40190 53009;EQDQ01  00002PRCP99
0173133890999992000050500004+42980+021950FM-12+023299999V0201801N001012200019N0200001N1+00561+00401101961ADDAA199000091GA1001+999999999GF100991001001999999001001MA1999999099131MD1110031+9999REMSYN060AAXX  05001 13389 32998 01801 10056 20040 39913 40196 51003;EQDQ01  00002PRCP99
0173133890999992000050503004+42980+021950FM-12+023299999V0201801N001012200019N0200001N1+00331+00251102011ADDAA199000091GA1001+999999999GF100991001001999999001001MA1999999099131MD1410001+9999REMSYN060AAXX  05031 13389 32998 01801 10033 20025 39913 40201 54000;EQDQ01  00002PRCP99
0226133890999992000050506004+42980+021950FM-12+023299999V0201801N001012200019N0200001N1+00781+00471102001ADDAA199000091GA1001+999999999GF100991001001999999001001IA1099IA2999-00109KA1120N+00291MA1999999099181MD1310051+9999REMSYN082AAXX  05061 13389 32998 01801 10078 20047 39918 40200 53005 333 20029 31101 55133;EQDQ01  00002PRCP99
0163133890999992000050509004+42980+021950FM-12+023299999V0200701N001012200019N0200001N1+01541+00331101891ADDAA199000091GF101991011011012501001001MA1999999099141MD1810041+9999REMSYN066AAXX  05091 13389 32698 10701 10154 20033 39914 40189 58004 81100;EQDQ01  00002PRCP99
0163133890999992000050512004+42980+021950FM-12+023299999V0203001N002012200019N0200001N1+02071+00201101681ADDAA199000091GF104991011011012501001011MA1999999098981MD1710161+9999REMSYN066AAXX  05121 13389 32698 43002 10207 20020 39898 40168 57016 81101;EQDQ01  00002PRCP99
0163133890999992000050515004+42980+021950FM-12+023299999V0203001N002010900019N0200001N1+02121+00281101511ADDAA199000091GF107991011011012501001061MA1999999098831MD1710151+9999REMSYN066AAXX  05151 13389 32698 73002 10212 20028 39883 40151 57015 81106;EQDQ01  00002PRCP99
0186133890999992000050518004+42980+021950FM-12+023299999V0203401N001019999999N0200001N1+01691+00251101571ADDAA199000091GF107991001001999999001061KA1999M+02251MA1999999098841MD1310011+9999REMSYN076AAXX  05181 13389 32998 73401 10169 20025 39884 40157 53001 80006 333 10225;EQDQ01  00002PRCP99
0173133890999992000050521004+42980+021950FM-12+023299999V0202001N002012200019N0200001N1+01001+00701101741ADDAA199000091GA1001+999999999GF100991001001999999001001MA1999999098951MD1110111+9999REMSYN060AAXX  05211 13389 32998 02002 10100 20070 39895 40174 51011;EQDQ01  00002PRCP99
0173133890999992000050600004+42980+021950FM-12+023299999V0209999C000012200019N0200001N1+00641+00511101881ADDAA199000091GA1001+999999999GF100991001001999999001001MA1999999099051MD1310101+9999REMSYN060AAXX  06001 13389 32998 00000 10064 20051 39905 40188 53010;EQDQ01  00002PRCP99
0163133890999992000050603004+42980+021950FM-12+023299999V0209999C000012200019N0200001N1+00421+00331101941ADDAA199000091GF102991021051012501001001MA1999999099081MD1210031+9999REMSYN066AAXX  06031 13389 32698 20000 10042 20033 39908 40194 52003 82500;EQDQ01  00002PRCP99
0216133890999992000050606004+42980+021950FM-12+023299999V0200301N001012200019N0200001N1+00981+00451102031ADDAA199000091GF101991011001999999031001IA1019IA2999+00009KA1120N+00391MA1999999099231MD1210151+9999REMSYN088AAXX  06061 13389 32998 10301 10098 20045 39923 40203 52015 81030 333 20039 30000 55122;EQDQ01  00002PRCP99
0163133890999992000050609004+42980+021950FM-12+023299999V0200801N002012200019N0200001N1+01761+00531101891ADDAA199000091GF101991011011012501001001MA1999999099171MD1810061+9999REMSYN066AAXX  06091 13389 32698 10802 10176 20053 39917 40189 58006 81100;EQDQ01  00002PRCP99
0163133890999992000050612004+42980+021950FM-12+023299999V0203001N003012200019N0200001N1+02271+00331101711ADDAA199000091GF101991011021012501001001MA1999999099041MD1710131+9999REMSYN066AAXX  06121 13389 32698 13003 10227 20033 39904 40171 57013 81200;EQDQ01  00002PRCP99
0163133890999992000050615004+42980+021950FM-12+023299999V0203301N002012200019N0200001N1+02461+00281101601ADDAA199000091GF101991011021012501001001MA1999999098951MD1710091+9999REMSYN066AAXX  06151 13389 32698 13302 10246 20028 39895 40160 57009 81200;EQDQ01  00002PRCP99
0196133890999992000050618004+42980+021950FM-12+023299999V0209999C000012200019N0200001N1+01741+00331101641ADDAA199000091GA1001+999999999GF100991001001999999001001KA1999M+02461MA1999999098921MD1510031+9999REMSYN070AAXX  06181 13389 32998 00000 10174 20033 39892 40164 55003 333 10246;EQDQ01  00002PRCP99
0173133890999992000050621004+42980+021950FM-12+023299999V0209999C000012200019N0200001N1+00961+00621101951ADDAA199000091GA1001+999999999GF100991001001999999001001MA1999999099151MD1210231+9999REMSYN060AAXX  06211 13389 32998 00000 10096 20062 39915 40195 52023;EQDQ01  00002PRCP99
0173133890999992000050700004+42980+021950FM-12+023299999V0209999C000012200019N0200001N1+00641+00471102061ADDAA199000091GA1001+999999999GF100991001001999999001001MA1999999099221MD1210071+9999REMSYN060AAXX  07001 13389 32998 00000 10064 20047 39922 40206 52007;EQDQ01  00002PRCP99
0173133890999992000050703004+42980+021950FM-12+023299999V0209999C000012200019N0200001N1+00441+00301102171ADDAA199000091GA1001+999999999GF100991001001999999001001MA1999999099311MD1210091+9999REMSYN060AAXX  07031 13389 32998 00000 10044 20030 39931 40217 52009;EQDQ01  00002PRCP99
0226133890999992000050706004+42980+021950FM-12+023299999V0209999C000012200019N0200001N1+01061+00621102211ADDAA199000091GA1001+999999999GF100991001001999999001001IA1019IA2999+00009KA1120N+00441MA1999999099421MD1110111+9999REMSYN082AAXX  07061 13389 32998 00000 10106 20062 39942 40221 51011 333 20044 30000 55135;EQDQ01  00002PRCP99
0163133890999992000050709004+42980+021950FM-12+023299999V0203201N001012200019N0200001N1+01981+00741102081ADDAA199000091GF101991011011012501001001MA1999999099371MD1810051+9999REMSYN066AAXX  07091 13389 32698 13201 10198 20074 39937 40208 58005 81100;EQDQ01  00002PRCP99
0163133890999992000050712004+42980+021950FM-12+023299999V0201401N002012200019N0200001N1+02481+00561101901ADDAA199000091GF101991011011012501001001MA1999999099241MD1710131+9999REMSYN066AAXX  07121 13389 32698 11402 10248 20056 39924 40190 57013 81100;EQDQ01  00002PRCP99
0163133890999992000050715004+42980+021950FM-12+023299999V0200601N001012200019N0500001N1+02621+00331101811ADDAA199000091GF101991011011012501001001MA1999999099161MD1710081+9999REMSYN066AAXX  07151 13389 32699 10601 10262 20033 39916 40181 57008 81100;EQDQ01  00002PRCP99
0196133890999992000050718004+42980+021950FM-12+023299999V0202101N001012200019N0200001N1+01881+00901101891ADDAA199000091GA1001+999999999GF100991001001999999001001KA1999M+02621MA1999999099181MD1310021+9999REMSYN070AAXX  07181 13389 32998 02101 10188 20090 39918 40189 53002 333 10262;EQDQ01  00002PRCP99
0173133890999992000050721004+42980+021950FM-12+023299999V0209999C000012200019N0200001N1+01081+00861102141ADDAA199000091GA1001+999999999GF100991001001999999001001MA1999999099351MD1210171+9999REMSYN060AAXX  07211 13389 32998 00000 10108 20086 39935 40214 52017;EQDQ01  00002PRCP99
0173133890999992000050800004+42980+021950FM-12+023299999V0209999C000012200019N0200001N1+00801+00641102221ADDAA199000091GA1001+999999999GF100991001001999999001001MA1999999099401MD1110051+9999REMSYN060AAXX  08001 13389 32998 00000 10080 20064 39940 40222 51005;EQDQ01  00002PRCP99
0173133890999992000050803004+42980+021950FM-12+023299999V0209999C000012200019N0200001N1+00641+00511102271ADDAA199000091GA1001+999999999GF100991001001999999001001MA1999999099431MD1310031+9999REMSYN060AAXX  08031 13389 32998 00000 10064 20051 39943 40227 53003;EQDQ01  00002PRCP99
0163133890999992000050809004+42980+021950FM-12+023299999V0200301N001012200019N0200001N1+02101+00771102261ADDAA199000091GF101991011011012501001001MA1999999099561MD1410001+9999REMSYN066AAXX  08091 13389 32698 10301 10210 20077 39956 40226 54000 81100;EQDQ01  00002PRCP99
0163133890999992000050812004+42980+021950FM-12+023299999V0201101N002012200019N0200001N1+02601+00881102011ADDAA199000091GF102991021021012501001001MA1999999099361MD1810201+9999REMSYN066AAXX  08121 13389 32698 21102 10260 20088 39936 40201 58020 82200;EQDQ01  00002PRCP99
0163133890999992000050815004+42980+021950FM-12+023299999V0201701N002012200019N0200001N1+02811+00921101851ADDAA199000091GF106991031021012501001011MA1999999099221MD1710141+9999REMSYN066AAXX  08151 13389 32698 61702 10281 20092 39922 40185 57014 83201;EQDQ01  00002PRCP99
0186133890999992000050818004+42980+021950FM-12+023299999V0202901N003012200019N0200001N1+02261+00951101911ADDAA199000091GF106991021021012501001061KA1999M+02811MA1999999099241MD1310021+9999REMSYN076AAXX  08181 13389 32698 62903 10226 20095 39924 40191 53002 82206 333 10281;EQDQ01  00002PRCP99
0191133890999992000050821004+42980+021950FM-12+023299999V0203101N002010150019N0200001N1+01661+01241102141ADDAA199000091AY121031AY221031GF105991051081012501001001MA1999999099411MD1210171+9999MW1131REMSYN072AAXX  08211 13389 31698 53102 10166 20124 39941 40214 52017 71322 85800;EQDQ01  00002PRCP99
0163133890999992000050900004+42980+021950FM-12+023299999V0200501N001012200019N0200001N1+01501+01181102231ADDAA199000091GF104991041081012501001001MA1999999099471MD1110061+9999REMSYN066AAXX  09001 13389 32698 40501 10150 20118 39947 40223 51006 84800;EQDQ01  00002PRCP99
0163133890999992000050903004+42980+021950FM-12+023299999V0201601N001010150019N0200001N1+01221+01061102261ADDAA199000091GF106991061081012501001001MA1999999099471MD1410001+9999REMSYN066AAXX  09031 13389 32698 61601 10122 20106 39947 40226 54000 86800;EQDQ01  00002PRCP99
0216133890999992000050906004+42980+021950FM-12+023299999V0201301N001012200019N0200001N1+01721+00981102341ADDAA199000091GF102991021001999999031001IA1019IA2999+00909KA1120N+01201MA1999999099561MD1310091+9999REMSYN088AAXX  09061 13389 32998 21301 10172 20098 39956 40234 53009 82030 333 20120 30009 55132;EQDQ01  00002PRCP99
0163133890999992000050909004+42980+021950FM-12+023299999V0209999C000012200019N0200001N1+02361+01001102251ADDAA199000091GF101991011021012501001001MA1999999099571MD1110011+9999REMSYN066AAXX  09091 13389 32698 10000 10236 20100 39957 40225 51001 81200;EQDQ01  00002PRCP99
0163133890999992000050912004+42980+021950FM-12+023299999V0202901N002012200019N0200001N1+02601+00981102131ADDAA199000091GF102991021021012501001001MA1999999099481MD1810091+9999REMSYN066AAXX  09121 13389 32698 22902 10260 20098 39948 40213 58009 82200;EQDQ01  00002PRCP99
0163133890999992000050915004+42980+021950FM-12+023299999V0209999C000012200019N0200001N1+02721+00971101951ADDAA199000091GF102991011021012501001011MA1999999099311MD1710171+9999REMSYN066AAXX  09151 13389 32698 20000 10272 20097 39931 40195 57017 81201;EQDQ01  00002PRCP99
0186133890999992000050918004+42980+021950FM-12+023299999V0202001N001012200019N0200001N1+02131+01381102001ADDAA199000091GF101991001001999999001011KA1999M+02721MA1999999099311MD1510001+9999REMSYN076AAXX  09181 13389 32998 12001 10213 20138 39931 40200 55000 80001 333 10272;EQDQ01  00002PRCP99
0173133890999992000050921004+42980+021950FM-12+023299999V0209999C000012200019N0200001N1+01561+01181102161ADDAA199000091GA1001+999999999GF100991001001999999001001MA1999999099421MD1110111+9999REMSYN060AAXX  09211 13389 32998 00000 10156 20118 39942 40216 51011;EQDQ01  00002PRCP99
0173133890999992000051000004+42980+021950FM-12+023299999V0201601N001012200019N0200001N1+01221+01051102201ADDAA199000091GA1001+999999999GF100991001001999999001001MA1999999099421MD1410001+9999REMSYN060AAXX  10001 13389 32998 01601 10122 20105 39942 40220 54000;EQDQ01  00002PRCP99
0179133890999992000051003004+42980+021950FM-12+023299999V0201601N006019999999N0200001N1+01121+00951102211ADDAA199000091GF108991999001999999031001MA1999999099521MD1410001+9999REMSYN066AAXX  10031 13389 32998 81606 10112 20095 39952 40221 54000 83030;EQDQ01+000032SCOTLCQ02  00002PRCP99
0216133890999992000051006004+42980+021950FM-12+023299999V0209999C000012200019N0200001N1+01471+01111102241ADDAA199000091GF104991041001999999031001IA1019IA2999+00709KA1120N+01121MA1999999099481MD1310081+9999REMSYN088AAXX  10061 13389 32998 40000 10147 20111 39948 40224 53008 84030 333 20112 30007 55125;EQDQ01  00002PRCP99
0173133890999992000051009004+42980+021950FM-12+023299999V0201401N001012200019N0200001N1+02341+01151102061ADDAA199000091GA1001+999999999GF100991001001999999001001MA1999999099381MD1810101+9999REMSYN060AAXX  10091 13389 32998 01401 10234 20115 39938 40206 58010;EQDQ01  00002PRCP99
0163133890999992000051012004+42980+021950FM-12+023299999V0201401N002012200019N0200001N1+02781+01251101811ADDAA199000091GF101991011021012501001001MA1999999099181MD1710201+9999REMSYN066AAXX  10121 13389 32698 11402 10278 20125 39918 40181 57020 81200;EQDQ01  00002PRCP99
0163133890999992000051015004+42980+021950FM-12+023299999V0201701N002012200019N0200001N1+03001+00971101611ADDAA199000091GF101991011021012501001001MA1999999099001MD1710181+9999REMSYN066AAXX  10151 13389 32698 11702 10300 20097 39900 40161 57018 81200;EQDQ01  00002PRCP99
0186133890999992000051018004+42980+021950FM-12+023299999V0202101N002012200019N0200001N1+02381+00861101621ADDAA199000091GF102991001001999999001011KA1999M+03001MA1999999098961MD1610041+9999REMSYN076AAXX  10181 13389 32998 22102 10238 20086 39896 40162 56004 80001 333 10300;EQDQ01  00002PRCP99
0173133890999992000051021004+42980+021950FM-12+023299999V0209999C000012200019N0200001N1+01651+01091101831ADDAA199000091GA1001+999999999GF100991001001999999001001MA1999999099091MD1310131+9999REMSYN060AAXX  10211 13389 32998 00000 10165 20109 39909 40183 53013;EQDQ01  00002PRCP99
0173133890999992000051100004+42980+021950FM-12+023299999V0209999C000012200019N0200001N1+01281+01111101931ADDAA199000091GA1001+999999999GF100991001001999999001001MA1999999099161MD1210071+9999REMSYN060AAXX  11001 13389 32998 00000 10128 20111 39916 40193 52007;EQDQ01  00002PRCP99
0173133890999992000051103004+42980+021950FM-12+023299999V0201901N001012200019N0200001N1+01101+00971101981ADDAA199000091GA1001+999999999GF100991001001999999001001MA1999999099191MD1210031+9999REMSYN060AAXX  11031 13389 32998 01901 10110 20097 39919 40198 52003;EQDQ01  00002PRCP99
0216133890999992000051106004+42980+021950FM-12+023299999V0202001N001019999999N0200001N1+01761+01001101891ADDAA199000091GF107991001001999999001061IA1019IA2999+00809KA1120N+01081MA1999999099171MD1810021+9999REMSYN088AAXX  11061 13389 32998 72001 10176 20100 39917 40189 58002 80006 333 20108 30008 55116;EQDQ01  00002PRCP99
0163133890999992000051109004+42980+021950FM-12+023299999V0202201N002012200019N0200001N1+02581+01081101721ADDAA199000091GF102991001001999999001011MA1999999099081MD1710091+9999REMSYN066AAXX  11091 13389 32998 22202 10258 20108 39908 40172 57009 80001;EQDQ01  00002PRCP99
0163133890999992000051112004+42980+021950FM-12+023299999V0202701N002012200019N0200001N1+02821+01051101501ADDAA199000091GF103991011021012501001011MA1999999098881MD1710201+9999REMSYN066AAXX  11121 13389 32698 32702 10282 20105 39888 40150 57020 81201;EQDQ01  00002PRCP99
0186133890999992000051118004+42980+021950FM-12+023299999V0202201N001012200019N0200001N1+02341+01201101331ADDAA199000091GF101991001001999999001011KA1999M+02941MA1999999098671MD1610071+9999REMSYN076AAXX  11181 13389 32998 12201 10234 20120 39867 40133 56007 80001 333 10294;EQDQ01  00002PRCP99
0173133890999992000051121004+42980+021950FM-12+023299999V0209999C000012200019N0200001N1+01641+01321101601ADDAA199000091GA1001+999999999GF100991001001999999001001MA1999999098871MD1210201+9999REMSYN060AAXX  11211 13389 32998 00000 10164 20132 39887 40160 52020;EQDQ01  00002PRCP99
0163133890999992000051200004+42980+021950FM-12+023299999V0200401N001012200019N0200001N1+01501+01271101631ADDAA199000091GF102991021001999999031001MA1999999098891MD1110021+9999REMSYN066AAXX  12001 13389 32998 20401 10150 20127 39889 40163 51002 82030;EQDQ01  00002PRCP99
0163133890999992000051203004+42980+021950FM-12+023299999V0209999C000010360019N0200001N1+01381+01211101641ADDAA199000091GF106991041051012501031001MA1999999098891MD1410001+9999REMSYN066AAXX  12031 13389 32698 60000 10138 20121 39889 40164 54000 84530;EQDQ01  00002PRCP99
0216133890999992000051206004+42980+021950FM-12+023299999V0201801N001010360019N0200001N1+01661+01351101791ADDAA199000091GF107991041051012501031001IA1019IA2999+01009KA1120N+01371MA1999999099071MD1110181+9999REMSYN088AAXX  12061 13389 32698 71801 10166 20135 39907 40179 51018 84530 333 20137 30010 55128;EQDQ01  00002PRCP99
0163133890999992000051209004+42980+021950FM-12+023299999V0201601N001012200019N0200001N1+02391+01201101691ADDAA199000091GF102991011021012501031001MA1999999099031MD1810041+9999REMSYN066AAXX  12091 13389 32698 21601 10239 20120 39903 40169 58004 81230;EQDQ01  00002PRCP99
0163133890999992000051212004+42980+021950FM-12+023299999V0203601N001012200019N0200001N1+02721+01231101461ADDAA199000091GF104991021021012501001011MA1999999098831MD1710201+9999REMSYN066AAXX  12121 13389 32698 43601 10272 20123 39883 40146 57020 82201;EQDQ01  00002PRCP99
0163133890999992000051215004+42980+021950FM-12+023299999V0201501N002010120019N0200001N1+02771+01201101281ADDAA199000091GF106991061091012501001001MA1999999098661MD1710171+9999REMSYN066AAXX  12151 13389 32698 61502 10277 20120 39866 40128 57017 86900;EQDQ01  00002PRCP99
0214133890999992000051218004+42980+021950FM-12+023299999V0209999C000012200019N0200001N1+02261+01551101331ADDAA199000091AY191061AY211061GF103991021081012501001011KA1999M+02801MA1999999098681MD1110021+9999MW1011REMSYN082AAXX  12181 13389 31698 30000 10226 20155 39868 40133 51002 70191 82801 333 10280;EQDQ01  00002PRCP99
0163133890999992000051221004+42980+021950FM-12+023299999V0209999C000012200019N0200001N1+01701+01491101541ADDAA199000091GF104991031051012501031001MA1999999098831MD1310151+9999REMSYN066AAXX  12211 13389 32698 40000 10170 20149 39883 40154 53015 83530;EQDQ01  00002PRCP99
0178133890999992000051300004+42980+021950FM-12+023299999V0203201N004010150019N0100001N1+01791+01341101691ADDAA106000191AY161061AY211061GF108991081081012501999999MA1999999098981MD1210151+9999MW1611REMSYN078AAXX  13001 13389 11697 83204 10179 20134 39898 40169 52015 69921 76161 888//;
0172133890999992000051303004+42980+021950FM-12+023299999V0209999C000010120019N0200001N1+01621+01471101621ADDAA199000021AY121031AY261031GF107991051051012501031001MA1999999098901MD1810081+9999MW1021REMSYN072AAXX  13031 13389 31698 70000 10162 20147 39890 40162 58008 70226 85530;
0203133890999992000051306004+42980+021950FM-12+023299999V0202001N001019999999N0200001N1+01971+01351101781ADDAA112000391GF107991071001999999071001IA1019IA2999+01309KA1120N+01611MA1999999099091MD1310191+9999REMSYN094AAXX  13061 13389 11998 72001 10197 20135 39909 40178 53019 69932 87070 333 20161 30013 55076;
0148133890999992000051309004+42980+021950FM-12+023299999V0203401N004010150019N0200001N1+02131+01411101841ADDAA199000021GF107991071081012501001001MD1310061+9999REMSYN066AAXX  13091 13389 32698 73404 10213 20141 39175 40184 53006 87800;EQDQ01+091753APOSP 
0144133890999992000051312004+42980+021950FM-12+023299999V0203201N003012200019N0200001N1+02231+01301101831ADDAA199000021GF104991021021012501001011MA1999999099151MD1010001+9999REMSYN066AAXX  13121 13389 32698 43203 10223 20130 39915 40183 50000 82201;
0163133890999992000051315004+42980+021950FM-12+023299999V0203401N005010360019N0200001N1+02111+01121101831ADDAA199000091GF107991031021012501031011MA1999999099141MD1510011+9999REMSYN066AAXX  13151 13389 32698 73405 10211 20112 39914 40183 55001 83231;EQDQ01  00002PRCP99
0186133890999992000051318004+42980+021950FM-12+023299999V0203401N004010360019N0200001N1+01791+01021101951ADDAA199000091GF106991021021012501031011KA1999M+02351MA1999999099231MD1210091+9999REMSYN076AAXX  13181 13389 32698 63404 10179 20102 39923 40195 52009 82231 333 10235;EQDQ01  00002PRCP99
0163133890999992000051321004+42980+021950FM-12+023299999V0202401N001019999999N0200001N1+01461+00951102161ADDAA199000091GF105991051001999999071001MA1999999099411MD1210181+9999REMSYN066AAXX  13211 13389 32998 52401 10146 20095 39941 40216 52018 85070;EQDQ01  00002PRCP99
0163133890999992000051400004+42980+021950FM-12+023299999V0209999C000019999999N0200001N1+01241+00941102211ADDAA199000091GF107991031001999999031061MA1999999099431MD1110021+9999REMSYN066AAXX  14001 13389 32998 70000 10124 20094 39943 40221 51002 83036;EQDQ01  00002PRCP99
0163133890999992000051403004+42980+021950FM-12+023299999V0209999C000019999999N0200001N1+01121+00951102221ADDAA199000091GF108991081001999999071999MA1999999099431MD1410001+9999REMSYN066AAXX  14031 13389 32998 80000 10112 20095 39943 40222 54000 8807/;EQDQ01  00002PRCP99
0216133890999992000051406004+42980+021950FM-12+023299999V0200701N001010360019N0200001N1+01361+01061102261ADDAA199000091GF107991031051012501031001IA1019IA2999+00809KA1120N+01121MA1999999099491MD1310061+9999REMSYN088AAXX  14061 13389 32698 70701 10136 20106 39949 40226 53006 83530 333 20112 30008 55080;EQDQ01  00002PRCP99
0163133890999992000051409004+42980+021950FM-12+023299999V0200201N002010360019N0200001N1+01781+01051102251ADDAA199000091GF107991031051012501071001MA1999999099521MD1110031+9999REMSYN066AAXX  14091 13389 32698 70202 10178 20105 39952 40225 51003 83570;EQDQ01  00002PRCP99
0163133890999992000051412004+42980+021950FM-12+023299999V0203401N002010150019N0100001N1+02131+01061102111ADDAA199000091GF107991071081012501001001MA1999999099411MD1810111+9999REMSYN066AAXX  14121 13389 32697 73402 10213 20106 39941 40211 58011 87800;EQDQ01  00002PRCP99
0186133890999992000051418004+42980+021950FM-12+023299999V0209999C000012200019N0200001N1+01881+01051101961ADDAA199000091GF104991041001999999031001KA1999M+02271MA1999999099251MD1510001+9999REMSYN076AAXX  14181 13389 32998 40000 10188 20105 39925 40196 55000 84030 333 10227;EQDQ01  00002PRCP99
0163133890999992000051421004+42980+021950FM-12+023299999V0209999C000019999999N0200001N1+01601+01121102121ADDAA199000091GF106991061001999999071001MA1999999099381MD1110131+9999REMSYN066AAXX  14211 13389 32998 60000 10160 20112 39938 40212 51013 86070;EQDQ01  00002PRCP99
0163133890999992000051500004+42980+021950FM-12+023299999V0209999C000010360019N0200001N1+01291+01091102151ADDAA199000091GF106991021051012501071001MA1999999099381MD1410001+9999REMSYN066AAXX  15001 13389 32698 60000 10129 20109 39938 40215 54000 82570;EQDQ01  00002PRCP99
0173133890999992000051503004+42980+021950FM-12+023299999V0201901N001012200019N0200001N1+00901+00791102191ADDAA199000091GA1001+999999999GF100991001001999999001001MA1999999099381MD1410001+9999REMSYN060AAXX  15031 13389 32998 01901 10090 20079 39938 40219 54000;EQDQ01  00002PRCP99
0216133890999992000051506004+42980+021950FM-12+023299999V0209999C000019999999N0200001N1+01441+01091102211ADDAA199000091GF105991001001999999001051IA1019IA2999+00409KA1120N+00881MA1999999099451MD1310071+9999REMSYN088AAXX  15061 13389 32998 50000 10144 20109 39945 40221 53007 80005 333 20088 30004 55028;EQDQ01  00002PRCP99
0163133890999992000051509004+42980+021950FM-12+023299999V0203601N003012200019N0200001N1+02001+00831102151ADDAA199000091GF106991011021012501001061MA1999999099441MD1810011+9999REMSYN066AAXX  15091 13389 32698 63603 10200 20083 39944 40215 58001 81206;EQDQ01  00002PRCP99
0163133890999992000051512004+42980+021950FM-12+023299999V0202901N004010900019N0200001N1+02401+00831101951ADDAA199000091GF106991021021012501001051MA1999999099281MD1710151+9999REMSYN066AAXX  15121 13389 32698 62904 10240 20083 39928 40195 57015 82205;EQDQ01  00002PRCP99
0163133890999992000051515004+42980+021950FM-12+023299999V0203301N004012200019N0200001N1+02431+00791101791ADDAA199000091GF106991041081012501001011MA1999999099131MD1610151+9999REMSYN066AAXX  15151 13389 32698 63304 10243 20079 39913 40179 56015 84801;EQDQ01  00002PRCP99
0214133890999992000051518004+42980+021950FM-12+023299999V0201601N002010360019N0200001N1+01861+01151101861ADDAA199000091AY121061AY291061GF107991041081012501031001KA1999M+02501MA1999999099151MD1310021+9999MW1021REMSYN082AAXX  15181 13389 31698 71602 10186 20115 39915 40186 53002 70229 84830 333 10250;EQDQ01  00002PRCP99
0163133890999992000051521004+42980+021950FM-12+023299999V0201601N002012200019N0200001N1+01521+01241102001ADDAA199000091GF102991021001999999031001MA1999999099251MD1210101+9999REMSYN066AAXX  15211 13389 32998 21602 10152 20124 39925 40200 52010 82030;EQDQ01  00002PRCP99
0163133890999992000051600004+42980+021950FM-12+023299999V0201401N001012200019N0200001N1+01111+01001102071ADDAA199000091GF101991011001999999031001MA1999999099281MD1110031+9999REMSYN066AAXX  16001 13389 32998 11401 10111 20100 39928 40207 51003 81030;EQDQ01  00002PRCP99
0142133890999992000051603004+42980+021950FM-12+023299999V0209999C000012200019N0200001N1+00871+00761102091ADDAA199000091GF101991011001999999031001MD1410001+9999REMSYN060AAXX  16031 13389 32998 10000 10087 20076 40209 54000 81030;EQDQ01  00002PRCP99
0216133890999992000051606004+42980+021950FM-12+023299999V0209999C000012200019N0200001N1+01331+01061102111ADDAA199000091GF102991021001999999031001IA1019IA2999+00509KA1120N+00871MA1999999099341MD1310061+9999REMSYN088AAXX  16061 13389 32998 20000 10133 20106 39934 40211 53006 82030 333 20087 30005 55123;EQDQ01  00002PRCP99
0163133890999992000051609004+42980+021950FM-12+023299999V0203201N002012200019N0200001N1+02081+01061101951ADDAA199000091GF102991021021012501001001MA1999999099261MD1810081+9999REMSYN066AAXX  16091 13389 32698 23202 10208 20106 39926 40195 58008 82200;EQDQ01  00002PRCP99
0163133890999992000051612004+42980+021950FM-12+023299999V0203201N003010120019N0200001N1+02521+00791101751ADDAA199000091GF105991051021012501001001MA1999999099101MD1710171+9999REMSYN066AAXX  16121 13389 32698 53203 10252 20079 39910 40175 57017 85200;EQDQ01  00002PRCP99
0163133890999992000051615004+42980+021950FM-12+023299999V0203601N005010150019N0200001N1+02561+00721101601ADDAA199000091GF105991051081012501001001MA1999999098961MD1710141+9999REMSYN066AAXX  16151 13389 32698 53605 10256 20072 39896 40160 57014 85800;EQDQ01  00002PRCP99
0186133890999992000051618004+42980+021950FM-12+023299999V0203301N002012200019N0200001N1+02141+00771101651ADDAA199000091GF102991021051012501001001KA1999M+02611MA1999999098961MD1510001+9999REMSYN076AAXX  16181 13389 32698 23302 10214 20077 39896 40165 55000 82500 333 10261;EQDQ01  00002PRCP99
0173133890999992000051621004+42980+021950FM-12+023299999V0201801N001012200019N0200001N1+01341+01081101811ADDAA199000091GA1001+999999999GF100991001001999999001001MA1999999099051MD1210091+9999REMSYN060AAXX  16211 13389 32998 01801 10134 20108 39905 40181 52009;EQDQ01  00002PRCP99
0173133890999992000051700004+42980+021950FM-12+023299999V0201901N001012200019N0200001N1+00981+00851101881ADDAA199000091GA1001+999999999GF100991001001999999001001MA1999999099091MD1110041+9999REMSYN060AAXX  17001 13389 32998 01901 10098 20085 39909 40188 51004;EQDQ01  00002PRCP99
0226133890999992000051706004+42980+021950FM-12+023299999V0201101N001012200019N0200001N1+01401+00851101841ADDAA199000091GA1001+999999999GF100991001001999999001001IA1019IA2999+00309KA1120N+00701MA1999999099091MD1410001+9999REMSYN082AAXX  17061 13389 32998 01101 10140 20085 39909 40184 54000 333 20070 30003 55129;EQDQ01  00002PRCP99
0163133890999992000051709004+42980+021950FM-12+023299999V0201601N002012200019N0200001N1+02201+00941101751ADDAA199000091GF101991011021012501001001MA1999999099071MD1810021+9999REMSYN066AAXX  17091 13389 32698 11602 10220 20094 39907 40175 58002 81200;EQDQ01  00002PRCP99
0163133890999992000051712004+42980+021950FM-12+023299999V0200501N002012200019N0200001N1+02661+00681101481ADDAA199000091GF102991021021012501001001MA1999999098551MD1710221+9999REMSYN066AAXX  17121 13389 32698 20502 10266 20068 39855 40148 57022 82200;EQDQ01  00002PRCP99
0163133890999992000051715004+42980+021950FM-12+023299999V0200201N002012200019N0200001N1+02781+00661101301ADDAA199000091GF103991031021012501001001MA1999999098681MD1710171+9999REMSYN066AAXX  17151 13389 32698 30202 10278 20066 39868 40130 57017 83200;EQDQ01  00002PRCP99
0186133890999992000051718004+42980+021950FM-12+023299999V0202901N003012200019N0200001N1+02121+00381101361ADDAA199000091GF101991011021012501001001KA1999M+02801MA1999999098681MD1510001+9999REMSYN076AAXX  17181 13389 32698 12903 10212 20038 39868 40136 55000 81200 333 10280;EQDQ01  00002PRCP99
0173133890999992000051721004+42980+021950FM-12+023299999V0201101N002012200019N0200001N1+01651+00791101461ADDAA199000091GA1001+999999999GF100991001001999999001001MA1999999098741MD1210061+9999REMSYN060AAXX  17211 13389 32998 01102 10165 20079 39874 40146 52006;EQDQ01  00002PRCP99
0173133890999992000051800004+42980+021950FM-12+023299999V0201601N001012200019N0200001N1+01041+00811101511ADDAA199000091GA1001+999999999GF100991001001999999001001MA1999999098731MD1310011+9999REMSYN060AAXX  18001 13389 32998 01601 10104 20081 39873 40151 53001;EQDQ01  00002PRCP99
0173133890999992000051803004+42980+021950FM-12+023299999V0201801N001012200019N0200001N1+00801+00701101501ADDAA199000091GA1001+999999999GF100991001001999999001001MA1999999098701MD1710031+9999REMSYN060AAXX  18031 13389 32998 01801 10080 20070 39870 40150 57003;EQDQ01  00002PRCP99
0226133890999992000051806004+42980+021950FM-12+023299999V0200801N001012200019N0200001N1+01501+00881101431ADDAA199000091GA1001+999999999GF100991001001999999001001IA1019IA2999+00409KA1120N+00801MA1999999098701MD1410001+9999REMSYN082AAXX  18061 13389 32998 00801 10150 20088 39870 40143 54000 333 20080 30004 55138;EQDQ01  00002PRCP99
0179133890999992000051809004+42980+021950FM-12+023299999V0201201N001012200019N0200001N1+02341+00981999999ADDAA199000091GF101991011021012501001001MA1999999098551MD1710161+9999REMSYN066AAXX  18091 13389 32698 11201 10234 20098 39855 40212 57016 81200;EQDQ01+102123APOSLPQ02  00002PRCP99
0163133890999992000051812004+42980+021950FM-12+023299999V0202001N002012200019N0200001N1+02801+00791101001ADDAA199000091GF103991031021012501001001MA1999999098391MD1710161+9999REMSYN066AAXX  18121 13389 32698 32002 10280 20079 39839 40100 57016 83200;EQDQ01  00002PRCP99
0163133890999992000051815004+42980+021950FM-12+023299999V0202001N001012200019N0200001N1+02881+00681100841ADDAA199000091GF102991021021012501001001MA1999999098251MD1610141+9999REMSYN066AAXX  18151 13389 32698 22001 10288 20068 39825 40084 56014 82200;EQDQ01  00002PRCP99
0186133890999992000051818004+42980+021950FM-12+023299999V0202101N001012200019N0200001N1+02221+01081100891ADDAA199000091GF103991021081012501031001KA1999M+02901MA1999999098231MD1610021+9999REMSYN076AAXX  18181 13389 32698 32101 10222 20108 39823 40089 56002 82830 333 10290;EQDQ01  00002PRCP99
0163133890999992000051821004+42980+021950FM-12+023299999V0203301N001012200019N0200001N1+01531+01051101111ADDAA199000091GF102991021081012501001001MA1999999098381MD1310151+9999REMSYN066AAXX  18211 13389 32698 23301 10153 20105 39838 40111 53015 82800;EQDQ01  00002PRCP99
0173133890999992000051900004+42980+021950FM-12+023299999V0202101N002012200019N0200001N1+01161+00951101131ADDAA199000091GA1001+999999999GF100991001001999999001001MA1999999098381MD1410001+9999REMSYN060AAXX  19001 13389 32998 02102 10116 20095 39838 40113 54000;EQDQ01  00002PRCP99
0173133890999992000051903004+42980+021950FM-12+023299999V0201201N001012200019N0200001N1+00961+00851101151ADDAA199000091GA1001+999999999GF100991001001999999001001MA1999999098381MD1410001+9999REMSYN060AAXX  19031 13389 32998 01201 10096 20085 39838 40115 54000;EQDQ01  00002PRCP99
0226133890999992000051906004+42980+021950FM-12+023299999V0209999C000012200019N0200001N1+01681+01001101151ADDAA199000091GA1001+999999999GF100991001001999999001001IA1019IA2999+00609KA1120N+00961MA1999999098441MD1310061+9999REMSYN082AAXX  19061 13389 32998 00000 10168 20100 39844 40115 53006 333 20096 30006 55132;EQDQ01  00002PRCP99
0173133890999992000051909004+42980+021950FM-12+023299999V0203401N002012200019N0200001N1+02481+00941100961ADDAA199000091GA1001+999999999GF100991001001999999001001MA1999999098331MD1710111+9999REMSYN060AAXX  19091 13389 32998 03402 10248 20094 39833 40096 57011;EQDQ01  00002PRCP99
0163133890999992000051912004+42980+021950FM-12+023299999V0201801N003012200019N0200001N1+02781+00771100761ADDAA199000091GF102991021021012501001001MA1999999098161MD1710171+9999REMSYN066AAXX  19121 13389 32698 21803 10278 20077 39816 40076 57017 82200;EQDQ01  00002PRCP99
0163133890999992000051915004+42980+021950FM-12+023299999V0202101N003012200019N0200001N1+02841+00811100581ADDAA199000091GF102991021021012501001001MA1999999097981MD1710181+9999REMSYN066AAXX  19151 13389 32698 22103 10284 20081 39798 40058 57018 82200;EQDQ01  00002PRCP99
0202133890999992000051918004+42980+021950FM-12+023299999V0202701N003012200019N0200001N1+02381+00561999999ADDAA199000091GF101991011001999999031001KA1999M+02861MA1999999097951MD1710031+9999REMSYN076AAXX  19181 13389 32998 12703 10238 20056 39795 40158 57003 81030 333 10286;EQDQ01+101583APOSLPQ02  00002PRCP99
0163133890999992000051921004+42980+021950FM-12+023299999V0201101N002012200019N0200001N1+01881+00601100841ADDAA199000091GF103991031001999999031001MA1999999098161MD1210211+9999REMSYN066AAXX  19211 13389 32998 31102 10188 20060 39816 40084 52021 83030;EQDQ01  00002PRCP99
0163133890999992000052000004+42980+021950FM-12+023299999V0200201N001012200019N0200001N1+01421+00811100991ADDAA199000091GF103991021051012501031001MA1999999098261MD1210101+9999REMSYN066AAXX  20001 13389 32698 30201 10142 20081 39826 40099 52010 82530;EQDQ01  00002PRCP99
0173133890999992000052003004+42980+021950FM-12+023299999V0201801N001012200019N0200001N1+01221+00971101061ADDAA199000091GA1001+999999999GF100991001001999999001001MA1999999098311MD1110051+9999REMSYN060AAXX  20031 13389 32998 01801 10122 20097 39831 40106 51005;EQDQ01  00002PRCP99
0216133890999992000052006004+42980+021950FM-12+023299999V0209999C000012200019N0200001N1+01621+01061101101ADDAA199000091GF102991021001999999031001IA1019IA2999+00809KA1120N+01161MA1999999098381MD1110071+9999REMSYN088AAXX  20061 13389 32998 20000 10162 20106 39838 40110 51007 82030 333 20116 30008 55137;EQDQ01  00002PRCP99
0163133890999992000052009004+42980+021950FM-12+023299999V0200701N001012200019N0100001N1+02141+01081100901ADDAA199000091GF101991011011012501001001MA1999999098241MD1810141+9999REMSYN066AAXX  20091 13389 32697 10701 10214 20108 39824 40090 58014 81100;EQDQ01  00002PRCP99
0163133890999992000052012004+42980+021950FM-12+023299999V0202001N002010360019N0200001N1+02601+01001100671ADDAA199000091GF105991031021012501031001MA1999999098031MD1710211+9999REMSYN066AAXX  20121 13389 32698 52002 10260 20100 39803 40067 57021 83230;EQDQ01  00002PRCP99
0163133890999992000052015004+42980+021950FM-12+023299999V0203601N002010360019N0200001N1+02571+00981100521ADDAA199000091GF107991021021012501071001MA1999999097911MD1710121+9999REMSYN066AAXX  20151 13389 32698 73602 10257 20098 39791 40052 57012 82270;EQDQ01  00002PRCP99
0186133890999992000052018004+42980+021950FM-12+023299999V0202401N003010360019N0200001N1+02331+00741100591ADDAA199000091GF107991041021012501031001KA1999M+02651MA1999999097951MD1310041+9999REMSYN076AAXX  20181 13389 32698 72403 10233 20074 39795 40059 53004 84230 333 10265;EQDQ01  00002PRCP99
0163133890999992000052021004+42980+021950FM-12+023299999V0202301N003012200019N0200001N1+01981+00621100781ADDAA199000091GF104991021051012501031001MA1999999098111MD1210161+9999REMSYN066AAXX  20211 13389 32698 42303 10198 20062 39811 40078 52016 82530;EQDQ01  00002PRCP99
0163133890999992000052100004+42980+021950FM-12+023299999V0202901N003012200019N0200001N1+01601+00861100951ADDAA199000091GF102991021001999999031001MA1999999098241MD1210131+9999REMSYN066AAXX  21001 13389 32998 22903 10160 20086 39824 40095 52013 82030;EQDQ01  00002PRCP99
0163133890999992000052103004+42980+021950FM-12+023299999V0203401N006010150019N0100001N1+01241+00921101261ADDAA199000091GF107991051081012501031001MA1999999098501MD1210261+9999REMSYN066AAXX  21031 13389 32697 73406 10124 20092 39850 40126 52026 85830;EQDQ01  00002PRCP99
0216133890999992000052106004+42980+021950FM-12+023299999V0203401N004010150019N0100001N1+01271+00811101531ADDAA199000091GF108991081081012501999999IA1019IA2999+01209KA1120N+01241MA1999999098771MD1210271+9999REMSYN088AAXX  21061 13389 32697 83404 10127 20081 39877 40153 52027 888// 333 20124 30012 55094;EQDQ01  00002PRCP99
0163133890999992000052109004+42980+021950FM-12+023299999V0203401N003010150019N0100001N1+01481+00761101601ADDAA199000091GF107991071081012501001001MA1999999098861MD1210091+9999REMSYN066AAXX  21091 13389 32697 73403 10148 20076 39886 40160 52009 87800;EQDQ01  00002PRCP99
0163133890999992000052112004+42980+021950FM-12+023299999V0200201N003012200019N0200001N1+01881+00761101451ADDAA199000091GF104991041081012501001001MA1999999098751MD1810111+9999REMSYN066AAXX  21121 13389 32698 40203 10188 20076 39875 40145 58011 84800;EQDQ01  00002PRCP99
0163133890999992000052115004+42980+021950FM-12+023299999V0201701N002012200019N0200001N1+02021+00771101281ADDAA199000091GF101991011021012501001001MA1999999098601MD1710151+9999REMSYN066AAXX  21151 13389 32698 11702 10202 20077 39860 40128 57015 81200;EQDQ01  00002PRCP99
0186133890999992000052118004+42980+021950FM-12+023299999V0209999C000012200019N0200001N1+01761+00851101261ADDAA199000091GF104991031081012501031001KA1999M+02071MA1999999098561MD1610041+9999REMSYN076AAXX  21181 13389 32698 40000 10176 20085 39856 40126 56004 83830 333 10207;EQDQ01  00002PRCP99
0163133890999992000052121004+42980+021950FM-12+023299999V0200701N001012200019N0200001N1+01531+01081101411ADDAA199000091GF104991041051012501001001MA1999999098681MD1310121+9999REMSYN066AAXX  21211 13389 32698 40701 10153 20108 39868 40141 53012 84500;EQDQ01  00002PRCP99
0163133890999992000052200004+42980+021950FM-12+023299999V0201801N001012200019N0200001N1+01241+01061101441ADDAA199000091GF103991031051012501001001MA1999999098681MD1410001+9999REMSYN066AAXX  22001 13389 32698 31801 10124 20106 39868 40144 54000 83500;EQDQ01  00002PRCP99
0163133890999992000052203004+42980+021950FM-12+023299999V0209999C000012200019N0200001N1+00991+00861101661ADDAA199000091GF101991011001999999031001MA1999999098681MD1410001+9999REMSYN066AAXX  22031 13389 32998 10000 10099 20086 39868 40166 54000 81030;EQDQ01  00002PRCP99
0216133890999992000052206004+42980+021950FM-12+023299999V0209999C000012200019N0200001N1+01541+01121101411ADDAA199000091GF103991001001999999001011IA1019IA2999+00609KA1120N+00941MA1999999098681MD1410001+9999REMSYN088AAXX  22061 13389 32998 30000 10154 20112 39868 40141 54000 80001 333 20094 30006 55077;EQDQ01  00002PRCP99
0163133890999992000052209004+42980+021950FM-12+023299999V0203601N001012200019N0200001N1+02371+00921101281ADDAA199000091GF103991021021012501001011MA1999999098631MD1810051+9999REMSYN066AAXX  22091 13389 32698 33601 10237 20092 39863 40128 58005 82201;EQDQ01  00002PRCP99
0163133890999992000052212004+42980+021950FM-12+023299999V0202001N003012200019N0200001N1+02761+00831101061ADDAA199000091GF106991041021012501001011MA1999999098451MD1710181+9999REMSYN066AAXX  22121 13389 32698 62003 10276 20083 39845 40106 57018 84201;EQDQ01  00002PRCP99
0163133890999992000052215004+42980+021950FM-12+023299999V0202001N004010120019N0200001N1+02711+00831100971ADDAA199000091GF105991051021012501001001MA1999999098351MD1710101+9999REMSYN066AAXX  22151 13389 32698 52004 10271 20083 39835 40097 57010 85200;EQDQ01  00002PRCP99
0186133890999992000052218004+42980+021950FM-12+023299999V0202001N003012200019N0200001N1+02381+00621101111ADDAA199000091GF104991041081012501001001KA1999M+02761MA1999999098461MD1310111+9999REMSYN076AAXX  22181 13389 32698 42003 10238 20062 39846 40111 53011 84800 333 10276;EQDQ01  00002PRCP99
0163133890999992000052221004+42980+021950FM-12+023299999V0203401N004010150019N0200001N1+01661+01181101661ADDAA199000091GF107991071081012501001001MA1999999098941MD1210481+9999REMSYN066AAXX  22211 13389 32698 73404 10166 20118 39894 40166 52048 87800;EQDQ01  00002PRCP99
0178133890999992000052300004+42980+021950FM-12+023299999V0203401N005010120019N0040001N1+01161+00971101851ADDAA106002091AY161061AY261061GF108991081081008001999999MA1999999099081MD1210141+9999MW1611REMSYN078AAXX  23001 13389 11596 83405 10116 20097 39908 40185 52014 60021 76166 888//;
0172133890999992000052303004+42980+021950FM-12+023299999V0203001N002010360019N0200001N1+01141+00901102021ADDAA199000021AY161031AY261031GF108991031071012501051999MA1999999099281MD1210151+9999MW1211REMSYN072AAXX  23031 13389 31698 83002 10114 20090 39928 40202 52015 72166 8375/;
0231133890999992000052306004+42980+021950FM-12+023299999V0203501N002010120019N0200001N1+01261+00791102111ADDAA112004191AY161061AY221061GF108991051051012501071999IA1099IA2999+01109KA1120N+01141MA1999999099341MD1210111+9999MW1021REMSYN100AAXX  23061 13389 11698 83502 10126 20079 39934 40211 52011 60042 70262 8557/ 333 20114 31011 55123;
0144133890999992000052309004+42980+021950FM-12+023299999V0202401N001010150019N0200001N1+01401+00761102121ADDAA199000021GF108991081081012501999999MA1999999099361MD1110021+9999REMSYN066AAXX  23091 13389 32698 82401 10140 20076 39936 40212 51002 888//;
0144133890999992000052312004+42980+021950FM-12+023299999V0201801N002010360019N0200001N1+01711+00701101921ADDAA199000021GF107991041021012501031001MA1999999099191MD1810171+9999REMSYN066AAXX  23121 13389 32698 71802 10171 20070 39919 40192 58017 84230;
0144133890999992000052315004+42980+021950FM-12+023299999V0203301N002012200019N0200001N1+01981+00641101751ADDAA199000021GF103991031021012501001001MA1999999099051MD1610141+9999REMSYN066AAXX  23151 13389 32698 33302 10198 20064 39905 40175 56014 83200;
0186133890999992000052318004+42980+021950FM-12+023299999V0203601N002012200019N0200001N1+01741+00451101741ADDAA199000091GF103991031001999999031001KA1999M+02021MA1999999099021MD1510031+9999REMSYN076AAXX  23181 13389 32998 33602 10174 20045 39902 40174 55003 83030 333 10202;EQDQ01  00002PRCP99
0173133890999992000052321004+42980+021950FM-12+023299999V0201801N002012200019N0200001N1+01301+00971101901ADDAA199000091GA1001+999999999GF100991001001999999001001MA1999999099141MD1110121+9999REMSYN060AAXX  23211 13389 32998 01802 10130 20097 39914 40190 51012;EQDQ01  00002PRCP99
0180133890999992000052400004+42980+021950FM-12+023299999V0201801N001019999999N0200001N1+00891+00541101981ADDAA199000091GF107991999051012501001001MD1410001+9999REMSYN066AAXX  24001 13389 32698 71801 10089 20054 39680 40198 54000 83500;EQDQ01+000032SCOTLCQ02+096803APOSP Q03  00002PRCP99
0163133890999992000052403004+42980+021950FM-12+023299999V0200501N001010150019N0200001N1+01081+00881101911ADDAA199000091GF108991081081012501999999MA1999999099131MD1810011+9999REMSYN066AAXX  24031 13389 32698 80501 10108 20088 39913 40191 58001 888//;EQDQ01  00002PRCP99
0216133890999992000052406004+42980+021950FM-12+023299999V0202201N002010150019N0100001N1+01361+00861101931ADDAA199000091GF107991071081012501001001IA1099IA2999+00709KA1120N+00991MA1999999099171MD1310041+9999REMSYN088AAXX  24061 13389 32697 72202 10136 20086 39917 40193 53004 87800 333 20099 31007 55051;EQDQ01  00002PRCP99
0163133890999992000052409004+42980+021950FM-12+023299999V0202401N002010075019N0200001N1+01721+00851101901ADDAA199000091GF107991071021008001001001MA1999999099171MD1410001+9999REMSYN066AAXX  24091 13389 32598 72402 10172 20085 39917 40190 54000 87200;EQDQ01  00002PRCP99
0163133890999992000052412004+42980+021950FM-12+023299999V0203401N006012200019N0200001N1+02101+00581101711ADDAA199000091GF104991041021012501001001MA1999999099021MD1810151+9999REMSYN066AAXX  24121 13389 32698 43406 10210 20058 39902 40171 58015 84200;EQDQ01  00002PRCP99
0163133890999992000052415004+42980+021950FM-12+023299999V0203301N004012200019N0200001N1+02201+00511101691ADDAA199000091GF102991021021012501001001MA1999999099011MD1610021+9999REMSYN066AAXX  24151 13389 32698 23304 10220 20051 39901 40169 56002 82200;EQDQ01  00002PRCP99
0186133890999992000052418004+42980+021950FM-12+023299999V0203201N004012200019N0200001N1+01901+00561101751ADDAA199000091GF102991021081012501001001KA1999M+02221MA1999999099051MD1310041+9999REMSYN076AAXX  24181 13389 32698 23204 10190 20056 39905 40175 53004 82800 333 10222;EQDQ01  00002PRCP99
0173133890999992000052421004+42980+021950FM-12+023299999V0202001N001012200019N0200001N1+01261+00831101861ADDAA199000091GA1001+999999999GF100991001001999999001001MA1999999099101MD1110051+9999REMSYN060AAXX  24211 13389 32998 02001 10126 20083 39910 40186 51005;EQDQ01  00002PRCP99
0173133890999992000052500004+42980+021950FM-12+023299999V0201201N001012200019N0200001N1+00901+00721101971ADDAA199000091GA1001+999999999GF100991001001999999001001MA1999999099161MD1110061+9999REMSYN060AAXX  25001 13389 32998 01201 10090 20072 39916 40197 51006;EQDQ01  00002PRCP99
0173133890999992000052503004+42980+021950FM-12+023299999V0201801N001012200019N0200001N1+00701+00561102051ADDAA199000091GA1001+999999999GF100991001001999999001001MA1999999099221MD1310061+9999REMSYN060AAXX  25031 13389 32998 01801 10070 20056 39922 40205 53006;EQDQ01  00002PRCP99
0226133890999992000052506004+42980+021950FM-12+023299999V0200701N001012200019N0200001N1+01341+00661102041ADDAA199000091GA1001+999999999GF100991001001999999001001IA1019IA2999+00409KA1120N+00641MA1999999099281MD1110061+9999REMSYN082AAXX  25061 13389 32998 00701 10134 20066 39928 40204 51006 333 20064 30004 55096;EQDQ01  00002PRCP99
0163133890999992000052509004+42980+021950FM-12+023299999V0202801N001012200019N0200001N1+02121+00791101851ADDAA199000091GF101991011011012501001001MA1999999099161MD1810121+9999REMSYN066AAXX  25091 13389 32698 12801 10212 20079 39916 40185 58012 81100;EQDQ01  00002PRCP99
0163133890999992000052512004+42980+021950FM-12+023299999V0201101N002012200019N0200001N1+02521+01001101651ADDAA199000091GF101991011011012501001001MA1999999099001MD1710161+9999REMSYN066AAXX  25121 13389 32698 11102 10252 20100 39900 40165 57016 81100;EQDQ01  00002PRCP99
0196133890999992000052518004+42980+021950FM-12+023299999V0209999C000012200019N0200001N1+02221+00581101551ADDAA199000091GA1001+999999999GF100991001001999999001001KA1999M+02721MA1999999098881MD1410001+9999REMSYN070AAXX  25181 13389 32998 00000 10222 20058 39888 40155 54000 333 10272;EQDQ01  00002PRCP99
0173133890999992000052521004+42980+021950FM-12+023299999V0209999C000012200019N0200001N1+01421+01171101741ADDAA199000091GA1001+999999999GF100991001001999999001001MA1999999098901MD1310111+9999REMSYN060AAXX  25211 13389 32998 00000 10142 20117 39890 40174 53011;EQDQ01  00002PRCP99
0173133890999992000052600004+42980+021950FM-12+023299999V0209999C000012200019N0200001N1+01021+00791101911ADDAA199000091GA1001+999999999GF100991001001999999001001MA1999999099121MD1210131+9999REMSYN060AAXX  26001 13389 32998 00000 10102 20079 39912 40191 52013;EQDQ01  00002PRCP99
0157133890999992000052603004+42980+021950FM-12+023299999V0202001N001012200019N0200001N1+00771+00641101931ADDAA199000091GF101991999999999999999999MA1999999099121MD1410001+9999REMSYN060AAXX  26031 13389 32998 12001 10077 20064 39912 40193 54000;EQDQ01  00002PRCP99
0226133890999992000052606004+42980+021950FM-12+023299999V0209999C000012200019N0200001N1+01561+00811101941ADDAA199000091GA1001+999999999GF100991001001999999001001IA1019IA2999+00509KA1120N+00771MA1999999099201MD1310081+9999REMSYN082AAXX  26061 13389 32998 00000 10156 20081 39920 40194 53008 333 20077 30005 55137;EQDQ01  00002PRCP99
0163133890999992000052609004+42980+021950FM-12+023299999V0200701N002012200019N0200001N1+02341+00771101811ADDAA199000091GF101991011021012501001001MA1999999099141MD1810061+9999REMSYN066AAXX  26091 13389 32698 10702 10234 20077 39914 40181 58006 81200;EQDQ01  00002PRCP99
0163133890999992000052612004+42980+021950FM-12+023299999V0202201N002012200019N0200001N1+02761+00661101691ADDAA199000091GF102991011021012501001011MA1999999099061MD1810081+9999REMSYN066AAXX  26121 13389 32698 22202 10276 20066 39906 40169 58008 81201;EQDQ01  00002PRCP99
0163133890999992000052615004+42980+021950FM-12+023299999V0200501N002012200019N0200001N1+02901+00531101561ADDAA199000091GF103991011021012501001011MA1999999098951MD1710111+9999REMSYN066AAXX  26151 13389 32698 30502 10290 20053 39895 40156 57011 81201;EQDQ01  00002PRCP99
0186133890999992000052618004+42980+021950FM-12+023299999V0209999C000012200019N0200001N1+02361+00861101591ADDAA199000091GF102991011001999999031011KA1999M+02701MA1999999098931MD1610021+9999REMSYN076AAXX  26181 13389 32998 20000 10236 20086 39893 40159 56002 81031 333 10270;EQDQ01  00002PRCP99
0173133890999992000052621004+42980+021950FM-12+023299999V0202001N002012200019N0200001N1+01511+00971101791ADDAA199000091GA1001+999999999GF100991001001999999001001MA1999999099051MD1310121+9999REMSYN060AAXX  26211 13389 32998 02002 10151 20097 39905 40179 53012;EQDQ01  00002PRCP99
0173133890999992000052700004+42980+021950FM-12+023299999V0202001N001012200019N0200001N1+01121+00851101861ADDAA199000091GA1001+999999999GF100991001001999999001001MA1999999099081MD1110031+9999REMSYN060AAXX  27001 13389 32998 02001 10112 20085 39908 40186 51003;EQDQ01  00002PRCP99
0173133890999992000052703004+42980+021950FM-12+023299999V0202201N001012200019N0200001N1+01881+00741101901ADDAA199000091GA1001+999999999GF100991001001999999001001MA1999999099101MD1310021+9999REMSYN060AAXX  27031 13389 32998 02201 10188 20074 39910 40190 53002;EQDQ01  00002PRCP99
0226133890999992000052706004+42980+021950FM-12+023299999V0200601N001012200019N0200001N1+01651+00901101911ADDAA199000091GA1001+999999999GF100991001001999999001001IA1019IA2999+00609KA1120N+00871MA1999999099171MD1210071+9999REMSYN082AAXX  27061 13389 32998 00601 10165 20090 39917 40191 52007 333 20087 30006 55138;EQDQ01  00002PRCP99
0163133890999992000052709004+42980+021950FM-12+023299999V0201601N001012200019N0200001N1+02501+00981101721ADDAA199000091GF101991011021012501001001MA1999999099071MD1610101+9999REMSYN066AAXX  27091 13389 32698 11601 10250 20098 39907 40172 56010 81200;EQDQ01  00002PRCP99
0163133890999992000052712004+42980+021950FM-12+023299999V0201001N002012200019N0200001N1+02881+00881101521ADDAA199000091GF102991021021012501001001MA1999999098911MD1710161+9999REMSYN066AAXX  27121 13389 32698 21002 10288 20088 39891 40152 57016 82200;EQDQ01  00002PRCP99
0163133890999992000052715004+42980+021950FM-12+023299999V0201401N002012200019N0200001N1+02981+00921101331ADDAA199000091GF102991021021012501001001MA1999999098731MD1710181+9999REMSYN066AAXX  27151 13389 32698 21402 10298 20092 39873 40133 57018 82200;EQDQ01  00002PRCP99
0186133890999992000052718004+42980+021950FM-12+023299999V0201901N001012200019N0200001N1+02581+01231101331ADDAA199000091GF104991031051012501031001KA1999M+03041MA1999999098701MD1610031+9999REMSYN076AAXX  27181 13389 32698 41901 10258 20123 39870 40133 56003 83530 333 10304;EQDQ01  00002PRCP99
0163133890999992000052721004+42980+021950FM-12+023299999V0202301N001012200019N0200001N1+02021+01151101541ADDAA199000091GF102991021001999999031001MA1999999098851MD1210151+9999REMSYN066AAXX  27211 13389 32998 22301 10202 20115 39885 40154 52015 82030;EQDQ01  00002PRCP99
0173133890999992000052800004+42980+021950FM-12+023299999V0201901N001012200019N0200001N1+01461+01081101641ADDAA199000091GA1001+999999999GF100991001001999999001001MA1999999098901MD1210051+9999REMSYN060AAXX  28001 13389 32998 01901 10146 20108 39890 40164 52005;EQDQ01  00002PRCP99
0173133890999992000052803004+42980+021950FM-12+023299999V0201901N001012200019N0200001N1+01161+00981101701ADDAA199000091GA1001+999999999GF100991001001999999001001MA1999999098931MD1110031+9999REMSYN060AAXX  28031 13389 32998 01901 10116 20098 39893 40170 51003;EQDQ01  00002PRCP99
0226133890999992000052806004+42980+021950FM-12+023299999V0202001N001012200019N0200001N1+01781+01091101681ADDAA199000091GA1001+999999999GF100991001001999999001001IA1019IA2999+00909KA1120N+01141MA1999999098971MD1110041+9999REMSYN082AAXX  28061 13389 32998 02001 10178 20109 39897 40168 51004 333 20114 30009 55135;EQDQ01  00002PRCP99
0163133890999992000052809004+42980+021950FM-12+023299999V0200201N002012200019N0200001N1+02581+00971101531ADDAA199000091GF101991011011012501001001MA1999999098891MD1810081+9999REMSYN066AAXX  28091 13389 32698 10202 10258 20097 39889 40153 58008 81100;EQDQ01  00002PRCP99
0163133890999992000052812004+42980+021950FM-12+023299999V0202101N002012200019N0200001N1+02941+01111101271ADDAA199000091GF103991021021012501001011MA1999999098661MD1710231+9999REMSYN066AAXX  28121 13389 32698 32102 10294 20111 39866 40127 57023 82201;EQDQ01  00002PRCP99
0163133890999992000052815004+42980+021950FM-12+023299999V0202001N002010120019N0200001N1+02681+01361101121ADDAA199000091GF107991051091012501061031MA1999999098511MD1710151+9999REMSYN066AAXX  28151 13389 32698 72002 10268 20136 39851 40112 57015 85963;EQDQ01  00002PRCP99
0186133890999992000052818004+42980+021950FM-12+023299999V0200601N001010360019N0200001N1+02461+01441101091ADDAA199000091GF106991031021012501031011KA1999M+03011MA1999999098461MD1610051+9999REMSYN076AAXX  28181 13389 32698 60601 10246 20144 39846 40109 56005 83231 333 10301;EQDQ01  00002PRCP99
0163133890999992000052821004+42980+021950FM-12+023299999V0201801N002012200019N0200001N1+02181+01251101161ADDAA199000091GF102991021001999999031001MA1999999098501MD1310041+9999REMSYN066AAXX  28211 13389 32998 21802 10218 20125 39850 40116 53004 82030;EQDQ01  00002PRCP99
0173133890999992000052900004+42980+021950FM-12+023299999V0202101N001012200019N0200001N1+01521+01271101231ADDAA199000091GA1001+999999999GF100991001001999999001001MA1999999098501MD1410001+9999REMSYN060AAXX  29001 13389 32998 02101 10152 20127 39850 40123 54000;EQDQ01  00002PRCP99
0163133890999992000052903004+42980+021950FM-12+023299999V0201801N001012200019N0200001N1+01271+01111101251ADDAA199000091GF101991011001999999031001MA1999999098501MD1410001+9999REMSYN066AAXX  29031 13389 32998 11801 10127 20111 39850 40125 54000 81030;EQDQ01  00002PRCP99
0216133890999992000052906004+42980+021950FM-12+023299999V0202001N001012200019N0200001N1+01931+01121101191ADDAA199000091GF102991011001999999031011IA1019IA2999+01009KA1120N+01251MA1999999098501MD1410001+9999REMSYN088AAXX  29061 13389 32998 22001 10193 20112 39850 40119 54000 81031 333 20125 30010 55111;EQDQ01  00002PRCP99
0163133890999992000052909004+42980+021950FM-12+023299999V0202501N002012200019N0200001N1+02641+01081101081ADDAA199000091GF101991011011012501001001MA1999999098451MD1810081+9999REMSYN066AAXX  29091 13389 32698 12502 10264 20108 39845 40108 58008 81100;EQDQ01  00002PRCP99
0163133890999992000052912004+42980+021950FM-12+023299999V0202501N003012200019N0200001N1+02981+01031100831ADDAA199000091GF103991031021012501001001MA1999999098251MD1710201+9999REMSYN066AAXX  29121 13389 32698 32503 10298 20103 39825 40083 57020 83200;EQDQ01  00002PRCP99
0191133890999992000052915004+42980+021950FM-12+023299999V0202101N004010120019N0200001N1+02671+01141100771ADDAA199000091AY191031AY291031GF107991071091012501001001MA1999999098161MD1610091+9999MW1171REMSYN072AAXX  29151 13389 31698 72104 10267 20114 39816 40077 56009 71799 87900;EQDQ01  00002PRCP99
0201133890999992000052918004+42980+021950FM-12+023299999V0203201N004010120019N0100001N1+01861+01561101191ADDAA112000391AY191061AY291061GF108991081091012501999999KA1999M+03061MA1999999098511MD1310351+9999MW1951REMSYN088AAXX  29181 13389 11697 83204 10186 20156 39851 40119 53035 69932 79599 889// 333 10306;
0172133890999992000052921004+42980+021950FM-12+023299999V0202201N001010150019N0200001N1+01741+01581101291ADDAA199000021AY161031AY291031GF107991071081012501001001MA1999999098591MD1110081+9999MW1031REMSYN072AAXX  29211 13389 31698 72201 10174 20158 39859 40129 51008 70369 87800;
0178133890999992000053000004+42980+021950FM-12+023299999V0201001N001010120019N0200001N1+01711+01551101371ADDAA106003091AY121061AY261061GF107991071051012501001001MA1999999098671MD1110021+9999MW1021REMSYN078AAXX  30001 13389 11698 71001 10171 20155 39867 40137 51002 60031 70226 87500;
0144133890999992000053003004+42980+021950FM-12+023299999V0203201N001010120019N0100001N1+01671+01531101341ADDAA199000021GF108991081051012501999999MA1999999098641MD1310031+9999REMSYN066AAXX  30031 13389 32697 83201 10167 20153 39864 40134 53003 885//;
0237133890999992000053006004+42980+021950FM-12+023299999V0203401N006010120019N0100001N1+01381+01031101641ADDAA112005191AY161061AY221061GF108991081051012501999999IA1099IA2999+01309KA1120N+01371MA1999999098891MD1210251+9999MW1211REMSYN106AAXX  30061 13389 11697 83406 10138 20103 39889 40164 52025 60052 72162 885// 333 20137 31013 55097 91114;
0144133890999992000053009004+42980+021950FM-12+023299999V0203501N005010120019N0100001N1+01351+99999101941ADDAA199000021GF108991081051012501999999MA1999999099171MD1710281+9999REMSYN066AAXX  30091 13389 32697 83505 10135 20174 39917 40194 57028 885//;
0148133890999992000053012004+42980+021950FM-12+023299999V0203601N004010150019N0100001N1+01431+00721101961ADDAA199000021GF107991071081012501001001MD1010031+9999REMSYN066AAXX  30121 13389 32697 73604 10143 20072 39620 40196 50003 87800;EQDQ01+096203APOSP 
0144133890999992000053015004+42980+021950FM-12+023299999V0203301N002010150019N0200001N1+01631+00761101781ADDAA199000021GF107991071081012501001001MA1999999099051MD1710151+9999REMSYN066AAXX  30151 13389 32698 73302 10163 20076 39905 40178 57015 87800;
0167133890999992000053018004+42980+021950FM-12+023299999V0202001N001010360019N0200001N1+01541+01001101731ADDAA199000021GF107991031051012501071001KA1999M+01661MA1999999098991MD1610061+9999REMSYN076AAXX  30181 13389 32698 72001 10154 20100 39899 40173 56006 83570 333 10166;
0173133890999992000053021004+42980+021950FM-12+023299999V0209999C000012200019N0200001N1+01301+01021101801ADDAA199000091GA1001+999999999GF100991001001999999001001MA1999999099041MD1310051+9999REMSYN060AAXX  30211 13389 32998 00000 10130 20102 39904 40180 53005;EQDQ01  00002PRCP99
0173133890999992000053100004+42980+021950FM-12+023299999V0209999C000012200019N0200001N1+01031+00861101831ADDAA199000091GA1001+999999999GF100991001001999999001001MA1999999099041MD1410001+9999REMSYN060AAXX  31001 13389 32998 00000 10103 20086 39904 40183 54000;EQDQ01  00002PRCP99
0163133890999992000053103004+42980+021950FM-12+023299999V0209999C000012200019N0200001N1+00781+00681101771ADDAA199000091GF101991011001999999031001MA1999999098961MD1810081+9999REMSYN066AAXX  31031 13389 32998 10000 10078 20068 39896 40177 58008 81030;EQDQ01  00002PRCP99
0216133890999992000053106004+42980+021950FM-12+023299999V0209999C000012200019N0200001N1+01241+00831101711ADDAA199000091GF102991021001999999031001IA1099IA2999+00509KA1120N+00771MA1999999098941MD1610021+9999REMSYN088AAXX  31061 13389 32998 20000 10124 20083 39894 40171 56002 82030 333 20077 31005 55010;EQDQ01  00002PRCP99
0163133890999992000053109004+42980+021950FM-12+023299999V0203001N002012200019N0200001N1+02051+00901101501ADDAA199000091GF101991011021012501001001MA1999999098811MD1810131+9999REMSYN066AAXX  31091 13389 32698 13002 10205 20090 39881 40150 58013 81200;EQDQ01  00002PRCP99
0163133890999992000053112004+42980+021950FM-12+023299999V0203001N002012200019N0200001N1+02601+01171101241ADDAA199000091GF106991031021012501001011MA1999999098611MD1710201+9999REMSYN066AAXX  31121 13389 32698 63002 10260 20117 39861 40124 57020 83201;EQDQ01  00002PRCP99
0163133890999992000053115004+42980+021950FM-12+023299999V0201501N002010900019N0200001N1+02661+01081101071ADDAA199000091GF107991021021012501001061MA1999999098451MD1710161+9999REMSYN066AAXX  31151 13389 32698 71502 10266 20108 39845 40107 57016 82206;EQDQ01  00002PRCP99
0186133890999992000053118004+42980+021950FM-12+023299999V0203601N002010150019N0200001N1+02361+01241101001ADDAA199000091GF107991061081012501031001KA1999M+02671MA1999999098361MD1610091+9999REMSYN076AAXX  31181 13389 32698 73602 10236 20124 39836 40100 56009 86830 333 10267;EQDQ01  00002PRCP99
0172133890999992000053121004+42980+021950FM-12+023299999V0202001N002010360019N0100001N1+01631+01471101551ADDAA199000021AY191031AY281031GF108991021071008001011999MA1999999098831MD1310471+9999MW1611REMSYN072AAXX  31211 13389 31597 82002 10163 20147 39883 40155 53047 76198 8271/;
0178133890999992000060100004+42980+021950FM-12+023299999V0203201N002010120019N0100001N1+01601+01431101591ADDAA106015091AY191061AY281061GF108991081051012501999999MA1999999098871MD1210041+9999MW1611REMSYN078AAXX  01001 13389 11697 83202 10160 20143 39887 40159 52004 60151 76198 885//;
0144133890999992000060103004+42980+021950FM-12+023299999V0203301N004010150019N0200001N1+01501+01151101811ADDAA199000021GF108991081081012501999999MA1999999099061MD1210191+9999REMSYN066AAXX  01031 13389 32698 83304 10150 20115 39906 40181 52019 888//;
0231133890999992000060106004+42980+021950FM-12+023299999V0209999C000010150019N0100001N1+01401+01151102021ADDAA112016091AY161061AY221061GF108991081081012501999999IA1099IA2999+01309KA1120N+01371MA1999999099261MD1210201+9999MW1211REMSYN100AAXX  01061 13389 32697 80000 10140 20115 39926 40202 52020 60162 72162 888// 333 20137 31013 55103;
0144133890999992000060109004+42980+021950FM-12+023299999V0203401N004010120019N0100001N1+01651+01031102131ADDAA199000021GF108991081081008001999999MA1999999099391MD1210131+9999REMSYN066AAXX  01091 13389 32597 83404 10165 20103 39939 40213 52013 888//;
0144133890999992000060112004+42980+021950FM-12+023299999V0203401N006010120019N0200001N1+01701+00851102261ADDAA199000021GF106991061081008001001001MA1999999099491MD1210101+9999REMSYN066AAXX  01121 13389 32598 63406 10170 20085 39949 40226 52010 86800;
0144133890999992000060115004+42980+021950FM-12+023299999V0203401N004010120019N0200001N1+01901+00661102201ADDAA199000021GF107991071081008001001001MA1999999099481MD1610011+9999REMSYN066AAXX  01151 13389 32598 73404 10190 20066 39948 40220 56001 87800;
0167133890999992000060118004+42980+021950FM-12+023299999V0203301N003010120019N0200001N1+01751+00701102201ADDAA199000021GF106991061081008001001001KA1999M+01971MA1999999099471MD1510011+9999REMSYN076AAXX  01181 13389 32598 63303 10175 20070 39947 40220 55001 86800 333 10197;
0163133890999992000060121004+42980+021950FM-12+023299999V0201801N001010120019N0200001N1+01461+01061102381ADDAA199000091GF106991061051012501001001MA1999999099621MD1210151+9999REMSYN066AAXX  01211 13389 32698 61801 10146 20106 39962 40238 52015 86500;EQDQ01  00002PRCP99
0163133890999992000060203004+42980+021950FM-12+023299999V0201901N001012200019N0200001N1+00861+00721102481ADDAA199000091GF101991001001999999001011MA1999999099661MD1310021+9999REMSYN066AAXX  02031 13389 32998 11901 10086 20072 39966 40248 53002 80001;EQDQ01  00002PRCP99
0226133890999992000060206004+42980+021950FM-12+023299999V0201801N001012200019N0200001N1+01401+00791102491ADDAA199000091GA1001+999999999GF100991001001999999001001IA1099IA2999+00509KA1120N+00841MA1999999099721MD1210061+9999REMSYN082AAXX  02061 13389 32998 01801 10140 20079 39972 40249 52006 333 20084 31005 55028;EQDQ01  00002PRCP99
0163133890999992000060209004+42980+021950FM-12+023299999V0203301N004012200019N0200001N1+01821+00621102471ADDAA199000091GF102991021011012501001001MA1999999099741MD1110021+9999REMSYN066AAXX  02091 13389 32698 23304 10182 20062 39974 40247 51002 82100;EQDQ01  00002PRCP99
0163133890999992000060212004+42980+021950FM-12+023299999V0203301N004012200019N0200001N1+02081+00491102331ADDAA199000091GF101991011011012501001001MA1999999099631MD1810111+9999REMSYN066AAXX  02121 13389 32698 13304 10208 20049 39963 40233 58011 81100;EQDQ01  00002PRCP99
0163133890999992000060215004+42980+021950FM-12+023299999V0203301N003012200019N0200001N1+02241+00581102231ADDAA199000091GF101991011011012501001001MA1999999099541MD1610091+9999REMSYN066AAXX  02151 13389 32698 13303 10224 20058 39954 40223 56009 81100;EQDQ01  00002PRCP99
0186133890999992000060218004+42980+021950FM-12+023299999V0203301N003012200019N0200001N1+01981+00621102211ADDAA199000091GF101991001001999999001011KA1999M+02251MA1999999099501MD1610041+9999REMSYN076AAXX  02181 13389 32998 13303 10198 20062 39950 40221 56004 80001 333 10225;EQDQ01  00002PRCP99
0173133890999992000060221004+42980+021950FM-12+023299999V0201801N002012200019N0200001N1+01291+00951102471ADDAA199000091GA1001+999999999GF100991001001999999001001MA1999999099631MD1310131+9999REMSYN060AAXX  02211 13389 32998 01802 10129 20095 39963 40247 53013;EQDQ01  00002PRCP99
0173133890999992000060300004+42980+021950FM-12+023299999V0209999C000012200019N0200001N1+00921+00771102451ADDAA199000091GA1001+999999999GF100991001001999999001001MA1999999099631MD1410001+9999REMSYN060AAXX  03001 13389 32998 00000 10092 20077 39963 40245 54000;EQDQ01  00002PRCP99
0173133890999992000060303004+42980+021950FM-12+023299999V0202001N001012200019N0200001N1+00721+00621102471ADDAA199000091GA1001+999999999GF100991001001999999001001MA1999999099631MD1410001+9999REMSYN060AAXX  03031 13389 32998 02001 10072 20062 39963 40247 54000;EQDQ01  00002PRCP99
0226133890999992000060306004+42980+021950FM-12+023299999V0209999C000012200019N0200001N1+01331+00791102411ADDAA199000091GA1001+999999999GF100991001001999999001001IA1019IA2999+00409KA1120N+00721MA1999999099631MD1410001+9999REMSYN082AAXX  03061 13389 32998 00000 10133 20079 39963 40241 54000 333 20072 30004 55138;EQDQ01  00002PRCP99
0163133890999992000060309004+42980+021950FM-12+023299999V0203101N001012200019N0200001N1+02031+00811102281ADDAA199000091GF101991011011012501001001MA1999999099571MD1810061+9999REMSYN066AAXX  03091 13389 32698 13101 10203 20081 39957 40228 58006 81100;EQDQ01  00002PRCP99
0163133890999992000060312004+42980+021950FM-12+023299999V0203001N002012200019N0200001N1+02431+00661102081ADDAA199000091GF101991011011012501001001MA1999999099411MD1710161+9999REMSYN066AAXX  03121 13389 32698 13002 10243 20066 39941 40208 57016 81100;EQDQ01  00002PRCP99
0163133890999992000060315004+42980+021950FM-12+023299999V0203201N002012200019N0200001N1+02541+00621101971ADDAA199000091GF101991011011012501001001MA1999999099311MD1710101+9999REMSYN066AAXX  03151 13389 32698 13202 10254 20062 39931 40197 57010 81100;EQDQ01  00002PRCP99
0196133890999992000060318004+42980+021950FM-12+023299999V0203001N001012200019N0200001N1+02131+00621101961ADDAA199000091GA1001+999999999GF100991001001999999001001KA1999M+02571MA1999999099271MD1310041+9999REMSYN070AAXX  03181 13389 32998 03001 10213 20062 39927 40196 53004 333 10257;EQDQ01  00002PRCP99
0173133890999992000060321004+42980+021950FM-12+023299999V0202201N001012200019N0200001N1+01361+01001102121ADDAA199000091GA1001+999999999GF100991001001999999001001MA1999999099361MD1310091+9999REMSYN060AAXX  03211 13389 32998 02201 10136 20100 39936 40212 53009;EQDQ01  00002PRCP99
0173133890999992000060400004+42980+021950FM-12+023299999V0200801N001012200019N0200001N1+01041+00851102191ADDAA199000091GA1001+999999999GF100991001001999999001001MA1999999099391MD1210031+9999REMSYN060AAXX  04001 13389 32998 00801 10104 20085 39939 40219 52003;EQDQ01  00002PRCP99
0173133890999992000060403004+42980+021950FM-12+023299999V0209999C000012200019N0200001N1+00811+00681102211ADDAA199000091GA1001+999999999GF100991001001999999001001MA1999999099391MD1410001+9999REMSYN060AAXX  04031 13389 32998 00000 10081 20068 39939 40221 54000;EQDQ01  00002PRCP99
0226133890999992000060406004+42980+021950FM-12+023299999V0209999C000012200019N0200001N1+01501+00861102221ADDAA199000091GA1001+999999999GF100991001001999999001001IA1019IA2999+00409KA1120N+00751MA1999999099461MD1310071+9999REMSYN082AAXX  04061 13389 32998 00000 10150 20086 39946 40222 53007 333 20075 30004 55138;EQDQ01  00002PRCP99
0173133890999992000060409004+42980+021950FM-12+023299999V0209999C000012200019N0200001N1+02221+00811102091ADDAA199000091GA1001+999999999GF100991001001999999001001MA1999999099401MD1810061+9999REMSYN060AAXX  04091 13389 32998 00000 10222 20081 39940 40209 58006;EQDQ01  00002PRCP99
0173133890999992000060412004+42980+021950FM-12+023299999V0202501N001012200019N0200001N1+02741+00741101901ADDAA199000091GA1001+999999999GF100991001001999999001001MA1999999099261MD1710141+9999REMSYN060AAXX  04121 13389 32998 02501 10274 20074 39926 40190 57014;EQDQ01  00002PRCP99
0173133890999992000060415004+42980+021950FM-12+023299999V0203601N002012200019N0200001N1+02841+00661101761ADDAA199000091GA1001+999999999GF100991001001999999001001MA1999999099131MD1710131+9999REMSYN060AAXX  04151 13389 32998 03602 10284 20066 39913 40176 57013;EQDQ01  00002PRCP99
0196133890999992000060418004+42980+021950FM-12+023299999V0203101N001012200019N0200001N1+02441+00901101791ADDAA199000091GA1001+999999999GF100991001001999999001001KA1999M+02881MA1999999099131MD1410001+9999REMSYN070AAXX  04181 13389 32998 03101 10244 20090 39913 40179 54000 333 10288;EQDQ01  00002PRCP99
0173133890999992000060421004+42980+021950FM-12+023299999V0201801N001012200019N0200001N1+01601+01271101981ADDAA199000091GA1001+999999999GF100991001001999999001001MA1999999099241MD1210111+9999REMSYN060AAXX  04211 13389 32998 01801 10160 20127 39924 40198 52011;EQDQ01  00002PRCP99
0173133890999992000060500004+42980+021950FM-12+023299999V0202101N001012200019N0200001N1+01261+01051102091ADDAA199000091GA1001+999999999GF100991001001999999001001MA1999999099321MD1210081+9999REMSYN060AAXX  05001 13389 32998 02101 10126 20105 39932 40209 52008;EQDQ01  00002PRCP99
0173133890999992000060503004+42980+021950FM-12+023299999V0209999C000012200019N0200001N1+01021+00851102121ADDAA199000091GA1001+999999999GF100991001001999999001001MA1999999099321MD1410001+9999REMSYN060AAXX  05031 13389 32998 00000 10102 20085 39932 40212 54000;EQDQ01  00002PRCP99
0226133890999992000060506004+42980+021950FM-12+023299999V0209999C000012200019N0200001N1+01681+01021101981ADDAA199000091GA1001+999999999GF100991001001999999001001IA1019IA2999+00709KA1120N+01021MA1999999099251MD1810071+9999REMSYN082AAXX  05061 13389 32998 00000 10168 20102 39925 40198 58007 333 20102 30007 55141;EQDQ01  00002PRCP99
0163133890999992000060509004+42980+021950FM-12+023299999V0200401N001012200019N0200001N1+02531+01121101861ADDAA199000091GF101991011011012501001001MA1999999099201MD1810051+9999REMSYN066AAXX  05091 13389 32698 10401 10253 20112 39920 40186 58005 81100;EQDQ01  00002PRCP99
0163133890999992000060512004+42980+021950FM-12+023299999V0200901N001012200019N0200001N1+02971+00861101631ADDAA199000091GF101991011011012501001001MA1999999099021MD1710181+9999REMSYN066AAXX  05121 13389 32698 10901 10297 20086 39902 40163 57018 81100;EQDQ01  00002PRCP99
0163133890999992000060515004+42980+021950FM-12+023299999V0203301N002012200019N0200001N1+03081+00701101461ADDAA199000091GF101991011011012501001001MA1999999098871MD1710151+9999REMSYN066AAXX  05151 13389 32698 13302 10308 20070 39887 40146 57015 81100;EQDQ01  00002PRCP99
0196133890999992000060518004+42980+021950FM-12+023299999V0209999C000012200019N0200001N1+02481+01031101471ADDAA199000091GA1001+999999999GF100991001001999999001001KA1999M+03161MA1999999098831MD1610041+9999REMSYN070AAXX  05181 13389 32998 00000 10248 20103 39883 40147 56004 333 10316;EQDQ01  00002PRCP99
0173133890999992000060521004+42980+021950FM-12+023299999V0209999C000012200019N0200001N1+01691+01251101571ADDAA199000091GA1001+999999999GF100991001001999999001001MA1999999098851MD1310021+9999REMSYN060AAXX  05211 13389 32998 00000 10169 20125 39885 40157 53002;EQDQ01  00002PRCP99
0205133890999992000060600004+42980+021950FM-12+023299999V0209999C000012200019N0200001N1+01361+01151101591ADDAA199000091GA1001+999999999GF100991001001999999001001MA1999999999999MD1810011+9999REMSYN060AAXX  06001 13389 32998 00000 10136 20115 39984 40159 58001;EQDQ01+099843APOSP Q02  00002PRCP99Q03 099843APOSP 
0173133890999992000060603004+42980+021950FM-12+023299999V0209999C000012200019N0200001N1+01441+00971101581ADDAA199000091GA1001+999999999GF100991001001999999001001MA1999999098801MD1710061+9999REMSYN060AAXX  06031 13389 32998 00000 10144 20097 39880 40158 57006;EQDQ01  00002PRCP99
0226133890999992000060606004+42980+021950FM-12+023299999V0209999C000012200019N0200001N1+01811+01001101511ADDAA199000091GA1001+999999999GF100991001001999999001001IA1019IA2999+00809KA1120N+01141MA1999999098801MD1410001+9999REMSYN082AAXX  06061 13389 32998 00000 10181 20100 39880 40151 54000 333 20114 30008 55140;EQDQ01  00002PRCP99
0173133890999992000060609004+42980+021950FM-12+023299999V0202001N002012200019N0200001N1+02631+01081101331ADDAA199000091GA1001+999999999GF100991001001999999001001MA1999999098701MD1810101+9999REMSYN060AAXX  06091 13389 32998 02002 10263 20108 39870 40133 58010;EQDQ01  00002PRCP99
0163133890999992000060612004+42980+021950FM-12+023299999V0201401N002012200019N0200001N1+03021+00981101131ADDAA199000091GF101991011011012501001001MA1999999098541MD1710161+9999REMSYN066AAXX  06121 13389 32698 11402 10302 20098 39854 40113 57016 81100;EQDQ01  00002PRCP99
0163133890999992000060615004+42980+021950FM-12+023299999V0203301N002012200019N0200001N1+03191+01031100941ADDAA199000091GF101991011021012501001001MA1999999098371MD1710171+9999REMSYN066AAXX  06151 13389 32698 13302 10319 20103 39837 40094 57017 81200;EQDQ01  00002PRCP99
0186133890999992000060618004+42980+021950FM-12+023299999V0209999C000012200019N0200001N1+02631+01341100951ADDAA199000091GF102991011021012501001011KA1999M+03221MA1999999098331MD1610041+9999REMSYN076AAXX  06181 13389 32698 20000 10263 20134 39833 40095 56004 81201 333 10322;EQDQ01  00002PRCP99
0173133890999992000060621004+42980+021950FM-12+023299999V0201501N001012200019N0200001N1+01881+01511101081ADDAA199000091GA1001+999999999GF100991001001999999001001MA1999999098401MD1310071+9999REMSYN060AAXX  06211 13389 32998 01501 10188 20151 39840 40108 53007;EQDQ01  00002PRCP99
0173133890999992000060700004+42980+021950FM-12+023299999V0209999C000012200019N0200001N1+01531+01311101191ADDAA199000091GA1001+999999999GF100991001001999999001001MA1999999098461MD1210061+9999REMSYN060AAXX  07001 13389 32998 00000 10153 20131 39846 40119 52006;EQDQ01  00002PRCP99
0163133890999992000060703004+42980+021950FM-12+023299999V0209999C000012200019N0200001N1+01311+01151101211ADDAA199000091GF102991001001999999001011MA1999999098461MD1410001+9999REMSYN066AAXX  07031 13389 32998 20000 10131 20115 39846 40121 54000 80001;EQDQ01  00002PRCP99
0226133890999992000060706004+42980+021950FM-12+023299999V0203301N002012200019N0200001N1+01971+01301101331ADDAA199000091GA1001+999999999GF100991001001999999001001IA1019IA2999+01009KA1120N+01281MA1999999098651MD1310191+9999REMSYN082AAXX  07061 13389 32998 03302 10197 20130 39865 40133 53019 333 20128 30010 55138;EQDQ01  00002PRCP99
0163133890999992000060709004+42980+021950FM-12+023299999V0203401N002012200019N0200001N1+02701+01321101251ADDAA199000091GF101991011011012501001001MA1999999098631MD1810021+9999REMSYN066AAXX  07091 13389 32698 13402 10270 20132 39863 40125 58002 81100;EQDQ01  00002PRCP99
0163133890999992000060712004+42980+021950FM-12+023299999V0203401N004010120019N0200001N1+02741+01301101191ADDAA199000091GF105991051091012501001001MA1999999098571MD1710061+9999REMSYN066AAXX  07121 13389 32698 53404 10274 20130 39857 40119 57006 85900;EQDQ01  00002PRCP99
0191133890999992000060715004+42980+021950FM-12+023299999V0203401N005010120019N0200001N1+02691+01731101251ADDAA199000091AY121031AY291031GF107991051031012501001011MA1999999098631MD1310061+9999MW1021REMSYN072AAXX  07151 13389 31698 73405 10269 20173 39863 40125 53006 70229 85301;EQDQ01  00002PRCP99
0214133890999992000060718004+42980+021950FM-12+023299999V0203401N004010150019N0100001N1+02341+01351101471ADDAA199000091AY121061AY291061GF107991051081012501031011KA1999M+02931MA1999999098821MD1210191+9999MW1021REMSYN082AAXX  07181 13389 31697 73404 10234 20135 39882 40147 52019 70229 85831 333 10293;EQDQ01  00002PRCP99
0163133890999992000060721004+42980+021950FM-12+023299999V0202701N001012200019N0200001N1+02111+01501101881ADDAA199000091GF102991021001999999031001MA1999999099101MD1210281+9999REMSYN066AAXX  07211 13389 32998 22701 10211 20150 39910 40188 52028 82030;EQDQ01  00002PRCP99
0163133890999992000060800004+42980+021950FM-12+023299999V0203201N003010120019N0200001N1+02021+01031101931ADDAA199000091GF108991081051012501999999MA1999999099231MD1210131+9999REMSYN066AAXX  08001 13389 32698 83203 10202 20103 39923 40193 52013 885//;EQDQ01  00002PRCP99
0163133890999992000060803004+42980+021950FM-12+023299999V0203601N004010120019N0200001N1+01881+00761102041ADDAA199000091GF107991071051012501001001MA1999999099331MD1210101+9999REMSYN066AAXX  08031 13389 32698 73604 10188 20076 39933 40204 52010 87500;EQDQ01  00002PRCP99
0216133890999992000060806004+42980+021950FM-12+023299999V0203601N003012200019N0200001N1+01951+00881102271ADDAA199000091GF103991011011999999031001IA1019IA2999+01609KA1120N+01761MA1999999099561MD1210231+9999REMSYN088AAXX  08061 13389 32998 33603 10195 20088 39956 40227 52023 81130 333 20176 30016 55090;EQDQ01  00002PRCP99
0163133890999992000060809004+42980+021950FM-12+023299999V0200601N003012200019N0200001N1+02231+01021102241ADDAA199000091GF101991011011012501001001MA1999999099551MD1810011+9999REMSYN066AAXX  08091 13389 32698 10603 10223 20102 39955 40224 58001 81100;EQDQ01  00002PRCP99
0163133890999992000060812004+42980+021950FM-12+023299999V0203401N004012200019N0200001N1+02501+00851102041ADDAA199000091GF101991001001999999001011MA1999999099381MD1710171+9999REMSYN066AAXX  08121 13389 32998 13404 10250 20085 39938 40204 57017 80001;EQDQ01  00002PRCP99
0163133890999992000060815004+42980+021950FM-12+023299999V0203401N004012200019N0200001N1+02601+00941101891ADDAA199000091GF102991011021012501001011MA1999999099241MD1610141+9999REMSYN066AAXX  08151 13389 32698 23404 10260 20094 39924 40189 56014 81201;EQDQ01  00002PRCP99
0186133890999992000060818004+42980+021950FM-12+023299999V0203401N002012200019N0200001N1+02331+00951101981ADDAA199000091GF103991001001999999001011KA1999M+02621MA1999999099301MD1310061+9999REMSYN076AAXX  08181 13389 32998 33402 10233 20095 39930 40198 53006 80001 333 10262;EQDQ01  00002PRCP99
0163133890999992000060821004+42980+021950FM-12+023299999V0202001N002012200019N0200001N1+01691+01171102151ADDAA199000091GF101991001001999999001011MA1999999099421MD1110121+9999REMSYN066AAXX  08211 13389 32998 12002 10169 20117 39942 40215 51012 80001;EQDQ01  00002PRCP99
0173133890999992000060900004+42980+021950FM-12+023299999V0209999C000012200019N0200001N1+01321+01121102221ADDAA199000091GA1001+999999999GF100991001001999999001001MA1999999099451MD1310031+9999REMSYN060AAXX  09001 13389 32998 00000 10132 20112 39945 40222 53003;EQDQ01  00002PRCP99
0163133890999992000060903004+42980+021950FM-12+023299999V0209999C000012200019N0200001N1+01131+00971102271ADDAA199000091GF101991001001999999001011MA1999999099471MD1110021+9999REMSYN066AAXX  09031 13389 32998 10000 10113 20097 39947 40227 51002 80001;EQDQ01  00002PRCP99
0216133890999992000060906004+42980+021950FM-12+023299999V0209999C000012200019N0200001N1+01741+01031102251ADDAA199000091GF101991001001999999001011IA1019IA2999+00809KA1120N+01111MA1999999099511MD1310041+9999REMSYN088AAXX  09061 13389 32998 10000 10174 20103 39951 40225 53004 80001 333 20111 30008 55126;EQDQ01  00002PRCP99
0173133890999992000060909004+42980+021950FM-12+023299999V0200201N001012200019N0200001N1+02421+00971102121ADDAA199000091GA1001+999999999GF100991001001999999001001MA1999999099451MD1810061+9999REMSYN060AAXX  09091 13389 32998 00201 10242 20097 39945 40212 58006;EQDQ01  00002PRCP99
0163133890999992000060912004+42980+021950FM-12+023299999V0200901N001012200019N0200001N1+02881+01091101841ADDAA199000091GF103991031031012501001001MA1999999099221MD1710231+9999REMSYN066AAXX  09121 13389 32698 30901 10288 20109 39922 40184 57023 83300;EQDQ01  00002PRCP99
0163133890999992000060915004+42980+021950FM-12+023299999V0209999C000010150019N0200001N1+02701+01361101691ADDAA199000091GF107991071081012501001001MA1999999099061MD1710161+9999REMSYN066AAXX  09151 13389 32698 70000 10270 20136 39906 40169 57016 87800;EQDQ01  00002PRCP99
0186133890999992000060918004+42980+021950FM-12+023299999V0201501N001010360019N0200001N1+02421+01431101771ADDAA199000091GF107991011021012501071011KA1999M+02901MA1999999099121MD1310061+9999REMSYN076AAXX  09181 13389 32698 71501 10242 20143 39912 40177 53006 81271 333 10290;EQDQ01  00002PRCP99
0163133890999992000060921004+42980+021950FM-12+023299999V0203101N001012200019N0200001N1+01941+01171101951ADDAA199000091GF102991001001999999001011MA1999999099241MD1210121+9999REMSYN066AAXX  09211 13389 32998 23101 10194 20117 39924 40195 52012 80001;EQDQ01  00002PRCP99
0173133890999992000061000004+42980+021950FM-12+023299999V0201901N001012200019N0200001N1+01541+01321101941ADDAA199000091GA1001+999999999GF100991001001999999001001MA1999999099191MD1810051+9999REMSYN060AAXX  10001 13389 32998 01901 10154 20132 39919 40194 58005;EQDQ01  00002PRCP99
0163133890999992000061003004+42980+021950FM-12+023299999V0201901N001019999999N0200001N1+01481+01271101911ADDAA199000091GF106991061001999999071001MA1999999099161MD1610031+9999REMSYN066AAXX  10031 13389 32998 61901 10148 20127 39916 40191 56003 86070;EQDQ01  00002PRCP99
0216133890999992000061006004+42980+021950FM-12+023299999V0202101N001010360019N0200001N1+01961+01321101861ADDAA199000091GF105991031051012501031001IA1019IA2999+01109KA1120N+01401MA1999999099161MD1410001+9999REMSYN088AAXX  10061 13389 32698 52101 10196 20132 39916 40186 54000 83530 333 20140 30011 55084;EQDQ01  00002PRCP99
0163133890999992000061009004+42980+021950FM-12+023299999V0202301N001012200019N0200001N1+02591+01301101761ADDAA199000091GF101991011021012501001001MA1999999099121MD1810041+9999REMSYN066AAXX  10091 13389 32698 12301 10259 20130 39912 40176 58004 81200;EQDQ01  00002PRCP99
0191133890999992000061012004+42980+021950FM-12+023299999V0200601N003010075019N0100001N1+02381+01401101751ADDAA199000091AY191061AY221061GF108991081091008001999999MA1999999099101MD1510001+9999MW1171REMSYN072AAXX  10121 13389 31597 80603 10238 20140 39910 40175 55000 71792 889//;EQDQ01  00002PRCP99
0191133890999992000061015004+42980+021950FM-12+023299999V0201101N004010075019N0200001N1+01781+01511101881ADDAA199000091AY191031AY261031GF108991081091008001999999MA1999999099171MD1010071+9999MW1291REMSYN072AAXX  10151 13389 31598 81104 10178 20151 39917 40188 50007 72996 889//;EQDQ01  00002PRCP99
0163133890999992000061021004+42980+021950FM-12+023299999V0201501N001012200019N0200001N1+01711+01361101971ADDAA199000091GF101991011001999999031001MA1999999099251MD1010131+9999REMSYN066AAXX  10211 13389 32998 11501 10171 20136 39925 40197 50013 81030;EQDQ01  00002PRCP99
0173133890999992000061100004+42980+021950FM-12+023299999V0202001N002012200019N0200001N1+01371+01251102021ADDAA199000091GA1001+999999999GF100991001001999999001001MA1999999099261MD1110021+9999REMSYN060AAXX  11001 13389 32998 02002 10137 20125 39926 40202 51002;EQDQ01  00002PRCP99
0173133890999992000061103004+42980+021950FM-12+023299999V0209999C000012200019N0200001N1+01141+01061102081ADDAA199000091GA1001+999999999GF100991001001999999001001MA1999999099291MD1310031+9999REMSYN060AAXX  11031 13389 32998 00000 10114 20106 39929 40208 53003;EQDQ01  00002PRCP99
0226133890999992000061106004+42980+021950FM-12+023299999V0209999C000012200019N0200001N1+01721+01361102111ADDAA199000091GA1001+999999999GF100991001001999999001001IA1019IA2999+00909KA1120N+01141MA1999999099381MD1210091+9999REMSYN082AAXX  11061 13389 32998 00000 10172 20136 39938 40211 52009 333 20114 30009 55043;EQDQ01  00002PRCP99
0163133890999992000061109004+42980+021950FM-12+023299999V0200901N002012200019N0200001N1+02441+01061102021ADDAA199000091GF101991011021012501001001MA1999999099381MD1410001+9999REMSYN066AAXX  11091 13389 32698 10902 10244 20106 39938 40202 54000 81200;EQDQ01  00002PRCP99
0163133890999992000061112004+42980+021950FM-12+023299999V0200401N003012200019N0200001N1+02921+00861101831ADDAA199000091GF102991021021012501001001MA1999999099211MD1710171+9999REMSYN066AAXX  11121 13389 32698 20403 10292 20086 39921 40183 57017 82200;EQDQ01  00002PRCP99
0163133890999992000061115004+42980+021950FM-12+023299999V0200401N005012200019N0200001N1+03001+00851101731ADDAA199000091GF101991011011012501001001MA1999999099121MD1710091+9999REMSYN066AAXX  11151 13389 32698 10405 10300 20085 39912 40173 57009 81100;EQDQ01  00002PRCP99
0196133890999992000061118004+42980+021950FM-12+023299999V0200601N002012200019N0200001N1+02651+00811101751ADDAA199000091GA1001+999999999GF100991001001999999001001KA1999M+03031MA1999999099111MD1610011+9999REMSYN070AAXX  11181 13389 32998 00602 10265 20081 39911 40175 56001 333 10303;EQDQ01  00002PRCP99
0173133890999992000061121004+42980+021950FM-12+023299999V0200901N002012200019N0200001N1+02241+00921101901ADDAA199000091GA1001+999999999GF100991001001999999001001MA1999999099221MD1310111+9999REMSYN060AAXX  11211 13389 32998 00902 10224 20092 39922 40190 53011;EQDQ01  00002PRCP99
0173133890999992000061203004+42980+021950FM-12+023299999V0201601N001012200019N0200001N1+01601+01121102211ADDAA199000091GA1001+999999999GF100991001001999999001001MA1999999099461MD1210141+9999REMSYN060AAXX  12031 13389 32998 01601 10160 20112 39946 40221 52014;EQDQ01  00002PRCP99
0226133890999992000061206004+42980+021950FM-12+023299999V0200601N002012200019N0200001N1+02071+00661102311ADDAA199000091GA1001+999999999GF100991001001999999001001IA1019IA2999+01209KA1120N+01511MA1999999099611MD1210151+9999REMSYN082AAXX  12061 13389 32998 00602 10207 20066 39961 40231 52015 333 20151 30012 55138;EQDQ01  00002PRCP99
0173133890999992000061209004+42980+021950FM-12+023299999V0200201N002012200019N0200001N1+02621+00921102251ADDAA199000091GA1001+999999999GF100991001001999999001001MA1999999099591MD1610021+9999REMSYN060AAXX  12091 13389 32998 00202 10262 20092 39959 40225 56002;EQDQ01  00002PRCP99
0173133890999992000061212004+42980+021950FM-12+023299999V0203601N002012200019N0200001N1+03021+01051102151ADDAA199000091GA1001+999999999GF100991001001999999001001MA1999999099531MD1810061+9999REMSYN060AAXX  12121 13389 32998 03602 10302 20105 39953 40215 58006;EQDQ01  00002PRCP99
0163133890999992000061215004+42980+021950FM-12+023299999V0202501N002019999999N0200001N1+03221+01171102091ADDAA199000091GF106991001001999999001061MA1999999099491MD1610041+9999REMSYN066AAXX  12151 13389 32998 62502 10322 20117 39949 40209 56004 80006;EQDQ01  00002PRCP99
0186133890999992000061218004+42980+021950FM-12+023299999V0200401N001012200019N0200001N1+02861+01241102201ADDAA199000091GF104991001001999999001011KA1999M+03221MA1999999099571MD1310081+9999REMSYN076AAXX  12181 13389 32998 40401 10286 20124 39957 40220 53008 80001 333 10322;EQDQ01  00002PRCP99
0173133890999992000061221004+42980+021950FM-12+023299999V0202101N001012200019N0200001N1+02101+01641102361ADDAA199000091GA1001+999999999GF100991001001999999001001MA1999999099661MD1310091+9999REMSYN060AAXX  12211 13389 32998 02101 10210 20164 39966 40236 53009;EQDQ01  00002PRCP99
0163133890999992000061300004+42980+021950FM-12+023299999V0209999C000012200019N0200001N1+01741+01411102441ADDAA199000091GF102991001001999999001011MA1999999099711MD1110051+9999REMSYN066AAXX  13001 13389 32998 20000 10174 20141 39971 40244 51005 80001;EQDQ01  00002PRCP99
0163133890999992000061303004+42980+021950FM-12+023299999V0209999C000012200019N0200001N1+01561+01251102461ADDAA199000091GF102991001001999999001011MA1999999099711MD1410001+9999REMSYN066AAXX  13031 13389 32998 20000 10156 20125 39971 40246 54000 80001;EQDQ01  00002PRCP99
0216133890999992000061306004+42980+021950FM-12+023299999V0209999C000012200019N0200001N1+02141+01351102461ADDAA199000091GF101991001001999999001011IA1019IA2999+01309KA1120N+01541MA1999999099761MD1110051+9999REMSYN088AAXX  13061 13389 32998 10000 10214 20135 39976 40246 51005 80001 333 20154 30013 55120;EQDQ01  00002PRCP99
0173133890999992000061309004+42980+021950FM-12+023299999V0200401N001012200019N0200001N1+02861+01251102341ADDAA199000091GA1001+999999999GF100991001001999999001001MA1999999099711MD1810051+9999REMSYN060AAXX  13091 13389 32998 00401 10286 20125 39971 40234 58005;EQDQ01  00002PRCP99
0173133890999992000061312004+42980+021950FM-12+023299999V0200201N003012200019N0200001N1+03321+01001102201ADDAA199000091GA1001+999999999GF100991001001999999001001MA1999999099601MD1710111+9999REMSYN060AAXX  13121 13389 32998 00203 10332 20100 39960 40220 57011;EQDQ01  00002PRCP99
0163133890999992000061315004+42980+021950FM-12+023299999V0203201N002012200019N0200001N1+03421+01171102061ADDAA199000091GF104991001001999999001011MA1999999099481MD1610121+9999REMSYN066AAXX  13151 13389 32998 43202 10342 20117 39948 40206 56012 80001;EQDQ01  00002PRCP99
0186133890999992000061318004+42980+021950FM-12+023299999V0209999C000012200019N0200001N1+02861+01081102161ADDAA199000091GF106991011021012501001061KA1999M+03461MA1999999099531MD1310051+9999REMSYN076AAXX  13181 13389 32698 60000 10286 20108 39953 40216 53005 81206 333 10346;EQDQ01  00002PRCP99
0173133890999992000061321004+42980+021950FM-12+023299999V0209999C000012200019N0200001N1+02061+01481102231ADDAA199000091GA1001+999999999GF100991001001999999001001MA1999999099541MD1110011+9999REMSYN060AAXX  13211 13389 32998 00000 10206 20148 39954 40223 51001;EQDQ01  00002PRCP99
0173133890999992000061400004+42980+021950FM-12+023299999V0209999C000012200019N0200001N1+01701+01321102311ADDAA199000091GA1001+999999999GF100991001001999999001001MA1999999099571MD1310031+9999REMSYN060AAXX  14001 13389 32998 00000 10170 20132 39957 40231 53003;EQDQ01  00002PRCP99
0173133890999992000061403004+42980+021950FM-12+023299999V0202001N002012200019N0200001N1+01471+01171102311ADDAA199000091GA1001+999999999GF100991001001999999001001MA1999999099551MD1810021+9999REMSYN060AAXX  14031 13389 32998 02002 10147 20117 39955 40231 58002;EQDQ01  00002PRCP99
0226133890999992000061406004+42980+021950FM-12+023299999V0209999C000012200019N0200001N1+02081+01151102281ADDAA199000091GA1001+999999999GF100991001001999999001001IA1019IA2999+01209KA1120N+01471MA1999999099581MD1310031+9999REMSYN082AAXX  14061 13389 32998 00000 10208 20115 39958 40228 53003 333 20147 30012 55119;EQDQ01  00002PRCP99
0173133890999992000061409004+42980+021950FM-12+023299999V0200101N001012200019N0200001N1+02761+01171102181ADDAA199000091GA1001+999999999GF100991001001999999001001MA1999999099501MD1810081+9999REMSYN060AAXX  14091 13389 32998 00101 10276 20117 39950 40218 58008;EQDQ01  00002PRCP99
0163133890999992000061412004+42980+021950FM-12+023299999V0200601N001012200019N0200001N1+03471+01081101851ADDAA199000091GF102991011021012501001011MA1999999099281MD1710221+9999REMSYN066AAXX  14121 13389 32698 20601 10347 20108 39928 40185 57022 81201;EQDQ01  00002PRCP99
0163133890999992000061415004+42980+021950FM-12+023299999V0209999C000019999999N0200001N1+03621+01061101681ADDAA199000091GF107991011001012501031061MA1999999099121MD1610161+9999REMSYN066AAXX  14151 13389 32698 70000 10362 20106 39912 40168 56016 81036;EQDQ01  00002PRCP99
0214133890999992000061418004+42980+021950FM-12+023299999V0202601N007010360019N0200001N1+02881+01321102021ADDAA199000091AY191061AY211061GF108991041091012501071999KA1999M+03621MA1999999099391MD1310281+9999MW1171REMSYN082AAXX  14181 13389 31698 82607 10288 20132 39939 40202 53028 71791 8497/ 333 10362;EQDQ01  00002PRCP99
0191133890999992000061421004+42980+021950FM-12+023299999V0201601N002019999999N0200001N1+02021+01601102171ADDAA199000091AY191031AY261031GF108991081001999999071999MA1999999099471MD1010081+9999MW1021REMSYN072AAXX  14211 13389 31998 81602 10202 20160 39947 40217 50008 70296 8807/;EQDQ01  00002PRCP99
0178133890999992000061500004+42980+021950FM-12+023299999V0209999C000012200019N0200001N1+01811+01441101981ADDAA106000591AY191061AY261061GF102991021001999999031001MA1999999099261MD1710211+9999MW1011REMSYN078AAXX  15001 13389 11998 20000 10181 20144 39926 40198 57021 69941 70196 82030;
0203133890999992000061506004+42980+021950FM-12+023299999V0203401N010012200019N0200001N1+02201+01361101851ADDAA112000591GF103991031001999999031001IA1019IA2999+01409KA1120N+01701MA1999999099171MD1610031+9999REMSYN094AAXX  15061 13389 12998 33410 10220 20136 39917 40185 56003 69942 83030 333 20170 30014 55105;
0163133890999992000061509004+42980+021950FM-12+023299999V0203301N001012200019N0200001N1+02881+01271101761ADDAA199000091GF104991041001999999071001MA1999999099141MD1810031+9999REMSYN066AAXX  15091 13389 32998 43301 10288 20127 39914 40176 58003 84070;EQDQ01  00002PRCP99
0163133890999992000061512004+42980+021950FM-12+023299999V0201801N002012200019N0200001N1+03361+01061101481ADDAA199000091GF102991011021012501001011MA1999999098911MD1710231+9999REMSYN066AAXX  15121 13389 32698 21802 10336 20106 39891 40148 57023 81201;EQDQ01  00002PRCP99
0191133890999992000061515004+42980+021950FM-12+023299999V0201101N002010120019N0200001N1+03391+00971101301ADDAA199000091AY191031AY211031GF107991071091012501001001MA1999999098741MD1610171+9999MW1171REMSYN072AAXX  15151 13389 31698 71102 10339 20097 39874 40130 56017 71791 87900;EQDQ01  00002PRCP99
0214133890999992000061518004+42980+021950FM-12+023299999V0201401N002012200019N0200001N1+02561+01091101471ADDAA199000091AY111061AY291061GF103991031001999999031001KA1999M+03531MA1999999098831MD1010091+9999MW1011REMSYN082AAXX  15181 13389 31998 31402 10256 20109 39883 40147 50009 70119 83030 333 10353;EQDQ01  00002PRCP99
0163133890999992000061521004+42980+021950FM-12+023299999V0209999C000012200019N0200001N1+02081+01491101511ADDAA199000091GF104991011011012501031001MA1999999098841MD1010011+9999REMSYN066AAXX  15211 13389 32698 40000 10208 20149 39884 40151 50001 81130;EQDQ01  00002PRCP99
0163133890999992000061600004+42980+021950FM-12+023299999V0209999C000012200019N0200001N1+01681+01381101451ADDAA199000091GF102991021001999999031001MA1999999098741MD1710101+9999REMSYN066AAXX  16001 13389 32998 20000 10168 20138 39874 40145 57010 82030;EQDQ01  00002PRCP99
0163133890999992000061603004+42980+021950FM-12+023299999V0209999C000010360019N0200001N1+01671+01511101541ADDAA199000091GF106991041051012501031001MA1999999098811MD1310071+9999REMSYN066AAXX  16031 13389 32698 60000 10167 20151 39881 40154 53007 84530;EQDQ01  00002PRCP99
0231133890999992000061606004+42980+021950FM-12+023299999V0200701N002010150019N0200001N1+01881+01471101551ADDAA112000791AY161061AY211061GF107991071081012501001001IA1019IA2999+01409KA1120N+01611MA1999999098861MD1110051+9999MW1211REMSYN100AAXX  16061 13389 11698 70702 10188 20147 39886 40155 51005 69902 72161 87800 333 20161 30014 55110;
0144133890999992000061609004+42980+021950FM-12+023299999V0203401N004010150019N0200001N1+02341+01381101611ADDAA199000021GF108991081081012501999999MA1999999098951MD1310091+9999REMSYN066AAXX  16091 13389 32698 83404 10234 20138 39895 40161 53009 888//;
0133133890999992000061615004+42980+021950FM-12+023299999V0203401N006010150019N0100001N1+02111+01171101541ADDAA199000021GF108991081081012501999999MD1610041+9999REMSYN070AAXX  16151 13389 32697 83406 10211 20117 40154 56004 888// 333 91112;
0201133890999992000061618004+42980+021950FM-12+023299999V0202301N002010120019N0040001N1+01651+01481101791ADDAA112011991AY191061AY281061GF108991081001012501021999KA1999M+02441MA1999999099061MD1310201+9999MW1921REMSYN088AAXX  16181 13389 11696 82302 10165 20148 39906 40179 53020 60122 79298 8802/ 333 10244;
0172133890999992000061621004+42980+021950FM-12+023299999V0202101N001010120019N0100001N1+01631+01481101871ADDAA199000021AY161031AY221031GF108991081051012501999999MA1999999099141MD1210081+9999MW1021REMSYN072AAXX  16211 13389 31697 82101 10163 20148 39914 40187 52008 70262 885//;
0178133890999992000061700004+42980+021950FM-12+023299999V0202001N002010120019N0100001N1+01481+01231101951ADDAA106001091AY161061AY221061GF108991081051012501999999MA1999999099201MD1110061+9999MW1211REMSYN078AAXX  17001 13389 11697 82002 10148 20123 39920 40195 51006 60011 72162 885//;
0144133890999992000061703004+42980+021950FM-12+023299999V0202001N002010120019N0100001N1+01361+01171101961ADDAA199000021GF108991081051012501999999MA1999999099201MD1410001+9999REMSYN066AAXX  17031 13389 32697 82002 10136 20117 39920 40196 54000 885//;
0203133890999992000061706004+42980+021950FM-12+023299999V0203301N003010120019N0200001N1+01461+00771102071ADDAA112001091GF107991071051012501001001IA1099IA2999+01209KA1120N+01361MA1999999099321MD1310131+9999REMSYN094AAXX  17061 13389 12698 73303 10146 20077 39932 40207 53013 60012 87500 333 20136 31012 55010;
0144133890999992000061709004+42980+021950FM-12+023299999V0203401N006010150019N0200001N1+01701+00301102161ADDAA199000021GF107991071081012501001001MA1999999099431MD1210111+9999REMSYN066AAXX  17091 13389 32698 73406 10170 20030 39943 40216 52011 87800;
0144133890999992000061712004+42980+021950FM-12+023299999V0203201N005010150019N0200001N1+01831+00251102101ADDAA199000021GF107991071081012501001001MA1999999099341MD1610061+9999REMSYN066AAXX  17121 13389 32698 73205 10183 20025 39934 40210 56006 87800;
0163133890999992000061715004+42980+021950FM-12+023299999V0203101N005012200019N0200001N1+01851+00011102151ADDAA199000091GF104991041081012501001001MA1999999099421MD1310051+9999REMSYN066AAXX  17151 13389 32698 43105 10185 20001 39942 40215 53005 84800;EQDQ01  00002PRCP99
0186133890999992000061718004+42980+021950FM-12+023299999V0203301N002012200019N0200001N1+01641-00091102291ADDAA199000091GF102991021081012501001001KA1999M+01981MA1999999099531MD1210111+9999REMSYN076AAXX  17181 13389 32698 23302 10164 21009 39953 40229 52011 82800 333 10198;EQDQ01  00002PRCP99
0173133890999992000061721004+42980+021950FM-12+023299999V0203001N001012200019N0200001N1+01201+00011102581ADDAA199000091GA1001+999999999GF100991001001999999001001MA1999999099781MD1210251+9999REMSYN060AAXX  17211 13389 32998 03001 10120 20001 39978 40258 52025;EQDQ01  00002PRCP99
0173133890999992000061800004+42980+021950FM-12+023299999V0201801N001012200019N0200001N1+00721+00421102681ADDAA199000091GA1001+999999999GF100991001001999999001001MA1999999099841MD1110061+9999REMSYN060AAXX  18001 13389 32998 01801 10072 20042 39984 40268 51006;EQDQ01  00002PRCP99
0173133890999992000061803004+42980+021950FM-12+023299999V0209999C000012200019N0200001N1+00521+00331102801ADDAA199000091GA1001+999999999GF100991001001999999001001MA1999999099931MD1310091+9999REMSYN060AAXX  18031 13389 32998 00000 10052 20033 39993 40280 53009;EQDQ01  00002PRCP99
0226133890999992000061806004+42980+021950FM-12+023299999V0201601N001012200019N0200001N1+01161+00351102851ADDAA199000091GA1001+999999999GF100991001001999999001001IA1099IA2999+00209KA1120N+00501MA1999999100051MD1210121+9999REMSYN082AAXX  18061 13389 32998 01601 10116 20035 30005 40285 52012 333 20050 31002 55045;EQDQ01  00002PRCP99
0163133890999992000061809004+42980+021950FM-12+023299999V0200201N001012200019N0200001N1+01781+00181102781ADDAA199000091GF101991011011012501001001MA1999999100041MD1810011+9999REMSYN066AAXX  18091 13389 32698 10201 10178 20018 30004 40278 58001 81100;EQDQ01  00002PRCP99
0163133890999992000061812004+42980+021950FM-12+023299999V0203601N004012200019N0200001N1+02041+00091102631ADDAA199000091GF102991021021012501001001MA1999999099901MD1710141+9999REMSYN066AAXX  18121 13389 32698 23604 10204 20009 39990 40263 57014 82200;EQDQ01  00002PRCP99
0163133890999992000061815004+42980+021950FM-12+023299999V0203201N004012200019N0500001N1+02181+00151102461ADDAA199000091GF101991011011012501001001MA1999999099761MD1710141+9999REMSYN066AAXX  18151 13389 32699 13204 10218 20015 39976 40246 57014 81100;EQDQ01  00002PRCP99
0196133890999992000061818004+42980+021950FM-12+023299999V0203401N003012200019N0500001N1+01911+00041102451ADDAA199000091GA1001+999999999GF100991001001999999001001KA1999M+02181MA1999999099721MD1610041+9999REMSYN070AAXX  18181 13389 32999 03403 10191 20004 39972 40245 56004 333 10218;EQDQ01  00002PRCP99
0173133890999992000061821004+42980+021950FM-12+023299999V0209999C000012200019N0200001N1+01121+00701102691ADDAA199000091GA1001+999999999GF100991001001999999001001MA1999999099881MD1310161+9999REMSYN060AAXX  18211 13389 32998 00000 10112 20070 39988 40269 53016;EQDQ01  00002PRCP99
0163133890999992000061900004+42980+021950FM-12+023299999V0209999C000012200019N0200001N1+00861+00621102691ADDAA199000091GF101991011001999999031001MA1999999099861MD1610021+9999REMSYN066AAXX  19001 13389 32998 10000 10086 20062 39986 40269 56002 81030;EQDQ01  00002PRCP99
0163133890999992000061903004+42980+021950FM-12+023299999V0209999C000010360019N0200001N1+00171+99999102651ADDAA199000091GF105991021051012501031001MA1999999099821MD1810041+9999REMSYN066AAXX  19031 13389 32698 50000 10017 20062 39982 40265 58004 82530;EQDQ01  00002PRCP99
0216133890999992000061906004+42980+021950FM-12+023299999V0201201N001012200019N0200001N1+01401+00451102611ADDAA199000091GF102991021001999999031001IA1099IA2999+00409KA1120N+00721MA1999999099841MD1310021+9999REMSYN088AAXX  19061 13389 32998 21201 10140 20045 39984 40261 53002 82030 333 20072 31004 55139;EQDQ01  00002PRCP99
0163133890999992000061909004+42980+021950FM-12+023299999V0200301N003012200019N0200001N1+02001+00251102501ADDAA199000091GF102991021021012501001001MA1999999099781MD1810061+9999REMSYN066AAXX  19091 13389 32698 20303 10200 20025 39978 40250 58006 82200;EQDQ01  00002PRCP99
0163133890999992000061912004+42980+021950FM-12+023299999V0203401N004012200019N0200001N1+02261+00281102351ADDAA199000091GF104991041021012501001001MA1999999099661MD1710121+9999REMSYN066AAXX  19121 13389 32698 43404 10226 20028 39966 40235 57012 84200;EQDQ01  00002PRCP99
0163133890999992000061915004+42980+021950FM-12+023299999V0203401N002012200019N0200001N1+02361+00281102241ADDAA199000091GF102991021011012501001001MA1999999099561MD1710101+9999REMSYN066AAXX  19151 13389 32698 23402 10236 20028 39956 40224 57010 82100;EQDQ01  00002PRCP99
0196133890999992000061918004+42980+021950FM-12+023299999V0203501N003012200019N0200001N1+02081+00011102241ADDAA199000091GA1001+999999999GF100991001001999999001001KA1999M+02361MA1999999099531MD1610031+9999REMSYN070AAXX  19181 13389 32998 03503 10208 20001 39953 40224 56003 333 10236;EQDQ01  00002PRCP99
0173133890999992000061921004+42980+021950FM-12+023299999V0201601N002012200019N0200001N1+01151+00601102391ADDAA199000091GA1001+999999999GF100991001001999999001001MA1999999099601MD1310071+9999REMSYN060AAXX  19211 13389 32998 01602 10115 20060 39960 40239 53007;EQDQ01  00002PRCP99
0173133890999992000062000004+42980+021950FM-12+023299999V0209999C000012200019N0200001N1+00761+00491102431ADDAA199000091GA1001+999999999GF100991001001999999001001MA1999999099601MD1410001+9999REMSYN060AAXX  20001 13389 32998 00000 10076 20049 39960 40243 54000;EQDQ01  00002PRCP99
0173133890999992000062003004+42980+021950FM-12+023299999V0209999C000012200019N0200001N1+00521+00351102421ADDAA199000091GA1001+999999999GF100991001001999999001001MA1999999099561MD1810041+9999REMSYN060AAXX  20031 13389 32998 00000 10052 20035 39956 40242 58004;EQDQ01  00002PRCP99
0212133890999992000062006004+42980+021950FM-12+023299999V0209999C000012200019N0200001N1+01261+00381102381ADDAA199000091GA1001+999999999GF100991001001999999001001IA1019IA2999+00209MA1999999099601MD1310041+9999REMSYN081AAXX  20061 13389 32998 00000 10126 20038 39960 40238 53004 333 2052 30002 55143;EQDQ01  00002PRCP99
0173133890999992000062009004+42980+021950FM-12+023299999V0203301N002012200019N0200001N1+02101+00061102271ADDAA199000091GA1001+999999999GF100991001001999999001001MA1999999099561MD1610051+9999REMSYN060AAXX  20091 13389 32998 03302 10210 20006 39956 40227 56005;EQDQ01  00002PRCP99
0173133890999992000062012004+42980+021950FM-12+023299999V0201601N002012200019N0200001N1+02361+00181102091ADDAA199000091GA1001+999999999GF100991001001999999001001MA1999999099421MD1710141+9999REMSYN060AAXX  20121 13389 32998 01602 10236 20018 39942 40209 57014;EQDQ01  00002PRCP99
0173133890999992000062015004+42980+021950FM-12+023299999V0203201N003012200019N0200001N1+02581+00381101941ADDAA199000091GA1001+999999999GF100991001001999999001001MA1999999099291MD1710131+9999REMSYN060AAXX  20151 13389 32998 03203 10258 20038 39929 40194 57013;EQDQ01  00002PRCP99
0186133890999992000062018004+42980+021950FM-12+023299999V0209999C000012200019N0200001N1+02301+00771101911ADDAA199000091GF103991021001999999031011KA1999M+02641MA1999999099241MD1610051+9999REMSYN076AAXX  20181 13389 32998 30000 10230 20077 39924 40191 56005 82031 333 10264;EQDQ01  00002PRCP99
0173133890999992000062021004+42980+021950FM-12+023299999V0201901N001012200019N0200001N1+01441+00861102131ADDAA199000091GA1001+999999999GF100991001001999999001001MA1999999099291MD1310051+9999REMSYN060AAXX  20211 13389 32998 01901 10144 20086 39929 40213 53005;EQDQ01  00002PRCP99
0173133890999992000062100004+42980+021950FM-12+023299999V0209999C000012200019N0200001N1+01101+00761102081ADDAA199000091GA1001+999999999GF100991001001999999001001MA1999999099291MD1410001+9999REMSYN060AAXX  21001 13389 32998 00000 10110 20076 39929 40208 54000;EQDQ01  00002PRCP99
0173133890999992000062103004+42980+021950FM-12+023299999V0209999C000012200019N0200001N1+00881+00701102101ADDAA199000091GA1001+999999999GF100991001001999999001001MA1999999099291MD1410001+9999REMSYN060AAXX  21031 13389 32998 00000 10088 20070 39929 40210 54000;EQDQ01  00002PRCP99
0226133890999992000062106004+42980+021950FM-12+023299999V0201401N001012200019N0200001N1+01561+00701102041ADDAA199000091GA1001+999999999GF100991001001999999001001IA1099IA2999+00609KA1120N+00881MA1999999099291MD1410001+9999REMSYN082AAXX  21061 13389 32998 01401 10156 20070 39929 40204 54000 333 20088 31006 55145;EQDQ01  00002PRCP99
0173133890999992000062109004+42980+021950FM-12+023299999V0202201N002012200019N0200001N1+02461+00581101831ADDAA199000091GA1001+999999999GF100991001001999999001001MA1999999099171MD1810121+9999REMSYN060AAXX  21091 13389 32998 02202 10246 20058 39917 40183 58012;EQDQ01  00002PRCP99
0173133890999992000062112004+42980+021950FM-12+023299999V0203401N002012200019N0200001N1+02861+00491101621ADDAA199000091GA1001+999999999GF100991001001999999001001MA1999999099011MD1710161+9999REMSYN060AAXX  21121 13389 32998 03402 10286 20049 39901 40162 57016;EQDQ01  00002PRCP99
0163133890999992000062115004+42980+021950FM-12+023299999V0200601N002012200019N0200001N1+03031+00351101451ADDAA199000091GF102991001001999999001011MA1999999098851MD1710161+9999REMSYN066AAXX  21151 13389 32998 20602 10303 20035 39885 40145 57016 80001;EQDQ01  00002PRCP99
0186133890999992000062118004+42980+021950FM-12+023299999V0209999C000012200019N0200001N1+02631+00771101471ADDAA199000091GF101991001001999999001011KA1999M+03081MA1999999098831MD1610021+9999REMSYN076AAXX  21181 13389 32998 10000 10263 20077 39883 40147 56002 80001 333 10308;EQDQ01  00002PRCP99
0173133890999992000062121004+42980+021950FM-12+023299999V0209999C000012200019N0200001N1+01831+00791101651ADDAA199000091GA1001+999999999GF100991001001999999001001MA1999999098951MD1310121+9999REMSYN060AAXX  21211 13389 32998 00000 10183 20079 39895 40165 53012;EQDQ01  00002PRCP99
0173133890999992000062200004+42980+021950FM-12+023299999V0201801N001012200019N0200001N1+01201+00921101741ADDAA199000091GA1001+999999999GF100991001001999999001001MA1999999098981MD1210031+9999REMSYN060AAXX  22001 13389 32998 01801 10120 20092 39898 40174 52003;EQDQ01  00002PRCP99
0173133890999992000062203004+42980+021950FM-12+023299999V0209999C000012200019N0200001N1+01131+00831101831ADDAA199000091GA1001+999999999GF100991001001999999001001MA1999999099051MD1310071+9999REMSYN060AAXX  22031 13389 32998 00000 10113 20083 39905 40183 53007;EQDQ01  00002PRCP99
0226133890999992000062206004+42980+021950FM-12+023299999V0209999C000012200019N0200001N1+01801+00861101871ADDAA199000091GA1001+999999999GF100991001001999999001001IA1019IA2999+00809KA1120N+01121MA1999999099151MD1210101+9999REMSYN082AAXX  22061 13389 32998 00000 10180 20086 39915 40187 52010 333 20112 30008 55143;EQDQ01  00002PRCP99
0163133890999992000062209004+42980+021950FM-12+023299999V0201001N002012200019N0200001N1+02681+00881101741ADDAA199000091GF101991011011012501001001MA1999999099111MD1810041+9999REMSYN066AAXX  22091 13389 32698 11002 10268 20088 39911 40174 58004 81100;EQDQ01  00002PRCP99
0173133890999992000062212004+42980+021950FM-12+023299999V0200201N002012200019N0200001N1+03191+00771101591ADDAA199000091GA1001+999999999GF100991001001999999001001MA1999999099001MD1710111+9999REMSYN060AAXX  22121 13389 32998 00202 10319 20077 39900 40159 57011;EQDQ01  00002PRCP99
0163133890999992000062215004+42980+021950FM-12+023299999V0203601N002012200019N0200001N1+03341+00421101461ADDAA199000091GF101991011011012501001001MA1999999098881MD1710121+9999REMSYN066AAXX  22151 13389 32698 13602 10334 20042 39888 40146 57012 81100;EQDQ01  00002PRCP99
0196133890999992000062218004+42980+021950FM-12+023299999V0209999C000012200019N0200001N1+02751+01121101471ADDAA199000091GA1001+999999999GF100991001001999999001001KA1999M+03341MA1999999098851MD1510031+9999REMSYN070AAXX  22181 13389 32998 00000 10275 20112 39885 40147 55003 333 10334;EQDQ01  00002PRCP99
0173133890999992000062221004+42980+021950FM-12+023299999V0209999C000012200019N0200001N1+01741+00921101731ADDAA199000091GA1001+999999999GF100991001001999999001001MA1999999099011MD1210161+9999REMSYN060AAXX  22211 13389 32998 00000 10174 20092 39901 40173 52016;EQDQ01  00002PRCP99
0173133890999992000062300004+42980+021950FM-12+023299999V0201801N001012200019N0200001N1+01401+01001101781ADDAA199000091GA1001+999999999GF100991001001999999001001MA1999999099031MD1110021+9999REMSYN060AAXX  23001 13389 32998 01801 10140 20100 39903 40178 51002;EQDQ01  00002PRCP99
0173133890999992000062303004+42980+021950FM-12+023299999V0209999C000012200019N0200001N1+01421+00831101811ADDAA199000091GA1001+999999999GF100991001001999999001001MA1999999099031MD1410001+9999REMSYN060AAXX  23031 13389 32998 00000 10142 20083 39903 40181 54000;EQDQ01  00002PRCP99
0226133890999992000062306004+42980+021950FM-12+023299999V0209999C000012200019N0200001N1+01901+00741101801ADDAA199000091GA1001+999999999GF100991001001999999001001IA1019IA2999+00809KA1120N+01111MA1999999099091MD1310061+9999REMSYN082AAXX  23061 13389 32998 00000 10190 20074 39909 40180 53006 333 20111 30008 55142;EQDQ01  00002PRCP99
0163133890999992000062309004+42980+021950FM-12+023299999V0203201N001012200019N0200001N1+02861+00771101591ADDAA199000091GF101991011011012501001001MA1999999098981MD1810111+9999REMSYN066AAXX  23091 13389 32698 13201 10286 20077 39898 40159 58011 81100;EQDQ01  00002PRCP99
0163133890999992000062312004+42980+021950FM-12+023299999V0201001N002012200019N0200001N1+03381+00931101371ADDAA199000091GF101991011021012501001001MA1999999098801MD1710181+9999REMSYN066AAXX  23121 13389 32698 11002 10338 20093 39880 40137 57018 81200;EQDQ01  00002PRCP99
0163133890999992000062315004+42980+021950FM-12+023299999V0200901N002012200019N0200001N1+03471+00881101191ADDAA199000091GF101991011021012501001001MA1999999098641MD1710161+9999REMSYN066AAXX  23151 13389 32698 10902 10347 20088 39864 40119 57016 81200;EQDQ01  00002PRCP99
0214133890999992000062318004+42980+021950FM-12+023299999V0203001N005012200019N0200001N1+02821+00901101311ADDAA199000091AY191061AY211061GF104991041091012501001001KA1999M+03521MA1999999098691MD1310051+9999MW1171REMSYN082AAXX  23181 13389 31698 43005 10282 20090 39869 40131 53005 71791 84900 333 10352;EQDQ01  00002PRCP99
0191133890999992000062321004+42980+021950FM-12+023299999V0209999C000012200019N0200001N1+02101+01201101411ADDAA199000091AY101031AY291031GF101991011001999999031001MA1999999098731MD1110041+9999MW1021REMSYN072AAXX  23211 13389 31998 10000 10210 20120 39873 40141 51004 70209 81030;EQDQ01  00002PRCP99
0191133890999992000062400004+42980+021950FM-12+023299999V0209999C000012200019N0200001N1+01841+01321101431ADDAA199000091AY101061AY291061GF102991021001999999031001MA1999999098721MD1810011+9999MW1021REMSYN072AAXX  24001 13389 31998 20000 10184 20132 39872 40143 58001 70209 82030;EQDQ01  00002PRCP99
0191133890999992000062403004+42980+021950FM-12+023299999V0202001N002010360019N0200001N1+01721+01311101431ADDAA199000091AY191031AY271031GF105991031091012501031001MA1999999098711MD1610011+9999MW1171REMSYN072AAXX  24031 13389 31698 52002 10172 20131 39871 40143 56001 71797 83930;EQDQ01  00002PRCP99
0231133890999992000062406004+42980+021950FM-12+023299999V0201201N002010120019N0100001N1+01811+01601101451ADDAA112002091AY191061AY261061GF107991071091012501001001IA1099IA2999+01409KA1120N+01721MA1999999098751MD1810041+9999MW1951REMSYN100AAXX  24061 13389 11697 71202 10181 20160 39875 40145 58004 60022 79596 87900 333 20172 31014 55130;
0172133890999992000062409004+42980+021950FM-12+023299999V0202001N001012200019N0200001N1+02561+01381101351ADDAA199000021AY191031AY261031GF103991021001999999031011MA1999999098731MD1810031+9999MW1011REMSYN072AAXX  24091 13389 31998 32001 10256 20138 39873 40135 58003 70196 82031;
0178133890999992000062412004+42980+021950FM-12+023299999V0200201N001012200019N0200001N1+03181+01111101041ADDAA106000791AY111061AY261061GF103991021021012501001011MA1999999098461MD1710271+9999MW1011REMSYN078AAXX  24121 13389 11698 30201 10318 20111 39846 40104 57027 69901 70116 82201;
0150133890999992000062418004+42980+021950FM-12+023299999V0209999C000012200019N0200001N1+02781+01251100801ADDAA112000791GF103991031021012501001001MA1999999098201MD1610081+9999REMSYN072AAXX  24181 13389 12698 30000 10278 20125 39820 40080 56008 69902 83200;
0163133890999992000062421004+42980+021950FM-12+023299999V0201901N001012200019N0200001N1+02141+01111101171ADDAA199000091GF102991021001999999031001MA1999999098501MD1210301+9999REMSYN066AAXX  24211 13389 32998 21901 10214 20111 39850 40117 52030 82030;EQDQ01  00002PRCP99
0179133890999992000062500004+42980+021950FM-12+023299999V0202001N001012200019N0200001N1+01251+00981999999ADDAA199000091GF101991011001999999031001MA1999999099021MD1110091+9999REMSYN066AAXX  26211 13389 32998 12001 10125 20098 39902 40179 51009 81030;EQDQ01+101793APOSLPQ02  00002PRCP99
0173133890999992000062503004+42980+021950FM-12+023299999V0209999C000012200019N0200001N1+01421+01181101171ADDAA199000091GA1001+999999999GF100991001001999999001001MA1999999098431MD1810071+9999REMSYN060AAXX  25031 13389 32998 00000 10142 20118 39843 40117 58007;EQDQ01  00002PRCP99
0226133890999992000062506004+42980+021950FM-12+023299999V0209999C000012200019N0200001N1+02021+01251101101ADDAA199000091GA1001+999999999GF100991001001999999001001IA1019IA2999+01309KA1120N+01421MA1999999098421MD1610011+9999REMSYN082AAXX  25061 13389 32998 00000 10202 20125 39842 40110 56001 333 20142 30013 55108;EQDQ01  00002PRCP99
0163133890999992000062509004+42980+021950FM-12+023299999V0200701N001012200019N0200001N1+02871+01091100931ADDAA199000091GF101991011011012501001001MA1999999098331MD1810091+9999REMSYN066AAXX  25091 13389 32698 10701 10287 20109 39833 40093 58009 81100;EQDQ01  00002PRCP99
0163133890999992000062512004+42980+021950FM-12+023299999V0202201N003012200019N0200001N1+03321+01081100711ADDAA199000091GF102991021021012501001001MA1999999098151MD1710181+9999REMSYN066AAXX  25121 13389 32698 22203 10332 20108 39815 40071 57018 82200;EQDQ01  00002PRCP99
0163133890999992000062515004+42980+021950FM-12+023299999V0202301N004012200019N0200001N1+03441+01001100601ADDAA199000091GF101991011011012501001001MA1999999098051MD1710101+9999REMSYN066AAXX  25151 13389 32698 12304 10344 20100 39805 40060 57010 81100;EQDQ01  00002PRCP99
0186133890999992000062518004+42980+021950FM-12+023299999V0202501N003012200019N0200001N1+03021+00761100631ADDAA199000091GF101991011011012501001001KA1999M+03441MA1999999098051MD1510001+9999REMSYN076AAXX  25181 13389 32698 12503 10302 20076 39805 40063 55000 81100 333 10344;EQDQ01  00002PRCP99
0183133890999992000062521004+42980+021950FM-12+023299999V0203601N006012200019N0200001N1+02261+01141101111ADDAA199000091GA1001+999999999GF100991001001999999001001MA1999999098461MD1210411+9999REMSYN070AAXX  25211 13389 32998 03606 10226 20114 39846 40111 52041 333 91113;EQDQ01  00002PRCP99
0163133890999992000062600004+42980+021950FM-12+023299999V0203401N004010120019N0200001N1+01861+01151101401ADDAA199000091GF108991081051012501999999MA1999999098701MD1210251+9999REMSYN066AAXX  26001 13389 32698 83404 10186 20115 39870 40140 52025 885//;EQDQ01  00002PRCP99
0163133890999992000062603004+42980+021950FM-12+023299999V0203601N005010150019N0200001N1+01681+01201101501ADDAA199000091GF108991081081012501999999MA1999999098781MD1210081+9999REMSYN066AAXX  26031 13389 32698 83605 10168 20120 39878 40150 52008 888//;EQDQ01  00002PRCP99
0216133890999992000062606004+42980+021950FM-12+023299999V0200201N005010150019N0100001N1+01601+01031101611ADDAA199000091GF108991081081012501999999IA1019IA2999+01609KA1120N+01601MA1999999098881MD1210101+9999REMSYN088AAXX  26061 13389 32697 80205 10160 20103 39888 40161 52010 888// 333 20160 30016 55139;EQDQ01  00002PRCP99
0163133890999992000062609004+42980+021950FM-12+023299999V0203601N004010150019N0200001N1+01851+00971101571ADDAA199000091GF108991081081012501999999MA1999999098861MD1810021+9999REMSYN066AAXX  26091 13389 32698 83604 10185 20097 39886 40157 58002 888//;EQDQ01  00002PRCP99
0163133890999992000062612004+42980+021950FM-12+023299999V0203201N004010150019N0200001N1+01911+00771101561ADDAA199000091GF108991081081012501999999MA1999999098851MD1610011+9999REMSYN066AAXX  26121 13389 32698 83204 10191 20077 39885 40156 56001 888//;EQDQ01  00002PRCP99
0172133890999992000062615004+42980+021950FM-12+023299999V0202201N001010150019N0100001N1+01461+01211101651ADDAA199000021AY161031AY221031GF108991081081012501999999MA1999999098911MD1010061+9999MW1611REMSYN072AAXX  26151 13389 31697 82201 10146 20121 39891 40165 50006 76162 888//;
0201133890999992000062618004+42980+021950FM-12+023299999V0202001N002010360019N0200001N1+01981+01141101671ADDAA112003091AY111061AY261061GF105991031081012501031001KA1999M+01981MA1999999098931MD1310021+9999MW1011REMSYN088AAXX  26181 13389 11698 52002 10198 20114 39893 40167 53002 60032 70116 83830 333 10198;
0144133890999992000062700004+42980+021950FM-12+023299999V0209999C000012200019N0200001N1+01121+00941101801ADDAA199000021GF101991011001999999031001MA1999999099041MD1410001+9999REMSYN066AAXX  27001 13389 32998 10000 10112 20094 39904 40180 54000 81030;
0179133890999992000062703004+42980+021950FM-12+023299999V0209999C000010120019N0200001N1+01101+00791101731ADDAA199000021GF108991081051012501999999MA1999999999999MD1410001+9999REMSYN066AAXX  27031 13389 32698 80000 10110 20079 39661 40173 54000 885//;EQDQ01+096613APOSP Q02 096613APOSP 
0232133890999992000062706004+42980+021950FM-12+023299999V0209999C000012200019N0200001N1+01461+01171101941ADDAA199000091GF101991011011012501001001IA1099IA2999+00709KA1120N+00951MA1999999099162MD1310121+9999REMSYN088AAXX  27061 13389 32698 10000 10146 20117 39916 40194 53012 81100 333 20095 31007 55004;EQDQ01+099163APOSP Q02  00002PRCP99
0163133890999992000062709004+42980+021950FM-12+023299999V0203401N004012200019N0200001N1+02001+00681101811ADDAA199000091GF103991031021012501001001MA1999999099111MD1810051+9999REMSYN066AAXX  27091 13389 32698 33404 10200 20068 39911 40181 58005 83200;EQDQ01  00002PRCP99
0163133890999992000062712004+42980+021950FM-12+023299999V0203501N006012200019N0200001N1+02301+00381101641ADDAA199000091GF102991021021012501001001MA1999999098971MD1710141+9999REMSYN066AAXX  27121 13389 32698 23506 10230 20038 39897 40164 57014 82200;EQDQ01  00002PRCP99
0163133890999992000062715004+42980+021950FM-12+023299999V0203201N005012200019N0200001N1+02321+00121101551ADDAA199000091GF101991011021012501001001MA1999999098881MD1610091+9999REMSYN066AAXX  27151 13389 32698 13205 10232 20012 39888 40155 56009 81200;EQDQ01  00002PRCP99
0186133890999992000062718004+42980+021950FM-12+023299999V0203601N003012200019N0200001N1+02041+00091101691ADDAA199000091GF101991011001999999031001KA1999M+02401MA1999999098991MD1310111+9999REMSYN076AAXX  27181 13389 32998 13603 10204 20009 39899 40169 53011 81030 333 10240;EQDQ01  00002PRCP99
0173133890999992000062800004+42980+021950FM-12+023299999V0209999C000012200019N0200001N1+00831+00511101921ADDAA199000091GA1001+999999999GF100991001001999999001001MA1999999099111MD1410001+9999REMSYN060AAXX  28001 13389 32998 00000 10083 20051 39911 40192 54000;EQDQ01  00002PRCP99
0173133890999992000062803004+42980+021950FM-12+023299999V0209999C000012200019N0200001N1+00601+00451101961ADDAA199000091GA1001+999999999GF100991001001999999001001MA1999999099131MD1310021+9999REMSYN060AAXX  28031 13389 32998 00000 10060 20045 39913 40196 53002;EQDQ01  00002PRCP99
0186133890999992000062806004+42980+021950FM-12+023299999V0200601N001012200019N0200001N1+01281+99999999999ADDAA199000091GF101991999999999999999999IA1019IA2999+00209KA1120N+00551REMSYN087AAXX  28061 13389 32998 10601 10128 2004 39916 40193 51003 80001 333 20055 30002 55143;EQDQ01  00002PRCP99
0173133890999992000062809004+42980+021950FM-12+023299999V0202301N001012200019N0200001N1+02221+00381101681ADDAA199000091GA1001+999999999GF100991001001999999001001MA1999999099001MD1710161+9999REMSYN060AAXX  28091 13389 32998 02301 10222 20038 39900 40168 57016;EQDQ01  00002PRCP99
0173133890999992000062812004+42980+021950FM-12+023299999V0201001N002012200019N0200001N1+02541+00451101431ADDAA199000091GA1001+999999999GF100991001001999999001001MA1999999098491MD1710211+9999REMSYN060AAXX  28121 13389 32998 01002 10254 20045 39849 40143 57021;EQDQ01  00002PRCP99
0173133890999992000062815004+42980+021950FM-12+023299999V0203101N002012200019N0200001N1+02721+00511101251ADDAA199000091GA1001+999999999GF100991001001999999001001MA1999999098631MD1710161+9999REMSYN060AAXX  28151 13389 32998 03102 10272 20051 39863 40125 57016;EQDQ01  00002PRCP99
0186133890999992000062818004+42980+021950FM-12+023299999V0209999C000012200019N0200001N1+02341+00331101161ADDAA199000091GF102991001001999999001011KA1999M+02771MA1999999098511MD1710121+9999REMSYN076AAXX  28181 13389 32998 20000 10234 20033 39851 40116 57012 80001 333 10277;EQDQ01  00002PRCP99
0173133890999992000062821004+42980+021950FM-12+023299999V0200701N001012200019N0200001N1+01481+00851101331ADDAA199000091GA1001+999999999GF100991001001999999001001MA1999999098601MD1110091+9999REMSYN060AAXX  28211 13389 32998 00701 10148 20085 39860 40133 51009;EQDQ01  00002PRCP99
0173133890999992000062900004+42980+021950FM-12+023299999V0202001N001012200019N0200001N1+01141+00981101311ADDAA199000091GA1001+999999999GF100991001001999999001001MA1999999098541MD1810061+9999REMSYN060AAXX  29001 13389 32998 02001 10114 20098 39854 40131 58006;EQDQ01  00002PRCP99
0163133890999992000062903004+42980+021950FM-12+023299999V0209999C000012200019N0200001N1+00941+00771101281ADDAA199000091GF102991021001999999031001MA1999999098491MD1810051+9999REMSYN066AAXX  29031 13389 32998 20000 10094 20077 39849 40128 58005 82030;EQDQ01  00002PRCP99
0216133890999992000062906004+42980+021950FM-12+023299999V0209999C000010360019N0200001N1+01601+00761101251ADDAA199000091GF105991031011012501031011IA1019IA2999+00609KA1120N+00921MA1999999098531MD1110041+9999REMSYN088AAXX  29061 13389 32698 50000 10160 20076 39853 40125 51004 83131 333 20092 30006 55142;EQDQ01  00002PRCP99
0163133890999992000062909004+42980+021950FM-12+023299999V0203401N002019999999N0200001N1+02381+00661101181ADDAA199000091GF106991021001999999031061MA1999999098531MD1410001+9999REMSYN066AAXX  29091 13389 32998 63402 10238 20066 39853 40118 54000 82036;EQDQ01  00002PRCP99
0163133890999992000062912004+42980+021950FM-12+023299999V0200101N004010360019N0200001N1+02341+00681101181ADDAA199000091GF108991021081012501071999MA1999999098531MD1410001+9999REMSYN066AAXX  29121 13389 32698 80104 10234 20068 39853 40118 54000 8287/;EQDQ01  00002PRCP99
0163133890999992000062915004+42980+021950FM-12+023299999V0203101N002010360019N0200001N1+01981+01351101281ADDAA199000091GF108991041081012501071999MA1999999098601MD1310071+9999REMSYN066AAXX  29151 13389 32698 83102 10198 20135 39860 40128 53007 8487/;EQDQ01  00002PRCP99
0201133890999992000062918004+42980+021950FM-12+023299999V0202901N001010150019N0100001N1+01741+01341101401ADDAA112001091AY161061AY221061GF108991051081012501021999KA1999M+02491MA1999999098681MD1210081+9999MW1611REMSYN088AAXX  29181 13389 11697 82901 10174 20134 39868 40140 52008 60012 76162 8582/ 333 10249;
0172133890999992000062921004+42980+021950FM-12+023299999V0203301N002010120019N0100001N1+01521+01341101541ADDAA199000021AY161031AY261031GF108991081001012501021999MA1999999098801MD1210121+9999MW1611REMSYN072AAXX  29211 13389 31697 83302 10152 20134 39880 40154 52012 76166 8802/;
0178133890999992000063000004+42980+021950FM-12+023299999V0202001N002010120019N0100001N1+01521+01351101571ADDAA106002091AY121061AY261061GF108991081051012501999999MA1999999098841MD1110041+9999MW1021REMSYN078AAXX  30001 13389 11697 82002 10152 20135 39884 40157 51004 60021 70226 885//;
0203133890999992000063006004+42980+021950FM-12+023299999V0203001N003010120019N0100001N1+01621+01321101651ADDAA112002091GF108991081051012501999999IA1099IA2999+01509KA1120N+01521MA1999999098921MD1310121+9999REMSYN094AAXX  30061 13389 12697 83003 10162 20132 39892 40165 53012 60022 885// 333 20152 31015 55037;
0144133890999992000063009004+42980+021950FM-12+023299999V0203301N003010150019N0100001N1+02101+01151101621ADDAA199000021GF107991071081012501001001MA1999999098941MD1110021+9999REMSYN066AAXX  30091 13389 32697 73303 10210 20115 39894 40162 51002 87800;
0163133890999992000063012004+42980+021950FM-12+023299999V0200201N003012200019N0200001N1+02421+00831101561ADDAA199000091GF104991041021012501001001MA1999999098901MD1810041+9999REMSYN066AAXX  30121 13389 32698 40203 10242 20083 39890 40156 58004 84200;EQDQ01  00002PRCP99
0163133890999992000063015004+42980+021950FM-12+023299999V0200201N002012200019N0200001N1+02601+00641101441ADDAA199000091GF105991031021012501001011MA1999999098801MD1710101+9999REMSYN066AAXX  30151 13389 32698 50202 10260 20064 39880 40144 57010 83201;EQDQ01  00002PRCP99
0196133890999992000063018004+42980+021950FM-12+023299999V0209999C000012200019N0200001N1+02271+00701101471ADDAA199000091GA1001+999999999GF100991001001999999001001KA1999M+02611MA1999999098811MD1310011+9999REMSYN070AAXX  30181 13389 32998 00000 10227 20070 39881 40147 53001 333 10261;EQDQ01  00002PRCP99
0173133890999992000063021004+42980+021950FM-12+023299999V0202001N001012200019N0200001N1+01441+01081101711ADDAA199000091GA1001+999999999GF100991001001999999001001MA1999999098961MD1210151+9999REMSYN060AAXX  30211 13389 32998 02001 10144 20108 39896 40171 52015;EQDQ01  00002PRCP99
0173133890999992000070100004+42980+021950FM-12+023299999V0209999C000012200019N0200001N1+01081+00901101771ADDAA199000091GA1001+999999999GF100991001001999999001001MA1999999098991MD1110031+9999REMSYN060AAXX  01001 13389 32998 00000 10108 20090 39899 40177 51003;EQDQ01  00002PRCP99
0173133890999992000070103004+42980+021950FM-12+023299999V0202001N001012200019N0200001N1+00861+00721101851ADDAA199000091GA1001+999999999GF100991001001999999001001MA1999999099051MD1310061+9999REMSYN060AAXX  01031 13389 32998 02001 10086 20072 39905 40185 53006;EQDQ01  00002PRCP99
0226133890999992000070106004+42980+021950FM-12+023299999V0209999C000012200019N0200001N1+01521+00971101861ADDAA199000091GA1001+999999999GF100991001001999999001001IA1019IA2999+00609KA1120N+00851MA1999999099111MD1210061+9999REMSYN082AAXX  01061 13389 32998 00000 10152 20097 39911 40186 52006 333 20085 30006 55096;EQDQ01  00002PRCP99
0163133890999992000070109004+42980+021950FM-12+023299999V0202901N001012200019N0200001N1+02441+00661101751ADDAA199000091GF101991011011012501001001MA1999999099091MD1810021+9999REMSYN066AAXX  01091 13389 32698 12901 10244 20066 39909 40175 58002 81100;EQDQ01  00002PRCP99
0163133890999992000070112004+42980+021950FM-12+023299999V0201601N002012200019N0200001N1+02591+00601101571ADDAA199000091GF101991011021012501001001MA1999999098961MD1710131+9999REMSYN066AAXX  01121 13389 32698 11602 10259 20060 39896 40157 57013 81200;EQDQ01  00002PRCP99
0163133890999992000070115004+42980+021950FM-12+023299999V0200201N002012200019N0200001N1+03021+00581101471ADDAA199000091GF101991011021012501001001MA1999999098871MD1710091+9999REMSYN066AAXX  01151 13389 32698 10202 10302 20058 39887 40147 57009 81200;EQDQ01  00002PRCP99
0196133890999992000070118004+42980+021950FM-12+023299999V0209999C000012200019N0200001N1+02661+00661101481ADDAA199000091GA1001+999999999GF100991001001999999001001KA1999M+03051MA1999999098851MD1610021+9999REMSYN070AAXX  01181 13389 32998 00000 10266 20066 39885 40148 56002 333 10305;EQDQ01  00002PRCP99
0173133890999992000070121004+42980+021950FM-12+023299999V0200901N002012200019N0200001N1+01921+00791101691ADDAA199000091GA1001+999999999GF100991001001999999001001MA1999999098991MD1310141+9999REMSYN060AAXX  01211 13389 32998 00902 10192 20079 39899 40169 53014;EQDQ01  00002PRCP99
0173133890999992000070200004+42980+021950FM-12+023299999V0202101N002012200019N0200001N1+01461+01081101751ADDAA199000091GA1001+999999999GF100991001001999999001001MA1999999099041MD1110051+9999REMSYN060AAXX  02001 13389 32998 02102 10146 20108 39904 40175 51005;EQDQ01  00002PRCP99
0163133890999992000070203004+42980+021950FM-12+023299999V0209999C000012200019N0200001N1+01251+01021101831ADDAA199000091GF102991011011012501031001MA1999999099061MD1310021+9999REMSYN066AAXX  02031 13389 32698 20000 10125 20102 39906 40183 53002 81130;EQDQ01  00002PRCP99
0216133890999992000070206004+42980+021950FM-12+023299999V0209999C000012200019N0200001N1+01911+00921101851ADDAA199000091GF101991011011012501001001IA1019IA2999+01009KA1120N+01251MA1999999099151MD1210091+9999REMSYN088AAXX  02061 13389 32698 10000 10191 20092 39915 40185 52009 81100 333 20125 30010 55140;EQDQ01  00002PRCP99
0173133890999992000070209004+42980+021950FM-12+023299999V0201701N003012200019N0200001N1+02921+00921101531ADDAA199000091GA1001+999999999GF100991001001999999001001MA1999999099111MD1810041+9999REMSYN060AAXX  02091 13389 32998 01703 10292 20092 39911 40153 58004;EQDQ01  00002PRCP99
0163133890999992000070212004+42980+021950FM-12+023299999V0202201N001012200019N0200001N1+03301+00901101521ADDAA199000091GF101991011021012501001001MA1999999098971MD1710151+9999REMSYN066AAXX  02121 13389 32698 12201 10330 20090 39897 40152 57015 81200;EQDQ01  00002PRCP99
0163133890999992000070215004+42980+021950FM-12+023299999V0202101N002012200019N0200001N1+03471+00881101341ADDAA199000091GF101991011021012501001001MA1999999098781MD1710161+9999REMSYN066AAXX  02151 13389 32698 12102 10347 20088 39878 40134 57016 81200;EQDQ01  00002PRCP99
0186133890999992000070218004+42980+021950FM-12+023299999V0202401N001012200019N0200001N1+02911+01021101371ADDAA199000091GF101991011001999999031001KA1999M+03491MA1999999098761MD1510021+9999REMSYN076AAXX  02181 13389 32998 12401 10291 20102 39876 40137 55002 81030 333 10349;EQDQ01  00002PRCP99
0173133890999992000070221004+42980+021950FM-12+023299999V0209999C000012200019N0200001N1+02061+01201101551ADDAA199000091GA1001+999999999GF100991001001999999001001MA1999999098851MD1210101+9999REMSYN060AAXX  02211 13389 32998 00000 10206 20120 39885 40155 52010;EQDQ01  00002PRCP99
0173133890999992000070300004+42980+021950FM-12+023299999V0209999C000012200019N0200001N1+01761+01351101601ADDAA199000091GA1001+999999999GF100991001001999999001001MA1999999098901MD1110051+9999REMSYN060AAXX  03001 13389 32998 00000 10176 20135 39890 40160 51005;EQDQ01  00002PRCP99
0173133890999992000070303004+42980+021950FM-12+023299999V0209999C000012200019N0200001N1+01531+01241101671ADDAA199000091GA1001+999999999GF100991001001999999001001MA1999999098931MD1310031+9999REMSYN060AAXX  03031 13389 32998 00000 10153 20124 39893 40167 53003;EQDQ01  00002PRCP99
0226133890999992000070306004+42980+021950FM-12+023299999V0209999C000012200019N0200001N1+02141+01171101671ADDAA199000091GA1001+999999999GF100991001001999999001001IA1019IA2999+01209KA1120N+01401MA1999999098981MD1210051+9999REMSYN082AAXX  03061 13389 32998 00000 10214 20117 39898 40167 52005 333 20140 30012 55140;EQDQ01  00002PRCP99
0173133890999992000070309004+42980+021950FM-12+023299999V0202201N002012200019N0200001N1+03091+01111101481ADDAA199000091GA1001+999999999GF100991001001999999001001MA1999999098891MD1810091+9999REMSYN060AAXX  03091 13389 32998 02202 10309 20111 39889 40148 58009;EQDQ01  00002PRCP99
0173133890999992000070312004+42980+021950FM-12+023299999V0201401N001012200019N0200001N1+03521+00981101311ADDAA199000091GA1001+999999999GF100991001001999999001001MA1999999098751MD1710141+9999REMSYN060AAXX  03121 13389 32998 01401 10352 20098 39875 40131 57014;EQDQ01  00002PRCP99
0173133890999992000070315004+42980+021950FM-12+023299999V0201601N003012200019N0200001N1+03651+01021101121ADDAA199000091GA1001+999999999GF100991001001999999001001MA1999999098581MD1710171+9999REMSYN060AAXX  03151 13389 32998 01603 10365 20102 39858 40112 57017;EQDQ01  00002PRCP99
0196133890999992000070318004+42980+021950FM-12+023299999V0202001N001012200019N0200001N1+03181+01281101121ADDAA199000091GA1001+999999999GF100991001001999999001001KA1999M+03701MA1999999098541MD1610041+9999REMSYN070AAXX  03181 13389 32998 02001 10318 20128 39854 40112 56004 333 10370;EQDQ01  00002PRCP99
0173133890999992000070400004+42980+021950FM-12+023299999V0209999C000012200019N0200001N1+01881+01471101371ADDAA199000091GA1001+999999999GF100991001001999999001001MA1999999098681MD1110041+9999REMSYN060AAXX  04001 13389 32998 00000 10188 20147 39868 40137 51004;EQDQ01  00002PRCP99
0226133890999992000070406004+42980+021950FM-12+023299999V0209999C000012200019N0200001N1+02281+01381101371ADDAA199000091GA1001+999999999GF100991001001999999001001IA1019IA2999+01309KA1120N+01601MA1999999098721MD1110041+9999REMSYN082AAXX  04061 13389 32998 00000 10228 20138 39872 40137 51004 333 20160 30013 55138;EQDQ01  00002PRCP99
0173133890999992000070409004+42980+021950FM-12+023299999V0201201N001012200019N0200001N1+03461+01181101171ADDAA199000091GA1001+999999999GF100991001001999999001001MA1999999098621MD1810101+9999REMSYN060AAXX  04091 13389 32998 01201 10346 20118 39862 40117 58010;EQDQ01  00002PRCP99
0173133890999992000070412004+42980+021950FM-12+023299999V0202001N002012200019N0200001N1+03941+01141100971ADDAA199000091GA1001+999999999GF100991001001999999001001MA1999999098451MD1710171+9999REMSYN060AAXX  04121 13389 32998 02002 10394 20114 39845 40097 57017;EQDQ01  00002PRCP99
0173133890999992000070415004+42980+021950FM-12+023299999V0202301N003012200019N0200001N1+04141+01051100761ADDAA199000091GA1001+999999999GF100991001001999999001001MA1999999098261MD1710191+9999REMSYN060AAXX  04151 13389 32998 02303 10414 20105 39826 40076 57019;EQDQ01  00002PRCP99
0196133890999992000070418004+42980+021950FM-12+023299999V0202101N002012200019N0200001N1+03361+01141100841ADDAA199000091GA1001+999999999GF100991001001999999001001KA1999M+04141MA1999999098291MD1310031+9999REMSYN070AAXX  04181 13389 32998 02102 10336 20114 39829 40084 53003 333 10414;EQDQ01  00002PRCP99
0173133890999992000070500004+42980+021950FM-12+023299999V0202001N001012200019N0200001N1+02281+00791101181ADDAA199000091GA1001+999999999GF100991001001999999001001MA1999999098531MD1210061+9999REMSYN060AAXX  05001 13389 32998 02001 10228 20079 39853 40118 52006;EQDQ01  00002PRCP99
0173133890999992000070503004+42980+021950FM-12+023299999V0209999C000012200019N0200001N1+01861+01021101201ADDAA199000091GA1001+999999999GF100991001001999999001001MA1999999098511MD1810021+9999REMSYN060AAXX  05031 13389 32998 00000 10186 20102 39851 40120 58002;EQDQ01  00002PRCP99
0226133890999992000070506004+42980+021950FM-12+023299999V0202001N001012200019N0200001N1+02391+01181101201ADDAA199000091GA1001+999999999GF100991001001999999001001IA1019IA2999+01409KA1120N+01811MA1999999098551MD1310041+9999REMSYN082AAXX  05061 13389 32998 02001 10239 20118 39855 40120 53004 333 20181 30014 55136;EQDQ01  00002PRCP99
0173133890999992000070509004+42980+021950FM-12+023299999V0201701N003012200019N0200001N1+03741+01271100921ADDAA199000091GA1001+999999999GF100991001001999999001001MA1999999098391MD1710161+9999REMSYN060AAXX  05091 13389 32998 01703 10374 20127 39839 40092 57016;EQDQ01  00002PRCP99
0173133890999992000070512004+42980+021950FM-12+023299999V0202501N005012200019N0200001N1+04181+01341100761ADDAA199000091GA1001+999999999GF100991001001999999001001MA1999999098271MD1710121+9999REMSYN060AAXX  05121 13389 32998 02505 10418 20134 39827 40076 57012;EQDQ01  00002PRCP99
0173133890999992000070515004+42980+021950FM-12+023299999V0203301N007012200019N0200001N1+04101+01171100691ADDAA199000091GA1001+999999999GF100991001001999999001001MA1999999098201MD1610071+9999REMSYN060AAXX  05151 13389 32998 03307 10410 20117 39820 40069 56007;EQDQ01  00002PRCP99
0196133890999992000070518004+42980+021950FM-12+023299999V0202501N004012200019N0200001N1+03521+00961100921ADDAA199000091GA1001+999999999GF100991001001999999001001KA1999M+04201MA1999999098371MD1310171+9999REMSYN070AAXX  05181 13389 32998 02504 10352 20096 39837 40092 53017 333 10420;EQDQ01  00002PRCP99
0173133890999992000070521004+42980+021950FM-12+023299999V0209999C000012200019N0200001N1+02501+01151101321ADDAA199000091GA1001+999999999GF100991001001999999001001MA1999999098641MD1210311+9999REMSYN060AAXX  05211 13389 32998 00000 10250 20115 39864 40132 52031;EQDQ01  00002PRCP99
0173133890999992000070600004+42980+021950FM-12+023299999V0201401N001012200019N0200001N1+02001+01231101511ADDAA199000091GA1001+999999999GF100991001001999999001001MA1999999098821MD1210141+9999REMSYN060AAXX  06001 13389 32998 01401 10200 20123 39882 40151 52014;EQDQ01  00002PRCP99
0173133890999992000070603004+42980+021950FM-12+023299999V0209999C000012200019N0200001N1+01641+01271101681ADDAA199000091GA1001+999999999GF100991001001999999001001MA1999999098951MD1210131+9999REMSYN060AAXX  06031 13389 32998 00000 10164 20127 39895 40168 52013;EQDQ01  00002PRCP99
0226133890999992000070606004+42980+021950FM-12+023299999V0202101N001012200019N0200001N1+02251+01231101711ADDAA199000091GA1001+999999999GF100991001001999999001001IA1019IA2999+01209KA1120N+01601MA1999999099031MD1110081+9999REMSYN082AAXX  06061 13389 32998 02101 10225 20123 39903 40171 51008 333 20160 30012 55132;EQDQ01  00002PRCP99
0173133890999992000070609004+42980+021950FM-12+023299999V0203201N003012200019N0200001N1+02981+01121101561ADDAA199000091GA1001+999999999GF100991001001999999001001MA1999999098951MD1810081+9999REMSYN060AAXX  06091 13389 32998 03203 10298 20112 39895 40156 58008;EQDQ01  00002PRCP99
0173133890999992000070612004+42980+021950FM-12+023299999V0203601N003012200019N0200001N1+03281+01121101391ADDAA199000091GA1001+999999999GF100991001001999999001001MA1999999098811MD1710141+9999REMSYN060AAXX  06121 13389 32998 03603 10328 20112 39881 40139 57014;EQDQ01  00002PRCP99
0173133890999992000070615004+42980+021950FM-12+023299999V0203101N004012200019N0200001N1+03321+01031101301ADDAA199000091GA1001+999999999GF100991001001999999001001MA1999999098731MD1610081+9999REMSYN060AAXX  06151 13389 32998 03104 10332 20103 39873 40130 56008;EQDQ01  00002PRCP99
0196133890999992000070618004+42980+021950FM-12+023299999V0203401N004012200019N0200001N1+02921+00861101381ADDAA199000091GA1001+999999999GF100991001001999999001001KA1999M+03381MA1999999098771MD1610041+9999REMSYN070AAXX  06181 13389 32998 03404 10292 20086 39877 40138 56004 333 10338;EQDQ01  00002PRCP99
0173133890999992000070621004+42980+021950FM-12+023299999V0202501N002012200019N0200001N1+02461+00791101621ADDAA199000091GA1001+999999999GF100991001001999999001001MA1999999098971MD1210201+9999REMSYN060AAXX  06211 13389 32998 02502 10246 20079 39897 40162 52020;EQDQ01  00002PRCP99
0173133890999992000070700004+42980+021950FM-12+023299999V0201401N001012200019N0200001N1+01801+01061101761ADDAA199000091GA1001+999999999GF100991001001999999001001MA1999999099051MD1110081+9999REMSYN060AAXX  07001 13389 32998 01401 10180 20106 39905 40176 51008;EQDQ01  00002PRCP99
0173133890999992000070703004+42980+021950FM-12+023299999V0201901N001012200019N0200001N1+01401+01061101851ADDAA199000091GA1001+999999999GF100991001001999999001001MA1999999099101MD1310051+9999REMSYN060AAXX  07031 13389 32998 01901 10140 20106 39910 40185 53005;EQDQ01  00002PRCP99
0173133890999992000070709004+42980+021950FM-12+023299999V0203601N001012200019N0200001N1+02741+00981101571ADDAA199000091GA1001+999999999GF100991001001999999001001MA1999999098951MD1710141+9999REMSYN060AAXX  07091 13389 32998 03601 10274 20098 39895 40157 57014;EQDQ01  00002PRCP99
0173133890999992000070712004+42980+021950FM-12+023299999V0201001N002012200019N0200001N1+03161+00871101321ADDAA199000091GA1001+999999999GF100991001001999999001001MA1999999098741MD1710211+9999REMSYN060AAXX  07121 13389 32998 01002 10316 20087 39874 40132 57021;EQDQ01  00002PRCP99
0173133890999992000070715004+42980+021950FM-12+023299999V0200201N002012200019N0200001N1+03381+00941101091ADDAA199000091GA1001+999999999GF100991001001999999001001MA1999999098531MD1710211+9999REMSYN060AAXX  07151 13389 32998 00202 10338 20094 39853 40109 57021;EQDQ01  00002PRCP99
0196133890999992000070718004+42980+021950FM-12+023299999V0209999C000012200019N0200001N1+02991+00951100941ADDAA199000091GA1001+999999999GF100991001001999999001001KA1999M+03381MA1999999098361MD1710181+9999REMSYN070AAXX  07181 13389 32998 00000 10299 20095 39836 40094 57018 333 10338;EQDQ01  00002PRCP99
0173133890999992000070721004+42980+021950FM-12+023299999V0200701N002012200019N0200001N1+02331+00811100961ADDAA199000091GA1001+999999999GF100991001001999999001001MA1999999098311MD1710041+9999REMSYN060AAXX  07211 13389 32998 00702 10233 20081 39831 40096 57004;EQDQ01  00002PRCP99
0173133890999992000070800004+42980+021950FM-12+023299999V0200601N001012200019N0200001N1+01941+01031100911ADDAA199000091GA1001+999999999GF100991001001999999001001MA1999999098231MD1710081+9999REMSYN060AAXX  08001 13389 32998 00601 10194 20103 39823 40091 57008;EQDQ01  00002PRCP99
0163133890999992000070803004+42980+021950FM-12+023299999V0201801N002012200019N0200001N1+01731+01021100861ADDAA199000091GF101991011001999999031001MA1999999098161MD1710071+9999REMSYN066AAXX  08031 13389 32998 11802 10173 20102 39816 40086 57007 81030;EQDQ01  00002PRCP99
0216133890999992000070806004+42980+021950FM-12+023299999V0209999C000012200019N0200001N1+02501+01121100701ADDAA199000091GF101991011001999999031001IA1019IA2999+01309KA1120N+01661MA1999999098071MD1710091+9999REMSYN088AAXX  08061 13389 32998 10000 10250 20112 39807 40070 57009 81030 333 20166 30013 55169;EQDQ01  00002PRCP99
0173133890999992000070809004+42980+021950FM-12+023299999V0201201N003012200019N0200001N1+03421+01211100481ADDAA199000091GA1001+999999999GF100991001001999999001001MA1999999097941MD1710131+9999REMSYN060AAXX  08091 13389 32998 01203 10342 20121 39794 40048 57013;EQDQ01  00002PRCP99
0163133890999992000070812004+42980+021950FM-12+023299999V0202101N006012200019N0200001N1+04001+01231100101ADDAA199000091GF101991011001999999031001MA1999999097651MD1710291+9999REMSYN066AAXX  08121 13389 32998 12106 10400 20123 39765 40010 57029 81030;EQDQ01  00002PRCP99
0163133890999992000070815004+42980+021950FM-12+023299999V0202201N006012200019N0200001N1+04001+00891100041ADDAA199000091GF101991011021012501001001MA1999999097551MD1610101+9999REMSYN066AAXX  08151 13389 32698 12206 10400 20089 39755 40004 56010 81200;EQDQ01  00002PRCP99
0196133890999992000070818004+42980+021950FM-12+023299999V0202201N002012200019N0100001N1+03271+00661100081ADDAA199000091GA1001+999999999GF100991001001999999001001KA1999M+04081MA1999999097541MD1610011+9999REMSYN070AAXX  08181 13389 32997 02202 10327 20066 39754 40008 56001 333 10408;EQDQ01  00002PRCP99
0173133890999992000070821004+42980+021950FM-12+023299999V0203001N001012200019N0100001N1+02741+00611100161ADDAA199000091GA1001+999999999GF100991001001999999001001MA1999999097571MD1310031+9999REMSYN060AAXX  08211 13389 32997 03001 10274 20061 39757 40016 53003;EQDQ01  00002PRCP99
0173133890999992000070900004+42980+021950FM-12+023299999V0200901N002012200019N0100001N1+02161+00581100211ADDAA199000091GA1001+999999999GF100991001001999999001001MA1999999097571MD1410001+9999REMSYN060AAXX  09001 13389 32997 00902 10216 20058 39757 40021 54000;EQDQ01  00002PRCP99
0173133890999992000070903004+42980+021950FM-12+023299999V0209999C000012200019N0100001N1+01851+00971100211ADDAA199000091GA1001+999999999GF100991001001999999001001MA1999999097541MD1810031+9999REMSYN060AAXX  09031 13389 32997 00000 10185 20097 39754 40021 58003;EQDQ01  00002PRCP99
0220133890999992000070906004+42980+021950FM-12+023299999V0203301N003012200019N0200001N1+02341+01241999999ADDAA199000091GA1001+999999999GF100991001001999999001001IA1019IA2999+01409KA1120N+01801MA1999999097601MD1310061+9999REMSYN076AAXX  09061 13389 32998 03303 10234 20124 39760 53006 333 20180 30014 55137;EQDQ01  00002PRCP99
0163133890999992000070909004+42980+021950FM-12+023299999V0203301N005012200019N0200001N1+02791+01321100161ADDAA199000091GF101991011021012501001001MA1999999097571MD1810031+9999REMSYN066AAXX  09091 13389 32698 13305 10279 20132 39757 40016 58003 81200;EQDQ01  00002PRCP99
0163133890999992000070912004+42980+021950FM-12+023299999V0203401N010012200019N0100001N1+02511+01251100231ADDAA199000091GF103991021021012501031001MA1999999097621MD1310051+9999REMSYN066AAXX  09121 13389 32697 33410 10251 20125 39762 40023 53005 82230;EQDQ01  00002PRCP99
0179133890999992000070915004+42980+021950FM-12+023299999V0203501N007010150019N0100001N1+01691+01001100861ADDAA199000091GF108991081081012501999999MA1999999098161MD1410002+9999REMSYN066AAXX  09151 13389 32697 83507 10169 20100 39816 40086 52054 888//;EQDQ01+000542APC3  Q02  00002PRCP99
0163133890999992000070921004+42980+021950FM-12+023299999V0202001N001010150019N0200001N1+01331+01231101211ADDAA199000091GF105991051081012501001001MA1999999098461MD1210101+9999REMSYN066AAXX  09211 13389 32698 52001 10133 20123 39846 40121 52010 85800;EQDQ01  00002PRCP99
0173133890999992000071000004+42980+021950FM-12+023299999V0209999C000012200019N0200001N1+01061+00981101211ADDAA199000091GA1001+999999999GF100991001001999999001001MA1999999098451MD1810011+9999REMSYN060AAXX  10001 13389 32998 00000 10106 20098 39845 40121 58001;EQDQ01  00002PRCP99
0173133890999992000071003004+42980+021950FM-12+023299999V0209999C000012200019N0200001N1+00851+00811101241ADDAA199000091GA1001+999999999GF100991001001999999001001MA1999999098451MD1410001+9999REMSYN060AAXX  10031 13389 32998 00000 10085 20081 39845 40124 54000;EQDQ01  00002PRCP99
0163133890999992000071009004+42980+021950FM-12+023299999V0200601N002012200019N0200001N1+02001+00491100991ADDAA199000091GF101991011011012501001001MA1999999098311MD1810141+9999REMSYN066AAXX  10091 13389 32698 10602 10200 20049 39831 40099 58014 81100;EQDQ01  00002PRCP99
0173133890999992000071012004+42980+021950FM-12+023299999V0203401N002012200019N0500001N1+02551+00791100731ADDAA199000091GA1001+999999999GF100991001001999999001001MA1999999098101MD1710211+9999REMSYN060AAXX  10121 13389 32999 03402 10255 20079 39810 40073 57021;EQDQ01  00002PRCP99
0173133890999992000071015004+42980+021950FM-12+023299999V0200701N002012200019N0500001N1+02821+00421100571ADDAA199000091GA1001+999999999GF100991001001999999001001MA1999999097971MD1710131+9999REMSYN060AAXX  10151 13389 32999 00702 10282 20042 39797 40057 57013;EQDQ01  00002PRCP99
0196133890999992000071018004+42980+021950FM-12+023299999V0209999C000012200019N0500001N1+02581+00581100491ADDAA199000091GA1001+999999999GF100991001001999999001001KA1999M+02831MA1999999097881MD1610091+9999REMSYN070AAXX  10181 13389 32999 00000 10258 20058 39788 40049 56009 333 10283;EQDQ01  00002PRCP99
0189133890999992000071021004+42980+021950FM-12+023299999V0202001N002012200019N0200001N1+01701+00971100731ADDAA199000091GA1001+999999999GF100991001001999999001001MA1999999098642MD1310161+9999REMSYN060AAXX  10211 13389 32998 02002 10170 20097 39864 40073 53016;EQDQ01+098643APOSP Q02  00002PRCP99
0189133890999992000071100004+42980+021950FM-12+023299999V0201901N001012200019N0200001N1+01351+00981999999ADDAA199000091GA1001+999999999GF100991001001999999001001MA1999999098091MD1110051+9999REMSYN060AAXX  11001 13389 32998 01901 10135 20098 39809 40012 51005;EQDQ01+100123APOSLPQ02  00002PRCP99
0173133890999992000071103004+42980+021950FM-12+023299999V0201501N001012200019N0200001N1+01151+00921100881ADDAA199000091GA1001+999999999GF100991001001999999001001MA1999999098131MD1310041+9999REMSYN060AAXX  11031 13389 32998 01501 10115 20092 39813 40088 53004;EQDQ01  00002PRCP99
0226133890999992000071106004+42980+021950FM-12+023299999V0200701N001012200019N0200001N1+02031+00701100851ADDAA199000091GA1001+999999999GF100991001001999999001001IA1019IA2999+00909KA1120N+01131MA1999999098181MD1010051+9999REMSYN082AAXX  11061 13389 32998 00701 10203 20070 39818 40085 50005 333 20113 30009 55114;EQDQ01  00002PRCP99
0173133890999992000071109004+42980+021950FM-12+023299999V0201401N002012200019N0200001N1+02901+00701100601ADDAA199000091GA1001+999999999GF100991001001999999001001MA1999999098011MD1710171+9999REMSYN060AAXX  11091 13389 32998 01402 10290 20070 39801 40060 57017;EQDQ01  00002PRCP99
0163133890999992000071112004+42980+021950FM-12+023299999V0202001N004012200019N0200001N1+03351+00741100461ADDAA199000091GF103991011011012501031001MA1999999097921MD1710091+9999REMSYN066AAXX  11121 13389 32698 32004 10335 20074 39792 40046 57009 81130;EQDQ01  00002PRCP99
0163133890999992000071115004+42980+021950FM-12+023299999V0201801N004012200019N0200001N1+03521+00881100291ADDAA199000091GF101991011011012501001001MA1999999097761MD1710161+9999REMSYN066AAXX  11151 13389 32698 11804 10352 20088 39776 40029 57016 81100;EQDQ01  00002PRCP99
0186133890999992000071118004+42980+021950FM-12+023299999V0209999C000012200019N0200001N1+03041+01031100271ADDAA199000091GF101991011011012501001001KA1999M+03561MA1999999097701MD1510061+9999REMSYN076AAXX  11181 13389 32698 10000 10304 20103 39770 40027 55006 81100 333 10356;EQDQ01  00002PRCP99
0173133890999992000071121004+42980+021950FM-12+023299999V0202201N003012200019N0200001N1+02741+00761100481ADDAA199000091GA1001+999999999GF100991001001999999001001MA1999999097881MD1210181+9999REMSYN060AAXX  11211 13389 32998 02203 10274 20076 39788 40048 52018;EQDQ01  00002PRCP99
0173133890999992000071200004+42980+021950FM-12+023299999V0203401N001012200019N0200001N1+02001+00981100571ADDAA199000091GA1001+999999999GF100991001001999999001001MA1999999097901MD1110021+9999REMSYN060AAXX  12001 13389 32998 03401 10200 20098 39790 40057 51002;EQDQ01  00002PRCP99
0173133890999992000071203004+42980+021950FM-12+023299999V0209999C000012200019N0200001N1+01561+01231100771ADDAA199000091GA1001+999999999GF100991001001999999001001MA1999999098061MD1310161+9999REMSYN060AAXX  12031 13389 32998 00000 10156 20123 39806 40077 53016;EQDQ01  00002PRCP99
0216133890999992000071206004+42980+021950FM-12+023299999V0209999C000012200019N0200001N1+02281+01001100741ADDAA199000091GF102991021001999999031001IA1019IA2999+01209KA1120N+01561MA1999999098101MD1310041+9999REMSYN088AAXX  12061 13389 32998 20000 10228 20100 39810 40074 53004 82030 333 20156 30012 55137;EQDQ01  00002PRCP99
0163133890999992000071209004+42980+021950FM-12+023299999V0201501N001012200019N0200001N1+03161+01031100681ADDAA199000091GF101991001001999999001011MA1999999098081MD1810021+9999REMSYN066AAXX  12091 13389 32998 11501 10316 20103 39808 40068 58002 80001;EQDQ01  00002PRCP99
0163133890999992000071212004+42980+021950FM-12+023299999V0202501N004012200019N0200001N1+03551+01001100451ADDAA199000091GF102991011011012501031001MA1999999097921MD1710161+9999REMSYN066AAXX  12121 13389 32698 22504 10355 20100 39792 40045 57016 81130;EQDQ01  00002PRCP99
0163133890999992000071215004+42980+021950FM-12+023299999V0202601N004010150019N0200001N1+03461+01111100331ADDAA199000091GF107991071081012501001001MA1999999097801MD1710121+9999REMSYN066AAXX  12151 13389 32698 72604 10346 20111 39780 40033 57012 87800;EQDQ01  00002PRCP99
0173133890999992000071218004+42980+021950FM-12+023299999V0203401N001010120019N0200001N1+02681+01241100381ADDAA112000791GF107991071091012501001001KA1999M+03601MA1999999097781MD1510021+9999REMSYN082AAXX  12181 13389 11698 73401 10268 20124 39778 40038 55002 69902 87900 333 10360;
0163133890999992000071221004+42980+021950FM-12+023299999V0201301N001010150019N0200001N1+02331+01181100481ADDAA199000091GF107991071081012501001001MA1999999097841MD1110061+9999REMSYN066AAXX  12211 13389 32698 71301 10233 20118 39784 40048 51006 87800;EQDQ01  00002PRCP99
0180133890999992000071300004+42980+021950FM-12+023299999V0202901N003012200019N0200001N1+02081+01111100381ADDAA199000091GF102991999051012501001001MD1710071+9999REMSYN066AAXX  13001 13389 31698 22903 10208 20111 39554 40038 57007 85500;EQDQ01+000052SCOTLCQ02+095543APOSP Q03  00002PRCP99
0172133890999992000071303004+42980+021950FM-12+023299999V0202901N022010150019N0100001N1+01641+01411100481ADDAA199000021AY191031AY261031GF108991081081012501999999MA1999999097791MD1810041+9999MW1211REMSYN072AAXX  13031 13389 31697 82922 10164 20141 39779 40048 58004 72196 888//;
0231133890999992000071306004+42980+021950FM-12+023299999V0203401N002010075019N0040001N1+01491+01441100661ADDAA112019191AY191061AY281061GF108991081091008001999999IA1099IA2999+01409KA1120N+01471MA1999999097951MD1310151+9999MW1911REMSYN100AAXX  13061 13389 11596 83402 10149 20144 39795 40066 53015 60192 79198 889// 333 20147 31014 55103;
0172133890999992000071309004+42980+021950FM-12+023299999V0202901N003010150019N0100001N1+01541+01051100911ADDAA199000021AY191031AY261031GF107991071081012501001001MA1999999098191MD1210241+9999MW1211REMSYN072AAXX  13091 13389 31697 72903 10154 20105 39819 40091 52024 72196 87800;
0178133890999992000071312004+42980+021950FM-12+023299999V0200101N003010150019N0200001N1+01641+00921101011ADDAA106007991AY191061AY261061GF107991071081012501001001MA1999999098301MD1110111+9999MW1021REMSYN078AAXX  13121 13389 11698 70103 10164 20092 39830 40101 51011 60081 70296 87800;
0144133890999992000071315004+42980+021950FM-12+023299999V0202901N003010150019N0200001N1+01881+00721101061ADDAA199000021GF107991071081012501001001MA1999999098371MD1110071+9999REMSYN066AAXX  13151 13389 32698 72903 10188 20072 39837 40106 51007 87800;
0173133890999992000071318004+42980+021950FM-12+023299999V0203601N002010150019N0200001N1+01761+00641101071ADDAA112007991GF106991061081012501001001KA1999M+01961MA1999999098371MD1410001+9999REMSYN082AAXX  13181 13389 12698 63602 10176 20064 39837 40107 54000 60082 86800 333 10196;
0144133890999992000071321004+42980+021950FM-12+023299999V0202301N002010360019N0200001N1+01451+00621101251ADDAA199000021GF107991041081012501031001MA1999999098511MD1210141+9999REMSYN066AAXX  13211 13389 32698 72302 10145 20062 39851 40125 52014 84830;
0173133890999992000071400004+42980+021950FM-12+023299999V0202401N003012200019N0200001N1+01301+00651101261ADDAA199000091GA1001+999999999GF100991001001999999001001MA1999999098511MD1410001+9999REMSYN060AAXX  14001 13389 32998 02403 10130 20065 39851 40126 54000;EQDQ01  00002PRCP99
0163133890999992000071403004+42980+021950FM-12+023299999V0201801N001010150019N0200001N1+01081+00741101281ADDAA199000091GF105991051081012501001001MA1999999098511MD1410001+9999REMSYN066AAXX  14031 13389 32698 51801 10108 20074 39851 40128 54000 85800;EQDQ01  00002PRCP99
0216133890999992000071406004+42980+021950FM-12+023299999V0201801N001012200019N0200001N1+01441+00511101281ADDAA199000091GF101991011011012501001001IA1099IA2999+00709KA1120N+01001MA1999999098541MD1310031+9999REMSYN088AAXX  14061 13389 32698 11801 10144 20051 39854 40128 53003 81100 333 20100 31007 55007;EQDQ01  00002PRCP99
0163133890999992000071409004+42980+021950FM-12+023299999V0203101N002012200019N0200001N1+01981+00301101141ADDAA199000091GF102991021021012501001001MA1999999098461MD1810081+9999REMSYN066AAXX  14091 13389 32698 23102 10198 20030 39846 40114 58008 82200;EQDQ01  00002PRCP99
0163133890999992000071412004+42980+021950FM-12+023299999V0203201N002012200019N0200001N1+02181+00251100851ADDAA199000091GF104991021021012501001011MA1999999098191MD1710271+9999REMSYN066AAXX  14121 13389 32698 43202 10218 20025 39819 40085 57027 82201;EQDQ01  00002PRCP99
0163133890999992000071415004+42980+021950FM-12+023299999V0200501N002012200019N0200001N1+02281+00281100701ADDAA199000091GF103991011021012501001011MA1999999098061MD1710131+9999REMSYN066AAXX  14151 13389 32698 30502 10228 20028 39806 40070 57013 81201;EQDQ01  00002PRCP99
0186133890999992000071418004+42980+021950FM-12+023299999V0200101N001012200019N0200001N1+02141+00421100591ADDAA199000091GF101991011021012501001001KA1999M+02341MA1999999097931MD1610131+9999REMSYN076AAXX  14181 13389 32698 10101 10214 20042 39793 40059 56013 81200 333 10234;EQDQ01  00002PRCP99
0173133890999992000071421004+42980+021950FM-12+023299999V0209999C000012200019N0200001N1+01401+01021100731ADDAA199000091GA1001+999999999GF100991001001999999001001MA1999999098021MD1210081+9999REMSYN060AAXX  14211 13389 32998 00000 10140 20102 39802 40073 52008;EQDQ01  00002PRCP99
0163133890999992000071500004+42980+021950FM-12+023299999V0202001N001012200019N0200001N1+01081+00861100761ADDAA199000091GF102991001001999999001011MA1999999098011MD1410001+9999REMSYN066AAXX  15001 13389 32998 22001 10108 20086 39801 40076 54000 80001;EQDQ01  00002PRCP99
0163133890999992000071503004+42980+021950FM-12+023299999V0209999C000012200019N0200001N1+01021+00831100621ADDAA199000091GF104991021001999999031011MA1999999097861MD1710151+9999REMSYN066AAXX  15031 13389 32998 40000 10102 20083 39786 40062 57015 82031;EQDQ01  00002PRCP99
0163133890999992000071509004+42980+021950FM-12+023299999V0203601N002010360019N0200001N1+01921+00791100461ADDAA199000091GF107991021081012501071001MA1999999097791MD1810081+9999REMSYN066AAXX  15091 13389 32698 73602 10192 20079 39779 40046 58008 82870;EQDQ01  00002PRCP99
0163133890999992000071512004+42980+021950FM-12+023299999V0203501N003010360019N0200001N1+02041+01141100381ADDAA199000091GF108991031051012501071999MA1999999097721MD1710071+9999REMSYN066AAXX  15121 13389 32698 83503 10204 20114 39772 40038 57007 8357/;EQDQ01  00002PRCP99
0172133890999992000071515004+42980+021950FM-12+023299999V0209999C000010360019N0200001N1+01771+01381100381ADDAA199000021AY161031AY261031GF108991031081012501021999MA1999999097701MD1610021+9999MW1611REMSYN072AAXX  15151 13389 31698 80000 10177 20138 39770 40038 56002 76166 8382/;
0201133890999992000071518004+42980+021950FM-12+023299999V0209999C000010150019N0040001N1+01581+01361100411ADDAA112003091AY161061AY261061GF108991081081012501999999KA1999M+02031MA1999999097731MD1310031+9999MW1631REMSYN088AAXX  15181 13389 11696 80000 10158 20136 39773 40041 53003 60032 76366 888// 333 10203;
0178133890999992000071600004+42980+021950FM-12+023299999V0209999C000010150019N0100001N1+01461+01281100471ADDAA106006191AY121061AY261061GF108991081081012501999999MA1999999097761MD1310051+9999MW1021REMSYN078AAXX  16001 13389 11697 80000 10146 20128 39776 40047 53005 60061 70226 888//;
0144133890999992000071603004+42980+021950FM-12+023299999V0201501N001010150019N0200001N1+01351+01201100481ADDAA199000021GF107991051081012501031001MA1999999097761MD1410001+9999REMSYN066AAXX  16031 13389 32698 71501 10135 20120 39776 40048 54000 85830;
0231133890999992000071606004+42980+021950FM-12+023299999V0201101N001010150019N0200001N1+01571+01321100681ADDAA112007191AY161061AY221061GF107991061081012501031001IA1099IA2999+01109KA1120N+01351MA1999999097971MD1310211+9999MW1211REMSYN100AAXX  16061 13389 11698 71101 10157 20132 39797 40068 53021 60072 72162 86830 333 20135 31011 55010;
0144133890999992000071609004+42980+021950FM-12+023299999V0203301N002010150019N0200001N1+01981+01231100721ADDAA199000021GF107991071081012501001001MA1999999098051MD1110081+9999REMSYN066AAXX  16091 13389 32698 73302 10198 20123 39805 40072 51008 87800;
0144133890999992000071612004+42980+021950FM-12+023299999V0201101N002010150019N0200001N1+02271+01051100681ADDAA199000021GF107991071081012501001001MA1999999098041MD1810011+9999REMSYN066AAXX  16121 13389 32698 71102 10227 20105 39804 40068 58001 87800;
0167133890999992000071618004+42980+021950FM-12+023299999V0200501N001010150019N0200001N1+02061+01201100841ADDAA199000021GF105991051081012501001001KA1999M+02491MA1999999098181MD1210091+9999REMSYN076AAXX  16181 13389 32698 50501 10206 20120 39818 40084 52009 85800 333 10249;
0163133890999992000071621004+42980+021950FM-12+023299999V0203201N005010150019N0200001N1+01661+01141101221ADDAA199000091GF105991051081012501001001MA1999999098511MD1210331+9999REMSYN066AAXX  16211 13389 32698 53205 10166 20114 39851 40122 52033 85800;EQDQ01  00002PRCP99
0163133890999992000071700004+42980+021950FM-12+023299999V0203201N003010360019N0200001N1+01501+01061101391ADDAA199000091GF106991021051012501031001MA1999999098661MD1210151+9999REMSYN066AAXX  17001 13389 32698 63203 10150 20106 39866 40139 52015 82530;EQDQ01  00002PRCP99
0163133890999992000071703004+42980+021950FM-12+023299999V0209999C000010150019N0200001N1+01441+01121101561ADDAA199000091GF107991071081012501001001MA1999999098811MD1210151+9999REMSYN066AAXX  17031 13389 32698 70000 10144 20112 39881 40156 52015 87800;EQDQ01  00002PRCP99
0216133890999992000071706004+42980+021950FM-12+023299999V0209999C000010150019N0200001N1+01601+01181101641ADDAA199000091GF107991071081012501001001IA1099IA2999+02209KA1120N+01441MA1999999098911MD1210101+9999REMSYN088AAXX  17061 13389 32698 70000 10160 20118 39891 40164 52010 87800 333 20144 31022 55037;EQDQ01  00002PRCP99
0163133890999992000071709004+42980+021950FM-12+023299999V0200501N002012200019N0200001N1+02161+00921101661ADDAA199000091GF103991031081012501001001MA1999999098951MD1110051+9999REMSYN066AAXX  17091 13389 32698 30502 10216 20092 39895 40166 51005 83800;EQDQ01  00002PRCP99
0163133890999992000071712004+42980+021950FM-12+023299999V0200201N003012200019N0200001N1+02371+00831101481ADDAA199000091GF103991031081012501001001MA1999999098831MD1810121+9999REMSYN066AAXX  17121 13389 32698 30203 10237 20083 39883 40148 58012 83800;EQDQ01  00002PRCP99
0163133890999992000071715004+42980+021950FM-12+023299999V0203201N003012200019N0200001N1+02421+00701101461ADDAA199000091GF104991041081012501001001MA1999999098811MD1610021+9999REMSYN066AAXX  17151 13389 32698 43203 10242 20070 39881 40146 56002 84800;EQDQ01  00002PRCP99
0186133890999992000071718004+42980+021950FM-12+023299999V0203201N002012200019N0200001N1+02221+00721101501ADDAA199000091GF102991021081012501001001KA1999M+02501MA1999999098831MD1310021+9999REMSYN076AAXX  17181 13389 32698 23202 10222 20072 39883 40150 53002 82800 333 10250;EQDQ01  00002PRCP99
0163133890999992000071721004+42980+021950FM-12+023299999V0201801N001010150019N0200001N1+01741+01231101721ADDAA199000091GF106991061081012501001001MA1999999099001MD1210171+9999REMSYN066AAXX  17211 13389 32698 61801 10174 20123 39900 40172 52017 86800;EQDQ01  00002PRCP99
0163133890999992000071809004+42980+021950FM-12+023299999V0200601N001012200019N0200001N1+02131+00851101701ADDAA199000091GF106991011021012501001061MA1999999099021MD1810081+9999REMSYN066AAXX  18091 13389 32698 60601 10213 20085 39902 40170 58008 81206;EQDQ01  00002PRCP99
0163133890999992000071812004+42980+021950FM-12+023299999V0203401N003012200019N0200001N1+02541+00491101441ADDAA199000091GF101991011021012501001001MA1999999098801MD1710211+9999REMSYN066AAXX  18121 13389 32698 13403 10254 20049 39880 40144 57021 81200;EQDQ01  00002PRCP99
0186133890999992000071818004+42980+021950FM-12+023299999V0203401N002012200019N0200001N1+02361+00491101231ADDAA199000091GF103991021001999999031011KA1999M+02691MA1999999098571MD1610041+9999REMSYN076AAXX  18181 13389 32998 33402 10236 20049 39857 40123 56004 82031 333 10269;EQDQ01  00002PRCP99
0163133890999992000071821004+42980+021950FM-12+023299999V0203201N004010150019N0200001N1+01891+00901101391ADDAA199000091GF107991051081012501031001MA1999999098691MD1310121+9999REMSYN066AAXX  18211 13389 32698 73204 10189 20090 39869 40139 53012 85830;EQDQ01  00002PRCP99
0178133890999992000071900004+42980+021950FM-12+023299999V0202701N002010150019N0100001N1+01551+01181101671ADDAA106000791AY161061AY221061GF108991081081012501999999MA1999999098931MD1210241+9999MW1611REMSYN078AAXX  19001 13389 11697 82702 10155 20118 39893 40167 52024 69901 76162 888//;
0172133890999992000071903004+42980+021950FM-12+023299999V0203001N001010150019N0200001N1+01411+01151101581ADDAA199000021AY161031AY221031GF106991051081012501031001MA1999999098831MD1810101+9999MW1021REMSYN072AAXX  19031 13389 31698 63001 10141 20115 39883 40158 58010 70262 85830;
0231133890999992000071906004+42980+021950FM-12+023299999V0209999C000010150019N0200001N1+01491+01181101571ADDAA112000891AY121061AY261061GF107991071081012501001001IA1099IA2999+01109KA1120N+01311MA1999999098831MD1410001+9999MW1021REMSYN100AAXX  19061 13389 11698 70000 10149 20118 39883 40157 54000 69972 70226 87800 333 20131 31011 55120;
0144133890999992000071909004+42980+021950FM-12+023299999V0203201N003010120019N0200001N1+01981+00971101481ADDAA199000021GF105991051031012501081061MA1999999098791MD1810041+9999REMSYN066AAXX  19091 13389 32698 53203 10198 20097 39879 40148 58004 85386;
0144133890999992000071912004+42980+021950FM-12+023299999V0203601N003012200019N0200001N1+02361+00641101261ADDAA199000021GF102991021021012501001001MA1999999098611MD1710181+9999REMSYN066AAXX  19121 13389 32698 23603 10236 20064 39861 40126 57018 82200;
0163133890999992000071915004+42980+021950FM-12+023299999V0203401N006012200019N0200001N1+02351+00791101281ADDAA199000091GF102991011021012501031001MA1999999098581MD1610031+9999REMSYN066AAXX  19151 13389 32698 23406 10235 20079 39858 40128 56003 81230;EQDQ01  00002PRCP99
0186133890999992000071918004+42980+021950FM-12+023299999V0203101N002012200019N0200001N1+02091+00721101261ADDAA199000091GF102991011011012501031001KA1999M+02461MA1999999098581MD1410001+9999REMSYN076AAXX  19181 13389 32698 23102 10209 20072 39858 40126 54000 81130 333 10246;EQDQ01  00002PRCP99
0173133890999992000071921004+42980+021950FM-12+023299999V0202201N001012200019N0200001N1+01541+01031101381ADDAA199000091GA1001+999999999GF100991001001999999001001MA1999999098651MD1110071+9999REMSYN060AAXX  19211 13389 32998 02201 10154 20103 39865 40138 51007;EQDQ01  00002PRCP99
0173133890999992000072000004+42980+021950FM-12+023299999V0201801N001012200019N0200001N1+01181+00951101411ADDAA199000091GA1001+999999999GF100991001001999999001001MA1999999098651MD1410001+9999REMSYN060AAXX  20001 13389 32998 01801 10118 20095 39865 40141 54000;EQDQ01  00002PRCP99
0163133890999992000072003004+42980+021950FM-12+023299999V0201901N001012200019N0200001N1+01001+00821101431ADDAA199000091GF102991001001999999001011MA1999999098651MD1410001+9999REMSYN066AAXX  20031 13389 32998 21901 10100 20082 39865 40143 54000 80001;EQDQ01  00002PRCP99
0226133890999992000072006004+42980+021950FM-12+023299999V0200401N001012200019N0200001N1+01461+00981101531ADDAA199000091GA1001+999999999GF100991001001999999001001IA1019IA2999+00709KA1120N+00961MA1999999098791MD1210141+9999REMSYN082AAXX  20061 13389 32998 00401 10146 20098 39879 40153 52014 333 20096 30007 55106;EQDQ01  00002PRCP99
0163133890999992000072009004+42980+021950FM-12+023299999V0203601N003012200019N0200001N1+02141+00741101461ADDAA199000091GF101991011021012501001001MA1999999098781MD1810011+9999REMSYN066AAXX  20091 13389 32698 13603 10214 20074 39878 40146 58001 81200;EQDQ01  00002PRCP99
0163133890999992000072012004+42980+021950FM-12+023299999V0203201N005010150019N0200001N1+02611+00761101361ADDAA199000091GF107991071081012501001001MA1999999098701MD1710081+9999REMSYN066AAXX  20121 13389 32698 73205 10261 20076 39870 40136 57008 87800;EQDQ01  00002PRCP99
0163133890999992000072015004+42980+021950FM-12+023299999V0203301N004010150019N0200001N1+02161+00851101371ADDAA199000091GF107991071081012501001001MA1999999098701MD1510001+9999REMSYN066AAXX  20151 13389 32698 73304 10216 20085 39870 40137 55000 87800;EQDQ01  00002PRCP99
0186133890999992000072018004+42980+021950FM-12+023299999V0203401N005012200019N0200001N1+01901+00791101471ADDAA199000091GF102991011021012501031001KA1999M+02431MA1999999098771MD1210071+9999REMSYN076AAXX  20181 13389 32698 23405 10190 20079 39877 40147 52007 81230 333 10243;EQDQ01  00002PRCP99
0163133890999992000072021004+42980+021950FM-12+023299999V0203401N003012200019N0200001N1+01681+00781101671ADDAA199000091GF101991011001999999031001MA1999999098951MD1310181+9999REMSYN066AAXX  20211 13389 32998 13403 10168 20078 39895 40167 53018 81030;EQDQ01  00002PRCP99
0163133890999992000072100004+42980+021950FM-12+023299999V0209999C000012200019N0200001N1+01261+01081101741ADDAA199000091GF102991021001999999031001MA1999999098981MD1210031+9999REMSYN066AAXX  21001 13389 32998 20000 10126 20108 39898 40174 52003 82030;EQDQ01  00002PRCP99
0173133890999992000072103004+42980+021950FM-12+023299999V0209999C000012200019N0200001N1+00991+00661101771ADDAA199000091GA1001+999999999GF100991001001999999001001MA1999999098981MD1410001+9999REMSYN060AAXX  21031 13389 32998 00000 10099 20066 39898 40177 54000;EQDQ01  00002PRCP99
0216133890999992000072106004+42980+021950FM-12+023299999V0200401N001010360019N0200001N1+01381+00921101821ADDAA199000091GF107991041051012501031001IA1019IA2999+00609KA1120N+00951MA1999999099071MD1310091+9999REMSYN088AAXX  21061 13389 32698 70401 10138 20092 39907 40182 53009 84530 333 20095 30006 55099;EQDQ01  00002PRCP99
0163133890999992000072109004+42980+021950FM-12+023299999V0203601N004010150019N0200001N1+01861+00941101781ADDAA199000091GF107991071081012501001001MA1999999099081MD1410001+9999REMSYN066AAXX  21091 13389 32698 73604 10186 20094 39908 40178 54000 87800;EQDQ01  00002PRCP99
0163133890999992000072112004+42980+021950FM-12+023299999V0203601N003012200019N0200001N1+02281+00721101581ADDAA199000091GF106991041021012501001011MA1999999098911MD1710161+9999REMSYN066AAXX  21121 13389 32698 63603 10228 20072 39891 40158 57016 84201;EQDQ01  00002PRCP99
0163133890999992000072115004+42980+021950FM-12+023299999V0203201N003012200019N0200001N1+02421+00621101481ADDAA199000091GF104991011021012501001011MA1999999098831MD1710081+9999REMSYN066AAXX  21151 13389 32698 43203 10242 20062 39883 40148 57008 81201;EQDQ01  00002PRCP99
0186133890999992000072118004+42980+021950FM-12+023299999V0203301N004012200019N0200001N1+02101+00641101611ADDAA199000091GF105991021021012501001011KA1999M+02421MA1999999098931MD1310101+9999REMSYN076AAXX  21181 13389 32698 53304 10210 20064 39893 40161 53010 82201 333 10242;EQDQ01  00002PRCP99
0163133890999992000072121004+42980+021950FM-12+023299999V0202101N002012200019N0200001N1+01561+00921101741ADDAA199000091GF103991031001999999031001MA1999999099011MD1210141+9999REMSYN066AAXX  21211 13389 32998 32102 10156 20092 39901 40174 52014 83030;EQDQ01  00002PRCP99
0163133890999992000072200004+42980+021950FM-12+023299999V0202001N001012200019N0200001N1+01321+01001101791ADDAA199000091GF103991031001999999031001MA1999999099031MD1110021+9999REMSYN066AAXX  22001 13389 32998 32001 10132 20100 39903 40179 51002 83030;EQDQ01  00002PRCP99
0163133890999992000072203004+42980+021950FM-12+023299999V0209999C000012200019N0200001N1+01051+00831101821ADDAA199000091GF102991021001999999031001MA1999999099031MD1410001+9999REMSYN066AAXX  22031 13389 32998 20000 10105 20083 39903 40182 54000 82030;EQDQ01  00002PRCP99
0217133890999992000072206004+42980+021950FM-12+023299999V0209999C000012200019N0200001N1+01481+00941101871ADDAA199000091GF101991011001999999031001IA1019IA2999+00709KA1120N+00991MD1310091+9999REMSYN088AAXX  22061 13389 32998 10000 10148 20094 39712 40187 53009 81030 333 20099 30007 55080;EQDQ01+097123APOSP Q02  00002PRCP99
0163133890999992000072209004+42980+021950FM-12+023299999V0203601N002012200019N0200001N1+02261+00951101721ADDAA199000091GF101991011021012501001001MA1999999099051MD1810071+9999REMSYN066AAXX  22091 13389 32698 13602 10226 20095 39905 40172 58007 81200;EQDQ01  00002PRCP99
0163133890999992000072212004+42980+021950FM-12+023299999V0203601N003012200019N0200001N1+02541+00771101561ADDAA199000091GF102991021021012501001001MA1999999098911MD1710141+9999REMSYN066AAXX  22121 13389 32698 23603 10254 20077 39891 40156 57014 82200;EQDQ01  00002PRCP99
0163133890999992000072215004+42980+021950FM-12+023299999V0203601N002012200019N0200001N1+02761+00721101471ADDAA199000091GF103991021021012501001011MA1999999098851MD1610061+9999REMSYN066AAXX  22151 13389 32698 33602 10276 20072 39885 40147 56006 82201;EQDQ01  00002PRCP99
0186133890999992000072218004+42980+021950FM-12+023299999V0203301N002012200019N0200001N1+02421+00581101531ADDAA199000091GF102991001001999999001011KA1999M+02781MA1999999098871MD1310021+9999REMSYN076AAXX  22181 13389 32998 23302 10242 20058 39887 40153 53002 80001 333 10278;EQDQ01  00002PRCP99
0173133890999992000072221004+42980+021950FM-12+023299999V0201601N001012200019N0200001N1+01641+00971101741ADDAA199000091GA1001+999999999GF100991001001999999001001MA1999999099011MD1210141+9999REMSYN060AAXX  22211 13389 32998 01601 10164 20097 39901 40174 52014;EQDQ01  00002PRCP99
0173133890999992000072300004+42980+021950FM-12+023299999V0209999C000012200019N0200001N1+01261+01031101821ADDAA199000091GA1001+999999999GF100991001001999999001001MA1999999099051MD1110041+9999REMSYN060AAXX  23001 13389 32998 00000 10126 20103 39905 40182 51004;EQDQ01  00002PRCP99
0173133890999992000072303004+42980+021950FM-12+023299999V0209999C000012200019N0200001N1+01021+00851101841ADDAA199000091GA1001+999999999GF100991001001999999001001MA1999999099051MD1410001+9999REMSYN060AAXX  23031 13389 32998 00000 10102 20085 39905 40184 54000;EQDQ01  00002PRCP99
0226133890999992000072306004+42980+021950FM-12+023299999V0200501N001012200019N0200001N1+01581+00971101871ADDAA199000091GA1001+999999999GF100991001001999999001001IA1019IA2999+00709KA1120N+00981MA1999999099131MD1210081+9999REMSYN082AAXX  23061 13389 32998 00501 10158 20097 39913 40187 52008 333 20098 30007 55134;EQDQ01  00002PRCP99
0163133890999992000072309004+42980+021950FM-12+023299999V0202301N001012200019N0200001N1+02481+00851101781ADDAA199000091GF101991011021012501001001MA1999999099131MD1010001+9999REMSYN066AAXX  23091 13389 32698 12301 10248 20085 39913 40178 50000 81200;EQDQ01  00002PRCP99
0163133890999992000072312004+42980+021950FM-12+023299999V0200201N002012200019N0200001N1+02861+00741101641ADDAA199000091GF101991011011012501001001MA1999999099031MD1710101+9999REMSYN066AAXX  23121 13389 32698 10202 10286 20074 39903 40164 57010 81100;EQDQ01  00002PRCP99
0163133890999992000072315004+42980+021950FM-12+023299999V0203601N002012200019N0200001N1+02991+00681101531ADDAA199000091GF101991011011012501001001MA1999999098931MD1610101+9999REMSYN066AAXX  23151 13389 32698 13602 10299 20068 39893 40153 56010 81100;EQDQ01  00002PRCP99
0196133890999992000072318004+42980+021950FM-12+023299999V0209999C000012200019N0200001N1+02531+00991101551ADDAA199000091GA1001+999999999GF100991001001999999001001KA1999M+03041MA1999999098901MD1610031+9999REMSYN070AAXX  23181 13389 32998 00000 10253 20099 39890 40155 56003 333 10304;EQDQ01  00002PRCP99
0173133890999992000072321004+42980+021950FM-12+023299999V0209999C000012200019N0200001N1+01731+01121101651ADDAA199000091GA1001+999999999GF100991001001999999001001MA1999999098931MD1310031+9999REMSYN060AAXX  23211 13389 32998 00000 10173 20112 39893 40165 53003;EQDQ01  00002PRCP99
0173133890999992000072400004+42980+021950FM-12+023299999V0209999C000012200019N0200001N1+01471+01181101691ADDAA199000091GA1001+999999999GF100991001001999999001001MA1999999098951MD1110021+9999REMSYN060AAXX  24001 13389 32998 00000 10147 20118 39895 40169 51002;EQDQ01  00002PRCP99
0173133890999992000072403004+42980+021950FM-12+023299999V0209999C000012200019N0200001N1+01321+01111101711ADDAA199000091GA1001+999999999GF100991001001999999001001MA1999999098951MD1410001+9999REMSYN060AAXX  24031 13389 32998 00000 10132 20111 39895 40171 54000;EQDQ01  00002PRCP99
0226133890999992000072406004+42980+021950FM-12+023299999V0209999C000012200019N0200001N1+01991+00971101711ADDAA199000091GA1001+999999999GF100991001001999999001001IA1019IA2999+01009KA1120N+01281MA1999999099011MD1310061+9999REMSYN082AAXX  24061 13389 32998 00000 10199 20097 39901 40171 53006 333 20128 30010 55137;EQDQ01  00002PRCP99
0186133890999992000072418004+42980+021950FM-12+023299999V0201801N001012200019N0200001N1+02861+01381101171ADDAA199000091GF104991001001999999001011KA1999M+03481MA1999999098571MD1510051+9999REMSYN076AAXX  24181 13389 32998 41801 10286 20138 39857 40117 55005 80001 333 10348;EQDQ01  00002PRCP99
0173133890999992000072421004+42980+021950FM-12+023299999V0201601N001012200019N0200001N1+02161+01361101341ADDAA199000091GA1001+999999999GF100991001001999999001001MA1999999098681MD1210111+9999REMSYN060AAXX  24211 13389 32998 01601 10216 20136 39868 40134 52011;EQDQ01  00002PRCP99
0173133890999992000072500004+42980+021950FM-12+023299999V0202001N001012200019N0200001N1+01791+01391101441ADDAA199000091GA1001+999999999GF100991001001999999001001MA1999999098741MD1110061+9999REMSYN060AAXX  25001 13389 32998 02001 10179 20139 39874 40144 51006;EQDQ01  00002PRCP99
0173133890999992000072503004+42980+021950FM-12+023299999V0201801N001012200019N0200001N1+01621+01311101421ADDAA199000091GA1001+999999999GF100991001001999999001001MA1999999098701MD1810041+9999REMSYN060AAXX  25031 13389 32998 01801 10162 20131 39870 40142 58004;EQDQ01  00002PRCP99
0216133890999992000072506004+42980+021950FM-12+023299999V0202201N001012200019N0200001N1+02261+01351101371ADDAA199000091GF104991021021012501031001IA1019IA2999+01309KA1120N+01571MA1999999098721MD1310021+9999REMSYN088AAXX  25061 13389 32698 42201 10226 20135 39872 40137 53002 82230 333 20157 30013 55136;EQDQ01  00002PRCP99
0173133890999992000072509004+42980+021950FM-12+023299999V0201201N002012200019N0200001N1+03231+01251101191ADDAA199000091GA1001+999999999GF100991001001999999001001MA1999999098611MD1810111+9999REMSYN060AAXX  25091 13389 32998 01202 10323 20125 39861 40119 58011;EQDQ01  00002PRCP99
0163133890999992000072512004+42980+021950FM-12+023299999V0202101N004012200019N0200001N1+03841+01171100971ADDAA199000091GF104991001001999999001061MA1999999098451MD1710161+9999REMSYN066AAXX  25121 13389 32998 42104 10384 20117 39845 40097 57016 80006;EQDQ01  00002PRCP99
0163133890999992000072515004+42980+021950FM-12+023299999V0202301N002012200019N0200001N1+03721+01211100891ADDAA199000091GF104991011001999999031051MA1999999098361MD1610091+9999REMSYN066AAXX  25151 13389 32998 42302 10372 20121 39836 40089 56009 81035;EQDQ01  00002PRCP99
0186133890999992000072518004+42980+021950FM-12+023299999V0202301N002012200019N0200001N1+03541+00921100991ADDAA199000091GF102991011051012501031001KA1999M+03881MA1999999098431MD1310071+9999REMSYN076AAXX  25181 13389 32698 22302 10354 20092 39843 40099 53007 81530 333 10388;EQDQ01  00002PRCP99
0163133890999992000072521004+42980+021950FM-12+023299999V0200801N002010360019N0200001N1+02581+01211101191ADDAA199000091GF106991021051012501031001MA1999999098561MD1210131+9999REMSYN066AAXX  25211 13389 32698 60802 10258 20121 39856 40119 52013 82530;EQDQ01  00002PRCP99
0173133890999992000072600004+42980+021950FM-12+023299999V0209999C000012200019N0200001N1+02341+01151101221ADDAA199000091GA1001+999999999GF100991001001999999001001MA1999999098561MD1410001+9999REMSYN060AAXX  26001 13389 32998 00000 10234 20115 39856 40122 54000;EQDQ01  00002PRCP99
0173133890999992000072603004+42980+021950FM-12+023299999V0201801N001012200019N0200001N1+01891+01301101211ADDAA199000091GA1001+999999999GF100991001001999999001001MA1999999098521MD1810041+9999REMSYN060AAXX  26031 13389 32998 01801 10189 20130 39852 40121 58004;EQDQ01  00002PRCP99
0226133890999992000072606004+42980+021950FM-12+023299999V0209999C000012200019N0200001N1+02241+01361101181ADDAA199000091GA1001+999999999GF100991001001999999001001IA1019IA2999+01509KA1120N+01851MA1999999098521MD1410001+9999REMSYN082AAXX  26061 13389 32998 00000 10224 20136 39852 40118 54000 333 20185 30015 55082;EQDQ01  00002PRCP99
0173133890999992000072609004+42980+021950FM-12+023299999V0202001N001012200019N0200001N1+03361+01181101031ADDAA199000091GA1001+999999999GF100991001001999999001001MA1999999098471MD1810051+9999REMSYN060AAXX  26091 13389 32998 02001 10336 20118 39847 40103 58005;EQDQ01  00002PRCP99
0183133890999992000072612004+42980+021950FM-12+023299999V0202301N006012200019N0200001N1+03961+01151100791ADDAA199000091GA1001+999999999GF100991001001999999001001MA1999999098291MD1710181+9999REMSYN070AAXX  26121 13389 32998 02306 10396 20115 39829 40079 57018 333 91113;EQDQ01  00002PRCP99
0189133890999992000072615004+42980+021950FM-12+023299999V0202301N005012200019N0200001N1+03981+01171100691ADDAA199000091GA1001+999999999GF100991001001999999001001MA1999999098191MD1710101+9999REMSYN076AAXX  26151 13389 32998 02305 10398 20117 39819 40069 57010 81030 333 91111;EQDQ01  00002PRCP99
0186133890999992000072618004+42980+021950FM-12+023299999V0202501N004012200019N0200001N1+03461+00921100761ADDAA199000091GF103991031001999999031001KA1999M+03981MA1999999098221MD1310031+9999REMSYN076AAXX  26181 13389 32998 32504 10346 20092 39822 40076 53003 83030 333 10398;EQDQ01  00002PRCP99
0173133890999992000072621004+42980+021950FM-12+023299999V0202301N004012200019N0200001N1+03051+00671100971ADDAA199000091GA1001+999999999GF100991001001999999001001MA1999999098331MD1210111+9999REMSYN060AAXX  26211 13389 32998 02304 10305 20067 39833 40097 52011;EQDQ01  00002PRCP99
0173133890999992000072700004+42980+021950FM-12+023299999V0202701N002012200019N0200001N1+02721+00701101061ADDAA199000091GA1001+999999999GF100991001001999999001001MA1999999098441MD1210101+9999REMSYN060AAXX  27001 13389 32998 02702 10272 20070 39844 40106 52010;EQDQ01  00002PRCP99
0173133890999992000072703004+42980+021950FM-12+023299999V0202301N001012200019N0200001N1+01821+00951101231ADDAA199000091GA1001+999999999GF100991001001999999001001MA1999999098531MD1210071+9999REMSYN060AAXX  27031 13389 32998 02301 10182 20095 39853 40123 52007;EQDQ01  00002PRCP99
0173133890999992000072709004+42980+021950FM-12+023299999V0203401N004012200019N0200001N1+02901+01451101381ADDAA199000091GA1001+999999999GF100991001001999999001001MA1999999098771MD1010041+9999REMSYN060AAXX  27091 13389 32998 03404 10290 20145 39877 40138 50004;EQDQ01  00002PRCP99
0173133890999992000072712004+42980+021950FM-12+023299999V0203401N006012200019N0200001N1+03131+01401101251ADDAA199000091GA1001+999999999GF100991001001999999001001MA1999999098661MD1710111+9999REMSYN060AAXX  27121 13389 32998 03406 10313 20140 39866 40125 57011;EQDQ01  00002PRCP99
0173133890999992000072715004+42980+021950FM-12+023299999V0203401N006012200019N0200001N1+03141+01361101191ADDAA199000091GA1001+999999999GF100991001001999999001001MA1999999098601MD1610061+9999REMSYN060AAXX  27151 13389 32998 03406 10314 20136 39860 40119 56006;EQDQ01  00002PRCP99
0186133890999992000072718004+42980+021950FM-12+023299999V0203401N004012200019N0200001N1+02791+01201101241ADDAA199000091GF101991011001999999031001KA1999M+03221MA1999999098631MD1310031+9999REMSYN076AAXX  27181 13389 32998 13404 10279 20120 39863 40124 53003 81030 333 10322;EQDQ01  00002PRCP99
0173133890999992000072721004+42980+021950FM-12+023299999V0203001N002012200019N0200001N1+02421+01051101381ADDAA199000091GA1001+999999999GF100991001001999999001001MA1999999098731MD1210101+9999REMSYN060AAXX  27211 13389 32998 03002 10242 20105 39873 40138 52010;EQDQ01  00002PRCP99
0163133890999992000072800004+42980+021950FM-12+023299999V0202301N001012200019N0200001N1+01841+01321101441ADDAA199000091GF102991021001999999031001MA1999999098731MD1410001+9999REMSYN066AAXX  28001 13389 32998 22301 10184 20132 39873 40144 54000 82030;EQDQ01  00002PRCP99
0173133890999992000072803004+42980+021950FM-12+023299999V0209999C000012200019N0200001N1+01441+01251101471ADDAA199000091GA1001+999999999GF100991001001999999001001MA1999999098731MD1410001+9999REMSYN060AAXX  28031 13389 32998 00000 10144 20125 39873 40147 54000;EQDQ01  00002PRCP99
0226133890999992000072806004+42980+021950FM-12+023299999V0209999C000012200019N0200001N1+01981+01231101421ADDAA199000091GA1001+999999999GF100991001001999999001001IA1019IA2999+01109KA1120N+01421MA1999999098731MD1410001+9999REMSYN082AAXX  28061 13389 32998 00000 10198 20123 39873 40142 54000 333 20142 30011 55136;EQDQ01  00002PRCP99
0173133890999992000072809004+42980+021950FM-12+023299999V0200101N002012200019N0200001N1+02751+01211101151ADDAA199000091GA1001+999999999GF100991001001999999001001MA1999999098541MD1810191+9999REMSYN060AAXX  28091 13389 32998 00102 10275 20121 39854 40115 58019;EQDQ01  00002PRCP99
0173133890999992000072812004+42980+021950FM-12+023299999V0203401N002012200019N0200001N1+03241+01061100821ADDAA199000091GA1001+999999999GF100991001001999999001001MA1999999098251MD1710291+9999REMSYN060AAXX  28121 13389 32998 03402 10324 20106 39825 40082 57029;EQDQ01  00002PRCP99
0173133890999992000072815004+42980+021950FM-12+023299999V0200201N003012200019N0200001N1+03541+01211100491ADDAA199000091GA1001+999999999GF100991001001999999001001MA1999999097951MD1710301+9999REMSYN060AAXX  28151 13389 32998 00203 10354 20121 39795 40049 57030;EQDQ01  00002PRCP99
0196133890999992000072818004+42980+021950FM-12+023299999V0209999C000012200019N0200001N1+03041+01491100411ADDAA199000091GA1001+999999999GF100991001001999999001001KA1999M+03551MA1999999097841MD1610111+9999REMSYN070AAXX  28181 13389 32998 00000 10304 20149 39784 40041 56011 333 10355;EQDQ01  00002PRCP99
0173133890999992000072821004+42980+021950FM-12+023299999V0209999C000012200019N0200001N1+02301+01451100471ADDAA199000091GA1001+999999999GF100991001001999999001001MA1999999097841MD1410001+9999REMSYN060AAXX  28211 13389 32998 00000 10230 20145 39784 40047 54000;EQDQ01  00002PRCP99
0173133890999992000072900004+42980+021950FM-12+023299999V0209999C000012200019N0200001N1+02051+01411100591ADDAA199000091GA1001+999999999GF100991001001999999001001MA1999999097931MD1310091+9999REMSYN060AAXX  29001 13389 32998 00000 10205 20141 39793 40059 53009;EQDQ01  00002PRCP99
0173133890999992000072903004+42980+021950FM-12+023299999V0203401N004012200019N0200001N1+02181+01271100901ADDAA199000091GA1001+999999999GF100991001001999999001001MA1999999098241MD1210311+9999REMSYN060AAXX  29031 13389 32998 03404 10218 20127 39824 40090 52031;EQDQ01  00002PRCP99
0216133890999992000072906004+42980+021950FM-12+023299999V0203401N004012200019N0200001N1+02151+01111101111ADDAA199000091GF101991011021012501001001IA1019IA2999+01509KA1120N+01841MA1999999098461MD1210221+9999REMSYN088AAXX  29061 13389 32698 13404 10215 20111 39846 40111 52022 81200 333 20184 30015 55136;EQDQ01  00002PRCP99
0163133890999992000072909004+42980+021950FM-12+023299999V0203601N004012200019N0200001N1+02441+01381101101ADDAA199000091GF103991031021012501001001MA1999999098461MD1410001+9999REMSYN066AAXX  29091 13389 32698 33604 10244 20138 39846 40110 54000 83200;EQDQ01  00002PRCP99
0163133890999992000072912004+42980+021950FM-12+023299999V0203601N005012200019N0200001N1+02641+01281101091ADDAA199000091GF103991021021012501001011MA1999999098461MD1410001+9999REMSYN066AAXX  29121 13389 32698 33605 10264 20128 39846 40109 54000 82201;EQDQ01  00002PRCP99
0163133890999992000072915004+42980+021950FM-12+023299999V0203601N004012200019N0200001N1+02621+01181101091ADDAA199000091GF103991011021012501031001MA1999999098461MD1410001+9999REMSYN066AAXX  29151 13389 32698 33604 10262 20118 39846 40109 54000 81230;EQDQ01  00002PRCP99
0186133890999992000072918004+42980+021950FM-12+023299999V0203401N003012200019N0200001N1+02361+00941101201ADDAA199000091GF102991021081012501001001KA1999M+02691MA1999999098551MD1310091+9999REMSYN076AAXX  29181 13389 32698 23403 10236 20094 39855 40120 53009 82800 333 10269;EQDQ01  00002PRCP99
0163133890999992000072921004+42980+021950FM-12+023299999V0201801N002012200019N0200001N1+01851+00981101431ADDAA199000091GF102991021051012501001001MA1999999098721MD1210171+9999REMSYN066AAXX  29211 13389 32698 21802 10185 20098 39872 40143 52017 82500;EQDQ01  00002PRCP99
0173133890999992000073000004+42980+021950FM-12+023299999V0202101N001012200019N0200001N1+01431+01121101521ADDAA199000091GA1001+999999999GF100991001001999999001001MA1999999098771MD1110051+9999REMSYN060AAXX  30001 13389 32998 02101 10143 20112 39877 40152 51005;EQDQ01  00002PRCP99
0163133890999992000073003004+42980+021950FM-12+023299999V0202001N002012200019N0200001N1+01201+00981101541ADDAA199000091GF101991011001999999031001MA1999999098771MD1410001+9999REMSYN066AAXX  30031 13389 32998 12002 10120 20098 39877 40154 54000 81030;EQDQ01  00002PRCP99
0216133890999992000073006004+42980+021950FM-12+023299999V0201801N001012200019N0200001N1+01731+01131101631ADDAA199000091GF101991011001999999031001IA1019IA2999+00909KA1120N+01171MA1999999098911MD1310131+9999REMSYN088AAXX  30061 13389 32998 11801 10173 20113 39891 40163 53013 81030 333 20117 30009 55136;EQDQ01  00002PRCP99
0163133890999992000073009004+42980+021950FM-12+023299999V0203101N003012200019N0200001N1+02481+00861101441ADDAA199000091GF101991011011012501001001MA1999999098801MD1810111+9999REMSYN066AAXX  30091 13389 32698 13103 10248 20086 39880 40144 58011 81100;EQDQ01  00002PRCP99
0163133890999992000073012004+42980+021950FM-12+023299999V0203401N004012200019N0200001N1+02741+00661101351ADDAA199000091GF101991011011012501001001MA1999999098731MD1710071+9999REMSYN066AAXX  30121 13389 32698 13404 10274 20066 39873 40135 57007 81100;EQDQ01  00002PRCP99
0163133890999992000073015004+42980+021950FM-12+023299999V0203401N004012200019N0200001N1+02781+00581101291ADDAA199000091GF101991011021012501001001MA1999999098671MD1710061+9999REMSYN066AAXX  30151 13389 32698 13404 10278 20058 39867 40129 57006 81200;EQDQ01  00002PRCP99
0186133890999992000073018004+42980+021950FM-12+023299999V0203301N003012200019N0200001N1+02401+00531101401ADDAA199000091GF104991011021012501031001KA1999M+02841MA1999999098751MD1310081+9999REMSYN076AAXX  30181 13389 32698 43303 10240 20053 39875 40140 53008 81230 333 10284;EQDQ01  00002PRCP99
0173133890999992000073021004+42980+021950FM-12+023299999V0202701N001012200019N0200001N1+02021+00491101641ADDAA199000091GA1001+999999999GF100991001001999999001001MA1999999098591MD1210201+9999REMSYN060AAXX  30211 13389 32998 02701 10202 20049 39859 40164 52020;EQDQ01  00002PRCP99
0163133890999992000073100004+42980+021950FM-12+023299999V0209999C000012200019N0200001N1+01641+01021101781ADDAA199000091GF102991021001999999031001MA1999999099051MD1210101+9999REMSYN066AAXX  31001 13389 32998 20000 10164 20102 39905 40178 52010 82030;EQDQ01  00002PRCP99
0163133890999992000073103004+42980+021950FM-12+023299999V0201801N001010360019N0200001N1+01641+01051101781ADDAA199000091GF106991041051012501031001MA1999999099051MD1410001+9999REMSYN066AAXX  31031 13389 32698 61801 10164 20105 39905 40178 54000 84530;EQDQ01  00002PRCP99
0216133890999992000073106004+42980+021950FM-12+023299999V0203401N003010150019N0200001N1+01901+01181101931ADDAA199000091GF106991061081012501001001IA1019IA2999+01309KA1120N+01581MA1999999099221MD1210171+9999REMSYN088AAXX  31061 13389 32698 63403 10190 20118 39922 40193 52017 86800 333 20158 30013 55129;EQDQ01  00002PRCP99
0163133890999992000073112004+42980+021950FM-12+023299999V0203401N005012200019N0200001N1+02601+01021101761ADDAA199000091GF102991021021012501001001MA1999999099121MD1710101+9999REMSYN066AAXX  31121 13389 32698 23405 10260 20102 39912 40176 57010 82200;EQDQ01  00002PRCP99
0163133890999992000073115004+42980+021950FM-12+023299999V0203401N004012200019N0200001N1+02561+00861101681ADDAA199000091GF102991021031012501001001MA1999999099041MD1710081+9999REMSYN066AAXX  31151 13389 32698 23404 10256 20086 39904 40168 57008 82300;EQDQ01  00002PRCP99
0186133890999992000073118004+42980+021950FM-12+023299999V0203101N004012200019N0200001N1+02261+00831101791ADDAA199000091GF104991021021012501031011KA1999M+02671MA1999999099121MD1310081+9999REMSYN076AAXX  31181 13389 32698 43104 10226 20083 39912 40179 53008 82231 333 10267;EQDQ01  00002PRCP99
0163133890999992000073121004+42980+021950FM-12+023299999V0203301N002012200019N0200001N1+01961+01021102071ADDAA199000091GF104991031051012501031001MA1999999099361MD1210241+9999REMSYN066AAXX  31211 13389 32698 43302 10196 20102 39936 40207 52024 83530;EQDQ01  00002PRCP99
0163133890999992000080100004+42980+021950FM-12+023299999V0202101N002012200019N0200001N1+01561+01061102161ADDAA199000091GF101991011001999999031001MA1999999099421MD1110061+9999REMSYN066AAXX  01001 13389 32998 12102 10156 20106 39942 40216 51006 81030;EQDQ01  00002PRCP99
0163133890999992000080103004+42980+021950FM-12+023299999V0202101N002012200019N0200001N1+01301+01091102211ADDAA199000091GF102991021001999999031001MA1999999099441MD1310021+9999REMSYN066AAXX  01031 13389 32998 22102 10130 20109 39944 40221 53002 82030;EQDQ01  00002PRCP99
0216133890999992000080106004+42980+021950FM-12+023299999V0202001N002012200019N0200001N1+01691+01061102291ADDAA199000091GF101991011001999999031001IA1019IA2999+00909KA1120N+01251MA1999999099951MD1210111+9999REMSYN088AAXX  01061 13389 32998 12002 10169 20106 39995 40229 52011 81030 333 20125 30009 55109;EQDQ01  00002PRCP99
0163133890999992000080109004+42980+021950FM-12+023299999V0200201N004012200019N0200001N1+02321+01001102221ADDAA199000091GF104991041021012501001001MA1999999099541MD1810011+9999REMSYN066AAXX  01091 13389 32698 40204 10232 20100 39954 40222 58001 84200;EQDQ01  00002PRCP99
0163133890999992000080112004+42980+021950FM-12+023299999V0203301N004012200019N0200001N1+02641+00791102041ADDAA199000091GF102991021021012501001001MA1999999099391MD1710151+9999REMSYN066AAXX  01121 13389 32698 23304 10264 20079 39939 40204 57015 82200;EQDQ01  00002PRCP99
0163133890999992000080115004+42980+021950FM-12+023299999V0203401N004012200019N0200001N1+02751+00741101901ADDAA199000091GF102991021021012501001001MA1999999099271MD1710121+9999REMSYN066AAXX  01151 13389 32698 23404 10275 20074 39927 40190 57012 82200;EQDQ01  00002PRCP99
0186133890999992000080118004+42980+021950FM-12+023299999V0203201N004012200019N0200001N1+02381+00661101981ADDAA199000091GF103991011041012501031001KA1999M+02791MA1999999099311MD1310041+9999REMSYN076AAXX  01181 13389 32698 33204 10238 20066 39931 40198 53004 81430 333 10279;EQDQ01  00002PRCP99
0173133890999992000080121004+42980+021950FM-12+023299999V0201801N002012200019N0200001N1+01661+00741102181ADDAA199000091GA1001+999999999GF100991001001999999001001MA1999999099451MD1210141+9999REMSYN060AAXX  01211 13389 32998 01802 10166 20074 39945 40218 52014;EQDQ01  00002PRCP99
0173133890999992000080200004+42980+021950FM-12+023299999V0209999C000012200019N0200001N1+01221+00831102271ADDAA199000091GA1001+999999999GF100991001001999999001001MA1999999099481MD1110031+9999REMSYN060AAXX  02001 13389 32998 00000 10122 20083 39948 40227 51003;EQDQ01  00002PRCP99
0205133890999992000080203004+42980+021950FM-12+023299999V0200901N003012200019N0200001N1+01321+00761102341ADDAA199000091GA1001+999999999GF100991001001999999001001MA1999999999999MD1310031+9999REMSYN060AAXX  02031 13389 32998 00903 10132 20076 39723 40234 53003;EQDQ01+097233APOSP Q02  00002PRCP99Q03 097233APOSP 
0242133890999992000080206004+42980+021950FM-12+023299999V0200401N001012200019N0200001N1+01591+00861102311ADDAA199000091GA1001+999999999GF100991001001999999001001IA1019IA2999+00609KA1120N+00861MA1999999099562MD1210061+9999REMSYN082AAXX  02061 13389 32998 00401 10159 20086 39956 40231 52006 333 20086 30006 55110;EQDQ01+099563APOSP Q02  00002PRCP99
0163133890999992000080209004+42980+021950FM-12+023299999V0201601N001012200019N0200001N1+02461+00741102151ADDAA199000091GF101991011011012501001001MA1999999099491MD1810071+9999REMSYN066AAXX  02091 13389 32698 11601 10246 20074 39949 40215 58007 81100;EQDQ01  00002PRCP99
0173133890999992000080212004+42980+021950FM-12+023299999V0200201N002012200019N0200001N1+02811+00381101991ADDAA199000091GA1001+999999999GF100991001001999999001001MA1999999099361MD1710131+9999REMSYN060AAXX  02121 13389 32998 00202 10281 20038 39936 40199 57013;EQDQ01  00002PRCP99
0173133890999992000080215004+42980+021950FM-12+023299999V0202001N002012200019N0200001N1+02941+00281101861ADDAA199000091GA1001+999999999GF100991001001999999001001MA1999999099241MD1710121+9999REMSYN060AAXX  02151 13389 32998 02002 10294 20028 39924 40186 57012;EQDQ01  00002PRCP99
0196133890999992000080218004+42980+021950FM-12+023299999V0209999C000012200019N0200001N1+02461+00401101881ADDAA199000091GA1001+999999999GF100991001001999999001001KA1999M+03041MA1999999099221MD1510021+9999REMSYN070AAXX  02181 13389 32998 00000 10246 20040 39922 40188 55002 333 10304;EQDQ01  00002PRCP99
0173133890999992000080303004+42980+021950FM-12+023299999V0209999C000012200019N0200001N1+00961+00471102211ADDAA199000091GA1001+999999999GF100991001001999999001001MA1999999099411MD1410001+9999REMSYN060AAXX  03031 13389 32998 00000 10096 20047 39941 40221 54000;EQDQ01  00002PRCP99
0226133890999992000080306004+42980+021950FM-12+023299999V0209999C000012200019N0200001N1+01621+00721102151ADDAA199000091GA1001+999999999GF100991001001999999001001IA1019IA2999+00609KA1120N+00921MA1999999099411MD1410001+9999REMSYN082AAXX  03061 13389 32998 00000 10162 20072 39941 40215 54000 333 20092 30006 55136;EQDQ01  00002PRCP99
0173133890999992000080309004+42980+021950FM-12+023299999V0200201N002012200019N0200001N1+02661+00701102001ADDAA199000091GA1001+999999999GF100991001001999999001001MA1999999099361MD1810051+9999REMSYN060AAXX  03091 13389 32998 00202 10266 20070 39936 40200 58005;EQDQ01  00002PRCP99
0163133890999992000080312004+42980+021950FM-12+023299999V0203301N002012200019N0200001N1+03221+00701101731ADDAA199000091GF101991011011012501001001MA1999999099141MD1710221+9999REMSYN066AAXX  03121 13389 32698 13302 10322 20070 39914 40173 57022 81100;EQDQ01  00002PRCP99
0174133890999992000080315004+42980+021950FM-12+023299999V0203601N002012200019N0200001N1+03421+00471101571ADDAA199000091GA1001+999999999GF100991001001999999001001MD1710141+9999REMSYN060AAXX  03151 13389 32998 03602 10342 20047 39990 40157 57014;EQDQ01+099903APOSP Q02  00002PRCP99
0196133890999992000080318004+42980+021950FM-12+023299999V0209999C000012200019N0200001N1+02721+00281101581ADDAA199000091GA1001+999999999GF100991001001999999001001KA1999M+03431MA1999999098951MD1610051+9999REMSYN070AAXX  03181 13389 32998 00000 10272 20028 39895 40158 56005 333 10343;EQDQ01  00002PRCP99
0173133890999992000080321004+42980+021950FM-12+023299999V0201801N001012200019N0200001N1+01761+00561101781ADDAA199000091GA1001+999999999GF100991001001999999001001MA1999999099061MD1310111+9999REMSYN060AAXX  03211 13389 32998 01801 10176 20056 39906 40178 53011;EQDQ01  00002PRCP99
0173133890999992000080400004+42980+021950FM-12+023299999V0209999C000012200019N0200001N1+01321+00761101861ADDAA199000091GA1001+999999999GF100991001001999999001001MA1999999099101MD1210041+9999REMSYN060AAXX  04001 13389 32998 00000 10132 20076 39910 40186 52004;EQDQ01  00002PRCP99
0173133890999992000080403004+42980+021950FM-12+023299999V0202001N001012200019N0200001N1+01041+00681101961ADDAA199000091GA1001+999999999GF100991001001999999001001MA1999999099161MD1210061+9999REMSYN060AAXX  04031 13389 32998 02001 10104 20068 39916 40196 52006;EQDQ01  00002PRCP99
0226133890999992000080406004+42980+021950FM-12+023299999V0209999C000012200019N0200001N1+01781+00741101931ADDAA199000091GA1001+999999999GF100991001001999999001001IA1019IA2999+00709KA1120N+01021MA1999999099711MD1110051+9999REMSYN082AAXX  04061 13389 32998 00000 10178 20074 39971 40193 51005 333 20102 30007 55136;EQDQ01  00002PRCP99
0173133890999992000080500004+42980+021950FM-12+023299999V0202001N001012200019N0200001N1+01701+00921101561ADDAA199000091GA1001+999999999GF100991001001999999001001MA1999999098841MD1110051+9999REMSYN060AAXX  05001 13389 32998 02001 10170 20092 39884 40156 51005;EQDQ01  00002PRCP99
0163133890999992000080503004+42980+021950FM-12+023299999V0201901N001012200019N0200001N1+01281+00951101601ADDAA199000091GF101991011001999999031001MA1999999098841MD1410001+9999REMSYN066AAXX  05031 13389 32998 11901 10128 20095 39884 40160 54000 81030;EQDQ01  00002PRCP99
0226133890999992000080506004+42980+021950FM-12+023299999V0209999C000012200019N0200001N1+01881+01001101611ADDAA199000091GA1001+999999999GF100991001001999999001001IA1019IA2999+01009KA1120N+01201MA1999999098911MD1210071+9999REMSYN082AAXX  05061 13389 32998 00000 10188 20100 39891 40161 52007 333 20120 30010 55136;EQDQ01  00002PRCP99
0163133890999992000080509004+42980+021950FM-12+023299999V0203401N001012200019N0200001N1+02841+00881101511ADDAA199000091GF101991011011012501001001MA1999999098891MD1810021+9999REMSYN066AAXX  05091 13389 32698 13401 10284 20088 39889 40151 58002 81100;EQDQ01  00002PRCP99
0163133890999992000080512004+42980+021950FM-12+023299999V0203201N002012200019N0200001N1+03461+00941101271ADDAA199000091GF102991021011012501001001MA1999999098711MD1710181+9999REMSYN066AAXX  05121 13389 32698 23202 10346 20094 39871 40127 57018 82100;EQDQ01  00002PRCP99
0163133890999992000080515004+42980+021950FM-12+023299999V0200201N002012200019N0200001N1+03561+00791101111ADDAA199000091GF101991011011012501001001MA1999999098571MD1710141+9999REMSYN066AAXX  05151 13389 32698 10202 10356 20079 39857 40111 57014 81100;EQDQ01  00002PRCP99
0186133890999992000080518004+42980+021950FM-12+023299999V0203501N001012200019N0200001N1+03021+00831101181ADDAA199000091GF102991011051012501031001KA1999M+03671MA1999999098581MD1310011+9999REMSYN076AAXX  05181 13389 32698 23501 10302 20083 39858 40118 53001 81530 333 10367;EQDQ01  00002PRCP99
0173133890999992000080521004+42980+021950FM-12+023299999V0202001N001012200019N0200001N1+02491+00761101371ADDAA199000091GA1001+999999999GF100991001001999999001001MA1999999098731MD1310151+9999REMSYN060AAXX  05211 13389 32998 02001 10249 20076 39873 40137 53015;EQDQ01  00002PRCP99
0174133890999992000080600004+42980+021950FM-12+023299999V0202001N002012200019N0200001N1+01741+00951101511ADDAA199000091GA1001+999999999GF100991001001999999001001MD1210091+9999REMSYN060AAXX  06001 13389 32998 02002 10174 20095 39786 40151 52009;EQDQ01+097863APOSP Q02  00002PRCP99
0163133890999992000080603004+42980+021950FM-12+023299999V0209999C000012200019N0200001N1+01541+00941101501ADDAA199000091GF103991021051999999031001MA1999999098761MD1410001+9999REMSYN066AAXX  06031 13389 32998 30000 10154 20094 39876 40150 54000 82530;EQDQ01  00002PRCP99
0226133890999992000080606004+42980+021950FM-12+023299999V0203201N002012200019N0200001N1+01931+01001101541ADDAA199000091GA1001+999999999GF100991001001999999001001IA1019IA2999+01109KA1120N+01421MA1999999098841MD1310081+9999REMSYN082AAXX  06061 13389 32998 03202 10193 20100 39884 40154 53008 333 20142 30011 55135;EQDQ01  00002PRCP99
0173133890999992000080609004+42980+021950FM-12+023299999V0203301N002012200019N0200001N1+02941+00831101391ADDAA199000091GA1001+999999999GF100991001001999999001001MA1999999098781MD1810061+9999REMSYN060AAXX  06091 13389 32998 03302 10294 20083 39878 40139 58006;EQDQ01  00002PRCP99
0163133890999992000080612004+42980+021950FM-12+023299999V0200701N002012200019N0200001N1+03481+01001101131ADDAA199000091GF101991011021012501001001MA1999999098551MD1710201+9999REMSYN066AAXX  06121 13389 32698 10702 10348 20100 39855 40113 57020 81200;EQDQ01  00002PRCP99
0163133890999992000080615004+42980+021950FM-12+023299999V0203601N002012200019N0200001N1+03621+00881100961ADDAA199000091GF101991011011012501001001MA1999999098421MD1710161+9999REMSYN066AAXX  06151 13389 32698 13602 10362 20088 39842 40096 57016 81100;EQDQ01  00002PRCP99
0186133890999992000080618004+42980+021950FM-12+023299999V0200801N001012200019N0200001N1+03001+00601101011ADDAA199000091GF101991011001999999031001KA1999M+03681MA1999999098421MD1410001+9999REMSYN076AAXX  06181 13389 32998 10801 10300 20060 39842 40101 54000 81030 333 10368;EQDQ01  00002PRCP99
0173133890999992000080621004+42980+021950FM-12+023299999V0200901N001012200019N0200001N1+02721+00621101151ADDAA199000091GA1001+999999999GF100991001001999999001001MA1999999098531MD1310111+9999REMSYN060AAXX  06211 13389 32998 00901 10272 20062 39853 40115 53011;EQDQ01  00002PRCP99
0173133890999992000080700004+42980+021950FM-12+023299999V0201801N002012200019N0200001N1+01881+00851101231ADDAA199000091GA1001+999999999GF100991001001999999001001MA1999999098551MD1310021+9999REMSYN060AAXX  07001 13389 32998 01802 10188 20085 39855 40123 53002;EQDQ01  00002PRCP99
0173133890999992000080703004+42980+021950FM-12+023299999V0201601N001012200019N0200001N1+01551+00951101371ADDAA199000091GA1001+999999999GF100991001001999999001001MA1999999098651MD1210101+9999REMSYN060AAXX  07031 13389 32998 01601 10155 20095 39865 40137 52010;EQDQ01  00002PRCP99
0226133890999992000080706004+42980+021950FM-12+023299999V0209999C000012200019N0200001N1+02061+01111101371ADDAA199000091GA1001+999999999GF100991001001999999001001IA1019IA2999+01109KA1120N+01421MA1999999098691MD1110041+9999REMSYN082AAXX  07061 13389 32998 00000 10206 20111 39869 40137 51004 333 20142 30011 55135;EQDQ01  00002PRCP99
0173133890999992000080709004+42980+021950FM-12+023299999V0203601N001012200019N0200001N1+02921+01081101211ADDAA199000091GA1001+999999999GF100991001001999999001001MA1999999098611MD1810081+9999REMSYN060AAXX  07091 13389 32998 03601 10292 20108 39861 40121 58008;EQDQ01  00002PRCP99
0163133890999992000080712004+42980+021950FM-12+023299999V0203401N003012200019N0200001N1+03381+00951100981ADDAA199000091GF101991011021012501001001MA1999999098421MD1710191+9999REMSYN066AAXX  07121 13389 32698 13403 10338 20095 39842 40098 57019 81200;EQDQ01  00002PRCP99
0163133890999992000080715004+42980+021950FM-12+023299999V0203301N003012200019N0200001N1+03381+01031100791ADDAA199000091GF102991021021012501001001MA1999999098241MD1710181+9999REMSYN066AAXX  07151 13389 32698 23303 10338 20103 39824 40079 57018 82200;EQDQ01  00002PRCP99
0186133890999992000080718004+42980+021950FM-12+023299999V0203401N004010150019N0200001N1+02961+01211100811ADDAA199000091GF105991051081012501001001KA1999M+03541MA1999999098231MD1610011+9999REMSYN076AAXX  07181 13389 32698 53404 10296 20121 39823 40081 56001 85800 333 10354;EQDQ01  00002PRCP99
0163133890999992000080721004+42980+021950FM-12+023299999V0203201N006012200019N0200001N1+02381+01481101271ADDAA199000091GF102991021001999999031001MA1999999098631MD1210401+9999REMSYN066AAXX  07211 13389 32998 23206 10238 20148 39863 40127 52040 82030;EQDQ01  00002PRCP99
0173133890999992000080800004+42980+021950FM-12+023299999V0203001N002012200019N0200001N1+02041+01471101451ADDAA199000091GA1001+999999999GF100991001001999999001001MA1999999098771MD1210141+9999REMSYN060AAXX  08001 13389 32998 03002 10204 20147 39877 40145 52014;EQDQ01  00002PRCP99
0163133890999992000080803004+42980+021950FM-12+023299999V0203301N002010120019N0100001N1+01981+01491101551ADDAA199000091GF108991081051012501999999MA1999999098871MD1210101+9999REMSYN066AAXX  08031 13389 32697 83302 10198 20149 39887 40155 52010 885//;EQDQ01  00002PRCP99
0231133890999992000080806004+42980+021950FM-12+023299999V0203401N002010120019N0100001N1+01751+01581101701ADDAA112004191AY191061AY281061GF108991081091012501999999IA1099IA2999+01709KA1120N+01741MA1999999099001MD1210131+9999MW1951REMSYN100AAXX  08061 13389 11697 83402 10175 20158 39900 40170 52013 60042 79598 889// 333 20174 31017 55113;
0172133890999992000080809004+42980+021950FM-12+023299999V0203001N001010150019N0100001N1+01921+01611101761ADDAA199000021AY161031AY291031GF108991081081012501999999MA1999999099061MD1310061+9999MW1031REMSYN072AAXX  08091 13389 31697 83001 10192 20161 39906 40176 53006 70369 888//;
0173133890999992000080900004+42980+021950FM-12+023299999V0209999C000012200019N0100001N1+01471+01311101911ADDAA199000091GA1001+999999999GF100991001001999999001001MA1999999099161MD1210041+9999REMSYN060AAXX  09001 13389 32997 00000 10147 20131 39916 40191 52004;EQDQ01  00002PRCP99
0226133890999992000080903004+42980+021950FM-12+023299999V0209999C000012200019N0100001N1+01701+01491101981ADDAA199000091GA1001+999999999GF100991001001999999001001IA1099IA2999+01009KA1120N+01231MA1999999099261MD1310081+9999REMSYN082AAXX  09031 13389 32997 00000 10170 20149 39926 40198 53008 333 20123 31010 55026;EQDQ01  00002PRCP99
0163133890999992000080912004+42980+021950FM-12+023299999V0202701N003012200019N0200001N1+02861+01031101721ADDAA199000091GF102991011021012501001011MA1999999099101MD1710141+9999REMSYN066AAXX  09121 13389 32698 22703 10286 20103 39910 40172 57014 81201;EQDQ01  00002PRCP99
0163133890999992000080915004+42980+021950FM-12+023299999V0203201N004012200019N0200001N1+02901+00981101571ADDAA199000091GF101991011011012501001001MA1999999098961MD1710141+9999REMSYN066AAXX  09151 13389 32698 13204 10290 20098 39896 40157 57014 81100;EQDQ01  00002PRCP99
0163133890999992000080921004+42980+021950FM-12+023299999V0201801N002012200019N0200001N1+01981+00921101801ADDAA199000091GF101991011001999999031001MA1999999099101MD1210121+9999REMSYN066AAXX  09211 13389 32998 11802 10198 20092 39910 40180 52012 81030;EQDQ01  00002PRCP99
0173133890999992000081000004+42980+021950FM-12+023299999V0209999C000012200019N0200001N1+01541+01241101881ADDAA199000091GA1001+999999999GF100991001001999999001001MA1999999099131MD1310031+9999REMSYN060AAXX  10001 13389 32998 00000 10154 20124 39913 40188 53003;EQDQ01  00002PRCP99
0163133890999992000081003004+42980+021950FM-12+023299999V0209999C000012200019N0200001N1+01291+01011101891ADDAA199000091GF102991021001999999031001MA1999999099131MD1410001+9999REMSYN066AAXX  10031 13389 32998 20000 10129 20101 39913 40189 54000 82030;EQDQ01  00002PRCP99
0216133890999992000081006004+42980+021950FM-12+023299999V0209999C000012200019N0200001N1+01781+01231101881ADDAA199000091GF102991011001999999031011IA1019IA2999+01009KA1120N+01241MA1999999099161MD1310031+9999REMSYN088AAXX  10061 13389 32998 20000 10178 20123 39916 40188 53003 81031 333 20124 30010 55135;EQDQ01  00002PRCP99
0163133890999992000081009004+42980+021950FM-12+023299999V0202901N001010900019N0200001N1+02501+01031101751ADDAA199000091GF105991011021012501031011MA1999999099101MD1810061+9999REMSYN066AAXX  10091 13389 32698 52901 10250 20103 39910 40175 58006 81231;EQDQ01  00002PRCP99
0163133890999992000081012004+42980+021950FM-12+023299999V0202501N002010900019N0200001N1+03011+01081101521ADDAA199000091GF105991021021012501031011MA1999999098921MD1710181+9999REMSYN066AAXX  10121 13389 32698 52502 10301 20108 39892 40152 57018 82231;EQDQ01  00002PRCP99
0191133890999992000081015004+42980+021950FM-12+023299999V0203301N004012200019N0200001N1+03101+01031101381ADDAA199000091AY191031AY221031GF105991041091012501001011MA1999999098791MD1610131+9999MW1291REMSYN072AAXX  10151 13389 31698 53304 10310 20103 39879 40138 56013 72992 84901;EQDQ01  00002PRCP99
0214133890999992000081018004+42980+021950FM-12+023299999V0201201N001019999999N0200001N1+02281+01381101481ADDAA199000091AY121061AY291061GF105991051001999999071001KA1999M+03151MA1999999098831MD1310041+9999MW1011REMSYN082AAXX  10181 13389 31998 51201 10228 20138 39883 40148 53004 70129 85070 333 10315;EQDQ01  00002PRCP99
0163133890999992000081021004+42980+021950FM-12+023299999V0209999C000012200019N0200001N1+01861+01511101611ADDAA199000091GF101991011001999999031001MA1999999098921MD1110091+9999REMSYN066AAXX  10211 13389 32998 10000 10186 20151 39892 40161 51009 81030;EQDQ01  00002PRCP99
0173133890999992000081100004+42980+021950FM-12+023299999V0209999C000012200019N0200001N1+01521+01341101661ADDAA199000091GA1001+999999999GF100991001001999999001001MA1999999098921MD1410001+9999REMSYN060AAXX  11001 13389 32998 00000 10152 20134 39892 40166 54000;EQDQ01  00002PRCP99
0163133890999992000081103004+42980+021950FM-12+023299999V0209999C000012200019N0200001N1+01331+01241101681ADDAA199000091GF101991011001999999031001MA1999999098921MD1410001+9999REMSYN066AAXX  11031 13389 32998 10000 10133 20124 39892 40168 54000 81030;EQDQ01  00002PRCP99
0216133890999992000081106004+42980+021950FM-12+023299999V0209999C000012200019N0200001N1+01811+01381101681ADDAA199000091GF102991011011012501001011IA1019IA2999+01109KA1120N+01331MA1999999098981MD1310061+9999REMSYN088AAXX  11061 13389 32698 20000 10181 20138 39898 40168 53006 81101 333 20133 30011 55102;EQDQ01  00002PRCP99
0163133890999992000081109004+42980+021950FM-12+023299999V0202101N001012200019N0200001N1+02601+01121101531ADDAA199000091GF104991011021012501001011MA1999999098891MD1810091+9999REMSYN066AAXX  11091 13389 32698 42101 10260 20112 39889 40153 58009 81201;EQDQ01  00002PRCP99
0163133890999992000081115004+42980+021950FM-12+023299999V0200201N003010120019N0200001N1+03321+00881101051ADDAA199000091GF106991061021012501001001MA1999999098471MD1710171+9999REMSYN066AAXX  11151 13389 32698 60203 10332 20088 39847 40105 57017 86200;EQDQ01  00002PRCP99
0186133890999992000081118004+42980+021950FM-12+023299999V0200401N002012200019N0200001N1+02731+00601101111ADDAA199000091GF101991011001999999031001KA1999M+03281MA1999999098491MD1310021+9999REMSYN076AAXX  11181 13389 32998 10402 10273 20060 39849 40111 53002 81030 333 10328;EQDQ01  00002PRCP99
0173133890999992000081121004+42980+021950FM-12+023299999V0201401N002012200019N0200001N1+02211+00641101291ADDAA199000091GA1001+999999999GF100991001001999999001001MA1999999098621MD1110131+9999REMSYN060AAXX  11211 13389 32998 01402 10221 20064 39862 40129 51013;EQDQ01  00002PRCP99
0173133890999992000081200004+42980+021950FM-12+023299999V0202001N001012200019N0200001N1+01541+00951101381ADDAA199000091GA1001+999999999GF100991001001999999001001MA1999999098651MD1310031+9999REMSYN060AAXX  12001 13389 32998 02001 10154 20095 39865 40138 53003;EQDQ01  00002PRCP99
0173133890999992000081203004+42980+021950FM-12+023299999V0209999C000012200019N0200001N1+01251+00951101481ADDAA199000091GA1001+999999999GF100991001001999999001001MA1999999098721MD1210071+9999REMSYN060AAXX  12031 13389 32998 00000 10125 20095 39872 40148 52007;EQDQ01  00002PRCP99
0226133890999992000081206004+42980+021950FM-12+023299999V0209999C000012200019N0200001N1+01671+00881101531ADDAA199000091GA1001+999999999GF100991001001999999001001IA1019IA2999+00909KA1120N+01151MA1999999098811MD1210091+9999REMSYN082AAXX  12061 13389 32998 00000 10167 20088 39881 40153 52009 333 20115 30009 55106;EQDQ01  00002PRCP99
0163133890999992000081209004+42980+021950FM-12+023299999V0203501N002012200019N0200001N1+02611+00971101411ADDAA199000091GF101991011011012501001001MA1999999098771MD1810041+9999REMSYN066AAXX  12091 13389 32698 13502 10261 20097 39877 40141 58004 81100;EQDQ01  00002PRCP99
0163133890999992000081212004+42980+021950FM-12+023299999V0203401N003012200019N0200001N1+03221+00861101171ADDAA199000091GF101991011011012501001001MA1999999098591MD1710181+9999REMSYN066AAXX  12121 13389 32698 13403 10322 20086 39859 40117 57018 81100;EQDQ01  00002PRCP99
0163133890999992000081215004+42980+021950FM-12+023299999V0200501N002012200019N0200001N1+03291+00741101081ADDAA199000091GF102991021011012501001001MA1999999098511MD1710081+9999REMSYN066AAXX  12151 13389 32698 20502 10329 20074 39851 40108 57008 82100;EQDQ01  00002PRCP99
0186133890999992000081218004+42980+021950FM-12+023299999V0203601N001012200019N0200001N1+02831+00531101221ADDAA199000091GF101991011011012501001001KA1999M+03321MA1999999098611MD1310101+9999REMSYN076AAXX  12181 13389 32698 13601 10283 20053 39861 40122 53010 81100 333 10332;EQDQ01  00002PRCP99
0173133890999992000081221004+42980+021950FM-12+023299999V0209999C000012200019N0200001N1+02081+00511101531ADDAA199000091GA1001+999999999GF100991001001999999001001MA1999999098851MD1210241+9999REMSYN060AAXX  12211 13389 32998 00000 10208 20051 39885 40153 52024;EQDQ01  00002PRCP99
0173133890999992000081300004+42980+021950FM-12+023299999V0202001N001012200019N0200001N1+01541+00811101691ADDAA199000091GA1001+999999999GF100991001001999999001001MA1999999098951MD1210101+9999REMSYN060AAXX  13001 13389 32998 02001 10154 20081 39895 40169 52010;EQDQ01  00002PRCP99
0173133890999992000081303004+42980+021950FM-12+023299999V0209999C000012200019N0200001N1+01121+00831101801ADDAA199000091GA1001+999999999GF100991001001999999001001MA1999999099021MD1210071+9999REMSYN060AAXX  13031 13389 32998 00000 10112 20083 39902 40180 52007;EQDQ01  00002PRCP99
0173133890999992000081309004+42980+021950FM-12+023299999V0202401N002012200019N0200001N1+02701+00791101721ADDAA199000091GA1001+999999999GF100991001001999999001001MA1999999099091MD1810041+9999REMSYN060AAXX  13091 13389 32998 02402 10270 20079 39909 40172 58004;EQDQ01  00002PRCP99
0163133890999992000081312004+42980+021950FM-12+023299999V0203401N003012200019N0200001N1+03281+00861101521ADDAA199000091GF101991011011012501001001MA1999999098941MD1710151+9999REMSYN066AAXX  13121 13389 32698 13403 10328 20086 39894 40152 57015 81100;EQDQ01  00002PRCP99
0163133890999992000081315004+42980+021950FM-12+023299999V0203401N003012200019N0200001N1+03371+00831101421ADDAA199000091GF101991011021012501001001MA1999999098851MD1610091+9999REMSYN066AAXX  13151 13389 32698 13403 10337 20083 39885 40142 56009 81200;EQDQ01  00002PRCP99
0196133890999992000081318004+42980+021950FM-12+023299999V0203601N001012200019N0200001N1+02951+00771101491ADDAA199000091GA1001+999999999GF100991001001999999001001KA1999M+03401MA1999999098891MD1310041+9999REMSYN070AAXX  13181 13389 32998 03601 10295 20077 39889 40149 53004 333 10340;EQDQ01  00002PRCP99
0173133890999992000081321004+42980+021950FM-12+023299999V0201801N001012200019N0200001N1+02031+01061101761ADDAA199000091GA1001+999999999GF100991001001999999001001MA1999999099061MD1210171+9999REMSYN060AAXX  13211 13389 32998 01801 10203 20106 39906 40176 52017;EQDQ01  00002PRCP99
0173133890999992000081400004+42980+021950FM-12+023299999V0201801N001012200019N0200001N1+01711+01051101861ADDAA199000091GA1001+999999999GF100991001001999999001001MA1999999099131MD1110071+9999REMSYN060AAXX  14001 13389 32998 01801 10171 20105 39913 40186 51007;EQDQ01  00002PRCP99
0226133890999992000081406004+42980+021950FM-12+023299999V0209999C000012200019N0200001N1+01781+01121101951ADDAA199000091GA1001+999999999GF100991001001999999001001IA1019IA2999+01009KA1120N+01261MA1999999099231MD1310081+9999REMSYN082AAXX  14061 13389 31998 00000 10178 20112 39923 40195 53008 333 20126 30010 55136;EQDQ01  00002PRCP99
0163133890999992000081409004+42980+021950FM-12+023299999V0209999C000012200019N0200001N1+02821+00951101811ADDAA199000091GF101991001001999999001011MA1999999099181MD1810051+9999REMSYN066AAXX  14091 13389 32998 10000 10282 20095 39918 40181 58005 80001;EQDQ01  00002PRCP99
0163133890999992000081412004+42980+021950FM-12+023299999V0200201N002012200019N0200001N1+03371+00881101561ADDAA199000091GF101991011021012501001001MA1999999098991MD1710191+9999REMSYN066AAXX  14121 13389 32698 10202 10337 20088 39899 40156 57019 81200;EQDQ01  00002PRCP99
0163133890999992000081415004+42980+021950FM-12+023299999V0202001N003012200019N0200001N1+03551+00861101361ADDAA199000091GF101991011011012501001001MA1999999098811MD1710181+9999REMSYN066AAXX  14151 13389 32698 12003 10355 20086 39881 40136 57018 81100;EQDQ01  00002PRCP99
0186133890999992000081418004+42980+021950FM-12+023299999V0203201N002012200019N0200001N1+02881+00701101411ADDAA199000091GF102991021001999999031001KA1999M+03571MA1999999098801MD1510011+9999REMSYN076AAXX  14181 13389 32998 23202 10288 20070 39880 40141 55001 82030 333 10357;EQDQ01  00002PRCP99
0163133890999992000081421004+42980+021950FM-12+023299999V0201901N001012200019N0200001N1+02021+00941101631ADDAA199000091GF102991021001999999031001MA1999999098941MD1210141+9999REMSYN066AAXX  14211 13389 32998 21901 10202 20094 39894 40163 52014 82030;EQDQ01  00002PRCP99
0163133890999992000081500004+42980+021950FM-12+023299999V0202101N001012200019N0200001N1+01761+00911101741ADDAA199000091GF102991021001999999031001MA1999999099031MD1210091+9999REMSYN066AAXX  15001 13389 32998 22101 10176 20091 39903 40174 52009 82030;EQDQ01  00002PRCP99
0163133890999992000081503004+42980+021950FM-12+023299999V0202101N002012200019N0200001N1+01421+01031101841ADDAA199000091GF101991011001999999031001MA1999999099091MD1210061+9999REMSYN066AAXX  15031 13389 32998 12102 10142 20103 39909 40184 52006 81030;EQDQ01  00002PRCP99
0226133890999992000081506004+42980+021950FM-12+023299999V0209999C000012200019N0200001N1+01941+01151101911ADDAA199000091GA1001+999999999GF100991001001999999001001IA1019IA2999+01209KA1120N+01421MA1999999099201MD1210111+9999REMSYN082AAXX  15061 13389 32998 00000 10194 20115 39920 40191 52011 333 20142 30012 55134;EQDQ01  00002PRCP99
0173133890999992000081509004+42980+021950FM-12+023299999V0203401N003012200019N0200001N1+02741+01341101821ADDAA199000091GA1001+999999999GF100991001001999999001001MA1999999099181MD1810021+9999REMSYN060AAXX  15091 13389 32998 03403 10274 20134 39918 40182 58002;EQDQ01  00002PRCP99
0163133890999992000081512004+42980+021950FM-12+023299999V0203401N003012200019N0200001N1+03241+01341101551ADDAA199000091GF101991011021012501001001MA1999999098961MD1710221+9999REMSYN066AAXX  15121 13389 32698 13403 10324 20134 39896 40155 57022 81200;EQDQ01  00002PRCP99
0172133890999992000081515004+42980+021950FM-12+023299999V0200601N006010075019N0040001N1+02781+01491101471ADDAA199000021AY191031AY281031GF106991061091008001001001MA1999999098861MD1610101+9999MW1971REMSYN072AAXX  15151 13389 31596 60606 10278 20149 39886 40147 56010 79798 86900;
0201133890999992000081518004+42980+021950FM-12+023299999V0202001N001010360019N0200001N1+02501+01561101491ADDAA112002091AY191061AY281061GF105991031081012501031001KA1999M+03371MA1999999098851MD1510011+9999MW1011REMSYN088AAXX  15181 13389 11698 52001 10250 20156 39885 40149 55001 60022 70198 83830 333 10337;
0144133890999992000081521004+42980+021950FM-12+023299999V0202101N002012200019N0200001N1+02061+01711101661ADDAA199000021GF104991021051012501031001MA1999999098981MD1210131+9999REMSYN066AAXX  15211 13389 32698 42102 10206 20171 39898 40166 52013 82530;
0144133890999992000081600004+42980+021950FM-12+023299999V0209999C000012200019N0200001N1+01981+01531101731ADDAA199000021GF104991021051012501031001MA1999999099041MD1110061+9999REMSYN066AAXX  16001 13389 32698 40000 10198 20153 39904 40173 51006 82530;
0144133890999992000081603004+42980+021950FM-12+023299999V0209999C000019999999N0200001N1+01821+01471101741ADDAA199000021GF106991061001999999071001MA1999999099041MD1410001+9999REMSYN066AAXX  16031 13389 32998 60000 10182 20147 39904 40174 54000 86070;
0216133890999992000081606004+42980+021950FM-12+023299999V0201601N001012200019N0200001N1+01881+01511101781ADDAA199000091GF104991021081012501031001IA1099IA2999+01509KA1120N+01701MA1999999099081MD1310041+9999REMSYN088AAXX  16061 13389 32698 41601 10188 20151 39908 40178 53004 82830 333 20170 31015 55114;EQDQ01  00002PRCP99
0191133890999992000081612004+42980+021950FM-12+023299999V0203001N003012200019N0200001N1+03291+01351101351ADDAA199000091AY191061AY201061GF103991031091012501001001MA1999999098781MD1710261+9999MW1171REMSYN072AAXX  16121 13389 31698 33003 10329 20135 39878 40135 57026 71790 83900;EQDQ01  00002PRCP99
0191133890999992000081615004+42980+021950FM-12+023299999V0201801N002010120019N0200001N1+02341+01511101391ADDAA199000091AY191031AY291031GF107991071091012501001001MA1999999098741MD1810041+9999MW1291REMSYN072AAXX  16151 13389 31698 71802 10234 20151 39874 40139 58004 72999 87900;EQDQ01  00002PRCP99
0201133890999992000081618004+42980+021950FM-12+023299999V0209999C000010900019N0200001N1+02221+01541101441ADDAA112000191AY191061AY221061GF105991021021012501031011KA1999M+03321MA1999999098781MD1310041+9999MW1031REMSYN088AAXX  16181 13389 11698 50000 10222 20154 39878 40144 53004 69912 70392 82231 333 10332;
0173133890999992000081700004+42980+021950FM-12+023299999V0209999C000012200019N0200001N1+01541+01361101621ADDAA199000091GA1001+999999999GF100991001001999999001001MA1999999098891MD1110031+9999REMSYN060AAXX  17001 13389 32998 00000 10154 20136 39889 40162 51003;EQDQ01  00002PRCP99
0173133890999992000081703004+42980+021950FM-12+023299999V0209999C000012200019N0200001N1+01401+01231101641ADDAA199000091GA1001+999999999GF100991001001999999001001MA1999999098891MD1410001+9999REMSYN060AAXX  17031 13389 32998 00000 10140 20123 39889 40164 54000;EQDQ01  00002PRCP99
0226133890999992000081706004+42980+021950FM-12+023299999V0209999C000012200019N0100001N1+01721+01321101681ADDAA199000091GA1001+999999999GF100991001001999999001001IA1019IA2999+01109KA1120N+01351MA1999999098961MD1310071+9999REMSYN082AAXX  17061 13389 32997 00000 10172 20132 39896 40168 53007 333 20135 30011 55068;EQDQ01  00002PRCP99
0163133890999992000081709004+42980+021950FM-12+023299999V0203401N002012200019N0100001N1+02631+01271101601ADDAA199000091GF101991011021012501001001MA1999999098961MD1010001+9999REMSYN066AAXX  17091 13389 32697 13402 10263 20127 39896 40160 50000 81200;EQDQ01  00002PRCP99
0191133890999992000081712004+42980+021950FM-12+023299999V0203301N003012200019N0100001N1+03241+01181101361ADDAA199000091AY191061AY201061GF103991031091012501001001MA1999999098781MD1710181+9999MW1171REMSYN072AAXX  17121 13389 31697 33303 10324 20118 39878 40136 57018 71790 83900;EQDQ01  00002PRCP99
0191133890999992000081715004+42980+021950FM-12+023299999V0200901N004012200019N0100001N1+03161+01251101281ADDAA199000091AY111031AY291031GF104991041031012501001001MA1999999098701MD1710081+9999MW1031REMSYN072AAXX  17151 13389 31697 40904 10316 20125 39870 40128 57008 70319 84300;EQDQ01  00002PRCP99
0214133890999992000081718004+42980+021950FM-12+023299999V0209999C000012200019N0100001N1+02531+01081101391ADDAA199000091AY111061AY291061GF102991021021012501001001KA1999M+03311MA1999999098751MD1310051+9999MW1031REMSYN082AAXX  17181 13389 31697 20000 10253 20108 39875 40139 53005 70319 82200 333 10331;EQDQ01  00002PRCP99
0173133890999992000081721004+42980+021950FM-12+023299999V0209999C000012200019N0100001N1+02061+01351101581ADDAA199000091GA1001+999999999GF100991001001999999001001MA1999999098911MD1210161+9999REMSYN060AAXX  17211 13389 32997 00000 10206 20135 39891 40158 52016;EQDQ01  00002PRCP99
0173133890999992000081803004+42980+021950FM-12+023299999V0209999C000012200019N0100001N1+01411+01211101711ADDAA199000091GA1001+999999999GF100991001001999999001001MA1999999098961MD1310031+9999REMSYN060AAXX  18031 13389 32997 00000 10141 20121 39896 40171 53003;EQDQ01  00002PRCP99
0226133890999992000081806004+42980+021950FM-12+023299999V0200601N001012200019N0100001N1+01831+01281101781ADDAA199000091GA1001+999999999GF100991001001999999001001IA1019IA2999+01109KA1120N+01361MA1999999099071MD1110111+9999REMSYN082AAXX  18061 13389 32997 00601 10183 20128 39907 40178 51011 333 20136 30011 55126;EQDQ01  00002PRCP99
0173133890999992000081809004+42980+021950FM-12+023299999V0202001N001012200019N0200001N1+02741+01511101721ADDAA199000091GA1001+999999999GF100991001001999999001001MA1999999099421MD1810031+9999REMSYN060AAXX  18091 13389 32998 02001 10274 20151 39942 40172 58003;EQDQ01  00002PRCP99
0163133890999992000081812004+42980+021950FM-12+023299999V0203301N002012200019N0200001N1+03421+00951101581ADDAA199000091GF101991011021012501001001MA1999999098941MD1710111+9999REMSYN066AAXX  18121 13389 32698 13302 10342 20095 39894 40158 57011 81200;EQDQ01  00002PRCP99
0163133890999992000081815004+42980+021950FM-12+023299999V0203601N002012200019N0200001N1+03521+00981101421ADDAA199000091GF102991021021012501001001MA1999999098861MD1610081+9999REMSYN066AAXX  18151 13389 32698 23602 10352 20098 39886 40142 56008 82200;EQDQ01  00002PRCP99
0196133890999992000081818004+42980+021950FM-12+023299999V0203401N002012200019N0200001N1+02931+00861101491ADDAA199000091GA1001+999999999GF100991001001999999001001KA1999M+03531MA1999999098881MD1310021+9999REMSYN070AAXX  18181 13389 32998 03402 10293 20086 39888 40149 53002 333 10353;EQDQ01  00002PRCP99
0173133890999992000081821004+42980+021950FM-12+023299999V0202001N001012200019N0200001N1+02141+01141101741ADDAA199000091GA1001+999999999GF100991001001999999001001MA1999999099051MD1210171+9999REMSYN060AAXX  18211 13389 32998 02001 10214 20114 39905 40174 52017;EQDQ01  00002PRCP99
0173133890999992000081900004+42980+021950FM-12+023299999V0209999C000012200019N0200001N1+01611+01151101901ADDAA199000091GA1001+999999999GF100991001001999999001001MA1999999099161MD1210111+9999REMSYN060AAXX  19001 13389 32998 00000 10161 20115 39916 40190 52011;EQDQ01  00002PRCP99
0173133890999992000081903004+42980+021950FM-12+023299999V0209999C000012200019N0200001N1+01371+01121102011ADDAA199000091GA1001+999999999GF100991001001999999001001MA1999999099251MD1210091+9999REMSYN060AAXX  19031 13389 32998 00000 10137 20112 39925 40201 52009;EQDQ01  00002PRCP99
0226133890999992000081906004+42980+021950FM-12+023299999V0209999C000012200019N0200001N1+01801+01111102081ADDAA199000091GA1001+999999999GF100991001001999999001001IA1019IA2999+01009KA1120N+01271MA1999999099351MD1210101+9999REMSYN082AAXX  19061 13389 32998 00000 10180 20111 39935 40208 52010 333 20127 30010 55130;EQDQ01  00002PRCP99
0173133890999992000081909004+42980+021950FM-12+023299999V0203301N001012200019N0200001N1+02901+01081101941ADDAA199000091GA1001+999999999GF100991001001999999001001MA1999999099321MD1810031+9999REMSYN060AAXX  19091 13389 32998 03301 10290 20108 39932 40194 58003;EQDQ01  00002PRCP99
0163133890999992000081912004+42980+021950FM-12+023299999V0203201N002012200019N0200001N1+03591+01081101691ADDAA199000091GF102991021021012501001001MA1999999099131MD1710191+9999REMSYN066AAXX  19121 13389 32698 23202 10359 20108 39913 40169 57019 82200;EQDQ01  00002PRCP99
0163133890999992000081915004+42980+021950FM-12+023299999V0203401N002012200019N0200001N1+03661+01061101531ADDAA199000091GF102991021021012501001001MA1999999098981MD1710151+9999REMSYN066AAXX  19151 13389 32698 23402 10366 20106 39898 40153 57015 82200;EQDQ01  00002PRCP99
0186133890999992000081918004+42980+021950FM-12+023299999V0200701N001012200019N0200001N1+03051+00701101571ADDAA199000091GF101991011001999999031001KA1999M+03681MA1999999098961MD1510021+9999REMSYN076AAXX  19181 13389 32998 10701 10305 20070 39896 40157 55002 81030 333 10368;EQDQ01  00002PRCP99
0173133890999992000081921004+42980+021950FM-12+023299999V0201201N002012200019N0200001N1+02741+00741101721ADDAA199000091GA1001+999999999GF100991001001999999001001MA1999999099091MD1210131+9999REMSYN060AAXX  19211 13389 32998 01202 10274 20074 39909 40172 52013;EQDQ01  00002PRCP99
0173133890999992000082000004+42980+021950FM-12+023299999V0201901N002012200019N0200001N1+01941+00951101841ADDAA199000091GA1001+999999999GF100991001001999999001001MA1999999099131MD1210041+9999REMSYN060AAXX  20001 13389 32998 01902 10194 20095 39913 40184 52004;EQDQ01  00002PRCP99
0173133890999992000082003004+42980+021950FM-12+023299999V0209999C000012200019N0200001N1+01491+01091101911ADDAA199000091GA1001+999999999GF100991001001999999001001MA1999999099161MD1110031+9999REMSYN060AAXX  20031 13389 32998 00000 10149 20109 39916 40191 51003;EQDQ01  00002PRCP99
0226133890999992000082006004+42980+021950FM-12+023299999V0209999C000012200019N0200001N1+01981+01171101911ADDAA199000091GA1001+999999999GF100991001001999999001001IA1019IA2999+01109KA1120N+01421MA1999999099211MD1310051+9999REMSYN082AAXX  20061 13389 32998 00000 10198 20117 39921 40191 53005 333 20142 30011 55132;EQDQ01  00002PRCP99
0173133890999992000082009004+42980+021950FM-12+023299999V0203401N002012200019N0200001N1+03031+01091101761ADDAA199000091GA1001+999999999GF100991001001999999001001MA1999999099151MD1810061+9999REMSYN060AAXX  20091 13389 32998 03402 10303 20109 39915 40176 58006;EQDQ01  00002PRCP99
0163133890999992000082012004+42980+021950FM-12+023299999V0200401N002012200019N0200001N1+03611+00971101511ADDAA199000091GF101991011011012501001001MA1999999098951MD1710201+9999REMSYN066AAXX  20121 13389 32698 10402 10361 20097 39895 40151 57020 81100;EQDQ01  00002PRCP99
0163133890999992000082015004+42980+021950FM-12+023299999V0203201N002012200019N0200001N1+03741+00921101311ADDAA199000091GF101991011011012501001001MA1999999098771MD1710181+9999REMSYN066AAXX  20151 13389 32698 13202 10374 20092 39877 40131 57018 81100;EQDQ01  00002PRCP99
0196133890999992000082018004+42980+021950FM-12+023299999V0200301N002012200019N0200001N1+02971+00771101381ADDAA199000091GA1001+999999999GF100991001001999999001001KA1999M+03761MA1999999098781MD1310011+9999REMSYN070AAXX  20181 13389 32998 00302 10297 20077 39878 40138 53001 333 10376;EQDQ01  00002PRCP99
0174133890999992000082021004+42980+021950FM-12+023299999V0202001N002012200019N0200001N1+02141+01001101591ADDAA199000091GA1001+999999999GF100991001001999999001001MD1210131+9999REMSYN060AAXX  20211 13389 32998 02002 10214 20100 39981 40159 52013;EQDQ01+099813APOSP Q02  00002PRCP99
0173133890999992000082100004+42980+021950FM-12+023299999V0209999C000012200019N0200001N1+01721+00951101671ADDAA199000091GA1001+999999999GF100991001001999999001001MA1999999098951MD1210041+9999REMSYN060AAXX  21001 13389 32998 00000 10172 20095 39895 40167 52004;EQDQ01  00002PRCP99
0173133890999992000082103004+42980+021950FM-12+023299999V0209999C000012200019N0200001N1+01361+01031101701ADDAA199000091GA1001+999999999GF100991001001999999001001MA1999999098951MD1410001+9999REMSYN060AAXX  21031 13389 32998 00000 10136 20103 39895 40170 54000;EQDQ01  00002PRCP99
0226133890999992000082106004+42980+021950FM-12+023299999V0209999C000012200019N0200001N1+01851+01001101761ADDAA199000091GA1001+999999999GF100991001001999999001001IA1019IA2999+01009KA1120N+01291MA1999999099051MD1310101+9999REMSYN082AAXX  21061 13389 32998 00000 10185 20100 39905 40176 53010 333 20129 30010 55133;EQDQ01  00002PRCP99
0173133890999992000082109004+42980+021950FM-12+023299999V0200701N001012200019N0200001N1+03011+01081101601ADDAA199000091GA1001+999999999GF100991001001999999001001MA1999999098991MD1810061+9999REMSYN060AAXX  21091 13389 32998 00701 10301 20108 39899 40160 58006;EQDQ01  00002PRCP99
0173133890999992000082112004+42980+021950FM-12+023299999V0202001N001012200019N0200001N1+03671+01001101301ADDAA199000091GA1001+999999999GF100991001001999999001001MA1999999098761MD1710231+9999REMSYN060AAXX  21121 13389 32998 02001 10367 20100 39876 40130 57023;EQDQ01  00002PRCP99
0173133890999992000082115004+42980+021950FM-12+023299999V0203201N003012200019N0200001N1+03781+01021101181ADDAA199000091GA1001+999999999GF100991001001999999001001MA1999999098651MD1610111+9999REMSYN060AAXX  21151 13389 32998 03203 10378 20102 39865 40118 56011;EQDQ01  00002PRCP99
0196133890999992000082118004+42980+021950FM-12+023299999V0203301N002012200019N0200001N1+03091+00861101221ADDAA199000091GA1001+999999999GF100991001001999999001001KA1999M+03811MA1999999098631MD1510021+9999REMSYN070AAXX  21181 13389 32998 03302 10309 20086 39863 40122 55002 333 10381;EQDQ01  00002PRCP99
0173133890999992000082121004+42980+021950FM-12+023299999V0201601N001012200019N0200001N1+02811+00681101381ADDAA199000091GA1001+999999999GF100991001001999999001001MA1999999098761MD1110131+9999REMSYN060AAXX  21211 13389 32998 01601 10281 20068 39876 40138 51013;EQDQ01  00002PRCP99
0173133890999992000082200004+42980+021950FM-12+023299999V0202001N002012200019N0200001N1+01871+00951101521ADDAA199000091GA1001+999999999GF100991001001999999001001MA1999999098821MD1110061+9999REMSYN060AAXX  22001 13389 32998 02002 10187 20095 39882 40152 51006;EQDQ01  00002PRCP99
0173133890999992000082203004+42980+021950FM-12+023299999V0209999C000012200019N0200001N1+01461+01081101641ADDAA199000091GA1001+999999999GF100991001001999999001001MA1999999098901MD1210081+9999REMSYN060AAXX  22031 13389 32998 00000 10146 20108 39890 40164 52008;EQDQ01  00002PRCP99
0237133890999992000082206004+42980+021950FM-12+023299999V0209999C000012200019N0200001N1+01901+01051101671ADDAA199000091GA1001+999999999GF100991001001999999001001KA1120M+99999KA2120N+00111MA1999999098971MD1210081+9999REMSYN082AAXX  22061 13389 32998 00000 10190 20105 39897 40167 52008 333 10138 20011 55132;EQDQ01  00002PRCP99Q02 +01382ATMX  
0173133890999992000082209004+42980+021950FM-12+023299999V0203601N002012200019N0200001N1+03061+01061101501ADDAA199000091GA1001+999999999GF100991001001999999001001MA1999999098911MD1810061+9999REMSYN060AAXX  22091 13389 32998 03602 10306 20106 39891 40150 58006;EQDQ01  00002PRCP99
0173133890999992000082212004+42980+021950FM-12+023299999V0203401N008012200019N0200001N1+03741+01121101301ADDAA199000091GA1001+999999999GF100991001001999999001001MA1999999098761MD1710151+9999REMSYN060AAXX  22121 13389 32998 03408 10374 20112 39876 40130 57015;EQDQ01  00002PRCP99
0173133890999992000082215004+42980+021950FM-12+023299999V0203301N002012200019N0200001N1+03881+00791101161ADDAA199000091GA1001+999999999GF100991001001999999001001MA1999999098671MD1710121+9999REMSYN060AAXX  22151 13389 32998 03302 10388 20079 39867 40116 57012;EQDQ01  00002PRCP99
0196133890999992000082218004+42980+021950FM-12+023299999V0203301N002012200019N0200001N1+03161+00621101241ADDAA199000091GA1001+999999999GF100991001001999999001001KA1999M+03881MA1999999098661MD1310021+9999REMSYN070AAXX  22181 13389 32998 03302 10316 20062 39866 40124 53002 333 10388;EQDQ01  00002PRCP99
0173133890999992000082221004+42980+021950FM-12+023299999V0201401N001012200019N0200001N1+02041+00761101561ADDAA199000091GA1001+999999999GF100991001001999999001001MA1999999098871MD1210211+9999REMSYN060AAXX  22211 13389 32998 01401 10204 20076 39887 40156 52021;EQDQ01  00002PRCP99
0143133890999992000082300004+42980+021950FM-12+023299999V0202401N001012200019N0200001N1+01641+99999999999ADDAA199000091GA1001+999999999GF100991001001999999001001REMSYN059AAXX  23001 13389 32998 02401 10164 2081 39898 40171 52011;EQDQ01  00002PRCP99
0173133890999992000082303004+42980+021950FM-12+023299999V0201101N001012200019N0200001N1+01391+00881101761ADDAA199000091GA1001+999999999GF100991001001999999001001MA1999999099011MD1110031+9999REMSYN060AAXX  23031 13389 32998 01101 10139 20088 39901 40176 51003;EQDQ01  00002PRCP99
0216133890999992000082306004+42980+021950FM-12+023299999V0200601N001012200019N0200001N1+01881+00971101801ADDAA199000091GF101991011001999999031001IA1019IA2999+01109KA1120N+01321MA1999999099091MD1310081+9999REMSYN088AAXX  23061 13389 32998 10601 10188 20097 39909 40180 53008 81030 333 20132 30011 55131;EQDQ01  00002PRCP99
0173133890999992000082309004+42980+021950FM-12+023299999V0202001N001012200019N0200001N1+03021+00881101641ADDAA199000091GA1001+999999999GF100991001001999999001001MA1999999099031MD1810061+9999REMSYN060AAXX  23091 13389 32998 02001 10302 20088 39903 40164 58006;EQDQ01  00002PRCP99
0163133890999992000082312004+42980+021950FM-12+023299999V0201501N001012200019N0200001N1+03821+00851101341ADDAA199000091GF102991021011012501001001MA1999999098811MD1710221+9999REMSYN066AAXX  23121 13389 32698 21501 10382 20085 39881 40134 57022 82100;EQDQ01  00002PRCP99
0163133890999992000082315004+42980+021950FM-12+023299999V0200201N001012200019N0200001N1+03961+00721101161ADDAA199000091GF104991011021012501001011MA1999999098651MD1710161+9999REMSYN066AAXX  23151 13389 32698 40201 10396 20072 39865 40116 57016 81201;EQDQ01  00002PRCP99
0186133890999992000082318004+42980+021950FM-12+023299999V0202601N003012200019N0200001N1+03141+00981101351ADDAA199000091GF106991031021012501001011KA1999M+03971MA1999999098761MD1310111+9999REMSYN076AAXX  23181 13389 32698 62603 10314 20098 39876 40135 53011 83201 333 10397;EQDQ01  00002PRCP99
0157133890999992000082321004+42980+021950FM-12+023299999V0209999C000019999999N0200001N1+02501+00831101521ADDAA199000091GF106991999999012501999999MA1999999098871MD1110111+9999REMSYN060AAXX  23211 13389 32698 60000 10250 20083 39887 40152 51011;EQDQ01  00002PRCP99
0179133890999992000082400004+42980+021950FM-12+023299999V0201201N002012200019N0200001N1+02281+00791101601ADDAA199000091GA1001+999999999GF100991001001999999001001MA1999999098931MD1310061+9999REMSYN066AAXX  24001 13389 32998 01202 10228 20079 39893 40160 53006 81030;EQDQ01  00002PRCP99
0173133890999992000082403004+42980+021950FM-12+023299999V0201801N001012200019N0200001N1+01931+01061101771ADDAA199000091GA1001+999999999GF100991001001999999001001MA1999999099061MD1210131+9999REMSYN060AAXX  24031 13389 32998 01801 10193 20106 39906 40177 52013;EQDQ01  00002PRCP99
0226133890999992000082406004+42980+021950FM-12+023299999V0201801N001012200019N0200001N1+02151+01391101831ADDAA199000091GA1001+999999999GF100991001001999999001001IA1019IA2999+01509KA1120N+01841MA1999999099161MD1210101+9999REMSYN082AAXX  24061 13389 32998 01801 10215 20139 39916 40183 52010 333 20184 30015 55100;EQDQ01  00002PRCP99
0163133890999992000082409004+42980+021950FM-12+023299999V0200401N002012200019N0200001N1+02961+01411101811ADDAA199000091GF101991011021012501001001MA1999999099211MD1110051+9999REMSYN066AAXX  24091 13389 32698 10402 10296 20141 39921 40181 51005 81200;EQDQ01  00002PRCP99
0163133890999992000082412004+42980+021950FM-12+023299999V0203601N004012200019N0200001N1+03251+01281101651ADDAA199000091GF101991011021012501001001MA1999999099061MD1810151+9999REMSYN066AAXX  24121 13389 32698 13604 10325 20128 39906 40165 58015 81200;EQDQ01  00002PRCP99
0163133890999992000082415004+42980+021950FM-12+023299999V0203401N005012200019N0200001N1+03211+01151101501ADDAA199000091GF101991011011012501001001MA1999999098911MD1710151+9999REMSYN066AAXX  24151 13389 32698 13405 10321 20115 39891 40150 57015 81100;EQDQ01  00002PRCP99
0196133890999992000082418004+42980+021950FM-12+023299999V0203401N005012200019N0200001N1+02731+01051101611ADDAA199000091GA1001+999999999GF100991001001999999001001KA1999M+03311MA1999999098981MD1310071+9999REMSYN070AAXX  24181 13389 32998 03405 10273 20105 39898 40161 53007 333 10331;EQDQ01  00002PRCP99
0173133890999992000082421004+42980+021950FM-12+023299999V0202901N004012200019N0200001N1+02381+00861101761ADDAA199000091GA1001+999999999GF100991001001999999001001MA1999999099101MD1210121+9999REMSYN060AAXX  24211 13389 32998 02904 10238 20086 39910 40176 52012;EQDQ01  00002PRCP99
0173133890999992000082500004+42980+021950FM-12+023299999V0202001N002012200019N0200001N1+01741+01021101871ADDAA199000091GA1001+999999999GF100991001001999999001001MA1999999099141MD1110041+9999REMSYN060AAXX  25001 13389 32998 02002 10174 20102 39914 40187 51004;EQDQ01  00002PRCP99
0173133890999992000082503004+42980+021950FM-12+023299999V0209999C000012200019N0200001N1+01301+01091101841ADDAA199000091GA1001+999999999GF100991001001999999001001MA1999999099081MD1810061+9999REMSYN060AAXX  25031 13389 32998 00000 10130 20109 39908 40184 58006;EQDQ01  00002PRCP99
0226133890999992000082506004+42980+021950FM-12+023299999V0209999C000012200019N0200001N1+01681+00981101811ADDAA199000091GA1001+999999999GF100991001001999999001001IA1019IA2999+00909KA1120N+01221MA1999999099081MD1410001+9999REMSYN082AAXX  25061 13389 32998 00000 10168 20098 39908 40181 54000 333 20122 30009 55130;EQDQ01  00002PRCP99
0173133890999992000082509004+42980+021950FM-12+023299999V0203201N002012200019N0200001N1+02591+00811101651ADDAA199000091GA1001+999999999GF100991001001999999001001MA1999999099011MD1810071+9999REMSYN060AAXX  25091 13389 32998 03202 10259 20081 39901 40165 58007;EQDQ01  00002PRCP99
0173133890999992000082512004+42980+021950FM-12+023299999V0203401N004012200019N0200001N1+02931+00741101411ADDAA199000091GA1001+999999999GF100991001001999999001001MA1999999098801MD1710211+9999REMSYN060AAXX  25121 13389 32998 03404 10293 20074 39880 40141 57021;EQDQ01  00002PRCP99
0163133890999992000082515004+42980+021950FM-12+023299999V0203201N006012200019N0200001N1+02981+00661101231ADDAA199000091GF103991011011012501001011MA1999999098631MD1710171+9999REMSYN066AAXX  25151 13389 32698 33206 10298 20066 39863 40123 57017 81101;EQDQ01  00002PRCP99
0186133890999992000082518004+42980+021950FM-12+023299999V0203401N001019999999N0200001N1+02551+00741101231ADDAA199000091GF107991001001999999001061KA1999M+03041MA1999999098601MD1510031+9999REMSYN076AAXX  25181 13389 32998 73401 10255 20074 39860 40123 55003 80006 333 10304;EQDQ01  00002PRCP99
0173133890999992000082521004+42980+021950FM-12+023299999V0202001N001012200019N0200001N1+01881+00851101371ADDAA199000091GA1001+999999999GF100991001001999999001001MA1999999098671MD1110071+9999REMSYN060AAXX  25211 13389 32998 02001 10188 20085 39867 40137 51007;EQDQ01  00002PRCP99
0163133890999992000082600004+42980+021950FM-12+023299999V0203001N004010120019N0200001N1+02161+00681101441ADDAA199000091GF107991071051012501001001MA1999999098771MD1310101+9999REMSYN066AAXX  26001 13389 32698 73004 10216 20068 39877 40144 53010 87500;EQDQ01  00002PRCP99
0163133890999992000082603004+42980+021950FM-12+023299999V0203101N003019999999N0200001N1+01961+00531101481ADDAA199000091GF106991061001999999031001MA1999999098791MD1110021+9999REMSYN066AAXX  26031 13389 32998 63103 10196 20053 39879 40148 51002 86030;EQDQ01  00002PRCP99
0216133890999992000082606004+42980+021950FM-12+023299999V0203401N004010150019N0200001N1+01861+00601101621ADDAA199000091GF105991051081012501001999IA1019IA2999+01109KA1120N+01731MA1999999098921MD1310131+9999REMSYN088AAXX  26061 13389 32698 53404 10186 20060 39892 40162 53013 8580/ 333 20173 30011 55123;EQDQ01  00002PRCP99
0173133890999992000082609004+42980+021950FM-12+023299999V0203601N005012200019N0200001N1+02081+00601101601ADDAA199000091GF104991031021012501031001MA1999999098921MD1410001+9999REMSYN076AAXX  26091 13389 32698 43605 10208 20060 39892 40160 54000 83230 333 91111;EQDQ01  00002PRCP99
0163133890999992000082612004+42980+021950FM-12+023299999V0203401N006010120019N0200001N1+02201+00511101571ADDAA199000091GF105991051021012501001001MA1999999098901MD1810021+9999REMSYN066AAXX  26121 13389 32698 53406 10220 20051 39890 40157 58002 85200;EQDQ01  00002PRCP99
0163133890999992000082615004+42980+021950FM-12+023299999V0203401N006010120019N0200001N1+02181+00491101521ADDAA199000091GF105991051021012501001001MA1999999098851MD1810051+9999REMSYN066AAXX  26151 13389 32698 53406 10218 20049 39885 40152 58005 85200;EQDQ01  00002PRCP99
0186133890999992000082618004+42980+021950FM-12+023299999V0203201N003012200019N0200001N1+01921+00381101571ADDAA199000091GF101991011001999999031001KA1999M+02331MA1999999098871MD1310021+9999REMSYN076AAXX  26181 13389 32998 13203 10192 20038 39887 40157 53002 81030 333 10233;EQDQ01  00002PRCP99
0173133890999992000082621004+42980+021950FM-12+023299999V0201601N002012200019N0200001N1+01361+00421101721ADDAA199000091GA1001+999999999GF100991001001999999001001MA1999999098971MD1210101+9999REMSYN060AAXX  26211 13389 32998 01602 10136 20042 39897 40172 52010;EQDQ01  00002PRCP99
0173133890999992000082700004+42980+021950FM-12+023299999V0201601N001012200019N0200001N1+00911+00561101781ADDAA199000091GA1001+999999999GF100991001001999999001001MA1999999098981MD1110011+9999REMSYN060AAXX  27001 13389 32998 01601 10091 20056 39898 40178 51001;EQDQ01  00002PRCP99
0173133890999992000082703004+42980+021950FM-12+023299999V0202001N001012200019N0200001N1+00641+00491101831ADDAA199000091GA1001+999999999GF100991001001999999001001MA1999999098981MD1410001+9999REMSYN060AAXX  27031 13389 32998 02001 10064 20049 39898 40183 54000;EQDQ01  00002PRCP99
0216133890999992000082706004+42980+021950FM-12+023299999V0209999C000012200019N0200001N1+01091+00511101861ADDAA199000091GF101991011011012501001001IA1019IA2999+00309KA1120N+00581MA1999999099081MD1310101+9999REMSYN088AAXX  27061 13389 32698 10000 10109 20051 39908 40186 53010 81100 333 20058 30003 55060;EQDQ01  00002PRCP99
0163133890999992000082709004+42980+021950FM-12+023299999V0203601N002012200019N0200001N1+02051+00531101801ADDAA199000091GF102991021021012501001001MA1999999099101MD1110021+9999REMSYN066AAXX  27091 13389 32698 23602 10205 20053 39910 40180 51002 82200;EQDQ01  00002PRCP99
0163133890999992000082712004+42980+021950FM-12+023299999V0203401N003012200019N0200001N1+02401+00471101651ADDAA199000091GF102991021021012501001001MA1999999098991MD1810111+9999REMSYN066AAXX  27121 13389 32698 23403 10240 20047 39899 40165 58011 82200;EQDQ01  00002PRCP99
0173133890999992000082715004+42980+021950FM-12+023299999V0203601N004012200019N0200001N1+02501+00491101581ADDAA199000091GA1001+999999999GF100991001001999999001001MA1999999098931MD1610061+9999REMSYN060AAXX  27151 13389 32998 03604 10250 20049 39893 40158 56006;EQDQ01  00002PRCP99
0196133890999992000082718004+42980+021950FM-12+023299999V0200201N002012200019N0200001N1+02071+00301101671ADDAA199000091GA1001+999999999GF100991001001999999001001KA1999M+02521MA1999999098991MD1310061+9999REMSYN070AAXX  27181 13389 32998 00202 10207 20030 39899 40167 53006 333 10252;EQDQ01  00002PRCP99
0173133890999992000082721004+42980+021950FM-12+023299999V0209999C000012200019N0200001N1+01241+00581101851ADDAA199000091GA1001+999999999GF100991001001999999001001MA1999999099081MD1210091+9999REMSYN060AAXX  27211 13389 32998 00000 10124 20058 39908 40185 52009;EQDQ01  00002PRCP99
0173133890999992000082800004+42980+021950FM-12+023299999V0209999C000012200019N0200001N1+00861+00561101931ADDAA199000091GA1001+999999999GF100991001001999999001001MA1999999099131MD1210051+9999REMSYN060AAXX  28001 13389 32998 00000 10086 20056 39913 40193 52005;EQDQ01  00002PRCP99
0173133890999992000082803004+42980+021950FM-12+023299999V0209999C000012200019N0200001N1+00681+00511101921ADDAA199000091GA1001+999999999GF100991001001999999001001MA1999999099101MD1810031+9999REMSYN060AAXX  28031 13389 32998 00000 10068 20051 39910 40192 58003;EQDQ01  00002PRCP99
0226133890999992000082806004+42980+021950FM-12+023299999V0209999C000012200019N0200001N1+01141+00601101881ADDAA199000091GA1001+999999999GF100991001001999999001001IA1019IA2999+00309KA1120N+00621MA1999999099101MD1410001+9999REMSYN082AAXX  28061 13389 32998 00000 10114 20060 39910 40188 54000 333 20062 30003 55130;EQDQ01  00002PRCP99
0164133890999992000082809004+42980+021950FM-12+023299999V0202101N001012200019N0200001N1+02181+00561101691ADDAA199000091GF103991031001999999041001MD1710071+9999REMSYN066AAXX  28091 13389 32998 32101 10218 20056 39674 40169 57007 83040;EQDQ01+096743APOSP Q02  00002PRCP99
0163133890999992000082812004+42980+021950FM-12+023299999V0200201N003012200019N0200001N1+02731+00581101531ADDAA199000091GF104991031081012501031001MA1999999098871MD1710171+9999REMSYN066AAXX  28121 13389 32698 40203 10273 20058 39887 40153 57017 83830;EQDQ01  00002PRCP99
0163133890999992000082815004+42980+021950FM-12+023299999V0203301N002010150019N0200001N1+02701+00551101361ADDAA199000091GF107991071081012501001001MA1999999098741MD1710131+9999REMSYN066AAXX  28151 13389 32698 73302 10270 20055 39874 40136 57013 87800;EQDQ01  00002PRCP99
0186133890999992000082818004+42980+021950FM-12+023299999V0209999C000012200019N0200001N1+02181+00621101431ADDAA199000091GF106991041081012501001011KA1999M+02881MA1999999098761MD1310021+9999REMSYN076AAXX  28181 13389 32698 60000 10218 20062 39876 40143 53002 84801 333 10288;EQDQ01  00002PRCP99
0163133890999992000082821004+42980+021950FM-12+023299999V0201901N001010120019N0200001N1+01991+00761101651ADDAA199000091GF107991071051012501001001MA1999999098951MD1210191+9999REMSYN066AAXX  28211 13389 32698 71901 10199 20076 39895 40165 52019 87500;EQDQ01  00002PRCP99
0163133890999992000082900004+42980+021950FM-12+023299999V0202901N003010120019N0200001N1+01911+01031101701ADDAA199000091GF107991071051012501001001MA1999999099001MD1010051+9999REMSYN066AAXX  29001 13389 32698 72903 10191 20103 39900 40170 50005 87500;EQDQ01  00002PRCP99
0163133890999992000082903004+42980+021950FM-12+023299999V0201801N001010120019N0200001N1+01581+01151101741ADDAA199000091GF107991071051012501001001MA1999999099011MD1310011+9999REMSYN066AAXX  29031 13389 32698 71801 10158 20115 39901 40174 53001 87500;EQDQ01  00002PRCP99
0216133890999992000082906004+42980+021950FM-12+023299999V0202801N001019999999N0200001N1+01671+01211101851ADDAA199000091GF105991051001999999071001IA1019IA2999+01209KA1120N+01541MA1999999099121MD1210111+9999REMSYN088AAXX  29061 13389 32998 52801 10167 20121 39912 40185 52011 85070 333 20154 30012 55047;EQDQ01  00002PRCP99
0163133890999992000082909004+42980+021950FM-12+023299999V0203301N002012200019N0200001N1+02251+01181101801ADDAA199000091GF101991011021012501001001MA1999999099121MD1010001+9999REMSYN066AAXX  29091 13389 32698 13302 10225 20118 39912 40180 50000 81200;EQDQ01  00002PRCP99
0163133890999992000082912004+42980+021950FM-12+023299999V0200101N003012200019N0200001N1+02691+01021101631ADDAA199000091GF102991021021012501001001MA1999999099001MD1710121+9999REMSYN066AAXX  29121 13389 32698 20103 10269 20102 39900 40163 57012 82200;EQDQ01  00002PRCP99
0163133890999992000082915004+42980+021950FM-12+023299999V0200101N004012200019N0200001N1+02631+01001101561ADDAA199000091GF102991021021012501001001MA1999999098921MD1610081+9999REMSYN066AAXX  29151 13389 32698 20104 10263 20100 39892 40156 56008 82200;EQDQ01  00002PRCP99
0186133890999992000082918004+42980+021950FM-12+023299999V0203301N002012200019N0200001N1+02251+01001101681ADDAA199000091GF101991011001999999031001KA1999M+02751MA1999999099001MD1310081+9999REMSYN076AAXX  29181 13389 32998 13302 10225 20100 39900 40168 53008 81030 333 10275;EQDQ01  00002PRCP99
0173133890999992000082921004+42980+021950FM-12+023299999V0209999C000012200019N0200001N1+01621+01061101851ADDAA199000091GA1001+999999999GF100991001001999999001001MA1999999099111MD1110111+9999REMSYN060AAXX  29211 13389 32998 00000 10162 20106 39911 40185 51011;EQDQ01  00002PRCP99
0173133890999992000083000004+42980+021950FM-12+023299999V0209999C000012200019N0200001N1+01251+01061101901ADDAA199000091GA1001+999999999GF100991001001999999001001MA1999999099131MD1110021+9999REMSYN060AAXX  30001 13389 32998 00000 10125 20106 39913 40190 51002;EQDQ01  00002PRCP99
0173133890999992000083003004+42980+021950FM-12+023299999V0209999C000012200019N0200001N1+01041+00921101901ADDAA199000091GA1001+999999999GF100991001001999999001001MA1999999099111MD1810021+9999REMSYN060AAXX  30031 13389 32998 00000 10104 20092 39911 40190 58002;EQDQ01  00002PRCP99
0226133890999992000083006004+42980+021950FM-12+023299999V0209999C000012200019N0200001N1+01401+01001101881ADDAA199000091GA1001+999999999GF100991001001999999001001IA1019IA2999+00809KA1120N+00991MA1999999099131MD1110021+9999REMSYN082AAXX  30061 13389 32998 00000 10140 20100 39913 40188 51002 333 20099 30008 55098;EQDQ01  00002PRCP99
0163133890999992000083009004+42980+021950FM-12+023299999V0209999C000012200019N0200001N1+02281+00971101751ADDAA199000091GF101991011011012501001001MA1999999099081MD1810051+9999REMSYN066AAXX  30091 13389 32698 10000 10228 20097 39908 40175 58005 81100;EQDQ01  00002PRCP99
0163133890999992000083012004+42980+021950FM-12+023299999V0202601N003012200019N0200001N1+02771+00901101551ADDAA199000091GF101991011021012501001001MA1999999098931MD1710151+9999REMSYN066AAXX  30121 13389 32698 12603 10277 20090 39893 40155 57015 81200;EQDQ01  00002PRCP99
0163133890999992000083015004+42980+021950FM-12+023299999V0203601N002012200019N0200001N1+02891+00741101391ADDAA199000091GF101991011021012501001001MA1999999098781MD1710151+9999REMSYN066AAXX  30151 13389 32698 13602 10289 20074 39878 40139 57015 81200;EQDQ01  00002PRCP99
0196133890999992000083018004+42980+021950FM-12+023299999V0209999C000012200019N0200001N1+02131+00621101461ADDAA199000091GA1001+999999999GF100991001001999999001001KA1999M+02891MA1999999098781MD1510001+9999REMSYN070AAXX  30181 13389 32998 00000 10213 20062 39878 40146 55000 333 10289;EQDQ01  00002PRCP99
0173133890999992000083021004+42980+021950FM-12+023299999V0209999C000012200019N0200001N1+01511+00761101611ADDAA199000091GA1001+999999999GF100991001001999999001001MA1999999098871MD1210091+9999REMSYN060AAXX  30211 13389 32998 00000 10151 20076 39887 40161 52009;EQDQ01  00002PRCP99
0173133890999992000083100004+42980+021950FM-12+023299999V0201901N001012200019N0200001N1+01221+00851101621ADDAA199000091GA1001+999999999GF100991001001999999001001MA1999999098851MD1810011+9999REMSYN060AAXX  31001 13389 32998 01901 10122 20085 39885 40162 58001;EQDQ01  00002PRCP99
0173133890999992000083109004+42980+021950FM-12+023299999V0200601N002012200019N0200001N1+02591+00811101391ADDAA199000091GA1001+999999999GF100991001001999999001001MA1999999098751MD1810051+9999REMSYN060AAXX  31091 13389 32998 00602 10259 20081 39875 40139 58005;EQDQ01  00002PRCP99
0173133890999992000083112004+42980+021950FM-12+023299999V0201601N003012200019N0200001N1+03251+00701101111ADDAA199000091GA1001+999999999GF100991001001999999001001MA1999999098531MD1710221+9999REMSYN060AAXX  31121 13389 32998 01603 10325 20070 39853 40111 57022;EQDQ01  00002PRCP99
0163133890999992000083115004+42980+021950FM-12+023299999V0202201N003012200019N0200001N1+03341+00721100911ADDAA199000091GF104991041001999999031001MA1999999098351MD1610181+9999REMSYN066AAXX  31151 13389 32998 42203 10334 20072 39835 40091 56018 84030;EQDQ01  00002PRCP99
0186133890999992000083118004+42980+021950FM-12+023299999V0202001N002012200019N0200001N1+02601+00581100871ADDAA199000091GF104991021001999999031011KA1999M+03341MA1999999098251MD1810101+9999REMSYN076AAXX  31181 13389 32998 42002 10260 20058 39825 40087 58010 82031 333 10334;EQDQ01  00002PRCP99
0163133890999992000083121004+42980+021950FM-12+023299999V0209999C000012200019N0200001N1+02081+00811100911ADDAA199000091GF103991011001999999041011MA1999999098251MD1410001+9999REMSYN066AAXX  31211 13389 32998 30000 10208 20081 39825 40091 54000 81041;EQDQ01  00002PRCP99
0163133890999992000090100004+42980+021950FM-12+023299999V0200601N001019999999N0200001N1+01961+00961100831ADDAA199000091GF105991001001999999001061MA1999999098161MD1810091+9999REMSYN066AAXX  01001 13389 32998 50601 10196 20096 39816 40083 58009 80006;EQDQ01  00002PRCP99
0172133890999992000090103004+42980+021950FM-12+023299999V0202301N001010150019N0040001N1+01961+01321100841ADDAA199000021AY181031AY221031GF107991071081012501001001MA1999999098171MD1310011+9999MW1811REMSYN072AAXX  01031 13389 31696 72301 10196 20132 39817 40084 53001 78182 87800;
0231133890999992000090106004+42980+021950FM-12+023299999V0200601N003010150019N0200001N1+01951+01571100811ADDAA112002091AY191061AY281061GF105991051081012501001001IA1099IA2999+01609KA1120N+01811MA1999999098151MD1810021+9999MW1211REMSYN100AAXX  01061 13389 11698 50603 10195 20157 39815 40081 58002 60022 72198 85800 333 20181 31016 55113;
0172133890999992000090109004+42980+021950FM-12+023299999V0209999C000010075019N0040001N1+01651+01531101281ADDAA199000021AY191031AY281031GF108991081091008001999999MA1999999098571MD1310421+9999MW1951REMSYN072AAXX  01091 13389 31596 80000 10165 20153 39857 40128 53042 79598 889//;
0178133890999992000090112004+42980+021950FM-12+023299999V0201301N003010075019N0040001N1+01551+01391100941ADDAA106027991AY191061AY291061GF108991081091008001999999MA1999999098241MD1810031+9999MW1971REMSYN078AAXX  01121 13389 11596 81303 10155 20139 39824 40094 58003 60281 79799 889//;
0172133890999992000090115004+42980+021950FM-12+023299999V0200301N002012200019N0200001N1+01981+01241100771ADDAA199000021AY121031AY291031GF103991011021012501061031MA1999999098101MD1510141+9999MW1011REMSYN072AAXX  01151 13389 31698 30302 10198 20124 39810 40077 55014 70129 81263;
0201133890999992000090118004+42980+021950FM-12+023299999V0201201N002010150019N0200001N1+01761+01321100791ADDAA112030091AY111061AY291061GF107991051081012501031001KA1999M+02151MA1999999098101MD1410001+9999MW1031REMSYN088AAXX  01181 13389 11698 71202 10176 20132 39810 40079 54000 60302 70319 85830 333 10215;
0144133890999992000090121004+42980+021950FM-12+023299999V0209999C000010150019N0200001N1+01721+01321100901ADDAA199000021GF107991071081012501001001MA1999999098201MD1310101+9999REMSYN066AAXX  01211 13389 32698 70000 10172 20132 39820 40090 53010 87800;
0144133890999992000090200004+42980+021950FM-12+023299999V0209999C000010360019N0200001N1+01521+01351100981ADDAA199000021GF105991031051012501031001MA1999999098271MD1210071+9999REMSYN066AAXX  02001 13389 32698 50000 10152 20135 39827 40098 52007 83530;
0163133890999992000090203004+42980+021950FM-12+023299999V0201801N002012200019N0200001N1+01361+01231100981ADDAA199000091GF101991011001999999031001MA1999999098251MD1810021+9999REMSYN066AAXX  02031 13389 32998 11802 10136 20123 39825 40098 58002 81030;EQDQ01  00002PRCP99
0216133890999992000090206004+42980+021950FM-12+023299999V0209999C000010360019N0200001N1+01421+01281101061ADDAA199000091GF107991031051012501071001IA1099IA2999+01009KA1120N+01261MA1999999098331MD1310081+9999REMSYN088AAXX  02061 13389 32698 70000 10142 20128 39833 40106 53008 83570 333 20126 31010 55027;EQDQ01  00002PRCP99
0163133890999992000090209004+42980+021950FM-12+023299999V0201801N002012200019N0200001N1+02201+01121101011ADDAA199000091GF101991011021012501001001MA1999999098351MD1110021+9999REMSYN066AAXX  02091 13389 32698 11802 10220 20112 39835 40101 51002 81200;EQDQ01  00002PRCP99
0163133890999992000090212004+42980+021950FM-12+023299999V0200401N002012200019N0200001N1+02571+01111100851ADDAA199000091GF101991011021012501001001MA1999999098231MD1810121+9999REMSYN066AAXX  02121 13389 32698 10402 10257 20111 39823 40085 58012 81200;EQDQ01  00002PRCP99
0163133890999992000090215004+42980+021950FM-12+023299999V0203601N002012200019N0200001N1+02701+01121100721ADDAA199000091GF101991011021012501001001MA1999999098111MD1710121+9999REMSYN066AAXX  02151 13389 32698 13602 10270 20112 39811 40072 57012 81200;EQDQ01  00002PRCP99
0197133890999992000090218004+42980+021950FM-12+023299999V0203401N001012200019N0200001N1+02111+01381100731ADDAA199000091GA1001+999999999GF100991001001999999001001KA1999M+02741MD1610031+9999REMSYN070AAXX  02181 13389 32998 03401 10211 20138 39880 40073 56003 333 10274;EQDQ01+098803APOSP Q02  00002PRCP99
0173133890999992000090221004+42980+021950FM-12+023299999V0201801N001012200019N0200001N1+01691+01501100841ADDAA199000091GA1001+999999999GF100991001001999999001001MA1999999098151MD1310071+9999REMSYN060AAXX  02211 13389 32998 01801 10169 20150 39815 40084 53007;EQDQ01  00002PRCP99
0173133890999992000090300004+42980+021950FM-12+023299999V0201601N001012200019N0200001N1+01481+01341100881ADDAA199000091GA1001+999999999GF100991001001999999001001MA1999999098161MD1110011+9999REMSYN060AAXX  03001 13389 32998 01601 10148 20134 39816 40088 51001;EQDQ01  00002PRCP99
0205133890999992000090303004+42980+021950FM-12+023299999V0202001N001012200019N0200001N1+01311+01181100921ADDAA199000091GA1001+999999999GF100991001001999999001001MA1999999999999MD1410001+9999REMSYN060AAXX  03031 13389 32998 02001 10131 20118 39116 40092 54000;EQDQ01+091163APOSP Q02  00002PRCP99Q03 091163APOSP 
0232133890999992000090306004+42980+021950FM-12+023299999V0201901N001012200019N0200001N1+01701+01361100901ADDAA199000091GF103991031001999999031001IA1099IA2999+01009KA1120N+01261MA1999999098212MD1310051+9999REMSYN088AAXX  03061 13389 32998 31901 10170 20136 39821 40090 53005 83030 333 20126 31010 55107;EQDQ01+098213APOSP Q02  00002PRCP99
0163133890999992000090309004+42980+021950FM-12+023299999V0202001N002012200019N0200001N1+02501+00851100791ADDAA199000091GF104991011021012501031001MA1999999098161MD1810051+9999REMSYN066AAXX  03091 13389 32698 42002 10250 20085 39816 40079 58005 81230;EQDQ01  00002PRCP99
0163133890999992000090312004+42980+021950FM-12+023299999V0201401N002010120019N0200001N1+02881+00881100591ADDAA199000091GF106991051021012501031001MA1999999098001MD1710161+9999REMSYN066AAXX  03121 13389 32698 61402 10288 20088 39800 40059 57016 85230;EQDQ01  00002PRCP99
0182133890999992000090315004+42980+021950FM-12+023299999V0203201N006010150019N0100001N1+02001+01491100691ADDAA199000021AY161031AY221031GF107991071081012501001001MA1999999098031MD1310031+9999MW1611REMSYN082AAXX  03151 13389 31697 73206 10200 20149 39803 40069 53003 76162 87800 333 91113;
0201133890999992000090318004+42980+021950FM-12+023299999V0203001N004010150019N0100001N1+01851+01431100951ADDAA112000191AY121061AY261061GF107991051081012501031001KA1999M+02941MA1999999098261MD1210231+9999MW1021REMSYN088AAXX  03181 13389 11697 73004 10185 20143 39826 40095 52023 69912 70226 85830 333 10294;
0144133890999992000090321004+42980+021950FM-12+023299999V0209999C000010150019N0200001N1+01751+01391101111ADDAA199000021GF107991071081012501001001MA1999999098421MD1210161+9999REMSYN066AAXX  03211 13389 32698 70000 10175 20139 39842 40111 52016 87800;
0163133890999992000090400004+42980+021950FM-12+023299999V0209999C000019999999N0200001N1+01731+01431101121ADDAA199000021GF106991999051012501001001MA1999999098421MD1010001+9999REMSYN066AAXX  04001 13389 32698 60000 10173 20143 39842 40112 50000 87500;EQDQ01+000072SCOTLC
0144133890999992000090403004+42980+021950FM-12+023299999V0209999C000012200019N0200001N1+01531+01401101141ADDAA199000021GF102991021051012501001001MA1999999098421MD1410001+9999REMSYN066AAXX  04031 13389 32698 20000 10153 20140 39842 40114 54000 82500;
0216133890999992000090406004+42980+021950FM-12+023299999V0209999C000010360019N0200001N1+01601+01391101231ADDAA199000091GF105991031081012501031001IA1099IA2999+01209KA1120N+01501MA1999999098521MD1310101+9999REMSYN088AAXX  04061 13389 32698 50000 10160 20139 39852 40123 53010 83830 333 20150 31012 55073;EQDQ01  00002PRCP99
0163133890999992000090409004+42980+021950FM-12+023299999V0203401N002010150019N0100001N1+02001+01171101201ADDAA199000091GF107991071081012501001001MA1999999098521MD1410001+9999REMSYN066AAXX  04091 13389 32697 73402 10200 20117 39852 40120 54000 87800;EQDQ01  00002PRCP99
0163133890999992000090412004+42980+021950FM-12+023299999V0200101N003010150019N0200001N1+02201+01141101181ADDAA199000091GF107991071081012501001001MA1999999098521MD1410001+9999REMSYN066AAXX  04121 13389 32698 70103 10220 20114 39852 40118 54000 87800;EQDQ01  00002PRCP99
0163133890999992000090415004+42980+021950FM-12+023299999V0203401N005010150019N0100001N1+02001+01001101181ADDAA199000091GF107991051081012501031001MA1999999098501MD1810021+9999REMSYN066AAXX  04151 13389 32697 73405 10200 20100 39850 40118 58002 85830;EQDQ01  00002PRCP99
0186133890999992000090418004+42980+021950FM-12+023299999V0203001N004010150019N0100001N1+01651+01031101351ADDAA199000091GF108991081081012501999999KA1999M+02241MA1999999098631MD1310131+9999REMSYN076AAXX  04181 13389 32697 83004 10165 20103 39863 40135 53013 888// 333 10224;EQDQ01  00002PRCP99
0163133890999992000090421004+42980+021950FM-12+023299999V0202901N003010150019N0100001N1+01531+01141101501ADDAA199000091GF107991071081012501001001MA1999999098761MD1110131+9999REMSYN066AAXX  04211 13389 32697 72903 10153 20114 39876 40150 51013 87800;EQDQ01  00002PRCP99
0163133890999992000090500004+42980+021950FM-12+023299999V0203301N002010120019N0100001N1+01501+01081101441ADDAA199000091GF107991071051012501001001MA1999999098711MD1810051+9999REMSYN066AAXX  05001 13389 32697 73302 10150 20108 39871 40144 58005 87500;EQDQ01  00002PRCP99
0172133890999992000090503004+42980+021950FM-12+023299999V0203301N004010150019N0100001N1+01321+01121101361ADDAA199000021AY161031AY221031GF108991081081012501999999MA1999999098611MD1710101+9999MW1631REMSYN072AAXX  05031 13389 31697 83304 10132 20112 39861 40136 57010 76362 888//;
0231133890999992000090506004+42980+021950FM-12+023299999V0203001N002010120019N0040001N1+01261+01141101241ADDAA112004191AY161061AY261061GF108991081001012501021999IA1099IA2999+01209KA1120N+01261MA1999999098491MD1610121+9999MW1631REMSYN100AAXX  05061 13389 11696 83002 10126 20114 39849 40124 56012 60042 76366 8802/ 333 20126 31012 55020;
0172133890999992000090509004+42980+021950FM-12+023299999V0202801N003010075019N0040001N1+01321+01251101341ADDAA199000021AY161031AY261031GF108991051071008001021999MA1999999098591MD1310101+9999MW1611REMSYN072AAXX  05091 13389 31596 82803 10132 20125 39859 40134 53010 76166 8572/;
0178133890999992000090512004+42980+021950FM-12+023299999V0203301N002010120019N0200001N1+01401+01211101411ADDAA106006191AY161061AY261061GF108991081081008001999999MA1999999098671MD1210081+9999MW1211REMSYN078AAXX  05121 13389 11598 83302 10140 20121 39867 40141 52008 60061 72166 888//;
0172133890999992000090515004+42980+021950FM-12+023299999V0203401N001010120019N0200001N1+01371+01091101471ADDAA199000021AY161031AY221031GF108991081081008001999999MA1999999098731MD1210061+9999MW1211REMSYN072AAXX  05151 13389 31598 83401 10137 20109 39873 40147 52006 72162 888//;
0201133890999992000090518004+42980+021950FM-12+023299999V0202101N001010120019N0200001N1+01311+00981101531ADDAA112006191AY121061AY261061GF107991071081008001001001KA1999M+01451MA1999999098771MD1310041+9999MW1021REMSYN088AAXX  05181 13389 11598 72101 10131 20098 39877 40153 53004 60062 70226 87800 333 10145;
0144133890999992000090521004+42980+021950FM-12+023299999V0203201N001010120019N0100001N1+01261+00941101541ADDAA199000021GF108991081081008001999999MA1999999098771MD1410001+9999REMSYN066AAXX  05211 13389 32597 83201 10126 20094 39877 40154 54000 888//;
0178133890999992000090600004+42980+021950FM-12+023299999V0202601N001010120019N0100001N1+01241+00921101541ADDAA106000791AY161061AY221061GF108991081081008001999999MA1999999098771MD1410001+9999MW1611REMSYN078AAXX  06001 13389 11597 82601 10124 20092 39877 40154 54000 69901 76162 888//;
0231133890999992000090606004+42980+021950FM-12+023299999V0203201N004010150019N0200001N1+01161+00531101521ADDAA112001091AY161061AY261061GF108991081081012501999999IA1099IA2999+01009KA1120N+01081MA1999999098751MD1510021+9999MW1021REMSYN100AAXX  06061 13389 11698 83204 10116 20053 39875 40152 55002 60012 70266 888// 333 20108 31010 55000;
0144133890999992000090609004+42980+021950FM-12+023299999V0203201N005010120019N0200001N1+01281+00491101601ADDAA199000021GF107991071081008001001001MA1999999098841MD1310091+9999REMSYN066AAXX  06091 13389 32598 73205 10128 20049 39884 40160 53009 87800;
0144133890999992000090612004+42980+021950FM-12+023299999V0203401N004010120019N0200001N1+01361+00451101581ADDAA199000021GF107991071081008001001001MA1999999098831MD1810011+9999REMSYN066AAXX  06121 13389 32598 73404 10136 20045 39883 40158 58001 87800;
0163133890999992000090615004+42980+021950FM-12+023299999V0203401N003010150019N0200001N1+01481+00381101521ADDAA199000091GF107991071081012501001001MA1999999098781MD1710051+9999REMSYN066AAXX  06151 13389 32698 73403 10148 20038 39878 40152 57005 87800;EQDQ01  00002PRCP99
0186133890999992000090618004+42980+021950FM-12+023299999V0203301N002010150019N0200001N1+01431+00331101531ADDAA199000091GF107991071081012501001001KA1999M+01531MA1999999098781MD1410001+9999REMSYN076AAXX  06181 13389 32698 73302 10143 20033 39878 40153 54000 87800 333 10153;EQDQ01  00002PRCP99
0163133890999992000090621004+42980+021950FM-12+023299999V0201601N001012200019N0200001N1+01101+00861101561ADDAA199000091GF104991021051012501031001MA1999999098781MD1410001+9999REMSYN066AAXX  06211 13389 32698 41601 10110 20086 39878 40156 54000 82530;EQDQ01  00002PRCP99
0173133890999992000090700004+42980+021950FM-12+023299999V0201901N001012200019N0200001N1+00711+00661101511ADDAA199000091GA1001+999999999GF100991001001999999001001MA1999999098701MD1810081+9999REMSYN060AAXX  07001 13389 32998 01901 10071 20066 39870 40151 58008;EQDQ01  00002PRCP99
0163133890999992000090703004+42980+021950FM-12+023299999V0209999C000012200019N0200001N1+00721+00641101451ADDAA199000091GF101991011001999999031001MA1999999098641MD1710061+9999REMSYN066AAXX  07031 13389 32998 10000 10072 20064 39864 40145 57006 81030;EQDQ01  00002PRCP99
0216133890999992000090706004+42980+021950FM-12+023299999V0209999C000012200019N0200001N1+00951+00721101401ADDAA199000091GF101991011081012501001001IA1099IA2999+00309KA1120N+00601MA1999999098621MD1610021+9999REMSYN088AAXX  07061 13389 32698 10000 10095 20072 39862 40140 56002 81800 333 20060 31003 55001;EQDQ01  00002PRCP99
0163133890999992000090709004+42980+021950FM-12+023299999V0202001N002010150019N0200001N1+01761+00351101261ADDAA199000091GF105991051081012501001001MA1999999098561MD1810061+9999REMSYN066AAXX  07091 13389 32698 52002 10176 20035 39856 40126 58006 85800;EQDQ01  00002PRCP99
0163133890999992000090712004+42980+021950FM-12+023299999V0201801N003012200019N0200001N1+02021+00331101061ADDAA199000091GF103991031021012501001001MA1999999098381MD1710181+9999REMSYN066AAXX  07121 13389 32698 31803 10202 20033 39838 40106 57018 83200;EQDQ01  00002PRCP99
0179133890999992000090715004+42980+021950FM-12+023299999V0203601N002012200019N0200001N1+02101+00231999999ADDAA199000091GF105991021021012501001011MA1999999098331MD1610051+9999REMSYN066AAXX  07151 13389 32698 53602 10210 20023 39833 40199 56005 82201;EQDQ01+101993APOSLPQ02  00002PRCP99
0186133890999992000090718004+42980+021950FM-12+023299999V0201101N001010360019N0200001N1+01701+00471101111ADDAA199000091GF106991021051012501031011KA1999M+02121MA1999999098401MD1310071+9999REMSYN076AAXX  07181 13389 32698 61101 10170 20047 39840 40111 53007 82531 333 10212;EQDQ01  00002PRCP99
0173133890999992000090803004+42980+021950FM-12+023299999V0209999C000012200019N0200001N1+00811+00701101611ADDAA199000091GA1001+999999999GF100991001001999999001001MA1999999098871MD1210131+9999REMSYN060AAXX  08031 13389 32998 00000 10081 20070 39887 40161 52013;EQDQ01  00002PRCP99
0216133890999992000090806004+42980+021950FM-12+023299999V0209999C000019999999N0200001N1+00961+00851101891ADDAA199000091GF106991061001999999031001IA1099IA2999+00409KA1120N+00741MA1999999099101MD1210231+9999REMSYN088AAXX  08061 13389 32998 60000 10096 20085 39910 40189 52023 86030 333 20074 31004 55107;EQDQ01  00002PRCP99
0164133890999992000090809004+42980+021950FM-12+023299999V0203101N003012200019N0200001N1+01711+00471101831ADDAA199000091GF102991011011012501001011MD1110091+9999REMSYN066AAXX  08091 13389 32698 23103 10171 20047 39661 40183 51009 81101;EQDQ01+096613APOSP Q02  00002PRCP99
0179133890999992000090812004+42980+021950FM-12+023299999V0203601N003012200019N0200001N1+02181+00381101841ADDAA199000091GF104991011021012501001011MA1999999099162MD1610041+9999REMSYN066AAXX  08121 13389 32698 43603 10218 20038 39916 40184 56004 81201;EQDQ01+099163APOSP Q02  00002PRCP99
0163133890999992000090815004+42980+021950FM-12+023299999V0203201N004012200019N0200001N1+02161+00301101861ADDAA199000091GF106991011021012501001061MA1999999099171MD1310011+9999REMSYN066AAXX  08151 13389 32698 63204 10216 20030 39917 40186 53001 81206;EQDQ01  00002PRCP99
0186133890999992000090818004+42980+021950FM-12+023299999V0203301N003012200019N0200001N1+01801+00381102091ADDAA199000091GF102991001001999999001011KA1999M+02231MA1999999099361MD1210191+9999REMSYN076AAXX  08181 13389 32998 23303 10180 20038 39936 40209 52019 80001 333 10223;EQDQ01  00002PRCP99
0173133890999992000090821004+42980+021950FM-12+023299999V0202201N001012200019N0200001N1+01341+00491102311ADDAA199000091GA1001+999999999GF100991001001999999001001MA1999999099531MD1210171+9999REMSYN060AAXX  08211 13389 32998 02201 10134 20049 39953 40231 52017;EQDQ01  00002PRCP99
0173133890999992000090900004+42980+021950FM-12+023299999V0209999C000012200019N0200001N1+00921+00601102571ADDAA199000091GA1001+999999999GF100991001001999999001001MA1999999099751MD1210221+9999REMSYN060AAXX  09001 13389 32998 00000 10092 20060 39975 40257 52022;EQDQ01  00002PRCP99
0173133890999992000090903004+42980+021950FM-12+023299999V0209999C000012200019N0200001N1+00761+00511102671ADDAA199000091GA1001+999999999GF100991001001999999001001MA1999999099841MD1210091+9999REMSYN060AAXX  09031 13389 32998 00000 10076 20051 39984 40267 52009;EQDQ01  00002PRCP99
0216133890999992000090906004+42980+021950FM-12+023299999V0209999C000012200019N0200001N1+00981+00761102741ADDAA199000091GF102991001001999999001011IA1099IA2999+00409KA1120N+00701MA1999999099921MD1110121+9999REMSYN088AAXX  09061 13389 32998 20000 10098 20076 39992 40274 51012 80001 333 20070 31004 55064;EQDQ01  00002PRCP99
0163133890999992000090909004+42980+021950FM-12+023299999V0203401N002012200019N0200001N1+01691+00641102751ADDAA199000091GF104991001001999999001021MA1999999100001MD1110081+9999REMSYN066AAXX  09091 13389 32998 43402 10169 20064 30000 40275 51008 80002;EQDQ01  00002PRCP99
0163133890999992000090912004+42980+021950FM-12+023299999V0203201N001012200019N0200001N1+02261+00641102531ADDAA199000091GF106991011011012501001061MA1999999099841MD1810161+9999REMSYN066AAXX  09121 13389 32698 63201 10226 20064 39984 40253 58016 81106;EQDQ01  00002PRCP99
0163133890999992000090915004+42980+021950FM-12+023299999V0203201N002010360019N0200001N1+02421+00511102421ADDAA199000091GF107991011011012501071001MA1999999099741MD1710101+9999REMSYN066AAXX  09151 13389 32698 73202 10242 20051 39974 40242 57010 81170;EQDQ01  00002PRCP99
0186133890999992000090918004+42980+021950FM-12+023299999V0202101N002012200019N0200001N1+01781+00941102441ADDAA199000091GF103991031001999999031001KA1999M+02511MA1999999099711MD1510031+9999REMSYN076AAXX  09181 13389 32998 32102 10178 20094 39971 40244 55003 83030 333 10251;EQDQ01  00002PRCP99
0163133890999992000090921004+42980+021950FM-12+023299999V0202001N001012200019N0200001N1+01341+00941102601ADDAA199000091GF101991011001999999031001MA1999999099821MD1210111+9999REMSYN066AAXX  09211 13389 32998 12001 10134 20094 39982 40260 52011 81030;EQDQ01  00002PRCP99
0163133890999992000091000004+42980+021950FM-12+023299999V0202001N002012200019N0200001N1+01101+00831102601ADDAA199000091GF104991021001999999031011MA1999999099801MD1810021+9999REMSYN066AAXX  10001 13389 32998 42002 10110 20083 39980 40260 58002 82031;EQDQ01  00002PRCP99
0163133890999992000091003004+42980+021950FM-12+023299999V0209999C000019999999N0200001N1+01041+00791102571ADDAA199000091GF107991071001999999071001MA1999999099761MD1710041+9999REMSYN066AAXX  10031 13389 32998 70000 10104 20079 39976 40257 57004 87070;EQDQ01  00002PRCP99
0216133890999992000091006004+42980+021950FM-12+023299999V0201801N001012200019N0200001N1+01261+00901102471ADDAA199000091GF103991031001999999031001IA1019IA2999+00809KA1120N+01041MA1999999099691MD1510071+9999REMSYN088AAXX  10061 13389 32998 31801 10126 20090 39969 40247 55007 83030 333 20104 30008 55080;EQDQ01  00002PRCP99
0163133890999992000091009004+42980+021950FM-12+023299999V0203401N001012200019N0200001N1+02031+00701102361ADDAA199000091GF103991011011012501001011MA1999999099651MD1810041+9999REMSYN066AAXX  10091 13389 32698 33401 10203 20070 39965 40236 58004 81101;EQDQ01  00002PRCP99
0163133890999992000091012004+42980+021950FM-12+023299999V0200301N002012200019N0200001N1+02541+00621102021ADDAA199000091GF104991011011012501001011MA1999999099361MD1710291+9999REMSYN066AAXX  10121 13389 32698 40302 10254 20062 39936 40202 57029 81101;EQDQ01  00002PRCP99
0163133890999992000091015004+42980+021950FM-12+023299999V0203401N001010360019N0200001N1+02561+00641101831ADDAA199000091GF107991011011012501071001MA1999999099181MD1710181+9999REMSYN066AAXX  10151 13389 32698 73401 10256 20064 39918 40183 57018 81170;EQDQ01  00002PRCP99
0186133890999992000091018004+42980+021950FM-12+023299999V0201201N002019999999N0200001N1+01971+00901101881ADDAA199000091GF107991071001999999071001KA1999M+02611MA1999999099181MD1510001+9999REMSYN076AAXX  10181 13389 32998 71202 10197 20090 39918 40188 55000 87070 333 10261;EQDQ01  00002PRCP99
0163133890999992000091021004+42980+021950FM-12+023299999V0200201N001010360019N0200001N1+01721+01121101881ADDAA199000091GF108991031051012501071999MA1999999099151MD1810031+9999REMSYN066AAXX  10211 13389 32698 80201 10172 20112 39915 40188 58003 8357/;EQDQ01  00002PRCP99
0163133890999992000091100004+42980+021950FM-12+023299999V0201801N001019999999N0200001N1+01541+01341101831ADDAA199000091GF107991071001999999071001MA1999999099081MD1710071+9999REMSYN066AAXX  11001 13389 32998 71801 10154 20134 39908 40183 57007 87070;EQDQ01  00002PRCP99
0163133890999992000091103004+42980+021950FM-12+023299999V0201901N001019999999N0200001N1+01431+01051101711ADDAA199000091GF107991071001999999071001MA1999999098961MD1710121+9999REMSYN066AAXX  11031 13389 32998 71901 10143 20105 39896 40171 57012 87070;EQDQ01  00002PRCP99
0216133890999992000091106004+42980+021950FM-12+023299999V0202001N001010360019N0200001N1+01541+01031101631ADDAA199000091GF107991041051012501031001IA1019IA2999+01309KA1120N+01431MA1999999098891MD1610071+9999REMSYN088AAXX  11061 13389 32698 72001 10154 20103 39889 40163 56007 84530 333 20143 30013 55058;EQDQ01  00002PRCP99
0163133890999992000091109004+42980+021950FM-12+023299999V0202501N001010360019N0200001N1+01981+00881101581ADDAA199000091GF107991041051012501071001MA1999999098811MD1410001+9999REMSYN066AAXX  11091 13389 32698 72501 10198 20088 39881 40158 54000 84570;EQDQ01  00002PRCP99
0163133890999992000091112004+42980+021950FM-12+023299999V0209999C000010360019N0200001N1+02141+00881101451ADDAA199000091GF107991041051012501071001MA1999999098771MD1810121+9999REMSYN066AAXX  11121 13389 32698 70000 10214 20088 39877 40145 58012 84570;EQDQ01  00002PRCP99
0163133890999992000091115004+42980+021950FM-12+023299999V0201801N002010360019N0200001N1+02141+01001101291ADDAA199000091GF107991031051012501071001MA1999999098611MD1710161+9999REMSYN066AAXX  11151 13389 32698 71802 10214 20100 39861 40129 57016 83570;EQDQ01  00002PRCP99
0186133890999992000091118004+42980+021950FM-12+023299999V0209999C000010360019N0200001N1+01881+01241101321ADDAA199000091GF107991021051012501071001KA1999M+02161MA1999999098631MD1310021+9999REMSYN076AAXX  11181 13389 32698 70000 10188 20124 39863 40132 53002 82570 333 10216;EQDQ01  00002PRCP99
0163133890999992000091121004+42980+021950FM-12+023299999V0202601N001010360019N0200001N1+01721+01021101391ADDAA199000091GF106991041051012501031001MA1999999098671MD1310041+9999REMSYN066AAXX  11211 13389 32698 62601 10172 20102 39867 40139 53004 84530;EQDQ01  00002PRCP99
0163133890999992000091200004+42980+021950FM-12+023299999V0209999C000012200019N0200001N1+01461+01091101441ADDAA199000091GF102991021001999999031001MA1999999098711MD1110041+9999REMSYN066AAXX  12001 13389 32998 20000 10146 20109 39871 40144 51004 82030;EQDQ01  00002PRCP99
0173133890999992000091203004+42980+021950FM-12+023299999V0209999C000012200019N0200001N1+01181+00981101471ADDAA199000091GA1001+999999999GF100991001001999999001001MA1999999098711MD1410001+9999REMSYN060AAXX  12031 13389 32998 00000 10118 20098 39871 40147 54000;EQDQ01  00002PRCP99
0216133890999992000091206004+42980+021950FM-12+023299999V0209999C000012200019N0100001N1+01411+01271101541ADDAA199000091GF102991011011002501031001IA1019IA2999+00809KA1120N+01111MA1999999098791MD1310081+9999REMSYN088AAXX  12061 13389 32397 20000 10141 20127 39879 40154 53008 81130 333 20111 30008 55000;EQDQ01  00002PRCP99
0163133890999992000091209004+42980+021950FM-12+023299999V0203201N002012200019N0200001N1+02141+00771101461ADDAA199000091GF102991001001999999001011MA1999999098781MD1810011+9999REMSYN066AAXX  12091 13389 32998 23202 10214 20077 39878 40146 58001 80001;EQDQ01  00002PRCP99
0163133890999992000091212004+42980+021950FM-12+023299999V0203101N004012200019N0200001N1+02541+00561101321ADDAA199000091GF102991011011012501001011MA1999999098681MD1710101+9999REMSYN066AAXX  12121 13389 32698 23104 10254 20056 39868 40132 57010 81101;EQDQ01  00002PRCP99
0164133890999992000091215004+42980+021950FM-12+023299999V0203401N003012200019N0200001N1+02601+00511101251ADDAA199000091GF103991021081012501001011MD1710061+9999REMSYN066AAXX  12151 13389 32698 33403 10260 20051 39682 40125 57006 82801;EQDQ01+096823APOSP Q02  00002PRCP99
0186133890999992000091218004+42980+021950FM-12+023299999V0203301N002012200019N0200001N1+02081+00471101381ADDAA199000091GF101991011001999999031001KA1999M+02661MA1999999098701MD1310081+9999REMSYN076AAXX  12181 13389 32998 13302 10208 20047 39870 40138 53008 81030 333 10266;EQDQ01  00002PRCP99
0173133890999992000091221004+42980+021950FM-12+023299999V0209999C000012200019N0200001N1+01411+00861101611ADDAA199000091GA1001+999999999GF100991001001999999001001MA1999999098861MD1210161+9999REMSYN060AAXX  12211 13389 32998 00000 10141 20086 39886 40161 52016;EQDQ01  00002PRCP99
0173133890999992000091300004+42980+021950FM-12+023299999V0209999C000012200019N0200001N1+01061+00811101691ADDAA199000091GA1001+999999999GF100991001001999999001001MA1999999098911MD1110051+9999REMSYN060AAXX  13001 13389 32998 00000 10106 20081 39891 40169 51005;EQDQ01  00002PRCP99
0173133890999992000091303004+42980+021950FM-12+023299999V0209999C000012200019N0200001N1+00861+00681101751ADDAA199000091GA1001+999999999GF100991001001999999001001MA1999999098951MD1310041+9999REMSYN060AAXX  13031 13389 32998 00000 10086 20068 39895 40175 53004;EQDQ01  00002PRCP99
0226133890999992000091306004+42980+021950FM-12+023299999V0209999C000012200019N0200001N1+01061+00901101801ADDAA199000091GA1001+999999999GF100991001001999999001001IA1019IA2999+05009KA1120N+00801MA1999999099021MD1210071+9999REMSYN082AAXX  13061 13389 32998 00000 10106 20090 39902 40180 52007 333 20080 30050 55107;EQDQ01  00002PRCP99
0163133890999992000091309004+42980+021950FM-12+023299999V0203201N001012200019N0200001N1+02071+00851101691ADDAA199000091GF101991011011012501001001MA1999999099001MD1810021+9999REMSYN066AAXX  13091 13389 32698 13201 10207 20085 39900 40169 58002 81100;EQDQ01  00002PRCP99
0163133890999992000091312004+42980+021950FM-12+023299999V0200401N002012200019N0200001N1+02681+00511101481ADDAA199000091GF101991011011012501001001MA1999999098851MD1710151+9999REMSYN066AAXX  13121 13389 32698 10402 10268 20051 39885 40148 57015 81100;EQDQ01  00002PRCP99
0163133890999992000091315004+42980+021950FM-12+023299999V0203001N002012200019N0200001N1+02831+00471101301ADDAA199000091GF101991011011012501001001MA1999999098681MD1710171+9999REMSYN066AAXX  13151 13389 32698 13002 10283 20047 39868 40130 57017 81100;EQDQ01  00002PRCP99
0196133890999992000091318004+42980+021950FM-12+023299999V0201801N001012200019N0200001N1+01951+00971101421ADDAA199000091GA1001+999999999GF100991001001999999001001KA1999M+02861MA1999999098731MD1310051+9999REMSYN070AAXX  13181 13389 32998 01801 10195 20097 39873 40142 53005 333 10286;EQDQ01  00002PRCP99
0173133890999992000091321004+42980+021950FM-12+023299999V0201801N001012200019N0200001N1+01361+01061101571ADDAA199000091GA1001+999999999GF100991001001999999001001MA1999999098821MD1110091+9999REMSYN060AAXX  13211 13389 32998 01801 10136 20106 39882 40157 51009;EQDQ01  00002PRCP99
0173133890999992000091400004+42980+021950FM-12+023299999V0201701N001012200019N0200001N1+01121+00851101661ADDAA199000091GA1001+999999999GF100991001001999999001001MA1999999098881MD1110061+9999REMSYN060AAXX  14001 13389 32998 01701 10112 20085 39888 40166 51006;EQDQ01  00002PRCP99
0173133890999992000091403004+42980+021950FM-12+023299999V0209999C000012200019N0200001N1+01001+00741101691ADDAA199000091GA1001+999999999GF100991001001999999001001MA1999999098881MD1410001+9999REMSYN060AAXX  14031 13389 32998 00000 10100 20074 39888 40169 54000;EQDQ01  00002PRCP99
0226133890999992000091406004+42980+021950FM-12+023299999V0201801N001012200019N0200001N1+01181+00851101651ADDAA199000091GA1001+999999999GF100991001001999999001001IA1019IA2999+00609KA1120N+00861MA1999999098881MD1410001+9999REMSYN082AAXX  14061 13389 32998 01801 10118 20085 39888 40165 54000 333 20086 30006 55112;EQDQ01  00002PRCP99
0163133890999992000091409004+42980+021950FM-12+023299999V0209999C000012200019N0200001N1+02261+00721101611ADDAA199000091GF101991001001999999001011MA1999999098941MD1010061+9999REMSYN066AAXX  14091 13389 32998 10000 10226 20072 39894 40161 50006 80001;EQDQ01  00002PRCP99
0163133890999992000091412004+42980+021950FM-12+023299999V0203601N002012200019N0200001N1+02821+00681101411ADDAA199000091GF102991011011012501001011MA1999999098791MD1710151+9999REMSYN066AAXX  14121 13389 32698 23602 10282 20068 39879 40141 57015 81101;EQDQ01  00002PRCP99
0163133890999992000091415004+42980+021950FM-12+023299999V0203401N002012200019N0200001N1+02901+00491101271ADDAA199000091GF103991011011012501001011MA1999999098661MD1710131+9999REMSYN066AAXX  14151 13389 32698 33402 10290 20049 39866 40127 57013 81101;EQDQ01  00002PRCP99
0186133890999992000091418004+42980+021950FM-12+023299999V0203201N002012200019N0200001N1+02031+00901101421ADDAA199000091GF101991001001999999001011KA1999M+02931MA1999999098731MD1310031+9999REMSYN076AAXX  14181 13389 32998 13202 10203 20090 39873 40142 53003 80001 333 10293;EQDQ01  00002PRCP99
0163133890999992000091421004+42980+021950FM-12+023299999V0209999C000012200019N0200001N1+01461+01001101611ADDAA199000091GF101991011001999999031001MA1999999098871MD1210141+9999REMSYN066AAXX  14211 13389 32998 10000 10146 20100 39887 40161 52014 81030;EQDQ01  00002PRCP99
0163133890999992000091500004+42980+021950FM-12+023299999V0209999C000012200019N0200001N1+01321+01111101701ADDAA199000091GF101991011011012501001001MA1999999098941MD1210071+9999REMSYN066AAXX  15001 13389 32698 10000 10132 20111 39894 40170 52007 81100;EQDQ01  00002PRCP99
0172133890999992000091503004+42980+021950FM-12+023299999V0201601N002010150019N0200001N1+01341+01181101701ADDAA199000021AY161031AY221031GF107991071081012501001001MA1999999098941MD1410001+9999MW1611REMSYN072AAXX  15031 13389 31698 71602 10134 20118 39894 40170 54000 76162 87800;
0231133890999992000091506004+42980+021950FM-12+023299999V0209999C000010150019N0200001N1+01521+01351101751ADDAA112002091AY161061AY211061GF106991061081012501001001IA1099IA2999+01009KA1120N+01251MA1999999099121MD1310081+9999MW1021REMSYN100AAXX  15061 13389 11698 60000 10152 20135 39912 40175 53008 60022 70261 86800 333 20125 31010 55108;
0144133890999992000091509004+42980+021950FM-12+023299999V0202701N001012200019N0200001N1+02321+00981101661ADDAA199000021GF102991021021012501001001MA1999999098991MD1810031+9999REMSYN066AAXX  15091 13389 32698 22701 10232 20098 39899 40166 58003 82200;
0144133890999992000091512004+42980+021950FM-12+023299999V0203601N002012200019N0200001N1+02681+00861101471ADDAA199000021GF104991041021012501001001MA1999999098841MD1710151+9999REMSYN066AAXX  15121 13389 32698 43602 10268 20086 39884 40147 57015 84200;
0144133890999992000091515004+42980+021950FM-12+023299999V0203601N003012200019N0200001N1+02701+00861101391ADDAA199000021GF103991031021012501001011MA1999999098761MD1710081+9999REMSYN066AAXX  15151 13389 32698 33603 10270 20086 39876 40139 57008 83201;
0186133890999992000091518004+42980+021950FM-12+023299999V0203301N001019999999N0200001N1+02141+00941101501ADDAA199000091GF107991071001999999031001KA1999M+02741MA1999999098821MD1310061+9999REMSYN076AAXX  15181 13389 32998 73301 10214 20094 39882 40150 53006 87030 333 10274;EQDQ01  00002PRCP99
0163133890999992000091521004+42980+021950FM-12+023299999V0201601N001012200019N0200001N1+01601+01211101721ADDAA199000091GF101991011001999999031001MA1999999098991MD1210171+9999REMSYN066AAXX  15211 13389 32998 11601 10160 20121 39899 40172 52017 81030;EQDQ01  00002PRCP99
0163133890999992000091600004+42980+021950FM-12+023299999V0201801N001012200019N0200001N1+01361+01151101741ADDAA199000091GF104991041001999999031001MA1999999098991MD1410001+9999REMSYN066AAXX  16001 13389 32998 41801 10136 20115 39899 40174 54000 84030;EQDQ01  00002PRCP99
0163133890999992000091603004+42980+021950FM-12+023299999V0201701N001012200019N0200001N1+01261+01061101751ADDAA199000091GF101991011001999999031001MA1999999098991MD1410001+9999REMSYN066AAXX  16031 13389 32998 11701 10126 20106 39899 40175 54000 81030;EQDQ01  00002PRCP99
0226133890999992000091606004+42980+021950FM-12+023299999V0209999C000012200019N0200001N1+01341+01151101791ADDAA199000091GA1001+999999999GF100991001001999999001001IA1019IA2999+01009KA1120N+01161MA1999999099031MD1310041+9999REMSYN082AAXX  16061 13389 32998 00000 10134 20115 39903 40179 53004 333 20116 30010 55109;EQDQ01  00002PRCP99
0173133890999992000091609004+42980+021950FM-12+023299999V0203401N002012200019N0200001N1+02181+00981101641ADDAA199000091GA1001+999999999GF100991001001999999001001MA1999999098961MD1810071+9999REMSYN060AAXX  16091 13389 32998 03402 10218 20098 39896 40164 58007;EQDQ01  00002PRCP99
0163133890999992000091612004+42980+021950FM-12+023299999V0201601N002012200019N0200001N1+02781+00811101411ADDAA199000091GF102991021021012501001001MA1999999098791MD1710171+9999REMSYN066AAXX  16121 13389 32698 21602 10278 20081 39879 40141 57017 82200;EQDQ01  00002PRCP99
0163133890999992000091615004+42980+021950FM-12+023299999V0200201N001012200019N0200001N1+02861+00771101131ADDAA199000091GF102991021011012501001011MA1999999098531MD1710261+9999REMSYN066AAXX  16151 13389 32698 20201 10286 20077 39853 40113 57026 82101;EQDQ01  00002PRCP99
0196133890999992000091618004+42980+021950FM-12+023299999V0201401N001012200019N0200001N1+02061+01121101161ADDAA199000091GA1001+999999999GF100991001001999999001001KA1999M+02901MA1999999098491MD1610041+9999REMSYN070AAXX  16181 13389 32998 01401 10206 20112 39849 40116 56004 333 10290;EQDQ01  00002PRCP99
0173133890999992000091621004+42980+021950FM-12+023299999V0201301N001012200019N0200001N1+01581+01201101231ADDAA199000091GA1001+999999999GF100991001001999999001001MA1999999098511MD1110031+9999REMSYN060AAXX  16211 13389 32998 01301 10158 20120 39851 40123 51003;EQDQ01  00002PRCP99
0173133890999992000091700004+42980+021950FM-12+023299999V0202101N001012200019N0200001N1+01341+01091101231ADDAA199000091GA1001+999999999GF100991001001999999001001MA1999999098511MD1410001+9999REMSYN060AAXX  17001 13389 32998 02101 10134 20109 39851 40123 54000;EQDQ01  00002PRCP99
0163133890999992000091703004+42980+021950FM-12+023299999V0201801N001012200019N0200001N1+01201+01021101231ADDAA199000091GF102991001001999999001011MA1999999098471MD1810041+9999REMSYN066AAXX  17031 13389 32998 21801 10120 20102 39847 40123 58004 80001;EQDQ01  00002PRCP99
0216133890999992000091706004+42980+021950FM-12+023299999V0201801N001019999999N0200001N1+01321+01171101281ADDAA199000091GF105991021001999999031011IA1019IA2999+00909KA1120N+01161MA1999999098531MD1210061+9999REMSYN088AAXX  17061 13389 32998 51801 10132 20117 39853 40128 52006 82031 333 20116 30009 55111;EQDQ01  00002PRCP99
0163133890999992000091709004+42980+021950FM-12+023299999V0201401N002010360019N0200001N1+02361+01201101131ADDAA199000091GF107991011011012501031061MA1999999098481MD1810051+9999REMSYN066AAXX  17091 13389 32698 71402 10236 20120 39848 40113 58005 81136;EQDQ01  00002PRCP99
0163133890999992000091712004+42980+021950FM-12+023299999V0202001N005012200019N0200001N1+02981+01061100831ADDAA199000091GF104991011011012501031011MA1999999098251MD1710231+9999REMSYN066AAXX  17121 13389 32698 42005 10298 20106 39825 40083 57023 81131;EQDQ01  00002PRCP99
0163133890999992000091715004+42980+021950FM-12+023299999V0202301N003010360019N0200001N1+02941+01091100701ADDAA199000091GF106991031021012501031011MA1999999098111MD1710111+9999REMSYN066AAXX  17151 13389 32698 62303 10294 20109 39811 40070 57011 83231;EQDQ01  00002PRCP99
0186133890999992000091718004+42980+021950FM-12+023299999V0202801N002010360019N0200001N1+02401+00771100851ADDAA199000091GF107991031081012501031011KA1999M+03031MA1999999098211MD1310101+9999REMSYN076AAXX  17181 13389 32698 72802 10240 20077 39821 40085 53010 83831 333 10303;EQDQ01  00002PRCP99
0163133890999992000091721004+42980+021950FM-12+023299999V0202301N002010360019N0200001N1+01761+01241101211ADDAA199000091GF106991041081012501031001MA1999999098511MD1210301+9999REMSYN066AAXX  17211 13389 32698 62302 10176 20124 39851 40121 52030 84830;EQDQ01  00002PRCP99
0173133890999992000091800004+42980+021950FM-12+023299999V0202101N001012200019N0200001N1+01341+01181101231ADDAA199000091GA1001+999999999GF100991001001999999001001MA1999999098481MD1810031+9999REMSYN060AAXX  18001 13389 32998 02101 10134 20118 39848 40123 58003;EQDQ01  00002PRCP99
0163133890999992000091803004+42980+021950FM-12+023299999V0201901N002010150019N0200001N1+01391+01231101291ADDAA199000091GF107991071081012501001001MA1999999098551MD1310071+9999REMSYN066AAXX  18031 13389 32698 71902 10139 20123 39855 40129 53007 87800;EQDQ01  00002PRCP99
0231133890999992000091806004+42980+021950FM-12+023299999V0203401N004010120019N0100001N1+01471+01341101411ADDAA112000391AY191061AY261061GF107991071091012501001001IA1019IA2999+01009KA1120N+01301MA1999999098681MD1210131+9999MW1171REMSYN100AAXX  18061 13389 11697 73404 10147 20134 39868 40141 52013 69932 71796 87900 333 20130 30010 55028;
0191133890999992000091809004+42980+021950FM-12+023299999V0203601N002012200019N0200001N1+02171+01551101211ADDAA199000091AY101031AY281031GF102991011021012501001011MA1999999098551MD1810131+9999MW1031REMSYN072AAXX  18091 13389 31698 23602 10217 20155 39855 40121 58013 70308 81201;EQDQ01  00002PRCP99
0178133890999992000091812004+42980+021950FM-12+023299999V0201601N002012200019N0200001N1+02891+01211100931ADDAA106001091AY101061AY281061GF104991011021012501001011MA1999999098331MD1710221+9999MW1031REMSYN078AAXX  18121 13389 11698 41602 10289 20121 39833 40093 57022 60011 70308 81201;
0163133890999992000091815004+42980+021950FM-12+023299999V0202801N003010900019N0200001N1+02041+01111100791ADDAA199000091GF105991011021012501031011MA1999999098211MD1710121+9999REMSYN066AAXX  18151 13389 32698 52803 10204 20111 39821 40079 57012 81231;EQDQ01  00002PRCP99
0173133890999992000091818004+42980+021950FM-12+023299999V0209999C000019999999N0200001N1+02281+01441100861ADDAA112001091GF108991081001999999071999KA1999M+03051MA1999999098211MD1510001+9999REMSYN082AAXX  18181 13389 12998 80000 10228 20144 39821 40086 55000 60012 8807/ 333 10305;
0163133890999992000091821004+42980+021950FM-12+023299999V0209999C000012200019N0200001N1+01901+01241101041ADDAA199000091GF102991021001999999031001MA1999999098351MD1210141+9999REMSYN066AAXX  18211 13389 32998 20000 10190 20124 39835 40104 52014 82030;EQDQ01  00002PRCP99
0163133890999992000091900004+42980+021950FM-12+023299999V0201201N002019999999N0200001N1+01821+01311101091ADDAA199000091GF108991081001999999071999MA1999999098391MD1210041+9999REMSYN066AAXX  19001 13389 32998 81202 10182 20131 39839 40109 52004 8807/;EQDQ01  00002PRCP99
0172133890999992000091903004+42980+021950FM-12+023299999V0201401N003012200019N0200001N1+01661+01351101111ADDAA199000021AY161031AY291031GF101991011001999999031001MA1999999098411MD1010021+9999MW1211REMSYN072AAXX  19031 13389 31998 11403 10166 20135 39841 40111 50002 72169 81030;
0203133890999992000091906004+42980+021950FM-12+023299999V0209999C000010150019N0200001N1+01661+01541101231ADDAA112002091GF107991071081012501001001IA1099IA2999+01209KA1120N+01481MA1999999098531MD1310121+9999REMSYN094AAXX  19061 13389 11698 70000 10166 20154 39853 40123 53012 60022 87800 333 20148 31012 55074;
0144133890999992000091909004+42980+021950FM-12+023299999V0201501N002010150019N0200001N1+02011+01491101361ADDAA199000021GF107991071081012501001001MA1999999098681MD1210151+9999REMSYN066AAXX  19091 13389 32698 71502 10201 20149 39868 40136 52015 87800;
0188133890999992000091912004+42980+021950FM-12+023299999V0203201N006010075019N0040001N1+02161+01891101391ADDAA106000591AY191061AY281061GF108991081091008001999999MA1999999098731MD1210051+9999MW1951REMSYN088AAXX  19121 13389 11596 83206 10216 20189 39873 40139 52005 69961 79598 889// 333 91118;
0201133890999992000091918004+42980+021950FM-12+023299999V0200801N002010150019N0200001N1+01741+01601101391ADDAA112019191AY191061AY281061GF107991071081012501001001KA1999M+02341MA1999999098681MD1110041+9999MW1021REMSYN088AAXX  19181 13389 11698 70802 10174 20160 39868 40139 51004 60192 70298 87800 333 10234;
0172133890999992000091921004+42980+021950FM-12+023299999V0209999C000010150019N0100001N1+01711+01651101451ADDAA199000021AY161031AY221031GF108991081081012501999999MA1999999098741MD1310061+9999MW1611REMSYN072AAXX  19211 13389 31697 80000 10171 20165 39874 40145 53006 76162 888//;
0178133890999992000092000004+42980+021950FM-12+023299999V0209999C000012200019N0200001N1+01541+01491101531ADDAA106000591AY111061AY261061GF101991011001999999031001MA1999999098801MD1110061+9999MW1021REMSYN078AAXX  20001 13389 11998 10000 10154 20149 39880 40153 51006 69941 70216 81030;
0154133890999992000092003004+42980+021950FM-12+023299999V0209999C000012200019N0200001N1+01461+01391101511ADDAA199000021GA1001+999999999GF100991001001999999001001MA1999999098781MD1810021+9999REMSYN060AAXX  20031 13389 32998 00000 10146 20139 39878 40151 58002;
0203133890999992000092006004+42980+021950FM-12+023299999V0209999C000012200019N0200001N1+01541+01481101581ADDAA112000591GF101991011001999999031001IA1099IA2999+01209KA1120N+01371MA1999999098851MD1310071+9999REMSYN094AAXX  20061 13389 12998 10000 10154 20148 39885 40158 53007 69942 81030 333 20137 31012 55010;
0144133890999992000092009004+42980+021950FM-12+023299999V0201101N002010360019N0200001N1+02301+01301101541ADDAA199000021GF106991041081012501031001MA1999999098871MD1110021+9999REMSYN066AAXX  20091 13389 32698 61102 10230 20130 39887 40154 51002 84830;
0163133890999992000092012004+42980+021950FM-12+023299999V0200701N001010150019N0200001N1+02541+01311101411ADDAA199000091GF107991071081012501001001MA1999999098771MD1710101+9999REMSYN066AAXX  20121 13389 32698 70701 10254 20131 39877 40141 57010 87800;EQDQ01  00002PRCP99
0163133890999992000092015004+42980+021950FM-12+023299999V0202101N002010150019N0200001N1+02521+01311101311ADDAA199000091GF107991071081012501001001MA1999999098671MD1710101+9999REMSYN066AAXX  20151 13389 32698 72102 10252 20131 39867 40131 57010 87800;EQDQ01  00002PRCP99
0186133890999992000092018004+42980+021950FM-12+023299999V0209999C000012200019N0200001N1+02001+01581101351ADDAA199000091GF103991031001999999031001KA1999M+02541MA1999999098671MD1410001+9999REMSYN076AAXX  20181 13389 32998 30000 10200 20158 39867 40135 54000 83030 333 10254;EQDQ01  00002PRCP99
0173133890999992000092021004+42980+021950FM-12+023299999V0209999C000012200019N0200001N1+01901+01501101441ADDAA199000091GA1001+999999999GF100991001001999999001001MA1999999098751MD1210081+9999REMSYN060AAXX  20211 13389 32998 00000 10190 20150 39875 40144 52008;EQDQ01  00002PRCP99
0173133890999992000092100004+42980+021950FM-12+023299999V0202001N002012200019N0200001N1+01561+01391101471ADDAA199000091GA1001+999999999GF100991001001999999001001MA1999999098751MD1410001+9999REMSYN060AAXX  21001 13389 32998 02002 10156 20139 39875 40147 54000;EQDQ01  00002PRCP99
0173133890999992000092103004+42980+021950FM-12+023299999V0209999C000012200019N0200001N1+01441+01341101331ADDAA199000091GA1001+999999999GF100991001001999999001001MA1999999098591MD1710161+9999REMSYN060AAXX  21031 13389 32998 00000 10144 20134 39859 40133 57016;EQDQ01  00002PRCP99
0216133890999992000092106004+42980+021950FM-12+023299999V0209999C000012200019N0200001N1+01581+01491101351ADDAA199000091GF102991001001999999001011IA1099IA2999+01109KA1120N+01301MA1999999098631MD1110041+9999REMSYN088AAXX  21061 13389 32998 20000 10158 20149 39863 40135 51004 80001 333 20130 31011 55018;EQDQ01  00002PRCP99
0163133890999992000092109004+42980+021950FM-12+023299999V0200301N001012200019N0200001N1+02761+01111101201ADDAA199000091GF101991001001999999001011MA1999999098591MD1810041+9999REMSYN066AAXX  21091 13389 32998 10301 10276 20111 39859 40120 58004 80001;EQDQ01  00002PRCP99
0163133890999992000092112004+42980+021950FM-12+023299999V0202201N003010150019N0200001N1+03421+00901100941ADDAA199000091GF107991071081012501001001MA1999999098381MD1710211+9999REMSYN066AAXX  21121 13389 32698 72203 10342 20090 39838 40094 57021 87800;EQDQ01  00002PRCP99
0163133890999992000092115004+42980+021950FM-12+023299999V0202601N003010360019N0200001N1+02831+00661100891ADDAA199000091GF107991041081012501071001MA1999999098291MD1710091+9999REMSYN066AAXX  21151 13389 32698 72603 10283 20066 39829 40089 57009 84870;EQDQ01  00002PRCP99
0186133890999992000092118004+42980+021950FM-12+023299999V0209999C000012200019N0200001N1+02201+01141100951ADDAA199000091GF104991041081012501001001KA1999M+03421MA1999999098291MD1510001+9999REMSYN076AAXX  21181 13389 32698 40000 10220 20114 39829 40095 55000 84800 333 10342;EQDQ01  00002PRCP99
0163133890999992000092121004+42980+021950FM-12+023299999V0202001N001010120019N0200001N1+01701+01431101051ADDAA199000091GF107991051051012501031001MA1999999098351MD1210061+9999REMSYN066AAXX  21211 13389 32698 72001 10170 20143 39835 40105 52006 85530;EQDQ01  00002PRCP99
0231133890999992000092206004+42980+021950FM-12+023299999V0201601N001012200019N0200001N1+01401+01271101361ADDAA112000591AY111061AY261061GF103991011021012501031001IA1099IA2999+01009KA1120N+01331MA1999999098621MD1310111+9999MW1021REMSYN100AAXX  22061 13389 11698 31601 10140 20127 39862 40136 53011 69942 70216 81230 333 20133 31010 55058;
0163133890999992000092212004+42980+021950FM-12+023299999V0203001N005012200019N0200001N1+02151+01091101451ADDAA199000091GF103991031081012501001001MA1999999098781MD1010011+9999REMSYN066AAXX  22121 13389 32698 33005 10215 20109 39878 40145 50001 83800;EQDQ01  00002PRCP99
0163133890999992000092215004+42980+021950FM-12+023299999V0203201N004010150019N0200001N1+01711+01001101631ADDAA199000091GF107991071081012501001001MA1999999098911MD1310131+9999REMSYN066AAXX  22151 13389 32698 73204 10171 20100 39891 40163 53013 87800;EQDQ01  00002PRCP99
0201133890999992000092218004+42980+021950FM-12+023299999V0202401N003010150019N0200001N1+01431+01051101881ADDAA112000791AY111061AY261061GF108991081081012501999999KA1999M+02171MA1999999099131MD1310221+9999MW1021REMSYN088AAXX  22181 13389 11698 82403 10143 20105 39913 40188 53022 69902 70216 888// 333 10217;
0172133890999992000092221004+42980+021950FM-12+023299999V0203001N003010120019N0200001N1+01241+01141101961ADDAA199000021AY161031AY261031GF107991071081008001001001MA1999999099181MD1010051+9999MW1211REMSYN072AAXX  22211 13389 31598 73003 10124 20114 39918 40196 50005 72166 87800;
0178133890999992000092300004+42980+021950FM-12+023299999V0203201N003010360019N0100001N1+01221+01151101991ADDAA106007191AY161061AY221061GF108991021071008001021999MA1999999099211MD1110031+9999MW1611REMSYN078AAXX  23001 13389 11597 83203 10122 20115 39921 40199 51003 60071 76162 8272/;
0172133890999992000092303004+42980+021950FM-12+023299999V0203401N003010075019N0100001N1+01231+01121101941ADDAA199000021AY121031AY261031GF108991081061008001999999MA1999999099161MD1810051+9999MW1021REMSYN072AAXX  23031 13389 31597 83403 10123 20112 39916 40194 58005 70226 886//;
0231133890999992000092306004+42980+021950FM-12+023299999V0203301N003010075019N0100001N1+01281+01061101991ADDAA112007991AY121061AY261061GF108991081061008001999999IA1099IA2999+01209KA1120N+01221MA1999999099221MD1310061+9999MW1021REMSYN100AAXX  23061 13389 11597 83303 10128 20106 39922 40199 53006 60082 70226 886// 333 20122 31012 55046;
0178133890999992000092312004+42980+021950FM-12+023299999V0203301N003010075019N0100001N1+01421+00681102091ADDAA106000591AY121061AY261061GF108991081061008001999999MA1999999099331MD1410001+9999MW1021REMSYN078AAXX  23121 13389 11597 83303 10142 20068 39933 40209 54000 69951 70226 886//;
0163133890999992000092315004+42980+021950FM-12+023299999V0203101N003010120019N0100001N1+01361+00771102031ADDAA199000091GF108991081081008001999999MA1999999099271MD1610061+9999REMSYN066AAXX  23151 13389 32597 83103 10136 20077 39927 40203 56006 888//;EQDQ01  00002PRCP99
0173133890999992000092318004+42980+021950FM-12+023299999V0203001N002010120019N0100001N1+01261+00701102151ADDAA112000591GF108991081051012501999999KA1999M+01471MA1999999099381MD1310111+9999REMSYN082AAXX  23181 13389 12697 83002 10126 20070 39938 40215 53011 69952 885// 333 10147;
0163133890999992000092321004+42980+021950FM-12+023299999V0209999C000010360019N0100001N1+01191+00761102271ADDAA199000091GF108991041051012501071999MA1999999099381MD1110101+9999REMSYN066AAXX  23211 13389 32697 80000 10119 20076 39938 40227 51010 8457/;EQDQ01  00002PRCP99
0163133890999992000092400004+42980+021950FM-12+023299999V0209999C000010120019N0100001N1+01161+00791102271ADDAA199000091GF108991081051012501999999MA1999999099481MD1410001+9999REMSYN066AAXX  24001 13389 32697 80000 10116 20079 39948 40227 54000 885//;EQDQ01  00002PRCP99
0163133890999992000092403004+42980+021950FM-12+023299999V0209999C000010120019N0100001N1+01141+00721102271ADDAA199000091GF108991081051012501999999MA1999999099471MD1810011+9999REMSYN066AAXX  24031 13389 32697 80000 10114 20072 39947 40227 58001 885//;EQDQ01  00002PRCP99
0216133890999992000092406004+42980+021950FM-12+023299999V0202101N001010360019N0100001N1+01171+00721102311ADDAA199000091GF107991031051012501071001IA1099IA2999+01009KA1120N+01091MA1999999099521MD1310051+9999REMSYN088AAXX  24061 13389 32697 72101 10117 20072 39952 40231 53005 83570 333 20109 31010 55000;EQDQ01  00002PRCP99
0163133890999992000092409004+42980+021950FM-12+023299999V0203201N002010360019N0200001N1+01401+00471102331ADDAA199000091GF106991031081012501031001MA1999999099561MD1110041+9999REMSYN066AAXX  24091 13389 32698 63202 10140 20047 39956 40233 51004 83830;EQDQ01  00002PRCP99
0163133890999992000092412004+42980+021950FM-12+023299999V0200201N002012200019N0200001N1+01821+00511102191ADDAA199000091GF104991041021008001001001MA1999999099461MD1810101+9999REMSYN066AAXX  24121 13389 32598 40202 10182 20051 39946 40219 58010 84200;EQDQ01  00002PRCP99
0163133890999992000092415004+42980+021950FM-12+023299999V0203101N003012200019N0200001N1+01801+00381102171ADDAA199000091GF104991031081012501031001MA1999999099441MD1610021+9999REMSYN066AAXX  24151 13389 32698 43103 10180 20038 39944 40217 56002 83830;EQDQ01  00002PRCP99
0186133890999992000092418004+42980+021950FM-12+023299999V0202901N002010150019N0200001N1+01461+00381102261ADDAA199000091GF105991051081012501001001KA1999M+01861MA1999999099501MD1310061+9999REMSYN076AAXX  24181 13389 32698 52902 10146 20038 39950 40226 53006 85800 333 10186;EQDQ01  00002PRCP99
0174133890999992000092421004+42980+021950FM-12+023299999V0200901N002012200019N0200001N1+01201+00831102401ADDAA199000091GA1001+999999999GF100991001001999999001001MD1210091+9999REMSYN060AAXX  24211 13389 32998 00902 10120 20083 39726 40240 52009;EQDQ01+097263APOSP Q02  00002PRCP99
0173133890999992000092500004+42980+021950FM-12+023299999V0209999C000012200019N0200001N1+00781+00451102451ADDAA199000091GA1001+999999999GF100991001001999999001001MA1999999099621MD1410001+9999REMSYN060AAXX  25001 13389 32998 00000 10078 20045 39962 40245 54000;EQDQ01  00002PRCP99
0163133890999992000092503004+42980+021950FM-12+023299999V0202301N001012200019N0200001N1+00621+00491102471ADDAA199000091GF103991031001999999031001MA1999999099621MD1410001+9999REMSYN066AAXX  25031 13389 32998 32301 10062 20049 39962 40247 54000 83030;EQDQ01  00002PRCP99
0216133890999992000092506004+42980+021950FM-12+023299999V0209999C000010360019N0100001N1+00821+00721102491ADDAA199000091GF107991021051012501071001IA1099IA2999+00309KA1120N+00621MA1999999099661MD1110041+9999REMSYN088AAXX  25061 13389 32697 70000 10082 20072 39966 40249 51004 82570 333 20062 31003 55065;EQDQ01  00002PRCP99
0163133890999992000092509004+42980+021950FM-12+023299999V0203201N001010150019N0100001N1+01201+00831102511ADDAA199000091GF107991071081012501001001MA1999999099721MD1110061+9999REMSYN066AAXX  25091 13389 32697 73201 10120 20083 39972 40251 51006 87800;EQDQ01  00002PRCP99
0163133890999992000092512004+42980+021950FM-12+023299999V0203101N002012200019N0100001N1+01701+00921102321ADDAA199000091GF101991011011012501001001MA1999999099581MD1810141+9999REMSYN066AAXX  25121 13389 32697 13102 10170 20092 39958 40232 58014 81100;EQDQ01  00002PRCP99
0163133890999992000092515004+42980+021950FM-12+023299999V0203301N002012200019N0200001N1+01891+00771102191ADDAA199000091GF101991011011012501001001MA1999999099471MD1610111+9999REMSYN066AAXX  25151 13389 32698 13302 10189 20077 39947 40219 56011 81100;EQDQ01  00002PRCP99
0202133890999992000092518004+42980+021950FM-12+023299999V0203201N002010360019N0200001N1+01561+00741999999ADDAA199000091GF107991041051012501031001KA1999M+01931MA1999999099541MD1310071+9999REMSYN076AAXX  25181 13389 32698 73202 10156 20074 39954 40129 53007 84530 333 10193;EQDQ01+101293APOSLPQ02  00002PRCP99
0173133890999992000092521004+42980+021950FM-12+023299999V0202001N001012200019N0200001N1+01021+00831102281ADDAA199000091GA1001+999999999GF100991001001999999001001MA1999999099671MD1210131+9999REMSYN060AAXX  25211 13389 32998 02001 10102 20083 39967 40228 52013;EQDQ01  00002PRCP99
0173133890999992000092600004+42980+021950FM-12+023299999V0209999C000012200019N0200001N1+00691+00601102571ADDAA199000091GA1001+999999999GF100991001001999999001001MA1999999099731MD1210061+9999REMSYN060AAXX  26001 13389 32998 00000 10069 20060 39973 40257 52006;EQDQ01  00002PRCP99
0173133890999992000092603004+42980+021950FM-12+023299999V0209999C000012200019N0200001N1+00481+00451102591ADDAA199000091GA1001+999999999GF100991001001999999001001MA1999999099731MD1410001+9999REMSYN060AAXX  26031 13389 32998 00000 10048 20045 39973 40259 54000;EQDQ01  00002PRCP99
0216133890999992000092606004+42980+021950FM-12+023299999V0209999C000012200019N0200001N1+00641+00531102661ADDAA199000091GF102991021001999999031001IA1099IA2999+00209KA1120N+00401MA1999999099811MD1310081+9999REMSYN088AAXX  26061 13389 32998 20000 10064 20053 39981 40266 53008 82030 333 20040 31002 55073;EQDQ01  00002PRCP99
0163133890999992000092609004+42980+021950FM-12+023299999V0203201N002012200019N0200001N1+01491+00901102591ADDAA199000091GF102991011021012501031001MA1999999099831MD1010021+9999REMSYN066AAXX  26091 13389 32698 23202 10149 20090 39983 40259 50002 81230;EQDQ01  00002PRCP99
0163133890999992000092612004+42980+021950FM-12+023299999V0203401N003012200019N0200001N1+01861+00641102381ADDAA199000091GF104991041021012501001001MA1999999099661MD1710171+9999REMSYN066AAXX  26121 13389 32698 43403 10186 20064 39966 40238 57017 84200;EQDQ01  00002PRCP99
0163133890999992000092615004+42980+021950FM-12+023299999V0203401N004012200019N0200001N1+01821+00491102271ADDAA199000091GF104991041081012501001001MA1999999099541MD1710121+9999REMSYN066AAXX  26151 13389 32698 43404 10182 20049 39954 40227 57012 84800;EQDQ01  00002PRCP99
0186133890999992000092618004+42980+021950FM-12+023299999V0203401N002012200019N0200001N1+01491+00771102381ADDAA199000091GF102991021081012501001001KA1999M+01951MA1999999099621MD1310081+9999REMSYN076AAXX  26181 13389 32698 23402 10149 20077 39962 40238 53008 82800 333 10195;EQDQ01  00002PRCP99
0173133890999992000092621004+42980+021950FM-12+023299999V0209999C000012200019N0200001N1+00891+00761102571ADDAA199000091GA1001+999999999GF100991001001999999001001MA1999999099751MD1210131+9999REMSYN060AAXX  26211 13389 32998 00000 10089 20076 39975 40257 52013;EQDQ01  00002PRCP99
0173133890999992000092700004+42980+021950FM-12+023299999V0202101N001012200019N0200001N1+00631+00561102621ADDAA199000091GA1001+999999999GF100991001001999999001001MA1999999099771MD1110021+9999REMSYN060AAXX  27001 13389 32998 02101 10063 20056 39977 40262 51002;EQDQ01  00002PRCP99
0173133890999992000092703004+42980+021950FM-12+023299999V0202001N001012200019N0200001N1+00411+00381102601ADDAA199000091GA1001+999999999GF100991001001999999001001MA1999999099731MD1810041+9999REMSYN060AAXX  27031 13389 32998 02001 10041 20038 39973 40260 58004;EQDQ01  00002PRCP99
0216133890999992000092706004+42980+021950FM-12+023299999V0209999C000012200019N0200001N1+00571+00531102661ADDAA199000091GF101991011001999999031001IA1099IA2999+00109KA1120N+00361MA1999999099811MD1310081+9999REMSYN088AAXX  27061 13389 32998 10000 10057 20053 39981 40266 53008 81030 333 20036 31001 55095;EQDQ01  00002PRCP99
0163133890999992000092709004+42980+021950FM-12+023299999V0209999C000012200019N0200001N1+01461+00741102541ADDAA199000091GF101991011021012501001001MA1999999099781MD1810031+9999REMSYN066AAXX  27091 13389 32698 10000 10146 20074 39978 40254 58003 81200;EQDQ01  00002PRCP99
0163133890999992000092712004+42980+021950FM-12+023299999V0203301N003012200019N0200001N1+01961+00561102261ADDAA199000091GF101991011011012501001001MA1999999099551MD1710231+9999REMSYN066AAXX  27121 13389 32698 13303 10196 20056 39955 40226 57023 81100;EQDQ01  00002PRCP99
0163133890999992000092715004+42980+021950FM-12+023299999V0203101N004012200019N0200001N1+01981+00511102111ADDAA199000091GF101991011011012501001001MA1999999099401MD1710151+9999REMSYN066AAXX  27151 13389 32698 13104 10198 20051 39940 40211 57015 81100;EQDQ01  00002PRCP99
0196133890999992000092718004+42980+021950FM-12+023299999V0202001N001012200019N0200001N1+01271+00771102241ADDAA199000091GA1001+999999999GF100991001001999999001001KA1999M+02041MA1999999099461MD1310061+9999REMSYN070AAXX  27181 13389 32998 02001 10127 20077 39946 40224 53006 333 10204;EQDQ01  00002PRCP99
0173133890999992000092800004+42980+021950FM-12+023299999V0209999C000012200019N0200001N1+00551+00491102351ADDAA199000091GA1001+999999999GF100991001001999999001001MA1999999099501MD1810021+9999REMSYN060AAXX  28001 13389 32998 00000 10055 20049 39950 40235 58002;EQDQ01  00002PRCP99
0173133890999992000092803004+42980+021950FM-12+023299999V0209999C000012200019N0200001N1+00311+00251102391ADDAA199000091GA1001+999999999GF100991001001999999001001MA1999999099501MD1410001+9999REMSYN060AAXX  28031 13389 32998 00000 10031 20025 39950 40239 54000;EQDQ01  00002PRCP99
0226133890999992000092806004+42980+021950FM-12+023299999V0209999C000012200019N0200001N1+00501+00451102341ADDAA199000091GA1001+999999999GF100991001001999999001001IA1099IA2999-00109KA1120N+00221MA1999999099481MD1810021+9999REMSYN082AAXX  28061 13389 32998 00000 10050 20045 39948 40234 58002 333 20022 31101 55110;EQDQ01  00002PRCP99
0173133890999992000092809004+42980+021950FM-12+023299999V0203301N001012200019N0200001N1+01401+00681102191ADDAA199000091GA1001+999999999GF100991001001999999001001MA1999999099431MD1810051+9999REMSYN060AAXX  28091 13389 32998 03301 10140 20068 39943 40219 58005;EQDQ01  00002PRCP99
0163133890999992000092812004+42980+021950FM-12+023299999V0200301N002012200019N0200001N1+01991+00531101901ADDAA199000091GF101991001001999999001011MA1999999099201MD1710231+9999REMSYN066AAXX  28121 13389 32998 10302 10199 20053 39920 40190 57023 80001;EQDQ01  00002PRCP99
0173133890999992000092815004+42980+021950FM-12+023299999V0203001N001012200019N0200001N1+02221+00401101691ADDAA199000091GA1001+999999999GF100991001001999999001001MA1999999099011MD1710191+9999REMSYN060AAXX  28151 13389 32998 03001 10222 20040 39901 40169 57019;EQDQ01  00002PRCP99
0196133890999992000092818004+42980+021950FM-12+023299999V0201301N002012200019N0200001N1+01271+00861101791ADDAA199000091GA1001+999999999GF100991001001999999001001KA1999M+02231MA1999999099031MD1310021+9999REMSYN070AAXX  28181 13389 32998 01302 10127 20086 39903 40179 53002 333 10223;EQDQ01  00002PRCP99
0173133890999992000092821004+42980+021950FM-12+023299999V0209999C000012200019N0200001N1+00791+00681101901ADDAA199000091GA1001+999999999GF100991001001999999001001MA1999999099091MD1210061+9999REMSYN060AAXX  28211 13389 32998 00000 10079 20068 39909 40190 52006;EQDQ01  00002PRCP99
0173133890999992000092900004+42980+021950FM-12+023299999V0209999C000012200019N0200001N1+00621+00531101921ADDAA199000091GA1001+999999999GF100991001001999999001001MA1999999099091MD1410001+9999REMSYN060AAXX  29001 13389 32998 00000 10062 20053 39909 40192 54000;EQDQ01  00002PRCP99
0173133890999992000092903004+42980+021950FM-12+023299999V0209999C000012200019N0200001N1+00381+00331101901ADDAA199000091GA1001+999999999GF100991001001999999001001MA1999999099051MD1810041+9999REMSYN060AAXX  29031 13389 32998 00000 10038 20033 39905 40190 58004;EQDQ01  00002PRCP99
0226133890999992000092906004+42980+021950FM-12+023299999V0209999C000012200019N0200001N1+00481+00421101891ADDAA199000091GA1001+999999999GF100991001001999999001001IA1099IA2999+00109KA1120N+00271MA1999999099051MD1410001+9999REMSYN082AAXX  29061 13389 32998 00000 10048 20042 39905 40189 54000 333 20027 31001 55110;EQDQ01  00002PRCP99
0173133890999992000092909004+42980+021950FM-12+023299999V0209999C000012200019N0200001N1+01671+00641101701ADDAA199000091GA1001+999999999GF100991001001999999001001MA1999999098981MD1810071+9999REMSYN060AAXX  29091 13389 32998 00000 10167 20064 39898 40170 58007;EQDQ01  00002PRCP99
0163133890999992000092912004+42980+021950FM-12+023299999V0203401N002012200019N0200001N1+02211+00641101501ADDAA199000091GF102991001001999999001011MA1999999098831MD1710151+9999REMSYN066AAXX  29121 13389 32998 23402 10221 20064 39883 40150 57015 80001;EQDQ01  00002PRCP99
0163133890999992000092915004+42980+021950FM-12+023299999V0203301N002019999999N0200001N1+02321+00661101401ADDAA199000091GF106991001001999999001061MA1999999098741MD1610091+9999REMSYN066AAXX  29151 13389 32998 63302 10232 20066 39874 40140 56009 80006;EQDQ01  00002PRCP99
0196133890999992000092918004+42980+021950FM-12+023299999V0201201N001012200019N0200001N1+01431+01051101571ADDAA199000091GA1001+999999999GF100991001001999999001001KA1999M+02331MA1999999098821MD1310081+9999REMSYN070AAXX  29181 13389 32998 01201 10143 20105 39882 40157 53008 333 10233;EQDQ01  00002PRCP99
0173133890999992000092921004+42980+021950FM-12+023299999V0201901N001012200019N0200001N1+01141+01021101701ADDAA199000091GA1001+999999999GF100991001001999999001001MA1999999098921MD1210101+9999REMSYN060AAXX  29211 13389 32998 01901 10114 20102 39892 40170 52010;EQDQ01  00002PRCP99
0173133890999992000093000004+42980+021950FM-12+023299999V0209999C000012200019N0200001N1+00961+00861101791ADDAA199000091GA1001+999999999GF100991001001999999001001MA1999999099001MD1210081+9999REMSYN060AAXX  30001 13389 32998 00000 10096 20086 39900 40179 52008;EQDQ01  00002PRCP99
0173133890999992000093003004+42980+021950FM-12+023299999V0202001N001012200019N0200001N1+00821+00761101851ADDAA199000091GA1001+999999999GF100991001001999999001001MA1999999099041MD1310041+9999REMSYN060AAXX  30031 13389 32998 02001 10082 20076 39904 40185 53004;EQDQ01  00002PRCP99
0163133890999992000093009004+42980+021950FM-12+023299999V0209999C000019999999N0200001N1+01821+00981101891ADDAA199000091GF106991041001999999031011MA1999999099171MD1210031+9999REMSYN066AAXX  30091 13389 32998 60000 10182 20098 39917 40189 52003 84031;EQDQ01  00002PRCP99
0163133890999992000093012004+42980+021950FM-12+023299999V0203501N001010360019N0200001N1+02181+00881101721ADDAA199000091GF106991031081012501031001MA1999999099041MD1810131+9999REMSYN066AAXX  30121 13389 32698 63501 10218 20088 39904 40172 58013 83830;EQDQ01  00002PRCP99
0163133890999992000093015004+42980+021950FM-12+023299999V0209999C000012200019N0200001N1+02431+00851101601ADDAA199000091GF101991011001999999031001MA1999999098941MD1610101+9999REMSYN066AAXX  30151 13389 32998 10000 10243 20085 39894 40160 56010 81030;EQDQ01  00002PRCP99
0196133890999992000093018004+42980+021950FM-12+023299999V0200701N001012200019N0200001N1+01551+01061101771ADDAA199000091GA1001+999999999GF100991001001999999001001KA1999M+02451MA1999999099041MD1310101+9999REMSYN070AAXX  30181 13389 32998 00701 10155 20106 39904 40177 53010 333 10245;EQDQ01  00002PRCP99
0163133890999992000093021004+42980+021950FM-12+023299999V0209999C000012200019N0200001N1+01391+01001101911ADDAA199000091GF104991001001999999001011MA1999999099251MD1210111+9999REMSYN066AAXX  30211 13389 32998 40000 10139 20100 39925 40191 52011 80001;EQDQ01  00002PRCP99
0163133890999992000100100004+42980+021950FM-12+023299999V0209999C000019999999N0200001N1+01501+00921101941ADDAA199000091GF108991081001999999071999MA1999999099191MD1310041+9999REMSYN066AAXX  01001 13389 32998 80000 10150 20092 39919 40194 53004 8807/;EQDQ01  00002PRCP99
0173133890999992000100103004+42980+021950FM-12+023299999V0202101N001012200019N0200001N1+01541+00921101841ADDAA199000091GA1001+999999999GF100991001001999999001001MA1999999099591MD1410001+9999REMSYN060AAXX  01031 13389 32998 02101 10154 20092 39959 40184 54000;EQDQ01  00002PRCP99
0216133890999992000100106004+42980+021950FM-12+023299999V0209999C000012200019N0200001N1+01401+01061102001ADDAA199000091GF104991011011012501031001IA1019IA2999+00909KA1120N+01301MA1999999099241MD1310051+9999REMSYN088AAXX  01061 13389 32698 40000 10140 20106 39924 40200 53005 81130 333 20130 30009 55036;EQDQ01  00002PRCP99
0163133890999992000100112004+42980+021950FM-12+023299999V0200501N003019999999N0200001N1+02481+01151101611ADDAA199000091GF105991051001999999071001MA1999999098961MD1710201+9999REMSYN066AAXX  01121 13389 32998 50503 10248 20115 39896 40161 57020 85070;EQDQ01  00002PRCP99
0163133890999992000100115004+42980+021950FM-12+023299999V0201001N001012200019N0200001N1+02541+01121101551ADDAA199000091GF103991011001999999031011MA1999999098901MD1610061+9999REMSYN066AAXX  01151 13389 32998 31001 10254 20112 39890 40155 56006 81031;EQDQ01  00002PRCP99
0196133890999992000100118004+42980+021950FM-12+023299999V0201801N001012200019N0200001N1+01981+01111101701ADDAA199000091GA1001+999999999GF100991001001999999001001KA1999M+02551MA1999999099001MD1310101+9999REMSYN070AAXX  01181 13389 32998 01801 10198 20111 39900 40170 53010 333 10255;EQDQ01  00002PRCP99
0163133890999992000100121004+42980+021950FM-12+023299999V0200701N001019999999N0200001N1+01961+00981101761ADDAA199000091GF108991081001999999071999MA1999999099061MD1110061+9999REMSYN066AAXX  01211 13389 32998 80701 10196 20098 39906 40176 51006 8807/;EQDQ01  00002PRCP99
0163133890999992000100200004+42980+021950FM-12+023299999V0200201N002019999999N0200001N1+01911+01091101801ADDAA199000091GF108991081001999999071999MA1999999099091MD1310031+9999REMSYN066AAXX  02001 13389 32998 80202 10191 20109 39909 40180 53003 8807/;EQDQ01  00002PRCP99
0163133890999992000100209004+42980+021950FM-12+023299999V0209999C000010360019N0200001N1+02041+01491101651ADDAA199000091GF106991021051012501071001MA1999999098961MD1410001+9999REMSYN066AAXX  02091 13389 32698 60000 10204 20149 39896 40165 54000 82570;EQDQ01  00002PRCP99
0163133890999992000100212004+42980+021950FM-12+023299999V0202501N002010360019N0200001N1+02621+01251101431ADDAA199000091GF107991031051012501071001MA1999999098791MD1710171+9999REMSYN066AAXX  02121 13389 32698 72502 10262 20125 39879 40143 57017 83570;EQDQ01  00002PRCP99
0163133890999992000100215004+42980+021950FM-12+023299999V0200101N001010360019N0200001N1+02441+01321101351ADDAA199000091GF107991031051012501071001MA1999999098701MD1610091+9999REMSYN066AAXX  02151 13389 32698 70101 10244 20132 39870 40135 56009 83570;EQDQ01  00002PRCP99
0158133890999992000100218004+42980+021950FM-12+023299999V0209999C000019999999N0200001N1+02061+01511101371ADDAA199000091GF108991999999012501999999MA1999999098701REMSYN075AAXX  02181 13389 32698 80000 10206 20151 39870 40137 5400 885// 333 10262;EQDQ01  00002PRCP99
0163133890999992000100221004+42980+021950FM-12+023299999V0202901N001010120019N0200001N1+02001+01111101501ADDAA199000091GF106991061051012501001001MA1999999098811MD1210111+9999REMSYN066AAXX  02211 13389 32698 62901 10200 20111 39881 40150 52011 86500;EQDQ01  00002PRCP99
0163133890999992000100300004+42980+021950FM-12+023299999V0209999C000010120019N0200001N1+01721+01181101561ADDAA199000091GF105991051051012501001001MA1999999098841MD1110031+9999REMSYN066AAXX  03001 13389 32698 50000 10172 20118 39884 40156 51003 85500;EQDQ01  00002PRCP99
0163133890999992000100303004+42980+021950FM-12+023299999V0202201N001010120019N0200001N1+01441+01301101591ADDAA199000091GF106991061051012501001001MA1999999098841MD1410001+9999REMSYN066AAXX  03031 13389 32698 62201 10144 20130 39884 40159 54000 86500;EQDQ01  00002PRCP99
0216133890999992000100306004+42980+021950FM-12+023299999V0209999C000010900019N0200001N1+01341+01241101741ADDAA199000091GF105991021051012501031011IA1019IA2999+01009KA1120N+01321MA1999999098981MD1210141+9999REMSYN088AAXX  03061 13389 32698 50000 10134 20124 39898 40174 52014 82531 333 20132 30010 55000;EQDQ01  00002PRCP99
0163133890999992000100309004+42980+021950FM-12+023299999V0200301N001019999999N0200001N1+02061+01201101781ADDAA199000091GF107991041001999999071011MA1999999099091MD1110111+9999REMSYN066AAXX  03091 13389 32998 70301 10206 20120 39909 40178 51011 84071;EQDQ01  00002PRCP99
0163133890999992000100312004+42980+021950FM-12+023299999V0209999C000019999999N0200001N1+02261+01231101751ADDAA199000091GF108991081001999999071999MA1999999099081MD1810011+9999REMSYN066AAXX  03121 13389 32998 80000 10226 20123 39908 40175 58001 8807/;EQDQ01  00002PRCP99
0172133890999992000100315004+42980+021950FM-12+023299999V0201001N001010360019N0200001N1+02071+01721101791ADDAA199000021AY161031AY261031GF108991041051012501021999MA1999999099101MD1310021+9999MW1611REMSYN072AAXX  03151 13389 31698 81001 10207 20172 39910 40179 53002 76166 8452/;
0201133890999992000100318004+42980+021950FM-12+023299999V0209999C000010120019N0100001N1+01791+01691101891ADDAA112000191AY161061AY261061GF108991081051012501999999KA1999M+02271MA1999999099171MD1310071+9999MW1021REMSYN088AAXX  03181 13389 11697 80000 10179 20169 39917 40189 53007 69922 70266 885// 333 10227;
0260133890999992000100406004+42980+021950FM-12+023299999V0209999C000012200019N9999999N1+01101+01051101951ADDAA199000091AY141061AY201061GF103991001001999999001011IA1019IA2999+00609KA1120N+01061MA1999999099161MD1410001+9999MW1421REMSYN094AAXX  04061 13389 31998 30000 10110 20105 39916 40195 54000 74240 80001 333 20106 30006 55005;EQDQ01+200002VODIS Q02  00002PRCP99
0191133890999992000100409004+42980+021950FM-12+023299999V0209999C000012200019N0200001N1+02121+00901101851ADDAA199000091AY101031AY241031GF103991001001999999001011MA1999999099161MD1010001+9999MW1021REMSYN072AAXX  04091 13389 31998 30000 10212 20090 39916 40185 50000 70204 80001;EQDQ01  00002PRCP99
0191133890999992000100412004+42980+021950FM-12+023299999V0201401N002012200019N0200001N1+02541+00791101601ADDAA199000091AY101061AY241061GF104991001001999999001011MA1999999098951MD1710211+9999MW1021REMSYN072AAXX  04121 13389 31998 41402 10254 20079 39895 40160 57021 70204 80001;EQDQ01  00002PRCP99
0216133890999992000100506004+42980+021950FM-12+023299999V0201601N001019999999N0100001N1+01091+01021101811ADDAA199000091GF107991071001999999071001IA1019IA2999+00809KA1120N+01021MA1999999099031MD1610041+9999REMSYN088AAXX  05061 13389 32997 71601 10109 20102 39903 40181 56004 87070 333 20102 30008 55080;EQDQ01  00002PRCP99
0163133890999992000100509004+42980+021950FM-12+023299999V0200201N002010360019N0200001N1+01641+01181101761ADDAA199000091GF107991041081012501071001MA1999999099331MD1410001+9999REMSYN066AAXX  05091 13389 32698 70202 10164 20118 39933 40176 54000 84870;EQDQ01  00002PRCP99
0163133890999992000100512004+42980+021950FM-12+023299999V0203401N001010360019N0200001N1+01881+01091101631ADDAA199000091GF107991021051012501071001MA1999999098931MD1810101+9999REMSYN066AAXX  05121 13389 32698 73401 10188 20109 39893 40163 58010 82570;EQDQ01  00002PRCP99
0173133890999992000100600004+42980+021950FM-12+023299999V0202001N002012200019N0100001N1+01021+00951101721ADDAA199000091GA1001+999999999GF100991001001999999001001MA1999999098931MD1410001+9999REMSYN060AAXX  06001 13389 32997 02002 10102 20095 39893 40172 54000;EQDQ01  00002PRCP99
0173133890999992000100603004+42980+021950FM-12+023299999V0209999C000012200019N0100001N1+00821+00761101711ADDAA199000091GA1001+999999999GF100991001001999999001001MA1999999098901MD1810041+9999REMSYN060AAXX  06031 13389 32997 00000 10082 20076 39890 40171 58004;EQDQ01  00002PRCP99
0244133890999992000100606004+42980+021950FM-12+023299999V0209999C000010150019N0040001N1+00891+00851101691ADDAA199000091AY111061AY211061GF107991071081012501001001IA1019IA2999+00509KA1120N+00751MA1999999098891MD1510011+9999MW1101REMSYN094AAXX  06061 13389 31696 70000 10089 20085 39889 40169 55001 71011 87800 333 20075 30005 55004;EQDQ01  00002PRCP99
0163133890999992000100609004+42980+021950FM-12+023299999V0209999C000010360019N0100001N1+01401+01151101601ADDAA199000091GF107991041081012501041001MA1999999098851MD1810041+9999REMSYN066AAXX  06091 13389 32697 70000 10140 20115 39885 40160 58004 84840;EQDQ01  00002PRCP99
0163133890999992000100612004+42980+021950FM-12+023299999V0203201N003012200019N0100001N1+02001+01171101371ADDAA199000091GF104991041001999999031001MA1999999098681MD1710171+9999REMSYN066AAXX  06121 13389 32997 43203 10200 20117 39868 40137 57017 84030;EQDQ01  00002PRCP99
0163133890999992000100615004+42980+021950FM-12+023299999V0202001N002019999999N0100001N1+02081+01351101291ADDAA199000091GF107991071001999999071001MA1999999098611MD1710071+9999REMSYN066AAXX  06151 13389 32997 72002 10208 20135 39861 40129 57007 87070;EQDQ01  00002PRCP99
0186133890999992000100618004+42980+021950FM-12+023299999V0201001N002019999999N0100001N1+01841+01171101411ADDAA199000091GF106991061001999999071001KA1999M+02251MA1999999098701MD1310111+9999REMSYN076AAXX  06181 13389 32997 61002 10184 20117 39870 40141 53011 86070 333 10225;EQDQ01  00002PRCP99
0133133890999992000100621004+42980+021950FM-12+023299999V0209999C000019999999N0100001N1+01641+99999999999ADDAA199000091GF107991999999999999999999REMSYN065AAXX  06211 13389 32997 70000 10164 2015 39876 40149 51006 87070;EQDQ01  00002PRCP99
0163133890999992000100700004+42980+021950FM-12+023299999V0209999C000012200019N0100001N1+01171+01091101561ADDAA199000091GF101991011001999999031001MA1999999098791MD1310091+9999REMSYN066AAXX  07001 13389 32997 10000 10117 20109 39879 40156 53009 81030;EQDQ01  00002PRCP99
0163133890999992000100703004+42980+021950FM-12+023299999V0209999C000019999999N0100001N1+01241+01171101561ADDAA199000091GF107991071001999999071001MA1999999098791MD1410001+9999REMSYN066AAXX  07031 13389 32997 70000 10124 20117 39879 40156 54000 87070;EQDQ01  00002PRCP99
0216133890999992000100706004+42980+021950FM-12+023299999V0209999C000019999999N0100001N1+01141+01091101571ADDAA199000091GF107991071001999999071001IA1019IA2999+00709KA1120N+01131MA1999999098791MD1410001+9999REMSYN088AAXX  07061 13389 32997 70000 10114 20109 39879 40157 54000 87070 333 20113 30007 55034;EQDQ01  00002PRCP99
0163133890999992000100709004+42980+021950FM-12+023299999V0202901N002010360019N0100001N1+01751+01201101491ADDAA199000091GF105991011011012501031001MA1999999098781MD1810011+9999REMSYN066AAXX  07091 13389 32697 52902 10175 20120 39878 40149 58001 81130;EQDQ01  00002PRCP99
0163133890999992000100712004+42980+021950FM-12+023299999V0200301N002012200019N0100001N1+02201+01091101281ADDAA199000091GF103991011011012501031001MA1999999098611MD1710171+9999REMSYN066AAXX  07121 13389 32697 30302 10220 20109 39861 40128 57017 81130;EQDQ01  00002PRCP99
0163133890999992000100715004+42980+021950FM-12+023299999V0200801N003010150019N0100001N1+02061+01021101231ADDAA199000091GF107991071081012501001001MA1999999098551MD1610061+9999REMSYN066AAXX  07151 13389 32697 70803 10206 20102 39855 40123 56006 87800;EQDQ01  00002PRCP99
0186133890999992000100718004+42980+021950FM-12+023299999V0201101N002012200019N0100001N1+01831+01021101271ADDAA199000091GF103991011011012501031001KA1999M+02281MA1999999098571MD1310021+9999REMSYN076AAXX  07181 13389 32697 31102 10183 20102 39857 40127 53002 81130 333 10228;EQDQ01  00002PRCP99
0163133890999992000100721004+42980+021950FM-12+023299999V0200901N003010120019N0100001N1+01801+01061101311ADDAA199000091GF108991081051012501999999MA1999999098611MD1110041+9999REMSYN066AAXX  07211 13389 32697 80903 10180 20106 39861 40131 51004 885//;EQDQ01  00002PRCP99
0163133890999992000100803004+42980+021950FM-12+023299999V0200801N001012200019N0100001N1+01421+01351101201ADDAA199000091GF104991041051012501001001MA1999999098471MD1610061+9999REMSYN066AAXX  08031 13389 32697 40801 10142 20135 39847 40120 56006 84500;EQDQ01  00002PRCP99
0203133890999992000100806004+42980+021950FM-12+023299999V0201901N001010120019N0100001N1+01371+01301101181ADDAA112000191GF108991081051012501999999IA1019IA2999+01209KA1120N+01321MA1999999098441MD1610031+9999REMSYN094AAXX  08061 13389 12697 81901 10137 20130 39844 40118 56003 69922 885// 333 20132 30012 55014;
0163133890999992000100809004+42980+021950FM-12+023299999V0201701N002010360019N0100001N1+01821+01231101191ADDAA199000091GF107991021081012501071001MA1999999098491MD1110051+9999REMSYN066AAXX  08091 13389 32697 71702 10182 20123 39849 40119 51005 82870;EQDQ01  00002PRCP99
0163133890999992000100812004+42980+021950FM-12+023299999V0200701N004010150019N0200001N1+01841+00741101141ADDAA199000091GF107991071081012501001001MA1999999098441MD1810051+9999REMSYN066AAXX  08121 13389 32698 70704 10184 20074 39844 40114 58005 87800;EQDQ01  00002PRCP99
0163133890999992000100815004+42980+021950FM-12+023299999V0200701N004010150019N0200001N1+01791+00741101141ADDAA199000091GF108991081081012501999999MA1999999098441MD1510001+9999REMSYN066AAXX  08151 13389 32698 80704 10179 20074 39844 40114 55000 888//;EQDQ01  00002PRCP99
0186133890999992000100818004+42980+021950FM-12+023299999V0200601N002010120019N0100001N1+01621+00811101271ADDAA199000091GF108991081051012501999999KA1999M+01921MA1999999098551MD1210111+9999REMSYN076AAXX  08181 13389 32697 80602 10162 20081 39855 40127 52011 885// 333 10192;EQDQ01  00002PRCP99
0172133890999992000100821004+42980+021950FM-12+023299999V0201901N002010120019N0100001N1+01341+01171101351ADDAA199000021AY161031AY221031GF108991081001012501021999MA1999999098601MD1210051+9999MW1611REMSYN072AAXX  08211 13389 31697 81902 10134 20117 39860 40135 52005 76162 8802/;
0178133890999992000100900004+42980+021950FM-12+023299999V0209999C000010075019N0100001N1+01221+01151101291ADDAA106002091AY161061AY261061GF108991081071008001999999MA1999999098531MD1810071+9999MW1601REMSYN078AAXX  09001 13389 11597 80000 10122 20115 39853 40129 58007 60021 76066 887//;
0172133890999992000100903004+42980+021950FM-12+023299999V0201801N001010360019N0100001N1+01091+01031101231ADDAA199000021AY161031AY261031GF108991011071008001021999MA1999999098461MD1710071+9999MW1611REMSYN072AAXX  09031 13389 31597 81801 10109 20103 39846 40123 57007 76166 8172/;
0231133890999992000100906004+42980+021950FM-12+023299999V0201801N001010075019N0100001N1+01091+01051101231ADDAA112005191AY121061AY261061GF108991081061008001999999IA1099IA2999+01009KA1120N+01061MA1999999098461MD1410001+9999MW1021REMSYN100AAXX  09061 13389 11597 81801 10109 20105 39846 40123 54000 60052 70226 886// 333 20106 31010 55000;
0144133890999992000100909004+42980+021950FM-12+023299999V0203101N001010075019N0100001N1+01301+01121101211ADDAA199000021GF107991071061008001001001MA1999999098461MD1410001+9999REMSYN066AAXX  09091 13389 32597 73101 10130 20112 39846 40121 54000 87600;
0144133890999992000100912004+42980+021950FM-12+023299999V0202301N001010150019N0100001N1+01581+01081101081ADDAA199000021GF107991071081012501001001MA1999999098361MD1810101+9999REMSYN066AAXX  09121 13389 32697 72301 10158 20108 39836 40108 58010 87800;
0144133890999992000100915004+42980+021950FM-12+023299999V0202301N002010120019N0100001N1+01501+00881101051ADDAA199000021GF108991081051012501999999MA1999999098331MD1610031+9999REMSYN066AAXX  09151 13389 32697 82302 10150 20088 39833 40105 56003 885//;
0186133890999992000100918004+42980+021950FM-12+023299999V0201601N001010120019N0100001N1+01241+00921101081ADDAA199000091GF107991071051012501001001KA1999M+01621MA1999999098331MD1410001+9999REMSYN076AAXX  09181 13389 32697 71601 10124 20092 39833 40108 54000 87500 333 10162;EQDQ01  00002PRCP99
0163133890999992000100921004+42980+021950FM-12+023299999V0202001N001010120019N0100001N1+01101+00901101091ADDAA199000091GF107991071051012501001001MA1999999098331MD1410001+9999REMSYN066AAXX  09211 13389 32697 72001 10110 20090 39833 40109 54000 87500;EQDQ01  00002PRCP99
0163133890999992000101000004+42980+021950FM-12+023299999V0209999C000010120019N0100001N1+01031+00941101051ADDAA199000091GF107991071051012501001001MA1999999098281MD1810051+9999REMSYN066AAXX  10001 13389 32697 70000 10103 20094 39828 40105 58005 87500;EQDQ01  00002PRCP99
0163133890999992000101003004+42980+021950FM-12+023299999V0201801N001010120019N0100001N1+01031+00951101001ADDAA199000091GF107991071051012501001001MA1999999098231MD1710051+9999REMSYN066AAXX  10031 13389 32697 71801 10103 20095 39823 40100 57005 87500;EQDQ01  00002PRCP99
0216133890999992000101006004+42980+021950FM-12+023299999V0209999C000010360019N0200001N1+01041+00971100981ADDAA199000091GF107991041051012501031001IA1099IA2999+00809KA1120N+01021MA1999999098211MD1610021+9999REMSYN088AAXX  10061 13389 32698 70000 10104 20097 39821 40098 56002 84530 333 20102 31008 55000;EQDQ01  00002PRCP99
0163133890999992000101009004+42980+021950FM-12+023299999V0200601N001010120019N0200001N1+01361+00951100961ADDAA199000091GF106991061051012501001001MA1999999098231MD1110021+9999REMSYN066AAXX  10091 13389 32698 60601 10136 20095 39823 40096 51002 86500;EQDQ01  00002PRCP99
0163133890999992000101012004+42980+021950FM-12+023299999V0203201N002010360019N0200001N1+01841+01151100791ADDAA199000091GF105991031081012501031001MA1999999098101MD1710131+9999REMSYN066AAXX  10121 13389 32698 53202 10184 20115 39810 40079 57013 83830;EQDQ01  00002PRCP99
0163133890999992000101015004+42980+021950FM-12+023299999V0201101N002012200019N0200001N1+01961+01021100701ADDAA199000091GF104991021021012501031001MA1999999098031MD1710071+9999REMSYN066AAXX  10151 13389 32698 41102 10196 20102 39803 40070 57007 82230;EQDQ01  00002PRCP99
0186133890999992000101018004+42980+021950FM-12+023299999V0209999C000012200019N0200001N1+01401+01231100911ADDAA199000091GF104991021051012501031001KA1999M+02021MA1999999098181MD1210161+9999REMSYN076AAXX  10181 13389 32698 40000 10140 20123 39818 40091 52016 82530 333 10202;EQDQ01  00002PRCP99
0163133890999992000101021004+42980+021950FM-12+023299999V0202101N001012200019N0100001N1+01141+01091101041ADDAA199000091GF102991021001999999031001MA1999999098281MD1210101+9999REMSYN066AAXX  10211 13389 32997 22101 10114 20109 39828 40104 52010 82030;EQDQ01  00002PRCP99
0163133890999992000101100004+42980+021950FM-12+023299999V0201601N001012200019N0100001N1+00961+00921101061ADDAA199000091GF102991001001999999001011MA1999999098321MD1310041+9999REMSYN066AAXX  11001 13389 32997 21601 10096 20092 39832 40106 53004 80001;EQDQ01  00002PRCP99
0173133890999992000101103004+42980+021950FM-12+023299999V0200501N001012200019N0100001N1+00961+00861101101ADDAA199000091GA1001+999999999GF100991001001999999001001MA1999999098321MD1410001+9999REMSYN060AAXX  11031 13389 32997 00501 10096 20086 39832 40110 54000;EQDQ01  00002PRCP99
0216133890999992000101106004+42980+021950FM-12+023299999V0209999C000010360019N0100001N1+01081+01051101141ADDAA199000091GF106991041051012501031001IA1099IA2999+00509KA1120N+00821MA1999999098331MD1110061+9999REMSYN088AAXX  11061 13389 32697 60000 10108 20105 39833 40114 51006 84530 333 20082 31005 55023;EQDQ01  00002PRCP99
0163133890999992000101109004+42980+021950FM-12+023299999V0203601N001012200019N0200001N1+01941+01081101161ADDAA199000091GF104991011011012501031011MA1999999098471MD1310091+9999REMSYN066AAXX  11091 13389 32698 43601 10194 20108 39847 40116 53009 81131;EQDQ01  00002PRCP99
0163133890999992000101112004+42980+021950FM-12+023299999V0202101N006010900019N0200001N1+02351+00851101001ADDAA199000091GF105991021081012501031011MA1999999098361MD1810111+9999REMSYN066AAXX  11121 13389 32698 52106 10235 20085 39836 40100 58011 82831;EQDQ01  00002PRCP99
0163133890999992000101115004+42980+021950FM-12+023299999V0201701N003010360019N0200001N1+02301+00921100961ADDAA199000091GF106991031081012501031011MA1999999098311MD1710051+9999REMSYN066AAXX  11151 13389 32698 61703 10230 20092 39831 40096 57005 83831;EQDQ01  00002PRCP99
0186133890999992000101118004+42980+021950FM-12+023299999V0201801N002019999999N0200001N1+02041+00941101091ADDAA199000091GF107991071001012501071001KA1999M+02461MA1999999098411MD1310101+9999REMSYN076AAXX  11181 13389 32698 71802 10204 20094 39841 40109 53010 87070 333 10246;EQDQ01  00002PRCP99
0163133890999992000101200004+42980+021950FM-12+023299999V0200401N001012200019N0200001N1+01401+01121101341ADDAA199000091GF102991001001999999001011MA1999999098601MD1110041+9999REMSYN066AAXX  12001 13389 32998 20401 10140 20112 39860 40134 51004 80001;EQDQ01  00002PRCP99
0163133890999992000101203004+42980+021950FM-12+023299999V0209999C000012200019N0200001N1+01041+00981101461ADDAA199000091GF102991001001999999001011MA1999999098681MD1310081+9999REMSYN066AAXX  12031 13389 32998 20000 10104 20098 39868 40146 53008 80001;EQDQ01  00002PRCP99
0216133890999992000101206004+42980+021950FM-12+023299999V0209999C000010360019N0200001N1+01141+01061101601ADDAA199000091GF107991021081012501031061IA1099IA2999+00609KA1120N+00961MA1999999098821MD1210141+9999REMSYN088AAXX  12061 13389 32698 70000 10114 20106 39882 40160 52014 82836 333 20096 31006 55033;EQDQ01  00002PRCP99
0163133890999992000101209004+42980+021950FM-12+023299999V0203601N001010360019N0200001N1+02131+01121101561ADDAA199000091GF107991011011012501031061MA1999999098881MD1110061+9999REMSYN066AAXX  12091 13389 32698 73601 10213 20112 39888 40156 51006 81136;EQDQ01  00002PRCP99
0163133890999992000101212004+42980+021950FM-12+023299999V0202001N004010360019N0200001N1+02661+01111101421ADDAA199000091GF107991011011012501031061MA1999999098791MD1810091+9999REMSYN066AAXX  12121 13389 32698 72004 10266 20111 39879 40142 58009 81136;EQDQ01  00002PRCP99
0163133890999992000101215004+42980+021950FM-12+023299999V0202001N001010360019N0200001N1+02451+01111101461ADDAA199000091GF108991011011012501071999MA1999999098811MD1310021+9999REMSYN066AAXX  12151 13389 32698 82001 10245 20111 39881 40146 53002 8117/;EQDQ01  00002PRCP99
0186133890999992000101218004+42980+021950FM-12+023299999V0209999C000019999999N0200001N1+01691+01271101691ADDAA199000091GF107991001001999999001081KA1999M+02661MA1999999098971MD1210161+9999REMSYN076AAXX  12181 13389 32998 70000 10169 20127 39897 40169 52016 80008 333 10266;EQDQ01  00002PRCP99
0163133890999992000101221004+42980+021950FM-12+023299999V0209999C000019999999N0200001N1+01551+01231101831ADDAA199000091GF107991001001999999001081MA1999999099091MD1210121+9999REMSYN066AAXX  12211 13389 32998 70000 10155 20123 39909 40183 52012 80008;EQDQ01  00002PRCP99
0163133890999992000101300004+42980+021950FM-12+023299999V0209999C000012200019N0200001N1+01121+01021101971ADDAA199000091GF103991001001999999001011MA1999999099181MD1210091+9999REMSYN066AAXX  13001 13389 32998 30000 10112 20102 39918 40197 52009 80001;EQDQ01  00002PRCP99
0173133890999992000101303004+42980+021950FM-12+023299999V0201901N001012200019N0200001N1+00951+00901102031ADDAA199000091GA1001+999999999GF100991001001999999001001MA1999999099231MD1210051+9999REMSYN060AAXX  13031 13389 32998 01901 10095 20090 39923 40203 52005;EQDQ01  00002PRCP99
0216133890999992000101306004+42980+021950FM-12+023299999V0201801N001012200019N0200001N1+00971+00921102111ADDAA199000091GF102991001001999999001011IA1019IA2999+00609KA1120N+00871MA1999999099311MD1210081+9999REMSYN088AAXX  13061 13389 32998 21801 10097 20092 39931 40211 52008 80001 333 20087 30006 55033;EQDQ01  00002PRCP99
0173133890999992000101309004+42980+021950FM-12+023299999V0202501N001012200019N0200001N1+02061+01361102001ADDAA199000091GA1001+999999999GF100991001001999999001001MA1999999099311MD1010001+9999REMSYN060AAXX  13091 13389 32998 02501 10206 20136 39931 40200 50000;EQDQ01  00002PRCP99
0173133890999992000101312004+42980+021950FM-12+023299999V0203001N001012200019N0200001N1+02681+01141101801ADDAA199000091GA1001+999999999GF100991001001999999001001MA1999999099161MD1710151+9999REMSYN060AAXX  13121 13389 32998 03001 10268 20114 39916 40180 57015;EQDQ01  00002PRCP99
0173133890999992000101315004+42980+021950FM-12+023299999V0209999C000012200019N0200001N1+02761+01091101731ADDAA199000091GA1001+999999999GF100991001001999999001001MA1999999099101MD1710061+9999REMSYN060AAXX  13151 13389 32998 00000 10276 20109 39910 40173 57006;EQDQ01  00002PRCP99
0196133890999992000101318004+42980+021950FM-12+023299999V0201801N001012200019N0200001N1+01761+01351101951ADDAA199000091GA1001+999999999GF100991001001999999001001KA1999M+02811MA1999999099231MD1310131+9999REMSYN070AAXX  13181 13389 32998 01801 10176 20135 39923 40195 53013 333 10281;EQDQ01  00002PRCP99
0173133890999992000101321004+42980+021950FM-12+023299999V0202101N001012200019N0200001N1+01341+01171102141ADDAA199000091GA1001+999999999GF100991001001999999001001MA1999999099371MD1210141+9999REMSYN060AAXX  13211 13389 32998 02101 10134 20117 39937 40214 52014;EQDQ01  00002PRCP99
0173133890999992000101400004+42980+021950FM-12+023299999V0202001N002012200019N0200001N1+01041+00951102241ADDAA199000091GA1001+999999999GF100991001001999999001001MA1999999099441MD1110071+9999REMSYN060AAXX  14001 13389 32998 02002 10104 20095 39944 40224 51007;EQDQ01  00002PRCP99
0189133890999992000101403004+42980+021950FM-12+023299999V0209999C000012200019N0200001N1+01031+00881102361ADDAA199000091GA1001+999999999GF100991001001999999001001MA1999999999999MD1410001+9999REMSYN060AAXX  14031 13389 32998 00000 10103 20088 39719 40236 54000;EQDQ01  00002PRCP99Q02 097193APOSP 
0242133890999992000101406004+42980+021950FM-12+023299999V0209999C000012200019N0200001N1+00871+00831102311ADDAA199000091GA1001+999999999GF100991001001999999001001IA1019IA2999+00409KA1120N+00841MA1999999099492MD1310031+9999REMSYN082AAXX  14061 13389 32998 00000 10087 20083 39949 40231 53003 333 20084 30004 55102;EQDQ01+099493APOSP Q02  00002PRCP99
0173133890999992000101409004+42980+021950FM-12+023299999V0209999C000012200019N0100001N1+01841+01241102241ADDAA199000091GA1001+999999999GF100991001001999999001001MA1999999099511MD1010021+9999REMSYN060AAXX  14091 13389 32997 00000 10184 20124 39951 40224 50002;EQDQ01  00002PRCP99
0173133890999992000101412004+42980+021950FM-12+023299999V0202901N002012200019N0100001N1+02541+01121101921ADDAA199000091GA1001+999999999GF100991001001999999001001MA1999999099261MD1710251+9999REMSYN060AAXX  14121 13389 32997 02902 10254 20112 39926 40192 57025;EQDQ01  00002PRCP99
0173133890999992000101415004+42980+021950FM-12+023299999V0203201N001012200019N0200001N1+02551+01001101781ADDAA199000091GA1001+999999999GF100991001001999999001001MA1999999099141MD1710121+9999REMSYN060AAXX  14151 13389 32998 03201 10255 20100 39914 40178 57012;EQDQ01  00002PRCP99
0196133890999992000101418004+42980+021950FM-12+023299999V0201801N002012200019N0200001N1+01771+01251101941ADDAA199000091GA1001+999999999GF100991001001999999001001KA1999M+02661MA1999999099191MD1310051+9999REMSYN070AAXX  14181 13389 32998 01802 10177 20125 39919 40194 53005 333 10266;EQDQ01  00002PRCP99
0173133890999992000101421004+42980+021950FM-12+023299999V0202001N002012200019N0200001N1+01241+01141102101ADDAA199000091GA1001+999999999GF100991001001999999001001MA1999999099321MD1210131+9999REMSYN060AAXX  14211 13389 32998 02002 10124 20114 39932 40210 52013;EQDQ01  00002PRCP99
0173133890999992000101500004+42980+021950FM-12+023299999V0202001N002012200019N0200001N1+01021+00951102121ADDAA199000091GA1001+999999999GF100991001001999999001001MA1999999099321MD1410001+9999REMSYN060AAXX  15001 13389 32998 02002 10102 20095 39932 40212 54000;EQDQ01  00002PRCP99
0173133890999992000101503004+42980+021950FM-12+023299999V0209999C000012200019N0200001N1+01011+99999102121ADDAA199000091GA1001+999999999GF100991001001999999001001MA1999999099321MD1410001+9999REMSYN060AAXX  15031 13389 32998 00000 10101 20102 39932 40212 54000;EQDQ01  00002PRCP99
0254133890999992000101506004+42980+021950FM-12+023299999V0209999C000012200019N0000001N1+99999+99999102171ADDAA199000091AY141061AY201061GA1001+999999999GF100991001001999999001001IA1019IA2999+00309KA1120N+00611MA1999999099351MD1310031+9999MW1461REMSYN088AAXX  15061 13389 31990 00000 10706 20072 39935 40217 53003 74640 333 20061 30003 55101;EQDQ01  00002PRCP99
0201133890999992000101509004+42980+021950FM-12+023299999V0209999C000012200019N0100001N1+01721+01021102051ADDAA199000091AY101031AY241031GA1001+999999999GF100991001001999999001001MA1999999099321MD1810031+9999MW1021REMSYN066AAXX  15091 13389 31997 00000 10172 20102 39932 40205 58003 70204;EQDQ01  00002PRCP99
0201133890999992000101512004+42980+021950FM-12+023299999V0200701N001012200019N0100001N1+02341+01021101761ADDAA199000091AY101061AY241061GA1001+999999999GF100991001001999999001001MA1999999099091MD1710231+9999MW1021REMSYN066AAXX  15121 13389 31997 00701 10234 20102 39909 40176 57023 70204;EQDQ01  00002PRCP99
0173133890999992000101515004+42980+021950FM-12+023299999V0203101N001012200019N0200001N1+02531+01031101601ADDAA199000091GA1001+999999999GF100991001001999999001001MA1999999098951MD1610141+9999REMSYN060AAXX  15151 13389 32998 03101 10253 20103 39895 40160 56014;EQDQ01  00002PRCP99
0196133890999992000101518004+42980+021950FM-12+023299999V0202401N001012200019N0200001N1+01791+01051101751ADDAA199000091GA1001+999999999GF100991001001999999001001KA1999M+02551MA1999999099041MD1310091+9999REMSYN070AAXX  15181 13389 32998 02401 10179 20105 39904 40175 53009 333 10255;EQDQ01  00002PRCP99
0173133890999992000101521004+42980+021950FM-12+023299999V0201201N004012200019N0200001N1+01061+00881101981ADDAA199000091GA1001+999999999GF100991001001999999001001MA1999999099191MD1210151+9999REMSYN060AAXX  15211 13389 32998 01204 10106 20088 39919 40198 52015;EQDQ01  00002PRCP99
0216133890999992000101606004+42980+021950FM-12+023299999V0201901N001012200019N0200001N1+00561+00511102261ADDAA199000091GF101991001001999999001011IA1019IA2999+00209KA1120N+00461MA1999999099421MD1210041+9999REMSYN088AAXX  16061 13389 32998 11901 10056 20051 39942 40226 52004 80001 333 20046 30002 55084;EQDQ01  00002PRCP99
0163133890999992000101609004+42980+021950FM-12+023299999V0200301N001012200019N0200001N1+01771+00861102151ADDAA199000091GF101991001001999999001011MA1999999099421MD1010001+9999REMSYN066AAXX  16091 13389 32998 10301 10177 20086 39942 40215 50000 80001;EQDQ01  00002PRCP99
0163133890999992000101612004+42980+021950FM-12+023299999V0203401N001019999999N0200001N1+02281+00951101961ADDAA199000091GF107991011001999999031061MA1999999099281MD1710141+9999REMSYN066AAXX  16121 13389 32998 73401 10228 20095 39928 40196 57014 81036;EQDQ01  00002PRCP99
0163133890999992000101615004+42980+021950FM-12+023299999V0209999C000019999999N0200001N1+02241+01311101951ADDAA199000091GF107991011001999999031061MA1999999099261MD1610021+9999REMSYN066AAXX  16151 13389 32998 70000 10224 20131 39926 40195 56002 81036;EQDQ01  00002PRCP99
0196133890999992000101618004+42980+021950FM-12+023299999V0209999C000012200019N0100001N1+01381+01121102141ADDAA199000091GA1001+999999999GF100991001001999999001001KA1999M+02301MA1999999099381MD1310121+9999REMSYN070AAXX  16181 13389 32997 00000 10138 20112 39938 40214 53012 333 10230;EQDQ01  00002PRCP99
0173133890999992000101621004+42980+021950FM-12+023299999V0209999C000012200019N0200001N1+01111+00981102221ADDAA199000091GA1001+999999999GF100991001001999999001001MA1999999099431MD1210051+9999REMSYN060AAXX  16211 13389 32998 00000 10111 20098 39943 40222 52005;EQDQ01  00002PRCP99
0163133890999992000101700004+42980+021950FM-12+023299999V0209999C000012200019N0200001N1+00961+00901102291ADDAA199000091GF102991001001999999001011MA1999999099481MD1210051+9999REMSYN066AAXX  17001 13389 32998 20000 10096 20090 39948 40229 52005 80001;EQDQ01  00002PRCP99
0163133890999992000101703004+42980+021950FM-12+023299999V0209999C000012200019N0200001N1+00821+00771102291ADDAA199000091GF104991021001999999031011MA1999999099461MD1810021+9999REMSYN066AAXX  17031 13389 32998 40000 10082 20077 39946 40229 58002 82031;EQDQ01  00002PRCP99
0244133890999992000101706004+42980+021950FM-12+023299999V0209999C000010120019N0040001N1+00931+00901102321ADDAA199000091AY111061AY211061GF107991071051012501001001IA1019IA2999+00509KA1120N+00821MA1999999099501MD1310041+9999MW1101REMSYN094AAXX  17061 13389 31696 70000 10093 20090 39950 40232 53004 71011 87500 333 20082 30005 55042;EQDQ01  00002PRCP99
0163133890999992000101709004+42980+021950FM-12+023299999V0209999C000010360019N0100001N1+01601+01151102291ADDAA199000091GF107991041051012501071001MA1999999099541MD1110041+9999REMSYN066AAXX  17091 13389 32697 70000 10160 20115 39954 40229 51004 84570;EQDQ01  00002PRCP99
0163133890999992000101712004+42980+021950FM-12+023299999V0203301N002012200019N0100001N1+02001+01051102151ADDAA199000091GF103991021001999999031011MA1999999099441MD1810101+9999REMSYN066AAXX  17121 13389 32997 33302 10200 20105 39944 40215 58010 82031;EQDQ01  00002PRCP99
0163133890999992000101715004+42980+021950FM-12+023299999V0203101N001010360019N0100001N1+02101+01171102031ADDAA199000091GF105991021051012501031001MA1999999099341MD1610101+9999REMSYN066AAXX  17151 13389 32697 53101 10210 20117 39934 40203 56010 82530;EQDQ01  00002PRCP99
0186133890999992000101718004+42980+021950FM-12+023299999V0202001N001010360019N0100001N1+01611+01031102211ADDAA199000091GF107991031051012501031001KA1999M+02151MA1999999099461MD1310121+9999REMSYN076AAXX  17181 13389 32697 72001 10161 20103 39946 40221 53012 83530 333 10215;EQDQ01  00002PRCP99
0163133890999992000101721004+42980+021950FM-12+023299999V0201801N002019999999N0100001N1+01441+00981102301ADDAA199000091GF107991071001999999071001MA1999999099531MD1110071+9999REMSYN066AAXX  17211 13389 32997 71802 10144 20098 39953 40230 51007 87070;EQDQ01  00002PRCP99
0163133890999992000101800004+42980+021950FM-12+023299999V0202001N001012200019N0100001N1+01101+00941102331ADDAA199000091GF103991031001999999031001MA1999999099531MD1410001+9999REMSYN066AAXX  18001 13389 32997 32001 10110 20094 39953 40233 54000 83030;EQDQ01  00002PRCP99
0163133890999992000101803004+42980+021950FM-12+023299999V0209999C000010120019N0100001N1+01091+00981102331ADDAA199000091GF108991081051012501999999MA1999999099531MD1410001+9999REMSYN066AAXX  18031 13389 32697 80000 10109 20098 39953 40233 54000 885//;EQDQ01  00002PRCP99
0231133890999992000101806004+42980+021950FM-12+023299999V0209999C000010360019N0100001N1+01141+01061102331ADDAA112000591AY161061AY221061GF107991041051012501071999IA1099IA2999+00609KA1120N+00981MA1999999099531MD1410001+9999MW1211REMSYN100AAXX  18061 13389 11697 70000 10114 20106 39953 40233 54000 69942 72162 8457/ 333 20098 31006 55016;
0144133890999992000101812004+42980+021950FM-12+023299999V0202901N002019999999N0100001N1+01861+01001102201ADDAA199000021GF105991031001999999031011MA1999999099481MD1810101+9999REMSYN066AAXX  18121 13389 32997 52902 10186 20100 39948 40220 58010 83031;
0163133890999992000101821004+42980+021950FM-12+023299999V0202001N001012200019N0100001N1+00981+00941102271ADDAA199000091GF101991011001999999031001MA1999999099461MD1110061+9999REMSYN066AAXX  18211 13389 32997 12001 10098 20094 39946 40227 51006 81030;EQDQ01  00002PRCP99
0178133890999992000101900004+42980+021950FM-12+023299999V0202501N001010120019N0100001N1+01121+01031102301ADDAA106000791AY161061AY221061GF108991081051012501999999MA1999999099501MD1310041+9999MW1611REMSYN078AAXX  19001 13389 11697 82501 10112 20103 39950 40230 53004 69901 76162 885//;
0172133890999992000101903004+42980+021950FM-12+023299999V0209999C000010075019N0100001N1+01081+01031102281ADDAA199000021AY191031AY261031GF108991081061008001999999MA1999999099481MD1610021+9999MW1211REMSYN072AAXX  19031 13389 31597 80000 10108 20103 39948 40228 56002 72196 886//;
0203133890999992000101906004+42980+021950FM-12+023299999V0209999C000010075019N0020001N1+01101+01061102271ADDAA112007991GF108991081071008001999999IA1099IA2999+00609KA1120N+00981MA1999999099471MD1610011+9999REMSYN094AAXX  19061 13389 11595 80000 10110 20106 39947 40227 56001 60082 887// 333 20098 31006 55015;
0172133890999992000101909004+42980+021950FM-12+023299999V0209999C000010360019N0010001N1+01121+01081102371ADDAA199000021AY161031AY261031GF108991031071008001021999MA1999999099571MD1310101+9999MW1631REMSYN072AAXX  19091 13389 32594 80000 10112 20108 39957 40237 53010 76366 8372/;
0178133890999992000101912004+42980+021950FM-12+023299999V0202701N001010360019N0040001N1+01201+01111102361ADDAA106002091AY161061AY261061GF108991031071008001021999MA1999999099571MD1510001+9999MW1611REMSYN078AAXX  19121 13389 11596 82701 10120 20111 39957 40236 55000 60021 76166 8372/;
0172133890999992000101915004+42980+021950FM-12+023299999V0202501N001010120019N0040001N1+01141+01021102371ADDAA199000021AY121031AY261031GF108991081051012501999999MA1999999099571MD1410001+9999MW1101REMSYN072AAXX  19151 13389 31696 82501 10114 20102 39957 40237 54000 71026 885//;
0201133890999992000101918004+42980+021950FM-12+023299999V0202001N002010120019N0040001N1+00981+00881102541ADDAA112003091AY121061AY261061GF108991081051012501999999KA1999M+01231MA1999999099731MD1310161+9999MW1101REMSYN088AAXX  19181 13389 11696 82002 10098 20088 39973 40254 53016 60032 71026 885// 333 10123;
0172133890999992000101921004+42980+021950FM-12+023299999V0202001N002010120019N0040001N1+00931+00881102701ADDAA199000021AY121031AY221031GF108991081051012501999999MA1999999099871MD1210141+9999MW1101REMSYN072AAXX  19211 13389 31696 82002 10093 20088 39987 40270 52014 71022 885//;
0172133890999992000102000004+42980+021950FM-12+023299999V0209999C000010120019N0040001N1+00881+00831102711ADDAA199000021AY121061AY221061GF108991081051012501999999MA1999999099881MD1110011+9999MW1101REMSYN072AAXX  20001 13389 31696 80000 10088 20083 39988 40271 51001 71022 885//;
0191133890999992000102003004+42980+021950FM-12+023299999V0201901N001010120019N0040001N1+00861+00791102711ADDAA199000091AY121031AY221031GF108991081051012501999999MA1999999099881MD1410001+9999MW1101REMSYN072AAXX  20031 13389 31696 81901 10086 20079 39988 40271 54000 71022 885//;EQDQ01  00002PRCP99
0216133890999992000102006004+42980+021950FM-12+023299999V0201801N001010120019N0100001N1+00841+00771102851ADDAA199000091GF108991081051012501999999IA1099IA2999+00809KA1120N+00841MA1999999100011MD1310131+9999REMSYN088AAXX  20061 13389 32697 81801 10084 20077 30001 40285 53013 885// 333 20084 31008 55000;EQDQ01  00002PRCP99
0163133890999992000102009004+42980+021950FM-12+023299999V0202101N001010150019N0100001N1+01041+00791102991ADDAA199000091GF108991081081012501999999MA1999999100111MD1210101+9999REMSYN066AAXX  20091 13389 32697 82101 10104 20079 30011 40299 52010 888//;EQDQ01  00002PRCP99
0163133890999992000102012004+42980+021950FM-12+023299999V0202101N002010150019N0200001N1+02131+00741102871ADDAA199000091GF108991081081012501999999MA1999999100071MD1810041+9999REMSYN066AAXX  20121 13389 32698 82102 10213 20074 30007 40287 58004 888//;EQDQ01  00002PRCP99
0163133890999992000102015004+42980+021950FM-12+023299999V0201201N001012200019N0200001N1+01241+00721102841ADDAA199000091GF104991021081012501031001MA1999999100041MD1610031+9999REMSYN066AAXX  20151 13389 32698 41201 10124 20072 30004 40284 56003 82830;EQDQ01  00002PRCP99
0186133890999992000102018004+42980+021950FM-12+023299999V0200601N002012200019N0200001N1+00571+00081103071ADDAA199000091GF103991031001999999031001KA1999M+01331MA1999999100221MD1310181+9999REMSYN076AAXX  20181 13389 32998 30602 10057 20008 30022 40307 53018 83030 333 10133;EQDQ01  00002PRCP99
0163133890999992000102021004+42980+021950FM-12+023299999V0201801N001012200019N0200001N1+00571+00251103191ADDAA199000091GF104991021051012501031001MA1999999100321MD1110101+9999REMSYN066AAXX  20211 13389 32698 41801 10057 20025 30032 40319 51010 82530;EQDQ01  00002PRCP99
0173133890999992000102100004+42980+021950FM-12+023299999V0202001N001012200019N0200001N1+00191+00121103291ADDAA199000091GA1001+999999999GF100991001001999999001001MA1999999100381MD1310061+9999REMSYN060AAXX  21001 13389 32998 02001 10019 20012 30038 40329 53006;EQDQ01  00002PRCP99
0173133890999992000102103004+42980+021950FM-12+023299999V0202001N001012200019N0200001N1+00011-00021103331ADDAA199000091GA1001+999999999GF100991001001999999001001MA1999999100381MD1410001+9999REMSYN060AAXX  21031 13389 32998 02001 10001 21002 30038 40333 54000;EQDQ01  00002PRCP99
0226133890999992000102106004+42980+021950FM-12+023299999V0209999C000012200019N0200001N1-00061-00091103431ADDAA199000091GA1001+999999999GF100991001001999999001001IA1149IA2999-00509KA1120N-00111MA1999999100471MD1310091+9999REMSYN082AAXX  21061 13389 32998 00000 11006 21009 30047 40343 53009 333 21011 34105 55000;EQDQ01  00002PRCP99
0173133890999992000102109004+42980+021950FM-12+023299999V0209999C000012200019N0200001N1+00861+00451103331ADDAA199000091GA1001+999999999GF100991001001999999001001MA1999999100491MD1110021+9999REMSYN060AAXX  21091 13389 32998 00000 10086 20045 30049 40333 51002;EQDQ01  00002PRCP99
0173133890999992000102112004+42980+021950FM-12+023299999V0203401N002012200019N0200001N1+01461+00041103121ADDAA199000091GA1001+999999999GF100991001001999999001001MA1999999100331MD1810161+9999REMSYN060AAXX  21121 13389 32998 03402 10146 20004 30033 40312 58016;EQDQ01  00002PRCP99
0173133890999992000102115004+42980+021950FM-12+023299999V0203101N002012200019N0200001N1+01381+00061103081ADDAA199000091GA1001+999999999GF100991001001999999001001MA1999999100281MD1610051+9999REMSYN060AAXX  21151 13389 32998 03102 10138 20006 30028 40308 56005;EQDQ01  00002PRCP99
0196133890999992000102118004+42980+021950FM-12+023299999V0209999C000012200019N0200001N1+00681+00251103241ADDAA199000091GA1001+999999999GF100991001001999999001001KA1999M+01541MA1999999100371MD1310091+9999REMSYN070AAXX  21181 13389 32998 00000 10068 20025 30037 40324 53009 333 10154;EQDQ01  00002PRCP99
0174133890999992000102121004+42980+021950FM-12+023299999V0209999C000012200019N0200001N1+00161-00151103451ADDAA199000091GA1001+999999999GF100991001001999999001001MD1210101+9999REMSYN060AAXX  21211 13389 32998 00000 10016 21015 39804 40345 52010;EQDQ01+098043APOSP Q02  00002PRCP99
0173133890999992000102200004+42980+021950FM-12+023299999V0209999C000012200019N0200001N1+00021-00041103531ADDAA199000091GA1001+999999999GF100991001001999999001001MA1999999100581MD1110011+9999REMSYN060AAXX  22001 13389 32998 00000 10002 21004 30058 40353 51001;EQDQ01  00002PRCP99
0173133890999992000102203004+42980+021950FM-12+023299999V0202001N001012200019N0200001N1-00121-00151103541ADDAA199000091GA1001+999999999GF100991001001999999001001MA1999999100581MD1410001+9999REMSYN060AAXX  22031 13389 32998 02001 11012 21015 30058 40354 54000;EQDQ01  00002PRCP99
0226133890999992000102206004+42980+021950FM-12+023299999V0209999C000012200019N0200001N1-00161-00231103621ADDAA199000091GA1001+999999999GF100991001001999999001001IA1149IA2999-00609KA1120N-00251MA1999999100051MD1310071+9999REMSYN082AAXX  22061 13389 32998 00000 11016 21023 30005 40362 53007 333 21025 34106 55091;EQDQ01  00002PRCP99
0174133890999992000102209004+42980+021950FM-12+023299999V0202701N001012200019N0100001N1+00741+00041103461ADDAA199000091GA1001+999999999GF100991001001999999001001MD1810051+9999REMSYN060AAXX  22091 13389 32997 02701 10074 20004 39816 40346 58005;EQDQ01+098163APOSP Q02  00002PRCP99
0173133890999992000102212004+42980+021950FM-12+023299999V0201001N001012200019N0200001N1+01251+00181103251ADDAA199000091GA1001+999999999GF100991001001999999001001MA1999999100441MD1810241+9999REMSYN060AAXX  22121 13389 32998 01001 10125 20018 30044 40325 58024;EQDQ01  00002PRCP99
0173133890999992000102215004+42980+021950FM-12+023299999V0202801N002012200019N0200001N1+01381+00121103131ADDAA199000091GA1001+999999999GF100991001001999999001001MA1999999100341MD1710101+9999REMSYN060AAXX  22151 13389 32998 02802 10138 20012 30034 40313 57010;EQDQ01  00002PRCP99
0196133890999992000102218004+42980+021950FM-12+023299999V0202001N002012200019N0200001N1+00591+00401103311ADDAA199000091GA1001+999999999GF100991001001999999001001KA1999M+01461MA1999999100441MD1310101+9999REMSYN070AAXX  22181 13389 32998 02002 10059 20040 30044 40331 53010 333 10146;EQDQ01  00002PRCP99
0173133890999992000102221004+42980+021950FM-12+023299999V0209999C000012200019N0200001N1+00191+00091103431ADDAA199000091GA1001+999999999GF100991001001999999001001MA1999999100501MD1110061+9999REMSYN060AAXX  22211 13389 32998 00000 10019 20009 30050 40343 51006;EQDQ01  00002PRCP99
0173133890999992000102300004+42980+021950FM-12+023299999V0209999C000012200019N0200001N1-00101-00191103451ADDAA199000091GA1001+999999999GF100991001001999999001001MA1999999100501MD1410001+9999REMSYN060AAXX  23001 13389 32998 00000 11010 21019 30050 40345 54000;EQDQ01  00002PRCP99
0173133890999992000102303004+42980+021950FM-12+023299999V0209999C000012200019N0200001N1-00241-00291103461ADDAA199000091GA1001+999999999GF100991001001999999001001MA1999999100501MD1410001+9999REMSYN060AAXX  23031 13389 32998 00000 11024 21029 30050 40346 54000;EQDQ01  00002PRCP99
0226133890999992000102306004+42980+021950FM-12+023299999V0202001N001012200019N0200001N1-00241-00291103491ADDAA199000091GA1001+999999999GF100991001001999999001001IA1149IA2999-00609KA1120N-00291MA1999999100521MD1310021+9999REMSYN082AAXX  23061 13389 32998 02001 11024 21029 30052 40349 53002 333 21029 34106 55096;EQDQ01  00002PRCP99
0173133890999992000102309004+42980+021950FM-12+023299999V0209999C000012200019N0200001N1+00791+00231103321ADDAA199000091GA1001+999999999GF100991001001999999001001MA1999999100471MD1810051+9999REMSYN060AAXX  23091 13389 32998 00000 10079 20023 30047 40332 58005;EQDQ01  00002PRCP99
0173133890999992000102312004+42980+021950FM-12+023299999V0209999C000012200019N0200001N1+01321+00041103041ADDAA199000091GA1001+999999999GF100991001001999999001001MA1999999100231MD1710241+9999REMSYN060AAXX  23121 13389 32998 00000 10132 20004 30023 40304 57024;EQDQ01  00002PRCP99
0173133890999992000102315004+42980+021950FM-12+023299999V0202901N002012200019N0200001N1+01421-00021102921ADDAA199000091GA1001+999999999GF100991001001999999001001MA1999999100131MD1610101+9999REMSYN060AAXX  23151 13389 32998 02902 10142 21002 30013 40292 56010;EQDQ01  00002PRCP99
0212133890999992000102318004+42980+021950FM-12+023299999V0201601N002012200019N0200001N1+00631+00231999999ADDAA199000091GA1001+999999999GF100991001001999999001001KA1999M+01541MA1999999100151MD1310021+9999REMSYN070AAXX  23181 13389 32998 01602 10063 20023 30015 40202 53002 333 10154;EQDQ01+102023APOSLPQ02  00002PRCP99
0167133890999992000102321004+42980+021950FM-12+023299999V0209999C000012200019N0200001N1+00121+99999103111ADDAA199000091GA1001+999999999GF100991001001999999001001MA1999999100181MD1110031+9999REMSYN054AAXX  23211 13389 32998 00000 10012 30018 40311 51003;EQDQ01  00002PRCP99
0173133890999992000102400004+42980+021950FM-12+023299999V0209999C000012200019N0200001N1-00081-00151103131ADDAA199000091GA1001+999999999GF100991001001999999001001MA1999999100181MD1410001+9999REMSYN060AAXX  24001 13389 32998 00000 11008 21015 30018 40313 54000;EQDQ01  00002PRCP99
0173133890999992000102403004+42980+021950FM-12+023299999V0201301N002012200019N0200001N1-00251-00331103041ADDAA199000091GA1001+999999999GF100991001001999999001001MA1999999100081MD1810101+9999REMSYN060AAXX  24031 13389 32998 01302 11025 21033 30008 40304 58010;EQDQ01  00002PRCP99
0216133890999992000102406004+42980+021950FM-12+023299999V0209999C000012200019N0200001N1-00361-00481103021ADDAA199000091GF101991001001999999001011IA1149IA2999-00709KA1120N-00391MA1999999100041MD1710041+9999REMSYN088AAXX  24061 13389 32998 10000 11036 21048 30004 40302 57004 80001 333 21039 34107 55092;EQDQ01  00002PRCP99
0163133890999992000102409004+42980+021950FM-12+023299999V02099999999992200019N0200001N1+00761+00121102801ADDAA199000091GF101991001001999999001011MA1999999099961MD1810081+9999REMSYN066AAXX  24091 13389 32998 1//// 10076 20012 39996 40280 58008 80001;EQDQ01  00002PRCP99
0173133890999992000102415004+42980+021950FM-12+023299999V0209999C000012200019N0200001N1+01731+00101102271ADDAA199000091GA1001+999999999GF100991001001999999001001MA1999999099521MD1710171+9999REMSYN060AAXX  24151 13389 32998 00000 10173 2001/ 39952 40227 57017;EQDQ01  00002PRCP99
0196133890999992000102418004+42980+021950FM-12+023299999V0202101N002012200019N0200001N1+00531+00201102451ADDAA199000091GA1001+999999999GF100991001001999999001001KA1999M+01871MA1999999099581MD1310061+9999REMSYN070AAXX  24181 13389 32998 02102 10053 20020 39958 40245 53006 333 10187;EQDQ01  00002PRCP99
0173133890999992000102421004+42980+021950FM-12+023299999V0209999C000012200019N0200001N1+00041-00091102571ADDAA199000091GA1001+999999999GF100991001001999999001001MA1999999099651MD1210071+9999REMSYN060AAXX  24211 13389 32998 00000 10004 21009 39965 40257 52007;EQDQ01  00002PRCP99
0173133890999992000102500004+42980+021950FM-12+023299999V0201801N001012200019N0200001N1-00121-00191102561ADDAA199000091GA1001+999999999GF100991001001999999001001MA1999999099631MD1610021+9999REMSYN060AAXX  25001 13389 32998 01801 11012 21019 39963 40256 56002;EQDQ01  00002PRCP99
0173133890999992000102503004+42980+021950FM-12+023299999V0209999C000012200019N0200001N1-00341-00441102571ADDAA199000091GA1001+999999999GF100991001001999999001001MA1999999099611MD1810021+9999REMSYN060AAXX  25031 13389 32998 00000 11034 21044 39961 40257 58002;EQDQ01  00002PRCP99
0163133890999992000102512004+42980+021950FM-12+023299999V0200201N002012200019N0200001N1+01641-00091102151ADDAA199000091GF102991001001999999001011MA1999999099401MD1810251+9999REMSYN066AAXX  25121 13389 32998 20202 10164 21009 39940 40215 58025 80001;EQDQ01  00002PRCP99
0196133890999992000102518004+42980+021950FM-12+023299999V0201401N001012200019N0200001N1+00651+00281102181ADDAA199000091GA1001+999999999GF100991001001999999001001KA1999M+01951MA1999999099341MD1310051+9999REMSYN070AAXX  25181 13389 32998 01401 10065 20028 39934 40218 53005 333 10195;EQDQ01  00002PRCP99
0174133890999992000102521004+42980+021950FM-12+023299999V0201801N001012200019N0200001N1+00251+00091102291ADDAA199000091GA1001+999999999GF100991001001999999001001MD1110051+9999REMSYN060AAXX  25211 13389 32998 01801 10025 20009 39739 40229 51005;EQDQ01+097393APOSP Q02  00002PRCP99
0173133890999992000102600004+42980+021950FM-12+023299999V0201801N002012200019N0200001N1+00051-00061102311ADDAA199000091GA1001+999999999GF100991001001999999001001MA1999999099391MD1410001+9999REMSYN060AAXX  26001 13389 32998 01802 10005 21006 39939 40231 54000;EQDQ01  00002PRCP99
0173133890999992000102603004+42980+021950FM-12+023299999V0201801N001012200019N0200001N1-00151-00191102281ADDAA199000091GA1001+999999999GF100991001001999999001001MA1999999099341MD1810051+9999REMSYN060AAXX  26031 13389 32998 01801 11015 21019 39934 40228 58005;EQDQ01  00002PRCP99
0226133890999992000102606004+42980+021950FM-12+023299999V0201801N001012200019N0200001N1-00191-00251102311ADDAA199000091GA1001+999999999GF100991001001999999001001IA1149IA2999-00609KA1120N-00241MA1999999099371MD1310031+9999REMSYN082AAXX  26061 13389 32998 01801 11019 21025 39937 40231 53003 333 21024 34106 55091;EQDQ01  00002PRCP99
0173133890999992000102609004+42980+021950FM-12+023299999V0203601N001012200019N0100001N1+01061-00061102171ADDAA199000091GA1001+999999999GF100991001001999999001001MA1999999099371MD1410001+9999REMSYN060AAXX  26091 13389 32997 03601 10106 21006 39937 40217 54000;EQDQ01  00002PRCP99
0173133890999992000102612004+42980+021950FM-12+023299999V0203601N001012200019N0200001N1+01821+00121101821ADDAA199000091GA1001+999999999GF100991001001999999001001MA1999999099101MD1710271+9999REMSYN060AAXX  26121 13389 32998 03601 10182 20012 39910 40182 57027;EQDQ01  00002PRCP99
0173133890999992000102615004+42980+021950FM-12+023299999V0203201N001012200019N0200001N1+01921+00201101671ADDAA199000091GA1001+999999999GF100991001001999999001001MA1999999098961MD1710141+9999REMSYN060AAXX  26151 13389 32998 03201 10192 20020 39896 40167 57014;EQDQ01  00002PRCP99
0196133890999992000102618004+42980+021950FM-12+023299999V0202101N001012200019N0200001N1+00801+00491101831ADDAA199000091GA1001+999999999GF100991001001999999001001KA1999M+02041MA1999999099021MD1310061+9999REMSYN070AAXX  26181 13389 32998 02101 10080 20049 39902 40183 53006 333 10204;EQDQ01  00002PRCP99
0173133890999992000102621004+42980+021950FM-12+023299999V0201801N001012200019N0200001N1+00281+00181101941ADDAA199000091GA1001+999999999GF100991001001999999001001MA1999999099061MD1110041+9999REMSYN060AAXX  26211 13389 32998 01801 10028 20018 39906 40194 51004;EQDQ01  00002PRCP99
0216133890999992000102706004+42980+021950FM-12+023299999V0201901N001010360019N0200001N1+00281+00181101941ADDAA199000091GF106991031051012501061031IA1099IA2999-00209KA1120N+00141MA1999999099061MD1410001+9999REMSYN088AAXX  27061 13389 32698 61901 10028 20018 39906 40194 54000 83563 333 20014 31102 55089;EQDQ01  00002PRCP99
0163133890999992000102709004+42980+021950FM-12+023299999V0209999C000010360019N0200001N1+01161+00281101851ADDAA199000091GF107991021051012501071001MA1999999099081MD1010021+9999REMSYN066AAXX  27091 13389 32698 70000 10116 20028 39908 40185 50002 82570;EQDQ01  00002PRCP99
0163133890999992000102712004+42980+021950FM-12+023299999V0203001N001012200019N0200001N1+01941+00351101611ADDAA199000091GF101991011001999999031001MA1999999098911MD1710171+9999REMSYN066AAXX  27121 13389 32998 13001 10194 20035 39891 40161 57017 81030;EQDQ01  00002PRCP99
0163133890999992000102715004+42980+021950FM-12+023299999V0209999C000012200019N0200001N1+01881+00401101551ADDAA199000091GF102991011011012501031001MA1999999098851MD1610061+9999REMSYN066AAXX  27151 13389 32698 20000 10188 20040 39885 40155 56006 81130;EQDQ01  00002PRCP99
0192133890999992000102718004+42980+021950FM-12+023299999V0203201N005010120019N0200001N1+01141+00641102131ADDAA199000091GF108991081051012501999999KA1120M+02031MA1999999099341MD1310491+9999REMSYN082AAXX  27181 13389 32698 83205 10114 20064 39934 40213 53049 885// 333 10203 91116;EQDQ01  00002PRCP99
0172133890999992000102721004+42980+021950FM-12+023299999V0202901N001010120019N0040001N1+00871+00761102381ADDAA199000021AY161031AY261031GF108991081001012501021999MA1999999099561MD1210221+9999MW1611REMSYN072AAXX  27211 13389 31696 82901 10087 20076 39956 40238 52022 76166 8802/;
0197133890999992000102800004+42980+021950FM-12+023299999V0209999C000010120019N0200001N1+00801+00721999999ADDAA106003091AY121061AY261061GF107991071051012501001001MA1999999099641MD1210081+9999MW1021REMSYN078AAXX  28001 13389 11698 70000 10080 20072 39964 40147 52008 60031 70226 87500;EQDQ01+101473APOSLP
0144133890999992000102803004+42980+021950FM-12+023299999V0202001N001010120019N0100001N1+00531+00471102561ADDAA199000021GF106991061051012501001001MA1999999099701MD1210061+9999REMSYN066AAXX  28031 13389 32697 62001 10053 20047 39970 40256 52006 86500;
0203133890999992000102806004+42980+021950FM-12+023299999V0209999C000010120019N0100001N1+00581+00511102651ADDAA112003091GF107991071051012501001001IA1099IA2999+00109KA1120N+00471MA1999999099801MD1210101+9999REMSYN094AAXX  28061 13389 12697 70000 10058 20051 39980 40265 52010 60032 87500 333 20047 31001 55052;
0172133890999992000102809004+42980+021950FM-12+023299999V0201601N001012200019N0040001N1+00911+00681102731ADDAA199000021AY121031AY221031GF104991041081012501001001MA1999999099901MD1110101+9999MW1101REMSYN072AAXX  28091 13389 31696 41601 10091 20068 39990 40273 51010 71022 84800;
0163133890999992000102812004+42980+021950FM-12+023299999V0200301N002012200019N0200001N1+01221+00351102581ADDAA199000091GF103991031081012501001001MA1999999099791MD1810111+9999REMSYN066AAXX  28121 13389 32698 30302 10122 20035 39979 40258 58011 83800;EQDQ01  00002PRCP99
0163133890999992000102815004+42980+021950FM-12+023299999V0209999C000012200019N0200001N1+01101+00421102541ADDAA199000091GF102991021081012501001001MA1999999099741MD1610051+9999REMSYN066AAXX  28151 13389 32698 20000 10110 20042 39974 40254 56005 82800;EQDQ01  00002PRCP99
0196133890999992000102818004+42980+021950FM-12+023299999V0201201N001012200019N0200001N1+00431+00331102711ADDAA199000091GA1001+999999999GF100991001001999999001001KA1999M+01331MA1999999099831MD1310091+9999REMSYN070AAXX  28181 13389 32998 01201 10043 20033 39983 40271 53009 333 10133;EQDQ01  00002PRCP99
0173133890999992000102821004+42980+021950FM-12+023299999V0209999C000012200019N0200001N1+00081+00011102821ADDAA199000091GA1001+999999999GF100991001001999999001001MA1999999099901MD1110071+9999REMSYN060AAXX  28211 13389 32998 00000 10008 20001 39990 40282 51007;EQDQ01  00002PRCP99
0173133890999992000102900004+42980+021950FM-12+023299999V0201801N001012200019N0200001N1-00101-00151102841ADDAA199000091GA1001+999999999GF100991001001999999001001MA1999999099901MD1410001+9999REMSYN060AAXX  29001 13389 32998 01801 11010 21015 39990 40284 54000;EQDQ01  00002PRCP99
0173133890999992000102903004+42980+021950FM-12+023299999V0209999C000012200019N0200001N1-00231-00291102781ADDAA199000091GA1001+999999999GF100991001001999999001001MA1999999099931MD1810071+9999REMSYN060AAXX  29031 13389 32998 00000 11023 21029 39993 40278 58007;EQDQ01  00002PRCP99
0254133890999992000102906004+42980+021950FM-12+023299999V0201401N001012200019N0010001N1-00241-00291102741ADDAA199000091AY101061AY201061GA1001+999999999GF100991001001999999001001IA1149IA2999-00609KA1120N-00321MA1999999099791MD1610041+9999MW1101REMSYN088AAXX  29061 13389 31994 01401 11024 21029 39979 40274 56004 71000 333 21032 34106 55046;EQDQ01  00002PRCP99
0173133890999992000102909004+42980+021950FM-12+023299999V0209999C000012200019N0200001N1+00701+00251102611ADDAA199000091GA1001+999999999GF100991001001999999001001MA1999999099761MD1810031+9999REMSYN060AAXX  29091 13389 32998 00000 10070 20025 39976 40261 58003;EQDQ01  00002PRCP99
0173133890999992000102912004+42980+021950FM-12+023299999V0209999C000012200019N0200001N1+01591+00451102291ADDAA199000091GA1001+999999999GF100991001001999999001001MA1999999099541MD1710221+9999REMSYN060AAXX  29121 13389 32998 00000 10159 20045 39954 40229 57022;EQDQ01  00002PRCP99
0163133890999992000102915004+42980+021950FM-12+023299999V0209999C000012200019N0200001N1+01731+00421102141ADDAA199000091GF101991001001999999001011MA1999999099411MD1610131+9999REMSYN066AAXX  29151 13389 32998 10000 10173 20042 39941 40214 56013 80001;EQDQ01  00002PRCP99
0196133890999992000102918004+42980+021950FM-12+023299999V0209999C000012200019N0200001N1+00781+00581102321ADDAA199000091GA1001+999999999GF100991001001999999001001KA1999M+01901MA1999999099491MD1310081+9999REMSYN070AAXX  29181 13389 32998 00000 10078 20058 39949 40232 53008 333 10190;EQDQ01  00002PRCP99
0173133890999992000102921004+42980+021950FM-12+023299999V0209999C000012200019N0200001N1+00351+00251102421ADDAA199000091GA1001+999999999GF100991001001999999001001MA1999999099551MD1110061+9999REMSYN060AAXX  29211 13389 32998 00000 10035 20025 39955 40242 51006;EQDQ01  00002PRCP99
0173133890999992000103000004+42980+021950FM-12+023299999V0209999C000012200019N0200001N1+00161+00091102451ADDAA199000091GA1001+999999999GF100991001001999999001001MA1999999099551MD1410001+9999REMSYN060AAXX  30001 13389 32998 00000 10016 20009 39955 40245 54000;EQDQ01  00002PRCP99
0205133890999992000103003004+42980+021950FM-12+023299999V0209999C000012200019N0200001N1+00121+00061102491ADDAA199000091GA1001+999999999GF100991001001999999001001MA1999999999999MD1310031+9999REMSYN060AAXX  30031 13389 32998 00000 10012 20006 39758 40249 53003;EQDQ01+097583APOSP Q02  00002PRCP99Q03 097583APOSP 
0270133890999992000103006004+42980+021950FM-12+023299999V0202001N001012200019N0040001N1+00061+00041102501ADDAA199000091AY101061AY201061GA1001+999999999GF100991001001999999001001IA1149IA2999-00209KA1120N+00061MA1999999099592MD1310011+9999MW1101REMSYN088AAXX  30061 13389 31996 02001 10006 20004 39959 40250 53001 71000 333 20006 34102 55086;EQDQ01+099593APOSP Q02  00002PRCP99
0173133890999992000103009004+42980+021950FM-12+023299999V0209999C000012200019N0100001N1+01231+00681102391ADDAA199000091GA1001+999999999GF100991001001999999001001MA1999999099601MD1010011+9999REMSYN060AAXX  30091 13389 32997 00000 10123 20068 39960 40239 50001;EQDQ01  00002PRCP99
0173133890999992000103012004+42980+021950FM-12+023299999V0201601N003012200019N0200001N1+02001+00601102081ADDAA199000091GA1001+999999999GF100991001001999999001001MA1999999099371MD1710231+9999REMSYN060AAXX  30121 13389 32998 01603 10200 20060 39937 40208 57023;EQDQ01  00002PRCP99
0173133890999992000103015004+42980+021950FM-12+023299999V0201201N002012200019N0200001N1+01851+00581101911ADDAA199000091GA1001+999999999GF100991001001999999001001MA1999999099191MD1710181+9999REMSYN060AAXX  30151 13389 32998 01202 10185 20058 39919 40191 57018;EQDQ01  00002PRCP99
0196133890999992000103018004+42980+021950FM-12+023299999V0209999C000012200019N0200001N1+00981+00681102041ADDAA199000091GA1001+999999999GF100991001001999999001001KA1999M+02101MA1999999099241MD1310051+9999REMSYN070AAXX  30181 13389 32998 00000 10098 20068 39924 40204 53005 333 10210;EQDQ01  00002PRCP99
0173133890999992000103021004+42980+021950FM-12+023299999V0209999C000012200019N0200001N1+00561+00421102081ADDAA199000091GA1001+999999999GF100991001001999999001001MA1999999099241MD1410001+9999REMSYN060AAXX  30211 13389 32998 00000 10056 20042 39924 40208 54000;EQDQ01  00002PRCP99
0173133890999992000103100004+42980+021950FM-12+023299999V0202001N002012200019N0200001N1+00441+00351102101ADDAA199000091GA1001+999999999GF100991001001999999001001MA1999999099241MD1410001+9999REMSYN060AAXX  31001 13389 32998 02002 10044 20035 39924 40210 54000;EQDQ01  00002PRCP99
0163133890999992000103103004+42980+021950FM-12+023299999V0201301N002019999999N0200001N1+01101+00701101971ADDAA199000091GF107991071001999999071001MA1999999099181MD1810061+9999REMSYN066AAXX  31031 13389 32998 71302 10110 20070 39918 40197 58006 87070;EQDQ01  00002PRCP99
0216133890999992000103106004+42980+021950FM-12+023299999V0209999C000010360019N0200001N1+00941+00721101991ADDAA199000091GF107991031051012501071001IA1099IA2999+00009KA1120N+00431MA1999999099181MD1410001+9999REMSYN088AAXX  31061 13389 32698 70000 10094 20072 39918 40199 54000 83570 333 20043 31000 55088;EQDQ01  00002PRCP99
0163133890999992000103109004+42980+021950FM-12+023299999V0201201N002010120019N0200001N1+01501+00811101861ADDAA199000091GF107991071051012501001001MA1999999099111MD1610071+9999REMSYN066AAXX  31091 13389 32698 71202 10150 20081 39911 40186 56007 87500;EQDQ01  00002PRCP99
0163133890999992000103112004+42980+021950FM-12+023299999V0201501N002010150019N0200001N1+01941+00681101631ADDAA199000091GF107991071081012501001001MA1999999098931MD1810181+9999REMSYN066AAXX  31121 13389 32698 71502 10194 20068 39893 40163 58018 87800;EQDQ01  00002PRCP99
0163133890999992000103115004+42980+021950FM-12+023299999V0201201N002012200019N0200001N1+01991+00701101471ADDAA199000091GF102991011011012501031001MA1999999098781MD1610151+9999REMSYN066AAXX  31151 13389 32698 21202 10199 20070 39878 40147 56015 81130;EQDQ01  00002PRCP99
0190133890999992000103118004+42980+021950FM-12+023299999V0209999C000012200019N0200001N1+01221+00831999999ADDAA199000091GA1001+999999999GF100991001001999999001001KA1999M+02061MA1999999098861MD1110081+9999REMSYN064AAXX  31181 13389 32998 00000 10122 20083 39886 51008 333 10206;EQDQ01  00002PRCP99
0163133890999992000103121004+42980+021950FM-12+023299999V0201201N002019999999N0200001N1+01331+00901101661ADDAA199000091GF106991061001999999071001MA1999999098901MD1010041+9999REMSYN066AAXX  31211 13389 32998 61202 10133 20090 39890 40166 50004 86070;EQDQ01  00002PRCP99
0163133890999992000110103004+42980+021950FM-12+023299999V0209999C000012200019N0200001N1+01081+00771101631ADDAA199000091GF102991021001999999031001MA1999999098851MD1810051+9999REMSYN066AAXX  01031 13389 32998 20000 10108 20077 39885 40163 58005 82030;EQDQ01  00002PRCP99
0216133890999992000110106004+42980+021950FM-12+023299999V0202001N002010150019N0200001N1+00861+00741101641ADDAA199000091GF107991071081012501001001IA1099IA2999+00409KA1120N+00751MA1999999098841MD1610011+9999REMSYN088AAXX  01061 13389 32698 72002 10086 20074 39884 40164 56001 87800 333 20075 31004 55009;EQDQ01  00002PRCP99
0163133890999992000110112004+42980+021950FM-12+023299999V0202401N003010360019N0200001N1+02211+00831101271ADDAA199000091GF105991031081012501031011MA1999999098601MD1710221+9999REMSYN066AAXX  01121 13389 32698 52403 10221 20083 39860 40127 57022 83831;EQDQ01  00002PRCP99
0163133890999992000110115004+42980+021950FM-12+023299999V0202001N002010150019N0200001N1+02001+00811101211ADDAA199000091GF107991061081012501031001MA1999999098531MD1610071+9999REMSYN066AAXX  01151 13389 32698 72002 10200 20081 39853 40121 56007 86830;EQDQ01  00002PRCP99
0196133890999992000110118004+42980+021950FM-12+023299999V0209999C000012200019N0200001N1+01471+01031101361ADDAA199000091GA1001+999999999GF100991001001999999001001KA1999M+02281MA1999999098631MD1110101+9999REMSYN070AAXX  01181 13389 32998 00000 10147 20103 39863 40136 51010 333 10228;EQDQ01  00002PRCP99
0173133890999992000110121004+42980+021950FM-12+023299999V0209999C000012200019N0200001N1+01181+00981101461ADDAA199000091GA1001+999999999GF100991001001999999001001MA1999999098701MD1310071+9999REMSYN060AAXX  01211 13389 32998 00000 10118 20098 39870 40146 53007;EQDQ01  00002PRCP99
0178133890999992000110200004+42980+021950FM-12+023299999V0209999C000010120019N0200001N1+01221+01081101571ADDAA106000891AY161061AY211061GF108991081001012501021999MA1999999098801MD1210101+9999MW1611REMSYN078AAXX  02001 13389 11698 80000 10122 20108 39880 40157 52010 69981 76161 8802/;
0172133890999992000110203004+42980+021950FM-12+023299999V0209999C000010120019N0200001N1+01201+01081101571ADDAA199000021AY161031AY221031GF108991081051012501999999MA1999999098801MD1410001+9999MW1021REMSYN072AAXX  02031 13389 31698 80000 10120 20108 39880 40157 54000 70262 885//;
0231133890999992000110206004+42980+021950FM-12+023299999V0202001N001010360019N0040001N1+01051+01001101581ADDAA112002091AY161061AY221061GF105991041081012501031001IA1099IA2999+00809KA1120N+01041MA1999999098791MD1510011+9999MW1101REMSYN100AAXX  02061 13389 11696 52001 10105 20100 39879 40158 55001 60022 71062 84830 333 20104 31008 55034;
0178133890999992000110212004+42980+021950FM-12+023299999V0201401N002010150019N0200001N1+01661+01251101441ADDAA106003091AY161061AY221061GF106991061081012501001001MA1999999098721MD1810111+9999MW1611REMSYN078AAXX  02121 13389 11698 61402 10166 20125 39872 40144 58011 60031 76162 86800;
0144133890999992000110215004+42980+021950FM-12+023299999V0200201N002010150019N0200001N1+01621+01251101431ADDAA199000021GF106991061081012501001001MA1999999098711MD1510011+9999REMSYN066AAXX  02151 13389 32698 60202 10162 20125 39871 40143 55001 86800;
0183133890999992000110218004+42980+021950FM-12+023299999V0209999C000012200019N0200001N1+01151+01051101601ADDAA112003091GA1001+999999999GF100991001001999999001001KA1999M+01941MA1999999098831MD1210121+9999REMSYN076AAXX  02181 13389 12998 00000 10115 20105 39883 40160 52012 60032 333 10194;
0154133890999992000110221004+42980+021950FM-12+023299999V0202001N001012200019N0200001N1+00801+00701101751ADDAA199000021GA1001+999999999GF100991001001999999001001MA1999999098941MD1110111+9999REMSYN060AAXX  02211 13389 32998 02001 10080 20070 39894 40175 51011;
0154133890999992000110300004+42980+021950FM-12+023299999V0201401N001012200019N0200001N1+00641+00561101811ADDAA199000021GA1001+999999999GF100991001001999999001001MA1999999098981MD1310041+9999REMSYN060AAXX  03001 13389 32998 01401 10064 20056 39898 40181 53004;
0173133890999992000110303004+42980+021950FM-12+023299999V0201601N001012200019N0200001N1+00441+00381101831ADDAA199000091GA1001+999999999GF100991001001999999001001MA1999999098981MD1410001+9999REMSYN060AAXX  03031 13389 32998 01601 10044 20038 39898 40183 54000;EQDQ01  00002PRCP99
0216133890999992000110306004+42980+021950FM-12+023299999V0209999C000019999999N0200001N1+00381+00331101871ADDAA199000091GF107991001001999999001061IA1099IA2999+00009KA1120N+00291MA1999999099021MD1310041+9999REMSYN088AAXX  03061 13389 32998 70000 10038 20033 39902 40187 53004 80006 333 20029 31000 55000;EQDQ01  00002PRCP99
0163133890999992000110309004+42980+021950FM-12+023299999V0200201N001012200019N0200001N1+01431+00881101751ADDAA199000091GF102991001001999999001011MA1999999099001MD1810021+9999REMSYN066AAXX  03091 13389 32998 20201 10143 20088 39900 40175 58002 80001;EQDQ01  00002PRCP99
0163133890999992000110312004+42980+021950FM-12+023299999V0201601N002012200019N0200001N1+02041+00641101551ADDAA199000091GF104991011011012501001011MA1999999098861MD1710141+9999REMSYN066AAXX  03121 13389 32698 41602 10204 20064 39886 40155 57014 81101;EQDQ01  00002PRCP99
0163133890999992000110315004+42980+021950FM-12+023299999V0201601N002012200019N0200001N1+01921+00421101521ADDAA199000091GF103991011001999999031011MA1999999098821MD1610041+9999REMSYN066AAXX  03151 13389 32998 31602 10192 20042 39882 40152 56004 81031;EQDQ01  00002PRCP99
0186133890999992000110318004+42980+021950FM-12+023299999V0209999C000012200019N0200001N1+01001+00741101721ADDAA199000091GF102991021001999999031001KA1999M+02101MA1999999098931MD1310111+9999REMSYN076AAXX  03181 13389 32998 20000 10100 20074 39893 40172 53011 82030 333 10210;EQDQ01  00002PRCP99
0173133890999992000110321004+42980+021950FM-12+023299999V0201801N002012200019N0200001N1+01181+00661101751ADDAA199000091GA1001+999999999GF100991001001999999001001MA1999999098981MD1110051+9999REMSYN060AAXX  03211 13389 32998 01802 10118 20066 39898 40175 51005;EQDQ01  00002PRCP99
0173133890999992000110400004+42980+021950FM-12+023299999V0201501N002012200019N0200001N1+01081+00621101801ADDAA199000091GA1001+999999999GF100991001001999999001001MA1999999099021MD1310041+9999REMSYN060AAXX  04001 13389 32998 01502 10108 20062 39902 40180 53004;EQDQ01  00002PRCP99
0173133890999992000110403004+42980+021950FM-12+023299999V0201201N001012200019N0200001N1+00841+00621101881ADDAA199000091GA1001+999999999GF100991001001999999001001MA1999999099071MD1210051+9999REMSYN060AAXX  04031 13389 32998 01201 10084 20062 39907 40188 52005;EQDQ01  00002PRCP99
0232133890999992000110406004+42980+021950FM-12+023299999V0201201N001019999999N0200001N1+00651+00561101961ADDAA199000091GF107991999001999999071001IA1099IA2999+00309KA1120N+00641MA1999999099071MD1410001+9999REMSYN088AAXX  04061 13389 32998 71201 10065 20056 39907 40196 54000 85070 333 20064 31003 55078;EQDQ01+000052SCOTLCQ02  00002PRCP99
0163133890999992000110409004+42980+021950FM-12+023299999V0209999C000019999999N0200001N1+01541+00771101891ADDAA199000091GF108991081001999999071999MA1999999099141MD1310071+9999REMSYN066AAXX  04091 13389 32998 80000 10154 20077 39914 40189 53007 8807/;EQDQ01  00002PRCP99
0163133890999992000110412004+42980+021950FM-12+023299999V0201201N001019999999N0200001N1+01841+00741101711ADDAA199000091GF108991081001999999071999MA1999999099001MD1810141+9999REMSYN066AAXX  04121 13389 32998 81201 10184 20074 39900 40171 58014 8807/;EQDQ01  00002PRCP99
0163133890999992000110415004+42980+021950FM-12+023299999V0200601N001019999999N0200001N1+01901+00831101581ADDAA199000091GF107991031001999999031061MA1999999098881MD1710121+9999REMSYN066AAXX  04151 13389 32998 70601 10190 20083 39888 40158 57012 83036;EQDQ01  00002PRCP99
0186133890999992000110418004+42980+021950FM-12+023299999V0202001N001019999999N0200001N1+01281+00921101741ADDAA199000091GF107991071001999999071001KA1999M+02051MA1999999098981MD1310101+9999REMSYN076AAXX  04181 13389 32998 72001 10128 20092 39898 40174 53010 87070 333 10205;EQDQ01  00002PRCP99
0163133890999992000110421004+42980+021950FM-12+023299999V0201501N001019999999N0200001N1+01151+00941101831ADDAA199000091GF107991071001999999071001MA1999999099061MD1110081+9999REMSYN066AAXX  04211 13389 32998 71501 10115 20094 39906 40183 51008 87070;EQDQ01  00002PRCP99
0191133890999992000110503004+42980+021950FM-12+023299999V0209999C000010120019N0100001N1+01141+01001101951ADDAA199000091AY161031AY221031GF108991071051012501071999MA1999999099161MD1410001+9999MW1021REMSYN072AAXX  05031 13389 31697 80000 10114 20100 39916 40195 54000 70262 8757/;EQDQ01  00002PRCP99
0163133890999992000110509004+42980+021950FM-12+023299999V0201501N001010360019N0100001N1+01201+01051102011ADDAA199000091GF108991021081012501071999MA1999999099231MD1110021+9999REMSYN066AAXX  05091 13389 32697 81501 10120 20105 39923 40201 51002 8287/;EQDQ01  00002PRCP99
0186133890999992000110518004+42980+021950FM-12+023299999V0201901N001019999999N0100001N1+01191+01061101721ADDAA199000091GF107991071001999999071001KA1999M+01591MA1999999098951MD1710051+9999REMSYN076AAXX  05181 13389 32997 71901 10119 20106 39895 40172 57005 87070 333 10159;EQDQ01  00002PRCP99
0191133890999992000110521004+42980+021950FM-12+023299999V0209999C000010120019N0100001N1+01121+01031101691ADDAA199000091AY121031AY261031GF108991081051012501999999MA1999999098911MD1710041+9999MW1031REMSYN072AAXX  05211 13389 31697 80000 10112 20103 39891 40169 57004 70326 885//;EQDQ01  00002PRCP99
0241133890999992000110606004+42980+021950FM-12+023299999V0200801N001010001519N0001001N1+01001+01001101551ADDAA112003091AY141061AY261061GA1091+999999999GF109991091999999999999999IA1099IA2999+00609KA1120N+00961MA1999999098761MD1610031+9999MW1451REMSYN094AAXX  06061 13389 11/91 90801 10100 20100 39876 40155 56003 60032 74546 333 20096 31006 55000;
0191133890999992000110609004+42980+021950FM-12+023299999V0201801N001012200019N0200001N1+01581+00971101491ADDAA199000091AY141031AY201031GF101991011011012501001001MA1999999098761MD1410001+9999MW1021REMSYN072AAXX  06091 13389 31698 11801 10158 20097 39876 40149 54000 70240 81100;EQDQ01  00002PRCP99
0191133890999992000110612004+42980+021950FM-12+023299999V0201901N003012200019N0200001N1+02001+00421101201ADDAA199000091AY101061AY241061GF101991011011012501001001MA1999999098521MD1810241+9999MW1021REMSYN072AAXX  06121 13389 31698 11903 10200 20042 39852 40120 58024 70204 81100;EQDQ01  00002PRCP99
0173133890999992000110615004+42980+021950FM-12+023299999V0202001N003012200019N0200001N1+01781+00281101131ADDAA199000091GA1001+999999999GF100991001001999999001001MA1999999098431MD1610091+9999REMSYN060AAXX  06151 13389 32998 02003 10178 20028 39843 40113 56009;EQDQ01  00002PRCP99
0196133890999992000110618004+42980+021950FM-12+023299999V0209999C000012200019N0200001N1+00861+00511101191ADDAA199000091GA1001+999999999GF100991001001999999001001KA1999M+02011MA1999999098411MD1810021+9999REMSYN070AAXX  06181 13389 32998 00000 10086 20051 39841 40119 58002 333 10201;EQDQ01  00002PRCP99
0163133890999992000110621004+42980+021950FM-12+023299999V0201101N004019999999N0200001N1+01151+00401101061ADDAA199000091GF105991011001999999031011MA1999999098311MD1710101+9999REMSYN066AAXX  06211 13389 32998 51104 10115 20040 39831 40106 57010 81031;EQDQ01  00002PRCP99
0163133890999992000110700004+42980+021950FM-12+023299999V0200601N001019999999N0200001N1+01241+00571100921ADDAA199000091GF108991081001999999071999MA1999999098171MD1710141+9999REMSYN066AAXX  07001 13389 32998 80601 10124 20057 39817 40092 57014 8807/;EQDQ01  00002PRCP99
0163133890999992000110703004+42980+021950FM-12+023299999V0200701N001019999999N0200001N1+01341+00641100741ADDAA199000091GF106991031001999999031011MA1999999097991MD1710181+9999REMSYN066AAXX  07031 13389 32998 60701 10134 20064 39799 40074 57018 83031;EQDQ01  00002PRCP99
0216133890999992000110706004+42980+021950FM-12+023299999V0201101N004010120019N0200001N1+01451+00791100601ADDAA199000091GF107991071051012501001001IA1099IA2999+00309KA1120N+00661MA1999999097881MD1710111+9999REMSYN088AAXX  07061 13389 32698 71104 10145 20079 39788 40060 57011 87500 333 20066 31003 55077;EQDQ01  00002PRCP99
0163133890999992000110709004+42980+021950FM-12+023299999V0201601N004010360019N0200001N1+01881+00901100451ADDAA199000091GF106991011011012501041011MA1999999097781MD1710101+9999REMSYN066AAXX  07091 13389 32698 61604 10188 20090 39778 40045 57010 81141;EQDQ01  00002PRCP99
0163133890999992000110712004+42980+021950FM-12+023299999V0201901N009010900019N0200001N1+02431+00851100211ADDAA199000091GF105991021081012501031011MA1999999097591MD1710191+9999REMSYN066AAXX  07121 13389 32698 51909 10243 20085 39759 40021 57019 82831;EQDQ01  00002PRCP99
0163133890999992000110715004+42980+021950FM-12+023299999V0201801N006010150019N0200001N1+02181+00701100181ADDAA199000091GF105991051081012501001001MA1999999097541MD1610051+9999REMSYN066AAXX  07151 13389 32698 51806 10218 20070 39754 40018 56005 85800;EQDQ01  00002PRCP99
0186133890999992000110718004+42980+021950FM-12+023299999V0202001N005010150019N0200001N1+02061+00761100381ADDAA199000091GF107991071081012501001001KA1999M+02461MA1999999097731MD1310191+9999REMSYN076AAXX  07181 13389 32698 72005 10206 20076 39773 40038 53019 87800 333 10246;EQDQ01  00002PRCP99
0164133890999992000110721004+42980+021950FM-12+023299999V0202601N005012200019N0200001N1+01641+00971100801ADDAA199000091GF104991041051012501001001MD1310271+9999REMSYN066AAXX  07211 13389 32698 42605 10164 20097 39581 40080 53027 84500;EQDQ01+095813APOSP Q02  00002PRCP99
0178133890999992000110800004+42980+021950FM-12+023299999V0201301N002010120019N0200001N1+01691+01061100781ADDAA106000191AY121061AY261061GF107991071051012501001001MA1999999098081MD1310121+9999MW1021REMSYN078AAXX  08001 13389 11698 71302 10169 20106 39808 40078 53012 69911 70226 87500;
0203133890999992000110806004+42980+021950FM-12+023299999V0202401N002010120019N0200001N1+01741+00951100901ADDAA112000191GF107991071051012501001001IA1099IA2999+01309KA1120N+01571MA1999999098201MD1310121+9999REMSYN094AAXX  08061 13389 32698 72402 10174 20095 39820 40090 53012 69912 87500 333 20157 31013 55062;
0163133890999992000110809004+42980+021950FM-12+023299999V0201601N001010150019N0200001N1+01861+01111101131ADDAA199000091GF106991061081012501001001MA1999999098441MD1210241+9999REMSYN066AAXX  08091 13389 32698 61601 10186 20111 39844 40113 52024 86800;EQDQ01  00002PRCP99
0163133890999992000110815004+42980+021950FM-12+023299999V0200601N002012200019N0200001N1+02041+00861101061ADDAA199000091GF102991011081012501001011MA1999999098381MD1310011+9999REMSYN066AAXX  08151 13389 32698 20602 10204 20086 39838 40106 53001 81801;EQDQ01  00002PRCP99
0186133890999992000110818004+42980+021950FM-12+023299999V0209999C000012200019N0200001N1+01351+01001101211ADDAA199000091GF102991011051012501031001KA1999M+02301MA1999999098471MD1210091+9999REMSYN076AAXX  08181 13389 32698 20000 10135 20100 39847 40121 52009 81530 333 10230;EQDQ01  00002PRCP99
0163133890999992000110821004+42980+021950FM-12+023299999V0202101N001010360019N0200001N1+01101+00921101331ADDAA199000091GF105991021051012501031001MA1999999098561MD1110091+9999REMSYN066AAXX  08211 13389 32698 52101 10110 20092 39856 40133 51009 82530;EQDQ01  00002PRCP99
0163133890999992000110900004+42980+021950FM-12+023299999V0203401N001010150019N0200001N1+01281+00941101411ADDAA199000091GF106991061081012501001001MA1999999098661MD1210101+9999REMSYN066AAXX  09001 13389 32698 63401 10128 20094 39866 40141 52010 86800;EQDQ01  00002PRCP99
0173133890999992000110903004+42980+021950FM-12+023299999V0209999C000012200019N0200001N1+01151+00921101481ADDAA199000091GA1001+999999999GF100991001001999999001001MA1999999098711MD1210051+9999REMSYN060AAXX  09031 13389 32998 00000 10115 20092 39871 40148 52005;EQDQ01  00002PRCP99
0216133890999992000110906004+42980+021950FM-12+023299999V0209999C000012200019N0200001N1+00891+00771101671ADDAA199000091GF102991021081012501001001IA1019IA2999+00509KA1120N+00891MA1999999098871MD1210161+9999REMSYN088AAXX  09061 13389 32698 20000 10089 20077 39887 40167 52016 82800 333 20089 30005 55038;EQDQ01  00002PRCP99
0163133890999992000110909004+42980+021950FM-12+023299999V0201601N001012200019N0200001N1+02091+00951101661ADDAA199000091GF101991011011012501001001MA1999999098971MD1010101+9999REMSYN066AAXX  09091 13389 32698 11601 10209 20095 39897 40166 50010 81100;EQDQ01  00002PRCP99
0163133890999992000110912004+42980+021950FM-12+023299999V0202001N004012200019N0200001N1+02381+00921101551ADDAA199000091GF107991031081012501001011MA1999999098891MD1710081+9999REMSYN066AAXX  09121 13389 32698 72004 10238 20092 39889 40155 57008 83801;EQDQ01  00002PRCP99
0163133890999992000110915004+42980+021950FM-12+023299999V0202001N002010360019N0200001N1+02081+00851101681ADDAA199000091GF107991031081012501031011MA1999999098991MD1310101+9999REMSYN066AAXX  09151 13389 32698 72002 10208 20085 39899 40168 53010 83831;EQDQ01  00002PRCP99
0186133890999992000110918004+42980+021950FM-12+023299999V0202101N001010360019N0200001N1+01601+01081101831ADDAA199000091GF106991021081012501031011KA1999M+02411MA1999999099091MD1210101+9999REMSYN076AAXX  09181 13389 32698 62101 10160 20108 39909 40183 52010 82831 333 10241;EQDQ01  00002PRCP99
0163133890999992000110921004+42980+021950FM-12+023299999V0209999C000010150019N0200001N1+01471+01121101901ADDAA199000091GF107991071081012501001001MA1999999099151MD1110061+9999REMSYN066AAXX  09211 13389 32698 70000 10147 20112 39915 40190 51006 87800;EQDQ01  00002PRCP99
0178133890999992000111000004+42980+021950FM-12+023299999V0209999C000010150019N0200001N1+01341+01251101921ADDAA106000591AY121061AY261061GF107991071081012501001001MA1999999099151MD1410001+9999MW1021REMSYN078AAXX  10001 13389 11698 70000 10134 20125 39915 40192 54000 69941 70226 87800;
0163133890999992000111003004+42980+021950FM-12+023299999V0203401N001012200019N0200001N1+01171+01081101981ADDAA199000091GF101991001001999999001011MA1999999099201MD1310051+9999REMSYN066AAXX  10031 13389 32998 13401 10117 20108 39920 40198 53005 80001;EQDQ01  00002PRCP99
0203133890999992000111006004+42980+021950FM-12+023299999V0209999C000012200019N0200001N1+00911+00851102101ADDAA112000591GF104991011011012501001011IA1019IA2999+00509KA1120N+00901MA1999999099291MD1210091+9999REMSYN094AAXX  10061 13389 12698 40000 10091 20085 39929 40210 52009 69942 81101 333 20090 30005 55038;
0163133890999992000111009004+42980+021950FM-12+023299999V0209999C000010900019N0200001N1+01721+01181102091ADDAA199000091GF106991011021012501001051MA1999999099361MD1110071+9999REMSYN066AAXX  10091 13389 32698 60000 10172 20118 39936 40209 51007 81205;EQDQ01  00002PRCP99
0163133890999992000111012004+42980+021950FM-12+023299999V0201201N001010360019N0200001N1+02081+00921101881ADDAA199000091GF107991041081012501031001MA1999999099191MD1810171+9999REMSYN066AAXX  10121 13389 32698 71201 10208 20092 39919 40188 58017 84830;EQDQ01  00002PRCP99
0163133890999992000111015004+42980+021950FM-12+023299999V0203401N003010360019N0200001N1+01851+00791101931ADDAA199000091GF107991021081012501031061MA1999999099211MD1310021+9999REMSYN066AAXX  10151 13389 32698 73403 10185 20079 39921 40193 53002 82836;EQDQ01  00002PRCP99
0173133890999992000111100004+42980+021950FM-12+023299999V0201501N002012200019N0200001N1+00691+00581102441ADDAA199000091GA1001+999999999GF100991001001999999001001MA1999999099601MD1210111+9999REMSYN060AAXX  11001 13389 32998 01502 10069 20058 39960 40244 52011;EQDQ01  00002PRCP99
0173133890999992000111103004+42980+021950FM-12+023299999V0209999C000012200019N0200001N1+00391+00331102511ADDAA199000091GA1001+999999999GF100991001001999999001001MA1999999099641MD1110041+9999REMSYN060AAXX  11031 13389 32998 00000 10039 20033 39964 40251 51004;EQDQ01  00002PRCP99
0216133890999992000111106004+42980+021950FM-12+023299999V0201401N001012200019N0200001N1+00181+00121102671ADDAA199000091GF102991001001999999001011IA1099IA2999-00209KA1120N+00151MA1999999099771MD1310131+9999REMSYN088AAXX  11061 13389 32998 21401 10018 20012 39977 40267 53013 80001 333 20015 31102 55046;EQDQ01  00002PRCP99
0163133890999992000111109004+42980+021950FM-12+023299999V0202201N002012200019N0200001N1+01081+00581102741ADDAA199000091GF101991011011012501001001MA1999999099931MD1210161+9999REMSYN066AAXX  11091 13389 32698 12202 10108 20058 39993 40274 52016 81100;EQDQ01  00002PRCP99
0163133890999992000111112004+42980+021950FM-12+023299999V0200201N004012200019N0200001N1+01461+00351102631ADDAA199000091GF101991011021012501001001MA1999999099861MD1810071+9999REMSYN066AAXX  11121 13389 32698 10204 10146 20035 39986 40263 58007 81200;EQDQ01  00002PRCP99
0163133890999992000111115004+42980+021950FM-12+023299999V0203301N004012200019N0200001N1+01261+00231102741ADDAA199000091GF103991011081012501031001MA1999999099951MD1310091+9999REMSYN066AAXX  11151 13389 32698 33304 10126 20023 39995 40274 53009 81830;EQDQ01  00002PRCP99
0186133890999992000111118004+42980+021950FM-12+023299999V0203201N003012200019N0200001N1+00921+00381102921ADDAA199000091GF102991021001999999031001KA1999M+01501MA1999999100091MD1210141+9999REMSYN076AAXX  11181 13389 32998 23203 10092 20038 30009 40292 52014 82030 333 10150;EQDQ01  00002PRCP99
0173133890999992000111121004+42980+021950FM-12+023299999V0201901N002012200019N0200001N1+00421+00231103201ADDAA199000091GA1001+999999999GF100991001001999999001001MA1999999100211MD1210121+9999REMSYN060AAXX  11211 13389 32998 01902 10042 20023 30021 40320 52012;EQDQ01  00002PRCP99
0173133890999992000111200004+42980+021950FM-12+023299999V0209999C000012200019N0200001N1+00061-00061102851ADDAA199000091GA1001+999999999GF100991001001999999001001MA1999999099881MD1810031+9999REMSYN060AAXX  12001 13389 32998 00000 10006 21006 39988 40285 58003;EQDQ01  00002PRCP99
0173133890999992000111203004+42980+021950FM-12+023299999V0201601N001012200019N0200001N1-00101-00131103171ADDAA199000091GA1001+999999999GF100991001001999999001001MA1999999100221MD1810061+9999REMSYN060AAXX  12031 13389 32998 01601 11010 21013 30022 40317 58006;EQDQ01  00002PRCP99
0226133890999992000111206004+42980+021950FM-12+023299999V0209999C000012200019N0200001N1-00261-00331103151ADDAA199000091GA1001+999999999GF100991001001999999001001IA1019IA2999-00609KA1120N-00261MA1999999100181MD1710041+9999REMSYN082AAXX  12061 13389 32998 00000 11026 21033 30018 40315 57004 333 21026 30106 55074;EQDQ01  00002PRCP99
0201133890999992000111209004+42980+021950FM-12+023299999V0209999C000012200019N0040001N1+00681+00231102981ADDAA199000091AY101031AY201031GA1001+999999999GF100991001001999999001001MA1999999100121MD1810061+9999MW1101REMSYN066AAXX  12091 13389 31996 00000 10068 20023 30012 40298 58006 71000;EQDQ01  00002PRCP99
0173133890999992000111212004+42980+021950FM-12+023299999V0202901N001012200019N0100001N1+01291+00251102631ADDAA199000091GA1001+999999999GF100991001001999999001001MA1999999099841MD1710281+9999REMSYN060AAXX  12121 13389 32997 02901 10129 20025 39984 40263 57028;EQDQ01  00002PRCP99
0163133890999992000111215004+42980+021950FM-12+023299999V0209999C000012200019N0200001N1+01351+00181102441ADDAA199000091GF101991001001999999001011MA1999999099671MD1710171+9999REMSYN066AAXX  12151 13389 32998 10000 10135 20018 39967 40244 57017 80001;EQDQ01  00002PRCP99
0196133890999992000111218004+42980+021950FM-12+023299999V0202001N002012200019N0200001N1+00481+00181102521ADDAA199000091GA1001+999999999GF100991001001999999001001KA1999M+01511MA1999999099651MD1510021+9999REMSYN070AAXX  12181 13389 32998 02002 10048 20018 39965 40252 55002 333 10151;EQDQ01  00002PRCP99
0163133890999992000111221004+42980+021950FM-12+023299999V0202001N002012200019N0200001N1+00201+00091102551ADDAA199000091GF101991001001999999001011MA1999999099651MD1410001+9999REMSYN066AAXX  12211 13389 32998 12002 10020 20009 39965 40255 54000 80001;EQDQ01  00002PRCP99
0216133890999992000111306004+42980+021950FM-12+023299999V0201801N002012200019N0200001N1-00021-00061102511ADDAA199000091GF101991011001999999031001IA1019IA2999-00409KA1120N-00061MA1999999099591MD1810021+9999REMSYN088AAXX  13061 13389 32998 11802 11002 21006 39959 40251 58002 81030 333 21006 30104 55078;EQDQ01  00002PRCP99
0163133890999992000111309004+42980+021950FM-12+023299999V0209999C000012200019N0200001N1+01001+00381102401ADDAA199000091GF102991011001999999031011MA1999999099591MD1410001+9999REMSYN066AAXX  13091 13389 32998 20000 10100 20038 39959 40240 54000 81031;EQDQ01  00002PRCP99
0163133890999992000111312004+42980+021950FM-12+023299999V0200801N002019999999N0200001N1+01691+00491102061ADDAA199000091GF105991011001999999031011MA1999999099331MD1810261+9999REMSYN066AAXX  13121 13389 32998 50802 10169 20049 39933 40206 58026 81031;EQDQ01  00002PRCP99
0186133890999992000111318004+42980+021950FM-12+023299999V0200601N001012200019N0200001N1+00921+00601102011ADDAA199000091GF103991001001999999001011KA1999M+01751MA1999999099201MD1310011+9999REMSYN076AAXX  13181 13389 32998 30601 10092 20060 39920 40201 53001 80001 333 10175;EQDQ01  00002PRCP99
0163133890999992000111321004+42980+021950FM-12+023299999V0209999C000019999999N0200001N1+00401+00251102151ADDAA199000091GF107991001001999999001061MA1999999099291MD1210091+9999REMSYN066AAXX  13211 13389 32998 70000 10040 20025 39929 40215 52009 80006;EQDQ01  00002PRCP99
0163133890999992000111400004+42980+021950FM-12+023299999V0201401N001019999999N0200001N1+00221+00151102161ADDAA199000091GF105991051001999999031001MA1999999099281MD1810011+9999REMSYN066AAXX  14001 13389 32998 51401 10022 20015 39928 40216 58001 85030;EQDQ01  00002PRCP99
0163133890999992000111403004+42980+021950FM-12+023299999V0201601N001019999999N0200001N1+00141+00061102171ADDAA199000091GF107991031001999999031061MA1999999099271MD1810011+9999REMSYN066AAXX  14031 13389 32998 71601 10014 20006 39927 40217 58001 83036;EQDQ01  00002PRCP99
0216133890999992000111406004+42980+021950FM-12+023299999V0200201N001019999999N0200001N1+00361+00281102131ADDAA199000091GF107991021001999999031061IA1019IA2999-00209KA1120N+00131MA1999999099271MD1410001+9999REMSYN088AAXX  14061 13389 32998 70201 10036 20028 39927 40213 54000 82036 333 20013 30102 55071;EQDQ01  00002PRCP99
0163133890999992000111409004+42980+021950FM-12+023299999V0201501N002019999999N0200001N1+01361+00531102051ADDAA199000091GF106991031001999999031011MA1999999099291MD1310021+9999REMSYN066AAXX  14091 13389 32998 61502 10136 20053 39929 40205 53002 83031;EQDQ01  00002PRCP99
0163133890999992000111412004+42980+021950FM-12+023299999V0201101N003019999999N0200001N1+01781+00421101871ADDAA199000091GF107991051001999999071011MA1999999099161MD1810141+9999REMSYN066AAXX  14121 13389 32998 71103 10178 20042 39916 40187 58014 85071;EQDQ01  00002PRCP99
0163133890999992000111415004+42980+021950FM-12+023299999V0201201N002019999999N0200001N1+01731+00351101841ADDAA199000091GF106991031001999999031011MA1999999099111MD1510041+9999REMSYN066AAXX  14151 13389 32998 61202 10173 20035 39911 40184 55004 83031;EQDQ01  00002PRCP99
0186133890999992000111418004+42980+021950FM-12+023299999V0201601N002012200019N0200001N1+01351+00511101761ADDAA199000091GF101991001001999999001011KA1999M+02051MA1999999099201MD1210091+9999REMSYN076AAXX  14181 13389 32998 11602 10135 20051 39920 40176 52009 80001 333 10205;EQDQ01  00002PRCP99
0173133890999992000111421004+42980+021950FM-12+023299999V0209999C000012200019N0200001N1+00511+00251102111ADDAA199000091GA1001+999999999GF100991001001999999001001MA1999999099261MD1310051+9999REMSYN060AAXX  14211 13389 32998 00000 10051 20025 39926 40211 53005;EQDQ01  00002PRCP99
0173133890999992000111500004+42980+021950FM-12+023299999V0201801N002012200019N0200001N1+00351+00231102151ADDAA199000091GA1001+999999999GF100991001001999999001001MA1999999099291MD1210041+9999REMSYN060AAXX  15001 13389 32998 01802 10035 20023 39929 40215 52004;EQDQ01  00002PRCP99
0173133890999992000111503004+42980+021950FM-12+023299999V0201901N002012200019N0200001N1+00191+00121102181ADDAA199000091GA1001+999999999GF100991001001999999001001MA1999999099301MD1110011+9999REMSYN060AAXX  15031 13389 32998 01902 10019 20012 39930 40218 51001;EQDQ01  00002PRCP99
0216133890999992000111506004+42980+021950FM-12+023299999V0209999C000012200019N0200001N1+00031-00061102291ADDAA199000091GF101991001001999999001011IA1019IA2999-00309KA1120N+00031MA1999999099371MD1310071+9999REMSYN088AAXX  15061 13389 32998 10000 10003 21006 39937 40229 53007 80001 333 20003 30103 55020;EQDQ01  00002PRCP99
0163133890999992000111509004+42980+021950FM-12+023299999V0209999C000012200019N0200001N1+01221+00351102261ADDAA199000091GF102991011001999999031011MA1999999099471MD1110101+9999REMSYN066AAXX  15091 13389 32998 20000 10122 20035 39947 40226 51010 81031;EQDQ01  00002PRCP99
0163133890999992000111512004+42980+021950FM-12+023299999V0200301N002019999999N0200001N1+02121+00181102011ADDAA199000091GF105991011001999999031051MA1999999099311MD1810161+9999REMSYN066AAXX  15121 13389 32998 50302 10212 20018 39931 40201 58016 81035;EQDQ01  00002PRCP99
0163133890999992000111515004+42980+021950FM-12+023299999V0209999C000019999999N0200001N1+01851+00201102001ADDAA199000091GF106991011001999999031061MA1999999099281MD1510031+9999REMSYN066AAXX  15151 13389 32998 60000 10185 20020 39928 40200 55003 81036;EQDQ01  00002PRCP99
0196133890999992000111518004+42980+021950FM-12+023299999V0201501N001012200019N0200001N1+00801+00341102171ADDAA199000091GA1001+999999999GF100991001001999999001001KA1999M+02251MA1999999099351MD1210071+9999REMSYN070AAXX  15181 13389 32998 01501 10080 20034 39935 40217 52007 333 10225;EQDQ01  00002PRCP99
0163133890999992000111521004+42980+021950FM-12+023299999V0201901N001012200019N0200001N1+00421+00231102261ADDAA199000091GF102991001001999999001011MA1999999099401MD1210051+9999REMSYN066AAXX  15211 13389 32998 21901 10042 20023 39940 40226 52005 80001;EQDQ01  00002PRCP99
0163133890999992000111600004+42980+021950FM-12+023299999V0209999C000019999999N0200001N1+00381+00251102261ADDAA199000091GF105991001001999999001061MA1999999099401MD1410001+9999REMSYN066AAXX  16001 13389 32998 50000 10038 20025 39940 40226 54000 80006;EQDQ01  00002PRCP99
0163133890999992000111603004+42980+021950FM-12+023299999V0209999C000012200019N0200001N1+00221+00121102281ADDAA199000091GF102991001001999999001011MA1999999099401MD1410001+9999REMSYN066AAXX  16031 13389 32998 20000 10022 20012 39940 40228 54000 80001;EQDQ01  00002PRCP99
0216133890999992000111606004+42980+021950FM-12+023299999V0201601N001012200019N0200001N1+00051-00021102371ADDAA199000091GF102991011001999999031011IA1019IA2999-00309KA1120N+00041MA1999999099451MD1310051+9999REMSYN088AAXX  16061 13389 32998 21601 10005 21002 39945 40237 53005 81031 333 20004 30103 55063;EQDQ01  00002PRCP99
0163133890999992000111609004+42980+021950FM-12+023299999V0209999C000012200019N0200001N1+01261+00421102221ADDAA199000091GF103991011011012501001011MA1999999099451MD1010001+9999REMSYN066AAXX  16091 13389 32698 30000 10126 20042 39945 40222 50000 81101;EQDQ01  00002PRCP99
0163133890999992000111612004+42980+021950FM-12+023299999V0209999C000012200019N0200001N1+02001+00281101961ADDAA199000091GF103991011001999999031011MA1999999099261MD1710191+9999REMSYN066AAXX  16121 13389 32998 30000 10200 20028 39926 40196 57019 81031;EQDQ01  00002PRCP99
0163133890999992000111615004+42980+021950FM-12+023299999V0202001N001012200019N0200001N1+01821+00381101921ADDAA199000091GF101991001001999999001011MA1999999099291MD1710061+9999REMSYN066AAXX  16151 13389 32998 12001 10182 20038 39929 40192 57006 80001;EQDQ01  00002PRCP99
0196133890999992000111618004+42980+021950FM-12+023299999V0201801N002012200019N0200001N1+00881+00301102041ADDAA199000091GA1001+999999999GF100991001001999999001001KA1999M+02161MA1999999099231MD1310031+9999REMSYN070AAXX  16181 13389 32998 01802 10088 20030 39923 40204 53003 333 10216;EQDQ01  00002PRCP99
0173133890999992000111621004+42980+021950FM-12+023299999V0201401N001012200019N0200001N1+00381+00201102161ADDAA199000091GA1001+999999999GF100991001001999999001001MA1999999099301MD1110071+9999REMSYN060AAXX  16211 13389 32998 01401 10038 20020 39930 40216 51007;EQDQ01  00002PRCP99
0173133890999992000111700004+42980+021950FM-12+023299999V0209999C000012200019N0200001N1+00161+00091102121ADDAA199000091GA1001+999999999GF100991001001999999001001MA1999999099231MD1810071+9999REMSYN060AAXX  17001 13389 32998 00000 10016 20009 39923 40212 58007;EQDQ01  00002PRCP99
0173133890999992000111703004+42980+021950FM-12+023299999V0209999C000012200019N0200001N1-00061-00121102151ADDAA199000091GA1001+999999999GF100991001001999999001001MA1999999099231MD1410001+9999REMSYN060AAXX  17031 13389 32998 00000 11006 21012 39923 40215 54000;EQDQ01  00002PRCP99
0216133890999992000111706004+42980+021950FM-12+023299999V0201801N001012200019N0200001N1-00081-00121102151ADDAA199000091GF102991001001999999001011IA1019IA2999-00409KA1120N-00141MA1999999099231MD1410001+9999REMSYN088AAXX  17061 13389 32998 21801 11008 21012 39923 40215 54000 80001 333 21014 30104 55048;EQDQ01  00002PRCP99
0163133890999992000111709004+42980+021950FM-12+023299999V0200301N001012200019N0200001N1+01031+00301102031ADDAA199000091GF102991001001999999001011MA1999999099231MD1410001+9999REMSYN066AAXX  17091 13389 32998 20301 10103 20030 39923 40203 54000 80001;EQDQ01  00002PRCP99
0163133890999992000111712004+42980+021950FM-12+023299999V0203401N001012200019N0200001N1+01861+00251101681ADDAA199000091GF103991001001999999001011MA1999999098971MD1810261+9999REMSYN066AAXX  17121 13389 32998 33401 10186 20025 39897 40168 58026 80001;EQDQ01  00002PRCP99
0163133890999992000111715004+42980+021950FM-12+023299999V0201201N001019999999N0200001N1+01741+00231101611ADDAA199000091GF105991021001999999031011MA1999999098881MD1610091+9999REMSYN066AAXX  17151 13389 32998 51201 10174 20023 39888 40161 56009 82031;EQDQ01  00002PRCP99
0196133890999992000111718004+42980+021950FM-12+023299999V0200701N001012200019N0200001N1+00911+00331101691ADDAA199000091GA1001+999999999GF100991001001999999001001KA1999M+02071MA1999999098891MD1310011+9999REMSYN070AAXX  17181 13389 32998 00701 10091 20033 39889 40169 53001 333 10207;EQDQ01  00002PRCP99
0173133890999992000111721004+42980+021950FM-12+023299999V0201601N001012200019N0200001N1+00411+00231101781ADDAA199000091GA1001+999999999GF100991001001999999001001MA1999999098931MD1210041+9999REMSYN060AAXX  17211 13389 32998 01601 10041 20023 39893 40178 52004;EQDQ01  00002PRCP99
0173133890999992000111800004+42980+021950FM-12+023299999V0202001N001012200019N0200001N1+00211+00091101801ADDAA199000091GA1001+999999999GF100991001001999999001001MA1999999098921MD1810011+9999REMSYN060AAXX  18001 13389 32998 02001 10021 20009 39892 40180 58001;EQDQ01  00002PRCP99
0173133890999992000111803004+42980+021950FM-12+023299999V0200501N001012200019N0200001N1+00121+00041101761ADDAA199000091GA1001+999999999GF100991001001999999001001MA1999999098871MD1710051+9999REMSYN060AAXX  18031 13389 32998 00501 10012 20004 39887 40176 57005;EQDQ01  00002PRCP99
0216133890999992000111806004+42980+021950FM-12+023299999V0202101N001010360019N0200001N1+00091+00011101751ADDAA199000091GF106991011011012501041011IA1099IA2999+00209KA1120N+00081MA1999999098861MD1810011+9999REMSYN088AAXX  18061 13389 32698 62101 10009 20001 39886 40175 58001 81141 333 20008 31002 55045;EQDQ01  00002PRCP99
0163133890999992000111809004+42980+021950FM-12+023299999V0209999C000019999999N0100001N1+00761+00451101711ADDAA199000091GF105991021001999999031011MA1999999098901MD1310041+9999REMSYN066AAXX  18091 13389 32997 50000 10076 20045 39890 40171 53004 82031;EQDQ01  00002PRCP99
0163133890999992000111812004+42980+021950FM-12+023299999V0203601N002019999999N0100001N1+01521+00401101441ADDAA199000091GF106991061001999999071001MA1999999098711MD1710191+9999REMSYN066AAXX  18121 13389 32997 63602 10152 20040 39871 40144 57019 86070;EQDQ01  00002PRCP99
0163133890999992000111815004+42980+021950FM-12+023299999V0201601N001019999999N0100001N1+01581+00331101451ADDAA199000091GF107991061001999999071011MA1999999098731MD1110021+9999REMSYN066AAXX  18151 13389 32997 71601 10158 20033 39873 40145 51002 86071;EQDQ01  00002PRCP99
0186133890999992000111818004+42980+021950FM-12+023299999V0202501N002012200019N0100001N1+00821+00451101641ADDAA199000091GF103991031001999999031001KA1999M+01731MA1999999098831MD1210101+9999REMSYN076AAXX  18181 13389 32997 32502 10082 20045 39883 40164 52010 83030 333 10173;EQDQ01  00002PRCP99
0163133890999992000111821004+42980+021950FM-12+023299999V0203401N002019999999N0100001N1+00941+00471101721ADDAA199000091GF108991081001999999071999MA1999999098921MD1310091+9999REMSYN066AAXX  18211 13389 32997 83402 10094 20047 39892 40172 53009 8807/;EQDQ01  00002PRCP99
0180133890999992000111900004+42980+021950FM-12+023299999V0201301N003019999999N0100001N1+00861+00381101881ADDAA199000091GF105991999051012501001001MD1410001+9999REMSYN066AAXX  19001 13389 32697 51303 10086 20038 39652 40188 54000 86500;EQDQ01+000062SCOTLCQ02+096523APOSP Q03  00002PRCP99
0163133890999992000111903004+42980+021950FM-12+023299999V0209999C000019999999N0100001N1+00551+00451101581ADDAA199000091GF106991061001999999071001MA1999999098751MD1710111+9999REMSYN066AAXX  19031 13389 32997 60000 10055 20045 39875 40158 57011 86070;EQDQ01  00002PRCP99
0216133890999992000111906004+42980+021950FM-12+023299999V0202101N001019999999N0100001N1+00541+00241101591ADDAA199000091GF108991081001999999071999IA1019IA2999+00209KA1120N+00501MA1999999098751MD1410001+9999REMSYN088AAXX  19061 13389 32997 82101 10054 20024 39875 40159 54000 8807/ 333 20050 30002 55000;EQDQ01  00002PRCP99
0163133890999992000111909004+42980+021950FM-12+023299999V0202001N002019999999N0100001N1+00761+00581101601ADDAA199000091GF108991081001999999071999MA1999999098791MD1110041+9999REMSYN066AAXX  19091 13389 32997 82002 10076 20058 39879 40160 51004 8807/;EQDQ01  00002PRCP99
0191133890999992000111912004+42980+021950FM-12+023299999V0209999C000010360019N0040001N1+01161+00811101401ADDAA199000091AY121061AY221061GF108991031051012501071999MA1999999098641MD1710151+9999MW1101REMSYN072AAXX  19121 13389 31696 80000 10116 20081 39864 40140 57015 71022 8357/;EQDQ01  00002PRCP99
0163133890999992000111915004+42980+021950FM-12+023299999V0201601N005010360019N0100001N1+01641+00661101261ADDAA199000091GF105991021021012501031001MA1999999098541MD1710101+9999REMSYN066AAXX  19151 13389 32697 51605 10164 20066 39854 40126 57010 82230;EQDQ01  00002PRCP99
0196133890999992000111918004+42980+021950FM-12+023299999V0203601N001012200019N0100001N1+00981+00811101381ADDAA199000091GA1001+999999999GF100991001001999999001001KA1999M+01821MA1999999098611MD1310071+9999REMSYN070AAXX  19181 13389 32997 03601 10098 20081 39861 40138 53007 333 10182;EQDQ01  00002PRCP99
0173133890999992000111921004+42980+021950FM-12+023299999V0201401N003012200019N0100001N1+01281+00861101291ADDAA199000091GA1001+999999999GF100991001001999999001001MA1999999098641MD1310031+9999REMSYN060AAXX  19211 13389 32997 01403 10128 20086 39864 40129 53003;EQDQ01  00002PRCP99
0173133890999992000112000004+42980+021950FM-12+023299999V0201401N002012200019N0100001N1+01221+00861101341ADDAA199000091GA1001+999999999GF100991001001999999001001MA1999999098581MD1810061+9999REMSYN060AAXX  20001 13389 32997 01402 10122 20086 39858 40134 58006;EQDQ01  00002PRCP99
0163133890999992000112003004+42980+021950FM-12+023299999V0203601N002012200019N0100001N1+00981+00811101361ADDAA199000091GF101991011001999999031001MA1999999098581MD1410001+9999REMSYN066AAXX  20031 13389 32997 13602 10098 20081 39858 40136 54000 81030;EQDQ01  00002PRCP99
0216133890999992000112006004+42980+021950FM-12+023299999V0200501N002010360019N0100001N1+00821+00701101501ADDAA199000091GF105991021051012501031001IA1019IA2999+00209KA1120N+00741MA1999999098701MD1210121+9999REMSYN088AAXX  20061 13389 32697 50502 10082 20070 39870 40150 52012 82530 333 20074 30002 55000;EQDQ01  00002PRCP99
0163133890999992000112009004+42980+021950FM-12+023299999V0200201N001019999999N0100001N1+01201+00861101481ADDAA199000091GF106991031001999999031011MA1999999098721MD1110021+9999REMSYN066AAXX  20091 13389 32997 60201 10120 20086 39872 40148 51002 83031;EQDQ01  00002PRCP99
0163133890999992000112012004+42980+021950FM-12+023299999V0202101N003010150019N0200001N1+01851+00701101351ADDAA199000091GF106991061081012501001001MA1999999098651MD1810071+9999REMSYN066AAXX  20121 13389 32698 62103 10185 20070 39865 40135 58007 86800;EQDQ01  00002PRCP99
0163133890999992000112015004+42980+021950FM-12+023299999V0202401N004010150019N0200001N1+01601+00701101411ADDAA199000091GF107991071081012501001001MA1999999098691MD1310041+9999REMSYN066AAXX  20151 13389 32698 72404 10160 20070 39869 40141 53004 87800;EQDQ01  00002PRCP99
0186133890999992000112018004+42980+021950FM-12+023299999V0202301N002010150019N0200001N1+01321+00761101591ADDAA199000091GF106991061081012501001001KA1999M+01851MA1999999098831MD1210141+9999REMSYN076AAXX  20181 13389 32698 62302 10132 20076 39883 40159 52014 86800 333 10185;EQDQ01  00002PRCP99
0173133890999992000112021004+42980+021950FM-12+023299999V0209999C000012200019N0200001N1+00841+00701101751ADDAA199000091GA1001+999999999GF100991001001999999001001MA1999999098941MD1210111+9999REMSYN060AAXX  20211 13389 32998 00000 10084 20070 39894 40175 52011;EQDQ01  00002PRCP99
0173133890999992000112100004+42980+021950FM-12+023299999V0202001N001012200019N0200001N1+00441+00381101821ADDAA199000091GA1001+999999999GF100991001001999999001001MA1999999098971MD1110031+9999REMSYN060AAXX  21001 13389 32998 02001 10044 20038 39897 40182 51003;EQDQ01  00002PRCP99
0173133890999992000112103004+42980+021950FM-12+023299999V0201801N002012200019N0200001N1+00161+00121101841ADDAA199000091GA1001+999999999GF100991001001999999001001MA1999999098971MD1410001+9999REMSYN060AAXX  21031 13389 32998 01802 10016 20012 39897 40184 54000;EQDQ01  00002PRCP99
0226133890999992000112106004+42980+021950FM-12+023299999V0201801N001012200019N0200001N1-00021-00061101871ADDAA199000091GA1001+999999999GF100991001001999999001001IA1019IA2999-00309KA1120N-00021MA1999999098971MD1410001+9999REMSYN082AAXX  21061 13389 32998 01801 11002 21006 39897 40187 54000 333 21002 30103 55029;EQDQ01  00002PRCP99
0163133890999992000112109004+42980+021950FM-12+023299999V0202101N001012200019N0200001N1+01181+00641101741ADDAA199000091GF102991011001999999031011MA1999999098971MD1410001+9999REMSYN066AAXX  21091 13389 32998 22101 10118 20064 39897 40174 54000 81031;EQDQ01  00002PRCP99
0163133890999992000112112004+42980+021950FM-12+023299999V0201501N001012200019N0200001N1+01781+00601101531ADDAA199000091GF106991011011012501001061MA1999999098821MD1810151+9999REMSYN066AAXX  21121 13389 32698 61501 10178 20060 39882 40153 58015 81106;EQDQ01  00002PRCP99
0163133890999992000112115004+42980+021950FM-12+023299999V0201601N002019999999N0500001N1+01521+00401101501ADDAA199000091GF106991011001999999031061MA1999999098761MD1610061+9999REMSYN066AAXX  21151 13389 32999 61602 10152 20040 39876 40150 56006 81036;EQDQ01  00002PRCP99
0186133890999992000112118004+42980+021950FM-12+023299999V0209999C000019999999N0200001N1+00901+00491101681ADDAA199000091GF107991071001999999071001KA1999M+01901MA1999999098881MD1310121+9999REMSYN076AAXX  21181 13389 32998 70000 10090 20049 39888 40168 53012 87070 333 10190;EQDQ01  00002PRCP99
0163133890999992000112121004+42980+021950FM-12+023299999V0209999C000012200019N0200001N1+00611+00401101811ADDAA199000091GF102991001001999999001011MA1999999098981MD1210101+9999REMSYN066AAXX  21211 13389 32998 20000 10061 20040 39898 40181 52010 80001;EQDQ01  00002PRCP99
0173133890999992000112200004+42980+021950FM-12+023299999V0202001N002012200019N0200001N1+00341+00251101861ADDAA199000091GA1001+999999999GF100991001001999999001001MA1999999098991MD1010011+9999REMSYN060AAXX  22001 13389 32998 02002 10034 20025 39899 40186 50001;EQDQ01  00002PRCP99
0173133890999992000112203004+42980+021950FM-12+023299999V0209999C000012200019N0200001N1+00141+00061101881ADDAA199000091GA1001+999999999GF100991001001999999001001MA1999999098991MD1410001+9999REMSYN060AAXX  22031 13389 32998 00000 10014 20006 39899 40188 54000;EQDQ01  00002PRCP99
0216133890999992000112206004+42980+021950FM-12+023299999V0201801N001012200019N0200001N1+00051-00061102061ADDAA199000091GF102991001001999999001011IA1019IA2999-00409KA1120N+00051MA1999999099151MD1310161+9999REMSYN088AAXX  22061 13389 32998 21801 10005 21006 39915 40206 53016 80001 333 20005 30104 55064;EQDQ01  00002PRCP99
0163133890999992000112209004+42980+021950FM-12+023299999V0209999C000012200019N0200001N1+00961+00351102011ADDAA199000091GF101991011001999999031001MA1999999099211MD1110061+9999REMSYN066AAXX  22091 13389 32998 10000 10096 20035 39921 40201 51006 81030;EQDQ01  00002PRCP99
0163133890999992000112212004+42980+021950FM-12+023299999V0200201N002012200019N0200001N1+01681+00401101761ADDAA199000091GF104991011001999999031011MA1999999099041MD1810171+9999REMSYN066AAXX  22121 13389 32998 40202 10168 20040 39904 40176 58017 81031;EQDQ01  00002PRCP99
0163133890999992000112215004+42980+021950FM-12+023299999V0209999C000012200019N0200001N1+01581+00451101821ADDAA199000091GF103991001001999999001011MA1999999099081MD1310041+9999REMSYN066AAXX  22151 13389 32998 30000 10158 20045 39908 40182 53004 80001;EQDQ01  00002PRCP99
0196133890999992000112218004+42980+021950FM-12+023299999V0209999C000012200019N0200001N1+00731+00421102041ADDAA199000091GA1001+999999999GF100991001001999999001001KA1999M+01851MA1999999099211MD1210131+9999REMSYN070AAXX  22181 13389 32998 00000 10073 20042 39921 40204 52013 333 10185;EQDQ01  00002PRCP99
0173133890999992000112221004+42980+021950FM-12+023299999V0209999C000012200019N0200001N1+00291+00181102191ADDAA199000091GA1001+999999999GF100991001001999999001001MA1999999099311MD1210101+9999REMSYN060AAXX  22211 13389 32998 00000 10029 20018 39931 40219 52010;EQDQ01  00002PRCP99
0173133890999992000112300004+42980+021950FM-12+023299999V0209999C000012200019N0200001N1+00011-00021102281ADDAA199000091GA1001+999999999GF100991001001999999001001MA1999999099371MD1210061+9999REMSYN060AAXX  23001 13389 32998 00000 10001 21002 39937 40228 52006;EQDQ01  00002PRCP99
0173133890999992000112303004+42980+021950FM-12+023299999V0209999C000012200019N0200001N1-00071-00121102311ADDAA199000091GA1001+999999999GF100991001001999999001001MA1999999099381MD1110011+9999REMSYN060AAXX  23031 13389 32998 00000 11007 21012 39938 40231 51001;EQDQ01  00002PRCP99
0244133890999992000112306004+42980+021950FM-12+023299999V0209999C000012200019N0010001N1-00181-00221102341ADDAA199000091AY101061AY201061GF101991001001999999001011IA1019IA2999-00509KA1120N-00181MA1999999099401MD1310021+9999MW1101REMSYN094AAXX  23061 13389 31994 10000 11018 21022 39940 40234 53002 71000 80001 333 21018 30105 55072;EQDQ01  00002PRCP99
0191133890999992000112309004+42980+021950FM-12+023299999V0209999C000012200019N0040001N1+00611+00471102241ADDAA199000091AY111031AY241031GF101991001001999999001011MA1999999099401MD1010001+9999MW1101REMSYN072AAXX  23091 13389 31996 10000 10061 20047 39940 40224 50000 71014 80001;EQDQ01  00002PRCP99
0191133890999992000112312004+42980+021950FM-12+023299999V0209999C000012200019N0100001N1+01541+00281101941ADDAA199000091AY111061AY241061GF104991001001999999001999MA1999999099171MD1710231+9999MW1021REMSYN072AAXX  23121 13389 31997 40000 10154 20028 39917 40194 57023 70214 8000/;EQDQ01  00002PRCP99
0163133890999992000112315004+42980+021950FM-12+023299999V0209999C000019999999N0200001N1+01421+00301101821ADDAA199000091GF106991001001999999001061MA1999999099071MD1610101+9999REMSYN066AAXX  23151 13389 32998 60000 10142 20030 39907 40182 56010 80006;EQDQ01  00002PRCP99
0196133890999992000112318004+42980+021950FM-12+023299999V0202001N001012200019N0100001N1+00621+00281102021ADDAA199000091GA1001+999999999GF100991001001999999001001KA1999M+01601MA1999999099181MD1310111+9999REMSYN070AAXX  23181 13389 32997 02001 10062 20028 39918 40202 53011 333 10160;EQDQ01  00002PRCP99
0173133890999992000112321004+42980+021950FM-12+023299999V0209999C000012200019N0100001N1+00241+00091102131ADDAA199000091GA1001+999999999GF100991001001999999001001MA1999999099241MD1110061+9999REMSYN060AAXX  23211 13389 32997 00000 10024 20009 39924 40213 51006;EQDQ01  00002PRCP99
0173133890999992000112400004+42980+021950FM-12+023299999V0209999C000012200019N0100001N1-00011-00151102141ADDAA199000091GA1001+999999999GF100991001001999999001001MA1999999099231MD1810011+9999REMSYN060AAXX  24001 13389 32997 00000 11001 21015 39923 40214 58001;EQDQ01  00002PRCP99
0173133890999992000112403004+42980+021950FM-12+023299999V0209999C000012200019N0100001N1-00141-00251102131ADDAA199000091GA1001+999999999GF100991001001999999001001MA1999999099211MD1610021+9999REMSYN060AAXX  24031 13389 32997 00000 11014 21025 39921 40213 56002;EQDQ01  00002PRCP99
0254133890999992000112406004+42980+021950FM-12+023299999V0201501N001012200019N0002001N1-00121-00121102151ADDAA199000091AY141061AY201061GA1001+999999999GF100991001001999999001001IA1019IA2999-00409KA1120N-00141MA1999999099231MD1310021+9999MW1441REMSYN088AAXX  24061 13389 31992 01501 11012 21012 39923 40215 53002 74440 333 21014 30104 55069;EQDQ01  00002PRCP99
0201133890999992000112409004+42980+021950FM-12+023299999V0209999C000012200019N0040001N1+00661+00451102041ADDAA199000091AY101031AY241031GA1001+999999999GF100991001001999999001001MA1999999099211MD1810021+9999MW1101REMSYN066AAXX  24091 13389 31996 00000 10066 20045 39921 40204 58002 71004;EQDQ01  00002PRCP99
0191133890999992000112412004+42980+021950FM-12+023299999V0209999C000012200019N0200001N1+01601+00471101731ADDAA199000091AY101061AY241061GF101991011011012501001001MA1999999099001MD1710211+9999MW1021REMSYN072AAXX  24121 13389 31698 10000 10160 20047 39900 40173 57021 70204 81100;EQDQ01  00002PRCP99
0179133890999992000112415004+42980+021950FM-12+023299999V0209999C000012200019N0200001N1+01381+00451101781ADDAA199000091GF103991999051999999001061MA1999999099361MD1610071+9999REMSYN066AAXX  24151 13389 32998 30000 10138 20045 39936 40178 56007 84506;EQDQ01+000042SCOTLCQ02  00002PRCP99
0186133890999992000112418004+42980+021950FM-12+023299999V0201201N001010360019N0200001N1+01101+00561101751ADDAA199000091GF106991041051012501031001KA1999M+01751MA1999999098971MD1310041+9999REMSYN076AAXX  24181 13389 32698 61201 10110 20056 39897 40175 53004 84530 333 10175;EQDQ01  00002PRCP99
0163133890999992000112421004+42980+021950FM-12+023299999V0200701N002012200019N0200001N1+00981+00401101801ADDAA199000091GF102991021001999999031001MA1999999099011MD1110041+9999REMSYN066AAXX  24211 13389 32998 20702 10098 20040 39901 40180 51004 82030;EQDQ01  00002PRCP99
0173133890999992000112500004+42980+021950FM-12+023299999V0200401N002012200019N0200001N1+00941+00681101761ADDAA199000091GA1001+999999999GF100991001001999999001001MA1999999098961MD1810051+9999REMSYN060AAXX  25001 13389 32998 00402 10094 20068 39896 40176 58005;EQDQ01  00002PRCP99
0163133890999992000112503004+42980+021950FM-12+023299999V0209999C000012200019N0200001N1+00781+00401101681ADDAA199000091GF102991021001999999031001MA1999999098871MD1810091+9999REMSYN066AAXX  25031 13389 32998 20000 10078 20040 39887 40168 58009 82030;EQDQ01  00002PRCP99
0216133890999992000112506004+42980+021950FM-12+023299999V0200901N002010120019N0200001N1+00901+00581101671ADDAA199000091GF107991051051012501031001IA1019IA2999+00209KA1120N+00681MA1999999098871MD1410001+9999REMSYN088AAXX  25061 13389 32698 70902 10090 20058 39887 40167 54000 85530 333 20068 30002 55067;EQDQ01  00002PRCP99
0163133890999992000112509004+42980+021950FM-12+023299999V0201201N002010360019N0200001N1+01461+00641101591ADDAA199000091GF107991011011012501071011MA1999999098851MD1610021+9999REMSYN066AAXX  25091 13389 32698 71202 10146 20064 39885 40159 56002 81171;EQDQ01  00002PRCP99
0163133890999992000112512004+42980+021950FM-12+023299999V0200101N001010150019N0200001N1+01701+00621101401ADDAA199000091GF107991071081012501001001MA1999999098681MD1810171+9999REMSYN066AAXX  25121 13389 32698 70101 10170 20062 39868 40140 58017 87800;EQDQ01  00002PRCP99
0163133890999992000112515004+42980+021950FM-12+023299999V0201101N002010150019N0200001N1+01641+00531101311ADDAA199000091GF107991071081012501001001MA1999999098591MD1610091+9999REMSYN066AAXX  25151 13389 32698 71102 10164 20053 39859 40131 56009 87800;EQDQ01  00002PRCP99
0186133890999992000112518004+42980+021950FM-12+023299999V0209999C000010120019N0100001N1+01401+00621101271ADDAA199000091GF108991081051012501999999KA1999M+01781MA1999999098521MD1810061+9999REMSYN076AAXX  25181 13389 32697 80000 10140 20062 39852 40127 58006 885// 333 10178;EQDQ01  00002PRCP99
0163133890999992000112521004+42980+021950FM-12+023299999V0202001N002010120019N0200001N1+01271+00741101171ADDAA199000091GF106991061051012501001001MA1999999098421MD1710111+9999REMSYN066AAXX  25211 13389 32698 62002 10127 20074 39842 40117 57011 86500;EQDQ01  00002PRCP99
0173133890999992000112600004+42980+021950FM-12+023299999V0200701N001012200019N0200001N1+01151+00761101061ADDAA199000091GA1001+999999999GF100991001001999999001001MA1999999098311MD1710111+9999REMSYN060AAXX  26001 13389 32998 00701 10115 20076 39831 40106 57011;EQDQ01  00002PRCP99
0163133890999992000112603004+42980+021950FM-12+023299999V0201001N020010150019N0200001N1+01111+00741101041ADDAA199000091GF106991061081012501001001MA1999999098281MD1610031+9999REMSYN066AAXX  26031 13389 32698 61020 10111 20074 39828 40104 56003 86800;EQDQ01  00002PRCP99
0216133890999992000112606004+42980+021950FM-12+023299999V0209999C000010150019N0200001N1+01121+00661101001ADDAA199000091GF107991071081012501001001IA1019IA2999+00509KA1120N+01061MA1999999098241MD1810041+9999REMSYN088AAXX  26061 13389 32698 70000 10112 20066 39824 40100 58004 87800 333 20106 30005 55009;EQDQ01  00002PRCP99
0163133890999992000112609004+42980+021950FM-12+023299999V0203301N002010150019N0200001N1+01261+00761101031ADDAA199000091GF107991051081012501031001MA1999999098291MD1210051+9999REMSYN066AAXX  26091 13389 32698 73302 10126 20076 39829 40103 52005 85830;EQDQ01  00002PRCP99
0163133890999992000112612004+42980+021950FM-12+023299999V0202201N005010150019N0200001N1+01641+00511100891ADDAA199000091GF107991071081012501001001MA1999999098181MD1710111+9999REMSYN066AAXX  26121 13389 32698 72205 10164 20051 39818 40089 57011 87800;EQDQ01  00002PRCP99
0163133890999992000112615004+42980+021950FM-12+023299999V0201801N002010150019N0200001N1+01521+00331100911ADDAA199000091GF107991071081012501001001MA1999999098191MD1110011+9999REMSYN066AAXX  26151 13389 32698 71802 10152 20033 39819 40091 51001 87800;EQDQ01  00002PRCP99
0186133890999992000112618004+42980+021950FM-12+023299999V0200701N002012200019N0200001N1+01141+00381100951ADDAA199000091GF104991041081012501001001KA1999M+01741MA1999999098191MD1410001+9999REMSYN076AAXX  26181 13389 32698 40702 10114 20038 39819 40095 54000 84800 333 10174;EQDQ01  00002PRCP99
0163133890999992000112621004+42980+021950FM-12+023299999V0209999C000010360019N0200001N1+00961+00721100891ADDAA199000091GF106991031051012501031001MA1999999098121MD1810071+9999REMSYN066AAXX  26211 13389 32698 60000 10096 20072 39812 40089 58007 83530;EQDQ01  00002PRCP99
0173133890999992000112700004+42980+021950FM-12+023299999V0201801N002012200019N0200001N1+00581+00381100711ADDAA199000091GA1001+999999999GF100991001001999999001001MA1999999097911MD1710211+9999REMSYN060AAXX  27001 13389 32998 01802 10058 20038 39791 40071 57021;EQDQ01  00002PRCP99
0163133890999992000112703004+42980+021950FM-12+023299999V0209999C000012200019N0200001N1+00341+00181100691ADDAA199000091GF101991011051012501001001MA1999999097851MD1710061+9999REMSYN066AAXX  27031 13389 32698 10000 10034 20018 39785 40069 57006 81500;EQDQ01  00002PRCP99
0216133890999992000112706004+42980+021950FM-12+023299999V0202001N001012200019N0200001N1+00341+00231100691ADDAA199000091GF104991041051012501001001IA1019IA2999-00109KA1120N+00271MA1999999097851MD1410001+9999REMSYN088AAXX  27061 13389 32698 42001 10034 20023 39785 40069 54000 84500 333 20027 30101 55000;EQDQ01  00002PRCP99
0163133890999992000112709004+42980+021950FM-12+023299999V0202201N001010150019N0100001N1+00581+00351100851ADDAA199000091GF108991081081012501999999MA1999999098051MD1210201+9999REMSYN066AAXX  27091 13389 32697 82201 10058 20035 39805 40085 52020 888//;EQDQ01  00002PRCP99
0178133890999992000112712004+42980+021950FM-12+023299999V0203401N001010360019N0100001N1+00701+00581100871ADDAA106001091AY161061AY261061GF108991021071008001021999MA1999999098071MD1110021+9999MW1611REMSYN078AAXX  27121 13389 11597 83401 10070 20058 39807 40087 51002 60011 76166 8272/;
0172133890999992000112715004+42980+021950FM-12+023299999V0203101N004010360019N0100001N1+00621+00421101111ADDAA199000021AY161031AY261031GF108991041071008001021999MA1999999098301MD1310231+9999MW1611REMSYN072AAXX  27151 13389 31597 83104 10062 20042 39830 40111 53023 76166 8472/;
0201133890999992000112718004+42980+021950FM-12+023299999V0202701N003010360019N0100001N1+00601+00451101291ADDAA112006191AY161061AY261061GF108991041071008001021999KA1999M+00721MA1999999098471MD1210171+9999MW1611REMSYN088AAXX  27181 13389 11597 82703 10060 20045 39847 40129 52017 60062 76166 8472/ 333 10072;
0144133890999992000112721004+42980+021950FM-12+023299999V0203401N003010075019N0100001N1+00681+00421101401ADDAA199000021GF108991081061008001999999MA1999999098591MD1210121+9999REMSYN066AAXX  27211 13389 32597 83403 10068 20042 39859 40140 52012 886//;
0178133890999992000112800004+42980+021950FM-12+023299999V0203101N002010075019N0100001N1+00641+00491101681ADDAA106000591AY161061AY221061GF108991081071008001999999MA1999999098851MD1210161+9999MW1611REMSYN078AAXX  28001 13389 11597 83102 10064 20049 39885 40168 52016 69941 76162 887//;
0172133890999992000112803004+42980+021950FM-12+023299999V0203601N003010075019N0100001N1+00701+00561101771ADDAA199000021AY121031AY261031GF108991081061008001999999MA1999999098951MD1210101+9999MW1021REMSYN072AAXX  28031 13389 31597 83603 10070 20056 39895 40177 52010 70226 886//;
0231133890999992000112806004+42980+021950FM-12+023299999V0203601N003010075019N0100001N1+00621+00231101901ADDAA112000591AY121061AY261061GF108991081061008001999999IA1099IA2999+00509KA1120N+00621MA1999999099071MD1210121+9999MW1021REMSYN100AAXX  28061 13389 11597 83603 10062 20023 39907 40190 52012 69962 70226 886// 333 20062 31005 55000;
0144133890999992000112809004+42980+021950FM-12+023299999V0203601N003010150019N0100001N1+00621+00231102151ADDAA199000021GF108991081081012501999999MA1999999099311MD1210241+9999REMSYN066AAXX  28091 13389 32697 83603 10062 20023 39931 40215 52024 888//;
0144133890999992000112812004+42980+021950FM-12+023299999V0203401N004010120019N0100001N1+00691+00231102151ADDAA199000021GF108991081081008001999999MA1999999099311MD1410001+9999REMSYN066AAXX  28121 13389 32597 83404 10069 20023 39931 40215 54000 888//;
0163133890999992000112815004+42980+021950FM-12+023299999V0203401N003010120019N0100001N1+00721+00231102211ADDAA199000091GF108991081081008001999999MA1999999099371MD1310061+9999REMSYN066AAXX  28151 13389 32597 83403 10072 20023 39937 40221 53006 888//;EQDQ01  00002PRCP99
0186133890999992000112818004+42980+021950FM-12+023299999V0203201N001010120019N0100001N1+00681+00231102381ADDAA199000091GF108991081051012501999999KA1999M+00751MA1999999099531MD1210161+9999REMSYN076AAXX  28181 13389 32697 83201 10068 20023 39953 40238 52016 885// 333 10075;EQDQ01  00002PRCP99
0163133890999992000112821004+42980+021950FM-12+023299999V0203301N003010120019N0100001N1+00671+00201102481ADDAA199000091GF107991071051012501001001MA1999999099631MD1210101+9999REMSYN066AAXX  28211 13389 32697 73303 10067 20020 39963 40248 52010 87500;EQDQ01  00002PRCP99
0163133890999992000112900004+42980+021950FM-12+023299999V0203101N001010120019N0100001N1+00621+00231102481ADDAA199000091GF107991071051012501001001MA1999999099631MD1410001+9999REMSYN066AAXX  29001 13389 32697 73101 10062 20023 39963 40248 54000 87500;EQDQ01  00002PRCP99
0163133890999992000112903004+42980+021950FM-12+023299999V0203401N001010120019N0100001N1+00561+00201102501ADDAA199000091GF107991071051012501001001MA1999999099651MD1310021+9999REMSYN066AAXX  29031 13389 32697 73401 10056 20020 39965 40250 53002 87500;EQDQ01  00002PRCP99
0216133890999992000112906004+42980+021950FM-12+023299999V0202401N001010120019N0100001N1+00461+00231102591ADDAA199000091GF107991071051012501001001IA1099IA2999+00109KA1120N+00451MA1999999099721MD1210071+9999REMSYN088AAXX  29061 13389 32697 72401 10046 20023 39972 40259 52007 87500 333 20045 31001 55000;EQDQ01  00002PRCP99
0163133890999992000112909004+42980+021950FM-12+023299999V0200401N001010150019N0100001N1+00641+00281102631ADDAA199000091GF107991071081012501001001MA1999999099781MD1210061+9999REMSYN066AAXX  29091 13389 32697 70401 10064 20028 39978 40263 52006 87800;EQDQ01  00002PRCP99
0163133890999992000112912004+42980+021950FM-12+023299999V0200601N002012200019N0100001N1+00841+00011102561ADDAA199000091GF102991021081012501001001MA1999999099721MD1810061+9999REMSYN066AAXX  29121 13389 32697 20602 10084 20001 39972 40256 58006 82800;EQDQ01  00002PRCP99
0163133890999992000112915004+42980+021950FM-12+023299999V0209999C000012200019N0200001N1+00741+00011102541ADDAA199000091GF101991001001999999001011MA1999999099691MD1510031+9999REMSYN066AAXX  29151 13389 32998 10000 10074 20001 39969 40254 55003 80001;EQDQ01  00002PRCP99
0196133890999992000112918004+42980+021950FM-12+023299999V0202001N001012200019N0200001N1+00121-00021102621ADDAA199000091GA1001+999999999GF100991001001999999001001KA1999M+00951MA1999999099711MD1310021+9999REMSYN070AAXX  29181 13389 32998 02001 10012 21002 39971 40262 53002 333 10095;EQDQ01  00002PRCP99
0173133890999992000112921004+42980+021950FM-12+023299999V0201801N001012200019N0200001N1-00101-00221102701ADDAA199000091GA1001+999999999GF100991001001999999001001MA1999999099761MD1110051+9999REMSYN060AAXX  29211 13389 32998 01801 11010 21022 39976 40270 51005;EQDQ01  00002PRCP99
0173133890999992000113003004+42980+021950FM-12+023299999V0209999C000012200019N0200001N1-00361-00481102691ADDAA199000091GA1001+999999999GF100991001001999999001001MA1999999099721MD1810051+9999REMSYN060AAXX  30031 13389 32998 00000 11036 21048 39972 40269 58005;EQDQ01  00002PRCP99
0226133890999992000113006004+42980+021950FM-12+023299999V0209999C000012200019N0200001N1-00441-00571102691ADDAA199000091GA1001+999999999GF100991001001999999001001IA1149IA2999-00809KA1120N-00441MA1999999099721MD1410001+9999REMSYN082AAXX  30061 13389 32998 00000 11044 21057 39972 40269 54000 333 21044 34108 55045;EQDQ01  00002PRCP99
0173133890999992000113009004+42980+021950FM-12+023299999V0201801N001012200019N0100001N1+00341+00061102701ADDAA199000091GA1001+999999999GF100991001001999999001001MA1999999099801MD1310081+9999REMSYN060AAXX  30091 13389 32997 01801 10034 20006 39980 40270 53008;EQDQ01  00002PRCP99
0173133890999992000113012004+42980+021950FM-12+023299999V0209999C000012200019N0100001N1+00961+00011102431ADDAA199000091GA1001+999999999GF100991001001999999001001MA1999999099611MD1810191+9999REMSYN060AAXX  30121 13389 32997 00000 10096 20001 39961 40243 58019;EQDQ01  00002PRCP99
0173133890999992000113015004+42980+021950FM-12+023299999V0209999C000012200019N0100001N1+00901+00151102401ADDAA199000091GA1001+999999999GF100991001001999999001001MA1999999099571MD1510041+9999REMSYN060AAXX  30151 13389 32997 00000 10090 20015 39957 40240 55004;EQDQ01  00002PRCP99
0196133890999992000113018004+42980+021950FM-12+023299999V0209999C000012200019N0100001N1+00201+00041102561ADDAA199000091GA1001+999999999GF100991001001999999001001KA1999M+01191MA1999999099661MD1210091+9999REMSYN070AAXX  30181 13389 32997 00000 10020 20004 39966 40256 52009 333 10119;EQDQ01  00002PRCP99
0173133890999992000113021004+42980+021950FM-12+023299999V0209999C000012200019N0200001N1-00071-00151102651ADDAA199000091GA1001+999999999GF100991001001999999001001MA1999999099711MD1310051+9999REMSYN060AAXX  30211 13389 32998 00000 11007 21015 39971 40265 53005;EQDQ01  00002PRCP99
0173133890999992000120100004+42980+021950FM-12+023299999V0209999C000012200019N0200001N1-00221-00291102731ADDAA199000091GA1001+999999999GF100991001001999999001001MA1999999099781MD1210071+9999REMSYN060AAXX  01001 13389 32998 00000 11022 21029 39978 40273 52007;EQDQ01  00002PRCP99
0173133890999992000120103004+42980+021950FM-12+023299999V0209999C000012200019N0200001N1-00301-00361102791ADDAA199000091GA1001+999999999GF100991001001999999001001MA1999999099831MD1210051+9999REMSYN060AAXX  01031 13389 32998 00000 11030 21036 39983 40279 52005;EQDQ01  00002PRCP99
0226133890999992000120106004+42980+021950FM-12+023299999V0209999C000012200019N0200001N1-00411-00531102801ADDAA199000091GA1001+999999999GF100991001001999999001001IA1149IA2999-00709KA1120N-00411MA1999999099831MD1410001+9999REMSYN082AAXX  01061 13389 32998 00000 11041 21053 39983 40280 54000 333 21041 34107 55075;EQDQ01  00002PRCP99
0163133890999992000120109004+42980+021950FM-12+023299999V0209999C000012200019N0100001N1+00361+00151102751ADDAA199000091GF101991001001999999001011MA1999999099871MD1110041+9999REMSYN066AAXX  01091 13389 32997 10000 10036 20015 39987 40275 51004 80001;EQDQ01  00002PRCP99
0173133890999992000120112004+42980+021950FM-12+023299999V0209999C000012200019N0100001N1+01161+00251102431ADDAA199000091GA1001+999999999GF100991001001999999001001MA1999999099641MD1810231+9999REMSYN060AAXX  01121 13389 32997 00000 10116 20025 39964 40243 58023;EQDQ01  00002PRCP99
0163133890999992000120115004+42980+021950FM-12+023299999V0209999C000012200019N0200001N1+01201+00231102381ADDAA199000091GF102991001001999999001011MA1999999099591MD1510051+9999REMSYN066AAXX  01151 13389 32998 20000 10120 20023 39959 40238 55005 80001;EQDQ01  00002PRCP99
0196133890999992000120118004+42980+021950FM-12+023299999V0209999C000012200019N0200001N1+00281+00151102591ADDAA199000091GA1001+999999999GF100991001001999999001001KA1999M+01511MA1999999099701MD1210111+9999REMSYN070AAXX  01181 13389 32998 00000 10028 20015 39970 40259 52011 333 10151;EQDQ01  00002PRCP99
0173133890999992000120121004+42980+021950FM-12+023299999V0209999C000012200019N0200001N1-00021-00221102661ADDAA199000091GA1001+999999999GF100991001001999999001001MA1999999099731MD1110031+9999REMSYN060AAXX  01211 13389 32998 00000 11002 21022 39973 40266 51003;EQDQ01  00002PRCP99
0173133890999992000120200004+42980+021950FM-12+023299999V0209999C000012200019N0200001N1-00151-00221102681ADDAA199000091GA1001+999999999GF100991001001999999001001MA1999999099731MD1410001+9999REMSYN060AAXX  02001 13389 32998 00000 11015 21022 39973 40268 54000;EQDQ01  00002PRCP99
0173133890999992000120203004+42980+021950FM-12+023299999V0201901N002012200019N0200001N1-00241-00331102681ADDAA199000091GA1001+999999999GF100991001001999999001001MA1999999099731MD1410001+9999REMSYN060AAXX  02031 13389 32998 01902 11024 21033 39973 40268 54000;EQDQ01  00002PRCP99
0216133890999992000120206004+42980+021950FM-12+023299999V0209999C000012200019N0200001N1-00321-00401102741ADDAA199000091GF102991001001999999001011IA1149IA2999-00709KA1120N-00321MA1999999099781MD1310051+9999REMSYN088AAXX  02061 13389 32998 20000 11032 21040 39978 40274 53005 80001 333 21032 34107 55075;EQDQ01  00002PRCP99
0163133890999992000120212004+42980+021950FM-12+023299999V0209999C000012200019N0100001N1+01141+00281102411ADDAA199000091GF103991001001999999001011MA1999999099611MD1710161+9999REMSYN066AAXX  02121 13389 32997 30000 10114 20028 39961 40241 57016 80001;EQDQ01  00002PRCP99
0163133890999992000120215004+42980+021950FM-12+023299999V0209999C000012200019N0200001N1+01061+00401102331ADDAA199000091GF104991001001999999001011MA1999999099531MD1610081+9999REMSYN066AAXX  02151 13389 32998 40000 10106 20040 39953 40233 56008 80001;EQDQ01  00002PRCP99
0196133890999992000120218004+42980+021950FM-12+023299999V0201901N002012200019N0100001N1+00421+00281102501ADDAA199000091GA1001+999999999GF100991001001999999001001KA1999M+01261MA1999999099631MD1310101+9999REMSYN070AAXX  02181 13389 32997 01902 10042 20028 39963 40250 53010 333 10126;EQDQ01  00002PRCP99
0201133890999992000120221004+42980+021950FM-12+023299999V0209999C000012200019N0040001N1+00001-00061102611ADDAA199000091AY101031AY201031GA1001+999999999GF100991001001999999001001MA1999999099681MD1110051+9999MW1101REMSYN066AAXX  02211 13389 31996 00000 10000 21006 39968 40261 51005 71000;EQDQ01  00002PRCP99
0201133890999992000120300004+42980+021950FM-12+023299999V0209999C000012200019N0040001N1-00181-00221102531ADDAA199000091AY101061AY201061GA1001+999999999GF100991001001999999001001MA1999999099681MD1410001+9999MW1101REMSYN066AAXX  03001 13389 31996 00000 11018 21022 39968 40253 54000 71000;EQDQ01  00002PRCP99
0201133890999992000120303004+42980+021950FM-12+023299999V0201301N001012200019N0040001N1-00301-00331102641ADDAA199000091AY101031AY201031GA1001+999999999GF100991001001999999001001MA1999999099681MD1410001+9999MW1101REMSYN066AAXX  03031 13389 31996 01301 11030 21033 39968 40264 54000 71000;EQDQ01  00002PRCP99
0226133890999992000120306004+42980+021950FM-12+023299999V0209999C000012200019N0200001N1-00341-00401102641ADDAA199000091GA1001+999999999GF100991001001999999001001IA1149IA2999-00709KA1120N-00341MA1999999099681MD1410001+9999REMSYN082AAXX  03061 13389 32998 00000 11034 21040 39968 40264 54000 333 21034 34107 55071;EQDQ01  00002PRCP99
0173133890999992000120309004+42980+021950FM-12+023299999V0209999C000012200019N0100001N1+00431+00231102541ADDAA199000091GA1001+999999999GF100991001001999999001001MA1999999099671MD1610011+9999REMSYN060AAXX  03091 13389 32997 00000 10043 20023 39967 40254 56001;EQDQ01  00002PRCP99
0173133890999992000120312004+42980+021950FM-12+023299999V0209999C000012200019N0200001N1+01151+00251102231ADDAA199000091GA1001+999999999GF100991001001999999001001MA1999999099451MD1810221+9999REMSYN060AAXX  03121 13389 32998 00000 10115 20025 39945 40223 58022;EQDQ01  00002PRCP99
0163133890999992000120315004+42980+021950FM-12+023299999V0201501N001012200019N0200001N1+01201+00181102181ADDAA199000091GF101991001001999999001011MA1999999099401MD1510051+9999REMSYN066AAXX  03151 13389 32998 11501 10120 20018 39940 40218 55005 80001;EQDQ01  00002PRCP99
0196133890999992000120318004+42980+021950FM-12+023299999V0209999C000012200019N0200001N1+00241+00061102391ADDAA199000091GA1001+999999999GF100991001001999999001001KA1999M+01431MA1999999099491MD1210091+9999REMSYN070AAXX  03181 13389 32998 00000 10024 20006 39949 40239 52009 333 10143;EQDQ01  00002PRCP99
0173133890999992000120321004+42980+021950FM-12+023299999V0209999C000012200019N0200001N1-00091-00151102491ADDAA199000091GA1001+999999999GF100991001001999999001001MA1999999099561MD1210071+9999REMSYN060AAXX  03211 13389 32998 00000 11009 21015 39956 40249 52007;EQDQ01  00002PRCP99
0173133890999992000120400004+42980+021950FM-12+023299999V0201801N001012200019N0200001N1-00161-00221102521ADDAA199000091GA1001+999999999GF100991001001999999001001MA1999999099581MD1110021+9999REMSYN060AAXX  04001 13389 32998 01801 11016 21022 39958 40252 51002;EQDQ01  00002PRCP99
0173133890999992000120403004+42980+021950FM-12+023299999V0209999C000012200019N0200001N1-00331-00441102541ADDAA199000091GA1001+999999999GF100991001001999999001001MA1999999099581MD1410001+9999REMSYN060AAXX  04031 13389 32998 00000 11033 21044 39958 40254 54000;EQDQ01  00002PRCP99
0216133890999992000120406004+42980+021950FM-12+023299999V0209999C000012200019N0200001N1-00381-00441102661ADDAA199000091GF101991001001999999001011IA1149IA2999-00809KA1120N-00381MA1999999099691MD1310111+9999REMSYN088AAXX  04061 13389 32998 10000 11038 21044 39969 40266 53011 80001 333 21038 34108 55068;EQDQ01  00002PRCP99
0163133890999992000120409004+42980+021950FM-12+023299999V0202101N001012200019N0200001N1+00381+00281102611ADDAA199000091GF103991001001999999001011MA1999999099741MD1110051+9999REMSYN066AAXX  04091 13389 32998 32101 10038 20028 39974 40261 51005 80001;EQDQ01  00002PRCP99
0163133890999992000120412004+42980+021950FM-12+023299999V0200901N002012200019N0100001N1+01061+00331102301ADDAA199000091GF102991001001999999001011MA1999999099531MD1710211+9999REMSYN066AAXX  04121 13389 32997 20902 10106 20033 39953 40230 57021 80001;EQDQ01  00002PRCP99
0163133890999992000120415004+42980+021950FM-12+023299999V0201801N002012200019N0200001N1+00781+00401102351ADDAA199000091GF103991001001999999001011MA1999999099521MD1510011+9999REMSYN066AAXX  04151 13389 32998 31802 10078 20040 39952 40235 55001 80001;EQDQ01  00002PRCP99
0196133890999992000120418004+42980+021950FM-12+023299999V0202001N001012200019N0200001N1+00421+00281102541ADDAA199000091GA1001+999999999GF100991001001999999001001KA1999M+01161MA1999999099671MD1210151+9999REMSYN070AAXX  04181 13389 32998 02001 10042 20028 39967 40254 52015 333 10116;EQDQ01  00002PRCP99
0173133890999992000120421004+42980+021950FM-12+023299999V0209999C000012200019N0200001N1-00121-00191102661ADDAA199000091GA1001+999999999GF100991001001999999001001MA1999999099721MD1210051+9999REMSYN060AAXX  04211 13389 32998 00000 11012 21019 39972 40266 52005;EQDQ01  00002PRCP99
0173133890999992000120500004+42980+021950FM-12+023299999V0209999C000012200019N0200001N1-00311-00361102721ADDAA199000091GA1001+999999999GF100991001001999999001001MA1999999099761MD1210041+9999REMSYN060AAXX  05001 13389 32998 00000 11031 21036 39976 40272 52004;EQDQ01  00002PRCP99
0217133890999992000120503004+42980+021950FM-12+023299999V0209999C000012200019N0005001N1-00381-00441102731ADDAA199000091AY141031AY201031GA1001+999999999GF100991001001999999001001MA1999999099761MD1410001+9999MW1421REMSYN066AAXX  05031 13389 31993 00000 11038 21044 39976 40273 54000 74340;EQDQ01+000432PRSWM1Q02  00002PRCP99
0254133890999992000120506004+42980+021950FM-12+023299999V0201801N002010001519N0001001N1-00411-00441102781ADDAA199000091AY141061AY241061GA1091+999999999GF109991091999999999999999IA1149IA2999-00809KA1120N-00501MA1999999099811MD1310051+9999MW1471REMSYN088AAXX  05061 13389 31/91 91802 11041 21044 39981 40278 53005 74744 333 21050 34108 55064;EQDQ01  00002PRCP99
0191133890999992000120509004+42980+021950FM-12+023299999V0209999C000012200019N0005001N1-00081-00151102831ADDAA199000091AY141031AY241031GF102991001001999999001011MA1999999099891MD1110071+9999MW1421REMSYN072AAXX  05091 13389 31993 20000 11008 21015 39989 40283 51007 74244 80001;EQDQ01  00002PRCP99
0163133890999992000120512004+42980+021950FM-12+023299999V0202501N001012200019N0100001N1+00641+00281102591ADDAA199000091GF103991001001999999001011MA1999999099741MD1710151+9999REMSYN066AAXX  05121 13389 32997 32501 10064 20028 39974 40259 57015 80001;EQDQ01  00002PRCP99
0163133890999992000120515004+42980+021950FM-12+023299999V0201101N001012200019N0200001N1+00641+00351102561ADDAA199000091GF103991001001999999001011MA1999999099711MD1610031+9999REMSYN066AAXX  05151 13389 32998 31101 10064 20035 39971 40256 56003 80001;EQDQ01  00002PRCP99
0214133890999992000120518004+42980+021950FM-12+023299999V0209999C000012200019N0040001N1+00081+00041102691ADDAA199000091AY101061AY201061GF103991001001999999001011KA1999M+00801MA1999999099771MD1310061+9999MW1101REMSYN082AAXX  05181 13389 31996 30000 10008 20004 39977 40269 53006 71000 80001 333 10080;EQDQ01  00002PRCP99
0201133890999992000120521004+42980+021950FM-12+023299999V0209999C000012200019N0040001N1-00121-00191102801ADDAA199000091AY101031AY201031GA1001+999999999GF100991001001999999001001MA1999999099861MD1210091+9999MW1101REMSYN066AAXX  05211 13389 31996 00000 11012 21019 39986 40280 52009 71000;EQDQ01  00002PRCP99
0201133890999992000120600004+42980+021950FM-12+023299999V0209999C000012200019N0002001N1-00261-00291102871ADDAA199000091AY141061AY201061GA1001+999999999GF100991001001999999001001MA1999999099911MD1310051+9999MW1441REMSYN066AAXX  06001 13389 31992 00000 11026 21029 39991 40287 53005 74440;EQDQ01  00002PRCP99
0201133890999992000120603004+42980+021950FM-12+023299999V0209999C000010001519N0001001N1-00121-00151102851ADDAA199000091AY141031AY241031GA1091+999999999GF109991091999999999999999MA1999999099911MD1410001+9999MW1451REMSYN066AAXX  06031 13389 31/91 90000 11012 21015 39991 40285 54000 74544;EQDQ01  00002PRCP99
0254133890999992000120606004+42980+021950FM-12+023299999V0209999C000010001519N0001001N1-00041-00061102821ADDAA199000091AY141061AY241061GA1091+999999999GF109991091999999999999999IA1149IA2999-00609KA1120N-00281MA1999999099891MD1610021+9999MW1451REMSYN088AAXX  06061 13389 31/91 90000 11004 21006 39989 40282 56002 74544 333 21028 34106 55037;EQDQ01  00002PRCP99
0191133890999992000120609004+42980+021950FM-12+023299999V0202701N001010075019N0005001N1+00121+00121102921ADDAA199000091AY141031AY241031GF108991081061008001999999MA1999999100001MD1310111+9999MW1421REMSYN072AAXX  06091 13389 31593 82701 10012 20012 30000 40292 53011 74244 886//;EQDQ01  00002PRCP99
0191133890999992000120612004+42980+021950FM-12+023299999V0203201N002010075019N0010001N1+00211+00151102771ADDAA199000091AY141061AY241061GF108991081061008001999999MA1999999099871MD1810131+9999MW1101REMSYN072AAXX  06121 13389 31594 83202 10021 20015 39987 40277 58013 71044 886//;EQDQ01  00002PRCP99
0191133890999992000120615004+42980+021950FM-12+023299999V0203201N002010075019N0010001N1+00221+00121102711ADDAA199000091AY121031AY221031GF108991081061008001999999MA1999999099811MD1610061+9999MW1101REMSYN072AAXX  06151 13389 31594 83202 10022 20012 39981 40271 56006 71022 886//;EQDQ01  00002PRCP99
0214133890999992000120618004+42980+021950FM-12+023299999V0209999C000010075019N0010001N1+00201+00121102711ADDAA199000091AY121061AY221061GF108991081061008001999999KA1999M+00271MA1999999099811MD1410001+9999MW1101REMSYN082AAXX  06181 13389 31594 80000 10020 20012 39981 40271 54000 71022 886// 333 10027;EQDQ01  00002PRCP99
0191133890999992000120621004+42980+021950FM-12+023299999V0200301N002010075019N0010001N1+00161+00091102841ADDAA199000091AY121031AY221031GF108991081061008001999999MA1999999099931MD1310121+9999MW1101REMSYN072AAXX  06211 13389 31594 80302 10016 20009 39993 40284 53012 71022 886//;EQDQ01  00002PRCP99
0191133890999992000120700004+42980+021950FM-12+023299999V0209999C000010075019N0020001N1+00141+00061102871ADDAA199000091AY121061AY221061GF108991081061008001999999MA1999999099951MD1110021+9999MW1101REMSYN072AAXX  07001 13389 31595 80000 10014 20006 39995 40287 51002 71022 886//;EQDQ01  00002PRCP99
0191133890999992000120703004+42980+021950FM-12+023299999V0209999C000010075019N0020001N1+00151+00061102811ADDAA199000091AY121031AY221031GF108991081061008001999999MA1999999099901MD1810051+9999MW1101REMSYN072AAXX  07031 13389 31595 80000 10015 20006 39990 40281 58005 71022 886//;EQDQ01  00002PRCP99
0244133890999992000120706004+42980+021950FM-12+023299999V0209999C000010075019N0040001N1+00121+00041102871ADDAA199000091AY121061AY221061GF108991081061008001999999IA1099IA2999+00109KA1120N+00121MA1999999099951MD1310051+9999MW1101REMSYN094AAXX  07061 13389 31596 80000 10012 20004 39995 40287 53005 71022 886// 333 20012 31001 55000;EQDQ01  00002PRCP99
0191133890999992000120709004+42980+021950FM-12+023299999V0200601N001010075019N0040001N1+00241+00061102931ADDAA199000091AY121031AY221031GF108991081061008001999999MA1999999100021MD1210071+9999MW1101REMSYN072AAXX  07091 13389 31596 80601 10024 20006 30002 40293 52007 71022 886//;EQDQ01  00002PRCP99
0191133890999992000120712004+42980+021950FM-12+023299999V0200501N001010075019N0040001N1+00421+00181102811ADDAA199000091AY121061AY221061GF108991081061008001999999MA1999999099931MD1810091+9999MW1101REMSYN072AAXX  07121 13389 31596 80501 10042 20018 39993 40281 58009 71022 886//;EQDQ01  00002PRCP99
0191133890999992000120715004+42980+021950FM-12+023299999V0209999C000010075019N0040001N1+00411+00181102771ADDAA199000091AY121031AY221031GF108991081061008001999999MA1999999099891MD1610041+9999MW1101REMSYN072AAXX  07151 13389 31596 80000 10041 20018 39989 40277 56004 71022 886//;EQDQ01  00002PRCP99
0214133890999992000120718004+42980+021950FM-12+023299999V0200401N001010075019N0040001N1+00361+00201102771ADDAA199000091AY121061AY221061GF108991081061008001999999KA1999M+00461MA1999999099891MD1410001+9999MW1101REMSYN082AAXX  07181 13389 31596 80401 10036 20020 39989 40277 54000 71022 886// 333 10046;EQDQ01  00002PRCP99
0191133890999992000120721004+42980+021950FM-12+023299999V0200401N001010075019N0040001N1+00301+00181102851ADDAA199000091AY121031AY221031GF108991081061008001999999MA1999999099951MD1310061+9999MW1101REMSYN072AAXX  07211 13389 31596 80401 10030 20018 39995 40285 53006 71022 886//;EQDQ01  00002PRCP99
0191133890999992000120800004+42980+021950FM-12+023299999V0203301N001010075019N0040001N1+00201+00121102881ADDAA199000091AY121061AY221061GF108991081061008001999999MA1999999099981MD1110031+9999MW1101REMSYN072AAXX  08001 13389 31596 83301 10020 20012 39998 40288 51003 71022 886//;EQDQ01  00002PRCP99
0172133890999992000120803004+42980+021950FM-12+023299999V0209999C000010075019N0040001N1+00161+00121102881ADDAA199000021AY151031AY221031GF108991081071008001999999MA1999999099981MD1410001+9999MW1511REMSYN072AAXX  08031 13389 31596 80000 10016 20012 39998 40288 54000 75152 887//;
0231133890999992000120806004+42980+021950FM-12+023299999V0209999C000010075019N0010001N1+00191+00151102881ADDAA112000191AY151061AY251061GF108991081071008001999999IA1099IA2999+00209KA1120N+00161MA1999999099981MD1410001+9999MW1511REMSYN100AAXX  08061 13389 11594 80000 10019 20015 39998 40288 54000 69922 75155 887// 333 20016 31002 55000;
0172133890999992000120809004+42980+021950FM-12+023299999V0201101N002010075019N0040001N1+00361+00201102861ADDAA199000021AY121031AY221031GF108991081061008001999999MA1999999099981MD1010001+9999MW1101REMSYN072AAXX  08091 13389 31596 81102 10036 20020 39998 40286 50000 71022 886//;
0144133890999992000120812004+42980+021950FM-12+023299999V0200501N002010360019N0100001N1+00651+00201102721ADDAA199000021GF107991031051012501031011MA1999999099861MD1710121+9999REMSYN066AAXX  08121 13389 32697 70502 10065 20020 39986 40272 57012 83531;
0144133890999992000120815004+42980+021950FM-12+023299999V0201201N002019999999N0100001N1+00651+00231102661ADDAA199000021GF105991001001999999001061MA1999999099811MD1510051+9999REMSYN066AAXX  08151 13389 32997 51202 10065 20023 39981 40266 55005 80006;
0167133890999992000120818004+42980+021950FM-12+023299999V0209999C000019999999N0100001N1+00331+00151102731ADDAA199000021GF106991041001999999071011KA1999M+00741MA1999999099831MD1110021+9999REMSYN076AAXX  08181 13389 32997 60000 10033 20015 39983 40273 51002 84071 333 10074;
0163133890999992000120821004+42980+021950FM-12+023299999V0209999C000019999999N0200001N1+00271+00151102751ADDAA199000091GF107991071001999999071001MA1999999099851MD1310021+9999REMSYN066AAXX  08211 13389 32998 70000 10027 20015 39985 40275 53002 87070;EQDQ01  00002PRCP99
0163133890999992000120900004+42980+021950FM-12+023299999V0209999C000019999999N0200001N1+00221+00091102701ADDAA199000091GF107991071001999999071001MA1999999099791MD1810061+9999REMSYN066AAXX  09001 13389 32998 70000 10022 20009 39979 40270 58006 87070;EQDQ01  00002PRCP99
0163133890999992000120903004+42980+021950FM-12+023299999V0209999C000019999999N0100001N1+00181+00121102671ADDAA199000091GF108991081001999999071999MA1999999099771MD1710021+9999REMSYN066AAXX  09031 13389 32997 80000 10018 20012 39977 40267 57002 8807/;EQDQ01  00002PRCP99
0222133890999992000120906004+42980+021950FM-12+023299999V0209999C000019999999N0200001N1+00011-00061102741ADDAA199000091GF106991001001999999001061IA1149IA2999-00409KA1120N+00001MA1999999099811MD1310041+9999REMSYN094AAXX  09061 13389 32998 60000 10001 21006 39981 40274 53004 80006 333 20000 34104 55000 92600;EQDQ01  00002PRCP99
0163133890999992000120909004+42980+021950FM-12+023299999V0209999C000019999999N0200001N1+00481+00351102691ADDAA199000091GF107991071001999999071001MA1999999099831MD1110021+9999REMSYN066AAXX  09091 13389 32998 70000 10048 20035 39983 40269 51002 87070;EQDQ01  00002PRCP99
0163133890999992000120912004+42980+021950FM-12+023299999V0201101N002019999999N0200001N1+01071+00231102501ADDAA199000091GF107991051001999999071011MA1999999099691MD1810141+9999REMSYN066AAXX  09121 13389 32998 71102 10107 20023 39969 40250 58014 85071;EQDQ01  00002PRCP99
0163133890999992000120915004+42980+021950FM-12+023299999V0209999C000019999999N0200001N1+00931+00281102471ADDAA199000091GF107991041001999999071011MA1999999099651MD1610041+9999REMSYN066AAXX  09151 13389 32998 70000 10093 20028 39965 40247 56004 84071;EQDQ01  00002PRCP99
0186133890999992000120918004+42980+021950FM-12+023299999V0209999C000019999999N0200001N1+00581+00351102541ADDAA199000091GF107991071001999999071001KA1999M+01131MA1999999099691MD1310041+9999REMSYN076AAXX  09181 13389 32998 70000 10058 20035 39969 40254 53004 87070 333 10113;EQDQ01  00002PRCP99
0163133890999992000120921004+42980+021950FM-12+023299999V0209999C000019999999N0100001N1+00131+00061102581ADDAA199000091GF106991041001999999071011MA1999999099671MD1810021+9999REMSYN066AAXX  09211 13389 32997 60000 10013 20006 39967 40258 58002 84071;EQDQ01  00002PRCP99
0173133890999992000121000004+42980+021950FM-12+023299999V0209999C000012200019N0100001N1-00021-00061102601ADDAA199000091GA1001+999999999GF100991001001999999001001MA1999999099671MD1410001+9999REMSYN060AAXX  10001 13389 32997 00000 11002 21006 39967 40260 54000;EQDQ01  00002PRCP99
0173133890999992000121003004+42980+021950FM-12+023299999V0209999C000012200019N0100001N1-00081-00121102551ADDAA199000091GA1001+999999999GF100991001001999999001001MA1999999099621MD1810051+9999REMSYN060AAXX  10031 13389 32997 00000 11008 21012 39962 40255 58005;EQDQ01  00002PRCP99
0216133890999992000121006004+42980+021950FM-12+023299999V0201301N002019999999N0200001N1+00441+00301102541ADDAA199000091GF106991031001999999031011IA1099IA2999-00509KA1120N-00111MA1999999099671MD1310051+9999REMSYN088AAXX  10061 13389 32998 61302 10044 20030 39967 40254 53005 83031 333 21011 31105 55004;EQDQ01  00002PRCP99
0163133890999992000121009004+42980+021950FM-12+023299999V0201901N001019999999N0200001N1+00571+00331102491ADDAA199000091GF107991071001999999071001MA1999999099631MD1810031+9999REMSYN066AAXX  10091 13389 32998 71901 10057 20033 39963 40249 58003 87070;EQDQ01  00002PRCP99
0163133890999992000121012004+42980+021950FM-12+023299999V0201401N002010360019N0200001N1+00801+00381102191ADDAA199000091GF108991021051012501071999MA1999999099371MD1710271+9999REMSYN066AAXX  10121 13389 32698 81402 10080 20038 39937 40219 57027 8257/;EQDQ01  00002PRCP99
0163133890999992000121015004+42980+021950FM-12+023299999V0209999C000010360019N0200001N1+00811+00531102381ADDAA199000091GF108991021051012501071999MA1999999099551MD1310181+9999REMSYN066AAXX  10151 13389 32698 80000 10081 20053 39955 40238 53018 8257/;EQDQ01  00002PRCP99
0195133890999992000121018004+42980+021950FM-12+023299999V0200201N002019999999N0100001N1+00651+00561102491ADDAA112002091AY161061AY221061GF108991999999999999999999KA1999M+00921MA1999999099641MD1010091+9999MW1211REMSYN082AAXX  10181 13389 11997 80202 10065 20056 39964 40249 50009 60022 72162 333 10092;
0144133890999992000121021004+42980+021950FM-12+023299999V0203201N002010120019N0100001N1+00721+00601102561ADDAA199000021GF108991081051012501999999MA1999999099721MD1210121+9999REMSYN066AAXX  10211 13389 32697 83202 10072 20060 39972 40256 52012 885//;
0144133890999992000121100004+42980+021950FM-12+023299999V0209999C000012200019N0100001N1+00381+00281102591ADDAA199000021GF102991021001999999031001MA1999999099721MD1410001+9999REMSYN066AAXX  11001 13389 32997 20000 10038 20028 39972 40259 54000 82030;
0144133890999992000121103004+42980+021950FM-12+023299999V0202301N001012200019N0100001N1+00201+00121102611ADDAA199000021GF104991041001999999031001MA1999999099721MD1410001+9999REMSYN066AAXX  11031 13389 32997 42301 10020 20012 39972 40261 54000 84030;
0219133890999992000121106004+42980+021950FM-12+023299999V0209999C000019999999N0020001N1+00101+00061102771ADDAA199000021AY121061AY211061GF108991081001999999071999IA1099IA2999-00209KA1120N+00101MA1999999099751MD1310031+9999MW1101REMSYN088AAXX  11061 13389 31995 80000 10010 20006 39975 40277 53003 71021 8807/ 333 20010 31102;
0191133890999992000121109004+42980+021950FM-12+023299999V0209999C000019999999N0005001N1+00441+00381102821ADDAA199000091AY141031AY211031GF105991001001999999001051MA1999999099941MD1210191+9999MW1421REMSYN072AAXX  11091 13389 31993 50000 10044 20038 39994 40282 52019 74241 80005;EQDQ01  00002PRCP99
0191133890999992000121112004+42980+021950FM-12+023299999V0200201N001012200019N0040001N1+01001+00701102651ADDAA199000091AY141061AY241061GF103991011011012501031011MA1999999099841MD1810101+9999MW1101REMSYN072AAXX  11121 13389 31696 30201 10100 20070 39984 40265 58010 71044 81131;EQDQ01  00002PRCP99
0201133890999992000121118004+42980+021950FM-12+023299999V0201201N002010120019N0100001N1+00811+00621102881ADDAA112000191AY161061AY221061GF107991071081008001001001KA1999M+01151MA1999999100041MD1110061+9999MW1021REMSYN088AAXX  11181 13389 11597 71202 10081 20062 30004 40288 51006 69912 70262 87800 333 10115;
0163133890999992000121121004+42980+021950FM-12+023299999V0209999C000010120019N0100001N1+00751+00601102931ADDAA199000091GF108991081081008001999999MA1999999100091MD1310051+9999REMSYN066AAXX  11211 13389 32597 80000 10075 20060 30009 40293 53005 888//;EQDQ01  00002PRCP99
0163133890999992000121200004+42980+021950FM-12+023299999V0209999C000012200019N0100001N1+00441+00331103061ADDAA199000091GF104991041001999999031001MA1999999100171MD1210081+9999REMSYN066AAXX  12001 13389 32997 40000 10044 20033 30017 40306 52008 84030;EQDQ01  00002PRCP99
0163133890999992000121203004+42980+021950FM-12+023299999V0209999C000010360019N0100001N1+00561+00451103041ADDAA199000091GF107991021051012501071001MA1999999100171MD1410001+9999REMSYN066AAXX  12031 13389 32697 70000 10056 20045 30017 40304 54000 82570;EQDQ01  00002PRCP99
0216133890999992000121206004+42980+021950FM-12+023299999V0200701N002012200019N0200001N1+00371+00251103141ADDAA199000091GF102991011051012501031001IA1099IA2999+00009KA1120N+00361MA1999999100251MD1310081+9999REMSYN088AAXX  12061 13389 32698 20702 10037 20025 30025 40314 53008 81530 333 20036 31100 55023;EQDQ01  00002PRCP99
0163133890999992000121212004+42980+021950FM-12+023299999V0201201N001012200019N0200001N1+01341+00381102901ADDAA199000091GF102991001001999999001011MA1999999100111MD1710191+9999REMSYN066AAXX  12121 13389 32998 21201 10134 20038 30011 40290 57019 80001;EQDQ01  00002PRCP99
0163133890999992000121215004+42980+021950FM-12+023299999V0209999C000012200019N0200001N1+01221+00301102791ADDAA199000091GF103991001001999999001011MA1999999099991MD1710121+9999REMSYN066AAXX  12151 13389 32998 30000 10122 20030 39999 40279 57012 80001;EQDQ01  00002PRCP99
0186133890999992000121218004+42980+021950FM-12+023299999V0201801N001012200019N0200001N1+00461+00331102861ADDAA199000091GF102991001001999999001011KA1999M+01441MA1999999099991MD1410001+9999REMSYN076AAXX  12181 13389 32998 21801 10046 20033 39999 40286 54000 80001 333 10144;EQDQ01  00002PRCP99
0163133890999992000121221004+42980+021950FM-12+023299999V0209999C000019999999N0200001N1+00561+00231102721ADDAA199000091GF107991021001999999031061MA1999999099861MD1810131+9999REMSYN066AAXX  12211 13389 32998 70000 10056 20023 39986 40272 58013 82036;EQDQ01  00002PRCP99
0163133890999992000121300004+42980+021950FM-12+023299999V0209999C000019999999N0200001N1+00101+00011102691ADDAA199000091GF107991021001999999031061MA1999999099771MD1710091+9999REMSYN066AAXX  13001 13389 32998 70000 10010 20001 39977 40269 57009 82036;EQDQ01  00002PRCP99
0163133890999992000121303004+42980+021950FM-12+023299999V0209999C000019999999N0200001N1-00071-00121102681ADDAA199000091GF107991031001999999031061MA1999999099741MD1810031+9999REMSYN066AAXX  13031 13389 32998 70000 11007 21012 39974 40268 58003 83036;EQDQ01  00002PRCP99
0216133890999992000121306004+42980+021950FM-12+023299999V0200501N001019999999N0200001N1-00101-00151102581ADDAA199000091GF107991031001999999031061IA1149IA2999-00409KA1120N-00121MA1999999099651MD1710091+9999REMSYN088AAXX  13061 13389 32998 70501 11010 21015 39965 40258 57009 83036 333 21012 34104 55069;EQDQ01  00002PRCP99
0163133890999992000121309004+42980+021950FM-12+023299999V0209999C000019999999N0200001N1+00521+00281102531ADDAA199000091GF106991041001999999031011MA1999999099671MD1110021+9999REMSYN066AAXX  13091 13389 32998 60000 10052 20028 39967 40253 51002 84031;EQDQ01  00002PRCP99
0163133890999992000121312004+42980+021950FM-12+023299999V0203201N001019999999N0200001N1+01121+00181102231ADDAA199000091GF105991021001999999031011MA1999999099431MD1710241+9999REMSYN066AAXX  13121 13389 32998 53201 10112 20018 39943 40223 57024 82031;EQDQ01  00002PRCP99
0163133890999992000121315004+42980+021950FM-12+023299999V0203201N001019999999N0200001N1+01201+00121102101ADDAA199000091GF106991051001999999031011MA1999999099321MD1710111+9999REMSYN066AAXX  13151 13389 32998 63201 10120 20012 39932 40210 57011 85031;EQDQ01  00002PRCP99
0186133890999992000121318004+42980+021950FM-12+023299999V0201801N001012200019N0200001N1+00621+00381102231ADDAA199000091GF103991031001999999031001KA1999M+01341MA1999999099391MD1810071+9999REMSYN076AAXX  13181 13389 32998 31801 10062 20038 39939 40223 58007 83030 333 10134;EQDQ01  00002PRCP99
0163133890999992000121321004+42980+021950FM-12+023299999V0209999C000012200019N0100001N1+00321+00231102211ADDAA199000091GF104991021001999999031011MA1999999099521MD1110041+9999REMSYN066AAXX  13211 13389 32997 40000 10032 20023 39952 40221 51004 82031;EQDQ01  00002PRCP99
0163133890999992000121400004+42980+021950FM-12+023299999V0209999C000012200019N0100001N1+00101+00061102171ADDAA199000091GF104991011001999999031011MA1999999099271MD1610061+9999REMSYN066AAXX  14001 13389 32997 40000 10010 20006 39927 40217 56006 81031;EQDQ01  00002PRCP99
0173133890999992000121403004+42980+021950FM-12+023299999V0209999C000012200019N0100001N1+00021+00011102071ADDAA199000091GA1001+999999999GF100991001001999999001001MA1999999099161MD1710111+9999REMSYN060AAXX  14031 13389 32997 00000 10002 20001 39916 40207 57011;EQDQ01  00002PRCP99
0226133890999992000121406004+42980+021950FM-12+023299999V0209999C000012200019N0100001N1-00141-00291102081ADDAA199000091GA1001+999999999GF100991001001999999001001IA1149IA2999-00509KA1120N-00141MA1999999099161MD1410001+9999REMSYN082AAXX  14061 13389 32997 00000 11014 21029 39916 40208 54000 333 21014 34105 55043;EQDQ01  00002PRCP99
0163133890999992000121409004+42980+021950FM-12+023299999V0209999C000019999999N0200001N1+00481+00331102081ADDAA199000091GF107991021001999999031061MA1999999099231MD1310071+9999REMSYN066AAXX  14091 13389 32998 70000 10048 20033 39923 40208 53007 82036;EQDQ01  00002PRCP99
0163133890999992000121412004+42980+021950FM-12+023299999V0200101N001019999999N0200001N1+01081+00281101791ADDAA199000091GF107991011001999999031061MA1999999099011MD1810221+9999REMSYN066AAXX  14121 13389 32998 70101 10108 20028 39901 40179 58022 81036;EQDQ01  00002PRCP99
0163133890999992000121415004+42980+021950FM-12+023299999V0209999C000019999999N0200001N1+00981+00401101761ADDAA199000091GF107991071001999999071001MA1999999098971MD1710041+9999REMSYN066AAXX  14151 13389 32998 70000 10098 20040 39897 40176 57004 87070;EQDQ01  00002PRCP99
0214133890999992000121418004+42980+021950FM-12+023299999V0209999C000012200019N0040001N1+00461+00331101671ADDAA199000091AY121061AY211061GF102991001001999999001011KA1999M+01151MA1999999098831MD1610141+9999MW1101REMSYN082AAXX  14181 13389 31996 20000 10046 20033 39883 40167 56014 71021 80001 333 10115;EQDQ01  00002PRCP99
0191133890999992000121421004+42980+021950FM-12+023299999V0209999C000019999999N0040001N1+00351+00231101651ADDAA199000091AY121031AY221031GF107991071001999999071001MA1999999098801MD1810031+9999MW1101REMSYN072AAXX  14211 13389 31996 70000 10035 20023 39880 40165 58003 71022 87070;EQDQ01  00002PRCP99
0191133890999992000121500004+42980+021950FM-12+023299999V0209999C000012200019N0040001N1+00311+00231101561ADDAA199000091AY121061AY211061GF103991001001999999001011MA1999999098701MD1810101+9999MW1101REMSYN072AAXX  15001 13389 31996 30000 10031 20023 39870 40156 58010 71021 80001;EQDQ01  00002PRCP99
0163133890999992000121503004+42980+021950FM-12+023299999V0209999C000019999999N0100001N1+00381+00301101431ADDAA199000091GF107991071001999999071001MA1999999098591MD1710111+9999REMSYN066AAXX  15031 13389 32997 70000 10038 20030 39859 40143 57011 87070;EQDQ01  00002PRCP99
0216133890999992000121506004+42980+021950FM-12+023299999V0201601N001019999999N0200001N1+00241+00181101391ADDAA199000091GF106991001001999999001061IA1099IA2999-00109KA1120N+00201MA1999999098531MD1710061+9999REMSYN088AAXX  15061 13389 32998 61601 10024 20018 39853 40139 57006 80006 333 20020 31101 55021;EQDQ01  00002PRCP99
0163133890999992000121509004+42980+021950FM-12+023299999V0201601N002019999999N0200001N1+01041+00471101281ADDAA199000091GF107991031001999999031061MA1999999098501MD1810031+9999REMSYN066AAXX  15091 13389 32998 71602 10104 20047 39850 40128 58003 83036;EQDQ01  00002PRCP99
0163133890999992000121512004+42980+021950FM-12+023299999V0201701N004010360019N0200001N1+01581+00401100961ADDAA199000091GF107991011011012501031061MA1999999098251MD1710251+9999REMSYN066AAXX  15121 13389 32698 71704 10158 20040 39825 40096 57025 81136;EQDQ01  00002PRCP99
0163133890999992000121515004+42980+021950FM-12+023299999V0201201N004019999999N0200001N1+01151+00351100841ADDAA199000091GF107991071001999999071001MA1999999098091MD1710161+9999REMSYN066AAXX  15151 13389 32998 71204 10115 20035 39809 40084 57016 87070;EQDQ01  00002PRCP99
0196133890999992000121518004+42980+021950FM-12+023299999V0201801N002012200019N0200001N1+00961+00381100871ADDAA199000091GA1001+999999999GF100991001001999999001001KA1999M+01641MA1999999098101MD1310011+9999REMSYN070AAXX  15181 13389 32998 01802 10096 20038 39810 40087 53001 333 10164;EQDQ01  00002PRCP99
0173133890999992000121521004+42980+021950FM-12+023299999V0201101N004012200019N0200001N1+00931+00401100741ADDAA199000091GA1001+999999999GF100991001001999999001001MA1999999097971MD1810131+9999REMSYN060AAXX  15211 13389 32998 01104 10093 20040 39797 40074 58013;EQDQ01  00002PRCP99
0173133890999992000121600004+42980+021950FM-12+023299999V0202201N002012200019N0200001N1+00391+00181100651ADDAA199000091GA1001+999999999GF100991001001999999001001MA1999999097831MD1710141+9999REMSYN060AAXX  16001 13389 32998 02202 10039 20018 39783 40065 57014;EQDQ01  00002PRCP99
0163133890999992000121603004+42980+021950FM-12+023299999V0201801N001019999999N0200001N1+00711+00301100411ADDAA199000091GF107991031001999999031061MA1999999097631MD1710201+9999REMSYN066AAXX  16031 13389 32998 71801 10071 20030 39763 40041 57020 83036;EQDQ01  00002PRCP99
0216133890999992000121606004+42980+021950FM-12+023299999V0203301N002010360019N0200001N1+00531+00281100351ADDAA199000091GF105991031051012501031011IA1099IA2999+00009KA1120N+00391MA1999999097551MD1610081+9999REMSYN088AAXX  16061 13389 32698 53302 10053 20028 39755 40035 56008 83531 333 20039 31000 55007;EQDQ01  00002PRCP99
0172133890999992000121609004+42980+021950FM-12+023299999V0202901N001010360019N0040001N1+00251+00181101001ADDAA199000021AY161031AY261031GF108991031071008001021999MA1999999098151MD1310601+9999MW1631REMSYN072AAXX  16091 13389 31596 82901 10025 20018 39815 40100 53060 76366 8372/;
0178133890999992000121612004+42980+021950FM-12+023299999V0202101N002010360019N0040001N1+00071+00041101151ADDAA106011991AY171061AY261061GF108991021071008001021999MA1999999098281MD1210131+9999MW1711REMSYN078AAXX  16121 13389 11596 82102 10007 20004 39828 40115 52013 60121 77176 8272/;
0172133890999992000121615004+42980+021950FM-12+023299999V0209999C000010075019N0020001N1+00151+00091101351ADDAA199000021AY171031AY261031GF108991081001008001021999MA1999999098481MD1210201+9999MW1631REMSYN072AAXX  16151 13389 31595 80000 10015 20009 39848 40135 52020 76376 8802/;
0221133890999992000121618004+42980+021950FM-12+023299999V0209999C000010075019N0040001N1+00161+00151101541ADDAA112014091AL10699999AY171061AY261061GF108991081061008001999999KA1120M+00671MD1210201+9999MW1101REMSYN094AAXX  16181 13389 11596 80000 10016 20015 39968 40154 52020 60142 71076 886// 333 10067 93197;EQDQ01+099683APOSP 
0182133890999992000121621004+42980+021950FM-12+023299999V0209999C000012200019N0010001N1-00071-00091101781ADDAA199000021AY111031AY201031GA1001+999999999GF100991001001999999001001MA1999999098871MD1210191+9999MW1101REMSYN066AAXX  16211 13389 31994 00000 11007 21009 39887 40178 52019 71010;
0182133890999992000121703004+42980+021950FM-12+023299999V0209999C000012200019N0040001N1-00341-00401101961ADDAA199000021AY101031AY201031GA1001+999999999GF100991001001999999001001MA1999999099021MD1110071+9999MW1101REMSYN066AAXX  17031 13389 31996 00000 11034 21040 39902 40196 51007 71000;
0242133890999992000121706004+42980+021950FM-12+023299999V0209999C000012200019N0200001N1-00481-00531102101ADDAA199000091AL10699999GA1001+999999999GF100991001001999999001001IA1149IA2999-00909KA1120N-00501MA1999999099141MD1310121+9999REMSYN088AAXX  17061 13389 32998 00000 11048 21053 39914 40210 53012 333 21050 34109 55000 93197;EQDQ01  00002PRCP99
0173133890999992000121709004+42980+021950FM-12+023299999V0209999C000012200019N0200001N1+00101+00041102191ADDAA199000091GA1001+999999999GF100991001001999999001001MA1999999099291MD1210151+9999REMSYN060AAXX  17091 13389 32998 00000 10010 20004 39929 40219 52015;EQDQ01  00002PRCP99
0163133890999992000121712004+42980+021950FM-12+023299999V0201101N002012200019N0200001N1+00841+00231102001ADDAA199000091GF101991011011012501001001MA1999999099181MD1810111+9999REMSYN066AAXX  17121 13389 32698 11102 10084 20023 39918 40200 58011 81100;EQDQ01  00002PRCP99
0163133890999992000121715004+42980+021950FM-12+023299999V0209999C000012200019N0200001N1+00631+00091101981ADDAA199000091GF102991021001999999031001MA1999999099141MD1610041+9999REMSYN066AAXX  17151 13389 32998 20000 10063 20009 39914 40198 56004 82030;EQDQ01  00002PRCP99
0196133890999992000121718004+42980+021950FM-12+023299999V0209999C000012200019N0200001N1+00311+00041102001ADDAA199000091GA1001+999999999GF100991001001999999001001KA1999M+00951MA1999999099121MD1610021+9999REMSYN070AAXX  17181 13389 32998 00000 10031 20004 39912 40200 56002 333 10095;EQDQ01  00002PRCP99
0163133890999992000121721004+42980+021950FM-12+023299999V0209999C000019999999N0200001N1+00161+00011101901ADDAA199000091GF107991071001999999071001MA1999999099021MD1810101+9999REMSYN066AAXX  17211 13389 32998 70000 10016 20001 39902 40190 58010 87070;EQDQ01  00002PRCP99
0163133890999992000121800004+42980+021950FM-12+023299999V0209999C000010120019N0200001N1+00201+00091101811ADDAA199000091GF107991071051012501001001MA1999999098931MD1710091+9999REMSYN066AAXX  18001 13389 32698 70000 10020 20009 39893 40181 57009 87500;EQDQ01  00002PRCP99
0172133890999992000121803004+42980+021950FM-12+023299999V0209999C000010120019N0200001N1+00221+00121101751ADDAA199000021AY161031AY221031GF108991081051012501999999MA1999999098881MD1710051+9999MW1211REMSYN072AAXX  18031 13389 31698 80000 10022 20012 39888 40175 57005 72162 885//;
0231133890999992000121806004+42980+021950FM-12+023299999V0202101N001010120019N0200001N1+00231+00151101771ADDAA112000391AY161061AY221061GF108991081051012501999999IA1099IA2999-00309KA1120N+00151MA1999999098901MD1310021+9999MW1611REMSYN100AAXX  18061 13389 11698 82101 10023 20015 39890 40177 53002 69932 76162 885// 333 20015 31103 55057;
0172133890999992000121809004+42980+021950FM-12+023299999V0203401N001010120019N0040001N1+00341+00281102021ADDAA199000021AY161031AY261031GF108991081001012501021999MA1999999099151MD1210251+9999MW1631REMSYN072AAXX  18091 13389 31696 83401 10034 20028 39915 40202 52025 76366 8802/;
0178133890999992000121812004+42980+021950FM-12+023299999V0201901N001010360019N0040001N1+00441+00351102041ADDAA106004191AY161061AY261061GF108991031071008001021999MA1999999099181MD1310031+9999MW1611REMSYN078AAXX  18121 13389 11596 81901 10044 20035 39918 40204 53003 60041 76166 8372/;
0172133890999992000121815004+42980+021950FM-12+023299999V0209999C000010075019N0040001N1+00421+00351102201ADDAA199000021AY161031AY261031GF108991081071008001999999MA1999999099341MD1210161+9999MW1611REMSYN072AAXX  18151 13389 31596 80000 10042 20035 39934 40220 52016 76166 887//;
0201133890999992000121818004+42980+021950FM-12+023299999V0209999C000010360019N0100001N1+00351+00251102351ADDAA112005191AY161061AY221061GF106991021051012501041001KA1999M+00461MA1999999099481MD1210151+9999MW1011REMSYN088AAXX  18181 13389 11697 60000 10035 20025 39948 40235 52015 60052 70162 82540 333 10046;
0144133890999992000121821004+42980+021950FM-12+023299999V0209999C000010360019N0100001N1+00181+00091102411ADDAA199000021GF106991031051012501031001MA1999999099511MD1110031+9999REMSYN066AAXX  18211 13389 32697 60000 10018 20009 39951 40241 51003 83530;
0172133890999992000121900004+42980+021950FM-12+023299999V0209999C000010120019N0040001N1+00111+00061102421ADDAA199000021AY121061AY211061GF107991071051012501001001MA1999999099511MD1410001+9999MW1101REMSYN072AAXX  19001 13389 31696 70000 10011 20006 39951 40242 54000 71021 87500;
0172133890999992000121903004+42980+021950FM-12+023299999V0209999C000010120019N0005001N1+00011-00021102411ADDAA199000021AY141031AY241031GF108991081051012501999999MA1999999099491MD1810021+9999MW1461REMSYN072AAXX  19031 13389 31693 80000 10001 21002 39949 40241 58002 74644 885//;
0244133890999992000121906004+42980+021950FM-12+023299999V0202001N003010120019N0002001N1-00021-00061102411ADDAA199000091AY141061AY221061GF108991081051012501999999IA1099IA2999-00409KA1120N-00021MA1999999099491MD1410001+9999MW1441REMSYN094AAXX  19061 13389 31692 82003 11002 21006 39949 40241 54000 74442 885// 333 21002 31104 55000;EQDQ01  00002PRCP99
0201133890999992000121909004+42980+021950FM-12+023299999V0209999C000012200019N0001001N1+00001-00021102441ADDAA199000091AY141031AY241031GA1001+999999999GF100991001001999999001001MA1999999099521MD1110031+9999MW1441REMSYN066AAXX  19091 13389 31991 00000 10000 21002 39952 40244 51003 74444;EQDQ01  00002PRCP99
0191133890999992000121912004+42980+021950FM-12+023299999V0200401N002012200019N0100001N1+00401+00301102181ADDAA199000091AY141061AY201061GF103991011011999999001011MA1999999099321MD1810201+9999MW1021REMSYN072AAXX  19121 13389 31997 30402 10040 20030 39932 40218 58020 70240 81101;EQDQ01  00002PRCP99
0163133890999992000121915004+42980+021950FM-12+023299999V0200201N001019999999N0200001N1+00601+00181102061ADDAA199000091GF107991051001999999071011MA1999999099221MD1610101+9999REMSYN066AAXX  19151 13389 32998 70201 10060 20018 39922 40206 56010 85071;EQDQ01  00002PRCP99
0186133890999992000121918004+42980+021950FM-12+023299999V0209999C000019999999N0200001N1+00341+00181102101ADDAA199000091GF107991071001999999071001KA1999M+00691MA1999999099221MD1410001+9999REMSYN076AAXX  19181 13389 32998 70000 10034 20018 39922 40210 54000 87070 333 10069;EQDQ01  00002PRCP99
0163133890999992000121921004+42980+021950FM-12+023299999V0209999C000019999999N0200001N1+00281+00061102071ADDAA199000091GF107991071001999999071001MA1999999099191MD1810131+9999REMSYN066AAXX  19211 13389 32998 70000 10028 20006 39919 40207 58013 87070;EQDQ01  00002PRCP99
0163133890999992000122000004+42980+021950FM-12+023299999V0209999C000019999999N0200001N1+00221+00091102061ADDAA199000091GF107991071001999999071001MA1999999099171MD1610021+9999REMSYN066AAXX  20001 13389 32998 70000 10022 20009 39917 40206 56002 87070;EQDQ01  00002PRCP99
0172133890999992000122003004+42980+021950FM-12+023299999V0202601N002010120019N0040001N1+00231+00151102181ADDAA199000021AY161031AY261031GF108991081001012501021999MA1999999099301MD1310131+9999MW1631REMSYN072AAXX  20031 13389 31696 82602 10023 20015 39930 40218 53013 76366 8802/;
0231133890999992000122006004+42980+021950FM-12+023299999V0203201N004010075019N0100001N1+00221+00061102381ADDAA112004191AY161061AY261061GF108991081071008001999999IA1099IA2999+00009KA1120N+00201MA1999999099481MD1210181+9999MW1211REMSYN100AAXX  20061 13389 11597 83204 10022 20006 39948 40238 52018 60042 72166 887// 333 20020 31000 55033;
0172133890999992000122009004+42980+021950FM-12+023299999V0203401N004010075019N0100001N1+00181+00041102611ADDAA199000021AY171031AY221031GF107991071071008001001001MA1999999099711MD1210231+9999MW1711REMSYN072AAXX  20091 13389 31597 73404 10018 20004 39971 40261 52023 77172 87700;
0178133890999992000122012004+42980+021950FM-12+023299999V0203401N006010360019N0020001N1+00081-00061102651ADDAA106000191AY171061AY271061GF108991031071004501021999MA1999999099741MD1110031+9999MW1731REMSYN078AAXX  20121 13389 11495 83406 10008 21006 39974 40265 51003 69921 77377 8372/;
0172133890999992000122015004+42980+021950FM-12+023299999V0203401N004010120019N0100001N1+00031-00221102791ADDAA199000021AY171031AY221031GF107991071081008001001001MA1999999099861MD1310121+9999MW1021REMSYN072AAXX  20151 13389 31597 73404 10003 21022 39986 40279 53012 70272 87800;
0217133890999992000122018004+42980+021950FM-12+023299999V0203001N004010120019N0100001N1-00091-00331102941ADDAA112000391AL10699999AY121061AY271061GF107991071051012501001001KA1120M+00281MA1999999100011MD1210151+9999MW1021REMSYN094AAXX  20181 13389 11697 73004 11009 21033 30001 40294 52015 69932 70227 87500 333 10028 93197;
0144133890999992000122021004+42980+021950FM-12+023299999V0203101N001010120019N0100001N1-00041-00401103041ADDAA199000021GF108991081051012501999999MA1999999100111MD1310101+9999REMSYN066AAXX  20211 13389 32697 83101 11004 21040 30011 40304 53010 885//;
0144133890999992000122100004+42980+021950FM-12+023299999V0202701N001010120019N0100001N1-00081-00401103061ADDAA199000021GF108991081051012501999999MA1999999100111MD1410001+9999REMSYN066AAXX  21001 13389 32697 82701 11008 21040 30011 40306 54000 885//;
0163133890999992000122103004+42980+021950FM-12+023299999V0200201N002010120019N0100001N1-00101-00401103061ADDAA199000091GF108991081051012501999999MA1999999100111MD1410001+9999REMSYN066AAXX  21031 13389 32697 80202 11010 21040 30011 40306 54000 885//;EQDQ01  00002PRCP99
0232133890999992000122106004+42980+021950FM-12+023299999V0203201N002010120019N0100001N1-00131-00531103051ADDAA199000091AL10699999GF108991081051012501999999IA1149IA2999-00209KA1120N-00131MA1999999100081MD1810031+9999REMSYN094AAXX  21061 13389 36697 83202 11013 21053 30008 40305 58003 885// 333 21013 34102 55000 93197;EQDQ01  00002PRCP99
0163133890999992000122112004+42980+021950FM-12+023299999V0202701N001010150019N0100001N1+00141-00531102921ADDAA199000091GF106991061081012501001001MA1999999100001MD1710151+9999REMSYN066AAXX  21121 13389 32697 62701 10014 21053 30000 40292 57015 86800;EQDQ01  00002PRCP99
0163133890999992000122115004+42980+021950FM-12+023299999V0203201N003010150019N0100001N1-00041-00661102881ADDAA199000091GF108991081081012501999999MA1999999099951MD1610051+9999REMSYN066AAXX  21151 13389 32697 83203 11004 21066 39995 40288 56005 888//;EQDQ01  00002PRCP99
0186133890999992000122118004+42980+021950FM-12+023299999V0203201N002010150019N0100001N1-00121-00661102901ADDAA199000091GF108991081081012501999999KA1999M+00221MA1999999099951MD1410001+9999REMSYN076AAXX  21181 13389 32697 83202 11012 21066 39995 40290 54000 888// 333 10022;EQDQ01  00002PRCP99
0163133890999992000122121004+42980+021950FM-12+023299999V0209999C000010120019N0100001N1-00161-00661102911ADDAA199000091GF108991081051012501999999MA1999999099951MD1410001+9999REMSYN066AAXX  21211 13389 32697 80000 11016 21066 39995 40291 54000 885//;EQDQ01  00002PRCP99
0178133890999992000122200004+42980+021950FM-12+023299999V0203101N001010360019N0100001N1-00201-00571102841ADDAA106000791AY171061AY221061GF108991041071008001021999MA1999999099891MD1810061+9999MW1711REMSYN078AAXX  22001 13389 11597 83101 11020 21057 39989 40284 58006 69901 77172 8472/;
0241133890999992000122206004+42980+021950FM-12+023299999V0203201N003010075019N0100001N1-00261-00441102761ADDAA112000191AL10699999AY171061AY271061GF108991081071008001999999IA1149IA2999-00309KA1120N-00261MA1999999099801MD1810031+9999MW1711REMSYN100AAXX  22061 13389 11597 83203 11026 21044 39980 40276 58003 69912 77177 887// 333 21026 34103 93197;
0172133890999992000122209004+42980+021950FM-12+023299999V0203401N004010075019N0040001N1-00241-00361102801ADDAA199000021AY171031AY271031GF108991081001008001021999MA1999999099851MD1310051+9999MW1711REMSYN072AAXX  22091 13389 31596 83404 11024 21036 39985 40280 53005 77177 8802/;
0178133890999992000122212004+42980+021950FM-12+023299999V0203201N002010075019N0100001N1-00171-00361102691ADDAA106000191AY171061AY271061GF108991081071008001999999MA1999999099741MD1810111+9999MW1701REMSYN078AAXX  22121 13389 11597 83202 11017 21036 39974 40269 58011 69921 77077 887//;
0172133890999992000122215004+42980+021950FM-12+023299999V0203401N004010075019N0040001N1-00221-00401102671ADDAA199000021AY171031AY271031GF108991081001008001021999MA1999999099721MD1610021+9999MW1711REMSYN072AAXX  22151 13389 31596 83404 11022 21040 39972 40267 56002 77177 8802/;
0240133890999992000122218004+42980+021950FM-12+023299999V0203401N003010360019N0040001N1-00261-00361102741ADDAA112000391AJ100019199999999AL10600191AY171061AY271061GF108991021071008001021999KA1120M-00121MA1999999099781MD1310061+9999MW1711REMSYN100AAXX  22181 13389 11596 83403 11026 21036 39978 40274 53006 69932 77177 8272/ 333 11012 4/001 93101;
0172133890999992000122221004+42980+021950FM-12+023299999V0209999C000010075019N0040001N1-00281-00571102821ADDAA199000021AY171031AY271031GF108991081001008001021999MA1999999099861MD1210081+9999MW1711REMSYN072AAXX  22211 13389 32596 80000 11028 21057 39986 40282 52008 77177 8802/;
0178133890999992000122300004+42980+021950FM-12+023299999V0203401N002010075019N0100001N1-00321-00661102781ADDAA106000191AY171061AY271061GF108991081071008001999999MA1999999099821MD1810041+9999MW1701REMSYN078AAXX  23001 13389 11597 83402 11032 21066 39982 40278 58004 69911 77077 887//;
0144133890999992000122303004+42980+021950FM-12+023299999V0209999C000010120019N0100001N1-00401-00711102741ADDAA199000021GF107991071051012501001001MA1999999099771MD1710051+9999REMSYN066AAXX  23031 13389 32697 70000 11040 21071 39977 40274 57005 87500;
0236133890999992000122306004+42980+021950FM-12+023299999V0200901N001012200019N0100001N1-00641-00911102761ADDAA112000191AJ100019199999999AL10600191GF103991031001999999031001IA1309IA2999-01009KA1120N-00641MA1999999099771MD1410001+9999REMSYN100AAXX  23061 13389 12997 30901 11064 21091 39977 40276 54000 69912 83030 333 21064 3/110 42001 93101;
0154133890999992000122309004+42980+021950FM-12+023299999V0200401N001012200019N0100001N1-00481-00811102831ADDAA199000021GA1001+999999999GF100991001001999999001001MA1999999099851MD1310081+9999REMSYN060AAXX  23091 13389 32997 00401 11048 21081 39985 40283 53008;
0144133890999992000122312004+42980+021950FM-12+023299999V0202001N002012200019N0200001N1-00121-00861102561ADDAA199000021GF101991011011012501001001MA1999999099631MD1810221+9999REMSYN066AAXX  23121 13389 32698 12002 11012 21086 39963 40256 58022 81100;
0173133890999992000122315004+42980+021950FM-12+023299999V0200801N001012200019N0200001N1-00301-00971102421ADDAA199000091GA1001+999999999GF100991001001999999001001MA1999999099471MD1710161+9999REMSYN060AAXX  23151 13389 32998 00801 11030 21097 39947 40242 57016;EQDQ01  00002PRCP99
0219133890999992000122318004+42980+021950FM-12+023299999V0201401N001012200019N0200001N1-00641-00811102421ADDAA199000091AJ100009199999999GA1001+999999999GF100991001001999999001001KA1120M-00081MA1999999099441MD1610031+9999REMSYN076AAXX  23181 13389 32998 01401 11064 21081 39944 40242 56003 333 11008 4/998;EQDQ01  00002PRCP99
0173133890999992000122321004+42980+021950FM-12+023299999V0209999C000012200019N0200001N1-00871-00971102451ADDAA199000091GA1001+999999999GF100991001001999999001001MA1999999099431MD1810011+9999REMSYN060AAXX  23211 13389 32998 00000 11087 21097 39943 40245 58001;EQDQ01  00002PRCP99
0173133890999992000122400004+42980+021950FM-12+023299999V0202001N001012200019N0200001N1-01001-01151102351ADDAA199000091GA1001+999999999GF100991001001999999001001MA1999999099321MD1810111+9999REMSYN060AAXX  24001 13389 32998 02001 11100 21115 39932 40235 58011;EQDQ01  00002PRCP99
0173133890999992000122403004+42980+021950FM-12+023299999V0202001N001012200019N0200001N1-01101-01221102271ADDAA199000091GA1001+999999999GF100991001001999999001001MA1999999099241MD1710081+9999REMSYN060AAXX  24031 13389 32998 02001 11110 21122 39924 40227 57008;EQDQ01  00002PRCP99
0265133890999992000122406004+42980+021950FM-12+023299999V0201801N001012200019N0200001N1-01161-01291102201ADDAA199000091AJ199992999999999GA1001+999999999GF100991001001999999001001IA1259IA2999-01409KA1120N-01161MA1999999099151MD1610091+9999REMSYN088AAXX  24061 13389 32998 01801 11116 21129 39915 40220 56009 333 21116 3/114 41998 55067;EQDQ01  00002PRCP99Q02  09972SNDP  
0173133890999992000122412004+42980+021950FM-12+023299999V0201501N002012200019N0200001N1+00331-00761101711ADDAA199000091GA1001+999999999GF100991001001999999001001MA1999999098941MD1810231+9999REMSYN060AAXX  24121 13389 32998 01502 10033 21076 39894 40171 58023;EQDQ01  00002PRCP99
0173133890999992000122415004+42980+021950FM-12+023299999V0209999C000012200019N0200001N1+00291-00861101691ADDAA199000091GA1001+999999999GF100991001001999999001001MA1999999098821MD1510121+9999REMSYN060AAXX  24151 13389 32998 00000 10029 21086 39882 40169 55012;EQDQ01  00002PRCP99
0196133890999992000122418004+42980+021950FM-12+023299999V0209999C000012200019N0200001N1-00161-00711101761ADDAA199000091GA1001+999999999GF100991001001999999001001KA1999M+00461MA1999999098841MD1110021+9999REMSYN070AAXX  24181 13389 32998 00000 11016 21071 39884 40176 51002 333 10046;EQDQ01  00002PRCP99
0173133890999992000122421004+42980+021950FM-12+023299999V0201701N003012200019N0200001N1-00121-00611101741ADDAA199000091GA1001+999999999GF100991001001999999001001MA1999999098831MD1310011+9999REMSYN060AAXX  24211 13389 32998 01703 11012 21061 39883 40174 53001;EQDQ01  00002PRCP99
0173133890999992000122500004+42980+021950FM-12+023299999V0201601N003012200019N0200001N1-00111-00711101701ADDAA199000091GA1001+999999999GF100991001001999999001001MA1999999098791MD1810041+9999REMSYN060AAXX  25001 13389 32998 01603 11011 21071 39879 40170 58004;EQDQ01  00002PRCP99
0173133890999992000122503004+42980+021950FM-12+023299999V0209999C000012200019N0200001N1-00591-00811101741ADDAA199000091GA1001+999999999GF100991001001999999001001MA1999999098781MD1610011+9999REMSYN060AAXX  25031 13389 32998 00000 11059 21081 39878 40174 56001;EQDQ01  00002PRCP99
0216133890999992000122506004+42980+021950FM-12+023299999V0202001N001010120019N0200001N1-00461-00761101691ADDAA199000091GF106991061051012501001001IA1149IA2999-01009KA1120N-00661MA1999999098471MD1810041+9999REMSYN088AAXX  25061 13389 32698 62001 11046 21076 39847 40169 58004 86500 333 21066 34110 55068;EQDQ01  00002PRCP99
0163133890999992000122509004+42980+021950FM-12+023299999V0201201N004010360019N0200001N1+00251-00811101551ADDAA199000091GF107991031051012501071001MA1999999098681MD1610041+9999REMSYN066AAXX  25091 13389 32698 71204 10025 21081 39868 40155 56004 83570;EQDQ01  00002PRCP99
0163133890999992000122512004+42980+021950FM-12+023299999V0201801N002010360019N0200001N1+00521-00111101221ADDAA199000091GF108991031051012501071999MA1999999098391MD1810291+9999REMSYN066AAXX  25121 13389 32698 81802 10052 21011 39839 40122 58029 8357/;EQDQ01  00002PRCP99
0163133890999992000122515004+42980+021950FM-12+023299999V0209999C000010120019N0200001N1+00461-00611101101ADDAA199000091GF107991071051012501001001MA1999999098271MD1710121+9999REMSYN066AAXX  25151 13389 32698 70000 10046 21061 39827 40110 57012 87500;EQDQ01  00002PRCP99
0186133890999992000122818004+42980+021950FM-12+023299999V0202201N001010150019N0200001N1+01331+00531100051ADDAA199000091GF107991071081012501001001KA1999M+01911MA1999999097341MD1210241+9999REMSYN076AAXX  28181 13389 32698 72201 10133 20053 39734 40005 52024 87800 333 10191;EQDQ01  00002PRCP99
0163133890999992000122821004+42980+021950FM-12+023299999V0203201N001012200019N0200001N1+01031+00621100221ADDAA199000091GF104991041051012501001001MA1999999097471MD1210131+9999REMSYN066AAXX  28211 13389 32698 43201 10103 20062 39747 40022 52013 84500;EQDQ01  00002PRCP99
0173133890999992000122900004+42980+021950FM-12+023299999V0201801N002012200019N0200001N1+00701+00471100261ADDAA199000091GA1001+999999999GF100991001001999999001001MA1999999097481MD1110011+9999REMSYN060AAXX  29001 13389 32998 01802 10070 20047 39748 40026 51001;EQDQ01  00002PRCP99
0163133890999992000122903004+42980+021950FM-12+023299999V0200201N002010120019N0200001N1+00761+00601100241ADDAA199000091GF107991071051012501001001MA1999999097471MD1810011+9999REMSYN066AAXX  29031 13389 32698 70202 10076 20060 39747 40024 58001 87500;EQDQ01  00002PRCP99
0216133890999992000122906004+42980+021950FM-12+023299999V0200601N002010360019N0200001N1+00781+00511100281ADDAA199000091GF107991031051012501071001IA1099IA2999+00209KA1120N+00551MA1999999097511MD1310041+9999REMSYN088AAXX  29061 13389 32698 70602 10078 20051 39751 40028 53004 83570 333 20055 31002 55037;EQDQ01  00002PRCP99
0163133890999992000122909004+42980+021950FM-12+023299999V0200201N001012200019N0200001N1+01221+00621100241ADDAA199000091GF104991011021012501031011MA1999999097511MD1410001+9999REMSYN066AAXX  29091 13389 32698 40201 10122 20062 39751 40024 54000 81231;EQDQ01  00002PRCP99
0164133890999992000122912004+42980+021950FM-12+023299999V0201801N002012200019N0200001N1+01681+00471099951ADDAA199000091GF103991011001999999031011MD1710241+9999REMSYN066AAXX  29121 13389 32998 31802 10168 20047 39927 49995 57024 81031;EQDQ01+099273APOSP Q02  00002PRCP99
0163133890999992000122915004+42980+021950FM-12+023299999V0201401N001010900019N0200001N1+01361+00421099961ADDAA199000091GF105991021051012501031011MA1999999097251MD1610021+9999REMSYN066AAXX  29151 13389 32698 51401 10136 20042 39725 49996 56002 82531;EQDQ01  00002PRCP99
0173133890999992000123000004+42980+021950FM-12+023299999V0209999C000012200019N0200001N1+00181+00121099891ADDAA199000091GA1001+999999999GF100991001001999999001001MA1999999097071MD1710181+9999REMSYN060AAXX  30001 13389 32998 00000 10018 20012 39707 49989 57018;EQDQ01  00002PRCP99
0163133890999992000123003004+42980+021950FM-12+023299999V0203101N001012200019N0200001N1+00641+00351099721ADDAA199000091GF102991021001999999031001MA1999999096851MD1710121+9999REMSYN066AAXX  30031 13389 32998 23101 10064 20035 39685 49972 57012 82030;EQDQ01  00002PRCP99
0216133890999992000123006004+42980+021950FM-12+023299999V0200701N002010150019N0200001N1+00881+00421099491ADDAA199000091GF107991051081012501031001IA1099IA2999-00209KA1120N+00181MA1999999096751MD1710101+9999REMSYN088AAXX  30061 13389 32698 70702 10088 20042 39675 49949 57010 85830 333 20018 31102 55054;EQDQ01  00002PRCP99
0163133890999992000123100004+42980+021950FM-12+023299999V0202001N003010120019N0200001N1+00291+00151100981ADDAA199000091GF108991081051012501999999MA1999999098131MD1210241+9999REMSYN066AAXX  31001 13389 32698 82003 10029 20015 39813 40098 52024 885//;EQDQ01  00002PRCP99
0163133890999992000123103004+42980+021950FM-12+023299999V0203401N003010120019N0200001N1+00361-00091101141ADDAA199000091GF108991081051012501999999MA1999999098301MD1210171+9999REMSYN066AAXX  31031 13389 32698 83403 10036 21009 39830 40114 52017 885//;EQDQ01  00002PRCP99
0216133890999992000123106004+42980+021950FM-12+023299999V0202701N002010120019N0200001N1+00201+00011101321ADDAA199000091GF105991051051012501001001IA1099IA2999+00009KA1120N+00201MA1999999098451MD1210151+9999REMSYN088AAXX  31061 13389 32698 52702 10020 20001 39845 40132 52015 85500 333 20020 31100 55024;EQDQ01  00002PRCP99
0163133890999992000123109004+42980+021950FM-12+023299999V0209999C000019999999N0200001N1+00341-00021101511ADDAA199000091GF107991001001999999001061MA1999999098651MD1210201+9999REMSYN066AAXX  31091 13389 32998 70000 10034 21002 39865 40151 52020 80006;EQDQ01  00002PRCP99
0163133890999992000123112004+42980+021950FM-12+023299999V0203601N003012200019N0200001N1+00561-00331101441ADDAA199000091GF104991011011012501031011MA1999999098611MD1810041+9999REMSYN066AAXX  31121 13389 32698 43603 10056 21033 39861 40144 58004 81131;EQDQ01  00002PRCP99
0163133890999992000123115004+42980+021950FM-12+023299999V0203401N004019999999N0200001N1+00421-00531101521ADDAA199000091GF107991001001999999001061MA1999999098671MD1310061+9999REMSYN066AAXX  31151 13389 32998 73404 10042 21053 39867 40152 53006 80006;EQDQ01  00002PRCP99
0186133890999992000123118004+42980+021950FM-12+023299999V0203201N004019999999N0200001N1+00221-00401101661ADDAA199000091GF107991001001999999001061KA1999M+00631MA1999999098781MD1210111+9999REMSYN076AAXX  31181 13389 32998 73204 10022 21040 39878 40166 52011 80006 333 10063;EQDQ01  00002PRCP99
0163133890999992000123121004+42980+021950FM-12+023299999V0203401N004019999999N0200001N1+00211-00291101731ADDAA199000091GF108991081001999999071999MA1999999098851MD1210071+9999REMSYN066AAXX  31211 13389 32998 83404 10021 21029 39885 40173 52007 8807/;EQDQ01  00002PRCP99
