0227160080999992000010100004+45750+010530FM-12+146199999V0200301N005712200019N0150001N1-00641-00741999999ADDAA106000091AJ100309199999999GA1001+999999999GF100991001001999999001001IA1239MA1999999085441MD1310031+9999ME1315019REMSYN082AAXX  01004 16008 32965 00311 11064 21074 38544 48501 53003 92336 333 47030 92810;EQDQ01  00002PRCP06
0180160080999992000010103004+45750+010530FM-12+146199999V0200501N006712200019N0150001N1-00601-00701999999ADDGA1031+007509069GF103991031051008001001001MA1999999085521MD1110081+9999ME1315069REMSYN088AAXX  01034 16008 42565 30513 11060 21070 38552 48506 51008 83500 90240 333 83625 92810;
0258160080999992000010106004+45750+010530FM-12+146199999V0200401N005112200019N0150001N1-00661-00741999999ADDAA106000091AJ100309199999999GA1041+007509069GF104991041051008001001001IA1239KA1120N-00681MA1999999085571MD1210061+9999ME1315129REMSYN100AAXX  01064 16008 32565 40410 11066 21074 38557 48512 52006 84500 90535 333 21068 47030 84625 92810;EQDQ01  00002PRCP06
0180160080999992000010109004+45750+010530FM-12+146199999V0200601N004612200019N0200001N1-00701-00781999999ADDGA1021+007509089GF102991021011008001001001MA1999999085681MD1110111+9999ME1315259REMSYN088AAXX  01094 16008 42570 20609 11070 21078 38568 48525 51011 82100 90839 333 82825 92810;
0239160080999992000010112004+45750+010530FM-12+146199999V0200501N004110060019N0250001N1-00241-00711999999ADDAA106000091AJ100299199999999GA1061+006009089GF106991061011008001001001IA1239MA1999999085721MD1110041+9999ME1315269REMSYN094AAXX  01124 16008 32575 60508 11024 21071 38572 48526 51004 86100 91135 333 47029 86820 92810;EQDQ01  00002PRCP06
0180160080999992000010115004+45750+010530FM-12+146199999V0200301N003612200019N0300001N1+00001-00691999999ADDGA1031+009009069GF103991031051008001001001MA1999999085661MD1810061+9999ME1315219REMSYN088AAXX  01154 16008 42580 30307 10000 21069 38566 48521 58006 83500 91434 333 83630 92810;
0258160080999992000010118004+45750+010530FM-12+146199999V0200501N004610105019N0250001N1-00141-00591999999ADDAA106000091AJ100299199999999GA1061+010509069GF106991061051012501001001IA1239KA1120M+00061MA1999999085651MD1610011+9999ME1315219REMSYN100AAXX  01184 16008 32675 60509 11014 21059 38565 48521 56001 86500 91737 333 10006 47029 86635 92810;EQDQ01  00002PRCP06
0180160080999992000010121004+45750+010530FM-12+146199999V0200601N006710060019N0200001N1-00121-00511999999ADDGA1081+006009079GF108991081061008001999999MA1999999085701MD1310051+9999ME1315269REMSYN088AAXX  01214 16008 42570 80613 11012 21051 38570 48526 53005 886// 92042 333 88720 92810;
0227160080999992000010200004+45750+010530FM-12+146199999V0200701N006712200019N0150001N1-00141-00331999999ADDAA106000091AJ100299199999999GA1001+999999999GF100991001001999999001001IA1239MA1999999085711MD1110021+9999ME1315269REMSYN082AAXX  02004 16008 32965 00713 11014 21033 38571 48526 51002 92339 333 47029 92810;EQDQ01  00002PRCP06
0168160080999992000010203004+45750+010530FM-12+146199999V0200401N005712200019N0150001N1-00141-00331999999ADDGA1001+999999999GF100991001001999999001001MA1999999085781MD1310071+9999ME1315349REMSYN076AAXX  02034 16008 42965 00411 11014 21033 38578 48534 53007 90235 333 92810;
0246160080999992000010206004+45750+010530FM-12+146199999V0200401N005112200019N0150001N1-00181-00431999999ADDAA106000091AJ100299199999999GA1001+999999999GF100991001001999999001001IA1239KA1120N-00181MA1999999085861MD1110081+9999ME1315409REMSYN088AAXX  02064 16008 32965 00410 11018 21043 38586 48540 51008 90540 333 21018 47029 92810;EQDQ01  00002PRCP06
0168160080999992000010209004+45750+010530FM-12+146199999V0200601N007712200019N0200001N1-00301-00561999999ADDGA1001+999999999GF100991001001999999001001MA1999999086011MD1210161+9999ME1315539REMSYN076AAXX  02094 16008 42970 00615 11030 21056 38601 48553 52016 90838 333 92810;
0227160080999992000010212004+45750+010530FM-12+146199999V0200901N009812200019N0250001N1+00081-00771999999ADDAA106000091AJ100289199999999GA1001+999999999GF100991001001999999001001IA1239MA1999999086051MD1110031+9999ME1315609REMSYN082AAXX  02124 16008 32975 00919 10008 21077 38605 48560 51003 91140 333 47028 92810;EQDQ01  00002PRCP06
0158160080999992000010215004+45750+010530FM-12+146199999V0200601N007212200019N0300001N1+00241-00881999999ADDGF103991001001999999001011MA1999999086051MD1410001+9999ME1315609REMSYN082AAXX  02154 16008 42980 30614 10024 21088 38605 48560 54000 80001 91435 333 92810;
0246160080999992000010218004+45750+010530FM-12+146199999V0200401N005712200019N0250001N1-00101-00651999999ADDAA106000091AJ100289199999999GA1001+999999999GF100991001001999999001001IA1239KA1120M+00301MA1999999086181MD1310131+9999ME1315739REMSYN088AAXX  02184 16008 32975 00411 11010 21065 38618 48573 53013 91734 333 10030 47028 92810;EQDQ01  00002PRCP06
0168160080999992000010221004+45750+010530FM-12+146199999V0200401N005712200019N0200001N1-00281-00621999999ADDGA1001+999999999GF100991001001999999001001MA1999999086281MD1210101+9999ME1315809REMSYN076AAXX  02214 16008 42970 00411 11028 21062 38628 48580 52010 92036 333 92810;
0227160080999992000010300004+45750+010530FM-12+146199999V0200601N006212200019N0200001N1-00441-00691999999ADDAA106000091AJ100289199999999GA1001+999999999GF100991001001999999001001IA1239MA1999999086331MD1110061+9999ME1315859REMSYN082AAXX  03004 16008 32970 00612 11044 21069 38633 48585 51006 92335 333 47028 92810;EQDQ01  00002PRCP06
0168160080999992000010303004+45750+010530FM-12+146199999V0200301N005112200019N0200001N1-00541-00781999999ADDGA1001+999999999GF100991001001999999001001MA1999999086341MD1110011+9999ME1315849REMSYN076AAXX  03034 16008 42970 00310 11054 21078 38634 48584 51001 90236 333 92810;
0246160080999992000010306004+45750+010530FM-12+146199999V0200501N006212200019N0200001N1-00601-00851999999ADDAA106000091AJ100289199999999GA1001+999999999GF100991001001999999001001IA1239KA1120N-00601MA1999999086301MD1810041+9999ME1315799REMSYN088AAXX  03064 16008 32970 00512 11060 21085 38630 48579 58004 90534 333 21060 47028 92810;EQDQ01  00002PRCP06
0158160080999992000010309004+45750+010530FM-12+146199999V0200401N006712200019N0250001N1-00521-00901999999ADDGF103991001001999999001011MA1999999086381MD1310081+9999ME1315909REMSYN082AAXX  03094 16008 42975 30413 11052 21090 38638 48590 53008 80001 90840 333 92810;
0227160080999992000010312004+45750+010530FM-12+146199999V0200501N006212200019N0300001N1+00101-01021999999ADDAA106000091AJ100279199999999GA1001+999999999GF100991001001999999001001IA1239MA1999999086281MD1810101+9999ME1315829REMSYN082AAXX  03124 16008 32980 00512 10010 21102 38628 48582 58010 91135 333 47027 92810;EQDQ01  00002PRCP06
0168160080999992000010315004+45750+010530FM-12+146199999V0200501N006212200019N0300001N1+00141-01051999999ADDGA1001+999999999GF100991001001999999001001MA1999999086161MD1610121+9999ME1315689REMSYN076AAXX  03154 16008 42980 00512 10014 21105 38616 48568 56012 91434 333 92810;
0246160080999992000010318004+45750+010530FM-12+146199999V0200601N004112200019N0250001N1-00201-00871999999ADDAA106000091AJ100279199999999GA1001+999999999GF100991001001999999001001IA1239KA1120M+00301MA1999999086151MD1610011+9999ME1315679REMSYN088AAXX  03184 16008 32975 00608 11020 21087 38615 48567 56001 91736 333 10030 47027 92810;EQDQ01  00002PRCP06
0168160080999992000010321004+45750+010530FM-12+146199999V0200501N004612200019N0250001N1-00241-00871999999ADDGA1001+999999999GF100991001001999999001001MA1999999086151MD1410001+9999ME1315679REMSYN076AAXX  03214 16008 42975 00509 11024 21087 38615 48567 54000 92039 333 92810;
0227160080999992000010400004+45750+010530FM-12+146199999V0200501N004612200019N0200001N1-00301-00881999999ADDAA106000091AJ100279199999999GA1001+999999999GF100991001001999999001001IA1239MA1999999086081MD1810071+9999ME1315649REMSYN082AAXX  04004 16008 32970 00509 11030 21088 38608 48564 58007 92340 333 47027 92810;EQDQ01  00002PRCP06
0168160080999992000010403004+45750+010530FM-12+146199999V0200401N006212200019N0200001N1-00401-00951999999ADDGA1001+999999999GF100991001001999999001001MA1999999086001MD1710081+9999ME1315539REMSYN076AAXX  04034 16008 42970 00412 11040 21095 38600 48553 57008 90235 333 92810;
0168160080999992000010409004+45750+010530FM-12+146199999V0200401N007212200019N0250001N1-00401-00951999999ADDGA1001+999999999GF100991001001999999001001MA1999999085791MD1610081+9999ME1315349REMSYN076AAXX  04094 16008 42975 00414 11040 21095 38579 48534 56008 90838 333 92810;
0227160080999992000010412004+45750+010530FM-12+146199999V0200601N006212200019N0300001N1+00281-01201999999ADDAA106000091AJ100269199999999GA1001+999999999GF100991001001999999001001IA1239MA1999999085711MD1810091+9999ME1315279REMSYN082AAXX  04124 16008 32980 00612 10028 21120 38571 48527 58009 91135 333 47026 92810;EQDQ01  00002PRCP06
0168160080999992000010415004+45750+010530FM-12+146199999V0200101N006712200019N0300001N1+00401-01181999999ADDGA1001+999999999GF100991001001999999001001MA1999999085521MD1710191+9999ME1315089REMSYN076AAXX  04154 16008 42980 00113 10040 21118 38552 48508 57019 91434 333 92810;
0246160080999992000010418004+45750+010530FM-12+146199999V0200401N006712200019N0250001N1-00121-00831999999ADDAA106000091AJ100269199999999GA1001+999999999GF100991001001999999001001IA1239KA1120M+00501MA1999999085561MD1310041+9999ME1315139REMSYN088AAXX  04184 16008 32975 00413 11012 21083 38556 48513 53004 91736 333 10050 47026 92810;EQDQ01  00002PRCP06
0168160080999992000010421004+45750+010530FM-12+146199999V0200501N005112200019N0250001N1-00201-00811999999ADDGA1001+999999999GF100991001001999999001001MA1999999085621MD1210061+9999ME1315189REMSYN076AAXX  04214 16008 42975 00510 11020 21081 38562 48518 52006 92038 333 92810;
0239160080999992000010500004+45750+010530FM-12+146199999V0200301N006210270019N0200001N1-00161-00731999999ADDAA106000091AJ100269199999999GA1061+027009049GF106991061001999999011001IA1239MA1999999085701MD1110081+9999ME1315269REMSYN094AAXX  05004 16008 32970 60312 11016 21073 38570 48526 51008 86010 92334 333 47026 86459 92810;EQDQ01  00002PRCP06
0180160080999992000010503004+45750+010530FM-12+146199999V0200501N004610270019N0200001N1-00141-00621999999ADDGA1071+027009049GF107991071001999999011001MA1999999085701MD1410001+9999ME1315269REMSYN088AAXX  05034 16008 42970 70509 11014 21062 38570 48526 54000 87010 90240 333 87459 92810;
0258160080999992000010506004+45750+010530FM-12+146199999V0200501N004110270019N0150001N1-00041-00341999999ADDAA106000091AJ100269199999999GA1071+027009049GF107991071001999999011001IA1239KA1120N-00201MA1999999085671MD1810021+9999ME1315219REMSYN100AAXX  05064 16008 32965 70508 11004 21034 38567 48521 58002 87010 90538 333 21020 47026 87459 92810;EQDQ01  00002PRCP06
0180160080999992000010509004+45750+010530FM-12+146199999V0200501N005110075019N0150001N1+00001-00291999999ADDGA1061+007509089GF106991061021008001001001MA1999999085701MD1310031+9999ME1315279REMSYN088AAXX  05094 16008 42565 60510 10000 21029 38570 48527 53003 86200 90840 333 86825 92810;
0239160080999992000010512004+45750+010530FM-12+146199999V0200401N004112200019N0200001N1+00401-00181999999ADDAA106000091AJ100259199999999GA1041+007509089GF104991041011008001001001IA1239MA1999999085781MD1110081+9999ME1315369REMSYN094AAXX  05124 16008 32570 40408 10040 21018 38578 48536 51008 84100 91135 333 47025 84825 92810;EQDQ01  00002PRCP06
0168160080999992000010515004+45750+010530FM-12+146199999V0209999C000012200019N0200001N1+00401-00351999999ADDGA1001+999999999GF100991001001999999001001MA1999999085721MD1810061+9999ME1315289REMSYN076AAXX  05154 16008 42970 00000 10040 21035 38572 48528 58006 91438 333 92810;
0168160080999992000010521004+45750+010530FM-12+146199999V0200301N003612200019N0200001N1-00121-00381999999ADDGA1001+999999999GF100991001001999999001001MA1999999085701MD1110061+9999ME1315279REMSYN076AAXX  05214 16008 42970 00307 11012 21038 38570 48527 51006 92038 333 92810;
0168160080999992000010603004+45750+010530FM-12+146199999V0200401N003112200019N0200001N1-00501-00711999999ADDGA1001+999999999GF100991001001999999001001MA1999999085801MD1410001+9999ME1315359REMSYN076AAXX  06034 16008 42970 00406 11050 21071 38580 48535 54000 90238 333 92810;
0168160080999992000010609004+45750+010530FM-12+146199999V0200601N005112200019N0300001N1-00601-00791999999ADDGA1001+999999999GF100991001001999999001001MA1999999085701MD1610011+9999ME1315259REMSYN076AAXX  06094 16008 42980 00610 11060 21079 38570 48525 56001 90838 333 92810;
0227160080999992000010612004+45750+010530FM-12+146199999V0200301N005112200019N0300001N1+00201-00791999999ADDAA106000091AJ100219199999999GA1001+999999999GF100991001001999999001001IA1239MA1999999085701MD1410001+9999ME1315279REMSYN082AAXX  06124 16008 32980 00310 10020 21079 38570 48527 54000 91139 333 47021 92810;EQDQ01  00002PRCP06
0168160080999992000010615004+45750+010530FM-12+146199999V0200301N004112200019N0300001N1+00301-00971999999ADDGA1001+999999999GF100991001001999999001001MA1999999085601MD1810101+9999ME1315199REMSYN076AAXX  06154 16008 42980 00308 10030 21097 38560 48519 58010 91438 333 92810;
0168160080999992000010621004+45750+010530FM-12+146199999V0200201N005112200019N0200001N1-00101-00771999999ADDGA1001+999999999GF100991001001999999001001MA1999999085711MD1210011+9999ME1315269REMSYN076AAXX  06214 16008 42970 00210 11010 21077 38571 48526 52001 92038 333 92810;
0227160080999992000010700004+45750+010530FM-12+146199999V0200301N006212200019N0200001N1-00181-00781999999ADDAA106000091AJ100209199999999GA1001+999999999GF100991001001999999001001IA1239MA1999999085801MD1110091+9999ME1315349REMSYN082AAXX  07004 16008 32970 00312 11018 21078 38580 48534 51009 92339 333 47020 92810;EQDQ01  00002PRCP06
0168160080999992000010709004+45750+010530FM-12+146199999V0200401N005112200019N0300001N1-00301-00851999999ADDGA1001+999999999GF100991001001999999001001MA1999999085881MD1310081+9999ME1315459REMSYN076AAXX  07094 16008 42980 00410 11030 21085 38588 48545 53008 90839 333 92810;
0227160080999992000010712004+45750+010530FM-12+146199999V0200201N004112200019N0300001N1+00201-00861999999ADDAA106000091AJ100209199999999GA1001+999999999GF100991001001999999001001IA1239MA1999999085801MD1110011+9999ME1315469REMSYN082AAXX  07124 16008 32980 00208 10020 21086 38580 48546 51001 91139 333 47020 92810;EQDQ01  00002PRCP06
0168160080999992000010715004+45750+010530FM-12+146199999V0200301N002612200019N0300001N1+00401-01001999999ADDGA1001+999999999GF100991001001999999001001MA1999999085781MD1810111+9999ME1315369REMSYN076AAXX  07154 16008 42980 00305 10040 21100 38578 48536 58011 91438 333 92810;
0246160080999992000010718004+45750+010530FM-12+146199999V0209999C000012200019N0200001N1-00301-00851999999ADDAA106000091AJ100189199999999GA1001+999999999GF100991001001999999001001IA1239KA1120M+00501MA1999999085801MD1310021+9999ME1315369REMSYN088AAXX  07184 16008 32970 00000 11030 21085 38580 48536 53002 91739 333 10050 47018 92810;EQDQ01  00002PRCP06
0168160080999992000010721004+45750+010530FM-12+146199999V0209999C000012200019N0200001N1-00501-00851999999ADDGA1001+999999999GF100991001001999999001001MA1999999085901MD1110101+9999ME1315449REMSYN076AAXX  07214 16008 42970 00000 11050 21085 38590 48544 51010 92038 333 92810;
0227160080999992000010800004+45750+010530FM-12+146199999V0209999C000012200019N0200001N1-00701-00961999999ADDAA106000091AJ100189199999999GA1001+999999999GF100991001001999999001001IA1239MA1999999085901MD1410001+9999ME1315449REMSYN082AAXX  08004 16008 32970 00000 11070 21096 38590 48544 54000 92338 333 47018 92810;EQDQ01  00002PRCP06
0168160080999992000010803004+45750+010530FM-12+146199999V0209999C000012200019N0200001N1-00821-00971999999ADDGA1001+999999999GF100991001001999999001001MA1999999085801MD1810101+9999ME1315339REMSYN076AAXX  08034 16008 42970 00000 11082 21097 38580 48533 58010 90239 333 92810;
0246160080999992000010806004+45750+010530FM-12+146199999V0209999C000012200019N0200001N1-00901-01051999999ADDAA106000091AJ100189199999999GA1001+999999999GF100991001001999999001001IA1239KA1120N-00901MA1999999085781MD1610021+9999ME1315329REMSYN088AAXX  08064 16008 32970 00000 11090 21105 38578 48532 56002 90538 333 21090 47018 92810;EQDQ01  00002PRCP06
0227160080999992000010812004+45750+010530FM-12+146199999V0209999C000012200019N0200001N1+00101-01001999999ADDAA106000091AJ100189199999999GA1001+999999999GF100991001001999999001001IA1239MA1999999085751MD1810051+9999ME1315329REMSYN082AAXX  08124 16008 32970 00000 10010 21100 38575 48532 58005 91138 333 47018 92810;EQDQ01  00002PRCP06
0168160080999992000010815004+45750+010530FM-12+146199999V0209999C000012200019N0200001N1+00401+99999999999ADDGA1001+999999999GF100991001001999999001001MA1999999085601MD1710151+9999ME1315199REMSYN076AAXX  08154 16008 42970 00000 10040 2//// 38560 48519 57015 91439 333 92810;
0246160080999992000010818004+45750+010530FM-12+146199999V0209999C000012200019N0200001N1-00301-00821999999ADDAA106000091AJ100169199999999GA1001+999999999GF100991001001999999001001IA1239KA1120M+00421MA1999999085621MD1310021+9999ME1315189REMSYN088AAXX  08184 16008 32970 00000 11030 21082 38562 48518 53002 91738 333 10042 47016 92810;EQDQ01  00002PRCP06
0168160080999992000010821004+45750+010530FM-12+146199999V0209999C000012200019N0200001N1-00541-00901999999ADDGA1001+999999999GF100991001001999999001001MA1999999085681MD1110061+9999ME1315259REMSYN076AAXX  08214 16008 42970 00000 11054 21090 38568 48525 51006 92039 333 92810;
0227160080999992000010900004+45750+010530FM-12+146199999V0209999C000012200019N0200001N1-00701-00961999999ADDAA106000091AJ100189199999999GA1001+999999999GF100991001001999999001001IA1239MA1999999085641MD1810041+9999ME1315209REMSYN082AAXX  09004 16008 32970 00000 11070 21096 38564 48520 58004 92339 333 47018 92810;EQDQ01  00002PRCP06
0168160080999992000010903004+45750+010530FM-12+146199999V0209999C000012200019N0200001N1-00701-00901999999ADDGA1001+999999999GF100991001001999999001001MA1999999085801MD1610041+9999ME1315179REMSYN076AAXX  09034 16008 42970 00000 11070 21090 38580 48517 56004 90238 333 92810;
0231160080999992000010909004+45750+010530FM-12+146199999V0209999C000012200019N0200001N1-00601-00791999999ADDGA1061+009009069GF199999999999999999001001MA1999999085581MD1310031+9999ME1315179REMSYN088AAXX  09094 16008 42570 00000 11060 21079 38558 48517 53003 86500 90838 333 86630 92810;EQDQ01+000002SCOTCVQ02+000002SCOTLCQ03+000002SCOLCG
0239160080999992000010912004+45750+010530FM-12+146199999V0209999C000010090019N0200001N1-00201-00581999999ADDAA106000091AJ100189199999999GA1061+009009069GF106991061051008001001001IA1239MA1999999085591MD1110011+9999ME1315199REMSYN094AAXX  09124 16008 32570 60000 11020 21058 38559 48519 51001 86500 91139 333 47018 86630 92810;EQDQ01  00002PRCP06
0180160080999992000010915004+45750+010530FM-12+146199999V0209999C000010090019N0200001N1-00021-00581999999ADDGA1081+009009069GF108991081051008001999999MA1999999085511MD1810081+9999ME1315079REMSYN088AAXX  09154 16008 42570 80000 11002 21058 38551 48507 58008 885// 91439 333 88630 92810;
0258160080999992000010918004+45750+010530FM-12+146199999V0209999C000010090019N0200001N1-00101-00621999999ADDAA106000091AJ100189199999999GA1061+009009069GF106991061051008001001001IA1239KA1120M+00081MA1999999085561MD1310051+9999ME1315139REMSYN100AAXX  09184 16008 32570 60000 11010 21062 38556 48513 53005 86500 91738 333 10008 47018 86630 92810;EQDQ01  00002PRCP06
0180160080999992000010921004+45750+010530FM-12+146199999V0209999C000010090019N0200001N1-00121-00321999999ADDGA1061+009009069GF106991061051008001001001MA1999999085631MD1210071+9999ME1315219REMSYN088AAXX  09214 16008 42570 60000 11012 21032 38563 48521 52007 86500 92040 333 86630 92810;
0239160080999992000011000004+45750+010530FM-12+146199999V0209999C000010090019N0200001N1-00121-00361999999ADDAA106000091AJ100189199999999GA1061+009009069GF106991061051008001001001IA1239MA1999999085701MD1110071+9999ME1315269REMSYN094AAXX  10004 16008 32570 60000 11012 21036 38570 48526 51007 86500 92338 333 47018 86630 92810;EQDQ01  00002PRCP06
0180160080999992000011003004+45750+010530FM-12+146199999V0209999C000010090019N0200001N1-00101-00391999999ADDGA1061+009009069GF106991061051008001001001MA1999999085781MD1310081+9999ME1315349REMSYN088AAXX  10034 16008 42570 60000 11010 21039 38578 48534 53008 86500 90239 333 86630 92810;
0258160080999992000011006004+45750+010530FM-12+146199999V0209999C000010090019N0200001N1-00161-00411999999ADDAA106000091AJ100189199999999GA1061+009009069GF106991061051008001001001IA1239KA1120N-00161MA1999999085801MD1110021+9999ME1315349REMSYN100AAXX  10064 16008 32570 60000 11016 21041 38580 48534 51002 86500 90539 333 21016 47018 86630 92810;EQDQ01  00002PRCP06
0180160080999992000011009004+45750+010530FM-12+146199999V0200401N006210090019N0200001N1-00161-00391999999ADDGA1061+009009069GF106991061051008001001001MA1999999085961MD1310161+9999ME1315519REMSYN088AAXX  10094 16008 42570 60412 11016 21039 38596 48551 53016 86500 90839 333 86630 92810;
0261160080999992000011012004+45750+010530FM-12+146199999V0200401N007710180019N0200001N1+00201-00271999999ADDAA106000091AJ100189199999999GA1021+009009089GA2061+018009049GF106991021011008001011001IA1239MA1999999086021MD1210061+9999ME1315609REMSYN100AAXX  10124 16008 32570 60415 10020 21027 38602 48560 52006 82110 91139 333 47018 82830 86456 92810;EQDQ01  00002PRCP06
0180160080999992000011015004+45750+010530FM-12+146199999V0200501N007210270019N0200001N1+00321-00451999999ADDGA1061+027009049GF106991061001008001011001MA1999999086021MD1010001+9999ME1315559REMSYN088AAXX  10154 16008 42570 60514 10032 21045 38602 48555 50000 86010 91435 333 86459 92810;
0258160080999992000011018004+45750+010530FM-12+146199999V0200701N006210270019N0200001N1+00061-00491999999ADDAA106000091AJ100189199999999GA1061+027009049GF106991061001008001011001IA1239KA1120M+00401MA1999999086101MD1310081+9999ME1315659REMSYN100AAXX  10184 16008 32570 60712 10006 21049 38610 48565 53008 86010 91737 333 10040 47018 86459 92810;EQDQ01  00002PRCP06
0180160080999992000011021004+45750+010530FM-12+146199999V0200401N004110270019N0200001N1-00101-00401999999ADDGA1061+027009049GF106991061001008001011001MA1999999086261MD1210161+9999ME1315789REMSYN088AAXX  10214 16008 42570 60408 11010 21040 38626 48578 52016 86010 92034 333 86459 92810;
0239160080999992000011100004+45750+010530FM-12+146199999V0209999C000010270019N0200001N1-00301-00461999999ADDAA106000091AJ100189199999999GA1061+027009049GF106991061001999999011001IA1239MA1999999086321MD1110061+9999ME1315809REMSYN094AAXX  11004 16008 32970 60000 11030 21046 38632 48580 51006 86010 92338 333 47018 86459 92810;EQDQ01  00002PRCP06
0180160080999992000011103004+45750+010530FM-12+146199999V0209999C000010270019N0200001N1-00461-00781999999ADDGA1061+027009049GF106991061001999999011001MA1999999086401MD1310081+9999ME1315909REMSYN088AAXX  11034 16008 42970 60000 11046 21078 38640 48590 53008 86010 90239 333 86459 92810;
0258160080999992000011106004+45750+010530FM-12+146199999V0200601N002610270019N0200001N1-00601-00821999999ADDAA106000091AJ100189199999999GA1061+027009049GF106991061001999999011001IA1239KA1120N-00601MA1999999086411MD1110011+9999ME1315899REMSYN100AAXX  11064 16008 32970 60605 11060 21082 38641 48589 51001 86010 90536 333 21060 47018 86459 92810;EQDQ01  00002PRCP06
0180160080999992000011109004+45750+010530FM-12+146199999V0200401N002110090019N0300001N1-00521-00671999999ADDGA1061+009009069GF106991061051008001001001MA1999999086501MD1310091+9999ME1315989REMSYN088AAXX  11094 16008 42580 60404 11052 21067 38650 48598 53009 86500 90837 333 86630 92810;
0239160080999992000011112004+45750+010530FM-12+146199999V0200301N004612200019N0300001N1-00101-00511999999ADDAA106000091AJ100179199999999GA1041+012009069GF104991041051012501001001IA1239MA1999999086491MD1810011+9999ME1316009REMSYN094AAXX  11124 16008 32680 40309 11010 21051 38649 48600 58001 84500 91134 333 47017 84640 92810;EQDQ01  00002PRCP06
0168160080999992000011115004+45750+010530FM-12+146199999V0200401N003612200019N0300001N1+00201-00621999999ADDGA1001+999999999GF100991001001999999001001MA1999999086401MD1610091+9999ME1315939REMSYN076AAXX  11154 16008 42980 00407 10020 21062 38640 48593 56009 91438 333 92810;
0246160080999992000011118004+45750+010530FM-12+146199999V0200101N003112200019N0200001N1-00301-00641999999ADDAA106000091AJ100169199999999GA1001+999999999GF100991001001999999001001IA1239KA1120M+00261MA1999999086451MD1310051+9999ME1315939REMSYN088AAXX  11184 16008 32970 00106 11030 21064 38645 48593 53005 91735 333 10026 47016 92810;EQDQ01  00002PRCP06
0168160080999992000011121004+45750+010530FM-12+146199999V0200401N002112200019N0200001N1-00481-00711999999ADDGA1001+999999999GF100991001001999999001001MA1999999086491MD1110041+9999ME1315989REMSYN076AAXX  11214 16008 42970 00404 11048 21071 38649 48598 51004 92037 333 92810;
0227160080999992000011200004+45750+010530FM-12+146199999V0200501N003612200019N0200001N1-00601-00791999999ADDAA106000091AJ100169199999999GA1001+999999999GF100991001001999999001001IA1239MA1999999086491MD1410001+9999ME1315979REMSYN082AAXX  12004 16008 32970 00507 11060 21079 38649 48597 54000 92338 333 47016 92810;EQDQ01  00002PRCP06
0168160080999992000011203004+45750+010530FM-12+146199999V0200401N004112200019N0200001N1-00701-00841999999ADDGA1001+999999999GF100991001001999999001001MA1999999086401MD1810091+9999ME1315899REMSYN076AAXX  12034 16008 42970 00408 11070 21084 38640 48589 58009 90239 333 92810;
0246160080999992000011206004+45750+010530FM-12+146199999V0200401N003112200019N0200001N1-00861-00981999999ADDAA106000091AJ100169199999999GA1001+999999999GF100991001001999999001001IA1239KA1120N-00861MA1999999086301MD1710101+9999ME1315779REMSYN088AAXX  12064 16008 32970 00406 11086 21098 38630 48577 57010 90536 333 21086 47016 92810;EQDQ01  00002PRCP06
0168160080999992000011209004+45750+010530FM-12+146199999V0200401N003112200019N0300001N1-00861-00981999999ADDGA1001+999999999GF100991001001999999001001MA1999999086291MD1610011+9999ME1315779REMSYN076AAXX  12094 16008 42980 00406 11086 21098 38629 48577 56001 90834 333 92810;
0227160080999992000011212004+45750+010530FM-12+146199999V0200401N003612200019N0300001N1-00201-00911999999ADDAA106000091AJ100169199999999GA1001+999999999GF100991001001999999001001IA1239MA1999999086121MD1810171+9999ME1315649REMSYN082AAXX  12124 16008 32980 00407 11020 21091 38612 48564 58017 91137 333 47016 92810;EQDQ01  00002PRCP06
0168160080999992000011215004+45750+010530FM-12+146199999V0209999C000012200019N0300001N1+00021-01111999999ADDGA1001+999999999GF100991001001999999001001MA1999999085981MD1710141+9999ME1315549REMSYN076AAXX  12154 16008 42980 00000 10002 21111 38598 48554 57014 91435 333 92820;
0246160080999992000011218004+45750+010530FM-12+146199999V0209999C000012200019N0200001N1-00501-00981999999ADDAA106000091AJ100159199999999GA1001+999999999GF100991001001999999001001IA1239KA1120M+00041MA1999999085951MD1610031+9999ME1315499REMSYN088AAXX  12184 16008 32970 00000 11050 21098 38595 48549 56003 91739 333 10004 47015 92820;EQDQ01  00002PRCP06
0168160080999992000011221004+45750+010530FM-12+146199999V0209999C000012200019N0200001N1-00861-01141999999ADDGA1001+999999999GF100991001001999999001001MA1999999085911MD1610041+9999ME1315439REMSYN076AAXX  12214 16008 42970 00000 11086 21114 38591 48543 56004 92036 333 92820;
0227160080999992000011300004+45750+010530FM-12+146199999V0209999C000012200019N0200001N1-01021-01181999999ADDAA106000091AJ100159199999999GA1001+999999999GF100991001001999999001001IA1239MA1999999085871MD1810041+9999ME1315379REMSYN082AAXX  13004 16008 32970 00000 11102 21118 38587 48537 58004 92335 333 47015 92820;EQDQ01  00002PRCP06
0168160080999992000011303004+45750+010530FM-12+146199999V0209999C000012200019N0200001N1-01181-01251999999ADDGA1001+999999999GF100991001001999999001001MA1999999085791MD1710081+9999ME1315329REMSYN076AAXX  13034 16008 42970 00000 11118 21125 38579 48532 57008 90239 333 92820;
0246160080999992000011306004+45750+010530FM-12+146199999V0209999C000012200019N0200001N1-01221-01261999999ADDAA106000091AJ100159199999999GA1001+999999999GF100991001001999999001001IA1239KA1120N-01221MA1999999085651MD1610141+9999ME1315189REMSYN088AAXX  13064 16008 32970 00000 11122 21126 38565 48518 56014 90534 333 21122 47015 92820;EQDQ01  00002PRCP06
0168160080999992000011309004+45750+010530FM-12+146199999V0209999C000012200019N0300001N1-01321-01361999999ADDGA1001+999999999GF100991001001999999001001MA1999999085601MD1610051+9999ME1315169REMSYN076AAXX  13094 16008 42980 00000 11132 21136 38560 48516 56005 90835 333 92820;
0227160080999992000011312004+45750+010530FM-12+146199999V0209999C000012200019N0300001N1-00441-00971999999ADDAA106000091AJ100139199999999GA1001+999999999GF100991001001999999001001IA1239MA1999999085491MD1810111+9999ME1315079REMSYN082AAXX  13124 16008 32980 00000 11044 21097 38549 48507 58011 91137 333 47013 92820;EQDQ01  00002PRCP06
0168160080999992000011315004+45750+010530FM-12+146199999V0209999C000012200019N0300001N1-00401-00851999999ADDGA1001+999999999GF100991001001999999001001MA1999999085371MD1710121+9999ME1314939REMSYN076AAXX  13154 16008 42980 00000 11040 21085 38537 48493 57012 91434 333 92820;
0246160080999992000011318004+45750+010530FM-12+146199999V0209999C000012200019N0200001N1-00901-01091999999ADDAA106000091AJ100139199999999GA1001+999999999GF100991001001999999001001IA1239KA1120M-00321MA1999999085391MD1310021+9999ME1314989REMSYN088AAXX  13184 16008 32970 00000 11090 21109 38539 48498 53002 91736 333 11032 47013 92820;EQDQ01  00002PRCP06
0172160080999992000011321004+45750+010530FM-12+146199999V0209999C000012200019N0200001N1-01121-01191999999ADDGA1001+999999999GF100991001001999999001001MA1999999085401MD1110011+9999ME1314989REMSYN080    AAXX  13214 16008 42970 00000 11112 21119 38540 48498 51001 92039 333 92820;
0231160080999992000011400004+45750+010530FM-12+146199999V0209999C000012200019N0200001N1-01221-01261999999ADDAA199000091AJ100139199999999GA1001+999999999GF100991001001999999001001IA1239MA1999999085401MD1410001+9999ME1314989REMSYN086    AAXX  14004 16008 32970 00000 11122 21126 38540 48498 54000 92338 333 47013 92820;EQDQ01  00002PRCP99
0172160080999992000011403004+45750+010530FM-12+146199999V0209999C000012200019N0200001N1-01321-01361999999ADDGA1001+999999999GF100991001001999999001001MA1999999085411MD1310011+9999ME1314979REMSYN080    AAXX  14034 16008 42970 00000 11132 21136 38541 48497 53001 90235 333 92820;
0250160080999992000011406004+45750+010530FM-12+146199999V0209999C000012200019N0200001N1-01401-01441999999ADDAA199000091AJ100139199999999GA1001+999999999GF100991001001999999001001IA1239KA1120N-01421MA1999999085411MD1010001+9999ME1314979REMSYN092    AAXX  14064 16008 32970 00000 11140 21144 38541 48497 50000 90537 333 21142 47013 92820;EQDQ01  00002PRCP99
0172160080999992000011409004+45750+010530FM-12+146199999V0209999C000012200019N0300001N1-01321-01361999999ADDGA1001+999999999GF100991001001999999001001MA1999999085481MD1310071+9999ME1315059REMSYN080    AAXX  14094 16008 42980 00000 11132 21136 38548 48505 53007 90836 333 92820;
0231160080999992000011412004+45750+010530FM-12+146199999V0209999C000012200019N0300001N1-00201-01161999999ADDAA199000091AJ100129199999999GA1001+999999999GF100991001001999999001001IA1239MA1999999085501MD1010021+9999ME1315079REMSYN086    AAXX  14124 16008 32980 00000 11020 21116 38550 48507 50002 91134 333 47012 92843;EQDQ01  00002PRCP99
0172160080999992000011415004+45750+010530FM-12+146199999V0202201N002112200019N0300001N1-00081-01091999999ADDGA1001+999999999GF100991001001999999001001MA1999999085441MD1510061+9999ME1315029REMSYN080    AAXX  14154 16008 42980 02204 11008 21109 38544 48502 55006 91439 333 92843;
0250160080999992000011418004+45750+010530FM-12+146199999V0209999C000012200019N0200001N1-00401-00911999999ADDAA199000091AJ100119199999999GA1001+999999999GF100991001001999999001001IA1239KA1120M-00031MA1999999085511MD1210071+9999ME1315079REMSYN092    AAXX  14184 16008 32970 00000 11040 21091 38551 48507 52007 91736 333 11003 47011 92843;EQDQ01  00002PRCP99
0172160080999992000011421004+45750+010530FM-12+146199999V0209999C000012200019N0200001N1-00761-00971999999ADDGA1001+999999999GF100991001001999999001001MA1999999085691MD1110181+9999ME1315259REMSYN080    AAXX  14214 16008 42970 00000 11076 21097 38569 48525 51018 92035 333 92843;
0231160080999992000011500004+45750+010530FM-12+146199999V0209999C000012200019N0200001N1-00781-00991999999ADDAA199000091AJ100119199999999GA1001+999999999GF100991001001999999001001IA1239MA1999999085701MD1110011+9999ME1315259REMSYN086    AAXX  15004 16008 32970 00000 11078 21099 38570 48525 51001 92339 333 47011 92843;EQDQ01  00002PRCP99
0172160080999992000011503004+45750+010530FM-12+146199999V0200601N002612200019N0200001N1-00821-00941999999ADDGA1001+999999999GF100991001001999999001001MA1999999085741MD1310041+9999ME1315309REMSYN080    AAXX  15034 16008 42970 00605 11082 21094 38574 48530 53004 90236 333 92843;
0250160080999992000011506004+45750+010530FM-12+146199999V0200501N003612200019N0200001N1-00821-00941999999ADDAA199000091AJ100119199999999GA1001+999999999GF100991001001999999001001IA1239KA1120N-00821MA1999999085711MD1810031+9999ME1315259REMSYN092    AAXX  15064 16008 32970 00507 11082 21094 38571 48525 58003 90538 333 21082 47011 92843;EQDQ01  00002PRCP99
0172160080999992000011509004+45750+010530FM-12+146199999V0200601N003112200019N0300001N1-00781-00931999999ADDGA1001+999999999GF100991001001999999001001MA1999999085791MD1310081+9999ME1315339REMSYN080    AAXX  15094 16008 42980 00606 11078 21093 38579 48533 53008 90837 333 92843;
0231160080999992000011512004+45750+010530FM-12+146199999V0200201N004112200019N0300001N1+00041-00741999999ADDAA199000091AJ100119199999999GA1001+999999999GF100991001001999999001001IA1239MA1999999085791MD1010001+9999ME1315359REMSYN086    AAXX  15124 16008 32980 00208 10004 21074 38579 48535 50000 91136 333 47011 92843;EQDQ01  00002PRCP99
0172160080999992000011515004+45750+010530FM-12+146199999V0200401N003112200019N0300001N1+00381-00891999999ADDGA1001+999999999GF100991001001999999001001MA1999999085721MD1610071+9999ME1315279REMSYN080    AAXX  15154 16008 42980 00406 10038 21089 38572 48527 56007 91434 333 92843;
0250160080999992000011518004+45750+010530FM-12+146199999V0200301N005112200019N0250001N1-00121-00861999999ADDAA199000091AJ100119199999999GA1001+999999999GF100991001001999999001001IA1239KA1120M+00381MA1999999085741MD1310021+9999ME1315329REMSYN092    AAXX  15184 16008 32975 00310 11012 21086 38574 48532 53002 91738 333 10038 47011 92843;EQDQ01  00002PRCP99
0172160080999992000011521004+45750+010530FM-12+146199999V0200601N005712200019N0250001N1-00221-00791999999ADDGA1001+999999999GF100991001001999999001001MA1999999085781MD1210051+9999ME1315349REMSYN080    AAXX  15214 16008 42975 00611 11022 21079 38578 48534 52005 92035 333 92843;
0231160080999992000011600004+45750+010530FM-12+146199999V0200301N003612200019N0200001N1-00281-00971999999ADDAA199000091AJ100119199999999GA1001+999999999GF100991001001999999001001IA1239MA1999999085811MD1110021+9999ME1315349REMSYN086    AAXX  16004 16008 32970 00307 11028 21097 38581 48534 51002 92337 333 47011 92843;EQDQ01  00002PRCP99
0172160080999992000011603004+45750+010530FM-12+146199999V0200101N007212200019N0200001N1-00541-00871999999ADDGA1001+999999999GF100991001001999999001001MA1999999085761MD1810051+9999ME1315319REMSYN080    AAXX  16034 16008 42970 00114 11054 21087 38576 48531 58005 90235 333 92843;
0250160080999992000011606004+45750+010530FM-12+146199999V0200401N010312200019N0200001N1-00581-00931999999ADDAA199000091AJ100119199999999GA1001+999999999GF100991001001999999001001IA1239KA1120N-00581MA1999999085721MD1610041+9999ME1315259REMSYN092    AAXX  16064 16008 32970 00420 11058 21093 38572 48525 56004 90540 333 21058 47011 92843;EQDQ01  00002PRCP99
0172160080999992000011609004+45750+010530FM-12+146199999V0200401N011312200019N0250001N1-00701-00901999999ADDGA1001+999999999GF100991001001999999001001MA1999999085791MD1310071+9999ME1315339REMSYN080    AAXX  16094 16008 42975 00422 11070 21090 38579 48533 53007 90837 333 92843;
0231160080999992000011612004+45750+010530FM-12+146199999V0200601N012912200019N0300001N1-00301-00821999999ADDAA199000091AJ100119199999999GA1001+999999999GF100991001001999999001001IA1239MA1999999085841MD1110051+9999ME1315399REMSYN086    AAXX  16124 16008 32980 00625 11030 21082 38584 48539 51005 91137 333 47011 92843;EQDQ01  00002PRCP99
0172160080999992000011615004+45750+010530FM-12+146199999V0200601N010312200019N0300001N1-00181-00901999999ADDGA1001+999999999GF100991001001999999001001MA1999999085781MD1810061+9999ME1315349REMSYN080    AAXX  16154 16008 42980 00620 11018 21090 38578 48534 58006 91438 333 92843;
0250160080999992000011618004+45750+010530FM-12+146199999V0200201N007212200019N0300001N1-00361-00891999999ADDAA199000091AJ100119199999999GA1001+999999999GF100991001001999999001001IA1239KA1120M-00121MA1999999085881MD1310101+9999ME1315459REMSYN092    AAXX  16184 16008 32980 00214 11036 21089 38588 48545 53010 91736 333 11012 47011 92843;EQDQ01  00002PRCP99
0172160080999992000011621004+45750+010530FM-12+146199999V0200401N010312200019N0250001N1-00521-00911999999ADDGA1001+999999999GF100991001001999999001001MA1999999085931MD1210051+9999ME1315499REMSYN080    AAXX  16214 16008 42975 00420 11052 21091 38593 48549 52005 92038 333 92843;
0231160080999992000011700004+45750+010530FM-12+146199999V0200401N008712200019N0200001N1-00641-00961999999ADDAA199000091AJ100119199999999GA1001+999999999GF100991001001999999001001IA1239MA1999999085981MD1110051+9999ME1315529REMSYN086    AAXX  17004 16008 32970 00417 11064 21096 38598 48552 51005 92336 333 47011 92843;EQDQ01  00002PRCP99
0172160080999992000011703004+45750+010530FM-12+146199999V0200201N009312200019N0200001N1-00641-00991999999ADDGA1001+999999999GF100991001001999999001001MA1999999085891MD1810091+9999ME1315449REMSYN080    AAXX  17034 16008 42970 00218 11064 21099 38589 48544 58009 90237 333 92843;
0250160080999992000011706004+45750+010530FM-12+146199999V0200301N012912200019N0250001N1-00701-01101999999ADDAA199000091AJ100119199999999GA1001+999999999GF100991001001999999001001IA1239KA1120N-00701MA1999999085741MD1510151+9999ME1315309REMSYN092    AAXX  17064 16008 32975 00325 11070 21110 38574 48530 55015 90537 333 21070 47011 92843;EQDQ01  00002PRCP99
0243160080999992000011712004+45750+010530FM-12+146199999V0200701N009812200019N0250001N1+00321-00681999999ADDAA199000091AJ100119199999999GA1011+012009089GF101991011011012501001001IA1239MA1999999085671MD1810121+9999ME1315229REMSYN098    AAXX  17124 16008 32675 10719 10032 21068 38567 48522 58012 81100 91137 333 47011 81840 92843;EQDQ01  00002PRCP99
0184160080999992000011715004+45750+010530FM-12+146199999V0200201N010812200019N0250001N1+00581-00451999999ADDGA1041+009009089GF104991041011008001001001MA1999999085471MD1710201+9999ME1315039REMSYN092    AAXX  17154 16008 42575 40221 10058 21045 38547 48503 57020 84100 91437 333 84830 92843;
0184160080999992000011721004+45750+010530FM-12+146199999V0203401N006712200019N0200001N1+00461-00391999999ADDGA1041+009009089GF104991041011008001001001MA1999999085311MD1310061+9999ME1314899REMSYN092    AAXX  17214 16008 42570 43413 10046 21039 38531 48489 53006 84100 92037 333 84830 92843;
0243160080999992000011800004+45750+010530FM-12+146199999V0200501N012312200019N0200001N1+00361-00461999999ADDAA199000091AJ100119199999999GA1031+009009089GF103991031011008001001001IA1239MA1999999085271MD1810041+9999ME1314869REMSYN098    AAXX  18004 16008 32570 30524 10036 21046 38527 48486 58004 83100 92337 333 47011 83830 92843;EQDQ01  00002PRCP99
0184160080999992000011803004+45750+010530FM-12+146199999V0200301N010312200019N0200001N1+00301-00451999999ADDGA1041+009009089GF104991041011008001001001MA1999999085241MD1610031+9999ME1314869REMSYN092    AAXX  18034 16008 42570 40320 10030 21045 38524 48486 56003 84100 90236 333 84830 92843;
0262160080999992000011806004+45750+010530FM-12+146199999V0200401N010310090019N0200001N1+00241-00441999999ADDAA199000091AJ100109199999999GA1071+009009079GF107991071061008001001001IA1239KA1120N+00241MA1999999085131MD1810111+9999ME1314759REMSYN104    AAXX  18064 16008 32570 70420 10024 21044 38513 48475 58011 87600 90537 333 20024 47010 87730 92843;EQDQ01  00002PRCP99
0212160080999992000011809004+45750+010530FM-12+146199999V0200401N012310060019N0100001N1+00141-00261999999ADDAY171031AY221031GA1081+006009079GF108991081071008001999999MA1999999085051MD1610081+9999ME1314669MW1701REMSYN098    AAXX  18094 16008 41560 80424 10014 21026 38505 48466 56008 77072 887// 90837 333 88720 92843;
0258160080999992000011812004+45750+010530FM-12+146199999V0200101N010310045019N0100001N1+00141-00111999999ADDAA106000791AJ100109199999999AY171061AY221061GA1081+004509079GF108991081071004501999999IA1239MA1999999084871MD1810181+9999ME1314479MW1701REMSYN110    AAXX  18124 16008 11460 80120 10014 21011 38487 48447 58018 69901 77072 887// 91137 333 47010 88715 92843;
0212160080999992000011815004+45750+010530FM-12+146199999V0200601N014410060019N0200001N1+00181-00431999999ADDAY171031AY221031GA1061+006009079GF106991061071008001001001MA1999999084771MD1510101+9999ME1314369MW1011REMSYN098    AAXX  18154 16008 41570 60628 10018 21043 38477 48436 55010 70172 86700 91436 333 86720 92843;
0277160080999992000011818004+45750+010530FM-12+146199999V0200301N012910060019N0200001N1+00081-00821999999ADDAA112000791AJ100109199999999AY171061AY221061GA1051+006009089GF105991051011008001001001IA1239KA1120M+00281MA1999999084791MD1110021+9999ME1314429MW1011REMSYN116    AAXX  18184 16008 11570 50325 10008 21082 38479 48442 51002 69902 70172 85100 91738 333 10028 47010 85820 92843;
0184160080999992000011821004+45750+010530FM-12+146199999V0200401N010312200019N0200001N1+00041-00771999999ADDGA1031+006009089GF103991031011008001001001MA1999999084841MD1310051+9999ME1314479REMSYN092    AAXX  18214 16008 42570 30420 10004 21077 38484 48447 53005 83100 92037 333 83820 92843;
0224160080999992000011900004+45750+010530FM-12+146199999V0200401N009310045019N0150001N1-00081-00541999999ADDAA199000021AJ100109199999999GA1071+004509079GF107991071061004501001001IA1239MA1999999084841MD1010001+9999ME1314479REMSYN098    AAXX  19004 16008 32465 70418 11008 21054 38484 48447 50000 87600 92337 333 47010 87715 92843;
0184160080999992000011903004+45750+010530FM-12+146199999V0200201N008210060019N0150001N1-00261-01091999999ADDGA1051+006009089GF105991051011008001021001MA1999999085001MD1310161+9999ME1314619REMSYN092    AAXX  19034 16008 42565 50216 11026 21109 38500 48461 53016 85120 90237 333 85820 92843;
0184160080999992000011909004+45750+010530FM-12+146199999V0200601N004612200019N0250001N1-00381-01071999999ADDGA1011+009009089GF101991011011008001001001MA1999999085421MD1210261+9999ME1314999REMSYN092    AAXX  19094 16008 42575 10609 11038 21107 38542 48499 52026 81100 90836 333 81830 92843;
0231160080999992000011912004+45750+010530FM-12+146199999V0200401N007712200019N0250001N1-00161-01231999999ADDAA199000091AJ100109199999999GA1001+999999999GF100991001001999999001001IA1239MA1999999085501MD1110081+9999ME1315079REMSYN086    AAXX  19124 16008 32975 00415 11016 21123 38550 48507 51008 91137 333 47010 92843;EQDQ01  00002PRCP99
0172160080999992000011915004+45750+010530FM-12+146199999V0203501N007712200019N0250001N1-00161-01481999999ADDGA1001+999999999GF100991001001999999001001MA1999999085471MD1810031+9999ME1315029REMSYN080    AAXX  19154 16008 42975 03515 11016 21148 38547 48502 58003 91438 333 92843;
0246160080999992000011918004+45750+010530FM-12+146199999V0203501N011312200019N0250001N1-00321-01311999999ADDAA199000091AJ100109199999999GA1001+999999999GF100991001001999999001001IA1239KA1120M-00121MA1999999085611MD1310141+9999ME1315189REMSYN088AAXX  19184 16008 32975 03522 11032 21131 38561 48518 53014 91736 333 11012 47010 92843;EQDQ01  00002PRCP99
0168160080999992000011921004+45750+010530FM-12+146199999V0200601N007212200019N0200001N1-00521-01501999999ADDGA1001+999999999GF100991001001999999001001MA1999999085811MD1210201+9999ME1315339REMSYN076AAXX  19214 16008 42970 00614 11052 21150 38581 48533 52020 92037 333 92843;
0227160080999992000012000004+45750+010530FM-12+146199999V0200601N007712200019N0200001N1-00741-01311999999ADDAA199000091AJ100109199999999GA1001+999999999GF100991001001999999001001IA1239MA1999999085931MD1210121+9999ME1315499REMSYN082AAXX  20004 16008 32970 00615 11074 21131 38593 48549 52012 92337 333 47010 92843;EQDQ01  00002PRCP99
0246160080999992000012006004+45750+010530FM-12+146199999V0200601N006712200019N0200001N1-00881-01501999999ADDAA199000091AJ100109199999999GA1001+999999999GF100991001001999999001001IA1239KA1120N-00881MA1999999085841MD1610081+9999ME1315389REMSYN088AAXX  20064 16008 32970 00613 11088 21150 38584 48538 56008 90536 333 21088 47010 92843;EQDQ01  00002PRCP99
0168160080999992000012009004+45750+010530FM-12+146199999V0200301N007712200019N0250001N1-01021-01541999999ADDGA1001+999999999GF100991001001999999001001MA1999999085881MD1310041+9999ME1315439REMSYN076AAXX  20094 16008 42975 00315 11102 21154 38588 48543 53004 90838 333 92843;
0217160080999992000012012004+45750+010530FM-12+146199999V0200501N008219999999N0250001N1-00381-01371999999ADDAA199000091AJ100109199999999GF105991001001999999001041IA1239MA1999999085831MD1810051+9999ME1315399REMSYN088AAXX  20124 16008 32975 50516 11038 21137 38583 48539 58005 80004 91137 333 47010 92843;EQDQ01  00002PRCP99
0210160080999992000012015004+45750+010530FM-12+146199999V0200401N003610210019N0250001N1+00021-01341999999ADDAA199000091GA1051+021009039GF107991051001022501041041MA1999999085651MD1710181+9999ME1315219REMSYN088AAXX  20154 16008 32875 70407 10002 21134 38565 48521 57018 85044 91440 333 85357 92843;EQDQ01  00002PRCP99
0231160080999992000012018004+45750+010530FM-12+146199999V0200401N002612200019N0250001N1-00201-01161999999ADDAA199000091AJ100109199999999GA1001+999999999GF100991001001999999001001IA1239KA1120M+00021MA1999999085621MD1610031+9999REMSYN082AAXX  20184 16008 32975 00405 11020 21116 38562 56003 91740 333 10002 47010 92843;EQDQ01  00002PRCP99
0168160080999992000012021004+45750+010530FM-12+146199999V0200401N003112200019N0200001N1-00441-01151999999ADDGA1001+999999999GF100991001001999999001001MA1999999085601MD1810021+9999ME1315179REMSYN076AAXX  20214 16008 42970 00406 11044 21115 38560 48517 58002 92041 333 92843;
0239160080999992000012100004+45750+010530FM-12+146199999V0200401N004610210019N0200001N1-00461-01071999999ADDAA199000091AJ100109199999999GA1061+021009049GF106991061001022501011001IA1239MA1999999085531MD1710071+9999ME1315129REMSYN094AAXX  21004 16008 32870 60409 11046 21107 38553 48512 57007 86010 92340 333 47010 86457 92843;EQDQ01  00002PRCP99
0258160080999992000012106004+45750+010530FM-12+146199999V0200401N006210120019N0200001N1-00401-01091999999ADDAA199000091AJ100109199999999GA1071+012009069GF107991071051012501001001IA1239KA1120N-00461MA1999999085311MD1610011+9999ME1314889REMSYN100AAXX  21064 16008 32670 70412 11040 21109 38531 48488 56001 87500 90539 333 21046 47010 87640 92843;EQDQ01  00002PRCP99
0180160080999992000012109004+45750+010530FM-12+146199999V0200401N006710060019N0200001N1-00321-01081999999ADDGA1081+006009079GF108991081061008001999999MA1999999085341MD1310031+9999ME1314939REMSYN088AAXX  21094 16008 42570 80413 11032 21108 38534 48493 53003 886// 90840 333 88720 92843;
0239160080999992000012112004+45750+010530FM-12+146199999V0200301N008710060019N0200001N1-00201-00941999999ADDAA199000091AJ100109199999999GA1081+006009079GF108991081061008001999999IA1239MA1999999085401MD1110071+9999ME1314999REMSYN094AAXX  21124 16008 32570 80317 11020 21094 38540 48499 51007 886// 91139 333 47010 88720 92843;EQDQ01  00002PRCP99
0208160080999992000012115004+45750+010530FM-12+146199999V0200301N006710030019N0080001N1-00181-00811999999ADDAY121031AY221031GA1081+003009079GF108991081061004501999999MA1999999085361MD1810051+9999ME1314949MW1101REMSYN094AAXX  21154 16008 41458 80313 11018 21081 38536 48494 58005 71022 886// 91441 333 88710 92843;
0273160080999992000012118004+45750+010530FM-12+146199999V0200401N003110030019N0060001N1-00341-00721999999ADDAA112000791AJ100109199999999AY121061AY221061GA1081+003009079GF108991081071004501999999IA1239KA1120M-00181MA1999999085411MD1310051+9999ME1314999MW1701REMSYN112AAXX  21184 16008 11456 80406 11034 21072 38541 48499 53005 69902 77022 887// 91740 333 11018 47010 88710 92843;
0218160080999992000012121004+45750+010530FM-12+146199999V0200401N002610030019N0060001N1-00321-00361999999ADDAL10600191AY171031AY271031GA1081+003009079GF108991081071004501999999MA1999999085491MD1110091+9999ME1315079MW1701REMSYN094AAXX  21214 16008 41456 80405 11032 21036 38549 48507 51009 77077 887// 92039 333 88710 93101;
0264160080999992000012200004+45750+010530FM-12+146199999V0200401N005710210019N0150001N1-00321-00411999999ADDAA106000591AJ100119199999999AL10600191AY171061AY221061GA1071+021009049GF107991071001022501011001IA1239MA1999999085381MD1810121+9999ME1314939MW1011REMSYN106AAXX  22004 16008 11865 70411 11032 21041 38538 48493 58012 69961 70172 87010 92339 333 47011 87457 93101;
0202160080999992000012203004+45750+010530FM-12+146199999V0200301N005110240019N0150001N1-00321-00621999999ADDGA1021+009009089GA2061+024009049GF106991061011008001011001MA1999999085201MD1710181+9999ME1314809REMSYN094AAXX  22034 16008 42565 60310 11032 21062 38520 48480 57018 86110 90240 333 82830 86458 92810;
0245160080999992000012206004+45750+010530FM-12+146199999V0200301N004110090019N0150001N1-00321-00531999999ADDAA112000591AJ100119199999999GA1051+009009069GF105991051051008001001001IA1239KA1120N-00321MA1999999085001MD1710201+9999ME1314619REMSYN106AAXX  22064 16008 12565 50308 11032 21053 38500 48461 57020 69962 85500 90539 333 21032 47011 85630 92810;
0180160080999992000012209004+45750+010530FM-12+146199999V0200401N001510090019N0200001N1-00401-00571999999ADDGA1061+009009069GF106991061051008001001001MA1999999084901MD1710101+9999ME1314539REMSYN088AAXX  22094 16008 42570 60403 11040 21057 38490 48453 57010 86500 90840 333 86630 92810;
0239160080999992000012212004+45750+010530FM-12+146199999V0200301N002610090019N0200001N1+00221-00971999999ADDAA199000091AJ100119199999999GA1061+009009069GF106991061051008001001001IA1239MA1999999084571MD1710331+9999ME1314179REMSYN094AAXX  22124 16008 32570 60305 10022 21097 38457 48417 57033 86500 91138 333 47011 86630 92810;EQDQ01  00002PRCP99
0202160080999992000012215004+45750+010530FM-12+146199999V0200401N001510105019N0150001N1+00101-00941999999ADDGA1041+006009089GA2051+010509069GF108991081081008001999999MA1999999084101MD1710471+9999ME1313769REMSYN094AAXX  22154 16008 42565 80403 10010 21094 38410 48376 57047 888// 91439 333 84820 85635 92810;
0258160080999992000012218004+45750+010530FM-12+146199999V0200601N004110060019N0110001N1-00181-00561999999ADDAA199000091AJ100119199999999GA1081+006009079GF108991081061008001999999IA1239KA1120M+00241MA1999999084131MD1310021+9999ME1313809REMSYN100AAXX  22184 16008 32561 80608 11018 21056 38413 48380 53002 886// 91737 333 10024 47011 88720 92810;EQDQ01  00002PRCP99
0180160080999992000012221004+45750+010530FM-12+146199999V0209999C000010090019N0110001N1-00301-00511999999ADDGA1051+009009069GF105991051051008001001001MA1999999084101MD1810021+9999ME1313779REMSYN088AAXX  22214 16008 42561 50000 11030 21051 38410 48377 58002 85500 92035 333 85630 92810;
0239160080999992000012300004+45750+010530FM-12+146199999V0200501N003110090019N0110001N1-00441-00561999999ADDAA199000091AJ100119199999999GA1061+009009069GF106991061051008001001001IA1239MA1999999084021MD1610081+9999ME1313679REMSYN094AAXX  23004 16008 32561 60506 11044 21056 38402 48367 56008 86500 92337 333 47011 86630 92810;EQDQ01  00002PRCP99
0180160080999992000012303004+45750+010530FM-12+146199999V0200601N004612200019N0110001N1-00521-00651999999ADDGA1031+007509089GF103991031021008001001001MA1999999084001MD1610021+9999ME1313679REMSYN088AAXX  23034 16008 42561 30609 11052 21065 38400 48367 56002 83200 90235 333 83825 92810;
0258160080999992000012306004+45750+010530FM-12+146199999V0200501N006210060019N0110001N1-00501-00631999999ADDAA199000091AJ100119199999999GA1081+006009079GF108991081061008001999999IA1239KA1120N-00541MA1999999083951MD1810041+9999ME1313649REMSYN100AAXX  23064 16008 32561 80512 11050 21063 38395 48364 58004 886// 90540 333 21054 47011 88720 92810;EQDQ01  00002PRCP99
0180160080999992000012309004+45750+010530FM-12+146199999V0200601N004110060019N0120001N1-00521-00621999999ADDGA1051+006009089GF105991051021008001001001MA1999999084061MD1310111+9999ME1313739REMSYN088AAXX  23094 16008 42562 50608 11052 21062 38406 48373 53011 85200 90839 333 85820 92810;
0202160080999992000012315004+45750+010530FM-12+146199999V0200301N006710075019N0130001N1-00201-00661999999ADDGA1041+004509089GA2051+007509069GF108991081081004501999999MA1999999084061MD1510001+9999ME1313729REMSYN094AAXX  23154 16008 42463 80313 11020 21066 38406 48372 55000 888// 91434 333 84815 85625 92810;
0280160080999992000012318004+45750+010530FM-12+146199999V0200501N004110090019N0120001N1-00401-00601999999ADDAA199000091AJ100119199999999GA1041+004509089GA2051+009009069GF108991081081004501999999IA1239KA1120M-00141MA1999999084161MD1110101+9999ME1313809REMSYN106AAXX  23184 16008 32462 80508 11040 21060 38416 48380 51010 888// 91735 333 11014 47011 84815 85630 92810;EQDQ01  00002PRCP99
0180160080999992000012321004+45750+010530FM-12+146199999V0200801N003110060019N0110001N1-00481-00611999999ADDGA1081+006009079GF108991081061008001999999MA1999999084261MD1110101+9999ME1313919REMSYN088AAXX  23214 16008 42561 80806 11048 21061 38426 48391 51010 886// 92036 333 88720 92810;
0239160080999992000012400004+45750+010530FM-12+146199999V0200801N004112200019N0110001N1-00501-00571999999ADDAA199000091AJ100119199999999GA1031+007509089GF103991031021008001001001IA1239MA1999999084301MD1110041+9999ME1313979REMSYN094AAXX  24004 16008 32561 30808 11050 21057 38430 48397 51004 83200 92340 333 47011 83825 92810;EQDQ01  00002PRCP99
0180160080999992000012403004+45750+010530FM-12+146199999V0201001N003110090019N0110001N1-00561-00721999999ADDGA1061+009009069GF106991061041008001001001MA1999999084301MD1410001+9999ME1313979REMSYN088AAXX  24034 16008 42561 61006 11056 21072 38430 48397 54000 86400 90235 333 86630 92810;
0258160080999992000012406004+45750+010530FM-12+146199999V0200701N004110090019N0110001N1-00601-00791999999ADDAA199000091AJ100119199999999GA1061+009009069GF106991061041008001001001IA1239KA1120N-00601MA1999999084301MD1410001+9999ME1313979REMSYN100AAXX  24064 16008 32561 60708 11060 21079 38430 48397 54000 86400 90539 333 21060 47011 86630 92810;EQDQ01  00002PRCP99
0180160080999992000012409004+45750+010530FM-12+146199999V0200501N005710090019N0120001N1-00561-01091999999ADDGA1071+009009069GF107991071041008001001001MA1999999084421MD1310131+9999ME1314059REMSYN088AAXX  24094 16008 42562 70511 11056 21109 38442 48405 53013 87400 90836 333 87630 92810;
0239160080999992000012412004+45750+010530FM-12+146199999V0200501N005712200019N0150001N1-00321-01281999999ADDAA199000091AJ100119199999999GA1031+006009089GF103991031021008001001001IA1239MA1999999084561MD1210141+9999ME1314189REMSYN094AAXX  24124 16008 32565 30511 11032 21128 38456 48418 52014 83200 91135 333 47011 83820 92810;EQDQ01  00002PRCP99
0168160080999992000012415004+45750+010530FM-12+146199999V0200301N005712200019N0200001N1-00321-01471999999ADDGA1001+999999999GF100991001001999999001001MA1999999084611MD1110041+9999ME1314239REMSYN076AAXX  24154 16008 42970 00311 11032 21147 38461 48423 51004 91434 333 92810;
0246160080999992000012418004+45750+010530FM-12+146199999V0200501N004612200019N0200001N1-00901-01271999999ADDAA199000091AJ100119199999999GA1001+999999999GF100991001001999999001001IA1239KA1120M-00261MA1999999084781MD1210171+9999ME1314439REMSYN088AAXX  24184 16008 32970 00509 11090 21127 38478 48443 52017 91738 333 11026 47011 92810;EQDQ01  00002PRCP99
0168160080999992000012421004+45750+010530FM-12+146199999V0200401N008712200019N0180001N1-01081-01251999999ADDGA1001+999999999GF100991001001999999001001MA1999999084921MD1110141+9999ME1314539REMSYN076AAXX  24214 16008 42968 00417 11108 21125 38492 48453 51014 92040 333 92810;
0227160080999992000012500004+45750+010530FM-12+146199999V0200501N005712200019N0150001N1-01201-01311999999ADDAA199000091AJ100119199999999GA1001+999999999GF100991001001999999001001IA1239MA1999999084981MD1110061+9999ME1314619REMSYN082AAXX  25004 16008 32965 00511 11120 21131 38498 48461 51006 92339 333 47011 92810;EQDQ01  00002PRCP99
0168160080999992000012503004+45750+010530FM-12+146199999V0200501N004612200019N0150001N1-01301-01381999999ADDGA1001+999999999GF100991001001999999001001MA1999999085001MD1110021+9999ME1314619REMSYN076AAXX  25034 16008 42965 00509 11130 21138 38500 48461 51002 90235 333 92810;
0246160080999992000012506004+45750+010530FM-12+146199999V0200401N004112200019N0150001N1-01421-01501999999ADDAA199000091AJ100119199999999GA1001+999999999GF100991001001999999001001IA1239KA1120N-01421MA1999999085021MD1110021+9999ME1314619REMSYN088AAXX  25064 16008 32965 00408 11142 21150 38502 48461 51002 90540 333 21142 47011 92810;EQDQ01  00002PRCP99
0168160080999992000012509004+45750+010530FM-12+146199999V0200601N003612200019N0150001N1-01521-01611999999ADDGA1001+999999999GF100991001001999999001001MA1999999085241MD1210221+9999ME1314849REMSYN076AAXX  25094 16008 42965 00607 11152 21161 38524 48484 52022 90836 333 92810;
0227160080999992000012512004+45750+010530FM-12+146199999V0200301N004112200019N0250001N1-00861-01561999999ADDAA199000091AJ100119199999999GA1001+999999999GF100991001001999999001001IA1239MA1999999085291MD1110041+9999ME1314879REMSYN082AAXX  25124 16008 32975 00308 11086 21156 38529 48487 51004 91136 333 47011 92810;EQDQ01  00002PRCP99
0168160080999992000012515004+45750+010530FM-12+146199999V0200401N003112200019N0300001N1-00641-01591999999ADDGA1001+999999999GF100991001001999999001001MA1999999085301MD1110011+9999ME1314889REMSYN076AAXX  25154 16008 42980 00406 11064 21159 38530 48488 51001 91435 333 92810;
0246160080999992000012518004+45750+010530FM-12+146199999V0200501N003112200019N0250001N1-01061-01511999999ADDAA199000091AJ100119199999999GA1001+999999999GF100991001001999999001001IA1239KA1120M-00621MA1999999085471MD1310181+9999ME1315009REMSYN088AAXX  25184 16008 32975 00506 11106 21151 38547 48500 53018 91737 333 11062 47011 92810;EQDQ01  00002PRCP99
0168160080999992000012521004+45750+010530FM-12+146199999V0200501N004112200019N0200001N1-01201-01511999999ADDGA1001+999999999GF100991001001999999001001MA1999999085611MD1210131+9999ME1315169REMSYN076AAXX  25214 16008 42970 00508 11120 21151 38561 48516 52013 92040 333 92810;
0226160080999992000012600004+45750+010530FM-12+146199999V0200501N005112200019N0200001N1-01241-01521999999ADDAA199000091AJ100119199999999GA1001+999999999GF100991001001999999001001IA1239MA1999999085701MD1110091+9999ME1315249REMSYN081AAXX  26004 16008 32970 00510 11124 2115238570 48524 51009 92335 333 47011 92810;EQDQ01  00002PRCP99
0168160080999992000012603004+45750+010530FM-12+146199999V0200501N005112200019N0200001N1-01301-01591999999ADDGA1001+999999999GF100991001001999999001001MA1999999085721MD1110021+9999ME1315239REMSYN076AAXX  26034 16008 42970 00510 11130 21159 38572 48523 51002 90236 333 92810;
0246160080999992000012606004+45750+010530FM-12+146199999V0200301N004612200019N0200001N1-01301-01681999999ADDAA199000091AJ100119199999999GA1001+999999999GF100991001001999999001001IA1239KA1120N-01321MA1999999085731MD1110011+9999ME1315299REMSYN088AAXX  26064 16008 32970 00309 11130 21168 38573 48529 51001 90540 333 21132 47011 92810;EQDQ01  00002PRCP99
0168160080999992000012609004+45750+010530FM-12+146199999V0200301N003612200019N0200001N1-01241-01711999999ADDGA1001+999999999GF100991001001999999001001MA1999999085831MD1310111+9999ME1315379REMSYN076AAXX  26094 16008 42970 00307 11124 21171 38583 48537 53011 90837 333 92810;
0227160080999992000012612004+45750+010530FM-12+146199999V0200501N007212200019N0250001N1-00281-01591999999ADDAA199000091AJ100119199999999GA1001+999999999GF100991001001999999001001IA1239MA1999999085881MD1110051+9999ME1315459REMSYN082AAXX  26124 16008 32975 00514 11028 21159 38588 48545 51005 91136 333 47011 92810;EQDQ01  00002PRCP99
0168160080999992000012615004+45750+010530FM-12+146199999V0200401N004612200019N0300001N1+00001-01861999999ADDGA1001+999999999GF100991001001999999001001MA1999999085891MD1110011+9999ME1315469REMSYN076AAXX  26154 16008 42980 00409 10000 21186 38589 48546 51001 91438 333 92810;
0246160080999992000012618004+45750+010530FM-12+146199999V0200101N004112200019N0300001N1-00301-01471999999ADDAA199000091AJ100109199999999GA1001+999999999GF100991001001999999001001IA1239KA1120M+00021MA1999999085991MD1310091+9999ME1315539REMSYN088AAXX  26184 16008 32980 00108 11030 21147 38599 48553 53009 91734 333 10002 47010 92820;EQDQ01  00002PRCP99
0168160080999992000012621004+45750+010530FM-12+146199999V0200501N004612200019N0250001N1-00581-01231999999ADDGA1001+999999999GF100991001001999999001001MA1999999086081MD1210091+9999ME1315639REMSYN076AAXX  26214 16008 42975 00509 11058 21123 38608 48563 52009 92040 333 92820;
0227160080999992000012700004+45750+010530FM-12+146199999V0200501N007212200019N0200001N1-00661-01221999999ADDAA199000091AJ100109199999999GA1001+999999999GF100991001001999999001001IA1239MA1999999086121MD1110041+9999ME1315629REMSYN082AAXX  27004 16008 32970 00514 11066 21122 38612 48562 51004 92337 333 47010 92820;EQDQ01  00002PRCP99
0168160080999992000012703004+45750+010530FM-12+146199999V0200501N006712200019N0200001N1-00681-01251999999ADDGA1001+999999999GF100991001001999999001001MA1999999086131MD1110011+9999ME1315659REMSYN076AAXX  27034 16008 42970 00513 11068 21125 38613 48565 51001 90235 333 92820;
0246160080999992000012706004+45750+010530FM-12+146199999V0200501N007212200019N0200001N1-00681-01251999999ADDAA199000091AJ100109199999999GA1001+999999999GF100991001001999999001001IA1239KA1120N-00741MA1999999086081MD1810051+9999ME1315629REMSYN088AAXX  27064 16008 32970 00514 11068 21125 38608 48562 58005 90538 333 21074 47010 92820;EQDQ01  00002PRCP99
0168160080999992000012709004+45750+010530FM-12+146199999V0200401N005712200019N0250001N1-00681-01211999999ADDGA1001+999999999GF100991001001999999001001MA1999999086101MD1310021+9999ME1315629REMSYN076AAXX  27094 16008 42975 00411 11068 21121 38610 48562 53002 90834 333 92820;
0168160080999992000012715004+45750+010530FM-12+146199999V0200401N005112200019N0300001N1+00321-01151999999ADDGA1001+999999999GF100991001001999999001001MA1999999085801MD1710241+9999ME1315369REMSYN076AAXX  27154 16008 42980 00410 10032 21115 38580 48536 57024 91438 333 92820;
0246160080999992000012718004+45750+010530FM-12+146199999V0209999C000012200019N0300001N1-00101-00831999999ADDAA199000091AJ100099199999999GA1001+999999999GF100991001001999999001001IA1239KA1120M+00381MA1999999085801MD1010001+9999ME1315349REMSYN088AAXX  27184 16008 32980 00000 11010 21083 38580 48534 50000 91737 333 10038 47009 92820;EQDQ01  00002PRCP99
0168160080999992000012721004+45750+010530FM-12+146199999V0200301N002612200019N0200001N1-00301-00851999999ADDGA1001+999999999GF100991001001999999001001MA1999999085741MD1810061+9999ME1315319REMSYN076AAXX  27214 16008 42970 00305 11030 21085 38574 48531 58006 92038 333 92820;
0227160080999992000012800004+45750+010530FM-12+146199999V0200401N004112200019N0200001N1-00301-00851999999ADDAA199000091AJ100099199999999GA1001+999999999GF100991001001999999001001IA1239MA1999999085711MD1610031+9999ME1315269REMSYN082AAXX  28004 16008 32970 00408 11030 21085 38571 48526 56003 92338 333 47009 92820;EQDQ01  00002PRCP99
0168160080999992000012803004+45750+010530FM-12+146199999V0200501N006212200019N0200001N1-00541-00961999999ADDGA1001+999999999GF100991001001999999001001MA1999999085681MD1810031+9999ME1315259REMSYN076AAXX  28034 16008 42970 00512 11054 21096 38568 48525 58003 90236 333 92820;
0246160080999992000012806004+45750+010530FM-12+146199999V0200401N005112200019N0200001N1-00601-01071999999ADDAA199000091AJ100099199999999GA1001+999999999GF100991001001999999001001IA1239KA1120N-00601MA1999999085701MD1310021+9999ME1315259REMSYN088AAXX  28064 16008 32970 00410 11060 21107 38570 48525 53002 90538 333 21060 47009 92820;EQDQ01  00002PRCP99
0168160080999992000012809004+45750+010530FM-12+146199999V0200601N005112200019N0200001N1-00661-01201999999ADDGA1001+999999999GF100991001001999999001001MA1999999085711MD1110011+9999ME1315239REMSYN076AAXX  28094 16008 42970 00610 11066 21120 38571 48523 51001 90836 333 92820;
0227160080999992000012812004+45750+010530FM-12+146199999V0200401N005112200019N0200001N1-00101-01081999999ADDAA199000091AJ100099199999999GA1001+999999999GF100991001001999999001001IA1239MA1999999085611MD1810101+9999ME1315189REMSYN082AAXX  28124 16008 32970 00410 11010 21108 38561 48518 58010 91138 333 47009 92820;EQDQ01  00002PRCP99
0168160080999992000012815004+45750+010530FM-12+146199999V0200601N002612200019N0300001N1+00201-01621999999ADDGA1001+999999999GF100991001001999999001001MA1999999085391MD1710221+9999ME1315009REMSYN076AAXX  28154 16008 42980 00605 10020 21162 38539 48500 57022 91437 333 92820;
0247160080999992000012818004+45750+010530FM-12+146199999V0200601N002112200019N0300001N1-00181-01301999999ADDAA199000091AJ100099199999999GA1001+999999999GF100991001001999999001001IA1239KA1120M+00221MD1310011+9999ME1315189REMSYN088AAXX  28184 16008 32980 00604 11018 21130 38440 48518 53001 91738 333 10022 47009 92820;EQDQ01+084403APOSP Q02  00002PRCP99
0168160080999992000012821004+45750+010530FM-12+146199999V0209999C000012200019N0200001N1-00301-01051999999ADDGA1001+999999999GF100991001001999999001001MA1999999085411MD1110011+9999ME1314999REMSYN076AAXX  28214 16008 42970 00000 11030 21105 38541 48499 51001 92037 333 92820;
0227160080999992000012900004+45750+010530FM-12+146199999V0200401N002612200019N0200001N1-00401-00981999999ADDAA199000091AJ100099199999999GA1001+999999999GF100991001001999999001001IA1239MA1999999085381MD1810031+9999ME1314939REMSYN082AAXX  29004 16008 32970 00405 11040 21098 38538 48493 58003 92338 333 47009 92820;EQDQ01  00002PRCP99
0168160080999992000012903004+45750+010530FM-12+146199999V0200301N002112200019N0200001N1-00581-01011999999ADDGA1001+999999999GF100991001001999999001001MA1999999085281MD1710101+9999ME1314889REMSYN076AAXX  29034 16008 42970 00304 11058 21101 38528 48488 57010 90237 333 92820;
0246160080999992000012906004+45750+010530FM-12+146199999V0200501N003112200019N0200001N1-00661-01011999999ADDAA199000091AJ100099199999999GA1001+999999999GF100991001001999999001001IA1239KA1120N-00661MA1999999085201MD1710081+9999ME1314809REMSYN088AAXX  29064 16008 32970 00506 11066 21101 38520 48480 57008 90538 333 21066 47009 92820;EQDQ01  00002PRCP99
0168160080999992000012909004+45750+010530FM-12+146199999V0200601N002112200019N0200001N1-00701-00991999999ADDGA1001+999999999GF100991001001999999001001MA1999999085121MD1610081+9999ME1314699REMSYN076AAXX  29094 16008 42970 00604 11070 21099 38512 48469 56008 90836 333 92820;
0239160080999992000012912004+45750+010530FM-12+146199999V0200401N003110120019N0200001N1-00131-00811999999ADDAA199000091AJ100099199999999GA1061+012009069GF106991061051012501001001IA1239MA1999999084971MD1810151+9999ME1314569REMSYN094AAXX  29124 16008 32670 60406 11013 21081 38497 48456 58015 86500 91137 333 47009 86640 92820;EQDQ01  00002PRCP99
0218160080999992000012915004+45750+010530FM-12+146199999V0209999C000010060019N0100001N1+00101-00471999999ADDAL10699999AY121031AY221031GA1081+006009079GF108991081071008001999999MA1999999084871MD1610101+9999ME1314479MW1701REMSYN094AAXX  29154 16008 41560 80000 10010 21047 38487 48447 56010 77022 887// 91439 333 88720 93197;
0254160080999992000012918004+45750+010530FM-12+146199999V0209999C000010060019N0100001N1-00101-00101999999ADDAA112000591AL10600291AY171061AY221061GA1081+006009079GF108991081071008001999999KA1120M+00121MA1999999084871MD1410001+9999ME1314479MW1701REMSYN106AAXX  29184 16008 11560 80000 11010 21010 38487 48447 54000 69942 77072 887// 91737 333 10012 88720 93102;
0218160080999992000012921004+45750+010530FM-12+146199999V0209999C000010060019N0100001N1-00061-00061999999ADDAL10699999AY171031AY271031GA1081+006009079GF108991081071008001999999MA1999999084881MD1310011+9999ME1314479MW1701REMSYN094AAXX  29214 16008 42560 80000 11006 21006 38488 48447 53001 77077 887// 92038 333 88720 93197;
0264160080999992000013000004+45750+010530FM-12+146199999V0209999C000010060019N0100001N1-00021-00021999999ADDAA106000791AJ100119199999999AL10699999AY171061AY271061GA1081+006009079GF108991081071008001999999IA1239MA1999999084741MD1810141+9999ME1314369MW1701REMSYN106AAXX  30004 16008 11560 80000 11002 21002 38474 48436 58014 69901 77077 887// 92338 333 47011 88720 93197;
0218160080999992000013003004+45750+010530FM-12+146199999V0209999C000010060019N0100001N1+00081+00081999999ADDAL10699999AY171031AY221031GA1081+006009079GF108991081061008001999999MA1999999084701MD1610041+9999ME1314349MW1021REMSYN094AAXX  30034 16008 41560 80000 10008 20008 38470 48434 56004 70272 886// 90236 333 88720 93197;
0180160080999992000013009004+45750+010530FM-12+146199999V0209999C000010060019N0100001N1+00181-00141999999ADDGA1081+006009079GF108991081061008001999999MA1999999085001MD1210021+9999ME1314619REMSYN088AAXX  30094 16008 42560 80000 10018 21014 38500 48461 52002 886// 90837 333 88720 92820;
0220160080999992000013012004+45750+010530FM-12+146199999V0209999C000010060019N0100001N1+00121+00081999999ADDAA199000021AJ100119199999999GA1081+006009079GF108991081061008001999999IA1239MA1999999085201MD1210201+9999ME1314809REMSYN094AAXX  30124 16008 32560 80000 10012 20008 38520 48480 52020 886// 91137 333 47011 88720 92820;
0208160080999992000013015004+45750+010530FM-12+146199999V0209999C000010060019N0100001N1+00181-00031999999ADDAY121031AY221031GA1081+006009079GF108991081061008001999999MA1999999085401MD1210201+9999ME1314999MW1211REMSYN094AAXX  30154 16008 41560 80000 10018 21003 38540 48499 52020 72122 886// 91438 333 88720 92820;
0251160080999992000013018004+45750+010530FM-12+146199999V0209999C000010075019N0100001N1+00101+00081999999ADDAA112000191AJ100119199999999AY161061AY221061GF108991081061008001999999IA1239KA1120M+00221MA1999999085701MD1210301+9999ME1315279MW1021REMSYN106AAXX  30184 16008 11560 80000 10010 20008 38570 48527 52030 69922 70262 886// 91737 333 10022 47011 92820;
0179160080999992000013021004+45750+010530FM-12+146199999V0209999C00001006001CN0100001N1+00101+00101999999ADDGA1081+006009079GF108991081061008001999999MA1999999085881MD1110181+9999ME1315469REMSYN087AAXX  30214 16008 42560 80000 10010 20010 38588 48546 51018 886// 9038 333 88720 92820;
0168160080999992000013103004+45750+010530FM-12+146199999V0200301N003612200019N0200001N1+00101+00101999999ADDGA1001+999999999GF100991001001999999001001MA1999999085901MD1110011+9999ME1315669REMSYN076AAXX  31034 16008 42970 00307 10010 20010 38590 48566 51001 90237 333 92820;
0168160080999992000013109004+45750+010530FM-12+146199999V0200601N006212200019N0200001N1+00001-00051999999ADDGA1001+999999999GF100991001001999999001001MA1999999086001MD1310101+9999ME1315549REMSYN076AAXX  31094 16008 42970 00612 10000 21005 38600 48554 53010 90837 333 92820;
0227160080999992000013112004+45750+010530FM-12+146199999V0200601N006212200019N0300001N1+00701-00011999999ADDAA199000091AJ100109199999999GA1001+999999999GF100991001001999999001001IA1239MA1999999086001MD1010001+9999ME1315569REMSYN082AAXX  31124 16008 32980 00612 10070 21001 38600 48556 50000 91138 333 47010 92820;EQDQ01  00002PRCP99
0168160080999992000013115004+45750+010530FM-12+146199999V0203401N006212200019N0300001N1+01001-00341999999ADDGA1001+999999999GF100991001001999999001001MA1999999086001MD1510001+9999ME1315579REMSYN076AAXX  31154 16008 42980 03412 10100 21034 38600 48557 55000 91435 333 92820;
0246160080999992000013118004+45750+010530FM-12+146199999V0200601N005112200019N0300001N1+00501-00391999999ADDAA199000091AJ100089199999999GA1001+999999999GF100991001001999999001001IA1239KA1120M+01041MA1999999086181MD1210181+9999ME1315759REMSYN088AAXX  31184 16008 32980 00610 10050 21039 38618 48575 52018 91736 333 10104 47008 92820;EQDQ01  00002PRCP99
0227160080999992000020100004+45750+010530FM-12+146199999V0209999C000012200019N0300001N1+00101-00231999999ADDAA199000091AJ100089199999999GA1001+999999999GF100991001001999999001001IA1239MA1999999086291MD1310071+9999ME1315829REMSYN082AAXX  01004 16008 32980 00000 10010 21023 38629 48582 53007 92337 333 47008 92820;EQDQ01  00002PRCP99
0168160080999992000020103004+45750+010530FM-12+146199999V0200601N005112200019N0200001N1+00101-00131999999ADDGA1001+999999999GF100991001001999999001001MA1999999086301MD1110011+9999ME1315829REMSYN076AAXX  01034 16008 42970 00610 10010 21013 38630 48582 51001 90237 333 92820;
0168160080999992000020109004+45750+010530FM-12+146199999V0200501N004112200019N0300001N1-00121-00411999999ADDGA1001+999999999GF100991001001999999001001MA1999999086191MD1610011+9999ME1315739REMSYN076AAXX  01094 16008 42980 00508 11012 21041 38619 48573 56001 90837 333 92820;
0227160080999992000020112004+45750+010530FM-12+146199999V0209999C000012200019N0300001N1+00601-00461999999ADDAA199000091AJ100089199999999GA1001+999999999GF100991001001999999001001IA1239MA1999999086091MD1810101+9999ME1315679REMSYN082AAXX  01124 16008 32980 00000 10060 21046 38609 48567 58010 91135 333 47008 92820;EQDQ01  00002PRCP99
0168160080999992000020115004+45750+010530FM-12+146199999V0209999C000012200019N0300001N1+00961-00441999999ADDGA1001+999999999GF100991001001999999001001MA1999999085911MD1610181+9999ME1315499REMSYN076AAXX  01154 16008 42980 00000 10096 21044 38591 48549 56018 91439 333 92820;
0246160080999992000020118004+45750+010530FM-12+146199999V0209999C000012200019N0200001N1+00201-00291999999ADDAA199000091AJ100089199999999GA1001+999999999GF100991001001999999001001IA1239KA1120M+00981MA1999999085891MD1610021+9999ME1315469REMSYN088AAXX  01184 16008 32970 00000 10020 21029 38589 48546 56002 91739 333 10098 47008 92820;EQDQ01  00002PRCP99
0168160080999992000020121004+45750+010530FM-12+146199999V0209999C000012200019N0200001N1-00061-00321999999ADDGA1001+999999999GF100991001001999999001001MA1999999085891MD1410001+9999ME1315459REMSYN076AAXX  01214 16008 42970 00000 11006 21032 38589 48545 54000 92036 333 92820;
0227160080999992000020200004+45750+010530FM-12+146199999V0209999C000012200019N0200001N1-00201-00381999999ADDAA199000091AJ100089199999999GA1001+999999999GF100991001001999999001001IA1239MA1999999085801MD1810091+9999ME1315349REMSYN082AAXX  02004 16008 32970 00000 11020 21038 38580 48534 58009 92334 333 47008 92820;EQDQ01  00002PRCP99
0168160080999992000020203004+45750+010530FM-12+146199999V0209999C000012200019N0200001N1-00301-00411999999ADDGA1001+999999999GF100991001001999999001001MA1999999085621MD1710181+9999ME1315189REMSYN076AAXX  02034 16008 42970 00000 11030 21041 38562 48518 57018 90236 333 92820;
0246160080999992000020206004+45750+010530FM-12+146199999V0200601N001512200019N0200001N1-00301-00491999999ADDAA199000091AJ100089199999999GA1001+999999999GF100991001001999999001001IA1239KA1120N-00321MA1999999085561MD1710061+9999ME1315129REMSYN088AAXX  02064 16008 32970 00603 11030 21049 38556 48512 57006 90539 333 21032 47008 92820;EQDQ01  00002PRCP99
0180160080999992000020209004+45750+010530FM-12+146199999V0200601N003112200019N0300001N1-00301-00511999999ADDGA1041+030009049GF104991041001999999011001MA1999999085481MD1610081+9999ME1315079REMSYN088AAXX  02094 16008 42980 40606 11030 21051 38548 48507 56008 84010 90834 333 84460 92820;
0217160080999992000020212004+45750+010530FM-12+146199999V0201901N003610075019N0200001N1+00001-00261999999ADDAA199000091AJ100089199999999GF107991071051008001001001IA1239MA1999999085381MD1810101+9999ME1314999REMSYN088AAXX  02124 16008 32570 71907 10000 21026 38538 48499 58010 87500 91141 333 47008 92820;EQDQ01  00002PRCP99
0218160080999992000020215004+45750+010530FM-12+146199999V0209999C000010030019N0150001N1-00021-00231999999ADDAL10699999AY121031AY221031GA1081+003009079GF108991081071004501999999MA1999999085291MD1610091+9999ME1314889MW1701REMSYN094AAXX  02154 16008 41465 80000 11002 21023 38529 48488 56009 77022 887// 91436 333 88710 93197;
0283160080999992000020218004+45750+010530FM-12+146199999V0209999C000010030019N0150001N1-00021-00071999999ADDAA112000791AJ100089199999999AL10699999AY171061AY221061GA1081+003009079GF108991081061004501999999IA1239KA1120M+00201MA1999999085291MD1410001+9999ME1314889MW1021REMSYN112AAXX  02184 16008 11465 80000 11002 21007 38529 48488 54000 69902 70272 886// 91735 333 10020 47008 88710 93197;
0180160080999992000020221004+45750+010530FM-12+146199999V0200301N004610090019N0200001N1+00101+00061999999ADDGA1061+009009069GF106991061051008001001001MA1999999085311MD1310021+9999ME1314889REMSYN088AAXX  02214 16008 42570 60309 10010 20006 38531 48488 53002 86500 92039 333 86630 92820;
0220160080999992000020300004+45750+010530FM-12+146199999V0200701N005110090019N0200001N1+00141-00021999999ADDAA199000021AJ100089199999999GA1061+009009069GF106991061051008001001001IA1239MA1999999085481MD1210171+9999ME1315089REMSYN094AAXX  03004 16008 32570 60710 10014 21002 38548 48508 52017 86500 92335 333 47008 86630 92800;
0180160080999992000020303004+45750+010530FM-12+146199999V0200601N002610090019N0200001N1+00121-00111999999ADDGA1061+009009069GF106991061051008001001001MA1999999085601MD1210121+9999ME1315199REMSYN088AAXX  03034 16008 42570 60605 10012 21011 38560 48519 52012 86500 90239 333 86630 92810;
0180160080999992000020309004+45750+010530FM-12+146199999V0200101N005710060019N0250001N1-00021-00471999999ADDGA1051+006009089GF105991051021008001001001MA1999999085971MD1210291+9999ME1315519REMSYN088AAXX  03094 16008 42575 50111 11002 21047 38597 48551 52029 85200 90836 333 85820 92820;
0239160080999992000020312004+45750+010530FM-12+146199999V0200101N007212200019N0300001N1+00401-01041999999ADDAA199000091AJ100089199999999GA1041+006009089GF104991041021008001001001IA1239MA1999999086111MD1110141+9999ME1315669REMSYN094AAXX  03124 16008 32580 40114 10040 21104 38611 48566 51014 84200 91134 333 47008 84820 92820;EQDQ01  00002PRCP99
0168160080999992000020315004+45750+010530FM-12+146199999V0200301N006212200019N0300001N1+00401-01181999999ADDGA1001+999999999GF100991001001999999001001MA1999999086121MD1310011+9999ME1315669REMSYN076AAXX  03154 16008 42980 00312 10040 21118 38612 48566 53001 91438 333 92820;
0246160080999992000020318004+45750+010530FM-12+146199999V0200501N004612200019N0300001N1+00001-01281999999ADDAA199000091AJ100089199999999GA1001+999999999GF100991001001999999001001IA1239KA1120M+00421MA1999999086341MD1210221+9999ME1315879REMSYN088AAXX  03184 16008 32980 00509 10000 21128 38634 48587 52022 91736 333 10042 47008 92820;EQDQ01  00002PRCP99
0168160080999992000020321004+45750+010530FM-12+146199999V0200401N002612200019N0200001N1-00201-01161999999ADDGA1001+999999999GF100991001001999999001001MA1999999086491MD1110151+9999ME1315999REMSYN076AAXX  03214 16008 42970 00405 11020 21116 38649 48599 51015 92039 333 92820;
0227160080999992000020400004+45750+010530FM-12+146199999V0200201N004612200019N0200001N1-00281-00981999999ADDAA199000091AJ100089199999999GA1001+999999999GF100991001001999999001001IA1239MA1999999086501MD1310011+9999ME1315999REMSYN082AAXX  04004 16008 32970 00209 11028 21098 38650 48599 53001 92339 333 47008 92820;EQDQ01  00002PRCP99
0168160080999992000020403004+45750+010530FM-12+146199999V0200201N004112200019N0200001N1-00381-00891999999ADDGA1001+999999999GF100991001001999999001001MA1999999086611MD1110111+9999ME1316069REMSYN076AAXX  04034 16008 42970 00208 11038 21089 38661 48606 51011 90234 333 92820;
0246160080999992000020406004+45750+010530FM-12+146199999V0200301N004112200019N0200001N1-00501-00911999999ADDAA199000091AJ100089199999999GA1001+999999999GF100991001001999999001001IA1239KA1120N-00501MA1999999086611MD1410001+9999ME1316069REMSYN088AAXX  04064 16008 32970 00308 11050 21091 38661 48606 54000 90538 333 21050 47008 92820;EQDQ01  00002PRCP99
0168160080999992000020409004+45750+010530FM-12+146199999V0200101N003612200019N0300001N1-00601-00971999999ADDGA1001+999999999GF100991001001999999001001MA1999999086711MD1310101+9999ME1316169REMSYN076AAXX  04094 16008 42980 00107 11060 21097 38671 48616 53010 90836 333 92820;
0227160080999992000020412004+45750+010530FM-12+146199999V0200301N004612200019N0300001N1+00101-01021999999ADDAA199000091AJ100079199999999GA1001+999999999GF100991001001999999001001IA1239MA1999999086801MD1110091+9999ME1316289REMSYN082AAXX  04124 16008 32980 00309 10010 21102 38680 48628 51009 91137 333 47007 92834;EQDQ01  00002PRCP99
0168160080999992000020415004+45750+010530FM-12+146199999V0200301N002612200019N0300001N1+00481-01311999999ADDGA1001+999999999GF100991001001999999001001MA1999999086691MD1810111+9999ME1316229REMSYN076AAXX  04154 16008 42980 00305 10048 21131 38669 48622 58011 91439 333 92834;
0246160080999992000020418004+45750+010530FM-12+146199999V0209999C000012200019N0200001N1+00101-01291999999ADDAA199000091AJ100079199999999GA1001+999999999GF100991001001999999001001IA1239KA1120M+00481MA1999999086691MD1510001+9999ME1316209REMSYN088AAXX  04184 16008 32970 00000 10010 21129 38669 48620 55000 91734 333 10048 47007 92844;EQDQ01  00002PRCP99
0168160080999992000020421004+45750+010530FM-12+146199999V0200401N004112200019N0200001N1-00201-01081999999ADDGA1001+999999999GF100991001001999999001001MA1999999086751MD1110061+9999ME1316249REMSYN076AAXX  04214 16008 42970 00408 11020 21108 38675 48624 51006 92035 333 92843;
0227160080999992000020500004+45750+010530FM-12+146199999V0200401N004612200019N0200001N1-00201-00971999999ADDAA199000091AJ100079199999999GA1001+999999999GF100991001001999999001001IA1239MA1999999086781MD1110031+9999ME1316269REMSYN082AAXX  05004 16008 32970 00409 11020 21097 38678 48626 51003 92337 333 47007 92843;EQDQ01  00002PRCP99
0168160080999992000020503004+45750+010530FM-12+146199999V0200401N004112200019N0200001N1-00141-00891999999ADDGA1001+999999999GF100991001001999999001001MA1999999086761MD1810021+9999ME1316249REMSYN076AAXX  05034 16008 42970 00408 11014 21089 38676 48624 58002 90235 333 92843;
0246160080999992000020506004+45750+010530FM-12+146199999V0200401N004112200019N0200001N1-00021-00861999999ADDAA199000091AJ100079199999999GA1001+999999999GF100991001001999999001001IA1239KA1120N-00211MA1999999086691MD1610071+9999ME1316199REMSYN088AAXX  05064 16008 32970 00408 11002 21086 38669 48619 56007 90538 333 21021 47007 92843;EQDQ01  00002PRCP99
0180160080999992000020509004+45750+010530FM-12+146199999V0200301N003610090019N0200001N1+00061-00581999999ADDGA1061+009009069GF106991061051008001001001MA1999999086701MD1310011+9999ME1316209REMSYN088AAXX  05094 16008 42570 60307 10006 21058 38670 48620 53001 86500 90839 333 86630 92844;
0239160080999992000020512004+45750+010530FM-12+146199999V0203601N004110090019N0300001N1+00301-00101999999ADDAA199000091AJ100069199999999GA1061+009009069GF106991061051008001001001IA1239MA1999999086711MD1010011+9999ME1316219REMSYN094AAXX  05124 16008 32580 63608 10030 21010 38671 48621 50001 86500 91134 333 47006 86630 92844;EQDQ01  00002PRCP99
0180160080999992000020515004+45750+010530FM-12+146199999V0200501N003612200019N0300001N1+00781-00281999999ADDGA1041+009009069GF104991041051008001001001MA1999999086601MD1610111+9999ME1316139REMSYN088AAXX  05154 16008 42580 40507 10078 21028 38660 48613 56011 84500 91437 333 84630 92844;
0246160080999992000020518004+45750+010530FM-12+146199999V0200401N003612200019N0200001N1+00341-00031999999ADDAA199000091AJ100069199999999GA1001+999999999GF100991001001999999001001IA1239KA1120M+00891MA1999999086601MD1410001+9999ME1316109REMSYN088AAXX  05184 16008 32970 00407 10034 21003 38660 48610 54000 91739 333 10089 47006 92844;EQDQ01  00002PRCP99
0168160080999992000020521004+45750+010530FM-12+146199999V0200501N002112200019N0200001N1+00161+00011999999ADDGA1001+999999999GF100991001001999999001001MA1999999086611MD1310011+9999ME1316099REMSYN076AAXX  05214 16008 42970 00504 10016 20001 38661 48609 53001 92036 333 92844;
0227160080999992000020600004+45750+010530FM-12+146199999V0200501N002112200019N0200001N1+00001-00141999999ADDAA199000091AJ100069199999999GA1001+999999999GF100991001001999999001001IA1239MA1999999086621MD1110011+9999ME1316099REMSYN082AAXX  06004 16008 32970 00504 10000 21014 38662 48609 51001 92339 333 47006 92844;EQDQ01  00002PRCP99
0168160080999992000020603004+45750+010530FM-12+146199999V0200501N002612200019N0200001N1-00141-00221999999ADDGA1001+999999999GF100991001001999999001001MA1999999086571MD1810051+9999ME1316059REMSYN076AAXX  06034 16008 42970 00505 11014 21022 38657 48605 58005 90234 333 92843;
0246160080999992000020606004+45750+010530FM-12+146199999V0200501N002612200019N0200001N1-00221-00281999999ADDAA199000091AJ100069199999999GA1001+999999999GF100991001001999999001001IA1239KA1120N-00221MA1999999086481MD1710091+9999ME1315999REMSYN088AAXX  06064 16008 32970 00505 11022 21028 38648 48599 57009 90538 333 21022 47006 92843;EQDQ01  00002PRCP99
0125160080999992000020609004+45750+010530FM-12+146199999V0200401N003619999999N0250001N1-00241-00281999999ADDGF105991999999999999999999REMSYN087AAXX  06094 16008 42975 50407 11024 21028 3860 48591 57008 85010 90837 333 85460 92843;
0239160080999992000020612004+45750+010530FM-12+146199999V0209999C000010300019N0250001N1+00441-00241999999ADDAA199000091AJ100069199999999GA1051+030009049GF105991051001999999011001IA1239MA1999999086281MD1710121+9999ME1315839REMSYN094AAXX  06124 16008 32975 50000 10044 21024 38628 48583 57012 85010 91136 333 47006 85460 92844;EQDQ01  00002PRCP99
0180160080999992000020615004+45750+010530FM-12+146199999V0209999C000010300019N0250001N1+01001-00371999999ADDGA1051+030009049GF106991051001999999011011MA1999999086111MD1710171+9999ME1315699REMSYN088AAXX  06154 16008 42975 60000 10100 21037 38611 48569 57017 85011 91438 333 85460 92844;
0246160080999992000020618004+45750+010530FM-12+146199999V0209999C000012200019N0200001N1+00501-00161999999ADDAA199000091AJ100059199999999GA1001+999999999GF100991001001999999001001IA1239KA1120M+01001MA1999999086001MD1610111+9999ME1315569REMSYN088AAXX  06184 16008 32970 00000 10050 21016 38600 48556 56011 91735 333 10100 47005 92844;EQDQ01  00002PRCP99
0168160080999992000020621004+45750+010530FM-12+146199999V0209999C000012200019N0200001N1+00101-00231999999ADDGA1001+999999999GF100991001001999999001001MA1999999086001MD1410001+9999ME1315549REMSYN076AAXX  06214 16008 42970 00000 10010 21023 38600 48554 54000 92038 333 92844;
0227160080999992000020700004+45750+010530FM-12+146199999V0209999C000012200019N0200001N1-00041-00211999999ADDAA199000091AJ100059199999999GA1001+999999999GF100991001001999999001001IA1239MA1999999085911MD1810091+9999ME1315469REMSYN082AAXX  07004 16008 32970 00000 11004 21021 38591 48546 58009 92340 333 47005 92843;EQDQ01  00002PRCP99
0168160080999992000020703004+45750+010530FM-12+146199999V0209999C000012200019N0200001N1-00161-00291999999ADDGA1001+999999999GF100991001001999999001001MA1999999085781MD1710131+9999ME1315349REMSYN076AAXX  07034 16008 42970 00000 11016 21029 38578 48534 57013 90238 333 92843;
0258160080999992000020706004+45750+010530FM-12+146199999V0200501N002110240019N0200001N1-00221-00311999999ADDAA199000091AJ100059199999999GA1051+024009049GF105991051001022501011001IA1239KA1120N-00221MA1999999085631MD1710151+9999ME1315219REMSYN100AAXX  07064 16008 32870 50504 11022 21031 38563 48521 57015 85010 90540 333 21022 47005 85458 92843;EQDQ01  00002PRCP99
0180160080999992000020709004+45750+010530FM-12+146199999V0200501N001510210019N0250001N1-00201-00351999999ADDGA1061+021009039GF106991061001022501051001MA1999999085611MD1610021+9999ME1315189REMSYN088AAXX  07094 16008 42875 60503 11020 21035 38561 48518 56002 86050 90839 333 86357 92843;
0239160080999992000020712004+45750+010530FM-12+146199999V0200401N004610090019N0250001N1+00701-00311999999ADDAA199000091AJ100059199999999GA1061+009009069GF106991061051008001001001IA1239MA1999999085601MD1810011+9999ME1315209REMSYN094AAXX  07124 16008 32575 60409 10070 21031 38560 48520 58001 86500 91140 333 47005 86630 92844;EQDQ01  00002PRCP99
0180160080999992000020715004+45750+010530FM-12+146199999V0200401N003112200019N0300001N1+00701-00561999999ADDGA1041+009009089GF104991041011008001001001MA1999999085431MD1610171+9999ME1315039REMSYN088AAXX  07154 16008 42580 40406 10070 21056 38543 48503 56017 84100 91438 333 84830 92844;
0246160080999992000020718004+45750+010530FM-12+146199999V0209999C000012200019N0250001N1+00321-00341999999ADDAA199000091AJ100049199999999GA1001+999999999GF100991001001999999001001IA1239KA1120M+00941MA1999999085551MD1310121+9999ME1315149REMSYN088AAXX  07184 16008 32975 00000 10032 21034 38555 48514 53012 91739 333 10094 47004 92844;EQDQ01  00002PRCP99
0180160080999992000020721004+45750+010530FM-12+146199999V0209999C000010300019N0200001N1+00101-00531999999ADDGA1051+030009049GF105991051001999999011001MA1999999085541MD1810011+9999ME1315139REMSYN088AAXX  07214 16008 42970 50000 10010 21053 38554 48513 58001 85010 92037 333 85460 92844;
0239160080999992000020800004+45750+010530FM-12+146199999V0200301N003110300019N0200001N1+00101-00441999999ADDAA199000091AJ100049199999999GA1071+030009049GF107991071001999999011001IA1239MA1999999085511MD1510031+9999ME1315189REMSYN094AAXX  08004 16008 32970 70306 10010 21044 38551 48518 55003 87010 92339 333 47004 87460 92844;EQDQ01  00002PRCP99
0180160080999992000020803004+45750+010530FM-12+146199999V0209999C000010300019N0200001N1+00121-00261999999ADDGA1051+030009049GF105991051001999999011001MA1999999085441MD1810071+9999ME1315029REMSYN088AAXX  08034 16008 42970 50000 10012 21026 38544 48502 58007 85010 90238 333 85460 92844;
0258160080999992000020806004+45750+010530FM-12+146199999V0200401N004110090019N0250001N1+00081+00021999999ADDAA199000091AJ100049199999999GA1051+009009069GF105991051051008001001001IA1239KA1120N+00081MA1999999085311MD1610141+9999ME1314889REMSYN100AAXX  08064 16008 32575 50408 10008 20002 38531 48488 56014 85500 90540 333 20008 47004 85630 92844;EQDQ01  00002PRCP99
0180160080999992000020809004+45750+010530FM-12+146199999V0200401N003610210019N0250001N1+00001-00051999999ADDGA1051+021009039GF106991051001022501031011MA1999999085331MD1310021+9999ME1314949REMSYN088AAXX  08094 16008 42875 60407 10000 21005 38533 48494 53002 85031 90839 333 85357 92844;
0239160080999992000020812004+45750+010530FM-12+146199999V0200501N003110090019N0250001N1+00321-00151999999ADDAA199000091AJ100049199999999GA1071+009009069GF107991071051008001001001IA1239MA1999999085301MD1810021+9999ME1314899REMSYN094AAXX  08124 16008 32575 70506 10032 21015 38530 48489 58002 87500 91138 333 47004 87630 92844;EQDQ01  00002PRCP99
0180160080999992000020815004+45750+010530FM-12+146199999V0209999C000010075019N0200001N1+00601-00061999999ADDGA1081+007509069GF108991081051008001999999MA1999999085101MD1710201+9999ME1314699REMSYN088AAXX  08154 16008 42570 80000 10060 21006 38510 48469 57020 885// 91437 333 88625 92844;
0258160080999992000020818004+45750+010530FM-12+146199999V0209999C000010090019N0150001N1+00201-00091999999ADDAA199000091AJ100039199999999GA1061+009009069GF106991061051008001001001IA1239KA1120M+00601MA1999999085001MD1610011+9999ME1314619REMSYN100AAXX  08184 16008 32565 60000 10020 21009 38500 48461 56001 86500 91739 333 10060 47003 86630 92844;EQDQ01  00002PRCP99
0208160080999992000020821004+45750+010530FM-12+146199999V0209999C000010090019N0150001N1+00121-00081999999ADDAY151031AY221031GA1081+009009069GF108991081071008001999999MA1999999085001MD1410001+9999ME1314619MW1501REMSYN094AAXX  08214 16008 41565 80000 10012 21008 38500 48461 54000 75052 887// 92039 333 88630 92844;
0254160080999992000020900004+45750+010530FM-12+146199999V0209999C000010090019N0060001N1+00101+00091999999ADDAA106002091AJ100029199999999AY151061AY221061GA1081+009009069GF108991081071008001999999IA1239MA1999999085001MD1510001+9999ME1314619MW1701REMSYN106AAXX  09004 16008 11556 80000 10010 20009 38500 48461 55000 60021 77052 887// 92337 333 47002 88630 92854;
0208160080999992000020903004+45750+010530FM-12+146199999V0200501N004610090019N0080001N1+00121+00101999999ADDAY161031AY261031GA1081+009009069GF108991081071008001999999MA1999999084901MD1810111+9999ME1314539MW1601REMSYN094AAXX  09034 16008 41558 80509 10012 20010 38490 48453 58011 76066 887// 90239 333 88630 92854;
0202160080999992000020909004+45750+010530FM-12+146199999V0200301N003110120019N0200001N1+00041-00841999999ADDGA1031+009009089GA2051+012009069GF106991061081008001001001MA1999999085181MD1110181+9999ME1314809REMSYN094AAXX  09094 16008 42570 60306 10004 21084 38518 48480 51018 86800 90840 333 83830 85640 92844;
0248160080999992000020912004+45750+010530FM-12+146199999V0200301N005710030019N0040001N1+00001-01061999999ADDAA199000021AJ100029199999999AY121061AY221061GA1081+003009079GF108991081061004501999999IA1239MA1999999085311MD1210131+9999ME1314889MW1101REMSYN100AAXX  09124 16008 31440 80311 10000 21106 38531 48488 52013 71022 886// 91137 333 47002 88710 92844;
0208160080999992000020915004+45750+010530FM-12+146199999V0200301N006710021019N0020001N1-00281-00441999999ADDAY171031AY221031GA1081+002109079GF108991081061002501999999MA1999999085281MD1810041+9999ME1314889MW1701REMSYN094AAXX  09154 16008 41320 80313 11028 21044 38528 48488 58004 77072 886// 91438 333 88707 92813;
0273160080999992000020918004+45750+010530FM-12+146199999V0200401N005710018019N0015001N1-00381-00601999999ADDAA112001091AJ100049199999999AY171061AY221061GA1081+001809079GF108991081061001501999999IA1239KA1120M+00181MA1999999085421MD1310141+9999ME1314999MW1701REMSYN112AAXX  09184 16008 11215 80411 11038 21060 38542 48499 53014 60012 77072 886// 91737 333 10018 47004 88706 92813;
0208160080999992000020921004+45750+010530FM-12+146199999V0200601N003110030019N0080001N1-00401-00541999999ADDAY171031AY221031GA1081+003009079GF108991081061004501999999MA1999999085761MD1210341+9999ME1315319MW1101REMSYN094AAXX  09214 16008 41458 80606 11040 21054 38576 48531 52034 71072 886// 92037 333 88710 92813;
0254160080999992000021000004+45750+010530FM-12+146199999V0200201N004612200019N0150001N1-00381-00741999999ADDAA106000591AJ100049199999999AY171061AY211061GA1021+012009089GF102991021011012501001001IA1249MA1999999085801MD1110041+9999ME1315349MW1011REMSYN106AAXX  10004 16008 11665 20209 11038 21074 38580 48534 51004 69941 70171 82100 92335 333 48004 82840 92813;
0180160080999992000021003004+45750+010530FM-12+146199999V0200201N003110090019N0150001N1-00401-00701999999ADDGA1051+009009069GF105991051051008001001001MA1999999085801MD1410001+9999ME1315349REMSYN088AAXX  10034 16008 42565 50206 11040 21070 38580 48534 54000 85500 90237 333 85630 92813;
0239160080999992000021006004+45750+010530FM-12+146199999V0200701N007210090019N0150001N1-00401-00681999999ADDAA199000021AJ100049199999999GA1051+009009069GF105991051051008001001001IA1249KA1120N-00421MA1999999085851MD1310051+9999ME1315399REMSYN100AAXX  10064 16008 32565 50714 11040 21068 38585 48539 53005 85500 90537 333 21042 48004 85630 92813;
0168160080999992000021009004+45750+010530FM-12+146199999V0200301N008712200019N0250001N1-00401-00651999999ADDGA1001+999999999GF100991001001999999001001MA1999999086031MD1210181+9999ME1315589REMSYN076AAXX  10094 16008 42975 00317 11040 21065 38603 48558 52018 90836 333 92813;
0227160080999992000021012004+45750+010530FM-12+146199999V0200501N011312200019N0250001N1+00061-00741999999ADDAA199000091AJ100049199999999GA1001+999999999GF100991001001999999001001IA1249MA1999999085951MD1810081+9999ME1315519REMSYN082AAXX  10124 16008 32975 00522 10006 21074 38595 48551 58008 91137 333 48004 92813;EQDQ01  00002PRCP99
0168160080999992000021015004+45750+010530FM-12+146199999V0200501N007212200019N0300001N1+00321-01061999999ADDGA1001+999999999GF100991001001999999001001MA1999999085681MD1710271+9999ME1315279REMSYN076AAXX  10154 16008 42980 00514 10032 21106 38568 48527 57027 91436 333 92813;
0246160080999992000021018004+45750+010530FM-12+146199999V0200601N002612200019N0250001N1-00061-00571999999ADDAA199000091AJ100039199999999GA1001+999999999GF100991001001999999001001IA1249KA1120M+00321MA1999999085681MD1510001+9999ME1315269REMSYN088AAXX  10184 16008 32975 00605 11006 21057 38568 48526 55000 91736 333 10032 48003 92813;EQDQ01  00002PRCP99
0168160080999992000021021004+45750+010530FM-12+146199999V0200601N002612200019N0200001N1-00261-00601999999ADDGA1001+999999999GF100991001001999999001001MA1999999085731MD1110051+9999ME1315319REMSYN076AAXX  10214 16008 42970 00605 11026 21060 38573 48531 51005 92036 333 92813;
0227160080999992000021100004+45750+010530FM-12+146199999V0200501N004112200019N0200001N1-00341-00611999999ADDAA199000091AJ100039199999999GA1001+999999999GF100991001001999999001001IA1249MA1999999085671MD1810061+9999ME1315209REMSYN082AAXX  11004 16008 32970 00508 11034 21061 38567 48520 58006 92337 333 48003 92823;EQDQ01  00002PRCP99
0168160080999992000021103004+45750+010530FM-12+146199999V0200601N003112200019N0200001N1-00401-00821999999ADDGA1001+999999999GF100991001001999999001001MA1999999085551MD1710131+9999ME1315129REMSYN076AAXX  11034 16008 42970 00606 11040 21082 38555 48512 57013 90238 333 92823;
0246160080999992000021106004+45750+010530FM-12+146199999V0209999C000012200019N0200001N1-00341-00631999999ADDAA199000091AJ102239199999999GA1001+999999999GF100991001001999999001001IA1249KA1120N-00421MA1999999085511MD1610041+9999ME1315079REMSYN088AAXX  11064 16008 32970 00000 11034 21063 38551 48507 56004 90537 333 21042 48223 92873;EQDQ01  00002PRCP99
0180160080999992000021109004+45750+010530FM-12+146199999V0200601N004110090019N0200001N1-00241-00681999999ADDGA1081+009009069GF108991081051008001999999MA1999999085641MD1310141+9999ME1315219REMSYN088AAXX  11094 16008 42570 80608 11024 21068 38564 48521 53014 885// 90838 333 88630 92873;
0217160080999992000021112004+45750+010530FM-12+146199999V0209999C000010075019N0150001N1+00001-00631999999ADDAA199000091AJ100039199999999GF108991081051008001999999IA1249MA1999999085681MD1110041+9999ME1315279REMSYN088AAXX  11124 16008 32565 80000 10000 21063 38568 48527 51004 885// 91137 333 48003 92873;EQDQ01  00002PRCP99
0180160080999992000021115004+45750+010530FM-12+146199999V0200501N005110060019N0150001N1+00021-00121999999ADDGA1081+006009069GF108991081051008001999999MA1999999085631MD1810051+9999ME1315219REMSYN088AAXX  11154 16008 42565 80510 10002 21012 38563 48521 58005 885// 91436 333 88620 92873;
0258160080999992000021118004+45750+010530FM-12+146199999V0200601N003112200019N0200001N1-00061-00081999999ADDAA199000091AJ100039199999999GA1021+009009089GF102991021011008001001001IA1249KA1120M+00061MA1999999085681MD1310051+9999ME1315269REMSYN100AAXX  11184 16008 32570 20606 11006 21008 38568 48526 53005 82100 91738 333 10006 48003 82830 92873;EQDQ01  00002PRCP99
0239160080999992000021200004+45750+010530FM-12+146199999V0209999C000010090019N0200001N1-00141-00221999999ADDAA199000091AJ100039199999999GA1081+009009069GF108991081051008001999999IA1249MA1999999085791MD1310011+9999ME1315349REMSYN094AAXX  12004 16008 32570 80000 11014 21022 38579 48534 53001 885// 92336 333 48003 88630 92873;EQDQ01  00002PRCP99
0180160080999992000021203004+45750+010530FM-12+146199999V0209999C000010090019N0200001N1-00221-00261999999ADDGA1081+009009069GF108991081051008001999999MA1999999085731MD1810061+9999ME1315319REMSYN088AAXX  12034 16008 42570 80000 11022 21026 38573 48531 58006 885// 90237 333 88630 92873;
0258160080999992000021206004+45750+010530FM-12+146199999V0209999C000010090019N0200001N1-00241-00331999999ADDAA199000091AJ100039199999999GA1061+009009069GF106991061051008001001001IA1249KA1120N-00241MA1999999085701MD1610031+9999ME1315269REMSYN100AAXX  12064 16008 32570 60000 11024 21033 38570 48526 56003 86500 90538 333 21024 48003 86630 92873;EQDQ01  00002PRCP99
0180160080999992000021209004+45750+010530FM-12+146199999V0200501N002610135019N0250001N1-00421-00621999999ADDGA1061+013509039GF106991061001012501041001MA1999999085661MD1810051+9999ME1315209REMSYN088AAXX  12094 16008 42675 60505 11042 21062 38566 48520 58005 86040 90838 333 86345 92873;
0239160080999992000021212004+45750+010530FM-12+146199999V0200301N003612200019N0250001N1+00161-00451999999ADDAA199000091AJ100039199999999GA1041+030009039GF104991041001017501071001IA1249MA1999999085591MD1710061+9999ME1315199REMSYN094AAXX  12124 16008 32775 40307 10016 21045 38559 48519 57006 84070 91136 333 48003 84360 92873;EQDQ01  00002PRCP99
0180160080999992000021215004+45750+010530FM-12+146199999V0200601N003112200019N0300001N1+00261-00731999999ADDGA1031+012009089GF107991031011012501001011MA1999999085481MD1710111+9999ME1315089REMSYN088AAXX  12154 16008 42680 70606 10026 21073 38548 48508 57011 83101 91437 333 83840 92873;
0246160080999992000021218004+45750+010530FM-12+146199999V0209999C000012200019N0250001N1+00021-00661999999ADDAA199000091AJ100039199999999GA1001+999999999GF100991001001999999001001IA1249KA1120M+00321MA1999999085491MD1310011+9999ME1315089REMSYN088AAXX  12184 16008 32975 00000 10002 21066 38549 48508 53001 91737 333 10032 48003 92873;EQDQ01  00002PRCP99
0168160080999992000021221004+45750+010530FM-12+146199999V0200501N003612200019N0200001N1-00221-00631999999ADDGA1001+999999999GF100991001001999999001001MA1999999085651MD1210161+9999ME1315219REMSYN076AAXX  12214 16008 42970 00507 11022 21063 38565 48521 52016 92037 333 92873;
0227160080999992000021300004+45750+010530FM-12+146199999V0200601N003612200019N0200001N1-00381-00541999999ADDAA199000091AJ100039199999999GA1001+999999999GF100991001001999999001001IA1249MA1999999085731MD1110081+9999ME1315319REMSYN082AAXX  13004 16008 32970 00607 11038 21054 38573 48531 51008 92336 333 48003 92873;EQDQ01  00002PRCP99
0168160080999992000021303004+45750+010530FM-12+146199999V0200601N003612200019N0200001N1-00341-00611999999ADDGA1001+999999999GF100991001001999999001001MA1999999085731MD1410001+9999ME1315319REMSYN076AAXX  13034 16008 42970 00607 11034 21061 38573 48531 54000 90238 333 92873;
0246160080999992000021306004+45750+010530FM-12+146199999V0209999C000012200019N0250001N1-00441-00721999999ADDAA199000091AJ100039199999999GA1001+999999999GF100991001001999999001001IA1249KA1120N-00441MA1999999085671MD1810071+9999ME1315209REMSYN088AAXX  13064 16008 32975 00000 11044 21072 38567 48520 58007 90537 333 21044 48003 92873;EQDQ01  00002PRCP99
0217160080999992000021312004+45750+010530FM-12+146199999V0200601N003110075019N0200001N1+00101-00591999999ADDAA199000091AJ100039199999999GF108991081061008001999999IA1309MA1999999085501MD1810121+9999ME1315089REMSYN088AAXX  13124 16008 32570 80606 10010 21059 38550 48508 58012 886// 91136 333 42003 92876;EQDQ01  00002PRCP99
0180160080999992000021315004+45750+010530FM-12+146199999V0200501N004110060019N0200001N1+00141-00211999999ADDGA1081+006009079GF108991081061008001999999MA1999999085351MD1710141+9999ME1314949REMSYN088AAXX  13154 16008 42570 80508 10014 21021 38535 48494 57014 886// 91437 333 88720 92876;
0302160080999992000021318004+45750+010530FM-12+146199999V0209999C000010045019N0100001N1+00101+00031999999ADDAA112000791AJ100039199999999AL10699999AY171061AY221061GA1081+004509079GF108991081071004501999999IA1309KA1120M+00181MA1999999085311MD1610041+9999ME1314889MW1701REMSYN112AAXX  13184 16008 11460 80000 10010 20003 38531 48488 56004 69902 77072 887// 91736 333 10018 42003 88715 93199;EQDQ01   4302SNWF06
0218160080999992000021321004+45750+010530FM-12+146199999V0209999C000010045019N0100001N1+00041+00041999999ADDAL10699999AY171031AY271031GA1081+004509079GF108991081071004501999999MA1999999085341MD1310031+9999ME1314949MW1701REMSYN094AAXX  13214 16008 42460 80000 10004 20004 38534 48494 53003 77077 887// 92037 333 88715 93197;
0264160080999992000021400004+45750+010530FM-12+146199999V0200501N002610060019N0150001N1+00001+00001999999ADDAA106001091AJ100049199999999AL10600191AY171061AY271061GA1081+006009079GF108991081071008001999999IA1239MA1999999085341MD1010001+9999ME1314949MW1701REMSYN106AAXX  14004 16008 11565 80505 10000 20000 38534 48494 50000 60011 77077 887// 92337 333 47004 88720 93101;
0218160080999992000021403004+45750+010530FM-12+146199999V0209999C000010060019N0150001N1+00001-00071999999ADDAL10699999AY171031AY221031GA1081+006009079GF108991081061008001999999MA1999999085381MD1310041+9999ME1314999MW1021REMSYN094AAXX  14034 16008 41565 80000 10000 21007 38538 48499 53004 70272 886// 90237 333 88720 93197;
0273160080999992000021406004+45750+010530FM-12+146199999V0209999C000010060019N0150001N1-00081-00161999999ADDAA112001091AJ100049199999999AY171061AY221061GA1081+006009079GF108991081061008001999999IA1239KA1120N-00081MA1999999085451MD1210071+9999ME1315029MW1021REMSYN112AAXX  14064 16008 11565 80000 11008 21016 38545 48502 52007 60012 70272 886// 90536 333 21008 47004 88720 92823;
0264160080999992000021409004+45750+010530FM-12+146199999V0200501N002610060019N0150001N1+00001+00001999999ADDAA106001091AJ100049199999999AL10600191AY171031AY271031GA1081+006009079GF108991081071008001999999IA1239MA1999999085341MD1010001+9999ME1314949MW1701REMSYN106AAXX  14094 16008 11565 80505 10000 20000 38534 48494 50000 60011 77077 887// 92337 333 47004 88720 93101;
0208160080999992000021412004+45750+010530FM-12+146199999V0200701N003612200019N0300001N1+00621-00591999999ADDAA199000021AJ100049199999999GA1001+999999999GF100991001001999999001001IA1239MA1999999085581MD1110031+9999ME1315209REMSYN082AAXX  14124 16008 32980 00707 10062 21059 38558 48520 51003 91136 333 47004 92824;
0168160080999992000021415004+45750+010530FM-12+146199999V0200401N002112200019N0250001N1+00681-01061999999ADDGA1001+999999999GF100991001001999999001001MA1999999085491MD1810091+9999ME1315099REMSYN076AAXX  14154 16008 42975 00404 10068 21106 38549 48509 58009 91438 333 92856;
0216160080999992000021418004+45750+010530FM-12+146199999V0200401N002612200019N0250001N1+00081-00821999999ADDAJ100049199999999GA1001+999999999GF100991001001999999001001IA1239KA1120M+00721MA1999999085441MD1610051+9999ME1315029REMSYN088AAXX  14184 16008 42975 00405 10008 21082 38544 48502 56005 91740 333 10072 47004 92846;
0168160080999992000021421004+45750+010530FM-12+146199999V0200301N003112200019N0250001N1-00101-00681999999ADDGA1001+999999999GF100991001001999999001001MA1999999085491MD1310041+9999ME1315079REMSYN076AAXX  14214 16008 42975 00306 11010 21068 38549 48507 53004 92041 333 92846;
0197160080999992000021500004+45750+010530FM-12+146199999V0200401N004112200019N0250001N1-00221-00551999999ADDAJ100049199999999GA1001+999999999GF100991001001999999001001IA1239MA1999999085411MD1810081+9999ME1314999REMSYN082AAXX  15004 16008 42975 00408 11022 21055 38541 48499 58008 92339 333 47004 92846;
0168160080999992000021503004+45750+010530FM-12+146199999V0200401N006212200019N0250001N1-00321-00581999999ADDGA1001+999999999GF100991001001999999001001MA1999999085321MD1610091+9999ME1314889REMSYN076AAXX  15034 16008 42975 00412 11032 21058 38532 48488 56009 90240 333 92846;
0283160080999992000021506004+45750+010530FM-12+146199999V0200601N004110090019N0040001N1-00101-00681999999ADDAA112000791AJ100049199999999AL10699999AY171061AY211061GA1081+009009079GF108991081071008001999999IA1239KA1120N-00321MA1999999085311MD1810011+9999ME1314889MW1701REMSYN112AAXX  15064 16008 11540 80608 11010 21068 38531 48488 58001 69902 77071 887// 90537 333 21032 47004 88730 93197;
0218160080999992000021509004+45750+010530FM-12+146199999V0209999C000010090019N0120001N1-00041-00161999999ADDAL10699999AY171031AY211031GA1061+009009069GF106991061051008001001001MA1999999085311MD1510001+9999ME1314889MW1011REMSYN094AAXX  15094 16008 41562 60000 11004 21016 38531 48488 55000 70171 86500 90838 333 86630 93197;
0238160080999992000021512004+45750+010530FM-12+146199999V0200201N004610090019N0110001N1+99999+99999999999ADDAA106000791AJ100049199999999AL10699999AY171061AY211061GA1081+009009069GF108991081051008001999999IA1239MA1999999085221ME1314889MW1031REMSYN094AAXX  15124 16008 11561 80209 21098 38522 48488 69901 70371 885// 91137 333 47004 88630 93197;
0180160080999992000021515004+45750+010530FM-12+146199999V0209999C000010120019N0200001N1+00381+00061999999ADDGA1051+012009089GF105991051021012501001001MA1999999085201MD1610021+9999ME1314809REMSYN088AAXX  15154 16008 42670 50000 10038 20006 38520 48480 56002 85200 91436 333 85840 92857;
0245160080999992000021518004+45750+010530FM-12+146199999V0209999C000012200019N0250001N1+00201-00191999999ADDAA112000791AJ100049199999999GA1011+012009089GF101991011021012501001001IA1239KA1120M+00381MA1999999085111MD1810091+9999ME1314699REMSYN106AAXX  15184 16008 32675 10000 10020 21019 38511 48469 58009 69902 81200 91739 333 10038 47004 81840 92857;
0168160080999992000021521004+45750+010530FM-12+146199999V0209999C000012200019N0250001N1-00101-00441999999ADDGA1001+999999999GF100991001001999999001001MA1999999085091MD1610021+9999ME1314699REMSYN076AAXX  15214 16008 42975 00000 11010 21044 38509 48469 56002 92035 333 92846;
0233160080999992000021600004+45750+010530FM-12+146199999V0209999C000012200019N0250001N1-00201-00531999999ADDAA199000091AJ100049199999999GA1031+013809029GF103991031021012501001001IA1239MA1999999084891MD1810201+9999ME1314539REMSYN088AAXX  16004 16008 32675 30000 11020 21053 38489 48453 58020 83200 92336 333 47004 83846;EQDQ01  00002PRCP99
0208160080999992000021603004+45750+010530FM-12+146199999V0201801N004110030019N0008001N1-00261-00401999999ADDAY121031AY211031GA1081+003009079GF108991081061004501999999MA1999999084681MD1710281+9999ME1314349MW1461REMSYN094AAXX  16034 16008 41408 81808 11026 21040 38468 48434 57028 74621 886// 90238 333 88710 92846;
0286160080999992000021606004+45750+010530FM-12+146199999V0202101N005110030019N0001001N1-00281-00281999999ADDAA199000091AJ100049199999999AY121061AY221061GA1081+003009079GF108991081061004501999999IA1239KA1120N-00281MA1999999084421MD1710251+9999ME1314049MW1461REMSYN106AAXX  16064 16008 31401 82110 11028 21028 38442 48404 57025 74622 886// 90536 333 21028 47004 88710 92846;EQDQ01  00002PRCP99
0218160080999992000021609004+45750+010530FM-12+146199999V0201701N005110030019N0003001N1-00301-00301999999ADDAL10600191AY171031AY271031GA1081+003009079GF108991081071004501999999MA1999999084191MD1710231+9999ME1313669MW1701REMSYN094AAXX  16094 16008 41403 81710 11030 21030 38419 48366 57023 77077 887// 90837 333 88710 93101;
0264160080999992000021612004+45750+010530FM-12+146199999V0209999C000010030019N0002001N1-00201-00201999999ADDAA106002091AJ100079199999999AL10600291AY171061AY271061GA1081+003009079GF108991081071004501999999IA1239MA1999999084111MD1610071+9999ME1313779MW1721REMSYN106AAXX  16124 16008 11402 80000 11020 21020 38411 48377 56007 60021 77277 887// 91137 333 47007 88710 93102;
0218160080999992000021615004+45750+010530FM-12+146199999V0200301N006210090019N0120001N1-00101-00511999999ADDAL10600191AY171031AY271031GA1071+009009069GF107991071051008001001001MA1999999083981MD1810131+9999ME1313669MW1011REMSYN094AAXX  16154 16008 41562 70312 11010 21051 38398 48366 58013 70177 87500 91436 333 87630 93101;
0273160080999992000021618004+45750+010530FM-12+146199999V0209999C000012200019N0180001N1-00221-00901999999ADDAA112003091AJ100089199999999AY171061AY211061GA1031+009009089GF103991031021008001001001IA1239KA1120M-00081MA1999999083911MD1610071+9999ME1313589MW1011REMSYN112AAXX  16184 16008 11568 30000 11022 21090 38391 48358 56007 60032 70171 83200 91735 333 11008 47008 83830 92810;
0180160080999992000021621004+45750+010530FM-12+146199999V0209999C000012200019N0200001N1-00541-00931999999ADDGA1031+012009089GF103991031021012501001001MA1999999083791MD1810121+9999ME1313499REMSYN088AAXX  16214 16008 42670 30000 11054 21093 38379 48349 58012 83200 92038 333 83840 92810;
0264160080999992000021700004+45750+010530FM-12+146199999V0200501N002112200019N0200001N1-00541-00561999999ADDAA106000191AJ100089199999999AL10699999AY171061AY241061GA1021+012009089GF102991021021012501001001IA1239MA1999999083801MD1310011+9999ME1313499MW1011REMSYN106AAXX  17004 16008 11670 20504 11054 21056 38380 48349 53001 69921 70174 82200 92335 333 47008 82840 93195;
0168160080999992000021703004+45750+010530FM-12+146199999V0209999C000012200019N0200001N1-00601-00681999999ADDGA1001+999999999GF100991001001999999001001MA1999999083861MD1110061+9999ME1313549REMSYN076AAXX  17034 16008 42970 00000 11060 21068 38386 48354 51006 90238 333 92810;
0233160080999992000021706004+45750+010530FM-12+146199999V0200401N001512200019N0250001N1-00901-01191999999ADDAA112000591AJ100089199999999GA1001+999999999GF100991001001999999001001IA1239KA1120N-00901MA1999999083931MD1310071+9999ME1313669REMSYN094AAXX  17064 16008 32975 00403 11090 21119 38393 48366 53007 69942 90537 333 21090 47008 92810;
0202160080999992000021709004+45750+010530FM-12+146199999V0209999C000010300019N0200001N1-00921-01211999999ADDGA1011+012009089GA2061+030009049GF107991011021012501011001MA1999999083921MD1810011+9999ME1313619REMSYN094AAXX  17094 16008 42670 70000 11092 21121 38392 48361 58001 81210 90835 333 81840 86460 92810;
0276160080999992000021712004+45750+010530FM-12+146199999V0209999C000010270019N0110001N1-00461-00961999999ADDAA112000791AJ100089199999999AY171061AY221061GA1021+012009069GA2061+027009049GF108991021051012501011999IA1239MA1999999083901MD1610021+9999ME1313599MW1031REMSYN112AAXX  17124 16008 11661 80000 11046 21096 38390 48359 56002 69902 70372 8251/ 91135 333 47008 82640 86459 92810;
0218160080999992000021715004+45750+010530FM-12+146199999V0200401N002110090019N0020001N1-00381-00741999999ADDAL10699999AY171031AY221031GA1081+009009079GF108991081071008001999999MA1999999083871MD1810031+9999ME1313539MW1701REMSYN094AAXX  17154 16008 41520 80404 11038 21074 38387 48353 58003 77072 887// 91437 333 88730 93197;
0202160080999992000021721004+45750+010530FM-12+146199999V0200501N003110270019N0060001N1-00541-01181999999ADDGA1031+012009069GA2051+027009049GF108991031051012501011999MA1999999084371MD1210341+9999ME1313999REMSYN094AAXX  17214 16008 42656 80506 11054 21118 38437 48399 52034 8351/ 92040 333 83640 85459 92810;
0280160080999992000021800004+45750+010530FM-12+146199999V0200501N002110270019N0120001N1+99999+99999999999ADDAA106000791AJ100089199999999AL10699999AY171061AY221061GA1031+012009069GA2051+027009049GF108991031051012501011999IA1239MA1999999084511MD1210151+9999ME1314169MW1021REMSYN106AAXX  18004 16008 11662 80504 21090 38451 48416 52015 69901 70272 8351/ 92334 333 47008 83640 85459 93197;
0180160080999992000021803004+45750+010530FM-12+146199999V0200401N003110360019N0120001N1-00701-00871999999ADDGA1031+012009069GF105991031051012501011001MA1999999084621MD1110111+9999ME1314249REMSYN088AAXX  18034 16008 42662 50406 11070 21087 38462 48424 51011 83510 90239 333 83640 92810;
0246160080999992000021806004+45750+010530FM-12+146199999V0209999C000012200019N0200001N1-00841-01021999999ADDAA199000091AJ100089199999999GA1001+999999999GF100991001001999999001001IA1239KA1120N-00841MA1999999084781MD1310161+9999ME1314429REMSYN088AAXX  18064 16008 32970 00000 11084 21102 38478 48442 53016 90536 333 21084 47008 92810;EQDQ01  00002PRCP99
0202160080999992000021809004+45750+010530FM-12+146199999V0209999C000010270019N0200001N1-00761-01061999999ADDGA1011+012009069GA2061+027009049GF107991011051999999011001MA1999999084711MD1810081+9999ME1314349REMSYN094AAXX  18094 16008 42970 70000 11076 21106 38471 48434 58008 81510 90837 333 81640 86459 92810;
0264160080999992000021812004+45750+010530FM-12+146199999V0200401N002110030019N0003001N1-00521-00751999999ADDAA106000591AJ100099199999999AL10600191AY171061AY241061GA1081+003009079GF108991081071004501999999IA1239MA1999999084611MD1610101+9999ME1314239MW1721REMSYN106AAXX  18124 16008 11403 80404 11052 21075 38461 48423 56010 69941 77274 887// 91137 333 47009 88710 93101;
0253160080999992000021815004+45750+010530FM-12+146199999V0209999C000010030019N0006001N1-00541-00641999999ADDAL10600391AY171031AY241031GA1081+003009079GF108991081071008001999999MA1999999084511MD1410001+9999ME1314159MW1701REMSYN094AAXX  18154 16008 41506 80000 11054 21064 38451 48415 58415 77074 887// 91435 333 88710 93103;EQDQ01+000082APCTENQ02+004152APC3  
0283160080999992000021818004+45750+010530FM-12+146199999V0209999C000010060019N0006001N1-00541-00561999999ADDAA112003091AJ100149199999999AL10600291AY171061AY241061GA1081+006009079GF108991081071008001999999IA1239KA1120M-00521MA1999999084411MD1610101+9999ME1314059MW1701REMSYN112AAXX  18184 16008 11506 80000 11054 21056 38441 48405 56010 60032 77074 887// 91739 333 11052 47014 88720 93102;
0218160080999992000021821004+45750+010530FM-12+146199999V0209999C000010030019N0002001N1-00601-00601999999ADDAL10600191AY171031AY241031GA1081+003009079GF108991081071004501999999MA1999999084301MD1810101+9999ME1313979MW1701REMSYN094AAXX  18214 16008 41402 80000 11060 21060 38430 48397 58010 77074 887// 92038 333 88710 93101;
0264160080999992000021900004+45750+010530FM-12+146199999V0209999C000010030019N0002001N1-00581-00581999999ADDAA106002091AJ100189199999999AL10600391AY171061AY241061GA1081+003009079GF108991081071004501999999IA1239MA1999999084181MD1710121+9999ME1313869MW1701REMSYN106AAXX  19004 16008 11402 80000 11058 21058 38418 48386 57012 60021 77074 887// 92335 333 47018 88710 93103;
0218160080999992000021903004+45750+010530FM-12+146199999V0209999C000010030019N0002001N1-00541-00541999999ADDAL10600391AY171031AY241031GA1081+003009079GF108991081071004501999999MA1999999084021MD1710161+9999ME1313679MW1701REMSYN094AAXX  19034 16008 41402 80000 11054 21054 38402 48367 57016 77074 887// 90237 333 88710 93103;
0283160080999992000021906004+45750+010530FM-12+146199999V0209999C000010030019N0002001N1-00481-00481999999ADDAA112005191AJ100249199999999AL10600391AY171061AY241061GA1081+003009079GF108991081071004501999999IA1239KA1120N-00601MA1999999084021MD1310011+9999ME1313679MW1701REMSYN112AAXX  19064 16008 11402 80000 11048 21048 38402 48367 53001 60052 77074 887// 90539 333 21060 47024 88710 93103;
0218160080999992000021909004+45750+010530FM-12+146199999V0209999C000010075019N0008001N1-00201-00201999999ADDAL10600191AY171031AY241031GA1081+007509079GF108991081071008001999999MA1999999084091MD1110071+9999ME1313779MW1701REMSYN094AAXX  19094 16008 41508 80000 11020 21020 38409 48377 51007 77074 887// 90837 333 88725 93101;
0264160080999992000021912004+45750+010530FM-12+146199999V0200501N003112200019N0140001N1+00321-00361999999ADDAA106000591AJ100259199999999AL10699999AY171061AY241061GA1041+009009089GF104991041021008001001001IA1239MA1999999084161MD1310071+9999ME1313789MW1011REMSYN106AAXX  19124 16008 11564 40506 10032 21036 38416 48378 53007 69961 70174 84200 91136 333 47025 84830 93197;
0180160080999992000021915004+45750+010530FM-12+146199999V0209999C000010060019N0110001N1+00181-00561999999ADDGA1081+006009079GF108991081061008001999999MA1999999084201MD1110041+9999ME1313849REMSYN088AAXX  19154 16008 42561 80000 10018 21056 38420 48384 51004 886// 91438 333 88720 92810;
0283160080999992000021918004+45750+010530FM-12+146199999V0209999C000010018019N0015001N1-00081-00231999999ADDAA112001091AJ100269199999999AL10600191AY171061AY211061GA1081+001809079GF108991081071001501999999IA1239KA1120M+00481MA1999999084301MD1310101+9999ME1313969MW1701REMSYN112AAXX  19184 16008 11215 80000 11008 21023 38430 48396 53010 60012 77071 887// 91736 333 10048 47026 88706 93101;
0218160080999992000021921004+45750+010530FM-12+146199999V0209999C000010030019N0011001N1-00161-00181999999ADDAL10600191AY171031AY271031GA1081+003009079GF108991081071004501999999MA1999999084401MD1110101+9999ME1314049MW1701REMSYN094AAXX  19214 16008 41411 80000 11016 21018 38440 48404 51010 77077 887// 92038 333 88710 93101;
0264160080999992000022000004+45750+010530FM-12+146199999V0209999C000010075019N0015001N1-00221-00241999999ADDAA106001091AJ100289199999999AL10600191AY171061AY241061GA1061+007509069GF106991061051008001001001IA1239MA1999999084411MD1110021+9999ME1314049MW1101REMSYN106AAXX  20004 16008 11515 60000 11022 21024 38441 48404 51002 60011 71074 86500 92337 333 47028 86625 93101;
0218160080999992000022003004+45750+010530FM-12+146199999V0209999C000010090019N0040001N1-00301-00301999999ADDAL10699999AY171031AY241031GA1051+009009069GF105991051051008001001001MA1999999084501MD1110091+9999ME1314159MW1101REMSYN094AAXX  20034 16008 41540 50000 11030 21030 38450 48415 51009 71074 85500 90238 333 85630 93194;
0283160080999992000022006004+45750+010530FM-12+146199999V0200601N001510030019N0009001N1-00401-00451999999ADDAA112002091AJ100299199999999AL10699999AY171061AY241061GA1081+003009079GF108991081071004501999999IA1239KA1120N-00441MA1999999084601MD1310101+9999ME1314239MW1701REMSYN112AAXX  20064 16008 11409 80603 11040 21045 38460 48423 53010 60022 77074 887// 90535 333 21044 47029 88710 93192;
0218160080999992000022009004+45750+010530FM-12+146199999V0200701N002610075019N0020001N1-00401-00541999999ADDAL10600191AY171031AY241031GA1061+007509069GF106991061041008001001001MA1999999084871MD1210281+9999ME1314489MW1101REMSYN094AAXX  20094 16008 41520 60705 11040 21054 38487 48448 52028 71074 86400 90838 333 86625 93101;
0254160080999992000022012004+45750+010530FM-12+146199999V0200401N005710075019N0130001N1-00061-00911999999ADDAA106000891AJ100309199999999AY171061AY241061GA1071+007509069GF107991071041008001001001IA1239MA1999999085011MD1210131+9999ME1314619MW1031REMSYN106AAXX  20124 16008 11563 70411 11006 21091 38501 48461 52013 69981 70374 87400 91135 333 47030 87625 92810;
0180160080999992000022015004+45750+010530FM-12+146199999V0200101N004110075019N0110001N1-00161-00641999999ADDGA1081+007509069GF108991081041008001999999MA1999999085101MD1210101+9999ME1314699REMSYN088AAXX  20154 16008 42561 80108 11016 21064 38510 48469 52010 884// 91438 333 88625 92810;
0245160080999992000022018004+45750+010530FM-12+146199999V0200301N006210075019N0110001N1-00261-00821999999ADDAA112000891AJ100309199999999GA1081+007509069GF108991081041008001999999IA1239KA1120M+00041MA1999999085281MD1210181+9999ME1314889REMSYN106AAXX  20184 16008 12561 80312 11026 21082 38528 48488 52018 69982 884// 91739 333 10004 47030 88625 92810;
0180160080999992000022021004+45750+010530FM-12+146199999V0200701N003112200019N0120001N1-00401-00761999999ADDGA1041+006009089GF104991041011008001001001MA1999999085421MD1210141+9999ME1314999REMSYN088AAXX  20214 16008 42562 40706 11040 21076 38542 48499 52014 84100 92034 333 84820 92810;
0239160080999992000022100004+45750+010530FM-12+146199999V0200701N004610075019N0150001N1-00481-00711999999ADDAA199000091AJ100309199999999GA1051+007509089GF105991051011008001001001IA1239MA1999999085541MD1210121+9999ME1315129REMSYN094AAXX  21004 16008 32565 50709 11048 21071 38554 48512 52012 85100 92335 333 47030 85825 92810;EQDQ01  00002PRCP99
0168160080999992000022109004+45750+010530FM-12+146199999V0200701N005712200019N0200001N1-00901-01091999999ADDGA1001+999999999GF100991001001999999001001MA1999999085701MD1110131+9999ME1315249REMSYN076AAXX  21094 16008 42970 00711 11090 21109 38570 48524 51013 90836 333 92810;
0168160080999992000022115004+45750+010530FM-12+146199999V0200501N007712200019N0350001N1-00261-01551999999ADDGA1001+999999999GF100991001001999999001001MA1999999085631MD1810121+9999ME1315219REMSYN076AAXX  21154 16008 42981 00515 11026 21155 38563 48521 58012 91434 333 92810;
0236160080999992000022118004+45750+010530FM-12+146199999V0200301N004112200019N0300001N1-00421-01121999999ADDAA199000091AJ100299199999999GF102991001001999999001011IA1239KA1120M-00181MA1999999085621MD1610011+9999ME1315179REMSYN094AAXX  21184 16008 32980 20308 11042 21112 38562 48517 56001 80001 91735 333 11018 47029 92810;EQDQ01  00002PRCP99
0168160080999992000022121004+45750+010530FM-12+146199999V0200201N004612200019N0250001N1-00701-01201999999ADDGA1001+999999999GF100991001001999999001001MA1999999085681MD1310061+9999ME1315259REMSYN076AAXX  21214 16008 42975 00209 11070 21120 38568 48525 53006 92040 333 92810;
0227160080999992000022200004+45750+010530FM-12+146199999V0200301N006212200019N0200001N1-00941-01171999999ADDAA199000091AJ100299199999999GA1001+999999999GF100991001001999999001001IA1239MA1999999085691MD1110021+9999ME1315249REMSYN082AAXX  22004 16008 32970 00312 11094 21117 38569 48524 51002 92337 333 47029 92810;EQDQ01  00002PRCP99
0180160080999992000022203004+45750+010530FM-12+146199999V0200501N005710105019N0200001N1-01001-01201999999ADDGA1061+010509069GF106991061051012501001001MA1999999085601MD1810091+9999ME1315169REMSYN088AAXX  22034 16008 42670 60511 11100 21120 38560 48516 58009 86500 90236 333 86635 92810;
0258160080999992000022206004+45750+010530FM-12+146199999V0200601N003610090019N0200001N1-01001-01241999999ADDAA199000091AJ100299199999999GA1051+009009069GF105991051041008001001001IA1239KA1120N-01001MA1999999085501MD1610101+9999ME1315069REMSYN100AAXX  22064 16008 32570 50607 11100 21124 38550 48506 56010 85400 90540 333 21100 47029 85630 92810;EQDQ01  00002PRCP99
0180160080999992000022209004+45750+010530FM-12+146199999V0200501N006210120019N0250001N1-00781-01121999999ADDGA1051+012009069GF105991051041012501001001MA1999999085501MD1410001+9999ME1315069REMSYN088AAXX  22094 16008 42675 50512 11078 21112 38550 48506 54000 85400 90837 333 85640 92810;
0217160080999992000022212004+45750+010530FM-12+146199999V0200101N003612200019N0300001N1+00101-01391999999ADDAA199000091AJ100289199999999GF103991001001999999001041IA1239MA1999999085451MD1810061+9999ME1315029REMSYN088AAXX  22124 16008 32980 30107 10010 21139 38545 48502 58006 80004 91136 333 47028 92810;EQDQ01  00002PRCP99
0168160080999992000022215004+45750+010530FM-12+146199999V0200301N004112200019N0350001N1+00241-01221999999ADDGA1001+999999999GF100991001001999999001001MA1999999085321MD1610131+9999ME1314899REMSYN076AAXX  22154 16008 42981 00308 10024 21122 38532 48489 56013 91435 333 92810;
0246160080999992000022218004+45750+010530FM-12+146199999V0200401N004112200019N0350001N1-00341-00871999999ADDAA199000091AJ100279199999999GA1001+999999999GF100991001001999999001001IA1239KA1120M+00281MA1999999085391MD1310061+9999ME1314999REMSYN088AAXX  22184 16008 32981 00408 11034 21087 38539 48499 53006 91734 333 10028 47027 92810;EQDQ01  00002PRCP99
0168160080999992000022221004+45750+010530FM-12+146199999V0200501N004112200019N0300001N1-00561-00831999999ADDGA1001+999999999GF100991001001999999001001MA1999999085461MD1110081+9999ME1315019REMSYN076AAXX  22214 16008 42980 00508 11056 21083 38546 48501 51008 92036 333 92810;
0227160080999992000022300004+45750+010530FM-12+146199999V0200301N005712200019N0250001N1-00701-00811999999ADDAA199000091AJ100279199999999GA1001+999999999GF100991001001999999001001IA1239MA1999999085561MD1110101+9999ME1315129REMSYN082AAXX  23004 16008 32975 00311 11070 21081 38556 48512 51010 92334 333 47027 92810;EQDQ01  00002PRCP99
0180160080999992000022303004+45750+010530FM-12+146199999V0200501N005110240019N0200001N1-00801-00891999999ADDGA1051+024009039GF105991051001022501031001MA1999999085511MD1810041+9999ME1315069REMSYN088AAXX  23034 16008 42870 50510 11080 21089 38551 48506 58004 85030 90239 333 85358 92810;
0258160080999992000022306004+45750+010530FM-12+146199999V0200601N004610240019N0200001N1-00901-01021999999ADDAA199000091AJ100279199999999GA1051+024009039GF105991051001022501031001IA1239KA1120N-00901MA1999999085501MD1610011+9999ME1315069REMSYN100AAXX  23064 16008 32870 50609 11090 21102 38550 48506 56001 85030 90535 333 21090 47027 85358 92810;EQDQ01  00002PRCP99
0168160080999992000022309004+45750+010530FM-12+146199999V0200501N004612200019N0250001N1-00741-01041999999ADDGA1001+999999999GF100991001001999999001001MA1999999085581MD1310081+9999ME1315179REMSYN076AAXX  23094 16008 42975 00509 11074 21104 38558 48517 53008 90836 333 92810;
0227160080999992000022312004+45750+010530FM-12+146199999V0200501N004112200019N0300001N1+00241-01181999999ADDAA199000091AJ100269199999999GA1001+999999999GF100991001001999999001001IA1239MA1999999085601MD1110011+9999ME1315199REMSYN082AAXX  23124 16008 32980 00508 10024 21118 38560 48519 51001 91139 333 47026 92810;EQDQ01  00002PRCP99
0168160080999992000022315004+45750+010530FM-12+146199999V0200301N006212200019N0350001N1+00261-01411999999ADDGA1001+999999999GF100991001001999999001001MA1999999085521MD1810081+9999ME1315089REMSYN076AAXX  23154 16008 42981 00312 10026 21141 38552 48508 58008 91435 333 92810;
0246160080999992000022318004+45750+010530FM-12+146199999V0200601N005112200019N0300001N1-00101-01121999999ADDAA199000091AJ100259199999999GA1001+999999999GF100991001001999999001001IA1239KA1120M+00321MA1999999085561MD1310041+9999ME1315139REMSYN088AAXX  23184 16008 32980 00610 11010 21112 38556 48513 53004 91738 333 10032 47025 92810;EQDQ01  00002PRCP99
0227160080999992000022400004+45750+010530FM-12+146199999V0200501N003112200019N0250001N1-00501-00881999999ADDAA199000091AJ100259199999999GA1001+999999999GF100991001001999999001001IA1239MA1999999085821MD1210111+9999ME1315339REMSYN082AAXX  24004 16008 32975 00506 11050 21088 38582 48533 52011 92340 333 47025 92810;EQDQ01  00002PRCP99
0168160080999992000022403004+45750+010530FM-12+146199999V0200701N006212200019N0250001N1-00601-00971999999ADDGA1001+999999999GF100991001001999999001001MA1999999085831MD1110011+9999ME1315389REMSYN076AAXX  24034 16008 42975 00712 11060 21097 38583 48538 51001 90235 333 92810;
0246160080999992000022406004+45750+010530FM-12+146199999V0200301N006712200019N0250001N1-00741-01071999999ADDAA199000091AJ100259199999999GA1001+999999999GF100991001001999999001001IA1239KA1120N-00741MA1999999085831MD1410001+9999ME1315389REMSYN088AAXX  24064 16008 32975 00313 11074 21107 38583 48538 54000 90540 333 21074 47025 92810;EQDQ01  00002PRCP99
0168160080999992000022409004+45750+010530FM-12+146199999V0200501N007212200019N0300001N1-00701-01061999999ADDGA1001+999999999GF100991001001999999001001MA1999999085961MD1310131+9999ME1315499REMSYN076AAXX  24094 16008 42980 00514 11070 21106 38596 48549 53013 90834 333 92810;
0177160080999992000022412004+45750+010530FM-12+146199999V0200601N006210240019N0350001N1+00161-00971999999ADDAA124999999GA1061+024009039GF106991061001022501031001MA1999999085991ME1315549REMSYN088AAXX  24124 16008 32881 60612 10016 21097 38599 48554 86030 91139 333 7024/ 86358 92810;
0180160080999992000022415004+45750+010530FM-12+146199999V0200301N003610090019N0300001N1+00381-00621999999ADDGA1061+009009069GF106991061051017501001001MA1999999085901MD1810091+9999ME1315479REMSYN088AAXX  24154 16008 42780 60307 10038 21062 38590 48547 58009 86500 91438 333 86630 92810;
0258160080999992000022418004+45750+010530FM-12+146199999V0200701N004112200019N0300001N1+00301-00451999999ADDAA199000091AJ100229199999999GA1041+012009069GF104991041051012501001001IA1239KA1120M+00421MA1999999086001MD1310101+9999ME1315559REMSYN100AAXX  24184 16008 32680 40708 10030 21045 38600 48555 53010 84500 91739 333 10042 47022 84640 92810;EQDQ01  00002PRCP99
0168160080999992000022421004+45750+010530FM-12+146199999V0200301N004112200019N0200001N1+00101-00231999999ADDGA1001+999999999GF100991001001999999001001MA1999999086011MD1110011+9999ME1315549REMSYN076AAXX  24214 16008 42970 00308 10010 21023 38601 48554 51001 92038 333 92810;
0227160080999992000022500004+45750+010530FM-12+146199999V0209999C000012200019N0200001N1+00081-00221999999ADDAA199000091AJ100229199999999GA1001+999999999GF100991001001999999001001IA1239MA1999999086051MD1310041+9999ME1315609REMSYN082AAXX  25004 16008 32970 00000 10008 21022 38605 48560 53004 92338 333 47022 92810;EQDQ01  00002PRCP99
0168160080999992000022503004+45750+010530FM-12+146199999V0209999C000012200019N0200001N1+00021-00171999999ADDGA1001+999999999GF100991001001999999001001MA1999999085991MD1810061+9999ME1315549REMSYN076AAXX  25034 16008 42970 00000 10002 21017 38599 48554 58006 90239 333 92810;
0231160080999992000022509004+45750+010530FM-12+146199999V0200401N002612200019N0200001N1+00101-00031999999ADDGA1061+012009069GF199999999999999999001001MA1999999085911MD1410001+9999ME1315469REMSYN088AAXX  25094 16008 42670 00405 10010 21003 38591 48546 54000 86500 90837 333 86640 92810;EQDQ01+000002SCOTCVQ02+000002SCOTLCQ03+000002SCOLCG
0239160080999992000022512004+45750+010530FM-12+146199999V0200301N002610090019N0200001N1+00601-00341999999ADDAA199000091AJ100209199999999GA1061+009009069GF106991061051008001001001IA1239MA1999999085901MD1810011+9999ME1315489REMSYN094AAXX  25124 16008 32570 60305 10060 21034 38590 48548 58001 86500 91138 333 47020 86630 92810;EQDQ01  00002PRCP99
0180160080999992000022515004+45750+010530FM-12+146199999V0200201N007210060019N0100001N1+00801-00171999999ADDGA1081+006009079GF108991081061008001999999MA1999999085811MD1510091+9999ME1315379REMSYN088AAXX  25154 16008 42560 80214 10080 21017 38581 48537 55009 886// 91439 333 88720 92810;
0273160080999992000022518004+45750+010530FM-12+146199999V0200601N005110060019N0100001N1+00301+00241999999ADDAA112000591AJ100189199999999AY161061AY221061GA1081+006009079GF108991081071008001999999IA1239KA1120M+00901MA1999999085921MD1110111+9999ME1315479MW1601REMSYN112AAXX  25184 16008 11560 80610 10030 20024 38592 48547 51011 69942 76062 887// 91738 333 10090 47018 88720 92810;
0180160080999992000022521004+45750+010530FM-12+146199999V0200401N004119999999N0200001N1+00201+00201999999ADDAY161031AY221031GF108991999999999999999999MA1999999086091MD1310171+9999ME1315669MW1011REMSYN082AAXX  25214 16008 41970 80408 10020 20020 38609 48566 53017 70162 92039 333 92810;
0242160080999992000022600004+45750+010530FM-12+146199999V0200601N003112200019N0200001N1+00101+00101999999ADDAA106000591AJ100189199999999AY161061AY221061GA1001+999999999GF100991001001999999001001IA1239MA1999999086181MD1210091+9999ME1315739MW1011REMSYN094AAXX  26004 16008 11970 00606 10010 20010 38618 48573 52009 69941 70162 92339 333 47018 92810;
0168160080999992000022603004+45750+010530FM-12+146199999V0200601N002112200019N0200001N1+00001+00001999999ADDGA1001+999999999GF100991001001999999001001MA1999999086191MD1110011+9999ME1315739REMSYN076AAXX  26034 16008 42970 00604 10000 20000 38619 48573 51001 90238 333 92810;
0227160080999992000022606004+45750+010530FM-12+146199999V0200401N005112200019N0300001N1-00201-00201999999ADDAA199000021AJ100189199999999GA1001+999999999GF100991001001999999001001IA1239KA1120N-00201MA1999999086211MD1310021+9999ME1315729REMSYN088AAXX  26064 16008 32980 00410 11020 21020 38621 48572 53002 90539 333 21020 47018 92810;
0168160080999992000022609004+45750+010530FM-12+146199999V0200401N005112200019N0300001N1-00201-00291999999ADDGA1001+999999999GF100991001001999999001001MA1999999086261MD1110051+9999ME1315789REMSYN076AAXX  26094 16008 42980 00410 11020 21029 38626 48578 51005 90838 333 92810;
0227160080999992000022612004+45750+010530FM-12+146199999V0200601N004112200019N0300001N1+00701-00631999999ADDAA199000091AJ100189199999999GA1001+999999999GF100991001001999999001001IA1239MA1999999086231MD1810031+9999ME1315819REMSYN082AAXX  26124 16008 32980 00608 10070 21063 38623 48581 58003 91139 333 47018 92810;EQDQ01  00002PRCP99
0168160080999992000022615004+45750+010530FM-12+146199999V0200601N003612200019N0300001N1+00701-00821999999ADDGA1001+999999999GF100991001001999999001001MA1999999086081MD1710151+9999ME1315679REMSYN076AAXX  26154 16008 42980 00607 10070 21082 38608 48567 57015 91438 333 92810;
0246160080999992000022618004+45750+010530FM-12+146199999V0209999C000012200019N0300001N1+00301-00671999999ADDAA199000091AJ100169199999999GA1001+999999999GF100991001001999999001001IA1239KA1120M+00721MA1999999086081MD1510001+9999ME1315669REMSYN088AAXX  26184 16008 32980 00000 10030 21067 38608 48566 55000 91739 333 10072 47016 92810;EQDQ01  00002PRCP99
0168160080999992000022621004+45750+010530FM-12+146199999V0200401N005112200019N0300001N1+00001-00691999999ADDGA1001+999999999GF100991001001999999001001MA1999999086201MD1210121+9999ME1315739REMSYN076AAXX  26214 16008 42980 00410 10000 21069 38620 48573 52012 92038 333 92810;
0227160080999992000022700004+45750+010530FM-12+146199999V0209999C000012200019N0200001N1-00101-00461999999ADDAA199000091AJ100169199999999GA1001+999999999GF100991001001999999001001IA1239MA1999999086251MD1110051+9999ME1315789REMSYN082AAXX  27004 16008 32970 00000 11010 21046 38625 48578 51005 92339 333 47016 92810;EQDQ01  00002PRCP99
0246160080999992000022706004+45750+010530FM-12+146199999V0200301N003612200019N0200001N1-00301-00561999999ADDAA199000091AJ100169199999999GA1001+999999999GF100991001001999999001001IA1239KA1120N-00301MA1999999086261MD1810031+9999ME1315779REMSYN088AAXX  27064 16008 32970 00307 11030 21056 38626 48577 58003 90539 333 21030 47016 92810;EQDQ01  00002PRCP99
0168160080999992000022709004+45750+010530FM-12+146199999V0209999C000012200019N0300001N1-00401-00651999999ADDGA1001+999999999GF100991001001999999001001MA1999999086301MD1310041+9999ME1315799REMSYN076AAXX  27094 16008 42980 00000 11040 21065 38630 48579 53004 90838 333 92810;
0227160080999992000022712004+45750+010530FM-12+146199999V0202401N002612200019N0300001N1+00501-00451999999ADDAA199000091AJ100169199999999GA1001+999999999GF100991001001999999001001IA1239MA1999999086311MD1110011+9999ME1315839REMSYN082AAXX  27124 16008 32980 02405 10050 21045 38631 48583 51001 91139 333 47016 92810;EQDQ01  00002PRCP99
0168160080999992000022715004+45750+010530FM-12+146199999V0209999C000012200019N0300001N1+00701-00501999999ADDGA1001+999999999GF100991001001999999001001MA1999999086271MD1810041+9999ME1315819REMSYN076AAXX  27154 16008 42980 00000 10070 21050 38627 48581 58004 91438 333 92810;
0246160080999992000022718004+45750+010530FM-12+146199999V0209999C000012200019N0300001N1+00501-00541999999ADDAA199000091AJ100159199999999GA1001+999999999GF100991001001999999001001IA1239KA1120M+00761MA1999999086301MD1310031+9999ME1315839REMSYN088AAXX  27184 16008 32980 00000 10050 21054 38630 48583 53003 91739 333 10076 47015 92810;EQDQ01  00002PRCP99
0227160080999992000022800004+45750+010530FM-12+146199999V0209999C000012200019N0200001N1-00301-00561999999ADDAA199000091AJ100159199999999GA1001+999999999GF100991001001999999001001IA1239MA1999999086411MD1110011+9999ME1315919REMSYN082AAXX  28004 16008 32970 00000 11030 21056 38641 48591 51001 92339 333 47015 92810;EQDQ01  00002PRCP99
0168160080999992000022805004+45750+010530FM-12+146199999V0201801N004112200019N0200001N1-00301-00461999999ADDGA1001+999999999GF100991001001999999001001MA1999999086391MD1810021+9999ME1315919REMSYN076AAXX  28054 16008 42970 01808 11030 21046 38639 48591 58002 90839 333 92810;
0246160080999992000022806004+45750+010530FM-12+146199999V0209999C000012200019N0200001N1-00501-00631999999ADDAA199000091AJ100159199999999GA1001+999999999GF100991001001999999001001IA1239KA1120N-00501MA1999999086411MD1410001+9999ME1315909REMSYN088AAXX  28064 16008 32970 00000 11050 21063 38641 48590 54000 90538 333 21050 47015 92810;EQDQ01  00002PRCP99
0168160080999992000022809004+45750+010530FM-12+146199999V0201801N004112200019N0200001N1-00301-00461999999ADDGA1001+999999999GF100991001001999999001001MA1999999086391MD1810021+9999ME1315919REMSYN076AAXX  28094 16008 42970 01808 11030 21046 38639 48591 58002 90839 333 92810;
0227160080999992000022812004+45750+010530FM-12+146199999V0201801N006212200019N0200001N1+00221-00461999999ADDAA199000091AJ100159199999999GA1001+999999999GF100991001001999999001001IA1239MA1999999086331MD1610061+9999ME1315829REMSYN082AAXX  28124 16008 32970 01812 10022 21046 38633 48582 56006 91137 333 47015 92810;EQDQ01  00002PRCP99
0168160080999992000022815004+45750+010530FM-12+146199999V0202101N005112200019N0200001N1+00401-00401999999ADDGA1001+999999999GF100991001001999999001001MA1999999086211MD1810121+9999ME1315759REMSYN076AAXX  28154 16008 42970 02110 10040 21040 38621 48575 58012 91438 333 92810;
0246160080999992000022818004+45750+010530FM-12+146199999V0201801N005112200019N0200001N1+00201-00491999999ADDAA199000091AJ100149199999999GA1001+999999999GF100991001001999999001001IA1239KA1120M+00421MA1999999086111MD1610101+9999ME1315669REMSYN088AAXX  28184 16008 32970 01810 10020 21049 38611 48566 56010 91738 333 10042 47014 92810;EQDQ01  00002PRCP99
0168160080999992000022821004+45750+010530FM-12+146199999V0209999C000012200019N0200001N1+00001-00401999999ADDGA1001+999999999GF100991001001999999001001MA1999999086211MD1310101+9999ME1315739REMSYN076AAXX  28214 16008 42970 00000 10000 21040 38621 48573 53010 92039 333 92810;
0227160080999992000022900004+45750+010530FM-12+146199999V0209999C000012200019N0200001N1-00101-00361999999ADDAA199000091AJ100149199999999GA1001+999999999GF100991001001999999001001IA1239MA1999999086211MD1010001+9999ME1315739REMSYN082AAXX  29004 16008 32970 00000 11010 21036 38621 48573 50000 92338 333 47014 92810;EQDQ01  00002PRCP99
0246160080999992000022906004+45750+010530FM-12+146199999V0209999C000012200019N0200001N1-00101-00251999999ADDAA199000091AJ100149199999999GA1001+999999999GF100991001001999999001001IA1239KA1120N-00101MA1999999085981MD1610031+9999ME1315549REMSYN088AAXX  29064 16008 32970 00000 11010 21025 38598 48554 56003 90538 333 21010 47014 92810;EQDQ01  00002PRCP99
0180160080999992000022909004+45750+010530FM-12+146199999V0201801N003110060019N0100001N1-00101-00101999999ADDGA1081+006009079GF108991081061008001999999MA1999999085901MD1810081+9999ME1315459REMSYN088AAXX  29094 16008 42560 81806 11010 21010 38590 48545 58008 886// 90839 333 88720 92810;
0239160080999992000022912004+45750+010530FM-12+146199999V0201801N005110060019N0100001N1-00101-00101999999ADDAA199000091AJ100149199999999GA1081+006009079GF108991081061008001999999IA1239MA1999999085811MD1710091+9999ME1315439REMSYN094AAXX  29124 16008 32560 81810 11010 21010 38581 48543 57009 886// 91138 333 47014 88720 92810;EQDQ01  00002PRCP99
0218160080999992000022915004+45750+010530FM-12+146199999V0201801N004610030019N0100001N1-00101-00101999999ADDAL10699999AY171031AY221031GA1081+003009079GF108991081071004501999999MA1999999085451MD1710361+9999ME1315029MW1701REMSYN094AAXX  29154 16008 41460 81809 11010 21010 38545 48502 57036 77072 887// 91439 333 88710 93197;
0283160080999992000022918004+45750+010530FM-12+146199999V0201901N003110030019N0100001N1-00121-00121999999ADDAA112000791AJ100149199999999AL10699999AY171061AY221061GA1081+003009079GF108991081071004501999999IA1239KA1120M-00041MA1999999085281MD1710171+9999ME1314889MW1701REMSYN112AAXX  29184 16008 11460 81906 11012 21012 38528 48488 57017 69902 77072 887// 91735 333 11004 47014 88710 93197;
0218160080999992000022921004+45750+010530FM-12+146199999V0201801N004610030019N0100001N1-00141-00141999999ADDAL10699999AY171031AY271031GA1081+003009079GF108991081071004501999999MA1999999085111MD1710171+9999ME1314699MW1701REMSYN094AAXX  29214 16008 41460 81809 11014 21014 38511 48469 57017 77077 887// 92034 333 88710 93192;
0264160080999992000030100004+45750+010530FM-12+146199999V0202001N003110030019N0100001N1-00181-00181999999ADDAA106000591AJ100149199999999AL10699999AY171061AY271061GA1081+003009079GF108991081071004501999999IA1239MA1999999084991MD1710121+9999ME1314619MW1701REMSYN106AAXX  01004 16008 11460 82006 11018 21018 38499 48461 57012 69941 77077 887// 92339 333 47014 88710 93192;
0218160080999992000030103004+45750+010530FM-12+146199999V0201801N002610030019N0100001N1-00181-00181999999ADDAL10699999AY171031AY271031GA1081+003009079GF108991081071004501999999MA1999999084701MD1710291+9999ME1314349MW1701REMSYN094AAXX  01034 16008 41460 81805 11018 21018 38470 48434 57029 77077 887// 90235 333 88710 93194;
0218160080999992000030109004+45750+010530FM-12+146199999V0202001N003610030019N0060001N1-00121-00121999999ADDAL10699999AY171031AY271031GA1081+003009079GF108991081071004501999999MA1999999084311MD1710181+9999ME1313969MW1701REMSYN094AAXX  01094 16008 41456 82007 11012 21012 38431 48396 57018 77077 887// 90838 333 88710 93194;
0264160080999992000030112004+45750+010530FM-12+146199999V0202001N004110030019N0080001N1-00061-00191999999ADDAA106001091AJ100189199999999AL10600191AY171061AY271061GA1081+003009079GF108991081071004501999999IA1239MA1999999084151MD1710161+9999ME1313799MW1701REMSYN106AAXX  01124 16008 11458 82008 11006 21019 38415 48379 57016 60011 77077 887// 91139 333 47018 88710 93101;
0218160080999992000030115004+45750+010530FM-12+146199999V0202101N004110030019N0070001N1-00021-00161999999ADDAL10699999AY171031AY271031GA1081+003009079GF108991081071004501999999MA1999999083881MD1710271+9999ME1313579MW1701REMSYN094AAXX  01154 16008 41457 82108 11002 21016 38388 48357 57027 77077 887// 91435 333 88710 93194;
0283160080999992000030118004+45750+010530FM-12+146199999V0209999C000010030019N0060001N1+00001-00021999999ADDAA112003091AJ100199199999999AL10600191AY121061AY221061GA1081+003009079GF108991081061004501999999IA1239KA1120M+00011MA1999999083791MD1610091+9999ME1313469MW1221REMSYN112AAXX  01184 16008 11456 80000 10000 21002 38379 48346 56009 60032 72222 886// 91736 333 10001 47019 88710 93101;
0218160080999992000030121004+45750+010530FM-12+146199999V0203601N007210030019N0080001N1-00081-00211999999ADDAL10699999AY171031AY221031GA1081+003009079GF108991081071004501999999MA1999999083981MD1310191+9999ME1313669MW1701REMSYN094AAXX  01214 16008 41458 83614 11008 21021 38398 48366 53019 77072 887// 92039 333 88710 93192;
0264160080999992000030200004+45750+010530FM-12+146199999V0200101N006710030019N0110001N1-00201-00781999999ADDAA106000191AJ100199199999999AL10699999AY171061AY221061GA1081+003009079GF108991081061004501999999IA1239MA1999999084291MD1210311+9999ME1313969MW1221REMSYN106AAXX  02004 16008 11461 80113 11020 21078 38429 48396 52031 69921 72272 886// 92338 333 47019 88710 93197;
0208160080999992000030203004+45750+010530FM-12+146199999V0200201N004110030019N0110001N1-00381-00861999999ADDAY171031AY221031GA1081+003009079GF108991081061004501999999MA1999999084421MD1110131+9999ME1314049MW1021REMSYN094AAXX  02034 16008 41461 80208 11038 21086 38442 48404 51013 70272 886// 90235 333 88710 92800;
0245160080999992000030206004+45750+010530FM-12+146199999V0203601N007210060019N0150001N1-00381-00891999999ADDAA112000191AJ100199199999999GA1061+006009089GF106991061021008001001001IA1239KA1120N-00381MA1999999084701MD1310281+9999ME1314349REMSYN106AAXX  02064 16008 12565 63614 11038 21089 38470 48434 53028 69922 86200 90536 333 21038 47019 86820 92800;
0180160080999992000030209004+45750+010530FM-12+146199999V0200101N007210060019N0200001N1-00341-01231999999ADDGA1051+006009089GF105991051021008001001001MA1999999085081MD1210381+9999ME1314699REMSYN088AAXX  02094 16008 42570 50114 11034 21123 38508 48469 52038 85200 90834 333 85820 92810;
0220160080999992000030212004+45750+010530FM-12+146199999V0200201N006712200019N0200001N1+00101-01191999999ADDAA199000021AJ100199199999999GA1041+006009089GF104991041021008001001001IA1239MA1999999085211MD1210131+9999ME1314809REMSYN094AAXX  02124 16008 32570 40213 10010 21119 38521 48480 52013 84200 91137 333 47019 84820 92811;
0180160080999992000030215004+45750+010530FM-12+146199999V0203601N005710060019N0200001N1+00081-01231999999ADDGA1051+006009089GF105991051021008001001001MA1999999085341MD1210131+9999ME1314949REMSYN088AAXX  02154 16008 42570 53611 10008 21123 38534 48494 52013 85200 91439 333 85820 92811;
0246160080999992000030218004+45750+010530FM-12+146199999V0200401N002612200019N0200001N1-00201-01251999999ADDAA199000091AJ100199199999999GA1001+999999999GF100991001001999999001001IA1239KA1120M+00121MA1999999085401MD1210061+9999ME1314999REMSYN088AAXX  02184 16008 32970 00405 11020 21125 38540 48499 52006 91738 333 10012 47019 92810;EQDQ01  00002PRCP99
0168160080999992000030221004+45750+010530FM-12+146199999V0200401N003612200019N0200001N1-00421-01081999999ADDGA1001+999999999GF100991001001999999001001MA1999999085511MD1110111+9999ME1315079REMSYN076AAXX  02214 16008 42970 00407 11042 21108 38551 48507 51011 92035 333 92810;
0227160080999992000030300004+45750+010530FM-12+146199999V0200401N003112200019N0200001N1-00601-01001999999ADDAA199000091AJ100199199999999GA1001+999999999GF100991001001999999001001IA1239MA1999999085581MD1110071+9999ME1315179REMSYN082AAXX  03004 16008 32970 00406 11060 21100 38558 48517 51007 92334 333 47019 92810;EQDQ01  00002PRCP99
0168160080999992000030303004+45750+010530FM-12+146199999V0200401N004112200019N0200001N1-00541-00961999999ADDGA1001+999999999GF100991001001999999001001MA1999999085421MD1810161+9999ME1314989REMSYN076AAXX  03034 16008 42970 00408 11054 21096 38542 48498 58016 90236 333 92820;
0246160080999992000030306004+45750+010530FM-12+146199999V0209999C000012200019N0200001N1-00641-01091999999ADDAA199000091AJ100199199999999GA1001+999999999GF100991001001999999001001IA1239KA1120N-00641MA1999999085291MD1610131+9999ME1314889REMSYN088AAXX  03064 16008 32970 00000 11064 21109 38529 48488 56013 90537 333 21064 47019 92820;EQDQ01  00002PRCP99
0180160080999992000030309004+45750+010530FM-12+146199999V0209999C000012200019N0300001N1-00701-01061999999ADDGA1041+024009039GF104991041001022501031001MA1999999085271MD1810021+9999ME1314859REMSYN088AAXX  03094 16008 42880 40000 11070 21106 38527 48485 58002 84030 90839 333 84358 92820;
0239160080999992000030312004+45750+010530FM-12+146199999V0202001N003610240019N0300001N1+00001-01481999999ADDAA199000091AJ100199199999999GA1061+024009039GF106991061001022501031001IA1239MA1999999085191MD1710081+9999ME1314809REMSYN094AAXX  03124 16008 32880 62007 10000 21148 38519 48480 57008 86030 91135 333 47019 86358 92821;EQDQ01  00002PRCP99
0180160080999992000030315004+45750+010530FM-12+146199999V0202001N001510120019N0300001N1+00101-01341999999ADDGA1061+012009069GF106991061051012501001001MA1999999085001MD1710191+9999ME1314619REMSYN088AAXX  03154 16008 42680 62003 10010 21134 38500 48461 57019 86500 91437 333 86640 92821;
0258160080999992000030318004+45750+010530FM-12+146199999V0209999C000012200019N0200001N1+00001-01141999999ADDAA199000091AJ100199199999999GA1031+024009039GF103991031001022501031001IA1239KA1120M+00121MA1999999084971MD1610031+9999ME1314569REMSYN100AAXX  03184 16008 32870 30000 10000 21114 38497 48456 56003 83030 91739 333 10012 47019 83358 92821;EQDQ01  00002PRCP99
0168160080999992000030321004+45750+010530FM-12+146199999V0209999C000012200019N0200001N1-00301-00911999999ADDGA1001+999999999GF100991001001999999001001MA1999999084981MD1310011+9999ME1314619REMSYN076AAXX  03214 16008 42970 00000 11030 21091 38498 48461 53001 92036 333 92820;
0227160080999992000030400004+45750+010530FM-12+146199999V0209999C000012200019N0200001N1-00481-00931999999ADDAA199000091AJ100199199999999GA1001+999999999GF100991001001999999001001IA1239MA1999999084911MD1810071+9999ME1314539REMSYN082AAXX  04004 16008 32970 00000 11048 21093 38491 48453 58007 92338 333 47019 92820;EQDQ01  00002PRCP99
0168160080999992000030403004+45750+010530FM-12+146199999V0209999C000012200019N0200001N1-00401-00761999999ADDGA1001+999999999GF100991001001999999001001MA1999999084701MD1710211+9999ME1314349REMSYN076AAXX  04034 16008 42970 00000 11040 21076 38470 48434 57021 90236 333 92820;
0246160080999992000030406004+45750+010530FM-12+146199999V0209999C000012200019N0200001N1-00301-00761999999ADDAA199000091AJ100199199999999GA1001+999999999GF100991001001999999001001IA1239KA1120N-00481MA1999999084601MD1710101+9999ME1314239REMSYN088AAXX  04064 16008 32970 00000 11030 21076 38460 48423 57010 90535 333 21048 47019 92820;EQDQ01  00002PRCP99
0218160080999992000030409004+45750+010530FM-12+146199999V0209999C000010030019N0120001N1-00241-00331999999ADDAL10699999AY171031AY211031GA1081+003009079GF108991081071004501999999MA1999999084611MD1310011+9999ME1314239MW1701REMSYN094AAXX  04094 16008 41462 80000 11024 21033 38461 48423 53001 77071 887// 90834 333 88710 93197;
0180160080999992000030415004+45750+010530FM-12+146199999V0200201N007710045019N0200001N1+00421-01291999999ADDGA1051+004509089GF105991051021004501001001MA1999999084901MD1210141+9999ME1314539REMSYN088AAXX  04154 16008 42470 50215 10042 21129 38490 48453 52014 85200 91437 333 85815 92811;
0245160080999992000030418004+45750+010530FM-12+146199999V0200201N006712200019N0200001N1+00021-01441999999ADDAA112000791AJ100189199999999GA1031+006009089GF103991031021008001001001IA1239KA1120M+00501MA1999999085091MD1210191+9999ME1314699REMSYN106AAXX  04184 16008 12570 30213 10002 21144 38509 48469 52019 69902 83200 91735 333 10050 47018 83820 92811;
0168160080999992000030421004+45750+010530FM-12+146199999V0200101N005712200019N0200001N1-00101-01121999999ADDGA1001+999999999GF100991001001999999001001MA1999999085311MD1210221+9999ME1314889REMSYN076AAXX  04214 16008 42970 00111 11010 21112 38531 48488 52022 92036 333 92810;
0227160080999992000030500004+45750+010530FM-12+146199999V0200101N005112200019N0200001N1-00201-01161999999ADDAA199000091AJ100189199999999GA1001+999999999GF100991001001999999001001IA1239MA1999999085491MD1210181+9999ME1315079REMSYN082AAXX  05004 16008 32970 00110 11020 21116 38549 48507 52018 92339 333 47018 92810;EQDQ01  00002PRCP99
0168160080999992000030503004+45750+010530FM-12+146199999V0200401N003612200019N0200001N1-00301-01161999999ADDGA1001+999999999GF100991001001999999001001MA1999999085611MD1110121+9999ME1315189REMSYN076AAXX  05034 16008 42970 00407 11030 21116 38561 48518 51012 90234 333 92810;
0180160080999992000030509004+45750+010530FM-12+146199999V0200401N004612200019N0300001N1-00621-01251999999ADDGA1031+006009089GF103991031021008001001001MA1999999085921MD1210221+9999ME1315449REMSYN088AAXX  05094 16008 42580 30409 11062 21125 38592 48544 52022 83200 90838 333 83820 92820;
0227160080999992000030512004+45750+010530FM-12+146199999V0200201N006212200019N0300001N1-00101-01481999999ADDAA199000091AJ100169199999999GA1001+999999999GF100991001001999999001001IA1239MA1999999086011MD1110091+9999ME1315549REMSYN082AAXX  05124 16008 32980 00212 11010 21148 38601 48554 51009 91135 333 47016 92820;EQDQ01  00002PRCP99
0168160080999992000030515004+45750+010530FM-12+146199999V0203401N003112200019N0250001N1+00041-01761999999ADDGA1001+999999999GF100991001001999999001001MA1999999086001MD1810011+9999ME1315549REMSYN076AAXX  05154 16008 42975 03406 10004 21176 38600 48554 58001 91438 333 92820;
0252160080999992000030518004+45750+010530FM-12+146199999V0200301N001512200019N0250001N1-00121-01721999999ADDAA199000091AJ100169199999999GF102991001001999999001011IA1239KA1120M+00061MA1999999086031MD1310031+9999ME1315599REMSYN094AAXX  05184 16008 32975 20303 11012 21172 38603 48559 53003 82001 91735 333 10006 47016 92820;EQDQ01+000022SCOTLCQ02  00002PRCP99
0168160080999992000030521004+45750+010530FM-12+146199999V0200401N005712200019N0250001N1-00301-01531999999ADDGA1001+999999999GF100991001001999999001001MA1999999086191MD1110161+9999ME1315729REMSYN076AAXX  05214 16008 42975 00411 11030 21153 38619 48572 51016 92036 333 92820;
0227160080999992000030600004+45750+010530FM-12+146199999V0200401N004612200019N0250001N1-00441-01401999999ADDAA199000091AJ100169199999999GA1001+999999999GF100991001001999999001001IA1239MA1999999086221MD1310031+9999ME1315719REMSYN082AAXX  06004 16008 32975 00409 11044 21140 38622 48571 53003 92337 333 47016 92820;EQDQ01  00002PRCP99
0198160080999992000030603004+45750+010530FM-12+146199999V0200301N004612200019N0250001N1-00541-01331999999ADDAA199000091GA1001+999999999GF100991001001999999001001MA1999999086221MD1810011+9999ME1315719REMSYN076AAXX  06034 16008 32975 00309 11054 21133 38622 48571 58001 90238 333 92820;EQDQ01  00002PRCP99
0258160080999992000030606004+45750+010530FM-12+146199999V0209999C000010300019N0250001N1-00601-01301999999ADDAA199000091AJ100169199999999GA1061+030009039GF106991061001999999031001IA1239KA1120N-00601MA1999999086211MD1610011+9999ME1315719REMSYN100AAXX  06064 16008 32975 60000 11060 21130 38621 48571 56001 86030 90540 333 21060 47016 86360 92820;EQDQ01  00002PRCP99
0168160080999992000030609004+45750+010530FM-12+146199999V0209999C000012200019N0250001N1-00601-01221999999ADDGA1001+999999999GF100991001001999999001001MA1999999086331MD1310121+9999ME1315849REMSYN076AAXX  06094 16008 42975 00000 11060 21122 38633 48584 53012 90835 333 92820;
0168160080999992000030615004+45750+010530FM-12+146199999V0202001N006212200019N0250001N1+00321-01451999999ADDGA1001+999999999GF100991001001999999001001MA1999999086191MD1610121+9999ME1315749REMSYN076AAXX  06154 16008 42975 02012 10032 21145 38619 48574 56012 91434 333 92884;
0268160080999992000030618004+45750+010530FM-12+146199999V0209999C000012200019N0250001N1+00101-01191999999ADDAA199000091AJ100129199999999GA1071+003609009GF199999001001999999001001IA1239KA1120M+00341MA1999999086241MD1310051+9999ME1315799REMSYN094AAXX  06184 16008 32975 00000 10010 21119 38624 48579 53005 91735 333 10034 47012 87012 92884;EQDQ01+000002SCOTCVQ02  00002PRCP99
0168160080999992000030621004+45750+010530FM-12+146199999V0209999C000012200019N0250001N1-00221-00781999999ADDGA1001+999999999GF100991001001999999001001MA1999999086291MD1110051+9999ME1315809REMSYN076AAXX  06214 16008 42975 00000 11022 21078 38629 48580 51005 92039 333 92873;
0227160080999992000030700004+45750+010530FM-12+146199999V0209999C000012200019N0250001N1-00441-00781999999ADDAA199000091AJ100129199999999GA1001+999999999GF100991001001999999001001IA1239MA1999999086291MD1410001+9999ME1315799REMSYN082AAXX  07004 16008 32975 00000 11044 21078 38629 48579 54000 92335 333 47012 92873;EQDQ01  00002PRCP99
0168160080999992000030703004+45750+010530FM-12+146199999V0200401N003112200019N0250001N1-00501-00791999999ADDGA1001+999999999GF100991001001999999001001MA1999999086131MD1810161+9999ME1315669REMSYN076AAXX  07034 16008 42975 00406 11050 21079 38613 48566 58016 90238 333 92873;
0246160080999992000030706004+45750+010530FM-12+146199999V0200401N002612200019N0250001N1-00501-00821999999ADDAA199000091AJ100129199999999GA1001+999999999GF100991001001999999001001IA1239KA1120N-00501MA1999999086101MD1610031+9999ME1315639REMSYN088AAXX  07064 16008 32975 00405 11050 21082 38610 48563 56003 90537 333 21050 47012 92843;EQDQ01  00002PRCP99
0177160080999992000030709004+45750+010530FM-12+146199999V0200301N001512200019N0250001N1-00241-00711999999ADDGF101991001001999999001011MA1999999086081MD1810021+9999ME1315649REMSYN082AAXX  07094 16008 42975 10303 11024 21071 38608 48564 58002 81001 90836 333 92843;EQDQ01+000012SCOTLC
0233160080999992000030712004+45750+010530FM-12+146199999V0200301N003619999999N0250001N1+00721-00821999999ADDAA199000091AJ100119199999999GF105991001001999999001011IA1239MA1999999085991MD1610091+9999ME1315569REMSYN088AAXX  07124 16008 32975 50307 10072 21082 38599 48556 56009 85001 91139 333 47011 92844;EQDQ01+000052SCOTLCQ02  00002PRCP99
0177160080999992000030715004+45750+010530FM-12+146199999V0200301N004112200019N0250001N1+01161-01301999999ADDGF101991001001999999001011MA1999999085841MD1810161+9999ME1315449REMSYN082AAXX  07154 16008 42975 10308 10116 21130 38584 48544 58016 81001 91437 333 92844;EQDQ01+000012SCOTLC
0246160080999992000030718004+45750+010530FM-12+146199999V0200401N003112200019N0250001N1+00581-01091999999ADDAA199000091AJ100089199999999GA1001+999999999GF100991001001999999001001IA1239KA1120M+01181MA1999999085911MD1310071+9999ME1315479REMSYN088AAXX  07184 16008 32975 00406 10058 21109 38591 48547 53007 91735 333 10118 47008 92844;EQDQ01  00002PRCP99
0168160080999992000030721004+45750+010530FM-12+146199999V0200201N001512200019N0250001N1+00161-00701999999ADDGA1001+999999999GF100991001001999999001001MA1999999086021MD1110111+9999ME1315549REMSYN076AAXX  07214 16008 42975 00203 10016 21070 38602 48554 51011 92036 333 92844;
0227160080999992000030800004+45750+010530FM-12+146199999V0200501N001512200019N0250001N1+00021-00771999999ADDAA199000091AJ100089199999999GA1001+999999999GF100991001001999999001001IA1239MA1999999086101MD1310081+9999ME1315659REMSYN082AAXX  08004 16008 32975 00503 10002 21077 38610 48565 53008 92337 333 47008 92844;EQDQ01  00002PRCP99
0168160080999992000030803004+45750+010530FM-12+146199999V0200401N003112200019N0250001N1-00061-00681999999ADDGA1001+999999999GF100991001001999999001001MA1999999086111MD1110011+9999ME1315649REMSYN076AAXX  08034 16008 42975 00406 11006 21068 38611 48564 51001 90234 333 92844;
0258160080999992000030806004+45750+010530FM-12+146199999V0200401N004112200019N0250001N1-00121-00711999999ADDAA199000091AJ100089199999999GA1011+021009039GF101991011001999999041001IA1239KA1120N-00121MA1999999086111MD1410001+9999ME1315649REMSYN100AAXX  08064 16008 32975 10408 11012 21071 38611 48564 54000 81040 90537 333 21012 47008 81357 92844;EQDQ01  00002PRCP99
0180160080999992000030809004+45750+010530FM-12+146199999V0200301N003610120019N0200001N1+00001-00631999999ADDGA1071+012009069GF107991071051012501001001MA1999999086201MD1310091+9999ME1315769REMSYN088AAXX  08094 16008 42670 70307 10000 21063 38620 48576 53009 87500 90834 333 87640 92844;
0239160080999992000030812004+45750+010530FM-12+146199999V0200301N002610105019N0170001N1+00421-00351999999ADDAA199000091AJ100089199999999GA1081+010509069GF108991081051012501999999IA1239MA1999999086241MD1110041+9999ME1315809REMSYN094AAXX  08124 16008 32667 80305 10042 21035 38624 48580 51004 885// 91136 333 47008 88635 92844;EQDQ01  00002PRCP99
0180160080999992000030815004+45750+010530FM-12+146199999V0200501N003110105019N0180001N1+00701-00251999999ADDGA1071+010509069GF107991071051012501001001MA1999999086111MD1810131+9999ME1315679REMSYN088AAXX  08154 16008 42668 70506 10070 21025 38611 48567 58013 87500 91439 333 87635 92844;
0258160080999992000030818004+45750+010530FM-12+146199999V0209999C000010105019N0140001N1+00601-00041999999ADDAA199000091AJ100079199999999GA1081+010509069GF108991081051012501999999IA1239KA1120M+00741MA1999999086041MD1610071+9999ME1315619REMSYN100AAXX  08184 16008 32664 80000 10060 21004 38604 48561 56007 885// 91735 333 10074 47007 88635 92844;EQDQ01  00002PRCP99
0208160080999992000030821004+45750+010530FM-12+146199999V0200401N005110090019N0120001N1+00301+00261999999ADDAY161031AY221031GA1081+009009079GF108991081071008001999999MA1999999086121MD1310081+9999ME1315669MW1601REMSYN094AAXX  08214 16008 41562 80410 10030 20026 38612 48566 53008 76062 887// 92038 333 88730 92844;
0254160080999992000030900004+45750+010530FM-12+146199999V0200401N006710090019N0140001N1+00281+00261999999ADDAA106001091AJ100079199999999AY161061AY261061GA1081+009009079GF108991081071008001999999IA1239MA1999999086091MD1810041+9999ME1315669MW1601REMSYN106AAXX  09004 16008 11564 80413 10028 20026 38609 48566 58004 60011 76066 887// 92336 333 47007 88730 92854;
0208160080999992000030903004+45750+010530FM-12+146199999V0200601N005110090019N0140001N1+00301+00281999999ADDAY161031AY221031GA1081+009009079GF108991081071008001999999MA1999999086011MD1610081+9999ME1315559MW1601REMSYN094AAXX  09034 16008 41564 80610 10030 20028 38601 48555 56008 76062 887// 90239 333 88730 92854;
0273160080999992000030906004+45750+010530FM-12+146199999V0200401N004110105019N0150001N1+00301+00281999999ADDAA112002091AJ100079199999999AY161061AY221061GA1081+010509079GF108991081061012501999999IA1239KA1120N+00261MA1999999086001MD1810011+9999ME1315559MW1021REMSYN112AAXX  09064 16008 11665 80408 10030 20028 38600 48555 58001 60022 70262 886// 90535 333 20026 47007 88735 92854;
0208160080999992000030909004+45750+010530FM-12+146199999V0200301N002610090019N0080001N1+00381+00361999999ADDAY161031AY221031GA1081+009009079GF108991081071008001999999MA1999999086091MD1310091+9999ME1315669MW1601REMSYN094AAXX  09094 16008 41558 80305 10038 20036 38609 48566 53009 76062 887// 90837 333 88730 92854;
0254160080999992000030912004+45750+010530FM-12+146199999V0200601N002110090019N0110001N1+00741+00541999999ADDAA106000191AJ100069199999999AY161061AY261061GA1081+009009079GF108991081071008001999999IA1239MA1999999086091MD1010001+9999ME1315689MW1601REMSYN106AAXX  09124 16008 11561 80604 10074 20054 38609 48568 50000 69921 76066 887// 91136 333 47006 88730 92854;
0208160080999992000030915004+45750+010530FM-12+146199999V0200301N001512200019N0200001N1+01001+00481999999ADDAY161031AY211031GA1021+009009089GF104991021011008001011001MA1999999085961MD1610141+9999ME1315549MW1011REMSYN094AAXX  09154 16008 41570 40303 10100 20048 38596 48554 56014 70161 82110 91438 333 82830 92857;
0180160080999992000030921004+45750+010530FM-12+146199999V0200401N001510105019N0200001N1+00461-00181999999ADDGA1071+010509069GF107991071051012501001001MA1999999085881MD1510001+9999ME1315449REMSYN088AAXX  09214 16008 42670 70403 10046 21018 38588 48544 55000 87500 92035 333 87635 92857;
0220160080999992000031000004+45750+010530FM-12+146199999V0209999C000010105019N0200001N1+00441-00271999999ADDAA199000021AJ100049199999999GA1071+010509069GF107991071061012501001001IA1239MA1999999085801MD1810081+9999ME1315369REMSYN094AAXX  10004 16008 32670 70000 10044 21027 38580 48536 58008 87600 92337 333 47004 87635 92857;
0273160080999992000031006004+45750+010530FM-12+146199999V0200601N004110060019N0040001N1+00301+00001999999ADDAA112000791AJ100049199999999AY161061AY221061GA1081+006009079GF108991081071008001999999IA1239KA1120N+00301MA1999999085801MD1310101+9999ME1315369MW1601REMSYN112AAXX  10064 16008 11540 80608 10030 21000 38580 48536 53010 69902 76062 887// 90534 333 20030 47004 88720 92857;
0208160080999992000031009004+45750+010530FM-12+146199999V0200501N005712200019N0200001N1+00301+00091999999ADDAY161031AY211031GA1041+009009089GF104991041021008001001001MA1999999085831MD1110031+9999ME1315419MW1011REMSYN094AAXX  10094 16008 41570 40511 10030 20009 38583 48541 51003 70161 84200 90838 333 84830 92857;
0254160080999992000031012004+45750+010530FM-12+146199999V0200401N007212200019N0250001N1+00901-00141999999ADDAA106000191AJ100049199999999AY161061AY211061GA1031+009009089GF103991031021008001001001IA1239MA1999999085851MD1310031+9999ME1315439MW1011REMSYN106AAXX  10124 16008 11575 30414 10090 21014 38585 48543 53003 69921 70161 83200 91136 333 47004 83830 92857;
0180160080999992000031015004+45750+010530FM-12+146199999V0200301N010312200019N0250001N1+00901-00471999999ADDGA1031+009009089GF103991031021008001001001MA1999999085821MD1810031+9999ME1315379REMSYN088AAXX  10154 16008 42575 30320 10090 21047 38582 48537 58003 83200 91439 333 83830 92857;
0245160080999992000031018004+45750+010530FM-12+146199999V0200301N007712200019N0250001N1+00641-00401999999ADDAA112000191AJ100049199999999GA1021+009009089GF102991021021008001001001IA1259KA1120M+00961MA1999999085781MD1610041+9999ME1315369REMSYN106AAXX  10184 16008 12575 20315 10064 21040 38578 48536 56004 69922 82200 91734 333 10096 41004 82830 92857;
0168160080999992000031021004+45750+010530FM-12+146199999V0200501N003612200019N0200001N1+00441-00191999999ADDGA1001+999999999GF100991001001999999001001MA1999999085801MD1310021+9999ME1315369REMSYN076AAXX  10214 16008 42970 00507 10044 21019 38580 48536 53002 92036 333 92857;
0227160080999992000031100004+45750+010530FM-12+146199999V0209999C000012200019N0200001N1+00281-00121999999ADDAA199000091AJ100049199999999GA1001+999999999GF100991001001999999001001IA1259MA1999999085811MD1110011+9999ME1315369REMSYN082AAXX  11004 16008 32970 00000 10028 21012 38581 48536 51001 92337 333 41004 92857;EQDQ01  00002PRCP99
0168160080999992000031103004+45750+010530FM-12+146199999V0209999C000012200019N0200001N1+00301+00021999999ADDGA1001+999999999GF100991001001999999001001MA1999999085701MD1810121+9999ME1315279REMSYN076AAXX  11034 16008 42970 00000 10030 20002 38570 48527 58012 90238 333 92857;
0246160080999992000031106004+45750+010530FM-12+146199999V0209999C000012200019N0200001N1+00101-00151999999ADDAA199000091AJ100049199999999GA1001+999999999GF100991001001999999001001IA1259KA1120N+00101MA1999999085571MD1710131+9999ME1315139REMSYN088AAXX  11064 16008 32970 00000 10010 21015 38557 48513 57013 90537 333 20010 41004 92857;EQDQ01  00002PRCP99
0168160080999992000031109004+45750+010530FM-12+146199999V0200401N004112200019N0250001N1+00341-00261999999ADDGA1001+999999999GF100991001001999999001001MA1999999085501MD1710071+9999ME1315089REMSYN076AAXX  11094 16008 42975 00408 10034 21026 38550 48508 57007 90837 333 92857;
0198160080999992000031112004+45750+010530FM-12+146199999V0200601N006712200019N0250001N1+01141-00891999999ADDAA199000091GA1001+999999999GF100991001001999999001001MA1999999085421MD1710091+9999ME1315019REMSYN076AAXX  11124 16008 32975 00613 10114 21089 38542 48501 57009 91137 333 92857;EQDQ01  00002PRCP99
0174160080999992000031115004+45750+010530FM-12+146199999V0200601N005710090019N0250001N1+01101-00941999999ADDGA1051+009009089GF105991051021008001001001MA1999999085291MD1710131+9999ME1314899REMSYN082AAXX  11154 16008 42575 50611 10110 21094 38529 48489 57013 85200 333 85830 92857;
0280160080999992000031118004+45750+010530FM-12+146199999V0200501N004110090019N0250001N1+00981-00411999999ADDAA199000091AJ100049199999999GA1051+009009089GA2071+021009049GF107991051021008001011001IA1259KA1120M+01181MA1999999085221MD1610071+9999ME1314819REMSYN106AAXX  11184 16008 32575 70508 10098 21041 38522 48481 56007 85210 91736 333 10118 41004 85830 87457 92857;EQDQ01  00002PRCP99
0180160080999992000031121004+45750+010530FM-12+146199999V0200101N006210090019N0250001N1+00721-00401999999ADDGA1051+009009089GF105991051021008001001001MA1999999085271MD1310051+9999ME1314869REMSYN088AAXX  11214 16008 42575 50112 10072 21040 38527 48486 53005 85200 92038 333 85830 92857;
0239160080999992000031200004+45750+010530FM-12+146199999V0209999C000010090019N0200001N1+00501-00091999999ADDAA199000091AJ100049199999999GA1061+009009089GF106991061021008001001001IA1259MA1999999085371MD1210101+9999ME1314949REMSYN094AAXX  12004 16008 32570 60000 10050 21009 38537 48494 52010 86200 92337 333 41004 86830 92857;EQDQ01  00002PRCP99
0180160080999992000031203004+45750+010530FM-12+146199999V0200401N005110090019N0200001N1+00441-00321999999ADDGA1071+009009089GF107991071021008001001001MA1999999085431MD1110061+9999ME1315039REMSYN088AAXX  12034 16008 42570 70410 10044 21032 38543 48503 51006 87200 90236 333 87830 92857;
0258160080999992000031206004+45750+010530FM-12+146199999V0209999C000012200019N0250001N1+00341-00371999999ADDAA199000091AJ100049199999999GA1031+009009089GF103991031021008001001001IA1259KA1120N+00341MA1999999085511MD1310081+9999ME1315089REMSYN100AAXX  12064 16008 32575 30000 10034 21037 38551 48508 53008 83200 90536 333 20034 41004 83830 92857;EQDQ01  00002PRCP99
0168160080999992000031209004+45750+010530FM-12+146199999V0209999C000012200019N0250001N1+00181-00291999999ADDGA1001+999999999GF100991001001999999001001MA1999999085601MD1110091+9999ME1315199REMSYN076AAXX  12094 16008 42975 00000 10018 21029 38560 48519 51009 90838 333 92857;
0227160080999992000031212004+45750+010530FM-12+146199999V0200401N003612200019N0250001N1+00901-00541999999ADDAA199000091AJ100039199999999GA1001+999999999GF100991001001999999001001IA1259MA1999999085641MD1310041+9999ME1315239REMSYN082AAXX  12124 16008 32975 00407 10090 21054 38564 48523 53004 91137 333 41003 92857;EQDQ01  00002PRCP99
0168160080999992000031215004+45750+010530FM-12+146199999V0200401N003612200019N0300001N1+01221-00841999999ADDGA1001+999999999GF100991001001999999001001MA1999999085561MD1810081+9999ME1315159REMSYN076AAXX  12154 16008 42980 00407 10122 21084 38556 48515 58008 91436 333 92857;
0246160080999992000031218004+45750+010530FM-12+146199999V0200601N004112200019N0250001N1+00761-01041999999ADDAA199000091AJ100039199999999GA1001+999999999GF100991001001999999001001IA1259KA1120M+01221MA1999999085531MD1610021+9999ME1315149REMSYN088AAXX  12184 16008 32975 00608 10076 21104 38553 48514 56002 91737 333 10122 41003 92857;EQDQ01  00002PRCP99
0158160080999992000031221004+45750+010530FM-12+146199999V0209999C000012200019N0250001N1+00421-00891999999ADDGF103991001001999999001011MA1999999085691MD1310161+9999ME1315289REMSYN082AAXX  12214 16008 42975 30000 10042 21089 38569 48528 53016 80001 92037 333 92857;
0227160080999992000031300004+45750+010530FM-12+146199999V0209999C000012200019N0250001N1+00141-00541999999ADDAA199000091AJ100039199999999GA1001+999999999GF100991001001999999001001IA1259MA1999999085801MD1110111+9999ME1315359REMSYN082AAXX  13004 16008 32975 00000 10014 21054 38580 48535 51011 92337 333 41003 92857;EQDQ01  00002PRCP99
0185160080999992000031303004+45750+010530FM-12+146199999V0209999C000019999999N9999999N1+00141-00541999999ADDAA199000091AJ100039199999999IA1259MA1999999085801MD1110111+9999ME1315359REMSYN082AAXX  13034 16008 3297/ /0000 10014 21054 38580 48535 51011 92337 333 41003 92857;EQDQ01  00002PRCP99
0246160080999992000031306004+45750+010530FM-12+146199999V0209999C000012200019N0250001N1-00041-00421999999ADDAA199000091AJ100039199999999GA1001+999999999GF100991001001999999001001IA1259KA1120N-00041MA1999999085801MD1410001+9999ME1315359REMSYN088AAXX  13064 16008 32975 00000 11004 21042 38580 48535 54000 90537 333 21004 41003 92857;EQDQ01  00002PRCP99
0168160080999992000031309004+45750+010530FM-12+146199999V0200401N003112200019N0250001N1-00041-00391999999ADDGA1001+999999999GF100991001001999999001001MA1999999085811MD1310011+9999ME1315359REMSYN076AAXX  13094 16008 42975 00406 11004 21039 38581 48535 53001 90836 333 92857;
0227160080999992000031312004+45750+010530FM-12+146199999V0209999C000012200019N0300001N1+01001-00441999999ADDAA199000091AJ100029199999999GA1001+999999999GF100991001001999999001001IA1259MA1999999085771MD1810031+9999ME1315359REMSYN082AAXX  13124 16008 32980 00000 10100 21044 38577 48535 58003 91137 333 41002 92857;EQDQ01  00002PRCP99
0168160080999992000031315004+45750+010530FM-12+146199999V0200401N002612200019N0300001N1+01301-01491999999ADDGA1001+999999999GF100991001001999999001001MA1999999085671MD1610101+9999ME1315249REMSYN076AAXX  13154 16008 42980 00405 10130 21149 38567 48524 56010 91436 333 92857;
0211160080999992000031318004+45750+010530FM-12+146199999V0209999C000012200019N0250001N1+00661-01061999999ADDAA199000091GA1001+999999999GF100991001001999999001001KA1999M+01381MA1999999085701MD1310031+9999ME1315289REMSYN076AAXX  13184 16008 32975 00000 10066 21106 38570 48528 53003 91737 333 10138;EQDQ01  00002PRCP99
0158160080999992000031321004+45750+010530FM-12+146199999V0209999C000012200019N0200001N1+00301-00741999999ADDGA1001+999999999GF100991001001999999001001MA1999999085311MD1210121+9999ME1315369REMSYN066AAXX  13214 16008 42970 00000 10030 21074 38531 48536 52012 92037;
0188160080999992000031400004+45750+010530FM-12+146199999V0209999C000012200019N0200001N1+00121-00601999999ADDAA199000091GA1001+999999999GF100991001001999999001001MA1999999085871MD1210061+9999ME1315419REMSYN066AAXX  14004 16008 32970 00000 10012 21060 38587 48541 52006 92337;EQDQ01  00002PRCP99
0158160080999992000031403004+45750+010530FM-12+146199999V0209999C000012200019N0200001N1+00101-00501999999ADDGA1001+999999999GF100991001001999999001001MA1999999085811MD1810061+9999ME1315359REMSYN066AAXX  14034 16008 42970 00000 10010 21050 38581 48535 58006 90238;
0223160080999992000031406004+45750+010530FM-12+146199999V0209999C000012200019N0200001N1+00021-00461999999ADDAA199000091GA1041+012009059GF104991041051012501001001KA1120N+00001MA1999999085751MD1710061+9999ME1315329REMSYN088AAXX  14064 16008 32670 40000 10002 21046 38575 48532 57006 84500 90537 333 20000 84640;EQDQ01  00002PRCP99
0174160080999992000031409004+45750+010530FM-12+146199999V0200301N002610090019N0200001N1+00201-00351999999ADDGA1081+009009059GF108991081051008001999999MA1999999085771MD1310021+9999ME1315339REMSYN082AAXX  14094 16008 42570 80305 10020 21035 38577 48533 53002 885// 90836 333 88630;
0204160080999992000031412004+45750+010530FM-12+146199999V0200501N004110120019N0250001N1+00541-00111999999ADDAA199000091GA1061+012009059GF106991061051012501001001MA1999999085731MD1810041+9999ME1315339REMSYN082AAXX  14124 16008 32675 60508 10054 21011 38573 48533 58004 86500 91137 333 86640;EQDQ01  00002PRCP99
0193160080999992000031415004+45750+010530FM-12+146199999V0200301N004612200019N0250001N1+00861-00091999999ADDGA1041+015009079GF104991041999017501041001MA1999999085601MD1710131+9999ME1315209REMSYN082AAXX  14154 16008 42775 40309 10086 21009 38560 48520 57013 84040 91436 333 84350;EQDQ01+000002SCOLCG
0223160080999992000031418004+45750+010530FM-12+146199999V0209999C000010120019N0200001N1+00661-00091999999ADDAA199000091GA1081+012009059GF108991081051012501999999KA1120M+00981MA1999999085461MD1710141+9999ME1315039REMSYN088AAXX  14184 16008 32670 80000 10066 21009 38546 48503 57014 885// 91737 333 10098 88640;EQDQ01  00002PRCP99
0174160080999992000031421004+45750+010530FM-12+146199999V0200801N002610120019N0200001N1+00441+00091999999ADDGA1081+012009059GF108991081051012501999999MA1999999085371MD1610101+9999ME1314949REMSYN082AAXX  14214 16008 42670 80805 10044 20009 38537 48494 56010 885// 92036 333 88640;
0204160080999992000031500004+45750+010530FM-12+146199999V0209999C000010090019N0200001N1+00301+00301999999ADDAA199000091GA1081+009009069GF108991081061008001999999MA1999999085271MD1810091+9999ME1314869REMSYN082AAXX  15004 16008 32570 80000 10030 20030 38527 48486 58009 886// 92337 333 88730;EQDQ01  00002PRCP99
0202160080999992000031503004+45750+010530FM-12+146199999V0209999C000010060019N0200001N1+00141+00141999999ADDAY161031AY221031GA1081+006009069GF108991081071008001999999MA1999999085161MD1810111+9999ME1314759MW1601REMSYN088AAXX  15034 16008 41570 80000 10014 20014 38516 48475 58011 76062 887// 90236 333 88720;
0238160080999992000031506004+45750+010530FM-12+146199999V0200601N007710060019N0200001N1+00101+00031999999ADDAA112002091AY161061AY221061GA1081+006009069GF108991081061008001999999KA1120N+00101MA1999999085141MD1310081+9999ME1314759MW1021REMSYN100AAXX  15064 16008 11570 80615 10010 20003 38514 48475 53008 60022 70262 886// 90536 333 20010 88720;
0174160080999992000031509004+45750+010530FM-12+146199999V0200401N012310060019N0200001N1+00041-00671999999ADDGA1061+006009069GF106991061061008001001001MA1999999085381MD1210241+9999ME1314999REMSYN082AAXX  15094 16008 42570 60424 10004 21067 38538 48499 52024 86600 90838 333 86720;
0185160080999992000031512004+45750+010530FM-12+146199999V0200301N010312200019N0250001N1+00301-00971999999ADDAA199000021GA1041+006009029GF104991041011008001001001MA1999999085491MD1210111+9999ME1315089REMSYN082AAXX  15124 16008 32575 40320 10030 21097 38549 48508 52011 84100 91139 333 84820;
0174160080999992000031515004+45750+010530FM-12+146199999V0200601N008212200019N0300001N1+00321-01131999999ADDGA1021+006009029GF102991021011008001001001MA1999999085581MD1110091+9999ME1315199REMSYN082AAXX  15154 16008 42580 20616 10032 21113 38558 48519 51009 82100 91438 333 82820;
0198160080999992000031518004+45750+010530FM-12+146199999V0203601N006212200019N0250001N1+00141-01131999999ADDAA112000591GA1001+999999999GF100991001001999999001001KA1999M+00361MA1999999085781MD1210201+9999ME1315359REMSYN082AAXX  15184 16008 12975 03612 10014 21113 38578 48535 52020 69942 91740 333 10036;
0158160080999992000031521004+45750+010530FM-12+146199999V0203601N006212200019N0250001N1-00201-01201999999ADDGA1001+999999999GF100991001001999999001001MA1999999085981MD1110201+9999ME1315539REMSYN066AAXX  15214 16008 42975 03612 11020 21120 38598 48553 51020 92035;
0188160080999992000031600004+45750+010530FM-12+146199999V0200701N003112200019N0250001N1-00301-01091999999ADDAA199000091GA1001+999999999GF100991001001999999001001MA1999999085941MD1810041+9999ME1315509REMSYN066AAXX  16004 16008 32975 00706 11030 21109 38594 48550 58004 92334;EQDQ01  00002PRCP99
0158160080999992000031603004+45750+010530FM-12+146199999V0200801N006712200019N0250001N1-00321-01041999999ADDGA1001+999999999GF100991001001999999001001MA1999999085761MD1710181+9999ME1315319REMSYN066AAXX  16034 16008 42975 00813 11032 21104 38576 48531 57018 90240;
0223160080999992000031606004+45750+010530FM-12+146199999V0200601N012910090019N0200001N1-00281-00791999999ADDAA199000091GA1061+009009059GF106991061051008001001001KA1120N-00361MA1999999085651MD1610121+9999ME1315209REMSYN088AAXX  16064 16008 32570 60625 11028 21079 38565 48520 56012 86500 90535 333 21036 86630;EQDQ01  00002PRCP99
0218160080999992000031609004+45750+010530FM-12+146199999V0200401N004610030019N0030001N1-00281-00301999999ADDAL10699999AY171031AY221031GA1081+003009079GF108991081071004501999999MA1999999085651MD1410001+9999ME1315209MW1701REMSYN094AAXX  16094 16008 41430 80409 11028 21030 38565 48520 54000 77072 887// 90836 333 88710 93194;
0264160080999992000031612004+45750+010530FM-12+146199999V0200601N004110018019N0008001N1-00261-00261999999ADDAA106000891AJ100019199999999AL10699999AY171061AY241061GA1081+001809079GF108991081071001501999999IA1239MA1999999085651MD1410001+9999ME1315219MW1701REMSYN106AAXX  16124 16008 11208 80608 11026 21026 38565 48521 54000 69981 77074 887// 91139 333 47001 88706 93192;
0218160080999992000031615004+45750+010530FM-12+146199999V0200601N002610015019N0004001N1-00181-00181999999ADDAL10699999AY171031AY241031GA1081+001509079GF108991081071001501999999MA1999999085651MD1410001+9999ME1315219MW1701REMSYN094AAXX  16154 16008 41204 80605 11018 21018 38565 48521 54000 77074 887// 91437 333 88705 93196;
0283160080999992000031618004+45750+010530FM-12+146199999V0200601N003110015019N0003001N1-00201-00201999999ADDAA112002091AJ100029199999999AL10699999AY171061AY241061GA1081+001509079GF108991081071001501999999IA1239KA1120M-00181MA1999999085771MD1310121+9999ME1315329MW1701REMSYN112AAXX  16184 16008 11203 80606 11020 21020 38577 48532 53012 60022 77074 887// 91739 333 11018 47002 88705 93194;
0218160080999992000031621004+45750+010530FM-12+146199999V0200801N003110009019N0001001N1-00201-00201999999ADDAL10699999AY171031AY241031GA1081+000909079GF108991081071000751999999MA1999999085881MD1110111+9999ME1315459MW1701REMSYN094AAXX  16214 16008 41101 80806 11020 21020 38588 48545 51011 77074 887// 92036 333 88703 93194;
0264160080999992000031700004+45750+010530FM-12+146199999V0200601N005710045019N0011001N1-00181-00201999999ADDAA106000891AJ100039199999999AL10699999AY171061AY241061GA1081+004509079GF108991081071004501999999IA1239MA1999999085841MD1810041+9999ME1315409MW1701REMSYN106AAXX  17004 16008 11411 80611 11018 21020 38584 48540 58004 69981 77074 887// 92339 333 47003 88715 93194;
0218160080999992000031703004+45750+010530FM-12+146199999V0201001N007712200019N0120001N1-00161-00271999999ADDAL10699999AY161031AY211031GA1031+007509089GF103991031011008001001001MA1999999085591MD1710261+9999ME1315189MW1011REMSYN094AAXX  17034 16008 41562 31015 11016 21027 38559 48518 57026 70161 83100 90235 333 83825 93197;
0273160080999992000031706004+45750+010530FM-12+146199999V0200801N007710090019N0150001N1-00161-00271999999ADDAA112000891AJ100039199999999AY171061AY211061GA1061+009009069GF106991061041008001001001IA1239KA1120N-00221MA1999999085531MD1610051+9999ME1315139MW1031REMSYN112AAXX  17064 16008 11565 60815 11016 21027 38553 48513 56005 69982 70371 86400 90540 333 21022 47003 86630 92810;
0180160080999992000031709004+45750+010530FM-12+146199999V0200501N007710060019N0150001N1+00001-00291999999ADDGA1061+006009089GF106991061021008001001001MA1999999085491MD1610051+9999ME1315079REMSYN088AAXX  17094 16008 42565 60515 10000 21029 38549 48507 56005 86200 90836 333 86820 92810;
0226160080999992000031712004+45750+010530FM-12+146199999V0200101N012910060019N0200001N1+00481-00531999999ADDAA106001091AJ100029199999999GA1061+006009089GF106991061021008001001001IA1239MA1999999085341MD1610151+9999ME1314949REMSYN100AAXX  17124 16008 12570 60125 10048 21053 38534 48494 56015 60011 86200 91135 333 47002 86820 92810;
0202160080999992000031715004+45750+010530FM-12+146199999V0200101N011810210019N0150001N1+00481-00561999999ADDGA1031+006009089GA2061+021009049GF108991031021008001011999MA1999999085311MD1810041+9999ME1314899REMSYN094AAXX  17154 16008 42565 80123 10048 21056 38531 48489 58004 8321/ 91436 333 83820 86457 92811;
0218160080999992000031721004+45750+010530FM-12+146199999V0200701N006710030019N0060001N1+00081-00171999999ADDAL10699999AY171031AY221031GA1081+003009079GF108991081071004501999999MA1999999085481MD1110091+9999ME1315089MW1701REMSYN094AAXX  17214 16008 41456 80713 10008 21017 38548 48508 51009 77072 887// 92039 333 88710 93197;
0264160080999992000031800004+45750+010530FM-12+146199999V0200701N005710009019N0005001N1+00001-00051999999ADDAA106000191AJ100029199999999AL10699999AY171061AY241061GA1081+000909079GF108991081071000751999999IA1259MA1999999085501MD1110021+9999ME1315079MW1701REMSYN106AAXX  18004 16008 11105 80711 10000 21005 38550 48507 51002 69921 77074 887// 92334 333 41002 88703 93192;
0218160080999992000031803004+45750+010530FM-12+146199999V0200601N006210015019N0006001N1+00001-00091999999ADDAL10699999AY171031AY241031GA1081+001509079GF108991081071001501999999MA1999999085401MD1810101+9999ME1314999MW1701REMSYN094AAXX  18034 16008 41206 80612 10000 21009 38540 48499 58010 77074 887// 90235 333 88705 93192;
0283160080999992000031806004+45750+010530FM-12+146199999V0200601N005110012019N0002001N1+00001-00071999999ADDAA112000591AJ100029199999999AL10699999AY171061AY241061GA1081+001209079GF108991081071001501999999IA1259KA1120N+00001MA1999999085281MD1710121+9999ME1314889MW1701REMSYN112AAXX  18064 16008 11202 80610 10000 21007 38528 48488 57012 69962 77074 887// 90536 333 20000 41002 88704 93192;
0218160080999992000031809004+45750+010530FM-12+146199999V0200601N006210045019N0020001N1+00021-00081999999ADDAL10699999AY171031AY241031GA1081+004509079GF108991081061004501999999MA1999999085321MD1310041+9999ME1314889MW1101REMSYN094AAXX  18094 16008 41420 80612 10002 21008 38532 48488 53004 71074 886// 90840 333 88715 93192;
0276160080999992000031812004+45750+010530FM-12+146199999V0200301N010810210019N0110001N1+00401-00351999999ADDAA106000191AJ100019199999999AY171061AY241061GA1041+004509089GA2051+021009049GF108991041021004501011999IA1259MA1999999085361MD1110041+9999ME1314949MW1021REMSYN112AAXX  18124 16008 11461 80321 10040 21035 38536 48494 51004 69921 70274 8421/ 91139 333 41001 84815 85457 92811;
0180160080999992000031815004+45750+010530FM-12+146199999V0200301N00721036001CN0150001N1+00581-00611999999ADDGA1031+004509089GF108991031021004501011999MA1999999085361MD1410001+9999ME1314949REMSYN088AAXX  18154 16008 42465 80314 10058 21061 38536 48494 54000 8321/ 91435 333 83815 86457;
0216160080999992000031818004+45750+010530FM-12+146199999V0200801N00511036001CN0150001N1+00281-00411999999ADDAA112000191GA1031+004509089GF108991031021004501011999KA1120M+00621MA1999999085401MD1310041+9999ME1315009REMSYN100AAXX  18184 16008 12465 80810 10028 21041 38540 48500 53004 69922 8321/ 91736 333 10062 83815 86457;
0174160080999992000031821004+45750+010530FM-12+146199999V0200701N004610060019N0150001N1+00141-00211999999ADDGA1061+006009029GF106991061021008001001001MA1999999085501MD1210101+9999ME1315089REMSYN082AAXX  18214 16008 42565 60709 10014 21021 38550 48508 52010 86200 92037 333 86820;
0204160080999992000031900004+45750+010530FM-12+146199999V0200801N005710090019N0150001N1+00101-00201999999ADDAA199000091GA1071+009009059GF107991071051008001001001MA1999999085561MD1110061+9999ME1315139REMSYN082AAXX  19004 16008 32565 70811 10010 21020 38556 48513 51006 87500 92334 333 87630;EQDQ01  00002PRCP99
0174160080999992000031903004+45750+010530FM-12+146199999V0200801N005110090019N0150001N1+00041-00171999999ADDGA1061+009009059GF106991061051008001001001MA1999999085591MD1310041+9999ME1315189REMSYN082AAXX  19034 16008 42565 60810 10004 21017 38559 48518 53004 86500 90237 333 86630;
0223160080999992000031906004+45750+010530FM-12+146199999V0200801N005110090019N0150001N1+00001-00191999999ADDAA199000091GA1061+009009059GF106991061051008001001001KA1120N+00001MA1999999085581MD1810011+9999ME1315189REMSYN088AAXX  19064 16008 32565 60810 10000 21019 38558 48518 58001 86500 90535 333 20000 86630;EQDQ01  00002PRCP99
0174160080999992000031909004+45750+010530FM-12+146199999V0200301N008210090019N0150001N1+00021-00121999999ADDGA1061+009009059GF106991061041008001001001MA1999999085621MD1310041+9999ME1315189REMSYN082AAXX  19094 16008 42565 60316 10002 21012 38562 48518 53004 86400 90839 333 86630;
0204160080999992000031912004+45750+010530FM-12+146199999V0200601N009810060019N0200001N1+00461-00301999999ADDAA199000091GA1061+006009029GF106991061021008001001001MA1999999085581MD1810041+9999ME1315199REMSYN082AAXX  19124 16008 32570 60619 10046 21030 38558 48519 58004 86200 91139 333 86820;EQDQ01  00002PRCP99
0174160080999992000031915004+45750+010530FM-12+146199999V0200601N008212200019N0250001N1+00621-00531999999ADDGA1031+006009029GF103991031011008001001001MA1999999085571MD1610021+9999ME1315149REMSYN082AAXX  19154 16008 42575 30616 10062 21053 38557 48514 56002 83100 91435 333 83820;
0223160080999992000031918004+45750+010530FM-12+146199999V0200501N008712200019N0250001N1+00541-00721999999ADDAA199000091GA1021+007509029GF102991021011008001001001KA1120M+00641MA1999999085481MD1810091+9999ME1315089REMSYN088AAXX  19184 16008 32575 20517 10054 21072 38548 48508 58009 82100 91734 333 10064 82825;EQDQ01  00002PRCP99
0174160080999992000031921004+45750+010530FM-12+146199999V0200301N005712200019N0250001N1+00181-00871999999ADDGA1041+007509029GF104991041011008001001001MA1999999085551MD1310081+9999ME1315139REMSYN082AAXX  19214 16008 42575 40311 10018 21087 38555 48513 53008 84100 92036 333 84825;
0204160080999992000032000004+45750+010530FM-12+146199999V0200301N006712200019N0200001N1+00001-00511999999ADDAA199000091GA1041+007509029GF104991041011008001001001MA1999999085581MD1110031+9999ME1315189REMSYN082AAXX  20004 16008 32570 40313 10000 21051 38558 48518 51003 84100 92335 333 84825;EQDQ01  00002PRCP99
0193160080999992000032003004+45750+010530FM-12+146199999V0200801N005112200019N0200001N1-00141-00671999999ADDGA1041+024009079GF104991041999022501091001MA1999999085601MD1110021+9999ME1315189REMSYN082AAXX  20034 16008 42870 40810 11014 21067 38560 48518 51002 84090 90236 333 84358;EQDQ01    003SCOLCG
0211160080999992000032006004+45750+010530FM-12+146199999V0200501N005112200019N0250001N1-00281-00711999999ADDAA199000091GA1001+999999999GF100991001001999999001001KA1999N-00281MA1999999085601MD1410001+9999ME1315189REMSYN076AAXX  20064 16008 32975 00510 11028 21071 38560 48518 54000 90539 333 21028;EQDQ01  00002PRCP99
0158160080999992000032009004+45750+010530FM-12+146199999V0200601N007212200019N0300001N1-00181-00671999999ADDGA1001+999999999GF100991001001999999001001MA1999999085701MD1310101+9999ME1315269REMSYN066AAXX  20094 16008 42980 00614 11018 21067 38570 48526 53010 90838;
0188160080999992000032012004+45750+010530FM-12+146199999V0200601N008212200019N0300001N1+00441-00821999999ADDAA199000091GA1001+999999999GF100991001001999999001001MA1999999085601MD1810101+9999ME1315199REMSYN066AAXX  20124 16008 32980 00616 10044 21082 38560 48519 58010 91135;EQDQ01  00002PRCP99
0158160080999992000032015004+45750+010530FM-12+146199999V0200601N004112200019N0300001N1+00601-00801999999ADDGA1001+999999999GF100991001001999999001001MA1999999085411MD1710191+9999ME1315009REMSYN066AAXX  20154 16008 42980 00608 10060 21080 38541 48500 57019 91438;
0211160080999992000032018004+45750+010530FM-12+146199999V0200401N003112200019N0300001N1+00301-00671999999ADDAA199000091GA1001+999999999GF100991001001999999001001KA1999M+00661MA1999999085401MD1610011+9999ME1315009REMSYN076AAXX  20184 16008 32980 00406 10030 21067 38540 48500 56001 91737 333 10066;EQDQ01  00002PRCP99
0158160080999992000032021004+45750+010530FM-12+146199999V0200601N005112200019N0300001N1+00101-00591999999ADDGA1001+999999999GF100991001001999999001001MA1999999085461MD1310061+9999ME1315029REMSYN066AAXX  20214 16008 42980 00610 10010 21059 38546 48502 53006 92038;
0188160080999992000032100004+45750+010530FM-12+146199999V0200601N006212200019N0200001N1+00101-00531999999ADDAA199000091GA1001+999999999GF100991001001999999001001MA1999999085501MD1110041+9999ME1315089REMSYN066AAXX  21004 16008 32970 00612 10010 21053 38550 48508 51004 92338;EQDQ01  00002PRCP99
0158160080999992000032103004+45750+010530FM-12+146199999V0200501N002612200019N0200001N1+00001-00421999999ADDGA1001+999999999GF100991001001999999001001MA1999999085501MD1410001+9999ME1315079REMSYN066AAXX  21034 16008 42970 00505 10000 21042 38550 48507 54000 90237;
0211160080999992000032106004+45750+010530FM-12+146199999V0200301N002612200019N0200001N1-00201-00481999999ADDAA199000091GA1001+999999999GF100991001001999999001001KA1999N-00201MA1999999085501MD1410001+9999ME1315079REMSYN076AAXX  21064 16008 32970 00305 11020 21048 38550 48507 54000 90538 333 21020;EQDQ01  00002PRCP99
0188160080999992000032112004+45750+010530FM-12+146199999V0200601N007712200019N0300001N1+00801-00871999999ADDAA199000091GA1001+999999999GF100991001001999999001001MA1999999085401MD1610031+9999ME1315009REMSYN066AAXX  21124 16008 32980 00615 10080 21087 38540 48500 56003 91138;EQDQ01  00002PRCP99
0158160080999992000032115004+45750+010530FM-12+146199999V0200601N004112200019N0300001N1+01001-00801999999ADDGA1001+999999999GF100991001001999999001001MA1999999085351MD1810051+9999ME1314959REMSYN066AAXX  21154 16008 42980 00608 10100 21080 38535 48495 58005 91437;
0211160080999992000032118004+45750+010530FM-12+146199999V0200301N002612200019N0300001N1+00601-00661999999ADDAA199000091GA1001+999999999GF100991001001999999001001KA1999M+01061MA1999999085301MD1610051+9999ME1314899REMSYN076AAXX  21184 16008 32980 00305 10060 21066 38530 48489 56005 91738 333 10106;EQDQ01  00002PRCP99
0158160080999992000032121004+45750+010530FM-12+146199999V0209999C000012200019N0200001N1+00301-00171999999ADDGA1001+999999999GF100991001001999999001001MA1999999085501MD1310201+9999ME1315089REMSYN066AAXX  21214 16008 42970 00000 10030 21017 38550 48508 53020 92039;
0188160080999992000032200004+45750+010530FM-12+146199999V0209999C000012200019N0200001N1+00001-00291999999ADDAA199000091GA1001+999999999GF100991001001999999001001MA1999999085591MD1110091+9999ME1315189REMSYN066AAXX  22004 16008 32970 00000 10000 21029 38559 48518 51009 92338;EQDQ01  00002PRCP99
0158160080999992000032203004+45750+010530FM-12+146199999V0209999C000012200019N0200001N1-00101-00291999999ADDGA1001+999999999GF100991001001999999001001MA1999999085541MD1810051+9999ME1315139REMSYN066AAXX  22034 16008 42970 00000 11010 21029 38554 48513 58005 90237;
0158160080999992000032205004+45750+010530FM-12+146199999V0209999C000012200019N0300001N1+00201-00491999999ADDGA1001+999999999GF100991001001999999001001MA1999999085511MD1410001+9999ME1315089REMSYN066AAXX  22054 16008 42/80 00000 10020 21049 38551 48508 54000 90837;
0158160080999992000032209004+45750+010530FM-12+146199999V0209999C000012200019N0300001N1+00201-00491999999ADDGA1001+999999999GF100991001001999999001001MA1999999085511MD1410001+9999ME1315089REMSYN066AAXX  22094 16008 42980 00000 10020 21049 38551 48508 54000 90837;
0188160080999992000032212004+45750+010530FM-12+146199999V0200401N002612200019N0300001N1+01201-00891999999ADDAA199000091GA1001+999999999GF100991001001999999001001MA1999999085501MD1810011+9999ME1315099REMSYN066AAXX  22124 16008 32980 00405 10120 21089 38550 48509 58001 91138;EQDQ01  00002PRCP99
0158160080999992000032215004+45750+010530FM-12+146199999V0200401N002612200019N0300001N1+01441-01371999999ADDGA1001+999999999GF100991001001999999001001MA1999999085301MD1610201+9999ME1314909REMSYN066AAXX  22154 16008 42980 00405 10144 21137 38530 48490 56020 91437;
0158160080999992000032221004+45750+010530FM-12+146199999V0209999C000012200019N0200001N1+00301-00201999999ADDGA1001+999999999GF100991001001999999001001MA1999999085401MD1310101+9999ME1315009REMSYN066AAXX  22214 16008 42970 00000 10030 21020 38540 48500 53010 92038;
0188160080999992000032300004+45750+010530FM-12+146199999V0200401N002112200019N0200001N1+00101-00251999999ADDAA199000091GA1001+999999999GF100991001001999999001001MA1999999085501MD1210101+9999ME1315089REMSYN066AAXX  23004 16008 32970 00404 10010 21025 38550 48508 52010 92337;EQDQ01  00002PRCP99
0158160080999992000032303004+45750+010530FM-12+146199999V0209999C000012200019N0200001N1+00001-00401999999ADDGA1001+999999999GF100991001001999999001001MA1999999085511MD1110011+9999ME1315079REMSYN066AAXX  23034 16008 42970 00000 10000 21040 38551 48507 51001 90238;
0211160080999992000032306004+45750+010530FM-12+146199999V0209999C000012200019N0200001N1-00101-00391999999ADDAA199000091GA1001+999999999GF100991001001999999001001KA1999N-00101MA1999999085441MD1810071+9999ME1315029REMSYN076AAXX  23064 16008 32970 00000 11010 21039 38544 48502 58007 90537 333 21010;EQDQ01  00002PRCP99
0158160080999992000032309004+45750+010530FM-12+146199999V0200301N002612200019N0200001N1+00101-00441999999ADDGA1001+999999999GF100991001001999999001001MA1999999085401MD1610041+9999ME1314959REMSYN066AAXX  23094 16008 42970 00305 10010 21044 38540 48495 56004 90838;
0188160080999992000032312004+45750+010530FM-12+146199999V0209999C000012200019N0300001N1+01201-00501999999ADDAA199000091GA1001+999999999GF100991001001999999001001MA1999999085301MD1810101+9999ME1315909REMSYN066AAXX  23124 16008 32980 00000 10120 21050 38530 48590 58010 91137;EQDQ01  00002PRCP99
0158160080999992000032315004+45750+010530FM-12+146199999V0201801N003112200019N0200001N1+01301-00641999999ADDGA1001+999999999GF100991001001999999001001MA1999999085121MD1710181+9999ME1314709REMSYN066AAXX  23154 16008 42970 01806 10130 21064 38512 48470 57018 91438;
0223160080999992000032318004+45750+010530FM-12+146199999V0201901N002610090019N0200001N1+00901-00501999999ADDAA199000091GA1051+009009059GF105991051051008001001001KA1120M+01461MA1999999085111MD1610011+9999ME1314699REMSYN088AAXX  23184 16008 32570 51905 10090 21050 38511 48469 56001 85500 91737 333 10146 85630;EQDQ01  00002PRCP99
0174160080999992000032321004+45750+010530FM-12+146199999V0209999C000010090019N0200001N1+00601-00061999999ADDGA1051+009009059GF105991051051008001001001MA1999999085111MD1410001+9999ME1314699REMSYN082AAXX  23214 16008 42570 50000 10060 21006 38511 48469 54000 85500 92038 333 85630;
0204160080999992000032400004+45750+010530FM-12+146199999V0202401N004110090019N0200001N1+00401+00081999999ADDAA199000091GA1051+009009059GF105991051051008001001001MA1999999085181MD1310071+9999ME1314809REMSYN082AAXX  24004 16008 32570 52408 10040 20008 38518 48480 53007 85500 92338 333 85630;EQDQ01  00002PRCP99
0158160080999992000032403004+45750+010530FM-12+146199999V0209999C000012200019N0200001N1+00201-00091999999ADDGA1001+999999999GF100991001001999999001001MA1999999085111MD1810071+9999ME1314699REMSYN066AAXX  24034 16008 42970 00000 10020 21009 38511 48469 58007 90237;
0211160080999992000032406004+45750+010530FM-12+146199999V0202501N003112200019N0200001N1+00021-00191999999ADDAA199000091GA1001+999999999GF100991001001999999001001KA1999N+00021MA1999999085031MD1610081+9999ME1314669REMSYN076AAXX  24064 16008 32970 02506 10002 21019 38503 48466 56008 90538 333 20002;EQDQ01  00002PRCP99
0174160080999992000032409004+45750+010530FM-12+146199999V0201501N005110090019N0200001N1+00121-00181999999ADDGA1051+009009059GF105991051051008001001001MA1999999085031MD1410001+9999ME1314659REMSYN082AAXX  24094 16008 42570 51510 10012 21018 38503 48465 54000 85500 90837 333 85630;
0204160080999992000032412004+45750+010530FM-12+146199999V0201801N005110090019N0200001N1+00461-00251999999ADDAA199000091GA1061+009009059GF106991061051008001001001MA1999999085021MD1810011+9999ME1314679REMSYN082AAXX  24124 16008 32570 61810 10046 21025 38502 48467 58001 86500 91138 333 86630;EQDQ01  00002PRCP99
0174160080999992000032415004+45750+010530FM-12+146199999V0201901N006210090019N0150001N1+00521-00241999999ADDGA1061+009009059GF106991061051008001001001MA1999999085001MD1610021+9999ME1314619REMSYN082AAXX  24154 16008 42565 61912 10052 21024 38500 48461 56002 86500 91437 333 86630;
0223160080999992000032418004+45750+010530FM-12+146199999V0201901N004110090019N0150001N1+00501-00241999999ADDAA199000091GA1061+009009059GF106991061051008001001001KA1120M+00541MA1999999084971MD1810031+9999ME1314559REMSYN088AAXX  24184 16008 32565 61908 10050 21024 38497 48455 58003 86500 91738 333 10054 86630;EQDQ01  00002PRCP99
0174160080999992000032421004+45750+010530FM-12+146199999V0209999C000010090019N0150001N1+00301-00101999999ADDGA1061+009009059GF106991061051008001001001MA1999999085071MD1310101+9999ME1314619REMSYN082AAXX  24214 16008 42565 60000 10030 21010 38507 48461 53010 86500 92037 333 86630;
0168160080999992000032500004+45750+010530FM-12+146199999V0209999C000012200019N0200001N1+00201+00001999999ADDAA199000091GA1001+999999999GF100991001001999999001001MA1999999085101ME1314699REMSYN060AAXX  25004 16008 32970 00000 10020 21000 38510 48469 92337;EQDQ01  00002PRCP99
0158160080999992000032503004+45750+010530FM-12+146199999V0209999C000012200019N0200001N1+00121-00011999999ADDGA1001+999999999GF100991001001999999001001MA1999999085101MD1410001+9999ME1314699REMSYN066AAXX  25034 16008 42970 00000 10012 21001 38510 48469 54000 90240;
0211160080999992000032506004+45750+010530FM-12+146199999V0209999C000012200019N0200001N1+00101+00011999999ADDAA199000091GA1001+999999999GF100991001001999999001001KA1999N+00101MA1999999085101MD1410001+9999ME1314699REMSYN076AAXX  25064 16008 32970 00000 10010 20001 38510 48469 54000 90537 333 20010;EQDQ01  00002PRCP99
0168160080999992000032509004+45750+010530FM-12+146199999V0209999C000010090019N0200001N1+00201+00161999999ADDGA1051+009009059GF105991999999008001999999MA1999999085201MD1310101+9999ME1314809REMSYN076AAXX  25094 16008 42570 50000 10020 20016 38520 48480 53010 90838 333 85630;
0183160080999992000032512004+45750+010530FM-12+146199999V0200301N003610060019N0200001N1+01081-00051999999ADDAA199000091GA1061+006009029GF106991061021008001001001MD1810081+9999ME1314709REMSYN076AAXX  25124 16008 32570 60307 10108 21005 48470 58008 86200 91135 333 86820;EQDQ01  00002PRCP99
0174160080999992000032515004+45750+010530FM-12+146199999V0201901N004610060019N0200001N1+01041-00311999999ADDGA1051+006009029GF105991051021008001001001MA1999999085001MD1610121+9999ME1314619REMSYN082AAXX  25154 16008 42570 51909 10104 21031 38500 48461 56012 85200 91438 333 85820;
0174160080999992000032521004+45750+010530FM-12+146199999V0201501N003612200019N0200001N1+00561+00111999999ADDGA1041+006009029GF104991041021008001001001MA1999999085091MD1310101+9999ME1314699REMSYN082AAXX  25214 16008 42570 41507 10056 20011 38509 48469 53010 84200 92036 333 84820;
0174160080999992000032603004+45750+010530FM-12+146199999V0201801N002112200019N0200001N1+00321+00321999999ADDGA1041+006009029GF104991041021008001001001MA1999999085011MD1810091+9999ME1314619REMSYN082AAXX  26034 16008 42570 41804 10032 20032 38501 48461 58009 84200 90238 333 84820;
0223160080999992000032606004+45750+010530FM-12+146199999V0202001N003110030019N0100001N1+00281+00281999999ADDAA199000091GA1081+003009069GF108991081061004501999999KA1120N+00281MA1999999084891MD1710121+9999ME1314539REMSYN088AAXX  26064 16008 32460 82006 10028 20028 38489 48453 57012 886// 90536 333 20028 88710;EQDQ01  00002PRCP99
0174160080999992000032609004+45750+010530FM-12+146199999V0202201N004110030019N0100001N1+00201+00201999999ADDGA1081+003009069GF108991081061004501999999MA1999999084801MD1710091+9999ME1314429REMSYN082AAXX  26094 16008 42460 82208 10020 20020 38480 48442 57009 886// 90838 333 88710;
0219160080999992000032612004+45750+010530FM-12+146199999V0201901N004110030019N0100001N1+00241+00221999999ADDAA106000791AY151061AY221061GA1081+003009069GF108991081071004501999999MA1999999084611MD1710191+9999ME1314229MW1501REMSYN094AAXX  26124 16008 11460 81908 10024 20022 38461 48422 57019 69901 75052 887// 91137 333 88710;
0202160080999992000032615004+45750+010530FM-12+146199999V0202001N004110030019N0100001N1+00301-00051999999ADDAY151031AY251031GA1081+003009069GF108991081071004501999999MA1999999084401MD1710211+9999ME1314039MW1501REMSYN088AAXX  26154 16008 41460 82008 10030 21005 38440 48403 57021 75055 887// 91439 333 88710;
0238160080999992000032618004+45750+010530FM-12+146199999V0202001N003110030019N0100001N1+00281-00071999999ADDAA112000191AY151061AY221061GA1081+003009069GF108991081061004501999999KA1120M+00381MA1999999084291MD1610111+9999ME1313959MW1021REMSYN100AAXX  26184 16008 11460 82006 10028 21007 38429 48395 56011 69922 70252 886// 91736 333 10038 88710;
0218160080999992000032621004+45750+010530FM-12+146199999V0200601N003110030019N0100001N1+00101+00101999999ADDAL10699999AY171031AY261031GA1081+003009079GF108991081071004501999999MA1999999084191MD1510101+9999ME1313849MW1701REMSYN094AAXX  26214 16008 41460 80606 10010 20010 38419 48384 55010 77076 887// 92034 333 88710 93192;
0264160080999992000032700004+45750+010530FM-12+146199999V0200501N004610030019N0100001N1-00081-00081999999ADDAA106000591AJ100019199999999AL10699999AY171061AY261061GA1081+003009079GF108991081071004501999999IA1239MA1999999084171MD1810021+9999ME1313799MW1701REMSYN106AAXX  27004 16008 11460 80509 11008 21008 38417 48379 58002 69961 77076 887// 92339 333 47001 88710 93194;
0218160080999992000032703004+45750+010530FM-12+146199999V0200801N003110030019N0100001N1-00101-00121999999ADDAL10699999AY171031AY271031GA1081+003009079GF108991081071004501999999MA1999999083991MD1710181+9999ME1313669MW1701REMSYN094AAXX  27034 16008 41460 80806 11010 21012 38399 48366 57018 77077 887// 90238 333 88710 93192;
0283160080999992000032706004+45750+010530FM-12+146199999V0200601N002610030019N0100001N1-00121-00161999999ADDAA112001091AJ100029199999999AL10699999AY171061AY271061GA1081+003009079GF108991081071004501999999IA1239KA1120N-00121MA1999999083821MD1710171+9999ME1313479MW1701REMSYN112AAXX  27064 16008 11460 80605 11012 21016 38382 48347 57017 60012 77077 887// 90536 333 21012 47002 88710 93194;
0218160080999992000032709004+45750+010530FM-12+146199999V0200701N003610030019N0100001N1-00101-00121999999ADDAL10600191AY171031AY271031GA1081+003009079GF108991081071004501999999MA1999999083801MD1510021+9999ME1313479MW1701REMSYN094AAXX  27094 16008 41460 80707 11010 21012 38380 48347 55002 77077 887// 90834 333 88710 93101;
0264160080999992000032712004+45750+010530FM-12+146199999V0200401N004110030019N0150001N1+00201-00291999999ADDAA106000591AJ100039199999999AL10699999AY171061AY221061GA1081+003009079GF108991081061004501999999IA1239MA1999999083801MD1010001+9999ME1313459MW1021REMSYN106AAXX  27124 16008 11465 80408 10020 21029 38380 48345 50000 69961 70272 886// 91134 333 47003 88710 93197;
0180160080999992000032715004+45750+010530FM-12+146199999V0200601N004110030019N0150001N1+00121-00311999999ADDGA1081+003009079GF108991081061004501999999MA1999999083791MD1610011+9999ME1313469REMSYN088AAXX  27154 16008 42465 80608 10012 21031 38379 48346 56001 886// 91439 333 88710 92800;
0245160080999992000032718004+45750+010530FM-12+146199999V0200501N004110030019N0150001N1+00081-00441999999ADDAA112000591AJ100039199999999GA1081+003009079GF108991081061004501999999IA1239KA1120M+00221MA1999999083811MD1310021+9999ME1313469REMSYN106AAXX  27184 16008 12465 80508 10008 21044 38381 48346 53002 69962 886// 91735 333 10022 47003 88710 92800;
0180160080999992000032721004+45750+010530FM-12+146199999V0200701N004110030019N0150001N1-00021-00331999999ADDGA1081+003009079GF108991081061004501999999MA1999999083971MD1210161+9999ME1313609REMSYN088AAXX  27214 16008 42465 80708 11002 21033 38397 48360 52016 886// 92037 333 88710 92800;
0239160080999992000032800004+45750+010530FM-12+146199999V0200801N004110030019N0150001N1-00121-00341999999ADDAA199000091AJ100039199999999GA1081+003009079GF108991081061004501999999IA1239MA1999999084031MD1210061+9999ME1313719REMSYN094AAXX  28004 16008 32465 80808 11012 21034 38403 48371 52006 886// 92337 333 47003 88710 92800;EQDQ01  00002PRCP99
0180160080999992000032803004+45750+010530FM-12+146199999V0200501N002110030019N0150001N1-00141-00271999999ADDGA1081+003009079GF108991081061004501999999MA1999999084091MD1110061+9999ME1313779REMSYN088AAXX  28034 16008 42465 80504 11014 21027 38409 48377 51006 886// 90234 333 88710 92810;
0258160080999992000032806004+45750+010530FM-12+146199999V0209999C000010030019N0150001N1-00201-00331999999ADDAA199000091AJ100039199999999GA1081+003009079GF108991081061004501999999IA1239KA1120N-00201MA1999999084171MD1310081+9999ME1313809REMSYN100AAXX  28064 16008 32465 80000 11020 21033 38417 48380 53008 886// 90539 333 21020 47003 88710 92810;EQDQ01  00002PRCP99
0180160080999992000032809004+45750+010530FM-12+146199999V0200401N002610045019N0200001N1-00041-00441999999ADDGA1061+004509089GF106991061021004501001001MA1999999084271MD1210101+9999ME1313909REMSYN088AAXX  28094 16008 42470 60405 11004 21044 38427 48390 52010 86200 90836 333 86815 92810;
0239160080999992000032812004+45750+010530FM-12+146199999V0201901N003610045019N0200001N1+00501-00511999999ADDAA199000091AJ100039199999999GA1061+004509089GF106991061021004501001001IA1239MA1999999084301MD1110031+9999ME1313939REMSYN094AAXX  28124 16008 32470 61907 10050 21051 38430 48393 51003 86200 91135 333 47003 86815 92820;EQDQ01  00002PRCP99
0258160080999992000032818004+45750+010530FM-12+146199999V0202001N001510030019N0150001N1+00241-00441999999ADDAA199000091AJ100039199999999GA1081+003009079GF108991081061004501999999IA1239KA1120M+00591MA1999999084301MD1410001+9999ME1313959REMSYN100AAXX  28184 16008 32465 82003 10024 21044 38430 48395 54000 886// 91739 333 10059 47003 88710 92820;EQDQ01  00002PRCP99
0218160080999992000032821004+45750+010530FM-12+146199999V0202101N003110030019N0100001N1+00021+00021999999ADDAL10699999AY171031AY221031GA1081+003009079GF108991081071004501999999MA1999999084391MD1310091+9999ME1314049MW1701REMSYN094AAXX  28214 16008 41460 82106 10002 20002 38439 48404 53009 77072 887// 92035 333 88710 93197;
0264160080999992000032900004+45750+010530FM-12+146199999V0201801N004110030019N0060001N1-00021-00021999999ADDAA106000791AJ100039199999999AL10699999AY171061AY221061GA1081+003009079GF108991081061004501999999IA1239MA1999999084391MD1010001+9999ME1314049MW1101REMSYN106AAXX  29004 16008 11456 81808 11002 21002 38439 48404 50000 69901 71072 886// 92336 333 47003 88710 93197;
0208160080999992000032903004+45750+010530FM-12+146199999V0201601N003110030019N0030001N1-00021-00021999999ADDAY121031AY221031GA1081+003009079GF108991081061004501999999MA1999999084291MD1710101+9999ME1313959MW1101REMSYN094AAXX  29034 16008 41430 81606 11002 21002 38429 48395 57010 71022 886// 90237 333 88710 92800;
0283160080999992000032906004+45750+010530FM-12+146199999V0202101N003110030019N0030001N1-00081-00081999999ADDAA112000791AJ100039199999999AL10699999AY171061AY221061GA1081+003009079GF108991081071004501999999IA1239KA1120N-00081MA1999999084101MD1710191+9999ME1313779MW1701REMSYN112AAXX  29064 16008 11430 82106 11008 21008 38410 48377 57019 69902 77072 887// 90534 333 21008 47003 88710 93197;
0218160080999992000032909004+45750+010530FM-12+146199999V0209999C000010030019N0040001N1-00081-00081999999ADDAL10600191AY171031AY271031GA1081+003009079GF108991081071004501999999MA1999999084001MD1710101+9999ME1313669MW1701REMSYN094AAXX  29094 16008 41440 80000 11008 21008 38400 48366 57010 77077 887// 90837 333 88710 93101;
0264160080999992000032912004+45750+010530FM-12+146199999V0209999C000010030019N0060001N1-00021-00091999999ADDAA106002091AJ100069199999999AL10600291AY171061AY271061GA1081+003009079GF108991081071004501999999IA1239MA1999999083911MD1610011+9999ME1313579MW1701REMSYN106AAXX  29124 16008 11456 80000 11002 21009 38391 48357 56001 60021 77077 887// 91139 333 47006 88710 93102;
0218160080999992000032915004+45750+010530FM-12+146199999V0202001N004110030019N0060001N1-00041-00111999999ADDAL10600391AY101031AY271031GA1081+003009079GF108991081071004501999999MA1999999083891MD1510021+9999ME1313579MW1701REMSYN094AAXX  29154 16008 41456 82008 11004 21011 38389 48357 55002 77007 887// 91438 333 88710 93103;
0283160080999992000032918004+45750+010530FM-12+146199999V0202101N001510030019N0060001N1-00101-00121999999ADDAA112006191AJ100139199999999AL10600491AY171061AY271061GA1081+003009079GF108991081071004501999999IA1239KA1120M+00021MA1999999083901MD1110011+9999ME1313589MW1701REMSYN112AAXX  29184 16008 11456 82103 11010 21012 38390 48358 51001 60062 77077 887// 91736 333 10002 47013 88710 93104;
0218160080999992000032921004+45750+010530FM-12+146199999V0209999C000010030019N0100001N1-00181-00201999999ADDAL10600191AY171031AY221031GA1081+003009079GF108991081071004501999999MA1999999084121MD1310121+9999ME1313779MW1701REMSYN094AAXX  29214 16008 41460 80000 11018 21020 38412 48377 53012 77072 887// 92035 333 88710 93101;
0264160080999992000033000004+45750+010530FM-12+146199999V0209999C000010030019N0100001N1-00181-00201999999ADDAA106000591AJ100149199999999AL10699999AY171061AY221061GA1081+003009079GF108991081061004501999999IA1239MA1999999084151MD1110031+9999ME1313809MW1221REMSYN106AAXX  30004 16008 11460 80000 11018 21020 38415 48380 51003 69961 72272 886// 92338 333 47014 88710 93197;
0180160080999992000033003004+45750+010530FM-12+146199999V0209999C000010030019N0100001N1-00201-00201999999ADDGA1081+003009079GF108991081061004501999999MA1999999084151MD1410001+9999ME1313809REMSYN088AAXX  30034 16008 42460 80000 11020 21020 38415 48380 54000 886// 90239 333 88710 92800;
0245160080999992000033006004+45750+010530FM-12+146199999V0209999C000010030019N0100001N1-00281-00301999999ADDAA112000591AJ100149199999999GA1081+003009079GF108991081061004501999999IA1239KA1120N-00281MA1999999084151MD1410001+9999ME1313809REMSYN106AAXX  30064 16008 12460 80000 11028 21030 38415 48380 54000 69962 886// 90536 333 21028 47014 88710 92800;
0180160080999992000033009004+45750+010530FM-12+146199999V0209999C000010030019N0100001N1-00041-00281999999ADDGA1081+003009079GF108991081061004501999999MA1999999084201MD1310051+9999ME1313859REMSYN088AAXX  30094 16008 41460 80000 11004 21028 38420 48385 53005 886// 90834 333 88710 92800;
0220160080999992000033012004+45750+010530FM-12+146199999V0209999C000010120019N0110001N1+00281-00541999999ADDAA199000021AJ100139199999999GA1081+012009069GF108991081051012501999999IA1239MA1999999084231MD1110031+9999ME1313849REMSYN094AAXX  30124 16008 32661 80000 10028 21054 38423 48384 51003 885// 91138 333 47013 88640 92800;
0199160080999992000033015004+45750+010530FM-12+146199999V0209999C000010120019N0120001N1+00341-00801999999ADDGA1081+012009069GF108991999051012501011011MA1999999084251MD1310021+9999ME1313899REMSYN088AAXX  30154 16008 42662 80000 10034 21080 38425 48389 53002 88511 91435 333 88640 92800;EQDQ01+000082SCOTLC
0258160080999992000033018004+45750+010530FM-12+146199999V0209999C000010120019N0120001N1+00141-00481999999ADDAA199000091AJ100119199999999GA1081+012009069GF108991081051012501999999IA1239KA1120M+00401MA1999999084321MD1110071+9999ME1313959REMSYN100AAXX  30184 16008 32662 80000 10014 21048 38432 48395 51007 885// 91737 333 10040 47011 88640 92800;EQDQ01  00002PRCP99
0180160080999992000033021004+45750+010530FM-12+146199999V0209999C000012200019N0120001N1-00041-00411999999ADDGA1041+012009069GF104991041051012501001001MA1999999084501MD1310181+9999ME1314159REMSYN088AAXX  30214 16008 42662 40000 11004 21041 38450 48415 53018 84500 92039 333 84640 92800;
0239160080999992000033100004+45750+010530FM-12+146199999V0209999C000012200019N0150001N1-00121-00361999999ADDAA199000091AJ100109199999999GA1021+012009069GF102991021051012501001001IA1239MA1999999084521MD1110021+9999ME1314159REMSYN094AAXX  31004 16008 32665 20000 11012 21036 38452 48415 51002 82500 92337 333 47010 82640 92800;EQDQ01  00002PRCP99
0168160080999992000033103004+45750+010530FM-12+146199999V0209999C000012200019N0180001N1-00181-00431999999ADDGA1001+999999999GF100991001001999999001001MA1999999084561MD1310041+9999ME1314189REMSYN076AAXX  31034 16008 42968 00000 11018 21043 38456 48418 53004 90235 333 92800;
0246160080999992000033106004+45750+010530FM-12+146199999V0200401N002112200019N0250001N1-00361-00581999999ADDAA199000091AJ100109199999999GA1001+999999999GF100991001001999999001001IA1239KA1120N-00361MA1999999084511MD1810051+9999ME1314159REMSYN088AAXX  31064 16008 32975 00404 11036 21058 38451 48415 58005 90536 333 21036 47010 92820;EQDQ01  00002PRCP99
0217160080999992000033112004+45750+010530FM-12+146199999V0200401N003112200019N0200001N1+00501-01031999999ADDAA199000091AJ100099199999999GF103991001001999999001011IA1239MA1999999084411MD1810091+9999ME1314039REMSYN088AAXX  31124 16008 32970 30406 10050 21103 38441 48403 58009 80001 91134 333 47009 92820;EQDQ01  00002PRCP99
0158160080999992000033115004+45750+010530FM-12+146199999V0201801N002612200019N0180001N1+00401-01271999999ADDGF104991001001999999001011MA1999999084311MD1610101+9999ME1313949REMSYN082AAXX  31154 16008 42968 41805 10040 21127 38431 48394 56010 80001 91439 333 92851;
0280160080999992000033118004+45750+010530FM-12+146199999V0201701N003110270019N0140001N1+00361-00521999999ADDAA199000091AJ100079199999999GA1021+010509089GA2041+027009049GF106991021011012501011001IA1239KA1120M+00581MA1999999084201MD1810111+9999ME1313849REMSYN106AAXX  31184 16008 32664 61706 10036 21052 38420 48384 58011 82110 91740 333 10058 47007 82835 84459 92851;EQDQ01  00002PRCP99
0180160080999992000033121004+45750+010530FM-12+146199999V0209999C000010105019N0140001N1+00201-00191999999ADDGA1081+010509069GF108991081051012501999999MA1999999084201MD1510001+9999ME1313849REMSYN088AAXX  31214 16008 42664 80000 10020 21019 38420 48384 55000 885// 92036 333 88635 92851;
0239160080999992000040100004+45750+010530FM-12+146199999V0201501N002110090019N0070001N1+00101-00101999999ADDAA199000091AJ100079199999999GA1081+009009079GF108991081061008001999999IA1239MA1999999084121MD1810081+9999ME1313769REMSYN094AAXX  01004 16008 32557 81504 10010 21010 38412 48376 58008 886// 92337 333 47007 88730 92851;EQDQ01  00002PRCP99
0218160080999992000040103004+45750+010530FM-12+146199999V0201801N002610030019N0005001N1+00001+00001999999ADDAL10600191AY171031AY241031GA1081+003009079GF108991081071004501999999MA1999999083981MD1610141+9999ME1313659MW1701REMSYN094AAXX  01034 16008 41405 81805 10000 20000 38398 48365 56014 77074 887// 90235 333 88710 93101;
0283160080999992000040106004+45750+010530FM-12+146199999V0201601N002110030019N0008001N1-00041-00041999999ADDAA112001091AJ100099199999999AL10600191AY171061AY241061GA1081+003009079GF108991081071004501999999IA1239KA1120N-00041MA1999999083901MD1810081+9999ME1313579MW1701REMSYN112AAXX  01064 16008 11408 81604 11004 21004 38390 48357 58008 60012 77074 887// 90537 333 21004 47009 88710 93101;
0218160080999992000040109004+45750+010530FM-12+146199999V0209999C000010045019N0017001N1+00061-00011999999ADDAL10699999AY171031AY271031GA1081+004509079GF108991081071004501999999MA1999999083921MD1310021+9999ME1313579MW1701REMSYN094AAXX  01094 16008 41417 80000 10006 21001 38392 48357 53002 77077 887// 90839 333 88715 93197;
0254160080999992000040112004+45750+010530FM-12+146199999V0200401N006210090019N0140001N1+00581-00421999999ADDAA106000791AJ100099199999999AY171061AY241061GA1061+009009069GF106991061051008001001001IA1239MA1999999083911MD1810011+9999ME1313559MW1011REMSYN106AAXX  01124 16008 11564 60412 10058 21042 38391 48355 58001 69901 70174 86500 91139 333 47009 86630 92801;
0180160080999992000040115004+45750+010530FM-12+146199999V0200401N006710090019N0130001N1+00561-00681999999ADDGA1051+009009069GF105991051051008001001001MA1999999083911MD1510001+9999ME1313559REMSYN088AAXX  01154 16008 42563 50413 10056 21068 38391 48355 55000 85500 91437 333 85630 92801;
0245160080999992000040118004+45750+010530FM-12+146199999V0200301N003112200019N0150001N1+00321-00361999999ADDAA112000791AJ100079199999999GA1031+009009069GF103991031051008001001001IA1239KA1120M+00621MA1999999084051MD1110141+9999ME1313709REMSYN106AAXX  01184 16008 32565 30306 10032 21036 38405 48370 51014 69902 83500 91736 333 10062 47007 83630 92801;
0168160080999992000040121004+45750+010530FM-12+146199999V0200701N003112200019N0200001N1+00101-00531999999ADDGA1001+999999999GF100991001001999999001001MA1999999084221MD1310171+9999ME1313849REMSYN076AAXX  01214 16008 42970 00706 10010 21053 38422 48384 53017 92035 333 92801;
0227160080999992000040200004+45750+010530FM-12+146199999V0209999C000012200019N0200001N1+00001-00571999999ADDAA199000091AJ100079199999999GA1001+999999999GF100991001001999999001001IA1239MA1999999084311MD1110091+9999ME1313959REMSYN082AAXX  02004 16008 32970 00000 10000 21057 38431 48395 51009 92338 333 47007 92820;EQDQ01  00002PRCP99
0168160080999992000040203004+45750+010530FM-12+146199999V0209999C000012200019N0200001N1-00181-00561999999ADDGA1001+999999999GF100991001001999999001001MA1999999084341MD1310031+9999ME1313999REMSYN076AAXX  02034 16008 42970 00000 11018 21056 38434 48399 53003 90237 333 92820;
0230160080999992000040206004+45750+010530FM-12+146199999V0209999C000012200019N0250001N1-00401-00731999999ADDAA199000091AJ100079199999999GF103991999999999999999999IA1239KA1120N-00401MA1999999084331MD1810011+9999ME1313999REMSYN088AAXX  02064 16008 32975 30000 11040 21073 38433 48399 58001 90536 333 21040 47007 92820;EQDQ01  00002PRCP99
0202160080999992000040209004+45750+010530FM-12+146199999V0209999C000010300019N0200001N1-00301-00591999999ADDGA1011+009009089GA2041+030009049GF105991011011008001011001MA1999999084381MD1310051+9999ME1314049REMSYN094AAXX  02094 16008 42570 50000 11030 21059 38438 48404 53005 81110 90834 333 81830 84460 92843;
0261160080999992000040212004+45750+010530FM-12+146199999V0202101N007210270019N0200001N1+00241-01031999999ADDAA199000091AJ100079199999999GA1021+009009089GA2051+027009049GF107991021011008001011001IA1239MA1999999084361MD1810021+9999ME1313989REMSYN100AAXX  02124 16008 32570 72114 10024 21103 38436 48398 58002 82110 91135 333 47007 82830 85459 92854;EQDQ01  00002PRCP99
0180160080999992000040215004+45750+010530FM-12+146199999V0202201N007710090019N0200001N1+00441-00631999999ADDGA1051+009009089GF105991051011008001011001MA1999999084211MD1610151+9999ME1313839REMSYN088AAXX  02154 16008 42570 52215 10044 21063 38421 48383 56015 85110 91436 333 85830 92854;
0258160080999992000040218004+45750+010530FM-12+146199999V0201901N004110090019N0180001N1+00301-00281999999ADDAA199000091AJ100059199999999GA1051+009009089GF105991051021008001001001IA1239KA1120M+00461MA1999999084191MD1810021+9999ME1313849REMSYN100AAXX  02184 16008 32568 51908 10030 21028 38419 48384 58002 85200 91739 333 10046 47005 85830 92854;EQDQ01  00002PRCP99
0180160080999992000040221004+45750+010530FM-12+146199999V0201601N002610090019N0150001N1+00201-00141999999ADDGA1061+009009089GF106991061021008001001001MA1999999084281MD1310091+9999ME1313959REMSYN088AAXX  02214 16008 42565 61605 10020 21014 38428 48395 53009 86200 92040 333 86830 92854;
0267160080999992000040300004+45750+010530FM-12+146199999V0201701N004110045019N0080001N1+00141-00161999999ADDAA199000091AJ100059199999999AY121061AY221061GA1081+004509079GF108991061061004501999999IA1239MA1999999084291MD1110011+9999ME1313959MW1101REMSYN100AAXX  03004 16008 32458 81708 10014 21016 38429 48395 51001 71022 866// 92336 333 47005 88715 92854;EQDQ01  00002PRCP99
0208160080999992000040303004+45750+010530FM-12+146199999V0202001N004610015019N0004001N1+00061+00061999999ADDAY171031AY241031GA1081+001509079GF108991081071001501999999MA1999999084121MD1810171+9999ME1313769MW1701REMSYN094AAXX  03034 16008 41204 82009 10006 20006 38412 48376 58017 77074 887// 90237 333 88705 92854;
0283160080999992000040306004+45750+010530FM-12+146199999V0202101N007710030019N0008001N1+00001+00001999999ADDAA112000191AJ100069199999999AL10600191AY171061AY271061GA1081+003009079GF108991081071004501999999IA1239KA1120N+00001MA1999999084021MD1610101+9999ME1313659MW1701REMSYN112AAXX  03064 16008 11408 82115 10000 20000 38402 48365 56010 69922 77077 887// 90534 333 20000 47006 88710 93101;
0218160080999992000040309004+45750+010530FM-12+146199999V0201901N006210015019N0011001N1+00001+00001999999ADDAL10699999AY171031AY271031GA1081+001509079GF108991081071001501999999MA1999999083921MD1810101+9999ME1313579MW1701REMSYN094AAXX  03094 16008 41211 81912 10000 20000 38392 48357 58010 77077 887// 90839 333 88705 93197;
0264160080999992000040312004+45750+010530FM-12+146199999V0201801N006710030019N0060001N1+00101+00081999999ADDAA106000591AJ100069199999999AL10699999AY171061AY241061GA1081+003009079GF108991081061004501999999IA1239MA1999999083821MD1610101+9999ME1313469MW1101REMSYN106AAXX  03124 16008 11456 81813 10010 20008 38382 48346 56010 69941 71074 886// 91138 333 47006 88710 93197;
0208160080999992000040315004+45750+010530FM-12+146199999V0201801N006710015019N0040001N1+00121+00051999999ADDAY121031AY221031GA1081+001509079GF108991081061001501999999MA1999999083671MD1810151+9999ME1313329MW1101REMSYN094AAXX  03154 16008 41240 81813 10012 20005 38367 48332 58015 71022 886// 91439 333 88705 92804;
0273160080999992000040318004+45750+010530FM-12+146199999V0201801N006710006019N0000001N1+00101+00101999999ADDAA112000791AJ100059199999999AY141061AY221061GA1081+000609079GF108991081061000751999999IA1239KA1120M+00161MA1999999083541MD1610131+9999ME1313219MW1461REMSYN112AAXX  03184 16008 11100 81813 10010 20010 38354 48321 56013 69902 74642 886// 91736 333 10016 47005 88702 92804;
0218160080999992000040321004+45750+010530FM-12+146199999V0202001N005710015019N0006001N1+00081+00081999999ADDAL10699999AY161031AY241031GA1081+001509079GF108991081071001501999999MA1999999083601MD1310061+9999ME1313279MW1701REMSYN094AAXX  03214 16008 41206 82011 10008 20008 38360 48327 53006 77064 887// 92035 333 88705 93197;
0264160080999992000040400004+45750+010530FM-12+146199999V0201701N004110009019N0001001N1+00061+00061999999ADDAA106000591AJ100059199999999AL10699999AY171061AY271061GA1081+000909079GF108991081071000751999999IA1239MA1999999083611MD1110011+9999ME1313279MW1701REMSYN106AAXX  04004 16008 11101 81708 10006 20006 38361 48327 51001 69941 77077 887// 92336 333 47005 88703 93197;
0218160080999992000040403004+45750+010530FM-12+146199999V0202101N002110009019N0000001N1+00021+00021999999ADDAL10699999AY171031AY251031GA1081+000909079GF108991081071000751999999MA1999999083621MD1310011+9999ME1313279MW1501REMSYN094AAXX  04034 16008 41100 82104 10002 20002 38362 48327 53001 75075 887// 90235 333 88703 93197;
0283160080999992000040406004+45750+010530FM-12+146199999V0201801N004610009019N0003001N1-00021-00021999999ADDAA112000591AJ100059199999999AL10699999AY171061AY251061GA1081+000909079GF108991081071000751999999IA1239KA1120N-00021MA1999999083591MD1810031+9999ME1313279MW1771REMSYN112AAXX  04064 16008 11103 81809 11002 21002 38359 48327 58003 69962 77775 887// 90537 333 21002 47005 88703 93197;
0218160080999992000040409004+45750+010530FM-12+146199999V0201901N004110006019N0000001N1+00021+00021999999ADDAL10699999AY171031AY241031GA1081+000609079GF108991081071000751999999MA1999999083701MD1310101+9999ME1313389MW1441REMSYN094AAXX  04094 16008 41100 81908 10002 20002 38370 48338 53010 74474 887// 90839 333 88702 93197;
0254160080999992000040412004+45750+010530FM-12+146199999V0209999C000010006019N0003001N1+00061+00061999999ADDAA106000791AJ100059199999999AY141061AY241061GA1081+000609079GF108991081061000751999999IA1239MA1999999083701MD1010001+9999ME1313389MW1421REMSYN106AAXX  04124 16008 11103 80000 10006 20006 38370 48338 50000 69901 74244 886// 91137 333 47005 88702 92804;
0208160080999992000040415004+45750+010530FM-12+146199999V0209999C000010045019N0150001N1+00321+00111999999ADDAY141031AY221031GA1071+004509069GF107991071051004501001001MA1999999083601MD1710101+9999ME1313269MW1011REMSYN094AAXX  04154 16008 41465 70000 10032 20011 38360 48326 57010 70142 87500 91439 333 87615 92804;
0245160080999992000040418004+45750+010530FM-12+146199999V0209999C000010060019N0200001N1+00281+00071999999ADDAA112000791AJ100059199999999GA1081+006009069GF108991081051008001999999IA1309KA1120M+00381MA1999999083551MD1610061+9999ME1313209REMSYN106AAXX  04184 16008 12570 80000 10028 20007 38355 48320 56006 69902 885// 91734 333 10038 42005 88620 92804;
0180160080999992000040421004+45750+010530FM-12+146199999V0209999C000010090019N0200001N1+00201+00071999999ADDGA1081+009009069GF108991081051008001999999MA1999999083581MD1310031+9999ME1313269REMSYN088AAXX  04214 16008 42570 80000 10020 20007 38358 48326 53003 885// 92036 333 88630 92804;
0239160080999992000040500004+45750+010530FM-12+146199999V0209999C000010090019N0200001N1+00121+00051999999ADDAA199000091AJ100059199999999GA1081+009009069GF108991081051008001999999IA1309MA1999999083491MD1810081+9999ME1313189REMSYN094AAXX  05004 16008 32570 80000 10012 20005 38349 48318 58008 885// 92337 333 42005 88630 92804;EQDQ01  00002PRCP99
0180160080999992000040503004+45750+010530FM-12+146199999V0209999C000010090019N0200001N1-00041-00101999999ADDGA1081+009009069GF108991081051008001999999MA1999999083481MD1610011+9999ME1313199REMSYN088AAXX  05034 16008 42570 80000 11004 21010 38348 48319 56001 885// 90238 333 88630 92804;
0258160080999992000040506004+45750+010530FM-12+146199999V0200301N002612200019N0250001N1+00001-00371999999ADDAA199000091AJ100059199999999GA1041+009009089GF104991041021008001001001IA1309KA1120N-00061MA1999999083441MD1810051+9999ME1313139REMSYN100AAXX  05064 16008 32575 40305 10000 21037 38344 48313 58005 84200 90537 333 21006 42005 84830 92804;EQDQ01  00002PRCP99
0199160080999992000040509004+45750+010530FM-12+146199999V0200101N999992200019N0250001N1+00381-00411999999ADDGA1021+009009089GF102991021021008001001001MA1999999083571MD1310141+9999ME1313259REMSYN088AAXX  05094 16008 42575 20187 10038 21041 38357 48325 53014 82200 90836 333 82830 92804;EQDQ01+004473WOSPD 
0239160080999992000040512004+45750+010530FM-12+146199999V0200401N008210090019N0250001N1+00841-00511999999ADDAA199000091AJ100049199999999GA1061+009009089GF106991061021008001001001IA1309MA1999999083761MD1210191+9999ME1313379REMSYN094AAXX  05124 16008 32575 60416 10084 21051 38376 48337 52019 86200 91137 333 42004 86830 92804;EQDQ01  00002PRCP99
0180160080999992000040515004+45750+010530FM-12+146199999V0200401N008710090019N0250001N1+00861-00471999999ADDGA1071+009009069GF107991071051008001001001MA1999999083851MD1210081+9999ME1313489REMSYN088AAXX  05154 16008 42575 70417 10086 21047 38385 48348 52008 87500 91436 333 87630 92804;
0258160080999992000040518004+45750+010530FM-12+146199999V0200601N004110090019N0250001N1+00541-00171999999ADDAA199000091AJ100049199999999GA1081+009009069GF108991081051008001999999IA1309KA1120M+00961MA1999999084081MD1210231+9999ME1313759REMSYN100AAXX  05184 16008 32575 80608 10054 21017 38408 48375 52023 885// 91737 333 10096 42004 88630 92804;EQDQ01  00002PRCP99
0180160080999992000040521004+45750+010530FM-12+146199999V0200601N003610090019N0200001N1+00301+00091999999ADDGA1081+009009069GF108991081051008001999999MA1999999084331MD1210251+9999ME1315959REMSYN088AAXX  05214 16008 42570 80607 10030 20009 38433 48595 52025 885// 92037 333 88630 92804;
0239160080999992000040600004+45750+010530FM-12+146199999V0200501N002610090019N0150001N1+00221+00001999999ADDAA199000091AJ100049199999999GA1051+009009069GF105991051051008001999999IA1309MA1999999084481MD1210161+9999ME1314149REMSYN094AAXX  06004 16008 32565 50505 10022 20000 38448 48414 52016 855// 92336 333 42004 85630 92804;EQDQ01  00002PRCP99
0180160080999992000040603004+45750+010530FM-12+146199999V0200801N003610090019N0150001N1+00201-00021999999ADDGA1061+009009069GF106991061051008001001001MA1999999084591MD1210101+9999ME1314229REMSYN088AAXX  06034 16008 42565 60807 10020 21002 38459 48422 52010 86500 90237 333 86630 92804;
0258160080999992000040606004+45750+010530FM-12+146199999V0200401N006212200019N0200001N1+00141-00091999999ADDAA199000091AJ100049199999999GA1031+009009069GF103991031051008001001001IA1309KA1120N+00141MA1999999084721MD1210131+9999ME1314349REMSYN100AAXX  06064 16008 32570 30412 10014 21009 38472 48434 52013 83500 90537 333 20014 42004 83630 92804;EQDQ01  00002PRCP99
0180160080999992000040609004+45750+010530FM-12+146199999V0200801N008712200019N0250001N1+00261-00091999999ADDGA1041+009009069GF104991041051008001001001MA1999999084901MD1210191+9999ME1314539REMSYN088AAXX  06094 16008 42575 40817 10026 21009 38490 48453 52019 84500 90836 333 84630 92804;
0239160080999992000040612004+45750+010530FM-12+146199999V0200501N011312200019N0300001N1+00821-00341999999ADDAA199000091AJ100039199999999GA1021+009009089GF102991021011008001001001IA1309MA1999999084971MD1110071+9999ME1314559REMSYN094AAXX  06124 16008 32580 20522 10082 21034 38497 48455 51007 82100 91136 333 42003 82830 92804;EQDQ01  00002PRCP99
0180160080999992000040615004+45750+010530FM-12+146199999V0200501N009812200019N0300001N1+00801-00471999999ADDGA1021+012009039GF102991021081012501001001MA1999999085021MD1310051+9999ME1314619REMSYN088AAXX  06154 16008 42680 20519 10080 21047 38502 48461 53005 82800 91437 333 82340 92804;
0258160080999992000040618004+45750+010530FM-12+146199999V0200401N008212200019N0250001N1+00501-00511999999ADDAA199000091AJ100029199999999GA1031+012009039GF103991031001012501041001IA1309KA1120M+00841MA1999999085181MD1210161+9999ME1314809REMSYN100AAXX  06184 16008 32675 30416 10050 21051 38518 48480 52016 83040 91736 333 10084 42002 83340 92804;EQDQ01  00002PRCP99
0227160080999992000040700004+45750+010530FM-12+146199999V0200801N008212200019N0200001N1-00161-00481999999ADDAA199000091AJ100029199999999GA1001+999999999GF100991001001999999001001IA1259MA1999999085571MD1210171+9999ME1315139REMSYN082AAXX  07004 16008 32970 00816 11016 21048 38557 48513 52017 92336 333 41002 92846;EQDQ01  00002PRCP99
0168160080999992000040703004+45750+010530FM-12+146199999V0200801N007712200019N0200001N1-00301-00621999999ADDGA1001+999999999GF100991001001999999001001MA1999999085671MD1210101+9999ME1315209REMSYN076AAXX  07034 16008 42970 00815 11030 21062 38567 48520 52010 90237 333 92846;
0246160080999992000040706004+45750+010530FM-12+146199999V0200501N011812200019N0250001N1-00401-00701999999ADDAA199000091AJ100029199999999GA1001+999999999GF100991001001999999001001IA1259KA1120N-00401MA1999999085751MD1210081+9999ME1315319REMSYN088AAXX  07064 16008 32975 00523 11040 21070 38575 48531 52008 90537 333 21040 41002 92846;EQDQ01  00002PRCP99
0168160080999992000040709004+45750+010530FM-12+146199999V0200701N011312200019N0250001N1-00221-00741999999ADDGA1001+999999999GF100991001001999999001001MA1999999085801MD1110051+9999ME1315349REMSYN076AAXX  07094 16008 42975 00722 11022 21074 38580 48534 51005 90838 333 92846;
0188160080999992000040712004+45750+010530FM-12+146199999V0200601N007712200019N0300001N1+00401-01331999999ADDAA199000091GA1001+999999999GF100991001001999999001001MA1999999085771MD1810041+9999ME1315339REMSYN066AAXX  07124 16008 32980 00615 10040 21133 38577 48533 58004 91137;EQDQ01  00002PRCP99
0158160080999992000040715004+45750+010530FM-12+146199999V0200401N005712200019N0300001N1+00821-01481999999ADDGA1001+999999999GF100991001001999999001001MA1999999085691MD1710071+9999ME1315299REMSYN066AAXX  07154 16008 42980 00411 10082 21148 38569 48529 57007 91436;
0201160080999992000040718004+45750+010530FM-12+146199999V0203501N003619999999N0250001N1+00501-01741999999ADDAA199000091GF105991001001999999001011KA1999M+00841MA1999999085691MD1610011+9999ME1315229REMSYN082AAXX  07184 16008 32975 53507 10050 21174 38569 48522 56001 80001 91738 333 10084;EQDQ01  00002PRCP99
0158160080999992000040721004+45750+010530FM-12+146199999V0200501N003612200019N0250001N1+00201-01101999999ADDGA1001+999999999GF100991001001999999001001MA1999999085811MD1310121+9999ME1315359REMSYN066AAXX  07214 16008 42975 00507 10020 21110 38581 48535 53012 92036;
0188160080999992000040800004+45750+010530FM-12+146199999V0200401N002612200019N0200001N1+00001-00571999999ADDAA199000091GA1001+999999999GF100991001001999999001001MA1999999085831MD1110021+9999ME1315409REMSYN066AAXX  08004 16008 32970 00405 10000 21057 38583 48540 51002 92337;EQDQ01  00002PRCP99
0158160080999992000040803004+45750+010530FM-12+146199999V0200401N004612200019N0200001N1-00081-00441999999ADDGA1001+999999999GF100991001001999999001001MA1999999085811MD1810021+9999ME1315359REMSYN066AAXX  08034 16008 42970 00409 11008 21044 38581 48535 58002 90236;
0211160080999992000040806004+45750+010530FM-12+146199999V0209999C000012200019N0250001N1-00201-00551999999ADDAA199000091GA1001+999999999GF100991001001999999001001KA1999N-00201MA1999999085801MD1610011+9999ME1315349REMSYN076AAXX  08064 16008 32975 00000 11020 21055 38580 48534 56001 90537 333 21020;EQDQ01  00002PRCP99
0158160080999992000040809004+45750+010530FM-12+146199999V0200401N004612200019N0250001N1+00061-00741999999ADDGA1001+999999999GF100991001001999999001001MA1999999085691MD1810111+9999ME1315279REMSYN066AAXX  08094 16008 42975 00409 10006 21074 38569 48527 58011 90836;
0188160080999992000040812004+45750+010530FM-12+146199999V0200401N004612200019N0250001N1+00941-01221999999ADDAA199000091GA1001+999999999GF100991001001999999001001MA1999999085531MD1710161+9999ME1315159REMSYN066AAXX  08124 16008 32975 00409 10094 21122 38553 48515 57016 91137;EQDQ01  00002PRCP99
0158160080999992000040815004+45750+010530FM-12+146199999V0200401N003612200019N0250001N1+01081-01301999999ADDGA1001+999999999GF100991001001999999001001MA1999999085321MD1710211+9999ME1314899REMSYN066AAXX  08154 16008 42975 00407 10108 21130 38532 48489 57021 91436;
0211160080999992000040818004+45750+010530FM-12+146199999V0209999C000012200019N0200001N1+00761-01531999999ADDAA199000091GA1001+999999999GF100991001001999999001001KA1999M+01101MA1999999085221MD1610101+9999ME1314819REMSYN076AAXX  08184 16008 32970 00000 10076 21153 38522 48481 56010 91737 333 10110;EQDQ01  00002PRCP99
0158160080999992000040821004+45750+010530FM-12+146199999V0209999C000012200019N0200001N1+00301-00971999999ADDGA1001+999999999GF100991001001999999001001MA1999999085221MD1410001+9999ME1314809REMSYN066AAXX  08214 16008 42970 00000 10030 21097 38522 48480 54000 92036;
0158160080999992000040900004+45750+010530FM-12+146199999V0209999C000012200019N0200001N1+00021-00771999999ADDGA1001+999999999GF100991001001999999001001MA1999999085221MD1410001+9999ME1314809REMSYN066AAXX  09004 16008 42970 00000 10002 21077 38522 48480 54000 92337;
0168160080999992000040903004+45750+010530FM-12+146199999V0209999C000012200019N0200001N1-00121-00621999999ADDAA199000091GA1001+999999999GF100991001001999999001001MA1999999085121ME1314699REMSYN060AAXX  09034 16008 32970 00000 11012 21062 38512 48469 90326;EQDQ01  00002PRCP99
0193160080999992000040906004+45750+010530FM-12+146199999V0209999C000010060019N0200001N1-00181-00531999999ADDGA1081+006009059GF108991081051008001999999KA1120N-00201MA1999999084991MD1710131+9999ME1314119REMSYN088AAXX  09064 16008 42570 80000 11018 21053 38499 48411 57013 885// 90537 333 21020 88620;
0204160080999992000040909004+45750+010530FM-12+146199999V0201801N004610060019N0110001N1+00021-00461999999ADDAA199000091GA1081+006009059GF108991081051008001999999MA1999999084971MD1610021+9999ME1314569REMSYN082AAXX  09094 16008 32561 81809 10002 21046 38497 48456 56002 885// 90836 333 88620;EQDQ01  00002PRCP99
0210160080999992000040912004+45750+010530FM-12+146199999V0201901N00871036001CN0110001N1+00381-00361999999ADDAA199000091GA1031+007509089GF108991031021008001011999MA1999999084781MD1810191+9999ME1314429REMSYN088AAXX  09124 16008 32561 81917 10038 21036 38478 48442 58019 8321/ 91135 333 83825 86457;EQDQ01  00002PRCP99
0180160080999992000040915004+45750+010530FM-12+146199999V0202201N00871036001CN0110001N1+00481-00351999999ADDGA1031+006009089GF108991031021008001011999MA1999999084621MD1710161+9999ME1314229REMSYN088AAXX  09154 16008 42561 82217 10048 21035 38462 48422 57016 8321/ 91437 333 83820 85457;
0229160080999992000040918004+45750+010530FM-12+146199999V0201801N00671036001CN0110001N1+00441-00211999999ADDAA199000091GA1031+006009089GF108991031021008001011999KA1120M+00561MA1999999084541MD1610081+9999ME1314179REMSYN094AAXX  09184 16008 32561 81813 10044 21021 38454 48417 56008 8321/ 91736 333 10056 83820 86457;EQDQ01  00002PRCP99
0180160080999992000040921004+45750+010530FM-12+146199999V0201801N00511036001CN0110001N1+00301-00201999999ADDGA1031+006009089GF108991031021008001011999MA1999999084581MD1310041+9999ME1314229REMSYN088AAXX  09214 16008 42561 81810 10030 21020 38458 48422 53004 8321/ 92035 333 83820 86457;
0210160080999992000041000004+45750+010530FM-12+146199999V0201801N00571036001CN0110001N1+00201-00291999999ADDAA199000091GA1031+006009089GF108991031021008001011999MA1999999084621MD1110041+9999ME1314229REMSYN088AAXX  10004 16008 32561 81811 10020 21029 38462 48422 51004 8321/ 92334 333 83820 86457;EQDQ01  00002PRCP99
0180160080999992000041003004+45750+010530FM-12+146199999V0201601N00461036001CN0110001N1+00081-00291999999ADDGA1031+006009089GF108991031021008001011999MA1999999084601MD1810011+9999ME1314239REMSYN088AAXX  10034 16008 42561 81609 10008 21029 38460 48423 58001 8321/ 90239 333 83820 86457;
0229160080999992000041006004+45750+010530FM-12+146199999V0201801N00461009001CN0110001N1+00001-00141999999ADDAA199000091GA1041+004509089GF108991081081004501999999KA1120N+00001MA1999999084541MD1610061+9999ME1314179REMSYN094AAXX  10064 16008 32461 81809 10000 21014 38454 48417 56006 888// 90535 333 20000 84815 86635;EQDQ01  00002PRCP99
0180160080999992000041009004+45750+010530FM-12+146199999V0201801N00461009001CN0110001N1+00081-00141999999ADDGA1041+004509089GF108991081081004501999999MA1999999084541MD1410001+9999ME1314179REMSYN088AAXX  10094 16008 42461 81809 10008 21014 38454 48417 54000 888// 90836 333 84815 86635;
0248160080999992000041012004+45750+010530FM-12+146199999V0202101N004610105019N0110001N1+00301-00231999999ADDAA199000091GA1041+004509089GA2041+010509069GF108991999081004501011999MA1999999084481MD1810061+9999ME1314149REMSYN094AAXX  10124 16008 32461 82109 10030 21023 38448 48414 58006 8881/ 91138 333 84815 84635 87457;EQDQ01+000082SCOTLCQ02  00002PRCP99
0180160080999992000041015004+45750+010530FM-12+146199999V0202101N00721009001CN0110001N1+00361-00291999999ADDGA1041+004509089GF108991081081004501999999MA1999999084331MD1710161+9999ME1313979REMSYN088AAXX  10154 16008 42461 82114 10036 21029 38433 48397 57016 888// 91435 333 84815 86640;
0229160080999992000041018004+45750+010530FM-12+146199999V0201901N00511036001CN0110001N1+00301-00101999999ADDAA199000091GA1041+006009089GF108991041021008001011999KA1120M+00401MA1999999084241MD1610091+9999ME1313899REMSYN094AAXX  10184 16008 32561 81910 10030 21010 38424 48389 56009 8421/ 91734 333 10040 84820 86457;EQDQ01  00002PRCP99
0210160080999992000041100004+45750+010530FM-12+146199999V0201701N001510120019N0110001N1+00141+00141999999ADDAA199000091GA1031+006009089GF108991081081008001999999MA1999999084181MD1810061+9999ME1313849REMSYN088AAXX  11004 16008 32561 81703 10014 20014 38418 48384 58006 888// 92340 333 83820 86640;EQDQ01  00002PRCP99
0180160080999992000041103004+45750+010530FM-12+146199999V0202301N00361036001CN0110001N1+00121+00121999999ADDGA1031+004509089GF108991031021004501011999MA1999999084011MD1810181+9999ME1313659REMSYN088AAXX  11034 16008 42461 82307 10012 20012 38401 48365 58018 8321/ 90235 333 83815 86457;
0257160080999992000041106004+45750+010530FM-12+146199999V0202201N002610090019N0070001N1+00081+00081999999ADDAA199000091AY121061AY221061GA1041+003009089GF108991081081004501999999KA1120N+00081MA1999999083901MD1610101+9999ME1313579MW1101REMSYN100AAXX  11064 16008 31457 82205 10008 20008 38390 48357 56010 71022 888// 90539 333 20008 84810 85630;EQDQ01  00002PRCP99
0208160080999992000041109004+45750+010530FM-12+146199999V0201801N005710090019N0030001N1+00101+00101999999ADDAY121031AY221031GA1041+004509089GF108991081081004501999999MA1999999083901MD1410001+9999ME1313579MW1101REMSYN094AAXX  11094 16008 41430 81811 10010 20010 38390 48357 54000 71022 888// 90838 333 84815 85630;
0238160080999992000041112004+45750+010530FM-12+146199999V0201801N007710120019N0060001N1+00321-00081999999ADDAA199000091AY121061AY221061GA1031+006009089GF107991071081008001001001MA1999999083761MD1810141+9999ME1313399MW1101REMSYN094AAXX  11124 16008 31556 71815 10032 21008 38376 48339 58014 71022 87800 91145 333 83820 84640;EQDQ01  00002PRCP99
0208160080999992000041115004+45750+010530FM-12+146199999V0202201N00621009001CN0040001N1+00401-00381999999ADDAY121031AY221031GA1031+004509089GF106991061081004501001001MA1999999083711MD1710061+9999ME1313379MW1101REMSYN094AAXX  11154 16008 41440 62212 10040 21038 38371 48337 57006 71022 86800 91445 333 83815 83635;
0251160080999992000041118004+45750+010530FM-12+146199999V0202201N006710060019N0060001N1+00361-00211999999ADDAA199000091AY121061AY221061GA1071+006009029GF107991071021008001001001KA1120M+00441MA1999999083651MD1610071+9999ME1313319MW1101REMSYN094AAXX  11184 16008 31556 72213 10036 21021 38365 48331 56007 71022 87200 91745 333 10044 87820;EQDQ01  00002PRCP99
0208160080999992000041121004+45750+010530FM-12+146199999V0201501N004610090019N0040001N1+00301-00021999999ADDAY121031AY221031GA1041+004509089GF108991081081004501999999MA1999999083721MD1310071+9999ME1313389MW1101REMSYN094AAXX  11214 16008 41440 81509 10030 21002 38372 48338 53007 71022 888// 92045 333 84815 86630;
0225160080999992000041200004+45750+010530FM-12+146199999V0202101N006710090019N0020001N1+00201+00151999999ADDAA106000791AY161061AY221061GA1041+003009089GF108991081081004501999999MA1999999083571MD1610151+9999ME1313249MW1601REMSYN100AAXX  12004 16008 11420 82113 10020 20015 38357 48324 56015 69901 76062 888// 92345 333 84810 86630;
0208160080999992000041203004+45750+010530FM-12+146199999V0202101N007710090019N0009001N1+00141+00141999999ADDAY161031AY241031GA1081+999999089GF108991081081004501999999MA1999999083331MD1710241+9999ME1313019MW1601REMSYN094AAXX  12034 16008 41409 82115 10014 20014 38333 48301 57024 76064 888// 90245 333 83815 86630;
0256160080999992000041206004+45750+010530FM-12+146199999V0202201N009810090019N0005001N1+00141+00141999999ADDAA112000591AY161061AY241061GA1041+003009089GF108991081081004501999999IA1119KA1120N+00121MA1999999083151MD1710181+9999ME1312849MW1601REMSYN112AAXX  12064 16008 11405 82219 10014 20014 38315 48284 57018 69942 76064 888// 90545 333 20012 32/// 84810 86630;
0208160080999992000041209004+45750+010530FM-12+146199999V0202001N009310090019N0003001N1+00121+00121999999ADDAY161031AY241031GA1041+004509089GF108991081081004501999999MA1999999083241MD1310091+9999ME1312939MW1601REMSYN094AAXX  12094 16008 41403 82018 10012 20012 38324 48293 53009 76064 888// 90845 333 84815 86630;
0225160080999992000041212004+45750+010530FM-12+146199999V0202101N01031006001CN0015001N1+00241+00141999999ADDAA106000891AY161061AY241061GA1041+001209089GF108991081081001501999999MA1999999083251MD1110011+9999ME1312929MW1101REMSYN100AAXX  12124 16008 11215 82120 10024 20014 38325 48292 51001 69981 71064 888// 91145 333 84804 86625;
0208160080999992000041215004+45750+010530FM-12+146199999V0203601N005710090019N0030001N1+00381+00051999999ADDAY161031AY221031GA1041+003009089GF108991081081004501999999MA1999999083351MD1310111+9999ME1313029MW1101REMSYN094AAXX  12154 16008 41430 83611 10038 20005 38335 48302 53011 71062 888// 91445 333 84810 86630;
0244160080999992000041218004+45750+010530FM-12+146199999V0200501N00411001201CN0110001N1+00161-00151999999ADDAA112001091AY161061AY221061GA1031+001509089GF107991071021001501001001KA1120M+00401MA1999999083571MD1210221+9999ME1313249MW1031REMSYN106AAXX  12184 16008 11261 70508 10016 21015 38357 48324 52022 60012 70362 87200 91745 333 10040 83805 84815;
0180160080999992000041221004+45750+010530FM-12+146199999V0200601N00311009001CN0120001N1+00081-00191999999ADDGA1041+004509089GF108991081081004501999999MA1999999083771MD1210201+9999ME1313439REMSYN088AAXX  12214 16008 42462 80606 10008 21019 38377 48343 52020 888// 92045 333 84815 86635;
0257160080999992000041300004+45750+010530FM-12+146199999V0200501N003110075019N0015001N1+00021-00061999999ADDAA106000191AL10699999AY171061AY221061GA1041+001209089GA2061+007509069GF108991081081001501999999MA1999999083811MD1110041+9999ME1313479MW1701REMSYN106AAXX  13004 16008 11215 80506 10002 21006 38381 48347 51004 69921 77072 888// 92345 333 84804 86625 93197;
0240160080999992000041303004+45750+010530FM-12+146199999V0209999C000010075019N0012001N1-00041-00091999999ADDAL10699999AY171031AY271031GA1041+001209089GA2061+007509069GF108991081081001501999999MA1999999083881MD1110071+9999ME1313559MW1701REMSYN100AAXX  13034 16008 41212 80000 11004 21009 38388 48355 51007 77077 888// 90245 333 84804 86625 93192;
0288160080999992000041306004+45750+010530FM-12+146199999V0201801N005710075019N0008001N1+00041+00041999999ADDAA112000591AL10699999AY171061AY241061GA1041+001209089GA2061+007509069GF108991081081001501999999IA1119KA1120N-00041MA1999999083921MD1310051+9999ME1313599MW1701REMSYN118AAXX  13064 16008 11208 81811 10004 20004 38392 48359 53005 69942 77074 888// 90545 333 21004 32/// 84804 86625 93192;
0240160080999992000041309004+45750+010530FM-12+146199999V0201701N008210075019N0009001N1+00081+00081999999ADDAL10699999AY171031AY241031GA1041+001209089GA2061+007509069GF108991081081001501999999MA1999999084041MD1210121+9999ME1313709MW1421REMSYN100AAXX  13094 16008 41209 81716 10008 20008 38404 48370 52012 74274 888// 90845 333 84804 86625 93192;
0225160080999992000041312004+45750+010530FM-12+146199999V0201901N00931006001CN0009001N1+00381+00181999999ADDAA106000191AY171061AY241061GA1041+001209089GF108991081081001501999999MA1999999083911MD1110101+9999ME1313569MW1441REMSYN100AAXX  13124 16008 11209 81918 10038 20018 38391 48356 51010 69921 74474 888// 91145 333 84804 86625;
0208160080999992000041315004+45750+010530FM-12+146199999V0202101N00771006001CN0009001N1+00421+00091999999ADDAY141031AY241031GA1041+001209089GF108991081081001501999999MA1999999083901MD1610011+9999ME1313559MW1421REMSYN094AAXX  13154 16008 41209 82115 10042 20009 38390 48355 56001 74244 888// 91445 333 84804 86625;
0244160080999992000041318004+45750+010530FM-12+146199999V0201801N00461006001CN0009001N1+00361+00131999999ADDAA112000591AY161061AY241061GA1041+001209089GF108991081081001501999999KA1120M+00441MA1999999084001MD1310101+9999ME1313659MW1601REMSYN106AAXX  13184 16008 11209 81809 10036 20013 38400 48365 53010 69942 76064 888// 91745 333 10044 84804 86625;
0208160080999992000041321004+45750+010530FM-12+146199999V0201801N005110060019N0005001N1+00241+00221999999ADDAY161031AY241031GA1041+000909089GF108991081081000751999999MA1999999084181MD1210181+9999ME1313839MW1601REMSYN094AAXX  13214 16008 41105 81810 10024 20022 38418 48383 52018 76064 888// 92045 333 84803 86620;
0225160080999992000041400004+45750+010530FM-12+146199999V0201801N003610060019N0003001N1+00241+00241999999ADDAA106001091AY161061AY241061GA1041+000909089GF108991081081000751999999MA1999999084221MD1110041+9999ME1313869MW1601REMSYN100AAXX  14004 16008 11103 81807 10024 20024 38422 48386 51004 60011 76064 888// 92345 333 84803 86620;
0208160080999992000041403004+45750+010530FM-12+146199999V0209999C000010060019N0000001N1+00241+00241999999ADDAY161031AY241031GA1041+000609089GF108991081081000751999999MA1999999084281MD1110061+9999ME1313929MW1601REMSYN094AAXX  14034 16008 41100 80000 10024 20024 38428 48392 51006 76064 888// 90245 333 84802 86620;
0256160080999992000041406004+45750+010530FM-12+146199999V0201801N005710060019N0000001N1+00241+00241999999ADDAA112002091AY161061AY241061GA1041+000609089GF108991081081000751999999IA1119KA1120N+00221MA1999999084301MD1110021+9999ME1313959MW1601REMSYN112AAXX  14064 16008 11100 81811 10024 20024 38430 48395 51002 60022 76064 888// 90545 333 20022 32/// 84802 86620;
0208160080999992000041409004+45750+010530FM-12+146199999V0202401N00821006001CN0002001N1+00241+00241999999ADDAY161031AY241031GA1041+000909089GF108991081081000751999999MA1999999084341MD1310041+9999ME1313989MW1421REMSYN094AAXX  14094 16008 41102 82416 10024 20024 38434 48398 53004 74264 888// 90845 333 84803 86625;
0198160080999992000041418004+45750+010530FM-12+146199999V0202101N005110090019N0150001N1+00601-00091999999ADDAA199000021GA1061+009009029GF106991999999008001999999KA1120M+00701MA1999999084201MD1410001+9999ME1313849REMSYN082AAXX  14184 16008 32565 62110 10060 21009 38420 48384 54001 91745 333 10070 86830;
0174160080999992000041421004+45750+010530FM-12+146199999V0201701N005110090019N0150001N1+00421+00101999999ADDGA1071+009009029GF107991071011008001001001MA1999999084231MD1310031+9999ME1313879REMSYN082AAXX  14214 16008 42565 71710 10042 20010 38423 48387 53003 87100 92045 333 87830;
0204160080999992000041500004+45750+010530FM-12+146199999V0201801N005110090019N0150001N1+00401+00041999999ADDAA199000091GA1071+009009029GF107991071011008001001001MA1999999084231MD1010001+9999ME1313879REMSYN082AAXX  15004 16008 32565 71810 10040 20004 38423 48387 50000 87100 92345 333 87830;EQDQ01  00002PRCP99
0174160080999992000041503004+45750+010530FM-12+146199999V0202101N005110060019N0100001N1+00301+00221999999ADDGA1081+006009029GF108991081011008001999999MA1999999084151MD1610081+9999ME1313809REMSYN082AAXX  15034 16008 42560 82110 10030 20022 38415 48380 56008 881// 90245 333 88820;
0235160080999992000041506004+45750+010530FM-12+146199999V0202001N004110060019N0100001N1+00281+00281999999ADDAA199000091GA1081+006009069GF108991081061008001999999IA1099KA1120N+00281MA1999999084101MD1410001+9999ME1313759REMSYN094AAXX  15064 16008 32560 82008 10028 20028 38410 48375 54005 886// 90545 333 20028 31/// 88720;EQDQ01  00002PRCP99
0174160080999992000041509004+45750+010530FM-12+146199999V0202101N005110060019N0100001N1+00281+00281999999ADDGA1081+006009069GF108991081061008001999999MA1999999084081MD1410001+9999ME1313739REMSYN082AAXX  15094 16008 42560 82110 10028 20028 38408 48373 54002 886// 90845 333 88720;
0204160080999992000041512004+45750+010530FM-12+146199999V0201901N007210060019N0100001N1+00301+00291999999ADDAA199000091GA1081+006009069GF108991081061008001999999MA1999999084001MD1810081+9999ME1313669REMSYN082AAXX  15124 16008 32560 81914 10030 20029 38400 48366 58008 886// 91145 333 88720;EQDQ01  00002PRCP99
0223160080999992000041518004+45750+010530FM-12+146199999V0202101N005110060019N0120001N1+00401+00281999999ADDAA199000091GA1081+006009069GF108991081061008001999999KA1120M+00441MA1999999083901MD1410001+9999ME1313569REMSYN088AAXX  15184 16008 32562 82110 10040 20028 38390 48356 54000 886// 91745 333 10044 88720;EQDQ01  00002PRCP99
0174160080999992000041521004+45750+010530FM-12+146199999V0200601N005110060019N0100001N1+00201+00181999999ADDGA1081+006009069GF108991081061008001999999MA1999999084191MD1310291+9999ME1313849REMSYN082AAXX  15214 16008 42560 80610 10020 20018 38419 48384 53029 886// 92045 333 88720;
0204160080999992000041600004+45750+010530FM-12+146199999V0200301N007710090019N0150001N1+00101-00011999999ADDAA199000091GA1071+009009029GF107991071011008001001001MA1999999084291MD1210101+9999ME1313949REMSYN082AAXX  16004 16008 32565 70315 10010 21001 38429 48394 52010 87100 92345 333 87830;EQDQ01  00002PRCP99
0174160080999992000041603004+45750+010530FM-12+146199999V0200301N003110090019N0150001N1-00021-00141999999ADDGA1051+009009029GF105991051011008001001001MA1999999084341MD1210051+9999ME1313999REMSYN082AAXX  16034 16008 42565 50306 11002 21014 38434 48399 52005 85100 90245 333 85830;
0223160080999992000041606004+45750+010530FM-12+146199999V0209999C000012200019N0200001N1-00121-00191999999ADDAA199000091GA1001+999999999GF100991001001999999001001IA1099KA1120N-00121MA1999999084421MD1210081+9999ME1314079REMSYN082AAXX  16064 16008 32970 00000 11012 21019 38442 48407 52008 90545 333 21012 31///;EQDQ01  00002PRCP99
0174160080999992000041609004+45750+010530FM-12+146199999V0201801N005110060019N0150001N1-00161-00251999999ADDGA1081+006009069GF108991081061008001999999MA1999999084401MD1810021+9999ME1314059REMSYN082AAXX  16094 16008 42565 81810 11016 21025 38440 48405 58002 886// 90845 333 88720;
0174160080999992000041615004+45750+010530FM-12+146199999V0202101N007710060019N0120001N1+00421-00111999999ADDGA1081+006009069GF108991081061008001999999MA1999999084401MD1410001+9999ME1314049REMSYN082AAXX  16154 16008 42562 82115 10042 21011 38440 48404 54000 886// 91445 333 88720;
0223160080999992000041618004+45750+010530FM-12+146199999V0201801N007710090019N0150001N1+00421-00351999999ADDAA199000091GA1071+009009029GF107991071011008001001001KA1120M+00441MA1999999084401MD1410001+9999ME1314049REMSYN088AAXX  16184 16008 32565 71815 10042 21035 38440 48404 54000 87100 91745 333 10044 87830;EQDQ01  00002PRCP99
0174160080999992000041621004+45750+010530FM-12+146199999V0202101N007710090019N0150001N1+00401-00241999999ADDGA1071+009009029GF107991071011008001001001MA1999999084421MD1310021+9999ME1314069REMSYN082AAXX  16214 16008 42565 72115 10040 21024 38442 48406 53002 87100 92045 333 87830;
0204160080999992000041700004+45750+010530FM-12+146199999V0202101N007710090019N0100001N1+00321-00151999999ADDAA199000091GA1081+009009029GF108991081011008001999999MA1999999084391MD1810031+9999ME1314039REMSYN082AAXX  17004 16008 32560 82115 10032 21015 38439 48403 58003 881// 92345 333 88830;EQDQ01  00002PRCP99
0174160080999992000041703004+45750+010530FM-12+146199999V0201801N005110060019N0100001N1+00201+00051999999ADDGA1081+006009069GF108991081061008001999999MA1999999084201MD1510191+9999ME1313859REMSYN082AAXX  17034 16008 42560 81810 10020 20005 38420 48385 55019 886// 90245 333 88720;
0235160080999992000041706004+45750+010530FM-12+146199999V0201801N006210060019N0100001N1+00101+00101999999ADDAA199000091GA1081+006009069GF108991081061008001999999IA1099KA1120N+00101MA1999999084211MD1310011+9999ME1313869REMSYN094AAXX  17064 16008 32560 81812 10010 20010 38421 48386 53001 886// 90545 333 20010 31/// 88720;EQDQ01  00002PRCP99
0174160080999992000041709004+45750+010530FM-12+146199999V0201501N003110060019N0100001N1+00161+00151999999ADDGA1081+006009069GF108991081061008001999999MA1999999084281MD1110071+9999ME1313939REMSYN082AAXX  17094 16008 42560 81506 10016 20015 38428 48393 51007 886// 90845 333 88720;
0204160080999992000041712004+45750+010530FM-12+146199999V0201501N005110060019N0100001N1+00201+00201999999ADDAA199000091GA1081+006009069GF108991081061008001999999MA1999999084301MD1310021+9999ME1313959REMSYN082AAXX  17124 16008 32560 81510 10020 20020 38430 48395 53002 886// 91145 333 88720;EQDQ01  00002PRCP99
0174160080999992000041715004+45750+010530FM-12+146199999V0201501N005110060019N0100001N1+00401+00401999999ADDGA1081+006009069GF108991081061008001999999MA1999999084291MD1810011+9999ME1313939REMSYN082AAXX  17154 16008 42560 81510 10040 20040 38429 48393 58001 886// 91445 333 88720;
0223160080999992000041718004+45750+010530FM-12+146199999V0209999C000010060019N0100001N1+00461+00241999999ADDAA199000091GA1081+006009069GF108991081061008001999999KA1120M+00461MA1999999084401MD1310111+9999ME1314049REMSYN088AAXX  17184 16008 32560 80000 10046 20024 38440 48404 53011 886// 91745 333 10046 88720;EQDQ01  00002PRCP99
0174160080999992000041721004+45750+010530FM-12+146199999V0209999C000010060019N0100001N1+00501+00401999999ADDGA1081+006009069GF108991081061008001999999MA1999999084561MD1210161+9999ME1314199REMSYN082AAXX  17214 16008 42560 80000 10050 20040 38456 48419 52016 886// 92045 333 88720;
0198160080999992000041800004+45750+010530FM-12+146199999V0200601N006210060019N0100001N1+00301+00221999999ADDAA199000091GA1081+006009069GF108991999999008001999999MA1999999084681MD1210121+9999ME1314319REMSYN076AAXX  18004 16008 32560 80612 10030 20022 38468 48431 52012 92345 333 88720;EQDQ01  00002PRCP99
0174160080999992000041803004+45750+010530FM-12+146199999V0200601N010310060019N0100001N1+00201+00091999999ADDGA1081+006009069GF108991081061008001999999MA1999999084701MD1110021+9999ME1314339REMSYN082AAXX  18034 16008 42560 80620 10020 20009 38470 48433 51002 886// 90245 333 88720;
0235160080999992000041806004+45750+010530FM-12+146199999V0200601N009310060019N0100001N1+00101+00021999999ADDAA199000091GA1081+006009059GF108991081041008001999999IA1099KA1120N+00101MA1999999084641MD1510061+9999ME1314279REMSYN094AAXX  18064 16008 32560 80618 10010 20002 38464 48427 55006 884// 90545 333 20010 31/// 88620;EQDQ01  00002PRCP99
0174160080999992000041809004+45750+010530FM-12+146199999V0200901N006210060019N0100001N1+00121-00181999999ADDGA1081+006009069GF108991081061008001999999MA1999999084621MD1610021+9999ME1314259REMSYN082AAXX  18094 16008 42560 80912 10012 21018 38462 48425 56002 886// 90845 333 88720;
0204160080999992000041812004+45750+010530FM-12+146199999V0200601N005110060019N0120001N1+00341-00121999999ADDAA199000091GA1081+006009069GF108991081061008001999999MA1999999084501MD1810121+9999ME1314139REMSYN082AAXX  18124 16008 32562 80610 10034 21012 38450 48413 58012 886// 91145 333 88720;EQDQ01  00002PRCP99
0174160080999992000041815004+45750+010530FM-12+146199999V0209999C000010060019N0100001N1+00321+00071999999ADDGA1081+006009069GF108991081061008001999999MA1999999084401MD1710101+9999ME1314049REMSYN082AAXX  18154 16008 42560 80000 10032 20007 38440 48404 57010 886// 91445 333 88720;
0223160080999992000041818004+45750+010530FM-12+146199999V0200401N004110060019N0100001N1+00401+00221999999ADDAA199000091GA1081+006009069GF108991081061008001999999KA1120M+00441MA1999999084381MD1610021+9999ME1314029REMSYN088AAXX  18184 16008 32560 80408 10040 20022 38438 48402 56002 886// 91745 333 10044 88720;EQDQ01  00002PRCP99
0174160080999992000041821004+45750+010530FM-12+146199999V0209999C000010090019N0100001N1+00281+00071999999ADDGA1081+009009069GF108991081061008001999999MA1999999084401MD1010021+9999ME1314049REMSYN082AAXX  18214 16008 42560 80000 10028 20007 38440 48404 50002 886// 92045 333 88730;
0204160080999992000041900004+45750+010530FM-12+146199999V0209999C000010090019N0100001N1+00201+00051999999ADDAA199000091GA1081+009009069GF108991081061008001999999MA1999999084411MD1110011+9999ME1314059REMSYN082AAXX  19004 16008 32560 80000 10020 20005 38441 48405 51001 886// 92345 333 88730;EQDQ01  00002PRCP99
0174160080999992000041903004+45750+010530FM-12+146199999V0209999C000010090019N0150001N1+00201+00091999999ADDGA1081+009009069GF108991081061008001999999MA1999999084401MD1810011+9999ME1314049REMSYN082AAXX  19034 16008 42565 80000 10020 20009 38440 48404 58001 886// 90245 333 88730;
0235160080999992000041906004+45750+010530FM-12+146199999V0200401N002610060019N0150001N1+00201+00141999999ADDAA199000091GA1081+006009069GF108991081061008001999999IA1099KA1120N+00191MA1999999084431MD1310031+9999ME1314079REMSYN094AAXX  19064 16008 32565 80405 10020 20014 38443 48407 53003 886// 90545 333 20019 31/// 88720;EQDQ01  00002PRCP99
0174160080999992000041909004+45750+010530FM-12+146199999V0200501N005710030019N0130001N1+00321+00131999999ADDGA1081+003009069GF108991081061004501999999MA1999999084591MD1210161+9999ME1314229REMSYN082AAXX  19094 16008 42463 80511 10032 20013 38459 48422 52016 886// 90845 333 88710;
0204160080999992000041912004+45750+010530FM-12+146199999V0200101N007210030019N0130001N1+00541-00251999999ADDAA199000091GA1081+003009069GF108991081061004501999999MA1999999084701MD1110111+9999ME1314329REMSYN082AAXX  19124 16008 32463 80114 10054 21025 38470 48432 51011 886// 91145 333 88710;EQDQ01  00002PRCP99
0174160080999992000041915004+45750+010530FM-12+146199999V0203601N004610030019N0120001N1+00561-00251999999ADDGA1081+003009069GF108991081061004501999999MA1999999084841MD1310141+9999ME1314469REMSYN082AAXX  19154 16008 42462 83609 10056 21025 38484 48446 53014 886// 91445 333 88710;
0223160080999992000041918004+45750+010530FM-12+146199999V0200801N003610030019N0120001N1+00501-00041999999ADDAA199000091GA1081+003009069GF108991081061004501999999KA1120M+00601MA1999999084991MD1210151+9999ME1314609REMSYN088AAXX  19184 16008 32462 80807 10050 21004 38499 48460 52015 886// 91745 333 10060 88710;EQDQ01  00002PRCP99
0193160080999992000041921004+45750+010530FM-12+146199999V0200801N002610045019N0120001N1+00401+00071999999ADDGA1081+004509059GF199999061021004501001001MA1999999085111MD1210121+9999ME1314719REMSYN082AAXX  19214 16008 42462 60805 10040 20007 38511 48471 52012 86200 92045 333 88615;EQDQ01+000062SCOTCV
0204160080999992000042000004+45750+010530FM-12+146199999V0200501N003610045019N0150001N1+00281+00071999999ADDAA199000091GA1051+004509029GF105991051021004501001001MA1999999085201MD1210091+9999ME1314809REMSYN082AAXX  20004 16008 32465 50507 10028 20007 38520 48480 52009 85200 92345 333 85815;EQDQ01  00002PRCP99
0174160080999992000042003004+45750+010530FM-12+146199999V0200401N002610045019N0150001N1+00241+00041999999ADDGA1051+004509029GF105991051021004501001001MA1999999085201MD1010001+9999ME1314809REMSYN082AAXX  20034 16008 42465 50405 10024 20004 38520 48480 50000 85200 90245 333 85815;
0223160080999992000042006004+45750+010530FM-12+146199999V0200401N002612200019N0250001N1+00121+00021999999ADDAA199000091GA1001+999999999GF100991001001999999001001IA1099KA1120N+00121MA1999999085191MD1610011+9999ME1314799REMSYN082AAXX  20064 16008 32975 00405 10012 20002 38519 48479 56001 90545 333 20012 31///;EQDQ01  00002PRCP99
0188160080999992000042012004+45750+010530FM-12+146199999V0201801N003612200019N0300001N1+01461+00051999999ADDAA199000091GA1001+999999999GF100991001001999999001001MA1999999085201MD1810011+9999ME1314819REMSYN066AAXX  20124 16008 32980 01807 10146 20005 38520 48481 58001 91145;EQDQ01  00002PRCP99
0174160080999992000042015004+45750+010530FM-12+146199999V0202001N003612200019N0250001N1+01421-00191999999ADDGA1041+004509029GF104991041021008001001001MA1999999085191MD1610011+9999ME1314809REMSYN082AAXX  20154 16008 42575 42007 10142 21019 38519 48480 56001 84200 91445 333 84815;
0223160080999992000042018004+45750+010530FM-12+146199999V0209999C000012200019N0250001N1+01321-00141999999ADDAA199000091GA1041+006009029GF104991041021008001001001KA1120M+01461MA1999999085191MD1410001+9999ME1314809REMSYN088AAXX  20184 16008 32575 40000 10132 21014 38519 48480 54000 84200 91745 333 10146 84820;EQDQ01  00002PRCP99
0158160080999992000042021004+45750+010530FM-12+146199999V0202101N002112200019N0200001N1+00761+00181999999ADDGA1001+999999999GF100991001001999999001001MA1999999085391MD1310201+9999ME1314999REMSYN066AAXX  20214 16008 42970 02104 10076 20018 38539 48499 53020 92045;
0158160080999992000042103004+45750+010530FM-12+146199999V0200601N002612200019N0200001N1+00341+00131999999ADDGA1001+999999999GF100991001001999999001001MA1999999085481MD1210071+9999ME1315069REMSYN066AAXX  21034 16008 42970 00605 10034 20013 38548 48506 52007 90245;
0223160080999992000042106004+45750+010530FM-12+146199999V0200401N001512200019N0300001N1+00281+00131999999ADDAA199000091GA1001+999999999GF100991001001999999001001IA1099KA1120N+00241MA1999999085541MD1210061+9999ME1315129REMSYN082AAXX  21064 16008 32980 00403 10028 20013 38554 48512 52006 90545 333 20024 31///;EQDQ01  00002PRCP99
0158160080999992000042109004+45750+010530FM-12+146199999V0200301N003612200019N0300001N1+00741+00101999999ADDGA1001+999999999GF100991001001999999001001MA1999999085601MD1110061+9999ME1315199REMSYN066AAXX  21094 16008 42980 00307 10074 20010 38560 48519 51006 90845;
0188160080999992000042112004+45750+010530FM-12+146199999V0200301N003112200019N0300001N1+01721-00591999999ADDAA199000091GA1001+999999999GF100991001001999999001001MA1999999085601MD1410001+9999ME1315219REMSYN066AAXX  21124 16008 32980 00306 10172 21059 38560 48521 54000 91145;EQDQ01  00002PRCP99
0158160080999992000042115004+45750+010530FM-12+146199999V0200301N003112200019N0300001N1+01861-00701999999ADDGA1001+999999999GF100991001001999999001001MA1999999085541MD1810061+9999ME1315159REMSYN066AAXX  21154 16008 42980 00306 10186 21070 38554 48515 58006 91445;
0211160080999992000042118004+45750+010530FM-12+146199999V0209999C000012200019N0300001N1+01561-00391999999ADDAA199000091GA1001+999999999GF100991001001999999001001KA1999M+01901MA1999999085531MD1610011+9999ME1315139REMSYN076AAXX  21184 16008 32980 00000 10156 21039 38553 48513 56001 91745 333 10190;EQDQ01  00002PRCP99
0158160080999992000042121004+45750+010530FM-12+146199999V0203601N002612200019N0200001N1+00901-00041999999ADDGA1001+999999999GF100991001001999999001001MA1999999085671MD1310141+9999ME1315269REMSYN066AAXX  21214 16008 42970 03605 10090 21004 38567 48526 53014 92045;
0188160080999992000042200004+45750+010530FM-12+146199999V0200301N002112200019N0200001N1+00701+00131999999ADDAA199000091GA1001+999999999GF100991001001999999001001MA1999999085691MD1110021+9999ME1315279REMSYN066AAXX  22004 16008 32970 00304 10070 20013 38569 48527 51002 92345;EQDQ01  00002PRCP99
0158160080999992000042203004+45750+010530FM-12+146199999V0209999C000012200019N0200001N1+00421+00051999999ADDGA1001+999999999GF100991001001999999001001MA1999999085691MD1410001+9999ME1315269REMSYN066AAXX  22034 16008 42970 00000 10042 20005 38569 48526 54000 90245;
0223160080999992000042206004+45750+010530FM-12+146199999V0209999C000012200019N0200001N1+00321-00041999999ADDAA199000091GA1001+999999999GF100991001001999999001001IA1019KA1120N+00321MA1999999085691MD1410001+9999ME1315269REMSYN082AAXX  22064 16008 32970 00000 10032 21004 38569 48526 54000 90545 333 20032 30///;EQDQ01  00002PRCP99
0158160080999992000042209004+45750+010530FM-12+146199999V0201701N004112200019N0300001N1+00921-00061999999ADDGA1001+999999999GF100991001001999999001001MA1999999085691MD1410001+9999ME1315289REMSYN066AAXX  22094 16008 42980 01708 10092 21006 38569 48528 54000 90845;
0174160080999992000042215004+45750+010530FM-12+146199999V0201901N005112200019N0300001N1+01521-00181999999ADDGA1031+007509029GF103991031021008001001001MA1999999085501MD1710101+9999ME1315109REMSYN082AAXX  22154 16008 42580 31910 10152 21018 38550 48510 57010 83200 91445 333 83825;
0211160080999992000042218004+45750+010530FM-12+146199999V0209999C000012200019N0300001N1+01481-00181999999ADDAA199000091GA1001+999999999GF100991001001999999001001KA1999M+01541MA1999999085411MD1710091+9999ME1315019REMSYN076AAXX  22184 16008 32980 00000 10148 21018 38541 48501 57009 91745 333 10154;EQDQ01  00002PRCP99
0158160080999992000042221004+45750+010530FM-12+146199999V0209999C000012200019N0200001N1+00981+00141999999ADDGA1001+999999999GF100991001001999999001001MA1999999085481MD1310071+9999ME1315089REMSYN066AAXX  22214 16008 42970 00000 10098 20014 38548 48508 53007 92045;
0188160080999992000042300004+45750+010530FM-12+146199999V0209999C000012200019N0200001N1+00701+00241999999ADDAA199000091GA1001+999999999GF100991001001999999001001MA1999999085501MD1110021+9999ME1315099REMSYN066AAXX  23004 16008 32970 00000 10070 20024 38550 48509 51002 92345;EQDQ01  00002PRCP99
0158160080999992000042303004+45750+010530FM-12+146199999V0209999C000012200019N0200001N1+00501+00191999999ADDGA1001+999999999GF100991001001999999001001MA1999999085501MD1410001+9999ME1315099REMSYN066AAXX  23034 16008 42970 00000 10050 20019 38550 48509 54000 90245;
0223160080999992000042306004+45750+010530FM-12+146199999V0209999C000012200019N0300001N1+00401+00191999999ADDAA199000091GA1001+999999999GF100991001001999999001001IA1019KA1120N+00401MA1999999085501MD1410001+9999ME1315089REMSYN082AAXX  23064 16008 32980 00000 10040 20019 38550 48508 54000 90545 333 20040 30///;EQDQ01  00002PRCP99
0193160080999992000042309004+45750+010530FM-12+146199999V0201901N005712200019N0300001N1+00761+00431999999ADDGA1041+030009019GF104991041001999999021999MA1999999085421MD1810081+9999ME1315019REMSYN082AAXX  23094 16008 42980 41911 10076 20043 38542 48501 58008 84020 90845 333 84460;EQDQ01+000002SCOHCG
0220160080999992000042312004+45750+010530FM-12+146199999V0201801N005710300019N0250001N1+01341+00241999999ADDAA199000091GA1071+030009019GF107991071001999999021999MA1999999085281MD1710141+9999ME1314899REMSYN082AAXX  23124 16008 32975 71811 10134 20024 38528 48489 57014 87020 91145 333 87460;EQDQ01+000002SCOHCGQ02  00002PRCP99
0193160080999992000042315004+45750+010530FM-12+146199999V0202301N006210300019N0250001N1+01461+00221999999ADDGA1071+030009019GF107991071001999999021999MA1999999085051MD1710231+9999ME1314669REMSYN082AAXX  23154 16008 42975 72312 10146 20022 38505 48466 57023 87020 91445 333 87460;EQDQ01+000002SCOHCG
0239160080999992000042318004+45750+010530FM-12+146199999V0202101N002610240019N0250001N1+01421+00051999999ADDAA199000091GA1051+024009079GF105991051999022501031001KA1120M+01601MA1999999084941MD1710111+9999ME1314559REMSYN088AAXX  23184 16008 32875 52105 10142 20005 38494 48455 57011 85030 91745 333 10160 85358;EQDQ01  00002PRCP99Q02    003SCOLCG
0158160080999992000042321004+45750+010530FM-12+146199999V0209999C000012200019N0200001N1+01021+00271999999ADDGA1001+999999999GF100991001001999999001001MA1999999084901MD1610041+9999ME1314519REMSYN066AAXX  23214 16008 42970 00000 10102 20027 38490 48451 56004 92045;
0188160080999992000042400004+45750+010530FM-12+146199999V0209999C000012200019N0200001N1+00821+00321999999ADDAA199000091GA1001+999999999GF100991001001999999001001MA1999999084801MD1810101+9999ME1314429REMSYN066AAXX  24004 16008 32970 00000 10082 20032 38480 48442 58010 92345;EQDQ01  00002PRCP99
0158160080999992000042403004+45750+010530FM-12+146199999V0200401N002612200019N0200001N1+00701+00361999999ADDGA1001+999999999GF100991001001999999001001MA1999999084581MD1710221+9999ME1315219REMSYN066AAXX  24034 16008 42970 00405 10070 20036 38458 48521 57022 90245;
0250160080999992000042406004+45750+010530FM-12+146199999V0200601N002610030019N0150001N1+00661+00661999999ADDAA112000791AY111061AY211061GA1081+003009069GF108991081071004501999999IA1119KA1120N+00661MA1999999084601MD1310021+9999ME1314389MW1601REMSYN106AAXX  24064 16008 11465 80605 10066 20066 38460 48438 53002 69902 76011 887// 90545 333 20066 32/// 88710;
0202160080999992000042409004+45750+010530FM-12+146199999V0200401N007210030019N0150001N1+00481+00421999999ADDAY161031AY261031GA1081+003009069GF108991081071004501999999MA1999999084701MD1210101+9999ME1314329MW1601REMSYN088AAXX  24094 16008 41465 80414 10048 20042 38470 48432 52010 76066 887// 90845 333 88710;
0208160080999992000042415004+45750+010530FM-12+146199999V0200601N00621036001CN0200001N1+00741+00181999999ADDAY161031AY221031GA1031+009009089GF106991031021008001011001MA1999999084921MD1410001+9999ME1314539MW1011REMSYN094AAXX  24154 16008 42570 60612 10074 20018 38492 48453 54000 70162 83210 91445 333 83830 85459;
0229160080999992000042418004+45750+010530FM-12+146199999V0200401N00571007501CN0200001N1+00721-00041999999ADDAA112000591AY161061AY221061GA1041+009009089GF106991061021008001011001KA1120M+00801MA1999999084511MD1810021+9999MW1021REMSYN100AAXX  24184 16008 11570 60411 10072 21004 38451 58002 69942 70262 86210 91745 333 10080 84830 84459;
0158160080999992000042421004+45750+010530FM-12+146199999V0200701N002612200019N0200001N1+00521+00101999999ADDGA1001+999999999GF100991001001999999001001MA1999999085001MD1310101+9999ME1314619REMSYN066AAXX  24214 16008 42970 00705 10052 20010 38500 48461 53010 92045;
0188160080999992000042500004+45750+010530FM-12+146199999V0200601N004112200019N0200001N1+00461+00221999999ADDAA199000091GA1001+999999999GF100991001001999999001001MA1999999085031MD1110031+9999ME1314649REMSYN066AAXX  25004 16008 32970 00608 10046 20022 38503 48464 51003 92345;EQDQ01  00002PRCP99
0158160080999992000042503004+45750+010530FM-12+146199999V0200601N001512200019N0200001N1+00381+00221999999ADDGA1001+999999999GF100991001001999999001001MA1999999085061MD1310031+9999ME1314679REMSYN066AAXX  25034 16008 42970 00603 10038 20022 38506 48467 53003 90245;
0223160080999992000042506004+45750+010530FM-12+146199999V0200601N002112200019N0250001N1+00301+00221999999ADDAA199000091GA1001+999999999GF100991001001999999001001IA1099KA1120N+00301MA1999999085101MD1110041+9999ME1314719REMSYN082AAXX  25064 16008 32975 00604 10030 20022 38510 48471 51004 90545 333 20030 31///;EQDQ01  00002PRCP99
0158160080999992000042509004+45750+010530FM-12+146199999V0200401N004612200019N0200001N1+00701+00241999999ADDGA1001+999999999GF100991001001999999001001MA1999999085121MD1310021+9999ME1314739REMSYN066AAXX  25094 16008 42970 00409 10070 20024 38512 48473 53002 90845;
0204160080999992000042512004+45750+010530FM-12+146199999V0202101N002612200019N0200001N1+01441-00041999999ADDAA199000091GA1021+010509029GF102991021011012501001001MA1999999085101MD1810021+9999ME1314719REMSYN082AAXX  25124 16008 32670 22105 10144 21004 38510 48471 58002 82100 91145 333 82835;EQDQ01  00002PRCP99
0211160080999992000042518004+45750+010530FM-12+146199999V0209999C000012200019N0200001N1+01281-00091999999ADDAA199000091GA1001+999999999GF100991001001999999001001KA1999M+01501MA1999999085091MD1310031+9999ME1314709REMSYN076AAXX  25184 16008 32970 00000 10128 21009 38509 48470 53003 91745 333 10150;EQDQ01  00002PRCP99
0158160080999992000042521004+45750+010530FM-12+146199999V0209999C000012200019N0200001N1+00821+00321999999ADDGA1001+999999999GF100991001001999999001001MA1999999085211MD1110121+9999ME1314819REMSYN066AAXX  25214 16008 42970 00000 10082 20032 38521 48481 51012 92045;
0188160080999992000042600004+45750+010530FM-12+146199999V0209999C000012200019N0180001N1+00601+00331999999ADDAA199000091GA1001+999999999GF100991001001999999001001MA1999999085311MD1310101+9999ME1314919REMSYN066AAXX  26004 16008 32968 00000 10060 20033 38531 48491 53010 92345;EQDQ01  00002PRCP99
0174160080999992000042603004+45750+010530FM-12+146199999V0209999C000012200019N0170001N1+00501+00381999999ADDGA1011+010509029GF103991011011012501031001MA1999999085311MD1010001+9999ME1314919REMSYN082AAXX  26034 16008 42667 30000 10050 20038 38531 48491 50000 81130 90245 333 81835;
0235160080999992000042606004+45750+010530FM-12+146199999V0209999C000010120019N0150001N1+00401+00351999999ADDAA199000091GA1051+012009059GF105991051051012501001001IA1019KA1120N+00401MA1999999085301MD1610011+9999ME1314909REMSYN094AAXX  26064 16008 32665 50000 10040 20035 38530 48490 56001 85500 90545 333 20040 30/// 85640;EQDQ01  00002PRCP99
0204160080999992000042612004+45750+010530FM-12+146199999V0202001N004612200019N0140001N1+01481+00031999999ADDAA199000091GA1011+010509029GF101991011011012501001001MA1999999085251MD1810051+9999ME1314869REMSYN082AAXX  26124 16008 32664 12009 10148 20003 38525 48486 58005 81100 91145 333 81835;EQDQ01  00002PRCP99
0223160080999992000042618004+45750+010530FM-12+146199999V0201701N004110240019N0140001N1+01401+00241999999ADDAA199000091GA1061+024009019GF106991061001022501011001KA1120M+01581MA1999999085201MD1410001+9999ME1314819REMSYN088AAXX  26184 16008 32864 61708 10140 20024 38520 48481 54000 86010 91745 333 10158 86458;EQDQ01  00002PRCP99
0158160080999992000042621004+45750+010530FM-12+146199999V0209999C000012200019N0180001N1+00981+00591999999ADDGA1001+999999999GF100991001001999999001001MA1999999085331MD1310131+9999ME1314939REMSYN066AAXX  26214 16008 42968 00000 10098 20059 38533 48493 53013 92045;
0174160080999992000042703004+45750+010530FM-12+146199999V0209999C000010090019N0110001N1+00861+00741999999ADDGA1081+009009059GF108991081051008001999999MA1999999085411MD1410001+9999ME1315019REMSYN082AAXX  27034 16008 42561 80000 10086 20074 38541 48501 54000 885// 90245 333 88630;
0263160080999992000042706004+45750+010530FM-12+146199999V0201601N001510090019N0070001N1+00801+00601999999ADDAA199000091AY121061AY221061GA1081+009009059GF108991081051008001999999IA1019KA1120N+00801MA1999999085481MD1310071+9999ME1315079MW1101REMSYN100AAXX  27064 16008 31557 81603 10080 20060 38548 48507 53007 71022 885// 90545 333 20080 30/// 88630;EQDQ01  00002PRCP99
0202160080999992000042709004+45750+010530FM-12+146199999V0201901N004110075019N0035001N1+00821+00601999999ADDAY121031AY221031GA1081+007509059GF108991081051008001999999MA1999999085421MD1810061+9999ME1315019MW1101REMSYN088AAXX  27094 16008 41535 81908 10082 20060 38542 48501 58006 71022 885// 90845 333 88625;
0226160080999992000042712004+45750+010530FM-12+146199999V0201901N005110090019N0025001N1+01001+00681999999ADDAA199000091AY121061AY221061GA1081+009009059GF108991081051008001999999MA1999999085401MD1610021+9999ME1315009MW1101REMSYN082AAXX  27124 16008 31525 81910 10100 20068 38540 48500 56002 71022 885// 333 88630;EQDQ01  00002PRCP99
0208160080999992000042715004+45750+010530FM-12+146199999V0201801N00721036001CN0035001N1+01141+00561999999ADDAY121031AY221031GA1021+009009069GF108991021051008001011999MA1999999085301MD1810101+9999ME1314909MW1101REMSYN094AAXX  27154 16008 41535 81814 10114 20056 38530 48490 58010 71022 8251/ 91445 333 82630 86458;
0257160080999992000042718004+45750+010530FM-12+146199999V0202001N00931036001CN0060001N1+01121+00501999999ADDAA199000091AY121061AY221061GA1031+009009069GF108991031051008001021999KA1120M+01181MA1999999085211MD1610091+9999ME1314829MW1101REMSYN100AAXX  27184 16008 31556 82018 10112 20050 38521 48482 56009 71022 8352/ 91745 333 10118 83630 85457;EQDQ01  00002PRCP99
0208160080999992000042721004+45750+010530FM-12+146199999V0201701N00461036001CN0040001N1+00941+00571999999ADDAY121031AY221031GA1031+009009069GF106991031051008001021999MA1999999085231MD1310021+9999ME1314839MW1101REMSYN094AAXX  27214 16008 41540 61709 10094 20057 38523 48483 53002 71022 8352/ 92045 333 83630 83457;
0232160080999992000042800004+45750+010530FM-12+146199999V0201501N004610090019N0040001N1+00841+00521999999ADDAA199000091AY121061AY221061GA1051+009009059GF105991051051008001001001MA1999999085241MD1110011+9999ME1314849MW1101REMSYN088AAXX  28004 16008 31540 51509 10084 20052 38524 48484 51001 71022 85500 92345 333 85630;EQDQ01  00002PRCP99
0202160080999992000042803004+45750+010530FM-12+146199999V0201701N003610075019N0030001N1+00781+00611999999ADDAY121031AY221031GA1071+007509059GF107991071051008001001001MA1999999085131MD1810111+9999ME1314749MW1101REMSYN088AAXX  28034 16008 41530 71707 10078 20061 38513 48474 58011 71022 87500 90245 333 87625;
0263160080999992000042806004+45750+010530FM-12+146199999V0201901N003110030019N0015001N1+00701+00651999999ADDAA199000091AY121061AY221061GA1081+003009069GF108991081061004501999999IA1019KA1120N+00701MA1999999085111MD1610021+9999ME1314729MW1101REMSYN100AAXX  28064 16008 31415 81906 10070 20065 38511 48472 56002 71022 886// 90545 333 20070 30/// 88710;EQDQ01  00002PRCP99
0202160080999992000042809004+45750+010530FM-12+146199999V0201701N007210360019N0030001N1+00801+00651999999ADDAY121031AY221031GA1031+006009059GF105991031051008001011001MA1999999085031MD1810081+9999ME1314649MW1101REMSYN088AAXX  28094 16008 41530 51714 10080 20065 38503 48464 58008 71022 83510 90845 333 83620;
0219160080999992000042812004+45750+010530FM-12+146199999V0202101N009810090019N0060001N1+01101+00351999999ADDAA106000791AY161061AY221061GA1081+009009059GF108991081051008001999999MA1999999084991MD1610041+9999ME1314609MW1601REMSYN094AAXX  28124 16008 11556 82119 10110 20035 38499 48460 56004 69901 76062 885// 91145 333 88630;
0187160080999992000042815004+45750+010530FM-12+146199999V0201801N006210090019N0120001N1+00901+00651999999ADDAY161031AY221031GA1081+009009059GF108991081051008001999999MA1999999085041MD1310051+9999MW1021REMSYN082AAXX  28154 16008 41562 81812 10090 20065 38504 53005 70262 885// 91445 333 88630;
0238160080999992000042818004+45750+010530FM-12+146199999V0202001N005710075019N0110001N1+00821+00681999999ADDAA112000791AY161061AY221061GA1081+007509059GF108991081051008001999999KA1120M+01101MA1999999085111MD1110071+9999ME1314729MW1021REMSYN100AAXX  28184 16008 11561 82011 10082 20068 38511 48472 51007 69902 70262 885// 91745 333 10110 88625;
0202160080999992000042821004+45750+010530FM-12+146199999V0201501N006210060019N0070001N1+00701+00651999999ADDAY121031AY221031GA1061+006009059GF106991061051008001001001MA1999999085191MD1310081+9999ME1314799MW1101REMSYN088AAXX  28214 16008 41557 61512 10070 20065 38519 48479 53008 71022 86500 92045 333 86620;
0213160080999992000042900004+45750+010530FM-12+146199999V0201701N004610015019N0015001N1+00681+00681999999ADDAA199000021AY121061AY221061GA1081+001509059GF108991081051001501999999MA1999999085201MD1110011+9999ME1314809MW1101REMSYN088AAXX  29004 16008 31215 81709 10068 20068 38520 48480 51001 71022 885// 92345 333 88605;
0202160080999992000042903004+45750+010530FM-12+146199999V0201501N002110015019N0006001N1+00681+00681999999ADDAY161031AY221031GA1081+001509069GF108991081061001501999999MA1999999085201MD1410001+9999ME1314809MW1461REMSYN088AAXX  29034 16008 41206 81504 10068 20068 38520 48480 54000 74662 886// 90245 333 88705;
0263160080999992000042906004+45750+010530FM-12+146199999V0201801N004610015019N0011001N1+00601+00601999999ADDAA199000091AY141061AY241061GA1081+001509069GF108991081061001501999999IA1099KA1120N+00601MA1999999085211MD1310011+9999ME1314819MW1281REMSYN100AAXX  29064 16008 31211 81809 10060 20060 38521 48481 53001 72844 886// 90545 333 20060 31/// 88705;EQDQ01  00002PRCP99
0202160080999992000042909004+45750+010530FM-12+146199999V0201801N006710015019N0006001N1+00581+00581999999ADDAY141031AY221031GA1081+001509069GF108991081061001501999999MA1999999085301MD1110091+9999ME1314909MW1421REMSYN088AAXX  29094 16008 41206 81813 10058 20058 38530 48490 51009 74242 886// 90845 333 88705;
0232160080999992000042912004+45750+010530FM-12+146199999V0202001N008710030019N0150001N1+00741+00601999999ADDAA199000091AY141061AY241061GA1071+003009059GF107991071051004501001001MA1999999085331MD1210031+9999ME1314939MW1021REMSYN088AAXX  29124 16008 31465 72017 10074 20060 38533 48493 52003 70244 87500 91145 333 87610;EQDQ01  00002PRCP99
0174160080999992000042915004+45750+010530FM-12+146199999V0201501N006210060019N0150001N1+00921+00511999999ADDGA1071+006009059GF107991071051008001001001MA1999999085411MD1110081+9999ME1315019REMSYN082AAXX  29154 16008 42565 71512 10092 20051 38541 48501 51008 87500 91445 333 87620;
0223160080999992000042918004+45750+010530FM-12+146199999V0201501N005110090019N0200001N1+00941+00431999999ADDAA199000091GA1081+009009059GF108991081051008001999999KA1120M+00961MA1999999085501MD1310091+9999ME1315099REMSYN088AAXX  29184 16008 32570 81510 10094 20043 38550 48509 53009 885// 91745 333 10096 88630;EQDQ01  00002PRCP99
0202160080999992000042921004+45750+010530FM-12+146199999V0201401N003610030019N0060001N1+00761+00731999999ADDAY121031AY221031GA1081+003009069GF108991081061004501999999MA1999999085681MD1210181+9999ME1315269MW1101REMSYN088AAXX  29214 16008 41456 81407 10076 20073 38568 48526 52018 71022 886// 92045 333 88710;
0232160080999992000043000004+45750+010530FM-12+146199999V0209999C000010060019N0080001N1+00741+00701999999ADDAA199000091AY121061AY221061GA1061+006009069GF106991061061008001001001MA1999999085701MD1110021+9999ME1315289MW1101REMSYN088AAXX  30004 16008 31558 60000 10074 20070 38570 48528 51002 71022 86600 92345 333 86720;EQDQ01  00002PRCP99
0174160080999992000043003004+45750+010530FM-12+146199999V0209999C000012200019N0150001N1+00501+00421999999ADDGA1021+012009069GF102991021061012501001001MA1999999085701MD1410001+9999ME1315289REMSYN082AAXX  30034 16008 42665 20000 10050 20042 38570 48528 54000 82600 90245 333 82740;
0235160080999992000043006004+45750+010530FM-12+146199999V0209999C000010120019N0200001N1+00401+00321999999ADDAA199000091GA1081+012009059GF108991081051012501999999IA1099KA1120N+00381MA1999999085771MD1210071+9999ME1315349REMSYN094AAXX  30064 16008 32670 80000 10040 20032 38577 48534 52007 885// 90545 333 20038 31/// 88640;EQDQ01  00002PRCP99
0174160080999992000043009004+45750+010530FM-12+146199999V0209999C000010120019N0250001N1+00641+00411999999ADDGA1071+012009059GF107991071041012501001001MA1999999085841MD1210071+9999ME1315419REMSYN082AAXX  30094 16008 42675 70000 10064 20041 38584 48541 52007 87400 90845 333 87640;
0204160080999992000043012004+45750+010530FM-12+146199999V0201801N006710090019N0250001N1+01101+00471999999ADDAA199000091GA1061+009009059GF106991061051008001001001MA1999999085801MD1810041+9999ME1315399REMSYN082AAXX  30124 16008 32575 61813 10110 20047 38580 48539 58004 86500 91145 333 86630;EQDQ01  00002PRCP99
0174160080999992000043015004+45750+010530FM-12+146199999V0201901N006210090019N0250001N1+01221+00291999999ADDGA1081+009009059GF108991081051008001999999MA1999999085761MD1610041+9999ME1315359REMSYN082AAXX  30154 16008 42575 81912 10122 20029 38576 48535 56004 885// 91445 333 88630;
0223160080999992000043018004+45750+010530FM-12+146199999V0202001N002610120019N0250001N1+01201+00451999999ADDAA199000091GA1051+012009059GF105991051051012501001001KA1120M+01281MA1999999085701MD1510061+9999ME1315299REMSYN088AAXX  30184 16008 32675 52005 10120 20045 38570 48529 55006 85500 91745 333 10128 85640;EQDQ01  00002PRCP99
0158160080999992000043021004+45750+010530FM-12+146199999V0209999C000012200019N0200001N1+00881+00511999999ADDGA1001+999999999GF100991001001999999001001MA1999999085781MD1310081+9999ME1315369REMSYN066AAXX  30214 16008 42970 00000 10088 20051 38578 48536 53008 92045;
0193160080999992000050109004+45750+010530FM-12+146199999V0200401N002610180019N0250001N1+00781+00561999999ADDGA1061+018009079GF106991061999017501071001MA1999999085571MD1710051+9999ME1315169REMSYN082AAXX  01094 16008 42775 60405 10078 20056 38557 48516 57005 86070 90845 333 86356;EQDQ01+000002SCOLCG
0204160080999992000050112004+45750+010530FM-12+146199999V0202101N003610090019N0250001N1+01341+00511999999ADDAA199000091GA1061+009009059GF106991061041008001001001MA1999999085501MD1510071+9999ME1315109REMSYN082AAXX  01124 16008 32575 62107 10134 20051 38550 48510 55007 86400 91145 333 86630;EQDQ01  00002PRCP99
0174160080999992000050115004+45750+010530FM-12+146199999V0203501N002610075019N0200001N1+01461+00281999999ADDGA1061+007509059GF106991061041008001001001MA1999999085381MD1710121+9999ME1314939REMSYN082AAXX  01154 16008 42570 63505 10146 20028 38538 48493 57012 86400 91445 333 86625;
0223160080999992000050118004+45750+010530FM-12+146199999V0200501N002610090019N0250001N1+01241+00601999999ADDAA199000091GA1051+009009059GF105991051051008001001001KA1120M+01541MA1999999085331MD1710051+9999ME1314939REMSYN088AAXX  01184 16008 32575 50505 10124 20060 38533 48493 57005 85500 91745 333 10154 85630;EQDQ01  00002PRCP99
0174160080999992000050121004+45750+010530FM-12+146199999V0200401N004110090019N0200001N1+01061+00471999999ADDGA1071+009009059GF107991071051008001001001MA1999999085401MD1310071+9999ME1315009REMSYN082AAXX  01214 16008 42570 70408 10106 20047 38540 48500 53007 87500 92045 333 87630;
0204160080999992000050200004+45750+010530FM-12+146199999V0200401N003610075019N0200001N1+00881+00551999999ADDAA199000091GA1071+007509059GF107991071041008001001001MA1999999085401MD1110011+9999ME1315009REMSYN082AAXX  02004 16008 32570 70407 10088 20055 38540 48500 51001 87400 92345 333 87625;EQDQ01  00002PRCP99
0174160080999992000050203004+45750+010530FM-12+146199999V0200301N002610075019N0200001N1+00841+00661999999ADDGA1081+007509059GF108991081051008001999999MA1999999085381MD1810031+9999ME1314989REMSYN082AAXX  02034 16008 42570 80305 10084 20066 38538 48498 58003 885// 90245 333 88625;
0235160080999992000050206004+45750+010530FM-12+146199999V0200301N003112200019N0250001N1+00581+00511999999ADDAA199000091GA1021+010509029GF102991021011012501001001IA1019KA1120N+00581MA1999999085381MD1510021+9999ME1314979REMSYN094AAXX  02064 16008 32675 20306 10058 20051 38538 48497 55002 82100 90545 333 20058 30/// 82835;EQDQ01  00002PRCP99
0174160080999992000050209004+45750+010530FM-12+146199999V0200601N005712200019N0250001N1+01101+00571999999ADDGA1021+009009029GF102991021021008001001001MA1999999085401MD1210021+9999ME1315009REMSYN082AAXX  02094 16008 42575 20611 10110 20057 38540 48500 52002 82200 90845 333 82830;
0204160080999992000050212004+45750+010530FM-12+146199999V0201901N006710105019N0250001N1+01281+00561999999ADDAA199000091GA1071+010509059GF107991071051012501001001MA1999999085431MD1210031+9999ME1315039REMSYN082AAXX  02124 16008 32675 71913 10128 20056 38543 48503 52003 87500 91145 333 87635;EQDQ01  00002PRCP99
0174160080999992000050215004+45750+010530FM-12+146199999V0209999C000010090019N0250001N1+01201+00681999999ADDGA1051+009009029GF105991051021008001001001MA1999999085331MD1810201+9999ME1314939REMSYN082AAXX  02154 16008 42575 50000 10120 20068 38533 48493 58020 85200 91445 333 85830;
0223160080999992000050218004+45750+010530FM-12+146199999V0202101N003610090019N0200001N1+01261+00661999999ADDAA199000091GA1051+009009059GF105991051051008001001001KA1120M+01501MA1999999085391MD1310061+9999ME1314999REMSYN088AAXX  02184 16008 32570 52107 10126 20066 38539 48499 53006 85500 91745 333 10150 85630;EQDQ01  00002PRCP99
0174160080999992000050221004+45750+010530FM-12+146199999V0209999C000012200019N0200001N1+00981+00741999999ADDGA1021+009009029GF102991021011008001001001MA1999999085541MD1210151+9999ME1315139REMSYN082AAXX  02214 16008 42570 20000 10098 20074 38554 48513 52015 82100 92045 333 82830;
0204160080999992000050300004+45750+010530FM-12+146199999V0209999C000012200019N0200001N1+00701+00701999999ADDAA199000091GA1021+009009029GF102991021011008001001001MA1999999085591MD1210061+9999ME1314189REMSYN082AAXX  03004 16008 32570 20000 10070 20070 38559 48418 52006 82100 92345 333 82830;EQDQ01  00002PRCP99
0158160080999992000050303004+45750+010530FM-12+146199999V0209999C000012200019N0200001N1+00501+00501999999ADDGA1001+999999999GF100991001001999999001001MA1999999085671MD1110081+9999ME1315259REMSYN066AAXX  03034 16008 42970 00000 10050 20050 38567 48525 51008 90245;
0245160080999992000050306004+45750+010530FM-12+146199999V0209999C000012200019N0250001N1+00421+00421999999ADDAA199000091GA1011+010509029GF101991999051012501041051IA1019KA1120N+00421MA1999999085581MD1810091+9999ME1315169REMSYN088AAXX  03064 16008 32675 10000 10042 20042 38558 48516 58009 80545 333 20042 30/// 81835;EQDQ01+000002SCOTLCQ02  00002PRCP99
0174160080999992000050309004+45750+010530FM-12+146199999V0209999C000012200019N0250001N1+00841+00711999999ADDGA1041+009009029GF104991041011008001001001MA1999999085581MD1310011+9999ME1315179REMSYN082AAXX  03094 16008 42575 40000 10084 20071 38558 48517 53001 84100 90845 333 84830;
0204160080999992000050312004+45750+010530FM-12+146199999V0202201N005110090019N0250001N1+01501+00381999999ADDAA199000091GA1061+009009029GF106991061021008001001001MA1999999085511MD1810081+9999ME1315119REMSYN082AAXX  03124 16008 32575 62210 10150 20038 38551 48511 58008 86200 91145 333 86830;EQDQ01  00002PRCP99
0174160080999992000050315004+45750+010530FM-12+146199999V0202601N003610090019N0250001N1+01641+00091999999ADDGA1061+009009029GF106991061021008001001001MA1999999085431MD1710081+9999ME1315049REMSYN082AAXX  03154 16008 42575 62607 10164 20009 38543 48504 57008 86200 91445 333 86830;
0223160080999992000050318004+45750+010530FM-12+146199999V0209999C000010090019N0250001N1+01441+00181999999ADDAA199000091GA1061+009009059GF106991061051008001001001KA1120M+01781MA1999999085471MD1310041+9999ME1315079REMSYN088AAXX  03184 16008 32575 60000 10144 20018 38547 48507 53004 86500 91745 333 10178 86630;EQDQ01  00002PRCP99
0174160080999992000050321004+45750+010530FM-12+146199999V0209999C000010075019N0200001N1+01201+00681999999ADDGA1081+007509059GF108991081051008001999999MA1999999085621MD1210151+9999ME1315229REMSYN082AAXX  03214 16008 42570 80000 10120 20068 38562 48522 52015 885// 92045 333 88625;
0204160080999992000050400004+45750+010530FM-12+146199999V0209999C000010075019N0200001N1+00941+00881999999ADDAA199000091GA1081+007509059GF108991081051008001999999MA1999999085631MD1110011+9999ME1315229REMSYN082AAXX  04004 16008 32570 80000 10094 20088 38563 48522 51001 885// 92345 333 88625;EQDQ01  00002PRCP99
0174160080999992000050403004+45750+010530FM-12+146199999V0209999C000010075019N0150001N1+00901+00851999999ADDGA1081+007509059GF108991081051008001999999MA1999999085601MD1810031+9999ME1315199REMSYN082AAXX  04034 16008 42565 80000 10090 20085 38560 48519 58003 885// 90245 333 88625;
0251160080999992000050406004+45750+010530FM-12+146199999V0209999C000012200019N0250001N1+00641+00601999999ADDAA199000091GA1041+018009079GF104991041999017501051001IA1019KA1120N+00641MA1999999085591MD1610011+9999ME1315179REMSYN094AAXX  04064 16008 32775 40000 10064 20060 38559 48517 56001 84050 90545 333 20064 30/// 84356;EQDQ01+000002SCOLCGQ02  00002PRCP99
0174160080999992000050409004+45750+010530FM-12+146199999V0201701N003110090019N0250001N1+01021+00611999999ADDGA1061+009009059GF106991061051008001001001MA1999999085591MD1410001+9999ME1315189REMSYN082AAXX  04094 16008 42575 61706 10102 20061 38559 48518 54000 86500 90845 333 86630;
0204160080999992000050412004+45750+010530FM-12+146199999V0209999C000010090019N0150001N1+01501+00221999999ADDAA199000091GA1061+009009029GF106991061011008001001001MA1999999085481MD1810101+9999ME1315099REMSYN082AAXX  04124 16008 32565 60000 10150 20022 38548 48509 58010 86100 91145 333 86830;EQDQ01  00002PRCP99
0174160080999992000050415004+45750+010530FM-12+146199999V0201801N006210090019N0150001N1+01501+00291999999ADDGA1071+009009029GF107991071011008001001001MA1999999085401MD1610081+9999ME1315019REMSYN082AAXX  04154 16008 42565 71812 10150 20029 38540 48501 56008 87100 91445 333 87830;
0223160080999992000050418004+45750+010530FM-12+146199999V0209999C000010090019N0200001N1+01381+00271999999ADDAA199000091GA1071+009009029GF107991071011008001001001KA1120M+01721MA1999999085401MD1410001+9999ME1315009REMSYN088AAXX  04184 16008 32570 70000 10138 20027 38540 48500 54000 87100 91745 333 10172 87830;EQDQ01  00002PRCP99
0174160080999992000050421004+45750+010530FM-12+146199999V0201801N003110090019N0150001N1+01081+00751999999ADDGA1071+009009029GF107991071011008001001001MA1999999085561MD1310161+9999ME1315169REMSYN082AAXX  04214 16008 42565 71806 10108 20075 38556 48516 53016 87100 92045 333 87830;
0204160080999992000050500004+45750+010530FM-12+146199999V0209999C000010090019N0150001N1+00901+00871999999ADDAA199000091GA1071+009009029GF107991071011008001001001MA1999999085571MD1110011+9999ME1315169REMSYN082AAXX  05004 16008 32565 70000 10090 20087 38557 48516 51001 87100 92345 333 87830;EQDQ01  00002PRCP99
0174160080999992000050503004+45750+010530FM-12+146199999V0209999C000010090019N0150001N1+00801+00801999999ADDGA1071+009009029GF107991071011008001001001MA1999999085501MD1810071+9999ME1315099REMSYN082AAXX  05034 16008 42565 70000 10080 20080 38550 48509 58007 87100 90245 333 87830;
0235160080999992000050506004+45750+010530FM-12+146199999V0209999C000010090019N0200001N1+00681+00551999999ADDAA199000091GA1051+009009059GF105991051051008001001001IA1019KA1120N+00681MA1999999085481MD1610021+9999ME1315079REMSYN094AAXX  05064 16008 32570 50000 10068 20055 38548 48507 56002 85500 90545 333 20068 30/// 85630;EQDQ01  00002PRCP99
0174160080999992000050509004+45750+010530FM-12+146199999V0202101N004110090019N0200001N1+00901+00661999999ADDGA1061+009009059GF106991061051008001001001MA1999999085401MD1810081+9999ME1315009REMSYN082AAXX  05094 16008 42570 62108 10090 20066 38540 48500 58008 86500 90845 333 86630;
0204160080999992000050512004+45750+010530FM-12+146199999V0202101N005110090019N0150001N1+01101+00711999999ADDAA199000091GA1071+009009029GF107991071011008001001001MA1999999085321MD1610081+9999ME1314929REMSYN082AAXX  05124 16008 32565 72110 10110 20071 38532 48492 56008 87100 91145 333 87830;EQDQ01  00002PRCP99
0168160080999992000050515004+45750+010530FM-12+146199999V0202101N006210090019N0150001N1+01241+00521999999ADDGA1071+009009029GF107991999999008001999999MA1999999085291MD1810031+9999ME1314899REMSYN076AAXX  05154 16008 42565 72112 10124 20052 38529 48489 58003 91445 333 87830;
0223160080999992000050518004+45750+010530FM-12+146199999V0202101N007710060019N0120001N1+01221+00451999999ADDAA199000091GA1081+006009029GF108991081011008001999999KA1120M+01301MA1999999085301MD1310011+9999ME1314909REMSYN088AAXX  05184 16008 32562 82115 10122 20045 38530 48490 53001 881// 91745 333 10130 88820;EQDQ01  00002PRCP99
0174160080999992000050521004+45750+010530FM-12+146199999V0209999C000010060019N0100001N1+00901+00901999999ADDGA1081+006009069GF108991081061008001999999MA1999999085401MD1110101+9999ME1315009REMSYN082AAXX  05214 16008 42560 80000 10090 20090 38540 48500 51010 886// 92045 333 88720;
0204160080999992000050600004+45750+010530FM-12+146199999V0202101N004110060019N0100001N1+00801+00801999999ADDAA199000091GA1081+006009069GF108991081061008001999999MA1999999085451MD1310051+9999ME1315049REMSYN082AAXX  06004 16008 32560 82108 10080 20080 38545 48504 53005 886// 92345 333 88720;EQDQ01  00002PRCP99
0174160080999992000050603004+45750+010530FM-12+146199999V0209999C000010060019N0100001N1+00781+00781999999ADDGA1081+006009069GF108991081061008001999999MA1999999085411MD1810041+9999ME1315009REMSYN082AAXX  06034 16008 42560 80000 10078 20078 38541 48500 58004 886// 90245 333 88720;
0235160080999992000050606004+45750+010530FM-12+146199999V0209999C000010060019N0100001N1+00701+00701999999ADDAA199000091GA1081+006009069GF108991081061008001999999IA1099KA1120N+00701MA1999999085401MD1610011+9999ME1314999REMSYN094AAXX  06064 16008 32560 80000 10070 20070 38540 48499 56001 886// 90545 333 20070 31/// 88720;EQDQ01  00002PRCP99
0204160080999992000050612004+45750+010530FM-12+146199999V0201801N004110060019N0100001N1+00801+00761999999ADDAA199000091GA1081+006009069GF108991081061008001999999MA1999999085491MD1110071+9999ME1315089REMSYN082AAXX  06124 16008 32560 81808 10080 20076 38549 48508 51007 886// 91145 333 88720;EQDQ01  00002PRCP99
0174160080999992000050615004+45750+010530FM-12+146199999V0201801N004110060019N0100001N1+00821+00751999999ADDGA1081+006009069GF108991081061008001999999MA1999999085511MD1310021+9999ME1315109REMSYN082AAXX  06154 16008 42560 81808 10082 20075 38551 48510 53002 886// 91445 333 88720;
0223160080999992000050618004+45750+010530FM-12+146199999V0201801N003110075019N0100001N1+00901+00621999999ADDAA199000091GA1081+007509069GF108991081061008001999999KA1120M+00901MA1999999085411MD1810101+9999ME1315009REMSYN088AAXX  06184 16008 32560 81806 10090 20062 38541 48500 58010 886// 91745 333 10090 88725;EQDQ01  00002PRCP99
0174160080999992000050621004+45750+010530FM-12+146199999V0201801N007710060019N0100001N1+00821+00741999999ADDGA1081+006009069GF108991081061008001999999MA1999999085501MD1310101+9999ME1315099REMSYN082AAXX  06214 16008 42560 81815 10082 20074 38550 48509 53010 886// 92045 333 88720;
0204160080999992000050700004+45750+010530FM-12+146199999V0201801N007210060019N0100001N1+00801+00731999999ADDAA199000091GA1081+006009069GF108991081061008001999999MA1999999085561MD1110031+9999ME1315159REMSYN082AAXX  07004 16008 32560 81814 10080 20073 38556 48515 51003 886// 92345 333 88720;EQDQ01  00002PRCP99
0174160080999992000050703004+45750+010530FM-12+146199999V0201801N007210060019N0100001N1+00701+00701999999ADDGA1081+006009069GF108991081061008001999999MA1999999085571MD1410001+9999ME1315159REMSYN082AAXX  07034 16008 42560 81814 10070 20070 38557 48515 54000 886// 90245 333 88720;
0235160080999992000050706004+45750+010530FM-12+146199999V0201801N007210060019N0100001N1+00641+00641999999ADDAA199000091GA1081+006009069GF108991081061008001999999IA1099KA1120N+00641MA1999999085601MD1310031+9999ME1315199REMSYN094AAXX  07064 16008 32560 81814 10064 20064 38560 48519 53003 886// 90545 333 20064 31/// 88720;EQDQ01  00002PRCP99
0174160080999992000050709004+45750+010530FM-12+146199999V0201801N005110090019N0150001N1+00701+00661999999ADDGA1071+009009059GF107991071051008001001001MA1999999085681MD1110081+9999ME1315259REMSYN082AAXX  07094 16008 42565 71810 10070 20066 38568 48525 51008 87500 90845 333 87630;
0204160080999992000050712004+45750+010530FM-12+146199999V0202001N007710090019N0200001N1+01041+00451999999ADDAA199000091GA1071+009009059GF107991071051008001001001MA1999999085691MD1110011+9999ME1315289REMSYN082AAXX  07124 16008 32570 72015 10104 20045 38569 48528 51001 87500 91145 333 87630;EQDQ01  00002PRCP99
0174160080999992000050715004+45750+010530FM-12+146199999V0201501N004110090019N0150001N1+01101+00511999999ADDGA1071+009009059GF107991071051008001001001MA1999999085691MD1810011+9999ME1315289REMSYN082AAXX  07154 16008 42565 71508 10110 20051 38569 48528 58001 87500 91145 333 87630;
0223160080999992000050718004+45750+010530FM-12+146199999V0201801N005110090019N0150001N1+01081+00551999999ADDAA199000091GA1071+009009059GF107991071051008001001001KA1120M+01121MA1999999085601MD1610091+9999ME1315199REMSYN088AAXX  07184 16008 32565 71810 10108 20055 38560 48519 56009 87500 91745 333 10112 87630;EQDQ01  00002PRCP99
0174160080999992000050721004+45750+010530FM-12+146199999V0202101N007710090019N0100001N1+00901+00811999999ADDGA1081+009009069GF108991081061008001999999MA1999999085681MD1310081+9999ME1315279REMSYN082AAXX  07214 16008 42560 82115 10090 20081 38568 48527 53008 886// 92045 333 88730;
0204160080999992000050800004+45750+010530FM-12+146199999V0201801N006210090019N0100001N1+00801+00731999999ADDAA199000091GA1081+009009069GF108991081061008001999999MA1999999085691MD1210011+9999ME1315279REMSYN082AAXX  08004 16008 32560 81812 10080 20073 38569 48527 52001 886// 92345 333 88730;EQDQ01  00002PRCP99
0174160080999992000050803004+45750+010530FM-12+146199999V0209999C000010090019N0100001N1+00761+00741999999ADDGA1081+009009069GF108991081061008001999999MA1999999085701MD1310011+9999ME1315289REMSYN082AAXX  08034 16008 42560 80000 10076 20074 38570 48528 53001 886// 90245 333 88730;
0235160080999992000050806004+45750+010530FM-12+146199999V0209999C000010060019N0100001N1+00721+99999999999ADDAA199000091GA1081+006009069GF108991081061008001999999IA1099KA1120N+00701MA1999999085701MD1410001+9999ME1315289REMSYN094AAXX  08064 16008 32560 80000 10072 20073 38570 48528 54000 886// 90545 333 20070 31/// 88720;EQDQ01  00002PRCP99
0174160080999992000050809004+45750+010530FM-12+146199999V0202101N004110075019N0150001N1+00901+00621999999ADDGA1081+007509069GF108991081061008001999999MA1999999085711MD1410001+9999ME1315309REMSYN082AAXX  08094 16008 42565 82108 10090 20062 38571 48530 54000 886// 90845 333 88725;
0204160080999992000050812004+45750+010530FM-12+146199999V0202101N005110075019N0120001N1+00981+00711999999ADDAA199000091GA1081+007509069GF108991081061008001999999MA1999999085711MD1410001+9999ME1315299REMSYN082AAXX  08124 16008 32562 82110 10098 20071 38571 48529 54000 886// 91145 333 88725;EQDQ01  00002PRCP99
0174160080999992000050815004+45750+010530FM-12+146199999V0202401N003110060019N0100001N1+00981+00891999999ADDGA1081+006009069GF108991081061008001999999MA1999999085711MD1410001+9999ME1315299REMSYN082AAXX  08154 16008 42560 82406 10098 20089 38571 48529 54000 886// 91445 333 88720;
0239160080999992000050818004+45750+010530FM-12+146199999V0209999C000010075019N0100001N1+00921+00741999999ADDAA199000091GA1081+007509069GF108991081061008001999999KA1120M+01021MA1999999085721MD1310011+9999ME1315309REMSYN088AAXX  08184 16008 32560 80000 10092 20074 38572 48530 53000 886// 91745 333 10102 88725;EQDQ01+000002APC3  Q02  00002PRCP99
0174160080999992000050821004+45750+010530FM-12+146199999V0209999C000010090019N0100001N1+00901+00871999999ADDGA1081+009009069GF108991081061008001999999MA1999999085801MD1110091+9999ME1315399REMSYN082AAXX  08214 16008 42560 80000 10090 20087 38580 48539 51009 886// 92045 333 88730;
0204160080999992000050900004+45750+010530FM-12+146199999V0209999C000010090019N0100001N1+00781+00741999999ADDAA199000091GA1081+009009069GF108991081061008001999999MA1999999085801MD1410001+9999ME1315389REMSYN082AAXX  09004 16008 32560 80000 10078 20074 38580 48538 54000 886// 92345 333 88730;EQDQ01  00002PRCP99
0223160080999992000050906004+45750+010530FM-12+146199999V0209999C000012200019N0300001N1+00501+00501999999ADDAA199000091GA1001+999999999GF100991001001999999001001IA1019KA1120N+00501MA1999999085801MD1310021+9999ME1315399REMSYN082AAXX  09064 16008 32980 00000 10050 20050 38580 48539 53002 90545 333 20050 30///;EQDQ01  00002PRCP99
0158160080999992000050909004+45750+010530FM-12+146199999V0202201N004112200019N0300001N1+01001+00371999999ADDGA1001+999999999GF100991001001999999001001MA1999999085851MD1110031+9999ME1315449REMSYN066AAXX  09094 16008 42980 02208 10100 20037 38585 48544 51003 90845;
0204160080999992000050912004+45750+010530FM-12+146199999V0202101N006712200019N0250001N1+01521+00521999999ADDAA199000091GA1031+006009029GF103991031011008001001001MA1999999085831MD1810031+9999ME1315439REMSYN082AAXX  09124 16008 32575 32113 10152 20052 38583 48543 58003 83100 91145 333 83820;EQDQ01  00002PRCP99
0174160080999992000050915004+45750+010530FM-12+146199999V0201801N007210900019N0230001N1+01661+00271999999ADDGA1031+006009029GF106991031011008001001091MA1999999085721MD1610101+9999ME1315339REMSYN082AAXX  09154 16008 42573 61814 10166 20027 38572 48533 56010 83109 91445 333 83820;
0223160080999992000050918004+45750+010530FM-12+146199999V0201701N005710900019N0200001N1+01581+00501999999ADDAA199000091GA1021+006009029GF106991021011008001001091KA1120M+01681MA1999999085701MD1610021+9999ME1315309REMSYN088AAXX  09184 16008 32570 61711 10158 20050 38570 48530 56002 82109 91745 333 10168 82820;EQDQ01  00002PRCP99
0180160080999992000050921004+45750+010530FM-12+146199999V0201701N00621004201CN0110001N1+01281+00761999999ADDGA1011+003009089GF106991061021004501001001MA1999999085821MD1310121+9999ME1315419REMSYN088AAXX  09214 16008 42461 61712 10128 20076 38582 48541 53012 86200 92045 333 81810 85815;
0210160080999992000051000004+45750+010530FM-12+146199999V0201601N00411009001CN0110001N1+01121+00951999999ADDAA199000091GA1041+003009089GF108991081081004501999999MA1999999085881MD1110061+9999ME1315479REMSYN088AAXX  10004 16008 32461 81608 10112 20095 38588 48547 51006 888// 92345 333 84810 85625;EQDQ01  00002PRCP99
0180160080999992000051003004+45750+010530FM-12+146199999V0201701N00361009001CN0110001N1+01041+01041999999ADDGA1031+004509089GF107991071081004501001001MA1999999085831MD1810061+9999ME1315419REMSYN088AAXX  10034 16008 42461 71707 10104 20104 38583 48541 58006 87800 90245 333 83815 84635;
0263160080999992000051006004+45750+010530FM-12+146199999V0209999C000010060019N0060001N1+00881+00781999999ADDAA199000091AY121061AY221061GA1061+006009029GF106991061021008001001001IA1019KA1120N+00881MA1999999085801MD1610031+9999ME1315389MW1101REMSYN100AAXX  10064 16008 31556 60000 10088 20078 38580 48538 56003 71022 86200 90545 333 20088 30/// 86820;EQDQ01  00002PRCP99
0202160080999992000051009004+45750+010530FM-12+146199999V0202101N005112200019N0050001N1+01181+00811999999ADDAY111031AY211031GA1041+004509029GF104991041021004501001001MA1999999085791MD1810011+9999ME1315389MW1101REMSYN088AAXX  10094 16008 41450 42110 10118 20081 38579 48538 58001 71011 84200 90845 333 84815;
0232160080999992000051012004+45750+010530FM-12+146199999V0202101N006712200019N0080001N1+01561+00641999999ADDAA199000091AY111061AY211061GA1031+004509029GF103991031021004501001001MA1999999085681MD1610111+9999ME1315289MW1101REMSYN088AAXX  10124 16008 31458 32113 10156 20064 38568 48528 56011 71011 83200 91145 333 83815;EQDQ01  00002PRCP99
0174160080999992000051015004+45750+010530FM-12+146199999V0202301N007712200019N0110001N1+01681+00601999999ADDGA1031+004509029GF103991031011004501001001MA1999999085601MD1610091+9999ME1315209REMSYN082AAXX  10154 16008 42461 32315 10168 20060 38560 48520 56009 83100 91445 333 83815;
0223160080999992000051018004+45750+010530FM-12+146199999V0202101N006212200019N0120001N1+01601+00781999999ADDAA199000091GA1021+004509029GF105991021011004501001011KA1120M+01701MA1999999085561MD1610041+9999ME1315169REMSYN088AAXX  10184 16008 32462 52112 10160 20078 38556 48516 56004 82101 91745 333 10170 82815;EQDQ01  00002PRCP99
0174160080999992000051021004+45750+010530FM-12+146199999V0202101N004112200019N0100001N1+01341+00891999999ADDGA1041+004509029GF104991041021004501001001MA1999999085701MD1310141+9999ME1315309REMSYN082AAXX  10214 16008 42460 42108 10134 20089 38570 48530 53014 84200 92045 333 84815;
0204160080999992000051100004+45750+010530FM-12+146199999V0201701N004110045019N0100001N1+01201+01011999999ADDAA199000091GA1061+004509029GF106991061021004501001001MA1999999085751MD1110051+9999ME1315349REMSYN082AAXX  11004 16008 32460 61708 10120 20101 38575 48534 51005 86200 92345 333 86815;EQDQ01  00002PRCP99
0208160080999992000051103004+45750+010530FM-12+146199999V0201501N00361009001CN0080001N1+01061+01061999999ADDAY121031AY221031GA1031+004509089GF108991081081004501999999MA1999999085731MD1810021+9999ME1315329MW1101REMSYN094AAXX  11034 16008 41458 81507 10106 20106 38573 48532 58002 71022 888// 90245 333 83815 86635;
0269160080999992000051106004+45750+010530FM-12+146199999V0202001N00211006001CN0020001N1+01021+01021999999ADDAA199000091AY121061AY221061GA1041+000909089GF108991081081000751999999IA1019KA1120N+01001MA1999999085721MD1610011+9999ME1315319MW1101REMSYN106AAXX  11064 16008 31120 82004 10102 20102 38572 48531 56001 71022 888// 90545 333 20100 30/// 84803 85630;EQDQ01  00002PRCP99
0208160080999992000051109004+45750+010530FM-12+146199999V0201801N00621000601CN0020001N1+01161+00901999999ADDAY121031AY221031GA1031+000909089GF107991071021000751001001MA1999999085771MD1310041+9999ME1315369MW1101REMSYN094AAXX  11094 16008 41120 71812 10116 20090 38577 48536 53004 71022 87200 90845 333 83803 84804;
0201160080999992000051118004+45750+010530FM-12+146199999V0209999C000019999999N0200001N1+01701-00011999999ADDAA199000091GF106991001001999999001011KA1999M+01721MA1999999085501MD1610081+9999ME1315109REMSYN082AAXX  11184 16008 32970 60000 10170 21001 38550 48510 56008 80001 91745 333 10172;EQDQ01  00002PRCP99
0174160080999992000051121004+45750+010530FM-12+146199999V0209999C000012200019N0200001N1+01181+00191999999ADDGA1021+006009029GF102991021011008001001001MA1999999085601MD1310101+9999ME1315209REMSYN082AAXX  11214 16008 42570 20000 10118 20019 38560 48520 53010 82100 92045 333 82820;
0148160080999992000051203004+45750+010530FM-12+146199999V0209999C000019999999N0160001N1+00841+00481999999ADDGF105991001001999999001041MA1999999085641MD1810031+9999ME1315239REMSYN072AAXX  12034 16008 42966 50000 10084 20048 38564 48523 58003 80004 90245;
0269160080999992000051206004+45750+010530FM-12+146199999V0209999C000010090019N0050001N1+00801+00591999999ADDAA199000091AY111061AY211061GA1031+003009089GF108991081081004501999999IA1019KA1120N+00781MA1999999085601MD1610041+9999ME1315199MW1101REMSYN106AAXX  12064 16008 31450 80000 10080 20059 38560 48519 56004 71011 888// 90545 333 20078 30/// 83810 86630;EQDQ01  00002PRCP99
0208160080999992000051209004+45750+010530FM-12+146199999V0202101N005110090019N0060001N1+00961+00571999999ADDAY121031AY221031GA1021+003009089GF108991081081004501999999MA1999999085701MD1310101+9999ME1315299MW1601REMSYN094AAXX  12094 16008 41456 82110 10096 20057 38570 48529 53010 76022 888// 90845 333 82810 87630;
0225160080999992000051212004+45750+010530FM-12+146199999V0200301N00151036001CN0090001N1+01241+00621999999ADDAA106000791AY161061AY221061GA1031+001209089GF107991031021001501021001MA1999999085641MD1810061+9999ME1315249MW1101REMSYN100AAXX  12124 16008 11259 70303 10124 20062 38564 48524 58006 69901 71062 83220 91145 333 83804 85456;
0208160080999992000051215004+45750+010530FM-12+146199999V0202301N00821036001CN0070001N1+01201+00751999999ADDAY121031AY221031GA1041+001509089GF108991041021001501021999MA1999999085581MD1510061+9999ME1315189MW1101REMSYN094AAXX  12154 16008 41257 82316 10120 20075 38558 48518 55006 71022 8422/ 91445 333 84805 86456;
0244160080999992000051218004+45750+010530FM-12+146199999V0202101N00361036001CN0050001N1+01081+00801999999ADDAA112000791AY121061AY221061GA1041+000909089GF108991041021000751021999KA1120M+01401MA1999999085631MD1110051+9999ME1315239MW1101REMSYN106AAXX  12184 16008 11150 82107 10108 20080 38563 48523 51005 69902 71022 8422/ 91745 333 10140 84803 86450;
0238160080999992000051300004+45750+010530FM-12+146199999V0209999C000010180019N0070001N1+00901+00901999999ADDAA106000591AY161061AY221061GA1061+018009079GF106991061999017501061001MA1999999085741MD1110031+9999ME1315339MW1101REMSYN094AAXX  13004 16008 11757 60000 10090 20090 38574 48533 51003 69961 71062 86060 92345 333 86356;EQDQ01+000002SCOLCG
0221160080999992000051303004+45750+010530FM-12+146199999V0209999C000010180019N0060001N1+00861+00831999999ADDAY121031AY221031GA1071+018009079GF107991071999017501031001MA1999999085701MD1810051+9999ME1315289MW1101REMSYN088AAXX  13034 16008 41756 70000 10086 20083 38570 48528 58005 71022 87030 90245 333 87356;EQDQ01+000002SCOLCG
0222160080999992000051306004+45750+010530FM-12+146199999V0209999C000010090019N0110001N1+00821+00751999999ADDAA112000591GA1071+009009059GF107991071051008001001001IA1119KA1120N+00821MA1999999085691MD1610011+9999ME1315279REMSYN100AAXX  13064 16008 12561 70000 10082 20075 38569 48527 56001 69962 87500 90545 333 20082 32/// 87630;
0174160080999992000051309004+45750+010530FM-12+146199999V0200501N003612200019N0200001N1+00861+00741999999ADDGA1041+003009029GF105991041021004501001041MA1999999085731MD1310041+9999ME1315319REMSYN082AAXX  13094 16008 42470 50507 10086 20074 38573 48531 53004 84204 90845 333 84810;
0226160080999992000051312004+45750+010530FM-12+146199999V0201801N00261036001CN0180001N1+01501+00521999999ADDAA199000091GA1041+001509089GF108991041021001501011999MA1999999085731MD1410001+9999ME1315339REMSYN088AAXX  13124 16008 32268 81805 10150 20052 38573 48533 51000 8421/ 91145 333 84805 86456;EQDQ01+000012APCTENQ02  00002PRCP99
0174160080999992000051315004+45750+010530FM-12+146199999V0202201N004610045019N0250001N1+01321+00511999999ADDGA1061+004509029GF106991061021004501001001MA1999999085731MD1410001+9999ME1315329REMSYN082AAXX  13154 16008 42475 62209 10132 20051 38573 48532 54000 86200 91445 333 86815;
0227160080999992000051318004+45750+010530FM-12+146199999V0201801N00361036001CN0110001N1+01401+00591999999ADDAY181061AY261061GA1041+001509089GF108991041021001501021999KA1120M+01561MA1999999085731MD1410001+9999ME1315339MW1601REMSYN100AAXX  13184 16008 41261 81807 10140 20059 38573 48533 54000 76086 8422/ 91745 333 10156 84805 87450;
0208160080999992000051321004+45750+010530FM-12+146199999V0209999C00001036001CN0110001N1+01101+00921999999ADDAY161031AY261031GA1041+001509089GF108991041021001501021999MA1999999085861MD1310131+9999ME1315459MW1601REMSYN094AAXX  13214 16008 41261 80000 10110 20092 38586 48545 53013 76066 8422/ 92045 333 84805 87456;
0221160080999992000051400004+45750+010530FM-12+146199999V0209999C000010180019N0150001N1+00901+00871999999ADDAY161061AY221061GA1071+018009079GF107991071999017501091001MA1999999085931MD1110071+9999ME1315509MW1011REMSYN088AAXX  14004 16008 41765 70000 10090 20087 38593 48550 51007 70162 87090 92345 333 87356;EQDQ01+000002SCOLCG
0158160080999992000051403004+45750+010530FM-12+146199999V0209999C000012200019N0200001N1+00861+99999999999ADDGA1001+999999999GF100991001001999999001001MA1999999085931MD1410001+9999ME1315509REMSYN066AAXX  14034 16008 42970 00000 10086 20087 38593 48550 54000 90245;
0193160080999992000051406004+45750+010530FM-12+146199999V0209999C000012200019N0250001N1+00681+00681999999ADDGA1001+999999999GF100991001001999999001001IA1119KA1120N+00681MA1999999085931MD1410001+9999ME1315509REMSYN082AAXX  14064 16008 42975 00000 10068 20068 38593 48550 54000 90545 333 20068 32///;
0174160080999992000051409004+45750+010530FM-12+146199999V0200301N005112200019N0220001N1+00641+00641999999ADDGA1031+004509029GF103991031011004501001001MA1999999085931MD1410001+9999ME1315499REMSYN082AAXX  14094 16008 42472 30310 10064 20064 38593 48549 54000 83100 90845 333 83815;
0204160080999992000051412004+45750+010530FM-12+146199999V0202101N003612200019N0200001N1+01201+00641999999ADDAA199000091GA1041+004509029GF104991041011004501001001MA1999999085931MD1410001+9999ME1315519REMSYN082AAXX  14124 16008 32470 42107 10120 20064 38593 48551 54000 84100 91145 333 84815;EQDQ01  00002PRCP99
0174160080999992000051415004+45750+010530FM-12+146199999V0202101N003612200019N0300001N1+01681+00511999999ADDGA1031+004509029GF103991031011004501001001MA1999999085851MD1810081+9999ME1315459REMSYN082AAXX  14154 16008 42480 32107 10168 20051 38585 48545 58008 83100 91445 333 83815;
0211160080999992000051418004+45750+010530FM-12+146199999V0209999C000012200019N0300001N1+01701+00181999999ADDAA199000091GA1001+999999999GF100991001001999999001001KA1999M+01801MA1999999085791MD1610061+9999ME1315399REMSYN076AAXX  14184 16008 32980 00000 10170 20018 38579 48539 56006 91745 333 10180;EQDQ01  00002PRCP99
0158160080999992000051421004+45750+010530FM-12+146199999V0209999C000012200019N0200001N1+01101+00571999999ADDGA1001+999999999GF100991001001999999001001MA1999999085901MD1310111+9999ME1315489REMSYN066AAXX  14214 16008 42970 00000 10110 20057 38590 48548 53011 92045;
0188160080999992000051500004+45750+010530FM-12+146199999V0209999C000012200019N0200001N1+00901+00701999999ADDAA199000091GA1001+999999999GF100991001001999999001001MA1999999086021MD1110121+9999ME1315609REMSYN066AAXX  15004 16008 32970 00000 10090 20070 38602 48560 51012 92345;EQDQ01  00002PRCP99
0158160080999992000051503004+45750+010530FM-12+146199999V0209999C000012200019N0200001N1+00941+00711999999ADDGA1001+999999999GF100991001001999999001001MA1999999086021MD1410001+9999ME1315609REMSYN066AAXX  15034 16008 42970 00000 10094 20071 38602 48560 54000 90245;
0235160080999992000051506004+45750+010530FM-12+146199999V0209999C000012200019N0250001N1+00921+00681999999ADDAA199000091GA1031+007509029GF103991031011008001001001IA1019KA1120N+00881MA1999999086021MD1410001+9999ME1315609REMSYN094AAXX  15064 16008 32575 30000 10092 20068 38602 48560 54000 83100 90545 333 20088 30/// 83825;EQDQ01  00002PRCP99
0174160080999992000051509004+45750+010530FM-12+146199999V0209999C000012200019N0300001N1+01301+00801999999ADDGA1031+007509029GF103991031011008001001001MA1999999086021MD1410001+9999ME1315619REMSYN082AAXX  15094 16008 42580 30000 10130 20080 38602 48561 54000 83100 90845 333 83825;
0204160080999992000051512004+45750+010530FM-12+146199999V0202001N003612200019N0300001N1+01801+00651999999ADDAA199000091GA1031+007509029GF103991031011008001001001MA1999999086001MD1810031+9999ME1315609REMSYN082AAXX  15124 16008 32580 32007 10180 20065 38600 48560 58003 83100 91145 333 83825;EQDQ01  00002PRCP99
0174160080999992000051515004+45750+010530FM-12+146199999V0202001N004112200019N0300001N1+01901+00051999999ADDGA1031+007509029GF103991031011008001001001MA1999999085891MD1710101+9999ME1315509REMSYN082AAXX  15154 16008 42580 32008 10190 20005 38589 48550 57010 83100 91445 333 83825;
0223160080999992000051518004+45750+010530FM-12+146199999V0201901N003112200019N0300001N1+01761+00171999999ADDAA199000091GA1031+007509029GF103991031011008001001001KA1120M+01931MA1999999085821MD1710081+9999ME1315429REMSYN088AAXX  15184 16008 32580 31906 10176 20017 38582 48542 57008 83100 91745 333 10193 83825;EQDQ01  00002PRCP99
0174160080999992000051521004+45750+010530FM-12+146199999V0209999C000012200019N0200001N1+01301+00551999999ADDGA1031+007509029GF103991031011008001001001MA1999999085931MD1310111+9999ME1315529REMSYN082AAXX  15214 16008 42570 30000 10130 20055 38593 48552 53011 83100 92045 333 83825;
0204160080999992000051600004+45750+010530FM-12+146199999V0209999C000012200019N0200001N1+00981+00621999999ADDAA199000091GA1031+007509029GF103991031011008001001001MA1999999086011MD1110081+9999ME1315599REMSYN082AAXX  16004 16008 32570 30000 10098 20062 38601 48559 51008 83100 92345 333 83825;EQDQ01  00002PRCP99
0218160080999992000051606004+45750+010530FM-12+146199999V0200701N000512200019N0100001N1+01541+01291102051ADDAA199000091GA1001+999999999GF100991001001999999001001KA1999N+01261MA1999999999999MD1310021+9999REMSYN076AAXX  16064 16008 32960 00701 10154 20129 30089 40205 53002 90545 333 20126;EQDQ01  00002PRCP99Q02 100893APOSP 
0193160080999992000051609004+45750+010530FM-12+146199999V0209999C000012200019N0300001N1+01381+00801999999ADDGA1031+006009029GF103991031011008001001001MA1999999085962MD1810051+9999ME1315559REMSYN082AAXX  16094 16008 42580 30000 10138 20080 38596 48555 58005 83100 90845 333 83820;EQDQ01+085963APOSP 
0204160080999992000051612004+45750+010530FM-12+146199999V0209999C000012200019N0300001N1+01861+00731999999ADDAA199000091GA1041+006009029GF104991041021008001001001MA1999999085801MD1710161+9999ME1315419REMSYN082AAXX  16124 16008 32580 40000 10186 20073 38580 48541 57016 84200 91145 333 84820;EQDQ01  00002PRCP99
0174160080999992000051615004+45750+010530FM-12+146199999V0202101N002610060019N0300001N1+01901+00521999999ADDGA1051+006009029GF105991051021008001001001MA1999999085701MD1710111+9999ME1315319REMSYN082AAXX  16154 16008 42580 52105 10190 20052 38570 48531 57011 85200 91445 333 85820;
0202160080999992000051621004+45750+010530FM-12+146199999V0201701N004110060019N0200001N1+01181+00891999999ADDAY161031AY221031GA1061+006009029GF106991061021008001001001MA1999999085811MD1210141+9999ME1315409MW1601REMSYN088AAXX  16214 16008 41570 61708 10118 20089 38581 48540 52014 76062 86200 92045 333 86820;
0202160080999992000051700004+45750+010530FM-12+146199999V0209999C000010060019N0200001N1+01041+01041999999ADDAY161061AY221061GA1061+006009029GF106991061021008001001001MA1999999085831MD1010031+9999ME1315429MW1021REMSYN088AAXX  17004 16008 41570 60000 10104 20104 38583 48542 50003 70262 86200 92345 333 86820;
0174160080999992000051703004+45750+010530FM-12+146199999V0209999C000010060019N0200001N1+00781+00781999999ADDGA1061+006009029GF106991061021008001001001MA1999999085731MD1710101+9999ME1315319REMSYN082AAXX  17034 16008 42570 60000 10078 20078 38573 48531 57010 86200 90245 333 86820;
0205160080999992000051706004+45750+010530FM-12+146199999V0209999C000010060019N9999999N1+00701+00701999999ADDGA1061+006009029GF106991061021017501001001IA1099KA1120N+00701MA1999999085701MD1610031+9999ME1315289REMSYN094AAXX  17064 16008 42755 60000 10070 20070 38570 48528 56003 86200 90545 333 20070 31/// 86820;
0174160080999992000051709004+45750+010530FM-12+146199999V0202201N001512200019N0300001N1+01061+00841999999ADDGA1041+006009029GF104991041021008001001001MA1999999085601MD1810101+9999ME1315199REMSYN082AAXX  17094 16008 42580 42203 10106 20084 38560 48519 58010 84200 90845 333 84820;
0204160080999992000051712004+45750+010530FM-12+146199999V0202001N006212200019N0300001N1+01521+00461999999ADDAA199000091GA1031+006009029GF103991031021008001001001MA1999999085481MD1710121+9999ME1315099REMSYN082AAXX  17124 16008 32580 32012 10152 20046 38548 48509 57012 83200 91145 333 83820;EQDQ01  00002PRCP99
0174160080999992000051715004+45750+010530FM-12+146199999V0209999C000012200019N0250001N1+01601+00561999999ADDGA1041+004509029GF104991041021004501001001MA1999999085331MD1710151+9999ME1314949REMSYN082AAXX  17154 16008 42475 40000 10160 20056 38533 48494 57015 84200 91445 333 84815;
0223160080999992000051718004+45750+010530FM-12+146199999V0201801N003112200019N0250001N1+01601+00521999999ADDAA199000091GA1031+004509029GF103991031021004501001001KA1120M+01701MA1999999085201MD1610131+9999ME1314819REMSYN088AAXX  17184 16008 32475 31806 10160 20052 38520 48481 56013 83200 91745 333 10170 83815;EQDQ01  00002PRCP99
0158160080999992000051721004+45750+010530FM-12+146199999V0209999C000012200019N0300001N1+01181+00691999999ADDGA1001+999999999GF100991001001999999001001MA1999999085201MD1410001+9999ME1314809REMSYN066AAXX  17214 16008 42980 00000 10118 20069 38520 48480 54001 92045;
0188160080999992000051800004+45750+010530FM-12+146199999V0209999C000012200019N0200001N1+01041+00761999999ADDAA199000091GA1001+999999999GF100991001001999999001001MA1999999085201MD1410001+9999ME1314809REMSYN066AAXX  18004 16008 32970 00000 10104 20076 38520 48480 54000 92345;EQDQ01  00002PRCP99
0158160080999992000051803004+45750+010530FM-12+146199999V0209999C000012200019N0200001N1+01041+00651999999ADDGA1001+999999999GF100991001001999999001001MA1999999085081MD1810121+9999ME1314699REMSYN066AAXX  18034 16008 42970 00000 10104 20065 38508 48469 58012 90245;
0233160080999992000051806004+45750+010530FM-12+146199999V0209999C000010030019N0150001N1+00981+00891999999ADDAY121061AY221061GA1081+003009069GF108991081071004501999999IA1119KA1120N+00981MA1999999085001MD1610081+9999ME1314609MW1601REMSYN100AAXX  18064 16008 41465 80000 10098 20089 38500 48460 56008 76022 887// 90545 333 20098 32/// 88710;
0221160080999992000051809004+45750+010530FM-12+146199999V0201801N003610030019N0150001N1+01041+00661999999ADDAY161031AY221031GA1081+003009069GF199999071061004501001001MA1999999084951MD1810041+9999ME1314569MW1021REMSYN088AAXX  18094 16008 42465 71807 10104 20066 38495 48456 58004 70262 87600 90845 333 88710;EQDQ01+000072SCOTCV
0202160080999992000051812004+45750+010530FM-12+146199999V0201801N004110030019N0150001N1+01101+00661999999ADDAY161061AY221061GA1081+003009069GF108991081061004501999999MA1999999084811MD1710141+9999ME1314429MW1031REMSYN088AAXX  18124 16008 41465 81808 10110 20066 38481 48442 57014 70362 886// 91145 333 88710;
0221160080999992000051818004+45750+010530FM-12+146199999V0202701N003110030019N0150001N1+01101+00931999999ADDAY161061AY221061GA1081+003009069GF108991081071004501999999KA1120M+01221MA1999999084601MD1610111+9999ME1314219MW1601REMSYN094AAXX  18184 16008 41465 82706 10110 20093 38460 48421 56011 76062 887// 91745 333 10122 88710;
0202160080999992000051821004+45750+010530FM-12+146199999V0200501N003110030019N0150001N1+00861+00841999999ADDAY161031AY261031GA1081+003009069GF108991081071004501999999MA1999999084601MD1410001+9999ME1314229MW1601REMSYN088AAXX  18214 16008 41465 80506 10086 20084 38460 48422 54000 76066 887// 92045 333 88710;
0233160080999992000051906004+45750+010530FM-12+146199999V0200501N003110030019N0150001N1+00301+00291999999ADDAY161061AY261061GA1081+003009069GF108991081071004501999999IA1119KA1120N+00301MA1999999084701MD1310161+9999ME1314329MW1601REMSYN100AAXX  19064 16008 41465 80506 10030 20029 38470 48432 53016 76066 887// 90545 333 20030 32/// 88710;
0202160080999992000051909004+45750+010530FM-12+146199999V0200201N006210045019N0250001N1+00501+00191999999ADDAY161031AY221031GA1061+004509029GF106991061021004501001001MA1999999084791MD1110091+9999ME1314419MW1011REMSYN088AAXX  19094 16008 41475 60212 10050 20019 38479 48441 51009 70162 86200 90845 333 86815;
0202160080999992000051912004+45750+010530FM-12+146199999V0200301N004112200019N0250001N1+01001-00381999999ADDAY161061AY211061GA1031+012009029GF103991031011012501001001MA1999999084801MD1410001+9999ME1314419MW1011REMSYN088AAXX  19124 16008 41675 30308 10100 21038 38480 48441 54000 70161 83100 91145 333 83840;
0174160080999992000051915004+45750+010530FM-12+146199999V0200301N003112200019N0250001N1+01141-00281999999ADDGA1031+012009029GF103991031011012501001011MA1999999084721MD1810081+9999ME1314349REMSYN082AAXX  19154 16008 42675 30306 10114 21028 38472 48434 58008 83101 91445 333 83840;
0174160080999992000051921004+45750+010530FM-12+146199999V0209999C000012200019N0200001N1+00621+00081999999ADDGA1041+010509029GF104991041011012501001001MA1999999084651MD1310041+9999ME1314289REMSYN082AAXX  19214 16008 42670 40000 10062 20008 38465 48428 53004 84100 92045 333 84835;
0174160080999992000052000004+45750+010530FM-12+146199999V0209999C000010105019N0200001N1+00501+00171999999ADDGA1071+010509059GF107991071051012501001001MA1999999084611MD1810051+9999ME1314239REMSYN082AAXX  20004 16008 42670 70000 10050 20017 38461 48423 58005 87500 92345 333 87635;
0202160080999992000052003004+45750+010530FM-12+146199999V0200701N003610060019N0080001N1+00401+00321999999ADDAY161031AY221031GA1081+006009069GF108991081061008001999999MA1999999084611MD1510001+9999ME1314239MW1101REMSYN088AAXX  20034 16008 41558 80707 10040 20032 38461 48423 55000 71062 886// 90245 333 88720;
0233160080999992000052006004+45750+010530FM-12+146199999V0200701N005710075019N0110001N1+00361+00191999999ADDAY161061AY221061GA1061+007509059GF106991061051008001001001IA1119KA1120N+00361MA1999999084691MD1110081+9999ME1314319MW1011REMSYN100AAXX  20064 16008 41561 60711 10036 20019 38469 48431 51008 70162 86500 90545 333 20036 32/// 86625;
0174160080999992000052009004+45750+010530FM-12+146199999V0200601N003610090019N0150001N1+00601+00101999999ADDGA1061+009009059GF106991061051008001001001MA1999999084731MD1310041+9999ME1314359REMSYN082AAXX  20094 16008 42565 60607 10060 20010 38473 48435 53004 86500 90845 333 86630;
0174160080999992000052012004+45750+010530FM-12+146199999V0200401N006710090019N0150001N1+00861-00401999999ADDGA1051+009009029GF105991051021008001001001MA1999999084761MD1110031+9999ME1314389REMSYN082AAXX  20124 16008 42565 50413 10086 21040 38476 48438 51003 85200 91145 333 85830;
0174160080999992000052015004+45750+010530FM-12+146199999V0200401N005112200019N0170001N1+00961-00581999999ADDGA1031+012009029GF103991031011012501001001MA1999999084811MD1310051+9999ME1314429REMSYN082AAXX  20154 16008 42667 30410 10096 21058 38481 48442 53005 83100 91445 333 83840;
0193160080999992000052018004+45750+010530FM-12+146199999V0203501N002612200019N0180001N1+00881-00721999999ADDGA1021+012009029GF102991021011012501001001KA1120M+01021MA1999999084881MD1110071+9999ME1314499REMSYN088AAXX  20184 16008 42668 23505 10088 21072 38488 48449 51007 82100 91745 333 10102 82840;
0158160080999992000052021004+45750+010530FM-12+146199999V0209999C000012200019N0180001N1+00421-00331999999ADDGA1001+999999999GF100991001001999999001001MA1999999084971MD1310101+9999ME1314589REMSYN066AAXX  20214 16008 42968 00000 10042 21033 38497 48458 53010 92045;
0152160080999992000052100004+45750+010530FM-12+146199999V0209999C000012200019N0180001N1+99999+99999999999ADDGA1001+999999999GF100991001001999999001001MA1999999084991MD1110011+9999ME1314609REMSYN060AAXX  21004 16008 42968 00000 21018 38499 48460 51001 92345;
0158160080999992000052103004+45750+010530FM-12+146199999V0209999C000012200019N0180001N1+00201-00161999999ADDGA1001+999999999GF100991001001999999001001MA1999999084941MD1810041+9999ME1314569REMSYN066AAXX  21034 16008 42968 00000 10020 21016 38494 48456 58004 90245;
0181160080999992000052106004+45750+010530FM-12+146199999V0209999C000012200019N0250001N1+00141-00191999999ADDGA1001+999999999GF100991001001999999001001KA1999N+00141MA1999999084941MD1510001+9999ME1314559REMSYN076AAXX  21064 16008 42975 00000 10014 21019 38494 48455 55000 90545 333 20014;
0158160080999992000052109004+45750+010530FM-12+146199999V0202001N005112200019N0250001N1+00521-00351999999ADDGA1001+999999999GF100991001001999999001001MA1999999084891MD1810061+9999ME1314509REMSYN066AAXX  21094 16008 42975 02010 10052 21035 38489 48450 58006 90845;
0204160080999992000052112004+45750+010530FM-12+146199999V0202001N006212200019N0200001N1+01021-00281999999ADDAA199000091GA1031+010509029GF103991031011012501001001MA1999999084771MD1610111+9999ME1314399REMSYN082AAXX  21124 16008 32670 32012 10102 21028 38477 48439 56011 83100 91145 333 83835;EQDQ01  00002PRCP99
0174160080999992000052115004+45750+010530FM-12+146199999V0202001N008210090019N0150001N1+01181+00021999999ADDGA1071+009009059GF107991071051008001001001MA1999999084691MD1810081+9999ME1314319REMSYN082AAXX  21154 16008 42565 72016 10118 20002 38469 48431 58008 87500 91445 333 87630;
0223160080999992000052118004+45750+010530FM-12+146199999V0201601N005110090019N0120001N1+01101+00471999999ADDAA199000091GA1081+009009059GF108991081051008001999999KA1120M+01121MA1999999084731MD1310031+9999ME1314349REMSYN088AAXX  21184 16008 32562 81610 10110 20047 38473 48434 53003 885// 91745 333 10112 88630;EQDQ01  00002PRCP99
0202160080999992000052121004+45750+010530FM-12+146199999V0201801N001510075019N0060001N1+00881+00661999999ADDAY121031AY221031GA1081+007509059GF108991081051008001999999MA1999999084751MD1110021+9999ME1314369MW1101REMSYN088AAXX  21214 16008 41556 81803 10088 20066 38475 48436 51002 71022 885// 92045 333 88625;
0202160080999992000052200004+45750+010530FM-12+146199999V0201801N003610030019N0040001N1+00761+00761999999ADDAY161061AY221061GA1081+003009059GF108991081051004501999999MA1999999084681MD1810071+9999ME1314309MW1101REMSYN088AAXX  22004 16008 41440 81807 10076 20076 38468 48430 58007 71062 885// 92345 333 88610;
0202160080999992000052203004+45750+010530FM-12+146199999V0200601N003610030019N0040001N1+00701+00701999999ADDAY161031AY221031GA1081+003009069GF108991081061004501999999MA1999999084681MD1310011+9999ME1314309MW1101REMSYN088AAXX  22034 16008 41440 80607 10070 20070 38468 48430 53001 71062 886// 90245 333 88710;
0233160080999992000052206004+45750+010530FM-12+146199999V0200601N003610090019N0250001N1+00461+00221999999ADDAY161061AY221061GA1051+009009029GF105991051021008001001001IA1119KA1120N+00461MA1999999084901MD1110211+9999ME1314519MW1011REMSYN100AAXX  22064 16008 41575 50607 10046 20022 38490 48451 51021 70162 85200 90545 333 20046 32/// 85830;
0174160080999992000052209004+45750+010530FM-12+146199999V0200501N005712200019N0230001N1+00801-00441999999ADDGA1041+010509029GF104991041021012501001001MA1999999085031MD1310131+9999ME1314639REMSYN082AAXX  22094 16008 42673 40511 10080 21044 38503 48463 53013 84200 90845 333 84835;
0204160080999992000052212004+45750+010530FM-12+146199999V0200401N004112200019N0200001N1+01321-00421999999ADDAA199000091GA1021+010509029GF102991021011012501001001MA1999999085111MD1110081+9999ME1314729REMSYN082AAXX  22124 16008 32670 20408 10132 21042 38511 48472 51008 82100 91145 333 82835;EQDQ01  00002PRCP99
0174160080999992000052215004+45750+010530FM-12+146199999V0200501N004112200019N0200001N1+01301-00531999999ADDGA1021+012009029GF102991021011012501001001MA1999999085211MD1310101+9999ME1314819REMSYN082AAXX  22154 16008 42670 20508 10130 21053 38521 48481 53010 82100 91445 333 82840;
0223160080999992000052218004+45750+010530FM-12+146199999V0200201N002612200019N0200001N1+01061-00481999999ADDAA199000091GA1031+010509029GF103991031011012501001001KA1120M+01381MA1999999085301MD1110091+9999ME1314909REMSYN088AAXX  22184 16008 32670 30205 10106 21048 38530 48490 51009 83100 91745 333 10138 83835;EQDQ01  00002PRCP99
0174160080999992000052221004+45750+010530FM-12+146199999V0209999C000012200019N0180001N1+00821-00291999999ADDGA1011+010509029GF101991011011012501001001MA1999999085501MD1310201+9999ME1315099REMSYN082AAXX  22214 16008 42668 10000 10082 21029 38550 48509 53020 81100 92045 333 81835;
0188160080999992000052300004+45750+010530FM-12+146199999V0209999C000012200019N0180001N1+00501+00081999999ADDAA199000091GA1001+999999999GF100991001001999999001001MA1999999085561MD1110061+9999ME1315149REMSYN066AAXX  23004 16008 32968 00000 10050 20008 38556 48514 51006 92345;EQDQ01  00002PRCP99
0223160080999992000052306004+45750+010530FM-12+146199999V0200501N003612200019N0230001N1+00401+00101999999ADDAA199000091GA1001+999999999GF100991001001999999001001IA1019KA1120N+00401MA1999999085591MD1110031+9999ME1315179REMSYN082AAXX  23064 16008 32973 00507 10040 20010 38559 48517 51003 90545 333 20040 30///;EQDQ01  00002PRCP99
0148160080999992000052309004+45750+010530FM-12+146199999V0200401N004612200019N0200001N1+01081-00071999999ADDGF104991001001999999001011MA1999999085561MD1810031+9999ME1315159REMSYN072AAXX  23094 16008 42970 40409 10108 21007 38556 48515 58003 80001 90845;
0178160080999992000052312004+45750+010530FM-12+146199999V0203501N002119999999N0200001N1+01701-00481999999ADDAA199000091GF105991001001999999001011MA1999999085511MD1610051+9999ME1315129REMSYN072AAXX  23124 16008 32970 53504 10170 21048 38551 48512 56005 80001 91145;EQDQ01  00002PRCP99
0148160080999992000052315004+45750+010530FM-12+146199999V0200201N002619999999N0180001N1+01761-00631999999ADDGF106991001001999999001011MA1999999085421MD1810101+9999ME1315029REMSYN072AAXX  23154 16008 42968 60205 10176 21063 38542 48502 58010 80001 91445;
0201160080999992000052318004+45750+010530FM-12+146199999V0209999C000019999999N0180001N1+01441-00151999999ADDAA199000091GF105991001001999999001011KA1999M+01801MA1999999085461MD1310041+9999ME1315069REMSYN082AAXX  23184 16008 32968 50000 10144 21015 38546 48506 53004 80001 91745 333 10180;EQDQ01  00002PRCP99
0232160080999992000052400004+45750+010530FM-12+146199999V0201801N001512200019N0060001N1+00921+00611999999ADDAA199000091AY101061AY201061GA1041+009009059GF104991041051008001001001MA1999999085711MD1310091+9999ME1315299MW1101REMSYN088AAXX  24004 16008 31556 41803 10092 20061 38571 48529 53009 71000 84500 92345 333 84630;EQDQ01  00002PRCP99
0202160080999992000052403004+45750+010530FM-12+146199999V0209999C000012200019N0030001N1+00801+00611999999ADDAY111031AY211031GA1041+006009069GF104991041061008001001001MA1999999085621MD1810091+9999ME1315209MW1101REMSYN088AAXX  24034 16008 41530 40000 10080 20061 38562 48520 58009 71011 84600 90245 333 84720;
0263160080999992000052406004+45750+010530FM-12+146199999V0200801N001510075019N0030001N1+00641+00561999999ADDAA199000091AY101061AY201061GA1061+007509059GF106991061051008001001001IA1019KA1120N+00621MA1999999085681MD1310071+9999ME1315279MW1101REMSYN100AAXX  24064 16008 31530 60803 10064 20056 38568 48527 53007 71000 86500 90545 333 20062 30/// 86625;EQDQ01  00002PRCP99
0202160080999992000052409004+45750+010530FM-12+146199999V0202101N003110090019N0040001N1+01201+00591999999ADDAY111031AY211031GA1051+009009029GF105991051021008001001001MA1999999085621MD1810061+9999ME1315229MW1101REMSYN088AAXX  24094 16008 41540 52106 10120 20059 38562 48522 58006 71011 85200 90845 333 85830;
0202160080999992000052412004+45750+010530FM-12+146199999V0202101N003110001519N0040001N1+01581+00381999999ADDAY111061AY211061GA1071+000159089GF107991071021008001001001MA1999999085531MD1610091+9999ME1315149MW1101REMSYN088AAXX  24124 16008 41540 72106 10158 20038 38553 48514 56009 71011 87200 91145 333 87200;
0174160080999992000052415004+45750+010530FM-12+146199999V0201901N005110090019N0150001N1+01541+00321999999ADDGA1071+009009059GF107991071051008001001001MA1999999085481MD1710051+9999ME1315099REMSYN082AAXX  24154 16008 42565 71910 10154 20032 38548 48509 57005 87500 91445 333 87630;
0212160080999992000052418004+45750+010530FM-12+146199999V0201801N004110120019N0150001N1+01461+00471999999ADDGA1061+012009079GF106991061999012501031001KA1120M+01661MA1999999085461MD1610021+9999ME1315069REMSYN088AAXX  24184 16008 42665 61808 10146 20047 38546 48506 56002 86030 91745 333 10166 86340;EQDQ01+000002SCOLCG
0174160080999992000052421004+45750+010530FM-12+146199999V0209999C000012200019N0150001N1+01221+00601999999ADDGA1041+009009029GF104991041011008001001001MA1999999085551MD1310091+9999ME1315149REMSYN082AAXX  24214 16008 42565 40000 10122 20060 38555 48514 53009 84100 92045 333 84830;
0174160080999992000052500004+45750+010530FM-12+146199999V0209999C000012200019N0150001N1+01021+00731999999ADDGA1041+009009029GF104991041011008001001001MA1999999085561MD1110011+9999ME1315159REMSYN082AAXX  25004 16008 42565 40000 10102 20073 38556 48515 51001 84100 92345 333 84830;
0174160080999992000052503004+45750+010530FM-12+146199999V0209999C000012200019N0150001N1+00901+00701999999ADDGA1031+009009029GF103991031011008001001001MA1999999085531MD1810031+9999ME1315129REMSYN082AAXX  25034 16008 42565 30000 10090 20070 38553 48512 58003 83100 90245 333 83830;
0205160080999992000052506004+45750+010530FM-12+146199999V0209999C000012200019N0150001N1+00821+00701999999ADDGA1041+009009029GF104991041011008001001001IA1019KA1120N+00821MA1999999085521MD1610011+9999ME1315119REMSYN094AAXX  25064 16008 42565 40000 10082 20070 38552 48511 56001 84100 90545 333 20082 30/// 84830;
0174160080999992000052509004+45750+010530FM-12+146199999V0202101N003110060019N0150001N1+01241+00831999999ADDGA1061+006009029GF106991061021008001001001MA1999999085491MD1810031+9999ME1315099REMSYN082AAXX  25094 16008 42565 62106 10124 20083 38549 48509 58003 86200 90845 333 86820;
0174160080999992000052512004+45750+010530FM-12+146199999V0202001N005112200019N0200001N1+01581+00541999999ADDGA1041+009009029GF104991041021008001001001MA1999999085451MD1710041+9999ME1315059REMSYN082AAXX  25124 16008 42570 42010 10158 20054 38545 48505 57004 84200 91145 333 84830;
0174160080999992000052515004+45750+010530FM-12+146199999V0201901N005710090019N0200001N1+01621+00431999999ADDGA1081+009009059GF108991081051008001999999MA1999999085391MD1610061+9999ME1314999REMSYN082AAXX  25154 16008 42570 81911 10162 20043 38539 48499 56006 885// 91445 333 88630;
0193160080999992000052518004+45750+010530FM-12+146199999V0201701N003610105019N0200001N1+01481+00701999999ADDGA1071+010509059GF107991071051012501001001KA1120M+01701MA1999999085441MD1310061+9999ME1315059REMSYN088AAXX  25184 16008 42670 71707 10148 20070 38544 48505 53006 87500 91745 333 10170 87635;
0174160080999992000052521004+45750+010530FM-12+146199999V0201501N004612200019N0200001N1+01241+00871999999ADDGA1041+010509059GF104991041051012501001001MA1999999085571MD1210131+9999ME1315179REMSYN082AAXX  25214 16008 42670 41509 10124 20087 38557 48517 52013 84500 92045 333 84635;
0174160080999992000052600004+45750+010530FM-12+146199999V0209999C000010090019N0200001N1+01121+00901999999ADDGA1051+009009029GF105991051011008001001001MA1999999085591MD1110021+9999ME1315199REMSYN082AAXX  26004 16008 42570 50000 10112 20090 38559 48519 51002 85100 92345 333 85830;
0174160080999992000052603004+45750+010530FM-12+146199999V0209999C000010090019N0200001N1+01041+00891999999ADDGA1071+009009059GF107991071051008001001001MA1999999085591MD1410001+9999ME1315199REMSYN082AAXX  26034 16008 42570 70000 10104 20089 38559 48519 54000 87500 90245 333 87630;
0233160080999992000052606004+45750+010530FM-12+146199999V0209999C000010045019N0080001N1+01041+00951999999ADDAY121061AY221061GA1081+004509069GF108991081061004501999999IA1019KA1120N+01041MA1999999085591MD1410001+9999ME1315189MW1101REMSYN100AAXX  26064 16008 41458 80000 10104 20095 38559 48518 54000 71022 886// 90545 333 20104 30/// 88715;
0202160080999992000052609004+45750+010530FM-12+146199999V0201501N005710045019N0080001N1+01061+00981999999ADDAY121031AY221031GA1071+004509029GF107991071021004501001001MA1999999085611MD1310021+9999ME1315209MW1101REMSYN088AAXX  26094 16008 41458 71511 10106 20098 38561 48520 53002 71022 87200 90845 333 87815;
0232160080999992000052612004+45750+010530FM-12+146199999V0201601N009310060019N0070001N1+01241+00951999999ADDAA199000091AY121061AY221061GA1051+006009029GF105991051021008001001001MA1999999085511MD1810101+9999ME1315119MW1101REMSYN088AAXX  26124 16008 31557 51618 10124 20095 38551 48511 58010 71022 85200 91145 333 85820;EQDQ01  00002PRCP99
0202160080999992000052615004+45750+010530FM-12+146199999V0201801N007210075019N0080001N1+01401+00901999999ADDAY121031AY221031GA1071+007509029GF107991071021008001001001MA1999999085501MD1610011+9999ME1315109MW1101REMSYN088AAXX  26154 16008 41558 71814 10140 20090 38550 48510 56001 71022 87200 91445 333 87825;
0221160080999992000052618004+45750+010530FM-12+146199999V0201701N003610090019N0080001N1+01321+00851999999ADDAY121061AY221061GA1051+009009029GF105991051021008001001001KA1120M+01461MA1999999085511MD1310011+9999ME1315119MW1101REMSYN094AAXX  26184 16008 41558 51707 10132 20085 38551 48511 53001 71022 85200 91745 333 10146 85830;
0202160080999992000052621004+45750+010530FM-12+146199999V0201901N004110090019N0080001N1+01201+00891999999ADDAY121031AY221031GA1081+009009059GF108991081051008001999999MA1999999085501MD1810011+9999ME1315109MW1101REMSYN088AAXX  26214 16008 41558 81908 10120 20089 38550 48510 58001 71022 885// 92045 333 88630;
0202160080999992000052700004+45750+010530FM-12+146199999V0201701N004610090019N0080001N1+01141+00971999999ADDAY121061AY221061GA1081+009009059GF108991081051008001999999MA1999999085501MD1410001+9999ME1315109MW1101REMSYN088AAXX  27004 16008 41558 81709 10114 20097 38550 48510 54000 71022 885// 92345 333 88630;
0233160080999992000052706004+45750+010530FM-12+146199999V0201701N005110060019N0070001N1+00981+00931999999ADDAY121061AY221061GA1071+006009059GF107991071051008001001001IA1019KA1120N+00981MA1999999085401MD1610021+9999ME1314999MW1101REMSYN100AAXX  27064 16008 41557 71710 10098 20093 38540 48499 56002 71022 87500 90545 333 20098 30/// 87620;
0202160080999992000052709004+45750+010530FM-12+146199999V0201601N007210060019N0080001N1+01161+00851999999ADDAY121031AY221031GA1061+006009029GF106991061021008001001001MA1999999085321MD1810081+9999ME1314929MW1101REMSYN088AAXX  27094 16008 41558 61614 10116 20085 38532 48492 58008 71022 86200 90845 333 86820;
0202160080999992000052712004+45750+010530FM-12+146199999V0202001N008710090019N0070001N1+01461+00761999999ADDAY121061AY221061GA1061+009009029GF106991061021008001001001MA1999999085191MD1710131+9999ME1314809MW1101REMSYN088AAXX  27124 16008 41557 62017 10146 20076 38519 48480 57013 71022 86200 91145 333 86830;
0174160080999992000052715004+45750+010530FM-12+146199999V0202001N005110090019N0120001N1+01401+00711999999ADDGA1071+009009059GF107991071051008001001001MA1999999085201MD1310011+9999ME1314809REMSYN082AAXX  27154 16008 42562 72010 10140 20071 38520 48480 53001 87500 91445 333 87630;
0193160080999992000052718004+45750+010530FM-12+146199999V0201701N004610090019N0120001N1+01401+00631999999ADDGA1061+009009059GF106991061051008001001001KA1120M+01481MA1999999085191MD1810011+9999ME1314799REMSYN088AAXX  27184 16008 42562 61709 10140 20063 38519 48479 58001 86500 91745 333 10148 86630;
0202160080999992000052721004+45750+010530FM-12+146199999V0209999C000010045019N0120001N1+00821+00791999999ADDAY161031AY221031GA1081+004509069GF108991081071004501999999MA1999999085311MD1310121+9999ME1314919MW1601REMSYN088AAXX  27214 16008 41462 80000 10082 20079 38531 48491 53012 76062 887// 92045 333 88715;
0202160080999992000052800004+45750+010530FM-12+146199999V0201801N004110060019N0130001N1+00841+00841999999ADDAY161061AY221061GA1081+006009069GF108991081061008001999999MA1999999085311MD1010001+9999ME1314919MW1211REMSYN088AAXX  28004 16008 41563 81808 10084 20084 38531 48491 50000 72162 886// 92345 333 88720;
0174160080999992000052803004+45750+010530FM-12+146199999V0201801N004110060019N0130001N1+00861+00861999999ADDGA1081+006009069GF108991081061008001999999MA1999999085231MD1710081+9999ME1314839REMSYN082AAXX  28034 16008 42563 81808 10086 20086 38523 48483 57008 886// 90245 333 88720;
0239160080999992000052806004+45750+010530FM-12+146199999V0201701N00361000601CN0060001N1+00841+00841999999ADDAY121061AY221061GA1041+000609089GF108991081061000751999999IA1119KA1120N+00801MA1999999085191MD1610041+9999ME1314799MW1101REMSYN106AAXX  28064 16008 41156 81707 10084 20084 38519 48479 56004 71022 886// 90545 333 20080 32/// 84802 87710;
0202160080999992000052809004+45750+010530FM-12+146199999V0202101N009310015019N0030001N1+00861+00861999999ADDAY121031AY221031GA1081+001509069GF108991081061001501999999MA1999999085171MD1810011+9999ME1314789MW1101REMSYN088AAXX  28094 16008 41230 82118 10086 20086 38517 48478 58001 71022 886// 90845 333 88705;
0202160080999992000052812004+45750+010530FM-12+146199999V0201701N005710045019N0050001N1+00981+00881999999ADDAY121061AY221061GA1081+004509059GF108991081051004501999999MA1999999085101MD1710071+9999ME1314719MW1101REMSYN088AAXX  28124 16008 41450 81711 10098 20088 38510 48471 57007 71022 885// 91145 333 88615;
0174160080999992000052815004+45750+010530FM-12+146199999V0201701N003610060019N0130001N1+01141+00831999999ADDGA1081+006009059GF108991081051008001999999MA1999999084991MD1710111+9999ME1314609REMSYN082AAXX  28154 16008 42563 81707 10114 20083 38499 48460 57011 885// 91445 333 88620;
0193160080999992000052818004+45750+010530FM-12+146199999V0201901N004110090019N0150001N1+01101+00741999999ADDGA1081+009009059GF108991081051008001999999KA1120M+01141MA1999999084951MD1610041+9999ME1314569REMSYN088AAXX  28184 16008 42565 81908 10110 20074 38495 48456 56004 885// 91745 333 10114 88630;
0174160080999992000052821004+45750+010530FM-12+146199999V0209999C000010090019N0150001N1+00941+00651999999ADDGA1081+009009059GF108991081051008001999999MA1999999084961MD1310011+9999ME1314579REMSYN082AAXX  28214 16008 42565 80000 10094 20065 38496 48457 53001 885// 92045 333 88630;
0174160080999992000052900004+45750+010530FM-12+146199999V0209999C000010090019N0150001N1+00901+00851999999ADDGA1081+009009059GF108991081051008001999999MA1999999084901MD1810061+9999ME1314529REMSYN082AAXX  29004 16008 42565 80000 10090 20085 38490 48452 58006 885// 92345 333 88630;
0205160080999992000052906004+45750+010530FM-12+146199999V0200601N004112200019N0200001N1+00641+00351999999ADDGA1031+009009029GF103991031011008001001001IA1099KA1120N+00641MA1999999084831MD1610011+9999ME1314449REMSYN094AAXX  29064 16008 42570 30608 10064 20035 38483 48444 56001 83100 90545 333 20064 31/// 83830;
0174160080999992000052909004+45750+010530FM-12+146199999V0200501N004112200019N0200001N1+00801+00401999999ADDGA1041+009009029GF104991041011008001001001MA1999999084811MD1810011+9999ME1314439REMSYN082AAXX  29094 16008 42570 40508 10080 20040 38481 48443 58001 84100 90845 333 84830;
0193160080999992000052912004+45750+010530FM-12+146199999V0200301N008212200019N0250001N1+01481+00271999999ADDGA1041+007509029GF104991041011008001001001MA1999999084821MD1310011+9999ME1314439REMSYN082AAXX  29124 16008 42575 40316 10148 20027 38482 48443 53000 84100 91145 333 84825;EQDQ01+000002APC3  
0174160080999992000052915004+45750+010530FM-12+146199999V0200501N006212200019N0300001N1+01441-00061999999ADDGA1031+007509029GF103991031011008001001001MA1999999084921MD1110111+9999ME1314539REMSYN082AAXX  29154 16008 42580 30512 10144 21006 38492 48453 51011 83100 91445 333 83825;
0193160080999992000052918004+45750+010530FM-12+146199999V0200501N006712200019N0300001N1+01081-00341999999ADDGA1021+007509029GF105991021011008001001011KA1120M+01501MA1999999085111MD1310181+9999ME1314719REMSYN088AAXX  29184 16008 42580 50513 10108 21034 38511 48471 53018 82101 91745 333 10150 82825;
0174160080999992000052921004+45750+010530FM-12+146199999V0200501N003612200019N0250001N1+00781-00311999999ADDGA1021+007509029GF102991021011008001001001MA1999999085321MD1210221+9999ME1314929REMSYN082AAXX  29214 16008 42575 20507 10078 21031 38532 48492 52022 82100 92045 333 82825;
0158160080999992000053000004+45750+010530FM-12+146199999V0200301N003112200019N0200001N1+00601-00061999999ADDGA1001+999999999GF100991001001999999001001MA1999999085401MD1110071+9999ME1314999REMSYN066AAXX  30004 16008 42970 00306 10060 21006 38540 48499 51007 92345;
0158160080999992000053003004+45750+010530FM-12+146199999V0200401N003612200019N0180001N1+00581+00101999999ADDGA1001+999999999GF100991001001999999001001MA1999999085401MD1110011+9999ME1314999REMSYN066AAXX  30034 16008 42968 00407 10058 20010 38540 48499 51001 90245;
0193160080999992000053006004+45750+010530FM-12+146199999V0200401N003112200019N0150001N1+00441+00191999999ADDGA1001+999999999GF100991001001999999001001IA1019KA1120N+00441MA1999999085411MD1310011+9999ME1315009REMSYN082AAXX  30064 16008 42965 00406 10044 20019 38541 48500 53001 90545 333 20044 30///;
0180160080999992000053009004+45750+010530FM-12+146199999V0200501N005710120019N0200001N1+00801+00041999999ADDGA1031+007509089GF107991071081008001001001MA1999999085351MD1810051+9999ME1314959REMSYN088AAXX  30094 16008 42570 70511 10080 20004 38535 48495 58005 87800 90845 333 83825 86640;
0180160080999992000053012004+45750+010530FM-12+146199999V0200301N00411036001CN0200001N1+01161-00011999999ADDGA1031+007509089GF107991031021008001011001MA1999999085301MD1610061+9999ME1314909REMSYN088AAXX  30124 16008 42570 70308 10116 21001 38530 48490 56006 83210 91145 333 83825 86456;
0180160080999992000053015004+45750+010530FM-12+146199999V0202101N00571036001CN0130001N1+01101+00211999999ADDGA1041+006009089GF108991041021008001021999MA1999999085231MD1610071+9999ME1314839REMSYN088AAXX  30154 16008 42563 82111 10110 20021 38523 48483 56007 8422/ 91445 333 84820 86456;
0227160080999992000053018004+45750+010530FM-12+146199999V0201701N005710090019N0050001N1+00881+00731999999ADDAY161061AY221061GA1041+003009089GF108991081081004501999999KA1120M+01241MA1999999085201MD1610021+9999ME1314809MW1101REMSYN100AAXX  30184 16008 41450 81711 10088 20073 38520 48480 56002 71062 888// 91745 333 10124 84810 86630;
0208160080999992000053021004+45750+010530FM-12+146199999V0201601N00511006001CN0015001N1+00701+00701999999ADDAY121031AY221031GA1041+001209089GF108991081081001501999999MA1999999085201MD1410001+9999ME1314809MW1101REMSYN094AAXX  30214 16008 41215 81610 10070 20070 38520 48480 54000 71022 888// 92045 333 84804 86625;
0208160080999992000053100004+45750+010530FM-12+146199999V0201801N00511006001CN0013001N1+00641+00601999999ADDAY121061AY221061GA1041+001809089GF108991081081001501999999MA1999999085201MD1410001+9999ME1314809MW1101REMSYN094AAXX  31004 16008 41213 81810 10064 20060 38520 48480 54000 71022 888// 92345 333 84806 86630;
0208160080999992000053103004+45750+010530FM-12+146199999V0201701N00411006001CN0012001N1+00621+00591999999ADDAY121031AY221031GA1041+001209089GF108991081081001501999999MA1999999085101MD1810101+9999ME1314709MW1101REMSYN094AAXX  31034 16008 41212 81708 10062 20059 38510 48470 58010 71022 888// 90245 333 84804 86625;
0239160080999992000053106004+45750+010530FM-12+146199999V0209999C000010060019N0011001N1+00601+00561999999ADDAY161061AY221061GA1041+000909089GF108991081081000751999999IA1119KA1120N+00581MA1999999085061MD1610041+9999ME1314679MW1601REMSYN106AAXX  31064 16008 41111 80000 10060 20056 38506 48467 56004 76062 888// 90545 333 20058 32/// 84803 86620;
0208160080999992000053109004+45750+010530FM-12+146199999V0200301N00571006001CN0025001N1+00921+00741999999ADDAY161031AY221031GA1041+001209089GF108991081081001501999999MA1999999085091MD1310031+9999ME1314709MW1101REMSYN094AAXX  31094 16008 41225 80311 10092 20074 38509 48470 53003 71062 888// 90845 333 84804 86635;
0208160080999992000053112004+45750+010530FM-12+146199999V0200401N00621036001CN0050001N1+01081+00751999999ADDAY161061AY221061GA1041+001209089GF107991041021001501021001MA1999999085301MD1310201+9999ME1314909MW1101REMSYN094AAXX  31124 16008 41250 70412 10108 20075 38530 48490 53020 71062 84220 91145 333 84804 85456;
0180160080999992000053115004+45750+010530FM-12+146199999V0200301N00721004201CN0110001N1+01401+00481999999ADDGA1031+003009089GF106991061021004501001001MA1999999085481MD1210191+9999ME1315099REMSYN088AAXX  31154 16008 42461 60314 10140 20048 38548 48509 52019 86200 91445 333 83810 84820;
0193160080999992000053118004+45750+010530FM-12+146199999V0200501N004110060019N0200001N1+01181+00241999999ADDGA1061+006009029GF106991061021008001001001KA1120M+01421MA1999999085621MD1210141+9999ME1315229REMSYN088AAXX  31184 16008 42570 60508 10118 20024 38562 48522 52014 86200 91745 333 10142 86820;
0174160080999992000053121004+45750+010530FM-12+146199999V0200401N003612200019N0200001N1+00841+00321999999ADDGA1031+006009029GF103991031011008001001001MA1999999085881MD1210261+9999ME1315459REMSYN082AAXX  31214 16008 42570 30407 10084 20032 38588 48545 52026 83100 92045 333 83820;
0158160080999992000060100004+45750+010530FM-12+146199999V0209999C000012200019N0160001N1+00721+00461999999ADDGA1001+999999999GF100991001001999999001001MA1999999086021MD1210141+9999ME1315589REMSYN066AAXX  01004 16008 42966 00000 10072 20046 38602 48558 52014 92345;
0158160080999992000060103004+45750+010530FM-12+146199999V0209999C000012200019N0140001N1+00501+00361999999ADDGA1001+999999999GF100991001001999999001001MA1999999086071MD1110051+9999ME1315629REMSYN066AAXX  01034 16008 42964 00000 10050 20036 38607 48562 51005 90245;
0183160080999992000060106004+45750+010530FM-12+146199999V0200501N004112200019N0200001N1+00441+00431999999ADDGF104991001001999999001021IA1019KA1120N+00421MA1999999086071MD1110011+9999ME1315639REMSYN088AAXX  01064 16008 42970 40508 10044 20043 38607 48563 51001 80002 90545 333 20042 30///;
0158160080999992000060109004+45750+010530FM-12+146199999V0200401N004112200019N0250001N1+00861+00101999999ADDGA1001+999999999GF100991001001999999001001MA1999999086071MD1410001+9999ME1315649REMSYN066AAXX  01094 16008 42975 00408 10086 20010 38607 48564 54000 90845;
0158160080999992000060112004+45750+010530FM-12+146199999V0202301N004112200019N0350001N1+01701-00181999999ADDGA1001+999999999GF100991001001999999001001MA1999999086021MD1810051+9999ME1315629REMSYN066AAXX  01124 16008 42981 02308 10170 21018 38602 48562 58005 91145;
0158160080999992000060115004+45750+010530FM-12+146199999V0202301N004612200019N0350001N1+02001-00491999999ADDGA1001+999999999GF100991001001999999001001MA1999999085961MD1610061+9999ME1315579REMSYN066AAXX  01154 16008 42981 02309 10200 21049 38596 48557 56006 91445;
0181160080999992000060118004+45750+010530FM-12+146199999V0203601N002612200019N0350001N1+01921-00041999999ADDGA1001+999999999GF100991001001999999001001KA1999M+02021MA1999999085981MD1310021+9999ME1315599REMSYN076AAXX  01184 16008 42981 03605 10192 21004 38598 48559 53002 91745 333 10202;
0158160080999992000060121004+45750+010530FM-12+146199999V0209999C000012200019N0300001N1+01201+00731999999ADDGA1001+999999999GF100991001001999999001001MA1999999086141MD1210161+9999ME1315729REMSYN066AAXX  01214 16008 42980 00000 10120 20073 38614 48572 52016 92045;
0158160080999992000060200004+45750+010530FM-12+146199999V0209999C000012200019N0200001N1+00981+00681999999ADDGA1001+999999999GF100991001001999999001001MA1999999086221MD1110081+9999ME1315799REMSYN066AAXX  02004 16008 42970 00000 10098 20068 38622 48579 51008 92345;
0158160080999992000060203004+45750+010530FM-12+146199999V0209999C000012200019N0150001N1+00801+00641999999ADDGA1001+999999999GF100991001001999999001001MA1999999086231MD1010011+9999ME1315799REMSYN066AAXX  02034 16008 42965 00000 10080 20064 38623 48579 50001 90245;
0181160080999992000060206004+45750+010530FM-12+146199999V0209999C000012200019N0200001N1+00781+00611999999ADDGA1001+999999999GF100991001001999999001001KA1999N+00741MA1999999086211MD1610021+9999ME1315779REMSYN076AAXX  02064 16008 42970 00000 10078 20061 38621 48577 56002 90545 333 20074;
0158160080999992000060209004+45750+010530FM-12+146199999V0200501N003612200019N0200001N1+01121+00741999999ADDGA1001+999999999GF100991001001999999001001MA1999999086181MD1810031+9999ME1315759REMSYN066AAXX  02094 16008 42970 00507 10112 20074 38618 48575 58003 90845;
0174160080999992000060212004+45750+010530FM-12+146199999V0201801N005112200019N0250001N1+01821+00571999999ADDGA1041+006009029GF104991041011008001001001MA1999999086051MD1610131+9999ME1315659REMSYN082AAXX  02124 16008 42575 41810 10182 20057 38605 48565 56013 84100 91145 333 84820;
0174160080999992000060215004+45750+010530FM-12+146199999V0201801N008212200019N0250001N1+01921+00701999999ADDGA1021+006009029GF102991021011008001001001MA1999999085991MD1810061+9999ME1315609REMSYN082AAXX  02154 16008 42575 21816 10192 20070 38599 48560 58006 82100 91445 333 82820;
0227160080999992000060218004+45750+010530FM-12+146199999V0201601N00461004201CN0150001N1+01901+00741999999ADDAY111061AY211061GA1021+004509089GF106991061021004501001001KA1120M+01921MA1999999085961MD1610031+9999ME1315579MW1801REMSYN100AAXX  02184 16008 41465 61609 10190 20074 38596 48557 56003 78011 86200 91745 333 10192 82815 85820;
0208160080999992000060221004+45750+010530FM-12+146199999V0209999C00001004201CN0080001N1+01541+01361999999ADDAY181031AY261031GA1041+003009089GF108991081021004501999999MA1999999086121MD1310161+9999ME1315719MW1101REMSYN094AAXX  02214 16008 41458 80000 10154 20136 38612 48571 53016 71086 882// 92045 333 84810 86820;
0202160080999992000060300004+45750+010530FM-12+146199999V0209999C000010090019N0040001N1+01321+01321999999ADDAY181061AY261061GA1081+009009059GF108991081041008001999999MA1999999086201MD1110081+9999ME1315789MW1101REMSYN088AAXX  03004 16008 41540 80000 10132 20132 38620 48578 51008 71086 884// 92345 333 88630;
0193160080999992000060306004+45750+010530FM-12+146199999V0209999C000012200019N0110001N1+00981+00921999999ADDGA1001+999999999GF100991001001999999001001IA1019KA1120N+00981MA1999999086101MD1610011+9999ME1315679REMSYN082AAXX  03064 16008 42961 00000 10098 20092 38610 48567 56001 90545 333 20098 30///;
0158160080999992000060309004+45750+010530FM-12+146199999V0209999C000012200019N0250001N1+01281+00891999999ADDGA1001+999999999GF100991001001999999001001MA1999999086001MD1810101+9999ME1315589REMSYN066AAXX  03094 16008 42975 00000 10128 20089 38600 48558 58010 90845;
0174160080999992000060312004+45750+010530FM-12+146199999V0201901N007210090019N0250001N1+01941+00991999999ADDGA1061+009009029GF106991061021008001001001MA1999999085901MD1710101+9999ME1315519REMSYN082AAXX  03124 16008 42575 61914 10194 20099 38590 48551 57010 86200 91145 333 86830;
0174160080999992000060315004+45750+010530FM-12+146199999V0201701N006710090019N0150001N1+02001+00471999999ADDGA1071+009009029GF107991071021008001001001MA1999999085811MD1710091+9999ME1315429REMSYN082AAXX  03154 16008 42565 71713 10200 20047 38581 48542 57009 87200 91445 333 87830;
0193160080999992000060318004+45750+010530FM-12+146199999V0201801N003110090019N0100001N1+01901+00701999999ADDGA1071+009009029GF107991071021008001001001KA1120M+02061MA1999999085921MD1310111+9999ME1315539REMSYN088AAXX  03184 16008 42560 71806 10190 20070 38592 48553 53011 87200 91745 333 10206 87830;
0174160080999992000060321004+45750+010530FM-12+146199999V0209999C000010090019N0100001N1+01301+01221999999ADDGA1071+009009029GF107991071021008001001001MA1999999086031MD1210111+9999ME1315629REMSYN082AAXX  03214 16008 42560 70000 10130 20122 38603 48562 52011 87200 92045 333 87830;
0174160080999992000060400004+45750+010530FM-12+146199999V0209999C000010090019N0100001N1+01201+01121999999ADDGA1071+009009029GF107991071021008001001001MA1999999086021MD1810011+9999ME1315609REMSYN082AAXX  04004 16008 42560 70000 10120 20112 38602 48560 58001 87200 92345 333 87830;
0205160080999992000060406004+45750+010530FM-12+146199999V0209999C000010090019N0150001N1+00901+00901999999ADDGA1061+009009059GF106991061051008001001001IA1099KA1120N+00801MA1999999086001MD1410001+9999ME1315579REMSYN094AAXX  04064 16008 42565 60000 10090 20090 38600 48557 54000 86500 90545 333 20080 31/// 86630;
0174160080999992000060409004+45750+010530FM-12+146199999V0203501N003110090019N0150001N1+01101+01091999999ADDGA1071+009009029GF107991071021008001001001MA1999999085971MD1810021+9999ME1315569REMSYN082AAXX  04094 16008 42565 73506 10110 20109 38597 48556 58002 87200 90845 333 87830;
0174160080999992000060412004+45750+010530FM-12+146199999V0200601N005110090019N0150001N1+01701+00981999999ADDGA1071+009009029GF107991071021008001001001MA1999999085901MD1610071+9999ME1315519REMSYN082AAXX  04124 16008 42565 70610 10170 20098 38590 48551 56007 87200 91145 333 87830;
0193160080999992000060418004+45750+010530FM-12+146199999V0201901N004110090019N0150001N1+01901+00681999999ADDGA1071+009009029GF107991071021008001001001KA1120M+02021MA1999999085901MD1410001+9999ME1315519REMSYN088AAXX  04184 16008 42565 71908 10190 20068 38590 48551 54000 87200 91745 333 10202 87830;
0174160080999992000060421004+45750+010530FM-12+146199999V0209999C000010090019N0150001N1+01441+00851999999ADDGA1051+009009029GF105991051021008001001001MA1999999085991MD1310011+9999ME1315599REMSYN082AAXX  04214 16008 42565 50000 10144 20085 38599 48559 53001 85200 92045 333 85830;
0158160080999992000060500004+45750+010530FM-12+146199999V0209999C000012200019N0150001N1+01201+00951999999ADDGA1001+999999999GF100991001001999999001001MA1999999086001MD1110011+9999ME1315599REMSYN066AAXX  05004 16008 42965 00000 10120 20095 38600 48559 51001 92345;
0158160080999992000060503004+45750+010530FM-12+146199999V0209999C000012200019N0150001N1+01001+00931999999ADDGA1001+999999999GF100991001001999999001001MA1999999085941MD1810061+9999ME1315529REMSYN066AAXX  05034 16008 42965 00000 10100 20093 38594 48552 58006 90245;
0193160080999992000060506004+45750+010530FM-12+146199999V0209999C000012200019N0200001N1+00881+00791999999ADDGA1001+999999999GF100991001001999999001001IA1099KA1120N+00881MA1999999085881MD1610061+9999ME1315469REMSYN082AAXX  05064 16008 42970 00000 10088 20079 38588 48546 56006 90545 333 20088 31///;
0174160080999992000060509004+45750+010530FM-12+146199999V0201901N009310090019N0150001N1+01201+00761999999ADDGA1061+009009059GF106991061051008001001001MA1999999085781MD1810101+9999ME1315379REMSYN082AAXX  05094 16008 42565 61918 10120 20076 38578 48537 58010 86500 90845 333 86630;
0174160080999992000060512004+45750+010530FM-12+146199999V0201801N007710090019N0200001N1+01701+00651999999ADDGA1061+009009059GF106991061051008001001001MA1999999085711MD1710071+9999ME1315329REMSYN082AAXX  05124 16008 42570 61815 10170 20065 38571 48532 57007 86500 91145 333 86630;
0174160080999992000060515004+45750+010530FM-12+146199999V0201801N007710090019N0200001N1+01801+00521999999ADDGA1061+009009059GF106991061051008001001001MA1999999085601MD1710111+9999ME1315219REMSYN082AAXX  05154 16008 42570 61815 10180 20052 38560 48521 57011 86500 91445 333 86630;
0193160080999992000060518004+45750+010530FM-12+146199999V0202101N007210090019N0200001N1+01841+00761999999ADDGA1061+009009059GF106991061051008001001001KA1120M+01921MA1999999085471MD1710131+9999ME1315089REMSYN088AAXX  05184 16008 42570 62114 10184 20076 38547 48508 57013 86500 91745 333 10192 86630;
0174160080999992000060521004+45750+010530FM-12+146199999V0209999C000010090019N0100001N1+01401+00901999999ADDGA1061+009009059GF106991061051008001001001MA1999999085511MD1310041+9999ME1315119REMSYN082AAXX  05214 16008 42560 60000 10140 20090 38551 48511 53004 86500 92045 333 86630;
0174160080999992000060603004+45750+010530FM-12+146199999V0209999C000010090019N0100001N1+01021+00781999999ADDGA1061+009009059GF106991061051008001001001MA1999999085581MD1810021+9999ME1315189REMSYN082AAXX  06034 16008 42560 60000 10102 20078 38558 48518 58002 86500 90245 333 86630;
0205160080999992000060606004+45750+010530FM-12+146199999V0209999C000010090019N0100001N1+01101+00741999999ADDGA1081+009009069GF108991081061008001999999IA1099KA1120N+01001MA1999999085501MD1610081+9999ME1315109REMSYN094AAXX  06064 16008 42560 80000 10110 20074 38550 48510 56008 886// 90545 333 20100 31/// 88730;
0174160080999992000060609004+45750+010530FM-12+146199999V0209999C000010075019N0100001N1+01301+00971999999ADDGA1081+007509069GF108991081061008001999999MA1999999085501MD1410001+9999ME1315109REMSYN082AAXX  06094 16008 42560 80000 10130 20097 38550 48510 54000 886// 90845 333 88725;
0174160080999992000060612004+45750+010530FM-12+146199999V0202101N003110075019N0100001N1+01401+01061999999ADDGA1081+007509069GF108991081061008001999999MA1999999085501MD1410001+9999ME1315109REMSYN082AAXX  06124 16008 42560 82106 10140 20106 38550 48510 54000 886// 91145 333 88725;
0174160080999992000060615004+45750+010530FM-12+146199999V0201801N006210090019N0150001N1+01441+00791999999ADDGA1061+009009029GF106991061021008001001001MA1999999085411MD1810091+9999ME1315029REMSYN082AAXX  06154 16008 42565 61812 10144 20079 38541 48502 58009 86200 91445 333 86830;
0193160080999992000060618004+45750+010530FM-12+146199999V0200901N006210090019N0100001N1+01301+00761999999ADDGA1071+009009029GF107991071021008001001001KA1120M+01521MA1999999085391MD1510021+9999ME1315009REMSYN088AAXX  06184 16008 42560 70912 10130 20076 38539 48500 55002 87200 91745 333 10152 87830;
0174160080999992000060621004+45750+010530FM-12+146199999V0209999C000010060019N0100001N1+00841+00641999999ADDGA1081+006009069GF108991081061008001999999MA1999999085581MD1210191+9999ME1315179REMSYN082AAXX  06214 16008 42560 80000 10084 20064 38558 48517 52019 886// 92045 333 88720;
0158160080999992000060700004+45750+010530FM-12+146199999V0200301N005112200019N0150001N1+00781+00371999999ADDGA1001+999999999GF100991001001999999001001MA1999999085591MD1110011+9999ME1315189REMSYN066AAXX  07004 16008 42965 00310 10078 20037 38559 48518 51001 92345;
0205160080999992000060706004+45750+010530FM-12+146199999V0200601N007210090019N0150001N1+00701+00281999999ADDGA1061+009009059GF106991061051008001001001IA1019KA1120N+00601MA1999999085601MD1310011+9999ME1315199REMSYN094AAXX  07064 16008 42565 60614 10070 20028 38560 48519 53001 86500 90545 333 20060 30/// 86630;
0174160080999992000060709004+45750+010530FM-12+146199999V0200601N007210090019N0200001N1+01001-00181999999ADDGA1061+009009029GF106991061021008001001001MA1999999085731MD1110131+9999ME1315329REMSYN082AAXX  07094 16008 42570 60614 10100 21018 38573 48532 51013 86200 90845 333 86830;
0158160080999992000060712004+45750+010530FM-12+146199999V0200601N006212200019N0300001N1+01521-00301999999ADDGA1001+999999999GF100991001001999999001001MA1999999085711MD1810031+9999ME1315319REMSYN066AAXX  07124 16008 42980 00612 10152 21030 38571 48531 58003 91145;
0158160080999992000060715004+45750+010530FM-12+146199999V0200301N007712200019N0300001N1+01721-00401999999ADDGA1001+999999999GF100991001001999999001001MA1999999085631MD1610071+9999ME1315249REMSYN066AAXX  07154 16008 42980 00315 10172 21040 38563 48524 56007 91445;
0193160080999992000060718004+45750+010530FM-12+146199999V0200401N006710900019N0250001N1+01521-00261999999ADDGA1021+009009029GF106991021011008001001081KA1120M+01741MA1999999085651MD1310021+9999ME1315259REMSYN088AAXX  07184 16008 42575 60413 10152 21026 38565 48525 53002 82108 91745 333 10174 82830;
0158160080999992000060721004+45750+010530FM-12+146199999V0200601N007212200019N0200001N1+00981-00111999999ADDGA1001+999999999GF100991001001999999001001MA1999999085801MD1110151+9999ME1315389REMSYN066AAXX  07214 16008 42970 00614 10098 21011 38580 48538 51015 92045;
0110160080999992000060800004+45750+010530FM-12+146199999V02099999999999999999N0200001N1+99999+99999999999ADDMA1999999085881MD1310081+9999ME1315459REMSYN060AAXX  08004 16008 42970 ///// 20019 38588 48545 53008 92345;
0158160080999992000060803004+45750+010530FM-12+146199999V0209999C000012200019N0200001N1+00501+00151999999ADDGA1001+999999999GF100991001001999999001001MA1999999085871MD1810011+9999ME1315449REMSYN066AAXX  08034 16008 42970 00000 10050 20015 38587 48544 58001 90245;
0205160080999992000060806004+45750+010530FM-12+146199999V0209999C000010090019N0200001N1+00441+00151999999ADDGA1061+009009059GF106991061051008001001001IA1019KA1120N+00401MA1999999085901MD1310031+9999ME1315469REMSYN094AAXX  08064 16008 42570 60000 10044 20015 38590 48546 53003 86500 90545 333 20040 30/// 86630;
0180160080999992000060809004+45750+010530FM-12+146199999V0201801N00771012001CN0180001N1+01101+00181999999ADDGA1031+007509089GF107991071081008001001001MA1999999085921MD1210021+9999ME1315509REMSYN088AAXX  08094 16008 42568 71815 10110 20018 38592 48550 52002 87800 90845 333 83825 85630;
0174160080999992000060812004+45750+010530FM-12+146199999V0202101N005710090019N0300001N1+01081+00231999999ADDGA1061+009009059GF106991061051008001001001MA1999999085901MD1810021+9999ME1315489REMSYN082AAXX  08124 16008 42580 62111 10108 20023 38590 48548 58002 86500 91145 333 86630;
0174160080999992000060815004+45750+010530FM-12+146199999V0202101N006210090019N0250001N1+01461+00511999999ADDGA1061+009009059GF106991061051008001001001MA1999999085831MD1710071+9999ME1315429REMSYN082AAXX  08154 16008 42575 62112 10146 20051 38583 48542 57007 86500 91445 333 86630;
0193160080999992000060818004+45750+010530FM-12+146199999V0202001N005710090019N0250001N1+01421+00711999999ADDGA1061+009009059GF106991061051008001001001KA1120M+01481MA1999999085811MD1610011+9999ME1315419REMSYN088AAXX  08184 16008 42575 62011 10142 20071 38581 48541 56001 86500 91745 333 10148 86630;
0174160080999992000060821004+45750+010530FM-12+146199999V0201601N002612200019N0200001N1+01201+00691999999ADDGA1041+009009059GF104991041051008001001001MA1999999085911MD1310101+9999ME1315509REMSYN082AAXX  08214 16008 42570 41605 10120 20069 38591 48550 53010 84500 92045 333 84630;
0174160080999992000060900004+45750+010530FM-12+146199999V0209999C000012200019N0200001N1+01101+00681999999ADDGA1041+009009059GF104991041051008001001001MA1999999085961MD1110061+9999ME1315559REMSYN082AAXX  09004 16008 42570 40000 10110 20068 38596 48555 51006 84500 92345 333 84630;
0174160080999992000060903004+45750+010530FM-12+146199999V0202001N002112200019N0200001N1+01101+00761999999ADDGA1041+009009059GF104991041051008001001001MA1999999085961MD1410001+9999ME1315559REMSYN082AAXX  09034 16008 42570 42004 10110 20076 38596 48555 54000 84500 90245 333 84630;
0205160080999992000060906004+45750+010530FM-12+146199999V0209999C000012200019N0200001N1+00801+00611999999ADDGA1031+006009029GF103991031021008001001001IA1019KA1120N+00801MA1999999085961MD1410001+9999ME1315549REMSYN094AAXX  09064 16008 42570 30000 10080 20061 38596 48554 54000 83200 90545 333 20080 30/// 83820;
0174160080999992000060909004+45750+010530FM-12+146199999V0201901N003612200019N0250001N1+01401+00621999999ADDGA1031+006009029GF103991031021008001001001MA1999999085881MD1810091+9999ME1315479REMSYN082AAXX  09094 16008 42575 31907 10140 20062 38588 48547 58009 83200 90845 333 83820;
0204160080999992000060912004+45750+010530FM-12+146199999V0202001N005712200019N0250001N1+01701+00331999999ADDAA199000091GA1031+006009029GF103991031021008001001001MA1999999085811MD1710071+9999ME1315419REMSYN082AAXX  09124 16008 32575 32011 10170 20033 38581 48541 57007 83200 91145 333 83820;EQDQ01  00002PRCP99
0174160080999992000060915004+45750+010530FM-12+146199999V0202001N005712200019N0250001N1+01901+00331999999ADDGA1031+006009029GF103991031021008001001001MA1999999085701MD1710111+9999ME1315319REMSYN082AAXX  09154 16008 42575 32011 10190 20033 38570 48531 57011 83200 91445 333 83820;
0181160080999992000060918004+45750+010530FM-12+146199999V0202101N002612200019N0250001N1+01881+00081999999ADDGA1001+999999999GF100991001001999999001001KA1999M+01971MA1999999085621MD1710081+9999ME1315239REMSYN076AAXX  09184 16008 42975 02105 10188 20008 38562 48523 57008 91745 333 10197;
0174160080999992000060921004+45750+010530FM-12+146199999V0209999C000012200019N0200001N1+01401+00371999999ADDGA1041+006009029GF104991041021008001001001MA1999999085701MD1310081+9999ME1315299REMSYN082AAXX  09214 16008 42570 40000 10140 20037 38570 48529 53008 84200 92045 333 84820;
0174160080999992000061000004+45750+010530FM-12+146199999V0209999C000012200019N0200001N1+01201+00791999999ADDGA1041+006009029GF104991041021008001001001MA1999999085711MD1110021+9999ME1315319REMSYN082AAXX  10004 16008 42570 40000 10120 20079 38571 48531 51002 84200 92345 333 84820;
0174160080999992000061003004+45750+010530FM-12+146199999V0209999C000012200019N0200001N1+01041+00741999999ADDGA1041+006009029GF104991041021008001001001MA1999999085711MD1410001+9999ME1315309REMSYN082AAXX  10034 16008 42570 40000 10104 20074 38571 48530 54000 84200 90245 333 84820;
0205160080999992000061006004+45750+010530FM-12+146199999V0209999C000012200019N0200001N1+01101+00871999999ADDGA1041+004509029GF104991041021004501001001IA1019KA1120N+01001MA1999999085711MD1410001+9999ME1315309REMSYN094AAXX  10064 16008 42470 40000 10110 20087 38571 48530 54000 84200 90545 333 20100 30/// 84815;
0174160080999992000061009004+45750+010530FM-12+146199999V0202001N004112200019N0200001N1+01501+00731999999ADDGA1041+004509029GF104991041021004501001001MA1999999085711MD1410001+9999ME1315319REMSYN082AAXX  10094 16008 42470 42008 10150 20073 38571 48531 54000 84200 90845 333 84815;
0174160080999992000061012004+45750+010530FM-12+146199999V0202001N006712200019N0200001N1+01841+00621999999ADDGA1041+004509029GF104991041021004501001001MA1999999085651MD1810061+9999ME1315269REMSYN082AAXX  10124 16008 42470 42013 10184 20062 38565 48526 58006 84200 91145 333 84815;
0174160080999992000061015004+45750+010530FM-12+146199999V0202001N003610060019N0200001N1+01901+00001999999ADDGA1051+006009029GF105991051021008001001001MA1999999085601MD1510061+9999ME1315219REMSYN082AAXX  10154 16008 42570 52007 10190 20000 38560 48521 55006 85200 91445 333 85820;
0193160080999992000061018004+45750+010530FM-12+146199999V0202101N004110060019N0200001N1+01641+00321999999ADDGA1061+006009029GF106991061021008001001001KA1120M+02001MA1999999085541MD1810051+9999ME1315159REMSYN088AAXX  10184 16008 42570 62108 10164 20032 38554 48515 58005 86200 91745 333 10200 86820;
0174160080999992000061021004+45750+010530FM-12+146199999V0209999C000012200019N0200001N1+01181+00611999999ADDGA1031+006009029GF103991031021008001001001MA1999999085591MD1310051+9999ME1315199REMSYN082AAXX  10214 16008 42570 30000 10118 20061 38559 48519 53005 83200 92045 333 83820;
0174160080999992000061100004+45750+010530FM-12+146199999V0209999C000012200019N0200001N1+01001+00501999999ADDGA1031+006009029GF103991031021008001001001MA1999999085511MD1810081+9999ME1315109REMSYN082AAXX  11004 16008 42570 30000 10100 20050 38551 48510 58008 83200 92345 333 83820;
0174160080999992000061103004+45750+010530FM-12+146199999V0202301N003112200019N0200001N1+01141+00741999999ADDGA1031+006009029GF103991031021008001001001MA1999999085501MD1610011+9999ME1315099REMSYN082AAXX  11034 16008 42570 32306 10114 20074 38550 48509 56001 83200 90245 333 83820;
0205160080999992000061106004+45750+010530FM-12+146199999V0201801N002110030019N0150001N1+01081+00761999999ADDGA1081+003009069GF108991081061004501999999IA1019KA1120N+00991MA1999999085481MD1610021+9999ME1315089REMSYN094AAXX  11064 16008 42465 81804 10108 20076 38548 48508 56002 886// 90545 333 20099 30/// 88710;
0174160080999992000061109004+45750+010530FM-12+146199999V0201501N006710030019N0150001N1+01081+00891999999ADDGA1081+003009069GF108991081061004501999999MA1999999085501MD1310021+9999ME1315109REMSYN082AAXX  11094 16008 42465 81513 10108 20089 38550 48510 53002 886// 90845 333 88710;
0202160080999992000061112004+45750+010530FM-12+146199999V0201901N006710030019N0120001N1+01161+00951999999ADDAY161061AY221061GA1081+003009069GF108991081071004501999999MA1999999085621MD1210121+9999ME1315219MW1601REMSYN088AAXX  11124 16008 41462 81913 10116 20095 38562 48521 52012 76062 887// 91145 333 88710;
0202160080999992000061115004+45750+010530FM-12+146199999V0201901N007210030019N0150001N1+01161+00591999999ADDAY161031AY221031GA1081+003009069GF108991081061004501999999MA1999999085701MD1210091+9999ME1315309MW1011REMSYN088AAXX  11154 16008 41465 81914 10116 20059 38570 48530 52009 70162 886// 91445 333 88710;
0221160080999992000061118004+45750+010530FM-12+146199999V0201901N005110030019N0150001N1+01161+00701999999ADDAY161061AY221061GA1071+003009069GF107991071061004501001001KA1120M+01291MA1999999085781MD1110071+9999ME1315379MW1011REMSYN094AAXX  11184 16008 41465 71910 10116 20070 38578 48537 51007 70162 87600 91745 333 10129 87710;
0174160080999992000061121004+45750+010530FM-12+146199999V0201801N003610030019N0150001N1+01001+00711999999ADDGA1081+003009069GF108991081061004501999999MA1999999085891MD1310121+9999ME1315479REMSYN082AAXX  11214 16008 42465 81807 10100 20071 38589 48547 53012 886// 92045 333 88710;
0174160080999992000061200004+45750+010530FM-12+146199999V0209999C000010030019N0150001N1+01001+00741999999ADDGA1081+003009069GF108991081061004501999999MA1999999085981MD1110091+9999ME1315569REMSYN082AAXX  12004 16008 42465 80000 10100 20074 38598 48556 51009 886// 92345 333 88710;
0174160080999992000061203004+45750+010530FM-12+146199999V0209999C000010030019N0150001N1+00961+00731999999ADDGA1081+003009069GF108991081061004501999999MA1999999085991MD1110011+9999ME1315579REMSYN082AAXX  12034 16008 42465 80000 10096 20073 38599 48557 51001 886// 90245 333 88710;
0205160080999992000061206004+45750+010530FM-12+146199999V0209999C000010060019N0200001N1+00781+00521999999ADDGA1061+006009029GF106991061021008001001001IA1019KA1120N+00781MA1999999086091MD1310101+9999ME1315669REMSYN094AAXX  12064 16008 42570 60000 10078 20052 38609 48566 53010 86200 90545 333 20078 30/// 86820;
0174160080999992000061209004+45750+010530FM-12+146199999V0209999C000010090019N0200001N1+01201+00711999999ADDGA1071+009009059GF107991071041008001001001MA1999999086181MD1210081+9999ME1315759REMSYN082AAXX  12094 16008 42570 70000 10120 20071 38618 48575 52008 87400 90845 333 87630;
0174160080999992000061212004+45750+010530FM-12+146199999V0200401N003110090019N0200001N1+01961+00541999999ADDGA1071+009009059GF107991071051008001001001MA1999999086271MD1110091+9999ME1315889REMSYN082AAXX  12124 16008 42570 70406 10196 20054 38627 48588 51009 87500 91145 333 87630;
0174160080999992000061215004+45750+010530FM-12+146199999V0202001N003610090019N0200001N1+02001+00241999999ADDGA1051+009009059GF105991051051008001001001MA1999999086251MD1810021+9999ME1315869REMSYN082AAXX  12154 16008 42570 52007 10200 20024 38625 48586 58002 85500 91445 333 85630;
0193160080999992000061218004+45750+010530FM-12+146199999V0202101N002612200019N0200001N1+01901+00401999999ADDGA1041+007509029GF104991041021008001001001KA1120M+02101MA1999999086221MD1610031+9999ME1315839REMSYN088AAXX  12184 16008 42570 42105 10190 20040 38622 48583 56003 84200 91745 333 10210 84825;
0174160080999992000061221004+45750+010530FM-12+146199999V0209999C000012200019N0200001N1+01521+00981999999ADDGA1041+007509029GF104991041021008001001001MA1999999086401MD1310181+9999ME1315999REMSYN082AAXX  12214 16008 42570 40000 10152 20098 38640 48599 53018 84200 92045 333 84825;
0174160080999992000061300004+45750+010530FM-12+146199999V0209999C000012200019N0200001N1+01181+00841999999ADDGA1041+007509029GF104991041021008001001001MA1999999086481MD1210071+9999ME1316049REMSYN082AAXX  13004 16008 42570 40000 10118 20084 38648 48604 52007 84200 92345 333 84825;
0174160080999992000061303004+45750+010530FM-12+146199999V0209999C000012200019N0200001N1+01001+00711999999ADDGA1041+007509029GF104991041021008001001001MA1999999086511MD1110041+9999ME1316079REMSYN082AAXX  13034 16008 42570 40000 10100 20071 38651 48607 51004 84200 90245 333 84825;
0205160080999992000061306004+45750+010530FM-12+146199999V0209999C000012200019N0200001N1+01001+00751999999ADDGA1041+007509029GF104991041021008001001001IA1019KA1120N+00961MA1999999086491MD1810021+9999ME1316059REMSYN094AAXX  13064 16008 42570 40000 10100 20075 38649 48605 58002 84200 90545 333 20096 30/// 84825;
0174160080999992000061309004+45750+010530FM-12+146199999V0202401N002610090019N0200001N1+01281+00731999999ADDGA1071+009009059GF107991071041008001001001MA1999999086441MD1710051+9999ME1316029REMSYN082AAXX  13094 16008 42570 72405 10128 20073 38644 48602 57005 87400 90845 333 87630;
0204160080999992000061312004+45750+010530FM-12+146199999V0202401N002110090019N0200001N1+01501+00731999999ADDAA199000091GA1081+009009059GF108991081051008001999999MA1999999086411MD1610041+9999ME1315999REMSYN082AAXX  13124 16008 32570 82404 10150 20073 38641 48599 56004 885// 91145 333 88630;EQDQ01  00002PRCP99
0202160080999992000061315004+45750+010530FM-12+146199999V0201701N003112200019N0080001N1+01901+00471999999ADDAY121031AY201031GA1041+010509029GF104991041021012501001001MA1999999086181MD1810231+9999ME1315789MW1101REMSYN088AAXX  13154 16008 41658 41706 10190 20047 38618 48578 58023 71020 84200 91445 333 84835;
0221160080999992000061318004+45750+010530FM-12+146199999V0209999C000010090019N0080001N1+01541+00871999999ADDAY161061AY211061GA1061+009009029GF106991061021008001001001KA1120M+01981MA1999999086201MD1310031+9999ME1315809MW1101REMSYN094AAXX  13184 16008 41558 60000 10154 20087 38620 48580 53003 71061 86200 91745 333 10198 86830;
0202160080999992000061321004+45750+010520FM-12+146199999V0202201N009810075019N0040001N1+01081+00811999999ADDAY191031AY261031GA1081+007509029GF108991081021008001999999MA1999999086421MD1210221+9999ME1315999MW1621REMSYN088AAXX  13214 16008 41540 82219 10108 20081 38642 48599 52022 76296 882// 92045 333 88825;
0202160080999992000061400004+45750+010520FM-12+146199999V0209999C000012200019N0150001N1+00801+00561999999ADDAY191061AY261061GA1041+024009019GF104991041001022501011001MA1999999086341MD1810091+9999ME1315899MW1101REMSYN088AAXX  14004 16008 41865 40000 10080 20056 38634 48589 58009 71096 84010 92345 333 84458;
0174160080999992000061403004+45750+010520FM-12+146199999V0209999C000012200019N0150001N1+00661+00431999999ADDGA1041+024009019GF104991041001022501011001MA1999999086241MD1610101+9999ME1315799REMSYN082AAXX  14034 16008 42865 40000 10066 20043 38624 48579 56010 84010 90245 333 84458;
0193160080999992000061406004+45750+010520FM-12+146199999V0209999C000012200019N0200001N1+00841+00551999999ADDGA1001+999999999GF100991001001999999001001IA1099KA1120N+00621MA1999999086211MD1810021+9999ME1315789REMSYN082AAXX  14064 16008 42970 00000 10084 20055 38621 48578 58002 90545 333 20062 31///;
0174160080999992000061409004+45750+010520FM-12+146199999V0209999C000010090019N0170001N1+01601+00451999999ADDGA1051+009009029GF105991051021008001001001MA1999999086171MD1610041+9999ME1315779REMSYN082AAXX  14094 16008 42567 50000 10160 20045 38617 48577 56004 85200 90845 333 85830;
0180160080999992000061412004+45750+010520FM-12+146199999V0202201N00151007501CN0150001N1+01861+00071999999ADDGA1031+009009089GF106991061021008001001001MA1999999086071MD1810111+9999ME1315679REMSYN088AAXX  14124 16008 42565 62203 10186 20007 38607 48567 58011 86200 91145 333 83830 83835;
0202160080999992000061415004+45750+010520FM-12+146199999V0209999C000010090019N0150001N1+01501+00851999999ADDAY191031AY261031GA1051+009009029GF106991061021008001001001MA1999999086071MD1510001+9999ME1315669MW1101REMSYN088AAXX  14154 16008 41565 60000 10150 20085 38607 48566 55000 71096 86200 91445 333 85830;
0221160080999992000061418004+45750+010520FM-12+146199999V0200701N004110090019N0170001N1+01241+00561999999ADDAY191061AY261061GA1081+009009059GF108991081051008001999999KA1120M+01981MA1999999086111MD1110051+9999ME1315699MW1031REMSYN094AAXX  14184 16008 41567 80708 10124 20056 38611 48569 51005 70396 885// 91745 333 10198 88630;
0202160080999992000061421004+45750+010520FM-12+146199999V0200501N005110075019N0080001N1+01001+00761999999ADDAY161031AY221031GA1081+007509069GF108991081071008001999999MA1999999086231MD1310121+9999ME1315809MW1601REMSYN088AAXX  14214 16008 41558 80510 10100 20076 38623 48580 53012 76062 887// 92045 333 88725;
0202160080999992000061500004+45750+010520FM-12+146199999V0200701N004110075019N0080001N1+00921+00621999999ADDAY161061AY221061GA1081+007509069GF108991081071008001999999MA1999999086241MD1110011+9999ME1315819MW1601REMSYN088AAXX  15004 16008 41558 80708 10092 20062 38624 48581 51001 76062 887// 92345 333 88725;
0202160080999992000061503004+45750+010520FM-12+146199999V0200401N003610090019N0080001N1+00881+00591999999ADDAY161031AY221031GA1081+009009059GF108991081051008001999999MA1999999086121MD1810131+9999ME1315689MW1101REMSYN088AAXX  15034 16008 41558 80407 10088 20059 38612 48568 58013 71062 885// 90245 333 88630;
0233160080999992000061506004+45750+010520FM-12+146199999V0200401N005110105019N0150001N1+00901+00571999999ADDAY161061AY221061GA1071+010509059GF107991071051012501001001IA1099KA1120N+00881MA1999999086071MD1610051+9999ME1315649MW1011REMSYN100AAXX  15064 16008 41665 70410 10090 20057 38607 48564 56005 70162 87500 90545 333 20088 31/// 87635;
0202160080999992000061509004+45750+010520FM-12+146199999V0200801N006710090019N0150001N1+01221+00541999999ADDAY161031AY221031GA1081+009009059GF108991081051008001999999MA1999999086091MD1310021+9999ME1315679MW1601REMSYN088AAXX  15094 16008 41565 80813 10122 20054 38609 48567 53002 76062 885// 90845 333 88630;
0202160080999992000061512004+45750+010520FM-12+146199999V0200401N004110090019N0150001N1+01661+00541999999ADDAY161061AY221061GA1071+009009059GF107991071051008001001001MA1999999086051MD1810041+9999ME1315659MW1021REMSYN088AAXX  15124 16008 41565 70408 10166 20054 38605 48565 58004 70262 87500 91145 333 87630;
0174160080999992000061515004+45750+010520FM-12+146199999V0200201N005110090019N0150001N1+01641+00271999999ADDGA1081+009009059GF108991081051008001999999MA1999999085981MD1610071+9999ME1315589REMSYN082AAXX  15154 16008 42565 80210 10164 20027 38598 48558 56007 885// 91445 333 88630;
0193160080999992000061518004+45750+010520FM-12+146199999V0200401N002610075019N0150001N1+01281+00521999999ADDGA1081+007509059GF108991081051008001999999KA1120M+01681MA1999999085971MD1810011+9999ME1315569REMSYN088AAXX  15184 16008 42565 80405 10128 20052 38597 48556 58001 885// 91745 333 10168 88625;
0202160080999992000061521004+45750+010520FM-12+146199999V0200701N004610090019N0120001N1+00921+00691999999ADDAY181031AY221031GA1061+009009059GF106991061051008001001001MA1999999086051MD1310081+9999ME1315629MW1011REMSYN088AAXX  15214 16008 41562 60709 10092 20069 38605 48562 53008 70182 86500 92045 333 86630;
0202160080999992000061600004+45750+010520FM-12+146199999V0200501N004112200019N0200001N1+00801+00481999999ADDAY181061AY261061GA1041+012009059GF104991041051012501001001MA1999999086021MD1810031+9999ME1315599MW1011REMSYN088AAXX  16004 16008 41670 40508 10080 20048 38602 48559 58003 70186 84500 92345 333 84640;
0174160080999992000061603004+45750+010520FM-12+146199999V0200501N003610120019N0200001N1+00801+00521999999ADDGA1051+012009059GF105991051051012501001001MA1999999085961MD1610061+9999ME1315539REMSYN082AAXX  16034 16008 42670 50507 10080 20052 38596 48553 56006 85500 90245 333 85640;
0205160080999992000061606004+45750+010520FM-12+146199999V0200401N003610090019N0200001N1+00801+00481999999ADDGA1061+009009059GF106991061051008001001001IA1099KA1120N+00801MA1999999085951MD1810011+9999ME1315529REMSYN094AAXX  16064 16008 42570 60407 10080 20048 38595 48552 58001 86500 90545 333 20080 31/// 86630;
0202160080999992000061609004+45750+010520FM-12+146199999V0200601N002610090019N0180001N1+01261+00381999999ADDAY161031AY221031GA1051+009009029GF105991051021008001001001MA1999999085971MD1310021+9999ME1315569MW1011REMSYN088AAXX  16094 16008 41568 50605 10126 20038 38597 48556 53002 70162 85200 90845 333 85830;
0202160080999992000061612004+45750+010520FM-12+146199999V0200401N006212200019N0200001N1+01661-00151999999ADDAY161061AY211061GA1041+010509029GF104991041021012501001001MA1999999085951MD1810021+9999ME1315569MW1011REMSYN088AAXX  16124 16008 41670 40412 10166 21015 38595 48556 58002 70161 84200 91145 333 84835;
0174160080999992000061615004+45750+010520FM-12+146199999V0200401N004112200019N0180001N1+01661-00701999999ADDGA1031+010509029GF103991031021012501001001MA1999999085911MD1610051+9999ME1315519REMSYN082AAXX  16154 16008 42668 30408 10166 21070 38591 48551 56005 83200 91445 333 83835;
0193160080999992000061618004+45750+010520FM-12+146199999V0200301N003612200019N0200001N1+01321-00961999999ADDGA1011+012009029GF103991031011012501001011KA1120M+01801MA1999999085931MD1310021+9999ME1315529REMSYN088AAXX  16184 16008 42670 30307 10132 21096 38593 48552 53002 83101 91745 333 10180 81840;
0158160080999992000061621004+45750+010520FM-12+146199999V0200401N001512200019N0170001N1+00881-00451999999ADDGA1001+999999999GF100991001001999999001001MA1999999086001MD1110081+9999ME1315589REMSYN066AAXX  16214 16008 42967 00403 10088 21045 38600 48558 51008 92045;
0158160080999992000061700004+45750+010520FM-12+146199999V0209999C000012200019N0180001N1+00541-00101999999ADDGA1001+999999999GF100991001001999999001001MA1999999086131MD1310121+9999ME1315689REMSYN066AAXX  17004 16008 42968 00000 10054 21010 38613 48568 53012 92345;
0158160080999992000061703004+45750+010520FM-12+146199999V0200501N002612200019N0150001N1+00401-00041999999ADDGA1001+999999999GF100991001001999999001001MA1999999086111MD1810021+9999ME1315669REMSYN066AAXX  17034 16008 42965 00505 10040 21004 38611 48566 58002 90245;
0193160080999992000061706004+45750+010520FM-12+146199999V0200501N004612200019N0200001N1+00521+00001999999ADDGA1001+999999999GF100991001001999999001001IA1019KA1120N+00401MA1999999086101MD1610011+9999ME1315659REMSYN082AAXX  17064 16008 42970 00509 10052 20000 38610 48565 56001 90545 333 20040 30///;
0158160080999992000061709004+45750+010520FM-12+146199999V0200401N005712200019N0200001N1+01361-00621999999ADDGA1001+999999999GF100991001001999999001001MA1999999086161MD1310061+9999ME1315749REMSYN066AAXX  17094 16008 42970 00411 10136 21062 38616 48574 53006 90845;
0158160080999992000061712004+45750+010520FM-12+146199999V0200301N007712200019N0200001N1+01781-01461999999ADDGA1001+999999999GF100991001001999999001001MA1999999086151MD1810011+9999ME1315759REMSYN066AAXX  17124 16008 42970 00315 10178 21146 38615 48575 58001 91145;
0158160080999992000061715004+45750+010520FM-12+146199999V0200301N006212200019N0200001N1+01821-01371999999ADDGA1001+999999999GF100991001001999999001001MA1999999086111MD1610031+9999ME1315729REMSYN066AAXX  17154 16008 42970 00312 10182 21137 38611 48572 56003 91445;
0181160080999992000061718004+45750+010520FM-12+146199999V0200201N003612200019N0200001N1+01481-01231999999ADDGA1001+999999999GF100991001001999999001001KA1999M+01841MA1999999086221MD1310111+9999ME1315819REMSYN076AAXX  17184 16008 42970 00207 10148 21123 38622 48581 53011 91745 333 10184;
0158160080999992000061721004+45750+010520FM-12+146199999V0200301N001512200019N0150001N1+00901-00241999999ADDGA1001+999999999GF100991001001999999001001MA1999999086391MD1110171+9999ME1315959REMSYN066AAXX  17214 16008 42965 00303 10090 21024 38639 48595 51017 92045;
0158160080999992000061800004+45750+010520FM-12+146199999V0209999C000012200019N0150001N1+00761-00101999999ADDGA1001+999999999GF100991001001999999001001MA1999999086481MD1310091+9999ME1316029REMSYN066AAXX  18004 16008 42965 00000 10076 21010 38648 48602 53009 92345;
0158160080999992000061803004+45750+010520FM-12+146199999V0209999C000012200019N0150001N1+00421+00031999999ADDGA1001+999999999GF100991001001999999001001MA1999999086521MD1010041+9999ME1316049REMSYN066AAXX  18034 16008 42965 00000 10042 20003 38652 48604 50004 90245;
0193160080999992000061806004+45750+010520FM-12+146199999V0209999C000012200019N0200001N1+00341-00041999999ADDGA1001+999999999GF100991001001999999001001IA1019KA1120N+00321MA1999999086541MD1310021+9999ME1316069REMSYN082AAXX  18064 16008 42970 00000 10034 21004 38654 48606 53002 90545 333 20032 30///;
0158160080999992000061809004+45750+010520FM-12+146199999V0200401N001512200019N0180001N1+01361+00131999999ADDGA1001+999999999GF100991001001999999001001MA1999999086511MD1810041+9999ME1316089REMSYN066AAXX  18094 16008 42968 00403 10136 20013 38651 48608 58004 90845;
0158160080999992000061812004+45750+010520FM-12+146199999V0202101N003112200019N0170001N1+01721+00091999999ADDGA1001+999999999GF100991001001999999001001MA1999999086421MD1610081+9999ME1316029REMSYN066AAXX  18124 16008 42967 02106 10172 20009 38642 48602 56008 91145;
0158160080999992000061815004+45750+010520FM-12+146199999V0202401N002612200019N0200001N1+01941+00171999999ADDGA1001+999999999GF100991001001999999001001MA1999999086331MD1810091+9999ME1315949REMSYN066AAXX  18154 16008 42970 02405 10194 20017 38633 48594 58009 91445;
0181160080999992000061818004+45750+010520FM-12+146199999V0209999C000012200019N0200001N1+01741+00131999999ADDGA1001+999999999GF100991001001999999001001KA1999M+02201MA1999999086281MD1710051+9999ME1315889REMSYN076AAXX  18184 16008 42970 00000 10174 20013 38628 48588 57005 91745 333 10220;
0158160080999992000061821004+45750+010520FM-12+146199999V0209999C000012200019N0200001N1+01081+00481999999ADDGA1001+999999999GF100991001001999999001001MA1999999086421MD1310141+9999ME1315989REMSYN066AAXX  18214 16008 42970 00000 10108 20048 38642 48598 53014 92045;
0158160080999992000061900004+45750+010520FM-12+146199999V0209999C000012200019N0200001N1+00841+00461999999ADDGA1001+999999999GF100991001001999999001001MA1999999086481MD1110061+9999ME1316039REMSYN066AAXX  19004 16008 42970 00000 10084 20046 38648 48603 51006 92345;
0158160080999992000061903004+45750+010520FM-12+146199999V0209999C000012200019N0200001N1+00701+00331999999ADDGA1001+999999999GF100991001001999999001001MA1999999086481MD1410001+9999ME1316029REMSYN066AAXX  19034 16008 42970 00000 10070 20033 38648 48602 54000 90245;
0158160080999992000061912004+45750+010520FM-12+146199999V0202101N005712200019N0250001N1+02041+00361999999ADDGA1001+999999999GF100991001001999999001001MA1999999086211MD1710191+9999ME1315839REMSYN066AAXX  19124 16008 42975 02111 10204 20036 38621 48583 57019 91145;
0158160080999992000061915004+45750+010520FM-12+146199999V0202101N007712200019N0250001N1+02141+00121999999ADDGA1001+999999999GF100991001001999999001001MA1999999086091MD1710131+9999ME1315709REMSYN066AAXX  19154 16008 42975 02115 10214 20012 38609 48570 57013 91445;
0181160080999992000061918004+45750+010520FM-12+146199999V0201901N004612200019N0250001N1+01901+00271999999ADDGA1001+999999999GF100991001001999999001001KA1999M+02161MA1999999086061MD1710021+9999ME1315679REMSYN076AAXX  19184 16008 42975 01909 10190 20027 38606 48567 57002 91745 333 10216;
0158160080999992000061921004+45750+010520FM-12+146199999V0209999C000012200019N0200001N1+01381+00641999999ADDGA1001+999999999GF100991001001999999001001MA1999999086181MD1310121+9999ME1315779REMSYN066AAXX  19214 16008 42970 00000 10138 20064 38618 48577 53012 92045;
0158160080999992000062000004+45750+010520FM-12+146199999V0209999C000012200019N0200001N1+01081+00691999999ADDGA1001+999999999GF100991001001999999001001MA1999999086221MD1110041+9999ME1315799REMSYN066AAXX  20004 16008 42970 00000 10108 20069 38622 48579 51004 92345;
0158160080999992000062003004+45750+010520FM-12+146199999V0209999C000012200019N0200001N1+00901+00661999999ADDGA1001+999999999GF100991001001999999001001MA1999999086141MD1810081+9999ME1315719REMSYN066AAXX  20034 16008 42970 00000 10090 20066 38614 48571 58008 90245;
0193160080999992000062006004+45750+010520FM-12+146199999V0200701N002612200019N0250001N1+00961+00651999999ADDGA1001+999999999GF100991001001999999001001IA1019KA1120N+00901MA1999999086111MD1710031+9999ME1315689REMSYN082AAXX  20064 16008 42975 00705 10096 20065 38611 48568 57003 90545 333 20090 30///;
0158160080999992000062009004+45750+010520FM-12+146199999V0202201N003112200019N0250001N1+01561+00641999999ADDGA1001+999999999GF100991001001999999001001MA1999999085991MD1710121+9999ME1315599REMSYN066AAXX  20094 16008 42975 02206 10156 20064 38599 48559 57012 90845;
0158160080999992000062012004+45750+010520FM-12+146199999V0202001N008212200019N0250001N1+02121+00381999999ADDGA1001+999999999GF100991001001999999001001MA1999999085891MD1710101+9999ME1315509REMSYN066AAXX  20124 16008 42975 02016 10212 20038 38589 48550 57010 91145;
0158160080999992000062015004+45750+010520FM-12+146199999V0202101N008212200019N0250001N1+02281+00281999999ADDGA1001+999999999GF100991001001999999001001MA1999999085781MD1710101+9999ME1315409REMSYN066AAXX  20154 16008 42975 02116 10228 20028 38578 48540 57010 91445;
0181160080999992000062018004+45750+010520FM-12+146199999V0201701N005712200019N0250001N1+02081+00411999999ADDGA1001+999999999GF100991001001999999001001KA1999M+02301MA1999999085771MD1610011+9999ME1315399REMSYN076AAXX  20184 16008 42975 01711 10208 20041 38577 48539 56001 91745 333 10230;
0158160080999992000062021004+45750+010520FM-12+146199999V0209999C000012200019N0250001N1+01841+01061999999ADDGA1001+999999999GF100991001001999999001001MA1999999085931MD1310161+9999ME1315539REMSYN066AAXX  20214 16008 42975 00000 10184 20106 38593 48553 53016 92045;
0188160080999992000062100004+45750+010520FM-12+146199999V0209999C000012200019N0250001N1+01481+00701999999ADDAA199000091GA1001+999999999GF100991001001999999001001MA1999999085971MD1110041+9999ME1315569REMSYN066AAXX  21004 16008 32975 00000 10148 20070 38597 48556 51004 92345;EQDQ01  00002PRCP99
0158160080999992000062103004+45750+010520FM-12+146199999V0209999C000012200019N0200001N1+01101+00761999999ADDGA1001+999999999GF100991001001999999001001MA1999999085991MD1310021+9999ME1315579REMSYN066AAXX  21034 16008 42970 00000 10110 20076 38599 48557 53002 90245;
0223160080999992000062106004+45750+010520FM-12+146199999V0209999C000012200019N0250001N1+00981+00761999999ADDAA199000091GA1001+999999999GF100991001001999999001001IA1019KA1120N+00941MA1999999085981MD1410001+9999ME1315569REMSYN082AAXX  21064 16008 32975 00000 10098 20076 38598 48556 54000 90545 333 20094 30///;EQDQ01  00002PRCP99
0158160080999992000062109004+45750+010520FM-12+146199999V0200501N002612200019N0250001N1+01601+00661999999ADDGA1001+999999999GF100991001001999999001001MA1999999085871MD1810111+9999ME1315479REMSYN066AAXX  21094 16008 42975 00505 10160 20066 38587 48547 58011 90845;
0188160080999992000062112004+45750+010520FM-12+146199999V0202101N007212200019N0300001N1+02181+00481999999ADDAA199000091GA1001+999999999GF100991001001999999001001MA1999999085771MD1710101+9999ME1315399REMSYN066AAXX  21124 16008 32980 02114 10218 20048 38577 48539 57010 91145;EQDQ01  00002PRCP99
0158160080999992000062115004+45750+010520FM-12+146199999V0202201N006712200019N0300001N1+02301+00151999999ADDGA1001+999999999GF100991001001999999001001MA1999999085651MD1710121+9999ME1315279REMSYN066AAXX  21154 16008 42980 02213 10230 20015 38565 48527 57012 91445;
0211160080999992000062118004+45750+010520FM-12+146199999V0202101N004112200019N0250001N1+02201+00211999999ADDAA199000091GA1001+999999999GF100991001001999999001001KA1999M+02321MA1999999085631MD1610021+9999ME1315259REMSYN076AAXX  21184 16008 32975 02108 10220 20021 38563 48525 56002 91745 333 10232;EQDQ01  00002PRCP99
0158160080999992000062121004+45750+010520FM-12+146199999V0202101N003112200019N0250001N1+01641+00701999999ADDGA1001+999999999GF100991001001999999001001MA1999999085811MD1310181+9999ME1315419REMSYN066AAXX  21214 16008 42975 02106 10164 20070 38581 48541 53018 92045;
0188160080999992000062200004+45750+010520FM-12+146199999V0209999C000012200019N0250001N1+01481+00601999999ADDAA199000091GA1001+999999999GF100991001001999999001001MA1999999085861MD1210051+9999ME1315469REMSYN066AAXX  22004 16008 32975 00000 10148 20060 38586 48546 52005 92345;EQDQ01  00002PRCP99
0158160080999992000062203004+45750+010520FM-12+146199999V0209999C000012200019N0200001N1+01061+00681999999ADDGA1001+999999999GF100991001001999999001001MA1999999085931MD1110071+9999ME1315529REMSYN066AAXX  22034 16008 42970 00000 10106 20068 38593 48552 51007 90245;
0223160080999992000062206004+45750+010520FM-12+146199999V0209999C000012200019N0250001N1+01001+00741999999ADDAA199000091GA1001+999999999GF100991001001999999001001IA1019KA1120N+01001MA1999999085911MD1810021+9999ME1315509REMSYN082AAXX  22064 16008 32975 00000 10100 20074 38591 48550 58002 90545 333 20100 30///;EQDQ01  00002PRCP99
0158160080999992000062209004+45750+010520FM-12+146199999V0202001N005112200019N0250001N1+01621+00641999999ADDGA1001+999999999GF100991001001999999001001MA1999999085821MD1710091+9999ME1315439REMSYN066AAXX  22094 16008 42975 02010 10162 20064 38582 48543 57009 90845;
0188160080999992000062212004+45750+010520FM-12+146199999V0201901N008212200019N0300001N1+02061+00471999999ADDAA199000091GA1001+999999999GF100991001001999999001001MA1999999085741MD1710091+9999ME1315359REMSYN066AAXX  22124 16008 32980 01916 10206 20047 38574 48535 57009 91145;EQDQ01  00002PRCP99
0174160080999992000062215004+45750+010520FM-12+146199999V0202101N007712200019N0250001N1+02201+00471999999ADDGA1021+018009029GF102991021011017501001001MA1999999085641MD1710101+9999ME1315269REMSYN082AAXX  22154 16008 42775 22115 10220 20047 38564 48526 57010 82100 91445 333 82856;
0211160080999992000062218004+45750+010520FM-12+146199999V0202201N003612200019N0250001N1+02121+00451999999ADDAA199000091GA1001+999999999GF100991001001999999001001KA1999M+02241MA1999999085591MD1610051+9999ME1315209REMSYN076AAXX  22184 16008 32975 02207 10212 20045 38559 48520 56005 91745 333 10224;EQDQ01  00002PRCP99
0158160080999992000062221004+45750+010520FM-12+146199999V0209999C000012200019N0200001N1+01561+00841999999ADDGA1001+999999999GF100991001001999999001001MA1999999085721MD1310131+9999ME1315329REMSYN066AAXX  22214 16008 42970 00000 10156 20084 38572 48532 53013 92045;
0188160080999992000062300004+45750+010520FM-12+146199999V0209999C000012200019N0200001N1+01581+00801999999ADDAA199000091GA1001+999999999GF100991001001999999001001MA1999999085741MD1110021+9999ME1315349REMSYN066AAXX  23004 16008 32970 00000 10158 20080 38574 48534 51002 92345;EQDQ01  00002PRCP99
0158160080999992000062303004+45750+010520FM-12+146199999V0209999C000012200019N0200001N1+01341+00951999999ADDGA1001+999999999GF100991001001999999001001MA1999999085721MD1810021+9999ME1315329REMSYN066AAXX  23034 16008 42970 00000 10134 20095 38572 48532 58002 90245;
0235160080999992000062306004+45750+010520FM-12+146199999V0202001N004110120019N0200001N1+01261+00981999999ADDAA199000091GA1051+012009059GF105991051051012501001001IA1019KA1120N+01201MA1999999085631MD1710091+9999ME1315239REMSYN094AAXX  23064 16008 32670 52008 10126 20098 38563 48523 57009 85500 90545 333 20120 30/// 85640;EQDQ01  00002PRCP99
0174160080999992000062309004+45750+010520FM-12+146199999V0201901N005712200019N0200001N1+01501+00981999999ADDGA1031+009009029GF103991031011008001001001MA1999999085581MD1710051+9999ME1315189REMSYN082AAXX  23094 16008 42570 31911 10150 20098 38558 48518 57005 83100 90845 333 83830;
0225160080999992000062312004+45750+010520FM-12+146199999V0200601N00621001201CN0080001N1+01121+00991999999ADDAA106008991AY191061AY281061GA1031+001509089GF107991071021001501001001MA1999999085601MD1310021+9999ME1315199MW1101REMSYN100AAXX  23124 16008 11258 70612 10112 20099 38560 48519 53002 60091 71098 87200 91145 333 83805 84815;
0208160080999992000062315004+45750+010520FM-12+146199999V0200601N00621001201CN0080001N1+01181+00921999999ADDAY191031AY261031GA1021+001209099GF107991071091001501001001MA1999999085521MD1810081+9999ME1315129MW1951REMSYN094AAXX  23154 16008 41258 70612 10118 20092 38552 48512 58008 79596 87900 91445 333 82904 86810;
0266160080999992000062318004+45750+010520FM-12+146199999V0200601N002610030019N0030001N1+00981+00871999999ADDAA112027991AY191061AY261061GA1021+001209089GA2031+003009089GF108991051021001501021999KA1120M+01721MA1999999085681MD1310161+9999ME1315279MW1631REMSYN112AAXX  23184 16008 11230 80605 10098 20087 38568 48527 53016 60282 76396 8522/ 91745 333 10172 82804 83810 85450;
0208160080999992000062321004+45750+010520FM-12+146199999V0202601N00461036001CN0015001N1+00721+00571999999ADDAY161031AY261031GA1041+001209089GF108991041021001501021999MA1999999085951MD1210271+9999ME1315529MW1631REMSYN094AAXX  23214 16008 41215 82609 10072 20057 38595 48552 52027 76366 8422/ 92045 333 84804 86450;
0219160080999992000062400004+45750+010520FM-12+146199999V0209999C000010045019N0040001N1+00521+00361999999ADDAA106008991AY161061AY221061GA1051+004509029GF105991051021004501001001MA1999999085741MD1810201+9999ME1315329MW1101REMSYN094AAXX  24004 16008 11440 50000 10052 20036 38574 48532 58020 60091 71062 85200 92345 333 85815;
0158160080999992000062403004+45750+010520FM-12+146199999V0209999C000012200019N0120001N1+00381+00231999999ADDGA1001+999999999GF100991001001999999001001MA1999999085581MD1810171+9999ME1315169REMSYN066AAXX  24034 16008 42962 00000 10038 20023 38558 48516 58017 90245;
0222160080999992000062406004+45750+010520FM-12+146199999V0200501N004110900019N0180001N1+00441+00261999999ADDAA112008991GA1021+004509029GF106991021011004501001021IA1119KA1120N+00341MA1999999085481MD1610101+9999ME1315079REMSYN100AAXX  24064 16008 12468 60508 10044 20026 38548 48507 56010 60092 82102 90545 333 20034 32/// 82815;
0180160080999992000062409004+45750+010520FM-12+146199999V0200501N00571001201CN0160001N1+00981+00401999999ADDGA1031+001509089GF106991061021001501001001MA1999999085401MD1810081+9999ME1315009REMSYN088AAXX  24094 16008 42266 60511 10098 20040 38540 48500 58008 86200 90845 333 83805 84815;
0232160080999992000062412004+45750+010520FM-12+146199999V0200601N00411036001CN0120001N1+01461+00101999999ADDAA199000091GA1011+001509089GA2031+003009089GF108991041021001501011999MA1999999085201MD1710201+9999ME1314819REMSYN094AAXX  24124 16008 32262 80608 10146 20010 38520 48481 57020 8421/ 91145 333 81805 83810 85456;EQDQ01  00002PRCP99
0208160080999992000062415004+45750+010520FM-12+146199999V0200501N003110015019N0110001N1+01221+00511999999ADDAY161031AY221031GA1051+001509089GF108991051021001501021999MA1999999085161MD1610041+9999ME1314779MW1601REMSYN094AAXX  24154 16008 41261 80506 10122 20051 38516 48477 56004 76062 8522/ 91445 333 85805 86450;
0238160080999992000062418004+45750+010520FM-12+146199999V0200601N004110012019N0070001N1+00861+00601999999ADDAA112002091AY161061AY221061GA1081+001209069GF108991081071001501999999KA1120M+01481MA1999999085041MD1810131+9999ME1314659MW1621REMSYN100AAXX  24184 16008 11257 80608 10086 20060 38504 48465 58013 60022 76262 887// 91745 333 10148 88704;
0202160080999992000062421004+45750+010520FM-12+146199999V0200501N003110015019N0020001N1+00601+00381999999ADDAY161031AY261031GA1081+001509069GF108991081071001501999999MA1999999085241MD1310201+9999ME1314849MW1601REMSYN088AAXX  24214 16008 41220 80506 10060 20038 38524 48484 53020 76066 887// 92045 333 88705;
0219160080999992000062500004+45750+010520FM-12+146199999V0200301N004610045019N0030001N1+00501+00261999999ADDAA106004191AY161061AY221061GA1061+004509029GF106991061021004501001001MA1999999085221MD1810021+9999ME1314829MW1101REMSYN094AAXX  25004 16008 11430 60309 10050 20026 38522 48482 58002 60041 71062 86200 92345 333 86815;
0174160080999992000062509004+45750+010520FM-12+146199999V0200301N005710045019N0120001N1+00741-00091999999ADDGA1061+004509029GF106991061021004501001001MA1999999085201MD1210061+9999ME1314809REMSYN082AAXX  25094 16008 42462 60311 10074 21009 38520 48480 52006 86200 90845 333 86815;
0204160080999992000062512004+45750+010520FM-12+146199999V0200301N006210045019N0140001N1+01361-00451999999ADDAA199000091GA1071+004509029GF107991071021004501001001MA1999999085221MD1110021+9999ME1314839REMSYN082AAXX  25124 16008 32464 70312 10136 21045 38522 48483 51002 87200 91145 333 87815;EQDQ01  00002PRCP99
0174160080999992000062515004+45750+010520FM-12+146199999V0200301N005710045019N0180001N1+01021-00421999999ADDGA1061+004509029GF106991061021004501001001MA1999999085281MD1310061+9999ME1314889REMSYN082AAXX  25154 16008 42468 60311 10102 21042 38528 48488 53006 86200 91445 333 86815;
0223160080999992000062518004+45750+010520FM-12+146199999V0200301N004612200019N0200001N1+00961-00481999999ADDAA199000091GA1041+004509029GF104991041011004501001001KA1120M+01381MA1999999085321MD1110041+9999ME1314929REMSYN088AAXX  25184 16008 32470 40309 10096 21048 38532 48492 51004 84100 91745 333 10138 84815;EQDQ01  00002PRCP99
0158160080999992000062521004+45750+010520FM-12+146199999V0200601N004112200019N0200001N1+00681-00151999999ADDGA1001+999999999GF100991001001999999001001MA1999999085481MD1210161+9999ME1315079REMSYN066AAXX  25214 16008 42970 00608 10068 21015 38548 48507 52016 92045;
0188160080999992000062600004+45750+010520FM-12+146199999V0200501N002612200019N0180001N1+00521-00251999999ADDAA199000091GA1001+999999999GF100991001001999999001001MA1999999085541MD1110061+9999ME1315139REMSYN066AAXX  26004 16008 32968 00505 10052 21025 38554 48513 51006 92345;EQDQ01  00002PRCP99
0158160080999992000062603004+45750+010520FM-12+146199999V0209999C000012200019N0180001N1+00301-00051999999ADDGA1001+999999999GF100991001001999999001001MA1999999085541MD1410001+9999ME1315129REMSYN066AAXX  26034 16008 42968 00000 10030 21005 38554 48512 54000 90245;
0223160080999992000062606004+45750+010520FM-12+146199999V0200301N004612200019N0220001N1+00201-00111999999ADDAA199000091GA1001+999999999GF100991001001999999001001IA1019KA1120N+00201MA1999999085521MD1810021+9999ME1315109REMSYN082AAXX  26064 16008 32972 00309 10020 21011 38552 48510 58002 90545 333 20020 30///;EQDQ01  00002PRCP99
0174160080999992000062609004+45750+010520FM-12+146199999V0200301N006212200019N0250001N1+01041-00311999999ADDGA1031+006009029GF103991031011008001001001MA1999999085471MD1610051+9999ME1315069REMSYN082AAXX  26094 16008 42575 30312 10104 21031 38547 48506 56005 83100 90845 333 83820;
0204160080999992000062612004+45750+010520FM-12+146199999V0200401N005712200019N0250001N1+01661-00871999999ADDAA199000091GA1031+006009029GF103991031011008001001001MA1999999085431MD1610041+9999ME1315049REMSYN082AAXX  26124 16008 32575 30411 10166 21087 38543 48504 56004 83100 91145 333 83820;EQDQ01  00002PRCP99
0174160080999992000062615004+45750+010520FM-12+146199999V0200501N005112200019N0250001N1+01761-00761999999ADDGA1031+007509029GF103991031011008001001001MA1999999085401MD1810031+9999ME1315019REMSYN082AAXX  26154 16008 42575 30510 10176 21076 38540 48501 58003 83100 91445 333 83825;
0223160080999992000062618004+45750+010520FM-12+146199999V0200201N005712200019N0300001N1+01241-01051999999ADDAA199000091GA1031+007509029GF103991031011008001001001KA1120M+01801MA1999999085491MD1310091+9999ME1315099REMSYN088AAXX  26184 16008 32580 30211 10124 21105 38549 48509 53009 83100 91745 333 10180 83825;EQDQ01  00002PRCP99
0174160080999992000062621004+45750+010520FM-12+146199999V0200501N003112200019N0250001N1+00801-00661999999ADDGA1011+007509029GF101991011011008001001001MA1999999085701MD1210211+9999ME1315289REMSYN082AAXX  26214 16008 42575 10506 10080 21066 38570 48528 52021 81100 92045 333 81825;
0158160080999992000062703004+45750+010520FM-12+146199999V0200501N003112200019N0200001N1+00361-00141999999ADDGA1001+999999999GF100991001001999999001001MA1999999085781MD1810011+9999ME1315359REMSYN066AAXX  27034 16008 42970 00506 10036 21014 38578 48535 58001 90245;
0223160080999992000062706004+45750+010520FM-12+146199999V0200501N002612200019N0200001N1+00341-00261999999ADDAA199000091GA1001+999999999GF100991001001999999001001IA1019KA1120N+00281MA1999999085731MD1610051+9999ME1315309REMSYN082AAXX  27064 16008 32970 00505 10034 21026 38573 48530 56005 90545 333 20028 30///;EQDQ01  00002PRCP99
0158160080999992000062709004+45750+010520FM-12+146199999V0200301N005112200019N0250001N1+01261-00511999999ADDGA1001+999999999GF100991001001999999001001MA1999999085631MD1810111+9999ME1315239REMSYN066AAXX  27094 16008 42975 00310 10126 21051 38563 48523 58011 90845;
0188160080999992000062712004+45750+010520FM-12+146199999V0200501N004112200019N0300001N1+01921-01321999999ADDAA199000091GA1001+999999999GF100991001001999999001001MA1999999085531MD1610101+9999ME1315149REMSYN066AAXX  27124 16008 32980 00508 10192 21132 38553 48514 56010 91145;EQDQ01  00002PRCP99
0158160080999992000062715004+45750+010520FM-12+146199999V0200501N004112200019N0300001N1+01981-01291999999ADDGA1001+999999999GF100991001001999999001001MA1999999085381MD1710151+9999ME1314999REMSYN066AAXX  27154 16008 42980 00508 10198 21129 38538 48499 57015 91445;
0201160080999992000062718004+45750+010520FM-12+146199999V0200301N003619999999N0300001N1+01761-00711999999ADDAA199000091GF107991001001999999001021KA1999M+02101MA1999999085331MD1610051+9999ME1314949REMSYN082AAXX  27184 16008 32980 70307 10176 21071 38533 48494 56005 80002 91745 333 10210;EQDQ01  00002PRCP99
0158160080999992000062721004+45750+010520FM-12+146199999V0209999C000012200019N0250001N1+01201+00642999999ADDGA1001+999999999GF100991001001999999001001MA1999999085401MD1310071+9999ME1315009REMSYN066AAXX  27214 16008 42975 00000 10120 20064 38540 48500 53007 92045;
0188160080999992000062800004+45750+010520FM-12+146199999V0209999C000012200019N0180001N1+00801+00501999999ADDAA199000091GA1001+999999999GF100991001001999999001001MA1999999085491MD1110101+9999ME1315099REMSYN066AAXX  28004 16008 32968 00000 10080 20050 38549 48509 51010 92345;EQDQ01  00002PRCP99
0158160080999992000062803004+45750+010520FM-12+146199999V0209999C000012200019N0150001N1+00681+00401999999ADDGA1001+999999999GF100991001001999999001001MA1999999085441MD1810051+9999ME1315039REMSYN066AAXX  28034 16008 42965 00000 10068 20040 38544 48503 58005 90245;
0213160080999992000062806004+45750+010520FM-12+146199999V0209999C000019999999N0150001N1+00701+00371999999ADDAA199000091GF107991001001999999001021IA1019KA1120N+00581MA1999999085351MD1610091+9999ME1314959REMSYN088AAXX  28064 16008 32965 70000 10070 20037 38535 48495 56009 80002 90545 333 20058 30///;EQDQ01  00002PRCP99
0174160080999992000062809004+45750+010520FM-12+146199999V0209999C000010090019N0110001N1+01201+00611999999ADDGA1071+009009059GF107991071041008001001001MA1999999085351MD1410001+9999ME1314959REMSYN082AAXX  28094 16008 42561 70000 10120 20061 38535 48495 54000 87400 90845 333 87630;
0219160080999992000062812004+45750+010520FM-12+146199999V0200601N003110075019N0100001N1+01241+00681999999ADDAA106000791AY121061AY221061GA1081+007509069GF108991081061008001999999MA1999999085291MD1610061+9999ME1314909MW1211REMSYN094AAXX  28124 16008 11560 80606 10124 20068 38529 48490 56006 69901 72122 886// 91145 333 88725;
0202160080999992000062815004+45750+010520FM-12+146199999V0200601N005110060019N0100001N1+01001+00811999999ADDAY161031AY221031GA1081+006009069GF108991081071008001999999MA1999999085301MD1310011+9999ME1314909MW1601REMSYN088AAXX  28154 16008 41560 80610 10100 20081 38530 48490 53001 76062 887// 91445 333 88720;
0238160080999992000062818004+45750+010520FM-12+146199999V0200501N004110090019N0120001N1+00981+00521999999ADDAA112002091AY161061AY221061GA1071+009009029GF107991071011008001001001KA1120M+01321MA1999999085341MD1110041+9999ME1314949MW1011REMSYN100AAXX  28184 16008 11562 70508 10098 20052 38534 48494 51004 60022 70162 87100 91745 333 10132 87830;
0174160080999992000062821004+45750+010520FM-12+146199999V0200601N004110090019N0150001N1+00821+00501999999ADDGA1071+009009029GF107991071011008001001001MA1999999085371MD1310031+9999ME1314979REMSYN082AAXX  28214 16008 42565 70608 10082 20050 38537 48497 53003 87100 92045 333 87830;
0169160080999992000062900004+45750+010520FM-12+146199999V0209999C000012200019N0150001N1+00501+00261999999ADDAA199000021GA1001+999999999GF100991001001999999001001MA1999999085401MD1110031+9999ME1314999REMSYN066AAXX  29004 16008 32965 00000 10050 20026 38540 48499 51003 92345;
0158160080999992000062903004+45750+010520FM-12+146199999V0200301N002112200019N0150001N1+00421+00221999999ADDGA1001+999999999GF100991001001999999001001MA1999999085491MD1310091+9999ME1315089REMSYN066AAXX  29034 16008 42965 00304 10042 20022 38549 48508 53009 90245;
0223160080999992000062906004+45750+010520FM-12+146199999V0200301N002612200019N0200001N1+00461+00171999999ADDAA199000091GA1001+999999999GF100991001001999999001001IA1019KA1120N+00341MA1999999085471MD1810021+9999ME1315069REMSYN082AAXX  29064 16008 32970 00305 10046 20017 38547 48506 58002 90545 333 20034 30///;EQDQ01  00002PRCP99
0174160080999992000062909004+45750+010520FM-12+146199999V0200301N002110090019N0200001N1+00981+00281999999ADDGA1061+009009059GF106991061051008001001001MA1999999085461MD1610011+9999ME1315069REMSYN082AAXX  29094 16008 42570 60304 10098 20028 38546 48506 56001 86500 90845 333 86630;
0204160080999992000062912004+45750+010520FM-12+146199999V0200301N002610090019N0200001N1+01321+00001999999ADDAA199000091GA1071+009009029GF107991071021008001001001MA1999999085471MD1310011+9999ME1315079REMSYN082AAXX  29124 16008 32570 70305 10132 20000 38547 48507 53001 87200 91145 333 87830;EQDQ01  00002PRCP99
0174160080999992000062915004+45750+010520FM-12+146199999V0200401N004110090019N0200001N1+01501-00111999999ADDGA1071+009009029GF107991071021008001001001MA1999999085481MD1110011+9999ME1315089REMSYN082AAXX  29154 16008 42570 70408 10150 21011 38548 48508 51001 87200 91445 333 87830;
0223160080999992000062918004+45750+010520FM-12+146199999V0209999C000010090019N0200001N1+01161+00361999999ADDAA199000091GA1061+009009029GF106991061021008001001001KA1120M+01581MA1999999085421MD1810061+9999ME1315029REMSYN088AAXX  29184 16008 32570 60000 10116 20036 38542 48502 58006 86200 91745 333 10158 86830;EQDQ01  00002PRCP99
0174160080999992000062921004+45750+010520FM-12+146199999V0209999C000010090019N0150001N1+00981+00311999999ADDGA1061+009009029GF106991061021008001001001MA1999999085491MD1310071+9999ME1315089REMSYN082AAXX  29214 16008 42565 60000 10098 20031 38549 48508 53007 86200 92045 333 86830;
0204160080999992000063000004+45750+010520FM-12+146199999V0209999C000010090019N0150001N1+00841+00421999999ADDAA199000091GA1061+009009029GF106991061021008001001001MA1999999085591MD1110101+9999ME1315189REMSYN082AAXX  30004 16008 32565 60000 10084 20042 38559 48518 51010 86200 92345 333 86830;EQDQ01  00002PRCP99
0174160080999992000063003004+45750+010520FM-12+146199999V0209999C000010090019N0150001N1+00701+00411999999ADDGA1061+009009029GF106991061021008001001001MA1999999085511MD1810081+9999ME1315109REMSYN082AAXX  30034 16008 42565 60000 10070 20041 38551 48510 58008 86200 90245 333 86830;
0223160080999992000063006004+45750+010520FM-12+146199999V0209999C000012200019N0200001N1+00601+00381999999ADDAA199000091GA1001+999999999GF100991001001999999001001IA1019KA1120N+00601MA1999999085501MD1610011+9999ME1315099REMSYN082AAXX  30064 16008 32970 00000 10060 20038 38550 48509 56001 90545 333 20060 30///;EQDQ01  00002PRCP99
0158160080999992000063009004+45750+010520FM-12+146199999V0200401N004112200019N0250001N1+01501+00001999999ADDGA1001+999999999GF100991001001999999001001MA1999999085411MD1810091+9999ME1315029REMSYN066AAXX  30094 16008 42975 00408 10150 20000 38541 48502 58009 90845;
0204160080999992000063012004+45750+010520FM-12+146199999V0200301N003110090019N0200001N1+02001-00561999999ADDAA199000091GA1061+009009059GF106991061051008001001001MA1999999085301MD1610111+9999ME1314919REMSYN082AAXX  30124 16008 32570 60306 10200 21056 38530 48491 56011 86500 91145 333 86630;EQDQ01  00002PRCP99
0174160080999992000063015004+45750+010520FM-12+146199999V0201501N004110090019N0150001N1+01601+00241999999ADDGA1071+009009059GF107991071051008001001001MA1999999085211MD1810091+9999ME1314829REMSYN082AAXX  30154 16008 42565 71508 10160 20024 38521 48482 58009 87500 91445 333 87630;
0223160080999992000063018004+45750+010520FM-12+146199999V0201801N004110090019N0150001N1+01441+00801999999ADDAA199000091GA1061+009009059GF106991061051008001001001KA1120M+02141MA1999999085201MD1610011+9999ME1314819REMSYN088AAXX  30184 16008 32565 61808 10144 20080 38520 48481 56001 86500 91745 333 10214 86630;EQDQ01  00002PRCP99
0174160080999992000063021004+45750+010520FM-12+146199999V0209999C000010090019N0150001N1+01101+00941999999ADDGA1061+009009059GF106991061051008001001001MA1999999085301MD1310101+9999ME1314909REMSYN082AAXX  30214 16008 42565 60000 10110 20094 38530 48490 53010 86500 92045 333 86630;
0204160080999992000070100004+45750+010520FM-12+146199999V0209999C000010090019N0150001N1+01021+00831999999ADDAA199000091GA1061+009009059GF106991061051008001001001MA1999999085401MD1110101+9999ME1315009REMSYN082AAXX  01004 16008 32565 60000 10102 20083 38540 48500 51010 86500 92345 333 86630;EQDQ01  00002PRCP99
0174160080999992000070103004+45750+010520FM-12+146199999V0209999C000010090019N0150001N1+00981+00751999999ADDGA1061+009009059GF106991061051008001001001MA1999999085381MD1810021+9999ME1314989REMSYN082AAXX  01034 16008 42565 60000 10098 20075 38538 48498 58002 86500 90245 333 86630;
0235160080999992000070106004+45750+010520FM-12+146199999V0209999C000010090019N0150001N1+00921+00691999999ADDAA199000091GA1051+009009059GF105991051051008001001001IA1019KA1120N+00881MA1999999085381MD1410001+9999ME1314989REMSYN094AAXX  01064 16008 32565 50000 10092 20069 38538 48498 54000 85500 90545 333 20088 30/// 85630;EQDQ01  00002PRCP99
0174160080999992000070109004+45750+010520FM-12+146199999V0202101N006210090019N0150001N1+01381+00691999999ADDGA1061+009009059GF106991061051008001001001MA1999999085391MD1110011+9999ME1315009REMSYN082AAXX  01094 16008 42565 62112 10138 20069 38539 48500 51001 86500 90845 333 86630;
0204160080999992000070112004+45750+010520FM-12+146199999V0202101N006210090019N0150001N1+01621+00611999999ADDAA199000091GA1061+009009059GF106991061051008001001001MA1999999085391MD1410001+9999ME1315009REMSYN082AAXX  01124 16008 32565 62112 10162 20061 38539 48500 54000 86500 91145 333 86630;EQDQ01  00002PRCP99
0174160080999992000070115004+45750+010520FM-12+146199999V0209999C000010090019N0150001N1+01701+00881999999ADDGA1071+009009029GF107991071021008001001001MA1999999085291MD1810101+9999ME1314909REMSYN082AAXX  01154 16008 42565 70000 10170 20088 38529 48490 58010 87200 91445 333 87830;
0223160080999992000070118004+45750+010520FM-12+146199999V0201801N004110090019N0150001N1+01521+00891999999ADDAA199000091GA1061+009009029GF106991061021008001001001KA1120M+01721MA1999999085311MD1310011+9999ME1314919REMSYN088AAXX  01184 16008 32565 61808 10152 20089 38531 48491 53001 86200 91745 333 10172 86830;EQDQ01  00002PRCP99
0174160080999992000070121004+45750+010520FM-12+146199999V0209999C000010090019N0150001N1+01301+01061999999ADDGA1061+009009029GF106991061021008001001001MA1999999085461MD1210161+9999ME1315079REMSYN082AAXX  01214 16008 42565 60000 10130 20106 38546 48507 52016 86200 92045 333 86830;
0204160080999992000070200004+45750+010520FM-12+146199999V0209999C000010090019N0150001N1+01221+00951999999ADDAA199000091GA1061+009009029GF106991061021008001001001MA1999999085501MD1110041+9999ME1315109REMSYN082AAXX  02004 16008 32565 60000 10122 20095 38550 48510 51004 86200 92345 333 86830;EQDQ01  00002PRCP99
0174160080999992000070203004+45750+010520FM-12+146199999V0209999C000010090019N0100001N1+01201+00981999999ADDGA1061+009009029GF106991061021008001001001MA1999999085531MD1310031+9999ME1315139REMSYN082AAXX  02034 16008 42560 60000 10120 20098 38553 48513 53003 86200 90245 333 86830;
0235160080999992000070206004+45750+010520FM-12+146199999V0209999C000010075019N0100001N1+01181+00971999999ADDAA199000091GA1071+007509069GF107991071061008001001001IA1019KA1120N+01181MA1999999085601MD1110071+9999ME1315209REMSYN094AAXX  02064 16008 32560 70000 10118 20097 38560 48520 51007 87600 90545 333 20118 30/// 87725;EQDQ01  00002PRCP99
0174160080999992000070209004+45750+010520FM-12+146199999V0202001N004110090019N0150001N1+01501+00801999999ADDGA1061+009009059GF106991061051008001001001MA1999999085641MD1310041+9999ME1315259REMSYN082AAXX  02094 16008 42565 62008 10150 20080 38564 48525 53004 86500 90845 333 86630;
0204160080999992000070212004+45750+010520FM-12+146199999V0202101N005110090019N0150001N1+01701+00791999999ADDAA199000091GA1061+009009029GF106991061021008001001001MA1999999085631MD1810011+9999ME1315249REMSYN082AAXX  02124 16008 32565 62110 10170 20079 38563 48524 58001 86200 91145 333 86830;EQDQ01  00002PRCP99
0174160080999992000070215004+45750+010520FM-12+146199999V0202101N007210090019N0150001N1+01921+00661999999ADDGA1061+009009029GF106991061021008001001001MA1999999085581MD1710051+9999ME1315209REMSYN082AAXX  02154 16008 42565 62114 10192 20066 38558 48520 57005 86200 91445 333 86830;
0211160080999992000070218004+45750+010520FM-12+146199999V0201801N008212200019N0200001N1+01901+00871999999ADDAA199000091GA1001+999999999GF100991001001999999001001KA1999M+02001MA1999999085501MD1610081+9999ME1315129REMSYN076AAXX  02184 16008 32970 01816 10190 20087 38550 48512 56008 91745 333 10200;EQDQ01  00002PRCP99
0158160080999992000070221004+45750+010520FM-12+146199999V0201801N005112200019N0150001N1+01601+01071999999ADDGA1001+999999999GF100991001001999999001001MA1999999085501MD1410001+9999ME1315119REMSYN066AAXX  02214 16008 42965 01810 10160 20107 38550 48511 54000 92045;
0188160080999992000070300004+45750+010520FM-12+146199999V0201801N005112200019N0150001N1+01421+01171999999ADDAA199000091GA1001+999999999GF100991001001999999001001MA1999999085591MD1310091+9999ME1315199REMSYN066AAXX  03004 16008 32965 01810 10142 20117 38559 48519 53009 92345;EQDQ01  00002PRCP99
0158160080999992000070303004+45750+010520FM-12+146199999V0201801N003112200019N0150001N1+01301+01061999999ADDGA1001+999999999GF100991001001999999001001MA1999999085501MD1810091+9999ME1315109REMSYN066AAXX  03034 16008 42965 01806 10130 20106 38550 48510 58009 90245;
0223160080999992000070306004+45750+010520FM-12+146199999V0201901N003112200019N0150001N1+01301+01021999999ADDAA199000091GA1001+999999999GF100991001001999999001001IA1019KA1120N+01281MA1999999085491MD1610011+9999ME1315099REMSYN082AAXX  03064 16008 32965 01906 10130 20102 38549 48509 56001 90545 333 20128 30///;EQDQ01  00002PRCP99
0158160080999992000070309004+45750+010520FM-12+146199999V0201801N005112200019N0200001N1+01541+01021999999ADDGA1001+999999999GF100991001001999999001001MA1999999085481MD1810011+9999ME1315099REMSYN066AAXX  03094 16008 42970 01810 10154 20102 38548 48509 58001 90845;
0204160080999992000070312004+45750+010520FM-12+146199999V0201601N006710090019N0150001N1+01881+00831999999ADDAA199000091GA1051+009009059GF105991051051008001001001MA1999999085321MD1710161+9999ME1314939REMSYN082AAXX  03124 16008 32565 51613 10188 20083 38532 48493 57016 85500 91145 333 85630;EQDQ01  00002PRCP99
0174160080999992000070315004+45750+010520FM-12+146199999V0202201N010310060019N0150001N1+02001+00931999999ADDGA1061+006009029GF106991061021008001001001MA1999999085241MD1510081+9999ME1314859REMSYN082AAXX  03154 16008 42565 62220 10200 20093 38524 48485 55008 86200 91445 333 86820;
0223160080999992000070318004+45750+010520FM-12+146199999V0202001N004110060019N0150001N1+01821+01071999999ADDAA199000091GA1051+006009029GF105991051021008001001001KA1120M+02021MA1999999085181MD1810061+9999ME1314799REMSYN088AAXX  03184 16008 32565 52008 10182 20107 38518 48479 58006 85200 91745 333 10202 85820;EQDQ01  00002PRCP99
0174160080999992000070321004+45750+010520FM-12+146199999V0209999C000012200019N0150001N1+01601+01261999999ADDGA1041+006009029GF104991041021008001001001MA1999999085191MD1310011+9999ME1314809REMSYN082AAXX  03214 16008 42565 40000 10160 20126 38519 48480 53001 84200 92045 333 84820;
0204160080999992000070400004+45750+010520FM-12+146199999V0201901N002612200019N0150001N1+01481+01181999999ADDAA199000091GA1041+006009029GF104991041021008001001001MA1999999085211MD1010021+9999ME1314829REMSYN082AAXX  04004 16008 32565 41905 10148 20118 38521 48482 50002 84200 92345 333 84820;EQDQ01  00002PRCP99
0235160080999992000070406004+45750+010520FM-12+146199999V0201801N002612200019N0150001N1+01381+01061999999ADDAA199000091GA1041+004509029GF104991041021004501001001IA1019KA1120N+01361MA1999999084991MD1710101+9999ME1314609REMSYN094AAXX  04064 16008 32465 41805 10138 20106 38499 48460 57010 84200 90545 333 20136 30/// 84815;EQDQ01  00002PRCP99
0202160080999992000070415004+45750+010520FM-12+146199999V0201101N002110030019N0120001N1+01401+00881999999ADDAY191031AY261031GA1081+003009069GF108991081071004501999999MA1999999084981MD1310211+9999ME1314589MW1951REMSYN088AAXX  04154 16008 41462 81104 10140 20088 38498 48458 53021 79596 887// 91445 333 88710;
0238160080999992000070418004+45750+010520FM-12+146199999V0202301N002610045019N0180001N1+01201+00881999999ADDAA112003091AY191061AY261061GA1061+004509029GF106991061021004501001001KA1120M+02071MA1999999084991MD1110011+9999ME1314599MW1011REMSYN100AAXX  04184 16008 11468 62305 10120 20088 38499 48459 51001 60032 70196 86200 91745 333 10207 86815;
0219160080999992000070500004+45750+010520FM-12+146199999V0209999C000010030019N0120001N1+01021+00761999999ADDAA106000791AY161061AY221061GA1081+003009069GF108991081061004501999999MA1999999085121MD1110021+9999ME1314729MW1021REMSYN094AAXX  05004 16008 11462 80000 10102 20076 38512 48472 51002 69901 70262 886// 92345 333 88710;
0174160080999992000070503004+45750+010520FM-12+146199999V0200501N005110030019N0120001N1+01001+00601999999ADDGA1081+003009069GF108991081061004501999999MA1999999085131MD1310011+9999ME1314739REMSYN082AAXX  05034 16008 42462 80510 10100 20060 38513 48473 53001 886// 90245 333 88710;
0222160080999992000070506004+45750+010520FM-12+146199999V0200501N003112200019N0200001N1+00901+00501999999ADDAA112000791GA1041+006009029GF104991041021008001001001IA1019KA1120N+00901MA1999999085211MD1110081+9999ME1314819REMSYN100AAXX  05064 16008 12570 40506 10090 20050 38521 48481 51008 69902 84200 90545 333 20090 30/// 84820;
0174160080999992000070509004+45750+010520FM-12+146199999V0200401N004112200019N0200001N1+01401+00321999999ADDGA1041+006009029GF104991041021008001001001MA1999999085291MD1310081+9999ME1314909REMSYN082AAXX  05094 16008 42570 40408 10140 20032 38529 48490 53008 84200 90845 333 84820;
0220160080999992000070512004+45750+010520FM-12+146199999V0200401N002612200019N0250001N1+02101-00381999999ADDAA199000091GA1041+006009029GF104991041021008001001001MA1999999085301MD1110011+9999ME1314919REMSYN082AAXX  05124 16008 32575 40405 10210 21038 38530 48491 51000 84200 91145 333 84820;EQDQ01+000002APC3  Q02  00002PRCP99
0174160080999992000070515004+45750+010520FM-12+146199999V0209999C000010060019N0300001N1+01901+00211999999ADDGA1061+006009029GF106991061021008001001001MA1999999085261MD1810041+9999ME1314879REMSYN082AAXX  05154 16008 42580 60000 10190 20021 38526 48487 58004 86200 91445 333 86820;
0223160080999992000070518004+45750+010520FM-12+146199999V0200401N004110060019N0250001N1+01881+00171999999ADDAA199000091GA1061+006009029GF106991061021008001001001KA1120M+02281MA1999999085301MD1310051+9999ME1314919REMSYN088AAXX  05184 16008 32575 60408 10188 20017 38530 48491 53005 86200 91745 333 10228 86820;EQDQ01  00002PRCP99
0158160080999992000070521004+45750+010520FM-12+146199999V0200501N004612200019N0200001N1+01421+00401999999ADDGA1001+999999999GF100991001001999999001001MA1999999085501MD1210201+9999ME1315109REMSYN066AAXX  05214 16008 42970 00509 10142 20040 38550 48510 52020 92045;
0188160080999992000070600004+45750+010520FM-12+146199999V0200501N003612200019N0200001N1+01141+00591999999ADDAA199000091GA1001+999999999GF100991001001999999001001MA1999999085681MD1110181+9999ME1315289REMSYN066AAXX  06004 16008 32970 00507 10114 20059 38568 48528 51018 92345;EQDQ01  00002PRCP99
0158160080999992000070603004+45750+010520FM-12+146199999V0200501N003112200019N0200001N1+00981+00641999999ADDGA1001+999999999GF100991001001999999001001MA1999999085781MD1110091+9999ME1315369REMSYN066AAXX  06034 16008 42970 00506 10098 20064 38578 48536 51009 90245;
0223160080999992000070606004+45750+010520FM-12+146199999V0200501N002612200019N0250001N1+00881+00571999999ADDAA199000091GA1001+999999999GF100991001001999999001001IA1019KA1120N+00881MA1999999085781MD1410001+9999ME1315369REMSYN082AAXX  06064 16008 32975 00505 10088 20057 38578 48536 54000 90545 333 20088 30///;EQDQ01  00002PRCP99
0158160080999992000070609004+45750+010520FM-12+146199999V0200501N002612200019N0300001N1+01501+00471999999ADDGA1001+999999999GF100991001001999999001001MA1999999085791MD1310011+9999ME1315399REMSYN066AAXX  06094 16008 42980 00505 10150 20047 38579 48539 53001 90845;
0204160080999992000070612004+45750+010520FM-12+146199999V0202101N003612200019N0300001N1+01941+00431999999ADDAA199000091GA1031+007509029GF103991031011008001001001MA1999999085701MD1810091+9999ME1315319REMSYN082AAXX  06124 16008 32580 32107 10194 20043 38570 48531 58009 83100 91145 333 83825;EQDQ01  00002PRCP99
0174160080999992000070615004+45750+010520FM-12+146199999V0202001N001512200019N0300001N1+02001+00601999999ADDGA1041+009009059GF104991041041008001001001MA1999999085611MD1710101+9999ME1315229REMSYN082AAXX  06154 16008 42580 42003 10200 20060 38561 48522 57010 84400 91445 333 84630;
0223160080999992000070618004+45750+010520FM-12+146199999V0202001N002612200019N0250001N1+01961+00871999999ADDAA199000091GA1031+007509029GF103991031011008001001001KA1120M+02121MA1999999085591MD1510021+9999ME1315209REMSYN088AAXX  06184 16008 32575 32005 10196 20087 38559 48520 55002 83100 91745 333 10212 83825;EQDQ01  00002PRCP99
0158160080999992000070621004+45750+010520FM-12+146199999V0209999C000012200019N0200001N1+01461+00891999999ADDGA1001+999999999GF100991001001999999001001MA1999999085701MD1210111+9999ME1315309REMSYN066AAXX  06214 16008 42970 00000 10146 20089 38570 48530 52011 92045;
0188160080999992000070700004+45750+010520FM-12+146199999V0202101N001512200019N0200001N1+01361+00971999999ADDAA199000091GA1001+999999999GF100991001001999999001001MA1999999085721MD1110021+9999ME1315319REMSYN066AAXX  07004 16008 32970 02103 10136 20097 38572 48531 51002 92345;EQDQ01  00002PRCP99
0158160080999992000070703004+45750+010520FM-12+146199999V0201801N001512200019N0200001N1+01341+00951999999ADDGA1001+999999999GF100991001001999999001001MA1999999085611MD1810101+9999ME1315219REMSYN066AAXX  07034 16008 42970 01803 10134 20095 38561 48521 58010 90245;
0251160080999992000070706004+45750+010520FM-12+146199999V0202401N002610045019N0150001N1+01301+01011999999ADDAA199000091GA1061+004509029GF106991061021004501001001IA1019KA1120N+01281MA1999999085621MD1310011+9999ME1315219REMSYN094AAXX  07064 16008 32465 62405 10130 20101 38562 48521 53000 86200 90545 333 20128 30/// 86815;EQDQ01+000002APC3  Q02  00002PRCP99
0174160080999992000070709004+45750+010520FM-12+146199999V0202001N005110045019N0150001N1+01421+01081999999ADDGA1061+004509029GF106991061021004501001001MA1999999085441MD1810171+9999ME1315059REMSYN082AAXX  07094 16008 42465 62010 10142 20108 38544 48505 58017 86200 90845 333 86815;
0204160080999992000070712004+45750+010520FM-12+146199999V0201901N005710045019N0150001N1+01801+00941999999ADDAA199000091GA1061+004509029GF106991061021004501001001MA1999999085281MD1710171+9999ME1314889REMSYN082AAXX  07124 16008 32465 61911 10180 20094 38528 48488 57017 86200 91145 333 86815;EQDQ01  00002PRCP99
0174160080999992000070715004+45750+010520FM-12+146199999V0201901N005710045019N0150001N1+01881+00981999999ADDGA1061+004509029GF106991061021004501001001MA1999999084991MD1710291+9999ME1314609REMSYN082AAXX  07154 16008 42465 61911 10188 20098 38499 48460 57029 86200 91445 333 86815;
0223160080999992000070718004+45750+010520FM-12+146199999V0202201N002610045019N0150001N1+01781+01121999999ADDAA199000091GA1061+004509029GF106991061021004501001001KA1120M+01911MA1999999084791MD1610201+9999ME1314409REMSYN088AAXX  07184 16008 32465 62205 10178 20112 38479 48440 56020 86200 91745 333 10191 86815;EQDQ01  00002PRCP99
0202160080999992000070721004+45750+010520FM-12+146199999V0203501N005112200019N0130001N1+01001+00781999999ADDAY191031AY261031GA1031+004509029GF103991031021004501001001MA1999999085021MD1310241+9999ME1314639MW1011REMSYN088AAXX  07214 16008 41463 33510 10100 20078 38502 48463 53024 70196 83200 92045 333 83815;
0219160080999992000070800004+45750+010520FM-12+146199999V0200601N004110045019N0150001N1+01001+00841999999ADDAA106019191AY191061AY261061GA1051+004509029GF105991051021004501001001MA1999999085011MD1810021+9999ME1314619MW1291REMSYN094AAXX  08004 16008 11465 50608 10100 20084 38501 48461 58002 60191 72996 85200 92345 333 85815;
0174160080999992000070803004+45750+010520FM-12+146199999V0200601N004110045019N0150001N1+01001+00781999999ADDGA1051+004509029GF105991051021004501001001MA1999999084901MD1710111+9999ME1314519REMSYN082AAXX  08034 16008 42465 50608 10100 20078 38490 48451 57011 85200 90245 333 85815;
0222160080999992000070806004+45750+010520FM-12+146199999V0200501N002610045019N0150001N1+00901+00661999999ADDAA112019191GA1061+004509029GF106991061021004501001001IA1019KA1120N+00881MA1999999084811MD1710091+9999ME1314439REMSYN100AAXX  08064 16008 12465 60505 10090 20066 38481 48443 57009 60192 86200 90545 333 20088 30/// 86815;
0174160080999992000070809004+45750+010520FM-12+146199999V0200601N007210060019N0200001N1+01361+00601999999ADDGA1061+006009029GF106991061021008001001001MA1999999084781MD1710041+9999ME1314399REMSYN082AAXX  08094 16008 42570 60614 10136 20060 38478 48439 57004 86200 90845 333 86820;
0219160080999992000070812004+45750+010520FM-12+146199999V0200301N005710105019N0180001N1+01421+00551999999ADDAA106000191AY181061AY221061GA1071+010509029GF107991071021012501001001MA1999999084891MD1310111+9999ME1314509MW1301REMSYN094AAXX  08124 16008 11668 70311 10142 20055 38489 48450 53011 69921 73082 87200 91145 333 87835;
0193160080999992000070815004+45750+010520FM-12+146199999V0200301N005110090019N0170001N1+01401-00121999999ADDGA1071+009009029GF107991071021008001001001MA1999999084891MD1410001+9999ME1314509REMSYN082AAXX  08154 16008 42567 70310 10140 21012 38489 48450 51000 87200 91445 333 87830;EQDQ01+000012APCTEN
0210160080999992000070818004+45750+010520FM-12+146199999V0200301N003110090019N0150001N1+00941+00141999999ADDAA112000191GA1081+009009059GF108991081051008001999999KA1120M+01641MA1999999084961MD1310071+9999ME1314579REMSYN094AAXX  08184 16008 12565 80306 10094 20014 38496 48457 53007 69922 885// 91745 333 10164 88630;
0174160080999992000070821004+45750+010520FM-12+146199999V0200201N005710075019N0120001N1+00761+00091999999ADDGA1081+007509059GF108991081051008001999999MA1999999085011MD1110051+9999ME1314629REMSYN082AAXX  08214 16008 42562 80211 10076 20009 38501 48462 51005 885// 92045 333 88625;
0203160080999992000070900004+45750+010520FM-12+146199999V0200401N005112200019N0150001N1+00601-00041999999ADDAA106000791AY161061AY211061GA1001+999999999GF100991001001999999001001MA1999999085091MD1310081+9999ME1314709MW1011REMSYN078AAXX  09004 16008 11965 00410 10060 21004 38509 48470 53008 69901 70161 92345;
0174160080999992000070903004+45750+010520FM-12+146199999V0200501N006210090019N0150001N1+00461-00111999999ADDGA1051+009009059GF105991051051008001001001MA1999999085041MD1810051+9999ME1314659REMSYN082AAXX  09034 16008 42565 50512 10046 21011 38504 48465 58005 85500 90245 333 85630;
0222160080999992000070906004+45750+010520FM-12+146199999V0200801N005110090019N0180001N1+00401-00041999999ADDAA112000791GA1061+009009059GF106991061051008001001001IA1019KA1120N+00381MA1999999085081MD1310041+9999ME1314699REMSYN100AAXX  09064 16008 12568 60810 10040 21004 38508 48469 53004 69902 86500 90545 333 20038 30/// 86630;
0174160080999992000070909004+45750+010520FM-12+146199999V0200301N002612200019N0200001N1+00881+00121999999ADDGA1041+010509029GF104991041021012501001001MA1999999085051MD1810031+9999ME1314669REMSYN082AAXX  09094 16008 42670 40305 10088 20012 38505 48466 58003 84200 90845 333 84835;
0204160080999992000070912004+45750+010520FM-12+146199999V0200301N001510105019N0200001N1+01301-00761999999ADDAA199000091GA1081+010509059GF108991081051012501999999MA1999999084951MD1610111+9999ME1314569REMSYN082AAXX  09124 16008 32670 80303 10130 21076 38495 48456 56011 885// 91145 333 88635;EQDQ01  00002PRCP99
0174160080999992000070915004+45750+010520FM-12+146199999V0209999C000010105019N0200001N1+01381-00341999999ADDGA1081+010509059GF108991081051012501999999MA1999999084781MD1810161+9999ME1314399REMSYN082AAXX  09154 16008 42670 80000 10138 21034 38478 48439 58016 885// 91445 333 88635;
0223160080999992000070918004+45750+010520FM-12+146199999V0201801N003610090019N0180001N1+01161-00331999999ADDAA199000091GA1081+009009059GF108991081051008001999999KA1120M+01541MA1999999084721MD1610061+9999ME1314349REMSYN088AAXX  09184 16008 32568 81807 10116 21033 38472 48434 56006 885// 91745 333 10154 88630;EQDQ01  00002PRCP99
0174160080999992000070921004+45750+010520FM-12+146199999V0201701N002110090019N0170001N1+01021+00031999999ADDGA1081+009009059GF108991081051008001999999MA1999999084691MD1810031+9999ME1314319REMSYN082AAXX  09214 16008 42567 81704 10102 20003 38469 48431 58003 885// 92045 333 88630;
0232160080999992000071000004+45750+010520FM-12+146199999V0201701N002610060019N0070001N1+00901+00351999999ADDAA199000091AY121061AY221061GA1081+006009069GF108991081061008001999999MA1999999084641MD1610051+9999ME1314269MW1101REMSYN088AAXX  10004 16008 31557 81705 10090 20035 38464 48426 56005 71022 886// 92345 333 88720;EQDQ01  00002PRCP99
0202160080999992000071003004+45750+010520FM-12+146199999V0201801N002610060019N0040001N1+00821+00461999999ADDAY121031AY221031GA1081+006009069GF108991081061008001999999MA1999999084521MD1810131+9999ME1314149MW1101REMSYN088AAXX  10034 16008 41540 81805 10082 20046 38452 48414 58013 71022 886// 90245 333 88720;
0263160080999992000071006004+45750+010520FM-12+146199999V0201901N004610060019N0040001N1+00741+00461999999ADDAA199000091AY121061AY221061GA1081+006009069GF108991081061008001999999IA1019KA1120N+00721MA1999999084471MD1610041+9999ME1314109MW1101REMSYN100AAXX  10064 16008 31540 81909 10074 20046 38447 48410 56004 71022 886// 90545 333 20072 30/// 88720;EQDQ01  00002PRCP99
0202160080999992000071009004+45750+010520FM-12+146199999V0202101N006710075019N0040001N1+01021+00551999999ADDAY121031AY221031GA1061+007509059GF106991061051008001001001MA1999999084361MD1810121+9999ME1313989MW1101REMSYN088AAXX  10094 16008 41540 62113 10102 20055 38436 48398 58012 71022 86500 90845 333 86625;
0204160080999992000071012004+45750+010520FM-12+146199999V0202201N008710090019N0110001N1+01341+00501999999ADDAA199000091GA1071+009009029GF107991071021008001001001MA1999999084271MD1610081+9999ME1313899REMSYN082AAXX  10124 16008 32561 72217 10134 20050 38427 48389 56008 87200 91145 333 87830;EQDQ01  00002PRCP99
0174160080999992000071015004+45750+010520FM-12+146199999V0202101N009310090019N0140001N1+01261+00551999999ADDGA1081+009009059GF108991081051008001999999MA1999999084251MD1810021+9999ME1313879REMSYN082AAXX  10154 16008 42564 82118 10126 20055 38425 48387 58002 885// 91445 333 88630;
0238160080999992000071018004+45750+010520FM-12+146199999V0201701N003110075019N0030001N1+01001+00831999999ADDAA112000591AY161061AY221061GA1081+007509069GF108991081071008001999999KA1120M+01421MA1999999084191MD1610061+9999ME1313829MW1621REMSYN100AAXX  10184 16008 11530 81706 10100 20083 38419 48382 56006 69962 76262 887// 91745 333 10142 88725;
0202160080999992000071021004+45750+010520FM-12+146199999V0202201N007710030019N0015001N1+00821+00521999999ADDAY161031AY221031GA1081+003009069GF108991081071004501999999MA1999999084231MD1310041+9999ME1313869MW1641REMSYN088AAXX  10214 16008 41415 82215 10082 20052 38423 48386 53004 76462 887// 92045 333 88710;
0219160080999992000071100004+45750+010520FM-12+146199999V0209999C000010075019N0060001N1+00601+00241999999ADDAA106021191AY161061AY221061GA1081+007509069GF108991081061008001999999MA1999999084111MD1810121+9999ME1313759MW1211REMSYN094AAXX  11004 16008 11556 80000 10060 20024 38411 48375 58012 60211 72162 886// 92345 333 88725;
0202160080999992000071103004+45750+010520FM-12+146199999V0200801N004110045019N0060001N1+00561+00191999999ADDAY161031AY221031GA1081+004509069GF108991081071004501999999MA1999999083961MD1710151+9999ME1313609MW1101REMSYN088AAXX  11034 16008 41456 80808 10056 20019 38396 48360 57015 71062 887// 90245 333 88715;
0250160080999992000071106004+45750+010520FM-12+146199999V0200401N003610060019N0020001N1+00361+00041999999ADDAA112029091AY161061AY261061GA1081+006009069GF108991081071008001999999IA1119KA1120N+00361MA1999999084011MD1310051+9999ME1313669MW1631REMSYN106AAXX  11064 16008 11520 80407 10036 20004 38401 48366 53005 60292 76366 887// 90545 333 20036 32/// 88720;
0202160080999992000071109004+45750+010520FM-12+146199999V0200501N002610060019N0025001N1+00341-00051999999ADDAY161031AY261031GA1081+006009069GF108991081071008001999999MA1999999084121MD1110111+9999ME1313769MW1601REMSYN088AAXX  11094 16008 41525 80505 10034 21005 38412 48376 51011 76066 887// 90845 333 88720;
0225160080999992000071112004+45750+010520FM-12+146199999V0200401N003610120019N0150001N1+00881+00171999999ADDAA106003091AY161061AY221061GA1031+006009089GF106991061081008001001001MA1999999084001MD1810121+9999ME1313639MW1011REMSYN100AAXX  11124 16008 11565 60407 10088 20017 38400 48363 58012 60031 70162 86800 91145 333 83820 85640;
0174160080999992000071115004+45750+010520FM-12+146199999V0200501N004610090019N0180001N1+01061-00121999999ADDGA1081+009009059GF108991081051008001999999MA1999999084051MD1310051+9999ME1313679REMSYN082AAXX  11154 16008 42568 80509 10106 21012 38405 48367 53005 885// 91445 333 88630;
0238160080999992000071118004+45750+010520FM-12+146199999V0209999C000010075019N0025001N1+00601+00241999999ADDAA112004191AY161061AY221061GA1081+007509069GF108991081071008001999999KA1120M+01101MA1999999084191MD1210141+9999ME1313839MW1621REMSYN100AAXX  11184 16008 11525 80000 10060 20024 38419 48383 52014 60042 76262 887// 91745 333 10110 88725;
0202160080999992000071121004+45750+010520FM-12+146199999V0200501N004110075019N0020001N1+00301+00021999999ADDAY161031AY261031GA1081+007509069GF108991081071008001999999MA1999999084321MD1210131+9999ME1313969MW1601REMSYN088AAXX  11214 16008 41520 80508 10030 20002 38432 48396 52013 76066 887// 92045 333 88725;
0219160080999992000071200004+45750+010520FM-12+146199999V0200301N003610030019N0020001N1+00161-00061999999ADDAA106011991AY161061AY261061GA1081+003009069GF108991081071004501999999MA1999999084441MD1210121+9999ME1314089MW1621REMSYN094AAXX  12004 16008 11420 80307 10016 21006 38444 48408 52012 60121 76266 887// 92345 333 88710;
0202160080999992000071203004+45750+010520FM-12+146199999V0200501N002110120019N0120001N1+00101-00181999999ADDAY161031AY221031GA1081+012009059GF108991081051012501999999MA1999999084521MD1110081+9999ME1314159MW1021REMSYN088AAXX  12034 16008 41662 80504 10010 21018 38452 48415 51008 70262 885// 90245 333 88640;
0180160080999992000071209004+45750+010520FM-12+146199999V0200801N00571012001CN0200001N1+00521-00141999999ADDGA1021+006009089GF105991051081008001001001MA1999999084921MD1210181+9999ME1314539REMSYN088AAXX  12094 16008 42570 50811 10052 21014 38492 48453 52018 85800 90845 333 82820 85635;
0191160080999992000071212004+45750+010520FM-12+146199999V0200401N00411007501CN0200001N1+01281-00611999999ADDAA199000021GA1041+009009089GF105991051021008001011001MA1999999085011MD1110091+9999ME1314619REMSYN088AAXX  12124 16008 32570 50408 10128 21061 38501 48461 51009 85210 91145 333 84830 84458;
0180160080999992000071215004+45750+010520FM-12+146199999V0200301N00621036001CN0180001N1+01081-00511999999ADDGA1031+009009089GF108991031021008001011999MA1999999085011MD1410001+9999ME1314619REMSYN088AAXX  12154 16008 42568 80312 10108 21051 38501 48461 54000 8321/ 91445 333 83830 88457;
0229160080999992000071218004+45750+010520FM-12+146199999V0200301N007210105019N0200001N1+00841-00441999999ADDAA199000091GA1051+010509069GF106991061051012501011001KA1120M+01321MA1999999085121MD1310111+9999ME1314729REMSYN094AAXX  12184 16008 32670 60314 10084 21044 38512 48472 53011 86510 91745 333 10132 85635 84457;EQDQ01  00002PRCP99
0174160080999992000071221004+45750+010520FM-12+146199999V0200601N003112200019N0200001N1+00501-00091999999ADDGA1031+010509029GF103991031021012501001001MA1999999085291MD1110171+9999ME1314889REMSYN082AAXX  12214 16008 42670 30606 10050 21009 38529 48488 51017 83200 92045 333 83835;
0204160080999992000071300004+45750+010520FM-12+146199999V0200801N003612200019N0200001N1+00401-00111999999ADDAA199000091GA1031+010509029GF103991031021012501001001MA1999999085281MD1810011+9999ME1314879REMSYN082AAXX  13004 16008 32670 30807 10040 21011 38528 48487 58001 83200 92345 333 83835;EQDQ01  00002PRCP99
0202160080999992000071303004+45750+010520FM-12+146199999V0209999C000010090019N0110001N1+00341-00071999999ADDAY161031AY211031GA1051+009009029GF105991051021008001001001MA1999999085331MD1310051+9999ME1314929MW1031REMSYN088AAXX  13034 16008 41561 50000 10034 21007 38533 48492 53005 70361 85200 90245 333 85830;
0269160080999992000071306004+45750+010520FM-12+146199999V0209999C999992200019N0200001N1+00241-00201999999ADDAA112000791AY161061AY211061GA1031+009009029GF103991031021008001001001IA1099KA1120N+00221MA1999999085401MD1110071+9999ME1314999MW1011REMSYN106AAXX  13064 16008 11570 30070 10024 21020 38540 48499 51007 69902 70161 83200 90545 333 20022 31/// 83830;EQDQ01+003603WOSPD 
0174160080999992000071309004+45750+010520FM-12+146199999V0200301N003610105019N0170001N1+00781-00891999999ADDGA1051+010509029GF105991051021012501001001MA1999999085391MD1810011+9999ME1314999REMSYN082AAXX  13094 16008 42667 50307 10078 21089 38539 48499 58001 85200 90845 333 85835;
0204160080999992000071312004+45750+010520FM-12+146199999V0209999C000012200019N0170001N1+01161-01201999999ADDAA199000091GA1041+012009029GF104991041021012501001001MA1999999085361MD1610031+9999ME1314979REMSYN082AAXX  13124 16008 32667 40000 10116 21120 38536 48497 56003 84200 91145 333 84840;EQDQ01  00002PRCP99
0174160080999992000071315004+45750+010520FM-12+146199999V0200201N004112200019N0250001N1+01221-01201999999ADDGA1041+012009029GF104991041011012501001001MA1999999085271MD1810091+9999ME1314889REMSYN082AAXX  13154 16008 42675 40208 10122 21120 38527 48488 58009 84100 91445 333 84840;
0223160080999992000071318004+45750+010520FM-12+146199999V0209999C00001007501CN0250001N1+01081-00731999999ADDAA199000091GA1031+009009029GF107991071011008001001081KA1120M+01281MA1999999085201MD1710081+9999ME1314809REMSYN088AAXX  13184 16008 32575 70000 10108 21073 38520 48480 57008 87108 91745 333 10128 83830;EQDQ01  00002PRCP99
0180160080999992000071321004+45750+010520FM-12+146199999V0209999C00001007501CN0250001N1+00741+00071999999ADDGA1021+009009089GF106991061011008001011001MA1999999085211MD1310011+9999ME1314819REMSYN088AAXX  13214 16008 42575 60000 10074 20007 38521 48481 53001 86110 92045 333 82830 86459;
0178160080999992000071400004+45750+010520FM-12+146199999V0209999C000019999999N0250001N1+00721-00011999999ADDAA199000091GF108991001001999999001071MA1999999085121MD1810091+9999ME1314739REMSYN072AAXX  14004 16008 32975 80000 10072 21001 38512 48473 58009 80007 92345;EQDQ01  00002PRCP99
0174160080999992000071403004+45750+010520FM-12+146199999V0200501N004110270019N0250001N1+00621+00181999999ADDGA1061+027009019GF106991061001999999011001MA1999999085051MD1710071+9999ME1314669REMSYN082AAXX  14034 16008 42975 60508 10062 20018 38505 48466 57007 86010 90245 333 86459;
0235160080999992000071406004+45750+010520FM-12+146199999V0209999C000010120019N0250001N1+00521+00191999999ADDAA199000091GA1061+012009059GF106991061051012501001001IA1019KA1120N+00481MA1999999084941MD1710111+9999ME1314559REMSYN094AAXX  14064 16008 32675 60000 10052 20019 38494 48455 57011 86500 90545 333 20048 30/// 86640;EQDQ01  00002PRCP99
0180160080999992000071409004+45750+010520FM-12+146199999V0200401N00411036001CN0200001N1+00801+00361999999ADDGA1021+009009089GF108991021021008001021999MA1999999084801MD1710141+9999ME1314419REMSYN088AAXX  14094 16008 42570 80408 10080 20036 38480 48441 57014 8222/ 90845 333 82830 88456;
0204160080999992000071412004+45750+010520FM-12+146199999V0200501N002610120019N0200001N1+01021+00151999999ADDAA199000091GA1081+012009059GF108991081051012501999999MA1999999084691MD1710111+9999ME1314309REMSYN082AAXX  14124 16008 32670 80505 10102 20015 38469 48430 57011 885// 91145 333 88640;EQDQ01  00002PRCP99
0202160080999992000071415004+45750+010520FM-12+146199999V0209999C000010090019N0150001N1+00881+00501999999ADDAY161031AY211031GA1071+009009059GF107991071051008001001001MA1999999084611MD1710081+9999ME1314239MW1021REMSYN088AAXX  14154 16008 41565 70000 10088 20050 38461 48423 57008 70261 87500 91445 333 87630;
0238160080999992000071418004+45750+010520FM-12+146199999V0200501N002610090019N0150001N1+00861+00231999999ADDAA112000591AY161061AY221061GA1081+009009059GF108991081051008001999999KA1120M+01041MA1999999084501MD1710111+9999ME1314129MW1021REMSYN100AAXX  14184 16008 11565 80505 10086 20023 38450 48412 57011 69942 70262 885// 91745 333 10104 88630;
0174160080999992000071421004+45750+010520FM-12+146199999V0209999C000010090019N0150001N1+00601+00191999999ADDGA1081+009009059GF108991081051008001999999MA1999999084551MD1310051+9999ME1314179REMSYN082AAXX  14214 16008 42565 80000 10060 20019 38455 48417 53005 885// 92045 333 88630;
0191160080999992000071500004+45750+010520FM-12+146199999V0209999C000010105019N0150001N1+00501+00151999999ADDAA106000191GA1071+010509059GF107991071051012501001001MA1999999084531MD1610021+9999ME1314169REMSYN088AAXX  15004 16008 12665 70000 10050 20015 38453 48416 56002 69921 87500 92345 333 87635;
0174160080999992000071503004+45750+010520FM-12+146199999V0200601N003112200019N0150001N1+00421+00081999999ADDGA1041+010509059GF104991041041012501001001MA1999999084531MD1410001+9999ME1314169REMSYN082AAXX  15034 16008 42665 40606 10042 20008 38453 48416 54000 84400 90245 333 84635;
0222160080999992000071506004+45750+010520FM-12+146199999V0200601N00361007501CN0150001N1+00361-00041999999ADDAA112000191GA1031+009009059GF105991051051008001001021IA1099KA1120N+00361MA1999999084521MD1810011+9999ME1314159REMSYN100AAXX  15064 16008 12565 50607 10036 21004 38452 48415 58001 69922 85502 90545 333 20036 31/// 83630;
0174160080999992000071509004+45750+010520FM-12+146199999V0200401N004610090019N0200001N1+00601-00111999999ADDGA1071+009009059GF107991071041008001001001MA1999999084551MD1310031+9999ME1314179REMSYN082AAXX  15094 16008 42570 70409 10060 21011 38455 48417 53003 87400 90845 333 87630;
0204160080999992000071512004+45750+010520FM-12+146199999V0200401N006710090019N0200001N1+01061-00431999999ADDAA199000091GA1061+009009029GF106991061021008001001001MA1999999084501MD1810051+9999ME1314129REMSYN082AAXX  15124 16008 32570 60413 10106 21043 38450 48412 58005 86200 91145 333 86830;EQDQ01  00002PRCP99
0223160080999992000071518004+45750+010520FM-12+146199999V0200201N008712200019N0200001N1+00781-00401999999ADDAA199000091GA1021+009009029GF102991021021008001001001KA1120M+01241MA1999999084571MD1310081+9999ME1314199REMSYN088AAXX  15184 16008 32570 20217 10078 21040 38457 48419 53008 82200 91745 333 10124 82830;EQDQ01  00002PRCP99
0204160080999992000071600004+45750+010520FM-12+146199999V0200701N002610120019N0200001N1+00401-00161999999ADDAA199000091GA1061+012009059GF106991061051012501001001MA1999999084801MD1210111+9999ME1314429REMSYN082AAXX  16004 16008 32670 60705 10040 21016 38480 48442 52011 86500 92345 333 86640;EQDQ01  00002PRCP99
0174160080999992000071603004+45750+010520FM-12+146199999V0200601N005112200019N0200001N1+00321-00101999999ADDGA1021+012009029GF102991021011012501001001MA1999999084731MD1610071+9999ME1314359REMSYN082AAXX  16034 16008 42670 20610 10032 21010 38473 48435 56007 82100 90245 333 82840;
0235160080999992000071606004+45750+010520FM-12+146199999V0209999C000010120019N0200001N1+00261-00101999999ADDAA199000091GA1061+012009059GF106991061051012501001001IA1019KA1120N+00221MA1999999084781MD1310051+9999ME1314409REMSYN094AAXX  16064 16008 32670 60000 10026 21010 38478 48440 53005 86500 90545 333 20022 30/// 86640;EQDQ01  00002PRCP99
0174160080999992000071615004+45750+010520FM-12+146199999V0200501N005712200019N0250001N1+01081-00511999999ADDGA1031+009009029GF103991031021008001001001MA1999999084961MD1410001+9999ME1314579REMSYN082AAXX  16154 16008 42575 30511 10108 21051 38496 48457 54000 83200 91445 333 83830;
0223160080999992000071618004+45750+010520FM-12+146199999V0200401N006212200019N0250001N1+01081-00701999999ADDAA199000091GA1031+009009029GF103991031021008001001001KA1120M+01321MA1999999085051MD1310091+9999ME1314659REMSYN088AAXX  16184 16008 32575 30412 10108 21070 38505 48465 53009 83200 91745 333 10132 83830;EQDQ01  00002PRCP99
0174160080999992000071621004+45750+010520FM-12+146199999V0209999C000012200019N0200001N1+00661-00291999999ADDGA1041+009009059GF104991041051008001001001MA1999999085291MD1210251+9999ME1314899REMSYN082AAXX  16214 16008 42570 40000 10066 21029 38529 48489 52025 84500 92045 333 84630;
0204160080999992000071700004+45750+010520FM-12+146199999V0200601N005112200019N0200001N1+00541-00161999999ADDAA199000091GA1041+009009029GF104991041021008001001001MA1999999085321MD1110021+9999ME1314919REMSYN082AAXX  17004 16008 32570 40610 10054 21016 38532 48491 51002 84200 92345 333 84830;EQDQ01  00002PRCP99
0158160080999992000071703004+45750+010520FM-12+146199999V0209999C000012200019N0200001N1+00261-00071999999ADDGA1001+999999999GF100991001001999999001001MA1999999085371MD1210051+9999ME1314969REMSYN066AAXX  17034 16008 42970 00000 10026 21007 38537 48496 52005 90245;
0223160080999992000071706004+45750+010520FM-12+146199999V0209999C000012200019N0250001N1+00141-00141999999ADDAA199000091GA1001+999999999GF100991001001999999001001IA1019KA1120N+00141MA1999999085491MD1210121+9999ME1315079REMSYN082AAXX  17064 16008 32975 00000 10014 21014 38549 48507 52012 90545 333 20014 30///;EQDQ01  00002PRCP99
0174160080999992000071709004+45750+010520FM-12+146199999V0200401N004112200019N0250001N1+00701-00231999999ADDGA1021+009009029GF104991041021008001001081MA1999999085421MD1810061+9999ME1315029REMSYN082AAXX  17094 16008 42575 40408 10070 21023 38542 48502 58006 84208 90845 333 82830;
0204160080999992000071712004+45750+010520FM-12+146199999V0209999C000010120019N0250001N1+01521-00751999999ADDAA199000091GA1071+012009059GF107991071041012501001001MA1999999085321MD1710111+9999ME1314929REMSYN082AAXX  17124 16008 32675 70000 10152 21075 38532 48492 57011 87400 91145 333 87640;EQDQ01  00002PRCP99
0208160080999992000071715004+45750+010520FM-12+146199999V0209999C000010075019N0200001N1+01021+00331999999ADDAY161031AY221031GA1021+006009089GF107991071021008001001001MA1999999085401MD1310081+9999ME1315009MW1601REMSYN094AAXX  17154 16008 41570 70000 10102 20033 38540 48500 53008 76062 87200 91445 333 82820 86825;
0244160080999992000071718004+45750+010520FM-12+146199999V0209999C00001036001CN0070001N1+00781+00521999999ADDAA112002091AY161061AY221061GA1041+006009089GF106991041021008001011001KA1120M+01641MA1999999085591MD1210191+9999ME1315189MW1101REMSYN106AAXX  17184 16008 11557 60000 10078 20052 38559 48518 52019 60022 71062 84210 91745 333 10164 84820 86450;
0180160080999992000071721004+45750+010520FM-12+146199999V0209999C00001012001CN0120001N1+00621+00351999999ADDGA1031+009009089GF106991061081008001001001MA1999999085631MD1210031+9999ME1315219REMSYN088AAXX  17214 16008 42562 60000 10062 20035 38563 48521 52003 86800 92045 333 83830 85635;
0185160080999992000071800004+45750+010520FM-12+146199999V0209999C000012200019N0150001N1+00501+00281999999ADDAA199000021GA1021+009009029GF102991021011008001001001MA1999999085711MD1210081+9999ME1315299REMSYN082AAXX  18004 16008 32565 20000 10050 20028 38571 48529 52008 82100 92345 333 82830;
0158160080999992000071803004+45750+010520FM-12+146199999V0209999C000012200019N0150001N1+00301+00151999999ADDGA1001+999999999GF100991001001999999001001MA1999999085691MD1810021+9999ME1315279REMSYN066AAXX  18034 16008 42965 00000 10030 20015 38569 48527 58002 90245;
0223160080999992000071806004+45750+010520FM-12+146199999V0209999C000012200019N0300001N1+00281+00071999999ADDAA199000091GA1001+999999999GF100991001001999999001001IA1099KA1120N+00281MA1999999085631MD1610061+9999ME1315219REMSYN082AAXX  18064 16008 32980 00000 10028 20007 38563 48521 56006 90545 333 20028 31///;EQDQ01  00002PRCP99
0174160080999992000071809004+45750+010520FM-12+146199999V0200301N004112200019N0300001N1+01081+00101999999ADDGA1021+009009029GF102991021011008001001001MA1999999085591MD1810041+9999ME1315199REMSYN082AAXX  18094 16008 42580 20308 10108 20010 38559 48519 58004 82100 90845 333 82830;
0204160080999992000071812004+45750+010520FM-12+146199999V0200301N003612200019N0350001N1+01741-00861999999ADDAA199000091GA1011+009009029GF104991011011008001001011MA1999999085481MD1610121+9999ME1315099REMSYN082AAXX  18124 16008 32581 40307 10174 21086 38548 48509 56012 81101 91145 333 81830;EQDQ01  00002PRCP99
0158160080999992000071815004+45750+010520FM-12+146199999V0200301N004612200019N0350001N1+01761-01361999999ADDGA1001+999999999GF100991001001999999001001MA1999999085391MD1810091+9999ME1315009REMSYN066AAXX  18154 16008 42981 00309 10176 21136 38539 48500 58009 91445;
0223160080999992000071818004+45750+010520FM-12+146199999V0200201N003112200019N0350001N1+01381-00811999999ADDAA199000091GA1021+009009029GF102991021011008001001001KA1120M+01861MA1999999085391MD1610011+9999ME1314999REMSYN088AAXX  18184 16008 32581 20206 10138 21081 38539 48499 56001 82100 91745 333 10186 82830;EQDQ01  00002PRCP99
0158160080999992000071821004+45750+010520FM-12+146199999V0209999C000012200019N0300001N1+00881+00071999999ADDGA1001+999999999GF100991001001999999001001MA1999999085501MD1310111+9999ME1315099REMSYN066AAXX  18214 16008 42980 00000 10088 20007 38550 48509 53011 92045;
0204160080999992000071900004+45750+010520FM-12+146199999V0209999C000010075019N0200001N1+00721+00151999999ADDAA199000091GA1061+007509029GF106991061011008001001001MA1999999085591MD1110091+9999ME1315189REMSYN082AAXX  19004 16008 32570 60000 10072 20015 38559 48518 51009 86100 92345 333 86825;EQDQ01  00002PRCP99
0174160080999992000071903004+45750+010520FM-12+146199999V0209999C000010075019N0200001N1+00541+00131999999ADDGA1061+007509029GF106991061011008001001001MA1999999085541MD1810051+9999ME1315139REMSYN082AAXX  19034 16008 42570 60000 10054 20013 38554 48513 58005 86100 90245 333 86825;
0235160080999992000071906004+45750+010520FM-12+146199999V0209999C000012200019N0200001N1+00641+00131999999ADDAA199000091GA1041+009009029GF104991041011008001001001IA1019KA1120N+00441MA1999999085501MD1610041+9999ME1315099REMSYN094AAXX  19064 16008 32570 40000 10064 20013 38550 48509 56004 84100 90545 333 20044 30/// 84830;EQDQ01  00002PRCP99
0174160080999992000071909004+45750+010520FM-12+146199999V0200401N004112200019N0200001N1+01421-00211999999ADDGA1041+007509029GF104991041011008001001001MA1999999085491MD1810021+9999ME1315099REMSYN082AAXX  19094 16008 42570 40408 10142 21021 38549 48509 58002 84100 90845 333 84825;
0204160080999992000071912004+45750+010520FM-12+146199999V0200501N004110075019N0200001N1+01641-00491999999ADDAA199000091GA1061+007509029GF106991061011008001001001MA1999999085421MD1610071+9999ME1315029REMSYN082AAXX  19124 16008 32570 60508 10164 21049 38542 48502 56007 86100 91145 333 86825;EQDQ01  00002PRCP99
0174160080999992000071915004+45750+010520FM-12+146199999V0200301N006210060019N0200001N1+01401-00251999999ADDGA1061+006009029GF106991061011008001001001MA1999999085481MD1310071+9999ME1315099REMSYN082AAXX  19154 16008 42570 60312 10140 21025 38548 48509 53007 86100 91445 333 86820;
0223160080999992000071918004+45750+010520FM-12+146199999V0200301N004610060019N0180001N1+01301-00181999999ADDAA199000091GA1061+006009029GF106991061011008001001001KA1120M+01881MA1999999085491MD1110011+9999ME1315099REMSYN088AAXX  19184 16008 32568 60309 10130 21018 38549 48509 51001 86100 91745 333 10188 86820;EQDQ01  00002PRCP99
0174160080999992000071921004+45750+010520FM-12+146199999V0200501N002110060019N0180001N1+01081+00001999999ADDGA1051+006009029GF105991051011008001001001MA1999999085601MD1310111+9999ME1315199REMSYN082AAXX  19214 16008 42568 50504 10108 20000 38560 48519 53011 85100 92045 333 85820;
0188160080999992000072000004+45750+010520FM-12+146199999V0200501N002612200019N0150001N1+00801+00181999999ADDAA199000091GA1001+999999999GF100991001001999999001001MA1999999085631MD1110031+9999ME1315229REMSYN066AAXX  20004 16008 32965 00505 10080 20018 38563 48522 51003 92345;EQDQ01  00002PRCP99
0148160080999992000072003004+45750+010520FM-12+146199999V0209999C000012200019N0150001N1+00541+00221999999ADDGF104991001001999999001011MA1999999085641MD1110011+9999ME1315229REMSYN072AAXX  20034 16008 42965 40000 10054 20022 38564 48522 51001 80001 90245;
0213160080999992000072006004+45750+010520FM-12+146199999V0200401N003119999999N0180001N1+00561+00221999999ADDAA199000091GF105991001001999999001011IA1019KA1120N+00521MA1999999085621MD1810021+9999ME1315209REMSYN088AAXX  20064 16008 32968 50406 10056 20022 38562 48520 58002 80001 90545 333 20052 30///;EQDQ01  00002PRCP99
0148160080999992000072009004+45750+010520FM-12+146199999V0200601N007719999999N0200001N1+01241+00041999999ADDGF107991001001999999001011MA1999999085621MD1610011+9999ME1315219REMSYN072AAXX  20094 16008 42970 70615 10124 20004 38562 48521 56001 80001 90845;
0178160080999992000072012004+45750+010520FM-12+146199999V0200301N005719999999N0250001N1+01721-00401999999ADDAA199000091GF107991001001999999001021MA1999999085541MD1810081+9999ME1315149REMSYN072AAXX  20124 16008 32975 70311 10172 21040 38554 48514 58008 80002 91145;EQDQ01  00002PRCP99
0174160080999992000072015004+45750+010520FM-12+146199999V0200501N005710060019N0250001N1+01881-00481999999ADDGA1061+006009029GF106991061011008001001001MA1999999085471MD1610071+9999ME1315089REMSYN082AAXX  20154 16008 42575 60511 10188 21048 38547 48508 56007 86100 91445 333 86820;
0223160080999992000072018004+45750+010520FM-12+146199999V0200301N004112200019N0250001N1+01481-00211999999ADDAA199000091GA1021+007509029GF102991021011008001001001KA1120M+01981MA1999999085571MD1310101+9999ME1315179REMSYN088AAXX  20184 16008 32575 20308 10148 21021 38557 48517 53010 82100 91745 333 10198 82825;EQDQ01  00002PRCP99
0158160080999992000072021004+45750+010520FM-12+146199999V0200501N004112200019N0250001N1+01101+00131999999ADDGA1001+999999999GF100991001001999999001001MA1999999085741MD1210181+9999ME1315339REMSYN066AAXX  20214 16008 42975 00508 10110 20013 38574 48533 52018 92045;
0188160080999992000072100004+45750+010520FM-12+146199999V0200401N002612200019N0200001N1+00801+00381999999ADDAA199000091GA1001+999999999GF100991001001999999001001MA1999999085881MD1210131+9999ME1315459REMSYN066AAXX  21004 16008 32970 00405 10080 20038 38588 48545 52013 92345;EQDQ01  00002PRCP99
0158160080999992000072103004+45750+010520FM-12+146199999V0200501N002112200019N0200001N1+00601+00351999999ADDGA1001+999999999GF100991001001999999001001MA1999999085891MD1110011+9999ME1315469REMSYN066AAXX  21034 16008 42970 00504 10060 20035 38589 48546 51001 90245;
0235160080999992000072106004+45750+010520FM-12+146199999V0200501N003612200019N0200001N1+00541+00281999999ADDAA199000091GA1011+007509029GF101991011011008001001001IA1019KA1120N+00501MA1999999085881MD1810011+9999ME1315459REMSYN094AAXX  21064 16008 32570 10507 10054 20028 38588 48545 58001 81100 90545 333 20050 30/// 81825;EQDQ01  00002PRCP99
0174160080999992000072109004+45750+010520FM-12+146199999V0200301N005112200019N0230001N1+01341-00141999999ADDGA1031+006009029GF103991031011008001001001MA1999999085871MD1610011+9999ME1315479REMSYN082AAXX  21094 16008 42573 30310 10134 21014 38587 48547 56001 83100 90845 333 83820;
0204160080999992000072112004+45750+010520FM-12+146199999V0200301N006212200019N0200001N1+01861-00611999999ADDAA199000091GA1021+007509029GF102991021011008001001001MA1999999085801MD1810081+9999ME1315419REMSYN082AAXX  21124 16008 32570 20312 10186 21061 38580 48541 58008 82100 91145 333 82825;EQDQ01  00002PRCP99
0174160080999992000072115004+45750+010520FM-12+146199999V0200301N005112200019N0250001N1+01921-00521999999ADDGA1031+007509029GF103991031011008001001001MA1999999085731MD1710071+9999ME1315349REMSYN082AAXX  21154 16008 42575 30310 10192 21052 38573 48534 57007 83100 91445 333 83825;
0158160080999992000072121004+45750+010520FM-12+146199999V0209999C000012200019N0200001N1+01201+00331999999ADDGA1001+999999999GF100991001001999999001001MA1999999085801MD1310071+9999ME1315399REMSYN066AAXX  21214 16008 42970 00000 10120 20033 38580 48539 53007 92045;
0188160080999992000072200004+45750+010520FM-12+146199999V0200301N003112200019N0200001N1+00861+00381999999ADDAA199000091GA1001+999999999GF100991001001999999001001MA1999999085881MD1110081+9999ME1315469REMSYN066AAXX  22004 16008 32970 00306 10086 20038 38588 48546 51008 92345;EQDQ01  00002PRCP99
0158160080999992000072203004+45750+010520FM-12+146199999V0200501N002112200019N0200001N1+00681+00351999999ADDGA1001+999999999GF100991001001999999001001MA1999999085831MD1810051+9999ME1315409REMSYN066AAXX  22034 16008 42970 00504 10068 20035 38583 48540 58005 90245;
0223160080999992000072206004+45750+010520FM-12+146199999V0200501N002612200019N0200001N1+00601+00311999999ADDAA199000091GA1001+999999999GF100991001001999999001001IA1019KA1120N+00541MA1999999085771MD1610061+9999ME1315349REMSYN082AAXX  22064 16008 32970 00505 10060 20031 38577 48534 56006 90545 333 20054 30///;EQDQ01  00002PRCP99
0158160080999992000072209004+45750+010520FM-12+146199999V0200301N004112200019N0200001N1+01301+00461999999ADDGA1001+999999999GF100991001001999999001001MA1999999085681MD1710091+9999ME1315279REMSYN066AAXX  22094 16008 42970 00308 10130 20046 38568 48527 57009 90845;
0204160080999992000072212004+45750+010520FM-12+146199999V0202101N005712200019N0200001N1+01741+00521999999ADDAA199000091GA1031+007509029GF103991031011008001001001MA1999999085571MD1710111+9999ME1315179REMSYN082AAXX  22124 16008 32570 32111 10174 20052 38557 48517 57011 83100 91145 333 83825;EQDQ01  00002PRCP99
0174160080999992000072215004+45750+010520FM-12+146199999V0200201N004612200019N0200001N1+02081-00511999999ADDGA1031+007509029GF103991031011008001001001MA1999999085481MD1610081+9999ME1315109REMSYN082AAXX  22154 16008 42570 30209 10208 21051 38548 48510 56008 83100 91445 333 83825;
0223160080999992000072218004+45750+010520FM-12+146199999V0201501N003112200019N0150001N1+01681+00711999999ADDAA199000091GA1031+006009029GF103991031011008001001001KA1120M+02121MA1999999085491MD1310011+9999ME1315109REMSYN088AAXX  22184 16008 32565 31506 10168 20071 38549 48510 53001 83100 91745 333 10212 83820;EQDQ01  00002PRCP99
0158160080999992000072221004+45750+010520FM-12+146199999V0209999C000012200019N0150001N1+01181+00731999999ADDGA1001+999999999GF100991001001999999001001MA1999999085611MD1210121+9999ME1315219REMSYN066AAXX  22214 16008 42965 00000 10118 20073 38561 48521 52012 92045;
0188160080999992000072300004+45750+010520FM-12+146199999V0209999C000012200019N0110001N1+01041+00811999999ADDAA199000091GA1001+999999999GF100991001001999999001001MA1999999085701MD1210091+9999ME1315299REMSYN066AAXX  23004 16008 32961 00000 10104 20081 38570 48529 52009 92345;EQDQ01  00002PRCP99
0174160080999992000072303004+45750+010520FM-12+146199999V0209999C000012200019N0110001N1+00961+00791999999ADDGA1031+009009059GF103991031051008001001001MA1999999085681MD1810021+9999ME1315279REMSYN082AAXX  23034 16008 42561 30000 10096 20079 38568 48527 58002 83500 90245 333 83630;
0263160080999992000072306004+45750+010520FM-12+146199999V0209999C000010090019N0040001N1+01001+00811999999ADDAA199000091AY111061AY211061GA1071+009009059GF107991071051008001001001IA1019KA1120N+00901MA1999999085641MD1510041+9999ME1315239MW1101REMSYN100AAXX  23064 16008 31540 70000 10100 20081 38564 48523 55004 71011 87500 90545 333 20090 30/// 87630;EQDQ01  00002PRCP99
0202160080999992000072309004+45750+010520FM-12+146199999V0201801N006710075019N0020001N1+01341+00901999999ADDAY121031AY221031GA1061+007509059GF106991061041008001001001MA1999999085681MD1110041+9999ME1315289MW1101REMSYN088AAXX  23094 16008 41520 61813 10134 20090 38568 48528 51004 71022 86400 90845 333 86625;
0232160080999992000072312004+45750+010520FM-12+146199999V0201901N007210090019N0040001N1+01681+00831999999ADDAA199000091AY121061AY221061GA1061+009009029GF106991061021008001001001MA1999999085501MD1810181+9999ME1315119MW1101REMSYN088AAXX  23124 16008 31540 61914 10168 20083 38550 48511 58018 71022 86200 91145 333 86830;EQDQ01  00002PRCP99
0202160080999992000072315004+45750+010520FM-12+146199999V0201801N005110090019N0050001N1+01401+01161999999ADDAY121031AY221031GA1071+009009029GF107991071021008001001001MA1999999085601MD1310101+9999ME1315209MW1601REMSYN088AAXX  23154 16008 41550 71810 10140 20116 38560 48520 53010 76022 87200 91445 333 87830;
0238160080999992000072318004+45750+010520FM-12+146199999V0202101N005110075019N0100001N1+01401+01161999999ADDAA112002091AY161061AY221061GA1071+007509069GF107991071061008001001001KA1120M+01701MA1999999085601MD1010001+9999ME1315209MW1021REMSYN100AAXX  23184 16008 11560 72110 10140 20116 38560 48520 50000 60022 70262 87600 91745 333 10170 87725;
0174160080999992000072321004+45750+010520FM-12+146199999V0201501N004110060019N0100001N1+01281+01121999999ADDGA1081+006009069GF108991081061008001999999MA1999999085611MD1310011+9999ME1315219REMSYN082AAXX  23214 16008 42560 81508 10128 20112 38561 48521 53001 886// 92045 333 88720;
0219160080999992000072400004+45750+010520FM-12+146199999V0209999C000010060019N0100001N1+01201+00921999999ADDAA106000591AY121061AY221061GA1081+006009069GF108991081071008001999999MA1999999085521MD1810091+9999ME1315129MW1601REMSYN094AAXX  24004 16008 11560 80000 10120 20092 38552 48512 58009 69961 76022 887// 92345 333 88720;
0202160080999992000072403004+45750+010520FM-12+146199999V0201801N005110060019N0100001N1+01101+00791999999ADDAY161031AY261031GA1081+006009069GF108991081071008001999999MA1999999085391MD1710131+9999ME1314999MW1601REMSYN088AAXX  24034 16008 41560 81810 10110 20079 38539 48499 57013 76066 887// 90245 333 88720;
0250160080999992000072406004+45750+010520FM-12+146199999V0201801N007210060019N0040001N1+01001+00681999999ADDAA112003091AY161061AY221061GA1081+006009069GF108991081061008001999999IA1119KA1120N+01001MA1999999085391MD1510001+9999ME1314999MW1101REMSYN106AAXX  24064 16008 11540 81814 10100 20068 38539 48499 55000 60032 71062 886// 90545 333 20100 32/// 88720;
0202160080999992000072409004+45750+010520FM-12+146199999V0201801N005110060019N0040001N1+01001+00641999999ADDAY121031AY221031GA1081+006009069GF108991081061008001999999MA1999999085301MD1810091+9999ME1314909MW1101REMSYN088AAXX  24094 16008 41540 81810 10100 20064 38530 48490 58009 71022 886// 90845 333 88720;
0219160080999992000072412004+45750+010520FM-12+146199999V0201801N004110060019N0040001N1+01101+00751999999ADDAA106003091AY121061AY221061GA1081+006009069GF108991081061008001999999MA1999999085301MD1510001+9999ME1314909MW1211REMSYN094AAXX  24124 16008 11540 81808 10110 20075 38530 48490 55000 60031 72122 886// 91145 333 88720;
0202160080999992000072415004+45750+010520FM-12+146199999V0201801N004110060019N0040001N1+01101+00751999999ADDAY121031AY221031GA1081+006009069GF108991081061008001999999MA1999999085201MD1810101+9999ME1314809MW1101REMSYN088AAXX  24154 16008 41540 81808 10110 20075 38520 48480 58010 71022 886// 91445 333 88720;
0202160080999992000072421004+45750+010520FM-12+146199999V0201601N005110060019N0040001N1+01001+00681999999ADDAY161031AY261031GA1081+006009069GF108991081071008001999999MA1999999085011MD1410001+9999ME1314629MW1601REMSYN088AAXX  24214 16008 41540 81610 10100 20068 38501 48462 54000 76066 887// 92045 333 88720;
0219160080999992000072500004+45750+010520FM-12+146199999V0209999C000010060019N0040001N1+00701+00331999999ADDAA106027991AY121061AY221061GA1081+006009069GF108991081071008001999999MA1999999085181MD1310171+9999ME1314789MW1601REMSYN094AAXX  25004 16008 11540 80000 10070 20033 38518 48478 53017 60281 76022 887// 92345 333 88720;
0202160080999992000072503004+45750+010520FM-12+146199999V0209999C000010060019N0040001N1+00561+00191999999ADDAY161031AY261031GA1081+006009069GF108991081071008001999999MA1999999085201MD1310021+9999ME1314809MW1601REMSYN088AAXX  25034 16008 41540 80000 10056 20019 38520 48480 53002 76066 887// 90245 333 88720;
0238160080999992000072506004+45750+010520FM-12+146199999V0209999C000012200019N0200001N1+00401+00071999999ADDAA112043991AY161061AY221061GA1001+999999999GF100991001001999999001001IA1119KA1120N+00401MA1999999085111MD1610091+9999ME1314719MW1011REMSYN094AAXX  25064 16008 11970 00000 10040 20007 38511 48471 56009 60442 70162 90545 333 20040 32///;
0158160080999992000072509004+45750+010520FM-12+146199999V0200301N002612200019N0300001N1+01101+00261999999ADDGA1001+999999999GF100991001001999999001001MA1999999085091MD1610021+9999ME1314699REMSYN066AAXX  25094 16008 42980 00305 10110 20026 38509 48469 56002 90845;
0185160080999992000072512004+45750+010520FM-12+146199999V0202101N005110090019N0300001N1+01441+00311999999ADDAA199000021GA1061+009009059GF106991061051008001001001MA1999999085091MD1410001+9999ME1314709REMSYN082AAXX  25124 16008 32580 62110 10144 20031 38509 48470 54000 86500 91145 333 86630;
0174160080999992000072515004+45750+010520FM-12+146199999V0201801N003110090019N0200001N1+01421+00571999999ADDGA1061+009009059GF106991061051008001001001MA1999999085051MD1810041+9999ME1314669REMSYN082AAXX  25154 16008 42570 61806 10142 20057 38505 48466 58004 86500 91445 333 86630;
0223160080999992000072518004+45750+010520FM-12+146199999V0201801N003110090019N0200001N1+01401+00831999999ADDAA199000091GA1061+009009059GF106991061051008001001001KA1120M+01521MA1999999085041MD1610011+9999ME1314659REMSYN088AAXX  25184 16008 32570 61806 10140 20083 38504 48465 56001 86500 91745 333 10152 86630;EQDQ01  00002PRCP99
0174160080999992000072521004+45750+010520FM-12+146199999V0201601N003110090019N0200001N1+01261+00851999999ADDGA1061+009009059GF106991061051008001001001MA1999999085111MD1010071+9999ME1314719REMSYN082AAXX  25214 16008 42570 61606 10126 20085 38511 48471 50007 86500 92045 333 86630;
0204160080999992000072600004+45750+010520FM-12+146199999V0201801N004110090019N0200001N1+01101+00801999999ADDAA199000091GA1061+009009059GF106991061051008001001001MA1999999085101MD1810011+9999ME1314709REMSYN082AAXX  26004 16008 32570 61808 10110 20080 38510 48470 58001 86500 92345 333 86630;EQDQ01  00002PRCP99
0174160080999992000072603004+45750+010520FM-12+146199999V0201801N005110075019N0100001N1+01041+00741999999ADDGA1081+007509069GF108991081071008001999999MA1999999085001MD1810101+9999ME1314619REMSYN082AAXX  26034 16008 42560 81810 10104 20074 38500 48461 58010 887// 90245 333 88725;
0250160080999992000072606004+45750+010520FM-12+146199999V0209999C000010060019N0100001N1+01001+00681999999ADDAA112006191AY121061AY221061GA1081+006009069GF108991081061008001999999IA1119KA1120N+01001MA1999999085091MD1310091+9999ME1314699MW1211REMSYN106AAXX  26064 16008 11560 80000 10100 20068 38509 48469 53009 60062 72122 886// 90545 333 20100 32/// 88720;
0174160080999992000072609004+45750+010520FM-12+146199999V0209999C000010090019N0150001N1+01201+00681999999ADDGA1081+009009069GF108991081061008001999999MA1999999085111MD1110021+9999ME1314719REMSYN082AAXX  26094 16008 42565 80000 10120 20068 38511 48471 51002 886// 90845 333 88730;
0185160080999992000072612004+45750+010520FM-12+146199999V0201801N005110090019N0200001N1+01461+00561999999ADDAA199000021GA1071+009009029GF107991071021008001001001MA1999999085111MD1410001+9999ME1314729REMSYN082AAXX  26124 16008 32570 71810 10146 20056 38511 48472 54000 87200 91145 333 87830;
0174160080999992000072615004+45750+010520FM-12+146199999V0202101N005110090019N0200001N1+01601+00561999999ADDGA1051+009009029GF105991051021008001001001MA1999999085101MD1810011+9999ME1314719REMSYN082AAXX  26154 16008 42570 52110 10160 20056 38510 48471 58001 85200 91445 333 85830;
0158160080999992000072621004+45750+010520FM-12+146199999V0209999C000012200019N0200001N1+00901+00571999999ADDGA1001+999999999GF100991001001999999001001MA1999999085521MD1110141+9999ME1315119REMSYN066AAXX  26214 16008 42970 00000 10090 20057 38552 48511 51014 92045;
0188160080999992000072700004+45750+010520FM-12+146199999V0209999C000012200019N0200001N1+00801+00511999999ADDAA199000091GA1001+999999999GF100991001001999999001001MA1999999085701MD1310181+9999ME1315289REMSYN066AAXX  27004 16008 32970 00000 10080 20051 38570 48528 53018 92345;EQDQ01  00002PRCP99
0158160080999992000072703004+45750+010520FM-12+146199999V0209999C000012200019N0200001N1+00701+00411999999ADDGA1001+999999999GF100991001001999999001001MA1999999085711MD1110011+9999ME1315299REMSYN066AAXX  27034 16008 42970 00000 10070 20041 38571 48529 51001 90245;
0223160080999992000072706004+45750+010520FM-12+146199999V0209999C000012200019N0300001N1+00641+00351999999ADDAA199000091GA1001+999999999GF100991001001999999001001IA1019KA1120N+00641MA1999999085791MD1310091+9999ME1315379REMSYN082AAXX  27064 16008 32980 00000 10064 20035 38579 48537 53009 90545 333 20064 30///;EQDQ01  00002PRCP99
0158160080999992000072709004+45750+010520FM-12+146199999V0209999C000012200019N0300001N1+01401+00221999999ADDGA1001+999999999GF100991001001999999001001MA1999999085801MD1110011+9999ME1315409REMSYN066AAXX  27094 16008 42980 00000 10140 20022 38580 48540 51001 90845;
0188160080999992000072712004+45750+010520FM-12+146199999V0209999C000012200019N0300001N1+02001-00301999999ADDAA199000091GA1001+999999999GF100991001001999999001001MA1999999085711MD1810101+9999ME1315329REMSYN066AAXX  27124 16008 32980 00000 10200 21030 38571 48532 58010 91145;EQDQ01  00002PRCP99
0174160080999992000072715004+45750+010520FM-12+146199999V0201901N007210090019N0300001N1+01801-00091999999ADDGA1061+009009059GF106991061051008001001001MA1999999085601MD1610111+9999ME1315209REMSYN082AAXX  27154 16008 42580 61914 10180 21009 38560 48520 56011 86500 91445 333 86630;
0223160080999992000072718004+45750+010520FM-12+146199999V0201601N005110090019N0200001N1+01601+00181999999ADDAA199000091GA1071+009009059GF107991071051008001001001KA1120M+02061MA1999999085511MD1810091+9999ME1315119REMSYN088AAXX  27184 16008 32570 71610 10160 20018 38551 48511 58009 87500 91745 333 10206 87630;EQDQ01  00002PRCP99
0174160080999992000072721004+45750+010520FM-12+146199999V0209999C000010090019N0200001N1+01401+00621999999ADDGA1061+009009059GF106991061051008001001001MA1999999085581MD1310071+9999ME1315189REMSYN082AAXX  27214 16008 42570 60000 10140 20062 38558 48518 53007 86500 92045 333 86630;
0204160080999992000072800004+45750+010520FM-12+146199999V0209999C000010090019N0200001N1+01201+00831999999ADDAA199000091GA1051+009009059GF105991051051008001001001MA1999999085591MD1110011+9999ME1315189REMSYN082AAXX  28004 16008 32570 50000 10120 20083 38559 48518 51001 85500 92345 333 85630;EQDQ01  00002PRCP99
0174160080999992000072803004+45750+010520FM-12+146199999V0209999C000010090019N0200001N1+01001+00701999999ADDGA1061+009009059GF106991061051008001001001MA1999999085511MD1810081+9999ME1315109REMSYN082AAXX  28034 16008 42570 60000 10100 20070 38551 48510 58008 86500 90245 333 86630;
0235160080999992000072806004+45750+010520FM-12+146199999V0200301N007210090019N0100001N1+01041+00411999999ADDAA199000091GA1081+009009059GF108991081051008001999999IA1019KA1120N+00981MA1999999085421MD1610091+9999ME1315019REMSYN094AAXX  28064 16008 32560 80314 10104 20041 38542 48501 56009 885// 90545 333 20098 30/// 88630;EQDQ01  00002PRCP99
0202160080999992000072809004+45750+010520FM-12+146199999V0200401N005110075019N0100001N1+00841+00591999999ADDAY121031AY221031GA1081+007509069GF108991081071008001999999MA1999999085461MD1010041+9999ME1315059MW1601REMSYN088AAXX  28094 16008 41560 80410 10084 20059 38546 48505 50004 76022 887// 90845 333 88725;
0219160080999992000072812004+45750+010520FM-12+146199999V0200401N001510075019N0150001N1+01141+00561999999ADDAA106005191AY161061AY221061GA1071+007509029GF107991071021008001001001MA1999999085491MD1010031+9999ME1315089MW1211REMSYN094AAXX  28124 16008 11565 70403 10114 20056 38549 48508 50003 60051 72162 87200 91145 333 87825;
0174160080999992000072815004+45750+010520FM-12+146199999V0200101N004110060019N0150001N1+01401+00501999999ADDGA1061+006009029GF106991061021008001001001MA1999999085301MD1510191+9999ME1314909REMSYN082AAXX  28154 16008 42565 60108 10140 20050 38530 48490 55019 86200 91445 333 86820;
0210160080999992000072818004+45750+010520FM-12+146199999V0200301N003110045019N0150001N1+01121+00051999999ADDAA112005191GA1061+004509029GF106991061021004501001001KA1120M+01601MA1999999085401MD1210101+9999ME1315009REMSYN094AAXX  28184 16008 12465 60306 10112 20005 38540 48500 52010 60052 86200 91745 333 10160 86815;
0174160080999992000072821004+45750+010520FM-12+146199999V0200501N003610045019N0140001N1+00881+00211999999ADDGA1061+004509029GF106991061021004501001001MA1999999085491MD1210091+9999ME1315089REMSYN082AAXX  28214 16008 42464 60507 10088 20021 38549 48508 52009 86200 92045 333 86815;
0185160080999992000072900004+45750+010520FM-12+146199999V0200501N002610045019N0130001N1+00701+00271999999ADDAA199000021GA1071+004509029GF107991071021004501001001MA1999999085551MD1110061+9999ME1315149REMSYN082AAXX  29004 16008 32463 70505 10070 20027 38555 48514 51006 87200 92345 333 87815;
0174160080999992000072903004+45750+010520FM-12+146199999V0200501N004610045019N0130001N1+00621+00261999999ADDGA1071+004509029GF107991071021004501001001MA1999999085531MD1810021+9999ME1315129REMSYN082AAXX  29034 16008 42463 70509 10062 20026 38553 48512 58002 87200 90245 333 87815;
0250160080999992000072906004+45750+010520FM-12+146199999V0200501N004610030019N0110001N1+00601+00261999999ADDAA112000791AY161061AY221061GA1071+003009069GF107991071071004501001001IA1119KA1120N+00601MA1999999085551MD1310021+9999ME1315149MW1601REMSYN106AAXX  29064 16008 11461 70509 10060 20026 38555 48514 53002 69902 76062 87700 90545 333 20060 32/// 87710;
0202160080999992000072909004+45750+010520FM-12+146199999V0200601N006210045019N0160001N1+01001+00281999999ADDAY161031AY221031GA1071+004509029GF107991071021004501001001MA1999999085581MD1110031+9999ME1315189MW1031REMSYN088AAXX  29094 16008 41466 70612 10100 20028 38558 48518 51003 70362 87200 90845 333 87815;
0219160080999992000072912004+45750+010520FM-12+146199999V0200501N005110045019N0190001N1+01481-00181999999ADDAA106000791AY161061AY221061GA1061+004509029GF106991061021004501001001MA1999999085541MD1810051+9999ME1315149MW1011REMSYN094AAXX  29124 16008 11469 60510 10148 21018 38554 48514 58005 69901 70162 86200 91145 333 86815;
0174160080999992000072915004+45750+010520FM-12+146199999V0200701N004612200019N0270001N1+01601-00101999999ADDGA1041+004509029GF104991041021004501001001MA1999999085491MD1610051+9999ME1315099REMSYN082AAXX  29154 16008 42477 40709 10160 21010 38549 48509 56005 84200 91445 333 84815;
0210160080999992000072918004+45750+010520FM-12+146199999V0200401N003110045019N0220001N1+01281-00091999999ADDAA112000791GA1061+004509029GF106991061021004501001001KA1120M+01711MA1999999085511MD1310031+9999ME1315119REMSYN094AAXX  29184 16008 12472 60406 10128 21009 38551 48511 53003 69902 86200 91745 333 10171 86815;
0174160080999992000072921004+45750+010520FM-12+146199999V0200701N003610045019N0200001N1+00981+00071999999ADDGA1061+004509029GF106991061021004501001001MA1999999085681MD1210171+9999ME1315279REMSYN082AAXX  29214 16008 42470 60707 10098 20007 38568 48527 52017 86200 92045 333 86815;
0204160080999992000073000004+45750+010520FM-12+146199999V0200701N004110045019N0200001N1+00841+00321999999ADDAA199000091GA1061+004509029GF106991061021004501001001MA1999999085781MD1110101+9999ME1315369REMSYN082AAXX  30004 16008 32470 60708 10084 20032 38578 48536 51010 86200 92345 333 86815;EQDQ01  00002PRCP99
0174160080999992000073003004+45750+010520FM-12+146199999V0200701N003110045019N0200001N1+00721+00271999999ADDGA1061+004509029GF106991061021004501001001MA1999999085781MD1410001+9999ME1315369REMSYN082AAXX  30034 16008 42470 60706 10072 20027 38578 48536 54000 86200 90245 333 86815;
0235160080999992000073006004+45750+010520FM-12+146199999V0200501N004610045019N0200001N1+00681+00311999999ADDAA199000091GA1071+004509029GF107991071021004501001001IA1019KA1120N+00661MA1999999085821MD1310041+9999ME1315399REMSYN094AAXX  30064 16008 32470 70509 10068 20031 38582 48539 53004 87200 90545 333 20066 30/// 87815;EQDQ01  00002PRCP99
0174160080999992000073009004+45750+010520FM-12+146199999V0200601N005110045019N0220001N1+01101+00371999999ADDGA1061+004509029GF106991061021004501001001MA1999999085901MD1210081+9999ME1315499REMSYN082AAXX  30094 16008 42472 60610 10110 20037 38590 48549 52008 86200 90845 333 86815;
0204160080999992000073012004+45750+010520FM-12+146199999V0200201N005110045019N0260001N1+01381-00111999999ADDAA199000091GA1061+004509029GF106991061021004501001001MA1999999085981MD1110081+9999ME1315579REMSYN082AAXX  30124 16008 32476 60210 10138 21011 38598 48557 51008 86200 91145 333 86815;EQDQ01  00002PRCP99
0223160080999992000073018004+45750+010520FM-12+146199999V0200601N004610045019N0270001N1+01301-00091999999ADDAA199000091GA1061+004509029GF106991061021004501001001KA1120M+01621MA1999999086011MD1310031+9999ME1315609REMSYN088AAXX  30184 16008 32477 60609 10130 21009 38601 48560 53003 86200 91745 333 10162 86815;EQDQ01  00002PRCP99
0174160080999992000073021004+45750+010520FM-12+146199999V0200501N002610045019N0200001N1+00981+00041999999ADDGA1061+004509029GF106991061021004501001001MA1999999086191MD1210181+9999ME1315769REMSYN082AAXX  30214 16008 42470 60505 10098 20004 38619 48576 52018 86200 92045 333 86815;
0204160080999992000073100004+45750+010520FM-12+146199999V0200601N002110045019N0200001N1+00821+00181999999ADDAA199000091GA1061+004509029GF106991061021004501001001MA1999999086271MD1210081+9999ME1315839REMSYN082AAXX  31004 16008 32470 60604 10082 20018 38627 48583 52008 86200 92345 333 86815;EQDQ01  00002PRCP99
0174160080999992000073103004+45750+010520FM-12+146199999V0209999C000010045019N0200001N1+00481+00131999999ADDGA1061+004509029GF106991061021004501001001MA1999999086291MD1010021+9999ME1315839REMSYN082AAXX  31034 16008 42470 60000 10048 20013 38629 48583 50002 86200 90245 333 86815;
0223160080999992000073106004+45750+010520FM-12+146199999V0209999C000012200019N0240001N1+00501+00231999999ADDAA199000091GA1001+999999999GF100991001001999999001001IA1019KA1120N+00501MA1999999086281MD1610011+9999ME1315829REMSYN082AAXX  31064 16008 32974 00000 10050 20023 38628 48582 56001 90545 333 20050 30///;EQDQ01  00002PRCP99
0174160080999992000073109004+45750+010520FM-12+146199999V0200401N003612200019N0300001N1+01101+00181999999ADDGA1031+007509029GF103991031011008001001001MA1999999086281MD1410001+9999ME1315859REMSYN082AAXX  31094 16008 42580 30407 10110 20018 38628 48585 54000 83100 90845 333 83825;
0204160080999992000073112004+45750+010520FM-12+146199999V0200401N003612200019N0350001N1+01981-00511999999ADDAA199000091GA1021+007509029GF102991021011008001001001MA1999999086211MD1810071+9999ME1315829REMSYN082AAXX  31124 16008 32581 20407 10198 21051 38621 48582 58007 82100 91145 333 82825;EQDQ01  00002PRCP99
0158160080999992000073115004+45750+010520FM-12+146199999V0200501N004112200019N0350001N1+02041-00451999999ADDGA1001+999999999GF100991001001999999001001MA1999999086111MD1710091+9999ME1315739REMSYN066AAXX  31154 16008 42981 00508 10204 21045 38611 48573 57009 91445;
0211160080999992000073118004+45750+010520FM-12+146199999V0203601N002612200019N0300001N1+01721-00451999999ADDAA199000091GA1001+999999999GF100991001001999999001001KA1999M+02101MA1999999086091MD1510031+9999ME1315699REMSYN076AAXX  31184 16008 32980 03605 10172 21045 38609 48569 55003 91745 333 10210;EQDQ01  00002PRCP99
0158160080999992000073121004+45750+010520FM-12+146199999V0209999C000012200019N0200001N1+00981+00191999999ADDGA1001+999999999GF100991001001999999001001MA1999999086281MD1210191+9999ME1315859REMSYN066AAXX  31214 16008 42970 00000 10098 20019 38628 48585 52019 92045;
0158160080999992000080103004+45750+010520FM-12+146199999V0209999C000012200019N0200001N1+00681+00281999999ADDGA1001+999999999GF100991001001999999001001MA1999999086351MD1810011+9999ME1315909REMSYN066AAXX  01034 16008 42970 00000 10068 20028 38635 48590 58001 90245;
0158160080999992000080109004+45750+010520FM-12+146199999V0209999C000012200019N0300001N1+01481+00361999999ADDGA1001+999999999GF100991001001999999001001MA1999999086301MD1610041+9999ME1315899REMSYN066AAXX  01094 16008 42980 00000 10148 20036 38630 48589 56004 90845;
0188160080999992000080112004+45750+010520FM-12+146199999V0202101N003612200019N0300001N1+01821+00611999999ADDAA199000091GA1001+999999999GF100991001001999999001001MA1999999086271MD1810041+9999ME1315879REMSYN066AAXX  01124 16008 32980 02107 10182 20061 38627 48587 58004 91145;EQDQ01  00002PRCP99
0174160080999992000080115004+45750+010520FM-12+146199999V0202101N003112200019N0350001N1+01881+00691999999ADDGA1041+007509029GF104991041021008001001001MA1999999086121MD1610151+9999ME1315729REMSYN082AAXX  01154 16008 42581 42106 10188 20069 38612 48572 56015 84200 91445 333 84825;
0223160080999992000080118004+45750+010520FM-12+146199999V0209999C000012200019N0300001N1+01661+00761999999ADDAA199000091GA1031+007509029GF103991031021008001001001KA1120M+01921MA1999999086111MD1510011+9999ME1315719REMSYN088AAXX  01184 16008 32580 30000 10166 20076 38611 48571 55001 83200 91745 333 10192 83825;EQDQ01  00002PRCP99
0158160080999992000080121004+45750+010520FM-12+146199999V0209999C000012200019N0200001N1+01201+00831999999ADDGA1001+999999999GF100991001001999999001001MA1999999086231MD1210121+9999ME1315809REMSYN066AAXX  01214 16008 42970 00000 10120 20083 38623 48580 52012 92045;
0188160080999992000080200004+45750+010520FM-12+146199999V0209999C000012200019N0200001N1+01021+00781999999ADDAA199000091GA1001+999999999GF100991001001999999001001MA1999999086301MD1110071+9999ME1315869REMSYN066AAXX  02004 16008 32970 00000 10102 20078 38630 48586 51007 92345;EQDQ01  00002PRCP99
0158160080999992000080203004+45750+010520FM-12+146199999V0209999C000012200019N0200001N1+00901+00691999999ADDGA1001+999999999GF100991001001999999001001MA1999999086301MD1410001+9999ME1315869REMSYN066AAXX  02034 16008 42970 00000 10090 20069 38630 48586 54000 90245;
0223160080999992000080206004+45750+010520FM-12+146199999V0209999C000012200019N0250001N1+00801+00571999999ADDAA199000091GA1001+999999999GF100991001001999999001001IA1019KA1120N+00801MA1999999086201MD1810091+9999ME1315779REMSYN082AAXX  02064 16008 32975 00000 10080 20057 38620 48577 58009 90545 333 20080 30///;EQDQ01  00002PRCP99
0158160080999992000080209004+45750+010520FM-12+146199999V0202101N002612200019N0300001N1+01541+00871999999ADDGA1001+999999999GF100991001001999999001001MA1999999086161MD1710041+9999ME1315769REMSYN066AAXX  02094 16008 42980 02105 10154 20087 38616 48576 57004 90845;
0210160080999992000080212004+45750+010520FM-12+146199999V0202001N005110120019N0200001N1+01861+00621999999ADDAA199000091GA1021+010509089GF105991051021012501001001MA1999999085901MD1710261+9999ME1315519REMSYN088AAXX  02124 16008 32670 52010 10186 20062 38590 48551 57026 85200 91145 333 82835 83840;EQDQ01  00002PRCP99
0208160080999992000080215004+45750+010520FM-12+146199999V0202101N00361007501CN0160001N1+01601+01251999999ADDAY191031AY261031GA1021+009009099GF107991071031008001001001MA1999999085811MD1610091+9999ME1315429MW1951REMSYN094AAXX  02154 16008 41566 72107 10160 20125 38581 48542 56009 79596 87300 91445 333 82930 85635;
0244160080999992000080218004+45750+010520FM-12+146199999V0209999C000012200019N0180001N1+01281+01021999999ADDAA112007991AY191061AY281061GA1021+012009069GF104991041051012501031001KA1120M+01901MA1999999085921MD1310101+9999ME1315519MW1011REMSYN106AAXX  02184 16008 11668 40000 10128 20102 38592 48551 53010 60082 70198 84530 91745 333 10190 82640 84356;
0174160080999992000080221004+45750+010520FM-12+146199999V0209999C000012200019N0180001N1+01021+00811999999ADDGA1021+012009059GF102991021051012501001001MA1999999085971MD1110051+9999ME1315559REMSYN082AAXX  02214 16008 42668 20000 10102 20081 38597 48555 51005 82500 92045 333 82640;
0213160080999992000080300004+45750+010520FM-12+146199999V0209999C000012200019N0060001N1+01101+00791999999ADDAA199000021AY141061AY201061GA1041+006009069GF104991041061008001001001MA1999999085981MD1310011+9999ME1315569MW1101REMSYN088AAXX  03004 16008 31556 40000 10110 20079 38598 48556 53001 71040 84600 92345 333 84720;
0281160080999992000080306004+45750+010520FM-12+146199999V0209999C000010075019N0070001N1+01001+00681999999ADDAA199000091AY101061AY201061GA1071+007509059GF107991071051008001001001IA1099KA1120N+00941MA1999999085901ME1315489MW1101REMSYN100AAXX  03064 16008 31557 70000 10100 20068 38590 48548 53000 71000 87500 90545 333 20094 31/// 87625;EQDQ01+000032APCTENQ02+000002APC3  Q03  00002PRCP99
0202160080999992000080309004+45750+010520FM-12+146199999V0202001N004612200019N0080001N1+01421+00611999999ADDAY101031AY201031GA1031+007509059GF103991031051008001001001MA1999999085781MD1810121+9999ME1315389MW1101REMSYN088AAXX  03094 16008 41558 32009 10142 20061 38578 48538 58012 71000 83500 90845 333 83625;
0219160080999992000080312004+45750+010520FM-12+146199999V0201701N004610060019N0030001N1+01341+00901999999ADDAA106000791AY161061AY221061GA1081+006009069GF108991081071008001999999MA1999999085611MD1710171+9999ME1315219MW1601REMSYN094AAXX  03124 16008 11530 81709 10134 20090 38561 48521 57017 69901 76062 887// 91145 333 88720;
0202160080999992000080315004+45750+010520FM-12+146199999V0209999C000010045019N0035001N1+01281+00941999999ADDAY161031AY221031GA1081+004509069GF108991081071004501999999MA1999999085581MD1610031+9999ME1315189MW1601REMSYN088AAXX  03154 16008 41435 80000 10128 20094 38558 48518 56003 76062 887// 91445 333 88715;
0238160080999992000080318004+45750+010520FM-12+146199999V0200801N006710075019N0025001N1+00981+00661999999ADDAA112007991AY161061AY261061GA1081+007509059GF108991081051008001999999KA1120M+01501MA1999999085651MD1310071+9999ME1315249MW1601REMSYN100AAXX  03184 16008 11525 80813 10098 20066 38565 48524 53007 60082 76066 885// 91745 333 10150 88625;
0202160080999992000080321004+45750+010520FM-12+146199999V0200601N002610075019N0030001N1+00881+00521999999ADDAY161031AY221031GA1081+007509059GF108991081051008001999999MA1999999085681MD1110031+9999ME1315279MW1101REMSYN088AAXX  03214 16008 41530 80605 10088 20052 38568 48527 51003 71062 885// 92045 333 88625;
0219160080999992000080400004+45750+010520FM-12+146199999V0209999C000010030019N0020001N1+00781+00501999999ADDAA106005191AY161061AY261061GA1081+003009069GF108991081071004501999999MA1999999085711MD1310031+9999ME1315299MW1601REMSYN094AAXX  04004 16008 11420 80000 10078 20050 38571 48529 53003 60051 76066 887// 92345 333 88710;
0202160080999992000080403004+45750+010520FM-12+146199999V0200701N003110030019N0020001N1+00761+00401999999ADDAY161031AY261031GA1081+003009069GF108991081071004501999999MA1999999085681MD1810031+9999ME1315269MW1601REMSYN088AAXX  04034 16008 41420 80706 10076 20040 38568 48526 58003 76066 887// 90245 333 88710;
0250160080999992000080406004+45750+010520FM-12+146199999V0209999C000010075019N0040001N1+00721+00411999999ADDAA112006191AY161061AY261061GA1081+007509059GF108991081051008001999999IA1119KA1120N+00721MA1999999085661MD1610021+9999ME1315259MW1101REMSYN106AAXX  04064 16008 11540 80000 10072 20041 38566 48525 56002 60062 71066 885// 90545 333 20072 32/// 88625;
0208160080999992000080409004+45750+010520FM-12+146199999V0209999C00001009001CN0040001N1+00801+00601999999ADDAY151031AY221031GA1031+004509089GF108991081081004501999999MA1999999085751MD1310091+9999ME1315339MW1531REMSYN094AAXX  04094 16008 41440 80000 10080 20060 38575 48533 53009 75352 888// 90845 333 83815 88640;
0208160080999992000080415004+45750+010520FM-12+146199999V0200601N00311007501CN0020001N1+00781+00541999999ADDAY161031AY261031GA1031+006009079GF108991081051008001999999MA1999999085711MD1810071+9999ME1315299MW1601REMSYN094AAXX  04154 16008 41520 80606 10078 20054 38571 48529 58007 76066 885// 91445 333 83720 88640;
0244160080999992000080418004+45750+010520FM-12+146199999V0209999C00001007501CN0020001N1+00721+00541999999ADDAA112007191AY161061AY261061GA1031+006009079GF108991081051008001999999KA1120M+00841MA1999999085731MD1310021+9999ME1315319MW1601REMSYN106AAXX  04184 16008 11520 80000 10072 20054 38573 48531 53002 60072 76066 885// 91745 333 10084 83720 88630;
0202160080999992000080421004+45750+010520FM-12+146199999V0209999C000010030019N0015001N1+00701+00511999999ADDAY161031AY221031GA1081+003009069GF108991081071004501999999MA1999999085741MD1110011+9999ME1315329MW1601REMSYN088AAXX  04214 16008 41415 80000 10070 20051 38574 48532 51001 76062 887// 92045 333 88710;
0202160080999992000080503004+45750+010520FM-12+146199999V0209999C000010030019N0015001N1+00681+00591999999ADDAY161031AY261031GA1081+003009069GF108991081071004501999999MA1999999085651MD1510001+9999ME1315249MW1621REMSYN088AAXX  05034 16008 41415 80000 10068 20059 38565 48524 55000 76266 887// 90245 333 88710;
0256160080999992000080506004+45750+010520FM-12+146199999V0209999C00001036001CN0200001N1+00541+00361999999ADDAA112014091AY161061AY261061GA1031+012009069GF108991031051012501021999IA1119KA1120N+00541MA1999999085621MD1810041+9999ME1315209MW1011REMSYN112AAXX  05064 16008 11670 80000 10054 20036 38562 48520 58004 60142 70166 8352/ 90545 333 20054 32/// 83640 88457;
0208160080999992000080509004+45750+010520FM-12+146199999V0209999C00001009001CN0040001N1+00721+00361999999ADDAY121031AY221031GA1031+003009089GF108991081081004501999999MA1999999085661MD1310041+9999ME1315249MW1101REMSYN094AAXX  05094 16008 41440 80000 10072 20036 38566 48524 53004 71022 888// 90845 333 83810 88625;
0219160080999992000080512004+45750+010520FM-12+146199999V0209999C000010030019N0025001N1+00741+00471999999ADDAA106000591AY161061AY261061GA1081+003009069GF108991081071004501999999MA1999999085671MD1110011+9999ME1315259MW1601REMSYN094AAXX  05124 16008 11425 80000 10074 20047 38567 48525 51001 69961 76066 887// 91145 333 88710;
0208160080999992000080515004+45750+010520FM-12+146199999V0209999C000010060019N0020001N1+00781+00601999999ADDAY161031AY221031GA1031+001509089GF108991081081001501999999MA1999999085631MD1810041+9999ME1315229MW1601REMSYN094AAXX  05154 16008 41220 80000 10078 20060 38563 48522 58004 76062 888// 91445 333 83805 88620;
0244160080999992000080518004+45750+010520FM-12+146199999V0209999C00001006001CN0030001N1+00881+00511999999ADDAA112002091AY161061AY221061GA1041+001509089GF108991081081001501999999KA1120M+00881MA1999999085581MD1610051+9999ME1315179MW1101REMSYN106AAXX  05184 16008 11230 80000 10088 20051 38558 48517 56005 60022 71062 888// 91745 333 10088 84805 88625;
0202160080999992000080521004+45750+010520FM-12+146199999V0209999C000010030019N0040001N1+00701+00511999999ADDAY121031AY221031GA1081+003009069GF108991081061004501999999MA1999999085531MD1810051+9999ME1315129MW1101REMSYN088AAXX  05214 16008 41440 80000 10070 20051 38553 48512 58005 71022 886// 92045 333 88710;
0219160080999992000080600004+45750+010520FM-12+146199999V0201401N002610030019N0015001N1+00701+00591999999ADDAA106000591AY161061AY221061GA1081+003009069GF108991081071004501999999MA1999999085481MD1610061+9999ME1315079MW1601REMSYN094AAXX  06004 16008 11415 81405 10070 20059 38548 48507 56006 69941 76062 887// 92345 333 88710;
0202160080999992000080603004+45750+010520FM-12+146199999V0209999C000010075019N0020001N1+00641+00481999999ADDAY161031AY221031GA1081+007509059GF108991081051008001999999MA1999999085401MD1810071+9999ME1315009MW1101REMSYN088AAXX  06034 16008 41520 80000 10064 20048 38540 48500 58007 71062 885// 90245 333 88625;
0269160080999992000080606004+45750+010520FM-12+146199999V0209999C000010090019N0020001N1+00621+00511999999ADDAA112004191AY161061AY221061GA1081+009009059GF108991081051008001999999IA1119KA1120N+00601MA1999999085411MD1310011+9999ME1315009MW1601REMSYN106AAXX  06064 16008 11520 80000 10062 20051 38541 48500 53000 60042 76062 885// 90545 333 20060 32/// 88630;EQDQ01+000002APC3  
0208160080999992000080609004+45750+010520FM-12+146199999V0200601N00261004201CN0020001N1+00621+00371999999ADDAY161031AY261031GA1031+003009079GF108991081051004501999999MA1999999085431MD1110021+9999ME1315029MW1601REMSYN094AAXX  06094 16008 41420 80605 10062 20037 38543 48502 51002 76066 885// 90845 333 83710 88625;
0238160080999992000080618004+45750+010520FM-12+146199999V0200701N002110075019N0080001N1+00941+00571999999ADDAA112004191AY121061AY221061GA1081+007509059GF108991081051008001999999KA1120M+01101MA1999999085661MD1310091+9999ME1315249MW1101REMSYN100AAXX  06184 16008 11558 80704 10094 20057 38566 48524 53009 60042 71022 885// 91745 333 10110 88625;
0202160080999992000080621004+45750+010520FM-12+146199999V0200801N003110075019N0040001N1+00801+00501999999ADDAY121031AY221031GA1081+007509059GF108991081051008001999999MA1999999085781MD1110121+9999ME1315369MW1101REMSYN088AAXX  06214 16008 41540 80806 10080 20050 38578 48536 51012 71022 885// 92045 333 88625;
0219160080999992000080700004+45750+010520FM-12+146199999V0200601N002110075019N0040001N1+00721+00511999999ADDAA106000791AY121061AY221061GA1081+007509059GF108991081051008001999999MA1999999085811MD1310031+9999ME1315399MW1101REMSYN094AAXX  07004 16008 11540 80604 10072 20051 38581 48539 53003 69901 71022 885// 92345 333 88625;
0202160080999992000080703004+45750+010520FM-12+146199999V0200501N002110090019N0030001N1+00701+00541999999ADDAY121031AY221031GA1081+009009059GF108991081051008001999999MA1999999085831MD1110021+9999ME1315409MW1101REMSYN088AAXX  07034 16008 41530 80504 10070 20054 38583 48540 51002 71022 885// 90245 333 88630;
0250160080999992000080706004+45750+010520FM-12+146199999V0200601N001510090019N0180001N1+00701+00501999999ADDAA112000791AY161061AY221061GA1061+009009059GF106991061051008001001001IA1099KA1120N+00701MA1999999085891MD1310061+9999ME1315469MW1011REMSYN106AAXX  07064 16008 11568 60603 10070 20050 38589 48546 53006 69902 70162 86500 90545 333 20070 31/// 86630;
0174160080999992000080709004+45750+010520FM-12+146199999V0200501N004110105019N0130001N1+01041+00381999999ADDGA1061+010509059GF106991061051012501001001MA1999999085881MD1810011+9999ME1315469REMSYN082AAXX  07094 16008 42663 60508 10104 20038 38588 48546 58001 86500 90845 333 86635;
0238160080999992000080712004+45750+010520FM-12+146199999V0200501N002610105019N0070001N1+01601+00181999999ADDAA199000091AY121061AY221061GA1051+010509089GF105991051021012501031001MA1999999085821MD1610051+9999ME1315439MW1101REMSYN094AAXX  07124 16008 31657 50505 10160 20018 38582 48543 56005 71022 85230 91145 333 85835 83356;EQDQ01  00002PRCP99
0174160080999992000080715004+45750+010520FM-12+146199999V0200301N005712200019N0150001N1+01581+00451999999ADDGA1041+010509059GF104991041041012501001001MA1999999085831MD1410001+9999ME1315439REMSYN082AAXX  07154 16008 42665 40311 10158 20045 38583 48543 54000 84400 91445 333 84635;
0223160080999992000080718004+45750+010520FM-12+146199999V0200701N005710105019N0150001N1+01341+00701999999ADDAA199000091GA1061+010509059GF106991061041012501001001KA1120M+01781MA1999999085831MD1410001+9999ME1315429REMSYN088AAXX  07184 16008 32665 60711 10134 20070 38583 48542 54000 86400 91745 333 10178 86635;EQDQ01  00002PRCP99
0174160080999992000080721004+45750+010520FM-12+146199999V0209999C000012200019N0150001N1+01021+00741999999ADDGA1041+010509029GF104991041011012501001001MA1999999085981MD1310151+9999ME1315569REMSYN082AAXX  07214 16008 42665 40000 10102 20074 38598 48556 53015 84100 92045 333 84835;
0220160080999992000080800004+45750+010520FM-12+146199999V0200301N004610105019N0150001N1+01021+00731999999ADDAA199000091GA1071+010509029GF107991071011012501001001MA1999999085981MD1410001+9999ME1315569REMSYN082AAXX  08004 16008 32665 70309 10102 20073 38598 48556 51000 87100 92345 333 87835;EQDQ01+000012APCTENQ02  00002PRCP99
0174160080999992000080803004+45750+010520FM-12+146199999V0200401N004110105019N0150001N1+00901+00691999999ADDGA1051+010509029GF105991051011012501001001MA1999999085981MD1410001+9999ME1315559REMSYN082AAXX  08034 16008 42665 50408 10090 20069 38598 48555 54000 85100 90245 333 85835;
0235160080999992000080806004+45750+010520FM-12+146199999V0200501N003612200019N0200001N1+00801+00641999999ADDAA199000091GA1021+010509029GF102991021011012501001001IA1019KA1120N+00801MA1999999085941MD1810041+9999ME1315529REMSYN094AAXX  08064 16008 32670 20507 10080 20064 38594 48552 58004 82100 90545 333 20080 30/// 82835;EQDQ01  00002PRCP99
0174160080999992000080809004+45750+010520FM-12+146199999V0200501N003612200019N0250001N1+01261+00731999999ADDGA1021+010509029GF102991021011012501001001MA1999999085911MD1710031+9999ME1315509REMSYN082AAXX  08094 16008 42675 20507 10126 20073 38591 48550 57003 82100 90845 333 82835;
0204160080999992000080812004+45750+010520FM-12+146199999V0200601N005112200019N0250001N1+02061+00151999999ADDAA199000091GA1041+010509029GF104991041011012501001001MA1999999085861MD1710051+9999ME1315489REMSYN082AAXX  08124 16008 32675 40610 10206 20015 38586 48548 57005 84100 91145 333 84835;EQDQ01  00002PRCP99
0174160080999992000080815004+45750+010520FM-12+146199999V0200401N004610105019N0200001N1+01781+00321999999ADDGA1051+010509029GF105991051011012501001001MA1999999085681MD1710181+9999ME1315299REMSYN082AAXX  08154 16008 42670 50409 10178 20032 38568 48529 57018 85100 91445 333 85835;
0223160080999992000080818004+45750+010520FM-12+146199999V0200501N002610105019N0200001N1+01621+00431999999ADDAA199000091GA1061+010509029GF106991061011012501001001KA1120M+02101MA1999999085681MD1510001+9999ME1315299REMSYN088AAXX  08184 16008 32670 60505 10162 20043 38568 48529 55000 86100 91745 333 10210 86835;EQDQ01  00002PRCP99
0174160080999992000080821004+45750+010520FM-12+146199999V0200501N002112200019N0200001N1+01261+00811999999ADDGA1031+012009059GF103991031041012501001001MA1999999085891MD1110211+9999ME1315489REMSYN082AAXX  08214 16008 42670 30504 10126 20081 38589 48548 51021 83400 92045 333 83640;
0204160080999992000080900004+45750+010520FM-12+146199999V0209999C000010120019N0200001N1+01101+00791999999ADDAA199000091GA1061+012009059GF106991061041012501001001MA1999999085931MD1310041+9999ME1315529REMSYN082AAXX  09004 16008 32670 60000 10110 20079 38593 48552 53004 86400 92345 333 86640;EQDQ01  00002PRCP99
0174160080999992000080903004+45750+010520FM-12+146199999V0209999C000010120019N0200001N1+00841+00761999999ADDGA1081+012009059GF108991081051012501999999MA1999999085951MD1110021+9999ME1315539REMSYN082AAXX  09034 16008 42670 80000 10084 20076 38595 48553 51002 885// 90245 333 88640;
0251160080999992000080906004+45750+010520FM-12+146199999V0209999C000012200019N0200001N1+00741+00611999999ADDAA199000091GA1041+021009079GF104991041999022501041001IA1019KA1120N+00701MA1999999085931MD1810021+9999ME1315519REMSYN094AAXX  09064 16008 32870 40000 10074 20061 38593 48551 58002 84040 90545 333 20070 30/// 84357;EQDQ01+000002SCOLCGQ02  00002PRCP99
0174160080999992000080909004+45750+010520FM-12+146199999V0203601N004112200019N0200001N1+01301+00661999999ADDGA1041+010509029GF104991041011012501001001MA1999999085961MD1310031+9999ME1315559REMSYN082AAXX  09094 16008 42670 43608 10130 20066 38596 48555 53003 84100 90845 333 84835;
0204160080999992000080912004+45750+010520FM-12+146199999V0209999C000010120019N0200001N1+01581+00691999999ADDAA199000091GA1071+012009059GF107991071051012501001001MA1999999085911MD1810061+9999ME1315519REMSYN082AAXX  09124 16008 32670 70000 10158 20069 38591 48551 58006 87500 91145 333 87640;EQDQ01  00002PRCP99
0174160080999992000080915004+45750+010520FM-12+146199999V0200601N004112200019N0200001N1+01801+00361999999ADDGA1041+009009029GF104991041021008001001001MA1999999085881MD1610031+9999ME1315489REMSYN082AAXX  09154 16008 42570 40608 10180 20036 38588 48548 56003 84200 91445 333 84830;
0223160080999992000080918004+45750+010520FM-12+146199999V0200301N004110090019N0200001N1+01501+00471999999ADDAA199000091GA1051+009009029GF105991051021008001001001KA1120M+01861MA1999999085841MD1810041+9999ME1315449REMSYN088AAXX  09184 16008 32570 50308 10150 20047 38584 48544 58004 85200 91745 333 10186 85830;EQDQ01  00002PRCP99
0148160080999992000080921004+45750+010520FM-12+146199999V0209999C000012200019N0200001N1+01081+00711999999ADDGF103991001001999999001081MA1999999085981MD1310141+9999ME1315569REMSYN072AAXX  09214 16008 42970 30000 10108 20071 38598 48556 53014 80008 92045;
0204160080999992000081000004+45750+010520FM-12+146199999V0209999C000012200019N0200001N1+00921+00701999999ADDAA199000091GA1031+009009029GF103991031011008001001001MA1999999086041MD1210061+9999ME1315629REMSYN082AAXX  10004 16008 32570 30000 10092 20070 38604 48562 52006 83100 92345 333 83830;EQDQ01  00002PRCP99
0158160080999992000081003004+45750+010520FM-12+146199999V0209999C000012200019N0200001N1+00841+00681999999ADDGA1001+999999999GF100991001001999999001001MA1999999085951MD1810091+9999ME1315529REMSYN066AAXX  10034 16008 42970 00000 10084 20068 38595 48552 58009 90245;
0223160080999992000081006004+45750+010520FM-12+146199999V0209999C000012200019N0200001N1+00781+00651999999ADDAA199000091GA1001+999999999GF100991001001999999001001IA1019KA1120N+00761MA1999999085931MD1610021+9999ME1315509REMSYN082AAXX  10064 16008 32970 00000 10078 20065 38593 48550 56002 90545 333 20076 30///;EQDQ01  00002PRCP99
0204160080999992000081012004+45750+010520FM-12+146199999V0209999C000012200019N0250001N1+02041+00481999999ADDAA199000091GA1021+009009029GF102991021021008001001001MA1999999085821MD1710101+9999ME1315439REMSYN082AAXX  10124 16008 32575 20000 10204 20048 38582 48543 57010 82200 91145 333 82830;EQDQ01  00002PRCP99
0174160080999992000081015004+45750+010520FM-12+146199999V0202101N004112200019N0250001N1+01961+00741999999ADDGA1041+009009029GF104991041021008001001001MA1999999085731MD1710081+9999ME1315359REMSYN082AAXX  10154 16008 42575 42108 10196 20074 38573 48535 57008 84200 91445 333 84830;
0223160080999992000081018004+45750+010520FM-12+146199999V0201701N003610120019N0250001N1+01741+00951999999ADDAA199000091GA1061+012009059GF106991061041012501001001KA1120M+02081MA1999999085731MD1510001+9999ME1315349REMSYN088AAXX  10184 16008 32675 61707 10174 20095 38573 48534 55000 86400 91745 333 10208 86640;EQDQ01  00002PRCP99
0174160080999992000081021004+45750+010520FM-12+146199999V0209999C000012200019N0200001N1+01361+01071999999ADDGA1021+010509059GF102991021041012501001001MA1999999085861MD1210131+9999ME1315459REMSYN082AAXX  10214 16008 42670 20000 10136 20107 38586 48545 52013 82400 92045 333 82635;
0188160080999992000081100004+45750+010520FM-12+146199999V0209999C000012200019N0200001N1+01061+00901999999ADDAA199000091GA1001+999999999GF100991001001999999001001MA1999999085881MD1110021+9999ME1315469REMSYN066AAXX  11004 16008 32970 00000 10106 20090 38588 48546 51002 92345;EQDQ01  00002PRCP99
0158160080999992000081103004+45750+010520FM-12+146199999V0209999C000012200019N0200001N1+00941+00901999999ADDGA1001+999999999GF100991001001999999001001MA1999999085791MD1810091+9999ME1315379REMSYN066AAXX  11034 16008 42970 00000 10094 20090 38579 48537 58009 90245;
0223160080999992000081106004+45750+010520FM-12+146199999V0209999C000012200019N0250001N1+00921+00701999999ADDAA199000091GA1001+999999999GF100991001001999999001001IA1019KA1120N+00921MA1999999085811MD1310021+9999ME1315409REMSYN082AAXX  11064 16008 32975 00000 10092 20070 38581 48540 53002 90545 333 20092 30///;EQDQ01  00002PRCP99
0158160080999992000081109004+45750+010520FM-12+146199999V0200301N003612200019N0250001N1+01361+00891999999ADDGA1001+999999999GF100991001001999999001001MA1999999085761MD1810061+9999ME1315359REMSYN066AAXX  11094 16008 42975 00307 10136 20089 38576 48535 58006 90845;
0188160080999992000081112004+45750+010520FM-12+146199999V0209999C000012200019N0300001N1+02261-00292999999ADDAA199000091GA1001+999999999GF100991001001999999001001MA1999999085631MD1710131+9999ME1315259REMSYN066AAXX  11124 16008 32980 00000 10226 21029 38563 48525 57013 91145;EQDQ01  00002PRCP99
0174160080999992000081115004+45750+010520FM-12+146199999V0202101N004612200019N0300001N1+02421+00561999999ADDGA1011+010509029GF101991011011012501001001MA1999999085491MD1710141+9999ME1315119REMSYN082AAXX  11154 16008 42680 12109 10242 20056 38549 48511 57014 81100 91445 333 81835;
0239160080999992000081118004+45750+010520FM-12+146199999V0209999C000012200019N0250001N1+01941+00371999999ADDAA199000091GA1031+018009079GF103991031999017501051001KA1120M+02521MA1999999085461MD1610031+9999ME1315079REMSYN088AAXX  11184 16008 32775 30000 10194 20037 38546 48507 56003 83050 91745 333 10252 83356;EQDQ01+000002SCOLCGQ02  00002PRCP99
0193160080999992000081121004+45750+010520FM-12+146199999V0209999C000012200019N0200001N1+01361+00811999999ADDGA1011+018009079GF101991011999017501081001MA1999999085571MD1310111+9999ME1315179REMSYN082AAXX  11214 16008 42770 10000 10136 20081 38557 48517 53011 81080 92045 333 81356;EQDQ01+000002SCOLCG
0148160080999992000081203004+45750+010520FM-12+146199999V0209999C000012200019N0200001N1+01081+00931999999ADDGF104991001001999999001081MA1999999085541MD1810061+9999ME1315149REMSYN072AAXX  12034 16008 42970 40000 10108 20093 38554 48514 58006 80008 90245;
0235160080999992000081206004+45750+010520FM-12+146199999V0209999C000012200019N0120001N1+01041+00951999999ADDAA199000091GA1041+009009029GF104991041011008001001001IA1019KA1120N+01001MA1999999085581MD1310041+9999ME1315179REMSYN094AAXX  12064 16008 32562 40000 10104 20095 38558 48517 53004 84100 90545 333 20100 30/// 84830;EQDQ01  00002PRCP99
0174160080999992000081209004+45750+010520FM-12+146199999V0209999C000012200019N0150001N1+01541+01071999999ADDGA1041+009009029GF104991041021008001001001MA1999999085571MD1810011+9999ME1315179REMSYN082AAXX  12094 16008 42565 40000 10154 20107 38557 48517 58001 84200 90845 333 84830;
0204160080999992000081212004+45750+010520FM-12+146199999V0202001N006712200019N0150001N1+02061+01161999999ADDAA199000091GA1041+009009029GF104991041021008001001001MA1999999085491MD1710081+9999ME1315109REMSYN082AAXX  12124 16008 32565 42013 10206 20116 38549 48510 57008 84200 91145 333 84830;EQDQ01  00002PRCP99
0174160080999992000081215004+45750+010520FM-12+146199999V0202301N002610045019N0120001N1+01841+01231999999ADDGA1071+004509029GF107991071021004501001001MA1999999085421MD1610061+9999ME1315039REMSYN082AAXX  12154 16008 42462 72305 10184 20123 38542 48503 56006 87200 91445 333 87815;
0244160080999992000081218004+45750+010520FM-12+146199999V0202101N00721004201CN0110001N1+01621+00921999999ADDAA112000791AY191061AY211061GA1011+003009089GF108991051021004501021999KA1120M+02121MA1999999085641MD1310221+9999ME1315259MW1601REMSYN106AAXX  12184 16008 11461 82114 10162 20092 38564 48525 53022 69902 76091 8522/ 91745 333 10212 81810 84820;
0202160080999992000081221004+45750+010520FM-12+146199999V0209999C000010090019N0120001N1+01201+01131999999ADDAY161031AY261031GA1071+009009059GF107991071041008001001001MA1999999085961MD1110321+9999ME1315559MW1601REMSYN088AAXX  12214 16008 41562 70000 10120 20113 38596 48555 51032 76066 87400 92045 333 87630;
0219160080999992000081300004+45750+010520FM-12+146199999V0209999C000012200019N0120001N1+00981+00891999999ADDAA106005191AY161061AY211061GA1031+010509059GF103991031051012501001001MA1999999085951MD1810011+9999ME1315539MW1011REMSYN094AAXX  13004 16008 11662 30000 10098 20089 38595 48553 58001 60051 70161 83500 92345 333 83635;
0158160080999992000081303004+45750+010520FM-12+146199999V0209999C000012200019N0150001N1+00781+00731999999ADDGA1001+999999999GF100991001001999999001001MA1999999085881MD1610071+9999ME1315459REMSYN066AAXX  13034 16008 42965 00000 10078 20073 38588 48545 56007 90245;
0174160080999992000081309004+45750+010520FM-12+146199999V0203601N003610900019N0200001N1+01141+00791999999ADDGA1021+004509029GF107991021011004501001021MA1999999085881MD1310051+9999ME1315479REMSYN082AAXX  13094 16008 42470 73607 10114 20079 38588 48547 53005 82102 90845 333 82815;
0204160080999992000081312004+45750+010520FM-12+146199999V0202101N004612200019N0200001N1+01881+00741999999ADDAA199000091GA1031+006009029GF106991031011008001001011MA1999999085871MD1810011+9999ME1315489REMSYN082AAXX  13124 16008 32570 62109 10188 20074 38587 48548 58001 83101 91145 333 83820;EQDQ01  00002PRCP99
0180160080999992000081315004+45750+010520FM-12+146199999V0202101N00621004201CN0200001N1+01921+00411999999ADDGA1021+003009089GF106991051011004501001011MA1999999085781MD1610091+9999ME1315399REMSYN088AAXX  13154 16008 42470 62112 10192 20041 38578 48539 56009 85101 91445 333 82810 83820;
0219160080999992000081400004+45750+010520FM-12+146199999V0209999C000010090019N0130001N1+01281+01031999999ADDAA106000791AY121061AY221061GA1081+009009059GF108991081041008001999999MA1999999086081MD1210111+9999ME1315669MW1611REMSYN094AAXX  14004 16008 11563 80000 10128 20103 38608 48566 52011 69901 76122 884// 92345 333 88630;
0202160080999992000081403004+45750+010520FM-12+146199999V0209999C000010090019N0120001N1+01081+00971999999ADDAY161031AY221031GA1071+009009059GF107991071041008001001001MA1999999086091MD1110011+9999ME1315679MW1011REMSYN088AAXX  14034 16008 41562 70000 10108 20097 38609 48567 51001 70162 87400 90245 333 87630;
0250160080999992000081406004+45750+010520FM-12+146199999V0209999C000012200019N0200001N1+01001+00881999999ADDAA112000791AY161061AY211061GA1041+010509059GF104991041051012501001001IA1119KA1120N+00981MA1999999086041MD1810051+9999ME1315619MW1011REMSYN106AAXX  14064 16008 11670 40000 10100 20088 38604 48561 58005 69902 70161 84500 90545 333 20098 32/// 84635;
0174160080999992000081409004+45750+010520FM-12+146199999V0203601N005112200019N0200001N1+01481+00851999999ADDGA1011+006009029GF103991031081008001001011MA1999999086091MD1310051+9999ME1315689REMSYN082AAXX  14094 16008 42570 33610 10148 20085 38609 48568 53005 83801 90845 333 81820;
0185160080999992000081412004+45750+010520FM-12+146199999V0200101N005112200019N0200001N1+02321+00031999999ADDAA199000021GA1021+006009029GF104991021011008001001011MA1999999086101MD1110011+9999ME1315729REMSYN082AAXX  14124 16008 32570 40110 10232 20003 38610 48572 51001 82101 91145 333 82820;
0174160080999992000081415004+45750+010520FM-12+146199999V0200401N004612200019N0250001N1+02301-00251999999ADDGA1031+006009029GF103991031011008001001001MA1999999085991MD1810111+9999ME1315619REMSYN082AAXX  14154 16008 42575 30409 10230 21025 38599 48561 58011 83100 91445 333 83820;
0223160080999992000081418004+45750+010520FM-12+146199999V0209999C000012200019N0250001N1+01761+00871999999ADDAA199000091GA1021+006009029GF102991021011008001001001KA1120M+02521MA1999999086001MD1310011+9999ME1315609REMSYN088AAXX  14184 16008 32575 20000 10176 20087 38600 48560 53001 82100 91745 333 10252 82820;EQDQ01  00002PRCP99
0204160080999992000081500004+45750+010520FM-12+146199999V0200601N003112200019N0150001N1+01301+00951999999ADDAA199000091GA1021+006009029GF102991021011008001001001MA1999999086221MD1210081+9999ME1315809REMSYN082AAXX  15004 16008 32565 20606 10130 20095 38622 48580 52008 82100 92345 333 82820;EQDQ01  00002PRCP99
0158160080999992000081503004+45750+010520FM-12+146199999V0209999C000012200019N0110001N1+01161+00931999999ADDGA1001+999999999GF100991001001999999001001MA1999999086231MD1110011+9999ME1315809REMSYN066AAXX  15034 16008 42961 00000 10116 20093 38623 48580 51001 90245;
0223160080999992000081506004+45750+010520FM-12+146199999V0209999C000012200019N0200001N1+01061+00891999999ADDAA199000091GA1001+999999999GF100991001001999999001001IA1019KA1120N+01061MA1999999086231MD1410001+9999ME1315809REMSYN082AAXX  15064 16008 32970 00000 10106 20089 38623 48580 54000 90545 333 20106 30///;EQDQ01  00002PRCP99
0174160080999992000081509004+45750+010520FM-12+146199999V0200401N003612200019N0150001N1+01641+00921999999ADDGA1021+006009029GF102991021011008001001001MA1999999086231MD1410001+9999ME1315829REMSYN082AAXX  15094 16008 42565 20407 10164 20092 38623 48582 54000 82100 90845 333 82820;
0204160080999992000081512004+45750+010520FM-12+146199999V0200401N004112200019N0150001N1+02441+00241999999ADDAA199000091GA1021+006009029GF102991021011008001001001MA1999999086121MD1810111+9999ME1315759REMSYN082AAXX  15124 16008 32565 20408 10244 20024 38612 48575 58011 82100 91145 333 82820;EQDQ01  00002PRCP99
0174160080999992000081515004+45750+010520FM-12+146199999V0200301N001512200019N0200001N1+02161+00781999999ADDGA1041+006009029GF104991041011008001001001MA1999999085941MD1710181+9999ME1315569REMSYN082AAXX  15154 16008 42570 40303 10216 20078 38594 48556 57018 84100 91445 333 84820;
0223160080999992000081518004+45750+010520FM-12+146199999V0209999C000010060019N0200001N1+01881+01111999999ADDAA199000091GA1051+006009029GF105991051011008001001001KA1120M+02581MA1999999085921MD1610021+9999ME1315539REMSYN088AAXX  15184 16008 32570 50000 10188 20111 38592 48553 56002 85100 91745 333 10258 85820;EQDQ01  00002PRCP99
0174160080999992000081521004+45750+010520FM-12+146199999V0209999C000012200019N0150001N1+01381+01151999999ADDGA1021+006009029GF102991021011008001001001MA1999999086021MD1310101+9999ME1315619REMSYN082AAXX  15214 16008 42565 20000 10138 20115 38602 48561 53010 82100 92045 333 82820;
0188160080999992000081600004+45750+010520FM-12+146199999V0209999C000012200019N0110001N1+01201+01061999999ADDAA199000091GA1001+999999999GF100991001001999999001001MA1999999086121MD1110091+9999ME1315709REMSYN066AAXX  16004 16008 32961 00000 10120 20106 38612 48570 51009 92345;EQDQ01  00002PRCP99
0202160080999992000081609004+45750+010520FM-12+146199999V0209999C000012200019N0090001N1+01681+01221999999ADDAY101031AY201031GA1031+006009029GF103991031011008001001001MA1999999085991MD1810011+9999ME1315599MW1101REMSYN088AAXX  16094 16008 41559 30000 10168 20122 38599 48559 58001 71000 83100 90845 333 83820;
0238160080999992000081612004+45750+010520FM-12+146199999V0202001N006212200019N0090001N1+02001+01111999999ADDAA199000091AY101061AY201061GA1011+003009089GF104991041021004501001001MA1999999085891MD1610101+9999ME1315509MW1101REMSYN094AAXX  16124 16008 31459 42012 10200 20111 38589 48550 56010 71000 84200 91145 333 81810 83820;EQDQ01  00002PRCP99
0208160080999992000081615004+45750+010520FM-12+146199999V0202101N007212200019N0090001N1+02041+01171999999ADDAY101031AY201031GA1011+003009089GF104991041021004501001001MA1999999085771MD1610121+9999ME1315389MW1101REMSYN094AAXX  16154 16008 41459 42114 10204 20117 38577 48538 56012 71000 84200 91445 333 81810 83815;
0257160080999992000081618004+45750+010520FM-12+146199999V0201701N003112200019N0090001N1+01841+01171999999ADDAA199000091AY111061AY211061GA1011+003009089GF104991041021004501001001KA1120M+02161MA1999999085711MD1610061+9999ME1315319MW1101REMSYN100AAXX  16184 16008 31459 41706 10184 20117 38571 48531 56006 71011 84200 91745 333 10216 81810 84820;EQDQ01  00002PRCP99
0202160080999992000081621004+45750+010520FM-12+146199999V0209999C000012200019N0080001N1+01521+01321999999ADDAY101031AY201031GA1041+006009029GF104991041011008001001001MA1999999085781MD1310071+9999ME1315379MW1101REMSYN088AAXX  16214 16008 41558 40000 10152 20132 38578 48537 53007 71000 84100 92045 333 84820;
0232160080999992000081700004+45750+010520FM-12+146199999V0209999C000010060019N0050001N1+01381+01281999999ADDAA199000091AY111061AY211061GA1061+006009029GF106991061021008001001001MA1999999085821MD1110051+9999ME1315429MW1101REMSYN088AAXX  17004 16008 31550 60000 10138 20128 38582 48542 51005 71011 86200 92345 333 86820;EQDQ01  00002PRCP99
0263160080999992000081706004+45750+010520FM-12+146199999V0209999C000012200019N0040001N1+01201+01071999999ADDAA199000091AY111061AY211061GA1031+007509029GF103991031011008001001001IA1019KA1120N+01181MA1999999085831MD1310011+9999ME1315429MW1101REMSYN100AAXX  17064 16008 31540 30000 10120 20107 38583 48542 53001 71011 83100 90545 333 20118 30/// 83825;EQDQ01  00002PRCP99
0202160080999992000081709004+45750+010520FM-12+146199999V0201801N002612200019N0070001N1+01701+01281999999ADDAY111031AY211031GA1031+006009029GF103991031011008001001001MA1999999085841MD1110011+9999ME1315449MW1101REMSYN088AAXX  17094 16008 41557 31805 10170 20128 38584 48544 51001 71011 83100 90845 333 83820;
0174160080999992000081715004+45750+010520FM-12+146199999V0201801N003110090019N0150001N1+02021+01031999999ADDGA1061+009009029GF106991061021008001001001MA1999999085711MD1810131+9999ME1315329REMSYN082AAXX  17154 16008 42565 61806 10202 20103 38571 48532 58013 86200 91445 333 86830;
0238160080999992000081718004+45750+010520FM-12+146199999V0209999C000010090019N0150001N1+01301+01151999999ADDAA112002091AY191061AY221061GA1061+009009029GF106991061021008001001001KA1120M+02221MA1999999085971MD1310271+9999ME1315569MW1211REMSYN100AAXX  17184 16008 11565 60000 10130 20115 38597 48556 53027 60022 72192 86200 91745 333 10222 86830;
0158160080999992000081721004+45750+010520FM-12+146199999V0209999C000012200019N0150001N1+00981+00921999999ADDGA1001+999999999GF100991001001999999001001MA1999999086001MD1110031+9999ME1315589REMSYN066AAXX  17214 16008 42965 00000 10098 20092 38600 48558 51003 92045;
0169160080999992000081800004+45750+010520FM-12+146199999V0209999C000012200019N0150001N1+00801+00751999999ADDAA199000021GA1001+999999999GF100991001001999999001001MA1999999085991MD1810011+9999ME1315579REMSYN066AAXX  18004 16008 32965 00000 10080 20075 38599 48557 58001 92345;
0158160080999992000081803004+45750+010520FM-12+146199999V0209999C000012200019N0150001N1+00841+00761999999ADDGA1001+999999999GF100991001001999999001001MA1999999085911MD1710081+9999ME1315499REMSYN066AAXX  18034 16008 42965 00000 10084 20076 38591 48549 57008 90245;
0204160080999992000081806004+45750+010520FM-12+146199999V0209999C000012200019N0200001N1+00761+00681999999ADDAA199000021GA1001+999999999GF100991001001999999001001IA1019KA1120N+00741MA1999999085901MD1610011+9999ME1315489REMSYN082AAXX  18064 16008 32970 00000 10076 20068 38590 48548 56001 90545 333 20074 30///;
0158160080999992000081809004+45750+010520FM-12+146199999V0209999C000012200019N0250001N1+01401+00751999999ADDGA1001+999999999GF100991001001999999001001MA1999999085901MD1410001+9999ME1315509REMSYN066AAXX  18094 16008 42975 00000 10140 20075 38590 48550 54000 90845;
0188160080999992000081812004+45750+010520FM-12+146199999V0201801N007712200019N0250001N1+01901+00731999999ADDAA199000091GA1001+999999999GF100991001001999999001001MA1999999085821MD1810081+9999ME1315439REMSYN066AAXX  18124 16008 32975 01815 10190 20073 38582 48543 58008 91145;EQDQ01  00002PRCP99
0174160080999992000081815004+45750+010520FM-12+146199999V0201901N005110090019N0200001N1+01901+01341999999ADDGA1051+009009059GF105991051051008001001001MA1999999085801MD1610021+9999ME1315419REMSYN082AAXX  18154 16008 42570 51910 10190 20134 38580 48541 56002 85500 91445 333 85630;
0223160080999992000081818004+45750+010520FM-12+146199999V0202101N003112200019N0200001N1+01761+01351999999ADDAA199000091GA1041+009009059GF104991041051008001001001KA1120M+02041MA1999999085751MD1810061+9999ME1315359REMSYN088AAXX  18184 16008 32570 42106 10176 20135 38575 48535 58006 84500 91745 333 10204 84630;EQDQ01  00002PRCP99
0158160080999992000081821004+45750+010520FM-12+146199999V0209999C000012200019N0200001N1+01501+01281999999ADDGA1001+999999999GF100991001001999999001001MA1999999085841MD1310101+9999ME1315449REMSYN066AAXX  18214 16008 42970 00000 10150 20128 38584 48544 53010 92045;
0188160080999992000081900004+45750+010520FM-12+146199999V0201801N004112200019N0150001N1+01521+01321999999ADDAA199000091GA1001+999999999GF100991001001999999001001MA1999999085931MD1210091+9999ME1315539REMSYN066AAXX  19004 16008 32965 01808 10152 20132 38593 48553 52009 92345;EQDQ01  00002PRCP99
0174160080999992000081903004+45750+010520FM-12+146199999V0201801N004110090019N0150001N1+01501+01351999999ADDGA1051+009009059GF105991051051008001001001MA1999999085931MD1010001+9999ME1315539REMSYN082AAXX  19034 16008 42565 51808 10150 20135 38593 48553 50000 85500 90245 333 85630;
0235160080999992000081906004+45750+010520FM-12+146199999V0201801N002610090019N0150001N1+01421+01311999999ADDAA199000091GA1061+009009059GF106991061051008001001001IA1019KA1120N+01401MA1999999085981MD1310051+9999ME1315589REMSYN094AAXX  19064 16008 32565 61805 10142 20131 38598 48558 53005 86500 90545 333 20140 30/// 86630;EQDQ01  00002PRCP99
0174160080999992000081909004+45750+010520FM-12+146199999V0201801N003112200019N0200001N1+01641+01271999999ADDGA1041+009009059GF104991041051008001001001MA1999999085991MD1110011+9999ME1315599REMSYN082AAXX  19094 16008 42570 41806 10164 20127 38599 48559 51001 84500 90845 333 84630;
0204160080999992000081912004+45750+010520FM-12+146199999V0201801N007712200019N0200001N1+02041+01231999999ADDAA199000091GA1041+009009059GF104991041051008001001001MA1999999085991MD1410001+9999ME1315619REMSYN082AAXX  19124 16008 32570 41815 10204 20123 38599 48561 54000 84500 91145 333 84630;EQDQ01  00002PRCP99
0174160080999992000081915004+45750+010520FM-12+146199999V0201901N007210090019N0200001N1+02101+01351999999ADDGA1051+009009059GF105991051051008001001001MA1999999085901MD1810091+9999ME1315529REMSYN082AAXX  19154 16008 42570 51914 10210 20135 38590 48552 58009 85500 91445 333 85630;
0223160080999992000081918004+45750+010520FM-12+146199999V0209999C000012200019N0200001N1+01881+01211999999ADDAA199000091GA1041+009009059GF104991041051008001001001KA1120M+02121MA1999999085891MD1610011+9999ME1315509REMSYN088AAXX  19184 16008 32570 40000 10188 20121 38589 48550 56001 84500 91745 333 10212 84630;EQDQ01  00002PRCP99
0158160080999992000081921004+45750+010520FM-12+146199999V0209999C000012200019N0200001N1+01501+01231999999ADDGA1001+999999999GF100991001001999999001001MA1999999085991MD1310101+9999ME1315599REMSYN066AAXX  19214 16008 42970 00000 10150 20123 38599 48559 53010 92045;
0188160080999992000082000004+45750+010520FM-12+146199999V0209999C000012200019N0200001N1+01301+01111999999ADDAA199000091GA1001+999999999GF100991001001999999001001MA1999999086011MD1210021+9999ME1315609REMSYN066AAXX  20004 16008 32970 00000 10130 20111 38601 48560 52002 92345;EQDQ01  00002PRCP99
0158160080999992000082009004+45750+010520FM-12+146199999V0209999C000012200019N0250001N1+01541+01021999999ADDGA1001+999999999GF100991001001999999001001MA1999999085991MD1410001+9999ME1315599REMSYN066AAXX  20094 16008 42975 00000 10154 20102 38599 48559 54000 90845;
0188160080999992000082012004+45750+010520FM-12+146199999V0201801N006212200019N0250001N1+02001+00471999999ADDAA199000091GA1001+999999999GF100991001001999999001001MA1999999085891MD1810101+9999ME1315519REMSYN066AAXX  20124 16008 32975 01812 10200 20047 38589 48551 58010 91145;EQDQ01  00002PRCP99
0158160080999992000082021004+45750+010520FM-12+146199999V0201801N003112200019N0200001N1+01621+01181999999ADDGA1001+999999999GF100991001001999999001001MA1999999085791MD1310091+9999ME1315409REMSYN066AAXX  20214 16008 42970 01806 10162 20118 38579 48540 53009 92045;
0158160080999992000082103004+45750+010520FM-12+146199999V0209999C000012200019N0200001N1+01201+00931999999ADDGA1001+999999999GF100991001001999999001001MA1999999085771MD1810041+9999ME1315369REMSYN066AAXX  21034 16008 42970 00000 10120 20093 38577 48536 58004 90245;
0223160080999992000082106004+45750+010520FM-12+146199999V0209999C000012200019N0200001N1+01101+00921999999ADDAA199000091GA1001+999999999GF100991001001999999001001IA1019KA1120N+01081MA1999999085711MD1610061+9999ME1315309REMSYN082AAXX  21064 16008 32970 00000 10110 20092 38571 48530 56006 90545 333 20108 30///;EQDQ01  00002PRCP99
0158160080999992000082109004+45750+010520FM-12+146199999V0201501N006212200019N0200001N1+01601+00891999999ADDGA1001+999999999GF100991001001999999001001MA1999999085711MD1410001+9999ME1315319REMSYN066AAXX  21094 16008 42970 01512 10160 20089 38571 48531 54000 90845;
0188160080999992000082112004+45750+010520FM-12+146199999V0201801N008212200019N0200001N1+02001+00991999999ADDAA199000091GA1001+999999999GF100991001001999999001001MA1999999085611MD1810101+9999ME1315229REMSYN066AAXX  21124 16008 32970 01816 10200 20099 38561 48522 58010 91145;EQDQ01  00002PRCP99
0158160080999992000082115004+45750+010520FM-12+146199999V0201801N007712200019N0200001N1+02081+01061999999ADDGA1001+999999999GF100991001001999999001001MA1999999085511MD1710101+9999ME1315129REMSYN066AAXX  21154 16008 42970 01815 10208 20106 38551 48512 57010 91445;
0223160080999992000082118004+45750+010520FM-12+146199999V0201801N007210090019N0200001N1+01981+00471999999ADDAA199000091GA1051+009009059GF105991051051008001001001KA1120M+02121MA1999999085411MD1610101+9999ME1315029REMSYN088AAXX  21184 16008 32570 51814 10198 20047 38541 48502 56010 85500 91745 333 10212 85630;EQDQ01  00002PRCP99
0174160080999992000082121004+45750+010520FM-12+146199999V0201801N008210090019N0150001N1+01801+00521999999ADDGA1051+009009029GF105991051021008001001001MA1999999085501MD1310091+9999ME1315109REMSYN082AAXX  21214 16008 42565 51816 10180 20052 38550 48510 53009 85200 92045 333 85830;
0219160080999992000082200004+45750+010520FM-12+146199999V0201801N005110090019N0150001N1+01301+01111999999ADDAA106000891AY121061AY221061GA1081+009009029GF108991081021008001999999MA1999999085671MD1110171+9999ME1315269MW1601REMSYN094AAXX  22004 16008 11565 81810 10130 20111 38567 48526 51017 69981 76022 882// 92345 333 88830;
0202160080999992000082203004+45750+010520FM-12+146199999V0203601N007212200019N0150001N1+00941+00781999999ADDAY161031AY221031GA1041+009009029GF104991041021008001001001MA1999999085611MD1810061+9999ME1315209MW1011REMSYN088AAXX  22034 16008 41565 43614 10094 20078 38561 48520 58006 70162 84200 90245 333 84830;
0238160080999992000082206004+45750+010520FM-12+146199999V0203601N006212200019N0200001N1+00881+00831999999ADDAA112000891AY161061AY221061GA1001+999999999GF100991001001999999001001IA1019KA1120N+00881MA1999999085571MD1610041+9999ME1315169MW1011REMSYN094AAXX  22064 16008 11970 03612 10088 20083 38557 48516 56004 69982 70162 90545 333 20088 30///;
0158160080999992000082209004+45750+010520FM-12+146199999V0203601N007212200019N0200001N1+01201+00711999999ADDGA1001+999999999GF100991001001999999001001MA1999999085571MD1410001+9999ME1315169REMSYN066AAXX  22094 16008 42970 03614 10120 20071 38557 48516 54000 90845;
0185160080999992000082212004+45750+010520FM-12+146199999V0203501N005712200019N0300001N1+01901+00791999999ADDAA199000021GA1031+007509029GF103991031021008001001001MA1999999085571MD1410001+9999ME1315189REMSYN082AAXX  22124 16008 32580 33511 10190 20079 38557 48518 54000 83200 91145 333 83825;
0174160080999992000082215004+45750+010520FM-12+146199999V0203601N004612200019N0270001N1+01821+00791999999ADDGA1031+007509029GF103991031021008001001001MA1999999085521MD1810041+9999ME1315139REMSYN082AAXX  22154 16008 42577 33609 10182 20079 38552 48513 58004 83200 91445 333 83825;
0223160080999992000082218004+45750+010520FM-12+146199999V0203501N006712200019N0220001N1+01581+00871999999ADDAA199000091GA1031+007509029GF103991031021008001001001KA1120M+02021MA1999999085571MD1310051+9999ME1315179REMSYN088AAXX  22184 16008 32572 33513 10158 20087 38557 48517 53005 83200 91745 333 10202 83825;EQDQ01  00002PRCP99
0158160080999992000082221004+45750+010520FM-12+146199999V0203401N004612200019N0200001N1+01281+00921999999ADDGA1001+999999999GF100991001001999999001001MA1999999085731MD1210161+9999ME1315339REMSYN066AAXX  22214 16008 42970 03409 10128 20092 38573 48533 52016 92045;
0188160080999992000082300004+45750+010520FM-12+146199999V0203501N003112200019N0200001N1+01081+00931999999ADDAA199000091GA1001+999999999GF100991001001999999001001MA1999999085861MD1210121+9999ME1315449REMSYN066AAXX  23004 16008 32970 03506 10108 20093 38586 48544 52012 92345;EQDQ01  00002PRCP99
0158160080999992000082303004+45750+010520FM-12+146199999V0203501N001512200019N0200001N1+00901+00881999999ADDGA1001+999999999GF100991001001999999001001MA1999999085881MD1110021+9999ME1315469REMSYN066AAXX  23034 16008 42970 03503 10090 20088 38588 48546 51002 90245;
0179160080999992000082309004+45750+010520FM-12+146199999V0203501N004112200019N0280001N1+01341+00811999999ADDGA1001+999999999GF100991001001999999001001MA1999999085911ME1315509REMSYN066AAXX  23094 16008 42978 03508 10134 20081 38591 48550 51000 90845;EQDQ01+000012APCTENQ02+000002APC3  
0188160080999992000082312004+45750+010520FM-12+146199999V0203501N004112200019N0300001N1+02021+00561999999ADDAA199000091GA1001+999999999GF100991001001999999001001MA1999999085821MD1810091+9999ME1315439REMSYN066AAXX  23124 16008 32980 03508 10202 20056 38582 48543 58009 91145;EQDQ01  00002PRCP99
0174160080999992000082315004+45750+010520FM-12+146199999V0202001N003112200019N0300001N1+02001+00761999999ADDGA1031+007509029GF103991031021008001001001MA1999999085791MD1710031+9999ME1315409REMSYN082AAXX  23154 16008 42580 32006 10200 20076 38579 48540 57003 83200 91445 333 83825;
0223160080999992000082318004+45750+010520FM-12+146199999V0209999C000012200019N0250001N1+01881+01161999999ADDAA199000091GA1041+007509029GF104991041021008001001001KA1120M+02121MA1999999085781MD1510001+9999ME1315399REMSYN088AAXX  23184 16008 32575 40000 10188 20116 38578 48539 55000 84200 91745 333 10212 84825;EQDQ01  00002PRCP99
0158160080999992000082321004+45750+010520FM-12+146199999V0200601N001512200019N0200001N1+01301+00891999999ADDGA1001+999999999GF100991001001999999001001MA1999999085991MD1210201+9999ME1315589REMSYN066AAXX  23214 16008 42970 00603 10130 20089 38599 48558 52020 92045;
0188160080999992000082400004+45750+010520FM-12+146199999V0200301N002612200019N0200001N1+01221+00901999999ADDAA199000091GA1001+999999999GF100991001001999999001001MA1999999086101MD1110111+9999ME1315689REMSYN066AAXX  24004 16008 32970 00305 10122 20090 38610 48568 51011 92345;EQDQ01  00002PRCP99
0158160080999992000082403004+45750+010520FM-12+146199999V0200601N002112200019N0200001N1+01081+00921999999ADDGA1001+999999999GF100991001001999999001001MA1999999086101MD1410001+9999ME1315689REMSYN066AAXX  24034 16008 42970 00604 10108 20092 38610 48568 54000 90245;
0223160080999992000082406004+45750+010520FM-12+146199999V0200601N001512200019N0250001N1+00941+00781999999ADDAA199000091GA1001+999999999GF100991001001999999001001IA1019KA1120N+00941MA1999999086111MD1310011+9999ME1315689REMSYN082AAXX  24064 16008 32975 00603 10094 20078 38611 48568 53001 90545 333 20094 30///;EQDQ01  00002PRCP99
0158160080999992000082409004+45750+010520FM-12+146199999V0200401N004112200019N0280001N1+01501+00691999999ADDGA1001+999999999GF100991001001999999001001MA1999999086181MD1110071+9999ME1315779REMSYN066AAXX  24094 16008 42978 00408 10150 20069 38618 48577 51007 90845;
0204160080999992000082412004+45750+010520FM-12+146199999V0200501N003612200019N0300001N1+02501-01182999999ADDAA199000091GA1001+999999999GF100991001001999999001001MA1999999086101MD1810081+9999ME1315739REMSYN066AAXX  24124 16008 32980 00507 10250 21118 38610 48573 58008 91145;EQDQ01-001183ATOD  Q02  00002PRCP99
0211160080999992000082418004+45750+010520FM-12+146199999V0200501N002112200019N0300001N1+01881-00751999999ADDAA199000091GA1001+999999999GF100991001001999999001001KA1999M+02631MA1999999086061MD1310031+9999ME1315669REMSYN076AAXX  24184 16008 32980 00504 10188 21075 38606 48566 53003 91745 333 10263;EQDQ01  00002PRCP99
0158160080999992000082421004+45750+010520FM-12+146199999V0200501N003112200019N0200001N1+01421+00221999999ADDGA1001+999999999GF100991001001999999001001MA1999999086201MD1110141+9999ME1315799REMSYN066AAXX  24214 16008 42970 00506 10142 20022 38620 48579 51014 92045;
0188160080999992000082500004+45750+010520FM-12+146199999V0200501N003112200019N0200001N1+01181+00371999999ADDAA199000091GA1001+999999999GF100991001001999999001001MA1999999086211MD1110011+9999ME1315789REMSYN066AAXX  25004 16008 32970 00506 10118 20037 38621 48578 51001 92345;EQDQ01  00002PRCP99
0158160080999992000082503004+45750+010520FM-12+146199999V0200401N003112200019N0200001N1+01001+00331999999ADDGA1001+999999999GF100991001001999999001001MA1999999086151MD1810051+9999ME1315739REMSYN066AAXX  25034 16008 42970 00406 10100 20033 38615 48573 58005 90245;
0223160080999992000082506004+45750+010520FM-12+146199999V0200401N003112200019N0240001N1+00881+00411999999ADDAA199000091GA1001+999999999GF100991001001999999001001IA1019KA1120N+00881MA1999999086111MD1610041+9999ME1315689REMSYN082AAXX  25064 16008 32974 00406 10088 20041 38611 48568 56004 90545 333 20088 30///;EQDQ01  00002PRCP99
0158160080999992000082509004+45750+010520FM-12+146199999V0200501N003112200019N0270001N1+01401+00461999999ADDGA1001+999999999GF100991001001999999001001MA1999999086101MD1810011+9999ME1315699REMSYN066AAXX  25094 16008 42977 00506 10140 20046 38610 48569 58001 90845;
0188160080999992000082512004+45750+010520FM-12+146199999V0200401N004112200019N0300001N1+02321-00241999999ADDAA199000091GA1001+999999999GF100991001001999999001001MA1999999086001MD1710101+9999ME1315629REMSYN066AAXX  25124 16008 32980 00408 10232 21024 38600 48562 57010 91145;EQDQ01  00002PRCP99
0158160080999992000082515004+45750+010520FM-12+146199999V0200401N004112200019N0350001N1+02341-00301999999ADDGA1001+999999999GF100991001001999999001001MA1999999085891MD1710111+9999ME1315529REMSYN066AAXX  25154 16008 42981 00408 10234 21030 38589 48552 57011 91445;
0211160080999992000082518004+45750+010520FM-12+146199999V0209999C000012200019N0300001N1+01821+00041999999ADDAA199000091GA1001+999999999GF100991001001999999001001KA1999M+02501MA1999999085811MD1610081+9999ME1315429REMSYN076AAXX  25184 16008 32980 00000 10182 20004 38581 48542 56008 91745 333 10250;EQDQ01  00002PRCP99
0158160080999992000082521004+45750+010520FM-12+146199999V0200201N001512200019N0200001N1+01301+00501999999ADDGA1001+999999999GF100991001001999999001001MA1999999085891MD1310081+9999ME1315489REMSYN066AAXX  25214 16008 42970 00203 10130 20050 38589 48548 53008 92045;
0188160080999992000082600004+45750+010520FM-12+146199999V0200201N002112200019N0200001N1+01001+00431999999ADDAA199000091GA1001+999999999GF100991001001999999001001MA1999999085911MD1010021+9999ME1315499REMSYN066AAXX  26004 16008 32970 00204 10100 20043 38591 48549 50002 92345;EQDQ01  00002PRCP99
0158160080999992000082603004+45750+010520FM-12+146199999V0200301N002112200019N0200001N1+00921+00471999999ADDGA1001+999999999GF100991001001999999001001MA1999999085821MD1710091+9999ME1315409REMSYN066AAXX  26034 16008 42970 00304 10092 20047 38582 48540 57009 90245;
0223160080999992000082606004+45750+010520FM-12+146199999V0200401N003612200019N0230001N1+00801+00401999999ADDAA199000091GA1001+999999999GF100991001001999999001001IA1019KA1120N+00801MA1999999085711MD1610111+9999ME1315299REMSYN082AAXX  26064 16008 32973 00407 10080 20040 38571 48529 56011 90545 333 20080 30///;EQDQ01  00002PRCP99
0158160080999992000082609004+45750+010520FM-12+146199999V0200401N003112200019N0280001N1+01321+00591999999ADDGA1001+999999999GF100991001001999999001001MA1999999085601MD1810111+9999ME1315209REMSYN066AAXX  26094 16008 42978 00406 10132 20059 38560 48520 58011 90845;
0220160080999992000082612004+45750+010520FM-12+146199999V0201001N004112200019N0300001N1+02001+00481999999ADDAA199000091GA1031+030009019GF103991031001999999011999MA1999999085521MD1610081+9999ME1315139REMSYN082AAXX  26124 16008 32980 31008 10200 20048 38552 48513 56008 83010 91145 333 83460;EQDQ01+000002SCOHCGQ02  00002PRCP99
0193160080999992000082615004+45750+010520FM-12+146199999V0202101N003112200019N0300001N1+02101+00461999999ADDGA1021+030009019GF102991021001999999011999MA1999999085431MD1810091+9999ME1315059REMSYN082AAXX  26154 16008 42980 22106 10210 20046 38543 48505 58009 82010 91445 333 82460;EQDQ01+000002SCOHCG
0211160080999992000082618004+45750+010520FM-12+146199999V0209999C000012200019N0260001N1+01801+00451999999ADDAA199000091GA1001+999999999GF100991001001999999001001KA1999M+02271MA1999999085411MD1610021+9999ME1315029REMSYN076AAXX  26184 16008 32976 00000 10180 20045 38541 48502 56002 91745 333 10227;EQDQ01  00002PRCP99
0158160080999992000082621004+45750+010520FM-12+146199999V0209999C000012200019N0200001N1+01281+00921999999ADDGA1001+999999999GF100991001001999999001001MA1999999085501MD1310091+9999ME1315109REMSYN066AAXX  26214 16008 42970 00000 10128 20092 38550 48510 53009 92045;
0188160080999992000082700004+45750+010520FM-12+146199999V0209999C000012200019N0200001N1+01101+00931999999ADDAA199000091GA1001+999999999GF100991001001999999001001MA1999999085511MD1110011+9999ME1315119REMSYN066AAXX  27004 16008 32970 00000 10110 20093 38551 48511 51001 92345;EQDQ01  00002PRCP99
0158160080999992000082703004+45750+010520FM-12+146199999V0209999C000012200019N0200001N1+01021+00921999999ADDGA1001+999999999GF100991001001999999001001MA1999999085501MD1810011+9999ME1315099REMSYN066AAXX  27034 16008 42970 00000 10102 20092 38550 48509 58001 90245;
0235160080999992000082706004+45750+010520FM-12+146199999V0209999C000010060019N0160001N1+01081+00971999999ADDAA199000091GA1051+006009029GF105991051021008001001001IA1099KA1120N+01011MA1999999085451MD1710051+9999ME1315059REMSYN094AAXX  27064 16008 32566 50000 10108 20097 38545 48505 57005 85200 90545 333 20101 31/// 85820;EQDQ01  00002PRCP99
0174160080999992000082709004+45750+010520FM-12+146199999V0201901N004610045019N0160001N1+01301+01091999999ADDGA1051+004509029GF105991051021004501001001MA1999999085391MD1710061+9999ME1315009REMSYN082AAXX  27094 16008 42466 51909 10130 20109 38539 48500 57006 85200 90845 333 85815;
0238160080999992000082712004+45750+010520FM-12+146199999V0202001N00571036001CN0030001N1+01801+01161999999ADDAA199000091AY111061AY211061GA1011+007509089GF106991031021008001011001MA1999999085301MD1710091+9999ME1314919MW1101REMSYN094AAXX  27124 16008 31530 62011 10180 20116 38530 48491 57009 71011 83210 91145 333 81825 86457;EQDQ01  00002PRCP99
0208160080999992000082715004+45750+010520FM-12+146199999V0200401N00981007501CN0060001N1+01621+00801999999ADDAY121031AY221031GA1021+007509089GF107991071021008001001001MA1999999085321MD1310021+9999ME1314939MW1101REMSYN094AAXX  27154 16008 41556 70419 10162 20080 38532 48493 53002 71022 87200 91445 333 82825 85830;
0238160080999992000082718004+45750+010520FM-12+146199999V0200201N006710075019N0080001N1+01401+00681999999ADDAA112000791AY161061AY221061GA1061+007509029GF108991061021008001021999KA1120M+01901MA1999999085481MD1110161+9999ME1315089MW1101REMSYN100AAXX  27184 16008 11558 80213 10140 20068 38548 48508 51016 69902 71062 8622/ 91745 333 10190 86825;
0202160080999992000082721004+45750+010520FM-12+146199999V0200301N005110075019N0080001N1+01241+00621999999ADDAY121031AY221031GA1081+007509059GF108991081051008001999999MA1999999085571MD1310091+9999ME1315179MW1101REMSYN088AAXX  27214 16008 41558 80310 10124 20062 38557 48517 53009 71022 885// 92045 333 88625;
0232160080999992000082800004+45750+010520FM-12+146199999V0200601N003610075019N0080001N1+01081+00601999999ADDAA199000091AY121061AY221061GA1081+007509059GF108991081051008001999999MA1999999085641MD1110071+9999ME1315239MW1101REMSYN088AAXX  28004 16008 31558 80607 10108 20060 38564 48523 51007 71022 885// 92345 333 88625;EQDQ01  00002PRCP99
0202160080999992000082803004+45750+010520FM-12+146199999V0200601N002110060019N0040001N1+00921+00691999999ADDAY121031AY221031GA1081+006009059GF108991081051008001999999MA1999999085631MD1810011+9999ME1315229MW1101REMSYN088AAXX  28034 16008 41540 80604 10092 20069 38563 48522 58001 71022 885// 90245 333 88620;
0250160080999992000082806004+45750+010520FM-12+146199999V0200701N004110075019N0180001N1+00901+00761999999ADDAA112000791AY161061AY221061GA1081+007509059GF108991081051008001999999IA1099KA1120N+00901MA1999999085661MD1310031+9999ME1315259MW1021REMSYN106AAXX  28064 16008 11568 80708 10090 20076 38566 48525 53003 69902 70262 885// 90545 333 20090 31/// 88625;
0174160080999992000082809004+45750+010520FM-12+146199999V0200601N002610075019N0180001N1+01101+00751999999ADDGA1051+007509029GF105991051021008001001001MA1999999085721MD1110051+9999ME1315319REMSYN082AAXX  28094 16008 42568 50605 10110 20075 38572 48531 51005 85200 90845 333 85825;
0204160080999992000082812004+45750+010520FM-12+146199999V0200401N004612200019N0180001N1+01801+00361999999ADDAA199000091GA1041+010509029GF104991041021012501001001MA1999999085681MD1810041+9999ME1315289REMSYN082AAXX  28124 16008 32668 40409 10180 20036 38568 48528 58004 84200 91145 333 84835;EQDQ01  00002PRCP99
0174160080999992000082815004+45750+010520FM-12+146199999V0200401N005712200019N0200001N1+01781+00321999999ADDGA1021+012009029GF102991021021012501001001MA1999999085641MD1610031+9999ME1315259REMSYN082AAXX  28154 16008 42670 20411 10178 20032 38564 48525 56003 82200 91445 333 82840;
0223160080999992000082818004+45750+010520FM-12+146199999V0200801N002612200019N0200001N1+01301+00311999999ADDAA199000091GA1031+012009029GF103991031021012501001001KA1120M+01841MA1999999085651MD1310011+9999ME1315259REMSYN088AAXX  28184 16008 32670 30805 10130 20031 38565 48525 53001 83200 91745 333 10184 83840;EQDQ01  00002PRCP99
0174160080999992000082821004+45750+010520FM-12+146199999V0200401N002112200019N0180001N1+01041+00651999999ADDGA1011+012009029GF101991011021012501001001MA1999999085821MD1210171+9999ME1315409REMSYN082AAXX  28214 16008 42668 10404 10104 20065 38582 48540 52017 81200 92045 333 81840;
0188160080999992000082900004+45750+010520FM-12+146199999V0200401N001512200019N0180001N1+00821+00661999999ADDAA199000091GA1001+999999999GF100991001001999999001001MA1999999085911MD1110091+9999ME1315489REMSYN066AAXX  29004 16008 32968 00403 10082 20066 38591 48548 51009 92345;EQDQ01  00002PRCP99
0158160080999992000082903004+45750+010520FM-12+146199999V0209999C000012200019N0120001N1+00741+00661999999ADDGA1001+999999999GF100991001001999999001001MA1999999085831MD1810081+9999ME1315419REMSYN066AAXX  29034 16008 42962 00000 10074 20066 38583 48541 58008 90245;
0251160080999992000082906004+45750+010520FM-12+146199999V0209999C000012200019N0140001N1+00661+00621999999ADDAA199000091GA1031+021009079GF103991031999022501051001IA1099KA1120N+00661MA1999999085841MD1310011+9999ME1315419REMSYN094AAXX  29064 16008 32864 30000 10066 20062 38584 48541 53001 83050 90545 333 20066 31/// 83357;EQDQ01+000002SCOLCGQ02  00002PRCP99
0215160080999992000082909004+45750+010520FM-12+146199999V0209999C000012200019N0120001N1+01161+00731999999ADDGA1021+007509089GF104991041021008001051001MA1999999085831MD1710011+9999ME1315429REMSYN088AAXX  29094 16008 42562 40000 10116 20073 38583 48542 58000 84250 90845 333 82825 84357;EQDQ01+000082APCTENQ02+000002APC3  
0204160080999992000082912004+45750+010520FM-12+146199999V0202001N004610090019N0120001N1+01401+00661999999ADDAA199000091GA1051+009009029GF105991051021008001001001MA1999999085801MD1610031+9999ME1315409REMSYN082AAXX  29124 16008 32562 52009 10140 20066 38580 48540 56003 85200 91145 333 85830;EQDQ01  00002PRCP99
0174160080999992000082915004+45750+010520FM-12+146199999V0202001N003112200019N0120001N1+01401+00871999999ADDGA1041+009009029GF104991041021008001001001MA1999999085771MD1810041+9999ME1315369REMSYN082AAXX  29154 16008 42562 42006 10140 20087 38577 48536 58004 84200 91445 333 84830;
0251160080999992000082918004+45750+010520FM-12+146199999V0202001N002610090019N0060001N1+01381+01011999999ADDAA199000091AY111061AY211061GA1071+009009059GF107991071051008001001001KA1120M+01421MA1999999085791MD1310021+9999ME1315389MW1101REMSYN094AAXX  29184 16008 31556 72005 10138 20101 38579 48538 53002 71011 87500 91745 333 10142 87630;EQDQ01  00002PRCP99
0202160080999992000082921004+45750+010520FM-12+146199999V0209999C000012200019N0040001N1+00941+00871999999ADDAY111031AY211031GA1021+009009029GF102991021021008001001001MA1999999085861MD1110081+9999ME1315459MW1101REMSYN088AAXX  29214 16008 41540 20000 10094 20087 38586 48545 51008 71011 82200 92045 333 82830;
0216160080999992000083000004+45750+010520FM-12+146199999V0209999C000012200019N0040001N1+00881+00881999999ADDAA199000091AY111061AY211061GA1001+999999999GF100991001001999999001001MA1999999085831MD1810031+9999ME1315429MW1101REMSYN072AAXX  30004 16008 31940 00000 10088 20088 38583 48542 58003 71011 92345;EQDQ01  00002PRCP99
0263160080999992000083006004+45750+010520FM-12+146199999V0209999C000010060019N0060001N1+00841+00791999999ADDAA199000091AY111061AY211061GA1071+006009059GF107991071051008001001001IA1099KA1120N+00741MA1999999085751MD1810041+9999ME1315339MW1101REMSYN100AAXX  30064 16008 31556 70000 10084 20079 38575 48533 58004 71011 87500 90545 333 20074 31/// 87620;EQDQ01  00002PRCP99
0208160080999992000083009004+45750+010520FM-12+146199999V0202201N00361007501CN0040001N1+01221+00781999999ADDAY111031AY211031GA1031+006009089GF106991061021008001011001MA1999999085671MD1810071+9999ME1315279MW1101REMSYN094AAXX  30094 16008 41540 62207 10122 20078 38567 48527 58007 71011 86210 90845 333 83820 86457;
0238160080999992000083012004+45750+010520FM-12+146199999V0202001N007210120019N0060001N1+01481+00831999999ADDAA199000091AY111061AY211061GA1041+007509089GF106991061081008001001001MA1999999085531MD1710141+9999ME1315139MW1101REMSYN094AAXX  30124 16008 31556 62014 10148 20083 38553 48513 57014 71011 86800 91145 333 84825 86640;EQDQ01  00002PRCP99
0208160080999992000083015004+45750+010520FM-12+146199999V0201501N00671036001CN0040001N1+01301+00831999999ADDAY121031AY221031GA1041+007509089GF108991021021008001021999MA1999999085391MD1710141+9999ME1314999MW1101REMSYN094AAXX  30154 16008 41540 81513 10130 20083 38539 48499 57014 71022 8222/ 91445 333 84825 88457;
0238160080999992000083018004+45750+010520FM-12+146199999V0201801N001510030019N0020001N1+01101+01091999999ADDAA112000591AY161061AY221061GA1081+003009069GF108991081071004501999999KA1120M+01541MA1999999085311MD1710081+9999ME1314919MW1601REMSYN100AAXX  30184 16008 11420 81803 10110 20109 38531 48491 57008 69962 76062 887// 91745 333 10154 88710;
0205160080999992000083021004+45750+010520FM-12+146199999V0201901N002112200019N0001001N1+00981+00871999999ADDAY161031AY241031GA1001+999999999GF100991001001999999001001MA1999999085301MD1610011+9999ME1314909MW1461REMSYN072AAXX  30214 16008 41901 01904 10098 20087 38530 48490 56001 74764 92045;EQDQ01+000472PRSWM1
0219160080999992000083100004+45750+010520FM-12+146199999V0209999C000010015019N0008001N1+00921+00711999999ADDAA106000791AY161061AY241061GA1081+001509069GF108991081061001501999999MA1999999085271MD1810031+9999ME1314879MW1421REMSYN094AAXX  31004 16008 11208 80000 10092 20071 38527 48487 58003 69901 74264 886// 92345 333 88705;
0202160080999992000083103004+45750+010520FM-12+146199999V0209999C000010015019N0005001N1+00881+00691999999ADDAY141031AY241031GA1081+001509069GF108991081061001501999999MA1999999085091MD1710181+9999ME1314709MW1461REMSYN088AAXX  31034 16008 41205 80000 10088 20069 38509 48470 57018 74644 886// 90245 333 88705;
0250160080999992000083106004+45750+010520FM-12+146199999V0209999C000010009019N0001001N1+00841+00621999999ADDAA112000191AY161061AY241061GA1081+000909069GF108991081071000751999999IA1119KA1120N+00841MA1999999085021MD1610071+9999ME1314639MW1601REMSYN106AAXX  31064 16008 11101 80000 10084 20062 38502 48463 56007 69922 76064 887// 90545 333 20084 32/// 88703;
0202160080999992000083109004+45750+010520FM-12+146199999V0201701N003110009019N0025001N1+00861+00621999999ADDAY161031AY241031GA1081+000909069GF108991081071000751999999MA1999999084981MD1810041+9999ME1314599MW1621REMSYN088AAXX  31094 16008 41125 81706 10086 20062 38498 48459 58004 76264 887// 90845 333 88703;
0219160080999992000083112004+45750+010520FM-12+146199999V0201801N004110009019N0018001N1+01001+00711999999ADDAA106000891AY161061AY241061GA1081+000909069GF108991081061000751999999MA1999999084901MD1610081+9999ME1314519MW1101REMSYN094AAXX  31124 16008 11118 81808 10100 20071 38490 48451 56008 69981 71064 886// 91145 333 88703;
0202160080999992000083115004+45750+010520FM-12+146199999V0201701N003110015019N0020001N1+01001+00751999999ADDAY121031AY221031GA1081+001509069GF108991081061001501999999MA1999999084781MD1810121+9999ME1314409MW1101REMSYN088AAXX  31154 16008 41220 81706 10100 20075 38478 48440 58012 71022 886// 91445 333 88705;
0238160080999992000083118004+45750+010520FM-12+146199999V0200701N003610015019N0020001N1+00881+00591999999ADDAA112001091AY161061AY261061GA1081+001509069GF108991081071001501999999KA1120M+01101MA1999999084761MD1610031+9999ME1314379MW1601REMSYN100AAXX  31184 16008 11220 80707 10088 20059 38476 48437 56003 60012 76066 887// 91745 333 10110 88705;
0202160080999992000083121004+45750+010520FM-12+146199999V0200601N003610045019N0020001N1+00701+00471999999ADDAY161031AY261031GA1081+004509069GF108991081071004501999999MA1999999084801MD1310041+9999ME1314419MW1601REMSYN088AAXX  31214 16008 41420 80607 10070 20047 38480 48441 53004 76066 887// 92045 333 88715;
0219160080999992000090100004+45750+010520FM-12+146199999V0200501N001510075019N0030001N1+00621+00351999999ADDAA106007991AY161061AY261061GA1081+007509059GF108991081051008001999999MA1999999084841MD1110041+9999ME1314459MW1101REMSYN094AAXX  01004 16008 11530 80503 10062 20035 38484 48445 51004 60081 71066 885// 92345 333 88625;
0202160080999992000090103004+45750+010520FM-12+146199999V0200601N002112200019N0060001N1+00601+00331999999ADDAY121031AY221031GA1041+009009059GF104991041051008001001001MA1999999084841MD1410001+9999ME1314469MW1101REMSYN088AAXX  01034 16008 41556 40604 10060 20033 38484 48446 54000 71022 84500 90245 333 84630;
0222160080999992000090106004+45750+010520FM-12+146199999V0200501N002610075019N0250001N1+00641+00351999999ADDAA112007991GA1061+007509059GF106991061051008001001001IA1119KA1120N+00601MA1999999084891MD1310051+9999ME1314509REMSYN100AAXX  01064 16008 12575 60505 10064 20035 38489 48450 53005 60082 86500 90545 333 20060 32/// 86625;
0174160080999992000090109004+45750+010520FM-12+146199999V0200501N002112200019N0200001N1+00981+00461999999ADDGA1031+009009029GF103991031021008001001001MA1999999084901MD1110011+9999ME1314519REMSYN082AAXX  01094 16008 42570 30504 10098 20046 38490 48451 51001 83200 90845 333 83830;
0174160080999992000090115004+45750+010520FM-12+146199999V0202101N007212200019N0250001N1+01581+00241999999ADDGA1021+009009029GF102991021011008001001001MA1999999084781MD1610071+9999ME1314399REMSYN082AAXX  01154 16008 42575 22114 10158 20024 38478 48439 56007 82100 91445 333 82830;
0158160080999992000090121004+45750+010520FM-12+146199999V0209999C000012200019N0250001N1+01021+00741999999ADDGA1001+999999999GF100991001001999999001001MA1999999084891MD1210081+9999ME1314509REMSYN066AAXX  01214 16008 42975 00000 10102 20074 38489 48450 52008 92045;
0188160080999992000090200004+45750+010520FM-12+146199999V0209999C000012200019N0250001N1+00941+00751999999ADDAA199000091GA1001+999999999GF100991001001999999001001MA1999999084901MD1110011+9999ME1314519REMSYN066AAXX  02004 16008 32975 00000 10094 20075 38490 48451 51001 92345;EQDQ01  00002PRCP99
0158160080999992000090203004+45750+010520FM-12+146199999V0209999C000012200019N0250001N1+00741+00611999999ADDGA1001+999999999GF100991001001999999001001MA1999999084831MD1810071+9999ME1314459REMSYN066AAXX  02034 16008 42975 00000 10074 20061 38483 48445 58007 90245;
0235160080999992000090206004+45750+010520FM-12+146199999V0209999C000010075019N0150001N1+00641+00551999999ADDAA199000091GA1071+007509059GF107991071041008001001001IA1019KA1120N+00621MA1999999084781MD1710051+9999ME1314409REMSYN094AAXX  02064 16008 32565 70000 10064 20055 38478 48440 57005 87400 90545 333 20062 30/// 87625;EQDQ01  00002PRCP99
0174160080999992000090215004+45750+010520FM-12+146199999V0200201N004110090019N0200001N1+01441+00681999999ADDGA1071+009009029GF107991071021008001001001MA1999999084641MD1610031+9999ME1314259REMSYN082AAXX  02154 16008 42570 70208 10144 20068 38464 48425 56003 87200 91445 333 87830;
0223160080999992000090218004+45750+010520FM-12+146199999V0203601N004112200019N0200001N1+01081+00261999999ADDAA199000091GA1021+009009029GF102991021021008001001001KA1120M+01441MA1999999084761MD1310121+9999ME1314379REMSYN088AAXX  02184 16008 32570 23608 10108 20026 38476 48437 53012 82200 91745 333 10144 82830;EQDQ01  00002PRCP99
0158160080999992000090221004+45750+010520FM-12+146199999V0209999C000012200019N0200001N1+00781+00091999999ADDGA1001+999999999GF100991001001999999001001MA1999999084921MD1210161+9999ME1314539REMSYN066AAXX  02214 16008 42970 00000 10078 20009 38492 48453 52016 92045;
0188160080999992000090300004+45750+010520FM-12+146199999V0203601N003612200019N0200001N1+00601+00101999999ADDAA199000091GA1001+999999999GF100991001001999999001001MA1999999084931MD1110011+9999ME1314549REMSYN066AAXX  03004 16008 32970 03607 10060 20010 38493 48454 51001 92345;EQDQ01  00002PRCP99
0158160080999992000090303004+45750+010520FM-12+146199999V0209999C000012200019N0200001N1+00601-00111999999ADDGA1001+999999999GF100991001001999999001001MA1999999084941MD1410001+9999ME1314559REMSYN066AAXX  03034 16008 42970 00000 10060 21011 38494 48455 54000 90245;
0235160080999992000090306004+45750+010520FM-12+146199999V0203601N002610090019N0150001N1+00621+00351999999ADDAA199000091GA1081+009009059GF108991081041008001999999IA1099KA1120N+00521MA1999999084901MD1810031+9999ME1314529REMSYN094AAXX  03064 16008 32565 83605 10062 20035 38490 48452 58003 884// 90545 333 20052 31/// 88630;EQDQ01  00002PRCP99
0174160080999992000090309004+45750+010520FM-12+146199999V0200401N004110090019N0250001N1+00801+00131999999ADDGA1051+009009059GF105991051041008001001001MA1999999085001MD1310101+9999ME1314619REMSYN082AAXX  03094 16008 42575 50408 10080 20013 38500 48461 53010 85400 90845 333 85630;
0204160080999992000090312004+45750+010520FM-12+146199999V0202101N007212200019N0250001N1+01441-00301999999ADDAA199000091GA1031+009009029GF103991031021008001001001MA1999999085021MD1410001+9999ME1314629REMSYN082AAXX  03124 16008 32575 32114 10144 21030 38502 48462 54001 83200 91145 333 83830;EQDQ01  00002PRCP99
0174160080999992000090315004+45750+010520FM-12+146199999V0202001N006712200019N0250001N1+01361-00121999999ADDGA1041+009009059GF104991041041008001001001MA1999999085001MD1810011+9999ME1314619REMSYN082AAXX  03154 16008 42575 42013 10136 21012 38500 48461 58001 84400 91445 333 84630;
0223160080999992000090318004+45750+010520FM-12+146199999V0209999C000010120019N0250001N1+01081+00031999999ADDAA199000091GA1051+012009059GF105991051041012501001001KA1120M+01541MA1999999084991MD1610011+9999ME1314609REMSYN088AAXX  03184 16008 32675 50000 10108 20003 38499 48460 56001 85400 91745 333 10154 85640;EQDQ01  00002PRCP99
0204160080999992000090400004+45750+010520FM-12+146199999V0209999C000010090019N0200001N1+00541+00311999999ADDAA199000091GA1071+009009029GF107991071011008001001001MA1999999085221MD1210081+9999ME1314829REMSYN082AAXX  04004 16008 32570 70000 10054 20031 38522 48482 52008 87100 92345 333 87830;EQDQ01  00002PRCP99
0174160080999992000090403004+45750+010520FM-12+146199999V0201901N005110090019N0200001N1+00581+00261999999ADDGA1061+009009029GF106991061011008001001001MA1999999085201MD1810021+9999ME1314809REMSYN082AAXX  04034 16008 42570 61910 10058 20026 38520 48480 58002 86100 90245 333 86830;
0235160080999992000090406004+45750+010520FM-12+146199999V0209999C000012200019N0200001N1+00461+00281999999ADDAA199000091GA1021+009009029GF102991021011008001001001IA1019KA1120N+00461MA1999999085221MD1310021+9999ME1314829REMSYN094AAXX  04064 16008 32570 20000 10046 20028 38522 48482 53002 82100 90545 333 20046 30/// 82830;EQDQ01  00002PRCP99
0174160080999992000090409004+45750+010520FM-12+146199999V0201901N008212200019N0250001N1+00621+00261999999ADDGA1041+009009029GF104991041011008001001001MA1999999085261MD1110041+9999ME1314859REMSYN082AAXX  04094 16008 42575 41916 10062 20026 38526 48485 51004 84100 90845 333 84830;
0204160080999992000090412004+45750+010520FM-12+146199999V0200401N00771007501CN0250001N1+01361-00191999999ADDAA199000091GA1031+009009029GF106991061021008001001081MA1999999085261MD1410001+9999ME1314869REMSYN082AAXX  04124 16008 32575 60415 10136 21019 38526 48486 54000 86208 91145 333 83830;EQDQ01  00002PRCP99
0180160080999992000090415004+45750+010520FM-12+146199999V0200301N00871007501CN0200001N1+01161+00021999999ADDGA1021+007509089GF106991061021008001001001MA1999999085291MD1310031+9999ME1314899REMSYN088AAXX  04154 16008 42570 60317 10116 20002 38529 48489 53003 86200 91445 333 82825 85830;
0223160080999992000090418004+45750+010520FM-12+146199999V0200201N007712200019N0200001N1+00801-00181999999ADDAA199000091GA1031+009009029GF103991031011008001001001KA1120M+01421MA1999999085401MD1210111+9999ME1314999REMSYN088AAXX  04184 16008 32570 30215 10080 21018 38540 48499 52011 83100 91745 333 10142 83830;EQDQ01  00002PRCP99
0174160080999992000090421004+45750+010520FM-12+146199999V0209999C000012200019N0200001N1+00601-00121999999ADDGA1021+009009029GF102991021011008001001001MA1999999085601MD1210201+9999ME1315189REMSYN082AAXX  04214 16008 42570 20000 10060 21012 38560 48518 52020 82100 92045 333 82830;
0188160080999992000090500004+45750+010520FM-12+146199999V0200801N005712200019N0200001N1+00461+00101999999ADDAA199000091GA1001+999999999GF100991001001999999001001MA1999999085671MD1110071+9999ME1315259REMSYN066AAXX  05004 16008 32970 00811 10046 20010 38567 48525 51007 92345;EQDQ01  00002PRCP99
0158160080999992000090503004+45750+010520FM-12+146199999V0200601N004112200019N0200001N1+00441+00051999999ADDGA1001+999999999GF100991001001999999001001MA1999999085671MD1410001+9999ME1315259REMSYN066AAXX  05034 16008 42970 00608 10044 20005 38567 48525 54000 90245;
0235160080999992000090506004+45750+010520FM-12+146199999V0200301N005110090019N0200001N1+00401+00081999999ADDAA199000091GA1071+009009029GF107991071011008001001001IA1019KA1120N+00401MA1999999085641MD1810031+9999ME1315229REMSYN094AAXX  05064 16008 32570 70310 10040 20008 38564 48522 58003 87100 90545 333 20040 30/// 87830;EQDQ01  00002PRCP99
0174160080999992000090509004+45750+010520FM-12+146199999V0200301N006210105019N0200001N1+00621+00151999999ADDGA1061+010509059GF106991061041012501001001MA1999999085721MD1310081+9999ME1315309REMSYN082AAXX  05094 16008 42670 60312 10062 20015 38572 48530 53008 86400 90845 333 86635;
0204160080999992000090512004+45750+010520FM-12+146199999V0200401N006712200019N0250001N1+01361-00161999999ADDAA199000091GA1041+012009059GF104991041041012501001001MA1999999085711MD1810021+9999ME1315309REMSYN082AAXX  05124 16008 32675 40413 10136 21016 38571 48530 58002 84400 91145 333 84640;EQDQ01  00002PRCP99
0174160080999992000090515004+45750+010520FM-12+146199999V0200201N007712200019N0300001N1+01301-00201999999ADDGA1021+010509029GF102991021011012501001001MA1999999085691MD1610021+9999ME1315299REMSYN082AAXX  05154 16008 42680 20215 10130 21020 38569 48529 56002 82100 91445 333 82835;
0223160080999992000090518004+45750+010520FM-12+146199999V0200301N003612200019N0250001N1+00881-00201999999ADDAA199000091GA1011+009009029GF101991011011008001001001KA1120M+01421MA1999999085671MD1810021+9999ME1315269REMSYN088AAXX  05184 16008 32575 10307 10088 21020 38567 48526 58002 81100 91745 333 10142 81830;EQDQ01  00002PRCP99
0158160080999992000090521004+45750+010520FM-12+146199999V0209999C000012200019N0250001N1+00521+00001999999ADDGA1001+999999999GF100991001001999999001001MA1999999085831MD1310151+9999ME1315409REMSYN066AAXX  05214 16008 42975 00000 10052 20000 38583 48540 53015 92045;
0188160080999992000090600004+45750+010520FM-12+146199999V0209999C000012200019N0250001N1+00301+00021999999ADDAA199000091GA1001+999999999GF100991001001999999001001MA1999999085841MD1110011+9999ME1315409REMSYN066AAXX  06004 16008 32975 00000 10030 20002 38584 48540 51001 92345;EQDQ01  00002PRCP99
0158160080999992000090603004+45750+010520FM-12+146199999V0209999C000012200019N0250001N1+00261+00071999999ADDGA1001+999999999GF100991001001999999001001MA1999999085741MD1810101+9999ME1315319REMSYN066AAXX  06034 16008 42975 00000 10026 20007 38574 48531 58010 90245;
0213160080999992000090606004+45750+010520FM-12+146199999V0209999C000012200019N0250001N1+00201-00051999999ADDAA199000091GF104991001001999999001011IA1099KA1120N+00201MA1999999085671MD1710071+9999ME1315249REMSYN088AAXX  06064 16008 32975 40000 10020 21005 38567 48524 57007 80001 90545 333 20020 31///;EQDQ01  00002PRCP99
0158160080999992000090609004+45750+010520FM-12+146199999V0200501N004112200019N0300001N1+00701-00151999999ADDGA1001+999999999GF100991001001999999001001MA1999999085581MD1710091+9999ME1315179REMSYN066AAXX  06094 16008 42980 00508 10070 21015 38558 48517 57009 90845;
0204160080999992000090612004+45750+010520FM-12+146199999V0202001N005112200019N0300001N1+01481-00061999999ADDAA199000091GA1041+012009059GF104991041051012501001001MA1999999085431MD1710151+9999ME1315049REMSYN082AAXX  06124 16008 32680 42010 10148 21006 38543 48504 57015 84500 91145 333 84640;EQDQ01  00002PRCP99
0180160080999992000090615004+45750+010520FM-12+146199999V0202201N00261036001CN0250001N1+01141+00091999999ADDGA1041+007509089GF108991041011008001021999MA1999999085371MD1610061+9999ME1314979REMSYN088AAXX  06154 16008 42575 82205 10114 20009 38537 48497 56006 8412/ 91445 333 84825 86456;
0244160080999992000090618004+45750+010520FM-12+146199999V0203601N00261036001CN0200001N1+00841+00561999999ADDAA112000591AY161061AY211061GA1031+006009089GF107991031021008001021001KA1120M+01641MA1999999085401MD1310031+9999ME1315009MW1601REMSYN106AAXX  06184 16008 11570 73605 10084 20056 38540 48500 53003 69942 76061 83220 91745 333 10164 83820 86450;
0202160080999992000090621004+45750+010520FM-12+146199999V0209999C000010105019N0150001N1+00701+00591999999ADDAY161031AY221031GA1061+010509059GF106991061051012501001001MA1999999085321MD1810091+9999ME1314929MW1011REMSYN088AAXX  06214 16008 41665 60000 10070 20059 38532 48492 58009 70162 86500 92045 333 86635;
0219160080999992000090700004+45750+010520FM-12+146199999V0200501N002610090019N0150001N1+00641+00521999999ADDAA106000791AY161061AY221061GA1081+009009059GF108991081051008001999999MA1999999085181MD1610141+9999ME1314789MW1601REMSYN094AAXX  07004 16008 11565 80505 10064 20052 38518 48478 56014 69901 76062 885// 92345 333 88630;
0202160080999992000090703004+45750+010520FM-12+146199999V0209999C000010090019N0130001N1+00621+00561999999ADDAY161031AY261031GA1081+009009059GF108991081051008001999999MA1999999085081MD1810091+9999ME1314699MW1601REMSYN088AAXX  07034 16008 41563 80000 10062 20056 38508 48469 58009 76066 885// 90245 333 88630;
0250160080999992000090706004+45750+010520FM-12+146199999V0200601N004610075019N0110001N1+00601+00551999999ADDAA112000591AY161061AY261061GA1071+007509059GF107991071051008001001001IA1119KA1120N+00561MA1999999084901MD1610181+9999ME1314529MW1601REMSYN106AAXX  07064 16008 11561 70609 10060 20055 38490 48452 56018 69942 76066 87500 90545 333 20056 32/// 87625;
0202160080999992000090709004+45750+010520FM-12+146199999V0200601N004110045019N0110001N1+00641+00471999999ADDAY161031AY221031GA1051+004509029GF105991051021004501001001MA1999999085051MD1310151+9999ME1314669MW1011REMSYN088AAXX  07094 16008 41461 50608 10064 20047 38505 48466 53015 70162 85200 90845 333 85815;
0219160080999992000090712004+45750+010520FM-12+146199999V0200101N005712200019N0200001N1+01401-00851999999ADDAA106002091AY161061AY211061GA1041+006009029GF104991041011008001001001MA1999999085101MD1110051+9999ME1314719MW1021REMSYN094AAXX  07124 16008 11570 40111 10140 21085 38510 48471 51005 60021 70261 84100 91145 333 84820;
0174160080999992000090715004+45750+010520FM-12+146199999V0200401N005712200019N0300001N1+01441-01251999999ADDGA1041+007509029GF104991041011008001001001MA1999999085121MD1110011+9999ME1314739REMSYN082AAXX  07154 16008 42580 40411 10144 21125 38512 48473 51001 84100 91445 333 84825;
0210160080999992000090718004+45750+010520FM-12+146199999V0203501N003610060019N0250001N1+00861-00541999999ADDAA112002091GA1051+006009029GF105991051021008001001001KA1120M+01641MA1999999085291MD1210171+9999ME1314899REMSYN094AAXX  07184 16008 12575 53507 10086 21054 38529 48489 52017 60022 85200 91745 333 10164 85820;
0174160080999992000090721004+45750+010520FM-12+146199999V0200701N007212200019N0150001N1+00501+00151999999ADDGA1041+006009029GF104991041011008001001001MA1999999085541MD1110251+9999ME1315129REMSYN082AAXX  07214 16008 42565 40714 10050 20015 38554 48512 51025 84100 92045 333 84820;
0188160080999992000090800004+45750+010520FM-12+146199999V0200801N005712200019N0150001N1+00481+00131999999ADDAA199000091GA1001+999999999GF100991001001999999001001MA1999999085601MD1310061+9999ME1315189REMSYN066AAXX  08004 16008 32965 00811 10048 20013 38560 48518 53006 92345;EQDQ01  00002PRCP99
0158160080999992000090803004+45750+010520FM-12+146199999V0200601N004612200019N0150001N1+00381+00131999999ADDGA1001+999999999GF100991001001999999001001MA1999999085691MD1110091+9999ME1315269REMSYN066AAXX  08034 16008 42965 00609 10038 20013 38569 48526 51009 90245;
0223160080999992000090806004+45750+010520FM-12+146199999V0200601N002612200019N0200001N1+00261+00091999999ADDAA199000091GA1001+999999999GF100991001001999999001001IA1019KA1120N+00261MA1999999085731MD1110041+9999ME1315309REMSYN082AAXX  08064 16008 32970 00605 10026 20009 38573 48530 51004 90545 333 20026 30///;EQDQ01  00002PRCP99
0158160080999992000090809004+45750+010520FM-12+146199999V0200601N004612200019N0300001N1+00601+00051999999ADDGA1001+999999999GF100991001001999999001001MA1999999085821MD1110091+9999ME1315399REMSYN066AAXX  08094 16008 42980 00609 10060 20005 38582 48539 51009 90845;
0188160080999992000090812004+45750+010520FM-12+146199999V0200401N006712200019N0350001N1+01541-00241999999ADDAA199000091GA1001+999999999GF100991001001999999001001MA1999999085821MD1410001+9999ME1315429REMSYN066AAXX  08124 16008 32981 00413 10154 21024 38582 48542 54000 91145;EQDQ01  00002PRCP99
0158160080999992000090815004+45750+010520FM-12+146199999V0200601N004112200019N0350001N1+01761-00521999999ADDGA1001+999999999GF100991001001999999001001MA1999999085741MD1810071+9999ME1315359REMSYN066AAXX  08154 16008 42981 00608 10176 21052 38574 48535 58007 91445;
0201160080999992000090818004+45750+010520FM-12+146199999V0209999C000012200019N0300001N1+01161+00181999999ADDAA199000091GF104991001001999999001011KA1999M+01821MA1999999085841MD1310101+9999ME1315439REMSYN082AAXX  08184 16008 32980 40000 10116 20018 38584 48543 53010 80001 91745 333 10182;EQDQ01  00002PRCP99
0148160080999992000090821004+45750+010520FM-12+146199999V0209999C000012200019N0250001N1+00681+00311999999ADDGF104991001001999999001011MA1999999086061MD1210211+9999ME1315629REMSYN072AAXX  08214 16008 42975 40000 10068 20031 38606 48562 52021 80001 92045;
0188160080999992000090900004+45750+010520FM-12+146199999V0209999C000012200019N0200001N1+00561+00361999999ADDAA199000091GA1001+999999999GF100991001001999999001001MA1999999086151MD1210091+9999ME1315719REMSYN066AAXX  09004 16008 32970 00000 10056 20036 38615 48571 52009 92345;EQDQ01  00002PRCP99
0158160080999992000090903004+45750+010520FM-12+146199999V0209999C000012200019N0150001N1+00361+00231999999ADDGA1001+999999999GF100991001001999999001001MA1999999086221MD1110071+9999ME1315769REMSYN066AAXX  09034 16008 42965 00000 10036 20023 38622 48576 51007 90245;
0213160080999992000090906004+45750+010520FM-12+146199999V0200501N003112200019N0200001N1+00321+00171999999ADDAA199000091GF103991001001999999001011IA1019KA1120N+00321MA1999999086191MD1810031+9999ME1315739REMSYN088AAXX  09064 16008 32970 30506 10032 20017 38619 48573 58003 80001 90545 333 20032 30///;EQDQ01  00002PRCP99
0148160080999992000090909004+45750+010520FM-12+146199999V0200401N001512200019N0250001N1+00901+00281999999ADDGF104991001001999999001011MA1999999086181MD1610011+9999ME1315759REMSYN072AAXX  09094 16008 42975 40403 10090 20028 38618 48575 56001 80001 90845;
0178160080999992000090912004+45750+010520FM-12+146199999V0202001N005112200019N0250001N1+01601+00311999999ADDAA199000091GF104991001001999999001021MA1999999086181MD1810011+9999ME1315779REMSYN072AAXX  09124 16008 32975 42010 10160 20031 38618 48577 58001 80002 91145;EQDQ01  00002PRCP99
0148160080999992000090915004+45750+010520FM-12+146199999V0202001N006219999999N0250001N1+01621+00181999999ADDGF105991001001999999001021MA1999999086161MD1610011+9999ME1315769REMSYN072AAXX  09154 16008 42975 52012 10162 20018 38616 48576 56001 80002 91445;
0201160080999992000090918004+45750+010520FM-12+146199999V0209999C000019999999N0250001N1+01281+00541999999ADDAA199000091GF106991001001999999001011KA1999M+01701MA1999999086151MD1610011+9999ME1315749REMSYN082AAXX  09184 16008 32975 60000 10128 20054 38615 48574 56001 80001 91745 333 10170;EQDQ01  00002PRCP99
0148160080999992000090921004+45750+010520FM-12+146199999V0209999C000012200019N0200001N1+00781+00421999999ADDGF103991001001999999001011MA1999999086321MD1310161+9999ME1315879REMSYN072AAXX  09214 16008 42970 30000 10078 20042 38632 48587 53016 80001 92045;
0178160080999992000091000004+45750+010520FM-12+146199999V0209999C000012200019N0200001N1+00681+00471999999ADDAA199000091GF102991001001999999001011MA1999999086371MD1110051+9999ME1315929REMSYN072AAXX  10004 16008 32970 20000 10068 20047 38637 48592 51005 80001 92345;EQDQ01  00002PRCP99
0158160080999992000091003004+45750+010520FM-12+146199999V0209999C000012200019N0200001N1+00581+00351999999ADDGA1001+999999999GF100991001001999999001001MA1999999086241MD1810131+9999ME1315799REMSYN066AAXX  10034 16008 42970 00000 10058 20035 38624 48579 58013 90245;
0223160080999992000091006004+45750+010520FM-12+146199999V0200301N003112200019N0200001N1+00601+00351999999ADDAA199000091GA1001+999999999GF100991001001999999001001IA1019KA1120N+00541MA1999999086181MD1610061+9999ME1315739REMSYN082AAXX  10064 16008 32970 00306 10060 20035 38618 48573 56006 90545 333 20054 30///;EQDQ01  00002PRCP99
0158160080999992000091009004+45750+010520FM-12+146199999V0200401N001512200019N0200001N1+01081+00481999999ADDGA1001+999999999GF100991001001999999001001MA1999999086101MD1610081+9999ME1315689REMSYN066AAXX  10094 16008 42970 00403 10108 20048 38610 48568 56008 90845;
0178160080999992000091012004+45750+010520FM-12+146199999V0200101N003612200019N0250001N1+02202+00051999999ADDAA199000091GF103991001001999999001011MA1999999085991MD1610111+9999ME1315619REMSYN072AAXX  10124 16008 32975 30107 10220 20005 38599 48561 56011 80001 91145;EQDQ01  00002PRCP99
0148160080999992000091015004+45750+010520FM-12+146199999V0201901N004112200019N0250001N1+01841+00551999999ADDGF102991001001999999001011MA1999999085881MD1610111+9999ME1315499REMSYN072AAXX  10154 16008 42975 21908 10184 20055 38588 48549 56011 80001 91445;
0211160080999992000091018004+45750+010520FM-12+146199999V0209999C000012200019N0250001N1+01361+00641999999ADDAA199000091GA1001+999999999GF100991001001999999001001KA1999M+02341MA1999999085801MD1610081+9999ME1315409REMSYN076AAXX  10184 16008 32975 00000 10136 20064 38580 48540 56008 91745 333 10234;EQDQ01  00002PRCP99
0158160080999992000091021004+45750+010520FM-12+146199999V0209999C000012200019N0150001N1+00941+00611999999ADDGA1001+999999999GF100991001001999999001001MA1999999085891MD1310091+9999ME1315479REMSYN066AAXX  10214 16008 42965 00000 10094 20061 38589 48547 53009 92045;
0178160080999992000091100004+45750+010520FM-12+146199999V0209999C000012200019N0150001N1+00841+00621999999ADDAA199000091GF103991001001999999001011MA1999999085901MD1110011+9999ME1315479REMSYN072AAXX  11004 16008 32965 30000 10084 20062 38590 48547 51001 80001 92345;EQDQ01  00002PRCP99
0148160080999992000091103004+45750+010520FM-12+146199999V0209999C000012200019N0150001N1+00821+00681999999ADDGF103991001001999999001011MA1999999085801MD1810101+9999ME1315389REMSYN072AAXX  11034 16008 42965 30000 10082 20068 38580 48538 58010 80001 90245;
0223160080999992000091106004+45750+010520FM-12+146199999V0209999C000012200019N0150001N1+00721+00591999999ADDAA199000091GA1001+999999999GF100991001001999999001001IA1019KA1120N+00681MA1999999085711MD1610081+9999ME1315299REMSYN082AAXX  11064 16008 32965 00000 10072 20059 38571 48529 56008 90545 333 20068 30///;EQDQ01  00002PRCP99
0158160080999992000091109004+45750+010520FM-12+146199999V0200501N004612200019N0150001N1+01281+00741999999ADDGA1001+999999999GF100991001001999999001001MA1999999085641MD1610071+9999ME1315249REMSYN066AAXX  11094 16008 42965 00509 10128 20074 38564 48524 56007 90845;
0188160080999992000091112004+45750+010520FM-12+146199999V0200501N005112200019N0200001N1+02201+00051999999ADDAA199000091GA1001+999999999GF100991001001999999001001MA1999999085581MD1610061+9999ME1315199REMSYN066AAXX  11124 16008 32970 00510 10220 20005 38558 48519 56006 91145;EQDQ01  00002PRCP99
0174160080999992000091115004+45750+010520FM-12+146199999V0202101N004110090019N0200001N1+01821+00831999999ADDGA1051+009009029GF105991051021008001001001MA1999999085411MD1610171+9999ME1315029REMSYN082AAXX  11154 16008 42570 52108 10182 20083 38541 48502 56017 85200 91445 333 85830;
0223160080999992000091118004+45750+010520FM-12+146199999V0209999C000010090019N0200001N1+01521+01021999999ADDAA199000091GA1051+009009059GF105991051041008001001001KA1120M+02501MA1999999085421MD1310011+9999ME1315029REMSYN088AAXX  11184 16008 32570 50000 10152 20102 38542 48502 53001 85400 91745 333 10250 85630;EQDQ01  00002PRCP99
0158160080999992000091121004+45750+010520FM-12+146199999V0209999C000012200019N0150001N1+01021+00831999999ADDGA1001+999999999GF100991001001999999001001MA1999999085591MD1210171+9999ME1315189REMSYN066AAXX  11214 16008 42965 00000 10102 20083 38559 48518 52017 92045;
0188160080999992000091200004+45750+010520FM-12+146199999V0209999C000012200019N0150001N1+00881+00741999999ADDAA199000091GA1001+999999999GF100991001001999999001001MA1999999085601MD1110011+9999ME1315199REMSYN066AAXX  12004 16008 32965 00000 10088 20074 38560 48519 51001 92345;EQDQ01  00002PRCP99
0158160080999992000091203004+45750+010520FM-12+146199999V0209999C000012200019N0150001N1+00801+00731999999ADDGA1001+999999999GF100991001001999999001001MA1999999085601MD1410001+9999ME1315199REMSYN066AAXX  12034 16008 42965 00000 10080 20073 38560 48519 54000 90245;
0223160080999992000091206004+45750+010520FM-12+146199999V0209999C000012200019N0200001N1+00601+00521999999ADDAA199000091GA1001+999999999GF100991001001999999001001IA1019KA1120N+00601MA1999999085601MD1410001+9999ME1315189REMSYN082AAXX  12064 16008 32970 00000 10060 20052 38560 48518 54000 90545 333 20060 30///;EQDQ01  00002PRCP99
0158160080999992000091209004+45750+010520FM-12+146199999V0209999C000012200019N0200001N1+01121+00641999999ADDGA1001+999999999GF100991001001999999001001MA1999999085581MD1810011+9999ME1315189REMSYN066AAXX  12094 16008 42970 00000 10112 20064 38558 48518 58001 90845;
0188160080999992000091212004+45750+010520FM-12+146199999V0202101N005112200019N0200001N1+01701+00561999999ADDAA199000091GA1001+999999999GF100991001001999999001001MA1999999085511MD1710081+9999ME1315119REMSYN066AAXX  12124 16008 32970 02110 10170 20056 38551 48511 57008 91145;EQDQ01  00002PRCP99
0158160080999992000091215004+45750+010520FM-12+146199999V0201701N007212200019N0200001N1+01701+00791999999ADDGA1001+999999999GF100991001001999999001001MA1999999085411MD1610101+9999ME1315019REMSYN066AAXX  12154 16008 42970 01714 10170 20079 38541 48501 56010 91445;
0223160080999992000091218004+45750+010520FM-12+146199999V0209999C000010090019N0150001N1+01421+00941999999ADDAA199000091GA1051+009009059GF105991051051008001001001KA1120M+01821MA1999999085411MD1410001+9999ME1315019REMSYN088AAXX  12184 16008 32565 50000 10142 20094 38541 48501 54000 85500 91745 333 10182 85630;EQDQ01  00002PRCP99
0158160080999992000091221004+45750+010520FM-12+146199999V0209999C000012200019N0150001N1+01101+00801999999ADDGA1001+999999999GF100991001001999999001001MA1999999085501MD1310091+9999ME1315099REMSYN066AAXX  12214 16008 42965 00000 10110 20080 38550 48509 53009 92045;
0188160080999992000091300004+45750+010520FM-12+146199999V0209999C000012200019N0150001N1+00901+00761999999ADDAA199000091GA1001+999999999GF100991001001999999001001MA1999999085561MD1110061+9999ME1315159REMSYN066AAXX  13004 16008 32965 00000 10090 20076 38556 48515 51006 92345;EQDQ01  00002PRCP99
0158160080999992000091303004+45750+010520FM-12+146199999V0209999C000012200019N0150001N1+00721+00651999999ADDGA1001+999999999GF100991001001999999001001MA1999999085511MD1810051+9999ME1315109REMSYN066AAXX  13034 16008 42965 00000 10072 20065 38551 48510 58005 90245;
0223160080999992000091306004+45750+010520FM-12+146199999V0209999C000012200019N0150001N1+00681+00651999999ADDAA199000091GA1001+999999999GF100991001001999999001001IA1019KA1120N+00641MA1999999085501MD1710011+9999ME1315099REMSYN082AAXX  13064 16008 32965 00000 10068 20065 38550 48509 57001 90545 333 20064 30///;EQDQ01  00002PRCP99
0174160080999992000091309004+45750+010520FM-12+146199999V0202101N003110090019N0150001N1+01101+00681999999ADDGA1051+009009059GF105991051051008001001001MA1999999085431MD1610071+9999ME1315029REMSYN082AAXX  13094 16008 42565 52106 10110 20068 38543 48502 56007 85500 90845 333 85630;
0219160080999992000091312004+45750+010520FM-12+146199999V0209999C000010090019N0150001N1+01241+01011999999ADDAA106000591AY121061AY221061GA1061+009009059GF106991061051008001001001MA1999999085441MD1310011+9999ME1315049MW1211REMSYN094AAXX  13124 16008 11565 60000 10124 20101 38544 48504 53001 69941 72122 86500 91145 333 86630;
0174160080999992000091315004+45750+010520FM-12+146199999V0200901N005110090019N0150001N1+01541+00931999999ADDGA1061+009009059GF106991061051008001001001MA1999999085411MD1810031+9999ME1315019REMSYN082AAXX  13154 16008 42565 60910 10154 20093 38541 48501 58003 86500 91445 333 86630;
0210160080999992000091318004+45750+010520FM-12+146199999V0209999C000010090019N0150001N1+01261+00941999999ADDAA112000591GA1051+009009059GF105991051051008001001001KA1120M+01561MA1999999085401MD1610011+9999ME1315009REMSYN094AAXX  13184 16008 12565 50000 10126 20094 38540 48500 56001 69942 85500 91745 333 10156 85630;
0174160080999992000091321004+45750+010520FM-12+146199999V0209999C000010090019N0150001N1+01081+00831999999ADDGA1051+009009059GF105991051051008001001001MA1999999085541MD1310141+9999ME1315139REMSYN082AAXX  13214 16008 42565 50000 10108 20083 38554 48513 53014 85500 92045 333 85630;
0169160080999992000091400004+45750+010520FM-12+146199999V0209999C000012200019N0150001N1+00701+00661999999ADDAA199000021GA1001+999999999GF100991001001999999001001MA1999999085601MD1110061+9999ME1315189REMSYN066AAXX  14004 16008 32965 00000 10070 20066 38560 48518 51006 92345;
0158160080999992000091403004+45750+010520FM-12+146199999V0209999C000012200019N0150001N1+00701+00661999999ADDGA1001+999999999GF100991001001999999001001MA1999999085601MD1410001+9999ME1315189REMSYN066AAXX  14034 16008 42965 00000 10070 20066 38560 48518 54000 90245;
0223160080999992000091406004+45750+010520FM-12+146199999V0209999C000012200019N0200001N1+00701+00511999999ADDAA199000091GA1001+999999999GF100991001001999999001001IA1019KA1120N+00661MA1999999085581MD1810021+9999ME1315169REMSYN082AAXX  14064 16008 32970 00000 10070 20051 38558 48516 58002 90545 333 20066 30///;EQDQ01  00002PRCP99
0174160080999992000091409004+45750+010520FM-12+146199999V0200301N004110090019N0200001N1+01201+00511999999ADDGA1051+009009059GF105991051051008001001001MA1999999085601MD1310021+9999ME1315199REMSYN082AAXX  14094 16008 42570 50308 10120 20051 38560 48519 53002 85500 90845 333 85630;
0204160080999992000091412004+45750+010520FM-12+146199999V0209999C000010090019N0200001N1+02081+00101999999ADDAA199000091GA1051+009009059GF105991051051008001001001MA1999999085591MD1810011+9999ME1315209REMSYN082AAXX  14124 16008 32570 50000 10208 20010 38559 48520 58001 85500 91145 333 85630;EQDQ01  00002PRCP99
0174160080999992000091415004+45750+010520FM-12+146199999V0202101N005110090019N0200001N1+01681+00621999999ADDGA1061+009009059GF106991061051008001001001MA1999999085511MD1710081+9999ME1315119REMSYN082AAXX  14154 16008 42570 62110 10168 20062 38551 48511 57008 86500 91445 333 86630;
0223160080999992000091418004+45750+010520FM-12+146199999V0209999C000010090019N0150001N1+01301+00921999999ADDAA199000091GA1051+009009059GF105991051051008001001001KA1120M+02101MA1999999085521MD1310011+9999ME1315129REMSYN088AAXX  14184 16008 32565 50000 10130 20092 38552 48512 53001 85500 91745 333 10210 85630;EQDQ01  00002PRCP99
0158160080999992000091421004+45750+010520FM-12+146199999V0209999C000012200019N0150001N1+00901+00701999999ADDGA1001+999999999GF100991001001999999001001MA1999999085671MD1210151+9999ME1315259REMSYN066AAXX  14214 16008 42965 00000 10090 20070 38567 48525 52015 92045;
0188160080999992000091500004+45750+010520FM-12+146199999V0209999C000012200019N0150001N1+00761+00611999999ADDAA199000091GA1001+999999999GF100991001001999999001001MA1999999085711MD1110041+9999ME1315299REMSYN066AAXX  15004 16008 32965 00000 10076 20061 38571 48529 51004 92345;EQDQ01  00002PRCP99
0158160080999992000091503004+45750+010520FM-12+146199999V0209999C000012200019N0150001N1+00801+00611999999ADDGA1001+999999999GF100991001001999999001001MA1999999085691MD1810021+9999ME1315279REMSYN066AAXX  15034 16008 42965 00000 10080 20061 38569 48527 58002 90245;
0223160080999992000091506004+45750+010520FM-12+146199999V0209999C000012200019N0200001N1+00761+00611999999ADDAA199000091GA1001+999999999GF100991001001999999001001IA1019KA1120N+00701MA1999999085681MD1810011+9999ME1315269REMSYN082AAXX  15064 16008 32970 00000 10076 20061 38568 48526 58001 90545 333 20070 30///;EQDQ01  00002PRCP99
0174160080999992000091509004+45750+010520FM-12+146199999V0209999C000010090019N0200001N1+01321+00751999999ADDGA1051+009009059GF105991051051008001001001MA1999999085671MD1410001+9999ME1315269REMSYN082AAXX  15094 16008 42570 50000 10132 20075 38567 48526 54001 85500 90845 333 85630;
0188160080999992000091512004+45750+010520FM-12+146199999V0201801N005112200019N0200001N1+01801+00741999999ADDAA199000091GA1001+999999999GF100991001001999999001001MA1999999085551MD1810121+9999ME1315159REMSYN066AAXX  15124 16008 32970 01810 10180 20074 38555 48515 58012 91145;EQDQ01  00002PRCP99
0158160080999992000091515004+45750+010520FM-12+146199999V0202101N005112200019N0200001N1+01721+00841999999ADDGA1001+999999999GF100991001001999999001001MA1999999085451MD1610101+9999ME1315059REMSYN066AAXX  15154 16008 42970 02110 10172 20084 38545 48505 56010 91445;
0223160080999992000091518004+45750+010520FM-12+146199999V0209999C000010090019N0150001N1+01401+01111999999ADDAA199000091GA1051+009009059GF105991051051008001001001KA1120M+01981MA1999999085491MD1310041+9999ME1315099REMSYN088AAXX  15184 16008 32565 50000 10140 20111 38549 48509 53004 85500 91745 333 10198 85630;EQDQ01  00002PRCP99
0174160080999992000091521004+45750+010520FM-12+146199999V0201801N004110090019N0150001N1+01381+01161999999ADDGA1051+009009059GF105991051051008001001001MA1999999085601MD1110111+9999ME1315209REMSYN082AAXX  15214 16008 42565 51808 10138 20116 38560 48520 51011 85500 92045 333 85630;
0204160080999992000091600004+45750+010520FM-12+146199999V0209999C000010090019N0150001N1+01281+01181999999ADDAA199000091GA1051+009009059GF105991051051008001001001MA1999999085601MD1410001+9999ME1315199REMSYN082AAXX  16004 16008 32565 50000 10128 20118 38560 48519 54000 85500 92345 333 85630;EQDQ01  00002PRCP99
0174160080999992000091603004+45750+010520FM-12+146199999V0209999C000010090019N0150001N1+01181+01121999999ADDGA1061+009009059GF106991061051008001001001MA1999999085501MD1710101+9999ME1315099REMSYN082AAXX  16034 16008 42565 60000 10118 20112 38550 48509 57010 86500 90245 333 86630;
0235160080999992000091606004+45750+010520FM-12+146199999V0209999C000010075019N0100001N1+01101+01011999999ADDAA199000091GA1081+007509069GF108991081061008001999999IA1099KA1120N+01101MA1999999085451MD1810051+9999ME1315049REMSYN094AAXX  16064 16008 32560 80000 10110 20101 38545 48504 58005 886// 90545 333 20110 31/// 88725;EQDQ01  00002PRCP99
0174160080999992000091609004+45750+010520FM-12+146199999V0201801N005110090019N0150001N1+01301+01061999999ADDGA1081+009009069GF108991081061008001999999MA1999999085351MD1710101+9999ME1314959REMSYN082AAXX  16094 16008 42565 81810 10130 20106 38535 48495 57010 886// 90845 333 88730;
0219160080999992000091612004+45750+010520FM-12+146199999V0202001N006210030019N0100001N1+01141+00901999999ADDAA106000591AY121061AY221061GA1081+003009069GF108991081071004501999999MA1999999085271MD1710081+9999ME1314879MW1601REMSYN094AAXX  16124 16008 11460 82012 10114 20090 38527 48487 57008 69961 76022 887// 91145 333 88710;
0202160080999992000091615004+45750+010520FM-12+146199999V0202001N003610030019N0110001N1+01301+00801999999ADDAY161031AY221031GA1081+003009069GF108991081071004501999999MA1999999084991MD1710271+9999ME1314609MW1601REMSYN088AAXX  16154 16008 41461 82007 10130 20080 38499 48460 57027 76062 887// 91445 333 88710;
0238160080999992000091618004+45750+010520FM-12+146199999V0203501N003610030019N0110001N1+00941+00871999999ADDAA112002091AY161061AY221061GA1081+003009069GF108991081071004501999999KA1120M+01311MA1999999084901MD1510091+9999ME1314519MW1621REMSYN100AAXX  16184 16008 11461 83507 10094 20087 38490 48451 55009 60022 76262 887// 91745 333 10131 88710;
0202160080999992000091621004+45750+010520FM-12+146199999V0200501N002110030019N0120001N1+00701+00621999999ADDAY161031AY221031GA1081+003009069GF108991081061004501999999MA1999999084991MD1110091+9999ME1314609MW1021REMSYN088AAXX  16214 16008 41462 80504 10070 20062 38499 48460 51009 70262 886// 92045 333 88710;
0219160080999992000091700004+45750+010520FM-12+146199999V0209999C000010030019N0120001N1+00481+00401999999ADDAA106002091AY161061AY221061GA1081+003009069GF108991081061004501999999MA1999999085001MD1310011+9999ME1314619MW1021REMSYN094AAXX  17004 16008 11462 80000 10048 20040 38500 48461 53001 60021 70262 886// 92345 333 88710;
0193160080999992000091703004+45750+010520FM-12+146199999V0209999C000010090019N0120001N1+00501+00361999999ADDGA1081+009009059GF108991081051008001999999MA1999999085011MD1110011+9999ME1314629REMSYN082AAXX  17034 16008 42562 80000 10050 20036 38501 48462 51000 885// 90245 333 88630;EQDQ01+000002APC3  
0222160080999992000091706004+45750+010520FM-12+146199999V0209999C000010090019N0150001N1+00501+00321999999ADDAA112002091GA1081+009009059GF108991081051008001999999IA1099KA1120N+00401MA1999999085001MD1810011+9999ME1314619REMSYN100AAXX  17064 16008 12565 80000 10050 20032 38500 48461 58001 60022 885// 90545 333 20040 31/// 88630;
0204160080999992000091712004+45750+010520FM-12+146199999V0200401N005110090019N0240001N1+01521-00051999999ADDAA199000091GA1061+009009059GF106991061051008001001001MA1999999084951MD1810041+9999ME1314569REMSYN082AAXX  17124 16008 32574 60410 10152 21005 38495 48456 58004 86500 91450 333 86630;EQDQ01  00002PRCP99
0174160080999992000091721004+45750+010520FM-12+146199999V0200401N003110120019N0200001N1+00801+00361999999ADDGA1061+012009059GF106991061051012501001001MA1999999084991MD1110011+9999ME1314609REMSYN082AAXX  17214 16008 42670 60406 10080 20036 38499 48460 51001 86500 92045 333 86640;
0204160080999992000091800004+45750+010520FM-12+146199999V0200401N004610120019N0200001N1+00641+00451999999ADDAA199000091GA1061+012009059GF106991061051012501001001MA1999999085001MD1110011+9999ME1314619REMSYN082AAXX  18004 16008 32670 60409 10064 20045 38500 48461 51001 86500 92345 333 86640;EQDQ01  00002PRCP99
0174160080999992000091803004+45750+010520FM-12+146199999V0200401N003112200019N0200001N1+00421+00351999999ADDGA1041+012009059GF104991041051012501001001MA1999999084521MD1810081+9999ME1314549REMSYN082AAXX  18034 16008 42670 40406 10042 20035 38452 48454 58008 84500 90245 333 84640;
0251160080999992000091806004+45750+010520FM-12+146199999V0209999C000010240019N0230001N1+00321+00261999999ADDAA199000091GA1061+024009079GF106991061999022501031001IA1099KA1120N+00321MA1999999084901MD1610031+9999ME1314519REMSYN094AAXX  18064 16008 32873 60000 10032 20026 38490 48451 56003 86030 90545 333 20032 31/// 86358;EQDQ01  00002PRCP99Q02    003SCOLCG
0193160080999992000091809004+45750+010520FM-12+146199999V0209999C000012200019N0290001N1+00721+00211999999ADDGA1031+024009079GF103991031999022501031001MA1999999084901MD1410001+9999ME1314519REMSYN082AAXX  18094 16008 42879 30000 10072 20021 38490 48451 54000 83030 90845 333 83358;EQDQ01    003SCOLCG
0204160080999992000091812004+45750+010520FM-12+146199999V0202101N005112200019N0300001N1+01401+00281999999ADDAA199000091GA1031+007509029GF103991031021008001001001MA1999999084801MD1810101+9999ME1314419REMSYN082AAXX  18124 16008 32580 32110 10140 20028 38480 48441 58010 83200 91145 333 83825;EQDQ01  00002PRCP99
0174160080999992000091815004+45750+010520FM-12+146199999V0201901N004610075019N0300001N1+01361+00621999999ADDGA1051+007509029GF105991051021008001001001MA1999999084681MD1610111+9999ME1314309REMSYN082AAXX  18154 16008 42580 51909 10136 20062 38468 48430 56011 85200 91445 333 85825;
0223160080999992000091818004+45750+010520FM-12+146199999V0201601N003110075019N0240001N1+01181+00761999999ADDAA199000091GA1061+007509029GF106991061021008001001001KA1120M+01501MA1999999084691MD1310011+9999ME1314309REMSYN088AAXX  18184 16008 32574 61606 10118 20076 38469 48430 53001 86200 91745 333 10150 86825;EQDQ01  00002PRCP99
0174160080999992000091821004+45750+010520FM-12+146199999V0201601N003110075019N0200001N1+01081+00831999999ADDGA1061+007509029GF106991061021008001001001MA1999999084811MD1110121+9999ME1314429REMSYN082AAXX  18214 16008 42570 61606 10108 20083 38481 48442 51012 86200 92045 333 86825;
0204160080999992000091900004+45750+010520FM-12+146199999V0209999C000010075019N0200001N1+00941+00811999999ADDAA199000091GA1061+007509029GF106991061021008001001001MA1999999084811MD1410001+9999ME1314439REMSYN082AAXX  19004 16008 32570 60000 10094 20081 38481 48443 54000 86200 92345 333 86825;EQDQ01  00002PRCP99
0174160080999992000091903004+45750+010520FM-12+146199999V0209999C000010075019N0200001N1+00781+00641999999ADDGA1061+007509029GF106991061021008001001001MA1999999084811MD1410001+9999ME1314439REMSYN082AAXX  19034 16008 42570 60000 10078 20064 38481 48443 54000 86200 90245 333 86825;
0235160080999992000091906004+45750+010520FM-12+146199999V0209999C000010045019N0160001N1+00721+00651999999ADDAA199000091GA1071+004509029GF107991071021004501001001IA1099KA1120N+00671MA1999999084811MD1410001+9999ME1314439REMSYN094AAXX  19064 16008 32466 70000 10072 20065 38481 48443 54000 87200 90545 333 20067 31/// 87815;EQDQ01  00002PRCP99
0174160080999992000091909004+45750+010520FM-12+146199999V0201701N003610045019N0170001N1+00981+00681999999ADDGA1061+004509029GF106991061021004501001001MA1999999084881MD1310071+9999ME1314499REMSYN082AAXX  19094 16008 42467 61707 10098 20068 38488 48449 53007 86200 90845 333 86815;
0204160080999992000091912004+45750+010520FM-12+146199999V0201601N005110045019N0180001N1+01081+00731999999ADDAA199000091GA1061+004509029GF106991061021004501001001MA1999999084831MD1810051+9999ME1314449REMSYN082AAXX  19124 16008 32468 61610 10108 20073 38483 48444 58005 86200 91145 333 86815;EQDQ01  00002PRCP99
0174160080999992000091915004+45750+010520FM-12+146199999V0201901N005710045019N0140001N1+01201+00801999999ADDGA1061+004509029GF106991061021004501001001MA1999999084811MD1610021+9999ME1314429REMSYN082AAXX  19154 16008 42464 61911 10120 20080 38481 48442 56002 86200 91445 333 86815;
0223160080999992000091918004+45750+010520FM-12+146199999V0201701N004110045019N0130001N1+01121+00921999999ADDAA199000091GA1061+004509029GF106991061021004501001001KA1120M+01221MA1999999084811MD1410001+9999ME1314439REMSYN088AAXX  19184 16008 32463 61708 10112 20092 38481 48443 54000 86200 91745 333 10122 86815;EQDQ01  00002PRCP99
0174160080999992000091921004+45750+010520FM-12+146199999V0209999C000010045019N0120001N1+01001+00831999999ADDGA1061+004509029GF106991061021004501001001MA1999999084871MD1310061+9999ME1314489REMSYN082AAXX  19214 16008 42462 60000 10100 20083 38487 48448 53006 86200 92045 333 86815;
0204160080999992000092000004+45750+010520FM-12+146199999V0201801N003110045019N0120001N1+00921+00871999999ADDAA199000091GA1061+004509029GF106991061021004501001001MA1999999084901MD1110031+9999ME1314529REMSYN082AAXX  20004 16008 32462 61806 10092 20087 38490 48452 51003 86200 92345 333 86815;EQDQ01  00002PRCP99
0174160080999992000092003004+45750+010520FM-12+146199999V0201801N004610045019N0120001N1+00881+00811999999ADDGA1061+004509029GF106991061021004501001001MA1999999084901MD1410001+9999ME1314529REMSYN082AAXX  20034 16008 42462 61809 10088 20081 38490 48452 54000 86200 90245 333 86815;
0235160080999992000092006004+45750+010520FM-12+146199999V0201701N002110045019N0110001N1+00821+00601999999ADDAA199000091GA1071+004509029GF107991071021004501001001IA1019KA1120N+00821MA1999999084811MD1810101+9999ME1314429REMSYN094AAXX  20064 16008 32461 71704 10082 20060 38481 48442 58010 87200 90545 333 20082 30/// 87815;EQDQ01  00002PRCP99
0202160080999992000092009004+45750+010520FM-12+146199999V0201701N003610015019N0040001N1+00921+00681999999ADDAY161031AY221031GA1081+001509069GF108991081071001501999999MA1999999084811MD1510001+9999ME1314429MW1601REMSYN088AAXX  20094 16008 41240 81707 10092 20068 38481 48442 55000 76062 887// 90845 333 88705;
0219160080999992000092012004+45750+010520FM-12+146199999V0201601N007210015019N0110001N1+01141+00651999999ADDAA106000791AY161061AY221061GA1061+001509069GF106991061061001501001001MA1999999084791MD1810011+9999ME1314419MW1011REMSYN094AAXX  20124 16008 11261 61614 10114 20065 38479 48441 58001 69901 70162 86600 91145 333 86705;
0202160080999992000092015004+45750+010520FM-12+146199999V0209999C000010015019N0070001N1+01101+00921999999ADDAY191031AY261031GA1081+001509069GF108991081071001501999999MA1999999084881MD1310081+9999ME1314499MW1951REMSYN088AAXX  20154 16008 41257 80000 10110 20092 38488 48449 53008 79596 887// 91445 333 88705;
0238160080999992000092018004+45750+010520FM-12+146199999V0200601N002110015019N0120001N1+00901+00701999999ADDAA112000791AY191061AY261061GA1081+001509069GF108991081071001501999999KA1120M+01301MA1999999084701MD1810171+9999ME1314329MW1951REMSYN100AAXX  20184 16008 11262 80604 10090 20070 38470 48432 58017 69902 79596 887// 91745 333 10130 88705;
0219160080999992000092100004+45750+010520FM-12+146199999V0202701N002110015019N0110001N1+00681+00461999999ADDAA106010991AY191061AY261061GA1081+001509069GF108991081071001501999999MA1999999084301MD1710401+9999ME1313939MW1951REMSYN094AAXX  21004 16008 11261 82704 10068 20046 38430 48393 57040 60111 79596 887// 92345 333 88705;
0202160080999992000092103004+45750+010520FM-12+146199999V0209999C000010015019N0110001N1+00661+00471999999ADDAY191031AY261031GA1081+001509069GF108991081071001501999999MA1999999084381MD1310081+9999ME1314019MW1951REMSYN088AAXX  21034 16008 41261 80000 10066 20047 38438 48401 53008 79596 887// 90245 333 88705;
0250160080999992000092106004+45750+010520FM-12+146199999V0201301N005110015019N0110001N1+00301+00071999999ADDAA112015091AY191061AY261061GA1081+001509069GF108991081071001501999999IA1119KA1120N+00301MA1999999084661MD1210281+9999ME1314299MW1951REMSYN106AAXX  21064 16008 11261 81310 10030 20007 38466 48429 52028 60152 79596 887// 90545 333 20030 32/// 88705;
0202160080999992000092109004+45750+010520FM-12+146199999V0200801N004610015019N0120001N1+00101-00091999999ADDAY191031AY261031GA1081+001509069GF108991081071001501999999MA1999999084971MD1210311+9999ME1314589MW1601REMSYN088AAXX  21094 16008 41262 80809 10010 21009 38497 48458 52031 76096 887// 90845 333 88705;
0219160080999992000092112004+45750+010520FM-12+146199999V0200501N003110045019N0060001N1+00281+00071999999ADDAA106006191AY191061AY261061GA1081+004509069GF108991081071004501999999MA1999999085181MD1210211+9999ME1314789MW1601REMSYN094AAXX  21124 16008 11456 80506 10028 20007 38518 48478 52021 60061 76096 887// 91145 333 88715;
0208160080999992000092115004+45750+010520FM-12+146199999V0200301N003610090019N0150001N1+00601+00041999999ADDAY161031AY221031GA1031+003009089GF108991081081004501999999MA1999999085331MD1210151+9999ME1314939MW1021REMSYN094AAXX  21154 16008 41465 80307 10060 20004 38533 48493 52015 70262 888// 91445 333 83810 88630;
0238160080999992000092118004+45750+010520FM-12+146199999V0200601N002610090019N0200001N1+00481+00021999999ADDAA112006191AY161061AY221061GA1081+009009059GF108991081051008001999999KA1120M+00681MA1999999085441MD1210111+9999ME1315039MW1021REMSYN100AAXX  21184 16008 11570 80605 10048 20002 38544 48503 52011 60062 70262 885// 91745 333 10068 88630;
0174160080999992000092121004+45750+010520FM-12+146199999V0200701N005710090019N0150001N1+00381+00021999999ADDGA1081+009009059GF108991081051008001999999MA1999999085611MD1210171+9999ME1315199REMSYN082AAXX  21214 16008 42565 80711 10038 20002 38561 48519 52017 885// 92045 333 88630;
0185160080999992000092200004+45750+010520FM-12+146199999V0200501N003610120019N0150001N1+00361+00041999999ADDAA199000021GA1081+012009059GF108991081051012501999999MA1999999085711MD1210101+9999ME1315289REMSYN082AAXX  22004 16008 32665 80507 10036 20004 38571 48528 52010 885// 92345 333 88640;
0250160080999992000092206004+45750+010520FM-12+146199999V0200501N001510105019N0200001N1+00301+00071999999ADDAA112000791AY151061AY221061GA1081+010509059GF108991081051012501999999IA1119KA1120N+00301MA1999999085821MD1310061+9999ME1315389MW1031REMSYN106AAXX  22064 16008 11670 80503 10030 20007 38582 48538 53006 69902 70352 885// 90545 333 20030 32/// 88635;
0174160080999992000092209004+45750+010520FM-12+146199999V0200801N004110105019N0180001N1+00501-00061999999ADDGA1081+010509059GF108991081051012501999999MA1999999085911MD1210091+9999ME1315479REMSYN082AAXX  22094 16008 42668 80808 10050 21006 38591 48547 52009 885// 90845 333 88635;
0204160080999992000092212004+45750+010520FM-12+146199999V0200701N006210105019N0180001N1+00721-00071999999ADDAA199000091GA1061+010509059GF106991061051012501001001MA1999999085991MD1210081+9999ME1315569REMSYN082AAXX  22124 16008 32668 60712 10072 21007 38599 48556 52008 86500 91145 333 86635;EQDQ01  00002PRCP99
0174160080999992000092215004+45750+010520FM-12+146199999V0200301N007712200019N0200001N1+00941-00261999999ADDGA1021+012009029GF102991021021012501001001MA1999999085971MD1810031+9999ME1315549REMSYN082AAXX  22154 16008 42670 20315 10094 21026 38597 48554 58003 82200 91445 333 82840;
0223160080999992000092218004+45750+010520FM-12+146199999V0200601N005712200019N0200001N1+00701+00071999999ADDAA199000091GA1011+010509029GF101991011011012501001001KA1120M+01141MA1999999085981MD1310021+9999ME1315559REMSYN088AAXX  22184 16008 32670 10611 10070 20007 38598 48555 53002 81100 91745 333 10114 81835;EQDQ01  00002PRCP99
0158160080999992000092221004+45750+010520FM-12+146199999V0200401N004112200019N0200001N1+00581+00221999999ADDGA1001+999999999GF100991001001999999001001MA1999999086061MD1210071+9999ME1315629REMSYN066AAXX  22214 16008 42970 00408 10058 20022 38606 48562 52007 92045;
0188160080999992000092300004+45750+010520FM-12+146199999V0200501N003112200019N0200001N1+00421+00131999999ADDAA199000091GA1001+999999999GF100991001001999999001001MA1999999086011MD1810051+9999ME1315569REMSYN066AAXX  23004 16008 32970 00506 10042 20013 38601 48556 58005 92345;EQDQ01  00002PRCP99
0158160080999992000092303004+45750+010520FM-12+146199999V0200601N001512200019N0200001N1+00301+00071999999ADDGA1001+999999999GF100991001001999999001001MA1999999085951MD1710061+9999ME1315509REMSYN066AAXX  23034 16008 42970 00603 10030 20007 38595 48550 57006 90245;
0223160080999992000092306004+45750+010520FM-12+146199999V0200501N001512200019N0200001N1+00201+00051999999ADDAA199000091GA1001+999999999GF100991001001999999001001IA1119KA1120N+00201MA1999999085971MD1310021+9999ME1315529REMSYN082AAXX  23064 16008 32970 00503 10020 20005 38597 48552 53002 90545 333 20020 32///;EQDQ01  00002PRCP99
0158160080999992000092309004+45750+010520FM-12+146199999V0200301N003112200019N0200001N1+00601+00081999999ADDGA1001+999999999GF100991001001999999001001MA1999999085921MD1810051+9999ME1315499REMSYN066AAXX  23094 16008 42970 00306 10060 20008 38592 48549 58005 90845;
0188160080999992000092312004+45750+010520FM-12+146199999V0200301N004612200019N0170001N1+01661-00061999999ADDAA199000091GA1001+999999999GF100991001001999999001001MA1999999085771MD1710151+9999ME1315379REMSYN066AAXX  23124 16008 32967 00309 10166 21006 38577 48537 57015 91145;EQDQ01  00002PRCP99
0158160080999992000092315004+45750+010520FM-12+146199999V0202201N003612200019N0180001N1+01401+00371999999ADDGA1001+999999999GF100991001001999999001001MA1999999085671MD1610111+9999ME1315269REMSYN066AAXX  23154 16008 42968 02207 10140 20037 38567 48526 56011 91445;
0211160080999992000092318004+45750+010520FM-12+146199999V0209999C000012200019N0180001N1+00881+00451999999ADDAA199000091GA1001+999999999GF100991001001999999001001KA1999M+01881MA1999999085731MD1310061+9999ME1315319REMSYN076AAXX  23184 16008 32968 00000 10088 20045 38573 48531 53006 91745 333 10188;EQDQ01  00002PRCP99
0158160080999992000092321004+45750+010520FM-12+146199999V0209999C000012200019N0180001N1+00481+00291999999ADDGA1001+999999999GF100991001001999999001001MA1999999085841MD1210111+9999ME1315419REMSYN066AAXX  23214 16008 42968 00000 10048 20029 38584 48541 52011 92045;
0188160080999992000092400004+45750+010520FM-12+146199999V0209999C000012200019N0130001N1+00541+00361999999ADDAA199000091GA1001+999999999GF100991001001999999001001MA1999999085851MD1110011+9999ME1315429REMSYN066AAXX  24004 16008 32963 00000 10054 20036 38585 48542 51001 92345;EQDQ01  00002PRCP99
0158160080999992000092403004+45750+010520FM-12+146199999V0209999C000012200019N0130001N1+00501+00131999999ADDGA1001+999999999GF100991001001999999001001MA1999999085781MD1810071+9999ME1315359REMSYN066AAXX  24034 16008 42963 00000 10050 20013 38578 48535 58007 90245;
0223160080999992000092406004+45750+010520FM-12+146199999V0209999C000012200019N0180001N1+00301+00091999999ADDAA199000091GA1001+999999999GF100991001001999999001001IA1099KA1120N+00301MA1999999085821MD1310041+9999ME1315389REMSYN082AAXX  24064 16008 32968 00000 10030 20009 38582 48538 53004 90545 333 20030 31///;EQDQ01  00002PRCP99
0177160080999992000092409004+45750+010520FM-12+146199999V0200601N001512200019N0200001N1+00521+00131999999ADDGA1001+999999999GF100991001001999999001001MA1999999085821MD1410001+9999ME1315399REMSYN066AAXX  24094 16008 42970 00603 10052 20013 38582 48539 51000 90845;EQDQ01+000012APCTEN
0188160080999992000092412004+45750+010520FM-12+146199999V0202101N003112200019N0130001N1+01401+00321999999ADDAA199000091GA1001+999999999GF100991001001999999001001MA1999999085761MD1810061+9999ME1315359REMSYN066AAXX  24124 16008 32963 02106 10140 20032 38576 48535 58006 91145;EQDQ01  00002PRCP99
0174160080999992000092415004+45750+010520FM-12+146199999V0202101N002112200019N0130001N1+01421+00501999999ADDGA1011+012009029GF101991011011012501001001MA1999999085721MD1610041+9999ME1315319REMSYN082AAXX  24154 16008 42663 12104 10142 20050 38572 48531 56004 81100 91445 333 81840;
0211160080999992000092418004+45750+010520FM-12+146199999V0209999C000012200019N0120001N1+01001+00621999999ADDAA199000091GA1001+999999999GF100991001001999999001001KA1999M+01561MA1999999085821MD1310101+9999ME1315409REMSYN076AAXX  24184 16008 32962 00000 10100 20062 38582 48540 53010 91745 333 10156;EQDQ01  00002PRCP99
0158160080999992000092421004+45750+010520FM-12+146199999V0209999C000012200019N0120001N1+00581+00421999999ADDGA1001+999999999GF100991001001999999001001MA1999999085931MD1210111+9999ME1315499REMSYN066AAXX  24214 16008 42962 00000 10058 20042 38593 48549 52011 92045;
0188160080999992000092500004+45750+010520FM-12+146199999V0209999C000012200019N0120001N1+00421+00321999999ADDAA199000091GA1001+999999999GF100991001001999999001001MA1999999085961MD1110041+9999ME1315529REMSYN066AAXX  25004 16008 32962 00000 10042 20032 38596 48552 51004 92345;EQDQ01  00002PRCP99
0158160080999992000092503004+45750+010520FM-12+146199999V0209999C000012200019N0120001N1+00401+00291999999ADDGA1001+999999999GF100991001001999999001001MA1999999085941MD1810021+9999ME1315509REMSYN066AAXX  25034 16008 42962 00000 10040 20029 38594 48550 58002 90245;
0223160080999992000092506004+45750+010520FM-12+146199999V0209999C000012200019N0200001N1+00421+00171999999ADDAA199000091GA1001+999999999GF100991001001999999001001IA1119KA1120N+00401MA1999999085971MD1310031+9999ME1315539REMSYN082AAXX  25064 16008 32970 00000 10042 20017 38597 48553 53003 90545 333 20040 32///;EQDQ01  00002PRCP99
0167160080999992000092509004+45750+010520FM-12+146199999V0200301N003112200019N0180001N1+00701+00331999999ADDGF102991001001999999001011MA1999999085971MD1410001+9999ME1315549REMSYN072AAXX  25094 16008 42968 20306 10070 20033 38597 48554 51000 80001 90845;EQDQ01+000012APCTEN
0204160080999992000092512004+45750+010520FM-12+146199999V0200601N004112200019N0170001N1+01841-00051999999ADDAA199000091GA1011+012009029GF103991031011012501001081MA1999999085921MD1810051+9999ME1315539REMSYN082AAXX  25124 16008 32667 30608 10184 21005 38592 48553 58005 83108 91145 333 81840;EQDQ01  00002PRCP99
0174160080999992000092515004+45750+010520FM-12+146199999V0200301N002112200019N0130001N1+01901-00041999999ADDGA1041+012009059GF104991041051012501001001MA1999999085871MD1610051+9999ME1315489REMSYN082AAXX  25154 16008 42663 40304 10190 21004 38587 48548 56005 84500 91445 333 84640;
0229160080999992000092518004+45750+010520FM-12+146199999V0209999C000012200019N0150001N1+01221+00791999999ADDAA199000091GA1011+012009069GF103991031051012501031001KA1120M+02061MA1999999085971MD1310101+9999ME1315559REMSYN094AAXX  25184 16008 32665 30000 10122 20079 38597 48555 53010 83530 91745 333 10206 81640 83357;EQDQ01  00002PRCP99
0158160080999992000092521004+45750+010520FM-12+146199999V0209999C000012200019N0150001N1+00701+00501999999ADDGA1001+999999999GF100991001001999999001001MA1999999086081MD1210111+9999ME1315649REMSYN066AAXX  25214 16008 42965 00000 10070 20050 38608 48564 52011 92045;
0188160080999992000092600004+45750+010520FM-12+146199999V0209999C000012200019N0150001N1+00601+00451999999ADDAA199000091GA1001+999999999GF100991001001999999001001MA1999999086091MD1110011+9999ME1315659REMSYN066AAXX  26004 16008 32965 00000 10060 20045 38609 48565 51001 92345;EQDQ01  00002PRCP99
0174160080999992000092603004+45750+010520FM-12+146199999V0209999C000012200019N0150001N1+00601+00511999999ADDGA1041+021009019GF104991041001022501011001MA1999999086081MD1810011+9999ME1315649REMSYN082AAXX  26034 16008 42865 40000 10060 20051 38608 48564 58001 84010 90245 333 84457;
0235160080999992000092606004+45750+010520FM-12+146199999V0209999C000010150019N0150001N1+00541+00381999999ADDAA199000091GA1011+015009059GF108991081051017501999999IA1119KA1120N+00521MA1999999086101MD1310021+9999ME1315669REMSYN094AAXX  26064 16008 32765 80000 10054 20038 38610 48566 53002 885// 90545 333 20052 32/// 81650;EQDQ01  00002PRCP99
0167160080999992000092609004+45750+010520FM-12+146199999V0209999C000019999999N0120001N1+00861+00461999999ADDGF105991001001999999001071MA1999999086101MD1410001+9999ME1315679REMSYN072AAXX  26094 16008 42962 50000 10086 20046 38610 48567 51000 80007 90845;EQDQ01+000012APCTEN
0204160080999992000092612004+45750+010520FM-12+146199999V0202001N003110120019N0120001N1+01521+00471999999ADDAA199000091GA1011+012009029GF106991061011012501001011MA1999999086011MD1810091+9999ME1315619REMSYN082AAXX  26124 16008 32662 62006 10152 20047 38601 48561 58009 86101 91145 333 81840;EQDQ01  00002PRCP99
0174160080999992000092615004+45750+010520FM-12+146199999V0202101N003110120019N0250001N1+01361+00741999999ADDGA1031+012009029GF105991051011012501001091MA1999999085951MD1710061+9999ME1315559REMSYN082AAXX  26154 16008 42675 52106 10136 20074 38595 48555 57006 85109 91445 333 83840;
0223160080999992000092618004+45750+010520FM-12+146199999V0202401N002112200019N0250001N1+01141+00811999999ADDAA199000091GA1031+012009029GF103991031011012501001001KA1120M+01621MA1999999085991MD1310031+9999ME1315579REMSYN088AAXX  26184 16008 32675 32404 10114 20081 38599 48557 53003 83100 91745 333 10162 83840;EQDQ01  00002PRCP99
0158160080999992000092621004+45750+010520FM-12+146199999V0209999C000012200019N0250001N1+00841+00741999999ADDGA1001+999999999GF100991001001999999001001MA1999999086081MD1210091+9999ME1315659REMSYN066AAXX  26214 16008 42975 00000 10084 20074 38608 48565 52009 92045;
0188160080999992000092700004+45750+010520FM-12+146199999V0209999C000012200019N0250001N1+00681+00571999999ADDAA199000091GA1001+999999999GF100991001001999999001001MA1999999086101MD1110021+9999ME1315669REMSYN066AAXX  27004 16008 32975 00000 10068 20057 38610 48566 51002 92345;EQDQ01  00002PRCP99
0174160080999992000092703004+45750+010520FM-12+146199999V0209999C000010090019N0200001N1+00741+00691999999ADDGA1081+009009069GF108991081061008001999999MA1999999086091MD1810011+9999ME1315659REMSYN082AAXX  27034 16008 42570 80000 10074 20069 38609 48565 58001 886// 90245 333 88730;
0235160080999992000092706004+45750+010520FM-12+146199999V0209999C000010075019N0120001N1+00801+00611999999ADDAA199000091GA1081+007509069GF108991081061008001999999IA1019KA1120N+00601MA1999999086031MD1710061+9999ME1315609REMSYN094AAXX  27064 16008 32562 80000 10080 20061 38603 48560 57006 886// 90545 333 20060 30/// 88725;EQDQ01  00002PRCP99
0174160080999992000092709004+45750+010520FM-12+146199999V0209999C000012200019N0120001N1+00921+00551999999ADDGA1041+009009069GF104991041061008001001001MA1999999086021MD1610011+9999ME1315599REMSYN082AAXX  27094 16008 42562 40000 10092 20055 38602 48559 56001 84600 90845 333 84730;
0158160080999992000092715004+45750+010520FM-12+146199999V0201801N006212200019N0200001N1+01541+00681999999ADDGA1001+999999999GF100991001001999999001001MA1999999085751MD1710121+9999ME1315359REMSYN066AAXX  27154 16008 42970 01812 10154 20068 38575 48535 57012 91445;
0211160080999992000092718004+45750+010520FM-12+146199999V0201601N006212200019N0250001N1+01261+00661999999ADDAA199000091GA1001+999999999GF100991001001999999001001KA1999M+01641MA1999999085731MD1610021+9999ME1315329REMSYN076AAXX  27184 16008 32975 01612 10126 20066 38573 48532 56002 91745 333 10164;EQDQ01  00002PRCP99
0158160080999992000092721004+45750+010520FM-12+146199999V0209999C000012200019N0250001N1+00981+00761999999ADDGA1001+999999999GF100991001001999999001001MA1999999085791MD1310051+9999ME1315379REMSYN066AAXX  27214 16008 42975 00000 10098 20076 38579 48537 53005 92045;
0204160080999992000092800004+45750+010520FM-12+146199999V0209999C000010120019N0200001N1+01041+00851999999ADDAA199000091GA1061+012009059GF106991061041012501001001MA1999999085811MD1110021+9999ME1315399REMSYN082AAXX  28004 16008 32670 60000 10104 20085 38581 48539 51002 86400 92345 333 86640;EQDQ01  00002PRCP99
0174160080999992000092803004+45750+010520FM-12+146199999V0209999C000010120019N0200001N1+00921+00851999999ADDGA1061+012009059GF106991061041012501001001MA1999999085691MD1810121+9999ME1315279REMSYN082AAXX  28034 16008 42670 60000 10092 20085 38569 48527 58012 86400 90245 333 86640;
0235160080999992000092806004+45750+010520FM-12+146199999V0209999C000010045019N0100001N1+00841+00701999999ADDAA199000091GA1071+004509069GF107991071061004501001001IA1099KA1120N+00841MA1999999085661MD1610031+9999ME1315249REMSYN094AAXX  28064 16008 32460 70000 10084 20070 38566 48524 56003 87600 90545 333 20084 31/// 87715;EQDQ01  00002PRCP99
0202160080999992000092809004+45750+010520FM-12+146199999V0202101N004110075019N0080001N1+00841+00661999999ADDAY121031AY221031GA1051+007509029GF105991051011008001001001MA1999999085661MD1410001+9999ME1315249MW1101REMSYN088AAXX  28094 16008 41558 52108 10084 20066 38566 48524 54000 71022 85100 90845 333 85825;
0232160080999992000092812004+45750+010520FM-12+146199999V0201801N008210075019N0080001N1+01161+00511999999ADDAA199000091AY111061AY211061GA1021+007509029GF107991071011008001001081MA1999999085541MD1810121+9999ME1315149MW1101REMSYN088AAXX  28124 16008 31558 71816 10116 20051 38554 48514 58012 71011 87108 91145 333 82825;EQDQ01  00002PRCP99
0202160080999992000092815004+45750+010520FM-12+146199999V0201901N006210900019N0090001N1+01321+00641999999ADDAY121031AY221031GA1021+009009029GF108991021011008001001071MA1999999085391MD1710151+9999ME1314999MW1101REMSYN088AAXX  28154 16008 41559 81912 10132 20064 38539 48499 57015 71022 82107 91445 333 82830;
0251160080999992000092818004+45750+010520FM-12+146199999V0201701N004610090019N0080001N1+01081+00601999999ADDAA199000091AY121061AY221061GA1081+009009059GF108991081051008001999999KA1120M+01341MA1999999085321MD1710071+9999ME1314929MW1101REMSYN094AAXX  28184 16008 31558 81709 10108 20060 38532 48492 57007 71022 885// 91745 333 10134 88630;EQDQ01  00002PRCP99
0202160080999992000092821004+45750+010520FM-12+146199999V0201801N003610060019N0070001N1+00941+00791999999ADDAY121031AY221031GA1081+006009029GF108991081021008001999999MA1999999085331MD1310011+9999ME1314939MW1101REMSYN088AAXX  28214 16008 41557 81807 10094 20079 38533 48493 53001 71022 882// 92045 333 88820;
0232160080999992000092900004+45750+010520FM-12+146199999V0201901N003610030019N0030001N1+00881+00741999999ADDAA199000091AY121061AY221061GA1081+003009029GF108991081021004501999999MA1999999085341MD1110011+9999ME1314949MW1101REMSYN088AAXX  29004 16008 31430 81907 10088 20074 38534 48494 51001 71022 882// 92345 333 88810;EQDQ01  00002PRCP99
0202160080999992000092903004+45750+010520FM-12+146199999V0202101N003610030019N0030001N1+00781+00601999999ADDAY121031AY221031GA1081+003009029GF108991081021004501999999MA1999999085131MD1810211+9999ME1314739MW1101REMSYN088AAXX  29034 16008 41430 82107 10078 20060 38513 48473 58021 71022 882// 90245 333 88810;
0263160080999992000092906004+45750+010520FM-12+146199999V0202001N002610015019N0020001N1+00741+00511999999ADDAA199000091AY121061AY221061GA1081+001509029GF108991081021001501999999IA1099KA1120N+00741MA1999999085071MD1710061+9999ME1314689MW1101REMSYN100AAXX  29064 16008 31220 82005 10074 20051 38507 48468 57006 71022 882// 90545 333 20074 31/// 88805;EQDQ01  00002PRCP99
0202160080999992000092909004+45750+010520FM-12+146199999V0201801N006710030019N0030001N1+00701+00571999999ADDAY121031AY221031GA1081+003009029GF108991081021004501999999MA1999999085061MD1610011+9999ME1314679MW1101REMSYN088AAXX  29094 16008 41430 81813 10070 20057 38506 48467 56001 71022 882// 90845 333 88810;
0232160080999992000092912004+45750+010520FM-12+146199999V0201801N007210075019N0050001N1+00861+00521999999ADDAA199000091AY121061AY221061GA1061+007509029GF106991061021008001001001MA1999999084951MD1810111+9999ME1314569MW1101REMSYN088AAXX  29124 16008 31550 61814 10086 20052 38495 48456 58011 71022 86200 91145 333 86825;EQDQ01  00002PRCP99
0174160080999992000092915004+45750+010520FM-12+146199999V0201901N005710090019N0110001N1+01121+00461999999ADDGA1061+009009029GF106991061021008001001001MA1999999084821MD1710121+9999ME1314449REMSYN082AAXX  29154 16008 42561 61911 10112 20046 38482 48444 57012 86200 91445 333 86830;
0223160080999992000092918004+45750+010520FM-12+146199999V0201701N004110090019N0110001N1+01001+00421999999ADDAA199000091GA1051+009009029GF105991051021008001001001KA1120M+01121MA1999999084771MD1610051+9999ME1314399REMSYN088AAXX  29184 16008 32561 51708 10100 20042 38477 48439 56005 85200 91745 333 10112 85830;EQDQ01  00002PRCP99
0174160080999992000092921004+45750+010520FM-12+146199999V0202001N007710090019N0120001N1+00861+00571999999ADDGA1081+009009029GF108991081021008001999999MA1999999084841MD1310071+9999ME1314469REMSYN082AAXX  29214 16008 42562 82015 10086 20057 38484 48446 53007 882// 92045 333 88830;
0204160080999992000093000004+45750+010520FM-12+146199999V0202001N006710090019N0130001N1+00721+00511999999ADDAA199000091GA1061+009009029GF106991061021008001001001MA1999999084851MD1110011+9999ME1314479REMSYN082AAXX  30004 16008 32563 62013 10072 20051 38485 48447 51001 86200 92345 333 86830;EQDQ01  00002PRCP99
0263160080999992000093003004+45750+010520FM-12+146199999V0201901N005110015019N0015001N1+00601+00511999999ADDAA199000091AY121031AY221031GA1081+001509029GF108991081021001501999999IA1099KA1120N+00601MA1999999084771MD1710051+9999ME1314399MW1101REMSYN100AAXX  30034 16008 31215 81910 10060 20051 38477 48439 57005 71022 882// 90545 333 20060 31/// 88805;EQDQ01  00002PRCP99
0202160080999992000093009004+45750+010520FM-12+146199999V0201701N005710012019N0002001N1+00581+00371999999ADDAY141031AY221031GA1081+001209029GF108991081021001501999999MA1999999084751MD1610021+9999ME1314379MW1441REMSYN088AAXX  30094 16008 41202 81711 10058 20037 38475 48437 56002 74442 882// 90845 333 88804;
0232160080999992000093012004+45750+010520FM-12+146199999V0201501N006210012019N0020001N1+00721+00471999999ADDAA199000091AY141061AY221061GA1081+001209029GF108991081021001501999999MA1999999084671MD1810081+9999ME1314299MW1281REMSYN088AAXX  30124 16008 31220 81512 10072 20047 38467 48429 58008 72842 882// 91145 333 88804;EQDQ01  00002PRCP99
0251160080999992000093018004+45750+010520FM-12+146199999V0202101N009310030019N0060001N1+00761+00561999999ADDAA199000091AY121061AY221061GA1081+003009029GF108991081021004501999999KA1120M+00881MA1999999084551MD1810021+9999ME1314179MW1101REMSYN094AAXX  30184 16008 31456 82118 10076 20056 38455 48417 58002 71022 882// 91745 333 10088 88810;EQDQ01  00002PRCP99
0196160080999992000093021004+45750+010520FM-12+146199999V0202001N008710001519N0002001N1+00741+00521999999ADDAY141031AY221031GA1091+000159999GF109991091999999999999999MA1999999084601MD1310051+9999ME1314229MW1431REMSYN082AAXX  30214 16008 41/02 92017 10074 20052 38460 48422 53005 74342 92045 333 89/00;
0219160080999992000100100004+45750+010520FM-12+146199999V0202101N008210075019N0030001N1+00681+00331999999ADDAA106000791AY151061AY241061GA1081+007509029GF108991081021008001999999MA1999999084641MD1210051+9999ME1314269MW1501REMSYN094AAXX  01004 16008 11530 82116 10068 20033 38464 48426 52005 69901 75054 882// 92345 333 88825;
0202160080999992000100103004+45750+010520FM-12+146199999V0202101N005110045019N0020001N1+00641+00411999999ADDAY151031AY241031GA1081+004509029GF108991081021004501999999MA1999999084711MD1110071+9999ME1314339MW1101REMSYN088AAXX  01034 16008 41420 82110 10064 20041 38471 48433 51007 71054 882// 90245 333 88815;
0250160080999992000100106004+45750+010520FM-12+146199999V0202101N003610045019N0040001N1+00641+00411999999ADDAA112000791AY151061AY241061GA1081+004509029GF108991081021004501999999IA1119KA1120N+00641MA1999999084691MD1810021+9999ME1314319MW1101REMSYN106AAXX  01064 16008 11440 82107 10064 20041 38469 48431 58002 69902 71054 882// 90545 333 20064 32/// 88815;
0202160080999992000100109004+45750+010520FM-12+146199999V0201701N004110030019N0030001N1+00661+00431999999ADDAY121031AY221031GA1081+003009029GF108991081021004501999999MA1999999084721MD1310031+9999ME1314349MW1101REMSYN088AAXX  01094 16008 41430 81708 10066 20043 38472 48434 53003 71022 882// 90845 333 88810;
0219160080999992000100112004+45750+010520FM-12+146199999V0201701N004110012019N0050001N1+00761+00481999999ADDAA199000021AY121061AY221061GA1051+001209089GF108991041021001501021999MA1999999084641MD1810081+9999ME1314269MW1101REMSYN094AAXX  01124 16008 31250 81708 10076 20048 38464 48426 58008 71022 8422/ 91145 333 85804 86450;
0208160080999992000100115004+45750+010520FM-12+146199999V0201701N00621036001CN0020001N1+00781+00521999999ADDAY161031AY221031GA1041+000909089GF108991041021000751021999MA1999999084551MD1610081+9999ME1314189MW1631REMSYN094AAXX  01154 16008 41120 81712 10078 20052 38455 48418 56008 76362 8422/ 91445 333 84803 86450;
0244160080999992000100118004+45750+010520FM-12+146199999V0209999C00001036001CN0020001N1+00621+00371999999ADDAA112003091AY161061AY221061GA1041+001209089GF108991041021001501021999KA1120M+00881MA1999999084521MD1810031+9999ME1314159MW1601REMSYN106AAXX  01184 16008 11220 80000 10062 20037 38452 48415 58003 60032 76062 8422/ 91745 333 10088 84804 86450;
0208160080999992000100121004+45750+010520FM-12+146199999V0209999C00001036001CN0020001N1+00561+00371999999ADDAY161031AY261031GA1041+001209089GF108991041021001501021999MA1999999084501MD1610021+9999ME1314139MW1631REMSYN094AAXX  01214 16008 41220 80000 10056 20037 38450 48413 56002 76366 8422/ 92045 333 84804 86450;
0225160080999992000100200004+45750+010520FM-12+146199999V0209999C00001036001CN0020001N1+00541+00351999999ADDAA106007991AY161061AY261061GA1041+001509089GF108991041021001501021999MA1999999084501MD1410001+9999ME1314139MW1621REMSYN100AAXX  02004 16008 11220 80000 10054 20035 38450 48413 54000 60081 76266 8422/ 92345 333 84805 86450;
0208160080999992000100203004+45750+010520FM-12+146199999V0209999C00001036001CN0025001N1+00501+00261999999ADDAY161031AY261031GA1041+001809089GF108991041021001501021999MA1999999084501MD1410001+9999ME1314139MW1601REMSYN094AAXX  02034 16008 41225 80000 10050 20026 38450 48413 54000 76066 8422/ 90245 333 84806 86450;
0256160080999992000100206004+45750+010520FM-12+146199999V0209999C00001006001CN0012001N1+00441+00241999999ADDAA112008991AY161061AY221061GA1041+000909089GF108991081081000751999999IA1119KA1120N+00441MA1999999084501MD1410001+9999ME1314139MW1101REMSYN112AAXX  02064 16008 11112 80000 10044 20024 38450 48413 54000 60092 71062 888// 90545 333 20044 32/// 84803 86625;
0208160080999992000100209004+45750+010520FM-12+146199999V0202001N00461006001CN0012001N1+00561+00311999999ADDAY121031AY221031GA1041+000909089GF108991081081000751999999MA1999999084601MD1310101+9999ME1314229MW1101REMSYN094AAXX  02094 16008 41112 82009 10056 20031 38460 48422 53010 71022 888// 90845 333 84803 86625;
0219160080999992000100212004+45750+010520FM-12+146199999V0201701N00621006001CN0011001N1+00681+00311999999ADDAA199000021AY121061AY221061GA1041+000609089GF108991081081000751999999MA1999999084631MD1110031+9999ME1314259MW1101REMSYN094AAXX  02124 16008 31111 81712 10068 20031 38463 48425 51003 71022 888// 91145 333 84802 86625;
0208160080999992000100215004+45750+010520FM-12+146199999V0201701N004610060019N0011001N1+00661+00401999999ADDAY121031AY221031GA1041+000609089GF108991081081000751999999MA1999999084631MD1410001+9999ME1314259MW1611REMSYN094AAXX  02154 16008 41111 81709 10066 20040 38463 48425 54000 76122 888// 91445 333 84802 86620;
0244160080999992000100218004+45750+010520FM-12+146199999V0200701N005110060019N0011001N1+00581+00371999999ADDAA112003091AY161061AY221061GA1041+000609089GF108991081081000751999999KA1120M+00721MA1999999084821MD1310191+9999ME1314439MW1621REMSYN106AAXX  02184 16008 11111 80710 10058 20037 38482 48443 53019 60032 76262 888// 91745 333 10072 84802 86620;
0208160080999992000100221004+45750+010520FM-12+146199999V0200801N00361006001CN0015001N1+00361+00041999999ADDAY161031AY221031GA1041+001509089GF108991081081001501999999MA1999999085091MD1210271+9999ME1314709MW1101REMSYN094AAXX  02214 16008 41215 80807 10036 20004 38509 48470 52027 71062 888// 92045 333 84805 86625;
0225160080999992000100300004+45750+010520FM-12+146199999V0200401N00461006001CN0015001N1+00321-00051999999ADDAA106000191AY161061AY221061GA1041+001509089GF108991081081001501999999MA1999999085251MD1110161+9999ME1314859MW1101REMSYN100AAXX  03004 16008 11215 80409 10032 21005 38525 48485 51016 69921 71062 888// 92345 333 84805 86625;
0208160080999992000100303004+45750+010520FM-12+146199999V0200601N00511006001CN0020001N1+00301-00051999999ADDAY121031AY221031GA1041+001509089GF108991081081001501999999MA1999999085291MD1310041+9999ME1314889MW1101REMSYN094AAXX  03034 16008 41220 80610 10030 21005 38529 48488 53004 71022 888// 90245 333 84805 86625;
0256160080999992000100306004+45750+010520FM-12+146199999V0200601N006710120019N0040001N1+00301-00071999999ADDAA112000191AY121061AY221061GA1031+006009089GF108991081081008001999999IA1119KA1120N+00281MA1999999085371MD1110081+9999ME1314969MW1101REMSYN112AAXX  03064 16008 11540 80613 10030 21007 38537 48496 51008 69922 71022 888// 90545 333 20028 32/// 83820 86640;
0174160080999992000100309004+45750+010520FM-12+146199999V0201101N004610075019N0110001N1+00461-00091999999ADDGA1081+007509059GF108991081051008001999999MA1999999085471MD1110101+9999ME1315069REMSYN082AAXX  03094 16008 42561 81109 10046 21009 38547 48506 51010 885// 90845 333 88625;
0210160080999992000100312004+45750+010520FM-12+146199999V0200501N00671036001CN0110001N1+00721-00201999999ADDAA199000091GA1041+006009089GF108991041021008001011999MA1999999085501MD1110031+9999ME1315099REMSYN088AAXX  03124 16008 32561 80513 10072 21020 38550 48509 51003 8421/ 91145 333 84820 86450;EQDQ01  00002PRCP99
0180160080999992000100315004+45750+010520FM-12+146199999V0202701N00261012001CN0120001N1+00781+00131999999ADDGA1031+006009089GF107991071081008001001001MA1999999085481MD1810031+9999ME1315079REMSYN088AAXX  03154 16008 42562 72705 10078 20013 38548 48507 58003 87800 91445 333 83820 85635;
0229160080999992000100318004+45750+010520FM-12+146199999V0200401N00261012001CN0130001N1+00601+00131999999ADDAA199000091GA1041+006009089GF108991081081008001999999KA1120M+00941MA1999999085491MD1310011+9999ME1315089REMSYN094AAXX  03184 16008 32563 80405 10060 20013 38549 48508 53001 888// 91745 333 10094 84820 86635;EQDQ01  00002PRCP99
0174160080999992000100321004+45750+010520FM-12+146199999V0209999C000010120019N0110001N1+00501+00261999999ADDGA1061+012009059GF106991061051012501001001MA1999999085691MD1110201+9999ME1315269REMSYN082AAXX  03214 16008 42661 60000 10050 20026 38569 48526 51020 86500 92045 333 86640;
0188160080999992000100400004+45750+010520FM-12+146199999V0209999C000012200019N0110001N1+00221+00071999999ADDAA199000091GA1001+999999999GF100991001001999999001001MA1999999085731MD1110041+9999ME1315309REMSYN066AAXX  04004 16008 32961 00000 10022 20007 38573 48530 51004 92345;EQDQ01  00002PRCP99
0158160080999992000100403004+45750+010520FM-12+146199999V0209999C000012200019N0110001N1+00161+00001999999ADDGA1001+999999999GF100991001001999999001001MA1999999085731MD1410001+9999ME1315309REMSYN066AAXX  04034 16008 42961 00000 10016 20000 38573 48530 54000 90245;
0213160080999992000100406004+45750+010520FM-12+146199999V0209999C000012200019N0130001N1+00161+00001999999ADDAA199000091GF103991001001999999001011IA1099KA1120N+00141MA1999999085731MD1410001+9999ME1315309REMSYN088AAXX  04064 16008 32963 30000 10016 20000 38573 48530 54000 80001 90545 333 20014 31///;EQDQ01  00002PRCP99
0193160080999992000100409004+45750+010520FM-12+146199999V0200401N003612200019N0200001N1+00541+00151999999ADDGA1031+018009079GF105991031999017501091011MA1999999085771MD1310041+9999ME1315349REMSYN082AAXX  04094 16008 42770 50407 10054 20015 38577 48534 53004 83091 90845 333 83356;EQDQ01+000002SCOLCG
0204160080999992000100412004+45750+010520FM-12+146199999V0202301N005112200019N0200001N1+01281+00371999999ADDAA199000091GA1031+007509029GF106991031011008001001011MA1999999085731MD1810041+9999ME1315329REMSYN082AAXX  04124 16008 32570 62310 10128 20037 38573 48532 58004 83101 91145 333 83825;EQDQ01  00002PRCP99
0174160080999992000100415004+45750+010520FM-12+146199999V0201901N007212200019N0200001N1+01321+00361999999ADDGA1031+006009029GF107991031011008001001011MA1999999085651MD1610081+9999ME1315259REMSYN082AAXX  04154 16008 42570 71914 10132 20036 38565 48525 56008 83101 91445 333 83820;
0223160080999992000100418004+45750+010520FM-12+146199999V0202201N001510075019N0200001N1+00921+00651999999ADDAA199000091GA1051+007509059GF105991051051008001001001KA1120M+01401MA1999999085631MD1810021+9999ME1315229REMSYN088AAXX  04184 16008 32570 52203 10092 20065 38563 48522 58002 85500 91745 333 10140 85625;EQDQ01  00002PRCP99
0174160080999992000100421004+45750+010520FM-12+146199999V0209999C000010105019N0150001N1+00821+00601999999ADDGA1081+010509059GF108991081051012501999999MA1999999085641MD1310011+9999ME1315229REMSYN082AAXX  04214 16008 42665 80000 10082 20060 38564 48522 53001 885// 92045 333 88635;
0204160080999992000100500004+45750+010520FM-12+146199999V0200601N001512200019N0150001N1+00721+00541999999ADDAA199000091GA1041+012009059GF104991041051012501001001MA1999999085631MD1810011+9999ME1315219REMSYN082AAXX  05004 16008 32665 40603 10072 20054 38563 48521 58001 84500 92345 333 84640;EQDQ01  00002PRCP99
0158160080999992000100503004+45750+010520FM-12+146199999V0209999C000012200019N0150001N1+00501+00351999999ADDGA1001+999999999GF100991001001999999001001MA1999999085581MD1610051+9999ME1315169REMSYN066AAXX  05034 16008 42965 00000 10050 20035 38558 48516 56005 90245;
0174160080999992000100509004+45750+010520FM-12+146199999V0202101N005712200019N0150001N1+00761+00471999999ADDGA1031+004509029GF103991031011004501001001MA1999999085471MD1610011+9999ME1315079REMSYN082AAXX  05094 16008 42465 32111 10076 20047 38547 48507 56001 83100 90845 333 83815;
0260160080999992000100512004+45750+010520FM-12+146199999V0202301N006210045019N0070001N1+00981+00661999999ADDAA199000091AY111061AY211061GA1021+001509089GA2041+004509089GF108991061021001501021999MA1999999085391MD1810081+9999ME1314999MW1101REMSYN100AAXX  05124 16008 31257 82312 10098 20066 38539 48499 58008 71011 8622/ 91145 333 82805 84815 85450;EQDQ01  00002PRCP99
0208160080999992000100515004+45750+010520FM-12+146199999V0202001N004610030019N0040001N1+00961+00611999999ADDAY121031AY221031GA1051+003009089GF108991051021004501021999MA1999999085291MD1710101+9999ME1314899MW1101REMSYN094AAXX  05154 16008 41440 82009 10096 20061 38529 48489 57010 71022 8522/ 91445 333 85810 87450;
0244160080999992000100518004+45750+010520FM-12+146199999V0209999C000010015019N0015001N1+00921+00761999999ADDAA112001091AY121061AY221061GA1051+001509089GF108991081081001501999999KA1120M+01161MA1999999085261MD1610031+9999ME1314869MW1631REMSYN106AAXX  05184 16008 11215 80000 10092 20076 38526 48486 56003 60012 76322 888// 91745 333 10116 85805 85620;
0208160080999992000100521004+45750+010520FM-12+146199999V0209999C00001006001CN0012001N1+00801+00651999999ADDAY161031AY221031GA1041+001809089GF108991081081001501999999MA1999999085301MD1310031+9999ME1314899MW1101REMSYN094AAXX  05214 16008 41212 80000 10080 20065 38530 48489 53003 71062 888// 92045 333 84806 86625;
0225160080999992000100600004+45750+010520FM-12+146199999V0209999C00001006001CN0013001N1+00681+00501999999ADDAA106005191AY161061AY221061GA1041+001509089GF108991081081001501999999MA1999999085321MD1110021+9999ME1314929MW1631REMSYN100AAXX  06004 16008 11213 80000 10068 20050 38532 48492 51002 60051 76362 888// 92345 333 84805 86625;
0208160080999992000100603004+45750+010520FM-12+146199999V0209999C00001006001CN0011001N1+00561+00381999999ADDAY161031AY261031GA1031+001509089GF108991081081001501999999MA1999999085321MD1410001+9999ME1314919MW1631REMSYN094AAXX  06034 16008 41211 80000 10056 20038 38532 48491 54000 76366 888// 90245 333 83805 86625;
0256160080999992000100606004+45750+010520FM-12+146199999V0200601N002610090019N0020001N1+00541+00361999999ADDAA112009991AY161061AY221061GA1031+003009089GF108991081081004501999999IA1119KA1120N+00541MA1999999085321MD1410001+9999ME1314919MW1101REMSYN112AAXX  06064 16008 11420 80605 10054 20036 38532 48491 54000 60102 71062 888// 90545 333 20054 32/// 83810 87630;
0202160080999992000100609004+45750+010520FM-12+146199999V0200501N004610045019N0014001N1+00501+00261999999ADDAY161031AY221031GA1081+004509069GF108991081071004501999999MA1999999085321MD1410001+9999ME1314919MW1101REMSYN088AAXX  06094 16008 41414 80509 10050 20026 38532 48491 54000 71062 887// 90845 333 88715;
0219160080999992000100612004+45750+010520FM-12+146199999V0200601N003610075019N0020001N1+00701+00041999999ADDAA106000791AY161061AY221061GA1081+007509069GF108991081061008001999999MA1999999085321MD1410001+9999ME1314929MW1101REMSYN094AAXX  06124 16008 11520 80607 10070 20004 38532 48492 54000 69901 71062 886// 91145 333 88725;
0202160080999992000100615004+45750+010520FM-12+146199999V0200901N005110075019N0020001N1+00381+00021999999ADDAY121031AY221031GA1081+007509069GF108991081061008001999999MA1999999085301MD1810021+9999ME1314909MW1101REMSYN088AAXX  06154 16008 41520 80910 10038 20002 38530 48490 58002 71022 886// 91445 333 88725;
0238160080999992000100618004+45750+010520FM-12+146199999V0200301N009310075019N0040001N1+00241-00281999999ADDAA112000791AY121061AY221061GA1081+007509069GF108991081061008001999999KA1120M+00721MA1999999085401MD1310101+9999ME1314999MW1101REMSYN100AAXX  06184 16008 11540 80318 10024 21028 38540 48499 53010 69902 71022 886// 91745 333 10072 88725;
0202160080999992000100621004+45750+010520FM-12+146199999V0200401N007710075019N0040001N1+00181-00521999999ADDAY121031AY221031GA1081+007509069GF108991081061008001999999MA1999999085511MD1210111+9999ME1315099MW1101REMSYN088AAXX  06214 16008 41540 80415 10018 21052 38551 48509 52011 71022 886// 92045 333 88725;
0232160080999992000100700004+45750+010520FM-12+146199999V0200301N005110075019N0040001N1+00021-00341999999ADDAA199000091AY121061AY221061GA1081+007509069GF108991081061008001999999MA1999999085501MD1810011+9999ME1315089MW1101REMSYN088AAXX  07004 16008 31540 80310 10002 21034 38550 48508 58001 71022 886// 92345 333 88725;EQDQ01  00002PRCP99
0202160080999992000100703004+45750+010520FM-12+146199999V0200901N007210060019N0040001N1-00201-00331999999ADDAY121031AY221031GA1081+006009069GF108991081061008001999999MA1999999085501MD1410001+9999ME1315079MW1101REMSYN088AAXX  07034 16008 41540 80914 11020 21033 38550 48507 54000 71022 886// 90245 333 88720;
0261160080999992000100706004+45750+010520FM-12+146199999V0200901N004110060019N0040001N1-00141-00311999999ADDAA199000021AJ100019199999999AY121061AY221061GA1081+006009069GF108991081071008001999999IA1309KA1120N-00201MA1999999085401MD1810101+9999ME1314989MW1701REMSYN100AAXX  07064 16008 31540 80908 11014 21031 38540 48498 58010 77022 887// 90545 333 21020 42001 88720;
0202160080999992000100709004+45750+010520FM-12+146199999V0200601N005110060019N0020001N1-00101-00331999999ADDAY171031AY271031GA1081+006009069GF108991081071008001999999MA1999999085401MD1410001+9999ME1314989MW1701REMSYN088AAXX  07094 16008 41520 80610 11010 21033 38540 48498 54000 77077 887// 90845 333 88720;
0248160080999992000100712004+45750+010520FM-12+146199999V0200301N006210060019N0030001N1+00101-00391999999ADDAA106002091AJ100019199999999AY171061AY221061GA1081+006009069GF108991081071008001999999IA1309MA1999999085401MD1410001+9999ME1314999MW1101REMSYN100AAXX  07124 16008 11530 80312 10010 21039 38540 48499 54000 60021 71072 887// 91145 333 42001 88720;
0202160080999992000100715004+45750+010520FM-12+146199999V0200301N005110075019N0030001N1+00041-00441999999ADDAY121031AY221031GA1081+007509069GF108991081061008001999999MA1999999085401MD1410001+9999ME1314999MW1101REMSYN088AAXX  07154 16008 41530 80310 10004 21044 38540 48499 54000 71022 886// 91445 333 88725;
0238160080999992000100718004+45750+010520FM-12+146199999V0200301N007210060019N0030001N1+00021-00541999999ADDAA112002091AY121061AY221061GA1081+006009069GF108991081061008001999999KA1120M+00101MA1999999085401MD1410001+9999ME1314999MW1101REMSYN100AAXX  07184 16008 11530 80314 10002 21054 38540 48499 54000 60022 71022 886// 91745 333 10010 88720;
0202160080999992000100721004+45750+010520FM-12+146199999V0200301N007710060019N0030001N1-00061-00441999999ADDAY121031AY221031GA1081+006009069GF108991081061008001999999MA1999999085411MD1310011+9999ME1314999MW1101REMSYN088AAXX  07214 16008 41530 80315 11006 21044 38541 48499 53001 71022 886// 92045 333 88720;
0232160080999992000100800004+45750+010520FM-12+146199999V0200301N006210075019N0030001N1-00021-00511999999ADDAA199000091AY121061AY221061GA1081+007509069GF108991081061008001999999MA1999999085421MD1110011+9999ME1315009MW1101REMSYN088AAXX  08004 16008 31530 80312 11002 21051 38542 48500 51001 71022 886// 92345 333 88725;EQDQ01  00002PRCP99
0174160080999992000100803004+45750+010520FM-12+146199999V0200301N006210090019N0100001N1-00101-00521999999ADDGA1051+009009059GF105991051051008001001001MA1999999085411MD1810011+9999ME1314999REMSYN082AAXX  08034 16008 42560 50312 11010 21052 38541 48499 58001 85500 90245 333 85630;
0235160080999992000100806004+45750+010520FM-12+146199999V0200601N007210090019N0100001N1-00181-00521999999ADDAA199000091GA1061+009009059GF106991061051008001001001IA1099KA1120N-00181MA1999999085401MD1610011+9999ME1314989REMSYN094AAXX  08064 16008 32560 60614 11018 21052 38540 48498 56001 86500 90545 333 21018 31/// 86630;EQDQ01  00002PRCP99
0174160080999992000100809004+45750+010520FM-12+146199999V0200301N007210090019N0100001N1-00011-00401999999ADDGA1061+009009059GF106991061051008001001001MA1999999085411MD1310011+9999ME1314999REMSYN082AAXX  08094 16008 42560 60314 11001 21040 38541 48499 53001 86500 90845 333 86630;
0204160080999992000100812004+45750+010520FM-12+146199999V0200301N006210090019N0150001N1+00301-00391999999ADDAA199000091GA1061+009009059GF106991061051008001001001MA1999999085401MD1810011+9999ME1314999REMSYN082AAXX  08124 16008 32565 60312 10030 21039 38540 48499 58001 86500 91145 333 86630;EQDQ01  00002PRCP99
0174160080999992000100815004+45750+010520FM-12+146199999V0200301N005110090019N0150001N1+00381-00291999999ADDGA1061+009009059GF106991061051008001001001MA1999999085301MD1610101+9999ME1314909REMSYN082AAXX  08154 16008 42565 60310 10038 21029 38530 48490 56010 86500 91445 333 86630;
0223160080999992000100818004+45750+010520FM-12+146199999V0200301N003110090019N0100001N1+00221-00161999999ADDAA199000091GA1071+009009059GF107991071051008001001001KA1120M+00501MA1999999085211MD1810091+9999ME1314819REMSYN088AAXX  08184 16008 32560 70306 10022 21016 38521 48481 58009 87500 91745 333 10050 87630;EQDQ01  00002PRCP99
0174160080999992000100821004+45750+010520FM-12+146199999V0209999C000010090019N0100001N1+00181-00061999999ADDGA1071+009009059GF107991071051008001001001MA1999999085201MD1610011+9999ME1314809REMSYN082AAXX  08214 16008 42560 70000 10018 21006 38520 48480 56001 87500 92045 333 87630;
0219160080999992000100900004+45750+010520FM-12+146199999V0209999C000010090019N0100001N1+00121+00021999999ADDAA106000591AY161061AY221061GA1081+009009059GF108991081051008001999999MA1999999085101MD1810101+9999ME1314719MW1601REMSYN094AAXX  09004 16008 11560 80000 10012 20002 38510 48471 58010 69961 76062 885// 92345 333 88630;
0202160080999992000100903004+45750+010520FM-12+146199999V0200301N006210075019N0100001N1+00101-00041999999ADDAY161031AY261031GA1081+007509069GF108991081071008001999999MA1999999085001MD1610101+9999ME1314619MW1601REMSYN088AAXX  09034 16008 41560 80312 10010 21004 38500 48461 56010 76066 887// 90245 333 88725;
0250160080999992000100906004+45750+010520FM-12+146199999V0200301N004110090019N0100001N1+00021-00111999999ADDAA112003091AY161061AY221061GA1071+009009059GF107991071051008001001001IA1119KA1120N+00021MA1999999084791MD1810211+9999ME1314419MW1011REMSYN106AAXX  09064 16008 11560 70308 10002 21011 38479 48441 58021 60032 70162 87500 90545 333 20002 32/// 87630;
0174160080999992000100909004+45750+010520FM-12+146199999V0200301N003110090019N0150001N1+00181-00041999999ADDGA1071+009009059GF107991071051008001001001MA1999999084901MD1610021+9999ME1314519REMSYN082AAXX  09094 16008 42565 70306 10018 21004 38490 48451 56002 87500 90845 333 87630;
0185160080999992000100912004+45750+010520FM-12+146199999V0200301N004110090019N0200001N1+00701-00141999999ADDAA199000021GA1061+009009059GF106991061051008001001001MA1999999084821MD1810081+9999ME1314439REMSYN082AAXX  09124 16008 32570 60308 10070 21014 38482 48443 58008 86500 91145 333 86630;
0174160080999992000100915004+45750+010520FM-12+146199999V0200301N002610090019N0200001N1+00981-00681999999ADDGA1051+009009059GF105991051051008001001001MA1999999084711MD1710111+9999ME1314329REMSYN082AAXX  09154 16008 42570 50305 10098 21068 38471 48432 57011 85500 91445 333 85630;
0211160080999992000100918004+45750+010520FM-12+146199999V0209999C000012200019N0200001N1+00201-00111999999ADDAA199000091GA1001+999999999GF100991001001999999001001KA1999M+01101MA1999999084611MD1610101+9999ME1314249REMSYN076AAXX  09184 16008 32970 00000 10020 21011 38461 48424 56010 91745 333 10110;EQDQ01  00002PRCP99
0158160080999992000100921004+45750+010520FM-12+146199999V0209999C000012200019N0200001N1-00081-00301999999ADDGA1001+999999999GF100991001001999999001001MA1999999084611MD1410001+9999ME1314249REMSYN066AAXX  09214 16008 42970 00000 11008 21030 38461 48424 54000 92045;
0204160080999992000101000004+45750+010520FM-12+146199999V0209999C000010090019N0100001N1+00201-00111999999ADDAA199000091GA1061+009009059GF106991061051008001001001MA1999999084511MD1810101+9999ME1314149REMSYN082AAXX  10004 16008 32560 60000 10020 21011 38451 48414 58010 86500 92345 333 86630;EQDQ01  00002PRCP99
0174160080999992000101003004+45750+010520FM-12+146199999V0201801N002610090019N0100001N1+00101-00101999999ADDGA1071+009009059GF107991071051008001001001MA1999999084231MD1710281+9999ME1313889REMSYN082AAXX  10034 16008 42560 71805 10010 21010 38423 48388 57028 87500 90245 333 87630;
0263160080999992000101006004+45750+010520FM-12+146199999V0201801N005110060019N0040001N1+00041-00191999999ADDAA199000091AY121061AY221061GA1081+006009069GF108991081061008001999999IA1099KA1120N+00041MA1999999084041MD1810191+9999ME1313709MW1101REMSYN100AAXX  10064 16008 31540 81810 10004 21019 38404 48370 58019 71022 886// 90545 333 20004 31/// 88720;EQDQ01  00002PRCP99
0232160080999992000101012004+45750+010520FM-12+146199999V0201801N004110060019N0030001N1+00101-00071999999ADDAA199000091AY121061AY221061GA1081+006009069GF108991081061008001999999MA1999999083991MD1710031+9999ME1313659MW1101REMSYN088AAXX  10124 16008 31530 81808 10010 21007 38399 48365 57003 71022 886// 91145 333 88720;EQDQ01  00002PRCP99
0202160080999992000101015004+45750+010520FM-12+146199999V0201801N004110060019N0030001N1+00101-00091999999ADDAY161031AY221031GA1081+006009069GF108991081071008001999999MA1999999083891MD1710101+9999ME1313559MW1601REMSYN088AAXX  10154 16008 41530 81808 10010 21009 38389 48355 57010 76062 887// 91445 333 88720;
0238160080999992000101018004+45750+010520FM-12+146199999V0209999C000010060019N0030001N1+00121-00091999999ADDAA112000591AY161061AY221061GA1081+006009069GF108991081061008001999999KA1120M+00201MA1999999083801MD1610091+9999ME1313479MW1101REMSYN100AAXX  10184 16008 11530 80000 10012 21009 38380 48347 56009 69942 71062 886// 91745 333 10020 88720;
0202160080999992000101021004+45750+010520FM-12+146199999V0209999C000010060019N0030001N1+00121-00101999999ADDAY121031AY221031GA1081+006009069GF108991081061008001999999MA1999999083801MD1410001+9999ME1313479MW1101REMSYN088AAXX  10214 16008 41530 80000 10012 21010 38380 48347 54000 71022 886// 92045 333 88720;
0213160080999992000101100004+45750+010520FM-12+146199999V0201801N005110060019N0030001N1+00121-00101999999ADDAA199000021AY121061AY221061GA1081+006009069GF108991081061008001999999MA1999999083711MD1810091+9999ME1313389MW1101REMSYN088AAXX  11004 16008 31530 81810 10012 21010 38371 48338 58009 71022 886// 92345 333 88720;
0202160080999992000101103004+45750+010520FM-12+146199999V0201801N006210060019N0030001N1+00121-00101999999ADDAY121031AY221031GA1081+006009069GF108991081061008001999999MA1999999083601MD1710111+9999ME1313279MW1101REMSYN088AAXX  11034 16008 41530 81812 10012 21010 38360 48327 57011 71022 886// 90245 333 88720;
0263160080999992000101106004+45750+010520FM-12+146199999V0201801N006210060019N0030001N1+00101-00151999999ADDAA199000091AY121061AY221061GA1081+006009069GF108991081061008001999999IA1099KA1120N+00101MA1999999083501MD1610101+9999ME1313189MW1101REMSYN100AAXX  11064 16008 31530 81812 10010 21015 38350 48318 56010 71022 886// 90545 333 20010 31/// 88720;EQDQ01  00002PRCP99
0221160080999992000101109004+45750+010520FM-12+146199999V0201801N007710030019N0008001N1+00141-00111999999ADDAY141031AY221031GA1081+003009069GF108991081061004501999999MA1999999083501MD1410001+9999ME1313189MW1441REMSYN088AAXX  11094 16008 41408 81815 10014 21011 38350 48318 54000 74542 886// 90845 333 88710;EQDQ01+000452PRSWM1
0232160080999992000101112004+45750+010520FM-12+146199999V0202101N007210060019N0020001N1+00301+00001999999ADDAA199000091AY141061AY221061GA1081+006009069GF108991081061008001999999MA1999999083601MD1310101+9999ME1313279MW1101REMSYN088AAXX  11124 16008 31520 82114 10030 20000 38360 48327 53010 71042 886// 91145 333 88720;EQDQ01  00002PRCP99
0202160080999992000101115004+45750+010520FM-12+146199999V0202001N010810030019N0030001N1+00301+00041999999ADDAY161031AY221031GA1081+003009069GF108991081071004501999999MA1999999083421MD1810181+9999ME1313099MW1601REMSYN088AAXX  11154 16008 41430 82021 10030 20004 38342 48309 58018 76062 887// 91445 333 88710;
0238160080999992000101118004+45750+010520FM-12+146199999V0202401N012910030019N0040001N1+00281+00281999999ADDAA112004191AY161061AY221061GA1081+003009069GF108991081071004501999999KA1120M+00331MA1999999083471MD1310051+9999ME1313149MW1601REMSYN100AAXX  11184 16008 11440 82425 10028 20028 38347 48314 53005 60042 76062 887// 91745 333 10033 88710;
0202160080999992000101121004+45750+010520FM-12+146199999V0202001N010310030019N0040001N1+00221+00221999999ADDAY161031AY261031GA1081+003009069GF108991081071004501999999MA1999999083581MD1210111+9999ME1313259MW1601REMSYN088AAXX  11214 16008 41440 82020 10022 20022 38358 48325 52011 76066 887// 92045 333 88710;
0219160080999992000101200004+45750+010520FM-12+146199999V0201701N003110030019N0040001N1+00221+00221999999ADDAA106010991AY161061AY261061GA1081+003009069GF108991081071004501999999MA1999999083611MD1210031+9999ME1313289MW1601REMSYN094AAXX  12004 16008 11440 81706 10022 20022 38361 48328 52003 60111 76066 887// 92345 333 88710;
0202160080999992000101203004+45750+010520FM-12+146199999V0201701N005710030019N0060001N1+00241+00241999999ADDAY161031AY221031GA1081+003009069GF108991081061004501999999MA1999999083701MD1210091+9999ME1313369MW1211REMSYN088AAXX  12034 16008 41456 81711 10024 20024 38370 48336 52009 72162 886// 90245 333 88710;
0250160080999992000101206004+45750+010520FM-12+146199999V0201701N003610030019N0060001N1+00281+00281999999ADDAA112017091AY161061AY221061GA1081+003009069GF108991081071004501999999IA1119KA1120N+00201MA1999999083791MD1210101+9999ME1313459MW1601REMSYN106AAXX  12064 16008 11456 81707 10028 20028 38379 48345 52010 60172 76062 887// 90545 333 20020 32/// 88710;
0202160080999992000101209004+45750+010520FM-12+146199999V0201701N006210015019N0015001N1+00381+00381999999ADDAY161031AY261031GA1081+001509069GF108991081071001501999999MA1999999084001MD1210211+9999ME1313659MW1501REMSYN088AAXX  12094 16008 41215 81712 10038 20038 38400 48365 52021 75066 887// 90845 333 88705;
0219160080999992000101212004+45750+010520FM-12+146199999V0201801N004610015019N0040001N1+00481+00481999999ADDAA106000891AY161061AY251061GA1081+001509069GF108991081071001501999999MA1999999084101MD1110101+9999ME1313749MW1601REMSYN094AAXX  12124 16008 11240 81809 10048 20048 38410 48374 51010 69981 76065 887// 91145 333 88705;
0202160080999992000101215004+45750+010520FM-12+146199999V0201901N005710015019N0020001N1+00581+00571999999ADDAY161031AY261031GA1081+001509069GF108991081071001501999999MA1999999084191MD1310091+9999ME1313839MW1601REMSYN088AAXX  12154 16008 41220 81911 10058 20057 38419 48383 53009 76066 887// 91445 333 88705;
0238160080999992000101218004+45750+010520FM-12+146199999V0202101N008710021019N0080001N1+00521+00501999999ADDAA112007191AY161061AY261061GA1081+002109069GF108991081071002501999999KA1120M+00591MA1999999084291MD1110091+9999ME1313929MW1601REMSYN100AAXX  12184 16008 11358 82117 10052 20050 38429 48392 51009 60072 76066 887// 91745 333 10059 88707;
0202160080999992000101221004+45750+010520FM-12+146199999V0202201N008710030019N0080001N1+00601+00601999999ADDAY161031AY261031GA1081+003009069GF108991081071004501999999MA1999999084451MD1310161+9999ME1314079MW1601REMSYN088AAXX  12214 16008 41458 82217 10060 20060 38445 48407 53016 76066 887// 92045 333 88710;
0219160080999992000101300004+45750+010520FM-12+146199999V0202001N006710030019N0060001N1+00601+00601999999ADDAA106005191AY161061AY261061GA1081+003009069GF108991081071004501999999MA1999999084601MD1210151+9999ME1314229MW1601REMSYN094AAXX  13004 16008 11456 82013 10060 20060 38460 48422 52015 60051 76066 887// 92345 333 88710;
0202160080999992000101303004+45750+010520FM-12+146199999V0201801N005710030019N0060001N1+00621+00601999999ADDAY161031AY261031GA1081+003009069GF108991081071004501999999MA1999999084711MD1110121+9999ME1314339MW1601REMSYN088AAXX  13034 16008 41456 81811 10062 20060 38471 48433 51012 76066 887// 90245 333 88710;
0250160080999992000101306004+45750+010520FM-12+146199999V0201801N003610015019N0060001N1+00661+00641999999ADDAA112010991AY161061AY261061GA1081+001509069GF108991081071001501999999IA1119KA1120N+00521MA1999999084801MD1310091+9999ME1314429MW1601REMSYN106AAXX  13064 16008 11256 81807 10066 20064 38480 48442 53009 60112 76066 887// 90545 333 20052 32/// 88705;
0202160080999992000101309004+45750+010520FM-12+146199999V0201801N007710018019N0070001N1+00701+00691999999ADDAY161031AY221031GA1081+001809069GF108991081061001501999999MA1999999084931MD1110131+9999ME1314549MW1211REMSYN088AAXX  13094 16008 41257 81815 10070 20069 38493 48454 51013 72162 886// 90845 333 88706;
0202160080999992000101315004+45750+010520FM-12+146199999V0201701N005110015019N0070001N1+00721+00701999999ADDAY151031AY251031GA1081+001509069GF108991081071001501999999MA1999999085011MD1010001+9999ME1314629MW1501REMSYN088AAXX  13154 16008 41257 81710 10072 20070 38501 48462 50000 75055 887// 91445 333 88705;
0238160080999992000101318004+45750+010520FM-12+146199999V0202001N004110015019N0110001N1+00781+00741999999ADDAA112003091AY151061AY221061GA1081+001509069GF108991081061001501999999KA1120M+00801MA1999999085081MD1310071+9999ME1314699MW1201REMSYN100AAXX  13184 16008 11261 82008 10078 20074 38508 48469 53007 60032 72052 886// 91745 333 10080 88705;
0174160080999992000101321004+45750+010520FM-12+146199999V0201601N008710030019N0110001N1+00801+00711999999ADDGA1081+003009069GF108991081061004501999999MA1999999085231MD1210151+9999ME1314839REMSYN082AAXX  13214 16008 42461 81617 10080 20071 38523 48483 52015 886// 92045 333 88710;
0185160080999992000101400004+45750+010520FM-12+146199999V0201601N006210030019N0110001N1+00801+00801999999ADDAA199000021GA1081+003009069GF108991081061004501999999MA1999999085291MD1210061+9999ME1314899REMSYN082AAXX  14004 16008 32461 81612 10080 20080 38529 48489 52006 886// 92345 333 88710;
0174160080999992000101403004+45750+010520FM-12+146199999V0201901N005110030019N0110001N1+00881+00741999999ADDGA1081+003009069GF108991081061004501999999MA1999999085311MD1210021+9999ME1314919REMSYN082AAXX  14034 16008 42461 81910 10088 20074 38531 48491 52002 886// 90245 333 88710;
0244160080999992000101406004+45750+010520FM-12+146199999V0209999C000010015019N0080001N1+00781+00781999999ADDAA199000021AY121061AY221061GA1081+001509069GF108991081061001501999999IA1099KA1120N+00761MA1999999085381MD1110071+9999ME1314989MW1101REMSYN100AAXX  14064 16008 31258 80000 10078 20078 38538 48498 51007 71022 886// 90545 333 20076 31/// 88705;
0202160080999992000101409004+45750+010520FM-12+146199999V0201701N004610015019N0020001N1+00801+00801999999ADDAY121031AY221031GA1081+001509069GF108991081071001501999999MA1999999085591MD1110211+9999ME1315189MW1501REMSYN088AAXX  14094 16008 41220 81709 10080 20080 38559 48518 51021 75022 887// 90845 333 88705;
0219160080999992000101412004+45750+010520FM-12+146199999V0202001N006710015019N0060001N1+00801+00801999999ADDAA106007991AY151061AY221061GA1081+001509069GF108991081071001501999999MA1999999085611MD1110021+9999ME1315209MW1501REMSYN094AAXX  14124 16008 11256 82013 10080 20080 38561 48520 51002 60081 75052 887// 91145 333 88705;
0202160080999992000101415004+45750+010520FM-12+146199999V0201901N003610015019N0150001N1+00801+00731999999ADDAY151031AY221031GA1081+001509069GF108991081061001501999999MA1999999085511MD1810101+9999ME1315109MW1201REMSYN088AAXX  14154 16008 41265 81907 10080 20073 38551 48510 58010 72052 886// 91445 333 88705;
0238160080999992000101418004+45750+010520FM-12+146199999V0201601N006710015019N0170001N1+00841+00831999999ADDAA112002091AY151061AY221061GA1081+001509069GF108991081061001501999999KA1120M+00901MA1999999085461MD1610051+9999ME1315069MW1021REMSYN100AAXX  14184 16008 11267 81613 10084 20083 38546 48506 56005 60022 70252 886// 91745 333 10090 88705;
0174160080999992000101421004+45750+010520FM-12+146199999V0201601N007710015019N0160001N1+00821+00811999999ADDGA1081+001509069GF108991081061001501999999MA1999999085401MD1810071+9999ME1314999REMSYN082AAXX  14214 16008 42266 81615 10082 20081 38540 48499 58007 886// 92045 333 88705;
0185160080999992000101500004+45750+010520FM-12+146199999V0202001N005110015019N0160001N1+00821+00791999999ADDAA199000021GA1081+001509069GF108991081061001501999999MA1999999085341MD1710061+9999ME1314949REMSYN082AAXX  15004 16008 32266 82010 10082 20079 38534 48494 57006 886// 92345 333 88705;
0174160080999992000101503004+45750+010520FM-12+146199999V0201601N008210015019N0160001N1+00761+00701999999ADDGA1081+001509069GF108991081061001501999999MA1999999085261MD1610081+9999ME1314869REMSYN082AAXX  15034 16008 42266 81616 10076 20070 38526 48486 56008 886// 90245 333 88705;
0235160080999992000101506004+45750+010520FM-12+146199999V0201501N005710015019N0100001N1+00681+00681999999ADDAA199000091GA1081+001509069GF108991081061001501999999IA1099KA1120N+00681MA1999999085181MD1810081+9999ME1314789REMSYN094AAXX  15064 16008 32260 81511 10068 20068 38518 48478 58008 886// 90545 333 20068 31/// 88705;EQDQ01  00002PRCP99
0174160080999992000101509004+45750+010520FM-12+146199999V0201601N010310015019N0120001N1+00701+00701999999ADDGA1061+001509069GF106991061061001501001001MA1999999085081MD1710101+9999ME1314699REMSYN082AAXX  15094 16008 42262 61620 10070 20070 38508 48469 57010 86600 90845 333 86705;
0204160080999992000101512004+45750+010520FM-12+146199999V0201701N009310045019N0200001N1+01101+00711999999ADDAA199000091GA1061+004509029GF106991061021004501001001MA1999999085001MD1710081+9999ME1314619REMSYN082AAXX  15124 16008 32470 61718 10110 20071 38500 48461 57008 86200 91145 333 86815;EQDQ01  00002PRCP99
0174160080999992000101515004+45750+010520FM-12+146199999V0202001N007210045019N0200001N1+01081+00731999999ADDGA1071+004509029GF107991071021004501001001MA1999999084791MD1710211+9999ME1314409REMSYN082AAXX  15154 16008 42470 72014 10108 20073 38479 48440 57021 87200 91445 333 87815;
0223160080999992000101518004+45750+010520FM-12+146199999V0202101N009310090019N0140001N1+01181+00331999999ADDAA199000091GA1081+009009059GF108991081041008001999999KA1120M+01221MA1999999084591MD1610201+9999ME1314219REMSYN088AAXX  15184 16008 32564 82118 10118 20033 38459 48421 56020 884// 91745 333 10122 88630;EQDQ01  00002PRCP99
0202160080999992000101521004+45750+010520FM-12+146199999V0202201N006710030019N0120001N1+00721+00701999999ADDAY161031AY251031GA1081+003009069GF108991081071004501999999MA1999999084591MD1410001+9999ME1314219MW1601REMSYN088AAXX  15214 16008 41462 82213 10072 20070 38459 48421 54000 76065 887// 92045 333 88710;
0219160080999992000101600004+45750+010520FM-12+146199999V0201601N009310030019N0150001N1+00481+00461999999ADDAA106001091AY161061AY251061GA1081+003009069GF108991081061004501999999MA1999999084811MD1310221+9999ME1314439MW1211REMSYN094AAXX  16004 16008 11465 81618 10048 20046 38481 48443 53022 60011 72165 886// 92345 333 88710;
0174160080999992000101603004+45750+010520FM-12+146199999V0202101N007710030019N0150001N1+00441+00431999999ADDGA1081+003009069GF108991081061004501999999MA1999999085011MD1110201+9999ME1314619REMSYN082AAXX  16034 16008 42465 82115 10044 20043 38501 48461 51020 886// 90245 333 88710;
0222160080999992000101606004+45750+010520FM-12+146199999V0202001N007710021019N0120001N1+00341+00321999999ADDAA112001091GA1081+002109069GF108991081061002501999999IA1099KA1120N+00341MA1999999085091MD1310091+9999ME1314709REMSYN100AAXX  16064 16008 12362 82015 10034 20032 38509 48470 53009 60012 886// 90545 333 20034 31/// 88707;
0174160080999992000101609004+45750+010520FM-12+146199999V0202001N007710018019N0120001N1+00341+00321999999ADDGA1081+001809069GF108991081061001501999999MA1999999085201MD1210111+9999ME1314809REMSYN082AAXX  16094 16008 42262 82015 10034 20032 38520 48480 52011 886// 90845 333 88706;
0191160080999992000101612004+45750+010520FM-12+146199999V0201901N00871004201CN0150001N1+00501+00351999999ADDAA199000021GA1021+004509089GF107991071021004501001001MA1999999085351MD1110151+9999ME1314949REMSYN088AAXX  16124 16008 32465 71917 10050 20035 38535 48494 51015 87200 91145 333 82815 85820;
0174160080999992000101615004+45750+010520FM-12+146199999V0201601N004110060019N0150001N1+00581+00381999999ADDGA1071+006009059GF107991071051008001001001MA1999999085441MD1310091+9999ME1315039REMSYN082AAXX  16154 16008 42565 71608 10058 20038 38544 48503 53009 87500 91445 333 87620;
0223160080999992000101618004+45750+010520FM-12+146199999V0202301N007710045019N0150001N1+00501+00421999999ADDAA199000091GA1081+004509059GF108991081051004501999999KA1120M+00601MA1999999085531MD1210101+9999ME1315129REMSYN088AAXX  16184 16008 32465 82315 10050 20042 38553 48512 52010 885// 91745 333 10060 88615;EQDQ01  00002PRCP99
0202160080999992000101621004+45750+010520FM-12+146199999V0201701N002610030019N0070001N1+00421+00401999999ADDAY121031AY221031GA1081+003009059GF108991081051004501999999MA1999999085641MD1210101+9999ME1315229MW1101REMSYN088AAXX  16214 16008 41457 81705 10042 20040 38564 48522 52010 71022 885// 92045 333 88610;
0232160080999992000101700004+45750+010520FM-12+146199999V0201601N002110030019N0060001N1+00401+00381999999ADDAA199000091AY121061AY221061GA1081+003009059GF108991081051004501999999MA1999999085671MD1110031+9999ME1315259MW1101REMSYN088AAXX  17004 16008 31456 81604 10040 20038 38567 48525 51003 71022 885// 92345 333 88610;EQDQ01  00002PRCP99
0202160080999992000101703004+45750+010520FM-12+146199999V0209999C000010030019N0060001N1+00401+00401999999ADDAY121031AY221031GA1081+003009059GF108991081051004501999999MA1999999085711MD1310041+9999ME1315289MW1101REMSYN088AAXX  17034 16008 41456 80000 10040 20040 38571 48528 53004 71022 885// 90245 333 88610;
0263160080999992000101706004+45750+010520FM-12+146199999V0209999C000010015019N0030001N1+00401+00401999999ADDAA199000091AY121061AY221061GA1081+001509069GF108991081061001501999999IA1099KA1120N+00401MA1999999085721MD1110021+9999ME1315309MW1101REMSYN100AAXX  17064 16008 31230 80000 10040 20040 38572 48530 51002 71022 886// 90545 333 20040 31/// 88705;EQDQ01  00002PRCP99
0202160080999992000101709004+45750+010520FM-12+146199999V0209999C000010030019N0030001N1+00501+00451999999ADDAY121031AY221031GA1081+003009059GF108991081051004501999999MA1999999085831MD1310111+9999ME1315409MW1101REMSYN088AAXX  17094 16008 41430 80000 10050 20045 38583 48540 53011 71022 885// 90845 333 88610;
0219160080999992000101712004+45750+010520FM-12+146199999V0209999C000010045019N0060001N1+00641+00351999999ADDAA106000791AY151061AY221061GA1081+004509059GF108991081051004501999999MA1999999085841MD1110011+9999ME1315419MW1501REMSYN094AAXX  17124 16008 11456 80000 10064 20035 38584 48541 51001 69901 75052 885// 91145 333 88615;
0237160080999992000101715004+45750+010520FM-12+146199999V0209999C000010060019N0110001N1+00741+00541999999ADDAY161031AY251031GA1081+006009059GF108991081051008001999999MA1999999085831MD1710011+9999ME1315419MW1021REMSYN088AAXX  17154 16008 41561 80000 10074 20054 38583 48541 58000 70265 885// 91445 333 88620;EQDQ01+000082APCTENQ02+000002APC3  
0238160080999992000101718004+45750+010520FM-12+146199999V0209999C000010075019N0060001N1+00541+00521999999ADDAA112000591AY161061AY251061GA1071+007509059GF107991071051008001001001KA1120M+00761MA1999999085901MD1310061+9999ME1315469MW1101REMSYN100AAXX  17184 16008 11556 70000 10054 20052 38590 48546 53006 69942 71065 87500 91745 333 10076 87625;
0202160080999992000101721004+45750+010520FM-12+146199999V0209999C000010090019N0030001N1+00301+00291999999ADDAY121031AY221031GA1061+009009059GF106991061051008001001001MA1999999085981MD1210081+9999ME1315539MW1101REMSYN088AAXX  17214 16008 41530 60000 10030 20029 38598 48553 52008 71022 86500 92045 333 86630;
0185160080999992000101800004+45750+010520FM-12+146199999V0209999C000010090019N0110001N1+00301+00281999999ADDAA199000021GA1061+009009059GF106991061051008001001001MA1999999085951MD1810031+9999ME1315519REMSYN082AAXX  18004 16008 32561 60000 10030 20028 38595 48551 58003 86500 92345 333 86630;
0174160080999992000101803004+45750+010520FM-12+146199999V0209999C000010105019N0120001N1+00361+00321999999ADDGA1071+010509059GF107991071051012501001001MA1999999085911MD1610041+9999ME1315479REMSYN082AAXX  18034 16008 42662 70000 10036 20032 38591 48547 56004 87500 90245 333 87635;
0241160080999992000101806004+45750+010520FM-12+146199999V0200401N00261004201CN0150001N1+00321+00291999999ADDAA199000091GA1021+003009079GF106991061051004501001001IA1119KA1120N+00281MA1999999085921MD1310011+9999ME1315489REMSYN100AAXX  18064 16008 32465 60405 10032 20029 38592 48548 53001 86500 90545 333 20028 32/// 82710 86650;EQDQ01  00002PRCP99
0180160080999992000101809004+45750+010520FM-12+146199999V0200401N00211012001CN0170001N1+00541+00311999999ADDGA1011+006009089GF107991071081008001011001MA1999999085951MD1110031+9999ME1315519REMSYN088AAXX  18094 16008 42567 70404 10054 20031 38595 48551 51003 87810 90845 333 81820 86459;
0210160080999992000101812004+45750+010520FM-12+146199999V0200401N00151036001CN0150001N1+00821+00331999999ADDAA199000091GA1041+009009069GF108991041051008001011999MA1999999085911MD1810041+9999ME1315489REMSYN088AAXX  18124 16008 32565 80403 10082 20033 38591 48548 58004 8451/ 91145 333 84630 88458;EQDQ01  00002PRCP99
0174160080999992000101815004+45750+010520FM-12+146199999V0203301N004610090019N0150001N1+00701+00131999999ADDGA1081+009009059GF108991081051008001999999MA1999999085891MD1610021+9999ME1315469REMSYN082AAXX  18154 16008 42565 83309 10070 20013 38589 48546 56002 885// 91445 333 88630;
0223160080999992000101818004+45750+010520FM-12+146199999V0209999C000010120019N0120001N1+00521+00351999999ADDAA199000091GA1061+012009059GF106991061051012501001001KA1120M+00861MA1999999085841MD1810041+9999ME1315419REMSYN088AAXX  18184 16008 32662 60000 10052 20035 38584 48541 58004 86500 91745 333 10086 86640;EQDQ01  00002PRCP99
0232160080999992000101900004+45750+010520FM-12+146199999V0209999C000010120019N0070001N1+00381+00361999999ADDAA199000091AY121061AY221061GA1051+012009059GF105991051051012501001001MA1999999085781MD1810061+9999ME1315359MW1101REMSYN088AAXX  19004 16008 31657 50000 10038 20036 38578 48535 58006 71022 85500 92345 333 85640;EQDQ01  00002PRCP99
0202160080999992000101903004+45750+010520FM-12+146199999V0209999C000010120019N0080001N1+00361+00351999999ADDAY121031AY221031GA1071+012009059GF107991071051012501001001MA1999999085701MD1710091+9999ME1315279MW1101REMSYN088AAXX  19034 16008 41658 70000 10036 20035 38570 48527 57009 71022 87500 90245 333 87640;
0267160080999992000101906004+45750+010520FM-12+146199999V0209999C000010120019N0140001N1+00361+00351999999ADDAA199000091GA1081+012009059GF108991081051012501999999IA1099KA1120N+00341MA1999999085691MD1710011+9999ME1315279REMSYN094AAXX  19064 16008 32664 80000 10036 20035 38569 48527 56000 885// 90545 333 20034 31/// 88640;EQDQ01+000062APCTENQ02+000002APC3  Q03  00002PRCP99
0174160080999992000101909004+45750+010520FM-12+146199999V0209999C000010120019N0150001N1+00501+00481999999ADDGA1081+012009059GF108991081051012501999999MA1999999085741MD1310051+9999ME1315329REMSYN082AAXX  19094 16008 42665 80000 10050 20048 38574 48532 53005 885// 90845 333 88640;
0204160080999992000101912004+45750+010520FM-12+146199999V0209999C000010120019N0110001N1+00881+00411999999ADDAA199000091GA1071+012009059GF107991071051012501001001MA1999999085701MD1810041+9999ME1315289REMSYN082AAXX  19124 16008 32661 70000 10088 20041 38570 48528 58004 87500 91145 333 87640;EQDQ01  00002PRCP99
0202160080999992000101915004+45750+010520FM-12+146199999V0201901N003610075019N0040001N1+00601+00451999999ADDAY121031AY221031GA1081+007509059GF108991081051008001999999MA1999999085711MD1310011+9999ME1315299MW1101REMSYN088AAXX  19154 16008 41540 81907 10060 20045 38571 48529 53001 71022 885// 91445 333 88625;
0238160080999992000101918004+45750+010520FM-12+146199999V0209999C000010105019N0030001N1+00501+00501999999ADDAA112000791AY151061AY221061GA1081+010509059GF108991081051012501999999KA1120M+00981MA1999999085841MD1210131+9999ME1315419MW1501REMSYN100AAXX  19184 16008 11630 80000 10050 20050 38584 48541 52013 69902 75052 885// 91745 333 10098 88635;
0202160080999992000101921004+45750+010520FM-12+146199999V0209999C000010090019N0030001N1+00401+00401999999ADDAY151031AY221031GA1061+009009059GF106991061051008001001001MA1999999085921MD1210091+9999ME1315499MW1101REMSYN088AAXX  19214 16008 41530 60000 10040 20040 38592 48549 52009 71052 86500 92045 333 86630;
0202160080999992000102003004+45750+010520FM-12+146199999V0202101N001510015019N0015001N1+00401+00381999999ADDAY121031AY221031GA1081+001509069GF108991081061001501999999MA1999999085931MD1810011+9999ME1315499MW1101REMSYN088AAXX  20034 16008 41215 82103 10040 20038 38593 48549 58001 71022 886// 90245 333 88705;
0256160080999992000102006004+45750+010520FM-12+146199999V0209999C00001007501CN0025001N1+00421+00401999999ADDAA112000791AY121061AY221061GA1031+007509079GF108991081051008001999999IA1119KA1120N+00401MA1999999085941MD1310011+9999ME1315509MW1101REMSYN112AAXX  20064 16008 11525 80000 10042 20040 38594 48550 53001 69902 71022 885// 90545 333 20040 32/// 83725 88630;
0208160080999992000102009004+45750+010520FM-12+146199999V0202201N00361004201CN0030001N1+00461+00451999999ADDAY121031AY221031GA1041+004509079GF108991081051004501999999MA1999999086011MD1110061+9999ME1315569MW1101REMSYN094AAXX  20094 16008 41430 82207 10046 20045 38601 48556 51006 71022 885// 90845 333 84715 88625;
0238160080999992000102012004+45750+010520FM-12+146199999V0201901N00571004201CN0030001N1+00581+00461999999ADDAA199000091AY121061AY221061GA1041+003009079GF107991071051004501001001MA1999999086001MD1810011+9999ME1315569MW1101REMSYN094AAXX  20124 16008 31430 71911 10058 20046 38600 48556 58001 71022 87500 91145 333 84710 87620;EQDQ01  00002PRCP99
0251160080999992000102018004+45750+010520FM-12+146199999V0201701N004110015019N0020001N1+00561+00521999999ADDAA199000091AY121061AY221061GA1081+001509069GF108991081061001501999999KA1120M+00601MA1999999085991MD1310041+9999ME1315559MW1101REMSYN094AAXX  20184 16008 31220 81708 10056 20052 38599 48555 53004 71022 886// 91745 333 10060 88705;EQDQ01  00002PRCP99
0202160080999992000102021004+45750+010520FM-12+146199999V0209999C000010009019N0002001N1+00501+00501999999ADDAY141031AY221031GA1081+000909069GF108991081061000751999999MA1999999086061MD1210071+9999ME1315619MW1441REMSYN088AAXX  20214 16008 41102 80000 10050 20050 38606 48561 52007 74442 886// 92045 333 88703;
0232160080999992000102100004+45750+010520FM-12+146199999V0201701N003610012019N0003001N1+00501+00481999999ADDAA199000091AY141061AY241061GA1081+001209069GF108991081061001501999999MA1999999086041MD1810011+9999ME1315609MW1461REMSYN088AAXX  21004 16008 31203 81707 10050 20048 38604 48560 58001 74644 886// 92345 333 88704;EQDQ01  00002PRCP99
0202160080999992000102103004+45750+010520FM-12+146199999V0209999C000010012019N0002001N1+00501+00501999999ADDAY141031AY241031GA1081+001209069GF108991081061001501999999MA1999999086051MD1310011+9999ME1315619MW1441REMSYN088AAXX  21034 16008 41202 80000 10050 20050 38605 48561 53001 74444 886// 90245 333 88704;
0263160080999992000102106004+45750+010520FM-12+146199999V0209999C000010012019N0005001N1+00461+00451999999ADDAA199000091AY141061AY241061GA1081+001209069GF108991081061001501999999IA1099KA1120N+00461MA1999999086091MD1110041+9999ME1315659MW1421REMSYN100AAXX  21064 16008 31205 80000 10046 20045 38609 48565 51004 74244 886// 90545 333 20046 31/// 88704;EQDQ01  00002PRCP99
0208160080999992000102109004+45750+010520FM-12+146199999V0202201N00151002101CN0030001N1+00501+00361999999ADDAY141031AY221031GA1041+002109079GF107991071051002501001001MA1999999086211MD1310111+9999ME1315769MW1101REMSYN094AAXX  21094 16008 41330 72203 10050 20036 38621 48576 53011 71042 87500 90845 333 84707 87625;
0232160080999992000102112004+45750+010520FM-12+146199999V0201901N004110060019N0020001N1+00921+00411999999ADDAA199000091AY141061AY221061GA1061+006009029GF106991061021008001001001MA1999999086221MD1110011+9999ME1315799MW1101REMSYN088AAXX  21124 16008 31520 61908 10092 20041 38622 48579 51001 71042 86200 91145 333 86820;EQDQ01  00002PRCP99
0221160080999992000102115004+45750+010520FM-12+146199999V0201801N006210045019N0015001N1+00661+00641999999ADDAY121031AY221031GA1071+004509029GF107991071021004501001001MA1999999086231MD1310011+9999ME1315789MW1101REMSYN088AAXX  21154 16008 41415 71812 10066 20064 38623 48578 53000 71022 87200 91445 333 87815;EQDQ01+000002APC3  
0216160080999992000102200004+45750+010520FM-12+146199999V0209999C000012200019N0009001N1+00141+00141999999ADDAA199000091AY141061AY211061GA1001+999999999GF100991001001999999001001MA1999999086431MD1110011+9999ME1315949MW1441REMSYN072AAXX  22004 16008 31909 00000 10014 20014 38643 48594 51001 74441 92345;EQDQ01  00002PRCP99
0202160080999992000102203004+45750+010520FM-12+146199999V0209999C000012200019N0009001N1+00281+00281999999ADDAY141031AY241031GA1031+004509029GF103991031011004501001001MA1999999086441MD1310021+9999ME1315979MW1441REMSYN088AAXX  22034 16008 41409 30000 10028 20028 38644 48597 53002 74444 83100 90245 333 83815;
0263160080999992000102206004+45750+010520FM-12+146199999V0209999C000010045019N0008001N1+00281+00281999999ADDAA199000091AY141061AY241061GA1061+004509029GF106991061021004501001001IA1099KA1120N+00101MA1999999086431MD1810011+9999ME1315969MW1461REMSYN100AAXX  22064 16008 31408 60000 10028 20028 38643 48596 58001 74644 86200 90545 333 20010 31/// 86815;EQDQ01  00002PRCP99
0208160080999992000102209004+45750+010520FM-12+146199999V0209999C00001001201CN0007001N1+00321+00261999999ADDAY141031AY241031GA1041+001509089GF108991081021001501999999MA1999999086501MD1310061+9999ME1316029MW1421REMSYN094AAXX  22094 16008 41207 80000 10032 20026 38650 48602 53006 74244 882// 90845 333 84805 86815;
0216160080999992000102212004+45750+010520FM-12+146199999V0202201N003112200019N0030001N1+00961+00461999999ADDAA199000091AY141061AY211061GA1001+999999999GF100991001001999999001001MA1999999086441MD1810061+9999ME1316009MW1101REMSYN072AAXX  22124 16008 31930 02206 10096 20046 38644 48600 58006 71041 91145;EQDQ01  00002PRCP99
0176160080999992000102215004+45750+010520FM-12+146199999V0202401N006219999999N0060001N1+00921+00551999999ADDAY111031AY211031GF105991001001999999001011MA1999999086371MD1610071+9999ME1315939MW1101REMSYN078AAXX  22154 16008 41956 52412 10092 20055 38637 48593 56007 71011 80001 91445;
0239160080999992000102218004+45750+010520FM-12+146199999V0209999C000012200019N0090001N1+00521+00461999999ADDAA199000091AY111061AY211061GA1001+999999999GF100991001001999999001001KA1999M+01061MA1999999086391MD1310021+9999ME1315939MW1101REMSYN082AAXX  22184 16008 31959 00000 10052 20046 38639 48593 53002 71011 91745 333 10106;EQDQ01  00002PRCP99
0186160080999992000102221004+45750+010520FM-12+146199999V0209999C000012200019N0070001N1+00281+00281999999ADDAY101031AY201031GA1001+999999999GF100991001001999999001001MA1999999086471MD1110081+9999ME1315999MW1101REMSYN072AAXX  22214 16008 41957 00000 10028 20028 38647 48599 51008 71000 92045;
0216160080999992000102300004+45750+010520FM-12+146199999V0209999C000012200019N0050001N1+00141+00141999999ADDAA199000091AY101061AY201061GA1001+999999999GF100991001001999999001001MA1999999086481MD1110011+9999ME1315999MW1101REMSYN072AAXX  23004 16008 31950 00000 10014 20014 38648 48599 51001 71000 92345;EQDQ01  00002PRCP99
0186160080999992000102303004+45750+010520FM-12+146199999V0209999C000012200019N0040001N1+00041+00041999999ADDAY101031AY201031GA1001+999999999GF100991001001999999001001MA1999999086421MD1810061+9999ME1315939MW1101REMSYN072AAXX  23034 16008 41940 00000 10004 20004 38642 48593 58006 71000 90245;
0251160080999992000102306004+45750+010520FM-12+146199999V0209999C000012200019N0050001N1+00001+00001999999ADDAA199000091AY101061AY201061GA1001+999999999GF100991001001999999001001IA1099KA1120N+00001MA1999999086381MD1610041+9999ME1315899MW1101REMSYN088AAXX  23064 16008 31950 00000 10000 20000 38638 48589 56004 71000 90545 333 20000 31///;EQDQ01  00002PRCP99
0186160080999992000102309004+45750+010520FM-12+146199999V0209999C000012200019N0070001N1+00261+00261999999ADDAY101031AY201031GA1001+999999999GF100991001001999999001001MA1999999086431MD1310051+9999ME1315959MW1101REMSYN072AAXX  23094 16008 41957 00000 10026 20026 38643 48595 53005 71000 90845;
0216160080999992000102312004+45750+010520FM-12+146199999V0202101N006212200019N0060001N1+01081+00331999999ADDAA199000091AY101061AY201061GA1001+999999999GF100991001001999999001001MA1999999086331MD1810101+9999ME1315909MW1101REMSYN072AAXX  23124 16008 31956 02112 10108 20033 38633 48590 58010 71000 91145;EQDQ01  00002PRCP99
0186160080999992000102315004+45750+010520FM-12+146199999V0202401N005112200019N0060001N1+01041+00551999999ADDAY101031AY201031GA1001+999999999GF100991001001999999001001MA1999999086171MD1610161+9999ME1315749MW1101REMSYN072AAXX  23154 16008 41956 02410 10104 20055 38617 48574 56016 71000 91445;
0239160080999992000102318004+45750+010520FM-12+146199999V0209999C000012200019N0090001N1+00581+00451999999ADDAA199000091AY101061AY201061GA1001+999999999GF100991001001999999001001KA1999M+01241MA1999999086201MD1310031+9999ME1315759MW1101REMSYN082AAXX  23184 16008 31959 00000 10058 20045 38620 48575 53003 71000 91745 333 10124;EQDQ01  00002PRCP99
0186160080999992000102321004+45750+010520FM-12+146199999V0209999C000012200019N0080001N1+00341+99999999999ADDAY101031AY201031GA1001+999999999GF100991001001999999001001MA1999999086271MD1110071+9999ME1315819MW1101REMSYN072AAXX  23214 16008 41958 00000 10034 20035 38627 48581 51007 71000 92045;
0216160080999992000102400004+45750+010520FM-12+146199999V0209999C000012200019N0070001N1+00141+00141999999ADDAA199000091AY101061AY201061GA1001+999999999GF100991001001999999001001MA1999999086251MD1810031+9999ME1315789MW1101REMSYN072AAXX  24004 16008 31957 00000 10014 20014 38625 48578 58003 71000 92345;EQDQ01  00002PRCP99
0186160080999992000102403004+45750+010520FM-12+146199999V0209999C000012200019N0070001N1+00041+00041999999ADDAY101031AY201031GA1001+999999999GF100991001001999999001001MA1999999086141MD1810111+9999ME1315679MW1101REMSYN072AAXX  24034 16008 41957 00000 10004 20004 38614 48567 58011 71000 90245;
0251160080999992000102406004+45750+010520FM-12+146199999V0203601N001512200019N0070001N1+00041+00041999999ADDAA199000091AY101061AY201061GA1001+999999999GF100991001001999999001001IA1099KA1120N+00021MA1999999086081MD1610061+9999ME1315629MW1101REMSYN088AAXX  24064 16008 31957 03603 10004 20004 38608 48562 56006 71000 90545 333 20002 31///;EQDQ01  00002PRCP99
0177160080999992000102409004+45750+010520FM-12+146199999V0200301N004612200019N0110001N1+00361-00041999999ADDGA1001+999999999GF100991001001999999001001MA1999999086081MD1410001+9999ME1315639REMSYN066AAXX  24094 16008 42961 00309 10036 21004 38608 48563 53000 90845;EQDQ01+000032APCTEN
0204160080999992000102412004+45750+010520FM-12+146199999V0200301N004612200019N0130001N1+01401+00041999999ADDAA199000091GA1011+007509029GF106991011011008001001011MA1999999085941MD1810141+9999ME1315539REMSYN082AAXX  24124 16008 32563 60309 10140 20004 38594 48553 58014 81101 91145 333 81825;EQDQ01  00002PRCP99
0174160080999992000102415004+45750+010520FM-12+146199999V0209999C000010060019N0130001N1+00981+00661999999ADDGA1051+006009029GF105991051011008001001001MA1999999085821MD1610121+9999ME1315419REMSYN082AAXX  24154 16008 42563 50000 10098 20066 38582 48541 56012 85100 91445 333 85820;
0223160080999992000102418004+45750+010520FM-12+146199999V0209999C000010060019N0130001N1+00721+00501999999ADDAA199000091GA1051+006009029GF105991051011008001001001KA1120M+01721MA1999999085841MD1310011+9999ME1315419REMSYN088AAXX  24184 16008 32563 50000 10072 20050 38584 48541 53001 85100 91745 333 10172 85820;EQDQ01  00002PRCP99
0158160080999992000102421004+45750+010520FM-12+146199999V0209999C000012200019N0110001N1+00341+99999999999ADDGA1001+999999999GF100991001001999999001001MA1999999085891MD1110051+9999ME1315459REMSYN066AAXX  24214 16008 42961 00000 10034 20035 38589 48545 51005 92045;
0188160080999992000102500004+45750+010520FM-12+146199999V0209999C000012200019N0110001N1+00181+00181999999ADDAA199000091GA1001+999999999GF100991001001999999001001MA1999999085921MD1110031+9999ME1315479REMSYN066AAXX  25004 16008 32961 00000 10018 20018 38592 48547 51003 92345;EQDQ01  00002PRCP99
0158160080999992000102503004+45750+010520FM-12+146199999V0209999C000012200019N0110001N1+00101+00101999999ADDGA1001+999999999GF100991001001999999001001MA1999999085801MD1810121+9999ME1315369REMSYN066AAXX  25034 16008 42961 00000 10010 20010 38580 48536 58012 90245;
0223160080999992000102506004+45750+010520FM-12+146199999V0209999C000012200019N0120001N1+00081+00081999999ADDAA199000091GA1001+999999999GF100991001001999999001001IA1099KA1120N+00061MA1999999085691MD1610111+9999ME1315269REMSYN082AAXX  25064 16008 32962 00000 10008 20008 38569 48526 56011 90545 333 20006 31///;EQDQ01  00002PRCP99
0158160080999992000102509004+45750+010520FM-12+146199999V0209999C000012200019N0130001N1+00301+00291999999ADDGA1001+999999999GF100991001001999999001001MA1999999085691MD1410001+9999ME1315269REMSYN066AAXX  25094 16008 42963 00000 10030 20029 38569 48526 54000 90845;
0178160080999992000102512004+45750+010520FM-12+146199999V0201901N006212200019N0120001N1+00841+00481999999ADDAA199000091GF104991001001999999001011MA1999999085581MD1810101+9999ME1315179REMSYN072AAXX  25124 16008 32962 41912 10084 20048 38558 48517 58010 80001 91145;EQDQ01  00002PRCP99
0148160080999992000102515004+45750+010520FM-12+146199999V0202301N006719999999N0110001N1+00861+00651999999ADDGF106991001001999999001011MA1999999085431MD1610151+9999ME1315039REMSYN072AAXX  25154 16008 42961 62313 10086 20065 38543 48503 56015 80001 91445;
0211160080999992000102518004+45750+010520FM-12+146199999V0209999C000012200019N0100001N1+00421+00421999999ADDAA199000091GA1001+999999999GF100991001001999999001001KA1999M+01041MA1999999085491MD1310061+9999ME1315089REMSYN076AAXX  25184 16008 32960 00000 10042 20042 38549 48508 53006 91745 333 10104;EQDQ01  00002PRCP99
0186160080999992000102521004+45750+010520FM-12+146199999V0209999C000012200019N0090001N1+00281+00281999999ADDAY101031AY201031GA1001+999999999GF100991001001999999001001MA1999999085561MD1110071+9999ME1315149MW1101REMSYN072AAXX  25214 16008 41959 00000 10028 20028 38556 48514 51007 71000 92045;
0216160080999992000102600004+45750+010520FM-12+146199999V0209999C000012200019N0080001N1+00161+00151999999ADDAA199000091AY101061AY201061GA1001+999999999GF100991001001999999001001MA1999999085521MD1810041+9999ME1315109MW1101REMSYN072AAXX  26004 16008 31958 00000 10016 20015 38552 48510 58004 71000 92345;EQDQ01  00002PRCP99
0186160080999992000102603004+45750+010520FM-12+146199999V0209999C000012200019N0080001N1+00021+00021999999ADDAY101031AY201031GA1001+999999999GF100991001001999999001001MA1999999085401MD1810121+9999ME1314989MW1101REMSYN072AAXX  26034 16008 41958 00000 10002 20002 38540 48498 58012 71000 90245;
0223160080999992000102606004+45750+010520FM-12+146199999V0209999C000012200019N0100001N1-00081+99999999999ADDAA199000091GA1001+999999999GF100991001001999999001001IA1099KA1120N-00101MA1999999085371MD1610031+9999ME1314969REMSYN082AAXX  26064 16008 32960 00000 11008 21007 38537 48496 56003 90545 333 21010 31///;EQDQ01  00002PRCP99
0158160080999992000102609004+45750+010520FM-12+146199999V0200401N002112200019N0100001N1+00381+00131999999ADDGA1001+999999999GF100991001001999999001001MA1999999085341MD1610031+9999ME1314939REMSYN066AAXX  26094 16008 42960 00404 10038 20013 38534 48493 56003 90845;
0204160080999992000102612004+45750+010520FM-12+146199999V0202001N004110075019N0200001N1+00761+00311999999ADDAA199000091GA1071+007509059GF107991071051008001001001MA1999999085281MD1610061+9999ME1314889REMSYN082AAXX  26124 16008 32570 72008 10076 20031 38528 48488 56006 87500 91145 333 87625;EQDQ01  00002PRCP99
0180160080999992000102615004+45750+010520FM-12+146199999V0209999C000010090019N0150001N1+00701+00621999999ADDGA1051+009009069GF108991081061008001999999MA1999999085241MD1810031+9999ME1314849REMSYN088AAXX  26154 16008 42565 80000 10070 20062 38524 48484 58003 886// 91445 333 85630 88740;
0211160080999992000102618004+45750+010520FM-12+146199999V0209999C000012200019N0200001N1+00481+00451999999ADDAA199000091GA1001+999999999GF100991001001999999001001KA1999M+00841MA1999999085201MD1610051+9999ME1314809REMSYN076AAXX  26184 16008 32970 00000 10048 20045 38520 48480 56005 91745 333 10084;EQDQ01  00002PRCP99
0158160080999992000102621004+45750+010520FM-12+146199999V0209999C000012200019N0200001N1+00321+00321999999ADDGA1001+999999999GF100991001001999999001001MA1999999085281MD1310081+9999ME1314889REMSYN066AAXX  26214 16008 42970 00000 10032 20032 38528 48488 53008 92045;
0188160080999992000102700004+45750+010520FM-12+146199999V0209999C000012200019N0200001N1+00161+00151999999ADDAA199000091GA1001+999999999GF100991001001999999001001MA1999999085241MD1810041+9999ME1314839REMSYN066AAXX  27004 16008 32970 00000 10016 20015 38524 48483 58004 92345;EQDQ01  00002PRCP99
0158160080999992000102703004+45750+010520FM-12+146199999V0209999C000012200019N0200001N1+00161+00151999999ADDGA1001+999999999GF100991001001999999001001MA1999999085201MD1610041+9999ME1314809REMSYN066AAXX  27034 16008 42970 00000 10016 20015 38520 48480 56004 90245;
0223160080999992000102706004+45750+010520FM-12+146199999V0200301N002612200019N0200001N1+00181+00181999999ADDAA199000091GA1001+999999999GF100991001001999999001001IA1019KA1120N+00121MA1999999085191MD1810011+9999ME1314799REMSYN082AAXX  27064 16008 32970 00305 10018 20018 38519 48479 58001 90545 333 20012 30///;EQDQ01  00002PRCP99
0174160080999992000102709004+45750+010520FM-12+146199999V0200201N003110090019N0200001N1+00341+00291999999ADDGA1071+009009059GF107991071051008001001001MA1999999085361MD1310171+9999ME1314959REMSYN082AAXX  27094 16008 42570 70206 10034 20029 38536 48495 53017 87500 90845 333 87630;
0204160080999992000102712004+45750+010520FM-12+146199999V0200401N005710090019N0200001N1+00661+00331999999ADDAA199000091GA1081+009009059GF108991081051008001999999MA1999999085551MD1110191+9999ME1315139REMSYN082AAXX  27124 16008 32570 80411 10066 20033 38555 48513 51019 885// 91145 333 88630;EQDQ01  00002PRCP99
0174160080999992000102715004+45750+010520FM-12+146199999V0200401N003110105019N0200001N1+00761+00181999999ADDGA1071+010509059GF107991071051012501001001MA1999999085431MD1810121+9999ME1315029REMSYN082AAXX  27154 16008 42670 70406 10076 20018 38543 48502 58012 87500 91445 333 87635;
0223160080999992000102718004+45750+010520FM-12+146199999V0200401N002610105019N0200001N1+00521+00241999999ADDAA199000091GA1081+010509059GF108991081051012501999999KA1120M+00781MA1999999085581MD1310151+9999ME1315169REMSYN088AAXX  27184 16008 32670 80405 10052 20024 38558 48516 53015 885// 91745 333 10078 88635;EQDQ01  00002PRCP99
0174160080999992000102721004+45750+010520FM-12+146199999V0209999C000012200019N0200001N1+00361+00171999999ADDGA1041+009009059GF104991041051008001001001MA1999999085681MD1210111+9999ME1315269REMSYN082AAXX  27214 16008 42570 40000 10036 20017 38568 48526 52011 84500 92045 333 84630;
0204160080999992000102800004+45750+010520FM-12+146199999V0200401N001512200019N0200001N1+00321+00241999999ADDAA199000091GA1031+009009059GF103991031051008001001001MA1999999085751MD1210071+9999ME1315329REMSYN082AAXX  28004 16008 32570 30403 10032 20024 38575 48532 52007 83500 92345 333 83630;EQDQ01  00002PRCP99
0158160080999992000102803004+45750+010520FM-12+146199999V0200401N002612200019N0200001N1+00201+00181999999ADDGA1001+999999999GF100991001001999999001001MA1999999085771MD1110021+9999ME1315349REMSYN066AAXX  28034 16008 42970 00405 10020 20018 38577 48534 51002 90245;
0223160080999992000102806004+45750+010520FM-12+146199999V0200401N002612200019N0250001N1+00141+00141999999ADDAA199000091GA1001+999999999GF100991001001999999001001IA1019KA1120N+00141MA1999999085771MD1410001+9999ME1315349REMSYN082AAXX  28064 16008 32975 00405 10014 20014 38577 48534 54000 90545 333 20014 30///;EQDQ01  00002PRCP99
0158160080999992000102809004+45750+010520FM-12+146199999V0200401N003612200019N0300001N1+00341+00151999999ADDGA1001+999999999GF100991001001999999001001MA1999999085791MD1310021+9999ME1315369REMSYN066AAXX  28094 16008 42980 00407 10034 20015 38579 48536 53002 90845;
0178160080999992000102812004+45750+010520FM-12+146199999V0202101N002612200019N0300001N1+01221+00481999999ADDAA199000091GF103991001001999999001011MA1999999085731MD1810061+9999ME1315339REMSYN072AAXX  28124 16008 32980 32105 10122 20048 38573 48533 58006 80001 91145;EQDQ01  00002PRCP99
0148160080999992000102815004+45750+010520FM-12+146199999V0202401N006212200019N0300001N1+01041+00471999999ADDGF102991001001999999001011MA1999999085621MD1710121+9999ME1315219REMSYN072AAXX  28154 16008 42980 22412 10104 20047 38562 48521 57012 80001 91445;
0211160080999992000102818004+45750+010520FM-12+146199999V0202401N002612200019N0300001N1+00501+00421999999ADDAA199000091GA1001+999999999GF100991001001999999001001KA1999M+01341MA1999999085621MD1510001+9999ME1315209REMSYN076AAXX  28184 16008 32980 02405 10050 20042 38562 48520 55000 91745 333 10134;EQDQ01  00002PRCP99
0158160080999992000102821004+45750+010520FM-12+146199999V0209999C000012200019N0300001N1+00361+00361999999ADDGA1001+999999999GF100991001001999999001001MA1999999085691MD1210071+9999ME1315269REMSYN066AAXX  28214 16008 42980 00000 10036 20036 38569 48526 52007 92045;
0188160080999992000102900004+45750+010520FM-12+146199999V0209999C000012200019N0300001N1+00221+00221999999ADDAA199000091GA1001+999999999GF100991001001999999001001MA1999999085691MD1110011+9999ME1315269REMSYN066AAXX  29004 16008 32980 00000 10022 20022 38569 48526 51001 92345;EQDQ01  00002PRCP99
0158160080999992000102903004+45750+010520FM-12+146199999V0209999C000012200019N0300001N1+00001+00001999999ADDGA1001+999999999GF100991001001999999001001MA1999999085611MD1810091+9999ME1315189REMSYN066AAXX  29034 16008 42980 00000 10000 20000 38561 48518 58009 90245;
0235160080999992000102906004+45750+010520FM-12+146199999V0209999C000010105019N0150001N1+00201+99999999999ADDAA199000091GA1061+010509069GF106991061061012501001001IA1099KA1120N+00001MA1999999085511MD1710101+9999ME1315099REMSYN094AAXX  29064 16008 32665 60000 10020 20021 38551 48509 57010 86600 90545 333 20000 31/// 86735;EQDQ01  00002PRCP99
0174160080999992000102909004+45750+010520FM-12+146199999V0209999C000010060019N0100001N1+00241+00241999999ADDGA1081+006009029GF108991081011008001999999MA1999999085521MD1310011+9999ME1315109REMSYN082AAXX  29094 16008 42560 80000 10024 20024 38552 48510 53001 881// 90845 333 88820;
0204160080999992000102912004+45750+010520FM-12+146199999V0202001N006710045019N0100001N1+00341+99999999999ADDAA199000091GA1081+004509029GF108991081011004501999999MA1999999085541MD1110011+9999ME1315129REMSYN082AAXX  29124 16008 32460 82013 10034 20035 38554 48512 51001 881// 91145 333 88815;EQDQ01  00002PRCP99
0202160080999992000102915004+45750+010520FM-12+146199999V0201901N005710090019N0080001N1+00381+00351999999ADDAY121031AY221031GA1061+009009029GF106991061011008001001001MA1999999085461MD1810081+9999ME1315049MW1101REMSYN088AAXX  29154 16008 41558 61911 10038 20035 38546 48504 58008 71022 86100 91445 333 86830;
0251160080999992000102918004+45750+010520FM-12+146199999V0202101N003110090019N0090001N1+00421+00361999999ADDAA199000091AY121061AY221061GA1061+009009029GF106991061011008001001001KA1120M+00441MA1999999085451MD1610011+9999ME1315049MW1101REMSYN094AAXX  29184 16008 31559 62106 10042 20036 38545 48504 56001 71022 86100 91745 333 10044 86830;EQDQ01  00002PRCP99
0202160080999992000102921004+45750+010520FM-12+146199999V0209999C000010090019N0080001N1+00341+00321999999ADDAY121031AY221031GA1071+009009029GF107991071011008001001001MA1999999085491MD1310041+9999ME1315089MW1101REMSYN088AAXX  29214 16008 41558 70000 10034 20032 38549 48508 53004 71022 87100 92045 333 87830;
0232160080999992000103000004+45750+010520FM-12+146199999V0209999C000010090019N0080001N1+00221+00221999999ADDAA199000091AY121061AY221061GA1081+009009029GF108991081011008001999999MA1999999085481MD1810011+9999ME1315069MW1101REMSYN088AAXX  30004 16008 31558 80000 10022 20022 38548 48506 58001 71022 881// 92345 333 88830;EQDQ01  00002PRCP99
0202160080999992000103003004+45750+010520FM-12+146199999V0201901N003110075019N0070001N1+00281+00281999999ADDAY121031AY221031GA1081+007509029GF108991081011008001999999MA1999999085401MD1710081+9999ME1314999MW1101REMSYN088AAXX  30034 16008 41557 81906 10028 20028 38540 48499 57008 71022 881// 90245 333 88825;
0263160080999992000103006004+45750+010520FM-12+146199999V0200101N002610090019N0090001N1+00201+99999999999ADDAA199000091AY121061AY221061GA1081+009009029GF108991081011008001999999IA1099KA1120N+00141MA1999999085291MD1710111+9999ME1314889MW1101REMSYN100AAXX  30064 16008 31559 80105 10020 20021 38529 48488 57011 71022 881// 90545 333 20014 31/// 88830;EQDQ01  00002PRCP99
0232160080999992000103012004+45750+010520FM-12+146199999V0202001N007710045019N0060001N1+00301+00291999999ADDAA199000091AY121061AY221061GA1081+004509029GF108991081011004501999999MA1999999085031MD1710181+9999ME1314639MW1101REMSYN088AAXX  30124 16008 31456 82015 10030 20029 38503 48463 57018 71022 881// 91145 333 88815;EQDQ01  00002PRCP99
0202160080999992000103015004+45750+010520FM-12+146199999V0201901N009310060019N0040001N1+00381+00381999999ADDAY141031AY221031GA1081+006009029GF108991081011008001999999MA1999999084761MD1710271+9999ME1314389MW1281REMSYN088AAXX  30154 16008 41540 81918 10038 20038 38476 48438 57027 72842 881// 91445 333 88820;
0251160080999992000103018004+45750+010520FM-12+146199999V0201901N005710060019N0030001N1+00401+00401999999ADDAA199000091AY141061AY221061GA1081+006009029GF108991081011008001999999KA1120M+00421MA1999999084581MD1610181+9999ME1314209MW1101REMSYN094AAXX  30184 16008 31530 81911 10040 20040 38458 48420 56018 71042 881// 91745 333 10042 88820;EQDQ01  00002PRCP99
0202160080999992000103021004+45750+010520FM-12+146199999V0201701N005110060019N0040001N1+00401+00401999999ADDAY121031AY221031GA1081+006009029GF108991081011008001999999MA1999999084531MD1810051+9999ME1314169MW1101REMSYN088AAXX  30214 16008 41540 81710 10040 20040 38453 48416 58005 71022 881// 92045 333 88820;
0219160080999992000103100004+45750+010520FM-12+146199999V0202001N008710015019N0015001N1+00401+00401999999ADDAA106000191AY161061AY221061GA1081+001509029GF108991081011001501999999MA1999999084401MD1710131+9999ME1314039MW1601REMSYN094AAXX  31004 16008 11215 82017 10040 20040 38440 48403 57013 69921 76062 881// 92345 333 88805;
0202160080999992000103103004+45750+010520FM-12+146199999V0202101N014410015019N0015001N1+00461+00461999999ADDAY161031AY221031GA1081+001509029GF108991081011001501999999MA1999999084201MD1710201+9999ME1313849MW1101REMSYN088AAXX  31034 16008 41215 82128 10046 20046 38420 48384 57020 71062 881// 90245 333 88805;
0250160080999992000103106004+45750+010520FM-12+146199999V0201901N009310045019N0030001N1+00401+00401999999ADDAA112000591AY161061AY221061GA1081+004509029GF108991081011004501999999IA1119KA1120N+00381MA1999999084001MD1710201+9999ME1313659MW1101REMSYN106AAXX  31064 16008 11430 81918 10040 20040 38400 48365 57020 69942 71062 881// 90545 333 20038 32/// 88815;
0202160080999992000103109004+45750+010520FM-12+146199999V0202101N012910015019N0020001N1+00441+00431999999ADDAY161031AY221031GA1081+001509029GF108991081011001501999999MA1999999083991MD1610011+9999ME1313649MW1601REMSYN088AAXX  31094 16008 41220 82125 10044 20043 38399 48364 56001 76062 881// 90845 333 88805;
0219160080999992000103112004+45750+010520FM-12+146199999V0201801N007210030019N0030001N1+00481+00481999999ADDAA106003091AY161061AY221061GA1081+003009069GF108991081071004501999999MA1999999084001MD1310011+9999ME1313659MW1601REMSYN094AAXX  31124 16008 11430 81814 10048 20048 38400 48365 53001 60031 76062 887// 91145 333 88710;
0238160080999992000103118004+45750+010520FM-12+146199999V0200901N009310030019N0030001N1+00001-00091999999ADDAA112011991AY161061AY261061GA1081+003009069GF108991081071004501999999KA1120M+00501MA1999999084171MD1310171+9999ME1313829MW1601REMSYN100AAXX  31184 16008 11430 80918 10000 21009 38417 48382 53017 60122 76066 887// 91745 333 10050 88710;
0202160080999992000103121004+45750+010520FM-12+146199999V0200301N006210045019N0040001N1-00121-00141999999ADDAY161031AY261031GA1081+004509069GF108991081071004501999999MA1999999084401MD1210231+9999ME1314049MW1601REMSYN088AAXX  31214 16008 41440 80312 11012 21014 38440 48404 52023 76066 887// 92045 333 88715;
0174160080999992000110103004+45750+010520FM-12+146199999V0200301N003110090019N0100001N1-00121-00161999999ADDGA1051+009009059GF105991051051008001001001MA1999999084471MD1110061+9999ME1314119REMSYN082AAXX  01034 16008 42560 50306 11012 21016 38447 48411 51006 85500 90245 333 85630;
0210160080999992000110106004+45750+010520FM-12+146199999V0200301N004112200019N0150001N1-00201-00301999999ADDAA112009991GA1001+999999999GF100991001001999999001001IA1119KA1120N-00201MA1999999084431MD1810041+9999ME1314079REMSYN088AAXX  01064 16008 12965 00308 11020 21030 38443 48407 58004 60102 90545 333 21020 32///;
0158160080999992000110109004+45750+010520FM-12+146199999V0200301N005112200019N0150001N1-00101-00311999999ADDGA1001+999999999GF100991001001999999001001MA1999999084511MD1310081+9999ME1314159REMSYN066AAXX  01094 16008 42965 00310 11010 21031 38451 48415 53008 90845;
0175160080999992000110112004+45750+010520FM-12+146199999V0200301N003112200019N0200001N1+00501-00141999999ADDAA106002091GA1001+999999999GF100991001001999999001001MA1999999084521MD1110011+9999ME1314149REMSYN072AAXX  01124 16008 12970 00306 10050 21014 38452 48414 51001 60021 91145;
0158160080999992000110115004+45750+010520FM-12+146199999V0209999C000012200019N0200001N1+00481-00061999999ADDGA1001+999999999GF100991001001999999001001MA1999999084511MD1810011+9999ME1314139REMSYN066AAXX  01154 16008 42970 00000 10048 21006 38451 48413 58001 91445;
0198160080999992000110118004+45750+010520FM-12+146199999V0209999C000012200019N0150001N1-00161-00161999999ADDAA112002091GA1001+999999999GF100991001001999999001001KA1999M+00621MA1999999084601MD1310091+9999ME1314239REMSYN082AAXX  01184 16008 12965 00000 11016 21016 38460 48423 53009 60022 91745 333 10062;
0158160080999992000110121004+45750+010520FM-12+146199999V0209999C000012200019N0150001N1-00301-00301999999ADDGA1001+999999999GF100991001001999999001001MA1999999084691MD1110101+9999ME1314329REMSYN066AAXX  01214 16008 42965 00000 11030 21030 38469 48432 51010 92045;
0188160080999992000110200004+45750+010520FM-12+146199999V0209999C000012200019N0100001N1-00381-00381999999ADDAA199000091GA1001+999999999GF100991001001999999001001MA1999999084721MD1310021+9999ME1314359REMSYN066AAXX  02004 16008 32960 00000 11038 21038 38472 48435 53002 92345;EQDQ01  00002PRCP99
0158160080999992000110203004+45750+010520FM-12+146199999V0209999C000012200019N0100001N1-00401-00401999999ADDGA1001+999999999GF100991001001999999001001MA1999999084701MD1810011+9999ME1314349REMSYN066AAXX  02034 16008 42960 00000 11040 21040 38470 48434 58001 90245;
0235160080999992000110206004+45750+010520FM-12+146199999V0209999C000010090019N0100001N1-00201-00381999999ADDAA199000091GA1061+009009059GF106991061051008001001001IA1019KA1120N-00421MA1999999084691MD1610011+9999ME1314329REMSYN094AAXX  02064 16008 32560 60000 11020 21038 38469 48432 56001 86500 90545 333 21042 30/// 86630;EQDQ01  00002PRCP99
0174160080999992000110209004+45750+010520FM-12+146199999V0201801N003110090019N0100001N1-00041-00331999999ADDGA1071+009009059GF107991071051008001001001MA1999999084691MD1410001+9999ME1314329REMSYN082AAXX  02094 16008 42560 71806 11004 21033 38469 48432 54000 87500 90845 333 87630;
0204160080999992000110212004+45750+010520FM-12+146199999V0201501N005110090019N0100001N1+00001-00191999999ADDAA199000091GA1081+009009069GF108991081061008001999999MA1999999084611MD1810091+9999ME1314249REMSYN082AAXX  02124 16008 32560 81510 10000 21019 38461 48424 58009 886// 91145 333 88730;EQDQ01  00002PRCP99
0174160080999992000110215004+45750+010520FM-12+146199999V0201801N005110075019N0100001N1-00021-00021999999ADDGA1081+007509069GF108991081061008001999999MA1999999084541MD1710071+9999ME1314179REMSYN082AAXX  02154 16008 42560 81810 11002 21002 38454 48417 57007 886// 91445 333 88725;
0223160080999992000110218004+45750+010520FM-12+146199999V0201801N005110075019N0100001N1-00101-00101999999ADDAA199000091GA1081+007509069GF108991081061008001999999KA1120M+00041MA1999999084511MD1610031+9999ME1314149REMSYN088AAXX  02184 16008 32560 81810 11010 21010 38451 48414 56003 886// 91745 333 10004 88725;EQDQ01  00002PRCP99
0174160080999992000110221004+45750+010520FM-12+146199999V0201601N004110075019N0100001N1-00101-00101999999ADDGA1081+007509069GF108991081061008001999999MA1999999084521MD1310011+9999ME1314159REMSYN082AAXX  02214 16008 42560 81608 11010 21010 38452 48415 53001 886// 92045 333 88725;
0219160080999992000110300004+45750+010520FM-12+146199999V0201801N003110060019N0100001N1-00101-00101999999ADDAA106000891AY161061AY221061GA1081+006009069GF108991081071008001999999MA1999999084501MD1810021+9999ME1314139MW1601REMSYN094AAXX  03004 16008 11560 81806 11010 21010 38450 48413 58002 69981 76062 887// 92345 333 88720;
0202160080999992000110303004+45750+010520FM-12+146199999V0201801N006210060019N0100001N1-00101-00101999999ADDAY161031AY261031GA1081+006009069GF108991081071008001999999MA1999999084401MD1710101+9999ME1314049MW1101REMSYN088AAXX  03034 16008 41560 81812 11010 21010 38440 48404 57010 71066 887// 90245 333 88720;
0250160080999992000110306004+45750+010520FM-12+146199999V0201801N008210060019N0100001N1-00101-00101999999ADDAA112006191AY161061AY261061GA1081+006009069GF108991081071008001999999IA1119KA1120N-00121MA1999999084111MD1610291+9999ME1313779MW1601REMSYN106AAXX  03064 16008 11560 81816 11010 21010 38411 48377 56029 60062 76066 887// 90545 333 21012 32/// 88720;
0202160080999992000110309004+45750+010520FM-12+146199999V0201801N007710060019N0100001N1-00181-00181999999ADDAY161031AY261031GA1081+006009069GF108991081071008001999999MA1999999084111MD1410001+9999ME1313779MW1601REMSYN088AAXX  03094 16008 41560 81815 11018 21018 38411 48377 54000 76066 887// 90845 333 88720;
0219160080999992000110312004+45750+010520FM-12+146199999V0201801N007210060019N0100001N1-00101-00101999999ADDAA106002091AY161061AY261061GA1081+006009069GF108991081071008001999999MA1999999084091MD1810021+9999ME1313759MW1601REMSYN094AAXX  03124 16008 11560 81814 11010 21010 38409 48375 58002 60021 76066 887// 91145 333 88720;
0202160080999992000110315004+45750+010520FM-12+146199999V0201501N005110060019N0100001N1-00021-00021999999ADDAY161031AY261031GA1081+006009069GF108991081071008001999999MA1999999084001MD1610091+9999ME1313669MW1601REMSYN088AAXX  03154 16008 41560 81510 11002 21002 38400 48366 56009 76066 887// 91445 333 88720;
0238160080999992000110318004+45750+010520FM-12+146199999V0201801N005110060019N0100001N1+00001-00021999999ADDAA112007191AY161061AY261061GA1081+006009069GF108991081071008001999999KA1120M+00001MA1999999083981MD1810021+9999ME1313649MW1601REMSYN100AAXX  03184 16008 11560 81810 10000 21002 38398 48364 58002 60072 76066 887// 91745 333 10000 88720;
0202160080999992000110321004+45750+010520FM-12+146199999V0201801N003110075019N0100001N1+00021+00021999999ADDAY121031AY221031GA1081+007509069GF108991081061008001999999MA1999999084001MD1310021+9999ME1313669MW1211REMSYN088AAXX  03214 16008 41560 81806 10002 20002 38400 48366 53002 72122 886// 92045 333 88725;
0202160080999992000110403004+45750+010520FM-12+146199999V0200301N006210075019N0100001N1-00021-00191999999ADDAY161031AY221031GA1081+007509069GF108991081061008001999999MA1999999084001MD1810011+9999ME1313669MW1021REMSYN088AAXX  04034 16008 41560 80312 11002 21019 38400 48366 58001 70262 886// 90245 333 88725;
0250160080999992000110406004+45750+010520FM-12+146199999V0200301N005110060019N0100001N1-00161-00161999999ADDAA112002091AY161061AY221061GA1081+006009069GF108991081061008001999999IA1119KA1120N-00181MA1999999084111MD1310111+9999ME1313779MW1021REMSYN106AAXX  04064 16008 11560 80310 11016 21016 38411 48377 53011 60022 70262 886// 90545 333 21018 32/// 88720;
0174160080999992000110409004+45750+010520FM-12+146199999V0200301N003110075019N0100001N1-00141-00211999999ADDGA1081+007509069GF108991081061008001999999MA1999999084301MD1210191+9999ME1313959REMSYN082AAXX  04094 16008 42560 80306 11014 21021 38430 48395 52019 886// 90845 333 88725;
0191160080999992000110412004+45750+010520FM-12+146199999V0200601N005110090019N0150001N1+00221-00161999999ADDAA106002091GA1061+009009059GF106991061051008001001001MA1999999084411MD1110111+9999ME1314049REMSYN088AAXX  04124 16008 12565 60610 10022 21016 38441 48404 51011 60021 86500 91145 333 86630;
0174160080999992000110415004+45750+010520FM-12+146199999V0209999C000010090019N0150001N1+00101-00301999999ADDGA1061+009009059GF106991061051008001001001MA1999999084501MD1310091+9999ME1314139REMSYN082AAXX  04154 16008 42565 60000 10010 21030 38450 48413 53009 86500 91445 333 86630;
0210160080999992000110418004+45750+010520FM-12+146199999V0209999C000010090019N0150001N1-00101-00211999999ADDAA112002091GA1061+009009059GF106991061051008001001001KA1120M+00541MA1999999084621MD1210121+9999ME1314259REMSYN094AAXX  04184 16008 12565 60000 11010 21021 38462 48425 52012 60022 86500 91745 333 10054 86630;
0174160080999992000110421004+45750+010520FM-12+146199999V0209999C000010090019N0100001N1-00321-00371999999ADDGA1051+009009059GF105991051051008001001001MA1999999084811MD1210201+9999ME1314449REMSYN082AAXX  04214 16008 42560 50000 11032 21037 38481 48444 52020 85500 92045 333 85630;
0188160080999992000110500004+45750+010520FM-12+146199999V0209999C000012200019N0100001N1-00481-00571999999ADDAA199000091GA1001+999999999GF100991001001999999001001MA1999999084901MD1110091+9999ME1314529REMSYN066AAXX  05004 16008 32960 00000 11048 21057 38490 48452 51009 92345;EQDQ01  00002PRCP99
0158160080999992000110503004+45750+010520FM-12+146199999V0209999C000012200019N0100001N1-00581-00631999999ADDGA1001+999999999GF100991001001999999001001MA1999999084901MD1410001+9999ME1314529REMSYN066AAXX  05034 16008 42960 00000 11058 21063 38490 48452 54000 90245;
0223160080999992000110506004+45750+010520FM-12+146199999V0209999C000012200019N0150001N1-00681-00771999999ADDAA199000091GA1001+999999999GF100991001001999999001001IA1019KA1120N-00681MA1999999085001MD1210101+9999ME1314619REMSYN082AAXX  05064 16008 32965 00000 11068 21077 38500 48461 52010 90545 333 21068 30///;EQDQ01  00002PRCP99
0158160080999992000110509004+45750+010520FM-12+146199999V0200301N004112200019N0200001N1-00401-00711999999ADDGA1001+999999999GF100991001001999999001001MA1999999085021MD1110021+9999ME1314639REMSYN066AAXX  05094 16008 42970 00308 11040 21071 38502 48463 51002 90845;
0188160080999992000110512004+45750+010520FM-12+146199999V0209999C000012200019N0200001N1+00301-00941999999ADDAA199000091GA1001+999999999GF100991001001999999001001MA1999999085021MD1410001+9999ME1314639REMSYN066AAXX  05124 16008 32970 00000 10030 21094 38502 48463 54000 91145;EQDQ01  00002PRCP99
0174160080999992000110515004+45750+010520FM-12+146199999V0201901N004612200019N0280001N1+00081-00681999999ADDGA1031+007509029GF103991031021008001001001MA1999999084861MD1810161+9999ME1314489REMSYN082AAXX  05154 16008 42578 31909 10008 21068 38486 48448 58016 83200 91445 333 83825;
0223160080999992000110518004+45750+010520FM-12+146199999V0201701N003612200019N0180001N1-00241-00441999999ADDAA199000091GA1041+007509029GF104991041021008001001001KA1120M+00321MA1999999084801MD1610061+9999ME1314429REMSYN088AAXX  05184 16008 32568 41707 11024 21044 38480 48442 56006 84200 91745 333 10032 84825;EQDQ01  00002PRCP99
0174160080999992000110521004+45750+010520FM-12+146199999V0202001N003612200019N0150001N1-00301-00381999999ADDGA1041+007509029GF104991041021008001001001MA1999999084781MD1610021+9999ME1314409REMSYN082AAXX  05214 16008 42565 42007 11030 21038 38478 48440 56002 84200 92045 333 84825;
0204160080999992000110600004+45750+010520FM-12+146199999V0201701N004610075019N0150001N1-00341-00341999999ADDAA199000091GA1061+007509029GF106991061021008001001001MA1999999084581MD1810191+9999ME1314229REMSYN082AAXX  06004 16008 32565 61709 11034 21034 38458 48422 58019 86200 92345 333 86825;EQDQ01  00002PRCP99
0174160080999992000110603004+45750+010520FM-12+146199999V0201801N006210075019N0150001N1-00381-00381999999ADDGA1061+007509029GF106991061021008001001001MA1999999084201MD1710381+9999ME1313879REMSYN082AAXX  06034 16008 42565 61812 11038 21038 38420 48387 57038 86200 90245 333 86825;
0302160080999992000110606004+45750+010520FM-12+146199999V0201801N006210030019N0110001N1-00341-00341999999ADDAA112000791AJ199993999999999AL10699999AY171061AY221061GA1081+003009079GF108991081071004501999999IA1309KA1120N-00401MA1999999083891MD1710311+9999ME1313579MW1701REMSYN112AAXX  06064 16008 11461 81812 11034 21034 38389 48357 57031 69902 77072 887// 90545 333 21040 42997 88710 93197;EQDQ01  09982SNDP  
0218160080999992000110609004+45750+010520FM-12+146199999V0201901N012310030019N0130001N1-00121-00211999999ADDAL10699999AY171031AY221031GA1081+003009079GF108991081061004501999999MA1999999083701MD1710191+9999ME1313389MW1021REMSYN094AAXX  06094 16008 41463 81924 11012 21021 38370 48338 57019 70272 886// 90845 333 88710 93197;
0283160080999992000110612004+45750+010520FM-12+146199999V0201801N012910015019N0040001N1-00141-00141999999ADDAA106000791AJ199993999999999AL10699999AY171061AY221061GA1081+001509079GF108991081071001501999999IA1309MA1999999083251MD1710451+9999ME1312959MW1701REMSYN106AAXX  06124 16008 11240 81825 11014 21014 38325 48295 57045 69901 77072 887// 91145 333 42997 88705 93197;EQDQ01  09982SNDP  
0218160080999992000110615004+45750+010520FM-12+146199999V0201701N010310015019N0060001N1-00181-00181999999ADDAL10699999AY171031AY271031GA1081+001509079GF108991081071001501999999MA1999999082891MD1710361+9999ME1312619MW1701REMSYN094AAXX  06154 16008 41256 81720 11018 21018 38289 48261 57036 77077 887// 91445 333 88705 93197;
0283160080999992000110618004+45750+010520FM-12+146199999V0201501N008710015019N0030001N1-00201-00201999999ADDAA112000591AJ100019199999999AL10600191AY171061AY271061GA1081+001509079GF108991081071001501999999IA1309KA1120M+00101MA1999999082531MD1710371+9999ME1312269MW1701REMSYN112AAXX  06184 16008 11230 81517 11020 21020 38253 48226 57037 69962 77077 887// 91745 333 10010 42001 88705 93101;
0218160080999992000110621004+45750+010520FM-12+146199999V0202001N004610015019N0040001N1-00201-00201999999ADDAL10600291AY171031AY271031GA1081+001509079GF108991081071001501999999MA1999999082621MD1310091+9999ME1312359MW1701REMSYN094AAXX  06214 16008 41240 82009 11020 21020 38262 48235 53009 77077 887// 92045 333 88705 93102;
0264160080999992000110700004+45750+010520FM-12+146199999V0201601N004610030019N0120001N1-00181-00181999999ADDAA106002091AJ100049199999999AL10600191AY171061AY221061GA1081+003009079GF108991081061004501999999IA1239MA1999999082681MD1010071+9999ME1312419MW1221REMSYN106AAXX  07004 16008 11462 81609 11018 21018 38268 48241 50007 60021 72272 886// 92345 333 47004 88710 93101;
0218160080999992000110703004+45750+010520FM-12+146199999V0201801N003610015019N0110001N1-00181-00181999999ADDAL10699999AY171031AY221031GA1081+001509079GF108991081071001501999999MA1999999082631MD1610051+9999ME1312369MW1701REMSYN094AAXX  07034 16008 41261 81807 11018 21018 38263 48236 56005 77072 887// 90245 333 88705 93192;
0283160080999992000110706004+45750+010520FM-12+146199999V0201701N004610030019N0130001N1-00181-00181999999ADDAA112002091AJ100049199999999AL10699999AY171061AY221061GA1081+003009079GF108991081061004501999999IA1239KA1120N-00201MA1999999082631MD1410001+9999ME1312369MW1021REMSYN112AAXX  07064 16008 11463 81709 11018 21018 38263 48236 54000 60022 70272 886// 90545 333 21020 47004 88710 93192;
0180160080999992000110709004+45750+010520FM-12+146199999V0201601N002610015019N0120001N1-00141-00161999999ADDGA1081+001509079GF108991081061001501999999MA1999999082821MD1310191+9999ME1312549REMSYN088AAXX  07094 16008 42262 81605 11014 21016 38282 48254 53019 886// 90845 333 88705 92800;
0226160080999992000110712004+45750+010520FM-12+146199999V0201801N003610015019N0120001N1-00121-00121999999ADDAA106003091AJ100049199999999GA1081+001509079GF108991081061001501999999IA1239MA1999999082891MD1110061+9999ME1312609REMSYN100AAXX  07124 16008 12262 81807 11012 21012 38289 48260 51006 60031 886// 91145 333 47004 88705 92800;
0208160080999992000110715004+45750+010520FM-12+146199999V0202001N003610015019N0070001N1-00081-00101999999ADDAY121031AY221031GA1081+001509079GF108991081061001501999999MA1999999082911MD1310031+9999ME1312629MW1101REMSYN094AAXX  07154 16008 41257 82007 11008 21010 38291 48262 53003 71022 886// 91445 333 88705 92810;
0273160080999992000110718004+45750+010520FM-12+146199999V0202101N005710015019N0120001N1-00041-00041999999ADDAA112005191AJ100039199999999AY161061AY221061GA1081+001509079GF108991081061001501999999IA1279KA1120M-00041MA1999999083011MD1210091+9999ME1312719MW1211REMSYN112AAXX  07184 16008 11262 82111 11004 21004 38301 48271 52009 60052 72162 886// 91745 333 11004 43003 88705 92820;
0208160080999992000110721004+45750+010520FM-12+146199999V0201901N003110015019N0060001N1-00101-00101999999ADDAY161031AY221031GA1081+001509079GF108991081061001501999999MA1999999083181MD1210181+9999ME1312889MW1211REMSYN094AAXX  07214 16008 41256 81906 11010 21010 38318 48288 52018 72162 886// 92045 333 88705 92820;
0245160080999992000110806004+45750+010520FM-12+146199999V0209999C000010015019N0120001N1-00201-00281999999ADDAA112000891AJ100029199999999GA1081+001509079GF108991081061001501999999IA1279KA1120N-00201MA1999999083501MD1210181+9999ME1313209REMSYN106AAXX  08064 16008 12262 80000 11020 21028 38350 48320 52018 69982 886// 90545 333 21020 43002 88705 92820;
0217160080999992000110809004+45750+010520FM-12+146199999V0201901N002610015019N0110001N1-00241-00261999999ADDAL10600191AY171031AY221031GA1081+001509079GF108991081071001501999999MA1999999083711MD1210201+9999ME1313399MW1701REMSYN093AAXX  08094 16008 41261 81905 1102421026 38371 48339 52020 77072 887// 90845 333 88705 93101;
0264160080999992000110812004+45750+010520FM-12+146199999V0202001N005110015019N0130001N1-00201-00251999999ADDAA106001091AJ100039199999999AL10699999AY171061AY261061GA1081+001509079GF108991081071001501999999IA1309MA1999999083791MD1110081+9999ME1313479MW1681REMSYN106AAXX  08124 16008 11263 82010 11020 21025 38379 48347 51008 60011 76876 887// 91145 333 42003 88705 93197;
0218160080999992000110815004+45750+010520FM-12+146199999V0202001N005110018019N0150001N1-00081-00181999999ADDAL10699999AY171031AY261031GA1081+001809079GF108991081071001501999999MA1999999083771MD1810021+9999ME1313459MW1771REMSYN094AAXX  08154 16008 41265 82010 11008 21018 38377 48345 58002 77776 887// 91445 333 88706 93197;
0283160080999992000110818004+45750+010520FM-12+146199999V0202001N004110018019N0110001N1-00201-00201999999ADDAA112001091AJ100039199999999AL10699999AY171061AY261061GA1081+001809079GF108991081071001501999999IA1309KA1120M-00081MA1999999083891MD1310121+9999ME1313569MW1771REMSYN112AAXX  08184 16008 11261 82008 11020 21020 38389 48356 53012 60012 77776 887// 91745 333 11008 42003 88706 93197;
0218160080999992000110821004+45750+010520FM-12+146199999V0202001N005110018019N0110001N1-00221-00231999999ADDAL10699999AY171031AY271031GA1081+001809079GF108991081071001501999999MA1999999084011MD1210121+9999ME1313689MW1771REMSYN094AAXX  08214 16008 41261 82010 11022 21023 38401 48368 52012 77777 887// 92045 333 88706 93197;
0264160080999992000110900004+45750+010520FM-12+146199999V0201901N004110018019N0110001N1-00301-00351999999ADDAA106000791AJ100039199999999AL10699999AY171061AY221061GA1081+001809079GF108991081061001501999999IA1309MA1999999084191MD1210181+9999ME1313859MW1221REMSYN106AAXX  09004 16008 11261 81908 11030 21035 38419 48385 52018 69901 72272 886// 92345 333 42003 88706 93197;
0180160080999992000110903004+45750+010520FM-12+146199999V0201801N003110030019N0130001N1-00321-00451999999ADDGA1081+003009079GF108991081061004501999999MA1999999084301MD1210121+9999ME1313969REMSYN088AAXX  09034 16008 42463 81806 11032 21045 38430 48396 52012 886// 90245 333 88710 92800;
0245160080999992000110906004+45750+010520FM-12+146199999V0201901N002610030019N0130001N1-00381-00521999999ADDAA112000791AJ100029199999999GA1081+003009079GF108991081061004501999999IA1309KA1120N-00381MA1999999084471MD1210171+9999ME1314119REMSYN106AAXX  09064 16008 12463 81905 11038 21052 38447 48411 52017 69902 886// 90545 333 21038 42002 88710 92810;
0180160080999992000110909004+45750+010520FM-12+146199999V0201601N003110021019N0140001N1-00341-00491999999ADDGA1081+002109079GF108991081061002501999999MA1999999084701MD1210241+9999ME1314339REMSYN088AAXX  09094 16008 42364 81606 11034 21049 38470 48433 52024 886// 90845 333 88707 92820;
0220160080999992000110912004+45750+010520FM-12+146199999V0201701N003110045019N0170001N1-00201-00541999999ADDAA199000021AJ100029199999999GA1071+004509089GF107991071021004501001001IA1309MA1999999084791MD1010081+9999ME1314419REMSYN094AAXX  09124 16008 32467 71706 11020 21054 38479 48441 50008 87200 91145 333 42002 87815 92820;
0180160080999992000110915004+45750+010520FM-12+146199999V0201801N003110030019N0140001N1-00141-00421999999ADDGA1081+003009079GF108991081061004501999999MA1999999084781MD1610011+9999ME1314409REMSYN088AAXX  09154 16008 42464 81806 11014 21042 38478 48440 56001 886// 91445 333 88710 92820;
0283160080999992000110918004+45750+010520FM-12+146199999V0209999C000010030019N0130001N1-00221-00241999999ADDAA112000191AJ100029199999999AL10699999AY171061AY221061GA1081+003009079GF108991081061004501999999IA1309KA1120M-00121MA1999999084881MD1310111+9999ME1314509MW1221REMSYN112AAXX  09184 16008 11463 80000 11022 21024 38488 48450 53011 69922 72272 886// 91745 333 11012 42002 88710 93197;
0180160080999992000110921004+45750+010520FM-12+146199999V0209999C000010030019N0130001N1-00241-00241999999ADDGA1081+003009079GF108991081061004501999999MA1999999084981MD1210101+9999ME1314599REMSYN088AAXX  09214 16008 42463 80000 11024 21024 38498 48459 52010 886// 92045 333 88710 92800;
0220160080999992000111000004+45750+010520FM-12+146199999V0209999C000010030019N0130001N1-00401-00431999999ADDAA199000021AJ100029199999999GA1081+003009079GF108991081061004501999999IA1309MA1999999085061MD1210071+9999ME1314669REMSYN094AAXX  10004 16008 32463 80000 11040 21043 38506 48466 52007 886// 92345 333 42002 88710 92810;
0180160080999992000111003004+45750+010520FM-12+146199999V0209999C000010030019N0130001N1-00561-00561999999ADDGA1081+003009079GF108991081061004501999999MA1999999085181MD1110121+9999ME1314779REMSYN088AAXX  10034 16008 42463 80000 11056 21056 38518 48477 51012 886// 90245 333 88710 92810;
0239160080999992000111006004+45750+010520FM-12+146199999V0209999C000010060019N0150001N1-00681-00731999999ADDAA199000021AJ100029199999999GA1061+006009089GF106991061021008001001001IA1309KA1120N-00681MA1999999085181MD1410001+9999ME1314779REMSYN100AAXX  10064 16008 32565 60000 11068 21073 38518 48477 54000 86200 90545 333 21068 42002 86820 92820;
0180160080999992000111009004+45750+010520FM-12+146199999V0209999C000012200019N0300001N1-00501-00671999999ADDGA1031+007509089GF103991031011008001001001MA1999999085311MD1310131+9999ME1314899REMSYN088AAXX  10094 16008 42580 30000 11050 21067 38531 48489 53013 83100 90845 333 83825 92820;
0239160080999992000111012004+45750+010520FM-12+146199999V0209999C000010075019N0270001N1+00341-00581999999ADDAA199000091AJ100029199999999GA1061+007509089GF106991061021008001001001IA1309MA1999999085371MD1110061+9999ME1314969REMSYN094AAXX  10124 16008 32577 60000 10034 21058 38537 48496 51006 86200 91145 333 42002 86825 92844;EQDQ01  00002PRCP99
0180160080999992000111015004+45750+010520FM-12+146199999V0201901N002110075019N0180001N1+00081-00421999999ADDGA1051+007509089GF105991051021008001001001MA1999999085451MD1310091+9999ME1315039REMSYN088AAXX  10154 16008 42568 51904 10008 21042 38545 48503 53009 85200 91445 333 85825 92844;
0258160080999992000111018004+45750+010520FM-12+146199999V0209999C000010105019N0150001N1-00381-00451999999ADDAA199000091AJ100029199999999GA1061+010509069GF106991061051012501001001IA1309KA1120M+00381MA1999999085571MD1210121+9999ME1315139REMSYN100AAXX  10184 16008 32665 60000 11038 21045 38557 48513 52012 86500 91745 333 10038 42002 86635 92844;EQDQ01  00002PRCP99
0180160080999992000111021004+45750+010520FM-12+146199999V0209999C000012200019N0180001N1-00401-00431999999ADDGA1021+012009069GF102991021051012501001001MA1999999085711MD1210141+9999ME1315269REMSYN088AAXX  10214 16008 42668 20000 11040 21043 38571 48526 52014 82500 92045 333 82640 92844;
0227160080999992000111100004+45750+010520FM-12+146199999V0209999C000012200019N0200001N1-00681-00711999999ADDAA199000091AJ100029199999999GA1001+999999999GF100991001001999999001001IA1309MA1999999085791MD1110081+9999ME1315339REMSYN082AAXX  11004 16008 32970 00000 11068 21071 38579 48533 51008 92345 333 42002 92844;EQDQ01  00002PRCP99
0168160080999992000111103004+45750+010520FM-12+146199999V0209999C000012200019N0200001N1-00761-00821999999ADDGA1001+999999999GF100991001001999999001001MA1999999085801MD1310011+9999ME1315349REMSYN076AAXX  11034 16008 42970 00000 11076 21082 38580 48534 53001 90245 333 92844;
0246160080999992000111106004+45750+010520FM-12+146199999V0209999C000012200019N0200001N1-00841-00941999999ADDAA199000091AJ100029199999999GA1001+999999999GF100991001001999999001001IA1309KA1120N-00841MA1999999085891MD1210091+9999ME1315419REMSYN088AAXX  11064 16008 32970 00000 11084 21094 38589 48541 52009 90545 333 21084 42002 92844;EQDQ01  00002PRCP99
0168160080999992000111109004+45750+010520FM-12+146199999V0200501N002612200019N0200001N1-00521-00851999999ADDGA1001+999999999GF100991001001999999001001MA1999999085991MD1210111+9999ME1315529REMSYN076AAXX  11094 16008 42970 00505 11052 21085 38599 48552 52011 90845 333 92843;
0217160080999992000111112004+45750+010520FM-12+146199999V0209999C000012200019N0180001N1+00181-00801999999ADDAA199000091AJ100029199999999GF102991001001999999001011IA1309MA1999999085931MD1810061+9999ME1315489REMSYN088AAXX  11124 16008 32968 20000 10018 21080 38593 48548 58006 80001 91145 333 42002 92844;EQDQ01  00002PRCP99
0158160080999992000111115004+45750+010520FM-12+146199999V0201901N005112200019N0150001N1-00101-00871999999ADDGF104991001001999999001011MA1999999085931MD1510001+9999ME1315479REMSYN082AAXX  11154 16008 42965 41910 11010 21087 38593 48547 55000 80001 91445 333 92843;
0246160080999992000111118004+45750+010520FM-12+146199999V0209999C000012200019N0200001N1-00501-00671999999ADDAA199000091AJ100029199999999GA1001+999999999GF100991001001999999001001IA1309KA1120M+00241MA1999999085961MD1110031+9999ME1315499REMSYN088AAXX  11184 16008 32970 00000 11050 21067 38596 48549 51003 91745 333 10024 42002 92843;EQDQ01  00002PRCP99
0168160080999992000111121004+45750+010520FM-12+146199999V0209999C000012200019N0200001N1-00701-00701999999ADDGA1001+999999999GF100991001001999999001001MA1999999086001MD1310041+9999ME1315529REMSYN076AAXX  11214 16008 42970 00000 11070 21070 38600 48552 53004 92045 333 92843;
0227160080999992000111200004+45750+010520FM-12+146199999V0209999C000012200019N0200001N1-00781-00781999999ADDAA199000091AJ100029199999999GA1001+999999999GF100991001001999999001001IA1309MA1999999085931MD1810071+9999ME1315459REMSYN082AAXX  12004 16008 32970 00000 11078 21078 38593 48545 58007 92345 333 42002 92843;EQDQ01  00002PRCP99
0180160080999992000111203004+45750+010520FM-12+146199999V0209999C000012200019N0200001N1-00861-00861999999ADDGA1041+024009039GF104991041001022501031001MA1999999085851MD1710081+9999ME1315389REMSYN088AAXX  12034 16008 42870 40000 11086 21086 38585 48538 57008 84030 90245 333 84358 92843;
0258160080999992000111206004+45750+010520FM-12+146199999V0209999C000012200019N0150001N1-00761-00761999999ADDAA199000091AJ100029199999999GA1011+006009079GF103991031051008001001001IA1309KA1120N-00881MA1999999085741MD1710111+9999ME1315289REMSYN100AAXX  12064 16008 32565 30000 11076 21076 38574 48528 57011 83500 90545 333 21088 42002 81720 92843;EQDQ01  00002PRCP99
0180160080999992000111209004+45750+010520FM-12+146199999V0202501N001512200019N0150001N1-00601-00781999999ADDGA1031+007509069GF103991031051008001001001MA1999999085721MD1610021+9999ME1315279REMSYN088AAXX  12094 16008 42565 32503 11060 21078 38572 48527 56002 83500 90845 333 83625 92843;
0261160080999992000111212004+45750+010520FM-12+146199999V0201901N008210210019N0150001N1-00141-00621999999ADDAA199000091AJ100029199999999GA1021+007509089GA2061+021009049GF106991061021008001011001IA1309MA1999999085611MD1810111+9999ME1315189REMSYN100AAXX  12124 16008 32565 61916 11014 21062 38561 48518 58011 86210 91145 333 42002 82825 86457 92843;EQDQ01  00002PRCP99
0180160080999992000111215004+45750+010520FM-12+146199999V0201901N009310075019N0130001N1-00181-00521999999ADDGA1051+007509089GF105991051021008001001001MA1999999085491MD1710121+9999ME1315079REMSYN088AAXX  12154 16008 42563 51918 11018 21052 38549 48507 57012 85200 91445 333 85825 92843;
0286160080999992000111218004+45750+010520FM-12+146199999V0201601N007210075019N0080001N1-00241-00441999999ADDAA199000091AJ100029199999999AY121061AY221061GA1061+007509069GF106991061051008001001001IA1309KA1120M-00101MA1999999085411MD1710081+9999ME1314999MW1101REMSYN106AAXX  12184 16008 31558 61614 11024 21044 38541 48499 57008 71022 86500 91745 333 11010 42002 86625 92843;EQDQ01  00002PRCP99
0208160080999992000111221004+45750+010520FM-12+146199999V0202101N006210060019N0070001N1-00301-00351999999ADDAY121031AY221031GA1081+006009069GF108991081051008001999999MA1999999085361MD1610051+9999ME1314949MW1101REMSYN094AAXX  12214 16008 41557 82112 11030 21035 38536 48494 56005 71022 885// 92045 333 88620 92843;
0197160080999992000111300004+45750+010520FM-12+146199999V0202201N00411001501CN0020001N1-00461+99999999999ADDAJ100039199999999GA1081+001509079GF108991999999001501999999IA1309MA1999999085261REMSYN105AAXX  13004 16008 11220 82208 11046 21045 38526 8485 58010 69901 77772 887// 92345 333 42003 88705 93101;
0218160080999992000111303004+45750+010520FM-12+146199999V0202301N003110012019N0008001N1-00401-00401999999ADDAL10600191AY171031AY271031GA1081+001209079GF108991081071001501999999MA1999999085081MD1710181+9999ME1314689MW1771REMSYN094AAXX  13034 16008 41208 82306 11040 21040 38508 48468 57018 77777 887// 90245 333 88704 93101;
0283160080999992000111306004+45750+010520FM-12+146199999V0201701N006210012019N0003001N1-00301-00301999999ADDAA112000791AJ100049199999999AL10699999AY171061AY241061GA1081+001209079GF108991081071001501999999IA1249KA1120N-00461MA1999999084981MD1710101+9999ME1314599MW1771REMSYN112AAXX  13064 16008 11203 81712 11030 21030 38498 48459 57010 69902 77774 887// 90545 333 21046 48004 88704 93195;
0218160080999992000111309004+45750+010520FM-12+146199999V0202301N005710009019N0004001N1-00301-00301999999ADDAL10699999AY171031AY241031GA1081+000909079GF108991081071000751999999MA1999999084951MD1610031+9999ME1314579MW1771REMSYN094AAXX  13094 16008 41104 82311 11030 21030 38495 48457 56003 77774 887// 90845 333 88703 93195;
0273160080999992000111318004+45750+010520FM-12+146199999V0202401N001510009019N0002001N1+00021+00001999999ADDAA112003091AJ100029199999999AY161061AY241061GA1081+000909079GF108991081071000751999999IA1259KA1120M+00081MA1999999084631MD1710091+9999ME1314269MW1621REMSYN112AAXX  13184 16008 11102 82403 10002 20000 38463 48426 57009 60032 76264 887// 91745 333 10008 41002 88703 92857;
0202160080999992000111321004+45750+010520FM-12+146199999V0201701N005710009019N0004001N1+00081+00041999999ADDAY161031AY241031GA1081+000909069GF108991081071000751999999MA1999999084561MD1710071+9999ME1314209MW1621REMSYN088AAXX  13214 16008 41104 81711 10008 20004 38456 48420 57007 76264 887// 92045 333 88703;
0219160080999992000111400004+45750+010520FM-12+146199999V0202001N004610012019N0008001N1+00141+00101999999ADDAA106006191AY161061AY241061GA1081+001209069GF108991081071001501999999MA1999999084511MD1610051+9999ME1314159MW1621REMSYN094AAXX  14004 16008 11208 82009 10014 20010 38451 48415 56005 60061 76264 887// 92345 333 88704;
0202160080999992000111403004+45750+010520FM-12+146199999V0202001N003110009019N0008001N1+00121+00081999999ADDAY161031AY241031GA1081+000909069GF108991081071000751999999MA1999999084491MD1810021+9999ME1314139MW1621REMSYN088AAXX  14034 16008 41108 82006 10012 20008 38449 48413 58002 76264 887// 90245 333 88703;
0250160080999992000111406004+45750+010520FM-12+146199999V0201601N003610009019N0002001N1+00181+00141999999ADDAA112009991AY161061AY241061GA1081+000909069GF108991081071000751999999IA1119KA1120N+00001MA1999999084461MD1610031+9999ME1314109MW1601REMSYN106AAXX  14064 16008 11102 81607 10018 20014 38446 48410 56003 60102 76064 887// 90545 333 20000 32/// 88703;
0202160080999992000111409004+45750+010520FM-12+146199999V0201701N004610012019N0003001N1+00221+00151999999ADDAY161031AY241031GA1081+001209069GF108991081071001501999999MA1999999084431MD1810031+9999ME1314079MW1601REMSYN088AAXX  14094 16008 41203 81709 10022 20015 38443 48407 58003 76064 887// 90845 333 88704;
0219160080999992000111412004+45750+010520FM-12+146199999V0202001N008710030019N0020001N1+00301+00281999999ADDAA106003091AY161061AY241061GA1081+003009069GF108991081071004501999999MA1999999084271MD1710161+9999ME1313919MW1601REMSYN094AAXX  14124 16008 11420 82017 10030 20028 38427 48391 57016 60031 76064 887// 91145 333 88710;
0202160080999992000111415004+45750+010520FM-12+146199999V0201801N003610015019N0015001N1+00201+00181999999ADDAY161031AY261031GA1081+001509069GF108991081071001501999999MA1999999084371MD1310101+9999ME1314019MW1621REMSYN088AAXX  14154 16008 41215 81807 10020 20018 38437 48401 53010 76266 887// 91445 333 88705;
0238160080999992000111418004+45750+010520FM-12+146199999V0202101N006210009019N0002001N1+00181+00151999999ADDAA112020191AY161061AY241061GA1081+000909069GF108991081061000751999999KA1120M+00301MA1999999084411MD1110041+9999ME1314059MW1461REMSYN100AAXX  14184 16008 11102 82112 10018 20015 38441 48405 51004 60202 74664 886// 91745 333 10030 88703;
0201160080999992000111421004+45750+010520FM-12+146199999V0202201N001510030019N0008001N1+00201+99999999999ADDAY161031AY241031GA1081+003009069GF108991081071004501999999MA1999999084641MD1310231+9999ME1314279MW1601REMSYN087AAXX  14214 1600841408 82203 10020 20021 38464 48427 53023 76064 887// 92045 333 88710;
0219160080999992000111500004+45750+010520FM-12+146199999V0201701N003110060019N0020001N1+00201+00151999999ADDAA106003091AY161061AY241061GA1081+006009059GF108991081051008001999999MA1999999084761MD1210121+9999ME1314389MW1601REMSYN094AAXX  15004 16008 11520 81706 10020 20015 38476 48438 52012 60031 76064 885// 92345 333 88620;
0202160080999992000111503004+45750+010520FM-12+146199999V0201701N005710015019N0015001N1+00141+00081999999ADDAY161031AY241031GA1081+001509069GF108991081061001501999999MA1999999084891MD1210131+9999ME1314519MW1101REMSYN088AAXX  15034 16008 41215 81711 10014 20008 38489 48451 52013 71064 886// 90245 333 88705;
0250160080999992000111506004+45750+010520FM-12+146199999V0202001N001510075019N0025001N1+00081+00051999999ADDAA112005191AY121061AY221061GA1071+007509029GF107991071021008001001001IA1119KA1120N+00081MA1999999085011MD1210121+9999ME1314629MW1101REMSYN106AAXX  15064 16008 11525 72003 10008 20005 38501 48462 52012 60052 71022 87200 90545 333 20008 32/// 87825;
0208160080999992000111509004+45750+010520FM-12+146199999V0201801N001510009019N0025001N1+00041-00011999999ADDAY121031AY221031GA1051+000909079GF107991071021000751001001MA1999999085151MD1210141+9999ME1314759MW1101REMSYN094AAXX  15094 16008 41125 71803 10004 21001 38515 48475 52014 71022 87200 90845 333 85703 87830;
0213160080999992000111512004+45750+010520FM-12+146199999V0202001N005710012019N0040001N1+00101-00041999999ADDAA199000021AY121061AY221061GA1081+001209069GF108991081061001501999999MA1999999085161MD1110011+9999ME1314769MW1101REMSYN088AAXX  15124 16008 31240 82011 10010 21004 38516 48476 51001 71022 886// 91145 333 88704;
0202160080999992000111515004+45750+010520FM-12+146199999V0202001N004610030019N0050001N1+00161+00031999999ADDAY121031AY221031GA1081+003009069GF108991081061004501999999MA1999999085071MD1810101+9999ME1314679MW1101REMSYN088AAXX  15154 16008 41450 82009 10016 20003 38507 48467 58010 71022 886// 91445 333 88710;
0257160080999992000111518004+45750+010520FM-12+146199999V0201701N004110012019N0020001N1+00041-00101999999ADDAA112000791AY161061AY221061GA1081+001209069GF108991081071001501999999KA1120M+00301MA1999999085071MD1410001+9999ME1314679MW1601REMSYN100AAXX  15184 16008 11220 81708 10004 21010 38507 48467 53000 69902 76062 887// 91745 333 10030 88704;EQDQ01+000032APCTEN
0202160080999992000111521004+45750+010520FM-12+146199999V0201701N004610015019N0011001N1-00141-00141999999ADDAY161031AY261031GA1081+001509069GF108991081071001501999999MA1999999085031MD1810041+9999ME1314639MW1601REMSYN088AAXX  15214 16008 41211 81709 11014 21014 38503 48463 58004 76066 887// 92045 333 88705;
0315160080999992000111600004+45750+010520FM-12+146199999V0209999C000010012019N0008001N1-00141-00141999999ADDAA106001091AJ199993999999999AL10699999AY171061AY261061GA1081+001209079GF108991081071001501999999IA1259MA1999999085021MD1710011+9999ME1314639MW1701REMSYN106AAXX  16004 16008 11208 80000 11014 21014 38502 48463 56000 60011 77076 887// 92345 333 41997 88704 93197;EQDQ01+000062APCTENQ02+000002APC3  Q03  09982SNDP  
0218160080999992000111603004+45750+010520FM-12+146199999V0209999C000010018019N0009001N1-00201-00231999999ADDAL10600191AY171031AY241031GA1061+001809089GF106991061021001501001001MA1999999084981MD1810041+9999ME1314599MW1421REMSYN094AAXX  16034 16008 41209 60000 11020 21023 38498 48459 58004 74274 86200 90245 333 86806 93101;
0273160080999992000111606004+45750+010520FM-12+146199999V0209999C000010018019N0009001N1-00141-00161999999ADDAA112002091AJ100019199999999AY171061AY241061GA1061+001809089GF106991061021001501001001IA1309KA1120N-00181MA1999999084961MD1610021+9999ME1314579MW1441REMSYN112AAXX  16064 16008 11209 60000 11014 21016 38496 48457 56002 60022 74474 86200 90545 333 21018 42001 86806 92800;
0208160080999992000111609004+45750+010520FM-12+146199999V0202201N003610012019N0008001N1-00121-00141999999ADDAY141031AY241031GA1081+001209079GF108991081061001501999999MA1999999085001MD1310041+9999ME1314619MW1441REMSYN094AAXX  16094 16008 41208 82207 11012 21014 38500 48461 53004 74444 886// 90845 333 88704 92800;
0219160080999992000111612004+45750+010520FM-12+146199999V0202101N005710009019N0006001N1-00061-00091999999ADDAA106000591AY161061AY241061GA1081+000909069GF108991081071000751999999MA1999999084961MD1810041+9999ME1314579MW1601REMSYN094AAXX  16124 16008 11106 82111 11006 21009 38496 48457 58004 69961 76064 887// 91145 333 88703;
0202160080999992000111615004+45750+010520FM-12+146199999V0202301N006710006019N0004001N1-00101-00101999999ADDAY161031AY241031GA1081+000609069GF108991081071000751999999MA1999999084841MD1610121+9999ME1314469MW1601REMSYN088AAXX  16154 16008 41104 82313 11010 21010 38484 48446 56012 76064 887// 91445 333 88702;
0238160080999992000111618004+45750+010520FM-12+146199999V0202101N006710012019N0005001N1-00121-00121999999ADDAA112002091AY161061AY241061GA1081+001209069GF108991081071001501999999KA1120M-00041MA1999999084791MD1810051+9999ME1314419MW1601REMSYN100AAXX  16184 16008 11205 82113 11012 21012 38479 48441 58005 60022 76064 887// 91745 333 11004 88704;
0202160080999992000111621004+45750+010520FM-12+146199999V0202401N006210009019N0005001N1-00101-00101999999ADDAY161031AY241031GA1081+000909069GF108991081071000751999999MA1999999084761MD1610031+9999ME1314389MW1621REMSYN088AAXX  16214 16008 41105 82412 11010 21010 38476 48438 56003 76264 887// 92045 333 88703;
0219160080999992000111700004+45750+010520FM-12+146199999V0202401N004110009019N0004001N1-00161-00161999999ADDAA106006191AY161061AY241061GA1081+000909069GF108991081071000751999999MA1999999084691MD1810061+9999ME1314329MW1631REMSYN094AAXX  17004 16008 11104 82408 11016 21016 38469 48432 58006 60061 76364 887// 92345 333 88703;
0283160080999992000111706004+45750+010520FM-12+146199999V0202401N004610012019N0006001N1-00101-00101999999ADDAA112008991AJ100019199999999AL10699999AY171061AY261061GA1081+001209079GF108991081071001501999999IA1309KA1120N-00201MA1999999084331MD1810161+9999ME1313989MW1611REMSYN112AAXX  17064 16008 11206 82409 11010 21010 38433 48398 58016 60092 76176 887// 90545 333 21020 42001 88704 93196;
0208160080999992000111709004+45750+010520FM-12+146199999V0201601N007710009019N0004001N1-00021-00061999999ADDAY161031AY241031GA1081+000909079GF108991081071000751999999MA1999999084281MD1610051+9999ME1313939MW1631REMSYN094AAXX  17094 16008 41104 81615 11002 21006 38428 48393 56005 76364 887// 90845 333 88703 92800;
0254160080999992000111712004+45750+010520FM-12+146199999V0202001N004610009019N0004001N1-00081-00101999999ADDAA106015091AJ100019199999999AY161061AY241061GA1081+000909079GF108991081071000751999999IA1309MA1999999084231MD1810051+9999ME1313889MW1631REMSYN106AAXX  17124 16008 11104 82009 11008 21010 38423 48388 58005 60151 76364 887// 91145 333 42001 88703 92800;
0208160080999992000111715004+45750+010520FM-12+146199999V0200301N003610006019N0003001N1-00061-00111999999ADDAY161031AY241031GA1081+000609079GF108991081071000751999999MA1999999084131MD1510101+9999ME1313799MW1601REMSYN094AAXX  17154 16008 41103 80307 11006 21011 38413 48379 55010 76064 887// 91445 333 88702 92800;
0273160080999992000111718004+45750+010520FM-12+146199999V0200601N005710012019N0005001N1-00141-00371999999ADDAA112016091AJ100019199999999AY161061AY241061GA1081+001209079GF108991081071001501999999IA1309KA1120M+00001MA1999999084221MD1110101+9999ME1313889MW1601REMSYN112AAXX  17184 16008 11205 80611 11014 21037 38422 48388 51010 60162 76064 887// 91745 333 10000 42001 88704 92800;
0218160080999992000111721004+45750+010520FM-12+146199999V0200601N005710009019N0003001N1-00261-00391999999ADDAL10600191AY171031AY261031GA1081+000909079GF108991081071000751999999MA1999999084451MD1210221+9999ME1314099MW1701REMSYN094AAXX  17214 16008 41103 80611 11026 21039 38445 48409 52022 77076 887// 92045 333 88703 93101;
0283160080999992000111800004+45750+010520FM-12+146199999V0200701N004610009019N0003001N1-00281-00521999999ADDAA106001091AJ100029199999999AL10699999AY171061AY261061GA1081+000909079GF108991081071000751999999IA1309MA1999999084561MD1210111+9999ME1314209MW1701REMSYN106AAXX  18004 16008 11103 80709 11028 21052 38456 48420 52011 60011 77076 887// 92345 333 42002 88703 93198;EQDQ01   4302SNWF06
0218160080999992000111803004+45750+010520FM-12+146199999V0200501N004610012019N0005001N1-00301-00631999999ADDAL10699999AY171031AY241031GA1081+001209079GF108991081061001501999999MA1999999084541MD1810021+9999ME1314189MW1421REMSYN094AAXX  18034 16008 41205 80509 11030 21063 38454 48418 58002 74274 886// 90245 333 88704 93196;
0273160080999992000111806004+45750+010520FM-12+146199999V0200501N004610018019N0008001N1-00401-00591999999ADDAA112002091AJ100029199999999AY171061AY241061GA1081+001809079GF108991081061001501999999IA1279KA1120N-00401MA1999999084601MD1310071+9999ME1314249MW1441REMSYN112AAXX  18064 16008 11208 80509 11040 21059 38460 48424 53007 60022 74474 886// 90545 333 21040 43002 88706 92800;
0208160080999992000111809004+45750+010520FM-12+146199999V0202401N004610012019N0007001N1-00421-00621999999ADDAY141031AY241031GA1081+001209079GF108991081061001501999999MA1999999084681MD1210081+9999ME1314329MW1461REMSYN094AAXX  18094 16008 41207 82409 11042 21062 38468 48432 52008 74644 886// 90845 333 88704 92800;
0286160080999992000111812004+45750+010520FM-12+146199999V0200701N006710150019N0020001N1-00321-00561999999ADDAA106000191AJ100029199999999AL10699999AY171061AY241061GA1031+003009089GA2061+015009049GF107991031011004501011001IA1279MA1999999084721MD1110041+9999ME1314359MW1101REMSYN112AAXX  18124 16008 11420 70713 11032 21056 38472 48435 51004 69921 71074 83110 91145 333 43002 83810 86450 93197;
0180160080999992000111815004+45750+010520FM-12+146199999V0200701N006210180019N0110001N1-00281-00631999999ADDGA1061+018009049GF106991061001017501021001MA1999999084701MD1810021+9999ME1314339REMSYN088AAXX  18154 16008 42761 60712 11028 21063 38470 48433 58002 86020 91445 333 86456 92800;
0233160080999992000111818004+45750+010520FM-12+146199999V0200601N002112200019N0150001N1-00421-00671999999ADDAA112000191AJ100029199999999GA1001+999999999GF100991001001999999001001IA1309KA1120M-00161MA1999999084781MD1310081+9999ME1314419REMSYN094AAXX  18184 16008 12965 00604 11042 21067 38478 48441 53008 69922 91745 333 11016 42002 92810;
0168160080999992000111821004+45750+010520FM-12+146199999V0209999C000012200019N0110001N1-00641-00821999999ADDGA1001+999999999GF100991001001999999001001MA1999999084871MD1110081+9999ME1314499REMSYN076AAXX  18214 16008 42961 00000 11064 21082 38487 48449 51008 92045 333 92810;
0227160080999992000111900004+45750+010520FM-12+146199999V0209999C000012200019N0110001N1-00741-00861999999ADDAA199000091AJ100029199999999GA1001+999999999GF100991001001999999001001IA1309MA1999999084881MD1310021+9999ME1314509REMSYN082AAXX  19004 16008 32961 00000 11074 21086 38488 48450 53002 92345 333 42002 92810;EQDQ01  00002PRCP99
0168160080999992000111903004+45750+010520FM-12+146199999V0200601N003112200019N0110001N1-00761-00851999999ADDGA1001+999999999GF100991001001999999001001MA1999999084791MD1810091+9999ME1314429REMSYN076AAXX  19034 16008 42961 00606 11076 21085 38479 48442 58009 90245 333 92810;
0246160080999992000111906004+45750+010520FM-12+146199999V0200501N003112200019N0110001N1-00761-00821999999ADDAA199000091AJ100029199999999GA1001+999999999GF100991001001999999001001IA1309KA1120N-00801MA1999999084681MD1710111+9999ME1314329REMSYN088AAXX  19064 16008 32961 00506 11076 21082 38468 48432 57011 90545 333 21080 42002 92810;EQDQ01  00002PRCP99
0168160080999992000111909004+45750+010520FM-12+146199999V0200401N004112200019N0180001N1-00641-00761999999ADDGA1001+999999999GF100991001001999999001001MA1999999084571MD1610121+9999ME1314219REMSYN076AAXX  19094 16008 42968 00408 11064 21076 38457 48421 56012 90845 333 92810;
0227160080999992000111912004+45750+010520FM-12+146199999V0200401N003112200019N0200001N1+00041-00671999999ADDAA199000091AJ100029199999999GA1001+999999999GF100991001001999999001001IA1309MA1999999084451MD1710121+9999ME1314099REMSYN082AAXX  19124 16008 32970 00406 10004 21067 38445 48409 57012 91145 333 42002 92810;EQDQ01  00002PRCP99
0168160080999992000111915004+45750+010520FM-12+146199999V0200301N003612200019N0200001N1+00161-00451999999ADDGA1001+999999999GF100991001001999999001001MA1999999084131MD1710321+9999ME1313789REMSYN076AAXX  19154 16008 42970 00307 10016 21045 38413 48378 57032 91445 333 92810;
0246160080999992000111918004+45750+010520FM-12+146199999V0209999C000012200019N0200001N1-00481-00621999999ADDAA199000091AJ100019199999999GA1001+999999999GF100991001001999999001001IA1309KA1120M+00241MA1999999084111MD1610011+9999ME1313799REMSYN088AAXX  19184 16008 32970 00000 11048 21062 38411 48379 56001 91745 333 10024 42001 92820;EQDQ01  00002PRCP99
0168160080999992000111921004+45750+010520FM-12+146199999V0209999C000012200019N0140001N1-00601-00661999999ADDGA1001+999999999GF100991001001999999001001MA1999999084111MD1410001+9999ME1313799REMSYN076AAXX  19214 16008 42964 00000 11060 21066 38411 48379 54000 92045 333 92820;
0227160080999992000112000004+45750+010520FM-12+146199999V0209999C000012200019N0110001N1-00621-00651999999ADDAA199000091AJ100019199999999GA1001+999999999GF100991001001999999001001IA1309MA1999999084111MD1410001+9999ME1313799REMSYN082AAXX  20004 16008 32961 00000 11062 21065 38411 48379 54000 92345 333 42001 92820;EQDQ01  00002PRCP99
0168160080999992000112003004+45750+010520FM-12+146199999V0209999C000012200019N0110001N1-00541-00571999999ADDGA1001+999999999GF100991001001999999001001MA1999999084101MD1810021+9999ME1313779REMSYN076AAXX  20034 16008 42961 00000 11054 21057 38410 48377 58002 90245 333 92820;
0246160080999992000112006004+45750+010520FM-12+146199999V0202101N004612200019N0110001N1-00581-00611999999ADDAA199000091AJ100019199999999GA1001+999999999GF100991001001999999001001IA1309KA1120N-00661MA1999999084141MD1310041+9999ME1313819REMSYN088AAXX  20064 16008 32961 02109 11058 21061 38414 48381 53004 90545 333 21066 42001 92820;EQDQ01  00002PRCP99
0180160080999992000112009004+45750+010520FM-12+146199999V0201901N004610090019N0120001N1-00561-00621999999ADDGA1061+009009069GF106991061041008001001001MA1999999084171MD1110031+9999ME1313849REMSYN088AAXX  20094 16008 42562 61909 11056 21062 38417 48384 51003 86400 90845 333 86630 92820;
0264160080999992000112012004+45750+010520FM-12+146199999V0201901N003110009019N0004001N1-00461-00471999999ADDAA106001091AJ100039199999999AL10600291AY171061AY241061GA1081+000909079GF108991081071000751999999IA1279MA1999999084211MD1310041+9999ME1313879MW1711REMSYN106AAXX  20124 16008 11104 81906 11046 21047 38421 48387 53004 60011 77174 887// 91145 333 43003 88703 93102;
0218160080999992000112015004+45750+010520FM-12+146199999V0202201N002610009019N0003001N1-00481-00481999999ADDAL10600191AY171031AY241031GA1081+000909079GF108991081071000751999999MA1999999084281MD1110071+9999ME1313949MW1711REMSYN094AAXX  20154 16008 41103 82205 11048 21048 38428 48394 51007 77174 887// 91445 333 88703 93101;
0283160080999992000112018004+45750+010520FM-12+146199999V0202401N003610006019N0002001N1-00501-00561999999ADDAA112002091AJ100059199999999AL10600191AY171061AY241061GA1081+000609079GF108991081071000751999999IA1279KA1120M-00401MA1999999084271MD1410001+9999ME1313949MW1711REMSYN112AAXX  20184 16008 11102 82407 11050 21056 38427 48394 54000 60022 77174 887// 91745 333 11040 43005 88702 93101;
0264160080999992000112100004+45750+010520FM-12+146199999V0209999C000010009019N0002001N1-00501-00531999999ADDAA106001091AJ100079199999999AL10600191AY171061AY241061GA1081+000909079GF108991081071000751999999IA1279MA1999999084211MD1810071+9999ME1313879MW1711REMSYN106AAXX  21004 16008 11102 80000 11050 21053 38421 48387 58007 60011 77174 887// 92345 333 43007 88703 93101;
0218160080999992000112103004+45750+010520FM-12+146199999V0209999C000010009019N0002001N1-00421-00481999999ADDAL10600191AY171031AY241031GA1081+000909079GF108991081071000751999999MA1999999084131MD1710081+9999ME1313809MW1711REMSYN094AAXX  21034 16008 41102 80000 11042 21048 38413 48380 57008 77174 887// 90245 333 88703 93101;
0283160080999992000112106004+45750+010520FM-12+146199999V0209999C000010009019N0002001N1-00381-00481999999ADDAA112002091AJ100099199999999AL10600191AY171061AY241061GA1081+000909079GF108991081071000751999999IA1279KA1120N-00521MA1999999084111MD1710021+9999ME1313789MW1711REMSYN112AAXX  21064 16008 11102 80000 11038 21048 38411 48378 57002 60022 77174 887// 90545 333 21052 43009 88703 93101;
0218160080999992000112109004+45750+010520FM-12+146199999V0209999C000010009019N0002001N1-00301-00401999999ADDAL10600291AY171031AY241031GA1081+000909079GF108991081071000751999999MA1999999084271MD1310161+9999ME1313939MW1711REMSYN094AAXX  21094 16008 41102 80000 11030 21040 38427 48393 53016 77174 887// 90845 333 88703 93102;
0264160080999992000112112004+45750+010520FM-12+146199999V0209999C000010015019N0006001N1-00081-00301999999ADDAA106001091AJ100119199999999AL10699999AY171061AY241061GA1081+001509079GF108991081071001501999999IA1279MA1999999084321MD1210051+9999ME1313979MW1441REMSYN106AAXX  21124 16008 11206 80000 11008 21030 38432 48397 52005 60011 74474 887// 91145 333 43011 88705 93197;
0230160080999992000112115004+45750+010520FM-12+146199999V0209999C000010150019N0012001N1+00001-00211999999ADDAY141031AY221031GA1031+002109089GA2061+015009049GF107991071011002501011001MA1999999084411MD1210091+9999ME1314069MW1101REMSYN100AAXX  21154 16008 41312 70000 10000 21021 38441 48406 52009 71042 87110 91445 333 83807 86450 92810;
0295160080999992000112118004+45750+010520FM-12+146199999V0209999C000010030019N0005001N1-00141-00211999999ADDAA112001091AJ100119199999999AY141061AY221061GA1031+001209079GA2061+003009079GF107991071061001501001001IA1279KA1120M+00001MA1999999084611MD1210201+9999ME1314259MW1441REMSYN118AAXX  21184 16008 11205 70000 11014 21021 38461 48425 52020 60012 74442 87600 91745 333 10000 43011 83704 86710 92810;
0208160080999992000112121004+45750+010520FM-12+146199999V0209999C000010090019N0015001N1-00201-00331999999ADDAY141031AY221031GA1061+009009069GF106991061051008001001001MA1999999084801MD1210191+9999ME1314429MW1101REMSYN094AAXX  21214 16008 41515 60000 11020 21033 38480 48442 52019 71042 86500 92045 333 86630 92810;
0227160080999992000112200004+45750+010520FM-12+146199999V0209999C000012200019N0120001N1-00421-00561999999ADDAA199000091AJ100119199999999GA1001+999999999GF100991001001999999001001IA1279MA1999999084911MD1210111+9999ME1314539REMSYN082AAXX  22004 16008 32962 00000 11042 21056 38491 48453 52011 92345 333 43011 92810;EQDQ01  00002PRCP99
0168160080999992000112203004+45750+010520FM-12+146199999V0209999C000012200019N0120001N1-00521-00661999999ADDGA1001+999999999GF100991001001999999001001MA1999999085021MD1110101+9999ME1314629REMSYN076AAXX  22034 16008 42962 00000 11052 21066 38502 48462 51010 90245 333 92810;
0258160080999992000112206004+45750+010520FM-12+146199999V0209999C000012200019N0120001N1-00401-00511999999ADDAA199000091AJ100119199999999GA1041+009009069GF104991041051008001001001IA1279KA1120N-00541MA1999999085091MD1310071+9999ME1314699REMSYN100AAXX  22064 16008 32562 40000 11040 21051 38509 48469 53007 84500 90545 333 21054 43011 84630 92810;EQDQ01  00002PRCP99
0180160080999992000112209004+45750+010520FM-12+146199999V0202201N003610060019N0120001N1-00301-00521999999ADDGA1081+006009079GF108991081061008001999999MA1999999085161MD1210071+9999ME1314769REMSYN088AAXX  22094 16008 42562 82207 11030 21052 38516 48476 52007 886// 90845 333 88720 92810;
0289160080999992000112212004+45750+010520FM-12+146199999V0201901N004110240019N0080001N1-00141-00511999999ADDAA199000091AJ100109199999999AY111061AY211061GA1031+003009079GA2061+024009039GF107991031061004501041001IA1279MA1999999085211MD1010051+9999ME1314809MW1101REMSYN106AAXX  22124 16008 31458 71908 11014 21051 38521 48480 50005 71011 83640 91145 333 43010 83710 86358 92810;EQDQ01  00002PRCP99
0221160080999992000112215004+45750+010520FM-12+146199999V0202201N005110240019N0150001N1-00161-00391999999ADDGA1041+009009069GA2061+024009039GF107991041051008001041001MA1999999085211MD1410001+9999ME1314819REMSYN094AAXX  22154 16008 42565 72210 11016 21039 38521 48481 53000 84540 91445 333 84630 86358 92810;EQDQ01+000032APCTEN
0233160080999992000112218004+45750+010520FM-12+146199999V0202101N003612200019N0150001N1-00301-00381999999ADDAA112001091AJ100079199999999GA1001+999999999GF100991001001999999001001IA1279KA1120M+00061MA1999999085291MD1210081+9999ME1314889REMSYN094AAXX  22184 16008 12965 02107 11030 21038 38529 48488 52008 60012 91745 333 10006 43007 92810;
0168160080999992000112221004+45750+010520FM-12+146199999V0202301N002612200019N0150001N1-00301-00451999999ADDGA1001+999999999GF100991001001999999001001MA1999999085311MD1210021+9999ME1314909REMSYN076AAXX  22214 16008 42965 02305 11030 21045 38531 48490 52002 92045 333 92810;
0227160080999992000112300004+45750+010520FM-12+146199999V0202401N002612200019N0150001N1-00381-00521999999ADDAA199000091AJ100079199999999GA1001+999999999GF100991001001999999001001IA1279MA1999999085341MD1110031+9999ME1314929REMSYN082AAXX  23004 16008 32965 02405 11038 21052 38534 48492 51003 92345 333 43007 92810;EQDQ01  00002PRCP99
0180160080999992000112303004+45750+010520FM-12+146199999V0202001N006712200019N0150001N1-00301-00381999999ADDGA1031+009009069GF103991031051008001001001MA1999999085281MD1810031+9999ME1314869REMSYN088AAXX  23034 16008 42565 32013 11030 21038 38528 48486 58003 83500 90245 333 83630 92810;
0286160080999992000112306004+45750+010520FM-12+146199999V0201901N007210045019N0080001N1-00381-00401999999ADDAA199000091AJ100079199999999AY111061AY211061GA1081+004509079GF108991081061004501999999IA1279KA1120N-00421MA1999999085101MD1710171+9999ME1314709MW1101REMSYN106AAXX  23064 16008 31458 81914 11038 21040 38510 48470 57017 71011 886// 90545 333 21042 43007 88715 92810;EQDQ01  00002PRCP99
0208160080999992000112309004+45750+010520FM-12+146199999V0202101N005710003019N0001001N1-00381-00381999999ADDAY141031AY221031GA1081+000309079GF108991081061000251999999MA1999999085091MD1610011+9999ME1314709MW1441REMSYN094AAXX  23094 16008 41001 82111 11038 21038 38509 48470 56001 74442 886// 90845 333 88701 92810;
0267160080999992000112312004+45750+010520FM-12+146199999V0201601N009310006019N0001001N1-00341-00391999999ADDAA199000091AJ100079199999999AY141061AY221061GA1081+000609079GF108991081061000751999999IA1279MA1999999085001MD1810091+9999ME1314619MW1441REMSYN100AAXX  23124 16008 31101 81618 11034 21039 38500 48461 58009 74442 886// 91145 333 43007 88702 92810;EQDQ01  00002PRCP99
0202160080999992000112315004+45750+010520FM-12+146199999V0201801N006210006019N0002001N1-00401-00431999999ADDAY141031AY241031GA1081+000609069GF108991081061000751999999MA1999999084801MD1710201+9999ME1314439MW1441REMSYN088AAXX  23154 16008 41102 81812 11040 21043 38480 48443 57020 74444 886// 91445 333 88702;
0251160080999992000112318004+45750+010520FM-12+146199999V0201801N007210006019N0003001N1-00301-00351999999ADDAA199000091AY141061AY241061GA1081+000609069GF108991081061000751999999KA1120M-00301MA1999999084761MD1610041+9999ME1314399MW1441REMSYN094AAXX  23184 16008 31103 81814 11030 21035 38476 48439 56004 74444 886// 91745 333 11030 88702;EQDQ01  00002PRCP99
0202160080999992000112321004+45750+010520FM-12+146199999V0201801N005110006019N0003001N1-00301-00381999999ADDAY141031AY241031GA1081+000609069GF108991081061000751999999MA1999999084691MD1810071+9999ME1314329MW1441REMSYN088AAXX  23214 16008 41103 81810 11030 21038 38469 48432 58007 74444 886// 92045 333 88702;
0232160080999992000112400004+45750+010520FM-12+146199999V0201801N010310012019N0004001N1-00181-00251999999ADDAA199000091AY141061AY241061GA1081+001209069GF108991081061001501999999MA1999999084581MD1710111+9999ME1314229MW1401REMSYN088AAXX  24004 16008 31204 81820 11018 21025 38458 48422 57011 74044 886// 92345 333 88704;EQDQ01  00002PRCP99
0202160080999992000112403004+45750+010520FM-12+146199999V0201501N006210012019N0004001N1-00201-00301999999ADDAY141031AY241031GA1081+001209069GF108991081061001501999999MA1999999084541MD1610041+9999ME1314189MW1441REMSYN088AAXX  24034 16008 41204 81512 11020 21030 38454 48418 56004 74444 886// 90245 333 88704;
0280160080999992000112406004+45750+010520FM-12+146199999V0201801N005110012019N0003001N1-00201-00301999999ADDAA199000091AJ100079199999999AY141061AY241061GA1081+001209069GF108991081061001501999999IA1279KA1120N-00301MA1999999084521MD1810021+9999ME1314169MW1441REMSYN100AAXX  24064 16008 31203 81810 11020 21030 38452 48416 58002 74444 886// 90545 333 21030 43007 88704;EQDQ01  00002PRCP99
0208160080999992000112409004+45750+010520FM-12+146199999V0202301N004110012019N0003001N1-00181-00301999999ADDAY161031AY241031GA1081+001209079GF108991081061001501999999MA1999999084541MD1310021+9999ME1314189MW1211REMSYN094AAXX  24094 16008 41203 82308 11018 21030 38454 48418 53002 72164 886// 90845 333 88704 92810;
0254160080999992000112412004+45750+010520FM-12+146199999V0202301N004110009019N0002001N1-00181-00301999999ADDAA106000891AJ100079199999999AY161061AY221061GA1081+000909079GF108991081061000751999999IA1279MA1999999084601MD1110051+9999ME1314239MW1401REMSYN106AAXX  24124 16008 11102 82308 11018 21030 38460 48423 51005 69981 74062 886// 91145 333 43007 88703 92810;
0208160080999992000112415004+45750+010520FM-12+146199999V0209999C000010006019N0002001N1-00201-00301999999ADDAY141031AY241031GA1081+000609079GF108991081061000751999999MA1999999084511MD1810091+9999ME1314159MW1441REMSYN094AAXX  24154 16008 41102 80000 11020 21030 38451 48415 58009 74444 886// 91445 333 88702 92810;
0273160080999992000112418004+45750+010520FM-12+146199999V0209999C000010006019N0002001N1-00201-00301999999ADDAA112001091AJ100079199999999AY141061AY241061GA1081+000609079GF108991081061000751999999IA1279KA1120M-00121MA1999999084501MD1610011+9999ME1314149MW1441REMSYN112AAXX  24184 16008 11102 80000 11020 21030 38450 48414 56001 60012 74444 886// 91745 333 11012 43007 88702 92810;
0208160080999992000112421004+45750+010520FM-12+146199999V0209999C000010015019N0005001N1-00201-00331999999ADDAY141031AY241031GA1081+001509079GF108991081061001501999999MA1999999084501MD1410001+9999ME1314149MW1441REMSYN094AAXX  24214 16008 41205 80000 11020 21033 38450 48414 54000 74444 886// 92045 333 88705 92810;
0267160080999992000112500004+45750+010520FM-12+146199999V0200401N004110030019N0006001N1-00201-00431999999ADDAA199000091AJ100079199999999AY141061AY241061GA1081+003009079GF108991081061004501999999IA1279MA1999999084411MD1810091+9999ME1314059MW1441REMSYN100AAXX  25004 16008 31406 80408 11020 21043 38441 48405 58009 74444 886// 92345 333 43007 88710 92810;EQDQ01  00002PRCP99
0208160080999992000112503004+45750+010520FM-12+146199999V0200401N005110030019N0006001N1-00221-00391999999ADDAY141031AY241031GA1081+003009079GF108991081061004501999999MA1999999084381MD1610031+9999ME1314029MW1441REMSYN094AAXX  25034 16008 41406 80410 11022 21039 38438 48402 56003 74444 886// 90245 333 88710 92810;
0286160080999992000112506004+45750+010520FM-12+146199999V0200601N004110030019N0006001N1-00281-00491999999ADDAA199000091AJ100079199999999AY141061AY241061GA1081+003009079GF108991081061004501999999IA1279KA1120N-00281MA1999999084311MD1810071+9999ME1313969MW1441REMSYN106AAXX  25064 16008 31406 80608 11028 21049 38431 48396 58007 74444 886// 90545 333 21028 43007 88710 99281;EQDQ01  00002PRCP99
0218160080999992000112509004+45750+010520FM-12+146199999V0200301N004110006019N0002001N1-00301-00431999999ADDAL10600291AY171031AY241031GA1081+000609079GF108991081071000751999999MA1999999084411MD1310101+9999ME1314059MW1701REMSYN094AAXX  25094 16008 41102 80308 11030 21043 38441 48405 53010 77074 887// 90845 333 88702 93102;
0258160080999992000112512004+45750+010520FM-12+146199999V0200301N004110075019N0050001N1-00181-00431999999ADDAA199000021AJ100119199999999AL10600291AY171061AY241061GA1081+007509079GF108991081061008001999999IA1279MA1999999084511MD1110101+9999ME1314159MW1101REMSYN100AAXX  25124 16008 31550 80308 11018 21043 38451 48415 51010 71074 886// 91145 333 43011 88725 93102;
0180160080999992000112515004+45750+010520FM-12+146199999V0200401N005110090019N0100001N1-00201-00521999999ADDGA1061+009009069GF106991061051008001001001MA1999999084511MD1410001+9999ME1314159REMSYN088AAXX  25154 16008 42560 60410 11020 21052 38451 48415 54000 86500 91445 333 86630 92810;
0245160080999992000112518004+45750+010520FM-12+146199999V0209999C004110090019N0150001N1-00341-00531999999ADDAA112000591AJ100119199999999GA1051+009009069GF105991051051008001001001IA1279KA1120M+00001MA1999999084511MD1410001+9999ME1314159REMSYN106AAXX  25184 16008 12565 50008 11034 21053 38451 48415 54000 69942 85500 91745 333 10000 43011 85630 92810;
0168160080999992000112521004+45750+010520FM-12+146199999V0209999C000012200019N0150001N1-00661-00851999999ADDGA1001+999999999GF100991001001999999001001MA1999999084491MD1810021+9999ME1314149REMSYN076AAXX  25214 16008 42965 00000 11066 21085 38449 48414 58002 92045 333 92810;
0227160080999992000112600004+45750+010520FM-12+146199999V0209999C000012200019N0100001N1-00801-00961999999ADDAA199000091AJ100119199999999GA1001+999999999GF100991001001999999001001IA1279MA1999999084411MD1610081+9999ME1314069REMSYN082AAXX  26004 16008 32960 00000 11080 21096 38441 48406 56008 92345 333 43011 92810;EQDQ01  00002PRCP99
0168160080999992000112603004+45750+010520FM-12+146199999V0209999C000012200019N0100001N1-00701-00891999999ADDGA1001+999999999GF100991001001999999001001MA1999999084411MD1410001+9999ME1314069REMSYN076AAXX  26034 16008 42960 00000 11070 21089 38441 48406 54000 90245 333 92810;
0239160080999992000112612004+45750+010520FM-12+146199999V0209999C000010090019N0150001N1-00181-00761999999ADDAA199000091AJ100119199999999GA1061+009009069GF106991061051008001001001IA1279MA1999999084191MD1810011+9999ME1313849REMSYN094AAXX  26124 16008 32565 60000 11018 21076 38419 48384 58001 86500 91145 333 43011 86630 92810;EQDQ01  00002PRCP99
0180160080999992000112615004+45750+010520FM-12+146199999V0200301N004110090019N0100001N1-00201-00631999999ADDGA1081+009009069GF108991081051008001999999MA1999999084201MD1310011+9999ME1313859REMSYN088AAXX  26154 16008 42560 80308 11020 21063 38420 48385 53001 885// 91445 333 88630 92810;
0258160080999992000112618004+45750+010520FM-12+146199999V0209999C000010090019N0100001N1-00361-00821999999ADDAA199000091AJ100119199999999GA1061+009009069GF106991061051008001001001IA1279KA1120M-00081MA1999999084561MD1210361+9999ME1314209REMSYN100AAXX  26184 16008 32560 60000 11036 21082 38456 48420 52036 86500 91745 333 11008 43011 86630 92810;EQDQ01  00002PRCP99
0168160080999992000112621004+45750+010520FM-12+146199999V0209999C000012200019N0100001N1-00501-00761999999ADDGA1001+999999999GF100991001001999999001001MA1999999084691MD1210141+9999ME1314339REMSYN076AAXX  26214 16008 42960 00000 11050 21076 38469 48433 52014 92045 333 92810;
0227160080999992000112700004+45750+010520FM-12+146199999V0209999C000012200019N0100001N1-00681-00861999999ADDAA199000091AJ100119199999999GA1001+999999999GF100991001001999999001001IA1279MA1999999084911MD1210211+9999ME1314539REMSYN082AAXX  27004 16008 32960 00000 11068 21086 38491 48453 52021 92345 333 43011 92810;EQDQ01  00002PRCP99
0168160080999992000112703004+45750+010520FM-12+146199999V0209999C000012200019N0100001N1-00821-01001999999ADDGA1001+999999999GF100991001001999999001001MA1999999085001MD1210101+9999ME1314619REMSYN076AAXX  27034 16008 42960 00000 11082 21100 38500 48461 52010 90245 333 92810;
0246160080999992000112706004+45750+010520FM-12+146199999V0209999C000012200019N0100001N1-00621-00801999999ADDAA199000091AJ100119199999999GA1001+999999999GF100991001001999999001001IA1279KA1120N-00841MA1999999085101MD1110101+9999ME1314709REMSYN088AAXX  27064 16008 32960 00000 11062 21080 38510 48470 51010 90545 333 21084 43011 92810;EQDQ01  00002PRCP99
0180160080999992000112709004+45750+010520FM-12+146199999V0209999C000010090019N0200001N1-00521-00721999999ADDGA1051+009009069GF105991051051008001001001MA1999999085271MD1310171+9999ME1314869REMSYN088AAXX  27094 16008 42570 50000 11052 21072 38527 48486 53017 85500 90845 333 85630 92810;
0239160080999992000112712004+45750+010520FM-12+146199999V0200301N003110090019N0200001N1-00061-00781999999ADDAA199000091AJ100119199999999GA1061+009009069GF106991061051008001001001IA1279MA1999999085301MD1110031+9999ME1314899REMSYN094AAXX  27124 16008 32570 60306 11006 21078 38530 48489 51003 86500 91145 333 43011 86630 92810;EQDQ01  00002PRCP99
0180160080999992000112715004+45750+010520FM-12+146199999V0209999C000010090019N0150001N1-00081-00651999999ADDGA1061+009009069GF106991061051008001001001MA1999999085361MD1310061+9999ME1314959REMSYN088AAXX  27154 16008 42565 60000 11008 21065 38536 48495 53006 86500 91445 333 86630 92810;
0246160080999992000112718004+45750+010520FM-12+146199999V0209999C000012200019N0150001N1-00421-00671999999ADDAA199000091AJ100109199999999GA1001+999999999GF100991001001999999001001IA1279KA1120M+00141MA1999999085491MD1210131+9999ME1315069REMSYN088AAXX  27184 16008 32965 00000 11042 21067 38549 48506 52013 91745 333 10014 43010 92810;EQDQ01  00002PRCP99
0168160080999992000112721004+45750+010520FM-12+146199999V0209999C000012200019N0150001N1-00441-00671999999ADDGA1001+999999999GF100991001001999999001001MA1999999085601MD1210111+9999ME1315169REMSYN076AAXX  27214 16008 42965 00000 11044 21067 38560 48516 52011 92045 333 92810;
0227160080999992000112800004+45750+010520FM-12+146199999V0209999C000012200019N0150001N1-00401-00661999999ADDAA199000091AJ100109199999999GA1001+999999999GF100991001001999999001001IA1279MA1999999085691MD1110091+9999ME1315259REMSYN082AAXX  28004 16008 32965 00000 11040 21066 38569 48525 51009 92345 333 43010 92810;EQDQ01  00002PRCP99
0168160080999992000112803004+45750+010520FM-12+146199999V0209999C000012200019N0100001N1-00421-00621999999ADDGA1001+999999999GF100991001001999999001001MA1999999085621MD1810071+9999ME1315189REMSYN076AAXX  28034 16008 42960 00000 11042 21062 38562 48518 58007 90245 333 92810;
0258160080999992000112806004+45750+010520FM-12+146199999V0209999C000010090019N0100001N1-00401-00431999999ADDAA199000091AJ100109199999999GA1071+009009069GF107991071051008001001001IA1279KA1120N-00441MA1999999085691MD1310071+9999ME1315259REMSYN100AAXX  28064 16008 32560 70000 11040 21043 38569 48525 53007 87500 90545 333 21044 43010 87630 92810;EQDQ01  00002PRCP99
0180160080999992000112809004+45750+010520FM-12+146199999V0209999C000010090019N0100001N1-00401-00481999999ADDGA1071+009009069GF107991071051008001001001MA1999999085791MD1310101+9999ME1315349REMSYN088AAXX  28094 16008 42560 70000 11040 21048 38579 48534 53010 87500 90845 333 87630 92810;
0239160080999992000112812004+45750+010520FM-12+146199999V0200301N003110090019N0150001N1+00381-00181999999ADDAA199000091AJ100099199999999GA1051+009009069GF105991051051008001001001IA1279MA1999999085771MD1810021+9999ME1315349REMSYN094AAXX  28124 16008 32565 50306 10038 21018 38577 48534 58002 85500 91145 333 43009 85630 92810;EQDQ01  00002PRCP99
0168160080999992000112815004+45750+010520FM-12+146199999V0209999C000012200019N0150001N1+00021-00211999999ADDGA1001+999999999GF100991001001999999001001MA1999999085701MD1610071+9999ME1315279REMSYN076AAXX  28154 16008 42965 00000 10002 21021 38570 48527 56007 91445 333 92810;
0233160080999992000112818004+45750+010520FM-12+146199999V0209999C000012200019N0100001N1-00121-00121999999ADDAA112001091AJ100089199999999GA1001+999999999GF100991001001999999001001IA1279KA1120M+00461MA1999999085791MD1310091+9999ME1315359REMSYN094AAXX  28184 16008 12960 00000 11012 21012 38579 48535 53009 60012 91745 333 10046 43008 92810;
0168160080999992000112821004+45750+010520FM-12+146199999V0200301N002612200019N0100001N1-00121-00121999999ADDGA1001+999999999GF100991001001999999001001MA1999999085801MD1210011+9999ME1315369REMSYN076AAXX  28214 16008 42960 00305 11012 21012 38580 48536 52001 92045 333 92810;
0198160080999992000112900004+45750+010520FM-12+146199999V0209999C000012200019N0100001N1-00221-00261999999ADDAA199000091GA1001+999999999GF100991001001999999001001MA1999999085811MD1110011+9999ME1315369REMSYN076AAXX  29004 16008 32960 00000 11022 21026 38581 48536 51001 92345 333 92810;EQDQ01  00002PRCP99
0168160080999992000112903004+45750+010520FM-12+146199999V0209999C000012200019N0100001N1-00381-00431999999ADDGA1001+999999999GF100991001001999999001001MA1999999085761MD1810051+9999ME1315319REMSYN076AAXX  29034 16008 42960 00000 11038 21043 38576 48531 58005 90245 333 92810;
0246160080999992000112906004+45750+010520FM-12+146199999V0209999C000012200019N0100001N1-00481-00531999999ADDAA199000091AJ100099199999999GA1001+999999999GF100991001001999999001001IA1279KA1120N-00481MA1999999085701MD1610061+9999ME1315259REMSYN088AAXX  29064 16008 32960 00000 11048 21053 38570 48525 56006 90545 333 21048 43009 92810;EQDQ01  00002PRCP99
0168160080999992000112909004+45750+010520FM-12+146199999V0209999C000012200019N0200001N1-00201-00301999999ADDGA1001+999999999GF100991001001999999001001MA1999999085701MD1410001+9999ME1315269REMSYN076AAXX  29094 16008 42970 00000 11020 21030 38570 48526 54000 90845 333 92810;
0227160080999992000112912004+45750+010520FM-12+146199999V0209999C000012200019N0200001N1+00501-00331999999ADDAA199000091AJ100079199999999GA1001+999999999GF100991001001999999001001IA1279MA1999999085691MD1810011+9999ME1315279REMSYN082AAXX  29124 16008 32970 00000 10050 21033 38569 48527 58001 91145 333 43007 92810;EQDQ01  00002PRCP99
0180160080999992000112915004+45750+010520FM-12+146199999V0209999C000010300019N0280001N1+00381-00061999999ADDGA1051+030009049GF105991051001999999011001MA1999999085581MD1610111+9999ME1315169REMSYN088AAXX  29154 16008 42978 50000 10038 21006 38558 48516 56011 85010 91445 333 85460 92821;
0252160080999992000112918004+45750+010520FM-12+146199999V0209999C000012200019N0200001N1-00201-00331999999ADDAA112000891AJ100079199999999GA1001+999999999GF100991001001999999001001IA1279KA1120M+00581MA1999999085591MD1310011+9999ME1315169REMSYN094AAXX  29184 16008 12970 00000 11020 21033 38559 48516 53000 69982 91745 333 10058 43007 92820;EQDQ01+000002APC3  
0168160080999992000112921004+45750+010520FM-12+146199999V0209999C000012200019N0200001N1-00421-00511999999ADDGA1001+999999999GF100991001001999999001001MA1999999085601MD1210011+9999ME1315169REMSYN076AAXX  29214 16008 42970 00000 11042 21051 38560 48516 52001 92045 333 92820;
0227160080999992000113000004+45750+010520FM-12+146199999V0209999C000012200019N0200001N1-00421-00511999999ADDAA199000091AJ100079199999999GA1001+999999999GF100991001001999999001001IA1279MA1999999085611MD1110011+9999ME1315179REMSYN082AAXX  30004 16008 32970 00000 11042 21051 38561 48517 51001 92345 333 43007 92820;EQDQ01  00002PRCP99
0168160080999992000113003004+45750+010520FM-12+146199999V0209999C000012200019N0200001N1-00421-00441999999ADDGA1001+999999999GF100991001001999999001001MA1999999085601MD1810011+9999ME1315179REMSYN076AAXX  30034 16008 42970 00000 11042 21044 38560 48517 58001 90245 333 92820;
0246160080999992000113006004+45750+010520FM-12+146199999V0209999C000012200019N0200001N1-00381-00521999999ADDAA199000091AJ100079199999999GA1001+999999999GF100991001001999999001001IA1279KA1120N-00501MA1999999085591MD1610011+9999ME1315169REMSYN088AAXX  30064 16008 32970 00000 11038 21052 38559 48516 56001 90545 333 21050 43007 92820;EQDQ01  00002PRCP99
0180160080999992000113009004+45750+010520FM-12+146199999V0209999C000010300019N0260001N1-00341-00471999999ADDGA1051+030009049GF105991051001999999011001MA1999999085681MD1310091+9999ME1315249REMSYN088AAXX  30094 16008 42976 50000 11034 21047 38568 48524 53009 85010 90845 333 85460 92820;
0239160080999992000113012004+45750+010520FM-12+146199999V0209999C000010300019N0290001N1+00181-00351999999ADDAA199000091AJ100059199999999GA1061+030009049GF106991061001999999011001IA1279MA1999999085701MD1110021+9999ME1315279REMSYN094AAXX  30124 16008 32979 60000 10018 21035 38570 48527 51002 86010 91145 333 43005 86460 92821;EQDQ01  00002PRCP99
0180160080999992000113015004+45750+010520FM-12+146199999V0209999C000010300019N0300001N1+00341-00181999999ADDGA1051+030009049GF105991051001999999011001MA1999999085691MD1810011+9999ME1315269REMSYN088AAXX  30154 16008 42980 50000 10034 21018 38569 48526 58001 85010 91445 333 85460 92821;
0233160080999992000113018004+45750+010520FM-12+146199999V0209999C000012200019N0200001N1-00201-00401999999ADDAA112001091AJ100059199999999GA1001+999999999GF100991001001999999001001IA1279KA1120M+00601MA1999999085711MD1310021+9999ME1315279REMSYN094AAXX  30184 16008 12970 00000 11020 21040 38571 48527 53002 60012 91745 333 10060 43005 92820;
0168160080999992000113021004+45750+010520FM-12+146199999V0209999C000012200019N0200001N1-00401-00531999999ADDGA1001+999999999GF100991001001999999001001MA1999999085811MD1210111+9999ME1315369REMSYN076AAXX  30214 16008 42970 00000 11040 21053 38581 48536 52011 92045 333 92820;
0227160080999992000120100004+45750+010520FM-12+146199999V0209999C000012200019N0200001N1-00481-00571999999ADDAA199000091AJ100059199999999GA1001+999999999GF100991001001999999001001IA1279MA1999999085881MD1110061+9999ME1315419REMSYN082AAXX  01004 16008 32970 00000 11048 21057 38588 48541 51006 92345 333 43005 92820;EQDQ01  00002PRCP99
0168160080999992000120103004+45750+010520FM-12+146199999V0209999C000012200019N0200001N1-00541-00621999999ADDGA1001+999999999GF100991001001999999001001MA1999999085901MD1110031+9999ME1315449REMSYN076AAXX  01034 16008 42970 00000 11054 21062 38590 48544 51003 90245 333 92820;
0246160080999992000120106004+45750+010520FM-12+146199999V0209999C000012200019N0200001N1-00601-00661999999ADDAA199000091AJ100059199999999GA1001+999999999GF100991001001999999001001IA1279KA1120N-00601MA1999999085891MD1810011+9999ME1315439REMSYN088AAXX  01064 16008 32970 00000 11060 21066 38589 48543 58001 90545 333 21060 43005 92820;EQDQ01  00002PRCP99
0168160080999992000120109004+45750+010520FM-12+146199999V0209999C000012200019N0270001N1-00661-00701999999ADDGA1001+999999999GF100991001001999999001001MA1999999085881MD1610021+9999ME1315419REMSYN076AAXX  01094 16008 42977 00000 11066 21070 38588 48541 56002 90845 333 92820;
0227160080999992000120112004+45750+010520FM-12+146199999V0202401N004612200019N0300001N1+00381-00471999999ADDAA199000091AJ100049199999999GA1001+999999999GF100991001001999999001001IA1289MA1999999085821MD1810051+9999ME1315399REMSYN082AAXX  01124 16008 32980 02409 10038 21047 38582 48539 58005 91145 333 44004 92844;EQDQ01  00002PRCP99
0168160080999992000120115004+45750+010520FM-12+146199999V0209999C000012200019N0280001N1+00181-00351999999ADDGA1001+999999999GF100991001001999999001001MA1999999085751MD1610081+9999ME1315319REMSYN076AAXX  01154 16008 42978 00000 10018 21035 38575 48531 56008 91445 333 92844;
0233160080999992000120118004+45750+010520FM-12+146199999V0202001N002612200019N0200001N1-00041-00421999999ADDAA112000891AJ100049199999999GA1001+999999999GF100991001001999999001001IA1309KA1120M+00421MA1999999085801MD1310051+9999ME1315359REMSYN094AAXX  01184 16008 12970 02005 11004 21042 38580 48535 53005 69982 91745 333 10042 42004 92843;
0168160080999992000120121004+45750+010520FM-12+146199999V0201901N002612200019N0200001N1-00201-00401999999ADDGA1001+999999999GF100991001001999999001001MA1999999085881MD1110081+9999ME1315439REMSYN076AAXX  01214 16008 42970 01905 11020 21040 38588 48543 51008 92045 333 92843;
0227160080999992000120200004+45750+010520FM-12+146199999V0209999C000012200019N0200001N1-00341-00421999999ADDAA199000091AJ100049199999999GA1001+999999999GF100991001001999999001001IA1309MA1999999085881MD1410001+9999ME1315429REMSYN082AAXX  02004 16008 32970 00000 11034 21042 38588 48542 54000 92345 333 42004 92843;EQDQ01  00002PRCP99
0168160080999992000120203004+45750+010520FM-12+146199999V0209999C000012200019N0200001N1-00221-00291999999ADDGA1001+999999999GF100991001001999999001001MA1999999085851MD1810031+9999ME1315409REMSYN076AAXX  02034 16008 42970 00000 11022 21029 38585 48540 58003 90245 333 92843;
0246160080999992000120206004+45750+010520FM-12+146199999V0209999C000012200019N0200001N1-00141-00191999999ADDAA199000091AJ100049199999999GA1001+999999999GF100991001001999999001001IA1309KA1120N-00361MA1999999085791MD1610061+9999ME1315359REMSYN088AAXX  02064 16008 32970 00000 11014 21019 38579 48535 56006 90545 333 21036 42004 92843;EQDQ01  00002PRCP99
0180160080999992000120209004+45750+010520FM-12+146199999V0209999C000012200019N0270001N1-00221-00231999999ADDGA1041+018009039GF104991041001017501031001MA1999999085781MD1610021+9999ME1315339REMSYN088AAXX  02094 16008 42777 40000 11022 21023 38578 48533 56002 84030 90845 333 84356 92843;
0226160080999992000120212004+45750+010520FM-12+146199999V0202001N003610090019N0230001N1+00101-00181999999ADDAA106000591AJ100049199999999GA1071+009009069GF107991071051008001001001IA1309MA1999999085711MD1810071+9999ME1315289REMSYN100AAXX  02124 16008 12573 72007 10010 21018 38571 48528 58007 69941 87500 91145 333 42004 87630 92844;
0180160080999992000120215004+45750+010520FM-12+146199999V0202401N002110090019N0200001N1+00081-00121999999ADDGA1081+009009069GF108991081051008001999999MA1999999085671MD1610041+9999ME1315249REMSYN088AAXX  02154 16008 42570 82404 10008 21012 38567 48524 56004 885// 91445 333 88630 92844;
0245160080999992000120218004+45750+010520FM-12+146199999V0202101N002610090019N0160001N1-00021-00051999999ADDAA112000591AJ100049199999999GA1081+009009069GF108991081051008001999999IA1309KA1120M+00301MA1999999085671MD1410001+9999ME1315249REMSYN106AAXX  02184 16008 12566 82105 11002 21005 38567 48524 54000 69942 885// 91745 333 10030 42004 88630 92843;
0180160080999992000120221004+45750+010520FM-12+146199999V0202201N003110090019N0150001N1-00021-00021999999ADDGA1081+009009069GF108991081051008001999999MA1999999085681MD1310011+9999ME1315259REMSYN088AAXX  02214 16008 42565 82206 11002 21002 38568 48525 53001 885// 92045 333 88630 92843;
0239160080999992000120300004+45750+010520FM-12+146199999V0202301N003610090019N0150001N1-00061-00061999999ADDAA199000091AJ100049199999999GA1081+009009069GF108991081051008001999999IA1309MA1999999085631MD1810051+9999ME1315209REMSYN094AAXX  03004 16008 32565 82307 11006 21006 38563 48520 58005 885// 92345 333 42004 88630 92843;EQDQ01  00002PRCP99
0180160080999992000120303004+45750+010520FM-12+146199999V0209999C000010090019N0150001N1-00101-00101999999ADDGA1081+009009069GF108991081051008001999999MA1999999085601MD1610031+9999ME1315179REMSYN088AAXX  03034 16008 42565 80000 11010 21010 38560 48517 56003 885// 90245 333 88630 92843;
0258160080999992000120306004+45750+010520FM-12+146199999V0202101N002110090019N0150001N1-00021-00021999999ADDAA199000091AJ100049199999999GA1081+009009069GF108991081051008001999999IA1309KA1120N-00101MA1999999085551MD1810051+9999ME1315129REMSYN100AAXX  03064 16008 32565 82104 11002 21002 38555 48512 58005 885// 90545 333 21010 42004 88630 92843;EQDQ01  00002PRCP99
0208160080999992000120309004+45750+010520FM-12+146199999V0209999C000010009019N0070001N1+00001-00021999999ADDAY121031AY221031GA1081+000909079GF108991081061000751999999MA1999999085601MD1310051+9999ME1315179MW1101REMSYN094AAXX  03094 16008 41157 80000 10000 21002 38560 48517 53005 71022 886// 90845 333 88703 92844;
0239160080999992000120312004+45750+010520FM-12+146199999V0209999C000010012019N0130001N1+00041+00021999999ADDAA199000091AJ100029199999999GA1081+001209079GF108991081061001501999999IA1289MA1999999085611MD1010011+9999ME1315189REMSYN094AAXX  03124 16008 32263 80000 10004 20002 38561 48518 50001 886// 91145 333 44002 88704 92844;EQDQ01  00002PRCP99
0208160080999992000120315004+45750+010520FM-12+146199999V0202101N002110009019N0015001N1+00101+00031999999ADDAY121031AY221031GA1081+000909079GF108991081061000751999999MA1999999085561MD1710041+9999ME1315149MW1101REMSYN094AAXX  03154 16008 41115 82104 10010 20003 38556 48514 57004 71022 886// 91445 333 88703 92844;
0257160080999992000120318004+45750+010520FM-12+146199999V0209999C000010012019N0005001N1+00021+00001999999ADDAA199000091AY141061AY221061GA1081+001209079GF108991081061001501999999KA1120M+00121MA1999999085611MD1310051+9999ME1315189MW1441REMSYN100AAXX  03184 16008 31205 80000 10002 20000 38561 48518 53005 74442 886// 91745 333 10012 88704 92844;EQDQ01  00002PRCP99
0208160080999992000120321004+45750+010520FM-12+146199999V0209999C000010003019N0000001N1-00021-00021999999ADDAY141031AY241031GA1081+000309079GF108991081061000251999999MA1999999085691MD1210081+9999ME1315259MW1441REMSYN094AAXX  03214 16008 41000 80000 11002 21002 38569 48525 52008 74444 886// 92045 333 88701 92844;
0223160080999992000120403004+45750+010520FM-12+146199999V0209999C000010001519N0000001N1+00001+00001999999ADDAY141031AY241031GA1091+000159999GF109991091999999999999999MA1999999085711ME1315279MW1451REMSYN088AAXX  04034 16008 41/00 90000 10000 20000 38571 48527 51000 74544 90245 333 89/00 92844;EQDQ01+000012APCTENQ02+000002APC3  
0280160080999992000120406004+45750+010520FM-12+146199999V0209999C000010001519N0000001N1-00021-00021999999ADDAA199000091AJ100049199999999AY141061AY241061GA1091+000159999GF109991091999999999999999IA1309KA1120N-00021MA1999999085691MD1810021+9999ME1315259MW1451REMSYN100AAXX  04064 16008 31/00 90000 11002 21002 38569 48525 58002 74544 90545 333 21002 42004 89/00 92844;EQDQ01  00002PRCP99
0208160080999992000120409004+45750+010520FM-12+146199999V0209999C000010003019N0001001N1-00021-00051999999ADDAY141031AY241031GA1081+000309079GF108991081061000251999999MA1999999085711MD1310021+9999ME1315289MW1441REMSYN094AAXX  04094 16008 41001 80000 11002 21005 38571 48528 53002 74444 886// 90845 333 88701 92844;
0238160080999992000120412004+45750+010520FM-12+146199999V0209999C000010012019N0008001N1+00121+00031999999ADDAA199000091AY141061AY241061GA1081+001209079GF108991081061001501999999MA1999999085731MD1110021+9999ME1315309MW1441REMSYN094AAXX  04124 16008 31208 80000 10012 20003 38573 48530 51002 74444 886// 91145 333 88704 92844;EQDQ01  00002PRCP99
0230160080999992000120415004+45750+010520FM-12+146199999V0209999C000012200019N0060001N1+00041-00101999999ADDAY141031AY221031GA1021+001509079GA2031+024009039GF104991041061001501041001MA1999999085691MD1810041+9999ME1315269MW1101REMSYN100AAXX  04154 16008 41256 40000 10004 21010 38569 48526 58004 71042 84640 91445 333 82705 83358 92844;
0286160080999992000120418004+45750+010520FM-12+146199999V0209999C000010030019N0060001N1-00101-00241999999ADDAA199000091AJ100029199999999AY141061AY211061GA1051+003009079GF105991051061004501001001IA1309KA1120M+00121MA1999999085641MD1510051+9999ME1315209MW1101REMSYN106AAXX  04184 16008 31456 50000 11010 21024 38564 48520 55005 71041 85600 91745 333 10012 42002 85710 92844;EQDQ01  00002PRCP99
0168160080999992000120421004+45750+010520FM-12+146199999V0209999C000012200019N0200001N1-00241-00421999999ADDGA1001+999999999GF100991001001999999001001MA1999999085721MD1210081+9999ME1315279REMSYN076AAXX  04214 16008 42970 00000 11024 21042 38572 48527 52008 92045 333 92844;
0243160080999992000120500004+45750+010520FM-12+146199999V0209999C000012200019N0200001N1-00361-00611999999ADDAA199000091AJ100029199999999GA1001+999999999GF100991001001999999001001IA1309MA1999999085721MD1410001+9999ME1315279REMSYN082AAXX  05004 16008 32970 00000 11036 21061 38572 48527 51000 92345 333 42002 92844;EQDQ01+000012APCTENQ02  00002PRCP99
0168160080999992000120503004+45750+010520FM-12+146199999V0209999C000012200019N0200001N1-00381-00661999999ADDGA1001+999999999GF100991001001999999001001MA1999999085701MD1810011+9999ME1315269REMSYN076AAXX  05034 16008 42970 00000 11038 21066 38570 48526 58001 90245 333 92844;
0258160080999992000120506004+45750+010520FM-12+146199999V0209999C000012200019N0200001N1-00401-00681999999ADDAA199000091AJ100029199999999GA1041+012009069GF104991041051012501001001IA1309KA1120N-00401MA1999999085701MD1410001+9999ME1315269REMSYN100AAXX  05064 16008 32670 40000 11040 21068 38570 48526 54000 84500 90545 333 21040 42002 84640 92844;EQDQ01  00002PRCP99
0168160080999992000120509004+45750+010520FM-12+146199999V0209999C000012200019N0250001N1-00401-00681999999ADDGA1001+999999999GF100991001001999999001001MA1999999085691MD1810011+9999ME1315259REMSYN076AAXX  05094 16008 42975 00000 11040 21068 38569 48525 58001 90845 333 92844;
0227160080999992000120512004+45750+010520FM-12+146199999V0202101N003612200019N0250001N1+00321-00761999999ADDAA199000091AJ100019199999999GA1001+999999999GF100991001001999999001001IA1309MA1999999085641MD1710051+9999ME1315229REMSYN082AAXX  05124 16008 32975 02107 10032 21076 38564 48522 57005 91145 333 42001 92844;EQDQ01  00002PRCP99
0158160080999992000120515004+45750+010520FM-12+146199999V0202201N003612200019N0150001N1+00081-00531999999ADDGA1001+999999999GF100991001001999999001001MA1999999085661MD1310021+9999ME1315239REMSYN066AAXX  05154 16008 42965 02207 10008 21053 38566 48523 53002 91445;
0168160080999992000120521004+45750+010520FM-12+146199999V0209999C000012200019N0200001N1-00421-00621999999ADDGA1001+999999999GF100991001001999999001001MA1999999085701MD1110011+9999ME1315269REMSYN076AAXX  05214 16008 42970 00000 11042 21062 38570 48526 51001 92045 333 92843;
0227160080999992000120600004+45750+010520FM-12+146199999V0209999C000012200019N0200001N1-00521-00661999999ADDAA199000091AJ100019199999999GA1001+999999999GF100991001001999999001001IA1259MA1999999085731MD1310031+9999ME1315289REMSYN082AAXX  06004 16008 32970 00000 11052 21066 38573 48528 53003 92345 333 41001 92843;EQDQ01  00002PRCP99
0168160080999992000120603004+45750+010520FM-12+146199999V0209999C000012200019N0200001N1-00541-00721999999ADDGA1001+999999999GF100991001001999999001001MA1999999085691MD1810041+9999ME1315259REMSYN076AAXX  06034 16008 42970 00000 11054 21072 38569 48525 58004 90245 333 92843;
0246160080999992000120606004+45750+010520FM-12+146199999V0209999C000012200019N0200001N1-00621-00731999999ADDAA199000091AJ100019199999999GA1001+999999999GF100991001001999999001001IA1309KA1120N-00621MA1999999085651MD1610041+9999ME1315219REMSYN088AAXX  06064 16008 32970 00000 11062 21073 38565 48521 56004 90545 333 21062 42001 92843;EQDQ01  00002PRCP99
0208160080999992000120609004+45750+010520FM-12+146199999V0209999C000010240019N0080001N1-00561-00671999999ADDAY111031AY211031GA1051+024009049GF105991051001022501011001MA1999999085621MD1810031+9999ME1315189MW1101REMSYN094AAXX  06094 16008 41858 50000 11056 21067 38562 48518 58003 71011 85010 90845 333 85458 92843;
0267160080999992000120612004+45750+010520FM-12+146199999V0202401N004110210019N0130001N1+00001-00571999999ADDAA199000091AJ100019199999999AY111061AY211061GA1061+021009039GF106991061001022501051001IA1309MA1999999085581MD1610041+9999ME1315159MW1031REMSYN100AAXX  06124 16008 31863 62408 10000 21057 38558 48515 56004 70311 86050 91145 333 42001 86357 92844;EQDQ01  00002PRCP99
0180160080999992000120615004+45750+010520FM-12+146199999V0202101N002110210019N0150001N1-00101-00521999999ADDGA1061+021009049GF106991061001022501021001MA1999999085511MD1810081+9999ME1315089REMSYN088AAXX  06154 16008 42865 62104 11010 21052 38551 48508 58008 86020 91445 333 86457 92843;
0280160080999992000120618004+45750+010520FM-12+146199999V0202401N001510240019N0150001N1-00181-00491999999ADDAA199000091AJ100019199999999GA1021+018009069GA2081+024009049GF108991021051017501021999IA1309KA1120M+00141MA1999999085541MD1310031+9999ME1315119REMSYN106AAXX  06184 16008 32765 82403 11018 21049 38554 48511 53003 8252/ 91745 333 10014 42001 82656 88458 92843;EQDQ01  00002PRCP99
0180160080999992000120621004+45750+010520FM-12+146199999V0209999C000010210019N0150001N1-00201-00451999999ADDGA1081+021009049GF108991081001022501021999MA1999999085591MD1210061+9999ME1315169REMSYN088AAXX  06214 16008 42865 80000 11020 21045 38559 48516 52006 8802/ 92045 333 88457 92843;
0239160080999992000120700004+45750+010520FM-12+146199999V0209999C000010210019N0150001N1-00241-00391999999ADDAA199000091AJ100019199999999GA1081+021009049GF108991081001022501021999IA1309MA1999999085591MD1010001+9999ME1315169REMSYN094AAXX  07004 16008 32865 80000 11024 21039 38559 48516 50000 8802/ 92345 333 42001 88457 92843;EQDQ01  00002PRCP99
0180160080999992000120703004+45750+010520FM-12+146199999V0202401N001512200019N0150001N1-00301-00431999999ADDGA1021+012009069GF102991021051012501001001MA1999999085631MD1310031+9999ME1315199REMSYN088AAXX  07034 16008 42665 22403 11030 21043 38563 48519 53003 82500 90245 333 82640 92843;
0258160080999992000120706004+45750+010520FM-12+146199999V0209999C000012200019N0150001N1-00481-00571999999ADDAA199000091AJ100019199999999GA1021+012009069GF102991021051012501001001IA1309KA1120N-00501MA1999999085581MD1810041+9999ME1315149REMSYN100AAXX  07064 16008 32665 20000 11048 21057 38558 48514 58004 82500 90545 333 21050 42001 82640 92843;EQDQ01  00002PRCP99
0180160080999992000120709004+45750+010520FM-12+146199999V0202401N005110090019N0150001N1-00261-00471999999ADDGA1061+009009069GF106991061051008001001001MA1999999085571MD1610011+9999ME1315149REMSYN088AAXX  07094 16008 42565 62410 11026 21047 38557 48514 56001 86500 90845 333 86630 92843;
0239160080999992000120712004+45750+010520FM-12+146199999V0201401N003610090019N0150001N1+00001-00341999999ADDAA199000091AJ100019199999999GA1071+009009069GF107991071051008001001001IA1309MA1999999085501MD1810081+9999ME1315089REMSYN094AAXX  07124 16008 32565 71407 10000 21034 38550 48508 58008 87500 91145 333 42001 87630 92844;EQDQ01  00002PRCP99
0180160080999992000120715004+45750+010520FM-12+146199999V0201701N005110075019N0130001N1-00061-00281999999ADDGA1081+007509069GF108991081051008001999999MA1999999085401MD1710101+9999ME1314989REMSYN088AAXX  07154 16008 42563 81710 11006 21028 38540 48498 57010 885// 91445 333 88625 92843;
0286160080999992000120718004+45750+010520FM-12+146199999V0202401N004110060019N0070001N1-00141-00241999999ADDAA199000091AJ100019199999999AY121061AY221061GA1081+006009079GF108991081061008001999999IA1309KA1120M+00001MA1999999085381MD1610021+9999ME1314969MW1101REMSYN106AAXX  07184 16008 31557 82408 11014 21024 38538 48496 56002 71022 886// 91745 333 10000 42001 88720 92843;EQDQ01  00002PRCP99
0208160080999992000120721004+45750+010520FM-12+146199999V0201801N004110045019N0030001N1-00141-00141999999ADDAY121031AY221031GA1081+004509079GF108991081061004501999999MA1999999085341MD1810041+9999ME1314929MW1101REMSYN094AAXX  07214 16008 41430 81808 11014 21014 38534 48492 58004 71022 886// 92045 333 88715 92843;
0267160080999992000120800004+45750+010520FM-12+146199999V0209999C000010030019N0030001N1-00101-00101999999ADDAA199000091AJ100019199999999AY121061AY221061GA1081+003009079GF108991081061004501999999IA1309MA1999999085351MD1310011+9999ME1314939MW1101REMSYN100AAXX  08004 16008 31430 80000 11010 21010 38535 48493 53001 71022 886// 92345 333 42001 88710 92843;EQDQ01  00002PRCP99
0208160080999992000120803004+45750+010520FM-12+146199999V0201501N006710030019N0020001N1-00041-00041999999ADDAY151031AY221031GA1081+003009079GF108991081071004501999999MA1999999085301MD1810051+9999ME1314899MW1511REMSYN094AAXX  08034 16008 41420 81513 11004 21004 38530 48489 58005 75152 887// 90245 333 88710 92843;
0273160080999992000120806004+45750+010520FM-12+146199999V0209999C000010015019N0013001N1-00081-00101999999ADDAA112000791AJ100019199999999AY151061AY251061GA1081+001509079GF108991081071001501999999IA1309KA1120N-00181MA1999999085261MD1610031+9999ME1314869MW1511REMSYN112AAXX  08064 16008 11213 80000 11008 21010 38526 48486 56003 69902 75155 887// 90545 333 21018 42001 88705 92843;
0208160080999992000120809004+45750+010520FM-12+146199999V0202001N002110015019N0002001N1-00081-00121999999ADDAY151031AY241031GA1081+001509079GF108991081071001501999999MA1999999085291MD1310031+9999ME1314889MW1511REMSYN094AAXX  08094 16008 41202 82004 11008 21012 38529 48488 53003 75154 887// 90845 333 88705 92843;
0254160080999992000120812004+45750+010520FM-12+146199999V0201601N006210015019N0004001N1+00101+00021999999ADDAA106000791AJ100019199999999AY151061AY241061GA1081+001509079GF108991081061001501999999IA1309MA1999999085271MD1810021+9999ME1314869MW1461REMSYN106AAXX  08124 16008 11204 81612 10010 20002 38527 48486 58002 69901 74654 886// 91145 333 42001 88705 92844;
0208160080999992000120815004+45750+010520FM-12+146199999V0201701N006210015019N0004001N1+00081+00021999999ADDAY151031AY241031GA1081+001509079GF108991081071001501999999MA1999999085231MD1710041+9999ME1314829MW1531REMSYN094AAXX  08154 16008 41204 81712 10008 20002 38523 48482 57004 75354 887// 91445 333 88705 92844;
0273160080999992000120818004+45750+010520FM-12+146199999V0201901N004110006019N0001001N1+00061-00041999999ADDAA112000791AJ100019199999999AY151061AY241061GA1081+000609079GF108991081071000751999999IA1309KA1120M+00101MA1999999085221MD1610011+9999ME1314819MW1531REMSYN112AAXX  08184 16008 11101 81908 10006 21004 38522 48481 56001 69902 75354 887// 91745 333 10010 42001 88702 92844;
0208160080999992000120821004+45750+010520FM-12+146199999V0202101N002110006019N0001001N1+00001-00091999999ADDAY161031AY241031GA1081+000609079GF108991081071000751999999MA1999999085241MD1310021+9999ME1314839MW1631REMSYN094AAXX  08214 16008 41101 82104 10000 21009 38524 48483 53002 76364 887// 92045 333 88702 92857;
0254160080999992000120900004+45750+010520FM-12+146199999V0202101N002110006019N0001001N1+00061-00041999999ADDAA106000591AJ100019199999999AY161061AY241061GA1081+000609079GF108991081071000751999999IA1309MA1999999085241MD1010001+9999ME1314839MW1531REMSYN106AAXX  09004 16008 11101 82104 10006 21004 38524 48483 50000 69941 75364 887// 92345 333 42001 88702 92857;
0208160080999992000120903004+45750+010520FM-12+146199999V0209999C000010009019N0004001N1+00081-00011999999ADDAY151031AY241031GA1081+000909079GF108991081061000751999999MA1999999085251MD1310021+9999ME1314859MW1421REMSYN094AAXX  09034 16008 41104 80000 10008 21001 38525 48485 53002 74254 886// 90245 333 88703 92857;
0273160080999992000120906004+45750+010520FM-12+146199999V0209999C000010012019N0006001N1+00021-00101999999ADDAA112000591AJ100019199999999AY161061AY241061GA1081+001209079GF108991081061001501999999IA1259KA1120N+00001MA1999999085281MD1110021+9999ME1314879MW1421REMSYN112AAXX  09064 16008 11206 80000 10002 21010 38528 48487 51002 69942 74264 886// 90545 333 20000 41001 88704 92857;
0208160080999992000120909004+45750+010520FM-12+146199999V0209999C000010030019N0030001N1+00041-00101999999ADDAY161031AY241031GA1081+003009079GF108991081071004501999999MA1999999085361MD1310081+9999ME1314949MW1601REMSYN094AAXX  09094 16008 41430 80000 10004 21010 38536 48494 53008 76064 887// 90845 333 88710 92857;
0254160080999992000120912004+45750+010520FM-12+146199999V0209999C000010030019N0030001N1+00221+00031999999ADDAA106000791AJ100019199999999AY161061AY221061GA1071+003009069GF107991071051004501001001IA1259MA1999999085341MD1810021+9999ME1314939MW1101REMSYN106AAXX  09124 16008 11430 70000 10022 20003 38534 48493 58002 69901 71062 87500 91145 333 41001 87610 92857;
0207160080999992000120915004+45750+010520FM-12+146199999V0209999C000010006019N0013001N1+00121+00021999999ADDAY121031AY221031GA1071+000609079GF107991071061000751001001MA1999999085361MD1310021+9999ME1314959MW1101REMSYN093AAXX  09154 16008 4111370000 10012 20002 38536 48495 53002 71022 87600 91445 333 87702 92857;
0273160080999992000120918004+45750+010520FM-12+146199999V0209999C000010015019N0020001N1+00101-00041999999ADDAA112000791AJ100019199999999AY141061AY221061GA1081+001509079GF108991081061001501999999IA1259KA1120M+00241MA1999999085401MD1110041+9999ME1314999MW1101REMSYN112AAXX  09184 16008 11220 80000 10010 21004 38540 48499 51004 69902 71042 886// 91745 333 10024 41001 88705 92857;
0202160080999992000120921004+45750+010520FM-12+146199999V0209999C000010003019N0000001N1+00081-00011999999ADDAY141031AY221031GA1091+000309999GF109991091999999999999999MA1999999085421MD1310021+9999ME1315009MW1451REMSYN088AAXX  09214 16008 41/00 90000 10008 21001 38542 48500 53002 74542 92045 333 89/01 92857;
0299160080999992000121000004+45750+010520FM-12+146199999V0209999C000010009019N0002001N1+00021-00111999999ADDAA199000091AJ100019199999999AY141061AY241061GA1081+000909079GF108991081061000751999999IA1259MA1999999085411MD1710011+9999ME1315009MW1461REMSYN100AAXX  10004 16008 31102 80000 10002 21011 38541 48500 58000 74644 886// 92345 333 41001 88703 92857;EQDQ01+000082APCTENQ02+000002APC3  Q03  00002PRCP99
0208160080999992000121003004+45750+010520FM-12+146199999V0209999C000010015019N0006001N1+00001-00161999999ADDAY161031AY241031GA1081+001509079GF108991081061001501999999MA1999999085451MD1310041+9999ME1315039MW1211REMSYN094AAXX  10034 16008 41206 80000 10000 21016 38545 48503 53004 72164 886// 90245 333 88705 92857;
0261160080999992000121006004+45750+010520FM-12+146199999V0209999C000012200019N0040001N1-00101-00241999999ADDAA112000591AJ100019199999999AY161061AY241061GA1001+999999999GF100991001001999999001001IA1259KA1120N-00101MA1999999085491MD1110041+9999ME1315079MW1101REMSYN100AAXX  10064 16008 11940 00000 11010 21024 38549 48507 51004 69942 71064 90545 333 21010 41001 92857;
0180160080999992000121009004+45750+010520FM-12+146199999V0209999C000012200019N0150001N1-00201-00381999999ADDGA1011+004509089GF102991021011004501001011MA1999999085641MD1310151+9999ME1315219REMSYN088AAXX  10094 16008 42465 20000 11020 21038 38564 48521 53015 82101 90845 333 81815 92857;
0220160080999992000121012004+45750+010520FM-12+146199999V0209999C000010210019N0180001N1+00381-00111999999ADDAA199000021GA1061+021009059GF106991061051022501999001MA1999999085651MD1110011+9999ME1315229REMSYN082AAXX  10124 16008 32868 60000 10038 21011 38565 48522 51000 86500 91145 333 86657;EQDQ01+000002SCOMCGQ02+000002APC3  
0180160080999992000121015004+45750+010520FM-12+146199999V0200101N00261006001CN0110001N1+00261+00121999999ADDGA1041+001509089GF108991081081001501999999MA1999999085571MD1810071+9999ME1315159REMSYN088AAXX  10154 16008 42261 80105 10026 20012 38557 48515 58007 888// 91445 333 84805 86630;
0223160080999992000121018004+45750+010520FM-12+146199999V0209999C000010120019N0110001N1+00041-00051999999ADDAA199000091GA1081+012009059GF108991081051012501999999KA1120M+00601MA1999999085691MD1310121+9999ME1315269REMSYN088AAXX  10184 16008 32661 80000 10004 21005 38569 48526 53012 885// 91745 333 10060 88640;EQDQ01  00002PRCP99
0174160080999992000121021004+45750+010520FM-12+146199999V0203501N005112200019N0200001N1-00181-00231999999ADDGA1021+007509029GF102991021011008001001001MA1999999085771MD1210081+9999ME1315339REMSYN082AAXX  10214 16008 42570 23510 11018 21023 38577 48533 52008 82100 92045 333 82825;
0204160080999992000121100004+45750+010520FM-12+146199999V0209999C000010075019N0200001N1-00141-00311999999ADDAA199000091GA1051+007509029GF105991051011008001001001MA1999999085981MD1210211+9999ME1315529REMSYN082AAXX  11004 16008 32570 50000 11014 21031 38598 48552 52021 85100 92345 333 85825;EQDQ01  00002PRCP99
0174160080999992000121103004+45750+010520FM-12+146199999V0203401N004110060019N0200001N1+00081-00301999999ADDGA1061+006009029GF106991061011008001001001MA1999999086081MD1110101+9999ME1315629REMSYN082AAXX  11034 16008 42570 63408 10008 21030 38608 48562 51010 86100 90245 333 86820;
0235160080999992000121106004+45750+010520FM-12+146199999V0200501N004110060019N0200001N1+00061-00201999999ADDAA199000091GA1051+006009029GF105991051011008001001001IA1019KA1120N-00181MA1999999086161MD1110081+9999ME1315699REMSYN094AAXX  11064 16008 32570 50508 10006 21020 38616 48569 51008 85100 90545 333 21018 30/// 85820;EQDQ01  00002PRCP99
0193160080999992000121109004+45750+010520FM-12+146199999V0200401N003612200019N0200001N1+00081-00391999999ADDGA1041+021009079GF104991041999022501051001MA1999999086321MD1110171+9999ME1315859REMSYN082AAXX  11094 16008 42870 40407 10008 21039 38632 48585 51017 84050 90845 333 84357;EQDQ01+000002SCOLCG
0220160080999992000121112004+45750+010520FM-12+146199999V0200401N004612200019N0200001N1+00621-00571999999ADDAA199000091GA1041+024009079GF104991041999022501051001MA1999999086381MD1010051+9999ME1315929REMSYN082AAXX  11124 16008 32870 40409 10062 21057 38638 48592 50005 84050 91145 333 84358;EQDQ01  00002PRCP99Q02    003SCOLCG
0211160080999992000121118004+45750+010520FM-12+146199999V0200401N003612200019N0200001N1+00081-00511999999ADDAA199000091GA1001+999999999GF100991001001999999001001KA1999M+00961MA1999999086331MD1310011+9999ME1315859REMSYN076AAXX  11184 16008 32970 00407 10008 21051 38633 48585 53001 91745 333 10096;EQDQ01  00002PRCP99
0193160080999992000121121004+45750+010520FM-12+146199999V0200401N004110180019N0200001N1-00121-00481999999ADDGA1051+018009079GF105991051999017501051001MA1999999086371MD1110041+9999ME1315889REMSYN082AAXX  11214 16008 42770 50408 11012 21048 38637 48588 51004 85050 92045 333 85356;EQDQ01+000002SCOLCG
0188160080999992000121200004+45750+010520FM-12+146199999V0209999C000012200019N0200001N1-00201-00521999999ADDAA199000091GA1001+999999999GF100991001001999999001001MA1999999086371MD1410001+9999ME1315889REMSYN066AAXX  12004 16008 32970 00000 11020 21052 38637 48588 54000 92345;EQDQ01  00002PRCP99
0148160080999992000121203004+45750+010520FM-12+146199999V0200401N003119999999N0200001N1-00181-00441999999ADDGF106991001001999999001011MA1999999086321MD1810061+9999ME1315839REMSYN072AAXX  12034 16008 42970 60406 11018 21044 38632 48583 58006 80001 90245;
0251160080999992000121206004+45750+010520FM-12+146199999V0200401N003110210019N0200001N1-00101-00521999999ADDAA199000091GA1071+021009079GF107991071999022501051001IA1019KA1120N-00241MA1999999086231MD1610091+9999ME1315759REMSYN094AAXX  12064 16008 32870 70406 11010 21052 38623 48575 56009 87050 90545 333 21024 30/// 87357;EQDQ01+000002SCOLCGQ02  00002PRCP99
0174160080999992000121209004+45750+010520FM-12+146199999V0200401N003110120019N0200001N1+00061-00561999999ADDGA1071+012009059GF107991071051012501001001MA1999999086281MD1310051+9999ME1315809REMSYN082AAXX  12094 16008 42670 70406 10006 21056 38628 48580 53005 87500 90845 333 87640;
0220160080999992000121212004+45750+010520FM-12+146199999V0200401N004110210019N0250001N1+00621-00651999999ADDAA199000091GA1071+021009079GF107991071999022501051001MA1999999086211MD1810061+9999ME1315779REMSYN082AAXX  12124 16008 32875 70408 10062 21065 38621 48577 58006 87050 91145 333 87357;EQDQ01+000002SCOLCGQ02  00002PRCP99
0193160080999992000121215004+45750+010520FM-12+146199999V0200401N003110180019N0250001N1+00561-00341999999ADDGA1081+018009079GF108991081999017501051999MA1999999086121MD1610091+9999ME1315689REMSYN082AAXX  12154 16008 42775 80406 10056 21034 38612 48568 56009 8805/ 91445 333 88356;EQDQ01+000002SCOLCG
0211160080999992000121218004+45750+010520FM-12+146199999V0209999C000012200019N0150001N1+00161-00191999999ADDAA199000091GA1001+999999999GF100991001001999999001001KA1999M+00721MA1999999086091MD1810031+9999ME1315639REMSYN076AAXX  12184 16008 32965 00000 10016 21019 38609 48563 58003 91745 333 10072;EQDQ01  00002PRCP99
0193160080999992000121221004+45750+010520FM-12+146199999V0209999C000010210019N0150001N1-00041-00201999999ADDGA1071+021009079GF107991071999022501051001MA1999999086091MD1610011+9999ME1315629REMSYN082AAXX  12214 16008 42865 70000 11004 21020 38609 48562 56001 87050 92045 333 87357;EQDQ01+000002SCOLCG
0220160080999992000121300004+45750+010520FM-12+146199999V0209999C000010180019N0150001N1-00121-00211999999ADDAA199000091GA1071+018009079GF107991071999017501051001MA1999999086031MD1810061+9999ME1315569REMSYN082AAXX  13004 16008 32765 70000 11012 21021 38603 48556 58006 87050 92345 333 87356;EQDQ01+000002SCOLCGQ02  00002PRCP99
0174160080999992000121303004+45750+010520FM-12+146199999V0209999C000010120019N0150001N1-00101-00181999999ADDGA1061+012009059GF106991061051012501001001MA1999999085861MD1710171+9999ME1315419REMSYN082AAXX  13034 16008 42665 60000 11010 21018 38586 48541 57017 86500 90245 333 86640;
0235160080999992000121306004+45750+010520FM-12+146199999V0209999C000010120019N0150001N1-00221-00291999999ADDAA199000091GA1071+012009059GF107991071051012501001001IA1019KA1120N-00221MA1999999085731MD1710131+9999ME1315299REMSYN094AAXX  13064 16008 32665 70000 11022 21029 38573 48529 57013 87500 90545 333 21022 30/// 87640;EQDQ01  00002PRCP99
0174160080999992000121309004+45750+010520FM-12+146199999V0200101N002110120019N0250001N1-00081-00331999999ADDGA1081+012009059GF108991081051012501999999MA1999999085701MD1610031+9999ME1315269REMSYN082AAXX  13094 16008 42675 80104 11008 21033 38570 48526 56003 885// 90845 333 88640;
0210160080999992000121312004+45750+010520FM-12+146199999V0200301N00511036001CN0250001N1+00521-00251999999ADDAA199000091GA1031+010509069GF107991031041012501091001MA1999999085631MD1810071+9999ME1315219REMSYN088AAXX  13124 16008 32675 70310 10052 21025 38563 48521 58007 83490 91145 333 83635 86357;EQDQ01  00002PRCP99
0174160080999992000121315004+45750+010520FM-12+146199999V0200401N004110900019N0200001N1+00761-00381999999ADDGA1021+009009059GF105991021051008001001091MA1999999085511MD1610121+9999ME1315109REMSYN082AAXX  13154 16008 42570 50408 10076 21038 38551 48510 56012 82509 91445 333 82630;
0193160080999992000121321004+45750+010520FM-12+146199999V0200401N003610210019N0150001N1-00061-00381999999ADDGA1061+021009079GF106991061999022501051001MA1999999085501MD1810031+9999ME1315089REMSYN082AAXX  13214 16008 42865 60407 11006 21038 38550 48508 58003 86050 92045 333 86357;EQDQ01+000002SCOLCG
0188160080999992000121400004+45750+010520FM-12+146199999V0200401N003112200019N0150001N1-00121-00481999999ADDAA199000091GA1001+999999999GF100991001001999999001001MA1999999085491MD1610011+9999ME1315079REMSYN066AAXX  14004 16008 32965 00406 11012 21048 38549 48507 56001 92345;EQDQ01  00002PRCP99
0174160080999992000121403004+45750+010520FM-12+146199999V0200501N004112200019N0150001N1-00261-00621999999ADDGA1041+030009079GF104991041001999999051001MA1999999085391MD1810101+9999ME1314979REMSYN082AAXX  14034 16008 42965 40508 11026 21062 38539 48497 58010 84050 90245 333 84360;
0235160080999992000121406004+45750+010520FM-12+146199999V0200401N004112200019N0150001N1-00361-00671999999ADDAA199000091GA1041+030009079GF104991041001999999051001IA1019KA1120N-00361MA1999999085221MD1710171+9999ME1314819REMSYN094AAXX  14064 16008 32965 40408 11036 21067 38522 48481 57017 84050 90545 333 21036 30/// 84360;EQDQ01  00002PRCP99
0174160080999992000121409004+45750+010520FM-12+146199999V0200601N002610120019N0200001N1-00281-00671999999ADDGA1081+012009059GF108991081051012501999999MA1999999085121MD1610101+9999ME1314729REMSYN082AAXX  14094 16008 42670 80605 11028 21067 38512 48472 56010 885// 90845 333 88640;
0204160080999992000121412004+45750+010520FM-12+146199999V0202401N006210105019N0200001N1-00121-00571999999ADDAA199000091GA1081+010509059GF108991081051012501999999MA1999999084871MD1810251+9999ME1314499REMSYN082AAXX  14124 16008 32670 82412 11012 21057 38487 48449 58025 885// 91145 333 88635;EQDQ01  00002PRCP99
0174160080999992000121415004+45750+010520FM-12+146199999V0202301N006210120019N0200001N1-00241-00421999999ADDGA1081+012009059GF108991081051012501999999MA1999999084631MD1610241+9999ME1314279REMSYN082AAXX  14154 16008 42670 82312 11024 21042 38463 48427 56024 885// 91445 333 88640;
0223160080999992000121418004+45750+010520FM-12+146199999V0202401N006210105019N0150001N1-00181-00351999999ADDAA199000091GA1081+010509059GF108991081051012501999999KA1120M+00041MA1999999084571MD1810061+9999ME1314219REMSYN088AAXX  14184 16008 32665 82412 11018 21035 38457 48421 58006 885// 91745 333 10004 88635;EQDQ01  00002PRCP99
0218160080999992000121421004+45750+010520FM-12+146199999V0202601N004110075019N0070001N1-00181-00181999999ADDAL10699999AY171031AY221031GA1081+007509069GF108991081051008001999999MA1999999084501MD1610071+9999ME1314149MW1701REMSYN094AAXX  14214 16008 41557 82608 11018 21018 38450 48414 56007 77072 885// 92045 333 88625 93197;
0235160080999992000121500004+45750+010520FM-12+146199999V0209999C000010090019N0070001N1-00261-00261999999ADDAA106000791AL10699999AY171061AY221061GA1051+009009069GF105991051051008001001001MA1999999084401MD1810101+9999ME1314059MW1101REMSYN100AAXX  15004 16008 11557 50000 11026 21026 38440 48405 58010 69901 71072 85500 92345 333 85630 93197;
0218160080999992000121503004+45750+010520FM-12+146199999V0209999C000010030019N0014001N1-00241-00241999999ADDAL10699999AY171031AY221031GA1081+003009079GF108991081071004501999999MA1999999084251MD1710151+9999ME1313919MW1701REMSYN094AAXX  15034 16008 41414 80000 11024 21024 38425 48391 57015 77072 887// 90245 333 88710 93194;
0283160080999992000121506004+45750+010520FM-12+146199999V0209999C000010045019N0015001N1-00261-00291999999ADDAA112000591AJ100019199999999AL10699999AY171061AY221061GA1081+004509079GF108991081061004501999999IA1309KA1120N-00261MA1999999084001MD1710251+9999ME1313679MW1101REMSYN112AAXX  15064 16008 11415 80000 11026 21029 38400 48367 57025 69962 71072 886// 90545 333 21026 42001 88715 93196;
0218160080999992000121509004+45750+010520FM-12+146199999V0200401N004610015019N0007001N1-00201-00251999999ADDAL10699999AY171031AY241031GA1081+001509079GF108991081071001501999999MA1999999083901MD1610101+9999ME1313579MW1701REMSYN094AAXX  15094 16008 41207 80409 11020 21025 38390 48357 56010 77074 887// 90845 333 88705 93196;
0264160080999992000121512004+45750+010520FM-12+146199999V0200201N003110012019N0006001N1-00161-00351999999ADDAA106000891AJ100029199999999AL10699999AY171061AY241061GA1081+001209079GF108991081071001501999999IA1309MA1999999084001MD1310101+9999ME1313679MW1701REMSYN106AAXX  15124 16008 11206 80206 11016 21035 38400 48367 53010 69981 77074 887// 91145 333 42002 88704 93194;
0218160080999992000121515004+45750+010520FM-12+146199999V0200301N005710015019N0006001N1-00221-00681999999ADDAL10699999AY171031AY241031GA1081+001509079GF108991081071001501999999MA1999999083981MD1810021+9999ME1313659MW1701REMSYN094AAXX  15154 16008 41206 80311 11022 21068 38398 48365 58002 77074 887// 91445 333 88705 93196;
0233160080999992000121518004+45750+010520FM-12+146199999V0200201N002612200019N0120001N1-00401-01221999999ADDAA112001091AJ100029199999999GA1001+999999999GF100991001001999999001001IA1309KA1120M-00141MA1999999084011MD1310031+9999ME1313699REMSYN094AAXX  15184 16008 12962 00205 11040 21122 38401 48369 53003 60012 91745 333 11014 42002 93694;
0168160080999992000121521004+45750+010520FM-12+146199999V0209999C000012200019N0120001N1-00521-01061999999ADDGA1001+999999999GF100991001001999999001001MA1999999084111MD1410001+9999ME1313789REMSYN076AAXX  15214 16008 42962 00000 11052 21106 38411 48378 54000 92045 333 92823;
0248160080999992000121600004+45750+010520FM-12+146199999V0200601N003610045019N0080001N1-00501-00821999999ADDAA199000021AJ100029199999999AY111061AY211061GA1051+004509079GF105991051061004501001001IA1309MA1999999084181MD1310071+9999ME1313859MW1101REMSYN100AAXX  16004 16008 31458 50607 11050 21082 38418 48385 53007 71011 85600 92345 333 42002 85715 92823;
0180160080999992000121603004+45750+010520FM-12+146199999V0209999C000012200019N0120001N1-00601-00981999999ADDGA1031+012009069GF103991031051012501001001MA1999999084291MD1210101+9999ME1313959REMSYN088AAXX  16034 16008 42662 30000 11060 21098 38429 48395 52010 83500 90245 333 83640 92823;
0208160080999992000121609004+45750+010520FM-12+146199999V0209999C000010030019N0020001N1-00581-00921999999ADDAY111031AY211031GA1081+003009079GF108991081061004501999999MA1999999084411MD1310111+9999ME1314079MW1101REMSYN094AAXX  16094 16008 41420 80000 11058 21092 38441 48407 53011 71011 886// 90845 333 88710 92823;
0280160080999992000121612004+45750+010520FM-12+146199999V0203601N003110018019N0015001N1-00361-00961999999ADDAA199000021AJ100029199999999AL10699999AY171061AY211061GA1061+001809079GA2071+024009049GF108991061071001501011999IA1309MA1999999084501MD1110091+9999ME1314159MW1771REMSYN106AAXX  16124 16008 31215 83606 11036 21096 38450 48415 51009 77771 8671/ 91145 333 42002 86706 87458 93197;
0230160080999992000121615004+45750+010520FM-12+146199999V0200401N003610105019N0200001N1-00221-01111999999ADDAY171031AY211031GA1031+004509079GA2031+010509069GF105991051061004501001001MA1999999084491MD1810011+9999ME1314139MW1011REMSYN100AAXX  16154 16008 41470 50407 11022 21111 38449 48413 58001 70171 85600 91445 333 83715 83635 92823;
0261160080999992000121618004+45750+010520FM-12+146199999V0209999C000012200019N0250001N1-00621-01241999999ADDAA112000791AJ100029199999999AY171061AY211061GA1001+999999999GF100991001001999999001001IA1309KA1120M-00221MA1999999084531MD1310041+9999ME1314189MW1011REMSYN100AAXX  16184 16008 11975 00000 11062 21124 38453 48418 53004 69902 70171 91745 333 11022 42002 92823;
0168160080999992000121621004+45750+010520FM-12+146199999V0209999C000012200019N0200001N1-00821-01291999999ADDGA1001+999999999GF100991001001999999001001MA1999999084691MD1110161+9999ME1314339REMSYN076AAXX  16214 16008 42970 00000 11082 21129 38469 48433 51016 92045 333 92823;
0220160080999992000121700004+45750+010520FM-12+146199999V0200501N002612200019N0150001N1-00821-01381999999ADDAA199000021AJ100029199999999GA1041+012009069GF104991041051012501001001IA1309MA1999999084741MD1310051+9999ME1314379REMSYN094AAXX  17004 16008 32665 40505 11082 21138 38474 48437 53005 84500 92345 333 42002 84640 92823;
0180160080999992000121703004+45750+010520FM-12+146199999V0200401N002110180019N0200001N1-00621-01151999999ADDGA1051+018009039GF105991051001017501031001MA1999999084631MD1810111+9999ME1314279REMSYN088AAXX  17034 16008 42770 50404 11062 21115 38463 48427 58011 85030 90245 333 85356 92823;
0258160080999992000121706004+45750+010520FM-12+146199999V0209999C000010120019N0200001N1-00621-00961999999ADDAA199000091AJ100029199999999GA1061+012009069GF106991061051012501001001IA1309KA1120N-00841MA1999999084551MD1710081+9999ME1314209REMSYN100AAXX  17064 16008 32670 60000 11062 21096 38455 48420 57008 86500 90545 333 21084 42002 86640 92823;EQDQ01  00002PRCP99
0180160080999992000121709004+45750+010520FM-12+146199999V0209999C000010105019N0250001N1-00681-01041999999ADDGA1061+010509069GF106991061051012501001001MA1999999084691MD1310141+9999ME1314329REMSYN088AAXX  17094 16008 42675 60000 11068 21104 38469 48432 53014 86500 90845 333 86635 92830;
0239160080999992000121712004+45750+010520FM-12+146199999V0209999C000010105019N0250001N1-00201-00761999999ADDAA199000091AJ100019199999999GA1061+010509069GF106991061051012501001001IA1309MA1999999084611MD1110021+9999ME1314249REMSYN094AAXX  17124 16008 32675 60000 11020 21076 38461 48424 51002 86500 91145 333 42001 86635 92823;EQDQ01  00002PRCP99
0180160080999992000121715004+45750+010520FM-12+146199999V0200301N004110090019N0100001N1-00101-01051999999ADDGA1061+009009069GF106991061051008001001001MA1999999084581MD1810031+9999ME1314219REMSYN088AAXX  17154 16008 42560 60308 11010 21105 38458 48421 58003 86500 91445 333 86630 92823;
0246160080999992000121718004+45750+010520FM-12+146199999V0209999C000012200019N0100001N1-00301-00781999999ADDAA199000091AJ100019199999999GA1001+999999999GF100991001001999999001001IA1309KA1120M-00041MA1999999084701MD1310121+9999ME1314339REMSYN088AAXX  17184 16008 32960 00000 11030 21078 38470 48433 53012 91745 333 11004 42001 92823;EQDQ01  00002PRCP99
0158160080999992000121721004+45750+010520FM-12+146199999V0209999C000012200019N0100001N1-00481-00771999999ADDGA1001+999999999GF100991001001999999001001MA1999999084801MD1210101+9999ME1314429REMSYN066AAXX  17214 16008 42960 00000 11048 21077 38480 48442 52010 92045;
0168160080999992000121803004+45750+010520FM-12+146199999V0209999C000012200019N0100001N1-00561-00801999999ADDGA1001+999999999GF100991001001999999001001MA1999999085001MD1310101+9999ME1314619REMSYN076AAXX  18034 16008 42960 00000 11056 21080 38500 48461 53010 90245 333 92820;
0246160080999992000121806004+45750+010520FM-12+146199999V0209999C000012200019N0100001N1-00801-01061999999ADDAA199000091AJ100019199999999GA1001+999999999GF100991001001999999001001IA1309KA1120N-00801MA1999999085041MD1210041+9999ME1314649REMSYN088AAXX  18064 16008 32960 00000 11080 21106 38504 48464 52004 90545 333 21080 42001 92823;EQDQ01  00002PRCP99
0168160080999992000121809004+45750+010520FM-12+146199999V0200301N002612200019N0200001N1-00901-01191999999ADDGA1001+999999999GF100991001001999999001001MA1999999085201MD1110161+9999ME1314799REMSYN076AAXX  18094 16008 42970 00305 11090 21119 38520 48479 51016 90845 333 92823;
0227160080999992000121812004+45750+010520FM-12+146199999V0200401N005112200019N0200001N1-00181-01231999999ADDAA199000091AJ100019199999999GA1001+999999999GF100991001001999999001001IA1309MA1999999085221MD1310021+9999ME1314819REMSYN082AAXX  18124 16008 32970 00410 11018 21123 38522 48481 53002 91145 333 42001 92823;EQDQ01  00002PRCP99
0180160080999992000121815004+45750+010520FM-12+146199999V0209999C000010090019N0200001N1-00101-01231999999ADDGA1051+009009069GF105991051051008001001001MA1999999085211MD1810011+9999ME1314809REMSYN088AAXX  18154 16008 42570 50000 11010 21123 38521 48480 58001 85500 91445 333 85630 92823;
0258160080999992000121818004+45750+010520FM-12+146199999V0209999C000010090019N0150001N1-00301-01081999999ADDAA199000091AJ100019199999999GA1051+009009069GF105991051051008001001001IA1309KA1120M+00041MA1999999085281MD1310071+9999ME1314879REMSYN100AAXX  18184 16008 32565 50000 11030 21108 38528 48487 53007 85500 91745 333 10004 42001 85630 92823;EQDQ01  00002PRCP99
0180160080999992000121821004+45750+010520FM-12+146199999V0209999C000010090019N0100001N1-00261-00991999999ADDGA1051+009009069GF105991051051008001001001MA1999999085301MD1110021+9999ME1314889REMSYN088AAXX  18214 16008 42560 50000 11026 21099 38530 48488 51002 85500 92045 333 85630 92823;
0227160080999992000121900004+45750+010520FM-12+146199999V0209999C000012200019N0100001N1-00301-00891999999ADDAA199000091AJ100019199999999GA1001+999999999GF100991001001999999001001IA1309MA1999999085301MD1410001+9999ME1314889REMSYN082AAXX  19004 16008 32960 00000 11030 21089 38530 48488 54000 92345 333 42001 92823;EQDQ01  00002PRCP99
0180160080999992000121903004+45750+010520FM-12+146199999V0209999C000010090019N0100001N1-00381-00761999999ADDGA1051+009009069GF105991051051008001001001MA1999999085281MD1810021+9999ME1314869REMSYN088AAXX  19034 16008 42560 50000 11038 21076 38528 48486 58002 85500 90245 333 85630 92823;
0258160080999992000121906004+45750+010520FM-12+146199999V0200301N002610090019N0100001N1-00301-00721999999ADDAA199000091AJ100019199999999GA1061+009009069GF106991061051008001001001IA1309KA1120N-00421MA1999999085201MD1610081+9999ME1314799REMSYN100AAXX  19064 16008 32560 60305 11030 21072 38520 48479 56008 86500 90545 333 21042 42001 86630 92823;EQDQ01  00002PRCP99
0180160080999992000121909004+45750+010520FM-12+146199999V0200501N004110090019N0100001N1-00181-00441999999ADDGA1071+009009069GF107991071051008001001001MA1999999085231MD1310031+9999ME1314829REMSYN088AAXX  19094 16008 42560 70508 11018 21044 38523 48482 53003 87500 90845 333 87630 92823;
0204160080999992000121912004+45750+010520FM-12+146199999V0200301N003110090019N0150001N1+00101-00301999999ADDAA199000091GA1061+009009059GF106991061051008001001001MA1999999085271MD1110041+9999ME1314869REMSYN082AAXX  19124 16008 32565 60306 10010 21030 38527 48486 51004 86500 91145 333 86630;EQDQ01  00002PRCP99
0210160080999992000121918004+45750+010520FM-12+146199999V0200501N002610090019N0100001N1+00021-00201999999ADDAA112000591GA1051+009009059GF105991051051008001001001KA1120M+00381MA1999999085291MD1310031+9999ME1314889REMSYN094AAXX  19184 16008 12560 50505 10002 21020 38529 48488 53003 69942 85500 91745 333 10038 85630;
0158160080999992000121921004+45750+010520FM-12+146199999V0209999C000012200019N0100001N1-00201-00381999999ADDGA1001+999999999GF100991001001999999001001MA1999999085301MD1110011+9999ME1314889REMSYN066AAXX  19214 16008 42960 00000 11020 21038 38530 48488 51001 92045;
0188160080999992000122000004+45750+010520FM-12+146199999V0209999C000012200019N0100001N1-00341-00471999999ADDAA199000091GA1001+999999999GF100991001001999999001001MA1999999085301MD1410001+9999ME1314889REMSYN066AAXX  20004 16008 32960 00000 11034 21047 38530 48488 54000 92345;EQDQ01  00002PRCP99
0158160080999992000122003004+45750+010520FM-12+146199999V0200301N004112200019N0100001N1-00401-00531999999ADDGA1001+999999999GF100991001001999999001001MA1999999085301MD1410001+9999ME1314889REMSYN066AAXX  20034 16008 42960 00308 11040 21053 38530 48488 54000 90245;
0223160080999992000122006004+45750+010520FM-12+146199999V0200301N003112200019N0100001N1-00481-00711999999ADDAA199000091GA1001+999999999GF100991001001999999001001IA1019KA1120N-00481MA1999999085201MD1810101+9999ME1314799REMSYN082AAXX  20064 16008 32960 00306 11048 21071 38520 48479 58010 90545 333 21048 30///;EQDQ01  00002PRCP99
0158160080999992000122009004+45750+010520FM-12+146199999V0209999C000012200019N0200001N1-00581-00861999999ADDGA1001+999999999GF100991001001999999001001MA1999999085281MD1310081+9999ME1314869REMSYN066AAXX  20094 16008 42970 00000 11058 21086 38528 48486 53008 90845;
0188160080999992000122012004+45750+010520FM-12+146199999V0201901N004112200019N0200001N1-00201-00571999999ADDAA199000091GA1001+999999999GF100991001001999999001001MA1999999085301MD1110021+9999ME1314889REMSYN066AAXX  20124 16008 32970 01908 11020 21057 38530 48488 51002 91145;EQDQ01  00002PRCP99
0174160080999992000122015004+45750+010520FM-12+146199999V0201801N003110090019N0100001N1-00421-00511999999ADDGA1071+009009059GF107991071051008001001001MA1999999085301MD1410001+9999ME1314889REMSYN082AAXX  20154 16008 42560 71806 11042 21051 38530 48488 54000 87500 91445 333 87630;
0223160080999992000122018004+45750+010520FM-12+146199999V0202101N004110090019N0100001N1-00501-00561999999ADDAA199000091GA1071+009009059GF107991071051008001001001KA1120M-00121MA1999999085301MD1410001+9999ME1314889REMSYN088AAXX  20184 16008 32560 72108 11050 21056 38530 48488 54000 87500 91745 333 11012 87630;EQDQ01  00002PRCP99
0174160080999992000122021004+45750+010520FM-12+146199999V0201801N005110090019N0100001N1-00501-00531999999ADDGA1071+009009059GF107991071051008001001001MA1999999085321MD1310021+9999ME1314909REMSYN082AAXX  20214 16008 42560 71810 11050 21053 38532 48490 53002 87500 92045 333 87630;
0204160080999992000122100004+45750+010520FM-12+146199999V0201801N005110090019N0100001N1-00601+99999999999ADDAA199000091GA1071+009009059GF107991071051008001001001MA1999999085401MD1110081+9999ME1314979REMSYN082AAXX  21004 16008 32560 71810 11060 21059 38540 48497 51008 87500 92345 333 87630;EQDQ01  00002PRCP99
0174160080999992000122103004+45750+010520FM-12+146199999V0209999C000010090019N0100001N1-00521-00661999999ADDGA1071+009009059GF107991071051008001001001MA1999999085401MD1410001+9999ME1314979REMSYN082AAXX  21034 16008 42560 70000 11052 21066 38540 48497 54000 87500 90245 333 87630;
0235160080999992000122106004+45750+010520FM-12+146199999V0209999C000010090019N0100001N1-00501-00781999999ADDAA199000091GA1071+009009059GF107991071051008001001001IA1019KA1120N-00621MA1999999085401MD1410001+9999ME1314979REMSYN094AAXX  21064 16008 32560 70000 11050 21078 38540 48497 54000 87500 90545 333 21062 30/// 87630;EQDQ01  00002PRCP99
0174160080999992000122109004+45750+010520FM-12+146199999V0209999C000010090019N0150001N1-00601-00911999999ADDGA1061+009009059GF106991061051008001001001MA1999999085401MD1410001+9999ME1314979REMSYN082AAXX  21094 16008 42565 60000 11060 21091 38540 48497 54000 86500 90845 333 86630;
0158160080999992000122115004+45750+010520FM-12+146199999V0209999C000012200019N0200001N1-00301-00821999999ADDGA1001+999999999GF100991001001999999001001MA1999999085301MD1810101+9999ME1314889REMSYN066AAXX  21154 16008 42970 00000 11030 21082 38530 48488 58010 91445;
0158160080999992000122121004+45750+010520FM-12+146199999V0209999C000012200019N0100001N1-00901-01151999999ADDGA1001+999999999GF100991001001999999001001MA1999999085411MD1310111+9999ME1314989REMSYN066AAXX  21214 16008 42960 00000 11090 21115 38541 48498 53011 92045;
0188160080999992000122200004+45750+010520FM-12+146199999V0209999C000012200019N0100001N1-01021-01371999999ADDAA199000091GA1001+999999999GF100991001001999999001001MA1999999085421MD1110011+9999ME1314989REMSYN066AAXX  22004 16008 32960 00000 11102 21137 38542 48498 51001 92345;EQDQ01  00002PRCP99
0158160080999992000122203004+45750+010520FM-12+146199999V0200301N002612200019N0100001N1-01021-01411999999ADDGA1001+999999999GF100991001001999999001001MA1999999085381MD1810041+9999ME1314959REMSYN066AAXX  22034 16008 42960 00305 11102 21141 38538 48495 58004 90245;
0223160080999992000122206004+45750+010520FM-12+146199999V0200301N002612200019N0100001N1-01061-01461999999ADDAA199000091GA1001+999999999GF100991001001999999001001IA1019KA1120N-01061MA1999999085311MD1610071+9999ME1314899REMSYN082AAXX  22064 16008 32960 00305 11106 21146 38531 48489 56007 90545 333 21106 30///;EQDQ01  00002PRCP99
0158160080999992000122209004+45750+010520FM-12+146199999V0200301N002612200019N0200001N1-01001-01521999999ADDGA1001+999999999GF100991001001999999001001MA1999999085311MD1410001+9999ME1314899REMSYN066AAXX  22094 16008 42970 00305 11100 21152 38531 48489 54000 90845;
0178160080999992000122212004+45750+010520FM-12+146199999V0200301N004612200019N0250001N1-00121-01841999999ADDAA199000091GF102991001001999999001011MA1999999085251MD1810061+9999ME1314849REMSYN072AAXX  22124 16008 32975 20309 11012 21184 38525 48484 58006 80001 91145;EQDQ01  00002PRCP99
0158160080999992000122215004+45750+010520FM-12+146199999V0200301N002612200019N0250001N1-00121-02051999999ADDGA1001+999999999GF100991001001999999001001MA1999999085121MD1610121+9999ME1314729REMSYN066AAXX  22154 16008 42975 00305 11012 21205 38512 48472 56012 91445;
0211160080999992000122218004+45750+010520FM-12+146199999V0200401N003112200019N0250001N1-00581-01791999999ADDAA199000091GA1001+999999999GF100991001001999999001001KA1999M+00101MA1999999085121MD1610011+9999ME1314729REMSYN076AAXX  22184 16008 32975 00406 11058 21179 38512 48472 56001 91745 333 10010;EQDQ01  00002PRCP99
0158160080999992000122221004+45750+010520FM-12+146199999V0209999C000012200019N0250001N1-00901-01751999999ADDGA1001+999999999GF100991001001999999001001MA1999999085191MD1310071+9999ME1314789REMSYN066AAXX  22214 16008 42975 00000 11090 21175 38519 48478 53007 92045;
0188160080999992000122300004+45750+010520FM-12+146199999V0209999C000012200019N0250001N1-01081-01641999999ADDAA199000091GA1001+999999999GF100991001001999999001001MA1999999085201MD1210011+9999ME1314799REMSYN066AAXX  23004 16008 32975 00000 11108 21164 38520 48479 52001 92345;EQDQ01  00002PRCP99
0158160080999992000122303004+45750+010520FM-12+146199999V0209999C000012200019N0250001N1-01121-01691999999ADDGA1001+999999999GF100991001001999999001001MA1999999085141MD1810061+9999ME1314749REMSYN066AAXX  23034 16008 42975 00000 11112 21169 38514 48474 58006 90245;
0223160080999992000122306004+45750+010520FM-12+146199999V0209999C000012200019N0250001N1-01181-01661999999ADDAA199000091GA1001+999999999GF100991001001999999001001IA1019KA1120N-01181MA1999999085071MD1710071+9999ME1314679REMSYN082AAXX  23064 16008 32975 00000 11118 21166 38507 48467 57007 90545 333 21118 30///;EQDQ01  00002PRCP99
0158160080999992000122309004+45750+010520FM-12+146199999V0209999C000012200019N0250001N1-01101-01611999999ADDGA1001+999999999GF100991001001999999001001MA1999999085041MD1710031+9999ME1314659REMSYN066AAXX  23094 16008 42975 00000 11110 21161 38504 48465 57003 90845;
0188160080999992000122312004+45750+010520FM-12+146199999V0209999C000012200019N0250001N1+00002-01671999999ADDAA199000091GA1001+999999999GF100991001001999999001001MA1999999085001MD1710051+9999ME1314619REMSYN066AAXX  23124 16008 32975 00000 10000 21167 38500 48461 57005 91145;EQDQ01  00002PRCP99
0158160080999992000122315004+45750+010520FM-12+146199999V0209999C000012200019N0250001N1-00101-01711999999ADDGA1001+999999999GF100991001001999999001001MA1999999084921MD1710081+9999ME1314539REMSYN066AAXX  23154 16008 42975 00000 11010 21171 38492 48453 57008 91445;
0211160080999992000122318004+45750+010520FM-12+146199999V0209999C000012200019N0250001N1-00701-01441999999ADDAA199000091GA1001+999999999GF100991001001999999001001KA1999M+00201MA1999999084811MD1610011+9999ME1314449REMSYN076AAXX  23184 16008 32975 00000 11070 21144 38481 48444 56001 91745 333 10020;EQDQ01  00002PRCP99
0158160080999992000122321004+45750+010520FM-12+146199999V0209999C000012200019N0250001N1-00841-01501999999ADDGA1001+999999999GF100991001001999999001001MA1999999084791MD1810031+9999ME1314419REMSYN066AAXX  23214 16008 42975 00000 11084 21150 38479 48441 58003 92045;
0188160080999992000122400004+45750+010520FM-12+146199999V0209999C000012200019N0250001N1-01001-01621999999ADDAA199000091GA1001+999999999GF100991001001999999001001MA1999999084771MD1710011+9999ME1314409REMSYN066AAXX  24004 16008 32975 00000 11100 21162 38477 48440 57001 92345;EQDQ01  00002PRCP99
0158160080999992000122403004+45750+010520FM-12+146199999V0209999C000012200019N0250001N1-01121-01691999999ADDGA1001+999999999GF100991001001999999001001MA1999999084701MD1710081+9999ME1314349REMSYN066AAXX  24034 16008 42975 00000 11112 21169 38470 48434 57008 90245;
0223160080999992000122406004+45750+010520FM-12+146199999V0209999C000012200019N0250001N1-01221-01711999999ADDAA199000091GA1001+999999999GF100991001001999999001001IA1149KA1120N-01221MA1999999084571MD1710121+9999ME1314229REMSYN082AAXX  24064 16008 32975 00000 11122 21171 38457 48422 57012 90545 333 21122 34///;EQDQ01  00002PRCP99
0193160080999992000122409004+45750+010520FM-12+146199999V0209999C000010240019N0250001N1-01141-01561999999ADDGA1061+024009079GF106991061999022501051001MA1999999084511MD1510071+9999ME1314169REMSYN082AAXX  24094 16008 42875 60000 11114 21156 38451 48416 55007 86050 90845 333 86358;EQDQ01    003SCOLCG
0188160080999992000122412004+45750+010520FM-12+146199999V0202301N005112200019N0250001N1-00701-01481999999ADDAA199000091GA1001+999999999GF100991001001999999001001MA1999999084401MD1810111+9999ME1314069REMSYN066AAXX  24124 16008 32975 02310 11070 21148 38440 48406 58011 91145;EQDQ01  00002PRCP99
0174160080999992000122415004+45750+010520FM-12+146199999V0201901N004110090019N0240001N1-00481-01701999999ADDGA1071+009009059GF107991071051008001001001MA1999999084291MD1710121+9999ME1313959REMSYN082AAXX  24154 16008 42574 71908 11048 21170 38429 48395 57012 87500 91445 333 87630;
0223160080999992000122418004+45750+010520FM-12+146199999V0202301N005110090019N0150001N1-00681-01711999999ADDAA199000091GA1061+009009059GF106991061051008001001001KA1120M-00401MA1999999084211MD1710071+9999ME1313889REMSYN088AAXX  24184 16008 32565 62310 11068 21171 38421 48388 57007 86500 91745 333 11040 86630;EQDQ01  00002PRCP99
0174160080999992000122421004+45750+010520FM-12+146199999V0202301N005110090019N0150001N1-00821-01561999999ADDGA1061+009009059GF106991061051008001001001MA1999999084121MD1710091+9999ME1313809REMSYN082AAXX  24214 16008 42565 62310 11082 21156 38412 48380 57009 86500 92045 333 86630;
0204160080999992000122500004+45750+010520FM-12+146199999V0202301N004110090019N0150001N1-00861-01381999999ADDAA199000091GA1061+009009059GF106991061051008001001001MA1999999083991MD1710131+9999ME1313689REMSYN082AAXX  25004 16008 32565 62308 11086 21138 38399 48368 57013 86500 92345 333 86630;EQDQ01  00002PRCP99
0174160080999992000122503004+45750+010520FM-12+146199999V0202401N003610090019N0150001N1-00821-01331999999ADDGA1061+009009059GF106991061051008001001001MA1999999083811MD1710191+9999ME1313519REMSYN082AAXX  25034 16008 42565 62407 11082 21133 38381 48351 57019 86500 90245 333 86630;
0302160080999992000122506004+45750+010520FM-12+146199999V0209999C000010030019N0060001N1-00921-01131999999ADDAA112000791AJ199993999999999AL10699999AY121061AY221061GA1081+003009079GF108991081071004501999999IA1309KA1120N-00961MA1999999083501MD1710301+9999ME1313239MW1701REMSYN112AAXX  25064 16008 11456 80000 11092 21113 38350 48323 57030 69902 77022 887// 90545 333 21096 42997 88710 93197;EQDQ01  09982SNDP  
0218160080999992000122509004+45750+010520FM-12+146199999V0201801N002610030019N0080001N1-00921-00921999999ADDAL10600191AY171031AY271031GA1081+003009079GF108991081071004501999999MA1999999083391MD1610111+9999ME1313139MW1701REMSYN094AAXX  25094 16008 41458 81805 11092 21092 38339 48313 56011 77077 887// 90845 333 88710 93101;
0264160080999992000122512004+45750+010520FM-12+146199999V0202401N004610030019N0120001N1-00701-00701999999ADDAA106000591AJ100019199999999AL10699999AY171061AY271061GA1081+003009079GF108991081071004501999999IA1239MA1999999083301MD1810101+9999ME1313039MW1771REMSYN106AAXX  25124 16008 11462 82409 11070 21070 38330 48303 58010 69961 77777 887// 91145 333 47001 88710 93197;
0283160080999992000122518004+45750+010520FM-12+146199999V0209999C000010030019N0120001N1-00521-00521999999ADDAA112000591AJ100069199999999AL10600391AY171061AY271061GA1081+003009079GF108991081071004501999999IA1239KA1120M-00521MA1999999083211MD1310031+9999ME1312949MW1701REMSYN112AAXX  25184 16008 11462 80000 11052 21052 38321 48294 53003 69962 77077 887// 91745 333 11052 47006 88710 93103;
0218160080999992000122521004+45750+010520FM-12+146199999V0202101N003110030019N0150001N1-00521-00521999999ADDAL10699999AY171031AY221031GA1081+003009079GF108991081061004501999999MA1999999083231MD1110011+9999ME1312959MW1021REMSYN094AAXX  25214 16008 41465 82106 11052 21052 38323 48295 51001 70272 886// 92045 333 88710 93197;
0254160080999992000122600004+45750+010520FM-12+146199999V0209999C000010030019N0150001N1-00441-00441999999ADDAA106000791AJ100069199999999AY171061AY221061GA1081+003009079GF108991081061004501999999IA1289MA1999999083201MD1810031+9999ME1312929MW1021REMSYN106AAXX  26004 16008 11465 80000 11044 21044 38320 48292 58003 69901 70272 886// 92345 333 44006 88710 92800;
0180160080999992000122603004+45750+010520FM-12+146199999V0209999C000010030019N0150001N1-00521-00521999999ADDGA1081+003009079GF108991081061004501999999MA1999999083191MD1010001+9999ME1312929REMSYN088AAXX  26034 16008 42465 80000 11052 21052 38319 48292 50000 886// 90245 333 88710 92800;
0245160080999992000122606004+45750+010520FM-12+146199999V0209999C000010030019N0150001N1-00721-00781999999ADDAA112000791AJ100069199999999GA1081+003009079GF108991081061004501999999IA1239KA1120N-00721MA1999999083101MD1510001+9999ME1312849REMSYN106AAXX  26064 16008 12465 80000 11072 21078 38310 48284 55000 69902 886// 90545 333 21072 47006 88710 92800;
0180160080999992000122609004+45750+010520FM-12+146199999V0209999C000010030019N0180001N1-00361-00441999999ADDGA1071+003009079GF107991071061004501001001MA1999999083001MD1810101+9999ME1312729REMSYN088AAXX  26094 16008 42468 70000 11036 21044 38300 48272 58010 87600 90845 333 87710 92800;
0239160080999992000122612004+45750+010520FM-12+146199999V0201901N003110030019N0260001N1-00261-00471999999ADDAA199000091AJ100069199999999GA1071+003009079GF107991071061004501001001IA1239MA1999999082991MD1710011+9999ME1312719REMSYN094AAXX  26124 16008 32476 71906 11026 21047 38299 48271 57001 87600 91145 333 47006 87710 92810;EQDQ01  00002PRCP99
0273160080999992000122618004+45750+010520FM-12+146199999V0201701N003610009019N0030001N1-00381-00381999999ADDAA112002091AJ100069199999999AY121061AY221061GA1081+000909079GF108991081061000751999999IA1239KA1120M+00001MA1999999082891MD1310051+9999ME1312629MW1101REMSYN112AAXX  26184 16008 11130 81707 11038 21038 38289 48262 53005 60022 71022 886// 91745 333 10000 47006 88703 92810;
0218160080999992000122621004+45750+010520FM-12+146199999V0201601N002610012019N0070001N1-00381-00431999999ADDAL10600191AY171031AY221031GA1081+001209079GF108991081071001501999999MA1999999082901MD1010011+9999ME1312639MW1701REMSYN094AAXX  26214 16008 41257 81605 11038 21043 38290 48263 50001 77072 887// 92045 333 88704 93101;
0264160080999992000122700004+45750+010520FM-12+146199999V0209999C000010030019N0130001N1-00421-00531999999ADDAA106000791AJ100089199999999AL10600191AY171061AY221061GA1081+003009079GF108991081061004501999999IA1239MA1999999082981MD1310081+9999ME1312719MW1221REMSYN106AAXX  27004 16008 11463 80000 11042 21053 38298 48271 53008 69901 72272 886// 92345 333 47008 88710 93101;
0180160080999992000122703004+45750+010520FM-12+146199999V0202201N002610030019N0130001N1-00601-00731999999ADDGA1081+003009079GF108991081061004501999999MA1999999083111MD1210121+9999ME1312849REMSYN088AAXX  27034 16008 42463 82205 11060 21073 38311 48284 52012 886// 90245 333 88710 92800;
0245160080999992000122706004+45750+010520FM-12+146199999V0202201N002110030019N0150001N1-00641-00761999999ADDAA112000791AJ100089199999999GA1081+003009079GF108991081061004501999999IA1239KA1120N-00641MA1999999083211MD1110101+9999ME1312959REMSYN106AAXX  27064 16008 12465 82204 11064 21076 38321 48295 51010 69902 886// 90545 333 21064 47008 88710 92800;
0180160080999992000122709004+45750+010520FM-12+146199999V0209999C000010030019N0170001N1-00421-00611999999ADDGA1081+003009079GF108991081061004501999999MA1999999083091MD1810131+9999ME1312819REMSYN088AAXX  27094 16008 42467 80000 11042 21061 38309 48281 58013 886// 90845 333 88710 92800;
0220160080999992000122712004+45750+010520FM-12+146199999V0202201N002610030019N0220001N1-00361-00631999999ADDAA199000021AJ100089199999999GA1081+003009079GF108991081061004501999999IA1239MA1999999083041MD1710051+9999ME1312779REMSYN094AAXX  27124 16008 32472 82205 11036 21063 38304 48277 57005 886// 91145 333 47008 88710 92810;
0180160080999992000122715004+45750+010520FM-12+146199999V0209999C000010030019N0260001N1-00201-00681999999ADDGA1081+003009079GF108991081061004501999999MA1999999082901MD1610151+9999ME1312629REMSYN088AAXX  27154 16008 42476 80000 11020 21068 38290 48262 56015 886// 91445 333 88710 92810;
0258160080999992000122718004+45750+010520FM-12+146199999V0209999C000010030019N0200001N1-00501-00731999999ADDAA199000091AJ100089199999999GA1081+003009079GF108991081061004501999999IA1239KA1120M-00201MA1999999082811MD1810091+9999ME1312559REMSYN100AAXX  27184 16008 32470 80000 11050 21073 38281 48255 58009 886// 91745 333 11020 47008 88710 92810;EQDQ01  00002PRCP99
0180160080999992000122721004+45750+010520FM-12+146199999V0209999C000010030019N0200001N1-00521-00781999999ADDGA1081+003009079GF108991081061004501999999MA1999999082721MD1610091+9999ME1312479REMSYN088AAXX  27214 16008 42470 80000 11052 21078 38272 48247 56009 886// 92045 333 88710 92820;
0180160080999992000122803004+45750+010520FM-12+146199999V0200501N003110030019N0200001N1-00281-01041999999ADDGA1081+003009079GF108991081061004501999999MA1999999082811MD1310091+9999ME1312549REMSYN088AAXX  28034 16008 42470 80506 11028 21104 38281 48254 53009 886// 90245 333 88710 92820;
0258160080999992000122806004+45750+010520FM-12+146199999V0200501N003110030019N0220001N1-00181-01001999999ADDAA199000091AJ100089199999999GA1081+003009079GF108991081061004501999999IA1239KA1120N-00521MA1999999082801MD1810011+9999ME1312529REMSYN100AAXX  28064 16008 32472 80506 11018 21100 38280 48252 58001 886// 90545 333 21052 47008 88710 92820;EQDQ01  00002PRCP99
0180160080999992000122809004+45750+010520FM-12+146199999V0200401N003610030019N0240001N1-00381-00621999999ADDGA1081+003009079GF108991081061004501999999MA1999999082911MD1310111+9999ME1312649REMSYN088AAXX  28094 16008 42474 80407 11038 21062 38291 48264 53011 886// 90845 333 88710 92820;
0239160080999992000122812004+45750+010520FM-12+146199999V0200701N005110045019N0280001N1-00201-00541999999ADDAA199000091AJ100079199999999GA1061+004509089GF106991061021004501001001IA1249MA1999999082991MD1110081+9999ME1312719REMSYN094AAXX  28124 16008 32478 60710 11020 21054 38299 48271 51008 86200 91145 333 48007 86815 92823;EQDQ01  00002PRCP99
0180160080999992000122815004+45750+010520FM-12+146199999V0200701N005710045019N0260001N1+00001-00511999999ADDGA1071+004509089GF107991071021004501001001MA1999999083101MD1310101+9999ME1312809REMSYN088AAXX  28154 16008 42476 70711 10000 21051 38310 48280 53010 87200 91445 333 87815 92824;
0246160080999992000122818004+45750+010520FM-12+146199999V0200601N002112200019N0200001N1-00321-00621999999ADDAA199000091AJ100069199999999GA1001+999999999GF100991001001999999001001IA1249KA1120M+00021MA1999999083151MD1110061+9999ME1312879REMSYN088AAXX  28184 16008 32970 00604 11032 21062 38315 48287 51006 91745 333 10002 48006 92843;EQDQ01  00002PRCP99
0158160080999992000122821004+45750+010520FM-12+146199999V0209999C000012200019N0200001N1-00521-00851999999ADDGA1001+999999999GF100991001001999999001001MA1999999083201MD1310051+9999ME1312939REMSYN066AAXX  28214 16008 42970 00000 11052 21085 38320 48293 53005 92045;
0227160080999992000122900004+45750+010520FM-12+146199999V0209999C000012200019N0200001N1-00701-00951999999ADDAA199000091AJ100069199999999GA1001+999999999GF100991001001999999001001IA1249MA1999999083201MD1010001+9999ME1312949REMSYN082AAXX  29004 16008 32970 00000 11070 21095 38320 48294 50000 92345 333 48006 92843;EQDQ01  00002PRCP99
0168160080999992000122903004+45750+010520FM-12+146199999V0209999C000012200019N0200001N1-00821-01051999999ADDGA1001+999999999GF100991001001999999001001MA1999999083271MD1310071+9999ME1313019REMSYN076AAXX  29034 16008 42970 00000 11082 21105 38327 48301 53007 90245 333 92843;
0246160080999992000122906004+45750+010520FM-12+146199999V0200401N002112200019N0230001N1-00901-01181999999ADDAA199000091AJ100069199999999GA1001+999999999GF100991001001999999001001IA1249KA1120N-00901MA1999999083371MD1210101+9999ME1313119REMSYN088AAXX  29064 16008 32973 00404 11090 21118 38337 48311 52010 90545 333 21090 48006 92843;EQDQ01  00002PRCP99
0264160080999992000122912004+45750+010520FM-12+146199999V0200401N002610030019N0140001N1-00501-00651999999ADDAA106000791AJ100089199999999AL10600291AY171061AY211061GA1081+003009079GF108991081071004501999999IA1239MA1999999083041MD1710031+9999ME1312789MW1701REMSYN106AAXX  29124 16008 11464 80405 11050 21065 38304 48278 57003 69901 77071 887// 91145 333 47008 88710 93102;
0218160080999992000122915004+45750+010520FM-12+146199999V0200301N002610030019N0015001N1-00481-00561999999ADDAL10600391AY171031AY271031GA1081+003009079GF108991081071004501999999MA1999999083221MD1310181+9999ME1312959MW1711REMSYN094AAXX  29154 16008 41415 80305 11048 21056 38322 48295 53018 77177 887// 91445 333 88710 93103;
0283160080999992000122918004+45750+010520FM-12+146199999V0200501N002610045019N0035001N1-00601-00871999999ADDAA112000791AJ100129199999999AL10600191AY171061AY271061GA1081+004509079GF108991081061004501999999IA1239KA1120M-00461MA1999999083421MD1210191+9999ME1313149MW1101REMSYN112AAXX  29184 16008 11435 80505 11060 21087 38342 48314 52019 69902 71077 886// 91745 333 11046 47012 88715 93101;
0208160080999992000122921004+45750+010520FM-12+146199999V0200701N001510120019N0070001N1-00681-00961999999ADDAY121031AY221031GA1081+012009069GF108991081051012501999999MA1999999083441MD1110021+9999ME1313169MW1101REMSYN094AAXX  29214 16008 41657 80703 11068 21096 38344 48316 51002 71022 885// 92045 333 88640 92810;
0248160080999992000123000004+45750+010520FM-12+146199999V0200601N003112200019N0080001N1-00721-01011999999ADDAA199000021AJ100129199999999AY121061AY221061GA1031+012009089GF103991031021012501001001IA1239MA1999999083381MD1810061+9999ME1313119MW1101REMSYN100AAXX  30004 16008 31658 30606 11072 21101 38338 48311 58006 71022 83200 92345 333 47012 83840 92810;
0168160080999992000123003004+45750+010520FM-12+146199999V0200501N001512200019N0120001N1-00881-01191999999ADDGA1001+999999999GF100991001001999999001001MA1999999083371MD1610011+9999ME1313119REMSYN076AAXX  30034 16008 42962 00503 11088 21119 38337 48311 56001 90245 333 92810;
0246160080999992000123006004+45750+010520FM-12+146199999V0200301N001512200019N0200001N1-01201-01531999999ADDAA199000091AJ100129199999999GA1001+999999999GF100991001001999999001001IA1239KA1120N-01201MA1999999083401MD1310021+9999ME1313159REMSYN088AAXX  30064 16008 32970 00303 11120 21153 38340 48315 53002 90545 333 21120 47012 92810;EQDQ01  00002PRCP99
0168160080999992000123009004+45750+010520FM-12+146199999V0209999C000012200019N0200001N1-01301-01561999999ADDGA1001+999999999GF100991001001999999001001MA1999999083441MD1110041+9999ME1313209REMSYN076AAXX  30094 16008 42970 00000 11130 21156 38344 48320 51004 90845 333 92810;
0239160080999992000123012004+45750+010520FM-12+146199999V0200301N002612200019N0180001N1-00701-01341999999ADDAA199000091AJ100129199999999GA1031+010509089GF103991031021012501011001IA1239MA1999999083461MD1310021+9999ME1313189REMSYN094AAXX  30124 16008 32668 30305 11070 21134 38346 48318 53002 83210 91145 333 47012 83835 92830;EQDQ01  00002PRCP99
0180160080999992000123015004+45750+010520FM-12+146199999V0200401N001512200019N0180001N1-00501-01721999999ADDGA1031+010509089GF103991031011012501001001MA1999999083611MD1210151+9999ME1313319REMSYN088AAXX  30154 16008 42668 30403 11050 21172 38361 48331 52015 83100 91445 333 83835 92830;
0258160080999992000123018004+45750+010520FM-12+146199999V0209999C000012200019N0180001N1-00841-01391999999ADDAA199000091AJ100109199999999GA1021+012009089GF102991021011012501001001IA1239KA1120M-00261MA1999999083851MD1210251+9999ME1313569REMSYN100AAXX  30184 16008 32668 20000 11084 21139 38385 48356 52025 82100 91745 333 11026 47010 82840 92830;EQDQ01  00002PRCP99
0168160080999992000123021004+45750+010520FM-12+146199999V0209999C000012200019N0200001N1-01101-01421999999ADDGA1001+999999999GF100991001001999999001001MA1999999084131MD1210281+9999ME1313829REMSYN076AAXX  30214 16008 42970 00000 11110 21142 38413 48382 52028 92045 333 92830;
0227160080999992000123100004+45750+010520FM-12+146199999V0209999C000012200019N0200001N1-01201-01531999999ADDAA199000091AJ100109199999999GA1001+999999999GF100991001001999999001001IA1239MA1999999084371MD1210231+9999ME1314049REMSYN082AAXX  31004 16008 32970 00000 11120 21153 38437 48404 52023 92345 333 47010 92830;EQDQ01  00002PRCP99
0168160080999992000123103004+45750+010520FM-12+146199999V0200601N008712200019N0200001N1-01261-01611999999ADDGA1001+999999999GF100991001001999999001001MA1999999084521MD1210151+9999ME1314189REMSYN076AAXX  31034 16008 42970 00617 11126 21161 38452 48418 52015 90245 333 92830;
0258160080999992000123106004+45750+010520FM-12+146199999V0200301N002612200019N0200001N1-01201-01581999999ADDAA199000091AJ100109199999999GA1031+024009049GF103991031001022501011001IA1239KA1120N-01261MA1999999084661MD1210141+9999ME1314309REMSYN100AAXX  31064 16008 32870 30305 11120 21158 38466 48430 52014 83010 90545 333 21126 47010 83458 92830;EQDQ01  00002PRCP99
0168160080999992000123109004+45750+010520FM-12+146199999V0200201N003612200019N0180001N1-01201-01581999999ADDGA1001+999999999GF100991001001999999001001MA1999999084771MD1210121+9999ME1314409REMSYN076AAXX  31094 16008 42968 00207 11120 21158 38477 48440 52012 90845 333 92830;
0227160080999992000123112004+45750+010520FM-12+146199999V0200601N006212200019N0180001N1-00561-01741999999ADDAA199000091AJ100109199999999GA1001+999999999GF100991001001999999001001IA1239MA1999999084751MD1810021+9999ME1314389REMSYN082AAXX  31124 16008 32968 00612 11056 21174 38475 48438 58002 91145 333 47010 92830;EQDQ01  00002PRCP99
0168160080999992000123115004+45750+010520FM-12+146199999V0200501N004612200019N0180001N1-00381-01811999999ADDGA1001+999999999GF100991001001999999001001MA1999999084781MD1310031+9999ME1314409REMSYN076AAXX  31154 16008 42968 00509 11038 21181 38478 48440 53003 91445 333 92860;
