0161172820999992000010500004+37880+041120FM-12+0540LTCJ V0201201N002619999999N9999999N1+99999+99999100531ADDAA106001091AY161061AY221061GF108991071071999999021999MD1810101+9999MW1021REMSYN076AAXX  05004 17282 11/// 81205 100/0 40053 58010 60011 70262 8772/ 333 83//1;
0095172820999992000012813164+37880+041120FM-16+0540LTCJ V02099999999992200019N0050001N1+99999+99999999999ADDMW1001REMMET058LTCJ 1316Z WIQWPPETH WS LWMPS CAVOK 02/M01 Q1819 34495093;EQDQ01+000000PRSWM2
0210172820999992000021612004+37880+041120FM-12+0540LTCJ V0200801N001010105019N0200001N1+00671+00401101261ADDAA106002091AY121061AY221061GA1051+010509069GF108991051051012501021999MA1999999094891MD1210121+9999MW1601REMSYN094AAXX  16124 17282 11670 80802 10067 20040 39489 40126 52012 60021 76022 8552/ 333 85635 88459;
0155172820999992000031706004+37880+041120FM-12+0540LTCJ V0201301N001519999999N0200001N1+99999+99999999999ADDGF108991999999999999999999IA1149IA2999-00809MA1999999091781MD1410001+9999REMSYN070AAXX  17064 17282 /2970 81303 1/010 21076 39178 54000 333 21//2 34108;
0091172820999992000092506504+37880+041110FM-15+0540LTCJ V0202301N00101220001CN0099001N1+02501+01001999999ADDMA1101191999999MW1001REMMET039LTCJ 250650Z 23002KT CAVOK 25/10 Q1012;EQDQ01+000000PRSWM2
