0122225460999992000010209004+64570+039830FM-12+000199999V0201601N004012200019N0250001N1-02421-02661103051ADDGA1001+999999999GF100991001001999999001001MD1710011+9999REMSYN054AAXX  02091 22546 42975 01604 11242 21266 40305 57001;
0122225460999992000010212004+64570+039830FM-12+000199999V0201701N005012200019N0200001N1-02481-02731102941ADDGA1001+999999999GF100991001001999999001001MD1810111+9999REMSYN054AAXX  02121 22546 42998 01705 11248 21273 40294 58011;
0185225460999992000010309004+64570+039830FM-12+000199999V0201301N004010018019N0032001N1-01691-01881102261ADDAY171031AY221031GA1061+001809069GF108991999071001501021999MD1710061+9999MW1731REMSYN076AAXX  03091 22546 41232 81304 11169 21188 40226 57006 77372 8872/ 333 86706;EQDQ01+000082SCOTLC
0166225460999992000010409004+64570+039830FM-12+000199999V0201701N004010027019N0120001N1-01881-02071100941ADDAY171031AY221031GA1071+002709069GF107991071061002501001001MD1710221+9999MW1021REMSYN076AAXX  04091 22546 41362 71704 11188 21207 40094 57022 70272 87600 333 87709;
0140225460999992000010412004+64570+039830FM-12+000199999V0201301N004019999999N0100001N1-01891-02081100651ADDAY171061AY221061GF105991051001999999031001MD1710291+9999MW1021REMSYN066AAXX  04121 22546 41997 51304 11189 21208 40065 57029 70272 85030;
0140225460999992000010612004+64570+039830FM-12+000199999V0201401N001012200019N0100001N1-01791-01981101301ADDAY181061AY211061GF102991021001999999031001MD1110081+9999MW1011REMSYN066AAXX  06121 22546 41997 21401 11179 21198 40130 51008 70181 82030;
0140225460999992000010712004+64570+039830FM-12+000199999V0201601N004010042019N0040001N1-00471-00571099721ADDAY171061AY221061GF108991051071004501021999MD1710261+9999MW1711REMSYN066AAXX  07121 22546 41496 81604 11047 21057 49972 57026 77172 8572/;
0206225460999992000010803004+64570+039830FM-12+000199999V0202401N003012200019N0045001N1-00041-00131099621ADDAJ100279199999999GA1051+999999069GF199999001001999999001001IA1239MD1210131+9999REMSYN096AAXX  08031 22546 ///45 02403 11004 21013 49962 52013 885// 333 47027 8560/ 555 0130 +001+ 700<;EQDQ01+000002SCOTCV
0166225460999992000010812004+64570+039830FM-12+000199999V0201701N003010045019N0200001N1-00121-00291099581ADDAY181061AY271061GA1051+004509069GF108991081061004501999999MD1810131+9999MW1021REMSYN076AAXX  08121 22546 42498 81703 11012 21029 49958 58013 70287 886// 333 85715;
0112225460999992000010912004+64570+039830FM-12+000199999V0202601N011012200019N0200001N1+00241-00121099101ADDGF102991021061004501031001MD1210071+9999REMSYN060AAXX  09121 22546 42498 22611 10024 21012 49910 52007 82630;
0187225460999992000011006004+64570+039830FM-12+000199999V0202701N006010069019N0200001N1+00061-00201100141ADDAA106000091GA1071+006909059GF107991071051008001001001KA1120N+00081MD1210211+9999REMSYN076AAXX  10061 22546 32598 72706 10006 21020 40014 52021 87500 333 20008 87623;EQDQ01  00002PRCP06
0118225460999992000011012004+64570+039830FM-12+000199999V0202901N005010060019N0200001N1-00011-00241100431ADDGA1051+006009059GF108991081061004501999999REMSYN064AAXX  10121 22546 42498 82905 11001 21024 40043 886// 333 85620;
0170225460999992000011412004+64570+039830FM-12+000199999V0202301N002019999999N0100001N1-00671-00791101371ADDAY171061AY221061GA1041+006609059GF107991071999004501001001MD1210111+9999MW1201REMSYN080    AAXX  14121 22546 41497 72302 11067 21079 40137 52011 72072 87/00 333 84622;
0220225460999992000011503004+64570+039830FM-12+000199999V0202401N004012200019N0200001N1-00821-00921101281ADDAA112000391AJ100249199999999AY171031AY221031GA1001+999999999GF100991001001999999001001IA1239MD1710081+9999MW1021REMSYN096    AAXX  15031 22546 /1998 02404 11082 21092 40128 57008 70272 333 47024 555 21082 69932 7993/;
0189225460999992000011712004+64570+039830FM-12+000199999V0201501N003010033019N0100001N1-00441-00601097671ADDAY171061AY221061GA1051+003309069GF108991999071004501021999MD1310031+9999MW1711REMSYN080    AAXX  17121 22546 41497 81503 11044 21060 49767 53003 77172 8872/ 333 85711;EQDQ01+000082SCOTLC
0144225460999992000011812004+64570+039830FM-12+000199999V0200601N003012200019N0170001N1-01051-01251099311ADDAY171061AY211061GF104991001001999999001011MD1210191+9999MW1011REMSYN070    AAXX  18121 22546 41967 40603 11105 21125 49931 52019 70171 80001;
0144225460999992000011912004+64570+039830FM-12+000199999V0200901N002010300019N0034001N1-01191-01391099811ADDAY171061AY221061GF108991031071004501021999MD1810011+9999MW1711REMSYN070    AAXX  19121 22546 41434 80902 11119 21139 49981 58001 77172 8372/;
0140225460999992000012112004+64570+039830FM-12+000199999V0200301N004019999999N0039001N1-00901-01011098221ADDAY171061AY231061GF108991081001999999021999MD1310021+9999MW1711REMSYN066AAXX  21121 22546 41939 80304 11090 21101 49822 53002 77173 8802/;
0112225460999992000012212004+64570+039830FM-12+000199999V0209999C000019999999N0100001N1-02071-02261099321ADDGF107991001001999999001011MD1110061+9999REMSYN060AAXX  22121 22546 42960 70000 11207 21226 49932 51006 80001;
0123225460999992000012412004+64570+039830FM-12+000199999V0200601N001019999999N0110001N1+99999+99999101991ADDGF107991001001999999001011REMSYN066AAXX  24121 22546 4/561 70601 111/8 21207 40199 5//12 70287 80001;EQDQ01+008002SCOLCB
0140225460999992000012709004+64570+039830FM-12+000199999V0201801N002010021019N0032001N1-01621-01881098381ADDAY171031AY221031GF108991051071002501021999MD1810101+9999MW1731REMSYN066AAXX  27091 22546 41332 81802 11162 21188 49838 58010 77372 8572/;
0112225460999992000012812004+64570+039830FM-12+000199999V0202101N003010300019N0260001N1-01141-01341098871ADDGF106991021051012501031011MD1210071+9999REMSYN060AAXX  28121 22546 42676 62103 11114 21134 49887 52007 82531;
0152225460999992000020106004+64570+039830FM-12+000199999V0201901N004019999999N0200001N1-01201-01401097921ADDAA100000791GF106991061011999999031001KA1999N-01181MD1710151+9999REMSYN076AAXX  01061 22546 11998 61904 11120 21140 49792 57015 69900 86130 333 21118;
0140225460999992000020112004+64570+039830FM-12+000199999V0201701N003019999999N0140001N1-00681-00841097651ADDAY171061AY211061GF108991081001999999021999MD1710131+9999MW1711REMSYN066AAXX  01121 22546 41964 81703 11068 21084 49765 57013 77171 8802/;
0154225460999992000020306004+64570+039830FM-12+000199999V0202201N002019999999N0040001N1-00961-01081098231ADDAA100002091AY171061AY221061KA1999N-00951MD1310041+9999MW1711REMSYN082AAXX  03061 22546 11796 /2202 11096 21108 49823 53004 60020 77172 8651/ 333 21095;
0118225460999992000020312004+64570+039830FM-12+000199999V0209999C000010300019N0160001N1-00811-00911999999ADDGF108991031071004501021999MD1210151+9999REMSYN066AAXX  03121 22546 4/466 80000 11081 21091 49/50 52015 77187 8372/;
0166225460999992000020412004+64570+039830FM-12+000199999V0202501N002010030019N0270001N1-00601-00711099491ADDAY181061AY231061GA1051+003009069GF107991071091004501001001MD1810021+9999MW1261REMSYN076AAXX  04121 22546 41477 72502 11060 21071 49949 58002 72683 87900 333 85710;
0229225460999992000020803004+64570+039830FM-12+000199999V0201801N003010027019N0200001N1-00171-00251099081ADDAA199000091AJ199999999999999GA1081+002709079GF108991081061002501999999IA1239MD1710171+9999REMSYN092AAXX  08031 22546 32398 81803 11017 21025 49908 57017 886// 333 47428 88709 555 21055 7003/;EQDQ01  00002PRCP99Q02  04282SNDP  
0232225460999992000021303004+64570+039830FM-12+000199999V0202501N003012200019N0200001N1+99999+99999999999ADDAA112999999AA224999999AJ100379199999999GA1001+999999999GF100991001001999999001001IA1239MD1210091+9999REMSYN084AAXX  13031 22546 /2998 02503 21068 4/068 52009 333 47037 555 21170 69902 7990/ /5,;EQDQ01  99992PRCP12Q02  99992PRCP24
0144225460999992000022012004+64570+039830FM-12+000199999V0201901N003010054019N0250001N1-00531-00861101571ADDGA1071+005409059GF107991071051004501999999MD1210051+9999REMSYN076AAXX  20121 22546 4/475 71903 11053 21086 40157 52005 70372 875// 333 87618;
0140225460999992000022109004+64570+039830FM-12+000199999V0201601N002010042019N0060001N1-00661-00821101511ADDAY171031AY221031GF108991071071004501011999MD1410001+9999MW1711REMSYN066AAXX  21091 22546 41456 81602 11066 21082 40151 54000 77172 8771/;
0140225460999992000022112004+64570+039830FM-12+000199999V0203401N001010042019N0025001N1-00481-00611101521ADDAY181061AY271061GF108991081091004501999999MD1310011+9999MW1861REMSYN066AAXX  21121 22546 41425 83401 11048 21061 40152 53001 78687 889//;
0166225460999992000022312004+64570+039830FM-12+000199999V0203301N004010021019N0260001N1-00731-00781102331ADDAY171061AY221061GA1071+002109069GF107991071061002501001001MD1810021+9999MW1021REMSYN076AAXX  23121 22546 41376 73304 11073 21078 40233 58002 70272 87600 333 87707;
0132225460999992000022512004+64570+039830FM-12+000199999V0209999C000012200019N0290001N1-01341+99999999999ADDAA100999999GA1001+999999999GF100991001001999999001001REMSYN048AAXX  25121 22546 41979 00000 11134 21102 6710/;EQDQ01  70992PRCP00
0098225460999992000022712004+64570+039830FM-12+000199999V0202101N004019999999N0350001N1-01111+99999101901ADDGF107991999999999999999999REMSYN060AAXX  27121 22546 42981 72104 11111 211/9 4019/ 97015 87070;
0206225460999992000030103004+64570+039830FM-12+000199999V0201501N004019999999N0100001N1-01721-01911100081ADDAA112999929AJ100519199999999AY171031AY221031GF108991081001999999021999IA1239MD1810101+9999MW1711REMSYN098AAXX  01031 22546 /1997 81504 11172 21191 40008 58010 77172 8802/ 333 47051 555 21194 69902 7004/;
0140225460999992000030109004+64570+039830FM-12+000199999V0201901N003010021019N0080001N1-00961-01171099611ADDAY181031AY271031GF107991061091002501071001MD1710221+9999MW1851REMSYN066AAXX  01091 22546 41358 71903 11096 21117 49961 57022 78587 86970;
0166225460999992000030112004+64570+039830FM-12+000199999V0202201N004010096019N0140001N1+00061-00081099601ADDAY181061AY271061GA1051+009609059GF108991081091008001999999MD1610011+9999MW1851REMSYN076AAXX  01121 22546 41564 82204 10006 21008 49960 56001 78587 889// 333 85632;
0171225460999992000030306004+64570+039830FM-12+000199999V0202301N002010120019N0400001N1-00301-00501099141ADDAA100002091GF107991071051012501001001KA1999N+99999MD1210011+9999REMSYN076AAXX  03061 22546 12682 72302 11030 2105/ 49914 52001 60020 87500 333 21006;EQDQ01 -00062ATMN  
0140225460999992000030309004+64570+039830FM-12+000199999V0202701N006010042019N0210001N1-00501-00861099241ADDAY181031AY271031GF107991071091004501001001MD1310101+9999MW1851REMSYN066AAXX  03091 22546 41471 72706 11050 21086 49924 53010 78587 87900;
0114225460999992000030312004+64570+039830FM-12+000199999V0202501N008019999999N9999999N1-00491-00941099411ADDAY181061AY271061MD1210101+9999MW1011REMSYN066AAXX  03121 22546 414/2 /2508 11049 21094 49941 5201/ 70187 82501;
0140225460999992000030612004+64570+039830FM-12+000199999V0209999C000010042019N0120001N1-00371-00591100111ADDAY171061AY221061GF107991071061004501001001MD1810031+9999MW1771REMSYN066AAXX  06121 22546 41462 70000 11037 21059 40011 58003 77772 87600;
0172225460999992000030706004+64570+039830FM-12+000199999V0201701N005010300019N0026001N1-00661-00861098741ADDAA100000191AY131061GF108991041071004501021999KA1999N-00701MD1710311+9999MW1771REMSYN082AAXX  07061 22546 11426 81705 11066 21086 49874 57031 69920 7773/ 8472/ 333 21070;
0134225460999992000030712004+64570+039830FM-12+000199999V0201501N005010300019N0036001N1+99999+99999098211ADDAY171061AY231061GF108991041071004501021999MD1710231+9999MW1731REMSYN060AAXX  07121 22546 41436 81505 21072 49821 57023 77373 8472/;
0180225460999992000030806004+64570+039830FM-12+000199999V0202101N003010042019N0060001N1-00321-00531097781ADDAA100002091AY171061AY221061GF108991061071004501021999KA1999N-00421MD1310031+9999MW1711REMSYN082AAXX  08061 22546 11456 82103 11032 21053 49778 53003 60020 77172 8672/ 333 21042;
0121225460999992000030809004+64570+039830FM-12+000199999V02099999999999999999N0200001N1+99999+99999098872ADDAY171031AY211031MD1210091+9999MW1031REMSYN054AAXX  08091 22546 41470 //210 49887 52009 70371 83600;EQDQ01+098873APOSLP
0181225460999992000030906004+64570+039830FM-12+000199999V0201701N003019999999N0190001N1-01271-01401098091ADDAA199000091GF108991021001999999031081KA1999N+99999MD1310041+9999REMSYN070AAXX  09061 22546 32969 81703 11127 21140 49809 53004 82038 333 21120;EQDQ01  00002PRCP99Q02 -01202ATMN  
0140225460999992000031009004+64570+039830FM-12+000199999V0200101N003019999999N0070001N1-01181-01241098981ADDAY181031AY271031GF107991071001999999011001MD1210091+9999MW1711REMSYN066AAXX  10091 22546 41957 70103 11118 21124 49898 52009 77187 87010;
0242225460999992000031203004+64570+039830FM-12+000199999V0203101N007010027019N0040001N1-00501-00631099181ADDAA112001091AA224002091AJ100519199999999AY171031AY231031GA1051+002709079GF108991051071002501021999IA1239MD1310021+9999MW1711REMSYN107AAXX  12031 22546 /1396 83107 11050 21063 49918 53002 77173 8572/ 333 47051 85709 555 21091 60012 7002/ /-;
0152225460999992000031306004+64570+039830FM-12+000199999V0202401N004019999999N0230001N1-00891-01131100801ADDAA100000791GF107991001001999999011999KA1999N-00871MD1210241+9999REMSYN076AAXX  13061 22546 12973 72404 11089 21113 40080 52024 69900 8001/ 333 21087;
0112225460999992000031309004+64570+039830FM-12+000199999V0202001N003012200019N0260001N1-00451-01061100961ADDGF102991001001999999001011MD1210161+9999REMSYN060AAXX  13091 22546 42976 22003 11045 21106 40096 52016 80001;
0112225460999992000031312004+64570+039830FM-12+000199999V0202101N004019999999N0220001N1-00241-01121101031ADDGF107991001001999999001061MD1110071+9999REMSYN060AAXX  13121 22546 42972 72104 11024 21112 40103 51007 80006;
0140225460999992000031409004+64570+039830FM-12+000199999V0201801N006019999999N0270001N1-00241-00901100311ADDAY131031AY221031GF108991081001999999011999MD1710031+9999MW1361REMSYN066AAXX  14091 22546 41977 81806 11024 2109/ 40031 57003 73632 8801/;
0118225460999992000031412004+64570+039830FM-12+000199999V0201801N006019999999N0270001N1-00111-00991100211ADDGF108991081001999999011999MD1810101+9999REMSYN066AAXX  14121 22546 41977 81806 11011 21099 40021 58010 73//2 8801/;
0228225460999992000031503004+64570+039830FM-12+000199999V0201701N004010027019N0200001N1-00231-00381099771ADDAA112000991AJ100519199999999AY171031AY231031GA1081+002709079GF108991081061002501999999IA1239MD1510001+9999MW1021REMSYN104AAXX  15031 22546 /1398 81704 11023 21038 49977 55000 70273 886// 333 47051 88709 555 21038 69992 7999/;
0200225460999992000031603004+64570+039830FM-12+000199999V0201401N004010030019N0200001N1-00021-00111100741ADDAA112000491AJ100519199999999GA1081+003009079GF108991081061004501999999IA1279MD1210081+9999REMSYN098AAXX  16031 22546 /2498 81404 11002 21011 40074 52008 886// 333 43051 88710 555 21004 69942 7994/;
0202225460999992000031606004+64570+039830FM-12+000199999V0201501N003010033019N0210001N1-00041-00131100921ADDAA100000591AY171061AY221061GA1081+003309069GF108991081061004501999999KA1120N-00041MD1310181+9999MW1711REMSYN088AAXX  16061 22546 11471 81503 11004 21013 40092 53018 69940 77172 886// 333 21004 88711;
0140225460999992000031609004+64570+039830FM-12+000199999V0201401N004010042019N0110001N1+00011-00191101071ADDAY171031AY221031GF108991051071004501011999MD1210151+9999MW1711REMSYN066AAXX  16091 22546 41461 81404 10001 21019 40107 52015 77172 8571/;
0126225460999992000031612004+64570+039830FM-12+000199999V0201801N004019999999N9999999N1+00121-00271101251ADDAW1021AZ171061GF107991999999017501999999MD1210181+9999REMSYN060AAXX  16121 22546 4573/ 71804 10012 21027 40125 52018 70272;
0187225460999992000031706004+64570+039830FM-12+000199999V0201401N002010090019N0300001N1-00011-00151102211ADDAA199000091GA1071+009009059GF107991071051008001999999KA1120N-00041MD1210181+9999REMSYN076AAXX  17061 22546 32580 71402 11001 21015 40221 52018 875// 333 21004 87630;EQDQ01  00002PRCP99
0112225460999992000031709004+64570+039830FM-12+000199999V0201101N003010075019N0200001N1+00111-00231102321ADDGF107991071051008001999999MD1210111+9999REMSYN060AAXX  17091 22546 42570 71103 10011 21023 40232 52011 875//;
0175225460999992000031806004+64570+039830FM-12+000199999V0201401N002012200019N0110001N1-00491-00661102571ADDAA199000091GA1001+999999999GF100991001001999999001001KA1999N-00601MD1210041+9999REMSYN064AAXX  18061 22546 32961 01402 11049 21066 40257 52004 333 21060;EQDQ01  00002PRCP99
0122225460999992000031809004+64570+039830FM-12+000199999V0201201N002012200019N0150001N1-00081-00501102531ADDGA1001+999999999GF100991001001999999001001MD1810041+9999REMSYN054AAXX  18091 22546 42965 01202 11008 21050 40253 58004;
0122225460999992000031812004+64570+039830FM-12+000199999V0201901N003012200019N0190001N1+00251-00651102521ADDGA1001+999999999GF100991001001999999001001MD1610011+9999REMSYN054AAXX  18121 22546 42969 01903 10025 21065 40252 56001;
0209225460999992000031906004+64570+039830FM-12+000199999V0202001N002010120019N0230001N1-00781+99999102231ADDAA199000091AY171061AY221061GF107991071051012501001001KA1999N+99999MD1710141+9999MW1021REMSYN076AAXX  19061 22546 31673 72002 11078 21036 40223 57014 70272 87500 333 21021;EQDQ01  00002PRCP99Q02 -00212ATMN  
0112225460999992000031909004+64570+039830FM-12+000199999V0202301N003012200019N0300001N1+00151-00331102171ADDGF106991041031008001001011MD1610061+9999REMSYN060AAXX  19091 22546 42580 62303 10015 21033 40217 56006 84301;
0092225460999992000031912004+64570+039830FM-12+000199999V0202501N004010075019N0350001N1+00101-00431102131ADDGF107991071051008001001001REMSYN054AAXX  19121 22546 42581 72504 10010 21043 40213 87500;
0171225460999992000032006004+64570+039830FM-12+000199999V0202001N006010300019N0120001N1-00121-00291999999ADDAA199000021GF108991031071004501021999KA1999N-00121MD1710522+9999MW1781REMSYN070AAXX  20061 22546 31462 82006 11012 21029 57052 778// 8372/ 333 21012;EQDQ01+000522APC3  
0126225460999992000032012004+64570+039830FM-12+000199999V0202401N008019999999N0350001N1+00141-00181999999ADDAY171061GF107991999999004501999999MD1610111+9999MW1021REMSYN060AAXX  20121 22546 41481 72408 10014 21018 49/38 56011 7027/;
0112225460999992000032112004+64570+039830FM-12+000199999V0202501N009012200019N0350001N1+00091-00711099911ADDGF101991011011008001001001MD1210091+9999REMSYN060AAXX  21121 22546 42581 12509 10009 21071 49991 52009 81100;
0201225460999992000032203004+64570+039830FM-12+000199999V02099999999992200019N0200001N1-00461-00851099781ADDAA199000091AJ100499199999999GA1001+999999999GF100991001001999999001001IA1279MD1810061+9999REMSYN080AAXX  22031 22546 32998 0240/ 11046 21085 49978 58006 333 43049 555 21046 7000/;EQDQ01  00002PRCP99
0175225460999992000032206004+64570+039830FM-12+000199999V0202501N005012200019N0400001N1-00311-00731099741ADDAA199000091GA1001+999999999GF100991001001999999001001KA1999N-00401MD1710041+9999REMSYN064AAXX  22061 22546 32982 02505 11031 21073 49974 57004 333 2104/;EQDQ01  00002PRCP99
0122225460999992000032209004+64570+039830FM-12+000199999V0202501N006012200019N0400001N1+00021-00741099721ADDGA1001+999999999GF100991001001999999001001MD1710021+9999REMSYN054AAXX  22091 22546 42982 02506 10002 21074 49972 57002;
0122225460999992000032212004+64570+039830FM-12+000199999V0202501N006012200019N0400001N1+00091-00951099711ADDGA1001+999999999GF100991001001999999001001MD1710021+9999REMSYN054AAXX  22121 22546 42982 02506 10009 21095 49971 57002;
0112225460999992000032312004+64570+039830FM-12+000199999V0202601N002012200019N0290001N1+00121-00741099991ADDGF101991011011008001001001MD1610011+9999REMSYN060AAXX  23121 22546 42579 12602 10012 21074 49999 56001 81100;
0118225460999992000032512004+64570+039830FM-12+000199999V0203401N002010750019N0350001N1-00121+99999100311ADDGF107991031071002501001091MD1210191+9999MW1011REMSYN060AAXX  25121 22546 41381 73402 11012 40031 52019 701/8 83709;
0213225460999992000032603004+64570+039830FM-12+000199999V0203501N003010042019N0200001N1-00381-00601100771ADDAA199000091AJ100489199999999GA1081+004209079GF108991081061004501999999IA1279MD1110031+9999REMSYN092AAXX  26031 22546 32498 83503 11038 21060 40077 51003 886// 333 43048 88714 555 21040 7000/;EQDQ01  00002PRCP99
0160225460999992000032609004+64570+039830FM-12+000199999V0202701N001010048019N0300001N1-00271-00681999999ADDAY171031AY221031GA1051+004809059GF107991071051004501001001MD1219999+9999MW1021REMSYN070AAXX  26091 22546 41480 72701 11027 21068 52/07 70272 87500 333 85616;
0202225460999992000032706004+64570+039830FM-12+000199999V0203301N005010030019N0100001N1-00451-00651101621ADDAA100000791AY171061AY221061GA1081+003009069GF108991081061004501999999KA1120N-00741MD1210191+9999MW1771REMSYN088AAXX  27061 22546 11460 83305 11045 21065 40162 52019 69900 77772 886// 333 21074 88710;
0165225460999992000033106004+64570+039830FM-12+000199999V0203301N007010300019N0400001N1+00011-00281099561ADDAA199000091GF107991021051012501031011KA1999N+00061MD1210351+9999REMSYN070AAXX  31061 22546 32682 73307 10001 21028 49956 52035 82531 333 20006;EQDQ01  00002PRCP99
0122225460999992000033109004+64570+039830FM-12+000199999V0203301N008012200019N0350001N1-00101-00461100081ADDGA1001+999999999GF100991001001999999001001MD1210521+9999REMSYN054AAXX  31091 22546 42981 03308 11010 21046 40008 52052;
0180225460999992000040106004+64570+039830FM-12+000199999V0201201N002010042019N0022001N1-00281-00411100101ADDAA100001091AY171061AY221061GF108991071071004501011999KA1999N-00441MD1710231+9999MW1731REMSYN082AAXX  01061 22546 11422 81202 11028 21041 40010 57023 69990 77372 8771/ 333 21044;
0166225460999992000040109004+64570+039830FM-12+000199999V0201401N003010030019N0150001N1+00121-01141099961ADDAY171031AY221031GA1081+003009069GF108991081061004501999999MD1710141+9999MW1021REMSYN076AAXX  01091 22546 41465 81403 10012 21114 49996 57014 70272 886// 333 88710;
0201225460999992000040112004+64570+039830FM-12+000199999V0201601N082020030019N0170001N1+00301+00062099831ADDAY171061AY261061GA1061+003009069GF108991061071004501021999MD1710131+9999MW1611REMSYN076AAXX  01121 22546 41467 81682 10030 20006 49983 57013 76176 8672/ 333 86710;EQDQ01+008203WOSPD Q02+000063ATOD  
0165225460999992000040506004+64570+039830FM-12+000199999V0201401N003019999999N0290001N1-00341-00941101491ADDAA199000091GF108991081001999999071999KA1999N-00461MD1810151+9999REMSYN070AAXX  05061 22546 32979 81403 11034 21094 40149 58015 8807/ 333 21046;EQDQ01  00002PRCP99
