0147232560999992000010100004+67470+078730FM-12+000899999V0209999C000012200019N0200001N1-03501-03871999999ADDGA1001+999999999GF100991001001999999001001MA1999999100361MD1710041+9999REMSYN064AAXX  01001 23256 42998 00000 11350 21387 30036 57004 333 93602;
0191232560999992000010103004+67470+078730FM-12+000899999V0200801N001012200019N0200001N1-03521-03871103981ADDAA106000091AJ100339199999999GA1001+999999999GF100991001001999999001001IA1249MD1710041+9999REMSYN070AAXX  01031 23256 32998 00801 11352 21387 40398 57004 333 48033 55000;EQDQ01  00002PRCP06
0197232560999992000010106004+67470+078730FM-12+000899999V0201201N001012200019N0200001N1-03771-04111103941ADDAA106000091GA1001+999999999GF100991001001999999001001KA1120N+99999MD1710051+9999REMSYN070AAXX  01061 23256 32998 01201 11377 21411 40394 57005 333 21368 93602;EQDQ01  00002PRCP06Q02 -03682ATMN  
0122232560999992000010109004+67470+078730FM-12+000899999V0201201N002012200019N0200001N1-04081-04441103921ADDGA1001+999999999GF100991001001999999001001MD1710021+9999REMSYN054AAXX  01091 23256 42998 01202 11408 21444 40392 57002;
0153232560999992000010112004+67470+078730FM-12+000899999V0201101N002012200019N0200001N1-04201-04551103971ADDGA1001+999999999GF100991001001999999001001MA1999999103562MD1210051+9999REMSYN070AAXX  01121 23256 42998 01102 11420 21455 30356 40397 52005 333 93602;
0175232560999992000010115004+67470+078730FM-12+000899999V0201101N002012200019N0200001N1-04181-04491103941ADDAA106000091GA1001+999999999GF100991001001999999001001KA1999M-03521MD1710031+9999REMSYN064AAXX  01151 23256 32998 01102 11418 21449 40394 57003 333 11352;EQDQ01  00002PRCP06
0181232560999992000010118004+67470+078730FM-12+000899999V0201201N003012200019N0200001N1-04231-04551103931ADDAA106000091GA1001+999999999GF100991001001999999001001KA1120M-03521MD1710011+9999REMSYN070AAXX  01181 23256 32998 01203 11423 21455 40393 57001 333 11352 93602;EQDQ01  00002PRCP06
0122232560999992000010121004+67470+078730FM-12+000899999V0201101N002012200019N0200001N1-04321-04681103941ADDGA1001+999999999GF100991001001999999001001MD1410001+9999REMSYN054AAXX  01211 23256 42998 01102 11432 21468 40394 54000;
0153232560999992000010200004+67470+078730FM-12+000899999V0201001N003012200019N0200001N1-04371-04681103981ADDGA1001+999999999GF100991001001999999001001MA1999999103561MD1210041+9999REMSYN070AAXX  02001 23256 42998 01003 11437 21468 30356 40398 52004 333 93602;
0191232560999992000010203004+67470+078730FM-12+000899999V0200901N003012200019N0200001N1-04421-04751103951ADDAA106000091AJ100339199999999GA1001+999999999GF100991001001999999001001IA1249MD1710031+9999REMSYN070AAXX  02031 23256 32998 00903 11442 21475 40395 57003 333 48033 55000;EQDQ01  00002PRCP06
0181232560999992000010206004+67470+078730FM-12+000899999V0201001N002012200019N0200001N1-04451-04751103971ADDAA106000091GA1001+999999999GF100991001001999999001001KA1120N-04421MD1210021+9999REMSYN070AAXX  02061 23256 32998 01002 11445 21475 40397 52002 333 21442 93602;EQDQ01  00002PRCP06
0122232560999992000010209004+67470+078730FM-12+000899999V0200501N001012200019N0200001N1-04421-04751104011ADDGA1001+999999999GF100991001001999999001001MD1210041+9999REMSYN054AAXX  02091 23256 42998 00501 11442 21475 40401 52004;
0153232560999992000010212004+67470+078730FM-12+000899999V0200501N001012200019N0200001N1-04361-04681104051ADDGA1001+999999999GF100991001001999999001001MA1999999103631MD1210041+9999REMSYN070AAXX  02121 23256 42998 00501 11436 21468 30363 40405 52004 333 93602;
0175232560999992000010215004+67470+078730FM-12+000899999V0200501N001012200019N0200001N1-04241-04551104051ADDAA106000091GA1001+999999999GF100991001001999999001001KA1999M-04241MD1210011+9999REMSYN064AAXX  02151 23256 32998 00501 11424 21455 40405 52001 333 11424;EQDQ01  00002PRCP06
0181232560999992000010218004+67470+078730FM-12+000899999V0202901N002012200019N0200001N1-04261-04611104071ADDAA106000091GA1001+999999999GF100991001001999999001001KA1120M-04241MD1210011+9999REMSYN070AAXX  02181 23256 32998 02902 11426 21461 40407 52001 333 11424 93603;EQDQ01  00002PRCP06
0122232560999992000010221004+67470+078730FM-12+000899999V0203101N002012200019N0200001N1-04191-04551104061ADDGA1001+999999999GF100991001001999999001001MD1410001+9999REMSYN054AAXX  02211 23256 42998 03102 11419 21455 40406 54000;
0153232560999992000010300004+67470+078730FM-12+000899999V0202601N001012200019N0200001N1-04011-04331104071ADDGA1001+999999999GF100991001001999999001001MA1999999103661MD1210011+9999REMSYN070AAXX  03001 23256 42998 02601 11401 21433 30366 40407 52001 333 93602;
0209232560999992000010303004+67470+078730FM-12+000899999V0202601N003012200019N0040001N1-04011-04331104091ADDAA106000091AJ100339199999999AY101031AY201031GF103991001001999999001011IA1249MD1210021+9999MW1041REMSYN082AAXX  03031 23256 31996 32603 11401 21433 40409 52002 70400 80001 333 48033 55000;EQDQ01  00002PRCP06
0180232560999992000010306004+67470+078730FM-12+000899999V0202301N002019999999N0020001N1-03791-04151104061ADDAA106000021AY171061AY211061GF108991001001999999001061KA1120N-04331MD1710031+9999MW1711REMSYN082AAXX  03061 23256 31995 82302 11379 21415 40406 57003 77171 80006 333 21433 93602;
0140232560999992000010309004+67470+078730FM-12+000899999V0201501N002019999999N0020001N1-03901-04241104161ADDAY171031AY221031GF105991001001999999001011MD1210101+9999MW1021REMSYN066AAXX  03091 23256 41995 51502 11390 21424 40416 52010 70272 80001;
0181232560999992000010312004+67470+078730FM-12+000899999V0201201N003012200019N0200001N1-04181-04491104261ADDAY171061AY211061GA1001+999999999GF100991001001999999001001MA1999999103851MD1210101+9999MW1041REMSYN076AAXX  03121 23256 41998 01203 11418 21449 30385 40426 52010 70471 333 93602;
0203232560999992000010315004+67470+078730FM-12+000899999V0201201N005012200019N0010001N1-04381-04681104321ADDAA106000091AY101031AY201031GA1001+999999999GF100991001001999999001001KA1999M-03791MD1210051+9999MW1041REMSYN070AAXX  03151 23256 31994 01205 11438 21468 40432 52005 70400 333 11379;EQDQ01  00002PRCP06
0196232560999992000010318004+67470+078730FM-12+000899999V0201201N004012200019N0200001N1-04471-04831104371ADDAA100000791AY101061AY201061GA1001+999999999GF100991001001999999001001KA1120M-03791MD1210051+9999MW1041REMSYN082AAXX  03181 23256 11998 01204 11447 21483 40437 52005 69900 70400 333 11379 93602;
0150232560999992000010321004+67470+078730FM-12+000899999V0201201N003012200019N0010001N1-04471-04831104421ADDAY101031AY201031GA1001+999999999GF100991001001999999001001MD1210051+9999MW1021REMSYN060AAXX  03211 23256 41994 01203 11447 21483 40442 52005 70200;
0181232560999992000010400004+67470+078730FM-12+000899999V0201201N003012200019N0010001N1-04501-04831104561ADDAY101061AY201061GA1001+999999999GF100991001001999999001001MA1999999104141MD1210141+9999MW1041REMSYN076AAXX  04001 23256 41994 01203 11450 21483 30414 40456 52014 70400 333 99602;
0219232560999992000010403004+67470+078730FM-12+000899999V0201101N003012200019N0010001N1-04521-04831104631ADDAA106000091AJ100339199999999AY101031AY201031GA1001+999999999GF100991001001999999001001IA1249MD1210071+9999MW1041REMSYN076AAXX  04031 23256 31994 01103 11452 21483 40463 52007 70400 333 48033 55000;EQDQ01  00002PRCP06
0209232560999992000010406004+67470+078730FM-12+000899999V0201101N003012200019N0020001N1-04501-04831104691ADDAA106000091AY101061AY201061GA1001+999999999GF100991001001999999001001KA1120N-04541MD1210061+9999MW1041REMSYN076AAXX  04061 23256 31995 01103 11450 21483 40469 52006 70400 333 21454 93602;EQDQ01  00002PRCP06
0150232560999992000010409004+67470+078730FM-12+000899999V0201101N003012200019N0020001N1-04471-04831104851ADDAY101031AY201031GA1001+999999999GF100991001001999999001001MD1210161+9999MW1041REMSYN060AAXX  04091 23256 41995 01103 11447 21483 40485 52016 70400;
0181232560999992000010412004+67470+078730FM-12+000899999V0201201N004012200019N0010001N1-04441-04751104931ADDAY101061AY201061GA1001+999999999GF100991001001999999001001MA1999999104511MD1210091+9999MW1041REMSYN076AAXX  04121 23256 41994 01204 11444 21475 30451 40493 52009 70400 333 93602;
0203232560999992000010415004+67470+078730FM-12+000899999V0201101N004012200019N0010001N1-04451-04751104961ADDAA106000091AY101031AY201031GA1001+999999999GF100991001001999999001001KA1999M-04441MD1210031+9999MW1041REMSYN070AAXX  04151 23256 31994 01104 11445 21475 40496 52003 70400 333 11444;EQDQ01  00002PRCP06
0150232560999992000010421004+67470+078730FM-12+000899999V0201201N004012200019N0010001N1-04461-04751105121ADDAY101031AY201031GA1001+999999999GF100991001001999999001001MD1210021+9999MW1041REMSYN060AAXX  04211 23256 41994 01204 11446 21475 40512 52002 70400;
0181232560999992000010500004+67470+078730FM-12+000899999V0201201N002012200019N0010001N1-04481-04831105161ADDAY101061AY201061GA1001+999999999GF100991001001999999001001MA1999999104741MD1210041+9999MW1041REMSYN076AAXX  05001 23256 41994 01202 11448 21483 30474 40516 52004 70400 333 93602;
0219232560999992000010503004+67470+078730FM-12+000899999V0201101N003012200019N0010001N1-04521-04831105171ADDAA106000091AJ100339199999999AY101031AY201031GA1001+999999999GF100991001001999999001001IA1249MD1210011+9999MW1041REMSYN076AAXX  05031 23256 31994 01103 11452 21483 40517 52001 70400 333 48033 55000;EQDQ01  00002PRCP06
0209232560999992000010506004+67470+078730FM-12+000899999V0201301N003012200019N0010001N1-04521-04831105201ADDAA106000091AY101061AY201061GA1001+999999999GF100991001001999999001001KA1120N-04521MD1210031+9999MW1041REMSYN076AAXX  05061 23256 31994 01303 11452 21483 40520 52003 70400 333 21452 93602;EQDQ01  00002PRCP06
0130232560999992000010509004+67470+078730FM-12+000899999V0201301N003012200019N0010001N1-04501-04831105221ADDAY101031AY201031GA1001+999999999GF100991001001999999001001MW1041REMSYN054AAXX  05091 23256 41994 01303 11450 21483 40522 70400;
0181232560999992000010512004+67470+078730FM-12+000899999V0201201N003012200019N0010001N1-04491-04831105221ADDAY101061AY201061GA1001+999999999GF100991001001999999001001MA1999999104801MD1410001+9999MW1041REMSYN076AAXX  05121 23256 41994 01203 11449 21483 30480 40522 54000 70400 333 93602;
0203232560999992000010515004+67470+078730FM-12+000899999V0201101N004012200019N0010001N1-04491-04831105211ADDAA106000091AY101031AY201031GA1001+999999999GF100991001001999999001001KA1999M-04491MD1710011+9999MW1041REMSYN070AAXX  05151 23256 31994 01104 11449 21483 40521 57001 70400 333 11449;EQDQ01  00002PRCP06
0209232560999992000010518004+67470+078730FM-12+000899999V0201201N004012200019N0020001N1-04491-04831105161ADDAA106000091AY101061AY201061GA1001+999999999GF100991001001999999001001KA1120M-04491MD1710051+9999MW1041REMSYN076AAXX  05181 23256 31995 01204 11449 21483 40516 57005 70400 333 11449 93602;EQDQ01  00002PRCP06
0150232560999992000010521004+67470+078730FM-12+000899999V0201201N003012200019N0010001N1-04481-04831105151ADDAY101031AY201031GA1001+999999999GF100991001001999999001001MD1710011+9999MW1041REMSYN060AAXX  05211 23256 41994 01203 11448 21483 40515 57001 70400;
0219232560999992000010603004+67470+078730FM-12+000899999V0201101N005012200019N0020001N1-04521-04831104981ADDAA106000091AJ100339199999999AY101031AY201031GA1001+999999999GF100991001001999999001001IA1249MD1710081+9999MW1041REMSYN076AAXX  06031 23256 31995 01105 11452 21483 40498 57008 70400 333 48033 55000;EQDQ01  00002PRCP06
0209232560999992000010606004+67470+078730FM-12+000899999V0201201N005012200019N0020001N1-04531-04831104911ADDAA106000091AY101061AY201061GA1001+999999999GF100991001001999999001001KA1120N-04521MD1710071+9999MW1041REMSYN076AAXX  06061 23256 31995 01205 11453 21483 40491 57007 70400 333 21452 93602;EQDQ01  00002PRCP06
0122232560999992000010609004+67470+078730FM-12+000899999V0201101N005012200019N0200001N1-04541-04831104861ADDGA1001+999999999GF100991001001999999001001MD1710051+9999REMSYN054AAXX  06091 23256 42998 01105 11454 21483 40486 57005;
0153232560999992000010612004+67470+078730FM-12+000899999V0201101N005012200019N0200001N1-04521-04831104851ADDGA1001+999999999GF100991001001999999001001MA1999999104431MD1710011+9999REMSYN070AAXX  06121 23256 42998 01105 11452 21483 30443 40485 57001 333 93602;
0175232560999992000010615004+67470+078730FM-12+000899999V0201101N005012200019N0200001N1-04491-04831104781ADDAA106000091GA1001+999999999GF100991001001999999001001KA1999M-04491MD1710071+9999REMSYN064AAXX  06151 23256 32998 01105 11449 21483 40478 57007 333 11449;EQDQ01  00002PRCP06
0150232560999992000010621004+67470+078730FM-12+000899999V0201001N004012200019N0200001N1-04441-04751104661ADDAY101031AY201031GA1001+999999999GF100991001001999999001001MD1710041+9999MW1041REMSYN060AAXX  06211 23256 41998 01004 11444 21475 40466 57004 70400;
0181232560999992000010700004+67470+078730FM-12+000899999V0201101N003012200019N0040001N1-04421-04751104601ADDAY101061AY201061GA1001+999999999GF100991001001999999001001MA1999999104181MD1710061+9999MW1071REMSYN076AAXX  07001 23256 41996 01103 11442 21475 30418 40460 57006 70700 333 93602;
0219232560999992000010703004+67470+078730FM-12+000899999V0201001N003012200019N0040001N1-04421-04751104541ADDAA106000091AJ100339199999999AY101031AY201031GA1001+999999999GF100991001001999999001001IA1249MD1710061+9999MW1041REMSYN076AAXX  07031 23256 31996 01003 11442 21475 40454 57006 70400 333 48033 55000;EQDQ01  00002PRCP06
0181232560999992000010706004+67470+078730FM-12+000899999V0201001N005012200019N0200001N1-04361-04681104471ADDAA106000091GA1001+999999999GF100991001001999999001001KA1120N-04521MD1710071+9999REMSYN070AAXX  07061 23256 32998 01005 11436 21468 40447 57007 333 21452 93602;EQDQ01  00002PRCP06
0150232560999992000010709004+67470+078730FM-12+000899999V0201001N003012200019N0040001N1-04321-04681104431ADDAY101031AY201031GA1001+999999999GF100991001001999999001001MD1710041+9999MW1041REMSYN060AAXX  07091 23256 41996 01003 11432 21468 40443 57004 70400;
0181232560999992000010712004+67470+078730FM-12+000899999V0201001N003012200019N0020001N1-04351-04681104321ADDAY101061AY201061GA1001+999999999GF100991001001999999001001MA1999999103901MD1710111+9999MW1041REMSYN076AAXX  07121 23256 41995 01003 11435 21468 30390 40432 57011 70400 333 93602;
0203232560999992000010715004+67470+078730FM-12+000899999V0200801N003012200019N0040001N1-04331-04681104211ADDAA106000091AY101031AY201031GA1001+999999999GF100991001001999999001001KA1999M-04321MD1710111+9999MW1041REMSYN070AAXX  07151 23256 31996 00803 11433 21468 40421 57011 70400 333 11432;EQDQ01  00002PRCP06
0197232560999992000010718004+67470+078730FM-12+000899999V0200901N003012200019N0200001N1-04191-04551104101ADDAA106000091GA1001+999999999GF100991001001999999001001KA1120M+99999MD1710101+9999REMSYN070AAXX  07181 23256 32998 00903 11419 21455 40410 57010 333 11432 93602;EQDQ01  00002PRCP06Q02 -04322ATMX  
0122232560999992000010721004+67470+078730FM-12+000899999V0201001N003012200019N0200001N1-04051-04381104001ADDGA1001+999999999GF100991001001999999001001MD1710101+9999REMSYN054AAXX  07211 23256 42998 01003 11405 21438 40400 57010;
0153232560999992000010800004+67470+078730FM-12+000899999V0200901N002012200019N0200001N1-03971-04291103871ADDGA1001+999999999GF100991001001999999001001MA1999999103471MD1710121+9999REMSYN070AAXX  08001 23256 42998 00902 11397 21429 30347 40387 57012 333 93602;
0191232560999992000010803004+67470+078730FM-12+000899999V0201001N003012200019N0200001N1-03991-04331103721ADDAA106000091AJ100339199999999GA1001+999999999GF100991001001999999001001IA1249MD1710151+9999REMSYN070AAXX  08031 23256 32998 01003 11399 21433 40372 57015 333 48033 55000;EQDQ01  00002PRCP06
0181232560999992000010806004+67470+078730FM-12+000899999V0200901N003012200019N0200001N1-03941-04291103551ADDAA106000091GA1001+999999999GF100991001001999999001001KA1120N-04331MD1710171+9999REMSYN070AAXX  08061 23256 32998 00903 11394 21429 40355 57017 333 21433 93602;EQDQ01  00002PRCP06
0122232560999992000010809004+67470+078730FM-12+000899999V0201001N002012200019N0200001N1-04001-04271103471ADDGA1001+999999999GF100991001001999999001001MD1710081+9999REMSYN054AAXX  08091 23256 42998 01002 11400 21427 40347 57008;
0153232560999992000010812004+67470+078730FM-12+000899999V0201001N002012200019N0200001N1-03991-04331103341ADDGA1001+999999999GF100991001001999999001001MA1999999102941MD1710131+9999REMSYN070AAXX  08121 23256 42998 01002 11399 21433 30294 40334 57013 333 93602;
0175232560999992000010815004+67470+078730FM-12+000899999V0201001N002012200019N0200001N1-04001-04331103221ADDAA106000091GA1001+999999999GF100991001001999999001001KA1999M-03941MD1710121+9999REMSYN064AAXX  08151 23256 32998 01002 11400 21433 40322 57012 333 11394;EQDQ01  00002PRCP06
0209232560999992000010818004+67470+078730FM-12+000899999V0201101N002012200019N0020001N1-03981-04331103141ADDAA106000091AY101061AY201061GA1001+999999999GF100991001001999999001001KA1120M-03941MD1710081+9999MW1041REMSYN076AAXX  08181 23256 31995 01102 11398 21433 40314 57008 70400 333 11394 93602;EQDQ01  00002PRCP06
0181232560999992000010900004+67470+078730FM-12+000899999V0201101N002012200019N0010001N1-04121-04441102971ADDAY101061AY201061GA1001+999999999GF100991001001999999001001MA1999999102571MD1710111+9999MW1041REMSYN076AAXX  09001 23256 41994 01102 11412 21444 30257 40297 57011 70400 333 93602;
0219232560999992000010903004+67470+078730FM-12+000899999V0201101N002012200019N0010001N1-04131-04441102891ADDAA106000091AJ100339199999999AY101031AY201031GA1001+999999999GF100991001001999999001001IA1249MD1710081+9999MW1041REMSYN076AAXX  09031 23256 31994 01102 11413 21444 40289 57008 70400 333 48033 55000;EQDQ01  00002PRCP06
0150232560999992000010909004+67470+078730FM-12+000899999V0201201N002012200019N0005001N1-04201-04551102701ADDAY101031AY201031GA1001+999999999GF100991001001999999001001MD1710081+9999MW1041REMSYN060AAXX  09091 23256 41993 01202 11420 21455 40270 57008 70400;
0181232560999992000010912004+67470+078730FM-12+000899999V0201201N002012200019N0005001N1-04221-04551102591ADDAY101061AY201061GA1001+999999999GF100991001001999999001001MA1999999102191MD1710111+9999MW1041REMSYN076AAXX  09121 23256 41993 01202 11422 21455 30219 40259 57011 70400 333 93602;
0203232560999992000010915004+67470+078730FM-12+000899999V0201201N003012200019N0010001N1-04221-04551102451ADDAA106000091AY101031AY211031GA1001+999999999GF100991001001999999001001KA1999M-04161MD1710141+9999MW1041REMSYN070AAXX  09151 23256 31994 01203 11422 21455 40245 57014 70401 333 11416;EQDQ01  00002PRCP06
0209232560999992000010918004+67470+078730FM-12+000899999V0201101N003012200019N0200001N1-04261-04611102311ADDAA106000091AY101061AY201061GA1001+999999999GF100991001001999999001001KA1120M-04161MD1710151+9999MW1041REMSYN076AAXX  09181 23256 31998 01103 11426 21461 40231 57015 70400 333 11416 93602;EQDQ01  00002PRCP06
0150232560999992000010921004+67470+078730FM-12+000899999V0201201N004012200019N0010001N1-04271-04611102171ADDAY101031AY201031GA1001+999999999GF100991001001999999001001MD1710141+9999MW1041REMSYN060AAXX  09211 23256 41994 01204 11427 21461 40217 57014 70400;
0181232560999992000011000004+67470+078730FM-12+000899999V0201201N005012200019N0010001N1-04371-04681101991ADDAY101061AY201061GA1001+999999999GF100991001001999999001001MA1999999101581MD1710181+9999MW1041REMSYN076AAXX  10001 23256 41994 01205 11437 21468 30158 40199 57018 70400 333 93602;
0219232560999992000011003004+67470+078730FM-12+000899999V0201201N005012200019N0010001N1-04261-04611101911ADDAA106000091AJ100339199999999AY101031AY201031GA1001+999999999GF100991001001999999001001IA1249MD1710081+9999MW1041REMSYN076AAXX  10031 23256 31994 01205 11426 21461 40191 57008 70400 333 48033 55000;EQDQ01  00002PRCP06
0193232560999992000011006004+67470+078730FM-12+000899999V0201201N007012200019N0010001N1-04041-04381101701ADDAA106000091AY101061AY201061GF102991001001999999001011KA1999N-04371MD1710201+9999MW1051REMSYN076AAXX  10061 23256 31994 21207 11404 21438 40170 57020 70500 80001 333 21437;EQDQ01  00002PRCP06
0140232560999992000011009004+67470+078730FM-12+000899999V0201101N007019999999N0010001N1-03901-04241101541ADDAY111031AY211031GF106991001001999999001011MD1710161+9999MW1051REMSYN066AAXX  10091 23256 41994 61107 11390 21424 40154 57016 70511 80001;
0171232560999992000011012004+67470+078730FM-12+000899999V0201101N008019999999N0020001N1-03791-04151101391ADDAY111061AY211061GF108991001001999999001061MA1999999100991MD1710151+9999MW1711REMSYN082AAXX  10121 23256 41995 81108 11379 21415 30099 40139 57015 77111 80006 333 92993;
0163232560999992000011015004+67470+078730FM-12+000899999V0201201N008019999999N0040001N1-03781-04111101251ADDAY171031AY231031GF107991001001999999001011KA1999M-03781MD1710141+9999MW1051REMSYN076AAXX  10151 23256 /1996 71208 11378 21411 40125 57014 70573 80001 333 11378;
0186232560999992000011018004+67470+078730FM-12+000899999V0201101N007019999999N0040001N1-03751-04111101181ADDAA100000391AY171061AY231061GF106991001001999999001011KA1120M-03781MD1710071+9999MW1051REMSYN088AAXX  10181 23256 11996 61107 11375 21411 40118 57007 69930 70573 80001 333 11378 92990;
0106232560999992000011021004+67470+078730FM-12+000899999V0201201N006019999999N0200001N1-03651-04001101091ADDGF106991999999999999999999MD1710081+9999REMSYN054AAXX  10211 23256 42998 61206 11365 21400 40109 57008;
0161232560999992000011100004+67470+078730FM-12+000899999V0201201N006019999999N0040001N1-03481-03841101021ADDAY171061AY221061GF108991001001999999001061MA1999999100631MD1710071+9999MW1711REMSYN072AAXX  11001 23256 41996 81206 11348 21384 30063 40102 57007 77172 80006;
0179232560999992000011103004+67470+078730FM-12+000899999V0201201N006019999999N0040001N1-03361-03721100901ADDAJ100339199999999AY171031AY221031GF108991081001999999071999IA1249MD1710121+9999MW1711REMSYN082AAXX  11031 23256 /1996 81206 11336 21372 40090 57012 77172 8807/ 333 48033 55000;
0180232560999992000011106004+67470+078730FM-12+000899999V0201101N005019999999N0100001N1-03261-03611100831ADDAA100000591AY171061AY231061GF108991051001999999031061KA1999N-03781MD1710061+9999MW1711REMSYN082AAXX  11061 23256 11997 81105 11326 21361 40083 57006 69960 77173 85036 333 21378;
0140232560999992000011109004+67470+078730FM-12+000899999V0201001N005019999999N0100001N1-03221-03591100761ADDAY171031AY221031GF108991051001999999031061MD1710071+9999MW1711REMSYN066AAXX  11091 23256 41997 81005 11322 21359 40076 57007 77172 85036;
0161232560999992000011112004+67470+078730FM-12+000899999V0201001N005019999999N0040001N1-03131-03501100701ADDAY171061AY221061GF108991001001999999001061MA1999999100321MD1710061+9999MW1711REMSYN072AAXX  11121 23256 41996 81005 11313 21350 30032 40070 57006 77172 80006;
0163232560999992000011115004+67470+078730FM-12+000899999V0200801N003019999999N0040001N1-03091-03451100661ADDAY171031AY221031GF108991001001999999001061KA1999M-03091MD1710041+9999MW1711REMSYN076AAXX  11151 23256 /1996 80803 11309 21345 40066 57004 77172 80006 333 11309;
0199232560999992000011118004+67470+078730FM-12+000899999V0200801N003019999999N0200001N1-03031-03411100551ADDAA100001091AY171061AY221061GF108991001001999999001061KA1999M+99999MD1710111+9999MW1711REMSYN082AAXX  11181 23256 11998 80803 11303 21341 40055 57011 60010 77172 80006 333 11309;EQDQ01 -03092ATMX  
0140232560999992000011121004+67470+078730FM-12+000899999V0200501N002019999999N0200001N1-02991-03371100481ADDAY171031AY221031GF108991001001999999001061MD1710071+9999MW1711REMSYN066AAXX  11211 23256 41998 80502 11299 21337 40048 57007 77172 80006;
0161232560999992000011200004+67470+078730FM-12+000899999V0200301N002019999999N0040001N1-02861-03241100501ADDAY171061AY221061GF108991001001999999001061MA1999999100121MD1210021+9999MW1711REMSYN072AAXX  12001 23256 41996 80302 11286 21324 30012 40050 52002 77172 80006;
0209232560999992000011203004+67470+078730FM-12+000899999V0203201N004010042019N0200001N1-02811-03111100431ADDAJ100339199999999AY171031AY221031GA1051+004209059GF108991051051004501001061GJ100009IA1249MD1710071+9999MW1711REMSYN088AAXX  12031 23256 /1498 83204 11281 21311 40043 57007 77172 85506 333 48033 55000 85614;
0202232560999992000011206004+67470+078730FM-12+000899999V0203001N004010033019N0100001N1-02831-03131100441ADDAA100000891AY171061AY221061GA1051+003309059GF108991051051004501001061KA1120N-03091MD1210011+9999MW1711REMSYN088AAXX  12061 23256 11497 83004 11283 21313 40044 52001 69970 77172 85506 333 21309 85611;
0140232560999992000011209004+67470+078730FM-12+000899999V0203101N004019999999N0100001N1-03061-03361100491ADDAY171031AY221031GF108991001001999999001061MD1210051+9999MW1711REMSYN066AAXX  12091 23256 41997 83104 11306 21336 40049 52005 77172 80006;
0161232560999992000011212004+67470+078730FM-12+000899999V0203401N005019999999N0200001N1-03341-03621100581ADDAY171061AY221061GF108991001001999999001061MA1999999100201MD1210091+9999MW1021REMSYN072AAXX  12121 23256 41998 83405 11334 21362 30020 40058 52009 70272 80006;
0163232560999992000011215004+67470+078730FM-12+000899999V0203301N005019999999N0200001N1-03381-03681100641ADDAY171031AY221031GF108991051001999999031061KA1999M-02801MD1210061+9999MW1711REMSYN076AAXX  12151 23256 /1998 83305 11338 21368 40064 52006 77172 85036 333 11280;
0140232560999992000011221004+67470+078730FM-12+000899999V0202901N006019999999N0200001N1-03221-03521100741ADDAY171031AY221031GF108991001001999999001061MD1210021+9999MW1711REMSYN066AAXX  12211 23256 41998 82906 11322 21352 40074 52002 77172 80006;
0161232560999992000011300004+67470+078730FM-12+000899999V0203001N005019999999N0200001N1-03301-03601100751ADDAY171061AY231061GF108991001001999999001061MA1999999100371MD1210011+9999MW1711REMSYN072AAXX  13001 23256 41998 83005 11330 21360 30037 40075 52001 77173 80006;
0199232560999992000011306004+67470+078730FM-12+000899999V0202801N005012200019N0040001N1-03731-04071100871ADDAA112000891AY171061AY231061GF103991001001999999001011KA1999N+99999MD1210141+9999MW1051REMSYN082AAXX  13061 23256 11996 32805 11373 21407 40087 52014 69982 70573 80001 333 21358;EQDQ01 -03582ATMN  
0112232560999992000011309004+67470+078730FM-12+000899999V0202701N006012200019N0100001N1-03601-03971100861ADDGF102991001001999999001011MD1710011+9999REMSYN060AAXX  13091 23256 42997 22706 11360 21397 40086 57001 80001;
0133232560999992000011312004+67470+078730FM-12+000899999V0202801N006012200019N0200001N1-03671-04041100991ADDGF103991001001999999001011MA1999999100601MD1210121+9999REMSYN066AAXX  13121 23256 42998 32806 11367 21404 30060 40099 52012 80001;
0145232560999992000011315004+67470+078730FM-12+000899999V0202701N006012200019N0200001N1-03821-04151101071ADDGA1001+999999999GF100991001001999999001001KA1999M-03601MD1210071+9999REMSYN064AAXX  13151 23256 /2998 02706 11382 21415 40107 52007 333 11360;
0162232560999992000011318004+67470+078730FM-12+000899999V0202501N005012200019N0200001N1-03871-04201101071ADDAA100000191GA1001+999999999GF100991001001999999001001KA1999M-03601MD1410001+9999REMSYN070AAXX  13181 23256 12998 02505 11387 21420 40107 54000 69920 333 11360;
0126232560999992000011321004+67470+078730FM-12+000899999V0202501N005012200019N0200001N1-03841-04201101141ADDGA1001+999999999GF100991001001999999001001MD1210071+9999REMSYN058    AAXX  13211 23256 42998 02505 11384 21420 40114 52007;
0147232560999992000011400004+67470+078730FM-12+000899999V0202401N006012200019N0200001N1-03881-04241101151ADDGA1001+999999999GF100991001001999999001001MA1999999100751MD1210011+9999REMSYN064    AAXX  14001 23256 42998 02406 11388 21424 30075 40115 52001;
0223232560999992000011403004+67470+078730FM-12+000899999V0202301N005012200019N0040001N1-04001-04331101161ADDAA199000091AJ100349199999999AY101031AY201031GA1001+999999999GF100991001001999999001001IA1249MD1210011+9999MW1041REMSYN080    AAXX  14031 23256 31996 02305 11400 21433 40116 52001 70400 333 48034 55000;EQDQ01  00002PRCP99
0207232560999992000011406004+67470+078730FM-12+000899999V0202201N005012200019N0020001N1-04021-04331101241ADDAA199000091AY101061AY201061GA1001+999999999GF100991001001999999001001KA1999N-04001MD1210081+9999MW1041REMSYN074    AAXX  14061 23256 31995 02205 11402 21433 40124 52008 70400 333 21400;EQDQ01  00002PRCP99
0154232560999992000011409004+67470+078730FM-12+000899999V0202301N002012200019N0020001N1-04011-04331101261ADDAY101031AY201031GA1001+999999999GF100991001001999999001001MD1210021+9999MW1041REMSYN064    AAXX  14091 23256 41995 02302 11401 21433 40126 52002 70400;
0175232560999992000011412004+67470+078730FM-12+000899999V0201501N002012200019N0002001N1-04141-04491101311ADDAY101061AY201061GA1001+999999999GF100991001001999999001001MA1999999100911MD1210051+9999MW1041REMSYN070    AAXX  14121 23256 41992 01502 11414 21449 30091 40131 52005 70400;
0207232560999992000011415004+67470+078730FM-12+000899999V0201001N002012200019N0020001N1-04261-04611101391ADDAA199000091AY101031AY201031GA1001+999999999GF100991001001999999001001KA1999M-04011MD1210071+9999MW1041REMSYN074    AAXX  14151 23256 31995 01002 11426 21461 40139 52007 70400 333 11401;EQDQ01  00002PRCP99
0207232560999992000011418004+67470+078730FM-12+000899999V0200401N001012200019N0020001N1-04321-04681101421ADDAA199000091AY101061AY201061GA1001+999999999GF100991001001999999001001KA1999M-04011MD1210031+9999MW1041REMSYN074    AAXX  14181 23256 31995 00401 11432 21468 40142 52003 70400 333 11401;EQDQ01  00002PRCP99
0154232560999992000011421004+67470+078730FM-12+000899999V0201101N002012200019N0020001N1-04221-04551101421ADDAY101031AY201031GA1001+999999999GF100991001001999999001001MD1210011+9999MW1041REMSYN064    AAXX  14211 23256 41995 01102 11422 21455 40142 52001 70400;
0175232560999992000011500004+67470+078730FM-12+000899999V0203401N002012200019N0020001N1-04181-04561101441ADDAY101061AY201061GA1001+999999999GF100991001001999999001001MA1999999101041MD1210021+9999MW1041REMSYN070    AAXX  15001 23256 41995 03402 11418 21456 30104 40144 52002 70400;
0223232560999992000011503004+67470+078730FM-12+000899999V0203301N002012200019N0020001N1-04121-04511101521ADDAA199000091AJ100349199999999AY101031AY201031GA1001+999999999GF100991001001999999001001IA1249MD1210081+9999MW1041REMSYN080    AAXX  15031 23256 31995 03302 11412 21451 40152 52008 70400 333 48034 55000;EQDQ01  00002PRCP99
0207232560999992000011506004+67470+078730FM-12+000899999V0203201N001012200019N0020001N1-04071-04451101511ADDAA199000091AY101061AY201061GA1001+999999999GF100991001001999999001001KA1999N-04331MD1710011+9999MW1041REMSYN074    AAXX  15061 23256 31995 03201 11407 21445 40151 57001 70400 333 21433;EQDQ01  00002PRCP99
0154232560999992000011509004+67470+078730FM-12+000899999V0203401N002012200019N0020001N1-04031-04381101531ADDAY101031AY201031GA1001+999999999GF100991001001999999001001MD1210021+9999MW1041REMSYN064    AAXX  15091 23256 41995 03402 11403 21438 40153 52002 70400;
0175232560999992000011512004+67470+078730FM-12+000899999V0203101N002012200019N0020001N1-04271-04611101651ADDAY101061AY201061GA1001+999999999GF100991001001999999001001MA1999999101241MD1210111+9999MW1041REMSYN070    AAXX  15121 23256 41995 03102 11427 21461 30124 40165 52011 70400;
0207232560999992000011515004+67470+078730FM-12+000899999V0203001N002012200019N0040001N1-04261-04511101701ADDAA199000091AY101031AY201031GA1001+999999999GF100991001001999999001001KA1999M-04031MD1210051+9999MW1041REMSYN074    AAXX  15151 23256 31996 03002 11426 21451 40170 52005 70400 333 11403;EQDQ01  00002PRCP99
0207232560999992000011518004+67470+078730FM-12+000899999V0202901N003012200019N0040001N1-04321-04681101701ADDAA199000091AY101061AY201061GA1001+999999999GF100991001001999999001001KA1999M-04031MD1410001+9999MW1041REMSYN074    AAXX  15181 23256 31996 02903 11432 21468 40170 54000 70400 333 11403;EQDQ01  00002PRCP99
0154232560999992000011521004+67470+078730FM-12+000899999V0202901N002012200019N0040001N1-04301-04611101701ADDAY101031AY201031GA1001+999999999GF100991001001999999001001MD1410001+9999MW1041REMSYN064    AAXX  15211 23256 41996 02902 11430 21461 40170 54000 70400;
0175232560999992000011600004+67470+078730FM-12+000899999V0202701N002012200019N0040001N1-04301-04681101761ADDAY101061AY201061GA1001+999999999GF100991001001999999001001MA1999999101351MD1210061+9999MW1041REMSYN070    AAXX  16001 23256 41996 02702 11430 21468 30135 40176 52006 70400;
0223232560999992000011603004+67470+078730FM-12+000899999V0201501N001012200019N0010001N1-03981-04411101761ADDAA199000091AJ100349199999999AY101031AY201031GA1001+999999999GF100991001001999999001001IA1249MD1210011+9999MW1041REMSYN080    AAXX  16031 23256 31994 01501 11398 21441 40176 52001 70400 333 48034 55000;EQDQ01  00002PRCP99
0207232560999992000011606004+67470+078730FM-12+000899999V0201601N001012200019N0005001N1-03931-04291101741ADDAA199000091AY101061AY201061GA1001+999999999GF100991001001999999001001KA1999N-04431MD1710021+9999MW1041REMSYN074    AAXX  16061 23256 31993 01601 11393 21429 40174 57002 70400 333 21443;EQDQ01  00002PRCP99
0154232560999992000011609004+67470+078730FM-12+000899999V0201701N002012200019N0002001N1-04011-04331101721ADDAY101031AY201031GA1001+999999999GF100991001001999999001001MD1710021+9999MW1041REMSYN064    AAXX  16091 23256 41992 01702 11401 21433 40172 57002 70400;
0175232560999992000011612004+67470+078730FM-12+000899999V0201401N004012200019N0002001N1-03981-04331101671ADDAY101061AY201061GA1001+999999999GF100991001001999999001001MA1999999101271MD1710051+9999MW1041REMSYN070    AAXX  16121 23256 41992 01404 11398 21433 30127 40167 57005 70400;
0207232560999992000011615004+67470+078730FM-12+000899999V0201401N005012200019N0010001N1-03831-04151101641ADDAA199000091AY101031AY201031GA1001+999999999GF100991001001999999001001KA1999M-03831MD1710031+9999MW1041REMSYN074    AAXX  16151 23256 31994 01405 11383 21415 40164 57003 70400 333 11383;EQDQ01  00002PRCP99
0195232560999992000011618004+67470+078730FM-12+000899999V0201401N006012200019N0200001N1-03611-03971101541ADDAA199000091GA1001+999999999GF100991001001999999001001KA1999M+99999MD1710091+9999REMSYN068    AAXX  16181 23256 32998 01406 11361 21397 40154 57009 333 11383;EQDQ01  00002PRCP99Q02 -03832ATMX  
0126232560999992000011621004+67470+078730FM-12+000899999V0201601N006012200019N0200001N1-03201-03571101391ADDGA1001+999999999GF100991001001999999001001MD1710141+9999REMSYN058    AAXX  16211 23256 42998 01606 11320 21357 40139 57014;
0147232560999992000011700004+67470+078730FM-12+000899999V0201401N005012200019N0200001N1-02971-03351101341ADDGA1001+999999999GF100991001001999999001001MA1999999100961MD1710051+9999REMSYN064    AAXX  17001 23256 42998 01405 11297 21335 30096 40134 57005;
0185232560999992000011703004+67470+078730FM-12+000899999V0201401N007019999999N0200001N1-02811-03111101191ADDAA199000091AJ100349199999999GF108991081001999999071999IA1249MD1710151+9999REMSYN080    AAXX  17031 23256 32998 81407 11281 21311 40119 57015 8807/ 333 48034 55000;EQDQ01  00002PRCP99
0169232560999992000011706004+67470+078730FM-12+000899999V0201401N008019999999N0200001N1-02761-03061101091ADDAA199000091GF108991081001999999071999KA1999N-03831MD1710101+9999REMSYN074    AAXX  17061 23256 32998 81408 11276 21306 40109 57010 8807/ 333 21383;EQDQ01  00002PRCP99
0144232560999992000011709004+67470+078730FM-12+000899999V0201401N007019999999N0040001N1-02821-03131101061ADDAY171031AY221031GF108991081001999999071999MD1710031+9999MW1711REMSYN070    AAXX  17091 23256 41996 81407 11282 21313 40106 57003 77172 8807/;
0165232560999992000011712004+67470+078730FM-12+000899999V0201301N008019999999N0200001N1-02941-03241101041ADDAY171061AY231061GF106991031001999999031011MA1999999100661MD1710021+9999MW1361REMSYN076    AAXX  17121 23256 41998 61308 11294 21324 30066 40104 57002 73673 83031;
0167232560999992000011715004+67470+078730FM-12+000899999V0201201N006019999999N0040001N1-02901-03201101021ADDAY171031AY231031GF108991081001999999071999KA1999M-02721MD1710021+9999MW1711REMSYN080    AAXX  17151 23256 /1996 81206 11290 21320 40102 57002 77173 8807/ 333 11272;
0184232560999992000011718004+67470+078730FM-12+000899999V0201401N006019999999N0200001N1-02791-03091100941ADDAA100000591AY171061AY231061GF108991081001999999071999KA1999M-02721MD1710081+9999MW1711REMSYN086    AAXX  17181 23256 11998 81406 11279 21309 40094 57008 69940 77173 8807/ 333 11272;
0144232560999992000011721004+67470+078730FM-12+000899999V0201401N005019999999N0200001N1-02781-03091100881ADDAY171031AY221031GF108991041001999999031061MD1710061+9999MW1021REMSYN070    AAXX  17211 23256 41998 81405 11278 21309 40088 57006 70272 84036;
0165232560999992000011800004+67470+078730FM-12+000899999V0201501N006019999999N0200001N1-02721-03031100821ADDAY171061AY221061GF108991081001999999071999MA1999999100451MD1710051+9999MW1711REMSYN076    AAXX  18001 23256 41998 81506 11272 21303 30045 40082 57005 77172 8807/;
0183232560999992000011803004+67470+078730FM-12+000899999V0201401N005019999999N0200001N1-02641-02951100791ADDAJ100379199999999AY171031AY231031GF108991051001999999031061IA1249MD1710031+9999MW1711REMSYN086    AAXX  18031 23256 /1998 81405 11264 21295 40079 57003 77173 85036 333 48037 55000;
0184232560999992000011806004+67470+078730FM-12+000899999V0201401N005019999999N0100001N1-02571-02881100781ADDAA100000591AY171061AY231061GF108991081001999999071999KA1999N-02901MD1710011+9999MW1711REMSYN086    AAXX  18061 23256 11997 81405 11257 21288 40078 57001 69960 77173 8807/ 333 21290;
0144232560999992000011809004+67470+078730FM-12+000899999V0201401N005019999999N0100001N1-02571-02881100801ADDAY171031AY221031GF108991001001999999001061MD1210021+9999MW1711REMSYN070    AAXX  18091 23256 41997 81405 11257 21288 40080 52002 77172 80006;
0165232560999992000011812004+67470+078730FM-12+000899999V0201401N003019999999N0200001N1-02521-02841100881ADDAY171061AY221061GF108991081001999999071999MA1999999100511MD1210081+9999MW1711REMSYN076    AAXX  18121 23256 41998 81403 11252 21284 30051 40088 52008 77172 8807/;
0167232560999992000011815004+67470+078730FM-12+000899999V0201401N003019999999N0200001N1-02301-02631100901ADDAY171031AY221031GF108991081001999999071999KA1999M-02301MD1210021+9999MW1711REMSYN080    AAXX  18151 23256 /1998 81403 11230 21263 40090 52002 77172 8807/ 333 11230;
0184232560999992000011818004+67470+078730FM-12+000899999V0201401N004019999999N0200001N1-02351-02671100951ADDAA100000891AY171061AY221061GF108991081001999999071999KA1999M-02301MD1210051+9999MW1711REMSYN086    AAXX  18181 23256 11998 81404 11235 21267 40095 52005 69970 77172 8807/ 333 11230;
0170232560999992000011821004+67470+078730FM-12+000899999V0201501N003010300019N0200001N1-02201-02521101051ADDAY171031AY221031GA1041+004809059GF108991041051004501071999MD1210101+9999MW1711REMSYN080    AAXX  18211 23256 41498 81503 11220 21252 40105 52010 77172 8457/ 333 84616;
0165232560999992000011900004+67470+078730FM-12+000899999V0201301N003010012019N0200001N1-02131-02461101051ADDAY171061AY221061GF108991081051001501999999MA1999999100681MD1410001+9999MW1711REMSYN076    AAXX  19001 23256 41298 81303 11213 21246 30068 40105 54000 77172 885//;
0183232560999992000011903004+67470+078730FM-12+000899999V0201401N004019999999N0020001N1-02121-02441101091ADDAJ100409199999999AY171031AY221031GF108991081001999999071999IA1249MD1210041+9999MW1711REMSYN086    AAXX  19031 23256 /1995 81404 11212 21244 40109 52004 77172 8807/ 333 48040 55000;
0184232560999992000011906004+67470+078730FM-12+000899999V0201301N003019999999N0200001N1-02271-02591101141ADDAA100000891AY171061AY221061GF106991031001999999031011KA1999N-02411MD1210051+9999MW1221REMSYN086    AAXX  19061 23256 11998 61303 11227 21259 40114 52005 69970 72272 83031 333 21241;
0144232560999992000011909004+67470+078730FM-12+000899999V0201401N005019999999N0100001N1-02301-02631101221ADDAY171031AY221031GF108991051001999999031061MD1210081+9999MW1711REMSYN070    AAXX  19091 23256 41997 81405 11230 21263 40122 52008 77172 85036;
0165232560999992000011912004+67470+078730FM-12+000899999V0201401N005019999999N0040001N1-02301-02631101291ADDAY171061AY221061GF108991031001999999031061MA1999999100921MD1210071+9999MW1711REMSYN076    AAXX  19121 23256 41996 81405 11230 21263 30092 40129 52007 77172 83036;
0163232560999992000011915004+67470+078730FM-12+000899999V0201501N005019999999N0040001N1-02241-02561101381ADDAY171031AY221031GF108991041001999999031061KA1999M-02101MD1210091+9999MW1711REMSYN076AAXX  19151 23256 /1996 81505 11224 21256 40138 52009 77172 84036 333 11210;
0180232560999992000011918004+67470+078730FM-12+000899999V0201301N004019999999N0200001N1-02161-02481101441ADDAA100001091AY171061AY221061GF108991001001999999001061KA1999M-02101MD1210061+9999MW1221REMSYN082AAXX  19181 23256 11998 81304 11216 21248 40144 52006 60010 72272 80006 333 11210;
0140232560999992000011921004+67470+078730FM-12+000899999V0201301N005019999999N0200001N1-02221-02541101491ADDAY171031AY221031GF108991001001999999001061MD1210051+9999MW1711REMSYN066AAXX  19211 23256 41998 81305 11222 21254 40149 52005 77172 80006;
0203232560999992000012000004+67470+078730FM-12+000899999V0201501N009019999999N0200001N1-01221-01422101861ADDAA100000191AY171061AY231061GF108991041001999999031061KA1120N-01901MD1710081+9999MW1711OA140101201REMSYN094AAXX  10601 23256 11998 81509 11122 21142 40186 57008 69920 77173 84036 333 21190 91012 91113;
0179232560999992000012003004+67470+078730FM-12+000899999V0201301N004019999999N0200001N1-02161-02481101611ADDAJ100409199999999AY171031AY221031GF108991081001999999071999IA1249MD1210071+9999MW1711REMSYN082AAXX  20031 23256 /1998 81304 11216 21248 40161 52007 77172 8807/ 333 48040 55000;
0161232560999992000012012004+67470+078730FM-12+000899999V0201401N005019999999N0040001N1-02081-02411101921ADDAY171061AY221061GF108991081001999999071999MA1999999101551MD1210131+9999MW1711REMSYN072AAXX  20121 23256 41996 81405 11208 21241 30155 40192 52013 77172 8807/;
0163232560999992000012015004+67470+078730FM-12+000899999V0201401N007019999999N0040001N1-01901-02231101891ADDAY171031AY231031GF108991081001999999071999KA1999M-01901MD1710031+9999MW1711REMSYN076AAXX  20151 23256 /1996 81407 11190 21223 40189 57003 77173 8807/ 333 11190;
0199232560999992000012018004+67470+078730FM-12+000899999V0201501N007019999999N0200001N1-01601-01941101881ADDAA100000591AY171061AY231061GF108991081001999999071999KA1999M+99999MD1410001+9999MW1711REMSYN082AAXX  20181 23256 11998 81507 11160 21194 40188 54000 69950 77173 8807/ 333 11190;EQDQ01 -01902ATMX  
0140232560999992000012021004+67470+078730FM-12+000899999V0201501N006019999999N0200001N1-01461-01731101931ADDAY171031AY231031GF108991051001999999031061MD1210051+9999MW1221REMSYN066AAXX  20211 23256 41998 81506 11146 21173 40193 52005 72273 85036;
0161232560999992000012100004+67470+078730FM-12+000899999V0201401N007019999999N0200001N1-01281-01551101961ADDAY171061AY231061GF108991001001999999001061MA1999999101601MD1210031+9999MW1361REMSYN072AAXX  21001 23256 41998 81407 11128 21155 30160 40196 52003 73673 80006;
0179232560999992000012103004+67470+078730FM-12+000899999V0201601N008019999999N0200001N1-01261-01461101941ADDAJ100429199999999AY131031AY221031GF108991001001999999001061IA1249MD1710011+9999MW1021REMSYN082AAXX  21031 23256 /1998 81608 11126 21146 40194 57001 70232 80006 333 48042 55000;
0140232560999992000012109004+67470+078730FM-12+000899999V0201601N009019999999N0200001N1-01151-01431101901ADDAY171031AY221031GF107991041001999999031011MD1210041+9999MW1021REMSYN066AAXX  21091 23256 41998 71609 11115 21143 40190 52004 70272 84031;
0188232560999992000012112004+67470+078730FM-12+000899999V0201401N009019999999N0200001N1-01211-01481101981ADDAY171061AY221061GF107991051001999999031011MA1999999101631MD1210081+9999MW1021OA140101101REMSYN088AAXX  21121 23256 41998 71409 11121 21148 30163 40198 52008 70272 85031 333 91011 91112;
0163232560999992000012115004+67470+078730FM-12+000899999V0201501N010019999999N0200001N1-01211-01561101991ADDAY131031AY221031GF106991031001999999031011KA1999M-01131MD1210011+9999MW1361REMSYN076AAXX  21151 23256 /1998 61510 11121 21156 40199 52001 73632 83031 333 11113;
0222232560999992000012118004+67470+078730FM-12+000899999V0201801N011019999999N0200001N1-01061-01341102021ADDAA100000791AY171061AY231061GF108991001001999999001061KA1120M+99999MD1210031+9999MW1711OA140101401REMSYN094AAXX  21181 23256 11998 81811 11106 21134 40202 52003 69900 77173 80006 333 11113 91014 91114;EQDQ01 -01132ATMX  
0140232560999992000012121004+67470+078730FM-12+000899999V0201801N011019999999N0200001N1-01151-01431102181ADDAY171031AY231031GF108991001001999999001061MD1210161+9999MW1711REMSYN066AAXX  21211 23256 41998 81811 11115 21143 40218 52016 77173 80006;
0188232560999992000012200004+67470+078730FM-12+000899999V0201701N009019999999N0200001N1-01271-01541102351ADDAY171061AY231061GF108991001001999999001061MA1999999101991MD1210161+9999MW1711OA140101201REMSYN088AAXX  22001 23256 41998 81709 11127 21154 30199 40235 52016 77173 80006 333 91012 91114;
0179232560999992000012203004+67470+078730FM-12+000899999V0201601N009019999999N0200001N1-01211-01481102511ADDAJ100429199999999AY171031AY231031GF108991041001999999031061IA1249MD1210171+9999MW1361REMSYN082AAXX  22031 23256 /1998 81609 11121 21148 40251 52017 73673 84036 333 48042 55000;
0203232560999992000012206004+67470+078730FM-12+000899999V0201601N009019999999N0200001N1-01131-01411102441ADDAA100000791AY171061AY231061GF108991081001999999071999KA1120N-01321MD1710071+9999MW1021OA140101201REMSYN094AAXX  22061 23256 11998 81609 11113 21141 40244 57007 69900 70273 8807/ 333 21132 91012 91113;
0140232560999992000012209004+67470+078730FM-12+000899999V0201501N010019999999N0200001N1-01011-01371102351ADDAY131031AY221031GF108991081001999999071999MD1710091+9999MW1361REMSYN066AAXX  22091 23256 41998 81510 11101 21137 40235 57009 73632 8807/;
0188232560999992000012212004+67470+078730FM-12+000899999V0201601N011019999999N0028001N1-00971-01331102071ADDAY131061AY221061GF108991081001999999071999MA1999999101721MD1710281+9999MW1361OA140101401REMSYN088AAXX  22121 23256 41928 81611 11097 21133 30172 40207 57028 73632 8807/ 333 91014 91117;
0193232560999992000012215004+67470+078730FM-12+000899999V0201801N014019999999N0200001N1-00911-01251102011ADDAA199000091AY131031AY221031GF108991081001999999071999KA1999M-00901MD1710061+9999MW1361REMSYN076AAXX  22151 23256 31998 81814 11091 21125 40201 57006 73632 8807/ 333 1109/;EQDQ01  00002PRCP99
0219232560999992000012218004+67470+078730FM-12+000899999V0201801N012010015019N0020001N1-00931-01231102201ADDAA199000021AY171061AY231061GA1051+001509079GF108991081051001501999999KA1120M-00911MD1210191+9999MW1711OA140101501REMSYN094AAXX  22181 23256 31295 81812 11093 21123 40220 52019 77173 885// 333 11091 85705 91015 91118;
0166232560999992000012221004+67470+078730FM-12+000899999V0201801N010010018019N0010001N1-01011-01291102371ADDAY171031AY231031GA1051+001809069GF108991081051001501999999MD1210171+9999MW1731REMSYN076AAXX  22211 23256 41294 81810 11101 21129 40237 52017 77373 885// 333 85706;
0227232560999992000012300004+67470+078730FM-12+000899999V0201701N009010018019N0020001N1-01011-01291102291ADDAY171061AY231061GA1051+001809079GF108991081051001501999999MA1999999101941MD1710081+9999MW1731OA140101201OA249901401REMSYN100AAXX  23001 23256 41295 81709 11101 21129 30194 40229 57008 77373 885// 333 85706 91012 91114 9299/;
0242232560999992000012306004+67470+078730FM-12+000899999V0201801N009010021019N0100001N1-00971-01331102261ADDAA100003091AY171061AY231061GA1051+002109079GF108991081051002501999999KA1120N-01011MD1410001+9999MW1711OA140101201OA249901301REMSYN106AAXX  23061 23256 11397 81809 11097 21133 40226 54000 60030 77173 885// 333 21101 85707 91012 91113 92990;
0166232560999992000012309004+67470+078730FM-12+000899999V0201901N008010030019N0040001N1-00921-01221102481ADDAY171031AY231031GA1051+003009069GF108991081051004501999999MD1210221+9999MW1711REMSYN076AAXX  23091 23256 41496 81908 11092 21122 40248 52022 77173 885// 333 85710;
0187232560999992000012312004+67470+078730FM-12+000899999V0201801N007010099019N0200001N1-01071-01511102611ADDAY171061AY231061GA1051+009909059GF108991051051012501071999MA1999999102261MD1210131+9999MW1711REMSYN082AAXX  23121 23256 41698 81807 11107 21151 30226 40261 52013 77173 8557/ 333 85633;
0163232560999992000012315004+67470+078730FM-12+000899999V0201801N007019999999N0200001N1-01191-01631102621ADDAY171031AY231031GF108991081001999999071999KA1999M-00921MD1210011+9999MW1361REMSYN076AAXX  23151 23256 /1998 81807 11119 21163 40262 52001 73673 8807/ 333 11092;
0180232560999992000012318004+67470+078730FM-12+000899999V0201701N006019999999N0200001N1-01211-01731102641ADDAA100002091AY171061AY231061GF107991071001999999031001KA1999M-00921MD1210021+9999MW1021REMSYN082AAXX  23181 23256 11998 71706 11121 21173 40264 52002 60020 70273 87030 333 11092;
0112232560999992000012321004+67470+078730FM-12+000899999V0201501N004019999999N0200001N1-01311-01831102631ADDGF106991061001999999031001MD1710021+9999REMSYN060AAXX  23211 23256 42998 61504 11131 21183 40263 57002 86030;
0133232560999992000012400004+67470+078730FM-12+000899999V0201301N004019999999N0200001N1-01621-02121102551ADDGF106991061001999999031001MA1999999102191MD1710081+9999REMSYN066AAXX  24001 23256 42998 61304 11162 21212 30219 40255 57008 86030;
0181232560999992000012403004+67470+078730FM-12+000899999V0201401N005012200019N0200001N1-01901-02391102471ADDAA199000091AJ100409199999999GF102991021001999999031001IA1249MD1710091+9999REMSYN076AAXX  24031 23256 32998 21405 11190 21239 40247 57009 82030 333 48040 55000;EQDQ01  00002PRCP99
0165232560999992000012406004+67470+078730FM-12+000899999V0201601N006019999999N0200001N1-01921-02411102391ADDAA199000091GF106991021001999999031011KA1999N-01901MD1710081+9999REMSYN070AAXX  24061 23256 32998 61606 11192 21241 40239 57008 82031 333 21190;EQDQ01  00002PRCP99
0112232560999992000012409004+67470+078730FM-12+000899999V0201501N006019999999N0200001N1-01941-02431102341ADDGF105991001001999999001011MD1710051+9999REMSYN060AAXX  24091 23256 42998 51506 11194 21243 40234 57005 80001;
0143232560999992000012412004+67470+078730FM-12+000899999V0201501N008012200019N0200001N1-02031-02521102201ADDGA1001+999999999GF100991001001999999001001MA1999999101831MD1710141+9999REMSYN060AAXX  24121 23256 42998 01508 11203 21252 30183 40220 57014;
0191232560999992000012415004+67470+078730FM-12+000899999V0201501N005012200019N0200001N1-02161-02561102011ADDAA199000091GA1001+999999999GF100991001001999999001001KA1999N+99999MD1710191+9999REMSYN064AAXX  24151 23256 32998 01505 11216 21256 40201 57019 333 21190;EQDQ01  00002PRCP99Q02 -01902ATMN  
0175232560999992000012418004+67470+078730FM-12+000899999V0201501N006012200019N0200001N1-02271-02671101851ADDAA199000091GA1001+999999999GF100991001001999999001001KA1999M-01901MD1710161+9999REMSYN064AAXX  24181 23256 32998 01506 11227 21267 40185 57016 333 11190;EQDQ01  00002PRCP99
0122232560999992000012421004+67470+078730FM-12+000899999V0201501N006012200019N0200001N1-02381-02701101651ADDGA1001+999999999GF100991001001999999001001MD1710201+9999REMSYN054AAXX  24211 23256 42998 01506 11238 21270 40165 57020;
0143232560999992000012500004+67470+078730FM-12+000899999V0201601N004012200019N0200001N1-02451-02771101491ADDGA1001+999999999GF100991001001999999001001MA1999999101121MD1710161+9999REMSYN060AAXX  25001 23256 42998 01604 11245 21277 30112 40149 57016;
0191232560999992000012503004+67470+078730FM-12+000899999V0201501N004012200019N0200001N1-02501-02811101301ADDAA199000091AJ100409199999999GA1001+999999999GF100991001001999999001001IA1249MD1710191+9999REMSYN070AAXX  25031 23256 32998 01504 11250 21281 40130 57019 333 48040 55014;EQDQ01  00002PRCP99
0174232560999992000012506004+67470+078730FM-12+000899999V0201501N004019999999N0200001N1-02521-02841101191ADDAA199000021AY111061AY211061GF108991001001999999001061KA1999N-02511MD1710111+9999MW1711REMSYN076AAXX  25061 23256 31998 81504 11252 21284 40119 57011 77111 80006 333 21251;
0140232560999992000012509004+67470+078730FM-12+000899999V0201501N004019999999N0200001N1-02381-02701101101ADDAY171031AY221031GF108991001001999999001061MD1710091+9999MW1711REMSYN066AAXX  25091 23256 41998 81504 11238 21270 40110 57009 77172 80006;
0187232560999992000012512004+67470+078730FM-12+000899999V0201501N002010750019N0200001N1-02461-02771101151ADDAY171061AY221061GA1041+005109059GF108991041051004501001061MA1999999100781MD1210051+9999MW1711REMSYN082AAXX  25121 23256 41498 81502 11246 21277 30078 40115 52005 77172 84506 333 84617;
0185232560999992000012515004+67470+078730FM-12+000899999V0201601N005010057019N0200001N1-02211-02541101141ADDAY171031AY221031GA1061+005709059GF108991061051004501001061KA1120M-02211MD1710011+9999MW1711REMSYN082AAXX  25151 23256 /1498 81605 11221 21254 40114 57001 77172 86506 333 11221 86619;
0180232560999992000012518004+67470+078730FM-12+000899999V0201901N004019999999N0200001N1-02251-02571101201ADDAA100000591AY171061AY221061GF108991001001999999001061KA1999M-02211MD1210061+9999MW1711REMSYN082AAXX  25181 23256 11998 81904 11225 21257 40120 52006 69940 77172 80006 333 11221;
0166232560999992000012521004+67470+078730FM-12+000899999V0201601N004010039019N0200001N1-02371-02681101241ADDAY171031AY221031GA1051+003909059GF108991051051004501071999MD1210041+9999MW1711REMSYN076AAXX  25211 23256 41498 81604 11237 21268 40124 52004 77172 8557/ 333 85613;
0161232560999992000012600004+67470+078730FM-12+000899999V0201701N003019999999N0200001N1-02481-02801101281ADDAY171061AY221061GF108991001001999999001061MA1999999100911MD1210041+9999MW1741REMSYN072AAXX  26001 23256 41998 81703 11248 21280 30091 40128 52004 77472 80006;
0179232560999992000012603004+67470+078730FM-12+000899999V0202301N005019999999N0200001N1-02531-02841101361ADDAJ100409199999999AY171031AY221031GF106991041001999999031011IA1249MD1210081+9999MW1221REMSYN082AAXX  26031 23256 /1998 62305 11253 21284 40136 52008 72272 84031 333 48040 55000;
0199232560999992000012606004+67470+078730FM-12+000899999V0202401N004012200019N0200001N1-02791-03091101471ADDAA100000391AY171061AY211061GF102991001001999999001011KA1999N+99999MD1210101+9999MW1021REMSYN082AAXX  26061 23256 11998 22404 11279 21309 40147 52010 69930 70271 80001 333 21253;EQDQ01 -02532ATMN  
0112232560999992000012609004+67470+078730FM-12+000899999V0202401N006019999999N0200001N1-03041-03341101711ADDGF106991001001999999001011MD1210241+9999REMSYN060AAXX  26091 23256 42998 62406 11304 21334 40171 52024 80001;
0133232560999992000012612004+67470+078730FM-12+000899999V0202401N005019999999N0200001N1-03081-03381101921ADDGF105991001001999999001011MA1999999101541MD1210211+9999REMSYN066AAXX  26121 23256 42998 52405 11308 21338 30154 40192 52021 80001;
0146232560999992000012615004+67470+078730FM-12+000899999V0202401N005019999999N0200001N1-03231-03521102181ADDAA199000021GF106991001001999999001011KA1999M-02531MD1210261+9999REMSYN070AAXX  26151 23256 32998 62405 11323 21352 40218 52026 80001 333 11253;
0165232560999992000012618004+67470+078730FM-12+000899999V0202301N005012200019N0200001N1-03281-03641102411ADDAA199000091GF103991001001999999001011KA1999M-02531MD1210221+9999REMSYN070AAXX  26181 23256 32998 32305 11328 21364 40241 52022 80001 333 11253;EQDQ01  00002PRCP99
0112232560999992000012621004+67470+078730FM-12+000899999V0202101N004012200019N0200001N1-03261-03611102551ADDGF103991001001999999001011MD1210141+9999REMSYN060AAXX  26211 23256 42998 32104 11326 21361 40255 52014 80001;
0133232560999992000012700004+67470+078730FM-12+000899999V0201701N002019999999N0200001N1-03041-03411102541ADDGF105991001001999999001011MA1999999102161MD1410001+9999REMSYN066AAXX  27001 23256 42998 51702 11304 21341 30216 40254 54000 80001;
0181232560999992000012703004+67470+078730FM-12+000899999V0201401N005019999999N0200001N1-03051-03411102481ADDAA199000091AJ100409199999999GF108991051001999999031061IA1249MD1710061+9999REMSYN076AAXX  27031 23256 32998 81405 11305 21341 40248 57006 85036 333 48040 55000;EQDQ01  00002PRCP99
0165232560999992000012706004+67470+078730FM-12+000899999V0201201N005019999999N0200001N1-02881-03251102321ADDAA199000091GF108991081001999999071999KA1999N-03351MD1710161+9999REMSYN070AAXX  27061 23256 32998 81205 11288 21325 40232 57016 8807/ 333 21335;EQDQ01  00002PRCP99
0140232560999992000012709004+67470+078730FM-12+000899999V0201501N007019999999N0020001N1-02311-02631101941ADDAY171031AY231031GF108991081001999999071999MD1710381+9999MW1721REMSYN066AAXX  27091 23256 41995 81507 11231 21263 40194 57038 77273 8807/;
0171232560999992000012712004+67470+078730FM-12+000899999V0201401N007019999999N0020001N1-01961-02291101701ADDAY171061AY231061GF108991081001999999071999MA1999999101331MD1710231+9999MW1711REMSYN082AAXX  27121 23256 41995 81407 11196 21229 30133 40170 57023 77173 8807/ 333 92990;
0163232560999992000012715004+67470+078730FM-12+000899999V0201601N005019999999N0200001N1-01591-01861101481ADDAY171031AY231031GF108991081001999999071999KA1999M-01581MD1710211+9999MW1711REMSYN076AAXX  27151 23256 /1998 81605 11159 21186 40148 57021 77173 8807/ 333 11158;
0180232560999992000012718004+67470+078730FM-12+000899999V0201701N007019999999N0200001N1-01551-01821101301ADDAA100000891AY171061AY231061GF108991081001999999071999KA1999M-01581MD1710181+9999MW1711REMSYN082AAXX  27181 23256 11998 81707 11155 21182 40130 57018 69980 77173 8807/ 333 11158;
0161232560999992000012800004+67470+078730FM-12+000899999V0201801N008019999999N0040001N1-01271-01541100891ADDAY171061AY231061GF108991081001999999071999MA1999999100531MD1710201+9999MW1711REMSYN072AAXX  28001 23256 41996 81808 11127 21154 30053 40089 57020 77173 8807/;
0140232560999992000012809004+67470+078730FM-12+000899999V0202001N009019999999N0200001N1-01141-01421101151ADDAY171031AY231031GF108991041001999999031061MD1210271+9999MW1361REMSYN066AAXX  28091 23256 41998 82009 11114 21142 40115 52027 73673 84036;
0163232560999992000012815004+67470+078730FM-12+000899999V0201801N007019999999N0040001N1-01441-01711101321ADDAY121031AY221031GF108991001001999999001061KA1999M-01081MD1710011+9999MW1711REMSYN076AAXX  28151 23256 /1996 81807 11144 21171 40132 57001 77122 80006 333 11108;
0180232560999992000012818004+67470+078730FM-12+000899999V0201701N007019999999N0200001N1-01411-01611101261ADDAA100000591AY171061AY231061GF108991001001999999001061KA1999M-01081MD1710061+9999MW1711REMSYN082AAXX  28181 23256 11998 81707 11141 21161 40126 57006 69940 77173 80006 333 11108;
0140232560999992000012821004+67470+078730FM-12+000899999V0201701N007019999999N0200001N1-01451-01651101171ADDAY171031AY231031GF108991001001999999001061MD1710091+9999MW1361REMSYN066AAXX  28211 23256 41998 81707 11145 21165 40117 57009 73673 80006;
0161232560999992000012900004+67470+078730FM-12+000899999V0201801N005019999999N0200001N1-01291-01491101061ADDAY171061AY231061GF108991001001999999001061MA1999999100701MD1710111+9999MW1021REMSYN072AAXX  29001 23256 41998 81805 11129 21149 30070 40106 57011 70273 80006;
0151232560999992000012903004+67470+078730FM-12+000899999V0201901N005019999999N0200001N1-01221-01421100881ADDAJ100419199999999GF108991081001999999071999IA1249MD1710171+9999REMSYN076AAXX  29031 23256 /2998 81905 11122 21142 40088 57017 8807/ 333 48041 55000;
0202232560999992000012906004+67470+078730FM-12+000899999V0201901N004010036019N0200001N1-01211-01411100821ADDAA100000791AY171061AY221061GA1051+003609099GF108991081031004501999999KA1120N-01511MD1710061+9999MW1851REMSYN088AAXX  29061 23256 11498 81904 11121 21141 40082 57006 69900 78572 883// 333 21151 85912;
0140232560999992000012909004+67470+078730FM-12+000899999V0202201N005012200019N0200001N1-01581-01771100881ADDAY181031AY211031GF102991001001999999001011MD1210051+9999MW1021REMSYN066AAXX  29091 23256 41998 22205 11158 21177 40088 52005 70281 80001;
0161232560999992000012912004+67470+078730FM-12+000899999V0202201N005019999999N0200001N1-01741-01931101001ADDAY181061AY211061GF106991061001999999031001MA1999999100641MD1210121+9999MW1021REMSYN072AAXX  29121 23256 41998 62205 11174 21193 30064 40100 52012 70281 86030;
0135232560999992000012915004+67470+078730FM-12+000899999V0202101N004012200019N0200001N1-01961-02151101061ADDGF103991031001999999031001KA1999M-01151MD1210051+9999REMSYN070AAXX  29151 23256 /2998 32104 11196 21215 40106 52005 83030 333 11115;
0168232560999992000012918004+67470+078730FM-12+000899999V0202201N005012200019N0200001N1-02041-02231101181ADDAA100000191GA1001+999999999GF100991001001999999001001KA1120M-01151MD1210121+9999REMSYN076AAXX  29181 23256 12998 02205 11204 21223 40118 52012 69920 333 11115 93508;
0122232560999992000012921004+67470+078730FM-12+000899999V0202001N006012200019N0200001N1-02161-02341101271ADDGA1001+999999999GF100991001001999999001001MD1210091+9999REMSYN054AAXX  29211 23256 42998 02006 11216 21234 40127 52009;
0153232560999992000013000004+67470+078730FM-12+000899999V0202001N006012200019N0200001N1-02261-02511101361ADDGA1001+999999999GF100991001001999999001001MA1999999100991MD1210091+9999REMSYN070AAXX  30001 23256 42998 02006 11226 21251 30099 40136 52009 333 93508;
0191232560999992000013003004+67470+078730FM-12+000899999V0201901N005012200019N0200001N1-02421-02661101491ADDAA199000091AJ100419199999999GA1001+999999999GF100991001001999999001001IA1249MD1210131+9999REMSYN070AAXX  30031 23256 32998 01905 11242 21266 40149 52013 333 48041 55009;EQDQ01  00002PRCP99
0171232560999992000013006004+67470+078730FM-12+000899999V0201701N005019999999N0200001N1-02431-02681101541ADDAA199000091GF106991021001999999031011KA1120N-02421MD1210051+9999REMSYN076AAXX  30061 23256 32998 61705 11243 21268 40154 52005 82031 333 21242 93507;EQDQ01  00002PRCP99
0112232560999992000013009004+67470+078730FM-12+000899999V0201401N003019999999N0200001N1-02381-02631101581ADDGF106991001001999999001011MD1210041+9999REMSYN060AAXX  30091 23256 42998 61403 11238 21263 40158 52004 80001;
0143232560999992000013012004+67470+078730FM-12+000899999V0201401N004019999999N0200001N1-02511-02751101561ADDGF107991001001999999001011MA1999999101191MD1710021+9999REMSYN076AAXX  30121 23256 42998 71404 11251 21275 30119 40156 57002 80001 333 93507;
0163232560999992000013015004+67470+078730FM-12+000899999V0201401N004019999999N0200001N1-02311-02551101531ADDAY171031AY221031GF108991001001999999001061KA1999M-02311MD1710031+9999MW1711REMSYN076AAXX  30151 23256 /1998 81404 11231 21255 40153 57003 77172 80006 333 11231;
0227232560999992000013018004+67470+078730FM-12+000899999V0201201N003010042019N0040001N1-02151-02401101471ADDAA100000791AY171061AY221061GA1061+004209069GF108991061051004501071999KA1120M+99999MD1710061+9999MW1711REMSYN094AAXX  30181 23256 11496 81203 11215 21240 40147 57006 69900 77172 8657/ 333 11231 86614 93507;EQDQ01 -02312ATMX  
0126232560999992000013021004+67470+078730FM-12+000899999V0201501N003019999999N0200001N1-02171-02421101431ADDAY171031GF108991999999999999999999MD1710041+9999MW1701REMSYN060AAXX  30211 23256 41998 81503 11217 21242 40143 57004 7707/;
0171232560999992000013100004+67470+078730FM-12+000899999V0201401N002019999999N0200001N1-02131-02381101431ADDAY171061AY221061GF108991081001999999071999MA1999999101061MD1410001+9999MW1711REMSYN082AAXX  31001 23256 41998 81402 11213 21238 30106 40143 54000 77172 8807/ 333 93506;
0179232560999992000013103004+67470+078730FM-12+000899999V0201801N001019999999N0200001N1-02121-02371101481ADDAJ100419199999999AY171031AY221031GF108991031001999999031061IA1249MD1210051+9999MW1711REMSYN082AAXX  31031 23256 /1998 81801 11212 21237 40148 52005 77172 83036 333 48041 55000;
0122232560999992000013109004+67470+078730FM-12+000899999V0202701N002012200019N0200001N1-02311-02551101581ADDGA1001+999999999GF100991001001999999001001MD1210111+9999REMSYN054AAXX  31091 23256 42998 02702 11231 21255 40158 52011;
0153232560999992000013112004+67470+078730FM-12+000899999V0202601N002012200019N0200001N1-02561-02811101671ADDGA1001+999999999GF100991001001999999001001MA1999999101301MD1210091+9999REMSYN070AAXX  31121 23256 42998 02602 11256 21281 30130 40167 52009 333 93506;
0173232560999992000013115004+67470+078730FM-12+000899999V0202401N001012200019N0040001N1-02601-02841101741ADDAY101031AY201031GA1001+999999999GF100991001001999999001001KA1999M-02001MD1210071+9999MW1101REMSYN070AAXX  31151 23256 /1996 02401 11260 21284 40174 52007 71000 333 11200;
0168232560999992000013118004+67470+078730FM-12+000899999V0202301N001012200019N0200001N1-02751-02991101801ADDAA100000791GA1001+999999999GF100991001001999999001001KA1120M-02001MD1210061+9999REMSYN076AAXX  31181 23256 12998 02301 11275 21299 40180 52006 69900 333 11200 93512;
0122232560999992000013121004+67470+078730FM-12+000899999V0202101N001012200019N0200001N1-02761-02991101841ADDGA1001+999999999GF100991001001999999001001MD1210031+9999REMSYN054AAXX  31211 23256 42998 02101 11276 21299 40184 52003;
0153232560999992000020100004+67470+078730FM-12+000899999V0201701N003012200019N0200001N1-02861-03161101851ADDGA1001+999999999GF100991001001999999001001MA1999999101471MD1210011+9999REMSYN070AAXX  01001 23256 42998 01703 11286 21316 30147 40185 52001 333 93512;
0166232560999992000020103004+67470+078730FM-12+000899999V0201601N004019999999N0200001N1-02751-03061101831ADDAA199000091AJ100419199999999GF108991999999999999999999IA1249REMSYN075AAXX  01031 23256 32998 81604 11275 21306 40183 5702 8807/ 333 48041 55010;EQDQ01  00002PRCP99
0193232560999992000020106004+67470+078730FM-12+000899999V0201401N005012200019N0200001N1-02601-02841101791ADDAA199000091GA1041+001209079GF107991041061001501001011KA1120N-02881MD1710031+9999REMSYN082AAXX  01061 23256 32298 71405 11260 21284 40179 57003 84601 333 21288 84704 93512;EQDQ01  00002PRCP99
0112232560999992000020109004+67470+078730FM-12+000899999V0201601N005012200019N0200001N1-02441-02691101711ADDGF107991021061002501001011MD1710081+9999REMSYN060AAXX  01091 23256 42398 71605 11244 21269 40171 57008 82601;
0143232560999992000020112004+67470+078730FM-12+000899999V0201501N005019999999N0200001N1-02281-02531101621ADDGF107991001001999999001011MA1999999101251MD1710091+9999REMSYN076AAXX  01121 23256 42998 71505 11228 21253 30125 40162 57009 80001 333 93509;
0165232560999992000020115004+67470+078730FM-12+000899999V0201601N007012200019N0200001N1-02141-02391101461ADDAA199000091GF103991001001999999001011KA1999M-02141MD1710161+9999REMSYN070AAXX  01151 23256 32998 31607 11214 21239 40146 57016 80001 333 11214;EQDQ01  00002PRCP99
0187232560999992000020118004+67470+078730FM-12+000899999V0201501N007019999999N0200001N1-01741-02001101361ADDAA199000091GF108991081001999999071999KA1120M+99999MD1710091+9999REMSYN076AAXX  01181 23256 32998 81507 11174 21200 40136 57009 8807/ 333 11214 93509;EQDQ01  00002PRCP99Q02 -02142ATMX  
0112232560999992000020121004+67470+078730FM-12+000899999V0201401N009019999999N0200001N1-01691-01831101261ADDGF108991081001999999071999MD1710101+9999REMSYN060AAXX  01211 23256 42998 81409 11169 21183 40126 57010 8807/;
0220232560999992000020200004+67470+078730FM-12+000899999V0201501N006010018019N0200001N1-01821-02011101231ADDAL10600891AY131061AY221061GA1081+001809079GF108991081061001501999999MA1999999100861MD1710041+9999MW1021OA149901201REMSYN094AAXX  02001 23256 41298 81506 11182 21201 30086 40123 57004 70232 886// 333 88706 91112 99508;
0209232560999992000020203004+67470+078730FM-12+000899999V0201501N006010015019N0100001N1-01871-02061101151ADDAJ100409199999999AY171031AY231031GA1051+001509069GF108991051061001501001061GJ100009IA1249MD1710081+9999MW1711REMSYN088AAXX  02031 23256 /1297 81506 11187 21206 40115 57008 77173 85606 333 48040 55000 85705;
0208232560999992000020206004+67470+078730FM-12+000899999V0201601N006010036019N0100001N1-01701-01891101081ADDAA100000791AY171061AY231061GA1061+003609069GF108991061051004501001061KA1120N-02141MD1710061+9999MW1711REMSYN094AAXX  02061 23256 11497 81606 11170 21189 40108 57006 69900 77173 86506 333 21214 86612 93506;
0166232560999992000020209004+67470+078730FM-12+000899999V0201601N008010063019N0040001N1-01571-01761100951ADDAY171031AY221031GA1061+006309059GF108991061051008001001061MD1710131+9999MW1711REMSYN076AAXX  02091 23256 41596 81608 11157 21176 40095 57013 77172 86506 333 86621;
0194232560999992000020212004+67470+078730FM-12+000899999V0201601N007019999999N0040001N1-01501-01701100871ADDAY171061AY231061GF108991051001999999031061MA1999999100511MD1710081+9999MW1711OA149901301REMSYN094AAXX  02121 23256 41996 81607 11150 21170 30051 40087 57008 77173 85036 333 91113 92990 93506;
0163232560999992000020215004+67470+078730FM-12+000899999V0201601N007019999999N0040001N1-01441-01641100741ADDAY171031AY231031GF108991081001999999071999KA1999M-01441MD1710121+9999MW1711REMSYN076AAXX  02151 23256 /1996 81607 11144 21164 40074 57012 77173 8807/ 333 11144;
0227232560999992000020218004+67470+078730FM-12+000899999V0201601N008010039019N0040001N1-01201-01401100611ADDAA100000591AY171061AY231061GA1061+003909069GF108991061051004501071999KA1120M+99999MD1710131+9999MW1711REMSYN094AAXX  02181 23256 11496 81608 11120 21140 40061 57013 69960 77173 8657/ 333 11144 86613 93504;EQDQ01 -01442ATMX  
0166232560999992000020221004+67470+078730FM-12+000899999V0201701N008010021019N0040001N1-00861-01051100531ADDAY171031AY231031GA1051+002109069GF108991081051002501999999MD1710081+9999MW1711REMSYN076AAXX  02211 23256 41396 81708 11086 21105 40053 57008 77173 885// 333 85707;
0193232560999992000020300004+67470+078730FM-12+000899999V0201701N010010024019N0040001N1-00791-00931100471ADDAY171061AY231061GA1051+002409079GF108991081051002501999999MA1999999100121MD1710061+9999MW1711REMSYN088AAXX  03001 23256 41396 81710 11079 21093 30012 40047 57006 77173 885// 333 85708 93500;
0209232560999992000020303004+67470+078730FM-12+000899999V0201701N009010021019N0020001N1-00741-00871100441ADDAJ100419199999999AY171031AY231031GA1051+002109069GF108991081051002501999999GJ100009IA1249MD1710021+9999MW1711REMSYN088AAXX  03031 23256 /1395 81709 11074 21087 40044 57002 77173 885// 333 48041 55000 85707;
0225232560999992000020306004+67470+078730FM-12+000899999V0201701N007010039019N0020001N1-00671-00791100441ADDAA100000891AY171061AY231061GA1061+003909069GF108991061051004501071999KA1120N-01441MD1410001+9999MW1711OA149901201REMSYN100AAXX  03061 23256 11495 81707 11067 21079 40044 54000 69970 77173 8657/ 333 21144 86613 91112 92990;
0166232560999992000020309004+67470+078730FM-12+000899999V0201901N008010039019N0020001N1-00721-00891100551ADDAY171031AY231031GA1061+003909059GF108991061051004501071999MD1210111+9999MW1711REMSYN076AAXX  03091 23256 41495 81908 11072 21089 40055 52011 77173 8657/ 333 86613;
0188232560999992000020312004+67470+078730FM-12+000899999V0201801N009019999999N0040001N1-00801-00981100661ADDAY171061AY231061GF108991081001999999071999MA1999999100311MD1210101+9999MW1711OA140101201REMSYN088AAXX  03121 23256 41996 81809 11080 21098 30031 40066 52010 77173 8807/ 333 91012 91112;
0185232560999992000020315004+67470+078730FM-12+000899999V0201901N009010300019N0020001N1-00851-01001100661ADDAY171031AY231031GA1041+004509059GF108991041051004501071999KA1120M-00641MD1410001+9999MW1711REMSYN082AAXX  03151 23256 /1495 81909 11085 21100 40066 54000 77173 8457/ 333 11064 84615;
0203232560999992000020318004+67470+078730FM-12+000899999V0201901N009019999999N0040001N1-00891-01091100701ADDAA100002091AY171061AY231061GF108991081001999999071999KA1120M-00641MD1210041+9999MW1711OA140101201REMSYN094AAXX  03181 23256 11996 81909 11089 21109 40070 52004 60020 77173 8807/ 333 11064 91012 91112;
0140232560999992000020321004+67470+078730FM-12+000899999V0201801N009019999999N0040001N1-00941-01151100701ADDAY171031AY231031GF108991081001999999071999MD1410001+9999MW1711REMSYN066AAXX  03211 23256 41996 81809 11094 21115 40070 54000 77173 8807/;
0188232560999992000020400004+67470+078730FM-12+000899999V0201701N009019999999N0040001N1-01031-01231100671ADDAY171061AY231061GF108991081001999999071999MA1999999100321MD1710031+9999MW1711OA140101201REMSYN088AAXX  04001 23256 41996 81709 11103 21123 30032 40067 57003 77173 8807/ 333 91012 91112;
0179232560999992000020403004+67470+078730FM-12+000899999V0201701N008019999999N0200001N1-01131-01411100631ADDAJ100419199999999AY171031AY231031GF108991081001999999071999IA1249MD1710041+9999MW1221REMSYN082AAXX  04031 23256 /1998 81708 11113 21141 40063 57004 72273 8807/ 333 48041 55000;
0166232560999992000020409004+67470+078730FM-12+000899999V0201601N008010300019N0200001N1-01091-01531100471ADDAY171031AY221031GA1041+007209059GF108991041051008001071999MD1710111+9999MW1711REMSYN076AAXX  04091 23256 41598 81608 11109 21153 40047 57011 77172 8457/ 333 84624;
0210232560999992000020412004+67470+078730FM-12+000899999V0201401N009010042019N0020001N1-01141-01491100281ADDAY171061AY231061GA1061+004209069GF108991061051004501071999MA1999999099931MD1710191+9999MW1711OA140101201REMSYN094AAXX  04121 23256 41495 81409 11114 21149 39993 40028 57019 77173 8657/ 333 86614 91012 91112;
0185232560999992000020415004+67470+078730FM-12+000899999V0201601N009010048019N0020001N1-01151-01431100101ADDAY171031AY231031GA1051+004809059GF108991051051004501071999KA1120M-01081MD1710181+9999MW1711REMSYN082AAXX  04151 23256 /1495 81609 11115 21143 40010 57018 77173 8557/ 333 11108 85616;
0203232560999992000020418004+67470+078730FM-12+000899999V0201501N010019999999N0040001N1-01141-01421099911ADDAA100000591AY171061AY231061GF108991081001999999071999KA1120M-01081MD1710191+9999MW1711OA140101301REMSYN094AAXX  04181 23256 11996 81510 11114 21142 49991 57019 69940 77173 8807/ 333 11108 91013 91114;
0140232560999992000020421004+67470+078730FM-12+000899999V0201601N009019999999N0040001N1-01161-01441099781ADDAY171031AY231031GF108991081001999999071999MD1710121+9999MW1711REMSYN066AAXX  04211 23256 41996 81609 11116 21144 49978 57012 77173 8807/;
0188232560999992000020500004+67470+078730FM-12+000899999V0201601N009019999999N0020001N1-01171-01441099651ADDAY171061AY231061GF108991081001999999071999MA1999999099311MD1710131+9999MW1711OA140101201REMSYN088AAXX  05001 23256 41995 81609 11117 21144 39931 49965 57013 77173 8807/ 333 91012 92112;
0209232560999992000020503004+67470+078730FM-12+000899999V0201401N009010024019N0020001N1-01231-01501099501ADDAJ100439199999999AY171031AY231031GA1061+002409069GF108991081051002501999999GJ100009IA1249MD1710151+9999MW1711REMSYN088AAXX  05031 23256 /1395 81409 11123 21150 49950 57015 77173 885// 333 48043 55000 86708;
0225232560999992000020506004+67470+078730FM-12+000899999V0201301N009010036019N0020001N1-01271-01541099311ADDAA100001091AY171061AY231061GA1051+003609069GF108991061051004501071999KA1120N-01251MD1710201+9999MW1711OA140101201REMSYN100AAXX  05061 23256 11495 81309 11127 21154 49931 57020 60010 77173 8657/ 333 21125 85612 91012 91113;
0140232560999992000020509004+67470+078730FM-12+000899999V0201201N008010300019N0020001N1-01231-01501099141ADDAY171031AY231031GF108991031051004501071999MD1710161+9999MW1711REMSYN066AAXX  05091 23256 41495 81208 11123 21150 49914 57016 77173 8357/;
0193232560999992000020512004+67470+078730FM-12+000899999V0201601N005010300019N0040001N1-01311-01511099231ADDAY171061AY231061GA1041+001509079GF108991041071001501071999MA1999999098881MD1210081+9999MW1711REMSYN088AAXX  05121 23256 41296 81605 11131 21151 39888 49923 52008 77173 8477/ 333 84705 92990;
0163232560999992000020515004+67470+078730FM-12+000899999V0201801N005019999999N0200001N1-01481-01681099391ADDAY171031AY221031GF108991081001999999071999KA1999M-01231MD1210161+9999MW1711REMSYN076AAXX  05151 23256 /1998 81805 11148 21168 49939 52016 77172 8807/ 333 11123;
0180232560999992000020518004+67470+078730FM-12+000899999V0201901N005019999999N0200001N1-01741-01931099511ADDAA100001091AY171061AY221061GF108991001001999999001061KA1999M-01231MD1210121+9999MW1711REMSYN082AAXX  05181 23256 11998 81905 11174 21193 49951 52012 60010 77172 80006 333 11123;
0140232560999992000020521004+67470+078730FM-12+000899999V0201801N005019999999N0040001N1-01881-02071099641ADDAY171031AY221031GF108991001001999999001061MD1210121+9999MW1711REMSYN066AAXX  05211 23256 41996 81805 11188 21207 49964 52012 77172 80006;
0161232560999992000020600004+67470+078730FM-12+000899999V0201901N005019999999N0200001N1-01851-02041099771ADDAY171061AY221061GF108991001001999999001061MA1999999099411MD1210131+9999MW1711REMSYN072AAXX  06001 23256 41998 81905 11185 21204 39941 49977 52013 77172 80006;
0179232560999992000020603004+67470+078730FM-12+000899999V0202001N006019999999N0200001N1-01961-02151099851ADDAJ100429199999999AY171031AY221031GF108991001001999999001061IA1249MD1210081+9999MW1711REMSYN082AAXX  06031 23256 /1998 82006 11196 21215 49985 52008 77172 80006 333 48042 55000;
0199232560999992000020606004+67470+078730FM-12+000899999V0202101N007019999999N0100001N1-02041-02291099921ADDAA100000791AY171061AY221061GF108991001001999999001061KA1999N+99999MD1210071+9999MW1711REMSYN082AAXX  06061 23256 11997 82107 11204 21229 49992 52007 69900 77172 80006 333 21196;EQDQ01 -01962ATMN  
0140232560999992000020609004+67470+078730FM-12+000899999V0202201N008019999999N0100001N1-02211-02471100071ADDAY171031AY221031GF106991001001999999001011MD1210151+9999MW1361REMSYN066AAXX  06091 23256 41997 62208 11221 21247 40007 52015 73672 80001;
0161232560999992000020612004+67470+078730FM-12+000899999V0202301N007012200019N0200001N1-02451-02701100351ADDAY171061AY231061GF104991001001999999001011MA1999999099981MD1210271+9999MW1021REMSYN072AAXX  06121 23256 41998 42307 11245 21270 39998 40035 52027 70273 80001;
0145232560999992000020615004+67470+078730FM-12+000899999V0202301N005012200019N0200001N1-02991+99999100521ADDGA1001+999999999GF100991001001999999001001KA1999M-01961MD1210171+9999REMSYN064AAXX  06151 23256 /2998 02305 11299 21284 40052 52017 333 11196;
0162232560999992000020618004+67470+078730FM-12+000899999V0202301N005012200019N0200001N1-02501-02741100671ADDAA100000591GA1001+999999999GF100991001001999999001001KA1999M-01961MD1210151+9999REMSYN070AAXX  06181 23256 12998 02305 11250 21274 40067 52015 69960 333 11196;
0140232560999992000020621004+67470+078730FM-12+000899999V0202401N007019999999N0040001N1-02241-02491100851ADDAY171031AY231031GF108991001001999999001061MD1210191+9999MW1711REMSYN066AAXX  06211 23256 41996 82407 11224 21249 40085 52019 77173 80006;
0161232560999992000020700004+67470+078730FM-12+000899999V0202401N007019999999N0040001N1-02151-02401100981ADDAY171061AY231061GF108991001001999999001061MA1999999100611MD1210121+9999MW1711REMSYN072AAXX  07001 23256 41996 82407 11215 21240 30061 40098 52012 77173 80006;
0209232560999992000020703004+67470+078730FM-12+000899999V0202301N008010078019N0100001N1-02191-02441101161ADDAJ100419199999999AY171031AY231031GA1051+007809059GF108991051051008001001061GJ100609IA1249MD1210181+9999MW1711REMSYN088AAXX  07031 23256 /1597 82308 11219 21244 40116 52018 77173 85506 333 48041 55010 85626;
0203232560999992000020706004+67470+078730FM-12+000899999V0202401N009019999999N0100001N1-02391-02641101291ADDAA100000191AY171061AY231061GF107991031001999999031011KA1120N-02681MD1210131+9999MW1361OA140101201REMSYN094AAXX  07061 23256 11997 72409 11239 21264 40129 52013 69920 73673 83031 333 21268 91012 91113;
0140232560999992000020709004+67470+078730FM-12+000899999V0202101N009019999999N0020001N1-02231-02481101481ADDAY131031AY231031GF107991021001999999031011MD1210191+9999MW1381REMSYN066AAXX  07091 23256 41995 72109 11223 21248 40148 52019 73833 82031;
0171232560999992000020712004+67470+078730FM-12+000899999V0202001N007019999999N0200001N1-02321-02571101571ADDAY131061AY231061GF105991001001999999001011MA1999999101201MD1210091+9999MW1361REMSYN082AAXX  07121 23256 41998 52007 11232 21257 30120 40157 52009 73633 80001 333 91112;
0163232560999992000020715004+67470+078730FM-12+000899999V0202101N007019999999N0040001N1-02411-02661101651ADDAY131031AY221031GF108991001001999999001061KA1999M-02091MD1210081+9999MW1711REMSYN076AAXX  07151 23256 /1996 82107 11241 21266 40165 52008 77132 80006 333 11209;
0203232560999992000020718004+67470+078730FM-12+000899999V0202001N010019999999N0020001N1-02401-02651101751ADDAA100000591AY171061AY231061GF108991001001999999001061KA1120M-02091MD1210101+9999MW1711OA140101301REMSYN094AAXX  07181 23256 11995 82010 11240 21265 40175 52010 69960 77173 80006 333 11209 91013 91113;
0159232560999992000020721004+67470+078730FM-12+000899999V0201901N006019999999N0040001N1-02521-02771999999ADDAY171031AY231031GF108991081001999999071999MD1210061+9999MW1711REMSYN066AAXX  07211 23256 41996 81906 11252 21277 40017 52006 77173 8807/;EQDQ01+100173APOSLP
0161232560999992000020800004+67470+078730FM-12+000899999V0201701N004019999999N0200001N1-02591-02911101891ADDAY171061AY231061GF108991001001999999001061MA1999999101511MD1210071+9999MW1711REMSYN072AAXX  08001 23256 41998 81704 11259 21291 30151 40189 52007 77173 80006;
0209232560999992000020803004+67470+078730FM-12+000899999V0201501N004010015019N0200001N1-02691-03001101961ADDAJ100419199999999AY171031AY221031GA1051+001509069GF108991051061001501001061GJ101929IA1249MD1210071+9999MW1021REMSYN088AAXX  08031 23256 /1298 81504 11269 21300 40196 52007 70272 85606 333 48041 55032 85705;
0202232560999992000020806004+67470+078730FM-12+000899999V0201301N005010015019N0100001N1-02691-03001101941ADDAA100000391AY171061AY221061GA1051+001509069GF108991061061001501001061KA1120N-02691MD1710021+9999MW1221REMSYN088AAXX  08061 23256 11297 81305 11269 21300 40194 57002 69930 72272 86606 333 21269 85705;
0112232560999992000020809004+67470+078730FM-12+000899999V0201401N005012200019N0200001N1-02681-03001101961ADDGF102991001001999999001011MD1210021+9999REMSYN060AAXX  08091 23256 42998 21405 11268 21300 40196 52002 80001;
0143232560999992000020812004+67470+078730FM-12+000899999V0201401N005012200019N0200001N1-02761-03061101971ADDGA1001+999999999GF100991001001999999001001MA1999999101591MD1210011+9999REMSYN060AAXX  08121 23256 42998 01405 11276 21306 30159 40197 52001;
0163232560999992000020815004+67470+078730FM-12+000899999V0201601N005019999999N0200001N1-02811-03111101961ADDAY111031AY211031GF108991001001999999001061KA1999M-02661MD1710011+9999MW1711REMSYN076AAXX  08151 23256 /1998 81605 11281 21311 40196 57001 77111 80006 333 11266;
0180232560999992000020818004+67470+078730FM-12+000899999V0201401N004012200019N0200001N1-02761-03061101941ADDAA100000791AY171061AY211061GF103991001001999999001011KA1999M-02661MD1710021+9999MW1021REMSYN082AAXX  08181 23256 11998 31404 11276 21306 40194 57002 69900 70271 80001 333 11266;
0140232560999992000020821004+67470+078730FM-12+000899999V0201401N004019999999N0200001N1-02581-02891101851ADDAY171031AY211031GF108991001001999999001061MD1710081+9999MW1711REMSYN066AAXX  08211 23256 41998 81404 11258 21289 40185 57008 77171 80006;
0187232560999992000020900004+67470+078730FM-12+000899999V0201401N004010018019N0040001N1-02601-02911101891ADDAY171061AY221061GA1051+001809069GF108991051061002501001061MA1999999101511MD1210031+9999MW1711REMSYN082AAXX  09001 23256 41396 81404 11260 21291 30151 40189 52003 77172 85606 333 85706;
0209232560999992000020903004+67470+078730FM-12+000899999V0201601N005010024019N0200001N1-02371-02681101881ADDAJ100419199999999AY171031AY221031GA1061+002409069GF108991061061002501001061GJ101449IA1249MD1710011+9999MW1711REMSYN088AAXX  09031 23256 /1398 81605 11237 21268 40188 57001 77172 86606 333 48041 55024 86708;
0180232560999992000020906004+67470+078730FM-12+000899999V0201501N005012200019N0200001N1-02201-02451101881ADDAA100000191AY171061AY221061GF107991031061002501001011KA1999N-02811MD1210011+9999MW1221REMSYN082AAXX  09061 23256 11398 71505 11220 21245 40188 52001 69920 72272 83601 333 21281;
0138232560999992000020909004+67470+078730FM-12+000899999V0201801N007010015019N0200001N1-02141-02391101921ADDGA1051+001509069GF106991051061001501001011MD1210041+9999REMSYN070AAXX  09091 23256 42298 61807 11214 21239 40192 52004 85601 333 85705;
0133232560999992000020912004+67470+078730FM-12+000899999V0201701N006012200019N0200001N1-02271-02521102031ADDGF103991001001999999001011MA1999999101651MD1210101+9999REMSYN066AAXX  09121 23256 42998 31706 11227 21252 30165 40203 52010 80001;
0163232560999992000020915004+67470+078730FM-12+000899999V0201801N009012200019N0040001N1-02131-02381102051ADDAY131031AY201031GF102991001001999999001011KA1999M-02121MD1210031+9999MW1381REMSYN076AAXX  09151 23256 11996 21809 11213 21238 40205 52003 73830 80001 333 11212;
0213232560999992000020918004+67470+078730FM-12+000899999V0201801N009012200019N0040001N1-02081-02331102211ADDAA100000791AY131061AY201061GA1001+999999999GF100991001001999999001001KA1120M-02121MD1210161+9999MW1381OA140101201REMSYN088AAXX  09181 23256 11996 01809 11208 21233 40221 52016 69900 73830 333 11212 91012 91113;
0150232560999992000020921004+67470+078730FM-12+000899999V0201701N002012200019N0200001N1-02161-02411102301ADDAY131031AY201031GA1001+999999999GF100991001001999999001001MD1210091+9999MW1021REMSYN060AAXX  09211 23256 41998 01702 11216 21241 40230 52009 70230;
0171232560999992000021000004+67470+078730FM-12+000899999V0201801N005012200019N0200001N1-02161-02411102351ADDAY131061AY231061GA1001+999999999GF100991001001999999001001MA1999999101981MD1210051+9999MW1021REMSYN066AAXX  10001 23256 41998 01805 11216 21241 30198 40235 52005 70233;
0191232560999992000021003004+67470+078730FM-12+000899999V0201701N005012200019N0200001N1-02271-02591102431ADDAA199000091AJ100119199999999GA1001+999999999GF100991001001999999001001IA1249MD1210071+9999REMSYN070AAXX  10031 23256 32998 01705 11227 21259 40243 52007 333 48011 55033;EQDQ01  00002PRCP99
0175232560999992000021006004+67470+078730FM-12+000899999V0201601N005012200019N0200001N1-02191-02511102471ADDAA199000091GA1001+999999999GF100991001001999999001001KA1999N-02271MD1210051+9999REMSYN064AAXX  10061 23256 32998 01605 11219 21251 40247 52005 333 21227;EQDQ01  00002PRCP99
0112232560999992000021009004+67470+078730FM-12+000899999V0201601N006012200019N0200001N1-02031-02281102541ADDGF102991001001999999001011MD1210071+9999REMSYN060AAXX  10091 23256 42998 21606 11203 21228 40254 52007 80001;
0133232560999992000021012004+67470+078730FM-12+000899999V0201701N006012200019N0200001N1-01961-02221102601ADDGF102991001001999999001011MA1999999102231MD1210061+9999REMSYN066AAXX  10121 23256 42998 21706 11196 21222 30223 40260 52006 80001;
0165232560999992000021015004+67470+078730FM-12+000899999V0201601N005012200019N0200001N1-02121-02371102621ADDAA199000091GF102991001001999999001011KA1999M-01961MD1210021+9999REMSYN070AAXX  10151 23256 32998 21605 11212 21237 40262 52002 80001 333 11196;EQDQ01  00002PRCP99
0175232560999992000021018004+67470+078730FM-12+000899999V0201601N005012200019N0200001N1-02241-02491102621ADDAA199000091GA1001+999999999GF100991001001999999001001KA1999M-01961MD1410001+9999REMSYN064AAXX  10181 23256 32998 01605 11224 21249 40262 54000 333 11196;EQDQ01  00002PRCP99
0122232560999992000021021004+67470+078730FM-12+000899999V0201601N005012200019N0200001N1-02291-02541102631ADDGA1001+999999999GF100991001001999999001001MD1410001+9999REMSYN054AAXX  10211 23256 42998 01605 11229 21254 40263 54000;
0143232560999992000021100004+67470+078730FM-12+000899999V0201601N006012200019N0200001N1-02301-02551102611ADDGA1001+999999999GF100991001001999999001001MA1999999102231MD1710021+9999REMSYN060AAXX  11001 23256 42998 01606 11230 21255 30223 40261 57002;
0181232560999992000021103004+67470+078730FM-12+000899999V0201501N006019999999N0200001N1-02241-02491102601ADDAA199000091AJ100419199999999GF107991021001999999031011IA1249MD1410001+9999REMSYN076AAXX  11031 23256 32998 71506 11224 21249 40260 54000 82031 333 48041 55069;EQDQ01  00002PRCP99
0165232560999992000021106004+67470+078730FM-12+000899999V0201701N007019999999N0200001N1-02041-02291102561ADDAA199000091GF107991031001999999031011KA1999N-02371MD1710041+9999REMSYN070AAXX  11061 23256 32998 71707 11204 21229 40256 57004 83031 333 21237;EQDQ01  00002PRCP99
0112232560999992000021109004+67470+078730FM-12+000899999V0201601N009019999999N0200001N1-01821-02151102571ADDGF108991081001999999071999MD1210011+9999REMSYN060AAXX  11091 23256 42998 81609 11182 21215 40257 52001 8807/;
0188232560999992000021112004+67470+078730FM-12+000899999V0201801N011019999999N0040001N1-01621-01881102531ADDAY131061AY231061GF108991081001999999071999MA1999999102171MD1710031+9999MW1381OA140101401REMSYN088AAXX  11121 23256 41996 81811 11162 21188 30217 40253 57003 73833 8807/ 333 91014 91114;
0193232560999992000021115004+67470+078730FM-12+000899999V0201801N010019999999N0200001N1-01681-01941102571ADDAA199000091AY131031AY221031GF107991071001999999031001KA1999M-01621MD1210041+9999MW1021REMSYN076AAXX  11151 23256 31998 71810 11168 21194 40257 52004 70232 87030 333 11162;EQDQ01  00002PRCP99
0216232560999992000021118004+67470+078730FM-12+000899999V0201901N010019999999N0200001N1-01581-01851102621ADDAA199000091AY131061AY221061GF108991001001999999001061KA1120M-01621MD1210051+9999MW1021OA140101301REMSYN088AAXX  11181 23256 31998 81910 11158 21185 40262 52005 70232 80006 333 11162 91013 91113;EQDQ01  00002PRCP99
0112232560999992000021121004+67470+078730FM-12+000899999V0201801N009019999999N0200001N1-01671-01931102691ADDGF108991001001999999001061MD1210071+9999REMSYN060AAXX  11211 23256 42998 81809 11167 21193 40269 52007 80006;
0160232560999992000021200004+67470+078730FM-12+000899999V0201801N009019999999N0200001N1-01741-02001102761ADDGF108991001001999999001061MA1999999102401MD1210071+9999OA140101201REMSYN082AAXX  12001 23256 42998 81809 11174 21200 30240 40276 52007 80006 333 91012 91113;
0181232560999992000021203004+67470+078730FM-12+000899999V0201701N007012200019N0200001N1-02001-02261102811ADDAA199000091AJ100419199999999GF103991001001999999001011IA1249MD1210041+9999REMSYN076AAXX  12031 23256 32998 31707 11200 21226 40281 52004 80001 333 48041 55000;EQDQ01  00002PRCP99
0181232560999992000021206004+67470+078730FM-12+000899999V0201501N006012200019N0200001N1-02091-02341102771ADDAA199000091GF102991001001999999001011KA1999N+99999MD1710041+9999REMSYN070AAXX  12061 23256 32998 21506 11209 21234 40277 57004 80001 333 21200;EQDQ01  00002PRCP99Q02 -02002ATMN  
0181232560999992000021209004+67470+078730FM-12+000899999V0201501N006012200019N0200001N1-02091-02341102771ADDAA199000091GF102991001001999999001011KA1999N+99999MD1710041+9999REMSYN070AAXX  12091 23256 32998 21506 11209 21234 40277 57004 80001 333 21200;EQDQ01  00002PRCP99Q02 -02002ATMN  
0133232560999992000021212004+67470+078730FM-12+000899999V0201501N006019999999N0200001N1-02141-02391102811ADDGF105991001001999999001011MA1999999102441MD1210011+9999REMSYN066AAXX  12121 23256 42998 51506 11214 21239 30244 40281 52001 80001;
0133232560999992000021215004+67470+078730FM-12+000899999V0201501N006019999999N0200001N1-02141-02391102811ADDGF105991001001999999001011MA1999999102441MD1210011+9999REMSYN066AAXX  12151 23256 42998 51506 11214 21239 30244 40281 52001 80001;
0175232560999992000021218004+67470+078730FM-12+000899999V0201501N007012200019N0200001N1-02221-02471102751ADDAA199000091GA1001+999999999GF100991001001999999001001KA1999M-02001MD1710041+9999REMSYN064AAXX  12181 23256 32998 01507 11222 21247 40275 57004 333 11200;EQDQ01  00002PRCP99
0122232560999992000021221004+67470+078730FM-12+000899999V0201501N005012200019N0200001N1-02311-02551102761ADDGA1001+999999999GF100991001001999999001001MD1410001+9999REMSYN054AAXX  12211 23256 42998 01505 11231 21255 40276 54000;
0143232560999992000021300004+67470+078730FM-12+000899999V0201501N002012200019N0200001N1-02301-02551102711ADDGA1001+999999999GF100991001001999999001001MA1999999102331MD1710051+9999REMSYN060AAXX  13001 23256 42998 01502 11230 21255 30233 40271 57005;
0135232560999992000021306004+67470+078730FM-12+000899999V0201401N008019999999N0200001N1-02221-02471102661ADDGF106991001001999999001011KA1999N-02361MD1710011+9999REMSYN070AAXX  13061 23256 42998 61408 11222 21247 40266 57001 80001 333 21236;
0112232560999992000021309004+67470+078730FM-12+000899999V0201401N006019999999N0200001N1-02121-02371102591ADDGF105991001001999999001011MD1710071+9999REMSYN060AAXX  13091 23256 42998 51406 11212 21237 40259 57007 80001;
0133232560999992000021312004+67470+078730FM-12+000899999V0201401N008019999999N0200001N1-01211-02371102561ADDGF105991001001999999001011MA1999999102191MD1710031+9999REMSYN066AAXX  13121 23256 42998 51408 11121 21237 30219 40256 57003 80001;
0165232560999992000021315004+67470+078730FM-12+000899999V0201301N006012200019N0200001N1-02181-02431102491ADDAA199000091GF102991001001999999001011KA1999M-02111MD1710071+9999REMSYN070AAXX  13151 23256 32998 21306 11218 21243 40249 57007 80001 333 11211;EQDQ01  00002PRCP99
0165232560999992000021318004+67470+078730FM-12+000899999V0201301N006012200019N0200001N1-02191-02441102441ADDAA199000091GF103991001001999999001011KA1999M-02111MD1710051+9999REMSYN070AAXX  13181 23256 32998 31306 11219 21244 40244 57005 80001 333 11211;EQDQ01  00002PRCP99
0112232560999992000021321004+67470+078730FM-12+000899999V0201201N006019999999N0200001N1-02111-02361102341ADDGF108991081001999999071999MD1710101+9999REMSYN060AAXX  13211 23256 42998 81206 11211 21236 40234 57010 8807/;
0179232560999992000021403004+67470+078730FM-12+000899999V0201201N007019999999N0100001N1-02001-02331102181ADDAJ100419199999999AY171031AY221031GF108991081001999999071999IA1249MD1710111+9999MW1711REMSYN082AAXX  14031 23256 /1997 81207 11200 21233 40218 57011 77172 8807/ 333 48041 55047;
0174232560999992000021406004+67470+078730FM-12+000899999V0201201N005019999999N0200001N1+99999+99999102091ADDAA100000791AY171061AY221061GF107991071001999999031001KA1999N-02261MD1710091+9999MW1021REMSYN076AAXX  14061 23256 11998 71205 21238 40209 57009 69900 70272 87030 333 21226;
0112232560999992000021409004+67470+078730FM-12+000899999V0201201N005012200019N0200001N1-02051-02381102011ADDGF103991001001999999001011MD1710081+9999REMSYN060AAXX  14091 23256 42998 31205 11205 21238 40201 57008 80001;
0133232560999992000021412004+67470+078730FM-12+000899999V0201101N004012200019N0200001N1-02251-02501102011ADDGF103991001001999999001011MA1999999101641MD1410001+9999REMSYN066AAXX  14121 23256 42998 31104 11225 21250 30164 40201 54000 80001;
0162232560999992000021418004+67470+078730FM-12+000899999V0201201N003012200019N0200001N1-02401-02651101851ADDAA100000791GA1001+999999999GF100991001001999999001001KA1999M-02001MD1710071+9999REMSYN070AAXX  14181 23256 12998 01203 11240 21265 40185 57007 69900 333 11200;
0140232560999992000021421004+67470+078730FM-12+000899999V0201001N002019999999N0200001N1-02191-02441101711ADDAY171031AY211031GF108991001001999999001061MD1710141+9999MW1711REMSYN066AAXX  14211 23256 41998 81002 11219 21244 40171 57014 77171 80006;
0161232560999992000021500004+67470+078730FM-12+000899999V0200901N002019999999N0200001N1-02041-02291101631ADDAY171061AY241061GF108991001001999999001061MA1999999101261MD1710081+9999MW1711REMSYN072AAXX  15001 23256 41998 80902 11204 21229 30126 40163 57008 77174 80006;
0179232560999992000021503004+67470+078730FM-12+000899999V0201001N003019999999N0200001N1-02321-02571101521ADDAJ100419199999999AY171031AY221031GF108991001001999999001061IA1249MD1710111+9999MW1711REMSYN082AAXX  15031 23256 /1998 81003 11232 21257 40152 57011 77172 80006 333 48041 55042;
0180232560999992000021506004+67470+078730FM-12+000899999V0201001N002019999999N0200001N1-02481-02731101421ADDAA100000391AY171061AY221061GF106991001001999999001011KA1999N-02461MD1710101+9999MW1021REMSYN082AAXX  15061 23256 11998 61002 11248 21273 40142 57010 69930 70272 80001 333 21246;
0112232560999992000021509004+67470+078730FM-12+000899999V0201101N002019999999N0200001N1-02431-02751101431ADDGF107991001001999999001011MD1210011+9999REMSYN060AAXX  15091 23256 42998 71102 11243 21275 40143 52001 80001;
0187232560999992000021512004+67470+078730FM-12+000899999V0201101N002010078019N0200001N1-02551-02801101391ADDAY171061AY221061GA1051+007809059GF108991051051008001001061MA1999999101021MD1710041+9999MW1021REMSYN082AAXX  15121 23256 41598 81102 11255 21280 30102 40139 57004 70272 85506 333 85626;
0185232560999992000021515004+67470+078730FM-12+000899999V0201101N001010069019N0200001N1-02361-02611101371ADDAY171031AY221031GA1051+006909059GF108991051051008001001061KA1120M-02321MD1710021+9999MW1711REMSYN082AAXX  15151 23256 /1598 81101 11236 21261 40137 57002 77172 85506 333 11232 85623;
0180232560999992000021518004+67470+078730FM-12+000899999V0201201N002012200019N0200001N1-02581-02821101371ADDAA100000191AY171061AY211061GF102991001001999999001011KA1999M-02321MD1410001+9999MW1021REMSYN082AAXX  15181 23256 11998 21202 11258 21282 40137 54000 69920 70271 80001 333 11232;
0140232560999992000021521004+67470+078730FM-12+000899999V0201501N001019999999N0200001N1-02511-02751101381ADDAY111031AY211031GF108991001001999999001061MD1210011+9999MW1711REMSYN066AAXX  15211 23256 41998 81501 11251 21275 40138 52001 77111 80006;
0161232560999992000021600004+67470+078730FM-12+000899999V0201301N001019999999N0200001N1-02521-02771101421ADDAY171061AY211061GF108991001001999999001061MA1999999101051MD1210041+9999MW1711REMSYN072AAXX  16001 23256 41998 81301 11252 21277 30105 40142 52004 77171 80006;
0209232560999992000021603004+67470+078730FM-12+000899999V0201301N002010072019N0200001N1-02401-02651101451ADDAJ100419199999999AY171031AY221031GA1051+007209059GF108991051051008001001061GJ103549IA1249MD1210031+9999MW1711REMSYN088AAXX  16031 23256 /1598 81302 11240 21265 40145 52003 77172 85506 333 48041 55059 85624;
0180232560999992000021606004+67470+078730FM-12+000899999V0209999C000019999999N0200001N1-02371-02611101501ADDAA100000591AY171061AY221061GF108991001001999999001061KA1999N-02641MD1210051+9999MW1711REMSYN082AAXX  16061 23256 11998 80000 11237 21261 40150 52005 69940 77172 80006 333 21264;
0166232560999992000021609004+67470+078730FM-12+000899999V0201301N001010750019N0200001N1-02371-02611101621ADDAY171031AY221031GA1041+004209059GF108991041051004501001061MD1210121+9999MW1021REMSYN076AAXX  16091 23256 41498 81301 11237 21261 40162 52012 70272 84506 333 84614;
0187232560999992000021612004+67470+078730FM-12+000899999V0209999C000010084019N0200001N1-02501-02741101711ADDAY171061AY221061GA1051+008409059GF108991051051008001001061MA1999999101341MD1210091+9999MW1711REMSYN082AAXX  16121 23256 41598 80000 11250 21274 30134 40171 52009 77172 85506 333 85628;
0163232560999992000021615004+67470+078730FM-12+000899999V0201501N001019999999N0200001N1-02641-02881101731ADDAY171031AY221031GF108991001001999999001061KA1999M-02341MD1210021+9999MW1711REMSYN076AAXX  16151 23256 /1998 81501 11264 21288 40173 52002 77172 80006 333 11234;
0180232560999992000021618004+67470+078730FM-12+000899999V0202501N001019999999N0200001N1-02681-03001101801ADDAA100000191AY171061AY221061GF106991001001999999001011KA1999M-02341MD1210071+9999MW1021REMSYN082AAXX  16181 23256 11998 62501 11268 21300 40180 52007 69920 70272 80001 333 11234;
0112232560999992000021621004+67470+078730FM-12+000899999V0202201N002019999999N0200001N1-02761-03061101921ADDGF105991001001999999001011MD1210111+9999REMSYN060AAXX  16211 23256 42998 52202 11276 21306 40192 52011 80001;
0133232560999992000021700004+67470+078730FM-12+000899999V0201501N002019999999N0200001N1-02921-03221101961ADDGF105991021001999999031011MA1999999101581MD1210041+9999REMSYN066AAXX  17001 23256 42998 51502 11292 21322 30158 40196 52004 82031;
0179232560999992000021703004+67470+078730FM-12+000899999V0201701N002019999999N0200001N1-02821-03131102041ADDAJ100439199999999AY121031AY221031GF108991021001999999031011IA1249MD1210081+9999MW1711REMSYN082AAXX  17031 23256 /1998 81702 11282 21313 40204 52008 77122 82031 333 48043 55035;
0180232560999992000021706004+67470+078730FM-12+000899999V0201501N002019999999N0200001N1-02661-02971102081ADDAA100000791AY171061AY221061GF107991031001999999031011KA1999N-02961MD1210041+9999MW1221REMSYN082AAXX  17061 23256 11998 71502 11266 21297 40208 52004 69900 72272 83031 333 21296;
0112232560999992000021709004+67470+078730FM-12+000899999V0201501N003019999999N0200001N1-02541-02851102141ADDGF107991001001999999001011MD1210061+9999REMSYN060AAXX  17091 23256 42998 71503 11254 21285 40214 52006 80001;
0161232560999992000021712004+67470+078730FM-12+000899999V0201601N002019999999N0200001N1-02491-02811102181ADDAY171061AY221061GF108991001001999999001061MA1999999101801MD1210041+9999MW1711REMSYN072AAXX  17121 23256 41998 81602 11249 21281 30180 40218 52004 77172 80006;
0163232560999992000021715004+67470+078730FM-12+000899999V0201501N002019999999N0200001N1-02541-02851102251ADDAY171031AY221031GF108991031001999999031061KA1999M-02391MD1210071+9999MW1711REMSYN076AAXX  17151 23256 /1998 81502 11254 21285 40225 52007 77172 83036 333 11239;
0180232560999992000021718004+67470+078730FM-12+000899999V0201601N002019999999N0200001N1-02511-02821102321ADDAA100000191AY171061AY221061GF108991081001999999071999KA1999M-02391MD1210071+9999MW1711REMSYN082AAXX  17181 23256 11998 81602 11251 21282 40232 52007 69920 77172 8807/ 333 11239;
0140232560999992000021721004+67470+078730FM-12+000899999V0201601N002019999999N0200001N1-02881-03181102381ADDAY171031AY221031GF108991081001999999071999MD1210061+9999MW1021REMSYN066AAXX  17211 23256 41998 81602 11288 21318 40238 52006 70272 8807/;
0161232560999992000021800004+67470+078730FM-12+000899999V0201601N002019999999N0200001N1-02241-02561102431ADDAY171061AY221061GF108991081001999999071999MA1999999102061MD1210061+9999MW1711REMSYN072AAXX  18001 23256 41998 81602 11224 21256 30206 40243 52006 77172 8807/;
0179232560999992000021803004+67470+078730FM-12+000899999V0201701N002019999999N0200001N1-02191-02441102511ADDAJ100439199999999AY171031AY221031GF108991081001999999071999IA1249MD1210081+9999MW1711REMSYN082AAXX  18031 23256 /1998 81702 11219 21244 40251 52008 77172 8807/ 333 48043 55032;
0180232560999992000021806004+67470+078730FM-12+000899999V0201501N002019999999N0200001N1-02191-02441102581ADDAA100000191AY171061AY221061GF108991021001999999031061KA1999N-02891MD1210071+9999MW1221REMSYN082AAXX  18061 23256 11998 81502 11219 21244 40258 52007 69920 72272 82036 333 21289;
0112232560999992000021809004+67470+078730FM-12+000899999V0201301N001019999999N0200001N1-02341-02591102721ADDGF107991001001999999001011MD1210131+9999REMSYN060AAXX  18091 23256 42998 71301 11234 21259 40272 52013 80001;
0133232560999992000021812004+67470+078730FM-12+000899999V0201401N001019999999N0200001N1-02381-02631102811ADDGF106991001001999999001011MA1999999102431MD1210091+9999REMSYN066AAXX  18121 23256 42998 61401 11238 21263 30243 40281 52009 80001;
0135232560999992000021815004+67470+078730FM-12+000899999V0201501N002019999999N0200001N1-02341-02591102931ADDGF107991001001999999001011KA1999M-02191MD1210121+9999REMSYN070AAXX  18151 23256 /2998 71502 11234 21259 40293 52012 80001 333 11219;
0152232560999992000021818004+67470+078730FM-12+000899999V0201501N002019999999N0200001N1-02351-02601102991ADDAA100000791GF106991001001999999001011KA1999M-02191MD1210061+9999REMSYN076AAXX  18181 23256 12998 61502 11235 21260 40299 52006 69900 80001 333 11219;
0140232560999992000021821004+67470+078730FM-12+000899999V0201401N002019999999N0200001N1-02381-02631103041ADDAY171031AY221031GF108991001001999999001061MD1210051+9999MW1711REMSYN066AAXX  18211 23256 41998 81402 11238 21263 40304 52005 77172 80006;
0161232560999992000021900004+67470+078730FM-12+000899999V0201301N002019999999N0200001N1-02631-02871103101ADDAY171061AY221061GF108991001001999999001061MA1999999102721MD1210061+9999MW1711REMSYN072AAXX  19001 23256 41998 81302 11263 21287 30272 40310 52006 77172 80006;
0179232560999992000021903004+67470+078730FM-12+000899999V0201401N003010750019N0200001N1-02701-03011103181ADDAJ100439199999999AY171031AY221031GF108991031051008001001061IA1249MD1210081+9999MW1221REMSYN082AAXX  19031 23256 /1598 81403 11270 21301 40318 52008 72272 83506 333 48043 55048;
0180232560999992000021906004+67470+078730FM-12+000899999V0201801N004019999999N0200001N1-02581-02891103241ADDAA100000191AY171061AY221061GF105991001001999999001011KA1999N-02701MD1210061+9999MW1021REMSYN082AAXX  19061 23256 11998 51804 11258 21289 40324 52006 69920 70272 80001 333 21270;
0112232560999992000021909004+67470+078730FM-12+000899999V0201501N002012200019N0200001N1-02671-02981103261ADDGF103991001001999999001011MD1210021+9999REMSYN060AAXX  19091 23256 42998 31502 11267 21298 40326 52002 80001;
0133232560999992000021912004+67470+078730FM-12+000899999V0201501N003012200019N0200001N1-02701-03011103311ADDGF103991001001999999001011MA1999999102931MD1210051+9999REMSYN066AAXX  19121 23256 42998 31503 11270 21301 30293 40331 52005 80001;
0156232560999992000021915004+67470+078730FM-12+000899999V0201601N002012200019N0200001N1-02791-03091103281ADDAA199000021GA1001+999999999GF100991001001999999001001KA1999M-02581MD1710041+9999REMSYN064AAXX  19151 23256 32998 01602 11279 21309 40328 57004 333 11258;
0175232560999992000021918004+67470+078730FM-12+000899999V0201401N005012200019N0200001N1-02811-03041103201ADDAA199000091GA1001+999999999GF100991001001999999001001KA1999M-02581MD1710081+9999REMSYN064AAXX  19181 23256 32998 01405 11281 21304 40320 57008 333 11258;EQDQ01  00002PRCP99
0122232560999992000021921004+67470+078730FM-12+000899999V0201501N005012200019N0200001N1-02791-03091103131ADDGA1001+999999999GF100991001001999999001001MD1710071+9999REMSYN054AAXX  19211 23256 42298 01505 11279 21309 40313 57007;
0153232560999992000022000004+67470+078730FM-12+000899999V0201401N005012200019N0200001N1-02731-03041102961ADDGA1001+999999999GF100991001001999999001001MA1999999102581MD1710161+9999REMSYN070AAXX  20001 23256 42998 01405 11273 21304 30258 40296 57016 333 93504;
0209232560999992000022003004+67470+078730FM-12+000899999V0201401N006019999999N0040001N1-02521-02771102741ADDAA199000091AJ100439199999999AY111031AY211031GF108991001001999999001061IA1249MD1710221+9999MW1051REMSYN082AAXX  20031 23256 31996 81406 11252 21277 40274 57022 70511 80006 333 48043 55053;EQDQ01  00002PRCP99
0199232560999992000022006004+67470+078730FM-12+000899999V0201401N006019999999N0040001N1-02101-02351102511ADDAA199000091AY111061AY211061GF108991001001999999001061KA1120N-02981MD1710221+9999MW1051REMSYN082AAXX  20061 23256 31996 81406 11210 21235 40251 57022 70511 80006 333 21298 93504;EQDQ01  00002PRCP99
0166232560999992000022009004+67470+078730FM-12+000899999V0201301N00701001201CN0100001N1-01771-02031102181ADDAY121031AY221031GA1041+001809069GF108991051051001501001061MD1710331+9999MW1711REMSYN076AAXX  20091 23256 41297 81307 11177 21203 40218 57033 77122 85506 333 84706;
0171232560999992000022015004+67470+078730FM-12+000899999V0201501N007019999999N0020001N1-01451-01651101831ADDAA118999999GF108991081001999999071999KA1999M-01451MD1710121+9999REMSYN076AAXX  20151 23256 /1995 81507 11145 21165 40183 57012 67373 8807/ 333 11145;EQDQ01  73712PRCP18
0186232560999992000022018004+67470+078730FM-12+000899999V0201601N005019999999N0040001N1-01441-01641101711ADDAA100001091AY171061AY231061GF108991081001999999071999KA1120M-01451MD1710121+9999MW1711REMSYN088AAXX  20181 23256 11996 81605 11144 21164 40171 57012 60010 77173 8807/ 333 11145 92990;
0140232560999992000022021004+67470+078730FM-12+000899999V0201701N005019999999N0040001N1-01481-01681101681ADDAY171031AY221031GF108991081001999999071999MD1710031+9999MW1711REMSYN066AAXX  20211 23256 41996 81705 11148 21168 40168 57003 77172 8807/;
0161232560999992000022100004+67470+078730FM-12+000899999V0201501N004019999999N0200001N1-01611-01801101601ADDAY171061AY221061GF108991081001999999071999MA1999999101241MD1710081+9999MW1711REMSYN072AAXX  21001 23256 41998 81504 11161 21180 30124 40160 57008 77172 8807/;
0179232560999992000022103004+67470+078730FM-12+000899999V0201501N004019999999N0200001N1-01771-01961101601ADDAJ100429199999999AY171031AY221031GF108991081001999999071999IA1249MD1710011+9999MW1711REMSYN082AAXX  21031 23256 /1998 81504 11177 21196 40160 57001 77172 8807/ 333 48042 55000;
0180232560999992000022106004+67470+078730FM-12+000899999V0201501N003019999999N0200001N1-01751-01941101581ADDAA100001091AY171061AY221061GF105991001001999999001011KA1999N-01771MD1710011+9999MW1221REMSYN082AAXX  21061 23256 11998 51503 11175 21194 40158 57001 69990 72272 80001 333 21177;
0166232560999992000022109004+67470+078730FM-12+000899999V0201501N003010072019N0200001N1-01751-02011101591ADDAY121031AY221031GA1051+007209059GF108991051051008001071999MD1210011+9999MW1711REMSYN076AAXX  21091 23256 41598 81503 11175 21201 40159 52001 77122 8557/ 333 85624;
0187232560999992000022112004+67470+078730FM-12+000899999V0201401N001010300019N0200001N1-01671-01931101661ADDAY171061AY221061GA1041+006309059GF108991041051008001071999MA1999999101301MD1210071+9999MW1711REMSYN082AAXX  21121 23256 41598 81401 11167 21193 30130 40166 52007 77172 8457/ 333 84621;
0182232560999992000022115004+67470+078730FM-12+000899999V02099999999992200019N0200001N1-01641-01831101651ADDAY171031AY221031GF101991999001999999071999KA1999M-01621MD1710011+9999MW1711REMSYN076AAXX  21151 23256 /1998 15012 11164 21183 40165 57001 77172 8807/ 333 11162;EQDQ01+000082SCOTLC
0180232560999992000022118004+67470+078730FM-12+000899999V0201501N002019999999N0200001N1-01881-02071101731ADDAA100000591AY171061AY221061GF108991081001999999071999KA1999M-01621MD1210071+9999MW1711REMSYN082AAXX  21181 23256 11998 81502 11188 21207 40173 52007 69950 77172 8807/ 333 11162;
0140232560999992000022121004+67470+078730FM-12+000899999V0201901N003019999999N0200001N1-01771-01961101751ADDAY171031AY221031GF108991081001999999071999MD1210021+9999MW1711REMSYN066AAXX  21211 23256 41998 81903 11177 21196 40175 52002 77172 8807/;
0228232560999992000022200004+67470+078730FM-12+000899999V0202101N003010009019N0020001N1-02091-02241101731ADDAY171061AY221061GA1081+000909079GF108991081061001501999999MA1999999101361MD1710021+9999MW1101REMSYN088AAXX  22001 23256 41295 82103 11209 21224 30136 40173 57000 71072 886// 333 88703 93503;EQDQ01+000072APCTENQ02+000002APC3  
0209232560999992000022203004+67470+078730FM-12+000899999V0201601N00201002101CN0100001N1-02231-02481101681ADDAJ100479199999999AY121031AY221031GA1041+001809069GF108991051051002501071999GJ102169IA1249MD1710051+9999MW1711REMSYN088AAXX  22031 23256 /1397 81602 11223 21248 40168 57005 77122 8557/ 333 48047 55036 84706;
0208232560999992000022206004+67470+078730FM-12+000899999V0201501N00201002101CN0100001N1-01981-02241101661ADDAA100000191AY171061AY221061GA1041+001809079GF108991051051002501071999KA1120N-02311MD1710021+9999MW1711REMSYN094AAXX  22061 23256 11397 81502 11198 21224 40166 57002 69920 77172 8557/ 333 21231 84706 93506;
0166232560999992000022209004+67470+078730FM-12+000899999V0201301N002010018019N0100001N1-01721-01981101581ADDAY171031AY221031GA1051+001809069GF108991061051001501071999MD1710071+9999MW1711REMSYN076AAXX  22091 23256 41297 81302 11172 21198 40158 57007 77172 8657/ 333 85706;
0193232560999992000022212004+67470+078730FM-12+000899999V0201401N003010051019N0100001N1-01721-01911101581ADDAY171061AY221061GA1061+005109069GF108991061051004501071999MA1999999101221MD1410001+9999MW1711REMSYN088AAXX  22121 23256 41497 81403 11172 21191 30122 40158 54000 77172 8657/ 333 86617 93506;
0163232560999992000022215004+67470+078730FM-12+000899999V0201201N003019999999N0200001N1-01721-01911101461ADDAY171031AY221031GF108991081001999999071999KA1999M-01651MD1710121+9999MW1711REMSYN076AAXX  22151 23256 /1998 81203 11172 21191 40146 57012 77172 8807/ 333 11165;
0186232560999992000022218004+67470+078730FM-12+000899999V0201101N002019999999N0200001N1-01741-01931101371ADDAA100000591AY171061AY221061GF108991081001999999071999KA1120M-01651MD1710091+9999MW1711REMSYN088AAXX  22181 23256 11998 81102 11174 21193 40137 57009 69940 77172 8807/ 333 11165 93505;
0140232560999992000022221004+67470+078730FM-12+000899999V0201201N002019999999N0200001N1-01841-02031101331ADDAY171031AY221031GF107991071001999999031001MD1710051+9999MW1021REMSYN066AAXX  22211 23256 41998 71202 11184 21203 40133 57005 70272 87030;
0171232560999992000022300004+67470+078730FM-12+000899999V0200401N001012200019N0200001N1-02091-02281101381ADDAY171061AY211061GF103991001001999999001011MA1999999101011MD1210051+9999MW1021REMSYN082AAXX  23001 23256 41998 30401 11209 21228 30101 40138 52005 70271 80001 333 93505;
0179232560999992000022303004+67470+078730FM-12+000899999V0203501N001019999999N0100001N1-02101-02351101381ADDAJ100479199999999AY111031AY211031GF108991031001999999031061IA1249MD1410001+9999MW1711REMSYN082AAXX  23031 23256 /1997 83501 11210 21235 40138 54000 77111 83036 333 48047 55000;
0186232560999992000022306004+67470+078730FM-12+000899999V0202701N003019999999N0200001N1-02161-02411101491ADDAA100000791AY171061AY211061GF108991001001999999001061KA1120N-02131MD1210111+9999MW1711REMSYN088AAXX  23061 23256 11998 82703 11216 21241 40149 52011 69900 77171 80006 333 21213 93504;
0140232560999992000022309004+67470+078730FM-12+000899999V0202701N004019999999N0200001N1-02251-02501101651ADDAY171031AY221031GF108991001001999999001061MD1210161+9999MW1711REMSYN066AAXX  23091 23256 41998 82704 11225 21250 40165 52016 77172 80006;
0163232560999992000022315004+67470+078730FM-12+000899999V0202801N004019999999N0200001N1-02911-03151101981ADDAY171031AY211031GF108991001001999999001061KA1999M-02031MD1210131+9999MW1711REMSYN076AAXX  23151 23256 /1998 82804 11291 21315 40198 52013 77171 80006 333 11203;
0190232560999992000022318004+67470+078730FM-12+000899999V0202601N004012200019N0200001N1-03031-03341102131ADDAA100000391AY171061AY211061GA1001+999999999GF100991001001999999001001KA1999M-02031MD1210151+9999MW1021REMSYN076AAXX  23181 23256 12998 02604 11303 21334 40213 52015 69930 70271 333 11203;
0112232560999992000022321004+67470+078730FM-12+000899999V0202601N004012200019N0200001N1-02881-03181102221ADDGF103991001001999999001011MD1210091+9999REMSYN060AAXX  23211 23256 42998 32604 11288 21318 40222 52009 80001;
0133232560999992000022400004+67470+078730FM-12+000899999V0202501N003019999999N0200001N1-03021-03321102301ADDGF105991001001999999001011MA1999999101921MD1210081+9999REMSYN066AAXX  24001 23256 42998 52503 11302 21332 30192 40230 52008 80001;
0151232560999992000022403004+67470+078730FM-12+000899999V0202601N004019999999N0200001N1-03081-03381102371ADDAJ100479199999999GF106991001001999999001011IA1249MD1210071+9999REMSYN076AAXX  24031 23256 /2998 62604 11308 21338 40237 52007 80001 333 48047 55054;
0162232560999992000022406004+67470+078730FM-12+000899999V0202601N003012200019N0200001N1-03021-03321102451ADDAA100000191GA1001+999999999GF100991001001999999001001KA1999N-03121MD1210081+9999REMSYN070AAXX  24061 23256 12998 02603 11302 21332 40245 52008 69920 333 21312;
0122232560999992000022409004+67470+078730FM-12+000899999V0202801N002012200019N0200001N1-02991-03301102511ADDGA1001+999999999GF100991001001999999001001MD1210061+9999REMSYN054AAXX  24091 23256 42998 02802 11299 21330 40251 52006;
0133232560999992000022412004+67470+078730FM-12+000899999V0202401N003012200019N0200001N1-03161-03451102591ADDGF102991001001999999001011MA1999999102211MD1210081+9999REMSYN066AAXX  24121 23256 42998 22403 11316 21345 30221 40259 52008 80001;
0175232560999992000022415004+67470+078730FM-12+000899999V0202601N002012200019N0200001N1-03161-03451102551ADDAA199000091GA1001+999999999GF100991001001999999001001KA1999M-02921MD1710041+9999REMSYN064AAXX  24151 23256 32998 02602 11316 21345 40255 57004 333 11292;EQDQ01  00002PRCP99
0175232560999992000022418004+67470+078730FM-12+000899999V0202501N001012200019N0200001N1-03281-03571102551ADDAA199000091GA1001+999999999GF100991001001999999001001KA1999M-02921MD1710011+9999REMSYN064AAXX  24181 23256 32998 02501 11328 21357 40255 57001 333 11292;EQDQ01  00002PRCP99
0143232560999992000022500004+67470+078730FM-12+000899999V0202201N001012200019N0200001N1-03521-03801102521ADDGA1001+999999999GF100991001001999999001001MA1999999102131MD1710011+9999REMSYN060AAXX  25001 23256 42998 02201 11352 21380 30213 40252 57001;
0191232560999992000022503004+67470+078730FM-12+000899999V0200801N002012200019N0200001N1-03651-03941102451ADDAA199000091AJ100479199999999GA1001+999999999GF100991001001999999001001IA1249MD1710071+9999REMSYN070AAXX  25031 23256 32998 00802 11365 21394 40245 57007 333 48047 55064;EQDQ01  00002PRCP99
0175232560999992000022506004+67470+078730FM-12+000899999V0200701N002012200019N0200001N1-03401-03681102321ADDAA199000091GA1001+999999999GF100991001001999999001001KA1999N-03651MD1710131+9999REMSYN064AAXX  25061 23256 32998 00702 11340 21368 40232 57013 333 21365;EQDQ01  00002PRCP99
0116232560999992000022509004+67470+078730FM-12+000899999V0200501N002012200019N0200001N1-03171+99999102181ADDGA1001+999999999GF100991001001999999001001MD1710131+9999REMSYN048AAXX  25091 23256 42998 00502 11317 40218 57013;
0133232560999992000022512004+67470+078730FM-12+000899999V0200701N002012200019N0200001N1-03141-03421102031ADDGF102991001001999999001011MA1999999101651MD1710151+9999REMSYN066AAXX  25121 23256 42998 20702 11314 21342 30165 40203 57015 80001;
0175232560999992000022515004+67470+078730FM-12+000899999V0200801N003012200019N0200001N1-03151-03451101791ADDAA199000091GA1001+999999999GF100991001001999999001001KA1999M-03141MD1710241+9999REMSYN064AAXX  25151 23256 32998 00803 11315 21345 40179 57024 333 11314;EQDQ01  00002PRCP99
0191232560999992000022518004+67470+078730FM-12+000899999V0200801N004012200019N0200001N1-02901-03201101531ADDAA199000091GA1001+999999999GF100991001001999999001001KA1999M+99999MD1710261+9999REMSYN064AAXX  25181 23256 32998 00804 11290 21320 40153 57026 333 11314;EQDQ01  00002PRCP99Q02 -03142ATMX  
0141232560999992000022521004+67470+078730FM-12+000899999V0200801N005012200019N0200001N1-02791-03091999999ADDGA1001+999999999GF100991001001999999001001MD1710221+9999REMSYN054AAXX  25211 23256 42998 00805 11279 21309 40231 57022;EQDQ01+102313APOSLP
0143232560999992000022600004+67470+078730FM-12+000899999V0200701N005012200019N0200001N1-02641+99999101011ADDGA1001+999999999GF100991001001999999001001MA1999999100641MD1710291+9999REMSYN060AAXX  26001 23256 42998 00705 11264 21245 30064 40101 57029;
0211232560999992000022603004+67470+078730FM-12+000899999V0200801N005010750019N0100001N1-02551-02801100781ADDAA199000091AJ100479199999999GA1041+006609059GF108991041051008001001061GJ104389IA1249MD1710231+9999REMSYN082AAXX  26031 23256 32597 80805 11255 21280 40078 57023 84506 333 48047 55073 84622;EQDQ01  00002PRCP99
0174232560999992000022606004+67470+078730FM-12+000899999V0200801N006010750019N0100001N1-02491-02741100541ADDAA199000021AY131061AY211061GF108991031051004501001061KA1999N-03151MD1710241+9999MW1711REMSYN076AAXX  26061 23256 31497 80806 11249 21274 40054 57024 77131 83506 333 21315;
0140232560999992000022609004+67470+078730FM-12+000899999V0200701N006019999999N0100001N1-02411-02661100421ADDAY171031AY231031GF108991051001999999031061MD1710121+9999MW1711REMSYN066AAXX  26091 23256 41997 80706 11241 21266 40042 57012 77173 85036;
0161232560999992000022612004+67470+078730FM-12+000899999V0200701N005019999999N0200001N1-02481-02731100331ADDAY171061AY231061GF108991031001999999031061MA1999999099961MD1710091+9999MW1711REMSYN072AAXX  26121 23256 41998 80705 11248 21273 39996 40033 57009 77173 83036;
0163232560999992000022615004+67470+078730FM-12+000899999V0200601N004019999999N0200001N1-02661-02901100251ADDAY171031AY221031GF108991001001999999001061KA1999M-02401MD1710081+9999MW1711REMSYN076AAXX  26151 23256 /1998 80604 11266 21290 40025 57008 77172 80006 333 11240;
0180232560999992000022618004+67470+078730FM-12+000899999V0200501N003019999999N0200001N1-02781-03091100171ADDAA100000891AY171061AY221061GF108991001001999999001061KA1999M-02401MD1710091+9999MW1711REMSYN082AAXX  26181 23256 11998 80503 11278 21309 40017 57009 69970 77172 80006 333 11240;
0140232560999992000022621004+67470+078730FM-12+000899999V0200301N002019999999N0200001N1-02961-03261100071ADDAY171031AY221031GF108991001001999999001061MD1710101+9999MW1711REMSYN066AAXX  26211 23256 41998 80302 11296 21326 40007 57010 77172 80006;
0109232560999992000022700004+67470+078730FM-12+000899999V0200201N003019999999N0200001N1-03201+99999999999ADDGF108991999999999999999999REMSYN071AAXX  27001 23256 41998 80203 11320 2135 39965 40003 57004 77172 80006;
0179232560999992000022703004+67470+078730FM-12+000899999V0203601N003019999999N0200001N1-03381-03681100061ADDAJ100469199999999AY171031AY221031GF108991001001999999001061IA1249MD1210031+9999MW1711REMSYN082AAXX  27031 23256 /1998 83603 11338 21368 40006 52003 77172 80006 333 48046 55000;
0199232560999992000022706004+67470+078730FM-12+000899999V0203401N004019999999N0200001N1-03521-03801100171ADDAA100000891AY171061AY221061GF106991001001999999001011KA1999N+99999MD1210111+9999MW1021REMSYN082AAXX  27061 23256 11998 63404 11352 21380 40017 52011 69980 70272 80001 333 21338;EQDQ01 -03382ATMN  
0112232560999992000022709004+67470+078730FM-12+000899999V0203501N003012200019N0200001N1-03601-03901100391ADDGF103991001001999999001011MD1210221+9999REMSYN060AAXX  27091 23256 42998 33503 11360 21390 40039 52022 80001;
0133232560999992000022712004+67470+078730FM-12+000899999V0203201N004012200019N0200001N1-03761-04051100651ADDGF102991001001999999001011MA1999999100261MD1210251+9999REMSYN066AAXX  27121 23256 42998 23204 11376 21405 30026 40065 52025 80001;
0145232560999992000022715004+67470+078730FM-12+000899999V0203201N004012200019N0200001N1-04001-04271100841ADDGA1001+999999999GF100991001001999999001001KA1999M-03381MD1210191+9999REMSYN064AAXX  27151 23256 /2998 03204 11400 21427 40084 52019 333 11338;
0162232560999992000022718004+67470+078730FM-12+000899999V0203201N003012200019N0200001N1-04151-04431101001ADDAA100000791GA1001+999999999GF100991001001999999001001KA1999M-03381MD1210151+9999REMSYN070AAXX  27181 23256 12998 03203 11415 21443 40100 52015 69900 333 11338;
0122232560999992000022721004+67470+078730FM-12+000899999V0203201N002012200019N0200001N1-04251-04481101171ADDGA1001+999999999GF100991001001999999001001MD1210161+9999REMSYN054AAXX  27211 23256 42998 03202 11425 21448 40117 52016;
0143232560999992000022800004+67470+078730FM-12+000899999V0203001N002012200019N0200001N1-04341-04611101261ADDGA1001+999999999GF100991001001999999001001MA1999999100851MD1210091+9999REMSYN060AAXX  28001 23256 42998 03002 11434 21461 30085 40126 52009;
0191232560999992000022803004+67470+078730FM-12+000899999V0202901N002012200019N0200001N1-04391-04681101331ADDAA199000091AJ100459199999999GA1001+999999999GF100991001001999999001001IA1249MD1210071+9999REMSYN070AAXX  28031 23256 32998 02902 11439 21468 40133 52007 333 48045 55073;EQDQ01  00002PRCP99
0175232560999992000022806004+67470+078730FM-12+000899999V0202801N003012200019N0200001N1-04181-04431101381ADDAA199000091GA1001+999999999GF100991001001999999001001KA1999N-04391MD1210061+9999REMSYN064AAXX  28061 23256 32998 02803 11418 21443 40138 52006 333 21439;EQDQ01  00002PRCP99
0112232560999992000022809004+67470+078730FM-12+000899999V0202401N002012200019N0200001N1-04031-04321101421ADDGF102991001001999999001011MD1210041+9999REMSYN060AAXX  28091 23256 42998 22402 11403 21432 40142 52004 80001;
0133232560999992000022812004+67470+078730FM-12+000899999V0202501N002012200019N0200001N1-04151-04431101411ADDGF102991001001999999001011MA1999999101011MD1710011+9999REMSYN066AAXX  28121 23256 42998 22502 11415 21443 30101 40141 57001 80001;
0175232560999992000022815004+67470+078730FM-12+000899999V0202401N002012200019N0200001N1-04381-04611101381ADDAA199000091GA1001+999999999GF100991001001999999001001KA1999M-04031MD1710041+9999REMSYN064AAXX  28151 23256 32998 02402 11438 21461 40138 57004 333 11403;EQDQ01  00002PRCP99
0173232560999992000022818004+67470+078730FM-12+000899999V0202201N002012200019N0020001N1-04231-04481101261ADDAY101061AY201061GA1001+999999999GF100991001001999999001001KA1999M-04031MD1710111+9999MW1041REMSYN070AAXX  28181 23256 41995 02202 11423 21448 40126 57011 70400 333 11403;
0150232560999992000022821004+67470+078730FM-12+000899999V0201701N002012200019N0020001N1-04251-04481101201ADDAY101031AY201031GA1001+999999999GF100991001001999999001001MD1710071+9999MW1041REMSYN060AAXX  28211 23256 41995 01702 11425 21448 40120 57007 70400;
0171232560999992000022900004+67470+078730FM-12+000899999V0201701N003012200019N0010001N1-04271-04551101011ADDAY101061AY201061GA1001+999999999GF100991001001999999001001MA1999999100601MD1710191+9999MW1041REMSYN066AAXX  29001 23256 41994 01703 11427 21455 30060 40101 57019 70400;
0219232560999992000022903004+67470+078730FM-12+000899999V0201201N003012200019N0010001N1-04321-04681100831ADDAA199000091AJ100459199999999AY101031AY201031GA1001+999999999GF100991001001999999001001IA1249MD1710171+9999MW1041REMSYN076AAXX  29031 23256 31994 01203 11432 21468 40083 57017 70400 333 48045 55076;EQDQ01  00002PRCP99
0175232560999992000022906004+67470+078730FM-12+000899999V0201401N005012200019N0100001N1-03901-04241100651ADDAA199000091GA1001+999999999GF100991001001999999001001KA1999N-04401MD1710171+9999REMSYN064AAXX  29061 23256 32997 01405 11390 21424 40065 57017 333 21440;EQDQ01  00002PRCP99
0112232560999992000022909004+67470+078730FM-12+000899999V0201201N006019999999N0200001N1-03751-04051100461ADDGF105991001001999999001011MD1710191+9999REMSYN060AAXX  29091 23256 42998 51206 11375 21405 40046 57019 80001;
0133232560999992000022912004+67470+078730FM-12+000899999V0201301N007019999999N0200001N1-03521-03801100201ADDGF108991081001999999071999MA1999999099821MD1710251+9999REMSYN066AAXX  29121 23256 42998 81307 11352 21380 39982 40020 57025 8807/;
0193232560999992000022915004+67470+078730FM-12+000899999V0201301N010019999999N0040001N1-03271-03571099881ADDAA199000091AY131031AY231031GF108991081001999999071999KA1999M-03271MD1710321+9999MW1381REMSYN076AAXX  29151 23256 31996 81310 11327 21357 49988 57032 73833 8807/ 333 11327;EQDQ01  00002PRCP99
0205232560999992000022918004+67470+078730FM-12+000899999V0201401N010019999999N0040001N1-03071-03361099581ADDAY131061AY231061GF108991081001999999071999KA1120M+99999MD1710291+9999MW1381OA140101301REMSYN088AAXX  29181 23256 12996 81410 11307 21336 49958 57029 73833 8807/ 333 11327 91013 91113;EQDQ01 -03272ATMX  
0140232560999992000022921004+67470+078730FM-12+000899999V0201401N010019999999N0040001N1-02821-03131099221ADDAY131031AY221031GF108991081001999999071999MD1710361+9999MW1381REMSYN066AAXX  29211 23256 41996 81410 11282 21313 49922 57036 73832 8807/;
0171232560999992000030100004+67470+078730FM-12+000899999V0201401N008019999999N0200001N1-02721-03031099051ADDAY171061AY231061GF108991081001999999071999MA1999999098681MD1710171+9999MW1711REMSYN082AAXX  01001 23256 41998 81408 11272 21303 39868 49905 57017 77173 8807/ 333 91113;
0180232560999992000030106004+67470+078730FM-12+000899999V0201401N002019999999N0200001N1-02451-02771098871ADDAA100000891AY171061AY231061GF108991051001999999031061KA1999N-03271MD1710051+9999MW1711REMSYN082AAXX  01061 23256 11998 81402 11245 21277 49887 57005 69980 77173 85036 333 21327;
0140232560999992000030109004+67470+078730FM-12+000899999V0201701N002019999999N0100001N1-02231-02481098901ADDAY171031AY231031GF108991081001999999071999MD1210041+9999MW1711REMSYN066AAXX  01091 23256 41997 81702 11223 21248 49890 52004 77173 8807/;
0161232560999992000030112004+67470+078730FM-12+000899999V0202701N005019999999N0100001N1-02371-02611099161ADDAY171061AY221061GF108991081001999999071999MA1999999098791MD1210251+9999MW1711REMSYN072AAXX  01121 23256 41997 82705 11237 21261 39879 49916 52025 77172 8807/;
0173232560999992000030115004+67470+078730FM-12+000899999V0202901N012010003019N0005001N1-02161-03451099591ADDAY171031AY231031GA1091+999999999GF109991091999999999999999KA1999M-02211MD1210431+9999MW1391REMSYN070AAXX  01151 23256 /1/93 92912 11216 21345 49959 52043 73973 333 11221;
0213232560999992000030118004+67470+078730FM-12+000899999V0202601N004012200019N0200001N1-03451-03741099931ADDAA100002091AY171061AY231061GA1001+999999999GF100991001001999999001001KA1120M-02211MD1210331+9999MW1021OA149901501REMSYN088AAXX  01181 23256 11998 02604 11345 21374 49993 52033 60020 70273 333 11221 91115 92990;
0150232560999992000030121004+67470+078730FM-12+000899999V0202401N006012200019N0200001N1-03561-03831100131ADDAY131031AY201031GA1001+999999999GF100991001001999999001001MD1210201+9999MW1021REMSYN060AAXX  01211 23256 41998 02406 11356 21383 40013 52020 70230;
0171232560999992000030200004+67470+078730FM-12+000899999V0202401N006012200019N0200001N1-03601-03901100261ADDAY131061AY201061GA1001+999999999GF100991001001999999001001MA1999999099881MD1210131+9999MW1021REMSYN066AAXX  02001 23256 41998 02406 11360 21390 39988 40026 52013 70230;
0151232560999992000030203004+67470+078730FM-12+000899999V0202301N005019999999N0200001N1-03631-03901100431ADDAJ100429199999999GF105991001001999999001011IA1249MD1210171+9999REMSYN076AAXX  02031 23256 /2998 52305 11363 21390 40043 52017 80001 333 48042 55000;
0180232560999992000030206004+67470+078730FM-12+000899999V0202401N007019999999N0200001N1-03291-03571100531ADDAA100000191AY111061AY211061GF106991001001999999001011KA1999N-03701MD1210101+9999MW1361REMSYN082AAXX  02061 23256 11998 62407 11329 21357 40053 52010 69920 73611 80001 333 21370;
0140232560999992000030209004+67470+078730FM-12+000899999V0202301N005012200019N0200001N1-03181-03471100801ADDAY131031AY211031GF103991001001999999001011MD1210271+9999MW1021REMSYN066AAXX  02091 23256 41998 32305 11318 21347 40080 52027 70231 80001;
0161232560999992000030212004+67470+078730FM-12+000899999V0202401N005019999999N0200001N1-03381-03681100941ADDAY131061AY211061GF105991001001999999001011MA1999999100551MD1210131+9999MW1021REMSYN072AAXX  02121 23256 41998 52405 11338 21368 30055 40094 52013 70231 80001;
0165232560999992000030215004+67470+078730FM-12+000899999V0202401N005019999999N0200001N1-03641-03941100711ADDAA199000091GF105991001001999999001011KA1999M-03171MD1210161+9999REMSYN070AAXX  02151 23256 32998 52405 11364 21394 40071 52016 80001 333 11317;EQDQ01  00002PRCP99
0175232560999992000030218004+67470+078730FM-12+000899999V0202501N005012200019N0200001N1-03721-04011101251ADDAA199000091GA1001+999999999GF100991001001999999001001KA1999M-03171MD1210151+9999REMSYN064AAXX  02181 23256 32998 02505 11372 21401 40125 52015 333 11317;EQDQ01  00002PRCP99
0122232560999992000030221004+67470+078730FM-12+000899999V0202301N003012200019N0200001N1-03821-04091101441ADDGA1001+999999999GF100991001001999999001001MD1210181+9999REMSYN054AAXX  02211 23256 42998 02303 11382 21409 40144 52018;
0171232560999992000030300004+67470+078730FM-12+000899999V0202301N003012200019N0040001N1-03801-04091101551ADDAY101061AY201061GA1001+999999999GF100991001001999999001001MA1999999101151MD1210111+9999MW1041REMSYN066AAXX  03001 23256 41996 02303 11380 21409 30115 40155 52011 70400;
0209232560999992000030303004+67470+078730FM-12+000899999V0201101N001012200019N0010001N1-03941-04221101661ADDAA199000091AJ100419199999999AY101031AY201031GF103991001001999999001011IA1249MD1210111+9999MW1041REMSYN082AAXX  03031 23256 31994 31101 11394 21422 40166 52011 70400 80001 333 48041 55080;EQDQ01  00002PRCP99
0112232560999992000030309004+67470+078730FM-12+000899999V0201201N004012200019N0200001N1-03401-03681101911ADDGF102991001001999999001011MD1210081+9999REMSYN060AAXX  03091 23256 42998 21204 11340 21368 40191 52008 80001;
0127232560999992000030312004+67470+078730FM-12+000899999V0201101N003019999999N0200001N1+99999+99999102061ADDGF105991001001999999001011MA1999999101671MD1210151+9999REMSYN060AAXX  03121 23256 42998 51103 21374 30167 40206 52015 80001;
0165232560999992000030315004+67470+078730FM-12+000899999V0201301N005012200019N0200001N1-03421-03711102091ADDAA199000091GF103991001001999999001011KA1999M-03371MD1210031+9999REMSYN070AAXX  03151 23256 32998 31305 11342 21371 40209 52003 80001 333 11337;EQDQ01  00002PRCP99
0175232560999992000030318004+67470+078730FM-12+000899999V0201301N005012200019N0200001N1-03371-03651102101ADDAA199000091GA1001+999999999GF100991001001999999001001KA1999M-03371MD1210011+9999REMSYN064AAXX  03181 23256 32998 01305 11337 21365 40210 52001 333 11337;EQDQ01  00002PRCP99
0140232560999992000030321004+67470+078730FM-12+000899999V0201401N008019999999N0200001N1-03041-03341101951ADDAY111031AY211031GF108991001001999999001061MD1710141+9999MW1361REMSYN066AAXX  03211 23256 41998 81408 11304 21334 40195 57014 73611 80006;
0171232560999992000030400004+67470+078730FM-12+000899999V0201301N007019999999N0200001N1-02781-03091101751ADDAY131061AY211061GF108991081001999999071999MA1999999101371MD1710201+9999MW1711REMSYN082AAXX  04001 23256 41998 81307 11278 21309 30137 40175 57020 77131 8807/ 333 91113;
0179232560999992000030403004+67470+078730FM-12+000899999V0201401N012019999999N0010001N1-02681-03001101411ADDAJ100439199999999AY171031AY231031GF108991081001999999071999IA1249MD1710331+9999MW1711REMSYN082AAXX  04031 23256 /1994 81412 11268 21300 40141 57033 77173 8807/ 333 48043 55043;
0208232560999992000030406004+67470+078730FM-12+000899999V0201401N013010003019N0002001N1-02521-02841101021ADDAA100000391GA1091+999999999GF109991091999999999999999KA1120N-03421MD1710391+9999OA140101601OA249901701REMSYN094AAXX  04061 23256 1/292 91413 11252 21284 40102 57039 69930 73973 333 21342 91016 91117 92993;
0150232560999992000030409004+67470+078730FM-12+000899999V0201401N011010003019N0005001N1-02261-02511100651ADDAY171031AY231031GA1091+999999999GF109991091999999999999999MD1710371+9999MW1391REMSYN060AAXX  04091 23256 41/93 91411 11226 21251 40065 57037 73973;
0205232560999992000030412004+67470+078730FM-12+000899999V0201401N010019999999N0010001N1-01931-02191100441ADDAY171061AY231061GF108991081001999999071999MA1999999100081MD1710201+9999MW1711OA140101301OA249901501REMSYN094AAXX  04121 23256 41994 81410 11193 21219 30008 40044 57020 77173 8807/ 333 91013 91115 92992;
0163232560999992000030415004+67470+078730FM-12+000899999V0201501N006019999999N0040001N1-01581-01851100381ADDAY171031AY231031GF108991081001999999071999KA1999M-01581MD1710041+9999MW1711REMSYN076AAXX  04151 23256 /1996 81506 11158 21185 40038 57004 77173 8807/ 333 11158;
0261232560999992000030418004+67470+078730FM-12+000899999V0202601N009010021019N0020001N1-01021-01221100561ADDAA100004191AY181061AY271061GA1051+002109079GF108991081031002501999999KA1120M+99999MD1210181+9999MW1851OA140101201OA249901201REMSYN106AAXX  04181 23256 11395 82609 11102 21122 40056 52018 60040 78587 883// 333 11158 85707 91012 91112 92993;EQDQ01 -01582ATMX  
0166232560999992000030421004+67470+078730FM-12+000899999V0202501N011010021019N0020001N1-00951-01071100821ADDAY181031AY231031GA1051+002109069GF108991081031002501999999MD1210261+9999MW1851REMSYN076AAXX  04211 23256 41395 82511 11095 21107 40082 52026 78583 883// 333 85707;
0227232560999992000030500004+67470+078730FM-12+000899999V0202601N012010021019N0010001N1-00861-00971101081ADDAY181061AY231061GA1041+002109079GF108991081031002501999999MA1999999100731MD1210261+9999MW1851OA140101501OA249901501REMSYN100AAXX  05001 23256 41394 82612 11086 21097 30073 40108 52026 78583 883// 333 84707 91015 91115 92993;
0209232560999992000030503004+67470+078730FM-12+000899999V0202901N003010018019N0200001N1-01121-01251101481ADDAJ100449199999999AY181031AY231031GA1051+001809069GF108991081051001501999999GJ100009IA1249MD1210401+9999MW1021REMSYN088AAXX  05031 23256 /1298 82903 11112 21125 40148 52040 70283 885// 333 48044 55000 85706;
0208232560999992000030506004+67470+078730FM-12+000899999V0202201N006010021019N0200001N1-00851-01051101561ADDAA100002091AY181061AY231061GA1041+002109079GF108991081051002501999999KA1120N-01581MD1210081+9999MW1021REMSYN094AAXX  05061 23256 11398 82206 11085 21105 40156 52008 60020 70283 885// 333 21158 84707 92990;
0138232560999992000030509004+67470+078730FM-12+000899999V0201701N00501002101CN0200001N1-01021-01221101511ADDGA1041+002709069GF108991061051002501001061MD1710051+9999REMSYN070AAXX  05091 23256 42398 81705 11102 21122 40151 57005 86506 333 84709;
0187232560999992000030512004+67470+078730FM-12+000899999V0202001N006010036019N0200001N1-00731-01031101471ADDAY121061AY221061GA1051+003609099GF108991081031004501999999MA1999999101131MD1710031+9999MW1851REMSYN082AAXX  05121 23256 41498 82006 11073 21103 30113 40147 57003 78522 883// 333 85912;
0185232560999992000030515004+67470+078730FM-12+000899999V0202101N007010108019N0200001N1-00491-00701101511ADDAY181031AY221031GA1081+010809059GF108991081051012501999999KA1120M-00491MD1210041+9999MW1021REMSYN082AAXX  05151 23256 /1698 82107 11049 21070 40151 52004 70282 885// 333 11049 88636;
0221232560999992000030518004+67470+078730FM-12+000899999V0202301N007010099019N0200001N1-00411-00601101521ADDAA100000791AY181061AY221061GA1081+009909059GF108991081051012501999999KA1120M+99999MD1210011+9999MW1021REMSYN088AAXX  05181 23256 11698 82307 11041 21060 40152 52001 69900 70282 885// 333 11049 88633;EQDQ01 -00492ATMX  
0138232560999992000030521004+67470+078730FM-12+000899999V0202401N007010069019N0200001N1-00471-00671101591ADDGA1051+006909099GF108991081031004501999999MD1210071+9999REMSYN070AAXX  05211 23256 42498 82407 11047 21067 40159 52007 883// 333 85923;
0133232560999992000030600004+67470+078730FM-12+000899999V0202201N005019999999N0200001N1-00451-00611101611ADDGF108991081001999999071999MA1999999101271MD1210021+9999REMSYN066AAXX  06001 23256 42998 82205 11045 21061 30127 40161 52002 8807/;
0211232560999992000030603004+67470+078730FM-12+000899999V0201801N004010060019N0200001N1-00391-00541101611ADDAA199000091AJ100449199999999GA1051+006009099GF108991081031008001999999GJ100249IA1249MD1410001+9999REMSYN082AAXX  06031 23256 32598 81804 11039 21054 40161 54000 883// 333 48044 55004 85920;EQDQ01  00002PRCP99
0196232560999992000030606004+67470+078730FM-12+000899999V0201901N005010102019N0200001N1-00291-00421101601ADDAA199000021AY181061AY221061GA1081+010209059GF108991081051012501999999KA1120N-00551MD1710011+9999MW1261REMSYN082AAXX  06061 23256 31698 81905 11029 21042 40160 57001 72682 885// 333 21055 88634;
0145232560999992000030615004+67470+078730FM-12+000899999V0202001N007012200019N0200001N1-00641-01051101491ADDGA1001+999999999GF100991001001999999001001KA1999M-00261MD1410001+9999REMSYN064AAXX  06151 23256 /2998 02007 11064 21105 40149 54000 333 11026;
0213232560999992000030618004+67470+078730FM-12+000899999V0202201N010012200019N0200001N1-00751-01151101431ADDAA100000791AY131061AY201061GA1001+999999999GF100991001001999999001001KA1120M-00261MD1710061+9999MW1361OA140101301REMSYN088AAXX  06181 23256 11998 02210 11075 21115 40143 57006 69900 73630 333 11026 91013 91113;
0150232560999992000030621004+67470+078730FM-12+000899999V0202101N009012200019N0200001N1-00931-01381101431ADDAY131031AY201031GA1001+999999999GF100991001001999999001001MD1710011+9999MW1021REMSYN060AAXX  06211 23256 41998 02109 11093 21138 40143 57001 70230;
0171232560999992000030700004+67470+078730FM-12+000899999V0201901N007012200019N0200001N1-01031-01471101401ADDAY131061AY201061GA1001+999999999GF100991001001999999001001MA1999999101051MD1710031+9999MW1021REMSYN066AAXX  07001 23256 41998 01907 11103 21147 30105 40140 57003 70230;
0199232560999992000030706004+67470+078730FM-12+000899999V0201801N005019999999N0200001N1-01001-01361101271ADDAA199000091AY131061AY211061GF105991001001999999001011KA1120N-01111MD1710061+9999MW1021REMSYN082AAXX  07061 23256 31998 51805 11100 21136 40127 57006 70231 80001 333 21111 91113;EQDQ01  00002PRCP99
0112232560999992000030709004+67470+078730FM-12+000899999V0201901N007019999999N0200001N1-00541-01001101111ADDGF105991001001999999001011MD1710151+9999REMSYN060AAXX  07091 23256 42998 51907 11054 21100 40111 57015 80001;
0188232560999992000030712004+67470+078730FM-12+000899999V0202101N009019999999N0200001N1-00601-01041101111ADDAY131061AY221061GF107991021001999999031011MA1999999100771MD1410001+9999MW1361OA140101201REMSYN088AAXX  07121 23256 41998 72109 11060 21104 30077 40111 54000 73632 82031 333 91012 91114;
0141232560999992000030715004+67470+078730FM-12+000899999V0202101N010019999999N0200001N1-00591-00941101211ADDGF108991081001999999071999KA1999M-00521MD1210101+9999REMSYN076AAXX  07151 23256 1/998 82110 11059 21094 40121 52010 77132 8807/ 333 11052;
0186232560999992000030718004+67470+078730FM-12+000899999V0202201N007019999999N0200001N1-00571-00711101331ADDAA100000791AY171061AY231061GF108991081001999999071999KA1120M-00521MD1210121+9999MW1021REMSYN088AAXX  07181 23256 11998 82207 11057 21071 40133 52012 69900 70273 8807/ 333 11052 91115;
0112232560999992000030721004+67470+078730FM-12+000899999V0202301N008019999999N0200001N1-00691-00851101441ADDGF108991081001999999071999MD1210111+9999REMSYN060AAXX  07211 23256 42998 82308 11069 21085 40144 52011 8807/;
0127232560999992000030800004+67470+078730FM-12+000899999V0202401N008019999999N0200001N1-01001-01131999999ADDGF108991081001999999071999MA1999999101301MD1210201+9999REMSYN060AAXX  08001 23256 42998 82408 11100 21113 30130 52020 8807/;
0174232560999992000030806004+67470+078730FM-12+000899999V0201801N005010015019N0200001N1-01041-01171101881ADDAA100000891GA1051+001509069GF106991051061001501001011KA1120N-01131MD1210081+9999REMSYN082AAXX  08061 23256 12298 61805 11104 21117 40188 52008 69970 85601 333 21113 85705;
0112232560999992000030809004+67470+078730FM-12+000899999V0201701N004012200019N0200001N1-01041-01171101871ADDGF103991001001999999001011MD1710011+9999REMSYN060AAXX  08091 23256 42998 31704 11104 21117 40187 57001 80001;
0159232560999992000030812004+67470+078730FM-12+000899999V0201601N004010012019N0200001N1-00791-00851101821ADDGA1051+001209069GF108991051061001501071999MA1999999101471MD1710051+9999REMSYN076AAXX  08121 23256 42298 81604 11079 21085 30147 40182 57005 8567/ 333 85704;
0185232560999992000030815004+67470+078730FM-12+000899999V0201701N005010018019N0200001N1-00661-00711101721ADDAY121031AY221031GA1051+001809069GF108991081051001501999999KA1120M-00661MD1710091+9999MW1711REMSYN082AAXX  08151 23256 /1298 81705 11066 21071 40172 57009 77122 885// 333 11066 85706;
0185232560999992000030818004+67470+078730FM-12+000899999V0201801N004010021019N0200001N1-00631-00671101621ADDAY171061AY221061GA1061+002109069GF108991081051002501999999KA1120M-00661MD1710101+9999MW1021REMSYN082AAXX  08181 23256 11398 81804 11063 21067 40162 57010 70272 885// 333 11066 86707;
0112232560999992000030821004+67470+078730FM-12+000899999V0201601N004019999999N0200001N1-00751-01011101521ADDGF108991031061999999071999MD1710101+9999REMSYN060AAXX  08211 23256 42998 81604 11075 21101 40152 57010 8367/;
0133232560999992000030900004+67470+078730FM-12+000899999V0201601N005019999999N0200001N1-00841-01121101411ADDGF106991061001999999031001MA1999999101061MD1710121+9999REMSYN066AAXX  09001 23256 42998 61605 11084 21112 30106 40141 57012 86030;
0151232560999992000030903004+67470+078730FM-12+000899999V0201601N005019999999N0200001N1-01001-01281101371ADDAJ100459199999999GF107991041001999999031011IA1249MD1710041+9999REMSYN076AAXX  09031 23256 /2998 71605 11100 21128 40137 57004 84031 333 48045 55049;
0152232560999992000030906004+67470+078730FM-12+000899999V0201601N005019999999N0200001N1-00731-01031101321ADDAA100000791GF106991031001999999031011KA1999N-01001MD1710041+9999REMSYN076AAXX  09061 23256 12998 61605 11073 21103 40132 57004 69900 83031 333 21100;
0112232560999992000030909004+67470+078730FM-12+000899999V0201601N005019999999N0200001N1-00591-01071101281ADDGF105991001001999999001011MD1710041+9999REMSYN060AAXX  09091 23256 42998 51605 11059 21107 40128 57004 80001;
0133232560999992000030912004+67470+078730FM-12+000899999V0201401N006019999999N0200001N1-00811-01221101261ADDGF105991001001999999001011MA1999999100911MD1710031+9999REMSYN066AAXX  09121 23256 42998 51406 11081 21122 30091 40126 57003 80001;
0175232560999992000030915004+67470+078730FM-12+000899999V0201501N005012200019N0200001N1-00921-01321101231ADDAA199000091GA1001+999999999GF100991001001999999001001KA1999M-00541MD1710031+9999REMSYN064AAXX  09151 23256 32998 01505 11092 21132 40123 57003 333 11054;EQDQ01  00002PRCP99
0175232560999992000030918004+67470+078730FM-12+000899999V0201401N005012200019N0200001N1-00971-01331101211ADDAA199000091GA1001+999999999GF100991001001999999001001KA1999M-00541MD1710021+9999REMSYN064AAXX  09181 23256 32998 01405 11097 21133 40121 57002 333 11054;EQDQ01  00002PRCP99
0122232560999992000030921004+67470+078730FM-12+000899999V0201401N006012200019N0200001N1-01051-01411101161ADDGA1001+999999999GF100991001001999999001001MD1710051+9999REMSYN054AAXX  09211 23256 42998 01406 11105 21141 40116 57005;
0143232560999992000031000004+67470+078730FM-12+000899999V0201301N005012200019N0200001N1-01241-01591101101ADDGA1001+999999999GF100991001001999999001001MA1999999100751MD1710061+9999REMSYN060AAXX  10001 23256 42998 01305 11124 21159 30075 40110 57006;
0191232560999992000031003004+67470+078730FM-12+000899999V0201401N006012200019N0200001N1-01131-01411101071ADDAA199000091AJ100459199999999GA1001+999999999GF100991001001999999001001IA1249MD1710031+9999REMSYN070AAXX  10031 23256 32998 01406 11113 21141 40107 57003 333 48045 55054;EQDQ01  00002PRCP99
0188232560999992000031006004+67470+078730FM-12+000899999V0201501N009019999999N0200001N1-00951-01211100981ADDAA199000091GF106991031001999999031011KA1120N-01281MD1710091+9999OA140101201REMSYN082AAXX  10061 23256 32998 61509 11095 21121 40098 57009 83031 333 21128 91012 91112;EQDQ01  00002PRCP99
0140232560999992000031009004+67470+078730FM-12+000899999V0201601N005019999999N0040001N1-00701-00911101011ADDAY121031AY221031GF108991081001999999071999MD1210041+9999MW1711REMSYN066AAXX  10091 23256 41996 81605 11070 21091 40101 52004 77122 8807/;
0161232560999992000031012004+67470+078730FM-12+000899999V0201601N006019999999N0200001N1-00581-00691101191ADDAY171061AY221061GF108991081001999999071999MA1999999100851MD1210181+9999MW1711REMSYN072AAXX  10121 23256 41998 81606 11058 21069 30085 40119 52018 77172 8807/;
0185232560999992000031015004+67470+078730FM-12+000899999V0201701N007010300019N0040001N1-00521-00661101361ADDAY171031AY231031GA1041+004809059GF108991041051004501071999KA1120M-00521MD1210171+9999MW1711REMSYN082AAXX  10151 23256 /1496 81707 11052 21066 40136 52017 77173 8457/ 333 11052 84616;
0221232560999992000031018004+67470+078730FM-12+000899999V0201801N006010027019N0200001N1-00541-00641101581ADDAA100000591AY171061AY231061GA1051+002709069GF108991999071002501021999KA1120M-00521MD1210221+9999MW1711REMSYN088AAXX  10181 23256 11398 81806 11054 21064 40158 52022 69950 77173 8872/ 333 11052 85709;EQDQ01+000082SCOTLC
0166232560999992000031021004+67470+078730FM-12+000899999V0201801N007010096019N0200001N1-00521-00591101741ADDAY171031AY221031GA1081+009609079GF108991081051008001999999MD1210161+9999MW1021REMSYN076AAXX  10211 23256 41598 81807 11052 21059 40174 52016 70272 885// 333 88332;
0187232560999992000031100004+67470+078730FM-12+000899999V0201801N006010075019N0200001N1-00581-00621101891ADDAY171061AY221061GA1061+007509059GF108991081051008001999999MA1999999101541MD1210141+9999MW1021REMSYN082AAXX  11001 23256 41598 81806 11058 21062 30154 40189 52014 70272 885// 333 86625;
0209232560999992000031103004+67470+078730FM-12+000899999V0201801N008010015019N0200001N1-00561-00601102011ADDAJ100459199999999AY171031AY221031GA1051+001509069GF108991081051001501999999GJ102469IA1249MD1210121+9999MW1711REMSYN088AAXX  11031 23256 /1298 81808 11056 21060 40201 52012 77172 885// 333 48045 55041 85705;
0202232560999992000031106004+67470+078730FM-12+000899999V0201601N005012200019N0200001N1-00631-00751102021ADDAA100000791AY171061AY221061GA1041+005409059GF107991041051004501001011KA1120N-00611MD1210011+9999MW1021REMSYN088AAXX  11061 23256 11498 71605 11063 21075 40202 52001 69900 70272 84501 333 21061 84618;
0112232560999992000031109004+67470+078730FM-12+000899999V0201401N004019999999N0200001N1-00591-00851102071ADDGF107991001001999999001011MD1210051+9999REMSYN060AAXX  11091 23256 42998 71404 11059 21085 40207 52005 80001;
0133232560999992000031112004+67470+078730FM-12+000899999V0201301N005012200019N0200001N1-00711-00961102041ADDGF107991031051008001001011MA1999999101691MD1710031+9999REMSYN066AAXX  11121 23256 42598 71305 11071 21096 30169 40204 57003 83501;
0135232560999992000031115004+67470+078730FM-12+000899999V0201401N006012200019N0200001N1-01051-01181102051ADDGF103991001001999999001011KA1999M-00501MD1210011+9999REMSYN070AAXX  11151 23256 /2998 31406 11105 21118 40205 52001 80001 333 11050;
0162232560999992000031118004+67470+078730FM-12+000899999V0201501N005012200019N0200001N1-01101-01231101971ADDAA100000791GA1001+999999999GF100991001001999999001001KA1999M-00501MD1710081+9999REMSYN070AAXX  11181 23256 12998 01505 11110 21123 40197 57008 69900 333 11050;
0122232560999992000031121004+67470+078730FM-12+000899999V0201501N005012200019N0200001N1-01211-01341101931ADDGA1001+999999999GF100991001001999999001001MD1710041+9999REMSYN054AAXX  11211 23256 42998 01505 11121 21134 40193 57004;
0122232560999992000031200004+67470+078730FM-12+000899999V0201401N004012200019N0200001N1-01241-01371101921ADDGA1001+999999999GF100991001001999999001001MD1710011+9999REMSYN054AAXX  12001 23256 42998 01404 11124 21137 40192 57001;
0165232560999992000031201004+67470+078730FM-12+000899999V0201401N004019999999N0200001N1-00901-01161101941ADDAA199000091GF106991001001999999001011KA1999N-01341MD1710011+9999REMSYN070AAXX  12011 23256 32998 61404 11090 21116 40194 57001 80001 333 21134;EQDQ01  00002PRCP99
0181232560999992000031203004+67470+078730FM-12+000899999V0201501N004012200019N0200001N1-01331-01461101961ADDAA199000091AJ100469199999999GF102991001001999999001011IA1249MD1210031+9999REMSYN076AAXX  12031 23256 32998 21504 11133 21146 40196 52003 80001 333 48046 55528;EQDQ01  00002PRCP99
0165232560999992000031206004+67470+078730FM-12+000899999V0201401N004019999999N0200001N1-00911-01161101941ADDAA199000091GF106991001001999999001011KA1999N-01341MD1710011+9999REMSYN070AAXX  12061 23256 32998 61404 11091 21116 40194 57001 80001 333 21134;EQDQ01  00002PRCP99
0112232560999992000031209004+67470+078730FM-12+000899999V0201401N004012200019N0200001N1-00611-00921101951ADDGF103991001001999999001011MD1210011+9999REMSYN060AAXX  12091 23256 42998 31404 11061 21092 40195 52001 80001;
0133232560999992000031212004+67470+078730FM-12+000899999V0201301N005019999999N0200001N1-00751-01051101961ADDGF105991001001999999001011MA1999999101611MD1210011+9999REMSYN066AAXX  12121 23256 42998 51305 11075 21105 30161 40196 52001 80001;
0165232560999992000031215004+67470+078730FM-12+000899999V0201301N004019999999N0200001N1-00961-01221101971ADDAA199000091GF106991001001999999001011KA1999M-00591MD1210011+9999REMSYN070AAXX  12151 23256 32998 61304 11096 21122 40197 52001 80001 333 11059;EQDQ01  00002PRCP99
0165232560999992000031218004+67470+078730FM-12+000899999V0201401N003019999999N0200001N1-00861-01051102001ADDAA199000091GF106991061001999999031001KA1999M-00591MD1210031+9999REMSYN070AAXX  12181 23256 32998 61403 11086 21105 40200 52003 86030 333 11059;EQDQ01  00002PRCP99
0112232560999992000031221004+67470+078730FM-12+000899999V0201601N003019999999N0500001N1-00781-01001102001ADDGF108991081001002501071999MD1410001+9999REMSYN060AAXX  12211 23256 42399 81603 11078 21100 40200 54000 8807/;
0133232560999992000031300004+67470+078730FM-12+000899999V0201601N004019999999N0200001N1-00831-01111102071ADDGF108991081001999999071999MA1999999101721MD1210071+9999REMSYN066AAXX  13001 23256 42998 81604 11083 21111 30172 40207 52007 8807/;
0181232560999992000031303004+67470+078730FM-12+000899999V0201501N004019999999N0200001N1-00941-01191102111ADDAA199000091AJ100459199999999GF108991051001999999031011IA1249MD1210041+9999REMSYN076AAXX  13031 23256 32998 81504 11094 21119 40211 52004 85031 333 48045 55099;EQDQ01  00002PRCP99
0165232560999992000031306004+67470+078730FM-12+000899999V0201301N004019999999N0200001N1-00651-00931102161ADDAA199000091GF107991071001999999031001KA1999N-00991MD1210051+9999REMSYN070AAXX  13061 23256 32998 71304 11065 21093 40216 52005 87030 333 21099;EQDQ01  00002PRCP99
0112232560999992000031309004+67470+078730FM-12+000899999V0201301N004012200019N0200001N1-00371-00741102201ADDGF103991031001999999031001MD1210041+9999REMSYN060AAXX  13091 23256 42998 31304 11037 21074 40220 52004 83030;
0133232560999992000031312004+67470+078730FM-12+000899999V0201101N003019999999N0200001N1-00571-00921102221ADDGF105991051001999999031001MA1999999101871MD1210021+9999REMSYN066AAXX  13121 23256 42998 51103 11057 21092 30187 40222 52002 85030;
0165232560999992000031315004+67470+078730FM-12+000899999V0201301N002019999999N0200001N1-00791-01011102251ADDAA199000091GF106991031001999999031011KA1999M-00371MD1210031+9999REMSYN070AAXX  13151 23256 32998 61302 11079 21101 40225 52003 83031 333 11037;EQDQ01  00002PRCP99
0165232560999992000031318004+67470+078730FM-12+000899999V0201101N003019999999N0200001N1-00781-00961102261ADDAA199000091GF106991061001999999031001KA1999M-00371MD1210011+9999REMSYN070AAXX  13181 23256 32998 61103 11078 21096 40226 52001 86030 333 11037;EQDQ01  00002PRCP99
0112232560999992000031321004+67470+078730FM-12+000899999V0201201N002019999999N0200001N1-00981-01151102291ADDGF107991071001999999031001MD1210031+9999REMSYN060AAXX  13211 23256 42998 71202 11098 21115 40229 52003 87030;
0133232560999992000031400004+67470+078730FM-12+000899999V0201101N002019999999N0200001N1-01151-01281102351ADDGF105991051001999999031001MA1999999102001MD1210061+9999REMSYN066AAXX  14001 23256 42998 51102 11115 21128 30200 40235 52006 85030;
0181232560999992000031403004+67470+078730FM-12+000899999V0201301N005019999999N0200001N1-01071-01201102451ADDAA199000091AJ100459199999999GF106991021001999999031011IA1249MD1210101+9999REMSYN076AAXX  14031 23256 32998 61305 11107 21120 40245 52010 82031 333 48045 55032;EQDQ01  00002PRCP99
0165232560999992000031406004+67470+078730FM-12+000899999V0201201N004012200019N0200001N1-00901-01151102531ADDAA199000091GF102991001001999999001011KA1999N-01181MD1210081+9999REMSYN070AAXX  14061 23256 32998 21204 11090 21115 40253 52008 80001 333 21118;EQDQ01  00002PRCP99
0112232560999992000031409004+67470+078730FM-12+000899999V0201201N005012200019N0200001N1-00751-01011102611ADDGF103991001001999999001011MD1210081+9999REMSYN060AAXX  14091 23256 42998 31205 11075 21101 40261 52008 80001;
0133232560999992000031412004+67470+078730FM-12+000899999V0201101N003019999999N0200001N1-00961-01261102741ADDGF105991001001999999001011MA1999999102391MD1210131+9999REMSYN066AAXX  14121 23256 42998 51103 11096 21126 30239 40274 52013 80001;
0165232560999992000031415004+67470+078730FM-12+000899999V0201201N004012200019N0200001N1-01261-01531102821ADDAA199000091GF102991001001999999001011KA1999M-00751MD1210081+9999REMSYN070AAXX  14151 23256 32998 21204 11126 21153 40282 52008 80001 333 11075;EQDQ01  00002PRCP99
0175232560999992000031418004+67470+078730FM-12+000899999V0201101N004012200019N0200001N1-01461-01731102881ADDAA199000091GA1001+999999999GF100991001001999999001001KA1999M-00751MD1210041+9999REMSYN064AAXX  14181 23256 32998 01104 11146 21173 40288 52004 333 11075;EQDQ01  00002PRCP99
0122232560999992000031421004+67470+078730FM-12+000899999V0201201N004012200019N0200001N1-01581-01851102961ADDGA1001+999999999GF100991001001999999001001MD1210081+9999REMSYN054AAXX  14211 23256 42998 01204 11158 21185 40296 52008;
0143232560999992000031500004+67470+078730FM-12+000899999V0201301N004012200019N0200001N1-01721-01911103031ADDGA1001+999999999GF100991001001999999001001MA1999999102661MD1210071+9999REMSYN060AAXX  15001 23256 12998 01304 11172 21191 30266 40303 52007;
0181232560999992000031503004+67470+078730FM-12+000899999V0201401N004012200019N0200001N1-01781-01971103061ADDAA199000091AJ100459199999999GF102991001001999999001011IA1249MD1210031+9999REMSYN076AAXX  15031 23256 32998 21404 11178 21197 40306 52003 80001 333 48045 55080;EQDQ01  00002PRCP99
0165232560999992000031506004+67470+078730FM-12+000899999V0201101N004012200019N0200001N1-01621-01881103051ADDAA199000091GF102991001001999999001011KA1999N-01871MD1710011+9999REMSYN070AAXX  15061 23256 32998 21104 11162 21188 40305 57001 80001 333 21187;EQDQ01  00002PRCP99
0112232560999992000031509004+67470+078730FM-12+000899999V0201101N002012200019N0200001N1-01261-01781103021ADDGF102991001001999999001011MD1710021+9999REMSYN060AAXX  15091 23256 42998 21102 11126 21178 40302 57002 80001;
0133232560999992000031512004+67470+078730FM-12+000899999V0201901N002019999999N0200001N1-01471-01901102981ADDGF106991021001999999031011MA1999999102611MD1710051+9999REMSYN066AAXX  15121 23256 42998 61902 11147 21190 30261 40298 57005 82031;
0165232560999992000031515004+67470+078730FM-12+000899999V0201301N002012200019N0200001N1-01561-01901102971ADDAA199000091GF103991021001999999031011KA1999M-01251MD1710011+9999REMSYN070AAXX  15151 23256 32998 31302 11156 21190 40297 57001 82031 333 11125;EQDQ01  00002PRCP99
0175232560999992000031518004+67470+078730FM-12+000899999V0201101N002012200019N0200001N1-01961-02221102941ADDAA199000091GA1001+999999999GF100991001001999999001001KA1999M-01251MD1710031+9999REMSYN064AAXX  15181 23256 32998 01102 11196 21222 40294 57003 333 11125;EQDQ01  00002PRCP99
0122232560999992000031521004+67470+078730FM-12+000899999V0200901N001012200019N0200001N1-02201-02451102881ADDGA1001+999999999GF100991001001999999001001MD1710061+9999REMSYN054AAXX  15211 23256 42998 00901 11220 21245 40288 57006;
0143232560999992000031600004+67470+078730FM-12+000899999V0200801N001012200019N0200001N1-02321-02571102841ADDGA1001+999999999GF100991001001999999001001MA1999999102461MD1710041+9999REMSYN060AAXX  16001 23256 42998 00801 11232 21257 30246 40284 57004;
0191232560999992000031603004+67470+078730FM-12+000899999V0203501N001012200019N0200001N1-02081-02331102771ADDAA199000091AJ100459199999999GA1001+999999999GF100991001001999999001001IA1249MD1710061+9999REMSYN070AAXX  16031 23256 32998 03501 11208 21233 40277 57006 333 48045 55101;EQDQ01  00002PRCP99
0175232560999992000031606004+67470+078730FM-12+000899999V0200201N001012200019N0200001N1-01701-01961102681ADDAA199000091GA1001+999999999GF100991001001999999001001KA1999N-02321MD1710081+9999REMSYN064AAXX  16061 23256 32998 00201 11170 21196 40268 57008 333 21232;EQDQ01  00002PRCP99
0122232560999992000031609004+67470+078730FM-12+000899999V0200101N001012200019N0200001N1-01791-02121102651ADDGA1001+999999999GF100991001001999999001001MD1710041+9999REMSYN054AAXX  16091 23256 42998 00101 11179 21212 40265 57004;
0133232560999992000031612004+67470+078730FM-12+000899999V0200101N004012200019N0200001N1-02251-02571102641ADDGF102991001001999999001011MA1999999102271MD1710011+9999REMSYN066AAXX  16121 23256 42998 20104 11225 21257 30227 40264 57001 80001;
0175232560999992000031615004+67470+078730FM-12+000899999V0200101N003012200019N0200001N1-02451-02771102551ADDAA199000091GA1001+999999999GF100991001001999999001001KA1999M-01691MD1810101+9999REMSYN064AAXX  16151 23256 32998 00103 11245 21277 40255 58010 333 11169;EQDQ01  00002PRCP99
0184232560999992000031618004+67470+078730FM-12+000899999V0203601N004012200019N0200001N1-02481-02731102491ADDAA199000021AY101061AY201061GA1001+999999999GF100991001001999999001001KA1999M-01691MD1710061+9999MW1761REMSYN070AAXX  16181 23256 31998 03604 11248 21273 40249 57006 77600 333 11169;
0150232560999992000031621004+67470+078730FM-12+000899999V0200201N003012200019N0200001N1-02601-02911102461ADDAY171031AY201031GA1001+999999999GF100991001001999999001001MD1710031+9999MW1021REMSYN060AAXX  16211 23256 41998 00203 11260 21291 40246 57003 70270;
0171232560999992000031700004+67470+078730FM-12+000899999V0200201N004012200019N0200001N1-02761-03061102471ADDAY171061AY201061GA1001+999999999GF100991001001999999001001MA1999999102091MD1210011+9999MW1021REMSYN066AAXX  17001 23256 41998 00204 11276 21306 30209 40247 52001 70270;
0172232560999992000031703004+67470+078730FM-12+000899999V0203601N003012200019N0200001N1-02681-03001102491ADDAA199000021AJ100459199999999GA1001+999999999GF100991001001999999001001IA1249MD1210021+9999REMSYN070AAXX  17031 23256 32998 03603 11268 21300 40249 52002 333 48045 55105;
0156232560999992000031706004+67470+078730FM-12+000899999V0200201N004012200019N0200001N1-02401-02721102551ADDAA199000021GA1001+999999999GF100991001001999999001001KA1999N-02771MD1210061+9999REMSYN064AAXX  17061 23256 32998 00204 11240 21272 40255 52006 333 21277;
0122232560999992000031709004+67470+078730FM-12+000899999V0200201N004012200019N0200001N1-02211-02541102571ADDGA1001+999999999GF100991001001999999001001MD1210031+9999REMSYN054AAXX  17091 23256 42998 00204 11221 21254 40257 52003;
0133232560999992000031712004+67470+078730FM-12+000899999V0203601N004012200019N0200001N1-02261-02581102651ADDGF102991001001999999001011MA1999999102271MD1210071+9999REMSYN066AAXX  17121 23256 42998 23604 11226 21258 30227 40265 52007 80001;
0175232560999992000031715004+67470+078730FM-12+000899999V0200201N003012200019N0200001N1-02501-02811102661ADDAA199000091GA1001+999999999GF100991001001999999001001KA1999M-02211MD1210011+9999REMSYN064AAXX  17151 23256 32998 00203 11250 21281 40266 52001 333 11221;EQDQ01  00002PRCP99
0175232560999992000031718004+67470+078730FM-12+000899999V0203501N004012200019N0200001N1-02621-02941102631ADDAA199000091GA1001+999999999GF100991001001999999001001KA1999M-02211MD1710031+9999REMSYN064AAXX  17181 23256 32998 03504 11262 21294 40263 57003 333 11221;EQDQ01  00002PRCP99
0122232560999992000031721004+67470+078730FM-12+000899999V0200101N005012200019N0200001N1-02711-03011102611ADDGA1001+999999999GF100991001001999999001001MD1710021+9999REMSYN054AAXX  17211 23256 42998 00105 11271 21301 40261 57002;
0143232560999992000031800004+67470+078730FM-12+000899999V0203601N004012200019N0200001N1-02811-03111102681ADDGA1001+999999999GF100991001001999999001001MA1999999102301MD1210071+9999REMSYN060AAXX  18001 23256 42998 03604 11281 21311 30230 40268 52007;
0191232560999992000031803004+67470+078730FM-12+000899999V0200101N002012200019N0200001N1-02721-03031102751ADDAA199000091AJ100459199999999GA1001+999999999GF100991001001999999001001IA1249MD1210071+9999REMSYN070AAXX  18031 23256 32998 00102 11272 21303 40275 52007 333 48045 55113;EQDQ01  00002PRCP99
0122232560999992000031809004+67470+078730FM-12+000899999V0203401N003012200019N0200001N1-02471-02861102661ADDGA1001+999999999GF100991001001999999001001MD1710031+9999REMSYN054AAXX  18091 23256 42998 03403 11247 21286 40266 57003;
0133232560999992000031812004+67470+078730FM-12+000899999V0200201N004012200019N0200001N1-02581-02971102711ADDGF101991001001999999001011MA1999999102331MD1210051+9999REMSYN066AAXX  18121 23256 42998 10204 11258 21297 30233 40271 52005 80001;
0165232560999992000031815004+67470+078730FM-12+000899999V0203601N005012200019N0200001N1-02681-03001102701ADDAA199000091GF102991001001999999001011KA1999M-02401MD1710011+9999REMSYN070AAXX  18151 23256 32998 23605 11268 21300 40270 57001 80001 333 11240;EQDQ01  00002PRCP99
0165232560999992000031818004+67470+078730FM-12+000899999V0203601N003012200019N0200001N1-02611-02921102721ADDAA199000091GF102991001001999999001011KA1999M-02401MD1210021+9999REMSYN070AAXX  18181 23256 32998 23603 11261 21292 40272 52002 80001 333 11240;EQDQ01  00002PRCP99
0112232560999992000031821004+67470+078730FM-12+000899999V0203501N003012200019N0200001N1-02771-03081102641ADDGF103991001001999999001011MD1710081+9999REMSYN060AAXX  18211 23256 42998 33503 11277 21308 40264 57008 80001;
0143232560999992000031900004+67470+078730FM-12+000899999V0203401N003012200019N0200001N1-02961-03191102671ADDGA1001+999999999GF100991001001999999001001MA1999999102291MD1210031+9999REMSYN060AAXX  19001 23256 42998 03403 11296 21319 30229 40267 52003;
0191232560999992000031903004+67470+078730FM-12+000899999V0203601N003012200019N0200001N1-02981-03281102701ADDAA199000091AJ100459199999999GA1001+999999999GF100991001001999999001001IA1249MD1210031+9999REMSYN070AAXX  19031 23256 32998 03603 11298 21328 40270 52003 333 48045 55114;EQDQ01  00002PRCP99
0175232560999992000031906004+67470+078730FM-12+000899999V0203601N004012200019N0200001N1-02761-03061102711ADDAA199000091GA1001+999999999GF100991001001999999001001KA1999N-02981MD1210011+9999REMSYN064AAXX  19061 23256 32998 03604 11276 21306 40271 52001 333 21298;EQDQ01  00002PRCP99
0122232560999992000031909004+67470+078730FM-12+000899999V0203601N003012200019N0200001N1-02551-02941102761ADDGA1001+999999999GF100991001001999999001001MD1210051+9999REMSYN054AAXX  19091 23256 42998 03603 11255 21294 40276 52005;
0143232560999992000031912004+67470+078730FM-12+000899999V0203501N002012200019N0200001N1-02471-02861102801ADDGA1001+999999999GF100991001001999999001001MA1999999102421MD1210041+9999REMSYN060AAXX  19121 23256 42998 03502 11247 21286 30242 40280 52004;
0165232560999992000031915004+67470+078730FM-12+000899999V0203501N002012200019N0200001N1-02561-02881102821ADDAA199000091GF102991001001999999001011KA1999M-02441MD1210021+9999REMSYN070AAXX  19151 23256 32998 23502 11256 21288 40282 52002 80001 333 11244;EQDQ01  00002PRCP99
0175232560999992000031918004+67470+078730FM-12+000899999V0203501N001012200019N0200001N1-02871-03181102751ADDAA199000091GA1001+999999999GF100991001001999999001001KA1999M-02441MD1710071+9999REMSYN064AAXX  19181 23256 32998 03501 11287 21318 40275 57007 333 11244;EQDQ01  00002PRCP99
0112232560999992000031921004+67470+078730FM-12+000899999V0202701N001019999999N0200001N1-02971-03281102641ADDGF105991001001999999001011MD1710111+9999REMSYN060AAXX  19211 23256 42998 52701 11297 21328 40264 57011 80001;
0133232560999992000032000004+67470+078730FM-12+000899999V0201301N001012200019N0200001N1-02951-03261102591ADDGF103991001001999999001011MA1999999102211MD1710051+9999REMSYN066AAXX  20001 23256 42998 31301 11295 21326 30221 40259 57005 80001;
0181232560999992000032003004+67470+078730FM-12+000899999V0201901N002012200019N0200001N1-02641-02951102501ADDAA199000091AJ100459199999999GF103991001001999999001011IA1249MD1710091+9999REMSYN076AAXX  20031 23256 32998 31902 11264 21295 40250 57009 80001 333 48045 55117;EQDQ01  00002PRCP99
0165232560999992000032006004+67470+078730FM-12+000899999V0201601N002012200019N0200001N1-02541-02851102371ADDAA199000091GF102991001001999999001011KA1999N-03031MD1710131+9999REMSYN070AAXX  20061 23256 32998 21602 11254 21285 40237 57013 80001 333 21303;EQDQ01  00002PRCP99
0112232560999992000032009004+67470+078730FM-12+000899999V0201601N003012200019N0200001N1-02351-02671102251ADDGF102991001001999999001011MD1710121+9999REMSYN060AAXX  20091 23256 42998 21603 11235 21267 40225 57012 80001;
0175232560999992000032015004+67470+078730FM-12+000899999V0201501N004012200019N0200001N1-02571-02951101971ADDAA199000091GA1001+999999999GF100991001001999999001001KA1999M-02351MD1710161+9999REMSYN064AAXX  20151 23256 32998 01504 11257 21295 40197 57016 333 11235;EQDQ01  00002PRCP99
0175232560999992000032018004+67470+078730FM-12+000899999V0201401N004012200019N0200001N1-02801-03181101791ADDAA199000091GA1001+999999999GF100991001001999999001001KA1999M-02351MD1710181+9999REMSYN064AAXX  20181 23256 32998 01404 11280 21318 40179 57018 333 11235;EQDQ01  00002PRCP99
0152232560999992000032021004+67470+078730FM-12+000899999V0201301N005012200019N0200001N1-02811-03181101571ADDAA199000091GA1001+999999999GF100991001001999999001001MD1710221+9999REMSYN054AAXX  20211 23256 32998 01305 11281 21318 40157 57022;EQDQ01  00002PRCP99
0107232560999992000032100004+67470+078730FM-12+000899999V0201301N005019999999N0200001N1-02701-03091101351ADDGF108991999999999999999999MA1999999100981REMSYN054AAXX  21001 23256 42998 81305 11270 21309 30098 40135;
0191232560999992000032103004+67470+078730FM-12+000899999V0201401N005012200019N0200001N1-02431-02821101131ADDAA199000091AJ100459199999999GA1001+999999999GF100991001001999999001001IA1249MD1710221+9999REMSYN070AAXX  21031 23256 32998 01405 11243 21282 40113 57022 333 48045 55119;EQDQ01  00002PRCP99
0165232560999992000032106004+67470+078730FM-12+000899999V0201401N007012200019N0200001N1-01861-02351100891ADDAA199000091GF102991001001999999001011KA1999N-02821MD1710241+9999REMSYN070AAXX  21061 23256 32998 21407 11186 21235 40089 57024 80001 333 21282;EQDQ01  00002PRCP99
0122232560999992000032109004+67470+078730FM-12+000899999V0201401N007012200019N0200001N1-01441-02051100671ADDGA1001+999999999GF100991001001999999001001MD1710201+9999REMSYN054AAXX  21091 23256 42998 01407 11144 21205 40067 57020;
0160232560999992000032112004+67470+078730FM-12+000899999V0201301N012019999999N0200001N1-01241-01671100521ADDGF108991001001999999001061MA1999999100171MD1710151+9999OA140101501REMSYN082AAXX  21121 23256 42998 81312 11124 21167 30017 40052 57015 80006 333 91015 91115;
0163232560999992000032115004+67470+078730FM-12+000899999V0201301N010019999999N0200001N1-01171-01521100371ADDAY171031AY221031GF108991001001999999001061KA1999M-01161MD1710151+9999MW1711REMSYN076AAXX  21151 23256 /1998 81310 11117 21152 40037 57015 77172 80006 333 11116;
0222232560999992000032118004+67470+078730FM-12+000899999V0201301N011019999999N0040001N1-01091-01371100141ADDAA100000791AY171061AY231061GF108991081001999999071999KA1120M+99999MD1710231+9999MW1711OA140101401REMSYN094AAXX  21181 23256 11996 81311 11109 21137 40014 57023 69900 77173 8807/ 333 11116 91014 91115;EQDQ01 -01162ATMX  
0106232560999992000032121004+67470+078730FM-12+000899999V0201301N011019999999N0020001N1-01101-01301099971ADDGF108991999999999999999999MD1710171+9999REMSYN054AAXX  21211 23256 41995 81311 11110 21130 49997 57017;
0205232560999992000032200004+67470+078730FM-12+000899999V0201401N011019999999N0020001N1-01141-01341099811ADDAY171061AY231061GF108991081001999999071999MA1999999099471MD1710151+9999MW1731OA140101401OA249901501REMSYN094AAXX  22001 23256 41995 81411 11114 21134 39947 49981 57015 77373 8807/ 333 91014 91115 92993;
0179232560999992000032203004+67470+078730FM-12+000899999V0201401N009019999999N0020001N1-01111-01311099771ADDAJ100469199999999AY171031AY231031GF108991081001999999071999IA1249MD1710041+9999MW1731REMSYN082AAXX  22031 23256 /1995 81409 11111 21131 49977 57004 77373 8807/ 333 48046 55102;
0203232560999992000032206004+67470+078730FM-12+000899999V0201601N007019999999N0040001N1-00931-01181099781ADDAA100002091AY171061AY231061GF108991081001999999071999KA1120N-01171MD1210011+9999MW1711OA149901201REMSYN094AAXX  22061 23256 11996 81607 11093 21118 49978 52001 60020 77173 8807/ 333 21117 91112 92990;
0140232560999992000032209004+67470+078730FM-12+000899999V0201701N005019999999N0100001N1-00731-00981099921ADDAY171031AY231031GF108991081001999999071999MD1210141+9999MW1711REMSYN066AAXX  22091 23256 41997 81705 11073 21098 49992 52014 77173 8807/;
0161232560999992000032212004+67470+078730FM-12+000899999V0201901N004019999999N0200001N1-00681-00921100111ADDAY171061AY231061GF106991031001999999031021MA1999999099771MD1210191+9999MW1021REMSYN072AAXX  22121 23256 41998 61904 11068 21092 39977 40011 52019 70273 83032;
0135232560999992000032215004+67470+078730FM-12+000899999V0201901N005019999999N0200001N1-00701-00991100191ADDGF107991071001999999051001KA1999M-00551MD1210081+9999REMSYN070AAXX  22151 23256 /2998 71905 11070 21099 40019 52008 87050 333 11055;
0174232560999992000032218004+67470+078730FM-12+000899999V0202001N006010090019N0028001N1-00661-01051100251ADDAA100000791GA1061+009009059GF106991061051008001001001KA1120M-00551MD1210061+9999REMSYN082AAXX  22181 23256 12528 62006 11066 21105 40025 52006 69900 86500 333 11055 86630;
0133232560999992000032300004+67470+078730FM-12+000899999V0201801N004010300019N0200001N1-00781-01051100281ADDGF107991021051008001031001MA1999999099931MD1410001+9999REMSYN066AAXX  23001 23256 42598 71804 11078 21105 39993 40028 54000 82530;
0211232560999992000032303004+67470+078730FM-12+000899999V0202001N005010300019N0200001N1-00781-00961100271ADDAA199000091AJ100469199999999GA1041+007209059GF107991041051008001031001GJ100669IA1249MD1710011+9999REMSYN082AAXX  23031 23256 32598 72005 11078 21096 40027 57001 84530 333 48046 55011 84624;EQDQ01  00002PRCP99
0215232560999992000032306004+67470+078730FM-12+000899999V0201701N004012200019N0200001N1-00841-01031100311ADDAA199000091AY141061AY221061GA1041+001509069GF106991041061001501001011KA1120N-00911MD1210041+9999MW1021REMSYN082AAXX  23061 23256 31298 61704 11084 21103 40031 52004 70242 84601 333 21091 84705;EQDQ01  00002PRCP99
0140232560999992000032309004+67470+078730FM-12+000899999V0201701N003019999999N0040001N1-00611-00841100301ADDAY121031AY221031GF108991081001999999071999MD1410001+9999MW1711REMSYN066AAXX  23091 23256 41996 81703 11061 21084 40030 54000 77122 8807/;
0185232560999992000032315004+67470+078730FM-12+000899999V0202401N00501001201CN0040001N1-00821-00921100441ADDAY181031AY221031GA1041+001809069GF108991081031001501999999KA1120M-00471MD1210061+9999MW1851REMSYN082AAXX  23151 23256 /1296 82405 11082 21092 40044 52006 78582 883// 333 11047 84706;
0196232560999992000032318004+67470+078730FM-12+000899999V0202201N003010003019N0005001N1-01061-01121100481ADDAA100003091AY181061AY221061GA1091+999999999GF109991091999999999999999KA1120M-00471MD1210041+9999MW1471REMSYN082AAXX  23181 23256 11/93 92203 11106 21112 40048 52004 60030 74782 333 11047 93501;
0150232560999992000032321004+67470+078730FM-12+000899999V0201701N001010003019N0005001N1-01071-01131100481ADDAY141031AY221031GA1091+999999999GF109991091999999999999999MD1410001+9999MW1451REMSYN060AAXX  23211 23256 41/93 91701 11107 21113 40048 54000 74542;
0181232560999992000032400004+67470+078730FM-12+000899999V0201601N001010003019N0005001N1-00931-01051100411ADDAY141061AY221061GA1091+999999999GF109991091999999999999999MA1999999100061MD1710071+9999MW1451REMSYN076AAXX  24001 23256 41/93 91601 11093 21105 30006 40041 57007 74542 333 93505;
0220232560999992000032403004+67470+078730FM-12+000899999V0201101N003010003019N0002001N1-00831-00931100371ADDAA112000391AJ100479199999999AY141031AY221031GA1091+999999999GF109991091999999999999999GJ101869IA1249MD1710041+9999MW1491REMSYN088AAXX  24031 23256 /1/92 91103 11083 21093 40037 57004 74942 333 48047 55031 69932 7003/;
0196232560999992000032406004+67470+078730FM-12+000899999V0201101N003010003019N0005001N1-00711-00761100281ADDAA100000391AY141061AY221061GA1091+999999999GF109991091999999999999999KA1120N-01081MD1710081+9999MW1491REMSYN082AAXX  24061 23256 11/93 91103 11071 21076 40028 57008 69930 74942 333 21108 93508;
0140232560999992000032409004+67470+078730FM-12+000899999V0200301N002012200019N0200001N1-00781-00841100231ADDAY141031AY211031GF102991021061001501001001MD1710061+9999MW1101REMSYN066AAXX  24091 23256 41298 20302 11078 21084 40023 57006 71041 82600;
0171232560999992000032412004+67470+078730FM-12+000899999V0200401N003012200019N0200001N1-01221-01281100231ADDAY141061AY211061GF107991021061002501001011MA1999999099881MD1410001+9999MW1021REMSYN082AAXX  24121 23256 41398 70403 11122 21128 39988 40023 54000 70241 82601 333 93504;
0187232560999992000032415004+67470+078730FM-12+000899999V0200501N002010009019N0200001N1-01241-01301100171ADDAA199000091GA1051+000909069GF108991081061999999999999KA1120M-00651MD1710061+9999REMSYN076AAXX  24151 23256 32998 80502 11124 21130 40017 57006 886// 333 11065 85703;EQDQ01  00002PRCP99
0221232560999992000032418004+67470+078730FM-12+000899999V0200301N002010018019N0200001N1-01211-01341100051ADDAA199000021AY121061AY221061GA1061+001809079GF108991999071002501021999KA1120M-00651MD1710121+9999MW1711REMSYN088AAXX  24181 23256 31398 80302 11121 21134 40005 57012 77122 8872/ 333 11065 86706 93505;EQDQ01+000082SCOTLC
0185232560999992000032421004+67470+078730FM-12+000899999V0200301N002010021019N0200001N1-00901-01011099991ADDAY171031AY221031GA1051+002109069GF108991999071002501021999MD1710061+9999MW1021REMSYN076AAXX  24211 23256 41398 80302 11090 21101 49999 57006 70272 8872/ 333 85707;EQDQ01+000082SCOTLC
0193232560999992000032500004+67470+078730FM-12+000899999V0200501N00301004201CN0200001N1-01021-01151099941ADDAY171061AY221061GA1041+004809099GF108991081031004501999999MA1999999099591MD1710051+9999MW1021REMSYN088AAXX  25001 23256 41498 80503 11102 21115 39959 49994 57005 70272 883// 333 84916 93504;
0181232560999992000032503004+67470+078730FM-12+000899999V0200801N004010021019N0200001N1-01021-01151099871ADDAJ100509199999999GA1051+002109069GF108991081051002501999999GJ101269IA1249MD1710071+9999REMSYN082AAXX  25031 23256 /2398 80804 11102 21115 49987 57007 885// 333 48050 55021 85707;
0180232560999992000032506004+67470+078730FM-12+000899999V0200801N004010045019N0200001N1-00721-00811099871ADDAA100000191GA1061+004509069GF108991061051004501071999KA1120N-01281MD1210011+9999REMSYN088AAXX  25061 23256 12498 80804 11072 21081 49987 52001 69920 8657/ 333 21128 86615 93600;
0138232560999992000032509004+67470+078730FM-12+000899999V0200701N004010300019N0200001N1-00811-00871100021ADDGA1041+003909059GF108991041051004501071999MD1210141+9999REMSYN070AAXX  25091 23256 42498 80704 11081 21087 40002 52014 8457/ 333 84613;
0113232560999992000032512004+67470+078730FM-12+000899999V0200601N002019999999N0200001N1-01071-01131100151ADDGF105991021051999999001011MA1999999099801REMSYN060AAXX  25121 23256 42998 50602 11107 21113 39980 40015 82501;
0187232560999992000032515004+67470+078730FM-12+000899999V0200501N001010300019N0200001N1-01461-01591100291ADDAA199000091GA1041+004809059GF106991041051004501031001KA1120M-00681MD1210141+9999REMSYN076AAXX  25151 23256 32498 60501 11146 21159 40029 52014 84530 333 11068 84616;EQDQ01  00002PRCP99
0196232560999992000032518004+67470+078730FM-12+000899999V0202001N002010024019N0200001N1-01241-01371100411ADDAA199000021AY121061AY221061GA1051+002409069GF108991081051002501999999KA1120M-00681MD1210121+9999MW1711REMSYN082AAXX  25181 23256 31398 82002 11124 21137 40041 52012 77122 885// 333 11068 85708;
0166232560999992000032521004+67470+078730FM-12+000899999V0202501N004010012019N0200001N1-01041-01171100561ADDAY171031AY221031GA1081+001209069GF108991081061001501999999MD1210151+9999MW1021REMSYN076AAXX  25211 23256 41298 82504 11104 21117 40056 52015 70272 886// 333 88704;
0187232560999992000032600004+67470+078730FM-12+000899999V0202301N003010015019N0200001N1-01001-01131100631ADDAY171061AY221061GA1051+001509069GF108991081051001501999999MA1999999100281MD1210071+9999MW1021REMSYN082AAXX  26001 23256 41298 82303 11100 21113 30028 40063 52007 70272 885// 333 85705;
0209232560999992000032603004+67470+078730FM-12+000899999V0202101N003010750019N0005001N1-01371-01501100651ADDAJ100509199999999AY141031AY221031GA1041+001209069GF108991041061001501001061GJ100009IA1249MD1210021+9999MW1711REMSYN088AAXX  26031 23256 /1293 82103 11137 21150 40065 52002 77142 84606 333 48050 55000 84704;
0186232560999992000032606004+67470+078730FM-12+000899999V0201201N004012200019N0200001N1-01041-01171100601ADDAA100000391AY171061AY241061GF105991021061002501001011KA1120N-01501MD1710051+9999MW1021REMSYN088AAXX  26061 23256 11398 51204 11104 21117 40060 57005 69930 70274 82601 333 21150 93500;
0166232560999992000032609004+67470+078730FM-12+000899999V0200901N005010039019N0020001N1-00571-00711100301ADDAY121031AY221031GA1051+003909099GF108991081031004501999999MD1710291+9999MW1851REMSYN076AAXX  26091 23256 41495 80905 11057 21071 40030 57029 78522 883// 333 85913;
0193232560999992000032612004+67470+078730FM-12+000899999V0201201N007010030019N0020001N1-00391-00471099891ADDAY181061AY231061GA1061+003009099GF108991081031004501999999MA1999999099551MD1710411+9999MW1861REMSYN088AAXX  26121 23256 41495 81207 11039 21047 39955 49989 57041 78683 883// 333 86910 92991;
0185232560999992000032615004+67470+078730FM-12+000899999V0201801N005010015019N0200001N1-00201+99999099591ADDAY181031AY231031GA1081+001509069GF108991081061001501999999KA1120M-00201MD1710291+9999MW1261REMSYN082AAXX  26151 23256 /1298 81805 11020 21014 49959 57029 72683 886// 333 11020 88705;
0227232560999992000032618004+67470+078730FM-12+000899999V0201901N006010018019N0200001N1-00031-00061099421ADDAA100005191AY181061AY231061GA1081+001809079GF108991081061001501999999KA1120M+99999MD1710171+9999MW1021REMSYN094AAXX  26181 23256 11298 81906 11003 21006 49942 57017 60050 70283 886// 333 11010 88706 92990;EQDQ01 -00102ATMX  
0086232560999992000032621004+67470+078730FM-12+000899999V0202701N002019999999N0010001N1-00381-00401099301ADDGF108991999999002501999999REMSYN048AAXX  26211 23256 41394 82702 11038 21040 49930;
0206232560999992000032700004+67470+078730FM-12+000899999V0202901N001010003019N0005001N1-00591-00591999999ADDAY171061AY241061GA1091+999999999GF109991091999999999999999MA1999999099871MD1710221+9999MW1771REMSYN082AAXX  27001 23256 41/93 92901 11059 21059 39987 49508 57022 77774 333 93501 96049;EQDQ01+095083APOSLP
0209232560999992000032703004+67470+078730FM-12+000899999V0203301N00301001201CN0020001N1-00531-00561098871ADDAJ100559199999999AY181031AY271031GA1041+001509069GF108991081031001501999999GJ100969IA1249MD1710211+9999MW1851REMSYN088AAXX  27031 23256 /1295 83303 11053 21056 49887 57021 78587 883// 333 48055 55016 84705;
0227232560999992000032706004+67470+078730FM-12+000899999V0203401N00601012001CN0020001N1-00741-00801098681ADDAA100001091AY181061AY271061GA1041+001809079GF108991081031012501999999KA1120N+99999MD1710181+9999MW1851REMSYN094AAXX  27061 23256 11695 83406 11074 21080 49868 57018 60010 78587 883// 333 21062 84706 93500;EQDQ01 -00622ATMN  
0166232560999992000032709004+67470+078730FM-12+000899999V0203201N00901002101CN0020001N1-01131-01261098701ADDAY181031AY231031GA1041+002709069GF107991071031002501001001MD1210011+9999MW1851REMSYN076AAXX  27091 23256 41395 73209 11113 21126 49870 52001 78583 87300 333 84709;
0210232560999992000032712004+67470+078730FM-12+000899999V0203201N010010027019N0100001N1-01231-01431098761ADDAY181061AY271061GA1051+002709079GF108991081051002501999999MA1999999098421MD1210061+9999MW1711OA140101301REMSYN094AAXX  27121 23256 41397 83210 11123 21143 39842 49876 52006 77187 885// 333 85709 91013 91113;
0157232560999992000032715004+67470+078730FM-12+000899999V0203001N010019999999N0040001N1-01581-01771999999ADDAY171031AY231031GF108991021001999999031061KA1999M-00521MD1210151+9999MW1711REMSYN070AAXX  27151 23256 /1996 83010 11158 21177 52015 77173 82036 333 11052;
0203232560999992000032718004+67470+078730FM-12+000899999V0203001N010019999999N0020001N1-02041-02291099171ADDAA100002091AY171061AY231061GF108991001001999999001061KA1120M-00521MD1210241+9999MW1711OA140101301REMSYN094AAXX  27181 23256 11995 83010 11204 21229 49917 52024 60020 77173 80006 333 11052 91013 91114;
0150232560999992000032721004+67470+078730FM-12+000899999V0202801N009012200019N0020001N1-02211-02471099361ADDAY171031AY231031GA1001+999999999GF100991001001999999001001MD1210191+9999MW1381REMSYN060AAXX  27211 23256 41995 02809 11221 21247 49936 52019 73873;
0198232560999992000032800004+67470+078730FM-12+000899999V0202701N009012200019N0020001N1-02211-02471099551ADDAY171061AY231061GA1001+999999999GF100991001001999999001001MA1999999099191MD1210191+9999MW1381OA140101201REMSYN082AAXX  28001 23256 41995 02709 11221 21247 39919 49955 52019 73873 333 91012 91113;
0189232560999992000032803004+67470+078730FM-12+000899999V0202601N010012200019N0200001N1-01951-02211099691ADDAJ100569199999999AY131031AY231031GA1001+999999999GF100991001001999999001001IA1249MD1210141+9999MW1361REMSYN076AAXX  28031 23256 /1998 02610 11195 21221 49969 52014 73633 333 48056 55000;
0213232560999992000032806004+67470+078730FM-12+000899999V0202401N011012200019N0200001N1-01581-01921099881ADDAA100000891AY131061AY231061GA1001+999999999GF100991001001999999001001KA1120N-02251MD1210201+9999MW1361OA140101401REMSYN088AAXX  28061 23256 11998 02411 11158 21192 49988 52020 69970 73633 333 21225 91014 91115;
0150232560999992000032809004+67470+078730FM-12+000899999V0202401N011012200019N0200001N1-01511-01851100081ADDAY131031AY201031GA1001+999999999GF100991001001999999001001MD1210201+9999MW1361REMSYN060AAXX  28091 23256 41998 02411 11151 21185 40008 52020 73630;
0188232560999992000032812004+67470+078730FM-12+000899999V0202301N009019999999N0200001N1-01431-01701100221ADDAY131061AY211061GF106991001001999999001011MA1999999099871MD1210141+9999MW1361OA140101201REMSYN088AAXX  28121 23256 41998 62309 11143 21170 39987 40022 52014 73631 80001 333 91012 91114;
0193232560999992000032815004+67470+078730FM-12+000899999V0202201N009012200019N0200001N1-01571-01841100221ADDAA199000091AY131031AY211031GF102991001001999999001011KA1999M-01411MD1410001+9999MW1361REMSYN076AAXX  28151 23256 31998 22209 11157 21184 40022 54000 73631 80001 333 11141;EQDQ01  00002PRCP99
0216232560999992000032818004+67470+078730FM-12+000899999V0202201N010012200019N0200001N1-01411-01761100081ADDAA199000091AY131061AY211061GF103991031001999999031001KA1120M+01411MD1710141+9999MW1361OA140101301REMSYN088AAXX  28181 23256 31998 32210 11141 21176 40008 57014 73631 83030 333 10141 91013 91114;EQDQ01  00002PRCP99
0188232560999992000032900004+67470+078730FM-12+000899999V0202101N011019999999N0200001N1-01191-01631099761ADDAY131061AY211061GF108991081001999999071999MA1999999099421MD1710121+9999MW1361OA140101401REMSYN088AAXX  29001 23256 41998 82111 11119 21163 39942 49976 57012 73631 8807/ 333 91014 91116;
0209232560999992000032903004+67470+078730FM-12+000899999V0202101N011019999999N0200001N1-01191-01541099661ADDAA199000091AJ100569199999999AY131031AY221031GF107991071001999999031001IA1249MD1710101+9999MW1361REMSYN082AAXX  29031 23256 31998 72111 11119 21154 49966 57010 73632 87030 333 48056 55111;EQDQ01  00002PRCP99
0197232560999992000032906004+67470+078730FM-12+000899999V0201901N009019999999N0020001N1-00931-01381099531ADDAA199000021AY131061AY221061GF108991051001999999031061KA1120N-01581MD1710131+9999MW1711OA140101201REMSYN088AAXX  29061 23256 31995 81909 11093 21138 49953 57013 77132 85036 333 21158 91012 91114;
0140232560999992000032909004+67470+078730FM-12+000899999V0202001N013019999999N0020001N1-00911-01161099441ADDAY171031AY231031GF108991081001999999071999MD1710091+9999MW1711REMSYN066AAXX  29091 23256 41995 82013 11091 21116 49944 57009 77173 8807/;
0227232560999992000032912004+67470+078730FM-12+000899999V0201901N009010042019N0040001N1-00831-01061099411ADDAY181061AY271061GA1051+004209099GF108991061031004501071999MA1999999099071MD1710031+9999MW1851OA140101201OA249901601REMSYN100AAXX  29121 23256 41496 81909 11083 21106 39907 49941 57003 78587 8637/ 333 85914 91012 91116 92990;
0185232560999992000032915004+67470+078730FM-12+000899999V0201901N00601001201CN0020001N1-00801-00981099281ADDAY181031AY231031GA1041+001809069GF108991081031001501999999KA1120M-00801MD1710131+9999MW1851REMSYN082AAXX  29151 23256 /1295 81906 11080 21098 49928 57013 78583 883// 333 11080 84706;
0242232560999992000032918004+67470+078730FM-12+000899999V0202301N00901004201CN0200001N1-01211-01561099241ADDAA100005191AY181061AY231061GA1041+005109099GF106991061031004501001001KA1120M-00801MD1710041+9999MW1851OA140101201OA249901301REMSYN106AAXX  29181 23256 11498 62309 11121 21156 49924 57004 60050 78583 86300 333 11080 84917 91012 91113 92990;
0166232560999992000032921004+67470+078730FM-12+000899999V0202301N009010018019N0040001N1-01581-01921099241ADDAY181031AY271031GA1051+001809069GF108991081051001501999999MD1710011+9999MW1711REMSYN076AAXX  29211 23256 41296 82309 11158 21192 49924 57001 77187 885// 333 85706;
0188232560999992000033000004+67470+078730FM-12+000899999V0202301N008019999999N0200001N1-02141-02391099471ADDAY181061AY271061GF108991021001999999031061MA1999999099111MD1210221+9999MW1361OA149901501REMSYN088AAXX  30001 23256 41998 82308 11214 21239 39911 49947 52022 73687 82036 333 91115 92990;
0180232560999992000033006004+67470+078730FM-12+000899999V0202301N007019999999N0200001N1-01801-02141099641ADDAA100001091AY131061AY221061GF108991001001999999001011KA1999N-02231MD1210071+9999MW1361REMSYN082AAXX  30061 23256 11998 82307 11180 21214 49964 52007 60010 73632 80001 333 21223;
0140232560999992000033009004+67470+078730FM-12+000899999V0202401N010019999999N0200001N1-01631-01971099681ADDAY171031AY231031GF108991001001999999001061MD1210051+9999MW1711REMSYN066AAXX  30091 23256 41998 82410 11163 21197 49968 52005 77173 80006;
0188232560999992000033012004+67470+078730FM-12+000899999V0202301N009019999999N0100001N1-01591-01931099781ADDAY171061AY231061GF108991001001999999001061MA1999999099431MD1210101+9999MW1711OA140101201REMSYN088AAXX  30121 23256 41997 82309 11159 21193 39943 49978 52010 77173 80006 333 91012 91113;
0163232560999992000033015004+67470+078730FM-12+000899999V0202401N008019999999N0200001N1-01681-02021099811ADDAY171031AY231031GF108991051001999999031061KA1999M-01581MD1210031+9999MW1711REMSYN076AAXX  30151 23256 /1998 82408 11168 21202 49981 52003 77173 85036 333 11158;
0140232560999992000033021004+67470+078730FM-12+000899999V0202201N008019999999N0200001N1-01791-02121099861ADDAY171031AY231031GF108991081001999999071999MD1210031+9999MW1361REMSYN066AAXX  30211 23256 41998 82208 11179 21212 49986 52003 73673 8807/;
0177232560999992000033100004+67470+078730FM-12+000899999V0202301N007012200019N0200001N1-02041-02441099891ADDAY171061AY231061GA1001+999999999GF100991001001999999001001MA1999999099531MD1210031+9999MW1361REMSYN072AAXX  31001 23256 41998 02307 11204 21244 39953 49989 52003 73673 8807/;
0179232560999992000033103004+67470+078730FM-12+000899999V0202301N006019999999N0200001N1-02191-02511099931ADDAJ100509199999999AY131031AY221031GF105991001001999999001011IA1249MD1210041+9999MW1021REMSYN082AAXX  31031 23256 /1998 52306 11219 21251 49993 52004 70232 80001 333 48050 55066;
0180232560999992000033106004+67470+078730FM-12+000899999V0202001N005019999999N0200001N1-01841-02251100011ADDAA100000591AY131061AY221061GF106991001001999999001011KA1999N-02211MD1210081+9999MW1021REMSYN082AAXX  31061 23256 11998 62005 11184 21225 40001 52008 69950 70232 80001 333 21221;
0106232560999992000033109004+67470+078730FM-12+000899999V0201501N003012200019N0200001N1-01621+99999100011ADDGF102991001001999999001011MD1210011+9999REMSYN054AAXX  31091 23256 42998 21503 11162 40001 52001 80001;
0133232560999992000033112004+67470+078730FM-12+000899999V0201601N003012200019N0200001N1-01491-02001100001ADDGF102991001001999999001011MA1999999099651MD1710011+9999REMSYN066AAXX  31121 23256 42998 21603 11149 21200 39965 40000 57001 80001;
0145232560999992000033115004+67470+078730FM-12+000899999V0201701N003012200019N0200001N1-01641-02241099911ADDAA199000091GF102991001001999999001011KA1999M-01431REMSYN064AAXX  31151 23256 32998 21703 11164 21224 49991 80001 333 11143;EQDQ01  00002PRCP99
0175232560999992000033118004+67470+078730FM-12+000899999V0201401N003012200019N0200001N1-01881-02291099791ADDAA199000091GA1001+999999999GF100991001001999999001001KA1999M-01431MD1710131+9999REMSYN064AAXX  31181 23256 32998 01403 11188 21229 49979 57013 333 11143;EQDQ01  00002PRCP99
0122232560999992000033121004+67470+078730FM-12+000899999V0201301N004012200019N0200001N1-01811-02141099581ADDGA1001+999999999GF100991001001999999001001MD1710211+9999REMSYN054AAXX  31211 23256 42998 01304 11181 21214 49958 57021;
0187232560999992000040100004+67470+078730FM-12+000899999V0201401N00401004201CN0100001N1-01531-01801099421ADDAY111061AY211061GA1041+003009099GF108991081031004501999999MA1999999099071MD1710151+9999MW1851REMSYN082AAXX  01001 23256 41497 81404 11153 21180 39907 49942 57015 78511 883// 333 84910;
0209232560999992000040103004+67470+078730FM-12+000899999V0201101N005010042019N0200001N1-01291-01561099331ADDAJ100519199999999AY181031AY271031GA1061+004209059GF108991061051004501071999GJ106309IA1249MD1710091+9999MW1711REMSYN088AAXX  01031 23256 /1498 81105 11129 21156 49933 57009 77187 8657/ 333 48051 55105 86614;
0166232560999992000040109004+67470+078730FM-12+000899999V0201901N00301002101CN0020001N1-00771-01031099381ADDAY181031AY221031GA1041+002409069GF108991081031002501999999MD1210091+9999MW1851REMSYN076AAXX  01091 23256 41395 81903 11077 21103 49938 52009 78582 883// 333 84708;
0227232560999992000040112004+67470+078730FM-12+000899999V0203201N009010036019N0020001N1-01161-01361099691ADDAY181061AY221061GA1051+003609099GF108991081031004501999999MA1999999099351MD1210311+9999MW1861OA140101201OA249901201REMSYN100AAXX  01121 23256 41495 83209 11116 21136 39935 49969 52031 78682 883// 333 85912 91012 91112 92993;
0182232560999992000040115004+67470+078730FM-12+000899999V0203001N009012200019N0040001N1-01901-02091100151ADDAY181031AY271031GF103991001001999999001011KA1999M-00771MD1210441+9999MW1381REMSYN076AAXX  01151 23256 /1996 33009 11190 21209 40015 52044 73887 83001 333 11077;EQDQ01+000032SCOTLC
0203232560999992000040118004+67470+078730FM-12+000899999V0202901N011012200019N0036001N1-02351-02601100511ADDAA100002091AY181061AY271061GF102991001001999999001011KA1120M-00771MD1210351+9999MW1381OA140101401REMSYN094AAXX  01181 23256 11936 22911 11235 21260 40051 52035 60020 73887 80001 333 11077 91014 91114;
0150232560999992000040121004+67470+078730FM-12+000899999V0202801N009012200019N0040001N1-02561-02811100771ADDAY131031AY201031GA1001+999999999GF100991001001999999001001MD1210261+9999MW1381REMSYN060AAXX  01211 23256 41996 02809 11256 21281 40077 52026 73830;
0181232560999992000040200004+67470+078730FM-12+000899999V0202501N006012200019N0200001N1-02681-02931101161ADDAY131061AY201061GA1001+999999999GF100991001001999999001001MA1999999100791MD1210391+9999MW1021REMSYN076AAXX  02001 23256 41998 02506 11268 21293 30079 40116 52039 70230 333 91112;
0179232560999992000040203004+67470+078730FM-12+000899999V0202101N005019999999N0100001N1-02371-02611101201ADDAJ100529199999999AY111031AY211031GF108991001001999999001061IA1249MD1210041+9999MW1711REMSYN082AAXX  02031 23256 /1997 82105 11237 21261 40120 52004 77111 80006 333 48052 55000;
0180232560999992000040206004+67470+078730FM-12+000899999V0202001N006019999999N0200001N1-01731-02071101161ADDAA100000191AY171061AY211061GF105991001001999999001011KA1999N-02681MD1710031+9999MW1361REMSYN082AAXX  02061 23256 11998 52006 11173 21207 40116 57003 69920 73671 80001 333 21268;
0140232560999992000040209004+67470+078730FM-12+000899999V0202101N007019999999N0200001N1-01151-01771101061ADDAY131031AY221031GF108991081001999999071999MD1710091+9999MW1361REMSYN066AAXX  02091 23256 41998 82107 11115 21177 40106 57009 73632 8807/;
0187232560999992000040212004+67470+078730FM-12+000899999V0202001N008010030019N0020001N1-00961-01221100751ADDAY171061AY231061GA1051+003009099GF108991071031004501071999MA1999999100401MD1710311+9999MW1851REMSYN082AAXX  02121 23256 41495 82008 11096 21122 30040 40075 57031 78573 8737/ 333 85910;
0163232560999992000040215004+67470+078730FM-12+000899999V0202001N009019999999N0040001N1-00951-01161100481ADDAY181031AY231031GF108991081001999999071999KA1999M-00891MD1710271+9999MW1711REMSYN076AAXX  02151 23256 /1996 82009 11095 21116 40048 57027 77183 8807/ 333 11089;
0203232560999992000040218004+67470+078730FM-12+000899999V0202301N009019999999N0040001N1-00991-01161100301ADDAA100001091AY181061AY271061GF108991081001999999071999KA1120M-00891MD1710181+9999MW1711OA140101201REMSYN094AAXX  02181 23256 11996 82309 11099 21116 40030 57018 60010 77187 8807/ 333 11089 91012 91112;
0140232560999992000040221004+67470+078730FM-12+000899999V0202001N005019999999N0200001N1-00981-01151100221ADDAY171031AY231031GF108991081001999999071999MD1710081+9999MW1711REMSYN066AAXX  02211 23256 41998 82005 11098 21115 40022 57008 77173 8807/;
0187232560999992000040300004+67470+078730FM-12+000899999V0201301N002010021019N0100001N1-01091-01221100071ADDAY171061AY231061GA1051+002109069GF108991081051002501999999MA1999999099721MD1710151+9999MW1711REMSYN082AAXX  03001 23256 42397 81302 11109 21122 39972 40007 57015 77173 885// 333 85707;
0209232560999992000040303004+67470+078730FM-12+000899999V0201101N005010030019N0020001N1-00791-00931099741ADDAJ100539199999999AY181031AY271031GA1051+003009099GF108991081031004501999999GJ103069IA1249MD1710321+9999MW1861REMSYN088AAXX  03031 23256 /1495 81105 11079 21093 49974 57032 78687 883// 333 48053 55051 85910;
0202232560999992000040306004+67470+078730FM-12+000899999V0201201N005010030019N0020001N1-00511-00651099331ADDAA100002091AY181061AY271061GA1051+003009099GF108991081031004501999999KA1120N-01101MD1710411+9999MW1861REMSYN088AAXX  03061 23256 11495 81205 11051 21065 49933 57041 60020 78687 883// 333 21110 85910;
0166232560999992000040309004+67470+078730FM-12+000899999V0201501N005010030019N0020001N1-00171-00251098891ADDAY181031AY221031GA1051+003009099GF108991081031004501999999MD1710431+9999MW1861REMSYN076AAXX  03091 23256 41495 81505 11017 21025 49889 57043 78682 883// 333 85910;
0187232560999992000040312004+67470+078730FM-12+000899999V0201701N007010021019N0020001N1+00031-00031098551ADDAY181061AY221061GA1041+002109069GF108991081031002501999999MA1999999098221MD1710341+9999MW1861REMSYN082AAXX  03121 23256 41395 81707 10003 21003 39822 49855 57034 78682 883// 333 84707;
0173232560999992000040315004+67470+078730FM-12+000899999V0202601N017010001519N0001001N1-00951-00981098621ADDAY181031AY231031GA1091+999999999GF109991091999999999999999KA1999M+00051MD1210061+9999MW1391REMSYN070AAXX  03151 23256 /1/91 92617 11095 21098 49862 52006 73983 333 10005;
0230232560999992000040318004+67470+078730FM-12+000899999V0202401N013012200019N0040001N1-01651-01841098851ADDAA100007991AY181061AY231061GA1001+999999999GF100991001001999999001001KA1120M+00051MD1210221+9999MW1381OA140101601OA249902001REMSYN094AAXX  03181 23256 11996 02413 11165 21184 49885 52022 60080 73883 333 10005 91016 91120 92990;
0150232560999992000040321004+67470+078730FM-12+000899999V0202401N005012200019N0200001N1-02031-02281099151ADDAY131031AY231031GA1001+999999999GF100991001001999999001001MD1210291+9999MW1361REMSYN060AAXX  03211 23256 41998 02405 11203 21228 49915 52029 73633;
0215232560999992000040400004+67470+078730FM-12+000899999V0200101N012010003019N0002001N1-01621-01811099641ADDAY171061AY231061GA1091+999999999GF109991091999999999999999MA1999999099291MD1210501+9999MW1391OA140102501OA249901701REMSYN088AAXX  04001 23256 41/92 90112 11162 21181 39929 49964 52050 73973 333 91025 91117 92993;
0228232560999992000040403004+67470+078730FM-12+000899999V0203301N013012200019N0002001N1-02021-02281100602ADDAJ100589199999999AY131031AY231031GA1041+000909069GF106991041061001501001011GJ100009IA1249MD1210951+9999MW1391REMSYN088AAXX  04031 23256 /1292 63313 11202 21228 40060 52095 73933 84601 333 48058 55000 84703;EQDQ01+100603APOSLP
0220232560999992000040406004+67470+078730FM-12+000899999V0203201N010012200019N0010001N1-02021-02281101331ADDAA100007191AY131061AY231061GF105991021061001501001011KA1120N-02241MD1210721+9999MW1391OA140101301OA249901801REMSYN100AAXX  04061 23256 11294 53210 11202 21228 40133 52072 60070 73933 82601 333 21224 91013 91118 92995;
0140232560999992000040409004+67470+078730FM-12+000899999V0202901N010012200019N0200001N1-01751-02011101941ADDAY131031AY231031GF102991001001999999001011MD1210621+9999MW1361REMSYN066AAXX  04091 23256 41998 22910 11175 21201 40194 52062 73633 80001;
0205232560999992000040412004+67470+078730FM-12+000899999V0202601N009019999999N0200001N1-01831-02161102241ADDAY131061AY231061GF106991001001999999001011MA1999999101871MD1210291+9999MW1021OA140101201OA249901301REMSYN094AAXX  04121 23256 41998 62609 11183 21216 30187 40224 52029 70233 80001 333 91012 91113 92990;
0163232560999992000040415004+67470+078730FM-12+000899999V0202301N004019999999N0200001N1-01921-02251102261ADDAY171031AY221031GF108991001001999999001061KA1999M-01751MD1210021+9999MW1711REMSYN076AAXX  04151 23256 /1998 82304 11192 21225 40226 52002 77172 80006 333 11175;
0180232560999992000040418004+67470+078730FM-12+000899999V0202901N004019999999N0200001N1-02221-02471102491ADDAA100000591AY171061AY221061GF105991051001999999031001KA1999M-01751MD1210231+9999MW1021REMSYN082AAXX  04181 23256 11998 52904 11222 21247 40249 52023 69940 70272 85030 333 11175;
0112232560999992000040421004+67470+078730FM-12+000899999V0202701N004012200019N0200001N1-02611-02851102881ADDGF103991031001999999031001MD1210381+9999REMSYN060AAXX  04211 23256 42998 32704 11261 21285 40288 52038 83030;
0153232560999992000040500004+67470+078730FM-12+000899999V0202601N003012200019N0200001N1-02701-03011103091ADDGA1001+999999999GF100991001001999999001001MA1999999102711MD1210211+9999REMSYN070AAXX  05001 23256 42998 02603 11270 21301 30271 40309 52021 333 93503;
0151232560999992000040503004+67470+078730FM-12+000899999V0202201N004012200019N0200001N1-02541-02851103271ADDAJ100599199999999GF102991001001999999001011IA1249MD1210181+9999REMSYN076AAXX  05031 23256 /2998 22204 11254 21285 40327 52018 80001 333 48059 55093;
0158232560999992000040506004+67470+078730FM-12+000899999V0201301N001012200019N0200001N1-02021-02351103311ADDAA100000791GF102991001001999999001011KA1120N-02741MD1210051+9999REMSYN082AAXX  05061 23256 12998 21301 11202 21235 40331 52005 69900 80001 333 21274 93500;
0112232560999992000040509004+67470+078730FM-12+000899999V0201401N003012200019N0200001N1-01791-02051103321ADDGF101991001001999999001011MD1210011+9999REMSYN060AAXX  05091 23256 42998 11403 11179 21205 40332 52001 80001;
0175232560999992000040515004+67470+078730FM-12+000899999V0201301N002012200019N0200001N1-01991-02321103301ADDAA199000091GA1001+999999999GF100991001001999999001001KA1999M-01701MD1410001+9999REMSYN064AAXX  05151 23256 32998 01302 11199 21232 40330 54000 333 11170;EQDQ01  00002PRCP99
0175232560999992000040518004+67470+078730FM-12+000899999V0201301N002012200019N0200001N1-02381-02701103331ADDAA199000091GA1001+999999999GF100991001001999999001001KA1999M-01701MD1210021+9999REMSYN064AAXX  05181 23256 32998 01302 11238 21270 40333 52002 333 11170;EQDQ01  00002PRCP99
0122232560999992000040521004+67470+078730FM-12+000899999V0201601N003012200019N0200001N1-02251-02571103271ADDGA1001+999999999GF100991001001999999001001MD1710051+9999REMSYN054AAXX  05211 23256 42998 01603 11225 21257 40327 57005;
0133232560999992000040600004+67470+078730FM-12+000899999V0201401N002012200019N0200001N1-02511-02821103391ADDGF102991021001999999031001MA1999999103011MD1210111+9999REMSYN066AAXX  06001 23256 42998 21402 11251 21282 30301 40339 52011 82030;
0191232560999992000040603004+67470+078730FM-12+000899999V0201701N001012200019N0200001N1-01801-02141103421ADDAA199000091AJ100599199999999GA1001+999999999GF100991001001999999001001IA1249MD1210041+9999REMSYN070AAXX  06031 23256 32998 01701 11180 21214 40342 52004 333 48059 55134;EQDQ01  00002PRCP99
0175232560999992000040606004+67470+078730FM-12+000899999V0202201N002012200019N0200001N1-01731-02071103461ADDAA199000091GA1001+999999999GF100991001001999999001001KA1999N-02511MD1210041+9999REMSYN064AAXX  06061 23256 32998 02202 11173 21207 40346 52004 333 21251;EQDQ01  00002PRCP99
0122232560999992000040609004+67470+078730FM-12+000899999V0202201N002012200019N0200001N1-01471-01901103481ADDGA1001+999999999GF100991001001999999001001MD1210021+9999REMSYN054AAXX  06091 23256 42998 02202 11147 21190 40348 52002;
0133232560999992000040612004+67470+078730FM-12+000899999V0202001N003012200019N0200001N1-01561-02071103441ADDGF103991001001999999001011MA1999999103071MD1710041+9999REMSYN066AAXX  06121 23256 42998 32003 11156 21207 30307 40344 57004 80001;
0165232560999992000040615004+67470+078730FM-12+000899999V0201701N003019999999N0200001N1-01671-02171103291ADDAA199000091GF108991001001999999001061KA1999M-01471MD1710151+9999REMSYN070AAXX  06151 23256 32998 81703 11167 21217 40329 57015 80006 333 11147;EQDQ01  00002PRCP99
0165232560999992000040618004+67470+078730FM-12+000899999V0201701N004019999999N0200001N1-01651-02151103101ADDAA199000091GF108991001001999999001061KA1999M-01471MD1710191+9999REMSYN070AAXX  06181 23256 32998 81704 11165 21215 40310 57019 80006 333 11147;EQDQ01  00002PRCP99
0140232560999992000040621004+67470+078730FM-12+000899999V0201701N006019999999N0040001N1-01461-01891102781ADDAY171031AY221031GF108991081001999999071999MD1710311+9999MW1711REMSYN066AAXX  06211 23256 41996 81706 11146 21189 40278 57031 77172 8807/;
0161232560999992000040700004+67470+078730FM-12+000899999V0201601N008019999999N0200001N1-01351-01961102391ADDAY171061AY231061GF108991081001999999071999MA1999999102031MD1710391+9999MW1021REMSYN072AAXX  07001 23256 41998 81608 11135 21196 30203 40239 57039 70273 8807/;
0179232560999992000040703004+67470+078730FM-12+000899999V0201801N010019999999N0200001N1-01361-01971101961ADDAJ100589199999999AY131031AY221031GF108991081001999999071999IA1249MD1710431+9999MW1021REMSYN082AAXX  07031 23256 /1998 81810 11136 21197 40196 57043 70232 8807/ 333 48058 55095;
0203232560999992000040706004+67470+078730FM-12+000899999V0201701N009019999999N0200001N1-01171-01791101551ADDAA100000191AY131061AY221061GF108991041001999999031061KA1120N-01791MD1710401+9999MW1021OA140101201REMSYN094AAXX  07061 23256 11998 81709 11117 21179 40155 57040 69910 70232 84036 333 21179 91012 91113;
0161232560999992000040712004+67470+078730FM-12+000899999V0201701N007019999999N0200001N1-00821-01241100821ADDAY121061AY221061GF108991081001999999071999MA1999999100471MD1710391+9999MW1711REMSYN072AAXX  07121 23256 41998 81707 11082 21124 30047 40082 57039 77122 8807/;
0185232560999992000040715004+67470+078730FM-12+000899999V0201801N009010030019N0010001N1-00651-00731100441ADDAY181031AY271031GA1051+003009099GF108991081031004501999999KA1120M-00611MD1710371+9999MW1861REMSYN082AAXX  07151 23256 /1494 81809 11065 21073 40044 57037 78687 883// 333 11061 85910;
0261232560999992000040718004+67470+078730FM-12+000899999V0202201N01001001201CN0010001N1-00301-00341100021ADDAA100000891AY181061AY271061GA1041+001809079GF108991081031001501999999KA1120M+99999MD1710421+9999MW1861OA140101301OA249901301REMSYN106AAXX  07181 23256 11294 82210 11030 21034 40002 57042 69970 78687 883// 333 11061 84706 91013 91113 92992;EQDQ01 -00612ATMX  
0166232560999992000040721004+67470+078730FM-12+000899999V0202601N012010033019N0010001N1-00041-00041099751ADDAY181031AY231031GA1051+003309099GF108991081031004501999999MD1710261+9999MW1391REMSYN076AAXX  07211 23256 41494 82612 11004 21004 49975 57026 73983 883// 333 85911;
0205232560999992000040800004+67470+078730FM-12+000899999V0202601N016019999999N0020001N1-00411-00411099951ADDAY181061AY231061GF106991061001999999031001MA1999999099611MD1210191+9999MW1391OA140101901OA249901901REMSYN094AAXX  08001 23256 41995 62616 11041 21041 39961 49995 52019 73983 86030 333 91019 91119 92995;
0179232560999992000040803004+67470+078730FM-12+000899999V0202601N016010042019N0020001N1-00301-00371100121ADDAJ100579199999999AY131031AY221031GF108991071031004501071999IA1249MD1210171+9999MW1391REMSYN082AAXX  08031 23256 /1495 82616 11030 21037 40012 52017 73932 8737/ 333 48057 55013;
0239232560999992000040806004+67470+078730FM-12+000899999V0202701N013012200019N0020001N1-00761-00941100471ADDAA100011991AY181061AY231061GF102991021051008001001001KA1120N+99999MD1210351+9999MW1391OA140101601OA249902401REMSYN100AAXX  08061 23256 11595 22713 11076 21094 40047 52035 60120 73983 82500 333 21065 91016 91124 92995;EQDQ01 -00652ATMN  
0166232560999992000040809004+67470+078730FM-12+000899999V0202701N01301004201CN0100001N1-00851-01081100781ADDAY131031AY211031GA1041+003609099GF105991051031004501001001MD1210301+9999MW1361REMSYN076AAXX  08091 23256 41497 52713 11085 21108 40078 52030 73631 85300 333 84912;
0205232560999992000040812004+67470+078730FM-12+000899999V0202601N009012200019N0200001N1-00891-01131100981ADDAY131061AY231061GF106991031031004501001011MA1999999100631MD1210201+9999MW1021OA140101201OA249901701REMSYN094AAXX  08121 23256 41498 62609 11089 21113 30063 40098 52020 70233 83301 333 91012 91117 92990;
0185232560999992000040815004+67470+078730FM-12+000899999V0202801N00901004201CN0200001N1-01151-01351101111ADDAY181031AY221031GA1041+003009099GF106991061031004501001001KA1120M-00301MD1210131+9999MW1261REMSYN082AAXX  08151 23256 /1498 62809 11115 21135 40111 52013 72682 86300 333 11030 84910;
0225232560999992000040818004+67470+078730FM-12+000899999V0203001N010010057019N0200001N1-01231-01431101161ADDAA100006191AY181061AY221061GA1051+005709099GF108991081031004501999999KA1120M-00301MD1210051+9999MW1851OA140101301REMSYN100AAXX  08181 23256 11498 83010 11123 21143 40116 52005 60060 78582 883// 333 11030 85919 91013 91114;
0166232560999992000040821004+67470+078730FM-12+000899999V0202801N011010054019N0200001N1-01301-01501101181ADDAY181031AY221031GA1051+005409099GF108991081031004501999999MD1210011+9999MW1851REMSYN076AAXX  08211 23256 41498 82811 11130 21150 40118 52001 78582 883// 333 85918;
0188232560999992000040900004+67470+078730FM-12+000899999V0202801N009012200019N0200001N1-01561-01751101221ADDAY181061AY231061GF102991021051004501001001MA1999999100861MD1210041+9999MW1021OA140101201REMSYN088AAXX  09001 23256 41498 22809 11156 21175 30086 40122 52004 70283 82500 333 91012 91116;
0189232560999992000040903004+67470+078730FM-12+000899999V0202801N008012200019N0100001N1-01721-01911101321ADDAJ100579199999999AY101031AY201031GA1001+999999999GF100991001001999999001001IA1249MD1210101+9999MW1361REMSYN076AAXX  09031 23256 /1997 02808 11172 21191 40132 52010 73600 333 48057 55087;
0213232560999992000040906004+67470+078730FM-12+000899999V0202901N011012200019N0100001N1-01681-01871101381ADDAA100008991AY131061AY201061GA1001+999999999GF100991001001999999001001KA1120N-01821MD1210061+9999MW1361OA140101401REMSYN088AAXX  09061 23256 11997 02911 11168 21187 40138 52006 60090 73630 333 21182 91014 91114;
0150232560999992000040909004+67470+078730FM-12+000899999V0202901N010012200019N0200001N1-01541-01811101501ADDAY131031AY201031GA1001+999999999GF100991001001999999001001MD1210121+9999MW1361REMSYN060AAXX  09091 23256 41998 02910 11154 21181 40150 52012 73630;
0188232560999992000040912004+67470+078730FM-12+000899999V0202701N009012200019N0200001N1-01491-01761101491ADDAY131061AY201061GF102991021001999999031001MA1999999101131MD1710011+9999MW1021OA140101201REMSYN088AAXX  09121 23256 41998 22709 11149 21176 30113 40149 57001 70230 82030 333 91012 91113;
0185232560999992000040915004+67470+078730FM-12+000899999V0202201N005010018019N0040001N1-01191-01391101151ADDAY181031AY271031GA1051+001809069GF108991081031001501999999KA1120M-01191MD1710331+9999MW1851REMSYN082AAXX  09151 23256 /1296 82205 11119 21139 40115 57033 78587 883// 333 11119 85706;
0261232560999992000040918004+67470+078730FM-12+000899999V0202601N012010030019N0010001N1-00641-00801100751ADDAA100000391AY181061AY271061GA1051+003009099GF108991081031004501999999KA1120M+99999MD1710391+9999MW1861OA140101501OA249901501REMSYN106AAXX  09181 23256 11494 82612 11064 21080 40075 57039 69930 78687 883// 333 11119 85910 91015 91115 92993;EQDQ01 -01192ATMX  
0166232560999992000040921004+67470+078730FM-12+000899999V0202601N013010030019N0010001N1-00491-00621100391ADDAY181031AY231031GA1061+003009099GF108991081031004501999999MD1710361+9999MW1861REMSYN076AAXX  09211 23256 41494 82613 11049 21062 40039 57036 78683 883// 333 86910;
0210232560999992000041000004+67470+078730FM-12+000899999V0202601N012010012019N0020001N1-00391-00441100221ADDAY181061AY271061GA1041+001209079GF108991051051001501071999MA1999999099881MD1710171+9999MW1731OA140101501REMSYN094AAXX  10001 23256 41295 82612 11039 21044 39988 40022 57017 77387 8557/ 333 84704 91015 91169;
0209232560999992000041003004+67470+078730FM-12+000899999V0202701N014010015019N0020001N1-00291-00331100131ADDAJ100569199999999AY171031AY231031GA1051+001509069GF108991061051001501071999GJ107089IA1249MD1710091+9999MW1711REMSYN088AAXX  10031 23256 /1295 82714 11029 21033 40013 57009 77173 8657/ 333 48056 55118 85705;
0242232560999992000041006004+67470+078730FM-12+000899999V0202701N013010015019N0010001N1-00201-00231100161ADDAA100009991AY171061AY231061GA1061+001509079GF108991081031001501999999KA1120N-01191MD1210031+9999MW1861OA140101601OA249901701REMSYN106AAXX  10061 23256 11294 82713 11020 21023 40016 52003 60100 78673 883// 333 21119 86705 91016 91117 92992;
0166232560999992000041009004+67470+078730FM-12+000899999V0202801N011010018019N0200001N1-00171-00171100271ADDAY181031AY271031GA1051+001809069GF108991081051001501999999MD1210111+9999MW1711REMSYN076AAXX  10091 23256 41298 82811 11017 21017 40027 52011 77187 885// 333 85706;
0246232560999992000041012004+67470+078730FM-12+000899999V0202801N012010015019N0020001N1-00161-00161100311ADDAY181061AY271061GA1051+001509079GF108991999071001501021999MA1999999099971MD1210041+9999MW1731OA140101501OA249901501REMSYN100AAXX  10121 23256 41295 82812 11016 21016 39997 40031 52004 77387 8872/ 333 85705 91015 91115 92992;EQDQ01+000082SCOTLC
0163232560999992000041015004+67470+078730FM-12+000899999V0202501N011019999999N0200001N1-00211-00271100291ADDAY171031AY231031GF108991081001999999071999KA1999M-00121MD1710021+9999MW1361REMSYN076AAXX  10151 23256 /1998 82511 11021 21027 40029 57002 73673 8807/ 333 11012;
0242232560999992000041018004+67470+078730FM-12+000899999V0202401N010010108019N0200001N1-00401-00591100141ADDAA100007991AY171061AY231061GA1051+010809069GF108991051051012501071999KA1120M-00121MD1710151+9999MW1361OA140101301OA249901401REMSYN106AAXX  10181 23256 11698 82410 11040 21059 40014 57015 60080 73673 8557/ 333 11012 85636 91013 91114 92995;
0166232560999992000041021004+67470+078730FM-12+000899999V0202501N009010084019N0200001N1-00341-00511100071ADDAY131031AY221031GA1061+008409059GF106991061051008001001001MD1710071+9999MW1021REMSYN076AAXX  10211 23256 41598 62509 11034 21051 40007 57007 70232 86500 333 86628;
0227232560999992000041100004+67470+078730FM-12+000899999V0202601N013010030019N0020001N1-00071-00071100061ADDAY181061AY231061GA1061+003009099GF108991081031004501999999MA1999999099721MD1710011+9999MW1391OA140101601OA249901801REMSYN100AAXX  11001 23256 41495 82613 11007 21007 39972 40006 57001 73983 883// 333 86910 91016 91118 92995;
0209232560999992000041103004+67470+078730FM-12+000899999V0202901N009010039019N0200001N1-00111-00121100311ADDAJ100569199999999AY131031AY231031GA1051+003909099GF108991081031004501999999GJ100009IA1249MD1210251+9999MW1361REMSYN088AAXX  11031 23256 /1498 82909 11011 21012 40031 52025 73633 883// 333 48056 55000 85913;
0203232560999992000041106004+67470+078730FM-12+000899999V0202501N008010300019N0200001N1-00071-00261100491ADDAA100002091AY131061AY231061GF107991031031004501031001KA1120N-00411MD1210181+9999MW1361OA149901401REMSYN094AAXX  11061 23256 11498 72508 11007 21026 40049 52018 60020 73633 83330 333 21041 91114 92990;
0166232560999992000041109004+67470+078730FM-12+000899999V0202301N005010030019N0010001N1-00021-00021100581ADDAY181031AY231031GA1051+003009099GF108991061031004501071999MD1210091+9999MW1861REMSYN076AAXX  11091 23256 41494 82305 11002 21002 40058 52009 78683 8637/ 333 85910;
0161232560999992000041112004+67470+078730FM-12+000899999V0202301N004012200019N0200001N1-00081-00121100611ADDAY181061AY231061GF103991021051012501031001MA1999999100271MD1710031+9999MW1021REMSYN072AAXX  11121 23256 41698 32304 11008 21012 30027 40061 57003 70283 82530;
0135232560999992000041115004+67470+078730FM-12+000899999V0202401N006012200019N0200001N1-00391-00471100701ADDGF103991021051008001031001KA1999M+00061MD1210091+9999REMSYN070AAXX  11151 23256 /2598 32406 11039 21047 40070 52009 82530 333 10006;
0152232560999992000041118004+67470+078730FM-12+000899999V0202601N005012200019N0200001N1-00481-00581100731ADDAA100001091GF103991001001999999001011KA1999M+00061MD1210031+9999REMSYN076AAXX  11181 23256 12998 32605 11048 21058 40073 52003 60010 80001 333 10006;
0166232560999992000041121004+67470+078730FM-12+000899999V0202901N005010033019N0040001N1-00241-00331100811ADDAY181031AY211031GA1051+003309099GF108991081031004501999999MD1210081+9999MW1851REMSYN076AAXX  11211 23256 41496 82905 11024 21033 40081 52008 78581 883// 333 85911;
0161232560999992000041200004+67470+078730FM-12+000899999V0202601N006012200019N0200001N1-00501-00601100901ADDAY181061AY211061GF102991001001999999001011MA1999999100561MD1210091+9999MW1021REMSYN072AAXX  12001 23256 41998 22606 11050 21060 30056 40090 52009 70281 80001;
0228232560999992000041203004+67470+078730FM-12+000899999V0202701N00801001201CN0200001N1-00711-00841101121ADDAJ100569199999999AY181031AY231031GA1041+001509069GF108991999031001501071999GJ101869IA1249MD1210221+9999MW1261REMSYN088AAXX  12031 23256 /1298 82708 11071 21084 40112 52022 72683 8837/ 333 48056 55031 84705;EQDQ01+000082SCOTLC
0186232560999992000041206004+67470+078730FM-12+000899999V0202501N008012200019N0200001N1-00531-00741101201ADDAA100001091AY181061AY271061GF103991001001999999001011KA1120N-00711MD1210081+9999MW1021REMSYN088AAXX  12061 23256 11998 32508 11053 21074 40120 52008 60010 70287 80001 333 21071 92990;
0112232560999992000041209004+67470+078730FM-12+000899999V0202501N005019999999N0200001N1-00221-00501101271ADDGF106991051001999999031011MD1210071+9999REMSYN060AAXX  12091 23256 42998 62505 11022 21050 40127 52007 85031;
0109232560999992000041212004+67470+078730FM-12+000899999V0202301N007012200019N0200001N1+99999+99999999999ADDGF103991999999999999999999REMSYN071AAXX  12121 23256 42998 32307 1119 21034 30096 40130 52003 82003 82031;
0154232560999992000041215004+67470+078730FM-12+000899999V0202501N005019999999N0200001N1-00631-00751101241ADDGF105991021001999999031011KA1999M+99999MD1710061+9999REMSYN070AAXX  12151 23256 /2998 52505 11063 21075 40124 57006 82031 333 11075;EQDQ01 -00752ATMX  
0152232560999992000041218004+67470+078730FM-12+000899999V0202501N004012200019N0200001N1-00811-00871101271ADDAA100000791GF102991021001999999031001KA1999M-00111MD1210021+9999REMSYN076AAXX  12181 23256 12998 22504 11081 21087 40127 52002 69900 82030 333 11011;
0112232560999992000041221004+67470+078730FM-12+000899999V0202701N005012200019N0200001N1-00961-01081101301ADDGF103991031001999999031001MD1210031+9999REMSYN060AAXX  12211 23256 42998 32705 11096 21108 40130 52003 83030;
0165232560999992000041300004+67470+078730FM-12+000899999V0202701N005010045019N0200001N1-01231-01361101381ADDGA1051+004509069GF105991051051004501001001MA1999999101031MD1210081+9999REMSYN082AAXX  13001 23256 42498 52705 11123 21136 30103 40138 52008 85500 333 85615 93505;
0211232560999992000041303004+67470+078730FM-12+000899999V0203001N005010054019N0200001N1-00971-01091101491ADDAA199000091AJ100569199999999GA1071+005409059GF107991999999004501999999GJ103849IA1249MD1210111+9999REMSYN082AAXX  13031 23256 32498 73005 11097 21109 40149 52011 97500 333 48056 55064 87618;EQDQ01  00002PRCP99
0193232560999992000041306004+67470+078730FM-12+000899999V0202801N003010045019N0200001N1-00611-00721101631ADDAA199000091GA1051+004509099GF108991081031004501999999KA1120N-01301MD1210151+9999REMSYN082AAXX  13061 23256 32498 82803 11061 21072 40163 52015 883// 333 21130 85915 93500;EQDQ01  00002PRCP99
0138232560999992000041309004+67470+078730FM-12+000899999V0203201N00301004201CN0200001N1-00451-00801101741ADDGA1041+003609099GF108991081031004501999999MD1210111+9999REMSYN070AAXX  13091 23256 42498 83203 11045 21080 40174 52011 883// 333 84912;
0159232560999992000041312004+67470+078730FM-12+000899999V0209999C000010036019N0200001N1-00461-00811101791ADDGA1051+003609099GF108991081031004501999999MA1999999101451MD1210051+9999REMSYN076AAXX  13121 23256 42498 80000 11046 21081 30145 40179 52005 883// 333 85912;
0187232560999992000041315004+67470+078730FM-12+000899999V0201301N001010036019N0200001N1-00601-00911101811ADDAA199000091GA1081+003609059GF108991081051004501999999KA1120M-00451MD1210021+9999REMSYN076AAXX  13151 23256 32498 81301 11060 21091 40181 52002 885// 333 11045 88612;EQDQ01  00002PRCP99
0187232560999992000041318004+67470+078730FM-12+000899999V0201801N002010033019N0200001N1-00681-00971101831ADDAA199000091GA1051+003309099GF108991081031004501999999KA1120M-00451MD1210021+9999REMSYN076AAXX  13181 23256 32498 81802 11068 21097 40183 52002 883// 333 11045 85911;EQDQ01  00002PRCP99
0131232560999992000041321004+67470+078730FM-12+000899999V0201401N003019999999N0200001N1-00941-01241999999ADDGF105991051001004501999999MD1210101+9999REMSYN060AAXX  13211 23256 42498 51403 11094 21124 40855 5201/ 850//;EQDQ01+108553APOSLP
0171232560999992000041400004+67470+078730FM-12+000899999V0201501N002012200019N0020001N1-01241-01511101491ADDAY111061AY211061GF103991031061002501001001MA1999999101491MD1710011+9999MW1101REMSYN082AAXX  14001 23256 41395 31502 11124 21151 30149 40149 57001 71011 83600 333 93503;
0209232560999992000041403004+67470+078730FM-12+000899999V0201401N005019999999N0200001N1-01151-01211101801ADDAA199000091AJ100569199999999AY141031AY211031GF108991001001999999001021IA1249MD1710041+9999MW1021REMSYN082AAXX  14031 23256 31998 81405 11115 21121 40180 57004 70241 80002 333 48056 55024;EQDQ01  00002PRCP99
0199232560999992000041406004+67470+078730FM-12+000899999V0201501N005019999999N0200001N1-00771-01031101731ADDAA199000091AY141061AY211061GF108991001001999999001011KA1120N-01301MD1710061+9999MW1021REMSYN082AAXX  14061 23256 31998 81505 11077 21103 40173 57006 70241 80001 333 21130 93500;EQDQ01  00002PRCP99
0112232560999992000041409004+67470+078730FM-12+000899999V0201501N005019999999N0200001N1-00441-00831101621ADDGF105991001001999999001011MD1710111+9999REMSYN060AAXX  14091 23256 42998 51505 11044 21083 40162 57011 80001;
0165232560999992000041415004+67470+078730FM-12+000899999V0201701N005012200019N0200001N1-00541-00921101281ADDAA199000091GF102991001001999999001011KA1999M-00441MD1710151+9999REMSYN070AAXX  14151 23256 32998 21705 11054 21092 40128 57015 80001 333 11044;EQDQ01  00002PRCP99
0175232560999992000041418004+67470+078730FM-12+000899999V0201801N005012200019N0200001N1-00581-00921101371ADDAA199000091GA1001+999999999GF100991001001999999001001KA1999M-00441MD1710011+9999REMSYN064AAXX  14181 23256 32998 01805 11058 21092 40137 57001 333 11044;EQDQ01  00002PRCP99
0112232560999992000041421004+67470+078730FM-12+000899999V0202101N006012200019N0200001N1-00651-00851101351ADDGF102991021001999999031001MD1710021+9999REMSYN060AAXX  14211 23256 42998 22106 11065 21085 40135 57002 82030;
0187232560999992000041500004+67470+078730FM-12+000899999V0202201N004010012019N0040001N1-00901-00931101411ADDAY111061AY211061GA1081+001209069GF108991081061001501999999MA1999999101061MD1210051+9999MW1101REMSYN082AAXX  15001 23256 41296 82204 11090 21093 30106 40141 52005 71011 886// 333 88704;
0239232560999992000041503004+67470+078730FM-12+000899999V0202501N002010009019N0010001N1-00601+99999101521ADDAA199000091AJ100569199999999AY141031AY221031GA1081+000909069GF108991081061001501999999GJ106789IA1249MD1010121+9999MW1101REMSYN088AAXX  15031 23256 31294 82502 11060 21058 40152 50012 71042 886// 333 48056 55113 88703;EQDQ01  00002PRCP99
0196232560999992000041506004+67470+078730FM-12+000899999V0201201N001010009019N0100001N1-00171-00221101591ADDAA199000021AY171061AY241061GA1061+000909069GF106991061061001501001001KA1120N-01041MD1210071+9999MW1221REMSYN082AAXX  15061 23256 31297 61201 11017 21022 40159 52007 72274 86600 333 21104 86703;
0138232560999992000041509004+67470+078730FM-12+000899999V0201201N001010009019N0100001N1-00161-00361101601ADDGA1081+000909069GF108991081061001501999999MD1210011+9999REMSYN070AAXX  15091 23256 42297 81201 11016 21036 40160 52001 886// 333 88703;
0159232560999992000041512004+67470+078730FM-12+000899999V0201301N002010072019N0200001N1-00161-00331101621ADDGA1071+007209059GF107991071051008001001001MA1999999101231MD1210021+9999REMSYN076AAXX  15121 23256 42598 71302 11016 21033 30123 40162 52002 87500 333 87624;
0135232560999992000041515004+67470+078730FM-12+000899999V0201501N003012200019N0200001N1-00391-00511101601ADDGF103991001001999999001011KA1999M-00041MD1710021+9999REMSYN070AAXX  15151 23256 /2998 31503 11039 21051 40160 57002 80001 333 11004;
0150232560999992000041518004+67470+078730FM-12+000899999V0201601N005012200019N0200001N1-00381-00501101531ADDGA1001+999999999GF100991001001999999001001IA1099IA2999+00409MD1710071+9999REMSYN064AAXX  15181 23256 12998 01605 11038 21050 40153 57007 333 31004;
0122232560999992000041521004+67470+078730FM-12+000899999V0201601N004012200019N0200001N1-00641-00761101401ADDGA1001+999999999GF100991001001999999001001MD1710071+9999REMSYN054AAXX  15211 23256 42998 01604 11064 21076 40140 57007;
0143232560999992000041600004+67470+078730FM-12+000899999V0201501N004012200019N0200001N1-00701-00831101321ADDGA1001+999999999GF100991001001999999001001MA1999999100981MD1710141+9999REMSYN060AAXX  16001 23256 41998 01504 11070 21083 30098 40132 57014;
0181232560999992000041603004+67470+078730FM-12+000899999V0201501N005012200019N0200001N1-00391-00761101121ADDAA199000091AJ100559199999999GF103991021001999999031011IA1249MD1710201+9999REMSYN076AAXX  16031 23256 32998 31505 11039 21076 40112 57020 82031 333 48055 55024;EQDQ01  00002PRCP99
0142232560999992000041606004+67470+078730FM-12+000899999V0201501N005019999999N0200001N1+00091-00511100961ADDAA199000091GF106991031001999999031011MD1710161+9999REMSYN060AAXX  16061 23256 32998 61505 10009 21051 40096 57016 83031;EQDQ01  00002PRCP99
0112232560999992000041609004+67470+078730FM-12+000899999V0201401N006019999999N0200001N1+00201-00561100631ADDGF108991051001999999031011MD1710331+9999REMSYN060AAXX  16091 23256 42998 81406 10020 21056 40063 57033 85031;
0187232560999992000041612004+67470+078730FM-12+000899999V0201801N007010042019N0100001N1+00111-00091100531ADDAY121061AY221061GA1051+004209099GF108991061031004501071999MA1999999100191MD1710101+9999MW1851REMSYN082AAXX  16121 23256 41497 81807 10011 21009 30019 40053 57010 78522 8637/ 333 85914;
0185232560999992000041615004+67470+078730FM-12+000899999V0201801N005010057019N0200001N1+00131-00071100411ADDAY181031AY221031GA1071+005709059GF107991071051004501001001KA1120M+00201MD1710121+9999MW1021REMSYN082AAXX  16151 23256 /1498 71805 10013 21007 40041 57012 70282 87500 333 10020 87619;
0202232560999992000041618004+67470+078730FM-12+000899999V0201901N005010060019N0200001N1+00161-00031100271ADDAA100000191AY181061AY221061GA1071+006009059GF107991071051008001001001KA1120M+00201MD1710141+9999MW1021REMSYN088AAXX  16181 23256 11598 71905 10016 21003 40027 57014 69910 70282 87500 333 10020 87620;
0138232560999992000041621004+67470+078730FM-12+000899999V0202301N007010087019N0200001N1+00121+00041100191ADDGA1071+008709059GF107991071051008001001001MD1710081+9999REMSYN070AAXX  16211 23256 42598 72307 10012 20004 40019 57008 87500 333 87629;
0159232560999992000041700004+67470+078730FM-12+000899999V0202401N003010048019N0200001N1+00051+00021100141ADDGA1071+004809059GF107991071051004501001001MA1999999099801MD1710051+9999REMSYN076AAXX  17001 23256 42498 72403 10005 20002 39980 40014 57005 87500 333 87616;
0211232560999992000041703004+67470+078730FM-12+000899999V0202301N002010063019N0200001N1+00101+00101100081ADDAA199000091AJ100529199999999GA1071+006309059GF108991071051008001071999GJ104809IA1289MD1710061+9999REMSYN082AAXX  17031 23256 32598 82302 10010 20010 40008 57006 8757/ 333 44052 55080 87621;EQDQ01  00002PRCP99
0215232560999992000041706004+67470+078730FM-12+000899999V0203201N00501001201CN0020001N1-00061-00101100031ADDAA199000021AY181061AY221061GA1041+001509069GF108991061031001501071999KA1120N+99999MD1710051+9999MW1851REMSYN082AAXX  17061 23256 31295 83205 11006 21010 40003 57005 78582 8637/ 333 20005 84705;EQDQ01 +00052ATMN  
0166232560999992000041709004+67470+078730FM-12+000899999V0203201N00801002101CN0200001N1-00541-00641100171ADDAY181031AY221031GA1041+002709069GF108991061031002501071999MD1210141+9999MW1261REMSYN076AAXX  17091 23256 41398 83208 11054 21064 40017 52014 72682 8637/ 333 84709;
0163232560999992000041715004+67470+078730FM-12+000899999V0203101N013019999999N0020001N1-01211-01411100801ADDAY171031AY231031GF108991001001999999001011KA1999M+00141MD1210341+9999MW1391REMSYN076AAXX  17151 23256 /1995 83113 11121 21141 40080 52034 73973 80001 333 10014;
0203232560999992000041718004+67470+078730FM-12+000899999V0203301N012019999999N0020001N1-01571-01701101301ADDAA100000891AY171061AY231061GF108991001001999999001061KA1120M+00141MD1210491+9999MW1391OA140101501REMSYN094AAXX  17181 23256 11995 83312 11157 21170 40130 52049 69980 73973 80006 333 10014 91015 91118;
0140232560999992000041721004+67470+078730FM-12+000899999V0203201N011019999999N0040001N1-01731-01851101651ADDAY131031AY221031GF105991001001999999001011MD1210351+9999MW1381REMSYN066AAXX  17211 23256 41996 53211 11173 21185 40165 52035 73832 80001;
0198232560999992000041800004+67470+078730FM-12+000899999V0203001N009012200019N0200001N1-01851-02041102021ADDAY131061AY231061GA1001+999999999GF100991001001999999001001MA1999999101651MD1210361+9999MW1361OA140101201REMSYN082AAXX  18001 23256 41998 03009 11185 21204 30165 40202 52036 73633 333 91012 91115;
0216232560999992000041806004+67470+078730FM-12+000899999V0202901N010019999999N0200001N1-01411-01681102491ADDAA199000091AY131061AY211061GF108991001001999999001061KA1120N-01961MD1210201+9999MW1021OA140101301REMSYN088AAXX  18061 23256 31998 82910 11141 21168 40249 52020 70231 80006 333 21196 91013 91113;EQDQ01  00002PRCP99
0112232560999992000041809004+67470+078730FM-12+000899999V0202601N007012200019N0200001N1-01201-01471102551ADDGF102991001001999999001011MD1210071+9999REMSYN060AAXX  18091 23256 42998 22607 11120 21147 40255 52007 80001;
0133232560999992000041812004+67470+078730FM-12+000899999V0202501N003012200019N0200001N1-01171-01441102561ADDGF102991001001999999001011MA1999999102211MD1210011+9999REMSYN066AAXX  18121 23256 42998 22503 11117 21144 30221 40256 52001 80001;
0165232560999992000041815004+67470+078730FM-12+000899999V0202001N005019999999N0200001N1-01331-01461102421ADDAA199000091GF108991001001999999001061KA1999M-01141MD1710151+9999REMSYN070AAXX  18151 23256 32998 82005 11133 21146 40242 57015 80006 333 11114;EQDQ01  00002PRCP99
0165232560999992000041818004+67470+078730FM-12+000899999V0201801N003019999999N0200001N1-01421-01551102101ADDAA199000091GF108991001001999999001061KA1999M-01141MD1710321+9999REMSYN070AAXX  18181 23256 32998 81803 11142 21155 40210 57032 80006 333 11114;EQDQ01  00002PRCP99
0166232560999992000041821004+67470+078730FM-12+000899999V0201701N006010012019N0040001N1-01031-01161101561ADDAY181031AY271031GA1041+001209069GF108991081031001501999999MD1710531+9999MW1851REMSYN076AAXX  18211 23256 41296 81706 11103 21116 40156 57053 78587 883// 333 84704;
0187232560999992000041900004+67470+078730FM-12+000899999V0201701N00601001201CN0020001N1-00801-00821101061ADDAY181061AY271061GA1041+000909069GF108991081031001501999999MA1999999100711MD1710501+9999MW1851REMSYN082AAXX  19001 23256 41295 81706 11080 21082 30071 40106 57050 78587 883// 333 84703;
0209232560999992000041903004+67470+078730FM-12+000899999V0201701N008010015019N0020001N1-00571-00611100731ADDAJ100589199999999AY181031AY231031GA1051+001509069GF108991081031001501999999GJ107749IA1249MD1710321+9999MW1851REMSYN088AAXX  19031 23256 /1295 81708 11057 21061 40073 57032 78583 883// 333 48058 55129 85705;
0208232560999992000041906004+67470+078730FM-12+000899999V0202801N008010012019N0200001N1+00101+00071100721ADDAA100002091AY181061AY231061GA1081+001209059GF108991081001001501021999KA1120N-01461MD1710011+9999MW1021REMSYN094AAXX  19061 23256 11298 82808 10010 20007 40072 57001 60020 70283 8802/ 333 21146 88504 92990;
0166232560999992000041909004+67470+078730FM-12+000899999V0202701N010010027019N0200001N1+00101+00051100771ADDAY181031AY221031GA1051+002709069GF108991081031002501999999MD1210051+9999MW1021REMSYN076AAXX  19091 23256 41398 82710 10010 20005 40077 52005 70282 883// 333 85709;
0210232560999992000041912004+67470+078730FM-12+000899999V0202901N010010015019N0200001N1-00271-00301100901ADDAY181061AY221061GA1051+001509079GF108991081031001501999999MA1999999100561MD1210131+9999MW1851OA140101301REMSYN094AAXX  19121 23256 41298 82910 11027 21030 30056 40090 52013 78582 883// 333 85705 91013 91114;
0185232560999992000041915004+67470+078730FM-12+000899999V0203001N011010012019N0020001N1-00461-00491101001ADDAY181031AY231031GA1051+001209069GF108991081051001501999999KA1120M+00131MD1210101+9999MW1381REMSYN082AAXX  19151 23256 /1295 83011 11046 21049 40100 52010 73883 885// 333 10013 85704;
0208232560999992000041918004+67470+078730FM-12+000899999V0203101N006010012019N0200001N1-00831-00851101291ADDAA100000591AY181061AY231061GA1061+001209079GF108991081051001501999999KA1120M+00031MD1210281+9999MW1021REMSYN094AAXX  19181 23256 11298 83106 11083 21085 40129 52028 69950 70283 885// 333 10003 86704 91114;
0138232560999992000041921004+67470+078730FM-12+000899999V0203401N002010015019N0200001N1-00721-00771101541ADDGA1061+001509069GF108991081051001501999999MD1210261+9999REMSYN070AAXX  19211 23256 12298 83402 11072 21077 40154 52026 885// 333 86705;
0159232560999992000042000004+67470+078730FM-12+000899999V0203101N001010009019N0200001N1-00841-00841101681ADDGA1061+000909069GF108991081051001501999999MA1999999101331MD1210131+9999REMSYN076AAXX  20001 23256 42298 83101 11084 21084 30133 40168 52013 885// 333 86703;
0219232560999992000042003004+67470+078730FM-12+000899999V0201401N002010003019N0002001N1-00811-00811101691ADDAA199000091AJ100559199999999AY141031AY221031GA1091+999999999GF109991091999999999999999IA1249MD1210011+9999MW1471REMSYN076AAXX  20031 23256 31/92 91402 11081 21081 40169 52001 74742 333 48055 55000;EQDQ01  00002PRCP99
0196232560999992000042006004+67470+078730FM-12+000899999V0201801N006010012019N0020001N1-00701-00701101511ADDAA199000021AY141061AY221061GA1081+001209069GF108991081061001501999999KA1120N-00901MD1710171+9999MW1771REMSYN082AAXX  20061 23256 31295 81806 11070 21070 40151 57017 77742 886// 333 21090 88704;
0140232560999992000042009004+67470+078730FM-12+000899999V0201801N001010300019N0200001N1-00481-00611101141ADDAY171031AY221031GF108991021061002501071999MD1710371+9999MW1021REMSYN066AAXX  20091 23256 41398 81801 11048 21061 40114 57037 70272 8267/;
0227232560999992000042012004+67470+078730FM-12+000899999V0201601N009010015019N0020001N1-00281-00281100631ADDAY181061AY271061GA1051+001509079GF108991081031001501999999MA1999999100291MD1710511+9999MW1861OA140101201OA249901301REMSYN100AAXX  20121 23256 41295 81609 11028 21028 30029 40063 57051 78687 883// 333 85705 91012 91113 92991;
0185232560999992000042015004+67470+078730FM-12+000899999V0202701N011010012019N0200001N1+00081+00081100501ADDAY181031AY231031GA1081+001209069GF108991081061001501999999KA1120M+00081MD1710131+9999MW1021REMSYN082AAXX  20151 23256 /1298 82711 10008 20008 40050 57013 70283 886// 333 10008 88704;
0242232560999992000042018004+67470+078730FM-12+000899999V0202801N012010015019N0200001N1+00041+00041100611ADDAA100003091AY181061AY231061GA1081+001509079GF108991081061001501999999KA1120M+00081MD1210111+9999MW1021OA140101501OA249901601REMSYN106AAXX  20181 23256 11298 82812 10004 20004 40061 52011 60030 70283 886// 333 10008 88705 91015 91116 92990;
0138232560999992000042021004+67470+078730FM-12+000899999V0202801N012010030019N0200001N1+00031+00031100731ADDGA1051+003009099GF108991081031004501999999MD1210121+9999REMSYN070AAXX  20211 23256 42498 82812 10003 20003 40073 52012 883// 333 85910;
0181232560999992000042103004+67470+078730FM-12+000899999V0202501N009010300019N0200001N1-00011-00181100621ADDAA199000091AJ100589199999999GF108991031051008001071999IA1289MD1710011+9999REMSYN076AAXX  21031 23256 32598 82509 11001 21018 40062 57001 8357/ 333 44058 55012;EQDQ01  00002PRCP99
0188232560999992000042106004+67470+078730FM-12+000899999V0202601N011010300019N0200001N1+00081-00161100581ADDAA199000091GF108991021051008001071999KA1120N-00041MD1710041+9999OA140101401REMSYN082AAXX  21061 23256 32598 82611 10008 21016 40058 57004 8257/ 333 21004 91014 91115;EQDQ01  00002PRCP99
0112232560999992000042109004+67470+078730FM-12+000899999V0202501N005010750019N0200001N1+00161-00121100471ADDGF105991021051008001031011MD1710111+9999REMSYN060AAXX  21091 23256 42598 52505 10016 21012 40047 57011 82531;
0185232560999992000042115004+67470+078730FM-12+000899999V0200501N002010015019N0010001N1-00111-00121099861ADDAY181031AY221031GA1051+001509069GF108991081031001501999999KA1120M+00161MD1710431+9999MW1861REMSYN082AAXX  21151 23256 /1294 80502 11011 21012 49986 57043 78682 883// 333 10016 85705;
0164232560999992000042118004+67470+078730FM-12+000899999V0203601N006010012019N0010001N1+99999+99999999999ADDAA100001091AY181061AY271061GA1051+001209069GF108991081031001501999999KA1120M+00161MW1861REMSYN064AAXX  21181 23256 11294 83606 60010 78687 883// 333 10016 85704;
0166232560999992000042121004+67470+078730FM-12+000899999V0203101N004010069019N0020001N1-00281-00281099551ADDAY181031AY231031GA1051+006909099GF108991081031008001999999MD1710041+9999MW1851REMSYN076AAXX  21211 23256 41595 83104 11028 21028 49955 57004 78583 883// 333 85923;
0195232560999992000042200004+67470+078730FM-12+000899999V0202901N006010012019N0020001N1-00291-00291099561ADDAY181061AY231061GA1051+001209079GF108991081031001501999999MA1999999099231MD1210011+9999MW1851REMSYN090AAXX  22001 23256 41295 82906 11029 21029 39923 49956 52001 78583 883// 333 85704 555 103;
0203232560999992000042203004+67470+078730FM-12+000899999V0203201N008010021019N0100001N1-00271+99999099721ADDAJ100619199999999AY181031AY231031GA1041+002109069GF108991081031002501999999GJ101389IA1249MD1210161+9999MW1851REMSYN082AAXX  22031 23256 /1397 83208 11027 49972 52016 78583 883// 333 48061 55023 84707;
0261232560999992000042206004+67470+078730FM-12+000899999V0203201N01401001201CN0010001N1-00831-00931100111ADDAA100005191AY181061AY231061GA1041+001509079GF108991081031001501999999KA1120N+99999MD1210371+9999MW1851OA140101701OA249901801REMSYN106AAXX  22061 23256 11294 83214 11083 21093 40011 52037 60050 78583 883// 333 21033 84705 91017 91118 92993;EQDQ01 -00332ATMN  
0140232560999992000042209004+67470+078730FM-12+000899999V0203101N015012200019N0005001N1-01051-01181100431ADDAY181031AY231031GF107991031051001501001011MD1210321+9999MW1391REMSYN066AAXX  22091 23256 41293 73115 11105 21118 40043 52032 73983 83501;
0163232560999992000042215004+67470+078730FM-12+000899999V0202901N011012200019N0020001N1-01211-01341100841ADDAY131031AY211031GF102991001001999999001011KA1999M-00831MD1210121+9999MW1381REMSYN076AAXX  22151 23256 /1995 22911 11121 21134 40084 52012 73831 80001 333 11083;
0203232560999992000042218004+67470+078730FM-12+000899999V0202701N007012200019N0200001N1-01511-01641100861ADDAA100001091AY131061AY231061GF102991001001999999001011KA1120M-00831MD1210011+9999MW1021OA149901401REMSYN094AAXX  22181 23256 11998 22707 11151 21164 40086 52001 60010 70233 80001 333 11083 91114 92990;
0112232560999992000042221004+67470+078730FM-12+000899999V0202701N004019999999N0200001N1-01591-01721100811ADDGF106991061001999999031001MD1710041+9999REMSYN060AAXX  22211 23256 42998 62704 11159 21172 40081 57004 86030;
0181232560999992000042300004+67470+078730FM-12+000899999V0202301N003010003019N0002001N1-01481-01611100761ADDAY141061AY221061GA1091+999999999GF109991091999999999999999MA1999999100411MD1710051+9999MW1491REMSYN076AAXX  23001 23256 41/92 92303 11148 21161 30041 40076 57005 74942 333 93510;
0219232560999992000042303004+67470+078730FM-12+000899999V0201301N001010003019N0002001N1-01171-01301100681ADDAA199000091AJ100599199999999AY141031AY221031GA1091+999999999GF109991091999999999999999IA1249MD1710081+9999MW1491REMSYN076AAXX  23031 23256 31/92 91301 11117 21130 40068 57008 74942 333 48059 55070;EQDQ01  00002PRCP99
0221232560999992000042306004+67470+078730FM-12+000899999V0201301N002010012019N0100001N1-00981-01061100611ADDAA199000091AY141061AY221061GA1051+001209079GF105991051061001501001001KA1120N-01641MD1710071+9999MW1021REMSYN088AAXX  23061 23256 31297 51302 11098 21106 40061 57007 70242 85600 333 21164 85704 93500;EQDQ01  00002PRCP99
0112232560999992000042309004+67470+078730FM-12+000899999V0201201N004012200019N0200001N1-00671-01041100631ADDGF102991001001999999001011MD1210031+9999REMSYN060AAXX  23091 23256 42998 21204 11067 21104 40063 52003 80001;
0133232560999992000042312004+67470+078730FM-12+000899999V0201101N003012200019N0200001N1-00731-01321100531ADDGF102991001001999999001011MA1999999100191MD1710101+9999REMSYN066AAXX  23121 23256 42998 21103 11073 21132 30019 40053 57010 80001;
0165232560999992000042315004+67470+078730FM-12+000899999V0201001N005019999999N0200001N1-00961-01481100341ADDAA199000091GF108991061001999999031061KA1999M-00671MD1710201+9999REMSYN070AAXX  23151 23256 32998 81005 11096 21148 40034 57020 86036 333 11067;EQDQ01  00002PRCP99
0112232560999992000042321004+67470+078730FM-12+000899999V0200801N008019999999N0200001N1-01071-01511099821ADDGF106991061001999999031001MD1710231+9999REMSYN060AAXX  23211 23256 42998 60808 11107 21151 49982 57023 86030;
0133232560999992000042400004+67470+078730FM-12+000899999V0200601N008019999999N0200001N1-01151-01591099751ADDGF106991061001999999031001MA1999999099411MD1710071+9999REMSYN066AAXX  24001 23256 42998 60608 11115 21159 39941 49975 57007 86030;
0181232560999992000042403004+67470+078730FM-12+000899999V0200401N006019999999N0200001N1-01151-01501099761ADDAA199000091AJ100599199999999GF108991001001999999001061IA1249MD1210011+9999REMSYN076AAXX  24031 23256 32998 80406 11115 21150 49976 52001 80006 333 48059 55080;EQDQ01  00002PRCP99
0165232560999992000042406004+67470+078730FM-12+000899999V0200301N005019999999N0200001N1-00981-01391099861ADDAA199000091GF107991001001999999001011KA1999N-01221MD1210091+9999REMSYN070AAXX  24061 23256 32998 70305 11098 21139 49986 52009 80001 333 21122;EQDQ01  00002PRCP99
0112232560999992000042409004+67470+078730FM-12+000899999V0203301N005019999999N0200001N1-00991-01411100041ADDGF107991001001999999001011MD1210181+9999REMSYN060AAXX  24091 23256 42998 73305 11099 21141 40004 52018 80001;
0165232560999992000042415004+67470+078730FM-12+000899999V0203101N003019999999N0200001N1-01311-01581100191ADDAA199000091GF106991001001999999001011KA1999M-00981MD1210021+9999REMSYN070AAXX  24151 23256 32998 63103 11131 21158 40019 52002 80001 333 11098;EQDQ01  00002PRCP99
0165232560999992000042418004+67470+078730FM-12+000899999V0203201N002019999999N0200001N1-01581-01711100231ADDAA199000091GF106991061001999999031001KA1999M-00981MD1210041+9999REMSYN070AAXX  24181 23256 32998 63202 11158 21171 40023 52004 86030 333 11098;EQDQ01  00002PRCP99
0112232560999992000042421004+67470+078730FM-12+000899999V0203001N004019999999N0200001N1-01781-01901100251ADDGF106991041001999999031011MD1210011+9999REMSYN060AAXX  24211 23256 42998 63004 11178 21190 40025 52001 84031;
0143232560999992000042500004+67470+078730FM-12+000899999V0203001N004019999999N0200001N1-01891-02081100351ADDGF107991051001999999031011MA1999999099991MD1210101+9999REMSYN076AAXX  25001 23256 42998 73004 11189 21208 39999 40035 52010 85031 333 93503;
0209232560999992000042503004+67470+078730FM-12+000899999V0203001N005010048019N0100001N1-01641-01771100441ADDAJ100589199999999AY171031AY221031GA1051+004809059GF108991051051004501001061GJ107929IA1249MD1210101+9999MW1711REMSYN088AAXX  25031 23256 /1497 83005 11164 21177 40044 52010 77172 85506 333 48058 55132 85616;
0186232560999992000042506004+67470+078730FM-12+000899999V0202901N006019999999N0200001N1-01191-01391100571ADDAA100000191AY171061AY221061GF108991001001999999001061KA1120N-01901MD1210131+9999MW1711REMSYN088AAXX  25061 23256 11998 82906 11119 21139 40057 52013 69910 77172 80006 333 21190 93500;
0140232560999992000042509004+67470+078730FM-12+000899999V0202801N009010750019N0200001N1-01101-01301100731ADDAY181031AY271031GF108991021051002501001061MD1210161+9999MW1711REMSYN066AAXX  25091 23256 41398 82809 11110 21130 40073 52016 77187 82506;
0188232560999992000042512004+67470+078730FM-12+000899999V0202801N009010750019N0200001N1-01071-01271100891ADDAY181061AY271061GF108991021061004501001061MA1999999100541MD1210161+9999MW1711OA140101201REMSYN088AAXX  25121 23256 41498 82809 11107 21127 30054 40089 52016 77187 82606 333 91012 91112;
0185232560999992000042515004+67470+078730FM-12+000899999V0203101N005010021019N0100001N1-01171-01371100991ADDAY181031AY271031GA1041+002109069GF108991061031002501071999KA1120M-01071MD1210101+9999MW1851REMSYN082AAXX  25151 23256 /1397 83105 11117 21137 40099 52010 78587 8637/ 333 11107 84707;
0202232560999992000042518004+67470+078730FM-12+000899999V0202801N00501002101CN0200001N1-01451-01581101111ADDAA100000191AY181061AY271061GA1041+001809069GF108991051031002501001061KA1120M-01071MD1210111+9999MW1851REMSYN088AAXX  25181 23256 11398 82805 11145 21158 40111 52011 69920 78587 85306 333 11107 84706;
0140232560999992000042521004+67470+078730FM-12+000899999V0202801N005012200019N0200001N1-01841-01961101171ADDAY181031AY211031GF102991001001999999001011MD1210051+9999MW1021REMSYN066AAXX  25211 23256 41998 22805 11184 21196 40117 52005 70281 80001;
0187232560999992000042600004+67470+078730FM-12+000899999V0202901N005010018019N0100001N1-01611-01741101271ADDAY181061AY211061GA1051+001809069GF108991081051001501999999MA1999999100911MD1210111+9999MW1711REMSYN082AAXX  26001 23256 41297 82905 11161 21174 30091 40127 52011 77181 885// 333 85706;
0209232560999992000042603004+67470+078730FM-12+000899999V0202901N00201002101CN0200001N1-01471-01601101351ADDAJ100599199999999AY181031AY271031GA1041+001809069GF108991081031002501999999GJ106249IA1249MD1210081+9999MW1851REMSYN088AAXX  26031 23256 /1398 82902 11147 21160 40135 52008 78587 883// 333 48059 55104 84706;
0186232560999992000042606004+67470+078730FM-12+000899999V0202701N003019999999N0200001N1-01251-01451101371ADDAA100000391AY181061AY271061GF106991001001999999001011KA1120N-01911MD1210031+9999MW1221REMSYN088AAXX  26061 23256 11998 62703 11125 21145 40137 52003 69930 72287 80001 333 21191 93500;
0112232560999992000042609004+67470+078730FM-12+000899999V0202701N004012200019N0200001N1-01131-01331101451ADDGF103991001001999999001011MD1210081+9999REMSYN060AAXX  26091 23256 42998 32704 11113 21133 40145 52008 80001;
0143232560999992000042612004+67470+078730FM-12+000899999V0202701N004012200019N0200001N1-01201-01401101431ADDGA1001+999999999GF100991001001999999001001MA1999999101081MD1710021+9999REMSYN060AAXX  26121 23256 42998 02704 11120 21140 30108 40143 57002;
0135232560999992000042615004+67470+078730FM-12+000899999V0202501N004019999999N0200001N1-01711-01831101391ADDGF105991021001999999031011KA1999M-01131MD1710051+9999REMSYN070AAXX  26151 23256 /2998 52504 11171 21183 40139 57005 82031 333 11113;
0158232560999992000042618004+67470+078730FM-12+000899999V0202001N001012200019N0200001N1-01641-01771101271ADDAA100000791GF103991031001999999031001KA1120M-01131MD1710121+9999REMSYN082AAXX  26181 23256 /2998 32001 11164 21177 40127 57012 69900 83030 333 11113 93501;
0150232560999992000042621004+67470+078730FM-12+000899999V0201101N002010003019N0002001N1-02191-02371101131ADDAY111031AY211031GA1091+999999999GF109991091999999999999999MD1710151+9999MW1491REMSYN060AAXX  26211 23256 41/92 91102 11219 21237 40113 57015 74911;
0181232560999992000042700004+67470+078730FM-12+000899999V0201201N002012200019N0002001N1-02171-02291101041ADDAY141061AY211061GA1001+999999999GF100991001001999999001001MA1999999100671MD1710091+9999MW1481REMSYN076AAXX  27001 23256 41992 01202 11217 21229 30067 40104 57009 74841 333 93517;
0239232560999992000042703004+67470+078730FM-12+000899999V0200901N002010012019N0100001N1-01741-01931101011ADDAA199000091AJ100599199999999AY141031AY211031GA1051+001209069GF105991051061001501001001GJ106549IA1249MD1710021+9999MW1021REMSYN088AAXX  27031 23256 31297 50902 11174 21193 40101 57002 70241 85600 333 48059 55109 85704;EQDQ01  00002PRCP99
0199232560999992000042706004+67470+078730FM-12+000899999V0200701N005012200019N0200001N1-01371-01501101031ADDAA199000091AY141061AY211061GF102991001001999999001011KA1120N-02261MD1210021+9999MW1021REMSYN082AAXX  27061 23256 31998 20705 11137 21150 40103 52002 70241 80001 333 21226 93500;EQDQ01  00002PRCP99
0112232560999992000042709004+67470+078730FM-12+000899999V0200601N006012200019N0200001N1-01251-01451101141ADDGF101991001001999999001011MD1210121+9999REMSYN060AAXX  27091 23256 42998 10606 11125 21145 40114 52012 80001;
0143232560999992000042712004+67470+078730FM-12+000899999V0200501N004012200019N0200001N1-01291-01561101291ADDGA1001+999999999GF100991001001999999001001MA1999999100931MD1210141+9999REMSYN060AAXX  27121 23256 42998 00504 11129 21156 30093 40129 52014;
0185232560999992000042715004+67470+078730FM-12+000899999V0200401N005010750019N0100001N1-01471-01671101381ADDAY171031AY211031GA1041+001809069GF108991041051001501001061KA1120M-01251MD1210091+9999MW1711REMSYN082AAXX  27151 23256 /1297 80405 11147 21167 40138 52009 77171 84506 333 11125 84706;
0199232560999992000042718004+67470+078730FM-12+000899999V0200301N004010300019N0200001N1-01531-01661101401ADDAA100000791AY171061AY211061GF106991021061002501031001KA1999N+99999MD1210021+9999MW1221REMSYN082AAXX  27181 23256 11398 60304 11153 21166 40140 52002 69900 72271 82630 333 21125;EQDQ01 -01252ATMN  
0138232560999992000042721004+67470+078730FM-12+000899999V0200101N00301001201CN0200001N1-01771-01891101391ADDGA1041+001509069GF107991071051001501001001MD1710021+9999REMSYN070AAXX  27211 23256 42298 70103 11177 21189 40139 57002 87500 333 84705;
0187232560999992000042800004+67470+078730FM-12+000899999V0203201N001010036019N0200001N1-01711-01831101331ADDAY171061AY221061GA1061+003609059GF108991061051004501071999MA1999999100971MD1710051+9999MW1711REMSYN082AAXX  28001 23256 41498 83201 11171 21183 30097 40133 57005 77172 8657/ 333 86612;
0209232560999992000042803004+67470+078730FM-12+000899999V0203301N003010033019N0200001N1-01321-01521101321ADDAJ100609199999999AY171031AY221031GA1061+003309059GF108991061051004501071999GJ106369IA1249MD1710011+9999MW1711REMSYN088AAXX  28031 23256 /1498 83303 11132 21152 40132 57001 77172 8657/ 333 48060 55106 86611;
0202232560999992000042806004+67470+078730FM-12+000899999V0203201N003010039019N0200001N1-01281-01631101261ADDAA100000391AY171061AY221061GA1051+003909059GF108991051051004501071999KA1120N-01891MD1710061+9999MW1711REMSYN088AAXX  28061 23256 11498 83203 11128 21163 40126 57006 69930 77172 8557/ 333 21189 85613;
0166232560999992000042809004+67470+078730FM-12+000899999V0203401N00401004201CN0200001N1-01051-01411101171ADDAY181031AY271031GA1041+003609099GF108991061031004501071999MD1710081+9999MW1851REMSYN076AAXX  28091 23256 41498 83404 11105 21141 40117 57008 78587 8637/ 333 84912;
0187232560999992000042812004+67470+078730FM-12+000899999V0200301N00501002101CN0200001N1-01161-01441101181ADDAY181061AY271061GA1041+001809069GF108991061051002501071999MA1999999100831MD1210011+9999MW1711REMSYN082AAXX  28121 23256 41398 80305 11116 21144 30083 40118 52001 77187 8657/ 333 84706;
0185232560999992000042815004+67470+078730FM-12+000899999V0203301N003010045019N0200001N1-01321-01521101181ADDAY171031AY221031GA1051+004509059GF108991051051004501001061KA1120M-01051MD1710011+9999MW1711REMSYN082AAXX  28151 23256 /1498 83303 11132 21152 40118 57001 77172 85506 333 11105 85615;
0202232560999992000042818004+67470+078730FM-12+000899999V0203501N004010750019N0200001N1-01251-01451101041ADDAA100000591AY171061AY221061GA1041+004509059GF108991041051004501001061KA1120M-01051MD1710131+9999MW1711REMSYN088AAXX  28181 23256 11498 83504 11125 21145 40104 57013 69940 77172 84506 333 11105 84615;
0166232560999992000042821004+67470+078730FM-12+000899999V0200201N003010750019N0200001N1-01261-01461100971ADDAY171031AY221031GA1041+004509059GF108991041051004501001061MD1710071+9999MW1711REMSYN076AAXX  28211 23256 41498 80203 11126 21146 40097 57007 77172 84506 333 84615;
0187232560999992000042900004+67470+078730FM-12+000899999V0203601N005010042019N0200001N1-01381-01651100961ADDAY171061AY221061GA1051+004209059GF108991051051004501001061MA1999999100601MD1710021+9999MW1711REMSYN082AAXX  29001 23256 41498 83605 11138 21165 30060 40096 57002 77172 85506 333 85614;
0179232560999992000042903004+67470+078730FM-12+000899999V0203501N005010300019N0200001N1-01321-01591100921ADDAJ100599199999999AY171031AY221031GF106991021051008001031011IA1249MD1710041+9999MW1021REMSYN082AAXX  29031 23256 /1598 63505 11132 21159 40092 57004 70272 82531 333 48059 55024;
0202232560999992000042906004+67470+078730FM-12+000899999V0200101N007012200019N0200001N1-01191-01541100901ADDAA100000591AY171061AY221061GA1041+001509069GF106991041061001501001011KA1120N-01381MD1710011+9999MW1361REMSYN088AAXX  29061 23256 11298 60107 11119 21154 40090 57001 69940 73672 84601 333 21138 84705;
0166232560999992000042909004+67470+078730FM-12+000899999V0203501N00501002101CN0200001N1-01151-01591101001ADDAY131031AY221031GA1041+002409069GF108991061051002501001061MD1210101+9999MW1711REMSYN076AAXX  29091 23256 41398 83505 11115 21159 40100 52010 77132 86506 333 84708;
0187232560999992000042912004+67470+078730FM-12+000899999V0203501N00501004201CN0200001N1-01191-01631101071ADDAY171061AY231061GA1041+003309099GF107991061031004501001011MA1999999100721MD1210071+9999MW1021REMSYN082AAXX  29121 23256 41498 73505 11119 21163 30072 40107 52007 70273 86301 333 84911;
0157232560999992000042915004+67470+078730FM-12+000899999V0203601N005010042019N0200001N1-01311-01661101101ADDGA1041+004209099GF107991051031004501031001KA1120M-01151MD1210021+9999REMSYN076AAXX  29151 23256 /2498 73605 11131 21166 40110 52002 85330 333 11115 84914;
0174232560999992000042918004+67470+078730FM-12+000899999V0200101N002010042019N0200001N1-01391-01661101161ADDAA100000791GA1041+004209099GF106991061031004501001001KA1120M-01151MD1210061+9999REMSYN082AAXX  29181 23256 32498 60102 11139 21166 40116 52006 69900 86300 333 11115 84914;
0132232560999992000042921004+67470+078730FM-12+000899999V0203501N003010048019N0048001N1-01431-01701999999ADDGA1061+004809099GF108991081031004501999999MD1210031+9999REMSYN064AAXX  29211 23256 42448 83503 11143 21170 52003 883// 333 86916;
0159232560999992000043000004+67470+078730FM-12+000899999V0203401N00401004201CN0200001N1-01511-01851101201ADDGA1041+004809099GF108991061031004501001061MA1999999100841MD1210011+9999REMSYN076AAXX  30001 23256 42498 83404 11151 21185 30084 40120 52001 86306 333 84916;
0211232560999992000043003004+67470+078730FM-12+000899999V0203501N00501004201CN0200001N1-01401-01751101391ADDAA199000091AJ100599199999999GA1041+003609099GF108991081031004501999999GJ104389IA1249MD1210191+9999REMSYN082AAXX  30031 23256 32498 83505 11140 21175 40139 52019 883// 333 48059 55073 84912;EQDQ01  00002PRCP99
0196232560999992000043006004+67470+078730FM-12+000899999V0203401N005010042019N0200001N1-01331-01761101501ADDAA199000021AY181061AY271061GA1061+004209059GF106991061051004501001001KA1120N-01551MD1210111+9999MW1221REMSYN082AAXX  30061 23256 31498 63405 11133 21176 40150 52011 72287 86500 333 21155 86614;
0112232560999992000043009004+67470+078730FM-12+000899999V0200101N004012200019N0200001N1-01261-01691101651ADDGF102991021051004501001001MD1210161+9999REMSYN060AAXX  30091 23256 42498 20104 11126 21169 40165 52016 82500;
0143232560999992000043012004+67470+078730FM-12+000899999V0203501N004012200019N0200001N1-01331-01761101821ADDGA1001+999999999GF100991001001999999001001MA1999999101461MD1210161+9999REMSYN060AAXX  30121 23256 42998 03504 11133 21176 30146 40182 52016;
0135232560999992000043015004+67470+078730FM-12+000899999V0203401N002012200019N0200001N1-01491-01831101961ADDGF101991001001999999001011KA1999M-01261MD1210141+9999REMSYN070AAXX  30151 23256 /2998 13402 11149 21183 40196 52014 80001 333 11126;
0152232560999992000043018004+67470+078730FM-12+000899999V0203301N002012200019N0200001N1-01911-02101102151ADDAA100000791GF102991001001999999001011KA1999M-01261MD1210181+9999REMSYN076AAXX  30181 23256 12998 23302 11191 21210 40215 52018 69900 80001 333 11126;
0112232560999992000043021004+67470+078730FM-12+000899999V0203001N003012200019N0200001N1-02261-02441102291ADDGF102991001001999999001011MD1210131+9999REMSYN060AAXX  30211 23256 42998 23003 11226 21244 40229 52013 80001;
0133232560999992000050100004+67470+078730FM-12+000899999V0202801N003019999999N0200001N1-02361-02551102431ADDGF108991001001999999001061MA1999999102051MD1210141+9999REMSYN066AAXX  01001 23256 42998 82803 11236 21255 30205 40243 52014 80006;
0191232560999992000050103004+67470+078730FM-12+000899999V0202801N003012200019N0200001N1-02141-02331102511ADDAA199000091AJ100599199999999GA1001+999999999GF100991001001999999001001IA1249MD1210091+9999REMSYN070AAXX  01031 23256 32998 02803 11214 21233 40251 52009 333 48059 55098;EQDQ01  00002PRCP99
0175232560999992000050106004+67470+078730FM-12+000899999V0202901N004012200019N0200001N1-01681-01871102681ADDAA199000091GA1001+999999999GF100991001001999999001001KA1999N-02451MD1210181+9999REMSYN064AAXX  01061 23256 32998 02904 11168 21187 40268 52018 333 21245;EQDQ01  00002PRCP99
0122232560999992000050109004+67470+078730FM-12+000899999V0202901N003012200019N0200001N1-01371-01721102801ADDGA1001+999999999GF100991001001999999001001MD1210121+9999REMSYN054AAXX  01091 23256 42998 02903 11137 21172 40280 52012;
0143232560999992000050112004+67470+078730FM-12+000899999V0203001N003012200019N0200001N1-01361-01791102891ADDGA1001+999999999GF100991001001999999001001MA1999999102521MD1210081+9999REMSYN060AAXX  01121 23256 42998 03003 11136 21179 30252 40289 52008;
0175232560999992000050115004+67470+078730FM-12+000899999V0203201N003012200019N0200001N1-01581-01921102911ADDAA199000091GA1001+999999999GF100991001001999999001001KA1999M-01361MD1210021+9999REMSYN064AAXX  01151 23256 32998 03203 11158 21192 40291 52002 333 11136;EQDQ01  00002PRCP99
0175232560999992000050118004+67470+078730FM-12+000899999V0203101N001012200019N0200001N1-01881-02001102661ADDAA199000091GA1001+999999999GF100991001001999999001001KA1999M-01361MD1210051+9999REMSYN064AAXX  01181 23256 32998 03101 11188 21200 40266 52005 333 11136;EQDQ01  00002PRCP99
0122232560999992000050121004+67470+078730FM-12+000899999V0202801N002012200019N0200001N1-02341-02521102951ADDGA1001+999999999GF100991001001999999001001MD1710021+9999REMSYN054AAXX  01211 23256 42998 02802 11234 21252 40295 57002;
0181232560999992000050200004+67470+078730FM-12+000899999V0202801N002012200019N0005001N1-02241-02421102931ADDAY141061AY201061GA1001+999999999GF100991001001999999001001MA1999999102561MD1710011+9999MW1481REMSYN076AAXX  02001 23256 41993 02802 11224 21242 30256 40293 57001 74840 333 93504;
0219232560999992000050203004+67470+078730FM-12+000899999V0202601N001012200019N0005001N1-01931-02121102941ADDAA199000091AJ100599199999999AY141031AY201031GA1001+999999999GF100991001001999999001001IA1249MD1210011+9999MW1481REMSYN076AAXX  02031 23256 31993 02601 11193 21212 40294 52001 74840 333 48059 55165;EQDQ01  00002PRCP99
0199232560999992000050206004+67470+078730FM-12+000899999V0202601N002012200019N0200001N1-01511-01701102901ADDAA199000091AY141061AY201061GF102991001001999999001011KA1120N-02441MD1710041+9999MW1021REMSYN082AAXX  02061 23256 31998 22602 11151 21170 40290 57004 70240 80001 333 21244 93500;EQDQ01  00002PRCP99
0122232560999992000050209004+67470+078730FM-12+000899999V0202701N002012200019N0200001N1-01271-01401102841ADDGA1001+999999999GF100991001001999999001001MD1710051+9999REMSYN054AAXX  02091 23256 42998 02702 11127 21140 40284 57005;
0143232560999992000050212004+67470+078730FM-12+000899999V0202801N002012200019N0200001N1-01221-01491102741ADDGA1001+999999999GF100991001001999999001001MA1999999102391MD1710091+9999REMSYN060AAXX  02121 23256 42998 02802 11122 21149 30239 40274 57009;
0175232560999992000050215004+67470+078730FM-12+000899999V0202201N002012200019N0200001N1-01451-01651102631ADDAA199000091GA1001+999999999GF100991001001999999001001KA1999M-01221MD1710121+9999REMSYN064AAXX  02151 23256 32998 02202 11145 21165 40263 57012 333 11122;EQDQ01  00002PRCP99
0165232560999992000050218004+67470+078730FM-12+000899999V0202201N002012200019N0200001N1-01711-01831102501ADDAA199000091GF102991001001999999001011KA1999M-01221MD1710131+9999REMSYN070AAXX  02181 23256 32998 22202 11171 21183 40250 57013 80001 333 11122;EQDQ01  00002PRCP99
0112232560999992000050221004+67470+078730FM-12+000899999V0202001N001012200019N0200001N1-01801-01921102421ADDGF102991021001999999031011MD1710091+9999REMSYN060AAXX  02211 23256 42998 22001 11180 21192 40242 57009 82031;
0171232560999992000050300004+67470+078730FM-12+000899999V0201801N001012200019N0020001N1-01731-01851102331ADDAY101061AY201061GA1001+999999999GF100991001001999999001001MA1999999101971MD1710081+9999MW1101REMSYN066AAXX  03001 23256 41995 01801 11173 21185 30197 40233 57008 71000;
0175232560999992000050306004+67470+078730FM-12+000899999V0201401N003012200019N0200001N1-01231-01661102071ADDAA199000091GA1001+999999999GF100991001001999999001001KA1999N-02001MD1710141+9999REMSYN064AAXX  03061 23256 32998 01403 11123 21166 40207 57014 333 21200;EQDQ01  00002PRCP99
0122232560999992000050309004+67470+078730FM-12+000899999V0201401N003012200019N0200001N1-00911-01461101901ADDGA1001+999999999GF100991001001999999001001MD1710171+9999REMSYN054AAXX  03091 23256 42998 01403 11091 21146 40190 57017;
0175232560999992000050312004+67470+078730FM-12+000899999V0201101N001012200019N0200001N1-01111-01641101521ADDAA199000091GA1001+999999999GF100991001001999999001001KA1999M-00861MD1710151+9999REMSYN064AAXX  03121 23256 32998 01101 11111 21164 40152 57015 333 11086;EQDQ01  00002PRCP99
0175232560999992000050315004+67470+078730FM-12+000899999V0201101N001012200019N0200001N1-01111-01641101521ADDAA199000091GA1001+999999999GF100991001001999999001001KA1999M-00861MD1710151+9999REMSYN064AAXX  03151 23256 32998 01101 11111 21164 40152 57015 333 11086;EQDQ01  00002PRCP99
0165232560999992000050318004+67470+078730FM-12+000899999V0201301N002012200019N0200001N1-01231-01751101291ADDAA199000091GF102991001001999999001011KA1999M-00861MD1710231+9999REMSYN070AAXX  03181 23256 32998 21302 11123 21175 40129 57023 80001 333 11086;EQDQ01  00002PRCP99
0112232560999992000050321004+67470+078730FM-12+000899999V0201301N002012200019N0200001N1-01471-01981101081ADDGF103991001001999999001011MD1710221+9999REMSYN060AAXX  03211 23256 42998 31302 11147 21198 40108 57022 80001;
0133232560999992000050400004+67470+078730FM-12+000899999V0201301N001012200019N0200001N1-01541-01881100931ADDGF103991001001999999001011MA1999999100571MD1710151+9999REMSYN066AAXX  04001 23256 42998 31301 11154 21188 30057 40093 57015 80001;
0181232560999992000050403004+67470+078730FM-12+000899999V0200801N002019999999N0200001N1-01371-01891100711ADDAA199000091AJ100599199999999GF106991021001999999031011IA1249MD1710211+9999REMSYN076AAXX  04031 23256 32998 60802 11137 21189 40071 57021 82031 333 48059 55161;EQDQ01  00002PRCP99
0165232560999992000050406004+67470+078730FM-12+000899999V0202101N004019999999N0200001N1-00721-01301100601ADDAA199000091GF107991031001999999031011KA1999N-01601MD1710101+9999REMSYN070AAXX  04061 23256 32998 72104 11072 21130 40060 57010 83031 333 21160;EQDQ01  00002PRCP99
0112232560999992000050409004+67470+078730FM-12+000899999V0202501N004012200019N0200001N1-00481-01251100511ADDGF102991001001999999001011MD1710091+9999REMSYN060AAXX  04091 23256 42998 22504 11048 21125 40051 57009 80001;
0133232560999992000050412004+67470+078730FM-12+000899999V0202501N005019999999N0200001N1-00521-01161100521ADDGF106991031001999999031011MA1999999100181MD1210011+9999REMSYN066AAXX  04121 23256 42998 62505 11052 21116 30018 40052 52001 83031;
0165232560999992000050415004+67470+078730FM-12+000899999V0202301N006019999999N0200001N1-00781-01331100421ADDAA199000091GF107991061001999999031011KA1999M-00481MD1710111+9999REMSYN070AAXX  04151 23256 32998 72306 11078 21133 40042 57011 86031 333 11048;EQDQ01  00002PRCP99
0187232560999992000050418004+67470+078730FM-12+000899999V0202401N007010072019N0200001N1-00821-01451100361ADDAA199000091GA1061+007209059GF108991061051008001071999KA1120M-00481MD1710061+9999REMSYN076AAXX  04181 23256 32598 82407 11082 21145 40036 57006 8657/ 333 11048 86624;EQDQ01  00002PRCP99
0138232560999992000050421004+67470+078730FM-12+000899999V0202301N008010099019N0200001N1-00801-01421100271ADDGA1081+009909059GF108991081051012501999999MD1710091+9999REMSYN070AAXX  04211 23256 42698 82308 11080 21142 40027 57009 885// 333 88633;
0133232560999992000050500004+67470+078730FM-12+000899999V0202301N008010300019N0200001N1-00741-01331100221ADDGF108991031051012501071999MA1999999099881MD1710041+9999REMSYN066AAXX  05001 23256 42698 82308 11074 21133 39988 40022 57004 8357/;
0181232560999992000050503004+67470+078730FM-12+000899999V0202201N008019999999N0200001N1-00581-01251100161ADDAA199000091AJ100599199999999GF107991051001999999031011IA1249MD1710061+9999REMSYN076AAXX  05031 23256 32998 72208 11058 21125 40016 57006 85031 333 48059 55150;EQDQ01  00002PRCP99
0165232560999992000050506004+67470+078730FM-12+000899999V0201901N007019999999N0200001N1-00131-01031100121ADDAA199000091GF105991021001999999031011KA1999N-00911MD1710041+9999REMSYN070AAXX  05061 23256 32998 51907 11013 21103 40012 57004 82031 333 21091;EQDQ01  00002PRCP99
0112232560999992000050509004+67470+078730FM-12+000899999V0201901N007012200019N0200001N1-00021-00721100061ADDGF103991001001999999001011MD1710061+9999REMSYN060AAXX  05091 23256 42998 31907 11002 21072 40006 57006 80001;
0133232560999992000050512004+67470+078730FM-12+000899999V0202001N007019999999N0200001N1+00051-00731100061ADDGF105991031001999999031011MA1999999099721MD1410001+9999REMSYN066AAXX  05121 23256 42998 52007 10005 21073 39972 40006 54000 83031;
0165232560999992000050515004+67470+078730FM-12+000899999V0202001N007019999999N0200001N1+00121-00551099991ADDAA199000091GF108991041001999999031061KA1999M+00121MD1710071+9999REMSYN070AAXX  05151 23256 32998 82007 10012 21055 49999 57007 84036 333 10012;EQDQ01  00002PRCP99
0165232560999992000050518004+67470+078730FM-12+000899999V0202001N007019999999N0200001N1-00061-00661099971ADDAA199000091GF106991021001999999031011KA1999M+00121MD1710021+9999REMSYN070AAXX  05181 23256 32998 62007 11006 21066 49997 57002 82031 333 10012;EQDQ01  00002PRCP99
0112232560999992000050521004+67470+078730FM-12+000899999V0202001N008010750019N0200001N1-00111-00731099881ADDGF108991021051012501001061MD1710091+9999REMSYN060AAXX  05211 23256 42698 82008 11011 21073 49988 57009 82506;
0133232560999992000050600004+67470+078730FM-12+000899999V0202001N008010300019N0200001N1-00091-00661999999ADDGF108991031051012501071999MA1999999099441MD1710101+9999REMSYN066AAXX  06001 23256 42698 82008 11009 21066 39944 44979 57010 8357/;
0209232560999992000050603004+67470+078730FM-12+000899999V0202101N00801002101CN0040001N1-00161-00331099771ADDAJ100569199999999AY181031AY271031GA1041+002409069GF108991081031002501999999GJ105649IA1249MD1410001+9999MW1851REMSYN088AAXX  06031 23256 /1396 82108 11016 21033 49977 54000 78587 883// 333 48056 55094 84708;
0202232560999992000050606004+67470+078730FM-12+000899999V0202701N00301004201CN0200001N1+00051-00031099931ADDAA100000191AY181061AY271061GA1041+005409099GF105991051031004501001001KA1120N-00161MD1210151+9999MW1261REMSYN088AAXX  06061 23256 11498 52703 10005 21003 49993 52015 69920 72687 85300 333 21016 84918;
0138232560999992000050609004+67470+078730FM-12+000899999V0202701N00501004201CN0200001N1+00061-00141100071ADDGA1041+003609099GF107991071031004501001001MD1210141+9999REMSYN070AAXX  06091 23256 42498 72705 10006 21014 40007 52014 87300 333 84912;
0159232560999992000050612004+67470+078730FM-12+000899999V0202701N00501004201CN0200001N1-00111-00301100231ADDGA1041+003909099GF107991071031004501001001MA1999999099891MD1210161+9999REMSYN076AAXX  06121 23256 42498 72705 11011 21030 39989 40023 52016 87300 333 84913;
0135232560999992000050615004+67470+078730FM-12+000899999V0202701N004010300019N0200001N1-00331-00471100231ADDGF106991021051008001031011KA1999M+00061MD1410001+9999REMSYN070AAXX  06151 23256 /2598 62704 11033 21047 40023 54000 82531 333 10006;
0174232560999992000050618004+67470+078730FM-12+000899999V0202301N004010114019N0200001N1-00451-00541100231ADDAA100000591GA1061+011409059GF108991061051012501071999KA1120M+00061MD1410001+9999REMSYN082AAXX  06181 23256 12698 82304 11045 21054 40023 54000 69940 8657/ 333 10006 86638;
0138232560999992000050621004+67470+078730FM-12+000899999V0202701N004010063019N0200001N1-00431-00451100231ADDGA1051+006309099GF108991081031008001999999MD1410001+9999REMSYN070AAXX  06211 23256 42598 82704 11043 21045 40023 54000 883// 333 85921;
0206232560999992000050700004+67470+078730FM-12+000899999V0202801N007010036019N0200001N1-00701-00701100291ADDAY181061AY221061GA1051+003609099GF108991081031004501999999MA1999999099951MD1210061+9999MW1021REMSYN082AAXX  07001 23256 41498 82807 11070 21070 39995 40029 52206 70282 883// 333 85912;EQDQ01+002062APC3  
0193232560999992000050706004+67470+078730FM-12+000899999V0203201N005012200019N0200001N1-00981-01241100601ADDAA100000791AY181061AY211061GF103991999999008001999999KA1999N+99999MD1210211+9999MW1021REMSYN076AAXX  07061 23256 11598 33205 11098 21124 40060 52021 69900 70281 333 21084;EQDQ01 -00842ATMN  
0112232560999992000050709004+67470+078730FM-12+000899999V0203301N005012200019N0200001N1-01031-01391100871ADDGF105991031031004501001011MD1210271+9999REMSYN060AAXX  07091 23256 42498 53305 11103 21139 40087 52027 83301;
0133232560999992000050712004+67470+078730FM-12+000899999V0203401N004012200019N0200001N1-01081-01441101081ADDGF103991021031004501001011MA1999999100731MD1210211+9999REMSYN066AAXX  07121 23256 42498 33404 11108 21144 30073 40108 52021 82301;
0135232560999992000050715004+67470+078730FM-12+000899999V0203501N003019999999N0200001N1-01361-01561101201ADDGF105991021001999999031011KA1999M-00981MD1210111+9999REMSYN070AAXX  07151 23256 /2998 53503 11136 21156 40120 52011 82031 333 11098;
0152232560999992000050718004+67470+078730FM-12+000899999V0203501N003012200019N0200001N1-01711-01901101341ADDAA100000791GF102991001001999999001011KA1999M-00981MD1210141+9999REMSYN076AAXX  07181 23256 12998 23503 11171 21190 40134 52014 69900 80001 333 11098;
0112232560999992000050721004+67470+078730FM-12+000899999V0203601N003012200019N0200001N1-01981-02101101441ADDGF102991001001999999001011MD1210091+9999REMSYN060AAXX  07211 23256 42998 23603 11198 21210 40144 52009 80001;
0133232560999992000050800004+67470+078730FM-12+000899999V0200201N003012200019N0200001N1-02061-02181101571ADDGF104991021001999999031011MA1999999101201MD1210131+9999REMSYN066AAXX  08001 23256 42998 40203 11206 21218 30120 40157 52013 82031;
0181232560999992000050803004+67470+078730FM-12+000899999V0200501N003012200019N0200001N1-01851-02041101641ADDAA199000091AJ100559199999999GF102991001001999999001011IA1289MD1210071+9999REMSYN076AAXX  08031 23256 32998 20503 11185 21204 40164 52007 80001 333 44055 55114;EQDQ01  00002PRCP99
0165232560999992000050806004+67470+078730FM-12+000899999V0200601N006012200019N0200001N1-01441-01711101651ADDAA199000091GF103991001001999999001011KA1999N-02111MD1210021+9999REMSYN070AAXX  08061 23256 32998 30606 11144 21171 40165 52002 80001 333 21211;EQDQ01  00002PRCP99
0112232560999992000050809004+67470+078730FM-12+000899999V0200601N008012200019N0200001N1-01281-01631101691ADDGF103991001001999999001011MD1210041+9999REMSYN060AAXX  08091 23256 42998 30608 11128 21163 40169 52004 80001;
0160232560999992000050812004+67470+078730FM-12+000899999V0200601N009012200019N0200001N1-01271-01621101651ADDGF102991001001999999001011MA1999999101291MD1710041+9999OA140101201REMSYN082AAXX  08121 23256 42998 20609 11127 21162 30129 40165 57004 80001 333 91012 91112;
0165232560999992000050815004+67470+078730FM-12+000899999V0200601N005019999999N0200001N1-01501-01771101581ADDAA199000091GF105991001001999999001011KA1999M-01271MD1710071+9999REMSYN070AAXX  08151 23256 32998 50605 11150 21177 40158 57007 80001 333 11127;EQDQ01  00002PRCP99
0165232560999992000050818004+67470+078730FM-12+000899999V0200301N004012200019N0200001N1-01811-02001101501ADDAA199000091GF102991001001999999001011KA1999M-01271MD1710091+9999REMSYN070AAXX  08181 23256 32998 20304 11181 21200 40150 57009 80001 333 11127;EQDQ01  00002PRCP99
0112232560999992000050821004+67470+078730FM-12+000899999V0200401N005012200019N0200001N1-01861-02051101341ADDGF102991001001999999001011MD1710161+9999REMSYN060AAXX  08211 23256 42998 20405 11186 21205 40134 57016 80001;
0133232560999992000050900004+67470+078730FM-12+000899999V0200401N007019999999N0200001N1-01721-01911101301ADDGF106991001001999999001011MA1999999100941MD1710031+9999REMSYN066AAXX  09001 23256 42998 60407 11172 21191 30094 40130 57003 80001;
0239232560999992000050903004+67470+078730FM-12+000899999V0200501N011010021019N0040001N1-01451-01651101191ADDAA199000091AJ100549199999999AY121031AY221031GA1041+002109069GF108991061051002501001061GJ110149IA1289MD1710111+9999MW1101REMSYN088AAXX  09031 23256 31396 80511 11145 21165 40119 57011 71022 86506 333 44054 55169 84707;EQDQ01  00002PRCP99
0238232560999992000050906004+67470+078730FM-12+000899999V0200501N011010021019N0040001N1-01211-01411101121ADDAA199000091AY121061AY221061GA1041+002109079GF107991051051002501001011KA1120N-01861MD1710061+9999MW1101OA140101401REMSYN094AAXX  09061 23256 31396 70511 11121 21141 40112 57006 71022 85501 333 21186 84707 91014 91114;EQDQ01  00002PRCP99
0166232560999992000050909004+67470+078730FM-12+000899999V0200301N011010750019N0005001N1-01221-01351101141ADDAY171031AY231031GA1041+002709069GF108991041061002501001061MD1210021+9999MW1731REMSYN076AAXX  09091 23256 41393 80311 11122 21135 40114 52002 77373 84606 333 84709;
0227232560999992000050912004+67470+078730FM-12+000899999V0200301N013012200019N0020001N1-01191-01321101211ADDAY171061AY231061GA1041+002109079GF106991041061002501001011MA1999999100861MD1210071+9999MW1051OA140101601OA249901601REMSYN100AAXX  09121 23256 41395 60313 11119 21132 30086 40121 52007 70573 84601 333 84707 91016 91116 92990;
0135232560999992000050915004+67470+078730FM-12+000899999V0200301N009019999999N0200001N1-01381-01511101301ADDGF107991031001999999031011KA1999M-01191MD1210081+9999REMSYN070AAXX  09151 23256 /2998 70309 11138 21151 40130 52008 83031 333 11119;
0175232560999992000050918004+67470+078730FM-12+000899999V0200301N009019999999N0200001N1-01621-01751101391ADDAA100000391GF105991051001999999031001KA1120M-01191MD1210091+9999OA140101201REMSYN088AAXX  09181 23256 12998 50309 11162 21175 40139 52009 69930 85030 333 11119 91012 91112;
0112232560999992000050921004+67470+078730FM-12+000899999V0200101N005019999999N0200001N1-01761-01881101551ADDGF106991061001999999031001MD1210051+9999REMSYN060AAXX  09211 23256 42998 60105 11176 21188 40155 52005 86030;
0133232560999992000051000004+67470+078730FM-12+000899999V0200101N005019999999N0200001N1-01731-01921101551ADDGF108991001001999999001061MA1999999101191MD1210111+9999REMSYN066AAXX  10001 23256 42998 80105 11173 21192 30119 40155 52011 80006;
0181232560999992000051003004+67470+078730FM-12+000899999V0200101N006019999999N0200001N1-01481-01751101661ADDAA199000091AJ100549199999999GF108991001001999999001041IA1289MD1210111+9999REMSYN076AAXX  10031 23256 32998 80106 11148 21175 40166 52011 80004 333 44054 55124;EQDQ01  00002PRCP99
0165232560999992000051006004+67470+078730FM-12+000899999V0203601N006019999999N0200001N1-01181-01451101751ADDAA199000091GF108991001001999999001061KA1999N-01811MD1210101+9999REMSYN070AAXX  10061 23256 32998 83606 11118 21145 40175 52010 80006 333 21181;EQDQ01  00002PRCP99
0112232560999992000051009004+67470+078730FM-12+000899999V0203501N005012200019N0200001N1-00991-01351101871ADDGF104991001001999999001011MD1210121+9999REMSYN060AAXX  10091 23256 42998 43505 11099 21135 40187 52012 80001;
0133232560999992000051012004+67470+078730FM-12+000899999V0203601N005012200019N0200001N1-00981-01341101951ADDGF104991001001999999001011MA1999999101601MD1210081+9999REMSYN066AAXX  10121 23256 42998 43605 11098 21134 30160 40195 52008 80001;
0165232560999992000051015004+67470+078730FM-12+000899999V0203501N005012200019N0200001N1-01151-01431101961ADDAA199000091GF102991001001999999001011KA1999M-00981MD1210011+9999REMSYN070AAXX  10151 23256 32998 23505 11115 21143 40196 52001 80001 333 11098;EQDQ01  00002PRCP99
0165232560999992000051018004+67470+078730FM-12+000899999V0203301N003012200019N0200001N1-01461-01591101891ADDAA199000091GF101991001001999999001011KA1999M-00981MD1710081+9999REMSYN070AAXX  10181 23256 32998 13303 11146 21159 40189 57008 80001 333 11098;EQDQ01  00002PRCP99
0122232560999992000051021004+67470+078730FM-12+000899999V0203201N003012200019N0200001N1-01611-01741101791ADDGA1001+999999999GF100991001001999999001001MD1710101+9999REMSYN054AAXX  10211 23256 42998 03203 11161 21174 40179 57010;
0153232560999992000051100004+67470+078730FM-12+000899999V0202601N002012200019N0200001N1-01811-01931101751ADDGA1001+999999999GF100991001001999999001001MA1999999101381MD1710051+9999REMSYN070AAXX  11001 23256 42998 02602 11181 21193 30138 40175 57005 333 93503;
0191232560999992000051103004+67470+078730FM-12+000899999V0202801N002012200019N0200001N1-01391-01521101631ADDAA199000091AJ100549199999999GA1001+999999999GF100991001001999999001001IA1289MD1710111+9999REMSYN070AAXX  11031 23256 32998 02802 11139 21152 40163 57011 333 44054 55171;EQDQ01  00002PRCP99
0181232560999992000051106004+67470+078730FM-12+000899999V0200601N001012200019N0200001N1-01011-01371101491ADDAA199000091GA1001+999999999GF100991001001999999001001KA1120N-01951MD1710131+9999REMSYN070AAXX  11061 23256 32998 00601 11101 21137 40149 57013 333 21195 93500;EQDQ01  00002PRCP99
0112232560999992000051109004+67470+078730FM-12+000899999V0202101N002012200019N0200001N1-00601-01231101341ADDGF102991001001999999001011MD1710141+9999REMSYN060AAXX  11091 23256 42998 22102 11060 21123 40134 57014 80001;
0133232560999992000051112004+67470+078730FM-12+000899999V0201701N002019999999N0200001N1-00601-01231101231ADDGF105991001001999999001011MA1999999100891MD1710111+9999REMSYN066AAXX  11121 23256 42998 51702 11060 21123 30089 40123 57011 80001;
0165232560999992000051115004+67470+078730FM-12+000899999V0201701N003019999999N0200001N1-00641-01141101111ADDAA199000091GF108991001001999999001061KA1999M-00601MD1710121+9999REMSYN070AAXX  11151 23256 32998 81703 11064 21114 40111 57012 80006 333 11060;EQDQ01  00002PRCP99
0165232560999992000051118004+67470+078730FM-12+000899999V0202001N004019999999N0200001N1-00731-01371101051ADDAA199000091GF108991001001999999001061KA1999M-00601MD1710061+9999REMSYN070AAXX  11181 23256 32998 82004 11073 21137 40105 57006 80006 333 11060;EQDQ01  00002PRCP99
0112232560999992000051121004+67470+078730FM-12+000899999V0202001N007019999999N0200001N1-00691-01421100871ADDGF108991001001999999001061MD1710181+9999REMSYN060AAXX  11211 23256 42998 82007 11069 21142 40087 57018 80006;
0133232560999992000051200004+67470+078730FM-12+000899999V0202101N008019999999N0200001N1-00551-01371100851ADDGF108991061001999999031061MA1999999100511MD1710021+9999REMSYN066AAXX  12001 23256 42998 82108 11055 21137 30051 40085 57002 86036;
0181232560999992000051203004+67470+078730FM-12+000899999V0202001N007019999999N0200001N1-00371-01081100801ADDAA199000091AJ100539199999999GF108991081001999999071999IA1289MD1710051+9999REMSYN076AAXX  12031 23256 32998 82007 11037 21108 40080 57005 8807/ 333 44053 55157;EQDQ01  00002PRCP99
0165232560999992000051206004+67470+078730FM-12+000899999V0202101N007019999999N0200001N1-00091-00741100801ADDAA199000091GF108991051001999999011061KA1999N-00741MD1410001+9999REMSYN070AAXX  12061 23256 32998 82107 11009 21074 40080 54000 85016 333 21074;EQDQ01  00002PRCP99
0112232560999992000051209004+67470+078730FM-12+000899999V0202101N006019999999N0200001N1+00101-00501100831ADDGF108991051001999999031061MD1210031+9999REMSYN060AAXX  12091 23256 42998 82106 10010 21050 40083 52003 85036;
0133232560999992000051212004+67470+078730FM-12+000899999V0202201N007019999999N0200001N1+00171-00341100891ADDGF108991041001999999031061MA1999999100551MD1210061+9999REMSYN066AAXX  12121 23256 42998 82207 10017 21034 30055 40089 52006 84036;
0187232560999992000051215004+67470+078730FM-12+000899999V0202101N007010123019N0200001N1+00161-00351100911ADDAA199000091GA1061+012309059GF108991061051012501071999KA1120M+00171MD1210021+9999REMSYN076AAXX  12151 23256 32698 82107 10016 21035 40091 52002 8657/ 333 10017 86641;EQDQ01  00002PRCP99
0165232560999992000051218004+67470+078730FM-12+000899999V0201901N007019999999N0200001N1+00061-00551100971ADDAA199000091GF108991041001999999031061KA1999M+00171MD1210061+9999REMSYN070AAXX  12181 23256 32998 81907 10006 21055 40097 52006 84036 333 10017;EQDQ01  00002PRCP99
0112232560999992000051221004+67470+078730FM-12+000899999V0201901N007019999999N0200001N1-00011-00621101051ADDGF108991041001999999031061MD1210081+9999REMSYN060AAXX  12211 23256 42998 81907 11001 21062 40105 52008 84036;
0133232560999992000051300004+67470+078730FM-12+000899999V0201801N008019999999N0200001N1-00131-00761101091ADDGF105991021001999999031011MA1999999100751MD1210041+9999REMSYN066AAXX  13001 23256 42998 51808 11013 21076 30075 40109 52004 82031;
0181232560999992000051303004+67470+078730FM-12+000899999V0202201N009019999999N0200001N1-00041-00581101161ADDAA199000091AJ100509199999999GF105991001001999999001011IA1289MD1210071+9999REMSYN076AAXX  13031 23256 32998 52209 11004 21058 40116 52007 80001 333 44050 55000;EQDQ01  00002PRCP99
0171232560999992000051306004+67470+078730FM-12+000899999V0202101N006019999999N0200001N1+00281-00411101261ADDAA199000091GF106991001001999999001011KA1120N-00131MD1210111+9999REMSYN076AAXX  13061 23256 32998 62106 10028 21041 40126 52011 80001 333 21013 91112;EQDQ01  00002PRCP99
0112232560999992000051309004+67470+078730FM-12+000899999V0202001N007019999999N0200001N1+00381-00421101381ADDGF105991001001999999001011MD1210121+9999REMSYN060AAXX  13091 23256 42998 52007 10038 21042 40138 52012 80001;
0133232560999992000051312004+67470+078730FM-12+000899999V0202001N007019999999N0200001N1+00391-00451101471ADDGF105991001001999999001011MA1999999101141MD1210091+9999REMSYN066AAXX  13121 23256 42998 52007 10039 21045 30114 40147 52009 80001;
0165232560999992000051315004+67470+078730FM-12+000899999V0201801N006012200019N0200001N1-00281-00491101541ADDAA199000091GF103991001001999999001011KA1999M+00391MD1210071+9999REMSYN070AAXX  13151 23256 32998 31806 11028 21049 40154 52007 80001 333 10039;EQDQ01  00002PRCP99
0165232560999992000051318004+67470+078730FM-12+000899999V0201801N006012200019N0200001N1+00181-00711101681ADDAA199000091GF102991001001999999001011KA1999M+00391MD1210131+9999REMSYN070AAXX  13181 23256 32998 21806 10018 21071 40168 52013 80001 333 10039;EQDQ01  00002PRCP99
0112232560999992000051321004+67470+078730FM-12+000899999V0201901N004012200019N0200001N1-00081-00771101711ADDGF102991001001999999001011MD1210031+9999REMSYN060AAXX  13211 23256 42998 21904 11008 21077 40171 52003 80001;
0143232560999992000051400004+67470+078730FM-12+000899999V0201901N007012200019N0200001N1+00031-00671101761ADDGF102991001001999999001011MA1999999101421MD1210051+9999REMSYN076AAXX  14001 23256 42998 21907 10003 21067 30142 40176 52005 80001 333 1/102;
0191232560999992000051403004+67470+078730FM-12+000899999V0201801N006012200019N0200001N1+00291-00361101771ADDAA199000091AJ100439199999999GA1001+999999999GF100991001001999999001001IA1289MD1210021+9999REMSYN070AAXX  14031 23256 32998 01806 10029 21036 40177 52002 333 44043 55160;EQDQ01  00002PRCP99
0175232560999992000051406004+67470+078730FM-12+000899999V0201901N007012200019N0200001N1+00461-00311101841ADDAA199000091GA1001+999999999GF100991001001999999001001KA1999N-00151MD1210061+9999REMSYN064AAXX  14061 23256 32998 01907 10046 21031 40184 52006 333 21015;EQDQ01  00002PRCP99
0112232560999992000051409004+67470+078730FM-12+000899999V0201801N008012200019N0200001N1+00651-00371101921ADDGF101991001001999999001011MD1210081+9999REMSYN060AAXX  14091 23256 42998 11808 10065 21037 40192 52008 80001;
0143232560999992000051412004+67470+078730FM-12+000899999V0201701N005012200019N0200001N1+00561-00391101981ADDGA1001+999999999GF100991001001999999001001MA1999999101641MD1210061+9999REMSYN060AAXX  14121 23256 42998 01705 10056 21039 30164 40198 52006;
0175232560999992000051415004+67470+078730FM-12+000899999V0201601N005012200019N0200001N1+00491-00381102011ADDAA199000091GA1001+999999999GF100991001001999999001001KA1999M+00651MD1210031+9999REMSYN064AAXX  14151 23256 32998 01605 10049 21038 40201 52003 333 10065;EQDQ01  00002PRCP99
0171232560999992000051418004+67470+078730FM-12+000899999V0201601N005012200019N0200001N1+00291-00511102011ADDAA199000091GF101991011001999999031001KA1120M+00651MD1410001+9999REMSYN076AAXX  14181 23256 32998 11605 10029 21051 40201 54000 81030 333 10065 50032;EQDQ01  00002PRCP99
0112232560999992000051421004+67470+078730FM-12+000899999V0201501N003012200019N0200001N1+00101-00581102011ADDGF102991001001999999001011MD1410001+9999REMSYN060AAXX  14211 23256 42998 21503 10010 21058 40201 54000 80001;
0133232560999992000051500004+67470+078730FM-12+000899999V0201301N004012200019N0200001N1+00231-00601101991ADDGF101991001001999999001011MA1999999101651MD1710021+9999REMSYN066AAXX  15001 23256 42998 11304 10023 21060 30165 40199 57002 80001;
0191232560999992000051503004+67470+078730FM-12+000899999V0201401N005012200019N0200001N1+00431-00321101991ADDAA199000091AJ100329199999999GA1001+999999999GF100991001001999999001001IA1309MD1410001+9999REMSYN070AAXX  15031 23256 32998 01405 10043 21032 40199 54000 333 42032 55177;EQDQ01  00002PRCP99
0175232560999992000051506004+67470+078730FM-12+000899999V0201401N005012200019N0200001N1+00531-00321101951ADDAA199000091GA1001+999999999GF100991001001999999001001KA1999N+00061MD1710041+9999REMSYN064AAXX  15061 23256 32998 01405 10053 21032 40195 57004 333 20006;EQDQ01  00002PRCP99
0122232560999992000051509004+67470+078730FM-12+000899999V0201501N005012200019N0200001N1+00581-00321101871ADDGA1001+999999999GF100991001001999999001001MD1710081+9999REMSYN054AAXX  15091 23256 42998 01505 10058 21032 40187 57008;
0143232560999992000051512004+67470+078730FM-12+000899999V0201401N007012200019N0200001N1+00541-00341101811ADDGA1001+999999999GF100991001001999999001001MA1999999101481MD1710051+9999REMSYN060AAXX  15121 23256 42998 01407 10054 21034 30148 40181 57005;
0175232560999992000051515004+67470+078730FM-12+000899999V0201401N004012200019N0200001N1+00521-00301101751ADDAA199000091GA1001+999999999GF100991001001999999001001KA1999M+00581MD1710061+9999REMSYN064AAXX  15151 23256 32998 01404 10052 21030 40175 57006 333 10058;EQDQ01  00002PRCP99
0175232560999992000051518004+67470+078730FM-12+000899999V0201401N005012200019N0200001N1+00381-00311101641ADDAA199000091GA1001+999999999GF100991001001999999001001KA1999M+00581MD1710111+9999REMSYN064AAXX  15181 23256 32998 01405 10038 21031 40164 57011 333 10058;EQDQ01  00002PRCP99
0122232560999992000051521004+67470+078730FM-12+000899999V0201401N005012200019N0200001N1+00341-00331101531ADDGA1001+999999999GF100991001001999999001001MD1710111+9999REMSYN054AAXX  15211 23256 42998 01405 10034 21033 40153 57011;
0143232560999992000051600004+67470+078730FM-12+000899999V0201401N005012200019N0200001N1+00381-00281101441ADDGA1001+999999999GF100991001001999999001001MA1999999101111MD1710091+9999REMSYN060AAXX  16001 23256 42998 01405 10038 21028 30111 40144 57009;
0191232560999992000051603004+67470+078730FM-12+000899999V0201401N005012200019N0200001N1+00511-00241101391ADDAA199000091AJ100209199999999GA1001+999999999GF100991001001999999001001IA1309MD1710051+9999REMSYN070AAXX  16031 23256 32998 01405 10051 21024 40139 57005 333 42020 55183;EQDQ01  00002PRCP99
0165232560999992000051606004+67470+078730FM-12+000899999V0201401N003019999999N0500001N1+00591-00271101251ADDAA199000091GF106991001001999999001011KA1999N+00321MD1710141+9999REMSYN070AAXX  16061 23256 32999 61403 10059 21027 40125 57014 80001 333 20032;EQDQ01  00002PRCP99
0112232560999992000051609004+67470+078730FM-12+000899999V0201401N003019999999N0500001N1+00751-00121101261ADDGF106991001001999999001011MD1210011+9999REMSYN060AAXX  16091 23256 42999 61403 10075 21012 40126 52001 80001;
0133232560999992000051612004+67470+078730FM-12+000899999V0201501N003019999999N0500001N1+00691-00041101241ADDGF107991021051999999031011MA1999999100911MD1710021+9999REMSYN066AAXX  16121 23256 42999 71503 10069 21004 30091 40124 57002 82531;
0187232560999992000051615004+67470+078730FM-12+000899999V0201401N002010150019N0500001N1+00481+00041101271ADDAA199000091GA1051+015009059GF108991051051017501071999KA1120M+00751MD1210031+9999REMSYN076AAXX  16151 23256 32799 81402 10048 20004 40127 52003 8557/ 333 10075 85650;EQDQ01  00002PRCP99
0165232560999992000051618004+67470+078730FM-12+000899999V0200901N001019999999N0200001N1+00351+00121101201ADDAA199000091GF108991081001999999071999KA1999M+00751MD1710071+9999REMSYN070AAXX  16181 23256 32998 80901 10035 20012 40120 57007 8807/ 333 10075;EQDQ01  00002PRCP99
0112232560999992000051621004+67470+078730FM-12+000899999V0201001N001019999999N0200001N1+00241+00051101021ADDGF108991041001999999031061MD1710181+9999REMSYN060AAXX  16211 23256 42998 81001 10024 20005 40102 57018 84036;
0133232560999992000051700004+67470+078730FM-12+000899999V0200101N001019999999N0200001N1+00251+00011100841ADDGF107991031001999999031011MA1999999100511MD1710181+9999REMSYN066AAXX  17001 23256 42998 70101 10025 20001 30051 40084 57018 83031;
0181232560999992000051703004+67470+078730FM-12+000899999V0201101N004010300019N0500001N1+00401+00121100701ADDAA199000091AJ100129199999999GF107991021051008001031001IA1309MD1710141+9999REMSYN076AAXX  17031 23256 32599 71104 10040 20012 40070 57014 82530 333 42012 55119;EQDQ01  00002PRCP99
0140232560999992000051709004+67470+078730FM-12+000899999V0201601N004019999999N0500001N1+00711+00361100921ADDAY161031AY221031GF105991021001999999031011MD1210231+9999MW1021REMSYN066AAXX  17091 23256 41999 51604 10071 20036 40092 52023 70262 82031;
0171232560999992000051712004+67470+078730FM-12+000899999V0201401N004012200019N0500001N1+00671+00361101041ADDAY161061AY211061GA1001+999999999GF100991001001999999001001MA1999999100711MD1210121+9999MW1021REMSYN066AAXX  17121 23256 41999 01404 10067 20036 30071 40104 52012 70261;
0135232560999992000051715004+67470+078730FM-12+000899999V0201501N003019999999N0500001N1+00471+00331101071ADDGF106991061001999999031001KA1999M+00711MD1210031+9999REMSYN070AAXX  17151 23256 /2999 61503 10047 20033 40107 52003 86030 333 10071;
0193232560999992000051718004+67470+078730FM-12+000899999V0201701N003010150019N0500001N1+00461+00361101161ADDAA100000791GA1061+015009059GF106991061051017501999001KA1120M+00711MD1210091+9999REMSYN082AAXX  17181 23256 12799 61703 10046 20036 40116 52009 69900 86500 333 10071 86650;EQDQ01    003SCOMCG
0112232560999992000051721004+67470+078730FM-12+000899999V0201301N003010300019N0500001N1+00161+00081101251ADDGF106991021051017501011001MD1210081+9999REMSYN060AAXX  17211 23256 42799 61303 10016 20008 40125 52008 82510;
0171232560999992000051800004+67470+078730FM-12+000899999V0201301N002010003019N0002001N1+00091+00091101291ADDAY121061AY221061GA1091+999999999GF109991091999999999999999MA1999999100951MD1210041+9999MW1471REMSYN066AAXX  18001 23256 41/92 91302 10009 20009 30095 40129 52004 74722;
0219232560999992000051803004+67470+078730FM-12+000899999V0201301N002010003019N0002001N1+00201+00201101311ADDAA199000091AJ100049199999999AY121031AY221031GA1091+999999999GF109991091999999999999999IA1309MD1210031+9999MW1471REMSYN076AAXX  18031 23256 31/92 91302 10020 20020 40131 52003 74722 333 42004 55092;EQDQ01  00002PRCP99
0203232560999992000051806004+67470+078730FM-12+000899999V0201001N003010003019N0005001N1+00381+00381101301ADDAA199000091AY141061AY221061GA1091+999999999GF109991091999999999999999KA1999N+00071MD1710011+9999MW1431REMSYN070AAXX  18061 23256 31/93 91003 10038 20038 40130 57001 74342 333 20007;EQDQ01  00002PRCP99
0142232560999992000051809004+67470+078730FM-12+000899999V0200701N003010003019N0002001N1+00441+00441101321ADDAY121031GA1091+999999999GF109991091999999999999999MD1210021+9999MW1541REMSYN060AAXX  18091 23256 41/92 90703 10044 20044 40132 52002 7542/;
0161232560999992000051812004+67470+078730FM-12+000899999V0200601N003012200019N0500001N1+00501+00301101261ADDAY141061AY211061GF102991001001999999001021MA1999999100931MD1710061+9999MW1021REMSYN072AAXX  18121 23256 41999 20603 10050 20030 30093 40126 57006 70241 80002;
0146232560999992000051815004+67470+078730FM-12+000899999V0200901N002012200019N0500001N1+00501+00201101171ADDAA199000021GF103991021001999999031011KA1999M+00501MD1710091+9999REMSYN070AAXX  18151 23256 32999 30902 10050 20020 40117 57009 82031 333 10050;
0146232560999992000051818004+67470+078730FM-12+000899999V0201201N002010075019N0200001N1+00471+00191101151ADDAA199000021GF106991051051008001031001KA1999M+00501MD1710021+9999REMSYN070AAXX  18181 23256 32598 61202 10047 20019 40115 57002 85530 333 10050;
0112232560999992000051821004+67470+078730FM-12+000899999V0201301N003010300019N0500001N1+00401+00141101131ADDGF106991021051008001031001MD1710021+9999REMSYN060AAXX  18211 23256 42599 61303 10040 20014 40113 57002 82530;
0133232560999992000051900004+67470+078730FM-12+000899999V0201001N002012200019N0500001N1+00481+00121101081ADDGF102991001001999999001011MA1999999100751MD1710051+9999REMSYN066AAXX  19001 23256 42999 21002 10048 20012 30075 40108 57005 80001;
0207232560999992000051903004+67470+078730FM-12+000899999V0200601N002012200019N0500001N1+00811-00141101051ADDAA199000091AJ199992999999999GA1001+999999999GF100991001001999999001001IA1309MD1710031+9999REMSYN070AAXX  19031 23256 32999 00602 10081 21014 40105 57003 333 42998 55070;EQDQ01  00002PRCP99Q02  09972SNDP  
0175232560999992000051906004+67470+078730FM-12+000899999V0200601N002012200019N0500001N1+01061-00071100971ADDAA199000091GA1001+999999999GF100991001001999999001001KA1999N+00351MD1710081+9999REMSYN064AAXX  19061 23256 32999 00602 10106 21007 40097 57008 333 20035;EQDQ01  00002PRCP99
0122232560999992000051909004+67470+078730FM-12+000899999V0200601N002012200019N0500001N1+01121+00001100911ADDGA1001+999999999GF100991001001999999001001MD1710061+9999REMSYN054AAXX  19091 23256 42999 00602 10112 20000 40091 57006;
0143232560999992000051912004+67470+078730FM-12+000899999V0200501N002012200019N0500001N1+01001+00231100871ADDGA1001+999999999GF100991001001999999001001MA1999999100541MD1710041+9999REMSYN060AAXX  19121 23256 42999 00502 10100 20023 30054 40087 57004;
0175232560999992000051915004+67470+078730FM-12+000899999V0200501N002012200019N0500001N1+00731+00231100871ADDAA199000091GA1001+999999999GF100991001001999999001001KA1999M+01121MD1410001+9999REMSYN064AAXX  19151 23256 32999 00502 10073 20023 40087 54000 333 10112;EQDQ01  00002PRCP99
0175232560999992000051918004+67470+078730FM-12+000899999V0200401N003012200019N0500001N1+00391+00291100871ADDAA199000091GA1001+999999999GF100991001001999999001001KA1999M+01121MD1410001+9999REMSYN064AAXX  19181 23256 32999 00403 10039 20029 40087 54000 333 10112;EQDQ01  00002PRCP99
0112232560999992000051921004+67470+078730FM-12+000899999V0203401N002012200019N0200001N1+00291-00161100901ADDGF101991001001999999001011MD1210031+9999REMSYN060AAXX  19211 23256 42998 13402 10029 21016 40090 52003 80001;
0133232560999992000052000004+67470+078730FM-12+000899999V0203601N003012200019N0100001N1+00211+00211100941ADDGF102991001001999999001011MA1999999100611MD1210041+9999REMSYN066AAXX  20001 23256 42997 23603 10021 20021 30061 40094 52004 80001;
0215232560999992000052006004+67470+078730FM-12+000899999V0200301N006010015019N0200001N1+00161+00161101121ADDAA199000091AY141061AY221061GA1051+001509069GF108991081051001501999999KA1120N+00061MD1210071+9999MW1021REMSYN082AAXX  20061 23256 31298 80306 10016 20016 40112 52007 70242 885// 333 20006 85705;EQDQ01  00002PRCP99
0168232560999992000052009004+67470+078730FM-12+000899999V0200301N005010021019N0200001N1+00301+00251101181ADDAA199000091GA1041+002109069GF108991081051002501999999MD1210071+9999REMSYN070AAXX  20091 23256 32398 80305 10030 20025 40118 52007 885// 333 84707;EQDQ01  00002PRCP99
0159232560999992000052012004+67470+078730FM-12+000899999V0200401N005010033019N0200001N1+00191+00081101241ADDGA1051+003309099GF108991081031004501999999MA1999999100911MD1210061+9999REMSYN076AAXX  20121 23256 42498 80405 10019 20008 30091 40124 52006 883// 333 85911;
0187232560999992000052015004+67470+078730FM-12+000899999V0200401N005010045019N0500001N1+00041-00071101231ADDAA199000091GA1051+004509099GF108991081031004501999999KA1120M+00301MD1710021+9999REMSYN076AAXX  20151 23256 32499 80405 10004 21007 40123 57002 883// 333 10030 85915;EQDQ01  00002PRCP99
0187232560999992000052018004+67470+078730FM-12+000899999V0200301N005019999999N0500001N1-00051-00171101251ADDAA199000091GA1041+003909099GF108991081031999999999999KA1120M+00301MD1210021+9999REMSYN076AAXX  20181 23256 32999 80305 11005 21017 40125 52002 883// 333 10030 84913;EQDQ01  00002PRCP99
0112232560999992000052021004+67470+078730FM-12+000899999V0200301N005010300019N0500001N1-00191-00271101211ADDGF108991031051008001071999MD1710041+9999REMSYN060AAXX  20211 23256 42599 80305 11019 21027 40121 57004 8357/;
0159232560999992000052100004+67470+078730FM-12+000899999V0200201N00401004201CN0000001N1-00231-00351101181ADDGA1041+003309099GF108991081031004501999999MA1999999100841MD1710031+9999REMSYN076AAXX  21001 23256 42490 80204 11023 21035 30084 40118 57003 883// 333 84911;
0227232560999992000052103004+67470+078730FM-12+000899999V0200401N004010042019N0500001N1-00191-00371101141ADDAA199000091AJ199992999999999GA1051+004209099GF108991081031004501999999GJ101449IA1309MD1710041+9999REMSYN082AAXX  21031 23256 32499 80404 11019 21037 40114 57004 883// 333 42998 55024 85914;EQDQ01  00002PRCP99Q02  09972SNDP  
0215232560999992000052106004+67470+078730FM-12+000899999V0200501N00401004201CN0500001N1-00081-00431101101ADDAA199000091AY181061AY221061GA1041+004509099GF107991071031004501001001KA1120N-00231MD1710041+9999MW1021REMSYN082AAXX  21061 23256 31499 70504 11008 21043 40110 57004 70282 87300 333 21023 84915;EQDQ01  00002PRCP99
0112232560999992000052109004+67470+078730FM-12+000899999V0200101N002019999999N0200001N1+00051-00491101051ADDGF105991031001999999031011MD1710051+9999REMSYN060AAXX  21091 23256 42998 50102 10005 21049 40105 57005 83031;
0133232560999992000052112004+67470+078730FM-12+000899999V0203001N002019999999N0500001N1+00161-00581100941ADDGF106991041001999999031011MA1999999100601MD1710111+9999REMSYN066AAXX  21121 23256 42999 63002 10016 21058 30060 40094 57011 84031;
0157232560999992000052115004+67470+078730FM-12+000899999V0202901N004010138019N0500001N1+00021-00281100811ADDGA1071+013809059GF107991071051012501001001KA1120M+00161MD1710131+9999REMSYN076AAXX  21151 23256 /2699 72904 10002 21028 40081 57013 87500 333 10016 87646;
0174232560999992000052118004+67470+078730FM-12+000899999V0202701N002010093019N0500001N1-00061-00241100701ADDAA100000791GA1081+009309059GF108991081051008001999999KA1120M+00161MD1710111+9999REMSYN082AAXX  21181 23256 12599 82702 11006 21024 40070 57011 69900 885// 333 10016 88631;
0158232560999992000052121004+67470+078730FM-12+000899999V0209999C00001000601CN0040001N1-00191-00341100591ADDAW1851AZ181031GA1041+001509069GF108991081031000751999999MD1710011+9999REMSYN076AAXX  21211 23256 /4196 80000 11019 21034 40059 57001 78582 883// 333 84705;
0170232560999992000052203004+67470+078730FM-12+000899999V0200201N002012200019N0500001N1+00091-00201100721ADDAJ199992999999999GF105991031051008001001011IA1309MD1210111+9999REMSYN076AAXX  22031 23256 /2599 50202 10009 21020 40072 52011 83501 333 42998 55060;EQDQ01  09972SNDP  
0174232560999992000052206004+67470+078730FM-12+000899999V0203001N00401004201CN0500001N1+00291-00131100891ADDAA100000591GA1041+004509099GF107991061031004501031001KA1120N-00201MD1210181+9999REMSYN082AAXX  22061 23256 12499 73004 10029 21013 40089 52018 69940 86330 333 21020 84915;
0138232560999992000052209004+67470+078730FM-12+000899999V0202901N006010051019N0500001N1+00291-00101101011ADDGA1051+005109099GF108991081031004501999999MD1210121+9999REMSYN070AAXX  22091 23256 42499 82906 10029 21010 40101 52012 883// 333 85917;
0159232560999992000052212004+67470+078730FM-12+000899999V0203401N005010039019N0500001N1+00191+00031101161ADDGA1051+003909099GF108991081031004501999999MA1999999100831MD1210151+9999REMSYN076AAXX  22121 23256 42499 83405 10019 20003 30083 40116 52015 883// 333 85913;
0187232560999992000052215004+67470+078730FM-12+000899999V0203201N004010048019N0500001N1+00171-00021101241ADDAA199000091GA1061+004809099GF108991081031004501999999KA1120M+00291MD1210071+9999REMSYN076AAXX  22151 23256 32499 83204 10017 21002 40124 52007 883// 333 10029 86916;EQDQ01  00002PRCP99
0187232560999992000052218004+67470+078730FM-12+000899999V0202001N003010048019N0500001N1+00061-00141101311ADDAA199000091GA1051+004809099GF108991081031004501999999KA1120M+00291MD1210071+9999REMSYN076AAXX  22181 23256 32499 82003 10006 21014 40131 52007 883// 333 10029 85916;EQDQ01  00002PRCP99
0138232560999992000052221004+67470+078730FM-12+000899999V0202601N003010045019N0500001N1+00021-00121101311ADDGA1061+004509099GF108991081031004501999999MD1410001+9999REMSYN070AAXX  22211 23256 42499 82603 10002 21012 40131 54000 883// 333 86915;
0159232560999992000052300004+67470+078730FM-12+000899999V0202101N004010036019N0200001N1+00081-00031101191ADDGA1051+003609099GF108991081031004501999999MA1999999100851MD1710121+9999REMSYN076AAXX  23001 23256 42498 82104 10008 21003 30085 40119 57012 883// 333 85912;
0228232560999992000052303004+67470+078730FM-12+000899999V0202101N007010066019N0500001N1+00331+00201100891ADDAJ199992999999999AY181031AY221031GA1051+006609099GF108991081031008001999999GJ103309IA1309MD1710291+9999MW1021REMSYN088AAXX  23031 23256 /1599 82107 10033 20020 40089 57029 70282 883// 333 42998 55055 85922;EQDQ01  09972SNDP  
0203232560999992000052306004+67470+078730FM-12+000899999V0202401N010012200019N0500001N1+00871+00171100671ADDAA100000791AY181061AY211061GF103991021001999999031011KA1120N+00021MD1710211+9999MW1021OA140101301REMSYN094AAXX  23061 23256 11999 32410 10087 20017 40067 57021 69900 70281 82031 333 20002 91013 91113;
0112232560999992000052309004+67470+078730FM-12+000899999V0202301N008010300019N0500001N1+01121+00211100491ADDGF107991031051008001031001MD1710181+9999REMSYN060AAXX  23091 23256 42599 72308 10112 20021 40049 57018 83530;
0161232560999992000052312004+67470+078730FM-12+000899999V0202501N007010300019N0500001N1+01161+00211100341ADDAY181061AY211061GF106991031051008001031001MA1999999100021MD1710151+9999MW1021REMSYN072AAXX  23121 23256 41599 62507 10116 20021 30002 40034 57015 70281 83530;
0157232560999992000052315004+67470+078730FM-12+000899999V0202901N012010015019N0200001N1+00191+00111100431ADDGA1081+001509069GF108991081061001501999999KA1120M+01161MD1210081+9999REMSYN076AAXX  23151 23256 /2298 82912 10019 20011 40043 52008 886// 333 10116 88705;
0197232560999992000052318004+67470+078730FM-12+000899999V0202901N012010021019N0200001N1+00181+00181100481ADDAA100000791GA1081+002109079GF108991081061002501999999KA1120M+01161MD1210051+9999OA140101501REMSYN094AAXX  23181 23256 12398 82912 10018 20018 40048 52005 69900 886// 333 10116 88707 91015 91116;
0132232560999992000052321004+67470+078730FM-12+000899999V02099999999990012019N0200001N1+99999+99999100561ADDGA1081+001209069GF108991081061001501999999MD1210071+9999REMSYN064AAXX  23211 23256 42298 83822 20008 40056 52007 886// 333 88704;
0210232560999992000052400004+67470+078730FM-12+000899999V0202801N01001001201CN0200001N1+00051+00051100671ADDAY161061AY221061GA1041+001509079GF108991081051001501999999MA1999999100331MD1210111+9999MW1611OA140101301REMSYN094AAXX  24001 23256 41298 82810 10005 20005 30033 40067 52011 76162 885// 333 84705 91013 91115;
0228232560999992000052403004+67470+078730FM-12+000899999V0202801N010010021019N0040001N1+00121+00041100761ADDAJ199992999999999AY181031AY221031GA1051+002109069GF108991081031002501999999GJ103549IA1309MD1210091+9999MW1851REMSYN088AAXX  24031 23256 /1396 82810 10012 20004 40076 52009 78582 883// 333 42998 55059 85707;EQDQ01  09972SNDP  
0225232560999992000052406004+67470+078730FM-12+000899999V0202801N009010018019N0100001N1+00251+00221100861ADDAA100000391AY181061AY221061GA1061+001809079GF108991081031002501999999KA1120N+00031MD1210111+9999MW1831OA140101201REMSYN100AAXX  24061 23256 11397 82809 10025 20022 40086 52011 69930 78382 883// 333 20003 86706 91012 91114;
0166232560999992000052409004+67470+078730FM-12+000899999V0202901N010010051019N0200001N1+00271+00091101051ADDAY181031AY281031GA1051+005109099GF108991081031004501999999MD1210191+9999MW1261REMSYN076AAXX  24091 23256 41498 82910 10027 20009 40105 52019 72688 883// 333 85917;
0210232560999992000052412004+67470+078730FM-12+000899999V0202901N009010060019N0200001N1+00161-00151101231ADDAY181061AY281061GA1061+006009099GF108991081031008001999999MA1999999100891MD1210171+9999MW1021OA140101201REMSYN094AAXX  24121 23256 41598 82909 10016 21015 30089 40123 52017 70288 883// 333 86920 91012 91114;
0157232560999992000052415004+67470+078730FM-12+000899999V0203201N007010060019N0200001N1+00101-00361101311ADDGA1051+006009099GF106991061031008001001001KA1120M+00271MD1210081+9999REMSYN076AAXX  24151 23256 /2598 63207 10010 21036 40131 52008 86300 333 10027 85920;
0174232560999992000052418004+67470+078730FM-12+000899999V0202801N00301007501CN0500001N1-00021-00291101341ADDAA100000591GA1041+006909099GF108991081031008001999999KA1120M+00271MD1210071+9999REMSYN082AAXX  24181 23256 12599 82803 11002 21029 40134 52007 69950 883// 333 10027 84923;
0138232560999992000052421004+67470+078730FM-12+000899999V0202501N003010081019N0500001N1-00041-00221101351ADDGA1051+008109059GF108991051051008001071999MD1710031+9999REMSYN070AAXX  24211 23256 42599 82503 11004 21022 40135 57003 8557/ 333 85627;
0159232560999992000052500004+67470+078730FM-12+000899999V0202401N001010072019N0500001N1-00011-00151101361ADDGA1051+007209059GF108991051051008001071999MA1999999101021MD1210011+9999REMSYN076AAXX  25001 23256 42599 82401 11001 21015 30102 40136 52001 8557/ 333 85624;
0227232560999992000052503004+67470+078730FM-12+000899999V0201801N001010042019N0500001N1+00101-00251101281ADDAA199000091AJ199992999999999GA1051+004209099GF108991081031004501999999GJ100789IA1259MD1710081+9999REMSYN082AAXX  25031 23256 32499 81801 10010 21025 40128 57008 883// 333 41998 55013 85914;EQDQ01  00002PRCP99Q02  09972SNDP  
0215232560999992000052506004+67470+078730FM-12+000899999V0202901N006010033019N0200001N1+00181-00301101231ADDAA199000091AY181061AY221061GA1051+003309099GF108991081031004501999999KA1120N-00041MD1710051+9999MW1021REMSYN082AAXX  25061 23256 31498 82906 10018 21030 40123 57005 70282 883// 333 21004 85911;EQDQ01  00002PRCP99
0138232560999992000052509004+67470+078730FM-12+000899999V0203301N006010048019N0500001N1+00091-00481101311ADDGA1051+004809099GF108991081031004501999999MD1210081+9999REMSYN070AAXX  25091 23256 42499 83306 10009 21048 40131 52008 883// 333 85916;
0187232560999992000052512004+67470+078730FM-12+000899999V0203401N005010060019N0500001N1+00021-00421101451ADDAY121061AY221061GA1051+006009099GF108991081031008001999999MA1999999101111MD1210141+9999MW1271REMSYN082AAXX  25121 23256 41599 83405 10002 21042 30111 40145 52014 72722 883// 333 85920;
0135232560999992000052515004+67470+078730FM-12+000899999V0203501N005010300019N0500001N1-00051-00681101471ADDGF107991021031008001031001KA1999M+00181MD1210021+9999REMSYN070AAXX  25151 23256 /2599 73505 11005 21068 40147 52002 82330 333 10018;
0174232560999992000052518004+67470+078730FM-12+000899999V0203401N00201007501CN0500001N1-00131-00721101541ADDAA100000791GA1041+006309099GF108991081031008001999999KA1120M+00181MD1210071+9999REMSYN082AAXX  25181 23256 12599 83402 11013 21072 40154 52007 69900 883// 333 10018 84921;
0138232560999992000052521004+67470+078730FM-12+000899999V0200101N003010081019N0500001N1-00121-00791101591ADDGA1061+008109059GF107991061051008001031001MD1210051+9999REMSYN070AAXX  25211 23256 42599 70103 11012 21079 40159 52005 86530 333 86627;
0133232560999992000052600004+67470+078730FM-12+000899999V0200501N004012200019N0500001N1-00081-00571101641ADDGF101991011051008001001001MA1999999101301MD1210051+9999REMSYN066AAXX  26001 23256 42599 10504 11008 21057 30130 40164 52005 81500;
0197232560999992000052603004+67470+078730FM-12+000899999V0200801N003012200019N0500001N1+00111-00821101711ADDAA199000091AJ199992999999999GF106991021051004501001011IA1259MD1210071+9999REMSYN076AAXX  26031 23256 32499 60803 10011 21082 40171 52007 82501 333 41998 55000;EQDQ01  00002PRCP99Q02  09972SNDP  
0165232560999992000052606004+67470+078730FM-12+000899999V0201101N005019999999N0500001N1+00251-00831101671ADDAA199000091GF106991001001999999001011KA1999N-00151MD1710031+9999REMSYN070AAXX  26061 23256 32999 61105 10025 21083 40167 57003 80001 333 21015;EQDQ01  00002PRCP99
0112232560999992000052609004+67470+078730FM-12+000899999V0201101N004019999999N0200001N1+00421-00741101641ADDGF108991001001999999001061MD1710031+9999REMSYN060AAXX  26091 23256 42998 81104 10042 21074 40164 57003 80006;
0133232560999992000052612004+67470+078730FM-12+000899999V0201101N004019999999N0500001N1+00501-00691101591ADDGF106991001001999999001011MA1999999101261MD1710051+9999REMSYN066AAXX  26121 23256 42999 61104 10050 21069 30126 40159 57005 80001;
0165232560999992000052615004+67470+078730FM-12+000899999V0201001N004012200019N0500001N1+00361-00841101521ADDAA199000091GF103991021001999999031011KA1999M+00501MD1710071+9999REMSYN070AAXX  26151 23256 32999 31004 10036 21084 40152 57007 82031 333 10050;EQDQ01  00002PRCP99
0165232560999992000052618004+67470+078730FM-12+000899999V0200901N005019999999N0500001N1+00091-00511101511ADDAA199000091GF107991071001999999031001KA1999M+00501MD1710021+9999REMSYN070AAXX  26181 23256 32999 70905 10009 21051 40151 57002 87030 333 10050;EQDQ01  00002PRCP99
0112232560999992000052621004+67470+078730FM-12+000899999V0201001N005019999999N0500001N1+00011-00431101441ADDGF107991071001999999031001MD1710071+9999REMSYN060AAXX  26211 23256 42999 71005 10001 21043 40144 57007 87030;
0133232560999992000052700004+67470+078730FM-12+000899999V0200901N004019999999N0500001N1+00021-00421101451ADDGF106991041001999999031011MA1999999101111MD1210011+9999REMSYN066AAXX  27001 23256 42999 60904 10002 21042 30111 40145 52001 84031;
0197232560999992000052703004+67470+078730FM-12+000899999V0201001N005019999999N0500001N1+00251-00451101311ADDAA199000091AJ199992999999999GF107991051001999999031011IA1259MD1710131+9999REMSYN076AAXX  27031 23256 32999 71005 10025 21045 40131 57013 85031 333 41998 55169;EQDQ01  00002PRCP99Q02  09972SNDP  
0165232560999992000052706004+67470+078730FM-12+000899999V0201101N004010300019N0500001N1+00541-00501101211ADDAA199000091GF108991031051012501071999KA1999N+00001MD1710101+9999REMSYN070AAXX  27061 23256 32699 81104 10054 21050 40121 57010 8357/ 333 20000;EQDQ01  00002PRCP99
0138232560999992000052709004+67470+078730FM-12+000899999V0201001N002010129019N0500001N1+00571-00451101191ADDGA1051+012909059GF108991051051012501071999MD1710021+9999REMSYN070AAXX  27091 23256 42699 81002 10057 21045 40119 57002 8557/ 333 85643;
0133232560999992000052712004+67470+078730FM-12+000899999V0200801N003019999999N0500001N1+00641-00421101101ADDGF107991071001999999031001MA1999999100771MD1710091+9999REMSYN066AAXX  27121 23256 42999 70803 10064 21042 30077 40110 57009 87030;
0165232560999992000052715004+67470+078730FM-12+000899999V0200801N004019999999N0200001N1+00441-00271101031ADDAA199000091GF107991071001999999031001KA1999M+00641MD1710071+9999REMSYN070AAXX  27151 23256 32998 70804 10044 21027 40103 57007 87030 333 10064;EQDQ01  00002PRCP99
0165232560999992000052718004+67470+078730FM-12+000899999V0201001N003019999999N0500001N1+00271-00091101011ADDAA199000091GF107991071001999999031001KA1999M+00641MD1710021+9999REMSYN070AAXX  27181 23256 32999 71003 10027 21009 40101 57002 87030 333 10064;EQDQ01  00002PRCP99
0138232560999992000052721004+67470+078730FM-12+000899999V0201001N002010126019N0500001N1+00211-00161100881ADDGA1051+012609059GF108991051051012501999999MD1710131+9999REMSYN070AAXX  27211 23256 42699 81002 10021 21016 40088 57013 855// 333 85642;
0133232560999992000052800004+67470+078730FM-12+000899999V0201201N002010300019N0500001N1+00341-00071100791ADDGF108991041051012501071999MA1999999100461MD1710091+9999REMSYN066AAXX  28001 23256 42699 81202 10034 21007 30046 40079 57009 8457/;
0227232560999992000052803004+67470+078730FM-12+000899999V0201001N002010114019N0500001N1+00461-00021100741ADDAA199000091AJ199992999999999GA1051+011409059GF108991051051012501071999GJ100489IA1259MD1710051+9999REMSYN082AAXX  28031 23256 32699 81002 10046 21002 40074 57005 8557/ 333 41998 55008 85638;EQDQ01  00002PRCP99Q02  09972SNDP  
0165232560999992000052806004+67470+078730FM-12+000899999V0201101N003019999999N0500001N1+00891-00021100691ADDAA199000091GF108991081001999999071999KA1999N+00211MD1710041+9999REMSYN070AAXX  28061 23256 32999 81103 10089 21002 40069 57004 8807/ 333 20021;EQDQ01  00002PRCP99
0112232560999992000052809004+67470+078730FM-12+000899999V0200801N004010300019N0500001N1+01201-00121100651ADDGF107991021051012501031001MD1710041+9999REMSYN060AAXX  28091 23256 42699 70804 10120 21012 40065 57004 82530;
0133232560999992000052812004+67470+078730FM-12+000899999V0201201N003010300019N0500001N1+01081-00171100611ADDGF108991021051012501071999MA1999999100291MD1710041+9999REMSYN066AAXX  28121 23256 42699 81203 10108 21017 30029 40061 57004 8257/;
0187232560999992000052815004+67470+078730FM-12+000899999V0201201N002010120019N0500001N1+00931-00191100591ADDAA199000091GA1081+012009059GF108991081051012501999999KA1120M+01201MD1710021+9999REMSYN076AAXX  28151 23256 32699 81202 10093 21019 40059 57002 885// 333 10120 88640;EQDQ01  00002PRCP99
0165232560999992000052818004+67470+078730FM-12+000899999V0201201N004010300019N0500001N1+00841-00121100551ADDAA199000091GF108991031051012501071999KA1999M+01201MD1710041+9999REMSYN070AAXX  28181 23256 32699 81204 10084 21012 40055 57004 8357/ 333 10120;EQDQ01  00002PRCP99
0112232560999992000052821004+67470+078730FM-12+000899999V0201301N005010300019N0500001N1+00711-00071100531ADDGF107991021051012501031011MD1710021+9999REMSYN060AAXX  28211 23256 42699 71305 10071 21007 40053 57002 82531;
0133232560999992000052900004+67470+078730FM-12+000899999V0201601N001010300019N0500001N1+00811+00171100571ADDGF107991031051008001031001MA1999999100251MD1210041+9999REMSYN066AAXX  29001 23256 42599 71601 10081 20017 30025 40057 52004 83530;
0197232560999992000052903004+67470+078730FM-12+000899999V0201801N003019999999N0500001N1+00781+00231100661ADDAA199000091AJ199992999999999GF108991081001999999071999IA1259MD1210091+9999REMSYN076AAXX  29031 23256 32999 81803 10078 20023 40066 52009 8807/ 333 41998 55014;EQDQ01  00002PRCP99Q02  09972SNDP  
0165232560999992000052906004+67470+078730FM-12+000899999V0203201N005019999999N0500001N1+00741+00411100791ADDAA199000091GF108991061001999999031061KA1999N+00611MD1210131+9999REMSYN070AAXX  29061 23256 32999 83205 10074 20041 40079 52013 86036 333 20061;EQDQ01  00002PRCP99
0112232560999992000052909004+67470+078730FM-12+000899999V0203401N004010300019N0500001N1+00671+00561100961ADDGF108991021051008001071999MD1210161+9999REMSYN060AAXX  29091 23256 42599 83404 10067 20056 40096 52016 8257/;
0187232560999992000052912004+67470+078730FM-12+000899999V0203301N00301001201CN0500001N1+00511+00461101081ADDAY161061AY221061GA1041+001809069GF108991081051001501999999MA1999999100751MD1210121+9999MW1021REMSYN082AAXX  29121 23256 41299 83303 10051 20046 30075 40108 52012 70262 885// 333 84706;
0185232560999992000052915004+67470+078730FM-12+000899999V0203501N00401002101CN0200001N1+00291+00271101211ADDAY161031AY221031GA1041+002709069GF108991081051002501999999KA1120M+00741MD1210131+9999MW1211REMSYN082AAXX  29151 23256 /1398 83504 10029 20027 40121 52013 72162 885// 333 10074 84709;
0202232560999992000052918004+67470+078730FM-12+000899999V0203401N003010021019N0100001N1+00191+00191101301ADDAA100000791AY161061AY221061GA1051+002109069GF108991081051002501999999KA1120M+00741MD1210091+9999MW1021REMSYN088AAXX  29181 23256 11397 83403 10019 20019 40130 52009 69900 70262 885// 333 10074 85707;
0138232560999992000052921004+67470+078730FM-12+000899999V0203201N004010012019N0100001N1+00161+00161101361ADDGA1051+001209069GF108991081051001501999999MD1210051+9999REMSYN070AAXX  29211 23256 42297 83204 10016 20016 40136 52005 885// 333 85704;
0159232560999992000053000004+67470+078730FM-12+000899999V0200101N004010012019N0100001N1+00081+00081101481ADDGA1041+001209069GF108991081051001501999999MA1999999101141MD1210121+9999REMSYN076AAXX  30001 23256 42297 80104 10008 20008 30114 40148 52012 885// 333 84704;
0200232560999992000053003004+67470+078730FM-12+000899999V0200101N005010024019N0200001N1+00091+00061101581ADDAJ199992999999999GA1081+002409069GF108991081061002501999999GJ100189IA1259MD1210101+9999REMSYN082AAXX  30031 23256 /2398 80105 10009 20006 40158 52010 886// 333 41998 55003 88708;EQDQ01  09972SNDP  
0174232560999992000053006004+67470+078730FM-12+000899999V0200201N005010048019N0200001N1+00271-00091101631ADDAA100000391GA1051+004809099GF108991081031004501999999KA1120N+00061MD1210061+9999REMSYN082AAXX  30061 23256 12498 80205 10027 21009 40163 52006 69930 883// 333 20006 85916;
0138232560999992000053009004+67470+078730FM-12+000899999V0200101N005010048019N0500001N1+00411-00111101671ADDGA1051+004809099GF108991081031004501999999MD1210041+9999REMSYN070AAXX  30091 23256 42499 80105 10041 21011 40167 52004 883// 333 85916;
0159232560999992000053012004+67470+078730FM-12+000899999V0200201N00501004201CN0500001N1+00361-00051101691ADDGA1041+005409099GF107991071031004501001001MA1999999101361MD1210021+9999REMSYN076AAXX  30121 23256 42499 70205 10036 21005 30136 40169 52002 87300 333 84918;
0187232560999992000053015004+67470+078730FM-12+000899999V0200201N005010039019N0500001N1+00211+00021101721ADDAA199000091GA1051+003909099GF108991081031004501999999KA1120M+00411MD1210031+9999REMSYN076AAXX  30151 23256 32499 80205 10021 20002 40172 52003 883// 333 10041 85913;EQDQ01  00002PRCP99
0196232560999992000053018004+67470+078730FM-12+000899999V0203601N00401002101CN0200001N1+00081+00001101691ADDAA199000021AY181061AY281061GA1041+002409069GF108991081031002501999999KA1120M+00411MD1710041+9999MW1801REMSYN082AAXX  30181 23256 31398 83604 10008 21000 40169 57004 78088 883// 333 10041 84708;
0166232560999992000053021004+67470+078730FM-12+000899999V0200101N006010300019N0500001N1-00061-00121101651ADDAY181031AY221031GA1041+000609069GF107991041061002501031011MD1710041+9999MW1021REMSYN076AAXX  30211 23256 41399 70106 11006 21012 40165 57004 70282 84631 333 84702;
0187232560999992000053100004+67470+078730FM-12+000899999V0200201N006010033019N0200001N1-00061-00271101651ADDAY181061AY221061GA1051+003309099GF108991081031004501999999MA1999999101311MD1410001+9999MW1851REMSYN082AAXX  31001 23256 41498 80206 11006 21027 30131 40165 54000 78582 883// 333 85911;
0228232560999992000053103004+67470+078730FM-12+000899999V0203201N004010030019N0200001N1+00051-00061101641ADDAJ199992999999999AY181031AY221031GA1051+003009099GF108991081031004501999999GJ100069IA1259MD1710011+9999MW1831REMSYN088AAXX  31031 23256 /1498 83204 10005 21006 40164 57001 78382 883// 333 41998 55001 85910;EQDQ01  09972SNDP  
0202232560999992000053106004+67470+078730FM-12+000899999V0203301N005010045019N0500001N1+00261-00161101611ADDAA100000391AY181061AY221061GA1051+004509099GF108991081031004501999999KA1120N-00101MD1710021+9999MW1021REMSYN088AAXX  31061 23256 11499 83305 10026 21016 40161 57002 69930 70282 883// 333 21010 85915;
0138232560999992000053109004+67470+078730FM-12+000899999V0200201N005010054019N0500001N1+00421-00131101611ADDGA1051+005409099GF108991081031004501999999MD1410001+9999REMSYN070AAXX  31091 23256 42499 80205 10042 21013 40161 54000 883// 333 85918;
0133232560999992000053112004+67470+078730FM-12+000899999V0203601N005012200019N0500001N1+00561-00181101601ADDGF102991021031008001001001MA1999999101271MD1710011+9999REMSYN066AAXX  31121 23256 42599 23605 10056 21018 30127 40160 57001 82300;
0152232560999992000053115004+67470+078730FM-12+000899999V0200101N004012200019N0500001N1+00461-00141101641ADDAA112000791GF102991021031008001001001KA1120M+00561MD1210041+9999REMSYN076AAXX  31151 23256 /2599 20104 10046 21014 40164 52004 82300 333 10056 69902;
0162232560999992000053118004+67470+078730FM-12+000899999V0200201N004012200019N0500001N1+00161-00061101691ADDAA100000791GA1001+999999999GF100991001001999999001001KA1999M+00561MD1210041+9999REMSYN070AAXX  31181 23256 12999 00204 10016 21006 40169 52004 69900 333 10056;
0112232560999992000053121004+67470+078730FM-12+000899999V0200101N004012200019N0500001N1+00001-00181101721ADDGF102991021001999999031001MD1210031+9999REMSYN060AAXX  31211 23256 42999 20104 10000 21018 40172 52003 82030;
0159232560999992000060100004+67470+078730FM-12+000899999V0200101N00801004201CN0500001N1-00141-00221101801ADDGA1041+003009099GF107991071031004501001001MA1999999101461MD1210081+9999REMSYN076AAXX  01001 23256 42499 70108 11014 21022 30146 40180 52008 87300 333 84910;
0182232560999992000060103004+67470+078730FM-12+000899999V0200101N005010042019N0500001N1-00041-00191101841ADDAA199000091GA1051+004209099GF108991081031004501999999GJ106009MD1210041+9999REMSYN076AAXX  01031 23256 32499 80105 11004 21019 40184 52004 883// 333 55100 85914;EQDQ01  00002PRCP99
0187232560999992000060106004+67470+078730FM-12+000899999V0203501N00601004201CN0500001N1+00201-00111101801ADDAA199000091GA1041+003909019GF105991051031004501001001KA1120N-00141MD1710031+9999REMSYN076AAXX  01061 23256 32499 53506 10020 21011 40180 57003 85300 333 21014 84413;EQDQ01  00002PRCP99
0112232560999992000060109004+67470+078730FM-12+000899999V0203501N004012200019N0500001N1+00531-00121101801ADDGF102991021051008001001001MD1410001+9999REMSYN060AAXX  01091 23256 42599 23504 10053 21012 40180 54000 82500;
0143232560999992000060112004+67470+078730FM-12+000899999V0200101N004012200019N0500001N1+00651-00061101801ADDGA1001+999999999GF100991001001999999001001MA1999999101471MD1410001+9999REMSYN060AAXX  01121 23256 42999 00104 10065 21006 30147 40180 54000;
0181232560999992000060115004+67470+078730FM-12+000899999V0200301N004012200019N0500001N1+00471+00001101801ADDAA199000091GF102991999051008001031001KA1999M+00651MD1410001+9999REMSYN070AAXX  01151 23256 32599 20304 10047 21000 40180 54000 85530 333 10065;EQDQ01+000052SCOTLCQ02  00002PRCP99
0165232560999992000060118004+67470+078730FM-12+000899999V0200101N005012200019N0500001N1+00071-00131101781ADDAA199000091GF103991031001999999031001KA1999M+00651MD1710031+9999REMSYN070AAXX  01181 23256 32999 30105 10007 21013 40178 57003 83030 333 10065;EQDQ01  00002PRCP99
0159232560999992000060200004+67470+078730FM-12+000899999V0203401N005010030019N0500001N1-00031-00121101671ADDGA1051+003009099GF108991081031004501999999MA1999999101331MD1710051+9999REMSYN076AAXX  02001 23256 42499 83405 11003 21012 30133 40167 57005 883// 333 85910;
0182232560999992000060203004+67470+078730FM-12+000899999V0200201N005010021019N0500001N1+00071+00011101601ADDAA199000091GA1051+002109069GF108991081051002501999999GJ107869MD1710071+9999REMSYN076AAXX  02031 23256 32399 80205 10007 20001 40160 57007 885// 333 55131 85707;EQDQ01  00002PRCP99
0187232560999992000060206004+67470+078730FM-12+000899999V0200501N004010033019N0500001N1+00241+00081101591ADDAA199000091GA1051+003309099GF108991081031004501999999KA1120N-00041MD1410001+9999REMSYN076AAXX  02061 23256 32499 80504 10024 20008 40159 54000 883// 333 21004 85911;EQDQ01  00002PRCP99
0112232560999992000060209004+67470+078730FM-12+000899999V0200501N003012200019N0500001N1+00581+00071101591ADDGF103991031051004501001001MD1410001+9999REMSYN060AAXX  02091 23256 42499 30503 10058 20007 40159 54000 83500;
0133232560999992000060212004+67470+078730FM-12+000899999V0203401N002012200019N0500001N1+00891+00041101601ADDGF102991001001999999001011MA1999999101271MD1210011+9999REMSYN066AAXX  02121 23256 42999 23402 10089 20004 30127 40160 52001 80001;
0165232560999992000060215004+67470+078730FM-12+000899999V0202701N003012200019N0500001N1+00761+00211101641ADDAA199000091GF102991001001999999001011KA1999M+00891MD1210041+9999REMSYN070AAXX  02151 23256 32999 22703 10076 20021 40164 52004 80001 333 10089;EQDQ01  00002PRCP99
0175232560999992000060218004+67470+078730FM-12+000899999V0202701N001012200019N0500001N1+00461+00131101631ADDAA199000091GA1001+999999999GF100991001001999999001001KA1999M+00891MD1710011+9999REMSYN064AAXX  02181 23256 32999 02701 10046 20013 40163 57001 333 10089;EQDQ01  00002PRCP99
0122232560999992000060221004+67470+078730FM-12+000899999V0203501N001012200019N0500001N1+00541+00141101641ADDGA1001+999999999GF100991001001999999001001MD1210011+9999REMSYN054AAXX  02211 23256 42999 03501 10054 20014 40164 52001;
0143232560999992000060300004+67470+078730FM-12+000899999V0203101N001012200019N0500001N1+00831+00291101621ADDGA1001+999999999GF100991001001999999001001MA1999999101291MD1710021+9999REMSYN060AAXX  03001 23256 42999 03101 10083 20029 30129 40162 57002;
0162232560999992000060303004+67470+078730FM-12+000899999V0200301N001012200019N0500001N1+01001+00291101611ADDAA199000091GA1001+999999999GF100991001001999999001001MD1710011+9999REMSYN064AAXX  03031 23256 32999 00301 10100 20029 40161 57001 333 55097;EQDQ01  00002PRCP99
0175232560999992000060306004+67470+078730FM-12+000899999V0201001N002012200019N0500001N1+01371+00091101491ADDAA199000091GA1001+999999999GF100991001001999999001001KA1999N+00461MD1710111+9999REMSYN064AAXX  03061 23256 32999 01002 10137 20009 40149 57011 333 20046;EQDQ01  00002PRCP99
0112232560999992000060309004+67470+078730FM-12+000899999V0200601N002012200019N0500001N1+01481+00091101381ADDGF101991001001999999001011MD1710111+9999REMSYN060AAXX  03091 23256 42999 10602 10148 20009 40138 57011 80001;
0133232560999992000060312004+67470+078730FM-12+000899999V0203301N001012200019N0500001N1+01481+00091101281ADDGF101991001001999999001011MA1999999100961MD1710101+9999REMSYN066AAXX  03121 23256 42999 13301 10148 20009 30096 40128 57010 80001;
0175232560999992000060315004+67470+078730FM-12+000899999V0203501N001012200019N0500001N1+01421+00151101131ADDAA199000091GA1001+999999999GF100991001001999999001001KA1999M+01481MD1710151+9999REMSYN064AAXX  03151 23256 32999 03501 10142 20015 40113 57015 333 10148;EQDQ01  00002PRCP99
0175232560999992000060318004+67470+078730FM-12+000899999V0203501N002012200019N0500001N1+01121+00271101001ADDAA199000091GA1001+999999999GF100991001001999999001001KA1999M+01481MD1710141+9999REMSYN064AAXX  03181 23256 32999 03502 10112 20027 40100 57014 333 10148;EQDQ01  00002PRCP99
0122232560999992000060321004+67470+078730FM-12+000899999V0203601N001012200019N0500001N1+01051+00211100901ADDGA1001+999999999GF100991001001999999001001MD1710101+9999REMSYN054AAXX  03211 23256 42999 03601 10105 20021 40090 57010;
0133232560999992000060400004+67470+078730FM-12+000899999V0203601N001012200019N0500001N1+01171+00361100761ADDGF101991001001999999001011MA1999999100441MD1710131+9999REMSYN066AAXX  04001 23256 42999 13601 10117 20036 30044 40076 57013 80001;
0152232560999992000060403004+67470+078730FM-12+000899999V0203601N001012200019N0500001N1+01621+00591100641ADDAA199000091GF102991001001999999001011MD1710121+9999REMSYN070AAXX  04031 23256 32999 23601 10162 20059 40064 57012 80001 333 55215;EQDQ01  00002PRCP99
0165232560999992000060406004+67470+078730FM-12+000899999V0203401N002019999999N0500001N1+01821+00381100521ADDAA199000091GF105991001001999999001011KA1999N+00951MD1710111+9999REMSYN070AAXX  04061 23256 32999 53402 10182 20038 40052 57011 80001 333 20095;EQDQ01  00002PRCP99
0112232560999992000060409004+67470+078730FM-12+000899999V0203201N002010300019N0500001N1+02021+00431100421ADDGF106991021011008001031011MD1710101+9999REMSYN060AAXX  04091 23256 42599 63202 10202 20043 40042 57010 82131;
0133232560999992000060412004+67470+078730FM-12+000899999V0203201N002010300019N0500001N1+01841+00551100371ADDGF107991031051008001031001MA1999999100061MD1710051+9999REMSYN066AAXX  04121 23256 42599 73202 10184 20055 30006 40037 57005 83530;
0165232560999992000060415004+67470+078730FM-12+000899999V0203001N002019999999N0200001N1+01441+00681100321ADDAA199000091GF108991081001999999071999KA1999M+02021MD1710061+9999REMSYN070AAXX  04151 23256 32998 83002 10144 20068 40032 57006 8807/ 333 10202;EQDQ01  00002PRCP99
0159232560999992000060418004+67470+078730FM-12+000899999V0201201N002019999999N0500001N1+01281+00861100271ADDAA199000091GF108991999999999999999999KA1999M+02021MD1710051+9999REMSYN064AAXX  04181 23256 32999 81202 10128 20086 40027 57005 333 10202;EQDQ01  00002PRCP99
0112232560999992000060421004+67470+078730FM-12+000899999V0201201N001019999999N0500001N1+01241+01031100241ADDGF107991071001999999031001MD1710031+9999REMSYN060AAXX  04211 23256 42999 71201 10124 20103 40024 57003 87030;
0133232560999992000060500004+67470+078730FM-12+000899999V0200601N001019999999N0500001N1+01131+00951100191ADDGF106991061001999999031001MA1999999099871MD1710051+9999REMSYN066AAXX  05001 23256 42999 60601 10113 20095 39987 40019 57005 86030;
0152232560999992000060503004+67470+078730FM-12+000899999V0201101N002010300019N0500001N1+01311+01001100091ADDAA199000091GF107991031051012501031001MD1710101+9999REMSYN070AAXX  05031 23256 32699 71102 10131 20100 40009 57010 83530 333 55146;EQDQ01  00002PRCP99
0174232560999992000060506004+67470+078730FM-12+000899999V0201101N002010300019N0200001N1+01461+01021100041ADDAA199000021AY121061AY221061GF108991041031017501071999KA1999N+00961MD1710051+9999MW1801REMSYN076AAXX  05061 23256 31798 81102 10146 20102 40004 57005 78022 8437/ 333 20096;
0140232560999992000060509004+67470+078730FM-12+000899999V0200801N002010300019N0500001N1+01531+01481100001ADDAY181031AY221031GF108991021031017501071999MD1710041+9999MW1251REMSYN066AAXX  05091 23256 41799 80802 10153 20148 40000 57004 72582 8237/;
0155232560999992000060512004+67470+078730FM-12+000899999V0203501N001019999999N0500001N1+01531+01501099961ADDAY181061AY221061GF108991999999008001999999MA1999999099641MD1710041+9999MW1251REMSYN066AAXX  05121 23256 41599 83501 10153 20150 39964 49996 57004 72582;
0163232560999992000060515004+67470+078730FM-12+000899999V0200701N001010300019N0500001N1+01211+01211099961ADDAY121031AY221031GF108991021031008001071999KA1999M+01531MD1410001+9999MW1251REMSYN076AAXX  05151 23256 /1599 80701 10121 20121 49996 54000 72522 8237/ 333 10153;
0152232560999992000060518004+67470+078730FM-12+000899999V0202001N001010750019N0500001N1+01101+01101099881ADDAA100000391GF105991021051008001031011KA1999M+01531MD1710081+9999REMSYN076AAXX  05181 23256 32599 52001 10110 20110 49988 57008 69930 82531 333 10153;
0150232560999992000060521004+67470+078730FM-12+000899999V0203001N001010003019N0005001N1+00881+00881099811ADDAY141031AY221031GA1091+999999999GF109991091999999999999999MD1710071+9999MW1471REMSYN060AAXX  05211 23256 41/93 93001 10088 20088 49981 57007 74742;
0187232560999992000060600004+67470+078730FM-12+000899999V0203301N00201004201CN0040001N1+00871+00871099741ADDAY141061AY221061GA1041+005109099GF107991071031004501001001MA1999999099421MD1710071+9999MW1101REMSYN082AAXX  06001 23256 41496 73302 10087 20087 39942 49974 57007 71042 87300 333 84917;
0133232560999992000060603004+67470+078730FM-12+000899999V0200701N002010300019N0500001N1+01331+01031099641ADDAA199000021GF106991021031012501031001MD1710091+9999REMSYN070AAXX  06031 23256 32699 60702 10133 20103 49964 57009 82330 333 55012;
0165232560999992000060606004+67470+078730FM-12+000899999V0200301N002010300019N0500001N1+01681+00981099561ADDAA199000091GF105991031081012501031001KA1999N+00871MD1710081+9999REMSYN070AAXX  06061 23256 32699 50302 10168 20098 49956 57008 83830 333 20087;EQDQ01  00002PRCP99
0112232560999992000060609004+67470+078730FM-12+000899999V0200201N002010300019N0500001N1+01651+00851099541ADDGF106991031031008001031011MD1710021+9999REMSYN060AAXX  06091 23256 42599 60202 10165 20085 49954 57002 83331;
0133232560999992000060612004+67470+078730FM-12+000899999V0203601N003010300019N0500001N1+01511+01041099551ADDGF107991031031008001031001MA1999999099241MD1210011+9999REMSYN066AAXX  06121 23256 42599 73603 10151 20104 39924 49955 52001 83330;
0163232560999992000060615004+67470+078730FM-12+000899999V0203501N002010300019N0500001N1+01401+00981099551ADDAY181031AY221031GF106991031021012501031011KA1999M+01681MD1410001+9999MW1021REMSYN076AAXX  06151 23256 /1699 63502 10140 20098 49955 54000 70282 83231 333 10168;
0180232560999992000060618004+67470+078730FM-12+000899999V0200201N003019999999N0500001N1+00991+00891099541ADDAA100000191AY181061AY221061GF105991031001999999031011KA1999M+01681MD1710021+9999MW1021REMSYN082AAXX  06181 23256 11999 50203 10099 20089 49954 57002 69910 70282 83031 333 10168;
0150232560999992000060621004+67470+078730FM-12+000899999V0203501N002010003019N0002001N1+00631+00631099561ADDAY141031AY221031GA1091+999999999GF109991091999999999999999MD1210011+9999MW1451REMSYN060AAXX  06211 23256 41/92 93502 10063 20063 49956 52001 74542;
0171232560999992000060700004+67470+078730FM-12+000899999V0203501N003010003019N0005001N1+00611+00611099561ADDAY141061AY221061GA1091+999999999GF109991091999999999999999MA1999999099231MD1410001+9999MW1451REMSYN066AAXX  07001 23256 41/93 93503 10061 20061 39923 49956 54000 74542;
0190232560999992000060703004+67470+078730FM-12+000899999V0203501N002010003019N0005001N1+00661+00661099551ADDAA199000091AY141031AY221031GA1091+999999999GF109991091999999999999999MD1410001+9999MW1431REMSYN070AAXX  07031 23256 31/93 93502 10066 20066 49955 54000 74342 333 55096;EQDQ01  00002PRCP99
0193232560999992000060706004+67470+078730FM-12+000899999V0203001N003010300019N0500001N1+01271+00811099541ADDAA199000091AY141061AY221061GF106991011021012501031011KA1999N+00561MD1410001+9999MW1021REMSYN076AAXX  07061 23256 31699 63003 10127 20081 49954 54000 70242 81231 333 20056;EQDQ01  00002PRCP99
0112232560999992000060709004+67470+078730FM-12+000899999V0203501N002012200019N0500001N1+01791+00701099571ADDGF103991021021012501001011MD1210031+9999REMSYN060AAXX  07091 23256 42699 33502 10179 20070 49957 52003 82201;
0133232560999992000060712004+67470+078730FM-12+000899999V0200301N006012200019N0500001N1+01581+00741099651ADDGF102991011021008001001011MA1999999099341MD1210081+9999REMSYN066AAXX  07121 23256 42599 20306 10158 20074 39934 49965 52008 81201;
0165232560999992000060715004+67470+078730FM-12+000899999V0200301N006012200019N0500001N1+01251+00811099741ADDAA199000091GF102991001001999999001011KA1999M+01791MD1210091+9999REMSYN070AAXX  07151 23256 32999 20306 10125 20081 49974 52009 80001 333 10179;EQDQ01  00002PRCP99
0165232560999992000060718004+67470+078730FM-12+000899999V0200301N007012200019N0500001N1+00601+00531099851ADDAA199000091GF103991031001999999031001KA1999M+01791MD1210091+9999REMSYN070AAXX  07181 23256 32999 30307 10060 20053 49985 52009 83030 333 10179;EQDQ01  00002PRCP99
0138232560999992000060721004+67470+078730FM-12+000899999V0200301N00801002101CN0500001N1+00441+00421099881ADDGA1041+002409069GF108991081051002501999999MD1210031+9999REMSYN070AAXX  07211 23256 42399 80308 10044 20042 49988 52003 885// 333 84708;
0182232560999992000060800004+67470+078730FM-12+000899999V0200301N010010021019N0500001N1+00381+00361100011ADDGA1051+002109079GF108991081051002501999999MA1999999099681MD1210131+9999OA140101301REMSYN088AAXX  08001 23256 42399 80310 10038 20036 39968 40001 52013 885// 333 85707 91013 91113;
0182232560999992000060803004+67470+078730FM-12+000899999V0200301N010010024019N0500001N1+00391+00341100061ADDAA199000091GA1081+002409069GF108991081061002501999999GJ106849MD1210051+9999REMSYN076AAXX  08031 23256 32399 80310 10039 20034 40006 52005 886// 333 55114 88708;EQDQ01  00002PRCP99
0210232560999992000060806004+67470+078730FM-12+000899999V0200101N009010039019N0500001N1+00511+00321100161ADDAA199000091GA1081+003909069GF108991081051004501999999KA1120N+00381MD1210101+9999OA140101201REMSYN088AAXX  08061 23256 32499 80109 10051 20032 40016 52010 885// 333 20038 88613 91012 91114;EQDQ01  00002PRCP99
0138232560999992000060809004+67470+078730FM-12+000899999V0200201N009010051019N0500001N1+00661+00301100251ADDGA1061+005109059GF108991061051004501071999MD1210091+9999REMSYN070AAXX  08091 23256 42499 80209 10066 20030 40025 52009 8657/ 333 86617;
0143232560999992000060812004+67470+078730FM-12+000899999V0200201N008012200019N0500001N1+00921+00111100321ADDGF104991021051008001031001MA1999999100001MD1210081+9999REMSYN076AAXX  08121 23256 42599 40208 10092 20011 30000 40032 52008 82530 333 91113;
0165232560999992000060815004+67470+078730FM-12+000899999V0200101N007012200019N0500001N1+00761+00021100441ADDAA199000091GF102991021051008001001001KA1999M+00921MD1210121+9999REMSYN070AAXX  08151 23256 32599 20107 10076 20002 40044 52012 82500 333 10092;EQDQ01  00002PRCP99
0165232560999992000060818004+67470+078730FM-12+000899999V0200201N008012200019N0500001N1+00381-00051100581ADDAA199000091GF101991011051008001001001KA1999M+00921MD1210131+9999REMSYN070AAXX  08181 23256 32599 10208 10038 21005 40058 52013 81500 333 10092;EQDQ01  00002PRCP99
0138232560999992000060821004+67470+078730FM-12+000899999V0203401N005010039019N0500001N1+00141-00051100731ADDGA1071+003909059GF107991071051004501001001MD1210141+9999REMSYN070AAXX  08211 23256 42499 73405 10014 21005 40073 52014 87500 333 87613;
0159232560999992000060900004+67470+078730FM-12+000899999V0203401N004010039019N0500001N1+00121-00081100851ADDGA1071+003909059GF107991071031004501001001MA1999999100511MD1210121+9999REMSYN076AAXX  09001 23256 42499 73404 10012 21008 30051 40085 52012 87300 333 87613;
0187232560999992000060906004+67470+078730FM-12+000899999V0203401N005010054019N0500001N1+00281-00201101091ADDAA199000091GA1071+005409059GF107991071051004501001001KA1120N+00081MD1210111+9999REMSYN076AAXX  09061 23256 32499 73405 10028 21020 40109 52011 87500 333 20008 87618;EQDQ01  00002PRCP99
0112232560999992000060909004+67470+078730FM-12+000899999V0203301N004012200019N0500001N1+00571-00201101081ADDGF101991011051008001001001MD1710011+9999REMSYN060AAXX  09091 23256 42599 13304 10057 21020 40108 57001 81500;
0133232560999992000060912004+67470+078730FM-12+000899999V0202901N003012200019N0500001N1+00751-00141101101ADDGF102991001001999999001011MA1999999100771MD1210021+9999REMSYN066AAXX  09121 23256 42999 22903 10075 21014 30077 40110 52002 80001;
0165232560999992000060915004+67470+078730FM-12+000899999V0202901N002019999999N0500001N1+00681-00111101101ADDAA199000091GF106991041001999999031011KA1999M+00751MD1410001+9999REMSYN070AAXX  09151 23256 32999 62902 10068 21011 40110 54000 84031 333 10075;EQDQ01  00002PRCP99
0165232560999992000060918004+67470+078730FM-12+000899999V0202301N001019999999N0200001N1+00471-00071101051ADDAA199000091GF107991041001999999031011KA1999M+00751MD1710051+9999REMSYN070AAXX  09181 23256 32998 72301 10047 21007 40105 57005 84031 333 10075;EQDQ01  00002PRCP99
0112232560999992000060921004+67470+078730FM-12+000899999V0201401N004019999999N0200001N1+00661+00171100951ADDGF108991041001999999031011MD1710101+9999REMSYN060AAXX  09211 23256 42998 81404 10066 20017 40095 57010 84031;
0133232560999992000061000004+67470+078730FM-12+000899999V0201601N005019999999N0500001N1+00521+00001100851ADDGF108991081001999999071999MA1999999100521MD1710161+9999REMSYN066AAXX  10001 23256 42999 81605 10052 21000 30052 40085 57016 8807/;
0152232560999992000061003004+67470+078730FM-12+000899999V0201401N005019999999N0500001N1+00851+00111100621ADDAA199000091GF108991081001999999071999MD1710221+9999REMSYN070AAXX  10031 23256 32999 81405 10085 20011 40062 57022 8807/ 333 55102;EQDQ01  00002PRCP99
0174232560999992000061006004+67470+078730FM-12+000899999V0201401N006010300019N0200001N1+00851+00701100421ADDAA199000021AY161061AY221061GF108991031051004501071999KA1999N+00471MD1710201+9999MW1611REMSYN076AAXX  10061 23256 31498 81406 10085 20070 40042 57020 76162 8357/ 333 20047;
0166232560999992000061009004+67470+078730FM-12+000899999V0201801N007010054019N0100001N1+00931+00891100221ADDAY161031AY221031GA1061+005409059GF108991061051004501071999MD1710201+9999MW1611REMSYN076AAXX  10091 23256 41497 81807 10093 20089 40022 57020 76162 8657/ 333 86618;
0187232560999992000061012004+67470+078730FM-12+000899999V0202001N005010063019N0200001N1+01041+01041100181ADDAY181061AY261061GA1061+006309059GF108991061051008001071999MA1999999099861MD1710041+9999MW1611REMSYN082AAXX  10121 23256 41598 82005 10104 20104 39986 40018 57004 76186 8657/ 333 86621;
0185232560999992000061015004+67470+078730FM-12+000899999V0202501N00501002101CN0200001N1+01131+01131100241ADDAY161031AY221031GA1041+002409069GF108991081051002501999999KA1120M+01131MD1210061+9999MW1021REMSYN082AAXX  10151 23256 /1398 82505 10113 20113 40024 52006 70262 885// 333 10113 84708;
0202232560999992000061018004+67470+078730FM-12+000899999V0202701N004010042019N0200001N1+01011+01011100431ADDAA100004191AY161061AY221061GA1081+004209059GF108991081051004501999999KA1120M+01131MD1210191+9999MW1611REMSYN088AAXX  10181 23256 11498 82704 10101 20101 40043 52019 60040 76162 885// 333 10113 88614;
0166232560999992000061021004+67470+078730FM-12+000899999V0203001N003010021019N0200001N1+00811+00811100571ADDAY161031AY221031GA1041+002109069GF108991081051002501999999MD1210141+9999MW1611REMSYN076AAXX  10211 23256 41398 83003 10081 20081 40057 52014 76162 885// 333 84707;
0166232560999992000061100004+67470+078730FM-12+000899999V0203401N004010015019N0200001N1+00391+00391100721ADDAY161061AY221061GA1061+001509069GF108991081051001501999999MD1210141+9999MW1611REMSYN076AAXX  11001 23256 41298 83404 10039 20039 40072 52014 76162 885// 333 86705;
0180232560999992000061103004+67470+078730FM-12+000899999V0203301N003010021019N0200001N1+00341+00341100831ADDAY161031AY221031GA1061+002109069GF108991081051002501999999GJ100009MD1210111+9999MW1611REMSYN082AAXX  11031 23256 /1398 83303 10034 20034 40083 52011 76162 885// 333 55000 86707;
0202232560999992000061106004+67470+078730FM-12+000899999V0200101N003010021019N0500001N1+00401+00351100931ADDAA100003091AY161061AY221061GA1041+002109069GF108991081051002501999999KA1120N+00321MD1210101+9999MW1211REMSYN088AAXX  11061 23256 11399 80103 10040 20035 40093 52010 60030 72162 885// 333 20032 84707;
0138232560999992000061109004+67470+078730FM-12+000899999V0203401N00401004201CN0500001N1+00441+00241101111ADDGA1041+003909099GF108991081031004501999999MD1210181+9999REMSYN070AAXX  11091 23256 42499 83404 10044 20024 40111 52018 883// 333 84913;
0187232560999992000061112004+67470+078730FM-12+000899999V0203501N005010021019N0200001N1+00281+00071101351ADDAY161061AY221061GA1051+002109069GF108991081031002501999999MA1999999101021MD1210241+9999MW1831REMSYN082AAXX  11121 23256 41398 83505 10028 20007 30102 40135 52024 78362 883// 333 85707;
0163232560999992000061115004+67470+078730FM-12+000899999V0203501N002012200019N0500001N1+00431+00041101441ADDAY181031AY211031GF103991011031008001031011KA1999M+00441MD1210091+9999MW1021REMSYN076AAXX  11151 23256 /1599 33502 10043 20004 40144 52009 70281 81331 333 10044;
0180232560999992000061118004+67470+078730FM-12+000899999V0209999C000019999999N0500001N1+00361-00381101521ADDAA100002091AY181061AY211061GF105991021001999999031011KA1999M+00441MD1210081+9999MW1021REMSYN082AAXX  11181 23256 11999 50000 10036 21038 40152 52008 60020 70281 82031 333 10044;
0112232560999992000061121004+67470+078730FM-12+000899999V0200901N004019999999N0500001N1+00391+00021101391ADDGF106991051001999999031011MD1710131+9999REMSYN060AAXX  11211 23256 42999 60904 10039 20002 40139 57013 85031;
0133232560999992000061200004+67470+078730FM-12+000899999V0201201N006010300019N0500001N1+00391+00131101181ADDGF108991031031004501071999MA1999999100851MD1710211+9999REMSYN066AAXX  12001 23256 42499 81206 10039 20013 30085 40118 57021 8337/;
0180232560999992000061203004+67470+078730FM-12+000899999V0201101N008010021019N0500001N1+00421+00371100791ADDAY181031AY221031GA1041+002109069GF108991081051002501999999GJ102469MD1710391+9999MW1251REMSYN082AAXX  12031 23256 /1399 81108 10042 20037 40079 57039 72582 885// 333 55041 84707;
0202232560999992000061206004+67470+078730FM-12+000899999V0201101N00701001201CN0200001N1+00531+00531100341ADDAA100004191AY181061AY261061GA1041+001509069GF108991081051001501999999KA1120N+00281MD1710451+9999MW1611REMSYN088AAXX  12061 23256 11298 81107 10053 20053 40034 57045 60040 76186 885// 333 20028 84705;
0166232560999992000061209004+67470+078730FM-12+000899999V0201901N00401002101CN0200001N1+00761+00761100151ADDAY161031AY251031GA1041+001809069GF108991081051002501999999MD1710181+9999MW1211REMSYN076AAXX  12091 23256 41398 81904 10076 20076 40015 57018 72165 885// 333 84706;
0187232560999992000061212004+67470+078730FM-12+000899999V0202501N008010030019N0500001N1+00771+00701100221ADDAY161061AY251061GA1051+003009099GF108991081031004501999999MA1999999099901MD1210071+9999MW1021REMSYN082AAXX  12121 23256 41499 82508 10077 20070 39990 40022 52007 70265 883// 333 85910;
0135232560999992000061215004+67470+078730FM-12+000899999V0202401N008012200019N0500001N1+00821+00591100351ADDGF103991021031004501031001KA1999M+00821MD1210131+9999REMSYN070AAXX  12151 23256 /2499 32408 10082 20059 40035 52013 82330 333 10082;
0174232560999992000061218004+67470+078730FM-12+000899999V0202101N007010099019N0500001N1+00831+00651100361ADDAA100006191GA1071+009909059GF107991071051012501001001KA1120M+00821MD1210011+9999REMSYN082AAXX  12181 23256 12699 72107 10083 20065 40036 52001 60060 87500 333 10082 87633;
0138232560999992000061221004+67470+078730FM-12+000899999V0202201N006010120019N0500001N1+00871+00681100341ADDGA1061+012009059GF106991061051012501001001MD1710021+9999REMSYN070AAXX  12211 23256 42699 62206 10087 20068 40034 57002 86500 333 86640;
0159232560999992000061300004+67470+078730FM-12+000899999V0202901N004010021019N0500001N1+00721+00611100471ADDGA1051+002109069GF107991071051002501001001MA1999999100151MD1210131+9999REMSYN076AAXX  13001 23256 42399 72904 10072 20061 30015 40047 52013 87500 333 85707;
0150232560999992000061303004+67470+078730FM-12+000899999V0202701N003010300019N0200001N1+00601+00461100601ADDAY161031AY221031GF108991021051008001021999MD1210121+9999MW1611REMSYN076AAXX  13031 23256 /1598 82703 10060 20046 40060 52012 76162 8252/ 333 55017;
0202232560999992000061306004+67470+078730FM-12+000899999V0202801N003010021019N0100001N1+00551+00531100691ADDAA100000791AY181061AY261061GA1051+002109069GF108991081031002501999999KA1120N+00601MD1210091+9999MW1851REMSYN088AAXX  13061 23256 11397 82803 10055 20053 40069 52009 69900 78586 883// 333 20060 85707;
0166232560999992000061309004+67470+078730FM-12+000899999V0203101N00401004201CN0500001N1+00591+00501100771ADDAY181031AY261031GA1041+003009099GF108991081031004501999999MD1210081+9999MW1251REMSYN076AAXX  13091 23256 41499 83104 10059 20050 40077 52008 72586 883// 333 84910;
0161232560999992000061312004+67470+078730FM-12+000899999V0202801N001010300019N0200001N1+00581+00321100881ADDAY181061AY261061GF108991021051012501021999MA1999999100551MD1210111+9999MW1611REMSYN072AAXX  13121 23256 41698 82801 10058 20032 30055 40088 52011 76186 8252/;
0163232560999992000061315004+67470+078730FM-12+000899999V0201701N002010300019N0200001N1+00521+00451100911ADDAY161031AY221031GF108991021051012501021999KA1999M+00661MD1210031+9999MW1611REMSYN076AAXX  13151 23256 /1698 81702 10052 20045 40091 52003 76162 8252/ 333 10066;
0180232560999992000061318004+67470+078720FM-12+000899999V0201201N003010300019N0200001N1+00531+00531100981ADDAA100004191AY161061AY221061GF107991021051012501021001KA1999M+00661MD1210071+9999MW1611REMSYN082AAXX  13181 23256 11698 71203 10053 20053 40098 52007 60040 76162 82520 333 10066;
0166232560999992000061321004+67470+078720FM-12+000899999V0201001N007010033019N0200001N1+00541+00541100901ADDAY181031AY261031GA1051+003309099GF108991081031004501999999MD1710081+9999MW1801REMSYN076AAXX  13211 23256 41498 81007 10054 20054 40090 57008 78086 883// 333 85911;
0161232560999992000061400004+67470+078720FM-12+000899999V0201001N007010750019N0500001N1+00721+00611100711ADDAY181061AY261061GF105991021051012501031011MA1999999100391MD1710181+9999MW1021REMSYN072AAXX  14001 23256 41699 51007 10072 20061 30039 40071 57018 70286 82531;
0161232560999992000061403004+67470+078720FM-12+000899999V0201001N007010750019N0500001N1+00721+00611100711ADDAY181031AY261031GF105991021051012501031011MA1999999100391MD1710181+9999MW1021REMSYN072AAXX  14031 23256 41699 51007 10072 20061 30039 40071 57018 70286 82531;
0152232560999992000061406004+67470+078720FM-12+000899999V0202101N008012200019N0500001N1+02271+00921100301ADDAA100000591GF103991011011008001001011KA1999N+00521MD1710201+9999REMSYN076AAXX  14061 23256 12599 32108 10227 20092 40030 57020 69940 81101 333 20052;
0112232560999992000061409004+67470+078720FM-12+000899999V0202301N011012200019N0500001N1+02421+00581100131ADDGF105991021021012501001011MD1710171+9999REMSYN060AAXX  14091 23256 42699 52311 10242 20058 40013 57017 82201;
0160232560999992000061412004+67470+078720FM-12+000899999V0202301N010012200019N0500001N1+02531+00561100021ADDGF105991021011012501001011MA1999999099711MD1710111+9999OA140101301REMSYN082AAXX  14121 23256 42699 52310 10253 20056 39971 40002 57011 82101 333 91013 91116;
0165232560999992000061415004+67470+078720FM-12+000899999V0202101N006010300019N0500001N1+02271+00971099981ADDAA199000091GF107991031021008001031011KA1999M+02561MD1710041+9999REMSYN070AAXX  14151 23256 32599 72106 10227 20097 49998 57004 83231 333 10256;EQDQ01  00002PRCP99
0165232560999992000061418004+67470+078720FM-12+000899999V0202101N006012200019N0500001N1+01831+01051100001ADDAA199000091GF103991021011008001031001KA1999M+02561MD1210021+9999REMSYN070AAXX  14181 23256 32599 32106 10183 20105 40000 52002 82130 333 10256;EQDQ01  00002PRCP99
0112232560999992000061421004+67470+078720FM-12+000899999V0202201N004012200019N0500001N1+01461+01191100071ADDGF103991021051004501001011MD1210061+9999REMSYN060AAXX  14211 23256 42499 32204 10146 20119 40007 52006 82501;
0133232560999992000061500004+67470+078720FM-12+000899999V0202601N002012200019N0500001N1+01601+01291100191ADDGF103991001001999999001011MA1999999099881MD1210131+9999REMSYN066AAXX  15001 23256 42999 32602 10160 20129 39988 40019 52013 80001;
0165232560999992000061506004+67470+078720FM-12+000899999V0201901N004010750019N0500001N1+02381+01311100201ADDAA199000091GF105991021021012501001091KA1999N+01311MD1710051+9999REMSYN070AAXX  15061 23256 32699 51904 10238 20131 40020 57005 82209 333 20131;EQDQ01  00002PRCP99
0112232560999992000061509004+67470+078720FM-12+000899999V0202201N011012200019N0500001N1+02711+01061100101ADDGF105991021031012501001011MD1710091+9999REMSYN060AAXX  15091 23256 42699 52211 10271 20106 40010 57009 82301;
0165232560999992000061515004+67470+078720FM-12+000899999V0201901N005019999999N0500001N1+02561+01151099971ADDAA199000091GF106991001001999999001011KA1999M+02761MD1710071+9999REMSYN070AAXX  15151 23256 32999 61905 10256 20115 49997 57007 80001 333 10276;EQDQ01  00002PRCP99
0165232560999992000061518004+67470+078720FM-12+000899999V0201801N005012200019N0500001N1+02111+01301099971ADDAA199000091GF102991021021012501001001KA1999M+02761MD1410001+9999REMSYN070AAXX  15181 23256 32699 21805 10211 20130 49997 54000 82200 333 10276;EQDQ01  00002PRCP99
0112232560999992000061521004+67470+078720FM-12+000899999V0201701N005012200019N0500001N1+01891+01281099881ADDGF104991021021008001001011MD1710091+9999REMSYN060AAXX  15211 23256 42599 41705 10189 20128 49988 57009 82201;
0133232560999992000061600004+67470+078720FM-12+000899999V0201701N004019999999N0500001N1+01901+01541099801ADDGF106991041001999999031011MA1999999099491MD1710081+9999REMSYN066AAXX  16001 23256 42999 61704 10190 20154 39949 49980 57008 84031;
0163232560999992000061615004+67470+078720FM-12+000899999V0201501N002012200019N0500001N1+01971+01621099841ADDAY181031AY211031GF102991021021008001001011KA1999M+02431MD1710011+9999MW1021REMSYN076AAXX  16151 23256 /1599 21502 10197 20162 49984 57001 70281 82201 333 10243;
0180232560999992000061618004+67470+078720FM-12+000899999V0201801N003012200019N0500001N1+01821+01501099831ADDAA100001091AY181061AY211061GF107991021031012501001011KA1999M+02431MD1710011+9999MW1021REMSYN082AAXX  16181 23256 11699 71803 10182 20150 49983 57001 69990 70281 82301 333 10243;
0112232560999992000061621004+67470+078720FM-12+000899999V0201801N003019999999N0500001N1+01621+01531099801ADDGF105991021001999999031011MD1710031+9999REMSYN060AAXX  16211 23256 42999 51803 10162 20153 49980 57003 82031;
0203232560999992000061700004+67470+078720FM-12+000899999V0201601N003019999999N0500001N1+01621+01551099671ADDAY101061AY221061GF108991081001999999071999KA1999M+99999MA1999999099361MD1710131+9999MW1211REMSYN082AAXX  17001 23256 41999 81603 10162 20155 39936 49967 57013 72102 8807/ 333 11015;EQDQ01 -00152ATMX  
0150232560999992000061703004+67470+078720FM-12+000899999V0202201N005010300019N0500001N1+01891+01511099631ADDAY181031AY221031GF107991031031008001031011MD1710041+9999MW1021REMSYN076AAXX  17031 23256 /1599 72205 10189 20151 49963 57004 70282 83331 333 55064;
0202232560999992000061706004+67470+078720FM-12+000899999V0202101N004010096019N0200001N1+02101+01191099521ADDAA100000791AY191061AY281061GA1051+009609099GF107991061031008001031001KA1120N+01551MD1710101+9999MW1951REMSYN088AAXX  17061 23256 11598 72104 10210 20119 49952 57010 69900 79598 86330 333 20155 85932;
0140232560999992000061709004+67470+078720FM-12+000899999V0202101N006010075019N0500001N1+01911+01541099561ADDAY191031AY281031GF107991051031008001031011MD1210031+9999MW1801REMSYN066AAXX  17091 23256 41599 72106 10191 20154 49956 52003 78098 85331;
0188232560999992000061712004+67470+078720FM-12+000899999V0202501N009012200019N0500001N1+02011+01191099651ADDAY191061AY281061GF105991021031008001001011MA1999999099341MD1210091+9999MW1021OA140101201REMSYN088AAXX  17121 23256 41599 52509 10201 20119 39934 49965 52009 70298 82301 333 91012 91112;
0157232560999992000061715004+67470+078720FM-12+000899999V0202701N009010018019N0500001N1+01081+01081099921ADDGA1051+001809069GF108991081051002501999999KA1120M+02121MD1210261+9999REMSYN076AAXX  17151 23256 /2399 82709 10108 20108 49992 52026 885// 333 10212 85706;
0202232560999992000061718004+67470+078720FM-12+000899999V0202801N005010021019N0010001N1+00681+00681100231ADDAA100000391AY151061AY221061GA1081+002109069GF108991081061002501999999KA1120M+02121MD1210311+9999MW1511REMSYN088AAXX  17181 23256 11394 82805 10068 20068 40023 52031 69930 75152 886// 333 10212 88707;
0187232560999992000061800004+67470+078720FM-12+000899999V0202801N007010030019N0500001N1+00411+00411100731ADDAY181061AY251061GA1051+003009099GF108991081031004501999999MA1999999100401MD1210281+9999MW1021REMSYN082AAXX  18001 23256 41499 82807 10041 20041 30040 40073 52028 70285 883// 333 85910;
0152232560999992000061803004+67470+078720FM-12+000899999V0202901N008010030019N0500001N1+00451+00431100981ADDGA1081+003009069GF108991081061004501999999GJ104869MD1210251+9999REMSYN076AAXX  18031 23256 /2499 82908 10045 20043 40098 52025 886// 333 55081 88710;
0174232560999992000061806004+67470+078720FM-12+000899999V0202801N006010027019N0500001N1+00521+00451101221ADDAA100002091GA1081+002709069GF108991081061002501999999KA1120N+00411MD1210241+9999REMSYN082AAXX  18061 23256 12399 82806 10052 20045 40122 52024 60020 886// 333 20041 88709;
0138232560999992000061809004+67470+078720FM-12+000899999V0203101N003010048019N0500001N1+00851+00411101331ADDGA1061+004809059GF106991061051004501001001MD1210111+9999REMSYN070AAXX  18091 23256 42499 63103 10085 20041 40133 52011 86500 333 86616;
0103232560999992000061812004+67470+078720FM-12+000899999V0200901N002019999999N0500001N1+01071+99999999999ADDGF106991999999008001999999REMSYN065AAXX  18121 23256 42599 60902 10107 2003 30099 40132 57001 82530;
0163232560999992000061815004+67470+078720FM-12+000899999V0201001N005010300019N0500001N1+01131+00641101141ADDAY121031AY221031GF107991031031008001031001KA1999M+01131MD1710181+9999MW1251REMSYN076AAXX  18151 23256 /1599 71005 10113 20064 40114 57018 72522 83330 333 10113;
0225232560999992000061818004+67470+078720FM-12+000899999V0201101N009010069019N0200001N1+01021+01021100681ADDAA100000791AY181061AY221061GA1061+006909099GF108991081031008001999999KA1120M+01131MD1710451+9999MW1801OA140101201REMSYN100AAXX  18181 23256 11598 81109 10102 20102 40068 57045 69900 78082 883// 333 10113 86923 91012 91112;
0166232560999992000061821004+67470+078720FM-12+000899999V0201701N006010021019N0500001N1+01141+01141100361ADDAY181031AY221031GA1051+002109069GF108991081031002501999999MD1710321+9999MW1011REMSYN076AAXX  18211 23256 41399 81706 10114 20114 40036 57032 70182 883// 333 85707;
0187232560999992000061900004+67470+078720FM-12+000899999V0202301N004010027019N0500001N1+01301+01301100161ADDAY181061AY221061GA1051+002709069GF108991081051002501999999MA1999999099841MD1710201+9999MW1021REMSYN082AAXX  19001 23256 41399 82304 10130 20130 39984 40016 57020 70282 885// 333 85709;
0180232560999992000061903004+67470+078720FM-12+000899999V0203101N004010012019N0200001N1+01211+01211100361ADDAY181031AY221031GA1051+001209069GF108991081031001501999999GJ101869MD1210201+9999MW1251REMSYN082AAXX  19031 23256 /1298 83104 10121 20121 40036 52020 72582 883// 333 55031 85704;
0202232560999992000061906004+67470+078720FM-12+000899999V0203501N007010039019N0500001N1+01011+00821100941ADDAA100004191AY181061AY221061GA1051+003909099GF107991071031004501001001KA1120N+01001MD1210571+9999MW1801REMSYN088AAXX  19061 23256 11499 73507 10101 20082 40094 52057 60040 78082 87300 333 20100 85913;
0166232560999992000061909004+67470+078720FM-12+000899999V0203301N008010054019N0500001N1+01221+00581101481ADDAY181031AY221031GA1051+005409099GF107991071031004501001001MD1210551+9999MW1021REMSYN076AAXX  19091 23256 41499 73308 10122 20058 40148 52055 70282 87300 333 85918;
0161232560999992000061912004+67470+078720FM-12+000899999V0203201N005010300019N0500001N1+01251+00301101701ADDAY181061AY221061GF106991031051008001031011MA1999999101381MD1210221+9999MW1021REMSYN072AAXX  19121 23256 41599 63205 10125 20030 30138 40170 52022 70282 83531;
0135232560999992000061915004+67470+078720FM-12+000899999V0202801N005012200019N0500001N1+01261+00251101821ADDGF102991021031008001011001KA1999M+01341MD1210121+9999REMSYN070AAXX  19151 23256 /2599 22805 10126 20025 40182 52012 82310 333 10134;
0145232560999992000061918004+67470+078720FM-12+000899999V0202801N003012200019N0500001N1+00781+00151101981ADDGA1001+999999999GF100991001001999999001001KA1999M+01341MD1210151+9999REMSYN064AAXX  19181 23256 12999 02803 10078 20015 40198 52015 333 10134;
0106232560999992000061921004+67470+078720FM-12+000899999V0203301N004012200019N0500001N1+00761+99999102101ADDGF102991021001999999031001MD1210121+9999REMSYN054AAXX  19211 23256 42999 23304 10076 40210 52012 82030;
0133232560999992000062000004+67470+078720FM-12+000899999V0203101N003019999999N0500001N1+00861+00191102221ADDGF105991031001999999031011MA1999999101891MD1210121+9999REMSYN066AAXX  20001 23256 42999 53103 10086 20019 30189 40222 52012 83031;
0152232560999992000062003004+67470+078720FM-12+000899999V0203001N004019999999N0500001N1+01111+00131102361ADDAA199000091GF107991071001999999031001MD1210141+9999REMSYN070AAXX  20031 23256 32999 73004 10111 20013 40236 52014 87030 333 55102;EQDQ01  00002PRCP99
0165232560999992000062006004+67470+078720FM-12+000899999V0202901N005012200019N0500001N1+01201+00211102411ADDAA199000091GF103991021021012501031001KA1999N+00661MD1210061+9999REMSYN070AAXX  20061 23256 32699 32905 10120 20021 40241 52006 82230 333 20066;EQDQ01  00002PRCP99
0112232560999992000062009004+67470+078720FM-12+000899999V0203001N005010300019N0500001N1+01301+00131102441ADDGF106991031021012501031001MD1210031+9999REMSYN060AAXX  20091 23256 42699 63005 10130 20013 40244 52003 83230;
0133232560999992000062012004+67470+078720FM-12+000899999V0202901N005010300019N0500001N1+01211+00151102451ADDGF107991031051012501031001MA1999999102131MD1210011+9999REMSYN066AAXX  20121 23256 42699 72905 10121 20015 30213 40245 52001 83530;
0165232560999992000062015004+67470+078720FM-12+000899999V0203301N003019999999N0500001N1+01081+00131102461ADDAA199000091GF105991051001999999031001KA1999M+01341MD1410001+9999REMSYN070AAXX  20151 23256 32999 53303 10108 20013 40246 54000 85030 333 10134;EQDQ01  00002PRCP99
0165232560999992000062018004+67470+078720FM-12+000899999V0203401N002012200019N0500001N1+00831+00061102481ADDAA199000091GF102991021001999999031011KA1999M+01341MD1210021+9999REMSYN070AAXX  20181 23256 32999 23402 10083 20006 40248 52002 82031 333 10134;EQDQ01  00002PRCP99
0112232560999992000062021004+67470+078720FM-12+000899999V0203001N002019999999N0500001N1+00721+00041102511ADDGF106991021001999999031011MD1210031+9999REMSYN060AAXX  20211 23256 42999 63002 10072 20004 40251 52003 82031;
0133232560999992000062100004+67470+078720FM-12+000899999V0203201N002012200019N0500001N1+00851+00041102541ADDGF102991021001999999031011MA1999999102211MD1210031+9999REMSYN066AAXX  21001 23256 42999 23202 10085 20004 30221 40254 52003 82031;
0152232560999992000062103004+67470+078720FM-12+000899999V0200601N001012200019N0500001N1+01051+00041102411ADDAA199000091GF102991011011004501031011MD1710131+9999REMSYN070AAXX  21031 23256 32499 20601 10105 20004 40241 57013 81131 333 55154;EQDQ01  00002PRCP99
0165232560999992000062106004+67470+078720FM-12+000899999V0200901N002012200019N0500001N1+01251+00151102191ADDAA199000091GF107991011011004501001011KA1999N+00641MD1710211+9999REMSYN070AAXX  21061 23256 32499 70902 10125 20015 40219 57021 81101 333 20064;EQDQ01  00002PRCP99
0112232560999992000062109004+67470+078720FM-12+000899999V0201901N004012200019N0500001N1+01681+00191101891ADDGF102991011011008001001011MD1710301+9999REMSYN060AAXX  21091 23256 42599 21904 10168 20019 40189 57030 81101;
0133232560999992000062112004+67470+078720FM-12+000899999V0201801N002010300019N0500001N1+01861+00501101551ADDGF107991021011008001031011MA1999999101231MD1710341+9999REMSYN066AAXX  21121 23256 42599 71802 10186 20050 30123 40155 57034 82131;
0165232560999992000062115004+67470+078720FM-12+000899999V0201201N002010300019N0500001N1+01691+00941101161ADDAA199000091GF108991031031012501071999KA1999M+01921MD1710391+9999REMSYN070AAXX  21151 23256 32699 81202 10169 20094 40116 57039 8337/ 333 10192;EQDQ01  00002PRCP99
0187232560999992000062118004+67470+078720FM-12+000899999V0201901N00601004201CN0500001N1+01731+99999100751ADDAA199000091GA1031+005409099GF108991071031004501001011KA1120M+01921MD1710401+9999REMSYN076AAXX  21181 23256 32499 81906 10173 29196 40075 57040 87301 333 10192 83918;EQDQ01  00002PRCP99
0166232560999992000062121004+67470+078720FM-12+000899999V0202601N005010066019N0500001N1+01551+01551100611ADDAY181031AY221031GA1051+006609099GF108991081031008001999999MD1710151+9999MW1021REMSYN076AAXX  21211 23256 41599 82605 10155 20155 40061 57015 70282 883// 333 85922;
0161232560999992000062200004+67470+078720FM-12+000899999V0202601N007012200019N0500001N1+01441+01441100651ADDAY181061AY211061GF103991031001999999031001MA1999999100331MD1210041+9999MW1021REMSYN072AAXX  22001 23256 41999 32607 10144 20144 30033 40065 52004 70281 83030;
0175232560999992000062206004+67470+078720FM-12+000899999V0202901N011012200019N0500001N1+01371+00511100801ADDAA100003091GF103991031031008001001001KA1120N+01401MD1210071+9999OA140101401REMSYN088AAXX  22061 23256 12599 32911 10137 20051 40080 52007 60030 83300 333 20140 91014 91116;
0112232560999992000062209004+67470+078720FM-12+000899999V0203001N010012200019N0500001N1+01341+00481100861ADDGF104991031011008001001011MD1210061+9999REMSYN060AAXX  22091 23256 42599 43010 10134 20048 40086 52006 83101;
0160232560999992000062212004+67470+078720FM-12+000899999V0203001N013012200019N0500001N1+01161+00381100901ADDGF103991031011012501001001MA1999999100581MD1210041+9999OA140101601REMSYN082AAXX  22121 23256 42699 33013 10116 20038 30058 40090 52004 83100 333 91016 91116;
0215232560999992000062215004+67470+078720FM-12+000899999V0202901N012010084019N0500001N1+00931+00321100951ADDAA199000091AY111031AY211031GA1051+008409099GF106991061031008001001001KA1120M+01501MD1210041+9999MW1071REMSYN082AAXX  22151 23256 31599 62912 10093 20032 40095 52004 70711 86300 333 10150 85928;EQDQ01  00002PRCP99
0210232560999992000062218004+67470+078720FM-12+000899999V0203001N01001007501CN0500001N1+00751+00271100921ADDAA199000091GA1041+006009099GF106991061031008001001001KA1120M+01501MD1710031+9999OA140101301REMSYN088AAXX  22181 23256 32599 63010 10075 20027 40092 57003 86300 333 10150 84920 91013 91117;EQDQ01  00002PRCP99
0122232560999992000062221004+67470+078720FM-12+000899999V0203001N001019999999N0500001N1+00601+00361100391ADDGF107991071031999999001001MD1210071+9999REMSYN070AAXX  22211 23256 42999 73001 10060 20036 40039 52007 87300 333 55914;
0201232560999992000062300004+67470+078720FM-12+000899999V0202901N009010036019N0500001N1+00561+00381101062ADDGA1051+003609099GF107991071031004501001001MA1999999100731MD1210071+9999OA140101201REMSYN088AAXX  23001 23256 42499 72909 10056 20038 30073 40106 52007 87300 333 85912 91012 91114;EQDQ01+101063APOSLP
0182232560999992000062303004+67470+078720FM-12+000899999V0203001N009010042019N0500001N1+00601+00341101171ADDAA199000091GA1051+004209099GF108991081031004501999999GJ109309MD1210111+9999REMSYN076AAXX  23031 23256 32499 83009 10060 20034 40117 52011 883// 333 55155 85914;EQDQ01  00002PRCP99
0193232560999992000062306004+67470+078720FM-12+000899999V0203201N007010060019N0500001N1+00701+00271101281ADDAA199000091GA1051+006009099GF108991081031008001999999KA1120N+00531MD1210111+9999REMSYN082AAXX  23061 23256 32599 83207 10070 20027 40128 52011 883// 333 20053 85920 91112;EQDQ01  00002PRCP99
0138232560999992000062309004+67470+078720FM-12+000899999V0203001N005010060019N0500001N1+00771+00381101431ADDGA1051+006009099GF108991081031008001999999MD1210151+9999REMSYN070AAXX  23091 23256 42599 83005 10077 20038 40143 52015 883// 333 85920;
0159232560999992000062312004+67470+078720FM-12+000899999V0203301N004010069019N0500001N1+00771+00301101501ADDGA1051+006909099GF108991081031008001999999MA1999999101171MD1210071+9999REMSYN076AAXX  23121 23256 42599 83304 10077 20030 30117 40150 52007 883// 333 85923;
0187232560999992000062315004+67470+078720FM-12+000899999V0203301N005010078019N0500001N1+00671+00181101581ADDAA199000091GA1051+007809099GF107991071031008001001001KA1120M+00791MD1210081+9999REMSYN076AAXX  23151 23256 32599 73305 10067 20018 40158 52008 87300 333 10079 85926;EQDQ01  00002PRCP99
0187232560999992000062318004+67470+078720FM-12+000899999V0202301N003010084019N0200001N1+00621+00001101701ADDAA199000091GA1071+008409059GF107991071051008001001001KA1120M+00791MD1210121+9999REMSYN076AAXX  23181 23256 32598 72303 10062 20000 40170 52012 87500 333 10079 87628;EQDQ01  00002PRCP99
0112232560999992000062321004+67470+078720FM-12+000899999V0203201N002012200019N0500001N1+00501+00001101841ADDGF103991021051008001031001MD1210131+9999REMSYN060AAXX  23211 23256 42599 33202 10050 20000 40184 52013 82530;
0133232560999992000062400004+67470+078720FM-12+000899999V0203401N004012200019N0500001N1+00701+00191101951ADDGF104991021051008001031001MA1999999101621MD1210121+9999REMSYN066AAXX  24001 23256 42599 43404 10070 20019 30162 40195 52012 82530;
0182232560999992000062403004+67470+078720FM-12+000899999V0203101N005010087019N0500001N1+00891+00171102021ADDAA199000091GA1061+008709029GF106991061021008001001001GJ100429MD1210071+9999REMSYN076AAXX  24031 23256 32599 63105 10089 20017 40202 52007 86200 333 55007 86829;EQDQ01  00002PRCP99
0187232560999992000062406004+67470+078720FM-12+000899999V0202701N007012200019N0500001N1+01171+00211102011ADDAA199000091GA1041+009309029GF106991041021008001001011KA1120N+00381MD1410001+9999REMSYN076AAXX  24061 23256 32599 62707 10117 20021 40201 54000 84201 333 20038 84831;EQDQ01  00002PRCP99
0112232560999992000062409004+67470+078720FM-12+000899999V0202701N006012200019N0500001N1+01351+00171102001ADDGF104991021011012501001011MD1710011+9999REMSYN060AAXX  24091 23256 42699 42706 10135 20017 40200 57001 82101;
0133232560999992000062412004+67470+078720FM-12+000899999V0203201N004012200019N0500001N1+01441+00251101861ADDGF106991021021008001001011MA1999999101541MD1710141+9999REMSYN066AAXX  24121 23256 42599 63204 10144 20025 30154 40186 57014 82201;
0165232560999992000062415004+67470+078720FM-12+000899999V0202501N005019999999N0500001N1+01451+00341101641ADDAA199000091GF107991041001999999031011KA1999M+01501MD1710221+9999REMSYN070AAXX  24151 23256 32999 72505 10145 20034 40164 57022 84031 333 10150;EQDQ01  00002PRCP99
0165232560999992000062418004+67470+078720FM-12+000899999V0202201N004010300019N0500001N1+01101+00461101441ADDAA199000091GF106991031031012501031001KA1999M+01501MD1710211+9999REMSYN070AAXX  24181 23256 32699 62204 10110 20046 40144 57021 83330 333 10150;EQDQ01  00002PRCP99
0106232560999992000062421004+67470+078720FM-12+000899999V0202101N008010300019N0500001N1+99999+99999101201ADDGF108991031031012501071999MD1710341+9999REMSYN054AAXX  24211 23256 42699 82108 20058 40120 57034 8337/;
0210232560999992000062500004+67470+078720FM-12+000899999V0202301N009010084019N0200001N1+01241+00561100801ADDAY181061AY221061GA1051+008409099GF108991061031008001071999MA1999999100481MD1710291+9999MW1801OA140101201REMSYN094AAXX  25001 23256 41598 82309 10124 20056 30048 40080 57029 78082 8637/ 333 85928 91012 91115;
0150232560999992000062503004+67470+078720FM-12+000899999V0202601N010010300019N0500001N1+01441+00701100501ADDAY181031AY221031GF108991021051012501071999MD1710301+9999MW1021REMSYN076AAXX  25031 23256 /1699 82610 10144 20070 40050 57030 70282 8257/ 333 55148;
0208232560999992000062506004+67470+078720FM-12+000899999V0202701N00701004201CN0200001N1+01371+01291100511ADDAA100000591AY181061AY261061GA1041+003909099GF108991051031004501071999KA1120N+01061MD1210011+9999MW1801REMSYN094AAXX  25061 23256 11498 82707 10137 20129 40051 52001 69950 78086 8537/ 333 20106 84913 91113;
0166232560999992000062509004+67470+078720FM-12+000899999V0203201N00301002101CN0500001N1+01221+01201100611ADDAY181031AY221031GA1041+002409069GF108991081031002501999999MD1210101+9999MW1251REMSYN076AAXX  25091 23256 41399 83203 10122 20120 40061 52010 72582 883// 333 84708;
0187232560999992000062512004+67470+078720FM-12+000899999V0203201N003010099019N0500001N1+01221+01031100681ADDAY181061AY221061GA1061+009909059GF107991061051012501031001MA1999999100361MD1210071+9999MW1021REMSYN082AAXX  25121 23256 41699 73203 10122 20103 30036 40068 52007 70282 86530 333 86633;
0157232560999992000062515004+67470+078720FM-12+000899999V0203301N002010129019N0500001N1+01261+00991100651ADDGA1061+012909059GF107991061051012501031001KA1120M+01471MD1710031+9999REMSYN076AAXX  25151 23256 /2699 73302 10126 20099 40065 57003 86530 333 10147 86643;
0152232560999992000062518004+67470+078720FM-12+000899999V0200301N004019999999N0500001N1+01081+00851100631ADDAA100004191GF108991061001999999031011KA1999M+01471MD1710021+9999REMSYN076AAXX  25181 23256 32999 80304 10108 20085 40063 57002 60040 86031 333 10147;
0133232560999992000062600004+67470+078720FM-12+000899999V0200201N004019999999N0500001N1+00951+00411100661ADDGF105991051001999999031001MA1999999100341MD1210051+9999REMSYN066AAXX  26001 23256 42999 50204 10095 20041 30034 40066 52005 85030;
0165232560999992000062606004+67470+078720FM-12+000899999V0203501N003012200019N0500001N1+01201+00211100801ADDAA199000091GF103991031011012501001001KA1999N+00911MD1210041+9999REMSYN070AAXX  26061 23256 32699 33503 10120 20021 40080 52004 83100 333 20091;EQDQ01  00002PRCP99
0112232560999992000062609004+67470+078720FM-12+000899999V0203101N006010300019N0500001N1+01271+00211100901ADDGF105991031021012501031001MD1210101+9999REMSYN060AAXX  26091 23256 42699 53106 10127 20021 40090 52010 83230;
0133232560999992000062612004+67470+078720FM-12+000899999V0203201N006012200019N0500001N1+01251-00141101011ADDGF103991021011012501001011MA1999999100691MD1210111+9999REMSYN066AAXX  26121 23256 42699 33206 10125 21014 30069 40101 52011 82101;
0187232560999992000062615004+67470+078720FM-12+000899999V0203501N005010123019N0500001N1+00951+00381101131ADDAA199000091GA1071+012309059GF107991071051012501001001KA1120M+01401MD1210111+9999REMSYN076AAXX  26151 23256 32699 73505 10095 20038 40113 52011 87500 333 10140 87641;EQDQ01  00002PRCP99
0187232560999992000062618004+67470+078720FM-12+000899999V0200301N004010060019N0500001N1+00791+00151101221ADDAA199000091GA1051+006009099GF106991061031008001001001KA1120M+01401MD1210091+9999REMSYN076AAXX  26181 23256 32599 60304 10079 20015 40122 52009 86300 333 10140 85920;EQDQ01  00002PRCP99
0166232560999992000062621004+67470+078720FM-12+000899999V0200501N00301007501CN0500001N1+00561+00191101291ADDAY181031AY221031GA1041+006909099GF106991061031008001001001MD1210071+9999MW1021REMSYN076AAXX  26211 23256 41599 60503 10056 20019 40129 52007 70282 86300 333 84923;
0166232560999992000062700004+67470+078720FM-12+000899999V0200301N006010033019N0200001N1+00421+00271101461ADDAY181061AY221061GA1061+003309099GF107991071031004501001001MD1210171+9999MW1801REMSYN076AAXX  27001 23256 41498 70306 10042 20027 40146 52017 78082 87300 333 86911;
0180232560999992000062703004+67470+078720FM-12+000899999V0200201N00601007501CN0500001N1+00531+00071101571ADDAY181031AY221031GA1041+006309099GF106991061031008001001001GJ108709MD1210111+9999MW1021REMSYN082AAXX  27031 23256 /1599 60206 10053 20007 40157 52011 70282 86300 333 55145 84921;
0202232560999992000062706004+67470+078720FM-12+000899999V0203501N00501007501CN0500001N1+00701-00141101691ADDAA100000791AY181061AY221061GA1041+006909099GF106991061031008001001001KA1120N+00351MD1210121+9999MW1021REMSYN088AAXX  27061 23256 11599 63505 10070 21014 40169 52012 69900 70282 86300 333 20035 84923;
0138232560999992000062709004+67470+078720FM-12+000899999V0203201N00601007501CN0500001N1+00881+00021101751ADDGA1041+009609099GF107991071031008001001001MD1210061+9999REMSYN070AAXX  27091 23256 42599 73206 10088 20002 40175 52006 87300 333 84932;
0187232560999992000062712004+67470+078720FM-12+000899999V0203201N008010063019N0200001N1+00901+00271101801ADDAY121061AY221061GA1051+006309099GF107991071031008001001001MA1999999101471MD1210051+9999MW1801REMSYN082AAXX  27121 23256 41598 73208 10090 20027 30147 40180 52005 78022 87300 333 85921;
0163232560999992000062715004+67470+078720FM-12+000899999V0203201N011010750019N0500001N1+00941+00111101761ADDAY181031AY221031GF105991021051012501031011KA1999M+01001MD1710041+9999MW1021REMSYN076AAXX  27151 23256 /1699 53211 10094 20011 40176 57004 70282 82531 333 10100;
0186232560999992000062718004+67470+078720FM-12+000899999V0203201N012010300019N0500001N1+00831+00211101751ADDAA100000791AY181061AY221061GF105991021051008001011001KA1120M+01001MD1710011+9999MW1021REMSYN088AAXX  27181 23256 11599 53212 10083 20021 40175 57001 69900 70282 82510 333 10100 91115;
0112232560999992000062721004+67470+078720FM-12+000899999V0203301N007012200019N0500001N1+00651+00261101741ADDGF103991021051012501031001MD1710011+9999REMSYN060AAXX  27211 23256 42699 33307 10065 20026 40174 57001 82530;
0159232560999992000062800004+67470+078720FM-12+000899999V0203201N006010042019N0500001N1+00621+00411101771ADDGA1051+004209099GF108991081031004501999999MA1999999101441MD1210031+9999REMSYN076AAXX  28001 23256 42499 83206 10062 20041 30144 40177 52003 883// 333 85914;
0182232560999992000062803004+67470+078720FM-12+000899999V0203401N006010045019N0500001N1+00531+00361101781ADDAA199000091GA1051+004509099GF108991081031004501999999GJ106189MD1210011+9999REMSYN076AAXX  28031 23256 32499 83406 10053 20036 40178 52001 883// 333 55103 85915;EQDQ01  00002PRCP99
0196232560999992000062806004+67470+078720FM-12+000899999V0203301N005010054019N0500001N1+00551+00411101851ADDAA199000021AY151061AY221061GA1051+005409099GF107991071031004501001001KA1120N+00531MD1210061+9999MW1251REMSYN082AAXX  28061 23256 31499 73305 10055 20041 40185 52006 72552 87300 333 20053 85918;
0138232560999992000062809004+67470+078720FM-12+000899999V0203601N005010072019N0500001N1+00681+00011101891ADDGA1051+007209099GF107991071031008001001001MD1210041+9999REMSYN070AAXX  28091 23256 42599 73605 10068 20001 40189 52004 87300 333 85924;
0159232560999992000062812004+67470+078720FM-12+000899999V0203501N004010090019N0500001N1+00711+00021101961ADDGA1071+009009059GF107991071051008001001001MA1999999101631MD1210081+9999REMSYN076AAXX  28121 23256 42599 73504 10071 20002 30163 40196 52008 87500 333 87630;
0157232560999992000062815004+67470+078720FM-12+000899999V0203601N002010093019N0500001N1+00661+00021101941ADDGA1071+009309059GF107991071051008001001001KA1120M+00771MD1710031+9999REMSYN076AAXX  28151 23256 /2599 73602 10066 20002 40194 57003 87500 333 10077 87631;
0152232560999992000062818004+67470+078720FM-12+000899999V0203501N003010075019N0500001N1+00061+00021101901ADDAA100000791GF107991071051008001001001KA1999M+00771MD1710041+9999REMSYN076AAXX  28181 23256 12599 73503 10006 20002 40190 57004 69900 87500 333 10077;
0138232560999992000062821004+67470+078720FM-12+000899999V0202501N003010081019N0500001N1+00591+00021101891ADDGA1071+008109059GF107991071051008001001001MD1710011+9999REMSYN070AAXX  28211 23256 42599 72503 10059 20002 40189 57001 87500 333 87627;
0187232560999992000062900004+67470+078720FM-12+000899999V0203201N003010072019N0100001N1+00901+00411101871ADDAY121061AY221061GA1051+007209099GF107991071031008001001001MA1999999101531MD1710021+9999MW1251REMSYN082AAXX  29001 23256 41597 73203 10090 20041 30153 40187 57002 72522 87300 333 85924;
0180232560999992000062903004+67470+078720FM-12+000899999V0203401N006010042019N0200001N1+00411+00211101851ADDAY151031AY221031GA1051+004209099GF108991081031004501999999GJ101689MD1710021+9999MW1251REMSYN082AAXX  29031 23256 /1498 83406 10041 20021 40185 57002 72552 883// 333 55028 85914;
0202232560999992000062906004+67470+078720FM-12+000899999V0203301N005010033019N0500001N1+00361+00231101811ADDAA100000391AY181061AY251061GA1051+003309099GF108991081031004501999999KA1120N+00381MD1710031+9999MW1251REMSYN088AAXX  29061 23256 11499 83305 10036 20023 40181 57003 69930 72585 883// 333 20038 85911;
0185232560999992000062909004+67470+078720FM-12+000899999V0203301N005010051019N0500001N1+00631+00191999999ADDAY181031AY221031GA1051+005109099GF108991081031004501999999MD1710051+9999MW1021REMSYN076AAXX  29091 23256 41499 83305 10063 20019 40101 57005 70282 883// 333 85917;EQDQ01+101013APOSLP
0187232560999992000062912004+67470+078720FM-12+000899999V0203601N005010075019N0500001N1+00691+00121101761ADDAY181061AY221061GA1041+007509099GF107991071031008001001001MA1999999101431MD1410001+9999MW1251REMSYN082AAXX  29121 23256 41599 73605 10069 20012 30143 40176 54000 72582 87300 333 84925;
0185232560999992000062915004+67470+078720FM-12+000899999V0203401N00401007501CN0500001N1+00781+00091101691ADDAY181031AY221031GA1041+006609099GF106991061031008001001001KA1120M+00781MD1710071+9999MW1021REMSYN082AAXX  29151 23256 /1599 63404 10078 20009 40169 57007 70282 86300 333 10078 84922;
0202232560999992000062918004+67470+078720FM-12+000899999V0203101N005010129019N0500001N1+00691+00331101651ADDAA100001091AY181061AY221061GA1071+012909059GF107991071051012501001001KA1120M+00781MD1710041+9999MW1021REMSYN088AAXX  29181 23256 11699 73105 10069 20033 40165 57004 60010 70282 87500 333 10078 87643;
0166232560999992000062921004+67470+078720FM-12+000899999V0202901N003010042019N0500001N1+00551+00461101561ADDAY181031AY221031GA1041+004209099GF106991061031004501001001MD1710091+9999MW1021REMSYN076AAXX  29211 23256 41499 62903 10055 20046 40156 57009 70282 86300 333 84914;
0161232560999992000063000004+67470+078720FM-12+000899999V0203101N005010300019N0500001N1+00561+00471101491ADDAY181061AY221061GF106991031051008001031011MA1999999101161MD1710071+9999MW1021REMSYN072AAXX  30001 23256 41599 63105 10056 20047 30116 40149 57007 70282 83531;
0152232560999992000063003004+67470+078720FM-12+000899999V0203301N00701007501CN0500001N1+00751+00271101341ADDGA1041+006309099GF106991061031008001001001GJ102529MD1710151+9999REMSYN076AAXX  30031 23256 /2599 63307 10075 20027 40134 57015 86300 333 55042 84921;
0152232560999992000063006004+67470+078720FM-12+000899999V0203201N007010300019N0500001N1+00891+00111101181ADDAA100000791GF106991031031008001031001KA1999N+00481MD1710161+9999REMSYN076AAXX  30061 23256 12599 63207 10089 20011 40118 57016 69900 83330 333 20048;
0138232560999992000063009004+67470+078720FM-12+000899999V0203101N00501007501CN0500001N1+01041+00301101061ADDGA1041+008409099GF107991071031008001001001MD1710121+9999REMSYN070AAXX  30091 23256 42599 73105 10104 20030 40106 57012 87300 333 84928;
0159232560999992000063012004+67470+078720FM-12+000899999V0203201N003010096019N0500001N1+00921+00211100931ADDGA1051+009609099GF108991081031008001999999MA1999999100601MD1710131+9999REMSYN076AAXX  30121 23256 42599 83203 10092 20021 30060 40093 57013 883// 333 85932;
0187232560999992000063015004+67470+078720FM-12+000899999V0203201N002010087019N0500001N1+00851+00231100781ADDAA199000091GA1051+008709099GF108991081031008001999999KA1120M+01051MD1710141+9999REMSYN076AAXX  30151 23256 32599 83202 10085 20023 40078 57014 883// 333 10105 85929;EQDQ01  00002PRCP99
0196232560999992000063018004+67470+078720FM-12+000899999V0202701N002010072019N0500001N1+00621+00551100651ADDAA199000021AY181061AY221061GA1051+007209099GF108991081031008001999999KA1120M+01051MD1710141+9999MW1801REMSYN082AAXX  30181 23256 31599 82702 10062 20055 40065 57014 78082 883// 333 10105 85924;
0166232560999992000063021004+67470+078720FM-12+000899999V0202301N001010084019N0200001N1+00561+00541100521ADDAY181031AY261031GA1081+008409059GF108991081051008001999999MD1710131+9999MW1611REMSYN076AAXX  30211 23256 41598 82301 10056 20054 40052 57013 76186 885// 333 88628;
0187232560999992000070100004+67470+078720FM-12+000899999V0201501N002010045019N0500001N1+00581+00561100351ADDAY181061AY261061GA1061+004509099GF108991081031004501999999MA1999999100021MD1710171+9999MW1211REMSYN082AAXX  01001 23256 41499 81502 10058 20056 30002 40035 57017 72186 883// 333 86915;
0152232560999992000070103004+67470+078720FM-12+000899999V0201201N004010039019N0500001N1+00701+00561100241ADDGA1051+003909099GF108991081031004501999999GJ103669MD1710101+9999REMSYN076AAXX  01031 23256 /2499 81204 10070 20056 40024 57010 883// 333 55061 85913;
0174232560999992000070106004+67470+078720FM-12+000899999V0201201N004010048019N0500001N1+00811+00551100261ADDAA100003091GA1051+004809099GF108991081031004501999999KA1120N+00561MD1210021+9999REMSYN082AAXX  01061 23256 12499 81204 10081 20055 40026 52002 60030 883// 333 20056 85916;
0138232560999992000070109004+67470+078720FM-12+000899999V0201001N00401007501CN0500001N1+00951+00511100311ADDGA1041+006909099GF108991071031008001001011MD1210051+9999REMSYN070AAXX  01091 23256 42599 81004 10095 20051 40031 52005 87301 333 84923;
0159232560999992000070112004+67470+078720FM-12+000899999V0201001N004010063019N0500001N1+01031+00451100411ADDGA1051+006309099GF108991081031008001999999MA1999999100091MD1210101+9999REMSYN076AAXX  01121 23256 42599 81004 10103 20045 30009 40041 52010 883// 333 85921;
0187232560999992000070115004+67470+078720FM-12+000899999V0201101N00201012001CN0500001N1+01021+00431100041ADDAA199000091GA1041+010809099GF108991071031012501001011KA1120M+01141MD1210021+9999REMSYN076AAXX  01151 23256 32699 81102 10102 20043 40004 52002 87301 333 10114 84936;EQDQ01  00002PRCP99
0165232560999992000070118004+67470+078720FM-12+000899999V0200201N001019999999N0500001N1+00941+00641100491ADDAA199000091GF106991061001004501031001KA1999M+01141MD1210061+9999REMSYN070AAXX  01181 23256 32499 60201 10094 20064 40049 52006 86030 333 10114;EQDQ01  00002PRCP99
0112232560999992000070121004+67470+078720FM-12+000899999V0200201N002019999999N0500001N1+00801+00621100481ADDGF107991071001999999031001MD1710011+9999REMSYN060AAXX  01211 23256 42999 70202 10080 20062 40048 57001 87030;
0133232560999992000070200004+67470+078720FM-12+000899999V0200201N002019999999N0500001N1+00841+00501100561ADDGF107991071001999999031001MA1999999100241MD1210081+9999REMSYN066AAXX  02001 23256 42999 70202 10084 20050 30024 40056 52008 87030;
0152232560999992000070203004+67470+078720FM-12+000899999V0201101N001012200019N0500001N1+01231+00151100621ADDAA199000091GF103991021011008001001011MD1210061+9999REMSYN070AAXX  02031 23256 32599 31101 10123 20015 40062 52006 82101 333 55000;EQDQ01  00002PRCP99
0165232560999992000070206004+67470+078720FM-12+000899999V0200901N001012200019N0500001N1+01391-00331100681ADDAA199000091GF104991021021008001001011KA1999N+00801MD1210061+9999REMSYN070AAXX  02061 23256 32599 40901 10139 21033 40068 52006 82201 333 20080;EQDQ01  00002PRCP99
0112232560999992000070209004+67470+078720FM-12+000899999V0200501N001012200019N0500001N1+01461-00191100721ADDGF105991031021008001001011MD1210041+9999REMSYN060AAXX  02091 23256 42599 50501 10146 21019 40072 52004 83201;
0133232560999992000070212004+67470+078720FM-12+000899999V0203201N001010300019N0500001N1+01471-00191100781ADDGF106991031031008001031011MA1999999100461MD1210061+9999REMSYN066AAXX  02121 23256 42599 63201 10147 21019 30046 40078 52006 83331;
0165232560999992000070215004+67470+078720FM-12+000899999V0203101N003010300019N0500001N1+01171+00621100831ADDAA199000091GF107991031051008001031011KA1999M+01571MD1210051+9999REMSYN070AAXX  02151 23256 32599 73103 10117 20062 40083 52005 83531 333 10157;EQDQ01  00002PRCP99
0165232560999992000070218004+67470+078720FM-12+000899999V0203101N004019999999N0200001N1+01071+00701100871ADDAA199000091GF107991071001999999031001KA1999M+01571MD1210031+9999REMSYN070AAXX  02181 23256 32998 73104 10107 20070 40087 52003 87030 333 10157;EQDQ01  00002PRCP99
0112232560999992000070221004+67470+078720FM-12+000899999V0202601N002019999999N0500001N1+00851+00731100841ADDGF107991071001999999031001MD1710021+9999REMSYN060AAXX  02211 23256 41999 72602 10085 20073 40084 57002 87030;
0133232560999992000070300004+67470+078720FM-12+000899999V0202501N001019999999N0500001N1+00841+00731100841ADDGF106991061001999999031001MA1999999100511MD1710011+9999REMSYN066AAXX  03001 23256 41999 62501 10084 20073 30051 40084 57001 86030;
0152232560999992000070303004+67470+078720FM-12+000899999V0203301N001019999999N0500001N1+01051+00821100811ADDAA199000091GF108991081071999999999999MD1710021+9999REMSYN070AAXX  03031 23256 32999 83301 10105 20082 40081 57002 887// 333 55093;EQDQ01  00002PRCP99
0165232560999992000070306004+67470+078720FM-12+000899999V0200901N005010300019N0500001N1+01401+00621100741ADDAA199000091GF107991031031008001031011KA1999N+00841MD1710071+9999REMSYN070AAXX  03061 23256 32599 70905 10140 20062 40074 57007 83331 333 20084;EQDQ01  00002PRCP99
0161232560999992000070312004+67470+078720FM-12+000899999V0200601N008010300019N0200001N1+01121+00701100761ADDAY181061AY221061GF107991031031008001031011MA1999999100441MD1210031+9999MW1021REMSYN072AAXX  03121 23256 41598 70608 10112 20070 30044 40076 52003 70282 83331;
0185232560999992000070315004+67470+078720FM-12+000899999V0200501N007010300019N0500001N1+00981+00901100811ADDAY181031AY221031GA1041+011409059GF107991041051012501031011KA1120M+01451MD1210051+9999MW1021REMSYN082AAXX  03151 23256 /1699 70507 10098 20090 40081 52005 70282 84531 333 10145 84638;
0157232560999992000070318004+67470+078720FM-12+000899999V0200501N004010300019N0500001N1+01021+00941100941ADDAA100000591AY181061AY221061GF108991031051012501071999MD1210121+9999MW1021REMSYN072AAXX  03181 23256 11699 80504 10102 20094 40094 52012 69940 70282 8357/;
0112232560999992000070321004+67470+078720FM-12+000899999V0200101N005019999999N0500001N1+00821+00641100981ADDGF105991051001999999031001MD1210041+9999REMSYN060AAXX  03211 23256 42999 50105 10082 20064 40098 52004 85030;
0133232560999992000070400004+67470+078720FM-12+000899999V0200201N003012200019N0500001N1+00891+00701101131ADDGF102991021001999999031001MA1999999100801MD1210151+9999REMSYN066AAXX  04001 23256 42999 20203 10089 20070 30080 40113 52015 82030;
0152232560999992000070403004+67470+078720FM-12+000899999V0200201N007012200019N0500001N1+01101+00431101251ADDAA199000091GF102991021021008001001001MD1210121+9999REMSYN070AAXX  04031 23256 32599 20207 10110 20043 40125 52012 82200 333 55024;EQDQ01  00002PRCP99
0187232560999992000070406004+67470+078720FM-12+000899999V0203601N006010114019N0500001N1+01281+00231101331ADDAA199000091GA1051+011409099GF106991061031008001001001KA1120N+00791MD1210091+9999REMSYN076AAXX  04061 23256 32599 63606 10128 20023 40133 52009 86300 333 20079 85938;EQDQ01  00002PRCP99
0140232560999992000070409004+67470+078720FM-12+000899999V0200101N004010300019N0500001N1+01181+00111101421ADDAY181031AY221031GF106991031031008001031001MD1210091+9999MW1021REMSYN066AAXX  04091 23256 41599 60104 10118 20011 40142 52009 70282 83330;
0161232560999992000070412004+67470+078720FM-12+000899999V0200301N004010300019N0500001N1+01171+00461101491ADDAY181061AY221061GF107991031031012501031001MA1999999101171MD1210071+9999MW1021REMSYN072AAXX  04121 23256 41699 70304 10117 20046 30117 40149 52007 70282 83330;
0135232560999992000070415004+67470+078720FM-12+000899999V0200501N007010300019N0500001N1+01031+00381101561ADDGF106991021051012501031001KA1999M+01341MD1210061+9999REMSYN070AAXX  04151 23256 /2699 60507 10103 20038 40156 52006 82530 333 10134;
0174232560999992000070418004+67470+078720FM-12+000899999V0200301N004010108019N0500001N1+00981+00451101561ADDAA100000791GA1071+010809059GF107991071051012501001001KA1120M+01341MD1410001+9999REMSYN082AAXX  04181 23256 12699 70304 10098 20045 40156 54000 69900 87500 333 10134 87636;
0133232560999992000070500004+67470+078720FM-12+000899999V0200701N005019999999N0500001N1+01041+00531101571ADDGF106991001001999999001011MA1999999101241MD1710011+9999REMSYN066AAXX  05001 23256 42999 60705 10104 20053 30124 40157 57001 80001;
0152232560999992000070503004+67470+078720FM-12+000899999V0200701N007012200019N0500001N1+01051+00401101611ADDAA199000091GF105991021011008001001011MD1210041+9999REMSYN070AAXX  05031 23256 32599 50707 10105 20040 40161 52004 82101 333 55141;EQDQ01  00002PRCP99
0165232560999992000070506004+67470+078720FM-12+000899999V0200701N008012200019N0500001N1+01221+00341101441ADDAA199000091GF105991021011008001001011KA1999N+00721MD1710161+9999REMSYN070AAXX  05061 23256 32599 50708 10122 20034 40144 57016 82101 333 20072;EQDQ01  00002PRCP99
0112232560999992000070509004+67470+078720FM-12+000899999V0200701N009012200019N0500001N1+01381+00211101381ADDGF107991021011008001001011MD1710061+9999REMSYN060AAXX  05091 23256 42599 70709 10138 20021 40138 57006 82101;
0160232560999992000070512004+67470+078720FM-12+000899999V0200601N010012200019N0500001N1+01371+00231101241ADDGF107991021011012501001011MA1999999100921MD1710141+9999OA140101301REMSYN082AAXX  05121 23256 42699 70610 10137 20023 30092 40124 57014 82101 333 91013 91114;
0165232560999992000070515004+67470+078720FM-12+000899999V0200501N007019999999N0500001N1+01281+00251101121ADDAA199000091GF108991021001999999031061KA1999M+01471MD1710121+9999REMSYN070AAXX  05151 23256 32999 80507 10128 20025 40112 57012 82036 333 10147;EQDQ01  00002PRCP99
0165232560999992000070518004+67470+078720FM-12+000899999V0200501N006019999999N0500001N1+01081+00511101031ADDAA199000091GF107991031001999999031011KA1999M+01471MD1710101+9999REMSYN070AAXX  05181 23256 32999 70506 10108 20051 40103 57010 83031 333 10147;EQDQ01  00002PRCP99
0138232560999992000070521004+67470+078720FM-12+000899999V0200501N007010138019N0500001N1+00941+00641100901ADDGA1051+013809059GF108991051051012501071999MD1710131+9999REMSYN070AAXX  05211 23256 42699 80507 10094 20064 40090 57013 8557/ 333 85646;
0197232560999992000070606004+67470+078720FM-12+000899999V0200401N009019999999N0200001N1+01241+00841100471ADDAA199000021AY161061AY221061GF108991081001999999071999KA1120N+00901MD1710101+9999MW1611OA140101201REMSYN088AAXX  06061 23256 31998 80409 10124 20084 40047 57010 76162 8807/ 333 20090 91012 91113;
0166232560999992000070609004+67470+078720FM-12+000899999V0200601N004010081019N0200001N1+01191+01041100401ADDAY161031AY221031GA1051+008109099GF108991051031008001071999MD1710071+9999MW1801REMSYN076AAXX  06091 23256 41598 80604 10119 20104 40040 57007 78062 8537/ 333 85927;
0161232560999992000070612004+67470+078720FM-12+000899999V0200101N003010300019N0200001N1+01231+01121100381ADDAY181061AY261061GF108991031051012501071999MA1999999100061MD1710021+9999MW1611REMSYN072AAXX  06121 23256 41698 80103 10123 20112 30006 40038 57002 76186 8357/;
0163232560999992000070615004+67470+078720FM-12+000899999V0203301N003010300019N0200001N1+01161+01101100361ADDAY161031AY221031GF108991021051012501071999KA1999M+01431MD1710021+9999MW1611REMSYN076AAXX  06151 23256 /1698 83303 10116 20110 40036 57002 76162 8257/ 333 10143;
0180232560999992000070618004+67470+078720FM-12+000899999V0203401N005019999999N0200001N1+01181+01141100261ADDAA100003091AY161061AY221061GF108991031001999999031061KA1999M+01431MD1710101+9999MW1021REMSYN082AAXX  06181 23256 11998 83405 10118 20114 40026 57010 60030 70262 83036 333 10143;
0112232560999992000070621004+67470+078720FM-12+000899999V0200301N009012200019N0500001N1+00961+00771100261ADDGF103991031001999999031001MD1410001+9999REMSYN060AAXX  06211 23256 42999 30309 10096 20077 40026 54000 83030;
0160232560999992000070700004+67470+078720FM-12+000899999V0200201N010019999999N0500001N1+00941+00671100331ADDGF106991061001999999031011MA1999999100011MD1210071+9999OA140101301REMSYN082AAXX  07001 23256 42999 60210 10094 20067 30001 40033 52007 86031 333 91013 91113;
0122232560999992000070703004+67470+078720FM-12+000899999V0200301N009019999999N0500001N1+01181+00731100341ADDGF106991061001999999031001MD1210011+9999REMSYN070AAXX  07031 23256 /2999 60309 10118 20073 40034 52001 86030 333 55000;
0197232560999992000070706004+67470+078720FM-12+000899999V0200301N010010090019N0500001N1+01441+00701100321ADDAA100000591GA1051+009009069GF107991051081008001031011KA1120N+00891MD1710021+9999OA140101301REMSYN094AAXX  07061 23256 12599 70310 10144 20070 40032 57002 69940 85831 333 20089 85630 91013 91114;
0138232560999992000070709004+67470+078720FM-12+000899999V0200501N010010102019N0500001N1+01541+00641100281ADDGA1061+010209059GF108991061051012501071999MD1710041+9999REMSYN070AAXX  07091 23256 42699 80510 10154 20064 40028 57004 8657/ 333 86634;
0161232560999992000070712004+67470+078720FM-12+000899999V0200301N009010138019N0500001N1+01521+00651100301ADDGA1061+013809069GF108991061051012501071999MD1210021+9999OA140101201REMSYN082AAXX  07121 23256 42699 80309 10152 20065 40030 52002 8657/ 333 86646 91012 91113;
0187232560999992000070715004+67470+078720FM-12+000899999V0200501N007010144019N0500001N1+01391+00671100241ADDAA199000091GA1081+014409059GF108991081051012501999999KA1120M+01561MD1710061+9999REMSYN076AAXX  07151 23256 32699 80507 10139 20067 40024 57006 885// 333 10156 88648;EQDQ01  00002PRCP99
0187232560999992000070718004+67470+078720FM-12+000899999V0200301N007010300019N0500001N1+01291+00741100141ADDAA199000091GA1041+010809059GF108991041051012501071999KA1120M+01561MD1710101+9999REMSYN076AAXX  07181 23256 32699 80307 10129 20074 40014 57010 8457/ 333 10156 84636;EQDQ01  00002PRCP99
0138232560999992000070721004+67470+078720FM-12+000899999V0200201N008010300019N0500001N1+01081+00731099991ADDGA1031+014109059GF108991041051012501071999MD1710151+9999REMSYN070AAXX  07211 23256 42699 80208 10108 20073 49999 57015 8457/ 333 83647;
0171232560999992000070800004+67470+078720FM-12+000899999V0200301N009010096019N0500001N1+00971+00761099821ADDGA1061+009609069GF108991061051008001071999MA1999999099501MD1710171+9999REMSYN088AAXX  08001 23256 42599 80309 10097 20076 39950 49982 57017 8657/ 333 86632 99012 91114;
0182232560999992000070803004+67470+078720FM-12+000899999V0200301N009010114019N0500001N1-00091+99999099621ADDAA199000091GA1071+011409059GF108991071051012501071999GJ104029MD1710201+9999REMSYN076AAXX  08031 23256 32699 80309 11009 20086 49962 57020 8757/ 333 55067 87638;EQDQ01  00002PRCP99
0202232560999992000070806004+67470+078720FM-12+000899999V0200201N007010096019N0100001N1+01041+01001099471ADDAA199000021AY161061AY221061GA1081+009609069GF108991081051008001999999KA1120N+00961MD1710151+9999MW1611REMSYN088AAXX  08061 23256 31597 80207 10104 20100 49947 57015 76162 885// 333 20096 88632 91112;
0166232560999992000070809004+67470+078720FM-12+000899999V0200101N004010108019N0100001N1+01141+01141099331ADDAY161031AY221031GA1051+010809059GF108991051051012501071999MD1710131+9999MW1611REMSYN076AAXX  08091 23256 41697 80104 10114 20114 49933 57013 76162 8557/ 333 85636;
0187232560999992000070812004+67470+078720FM-12+000899999V0203401N006010024019N0100001N1+01181+01181099181ADDAY161061AY221061GA1081+002409069GF108991081051002501999999MA1999999098871MD1710151+9999MW1611REMSYN082AAXX  08121 23256 41397 83406 10118 20118 39887 49918 57015 76162 885// 333 88708;
0221232560999992000070818004+67470+078720FM-12+000899999V0203301N008010021019N0200001N1+01111+01111099101ADDAA100005191AY161061AY221061GA1061+002109069GF108991999071002501021999KA1120M+01201MD1710011+9999MW1611REMSYN088AAXX  08181 23256 11398 83308 10111 20111 49910 57001 60050 76162 8872/ 333 10120 86707;EQDQ01+000082SCOTLC
0185232560999992000070821004+67470+078720FM-12+000899999V0203301N008010024019N0200001N1+01051+01051099141ADDAY161031AY221031GA1061+002409069GF108991999071002501021999MD1210031+9999MW1611REMSYN076AAXX  08211 23256 41398 83308 10105 20105 49914 52003 76162 8872/ 333 86708;EQDQ01+000082SCOTLC
0229232560999992000070900004+67470+078720FM-12+000899999V0203001N012010024019N0500001N1+01031+01031099261ADDAY161061AY221061GA1051+002409079GF108991999071002501021999MA1999999098941MD1210121+9999MW1021OA140101501REMSYN094AAXX  09001 23256 41399 83012 10103 20103 39894 49926 52012 70262 8872/ 333 85708 91015 91115;EQDQ01+000082SCOTLC
0180232560999992000070903004+67470+078720FM-12+000899999V0202901N010010027019N0500001N1+00941+00921099531ADDAY161031AY221031GA1051+002709069GF108991081051002501999999GJ100009MD1210271+9999MW1211REMSYN082AAXX  09031 23256 /1399 82910 10094 20092 49953 52027 72162 885// 333 55000 85709;
0244232560999992000070906004+67470+078720FM-12+000899999V0202801N013010054019N0500001N1+01001+00651099811ADDAA100001091AY161061AY221061GA1081+005409069GF108991081051004501999999KA1120M+99999MD1210281+9999MW1021OA140101601REMSYN100AAXX  09061 23256 11499 82813 10100 20065 49981 52028 60010 70262 885// 333 10088 88618 91016 91117;EQDQ01 +00882ATMX  
0138232560999992000070909004+67470+078720FM-12+000899999V0202901N013010300019N0500001N1+01111+00401100081ADDGA1041+007509059GF107991041051008001031001MD1210271+9999REMSYN070AAXX  09091 23256 42599 72913 10111 20040 40008 52027 84530 333 84625;
0182232560999992000070912004+67470+078720FM-12+000899999V0202701N010010069019N0500001N1+00961+00341100331ADDGA1051+006909099GF107991071031008001001001MA1999999100011MD1210251+9999OA140101301REMSYN088AAXX  09121 23256 42599 72710 10096 20034 30001 40033 52025 87300 333 85923 91013 91116;
0168232560999992000070915004+67470+078720FM-12+000899999V0202701N007010126019N0500001N1+01011+00151100421ADDAA199000021GA1061+012609059GF106991061051012501001001KA1120M+01151MD1210091+9999REMSYN076AAXX  09151 23256 32699 62707 10101 20015 40042 52009 86500 333 10115 86642;
0165232560999992000070918004+67470+078720FM-12+000899999V0202101N005012200019N0500001N1+00831+00411100461ADDAA199000091GF102991021051012501001001KA1999M+01151MD1210041+9999REMSYN070AAXX  09181 23256 32699 22105 10083 20041 40046 52004 82500 333 10115;EQDQ01  00002PRCP99
0166232560999992000070921004+67470+078720FM-12+000899999V0202201N006010120019N0500001N1+00811+00501100441ADDAY111031AY211031GA1041+012009099GF107991061031012501031001MD1710021+9999MW1251REMSYN076AAXX  09211 23256 41699 72206 10081 20050 40044 57002 72511 86330 333 84940;
0187232560999992000071000004+67470+078720FM-12+000899999V0201901N00501012001CN0500001N1+00791+00791100411ADDAY181061AY211061GA1041+011109099GF107991051031012501031001MA1999999100091MD1710031+9999MW1021REMSYN082AAXX  10001 23256 41699 71905 10079 20079 30009 40041 57003 70281 85330 333 84937;
0122232560999992000071003004+67470+078720FM-12+000899999V0202701N006010300019N0500001N1+01051+00551100461ADDGF106991031031008001031001MD1210051+9999REMSYN070AAXX  10031 23256 /2599 62706 10105 20055 40046 52005 83330 333 55063;
0152232560999992000071006004+67470+078720FM-12+000899999V0202401N007010300019N0500001N1+01481+00041100471ADDAA100000391GF106991031031008001031011KA1999N+00741MD1210011+9999REMSYN076AAXX  10061 23256 12599 62407 10148 20004 40047 52001 69930 83331 333 20074;
0112232560999992000071009004+67470+078720FM-12+000899999V0202901N001010300019N0500001N1+01481+00341100481ADDGF106991031031008001031001MD1210011+9999REMSYN060AAXX  10091 23256 42599 62901 10148 20034 40048 52001 83330;
0161232560999992000071012004+67470+078720FM-12+000899999V0202701N001010300019N0500001N1+01391+00671100571ADDAY181061AY221061GF107991031031012501031011MA1999999100251MD1210091+9999MW1251REMSYN072AAXX  10121 23256 41699 72701 10139 20067 30025 40057 52009 72582 83331;
0135232560999992000071015004+67470+078720FM-12+000899999V0203201N001012200019N0500001N1+01411+00501100651ADDGF103991021021008001001011KA1999M+01641MD1210081+9999REMSYN070AAXX  10151 23256 /2599 33201 10141 20050 40065 52008 82201 333 10164;
0152232560999992000071018004+67470+078720FM-12+000899999V0201801N001012200019N0500001N1+01121+00651100671ADDAA100000391GF103991031021012501001001KA1999M+01641MD1210021+9999REMSYN076AAXX  10181 23256 12699 31801 10112 20065 40067 52002 69930 83200 333 10164;
0131232560999992000071021004+67470+078720FM-12+000899999V0202001N003012200019N0500001N1+00941+00841100701ADDGF102991999041012501001001MD1210031+9999REMSYN060AAXX  10211 23256 42699 22003 10094 20084 40070 52003 83400;EQDQ01+000032SCOTLC
0133232560999992000071100004+67470+078720FM-12+000899999V0202701N003012200019N0500001N1+01261+00931100841ADDGF102991021011012501001001MA1999999100521MD1210141+9999REMSYN066AAXX  11001 23256 42699 22703 10126 20093 30052 40084 52014 82100;
0152232560999992000071103004+67470+078720FM-12+000899999V0203601N003012200019N0500001N1+01401+00801100981ADDAA199000091GF102991021021012501001001MD1210141+9999REMSYN070AAXX  11031 23256 32699 23603 10140 20080 40098 52014 82200 333 55136;EQDQ01  00002PRCP99
0165232560999992000071106004+67470+078720FM-12+000899999V0202801N007012200019N0500001N1+01501-00121101081ADDAA199000091GF103991021021012501001011KA1999N+00841MD1210101+9999REMSYN070AAXX  11061 23256 32699 32807 10150 21012 40108 52010 82201 333 20084;EQDQ01  00002PRCP99
0112232560999992000071109004+67470+078720FM-12+000899999V0202901N007012200019N0500001N1+01581+00091101231ADDGF102991021021008001001001MD1210151+9999REMSYN060AAXX  11091 23256 42599 22907 10158 20009 40123 52015 82200;
0133232560999992000071112004+67470+078720FM-12+000899999V0202901N007012200019N0500001N1+01441+00401101331ADDGF102991021011012501031001MA1999999101011MD1210101+9999REMSYN066AAXX  11121 23256 42699 22907 10144 20040 30101 40133 52010 82130;
0187232560999992000071115004+67470+078720FM-12+000899999V0203401N004010084019N0500001N1+01201+00451101441ADDAA199000091GA1071+008409059GF107991071051008001001001KA1120M+01611MD1210111+9999REMSYN076AAXX  11151 23256 32599 73404 10120 20045 40144 52011 87500 333 10161 87628;EQDQ01  00002PRCP99
0165232560999992000071118004+67470+078720FM-12+000899999V0203601N003012200019N0500001N1+00961+00681101541ADDAA199000091GF102991021001999999031001KA1999M+01611MD1210091+9999REMSYN070AAXX  11181 23256 32999 23603 10096 20068 40154 52009 82030 333 10161;EQDQ01  00002PRCP99
0112232560999992000071121004+67470+078720FM-12+000899999V0203401N003012200019N0500001N1+00741+00621101581ADDGF102991021001000751031011MD1210041+9999REMSYN060AAXX  11211 23256 42199 23403 10074 20062 40158 52004 82031;
0133232560999992000071200004+67470+078720FM-12+000899999V0203101N004012200019N0500001N1+00951+00531101581ADDGF103991011001999999031011MA1999999101251MD1410001+9999REMSYN066AAXX  12001 23256 42999 33104 10095 20053 30125 40158 54000 81031;
0152232560999992000071203004+67470+078720FM-12+000899999V0200301N003012200019N0500001N1+01211+00561101601ADDAA199000091GF103991011011008001001011MD1210031+9999REMSYN070AAXX  12031 23256 32599 30303 10121 20056 40160 52003 81101 333 55163;EQDQ01  00002PRCP99
0165232560999992000071206004+67470+078720FM-12+000899999V0203601N002012200019N0500001N1+01481+00451101561ADDAA199000091GF102991011011008001001011KA1999N+00741MD1710041+9999REMSYN070AAXX  12061 23256 32599 23602 10148 20045 40156 57004 81101 333 20074;EQDQ01  00002PRCP99
0133232560999992000071212004+67470+078720FM-12+000899999V0203001N002019999999N0500001N1+01831+00361101351ADDGF105991001001999999001011MA1999999101031MD1710111+9999REMSYN066AAXX  12121 23256 42999 53002 10183 20036 30103 40135 57011 80001;
0165232560999992000071215004+67470+078720FM-12+000899999V0200801N001019999999N0500001N1+01811+00561101271ADDAA199000091GF105991021001999999031011KA1999M+01891MD1710081+9999REMSYN070AAXX  12151 23256 32999 50801 10181 20056 40127 57008 82031 333 10189;EQDQ01  00002PRCP99
0165232560999992000071218004+67470+078720FM-12+000899999V0202001N003019999999N0500001N1+01581+00451101201ADDAA199000091GF106991061001999999031011KA1999M+01891MD1710071+9999REMSYN070AAXX  12181 23256 32999 62003 10158 20045 40120 57007 86031 333 10189;EQDQ01  00002PRCP99
0112232560999992000071221004+67470+078720FM-12+000899999V0202501N004010300019N0500001N1+01311+00941101121ADDGF107991031051012501031001MD1710081+9999REMSYN060AAXX  12211 23256 42699 72504 10131 20094 40112 57008 83530;
0133232560999992000071300004+67470+078720FM-12+000899999V0202001N005012200019N0200001N1+01271+01021101161ADDGF103991021051999999031061MA1999999100841MD1210041+9999REMSYN066AAXX  13001 23256 42998 32005 10127 20102 30084 40116 52004 82536;
0182232560999992000071303004+67470+078720FM-12+000899999V0203101N006010036019N0500001N1+00991+00811101231ADDAA199000091GA1081+003609059GF108991081051004501999999GJ109609MD1210061+9999REMSYN076AAXX  13031 23256 32499 83106 10099 20081 40123 52006 885// 333 55160 88612;EQDQ01  00002PRCP99
0203232560999992000071306004+67470+078720FM-12+000899999V0203201N006010024019N0500001N1+00881+00761101281ADDAA199000091GA1051+002409069GF108991081051002501999999KA1120N+99999MD1210051+9999REMSYN076AAXX  13061 23256 32399 83206 10088 20076 40128 52005 885// 333 20097 85708;EQDQ01  00002PRCP99Q02 +00972ATMN  
0138232560999992000071309004+67470+078720FM-12+000899999V0203201N007010048019N0500001N1+00931+00611101331ADDGA1051+004809099GF108991081031004501999999MD1210051+9999REMSYN070AAXX  13091 23256 42499 83207 10093 20061 40133 52005 883// 333 85916;
0187232560999992000071312004+67470+078720FM-12+000899999V0203301N006010024019N0200001N1+00901+00811101361ADDAY161061AY221061GA1051+002409069GF108991081051002501999999MA1999999101031MD1210031+9999MW1611REMSYN082AAXX  13121 23256 41398 83306 10090 20081 30103 40136 52003 76162 885// 333 85708;
0185232560999992000071315004+67470+078720FM-12+000899999V0203301N007010048019N0200001N1+00861+00771101421ADDAY161031AY221031GA1081+004809059GF108991081051004501999999KA1120M+01001MD1210061+9999MW1601REMSYN082AAXX  13151 23256 /1498 83307 10086 20077 40142 52006 76062 885// 333 10100 88616;
0202232560999992000071318004+67470+078720FM-12+000899999V0203301N006010033019N0500001N1+00781+00741101481ADDAA100000391AY161061AY221061GA1051+003309099GF108991081031004501999999KA1120M+01001MD1210061+9999MW1021REMSYN088AAXX  13181 23256 11499 83306 10078 20074 40148 52006 69930 70262 883// 333 10100 85911;
0187232560999992000071400004+67470+078720FM-12+000899999V0203601N005010027019N0500001N1+00641+00621101621ADDAY181061AY221061GA1051+002709069GF108991081051002501999999MA1999999101291MD1210081+9999MW1021REMSYN082AAXX  14001 23256 41399 83605 10064 20062 30129 40162 52008 70282 885// 333 85709;
0152232560999992000071403004+67470+078720FM-12+000899999V0203401N007010042019N0500001N1+00821+00531101731ADDGA1041+004209099GF107991071031004501001001GJ100969MD1210111+9999REMSYN076AAXX  14031 23256 /2499 73407 10082 20053 40173 52011 87300 333 55016 84914;
0152232560999992000071406004+67470+078720FM-12+000899999V0203401N007012200019N0500001N1+01171+00501101751ADDAA100000791GF103991031051008001001001KA1999N+00641MD1210031+9999REMSYN076AAXX  14061 23256 12599 33407 10117 20050 40175 52003 69900 83500 333 20064;
0112232560999992000071409004+67470+078720FM-12+000899999V0203601N007012200019N0500001N1+01511+00411101781ADDGF102991021051008001001001MD1210031+9999REMSYN060AAXX  14091 23256 42599 23607 10151 20041 40178 52003 82500;
0133232560999992000071412004+67470+078720FM-12+000899999V0200101N007012200019N0500001N1+01591+00361101861ADDGF102991011051008001001011MA1999999101541MD1210081+9999REMSYN066AAXX  14121 23256 42599 20107 10159 20036 30154 40186 52008 81501;
0165232560999992000071415004+67470+078720FM-12+000899999V0200101N006012200019N0500001N1+01471+00271101931ADDAA199000091GF102991001001999999001011KA1999M+01601MD1210071+9999REMSYN070AAXX  14151 23256 32999 20106 10147 20027 40193 52007 80001 333 10160;EQDQ01  00002PRCP99
0165232560999992000071418004+67470+078720FM-12+000899999V0203401N003012200019N0500001N1+01161+00511101981ADDAA199000091GF102991001001999999001011KA1999M+01601MD1210051+9999REMSYN070AAXX  14181 23256 32999 23403 10116 20051 40198 52005 80001 333 10160;EQDQ01  00002PRCP99
0112232560999992000071421004+67470+078720FM-12+000899999V0203401N003012200019N0500001N1+00961+00681102061ADDGF106991011051012501001011MD1210071+9999REMSYN060AAXX  14211 23256 42699 63403 10096 20068 40206 52007 81501;
0133232560999992000071500004+67470+078720FM-12+000899999V0203401N002019999999N0500001N1+01001+00701102131ADDGF107991021001999999031011MA1999999101801MD1210071+9999REMSYN066AAXX  15001 23256 42999 73402 10100 20070 30180 40213 52007 82031;
0152232560999992000071503004+67470+078720FM-12+000899999V0203401N002019999999N0500001N1+01361+00611102121ADDAA199000091GF106991021001999999031011MD1410001+9999REMSYN070AAXX  15031 23256 32999 63402 10136 20061 40212 54000 82031 333 55143;EQDQ01  00002PRCP99
0165232560999992000071506004+67470+078720FM-12+000899999V0203101N004019999999N0500001N1+01571+00701102061ADDAA199000091GF106991031001999999031011KA1999N+00941MD1710061+9999REMSYN070AAXX  15061 23256 32999 63104 10157 20070 40206 57006 83031 333 20094;EQDQ01  00002PRCP99
0112232560999992000071509004+67470+078720FM-12+000899999V0203201N004010300019N0500001N1+01791+00321101951ADDGF107991011011012501031011MD1710111+9999REMSYN060AAXX  15091 23256 42699 73204 10179 20032 40195 57011 81131;
0161232560999992000071512004+67470+078720FM-12+000899999V0202901N005010300019N0500001N1+01661+00451101851ADDAY181061AY221061GF107991031031012501031001MA1999999101531MD1710101+9999MW1021REMSYN072AAXX  15121 23256 41699 72905 10166 20045 30153 40185 57010 70282 83330;
0157232560999992000071515004+67470+078720FM-12+000899999V0202701N001010138019N0500001N1+01541+00641101771ADDGA1051+013809059GF107991051051012501031001KA1120M+01811MD1710081+9999REMSYN076AAXX  15151 23256 /2699 72701 10154 20064 40177 57008 85530 333 10181 85646;
0152232560999992000071518004+67470+078720FM-12+000899999V0201801N001019999999N0500001N1+01331+00851101691ADDAA100000791GF105991021001999999031011KA1999M+01811MD1710081+9999REMSYN076AAXX  15181 23256 12999 51801 10133 20085 40169 57008 69900 82031 333 10181;
0133232560999992000071600004+67470+078720FM-12+000899999V0201501N003010300019N0500001N1+01331+00981101551ADDGF107991021051012501031011MA1999999101231MD1710061+9999REMSYN066AAXX  16001 23256 4/699 71503 10133 20098 30123 40155 57006 82531;
0152232560999992000071603004+67470+078720FM-12+000899999V0201701N004010750019N0500001N1+01791+00841101511ADDAA199000091GF105991021051012501031011MD1710041+9999REMSYN070AAXX  16031 23256 32699 51704 10179 20084 40151 57004 82531 333 55107;EQDQ01  00002PRCP99
0174232560999992000071606004+67470+078720FM-12+000899999V0202001N004010300019N0500001N1+01651+01341101461ADDAA199000021AY181061AY221061GF107991031031012501031001KA1999N+00331MD1710051+9999MW1251REMSYN076AAXX  16061 23256 31699 72004 10165 20134 40146 57005 72582 83330 333 20033;
0112232560999992000071609004+67470+078720FM-12+000899999V0202401N002019999999N0500001N1+02351+01191101331ADDGF105991031001999999031011MD1710121+9999REMSYN060AAXX  16091 23256 42999 52402 10235 20119 40133 57012 83031;
0133232560999992000071612004+67470+078720FM-12+000899999V0203601N002012200019N0500001N1+02381+01191101261ADDGF103991021011012501001011MA1999999100951MD1710071+9999REMSYN066AAXX  16121 23256 42699 33602 10238 20119 30095 40126 57007 82101;
0135232560999992000071615004+67470+078720FM-12+000899999V0201901N003012200019N0500001N1+02211+01431101191ADDGF105991021031008001001011KA1999M+02421MD1710071+9999REMSYN070AAXX  16151 23256 /2599 51903 10221 20143 40119 57007 82301 333 10242;
0152232560999992000071618004+67470+078720FM-12+000899999V0202901N002012200019N0500001N1+01661+01541101171ADDAA100002091GF104991021031008001001011KA1999M+02421MD1710031+9999REMSYN076AAXX  16181 23256 12599 42902 10166 20154 40117 57003 60020 82301 333 10242;
0161232560999992000071700004+67470+078720FM-12+000899999V0202701N004012200019N0500001N1+01841+01711101061ADDAY181061AY211061GF103991031031008001001001MA1999999100741MD1710081+9999MW1021REMSYN072AAXX  17001 23256 41599 32704 10184 20171 30074 40106 57008 70281 83300;
0174232560999992000071706004+67470+078720FM-12+000899999V0203301N00401004201CN0500001N1+01921+01641100941ADDAA100000791GA1041+003909099GF107991071031004501001001KA1120N+01551MD1710011+9999REMSYN082AAXX  17061 23256 12499 73304 10192 20164 40094 57001 69900 87300 333 20155 84913;
0138232560999992000071709004+67470+078720FM-12+000899999V0203201N006012200019N0500001N1+01851+01221100961ADDGA1041+005709029GF106991041081004501001011MD1210021+9999REMSYN070AAXX  17091 23256 42499 63206 10185 20122 40096 52002 84801 333 84819;
0133232560999992000071712004+67470+078720FM-12+000899999V0203501N004012200019N0500001N1+01841+01141100961ADDGF105991031051008001001011MA1999999100641MD1410001+9999REMSYN066AAXX  17121 23256 42599 53504 10184 20114 30064 40096 54000 83501;
0165232560999992000071715004+67470+078720FM-12+000899999V0203301N003012200019N0500001N1+01591+01261100971ADDAA199000091GF102991011051008001001011KA1999M+02021MD1210011+9999REMSYN070AAXX  17151 23256 32599 23303 10159 20126 40097 52001 81501 333 10202;EQDQ01  00002PRCP99
0165232560999992000071718004+67470+078720FM-12+000899999V0203201N002012200019N0500001N1+01321+01251100981ADDAA199000091GF102991021001999999031001KA1999M+02021MD1210011+9999REMSYN070AAXX  17181 23256 32999 23202 10132 20125 40098 52001 82030 333 10202;EQDQ01  00002PRCP99
0138232560999992000071721004+67470+078720FM-12+000899999V0203301N00501007501CN0500001N1+01121+01061101051ADDGA1041+006309099GF107991071031008001001001MD1210071+9999REMSYN070AAXX  17211 23256 42599 73305 10112 20106 40105 52007 87300 333 84921;
0159232560999992000071800004+67470+078720FM-12+000899999V0200201N00501004201CN0500001N1+01121+01031101131ADDGA1041+003309099GF108991081031004501999999MA1999999100811MD1210081+9999REMSYN076AAXX  18001 23256 42499 80205 10112 20103 30081 40113 52008 883// 333 84111;
0182232560999992000071803004+67470+078720FM-12+000899999V0200301N004010018019N0500001N1+00961+00881101231ADDAA199000091GA1061+001809069GF108991081051001501999999GJ108529MD1210091+9999REMSYN076AAXX  18031 23256 32299 80304 10096 20088 40123 52009 885// 333 55142 86706;EQDQ01  00002PRCP99
0187232560999992000071806004+67470+078720FM-12+000899999V0200101N004010027019N0500001N1+01011+00861101341ADDAA199000091GA1051+002709069GF108991081051002501999999KA1120N+00951MD1210111+9999REMSYN076AAXX  18061 23256 32399 80104 10101 20086 40134 52011 885// 333 20095 85709;EQDQ01  00002PRCP99
0138232560999992000071809004+67470+078720FM-12+000899999V0200201N00601004201CN0500001N1+01171+00551101411ADDGA1041+005109099GF107991071031004501001011MD1210081+9999REMSYN070AAXX  18091 23256 42499 70206 10117 20055 40141 52008 87301 333 84917;
0138232560999992000071812004+67470+078720FM-12+000899999V0200201N00601007501CN0500001N1+01221+00531101521ADDGA1041+007209099GF106991061031008001001001MD1210101+9999REMSYN070AAXX  18121 23256 42599 60206 10122 20053 40152 52010 86300 333 84924;
0165232560999992000071815004+67470+078720FM-12+000899999V0200201N005012200019N0500001N1+01281+00401101531ADDAA199000091GF102991021001999999031001KA1999M+01291MD1210021+9999REMSYN070AAXX  18151 23256 32999 20205 10128 20040 40153 52002 82030 333 10129;EQDQ01  00002PRCP99
0165232560999992000071818004+67470+078720FM-12+000899999V0200101N005012200019N0500001N1+00961+00511101661ADDAA199000091GF101991001001999999001011KA1999M+01291MD1210121+9999REMSYN070AAXX  18181 23256 32999 10105 10096 20051 40166 52012 80001 333 10129;EQDQ01  00002PRCP99
0122232560999992000071821004+67470+078720FM-12+000899999V0200101N006012200019N0500001N1+00771+00501101751ADDGA1001+999999999GF100991001001999999001001MD1210091+9999REMSYN054AAXX  18211 23256 42999 00106 10077 20050 40175 52009;
0133232560999992000071900004+67470+078720FM-12+000899999V0203501N005012200019N0500001N1+00761+00481101801ADDGF101991011001999999031001MA1999999101471MD1210051+9999REMSYN066AAXX  19001 23256 42999 13505 10076 20048 30147 40180 52005 81030;
0152232560999992000071903004+67470+078720FM-12+000899999V0203601N006010300019N0500001N1+01011+00381101951ADDAA199000091GF105991031021004501031001MD1210151+9999REMSYN070AAXX  19031 23256 32499 53606 10101 20038 40195 52015 83230 333 55078;EQDQ01  00002PRCP99
0187232560999992000071906004+67470+078720FM-12+000899999V0203601N004010084019N0500001N1+01101+00431101921ADDAA199000091GA1051+008409099GF108991081031008001999999KA1120N+00731MD1710031+9999REMSYN076AAXX  19061 23256 32599 83604 10110 20043 40192 57003 883// 333 20073 85928;EQDQ01  00002PRCP99
0116232560999992000071909004+67470+078720FM-12+000899999V0203601N004019999999N0500001N1+01101+00431101921ADDAA199000091GF108991999999008001999999REMSYN048AAXX  19091 23256 32599 83604 10110 20043 40192;EQDQ01  00002PRCP99
0159232560999992000071912004+67470+078720FM-12+000899999V0203301N00601012001CN0500001N1+01281+00451101871ADDGA1041+009909099GF107991061031012501001011MA1999999101551MD1710051+9999REMSYN076AAXX  19121 23256 42699 73306 10128 20045 30155 40187 57005 86301 333 84933;
0165232560999992000071915004+67470+078720FM-12+000899999V0203601N005012200019N0500001N1+01251+00461101871ADDAA199000091GF106991031031012501001011KA1999M+01381MD1410001+9999REMSYN070AAXX  19151 23256 32699 63605 10125 20046 40187 54000 83301 333 10138;EQDQ01  00002PRCP99
0165232560999992000071918004+67470+078720FM-12+000899999V0203601N004019999999N0500001N1+01051+00581101901ADDAA199000091GF107991071001999999031001KA1999M+01381MD1210021+9999REMSYN070AAXX  19181 23256 32999 73604 10105 20058 40190 52002 87030 333 10138;EQDQ01  00002PRCP99
0112232560999992000071921004+67470+078720FM-12+000899999V0203601N006010300019N0500001N1+00801+00711101911ADDGF107991021051008001031001MD1210011+9999REMSYN060AAXX  19211 23256 42599 73606 10080 20071 40191 52001 82530;
0159232560999992000072000004+67470+078720FM-12+000899999V0200101N00601007501CN0500001N1+00771+00271102011ADDGA1041+006609099GF108991081031008001999999MA1999999101681MD1210101+9999REMSYN076AAXX  20001 23256 42599 80106 10077 20027 30168 40201 52010 883// 333 84922;
0182232560999992000072003004+67470+078720FM-12+000899999V0200201N00601007501CN0500001N1+00801+00291102171ADDAA199000091GA1041+006909099GF106991061031008001001001GJ106669MD1210161+9999REMSYN076AAXX  20031 23256 32599 60206 10080 20029 40217 52016 86300 333 55111 84923;EQDQ01  00002PRCP99
0187232560999992000072006004+67470+078720FM-12+000899999V0200101N008010057019N0500001N1+00671+00261102221ADDAA199000091GA1051+005709099GF108991081031004501999999KA1120N+00631MD1210041+9999REMSYN076AAXX  20061 23256 32499 80108 10067 20026 40222 52004 883// 333 20063 85919;EQDQ01  00002PRCP99
0138232560999992000072009004+67470+078720FM-12+000899999V0203601N006010069019N0500001N1+00741+00231102261ADDGA1071+006909059GF108991071051008001071999MD1210051+9999REMSYN070AAXX  20091 23256 42599 83606 10074 20023 40226 52005 8757/ 333 87623;
0159232560999992000072012004+67470+078720FM-12+000899999V0200301N007010108019N0500001N1+00931+00131102281ADDGA1071+010809059GF107991071051012501001001MA1999999101951MD1210021+9999REMSYN076AAXX  20121 23256 42699 70307 10093 20013 30195 40228 52002 87500 333 87636;
0184232560999992000072015004+67470+078720FM-12+000899999V0200201N006010102019N0500001N1+00941+00301102271ADDAA199000091GA1081+010209059GF199999081051012501999999MD1710011+9999REMSYN070AAXX  20151 23256 32699 60206 10094 20030 40227 57001 885// 333 88634;EQDQ01+000062SCOTCVQ02  00002PRCP99
0187232560999992000072018004+67470+078720FM-12+000899999V0200201N006010084019N0500001N1+00931+00431102281ADDAA199000091GA1071+008409059GF107991071051008001001001KA1120M+00981MD1210011+9999REMSYN076AAXX  20181 23256 32599 70206 10093 20043 40228 52001 87500 333 10098 87628;EQDQ01  00002PRCP99
0138232560999992000072021004+67470+078720FM-12+000899999V0200101N006010060019N0500001N1+00881+00581102281ADDGA1051+006009099GF108991081031008001999999MD1410001+9999REMSYN070AAXX  20211 23256 42599 80106 10088 20058 40228 54000 883// 333 85920;
0153232560999992000072100004+67470+078720FM-12+000899999V0200101N006010063019N0500001N1+00911+00611999999ADDGA1051+006309099GF108991081031008001999999MA1999999101951MD1410001+9999REMSYN070AAXX  21001 23256 42599 80106 10091 20061 30195 54008 883// 333 85921;
0182232560999992000072103004+67470+078720FM-12+000899999V0200201N00901004201CN0500001N1+00881+00581102351ADDAA199000091GA1041+004509099GF107991071031004501001001GJ101389MD1210071+9999REMSYN076AAXX  21031 23256 32499 70209 10088 20058 40235 52007 87300 333 55023 84915;EQDQ01  00002PRCP99
0160232560999992000072112004+67470+078720FM-12+000899999V0200301N009012200019N0500001N1+01681+00511102301ADDGF102991011011008001001011MA1999999101981MD1710041+9999OA140101201REMSYN082AAXX  21121 23256 42599 20309 10168 20051 30198 40230 57004 81101 333 91012 91114;
0165232560999992000072115004+67470+078720FM-12+000899999V0200301N007012200019N0500001N1+01561+00361102271ADDAA199000091GF101991001001999999001011KA1999M+01701MD1710031+9999REMSYN070AAXX  21151 23256 32999 10307 10156 20036 40227 57003 80001 333 10170;EQDQ01  00002PRCP99
0165232560999992000072118004+67470+078720FM-12+000899999V0200201N007012200019N0500001N1+01171+00461102291ADDAA199000091GF101991001001999999001011KA1999M+01701MD1210021+9999REMSYN070AAXX  21181 23256 32999 10207 10117 20046 40229 52002 80001 333 10170;EQDQ01  00002PRCP99
0112232560999992000072121004+67470+078720FM-12+000899999V0200201N006012200019N0500001N1+00901+00551102221ADDGF102991001001999999001011MD1710081+9999REMSYN060AAXX  21211 23256 42999 20206 10090 20055 40222 57008 80001;
0133232560999992000072200004+67470+078720FM-12+000899999V0200301N007012200019N0500001N1+00901+00591102141ADDGF102991001001999999001011MA1999999101811MD1710081+9999REMSYN066AAXX  22001 23256 42999 20307 10090 20059 30181 40214 57008 80001;
0152232560999992000072203004+67470+078720FM-12+000899999V0200301N007012200019N0500001N1+01211+00711102071ADDAA199000091GF104991021001999999031011MD1710061+9999REMSYN070AAXX  22031 23256 32999 40307 10121 20071 40207 57006 82031 333 55122;EQDQ01  00002PRCP99
0165232560999992000072206004+67470+078720FM-12+000899999V0200301N008010300019N0500001N1+01601+00641101991ADDAA199000091GF106991011011008001031011KA1999N+00811MD1710081+9999REMSYN070AAXX  22061 23256 32599 60308 10160 20064 40199 57008 81131 333 20081;EQDQ01  00002PRCP99
0112232560999992000072209004+67470+078720FM-12+000899999V0200401N007010300019N0500001N1+01861+00741101971ADDGF107991031051012501031011MD1710021+9999REMSYN060AAXX  22091 23256 42699 70407 10186 20074 40197 57002 83531;
0159232560999992000072212004+67470+078720FM-12+000899999V0200401N004010147019N0500001N1+01881+00841101901ADDGA1051+014709059GF108991051051012501071999MA1999999101581MD1710071+9999REMSYN076AAXX  22121 23256 42699 80404 10188 20084 30158 40190 57007 8557/ 333 85649;
0165232560999992000072215004+67470+078720FM-12+000899999V0200301N002010300019N0500001N1+01751+01021101871ADDAA199000091GF107991031051017501031001KA1999M+01891MD1710031+9999REMSYN070AAXX  22151 23256 32799 70302 10175 20102 40187 57003 83530 333 10189;EQDQ01  00002PRCP99
0165232560999992000072218004+67470+078720FM-12+000899999V0200101N002012200019N0500001N1+01481+01111101851ADDAA199000091GF103991021051017501001011KA1999M+01891MD1710021+9999REMSYN070AAXX  22181 23256 32799 30102 10148 20111 40185 57002 82501 333 10189;EQDQ01  00002PRCP99
0112232560999992000072221004+67470+078720FM-12+000899999V0200301N002012200019N0500001N1+01111+01091101851ADDGF102991011051017501031011MD1410001+9999REMSYN060AAXX  22211 23256 42799 20302 10111 20109 40185 54000 81531;
0133232560999992000072300004+67470+078720FM-12+000899999V0200401N002010300019N0500001N1+01141+01091101891ADDGF106991021051012501031001MA1999999101571MD1210041+9999REMSYN066AAXX  23001 23256 42699 60402 10114 20109 30157 40189 52004 82530;
0152232560999992000072303004+67470+078720FM-12+000899999V0200901N004012200019N0500001N1+01711+00941101901ADDAA199000091GF102991021011012501031011MD1210011+9999REMSYN070AAXX  23031 23256 32699 20904 10171 20094 40190 52001 82131 333 55105;EQDQ01  00002PRCP99
0165232560999992000072306004+67470+078720FM-12+000899999V0200601N002012200019N0500001N1+01861+00841101851ADDAA199000091GF103991021011012501031011KA1999N+01071MD1710051+9999REMSYN070AAXX  23061 23256 32699 30602 10186 20084 40185 57005 82131 333 20107;EQDQ01  00002PRCP99
0112232560999992000072309004+67470+078720FM-12+000899999V0200201N003012200019N0500001N1+02141+00731101741ADDGF104991021021012501001011MD1710101+9999REMSYN060AAXX  23091 23256 42699 40203 10214 20073 40174 57010 82201;
0133232560999992000072312004+67470+078720FM-12+000899999V0203201N003012200019N0500001N1+02171+00771101661ADDGF106991031031012501001011MA1999999101351MD1710081+9999REMSYN066AAXX  23121 23256 42699 63203 10217 20077 30135 40166 57008 83301;
0165232560999992000072315004+67470+078720FM-12+000899999V0200201N002010300019N0500001N1+01951+01001101661ADDAA199000091GF106991031031012501031011KA1999M+02221MD1710011+9999REMSYN070AAXX  23151 23256 32699 60202 10195 20100 40166 57001 83331 333 10222;EQDQ01  00002PRCP99
0165232560999992000072318004+67470+078720FM-12+000899999V0200201N002012200019N0500001N1+01711+01101101621ADDAA199000091GF103991021001999999031011KA1999M+02221MD1710041+9999REMSYN070AAXX  23181 23256 32999 30202 10171 20110 40162 57004 82031 333 10222;EQDQ01  00002PRCP99
0112232560999992000072321004+67470+078720FM-12+000899999V0200201N001012200019N0500001N1+01371+01241101591ADDGF102991021001999999031011MD1710031+9999REMSYN060AAXX  23211 23256 42999 20201 10137 20124 40159 57003 82031;
0133232560999992000072400004+67470+078720FM-12+000899999V0209999C000012200019N0500001N1+01581+01401101581ADDGF102991001001999999001011MA1999999101261MD1710011+9999REMSYN066AAXX  24001 23256 42999 20000 10158 20140 30126 40158 57001 80001;
0152232560999992000072403004+67470+078720FM-12+000899999V0200501N001012200019N0500001N1+02051+00901101551ADDAA199000091GF102991001001999999001011MD1710031+9999REMSYN070AAXX  24031 23256 32999 20501 10205 20090 40155 57003 80001 333 55126;EQDQ01  00002PRCP99
0165232560999992000072406004+67470+078720FM-12+000899999V0203601N002012200019N0500001N1+02271+00481101441ADDAA199000091GF102991011011012501001011KA1999N+01241MD1710101+9999REMSYN070AAXX  24061 23256 32699 23602 10227 20048 40144 57010 81101 333 20124;EQDQ01  00002PRCP99
0112232560999992000072409004+67470+078720FM-12+000899999V0203101N003012200019N0500001N1+02371+00761101311ADDGF103991031021012501001001MD1710131+9999REMSYN060AAXX  24091 23256 42699 33103 10237 20076 40131 57013 83200;
0133232560999992000072412004+67470+078720FM-12+000899999V0203201N004012200019N0500001N1+02331+00801101191ADDGF102991021021012501001001MA1999999100881MD1710121+9999REMSYN066AAXX  24121 23256 42699 23204 10233 20080 30088 40119 57012 82200;
0165232560999992000072415004+67470+078720FM-12+000899999V0203301N004012200019N0500001N1+02041+01051101121ADDAA199000091GF103991031001999999031001KA1999M+02411MD1710081+9999REMSYN070AAXX  24151 23256 32999 33304 10204 20105 40112 57008 83030 333 10241;EQDQ01  00002PRCP99
0165232560999992000072418004+67470+078720FM-12+000899999V0203501N002012200019N0500001N1+01651+01201101101ADDAA199000091GF102991021001999999031001KA1999M+02411MD1710021+9999REMSYN070AAXX  24181 23256 32999 23502 10165 20120 40110 57002 82030 333 10241;EQDQ01  00002PRCP99
0131232560999992000072421004+67470+078720FM-12+000899999V0200101N999992200019N0500001N1+01461+01171101011ADDGF101991011001999999031001MD1710091+9999REMSYN060AAXX  24211 23256 42999 10192 10146 20117 40101 57009 81030;EQDQ01+009201WOSPD 
0133232560999992000072500004+67470+078720FM-12+000899999V0209999C000012200019N0500001N1+01611+01301100931ADDGF101991011001999999031001MA1999999100611MD1710081+9999REMSYN066AAXX  25001 23256 42999 10000 10161 20130 30061 40093 57008 81030;
0152232560999992000072503004+67470+078720FM-12+000899999V0209999C000012200019N0500001N1+01551+01131100821ADDAA199000091GF102991021001999999031011MD1710111+9999REMSYN070AAXX  25031 23256 32999 20000 10155 20113 40082 57011 82031 333 55187;EQDQ01  00002PRCP99
0165232560999992000072506004+67470+078720FM-12+000899999V0201201N002012200019N0500001N1+02451+00741100661ADDAA199000091GF103991021021012501001011KA1999N+01421MD1710151+9999REMSYN070AAXX  25061 23256 32699 31202 10245 20074 40066 57015 82201 333 20142;EQDQ01  00002PRCP99
0112232560999992000072509004+67470+078720FM-12+000899999V0200901N002010750019N0500001N1+02501+00651100531ADDGF105991021021012501031011MD1710131+9999REMSYN060AAXX  25091 23256 42699 50902 10250 20065 40053 57013 82231;
0133232560999992000072512004+67470+078720FM-12+000899999V0209999C000012200019N0500001N1+02321+00841100411ADDGF104991021081012501031011MA1999999100101MD1710121+9999REMSYN066AAXX  25121 23256 42699 40000 10232 20084 30010 40041 57012 82831;
0165232560999992000072515004+67470+078720FM-12+000899999V0209999C000019999999N0200001N1+02301+00931100321ADDAA199000091GF107991021001999999031011KA1999M+02581MD1710091+9999REMSYN070AAXX  25151 23256 32998 70000 10230 20093 40032 57009 82031 333 10258;EQDQ01  00002PRCP99
0165232560999992000072518004+67470+078720FM-12+000899999V0202001N004012200019N0200001N1+01971+00861100231ADDAA199000091GF104991041001999999031001KA1999M+02581MD1710091+9999REMSYN070AAXX  25181 23256 32998 42004 10197 20086 40023 57009 84030 333 10258;EQDQ01  00002PRCP99
0112232560999992000072521004+67470+078720FM-12+000899999V0202001N005012200019N0500001N1+01721+00861100091ADDGF104991021001999999031011MD1710141+9999REMSYN060AAXX  25211 23256 42999 42005 10172 20086 40009 57014 82031;
0133232560999992000072600004+67470+078720FM-12+000899999V0201901N003019999999N0200001N1+01581+01331099981ADDGF107991071001999999031001MA1999999099661MD1710121+9999REMSYN066AAXX  26001 23256 42998 71903 10158 20133 39966 49998 57012 87030;
0153232560999992000072603004+67470+078720FM-12+000899999V0202701N003019999999N0200001N1+01691+01431099991ADDAA124999999GF108991081001999999071999GJ110509MD1210021+9999REMSYN082AAXX  26031 23256 32998 82703 10169 20143 49999 52002 8807/ 333 55175 55520 7000/;
0215232560999992000072606004+67470+078720FM-12+000899999V0203001N004010021019N0200001N1+01221+01221100161ADDAA199000021AY121061AY221061GA1051+002109069GF108991081031002501999999KA1120N+99999MD1210161+9999MW1251REMSYN082AAXX  26061 23256 31398 83004 10122 20122 40016 52016 72522 883// 333 20150 85707;EQDQ01 +01502ATMN  
0166232560999992000072609004+67470+078720FM-12+000899999V0203101N007010030019N0500001N1+00981+00981100411ADDAY181031AY221031GA1051+003009099GF108991081031004501999999MD1210251+9999MW1021REMSYN076AAXX  26091 23256 41499 83107 10098 20098 40041 52025 70282 883// 333 85910;
0187232560999992000072612004+67470+078720FM-12+000899999V0203201N007010039019N0200001N1+00861+00861100621ADDAY181061AY221061GA1051+003909099GF108991081031004501999999MA1999999100301MD1210211+9999MW1801REMSYN082AAXX  26121 23256 41498 83207 10086 20086 30030 40062 52021 78082 883// 333 85913;
0185232560999992000072615004+67470+078720FM-12+000899999V0203601N006010057019N0500001N1+00731+00731100771ADDAY181031AY221031GA1051+005709099GF108991081031004501999999KA1120M+01751MD1210151+9999MW1021REMSYN082AAXX  26151 23256 /1499 83606 10073 20073 40077 52015 70282 883// 333 10175 85919;
0180232560999992000072618004+67470+078720FM-12+000899999V0203201N003012200019N0500001N1+00611+00611100921ADDAA100000891AY181061AY211061GF103991031051008001001001KA1999M+01751MD1210141+9999MW1021REMSYN082AAXX  26181 23256 11599 33203 10061 20061 40092 52014 69980 70281 83500 333 10175;
0138232560999992000072621004+67470+078720FM-12+000899999V0203201N002010108019N0500001N1+00641+00641101031ADDGA1061+010809059GF106991061051012501001001MD1210111+9999REMSYN070AAXX  26211 23256 42699 63202 10064 20064 40103 52011 86500 333 86636;
0159232560999992000072700004+67470+078720FM-12+000899999V0203201N004010102019N0500001N1+00821+00581999999ADDGA1071+010209059GF107991071051012501001001MA1999999100761MD1210061+9999REMSYN076AAXX  27001 23256 42699 73204 10082 20058 30076 46109 52006 87500 333 87634;
0182232560999992000072703004+67470+078720FM-12+000899999V0203301N004010060019N0500001N1+00861+00641101231ADDAA199000091GA1051+006009099GF108991081031008001999999GJ100129MD1210141+9999REMSYN076AAXX  27031 23256 32599 83304 10086 20064 40123 52014 883// 333 55002 85920;EQDQ01  00002PRCP99
0187232560999992000072706004+67470+078720FM-12+000899999V0203201N005010105019N0500001N1+01021+00301101351ADDAA199000091GA1061+010509059GF106991061051012501001001KA1120N+00501MD1210121+9999REMSYN076AAXX  27061 23256 32699 63205 10102 20030 40135 52012 86500 333 20050 86635;EQDQ01  00002PRCP99
0138232560999992000072709004+67470+078720FM-12+000899999V0202901N005010126019N0500001N1+01181+00321101411ADDGA1061+012609059GF106991061051012501001001MD1210071+9999REMSYN070AAXX  27091 23256 42699 62905 10118 20032 40141 52007 86500 333 86642;
0159232560999992000072712004+67470+078720FM-12+000899999V0202801N00301012001CN0500001N1+01201+00501101501ADDGA1041+014109099GF107991071031012501001001MA1999999101181MD1210091+9999REMSYN076AAXX  27121 23256 42699 72803 10120 20050 30118 40150 52009 87300 333 84947;
0177232560999992000072715004+67470+078720FM-12+000899999V0202301N999999999999N0500001N1+01121+00611101551ADDAA199000091GA1041+012909099KA1120M+01271MD1210041+9999REMSYN076AAXX  27151 23256 32699 /7303 10112 20061 40155 52004 87300 333 10127 84943;EQDQ01+010301WOSPD Q02  00002PRCP99
0165232560999992000072718004+67470+078720FM-12+000899999V0209999C000010300019N0500001N1+00981+00881101621ADDAA199000091GF106991031051008001031001KA1999M+01271MD1210071+9999REMSYN070AAXX  27181 23256 32599 60000 10098 20088 40162 52007 83530 333 10127;EQDQ01  00002PRCP99
0122232560999992000072721004+67470+078720FM-12+000899999V0202801N002010120019N0500001N1+00891+00821101701ADDGF107991071031012501001001MD1210081+9999REMSYN070AAXX  27211 23256 42699 72802 10089 20082 40170 52008 87300 333 849//;
0113232560999992000072800004+67470+078720FM-12+000899999V0203301N003019999999N0500001N1+01041+00841101811ADDGF105991021001999999031011MA1999999101481REMSYN060AAXX  28001 23256 42999 53303 10104 20084 30148 40181 82031;
0152232560999992000072803004+67470+078720FM-12+000899999V0203501N003012200019N0500001N1+01221+00581101921ADDAA199000091GF103991031021012501001001MD1210121+9999REMSYN070AAXX  28031 23256 32699 33503 10122 20058 40192 52012 83200 333 55051;EQDQ01  00002PRCP99
0165232560999992000072806004+67470+078720FM-12+000899999V0203001N003012200019N0500001N1+01301+00451101951ADDAA199000091GF103991031051012501001001KA1999N+00891MD1210031+9999REMSYN070AAXX  28061 23256 32699 33003 10130 20045 40195 52003 83500 333 20089;EQDQ01  00002PRCP99
0112232560999992000072809004+67470+078720FM-12+000899999V0203201N002012200019N0500001N1+01431+00501101991ADDGF102991021011012501001001MD1210041+9999REMSYN060AAXX  28091 23256 42699 23202 10143 20050 40199 52004 82100;
0175232560999992000072815004+67470+078720FM-12+000899999V0203301N003012200019N0500001N1+01381+00451101981ADDAA199000091GA1001+999999999GF100991001001999999001001KA1999M+01531MD1410001+9999REMSYN064AAXX  28151 23256 32999 03303 10138 20045 40198 54000 333 10153;EQDQ01  00002PRCP99
0152232560999992000072818004+67470+078720FM-12+000899999V0203201N001012200019N0500001N1+00981+00511102041ADDAA199000091GA1001+999999999GF100991001001999999001001MD1210051+9999REMSYN054AAXX  28181 23256 32999 03201 10098 20051 40204 52005;EQDQ01  00002PRCP99
0116232560999992000072821004+67470+078720FM-12+000899999V0202401N002012200019N0500001N1+00211+99999999999ADDGA1001+999999999GF100991001001999999001001MD1210031+9999REMSYN048AAXX  28211 23256 42999 02402 10021 20047 52003;
0133232560999992000072900004+67470+078720FM-12+000899999V0201401N001012200019N0500001N1+01001+01001102141ADDGF101991001001999999001011MA1999999101811MD1210071+9999REMSYN066AAXX  29001 23256 42999 11401 10100 20100 30181 40214 52007 80001;
0152232560999992000072903004+67470+078720FM-12+000899999V0201001N001012200019N0500001N1+01471+00641102151ADDAA199000091GF102991001001999999001011MD1210021+9999REMSYN070AAXX  29031 23256 32999 21001 10147 20064 40215 52002 80001 333 55172;EQDQ01  00002PRCP99
0165232560999992000072906004+67470+078720FM-12+000899999V0201101N001019999999N0500001N1+01691+00361102071ADDAA199000091GF105991001001999999001011KA1999N+00461MD1710081+9999REMSYN070AAXX  29061 23256 32999 51101 10169 20036 40207 57008 80001 333 20046;EQDQ01  00002PRCP99
0112232560999992000072909004+67470+078720FM-12+000899999V0201101N003019999999N0500001N1+01831+00431101961ADDGF106991001001999999001011MD1710111+9999REMSYN060AAXX  29091 23256 42999 61103 10183 20043 40196 57011 80001;
0133232560999992000072912004+67470+078720FM-12+000899999V0203601N002019999999N0500001N1+01791+00531101861ADDGF106991021001999999031011MA1999999101541MD1710101+9999REMSYN066AAXX  29121 23256 42999 63602 10179 20053 30154 40186 57010 82031;
0165232560999992000072915004+67470+078720FM-12+000899999V0201301N001019999999N0500001N1+01581+01201101811ADDAA199000091GF107991051001999999031011KA1999M+01951MD1710051+9999REMSYN070AAXX  29151 23256 32999 71301 10158 20120 40181 57005 85031 333 10195;EQDQ01  00002PRCP99
0165232560999992000072918004+67470+078720FM-12+000899999V0201501N002019999999N0500001N1+01441+01261101761ADDAA199000091GF107991071001999999031001KA1999M+01931MD1710051+9999REMSYN070AAXX  29181 23256 32999 71502 10144 20126 40176 57005 87030 333 10193;EQDQ01  00002PRCP99
0112232560999992000072921004+67470+078720FM-12+000899999V0201701N003019999999N0500001N1+01301+00841101751ADDGF108991081001999999071999MD1710011+9999REMSYN060AAXX  29211 23256 42999 81703 10130 20084 40175 57001 8807/;
0133232560999992000073000004+67470+078720FM-12+000899999V0202001N003019999999N0500001N1+01401+00891101741ADDGF108991081001999999071999MA1999999101421MD1710011+9999REMSYN066AAXX  30001 23256 42999 82003 10140 20089 30142 40174 57001 8807/;
0150232560999992000073003004+67470+078720FM-12+000899999V0201301N002010300019N0500001N1+01401+01401101721ADDAY161031AY221031GF108991021051012501071999MD1710021+9999MW1021REMSYN076AAXX  30031 23256 /1699 81302 10140 20140 40172 57002 70262 8257/ 333 55157;
0112232560999992000073009004+67470+078720FM-12+000899999V0201501N002010300019N0500001N1+01741+01251101701ADDGF108991021051012501071999MD1710031+9999REMSYN060AAXX  30091 23256 42699 81502 10174 20125 40170 57003 8257/;
0133232560999992000073012004+67470+078720FM-12+000899999V0201801N002010300019N0500001N1+01781+01301101711ADDGF107991031051012501031001MA1999999101391MD1210011+9999REMSYN066AAXX  30121 23256 42699 71802 10178 20130 30139 40171 52001 83530;
0187232560999992000073015004+67470+078720FM-12+000899999V0209999C000010150019N0500001N1+01681+01471101721ADDAA199000091GA1051+015009059GF107991051051017501031001KA1120M+01811MD1210011+9999REMSYN076AAXX  30151 23256 32799 70000 10168 20147 40172 52001 85530 333 10181 85650;EQDQ01  00002PRCP99
0165232560999992000073018004+67470+078720FM-12+000899999V0200101N001010300019N0500001N1+01501+01431101781ADDAA199000091GF107991021051017501031001KA1999M+01811MD1210061+9999REMSYN070AAXX  30181 23256 32799 70101 10150 20143 40178 52006 82530 333 10181;EQDQ01  00002PRCP99
0112232560999992000073021004+67470+078720FM-12+000899999V0200201N001019999999N0500001N1+01441+01441101801ADDGF107991071001999999031001MD1210021+9999REMSYN060AAXX  30211 23256 42999 70201 10144 20144 40180 52002 87030;
0133232560999992000073100004+67470+078720FM-12+000899999V0203501N001019999999N0500001N1+01401+01401101871ADDGF107991071001999999031001MA1999999101551MD1210071+9999REMSYN066AAXX  31001 23256 42999 73501 10140 20140 30155 40187 52007 87030;
0152232560999992000073103004+67470+078720FM-12+000899999V0200301N002019999999N0500001N1+01741+01501101871ADDAA199000091GF107991071001999999031001MD1410001+9999REMSYN070AAXX  31031 23256 32999 70302 10174 20150 40187 54000 87030 333 55002;EQDQ01  00002PRCP99
0165232560999992000073106004+67470+078720FM-12+000899999V0200701N002012200019N0500001N1+02071+00931101861ADDAA199000091GF102991011011012501031001KA1999N+01371MD1710011+9999REMSYN070AAXX  31061 23256 32699 20702 10207 20093 40186 57001 81130 333 20137;EQDQ01  00002PRCP99
0112232560999992000073109004+67470+078720FM-12+000899999V0201101N001012200019N0500001N1+02181+01001101791ADDGF103991021011012501001011MD1710061+9999REMSYN060AAXX  31091 23256 42699 31101 10218 20100 40179 57006 82101;
0133232560999992000073112004+67470+078720FM-12+000899999V0200701N001010300019N0500001N1+02121+01341101731ADDGF105991031011012501031011MA1999999101421MD1710061+9999REMSYN066AAXX  31121 23256 42699 50701 10212 20134 30142 40173 57006 83131;
0165232560999992000073115004+67470+078720FM-12+000899999V0200801N003012200019N0500001N1+01881+01411101711ADDAA199000091GF103991021011012501031011KA1999M+02241MD1710031+9999REMSYN070AAXX  31151 23256 32699 30803 10188 20141 40171 57003 82131 333 10224;EQDQ01  00002PRCP99
0165232560999992000073118004+67470+078720FM-12+000899999V0200801N003012200019N0500001N1+01451+01341101671ADDAA199000091GF102991021001999999031001KA1999M+02241MD1710041+9999REMSYN070AAXX  31181 23256 32999 20803 10145 20134 40167 57004 82030 333 10224;EQDQ01  00002PRCP99
0112232560999992000073121004+67470+078720FM-12+000899999V0200801N003012200019N0500001N1+01201+01181101661ADDGF102991001001999999001011MD1710011+9999REMSYN060AAXX  31211 23256 42999 20803 10120 20118 40166 57001 80001;
0133232560999992000080100004+67470+078720FM-12+000899999V0201101N003012200019N0500001N1+01311+01311101591ADDGF102991001001999999001011MA1999999101271MD1710071+9999REMSYN066AAXX  01001 23256 42999 21103 10131 20131 30127 40159 57007 80001;
0152232560999992000080103004+67470+078720FM-12+000899999V0201101N002012200019N0500001N1+01711+01551101461ADDAA199000091GF102991001001999999001011MD1710131+9999REMSYN070AAXX  01031 23256 32999 21102 10171 20155 40146 57013 80001 333 55135;EQDQ01  00002PRCP99
0165232560999992000080106004+67470+078720FM-12+000899999V0201101N005012200019N0500001N1+02111+01201101291ADDAA199000091GF102991011011012501001011KA1999N+01141MD1710161+9999REMSYN070AAXX  01061 23256 32699 21105 10211 20120 40129 57016 81101 333 20114;EQDQ01  00002PRCP99
0133232560999992000080112004+67470+078720FM-12+000899999V0200901N004012200019N0500001N1+02221+01111101001ADDGF102991001001999999001011MA1999999100691MD1710101+9999REMSYN066AAXX  01121 23256 42999 20904 10222 20111 30069 40100 57010 80001;
0165232560999992000080115004+67470+078720FM-12+000899999V0201301N002012200019N0500001N1+01961+01401100951ADDAA199000091GF102991001001999999001011KA1999M+02271MD1710061+9999REMSYN070AAXX  01151 23256 32999 21302 10196 20140 40095 57006 80001 333 10227;EQDQ01  00002PRCP99
0165232560999992000080118004+67470+078720FM-12+000899999V0201401N002012200019N0500001N1+01611+01491100921ADDAA199000091GF102991001001999999001011KA1999M+02271MD1710031+9999REMSYN070AAXX  01181 23256 32999 21402 10161 20149 40092 57003 80001 333 10227;EQDQ01  00002PRCP99
0112232560999992000080121004+67470+078720FM-12+000899999V0201401N002012200019N0500001N1+01361+01281100911ADDGF102991001001999999001011MD1710011+9999REMSYN060AAXX  01211 23256 42999 21402 10136 20128 40091 57001 80001;
0152232560999992000080200004+67470+078720FM-12+000899999V0201201N002012200019N0500001N1+01431+01411100941ADDGF102991001001999999001011MA1999999100621MD1210031+9999REMSYN066AAXX  02001 23256 42999 21202 10143 20141 30062 40094 52003 82001;EQDQ01+000022SCOTLC
0152232560999992000080203004+67470+078720FM-12+000899999V0201001N002012200019N0500001N1+01871+01601100931ADDAA199000091GF103991001001999999001011MD1710011+9999REMSYN070AAXX  02031 23256 32999 31002 10187 20160 40093 57001 80001 333 55185;EQDQ01  00002PRCP99
0165232560999992000080206004+67470+078720FM-12+000899999V0201101N004019999999N0500001N1+02381+01411100891ADDAA199000091GF105991001001999999001011KA1999N+01271MD1710031+9999REMSYN070AAXX  02061 23256 32999 51104 10238 20141 40089 57003 80001 333 20127;EQDQ01  00002PRCP99
0112232560999992000080209004+67470+078720FM-12+000899999V0201101N007019999999N0500001N1+02341+01241100861ADDGF106991001001999999001091MD1710031+9999REMSYN060AAXX  02091 23256 42999 61107 10234 20124 40086 57003 80009;
0133232560999992000080212004+67470+078720FM-12+000899999V0201001N004019999999N0500001N1+02361+01511100881ADDGF106991001001999999001091MA1999999100571MD1210021+9999REMSYN066AAXX  02121 23256 42999 61004 10236 20151 30057 40088 52002 80009;
0165232560999992000080215004+67470+078720FM-12+000899999V0201201N002019999999N0500001N1+02071+01691100921ADDAA199000091GF106991001001999999001021KA1999M+02541MD1210041+9999REMSYN070AAXX  02151 23256 32999 61202 10207 20169 40092 52004 80002 333 10254;EQDQ01  00002PRCP99
0165232560999992000080218004+67470+078720FM-12+000899999V0201401N002012200019N0500001N1+01631+01631100991ADDAA199000091GF103991021001999999031011KA1999M+02541MD1210061+9999REMSYN070AAXX  02181 23256 32999 31402 10163 20163 40099 52006 82031 333 10254;EQDQ01  00002PRCP99
0112232560999992000080221004+67470+078720FM-12+000899999V0201401N002012200019N0500001N1+01431+01431101001ADDGF102991001001999999001011MD1210011+9999REMSYN060AAXX  02211 23256 41999 21402 10143 20143 40100 52001 80001;
0133232560999992000080300004+67470+078720FM-12+000899999V0201301N002019999999N0500001N1+01521+01521101051ADDGF106991001001999999001011MA1999999100731MD1210051+9999REMSYN066AAXX  03001 23256 42999 61302 10152 20152 30073 40105 52005 80001;
0152232560999992000080303004+67470+078720FM-12+000899999V0201201N002012200019N0500001N1+01951+01651101091ADDAA199000091GF104991021011012501001011MD1210041+9999REMSYN070AAXX  03031 23256 32699 41202 10195 20165 40109 52004 82101 333 55159;EQDQ01  00002PRCP99
0165232560999992000080306004+67470+078720FM-12+000899999V0201001N002012200019N0500001N1+02371+01231101051ADDAA199000091GF102991021011012501001011KA1999N+01371MD1710031+9999REMSYN070AAXX  03061 23256 32699 21002 10237 20123 40105 57003 82101 333 20137;EQDQ01  00002PRCP99
0112232560999992000080309004+67470+078720FM-12+000899999V0201101N002012200019N0500001N1+02521+01121101021ADDGF103991021021012501001011MD1710031+9999REMSYN060AAXX  03091 23256 42699 31102 10252 20112 40102 57003 82201;
0133232560999992000080312004+67470+078720FM-12+000899999V0201101N002012200019N0500001N1+02461+01091100991ADDGF103991021021012501001011MA1999999100681MD1710031+9999REMSYN066AAXX  03121 23256 42699 31102 10246 20109 30068 40099 57003 82201;
0165232560999992000080315004+67470+078720FM-12+000899999V0200901N001012200019N0500001N1+02201+01351100951ADDAA199000091GF102991011021012501001011KA1999M+02541MD1710041+9999REMSYN070AAXX  03151 23256 32699 20901 10220 20135 40095 57004 81201 333 10254;EQDQ01  00002PRCP99
0165232560999992000080318004+67470+078720FM-12+000899999V0201101N001012200019N0500001N1+01941+01501100661ADDAA199000091GF102991021001999999031001KA1999M+02541MD1210021+9999REMSYN070AAXX  03181 23256 32999 21101 10194 20150 40066 52002 82030 333 10254;EQDQ01  00002PRCP99
0112232560999992000080321004+67470+078720FM-12+000899999V0201001N002012200019N0500001N1+01531+01421100991ADDGF103991031001999999031001MD1210011+9999REMSYN060AAXX  03211 23256 42999 31002 10153 20142 40099 52001 83030;
0133232560999992000080400004+67470+078720FM-12+000899999V0201301N002019999999N0500001N1+01381+01321100971ADDGF105991031001999999031011MA1999999100651MD1710021+9999REMSYN066AAXX  04001 23256 42999 51302 10138 20132 30065 40097 57002 83031;
0152232560999992000080403004+67470+078720FM-12+000899999V0201201N003010300019N0500001N1+02001+01821100951ADDAA199000091GF106991021051012501031001MD1710021+9999REMSYN070AAXX  04031 23256 32699 61203 10200 20182 40095 57002 82530 333 55168;EQDQ01  00002PRCP99
0165232560999992000080406004+67470+078720FM-12+000899999V0201101N005012200019N0500001N1+02481+01211100871ADDAA199000091GF103991021021008001031001KA1999N+01371MD1710071+9999REMSYN070AAXX  04061 23256 32599 31105 10248 20121 40087 57007 82230 333 20137;EQDQ01  00002PRCP99
0112232560999992000080409004+67470+078720FM-12+000899999V0201001N004012200019N0500001N1+02591+01151100791ADDGF103991021021008001031001MD1710071+9999REMSYN060AAXX  04091 23256 42599 31004 10259 20115 40079 57007 82230;
0133232560999992000080412004+67470+078720FM-12+000899999V0201101N004012200019N0500001N1+02541+00991100751ADDGF103991021021008001031001MA1999999100441MD1710051+9999REMSYN066AAXX  04121 23256 42599 31104 10254 20099 30044 40075 57005 82230;
0165232560999992000080415004+67470+078720FM-12+000899999V0201001N002012200019N0500001N1+02151+01471100691ADDAA199000091GF102991011021012501031011KA1999M+02611MD1710061+9999REMSYN070AAXX  04151 23256 32699 21002 10215 20147 40069 57006 81231 333 10261;EQDQ01  00002PRCP99
0165232560999992000080418004+67470+078720FM-12+000899999V0201001N002012200019N0500001N1+01821+01571100691ADDAA199000091GF103991031001999999031001KA1999M+02611MD1410001+9999REMSYN070AAXX  04181 23256 32999 31002 10182 20157 40069 54000 83030 333 10261;EQDQ01  00002PRCP99
0112232560999992000080421004+67470+078720FM-12+000899999V0201101N003010300019N0500001N1+01561+01461100691ADDGF105991021051012501031001MD1710011+9999REMSYN060AAXX  04211 23256 42699 51103 10156 20146 40069 57001 82530;
0133232560999992000080500004+67470+078720FM-12+000899999V0201001N003019999999N0500001N1+01431+01391100681ADDGF105991051001999999031001MA1999999100361MD1710011+9999REMSYN066AAXX  05001 23256 42999 51003 10143 20139 30036 40068 57001 85030;
0152232560999992000080503004+67470+078720FM-12+000899999V0201001N003012200019N0500001N1+02041+01731100661ADDAA199000091GF103991011011012501031011MD1710011+9999REMSYN070AAXX  05031 23256 32699 31003 10204 20173 40066 57001 81131 333 55134;EQDQ01  00002PRCP99
0165232560999992000080506004+67470+078720FM-12+000899999V0201001N004010300019N0500001N1+02221+01581100611ADDAA199000091GF106991021021008001031011KA1999N+01341MD1710051+9999REMSYN070AAXX  05061 23256 32599 61004 10222 20158 40061 57005 82231 333 20134;EQDQ01  00002PRCP99
0112232560999992000080509004+67470+078720FM-12+000899999V0201101N004010300019N0500001N1+02491+01471100541ADDGF105991031021008001031011MD1710071+9999REMSYN060AAXX  05091 23256 42599 51104 10249 20147 40054 57007 83231;
0133232560999992000080512004+67470+078720FM-12+000899999V0200901N005012200019N0500001N1+02381+01401100511ADDGF104991021021012501031001MA1999999100201MD1710031+9999REMSYN066AAXX  05121 23256 42699 40905 10238 20140 30020 40051 57003 82230;
0165232560999992000080515004+67470+078720FM-12+000899999V0200701N002010300019N0500001N1+01801+01511100501ADDAA199000091GF105991031021012501031001KA1999M+02511MD1710011+9999REMSYN070AAXX  05151 23256 32699 50702 10180 20151 40050 57001 83230 333 10251;EQDQ01  00002PRCP99
0165232560999992000080518004+67470+078720FM-12+000899999V0200901N002012200019N0200001N1+01661+01561100471ADDAA199000091GF102991021001999999031001KA1999M+02511MD1710031+9999REMSYN070AAXX  05181 23256 32998 20902 10166 20156 40047 57003 82030 333 10251;EQDQ01  00002PRCP99
0112232560999992000080521004+67470+078720FM-12+000899999V0201001N003012200019N0500001N1+01401+01361100441ADDGF102991021001999999021001MD1710041+9999REMSYN060AAXX  05211 23256 42999 21003 10140 20136 40044 57004 82020;
0133232560999992000080600004+67470+078720FM-12+000899999V0200901N002012200019N0500001N1+01491+01471100361ADDGF101991001001999999001011MA1999999100041MD1710081+9999REMSYN066AAXX  06001 23256 42999 10902 10149 20147 30004 40036 57008 80001;
0152232560999992000080603004+67470+078720FM-12+000899999V0201101N003012200019N0500001N1+01941+01681100221ADDAA199000091GF101991001001999999001011MD1710131+9999REMSYN070AAXX  06031 23256 32999 11103 10194 20168 40022 57013 80001 333 55135;EQDQ01  00002PRCP99
0165232560999992000080606004+67470+078720FM-12+000899999V0201101N005012200019N0500001N1+02341+01491100101ADDAA199000091GF102991021011012501001011KA1999N+01331MD1710121+9999REMSYN070AAXX  06061 23256 32699 21105 10234 20149 40010 57012 82101 333 20133;EQDQ01  00002PRCP99
0112232560999992000080609004+67470+078720FM-12+000899999V0200801N003012200019N0500001N1+02541+01331099941ADDGF102991021021012501001001MD1710161+9999REMSYN060AAXX  06091 23256 42699 20803 10254 20133 49994 57016 82200;
0133232560999992000080612004+67470+078720FM-12+000899999V0200901N003010300019N0500001N1+02491+01111099811ADDGF106991031021012501031001MA1999999099501MD1710131+9999REMSYN066AAXX  06121 23256 42699 60903 10249 20111 39950 49981 57013 83230;
0163232560999992000080615004+67470+078720FM-12+000899999V0200601N003019999999N0500001N1+01951+01561099701ADDAY181031AY221031GF105991051001999999031001KA1999M+02551MD1710111+9999MW1021REMSYN076AAXX  06151 23256 /1999 50603 10195 20156 49970 57011 70282 85030 333 10255;
0180232560999992000080618004+67470+078720FM-12+000899999V0200801N001012200019N0500001N1+01511+01361099581ADDAA100000791AY181061AY211061GF102991021001999999031001KA1999M+02551MD1710121+9999MW1021REMSYN082AAXX  06181 23256 11999 20801 10151 20136 49958 57012 69900 70281 82030 333 10255;
0112232560999992000080621004+67470+078720FM-12+000899999V0201001N002012200019N0500001N1+01381+01381099451ADDGF102991021001999999031001MD1710131+9999REMSYN060AAXX  06211 23256 42999 21002 10138 20138 49945 57013 82030;
0133232560999992000080700004+67470+078720FM-12+000899999V0200201N002012200019N0500001N1+01461+01461099351ADDGF102991001001999999001011MA1999999099041MD1710101+9999REMSYN066AAXX  07001 23256 42999 20202 10146 20146 39904 49935 57010 80001;
0165232560999992000080706004+67470+078720FM-12+000899999V0203601N002012200019N0500001N1+02291+01361099191ADDAA199000091GF102991011011012501001011KA1999N+01301MD1710081+9999REMSYN070AAXX  07061 23256 32699 23602 10229 20136 49919 57008 81101 333 20130;EQDQ01  00002PRCP99
0112232560999992000080709004+67470+078720FM-12+000899999V0203501N003012200019N0500001N1+02421+01051099171ADDGF102991021021012501001001MD1710021+9999REMSYN060AAXX  07091 23256 42699 23503 10242 20105 49917 57002 82200;
0133232560999992000080712004+67470+078720FM-12+000899999V0203501N004012200019N0500001N1+02291+01151099181ADDGF102991021021012501001001MA1999999098881MD1210011+9999REMSYN066AAXX  07121 23256 42699 23504 10229 20115 39888 49918 52001 82200;
0165232560999992000080715004+67470+078720FM-12+000899999V0203601N003010300019N0500001N1+02101+01491099211ADDAA199000091GF106991021051012501031001KA1999M+02491MD1210031+9999REMSYN070AAXX  07151 23256 32699 63603 10210 20149 49921 52003 82530 333 10249;EQDQ01  00002PRCP99
0165232560999992000080718004+67470+078720FM-12+000899999V0203301N003012200019N0500001N1+01731+01541099351ADDAA199000091GF102991021001999999031001KA1999M+02491MD1210131+9999REMSYN070AAXX  07181 23256 32999 23303 10173 20154 49935 52013 82030 333 10249;EQDQ01  00002PRCP99
0112232560999992000080721004+67470+078720FM-12+000899999V0203101N003012200019N0500001N1+01431+01351099461ADDGF102991021001999999031001MD1210111+9999REMSYN060AAXX  07211 23256 42999 23103 10143 20135 49946 52011 82030;
0133232560999992000080800004+67470+078720FM-12+000899999V0203301N004012200019N0500001N1+01421+01421099611ADDGF102991021001999999031001MA1999999099301MD1210151+9999REMSYN066AAXX  08001 23256 42999 23304 10142 20142 39930 49961 52015 82030;
0152232560999992000080803004+67470+078720FM-12+000899999V0203501N002012200019N0500001N1+01591+01591099771ADDAA199000091GF105991031061002501001011MD1210161+9999REMSYN070AAXX  08031 23256 32399 53502 10159 20159 49977 52016 83601 333 55162;EQDQ01  00002PRCP99
0165232560999992000080806004+67470+078720FM-12+000899999V0203501N004012200019N0500001N1+01861+01631099851ADDAA199000091GF103991031061004501001001KA1999N+01421MD1210081+9999REMSYN070AAXX  08061 23256 32499 33504 10186 20163 49985 52008 83600 333 20142;EQDQ01  00002PRCP99
0112232560999992000080809004+67470+078720FM-12+000899999V0203401N004012200019N0500001N1+02101+01641099971ADDGF104991031031008001031001MD1210121+9999REMSYN060AAXX  08091 23256 42599 43404 10210 20164 49997 52012 83330;
0155232560999992000080812004+67470+078720FM-12+000899999V0203301N003019999999N0500001N1+01771+01691100081ADDAY191061AY281061GF106991999999008001999999MA1999999099771MD1210111+9999MW1291REMSYN066AAXX  08121 23256 41599 63303 10177 20169 39977 40008 52011 72998;
0185232560999992000080815004+67470+078720FM-12+000899999V0200301N004010048019N0200001N1+01611+01591100141ADDAY121031AY221031GA1061+004809099GF107991061031004501031001KA1120M+02121MD1210061+9999MW1801REMSYN082AAXX  08151 23256 /1498 70304 10161 20159 40014 52006 78022 86330 333 10212 86916;
0112232560999992000080821004+67470+078720FM-12+000899999V0203501N002010075019N0500001N1+01501+01501100251ADDGF106991051031008001031001MD1210061+9999REMSYN060AAXX  08211 23256 42599 63502 10150 20150 40025 52006 85330;
0159232560999992000080900004+67470+078720FM-12+000899999V0203601N002010300019N0500001N1+01331+01331100271ADDGA1031+012609099GF105991041091012501031011MA1999999099951MD1210021+9999REMSYN076AAXX  09001 23256 42699 53602 10133 20133 39995 40027 52002 84931 333 83942;
0152232560999992000080903004+67470+078720FM-12+000899999V0200101N003010018019N0500001N1+01421+01421100341ADDGA1061+001809069GF108991081061001501999999GJ106909MD1210071+9999REMSYN076AAXX  09031 23256 /2299 80103 10142 20142 40034 52007 886// 333 55115 86706;
0174232560999992000080906004+67470+078720FM-12+000899999V0200201N004010018019N0500001N1+01361+01361100401ADDAA112000591GA1081+001809069GF108991081061001501999999KA1120N+01251MD1210061+9999REMSYN082AAXX  09061 23256 12299 80204 10136 20136 40040 52006 69962 886// 333 20125 88706;
0138232560999992000080909004+67470+078720FM-12+000899999V0200201N004010027019N0500001N1+01421+01421100441ADDGA1051+002709069GF108991081051002501999999MD1210041+9999REMSYN070AAXX  09091 23256 42399 80204 10142 20142 40044 52004 885// 333 85709;
0159232560999992000080912004+67470+078720FM-12+000899999V0200201N005010021019N0200001N1+01401+01401100491ADDGA1051+002109069GF108991081051002501999999MA1999999100171MD1210051+9999REMSYN076AAXX  09121 23256 42398 80205 10140 20140 30017 40049 52005 885// 333 85707;
0185232560999992000080915004+67470+078720FM-12+000899999V0203601N004010018019N0100001N1+01371+01371100491ADDAY161031AY221031GA1051+001809069GF108991081051001501999999KA1120M+01451MD1410001+9999MW1601REMSYN082AAXX  09151 23256 /1297 83604 10137 20137 40049 54000 76062 885// 333 10145 85706;
0221232560999992000080918004+67470+078720FM-12+000899999V0200201N004010015019N0200001N1+01421+01421100461ADDAA100000891AY161061AY221061GA1051+001509069GF108991999071001501021999KA1120M+01451MD1710031+9999MW1611REMSYN088AAXX  09181 23256 11298 80204 10142 20142 40046 57003 69980 76162 8872/ 333 10145 85705;EQDQ01+000082SCOTLC
0171232560999992000081000004+67470+078720FM-12+000899999V0200301N006010003019N0005001N1+01281+01281100571ADDAY161061AY221061GA1091+999999999GF109991091999999999999999MA1999999100251MD1210091+9999MW1471REMSYN066AAXX  10001 23256 41/93 90306 10128 20128 30025 40057 52009 74762;
0202232560999992000081006004+67470+078720FM-12+000899999V0200101N004010018019N0200001N1+01261+01261100681ADDAA100002091AY141061AY221061GA1081+001809069GF108991081061001501999999KA1120N+01171MD1210061+9999MW1021REMSYN088AAXX  10061 23256 12298 80104 10126 20126 40068 52006 60020 70242 886// 333 20117 88706;
0168232560999992000081009004+67470+078720FM-12+000899999V0200201N004010024019N0200001N1+01411+01411100751ADDAA199000091GA1051+002409069GF108991081051002501999999MD1210071+9999REMSYN070AAXX  10091 23256 32398 80204 10141 20141 40075 52007 885// 333 85708;EQDQ01  00002PRCP99
0181232560999992000081015004+67470+078720FM-12+000899999V0203301N004010300019N0500001N1+01541+01541100771ADDAA199000091GF107991031021012501031011KA1999M+99999MD1710051+9999REMSYN070AAXX  10151 23256 32699 73304 10154 20154 40077 57005 83231 333 10117;EQDQ01  00002PRCP99Q02 +01172ATMX  
0165232560999992000081018004+67470+078720FM-12+000899999V0200201N002010300019N0200001N1+01421+01421100761ADDAA199000091GF107991031051012501031001KA1999M+01541MD1710011+9999REMSYN070AAXX  10181 23256 32698 70202 10142 29142 40076 57001 83530 333 10154;EQDQ01  00002PRCP99
0138232560999992000081021004+67470+078720FM-12+000899999V0200401N00201004201CN0200001N1+01321+01321100761ADDGA1041+003609099GF107991071031004501001001MD1410001+9999REMSYN070AAXX  10211 23256 42498 70402 10132 20132 40076 54000 87300 333 84912;
0133232560999992000081100004+67470+078720FM-12+000899999V0200301N002010300019N0500001N1+01271+01271100751ADDGF108991021051008001071999MA1999999100431MD1710011+9999REMSYN066AAXX  11001 23256 42599 80302 10127 20127 30043 40075 57001 8257/;
0150232560999992000081103004+67470+078720FM-12+000899999V0200901N002010300019N0500001N1+01491+01491100771ADDAY181031AY221031GF107991031061001501031001MD1210021+9999MW1021REMSYN076AAXX  11031 23256 /1299 70902 10149 20149 40077 52002 70282 83630 333 55005;
0180232560999992000081106004+67470+078720FM-12+000899999V0201101N003012200019N0500001N1+01901+01621100751ADDAA100000791AY181061AY221061GF105991031081004501001011KA1999N+01261MD1710011+9999MW1021REMSYN082AAXX  11061 23256 11499 51103 10190 20162 40075 57001 69900 70282 83801 333 20126;
0112232560999992000081109004+67470+078720FM-12+000899999V0201101N002012200019N0500001N1+01991+01321100731ADDGF105991031021008001001011MD1710021+9999REMSYN060AAXX  11091 23256 42599 51102 10199 20132 40073 57002 83201;
0165232560999992000081115004+67470+078720FM-12+000899999V0200901N002010300019N0500001N1+01761+01631100751ADDAA199000091GF106991021051012501031011KA1999M+02041MD1210021+9999REMSYN070AAXX  11151 23256 32699 60902 10176 20163 40075 52002 82531 333 10204;EQDQ01  00002PRCP99
0165232560999992000081118004+67470+078720FM-12+000899999V0201101N002012200019N0500001N1+01431+01411100751ADDAA199000091GF102991021001999999031001KA1999M+02041MD1710011+9999REMSYN070AAXX  11181 23256 32999 21102 10143 20141 40075 57001 82030 333 10204;EQDQ01  00002PRCP99
0122232560999992000081121004+67470+078720FM-12+000899999V0201201N002012200019N0500001N1+01191+01191100771ADDGA1001+999999999GF100991001001999999001001MD1210021+9999REMSYN054AAXX  11211 23256 42999 01202 10119 20119 40077 52002;
0171232560999992000081200004+67470+078720FM-12+000899999V0201201N003010003019N0005001N1+01111+01111100821ADDAY141061AY201061GA1091+999999999GF109991091999999999999999MA1999999100501MD1210051+9999MW1451REMSYN066AAXX  12001 23256 41/93 91203 10111 20111 30050 40082 52005 74540;
0190232560999992000081203004+67470+078720FM-12+000899999V0201401N002010003019N0002001N1+01281+01281100811ADDAA199000091AY141031AY221031GA1091+999999999GF109991091999999999999999MD1710011+9999MW1451REMSYN070AAXX  12031 23256 31/92 91402 10128 20128 40081 57001 74542 333 55104;EQDQ01  00002PRCP99
0193232560999992000081206004+67470+078720FM-12+000899999V0201201N004012200019N0500001N1+01811+01811100791ADDAA199000091AY141061AY221061GF105991021021004501001011KA1999N+01071MD1710011+9999MW1021REMSYN076AAXX  12061 23256 31499 51204 10181 20181 40079 57001 70242 82201 333 20107;EQDQ01  00002PRCP99
0112232560999992000081209004+67470+078720FM-12+000899999V0201001N005012200019N0500001N1+01941+01621100771ADDGF107991021021008001001011MD1710021+9999REMSYN060AAXX  12091 23256 42599 71005 10194 20162 40077 57002 82201;
0133232560999992000081212004+67470+078720FM-12+000899999V0201101N005019999999N0500001N1+01921+01421100731ADDGF107991031001999999031011MA1999999100421MD1710041+9999REMSYN066AAXX  12121 23256 42999 71105 10192 20142 30042 40073 57004 83031;
0165232560999992000081215004+67470+078720FM-12+000899999V0201001N006010300019N0500001N1+01821+01551100711ADDAA199000091GF107991021051012501031001KA1999M+02141MD1710021+9999REMSYN070AAXX  12151 23256 32699 71006 10182 20155 40071 57002 82530 333 10214;EQDQ01  00002PRCP99
0196232560999992000081218004+67470+078720FM-12+000899999V0201301N004010096019N0200001N1+01591+01511100721ADDAA199000021AY161061AY221061GA1081+009609059GF108991081051008001999999KA1120M+02141MD1210011+9999MW1611REMSYN082AAXX  12181 23256 31598 81304 10159 20151 40072 52001 76162 885// 333 10214 88632;
0166232560999992000081221004+67470+078720FM-12+000899999V0201001N002010018019N0100001N1+01561+01561100701ADDAY161031AY221031GA1061+001809069GF108991081051001501999999MD1710021+9999MW1611REMSYN076AAXX  12211 23256 41297 81002 10156 20156 40070 57002 76162 885// 333 86706;
0187232560999992000081300004+67470+078720FM-12+000899999V0201401N003010078019N0500001N1+01561+01561100701ADDAY161061AY221061GA1081+007809059GF108991081051008001999999MA1999999100391MD1410001+9999MW1021REMSYN082AAXX  13001 23256 41599 81403 10156 20156 30039 40070 54000 70262 885// 333 88626;
0152232560999992000081303004+67470+078720FM-12+000899999V0201501N00301004201CN0500001N1+01751+01751100781ADDGA1041+003009069GF106991051031004501001011GJ103789MD1210081+9999REMSYN076AAXX  13031 23256 /2499 61503 10175 20175 40078 52008 85301 333 55063 84710;
0152232560999992000081306004+67470+078720FM-12+000899999V0201101N004012200019N0500001N1+02011+01641100751ADDAA100007191GF106991031031004501001011KA1999N+01551MD1710031+9999REMSYN076AAXX  13061 23256 12499 61104 10201 20164 40075 57003 60070 83301 333 20155;
0138232560999992000081309004+67470+078720FM-12+000899999V0201101N004012200019N0500001N1+02051+01551100731ADDGA1041+005709029GF106991041021004501001011MD1710021+9999REMSYN070AAXX  13091 23256 42499 61104 10205 20155 40073 57002 84201 333 84819;
0133232560999992000081312004+67470+078720FM-12+000899999V0201101N003010300019N0500001N1+01831+01711100741ADDGF106991031031008001031011MA1999999100431MD1210011+9999REMSYN066AAXX  13121 23256 42599 61103 10183 20171 30043 40074 52001 83331;
0165232560999992000081315004+67470+078720FM-12+000899999V0201001N002012200019N0500001N1+01691+01641100771ADDAA199000091GF102991021001999999031001KA1999M+02081MD1210031+9999REMSYN070AAXX  13151 23256 32999 21002 10169 20164 40077 52003 82030 333 10208;EQDQ01  00002PRCP99
0203232560999992000081318004+67470+078720FM-12+000899999V0201101N002012200019N0200001N1+01471+01471999999ADDAA199000091GA1011+000909069GF102991021031001501031001KA1120M+02081MD1710051+9999REMSYN076AAXX  13181 23256 32298 21102 10147 20147 40673 57005 82330 333 10208 81703;EQDQ01+106733APOSLPQ02  00002PRCP99
0150232560999992000081321004+67470+078720FM-12+000899999V0201101N002010003019N0005001N1+01371+01371100711ADDAY101031AY201031GA1091+999999999GF109991091999999999999999MD1710021+9999MW1451REMSYN060AAXX  13211 23256 41/93 91102 10137 20137 40071 57002 74500;
0187232560999992000081400004+67470+078720FM-12+000899999V0201001N003010009019N0010001N1+01411+01411100711ADDAY141061AY211061GA1081+000909069GF108991081051001501999999MA1999999100391MD1410001+9999MW1411REMSYN082AAXX  14001 23256 41294 81003 10141 20141 30039 40071 54000 74141 885// 333 88703;
0190232560999992000081403004+67470+078720FM-12+000899999V0201301N003010003019N0002001N1+01461+01461100681ADDAA199000091AY141031AY221031GA1091+999999999GF109991091999999999999999MD1710031+9999MW1471REMSYN070AAXX  14031 23256 31/92 91303 10146 20146 40068 57003 74742 333 55092;EQDQ01  00002PRCP99
0215232560999992000081406004+67470+078720FM-12+000899999V0201101N005010021019N0500001N1+01621+01621100591ADDAA199000091AY141061AY221061GA1051+002109069GF108991081051002501999999KA1120N+01371MD1710081+9999MW1021REMSYN082AAXX  14061 23256 31399 81105 10162 20162 40059 57008 70242 885// 333 20137 85707;EQDQ01  00002PRCP99
0112232560999992000081409004+67470+078720FM-12+000899999V0200701N006012200019N0500001N1+02031+01411100461ADDGF105991031021008001001011MD1710131+9999REMSYN060AAXX  14091 23256 42599 50706 10203 20141 40046 57013 83201;
0133232560999992000081412004+67470+078720FM-12+000899999V0200901N006010750019N0500001N1+01991+01321100341ADDGF105991021021008001031011MA1999999100031MD1710121+9999REMSYN066AAXX  14121 23256 42599 50906 10199 20132 30003 40034 57012 82231;
0187232560999992000081415004+67470+078720FM-12+000899999V0200701N005010300019N0500001N1+01821+01791100181ADDAA199000091GA1041+005709099GF107991041031004501031011KA1120M+02081MD1710161+9999REMSYN076AAXX  14151 23256 32499 70705 10182 20179 40018 57016 84331 333 10208 84919;EQDQ01  00002PRCP99
0217232560999992000081418004+67470+078720FM-12+000899999V0201201N006010021019N0200001N1+01751+01741999999ADDAA199000091AY181061AY221061GF108991081031002501999999MD1710071+9999MW1021UA1M990409999REMSYN084AAXX  14181 23256 31398 81206 10175 20174 49911 57007 70282 883// 222// 20208 84708;EQDQ01+099113APOSLPQ02  00002PRCP99
0112232560999992000081421004+67470+078720FM-12+000899999V0201501N003012200019N0200001N1+01301+01301100201ADDGF102991021051008001031011MD1210081+9999REMSYN060AAXX  14211 23256 42598 21503 10130 20130 40020 52008 82531;
0133232560999992000081500004+67470+078720FM-12+000899999V0201401N003012200019N0500001N1+01231+01231100251ADDGF102991001001999999001011MA1999999099931MD1210051+9999REMSYN066AAXX  15001 23256 42999 21403 10123 20123 39993 40025 52005 80001;
0122232560999992000081503004+67470+078720FM-12+000899999V0201201N003012200019N0500001N1+01631+01461100241ADDGF102991001001999999001011MD1410001+9999REMSYN070AAXX  15031 23256 /2999 21203 10163 20146 40024 54000 80001 333 55054;
0152232560999992000081506004+67470+078720FM-12+000899999V0201201N005010300019N0500001N1+01901+01301100191ADDAA100000591GF106991021011008001031011KA1999N+01191MD1710051+9999REMSYN076AAXX  15061 23256 12599 61205 10190 20130 40019 57005 69940 82131 333 20119;
0161232560999992000081512004+67470+078720FM-12+000899999V0200901N004010300019N0500001N1+01781+01351100091ADDAY161061AY221061GF106991021031008001031011MA1999999099781MD1710041+9999MW1021REMSYN072AAXX  15121 23256 41599 60904 10178 20135 39978 40009 57004 70262 82331;
0163232560999992000081515004+67470+078720FM-12+000899999V0201101N002010300019N0500001N1+01481+01391100011ADDAY181031AY221031GF106991021031008001031001KA1999M+01951MD1710091+9999MW1251REMSYN076AAXX  15151 23256 /1599 61102 10148 20139 40001 57009 72582 82330 333 10195;
0180232560999992000081518004+67470+078720FM-12+000899999V0201201N003012200019N0200001N1+01281+01241099921ADDAA100000591AY181061AY211061GF102991021001999999031001KA1999M+01951MD1710091+9999MW1021REMSYN082AAXX  15181 23256 11998 21203 10128 20124 49992 57009 69950 70281 82030 333 10195;
0112232560999992000081521004+67470+078720FM-12+000899999V0201701N005019999999N0500001N1+01221+01121099911ADDGF106991061001999999031001MD1710011+9999REMSYN060AAXX  15211 23256 42999 61705 10122 20112 49991 57001 86030;
0133232560999992000081600004+67470+078720FM-12+000899999V0201201N003012200019N0500001N1+00971+00951099901ADDGF102991021001999999031011MA1999999099581MD1710011+9999REMSYN066AAXX  16001 23256 42999 21203 10097 20095 39958 49990 57001 82031;
0152232560999992000081603004+67470+078720FM-12+000899999V0201501N003010012019N0200001N1+01161+01161099911ADDGA1081+001209069GF108991081061001501999999GJ102889MD1210011+9999REMSYN076AAXX  16031 23256 12298 81503 10116 20116 49991 52001 886// 333 55048 88704;
0161232560999992000081606004+67470+078720FM-12+000899999V0200901N004010300019N0500001N1+01781+01351100091ADDAY161061AY221061GF106991021031008001031011MA1999999099781MD1710041+9999MW1021REMSYN072AAXX  16061 23256 41599 60904 10178 20135 39978 40009 57004 70262 82331;
0140232560999992000081609004+67470+078720FM-12+000899999V0201901N007010300019N0500001N1+01561+01401099881ADDAY121031AY221031GF107991031031008001031011MD1410001+9999MW1251REMSYN066AAXX  16091 23256 41599 71907 10156 20140 49988 54000 72522 83331;
0206232560999992000081612004+67470+078720FM-12+000899999V0202201N006010090019N0500001N1+01751+01171099911ADDAY101061AY221061GA1051+009009099GF106991051031008001031011MA1999999099601MD1210041+9999MW1821REMSYN082AAXX  16121 23256 41599 62206 10175 20117 39960 49991 52004 78202 85331 333 85930;EQDQ01+000822PRSWM1
0135232560999992000081615004+67470+078720FM-12+000899999V0202201N008010300019N0500001N1+01501+01321100081ADDGF106991031031012501031011KA1999M+01761MD1210161+9999REMSYN070AAXX  16151 23256 /2699 62208 10150 20132 40008 52016 83331 333 10176;
0152232560999992000081618004+67470+078720FM-12+000899999V0202001N005012200019N0200001N1+01301+01301100221ADDAA100001091GF102991021051012501031001KA1999M+01761MD1210141+9999REMSYN076AAXX  16181 23256 12698 22005 10130 20130 40022 52014 69990 82530 333 10176;
0112232560999992000081621004+67470+078720FM-12+000899999V0202001N005012200019N0200001N1+01161+01161100381ADDGF106991021051012501001011MD1210161+9999REMSYN060AAXX  16211 23256 42698 62005 10116 20116 40038 52016 82501;
0133232560999992000081700004+67470+078720FM-12+000899999V0202101N002019999999N0500001N1+01131+01131100501ADDGF107991001001999999001021MA1999999100181MD1210121+9999REMSYN066AAXX  17001 23256 42999 72102 10113 20113 30018 40050 52012 80002;
0146232560999992000081703004+67470+078720FM-12+000899999V0201401N002019999999N0500001N1+01391+01351100621ADDAA199000091GF106991041001999999031011MD1210121+9999REMSYN064AAXX  17031 23256 32999 61402 10139 20135 40062 52012 84031 333;EQDQ01  00002PRCP99
0165232560999992000081706004+67470+078720FM-12+000899999V0201401N004019999999N0500001N1+01851+00561100611ADDAA199000091GF106991031001999999031011KA1999N+01071MD1410001+9999REMSYN070AAXX  17061 23256 32999 61404 10185 20056 40061 54000 83031 333 20107;EQDQ01  00002PRCP99
0112232560999992000081709004+67470+078720FM-12+000899999V0201001N006010300019N0500001N1+02031+01231100591ADDGF108991031031012501031011MD1710021+9999REMSYN060AAXX  17091 23256 42699 81006 10203 20123 40059 57002 83331;
0187232560999992000081712004+67470+078720FM-12+000899999V0201801N003010021019N0200001N1+01611+01541100681ADDAY181061AY221061GA1041+002109069GF108991081031002501999999MA1999999100371MD1210091+9999MW1801REMSYN082AAXX  17121 23256 41398 81803 10161 20154 30037 40068 52009 78082 883// 333 84707;
0163232560999992000081715004+67470+078720FM-12+000899999V0201201N004010300019N0500001N1+01621+01571100661ADDAY181031AY221031GF107991031051012501031001KA1999M+02151MD1710021+9999MW1021REMSYN076AAXX  17151 23256 /1699 71204 10162 20157 40066 57002 70282 83530 333 10215;
0180232560999992000081718004+67470+078720FM-12+000899999V0201501N003019999999N0500001N1+01561+01321100711ADDAA100001091AY181061AY221061GF106991041001999999031011KA1999M+02151MD1210041+9999MW1021REMSYN082AAXX  17181 23256 11999 61503 10156 20132 40071 52004 60010 70282 84031 333 10215;
0112232560999992000081721004+67470+078720FM-12+000899999V0201601N003012200019N0500001N1+01361+01341100791ADDGF104991011051008001031011MD1210081+9999REMSYN060AAXX  17211 23256 42599 41603 10136 20134 40079 52008 81531;
0133232560999992000081800004+67470+078720FM-12+000899999V0201401N003010750019N0500001N1+01281+01281100911ADDGF105991021051012501031011MA1999999100591MD1210201+9999REMSYN066AAXX  18001 23256 42699 51403 10128 20128 30059 40091 52020 82531;
0165232560999992000081806004+67470+078720FM-12+000899999V0201201N006012200019N0500001N1+02211+01261100941ADDAA199000091GF103991021001999999031011KA1999N+01281MD1710011+9999REMSYN070AAXX  18061 23256 32999 31206 10221 20126 40094 57001 82031 333 20128;EQDQ01  00002PRCP99
0112232560999992000081809004+67470+078720FM-12+000899999V0201101N007012200019N0500001N1+02301+01051100921ADDGF103991021011012501001011MD1710021+9999REMSYN060AAXX  18091 23256 42699 31107 10230 20105 40092 57002 82101;
0133232560999992000081812004+67470+078720FM-12+000899999V0201001N005012200019N0500001N1+02171+01061100941ADDGF102991011011012501001011MA1999999100631MD1210021+9999REMSYN066AAXX  18121 23256 42699 21005 10217 20106 30063 40094 52002 81101;
0165232560999992000081815004+67470+078720FM-12+000899999V0201201N003012200019N0500001N1+01741+01251100961ADDAA199000091GF102991011051008001001011KA1999M+02311MD1210011+9999REMSYN070AAXX  18151 23256 32599 21203 10174 20125 40096 52001 81501 333 10231;EQDQ01  00002PRCP99
0165232560999992000081818004+67470+078720FM-12+000899999V0201001N001012200019N0200001N1+01451+01271100961ADDAA199000091GF102991021051012501031001KA1999M+02311MD1410001+9999REMSYN070AAXX  18181 23256 32698 21001 10145 20127 40096 54000 82530 333 10231;EQDQ01  00002PRCP99
0112232560999992000081821004+67470+078720FM-12+000899999V0201101N001019999999N0200001N1+01381+01251100901ADDGF105991051001999999031001MD1710061+9999REMSYN060AAXX  18211 23256 42998 51101 10138 20125 40090 57006 85030;
0133232560999992000081900004+67470+078720FM-12+000899999V0201001N002019999999N0500001N1+01361+01271100901ADDGF105991051001999999031001MA1999999100581MD1410001+9999REMSYN066AAXX  19001 23256 42999 51002 10136 20127 30058 40090 54000 85030;
0152232560999992000081903004+67470+078720FM-12+000899999V0200701N004012200019N0500001N1+01731+01431100791ADDAA199000091GF102991011011008001031011MD1710101+9999REMSYN070AAXX  19031 23256 32599 20704 10173 20143 40079 57010 81131 333 55112;EQDQ01  00002PRCP99
0165232560999992000081906004+67470+078720FM-12+000899999V0200901N005012200019N0500001N1+02101+01311100721ADDAA199000091GF102991011021012501031011KA1999N+01331MD1710071+9999REMSYN070AAXX  19061 23256 32699 20905 10210 20131 40072 57007 81231 333 20133;EQDQ01  00002PRCP99
0112232560999992000081909004+67470+078720FM-12+000899999V0201101N004012200019N0500001N1+02251+01211100661ADDGF103991021021012501001011MD1710061+9999REMSYN060AAXX  19091 23256 42699 31104 10225 20121 40066 57006 82201;
0133232560999992000081912004+67470+078720FM-12+000899999V0200601N003010750019N0500001N1+02041+01261100601ADDGF105991021021012501031011MA1999999100291MD1710061+9999REMSYN066AAXX  19121 23256 42699 50603 10204 20126 30029 40060 57006 82231;
0165232560999992000081915004+67470+078720FM-12+000899999V0200501N002012200019N0500001N1+01761+01611100541ADDAA199000091GF103991011021012501031011KA1999M+02281MD1710061+9999REMSYN070AAXX  19151 23256 32699 30502 10176 20161 40054 57006 81231 333 10228;EQDQ01  00002PRCP99
0165232560999992000081918004+67470+078720FM-12+000899999V0200601N003012200019N0500001N1+01471+01401100491ADDAA199000091GF102991001001999999001011KA1999M+02281MD1710061+9999REMSYN070AAXX  19181 23256 32999 20603 10147 20140 40049 57006 80001 333 10228;EQDQ01  00002PRCP99
0112232560999992000081921004+67470+078720FM-12+000899999V0200701N002012200019N0500001N1+01311+01291100371ADDGF102991021001999999031011MD1710121+9999REMSYN060AAXX  19211 23256 42999 20702 10131 20129 40037 57012 82031;
0127232560999992000082000004+67470+078720FM-12+000899999V0200501N002012200019N0500001N1+01351+01351100301ADDGF102991999999008001999999MA1999999099981MD1710071+9999REMSYN060AAXX  20001 23256 42599 20502 10135 20135 39998 40030 57007;
0152232560999992000082003004+67470+078720FM-12+000899999V0201001N004012200019N0500001N1+01781+01491100211ADDAA199000091GF103991011011012501031011MD1710081+9999REMSYN070AAXX  20031 23256 32699 31004 10178 20149 40021 57008 81131 333 55146;EQDQ01  00002PRCP99
0193232560999992000082006004+67470+078720FM-12+000899999V0200801N007010300019N0500001N1+01901+01521100101ADDAA199000091AY181061AY211061GF106991031081008001031011KA1999N+01241MD1710111+9999MW1021REMSYN076AAXX  20061 23256 31599 60807 10190 20152 40010 57011 70281 83831 333 20124;EQDQ01  00002PRCP99
0138232560999992000082009004+67470+078720FM-12+000899999V0201101N005010042019N0500001N1+01771+01651100101ADDGA1051+004209099GF108991081031004501999999MD1410001+9999REMSYN070AAXX  20091 23256 42499 81105 10177 20165 40010 54000 883// 333 85914;
0133232560999992000082012004+67470+078720FM-12+000899999V0201001N003010300019N0500001N1+01911+01691100061ADDGF106991031031012501031011MA1999999099751MD1710041+9999REMSYN066AAXX  20121 23256 42699 61003 10191 20169 39975 40006 57004 83331;
0165232560999992000082015004+67470+078720FM-12+000899999V0201201N002010300019N0500001N1+01671+01671100081ADDAA199000091GF105991031021012501031011KA1999M+01981MD1210021+9999REMSYN070AAXX  20151 23256 32699 51202 10167 20167 40008 52002 83231 333 10198;EQDQ01  00002PRCP99
0152232560999992000082018004+67470+078720FM-12+000899999V0201401N003012200019N0200001N1+01461+01461100081ADDAA100000391GF102991021051012501001001KA1999M+01981MD1710011+9999REMSYN076AAXX  20181 23256 12698 21403 10146 20146 40008 57001 69930 82500 333 10198;
0112232560999992000082021004+67470+078720FM-12+000899999V0201501N003012200019N0200001N1+01141+01141100121ADDGF102991021051012501001001MD1210041+9999REMSYN060AAXX  20211 23256 42698 21503 10114 20114 40012 52004 82500;
0133232560999992000082100004+67470+078720FM-12+000899999V0201101N004012200019N0500001N1+01191+01191100131ADDGF102991021051012501001001MA1999999099811MD1210011+9999REMSYN066AAXX  21001 23256 42699 21104 10119 20119 39981 40013 52001 82500;
0152232560999992000082103004+67470+078720FM-12+000899999V0201001N005010300019N0500001N1+01461+01291100101ADDAA199000091GF106991021051012501031001MD1710031+9999REMSYN070AAXX  21031 23256 32699 61005 10146 20129 40010 57003 82530 333 55081;EQDQ01  00002PRCP99
0187232560999992000082106004+67470+078720FM-12+000899999V0201101N008010300019N0500001N1+01681+01191100031ADDAA199000091GA1041+005709099GF106991041031004501031001KA1120N+01071MD1710061+9999REMSYN076AAXX  21061 23256 32499 61108 10168 20119 40003 57006 84330 333 20107 84919;EQDQ01  00002PRCP99
0166232560999992000082109004+67470+078720FM-12+000899999V0201101N00801004201CN0500001N1+01511+01381100041ADDAY181031AY221031GA1041+004809099GF106991061031004501001001MD1410001+9999MW1251REMSYN076AAXX  21091 23256 41499 61108 10151 20138 40004 54000 72582 86300 333 84916;
0187232560999992000082112004+67470+078720FM-12+000899999V0201101N00401004201CN0500001N1+01561+01421100051ADDAY181061AY221061GA1041+005109099GF107991071031004501001001MA1999999099731MD1210011+9999MW1251REMSYN082AAXX  21121 23256 41499 71104 10156 20142 39973 40005 52001 72582 87300 333 84917;
0154232560999992000082115004+67470+078720FM-12+000899999V0201301N006019999999N0500001N1+01561+01341100061ADDGF107991999031012501001001KA1999M+01721MD1210011+9999REMSYN070AAXX  21151 23256 /2699 71306 10156 20134 40006 52001 83300 333 10172;EQDQ01+000032SCOTLC
0152232560999992000082118004+67470+078720FM-12+000899999V0201301N005010300019N0200001N1+01441+01291100121ADDAA100001091GF106991031031008001031001KA1999M+01721MD1210061+9999REMSYN076AAXX  21181 23256 12598 61305 10144 20129 40012 52006 60010 83330 333 10172;
0112232560999992000082121004+67470+078720FM-12+000899999V0201201N005010300019N0200001N1+01391+01241100121ADDGF106991031031008001031011MD1410001+9999REMSYN060AAXX  21211 23256 42598 61205 10139 20124 40012 54000 83331;
0161232560999992000082200004+67470+078720FM-12+000899999V0201101N004012200019N0500001N1+01321+01281100121ADDAY181061AY221061GF104991041001999999031001MA1999999099801MD1410001+9999MW1021REMSYN072AAXX  22001 23256 41999 41104 10132 20128 39980 40012 54000 70282 84030;
0122232560999992000082203004+67470+078720FM-12+000899999V0201301N005012200019N0500001N1+01551+01331100101ADDGF102991011011012501031001MD1710021+9999REMSYN070AAXX  22031 23256 /2699 21305 10155 20133 40010 57002 81130 333 55068;
0152232560999992000082206004+67470+078720FM-12+000899999V0201201N005012200019N0500001N1+01871+01261100001ADDAA100000791GF102991011011012501031001KA1999N+01311MD1710091+9999REMSYN076AAXX  22061 23256 12699 21205 10187 20126 40000 57009 69900 81130 333 20131;
0112232560999992000082209004+67470+078720FM-12+000899999V0200901N005010300019N0500001N1+01941+01301099911ADDGF107991021021012501031011MD1710091+9999REMSYN060AAXX  22091 23256 42699 70905 10194 20130 49991 57009 82231;
0133232560999992000082212004+67470+078720FM-12+000899999V0201101N006010300019N0500001N1+01811+01311099841ADDGF107991021021012501031011MA1999999099531MD1710071+9999REMSYN066AAXX  22121 23256 42699 71106 10181 20131 39953 49984 57007 82231;
0185232560999992000082215004+67470+078720FM-12+000899999V0200901N00501007501CN0200001N1+01531+01531099721ADDAY181031AY221031GA1041+007809099GF108991051031008001071999KA1120M+02021MD1710121+9999MW1801REMSYN082AAXX  22151 23256 /1598 80905 10153 20153 49972 57012 78082 8537/ 333 10202 84926;
0202232560999992000082218004+67470+078720FM-12+000899999V0200401N005010018019N0040001N1+01371+01371099441ADDAA100000791AY181061AY221061GA1061+001809069GF108991081051001501999999KA1120M+02021MD1710281+9999MW1611REMSYN088AAXX  22181 23256 11296 80405 10137 20137 49944 57028 69900 76182 885// 333 10202 86706;
0166232560999992000082221004+67470+078720FM-12+000899999V0201101N003010015019N0200001N1+01501+01501099191ADDAY161031AY221031GA1061+001509069GF108991081031001501999999MD1710251+9999MW1021REMSYN076AAXX  22211 23256 41298 81103 10150 20150 49919 57025 70262 883// 333 86705;
0187232560999992000082300004+67470+078720FM-12+000899999V0201101N003010015019N0100001N1+01401+01401099031ADDAY191061AY261061GA1051+001509069GF108991081031001501999999MA1999999098721MD1710161+9999MW1801REMSYN082AAXX  23001 23256 41297 81103 10140 20140 39872 49903 57016 78096 883// 333 85705;
0180232560999992000082303004+67470+078720FM-12+000899999V0201301N006010021019N0200001N1+01491+01491098971ADDAY181031AY221031GA1041+002109069GF108991081031002501999999GJ106429MD1710061+9999MW1251REMSYN082AAXX  23031 23256 /1398 81306 10149 20149 49897 57006 72582 883// 333 55107 84707;
0202232560999992000082306004+67470+078720FM-12+000899999V0201401N00601002101CN0500001N1+01591+01581099001ADDAA100029091AY181061AY221061GA1041+001809069GF108991081031002501999999KA1120N+01371MD1210031+9999MW1021REMSYN088AAXX  23061 23256 11399 81406 10159 20158 49900 52003 60290 70282 883// 333 20137 84706;
0166232560999992000082309004+67470+078720FM-12+000899999V0201401N00601002101CN0020001N1+01491+01491099101ADDAY181031AY221031GA1041+002409069GF108991081031002501999999MD1210101+9999MW1801REMSYN076AAXX  23091 23256 41395 81406 10149 20149 49910 52010 78082 883// 333 84708;
0187232560999992000082312004+67470+078720FM-12+000899999V0201501N00201002101CN0200001N1+01441+01441099171ADDAY181061AY221061GA1041+002409069GF107991071031002501001001MA1999999098861MD1210071+9999MW1251REMSYN082AAXX  23121 23256 41398 71502 10144 20144 39886 49917 52007 72582 87300 333 84708;
0185232560999992000082315004+67470+078720FM-12+000899999V0201301N00401002101CN0500001N1+01371+01371099171ADDAY181031AY221031GA1041+002409069GF108991081031002501999999KA1120M+01611MD1410001+9999MW1021REMSYN082AAXX  23151 23256 /1399 81304 10137 20137 49917 54000 70282 883// 333 10161 84708;
0202232560999992000082318004+67470+078720FM-12+000899999V0201201N00401004201CN0040001N1+01321+01321099151ADDAA100008991AY181061AY221061GA1041+003309099GF108991081031004501999999KA1120M+01611MD1710021+9999MW1811REMSYN088AAXX  23181 23256 11496 81204 10132 20132 49915 57002 60090 78182 883// 333 10161 84911;
0166232560999992000082321004+67470+078720FM-12+000899999V0202501N00601004201CN0500001N1+01241+01241099151ADDAY121031AY201031GA1041+004809099GF108991081031004501999999MD1410001+9999MW1801REMSYN076AAXX  23211 23256 41499 82506 10124 20124 49915 54000 78020 883// 333 84916;
0187232560999992000082400004+67470+078720FM-12+000899999V0203001N00701001201CN0010001N1+01181+01181099281ADDAY181061AY221061GA1041+001809069GF108991081031001501999999MA1999999098971MD1210131+9999MW1021REMSYN082AAXX  24001 23256 41294 83007 10118 20118 39897 49928 52013 70282 883// 333 84706;
0180232560999992000082403004+67470+078720FM-12+000899999V0202901N009010018019N0100001N1+01121+01121099371ADDAY181031AY221031GA1051+001809069GF108991081031002501999999GJ100069MD1210091+9999MW1251REMSYN082AAXX  24031 23256 /1397 82909 10112 20112 49937 52009 72582 883// 333 55001 85706;
0225232560999992000082406004+67470+078720FM-12+000899999V0203001N011010030019N0500001N1+01121+01121099441ADDAA100004191AY181061AY221061GA1051+003009099GF108991081031004501999999KA1120N+01121MD1210071+9999MW1021OA140101401REMSYN100AAXX  24061 23256 11499 83011 10112 20112 49944 52007 60040 70282 883// 333 20112 85910 91014 91114;
0166232560999992000082409004+67470+078720FM-12+000899999V0202901N012010033019N0200001N1+01051+01051099581ADDAY121031AY221031GA1051+003309099GF108991081031004501999999MD1210131+9999MW1801REMSYN076AAXX  24091 23256 41498 82912 10105 20105 49958 52013 78022 883// 333 85911;
0210232560999992000082412004+67470+078720FM-12+000899999V0202801N013010036019N0200001N1+00971+00971099761ADDAY181061AY221061GA1051+003609099GF108991081031004501999999MA1999999099441MD1210181+9999MW1801OA140101601REMSYN094AAXX  24121 23256 41498 82813 10097 20097 39944 49976 52018 78082 883// 333 85912 91016 91116;
0185232560999992000082415004+67470+078720FM-12+000899999V0202901N012010036019N0100001N1+00861+00861100001ADDAY181031AY221031GA1051+003609099GF108991081031004501999999KA1120M+01151MD1210241+9999MW1801REMSYN082AAXX  24151 23256 /1497 82912 10086 20086 40000 52024 78082 883// 333 10115 85912;
0225232560999992000082418004+67470+078720FM-12+000899999V0202901N011010051019N0200001N1+00811+00811100131ADDAA100003091AY181061AY221061GA1061+005109099GF108991081031004501999999KA1120M+01151MD1210131+9999MW1801OA140101401REMSYN100AAXX  24181 23256 11498 82911 10081 20081 40013 52013 60030 78082 883// 333 10115 86917 91014 91115;
0166232560999992000082421004+67470+078720FM-12+000899999V0202801N009010069019N0200001N1+00861+00581100341ADDAY181031AY221031GA1051+006909099GF108991081031008001999999MD1210211+9999MW1021REMSYN076AAXX  24211 23256 41598 82809 10086 20058 40034 52021 70282 883// 333 85923;
0193232560999992000082500004+67470+078720FM-12+000899999V0202601N008010078019N0500001N1+00781+00781100481ADDAY181061AY221061GA1061+007809009GF108991081031008001999999MA1999999100161MD1210141+9999MW1251REMSYN088AAXX  25001 23256 41599 82608 10078 20078 30016 40048 52014 72582 883// 333 86026 91112;
0150232560999992000082503004+67470+078720FM-12+000899999V0202601N005012200019N0500001N1+00951+00951100601ADDAY181031AY221031GF106991031031008001001011MD1210121+9999MW1021REMSYN076AAXX  25031 23256 /1599 62605 10095 20095 40060 52012 70282 83301 333 55000;
0202232560999992000082506004+67470+078720FM-12+000899999V0202701N00501007501CN0500001N1+01171+00781100731ADDAA100003091AY181061AY221061GA1041+006009099GF106991061031008001001001KA1120N+00761MD1210131+9999MW1251REMSYN088AAXX  25061 23256 11599 62705 10117 20078 40073 52013 60030 72582 86300 333 20076 84920;
0166232560999992000082509004+67470+078720FM-12+000899999V0203201N00401007501CN0500001N1+01201+00771100841ADDAY181031AY221031GA1041+005709099GF106991051031008001001011MD1210111+9999MW1021REMSYN076AAXX  25091 23256 41599 63204 10120 20077 40084 52011 70282 85301 333 84919;
0161232560999992000082512004+67470+078720FM-12+000899999V0202601N007012200019N0500001N1+01221+00381100981ADDAY181061AY211061GF104991031031008001001011MA1999999100661MD1210141+9999MW1021REMSYN072AAXX  25121 23256 41599 42607 10122 20038 30066 40098 52014 70281 83301;
0157232560999992000082515004+67470+078720FM-12+000899999V0202401N00401007501CN0500001N1+00711+00511101101ADDGA1041+006609099GF105991051031008001001001KA1120M+01221MD1210111+9999REMSYN076AAXX  25151 23256 /2599 52404 10071 20051 40110 52011 85300 333 10122 84922;
0174232560999992000082518004+67470+078720FM-12+000899999V0202301N003010120019N0200001N1+00791+00741101161ADDAA100001091GA1081+012009059GF108991081051012501999999KA1120M+01221MD1210061+9999REMSYN082AAXX  25181 23256 12698 82303 10079 20074 40116 52006 60010 885// 333 10122 88640;
0112232560999992000082521004+67470+078720FM-12+000899999V0202201N003010042019N0200001N1+00801+00801101151ADDGF107991061031004501031001MD1710011+9999REMSYN060AAXX  25211 23256 42498 72203 10080 20080 40115 57001 86330;
0133232560999992000082600004+67470+078720FM-12+000899999V0202201N002012200019N0500001N1+00721+00721101171ADDGF104991031031012501031011MA1999999100851MD1210031+9999REMSYN066AAXX  26001 23256 42699 42202 10072 20072 30085 40117 52003 83331;
0182232560999992000082603004+67470+078720FM-12+000899999V0200701N00201004201CN0500001N1+01061+00881101211ADDAA199000091GA1041+003609099GF106991051031004501031001GJ103009MD1210031+9999REMSYN076AAXX  26031 23256 32499 60702 10106 20088 40121 52003 85330 333 55050 84912;EQDQ01  00002PRCP99
0165232560999992000082606004+67470+078720FM-12+000899999V0200801N004010300019N0500001N1+01191+00621101101ADDAA199000091GF107991031031008001031001KA1999N+00701MD1710101+9999REMSYN070AAXX  26061 23256 32599 70804 10119 20062 40110 57010 83330 333 20070;EQDQ01  00002PRCP99
0112232560999992000082609004+67470+078720FM-12+000899999V0200401N005010300019N0500001N1+01241+00811100951ADDGF106991031081008001031001MD1710151+9999REMSYN060AAXX  26091 23256 42599 60405 10124 20081 40095 57015 83830;
0133232560999992000082612004+67470+078720FM-12+000899999V0200501N007010300019N0500001N1+01131+00891100841ADDGF107991031051008001031001MA1999999100521MD1710111+9999REMSYN066AAXX  26121 23256 42599 70507 10113 20089 30052 40084 57011 83530;
0165232560999992000082615004+67470+078720FM-12+000899999V0200501N008010300019N0500001N1+00971+00811100711ADDAA199000091GF107991021051008001031011KA1999M+01271MD1710131+9999REMSYN070AAXX  26151 23256 32599 70508 10097 20081 40071 57013 82531 333 10127;EQDQ01  00002PRCP99
0193232560999992000082618004+67470+078720FM-12+000899999V0200401N008010300019N0200001N1+00851+00771100511ADDAA199000091GA1041+012009069GF106991041051012501031001KA1120M+01271MD1710201+9999REMSYN082AAXX  26181 23256 32698 60408 10085 20077 40051 57020 84530 333 10127 84640 91112;EQDQ01  00002PRCP99
0112232560999992000082621004+67470+078720FM-12+000899999V0200201N008010300019N0200001N1+00681+00641100381ADDGF106991021051012501031001MD1710131+9999REMSYN060AAXX  26211 23256 42698 60208 10068 20064 40038 57013 82530;
0159232560999992000082700004+67470+078720FM-12+000899999V0200201N008010024019N0200001N1+00691+00601100321ADDGA1051+002409069GF108991081051002501999999MA1999999099991MD1710071+9999REMSYN076AAXX  27001 23256 42398 80208 10069 20060 39999 40032 57007 885// 333 85708;
0150232560999992000082703004+67470+078720FM-12+000899999V0203601N009010300019N0500001N1+00681+00521100331ADDAY181031AY221031GF107991031051012501031001MD1210021+9999MW1021REMSYN076AAXX  27031 23256 /1699 73609 10068 20052 40033 52002 70282 83530 333 55056;
0186232560999992000082706004+67470+078720FM-12+000899999V0203401N008010300019N0500001N1+00771+00271100361ADDAA100000791AY181061AY221061GF107991021051012501031011KA1120N+00601MD1210031+9999MW1021REMSYN088AAXX  27061 23256 11699 73408 10077 20027 40036 52003 69900 70282 82531 333 20060 91112;
0138232560999992000082709004+67470+078720FM-12+000899999V0203401N006010093019N0500001N1+00901+00131100491ADDGA1051+009309059GF106991051051008001031001MD1210131+9999REMSYN070AAXX  27091 23256 42599 63406 10090 20013 40049 52013 85530 333 85631;
0159232560999992000082712004+67470+078720FM-12+000899999V0203201N005010102019N0500001N1+00741-00071100621ADDGA1061+010209059GF106991061051012501001001MA1999999100301MD1210131+9999REMSYN076AAXX  27121 23256 42699 63205 10074 21007 30030 40062 52013 86500 333 86634;
0187232560999992000082715004+67470+078720FM-12+000899999V0203201N003010111019N0500001N1+00671+00031100651ADDAA199000091GA1071+011109059GF107991071051012501001001KA1120M+00911MD1210021+9999REMSYN076AAXX  27151 23256 32699 73203 10067 20003 40065 52002 87500 333 10091 87637;EQDQ01  00002PRCP99
0165232560999992000082718004+67470+078720FM-12+000899999V0202101N002012200019N0200001N1+00291+00161100611ADDAA199000091GF103991031001999999031001KA1999M+00911MD1710041+9999REMSYN070AAXX  27181 23256 32998 32102 10029 20016 40061 57004 83030 333 10091;EQDQ01  00002PRCP99
0112232560999992000082721004+67470+078720FM-12+000899999V0201501N001019999999N0200001N1+00361+00101100591ADDGF106991041001999999031011MD1710021+9999REMSYN060AAXX  27211 23256 42998 61501 10036 20010 40059 57002 84031;
0133232560999992000082800004+67470+078720FM-12+000899999V0201301N002019999999N0500001N1+00431+00331100591ADDGF107991071001999999031001MA1999999100361MD1410001+9999REMSYN066AAXX  28001 23256 42999 71302 10043 20033 30036 40059 54000 87030;
0180232560999992000082803004+67470+078720FM-12+000899999V0201201N003010021019N0200001N1+00581+00391100551ADDAY121031AY221031GA1051+002109069GF108991081051002501999999GJ102769MD1710041+9999MW1611REMSYN082AAXX  28031 23256 /1398 81203 10058 20039 40055 57004 76122 885// 333 55046 85707;
0202232560999992000082806004+67470+078720FM-12+000899999V0201101N00501004201CN0200001N1+00761+00231100521ADDAA100000791AY181061AY261061GA1041+005709099GF108991061031004501031999KA1120N+00181MD1410001+9999MW1801REMSYN088AAXX  28061 23256 11498 81105 10076 20023 40052 54000 69900 78086 8633/ 333 20018 84919;
0166232560999992000082809004+67470+078720FM-12+000899999V0201201N00501004201CN0500001N1+00851+00551100571ADDAY181031AY221031GA1041+005709099GF108991061031004501031999MD1210021+9999MW1021REMSYN076AAXX  28091 23256 41499 81205 10085 20055 40057 52002 70282 8633/ 333 84919;
0187232560999992000082812004+67470+078720FM-12+000899999V0201001N00301004201CN0500001N1+00841+00641100621ADDAY181061AY221061GA1041+004809099GF108991061031004501031999MA1999999100301MD1210051+9999MW1021REMSYN082AAXX  28121 23256 41499 81003 10084 20064 30030 40062 52005 70282 8633/ 333 84916;
0168232560999992000082815004+67470+078720FM-12+000899999V0201001N00301004201CN0500001N1+00811+00701100641ADDAA199000021GA1041+005709099GF108991061031004501999999KA1120M+00901MD1210021+9999REMSYN076AAXX  28151 23256 32499 81003 10081 20070 40064 52002 863// 333 10090 84919;
0202232560999992000082818004+67470+078720FM-12+000899999V0201001N003010018019N0200001N1+00721+00721100601ADDAA100000791AY121061AY221061GA1081+001809069GF108991081061002501999999KA1120M+00901MD1710041+9999MW1511REMSYN088AAXX  28181 23256 11398 81003 10072 20072 40060 57004 69900 75122 886// 333 10090 88706;
0166232560999992000082821004+67470+078720FM-12+000899999V0201001N003010033019N0200001N1+00721+00721100591ADDAY151031AY221031GA1081+003309059GF108991081051004501999999MD1710011+9999MW1021REMSYN076AAXX  28211 23256 41498 81003 10072 20072 40059 57001 70252 885// 333 88611;
0187232560999992000082900004+67470+078720FM-12+000899999V0200801N004010039019N0500001N1+00641+00641100621ADDAY151061AY221061GA1081+003909059GF108991051051004501999999MA1999999100291MD1210021+9999MW1021REMSYN082AAXX  29001 23256 41499 80804 10064 20064 30029 40062 52002 70252 855// 333 88613;
0180232560999992000082903004+67470+078720FM-12+000899999V0201001N002010072019N0500001N1+00701+00701100601ADDAY161031AY221031GA1081+007209059GF108991081051008001999999GJ100129MD1710011+9999MW1021REMSYN082AAXX  29031 23256 /1599 81002 10070 20070 40060 57001 70262 885// 333 55002 88624;
0202232560999992000082906004+67470+078720FM-12+000899999V0201101N003010108019N0500001N1+01051+00401100611ADDAA100000391AY161061AY221061GA1061+010809059GF107991061051012501031001KA1120N+00621MD1210011+9999MW1021REMSYN088AAXX  29061 23256 11699 71103 10105 20040 40061 52001 69930 70262 86530 333 20062 86636;
0138232560999992000082909004+67470+078720FM-12+000899999V0200501N005010114019N0500001N1+01181+00211100641ADDGA1051+011409059GF107991051051012501031001MD1210031+9999REMSYN070AAXX  29091 23256 42699 70505 10118 20021 40064 52003 85530 333 85638;
0159232560999992000082912004+67470+078720FM-12+000899999V0200401N004010126019N0500001N1+01101+00211100691ADDGA1051+012609059GF107991051051012501031001MA1999999100371MD1210051+9999REMSYN076AAXX  29121 23256 42699 70404 10110 20021 30037 40069 52005 85530 333 85642;
0187232560999992000082915004+67470+078720FM-12+000899999V0200401N003010150019N0500001N1+00831+00451100771ADDAA199000091GA1061+015009059GF106991061051017501031001KA1120M+01321MD1210081+9999REMSYN076AAXX  29151 23256 32799 60403 10083 20045 40077 52008 86530 333 10132 86650;EQDQ01  00002PRCP99
0165232560999992000082918004+67470+078720FM-12+000899999V0200501N002012200019N0200001N1+00471+00471100821ADDAA199000091GF104991031051017501031001KA1999M+01321MD1210041+9999REMSYN070AAXX  29181 23256 32798 40502 10047 20047 40082 52004 83530 333 10132;EQDQ01  00002PRCP99
0131232560999992000082921004+67470+078720FM-12+000899999V0200501N002012200019N0200001N1+00311+00311100911ADDGF102991999001999999031001MD1210091+9999REMSYN060AAXX  29211 23256 42998 20502 10031 20031 40091 52009 80030;EQDQ01+000002SCOTLC
0133232560999992000083000004+67470+078720FM-12+000899999V0200301N002012200019N0500001N1+00251+00251101061ADDGF102991001001999999031011MA1999999100731MD1210151+9999REMSYN066AAXX  30001 23256 42999 20302 10025 20025 30073 40106 52015 80031;
0152232560999992000083003004+67470+078720FM-12+000899999V0200501N004012200019N0500001N1+00701+00511101141ADDAA199000091GF101991001001999999001011MD1210081+9999REMSYN070AAXX  30031 23256 32999 10504 10070 20051 40114 52008 80001 333 55010;EQDQ01  00002PRCP99
0165232560999992000083006004+67470+078720FM-12+000899999V0200301N005012200019N0500001N1+00971+00271101191ADDAA199000091GF102991021011012501001001KA1999N+00231MD1210051+9999REMSYN070AAXX  30061 23256 32699 20305 10097 20027 40119 52005 82100 333 20023;EQDQ01  00002PRCP99
0112232560999992000083009004+67470+078720FM-12+000899999V0200101N003012200019N0500001N1+01161+00151101231ADDGF103991031081012501001001MD1210041+9999REMSYN060AAXX  30091 23256 42699 30103 10116 20015 40123 52004 83800;
0133232560999992000083012004+67470+078720FM-12+000899999V0203301N002012200019N0500001N1+01161+00151101301ADDGF102991021011012501001011MA1999999100971MD1210071+9999REMSYN066AAXX  30121 23256 42699 23302 10116 20015 30097 40130 52007 82101;
0165232560999992000083015004+67470+078720FM-12+000899999V0202601N002012200019N0500001N1+00541+00541101271ADDAA199000091GF102991011051012501031011KA1999M+01181MD1710031+9999REMSYN070AAXX  30151 23256 32699 22602 10054 20054 40127 57003 81531 333 10118;EQDQ01  00002PRCP99
0165232560999992000083018004+67470+078720FM-12+000899999V0202101N003012200019N0200001N1+00321+00321101231ADDAA199000091GF102991001001999999001011KA1999M+01181MD1710041+9999REMSYN070AAXX  30181 23256 32998 22103 10032 20032 40123 57004 80001 333 10118;EQDQ01  00002PRCP99
0112232560999992000083021004+67470+078720FM-12+000899999V0202001N004019999999N0200001N1+00441+00441101131ADDGF105991031001999999031051MD1710101+9999REMSYN060AAXX  30211 23256 42998 52004 10044 20044 40113 57010 83035;
0133232560999992000083100004+67470+078720FM-12+000899999V0201901N004019999999N0500001N1+00381+00381101011ADDGF108991041001999999031011MA1999999100681MD1710121+9999REMSYN066AAXX  31001 23256 42999 81904 10038 20038 30068 40101 57012 84031;
0152232560999992000083103004+67470+078720FM-12+000899999V0202101N005010300019N0500001N1+00591+00591100861ADDAA199000091GF108991021051008001071999MD1710151+9999REMSYN070AAXX  31031 23256 32599 82105 10059 20059 40086 57015 8257/ 333 55140;EQDQ01  00002PRCP99
0196232560999992000083106004+67470+078720FM-12+000899999V0202001N005010075019N0100001N1+00681+00681100751ADDAA199000021AY181061AY261061GA1061+007509099GF108991081031008001999999KA1120N+00231MD1710101+9999MW1801REMSYN082AAXX  31061 23256 31597 82005 10068 20068 40075 57010 78086 883// 333 20023 86925;
0166232560999992000083109004+67470+078720FM-12+000899999V0201601N003010030019N0200001N1+00651+00651100681ADDAY181031AY261031GA1051+003009099GF108991081031004501999999MD1710071+9999MW1251REMSYN076AAXX  31091 23256 41498 81603 10065 20065 40068 57007 72586 883// 333 85910;
0187232560999992000083112004+67470+078720FM-12+000899999V0203501N003010051019N0500001N1+00831+00741100771ADDAY181061AY221061GA1051+005109099GF106991051031004501001011MA1999999100451MD1210091+9999MW1021REMSYN082AAXX  31121 23256 41499 63503 10083 20074 30045 40077 52009 70282 85301 333 85917;
0185232560999992000083115004+67470+078720FM-12+000899999V0203201N005010063019N0500001N1+00791+00791100881ADDAY181031AY221031GA1051+006309099GF108991081031008001999999KA1120M+00861MD1210101+9999MW1021REMSYN082AAXX  31151 23256 /1599 83205 10079 20079 40088 52010 70282 883// 333 10086 85921;
0202232560999992000083118004+67470+078720FM-12+000899999V0203101N007010078019N0200001N1+00661+00451100951ADDAA100004191AY181061AY221061GA1051+007809099GF108991081031008001999999KA1120M+00861MD1210071+9999MW1021REMSYN088AAXX  31181 23256 11598 83107 10066 20045 40095 52007 60040 70282 883// 333 10086 85926;
0138232560999992000083121004+67470+078720FM-12+000899999V0202801N003010108019N0200001N1+00511+00461101031ADDGA1071+010809059GF107991071051012501001001MD1210081+9999REMSYN070AAXX  31211 23256 42698 72803 10051 20046 40103 52008 87500 333 87636;
0159232560999992000090100004+67470+078720FM-12+000899999V0202501N006010120019N0500001N1+00341+00321101061ADDGA1061+012009059GF106991061051012501001001MA1999999100731MD1210031+9999REMSYN076AAXX  01001 23256 42699 62506 10034 20032 30073 40106 52003 86500 333 86640;
0150232560999992000090103004+67470+078720FM-12+000899999V0202801N007012200019N0500001N1+00701+00461101201ADDAY181031AY221031GF105991021031008001001011MD1210141+9999MW1021REMSYN076AAXX  01031 23256 /1599 52807 10070 20046 40120 52014 70282 82301 333 55008;
0225232560999992000090106004+67470+078720FM-12+000899999V0202701N009010084019N0500001N1+00891+00301101221ADDAA100000791AY181061AY221061GA1051+008409099GF107991061031008001031001KA1120N+00311MD1210021+9999MW1021OA140101201REMSYN100AAXX  01061 23256 11599 72709 10089 20030 40122 52002 69900 70282 86330 333 20031 85928 91012 91113;
0166232560999992000090109004+67470+078720FM-12+000899999V0202701N009010075019N0200001N1+00941+00611101131ADDAY181031AY221031GA1041+007509099GF108991071031008001001011MD1710091+9999MW1251REMSYN076AAXX  01091 23256 41598 82709 10094 20061 40113 57009 72582 87301 333 84925;
0161232560999992000090112004+67470+078720FM-12+000899999V0202701N005010300019N0200001N1+00821+00461101041ADDAY121061AY221061GF108991031031008001071999MA1999999100721MD1710081+9999MW1801REMSYN072AAXX  01121 23256 41598 82705 10082 20046 30072 40104 57008 78022 8337/;
0185232560999992000090115004+67470+078720FM-12+000899999V0202301N007010054019N0200001N1+00651+00651100821ADDAY181031AY221031GA1051+005409099GF108991081031004501999999KA1120M+01061MD1710221+9999MW1801REMSYN082AAXX  01151 23256 /1498 82307 10065 20065 40082 57022 78082 883// 333 10106 85918;
0225232560999992000090118004+67470+078720FM-12+000899999V0202301N011010078019N0200001N1+00741+00741100401ADDAA100001091AY181061AY221061GA1051+007809099GF108991081031008001999999KA1120M+01061MD1710421+9999MW1251OA140101401REMSYN100AAXX  01181 23256 11598 82311 10074 20074 40040 57042 60010 72582 883// 333 10106 85926 91014 91114;
0166232560999992000090121004+67470+078720FM-12+000899999V0202501N011010075019N0200001N1+00961+00961100211ADDAY181031AY221031GA1061+007509099GF108991081031008001999999MD1710191+9999MW1801REMSYN076AAXX  01211 23256 41598 82511 10096 20096 40021 57019 78082 883// 333 86925;
0193232560999992000090200004+67470+078720FM-12+000899999V0203201N007010057019N0500001N1+00871+00871100351ADDAY181061AY221061GA1061+005709099GF108991081031004501999999MA1999999100031MD1210141+9999MW1801REMSYN088AAXX  02001 23256 41499 83207 10087 20087 30003 40035 52014 78082 883// 333 86919 91114;
0169232560999992000090203004+67470+078720FM-12+000899999V0203501N004010042019N0500001N1+00591+00571100952ADDAY181031AY221031GF107991071051004501001001MD1210591+9999MW1021REMSYN076AAXX  02031 23256 /1499 73504 10059 20057 40095 52059 70282 87500 333 55006;EQDQ01+100953APOSLP
0199232560999992000090206004+67470+078720FM-12+000899999V0203201N005019999999N0500001N1+00791+00151101321ADDAA100003091AY181061AY221061GF106991999011008001001001KA1999N+00581MD1210371+9999MW1021REMSYN082AAXX  02061 23256 11599 63205 10079 20015 40132 52037 60030 70282 83100 333 20058;EQDQ01+000032SCOTLC
0112232560999992000090209004+67470+078720FM-12+000899999V0203201N005012200019N0500001N1+00881+00091101571ADDGF103991031011008001001001MD1210251+9999REMSYN060AAXX  02091 23256 42599 33205 10088 20009 40157 52025 83100;
0133232560999992000090212004+67470+078720FM-12+000899999V0203101N005010300019N0500001N1+00861+00091101731ADDGF105991031031008001031001MA1999999101401MD1210161+9999REMSYN066AAXX  02121 23256 42599 53105 10086 20009 30140 40173 52016 83330;
0187232560999992000090215004+67470+078720FM-12+000899999V0203601N002010108019N0200001N1+00681+00351101831ADDAA199000091GA1061+010809059GF107991061051012501031001KA1120M+00881MD1210101+9999REMSYN076AAXX  02151 23256 32698 73602 10068 20035 40183 52010 86530 333 10088 86636;EQDQ01  00002PRCP99
0165232560999992000090218004+67470+078720FM-12+000899999V0201801N003012200019N0200001N1+00571+00251101931ADDAA199000091GF103991031001999999031001KA1999M+00881MD1210091+9999REMSYN070AAXX  02181 23256 32998 31803 10057 20025 40193 52009 83030 333 10088;EQDQ01  00002PRCP99
0112232560999992000090221004+67470+078720FM-12+000899999V0202001N004019999999N0200001N1+00491+00241101941ADDGF106991061001999999031001MD1210011+9999REMSYN060AAXX  02211 23256 42998 62004 10049 20024 40194 52001 86030;
0180232560999992000090303004+67470+078720FM-12+000899999V0201601N007010018019N0040001N1+00501+00431101531ADDAY161031AY221031GA1051+001809069GF108991081051002501999999GJ106489MD1710271+9999MW1611REMSYN082AAXX  03031 23256 /1396 81607 10050 20043 40153 57027 76162 885// 333 55108 85706;
0202232560999992000090306004+67470+078720FM-12+000899999V0201401N005010021019N0200001N1+00681+00661101251ADDAA100003091AY161061AY221061GA1041+002109069GF108991081051002501999999KA1120N+00431MD1710281+9999MW1021REMSYN088AAXX  03061 23256 11398 81405 10068 20066 40125 57028 60030 70262 885// 333 20043 84707;
0112232560999992000090309004+67470+078720FM-12+000899999V0201901N003019999999N0500001N1+01491+01251101011ADDGF107991041001999999031011MD1710231+9999REMSYN060AAXX  03091 23256 42999 71903 10149 20125 40101 57023 84031;
0133232560999992000090312004+67470+078720FM-12+000899999V0202401N005010300019N0500001N1+01891+01381100901ADDGF106991011051012501031011MA1999999100581MD1710111+9999REMSYN066AAXX  03121 23256 42699 62405 10189 20138 30058 40090 57011 81531;
0135232560999992000090315004+67470+078720FM-12+000899999V0202401N006012200019N0500001N1+01451+01301100881ADDGF102991021001999999031011KA1999M+01891MD1710021+9999REMSYN070AAXX  03151 23256 /2999 22406 10145 20130 40088 57002 82031 333 10189;
0152232560999992000090318004+67470+078720FM-12+000899999V0202101N005012200019N0200001N1+01251+01201100811ADDAA100001091GF102991001001999999001011KA1999M+01891MD1710071+9999REMSYN076AAXX  03181 23256 12998 22105 10125 20120 40081 57007 60010 80001 333 10189;
0112232560999992000090321004+67470+078720FM-12+000899999V0202101N005012200019N0200001N1+01101+01091100801ADDGF102991001001999999001011MD1710011+9999REMSYN060AAXX  03211 23256 42998 22105 10110 20109 40080 57001 80001;
0161232560999992000090400004+67470+078720FM-12+000899999V0202201N005010300019N0200001N1+01031+01031100781ADDAY161061AY211061GF107991021051008001031011MA1999999100461MD1710021+9999MW1021REMSYN072AAXX  04001 23256 41598 72205 10103 20103 30046 40078 57002 70261 82531;
0122232560999992000090403004+67470+078720FM-12+000899999V0202201N007019999999N0500001N1+01321+01321100701ADDGF108991041001999999021061MD1710081+9999REMSYN070AAXX  04031 23256 /2999 82207 10132 20132 40070 57008 84026 333 55044;
0202232560999992000090406004+67470+078720FM-12+000899999V0202401N007010024019N0200001N1+01401+01401100701ADDAA100000791AY161061AY221061GA1051+002409069GF108991061051002501071999KA1120N+01031MD1410001+9999MW1021REMSYN088AAXX  04061 23256 11398 82407 10140 20140 40070 54000 69900 70262 8657/ 333 20103 85708;
0138232560999992000090409004+67470+078720FM-12+000899999V0202701N00601007501CN0500001N1+01641+01331100671ADDGA1041+006009099GF108991061031008001071999MD1710021+9999REMSYN070AAXX  04091 23256 42599 82706 10164 20133 40067 57002 8637/ 333 84920;
0165232560999992000090412004+67470+078720FM-12+000899999V0202901N006010036019N0200001N1+01411+01331100711ADDGA1051+003609099GF108991081031004501999999MA1999999100391MD1210031+9999REMSYN082AAXX  04121 23256 42498 82906 10141 20133 30039 40071 52003 883// 333 85912 91113;
0185232560999992000090415004+67470+078720FM-12+000899999V0202901N004010066019N0200001N1+01281+01241100811ADDAY121031AY221031GA1051+006609099GF108991081031008001999999KA1120M+01671MD1210101+9999MW1251REMSYN082AAXX  04151 23256 /1598 82904 10128 20124 40081 52010 72522 883// 333 10167 85922;
0163232560999992000090418004+67470+078720FM-12+000899999V0202901N007019999999N0200001N1+01001+01001100971ADDAA100000791GF108991999999004501999999KA1120M+01671MD1210151+9999REMSYN087AAXX  04181 23256 11498 82907 10100 20100 40097 52015 69900 7022 883// 333 10167 85914;
0138232560999992000090421004+67470+078720FM-12+000899999V0202801N006010021019N0200001N1+00971+00971101041ADDGA1041+002109069GF108991081051002501999999MD1210071+9999REMSYN070AAXX  04211 23256 42398 82806 10097 20097 40104 52007 885// 333 84707;
0159232560999992000090500004+67470+078720FM-12+000899999V0202801N005010024019N0200001N1+00921+00921101201ADDGA1051+002409069GF108991081051002501999999MA1999999100871MD1210161+9999REMSYN076AAXX  05001 23256 42398 82805 10092 20092 30087 40120 52016 885// 333 85708;
0152232560999992000090503004+67470+078720FM-12+000899999V0202801N00601001201CN0200001N1+00961+00881101361ADDGA1041+001809069GF108991081051001501999999GJ100309MD1210161+9999REMSYN076AAXX  05031 23256 /2298 82806 10096 20088 40136 52016 885// 333 55005 84706;
0174232560999992000090506004+67470+078720FM-12+000899999V0202601N00501002101CN0200001N1+00961+00811101441ADDAA100000791GA1041+002409069GF108991081051002501999999KA1120N+00921MD1210081+9999REMSYN082AAXX  05061 23256 12398 82605 10096 20081 40144 52008 69900 885// 333 20092 84708;
0147232560999992000090509004+67470+078720FM-12+000899999V0202401N004012200019N0500001N1+01261+00881101431ADDGF106991031051008001001011MD1710011+9999REMSYN060AAXX  05091 23256 42599 62404 10126 20088 40143 52000 83501;EQDQ01+000022APCTENQ02+000002APC3  
0133232560999992000090512004+67470+078720FM-12+000899999V0201901N004012200019N0500001N1+01481+00801101301ADDGF105991021011012501001011MA1999999100981MD1710131+9999REMSYN066AAXX  05121 23256 42699 51904 10148 20080 30098 40130 57013 82101;
0165232560999992000090515004+67470+078720FM-12+000899999V0202001N006010300019N0200001N1+01201+00731101231ADDAA199000091GF107991021051008001031001KA1999M+01491MD1710071+9999REMSYN070AAXX  05151 23256 32598 72006 10120 20073 40123 57007 82530 333 10149;EQDQ01  00002PRCP99
0188232560999992000090518004+67470+078720FM-12+000899999V0202001N009012200019N0200001N1+01141+00701101141ADDAA199000091GF102991021051012501001001KA1120M+01491MD1710091+9999OA140101201REMSYN082AAXX  05181 23256 32698 22009 10114 20070 40114 57009 82500 333 10149 91012 91112;EQDQ01  00002PRCP99
0112232560999992000090521004+67470+078720FM-12+000899999V0202101N007012200019N0200001N1+01091+00681101051ADDGF102991021051012501001001MD1710101+9999REMSYN060AAXX  05211 23256 42698 22107 10109 20068 40105 57010 82500;
0133232560999992000090600004+67470+078720FM-12+000899999V0202001N007012200019N0500001N1+01001+00841101001ADDGF103991021001999999031011MA1999999100671MD1710051+9999REMSYN066AAXX  06001 23256 42999 32007 10100 20084 30067 40100 57005 82031;
0152232560999992000090603004+67470+078720FM-12+000899999V0202101N007012200019N0500001N1+01391+00981100931ADDAA199000091GF102991001001999999001011MD1710061+9999REMSYN070AAXX  06031 23256 32999 22107 10139 20098 40093 57006 80001 333 55038;EQDQ01  00002PRCP99
0165232560999992000090606004+67470+078720FM-12+000899999V0202201N007012200019N0500001N1+01891+00851100871ADDAA199000091GF102991001001999999001021KA1999N+01001MD1710061+9999REMSYN070AAXX  06061 23256 32999 22207 10189 20085 40087 57006 80002 333 20100;EQDQ01  00002PRCP99
0112232560999992000090609004+67470+078720FM-12+000899999V0202401N012012200019N0500001N1+02261+00581100831ADDGF102991001001999999001011MD1710031+9999REMSYN060AAXX  06091 23256 42999 22412 10226 20058 40083 57003 80001;
0133232560999992000090612004+67470+078720FM-12+000899999V0202401N006012200019N0500001N1+02121+00561100861ADDGF101991001001999999001011MA1999999100541MD1210021+9999REMSYN066AAXX  06121 23256 42999 12406 10212 20056 30054 40086 52002 80001;
0175232560999992000090615004+67470+078720FM-12+000899999V0202101N006012200019N0200001N1+01641+00771100861ADDAA199000091GA1001+999999999GF100991001001999999001001KA1999M+02281MD1410001+9999REMSYN064AAXX  06151 23256 32998 02106 10164 20077 40086 54000 333 10228;EQDQ01  00002PRCP99
0175232560999992000090618004+67470+078720FM-12+000899999V0202301N005012200019N0200001N1+01251+00821100841ADDAA199000091GA1001+999999999GF100991001001999999001001KA1999M+02281MD1710021+9999REMSYN064AAXX  06181 23256 32998 02305 10125 20082 40084 57002 333 10228;EQDQ01  00002PRCP99
0122232560999992000090621004+67470+078720FM-12+000899999V0202301N006012200019N0200001N1+01141+00801100801ADDGA1001+999999999GF100991001001999999001001MD1710041+9999REMSYN054AAXX  06211 23256 42998 02306 10114 20080 40080 57004;
0133232560999992000090700004+67470+078720FM-12+000899999V0202301N006010300019N0500001N1+01061+00881100761ADDGF106991031021008001031001MA1999999100441MD1710041+9999REMSYN066AAXX  07001 23256 42599 62306 10106 20088 30044 40076 57004 83230;
0152232560999992000090703004+67470+078720FM-12+000899999V0202201N006010300019N0500001N1+01261+00901100761ADDAA199000091GF107991031051012501031001MD1410001+9999REMSYN070AAXX  07031 23256 32699 72206 10126 20090 40076 54000 83530 333 55128;EQDQ01  00002PRCP99
0151232560999992000090706004+67470+078720FM-12+000899999V0202201N005010300019N0500001N1+01641+00901100731ADDAA199000091GF106991021051012501031001MD1710031+9999REMSYN069AAXX  07061 23256 32699 62205 10164 20090 40073 57003 82530 333 0106;EQDQ01  00002PRCP99
0112232560999992000090709004+67470+078720FM-12+000899999V0202201N006010750019N0500001N1+02021+00781100631ADDGF105991011011012501031011MD1710091+9999REMSYN060AAXX  07091 23256 42699 52206 10202 20078 40063 57009 81131;
0187232560999992000090712004+67470+078720FM-12+000899999V0201201N00501004201CN0200001N1+01611+00981100571ADDAY121061AY221061GA1041+005409099GF108991061071004501071999MA1999999100251MD1710071+9999MW1251REMSYN082AAXX  07121 23256 41498 81205 10161 20098 30025 40057 57007 72522 8677/ 333 84918;
0163232560999992000090715004+67470+078720FM-12+000899999V0200401N003010300019N0200001N1+01321+01211100481ADDAY191031AY221031GF108991031031008001071999KA1999M+02021MD1710091+9999MW1291REMSYN076AAXX  07151 23256 /1598 80403 10132 20121 40048 57009 72992 8337/ 333 10202;
0180232560999992000090718004+67470+078720FM-12+000899999V0201401N004010300019N0200001N1+01201+01141100451ADDAA100001091AY191061AY221061GF108991031031008001071999KA1999M+02021MD1710031+9999MW1251REMSYN082AAXX  07181 23256 11598 81404 10120 20114 40045 57003 69990 72592 8337/ 333 10202;
0133232560999992000090800004+67470+078720FM-12+000899999V0201601N004010300019N0500001N1+01061+01061100181ADDGF107991031031008001031011MA1999999099861MD1710171+9999REMSYN066AAXX  08001 23256 42599 71604 10106 20106 39986 40018 57017 83331;
0122232560999992000090803004+67470+078720FM-12+000899999V0201901N005010300019N0500001N1+01101+01041100081ADDGF108991031031012501071999MD1710101+9999REMSYN070AAXX  08031 23256 /2699 81905 10110 20104 40008 57010 8337/ 333 55043;
0202232560999992000090806004+67470+078720FM-12+000899999V0202001N007010021019N0500001N1+01351+01201099961ADDAA100001091AY181061AY221061GA1051+002109069GF108991081031002501999999KA1120N+01051MD1710121+9999MW1021REMSYN088AAXX  08061 23256 11399 82007 10135 20120 49996 57012 60010 70282 883// 333 20105 85707;
0166232560999992000090809004+67470+078720FM-12+000899999V0202301N008010072019N0500001N1+01341+01131099841ADDAY191031AY281031GA1051+007209099GF108991081031008001999999MD1710121+9999MW1021REMSYN076AAXX  08091 23256 41599 82308 10134 20113 49984 57012 70298 883// 333 85924;
0161232560999992000090812004+67470+078720FM-12+000899999V0202501N004012200019N0500001N1+01381+00621099781ADDAY191061AY281061GF107991031031008001001011MA1999999099461MD1710061+9999MW1021REMSYN072AAXX  08121 23256 41599 72504 10138 20062 39946 49978 57006 70298 83301;
0135232560999992000090815004+67470+078720FM-12+000899999V0202401N003012200019N0200001N1+00761+00611099681ADDGF103991031001999999031001KA1999M+01501MD1710101+9999REMSYN070AAXX  08151 23256 /2998 32403 10076 20061 49968 57010 83030 333 10150;
0202232560999992000090818004+67470+078720FM-12+000899999V0202901N007010021019N0040001N1+00801+00741099631ADDAA100003091AY161061AY211061GA1051+002109069GF108991081051002501999999KA1120M+01501MD1710051+9999MW1611REMSYN088AAXX  08181 23256 11396 82907 10080 20074 49963 57005 60030 76161 885// 333 10150 85707;
0166232560999992000090821004+67470+078720FM-12+000899999V0202801N00701002101CN0200001N1+00531+99999099661ADDAY161031AY221031GA1041+002409069GF108991081051002501999999MD1210021+9999MW1021REMSYN076AAXX  08211 23256 41398 82807 10053 20054 49966 52002 70262 885// 333 84708;
0187232560999992000090900004+67470+078720FM-12+000899999V0202801N007010039019N0200001N1+00451+00401099621ADDAY161061AY221061GA1081+003909059GF108991081051004501999999MA1999999099291MD1710041+9999MW1021REMSYN082AAXX  09001 23256 41498 82807 10045 20040 39929 49962 57004 70262 885// 333 88613;
0180232560999992000090903004+67470+078720FM-12+000899999V0202601N008010021019N0100001N1+00361+00311099621ADDAY161031AY221031GA1061+002109069GF108991081051002501999999GJ102589MD1410001+9999MW1611REMSYN082AAXX  09031 23256 /1397 82608 10036 20031 49962 54000 76162 885// 333 55043 86707;
0225232560999992000090906004+67470+078720FM-12+000899999V0202601N009010042019N0500001N1+00601+00001099551ADDAA100002091AY161061AY221061GA1051+004209099GF107991071031004501001001KA1120N+00331MD1710071+9999MW1021OA140101201REMSYN100AAXX  09061 23256 11499 72609 10060 20000 49955 57007 60020 70262 87300 333 20033 85914 91012 91113;
0166232560999992000090909004+67470+078720FM-12+000899999V0202701N00901007501CN0500001N1+00611+00321099411ADDAY181031AY221031GA1041+007209099GF107991071031008001001001MD1710141+9999MW1251REMSYN076AAXX  09091 23256 41599 72709 10061 20032 49941 57014 72582 87300 333 84924;
0159232560999992000090912004+67470+078720FM-12+000899999V0202801N008010075019N0500001N1+00681+00041099291ADDGA1041+007509099GF107991061031008001031001MA1999999098961MD1710121+9999REMSYN076AAXX  09121 23256 41599 72808 10068 20004 39896 49929 57012 86330 333 84925;
0185232560999992000090915004+67470+078720FM-12+000899999V0202801N006010030019N0200001N1+00381+00381099141ADDAY121031AY221031GA1081+003009069GF108991081061004501999999KA1120M+00881MD1710151+9999MW1201REMSYN082AAXX  09151 23256 /1498 82806 10038 20038 49914 57015 72022 886// 333 10088 88710;
0202232560999992000090918004+67470+078720FM-12+000899999V0202801N004010024019N0040001N1+00261+00261098981ADDAA100000791AY161061AY251061GA1061+002409069GF108991081051002501999999KA1120M+00881MD1710161+9999MW1611REMSYN088AAXX  09181 23256 11396 82804 10026 20026 49898 57016 69900 76165 885// 333 10088 86708;
0166232560999992000090921004+67470+078720FM-12+000899999V0203101N004010018019N0040001N1+00381+00381098781ADDAY161031AY221031GA1061+001809069GF108991081021002501999999MD1710191+9999MW1611REMSYN076AAXX  09211 23256 41396 83104 10038 20038 49878 57019 76162 882// 333 86706;
0187232560999992000091000004+67470+078720FM-12+000899999V0203501N006010018019N0200001N1+00351+00351099051ADDAY161061AY221061GA1061+001809069GF108991081051002501999999MA1999999098721MD1210261+9999MW1211REMSYN082AAXX  10001 23256 41398 83506 10035 20035 39872 49905 52026 72162 885// 333 86706;
0180232560999992000091003004+67470+078720FM-12+000899999V0203301N007010021019N0200001N1+00381+00361099301ADDAY151031AY221031GA1061+002109069GF108991081051002501999999GJ101269MD1210251+9999MW1021REMSYN082AAXX  10031 23256 /1398 83307 10038 20036 49930 52025 70252 885// 333 55021 86707;
0185232560999992000091009004+67470+078720FM-12+000899999V0203001N009010021019N0100001N1+00391+00291099791ADDAY161031AY221031GA1051+002109069GF108991999071002501021999MD1210231+9999MW1611REMSYN076AAXX  10091 23256 41397 83009 10039 20029 49979 52023 76162 8872/ 333 85707;EQDQ01+000082SCOTLC
0210232560999992000091012004+67470+078720FM-12+000899999V0203001N00901004201CN0500001N1+00441+00221099991ADDAY161061AY251061GA1041+004509099GF108991081031004501999999MA1999999099661MD1210201+9999MW1801OA140101201REMSYN094AAXX  10121 23256 41499 83009 10044 20022 39966 49999 52020 78065 883// 333 84915 91012 91113;
0185232560999992000091015004+67470+078720FM-12+000899999V0203001N007010057019N0200001N1+00421+00111100101ADDAY181031AY221031GA1051+005709099GF108991081031004501999999KA1120M+00451MD1210111+9999MW1021REMSYN082AAXX  10151 23256 /1498 83007 10042 20011 40010 52011 70282 883// 333 10045 85919;
0202232560999992000091018004+67470+078720FM-12+000899999V0202901N007010054019N0028001N1+00391+00081100161ADDAA100003091AY181061AY221061GA1051+005409099GF108991081031004501999999KA1120M+00491MD1210061+9999MW1021REMSYN088AAXX  10181 23256 11428 82907 10039 20008 40016 52006 60030 70282 883// 333 10049 85918;
0138232560999992000091021004+67470+078720FM-12+000899999V0203001N008010057019N0200001N1+00371+00031100231ADDGA1051+005709099GF108991081031004501999999MD1210071+9999REMSYN070AAXX  10211 23256 42498 83008 10037 20003 40023 52007 883// 333 85919;
0133232560999992000091100004+67470+078720FM-12+000899999V0202901N007019999999N0500001N1+00381+00151100341ADDGF108991031031008001999999MA1999999100011MD1210111+9999REMSYN066AAXX  11001 23256 42599 82907 10038 20015 30001 40034 52011 833//;
0166232560999992000091109004+67470+078720FM-12+000899999V0202801N006010075019N0500001N1+00541-00141100751ADDAY181031AY221031GA1041+007509099GF107991071031008001001001MD1210141+9999MW1021REMSYN076AAXX  11091 23256 41599 72806 10054 21014 40075 52014 70282 87300 333 84925;
0161232560999992000091112004+67470+078720FM-12+000899999V0202601N005010300019N0500001N1+00471-00131100861ADDAY181061AY221061GF106991031031008001031001MA1999999100531MD1210111+9999MW1021REMSYN072AAXX  11121 23256 41599 62605 10047 21013 30053 40086 52011 70282 83330;
0185232560999992000091115004+67470+078720FM-12+000899999V0202301N004010075019N0200001N1+00241+00161100941ADDAY181031AY221031GA1041+007509099GF107991051031008001031001KA1120M+00621MD1210081+9999MW1251REMSYN082AAXX  11151 23256 /1598 72304 10024 20016 40094 52008 72582 85330 333 10062 84925;
0202232560999992000091118004+67470+078720FM-12+000899999V0202301N00401007501CN0200001N1+00191+00161100991ADDAA100000591AY181061AY221061GA1041+007209099GF107991051031008001031001KA1120M+00621MD1210051+9999MW1021REMSYN088AAXX  11181 23256 11598 72304 10019 20016 40099 52005 69940 70282 85330 333 10062 84924;
0138232560999992000091121004+67470+078720FM-12+000899999V0203101N003010300019N0200001N1+00111+00081101041ADDGA1031+008409099GF106991041031008001031001MD1210041+9999REMSYN070AAXX  11211 23256 42598 63103 10011 20008 40104 52004 84330 333 83928;
0133232560999992000091200004+67470+078720FM-12+000899999V0202101N003012200019N0500001N1-00121-00151101091ADDGF103991021051008001091001MA1999999100751MD1210051+9999REMSYN066AAXX  12001 23256 42599 32103 11012 21015 30075 40109 52005 82590;
0133232560999992000091203004+67470+078720FM-12+000899999V0202401N003012200019N0500001N1+00321+00001101141ADDAA199000021GF104991021081008001031011MD1210061+9999REMSYN070AAXX  12031 23256 32599 42403 10032 20000 40114 52006 82831 333 55021;
0165232560999992000091206004+67470+078720FM-12+000899999V0202201N002010300019N0500001N1+00661-00431101141ADDAA199000091GF105991031081012501031011KA1999N-00121MD1410001+9999REMSYN070AAXX  12061 23256 32699 52202 10066 21043 40114 54000 83831 333 21012;EQDQ01  00002PRCP99
0112232560999992000091209004+67470+078720FM-12+000899999V0203601N002010300019N0500001N1+00601-00451101121ADDGF105991031051012501031011MD1710021+9999REMSYN060AAXX  12091 23256 42699 53602 10060 21045 40112 57002 83531;
0159232560999992000091212004+67470+078720FM-12+000899999V0200301N002010300019N0200001N1+00611-00431101101ADDGA1041+012009059GF106991041051012501031001MA1999999100771MD1710021+9999REMSYN076AAXX  12121 23256 42698 60302 10061 21043 30077 40110 57002 84530 333 84640;
0187232560999992000091215004+67470+078720FM-12+000899999V0203101N001010108019N0200001N1+00401-00471101131ADDAA199000091GA1051+010809059GF105991051051012501001001KA1120M+00681MD1210031+9999REMSYN076AAXX  12151 23256 32698 53101 10040 21047 40113 52003 85500 333 10068 85636;EQDQ01  00002PRCP99
0165232560999992000091218004+67470+078720FM-12+000899999V0201701N002012200019N0200001N1+00291+00051101151ADDAA199000091GF103991001001999999001011KA1999M+00681MD1210021+9999REMSYN070AAXX  12181 23256 32998 31702 10029 20005 40115 52002 80001 333 10068;EQDQ01  00002PRCP99
0138232560999992000091221004+67470+078720FM-12+000899999V0209999C000010108019N0200001N1+00281+00041101141ADDGA1061+010809059GF106991061051012501001001MD1710011+9999REMSYN070AAXX  12211 23256 42698 60000 10028 20004 40114 57001 86500 333 86636;
0159232560999992000091300004+67470+078720FM-12+000899999V0201101N00201007501CN0500001N1+00291+00211101151ADDGA1041+008109099GF108991081031008001999999MA1999999100821MD1210011+9999REMSYN076AAXX  13001 23256 42599 81102 10029 20021 30082 40115 52001 883// 333 84927;
0152232560999992000091303004+67470+078720FM-12+000899999V0200301N002010300019N0500001N1+00431+00151101161ADDAA199000091GF107991021051012501031011MD1210011+9999REMSYN070AAXX  13031 23256 32699 70302 10043 20015 40116 52001 82531 333 55089;EQDQ01  00002PRCP99
0165232560999992000091306004+67470+078720FM-12+000899999V0200501N004010300019N0500001N1+00511+00071101121ADDAA199000091GF107991021061004501031001KA1999N+00241MD1710041+9999REMSYN070AAXX  13061 23256 32499 70504 10051 20007 40112 57004 82630 333 20024;EQDQ01  00002PRCP99
0166232560999992000091309004+67470+078720FM-12+000899999V0203601N001010075019N0500001N1+00561+00131101131ADDAY121031AY221031GA1041+007509099GF107991061031008001031001MD1710011+9999MW1251REMSYN076AAXX  13091 23256 41599 73601 10056 20013 40113 57001 72522 86330 333 84925;
0161232560999992000091312004+67470+078720FM-12+000899999V0203501N003010300019N0500001N1+00651+00071101161ADDAY181061AY221061GF106991031051012501031001MA1999999100831MD1210031+9999MW1021REMSYN072AAXX  13121 23256 41699 63503 10065 20007 30083 40116 52003 70282 83530;
0135232560999992000091315004+67470+078720FM-12+000899999V0203501N003010300019N0200001N1+00581+00131101181ADDGF107991031051012501031001KA1999M+00661MD1210021+9999REMSYN070AAXX  13151 23256 /2698 73503 10058 20013 40118 52002 83530 333 10066;
0152232560999992000091318004+67470+078720FM-12+000899999V0203301N002019999999N0200001N1+00401+00141101171ADDAA100000791GF106991061001999999031001KA1999M+00661MD1710011+9999REMSYN076AAXX  13181 23256 12998 63302 10040 20014 40117 57001 69900 86030 333 10066;
0138232560999992000091321004+67470+078720FM-12+000899999V0203301N002010120019N0200001N1+00451+00221101251ADDGA1071+012009059GF107991071051012501001001MD1210081+9999REMSYN070AAXX  13211 23256 42698 73302 10045 20022 40125 52008 87500 333 87640;
0133232560999992000091400004+67470+078720FM-12+000899999V0203201N002010300019N0200001N1+00381+00201101361ADDGF108991031051012501071999MA1999999101031MD1210111+9999REMSYN066AAXX  14001 23256 42698 83202 10038 20020 30103 40136 52011 8357/;
0150232560999992000091403004+67470+078720FM-12+000899999V0203201N002010300019N0500001N1+00481+00481101421ADDAY161031AY221031GF108991021051012501071999MD1210061+9999MW1021REMSYN076AAXX  14031 23256 /1699 83202 10048 20048 40142 52006 70262 8257/ 333 55009;
0202232560999992000091406004+67470+078720FM-12+000899999V0203201N002010300019N0500001N1+00601+00341101521ADDAA100000791AY161061AY221061GA1041+003609069GF107991041061004501031001KA1120N+00381MD1210101+9999MW1021REMSYN088AAXX  14061 23256 11499 73202 10060 20034 40152 52010 69900 70262 84630 333 20038 84712;
0112232560999992000091409004+67470+078720FM-12+000899999V0202901N004012200019N0500001N1+00691+00091101571ADDGF103991031031008001001001MD1210051+9999REMSYN060AAXX  14091 23256 42599 32904 10069 20009 40157 52005 83300;
0159232560999992000091412004+67470+078720FM-12+000899999V0203101N003010096019N0500001N1+00671-00091101611ADDGA1071+009609059GF107991071051008001001001MA1999999101281MD1210041+9999REMSYN076AAXX  14121 23256 42599 73103 10067 21009 30128 40161 52004 87500 333 87632;
0187232560999992000091415004+67470+078720FM-12+000899999V0203501N002010093019N0200001N1+00591-00041101601ADDAA199000091GA1071+009309059GF107991071051008001001001KA1120M+00751MD1710011+9999REMSYN076AAXX  14151 23256 32598 73502 10059 21004 40160 57001 87500 333 10075 87631;EQDQ01  00002PRCP99
0187232560999992000091418004+67470+078720FM-12+000899999V0203601N002010084019N0200001N1+00431+00361101651ADDAA199000091GA1081+008409059GF108991081051008001999999KA1120M+00751MD1210051+9999REMSYN076AAXX  14181 23256 32598 83602 10043 20036 40165 52005 885// 333 10075 88628;EQDQ01  00002PRCP99
0138232560999992000091421004+67470+078720FM-12+000899999V0209999C000010096019N0200001N1+00341+00241101621ADDGA1061+009609059GF106991061051008001001001MD1710031+9999REMSYN070AAXX  14211 23256 42598 60000 10034 20024 40162 57003 86500 333 86632;
0159232560999992000091500004+67470+078720FM-12+000899999V0200701N004010072019N0200001N1+00361+00071101621ADDGA1051+007209059GF106991051051008001031001MA1999999101291MD1410001+9999REMSYN076AAXX  15001 23256 42598 60704 10036 20007 30129 40162 54000 85530 333 85624;
0152232560999992000091503004+67470+078720FM-12+000899999V0200201N003010300019N0500001N1+00471-00041101611ADDAA199000091GF107991021051008001031011MD1710011+9999REMSYN070AAXX  15031 23256 32599 70203 10047 21004 40161 57001 82531 333 55026;EQDQ01  00002PRCP99
0187232560999992000091506004+67470+078720FM-12+000899999V0200501N00501007501CN0500001N1+00531-00081101591ADDAA199000091GA1041+006009099GF107991051031008001031001KA1120N+00301MD1710021+9999REMSYN076AAXX  15061 23256 32599 70505 10053 21008 40159 57002 85330 333 20030 84920;EQDQ01  00002PRCP99
0138232560999992000091509004+67470+078720FM-12+000899999V0200401N005010078019N0500001N1+00521-00131101581ADDGA1071+007809059GF107991071051008001001001MD1710011+9999REMSYN070AAXX  15091 23256 42599 70405 10052 21013 40158 57001 87500 333 87626;
0187232560999992000091512004+67470+078720FM-12+000899999V0200501N00501004201CN0500001N1+00501+00031101561ADDAY181061AY221061GA1041+005109099GF107991071031004501001001MA1999999101231MD1710021+9999MW1021REMSYN082AAXX  15121 23256 41499 70505 10050 20003 30123 40156 57002 70282 87300 333 84917;
0157232560999992000091515004+67470+078720FM-12+000899999V0200501N004010096019N0200001N1+00321-00121101541ADDGA1081+009609059GF108991081051008001999999KA1120M+00571MD1710021+9999REMSYN076AAXX  15151 23256 /2598 80504 10032 21012 40154 57002 885// 333 10057 88632;
0174232560999992000091518004+67470+078720FM-12+000899999V0200401N004010099019N0200001N1+00261-00071101531ADDAA100000791GA1081+009909059GF108991081051008001999999KA1120M+00571MD1710011+9999REMSYN082AAXX  15181 23256 12598 80404 10026 21007 40153 57001 69900 885// 333 10057 88633;
0138232560999992000091521004+67470+078720FM-12+000899999V0200301N005010093019N0200001N1+00151-00231101501ADDGA1051+009309059GF108991051051008001031999MD1710041+9999REMSYN070AAXX  15211 23256 42598 80305 10015 21023 40150 57004 8553/ 333 85631;
0159232560999992000091600004+67470+078720FM-12+000899999V0200301N006010096019N0200001N1+00091-00141101501ADDGA1081+009609059GF108991081051008001999999MA1999999101161MD1410001+9999REMSYN076AAXX  16001 23256 42598 80306 10009 21014 30116 40150 54000 885// 333 88632;
0182232560999992000091603004+67470+078720FM-12+000899999V0200501N005010096019N0500001N1+00141-00211101521ADDAA199000091GA1081+009609059GF108991081051008001999999GJ102109MD1210021+9999REMSYN076AAXX  16031 23256 32599 80505 10014 21021 40152 52002 885// 333 55035 88632;EQDQ01  00002PRCP99
0187232560999992000091606004+67470+078720FM-12+000899999V0200401N007010084019N0500001N1+00221-00421101531ADDAA199000091GA1061+008409059GF108991061051008001071999KA1120N+00071MD1210021+9999REMSYN076AAXX  16061 23256 32599 80407 10022 21042 40153 52002 8657/ 333 20007 86628;EQDQ01  00002PRCP99
0138232560999992000091609004+67470+078720FM-12+000899999V0200301N006010093019N0500001N1+00261-00371101551ADDGA1061+009309059GF108991061051008001071999MD1210011+9999REMSYN070AAXX  16091 23256 42599 80306 10026 21037 40155 52001 8657/ 333 86631;
0159232560999992000091612004+67470+078720FM-12+000899999V0200301N007010111019N0500001N1+00211-00221101621ADDGA1051+011109059GF106991051051012501031001MA1999999101281MD1210071+9999REMSYN076AAXX  16121 23256 42699 60307 10021 21022 30128 40162 52007 85530 333 85637;
0165232560999992000091615004+67470+078720FM-12+000899999V0200301N006012200019N0200001N1-00021-00171101661ADDAA199000091GF103991031051012501001001KA1999M+00271MD1210041+9999REMSYN070AAXX  16151 23256 32698 30306 11002 21017 40166 52004 83500 333 10027;EQDQ01  00002PRCP99
0175232560999992000091618004+67470+078720FM-12+000899999V0200101N005012200019N0200001N1-00131-00161101691ADDAA199000091GA1001+999999999GF100991001001999999001001KA1999M+00271MD1210031+9999REMSYN064AAXX  16181 23256 32998 00105 11013 21016 40169 52003 333 10027;EQDQ01  00002PRCP99
0122232560999992000091621004+67470+078720FM-12+000899999V0200201N004012200019N0200001N1-00261-00261101731ADDGA1001+999999999GF100991001001999999001001MD1210041+9999REMSYN054AAXX  16211 23256 42998 00204 11026 21026 40173 52004;
0143232560999992000091700004+67470+078720FM-12+000899999V0200301N004012200019N0500001N1-00231-00231101761ADDGA1001+999999999GF100991001001999999001001MA1999999101421MD1210031+9999REMSYN060AAXX  17001 23256 42999 00304 11023 21023 30142 40176 52003;
0182232560999992000091703004+67470+078720FM-12+000899999V0203501N006010036019N0500001N1-00101-00231101831ADDAA199000091GA1051+003609069GF107991071051004501001001GJ100009MD1210071+9999REMSYN076AAXX  17031 23256 32499 73506 11010 21023 40183 52007 87500 333 55000 85712;EQDQ01  00002PRCP99
0187232560999992000091706004+67470+078720FM-12+000899999V0203601N003010039019N0500001N1-00031-00271101831ADDAA199000091GA1071+003909059GF107991071051004501001001KA1120N-00271MD1410001+9999REMSYN076AAXX  17061 23256 32499 73603 11003 21027 40183 54000 87500 333 21027 87613;EQDQ01  00002PRCP99
0138232560999992000091709004+67470+078720FM-12+000899999V0203201N003010300019N0500001N1+00091-00301101811ADDGA1041+005109059GF105991041051004501031001MD1710021+9999REMSYN070AAXX  17091 23256 42499 53203 10009 21030 40181 57002 84530 333 84617;
0152232560999992000091712004+67470+078720FM-12+000899999V0203201N002012200019N0500001N1+00071-00431101781ADDGF104991999051008001001001MA1999999101441MD1710031+9999REMSYN066AAXX  17121 23256 42599 43202 10007 21043 30144 40178 57003 82500;EQDQ01+000022SCOTLC
0165232560999992000091715004+67470+078720FM-12+000899999V0203001N001012200019N0200001N1-00221-00401101781ADDAA199000091GF102991021051012501001001KA1999M+00101MD1410001+9999REMSYN070AAXX  17151 23256 32698 23001 11022 21040 40178 54000 82500 333 10010;EQDQ01  00002PRCP99
0165232560999992000091718004+67470+078720FM-12+000899999V0202601N001012200019N0200001N1-00361-00411101721ADDAA199000091GF102991021001999999031001KA1999M+00101MD1710061+9999REMSYN070AAXX  17181 23256 32998 22601 11036 21041 40172 57006 82030 333 10010;EQDQ01  00002PRCP99
0138232560999992000091721004+67470+078720FM-12+000899999V0202601N001010087019N0200001N1-00101-00201101691ADDGA1061+008709059GF106991061051008001001001MD1710031+9999REMSYN070AAXX  17211 23256 42598 62601 11010 21020 40169 57003 86500 333 86629;
0159232560999992000091800004+67470+078720FM-12+000899999V0201901N002010048019N0200001N1-00061-00151101611ADDGA1051+004809099GF108991081031004501999999MA1999999101271MD1710081+9999REMSYN076AAXX  18001 23256 42498 81902 11006 21015 30127 40161 57008 883// 333 85916;
0182232560999992000091803004+67470+078720FM-12+000899999V0202001N002010045019N0500001N1-00031-00331101621ADDAA199000091GA1051+004509099GF108991081031004501999999GJ104449MD1210011+9999REMSYN076AAXX  18031 23256 32499 82002 11003 21033 40162 52001 883// 333 55074 85915;EQDQ01  00002PRCP99
0187232560999992000091806004+67470+078720FM-12+000899999V0202301N002010045019N0500001N1+00001-00301101581ADDAA199000091GA1051+004509099GF108991081031004501999999KA1120N-00361MD1710041+9999REMSYN076AAXX  18061 23256 32499 82302 10000 21030 40158 57004 883// 333 21036 85915;EQDQ01  00002PRCP99
0166232560999992000091809004+67470+078720FM-12+000899999V0202401N002010057019N0500001N1+00091-00331101491ADDAY181031AY221031GA1051+005709099GF107991071031004501001001MD1710091+9999MW1021REMSYN076AAXX  18091 23256 41499 72402 10009 21033 40149 57009 70282 87300 333 85919;
0161232560999992000091812004+67470+078720FM-12+000899999V0202201N004012200019N0500001N1-00021-00421101381ADDAY181061AY211061GF103991021051008001031001MA1999999101041MD1710111+9999MW1021REMSYN072AAXX  18121 23256 41599 32204 11002 21042 30104 40138 57011 70281 82530;
0157232560999992000091815004+67470+078720FM-12+000899999V0202301N003010045019N0200001N1-00161-00331101301ADDGA1051+004509059GF105991051051004501001001KA1120M+00131MD1710081+9999REMSYN076AAXX  18151 23256 /2498 52303 11016 21033 40130 57008 85500 333 10013 85615;
0191232560999992000091818004+67470+078720FM-12+000899999V0202001N002010045019N0200001N1+99999+99999999999ADDAA199000091GA1061+004509059GF106991061051004501001001KA1120M+00131MD1710021+9999REMSYN064AAXX  18181 23256 32498 62002 10112 57002 86500 333 10013 86615;EQDQ01+001123ATOT  Q02  00002PRCP99
0138232560999992000091821004+67470+078720FM-12+000899999V0201701N002010054019N0200001N1-00201-00231101061ADDGA1081+005409059GF108991081051004501999999MD1710221+9999REMSYN070AAXX  18211 23256 42498 81702 11020 21023 40106 57022 885// 333 88618;
0159232560999992000091900004+67470+078720FM-12+000899999V0201801N002010051019N0200001N1-00141-00221100951ADDGA1071+005109059GF107991071051004501001001MA1999999100611MD1710111+9999REMSYN076AAXX  19001 23256 42498 71802 11014 21022 30061 40095 57011 87500 333 87617;
0152232560999992000091903004+67470+078720FM-12+000899999V0201501N002010300019N0500001N1-00081-00151100791ADDAA199000091GF106991031061004501031011MD1710161+9999REMSYN070AAXX  19031 23256 32499 61502 11008 21015 40079 57016 83631 333 55019;EQDQ01  00002PRCP99
0187232560999992000091906004+67470+078720FM-12+000899999V0202201N003010120019N0500001N1+00181-00431100641ADDAA199000091GA1081+012009059GF108991081051012501999999KA1120N-00201MD1710151+9999REMSYN076AAXX  19061 23256 32699 82203 10018 21043 40064 57015 885// 333 21020 88640;EQDQ01  00002PRCP99
0138232560999992000091909004+67470+078720FM-12+000899999V0202601N003010120019N0500001N1+00341-00561100471ADDGA1081+012009059GF108991081051012501999999MD1710161+9999REMSYN070AAXX  19091 23256 42699 82603 10034 21056 40047 57016 885// 333 88640;
0137232560999992000091912004+67470+078720FM-12+000899999V0201401N003010120019N0500001N1+00211-00321100351ADDGF107991061051012501031001MA1999999100011MD1710131+9999REMSYN070AAXX  19121 23256 42699 71403 10021 21032 30001 40035 57013 86530 333;
0187232560999992000091915004+67470+078720FM-12+000899999V0201601N003010108019N0200001N1+00101-00161100231ADDAA199000091GA1081+010809059GF108991081051012501999999KA1120M+00341MD1710121+9999REMSYN076AAXX  19151 23256 32698 81603 10010 21016 40023 57012 885// 333 10034 88636;EQDQ01  00002PRCP99
0187232560999992000091918004+67470+078720FM-12+000899999V0201401N003010099019N0200001N1+00041-00161100011ADDAA199000091GA1081+009909059GF108991051051008001999999KA1120M+00341MD1710221+9999REMSYN076AAXX  19181 23256 32598 81403 10004 21016 40001 57022 855// 333 10034 88633;EQDQ01  00002PRCP99
0159232560999992000092000004+67470+078720FM-12+000899999V0201601N002010096019N0200001N1+00021-00351099651ADDGA1081+009609059GF108991081051008001999999MA1999999099321MD1710161+9999REMSYN076AAXX  20001 23256 42598 81602 10002 21035 39932 49965 57016 885// 333 88632;
0152232560999992000092003004+67470+078720FM-12+000899999V0202301N002010300019N0500001N1+00081-00091099601ADDAA199000091GF108991021051008001071999MD1710051+9999REMSYN070AAXX  20031 23256 32599 82302 10008 21009 49960 57005 8257/ 333 55013;EQDQ01  00002PRCP99
0187232560999992000092006004+67470+078720FM-12+000899999V0202801N002010012019N0200001N1+00251+00171099521ADDAA199000091GA1081+001209069GF108991081061001501999999KA1120N-00011MD1710081+9999REMSYN076AAXX  20061 23256 32298 82802 10025 20017 49952 57008 886// 333 21001 88704;EQDQ01  00002PRCP99
0166232560999992000092009004+67470+078720FM-12+000899999V0203101N003010021019N0100001N1+00221+00171099571ADDAY151031AY221031GA1051+002109069GF108991081031002501999999MD1210051+9999MW1831REMSYN076AAXX  20091 23256 41397 83103 10022 20017 49957 52005 78352 883// 333 85707;
0161232560999992000092012004+67470+078720FM-12+000899999V0202701N003010042019N0500001N1+00281-00111099631ADDAY181061AY221061GF107991051031004501031011MA1999999099301MD1210061+9999MW1021REMSYN072AAXX  20121 23256 41499 72703 10028 21011 39930 49963 52006 70282 85331;
0152232560999992000092018004+67470+078720FM-12+000899999V0202301N004010300019N0200001N1-00161-00161099641ADDAA100000791GF106991021051008001031001KA1999M+00311MD1710021+9999REMSYN076AAXX  20181 23256 12598 62304 11016 21016 49964 57002 69900 82530 333 10031;
0166232560999992000092021004+67470+078720FM-12+000899999V0201601N001010009019N0010001N1+00031+00031099631ADDAY121031AY221031GA1081+000909069GF108991081061001501999999MD1710011+9999MW1101REMSYN076AAXX  20211 23256 41294 81601 10003 20003 49963 57001 71022 886// 333 88703;
0187232560999992000092100004+67470+078720FM-12+000899999V0202401N001010021019N0100001N1+00041+00041099701ADDAY141061AY221061GA1061+002109069GF108991081051002501999999MA1999999099371MD1210071+9999MW1281REMSYN082AAXX  21001 23256 41397 82401 10004 20004 39937 49970 52007 72842 885// 333 86707;
0182232560999992000092103004+67470+078720FM-12+000899999V0200601N002010012019N0200001N1+00101+00101099811ADDAA199000091GA1061+001209069GF108991081051001501999999GJ100189MD1210111+9999REMSYN076AAXX  21031 23256 32298 80602 10010 20010 49981 52011 885// 333 55003 86704;EQDQ01  00002PRCP99
0187232560999992000092106004+67470+078720FM-12+000899999V0200401N002010045019N0500001N1+00181+00021099931ADDAA199000091GA1071+004509059GF107991071051004501001001KA1120N-00161MD1210111+9999REMSYN076AAXX  21061 23256 32499 70402 10018 20002 49993 52011 87500 333 21016 87615;EQDQ01  00002PRCP99
0138232560999992000092109004+67470+078720FM-12+000899999V0200301N00301007501CN0500001N1+00321-00221100021ADDGA1041+006009099GF107991071031008001001001MD1210101+9999REMSYN070AAXX  21091 23256 42599 70303 10032 21022 40002 52010 87300 333 84920;
0159232560999992000092112004+67470+078720FM-12+000899999V0200501N003010300019N0500001N1+00241-00161100101ADDGA1041+010809059GF107991041051012501031001MA1999999099771MD1210081+9999REMSYN076AAXX  21121 23256 42699 70503 10024 21016 39977 40010 52008 84530 333 84636;
0185232560999992000092115004+67470+078720FM-12+000899999V0200501N001010108019N0500001N1+00091+00061100121ADDAY181031AY221031GA1081+010809059GF108991081051012501999999KA1120M+00331MD1210011+9999MW1021REMSYN082AAXX  21151 23256 /1699 80501 10009 20006 40012 52001 70282 885// 333 10033 88636;
0202232560999992000092118004+67470+078720FM-12+000899999V0203501N002010024019N0200001N1+00141+00111100061ADDAA100000791AY181061AY221061GA1051+002409069GF108991081051002501999999KA1120M+00331MD1710061+9999MW1021REMSYN088AAXX  21181 23256 11398 83502 10014 20011 40006 57006 69900 70282 885// 333 10033 85708;
0187232560999992000092200004+67470+078720FM-12+000899999V0200201N007010015019N0200001N1+00051+00051099971ADDAY161061AY251061GA1051+001509069GF108991081051001501999999MA1999999099631MD1210011+9999MW1021REMSYN082AAXX  22001 23256 41298 80207 10005 20005 39963 49997 52001 70265 885// 333 85705;
0180232560999992000092203004+67470+078720FM-12+000899999V0203601N008010018019N0020001N1-00041-00041099951ADDAY181031AY221031GA1061+001809069GF108991081031001501999999GJ101329MD1710021+9999MW1861REMSYN082AAXX  22031 23256 /1295 83608 11004 21004 49995 57002 78682 883// 333 55022 86706;
0202232560999992000092206004+67470+078720FM-12+000899999V0203601N007010033019N0200001N1-00031-00151099941ADDAA100000591AY181061AY221061GA1051+003309099GF108991081031004501999999KA1120N-00041MD1710011+9999MW1021REMSYN088AAXX  22061 23256 11498 83607 11003 21015 49994 57001 69950 70282 883// 333 21004 85911;
0166232560999992000092209004+67470+078720FM-12+000899999V0203501N008010039019N0500001N1-00031-00271100031ADDAY181031AY221031GA1051+003909099GF108991081031004501999999MD1210091+9999MW1261REMSYN076AAXX  22091 23256 41499 83508 11003 21027 40003 52009 72682 883// 333 85913;
0187232560999992000092212004+67470+078720FM-12+000899999V0203301N00601007501CN0500001N1+00051-00451100091ADDAY181061AY221061GA1041+006609099GF107991061031008001001011MA1999999099751MD1210061+9999MW1021REMSYN082AAXX  22121 23256 41599 73306 10005 21045 39975 40009 52006 70282 86301 333 84922;
0135232560999992000092215004+67470+078720FM-12+000899999V0203101N005012200019N0200001N1-00031-00361100171ADDGF103991021051012501001011KA1999M+00091MD1210081+9999REMSYN070AAXX  22151 23256 /2698 33105 11003 21036 40017 52008 82501 333 10009;
0174232560999992000092218004+67470+078720FM-12+000899999V0203501N006010099019N0200001N1-00021-00171100241ADDAA100000791GA1081+009909059GF108991081051012501999999KA1120M+00091MD1210071+9999REMSYN082AAXX  22181 23256 12698 83506 11002 21017 40024 52007 69900 885// 333 10009 88633;
0185232560999992000092221004+67470+078720FM-12+000899999V0203301N006010102019N0200001N1-00071+99999999999ADDGA1091+010209059GF109991091051008001999999REMSYN064AAXX  22211 23256 42598 83306 11007 21435 32443 885// 333 89634;EQDQ01+000082SCOTCVQ02+000082SCOTLCQ03-004353ATOD  Q04+024431APOSP 
0159232560999992000092300004+67470+078720FM-12+000899999V0203501N003010021019N0200001N1-00281-00321100491ADDGA1051+002109069GF108991081051002501001001MA1999999100151MD1210161+9999REMSYN076AAXX  23001 23256 42398 83503 11028 21032 30015 40049 52016 88500 333 85707;
0180232560999992000092306004+67470+078720FM-12+000899999V0203301N003010300019N0500001N1-00011-00511100811ADDAA100000791AY181061AY271061GF106991031031008001031001KA1999N-00281MD1210191+9999MW1021REMSYN082AAXX  23061 23256 11599 63303 11001 21051 40081 52019 69900 70287 83330 333 21028;
0166232560999992000092309004+67470+078720FM-12+000899999V0202901N00401004201CN0200001N1+00141-00151101031ADDAY181031AY221031GA1041+003909099GF107991051031004501031001MD1210221+9999MW1261REMSYN076AAXX  23091 23256 41498 72904 10014 21015 40103 52022 72682 85330 333 84913;
0187232560999992000092312004+67470+078720FM-12+000899999V0200201N005010045019N0500001N1+00051-00531101331ADDAY181061AY221061GA1051+004509099GF108991081031004501999999MA1999999100991MD1210301+9999MW1021REMSYN082AAXX  23121 23256 41499 80205 10005 21053 30099 40133 52030 70282 883// 333 85915;
0157232560999992000092315004+67470+078720FM-12+000899999V0203201N003010087019N0200001N1+00061-00371101521ADDGA1051+008709099GF108991081031008001999999KA1120M+00171MD1210191+9999REMSYN076AAXX  23151 23256 /2598 83203 10006 21037 40152 52019 883// 333 10017 85929;
0174232560999992000092318004+67470+078720FM-12+000899999V0203501N004010075019N0200001N1+00031-00111101661ADDAA100000391GA1041+007509099GF108991081031008001999999KA1120M+00171MD1210141+9999REMSYN082AAXX  23181 23256 32598 83504 10003 21011 40166 52014 69930 883// 333 10017 84925;
0112232560999992000092321004+67470+078720FM-12+000899999V0203201N005010300019N0200001N1-00061-00211101841ADDGF107991031031008001031001MD1210181+9999REMSYN060AAXX  23211 23256 42598 73205 11006 21021 40184 52018 83330;
0187232560999992000092400004+67470+078720FM-12+000899999V0203201N005010075019N0200001N1-00191-00541101961ADDAY181061AY221061GA1051+007509099GF108991081031008001999999MA1999999101621MD1210121+9999MW1021REMSYN082AAXX  24001 23256 41598 83205 11019 21054 30162 40196 52012 70282 883// 333 85925;
0152232560999992000092403004+67470+078720FM-12+000899999V0200101N004010078019N0500001N1-00191-00941102081ADDGA1051+007809099GF108991081031008001999999GJ100849MD1210121+9999REMSYN076AAXX  24031 23256 /2599 80104 11019 21094 40208 52012 883// 333 55014 85926;
0155232560999992000092406004+67470+078720FM-12+000899999V0203401N00301007501CN0500001N1-00101-00931102151ADDAA100000791GA1041+008709099GF107991071031008001001001MD1210071+9999REMSYN076AAXX  24061 23256 12599 73403 11010 21093 40215 52007 69900 87300 333 84929;
0138232560999992000092409004+67470+078720FM-12+000899999V0200801N00101007501CN0500001N1+00011-00931102151ADDGA1021+009609099GF108991081031008001999999MD1410001+9999REMSYN070AAXX  24091 23256 42599 80801 10001 21093 40215 54000 883// 333 82932;
0159232560999992000092412004+67470+078720FM-12+000899999V0202501N00301007501CN0500001N1+00011-00831102131ADDGA1021+009609099GF107991071031008001001001MA1999999101791MD1710021+9999REMSYN076AAXX  24121 23256 42599 72503 10001 21083 30179 40213 57002 87300 333 82932;
0165232560999992000092415004+67470+078720FM-12+000899999V0202201N004010120019N0200001N1-00091-00661102041ADDAA199000091GF108991081051012501999999KA1999M+00011MD1710091+9999REMSYN070AAXX  24151 23256 32698 82204 11009 21066 40204 57009 885// 333 10001;EQDQ01  00002PRCP99
0187232560999992000092418004+67470+078720FM-12+000899999V0202001N006010078019N0200001N1-00161-00721101911ADDAA199000091GA1081+007809059GF108991081051008001999999KA1120M+00011MD1710131+9999REMSYN076AAXX  24181 23256 32598 82006 11016 21072 40191 57013 885// 333 10001 88626;EQDQ01  00002PRCP99
0138232560999992000092421004+67470+078720FM-12+000899999V0202001N005010087019N0200001N1-00231-00591101721ADDGA1081+008709059GF108991081051008001999999MD1710191+9999REMSYN070AAXX  24211 23256 42598 82005 11023 21059 40172 57019 885// 333 88629;
0133232560999992000092500004+67470+078720FM-12+000899999V0201801N006012200019N0200001N1-00261-00411101471ADDGF102991021051008001031011MA1999999101131MD1710251+9999REMSYN066AAXX  25001 23256 42598 21806 11026 21041 30113 40147 57025 82531;
0182232560999992000092503004+67470+078720FM-12+000899999V0201801N006010123019N0500001N1-00141-00251101331ADDAA199000091GA1071+012309059GF107991071051012501001001GJ100909MD1710141+9999REMSYN076AAXX  25031 23256 32699 71806 11014 21025 40133 57014 87500 333 55015 87641;EQDQ01  00002PRCP99
0187232560999992000092506004+67470+078720FM-12+000899999V0201901N007010129019N0500001N1+00151-00321101201ADDAA199000091GA1051+012909059GF107991051051012501031011KA1120N-00261MD1710131+9999REMSYN076AAXX  25061 23256 32699 71907 10015 21032 40120 57013 85531 333 21026 85643;EQDQ01  00002PRCP99
0112232560999992000092509004+67470+078720FM-12+000899999V0202001N009010300019N0500001N1+00381-00541101081ADDGF108991011061004501031061MD1710111+9999REMSYN060AAXX  25091 23256 42499 82009 10038 21054 40108 57011 81636;
0143232560999992000092512004+67470+078720FM-12+000899999V0201801N006010300019N0500001N1+00281-00491101051ADDGF107991011061004501031011MA1999999100721MD1710031+9999REMSYN076AAXX  25121 23256 42499 71806 10028 21049 30072 40105 57003 81631 333 91113;
0165232560999992000092515004+67470+078720FM-12+000899999V0201801N007019999999N0200001N1+00031-00241101061ADDAA199000091GF105991051001999999031001KA1999M+00391MD1410001+9999REMSYN070AAXX  25151 23256 32998 51807 10003 21024 40106 54000 85030 333 10039;EQDQ01  00002PRCP99
0187232560999992000092518004+67470+078720FM-12+000899999V0201801N005010120019N0200001N1-00101-00201101041ADDAA199000091GA1071+012009059GF107991071051012501001001KA1120M+00391MD1710021+9999REMSYN076AAXX  25181 23256 32698 71805 11010 21020 40104 57002 87500 333 10039 87640;EQDQ01  00002PRCP99
0112232560999992000092521004+67470+078720FM-12+000899999V0201701N005019999999N0200001N1-00201-00321101001ADDGF105991051001999999031001MD1710041+9999REMSYN060AAXX  25211 23256 42998 51705 11020 21032 40100 57004 85030;
0159232560999992000092600004+67470+078720FM-12+000899999V0201601N005010129019N0200001N1-00121-00451100981ADDGA1071+012909059GF107991071051012501001001MA1999999100641MD1710021+9999REMSYN076AAXX  26001 23256 42698 71605 11012 21045 30064 40098 57002 87500 333 87643;
0182232560999992000092603004+67470+078720FM-12+000899999V0201601N005010147019N0500001N1-00041-00411101011ADDAA199000091GA1071+014709059GF107991071051012501001001GJ100729MD1210031+9999REMSYN076AAXX  26031 23256 32699 71605 11004 21041 40101 52003 87500 333 55012 87649;EQDQ01  00002PRCP99
0187232560999992000092606004+67470+078720FM-12+000899999V0201801N006010150019N0500001N1+00131-00501100991ADDAA199000091GA1081+015009059GF108991081051017501999999KA1120N-00201MD1710021+9999REMSYN076AAXX  26061 23256 32799 81806 10013 21050 40099 57002 885// 333 21020 88650;EQDQ01  00002PRCP99
0138232560999992000092609004+67470+078720FM-12+000899999V0201401N007010150019N0500001N1+00191-00541100981ADDGA1051+015009059GF107991051051017501031001MD1710011+9999REMSYN070AAXX  26091 23256 42799 71407 10019 21054 40098 57001 85530 333 85650;
0159232560999992000092612004+67470+078720FM-12+000899999V0201501N003010132019N0500001N1+00201-00521100971ADDGA1071+013209059GF107991071051012501001001MA1999999100631MD1710011+9999REMSYN076AAXX  26121 23256 42699 71503 10020 21052 30063 40097 57001 87500 333 87644;
0187232560999992000092618004+67470+078720FM-12+000899999V0201701N005010108019N0200001N1+00091-00301100991ADDAA199000091GA1081+010809059GF108991081051012501999999KA1120M+00241MD1210011+9999REMSYN076AAXX  26181 23256 32698 81705 10009 21030 40099 52001 885// 333 10024 88636;EQDQ01  00002PRCP99
0138232560999992000092621004+67470+078720FM-12+000899999V0201801N004010108019N0200001N1+00031-00301100981ADDGA1081+010809059GF108991081051012501999999MD1710211+9999REMSYN070AAXX  26211 23256 42698 81804 10003 21030 40098 57021 885// 333 88636;
0133232560999992000092700004+67470+078720FM-12+000899999V0201701N004010120019N0200001N1-00121-00451100941ADDGF107991071051012501031001MA1999999100601MD1710041+9999REMSYN066AAXX  27001 23256 42698 71704 11012 21045 30060 40094 57004 87530;
0152232560999992000092703004+67470+078720FM-12+000899999V0201601N005019999999N0500001N1-00061-00471100911ADDAA199000091GF108991081001999999071999MD1710031+9999REMSYN070AAXX  27031 23256 32999 81605 11006 21047 40091 57003 8807/ 333 55001;EQDQ01  00002PRCP99
0174232560999992000092706004+67470+078720FM-12+000899999V0201901N008010750019N0200001N1+00171-00491100861ADDAA199000021AY171061AY221061GF108991021051008001001071KA1999N-00131MD1710051+9999MW1711REMSYN076AAXX  27061 23256 31598 81908 10017 21049 40086 57005 77172 82507 333 21013;
0140232560999992000092709004+67470+078720FM-12+000899999V0201801N006010750019N0200001N1+00151-00471100831ADDAY171031AY221031GF108991031031008001001071MD1710031+9999MW1851REMSYN066AAXX  27091 23256 41598 81806 10015 21047 40083 57003 78572 83307;
0187232560999992000092712004+67470+078720FM-12+000899999V0201801N00601002101CN0100001N1+00121-00231100811ADDAY181061AY271061GA1041+001809069GF108991081031002501999999MA1999999100471MD1710021+9999MW1851REMSYN082AAXX  27121 23256 41397 81806 10012 21023 30047 40081 57002 78587 883// 333 84706;
0185232560999992000092715004+67470+078720FM-12+000899999V0201701N005010066019N0200001N1+00171-00381100761ADDAY181031AY221031GA1051+006609099GF108991081031008001999999KA1120M+00221MD1710051+9999MW1021REMSYN082AAXX  27151 23256 /1598 81705 10017 21038 40076 57005 70282 883// 333 10022 85922;
0202232560999992000092718004+67470+078720FM-12+000899999V0201901N005010129019N0200001N1+00061-00511100761ADDAA100000791AY181061AY221061GA1081+012909059GF108991081051012501999999KA1120M+00221MD1410001+9999MW1021REMSYN088AAXX  27181 23256 11698 81905 10006 21051 40076 54000 69900 70282 885// 333 10022 88643;
0112232560999992000092721004+67470+078720FM-12+000899999V0201901N003019999999N0200001N1-00061-00521100711ADDGF108991081001999999071999MD1710051+9999REMSYN060AAXX  27211 23256 42998 81903 11006 21052 40071 57005 8807/;
0159232560999992000092800004+67470+078720FM-12+000899999V0202301N003010057019N0200001N1-00171-00481100681ADDGA1051+005709099GF107991071031004501001001MA1999999100341MD1710031+9999REMSYN076AAXX  28001 23256 42498 72303 11017 21048 30034 40068 57003 87300 333 85919;
0172232560999992000092803004+67470+078720FM-12+000899999V0203501N003010018019N0100001N1-00121-00191100641ADDAY171031AY221031GA1051+001809069GF108991081051002501999999MD1710041+9999MW1711REMSYN082AAXX  28031 23256 /1397 83503 11012 21019 40064 57004 77172 885// 333 50002 85706;
0202232560999992000092806004+67470+078720FM-12+000899999V0200201N003010042019N0100001N1-00101-00321100681ADDAA100000191AY181061AY271061GA1041+004209099GF107991051031004501031001KA1120N-00211MD1210041+9999MW1851REMSYN088AAXX  28061 23256 11497 70203 11010 21032 40068 52004 69920 78587 85330 333 21021 84914;
0166232560999992000092809004+67470+078720FM-12+000899999V0203201N00201004201CN0500001N1+00041-00711100711ADDAY181031AY221031GA1041+005109099GF107991071031004501001001MD1210031+9999MW1021REMSYN076AAXX  28091 23256 41499 73202 10004 21071 40071 52003 70282 87300 333 84917;
0161232560999992000092812004+67470+078720FM-12+000899999V0203101N002012200019N0500001N1-00111-00861100741ADDAY181061AY221061GF103991031031008001001001MA1999999100401MD1210031+9999MW1021REMSYN072AAXX  28121 23256 41599 33102 11011 21086 30040 40074 52003 70282 83300;
0135232560999992000092815004+67470+078720FM-12+000899999V0203101N001012200019N0200001N1-00361-00761100751ADDGF102991021001999999031001KA1999M+00051MD1210011+9999REMSYN070AAXX  28151 23256 /2998 23101 11036 21076 40075 52001 82030 333 10005;
0162232560999992000092818004+67470+078720FM-12+000899999V0202301N002012200019N0200001N1-00631-00781100711ADDAA100000791GA1001+999999999GF100991001001999999001001KA1999M+00051MD1710041+9999REMSYN070AAXX  28181 23256 12998 02302 11063 21078 40071 57004 69900 333 10005;
0122232560999992000092821004+67470+078720FM-12+000899999V0202201N004012200019N0200001N1-00721-00811100651ADDGA1001+999999999GF100991001001999999001001MD1710061+9999REMSYN054AAXX  28211 23256 42998 02204 11072 21081 40065 57006;
0133232560999992000092900004+67470+078720FM-12+000899999V0202201N004012200019N0200001N1-00721-00771100601ADDGF103991021001999999031011MA1999999100261MD1710051+9999REMSYN066AAXX  29001 23256 42998 32204 11072 21077 30026 40060 57005 82031;
0182232560999992000092903004+67470+078720FM-12+000899999V0202401N003010057019N0200001N1-00301-00341100511ADDAA199000091GA1061+005709059GF107991061051004501031001GJ101749MD1710091+9999REMSYN076AAXX  29031 23256 32498 72403 11030 21034 40051 57009 86530 333 55029 86619;EQDQ01  00002PRCP99
0187232560999992000092906004+67470+078720FM-12+000899999V0202601N001010057019N0500001N1+00161-00121100421ADDAA199000091GA1061+005709059GF106991061051004501001001KA1120N-00751MD1710091+9999REMSYN076AAXX  29061 23256 32499 62601 10016 21012 40042 57009 86500 333 21075 86619;EQDQ01  00002PRCP99
0138232560999992000092909004+67470+078720FM-12+000899999V0203301N003010051019N0500001N1+00081-00181100291ADDGA1071+005109059GF107991071051004501001001MD1710131+9999REMSYN070AAXX  29091 23256 42499 73303 10008 21018 40029 57013 87500 333 87617;
0161232560999992000092912004+67470+078720FM-12+000899999V0203501N002010300019N0500001N1-00071-00191100221ADDAY181061AY221061GF105991031051008001031011MA1999999099881MD1710071+9999MW1021REMSYN072AAXX  29121 23256 41599 53502 11007 21019 39988 40022 57007 70282 83531;
0157232560999992000092915004+67470+078720FM-12+000899999V0203501N002010075019N0200001N1-00011-00091100131ADDGA1081+007509059GF108991081051008001999999KA1120M+00281MD1710091+9999REMSYN076AAXX  29151 23256 /2598 83502 11001 21009 40013 57009 885// 333 10028 88625;
0202232560999992000092918004+67470+078720FM-12+000899999V0203601N004010036019N0200001N1-00181-00231100061ADDAA100000791AY181061AY221061GA1051+003609099GF108991081031004501999999KA1120M+00281MD1710071+9999MW1021REMSYN088AAXX  29181 23256 11498 83604 11018 21023 40006 57007 69900 70282 883// 333 10028 85912;
0112232560999992000092921004+67470+078720FM-12+000899999V0203401N004012200019N0200001N1-00421-00611100161ADDGF103991021001999999031011MD1210101+9999REMSYN060AAXX  29211 23256 42998 33404 11042 21061 40016 52010 82031;
0159232560999992000093000004+67470+078720FM-12+000899999V0202701N003010102019N0200001N1-00491-00731100281ADDGA1061+010209059GF106991061051012501001001MA1999999099941MD1210121+9999REMSYN076AAXX  30001 23256 42698 62703 11049 21073 39994 40028 52012 86500 333 86634;
0150232560999992000093003004+67470+078720FM-12+000899999V0203001N004012200019N0500001N1-00181-00491100441ADDAY181031AY221031GF106991021031004501001011MD1210161+9999MW1021REMSYN076AAXX  30031 23256 /1499 63004 11018 21049 40044 52016 70282 82301 333 55045;
0202232560999992000093006004+67470+078720FM-12+000899999V0203201N005010054019N0500001N1-00021-00521100601ADDAA100000391AY181061AY221061GA1051+005409099GF107991071031004501001001KA1120N-00591MD1210161+9999MW1021REMSYN088AAXX  30061 23256 11499 73205 11002 21052 40060 52016 69930 70282 87300 333 21059 85918;
0112232560999992000093009004+67470+078720FM-12+000899999V0203101N005012200019N0500001N1+00011-00931100761ADDGF106991031031008001001011MD1210161+9999REMSYN060AAXX  30091 23256 42599 63105 10001 21093 40076 52016 83301;
0180232560999992000093012004+67470+078720FM-12+000899999V0202901N003019999999N0200001N1-00041-00521100941ADDAY181061AY271061GF106991999031008001001001MA1999999100601MD1210181+9999MW1851REMSYN072AAXX  30121 23256 41598 62903 11004 21052 30060 40094 52018 78587 83300;EQDQ01+000032SCOTLC
0185232560999992000093015004+67470+078720FM-12+000899999V0202601N00301007501CN0200001N1-00191-00271101051ADDAY181031AY221031GA1041+007209099GF107991071031008001001001KA1120M+00021MD1210111+9999MW1851REMSYN082AAXX  30151 23256 /1598 72603 11019 21027 40105 52011 78582 87300 333 10002 84924;
0202232560999992000093018004+67470+078720FM-12+000899999V0202601N004010060019N0200001N1-00201-00261101101ADDAA100000791AY181061AY221061GA1051+006009099GF108991081031008001999999KA1120M+00021MD1210051+9999MW1851REMSYN088AAXX  30181 23256 11598 82604 11020 21026 40110 52005 69900 78582 883// 333 10002 85920;
0166232560999992000093021004+67470+078720FM-12+000899999V0202501N005010015019N0040001N1-00251-00311101151ADDAY181031AY221031GA1051+001509069GF108991081031001501999999MD1210051+9999MW1851REMSYN076AAXX  30211 23256 41296 82505 11025 21031 40115 52005 78582 883// 333 85705;
0161232560999992000100100004+67470+078720FM-12+000899999V0202601N005010300019N0200001N1-00341-00381101291ADDAY181061AY221061GF108991031031008001071999MA1999999100951MD1210141+9999MW1021REMSYN072AAXX  01001 23256 41598 82605 11034 21038 30095 40129 52014 70282 8337/;
0122232560999992000100103004+67470+078720FM-12+000899999V0202601N004010300019N0500001N1-00371-00371101431ADDGF107991011061004501031021MD1210141+9999REMSYN070AAXX  01031 23256 /2499 72604 11037 21037 40143 52014 81632 333 55060;
0202232560999992000100106004+67470+078720FM-12+000899999V0202901N005010042019N0200001N1-00121-00411101601ADDAA100000791AY181061AY221061GA1051+004209099GF107991061031004501031001KA1120N-00381MD1210171+9999MW1851REMSYN088AAXX  01061 23256 11498 72905 11012 21041 40160 52017 69900 78582 86330 333 21038 85914;
0138232560999992000100109004+67470+078720FM-12+000899999V0202901N004010042019N0500001N1-00071-00601101721ADDGA1041+004209099GF106991061031004501001001MD1210121+9999REMSYN070AAXX  01091 23256 41499 62904 11007 21060 40172 52012 86300 333 84914;
0157232560999992000100115004+67470+078720FM-12+000899999V0203501N001010090019N0200001N1-00201-00741102081ADDGA1071+009009059GF107991071051008001001001KA1120M+00031MD1210141+9999REMSYN076AAXX  01151 23256 /2598 73501 11020 21074 40208 52014 87500 333 10003 87630;
0171232560999992000100118004+67470+078720FM-12+000899999V0203001N001012200019N0200001N1+00101-00011102181ADDAA100000791GF103991021001999999031011KA1999M+99999MD1210101+9999REMSYN076AAXX  01181 23256 12998 33001 10010 21001 40218 52010 69900 82031 333 10003;EQDQ01 +00032ATMX  
0141232560999992000100121004+67470+078720FM-12+000899999V0202601N002012200019N0200001N1-00911-00911102331ADDGA1001+999999999GF100991001001999999001001MD1210151+9999REMSYN054AAXX  01211 23256 42998 02602 11091 21091 40233 52414;EQDQ01+004142APC3  
0161232560999992000100200004+67470+078720FM-12+000899999V0202701N002012200019N0020001N1-00891-00891102461ADDAY101061AY201061GF103991021051012501031001MA1999999102111MD1210131+9999MW1101REMSYN072AAXX  02001 23256 41695 32702 11089 21089 30211 40246 52013 71000 82530;
0210232560999992000100203004+67470+078720FM-12+000899999V0202601N002010009019N0005001N1-00491-00491102581ADDAA199000091AY141031AY211031GA1061+000909069GF108991061061001501001011GJ102949MD1210121+9999MW1481REMSYN082AAXX  02031 23256 31293 82602 11049 21049 40258 52012 74841 86601 333 55049 86703;EQDQ01  00002PRCP99
0209232560999992000100206004+67470+078720FM-12+000899999V0202201N001010003019N0005001N1-00511-00511102681ADDAA199000091AY141061AY211061GA1091+999999999GF109991091999999999999999KA1120N-00991MD1210101+9999MW1481REMSYN076AAXX  02061 23256 31/93 92201 11051 21051 40268 52010 74841 333 21099 93505;EQDQ01  00002PRCP99
0140232560999992000100209004+67470+078720FM-12+000899999V0200901N001010300019N0200001N1-00291-00291102741ADDAY141031AY221031GF107991031061001501031001MD1210071+9999MW1021REMSYN066AAXX  02091 23256 41298 70901 11029 21029 40274 52007 70242 83630;
0193232560999992000100212004+67470+078720FM-12+000899999V0201801N00101007501CN0200001N1-00151-00291102811ADDAY181061AY241061GA1041+007209099GF107991061031008001031001MA1999999102471MD1210071+9999MW1851REMSYN088AAXX  02121 23256 41598 71801 11015 21029 30247 40281 52007 78584 86330 333 84924 93500;
0185232560999992000100215004+67470+078720FM-12+000899999V0201501N002010075019N0200001N1-00191-00471102861ADDAY181031AY281031GA1051+007509099GF108991081031008001999999KA1120M-00131MD1210041+9999MW1021REMSYN082AAXX  02151 23256 /1598 81502 11019 21047 40286 52004 70288 883// 333 11013 85925;
0202232560999992000100218004+67470+078720FM-12+000899999V0202401N003010129019N0200001N1-00331-00611102861ADDAA100000791AY181061AY221061GA1051+012909059GF105991051051012501001001KA1120M-00131MD1410001+9999MW1021REMSYN088AAXX  02181 23256 11698 52403 11033 21061 40286 54000 69900 70282 85500 333 11013 85643;
0122232560999992000100221004+67470+078720FM-12+000899999V0202301N005012200019N0200001N1-00621-00771102881ADDGA1001+999999999GF100991001001999999001001MD1210021+9999REMSYN054AAXX  02211 23256 42998 02305 11062 21077 40288 52002;
0133232560999992000100300004+67470+078720FM-12+000899999V0202201N004012200019N0200001N1-00631-00861102881ADDGF102991021051012501031001MA1999999102531MD1410001+9999REMSYN066AAXX  03001 23256 42698 22204 11063 21086 30253 40288 54000 82530;
0152232560999992000100303004+67470+078720FM-12+000899999V0202001N004012200019N0500001N1-00411-00671102871ADDAA199000091GF103991021051012501001011MD1710011+9999REMSYN070AAXX  03031 23256 32699 32004 11041 21067 40287 57001 82501 333 55002;EQDQ01  00002PRCP99
0138232560999992000100309004+67470+078720FM-12+000899999V0202001N005010117019N0500001N1-00021-00801102821ADDGA1071+011709059GF107991071051012501001001MD1710031+9999REMSYN070AAXX  03091 23256 42699 72005 11002 21080 40282 57003 87500 333 87639;
0159232560999992000100312004+67470+078720FM-12+000899999V0201901N004010114019N0500001N1-00081-00941102801ADDGA1071+011409059GF107991071051012501001001MA1999999102461MD1710011+9999REMSYN076AAXX  03121 23256 42699 71904 11008 21094 30246 40280 57001 87500 333 87638;
0187232560999992000100315004+67470+078720FM-12+000899999V0201801N003010105019N0200001N1-00251-00891102851ADDAA199000091GA1071+010509059GF107991071051012501001001KA1120M-00021MD1210041+9999REMSYN076AAXX  03151 23256 32698 71803 11025 21089 40285 52004 87500 333 11002 87635;EQDQ01  00002PRCP99
0187232560999992000100318004+67470+078720FM-12+000899999V0201801N004010105019N0200001N1-00331-00801102861ADDAA199000091GA1071+010509059GF107991071051012501001001KA1120M-00021MD1210011+9999REMSYN076AAXX  03181 23256 32698 71804 11033 21080 40286 52001 87500 333 11002 87635;EQDQ01  00002PRCP99
0133232560999992000100321004+67470+078720FM-12+000899999V0201801N004012200019N0200001N1-00551-00931102861ADDGF103991021051012501001011MA1999999102511MD1410001+9999REMSYN066AAXX  03211 23256 42698 31804 11055 21093 30251 40286 54000 82501;
0152232560999992000100403004+67470+078720FM-12+000899999V0202101N005019999999N0500001N1-00511-00881102881ADDAA199000091GF108991001001999999001061MD1210021+9999REMSYN070AAXX  04031 23256 32999 82105 11051 21088 40288 52002 80006 333 55027;EQDQ01  00002PRCP99
0165232560999992000100406004+67470+078720FM-12+000899999V0202101N005019999999N0500001N1-00191-00721102811ADDAA199000091GF108991001001999999001061KA1999N-00571MD1710061+9999REMSYN070AAXX  04061 23256 32999 82105 11019 21072 40281 57006 80006 333 21057;EQDQ01  00002PRCP99
0138232560999992000100409004+67470+078720FM-12+000899999V0202501N006010099019N0500001N1+00001-00731102791ADDGA1051+009909059GF107991051051012501031011MD1710021+9999REMSYN070AAXX  04091 23256 42699 72506 10000 21073 40279 57002 85531 333 85633;
0159232560999992000100412004+67470+078720FM-12+000899999V0202501N004010096019N0500001N1-00051-00761102781ADDGA1081+009609059GF108991081051008001999999MA1999999102441MD1710011+9999REMSYN076AAXX  04121 23256 42599 82504 11005 21076 30244 40278 57001 885// 333 88632;
0187232560999992000100415004+67470+078720FM-12+000899999V0202501N003010084019N0200001N1-00091-00591102741ADDAA199000091GA1081+008409059GF108991081051008001999999KA1120M+00051MD1710041+9999REMSYN076AAXX  04151 23256 32598 82503 11009 21059 40274 57004 885// 333 10005 88628;EQDQ01  00002PRCP99
0187232560999992000100418004+67470+078720FM-12+000899999V0202501N004010087019N0200001N1-00101-00461102641ADDAA199000091GA1081+008709059GF108991081051008001999999KA1120M+00051MD1710101+9999REMSYN076AAXX  04181 23256 32598 82504 11010 21046 40264 57010 885// 333 10005 88629;EQDQ01  00002PRCP99
0138232560999992000100421004+67470+078720FM-12+000899999V0202601N005010069019N0200001N1-00101-00201102561ADDGA1081+006909059GF108991081051008001999999MD1710081+9999REMSYN070AAXX  04211 23256 42598 82605 11010 21020 40256 57008 885// 333 88623;
0159232560999992000100500004+67470+078720FM-12+000899999V0202701N005010018019N0200001N1-00101-00101102491ADDGA1051+001809069GF108991081051001501999999MA1999999102151MD1710071+9999REMSYN076AAXX  05001 23256 42298 82705 11010 21010 30215 40249 57007 885// 333 85706;
0180232560999992000100503004+67470+078720FM-12+000899999V0202901N005010015019N0100001N1-00041-00041102451ADDAY171031AY221031GA1081+001509069GF108991081061001501001001GJ101629MD1710041+9999MW1201REMSYN082AAXX  05031 23256 /1297 82905 11004 21004 40245 57004 72072 88600 333 55027 88705;
0202232560999992000100506004+67470+078720FM-12+000899999V0202901N005010018019N0200001N1+00011+00011102431ADDAA100000791AY171061AY221061GA1081+001809069GF108991081061001501999999KA1120N-00141MD1710021+9999MW1021REMSYN088AAXX  05061 23256 11298 82905 10001 20001 40243 57002 69900 70272 886// 333 21014 88706;
0193232560999992000100512004+67470+078720FM-12+000899999V0203101N004010018019N0200001N1-00121-00121102421ADDAY171061AY251061GA1061+001809079GF107991061061002501031001MA1999999102081MD1410001+9999MW1201REMSYN088AAXX  05121 23256 41398 73104 11012 21012 30208 40242 54000 72075 86630 333 86706 93403;
0185232560999992000100515004+67470+078720FM-12+000899999V0200101N004010027019N0200001N1-00301-00401102531ADDAY171031AY221031GA1051+002709069GF108991081051002501999999KA1120M+00091MD1210101+9999MW1021REMSYN082AAXX  05151 23256 /1398 80104 11030 21040 40253 52010 70272 885// 333 10009 85709;
0208232560999992000100518004+67470+078720FM-12+000899999V0200301N00401004201CN0200001N1-00461-00891102611ADDAA100000791AY171061AY221061GA1041+004809099GF108991081031004501999999KA1120M+00091MD1210081+9999MW1021REMSYN094AAXX  05181 23256 11498 80304 11046 21089 40261 52008 69900 70272 883// 333 10009 84916 93403;
0138232560999992000100521004+67470+078720FM-12+000899999V0200501N003010027019N0200001N1-00521-00691102721ADDGA1051+002709069GF108991081051002501999999MD1210111+9999REMSYN070AAXX  05211 23256 42398 80503 11052 21069 40272 52011 885// 333 85709;
0159232560999992000100600004+67470+078720FM-12+000899999V0200301N003010012019N0200001N1-00661-00661102831ADDGA1031+001209069GF106991051051001501031001MA1999999102481MD1210111+9999REMSYN076AAXX  06001 23256 42298 60303 11066 21066 30248 40283 52011 85530 333 83704;
0180232560999992000100603004+67470+078720FM-12+000899999V0200601N003010015019N0100001N1-00601-00601102911ADDAY121031AY221031GA1051+001509069GF108991081051001501999999GJ100009MD1210081+9999MW1221REMSYN082AAXX  06031 23256 /1297 80603 11060 21060 40291 52008 72222 885// 333 55000 85705;
0208232560999992000100606004+67470+078720FM-12+000899999V0200301N002010021019N0500001N1-00511-00511102971ADDAA100000791AY171061AY221061GA1051+002109079GF108991081051002501999999KA1120N-00721MD1210061+9999MW1711REMSYN094AAXX  06061 23256 11399 80302 11051 21051 40297 52006 69900 77172 885// 333 21072 85707 93604;
0166232560999992000100609004+67470+078720FM-12+000899999V0203301N00201002101CN0500001N1-00441-00531103001ADDAY171031AY221031GA1041+002409069GF106991061051002501001001MD1210031+9999MW1031REMSYN076AAXX  06091 23256 41399 63302 11044 21053 40300 52003 70372 86500 333 84708;
0171232560999992000100612004+67470+078720FM-12+000899999V0202601N002010300019N0200001N1-00481-00511103031ADDAY171061AY221061GF106991031061002501031001MA1999999102681MD1210031+9999MW1021REMSYN082AAXX  06121 23256 41398 62602 11048 21051 30268 40303 52003 70272 83630 333 93600;
0135232560999992000100615004+67470+078720FM-12+000899999V0202301N004019999999N0200001N1-00561-00601102991ADDGF105991051001999999031001KA1999M-00421MD1710041+9999REMSYN070AAXX  06151 23256 /2998 52304 11056 21060 40299 57004 85030 333 11042;
0174232560999992000100618004+67470+078720FM-12+000899999V0202301N005010096019N0200001N1-00451-00511102941ADDAA100000791GA1081+009609059GF108991081051008001999999KA1120M-00421MD1710051+9999REMSYN082AAXX  06181 23256 12598 82305 11045 21051 40294 57005 69900 885// 333 11042 88632;
0166232560999992000100621004+67470+078720FM-12+000899999V0202301N006010021019N0040001N1-00361-00411102771ADDAY171031AY221031GA1051+002109069GF108991081051002501999999MD1710171+9999MW1711REMSYN076AAXX  06211 23256 41396 82306 11036 21041 40277 57017 77172 885// 333 85707;
0187232560999992000100700004+67470+078720FM-12+000899999V0202201N007010021019N0040001N1-00321-00361102571ADDAY171061AY221061GA1051+002109069GF108991081051002501999999MA1999999102221MD1710201+9999MW1711REMSYN082AAXX  07001 23256 41396 82207 11032 21036 30222 40257 57020 77172 885// 333 85707;
0209232560999992000100703004+67470+078720FM-12+000899999V0202301N006010021019N0200001N1-00271-00271102351ADDAJ100019199999999AY171031AY221031GA1081+002109069GF108991081061002501999999GJ100609IA1249MD1710211+9999MW1021REMSYN088AAXX  07031 23256 /2398 82306 11027 21027 40235 57021 70272 886// 333 48001 55010 88707;
0202232560999992000100706004+67470+078720FM-12+000899999V0202401N008010021019N0200001N1-00161-00211102151ADDAA100001091AY171061AY221061GA1081+002109069GF108991081061002501999999KA1120N-00591MD1710201+9999MW1201REMSYN088AAXX  07061 23256 12398 82408 11016 21021 40215 57020 69990 72072 886// 333 21059 88707;
0166232560999992000100709004+67470+078720FM-12+000899999V0202201N008010018019N0020001N1-00041-00041101941ADDAY171031AY251031GA1081+001809069GF108991081061001501999999MD1710211+9999MW1511REMSYN076AAXX  07091 23256 41295 82208 11004 21004 40194 57021 75175 886// 333 88706;
0212232560999992000100712004+67470+078720FM-12+000899999V0202301N007010018019N0100001N1+00021+00021101711ADDAY161061AY251061GA1061+001809079GF108991999071001501021999MA1999999101371MD1710231+9999MW1611REMSYN088AAXX  07121 23256 41297 82307 10002 20002 30137 40171 57023 76165 8872/ 333 86706 93402;EQDQ01+000082SCOTLC
0204232560999992000100715004+67470+078720FM-12+000899999V0202301N006010012019N0040001N1+00051+00051101511ADDAY161031AY221031GA1061+001209069GF108991999071001501021999KA1120M+00051MD1710201+9999MW1611REMSYN082AAXX  07151 23256 /1296 82306 10005 20005 40151 57020 76162 8872/ 333 10005 86704;EQDQ01+000082SCOTLC
0249232560999992000100718004+67470+078720FM-12+000899999V0202301N005010009019N0010001N1+00121+00121101331ADDAA100003091AY161061AY221061GA1061+000909079GF108991999071001501021999KA1120M+99999MD1710181+9999MW1611REMSYN100AAXX  07181 23256 11294 82305 10012 20012 40133 57018 60030 76162 8872/ 333 10005 86703 93400 96047;EQDQ01+000082SCOTLCQ02 +00052ATMX  
0166232560999992000100721004+67470+078720FM-12+000899999V0202301N005010009019N0010001N1+00191+00191101131ADDAY161031AY241031GA1061+000909069GF109991091999999999999999MD1710191+9999MW1611REMSYN076AAXX  07211 23256 41294 92305 10019 20019 40113 57019 76164 8872/ 333 86703;
0160232560999992000100803004+67470+078720FM-12+000899999V0203001N005010003019N0002001N1+00181+00181101091ADDAY161031AY241031GA1091+999999999GF109991091999999999999999MD1210061+9999MW1471REMSYN070AAXX  08031 23256 /1/92 93005 10018 20018 40109 52006 74764 333 55000;
0190232560999992000100806004+67470+078720FM-12+000899999V0203201N004010003019N0002001N1+00171+00171101311ADDAA100003091AY161061AY241061GA1091+999999999GF109991091999999999999999KA1999N+00051MD1210211+9999MW1451REMSYN076AAXX  08061 23256 11/92 93204 10017 20017 40131 52021 60030 74564 333 20005;
0166232560999992000100809004+67470+078720FM-12+000899999V0203501N004010018019N0040001N1+00181+00181101641ADDAY141031AY221031GA1081+001809069GF108991081061001501999999MD1210341+9999MW1101REMSYN076AAXX  08091 23256 41296 83504 10018 20018 40164 52034 71042 886// 333 88706;
0187232560999992000100812004+67470+078720FM-12+000899999V0200301N007010024019N0200001N1+00151+00151102011ADDAY141061AY221061GA1081+002409069GF108991081061002501999999MA1999999101671MD1210361+9999MW1021REMSYN082AAXX  08121 23256 41398 80307 10015 20015 30167 40201 52036 70242 886// 333 88708;
0204232560999992000100815004+67470+078720FM-12+000899999V0200301N007010021019N0040001N1-00011-00011102381ADDAY161031AY221031GA1081+002109069GF108991999071001501021999KA1120M+00191MD1210371+9999MW1611REMSYN082AAXX  08151 23256 /1296 80307 11001 21001 40238 52037 76162 8872/ 333 10019 88707;EQDQ01+000082SCOTLC
0208232560999992000100818004+67470+078720FM-12+000899999V0200501N006010021019N0200001N1-00051-00051102651ADDAA100000791AY161061AY251061GA1081+002109079GF108991081061002501999999KA1120M+00191MD1210271+9999MW1021REMSYN094AAXX  08181 23256 11398 80506 11005 21005 40265 52027 69900 70265 886// 333 10019 88707 93401;
0138232560999992000100821004+67470+078720FM-12+000899999V0200401N004010018019N0200001N1-00121-00121102831ADDGA1081+001809069GF108991081061002501999999MD1210181+9999REMSYN070AAXX  08211 23256 42398 80404 11012 21012 40283 52018 886// 333 88706;
0193232560999992000100900004+67470+078720FM-12+000899999V0203501N002010012019N0010001N1-00201-00201102901ADDAY121061AY221061GA1081+001209079GF108991081061001501999999MA1999999102551MD1210061+9999MW1101REMSYN088AAXX  09001 23256 41294 83502 11020 21020 30255 40290 52006 71022 886// 333 88704 93401;
0160232560999992000100903004+67470+078720FM-12+000899999V0201801N001010003019N0002001N1-00221-00221103071ADDAY141031AY221031GA1091+999999999GF109991091999999999999999MD1210171+9999MW1451REMSYN070AAXX  09031 23256 /1/92 91801 11022 21022 40307 52017 74542 333 55000;
0202232560999992000100906004+67470+078720FM-12+000899999V0202301N003010021019N0100001N1-00191-00191103151ADDAA100000791AY171061AY241061GA1051+002109069GF108991081051002501999999KA1120N-00221MD1210081+9999MW1221REMSYN088AAXX  09061 23256 11397 82303 11019 21019 40315 52008 69900 72274 885// 333 21022 85707;
0138232560999992000100909004+67470+078720FM-12+000899999V0202301N004010018019N0500001N1-00101-00101103191ADDGA1061+001809069GF107991071051002501001001MD1210041+9999REMSYN070AAXX  09091 23256 42399 72304 11010 21010 40319 52004 87500 333 86706;
0187232560999992000100912004+67470+078720FM-12+000899999V0202501N005010009019N0100001N1-00241-00241103211ADDAY141061AY221061GA1081+000909069GF108991081061001501999999MA1999999102861MD1210021+9999MW1281REMSYN082AAXX  09121 23256 41297 82505 11024 21024 30286 40321 52002 72842 886// 333 88703;
0185232560999992000100915004+67470+078720FM-12+000899999V0202301N005010015019N0200001N1-00131-00131103241ADDAY121031AY221031GA1081+001509069GF108991081061001501999999KA1120M-00091MD1210031+9999MW1561REMSYN082AAXX  09151 23256 /1298 82305 11013 21013 40324 52003 75622 886// 333 11009 88705;
0227232560999992000100918004+67470+078720FM-12+000899999V0202301N005010012019N0040001N1-00011-00011103221ADDAA100000391AY151061AY221061GA1081+001209079GF108991081061001501999999KA1120M+99999MD1710021+9999MW1561REMSYN094AAXX  09181 23256 11296 82305 11001 21001 40322 57002 69930 75652 886// 333 11009 88704 93401;EQDQ01 -00092ATMX  
0166232560999992000100921004+67470+078720FM-12+000899999V0202501N004010012019N0020001N1+00071+00071103221ADDAY151031AY221031GA1081+001209069GF108991081061001501999999MD1410001+9999MW1101REMSYN076AAXX  09211 23256 41295 82504 10007 20007 40322 54000 71052 886// 333 88704;
0181232560999992000101000004+67470+078720FM-12+000899999V0202501N003010003019N0002001N1+00111+00111103271ADDAY151061AY241061GA1091+999999999GF109991091999999999999999MA1999999102921MD1210051+9999MW1451REMSYN076AAXX  10001 23256 41/92 92503 10011 20011 30292 40327 52005 74554 333 93400;
0180232560999992000101003004+67470+078720FM-12+000899999V0202501N003010012019N0010001N1+00151+00151103321ADDAY151031AY241031GA1081+001209069GF108991081061001501999999GJ100249MD1210051+9999MW1511REMSYN082AAXX  10031 23256 /1294 82503 10015 20015 40332 52005 75154 886// 333 55004 88704;
0196232560999992000101006004+67470+078720FM-12+000899999V0202501N002010003019N0002001N1+00231+00231103361ADDAA100001091AY151061AY241061GA1091+999999999GF109991091999999999999999KA1120N-00141MD1210051+9999MW1511REMSYN082AAXX  10061 23256 11/92 92502 10023 20023 40336 52005 60010 75154 333 21014 96047;
0166232560999992000101009004+67470+078720FM-12+000899999V0202301N004010021019N0100001N1+00321+00321103441ADDAY151031AY241031GA1051+002109069GF108991081051002501999999MD1210081+9999MW1201REMSYN076AAXX  10091 23256 41397 82304 10032 20032 40344 52008 72054 885// 333 85707;
0187232560999992000101012004+67470+078720FM-12+000899999V0202401N004010099019N0200001N1+00261+00261103471ADDAY161061AY211061GA1081+009909059GF108991081051008001999999MA1999999103131MD1210031+9999MW1651REMSYN082AAXX  10121 23256 41598 82404 10026 20026 30313 40347 52003 76561 885// 333 88633;
0163232560999992000101015004+67470+078720FM-12+000899999V0202601N005019999999N0200001N1+00211+00211103491ADDAY161031AY221031GF108991081001999999071999KA1999M+00361MD1210021+9999MW1211REMSYN076AAXX  10151 23256 /1998 82605 10021 20021 40349 52002 72162 8807/ 333 10036;
0180232560999992000101018004+67470+078720FM-12+000899999V0202401N005019999999N0200001N1+00191+00191103491ADDAA100004191AY161061AY221061GF108991081001999999071999KA1999M+00361MD1410001+9999MW1021REMSYN082AAXX  10181 23256 11998 82405 10019 20019 40349 54000 60040 70262 8807/ 333 10036;
0132232560999992000101021004+67470+078720FM-12+000899999V0202401N005010018019N0200001N1+00141+00141999999ADDGA1051+001809069GF108991081051001501999999MD1710011+9999REMSYN064AAXX  10211 23256 42298 82405 10014 20014 57001 885// 333 85706;
0159232560999992000101100004+67470+078720FM-12+000899999V0202401N005010018019N0200001N1+00091+00091103441ADDGA1051+001809069GF108991081051001501999999MA1999999103091MD1710051+9999REMSYN076AAXX  11001 23256 42298 82405 10009 20009 30309 40344 57005 885// 333 85706;
0187232560999992000101106004+67470+078720FM-12+000899999V0202601N005010018019N0200001N1+00121+00091103521ADDAA199000091GA1051+001809069GF108991081051001501999999KA1120N+00031MD1210041+9999REMSYN076AAXX  11061 23256 32298 82605 10012 20009 40352 52004 885// 333 20003 85706;EQDQ01  00002PRCP99
0166232560999992000101109004+67470+078720FM-12+000899999V0202301N005010018019N0100001N1+00241+00241103531ADDAY151031AY221031GA1081+001809069GF108991081061001501999999MD1210021+9999MW1511REMSYN076AAXX  11091 23256 41297 82305 10024 20024 40353 52002 75152 886// 333 88706;
0187232560999992000101112004+67470+078720FM-12+000899999V0202501N005010018019N0100001N1+00261+00261103551ADDAY151061AY221061GA1051+001809069GF108991081051002501999999MA1999999103211MD1210021+9999MW1611REMSYN082AAXX  11121 23256 41397 82505 10026 20026 30321 40355 52002 76152 885// 333 85706;
0185232560999992000101115004+67470+078720FM-12+000899999V0202601N005010015019N0200001N1+00261+00261103581ADDAY161031AY251031GA1081+001509069GF108991081061001501999999KA1120M+00281MD1210031+9999MW1511REMSYN082AAXX  11151 23256 /1298 82605 10026 20026 40358 52003 75165 886// 333 10028 88705;
0202232560999992000101118004+67470+078720FM-12+000899999V0202801N005010018019N0040001N1+00181+00181103591ADDAA100000791AY151061AY221061GA1081+001809069GF108991081061001501999999KA1120M+00281MD1210011+9999MW1511REMSYN088AAXX  11181 23256 11296 82805 10018 20018 40359 52001 69900 75152 886// 333 10028 88706;
0166232560999992000101121004+67470+078720FM-12+000899999V0202601N005010012019N0010001N1+00031+00031103611ADDAY151031AY221031GA1081+001209069GF108991081061001501999999MD1210011+9999MW1511REMSYN076AAXX  11211 23256 41294 82605 10003 20003 40361 52001 75152 886// 333 88704;
0171232560999992000101200004+67470+078720FM-12+000899999V0203101N004010003019N0002001N1+00071+00071103671ADDAY151061AY241061GA1091+999999999GF109991091999999999999999MA1999999103321MD1210061+9999MW1501REMSYN066AAXX  12001 23256 41/92 93104 10007 20007 30332 40367 52006 75054;
0180232560999992000101203004+67470+078720FM-12+000899999V0200801N003010012019N0020001N1+00021+00021103801ADDAY151031AY241031GA1081+001209069GF108991081061001501999999GJ100009MD1210131+9999MW1101REMSYN082AAXX  12031 23256 /1295 80803 10002 20002 40380 52013 71054 886// 333 55000 88704;
0221232560999992000101206004+67470+078720FM-12+000899999V0200801N004010021019N0100001N1-00051-00051103861ADDAA100002091AY151061AY241061GA1051+002109069GF108991081051002501999999KA1120N+99999MD1210061+9999MW1021REMSYN088AAXX  12061 23256 11397 80804 11005 21005 40386 52006 60020 70254 885// 333 20002 85707;EQDQ01 +00022ATMN  
0138232560999992000101209004+67470+078720FM-12+000899999V0200801N00501004201CN0200001N1-00111-00301103941ADDGA1041+003009069GF108991061051004501071999MD1210081+9999REMSYN070AAXX  12091 23256 42498 80805 11011 21030 40394 52008 8657/ 333 84710;
0159232560999992000101212004+67470+078720FM-12+000899999V0200901N005010138019N0200001N1-00271-00711104021ADDGA1071+013809059GF107991071051012501001001MA1999999103671MD1210081+9999REMSYN076AAXX  12121 23256 42698 70905 11027 21071 30367 40402 52008 87500 333 87646;
0187232560999992000101215004+67470+078720FM-12+000899999V0201101N004010138019N0200001N1-00431-00851104121ADDAA199000091GA1051+013809059GF105991051051012501001001KA1120M+00041MD1210091+9999REMSYN076AAXX  12151 23256 32698 51104 11043 21085 40412 52009 85500 333 10004 85646;EQDQ01  00002PRCP99
0159232560999992000101300004+67470+078720FM-12+000899999V0201201N004010108019N0200001N1-00641-00871103821ADDGA1051+010809059GF105991051051012501001001MA1999999103471MD1710151+9999REMSYN076AAXX  13001 23256 42698 51204 11064 21087 30347 40382 57015 85500 333 85636;
0193232560999992000101303004+67470+078720FM-12+000899999V0201601N005010012019N0010001N1-00461-00461103561ADDAY171031AY251031GA1041+001209069GF108991081031001501999999GJ100009MD1710261+9999REMSYN082AAXX  13031 23256 /1294 81605 11046 21046 40356 57026 78175 883// 333 55000 84704;EQDQ01+000812PRSWM1
0208232560999992000101306004+67470+078720FM-12+000899999V0202101N00501001201CN0200001N1-00121-00121103321ADDAA100000391AY181061AY271061GA1041+001809079GF108991081031001501999999KA1120N-00681MD1710241+9999MW1021REMSYN094AAXX  13061 23256 11298 82105 11012 21012 40332 57024 69930 70287 883// 333 21068 84706 93401;
0166232560999992000101309004+67470+078720FM-12+000899999V0202401N005010012019N0010001N1+00081+00081103041ADDAY121031AY221031GA1081+001209069GF108991081061001501999999MD1710281+9999MW1511REMSYN076AAXX  13091 23256 41294 82405 10008 20008 40304 57028 75122 886// 333 88704;
0193232560999992000101312004+67470+078720FM-12+000899999V0202501N00801002101CN0200001N1+00081+00081102741ADDAY151061AY221061GA1041+002409079GF108991081051002501999999MA1999999102401MD1710291+9999MW1021REMSYN088AAXX  13121 23256 41398 82508 10008 20008 30240 40274 57029 70252 885// 333 84708 93400;
0185232560999992000101315004+67470+078720FM-12+000899999V0202701N009010012019N0040001N1+00021+00021102521ADDAY161031AY221031GA1041+001209069GF108991081051001501999999KA1120M+00101MD1710221+9999MW1711REMSYN082AAXX  13151 23256 /1296 82709 10002 20002 40252 57022 77162 885// 333 10010 84704;
0225232560999992000101318004+67470+078720FM-12+000899999V0202601N00901001201CN0020001N1+00051+00051102311ADDAA100000891AY171061AY261061GA1041+001809079GF108991081031001501999999KA1120M+00101MD1710211+9999MW1851OA140101201REMSYN100AAXX  13181 23256 11295 82609 10005 20005 40231 57021 69970 78576 883// 333 10010 84706 91012 91112;
0166232560999992000101321004+67470+078720FM-12+000899999V0202801N009010012019N0020001N1+00141+00141102191ADDAY121031AY281031GA1081+001209069GF108991081061001501999999MD1710121+9999MW1511REMSYN076AAXX  13211 23256 41295 82809 10014 20014 40219 57012 75128 886// 333 88704;
0193232560999992000101400004+67470+078720FM-12+000899999V0202901N007010018019N0040001N1+00151+00151102211ADDAY181061AY251061GA1081+001809079GF108991081061001501999999MA1999999101871MD1210021+9999MW1511REMSYN088AAXX  14001 23256 41296 82907 10015 20015 30187 40221 52002 75185 886// 333 88706 91113;
0180232560999992000101403004+67470+078720FM-12+000899999V0203401N007010021019N0100001N1+00081+00081102281ADDAY151031AY221031GA1041+002109069GF107991071031002501001001GJ100009MD1210071+9999MW1851REMSYN082AAXX  14031 23256 /1397 73407 10008 20008 40228 52007 78552 87300 333 55000 84707;
0202232560999992000101406004+67470+078720FM-12+000899999V0203301N004010036019N0500001N1+00031+00001102361ADDAA100002091AY181061AY251061GA1051+003609099GF108991081031004501999999KA1120N+00011MD1210081+9999MW1021REMSYN088AAXX  14061 23256 11499 83304 10003 20000 40236 52008 60020 70285 883// 333 20001 85912;
0166232560999992000101409004+67470+078720FM-12+000899999V0200201N005010033019N0200001N1-00071-00071102451ADDAY181031AY221031GA1051+003309099GF108991081031004501999999MD1210091+9999MW1851REMSYN076AAXX  14091 23256 41498 80205 11007 21007 40245 52009 78582 883// 333 85911;
0187232560999992000101412004+67470+078720FM-12+000899999V0200201N003010039019N0200001N1-00241-00501102541ADDAY181061AY221061GA1051+003909099GF108991081031004501999999MA1999999102201MD1210091+9999MW1021REMSYN082AAXX  14121 23256 41498 80203 11024 21050 30220 40254 52009 70282 883// 333 85913;
0157232560999992000101415004+67470+078720FM-12+000899999V0200301N003010039019N0200001N1-00341-00591102581ADDGA1051+003909099GF108991081031004501999999KA1120M+00091MD1210031+9999REMSYN076AAXX  14151 23256 /2498 80303 11034 21059 40258 52003 883// 333 10009 85913;
0168232560999992000101418004+67470+078720FM-12+000899999V0200801N002010045019N0200001N1-00511-00651102611ADDAA100001091GA1051+004509099GF108991999999004501999999KA1120M+00171MD1210031+9999REMSYN076AAXX  14181 23256 12498 80802 11051 21065 40261 52003 60010 333 10017 85915;
0138232560999992000101421004+67470+078720FM-12+000899999V0201301N002010039019N0200001N1-00531-00561102571ADDGA1051+003909099GF108991081031004501999999MD1710041+9999REMSYN070AAXX  14211 23256 42498 81302 11053 21056 40257 57004 883// 333 85913;
0159232560999992000101500004+67470+078720FM-12+000899999V0201501N002010138019N0200001N1-00501-00571102531ADDGA1081+013809059GF108991081051012501999999MA1999999102181MD1710041+9999REMSYN076AAXX  15001 23256 42698 81502 11050 21057 30218 40253 57004 885// 333 88646;
0182232560999992000101503004+67470+078720FM-12+000899999V0201501N003010024019N0200001N1-00491-00621102511ADDAA199000091GA1051+002409069GF108991081051002501999999GJ100129MD1710021+9999REMSYN076AAXX  15031 23256 32398 81503 11049 21062 40251 57002 885// 333 55002 85708;EQDQ01  00002PRCP99
0196232560999992000101506004+67470+078720FM-12+000899999V0201601N004010027019N0100001N1-00371-00451102441ADDAA199000021AY171061AY221061GA1081+002709069GF108991081061002501999999KA1120N-00521MD1710071+9999MW1771REMSYN082AAXX  15061 23256 31397 81604 11037 21045 40244 57007 77772 886// 333 21052 88709;
0166232560999992000101509004+67470+078720FM-12+000899999V0201801N006010021019N0200001N1-00201-00231102261ADDAY171031AY271031GA1051+002109069GF108991081051002501999999MD1710171+9999MW1021REMSYN076AAXX  15091 23256 41398 81806 11020 21023 40226 57017 70277 885// 333 85707;
0187232560999992000101512004+67470+078720FM-12+000899999V0201801N006010021019N0200001N1-00081-00081102121ADDAY171061AY271061GA1051+002109069GF108991081051002501999999MA1999999101781MD1710141+9999MW1021REMSYN082AAXX  15121 23256 41398 81806 11008 21008 30178 40212 57014 70277 885// 333 85707;
0157232560999992000101515004+67470+078720FM-12+000899999V0201901N007010024019N0200001N1-00041-00101101931ADDGA1051+002409069GF108991081051002501999999KA1120M-00021MD1710191+9999REMSYN076AAXX  15151 23256 /2398 81907 11004 21010 40193 57019 885// 333 11002 85708;
0174232560999992000101518004+67470+078720FM-12+000899999V0201801N007010096019N0200001N1-00061-00101101621ADDAA100000791GA1071+009609029GF107991071051008001001001KA1120M-00021MD1710311+9999REMSYN082AAXX  15181 23256 12598 71807 11006 21010 40162 57031 69900 87500 333 11002 87532;
0138232560999992000101521004+67470+078720FM-12+000899999V0201901N008010054019N0200001N1-00021-00291101241ADDGA1051+005409099GF108991081031004501999999MD1710381+9999REMSYN070AAXX  15211 23256 42498 81908 11002 21029 40124 57038 883// 333 85918;
0187232560999992000101600004+67470+078720FM-12+000899999V0201801N008010024019N0040001N1-00091-00131100891ADDAY181061AY221061GA1051+002409069GF108991081031002501999999MA1999999100551MD1710351+9999MW1851REMSYN082AAXX  16001 23256 41396 81808 11009 21013 30055 40089 57035 78582 883// 333 85708;
0228232560999992000101603004+67470+078720FM-12+000899999V0202401N006010015019N0020001N1-00241-00301101642ADDAJ100019199999999AY181031AY221031GA1051+001509069GF108991081031001501999999GJ100009IA1239MD1710251+9999MW1861REMSYN088AAXX  16031 23256 /1295 82406 11024 21030 40164 57025 78682 883// 333 47001 55000 85705;EQDQ01+101643APOSLP
0202232560999992000101606004+67470+078720FM-12+000899999V0202301N007010039019N0020001N1-00141-00221100471ADDAA100002091AY181061AY221061GA1051+003909099GF108991081031004501999999KA1120N-00241MD1710171+9999MW1851REMSYN088AAXX  16061 23256 11495 82307 11014 21022 40047 57017 60020 78582 883// 333 21024 85913;
0166232560999992000101609004+67470+078720FM-12+000899999V0202201N005010018019N0020001N1-00151-00171100351ADDAY181031AY221031GA1051+001809069GF108991081031001501999999MD1710121+9999MW1851REMSYN076AAXX  16091 23256 41295 82205 11015 21017 40035 57012 78582 883// 333 85706;
0187232560999992000101612004+67470+078720FM-12+000899999V0202401N003010018019N0200001N1-00131-00131100271ADDAY181061AY221061GA1051+001809069GF108991081031001501999999MA1999999099931MD1710081+9999MW1261REMSYN082AAXX  16121 23256 41298 82403 11013 21013 39993 40027 57008 72682 883// 333 85706;
0185232560999992000101615004+67470+078720FM-12+000899999V0203201N003010015019N0040001N1-00081-00081100251ADDAY181031AY221031GA1051+001509069GF108991081031001501999999KA1120M-00081MD1710021+9999MW1851REMSYN082AAXX  16151 23256 /1296 83203 11008 21008 40025 57002 78582 883// 333 11008 85705;
0202232560999992000101618004+67470+078720FM-12+000899999V0203401N004010012019N0200001N1-00291-00331100471ADDAA100003091AY181061AY221061GA1081+001209069GF108991081061001501999999KA1120M-00081MD1210221+9999MW1021REMSYN088AAXX  16181 23256 11298 83404 11029 21033 40047 52022 60030 70282 886// 333 11008 88704;
0166232560999992000101621004+67470+078720FM-12+000899999V0203401N005010018019N0200001N1-00371-00391100671ADDAY131031AY221031GA1081+001809069GF108991081061001501999999MD1210201+9999MW1021REMSYN076AAXX  16211 23256 41298 83405 11037 21039 40067 52020 70232 886// 333 88706;
0187232560999992000101700004+67470+078720FM-12+000899999V0203501N003010018019N0040001N1-00271-00301100821ADDAY131061AY221061GA1051+001809069GF108991081031002501999999MA1999999100481MD1210151+9999MW1851REMSYN082AAXX  17001 23256 41396 83503 11027 21030 30048 40082 52015 78532 883// 333 85706;
0209232560999992000101703004+67470+078720FM-12+000899999V0203501N007010033019N0200001N1-00671-00921101021ADDAJ100059199999999AY181031AY221031GA1051+003309099GF107991051031004501031001GJ100009IA1239MD1210191+9999MW1021REMSYN088AAXX  17031 23256 /1498 73507 11067 21092 40102 52019 70282 85330 333 47005 55000 85911;
0222232560999992000101706004+67470+078720FM-12+000899999V0200101N009012200019N0200001N1-01091-01451101221ADDAA100000191AY181061AY231061GF102991021061004501001001KA1120N+99999MD1210201+9999MW1361OA140101201REMSYN094AAXX  17061 23256 11498 20109 11109 21145 40122 52020 69920 73683 82600 333 21067 91012 91112;EQDQ01 -00672ATMN  
0188232560999992000101712004+67470+078720FM-12+000899999V0203501N009012200019N0200001N1-01311-01661101561ADDAY131061AY201061GF102991021061004501001001MA1999999101201MD1210131+9999MW1361OA140101201REMSYN088AAXX  17121 23256 41498 23509 11131 21166 30120 40156 52013 73630 82600 333 91012 91112;
0163232560999992000101715004+67470+078720FM-12+000899999V0203501N009012200019N0200001N1-01451-01791101661ADDAY131031AY201031GF102991021061004501001001KA1999M-00671MD1210101+9999MW1361REMSYN076AAXX  17151 23256 /1498 23509 11145 21179 40166 52010 73630 82600 333 11067;
0203232560999992000101718004+67470+078720FM-12+000899999V0203401N009012200019N0200001N1-01521-01791101771ADDAA100000791AY131061AY201061GF102991021001999999031001KA1120M-00671MD1210111+9999MW1021OA140101201REMSYN094AAXX  17181 23256 11998 23409 11152 21179 40177 52011 69900 70230 82030 333 11067 91012 91113;
0112232560999992000101721004+67470+078720FM-12+000899999V0203501N009012200019N0200001N1-01571-01911101911ADDGF102991021001999999031001MD1210141+9999REMSYN060AAXX  17211 23256 42998 23509 11157 21191 40191 52014 82030;
0133232560999992000101800004+67470+078720FM-12+000899999V0203501N008012200019N0200001N1-01581-01921102011ADDGF102991021001999999031001MA1999999101651MD1210101+9999REMSYN066AAXX  18001 23256 42998 23508 11158 21192 30165 40201 52010 82030;
0181232560999992000101803004+67470+078720FM-12+000899999V0203401N007012200019N0500001N1-01521-01861102051ADDAA199000091AJ100059199999999GF101991001001999999001011IA1239MD1210041+9999REMSYN076AAXX  18031 23256 32999 13407 11152 21186 40205 52004 80001 333 47005 55061;EQDQ01  00002PRCP99
0112232560999992000101809004+67470+078720FM-12+000899999V0203301N004012200019N0500001N1-01431-01941102091ADDGF103991001001999999001011MD1410001+9999REMSYN060AAXX  18091 23256 42999 33304 11143 21194 40209 54000 80001;
0133232560999992000101812004+67470+078720FM-12+000899999V0203301N004012200019N0200001N1-01491-01831102021ADDGF103991001001999999001011MA1999999101661MD1710071+9999REMSYN066AAXX  18121 23256 42998 33304 11149 21183 30166 40202 57007 80001;
0165232560999992000101815004+67470+078720FM-12+000899999V0203601N003012200019N0200001N1-01541-01811101781ADDAA199000091GF103991001001999999001011KA1999M-01581MD1710241+9999REMSYN070AAXX  18151 23256 32998 33603 11154 21181 40178 57024 80001 333 11158;EQDQ01  00002PRCP99
0175232560999992000101818004+67470+078720FM-12+000899999V0200401N002012200019N0200001N1-01691-01951101551ADDAA199000091GA1001+999999999GF100991001001999999001001KA1999M-01401MD1710231+9999REMSYN064AAXX  18181 23256 32998 00402 11169 21195 40155 57023 333 11140;EQDQ01  00002PRCP99
0122232560999992000101821004+67470+078720FM-12+000899999V0200801N002012200019N0200001N1-01721-01911101331ADDGA1001+999999999GF100991001001999999001001MD1710221+9999REMSYN054AAXX  18211 23256 42998 00802 11172 21191 40133 57022;
0143232560999992000101900004+67470+078720FM-12+000899999V0201001N002012200019N0200001N1-01851-02041101151ADDGA1001+999999999GF100991001001999999001001MA1999999100781MD1710191+9999REMSYN060AAXX  19001 23256 42998 01002 11185 21204 30078 40115 57019;
0181232560999992000101903004+67470+078720FM-12+000899999V0201101N003019999999N0200001N1-01881-02141101051ADDAA199000091AJ100059199999999GF105991001001999999001011IA1239MD1710101+9999REMSYN076AAXX  19031 23256 32998 51103 11188 21214 40105 57010 80001 333 47005 55080;EQDQ01  00002PRCP99
0165232560999992000101906004+67470+078720FM-12+000899999V0200901N003012200019N0500001N1-01661-01851101021ADDAA199000091GF103991001001999999001011KA1999N-01941MD1710021+9999REMSYN070AAXX  19061 23256 32999 30903 11166 21185 40102 57002 80001 333 21194;EQDQ01  00002PRCP99
0112232560999992000101909004+67470+078720FM-12+000899999V0200701N005012200019N0500001N1-01611-01871101091ADDGF102991001001999999001011MD1210071+9999REMSYN060AAXX  19091 23256 42999 20705 11161 21187 40109 52007 80001;
0133232560999992000101912004+67470+078720FM-12+000899999V0200801N006012200019N0200001N1-01651-01911101261ADDGF101991001001999999001011MA1999999100901MD1210171+9999REMSYN066AAXX  19121 23256 42998 10806 11165 21191 30090 40126 52017 80001;
0175232560999992000101915004+67470+078720FM-12+000899999V0200701N005012200019N0200001N1-01851-02111101501ADDAA199000091GA1001+999999999GF100991001001999999001001KA1999M-01571MD1210231+9999REMSYN064AAXX  19151 23256 32998 00705 11185 21211 40150 52023 333 11157;EQDQ01  00002PRCP99
0175232560999992000101918004+67470+078720FM-12+000899999V0200501N004012200019N0200001N1-01941-02201101661ADDAA199000091GA1001+999999999GF100991001001999999001001KA1999M-01571MD1210101+9999REMSYN064AAXX  19181 23256 32998 00504 11194 21220 40166 52010 333 11157;EQDQ01  00002PRCP99
0122232560999992000101921004+67470+078720FM-12+000899999V0200401N004012200019N0200001N1-01981-02241101771ADDGA1001+999999999GF100991001001999999001001MD1210121+9999REMSYN054AAXX  19211 23256 42998 00404 11198 21224 40177 52012;
0143232560999992000102000004+67470+078720FM-12+000899999V0200201N004012200019N0200001N1-01941-02201101961ADDGA1001+999999999GF100991001001999999001001MA1999999101591MD1210181+9999REMSYN060AAXX  20001 23256 42998 00204 11194 21220 30159 40196 52018;
0191232560999992000102003004+67470+078720FM-12+000899999V0200301N004012200019N0500001N1-02131-02381102121ADDAA199000091AJ100059199999999GA1001+999999999GF100991001001999999001001IA1239MD1210161+9999REMSYN070AAXX  20031 23256 32999 00304 11213 21238 40212 52016 333 47005 55077;EQDQ01  00002PRCP99
0175232560999992000102006004+67470+078720FM-12+000899999V0200301N004012200019N0500001N1-01851-02181102271ADDAA199000091GA1001+999999999GF100991001001999999001001KA1999N-02131MD1210151+9999REMSYN064AAXX  20061 23256 32999 00304 11185 21218 40227 52015 333 21213;EQDQ01  00002PRCP99
0122232560999992000102009004+67470+078720FM-12+000899999V0200101N003012200019N0500001N1-01621-01961102401ADDGA1001+999999999GF100991001001999999001001MD1210141+9999REMSYN054AAXX  20091 23256 42999 00103 11162 21196 40240 52014;
0143232560999992000102012004+67470+078720FM-12+000899999V0200301N003012200019N0200001N1-01751-02091102491ADDGA1001+999999999GF100991001001999999001001MA1999999102131MD1210091+9999REMSYN060AAXX  20121 23256 42998 00303 11175 21209 30213 40249 52009;
0175232560999992000102015004+67470+078720FM-12+000899999V0200201N004012200019N0200001N1-01681-01941102521ADDAA199000091GA1001+999999999GF100991001001999999001001KA1999M-01611MD1210031+9999REMSYN064AAXX  20151 23256 32998 00204 11168 21194 40252 52003 333 11161;EQDQ01  00002PRCP99
0175232560999992000102018004+67470+078720FM-12+000899999V0200301N003012200019N0200001N1-01681-01941102491ADDAA199000091GA1001+999999999GF100991001001999999001001KA1999M-01611MD1710031+9999REMSYN064AAXX  20181 23256 32998 00303 11168 21194 40249 57003 333 11161;EQDQ01  00002PRCP99
0122232560999992000102021004+67470+078720FM-12+000899999V0203601N002012200019N0200001N1-01661-01851102481ADDGA1001+999999999GF100991001001999999001001MD1710011+9999REMSYN054AAXX  20211 23256 42998 03602 11166 21185 40248 57001;
0143232560999992000102100004+67470+078720FM-12+000899999V0203501N004012200019N0200001N1-01461-01731102421ADDGA1001+999999999GF100991001001999999001001MA1999999102061MD1710061+9999REMSYN060AAXX  21001 23256 42998 03504 11146 21173 30206 40242 57006;
0179232560999992000102103004+67470+078720FM-12+000899999V0203501N002010042019N0500001N1-01451-01721102361ADDAJ100049199999999AY111031AY211031GF108991081051004501999999IA1239MD1710061+9999MW1711REMSYN082AAXX  21031 23256 /1499 83502 11145 21172 40236 57006 77111 885// 333 47004 55076;
0202232560999992000102106004+67470+078720FM-12+000899999V0202701N002010036019N0200001N1-01421-01691102231ADDAA100000791AY171061AY211061GA1081+003609059GF108991081051004501999999KA1120N-01691MD1710131+9999MW1711REMSYN088AAXX  21061 23256 11498 82702 11142 21169 40223 57013 69900 77171 885// 333 21169 88612;
0166232560999992000102109004+67470+078720FM-12+000899999V0202701N002010033019N0200001N1-01431-01631102131ADDAY171031AY221031GA1081+003309059GF108991081051004501999999MD1710101+9999MW1711REMSYN076AAXX  21091 23256 41498 82702 11143 21163 40213 57010 77172 885// 333 88611;
0187232560999992000102112004+67470+078720FM-12+000899999V0202101N00201002101CN0200001N1-01391-01671102031ADDAY171061AY221061GA1041+002709069GF108991081051002501999999MA1999999101671MD1710101+9999MW1711REMSYN082AAXX  21121 23256 41398 82102 11139 21167 30167 40203 57010 77172 885// 333 84709;
0185232560999992000102115004+67470+078720FM-12+000899999V0202101N004010021019N0200001N1-01481-01611101911ADDAY171031AY221031GA1041+002109069GF108991081051002501999999KA1120M-01381MD1710121+9999MW1711REMSYN082AAXX  21151 23256 /1398 82104 11148 21161 40191 57012 77172 885// 333 11138 84707;
0202232560999992000102118004+67470+078720FM-12+000899999V0202001N004010039019N0200001N1-01551-01741101751ADDAA100000591AY171061AY221061GA1081+003909059GF108991081051004501999999KA1120M-01381MD1710161+9999MW1021REMSYN088AAXX  21181 23256 11498 82004 11155 21174 40175 57016 69950 70272 885// 333 11138 88613;
0112232560999992000102121004+67470+078720FM-12+000899999V0201801N004019999999N0200001N1-01571-01761101631ADDGF107991071001999999031001MD1710121+9999REMSYN060AAXX  21211 23256 42998 71804 11157 21176 40163 57012 87030;
0133232560999992000102200004+67470+078720FM-12+000899999V0201801N005019999999N0200001N1-01581-01771101521ADDGF106991061001999999031001MA1999999101161MD1710111+9999REMSYN066AAXX  22001 23256 42998 61805 11158 21177 30116 40152 57011 86030;
0179232560999992000102203004+67470+078720FM-12+000899999V0201901N005019999999N0200001N1-01511-01701101301ADDAJ100059199999999AY121031AY221031GF108991081071999999999999IA1239MD1710221+9999MW1711REMSYN082AAXX  22031 23256 /1998 81905 11151 21170 40130 57022 77122 887// 333 47005 55000;
0180232560999992000102206004+67470+078720FM-12+000899999V0202101N007019999999N0100001N1-01231-01431101071ADDAA100000191AY171061AY221061GF108991081071999999999999KA1999N-01581MD1710221+9999MW1711REMSYN082AAXX  22061 23256 11997 82107 11123 21143 40107 57022 69920 77172 887// 333 21158;
0140232560999992000102209004+67470+078720FM-12+000899999V0201901N007019999999N0100001N1-00991-01191100861ADDAY171031AY221031GF107991071001999999071001MD1710211+9999MW1711REMSYN066AAXX  22091 23256 41997 71907 11099 21119 40086 57021 77172 87070;
0210232560999992000102212004+67470+078720FM-12+000899999V0202001N009010027019N0040001N1-00741-00951100681ADDAY171061AY231061GA1051+002709079GF108991081051002501999999MA1999999100341MD1710171+9999MW1021OA140101201REMSYN094AAXX  22121 23256 41396 82009 11074 21095 30034 40068 57017 70273 885// 333 85709 91012 91112;
0185232560999992000102215004+67470+078720FM-12+000899999V0202001N009010090019N0040001N1-00621-00771100501ADDAY171031AY231031GA1081+009009059GF108991081051008001999999KA1120M-00621MD1710181+9999MW1711REMSYN082AAXX  22151 23256 /1596 82009 11062 21077 40050 57018 77173 885// 333 11062 88630;
0227232560999992000102218004+67470+078720FM-12+000899999V0202101N007010027019N0200001N1-00491-00591100341ADDAA100000891AY171061AY231061GA1051+002709079GF108991081051002501999999KA1120M+99999MD1710161+9999MW1711REMSYN094AAXX  22181 23256 11398 82107 11049 21059 40034 57016 69980 77173 885// 333 11062 85709 91114;EQDQ01 -00622ATMX  
0166232560999992000102221004+67470+078720FM-12+000899999V0202001N005010024019N0200001N1-00391-00471100271ADDAY171031AY231031GA1081+002409069GF108991081061002501999999MD1710071+9999MW1021REMSYN076AAXX  22211 23256 41398 82005 11039 21047 40027 57007 70273 886// 333 88708;
0187232560999992000102300004+67470+078720FM-12+000899999V0202101N005010018019N0040001N1-00291-00291100171ADDAY181061AY271061GA1051+001809069GF108991081031002501999999MA1999999099831MD1710101+9999MW1851REMSYN082AAXX  23001 23256 41396 82105 11029 21029 39983 40017 57010 78587 883// 333 85706;
0209232560999992000102303004+67470+078720FM-12+000899999V0203401N004010018019N0100001N1-00381-00431100231ADDAJ100059199999999AY181031AY221031GA1051+001809069GF108991081031001501999999GJ100009IA1239MD1210061+9999MW1851REMSYN088AAXX  23031 23256 /1297 83404 11038 21043 40023 52006 78582 883// 333 47005 55000 85706;
0221232560999992000102306004+67470+078720FM-12+000899999V0203501N003010012019N0020001N1-00751-00751100381ADDAA100000891AY181061AY221061GA1081+001209069GF108991081061001501999999KA1120N+99999MD1210151+9999MW1771REMSYN088AAXX  23061 23256 11295 83503 11075 21075 40038 52015 69980 77782 886// 333 21062 88704;EQDQ01 -00622ATMN  
0166232560999992000102309004+67470+078720FM-12+000899999V0203601N002010018019N0200001N1-00971-01011100511ADDAY171031AY221031GA1081+001809069GF108991081061001501999999MD1210121+9999MW1201REMSYN076AAXX  23091 23256 41298 83602 11097 21101 40051 52012 72072 886// 333 88706;
0187232560999992000102312004+67470+078720FM-12+000899999V0200501N002010021019N0200001N1-01111-01241100561ADDAY171061AY221061GA1051+002109069GF108991081051002501999999MA1999999100211MD1210051+9999MW1711REMSYN082AAXX  23121 23256 41398 80502 11111 21124 30021 40056 52005 77172 885// 333 85707;
0185232560999992000102315004+67470+078720FM-12+000899999V0200901N002010012019N0200001N1-01191-01321100501ADDAY171031AY221031GA1051+001209069GF108991081051001501999999KA1120M-00381MD1710061+9999MW1711REMSYN082AAXX  23151 23256 /1298 80902 11119 21132 40050 57006 77172 885// 333 11038 85704;
0202232560999992000102318004+67470+078720FM-12+000899999V0201301N002010018019N0200001N1-01121-01251100461ADDAA100000791AY171061AY221061GA1051+001809069GF108991081051001501999999KA1120M-00381MD1710041+9999MW1711REMSYN088AAXX  23181 23256 11298 81302 11112 21125 40046 57004 69900 77172 885// 333 11038 85706;
0166232560999992000102321004+67470+078720FM-12+000899999V0201101N002010012019N0040001N1-00971-01051100121ADDAY171031AY221031GA1051+001209069GF108991081051001501999999MD1710341+9999MW1711REMSYN076AAXX  23211 23256 41296 81102 11097 21105 40012 57034 77172 885// 333 85704;
0187232560999992000102400004+67470+078720FM-12+000899999V0201101N003010012019N0040001N1-00741-00801099911ADDAY171061AY221061GA1051+001209069GF108991081051001501999999MA1999999099571MD1710201+9999MW1711REMSYN082AAXX  24001 23256 41296 81103 11074 21080 39957 49991 57020 77172 885// 333 85704;
0209232560999992000102403004+67470+078720FM-12+000899999V0200701N003010012019N0020001N1-00751-00811099801ADDAJ100099199999999AY171031AY221031GA1051+001209069GF108991081031001501999999GJ100009IA1239MD1710111+9999MW1861REMSYN088AAXX  24031 23256 /1295 80703 11075 21081 49980 57011 78672 883// 333 47009 55000 85704;
0202232560999992000102406004+67470+078720FM-12+000899999V0200501N004010021019N0020001N1-00861-00931099801ADDAA100004191AY181061AY271061GA1051+002109069GF108991081031002501999999KA1120N-01191MD1410001+9999MW1851REMSYN088AAXX  24061 23256 11395 80504 11086 21093 49980 54000 60040 78587 883// 333 21119 85707;
0166232560999992000102409004+67470+078720FM-12+000899999V0200601N005010012019N0010001N1-00871-00941099811ADDAY181031AY271031GA1051+001209069GF108991081051001501999999MD1210011+9999MW1711REMSYN076AAXX  24091 23256 41294 80605 11087 21094 49981 52001 77187 885// 333 85704;
0206232560999992000102412004+67470+078720FM-12+000899999V0202001N999990015019N0020001N1-00911-00981099881ADDAY181061AY271061GA1051+001509069GF108991081031001501999999MA1999999099541MD1210071+9999MW1851REMSYN082AAXX  24121 23256 41295 87005 11091 21098 39954 49988 52007 78587 883// 333 85705;EQDQ01+010501WOSPD 
0185232560999992000102415004+67470+078720FM-12+000899999V0200601N007010012019N0020001N1-01031-01171099931ADDAY181031AY271031GA1051+001209069GF108991081031001501999999KA1120M-00741MD1210051+9999MW1851REMSYN082AAXX  24151 23256 /1295 80607 11103 21117 49993 52005 78587 883// 333 11074 85704;
0166232560999992000102421004+67470+078720FM-12+000899999V0200601N007010033019N0200001N1-01221-01421100061ADDAY181031AY231031GA1051+003309099GF108991081031004501999999MD1210101+9999MW1021REMSYN076AAXX  24211 23256 41498 80607 11122 21142 40006 52010 70283 883// 333 85911;
0187232560999992000102500004+67470+078720FM-12+000899999V0200501N00701001201CN0200001N1-01391-01591100201ADDAY181061AY231061GA1041+001809069GF108991081031001501999999MA1999999099851MD1210141+9999MW1851REMSYN082AAXX  25001 23256 41298 80507 11139 21159 39985 40020 52014 78583 883// 333 84706;
0209232560999992000102503004+67470+078720FM-12+000899999V0200501N00501002101CN0100001N1-01551-01821100351ADDAJ100119199999999AY181031AY231031GA1041+002709069GF108991061031002501001011GJ100009IA1239MD1210151+9999MW1851REMSYN088AAXX  25031 23256 /1397 80505 11155 21182 40035 52015 78583 86301 333 47011 55000 84709;
0221232560999992000102506004+67470+078720FM-12+000899999V0200401N004010042019N0200001N1-01761-02101100481ADDAA100002091AY181061AY231061GA1041+004209099GF107991061031004501031011KA1120N+99999MD1210121+9999MW1851REMSYN088AAXX  25061 23256 11498 70404 11176 21210 40048 52012 60020 78583 86331 333 21155 84914;EQDQ01 -01552ATMN  
0140232560999992000102509004+67470+078720FM-12+000899999V0200401N004010750019N0200001N1-01951-02361100731ADDAY181031AY221031GF105991021051008001031011MD1210251+9999MW1021REMSYN066AAXX  25091 23256 41598 50404 11195 21236 40073 52025 70282 82531;
0187232560999992000102512004+67470+078720FM-12+000899999V0200301N004010108019N0200001N1-02131-02461100951ADDAY181061AY221061GA1051+010809059GF107991051051012501031001MA1999999100581MD1210211+9999MW1021REMSYN082AAXX  25121 23256 41698 70304 11213 21246 30058 40095 52021 70282 85530 333 85636;
0145232560999992000102515004+67470+078720FM-12+000899999V0200201N003012200019N0200001N1-02311-02631101111ADDGA1001+999999999GF100991001001999999001001KA1999M-01551MD1210161+9999REMSYN064AAXX  25151 23256 /2998 00203 11231 21263 40111 52016 333 11155;
0162232560999992000102518004+67470+078720FM-12+000899999V0200201N003012200019N0200001N1-02481-02801101241ADDAA100000191GA1001+999999999GF100991001001999999001001KA1999M-01031MD1210131+9999REMSYN070AAXX  25181 23256 12998 00203 11248 21280 40124 52013 69920 333 11103;
0122232560999992000102521004+67470+078720FM-12+000899999V0200301N002012200019N0200001N1-02561-02811101391ADDGA1001+999999999GF100991001001999999001001MD1210141+9999REMSYN054AAXX  25211 23256 42998 00302 11256 21281 40139 52014;
0143232560999992000102600004+67470+078720FM-12+000899999V0203601N002012200019N0200001N1-02581-02821101491ADDGA1001+999999999GF100991001001999999001001MA1999999101111MD1210101+9999REMSYN060AAXX  26001 23256 42998 03602 11258 21282 30111 40149 52010;
0180232560999992000102603004+67470+078720FM-12+000899999V0201801N002010021019N0200001N1+99999+99999101211ADDAJ100059199999999GF108991081061002501999999IA1279MD1210091+9999REMSYN070AAXX  26031 23256 /2398 81802 10003 20000 40121 52009 886// 333 43005;EQDQ01 +00033ATOT  Q02 +00003ATOD  
0197232560999992000102606004+67470+078720FM-12+000899999V0200901N002019999999N0500001N1-02432-02752101521ADDAA199000091GF105991001001999999001011KA1999N-02681MD1710021+9999REMSYN070AAXX  26061 23256 32999 50902 11243 21275 40152 57002 80001 333 21268;EQDQ01-002433ATOT  Q02-002753ATOD  Q03  00002PRCP99
0112232560999992000102609004+67470+078720FM-12+000899999V0201101N003019999999N0500001N1-02181-02501101441ADDGF108991041001999999031061MD1710081+9999REMSYN060AAXX  26091 23256 42999 81103 11218 21250 40144 57008 84036;
0133232560999992000102612004+67470+078720FM-12+000899999V0201101N005019999999N0200001N1-02081-02411101311ADDGF108991001001999999001061MA1999999100941MD1710131+9999REMSYN066AAXX  26121 23256 42998 81105 11208 21241 30094 40131 57013 80006;
0187232560999992000102615004+67470+078720FM-12+000899999V0201101N005010099019N0200001N1-01901-02311101091ADDAA199000091GA1051+009909059GF108991051051012501071999KA1120M-01901MD1710221+9999REMSYN076AAXX  26151 23256 32698 81105 11190 21231 40109 57022 8557/ 333 11190 85633;EQDQ01  00002PRCP99
0185232560999992000102618004+67470+078720FM-12+000899999V0200901N005010039019N0200001N1-01901-02231100881ADDAY181061AY221061GA1051+003909099GF108991081031004501999999KA1120M-01901MD1710211+9999MW1851REMSYN082AAXX  26181 23256 11498 80905 11190 21223 40088 57021 78582 883// 333 11190 85913;
0166232560999992000102621004+67470+078720FM-12+000899999V0200901N006010069019N0200001N1-01841-02101100691ADDAY181031AY221031GA1051+006909099GF108991081031008001999999MD1710181+9999MW1851REMSYN076AAXX  26211 23256 41598 80906 11184 21210 40069 57018 78582 883// 333 85923;
0187232560999992000102700004+67470+078720FM-12+000899999V0200901N007010039019N0200001N1-01731-01991100631ADDAY181061AY221061GA1051+003909099GF108991081031004501999999MA1999999100281MD1710051+9999MW1851REMSYN082AAXX  27001 23256 41498 80907 11173 21199 30028 40063 57005 78582 883// 333 85913;
0209232560999992000102703004+67470+078720FM-12+000899999V0200901N006010099019N0200001N1-01551-01821100641ADDAJ100129199999999AY181031AY271031GA1051+009909059GF108991051051012501071999GJ101749IA1239MD1210011+9999MW1711REMSYN088AAXX  27031 23256 /1698 80906 11155 21182 40064 52001 77187 8557/ 333 47012 55029 85633;
0202232560999992000102706004+67470+078720FM-12+000899999V0200901N007010066019N0100001N1-01541-01811100621ADDAA100000891AY181061AY271061GA1081+006609059GF108991081051008001999999KA1120N-01901MD1710021+9999MW1711REMSYN088AAXX  27061 23256 11597 80907 11154 21181 40062 57002 69980 77187 885// 333 21190 88622;
0166232560999992000102709004+67470+078720FM-12+000899999V0200901N006010039019N0040001N1-01491-01831100731ADDAY181031AY271031GA1051+003909099GF108991081031004501999999MD1210111+9999MW1851REMSYN076AAXX  27091 23256 41496 80906 11149 21183 40073 52011 78587 883// 333 85913;
0187232560999992000102712004+67470+078720FM-12+000899999V0200901N00601002101CN0020001N1-01621-01881100761ADDAY181061AY271061GA1041+002409069GF108991081051002501999999MA1999999100411MD1210031+9999MW1711REMSYN082AAXX  27121 23256 41395 80906 11162 21188 30041 40076 52003 77187 885// 333 84708;
0185232560999992000102715004+67470+078720FM-12+000899999V0201101N006010018019N0020001N1-01511-01701100691ADDAY171031AY231031GA1051+001809069GF108991081051001501999999KA1120M-01491MD1710071+9999MW1731REMSYN082AAXX  27151 23256 /1295 81106 11151 21170 40069 57007 77373 885// 333 11149 85706;
0202232560999992000102718004+67470+078720FM-12+000899999V0201001N00701001201CN0010001N1-01491-01691100561ADDAA100003091AY181061AY271061GA1041+001509069GF108991081031001501999999KA1120M-01491MD1710131+9999MW1861REMSYN088AAXX  27181 23256 11294 81007 11149 21169 40056 57013 60030 78687 883// 333 11149 84705;
0166232560999992000102721004+67470+078720FM-12+000899999V0201001N00601001201CN0010001N1-01391-01591100531ADDAY181031AY231031GA1041+001809069GF108991081031001501999999MD1710031+9999MW1861REMSYN076AAXX  27211 23256 41294 81006 11139 21159 40053 57003 78683 883// 333 84706;
0187232560999992000102800004+67470+078720FM-12+000899999V0200901N005010015019N0020001N1-01291-01491100441ADDAY181061AY231061GA1051+001509069GF108991081051001501999999MA1999999100091MD1710091+9999MW1711REMSYN082AAXX  28001 23256 41295 80905 11129 21149 30009 40044 57009 77183 885// 333 85705;
0209232560999992000102803004+67470+078720FM-12+000899999V0200701N00501001201CN0100001N1-01251-01451100381ADDAJ100189199999999AY171031AY231031GA1041+001809069GF108991081031001501999999GJ100009IA1239MD1710061+9999MW1851REMSYN088AAXX  28031 23256 /1297 80705 11125 21145 40038 57006 78573 883// 333 47018 55000 84706;
0202232560999992000102806004+67470+078720FM-12+000899999V0200801N006010021019N0040001N1-01231-01431100361ADDAA100007991AY181061AY271061GA1041+002109069GF108991081031002501999999KA1120N-01511MD1710021+9999MW1851REMSYN088AAXX  28061 23256 11396 80806 11123 21143 40036 57002 60080 78587 883// 333 21151 84707;
0166232560999992000102809004+67470+078720FM-12+000899999V0200601N005010084019N0200001N1-01211-01481100391ADDAY181031AY271031GA1081+008409059GF108991081051008001999999MD1210031+9999MW1711REMSYN076AAXX  28091 23256 41598 80605 11121 21148 40039 52003 77187 885// 333 88628;
0187232560999992000102812004+67470+078720FM-12+000899999V0200601N005010060019N0200001N1-01251-01521100431ADDAY171061AY221061GA1071+006009059GF107991071051008001001001MA1999999100081MD1210041+9999MW1021REMSYN082AAXX  28121 23256 41598 70605 11125 21152 30008 40043 52004 70272 87500 333 87620;
0157232560999992000102815004+67470+078720FM-12+000899999V0200701N005010057019N0200001N1-01191-01461100441ADDGA1081+005709059GF108991081051004501999999KA1120M-01191MD1210011+9999REMSYN076AAXX  28151 23256 /2498 80705 11119 21146 40044 52001 885// 333 11119 88619;
0202232560999992000102818004+67470+078720FM-12+000899999V0200601N006010063019N0200001N1-01311-01581100461ADDAA100001091AY181061AY221061GA1061+006309099GF108991081031008001999999KA1120M-01191MD1210021+9999MW1851REMSYN088AAXX  28181 23256 11598 80606 11131 21158 40046 52002 69990 78582 883// 333 11119 86921;
0160232560999992000102821004+67470+078720FM-12+000899999V0200501N006010036019N0020001N1-01581-01771100421ADDAY181031AY231031GA1061+003609099GF108991999999004501999999MD1710041+9999MW1861REMSYN070AAXX  28211 23256 41495 80506 11158 21177 40042 57004 78683 333 86912;
0187232560999992000102900004+67470+078720FM-12+000899999V0200601N006010108019N0200001N1-01701-01961100331ADDAY181061AY271061GA1081+010809059GF108991081051012501999999MA1999999099981MD1710091+9999MW1711REMSYN082AAXX  29001 23256 41698 80606 11170 21196 39998 40033 57009 77187 885// 333 88636;
0209232560999992000102903004+67470+078720FM-12+000899999V0200701N006010138019N0200001N1-01751-02011100091ADDAJ100199199999999AY171031AY231031GA1071+013809059GF107991071051012501001001GJ100009IA1239MD1710241+9999MW1021REMSYN088AAXX  29031 23256 /1698 70706 11175 21201 40009 57024 70273 87500 333 47019 55000 87646;
0202232560999992000102906004+67470+078720FM-12+000899999V0200801N008010021019N0020001N1-01671-01931099881ADDAA100002091AY181061AY271061GA1041+002109069GF108991081031002501999999KA1120N-01831MD1710211+9999MW1851REMSYN088AAXX  29061 23256 11395 80808 11167 21193 49988 57021 60020 78587 883// 333 21183 84707;
0166232560999992000102909004+67470+078720FM-12+000899999V0200601N009010021019N0020001N1-01631-01821099691ADDAY181031AY231031GA1041+002109069GF108991081051002501999999MD1710191+9999MW1731REMSYN076AAXX  29091 23256 41395 80609 11163 21182 49969 57019 77383 885// 333 84707;
0227232560999992000102912004+67470+078720FM-12+000899999V0200601N010010018019N0020001N1-01721-01911099541ADDAY181061AY271061GA1051+001809079GF108991081051002501999999MA1999999099191MD1710151+9999MW1711OA140101301OA249901401REMSYN100AAXX  29121 23256 41395 80610 11172 21191 39919 49954 57015 77187 885// 333 85706 91013 91114 92990;
0185232560999992000102915004+67470+078720FM-12+000899999V0200501N008010051019N0040001N1-01801-02061099411ADDAY171031AY231031GA1081+005109059GF108991081051004501999999KA1120M-01561MD1710141+9999MW1381REMSYN082AAXX  29151 23256 /1496 80508 11180 21206 49941 57014 73873 885// 333 11156 88617;
0202232560999992000102918004+67470+078720FM-12+000899999V0200501N007010057019N0040001N1-01811-02141099391ADDAA100002091AY171061AY231061GA1081+005709059GF108991081051004501999999KA1120M-01561MD1710021+9999MW1381REMSYN088AAXX  29181 23256 11496 80507 11181 21214 49939 57002 60020 73873 885// 333 11156 88619;
0166232560999992000102921004+67470+078720FM-12+000899999V0200501N009010072019N0200001N1-02001-02411099361ADDAY131031AY231031GA1081+007209059GF108991081051008001999999MD1710031+9999MW1361REMSYN076AAXX  29211 23256 41598 80509 11200 21241 49936 57003 73633 885// 333 88624;
0193232560999992000103000004+67470+078720FM-12+000899999V0200301N007010063019N0200001N1-02231-02621099431ADDAY131061AY231061GA1081+006309069GF108991081051008001999999MA1999999099071MD1210071+9999MW1361REMSYN088AAXX  30001 23256 41598 80307 11223 21262 39907 49943 52007 73633 885// 333 88621 91112;
0209232560999992000103003004+67470+078720FM-12+000899999V0200201N006010300019N0200001N1-02181-02501099561ADDAA199000091AJ100169199999999AY131031AY221031GF107991031051008001031001IA1249MD1210131+9999MW1361REMSYN082AAXX  30031 23256 31598 70206 11218 21250 49956 52013 73632 83530 333 48016 55000;EQDQ01  00002PRCP99
0209232560999992000103006004+67470+078720FM-12+000899999V0200301N005010300019N0500001N1-02321-02641099691ADDAA199000091AY131061AY221061GF106991031051008001031011KA1999N+99999MD1210121+9999MW1021REMSYN076AAXX  30061 23256 31599 60305 11232 21264 49969 52012 70232 83531 333 21223;EQDQ01  00002PRCP99Q02 -02232ATMN  
0133232560999992000103012004+67470+078720FM-12+000899999V0203501N003019999999N0200001N1-02601-02911100061ADDGF107991071001999999031001MA1999999099691MD1210161+9999REMSYN066AAXX  30121 23256 42998 73503 11260 21291 39969 40006 52016 87030;
0165232560999992000103015004+67470+078720FM-12+000899999V0203601N003012200019N0200001N1-02801-03111100171ADDAA199000091GF103991031001999999031001KA1999M-02181MD1210101+9999REMSYN070AAXX  30151 23256 32998 33603 11280 21311 40017 52010 83030 333 11218;EQDQ01  00002PRCP99
0175232560999992000103018004+67470+078720FM-12+000899999V0203301N002012200019N0200001N1-02971-03281100231ADDAA199000091GA1001+999999999GF100991001001999999001001KA1999M-02181MD1210061+9999REMSYN064AAXX  30181 23256 32998 03302 11297 21328 40023 52006 333 11218;EQDQ01  00002PRCP99
0137232560999992000103021004+67470+078720FM-12+000899999V0203201N002012200019N0200001N1-03041-03341999999ADDGA1001+999999999GF100991001001999999001001MA1999999100271MD1210041+9999REMSYN054AAXX  30211 23256 42998 03202 11304 21334 30027 52004;
0181232560999992000103100004+67470+078720FM-12+000899999V0202401N002010003019N0005001N1-02771-03081100321ADDAY111061AY211061GA1091+999999999GF109991091999999999999999MA1999999099941MD1210051+9999MW1491REMSYN076AAXX  31001 23256 41/93 92402 11277 21308 39994 40032 52005 74911 333 93501;
0239232560999992000103103004+67470+078720FM-12+000899999V0202101N002010009019N0020001N1-02381-02701100371ADDAA199000091AJ100449199999999AY141031AY221031GA1081+000909069GF108991081061001501999999GJ100009IA1239MD1210061+9999MW1101REMSYN088AAXX  31031 23256 31295 82102 11238 21270 40037 52006 71042 886// 333 47044 55000 88703;EQDQ01  00002PRCP99
0221232560999992000103106004+67470+078720FM-12+000899999V0202501N004010030019N0100001N1-02081-02411100391ADDAA199000091AY141061AY221061GA1081+003009079GF108991081061004501999999KA1120N-03121MD1210031+9999MW1281REMSYN088AAXX  31061 23256 31497 82504 11208 21241 40039 52003 72842 886// 333 21312 88710 93507;EQDQ01  00002PRCP99
0112232560999992000103109004+67470+078720FM-12+000899999V0202401N004012200019N0200001N1-02361-02681100441ADDGF101991011051004501001001MD1210041+9999REMSYN060AAXX  31091 23256 42498 12404 11236 21268 40044 52004 81500;
0143232560999992000103112004+67470+078720FM-12+000899999V0202101N004012200019N0200001N1-02421-02731100461ADDGF102991021001999999031001MA1999999100091MD1210021+9999REMSYN076AAXX  31121 23256 42998 22104 11242 21273 30009 40046 52002 82030 333 93506;
0175232560999992000103115004+67470+078720FM-12+000899999V0202001N006012200019N0200001N1-02561-02881100501ADDAA199000091GA1001+999999999GF100991001001999999001001KA1999M-02081MD1210041+9999REMSYN064AAXX  31151 23256 32998 02006 11256 21288 40050 52004 333 11208;EQDQ01  00002PRCP99
0193232560999992000103118004+67470+078720FM-12+000899999V0200301N004010072019N0200001N1-02361-02681100501ADDAA199000091GA1071+007209059GF107991071051008001001001KA1120M-02081MD1410001+9999REMSYN082AAXX  31181 23256 32598 70304 11236 21268 40050 54000 87500 333 11208 87524 93505;EQDQ01  00002PRCP99
0138232560999992000103121004+67470+078720FM-12+000899999V0201601N003010057019N0200001N1-02381-02701100491ADDGA1071+005709059GF107991071051004501001001MD1710011+9999REMSYN070AAXX  31211 23256 42498 71603 11238 21270 40049 57001 87500 333 87619;
0165232560999992000110100004+67470+078720FM-12+000899999V0201401N003010120019N0200001N1-02241-02491100471ADDGA1071+012009069GF107991071051012501001001MA1999999100111MD1710011+9999REMSYN082AAXX  01001 23256 42698 71403 11224 21249 30011 40047 57001 87500 333 87640 93504;
0209232560999992000110103004+67470+078720FM-12+000899999V0201101N002010018019N0200001N1-01961-02221100461ADDAJ100159199999999AY121031AY221031GA1051+001809069GF108991081051002501999999GJ101569IA1239MD1710011+9999MW1711REMSYN088AAXX  01031 23256 /1398 81102 11196 21222 40046 57001 77122 885// 333 47015 55026 85706;
0208232560999992000110106004+67470+078720FM-12+000899999V0201101N005010015019N0020001N1-01851-02111100471ADDAA100000791AY171061AY221061GA1051+001509079GF108991081051001501999999KA1120N-02571MD1210011+9999MW1711REMSYN094AAXX  01061 23256 11295 81105 11185 21211 40047 52001 69900 77172 885// 333 21257 85705 93504;
0166232560999992000110109004+67470+078720FM-12+000899999V0201001N00501001201CN0020001N1-01911-02171100441ADDAY171031AY221031GA1041+001809069GF108991081051001501999999MD1710031+9999MW1711REMSYN076AAXX  01091 23256 41295 81005 11191 21217 40044 57003 77172 885// 333 84706;
0185232560999992000110115004+67470+078720FM-12+000899999V0200701N004010027019N0040001N1-02021-02281100631ADDAY171031AY221031GA1051+002709069GF108991081051002501999999KA1120M-01831MD1210101+9999MW1711REMSYN082AAXX  01151 23256 /1396 80704 11202 21228 40063 52010 77172 885// 333 11183 85709;
0208232560999992000110118004+67470+078720FM-12+000899999V0200701N004010024019N0040001N1-02001-02261100761ADDAA100001091AY171061AY221061GA1051+002409079GF108991081051002501999999KA1120M-01831MD1210131+9999MW1711REMSYN094AAXX  01181 23256 11396 80704 11200 21226 40076 52013 60010 77172 885// 333 11183 85708 93503;
0140232560999992000110121004+67470+078720FM-12+000899999V0200601N003019999999N0200001N1-02251-02571100891ADDAY171031AY221031GF108991001001999999001061MD1210121+9999MW1711REMSYN066AAXX  01211 23256 41998 80603 11225 21257 40089 52012 77172 80006;
0171232560999992000110200004+67470+078720FM-12+000899999V0200601N002019999999N0200001N1-02341-02661101091ADDAY171061AY221061GF108991001001999999001061MA1999999100721MD1210201+9999MW1711REMSYN082AAXX  02001 23256 41998 80602 11234 21266 30072 40109 52020 77172 80006 333 93503;
0179232560999992000110203004+67470+078720FM-12+000899999V0200201N002019999999N0200001N1-02421-02661101271ADDAJ100169199999999AY171031AY221031GF106991001001999999001011IA1239MD1210181+9999MW1021REMSYN082AAXX  02031 23256 /1998 60202 11242 21266 40127 52018 70272 80001 333 47016 55000;
0186232560999992000110206004+67470+078720FM-12+000899999V0200401N002019999999N0500001N1-02361-02611101431ADDAA100000891AY171061AY221061GF107991031001999999031011KA1120N-02431MD1210161+9999MW1021REMSYN088AAXX  02061 23256 11999 70402 11236 21261 40143 52016 69980 70272 83031 333 21243 93503;
0112232560999992000110209004+67470+078720FM-12+000899999V0200201N002019999999N0500001N1-02261-02511101621ADDGF107991031001999999031011MD1210191+9999REMSYN060AAXX  02091 23256 42999 70202 11226 21251 40162 52019 83031;
0143232560999992000110212004+67470+078720FM-12+000899999V0203601N003019999999N0200001N1-02221-02541101771ADDGF106991021001999999031011MA1999999101411MD1210161+9999REMSYN076AAXX  02121 23256 42998 63603 11222 21254 30141 40177 52016 82031 333 93503;
0165232560999992000110215004+67470+078720FM-12+000899999V0203601N002019999999N0200001N1-02201-02521101921ADDAA199000091GF107991031001999999031011KA1999M-02201MD1210141+9999REMSYN070AAXX  02151 23256 32998 73602 11220 21252 40192 52014 83031 333 11220;EQDQ01  00002PRCP99
0221232560999992000110218004+67470+078720FM-12+000899999V0200101N002010027019N0200001N1-01851-02111102111ADDAA199000021AY121061AY221061GA1051+002709079GF108991081031002501999999KA1120M+99999MD1210191+9999MW1711REMSYN088AAXX  02181 23256 31398 80102 11185 21211 40211 52019 77122 883// 333 11222 85709 93504;EQDQ01 -02222ATMX  
0166232560999992000110221004+67470+078720FM-12+000899999V0203401N003010027019N0040001N1-01811-02071102221ADDAY171031AY221031GA1051+002709069GF108991081051002501999999MD1210111+9999MW1711REMSYN076AAXX  02211 23256 41396 83403 11181 21207 40222 52011 77172 885// 333 85709;
0193232560999992000110300004+67470+078720FM-12+000899999V0203401N003010045019N0200001N1-01841-02801102351ADDAY171061AY221061GA1061+004509069GF108991081051004501999999MA1999999101981MD1210131+9999MW1711REMSYN088AAXX  03001 23256 41498 83403 11184 21280 30198 40235 52013 77172 885// 333 86615 93505;
0209232560999992000110303004+67470+078720FM-12+000899999V0203601N003010048019N0100001N1-01691-01951102401ADDAJ100169199999999AY171031AY221031GA1081+004809059GF108991081051004501999999GJ100549IA1239MD1210121+9999MW1711REMSYN088AAXX  03031 23256 /1497 83603 11169 21195 40240 52012 77172 885// 333 47016 55009 88616;
0208232560999992000110306004+67470+078720FM-12+000899999V0203601N005010048019N0100001N1-01651-01841102571ADDAA100000591AY171061AY221061GA1071+004809069GF108991071051004501071999KA1120N-02201MD1210111+9999MW1711REMSYN094AAXX  03061 23256 11497 83605 11165 21184 40257 52011 69960 77172 8757/ 333 21220 87616 93503;
0140232560999992000110309004+67470+078720FM-12+000899999V0203201N004012200019N0500001N1-01581-01851102701ADDAY171031AY221031GF106991021051004501001011MD1210131+9999MW1221REMSYN066AAXX  03091 23256 41499 63204 11158 21185 40270 52013 72272 82501;
0193232560999992000110312004+67470+078720FM-12+000899999V0203201N005010078019N0200001N1-01441-01711102891ADDAY171061AY221061GA1081+007809069GF108991081051008001999999MA1999999102521MD1210181+9999MW1021REMSYN088AAXX  03121 23256 41598 83205 11144 21171 30252 40289 52018 70272 885// 333 88626 93500;
0185232560999992000110315004+67470+078720FM-12+000899999V0203201N005010084019N0200001N1-01491-01761103051ADDAY171031AY221031GA1081+008409059GF108991081051008001999999KA1120M-01441MD1210161+9999MW1711REMSYN082AAXX  03151 23256 /1598 83205 11149 21176 40305 52016 77172 885// 333 11144 88628;
0202232560999992000110318004+67470+078720FM-12+000899999V0203201N003010090019N0200001N1-01531-01801103181ADDAA100000391AY171061AY221061GA1081+009009059GF108991081051008001999999KA1120M-01441MD1210131+9999MW1221REMSYN088AAXX  03181 23256 11598 83203 11153 21180 40318 52013 69930 72272 885// 333 11144 88630;
0138232560999992000110321004+67470+078720FM-12+000899999V0203001N003010120019N0200001N1-01551-01821103311ADDGA1071+012009059GF107991071051012501001001MD1210131+9999REMSYN070AAXX  03211 23256 42698 73003 11155 21182 40331 52013 87500 333 87640;
0159232560999992000110400004+67470+078720FM-12+000899999V0203001N003010063019N0200001N1-01411-01681103481ADDGA1081+006309059GF108991081051008001999999MA1999999103111MD1710171+9999REMSYN076AAXX  04001 23256 42598 83003 11141 21168 30311 40348 57017 885// 333 88621;
0209232560999992000110403004+67470+078720FM-12+000899999V0202801N003010048019N0200001N1-01251-01521103561ADDAJ100169199999999AY171031AY221031GA1081+004809059GF108991081051004501999999GJ100009IA1239MD1210091+9999MW1711REMSYN088AAXX  04031 23256 /1498 82803 11125 21152 40356 52009 77172 885// 333 47016 55000 88616;
0202232560999992000110406004+67470+078720FM-12+000899999V0202901N005010057019N0200001N1-01121-01401103641ADDAA100000791AY171061AY221061GA1081+005709059GF108991081051004501999999KA1120N-01681MD1210081+9999MW1711REMSYN088AAXX  04061 23256 11498 82905 11112 21140 40364 52008 69900 77172 885// 333 21168 88619;
0140232560999992000110409004+67470+078720FM-12+000899999V0203101N005012200019N0500001N1-01521-01791103791ADDAY171031AY221031GF105991031051008001001011MD1210141+9999MW1221REMSYN066AAXX  04091 23256 41599 53105 11152 21179 40379 52014 72272 83501;
0187232560999992000110412004+67470+078720FM-12+000899999V0203501N003010042019N0200001N1-01601-01871103971ADDAY171061AY221061GA1071+004209059GF107991071051004501001001MA1999999103601MD1210181+9999MW1021REMSYN082AAXX  04121 23256 41498 73503 11160 21187 30360 40397 52018 70272 87500 333 87614;
0157232560999992000110415004+67470+078720FM-12+000899999V0203501N003010018019N0200001N1-01801-02061104151ADDGA1051+001809069GF108991081051001501999999KA1120M-01041MD1210171+9999REMSYN076AAXX  04151 23256 /2298 83503 11180 21206 40415 52017 885// 333 11104 85706;
0196232560999992000110418004+67470+078720FM-12+000899999V0202901N001012200019N0020001N1-02031-02281104311ADDAA100000791AY141061AY211061GA1001+999999999GF100991001001999999001001KA1120M-01041MD1210161+9999MW1101REMSYN082AAXX  04181 23256 11995 02901 11203 21228 40431 52016 69900 71041 333 11104 93502;
0150232560999992000110421004+67470+078720FM-12+000899999V0203301N002010003019N0005001N1-01861-02121104401ADDAY141031AY211031GA1091+999999999GF109991091999999999999999MD1210091+9999MW1491REMSYN060AAXX  04211 23256 41/93 93302 11186 21212 40440 52009 74941;
0181232560999992000110500004+67470+078720FM-12+000899999V0203201N002010003019N0005001N1-01801-02061104511ADDAY141061AY211061GA1091+999999999GF109991091999999999999999MA1999999104131MD1210111+9999MW1491REMSYN076AAXX  05001 23256 41/93 93202 11180 21206 30413 40451 52011 74941 333 93509;
0183232560999992000110503004+67470+078720FM-12+000899999V0200501N001010003019N0005001N1-02161+99999104631ADDAJ100169199999999AY141031AY221031GA1091+999999999GF109991091999999999999999IA1239MD1210121+9999MW1491REMSYN070AAXX  05031 23256 /1/93 90501 11216 40463 52012 74942 333 47016 55000;
0199232560999992000110506004+67470+078720FM-12+000899999V0209999C000010012019N0010001N1-02111-02361104731ADDAA199000091AY141061AY221061GF107991051061001501001011KA1120N-02161MD1210101+9999MW1281REMSYN082AAXX  05061 23256 31294 70000 11211 21236 40473 52010 72842 85601 333 21216 93515;EQDQ01  00002PRCP99
0166232560999992000110509004+67470+078720FM-12+000899999V0209999C000010012019N0010001N1-01961-02221104791ADDAY121031AY221031GA1051+001209069GF107991051061001501001011MD1210061+9999MW1101REMSYN076AAXX  05091 23256 41294 70000 11196 21222 40479 52006 71022 85601 333 85704;
0193232560999992000110512004+67470+078720FM-12+000899999V0209999C000010009019N0010001N1-02101-02351104881ADDAY141061AY221061GA1061+000909079GF106991061061001501001001MA1999999104501MD1210091+9999MW1101REMSYN088AAXX  05121 23256 41294 60000 11210 21235 30450 40488 52009 71042 86600 333 86703 93523;
0203232560999992000110515004+67470+078720FM-12+000899999V0201601N002010003019N0005001N1-02081-02331104851ADDAA199000091AY121031AY221031GA1091+999999999GF109991091999999999999999KA1999M-01961MD1710031+9999MW1491REMSYN070AAXX  05151 23256 31/93 91602 11208 21233 40485 57003 74922 333 11196;EQDQ01  00002PRCP99
0209232560999992000110518004+67470+078720FM-12+000899999V0201501N002010003019N0005001N1-02071-02321104831ADDAA199000091AY141061AY221061GA1091+999999999GF109991091999999999999999KA1120M-01961MD1710021+9999MW1491REMSYN076AAXX  05181 23256 31/93 91502 11207 21232 40483 57002 74942 333 11196 93523;EQDQ01  00002PRCP99
0150232560999992000110521004+67470+078720FM-12+000899999V0201701N003010003019N0005001N1-02121-02371104751ADDAY141031AY221031GA1091+999999999GF109991091999999999999999MD1710081+9999MW1491REMSYN060AAXX  05211 23256 41/93 91703 11212 21237 40475 57008 74942;
0171232560999992000110600004+67470+078720FM-12+000899999V0201701N005012200019N0200001N1-02451-02771104651ADDAY141061AY211061GA1001+999999999GF100991001001999999001001MA1999999104271MD1710101+9999MW1021REMSYN066AAXX  06001 23256 41998 01705 11245 21277 30427 40465 57010 70241;
0211232560999992000110603004+67470+078720FM-12+000899999V0201701N004010012019N0200001N1-02351-02601104481ADDAA199000091AJ100169199999999GA1051+001209069GF106991051061001501031001GJ100009IA1239MD1710171+9999REMSYN082AAXX  06031 23256 32298 61704 11235 21260 40448 57017 85630 333 47016 55000 85704;EQDQ01  00002PRCP99
0199232560999992000110606004+67470+078720FM-12+000899999V0201901N007019999999N0100001N1-02001-02261104311ADDAA199000091AY131061AY221061GF106991001001999999001011KA1120N-02541MD1710171+9999MW1361REMSYN082AAXX  06061 23256 31997 61907 11200 21226 40431 57017 73632 80001 333 21254 93500;EQDQ01  00002PRCP99
0140232560999992000110609004+67470+078720FM-12+000899999V0202001N007019999999N0200001N1-01861-02121104171ADDAY131031AY221031GF108991001001999999001061MD1710141+9999MW1361REMSYN066AAXX  06091 23256 42998 82007 11186 21212 40417 57014 73632 80006;
0161232560999992000110612004+67470+078720FM-12+000899999V0202001N008019999999N0200001N1-01781-02041103941ADDAY131061AY221061GF108991001001999999001061MA1999999103561MD1710231+9999MW1711REMSYN072AAXX  06121 23256 41998 82008 11178 21204 30356 40394 57023 77132 80006;
0163232560999992000110615004+67470+078720FM-12+000899999V0201901N013019999999N0020001N1-01561-01751103511ADDAY171031AY231031GF108991081001999999071999KA1999M-01561MD1710421+9999MW1711REMSYN076AAXX  06151 23256 /1995 81913 11156 21175 40351 57042 77173 8807/ 333 11156;
0239232560999992000110618004+67470+078720FM-12+000899999V0202001N011019999999N0020001N1-01391-01591103221ADDAA100000191AY171061AY231061GF108991081001999999071999KA1120M+99999MD1710291+9999MW1711OA140101401OA249901601REMSYN100AAXX  06181 23256 11995 82011 11139 21159 40322 57029 69920 77173 8807/ 333 11156 91014 91116 92992;EQDQ01 -01562ATMX  
0166232560999992000110621004+67470+078720FM-12+000899999V0202201N011010036019N0020001N1-01131-01331102981ADDAY171031AY231031GA1051+003609069GF108991081051004501999999MD1710231+9999MW1711REMSYN076AAXX  06211 23256 41495 82211 11113 21133 40298 57023 77173 885// 333 85712;
0227232560999992000110700004+67470+078720FM-12+000899999V0202301N012010030019N0020001N1-00911-01111102751ADDAY171061AY231061GA1051+003009079GF108991081051004501999999MA1999999102401MD1710221+9999MW1711OA140101501OA249901601REMSYN100AAXX  07001 23256 41495 82312 11091 21111 30240 40275 57022 77173 885// 333 85710 91015 91116 92992;
0209232560999992000110703004+67470+078720FM-12+000899999V0202401N010010030019N0200001N1-00721-00931102611ADDAJ100089199999999AY171031AY231031GA1061+003009099GF108991081031004501999999GJ101089IA1239MD1710141+9999MW1361REMSYN088AAXX  07031 23256 /1498 82410 11072 21093 40261 57014 73673 883// 333 47008 55018 86910;
0242232560999992000110706004+67470+078720FM-12+000899999V0202501N01101002101CN0200001N1-00611-00761102471ADDAA100000891AY181061AY271061GA1041+002409079GF108991081031002501999999KA1120N-01561MD1710141+9999MW1361OA140101501OA249901501REMSYN106AAXX  07061 23256 11398 82511 11061 21076 40247 57014 69980 73687 883// 333 21156 84708 91015 91115 92990;
0166232560999992000110709004+67470+078720FM-12+000899999V0202501N012010021019N0200001N1-00561-00701102451ADDAY181031AY231031GA1041+002109069GF108991081031002501999999MD1710021+9999MW1361REMSYN076AAXX  07091 23256 41398 82512 11056 21070 40245 57002 73683 883// 333 84707;
0210232560999992000110712004+67470+078720FM-12+000899999V0202501N009010021019N0200001N1-00651-00771102411ADDAY181061AY231061GA1051+002109079GF108991081051002501999999MA1999999102061MD1710041+9999MW1361OA140101201REMSYN094AAXX  07121 23256 41398 82509 11065 21077 30206 40241 57004 73683 885// 333 85707 91012 91116;
0185232560999992000110715004+67470+078720FM-12+000899999V0202401N009010018019N0200001N1-00781-00921102321ADDAY131031AY221031GA1051+001809069GF108991081051002501999999KA1120M-00541MD1710091+9999MW1361REMSYN082AAXX  07151 23256 /1398 82409 11078 21092 40232 57009 73632 885// 333 11054 85706;
0225232560999992000110718004+67470+078720FM-12+000899999V0202401N009010021019N0200001N1-00811-00951102191ADDAA100000591AY131061AY221061GA1041+002109079GF108991081051002501999999KA1120M-00541MD1710131+9999MW1361OA140101201REMSYN100AAXX  07181 23256 11398 82409 11081 21095 40219 57013 69940 73632 885// 333 11054 84707 91012 91112;
0166232560999992000110721004+67470+078720FM-12+000899999V0202401N009010018019N0040001N1-00861-01011102001ADDAY131031AY221031GA1081+001809069GF108991081061002501999999MD1710191+9999MW1381REMSYN076AAXX  07211 23256 41396 82409 11086 21101 40200 57019 73832 886// 333 88706;
0193232560999992000110800004+67470+078720FM-12+000899999V0202301N008010018019N0200001N1-00791-00931101721ADDAY131061AY231061GA1081+001809079GF108991081061002501999999MA1999999101371MD1710281+9999MW1361REMSYN088AAXX  08001 23256 41398 82308 11079 21093 30137 40172 57028 73633 886// 333 88706 91114;
0225232560999992000110806004+67470+078720FM-12+000899999V0202501N00801001201CN0020001N1-00321-00421101121ADDAA100001091AY181061AY231061GA1041+001809079GF108991081031001501999999KA1120N-00871MD1710221+9999MW1851OA149901301REMSYN100AAXX  08061 23256 11295 82508 11032 21042 40112 57022 60010 78583 883// 333 21087 84706 91113 92990;
0166232560999992000110809004+67470+078720FM-12+000899999V0202501N009010036019N0200001N1-00141-00281101021ADDAY181031AY231031GA1051+003609099GF108991081031004501999999MD1710101+9999MW1851REMSYN076AAXX  08091 23256 41498 82509 11014 21028 40102 57010 78583 883// 333 85912;
0227232560999992000110812004+67470+078720FM-12+000899999V0202801N012010021019N0200001N1+00051+00051100941ADDAY181061AY231061GA1041+002109079GF108991081031002501999999MA1999999100601MD1710081+9999MW1861OA140101501OA249901501REMSYN100AAXX  08121 23256 41398 82812 10005 20005 30060 40094 57008 78683 883// 333 84707 91015 91115 92992;
0185232560999992000110815004+67470+078720FM-12+000899999V0202901N014010036019N0200001N1+00081-00091101051ADDAY181031AY231031GA1051+003609099GF108991081031004501999999KA1120M+00081MD1210111+9999MW1021REMSYN082AAXX  08151 23256 /1498 82914 10008 21009 40105 52011 70283 883// 333 10008 85912;
0242232560999992000110818004+67470+078720FM-12+000899999V0202601N012010063019N0200001N1+00061+00011100981ADDAA100003091AY181061AY231061GA1051+006309099GF108991081031008001999999KA1120M+00081MD1710071+9999MW1851OA140101501OA249901701REMSYN106AAXX  08181 23256 11598 82612 10006 20001 40098 57007 60030 78583 883// 333 10008 85921 91015 91117 92990;
0227232560999992000110900004+67470+078720FM-12+000899999V0202601N016010027019N0010001N1-00181-00201100631ADDAY181061AY231061GA1051+002709079GF108991081031002501999999MA1999999100291MD1710241+9999MW1861OA140101901OA249901901REMSYN100AAXX  09001 23256 41394 82616 11018 21020 30029 40063 57024 78683 883// 333 85709 91019 91119 92997;
0189232560999992000110903004+67470+078720FM-12+000899999V0202701N017010003019N0002001N1-00171-00171100671ADDAJ100149199999999AY181031AY231031GA1091+999999999GF109991091999999999999999IA1249MD1210041+9999MW1391REMSYN076AAXX  09031 23256 /1/92 92717 11017 21017 40067 52004 73983 333 48014 55000;
0242232560999992000110906004+67470+078720FM-12+000899999V0203001N014010039019N0100001N1-00191-00301101011ADDAA100006191AY181061AY231061GA1051+003909099GF108991081031004501999999KA1120N-00191MD1210341+9999MW1361OA140101701OA249902001REMSYN106AAXX  09061 23256 11497 83014 11019 21030 40101 52034 60060 73683 883// 333 21019 85913 91017 91120 92900;
0166232560999992000110909004+67470+078720FM-12+000899999V0203001N014010048019N0200001N1-00241-00461101351ADDAY181031AY231031GA1081+004809059GF108991081051004501999999MD1210341+9999MW1361REMSYN076AAXX  09091 23256 41498 83014 11024 21046 40135 52034 73683 885// 333 88616;
0210232560999992000110912004+67470+078720FM-12+000899999V0202901N012010051019N0200001N1-00431-00551101591ADDAY181061AY231061GA1061+005109069GF106991061051004501001001MA1999999101251MD1210241+9999MW1361OA140101501REMSYN094AAXX  09121 23256 41498 62912 11043 21055 30125 40159 52024 73683 86500 333 86617 91015 91117;
0185232560999992000110915004+67470+078720FM-12+000899999V0202701N010010060019N0200001N1-00411-00431101641ADDAY131031AY221031GA1071+006009029GF107991071051008001001001KA1120M-00171MD1210051+9999MW1361REMSYN082AAXX  09151 23256 /1598 72710 11041 21043 40164 52005 73632 87500 333 11017 87520;
0180232560999992000110918004+67470+078720FM-12+000899999V0202401N006012200019N0200001N1-00581-00621101691ADDAA100001091AY131061AY211061GF103991031051008001001001KA1999M-00171MD1210051+9999MW1021REMSYN082AAXX  09181 23256 11598 32406 11058 21062 40169 52005 60010 70231 83500 333 11017;
0138232560999992000110921004+67470+078720FM-12+000899999V0202201N006010099019N0200001N1-00611-00651101451ADDGA1071+009909059GF107991071051012501001001MD1710241+9999REMSYN070AAXX  09211 23256 42698 72206 11061 21065 40145 57024 87500 333 87633;
0187232560999992000111000004+67470+078720FM-12+000899999V0202001N005010021019N0040001N1-00351+99999101021ADDAY171061AY211061GA1051+002109069GF108991081051002501999999MA1999999100681MD1710431+9999MW1711REMSYN082AAXX  10001 23256 41396 82005 11035 21033 30068 40102 57043 77171 885// 333 85707;
0209232560999992000111003004+67470+078720FM-12+000899999V0202401N008010012019N0020001N1-00201-00201100611ADDAJ100179199999999AY171031AY231031GA1041+001209069GF108991081031001501999999GJ100009IA1249MD1710411+9999MW1861REMSYN088AAXX  10031 23256 /1295 82408 11020 21020 40061 57041 78673 883// 333 48017 55000 84704;
0242232560999992000111006004+67470+078720FM-12+000899999V0202601N01101002101CN0040001N1-00161-00181100401ADDAA100002091AY181061AY271061GA1041+002409079GF108991081031002501999999KA1120N-00611MD1710211+9999MW1851OA140101401OA249901401REMSYN106AAXX  10061 23256 11396 82611 11016 21018 40040 57021 60020 78587 883// 333 21061 84708 91014 91114 92991;
0140232560999992000111009004+67470+078720FM-12+000899999V0202901N012010300019N0200001N1-00291-00331100361ADDAY181031AY231031GF106991031051002501031001MD1710041+9999MW1361REMSYN066AAXX  10091 23256 41398 62912 11029 21033 40036 57004 73683 83530;
0227232560999992000111012004+67470+078720FM-12+000899999V0202801N017010030019N0010001N1-00581-00651100301ADDAY181061AY231061GA1061+003009099GF108991081031004501999999MA1999999099961MD1710061+9999MW1391OA140102001OA249902101REMSYN100AAXX  10121 23256 41494 82817 11058 21065 39996 40030 57006 73983 883// 333 86910 91020 91121 92993;
0173232560999992000111015004+67470+078720FM-12+000899999V0203001N022010003019N0005001N1-00691-00741100221ADDAY181031AY231031GA1091+999999999GF109991091999999999999999KA1999M-00101MD1710081+9999MW1391REMSYN070AAXX  10151 23256 /1/93 93022 11069 21074 40022 57008 73983 333 11010;
0220232560999992000111018004+67470+078720FM-12+000899999V0203201N012019999999N0010001N1-01031-01151100751ADDAA112004191AY181061AY231061GF105991051001999999031001KA1120M-00101MD1210521+9999MW1391OA140101501OA249902501REMSYN100AAXX  10181 23256 11994 53212 11103 21115 40075 52052 60042 73983 85030 333 11010 91015 91125 92995;
0140232560999992000111021004+67470+078720FM-12+000899999V0203101N010012200019N0200001N1-01351-01551101191ADDAY131031AY231031GF102991021001999999031001MD1210431+9999MW1361REMSYN066AAXX  10211 23256 41998 23110 11135 21155 40119 52043 73633 82030;
0188232560999992000111100004+67470+078720FM-12+000899999V0203101N008012200019N0200001N1-01581-01771101411ADDAY131061AY231061GF103991031001999999031001MA1999999101051MD1210221+9999MW1021OA149901301REMSYN088AAXX  11001 23256 41998 33108 11158 21177 30105 40141 52022 70233 83030 333 91113 92990;
0181232560999992000111103004+67470+078720FM-12+000899999V0203301N007012200019N0200001N1-02311-02631101741ADDAA199000091AJ100219199999999GF103991031001999999031001IA1249MD1210321+9999REMSYN076AAXX  11031 23256 32998 33307 11231 21263 40174 52032 83030 333 48021 55000;EQDQ01  00002PRCP99
0191232560999992000111106004+67470+078720FM-12+000899999V0203601N007012200019N0500001N1-02421-02811102071ADDAA199000091GA1001+999999999GF100991001001999999001001KA1999N+99999MD1210321+9999REMSYN064AAXX  11061 23256 32999 03607 11242 21281 40207 52032 333 21231;EQDQ01  00002PRCP99Q02 -02312ATMN  
0122232560999992000111109004+67470+078720FM-12+000899999V0203401N005012200019N0500001N1-02671-03051102391ADDGA1001+999999999GF100991001001999999001001MD1210321+9999REMSYN054AAXX  11091 23256 42999 03405 11267 21305 40239 52032;
0143232560999992000111112004+67470+078720FM-12+000899999V0203301N005012200019N0200001N1-02841-03151102631ADDGA1001+999999999GF100991001001999999001001MA1999999102251MD1210241+9999REMSYN060AAXX  11121 23256 42998 03305 11284 21315 30225 40263 52024;
0175232560999992000111115004+67470+078720FM-12+000899999V0203201N004012200019N0200001N1-02841-03151102821ADDAA199000091GA1001+999999999GF100991001001999999001001KA1999M-02311MD1210191+9999REMSYN064AAXX  11151 23256 32998 03204 11284 21315 40282 52019 333 11231;EQDQ01  00002PRCP99
0175232560999992000111118004+67470+078720FM-12+000899999V0203001N003012200019N0200001N1-02911-03221102921ADDAA199000091GA1001+999999999GF100991001001999999001001KA1999M-02311MD1210091+9999REMSYN064AAXX  11181 23256 32998 03003 11291 21322 40292 52009 333 11231;EQDQ01  00002PRCP99
0122232560999992000111121004+67470+078720FM-12+000899999V0203201N004012200019N0200001N1-02861-03161102981ADDGA1001+999999999GF100991001001999999001001MD1210061+9999REMSYN054AAXX  11211 23256 42998 03204 11286 21316 40298 52006;
0143232560999992000111200004+67470+078720FM-12+000899999V0203301N002012200019N0200001N1-02951-03261103091ADDGA1001+999999999GF100991001001999999001001MA1999999102701MD1210111+9999REMSYN060AAXX  12001 23256 42998 03302 11295 21326 30270 40309 52011;
0191232560999992000111203004+67470+078720FM-12+000899999V0203101N002012200019N0200001N1-02961-03261103171ADDAA199000091AJ100219199999999GA1001+999999999GF100991001001999999001001IA1249MD1210081+9999REMSYN070AAXX  12031 23256 32998 03102 11296 21326 40317 52008 333 48021 55034;EQDQ01  00002PRCP99
0175232560999992000111206004+67470+078720FM-12+000899999V0203201N002012200019N0500001N1-03001-03301103231ADDAA199000091GA1001+999999999GF100991001001999999001001KA1999N-03071MD1210061+9999REMSYN064AAXX  12061 23256 32999 03202 11300 21330 40323 52006 333 21307;EQDQ01  00002PRCP99
0122232560999992000111209004+67470+078720FM-12+000899999V0200101N002012200019N0500001N1-02911-03221103361ADDGA1001+999999999GF100991001001999999001001MD1210131+9999REMSYN054AAXX  12091 23256 42999 00102 11291 21322 40336 52013;
0143232560999992000111212004+67470+078720FM-12+000899999V0203301N001012200019N0200001N1-02981-03281103411ADDGA1001+999999999GF100991001001999999001001MA1999999103021MD1210051+9999REMSYN060AAXX  12121 23256 42998 03301 11298 21328 30302 40341 52005;
0145232560999992000111215004+67470+078720FM-12+000899999V0202701N001012200019N0200001N1-03241-03551103491ADDGA1001+999999999GF100991001001999999001001KA1999M-02861MD1210081+9999REMSYN064AAXX  12151 23256 /2998 02701 11324 21355 40349 52008 333 11286;
0175232560999992000111218004+67470+078720FM-12+000899999V0202701N002012200019N0200001N1-03091-03451103541ADDAA199000091GA1001+999999999GF100991001001999999001001KA1999M-02861MD1210051+9999REMSYN064AAXX  12181 23256 32998 02702 11309 21345 40354 52005 333 11286;EQDQ01  00002PRCP99
0122232560999992000111221004+67470+078720FM-12+000899999V0200301N002012200019N0200001N1-03161-03521103561ADDGA1001+999999999GF100991001001999999001001MD1210021+9999REMSYN054AAXX  12211 23256 42998 00302 11316 21352 40356 52002;
0143232560999992000111300004+67470+078720FM-12+000899999V0200701N001012200019N0200001N1-03311-03671103621ADDGA1001+999999999GF100991001001999999001001MA1999999103221MD1210051+9999REMSYN060AAXX  13001 23256 42998 00701 11331 21367 30322 40362 52005;
0191232560999992000111303004+67470+078720FM-12+000899999V0201001N002012200019N0200001N1-03481-03841103661ADDAA199000091AJ100219199999999GA1001+999999999GF100991001001999999001001IA1249MD1210041+9999REMSYN070AAXX  13031 23256 32998 01002 11348 21384 40366 52004 333 48021 55036;EQDQ01  00002PRCP99
0181232560999992000111306004+67470+078720FM-12+000899999V0201101N002012200019N0200001N1-03401-03751103671ADDAA199000091GA1001+999999999GF100991001001999999001001KA1120N-03481MD1210011+9999REMSYN070AAXX  13061 23256 32998 01102 11340 21375 40367 52001 333 21348 93504;EQDQ01  00002PRCP99
0122232560999992000111309004+67470+078720FM-12+000899999V0201001N002012200019N0500001N1-03381-03751103681ADDGA1001+999999999GF100991001001999999001001MD1210011+9999REMSYN054AAXX  13091 23256 42999 01002 11338 21375 40368 52001;
0153232560999992000111312004+67470+078720FM-12+000899999V0201101N002012200019N0200001N1-03481-03771103701ADDGA1001+999999999GF100991001001999999001001MA1999999103301MD1210021+9999REMSYN070AAXX  13121 23256 42998 01102 11348 21377 30330 40370 52002 333 93504;
0181232560999992000111318004+67470+078720FM-12+000899999V0201101N002012200019N0200001N1-03521-03801103691ADDAA199000091GA1001+999999999GF100991001001999999001001KA1120M-03381MD1710021+9999REMSYN070AAXX  13181 23256 32998 01102 11352 21380 40369 57002 333 11338 93504;EQDQ01  00002PRCP99
0122232560999992000111321004+67470+078720FM-12+000899999V0201101N002012200019N0200001N1-03561-03901103741ADDGA1001+999999999GF100991001001999999001001MD1210051+9999REMSYN054AAXX  13211 23256 42998 01102 11356 21390 40374 52005;
0153232560999992000111400004+67470+078720FM-12+000899999V0201001N003012200019N0200001N1-03601-03971103781ADDGA1001+999999999GF100991001001999999001001MA1999999103381MD1210041+9999REMSYN070AAXX  14001 23256 42998 01003 11360 21397 30338 40378 52004 333 93503;
0191232560999992000111403004+67470+078720FM-12+000899999V0201201N002012200019N0200001N1-03521-03871103871ADDAA199000091AJ100219199999999GA1001+999999999GF100991001001999999001001IA1249MD1210091+9999REMSYN070AAXX  14031 23256 32998 01202 11352 21387 40387 52009 333 48021 55020;EQDQ01  00002PRCP99
0181232560999992000111406004+67470+078720FM-12+000899999V0201101N002012200019N0500001N1-03431-03781103931ADDAA199000091GA1001+999999999GF100991001001999999001001KA1120N-03611MD1210061+9999REMSYN070AAXX  14061 23256 32999 01102 11343 21378 40393 52006 333 21361 93503;EQDQ01  00002PRCP99
0122232560999992000111409004+67470+078720FM-12+000899999V0201101N003012200019N0500001N1-03391-03751104051ADDGA1001+999999999GF100991001001999999001001MD1210121+9999REMSYN054AAXX  14091 23256 42999 01103 11339 21375 40405 52012;
0153232560999992000111412004+67470+078720FM-12+000899999V0201101N003012200019N0200001N1-03431-03781104161ADDGA1001+999999999GF100991001001999999001001MA1999999103761MD1210111+9999REMSYN070AAXX  14121 23256 42998 01103 11343 21378 30376 40416 52011 333 93503;
0175232560999992000111415004+67470+078720FM-12+000899999V0201101N003012200019N0200001N1-03441-03811104261ADDAA199000091GA1001+999999999GF100991001001999999001001KA1999M-03371MD1210101+9999REMSYN064AAXX  14151 23256 32998 01103 11344 21381 40426 52010 333 11337;EQDQ01  00002PRCP99
0181232560999992000111418004+67470+078720FM-12+000899999V0201201N003012200019N0200001N1-03481-03841104291ADDAA124024991GA1001+999999999GF100991001001999999001001KA1120M+99999MD1210031+9999REMSYN070AAXX  14181 23256 32998 01203 11348 21384 40429 52003 333 11379 73503;EQDQ01 -03792ATMX  
0122232560999992000111421004+67470+078720FM-12+000899999V0201001N004012200019N0200001N1-03501-03871104871ADDGA1001+999999999GF100991001001999999001001MD1210091+9999REMSYN054AAXX  14211 23256 42998 01004 11350 21387 40487 52009;
0153232560999992000111500004+67470+078720FM-12+000899999V0201101N004012200019N0200001N1-03491-03841104421ADDGA1001+999999999GF100991001001999999001001MA1999999104021MD1210041+9999REMSYN070AAXX  15001 23256 42998 01104 11349 21384 30402 40442 52004 333 93503;
0191232560999992000111503004+67470+078720FM-12+000899999V0201101N004012200019N0200001N1-03441-03811104471ADDAA199000091AJ100219199999999GA1001+999999999GF100991001001999999001001IA1249MD1210051+9999REMSYN070AAXX  15031 23256 32998 01104 11344 21381 40447 52005 333 48021 55018;EQDQ01  00002PRCP99
0181232560999992000111506004+67470+078720FM-12+000899999V0201101N004012200019N0200001N1-03341-03691104531ADDAA199000091GA1001+999999999GF100991001001999999001001KA1120N-03521MD1210061+9999REMSYN070AAXX  15061 23256 32998 01104 11334 21369 40453 52006 333 21352 93503;EQDQ01  00002PRCP99
0122232560999992000111509004+67470+078720FM-12+000899999V0201101N003012200019N0200001N1-03241-03611104591ADDGA1001+999999999GF100991001001999999001001MD1210071+9999REMSYN054AAXX  15091 23256 42998 01103 11324 21361 40459 52007;
0153232560999992000111512004+67470+078720FM-12+000899999V0201201N003012200019N0200001N1-03301-03671104651ADDGA1001+999999999GF100991001001999999001001MA1999999104251MD1210051+9999REMSYN070AAXX  15121 23256 42998 01203 11330 21367 30425 40465 52005 333 93503;
0175232560999992000111515004+67470+078720FM-12+000899999V0201201N004012200019N0200001N1-03291-03641104641ADDAA199000091GA1001+999999999GF100991001001999999001001KA1999M-03231MD1710011+9999REMSYN064AAXX  15151 23256 32998 01204 11329 21364 40464 57001 333 11323;EQDQ01  00002PRCP99
0181232560999992000111518004+67470+078720FM-12+000899999V0201201N003012200019N0200001N1-03241-03611104651ADDAA199000091GA1001+999999999GF100991001001999999001001KA1120M-03231MD1210021+9999REMSYN070AAXX  15181 23256 32998 01203 11324 21361 40465 52002 333 11323 93503;EQDQ01  00002PRCP99
0122232560999992000111521004+67470+078720FM-12+000899999V0201201N004012200019N0200001N1-03211-03571104621ADDGA1001+999999999GF100991001001999999001001MD1710031+9999REMSYN054AAXX  15211 23256 42998 01204 11321 21357 40462 57003;
0153232560999992000111600004+67470+078720FM-12+000899999V0201201N003012200019N0200001N1-03201-03571104631ADDGA1001+999999999GF100991001001999999001001MA1999999104241MD1210011+9999REMSYN070AAXX  16001 23256 42998 01203 11320 21357 30424 40463 52001 333 93503;
0191232560999992000111603004+67470+078720FM-12+000899999V0201201N004012200019N0200001N1-03171-03471104601ADDAA199000091AJ100219199999999GA1001+999999999GF100991001001999999001001IA1249MD1710031+9999REMSYN070AAXX  16031 23256 32998 01204 11317 21347 40460 57003 333 48021 55011;EQDQ01  00002PRCP99
0181232560999992000111606004+67470+078720FM-12+000899999V0201201N004012200019N0500001N1-03061-03361104541ADDAA199000091GA1001+999999999GF100991001001999999001001KA1120N-03291MD1710061+9999REMSYN070AAXX  16061 23256 32999 01204 11306 21336 40454 57006 333 21329 93503;EQDQ01  00002PRCP99
0122232560999992000111609004+67470+078720FM-12+000899999V0201201N004012200019N0500001N1-02951-03261104491ADDGA1001+999999999GF100991001001999999001001MD1710051+9999REMSYN054AAXX  16091 23256 42999 01204 11295 21326 40449 57005;
0153232560999992000111612004+67470+078720FM-12+000899999V0201201N004012200019N0200001N1-02991-03301104421ADDGA1001+999999999GF100991001001999999001001MA1999999104031MD1710071+9999REMSYN070AAXX  16121 23256 42998 01204 11299 21330 30403 40442 57007 333 93503;
0175232560999992000111615004+67470+078720FM-12+000899999V0201201N005012200019N0200001N1-02881-03181104301ADDAA199000091GA1001+999999999GF100991001001999999001001KA1999M-02881MD1710121+9999REMSYN064AAXX  16151 23256 32998 01205 11288 21318 40430 57012 333 11288;EQDQ01  00002PRCP99
0197232560999992000111618004+67470+078720FM-12+000899999V0201201N005012200019N0200001N1-02791-03091104201ADDAA199000091GA1001+999999999GF100991001001999999001001KA1120M+99999MD1710101+9999REMSYN070AAXX  16181 23256 32998 01205 11279 21309 40420 57010 333 11288 93503;EQDQ01  00002PRCP99Q02 -02882ATMX  
0122232560999992000111621004+67470+078720FM-12+000899999V0201301N005012200019N0200001N1-02741-03041104181ADDGA1001+999999999GF100991001001999999001001MD1710011+9999REMSYN054AAXX  16211 23256 42998 01305 11274 21304 40418 57001;
0153232560999992000111700004+67470+078720FM-12+000899999V0201201N005012200019N0200001N1-02741-03041104171ADDGA1001+999999999GF100991001001999999001001MA1999999103791MD1710011+9999REMSYN070AAXX  17001 23256 42998 01205 11274 21304 30379 40417 57001 333 95503;
0191232560999992000111703004+67470+078720FM-12+000899999V0201201N005012200019N0200001N1-02711-03011104221ADDAA199000091AJ100219199999999GA1001+999999999GF100991001001999999001001IA1249MD1210051+9999REMSYN070AAXX  17031 23256 32998 01205 11271 21301 40422 52005 333 48021 55019;EQDQ01  00002PRCP99
0181232560999992000111706004+67470+078720FM-12+000899999V0201201N005012200019N0500001N1-02681-03001104251ADDAA199000091GA1001+999999999GF100991001001999999001001KA1120N-02881MD1210031+9999REMSYN070AAXX  17061 23256 32999 01205 11268 21300 40425 52003 333 21288 93503;EQDQ01  00002PRCP99
0122232560999992000111709004+67470+078720FM-12+000899999V0201301N005012200019N0500001N1-02631-02941104311ADDGA1001+999999999GF100991001001999999001001MD1210061+9999REMSYN054AAXX  17091 23256 42999 01305 11263 21294 40431 52006;
0153232560999992000111712004+67470+078720FM-12+000899999V0201201N005012200019N0200001N1-02601-02911104331ADDGA1001+999999999GF100991001001999999001001MA1999999103951MD1210021+9999REMSYN070AAXX  17121 23256 42998 01205 11260 21291 30395 40433 52002 333 93503;
0175232560999992000111715004+67470+078720FM-12+000899999V0201201N004012200019N0200001N1-02701-03011104381ADDAA199000091GA1001+999999999GF100991001001999999001001KA1999M-02591MD1210051+9999REMSYN064AAXX  17151 23256 32998 01204 11270 21301 40438 52005 333 11259;EQDQ01  00002PRCP99
0181232560999992000111718004+67470+078720FM-12+000899999V0201101N004012200019N0200001N1-02641-02951104401ADDAA199000091GA1001+999999999GF100991001001999999001001KA1120M-02591MD1210021+9999REMSYN070AAXX  17181 23256 32998 01104 11264 21295 40440 52002 333 11259 93503;EQDQ01  00002PRCP99
0122232560999992000111721004+67470+078720FM-12+000899999V0201201N005012200019N0200001N1-02621-02941104391ADDGA1001+999999999GF100991001001999999001001MD1710011+9999REMSYN054AAXX  17211 23256 42998 01205 11262 21294 40439 57001;
0153232560999992000111800004+67470+078720FM-12+000899999V0201201N004012200019N0200001N1-02661-02971104421ADDGA1001+999999999GF100991001001999999001001MA1999999104041MD1210031+9999REMSYN070AAXX  18001 23256 42998 01204 11266 21297 30404 40442 52003 333 93503;
0191232560999992000111803004+67470+078720FM-12+000899999V0201201N004012200019N0200001N1-02781-03091104431ADDAA199000091AJ100219199999999GA1001+999999999GF100991001001999999001001IA1249MD1410001+9999REMSYN070AAXX  18031 23256 32998 01204 11278 21309 40443 54000 333 48021 55023;EQDQ01  00002PRCP99
0181232560999992000111806004+67470+078720FM-12+000899999V0201101N005012200019N0500001N1-02771-03081104421ADDAA199000091GA1001+999999999GF100991001001999999001001KA1120N-02781MD1710011+9999REMSYN070AAXX  18061 23256 32999 01105 11277 21308 40442 57001 333 21278 93503;EQDQ01  00002PRCP99
0122232560999992000111809004+67470+078720FM-12+000899999V0201101N003012200019N0500001N1-02711-03011104371ADDGA1001+999999999GF100991001001999999001001MD1710041+9999REMSYN054AAXX  18091 23256 42999 01103 11271 21301 40437 57004;
0153232560999992000111812004+67470+078720FM-12+000899999V0201101N004012200019N0200001N1-02691-03001104331ADDGA1001+999999999GF100991001001999999001001MA1999999103951MD1710041+9999REMSYN070AAXX  18121 23256 42998 01104 11269 21300 30395 40433 57004 333 93503;
0175232560999992000111815004+67470+078720FM-12+000899999V0201001N004012200019N0200001N1-02721-03031104261ADDAA199000091GA1001+999999999GF100991001001999999001001KA1999M-02681MD1710071+9999REMSYN064AAXX  18151 23256 32998 01004 11272 21303 40426 57007 333 11268;EQDQ01  00002PRCP99
0181232560999992000111818004+67470+078720FM-12+000899999V0201001N003012200019N0200001N1-02701-03011104181ADDAA199000091GA1001+999999999GF100991001001999999001001KA1120M-02681MD1710081+9999REMSYN070AAXX  18181 23256 32998 01003 11270 21301 40418 57008 333 11268 93503;EQDQ01  00002PRCP99
0122232560999992000111821004+67470+078720FM-12+000899999V0200901N004012200019N0200001N1-02671-02981104001ADDGA1001+999999999GF100991001001999999001001MD1710181+9999REMSYN054AAXX  18211 23256 42998 00904 11267 21298 40400 57018;
0153232560999992000111900004+67470+078720FM-12+000899999V0201001N005012200019N0200001N1-02511-02821103871ADDGA1001+999999999GF100991001001999999001001MA1999999103491MD1710131+9999REMSYN070AAXX  19001 23256 42998 01005 11251 21282 30349 40387 57013 333 93503;
0181232560999992000111903004+67470+078720FM-12+000899999V0201001N006012200019N0200001N1-02431-02751103781ADDAA199000091AJ100219199999999GF102991001001999999001011IA1249MD1710091+9999REMSYN076AAXX  19031 23256 32998 21006 11243 21275 40378 57009 80001 333 48021 55021;EQDQ01  00002PRCP99
0171232560999992000111906004+67470+078720FM-12+000899999V0201001N006019999999N0500001N1-02301-02631103681ADDAA199000091GF105991021001999999031011KA1120N-02721MD1710101+9999REMSYN076AAXX  19061 23256 32999 51006 11230 21263 40368 57010 82031 333 21272 93500;EQDQ01  00002PRCP99
0112232560999992000111909004+67470+078720FM-12+000899999V0201101N005019999999N0500001N1-02271-02591103541ADDGF106991021001999999031011MD1710141+9999REMSYN060AAXX  19091 23256 42999 61105 11227 21259 40354 57014 82031;
0133232560999992000111912004+67470+078720FM-12+000899999V0201001N005019999999N0200001N1-02261-02581103441ADDGF106991021001999999031011MA1999999103061MD1710101+9999REMSYN066AAXX  19121 23256 42998 61005 11226 21258 30306 40344 57010 82031;
0165232560999992000111915004+67470+078720FM-12+000899999V0201001N007019999999N0200001N1-02161-02481103261ADDAA199000091GF105991021001999999031011KA1999M-02161MD1710171+9999REMSYN070AAXX  19151 23256 32998 51007 11216 21248 40326 57017 82031 333 11216;EQDQ01  00002PRCP99
0191232560999992000111918004+67470+078720FM-12+000899999V0201001N005012200019N0200001N1-02091-02421103171ADDAA199000091GA1001+999999999GF100991001001999999001001KA1999M+99999MD1710091+9999REMSYN064AAXX  19181 23256 32998 01005 11209 21242 40317 57009 333 11216;EQDQ01  00002PRCP99Q02 -02162ATMX  
0122232560999992000111921004+67470+078720FM-12+000899999V0200901N005012200019N0200001N1-02171-02491103101ADDGA1001+999999999GF100991001001999999001001MD1710071+9999REMSYN054AAXX  19211 23256 42998 00905 11217 21249 40310 57007;
0143232560999992000112000004+67470+078720FM-12+000899999V0200901N004012200019N0200001N1-02111-02361103101ADDGA1001+999999999GF100991001001999999001001MA1999999102731MD1410001+9999REMSYN060AAXX  20001 23256 42998 00904 11211 21236 30273 40310 54000;
0191232560999992000112003004+67470+078720FM-12+000899999V0200901N003012200019N0200001N1-02261-02511103071ADDAA199000091AJ100219199999999GA1001+999999999GF100991001001999999001001IA1249MD1710041+9999REMSYN070AAXX  20031 23256 32998 00903 11226 21251 40307 57004 333 48021 55010;EQDQ01  00002PRCP99
0175232560999992000112006004+67470+078720FM-12+000899999V0200801N005012200019N0500001N1-02181-02501103101ADDAA199000091GA1001+999999999GF100991001001999999001001KA1999N-02301MD1210041+9999REMSYN064AAXX  20061 23256 32999 00805 11218 21250 40310 52004 333 21230;EQDQ01  00002PRCP99
0122232560999992000112009004+67470+078720FM-12+000899999V0200801N004012200019N0500001N1-02151-02471103131ADDGA1001+999999999GF100991001001999999001001MD1210031+9999REMSYN054AAXX  20091 23256 42999 00804 11215 21247 40313 52003;
0143232560999992000112012004+67470+078720FM-12+000899999V0200801N004012200019N0200001N1-02251-02571103151ADDGA1001+999999999GF100991001001999999001001MA1999999102781MD1210021+9999REMSYN060AAXX  20121 23256 42998 00804 11225 21257 30278 40315 52002;
0175232560999992000112015004+67470+078720FM-12+000899999V0200901N003012200019N0200001N1-02341-02661103221ADDAA199000091GA1001+999999999GF100991001001999999001001KA1999M-02011MD1210061+9999REMSYN064AAXX  20151 23256 32998 00903 11234 21266 40322 52006 333 11201;EQDQ01  00002PRCP99
0175232560999992000112018004+67470+078720FM-12+000899999V0200901N003012200019N0200001N1-02441-02761103331ADDAA199000091GA1001+999999999GF100991001001999999001001KA1999M-02011MD1210111+9999REMSYN064AAXX  20181 23256 32998 00903 11244 21276 40333 52011 333 11201;EQDQ01  00002PRCP99
0122232560999992000112021004+67470+078720FM-12+000899999V0200901N002012200019N0200001N1-02601-02911103531ADDGA1001+999999999GF100991001001999999001001MD1210021+9999REMSYN054AAXX  20211 23256 42998 00902 11260 21291 40353 52002;
0143232560999992000112100004+67470+078720FM-12+000899999V0200701N003012200019N0200001N1-02641-02951103371ADDGA1001+999999999GF100991001001999999001001MA1999999102991MD1210021+9999REMSYN060AAXX  21001 23256 42998 00703 11264 21295 30299 40337 52002;
0191232560999992000112103004+67470+078720FM-12+000899999V0201001N003012200019N0200001N1-02701-03011103411ADDAA199000091AJ100219199999999GA1001+999999999GF100991001001999999001001IA1249MD1210041+9999REMSYN070AAXX  21031 23256 32998 01003 11270 21301 40341 52004 333 48021 55018;EQDQ01  00002PRCP99
0175232560999992000112106004+67470+078720FM-12+000899999V0201301N004012200019N0200001N1-02611-02921103321ADDAA199000091GA1001+999999999GF100991001001999999001001KA1999N-02701MD1710091+9999REMSYN064AAXX  21061 23256 32998 01304 11261 21292 40332 57009 333 21270;EQDQ01  00002PRCP99
0122232560999992000112109004+67470+078720FM-12+000899999V0201301N002012200019N0500001N1-02741-03041103281ADDGA1001+999999999GF100991001001999999001001MD1710041+9999REMSYN054AAXX  21091 23256 42999 01302 11274 21304 40328 57004;
0143232560999992000112112004+67470+078720FM-12+000899999V0201501N002012200019N0200001N1-02721-03031103131ADDGA1001+999999999GF100991001001999999001001MA1999999102751MD1710151+9999REMSYN060AAXX  21121 23256 42998 01502 11272 21303 30275 40313 57015;
0175232560999992000112115004+67470+078720FM-12+000899999V0201901N003012200019N0200001N1-02601-02911102951ADDAA199000091GA1001+999999999GF100991001001999999001001KA1999M-02561MD1710181+9999REMSYN064AAXX  21151 23256 32998 01903 11260 21291 40295 57018 333 11256;EQDQ01  00002PRCP99
0175232560999992000112118004+67470+078720FM-12+000899999V0202101N005012200019N0200001N1-02781-03091102751ADDAA199000091GA1001+999999999GF100991001001999999001001KA1999M-02561MD1710201+9999REMSYN064AAXX  21181 23256 32998 02105 11278 21309 40275 57020 333 11256;EQDQ01  00002PRCP99
0122232560999992000112121004+67470+078720FM-12+000899999V0202201N005012200019N0200001N1-02811-03111102401ADDGA1001+999999999GF100991001001999999001001MD1710351+9999REMSYN054AAXX  21211 23256 42998 02205 11281 21311 40240 57035;
0143232560999992000112200004+67470+078720FM-12+000899999V0202301N005012200019N0200001N1-02621-02941102081ADDGA1001+999999999GF100991001001999999001001MA1999999101701MD1710321+9999REMSYN060AAXX  22001 23256 42998 02305 11262 21294 30170 40208 57032;
0209232560999992000112203004+67470+078720FM-12+000899999V0202301N011010039019N0200001N1-02171-02421101651ADDAJ100219199999999AY111031AY211031GA1061+003909059GF108991061051004501071999GJ100729IA1249MD1710421+9999MW1711REMSYN088AAXX  22031 23256 /1498 82311 11217 21242 40165 57042 77111 8657/ 333 48021 55012 86613;
0242232560999992000112206004+67470+078720FM-12+000899999V0202201N01201002101CN0020001N1-01841-02101101211ADDAA100000791AY171061AY231061GA1041+001809079GF108991081051002501999999KA1120N-02811MD1710441+9999MW1711OA140101501OA249901601REMSYN106AAXX  22061 23256 11395 82212 11184 21210 40121 57044 69900 77173 885// 333 21281 84706 91015 91116 92991;
0150232560999992000112209004+67470+078720FM-12+000899999V0202201N013010003019N0005001N1-01641-01901100861ADDAY171031AY231031GA1091+999999999GF109991091999999999999999MD1710341+9999MW1391REMSYN060AAXX  22091 23256 41/93 92213 11164 21190 40086 57034 73973;
0215232560999992000112212004+67470+078720FM-12+000899999V0202201N012010003019N0005001N1-01471-01671100441ADDAY171061AY231061GA1091+999999999GF109991091999999999999999MA1999999100091MD1710411+9999MW1391OA140101201OA249901501REMSYN088AAXX  22121 23256 41/93 92212 11147 21167 30009 40044 57041 73973 333 91012 91115 92992;
0173232560999992000112215004+67470+078720FM-12+000899999V0202301N012010003019N0005001N1-01041-01241100021ADDAY131031AY221031GA1091+999999999GF109991091999999999999999KA1999M-01041MD1710421+9999MW1391REMSYN070AAXX  22151 23256 /1/93 92312 11104 21124 40002 57042 73932 333 11104;
0261232560999992000112218004+67470+078720FM-12+000899999V0202601N010010015019N0010001N1-00631-00781099691ADDAA100004191AY181061AY231061GA1051+001509079GF108991081031001501999999KA1120M+99999MD1710321+9999MW1851OA140101301OA249901601REMSYN106AAXX  22181 23256 11294 82610 11063 21078 49969 57032 60040 78583 883// 333 11104 85705 91013 91116 92991;EQDQ01 -01042ATMX  
0166232560999992000112221004+67470+078720FM-12+000899999V0203401N009010024019N0020001N1-00751-00841099621ADDAY181031AY231031GA1051+002409069GF108991081031001501999999MD1710071+9999MW1851REMSYN076AAXX  22211 23256 41295 83409 11075 21084 49962 57007 78583 883// 333 85708;
0151232560999992000112303004+67470+078720FM-12+000899999V0203501N006010300019N0200001N1-01571+99999100081ADDAJ100219199999999GF105991031051012501031001IA1249MD1210261+9999REMSYN076AAXX  23031 23256 /2698 53506 11157 20024 40008 52026 83530 333 48021 55000;
0171232560999992000112306004+67470+078720FM-12+000899999V0202601N005019999999N0200001N1-02001-02261100161ADDAA100003091GF106991041001999999031011KA1999N+99999MD1210071+9999REMSYN076AAXX  23061 23256 12998 62605 11200 21226 40016 52007 60030 84031 333 21157;EQDQ01 -01572ATMN  
0166232560999992000112309004+67470+078720FM-12+000899999V0202401N010010060019N0020001N1-01751-02011099941ADDAY131031AY221031GA1051+006009059GF108991051051008001071999MD1710221+9999MW1711REMSYN076AAXX  23091 23256 41595 82410 11175 21201 49994 57022 77132 8557/ 333 85620;
0188232560999992000112312004+67470+078720FM-12+000899999V0203001N007012200019N0200001N1-01301-01571099861ADDAY171061AY231061GF108991021051004501001011MA1999999099511MD1710071+9999MW1361OA149901801REMSYN088AAXX  23121 23256 41498 83007 11130 21157 39951 49986 57007 73673 82501 333 91118 92990;
0163232560999992000112315004+67470+078720FM-12+000899999V0202701N005019999999N0200001N1-01551-01821099881ADDAY131031AY221031GF107991001001999999001011KA1999M-01191MD1210021+9999MW1021REMSYN076AAXX  23151 23256 /1998 72705 11155 21182 49988 52002 70232 80001 333 11119;
0202232560999992000112318004+67470+078720FM-12+000899999V0202801N008010063019N0020001N1-01681-01941099871ADDAA100002091AY131061AY221061GA1081+006309059GF108991081051008001999999KA1120M-01191MD1710011+9999MW1711REMSYN088AAXX  23181 23256 11595 82808 11168 21194 49987 57001 60020 77132 885// 333 11119 88621;
0150232560999992000112321004+67470+078720FM-12+000899999V0202901N009012200019N0020001N1-01451-01651099811ADDAY171031AY231031GA1001+999999999GF100991001001999999001001MD1710061+9999MW1381REMSYN060AAXX  23211 23256 41995 02909 11145 21165 49981 57006 73873;
0198232560999992000112400004+67470+078720FM-12+000899999V0203001N007012200019N0200001N1-01621-01961099881ADDAY171061AY231061GA1001+999999999GF100991001001999999001001MA1999999099531MD1210071+9999MW1361OA149901201REMSYN082AAXX  24001 23256 41998 03007 11162 21196 39953 49988 52007 73673 333 91112 92990;
0209232560999992000112403004+67470+078720FM-12+000899999V0203301N008010099019N0040001N1-01961-02221100181ADDAJ100229199999999AY171031AY231031GA1081+009909059GF108991081051012501999999GJ100009IA1249MD1210291+9999MW1381REMSYN088AAXX  24031 23256 /1696 83308 11196 21222 40018 52029 73873 885// 333 48022 55000 88633;
0209232560999992000112406004+67470+078720FM-12+000899999V0203301N004012200019N0200001N1-02431-02681100601ADDAA100001091AY171061AY231061GA1001+999999999GF100991001001999999001001KA1999N+99999MD1210411+9999MW1021REMSYN076AAXX  24061 23256 11998 03304 11243 21268 40060 52041 60010 70273 333 21198;EQDQ01 -01982ATMN  
0122232560999992000112409004+67470+078720FM-12+000899999V0203201N004012200019N0200001N1-02621-02871100981ADDGA1001+999999999GF100991001001999999001001MD1210381+9999REMSYN054AAXX  24091 23256 42998 03204 11262 21287 40098 52038;
0145232560999992000112415004+67470+078720FM-12+000899999V0202601N004012200019N0200001N1-02971-03281101351ADDGA1001+999999999GF100991001001999999001001KA1999M-01961MD1210131+9999REMSYN064AAXX  24151 23256 /2998 02604 11297 21328 40135 52013 333 11196;
0162232560999992000112418004+67470+078720FM-12+000899999V0202301N006012200019N0200001N1-02961-03261101371ADDAA100000791GA1001+999999999GF100991001001999999001001KA1999M-01961MD1210021+9999REMSYN070AAXX  24181 23256 12998 02306 11296 21326 40137 52002 69900 333 11196;
0122232560999992000112421004+67470+078720FM-12+000899999V0202201N005012200019N0200001N1-02641-02951101311ADDGA1001+999999999GF100991001001999999001001MD1710051+9999REMSYN054AAXX  24211 23256 42998 02205 11264 21295 40131 57005;
0143232560999992000112500004+67470+078720FM-12+000899999V0202201N005012200019N0200001N1-02591-02911101251ADDGA1001+999999999GF100991001001999999001001MA1999999100881MD1710061+9999REMSYN060AAXX  25001 23256 42998 02205 11259 21291 30088 40125 57006;
0181232560999992000112503004+67470+078720FM-12+000899999V0202201N004019999999N0200001N1-02431-02751101141ADDAA199000091AJ100219199999999GF107991071001999999031001IA1249MD1710111+9999REMSYN076AAXX  25031 23256 32998 72204 11243 21275 40114 57011 87030 333 48021 55000;EQDQ01  00002PRCP99
0171232560999992000112506004+67470+078720FM-12+000899999V0202001N003019999999N0500001N1-02481-02801101081ADDAA199000091GF106991021001999999031011KA1120N-03031MD1710061+9999REMSYN076AAXX  25061 23256 32999 62003 11248 21280 40108 57006 82031 333 21303 93503;EQDQ01  00002PRCP99
0150232560999992000112509004+67470+078720FM-12+000899999V0201501N001010003019N0005001N1-02661-02971101011ADDAY141031AY221031GA1091+999999999GF109991091999999999999999MD1710071+9999MW1491REMSYN060AAXX  25091 23256 41/93 91501 11266 21297 40101 57007 74942;
0193232560999992000112512004+67470+078720FM-12+000899999V0202001N002010009019N0010001N1-02621-02941101001ADDAY141061AY221061GA1081+000909079GF108991081061001501999999MA1999999100631MD1710011+9999MW1101REMSYN088AAXX  25121 23256 41294 82002 11262 21294 30063 40100 57001 71042 886// 333 88703 93506;
0215232560999992000112515004+67470+078720FM-12+000899999V0202201N002010099019N0200001N1-02451-02771100911ADDAA199000091AY141031AY221031GA1071+009909059GF107991071051012501001001KA1120M-02411MD1710091+9999MW1021REMSYN082AAXX  25151 23256 31698 72202 11245 21277 40091 57009 70242 87500 333 11241 87633;EQDQ01  00002PRCP99
0181232560999992000112518004+67470+078720FM-12+000899999V0202601N003012200019N0200001N1-02461-02771100881ADDAA199000091GA1001+999999999GF100991001001999999001001KA1120M-02411MD1710031+9999REMSYN070AAXX  25181 23256 32998 02603 11246 21277 40088 57003 333 11241 93512;EQDQ01  00002PRCP99
0166232560999992000112521004+67470+078720FM-12+000899999V0202701N005010021019N0200001N1-01941-02271100871ADDAY171031AY211031GA1051+002109069GF108991081051002501999999MD1710011+9999MW1711REMSYN076AAXX  25211 23256 41398 82705 11194 21227 40087 57001 77171 885// 333 85707;
0193232560999992000112600004+67470+078720FM-12+000899999V0203401N005010024019N0200001N1-02261-02581100901ADDAY171061AY221061GA1051+002409079GF108991081051002501999999MA1999999100531MD1210031+9999MW1711REMSYN088AAXX  26001 23256 41398 83405 11226 21258 30053 40090 52003 77172 885// 333 85708 93512;
0215232560999992000112606004+67470+078720FM-12+000899999V0203101N004012200019N0200001N1-02991-03301101311ADDAA100000391AY171061AY211061GA1001+999999999GF100991001001999999001001KA1120N+99999MD1210181+9999MW1021REMSYN082AAXX  26061 23256 11998 03104 11299 21330 40131 52018 69930 70271 333 21264 93510;EQDQ01 -02642ATMN  
0122232560999992000112609004+67470+078720FM-12+000899999V0203001N004012200019N0200001N1-03151-03521101491ADDGA1001+999999999GF100991001001999999001001MD1210181+9999REMSYN054AAXX  26091 23256 42998 03004 11315 21352 40149 52018;
0153232560999992000112612004+67470+078720FM-12+000899999V0202801N005012200019N0200001N1-03151-03521101601ADDGA1001+999999999GF100991001001999999001001MA1999999101221MD1210111+9999REMSYN070AAXX  26121 23256 42998 02805 11315 21352 30122 40160 52011 333 93508;
0175232560999992000112615004+67470+078720FM-12+000899999V0203101N004012200019N0200001N1-03131-03501101721ADDAA199000091GA1001+999999999GF100991001001999999001001KA1999M-02641MD1210121+9999REMSYN064AAXX  26151 23256 32998 03104 11313 21350 40172 52012 333 11264;EQDQ01  00002PRCP99
0181232560999992000112618004+67470+078720FM-12+000899999V0203201N003012200019N0200001N1-03381-03751101801ADDAA199000091GA1001+999999999GF100991001001999999001001KA1120M-02641MD1210071+9999REMSYN070AAXX  26181 23256 32998 03203 11338 21375 40180 52007 333 11264 93508;EQDQ01  00002PRCP99
0122232560999992000112621004+67470+078720FM-12+000899999V0203201N003012200019N0200001N1-03611-03971101891ADDGA1001+999999999GF100991001001999999001001MD1210091+9999REMSYN054AAXX  26211 23256 42998 03203 11361 21397 40189 52009;
0153232560999992000112700004+67470+078720FM-12+000899999V0203301N003012200019N0200001N1-03761-04111101981ADDGA1001+999999999GF100991001001999999001001MA1999999101581MD1210081+9999REMSYN070AAXX  27001 23256 42998 03303 11376 21411 30158 40198 52008 333 93508;
0181232560999992000112706004+67470+078720FM-12+000899999V0203101N001012200019N0200001N1-03801-04151102041ADDAA199000091GA1001+999999999GF100991001001999999001001KA1120N-03881MD1210051+9999REMSYN070AAXX  27061 23256 32998 03101 11380 21415 40204 52005 333 21388 93508;EQDQ01  00002PRCP99
0112232560999992000112709004+67470+078720FM-12+000899999V0202701N002012200019N0200001N1-03831-04151102031ADDGF101991001001999999001011MD1710011+9999REMSYN060AAXX  27091 23256 42998 12702 11383 21415 40203 57001 80001;
0153232560999992000112712004+67470+078720FM-12+000899999V0203401N001012200019N0200001N1-03811-04151101981ADDGA1001+999999999GF100991001001999999001001MA1999999101581MD1710051+9999REMSYN070AAXX  27121 23256 42998 03401 11381 21415 30158 40198 57005 333 93508;
0203232560999992000112715004+67470+078720FM-12+000899999V0202701N001012200019N0010001N1-03881-04241101911ADDAA199000091AY101031AY201031GA1001+999999999GF100991001001999999001001KA1999M-03801MD1710071+9999MW1041REMSYN070AAXX  27151 23256 31994 02701 11388 21424 40191 57007 70400 333 11380;EQDQ01  00002PRCP99
0209232560999992000112718004+67470+078720FM-12+000899999V0200901N001012200019N0020001N1-03981+99999101831ADDAA199000091AY101061AY201061GA1001+999999999GF100991001001999999001001KA1120M-03801MD1710081+9999MW1041REMSYN076AAXX  27181 23256 31995 00901 11398 21344 40183 57008 70400 333 11380 93508;EQDQ01  00002PRCP99
0150232560999992000112721004+67470+078720FM-12+000899999V0201001N002012200019N0020001N1-03961-04291101811ADDAY101031AY201031GA1001+999999999GF100991001001999999001001MD1710021+9999MW1041REMSYN060AAXX  27211 23256 41995 01002 11396 21429 40181 57002 70400;
0181232560999992000112800004+67470+078720FM-12+000899999V0200501N002012200019N0040001N1-04061-04451101811ADDAY101061AY201061GA1001+999999999GF100991001001999999001001MA1999999101411MD1410001+9999MW1041REMSYN076AAXX  28001 23256 41996 00502 11406 21445 30141 40181 54000 70400 333 93508;
0191232560999992000112803004+67470+078720FM-12+000899999V0200501N001012200019N0200001N1-03971-04351101851ADDAA199000091AJ100219199999999GA1001+999999999GF100991001001999999001001IA1249MD1210041+9999REMSYN070AAXX  28031 23256 32998 00501 11397 21435 40185 52004 333 48021 55000;EQDQ01  00002PRCP99
0181232560999992000112806004+67470+078720FM-12+000899999V0200301N001012200019N0100001N1-03971-04351101911ADDAA199000091GA1001+999999999GF100991001001999999001001KA1120N-04071MD1210061+9999REMSYN070AAXX  28061 23256 32997 00301 11397 21435 40191 52006 333 21407 93508;EQDQ01  00002PRCP99
0150232560999992000112809004+67470+078720FM-12+000899999V0200201N002012200019N0040001N1-04001-04411101971ADDAY101031AY201031GA1001+999999999GF100991001001999999001001MD1210061+9999MW1041REMSYN060AAXX  28091 23256 41996 00202 11400 21441 40197 52006 70400;
0181232560999992000112812004+67470+078720FM-12+000899999V0203501N002012200019N0040001N1-03991-04411102081ADDAY101061AY201061GA1001+999999999GF100991001001999999001001MA1999999101681MD1210111+9999MW1041REMSYN076AAXX  28121 23256 41996 03502 11399 21441 30168 40208 52011 70400 333 93508;
0203232560999992000112815004+67470+078720FM-12+000899999V0203101N002012200019N0040001N1-04141-04561102141ADDAA199000091AY101031AY201031GA1001+999999999GF100991001001999999001001KA1999M-03971MD1210061+9999MW1041REMSYN070AAXX  28151 23256 31996 03102 11414 21456 40214 52006 70400 333 11397;EQDQ01  00002PRCP99
0209232560999992000112818004+67470+078720FM-12+000899999V0203101N002012200019N0040001N1-04281-04681102191ADDAA199000091AY101061AY201061GA1001+999999999GF100991001001999999001001KA1120M-03971MD1210041+9999MW1041REMSYN076AAXX  28181 23256 31996 03102 11428 21468 40219 52004 70400 333 11397 93508;EQDQ01  00002PRCP99
0150232560999992000112821004+67470+078720FM-12+000899999V0203301N001012200019N0040001N1-04321-04741102201ADDAY101031AY201031GA1001+999999999GF100991001001999999001001MD1210011+9999MW1041REMSYN060AAXX  28211 23256 41996 03301 11432 21474 40220 52001 70400;
0181232560999992000112900004+67470+078720FM-12+000899999V0200201N003012200019N0040001N1-04421-04821102261ADDAY101061AY201061GA1001+999999999GF100991001001999999001001MA1999999101851MD1210061+9999MW1041REMSYN076AAXX  29001 23256 41996 00203 11442 21482 30185 40226 52006 70400 333 93508;
0191232560999992000112903004+67470+078720FM-12+000899999V0200201N002012200019N0200001N1-04481-04891102321ADDAA199000091AJ100219199999999GA1001+999999999GF100991001001999999001001IA1249MD1210061+9999REMSYN070AAXX  29031 23256 32998 00202 11448 21489 40232 52006 333 48021 55000;EQDQ01  00002PRCP99
0209232560999992000112906004+67470+078720FM-12+000899999V0200101N002012200019N0040001N1-04381-04741102351ADDAA199000091AY101061AY201061GA1001+999999999GF100991001001999999001001KA1120N-04491MD1210031+9999MW1041REMSYN076AAXX  29061 23256 31996 00102 11438 21474 40235 52003 70400 333 21449 93508;EQDQ01  00002PRCP99
0181232560999992000112912004+67470+078720FM-12+000899999V0203401N001012200019N0020001N1-04261-04681102451ADDAY101061AY201061GA1001+999999999GF100991001001999999001001MA1999999102041MD1210051+9999MW1041REMSYN076AAXX  29121 23256 41995 03401 11426 21468 30204 40245 52005 70400 333 93508;
0203232560999992000112915004+67470+078720FM-12+000899999V0203001N002012200019N0040001N1-04321-04741102451ADDAA199000091AY101031AY201031GA1001+999999999GF100991001001999999001001KA1999M-04261MD1410001+9999MW1041REMSYN070AAXX  29151 23256 31996 03002 11432 21474 40245 54000 70400 333 11426;EQDQ01  00002PRCP99
0209232560999992000112918004+67470+078720FM-12+000899999V0203001N002012200019N0040001N1-04381-04741102461ADDAA199000091AY101061AY201061GA1001+999999999GF100991001001999999001001KA1120M-04261MD1210011+9999MW1041REMSYN076AAXX  29181 23256 31996 03002 11438 21474 40246 52001 70400 333 11426 93508;EQDQ01  00002PRCP99
0150232560999992000112921004+67470+078720FM-12+000899999V0202801N002012200019N0040001N1-04411-04821102471ADDAY101031AY201031GA1001+999999999GF100991001001999999001001MD1210011+9999MW1041REMSYN060AAXX  29211 23256 41996 02802 11441 21482 40247 52001 70400;
0181232560999992000113000004+67470+078720FM-12+000899999V0202801N003012200019N0040001N1-04321-04741102521ADDAY101061AY201061GA1001+999999999GF100991001001999999001001MA1999999102111MD1210051+9999MW1041REMSYN076AAXX  30001 23256 41996 02803 11432 21474 30211 40252 52005 70400 333 93508;
0219232560999992000113003004+67470+078720FM-12+000899999V0202901N004012200019N0040001N1-04071-04451102561ADDAA199000091AJ100219199999999AY101031AY201031GA1001+999999999GF100991001001999999001001IA1249MD1210051+9999MW1041REMSYN076AAXX  30031 23256 31996 02904 11407 21445 40256 52005 70400 333 48021 55000;EQDQ01  00002PRCP99
0209232560999992000113006004+67470+078720FM-12+000899999V0202701N002012200019N0040001N1-04111-04511102671ADDAA199000091AY101061AY201061GA1001+999999999GF100991001001999999001001KA1120N-04431MD1210111+9999MW1041REMSYN076AAXX  30061 23256 31996 02702 11411 21451 40267 52011 70400 333 21443 93508;EQDQ01  00002PRCP99
0150232560999992000113009004+67470+078720FM-12+000899999V0202401N003012200019N0040001N1-04261-04681102801ADDAY101031AY201031GA1001+999999999GF100991001001999999001001MD1210121+9999MW1041REMSYN060AAXX  30091 23256 41996 02403 11426 21468 40280 52012 70400;
0181232560999992000113012004+67470+078720FM-12+000899999V0202301N003012200019N0040001N1-04251-04611102891ADDAY101061AY201061GA1001+999999999GF100991001001999999001001MA1999999102481MD1210091+9999MW1041REMSYN076AAXX  30121 23256 41996 02303 11425 21461 30248 40289 52009 70400 333 93508;
0203232560999992000113015004+67470+078720FM-12+000899999V0202201N003012200019N0040001N1-04231-04611102941ADDAA199000091AY101031AY201031GA1001+999999999GF100991001001999999001001KA1999M-04071MD1210061+9999MW1041REMSYN070AAXX  30151 23256 31996 02203 11423 21461 40294 52006 70400 333 11407;EQDQ01  00002PRCP99
0181232560999992000113018004+67470+078720FM-12+000899999V0202001N003012200019N0020001N1-04121-04511103031ADDAA199000091GA1001+999999999GF100991001001999999001001KA1120M-04071MD1210091+9999REMSYN070AAXX  30181 23256 31995 02003 11412 21451 40303 52009 333 11407 93508;EQDQ01  00002PRCP99
0150232560999992000113021004+67470+078720FM-12+000899999V0202001N003012200019N0020001N1-03781-04111103091ADDAY101031AY201031GA1001+999999999GF100991001001999999001001MD1210061+9999MW1041REMSYN060AAXX  30211 23256 41995 02003 11378 21411 40309 52006 70400;
0181232560999992000120100004+67470+078720FM-12+000899999V0201401N003012200019N0020001N1-04121-04511103091ADDAY101061AY201061GA1001+999999999GF100991001001999999001001MA1999999102691MD1410001+9999MW1041REMSYN076AAXX  01001 23256 41995 01403 11412 21451 30269 40309 54000 70400 333 93508;
0219232560999992000120103004+67470+078720FM-12+000899999V0201201N003012200019N0020001N1-04121-04511103111ADDAA199000091AJ100219199999999AY101031AY201031GA1001+999999999GF100991001001999999001001IA1249MD1210021+9999MW1041REMSYN076AAXX  01031 23256 31995 01203 11412 21451 40311 52002 70400 333 48021 55000;EQDQ01  00002PRCP99
0209232560999992000120106004+67470+078720FM-12+000899999V0201201N003012200019N0005001N1-04051-04451103061ADDAA199000091AY101061AY201061GA1001+999999999GF100991001001999999001001KA1120N-04261MD1710051+9999MW1041REMSYN076AAXX  01061 23256 31993 01203 11405 21445 40306 57005 70400 333 21426 93508;EQDQ01  00002PRCP99
0150232560999992000120109004+67470+078720FM-12+000899999V0201101N004012200019N0010001N1-03961-04351103041ADDAY101031AY201031GA1001+999999999GF100991001001999999001001MD1710021+9999MW1041REMSYN060AAXX  01091 23256 41994 01104 11396 21435 40304 57002 70400;
0181232560999992000120112004+67470+078720FM-12+000899999V0201201N005012200019N0020001N1-02891-04311102921ADDAY101061AY201061GA1001+999999999GF100991001001999999001001MA1999999102521MD1710121+9999MW1041REMSYN076AAXX  01121 23256 41995 01205 11289 21431 30252 40292 57012 70400 333 93508;
0203232560999992000120115004+67470+078720FM-12+000899999V0201201N005012200019N0020001N1-03781-04181102771ADDAA199000091AY101031AY201031GA1001+999999999GF100991001001999999001001KA1999M-03781MD1710151+9999MW1041REMSYN070AAXX  01151 23256 31995 01205 11378 21418 40277 57015 70400 333 11378;EQDQ01  00002PRCP99
0225232560999992000120118004+67470+078720FM-12+000899999V0201101N006012200019N0020001N1-03651-04071102571ADDAA199000091AY101061AY201061GA1001+999999999GF100991001001999999001001KA1120M+99999MD1710191+9999MW1041REMSYN076AAXX  01181 23256 31995 01106 11365 21407 40257 57019 70400 333 11378 93508;EQDQ01  00002PRCP99Q02 -03782ATMX  
0150232560999992000120121004+67470+078720FM-12+000899999V0201201N006012200019N0020001N1-03601-04041102401ADDAY101031AY201031GA1001+999999999GF100991001001999999001001MD1710171+9999MW1041REMSYN060AAXX  01211 23256 41995 01206 11360 21404 40240 57017 70400;
0215232560999992000120200004+67470+078720FM-12+000899999V0201101N009012200019N0020001N1-03501-03941102241ADDAY101061AY241061GA1001+999999999GF100991001001999999001001MA1999999101851MD1710161+9999MW1361OA140101201OA249901201REMSYN088AAXX  02001 23256 41995 01109 11350 21394 30185 40224 57016 73604 333 91012 91112 93508;
0209232560999992000120203004+67470+078720FM-12+000899999V0201101N010019999999N0040001N1-03471-03841102041ADDAA199000091AJ100219199999999AY131031AY231031GF106991061001999999031001IA1249MD1710201+9999MW1381REMSYN082AAXX  02031 23256 31996 61110 11347 21384 40204 57020 73833 86030 333 48021 55000;EQDQ01  00002PRCP99
0233232560999992000120206004+67470+078720FM-12+000899999V0201001N010019999999N0040001N1-03371-03721101921ADDAA199000091AY131061AY231061GF108991031001999999031061KA1120N-03781MD1710121+9999MW1381OA140101301OA249901401REMSYN094AAXX  02061 23256 31996 81010 11337 21372 40192 57012 73833 83036 333 21378 91013 91114 93500;EQDQ01  00002PRCP99
0134232560999992000120209004+67470+078720FM-12+000899999V0201001N011019999999N0040001N1-03261-03611101771ADDAY131031AY221031GF108991999999999999999999MD1710151+9999MW1381REMSYN060AAXX  02091 23256 41996 81011 11326 21361 40177 57015 73832;
0188232560999992000120212004+67470+078720FM-12+000899999V0201101N009019999999N0200001N1-03161-03451101641ADDAY131061AY221061GF108991081001999999071999MA1999999101261MD1710121+9999MW1361OA140101201REMSYN088AAXX  02121 23256 41998 81109 11316 21345 30126 40164 57012 73632 8807/ 333 91012 91114;
0193232560999992000120215004+67470+078720FM-12+000899999V0201101N009019999999N0200001N1-03111-03401101581ADDAA199000091AY131031AY221031GF108991081001999999071999KA1999M-03101MD1710061+9999MW1361REMSYN076AAXX  02151 23256 31998 81109 11311 21340 40158 57006 73632 8807/ 333 11310;EQDQ01  00002PRCP99
0199232560999992000120218004+67470+078720FM-12+000899999V0201001N008019999999N0200001N1-03121-03421101551ADDAA199000091AY131061AY221061GF108991081001999999071999KA1120M-03101MD1710031+9999MW1361REMSYN082AAXX  02181 23256 31998 81008 11312 21342 40155 57003 73632 8807/ 333 11310 91112;EQDQ01  00002PRCP99
0140232560999992000120221004+67470+078720FM-12+000899999V0201001N008019999999N0200001N1-03141-03421101511ADDAY131031AY221031GF108991081001999999071999MD1710041+9999MW1361REMSYN066AAXX  02211 23256 11998 81008 11314 21342 40151 57004 73632 8807/;
0171232560999992000120300004+67470+078720FM-12+000899999V0201001N008012200019N0200001N1-03231-03521101511ADDAY131061AY211061GA1001+999999999GF100991001001999999001001MA1999999101131MD1410001+9999MW1361REMSYN066AAXX  03001 23256 41998 01008 11323 21352 30113 40151 54000 73631;
0209232560999992000120303004+67470+078720FM-12+000899999V0200801N006019999999N0200001N1-03131-03421101541ADDAA199000091AJ100229199999999AY131031AY211031GF105991001001999999001011IA1249MD1210031+9999MW1021REMSYN082AAXX  03031 23256 31998 50806 11313 21342 40154 52003 70231 80001 333 48022 55000;EQDQ01  00002PRCP99
0193232560999992000120306004+67470+078720FM-12+000899999V0200701N006019999999N0200001N1-03201-03501101561ADDAA199000091AY131061AY211061GF105991001001999999001011KA1999N-03231MD1210021+9999MW1021REMSYN076AAXX  03061 23256 31998 50706 11320 21350 40156 52002 70231 80001 333 21323;EQDQ01  00002PRCP99
0112232560999992000120309004+67470+078720FM-12+000899999V0200601N004012200019N0200001N1-03331-03621101591ADDGF103991001001999999001011MD1210021+9999REMSYN060AAXX  03091 23256 42998 30604 11333 21362 40159 52002 80001;
0133232560999992000120312004+67470+078720FM-12+000899999V0200401N003012200019N0200001N1-03411-03781101611ADDGF102991001001999999001011MA1999999101221MD1210021+9999REMSYN066AAXX  03121 23256 42998 20403 11341 21378 30122 40161 52002 80001;
0175232560999992000120315004+67470+078720FM-12+000899999V0200501N004012200019N0200001N1-03431-03781101611ADDAA199000091GA1001+999999999GF100991001001999999001001KA1999M-03111MD1410001+9999REMSYN064AAXX  03151 23256 32998 00504 11343 21378 40161 54000 333 11311;EQDQ01  00002PRCP99
0175232560999992000120318004+67470+078720FM-12+000899999V0200501N003012200019N0200001N1-03541-03901101611ADDAA199000091GA1001+999999999GF100991001001999999001001KA1999M-03111MD1410001+9999REMSYN064AAXX  03181 23256 32998 00503 11354 21390 40161 54000 333 11311;EQDQ01  00002PRCP99
0122232560999992000120321004+67470+078720FM-12+000899999V0200501N002012200019N0200001N1-03631-03971101611ADDGA1001+999999999GF100991001001999999001001MD1410001+9999REMSYN054AAXX  03211 23256 42998 00502 11363 21397 40161 54000;
0143232560999992000120400004+67470+078720FM-12+000899999V0200301N003012200019N0200001N1-03601+99999101611ADDGA1001+999999999GF100991001001999999001001MA1999999101221MD1410001+9999REMSYN060AAXX  04001 23256 42998 00303 11360 21307 30122 40161 54000;
0191232560999992000120403004+67470+078720FM-12+000899999V0200201N003012200019N0200001N1-03691-04041101641ADDAA199000091AJ100229199999999GA1001+999999999GF100991001001999999001001IA1249MD1210031+9999REMSYN070AAXX  04031 23256 32998 00203 11369 21404 40164 52003 333 48022 55000;EQDQ01  00002PRCP99
0175232560999992000120406004+67470+078720FM-12+000899999V0200101N003012200019N0500001N1-03681-04041101611ADDAA199000091GA1001+999999999GF100991001001999999001001KA1999N-03701MD1710031+9999REMSYN064AAXX  04061 23256 32999 00103 11368 21404 40161 57003 333 21370;EQDQ01  00002PRCP99
0122232560999992000120409004+67470+078720FM-12+000899999V0200201N002012200019N0200001N1-03691-04041101641ADDGA1001+999999999GF100991001001999999001001MD1210031+9999REMSYN054AAXX  04091 23256 42998 00202 11369 21404 40164 52003;
0143232560999992000120412004+67470+078720FM-12+000899999V0203301N002012200019N0200001N1-03581-03931101711ADDGA1001+999999999GF100991001001999999001001MA1999999101321MD1210071+9999REMSYN060AAXX  04121 23256 42998 03302 11358 21393 30132 40171 52007;
0175232560999992000120415004+67470+078720FM-12+000899999V0202901N002012200019N0200001N1-03731-04071101711ADDAA199000091GA1001+999999999GF100991001001999999001001KA1999M-03501MD1410001+9999REMSYN064AAXX  04151 23256 32998 02902 11373 21407 40171 54000 333 11350;EQDQ01  00002PRCP99
0175232560999992000120418004+67470+078720FM-12+000899999V0202701N002012200019N0200001N1-03701-04041101691ADDAA199000091GA1001+999999999GF100991001001999999001001KA1999M-03501MD1710021+9999REMSYN064AAXX  04181 23256 32998 02702 11370 21404 40169 57002 333 11350;EQDQ01  00002PRCP99
0122232560999992000120421004+67470+078720FM-12+000899999V0202801N002012200019N0200001N1-03671-04041101691ADDGA1001+999999999GF100991001001999999001001MD1410001+9999REMSYN054AAXX  04211 23256 42998 02802 11367 21404 40169 54000;
0179232560999992000120503004+67470+078720FM-12+000899999V0202101N005019999999N0200001N1-03011-03371101611ADDAJ100229199999999AY111031AY211031GF108991081001999999071999IA1249MD1710051+9999MW1711REMSYN082AAXX  05031 23256 /1998 82105 11301 21337 40161 57005 77111 8807/ 333 48022 55000;
0202232560999992000120506004+67470+078720FM-12+000899999V0202001N006010078019N0100001N1-02761-03111101451ADDAA100000791AY171061AY231061GA1081+007809059GF108991081051008001999999KA1120N-03781MD1710161+9999MW1711REMSYN088AAXX  05061 23256 11597 82006 11276 21311 40145 57016 69900 77173 885// 333 21378 88626;
0140232560999992000120509004+67470+078720FM-12+000899999V0201801N007019999999N0200001N1-02621-03011101331ADDAY171031AY231031GF108991081001999999071999MD1710111+9999MW1361REMSYN066AAXX  05091 23256 41998 81807 11262 21301 40133 57011 73673 8807/;
0161232560999992000120512004+67470+078720FM-12+000899999V0202001N005019999999N0200001N1-02771-03151101631ADDAY171061AY231061GF106991061001999999031001MA1999999100981MD1210021+9999MW1021REMSYN072AAXX  05121 23256 41998 62005 11277 21315 30098 40163 52002 70273 86030;
0135232560999992000120515004+67470+078720FM-12+000899999V0202001N006019999999N0200001N1-02861-03161101341ADDGF105991051001999999031001KA1999M-02621MD1710021+9999REMSYN070AAXX  05151 23256 /2998 52006 11286 21316 40134 57002 85030 333 11262;
0171232560999992000120518004+67470+078720FM-12+000899999V0202001N005019999999N0200001N1-02721-02961101371ADDAA100000191GF106991061001999999031001KA1999M+99999MD1210031+9999REMSYN076AAXX  05181 23256 12998 62005 11272 21296 40137 52003 69920 86030 333 11862;EQDQ01 -08622ATMX  
0166232560999992000120521004+67470+078720FM-12+000899999V0201301N004010099019N0200001N1-02821-03131101501ADDAY171031AY221031GA1081+009909059GF108991081051012501999999MD1210131+9999MW1711REMSYN076AAXX  05211 23256 41698 81304 11282 21313 40150 52013 77172 885// 333 88633;
0171232560999992000120600004+67470+078720FM-12+000899999V0201501N003012200019N0200001N1-02941-03241101621ADDAY171061AY221061GA1001+999999999GF100991001001999999001001MA1999999101241MD1210121+9999MW1021REMSYN066AAXX  06001 23256 41998 01503 11294 21324 30124 40162 52012 70272;
0161232560999992000120603004+67470+078720FM-12+000899999V0201301N004012200019N0200001N1-03221-03521101741ADDAJ100229199999999GA1001+999999999GF100991001001999999001001IA1249MD1210121+9999REMSYN070AAXX  06031 23256 /1998 01304 11322 21352 40174 52012 333 48022 55000;
0181232560999992000120606004+67470+078720FM-12+000899999V0201201N003012200019N0500001N1-03441-03741101871ADDAA100000791GA1001+999999999GF100991001001999999001001KA1999N+99999MD1210121+9999REMSYN070AAXX  06061 23256 12999 01203 11344 21374 40187 52012 69900 333 21322;EQDQ01 -03222ATMN  
0133232560999992000120609004+67470+078720FM-12+000899999V0201301N004012200019N0500001N1-03421-03711102001ADDAA199000021GA1001+999999999GF100991001001999999001001MD1210131+9999REMSYN054AAXX  06091 23256 32999 01304 11342 21371 40200 52013;
0152232560999992000120612004+67470+078720FM-12+000899999V0201401N004012200019N0200001N1-03441-03741999999ADDGA1001+999999999GF100991001001999999001001MA1999999101741MD1210131+9999ME1210139REMSYN060AAXX  06121 23256 42998 01404 11344 21374 30174 42013 52013;
0175232560999992000120615004+67470+078720FM-12+000899999V0201401N004012200019N0200001N1-03371-03651102151ADDAA199000091GA1001+999999999GF100991001001999999001001KA1999M-03221MD1210021+9999REMSYN064AAXX  06151 23256 32998 01404 11337 21365 40215 52002 333 11322;EQDQ01  00002PRCP99
0175232560999992000120618004+67470+078720FM-12+000899999V0201501N003012200019N0200001N1-03301-03601102201ADDAA199000091GA1001+999999999GF100991001001999999001001KA1999M-03221MD1210051+9999REMSYN064AAXX  06181 23256 32998 01503 11330 21360 40220 52005 333 11322;EQDQ01  00002PRCP99
0122232560999992000120621004+67470+078720FM-12+000899999V0201501N005012200019N0200001N1-03091-03381102111ADDGA1001+999999999GF100991001001999999001001MD1710081+9999REMSYN054AAXX  06211 23256 42998 01505 11309 21338 40211 57008;
0171232560999992000120700004+67470+078720FM-12+000899999V0201601N008012200019N0020001N1-02801-03111101971ADDAY131061AY201061GA1001+999999999GF100991001001999999001001MA1999999101591MD1710141+9999MW1381REMSYN066AAXX  07001 23256 41995 01608 11280 21311 30159 40197 57014 73830;
0209232560999992000120703004+67470+078720FM-12+000899999V0201601N008019999999N0020001N1-02561-02881101761ADDAA199000091AJ100229199999999AY131031AY211031GF106991061001999999031001IA1249MD1710201+9999MW1381REMSYN082AAXX  07031 23256 31995 61608 11256 21288 40176 57020 73831 86030 333 48022 55000;EQDQ01  00002PRCP99
0216232560999992000120706004+67470+078720FM-12+000899999V0201701N011019999999N0020001N1-02391-02941101651ADDAA199000091AY131061AY211061GF105991051001999999031001KA1120N-03371MD1710111+9999MW1391OA140101401REMSYN088AAXX  07061 23256 31995 51711 11239 21294 40165 57011 73931 85030 333 21337 91014 91114;EQDQ01  00002PRCP99
0140232560999992000120709004+67470+078720FM-12+000899999V0201601N011019999999N0020001N1-02241-02491101421ADDAY131031AY211031GF106991031001999999031011MD1710231+9999MW1381REMSYN066AAXX  07091 23256 41995 61611 11224 21249 40142 57023 73831 83031;
0188232560999992000120712004+67470+078720FM-12+000899999V0201601N011019999999N0020001N1-02101-02351101181ADDAY131061AY221061GF105991051001999999031001MA1999999100811MD1710241+9999MW1391OA140101401REMSYN088AAXX  07121 23256 41995 51611 11210 21235 30081 40118 57024 73932 85030 333 91014 91114;
0193232560999992000120715004+67470+078720FM-12+000899999V0201501N011019999999N0040001N1-02161-02481100701ADDAA199000091AY131031AY221031GF105991051001999999031001KA1999M-02101MD1710471+9999MW1381REMSYN076AAXX  07151 23256 31996 51511 11216 21248 40070 57047 73832 85030 333 11210;EQDQ01  00002PRCP99
0233232560999992000120718004+67470+078720FM-12+000899999V0201501N010019999999N0200001N1-02101-02501100441ADDAA199000091AY131061AY231061GF108991081001999999071999KA1120M-02101MD1710261+9999MW1361OA140101401OA249901401REMSYN094AAXX  07181 23256 31998 81510 11210 21250 40044 57026 73633 8807/ 333 11210 91014 91114 92990;EQDQ01  00002PRCP99
0140232560999992000120721004+67470+078720FM-12+000899999V0201601N012019999999N0040001N1-01831-02331100091ADDAY171031AY231031GF108991081001999999071999MD1710351+9999MW1711REMSYN066AAXX  07211 23256 41996 81612 11183 21233 40009 57035 77173 8807/;
0227232560999992000120800004+67470+078720FM-12+000899999V0201801N012010018019N0020001N1-01841-02101100041ADDAY171061AY231061GA1051+001809079GF108991081051001501999999MA1999999099681MD1710051+9999MW1711OA140101501OA249901701REMSYN100AAXX  08001 23256 41295 81812 11184 21210 39968 40004 57005 77173 885// 333 85706 91015 91117 92992;
0209232560999992000120803004+67470+078720FM-12+000899999V0201801N00901001201CN0020001N1-01771-02031100011ADDAJ100219199999999AY171031AY231031GA1041+001809069GF108991081051001501999999GJ100009IA1249MD1710031+9999MW1711REMSYN088AAXX  08031 23256 /1295 81809 11177 21203 40001 57003 77173 885// 333 48021 55000 84706;
0242232560999992000120806004+67470+078720FM-12+000899999V0201801N00901001201CN0020001N1-01801-02061100131ADDAA100002091AY171061AY231061GA1041+001509079GF108991081051001501999999KA1120N-02201MD1210121+9999MW1711OA140101201OA249901301REMSYN106AAXX  08061 23256 11295 81809 11180 21206 40013 52012 60020 77173 885// 333 21220 84705 91012 91113 92992;
0166232560999992000120809004+67470+078720FM-12+000899999V0202301N00701002101CN0100001N1-01741-02001100401ADDAY171031AY231031GA1041+001809069GF108991081051002501999999MD1210281+9999MW1711REMSYN076AAXX  08091 23256 41397 82307 11174 21200 40040 52028 77173 885// 333 84706;
0171232560999992000120812004+67470+078720FM-12+000899999V0203201N003012200019N0200001N1-02011-02271100811ADDAY171061AY231061GA1001+999999999GF100991001001999999001001MA1999999100451MD1210401+9999MW1021REMSYN066AAXX  08121 23256 41998 03203 11201 21227 30045 40081 52040 70273;
0145232560999992000120815004+67470+078720FM-12+000899999V0203001N004012200019N0200001N1-02531-02771101171ADDGA1001+999999999GF100991001001999999001001KA1999M-01661MD1210351+9999REMSYN064AAXX  08151 23256 /2998 03004 11253 21277 40117 52035 333 11166;
0152232560999992000120818004+67470+078720FM-12+000899999V0202401N003019999999N0200001N1-02661-02901101381ADDAA112002091GF107991071001999999031001KA1999M-01661MD1210211+9999REMSYN076AAXX  08181 23256 12998 72403 11266 21290 40138 52021 60022 87030 333 11166;
0112232560999992000120821004+67470+078720FM-12+000899999V0202201N005019999999N0200001N1-02451-02701101391ADDGF107991071001999999031001MD1210011+9999REMSYN060AAXX  08211 23256 42998 72205 11245 21270 40139 52001 87030;
0161232560999992000120900004+67470+078720FM-12+000899999V0201701N006019999999N0500001N1-01981-02311101371ADDAY121061AY221061GF108991081051999999999999MA1999999101001MD1710021+9999MW1361REMSYN072AAXX  09001 23256 41999 81706 11198 21231 30100 40137 57002 73622 885//;
0203232560999992000120903004+67470+078720FM-12+000899999V0201601N004019999999N0200001N1-02171+99999101361ADDAA199000091AJ100219199999999AY131031AY221031GF106991061001999999031001IA1249MD1710011+9999MW1021REMSYN076AAXX  09031 23256 31998 61604 11217 40136 57001 70232 86030 333 48021 55000;EQDQ01  00002PRCP99
0193232560999992000120906004+67470+078720FM-12+000899999V0201601N004019999999N0500001N1-02061-02461101361ADDAA199000091AY131061AY221061GF105991021001999999031011KA1999N-02781MD1410001+9999MW1021REMSYN076AAXX  09061 23256 31999 51604 11206 21246 40136 54000 70232 82031 333 21278;EQDQ01  00002PRCP99
0166232560999992000120909004+67470+078720FM-12+000899999V0201801N00501002101CN0020001N1-01681-02021101391ADDAY171031AY231031GA1041+001809069GF108991081051002501999999MD1210031+9999MW1731REMSYN076AAXX  09091 23256 41395 81805 11168 21202 40139 52003 77373 885// 333 84706;
0171232560999992000120912004+67470+078720FM-12+000899999V0201301N006019999999N0040001N1-01871-02131101351ADDAY171061AY231061GF108991081001999999071999MA1999999100981MD1710041+9999MW1711REMSYN082AAXX  09121 23256 41996 81306 11187 21213 30098 40135 57004 77173 8807/ 333 92990;
0163232560999992000120915004+67470+078720FM-12+000899999V0201401N008019999999N0020001N1-02171-02421101161ADDAY171031AY231031GF108991081001999999071999KA1999M-01651MD1710191+9999MW1711REMSYN076AAXX  09151 23256 /1995 81408 11217 21242 40116 57019 77173 8807/ 333 11165;
0231232560999992000120918004+67470+078720FM-12+000899999V0201301N011010018019N0020001N1-02351-02601101001ADDAA100002091AY171061AY231061GA1051+001809079GF108991081051002501999999KA1120M-01651MD1710161+9999MW1731OA140101401REMSYN106AAXX  09181 23256 11395 81311 11235 21260 40100 57016 60020 77373 885// 333 11165 85706 92993 91014 91114;
0166232560999992000120921004+67470+078720FM-12+000899999V0201201N011010021019N0020001N1-02481-02731100781ADDAY171031AY231031GA1051+002109069GF108991081051002501999999MD1710221+9999MW1731REMSYN076AAXX  09211 23256 41395 81211 11248 21273 40078 57022 77373 885// 333 85707;
0227232560999992000121000004+67470+078720FM-12+000899999V0201301N009010018019N0040001N1-02621-02941100711ADDAY171061AY211061GA1051+001809079GF108991081051001501999999MA1999999100341MD1710071+9999MW1731OA140101201OA249901401REMSYN100AAXX  10001 23256 41296 81309 11262 21294 30034 40071 57007 77371 885// 333 85706 91012 91114 92990;
0209232560999992000121003004+67470+078720FM-12+000899999V0201201N006010021019N0040001N1-02681-03001100691ADDAJ100249199999999AY171031AY231031GA1051+002109069GF108991081051002501999999GJ100009IA1249MD1710021+9999MW1711REMSYN088AAXX  10031 23256 /1396 81206 11268 21300 40069 57002 77173 885// 333 48024 55000 85707;
0208232560999992000121006004+67470+078720FM-12+000899999V0201201N003010018019N0100001N1-02691-03001100711ADDAA100002091AY171061AY231061GA1051+001809079GF108991081051002501999999KA1120N-02681MD1210021+9999MW1711REMSYN094AAXX  10061 23256 11397 81203 11269 21300 40071 52002 60020 77173 885// 333 21268 85706 91112;
0140232560999992000121009004+67470+078720FM-12+000899999V0200901N001010300019N0100001N1-02711-03011100771ADDAY171031AY221031GF108991021051004501071999MD1210061+9999MW1711REMSYN066AAXX  10091 23256 41497 80901 11271 21301 40077 52006 77172 8257/;
0171232560999992000121012004+67470+078720FM-12+000899999V0209999C000012200019N0200001N1-02811-03111100801ADDAY171061AY211061GA1001+999999999GF100991001001999999001001MA1999999100501MD1210101+9999MW1021REMSYN066AAXX  10121 23256 41998 00000 11281 21311 30050 40080 52010 70271;
0145232560999992000121015004+67470+078720FM-12+000899999V0202701N001012200019N0200001N1-02861-03161100971ADDGA1001+999999999GF100991001001999999001001KA1999M-02681MD1210091+9999REMSYN064AAXX  10151 23256 /2998 02701 11286 21316 40097 52009 333 11268;
0162232560999992000121018004+67470+078720FM-12+000899999V0202901N001012200019N0200001N1-02991-03301101051ADDAA100000391GA1001+999999999GF100991001001999999001001KA1999M-02681MD1210081+9999REMSYN070AAXX  10181 23256 12998 02901 11299 21330 40105 52008 69930 333 11268;
0122232560999992000121021004+67470+078720FM-12+000899999V0203101N001012200019N0200001N1-03021-03321101171ADDGA1001+999999999GF100991001001999999001001MD1210121+9999REMSYN054AAXX  10211 23256 42998 03101 11302 21332 40117 52012;
0143232560999992000121100004+67470+078720FM-12+000899999V0209999C000012200019N0200001N1-03141-03421101301ADDGA1001+999999999GF100991001001999999001001MA1999999100921MD1210131+9999REMSYN060AAXX  11001 23256 42998 00000 11314 21342 30092 40130 52013;
0181232560999992000121106004+67470+078720FM-12+000899999V0203001N001012200019N0200001N1-03251-03551101631ADDAA199000091GA1001+999999999GF100991001001999999001001KA1120N-03261MD1210221+9999REMSYN070AAXX  11061 23256 32998 03001 11325 21355 40163 52022 333 21326 93503;EQDQ01  00002PRCP99
0122232560999992000121109004+67470+078720FM-12+000899999V0203201N001012200019N0200001N1-03381-03681101831ADDGA1001+999999999GF100991001001999999001001MD1210201+9999REMSYN054AAXX  11091 23256 42998 03201 11338 21368 40183 52020;
0153232560999992000121112004+67470+078720FM-12+000899999V0203301N001012200019N0200001N1-03301-03601102081ADDGA1001+999999999GF100991001001999999001001MA1999999101691MD1210251+9999REMSYN070AAXX  11121 23256 42998 03301 11330 21360 30169 40208 52025 333 93503;
0175232560999992000121115004+67470+078720FM-12+000899999V0203401N001012200019N0200001N1-03251-03551102261ADDAA199000091GA1001+999999999GF100991001001999999001001KA1999M-03111MD1210181+9999REMSYN064AAXX  11151 23256 32998 03401 11325 21355 40226 52018 333 11311;EQDQ01  00002PRCP99
0181232560999992000121118004+67470+078720FM-12+000899999V0202601N003012200019N0200001N1-03601-03901102411ADDAA199000091GA1001+999999999GF100991001001999999001001KA1120M-03111MD1210151+9999REMSYN070AAXX  11181 23256 32998 02603 11360 21390 40241 52015 333 11311 93503;EQDQ01  00002PRCP99
0122232560999992000121121004+67470+078720FM-12+000899999V0202601N003012200019N0200001N1-03641-03941102531ADDGA1001+999999999GF100991001001999999001001MD1210121+9999REMSYN054AAXX  11211 23256 42998 02603 11364 21394 40253 52012;
0153232560999992000121200004+67470+078720FM-12+000899999V0202601N004012200019N0200001N1-03611-03901102571ADDGA1001+999999999GF100991001001999999001001MA1999999102181MD1210041+9999REMSYN070AAXX  12001 23256 42998 02604 11361 21390 30218 40257 52004 333 93503;
0191232560999992000121203004+67470+078720FM-12+000899999V0202801N004012200019N0200001N1-03501-03801102611ADDAA199000091AJ100259199999999GA1001+999999999GF100991001001999999001001IA1249MD1210041+9999REMSYN070AAXX  12031 23256 32998 02804 11350 21380 40261 52004 333 48025 55000;EQDQ01  00002PRCP99
0181232560999992000121206004+67470+078720FM-12+000899999V0202901N002012200019N0500001N1-03621-03901102631ADDAA199000091GA1001+999999999GF100991001001999999001001KA1120N-03651MD1210021+9999REMSYN070AAXX  12061 23256 32999 02902 11362 21390 40263 52002 333 21365 93503;EQDQ01  00002PRCP99
0122232560999992000121209004+67470+078720FM-12+000899999V0203101N002012200019N0200001N1-03621-03901102641ADDGA1001+999999999GF100991001001999999001001MD1210011+9999REMSYN054AAXX  12091 23256 42998 03102 11362 21390 40264 52001;
0153232560999992000121212004+67470+078720FM-12+000899999V0202901N002012200019N0200001N1-03701-03971102631ADDGA1001+999999999GF100991001001999999001001MA1999999102241MD1710011+9999REMSYN070AAXX  12121 23256 42998 02902 11370 21397 30224 40263 57001 333 93503;
0175232560999992000121215004+67470+078720FM-12+000899999V0202601N002012200019N0200001N1-03681-04041102561ADDAA199000091GA1001+999999999GF100991001001999999001001KA1999M-03491MD1710071+9999REMSYN064AAXX  12151 23256 32998 02602 11368 21404 40256 57007 333 11349;EQDQ01  00002PRCP99
0181232560999992000121218004+67470+078720FM-12+000899999V0202701N002012200019N0200001N1-03721-04071102451ADDAA199000091GA1001+999999999GF100991001001999999001001KA1120M-03491MD1710111+9999REMSYN070AAXX  12181 23256 32998 02702 11372 21407 40245 57011 333 11349 93503;EQDQ01  00002PRCP99
0122232560999992000121221004+67470+078720FM-12+000899999V0202601N001012200019N0200001N1-03581-03931102351ADDGA1001+999999999GF100991001001999999001001MD1710101+9999REMSYN054AAXX  12211 23256 42998 02601 11358 21393 40235 57010;
0153232560999992000121300004+67470+078720FM-12+000899999V0202001N001012200019N0200001N1-03591-03931102331ADDGA1001+999999999GF100991001001999999001001MA1999999101941MD1710021+9999REMSYN070AAXX  13001 23256 42998 02001 11359 21393 30194 40233 57002 333 93503;
0181232560999992000121303004+67470+078720FM-12+000899999V0201301N002019999999N0200001N1-03581-03931102031ADDAA199000091AJ100259199999999GF106991061001999999031001IA1249MD1710301+9999REMSYN076AAXX  13031 23256 32998 61302 11358 21393 40203 57030 86030 333 48025 55000;EQDQ01  00002PRCP99
0193232560999992000121306004+67470+078720FM-12+000899999V0201101N003010120019N0500001N1-03271-03571101831ADDAA199000091GA1051+012009069GF108991051051012501071999KA1120N-03751MD1710191+9999REMSYN082AAXX  13061 23256 32699 81103 11327 21357 40183 57019 8557/ 333 21375 85640 93503;EQDQ01  00002PRCP99
0140232560999992000121309004+67470+078720FM-12+000899999V0200901N004010300019N0200001N1-03141-03421101721ADDAY171031AY221031GF108991031051012501071999MD1710111+9999MW1711REMSYN066AAXX  13091 23256 41698 80904 11314 21342 40172 57011 77172 8357/;
0171232560999992000121312004+67470+078720FM-12+000899999V0200801N004019999999N0040001N1-03101-03471101611ADDAY171061AY221061GF108991081001999999071999MA1999999101231MD1710111+9999MW1711REMSYN082AAXX  13121 23256 41996 80804 11310 21347 30123 40161 57011 77172 8807/ 333 93503;
0163232560999992000121315004+67470+078720FM-12+000899999V0200801N005019999999N0040001N1-03201-03571101571ADDAY171031AY221031GF108991081001999999071999KA1999M-03101MD1710041+9999MW1711REMSYN076AAXX  13151 23256 /1996 80805 11320 21357 40157 57004 77172 8807/ 333 11310;
0196232560999992000121318004+67470+078720FM-12+000899999V0200601N002012200019N0200001N1-03421-03711101541ADDAA100000791AY111061AY271061GA1001+999999999GF100991001001999999001001KA1120M-03101MD1710041+9999MW1021REMSYN082AAXX  13181 23256 11998 00602 11342 21371 40154 57004 69900 70217 333 11310 93503;
0122232560999992000121321004+67470+078720FM-12+000899999V0200601N002012200019N0200001N1-03621-03971101641ADDGA1001+999999999GF100991001001999999001001MD1210101+9999REMSYN054AAXX  13211 23256 42998 00602 11362 21397 40164 52010;
0172232560999992000121400004+67470+078720FM-12+000899999V0200401N002012200019N0200001N1-03441-03811101661ADDGA1031+000909029GF199999001001999999001001MA1999999101271MD1210021+9999REMSYN070AAXX  14001 23256 42998 00402 11344 21381 30127 40166 52002 333 83503;EQDQ01+000002SCOTCV
0181232560999992000121403004+67470+078720FM-12+000899999V0200201N002010750019N0200001N1-03561-03831101721ADDAJ100259199999999GA1041+003009069GF108991041061004501001061GJ100009IA1249MD1210061+9999REMSYN082AAXX  14031 23256 /2498 80202 11356 21383 40172 52006 84606 333 48025 55000 84710;
0208232560999992000121406004+67470+078720FM-12+000899999V0203501N002010072019N0200001N1-03241-03551101741ADDAA100000791AY111061AY211061GA1051+007209069GF108991051051008001071999KA1120N-03661MD1210031+9999MW1711REMSYN094AAXX  14061 23256 11598 83502 11324 21355 40174 52003 69900 77111 8557/ 333 21366 85624 93503;
0140232560999992000121409004+67470+078720FM-12+000899999V0200401N002019999999N0500001N1-03481-03771101791ADDAY171031AY221031GF105991051001999999031001MD1210041+9999MW1021REMSYN066AAXX  14091 23256 41999 50402 11348 21377 40179 52004 70272 85030;
0181232560999992000121412004+67470+078720FM-12+000899999V0200301N002012200019N0200001N1-03801-04151101881ADDAY171061AY211061GA1001+999999999GF100991001001999999001001MA1999999101481MD1210081+9999MW1021REMSYN076AAXX  14121 23256 41998 00302 11380 21415 30148 40188 52008 70271 333 93503;
0145232560999992000121415004+67470+078720FM-12+000899999V0200201N001012200019N0200001N1-03901-04241101871ADDGA1001+999999999GF100991001001999999001001KA1999M-03221MD1710011+9999REMSYN064AAXX  14151 23256 /2998 00201 11390 21424 40187 57001 333 11322;
0168232560999992000121418004+67470+078720FM-12+000899999V0200401N001012200019N0200001N1-03781-04111101881ADDAA100000791GA1001+999999999GF100991001001999999001001KA1120M-03241MD1210011+9999REMSYN076AAXX  14181 23256 12998 00401 11378 21411 40188 52001 69900 333 11324 93503;
0122232560999992000121421004+67470+078720FM-12+000899999V0209999C000012200019N0200001N1-03751-04111101921ADDGA1001+999999999GF100991001001999999001001MD1210041+9999REMSYN054AAXX  14211 23256 42998 00000 11375 21411 40192 52004;
0153232560999992000121500004+67470+078720FM-12+000899999V0209999C000012200019N0200001N1-03831-04151101931ADDGA1001+999999999GF100991001001999999001001MA1999999101531MD1010011+9999REMSYN070AAXX  15001 23256 42998 00000 11383 21415 30153 40193 50001 333 93503;
0219232560999992000121503004+67470+078720FM-12+000899999V0202301N001012200019N0040001N1-03891-04241101981ADDAA199000091AJ100259199999999AY101031AY201031GA1001+999999999GF100991001001999999001001IA1249MD1210051+9999MW1041REMSYN076AAXX  15031 23256 31996 02301 11389 21424 40198 52005 70400 333 48025 55000;EQDQ01  00002PRCP99
0199232560999992000121506004+67470+078720FM-12+000899999V0200901N002012200019N0020001N1-03911-04241101971ADDAA199000091AY101061AY201061GF102991021001999999031001KA1120N-03901MD1710011+9999MW1041REMSYN082AAXX  15061 23256 31995 20902 11391 21424 40197 57001 70400 82030 333 21390 93503;EQDQ01  00002PRCP99
0140232560999992000121509004+67470+078720FM-12+000899999V0201301N003012200019N0040001N1-03881-04241102041ADDAY101031AY201031GF102991021001999999031001MD1210071+9999MW1041REMSYN066AAXX  15091 23256 41996 21303 11388 21424 40204 52007 70400 82030;
0181232560999992000121512004+67470+078720FM-12+000899999V0201101N002012200019N0040001N1-03911-04241102061ADDAY101061AY201061GA1001+999999999GF100991001001999999001001MA1999999101661MD1210021+9999MW1041REMSYN076AAXX  15121 23256 41996 01102 11391 21424 30166 40206 52002 70400 333 93503;
0203232560999992000121515004+67470+078720FM-12+000899999V0201201N003012200019N0020001N1-03911-04241102041ADDAA199000091AY101031AY201031GA1001+999999999GF100991001001999999001001KA1999M-03881MD1710021+9999MW1041REMSYN070AAXX  15151 23256 31995 01203 11391 21424 40204 57002 70400 333 11388;EQDQ01  00002PRCP99
0209232560999992000121518004+67470+078720FM-12+000899999V0201201N004012200019N0020001N1-03891-04241102051ADDAA199000091AY101061AY201061GA1001+999999999GF100991001001999999001001KA1120M-03881MD1210011+9999MW1041REMSYN076AAXX  15181 23256 31995 01204 11389 21424 40205 52001 70400 333 11388 93503;EQDQ01  00002PRCP99
0150232560999992000121521004+67470+078720FM-12+000899999V0201101N004012200019N0020001N1-03911-04241102021ADDAY101031AY201031GA1001+999999999GF100991001001999999001001MD1710031+9999MW1041REMSYN060AAXX  15211 23256 41995 01104 11391 21424 40202 57003 70400;
0181232560999992000121600004+67470+078720FM-12+000899999V0201101N005012200019N0020001N1-03871-04201101981ADDAY101061AY201061GA1001+999999999GF100991001001999999001001MA1999999101581MD1710041+9999MW1041REMSYN076AAXX  16001 23256 41995 01105 11387 21420 30158 40198 57004 70400 333 93503;
0191232560999992000121603004+67470+078720FM-12+000899999V0201101N004012200019N0200001N1-03791-04151101991ADDAA199000091AJ100259199999999GA1001+999999999GF100991001001999999001001IA1249MD1210011+9999REMSYN070AAXX  16031 23256 32998 01104 11379 21415 40199 52001 333 48025 55000;EQDQ01  00002PRCP99
0181232560999992000121606004+67470+078720FM-12+000899999V0201201N005012200019N0100001N1-03811-04151101971ADDAA199000091GA1001+999999999GF100991001001999999001001KA1120N-03931MD1710021+9999REMSYN070AAXX  16061 23256 32997 01205 11381 21415 40197 57002 333 21393 93503;EQDQ01  00002PRCP99
0112232560999992000121609004+67470+078720FM-12+000899999V0201101N005012200019N0100001N1-03771-04111101991ADDGF102991011001999999031011MD1210021+9999REMSYN060AAXX  16091 23256 42997 21105 11377 21411 40199 52002 81031;
0153232560999992000121612004+67470+078720FM-12+000899999V0201101N004012200019N0200001N1-03701-03971101991ADDGA1001+999999999GF100991001001999999001001MA1999999101601MD1210011+9999REMSYN070AAXX  16121 23256 42998 01104 11370 21397 30160 40199 52001 333 93503;
0175232560999992000121615004+67470+078720FM-12+000899999V0201101N004012200019N0200001N1-03621-03901102021ADDAA199000091GA1001+999999999GF100991001001999999001001KA1999M-03621MD1210031+9999REMSYN064AAXX  16151 23256 32998 01104 11362 21390 40202 52003 333 11362;EQDQ01  00002PRCP99
0197232560999992000121618004+67470+078720FM-12+000899999V0201101N005012200019N0200001N1-03501-03801102071ADDAA199000091GA1001+999999999GF100991001001999999001001KA1120M+99999MD1210051+9999REMSYN070AAXX  16181 23256 32998 01105 11350 21380 40207 52005 333 11362 93501;EQDQ01  00002PRCP99Q02 -03622ATMX  
0122232560999992000121621004+67470+078720FM-12+000899999V0201101N006012200019N0200001N1-03471-03771102101ADDGA1001+999999999GF100991001001999999001001MD1210031+9999REMSYN054AAXX  16211 23256 42998 01106 11347 21377 40210 52003;
0153232560999992000121700004+67470+078720FM-12+000899999V0201101N006012200019N0200001N1-03451-03741102161ADDGA1001+999999999GF100991001001999999001001MA1999999101771MD1210061+9999REMSYN070AAXX  17001 23256 42998 01106 11345 21374 30177 40216 52006 333 93500;
0191232560999992000121703004+67470+078720FM-12+000899999V0201101N005012200019N0200001N1-03441-03741102301ADDAA199000091AJ100259199999999GA1001+999999999GF100991001001999999001001IA1249MD1210141+9999REMSYN070AAXX  17031 23256 32998 01105 11344 21374 40230 52014 333 48025 55000;EQDQ01  00002PRCP99
0175232560999992000121706004+67470+078720FM-12+000899999V0201101N005012200019N0200001N1-03411-03711102361ADDAA199000091GA1001+999999999GF100991001001999999001001KA1999N-03621MD1210061+9999REMSYN064AAXX  17061 23256 32998 01105 11341 21371 40236 52006 333 21362;EQDQ01  00002PRCP99
0122232560999992000121709004+67470+078720FM-12+000899999V0201101N006012200019N0200001N1-03401-03681102461ADDGA1001+999999999GF100991001001999999001001MD1210101+9999REMSYN054AAXX  17091 23256 42998 01106 11340 21368 40246 52010;
0143232560999992000121712004+67470+078720FM-12+000899999V0201001N002012200019N0200001N1-03451-03741102551ADDGA1001+999999999GF100991001001999999001001MA1999999102161MD1210091+9999REMSYN060AAXX  17121 23256 42998 01002 11345 21374 30216 40255 52009;
0175232560999992000121715004+67470+078720FM-12+000899999V0201001N005012200019N0200001N1-03501-03801102621ADDAA199000091GA1001+999999999GF100991001001999999001001KA1999M-03401MD1210071+9999REMSYN064AAXX  17151 23256 32998 01005 11350 21380 40262 52007 333 11340;EQDQ01  00002PRCP99
0175232560999992000121718004+67470+078720FM-12+000899999V0201001N005012200019N0200001N1-03541-03831102681ADDAA199000091GA1001+999999999GF100991001001999999001001KA1999M-03401MD1210061+9999REMSYN064AAXX  17181 23256 32998 01005 11354 21383 40268 52006 333 11340;EQDQ01  00002PRCP99
0122232560999992000121721004+67470+078720FM-12+000899999V0201001N004012200019N0200001N1-03591-03861102761ADDGA1001+999999999GF100991001001999999001001MD1210081+9999REMSYN054AAXX  17211 23256 42998 01004 11359 21386 40276 52008;
0143232560999992000121800004+67470+078720FM-12+000899999V0201001N004012200019N0200001N1-03661-03941102821ADDGA1001+999999999GF100991001001999999001001MA1999999102431MD1210061+9999REMSYN060AAXX  18001 23256 42998 01004 11366 21394 30243 40282 52006;
0191232560999992000121803004+67470+078720FM-12+000899999V0200901N003012200019N0200001N1-03701-03971102831ADDAA199000091AJ100259199999999GA1001+999999999GF100991001001999999001001IA1249MD1210011+9999REMSYN070AAXX  18031 23256 32998 00903 11370 21397 40283 52001 333 48025 55000;EQDQ01  00002PRCP99
0175232560999992000121806004+67470+078720FM-12+000899999V0201001N003012200019N0200001N1-03701-03971102901ADDAA199000091GA1001+999999999GF100991001001999999001001KA1999N-03701MD1210061+9999REMSYN064AAXX  18061 23256 32998 01003 11370 21397 40290 52006 333 21370;EQDQ01  00002PRCP99
0143232560999992000121812004+67470+078720FM-12+000899999V0200801N002012200019N0200001N1-03771-04051103001ADDGA1001+999999999GF100991001001999999001001MA1999999102601MD1210041+9999REMSYN060AAXX  18121 23256 42998 00802 11377 21405 30260 40300 52004;
0175232560999992000121815004+67470+078720FM-12+000899999V0200801N002012200019N0200001N1-03781-04051102991ADDAA199000091GA1001+999999999GF100991001001999999001001KA1999M-03701MD1710011+9999REMSYN064AAXX  18151 23256 32998 00802 11378 21405 40299 57001 333 11370;EQDQ01  00002PRCP99
0175232560999992000121818004+67470+078720FM-12+000899999V0201001N003012200019N0200001N1-03781-04051102951ADDAA199000091GA1001+999999999GF100991001001999999001001KA1999M-03701MD1710041+9999REMSYN064AAXX  18181 23256 32998 01003 11378 21405 40295 57004 333 11370;EQDQ01  00002PRCP99
0122232560999992000121821004+67470+078720FM-12+000899999V0201101N003012200019N0200001N1-03811-04091102931ADDGA1001+999999999GF100991001001999999001001MD1710021+9999REMSYN054AAXX  18211 23256 42998 01103 11381 21409 40293 57002;
0143232560999992000121900004+67470+078720FM-12+000899999V0201001N003012200019N0200001N1-03821-04091102931ADDGA1001+999999999GF100991001001999999001001MA1999999102531MD1410001+9999REMSYN060AAXX  19001 23256 42998 01003 11382 21409 30253 40293 54000;
0186232560999992000121903004+67470+078720FM-12+000899999V0201101N003012200019N0200001N1-03851-04131102891ADDAA124999999AJ100259199999999GA1001+999999999GF100991001001999999001001GJ100009IA1249MD1710041+9999REMSYN076AAXX  19031 23256 32998 01103 11385 21413 40289 57004 333 48025 55000 7000/;
0203232560999992000121906004+67470+078720FM-12+000899999V0201101N003012200019N0040001N1-03841-04131102901ADDAA199000091AY101061AY201061GA1001+999999999GF100991001001999999001001KA1999N-03931MD1210011+9999MW1041REMSYN070AAXX  19061 23256 31996 01103 11384 21413 40290 52001 70400 333 21393;EQDQ01  00002PRCP99
0130232560999992000121909004+67470+078720FM-12+000899999V0201001N003012200019N0040001N1-03801-04091102911ADDAY101031AY201031GA1001+999999999GF100991001001999999001001MW1041REMSYN054AAXX  19091 23256 41996 01003 11380 21409 40291 70400;
0143232560999992000121912004+67470+078720FM-12+000899999V0200901N002012200019N0200001N1-03801-04091102931ADDGA1001+999999999GF100991001001999999001001MA1999999102531MD1210021+9999REMSYN060AAXX  19121 23256 42998 00902 11380 21409 30253 40293 52002;
0175232560999992000121915004+67470+078720FM-12+000899999V0201001N002012200019N0200001N1-03691-03971102911ADDAA199000091GA1001+999999999GF100991001001999999001001KA1999M-03691MD1710021+9999REMSYN064AAXX  19151 23256 32998 01002 11369 21397 40291 57002 333 11369;EQDQ01  00002PRCP99
0175232560999992000121918004+67470+078720FM-12+000899999V0201101N002012200019N0200001N1-03681-03971102861ADDAA199000091GA1001+999999999GF100991001001999999001001KA1999M-03691MD1710041+9999REMSYN064AAXX  19181 23256 32998 01102 11368 21397 40286 57004 333 11369;EQDQ01  00002PRCP99
0122232560999992000121921004+67470+078720FM-12+000899999V0201101N003012200019N0200001N1-03521-03801102881ADDGA1001+999999999GF100991001001999999001001MD1210021+9999REMSYN054AAXX  19211 23256 42998 01103 11352 21380 40288 52002;
0143232560999992000122000004+67470+078720FM-12+000899999V0201101N002012200019N0200001N1-03511-03801102931ADDGA1001+999999999GF100991001001999999001001MA1999999102531MD1210041+9999REMSYN060AAXX  20001 23256 42998 01102 11351 21380 30253 40293 52004;
0191232560999992000122003004+67470+078720FM-12+000899999V0200901N001012200019N0200001N1-03541-03831102961ADDAA199000091AJ100259199999999GA1001+999999999GF100991001001999999001001IA1249MD1210031+9999REMSYN070AAXX  20031 23256 32998 00901 11354 21383 40296 52003 333 48025 55000;EQDQ01  00002PRCP99
0175232560999992000122006004+67470+078720FM-12+000899999V0200801N002012200019N0200001N1-03561-03831103081ADDAA199000091GA1001+999999999GF100991001001999999001001KA1999N-03741MD1210121+9999REMSYN064AAXX  20061 23256 32998 00802 11356 21383 40308 52012 333 21374;EQDQ01  00002PRCP99
0122232560999992000122009004+67470+078720FM-12+000899999V0201001N002012200019N0200001N1-03541-03831103171ADDGA1001+999999999GF100991001001999999001001MD1210091+9999REMSYN054AAXX  20091 23256 42998 01002 11354 21383 40317 52009;
0143232560999992000122012004+67470+078720FM-12+000899999V0201001N001012200019N0200001N1-03461-03741103311ADDGA1001+999999999GF100991001001999999001001MA1999999102911MD1210141+9999REMSYN060AAXX  20121 23256 42998 01001 11346 21374 30291 40331 52014;
0175232560999992000122015004+67470+078720FM-12+000899999V0201001N002012200019N0200001N1-03441-03741103381ADDAA199000091GA1001+999999999GF100991001001999999001001KA1999M-03441MD1210071+9999REMSYN064AAXX  20151 23256 32998 01002 11344 21374 40338 52007 333 11344;EQDQ01  00002PRCP99
0175232560999992000122018004+67470+078720FM-12+000899999V0200801N002012200019N0200001N1-03561-03831103481ADDAA199000091GA1001+999999999GF100991001001999999001001KA1999M-03441MD1210101+9999REMSYN064AAXX  20181 23256 32998 00802 11356 21383 40348 52010 333 11344;EQDQ01  00002PRCP99
0122232560999992000122021004+67470+078720FM-12+000899999V0201101N002012200019N0200001N1-03521-03801103581ADDGA1001+999999999GF100991001001999999001001MD1210101+9999REMSYN054AAXX  20211 23256 42998 01102 11352 21380 40358 52010;
0128232560999992000122100004+67470+078720FM-12+000899999V0201101N002012200019N0200001N1-03481-03771103711ADDGA1001+999999999GF100991001001999999001001MA1999999103311REMSYN059AAXX  21001 23256 42998 01102 11348 21377 30331 40371 2013;
0191232560999992000122103004+67470+078720FM-12+000899999V0201101N001012200019N0200001N1-03531-03831103771ADDAA199000091AJ100259199999999GA1001+999999999GF100991001001999999001001IA1249MD1210061+9999REMSYN070AAXX  21031 23256 32998 01101 11353 21383 40377 52006 333 48025 55000;EQDQ01  00002PRCP99
0122232560999992000122109004+67470+078720FM-12+000899999V0209999C000012200019N0200001N1-03531-03831103941ADDGA1001+999999999GF100991001001999999001001MD1210111+9999REMSYN054AAXX  21091 23256 42998 00000 11353 21383 40394 52011;
0143232560999992000122112004+67470+078720FM-12+000899999V0201301N002012200019N0200001N1-03541-03831103961ADDGA1001+999999999GF100991001001999999001001MA1999999103561MD1210021+9999REMSYN060AAXX  21121 23256 42998 01302 11354 21383 30356 40396 52002;
0175232560999992000122115004+67470+078720FM-12+000899999V0201101N002012200019N0200001N1-03691-03971103951ADDAA199000091GA1001+999999999GF100991001001999999001001KA1999M-03301MD1710011+9999REMSYN064AAXX  21151 23256 32998 01102 11369 21397 40395 57001 333 11330;EQDQ01  00002PRCP99
0175232560999992000122118004+67470+078720FM-12+000899999V0201101N002012200019N0200001N1-03791-04091103991ADDAA199000091GA1001+999999999GF100991001001999999001001KA1999M-03301MD1210031+9999REMSYN064AAXX  21181 23256 32998 01102 11379 21409 40399 52003 333 11330;EQDQ01  00002PRCP99
0122232560999992000122121004+67470+078720FM-12+000899999V0201101N003012200019N0200001N1-03851-04131104001ADDGA1001+999999999GF100991001001999999001001MD1210011+9999REMSYN054AAXX  21211 23256 42998 01103 11385 21413 40400 52001;
0143232560999992000122200004+67470+078720FM-12+000899999V0201001N003012200019N0200001N1-03801-04151104041ADDGA1001+999999999GF100991001001999999001001MA1999999103631MD1210041+9999REMSYN060AAXX  22001 23256 42998 01003 11380 21415 30363 40404 52004;
0219232560999992000122203004+67470+078720FM-12+000899999V0201101N003012200019N0040001N1-03781-04051104021ADDAA199000091AJ100259199999999AY101031AY201031GA1001+999999999GF100991001001999999001001IA1249MD1710021+9999MW1041REMSYN076AAXX  22031 23256 31996 01103 11378 21405 40402 57002 70400 333 48025 55000;EQDQ01  00002PRCP99
0165232560999992000122206004+67470+078720FM-12+000899999V0201201N004012200019N0100001N1-03731-04011104031ADDAA199000091GF102991001001999999001011KA1999N-03851MD1210021+9999REMSYN070AAXX  22061 23256 32997 21204 11373 21401 40403 52002 80001 333 21385;EQDQ01  00002PRCP99
0112232560999992000122209004+67470+078720FM-12+000899999V0201101N004012200019N0200001N1-03681-03971104071ADDGF102991001001999999001011MD1210041+9999REMSYN060AAXX  22091 23256 42998 21104 11368 21397 40407 52004 80001;
0133232560999992000122212004+67470+078720FM-12+000899999V0201201N004012200019N0200001N1-03661-03941104091ADDGF102991001001999999001011MA1999999103691MD1210021+9999REMSYN066AAXX  22121 23256 42998 21204 11366 21394 30369 40409 52002 80001;
0175232560999992000122215004+67470+078720FM-12+000899999V0201201N004012200019N0200001N1-03631-03901104071ADDAA199000091GA1001+999999999GF100991001001999999001001KA1999M-03631MD1710021+9999REMSYN064AAXX  22151 23256 32998 01204 11363 21390 40407 57002 333 11363;EQDQ01  00002PRCP99
0175232560999992000122218004+67470+078720FM-12+000899999V0201201N003012200019N0200001N1-03601-03901104091ADDAA199000091GA1001+999999999GF100991001001999999001001KA1999M-03631MD1210021+9999REMSYN064AAXX  22181 23256 32998 01203 11360 21390 40409 52002 333 11363;EQDQ01  00002PRCP99
0122232560999992000122221004+67470+078720FM-12+000899999V0201101N003012200019N0200001N1-03651-03941104071ADDGA1001+999999999GF100991001001999999001001MD1710021+9999REMSYN054AAXX  22211 23256 42998 01103 11365 21394 40407 57002;
0143232560999992000122300004+67470+078720FM-12+000899999V0201201N003012200019N0200001N1+99999+99999104061ADDGA1001+999999999GF100991001001999999001001MA1999999103661MD1710011+9999REMSYN060AAXX  23001 23256 42998 01203 11366 21994 30366 40406 57001;
0191232560999992000122303004+67470+078720FM-12+000899999V0201201N003012200019N0200001N1-03691-03971104001ADDAA199000091AJ100259199999999GA1001+999999999GF100991001001999999001001IA1249MD1710061+9999REMSYN070AAXX  23031 23256 32998 01203 11369 21397 40400 57006 333 48025 55000;EQDQ01  00002PRCP99
0175232560999992000122306004+67470+078720FM-12+000899999V0201201N003012200019N0200001N1-03691-03971104011ADDAA199000091GA1001+999999999GF100991001001999999001001KA1999N-03691MD1210011+9999REMSYN064AAXX  23061 23256 32998 01203 11369 21397 40401 52001 333 21369;EQDQ01  00002PRCP99
0112232560999992000122309004+67470+078720FM-12+000899999V0201101N003012200019N0200001N1-03591-03861103961ADDGF102991001001999999001011MD1710051+9999REMSYN060AAXX  23091 23256 42998 21103 11359 21386 40396 57005 80001;
0133232560999992000122312004+67470+078720FM-12+000899999V0201201N003012200019N0200001N1-03511-03871103931ADDGF103991001001999999001011MA1999999103531MD1710031+9999REMSYN066AAXX  23121 23256 42998 31203 11351 21387 30353 40393 57003 80001;
0165232560999992000122315004+67470+078720FM-12+000899999V0201201N004019999999N0200001N1-03501-03871103871ADDAA199000091GF105991001001999999001011KA1999M-03501MD1710061+9999REMSYN070AAXX  23151 23256 32998 51204 11350 21387 40387 57006 80001 333 11350;EQDQ01  00002PRCP99
0175232560999992000122318004+67470+078720FM-12+000899999V0201201N005012200019N0200001N1-03471-03841103811ADDAA199000091GA1001+999999999GF100991001001999999001001KA1999M-03501MD1710061+9999REMSYN064AAXX  23181 23256 32998 01205 11347 21384 40381 57006 333 11350;EQDQ01  00002PRCP99
0122232560999992000122321004+67470+078720FM-12+000899999V0201101N005012200019N0200001N1-03461-03811103761ADDGA1001+999999999GF100991001001999999001001MD1710051+9999REMSYN054AAXX  23211 23256 42998 01105 11346 21381 40376 57005;
0143232560999992000122400004+67470+078720FM-12+000899999V0201101N004012200019N0200001N1-03431-03781103631ADDGA1001+999999999GF100991001001999999001001MA1999999103231MD1710131+9999REMSYN060AAXX  24001 23256 42998 01104 11343 21378 30323 40363 57013;
0191232560999992000122403004+67470+078720FM-12+000899999V0201101N005012200019N0200001N1-03301-03671103401ADDAA199000091AJ100259199999999GA1001+999999999GF100991001001999999001001IA1249MD1710231+9999REMSYN070AAXX  24031 23256 32998 01105 11330 21367 40340 57023 333 48025 55000;EQDQ01  00002PRCP99
0175232560999992000122406004+67470+078720FM-12+000899999V0201101N005012200019N0200001N1-03271-03641103311ADDAA199000091GA1001+999999999GF100991001001999999001001KA1999N-03501MD1710091+9999REMSYN064AAXX  24061 23256 32998 01105 11327 21364 40331 57009 333 21350;EQDQ01  00002PRCP99
0112232560999992000122409004+67470+078720FM-12+000899999V0201001N005012200019N0200001N1-03341-03691103221ADDGF102991001001999999001011MD1710091+9999REMSYN060AAXX  24091 23256 42998 21005 11334 21369 40322 57009 80001;
0143232560999992000122412004+67470+078720FM-12+000899999V0201001N005012200019N0200001N1-03371-03721103101ADDGA1001+999999999GF100991001001999999001001MA1999999102701MD1710121+9999REMSYN060AAXX  24121 23256 42998 01005 11337 21372 30270 40310 57012;
0175232560999992000122415004+67470+078720FM-12+000899999V0201101N006012200019N0200001N1-03381-03751102971ADDAA199000091GA1001+999999999GF100991001001999999001001KA1999M-03261MD1710131+9999REMSYN064AAXX  24151 23256 32998 01106 11338 21375 40297 57013 333 11326;EQDQ01  00002PRCP99
0175232560999992000122418004+67470+078720FM-12+000899999V0201101N006012200019N0200001N1-03301-03671102931ADDAA199000091GA1001+999999999GF100991001001999999001001KA1999M-03261MD1710041+9999REMSYN064AAXX  24181 23256 32998 01106 11330 21367 40293 57004 333 11326;EQDQ01  00002PRCP99
0122232560999992000122421004+67470+078720FM-12+000899999V0201101N005012200019N0200001N1-03291-03641102921ADDGA1001+999999999GF100991001001999999001001MD1710011+9999REMSYN054AAXX  24211 23256 42998 01105 11329 21364 40292 57001;
0143232560999992000122500004+67470+078720FM-12+000899999V0201101N005012200019N0200001N1-03261-03611102921ADDGA1001+999999999GF100991001001999999001001MA1999999102521MD1410001+9999REMSYN060AAXX  25001 23256 42998 01105 11326 21361 30252 40292 54000;
0191232560999992000122503004+67470+078720FM-12+000899999V0201201N004012200019N0200001N1-03301-03671102931ADDAA199000091AJ100259199999999GA1001+999999999GF100991001001999999001001IA1249MD1210011+9999REMSYN070AAXX  25031 23256 32998 01204 11330 21367 40293 52001 333 48025 55000;EQDQ01  00002PRCP99
0181232560999992000122506004+67470+078720FM-12+000899999V0201101N004012200019N0500001N1-03411-03781102941ADDAA199000091GA1001+999999999GF100991001001999999001001KA1999N-03381MD1210011+9999REMSYN070AAXX  25061 23256 32999 01104 11341 21378 40294 52001 80001 333 21338;EQDQ01  00002PRCP99
0112232560999992000122509004+67470+078720FM-12+000899999V0201201N004012200019N0200001N1-03431-03781102991ADDGF101991001001999999001011MD1210091+9999REMSYN060AAXX  25091 23256 42998 11204 11343 21378 40299 52009 80001;
0175232560999992000122515004+67470+078720FM-12+000899999V0201001N004012200019N0200001N1-03541-03901102961ADDAA199000091GA1001+999999999GF100991001001999999001001KA1999M-03281MD1710021+9999REMSYN064AAXX  25151 23256 32998 01004 11354 21390 40296 57002 333 11328;EQDQ01  00002PRCP99
0175232560999992000122518004+67470+078720FM-12+000899999V0201101N004012200019N0200001N1-03501-03871102901ADDAA199000091GA1001+999999999GF100991001001999999001001KA1999M-03281MD1710061+9999REMSYN064AAXX  25181 23256 32998 01104 11350 21387 40290 57006 333 11328;EQDQ01  00002PRCP99
0122232560999992000122521004+67470+078720FM-12+000899999V0201101N004012200019N0200001N1-03511-03871102831ADDGA1001+999999999GF100991001001999999001001MD1710061+9999REMSYN054AAXX  25211 23256 42998 01104 11351 21387 40283 57006;
0143232560999992000122600004+67470+078720FM-12+000899999V0200901N003012200019N0200001N1-03511-03871102801ADDGA1001+999999999GF100991001001999999001001MA1999999102411MD1710031+9999REMSYN060AAXX  26001 23256 42998 00903 11351 21387 30241 40280 57003;
0112232560999992000122609004+67470+078720FM-12+000899999V0200901N004012200019N0200001N1-03421-03781102551ADDGF103991001001999999001011MD1710061+9999REMSYN060AAXX  26091 23256 42998 30904 11342 21378 40255 57006 80001;
0161232560999992000122612004+67470+078720FM-12+000899999V0201001N006019999999N0200001N1-03121-03501102501ADDAY111061AY211061GF108991081001999999071999MA1999999102121MD1710041+9999MW1711REMSYN072AAXX  26121 23256 41998 81006 11312 21350 30212 40250 57004 77111 8807/;
0163232560999992000122615004+67470+078720FM-12+000899999V0200801N005019999999N0040001N1-03181-03541102401ADDAY171031AY221031GF108991081001999999071999KA1999M-03111MD1710101+9999MW1711REMSYN076AAXX  26151 23256 /1996 80805 11318 21354 40240 57010 77172 8807/ 333 11311;
0190232560999992000122618004+67470+078720FM-12+000899999V0200801N004012200019N0200001N1-03361-03721102311ADDAA100000391AY171061AY211061GA1001+999999999GF100991001001999999001001KA1999M-03111MD1710101+9999MW1021REMSYN076AAXX  26181 23256 11998 00804 11336 21372 40231 57010 69930 70271 333 11311;
0122232560999992000122621004+67470+078720FM-12+000899999V0200801N004012200019N0200001N1-03341-03691102221ADDGA1001+999999999GF100991001001999999001001MD1710091+9999REMSYN054AAXX  26211 23256 42998 00804 11334 21369 40222 57009;
0161232560999992000122700004+67470+078720FM-12+000899999V0200901N003019999999N0200001N1-03301-03671102141ADDAY111061AY211061GF108991081001999999071999MA1999999101751MD1710081+9999MW1711REMSYN072AAXX  27001 23256 41998 80903 11330 21367 30175 40214 57008 77111 8807/;
0179232560999992000122703004+67470+078720FM-12+000899999V0200801N003019999999N0200001N1-03221-03591102031ADDAJ100259199999999AY171031AY221031GF108991001001999999001061IA1249MD1710101+9999MW1711REMSYN082AAXX  27031 23256 /1998 80803 11322 21359 40203 57010 77172 80006 333 48025 55000;
0180232560999992000122706004+67470+078720FM-12+000899999V0200801N002019999999N0500001N1-03351-03721101991ADDAA100000391AY171061AY221061GF108991021001999999031061KA1999N-03441MD1710051+9999MW1021REMSYN082AAXX  27061 23256 11999 80802 11335 21372 40199 57005 69930 70272 82036 333 21344;
0140232560999992000122709004+67470+078720FM-12+000899999V0200601N002019999999N0200001N1-03271-03641101971ADDAY171031AY221031GF108991021001999999031061MD1710021+9999MW1021REMSYN066AAXX  27091 23256 41998 80602 11327 21364 40197 57002 70272 82036;
0161232560999992000122712004+67470+078720FM-12+000899999V0200701N002019999999N0040001N1-03161-03521101911ADDAY171061AY221061GF108991081001999999071999MA1999999101531MD1710051+9999MW1711REMSYN072AAXX  27121 23256 41996 80702 11316 21352 30153 40191 57005 77172 8807/;
0163232560999992000122715004+67470+078720FM-12+000899999V0200501N002019999999N0200001N1-03121-03501101881ADDAY171031AY221031GF108991081001999999071999KA1999M-03101MD1710031+9999MW1711REMSYN076AAXX  27151 23256 /1998 80502 11312 21350 40188 57003 77172 8807/ 333 11310;
0140232560999992000122721004+67470+078720FM-12+000899999V0200501N001019999999N0200001N1-03221-03591101831ADDAY171031AY221031GF105991051001999999031001MD1210061+9999MW1021REMSYN066AAXX  27211 23256 41998 50501 11322 21359 40183 52006 70272 85030;
0161232560999992000122800004+67470+078720FM-12+000899999V0200301N001019999999N0200001N1-03321-03691101801ADDAY171061AY221061GF105991051001999999031001MA1999999101411MD1710041+9999MW1021REMSYN072AAXX  28001 23256 41998 50301 11332 21369 30141 40180 57004 70272 85030;
0151232560999992000122803004+67470+078720FM-12+000899999V0200501N001012200019N0200001N1-03491-03841101801ADDAJ100259199999999GF103991031001999999031001IA1249MD1410001+9999REMSYN076AAXX  28031 23256 /2998 30501 11349 21384 40180 54000 83030 333 48025 55000;
0180232560999992000122806004+67470+078720FM-12+000899999V0200501N001019999999N0200001N1-03491-03841101811ADDAA100000891AY171061AY211061GF108991031001999999031061KA1999N-03501MD1210011+9999MW1711REMSYN082AAXX  28061 23256 11998 80501 11349 21384 40181 52001 69970 77171 83036 333 21350;
0140232560999992000122809004+67470+078720FM-12+000899999V0200501N001019999999N0200001N1-03441-03811101821ADDAY171031AY221031GF108991031001999999031061MD1210011+9999MW1711REMSYN066AAXX  28091 23256 41998 80501 11344 21381 40182 52001 77172 83036;
0161232560999992000122812004+67470+078720FM-12+000899999V0209999C000019999999N0200001N1-03351-03721101881ADDAY171061AY221061GF108991041001999999031061MA1999999101491MD1210061+9999MW1711REMSYN072AAXX  28121 23256 41998 80000 11335 21372 30149 40188 52006 77172 84036;
0163232560999992000122815004+67470+078720FM-12+000899999V0209999C000019999999N0200001N1-03361-03721101891ADDAY171031AY221031GF108991081001999999071999KA1999M-03341MD1210011+9999MW1711REMSYN076AAXX  28151 23256 /1998 80000 11336 21372 40189 52001 77172 8807/ 333 11334;
0135232560999992000122818004+67470+078720FM-12+000899999V0209999C000019999999N0200001N1-03461-03811101891ADDGF108991081001999999071999KA1999M-03341MD1410001+9999REMSYN070AAXX  28181 23256 11998 80000 11346 21381 40189 54000 8807/ 333 11334;
0140232560999992000122821004+67470+078720FM-12+000899999V0202301N002019999999N0200001N1-03701-04041101931ADDAY171031AY221031GF108991081001999999071999MD1210041+9999MW1711REMSYN066AAXX  28211 23256 41998 82302 11370 21404 40193 52004 77172 8807/;
0161232560999992000122900004+67470+078720FM-12+000899999V0202501N002019999999N0028001N1-03651-04001101951ADDAY171061AY221061GF108991081001999999071999MA1999999101561MD1210021+9999MW1711REMSYN072AAXX  29001 23256 41928 82502 11365 21400 30156 40195 52002 77172 8807/;
0180232560999992000122906004+67470+078720FM-12+000899999V0202301N003019999999N0040001N1-03711-04071102001ADDAA100000591AY171061AY221061GF108991001001999999001061KA1999N-03701MD1210041+9999MW1711REMSYN082AAXX  29061 23256 11996 82303 11371 21407 40200 52004 69940 77172 80006 333 21370;
0140232560999992000122909004+67470+078720FM-12+000899999V0202201N002019999999N0040001N1-03811-04151102081ADDAY171031AY221031GF108991001001999999001061MD1210071+9999MW1711REMSYN066AAXX  29091 23256 41996 82202 11381 21415 40208 52007 77172 80006;
0161232560999992000122912004+67470+078720FM-12+000899999V0202201N003019999999N0040001N1-03851-04271102191ADDAY171061AY221061GF108991001001999999001061MA1999999101791MD1210111+9999MW1711REMSYN072AAXX  29121 23256 41996 82203 11385 21427 30179 40219 52011 77172 80006;
0163232560999992000122915004+67470+078720FM-12+000899999V0202201N003019999999N0040001N1-03991-04411102271ADDAY171031AY221031GF108991001001999999001061KA1999M-03711MD1210081+9999MW1701REMSYN076AAXX  29151 23256 /1996 82203 11399 21441 40227 52008 77072 80006 333 11371;
0190232560999992000122918004+67470+078720FM-12+000899999V0202201N002012200019N0040001N1-04051-04451102341ADDAA100000391AY171061AY211061GA1001+999999999GF100991001001999999001001KA1999M-03711MD1210071+9999MW1041REMSYN076AAXX  29181 23256 11996 02202 11405 21445 40234 52007 69930 70471 333 11371;
0140232560999992000122921004+67470+078720FM-12+000899999V0202601N001019999999N0040001N1-03911-04311102441ADDAY171031AY211031GF108991001001999999001061MD1210101+9999MW1711REMSYN066AAXX  29211 23256 41996 82601 11391 21431 40244 52010 77171 80006;
0161232560999992000123000004+67470+078720FM-12+000899999V0202401N001019999999N0020001N1-03981-04411102541ADDAY171061AY211061GF108991001001999999001061MA1999999102141MD1210101+9999MW1711REMSYN072AAXX  30001 23256 41995 82401 11398 21441 30214 40254 52010 77171 80006;
0189232560999992000123003004+67470+078720FM-12+000899999V0201401N001012200019N0010001N1-04011-04411102611ADDAJ100269199999999AY171031AY211031GA1001+999999999GF100991001001999999001001IA1249MD1210071+9999MW1041REMSYN076AAXX  30031 23256 /1994 01401 11401 21441 40261 52007 70471 333 48026 55000;
0190232560999992000123006004+67470+078720FM-12+000899999V0202001N002010003019N0005001N1-03881-04311102681ADDAA100000391AY171061AY211061GA1091+999999999GF109991091999999999999999KA1999N-04121MD1210071+9999MW1041REMSYN076AAXX  30061 23256 11/93 92002 11388 21431 40268 52007 69930 70471 333 21412;
0150232560999992000123009004+67470+078720FM-12+000899999V0201601N002012200019N0010001N1-04151-04561102791ADDAY101031AY201031GA1001+999999999GF100991001001999999001001MD1210111+9999MW1041REMSYN060AAXX  30091 23256 41994 01602 11415 21456 40279 52011 70400;
0171232560999992000123012004+67470+078720FM-12+000899999V0201501N002012200019N0005001N1-04121-04511102971ADDAY101061AY201061GA1001+999999999GF100991001001999999001001MA1999999102571MD1210181+9999MW1041REMSYN066AAXX  30121 23256 41993 01502 11412 21451 30257 40297 52018 70400;
0203232560999992000123015004+67470+078720FM-12+000899999V0201801N001012200019N0005001N1-04211-04611103051ADDAA199000091AY101031AY201031GA1001+999999999GF100991001001999999001001KA1999M-03881MD1210081+9999MW1041REMSYN070AAXX  30151 23256 31993 01801 11421 21461 40305 52008 70400 333 11388;EQDQ01  00002PRCP99
0203232560999992000123018004+67470+078720FM-12+000899999V0209999C000012200019N0005001N1-04171-04561103171ADDAA199000091AY101061AY201061GA1001+999999999GF100991001001999999001001KA1999M-03881MD1210121+9999MW1041REMSYN070AAXX  30181 23256 31993 00000 11417 21456 40317 52012 70400 333 11388;EQDQ01  00002PRCP99
0150232560999992000123021004+67470+078720FM-12+000899999V0201201N001012200019N0005001N1-04281-04681103331ADDAY101031AY201031GA1001+999999999GF100991001001999999001001MD1210151+9999MW1041REMSYN060AAXX  30211 23256 41993 01201 11428 21468 40333 52015 70400;
0171232560999992000123100004+67470+078720FM-12+000899999V0201201N001012200019N0005001N1-04361-04741103421ADDAY101061AY201061GA1001+999999999GF100991001001999999001001MA1999999103011MD1210091+9999MW1041REMSYN066AAXX  31001 23256 41993 01201 11436 21474 30301 40342 52009 70400;
0219232560999992000123103004+67470+078720FM-12+000899999V0201201N001012200019N0005001N1-04431-04821103551ADDAA199000091AJ100269199999999AY101031AY201031GA1001+999999999GF100991001001999999001001IA1249MD1210131+9999MW1041REMSYN076AAXX  31031 23256 31993 01201 11443 21482 40355 52013 70400 333 48026 55000;EQDQ01  00002PRCP99
0203232560999992000123106004+67470+078720FM-12+000899999V0201001N002012200019N0010001N1-04481-04891103651ADDAA199000091AY101061AY201061GA1001+999999999GF100991001001999999001001KA1999N-04431MD1210101+9999MW1041REMSYN070AAXX  31061 23256 31994 01002 11448 21489 40365 52010 70400 333 21443;EQDQ01  00002PRCP99
0150232560999992000123109004+67470+078720FM-12+000899999V0200901N002012200019N0020001N1-04471-04891103751ADDAY101031AY201031GA1001+999999999GF100991001001999999001001MD1210101+9999MW1041REMSYN060AAXX  31091 23256 41995 00902 11447 21489 40375 52010 70400;
0171232560999992000123112004+67470+078720FM-12+000899999V0200701N001012200019N0040001N1-04501-04891103901ADDAY101061AY201061GA1001+999999999GF100991001001999999001001MA1999999103491MD1210151+9999MW1041REMSYN066AAXX  31121 23256 41996 00701 11450 21489 30349 40390 52015 70400;
0203232560999992000123115004+67470+078720FM-12+000899999V0201201N001012200019N0020001N1-04471-04891103961ADDAA199000091AY101031AY201031GA1001+999999999GF100991001001999999001001KA1999M-04431MD1210051+9999MW1041REMSYN070AAXX  31151 23256 31995 01201 11447 21489 40396 52005 70400 333 11443;EQDQ01  00002PRCP99
0203232560999992000123118004+67470+078720FM-12+000899999V0209999C000012200019N0020001N1-04451-04821104001ADDAA199000091AY101061AY201061GA1001+999999999GF100991001001999999001001KA1999M-04431MD1210041+9999MW1041REMSYN070AAXX  31181 23256 31995 00000 11445 21482 40400 52004 70400 333 11443;EQDQ01  00002PRCP99
0150232560999992000123121004+67470+078720FM-12+000899999V0201401N002012200019N0020001N1-04491-04891104011ADDAY101031AY201031GA1001+999999999GF100991001001999999001001MD1210011+9999MW1041REMSYN060AAXX  31211 23256 41995 01402 11449 21489 40401 52001 70400;
