0187268820999992000010100004+53970+032850FM-12+021799999V0202401N005010024019N0060001N1-00371-00481102231ADDAY171061AY231061GA1081+002409069GF108991999071002501021999MA1999999099381MD1210071+9999MW1711REMSYN082AAXX  01001 26882 41356 82405 11037 21048 39938 40223 52007 77173 8872/ 333 88708;
0180268820999992000010103004+53970+032850FM-12+021799999V0202301N004010033019N0090001N1-00351-00461102271ADDAY171031AY221031GA1081+003309069GF108991999071004501021999GJ101269MD1210041+9999MW1711REMSYN082AAXX  01031 26882 41459 82304 11035 21046 40227 52004 77172 8872/ 333 55021 88711;
0231268820999992000010106004+53970+032850FM-12+021799999V0202301N005010030019N0090001N1-00391-00471102331ADDAA112000591AJ100259199999999AY171061AY221061GA1081+003009069GF108991999071004501021999IA1249KA1120N-00421MD1210041+9999MW1711REMSYN094AAXX  01061 26882 11459 82305 11039 21047 40233 52004 69962 77172 8872/ 333 21042 48025 88710;
0166268820999992000010109004+53970+032850FM-12+021799999V0202501N005010033019N0100001N1-00411-00531102361ADDAY171031AY221031GA1081+003309069GF108991081071004501999999MD1210031+9999MW1221REMSYN076AAXX  01091 26882 41460 82505 11041 21053 40236 52003 72272 887// 333 88711;
0187268820999992000010112004+53970+032850FM-12+021799999V0202401N004010039019N0180001N1-00381-00561102341ADDAY171061AY221061GA1071+003909059GF107991071051004501001001MA1999999099481MD1810011+9999MW1021REMSYN082AAXX  01121 26882 41468 72404 11038 21056 39948 40234 58001 70272 87500 333 87613;
0138268820999992000010115004+53970+032850FM-12+021799999V0202601N003010045019N0200001N1-00481-00611102391ADDGA1071+004509059GF107991071051004501001001MD1310041+9999REMSYN070AAXX  01151 26882 42470 72603 11048 21061 40239 53004 87500 333 87615;
0174268820999992000010118004+53970+032850FM-12+021799999V0202301N003010048019N0140001N1-00521-00621102391ADDAA112000791GA1071+004809059GF107991071051004501001001KA1120M-00351MD1810011+9999REMSYN082AAXX  01181 26882 12464 72303 11052 21062 40239 58001 69902 87500 333 11035 87616;
0166268820999992000010121004+53970+032850FM-12+021799999V0202701N003010021019N0060001N1-00501-00531102421ADDAY171031AY221031GA1081+002109069GF108991999071002501021999MD1210031+9999MW1711REMSYN076AAXX  01211 26882 41356 82703 11050 21053 40242 52003 77172 8872/ 333 88707;
0206268820999992000010200004+53970+032850FM-12+021799999V0203401N002010030019N0090001N1-00681-00801102461ADDAY171061AY221061GA1081+003009069GF108991999071004501021999MA1999999099561MD1210021+9999MW1711REMSYN082AAXX  02001 26882 41459 83402 11068 21080 39956 40246 52002 77172 8872/ 333 88710;EQDQ01+000082SCOTLC
0150268820999992000010203004+53970+032850FM-12+021799999V0203401N002012200019N0300001N1-00981-01191102521ADDAY171031AY211031GF102991021001999999031001MD1210021+9999MW1011REMSYN076AAXX  02031 26882 41980 23402 11098 21119 40252 52002 70171 82030 333 55000;
0231268820999992000010206004+53970+032850FM-12+021799999V0203301N002010030019N0200001N1-00921-01081102501ADDAA112000591AJ100269199999999AY171061AY211061GA1071+003009059GF107991071051002501001001IA1249KA1120N-01211MD1710011+9999MW1021REMSYN094AAXX  02061 26882 11370 73302 11092 21108 40250 57001 69952 70271 87500 333 21121 48026 87610;
0113268820999992000010209004+53970+032850FM-12+021799999V0203301N003019999999N0120001N1-00861-01051102541ADDGF107991999999008001999999REMSYN075AAXX  02091 26882 41562 73303 11086 21105 40254 5006 70272 87500 333 87622;
0161268820999992000010212004+53970+032850FM-12+021799999V0203301N004019999999N0200001N1-00901-01151102561ADDAY171061AY221061GF107991071001999999031001MA1999999099631MD1410001+9999MW1021REMSYN072AAXX  02121 26882 41970 73304 11090 21115 39963 40256 54000 70272 87030;
0112268820999992000010215004+53970+032850FM-12+021799999V0203401N003019999999N0200001N1-00931-01141102561ADDGF107991071001999999031001MD1410001+9999REMSYN060AAXX  02151 26882 42970 73403 11093 21114 40256 54000 87030;
0208268820999992000010218004+53970+032850FM-12+021799999V0203401N002010009019N0047001N1-01131-01261102591ADDAA112000791AY111061AY211061GA1081+000909079GF108991081061001501999999KA1120M-00811MD1310011+9999MW1101REMSYN094AAXX  02181 26882 11247 83402 11113 21126 40259 53001 69902 71011 886// 333 11081 88703 93502;
0150268820999992000010221004+53970+032850FM-12+021799999V0209999C000010003019N0005001N1-01231-01291102591ADDAY141031AY221031GA1091+999999999GF109991091999999999999999MD1810011+9999MW1491REMSYN060AAXX  02211 26882 41/05 90000 11123 21129 40259 58001 74942;
0181268820999992000010300004+53970+032850FM-12+021799999V0209999C000010003019N0002001N1-01451-01511102571ADDAY141061AY221061GA1091+999999999GF109991091999999999999999MA1999999099591MD1710041+9999MW1491REMSYN076AAXX  03001 26882 41/02 90000 11145 21151 39959 40257 57004 74942 333 93520;
0186268820999992000010303004+53970+032850FM-12+021799999V0200101N001010009019N0018001N1-01631-01761102411ADDAY141031AY221031GA1081+000909079GF108991081061000751999999GJ100009MD1710181+9999MW1281REMSYN088AAXX  03031 26882 41118 80101 11163 21176 40241 57018 72842 886// 333 55000 88703 93526;
0250268820999992000010306004+53970+032850FM-12+021799999V0201201N002010039019N0180001N1-01501-01631102221ADDAA106000091AJ100229199999999AY141061AY221061GA1071+003909069GF107991071051004501001001IA1249KA1120N-01711MD1710181+9999MW1021REMSYN094AAXX  03061 26882 31468 71202 11150 21163 40222 57018 70242 87500 333 21171 48022 87613 93534;EQDQ01  00002PRCP06
0191268820999992000010309004+53970+032850FM-12+021799999V0201701N003010027019N0060001N1-01031-01161101961ADDAY171031AY221031GA1081+002709079GF108991999071002501021999MD1710191+9999MW1711REMSYN082AAXX  03091 26882 41356 81703 11103 21116 40196 57019 77172 8872/ 333 88709 93526;EQDQ01+000082SCOTLC
0161268820999992000010312004+53970+032850FM-12+021799999V0201501N004010300019N0150001N1-00791-00931101801ADDAY171061AY221061GF106991021051008001031091MA1999999098901MD1710141+9999MW1221REMSYN072AAXX  03121 26882 41565 61504 11079 21093 39890 40180 57014 72272 82539;
0138268820999992000010315004+53970+032850FM-12+021799999V0201501N002010039019N0260001N1-00771-00911101761ADDGA1071+003909059GF107991071051004501001001MD1710031+9999REMSYN070AAXX  03151 26882 42476 71502 11077 21091 40176 57003 87500 333 87613;
0174268820999992000010318004+53970+032850FM-12+021799999V0201701N004010030019N0230001N1-00801-00941101791ADDAA112000191GA1071+003009059GF107991071051002501001001KA1120M-00751MD1210021+9999REMSYN082AAXX  03181 26882 12373 71704 11080 21094 40179 52002 69922 87500 333 11075 87610;
0185268820999992000010321004+53970+032850FM-12+021799999V0201901N006010018019N0090001N1-00731-00821101781ADDAY171031AY221031GA1081+001809069GF108991999071001501021999MD1410001+9999MW1711REMSYN076AAXX  03211 26882 41259 81906 11073 21082 40178 54000 77172 8872/ 333 88706;EQDQ01+000082SCOTLC
0206268820999992000010400004+53970+032850FM-12+021799999V0202201N008010018019N0080001N1-00701-00791101771ADDAY171061AY221061GA1081+001809069GF108991999071001501021999MA1999999098881MD1710011+9999MW1711REMSYN082AAXX  04001 26882 41258 82208 11070 21079 39888 40177 57001 77172 8872/ 333 88706;EQDQ01+000082SCOTLC
0199268820999992000010403004+53970+032850FM-12+021799999V0202201N006010018019N0080001N1-00551-00621101691ADDAY171031AY221031GA1081+001809069GF108991999071001501021999GJ100009MD1710051+9999MW1711REMSYN082AAXX  04031 26882 41258 82206 11055 21062 40169 57005 77172 8872/ 333 55000 88706;EQDQ01+000082SCOTLC
0237268820999992000010406004+53970+032850FM-12+021799999V0202101N005010012019N0034001N1-00421-00441101741ADDAA112000591AJ100229199999999AY171061AY251061GA1081+001209079GF108991081061001501999999IA1249KA1120N-00791MD1310061+9999MW1101REMSYN100AAXX  04061 26882 11234 82105 11042 21044 40174 53006 69952 71075 886// 333 21079 48022 88704 93401;
0160268820999992000010409004+53970+032850FM-12+021799999V0202001N005010006019N0009001N1-00351-00401101671ADDAY141031AY221031GA1091+999999999GF109991091999999999999999MD1810051+9999MW1431REMSYN070AAXX  04091 26882 41/09 92005 11035 21040 40167 58005 74342 333 93401;
0193268820999992000010412004+53970+032850FM-12+021799999V0202001N007010018019N0070001N1-00281-00351101441ADDAY141061AY221061GA1081+001809079GF108991081061001501999999MA1999999098621MD1710221+9999MW1101REMSYN088AAXX  04121 26882 41257 82007 11028 21035 39862 40144 57022 71042 886// 333 88706 93401;
0191268820999992000010415004+53970+032850FM-12+021799999V0202201N010010024019N0050001N1-00201-00261101301ADDAY171031AY231031GA1081+002409079GF108991999071002501021999MD1710131+9999MW1711REMSYN082AAXX  04151 26882 41350 82210 11020 21026 40130 57013 77173 8872/ 333 88708 91113;EQDQ01+000082SCOTLC
0221268820999992000010418004+53970+032850FM-12+021799999V0202201N009010018019N0018001N1-00191-00271101071ADDAA112001091AY171061AY231061GA1081+001809069GF108991999071001501021999KA1120M-00191MD1710221+9999MW1731REMSYN088AAXX  04181 26882 11218 82209 11019 21027 40107 57022 60012 77373 8872/ 333 11019 88706;EQDQ01+000082SCOTLC
0166268820999992000010421004+53970+032850FM-12+021799999V0202501N007010021019N0070001N1-00031-00091101061ADDAY171031AY231031GA1081+002109069GF108991081061002501999999MD1410001+9999MW1221REMSYN076AAXX  04211 26882 41357 82507 11003 21009 40106 54000 72273 886// 333 88707;
0187268820999992000010500004+53970+032850FM-12+021799999V0202401N005010078019N0280001N1+00001-00141101071ADDAY171061AY231061GA1071+007809059GF107991071051008001001001MA1999999098291MD1310021+9999MW1021REMSYN082AAXX  05001 26882 41578 72405 10000 21014 39829 40107 53002 70273 87500 333 87626;
0152268820999992000010503004+53970+032850FM-12+021799999V0202401N007010096019N0500001N1+00031-00221101081ADDGA1071+009609059GF107991071051008001001001GJ100009MD1210011+9999REMSYN076AAXX  05031 26882 42584 72407 10003 21022 40108 52001 87500 333 55000 87632;
0203268820999992000010506004+53970+032850FM-12+021799999V0202601N006010090019N0200001N1+00021-00271101161ADDAA112000591AJ100219199999999GA1071+009009029GF107991071051008001001001IA1239KA1120N-00191MD1210081+9999REMSYN088AAXX  05061 26882 12570 72606 10002 21027 40116 52008 69942 87500 333 21019 47021 87530;
0138268820999992000010509004+53970+032850FM-12+021799999V0202601N007010078019N0200001N1+00031-00291101251ADDGA1071+007809059GF107991071051008001001001MD1210091+9999REMSYN070AAXX  05091 26882 42570 72607 10003 21029 40125 52009 87500 333 87626;
0159268820999992000010512004+53970+032850FM-12+021799999V0202501N005010081019N0200001N1+00001-00361101251ADDGA1071+008109059GF107991071051008001001001MA1999999098471MD1410001+9999REMSYN076AAXX  05121 26882 42570 72505 10000 21036 39847 40125 54000 87500 333 87627;
0138268820999992000010515004+53970+032850FM-12+021799999V0202401N005010078019N0240001N1-00061-00441101391ADDGA1071+007809059GF107991071051008001001001MD1310121+9999REMSYN070AAXX  05151 26882 42574 72405 11006 21044 40139 53012 87500 333 87626;
0187268820999992000010518004+53970+032850FM-12+021799999V0202601N003010057019N0500001N1-00121-00481101501ADDAA106000091GA1071+005709059GF107991071051004501001001KA1120M+00071MD1210101+9999REMSYN076AAXX  05181 26882 32484 72603 11012 21048 40150 52010 87500 333 10007 87619;EQDQ01  00002PRCP06
0138268820999992000010521004+53970+032850FM-12+021799999V0202701N002010057019N0500001N1-00151-00521101701ADDGA1071+005709059GF107991071051004501001001MD1210191+9999REMSYN070AAXX  05211 26882 42484 72702 11015 21052 40170 52019 87500 333 87619;
0152268820999992000010603004+53970+032850FM-12+021799999V0202601N002010066019N0500001N1-00201-00571101931ADDGA1071+006609059GF107991071051008001001001GJ100009MD1210151+9999REMSYN076AAXX  06031 26882 42584 72602 11020 21057 40193 52015 87500 333 55000 87622;
0216268820999992000010606004+53970+032850FM-12+021799999V0202601N001010078019N0200001N1-00191-00561102121ADDAA106000091AJ100219199999999GA1071+007809059GF107991071051008001001001IA1239KA1120N-00251MD1210181+9999REMSYN082AAXX  06061 26882 32570 72601 11019 21056 40212 52018 87500 333 21025 47021 87626;EQDQ01  00002PRCP06
0138268820999992000010609004+53970+032850FM-12+021799999V0202801N003010072019N0200001N1-00121-00481102321ADDGA1071+007209059GF107991071051008001001001MD1210201+9999REMSYN070AAXX  06091 26882 42570 72803 11012 21048 40232 52020 87500 333 87624;
0159268820999992000010612004+53970+032850FM-12+021799999V0203001N002010081019N0200001N1-00051-00621102391ADDGA1071+008109059GF107991071051008001001001MA1999999099561MD1210081+9999REMSYN076AAXX  06121 26882 42570 73002 11005 21062 39956 40239 52008 87500 333 87627;
0138268820999992000010615004+53970+032850FM-12+021799999V0202901N002010072019N0350001N1-00241-00721102521ADDGA1071+007209059GF107991071051008001001001MD1210111+9999REMSYN070AAXX  06151 26882 42581 72902 11024 21072 40252 52011 87500 333 87624;
0159268820999992000010700004+53970+032850FM-12+021799999V0202401N004010057019N0500001N1-00651-00891102721ADDGA1071+005709059GF107991071051004501001001MA1999999099821MD1210031+9999REMSYN076AAXX  07001 26882 42484 72404 11065 21089 39982 40272 52003 87500 333 87619;
0152268820999992000010703004+53970+032850FM-12+021799999V0202401N005010039019N0500001N1-00501-00741102671ADDGA1071+003909059GF107991071051004501001001GJ100009MD1810041+9999REMSYN076AAXX  07031 26882 42484 72405 11050 21074 40267 58004 87500 333 55000 87613;
0216268820999992000010706004+53970+032850FM-12+021799999V0202301N006010039019N0200001N1-00581-00761102611ADDAA106000091AJ100219199999999GA1071+003909059GF107991071051004501001001IA1239KA1120N-00651MD1710051+9999REMSYN082AAXX  07061 26882 32470 72306 11058 21076 40261 57005 87500 333 21065 47021 87613;EQDQ01  00002PRCP06
0138268820999992000010709004+53970+032850FM-12+021799999V0202301N006010039019N0200001N1-00561-00741102601ADDGA1071+003909059GF107991071051004501001001MD1410001+9999REMSYN070AAXX  07091 26882 42470 72306 11056 21074 40260 54000 87500 333 87613;
0159268820999992000010712004+53970+032850FM-12+021799999V0202301N008010036019N0200001N1-00401-00591102471ADDGA1071+003609059GF107991071051004501001001MA1999999099601MD1710121+9999REMSYN076AAXX  07121 26882 42470 72308 11040 21059 39960 40247 57012 87500 333 87612;
0138268820999992000010715004+53970+032850FM-12+021799999V0202301N006010039019N0180001N1-00281-00441102401ADDGA1071+003909059GF107991071051004501001001MD1710051+9999REMSYN070AAXX  07151 26882 42468 72306 11028 21044 40240 57005 87500 333 87613;
0208268820999992000010718004+53970+032850FM-12+021799999V0202401N007010021019N0070001N1-00251+99999102351ADDAA112000791AY151061AY221061GA1081+002109079GF108991081061002501999999KA1120M-00231MD1710051+9999MW1571REMSYN094AAXX  07181 26882 11357 82407 11025 21023 40235 57005 69902 75752 886// 333 11023 88707 93400;
0172268820999992000010721004+53970+032850FM-12+021799999V0202301N006010030019N0090001N1-00181-00231102341ADDAY151031AY221031GA1081+003009079GF108991081061004501999999MD1410001+9999MW1101REMSYN082AAXX  07211 26882 41459 82306 11018 21023 40234 54000 71052 886// 333 88710 93401;
0193268820999992000010800004+53970+032850FM-12+021799999V0202401N005010039019N0150001N1-00161-00211102331ADDAY151061AY221061GA1071+003909069GF107991071051004501001001MA1999999099491MD1810011+9999MW1021REMSYN088AAXX  08001 26882 41465 72405 11016 21021 39949 40233 58001 70252 87500 333 87613 93400;
0152268820999992000010803004+53970+032850FM-12+021799999V0202501N003010024019N0140001N1-00131-00181102331ADDGA1071+002409059GF107991071051002501001001GJ100009MD1410001+9999REMSYN076AAXX  08031 26882 42364 72503 11013 21018 40233 54000 87500 333 55000 87608;
0203268820999992000010806004+53970+032850FM-12+021799999V0202601N006010030019N0150001N1-00151-00231102331ADDAA112000791AJ100199199999999GA1071+003009059GF107991071051002501001001IA1239KA1120N-00251MD1410001+9999REMSYN088AAXX  08061 26882 12365 72606 11015 21023 40233 54000 69902 87500 333 21025 47019 87610;
0138268820999992000010809004+53970+032850FM-12+021799999V0202701N005010048019N0200001N1-00171-00341102361ADDGA1071+004809059GF107991071051004501001001MD1310031+9999REMSYN070AAXX  08091 26882 42470 72705 11017 21034 40236 53003 87500 333 87616;
0159268820999992000010812004+53970+032850FM-12+021799999V0202601N006010039019N0180001N1-00151-00321102361ADDGA1071+003909059GF107991071051004501001001MA1999999099521MD1410001+9999REMSYN076AAXX  08121 26882 42468 72606 11015 21032 39952 40236 54000 87500 333 87613;
0138268820999992000010815004+53970+032850FM-12+021799999V0202501N006010045019N0260001N1-00111-00301102361ADDGA1071+004509059GF107991071051004501001001MD1410001+9999REMSYN070AAXX  08151 26882 42476 72506 11011 21030 40236 54000 87500 333 87615;
0187268820999992000010818004+53970+032850FM-12+021799999V0202301N005010030019N0140001N1-00101-00171102341ADDAA106000091GA1071+003009059GF107991071051004501001001KA1120M-00081MD1710021+9999REMSYN076AAXX  08181 26882 32464 72305 11010 21017 40234 57002 87500 333 11008 87610;EQDQ01  00002PRCP06
0138268820999992000010821004+53970+032850FM-12+021799999V0202401N006010021019N0150001N1-00101-00171102331ADDGA1081+002109069GF108991081061002501999999MD1710011+9999REMSYN070AAXX  08211 26882 42365 82406 11010 21017 40233 57001 886// 333 88707;
0159268820999992000010900004+53970+032850FM-12+021799999V0202501N007010036019N0150001N1-00131-00231102311ADDGA1071+003609059GF107991071051004501001001MA1999999099471MD1710021+9999REMSYN076AAXX  09001 26882 42465 72507 11013 21023 39947 40231 57002 87500 333 87612;
0152268820999992000010903004+53970+032850FM-12+021799999V0202601N007010042019N0170001N1-00051-00171102281ADDGA1071+004209059GF107991071051004501001001GJ100009MD1710021+9999REMSYN076AAXX  09031 26882 42467 72607 11005 21017 40228 57002 87500 333 55000 87614;
0166268820999992000010909004+53970+032850FM-12+021799999V0202501N004010012019N0022001N1+00051+00021102361ADDAY151031AY221031GA1081+001209069GF108991081061001501999999MD1210041+9999MW1531REMSYN076AAXX  09091 26882 41222 82504 10005 20002 40236 52004 75352 886// 333 88704;
0187268820999992000010912004+53970+032850FM-12+021799999V0202401N004010018019N0050001N1+00051+00021102421ADDAY151061AY221061GA1081+001809069GF108991081061001501999999MA1999999099601MD1210061+9999MW1511REMSYN082AAXX  09121 26882 41250 82404 10005 20002 39960 40242 52006 75152 886// 333 88706;
0166268820999992000010915004+53970+032850FM-12+021799999V0202401N003010012019N0070001N1+00031+00001102451ADDAY171031AY251031GA1081+001209069GF108991081061001501999999MD1210031+9999MW1221REMSYN076AAXX  09151 26882 41257 82403 10003 20000 40245 52003 72275 886// 333 88704;
0202268820999992000010918004+53970+032850FM-12+021799999V0202301N003010015019N0014001N1+00011-00021102461ADDAA112000391AY171061AY251061GA1081+001509069GF108991081061001501999999KA1120M+00071MD1210011+9999MW1101REMSYN088AAXX  09181 26882 11214 82303 10001 21002 40246 52001 69932 71075 886// 333 10007 88705;
0166268820999992000010921004+53970+032850FM-12+021799999V0202401N004010018019N0023001N1-00011-00041102461ADDAY121031AY221031GA1081+001809069GF108991081061001501999999MD1410001+9999MW1101REMSYN076AAXX  09211 26882 41223 82404 11001 21004 40246 54000 71022 886// 333 88706;
0187268820999992000011000004+53970+032850FM-12+021799999V0202301N003010012019N0012001N1-00111-00121102501ADDAY121061AY221061GA1081+001209069GF108991081061001501999999MA1999999099661MD1310021+9999MW1101REMSYN082AAXX  10001 26882 41212 82303 11011 21012 39966 40250 53002 71022 886// 333 88704;
0180268820999992000011003004+53970+032850FM-12+021799999V0202501N004010018019N0027001N1-00071-00111102491ADDAY121031AY221031GA1081+001809069GF108991081061001501999999GJ100009MD1410001+9999MW1101REMSYN082AAXX  10031 26882 41227 82504 11007 21011 40249 54000 71022 886// 333 55000 88706;
0244268820999992000011006004+53970+032850FM-12+021799999V0202501N003010018019N0026001N1-00131-00191102531ADDAA106000091AJ100189199999999AY121061AY221061GA1081+001809069GF108991081061002501999999IA1279KA1120N-00151MD1310031+9999MW1101REMSYN088AAXX  10061 26882 31326 82503 11013 21019 40253 53003 71022 886// 333 21015 43018 88706;EQDQ01  00002PRCP06
0185268820999992000011009004+53970+032850FM-12+021799999V0202401N005010012019N0011001N1-00041-00041102531ADDAY171031AY221031GA1081+001209069GF108991999071001501021999MD1210011+9999MW1731REMSYN076AAXX  10091 26882 41211 82405 11004 21004 40253 52001 77372 8872/ 333 88704;EQDQ01+000082SCOTLC
0187268820999992000011012004+53970+032850FM-12+021799999V0202601N005010021019N0034001N1+00061-00101102521ADDAY171061AY221061GA1081+002109069GF108991081061002501999999MA1999999099701MD1410001+9999MW1101REMSYN082AAXX  10121 26882 41334 82605 10006 21010 39970 40252 54000 71072 886// 333 88707;
0166268820999992000011015004+53970+032850FM-12+021799999V0202801N005010015019N0060001N1+00051-00031102611ADDAY121031AY221031GA1081+001509069GF108991081061001501999999MD1310081+9999MW1101REMSYN076AAXX  10151 26882 41256 82805 10005 21003 40261 53008 71022 886// 333 88705;
0202268820999992000011018004+53970+032850FM-12+021799999V0203101N005010045019N0060001N1+00061+00011102751ADDAA112000391AY121061AY221061GA1071+004509059GF107991071051004501001001KA1120M+00081MD1210141+9999MW1101REMSYN088AAXX  10181 26882 11456 73105 10006 20001 40275 52014 69932 71022 87500 333 10008 87615;
0138268820999992000011021004+53970+032850FM-12+021799999V0202801N003010036019N0350001N1+00011-00161102901ADDGA1071+003609059GF107991071051004501001001MD1210151+9999REMSYN070AAXX  10211 26882 42481 72803 10001 21016 40290 52015 87500 333 87612;
0159268820999992000011100004+53970+032850FM-12+021799999V0202901N003010027019N0180001N1-00021-00171103001ADDGA1071+002709059GF107991071051002501001001MA1999999100091MD1210121+9999REMSYN076AAXX  11001 26882 42368 72903 11002 21017 30009 40300 52012 87500 333 87609;
0152268820999992000011103004+53970+032850FM-12+021799999V0202901N003010030019N0220001N1-00021-00171103261ADDGA1071+003009059GF107991071051004501001001GJ100009MD1210221+9999REMSYN076AAXX  11031 26882 42472 72903 11002 21017 40326 52022 87500 333 55000 87610;
0216268820999992000011106004+53970+032850FM-12+021799999V0202901N004010117019N0200001N1-00031-00211103201ADDAA106000091AJ100189199999999GA1071+011709059GF107991071051012501001001IA1279KA1120N-00051MD1210041+9999REMSYN082AAXX  11061 26882 32670 72904 11003 21021 40320 52004 87500 333 21005 43018 87639;EQDQ01  00002PRCP06
0138268820999992000011109004+53970+032850FM-12+021799999V0202801N003010093019N0200001N1-00011-00151103301ADDGA1071+009309059GF107991071051008001001001MD1210101+9999REMSYN070AAXX  11091 26882 42570 72803 11001 21015 40330 52010 87500 333 87631;
0159268820999992000011112004+53970+032850FM-12+021799999V0202601N003010096019N0200001N1+00021-00251103341ADDGA1071+009609059GF107991071051008001001001MA1999999100501MD1210051+9999REMSYN076AAXX  11121 26882 42570 72603 10002 21025 30050 40334 52005 87500 333 87632;
0138268820999992000011115004+53970+032850FM-12+021799999V0202701N004010075019N0350001N1-00021-00381103391ADDGA1071+007509059GF107991071051008001001001MD1210041+9999REMSYN070AAXX  11151 26882 42581 72704 11002 21038 40339 52004 87500 333 87625;
0187268820999992000011118004+53970+032850FM-12+021799999V0202601N003010090019N0240001N1-00081-00431103421ADDAA106000091GA1071+009009059GF107991071051008001001001KA1120M+00041MD1210031+9999REMSYN076AAXX  11181 26882 32574 72603 11008 21043 40342 52003 87500 333 10004 87630;EQDQ01  00002PRCP06
0138268820999992000011121004+53970+032850FM-12+021799999V0202801N004010078019N0280001N1-00101-00531103431ADDGA1071+007809059GF107991071051008001001001MD1410001+9999REMSYN070AAXX  11211 26882 42578 72804 11010 21053 40343 54000 87500 333 87626;
0159268820999992000011200004+53970+032850FM-12+021799999V0202701N004010069019N0260001N1-00131-00501103471ADDGA1071+006909059GF107991071051008001001001MA1999999100611MD1310041+9999REMSYN076AAXX  12001 26882 42576 72704 11013 21050 30061 40347 53004 87500 333 87623;
0152268820999992000011203004+53970+032850FM-12+021799999V0202801N006010066019N0300001N1-00121-00521103431ADDGA1071+006609059GF107991071051008001001001GJ100009MD1810041+9999REMSYN076AAXX  12031 26882 42580 72806 11012 21052 40343 58004 87500 333 55000 87622;
0216268820999992000011206004+53970+032850FM-12+021799999V0202801N004010063019N0200001N1-00181-00581103431ADDAA106000091AJ100189199999999GA1071+006309059GF107991071051008001001001IA1279KA1120N-00181MD1410001+9999REMSYN082AAXX  12061 26882 32570 72804 11018 21058 40343 54000 87500 333 21018 43018 87621;EQDQ01  00002PRCP06
0138268820999992000011209004+53970+032850FM-12+021799999V0202901N007010084019N0200001N1-00141-00621103481ADDGA1071+008409059GF107991071051008001001001MD1210051+9999REMSYN070AAXX  12091 26882 42570 72907 11014 21062 40348 52005 87500 333 87628;
0159268820999992000011212004+53970+032850FM-12+021799999V0202501N004010069019N0200001N1-00111-00501103411ADDGA1071+006909059GF107991071051008001001001MA1999999100551MD1810071+9999REMSYN076AAXX  12121 26882 42570 72504 11011 21050 30055 40341 58007 87500 333 87623;
0138268820999992000011215004+53970+032850FM-12+021799999V0202401N004010069019N0500001N1-00191-00541103441ADDGA1071+006909059GF107991071051008001001001MD1310021+9999REMSYN070AAXX  12151 26882 42584 72404 11019 21054 40344 53002 87500 333 87623;
0165268820999992000011218004+53970+032850FM-12+021799999V0202401N004019999999N0500001N1-00281-00581103421ADDAA106000091GF107991071001999999031001KA1999M-00091MD1810021+9999REMSYN070AAXX  12181 26882 32984 72404 11028 21058 40342 58002 87030 333 11009;EQDQ01  00002PRCP06
0112268820999992000011221004+53970+032850FM-12+021799999V0202301N004019999999N0400001N1-00341-00621103371ADDGF107991071001999999051001MD1710071+9999REMSYN060AAXX  12211 26882 42982 72304 11034 21062 40337 57007 87050;
0143268820999992000011300004+53970+032850FM-12+021799999V0202201N006012200019N0300001N1-00611-00801103341ADDGA1001+999999999GF100991001001999999001001MA1999999100421MD1710061+9999REMSYN060AAXX  13001 26882 42980 02206 11061 21080 30042 40334 57006;
0132268820999992000011303004+53970+032850FM-12+021799999V0202201N005012200019N0210001N1-00861-00931103251ADDGA1001+999999999GF100991001001999999001001MD1710101+9999REMSYN064AAXX  13031 26882 42971 02205 11086 21093 40325 57010 333 55000;
0222268820999992000011306004+53970+032850FM-12+021799999V0202301N006019999999N0050001N1-00931-01001103221ADDAA106000091AJ100179199999999AY111061AY211061GF107991001001999999001051IA1279KA1120N-00941MD1710041+9999MW1101REMSYN082AAXX  13061 26882 31950 72306 11093 21100 40322 57004 71011 80005 333 21094 43017;EQDQ01  00002PRCP06
0112268820999992000011309004+53970+032850FM-12+021799999V0202401N006019999999N0120001N1-00691-00851103201ADDGF105991001001999999001011MD1410001+9999REMSYN060AAXX  13091 26882 42962 52406 11069 21085 40320 54000 80001;
0133268820999992000011312004+53970+032850FM-12+021799999V0202401N005019999999N0200001N1-00501-00861103181ADDGF105991001001999999001021MA1999999100281MD1410001+9999REMSYN066AAXX  13121 26882 42970 52405 11050 21086 30028 40318 54000 80002;
0112268820999992000011315004+53970+032850FM-12+021799999V0202201N004012200019N0200001N1-00651-01061103171ADDGF104991001001999999001011MD1810021+9999REMSYN060AAXX  13151 26882 42970 42204 11065 21106 40317 58002 80001;
0175268820999992000011318004+53970+032850FM-12+021799999V0202301N005012200019N0500001N1-00721-01061103161ADDAA106000091GA1001+999999999GF100991001001999999001001KA1999M-00381MD1710021+9999REMSYN064AAXX  13181 26882 32984 02305 11072 21106 40316 57002 333 11038;EQDQ01  00002PRCP06
0126268820999992000011321004+53970+032850FM-12+021799999V0202201N005012200019N0500001N1-00801-01071103171ADDGA1001+999999999GF100991001001999999001001MD1410001+9999REMSYN058    AAXX  13211 26882 42984 02205 11080 21107 40317 54000;
0147268820999992000011400004+53970+032850FM-12+021799999V0202101N006012200019N0500001N1-00861-01101103171ADDGA1001+999999999GF100991001001999999001001MA1999999100241MD1410001+9999REMSYN064    AAXX  14001 26882 42984 02106 11086 21110 30024 40317 54000;
0136268820999992000011403004+53970+032850FM-12+021799999V0202201N006012200019N0500001N1-01161-01361103101ADDGA1001+999999999GF100991001001999999001001MD1710111+9999REMSYN068    AAXX  14031 26882 42984 02206 11116 21136 40310 57011 333 55064;
0248268820999992000011406004+53970+032850FM-12+021799999V0202601N004010015019N0050001N1-01071-01201103181ADDAA199000091AJ100179199999999AY111061AY211061GA1081+001509069GF108991081061001501999999IA1279KA1120N-01311MD1310081+9999MW1101REMSYN092    AAXX  14061 26882 31250 82604 11107 21120 40318 53008 71011 886// 333 21131 43017 88705;EQDQ01  00002PRCP99
0176268820999992000011409004+53970+032850FM-12+021799999V0202601N004010015019N0050001N1-00971-01141103191ADDAY171031AY221031GA1081+001509079GF108991081061001501999999MD1210041+9999MW1771REMSYN086    AAXX  14091 26882 41250 82604 11097 21114 40319 52004 77772 886// 333 88705 93503;
0197268820999992000011412004+53970+032850FM-12+021799999V0202201N003010015019N0050001N1-00951-01071103141ADDAY171061AY221061GA1081+001509079GF108991081061001501999999MA1999999100201MD1810051+9999MW1101REMSYN092    AAXX  14121 26882 41250 82203 11095 21107 30020 40314 58005 71072 886// 333 88705 93503;
0154268820999992000011415004+53970+032850FM-12+021799999V0202601N001012200019N0032001N1-01151-01211103201ADDAY111031AY211031GA1001+999999999GF100991001001999999001001MD1310031+9999MW1101REMSYN064    AAXX  14151 26882 41932 02601 11115 21121 40320 53003 71011;
0206268820999992000011418004+53970+032850FM-12+021799999V0202601N002010015019N0025001N1-01051-01111103121ADDAA112000791AY141061AY211061GA1081+001509069GF108991081061001501999999KA1120M-00951MD1810061+9999MW1281REMSYN092    AAXX  14181 26882 11225 82602 11105 21111 40312 58006 69902 72841 886// 333 11095 88705;
0170268820999992000011421004+53970+032850FM-12+021799999V0202501N002010015019N0016001N1-01051-01111103121ADDAY121031AY221031GA1081+001509069GF108991081061001501999999MD1410001+9999MW1101REMSYN080    AAXX  14211 26882 41216 82502 11105 21111 40312 54000 71022 886// 333 88705;
0175268820999992000011500004+53970+032850FM-12+021799999V0202401N001010003019N0004001N1-01091-01151103131ADDAY141061AY221061GA1091+999999999GF109991091999999999999999MA1999999100161MD1810011+9999MW1491REMSYN070    AAXX  15001 26882 41/04 92401 11109 21115 30016 40313 58001 74942;
0242268820999992000011506004+53970+032850FM-12+021799999V0202401N003010006019N0008001N1-01301-01361102981ADDAA199000091AJ100179199999999AY141061AY221061GA1091+999999999GF109991091999999999999999IA1279KA1120N-01311MD1710061+9999MW1491REMSYN086    AAXX  15061 26882 31/08 92403 11130 21136 40298 57006 74942 333 21131 43017 93525;EQDQ01  00002PRCP99
0195268820999992000011509004+53970+032850FM-12+021799999V0202101N002010024019N0031001N1-01361-01421102931ADDAY171031AY241031GA1081+002409079GF108991999071002501021999MD1710051+9999MW1711REMSYN086    AAXX  15091 26882 41331 82102 11136 21142 40293 57005 77174 8872/ 333 88708 93525;EQDQ01+000082SCOTLC
0191268820999992000011512004+53970+032850FM-12+021799999V0202301N002010072019N0060001N1-01261-01321102751ADDAY171061AY241061GA1071+007209059GF107991071051008001001001MA1999999099781MD1810171+9999MW1101REMSYN086    AAXX  15121 26882 41556 72302 11126 21132 39978 40275 58017 71074 87500 333 87624;
0170268820999992000011515004+53970+032850FM-12+021799999V0202201N001010024019N0070001N1-01181-01241102631ADDAY121031AY221031GA1071+002409059GF107991071051002501001001MD1710111+9999MW1101REMSYN080    AAXX  15151 26882 41357 72201 11118 21124 40263 57011 71022 87500 333 87608;
0206268820999992000011518004+53970+032850FM-12+021799999V0202401N002010015019N0080001N1-01151-01211102611ADDAA112000791AY121061AY221061GA1081+001509069GF108991081061001501999999KA1120M-01151MD1610011+9999MW1101REMSYN092    AAXX  15181 26882 31258 82402 11115 21121 40261 56001 69902 71022 886// 333 11115 88705;
0176268820999992000011521004+53970+032850FM-12+021799999V0202301N003010012019N0070001N1-01051-01111102601ADDAY121031AY221031GA1081+001209079GF108991081061001501999999MD1710011+9999MW1101REMSYN086    AAXX  15211 26882 41257 82303 11105 21111 40260 57001 71022 886// 333 88704 88619;
0210268820999992000011600004+53970+032850FM-12+021799999V0202201N002010036019N0060001N1-01021-01081102561ADDAY171061AY221061GA1081+003609069GF108991999071004501021999MA1999999099621MD1710031+9999MW1711REMSYN086    AAXX  16001 26882 41456 82202 11102 21108 39962 40256 57003 77172 8872/ 333 88712;EQDQ01+000082SCOTLC
0203268820999992000011603004+53970+032850FM-12+021799999V0202301N003010027019N0070001N1-01071-01131102571ADDAY171031AY221031GA1081+002709069GF108991999071002501021999GJ100009MD1310011+9999MW1711REMSYN086    AAXX  16031 26882 41357 82303 11107 21113 40257 53001 77172 8872/ 333 55000 88709;EQDQ01+000082SCOTLC
0235268820999992000011606004+53970+032850FM-12+021799999V0202301N003010060019N0060001N1-01051-01111102441ADDAA112000591AJ100179199999999AY171061AY221061GA1071+006009059GF107991071051004501001001IA1239KA1120N-01151MD1810131+9999MW1101REMSYN098    AAXX  16061 26882 11456 72303 11105 21111 40244 58013 69942 71072 87500 333 21115 47017 87620;
0170268820999992000011609004+53970+032850FM-12+021799999V0202401N002010039019N0060001N1-00811-00911102361ADDAY121031AY221031GA1071+003909059GF107991071051004501001001MD1710051+9999MW1101REMSYN080    AAXX  16091 26882 41456 72402 11081 21091 40236 57005 71022 87500 333 87613;
0165268820999992000011612004+53970+032850FM-12+021799999V0202401N003019999999N0060001N1-00811-00911102251ADDAY121061AY221061GF106991021001999999031091MA1999999099341MD1710111+9999MW1101REMSYN076    AAXX  16121 26882 41956 62403 11081 21091 39934 40225 57011 71022 82039;
0170268820999992000011615004+53970+032850FM-12+021799999V0202501N003010027019N0042001N1-00741-00831102071ADDAY121031AY221031GA1071+002709059GF107991071051002501001001MD1710161+9999MW1101REMSYN080    AAXX  16151 26882 41342 72503 11074 21083 40207 57016 71022 87500 333 87609;
0219268820999992000011618004+53970+032850FM-12+021799999V0202401N006010015019N0050001N1-00731-00781101811ADDAA199000091AY121061AY221061GA1081+001509069GF108991081061001501999999KA1120M-00701MD1710261+9999MW1101REMSYN086    AAXX  16181 26882 31250 82406 11073 21078 40181 57026 71022 886// 333 11070 88705;EQDQ01  00002PRCP99
0189268820999992000011621004+53970+032850FM-12+021799999V0202201N007010024019N0050001N1-00781-00841101341ADDAY171031AY221031GA1081+002409069GF108991999071002501021999MD1710461+9999MW1711REMSYN080    AAXX  16211 26882 41350 82207 11078 21084 40134 57046 77172 8872/ 333 88708;EQDQ01+000082SCOTLC
0191268820999992000011700004+53970+032850FM-12+021799999V0202101N008010018019N0044001N1-00621-00701100671ADDAY171061AY221061GA1081+001809069GF108991081061001501999999MA1999999097831MD1710631+9999MW1101REMSYN086    AAXX  17001 26882 41244 82108 11062 21070 39783 40067 57063 71072 886// 333 88706;
0219268820999992000011703004+53970+032850FM-12+021799999V0202201N008010018019N0013001N1-00481-00581099992ADDAY171031AY231031GA1081+001809069GF108991999071001501021999GJ100009MD1710641+9999MW1731REMSYN086    AAXX  17031 26882 41213 82208 11048 21058 49999 57064 77373 8872/ 333 55000 88706;EQDQ01+000082SCOTLCQ02+099993APOSLP
0135268820999992000011706004+53970+032850FM-12+021799999V0202201N008019999999N0012001N1+99999+99999999999ADDGF108991999999001501999999REMSYN097    AAXX  17061 26882 11212 82208 1140 21045 49942 57055 60012 77373 8872/ 333 21078 47018 88706;
0189268820999992000011709004+53970+032850FM-12+021799999V0202101N008010018019N0018001N1-00311-00351099051ADDAY171031AY231031GA1081+001809069GF108991999071001501021999MD1710361+9999MW1731REMSYN080    AAXX  17091 26882 41218 82108 11031 21035 49905 57036 77373 8872/ 333 88706;EQDQ01+000082SCOTLC
0210268820999992000011712004+53970+032850FM-12+021799999V0202001N009010024019N0024001N1-00151-00201098571ADDAY171061AY231061GA1081+002409069GF108991999071002501021999MA1999999095841MD1710441+9999MW1731REMSYN086    AAXX  17121 26882 41324 82009 11015 21020 39584 49857 57044 77373 8872/ 333 88708;EQDQ01+000082SCOTLC
0189268820999992000011715004+53970+032850FM-12+021799999V0202001N007010030019N0050001N1-00401-00521098441ADDAY171031AY231031GA1081+003009069GF108991999071004501021999MD1710161+9999MW1711REMSYN080    AAXX  17151 26882 41450 82007 11040 21052 49844 57016 77173 8872/ 333 88710;EQDQ01+000082SCOTLC
0225268820999992000011718004+53970+032850FM-12+021799999V0201901N004010039019N0049001N1-00621-00741098201ADDAA112002091AY171061AY231061GA1081+003909069GF108991999071004501021999KA1120M-00141MD1710251+9999MW1711REMSYN092    AAXX  17181 26882 11449 81904 11062 21074 49820 57025 60022 77173 8872/ 333 11014 88713;EQDQ01+000082SCOTLC
0170268820999992000011721004+53970+032850FM-12+021799999V0201801N003010051019N0100001N1-00601-00711098071ADDAY171031AY221031GA1071+005109059GF107991071051004501001001MD1710131+9999MW1021REMSYN080    AAXX  17211 26882 41460 71803 11060 21071 49807 57013 70272 87500 333 87617;
0210268820999992000011800004+53970+032850FM-12+021799999V0201801N002010033019N0042001N1-00581-00691097971ADDAY171061AY221061GA1081+003309069GF108991999071004501021999MA1999999095221MD1710081+9999MW1711REMSYN086    AAXX  18001 26882 41442 81802 11058 21069 39522 49797 57008 77172 8872/ 333 88711;EQDQ01+000082SCOTLC
0203268820999992000011803004+53970+032850FM-12+021799999V0202001N001010036019N0039001N1-00591-00661097921ADDAY171031AY221031GA1071+003609059GF108991999071004501021999GJ100009MD1710061+9999MW1711REMSYN086    AAXX  18031 26882 41439 82001 11059 21066 49792 57006 77172 8872/ 333 55000 87612;EQDQ01+000082SCOTLC
0235268820999992000011806004+53970+032850FM-12+021799999V0202201N001010039019N0080001N1-00541-00611097921ADDAA112002091AJ100219199999999AY171061AY221061GA1071+003909059GF107991071051004501001001IA1239KA1120N-00621MD1310011+9999MW1101REMSYN098    AAXX  18061 26882 11458 72201 11054 21061 49792 53001 60022 71072 87500 333 21062 47021 87613;
0163268820999992000011812004+53970+032850FM-12+021799999V0202901N002010078019N0200001N1-00311-00481098021ADDGA1071+007809059GF107991071051008001001001MA1999999095281MD1210061+9999REMSYN080    AAXX  18121 26882 42570 72902 11031 21048 39528 49802 52006 87500 333 87626;
0142268820999992000011815004+53970+032850FM-12+021799999V0202901N001010051019N0260001N1-00371-00521098201ADDGA1071+005109059GF107991071051004501001001MD1210181+9999REMSYN074    AAXX  18151 26882 42476 72901 11037 21052 49820 52018 87500 333 87617;
0191268820999992000011818004+53970+032850FM-12+021799999V0202801N002010138019N0500001N1-00471-00671098381ADDAA199000091GA1071+013809059GF107991071051012501001001KA1120M-00291MD1210161+9999REMSYN080    AAXX  18181 26882 32684 72802 11047 21067 49838 52016 87500 333 11029 87646;EQDQ01  00002PRCP99
0142268820999992000011821004+53970+032850FM-12+021799999V0202801N002010093019N0260001N1-00441-00531098551ADDGA1071+009309059GF107991071051008001001001MD1210171+9999REMSYN074    AAXX  18211 26882 42576 72802 11044 21053 49855 52017 87500 333 87631;
0163268820999992000011900004+53970+032850FM-12+021799999V0202801N002010093019N0200001N1-00441-00531098601ADDGA1071+009309059GF107991071051008001001001MA1999999095851MD1210081+9999REMSYN080    AAXX  19001 26882 42570 72802 11044 21053 39585 49860 52008 87500 333 87631;
0203268820999992000011903004+53970+032850FM-12+021799999V0203401N004010045019N0090001N1-00421-00511098841ADDAY171031AY221031GA1081+004509069GF108991999071004501021999GJ100009MD1210121+9999MW1711REMSYN086    AAXX  19031 26882 41459 83404 11042 21051 49884 52012 77172 8872/ 333 55000 88715;EQDQ01+000082SCOTLC
0254268820999992000011906004+53970+032850FM-12+021799999V0203201N003010021019N0050001N1-00561-00701099041ADDAA112000791AJ100219199999999AY171061AY221061GA1081+002109069GF108991999071002501021999IA1239KA1120N-00551MD1210151+9999MW1711REMSYN098    AAXX  19061 26882 11350 83203 11056 21070 49904 52015 69902 77172 8872/ 333 21055 47021 88707;EQDQ01+000082SCOTLC
0170268820999992000011909004+53970+032850FM-12+021799999V0202901N002010024019N0050001N1-00491-00591099141ADDAY171031AY221031GA1071+002409059GF107991071051002501001001MD1210101+9999MW1221REMSYN080    AAXX  19091 26882 41350 72902 11049 21059 49914 52010 72272 87500 333 87608;
0210268820999992000011912004+53970+032850FM-12+021799999V0203001N005010021019N0060001N1-00521-00691099241ADDAY171061AY231061GA1081+002109069GF108991999071002501021999MA1999999096451MD1210101+9999MW1731REMSYN086    AAXX  19121 26882 41356 83005 11052 21069 39645 49924 52010 77373 8872/ 333 88707;EQDQ01+000082SCOTLC
0140268820999992000011915004+53970+032850FM-12+021799999V0203301N005019999999N0150001N1-00711-00921099521ADDAY171031AY231031GF108991081001999999071999MD1210251+9999MW1711REMSYN066AAXX  19151 26882 41965 83305 11071 21092 49952 52025 77173 8807/;
0180268820999992000011918004+53970+032850FM-12+021799999V0203201N005012200019N0210001N1-00891-01131099711ADDAA112000591AY171061AY231061GF104991041001999999031001KA1999M-00471MD1210161+9999MW1011REMSYN082AAXX  19181 26882 11971 43205 11089 21113 49971 52016 69942 70173 84030 333 11047;
0112268820999992000011921004+53970+032850FM-12+021799999V0203101N006019999999N0260001N1-00971-01231099811ADDGF107991001001999999001011MD1210091+9999REMSYN060AAXX  19211 26882 42976 73106 11097 21123 49981 52009 80001;
0161268820999992000012000004+53970+032850FM-12+021799999V0203101N006019999999N0060001N1-01031-01311099861ADDAY171061AY231061GF108991081001999999071999MA1999999097001MD1210051+9999MW1711REMSYN072AAXX  20001 26882 41956 83106 11103 21131 39700 49986 52005 77173 8807/;
0150268820999992000012003004+53970+032850FM-12+021799999V0203001N005019999999N0350001N1-01271-01471099961ADDAY171031AY231031GF107991021001999999031051MD1210061+9999MW1021REMSYN076AAXX  20031 26882 41981 73005 11127 21147 49996 52006 70273 82035 333 55000;
0250268820999992000012006004+53970+032850FM-12+021799999V0203101N007010030019N0040001N1-01241-01441099991ADDAA112000391AJ100229199999999AY171061AY231061GA1081+003009069GF108991999071004501021999IA1239KA1120N-01361MD1210041+9999MW1711REMSYN094AAXX  20061 26882 11440 83107 11124 21144 49999 52004 69932 77173 8872/ 333 21136 47022 88710;EQDQ01+000082SCOTLC
0140268820999992000012009004+53970+032850FM-12+021799999V0203001N007019999999N0200001N1-01201-01471099991ADDAY171031AY231031GF105991001001999999001091MD1410001+9999MW1361REMSYN066AAXX  20091 26882 41970 53007 11120 21147 49999 54000 73673 80009;
0161268820999992000012012004+53970+032850FM-12+021799999V0202701N005012200019N0200001N1-01221-01571099941ADDAY171061AY231061GF102991011001999999031011MA1999999097051MD1810051+9999MW1011REMSYN072AAXX  20121 26882 41970 22705 11122 21157 39705 49994 58005 70173 81031;
0185268820999992000012015004+53970+032850FM-12+021799999V0202501N006010042019N0029001N1-01001-01201099771ADDAY171031AY211031GA1081+004209069GF108991999071004501021999MD1710141+9999MW1731REMSYN076AAXX  20151 26882 41429 82506 11100 21120 49977 57014 77371 8872/ 333 88714;EQDQ01+000082SCOTLC
0221268820999992000012018004+53970+032850FM-12+021799999V0201901N003010024019N0120001N1-00961-01221099521ADDAA112000191AY171061AY211061GA1081+002409069GF108991999071002501021999KA1120M-00951MD1710231+9999MW1711REMSYN088AAXX  20181 26882 11362 81903 11096 21122 49952 57023 69922 77171 8872/ 333 11095 88708;EQDQ01+000082SCOTLC
0185268820999992000012021004+53970+032850FM-12+021799999V0201701N004010015019N0022001N1-00921-00991098951ADDAY171031AY211031GA1081+001509069GF108991999071001501021999MD1710551+9999MW1731REMSYN076AAXX  20211 26882 41222 81704 11092 21099 49895 57055 77371 8872/ 333 88705;EQDQ01+000082SCOTLC
0206268820999992000012100004+53970+032850FM-12+021799999V0201901N005010048019N0120001N1-00901-01061098561ADDAY171061AY231061GA1081+004809069GF108991999071004501021999MA1999999095751MD1710381+9999MW1711REMSYN082AAXX  21001 26882 41462 81905 11090 21106 39575 49856 57038 77173 8872/ 333 88716;EQDQ01+000082SCOTLC
0180268820999992000012103004+53970+032850FM-12+021799999V0202201N004010042019N0500001N1-00881-01071098401ADDAY171031AY221031GA1071+004209059GF107991071051004501001001GJ102229MD1710161+9999MW1021REMSYN082AAXX  21031 26882 41484 72204 11088 21107 49840 57016 70272 87500 333 55037 87614;
0250268820999992000012106004+53970+032850FM-12+021799999V0200101N004010030019N0015001N1-00741-00871098301ADDAA112001091AJ100269199999999AY171061AY221061GA1081+003009069GF108991999071002501021999IA1239KA1120N-01161MD1510071+9999MW1731REMSYN094AAXX  21061 26882 11315 80104 11074 21087 49830 55007 60012 77372 8872/ 333 21116 47026 88710;EQDQ01+000082SCOTLC
0112268820999992000012109004+53970+032850FM-12+021799999V0203501N006019999999N0180001N1-01151-01281098641ADDGF108991001001999999001071MD1210291+9999REMSYN060AAXX  21091 26882 41968 83506 11115 21128 49864 52029 80007;
0161268820999992000012112004+53970+032850FM-12+021799999V0203201N006010750019N0200001N1-01091-01531098961ADDAY171061AY231061GF105991021051008001031011MA1999999096121MD1210311+9999MW1361REMSYN072AAXX  21121 26882 41570 53206 11109 21153 39612 49896 52031 73673 82531;
0150268820999992000012115004+53970+032850FM-12+021799999V0203001N005012200019N0200001N1-01321-01751099281ADDAY131031AY211031GA1001+999999999GF100991001001999999001001MD1210291+9999MW1361REMSYN060AAXX  21151 26882 41970 03005 11132 21175 49928 52029 73631;
0180268820999992000012118004+53970+032850FM-12+021799999V0203001N004019999999N0500001N1-01461-01731099471ADDAA112000391AY131061AY211061GF106991061001999999031001KA1999M-00731MD1210171+9999MW1031REMSYN082AAXX  21181 26882 11984 63004 11146 21173 49947 52017 69932 70331 86030 333 11073;
0122268820999992000012121004+53970+032850FM-12+021799999V0202701N002012200019N0500001N1-01921-02111099681ADDGA1001+999999999GF100991001001999999001001MD1210151+9999REMSYN054AAXX  21211 26882 42984 02702 11192 21211 49968 52015;
0143268820999992000012200004+53970+032850FM-12+021799999V0202601N002012200019N0500001N1-01991-02251099821ADDGA1001+999999999GF100991001001999999001001MA1999999096851MD1210121+9999REMSYN060AAXX  22001 26882 42984 02602 11199 21225 39685 49982 52012;
0122268820999992000012203004+53970+032850FM-12+021799999V0202501N003019999999N0230001N1-02171-02421099921ADDGF106991001001999999001051MD1210071+9999REMSYN070AAXX  22031 26882 42973 62503 11217 21242 49992 52007 80005 333 55041;
0222268820999992000012206004+53970+032850FM-12+021799999V0202301N004019999999N0070001N1-02071-02321100041ADDAA199000091AJ100269199999999AY111061AY211061GF107991071001999999031001IA1239KA1120N-02281MD1210131+9999MW1101REMSYN082AAXX  22061 26882 31957 72304 11207 21232 40004 52013 71011 87030 333 21228 47026;EQDQ01  00002PRCP99
0140268820999992000012209004+53970+032850FM-12+021799999V0202701N004012200019N0090001N1-01591-01781100041ADDAY111031AY211031GF103991001001999999001011MD1210061+9999MW1101REMSYN066AAXX  22091 26882 41959 32704 11159 21178 40004 52006 71011 80001;
0161268820999992000012212004+53970+032850FM-12+021799999V0202701N003019999999N0110001N1-01491-01691100111ADDAY171061AY211061GF107991001001999999001011MA1999999097191MD1210081+9999MW1021REMSYN072AAXX  22121 26882 41961 72703 11149 21169 39719 40011 52008 70271 80001;
0140268820999992000012215004+53970+032850FM-12+021799999V0202801N006019999999N0100001N1-01461-01661100201ADDAY171031AY211031GF107991071001999999031001MD1210101+9999MW1021REMSYN066AAXX  22151 26882 41960 72806 11146 21166 40020 52010 70271 87030;
0180268820999992000012218004+53970+032850FM-12+021799999V0202701N007019999999N0022001N1-01331-01531100291ADDAA112000891AY171061AY231061GF108991081001999999011999KA1999M-01311MD1210091+9999MW1731REMSYN082AAXX  22181 26882 11922 82707 11133 21153 40029 52009 69982 77373 8801/ 333 11131;
0150268820999992000012221004+53970+032850FM-12+021799999V0202801N003012200019N0260001N1-01791-01981100481ADDAY171031AY211031GA1001+999999999GF100991001001999999001001MD1210131+9999MW1021REMSYN060AAXX  22211 26882 41976 02803 11179 21198 40048 52013 70271;
0161268820999992000012300004+53970+032850FM-12+021799999V0202801N004019999999N0350001N1-01731-01921100671ADDAY171061AY211061GF108991001001999999001011MA1999999097711MD1210201+9999MW1031REMSYN072AAXX  23001 26882 41981 82804 11173 21192 39771 40067 52020 70371 80001;
0132268820999992000012303004+53970+032850FM-12+021799999V0202801N003012200019N0350001N1-01651-01841100781ADDGA1001+999999999GF100991001001999999001001MD1210121+9999REMSYN064AAXX  23031 26882 42981 02803 11165 21184 40078 52012 333 55021;
0191268820999992000012306004+53970+032850FM-12+021799999V0202501N002012200019N0200001N1-01901-02091101061ADDAA112000791AJ100269199999999GA1001+999999999GF100991001001999999001001IA1239KA1120N-01931MD1210231+9999REMSYN076AAXX  23061 26882 12970 02502 11190 21209 40106 52023 69902 333 21193 47026;
0122268820999992000012309004+53970+032850FM-12+021799999V0202901N002012200019N0200001N1-01571-01761101181ADDGA1001+999999999GF100991001001999999001001MD1210161+9999REMSYN054AAXX  23091 26882 42970 02902 11157 21176 40118 52016;
0143268820999992000012312004+53970+032850FM-12+021799999V0202801N003012200019N0200001N1-01431-01631101281ADDGA1001+999999999GF100991001001999999001001MA1999999098331MD1210111+9999REMSYN060AAXX  23121 26882 42970 02803 11143 21163 39833 40128 52011;
0122268820999992000012315004+53970+032850FM-12+021799999V0202601N003012200019N0200001N1-01721-01911101511ADDGA1001+999999999GF100991001001999999001001MD1210201+9999REMSYN054AAXX  23151 26882 42970 02603 11172 21191 40151 52020;
0165268820999992000012318004+53970+032850FM-12+021799999V0202301N004019999999N0180001N1-01591-01781101621ADDAA199000091GF106991061001999999031001KA1999M-01371MD1210111+9999REMSYN070AAXX  23181 26882 32968 62304 11159 21178 40162 52011 86030 333 11137;EQDQ01  00002PRCP99
0140268820999992000012321004+53970+032850FM-12+021799999V0202301N001012200019N0150001N1-01641-01831101711ADDAY171031AY211031GF103991001001999999001011MD1210091+9999MW1021REMSYN066AAXX  23211 26882 41965 32301 11164 21183 40171 52009 70271 80001;
0161268820999992000012400004+53970+032850FM-12+021799999V0202001N004019999999N0200001N1-01701-01891101721ADDAY171061AY211061GF106991001001999999001011MA1999999098731MD1410001+9999MW1021REMSYN072AAXX  24001 26882 41970 62004 11170 21189 39873 40172 54000 70271 80001;
0150268820999992000012403004+53970+032850FM-12+021799999V0202101N004019999999N0080001N1-01691-01881101681ADDAY171031AY221031GF108991081001999999071999MD1710041+9999MW1711REMSYN076AAXX  24031 26882 41958 82104 11169 21188 40168 57004 77172 8807/ 333 55050;
0237268820999992000012406004+53970+032850FM-12+021799999V0202101N003010108019N0180001N1-01871-02061101711ADDAA112000391AJ100269199999999AY171061AY221061GA1061+010809069GF106991061051012501001001IA1239KA1120N-01981MD1310011+9999MW1021REMSYN100AAXX  24061 26882 11668 62103 11187 21206 40171 53001 69932 70272 86500 333 21198 47026 86636 93510;
0140268820999992000012409004+53970+032850FM-12+021799999V0202201N004019999999N0120001N1-01551-01741101701ADDAY171031AY221031GF108991081001999999071999MD1210031+9999MW1711REMSYN066AAXX  24091 26882 41962 82204 11155 21174 40170 52003 77172 8807/;
0161268820999992000012412004+53970+032850FM-12+021799999V0202301N002012200019N0200001N1-01401-01601101691ADDAY171061AY211061GF103991021051012501031001MA1999999098731MD1410001+9999MW1011REMSYN072AAXX  24121 26882 41670 32302 11140 21160 39873 40169 54000 70171 82530;
0112268820999992000012415004+53970+032850FM-12+021799999V0202301N002012200019N0200001N1-01531-01721101701ADDGF102991021001999999031001MD1410001+9999REMSYN060AAXX  24151 26882 42970 22302 11153 21172 40170 54000 82030;
0162268820999992000012418004+53970+032850FM-12+021799999V0201801N001012200019N0130001N1-01781-01971101771ADDAA112000791GA1001+999999999GF100991001001999999001001KA1999M-01401MD1310041+9999REMSYN070AAXX  24181 26882 12963 01801 11178 21197 40177 53004 69902 333 11140;
0132268820999992000012421004+53970+032850FM-12+021799999V0202501N002012200019N0120001N1-02161-02341101821ADDGA1001+999999999GF100991001001999999001001MD1410001+9999REMSYN064AAXX  24211 26882 42962 02502 11216 21234 40182 54000 333 93511;
0153268820999992000012500004+53970+032850FM-12+021799999V0202701N001012200019N0110001N1-02161-02411101711ADDGA1001+999999999GF100991001001999999001001MA1999999098661MD1810111+9999REMSYN070AAXX  25001 26882 42961 02701 11216 21241 39866 40171 58011 333 93513;
0146268820999992000012503004+53970+032850FM-12+021799999V0202701N002012200019N0110001N1-02261-02511101631ADDGA1001+999999999GF100991001001999999001001GJ100549MD1710091+9999REMSYN070AAXX  25031 26882 42961 02702 11226 21251 40163 57009 333 55009 93514;
0200268820999992000012506004+53970+032850FM-12+021799999V0202601N003019999999N0100001N1-02331-02581101541ADDAA199000091AJ100279199999999GF107991001001999999001061IA1239KA1120N-02341MD1710081+9999REMSYN082AAXX  25061 26882 32960 72603 11233 21258 40154 57008 80006 333 21234 47027 93516;EQDQ01  00002PRCP99
0122268820999992000012509004+53970+032850FM-12+021799999V0202801N003019999999N0110001N1-01931-02191101471ADDGF108991001001999999001061MD1710031+9999REMSYN070AAXX  25091 26882 42961 82803 11193 21219 40147 57003 80006 333 93519;
0133268820999992000012512004+53970+032850FM-12+021799999V0202901N005012200019N0200001N1-01801-02061101321ADDGF103991001001999999001051MA1999999098331MD1710131+9999REMSYN066AAXX  25121 26882 42970 32905 11180 21206 39833 40132 57013 80005;
0138268820999992000012515004+53970+032850FM-12+021799999V0203101N005010069019N0100001N1-01861-02121101361ADDGA1071+006909059GF107991071051008001001001MD1310021+9999REMSYN070AAXX  25151 26882 42560 73105 11186 21212 40136 53002 87500 333 87623;
0203268820999992000012518004+53970+032850FM-12+021799999V0203201N004012200019N0150001N1-02081-02331101451ADDAA199000091AY131061AY211061GA1001+999999999GF100991001001999999001001KA1999M-01781MD1210061+9999MW1361REMSYN070AAXX  25181 26882 31965 03204 11208 21233 40145 52006 73631 333 11178;EQDQ01  00002PRCP99
0150268820999992000012521004+53970+032850FM-12+021799999V0203201N003012200019N0140001N1-02311-02551101441ADDAY131031AY201031GA1001+999999999GF100991001001999999001001MD1810021+9999MW1021REMSYN060AAXX  25211 26882 41964 03203 11231 21255 40144 58002 70230;
0143268820999992000012600004+53970+032850FM-12+021799999V0202801N003012200019N0140001N1-02421-02661101461ADDGA1001+999999999GF100991001001999999001001MA1999999098391MD1410001+9999REMSYN060AAXX  26001 26882 42964 02803 11242 21266 39839 40146 54000;
0122268820999992000012603004+53970+032850FM-12+021799999V0203001N003019999999N0150001N1-02591-02841101581ADDGF108991001001999999001051MD1310101+9999REMSYN070AAXX  26031 26882 42965 83003 11259 21284 40158 53010 80005 333 55060;
0238268820999992000012606004+53970+032850FM-12+021799999V0203101N003010006019N0006001N1-02501-02741101551ADDAA199000091AJ100279199999999AY141061AY211061GA1091+999999999GF109991091999999999999999IA1239KA1120N-02671MD1810021+9999MW1491REMSYN082AAXX  26061 26882 31/06 93103 11250 21274 40155 58002 74941 333 21267 47027 93507;EQDQ01  00002PRCP99
0150268820999992000012609004+53970+032850FM-12+021799999V0202801N003012200019N0160001N1-02481-02731101641ADDAY141031AY211031GF102991021061001501001001MD1310031+9999MW1021REMSYN076AAXX  26091 26882 41266 22803 11248 21273 40164 53003 70241 82600 333 93507;
0171268820999992000012612004+53970+032850FM-12+021799999V0202801N003012200019N0150001N1-02141-02391101571ADDAY141061AY211061GA1001+999999999GF100991001001999999001001MA1999999098541MD1810011+9999MW1021REMSYN066AAXX  26121 26882 41965 02803 11214 21239 39854 40157 58001 70241;
0112268820999992000012615004+53970+032850FM-12+021799999V0202501N003012200019N0200001N1-02351-02601101591ADDGF101991001001999999001011MD1410001+9999REMSYN060AAXX  26151 26882 42970 12503 11235 21260 40159 54000 80001;
0165268820999992000012618004+53970+032850FM-12+021799999V0202301N003019999999N0500001N1-02151-02401101521ADDAA199000091GF107991071001999999031001KA1999M-02101MD1810051+9999REMSYN070AAXX  26181 26882 32984 72303 11215 21240 40152 58005 87030 333 11210;EQDQ01  00002PRCP99
0112268820999992000012621004+53970+032850FM-12+021799999V0202201N005019999999N0500001N1-01971-02231101371ADDGF107991071001999999031001MD1710141+9999REMSYN060AAXX  26211 26882 42984 72205 11197 21223 40137 57014 87030;
0206268820999992000012700004+53970+032850FM-12+021799999V0202001N007010021019N0038001N1-01751-02011100901ADDAY171061AY231061GA1081+002109069GF108991999071002501021999MA1999999097951MD1710401+9999MW1731REMSYN082AAXX  27001 26882 41338 82007 11175 21201 39795 40090 57040 77373 8872/ 333 88707;EQDQ01+000082SCOTLC
0150268820999992000012703004+53970+032850FM-12+021799999V0202301N008019999999N0019001N1-01491-01761100521ADDAY171031AY231031GF108991081001999999021999MD1710331+9999MW1381REMSYN076AAXX  27031 26882 41919 82308 11149 21176 40052 57033 73873 8802/ 333 55065;
0185268820999992000012709004+53970+032850FM-12+021799999V0202301N007010018019N0014001N1-00811-00951100211ADDAY171031AY231031GA1081+001809069GF108991999071001501021999MD1710051+9999MW1731REMSYN076AAXX  27091 26882 41214 82307 11081 21095 40021 57005 77373 8872/ 333 88706;EQDQ01+000082SCOTLC
0187268820999992000012712004+53970+032850FM-12+021799999V0202801N005010108019N0200001N1-00071-00201100151ADDAY171061AY231061GA1071+010809059GF107991071051012501001001MA1999999097381MD1310021+9999MW1021REMSYN082AAXX  27121 26882 41670 72805 11007 21020 39738 40015 53002 70273 87500 333 87636;
0112268820999992000012715004+53970+032850FM-12+021799999V0202801N006019999999N0200001N1-00011-00341100391ADDGF107991071001999999051001MD1210241+9999REMSYN060AAXX  27151 26882 42970 72806 11001 21034 40039 52024 87050;
0174268820999992000012718004+53970+032850FM-12+021799999V0202801N006010117019N0500001N1-00071-00381100591ADDAA112000891GA1071+011709059GF107991071051012501001001KA1120M+00061MD1210191+9999REMSYN082AAXX  27181 26882 12684 72806 11007 21038 40059 52019 69982 87500 333 10006 87639;
0138268820999992000012721004+53970+032850FM-12+021799999V0202701N003010120019N0500001N1-00131-00421100631ADDGA1071+012009059GF107991071051012501001001MD1210031+9999REMSYN070AAXX  27211 26882 42684 72703 11013 21042 40063 52003 87500 333 87640;
0159268820999992000012800004+53970+032850FM-12+021799999V0202401N005010069019N0400001N1-00221-00311100631ADDGA1071+006909059GF107991071051008001001001MA1999999097831MD1810011+9999REMSYN076AAXX  28001 26882 42582 72405 11022 21031 39783 40063 58001 87500 333 87623;
0150268820999992000012803004+53970+032850FM-12+021799999V0202101N006019999999N0023001N1-00221-00281100481ADDAY171031AY221031GF108991081001999999011999MD1710151+9999MW1731REMSYN076AAXX  28031 26882 41923 82106 11022 21028 40048 57015 77372 8801/ 333 55000;
0250268820999992000012806004+53970+032850FM-12+021799999V0202101N007010021019N0020001N1-00111-00181100141ADDAA112000591AJ100299199999999AY171061AY231061GA1081+002109069GF108991999071002501021999IA1239KA1120N-00371MD1710321+9999MW1731REMSYN094AAXX  28061 26882 11320 82107 11011 21018 40014 57032 69952 77373 8872/ 333 21037 47029 88707;EQDQ01+000082SCOTLC
0185268820999992000012809004+53970+032850FM-12+021799999V0202401N008010033019N0050001N1+00031-00081100121ADDAY171031AY231031GA1081+003309069GF108991999071004501021999MD1710101+9999MW1711REMSYN076AAXX  28091 26882 41450 82408 10003 21008 40012 57010 77173 8872/ 333 88711;EQDQ01+000082SCOTLC
0202268820999992000012818004+53970+032850FM-12+021799999V0202501N009010057019N0260001N1+00061-00141100191ADDAA112000591AY171061AY221061GA1071+005709059GF107991071051004501001001KA1120M+00121MD1210101+9999MW1011REMSYN088AAXX  28181 26882 11476 72509 10006 21014 40019 52010 69962 70172 87500 333 10012 87619;
0138268820999992000012821004+53970+032850FM-12+021799999V0202601N009010048019N0500001N1+00031-00191100361ADDGA1061+004809059GF106991061051004501001001MD1210171+9999REMSYN070AAXX  28211 26882 42484 62609 10003 21019 40036 52017 86500 333 86616;
0161268820999992000012900004+53970+032850FM-12+021799999V0202501N006012200019N0500001N1+00041-00211100481ADDAY171061AY211061GF103991031051004501001001MA1999999097711MD1210111+9999MW1011REMSYN072AAXX  29001 26882 41484 32506 10004 21021 39771 40048 52011 70171 83500;
0152268820999992000012903004+53970+032850FM-12+021799999V0202501N006010039019N0300001N1+00001-00201100631ADDGA1071+003909059GF107991071051004501001001GJ100009MD1210151+9999REMSYN076AAXX  29031 26882 42480 72506 10000 21020 40063 52015 87500 333 55000 87613;
0203268820999992000012906004+53970+032850FM-12+021799999V0202401N005010036019N0150001N1+00001-00081100781ADDAA112000791AJ100309199999999GA1071+003609059GF107991071051004501001001IA1239KA1120N-00101MD1210151+9999REMSYN088AAXX  29061 26882 12465 72405 10000 21008 40078 52015 69902 87500 333 21010 47030 87612;
0185268820999992000012909004+53970+032850FM-12+021799999V0202201N006010033019N0100001N1+00021-00091100861ADDAY171031AY221031GA1081+003309069GF108991999071004501021999MD1210081+9999MW1711REMSYN076AAXX  29091 26882 41460 82206 10002 21009 40086 52008 77172 8872/ 333 88711;EQDQ01+000082SCOTLC
0206268820999992000012912004+53970+032850FM-12+021799999V0202201N005010027019N0100001N1+00041-00101100821ADDAY171061AY221061GA1081+002709069GF108991999071002501021999MA1999999098051MD1810041+9999MW1711REMSYN082AAXX  29121 26882 41360 82205 10004 21010 39805 40082 58004 77172 8872/ 333 88709;EQDQ01+000082SCOTLC
0185268820999992000012915004+53970+032850FM-12+021799999V0201901N006010039019N0120001N1+00031-00131100781ADDAY171031AY221031GA1081+003909069GF108991999071004501021999MD1710041+9999MW1711REMSYN076AAXX  29151 26882 41462 81906 10003 21013 40078 57004 77172 8872/ 333 88713;EQDQ01+000082SCOTLC
0221268820999992000012918004+53970+032850FM-12+021799999V0202001N007010045019N0110001N1-00021-00171100601ADDAA112000591AY171061AY221061GA1081+004509069GF108991999071004501021999KA1120M+00051MD1710191+9999MW1711REMSYN088AAXX  29181 26882 11461 82007 11002 21017 40060 57019 69942 77172 8872/ 333 10005 88715;EQDQ01+000082SCOTLC
0140268820999992000012921004+53970+032850FM-12+021799999V0201801N007019999999N0400001N1-00101-00321100461ADDAY171031AY221031GF106991061001999999031001MD1710151+9999MW1011REMSYN066AAXX  29211 26882 41982 61807 11010 21032 40046 57015 70172 86030;
0161268820999992000013000004+53970+032850FM-12+021799999V0201701N007019999999N0500001N1-00151-00491100131ADDAY171061AY231061GF107991071001999999031001MA1999999097351MD1710321+9999MW1361REMSYN072AAXX  30001 26882 41984 71707 11015 21049 39735 40013 57032 73673 87030;
0180268820999992000013003004+53970+032850FM-12+021799999V0201801N009010057019N0290001N1-00101-00291099711ADDAY131031AY221031GA1071+005709059GF107991071051004501001001GJ100009MD1710331+9999MW1361REMSYN082AAXX  30031 26882 41479 71809 11010 21029 49971 57033 73632 87500 333 55000 87619;
0250268820999992000013006004+53970+032850FM-12+021799999V0201801N009010021019N0025001N1-00131-00271099561ADDAA112000391AJ100309199999999AY171061AY231061GA1081+002109069GF108991999071002501021999IA1239KA1120N-00161MD1710221+9999MW1731REMSYN094AAXX  30061 26882 11325 81809 11013 21027 49956 57022 69932 77373 8872/ 333 21016 47030 88707;EQDQ01+000082SCOTLC
0177268820999992000013009004+53970+032850FM-12+021799999V0201901N010010006019N0008001N1-00151-00231099401ADDAY171031AY231031GA1091+999999999GF109991091999999999999999MD1710151+9999MW1751OA149901501REMSYN076AAXX  30091 26882 41/08 91910 11015 21023 49940 57015 77573 333 91115 92983;
0212268820999992000013012004+53970+032850FM-12+021799999V0201901N009010030019N0045001N1-00151-00261099301ADDAY171061AY231061GA1081+003009079GF108991999071004501021999MA1999999096551MD1710101+9999MW1711REMSYN088AAXX  30121 26882 41445 81909 11015 21026 39655 49930 57010 77173 8872/ 333 88710 91115;EQDQ01+000082SCOTLC
0185268820999992000013015004+53970+032850FM-12+021799999V0201901N007010021019N0015001N1-00151-00231099301ADDAY171031AY231031GA1081+002109069GF108991999071002501021999MD1410001+9999MW1731REMSYN076AAXX  30151 26882 41315 81907 11015 21023 49930 54000 77373 8872/ 333 88707;EQDQ01+000082SCOTLC
0227268820999992000013018004+53970+032850FM-12+021799999V0201901N007010018019N0045001N1-00161-00211099381ADDAA112005191AY171061AY231061GA1081+001809079GF108991999071001501021999KA1120M-00111MD1310081+9999MW1711REMSYN094AAXX  30181 26882 11245 81907 11016 21021 49938 53008 60052 77173 8872/ 333 11011 88706 91112;EQDQ01+000082SCOTLC
0194268820999992000013021004+53970+032850FM-12+021799999V0202001N006010018019N0042001N1-00171-00221999999ADDAY171031AY231031GA1081+001809069GF108991999071001501021999MD1210011+9999ME1308399MW1711REMSYN076AAXX  30211 26882 41242 82006 11017 21022 48839 52001 77173 8872/ 333 88706;EQDQ01+000082SCOTLC
0222268820999992000013100004+53970+032850FM-12+021799999V0202201N006010012019N0018001N1+00081-00061999999ADDAY171061AY231061GA1081+001209069GF108991999071001501021999MA1999999096681MD1210041+9999MW1731REMSYN082AAXX  31001 26882 41218 82206 10008 21006 39668 49341 52004 77373 8872/ 333 88704;EQDQ01+000082SCOTLCQ02+093413APOSLP
0180268820999992000013103004+53970+032850FM-12+021799999V0202801N007010042019N0240001N1+00001-00081099541ADDAY171031AY221031GA1061+004209059GF106991061051004501001001GJ100009MD1210121+9999MW1011REMSYN082AAXX  31031 26882 41474 62807 10000 21008 49954 52012 70172 86500 333 55000 86614;
0231268820999992000013106004+53970+032850FM-12+021799999V0202801N007010120019N0200001N1-00111-00431099841ADDAA112000591AJ100349199999999AY171061AY221061GA1071+012009059GF107991071051012501001001IA1249KA1120N-00171MD1210271+9999MW1021REMSYN094AAXX  31061 26882 11670 72807 11011 21043 49984 52027 69942 70272 87500 333 21017 48034 87640;
0166268820999992000013109004+53970+032850FM-12+021799999V0203001N006010063019N0045001N1-00231-00451100071ADDAY181031AY231031GA1071+006309099GF107991071091008001001001MD1210221+9999MW1851REMSYN076AAXX  31091 26882 41545 73006 11023 21045 40007 52022 78583 87900 333 87921;
0161268820999992000013112004+53970+032850FM-12+021799999V0202501N004010750019N0200001N1-00281-00731099991ADDAY181061AY231061GF108991021021008001001061MA1999999097211MD1810081+9999MW1031REMSYN072AAXX  31121 26882 41570 82504 11028 21073 39721 49999 58008 70383 82206;
0112268820999992000013115004+53970+032850FM-12+021799999V0202101N003019999999N0200001N1-00331-00681099981ADDGF107991071001999999051001MD1710021+9999REMSYN060AAXX  31151 26882 42970 72103 11033 21068 49998 57002 87050;
0221268820999992000013118004+53970+032850FM-12+021799999V0201001N002010018019N0030001N1-00341-00451099931ADDAA112001091AY171061AY221061GA1081+001809069GF108991999071001501021999KA1120M-00101MD1710051+9999MW1731REMSYN088AAXX  31181 26882 11230 81002 11034 21045 49993 57005 60012 77372 8872/ 333 11010 88706;EQDQ01+000082SCOTLC
0185268820999992000013121004+53970+032850FM-12+021799999V0200301N003010018019N0033001N1-00421-00471100101ADDAY171031AY221031GA1081+001809069GF108991999071001501021999MD1210161+9999MW1731REMSYN076AAXX  31211 26882 41233 80303 11042 21047 40010 52016 77372 8872/ 333 88706;EQDQ01+000082SCOTLC
0171268820999992000020100004+53970+032850FM-12+021799999V0203401N002012200019N0350001N1-00591-00661100511ADDAY171061AY211061GA1001+999999999GF100991001001999999001001MA1999999097681MD1210381+9999MW1011REMSYN066AAXX  01001 26882 41981 03402 11059 21066 39768 40051 52038 70171;
0132268820999992000020103004+53970+032850FM-12+021799999V0203301N003012200019N0500001N1-01001-01131100971ADDGA1001+999999999GF100991001001999999001001MD1210401+9999REMSYN064AAXX  01031 26882 42984 03303 11100 21113 40097 52040 333 55017;
0181268820999992000020106004+53970+032850FM-12+021799999V0202701N004012200019N0200001N1-01401-01531101411ADDAA112002091AJ100389199999999GF103991031001999999031001IA1239KA1120N-01411MD1210381+9999REMSYN082AAXX  01061 26882 12970 32704 11140 21153 40141 52038 60022 83030 333 21141 47038;
0112268820999992000020109004+53970+032850FM-12+021799999V0202301N006012200019N0200001N1-01101-01301101391ADDGF103991001001999999001011MD1210021+9999REMSYN060AAXX  01091 26882 42970 32306 11110 21130 40139 52002 80001;
0206268820999992000020112004+53970+032850FM-12+021799999V0202401N007010066019N0080001N1-00581-00871101251ADDAY171061AY211061GA1081+006609069GF108991999071008001021999MA1999999098391MD1710091+9999MW1711REMSYN082AAXX  01121 26882 41558 82407 11058 21087 39839 40125 57009 77171 8872/ 333 88722;EQDQ01+000082SCOTLC
0166268820999992000020115004+53970+032850FM-12+021799999V0202801N006010042019N0200001N1-00581-00801101381ADDAY171031AY221031GA1071+004209059GF107991071051004501001001MD1210131+9999MW1021REMSYN076AAXX  01151 26882 41470 72806 11058 21080 40138 52013 70272 87500 333 87614;
0202268820999992000020118004+53970+032850FM-12+021799999V0202701N005010030019N0140001N1-00481-00651101411ADDAA112000791AY171061AY221061GA1071+003009059GF107991071051004501001001KA1120M-00451MD1210051+9999MW1021REMSYN088AAXX  01181 26882 11464 72705 11048 21065 40141 52005 69902 70272 87500 333 11045 87610;
0138268820999992000020121004+53970+032850FM-12+021799999V0202101N003010024019N0190001N1-00431-00551101381ADDGA1071+002409059GF107991071051002501001001MD1810031+9999REMSYN070AAXX  01211 26882 42369 72103 11043 21055 40138 58003 87500 333 87608;
0159268820999992000020200004+53970+032850FM-12+021799999V0202101N005010024019N0110001N1-00321-00391101141ADDGA1071+002409059GF107991071051002501001001MA1999999098311MD1710231+9999REMSYN076AAXX  02001 26882 42361 72105 11032 21039 39831 40114 57023 87500 333 87608;
0199268820999992000020203004+53970+032850FM-12+021799999V0201901N007010012019N0020001N1-00311-00381100741ADDAY171031AY231031GA1081+001209069GF108991999071001501021999GJ102529MD1710381+9999MW1731REMSYN082AAXX  02031 26882 41220 81907 11031 21038 40074 57038 77373 8872/ 333 55042 88704;EQDQ01+000082SCOTLC
0250268820999992000020206004+53970+032850FM-12+021799999V0202001N007010021019N0020001N1-00211-00241100311ADDAA112002091AJ100389199999999AY171061AY231061GA1081+002109069GF108991999071002501021999IA1239KA1120N-00481MD1710411+9999MW1731REMSYN094AAXX  02061 26882 11320 82007 11021 21024 40031 57041 60022 77373 8872/ 333 21048 47038 88707;EQDQ01+000082SCOTLC
0185268820999992000020209004+53970+032850FM-12+021799999V0202301N009010018019N0035001N1+00031-00051100111ADDAY171031AY231031GA1081+001809069GF108991999071001501021999MD1710171+9999MW1731REMSYN076AAXX  02091 26882 41235 82309 10003 21005 40011 57017 77373 8872/ 333 88706;EQDQ01+000082SCOTLC
0187268820999992000020212004+53970+032850FM-12+021799999V0202401N009010027019N0200001N1+00171+00061099821ADDAY171061AY231061GA1071+002709059GF107991071051002501001001MA1999999097081MD1710271+9999MW1021REMSYN082AAXX  02121 26882 41370 72409 10017 20006 39708 49982 57027 70273 87500 333 87609;
0185268820999992000020215004+53970+032850FM-12+021799999V0202401N008010030019N0045001N1+00171+00121099731ADDAY171031AY261031GA1081+003009069GF108991999071004501021999MD1710081+9999MW1611REMSYN076AAXX  02151 26882 41445 82408 10017 20012 49973 57008 76176 8872/ 333 88710;EQDQ01+000082SCOTLC
0202268820999992000020218004+53970+032850FM-12+021799999V0202501N007010108019N0160001N1+00161+00081099721ADDAA112002091AY171061AY261061GA1071+010809059GF107991071051012501001001KA1120M+00211MD1710011+9999MW1021REMSYN088AAXX  02181 26882 11666 72507 10016 20008 49972 57001 60022 70276 87500 333 10021 87636;
0138268820999992000020221004+53970+032850FM-12+021799999V0202501N007010108019N0200001N1+00141+00031099721ADDGA1071+010809059GF107991071051012501001001MD1410001+9999REMSYN070AAXX  02211 26882 42670 72507 10014 20003 49972 54000 87500 333 87636;
0159268820999992000020300004+53970+032850FM-12+021799999V0202401N006010108019N0250001N1+00051-00081099701ADDGA1071+010809059GF107991071051012501001001MA1999999096961MD1710031+9999REMSYN076AAXX  03001 26882 42675 72406 10005 21008 39696 49970 57003 87500 333 87636;
0152268820999992000020303004+53970+032850FM-12+021799999V0202501N008010051019N0250001N1+00101-00071099561ADDGA1071+005109059GF107991071051004501001001GJ100009MD1710141+9999REMSYN076AAXX  03031 26882 42475 72508 10010 21007 49956 57014 87500 333 55000 87617;
0216268820999992000020306004+53970+032850FM-12+021799999V0202501N007010051019N0200001N1+00091-00111099531ADDAA199000091AJ100319199999999GA1071+005109059GF107991071051004501001001IA1279KA1120N+00041MD1310021+9999REMSYN082AAXX  03061 26882 32470 72507 10009 21011 49953 53002 87500 333 20004 43031 87617;EQDQ01  00002PRCP99
0140268820999992000020309004+53970+032850FM-12+021799999V02099999999990042019N0022001N1+00141-00151099501ADDAY181031AY221031GF107991071091004501001001MD1810071+9999MW1861REMSYN066AAXX  03091 26882 41422 7//// 10014 21015 49950 58007 78682 87900;
0161268820999992000020312004+53970+032850FM-12+021799999V02099999999990300019N0200001N1+00051-00121099541ADDAY181061AY221061GF106991041081004501031001MA1999999096801MD1710031+9999MW1011REMSYN072AAXX  03121 26882 41470 6//// 10005 21012 39680 49954 57003 70182 84830;
0185268820999992000020315004+53970+032850FM-12+021799999V0202501N008010012019N0021001N1+00021-00091099711ADDAY171031AY221031GA1081+001209069GF108991999071001501021999MD1310171+9999MW1731REMSYN076AAXX  03151 26882 41221 82508 10002 21009 49971 53017 77372 8872/ 333 88704;EQDQ01+000082SCOTLC
0208268820999992000020318004+53970+032850FM-12+021799999V0203401N007010060019N0200001N1-00141-00281100031ADDAA112001091AY171061AY231061GA1071+006009069GF107991071051004501001001KA1120M+00151MD1210291+9999MW1361REMSYN094AAXX  03181 26882 11498 73407 11014 21028 40003 52029 60012 73673 87500 333 10015 87620 91112;
0191268820999992000020321004+53970+032850FM-12+021799999V0203201N006010030019N0040001N1-00371-00661100581ADDAY171031AY231031GA1081+003009079GF108991999071004501021999MD1210511+9999MW1711REMSYN082AAXX  03211 26882 41496 83206 11037 21066 40058 52051 77173 8872/ 333 88710 91112;EQDQ01+000082SCOTLC
0171268820999992000020400004+53970+032850FM-12+021799999V0203101N005019999999N0200001N1-00621-01021101061ADDAY171061AY231061GF105991051001999999031001MA1999999098211MD1210441+9999MW1361REMSYN082AAXX  04001 26882 41998 53105 11062 21102 39821 40106 52044 73673 85030 333 91114;
0180268820999992000020403004+53970+032850FM-12+021799999V0203101N006010060019N0500001N1-00641-01091101371ADDAY131031AY221031GA1061+006009059GF106991061051008001001001GJ100429MD1210301+9999MW1361REMSYN082AAXX  04031 26882 41599 63106 11064 21109 40137 52030 73632 86500 333 55007 86620;
0215268820999992000020406004+53970+032850FM-12+021799999V0203001N007012200019N0200001N1-00641-01051101641ADDAA112000391AJ100369199999999AY131061AY211061GF102991021001999999031001IA1289KA1120N-00661MD1210261+9999MW1371REMSYN094AAXX  04061 26882 11970 23007 11064 21105 40164 52026 69932 73731 82030 333 21066 44036 91113;
0172268820999992000020409004+53970+032850FM-12+021799999V0203201N007010057019N0200001N1-00531-00901101901ADDAY131031AY211031GA1061+005709069GF106991061051004501001001MD1210271+9999MW1361REMSYN082AAXX  04091 26882 41470 63207 11053 21090 40190 52027 73631 86500 333 86619 91112;
0161268820999992000020412004+53970+032850FM-12+021799999V0202701N006012200019N0200001N1-00401-00851101971ADDAY131061AY211061GF102991001001999999001011MA1999999099121MD1110081+9999MW1011REMSYN072AAXX  04121 26882 41970 22706 11040 21085 39912 40197 51008 70131 80001;
0112268820999992000020415004+53970+032850FM-12+021799999V0202501N006019999999N0200001N1-00561-01031101951ADDGF107991001001999999001041MD1810031+9999REMSYN060AAXX  04151 26882 42970 72506 11056 21103 40195 58003 80004;
0165268820999992000020418004+53970+032850FM-12+021799999V0202201N008019999999N0400001N1-00461-00851101661ADDAA199000091GF107991071001999999031001KA1999M-00371MD1710281+9999REMSYN070AAXX  04181 26882 32982 72208 11046 21085 40166 57028 87030 333 11037;EQDQ01  00002PRCP99
0144268820999992000020421004+53970+032850FM-12+021799999V0202201N010010027019N0300001N1-00351-00711101201ADDGA1071+002709069GF107991071051002501001001MD1710441+9999REMSYN076AAXX  04211 26882 42380 72210 11035 21071 40120 57044 87500 333 87609 91113;
0198268820999992000020500004+53970+032850FM-12+021799999V0202301N012010006019N0008001N1-00281-00351100691ADDAY171061AY231061GA1091+999999999GF109991091999999999999999MA1999999097891MD1710481+9999MW1751OA149901501REMSYN082AAXX  05001 26882 41/08 92312 11028 21035 39789 40069 57048 77573 333 91115 92982;
0191268820999992000020503004+53970+032850FM-12+021799999V0202301N011010006019N0007001N1-00221-00271100221ADDAY171031AY231031GA1091+999999999GF109991091999999999999999GJ104089MD1710461+9999MW1751OA149901501REMSYN082AAXX  05031 26882 41/07 92311 11022 21027 40022 57046 77573 333 55068 91115 92982;
0273268820999992000020506004+53970+032850FM-12+021799999V0202301N008010015019N0007001N1-00181-00201099831ADDAA112004191AJ100419199999999AY171061AY231061GA1081+001509079GF108991999071001501021999IA1249KA1120N-00461MD1710361+9999MW1731OA149901501REMSYN106AAXX  05061 26882 11207 82308 11018 21020 49983 57036 60042 77373 8872/ 333 21046 48041 88705 91115 92982;EQDQ01+000082SCOTLC
0201268820999992000020509004+53970+032850FM-12+021799999V0203101N005010057019N0060001N1-00131-00211999999ADDAY171031AY231031GA1081+005709069GF108991999071004501021999MD1410001+9999MW1711REMSYN076AAXX  05091 26882 41456 83105 11013 21021 49884 54000 77173 8872/ 333 88719;EQDQ01+000082SCOTLCQ02+098843APOSLP
0187268820999992000020512004+53970+032850FM-12+021799999V0203301N006010084019N0200001N1+00081-00351100041ADDAY171061AY231061GA1071+008409059GF107991071051008001001001MA1999999097291MD1210221+9999MW1021REMSYN082AAXX  05121 26882 41570 73306 10008 21035 39729 40004 52022 70273 87500 333 87628;
0138268820999992000020515004+53970+032850FM-12+021799999V0203201N007010099019N0200001N1+00021-00471100331ADDGA1071+009909059GF107991071051008001001001MD1210281+9999REMSYN070AAXX  05151 26882 42570 73207 10002 21047 40033 52028 87500 333 87633;
0208268820999992000020518004+53970+032850FM-12+021799999V0203301N008010135019N0110001N1-00051-00611100691ADDAA112000591AY131061AY221061GA1071+013509069GF107991071051012501001001KA1120M+00101MD1210341+9999MW1361REMSYN094AAXX  05181 26882 11661 73308 11005 21061 40069 52034 69962 73632 87500 333 10010 87645 91114;
0172268820999992000020521004+53970+032850FM-12+021799999V0203101N007010126019N0400001N1-00111-00731100971ADDAY131031AY221031GA1071+012609069GF107991071051012501001001MD1210261+9999MW1361REMSYN082AAXX  05211 26882 41682 73107 11011 21073 40097 52026 73632 87500 333 87642 91112;
0187268820999992000020600004+53970+032850FM-12+021799999V0203301N005010102019N0300001N1-00201-00781101251ADDAY131061AY221061GA1071+010209059GF107991071051012501001001MA1999999098441MD1210271+9999MW1361REMSYN082AAXX  06001 26882 41680 73305 11020 21078 39844 40125 52027 73632 87500 333 87634;
0152268820999992000020603004+53970+032850FM-12+021799999V0203301N005010078019N0300001N1-00291-00711101461ADDGA1061+007809059GF106991061051008001001001GJ100009MD1210191+9999REMSYN076AAXX  06031 26882 42580 63305 11029 21071 40146 52019 86500 333 55000 86626;
0194268820999992000020606004+53970+032850FM-12+021799999V0202901N003012200019N0200001N1-00851-01171101691ADDAA199000091AJ100489199999999GF102991021001999999041001IA1249KA1120N-00851MD1210171+9999REMSYN076AAXX  06061 26882 32970 22903 11085 21117 40169 52017 82040 333 21085 48048;EQDQ01  00002PRCP99
0138268820999992000020609004+53970+032850FM-12+021799999V0203001N004010039019N0200001N1-00531-00781101711ADDGA1071+003909059GF107991071051004501001001MD1210051+9999REMSYN070AAXX  06091 26882 42470 73004 11053 21078 40171 52005 87500 333 87613;
0133268820999992000020612004+53970+032850FM-12+021799999V0202701N001010750019N0200001N1-00431-00741101671ADDGF105991021051008001031011MA1999999098831MD1810021+9999REMSYN066AAXX  06121 26882 42570 52701 11043 21074 39883 40167 58002 82531;
0112268820999992000020615004+53970+032850FM-12+021799999V0202001N003019999999N0200001N1-00591-00811101701ADDGF107991001001999999001091MD1410001+9999REMSYN060AAXX  06151 26882 42970 72003 11059 21081 40170 54000 80009;
0187268820999992000020618004+53970+032850FM-12+021799999V0202101N005010093019N0140001N1-00381-00561101591ADDAA199000091GA1071+009309059GF107991071051008001001001KA1120M-00311MD1710081+9999REMSYN076AAXX  06181 26882 32564 72105 11038 21056 40159 57008 87500 333 11031 87631;EQDQ01  00002PRCP99
0166268820999992000020621004+53970+032850FM-12+021799999V0202201N006010033019N0110001N1-00241-00271101411ADDAY171031AY221031GA1071+003309059GF107991071051004501001001MD1710161+9999MW1021REMSYN076AAXX  06211 26882 41461 72206 11024 21027 40141 57016 70272 87500 333 87611;
0187268820999992000020700004+53970+032850FM-12+021799999V0202301N006010021019N0100001N1-00201-00231101371ADDAY171061AY221061GA1081+002109069GF108991081061002501999999MA1999999098551MD1710041+9999MW1021REMSYN082AAXX  07001 26882 41360 82306 11020 21023 39855 40137 57004 70272 886// 333 88707;
0152268820999992000020703004+53970+032850FM-12+021799999V0202601N005010021019N0150001N1+00051+00051101271ADDGA1081+002109069GF108991081061002501999999GJ101149MD1710061+9999REMSYN076AAXX  07031 26882 42365 82605 10005 20005 40127 57006 886// 333 55019 88707;
0231268820999992000020706004+53970+032850FM-12+021799999V0202701N004010012019N0037001N1+00101+00071101381ADDAA112001091AJ100519199999999AY151061AY221061GA1081+001209069GF108991081061001501999999IA1289KA1120N-00371MD1310111+9999MW1511REMSYN094AAXX  07061 26882 11237 82704 10010 20007 40138 53011 60012 75152 886// 333 21037 44051 88704;
0166268820999992000020709004+53970+032850FM-12+021799999V0202601N004010018019N0039001N1+00151+00121101481ADDAY151031AY221031GA1081+001809069GF108991081061001501999999MD1210101+9999MW1511REMSYN076AAXX  07091 26882 41239 82604 10015 20012 40148 52010 75152 886// 333 88706;
0187268820999992000020712004+53970+032850FM-12+021799999V0202601N004010051019N0090001N1+00161+00111101471ADDAY151061AY221061GA1071+005109059GF107991071051004501001001MA1999999098691MD1810011+9999MW1101REMSYN082AAXX  07121 26882 41459 72604 10016 20011 39869 40147 58001 71052 87500 333 87617;
0113268820999992000020715004+53970+032850FM-12+021799999V0202401N002019999999N0090001N1+00151+99999999999ADDGF107991999999004501999999REMSYN075AAXX  07151 26882 41459 72402 10015 2000 40149 57002 71022 87500 333 87620;
0174268820999992000020718004+53970+032850FM-12+021799999V0202001N003010063019N0150001N1+00131+00051101301ADDAA112000391GA1071+006309059GF107991071051008001001001KA1120M+00171MD1710181+9999REMSYN082AAXX  07181 26882 12565 72003 10013 20005 40130 57018 69932 87500 333 10017 87621;
0166268820999992000020721004+53970+032850FM-12+021799999V0202001N006010021019N0050001N1+00121+00091101151ADDAY121031AY221031GA1081+002109069GF108991081061002501999999MD1710151+9999MW1101REMSYN076AAXX  07211 26882 41350 82006 10012 20009 40115 57015 71022 886// 333 88707;
0171268820999992000020800004+53970+032850FM-12+021799999V0202201N006010006019N0007001N1+00111+00111101001ADDAY161061AY241061GA1091+999999999GF109991091999999999999999MA1999999098241MD1710141+9999MW1471REMSYN066AAXX  08001 26882 41/07 92206 10011 20011 39824 40100 57014 74764;
0160268820999992000020803004+53970+032850FM-12+021799999V0202201N006010006019N0006001N1+00091+00091100841ADDAY141031AY221031GA1091+999999999GF109991091999999999999999MD1710161+9999MW1451REMSYN070AAXX  08031 26882 41/06 92206 10009 20009 40084 57016 74542 333 55000;
0225268820999992000020806004+53970+032850FM-12+021799999V0202101N006010006019N0007001N1+00111+00111100761ADDAA112001091AJ100469199999999AY151061AY241061GA1091+999999999GF109991091999999999999999IA1289KA1120N+00081MD1710081+9999MW1511REMSYN088AAXX  08061 26882 11/07 92106 10011 20011 40076 57008 60012 75154 333 20008 44046 96045;
0150268820999992000020809004+53970+032850FM-12+021799999V0202201N006010006019N0007001N1+00131+00131100721ADDAY151031AY241031GA1091+999999999GF109991091999999999999999MD1710041+9999MW1451REMSYN060AAXX  08091 26882 41/07 92206 10013 20013 40072 57004 74554;
0171268820999992000020812004+53970+032850FM-12+021799999V0202101N004010006019N0006001N1+00161+00161100531ADDAY151061AY241061GA1091+999999999GF109991091999999999999999MA1999999097771MD1710191+9999MW1451REMSYN066AAXX  08121 26882 41/06 92104 10016 20016 39777 40053 57019 74554;
0150268820999992000020815004+53970+032850FM-12+021799999V0202001N004010003019N0002001N1+00151+00151100421ADDAY141031AY221031GA1091+999999999GF109991091999999999999999MD1710111+9999MW1451REMSYN060AAXX  08151 26882 41/92 92004 10015 20015 40042 57011 74542;
0190268820999992000020818004+53970+032850FM-12+021799999V0202001N005010003019N0004001N1+00101+00101100351ADDAA112001091AY141061AY221061GA1091+999999999GF109991091999999999999999KA1999M+00191MD1710061+9999MW1451REMSYN076AAXX  08181 26882 11/04 92005 10010 20010 40035 57006 60012 74542 333 10019;
0150268820999992000020821004+53970+032850FM-12+021799999V0201801N004010006019N0006001N1+00101+00101100821ADDAY141031AY221031GA1091+999999999GF109991091999999999999999MD1710031+9999MW1451REMSYN060AAXX  08211 26882 41/06 91804 10010 20010 40082 57003 74542;
0222268820999992000020900004+53970+032850FM-12+021799999V0202001N005010015019N0011001N1+00131+00101099741ADDAY161061AY241061GA1081+001509069GF108991999071001501021999MA1999999097011MD1711081+9999MW1611REMSYN082AAXX  09001 26882 41211 82005 10013 20010 39701 49974 57056 76164 8872/ 333 88705;EQDQ01+000082SCOTLCQ02+000562APC3  
0180268820999992000020903004+53970+032850FM-12+021799999V0202201N005010018019N0033001N1+00121+00091099671ADDAY161031AY221031GA1081+001809069GF108991081061001501999999GJ100009MD1710071+9999MW1101REMSYN082AAXX  09031 26882 41233 82205 10012 20009 49967 57007 71062 886// 333 55000 88706;
0231268820999992000020906004+53970+032850FM-12+021799999V0202601N007010036019N0200001N1+00141+00031099721ADDAA112001091AJ100449199999999AY161061AY221061GA1071+003609059GF107991071051004501001001IA1289KA1120N+00101MD1210051+9999MW1021REMSYN094AAXX  09061 26882 11470 72607 10014 20003 49972 52005 60012 70262 87500 333 20010 44044 87612;
0138268820999992000020909004+53970+032850FM-12+021799999V0202501N007010042019N0200001N1+00121-00501099891ADDGA1071+004209059GF107991071051004501001001MD1210161+9999REMSYN070AAXX  09091 26882 42470 72507 10012 21050 49989 52016 87500 333 87614;
0159268820999992000020912004+53970+032850FM-12+021799999V0201901N002010045019N0200001N1+00131-00071099921ADDGA1071+004509059GF107991071051004501001001MA1999999097181MD1210031+9999REMSYN076AAXX  09121 26882 42470 71902 10013 21007 39718 49992 52003 87500 333 87615;
0138268820999992000020915004+53970+032850FM-12+021799999V0201701N003010045019N0200001N1+00181+00021100051ADDGA1071+004509059GF107991071051004501001001MD1210121+9999REMSYN070AAXX  09151 26882 42470 71703 10018 20002 40005 52012 87500 333 87615;
0187268820999992000020918004+53970+032850FM-12+021799999V0202001N003010024019N0100001N1+00181+00101100211ADDAA199000091GA1071+002409059GF107991071051002501001001KA1120M+00251MD1210181+9999REMSYN076AAXX  09181 26882 32360 72003 10018 20010 40021 52018 87500 333 10025 87608;EQDQ01  00002PRCP99
0150268820999992000020921004+53970+032850FM-12+021799999V0202101N004010003019N0003001N1+00121+00071100391ADDAY141031AY221031GA1091+999999999GF109991091999999999999999MD1210171+9999MW1471REMSYN060AAXX  09211 26882 41/03 92104 10012 20007 40039 52017 74742;
0171268820999992000021000004+53970+032850FM-12+021799999V0202201N003010003019N0004001N1+00101+00081100501ADDAY141061AY221061GA1091+999999999GF109991091999999999999999MA1999999097751MD1210151+9999MW1451REMSYN066AAXX  10001 26882 41/04 92203 10010 20008 39775 40050 52015 74542;
0199268820999992000021003004+53970+032850FM-12+021799999V0202601N007010024019N0080001N1+00101+00051100731ADDAY161031AY241031GA1081+002409069GF108991999071002501021999GJ100009MD1210111+9999MW1611REMSYN082AAXX  10031 26882 41358 82607 10010 20005 40073 52011 76164 8872/ 333 55000 88708;EQDQ01+000082SCOTLC
0231268820999992000021006004+53970+032850FM-12+021799999V0202501N007010030019N0200001N1+00111+00061100951ADDAA112000591AJ100369199999999AY161061AY241061GA1071+003009059GF107991071051004501001001IA1289KA1120N+00081MD1210221+9999MW1021REMSYN094AAXX  10061 26882 11470 72507 10011 20006 40095 52022 69952 70264 87500 333 20008 44036 87610;
0185268820999992000021009004+53970+032850FM-12+021799999V0202501N007010018019N0038001N1+00031-00031101161ADDAY171031AY221031GA1081+001809069GF108991999071001501021999MD1210181+9999MW1731REMSYN076AAXX  10091 26882 41238 82507 10003 21003 40116 52018 77372 8872/ 333 88706;EQDQ01+000082SCOTLC
0206268820999992000021012004+53970+032850FM-12+021799999V0202501N007010024019N0035001N1+00041-00021101201ADDAY171061AY221061GA1081+002409069GF108991999071002501021999MA1999999098421MD1210051+9999MW1731REMSYN082AAXX  10121 26882 41335 82507 10004 21002 39842 40120 52005 77372 8872/ 333 88708;EQDQ01+000082SCOTLC
0162268820999992000021015004+53970+032850FM-12+021799999V0202801N006010021019N0060001N1+00051-00011101401ADDAY171031AY221031GF108991999071002501021999MD1210191+9999MW1711REMSYN069AAXX  10151 26882 4135682806 10005 21001 40140 52019 77172 8872/ 333;EQDQ01+000082SCOTLC
0202268820999992000021018004+53970+032850FM-12+021799999V0202901N005010030019N0300001N1+00061+00011101671ADDAA112002091AY171061AY221061GA1071+003009059GF107991071051004501001001KA1120M+00131MD1210261+9999MW1021REMSYN088AAXX  10181 26882 11480 72905 10006 20001 40167 52026 60022 70272 87500 333 10013 87610;
0138268820999992000021021004+53970+032850FM-12+021799999V0202901N004010030019N0300001N1+00041-00051101801ADDGA1071+003009059GF107991071051002501001001MD1210131+9999REMSYN070AAXX  10211 26882 42380 72904 10004 21005 40180 52013 87500 333 87610;
0159268820999992000021100004+53970+032850FM-12+021799999V0202801N004010042019N0250001N1+00021-00121101871ADDGA1071+004209059GF107991071051004501001001MA1999999099071MD1210071+9999REMSYN076AAXX  11001 26882 42475 72804 10002 21012 39907 40187 52007 87500 333 87614;
0152268820999992000021103004+53970+032850FM-12+021799999V0202801N008010084019N0500001N1-00041-00341101951ADDGA1071+008409059GF107991071051008001001001GJ100009MD1210071+9999REMSYN076AAXX  11031 26882 42584 72808 11004 21034 40195 52007 87500 333 55000 87628;
0216268820999992000021106004+53970+032850FM-12+021799999V0202801N005010048019N0200001N1-00121-00411102061ADDAA199000091AJ100339199999999GA1071+004809059GF107991071051004501001001IA1289KA1120N-00121MD1210091+9999REMSYN082AAXX  11061 26882 32470 72805 11012 21041 40206 52009 87500 333 21012 44033 87616;EQDQ01  00002PRCP99
0138268820999992000021109004+53970+032850FM-12+021799999V0202101N005010087019N0200001N1-00031-00301102091ADDGA1071+008709059GF107991071051008001001001MD1210041+9999REMSYN070AAXX  11091 26882 42570 72105 11003 21030 40209 52004 87500 333 87629;
0159268820999992000021112004+53970+032850FM-12+021799999V0202401N005010060019N0200001N1+00061-00161101981ADDGA1071+006009059GF107991071051008001001001MA1999999099171MD1810101+9999REMSYN076AAXX  11121 26882 42570 72405 10006 21016 39917 40198 58010 87500 333 87620;
0112268820999992000021115004+53970+032850FM-12+021799999V0202001N005019999999N0200001N1-00051-00461101941ADDGF105991021001999999041041MD1710041+9999REMSYN060AAXX  11151 26882 42970 52005 11005 21046 40194 57004 82044;
0165268820999992000021118004+53970+032850FM-12+021799999V0202101N006019999999N0400001N1-00031-00401101871ADDAA199000091GF107991071001999999051001KA1999M+00061MD1710071+9999REMSYN070AAXX  11181 26882 32982 72106 11003 21040 40187 57007 87050 333 10006;EQDQ01  00002PRCP99
0185268820999992000021121004+53970+032850FM-12+021799999V0202701N005010036019N0049001N1+00031-00031101901ADDAY171031AY221031GA1081+003609069GF108991999071004501021999MD1310041+9999MW1711REMSYN076AAXX  11211 26882 41449 82705 10003 21003 40190 53004 77172 8872/ 333 88712;EQDQ01+000082SCOTLC
0187268820999992000021200004+53970+032850FM-12+021799999V0203001N006010084019N0500001N1+00091-00231102041ADDAY171061AY221061GA1071+008409059GF107991071051008001001001MA1999999099231MD1210131+9999MW1021REMSYN082AAXX  12001 26882 41584 73006 10009 21023 39923 40204 52013 70272 87500 333 87628;
0152268820999992000021203004+53970+032850FM-12+021799999V0202901N007010084019N0500001N1+00101-00291102151ADDGA1071+008409059GF107991071051008001001001GJ100429MD1210121+9999REMSYN076AAXX  12031 26882 42584 72907 10010 21029 40215 52012 87500 333 55007 87628;
0203268820999992000021206004+53970+032850FM-12+021799999V0202601N005010099019N0200001N1+00031-00351102281ADDAA112000591AJ100339199999999GA1071+009909059GF107991071051008001001001IA1289KA1120N-00051MD1210111+9999REMSYN088AAXX  12061 26882 12570 72605 10003 21035 40228 52011 69942 87500 333 21005 44033 87633;
0138268820999992000021209004+53970+032850FM-12+021799999V0202701N005010102019N0200001N1+00101-00261102291ADDGA1071+010209059GF107991071051012501001001MD1110021+9999REMSYN070AAXX  12091 26882 42670 72705 10010 21026 40229 51002 87500 333 87634;
0159268820999992000021212004+53970+032850FM-12+021799999V0202801N006010060019N0200001N1+00151-00171102321ADDGA1071+006009059GF107991071051004501001001MA1999999099511MD1210031+9999REMSYN076AAXX  12121 26882 42470 72806 10015 21017 39951 40232 52003 87500 333 87620;
0138268820999992000021215004+53970+032850FM-12+021799999V0202601N004010117019N0200001N1+00151-00101102361ADDGA1071+011709059GF107991071051012501001001MD1210041+9999REMSYN070AAXX  12151 26882 42670 72604 10015 21010 40236 52004 87500 333 87639;
0187268820999992000021218004+53970+032850FM-12+021799999V0202601N004010081019N0500001N1+00101-00161102411ADDAA199000091GA1071+008109059GF107991071051008001001001KA1120M+00201MD1210051+9999REMSYN076AAXX  12181 26882 32584 72604 10010 21016 40241 52005 87500 333 10020 87627;EQDQ01  00002PRCP99
0138268820999992000021221004+53970+032850FM-12+021799999V0202601N003010078019N0500001N1+00101-00221102421ADDGA1071+007809059GF107991071051008001001001MD1110011+9999REMSYN070AAXX  12211 26882 42584 72603 10010 21022 40242 51001 87500 333 87626;
0159268820999992000021300004+53970+032850FM-12+021799999V0202201N003010081019N0300001N1+00101-00251102421ADDGA1071+008109059GF107991071051008001001001MA1999999099611MD1410001+9999REMSYN076AAXX  13001 26882 42580 72203 10010 21025 39961 40242 54000 87500 333 87627;
0152268820999992000021303004+53970+032850FM-12+021799999V0202101N002010102019N0190001N1+00021-00151102371ADDGA1071+010209059GF107991071051012501001001GJ100009MD1810061+9999REMSYN076AAXX  13031 26882 42669 72102 10002 21015 40237 58006 87500 333 55000 87634;
0216268820999992000021306004+53970+032850FM-12+021799999V0202001N004010117019N0180001N1-00011-00131102171ADDAA199000091AJ100329199999999GA1071+011709059GF107991071051012501001001IA1289KA1120N-00021MD1710201+9999REMSYN082AAXX  13061 26882 32668 72004 11001 21013 40217 57020 87500 333 21002 44032 87639;EQDQ01  00002PRCP99
0138268820999992000021309004+53970+032850FM-12+021799999V0202001N004010120019N0200001N1+00051-00121102061ADDGA1071+012009059GF107991071051012501001001MD1710101+9999REMSYN070AAXX  13091 26882 42670 72004 10005 21012 40206 57010 87500 333 87640;
0159268820999992000021312004+53970+032850FM-12+021799999V0201801N003010123019N0200001N1+00111-00241101841ADDGA1071+012309059GF107991071051012501001001MA1999999099051MD1710201+9999REMSYN076AAXX  13121 26882 42670 71803 10011 21024 39905 40184 57020 87500 333 87641;
0138268820999992000021315004+53970+032850FM-12+021799999V0202001N007010099019N0200001N1+00051-00531101661ADDGA1051+009909059GF107991051051008001001041MD1710191+9999REMSYN070AAXX  13151 26882 42570 72007 10005 21053 40166 57019 85504 333 85633;
0165268820999992000021318004+53970+032850FM-12+021799999V0202001N007019999999N0500001N1-00061-00541101581ADDAA199000091GF107991071001999999031001KA1999M+00141MD1710081+9999REMSYN070AAXX  13181 26882 32984 72007 11006 21054 40158 57008 87030 333 10014;EQDQ01  00002PRCP99
0138268820999992000021321004+53970+032850FM-12+021799999V0202201N007010045019N0500001N1-00141-00401101481ADDGA1071+004509059GF107991071051004501001001MD1710111+9999REMSYN070AAXX  13211 26882 42484 72207 11014 21040 40148 57011 87500 333 87615;
0187268820999992000021400004+53970+032850FM-12+021799999V0202001N006010045019N0220001N1-00161-00361101421ADDAY171061AY221061GA1071+004509059GF107991071051004501001001MA1999999098611MD1710061+9999MW1021REMSYN082AAXX  14001 26882 41472 72006 11016 21036 39861 40142 57006 70272 87500 333 87615;
0152268820999992000021403004+53970+032850FM-12+021799999V0202201N003010063019N0400001N1-00161-00301101371ADDGA1071+006309059GF107991071051008001001001GJ100129MD1710051+9999REMSYN076AAXX  14031 26882 42582 72203 11016 21030 40137 57005 87500 333 55002 87621;
0203268820999992000021406004+53970+032850FM-12+021799999V0201801N002010060019N0180001N1-00151-00291101311ADDAA112000791AJ100329199999999GA1071+006009059GF107991071051004501001001IA1289KA1120N-00191MD1710051+9999REMSYN088AAXX  14061 26882 12468 71802 11015 21029 40131 57005 69902 87500 333 21019 44032 87620;
0159268820999992000021412004+53970+032850FM-12+021799999V0201401N004010042019N0200001N1-00051-00291101061ADDGA1071+004209059GF107991071051004501001001MA1999999098271MD1710181+9999REMSYN076AAXX  14121 26882 42470 71404 11005 21029 39827 40106 57018 87500 333 87614;
0185268820999992000021415004+53970+032850FM-12+021799999V0201601N004010018019N0025001N1-00051-00111100951ADDAY171031AY221031GA1081+001809069GF108991999071001501021999MD1710111+9999MW1731REMSYN076AAXX  14151 26882 41225 81604 11005 21011 40095 57011 77372 8872/ 333 88706;EQDQ01+000082SCOTLC
0221268820999992000021418004+53970+032850FM-12+021799999V0201801N005010018019N0050001N1-00051-00111100951ADDAA112000891AY171061AY221061GA1081+001809069GF108991999071001501021999KA1120M-00021MD1410001+9999MW1711REMSYN088AAXX  14181 26882 11250 81805 11005 21011 40095 54000 69982 77172 8872/ 333 11002 88706;EQDQ01+000082SCOTLC
0166268820999992000021421004+53970+032850FM-12+021799999V0202701N005010042019N0150001N1-00081-00181100991ADDAY171031AY221031GA1071+004209059GF107991071051004501001001MD1210041+9999MW1021REMSYN076AAXX  14211 26882 41465 72705 11008 21018 40099 52004 70272 87500 333 87614;
0161268820999992000021500004+53970+032850FM-12+021799999V0202401N004019999999N0200001N1-00151-00291101031ADDAY171061AY221061GF107991071001999999031001MA1999999098231MD1210031+9999MW1021REMSYN072AAXX  15001 26882 41970 72404 11015 21029 39823 40103 52003 70272 87030;
0180268820999992000021503004+53970+032850FM-12+021799999V0202301N005010042019N0110001N1-00201-00291101041ADDAY171031AY221031GA1071+004209059GF107991071051004501001001GJ100009MD1410001+9999MW1221REMSYN082AAXX  15031 26882 41461 72305 11020 21029 40104 54000 72272 87500 333 55000 87614;
0231268820999992000021506004+53970+032850FM-12+021799999V0202401N004010048019N0200001N1-00141-00191101171ADDAA112004191AJ100369199999999AY171061AY221061GA1071+004809059GF107991071051004501001001IA1249KA1120N-00301MD1310141+9999MW1011REMSYN094AAXX  15061 26882 11470 72404 11014 21019 40117 53014 60042 70172 87500 333 21030 48036 87616;
0112268820999992000021509004+53970+032850FM-12+021799999V0202601N003012200019N0200001N1-00071-00421101271ADDGF102991011021008001041001MD1210111+9999REMSYN060AAXX  15091 26882 42570 22603 11007 21042 40127 52011 81240;
0187268820999992000021512004+53970+032850FM-12+021799999V0202601N003010030019N0011001N1-00121-00251101271ADDAY181061AY211061GA1071+003009099GF107991071091004501001001MA1999999098471MD1810011+9999MW1861REMSYN082AAXX  15121 26882 41411 72603 11012 21025 39847 40127 58001 78681 87900 333 87910;
0166268820999992000021515004+53970+032850FM-12+021799999V0202601N004010087019N0200001N1-00171-00341101311ADDAY181031AY211031GA1061+008709029GF107991061081008001061001MD1310041+9999MW1261REMSYN076AAXX  15151 26882 41570 72604 11017 21034 40131 53004 72681 86860 333 86829;
0180268820999992000021518004+53970+032850FM-12+021799999V0202201N005019999999N0400001N1-00461-00591101321ADDAA112000391AY181061AY211061GF107991071001999999031001KA1999M+00031MD1810031+9999MW1031REMSYN082AAXX  15181 26882 11982 72205 11046 21059 40132 58003 69932 70381 87030 333 10003;
0138268820999992000021521004+53970+032850FM-12+021799999V0202201N004010036019N0400001N1-00331-00471101311ADDGA1071+003609059GF107991071051004501001001MD1410001+9999REMSYN070AAXX  15211 26882 42482 72204 11033 21047 40131 54000 87500 333 87612;
0159268820999992000021600004+53970+032850FM-12+021799999V0202101N003010120019N0290001N1-00301-00431101311ADDGA1071+012009059GF107991071051012501001001MA1999999098481MD1410001+9999REMSYN076AAXX  16001 26882 42679 72103 11030 21043 39848 40131 54000 87500 333 87640;
0152268820999992000021603004+53970+032850FM-12+021799999V0202001N003010132019N0300001N1-00331-00441101291ADDGA1071+013209059GF107991071051012501001001GJ101869MD1810021+9999REMSYN076AAXX  16031 26882 42680 72003 11033 21044 40129 58002 87500 333 55031 87644;
0194268820999992000021606004+53970+032850FM-12+021799999V0201801N004010300019N0200001N1-00431-00591101201ADDAA199000091AJ100369199999999GF106991021021012501031091IA1249KA1120N-00461MD1710101+9999REMSYN076AAXX  16061 26882 32670 61804 11043 21059 40120 57010 82239 333 21046 48036;EQDQ01  00002PRCP99
0112268820999992000021609004+53970+032850FM-12+021799999V0201901N006019999999N0200001N1-00211-00671101171ADDGF107991071001999999031001MD1410001+9999REMSYN060AAXX  16091 26882 /2970 71906 11021 21067 40117 54000 87030;
0133268820999992000021612004+53970+032850FM-12+021799999V0201801N005019999999N0200001N1-00051-00571101011ADDGF107991071001999999031001MA1999999098221MD1810141+9999REMSYN066AAXX  16121 26882 42970 71805 11005 21057 39822 40101 58014 87030;
0138268820999992000021615004+53970+032850FM-12+021799999V0201901N005010072019N0200001N1-00071-00421100961ADDGA1071+007209059GF107991071051008001001001MD1710051+9999REMSYN070AAXX  16151 26882 42570 71905 11007 21042 40096 57005 87500 333 87624;
0221268820999992000021618004+53970+032850FM-12+021799999V0202001N006010021019N0050001N1-00101-00291101031ADDAA112000791AY171061AY221061GA1081+002109069GF108991999071002501021999KA1120M-00021MD1310061+9999MW1711REMSYN088AAXX  16181 26882 11350 82006 11010 21029 40103 53006 69902 77172 8872/ 333 11002 88707;EQDQ01+000082SCOTLC
0185268820999992000021621004+53970+032850FM-12+021799999V0202001N006010021019N0060001N1-00121-00251101091ADDAY171031AY221031GA1081+002109069GF108991999071002501021999MD1210061+9999MW1711REMSYN076AAXX  16211 26882 41356 82006 11012 21025 40109 52006 77172 8872/ 333 88707;EQDQ01+000082SCOTLC
0187268820999992000021700004+53970+032850FM-12+021799999V0201901N005010018019N0050001N1-00131-00231101091ADDAY171061AY221061GA1081+001809069GF108991081061001501999999MA1999999098291MD1410001+9999MW1101REMSYN082AAXX  17001 26882 41250 81905 11013 21023 39829 40109 54000 71072 886// 333 88706;
0180268820999992000021703004+53970+032850FM-12+021799999V0201801N005010024019N0150001N1-00191-00401101111ADDAY131031AY221031GA1071+002409059GF107991071051002501001001GJ100189MD1310021+9999MW1011REMSYN082AAXX  17031 26882 41365 71805 11019 21040 40111 53002 70132 87500 333 55003 87608;
0231268820999992000021706004+53970+032850FM-12+021799999V0201801N005010048019N0110001N1-00281-00431101151ADDAA112000391AJ100369199999999AY131061AY221061GA1071+004809059GF107991071051002501001001IA1249KA1120N-00301MD1210031+9999MW1021REMSYN094AAXX  17061 26882 11361 71805 11028 21043 40115 52003 69932 70232 87500 333 21030 48036 87616;
0112268820999992000021709004+53970+032850FM-12+021799999V0201501N006019999999N0200001N1-00301-00611101231ADDGF106991061001999999031001MD1210061+9999REMSYN060AAXX  17091 26882 42970 61506 11030 21061 40123 52006 86030;
0133268820999992000021712004+53970+032850FM-12+021799999V0201701N005019999999N0140001N1-00211-00641101221ADDGF107991071001999999031001MA1999999098411MD1210011+9999REMSYN066AAXX  17121 26882 42964 71705 11021 21064 39841 40122 52001 87030;
0112268820999992000021715004+53970+032850FM-12+021799999V0201601N004019999999N0120001N1-00251-00581101261ADDGF107991071001999999031001MD1210041+9999REMSYN060AAXX  17151 26882 42962 71604 11025 21058 40126 52004 87030;
0187268820999992000021718004+53970+032850FM-12+021799999V0201701N005010051019N0500001N1-00241-00571101281ADDAA199000091GA1071+005109059GF107991071051004501001001KA1120M-00181MD1210011+9999REMSYN076AAXX  17181 26882 32484 71705 11024 21057 40128 52001 87500 333 11018 87617;EQDQ01  00002PRCP99
0138268820999992000021721004+53970+032850FM-12+021799999V0201801N005010060019N0500001N1-00181-00521101381ADDGA1071+006009059GF107991071051004501001001MD1210101+9999REMSYN070AAXX  17211 26882 42484 71805 11018 21052 40138 52010 87500 333 87620;
0159268820999992000021800004+53970+032850FM-12+021799999V0201401N006010042019N0400001N1-00171-00511101321ADDGA1071+004209059GF107991071051004501001001MA1999999098521MD1810051+9999REMSYN076AAXX  18001 26882 42482 71406 11017 21051 39852 40132 58005 87500 333 87614;
0152268820999992000021803004+53970+032850FM-12+021799999V0201301N005010030019N0200001N1-00241-00401101221ADDGA1071+003009059GF107991071051004501001001GJ100189MD1710111+9999REMSYN076AAXX  18031 26882 42470 71305 11024 21040 40122 57011 87500 333 55003 87610;
0216268820999992000021806004+53970+032850FM-12+021799999V0201301N005010111019N0200001N1-00191-00431101101ADDAA199000091AJ100359199999999GA1071+011109059GF107991071051012501001001IA1249KA1120N-00251MD1710121+9999REMSYN082AAXX  18061 26882 32670 71305 11019 21043 40110 57012 87500 333 21025 48035 87637;EQDQ01  00002PRCP99
0185268820999992000021809004+53970+032850FM-12+021799999V0201501N005010036019N0060001N1-00131-00301101051ADDAY171031AY221031GA1081+003609069GF108991999071004501021999MD1710041+9999MW1711REMSYN076AAXX  18091 26882 41456 81505 11013 21030 40105 57004 77172 8872/ 333 88712;EQDQ01+000082SCOTLC
0206268820999992000021812004+53970+032850FM-12+021799999V0201501N005010021019N0022001N1-00031-00121100971ADDAY171061AY221061GA1081+002109069GF108991999071002501021999MA1999999098181MD1710071+9999MW1731REMSYN082AAXX  18121 26882 41322 81505 11003 21012 39818 40097 57007 77372 8872/ 333 88707;EQDQ01+000082SCOTLC
0185268820999992000021815004+53970+032850FM-12+021799999V0201501N004010021019N0030001N1-00011-00071100901ADDAY171031AY221031GA1081+002109069GF108991999071002501021999MD1710051+9999MW1731REMSYN076AAXX  18151 26882 41330 81504 11001 21007 40090 57005 77372 8872/ 333 88707;EQDQ01+000082SCOTLC
0221268820999992000021818004+53970+032850FM-12+021799999V0201501N002010018019N0020001N1+00031+00001100901ADDAA112005191AY171061AY221061GA1081+001809069GF108991999071001501021999KA1120M+00041MD1710011+9999MW1731REMSYN088AAXX  18181 26882 11220 81502 10003 20000 40090 57001 60052 77372 8872/ 333 10004 88706;EQDQ01+000082SCOTLC
0185268820999992000021821004+53970+032850FM-12+021799999V0201501N002010018019N0020001N1+00021-00011100831ADDAY171031AY221031GA1081+001809069GF108991999071001501021999MD1710071+9999MW1731REMSYN076AAXX  18211 26882 41220 81502 10002 21001 40083 57007 77372 8872/ 333 88706;EQDQ01+000082SCOTLC
0206268820999992000021900004+53970+032850FM-12+021799999V0201401N002010018019N0020001N1+00001-00011100831ADDAY171061AY221061GA1081+001809069GF108991999071001501021999MA1999999098061MD1410001+9999MW1731REMSYN082AAXX  19001 26882 41220 81402 10000 21001 39806 40083 54000 77372 8872/ 333 88706;EQDQ01+000082SCOTLC
0199268820999992000021903004+53970+032850FM-12+021799999V0201401N002010018019N0016001N1+00021-00011100711ADDAY171031AY221031GA1081+001809069GF108991999071001501021999GJ100009MD1710081+9999MW1731REMSYN082AAXX  19031 26882 41216 81402 10002 21001 40071 57008 77372 8872/ 333 55000 88706;EQDQ01+000082SCOTLC
0225268820999992000021906004+53970+032850FM-12+021799999V0201201N003010003019N0002001N1+00021+00021100691ADDAA112006191AJ100479199999999AY171061AY241061GA1091+999999999GF109991091999999999999999IA1289KA1120N+00001MD1710021+9999MW1711REMSYN088AAXX  19061 26882 11/92 91203 10002 20002 40069 57002 60062 77174 333 20000 44047 96047;
0160268820999992000021909004+53970+032850FM-12+021799999V0201501N003010003019N0002001N1+00121+00121100631ADDAY171031AY261031GA1091+999999999GF109991091999999999999999MD1710051+9999MW1611REMSYN070AAXX  19091 26882 41/92 91503 10012 20012 40063 57005 76176 333 96047;
0181268820999992000021912004+53970+032850FM-12+021799999V0201501N003010006019N0007001N1+00141+00141100691ADDAY171061AY261061GA1091+999999999GF109991091999999999999999MA1999999097931MD1310061+9999MW1511REMSYN076AAXX  19121 26882 41/07 91503 10014 20014 39793 40069 53006 75176 333 96043;
0160268820999992000021915004+53970+032850FM-12+021799999V0201201N003010006019N0009001N1+00081+00081100681ADDAY171031AY251031GA1091+999999999GF109991091999999999999999MD1810021+9999MW1711REMSYN070AAXX  19151 26882 41/09 91203 10008 20008 40068 58002 77175 333 96045;
0221268820999992000021918004+53970+032850FM-12+021799999V0201301N003010015019N0016001N1+00021-00011100701ADDAA112002091AY171061AY251061GA1081+001509069GF108991999071001501021999KA1120M+00151MD1310021+9999MW1731REMSYN088AAXX  19181 26882 11216 81303 10002 21001 40070 53002 60022 77375 8872/ 333 10015 88705;EQDQ01+000082SCOTLC
0185268820999992000021921004+53970+032850FM-12+021799999V0201401N002010018019N0018001N1+00021-00011100761ADDAY171031AY221031GA1081+001809069GF108991999071001501021999MD1210061+9999MW1731REMSYN076AAXX  19211 26882 41218 81402 10002 21001 40076 52006 77372 8872/ 333 88706;EQDQ01+000082SCOTLC
0206268820999992000022000004+53970+032850FM-12+021799999V0202101N002010024019N0050001N1+00001-00031100791ADDAY171061AY221061GA1081+002409069GF108991999071002501021999MA1999999098021MD1210031+9999MW1711REMSYN082AAXX  20001 26882 41350 82102 10000 21003 39802 40079 52003 77172 8872/ 333 88708;EQDQ01+000082SCOTLC
0180268820999992000022003004+53970+032850FM-12+021799999V0202001N001010081019N0080001N1-00021-00051100851ADDAY171031AY221031GA1071+008109059GF107991071051008001001001GJ100009MD1210041+9999MW1101REMSYN082AAXX  20031 26882 41558 72001 11002 21005 40085 52004 71072 87500 333 55000 87627;
0225268820999992000022006004+53970+032850FM-12+021799999V0209999C000010003019N0005001N1-00021-00021100891ADDAA112003091AJ100439199999999AY171061AY241061GA1091+999999999GF109991091999999999999999IA1289KA1120N-00051MD1110041+9999MW1731REMSYN088AAXX  20061 26882 11/93 90000 11002 21002 40089 51004 60032 77374 333 21005 44043 96047;
0185268820999992000022009004+53970+032850FM-12+021799999V0203201N002010024019N0150001N1+00021-00041100931ADDAY171031AY241031GA1081+002409069GF108991999071002501021999MD1210061+9999MW1711REMSYN076AAXX  20091 26882 41365 83202 10002 21004 40093 52006 77174 8872/ 333 88708;EQDQ01+000082SCOTLC
0187268820999992000022012004+53970+032850FM-12+021799999V0203301N002010021019N0120001N1+00061-00111100951ADDAY171061AY241061GA1081+002109069GF108991081061002501999999MA1999999098181MD1210021+9999MW1021REMSYN082AAXX  20121 26882 41362 83302 10006 21011 39818 40095 52002 70274 886// 333 88707;
0185268820999992000022015004+53970+032850FM-12+021799999V0203101N003010018019N0007001N1-00021-00051100961ADDAY171031AY221031GA1081+001809069GF108991999071001501021999MD1710011+9999MW1751REMSYN076AAXX  20151 26882 41207 83103 11002 21005 40096 57001 77572 8872/ 333 88706;EQDQ01+000082SCOTLC
0221268820999992000022018004+53970+032850FM-12+021799999V0203001N004010018019N0032001N1-00021-00081101001ADDAA112004191AY171061AY221061GA1081+001809069GF108991999071001501021999KA1120M+00091MD1310041+9999MW1731REMSYN088AAXX  20181 26882 11232 83004 11002 21008 40100 53004 60042 77372 8872/ 333 10009 88706;EQDQ01+000082SCOTLC
0185268820999992000022021004+53970+032850FM-12+021799999V0202701N003010018019N0033001N1-00121+99999100941ADDAY171031AY221031GA1081+001809069GF108991999071001501021999MD1810061+9999MW1731REMSYN076AAXX  20211 26882 41233 82703 11012 21008 40094 58006 77372 8872/ 333 88706;EQDQ01+000082SCOTLC
0206268820999992000022100004+53970+032850FM-12+021799999V0202701N004010018019N0028001N1-00051-00081100841ADDAY171061AY221061GA1081+001809069GF108991999071001501021999MA1999999098051MD1710101+9999MW1731REMSYN082AAXX  21001 26882 41228 82704 11005 21008 39805 40084 57010 77372 8872/ 333 88706;EQDQ01+000082SCOTLC
0199268820999992000022103004+53970+032850FM-12+021799999V0202801N006010015019N0012001N1-00211-00271100831ADDAY171031AY231031GA1081+001509069GF108991999071001501021999GJ100009MD1710031+9999MW1731REMSYN082AAXX  21031 26882 41212 82806 11021 21027 40083 57003 77373 8872/ 333 55000 88705;EQDQ01+000082SCOTLC
0250268820999992000022106004+53970+032850FM-12+021799999V0202901N006010018019N0016001N1-00401-00491100831ADDAA112005191AJ100519199999999AY171061AY231061GA1081+001809069GF108991999071001501021999IA1249KA1120N-00411MD1710021+9999MW1731REMSYN094AAXX  21061 26882 11216 82906 11040 21049 40083 57002 60052 77373 8872/ 333 21041 48051 88706;EQDQ01+000082SCOTLC
0185268820999992000022109004+53970+032850FM-12+021799999V0202801N006010027019N0080001N1-00331-00471100951ADDAY171031AY231031GA1081+002709069GF108991999071002501021999MD1210131+9999MW1711REMSYN076AAXX  21091 26882 41358 82806 11033 21047 40095 52013 77173 8872/ 333 88709;EQDQ01+000082SCOTLC
0206268820999992000022112004+53970+032850FM-12+021799999V0202901N005010024019N0021001N1-00411-00601101161ADDAY171061AY231061GA1081+002409069GF108991999071002501021999MA1999999098321MD1210191+9999MW1731REMSYN082AAXX  21121 26882 41321 82905 11041 21060 39832 40116 52019 77373 8872/ 333 88708;EQDQ01+000082SCOTLC
0185268820999992000022115004+53970+032850FM-12+021799999V0203001N004010036019N0060001N1-00481-00681101311ADDAY171031AY221031GA1081+003609069GF108991999071004501021999MD1210151+9999MW1711REMSYN076AAXX  21151 26882 41456 83004 11048 21068 40131 52015 77172 8872/ 333 88712;EQDQ01+000082SCOTLC
0221268820999992000022118004+53970+032850FM-12+021799999V0203501N005010129019N0090001N1-00511-00721101501ADDAA112001091AY171061AY231061GA1081+012909069GF108991999071012501021999KA1120M-00301MD1210171+9999MW1711REMSYN088AAXX  21181 26882 11659 83505 11051 21072 40150 52017 60012 77173 8872/ 333 11030 88743;EQDQ01+000082SCOTLC
0140268820999992000022121004+53970+032850FM-12+021799999V0203401N005019999999N0028001N1-00601-00791101661ADDAY171031AY231031GF108991081001999999011999MD1210151+9999MW1731REMSYN066AAXX  21211 26882 41928 83405 11060 21079 40166 52015 77373 8801/;
0161268820999992000022200004+53970+032850FM-12+021799999V0203301N004019999999N0210001N1-00651-00891101711ADDAY171061AY231061GF107991071001999999031001MA1999999098841MD1210051+9999MW1361REMSYN072AAXX  22001 26882 41971 73304 11065 21089 39884 40171 52005 73673 87030;
0180268820999992000022203004+53970+032850FM-12+021799999V0203201N006010051019N0300001N1-00701-00991101791ADDAY131031AY221031GA1071+005109059GF107991071051004501001001GJ100009MD1210061+9999MW1361REMSYN082AAXX  22031 26882 41480 73206 11070 21099 40179 52006 73632 87500 333 55000 87617;
0209268820999992000022206004+53970+032850FM-12+021799999V0203301N005012200019N0200001N1-00831-01251101861ADDAA112000891AJ100499199999999AY131061AY221061GF106991021051012501001011IA1249KA1120N-00831MD1210061+9999MW1361REMSYN088AAXX  22061 26882 11670 63305 11083 21125 40186 52006 69972 73632 82501 333 21083 48049;
0140268820999992000022209004+53970+032850FM-12+021799999V0203301N005012200019N0200001N1-00731-01221101881ADDAY131031AY211031GF103991021081008001001011MD1210031+9999MW1011REMSYN066AAXX  22091 26882 41570 33305 11073 21122 40188 52003 70131 82801;
0161268820999992000022212004+53970+032850FM-12+021799999V0203301N006019999999N0200001N1-00551-01211101831ADDAY131061AY211061GF107991071001999999051001MA1999999098971MD1810021+9999MW1361REMSYN072AAXX  22121 26882 41970 73306 11055 21121 39897 40183 58002 73631 87050;
0166268820999992000022215004+53970+032850FM-12+021799999V0203201N003010105019N0200001N1-00551-01111101801ADDAY131031AY221031GA1071+010509059GF107991071051012501001001MD1710031+9999MW1021REMSYN076AAXX  22151 26882 41670 73203 11055 21111 40180 57003 70232 87500 333 87635;
0203268820999992000022218004+53970+032850FM-12+021799999V0203201N004012200019N0500001N1-00671-01131101791ADDAA199000091AY131061AY211061GA1001+999999999GF100991001001999999001001KA1999M-00531MD1710031+9999MW1021REMSYN070AAXX  22181 26882 31984 03204 11067 21113 40179 57003 70231 333 11053;EQDQ01  00002PRCP99
0122268820999992000022221004+53970+032850FM-12+021799999V0203101N002012200019N0500001N1-00951-01151101801ADDGA1001+999999999GF100991001001999999001001MD1410001+9999REMSYN054AAXX  22211 26882 42984 03102 11095 21115 40180 54000;
0133268820999992000022300004+53970+032850FM-12+021799999V0203001N003019999999N0500001N1-00801-01161101811ADDGF107991071001999999031001MA1999999098911MD1410001+9999REMSYN066AAXX  23001 26882 42984 73003 11080 21116 39891 40181 54000 87030;
0180268820999992000022303004+53970+032850FM-12+021799999V0203001N005010045019N0200001N1-00781-01001101771ADDAY171031AY221031GA1071+004509059GF107991071051004501001001GJ102769MD1710041+9999MW1021REMSYN082AAXX  23031 26882 41470 73005 11078 21100 40177 57004 70272 87500 333 55046 87615;
0209268820999992000022306004+53970+032850FM-12+021799999V0203101N006019999999N0200001N1-00861-01051101851ADDAA112000791AJ100509199999999AY171061AY221061GF106991061001999999041001IA1249KA1120N-00901MD1310081+9999MW1021REMSYN088AAXX  23061 26882 11970 63106 11086 21105 40185 53008 69902 70272 86040 333 21090 48050;
0166268820999992000022309004+53970+032850FM-12+021799999V0203601N007010078019N0200001N1-00801-01311101881ADDAY181031AY231031GA1061+007809029GF107991061081008001031001MD1210031+9999MW1361REMSYN076AAXX  23091 26882 41570 73607 11080 21131 40188 52003 73683 86830 333 86826;
0171268820999992000022312004+53970+032850FM-12+021799999V0203101N007010300019N0200001N1-00761-01211101891ADDAY181061AY231061GF106991041021008001061001MA1999999099001MD1210021+9999MW1361REMSYN082AAXX  23121 26882 41570 63107 11076 21121 39900 40189 52002 73683 84260 333 91112;
0166268820999992000022315004+53970+032850FM-12+021799999V0203101N008010057019N0200001N1-00941-01451101961ADDAY131031AY221031GA1071+005709059GF107991071051004501001001MD1210051+9999MW1361REMSYN076AAXX  23151 26882 41470 73108 11094 21145 40196 52005 73632 87500 333 87619;
0180268820999992000022318004+53970+032850FM-12+021799999V0203001N005019999999N0300001N1-00921-01221101961ADDAA112000191AY131061AY211061GF107991071001999999031001KA1999M-00731MD1410001+9999MW1361REMSYN082AAXX  23181 26882 11980 73005 11092 21122 40196 54000 69922 73631 87030 333 11073;
0140268820999992000022321004+53970+032850FM-12+021799999V0203101N005019999999N0060001N1-00921-01171101961ADDAY171031AY231031GF108991081001999999071999MD1410001+9999MW1711REMSYN066AAXX  23211 26882 41956 83105 11092 21117 40196 54000 77173 8807/;
0161268820999992000022400004+53970+032850FM-12+021799999V0203001N006012200019N0500001N1-01121-01401102011ADDAY171061AY231061GF104991001001999999001011MA1999999099081MD1310031+9999MW1361REMSYN072AAXX  24001 26882 41984 43006 11112 21140 39908 40201 53003 73673 80001;
0180268820999992000022403004+53970+032850FM-12+021799999V0203001N007010042019N0500001N1-01211-01481102071ADDAY131031AY211031GA1051+004209059GF107991051051004501031011GJ101569MD1210051+9999MW1361REMSYN082AAXX  24031 26882 41484 73007 11121 21148 40207 52005 73631 85531 333 55026 85614;
0209268820999992000022406004+53970+032850FM-12+021799999V0203201N007012200019N0200001N1-01251-01521102191ADDAA112000391AJ100509199999999AY181061AY231061GF104991041081004501001001IA1249KA1120N-01251MD1210111+9999MW1261REMSYN088AAXX  24061 26882 11470 43207 11125 21152 40219 52011 69932 72683 84800 333 21125 48050;
0150268820999992000022409004+53970+032850FM-12+021799999V0203001N007012200019N0200001N1-01131-01481102211ADDAY131031AY201031GA1001+999999999GF100991001001999999001001MD1210031+9999MW1011REMSYN060AAXX  24091 26882 41970 03007 11113 21148 40221 52003 70130;
0171268820999992000022412004+53970+032850FM-12+021799999V0202801N006012200019N0200001N1-01071-01511102211ADDAY131061AY201061GA1001+999999999GF100991001001999999001001MA1999999099271MD1410001+9999MW1021REMSYN066AAXX  24121 26882 41970 02806 11107 21151 39927 40221 54000 70230;
0122268820999992000022415004+53970+032850FM-12+021799999V0202701N006012200019N0200001N1-01071-01601102211ADDGA1001+999999999GF100991001001999999001001MD1410001+9999REMSYN054AAXX  24151 26882 42970 02706 11107 21160 40221 54000;
0156268820999992000022418004+53970+032850FM-12+021799999V0202701N004012200019N0300001N1-01451-01721102281ADDAA199000021GA1001+999999999GF100991001001999999001001KA1999M-00971MD1210041+9999REMSYN064AAXX  24181 26882 32980 02704 11145 21172 40228 52004 333 11097;
0122268820999992000022421004+53970+032850FM-12+021799999V0202701N003012200019N0300001N1-01561-01831102301ADDGA1001+999999999GF100991001001999999001001MD1410001+9999REMSYN054AAXX  24211 26882 42980 02703 11156 21183 40230 54000;
0153268820999992000022500004+53970+032850FM-12+021799999V0202201N003012200019N0130001N1-01481-01681102171ADDGA1001+999999999GF100991001001999999001001MA1999999099191MD1810121+9999REMSYN070AAXX  25001 26882 42963 02203 11148 21168 39919 40217 58012 333 93506;
0156268820999992000022503004+53970+032850FM-12+021799999V0209999C000012200019N0012001N1-01691-01891102011ADDAY101031AY201031GF103991001001999999001011MD1710181+9999MW1101REMSYN082AAXX  25031 26882 41912 30000 11169 21189 40201 57018 71000 80001 333 55086 93517;
0228268820999992000022506004+53970+032850FM-12+021799999V0209999C000019999999N0060001N1-01821-02081101721ADDAA199000091AJ100509199999999AY141061AY211061GF105991051001999999031001IA1249KA1120N-01871MD1710291+9999MW1101REMSYN088AAXX  25061 26882 31956 50000 11182 21208 40172 57029 71041 85030 333 21187 48050 93520;EQDQ01  00002PRCP99
0140268820999992000022509004+53970+032850FM-12+021799999V0209999C000019999999N0080001N1-01381-01581101511ADDAY121031AY221031GF107991071001999999031001MD1710171+9999MW1101REMSYN066AAXX  25091 26882 41958 70000 11138 21158 40151 57017 71022 87030;
0161268820999992000022512004+53970+032850FM-12+021799999V0201701N001019999999N0080001N1-00661-00941101271ADDAY171061AY221061GF107991071001999999031001MA1999999098411MD1710151+9999MW1101REMSYN072AAXX  25121 26882 41958 71701 11066 21094 39841 40127 57015 71072 87030;
0185268820999992000022515004+53970+032850FM-12+021799999V0201201N003010036019N0060001N1-00761-01021101231ADDAY171031AY221031GA1081+003609069GF108991999071004501021999MD1710051+9999MW1711REMSYN076AAXX  25151 26882 41456 81203 11076 21102 40123 57005 77172 8872/ 333 88712;EQDQ01+000082SCOTLC
0180268820999992000022518004+53970+032850FM-12+021799999V0201201N001019999999N0080001N1-00811-01041101241ADDAA112000891AY171061AY221061GF108991081001999999011999KA1999M-00661MD1410001+9999MW1711REMSYN082AAXX  25181 26882 11958 81201 11081 21104 40124 54000 69972 77172 8801/ 333 11066;
0140268820999992000022521004+53970+032850FM-12+021799999V0201201N001019999999N0060001N1-00801-01001101261ADDAY171031AY221031GF108991081001999999071999MD1210011+9999MW1711REMSYN066AAXX  25211 26882 41956 81201 11080 21100 40126 52001 77172 8807/;
0206268820999992000022600004+53970+032850FM-12+021799999V0209999C000010021019N0060001N1-00921-00991101291ADDAY171061AY221061GA1081+002109069GF108991999071002501021999MA1999999098401MD1210031+9999MW1711REMSYN082AAXX  26001 26882 41356 80000 11092 21099 39840 40129 52003 77172 8872/ 333 88707;EQDQ01+000082SCOTLC
0199268820999992000022603004+53970+032850FM-12+021799999V0201301N002010021019N0110001N1-00981-01101101291ADDAY171031AY221031GA1081+002109069GF108991999071002501021999GJ100309MD1710011+9999MW1711REMSYN082AAXX  26031 26882 41361 81302 11098 21110 40129 57001 77172 8872/ 333 55005 88707;EQDQ01+000082SCOTLC
0250268820999992000022606004+53970+032850FM-12+021799999V0201301N002010051019N0080001N1-00871-01021101311ADDAA112000591AJ100529199999999AY171061AY221061GA1081+005109069GF108991999071004501021999IA1249KA1120N-00991MD1310041+9999MW1711REMSYN094AAXX  26061 26882 11458 81302 11087 21102 40131 53004 69942 77172 8872/ 333 21099 48052 88717;EQDQ01+000082SCOTLC
0185268820999992000022609004+53970+032850FM-12+021799999V0201301N002010042019N0090001N1-00631-00781101391ADDAY171031AY221031GA1081+004209069GF108991999071004501021999MD1210101+9999MW1711REMSYN076AAXX  26091 26882 41459 81302 11063 21078 40139 52010 77172 8872/ 333 88714;EQDQ01+000082SCOTLC
0206268820999992000022612004+53970+032850FM-12+021799999V0201301N002010048019N0080001N1-00471-00641101431ADDAY171061AY221061GA1081+004809069GF108991999071004501021999MA1999999098591MD1210061+9999MW1711REMSYN082AAXX  26121 26882 41458 81302 11047 21064 39859 40143 52006 77172 8872/ 333 88716;EQDQ01+000082SCOTLC
0185268820999992000022615004+53970+032850FM-12+021799999V0201301N001010042019N0060001N1-00451-00611101491ADDAY171031AY221031GA1081+004209069GF108991999071004501021999MD1210061+9999MW1711REMSYN076AAXX  26151 26882 41456 81301 11045 21061 40149 52006 77172 8872/ 333 88714;EQDQ01+000082SCOTLC
0221268820999992000022618004+53970+032850FM-12+021799999V0209999C000010039019N0050001N1-00431-00551101621ADDAA112000891AY171061AY221061GA1081+003909069GF108991999071004501021999KA1120M-00411MD1210131+9999MW1711REMSYN088AAXX  26181 26882 11450 80000 11043 21055 40162 52013 69982 77172 8872/ 333 11041 88713;EQDQ01+000082SCOTLC
0140268820999992000022621004+53970+032850FM-12+021799999V0203501N001019999999N0120001N1-00501-00601101861ADDAY171031AY221031GF107991071001999999031001MD1210221+9999MW1021REMSYN066AAXX  26211 26882 41962 73501 11050 21060 40186 52022 70272 87030;
0171268820999992000022700004+53970+032850FM-12+021799999V0209999C000012200019N0200001N1-00621-00771102141ADDAY171061AY211061GA1001+999999999GF100991001001999999001001MA1999999099261MD1210261+9999MW1021REMSYN066AAXX  27001 26882 41970 00000 11062 21077 39926 40214 52026 70271;
0132268820999992000022703004+53970+032850FM-12+021799999V0203601N001012200019N0200001N1-00901-01101102421ADDGA1001+999999999GF100991001001999999001001MD1210231+9999REMSYN064AAXX  27031 26882 42970 03601 11090 21110 40242 52023 333 55000;
0191268820999992000022706004+53970+032850FM-12+021799999V0209999C000012200019N0200001N1-01411-01541102681ADDAA112000191AJ100539199999999GA1001+999999999GF100991001001999999001001IA1249KA1120N-01461MD1210211+9999REMSYN076AAXX  27061 26882 12970 00000 11141 21154 40268 52021 69922 333 21146 48053;
0122268820999992000022709004+53970+032850FM-12+021799999V0209999C000012200019N0200001N1-00911-01361102891ADDGA1001+999999999GF100991001001999999001001MD1210261+9999REMSYN054AAXX  27091 26882 42970 00000 11091 21136 40289 52026;
0143268820999992000022712004+53970+032850FM-12+021799999V0203501N001012200019N0200001N1-00771-01431103041ADDGA1001+999999999GF100991001001999999001001MA1999999100111MD1210151+9999REMSYN060AAXX  27121 26882 42970 03501 11077 21143 30011 40304 52015;
0122268820999992000022715004+53970+032850FM-12+021799999V0209999C000012200019N0200001N1-00851-01681103101ADDGA1001+999999999GF100991001001999999001001MD1210061+9999REMSYN054AAXX  27151 26882 42970 00000 11085 21168 40310 52006;
0175268820999992000022718004+53970+032850FM-12+021799999V0202101N004012200019N0500001N1-01031-01761103261ADDAA199000091GA1001+999999999GF100991001001999999001001KA1999M-00651MD1210141+9999REMSYN064AAXX  27181 26882 32984 02104 11103 21176 40326 52014 333 11065;EQDQ01  00002PRCP99
0122268820999992000022721004+53970+032850FM-12+021799999V0202101N006012200019N0500001N1-01171-01611103291ADDGA1001+999999999GF100991001001999999001001MD1410001+9999REMSYN054AAXX  27211 26882 42984 02106 11117 21161 40329 54000;
0133268820999992000022800004+53970+032850FM-12+021799999V0202101N006012200019N0500001N1-01351-01621103301ADDGF103991031001999999031001MA1999999100311MD1410001+9999REMSYN066AAXX  28001 26882 42984 32106 11135 21162 30031 40330 54000 83030;
0152268820999992000022803004+53970+032850FM-12+021799999V0202201N006010078019N0500001N1-00791-01061103141ADDGA1071+007809059GF107991071051008001001001GJ105649MD1810101+9999REMSYN076AAXX  28031 26882 42584 72206 11079 21106 40314 58010 87500 333 55094 87626;
0216268820999992000022806004+53970+032850FM-12+021799999V0202301N007010075019N0200001N1-00511-00761103051ADDAA199000091AJ100539199999999GA1071+007509059GF107991071051008001001001IA1249KA1120N-01411MD1710061+9999REMSYN082AAXX  28061 26882 32570 72307 11051 21076 40305 57006 87500 333 21141 48053 87625;EQDQ01  00002PRCP99
0140268820999992000022809004+53970+032850FM-12+021799999V0202301N008019999999N0200001N1-00161-00461102841ADDAY131031AY221031GF108991051001999999081011MD1710161+9999MW1361REMSYN066AAXX  28091 26882 41970 82308 11016 21046 40284 57016 73632 85081;
0171268820999992000022812004+53970+032850FM-12+021799999V0202201N009019999999N0200001N1+00161-00341102461ADDAY131061AY211061GF106991061001999999081001MA1999999099651MD1710341+9999MW1361REMSYN082AAXX  28121 26882 41970 62209 10016 21034 39965 40246 57034 73631 86080 333 91114;
0140268820999992000022815004+53970+032850FM-12+021799999V0202201N009019999999N0200001N1+00161-00341102371ADDAY131031AY211031GF107991071001999999031001MD1710101+9999MW1361REMSYN066AAXX  28151 26882 41970 72209 10016 21034 40237 57010 73631 87030;
0199268820999992000022818004+53970+032850FM-12+021799999V0202301N012019999999N0110001N1+00141-00341102131ADDAA199000091AY131061AY211061GF107991071001999999031001KA1120M+00221MD1710221+9999MW1361REMSYN082AAXX  28181 26882 31961 72312 10014 21034 40213 57022 73631 87030 333 10022 91116;EQDQ01  00002PRCP99
0150268820999992000022821004+53970+032850FM-12+021799999V0202301N010012200019N0230001N1+00081-00461102061ADDAY131031AY211031GF103991031001999999031001MD1610081+9999MW1361REMSYN076AAXX  28211 26882 41973 32310 10008 21046 40206 56008 73631 83030 333 91116;
0181268820999992000022900004+53970+032850FM-12+021799999V0202401N008012200019N0300001N1-00101-00531101951ADDAY131061AY211061GA1001+999999999GF100991001001999999001001MA1999999099131MD1710121+9999MW1011REMSYN076AAXX  29001 26882 41980 02408 11010 21053 39913 40195 57012 70131 333 91116;
0132268820999992000022903004+53970+032850FM-12+021799999V0202201N010012200019N0300001N1-00151-00521101821ADDGA1001+999999999GF100991001001999999001001MD1710131+9999REMSYN064AAXX  29031 26882 42980 02210 11015 21052 40182 57013 333 55014;
0194268820999992000022906004+53970+032850FM-12+021799999V0202301N008012200019N0200001N1-00221-00651101761ADDAA199000091AJ100539199999999GF103991031001999999031001IA1249KA1120N-00221MD1710071+9999REMSYN076AAXX  29061 26882 32970 32308 11022 21065 40176 57007 83030 333 21022 48053;EQDQ01  00002PRCP99
0122268820999992000022909004+53970+032850FM-12+021799999V0202301N008012200019N0200001N1+00151-00611101721ADDGA1001+999999999GF100991001001999999001001MD1410001+9999REMSYN054AAXX  29091 26882 42970 02308 10015 21061 40172 54000;
0133268820999992000022912004+53970+032850FM-12+021799999V0202401N008019999999N0200001N1+00201-00601101771ADDGF107991071001999999031001MA1999999098981MD1210051+9999REMSYN066AAXX  29121 26882 42970 72408 10020 21060 39898 40177 52005 87030;
0112268820999992000022915004+53970+032850FM-12+021799999V0202301N005012200019N0200001N1+00261-00481101881ADDGF104991041001999999031001MD1210121+9999REMSYN060AAXX  29151 26882 42970 42305 10026 21048 40188 52012 84030;
0175268820999992000022918004+53970+032850FM-12+021799999V0202201N005012200019N0240001N1+00001-00501102001ADDAA199000091GA1001+999999999GF100991001001999999001001KA1999M+00351MD1210081+9999REMSYN064AAXX  29181 26882 32974 02205 10000 21050 40200 52008 333 10035;EQDQ01  00002PRCP99
0112268820999992000022921004+53970+032850FM-12+021799999V0202001N004019999999N0150001N1-00051-00391102031ADDGF106991001001999999001051MD1110031+9999REMSYN060AAXX  29211 26882 42965 62004 11005 21039 40203 51003 80005;
0159268820999992000030100004+53970+032850FM-12+021799999V0201901N006010027019N0150001N1+00051-00311101901ADDGA1071+002709059GF107991071051002501001001MA1999999099101MD1810111+9999REMSYN076AAXX  01001 26882 42365 71906 10005 21031 39910 40190 58011 87500 333 87609;
0152268820999992000030103004+53970+032850FM-12+021799999V0201601N003010051019N0120001N1+00021-00331101721ADDGA1071+005109059GF107991071051004501001001GJ103609MD1710181+9999REMSYN076AAXX  01031 26882 42462 71603 10002 21033 40172 57018 87500 333 55060 87617;
0194268820999992000030106004+53970+032850FM-12+021799999V0201901N004019999999N0180001N1-00031-00401101461ADDAA199000091AJ100479199999999GF107991001001999999001051IA1249KA1120N-00201MD1710261+9999REMSYN076AAXX  01061 26882 32968 71904 11003 21040 40146 57026 80005 333 21020 48047;EQDQ01  00002PRCP99
0112268820999992000030109004+53970+032850FM-12+021799999V0201801N006019999999N0200001N1+00191-00381101281ADDGF107991001001999999001051MD1710151+9999REMSYN060AAXX  01091 26882 42970 71806 10019 21038 40128 57015 80005;
0133268820999992000030112004+53970+032850FM-12+021799999V0201801N007019999999N0200001N1+00271-00391101061ADDGF108991081001999999071999MA1999999098301MD1710211+9999REMSYN066AAXX  01121 26882 42970 81807 10027 21039 39830 40106 57021 8807/;
0112268820999992000030115004+53970+032850FM-12+021799999V0201901N006019999999N0200001N1+00301-00621100931ADDGF108991081001999999071999MD1710121+9999REMSYN060AAXX  01151 26882 42970 81906 10030 21062 40093 57012 8807/;
0187268820999992000030118004+53970+032850FM-12+021799999V0201901N008010048019N0190001N1+00251-00451100961ADDAA199000091GA1071+004809059GF107991071051004501001001KA1120M+00301MD1210031+9999REMSYN076AAXX  01181 26882 32469 71908 10025 21045 40096 52003 87500 333 10030 87616;EQDQ01  00002PRCP99
0112268820999992000030121004+53970+032850FM-12+021799999V0201901N008019999999N0200001N1+00101-00431100981ADDGF107991071001999999031001MD1410001+9999REMSYN060AAXX  01211 26882 42970 71908 10010 21043 40098 54000 87030;
0133268820999992000030200004+53970+032850FM-12+021799999V0201901N008019999999N0200001N1+00041-00361100981ADDGF107991071001999999031001MA1999999098211MD1410001+9999REMSYN066AAXX  02001 26882 42970 71908 10004 21036 39821 40098 54000 87030;
0199268820999992000030203004+53970+032850FM-12+021799999V0202001N008010042019N0070001N1+00051-00251101011ADDAY171031AY221031GA1081+004209069GF108991999071004501021999GJ100609MD1210031+9999MW1711REMSYN082AAXX  02031 26882 41457 82008 10005 21025 40101 52003 77172 8872/ 333 55010 88714;EQDQ01+000082SCOTLC
0231268820999992000030206004+53970+032850FM-12+021799999V0201901N008010042019N0200001N1+00051-00151101031ADDAA112000791AJ100479199999999AY171061AY221061GA1071+004209059GF107991071051004501001001IA1249KA1120N+00001MD1210011+9999MW1221REMSYN094AAXX  02061 26882 11470 71908 10005 21015 40103 52001 69902 72272 87500 333 20000 48047 87614;
0166268820999992000030209004+53970+032850FM-12+021799999V0201901N008010042019N0200001N1+00001-00141101121ADDAY171031AY221031GA1071+004209059GF107991071051004501001001MD1210091+9999MW1021REMSYN076AAXX  02091 26882 41470 71908 10000 21014 40112 52009 70272 87500 333 87614;
0187268820999992000030212004+53970+032850FM-12+021799999V0201901N006010048019N0200001N1+00111-00211101121ADDAY171061AY221061GA1071+004809059GF107991071051004501001001MA1999999098351MD1110011+9999MW1021REMSYN082AAXX  02121 26882 41470 71906 10011 21021 39835 40112 51001 70272 87500 333 87616;
0138268820999992000030215004+53970+032850FM-12+021799999V0201901N007010051019N0200001N1+00081-00211101161ADDGA1071+005109059GF107991071051004501001001MD1210031+9999REMSYN070AAXX  02151 26882 42470 71907 10008 21021 40116 52003 87500 333 87617;
0174268820999992000030218004+53970+032850FM-12+021799999V0201901N006010048019N0500001N1+00091-00201101161ADDAA112000391GA1071+004809059GF107991071051004501001001KA1120M+00121MD1410001+9999REMSYN082AAXX  02181 26882 12484 71906 10009 21020 40116 54000 69932 87500 333 10012 87616;
0185268820999992000030221004+53970+032850FM-12+021799999V0201901N006010033019N0070001N1+00011-00101101121ADDAY171031AY221031GA1081+003309069GF108991999071004501021999MD1710041+9999MW1711REMSYN076AAXX  02211 26882 41457 81906 10001 21010 40112 57004 77172 8872/ 333 88711;EQDQ01+000082SCOTLC
0206268820999992000030300004+53970+032850FM-12+021799999V0202201N006010027019N0070001N1+00011-00041101101ADDAY171061AY221061GA1081+002709069GF108991999071002501021999MA1999999098321MD1710021+9999MW1711REMSYN082AAXX  03001 26882 41357 82206 10001 21004 39832 40110 57002 77172 8872/ 333 88709;EQDQ01+000082SCOTLC
0199268820999992000030303004+53970+032850FM-12+021799999V0202401N005010030019N0050001N1-00011-00071101121ADDAY171031AY221031GA1081+003009069GF108991999071004501021999GJ100009MD1310021+9999MW1711REMSYN082AAXX  03031 26882 41450 82405 11001 21007 40112 53002 77172 8872/ 333 55000 88710;EQDQ01+000082SCOTLC
0209268820999992000030306004+53970+032850FM-12+021799999V0202601N003012200019N0200001N1-00311-00381101351ADDAA112002091AJ100509199999999AY171061AY211061GF102991011021008001001011IA1239KA1120N-00351MD1210181+9999MW1011REMSYN088AAXX  03061 26882 11570 22603 11031 21038 40135 52018 60022 70171 81201 333 21035 47050;
0112268820999992000030309004+53970+032850FM-12+021799999V0202501N003012200019N0200001N1-00051-00171101421ADDGF102991021021008001001001MD1210101+9999REMSYN060AAXX  03091 26882 42570 22503 11005 21017 40142 52010 82200;
0133268820999992000030312004+53970+032850FM-12+021799999V0202201N003012200019N0200001N1+00201-00301101341ADDGF104991021021008001001011MA1999999098571MD1810051+9999REMSYN066AAXX  03121 26882 42570 42203 10020 21030 39857 40134 58005 82201;
0112268820999992000030315004+53970+032850FM-12+021799999V0201801N004012200019N0200001N1-00081-00531101271ADDGF106991041021008001001011MD1710091+9999REMSYN060AAXX  03151 26882 42570 61804 11008 21053 40127 57009 84201;
0175268820999992000030318004+53970+032850FM-12+021799999V0201801N005012200019N0180001N1-00211-00421101101ADDAA199000091GA1001+999999999GF100991001001999999001001KA1999M+00221MD1710191+9999REMSYN064AAXX  03181 26882 32968 01805 11021 21042 40110 57019 333 10022;EQDQ01  00002PRCP99
0112268820999992000030321004+53970+032850FM-12+021799999V0201801N008012200019N0300001N1-00151-00291100871ADDGF104991041071004501001001MD1710221+9999REMSYN060AAXX  03211 26882 42480 41808 11015 21029 40087 57022 84700;
0180268820999992000030400004+53970+032850FM-12+021799999V0201901N009019999999N0260001N1-00061-00271100611ADDAY131061AY221061GF107991999001999999071999MA1999999097831MD1710241+9999MW1361REMSYN072AAXX  04001 26882 41976 71909 11006 21027 39783 40061 57024 73632 8807/;EQDQ01+000082SCOTLC
0205268820999992000030403004+53970+032850FM-12+021799999V0202001N010010021019N0022001N1-00041-00131100441ADDAY171031AY221031GA1081+002109079GF108991999071002501021999GJ105589MD1710171+9999MW1731REMSYN088AAXX  04031 26882 41322 82010 11004 21013 40044 57017 77372 8872/ 333 55093 88707 92983;EQDQ01+000082SCOTLC
0250268820999992000030406004+53970+032850FM-12+021799999V0202101N009010033019N0070001N1+00021-00031100431ADDAA112000891AJ100509199999999AY171061AY231061GA1081+003309069GF108991999071004501021999IA1249KA1120N-00251MD1410001+9999MW1711REMSYN094AAXX  04061 26882 11457 82109 10002 21003 40043 54000 69982 77173 8872/ 333 21025 48050 88711;EQDQ01+000082SCOTLC
0140268820999992000030409004+53970+032850FM-12+021799999V0202001N007019999999N0110001N1+00121-00061100451ADDAY171031AY221031GF107991071001999999031001MD1210031+9999MW1021REMSYN066AAXX  04091 26882 41961 72007 10012 21006 40045 52003 70272 87030;
0185268820999992000030415004+53970+032850FM-12+021799999V0201801N004010027019N0025001N1+00061+00011100391ADDAY171031AY221031GA1081+002709069GF108991999071002501021999MD1710021+9999MW1731REMSYN076AAXX  04151 26882 41325 81804 10006 20001 40039 57002 77372 8872/ 333 88709;EQDQ01+000082SCOTLC
0221268820999992000030418004+53970+032850FM-12+021799999V0202201N006010018019N0021001N1+00051+00021100401ADDAA112005191AY171061AY221061GA1081+001809069GF108991999071001501021999KA1120M+00201MD1310011+9999MW1731REMSYN088AAXX  04181 26882 11221 82206 10005 20002 40040 53001 60052 77372 8872/ 333 10020 88706;EQDQ01+000082SCOTLC
0166268820999992000030421004+53970+032850FM-12+021799999V0202501N005010015019N0033001N1+00021-00011100461ADDAY171031AY221031GA1081+001509069GF108991081061001501999999MD1210051+9999MW1101REMSYN076AAXX  04211 26882 41233 82505 10002 21001 40046 52005 71072 886// 333 88705;
0181268820999992000030500004+53970+032850FM-12+021799999V0202201N004010042019N0130001N1+00001-00061100571ADDAY171061AY221061GA1061+004209059GF106991999999004501999999MA1999999097801MD1210111+9999MW1011REMSYN076AAXX  05001 26882 41463 62204 10000 21006 39780 40057 52011 70172 333 86614;
0152268820999992000030503004+53970+032850FM-12+021799999V0202601N004010042019N0150001N1-00101-00171100671ADDGA1061+004209059GF106991061051004501001001GJ100009MD1210081+9999REMSYN076AAXX  05031 26882 42465 62604 11010 21017 40067 52008 86500 333 55000 86614;
0203268820999992000030506004+53970+032850FM-12+021799999V0202501N005010069019N0200001N1-00231-00351100871ADDAA112000391AJ100479199999999GA1061+006909059GF107991061051008001001011IA1289KA1120N-00311MD1210181+9999REMSYN088AAXX  05061 26882 12570 72505 11023 21035 40087 52018 69932 86501 333 21031 44047 86623;
0112268820999992000030509004+53970+032850FM-12+021799999V0202701N008012200019N0200001N1-00111-00611100991ADDGF106991041081008001001011MD1210131+9999REMSYN060AAXX  05091 26882 42570 62708 11011 21061 40099 52013 84801;
0133268820999992000030512004+53970+032850FM-12+021799999V0203001N006010300019N0200001N1-00091-00741101121ADDGF106991031021008001031011MA1999999098321MD1210131+9999REMSYN066AAXX  05121 26882 42570 63006 11009 21074 39832 40112 52013 83231;
0112268820999992000030515004+53970+032850FM-12+021799999V0202601N002012200019N0200001N1-00291-00911101221ADDGF107991021021008001001011MD1210071+9999REMSYN060AAXX  05151 26882 42570 72602 11029 21091 40122 52007 82201;
0175268820999992000030518004+53970+032850FM-12+021799999V0202201N004012200019N0500001N1-00501-01081101361ADDAA199000091GA1001+999999999GF100991001001999999001001KA1999M-00071MD1210121+9999REMSYN064AAXX  05181 26882 32984 02204 11050 21108 40136 52012 333 11007;EQDQ01  00002PRCP99
0122268820999992000030521004+53970+032850FM-12+021799999V0202301N006012200019N0500001N1-00701-01171101491ADDGA1001+999999999GF100991001001999999001001MD1210101+9999REMSYN054AAXX  05211 26882 42984 02306 11070 21117 40149 52010;
0143268820999992000030600004+53970+032850FM-12+021799999V0202201N006012200019N0500001N1-00801-01241101541ADDGA1001+999999999GF100991001001999999001001MA1999999098611MD1210041+9999REMSYN060AAXX  06001 26882 42984 02206 11080 21124 39861 40154 52004;
0132268820999992000030603004+53970+032850FM-12+021799999V0202401N004012200019N0500001N1-01011-01291101521ADDGA1001+999999999GF100991001001999999001001MD1410001+9999REMSYN064AAXX  06031 26882 42984 02404 11101 21129 40152 54000 333 55075;
0244268820999992000030606004+53970+032850FM-12+021799999V0202301N005010024019N0050001N1-00881-00951101711ADDAA199000091AJ100479199999999AY111061AY211061GA1051+002409069GF105991051061002501001001IA1289KA1120N-01061MD1310201+9999MW1101REMSYN088AAXX  06061 26882 31350 52305 11088 21095 40171 53020 71011 85600 333 21106 44047 85708;EQDQ01  00002PRCP99
0112268820999992000030609004+53970+032850FM-12+021799999V0202601N005012200019N0200001N1-00441-00671101791ADDGF103991031041004501001001MD1210131+9999REMSYN060AAXX  06091 26882 42470 32605 11044 21067 40179 52013 83400;
0159268820999992000030612004+53970+032850FM-12+021799999V0202801N007010120019N0200001N1-00311-00811101851ADDGA1061+012009059GF106991061051012501001001MA1999999099011MD1210071+9999REMSYN076AAXX  06121 26882 42670 62807 11031 21081 39901 40185 52007 86500 333 86640;
0140268820999992000030615004+53970+032850FM-12+021799999V0202701N005010300019N0200001N1-00371-00701101911ADDAY171031AY221031GF107991031051008001031011MD1210061+9999MW1031REMSYN066AAXX  06151 26882 41570 72705 11037 21070 40191 52006 70372 83531;
0180268820999992000030618004+53970+032850FM-12+021799999V0202101N005019999999N0500001N1-00651-00931101921ADDAA112000791AY171061AY221061GF107991071001999999031001KA1999M-00291MD1810031+9999MW1021REMSYN082AAXX  06181 26882 11984 72105 11065 21093 40192 58003 69902 70272 87030 333 11029;
0122268820999992000030621004+53970+032850FM-12+021799999V0202001N006012200019N0500001N1-00741-01041101781ADDGA1001+999999999GF100991001001999999001001MD1710151+9999REMSYN054AAXX  06211 26882 42984 02006 11074 21104 40178 57015;
0143268820999992000030700004+53970+032850FM-12+021799999V0202001N007012200019N0400001N1-00651-00971101461ADDGA1001+999999999GF100991001001999999001001MA1999999098591MD1710301+9999REMSYN060AAXX  07001 26882 42982 02007 11065 21097 39859 40146 57030;
0199268820999992000030703004+53970+032850FM-12+021799999V0201901N008010021019N0050001N1-00471-00671100991ADDAY171031AY231031GA1081+002109069GF108991999071002501021999GJ101209MD1710431+9999MW1711REMSYN082AAXX  07031 26882 41350 81908 11047 21067 40099 57043 77173 8872/ 333 55020 88707;EQDQ01+000082SCOTLC
0256268820999992000030706004+53970+032850FM-12+021799999V0202001N009010021019N0035001N1-00341-00511100711ADDAA112000191AJ100479199999999AY171061AY231061GA1081+002109079GF108991999071002501021999IA1249KA1120N-00761MD1710261+9999MW1731REMSYN100AAXX  07061 26882 11335 82009 11034 21051 40071 57026 69922 77373 8872/ 333 21076 48047 88707 91114;EQDQ01+000082SCOTLC
0191268820999992000030709004+53970+032850FM-12+021799999V0202001N011010015019N0010001N1-00191-00261100241ADDAY171031AY231031GA1081+001509079GF108991999071001501021999MD1710441+9999MW1731REMSYN082AAXX  07091 26882 41210 82011 11019 21026 40024 57044 77373 8872/ 333 88705 91114;EQDQ01+000082SCOTLC
0212268820999992000030712004+53970+032850FM-12+021799999V0202301N010010021019N0010001N1+00011-00051099851ADDAY171061AY231061GA1081+002109079GF108991999071002501021999MA1999999097101MD1710361+9999MW1731REMSYN088AAXX  07121 26882 41310 82310 10001 21005 39710 49985 57036 77373 8872/ 333 88707 91113;EQDQ01+000082SCOTLC
0191268820999992000030715004+53970+032850FM-12+021799999V0202401N009010042019N0170001N1+00181+00131099751ADDAY171031AY231031GA1081+004209079GF108991999071004501021999MD1610071+9999MW1611REMSYN082AAXX  07151 26882 41467 82409 10018 20013 49975 56007 76173 8872/ 333 88714 91112;EQDQ01+000082SCOTLC
0202268820999992000030718004+53970+032850FM-12+021799999V0202601N007010129019N0140001N1+00181+00131099771ADDAA112002091AY171061AY261061GA1071+012909059GF107991071051012501001001KA1120M+00191MD1310021+9999MW1011REMSYN088AAXX  07181 26882 11664 72607 10018 20013 49977 53002 60022 70176 87500 333 10019 87643;
0122268820999992000030721004+53970+032850FM-12+021799999V0202601N007012200019N0160001N1+00161-00031099791ADDGA1001+999999999GF100991001001999999001001MD1410001+9999REMSYN054AAXX  07211 26882 42966 02607 10016 21003 49979 54000;
0143268820999992000030800004+53970+032850FM-12+021799999V0202501N006012200019N0350001N1+00021-00181099841ADDGA1001+999999999GF100991001001999999001001MA1999999097091MD1310041+9999REMSYN060AAXX  08001 26882 42981 02506 10002 21018 39709 49984 53004;
0132268820999992000030803004+53970+032850FM-12+021799999V0202501N005012200019N0500001N1-00161-00331099891ADDGA1001+999999999GF100991001001999999001001MD1210031+9999REMSYN064AAXX  08031 26882 42984 02505 11016 21033 49989 52003 333 55000;
0194268820999992000030806004+53970+032850FM-12+021799999V0202701N006019999999N0200001N1-00201-00351100011ADDAA199000091AJ100499199999999GF105991001001999999001011IA1249KA1120N-00221MD1210111+9999REMSYN076AAXX  08061 26882 32970 52706 11020 21035 40001 52011 80001 333 21022 48049;EQDQ01  00002PRCP99
0122268820999992000030809004+53970+032850FM-12+021799999V0202701N005012200019N0200001N1+00101-00251100111ADDGA1001+999999999GF100991001001999999001001MD1210131+9999REMSYN054AAXX  08091 26882 42970 02705 10010 21025 40011 52013;
0143268820999992000030812004+53970+032850FM-12+021799999V0202701N007012200019N0200001N1+00221-00611100141ADDGA1001+999999999GF100991001001999999001001MA1999999097401MD1210041+9999REMSYN060AAXX  08121 26882 42970 02707 10022 21061 39740 40014 52004;
0112268820999992000030815004+53970+032850FM-12+021799999V0202701N004012200019N0200001N1+00181-00471100191ADDGF102991021001999999031001MD1210041+9999REMSYN060AAXX  08151 26882 42970 22704 10018 21047 40019 52004 82030;
0180268820999992000030818004+53970+032850FM-12+021799999V0202201N004012200019N0290001N1-00101-00321100271ADDAA112000791AY181061AY211061GF103991011021008001061001KA1999M+00271MD1210051+9999MW1011REMSYN082AAXX  08181 26882 11579 32204 11010 21032 40027 52005 69902 70181 81260 333 10027;
0122268820999992000030821004+53970+032850FM-12+021799999V0202201N004012200019N0500001N1-00251-00541100211ADDGA1001+999999999GF100991001001999999001001MD1810071+9999REMSYN054AAXX  08211 26882 42984 02204 11025 21054 40021 58007;
0159268820999992000030900004+53970+032850FM-12+021799999V0202001N005010030019N0250001N1-00191-00361099741ADDGA1071+003009059GF107991071051004501001001MA1999999096981MD1710441+9999REMSYN076AAXX  09001 26882 42475 72005 11019 21036 39698 49974 57044 87500 333 87610;
0152268820999992000030903004+53970+032850FM-12+021799999V0201701N004010018019N0140001N1-00151-00261099481ADDGA1081+001809069GF108991081061001501999999GJ105889MD1710251+9999REMSYN076AAXX  09031 26882 42264 81704 11015 21026 49948 57025 886// 333 55098 88706;
0225268820999992000030906004+53970+032850FM-12+021799999V0201601N006010006019N0009001N1-00061-00121098901ADDAA112002091AJ100469199999999AY171061AY231061GA1091+999999999GF109991091999999999999999IA1249KA1120N-00351MD1710561+9999MW1751REMSYN088AAXX  09061 26882 11/09 91606 11006 21012 49890 57056 60022 77573 333 21035 48046 92983;
0185268820999992000030909004+53970+032850FM-12+021799999V0202201N005010021019N0080001N1+00151+00101098601ADDAY171031AY261031GA1081+002109069GF108991999071002501021999MD1710281+9999MW1611REMSYN076AAXX  09091 26882 41358 82205 10015 20010 49860 57028 76176 8872/ 333 88707;EQDQ01+000082SCOTLC
0171268820999992000030912004+53970+032850FM-12+021799999V0202501N007010042019N0180001N1+00311+00151098371ADDAY171061AY261061GF107991071051004501001001MA1999999095691MD1710201+9999MW1021REMSYN082AAXX  09121 26882 41468 72507 10031 20015 39569 49837 57020 70276 87500 333 1/002;
0166268820999992000030915004+53970+032850FM-12+021799999V0202801N008010033019N0200001N1+00161+00021098221ADDAY161031AY221031GA1071+003309059GF107991071051004501001001MD1710161+9999MW1021REMSYN076AAXX  09151 26882 41470 72808 10016 20002 49822 57016 70262 87500 333 87611;
0202268820999992000030918004+53970+032850FM-12+021799999V0203301N006010060019N0250001N1+00081-00061098341ADDAA112003091AY161061AY221061GA1071+006009059GF107991071051008001001001KA1120M+00311MD1210031+9999MW1021REMSYN088AAXX  09181 26882 11575 73306 10008 21006 49834 52003 60032 70262 87500 333 10031 87620;
0138268820999992000030921004+53970+032850FM-12+021799999V0203101N009010048019N0500001N1+00031-00111098721ADDGA1071+004809059GF107991071051004501001001MD1210341+9999REMSYN070AAXX  09211 26882 42484 73109 10003 21011 49872 52034 87500 333 87616;
0133268820999992000031000004+53970+032850FM-12+021799999V0203101N009019999999N0500001N1-00101-00261099211ADDGF107991071001999999031001MA1999999096401MD1210401+9999REMSYN066AAXX  10001 26882 42984 73109 11010 21026 39640 49921 52040 87030;
0151268820999992000031003004+53970+032850FM-12+021799999V0203001N008012200019N0500001N1-00501-00951999999ADDGA1001+999999999GF100991001001999999001001MD1210231+9999REMSYN064AAXX  10031 26882 42984 03008 11050 21095 40040 52023 333 55000;EQDQ01+100403APOSLP
0194268820999992000031006004+53970+032850FM-12+021799999V0202901N007019999999N0200001N1-00571-00951099581ADDAA199000091AJ100469199999999GF105991051001999999031001IA1249KA1120N-00651MD1210151+9999REMSYN076AAXX  10061 26882 32970 52907 11057 21095 49958 52015 85030 333 21065 48046;EQDQ01  00002PRCP99
0138268820999992000031009004+53970+032850FM-12+021799999V0203001N009010081019N0200001N1-00411-00911099751ADDGA1071+008109059GF107991071051008001001001MD1210181+9999REMSYN070AAXX  10091 26882 42570 73009 11041 21091 49975 52018 87500 333 87627;
0159268820999992000031012004+53970+032850FM-12+021799999V0203001N007010072019N0200001N1-00331-00931099941ADDGA1071+007209059GF107991071051008001001001MA1999999097151MD1210191+9999REMSYN076AAXX  10121 26882 42570 73007 11033 21093 39715 49994 52019 87500 333 87624;
0140268820999992000031015004+53970+032850FM-12+021799999V0203201N005010300019N0019001N1-00291-00831100091ADDAY181031AY231031GF106991041091004501031001MD1210151+9999MW1861REMSYN066AAXX  10151 26882 41419 63205 11029 21083 40009 52015 78683 84930;
0180268820999992000031018004+53970+032850FM-12+021799999V0202601N005012200019N0500001N1-00751-00971100341ADDAA112000391AY181061AY231061GF102991021001999999031001KA1999M-00251MD1210201+9999MW1011REMSYN082AAXX  10181 26882 11984 22605 11075 21097 40034 52020 69932 70183 82030 333 11025;
0122268820999992000031021004+53970+032850FM-12+021799999V0202701N005012200019N0500001N1-00751-00971100441ADDGA1001+999999999GF100991001001999999001001MD1210101+9999REMSYN054AAXX  10211 26882 42984 02705 11075 21097 40044 52010;
0159268820999992000031100004+53970+032850FM-12+021799999V0202701N004010087019N0500001N1-00691-00891100541ADDGA1071+008709059GF107991071051008001001001MA1999999097691MD1210091+9999REMSYN076AAXX  11001 26882 42584 72704 11069 21089 39769 40054 52009 87500 333 87629;
0122268820999992000031103004+53970+032850FM-12+021799999V0202701N005012200019N0400001N1-00811-00951100641ADDGF102991021001999999031001MD1210091+9999REMSYN070AAXX  11031 26882 42982 22705 11081 21095 40064 52009 82030 333 55044;
0194268820999992000031106004+53970+032850FM-12+021799999V0202801N005019999999N0200001N1-00701-00831100731ADDAA199000091AJ100459199999999GF107991071001999999031001IA1249KA1120N-00941MD1210101+9999REMSYN076AAXX  11061 26882 32970 72805 11070 21083 40073 52010 87030 333 21094 48045;EQDQ01  00002PRCP99
0112268820999992000031109004+53970+032850FM-12+021799999V0202701N007010300019N0200001N1-00361-00931100741ADDGF106991021021008001031021MD1110051+9999REMSYN060AAXX  11091 26882 42570 62707 11036 21093 40074 51005 82232;
0161268820999992000031112004+53970+032850FM-12+021799999V0202801N007010300019N0200001N1-00311-00991100781ADDAY181061AY231061GF107991021021008001061081MA1999999097961MD1210031+9999MW1031REMSYN072AAXX  11121 26882 41570 72807 11031 21099 39796 40078 52003 70383 82268;
0140268820999992000031115004+53970+032850FM-12+021799999V0202901N007012200019N0200001N1-00411-01051100921ADDAY181031AY231031GF103991031041008001001001MD1210131+9999MW1011REMSYN066AAXX  11151 26882 41570 32907 11041 21105 40092 52013 70183 83400;
0190268820999992000031118004+53970+032850FM-12+021799999V0202401N004012200019N0500001N1-00781-01281101011ADDAA112000791AY181061AY231061GA1001+999999999GF100991001001999999001001KA1999M-00251MD1210051+9999MW1021REMSYN076AAXX  11181 26882 11984 02404 11078 21128 40101 52005 69902 70283 333 11025;
0112268820999992000031121004+53970+032850FM-12+021799999V0202401N003012200019N0500001N1-00951-01361101051ADDGF102991001001999999001011MD1210031+9999REMSYN060AAXX  11211 26882 42984 22403 11095 21136 40105 52003 80001;
0143268820999992000031200004+53970+032850FM-12+021799999V0202201N006012200019N0500001N1-00931-01281101101ADDGA1001+999999999GF100991001001999999001001MA1999999098221MD1210051+9999REMSYN060AAXX  12001 26882 42984 02206 11093 21128 39822 40110 52005;
0122268820999992000031203004+53970+032850FM-12+021799999V0202201N005019999999N0500001N1-00901-01241101101ADDGF107991071001999999051001MD1410001+9999REMSYN070AAXX  12031 26882 42984 72205 11090 21124 40110 54000 87050 333 55040;
0250268820999992000031206004+53970+032850FM-12+021799999V0202701N006010042019N0060001N1-00841-00991101191ADDAA112000591AJ100459199999999AY171061AY211061GA1081+004209069GF108991999071004501021999IA1249KA1120N-00981MD1210091+9999MW1711REMSYN094AAXX  12061 26882 11456 82706 11084 21099 40119 52009 69952 77171 8872/ 333 21098 48045 88714;EQDQ01+000082SCOTLC
0140268820999992000031209004+53970+032850FM-12+021799999V0203001N004012200019N0200001N1-00561-01081101361ADDAY171031AY211031GF104991041001999999031001MD1210201+9999MW1021REMSYN066AAXX  12091 26882 41970 43004 11056 21108 40136 52020 70271 84030;
0161268820999992000031212004+53970+032850FM-12+021799999V0203501N005012200019N0200001N1-00281-01191101481ADDAY171061AY211061GF104991041001999999031001MA1999999098651MD1210141+9999MW1021REMSYN072AAXX  12121 26882 41970 43505 11028 21119 39865 40148 52014 70271 84030;
0112268820999992000031215004+53970+032850FM-12+021799999V0203301N005019999999N0200001N1-00411-01201101631ADDGF106991061001999999031001MD1210141+9999REMSYN060AAXX  12151 26882 42970 63305 11041 21120 40163 52014 86030;
0152268820999992000031218004+53970+032850FM-12+021799999V0203101N004012200019N0500001N1-00551-01161101851ADDAA112000791GF104991041001999999031001KA1999M-00261MD1210201+9999REMSYN076AAXX  12181 26882 12984 43104 11055 21116 40185 52020 69902 84030 333 11026;
0138268820999992000031221004+53970+032850FM-12+021799999V0203401N003010120019N0500001N1-00551-01061101991ADDGA1071+012009059GF107991071051012501001001MD1210141+9999REMSYN070AAXX  12211 26882 42684 73403 11055 21106 40199 52014 87500 333 87640;
0159268820999992000031300004+53970+032850FM-12+021799999V0203001N004010123019N0500001N1-00571-01091102141ADDGA1071+012309059GF107991071051012501001001MA1999999099271MD1210141+9999REMSYN076AAXX  13001 26882 42684 73004 11057 21109 39927 40214 52014 87500 333 87641;
0146268820999992000031303004+53970+032850FM-12+021799999V0202801N003012200019N0500001N1-01121-01401102231ADDGA1001+999999999GF100991001001999999001001GJ103189MD1110031+9999REMSYN070AAXX  13031 26882 42984 02803 11112 21140 40223 51003 333 55053 55593;
0194268820999992000031306004+53970+032850FM-12+021799999V0202301N005019999999N0200001N1-00951-01211102251ADDAA199000091AJ100439199999999GF106991061001999999031001IA1249KA1120N-01231MD1210031+9999REMSYN076AAXX  13061 26882 32970 62305 11095 21121 40225 52003 86030 333 21123 48043;EQDQ01  00002PRCP99
0140268820999992000031309004+53970+032850FM-12+021799999V0202501N004019999999N0060001N1-00551-00761102201ADDAY171031AY221031GF108991081001999999071999MD1410001+9999MW1711REMSYN066AAXX  13091 26882 41956 82504 11055 21076 40220 54000 77172 8807/;
0187268820999992000031311004+53970+032850FM-12+021799999V0203001N005010063019N0200001N1-00311-00621102291ADDAY171999AY221999GA1071+006309059GF107991071051008001001001MA1999999099441MD1310111+9999MW1021REMSYN082AAXX  13111 26882 41570 73005 11031 21062 39944 40229 53011 70272 87500 333 87621;
0187268820999992000031312004+53970+032850FM-12+021799999V0203001N005010063019N0200001N1-00311-00621102291ADDAY171061AY221061GA1071+006309059GF107991071051008001001001MA1999999099441MD1310111+9999MW1021REMSYN082AAXX  13121 26882 41570 73005 11031 21062 39944 40229 53011 70272 87500 333 87621;
0138268820999992000031315004+53970+032850FM-12+021799999V0202801N002010084019N0200001N1-00251-00651102351ADDGA1071+008409059GF107991071051008001001001MD1210061+9999REMSYN070AAXX  13151 26882 42570 72802 11025 21065 40235 52006 87500 333 87628;
0152268820999992000031318004+53970+032850FM-12+021799999V0202101N003019999999N0500001N1-00411-00751102461ADDAA112000391GF105991051001999999031001KA1999M-00241MD1210091+9999REMSYN076AAXX  13181 26882 11984 52103 11041 21075 40246 52009 69932 85030 333 11024;
0112268820999992000031321004+53970+032850FM-12+021799999V0202001N005019999999N0500001N1-00571-00871102491ADDGF106991061001999999031001MD1210021+9999REMSYN060AAXX  13211 26882 42984 62005 11057 21087 40249 52002 86030;
0187268820999992000031400004+53970+032850FM-12+021799999V0202001N004010018019N0030001N1-00601-00791102471ADDAY111061AY211061GA1081+001809069GF108991081061001501999999MA1999999099581MD1710031+9999MW1101REMSYN082AAXX  14001 26882 41230 82004 11060 21079 39958 40247 57003 71011 886// 333 88706;
0150268820999992000031403004+53970+032850FM-12+021799999V0201901N003019999999N0080001N1-00501-00601102391ADDAY171031AY221031GF108991081001999999071999MD1710071+9999MW1711REMSYN076AAXX  14031 26882 41958 81903 11050 21060 40239 57007 77172 8807/ 333 55002;
0209268820999992000031406004+53970+032850FM-12+021799999V0202001N004019999999N0090001N1-00421-00511102271ADDAA112000191AJ100449199999999AY171061AY221061GF107991071001999999031001IA1249KA1120N-00701MD1710101+9999MW1101REMSYN088AAXX  14061 26882 11959 72004 11042 21051 40227 57010 69922 71072 87030 333 21070 48044;
0112268820999992000031409004+53970+032850FM-12+021799999V0202101N006019999999N0200001N1-00021-00451102121ADDGF108991001001999999001011MD1710111+9999REMSYN060AAXX  14091 26882 42970 82106 11002 21045 40212 57011 80001;
0161268820999992000031412004+53970+032850FM-12+021799999V0202001N006010300019N0200001N1+00151-00421101931ADDAY131061AY221061GF107991021021008001031011MA1999999099141MD1710161+9999MW1021REMSYN072AAXX  14121 26882 41570 72006 10015 21042 39914 40193 57016 70232 82231;
0138268820999992000031415004+53970+032850FM-12+021799999V0202101N007010108019N0200001N1+00141-00481101771ADDGA1071+010809059GF107991071051012501001001MD1710161+9999REMSYN070AAXX  14151 26882 42670 72107 10014 21048 40177 57016 87500 333 87636;
0193268820999992000031418004+53970+032850FM-12+021799999V0202101N007019999999N0500001N1+00091-00481101611ADDAA199000091AY131061AY221061GF107991071001999999051001KA1999M+00161MD1710161+9999MW1361REMSYN076AAXX  14181 26882 31984 72107 10009 21048 40161 57016 73632 87050 333 10016;EQDQ01  00002PRCP99
0140268820999992000031421004+53970+032850FM-12+021799999V0202001N007019999999N0500001N1+00071-00371101481ADDAY131031AY221031GF107991071001999999031001MD1710131+9999MW1361REMSYN066AAXX  14211 26882 41984 72007 10007 21037 40148 57013 73632 87030;
0161268820999992000031500004+53970+032850FM-12+021799999V0201801N006019999999N0500001N1+00051-00331101281ADDAY131061AY221061GF107991071001999999051001MA1999999098501MD1710191+9999MW1021REMSYN072AAXX  15001 26882 41984 71806 10005 21033 39850 40128 57019 70232 87050;
0152268820999992000031503004+53970+032850FM-12+021799999V0201801N006010129019N0500001N1+00041-00401101081ADDGA1071+012909059GF107991071051012501001001GJ101869MD1710201+9999REMSYN076AAXX  15031 26882 42684 71806 10004 21040 40108 57020 87500 333 55031 87643;
0194268820999992000031506004+53970+032850FM-12+021799999V0201701N006019999999N0160001N1+00021-00331100961ADDAA199000091AJ100439199999999GF107991071001999999071001IA1249KA1120N-00051MD1710111+9999REMSYN076AAXX  15061 26882 32966 71706 10002 21033 40096 57011 87070 333 21005 48043;EQDQ01  00002PRCP99
0112268820999992000031509004+53970+032850FM-12+021799999V0201801N006019999999N0200001N1+00121-00301100841ADDGF107991071001999999041001MD1710111+9999REMSYN060AAXX  15091 26882 42970 71806 10012 21030 40084 57011 87040;
0159268820999992000031512004+53970+032850FM-12+021799999V0201801N006010054019N0200001N1+00141-00271100781ADDGA1071+005409059GF107991071051004501001001MA1999999098021MD1710061+9999REMSYN076AAXX  15121 26882 42470 71806 10014 21027 39802 40078 57006 87500 333 87618;
0172268820999992000031515004+53970+032850FM-12+021799999V0201801N007010036019N0080001N1+00081-00211100691ADDAY121031AY221031GA1071+003609069GF107991071051004501001001MD1710101+9999MW1101REMSYN082AAXX  15151 26882 41458 71807 10008 21021 40069 57010 71022 87500 333 87612 91113;
0221268820999992000031518004+53970+032850FM-12+021799999V0201501N005010021019N0027001N1+00051-00011100521ADDAA112000391AY171061AY221061GA1081+002109069GF108991999071002501021999KA1120M+00201MD1710171+9999MW1731REMSYN088AAXX  15181 26882 11327 81505 10005 21001 40052 57017 69932 77372 8872/ 333 10020 88707;EQDQ01+000082SCOTLC
0185268820999992000031521004+53970+032850FM-12+021799999V0201901N001010024019N0040001N1+00021-00011100451ADDAY171031AY221031GA1081+002409069GF108991999071002501021999MD1710071+9999MW1711REMSYN076AAXX  15211 26882 41340 81901 10002 21001 40045 57007 77172 8872/ 333 88708;EQDQ01+000082SCOTLC
0187268820999992000031600004+53970+032850FM-12+021799999V0202101N004010039019N0350001N1+00001-00121100461ADDAY171061AY221061GA1071+003909059GF107991071051004501001001MA1999999097691MD1310011+9999MW1021REMSYN082AAXX  16001 26882 41481 72104 10000 21012 39769 40046 53001 70272 87500 333 87613;
0181268820999992000031606004+53970+032850FM-12+021799999V0202101N004019999999N0200001N1-00101-00361100411ADDAA112001091AJ100439199999999GF107991071001999999031001IA1249KA1120N-00151MD1710051+9999REMSYN082AAXX  16061 26882 12970 72104 11010 21036 40041 57005 60012 87030 333 21015 48043;
0112268820999992000031609004+53970+032850FM-12+021799999V0201901N005019999999N0200001N1-00051-00461100431ADDGF107991071001999999031001MD1210021+9999REMSYN060AAXX  16091 26882 42970 71905 11005 21046 40043 52002 87030;
0080268820999992000031612004+53970+032850FM-12+021799999V0202101N003019999999N0200001N1-00021-00601999999ADDGF107991999999999999999999REMSYN042AAXX  16121 26882 42970 72103 11002 21060;
0138268820999992000031615004+53970+032850FM-12+021799999V0202101N006010138019N0200001N1+00001-00521100461ADDGA1061+013809059GF107991061041012501001021MD1210031+9999REMSYN070AAXX  16151 26882 42670 72106 10000 21052 40046 52003 86402 333 86646;
0221268820999992000031618004+53970+032850FM-12+021799999V0202101N006010021019N0180001N1-00101-00231100491ADDAA112000791AY181061AY271061GA1081+002109069GF108991999071002501021999KA1120M+00111MD1210021+9999MW1711REMSYN088AAXX  16181 26882 11368 82106 11010 21023 40049 52002 69902 77187 8872/ 333 10011 88707;EQDQ01+000082SCOTLC
0149268820999992000031621004+53970+032850FM-12+021799999V0202401N005010042019N0260001N1-00121-00291100541ADDAY171031AY221031GF107991071051004501001001MD1210051+9999MW1221REMSYN075AAXX  16211 26882 41476 72405 11012 21029 40054 52005 72272 87500 333 8713;
0187268820999992000031700004+53970+032850FM-12+021799999V0202301N006010060019N0350001N1-00221-00401100571ADDAY171061AY221061GA1071+006009059GF107991071051008001001001MA1999999097771MD1210021+9999MW1021REMSYN082AAXX  17001 26882 41581 72306 11022 21040 39777 40057 52002 70272 87500 333 87620;
0122268820999992000031703004+53970+032850FM-12+021799999V0202001N004019999999N0400001N1-00401-00591100611ADDGF106991061001999999031001MD1210021+9999REMSYN070AAXX  17031 26882 42982 62004 11040 21059 40061 52002 86030 333 55013;
0181268820999992000031706004+53970+032850FM-12+021799999V0202001N004019999999N0200001N1-00431-00621100641ADDAA112000191AJ100439199999999GF107991001001999999001011IA1249KA1120N-00561MD1210031+9999REMSYN082AAXX  17061 26882 12970 72004 11043 21062 40064 52003 69922 80001 333 21056 48043;
0112268820999992000031709004+53970+032850FM-12+021799999V0202001N004012200019N0200001N1-00071-00631100701ADDGF105991021021012501001011MD1210101+9999REMSYN060AAXX  17091 26882 42670 52004 11007 21063 40070 52010 82201;
0161268820999992000031712004+53970+032850FM-12+021799999V0202101N005010300019N0200001N1+00051-00691100881ADDAY121061AY221061GF106991021021008001031011MA1999999098111MD1210191+9999MW1271REMSYN072AAXX  17121 26882 41570 62105 10005 21069 39811 40088 52019 72722 82231;
0112268820999992000031715004+53970+032850FM-12+021799999V0202001N001010300019N0200001N1-00071-00711101031ADDGF106991021021012501031011MD1210131+9999REMSYN060AAXX  17151 26882 42670 62001 11007 21071 40103 52013 82231;
0112268820999992000031721004+53970+032850FM-12+021799999V0201501N002012200019N0500001N1-00411-00711101421ADDGF103991031001999999031001MD1210141+9999REMSYN060AAXX  17211 26882 42984 31502 11041 21071 40142 52014 83030;
0133268820999992000031800004+53970+032850FM-12+021799999V0201501N002012200019N0500001N1-00541-00751101531ADDGF103991031001999999031001MA1999999098671MD1210091+9999REMSYN066AAXX  18001 26882 42984 31502 11054 21075 39867 40153 52009 83030;
0180268820999992000031803004+53970+032850FM-12+021799999V0201401N003010015019N0014001N1-00681-00731101641ADDAY111031AY211031GA1081+001509069GF108991081061001501999999GJ104629MD1210101+9999MW1101REMSYN082AAXX  18031 26882 41214 81403 11068 21073 40164 52010 71011 886// 333 55077 88705;
0238268820999992000031806004+53970+032850FM-12+021799999V0209999C000010003019N0002001N1-00321-00411101721ADDAA199000091AJ100439199999999AY141061AY211061GA1091+999999999GF109991091999999999999999IA1249KA1120N-00751MD1210111+9999MW1491REMSYN082AAXX  18061 26882 31/92 90000 11032 21041 40172 52011 74941 333 21075 48043 93510;EQDQ01  00002PRCP99
0166268820999992000031809004+53970+032850FM-12+021799999V0209999C000010027019N0090001N1-00151-00231101861ADDAY141031AY221031GA1071+002709059GF107991071051002501001001MD1210161+9999MW1101REMSYN076AAXX  18091 26882 41359 70000 11015 21023 40186 52016 71042 87500 333 87609;
0161268820999992000031812004+53970+032850FM-12+021799999V0209999C000012200019N0200001N1+00131-00541101831ADDAY141061AY211061GF103991021021008001001011MA1999999099041MD1410001+9999MW1011REMSYN072AAXX  18121 26882 41570 30000 10013 21054 39904 40183 54000 70141 82201;
0112268820999992000031815004+53970+032850FM-12+021799999V0203001N002012200019N0200001N1+00131-00621101851ADDGF103991021021008001031001MD1310021+9999REMSYN060AAXX  18151 26882 42570 33002 10013 21062 40185 53002 82230;
0165268820999992000031818004+53970+032850FM-12+021799999V0203401N002019999999N0500001N1-00181-00641101961ADDAA199000091GF106991061001999999031001KA1999M+00371MD1210081+9999REMSYN070AAXX  18181 26882 32984 63402 11018 21064 40196 52008 86030 333 10037;EQDQ01  00002PRCP99
0112268820999992000031821004+53970+032850FM-12+021799999V0203401N001019999999N0400001N1-00191-00651101961ADDGF107991071001999999031001MD1810011+9999REMSYN060AAXX  18211 26882 42982 73401 11019 21065 40196 58001 87030;
0127268820999992000031900004+53970+032850FM-12+021799999V0200401N004019999999N0500001N1-00211-00601101811ADDGF107991999999999999999999MA1999999098981MD1710301+9999REMSYN060AAXX  19001 26882 42984 70404 11021 21060 39898 40181 57030;
0122268820999992000031903004+53970+032850FM-12+021799999V0200301N005019999999N0500001N1-00151-00711101631ADDGF107991071001999999031001MD1710161+9999REMSYN070AAXX  19031 26882 42984 70305 11015 21071 40163 57016 87030 333 55058;
0256268820999992000031906004+53970+032850FM-12+021799999V0200301N007010042019N0050001N1-00201-00411101591ADDAA112000791AJ100439199999999AY171061AY231061GA1081+004209079GF108991999071004501021999IA1249KA1120N-00251MD1710051+9999MW1711REMSYN100AAXX  19061 26882 11450 80307 11020 21041 40159 57005 69902 77173 8872/ 333 21025 48043 88714 91112;EQDQ01+000082SCOTLC
0191268820999992000031909004+53970+032850FM-12+021799999V0200601N006010030019N0080001N1-00061-00241101551ADDAY171031AY231031GA1081+003009079GF108991999071004501021999MD1610021+9999MW1711REMSYN082AAXX  19091 26882 41458 80606 11006 21024 40155 56002 77173 8872/ 333 88710 91112;EQDQ01+000082SCOTLC
0212268820999992000031912004+53970+032850FM-12+021799999V0200701N006010030019N0031001N1+00021-00091101551ADDAY171061AY231061GA1081+003009079GF108991999071002501021999MA1999999098761MD1310011+9999MW1731REMSYN088AAXX  19121 26882 41331 80706 10002 21009 39876 40155 53001 77373 8872/ 333 88710 91113;EQDQ01+000082SCOTLC
0166268820999992000031915004+53970+032850FM-12+021799999V0200601N005010060019N0200001N1+00091-00231101571ADDAY171031AY221031GA1071+006009059GF107991071051008001001001MD1210021+9999MW1021REMSYN076AAXX  19151 26882 41570 70605 10009 21023 40157 52002 70272 87500 333 87620;
0202268820999992000031918004+53970+032850FM-12+021799999V0200801N005010054019N0170001N1+00081-00281101661ADDAA112000591AY171061AY231061GA1071+005409059GF107991071051004501001001KA1120M+00101MD1210081+9999MW1021REMSYN088AAXX  19181 26882 11467 70805 10008 21028 40166 52008 69952 70273 87500 333 10010 87618;
0138268820999992000031921004+53970+032850FM-12+021799999V0200701N004010048019N0140001N1+00011-00261101651ADDGA1071+004809059GF107991071051004501001001MD1810011+9999REMSYN070AAXX  19211 26882 42464 70704 10001 21026 40165 58001 87500 333 87616;
0206268820999992000032000004+53970+032850FM-12+021799999V0200701N005010033019N0050001N1-00021-00221101641ADDAY171061AY231061GA1081+003309069GF108991999071004501021999MA1999999098841MD1610011+9999MW1711REMSYN082AAXX  20001 26882 41450 80705 11002 21022 39884 40164 56001 77173 8872/ 333 88711;EQDQ01+000082SCOTLC
0180268820999992000032003004+53970+032850FM-12+021799999V0200501N002010024019N0090001N1-00081-00121101681ADDAY171031AY231031GA1081+002409069GF108991081061002501999999GJ100009MD1310031+9999MW1101REMSYN082AAXX  20031 26882 41359 80502 11008 21012 40168 53003 71073 886// 333 55000 88708;
0250268820999992000032006004+53970+032850FM-12+021799999V0201301N004010030019N0070001N1-00061-00121101851ADDAA112001091AJ100459199999999AY171061AY231061GA1081+003009069GF108991999071004501021999IA1249KA1120N-00101MD1210181+9999MW1711REMSYN094AAXX  20061 26882 11457 81304 11006 21012 40185 52018 69992 77173 8872/ 333 21010 48045 88710;EQDQ01+000082SCOTLC
0140268820999992000032009004+53970+032850FM-12+021799999V0201301N003019999999N0200001N1+00001-00391102141ADDAY171031AY221031GF107991071001999999031001MD1210281+9999MW1021REMSYN066AAXX  20091 26882 41970 71303 10000 21039 40214 52028 70272 87030;
0161268820999992000032012004+53970+032850FM-12+021799999V0201601N004019999999N0200001N1+00161-00621102301ADDAY171061AY221061GF106991061001999999031001MA1999999099491MD1210161+9999MW1021REMSYN072AAXX  20121 26882 41970 61604 10016 21062 39949 40230 52016 70272 86030;
0112268820999992000032015004+53970+032850FM-12+021799999V0201601N003012200019N0200001N1+00131-00791102331ADDGF103991031001999999031001MD1210031+9999REMSYN060AAXX  20151 26882 42970 31603 10013 21079 40233 52003 83030;
0162268820999992000032018004+53970+032850FM-12+021799999V0201601N002012200019N0500001N1-00101-00891102451ADDAA112000791GA1001+999999999GF100991001001999999001001KA1999M+00201MD1210091+9999REMSYN070AAXX  20181 26882 12984 01602 11010 21089 40245 52009 69902 333 10020;
0122268820999992000032021004+53970+032850FM-12+021799999V0209999C000012200019N0180001N1-00401-00851102531ADDGA1001+999999999GF100991001001999999001001MD1210051+9999REMSYN054AAXX  20211 26882 42968 00000 11040 21085 40253 52005;
0143268820999992000032100004+53970+032850FM-12+021799999V0201401N002012200019N0140001N1-00551-00851102461ADDGA1001+999999999GF100991001001999999001001MA1999999099581MD1810081+9999REMSYN060AAXX  21001 26882 42964 01402 11055 21085 39958 40246 58008;
0132268820999992000032103004+53970+032850FM-12+021799999V0201501N001012200019N0130001N1-00851-01041102851ADDGA1001+999999999GF100991001001999999001001MD1710141+9999REMSYN064AAXX  21031 26882 42963 01501 11085 21104 40285 57014 333 55052;
0194268820999992000032106004+53970+032850FM-12+021799999V0209999C000012200019N0120001N1-00421-00761102241ADDAA199000091AJ100459199999999GF104991001001999999001011IA1249KA1120N-00901MD1610061+9999REMSYN076AAXX  21061 26882 32962 40000 11042 21076 40224 56006 80001 333 21090 48045;EQDQ01  00002PRCP99
0112268820999992000032109004+53970+032850FM-12+021799999V0203001N001012200019N0200001N1+00101-00571102161ADDGF103991001001999999001011MD1710031+9999REMSYN060AAXX  21091 26882 42970 33001 10010 21057 40216 57003 80001;
0133268820999992000032112004+53970+032850FM-12+021799999V0203301N003019999999N0200001N1+00251-00611101911ADDGF107991001001999999001041MA1999999099131MD1810221+9999REMSYN066AAXX  21121 26882 42970 73303 10025 21061 39913 40191 58022 80004;
0112268820999992000032115004+53970+032850FM-12+021799999V0203601N003012200019N0200001N1+00181-00851101751ADDGF102991001001999999001011MD1710171+9999REMSYN060AAXX  21151 26882 42970 23603 10018 21085 40175 57017 80001;
0175268820999992000032118004+53970+032850FM-12+021799999V0209999C000012200019N0500001N1+00081-00731101741ADDAA199000091GA1001+999999999GF100991001001999999001001KA1999M+00461MD1710051+9999REMSYN064AAXX  21181 26882 32984 00000 10008 21073 40174 57005 333 10046;EQDQ01  00002PRCP99
0122268820999992000032121004+53970+032850FM-12+021799999V0209999C000012200019N0500001N1-00421-00751101721ADDGA1001+999999999GF100991001001999999001001MD1710071+9999REMSYN054AAXX  21211 26882 42984 00000 11042 21075 40172 57007;
0143268820999992000032200004+53970+032850FM-12+021799999V0202001N002012200019N0500001N1-00601-00841101661ADDGA1001+999999999GF100991001001999999001001MA1999999098791MD1710081+9999REMSYN060AAXX  22001 26882 42984 02002 11060 21084 39879 40166 57008;
0132268820999992000032203004+53970+032850FM-12+021799999V0202001N005012200019N0500001N1-00481-00761101541ADDGA1001+999999999GF100991001001999999001001MD1710111+9999REMSYN064AAXX  22031 26882 42984 02005 11048 21076 40154 57011 333 55111;
0165268820999992000032206004+53970+032850FM-12+021799999V0202001N005019999999N0150001N1-00411-00601101411ADDAA199000091GF107991071001999999051001KA1999N-00701MD1710111+9999REMSYN070AAXX  22061 26882 32965 72005 11041 21060 40141 57011 87050 333 21070;EQDQ01  00002PRCP99
0112268820999992000032209004+53970+032850FM-12+021799999V0202101N004019999999N0160001N1+00091-00411101301ADDGF107991071001999999051001MD1710051+9999REMSYN060AAXX  22091 26882 42966 72104 10009 21041 40130 57005 87050;
0159268820999992000032212004+53970+032850FM-12+021799999V0202301N004010051019N0180001N1+00221-00211101131ADDGA1071+005109059GF107991071051004501001001MA1999999098371MD1710151+9999REMSYN076AAXX  22121 26882 42468 72304 10022 21021 39837 40113 57015 87500 333 87617;
0121268820999992000032215004+53970+032850FM-12+021799999V0202401N006010042019N0100001N1+00181-00011101041ADDGF107991071051004501001001MD1710101+9999REMSYN069AAXX  22151 26882 42460 72406 10018 21001 40104 57010 87500 333 7618;
0202268820999992000032218004+53970+032850FM-12+021799999V0202201N006010072019N0180001N1+00141+00061100971ADDAA112000791AY121061AY221061GA1071+007209059GF107991071051008001001001KA1120M+00231MD1710061+9999MW1211REMSYN088AAXX  22181 26882 11568 72206 10014 20006 40097 57006 69902 72122 87500 333 10023 87624;
0185268820999992000032221004+53970+032850FM-12+021799999V0202501N005010024019N0050001N1+00171+00121100931ADDAY171031AY261031GA1081+002409069GF108991999071002501021999MD1710041+9999MW1681REMSYN076AAXX  22211 26882 41350 82505 10017 20012 40093 57004 76876 8872/ 333 88708;EQDQ01+000082SCOTLC
0206268820999992000032300004+53970+032850FM-12+021799999V0202401N003010033019N0025001N1+00151+00101100841ADDAY171061AY261061GA1081+003309069GF108991999071004501021999MA1999999098081MD1710091+9999MW1631REMSYN082AAXX  23001 26882 41425 82403 10015 20010 39808 40084 57009 76376 8872/ 333 88711;EQDQ01+000082SCOTLC
0180268820999992000032303004+53970+032850FM-12+021799999V0202401N004010018019N0018001N1+00151+00121100721ADDAY161031AY251031GA1081+001809069GF108991081061001501999999GJ100009MD1710121+9999MW1511REMSYN082AAXX  23031 26882 41218 82404 10015 20012 40072 57012 75165 886// 333 55000 88706;
0250268820999992000032306004+53970+032850FM-12+021799999V0202701N003010024019N0060001N1+00181+00131100711ADDAA112004191AJ100439199999999AY161061AY251061GA1081+002409069GF108991999071002501021999IA1289KA1120N+00111MD1410001+9999MW1611REMSYN094AAXX  23061 26882 11356 82703 10018 20013 40071 54000 60042 76165 8872/ 333 20011 44043 88708;EQDQ01+000082SCOTLC
0185268820999992000032309004+53970+032850FM-12+021799999V0202701N004010021019N0070001N1+00221+00121100711ADDAY161031AY221031GA1081+002109069GF108991999071002501021999MD1410001+9999MW1611REMSYN076AAXX  23091 26882 41357 82704 10022 20012 40071 54000 76162 8872/ 333 88707;EQDQ01+000082SCOTLC
0185268820999992000032312004+53970+032850FM-12+021799999V0202701N005010018019N0050001N1+00221+00141100681ADDAY161061AY221061GA1081+001809069GF108991999071001501021999MD1710031+9999MW1611REMSYN076AAXX  23121 26882 41250 82705 10022 20014 40068 57003 76162 8872/ 333 88706;EQDQ01+000082SCOTLC
0166268820999992000032315004+53970+032850FM-12+021799999V0202701N004010081019N0130001N1+00201+00091100621ADDAY161031AY221031GA1071+008109059GF107991071051008001001001MD1710061+9999MW1211REMSYN076AAXX  23151 26882 41563 72704 10020 20009 40062 57006 72162 87500 333 87627;
0199268820999992000032318004+53970+032850FM-12+021799999V0202501N005010075019N0300001N1+00131+00051100561ADDAA112000591AY161061AY221061GF107991999051008001001001KA1999M+00251MD1710071+9999MW1021REMSYN082AAXX  23181 26882 11580 72505 10013 20005 40056 57007 69942 70262 86500 333 10025;EQDQ01+000062SCOTLC
0112268820999992000032321004+53970+032850FM-12+021799999V0202301N004019999999N0350001N1+00101-00011100511ADDGF107991071001999999031001MD1710051+9999REMSYN060AAXX  23211 26882 42981 72304 10010 21001 40051 57005 87030;
0133268820999992000032400004+53970+032850FM-12+021799999V0202401N004019999999N0130001N1-00031-00091100381ADDGF108991001001999999001011MA1999999097611MD1710141+9999REMSYN066AAXX  24001 26882 42963 82404 11003 21009 39761 40038 57014 80001;
0122268820999992000032403004+53970+032850FM-12+021799999V0203201N003019999999N0180001N1-00041-00131100311ADDGF107991041001999999031011MD1710071+9999REMSYN070AAXX  24031 26882 42968 73203 11004 21013 40031 57007 84031 333 55000;
0250268820999992000032406004+53970+032850FM-12+021799999V0203501N003010012019N0006001N1-00021-00051100301ADDAA112001091AJ100439199999999AY171061AY221061GA1081+001209069GF108991999071001501021999IA1289KA1120N-00081MD1710011+9999MW1751REMSYN094AAXX  24061 26882 11206 83503 11002 21005 40030 57001 60012 77572 8872/ 333 21008 44043 88704;EQDQ01+000082SCOTLC
0166268820999992000032409004+53970+032850FM-12+021799999V0203401N007010084019N0200001N1+00021-00281100431ADDAY171031AY221031GA1071+008409059GF107991071051008001001001MD1210131+9999MW1021REMSYN076AAXX  24091 26882 41570 73407 10002 21028 40043 52013 70272 87500 333 87628;
0161268820999992000032412004+53970+032850FM-12+021799999V0203301N007010300019N0200001N1+00141-00451100561ADDAY171061AY221061GF105991041021008001031001MA1999999097801MD1210141+9999MW1021REMSYN072AAXX  24121 26882 41570 53307 10014 21045 39780 40056 52014 70272 84230;
0112268820999992000032415004+53970+032850FM-12+021799999V0203201N007012200019N0200001N1+00021-00911100761ADDGF102991021001999999031001MD1210191+9999REMSYN060AAXX  24151 26882 42970 23207 10002 21091 40076 52019 82030;
0152268820999992000032418004+53970+032850FM-12+021799999V02099999999992200019N0500001N1-00261-00731100981ADDAA100000791GF102991021001999999031001KA1999M+00171MD1210141+9999REMSYN076AAXX  24181 26882 12984 2//// 11026 21073 40098 52014 69900 82030 333 10017;
0140268820999992000032421004+53970+032850FM-12+021799999V0202701N005012200019N0300001N1-00351-00491101041ADDAY181031AY211031GF102991011021008001061001MD1210091+9999MW1261REMSYN066AAXX  24211 26882 41580 22705 11035 21049 40104 52009 72681 81260;
0161268820999992000032500004+53970+032850FM-12+021799999V0202701N007012200019N0400001N1-00421-00651101051ADDAY181061AY211061GF102991021001999999031001MA1999999098221MD1410001+9999MW1021REMSYN072AAXX  25001 26882 41982 22707 11042 21065 39822 40105 54000 70281 82030;
0149268820999992000032503004+53970+032850FM-12+021799999V0202901N006012200019N0400001N1-00351-00561101371ADDAY131031AY211031GF103991999999008001999999MD1310321+9999MW1261REMSYN075AAXX  25031 26882 41582 32906 11035 21056 40137 53032 72631 8110 333 55061;
0209268820999992000032506004+53970+032850FM-12+021799999V0203201N005012200019N0200001N1-00311-00511101461ADDAA112000391AJ100399199999999AY131061AY211061GF102991021011008001001001IA1249KA1120N-00451MD1210141+9999MW1021REMSYN088AAXX  25061 26882 11570 23205 11031 21051 40146 52014 69932 70231 82100 333 21045 48039;
0112268820999992000032509004+53970+032850FM-12+021799999V0202901N005010300019N0200001N1+00041-00711101561ADDGF105991021021012501031001MD1210141+9999REMSYN060AAXX  25091 26882 42670 52905 10004 21071 40156 52014 82230;
0133268820999992000032512004+53970+032850FM-12+021799999V0202901N008010300019N0200001N1+00011-00481101671ADDGF106991031021012501031001MA1999999098871MD1210101+9999REMSYN066AAXX  25121 26882 42670 62908 10001 21048 39887 40167 52010 83230;
0112268820999992000032515004+53970+032850FM-12+021799999V0202801N005012200019N0200001N1+00051-00571101731ADDGF102991011021012501031001MD1210061+9999REMSYN060AAXX  25151 26882 42670 22805 10005 21057 40173 52006 81230;
0165268820999992000032518004+53970+032850FM-12+021799999V0202501N005012200019N0300001N1-00191-00681101891ADDAA199000091GF102991021001999999031001KA1999M+00151MD1210131+9999REMSYN070AAXX  25181 26882 32980 22505 11019 21068 40189 52013 82030 333 10015;EQDQ01  00002PRCP99
0143268820999992000032600004+53970+032850FM-12+021799999V0202201N005012200019N0200001N1-00441-00711101961ADDGA1001+999999999GF100991001001999999001001MA1999999099111MD1710011+9999REMSYN060AAXX  26001 26882 42970 02205 11044 21071 39911 40196 57001;
0122268820999992000032603004+53970+032850FM-12+021799999V0202201N006019999999N0200001N1-00331-00611101891ADDGF107991071001999999031001MD1710061+9999REMSYN070AAXX  26031 26882 42970 72206 11033 21061 40189 57006 87030 333 55112;
0194268820999992000032606004+53970+032850FM-12+021799999V0202301N006019999999N0200001N1-00061-00581101791ADDAA199000091AJ100399199999999GF107991071001999999031001IA1249KA1120N-00501MD1710071+9999REMSYN076AAXX  26061 26882 32970 72306 11006 21058 40179 57007 87030 333 21050 48039;EQDQ01  00002PRCP99
0112268820999992000032609004+53970+032850FM-12+021799999V0202401N006019999999N0200001N1+00261-00561101681ADDGF107991041001999999031011MD1710081+9999REMSYN060AAXX  26091 26882 42970 72406 10026 21056 40168 57008 84031;
0133268820999992000032612004+53970+032850FM-12+021799999V0202701N004010300019N0200001N1+00421-00611101561ADDGF107991011021008001031011MA1999999098801MD1710101+9999REMSYN066AAXX  26121 26882 42570 72704 10042 21061 39880 40156 57010 81231;
0097268820999992000032615004+53970+032850FM-12+021799999V0209999C000019999999N0200001N1+00361-00571101501ADDGF107991999999999999999999REMSYN059AAXX  26151 26882 42970 70000 10036 21057 40150 5700 87050;
0165268820999992000032618004+53970+032850FM-12+021799999V0209999C000019999999N0500001N1+00251-00531101541ADDAA199000091GF106991061001999999031001KA1999M+00461MD1310031+9999REMSYN070AAXX  26181 26882 32984 60000 10025 21053 40154 53003 86030 333 10046;EQDQ01  00002PRCP99
0112268820999992000032621004+53970+032850FM-12+021799999V0209999C000019999999N0300001N1+00151-00551101611ADDGF107991071001999999051001MD1210071+9999REMSYN060AAXX  26211 26882 42980 70000 10015 21055 40161 52007 87050;
0133268820999992000032700004+53970+032850FM-12+021799999V0209999C000019999999N0260001N1+00171-00521101711ADDGF107991071001999999051001MA1999999098921MD1210081+9999REMSYN066AAXX  27001 26882 42976 70000 10017 21052 39892 40171 52008 87050;
0180268820999992000032703004+53970+032850FM-12+021799999V0209999C000010030019N0130001N1+00031-00411101781ADDAY171031AY221031GA1071+003009059GF107991071051004501001001GJ103249MD1210061+9999MW1711REMSYN082AAXX  27031 26882 41463 70000 10003 21041 40178 52006 77172 87500 333 55054 87610;
0209268820999992000032706004+53970+032850FM-12+021799999V0209999C000019999999N0130001N1-00021-00331101981ADDAA112000791AJ100389199999999AY171061AY221061GF108991081001999999071999IA1179KA1120N-00051MD1210211+9999MW1711REMSYN088AAXX  27061 26882 11963 80000 11002 21033 40198 52021 69902 77172 8807/ 333 21005 40038;
0185268820999992000032709004+53970+032850FM-12+021799999V0209999C000010330019N0110001N1+00121-00171102061ADDAY171031AY221031GA1071+033009059GF107991071051008001999001MD1210071+9999MW1711REMSYN076AAXX  27091 26882 41561 70000 10012 21017 40206 52007 77172 87500 333 87661;EQDQ01+000002SCOMCG
0187268820999992000032712004+53970+032850FM-12+021799999V0200801N001010087019N0180001N1+00141-00081102131ADDAY171061AY221061GA1071+008709059GF107991071051008001001001MA1999999099331MD1210071+9999MW1021REMSYN082AAXX  27121 26882 41568 70801 10014 21008 39933 40213 52007 70272 87500 333 87629;
0138268820999992000032715004+53970+032850FM-12+021799999V0200801N001010138019N0180001N1+00181-00161102141ADDGA1071+013809059GF107991071051012501001001MD1210011+9999REMSYN070AAXX  27151 26882 42668 70801 10018 21016 40214 52001 87500 333 87646;
0174268820999992000032718004+53970+032850FM-12+021799999V0200901N001010129019N0160001N1+00141-00151102161ADDAA112000791GA1071+012909059GF107991071051012501001001KA1120M+00201MD1210021+9999REMSYN082AAXX  27181 26882 12666 70901 10014 21015 40216 52002 69902 87500 333 10020 87643;
0138268820999992000032721004+53970+032850FM-12+021799999V0200901N001010138019N0160001N1+00101-00161102201ADDGA1071+013809059GF107991071051012501001001MD1210041+9999REMSYN070AAXX  27211 26882 42666 70901 10010 21016 40220 52004 87500 333 87646;
0159268820999992000032800004+53970+032850FM-12+021799999V0201001N001010093019N0150001N1+00091-00081102261ADDGA1071+009309059GF107991071051008001001001MA1999999099451MD1210051+9999REMSYN076AAXX  28001 26882 42565 71001 10009 21008 39945 40226 52005 87500 333 87631;
0199268820999992000032803004+53970+032850FM-12+021799999V0200901N003010054019N0080001N1+00041-00071102291ADDAY171031AY221031GA1081+005409069GF108991999071004501021999GJ100009MD1110021+9999MW1711REMSYN082AAXX  28031 26882 41458 80903 10004 21007 40229 51002 77172 8872/ 333 55000 88718;EQDQ01+000082SCOTLC
0250268820999992000032806004+53970+032850FM-12+021799999V0200801N004010054019N0070001N1-00031-00211102441ADDAA112000391AJ100389199999999AY171061AY221061GA1081+005409069GF108991999071004501021999IA1289KA1120N-00051MD1210141+9999MW1711REMSYN094AAXX  28061 26882 11457 80804 11003 21021 40244 52014 69932 77172 8872/ 333 21005 44038 88718;EQDQ01+000082SCOTLC
0185268820999992000032809004+53970+032850FM-12+021799999V0201001N006010057019N0070001N1+00031-00211102531ADDAY171031AY221031GA1081+005709069GF108991999071004501021999MD1210101+9999MW1711REMSYN076AAXX  28091 26882 41457 81006 10003 21021 40253 52010 77172 8872/ 333 88719;EQDQ01+000082SCOTLC
0180268820999992000032812004+53970+032850FM-12+021799999V0201101N005019999999N0200001N1+00101-00251102521ADDAY171061AY221061GF107991071001999999031001MA1999999999999MD1410001+9999MW1021REMSYN072AAXX  28121 26882 41970 71105 10010 21025 38871 40252 54000 70272 87030;EQDQ01 088713APOSP 
0112268820999992000032815004+53970+032850FM-12+021799999V0201101N003019999999N0200001N1+00141-00381102521ADDGF107991071001999999031001MD1410001+9999REMSYN060AAXX  28151 26882 42970 71103 10014 21038 40252 54000 87030;
0174268820999992000032818004+53970+032850FM-12+021799999V0200901N003010090019N0400001N1-00051-00531102721ADDAA112000391GA1071+009009059GF107991071051008001001001KA1120M+00231MD1310171+9999REMSYN082AAXX  28181 26882 12582 70903 11005 21053 40272 53017 69932 87500 333 10023 87630;
0133268820999992000032900004+53970+032850FM-12+021799999V0201101N003019999999N0500001N1-00321-00721102831ADDGF106991061001999999031001MA1999999099961MD1210061+9999REMSYN066AAXX  29001 26882 42984 61103 11032 21072 39996 40283 52006 86030;
0146268820999992000032903004+53970+032850FM-12+021799999V0201101N004010039019N0300001N1-00351-00671999999ADDGA1071+003909059GF107991071051004501001001GJ100189MD1210021+9999REMSYN070AAXX  29031 26882 42480 71104 11035 21067 52002 87500 333 55003 87613;
0194268820999992000032906004+53970+032850FM-12+021799999V0201101N003012200019N0200001N1-00231-00561102941ADDAA199000091AJ100389199999999GF104991041001999999031001IA1309KA1120N-00401MD1210091+9999REMSYN076AAXX  29061 26882 32970 41103 11023 21056 40294 52009 84030 333 21040 42038;EQDQ01  00002PRCP99
0112268820999992000032909004+53970+032850FM-12+021799999V0201301N004012200019N0200001N1+00131-00621102961ADDGF104991001001999999001091MD1210071+9999REMSYN060AAXX  29091 26882 42970 41304 10013 21062 40296 52007 80009;
0133268820999992000032912004+53970+032850FM-12+021799999V0201301N004019999999N0200001N1+00231-00561102941ADDGF106991061001999999031001MA1999999100131MD1810011+9999REMSYN066AAXX  29121 26882 42970 61304 10023 21056 30013 40294 58001 86030;
0112268820999992000032915004+53970+032850FM-12+021799999V0201501N002012200019N0200001N1+00261-00561102911ADDGF102991021001999999031001MD1710031+9999REMSYN060AAXX  29151 26882 42970 21502 10026 21056 40291 57003 82030;
0175268820999992000032918004+53970+032850FM-12+021799999V0201201N002012200019N0500001N1+00061-00521102951ADDAA199000091GA1001+999999999GF100991001001999999001001KA1999M+00261MD1210021+9999REMSYN064AAXX  29181 26882 32984 01202 10006 21052 40295 52002 333 10026;EQDQ01  00002PRCP99
0122268820999992000032921004+53970+032850FM-12+021799999V0201401N003012200019N0500001N1-00211-00671103051ADDGA1001+999999999GF100991001001999999001001MD1210061+9999REMSYN054AAXX  29211 26882 42984 01403 11021 21067 40305 52006;
0143268820999992000033000004+53970+032850FM-12+021799999V0201401N003012200019N0500001N1-00421-00671103061ADDGA1001+999999999GF100991001001999999001001MA1999999100141MD1410001+9999REMSYN060AAXX  30001 26882 42984 01403 11042 21067 30014 40306 54000;
0132268820999992000033003004+53970+032850FM-12+021799999V0201201N001012200019N0500001N1-00581-00761102981ADDGA1001+999999999GF100991001001999999001001MD1710101+9999REMSYN064AAXX  30031 26882 42984 01201 11058 21076 40298 57010 333 55094;
0204268820999992000033006004+53970+032850FM-12+021799999V0203601N001012200019N0200001N1-00181-00641102881ADDAA199000091AJ100389199999999GA1001+999999999GF100991001001999999001001IA1309KA1120N-00651MD1710051+9999REMSYN070AAXX  30061 26882 32970 03601 11018 21064 40288 57005 333 21065 42038;EQDQ01  00002PRCP99
0122268820999992000033009004+53970+032850FM-12+021799999V0201401N001012200019N0200001N1+00281-00491102751ADDGA1001+999999999GF100991001001999999001001MD1710091+9999REMSYN054AAXX  30091 26882 42970 01401 10028 21049 40275 57009;
0133268820999992000033012004+53970+032850FM-12+021799999V0201201N003012200019N0200001N1+00431-00671102471ADDGF101991001001999999001011MA1999999099691MD1710251+9999REMSYN066AAXX  30121 26882 42970 11203 10043 21067 39969 40247 57025 80001;
0112268820999992000033015004+53970+032850FM-12+021799999V0201401N002012200019N0200001N1+00421-00371102261ADDGF101991001001999999001011MD1710211+9999REMSYN060AAXX  30151 26882 42970 11402 10042 21037 40226 57021 80001;
0175268820999992000033018004+53970+032850FM-12+021799999V0201601N002012200019N0500001N1+00161-00661102161ADDAA199000091GA1001+999999999GF100991001001999999001001KA1999M+00481MD1710121+9999REMSYN064AAXX  30181 26882 32984 01602 10016 21066 40216 57012 333 10048;EQDQ01  00002PRCP99
0122268820999992000033021004+53970+032850FM-12+021799999V0201701N004012200019N0500001N1+00071-00461102011ADDGA1001+999999999GF100991001001999999001001MD1710161+9999REMSYN054AAXX  30211 26882 42984 01704 10007 21046 40201 57016;
0133268820999992000033100004+53970+032850FM-12+021799999V0201601N003012200019N0500001N1-00011-00311101921ADDGF103991031001999999031001MA1999999099111MD1710091+9999REMSYN066AAXX  31001 26882 42984 31603 11001 21031 39911 40192 57009 83030;
0152268820999992000033103004+53970+032850FM-12+021799999V0201801N004010030019N0140001N1-00011-00121101791ADDGA1071+003009059GF107991071051002501001001GJ106249MD1710121+9999REMSYN076AAXX  31031 26882 42364 71804 11001 21012 40179 57012 87500 333 55104 87610;
0244268820999992000033106004+53970+032850FM-12+021799999V0201801N005010018019N0060001N1+00031-00051101721ADDAA199000091AJ100369199999999AY111061AY211061GA1081+001809069GF108991081061001501999999IA1309KA1120N-00141MD1710071+9999MW1101REMSYN088AAXX  31061 26882 31256 81805 10003 21005 40172 57007 71011 886// 333 21014 42036 88706;EQDQ01  00002PRCP99
0166268820999992000033109004+53970+032850FM-12+021799999V0201501N005010024019N0070001N1+00121-00051101661ADDAY121031AY221031GA1081+002409069GF108991081061002501999999MD1710051+9999MW1101REMSYN076AAXX  31091 26882 41357 81505 10012 21005 40166 57005 71022 886// 333 88708;
0159268820999992000033112004+53970+032850FM-12+021799999V0201601N004010042019N0170001N1+00261-00011101501ADDGA1071+004209059GF107991071051004501001001MA1999999098731MD1710141+9999REMSYN076AAXX  31121 26882 42467 71604 10026 21001 39873 40150 57014 87500 333 87614;
0138268820999992000033115004+53970+032850FM-12+021799999V0201301N003010054019N0170001N1+00241-00061101301ADDGA1071+005409059GF107991071051004501001001MD1710191+9999REMSYN070AAXX  31151 26882 42467 71303 10024 21006 40130 57019 87500 333 87618;
0215268820999992000033118004+53970+032850FM-12+021799999V0201301N003010057019N0080001N1+00161+00001101161ADDAA199000091AY121061AY221061GA1071+005709059GF107991071051004501001001KA1120M+00261MD1710151+9999MW1101REMSYN082AAXX  31181 26882 31458 71303 10016 20000 40116 57015 71022 87500 333 10026 87619;EQDQ01  00002PRCP99
0185268820999992000033121004+53970+032850FM-12+021799999V0201401N003010018019N0019001N1+00041-00021101031ADDAY171031AY261031GA1081+001809069GF108991999071001501021999MD1710141+9999MW1691REMSYN076AAXX  31211 26882 41219 81403 10004 21002 40103 57014 76976 8872/ 333 88706;EQDQ01+000082SCOTLC
0206268820999992000040100004+53970+032850FM-12+021799999V0201401N003010015019N0036001N1+00061+00031100821ADDAY171061AY261061GA1081+001509069GF108991999071001501021999MA1999999098051MD1710201+9999MW1611REMSYN082AAXX  01001 26882 41236 81403 10006 20003 39805 40082 57020 76176 8872/ 333 88705;EQDQ01+000082SCOTLC
0174268820999992000040103004+53970+032850FM-12+021799999V0201401N002010006019N0006001N1+00101+00101100641ADDAY161031AY251031GA1091+999999999GF109991091999999999999999GJ100009MD1710171+9999MW1531REMSYN076AAXX  01031 26882 41/06 91402 10010 20010 40064 57017 75365 333 55000 96047;
0250268820999992000040106004+53970+032850FM-12+021799999V0201601N004010021019N0060001N1+00221+00171100591ADDAA112004191AJ100329199999999AY161061AY251061GA1081+002109069GF108991999071002501021999IA1309KA1120N+00031MD1710041+9999MW1611REMSYN094AAXX  01061 26882 11356 81604 10022 20017 40059 57004 60042 76165 8872/ 333 20003 42032 88707;EQDQ01+000082SCOTLC
0166268820999992000040109004+53970+032850FM-12+021799999V0201901N004010018019N0035001N1+00281+00231100581ADDAY161031AY251031GA1081+001809069GF108991081061001501999999MD1410001+9999MW1511REMSYN076AAXX  01091 26882 41235 81904 10028 20023 40058 54000 75165 886// 333 88706;
0187268820999992000040112004+53970+032850FM-12+021799999V0202101N005010018019N0035001N1+00341+00271100581ADDAY161061AY251061GA1081+001809069GF108991081061001501999999MA1999999097841MD1410001+9999MW1511REMSYN082AAXX  01121 26882 41235 82105 10034 20027 39784 40058 54000 75165 886// 333 88706;
0185268820999992000040115004+53970+032850FM-12+021799999V0202101N004010036019N0060001N1+00321+00171100681ADDAY161031AY221031GA1081+003609069GF108991999071004501021999MD1210101+9999MW1611REMSYN076AAXX  01151 26882 41456 82104 10032 20017 40068 52010 76162 8872/ 333 88712;EQDQ01+000082SCOTLC
0202268820999992000040118004+53970+032850FM-12+021799999V0202201N005010096019N0190001N1+00341+00191100821ADDAA112001091AY161061AY221061GA1071+009609059GF107991071051008001001001KA1120M+00421MD1210141+9999MW1031REMSYN088AAXX  01181 26882 11569 72205 10034 20019 40082 52014 60012 70362 87500 333 10042 87632;
0138268820999992000040121004+53970+032850FM-12+021799999V0202101N005010036019N0150001N1+00221+00171101041ADDGA1071+003609059GF107991071051004501001001MD1210201+9999REMSYN070AAXX  01211 26882 42465 72105 10022 20017 40104 52020 87500 333 87612;
0187268820999992000040200004+53970+032850FM-12+021799999V0202101N005010027019N0070001N1+00181+00131101101ADDAY121061AY221061GA1061+002709059GF106991061051002501001001MA1999999093442MD1210061+9999MW1101REMSYN082AAXX  02001 26882 41357 62105 10018 20013 39344 40110 52006 71022 86500 333 86609;
0160268820999992000040203004+53970+032850FM-12+021799999V0202101N005010003019N0005001N1+00041+00041101281ADDAY141031AY221031GA1091+999999999GF109991091999999999999999MD1210161+9999MW1471REMSYN070AAXX  02031 26882 41/05 92105 10004 20004 40128 52016 74742 333 55004;
0232268820999992000040206004+53970+032850FM-12+021799999V0202101N004010003019N0002001N1+00091+00091101311ADDAA199000091AJ100289199999999AY141061AY221061GA1091+999999999GF109991091999999999999999IA1309KA1120N+00031MD1210041+9999MW1451REMSYN076AAXX  02061 26882 31/92 92104 10009 20009 40131 52004 74542 333 20003 42028;EQDQ01  00002PRCP99
0140268820999992000040209004+53970+032850FM-12+021799999V0201601N002012200019N0140001N1+00521+00331101431ADDAY141031AY211031GF102991001001999999001011MD1210151+9999MW1281REMSYN066AAXX  02091 26882 41964 21602 10052 20033 40143 52015 72841 80001;
0232268820999992000040212004+53970+032850FM-12+021799999V0202101N004010003019N0002001N1+00091+00091101311ADDAA199000091AJ100289199999999AY141061AY221061GA1091+999999999GF109991091999999999999999IA1309KA1120N+00031MD1210041+9999MW1451REMSYN076AAXX  02121 26882 31/92 92104 10009 20009 40131 52004 74542 333 20003 42028;EQDQ01  00002PRCP99
0112268820999992000040215004+53970+032850FM-12+021799999V0201001N002019999999N0150001N1+00721+00191101331ADDGF108991081001999999071999MD1810081+9999REMSYN060AAXX  02151 26882 42965 81002 10072 20019 40133 58008 8807/;
0165268820999992000040218004+53970+032850FM-12+021799999V0200701N001019999999N0180001N1+00611+00131101281ADDAA199000091GF107991071001999999031001KA1999M+00881MD1710061+9999REMSYN070AAXX  02181 26882 32968 70701 10061 20013 40128 57006 87030 333 10088;EQDQ01  00002PRCP99
0185268820999992000040221004+53970+032850FM-12+021799999V0201201N003010027019N0060001N1+00501+00281101191ADDAY161031AY221031GA1081+002709069GF108991999071002501021999MD1710091+9999MW1611REMSYN076AAXX  02211 26882 41356 81203 10050 20028 40119 57009 76162 8872/ 333 88709;EQDQ01+000082SCOTLC
0206268820999992000040300004+53970+032850FM-12+021799999V0201101N003010018019N0033001N1+00401+00251100921ADDAY161061AY221061GA1081+001809069GF108991999071001501021999MA1999999098191MD1710271+9999MW1631REMSYN082AAXX  03001 26882 41233 81103 10040 20025 39819 40092 57027 76362 8872/ 333 88706;EQDQ01+000082SCOTLC
0199268820999992000040303004+53970+032850FM-12+021799999V0201201N003010018019N0030001N1+00421+00401100701ADDAY161031AY221031GA1081+001809069GF108991999071001501021999GJ102109MD1710221+9999MW1631REMSYN082AAXX  03031 26882 41230 81203 10042 20040 40070 57022 76362 8872/ 333 55035 88706;EQDQ01+000082SCOTLC
0225268820999992000040306004+53970+032850FM-12+021799999V0201301N003010003019N0002001N1+00371+00371100481ADDAA112008991AJ100269199999999AY161061AY251061GA1091+999999999GF109991091999999999999999IA1309KA1120N+00351MD1710221+9999MW1531REMSYN088AAXX  03061 26882 11/92 91303 10037 20037 40048 57022 60092 75365 333 20035 42026 96047;
0150268820999992000040309004+53970+032850FM-12+021799999V0201301N003010003019N0002001N1+00441+00441100391ADDAY151031AY241031GA1091+999999999GF109991091999999999999999MD1710091+9999MW1451REMSYN060AAXX  03091 26882 41/92 91303 10044 20044 40039 57009 74554;
0181268820999992000040312004+53970+032850FM-12+021799999V0201401N001010003019N0002001N1+00501+00501100331ADDAY151061AY241061GA1091+999999999GF109991091999999999999999MA1999999097621MD1710041+9999MW1511REMSYN076AAXX  03121 26882 41/92 91401 10050 20050 39762 40033 57004 75154 333 96045;
0150268820999992000040315004+53970+032850FM-12+021799999V0202601N004010003019N0002001N1+00431+00431100341ADDAY161031AY251031GA1091+999999999GF109991091999999999999999MD1410001+9999MW1531REMSYN060AAXX  03151 26882 41/92 92604 10043 20043 40034 54000 75365;
0202268820999992000040318004+53970+032850FM-12+021799999V0203001N007010045019N0150001N1+00371+00321100571ADDAA112002091AY161061AY251061GA1071+004509059GF107991071051004501001001KA1120M+00511MD1310221+9999MW1211REMSYN088AAXX  03181 26882 11465 73007 10037 20032 40057 53022 60022 72165 87500 333 10051 87615;
0138268820999992000040321004+53970+032850FM-12+021799999V0203001N005010030019N0260001N1+00211+00111100761ADDGA1071+003009059GF107991071051002501001001MD1210171+9999REMSYN070AAXX  03211 26882 42376 73005 10021 20011 40076 52017 87500 333 87610;
0159268820999992000040400004+53970+032850FM-12+021799999V0201301N005010042019N0300001N1+00131-00091100911ADDGA1071+004209059GF107991071001004501051001MA1999999098151MD1210141+9999REMSYN076AAXX  04001 26882 42480 71305 10013 21009 39815 40091 52014 87050 333 87614;
0152268820999992000040403004+53970+032850FM-12+021799999V0203001N005010051019N0200001N1+00071-00071101111ADDGA1071+005109059GF107991071051004501001001GJ100009MD1210181+9999REMSYN076AAXX  04031 26882 42470 73005 10007 21007 40111 52018 87500 333 55000 87617;
0197268820999992000040406004+53970+032850FM-12+021799999V0202901N003010066019N0200001N1+00121-00111101311ADDAA199000021AJ100189199999999GA1071+006609059GF107991071051008001001001IA1309KA1120N+00051MD1210221+9999REMSYN082AAXX  04061 26882 32570 72903 10012 21011 40131 52022 87500 333 20005 42018 87622;
0138268820999992000040409004+53970+032850FM-12+021799999V0202901N002010054019N0200001N1+00221-00061101431ADDGA1071+005409059GF107991071051004501001001MD1210121+9999REMSYN070AAXX  04091 26882 42470 72902 10022 21006 40143 52012 87500 333 87618;
0133268820999992000040412004+53970+032850FM-12+021799999V0202201N003010300019N0200001N1+00401-00061101481ADDGF107991041051008001031001MA1999999098731MD1210071+9999REMSYN066AAXX  04121 26882 42570 72203 10040 21006 39873 40148 52007 84530;
0112268820999992000040415004+53970+032850FM-12+021799999V0201301N003019999999N0200001N1+00341-00041101501ADDGF106991061001999999041001MD1110011+9999REMSYN060AAXX  04151 26882 42970 61303 10034 21004 40150 51001 86040;
0165268820999992000040418004+53970+032850FM-12+021799999V0201201N004019999999N0500001N1+00121-00111101491ADDAA199000091GF107991071001999999031001KA1999M+00451MD1810031+9999REMSYN070AAXX  04181 26882 32984 71204 10012 21011 40149 58003 87030 333 10045;EQDQ01  00002PRCP99
0112268820999992000040421004+53970+032850FM-12+021799999V0201201N006019999999N0500001N1+00131-00041101461ADDGF107991071001999999031001MD1710031+9999REMSYN060AAXX  04211 26882 42984 71206 10013 21004 40146 57003 87030;
0161268820999992000040500004+53970+032850FM-12+021799999V0201301N006019999999N0080001N1+00141+00031101421ADDAY161061AY221061GF108991081001999999071999MA1999999098041MD1710041+9999MW1611REMSYN072AAXX  05001 26882 41958 81306 10014 20003 39804 40142 57004 76162 8807/;
0199268820999992000040503004+53970+032850FM-12+021799999V0201201N004010180019N0200001N1+00181+00071101261ADDAY161031AY221031GA1071+018009059GF107991071051017501999001GJ101749MD1710151+9999MW1021REMSYN082AAXX  05031 26882 41770 71204 10018 20007 40126 57015 70262 87500 333 55029 87656;EQDQ01+000002SCOMCG
0209268820999992000040506004+53970+032850FM-12+021799999V0201201N006019999999N0200001N1+00301+00121101281ADDAA112000391AJ100139199999999AY161061AY221061GF107991071001999999031001IA1309KA1120N+00051MD1210041+9999MW1021REMSYN088AAXX  05061 26882 11970 71206 10030 20012 40128 52004 69932 70262 87030 333 20005 42013;
0112268820999992000040509004+53970+032850FM-12+021799999V0201301N007019999999N0200001N1+00591+00331101121ADDGF107991071001999999031001MD1710131+9999REMSYN060AAXX  05091 26882 42970 71307 10059 20033 40112 57013 87030;
0133268820999992000040512004+53970+032850FM-12+021799999V0201401N005019999999N0200001N1+00861+00431100941ADDGF107991071001999999031001MA1999999098241MD1710161+9999REMSYN066AAXX  05121 26882 42970 71405 10086 20043 39824 40094 57016 87030;
0112268820999992000040515004+53970+032850FM-12+021799999V0201201N004019999999N0200001N1+01011+00231100741ADDGF107991071001999999031001MD1710181+9999REMSYN060AAXX  05151 26882 42970 71204 10101 20023 40074 57018 87030;
0165268820999992000040518004+53970+032850FM-12+021799999V0201201N003019999999N0150001N1+00621+00311100771ADDAA199000091GF108991021001999999031051KA1999M+01031MD1710091+9999REMSYN070AAXX  05181 26882 32965 81203 10062 20031 40077 57009 82035 333 10103;EQDQ01  00002PRCP99
0112268820999992000040521004+53970+032850FM-12+021799999V0201201N004019999999N0130001N1+00451+00221100741ADDGF108991001001999999001051MD1710041+9999REMSYN060AAXX  05211 26882 42963 81204 10045 20022 40074 57004 80005;
0161268820999992000040600004+53970+032850FM-12+021799999V0201101N005019999999N0090001N1+00431+00361100541ADDAY121061AY221061GF108991001001999999001051MA1999999097811MD1710201+9999MW1101REMSYN072AAXX  06001 26882 41959 81105 10043 20036 39781 40054 57020 71022 80005;
0150268820999992000040603004+53970+032850FM-12+021799999V0201201N003019999999N0050001N1+00441+00371100471ADDAY121031AY221031GF107991071001999999051001MD1710071+9999MW1101REMSYN076AAXX  06031 26882 41950 71203 10044 20037 40047 57007 71022 87050 333 55004;
0194268820999992000040606004+53970+032850FM-12+021799999V0201201N006019999999N0120001N1+00581+00371100241ADDAA199000091AJ100019199999999GF108991001001999999001051IA1259KA1120N+00401MD1710201+9999REMSYN076AAXX  06061 26882 32962 81206 10058 20037 40024 57020 80005 333 20040 41001;EQDQ01  00002PRCP99
0112268820999992000040609004+53970+032850FM-12+021799999V0201101N006019999999N0170001N1+01071+00581100161ADDGF107991001001999999001051MD1710031+9999REMSYN060AAXX  06091 26882 42967 71106 10107 20058 40016 57003 80005;
0161268820999992000040612004+53970+032850FM-12+021799999V0201201N005019999999N0150001N1+01081+00681100151ADDAY161061AY221061GF108991081001999999071999MA1999999097501MD1610011+9999MW1611REMSYN072AAXX  06121 26882 41965 81205 10108 20068 39750 40015 56001 76162 8807/;
0140268820999992000040615004+53970+032850FM-12+021799999V0201201N004019999999N0150001N1+01221+00841100081ADDAY161031AY221031GF108991081001999999071999MD1710061+9999MW1021REMSYN066AAXX  06151 26882 41965 81204 10122 20084 40008 57006 70262 8807/;
0202268820999992000040618004+53970+032850FM-12+021799999V0201201N004010057019N0120001N1+01051+00731100091ADDAA112000391AY161061AY221061GA1071+005709059GF107991071051004501001001KA1120M+01231MD1410001+9999MW1021REMSYN088AAXX  06181 26882 11462 71204 10105 20073 40009 54000 69932 70262 87500 333 10123 87619;
0138268820999992000040621004+53970+032850FM-12+021799999V0201001N003010045019N0120001N1+00801+00611100121ADDGA1071+004509059GF107991071051004501001001MD1410001+9999REMSYN070AAXX  06211 26882 42462 71003 10080 20061 40012 54000 87500 333 87615;
0159268820999992000040700004+53970+032850FM-12+021799999V0201201N003010045019N0110001N1+00501+00481100121ADDGA1071+004509059GF107991071051004501001001MA1999999097441MD1410001+9999REMSYN076AAXX  07001 26882 42461 71203 10050 20048 39744 40012 54000 87500 333 87615;
0180268820999992000040703004+53970+032850FM-12+021799999V0200701N002010018019N0035001N1+00691+00671100091ADDAY161031AY221031GA1081+001809069GF108991081061001501999999GJ102109MD1710041+9999MW1101REMSYN082AAXX  07031 26882 41235 80702 10069 20067 40009 57004 71062 886// 333 55035 88706;
0221268820999992000040706004+53970+032850FM-12+021799999V0200601N002010009019N0013001N1+00771+00761100101ADDAA112003091AY161061AY221061GA1071+000909059GF108991999071001501021999KA1120N+00501MD1310021+9999MW1631REMSYN088AAXX  07061 26882 11213 80602 10077 20076 40010 53002 60032 76362 8872/ 333 20050 87603;EQDQ01+000082SCOTLC
0187268820999992000040712004+53970+032850FM-12+021799999V0201101N002010024019N0038001N1+00971+00931100251ADDAY161061AY221061GA1081+002409069GF108991081071002501999999MA1999999097591MD1210091+9999MW1101REMSYN082AAXX  07121 26882 41338 81102 10097 20093 39759 40025 52009 71062 887// 333 88708;
0166268820999992000040715004+53970+032850FM-12+021799999V0201901N006010024019N0020001N1+01051+00951100351ADDAY181031AY221031GA1061+002409099GF108991061091002501061001MD1210101+9999MW1811REMSYN076AAXX  07151 26882 41320 81906 10105 20095 40035 52010 78182 86960 333 86908;
0221268820999992000040718004+53970+032850FM-12+021799999V0203401N002010024019N0090001N1+00681+00591100531ADDAA112008991AY181061AY261061GA1081+002409069GF108991999071002501021999KA1120M+01091MD1210141+9999MW1611REMSYN088AAXX  07181 26882 11359 83402 10068 20059 40053 52014 60092 76186 8872/ 333 10109 88708;EQDQ01+000082SCOTLC
0150268820999992000040721004+53970+032850FM-12+021799999V0200201N002010006019N0006001N1+00641+00621100541ADDAY161031AY241031GA1091+999999999GF109991091999999999999999MD1410001+9999MW1471REMSYN060AAXX  07211 26882 41/06 90202 10064 20062 40054 54000 74764;
0171268820999992000040800004+53970+032850FM-12+021799999V0200201N002010006019N0009001N1+00531+00531100521ADDAY161061AY241061GA1091+999999999GF109991091999999999999999MA1999999097801MD1810031+9999MW1431REMSYN066AAXX  08001 26882 41/09 90202 10053 20053 39780 40052 58003 74364;
0180268820999992000040803004+53970+032850FM-12+021799999V0201401N004010018019N0030001N1+00621+00601100511ADDAY141031AY221031GA1081+001809069GF108991081061001501999999GJ100009MD1410001+9999MW1281REMSYN082AAXX  08031 26882 41230 81404 10062 20060 40051 54000 72842 886// 333 55000 88706;
0151268820999992000040806004+53970+032850FM-12+021799999V0201601N005012200019N0200001N1+00531+00211100691ADDAA112000791AY141061AY211061GF103991999999004501999999MD1310161+9999MW1011REMSYN066AAXX  08061 26882 11470 31605 10053 20021 40069 53016 69902 70141;
0138268820999992000040809004+53970+032850FM-12+021799999V0201901N005010072019N0200001N1+00631+00241100801ADDGA1071+007209059GF107991071041008001001001MD1210121+9999REMSYN070AAXX  08091 26882 42570 71905 10063 20024 40080 52012 87400 333 87624;
0161268820999992000040812004+53970+032850FM-12+021799999V0201801N003010300019N0200001N1+00621+00281100911ADDAY111061AY211061GF107991021021008001061001MA1999999098191MD1210111+9999MW1251REMSYN072AAXX  08121 26882 41570 71803 10062 20028 39819 40091 52011 72511 82260;
0138268820999992000040815004+53970+032850FM-12+021799999V0209999C000010060019N0160001N1+00641+00301100991ADDGA1071+006009059GF107991071051008001001001MD1110081+9999REMSYN070AAXX  08151 26882 42566 70000 10064 20030 40099 51008 87500 333 87620;
0202268820999992000040818004+53970+032850FM-12+021799999V0209999C000010069019N0060001N1+00551+00461101041ADDAA112000591AY161061AY221061GA1071+006909059GF107991071051008001001001KA1120M+00691MD1210041+9999MW1611REMSYN088AAXX  08181 26882 11556 70000 10055 20046 40104 52004 69962 76162 87500 333 10069 87623;
0185268820999992000040821004+53970+032850FM-12+021799999V0209999C000010012019N0028001N1+00531+00511101021ADDAY161031AY221031GA1081+001209069GF108991999071001501021999MD1810021+9999MW1631REMSYN076AAXX  08211 26882 41228 80000 10053 20051 40102 58002 76362 8872/ 333 88704;EQDQ01+000082SCOTLC
0206268820999992000040900004+53970+032850FM-12+021799999V0209999C000010012019N0038001N1+00651+00631100981ADDAY161061AY221061GA1081+001209069GF108991999071001501021999MA1999999098271MD1710021+9999MW1631REMSYN082AAXX  09001 26882 41238 80000 10065 20063 39827 40098 57002 76362 8872/ 333 88704;EQDQ01+000082SCOTLC
0180268820999992000040903004+53970+032850FM-12+021799999V0201201N003010021019N0038001N1+00701+00651101021ADDAY161031AY221031GA1081+002109069GF108991081071002501999999GJ100729MD1310031+9999MW1101REMSYN082AAXX  09031 26882 41338 81203 10070 20065 40102 53003 71062 887// 333 55012 88707;
0221268820999992000040906004+53970+032850FM-12+021799999V0201301N001010018019N0030001N1+00611+00591101181ADDAA112007191AY161061AY251061GA1081+001809069GF108991999071001501021999KA1120N+00501MD1210161+9999MW1611REMSYN088AAXX  09061 26882 11230 81301 10061 20059 40118 52016 60072 76165 8872/ 333 20050 88706;EQDQ01+000082SCOTLC
0166268820999992000040909004+53970+032850FM-12+021799999V0201601N004010054019N0120001N1+00541+00451101451ADDAY161031AY221031GA1071+005409059GF107991071051004501001001MD1210251+9999MW1021REMSYN076AAXX  09091 26882 41462 71604 10054 20045 40145 52025 70262 87500 333 87618;
0206268820999992000040912004+53970+032850FM-12+021799999V0201801N001010054019N0100001N1+00551+00431101651ADDAY161061AY221061GA1081+005409069GF108991999071008001021999MA1999999098901MD1210191+9999MW1611REMSYN082AAXX  09121 26882 41560 81801 10055 20043 39890 40165 52019 76162 8872/ 333 88718;EQDQ01+000082SCOTLC
0166268820999992000040915004+53970+032850FM-12+021799999V0201301N003010021019N0080001N1+00591+00521101771ADDAY161031AY221031GA1081+002109069GF108991081071002501999999MD1210131+9999MW1101REMSYN076AAXX  09151 26882 41358 81303 10059 20052 40177 52013 71062 887// 333 88707;
0202268820999992000040918004+53970+032850FM-12+021799999V0201301N002010102019N0110001N1+00521+00471101841ADDAA112000591AY161061AY221061GA1071+010209059GF107991071051012501001001KA1120M+00641MD1210061+9999MW1021REMSYN088AAXX  09181 26882 11661 71302 10052 20047 40184 52006 69952 70262 87500 333 10064 87634;
0166268820999992000040921004+53970+032850FM-12+021799999V0201201N002010057019N0050001N1+00501+00431101861ADDAY121031AY221031GA1071+005709059GF107991071051004501001001MD1210021+9999MW1101REMSYN076AAXX  09211 26882 41450 71202 10050 20043 40186 52002 71022 87500 333 87619;
0187268820999992000041000004+53970+032850FM-12+021799999V0201201N002010021019N0047001N1+00481+00411101901ADDAY121061AY221061GA1081+002109069GF108991081061002501999999MA1999999099151MD1210041+9999MW1101REMSYN082AAXX  10001 26882 41347 81202 10048 20041 39915 40190 52004 71022 886// 333 88707;
0180268820999992000041003004+53970+032850FM-12+021799999V0201201N001010021019N0020001N1+00491+00421101941ADDAY121031AY221031GA1081+002109069GF108991081061002501999999GJ100009MD1210031+9999MW1101REMSYN082AAXX  10031 26882 41320 81201 10049 20042 40194 52003 71022 886// 333 55000 88707;
0215268820999992000041006004+53970+032850FM-12+021799999V0201201N001010018019N0025001N1+00521+00451102001ADDAA199000091AY121061AY221061GA1081+001809069GF108991081061001501999999KA1120N+00441MD1210061+9999MW1101REMSYN082AAXX  10061 26882 31225 81201 10052 20045 40200 52006 71022 886// 333 20044 88706;EQDQ01  00002PRCP99
0140268820999992000041009004+53970+032850FM-12+021799999V0201401N002019999999N0060001N1+00601+00461102001ADDAY121031AY221031GF108991081001999999071999MD1210011+9999MW1101REMSYN066AAXX  10091 26882 41956 81402 10060 20046 40200 52001 71022 8807/;
0152268820999992000041012004+53970+032850FM-12+021799999V0209999C000019999999N0200001N1+00701+00401101941ADDGF107991999001008001071999MA1999999099201MD1810051+9999REMSYN066AAXX  10121 26882 41598 70000 10070 20040 39920 40194 58005 8807/;EQDQ01+000082SCOTLC
0138268820999992000041015004+53970+032850FM-12+021799999V0209999C000010114019N0180001N1+00741+00341101851ADDGA1071+011409059GF107991071051012501001001MD1710081+9999REMSYN070AAXX  10151 26882 42668 70000 10074 20034 40185 57008 87500 333 87638;
0215268820999992000041018004+53970+032850FM-12+021799999V0209999C000010096019N0070001N1+00671+00361101801ADDAA199000091AY121061AY221061GA1071+009609059GF107991071051008001001001KA1120M+00791MD1710051+9999MW1101REMSYN082AAXX  10181 26882 31557 70000 10067 20036 40180 57005 71022 87500 333 10079 87632;EQDQ01  00002PRCP99
0166268820999992000041021004+53970+032850FM-12+021799999V0209999C000010096019N0070001N1+00571+00331101881ADDAY121031AY221031GA1071+009609059GF107991071051008001001001MD1710031+9999MW1101REMSYN076AAXX  10211 26882 41557 70000 10057 20033 40188 57003 71022 87500 333 87632;
0187268820999992000041100004+53970+032850FM-12+021799999V0209999C000010090019N0060001N1+00401+00231101871ADDAY121061AY221061GA1071+009009059GF107991071051008001001001MA1999999099301MD1710021+9999MW1101REMSYN082AAXX  11001 26882 41556 70000 10040 20023 39930 40187 57002 71022 87500 333 87630;
0122268820999992000041103004+53970+032850FM-12+021799999V0203301N001019999999N0100001N1+00301+00091101671ADDGF107991071001999999071001MD1710071+9999REMSYN070AAXX  11031 26882 42997 73301 10030 20009 40167 57007 87070 333 55000;
0193268820999992000041106004+53970+032850FM-12+021799999V0200601N001019999999N0090001N1+00631+00271101491ADDAA199000091AY121061AY221061GF107991071001999999031001KA1999N+00381MD1710181+9999MW1101REMSYN076AAXX  11061 26882 31959 70601 10063 20027 40149 57018 71022 87030 333 20038;EQDQ01  00002PRCP99
0112268820999992000041109004+53970+032850FM-12+021799999V0201001N002019999999N0130001N1+01131+00401101371ADDGF107991071001999999031001MD1710071+9999REMSYN060AAXX  11091 26882 42963 71002 10113 20040 40137 57007 87030;
0133268820999992000041112004+53970+032850FM-12+021799999V0200501N001019999999N0130001N1+01281+00481101221ADDGF107991071001999999031001MA1999999098561MD1710131+9999REMSYN066AAXX  11121 26882 42963 70501 10128 20048 39856 40122 57013 87030;
0112268820999992000041115004+53970+032850FM-12+021799999V0201001N002019999999N0120001N1+01281+00481101091ADDGF107991071001999999031001MD1710131+9999REMSYN060AAXX  11151 26882 42962 71002 10128 20048 40109 57013 87030;
0193268820999992000041118004+53970+032850FM-12+021799999V0200301N001019999999N0050001N1+01141+00561101051ADDAA199000091AY121061AY221061GF107991071001999999031001KA1999M+01311MD1710051+9999MW1041REMSYN076AAXX  11181 26882 31950 70301 10114 20056 40105 57005 70422 87030 333 10131;EQDQ01  00002PRCP99
0112268820999992000041121004+53970+032850FM-12+021799999V0200601N001019999999N0180001N1+00941+00591101071ADDGF107991071001999999031001MD1410001+9999REMSYN060AAXX  11211 26882 42968 70601 10094 20059 40107 54000 87030;
0161268820999992000041200004+53970+032850FM-12+021799999V0209999C000019999999N0090001N1+00821+00591101011ADDAY121061AY221061GF107991071001999999031001MA1999999098311MD1810071+9999MW1101REMSYN072AAXX  12001 26882 41959 70000 10082 20059 39831 40101 58007 71022 87030;
0150268820999992000041203004+53970+032850FM-12+021799999V0209999C000019999999N0060001N1+00621+00531100991ADDAY121031AY221031GF106991031001999999031011MD1710041+9999MW1101REMSYN076AAXX  12031 26882 41956 60000 10062 20053 40099 57004 71022 83031 333 55013;
0193268820999992000041206004+53970+032850FM-12+021799999V0201201N002019999999N0090001N1+00771+00581101021ADDAA199000091AY121061AY221061GF107991071001999999031001KA1999N+00551MD1310051+9999MW1101REMSYN076AAXX  12061 26882 31959 71202 10077 20058 40102 53005 71022 87030 333 20055;EQDQ01  00002PRCP99
0112268820999992000041209004+53970+032850FM-12+021799999V0201601N003019999999N0150001N1+01371+00291100931ADDGF108991081001999999071999MD1810041+9999REMSYN060AAXX  12091 26882 42965 81603 10137 20029 40093 58004 8807/;
0133268820999992000041212004+53970+032850FM-12+021799999V0201201N004010300019N0180001N1+01391+00411100851ADDGF108991031021008001071999MA1999999098211MD1710071+9999REMSYN066AAXX  12121 26882 42568 81204 10139 20041 39821 40085 57007 8327/;
0140268820999992000041215004+53970+032850FM-12+021799999V0202301N006010300019N0070001N1+01151+00621100851ADDAY181031AY221031GF108991041091004501071999MD1710101+9999MW1801REMSYN066AAXX  12151 26882 41457 82306 10115 20062 40085 57010 78082 8497/;
0180268820999992000041218004+53970+032850FM-12+021799999V0201501N001019999999N0240001N1+00991+00531100821ADDAA112000591AY181061AY221061GF107991071001999999031001KA1999M+01441MD1510021+9999MW1021REMSYN082AAXX  12181 26882 11974 71501 10099 20053 40082 55002 69952 70282 87030 333 10144;
0112268820999992000041221004+53970+032850FM-12+021799999V0201601N001019999999N0150001N1+00841+00591100871ADDGF107991071001999999031001MD1210031+9999REMSYN060AAXX  12211 26882 42965 71601 10084 20059 40087 52003 87030;
0133268820999992000041300004+53970+032850FM-12+021799999V0201901N003010300019N0350001N1+00711+00511100851ADDGF107991021021008001031001MA1999999098141MD1810031+9999REMSYN066AAXX  13001 26882 42581 71903 10071 20051 39814 40085 58003 82230;
0160268820999992000041303004+53970+032850FM-12+021799999V0202001N004012200019N0080001N1+00511+00341100861ADDAY111031AY211031GA1001+999999999GF100991001001999999001001MD1710011+9999MW1101REMSYN070AAXX  13031 26882 41958 02004 10051 20034 40086 57001 71011 333 55011;
0165268820999992000041306004+53970+032850FM-12+021799999V0201901N003019999999N0200001N1+00961+99999100841ADDAA199000091GF105991001001999999001011KA1999N+00471MD1310031+9999REMSYN070AAXX  13061 26882 32970 51903 10096 20834 40084 53003 80001 333 20047;EQDQ01  00002PRCP99
0112268820999992000041309004+53970+032850FM-12+021799999V0201801N005019999999N0200001N1+01381+00211100791ADDGF106991031001999999031091MD1810011+9999REMSYN060AAXX  13091 26882 42970 61805 10138 20021 40079 58001 83039;
0133268820999992000041312004+53970+032850FM-12+021799999V0202001N008012200019N0200001N1+01541+00151100751ADDGF104991001001999999001011MA1999999098121MD1710031+9999REMSYN066AAXX  13121 26882 42970 42008 10154 20015 39812 40075 57003 80001;
0112268820999992000041315004+53970+032850FM-12+021799999V0202001N006019999999N0200001N1+01541+00211100721ADDGF106991001001999999001091MD1710031+9999REMSYN060AAXX  13151 26882 42970 62006 10154 20021 40072 57003 80009;
0165268820999992000041318004+53970+032850FM-12+021799999V0201701N003019999999N0300001N1+01271+00461100821ADDAA199000091GF107991071001999999051001KA1999M+01591MD1310081+9999REMSYN070AAXX  13181 26882 32980 71703 10127 20046 40082 53008 87050 333 10159;EQDQ01  00002PRCP99
0112268820999992000041321004+53970+032850FM-12+021799999V0201601N002019999999N0180001N1+01041+00641100891ADDGF107991071001999999031001MD1210051+9999REMSYN060AAXX  13211 26882 42968 71602 10104 20064 40089 52005 87030;
0143268820999992000041400004+53970+032850FM-12+021799999V0201601N001012200019N0150001N1+00851+00411100921ADDGA1001+999999999GF100991001001999999001001MA1999999098221MD1410001+9999REMSYN060AAXX  14001 26882 42965 01601 10085 20041 39822 40092 54000;
0122268820999992000041403004+53970+032850FM-12+021799999V0201801N002019999999N0120001N1+00851+00461100841ADDGF107991071001999999051001MD1810071+9999REMSYN070AAXX  14031 26882 42962 71802 10085 20046 40084 58007 87050 333 55103;
0165268820999992000041406004+53970+032850FM-12+021799999V0202001N004019999999N0200001N1+01221+00501100781ADDAA199000091GF105991051001999999031001KA1999N+00751MD1710031+9999REMSYN070AAXX  14061 26882 32970 52004 10122 20050 40078 57003 85030 333 20075;EQDQ01  00002PRCP99
0112268820999992000041409004+53970+032850FM-12+021799999V0201901N006012200019N0200001N1+01781+00621100701ADDGF104991021021012501001011MD1710021+9999REMSYN060AAXX  14091 26882 42670 41906 10178 20062 40070 57002 82201;
0165268820999992000041418004+53970+032850FM-12+021799999V0201901N004012200019N0300001N1+01441+00641100671ADDAA199000091GF102991011001999999031011KA1999M+01921MD1310121+9999REMSYN070AAXX  14181 26882 32980 21904 10144 20064 40067 53012 81031 333 10192;EQDQ01  00002PRCP99
0122268820999992000041421004+53970+032850FM-12+021799999V0203301N002012200019N0400001N1+01021+00651100901ADDGA1001+999999999GF100991001001999999001001MD1210181+9999REMSYN054AAXX  14211 26882 42982 03302 10102 20065 40090 52018;
0143268820999992000041500004+53970+032850FM-12+021799999V0203501N002012200019N0300001N1+00861+00621100961ADDGA1001+999999999GF100991001001999999001001MA1999999098271MD1210051+9999REMSYN060AAXX  15001 26882 42980 03502 10086 20062 39827 40096 52005;
0132268820999992000041503004+53970+032850FM-12+021799999V0201301N004012200019N0200001N1+00841+00551100891ADDGA1001+999999999GF100991001001999999001001MD1810081+9999REMSYN064AAXX  15031 26882 42970 01304 10084 20055 40089 58008 333 55085;
0175268820999992000041506004+53970+032850FM-12+021799999V0201801N006012200019N0110001N1+01351+00671100791ADDAA199000091GA1001+999999999GF100991001001999999001001KA1999N+00721MD1710041+9999REMSYN064AAXX  15061 26882 32961 01806 10135 20067 40079 57004 333 20072;EQDQ01  00002PRCP99
0106268820999992000041509004+53970+032850FM-12+021799999V0202001N009019999999N0200001N1+01881+00411100741ADDGF107991999999999999999999MD1410001+9999REMSYN054AAXX  15091 26882 42970 72009 10188 20041 40074 54000;
0188268820999992000041512004+53970+032850FM-12+021799999V0201801N008010300019N0200001N1+01491+00841100751ADDAY181061AY211061GF107991021091008001061001MA1999999098121MD1710031+9999MW1251OA140101201REMSYN088AAXX  15121 26882 41570 71808 10149 20084 39812 40075 57003 72581 82960 333 91012 91113;
0112268820999992000041515004+53970+032850FM-12+021799999V0201901N004012200019N0150001N1+01801+00731100661ADDGF103991021021008001061001MD1710061+9999REMSYN060AAXX  15151 26882 42565 31904 10180 20073 40066 57006 82260;
0180268820999992000041518004+53970+032850FM-12+021799999V0203401N005012200019N0400001N1+01301+00841100991ADDAA112000391AY191061AY281061GF104991021021012501061011KA1999M+02001MD1310271+9999MW1011REMSYN082AAXX  15181 26882 11682 43405 10130 20084 40099 53027 69932 70198 82261 333 10200;
0112268820999992000041521004+53970+032850FM-12+021799999V0200101N003019999999N0220001N1+00851+00681101211ADDGF106991061001999999031001MD1210191+9999REMSYN060AAXX  15211 26882 42972 60103 10085 20068 40121 52019 86030;
0133268820999992000041600004+53970+032850FM-12+021799999V0200801N002012200019N0150001N1+00691+00601101231ADDGF103991031001999999031001MA1999999098521MD1410001+9999REMSYN066AAXX  16001 26882 42965 30802 10069 20060 39852 40123 54000 83030;
0160268820999992000041603004+53970+032850FM-12+021799999V0201001N003010006019N0006001N1+00641+00641101281ADDAY141031AY211031GA1091+999999999GF109991091999999999999999MD1310031+9999MW1471REMSYN070AAXX  16031 26882 41/06 91003 10064 20064 40128 53003 74741 333 55069;
0215268820999992000041606004+53970+032850FM-12+021799999V0201101N004010012019N0018001N1+00861+00821101371ADDAA199000091AY141061AY221061GA1081+001209069GF108991081061001501999999KA1120N+00601MD1210121+9999MW1281REMSYN082AAXX  16061 26882 31218 81104 10086 20082 40137 52012 72842 886// 333 20060 88704;EQDQ01  00002PRCP99
0112268820999992000041609004+53970+032850FM-12+021799999V0201201N004010300019N0200001N1+01601+00941101291ADDGF106991041021008001041001MD1810021+9999REMSYN060AAXX  16091 26882 42570 61204 10160 20094 40129 58002 84240;
0171268820999992000041612004+53970+032850FM-12+021799999V0202301N008010042019N0200001N1+01831+00701101201ADDAY191061AY281061GF106991061091004501031001MA1999999098601MD1710051+9999MW1951REMSYN082AAXX  16121 26882 41470 62308 10183 20070 39860 40120 57005 79598 86930 333 91113;
0140268820999992000041615004+53970+032850FM-12+021799999V0201601N005012200019N0200001N1+02091+00591100981ADDAY191031AY281031GF102991021021008001031001MD1710201+9999MW1011REMSYN066AAXX  16151 26882 41570 21605 10209 20059 40098 57020 70198 82230;
0180268820999992000041618004+53970+032850FM-12+021799999V0201701N004019999999N0120001N1+01651+00551101021ADDAA112000791AY191061AY281061GF108991081001999999071999KA1999M+02151MD1410001+9999MW1031REMSYN082AAXX  16181 26882 11962 81704 10165 20055 40102 54000 69902 70398 8807/ 333 10215;
0112268820999992000041621004+53970+032850FM-12+021799999V0201401N003019999999N0180001N1+01441+00681101071ADDGF107991071001999999071001MD1210031+9999REMSYN060AAXX  16211 26882 42968 71403 10144 20068 40107 52003 87070;
0133268820999992000041700004+53970+032850FM-12+021799999V0201901N006019999999N0200001N1+01271+00851101081ADDGF106991061001999999031001MA1999999098421MD1710011+9999REMSYN066AAXX  17001 26882 42970 61906 10127 20085 39842 40108 57001 86030;
0152268820999992000041703004+53970+032850FM-12+021799999V0201801N006010060019N0200001N1+01121+00841101061ADDGA1071+006009059GF108991071051008001071999GJ104449MD1710031+9999REMSYN076AAXX  17031 26882 42570 81806 10112 20084 40106 57003 8757/ 333 55074 87620;
0202268820999992000041706004+53970+032850FM-12+021799999V0201501N003010072019N0200001N1+01151+00931101121ADDAA112000791AY161061AY221061GA1071+007209059GF107991071051008001001001KA1120N+01111MD1210061+9999MW1021REMSYN088AAXX  17061 26882 11570 71503 10115 20093 40112 52006 69902 70262 87500 333 20111 87624;
0140268820999992000041709004+53970+032850FM-12+021799999V0202101N004010042019N0060001N1+01151+01051101191ADDAY191031AY281031GF107991061091004501031001MD1210071+9999MW1951REMSYN066AAXX  17091 26882 41456 72104 10115 20105 40119 52007 79598 86930;
0187268820999992000041712004+53970+032850FM-12+021799999V0202401N001010060019N0060001N1+00891+00811101211ADDAY191061AY281061GA1081+006009069GF108991081091004501001001MA1999999098521MD1410001+9999MW1811REMSYN082AAXX  17121 26882 41456 82401 10089 20081 39852 40121 54000 78198 88900 333 88720;
0140268820999992000041715004+53970+032850FM-12+021799999V0203301N001019999999N0200001N1+01151+00891101141ADDAY181031AY221031GF105991051001999999031001MD1710051+9999MW1021REMSYN066AAXX  17151 26882 41970 53301 10115 20089 40114 57005 70282 85030;
0180268820999992000041718004+53970+032850FM-12+021799999V0203301N001012200019N0300001N1+01001+00921101251ADDAA112013091AY181061AY211061GF104991021021008001061001KA1999M+01411MD1310091+9999MW1011REMSYN082AAXX  17181 26882 11580 43301 10100 20092 40125 53009 60132 70181 82260 333 10141;
0112268820999992000041721004+53970+032850FM-12+021799999V0202201N002019999999N0130001N1+00951+00861101261ADDGF107991071001999999051001MD1210011+9999REMSYN060AAXX  17211 26882 42963 72202 10095 20086 40126 52001 87050;
0133268820999992000041800004+53970+032850FM-12+021799999V0202401N003019999999N0140001N1+00931+00821101271ADDGF107991071001999999031001MA1999999098581MD1210011+9999REMSYN066AAXX  18001 26882 42964 72403 10093 20082 39858 40127 52001 87030;
0180268820999992000041803004+53970+032850FM-12+021799999V0202701N004010021019N0032001N1+00831+00811101381ADDAY121031AY221031GA1071+002109059GF107991071051002501001001GJ101269MD1210101+9999MW1101REMSYN082AAXX  18031 26882 41332 72704 10083 20081 40138 52010 71022 87500 333 55021 87607;
0165268820999992000041806004+53970+032850FM-12+021799999V0202901N003010300019N0170001N1+00961+00851101401ADDAA199000091GF106991021011008001031091KA1999N+00811MD1210031+9999REMSYN070AAXX  18061 26882 32567 62903 10096 20085 40140 52003 82139 333 20081;EQDQ01  00002PRCP99
0112268820999992000041809004+53970+032850FM-12+021799999V0203501N005010300019N0200001N1+01521+00921101371ADDGF106991021021008001031001MD1210021+9999REMSYN060AAXX  18091 26882 42570 63505 10152 20092 40137 52002 82230;
0133268820999992000041812004+53970+032850FM-12+021799999V0200201N004010300019N0200001N1+01321+00971101471ADDGF107991021021012501031001MA1999999098821MD1210091+9999REMSYN066AAXX  18121 26882 42670 70204 10132 20097 39882 40147 52009 82230;
0112268820999992000041815004+53970+032850FM-12+021799999V0209999C000010300019N0200001N1+01301+00861101491ADDGF107991021021012501031001MD1210011+9999REMSYN060AAXX  18151 26882 42670 70000 10130 20086 40149 52001 82230;
0181268820999992000041818004+53970+032850FM-12+021799999V0201501N001019999999N0250001N1+01771+00861101501ADDAA199000091GF107991071001999999031001KA1999M+99999MD1410001+9999REMSYN070AAXX  18181 26882 32975 71501 10177 20086 40150 54000 87030 333 10156;EQDQ01  00002PRCP99Q02 +01562ATMX  
0112268820999992000041821004+53970+032850FM-12+021799999V0209999C000012200019N0140001N1+00991+00761101521ADDGF103991031001999999031001MD1410001+9999REMSYN060AAXX  18211 26882 42964 30000 10099 20076 40152 54000 83030;
0133268820999992000041900004+53970+032850FM-12+021799999V0209999C000019999999N0120001N1+00701+00551101551ADDGF105991051001999999031001MA1999999099831MD1410001+9999REMSYN066AAXX  19001 26882 42962 50000 10070 20055 39983 40155 54000 85030;
0122268820999992000041903004+53970+032850FM-12+021799999V0201101N001019999999N0140001N1+00771+00701101541ADDGF106991061001999999031001MD1410001+9999REMSYN070AAXX  19031 26882 42964 61101 10077 20070 40154 54000 86030 333 55041;
0165268820999992000041906004+53970+032850FM-12+021799999V0200901N001012200019N0150001N1+01121+00941101531ADDAA199000091GF102991011021012501031001KA1999N+00681MD1310021+9999REMSYN070AAXX  19061 26882 32665 20901 10112 20094 40153 53002 81230 333 20068;EQDQ01  00002PRCP99
0112268820999992000041909004+53970+032850FM-12+021799999V0200901N001012200019N0200001N1+01531+00701101551ADDGF102991021021012501001001MD1210051+9999REMSYN060AAXX  19091 26882 42670 20901 10153 20070 40155 52005 82200;
0133268820999992000041912004+53970+032850FM-12+021799999V0202201N002010300019N0200001N1+01761+00581101481ADDGF107991021021012501061001MA1999999098851MD1810051+9999REMSYN066AAXX  19121 26882 42670 72202 10176 20058 39885 40148 58005 82260;
0112268820999992000041915004+53970+032850FM-12+021799999V0203601N003012200019N0200001N1+01771+00561101451ADDGF104991011021012501031001MD1710021+9999REMSYN060AAXX  19151 26882 42670 43603 10177 20056 40145 57002 81230;
0165268820999992000041918004+53970+032850FM-12+021799999V0200601N001019999999N0120001N1+01461+00681101521ADDAA199000091GF105991051001999999031001KA1999M+01851MD1310051+9999REMSYN070AAXX  19181 26882 32962 50601 10146 20068 40152 53005 85030 333 10185;EQDQ01  00002PRCP99
0112268820999992000041921004+53970+032850FM-12+021799999V0209999C000012200019N0260001N1+01121+00651101591ADDGF102991021001999999031001MD1210031+9999REMSYN060AAXX  19211 26882 42976 20000 10112 20065 40159 52003 82030;
0133268820999992000042000004+53970+032850FM-12+021799999V0200501N001012200019N0150001N1+00921+00731101621ADDGF102991021001999999031001MA1999999098911MD1210011+9999REMSYN066AAXX  20001 26882 42965 20501 10092 20073 39891 40162 52001 82030;
0122268820999992000042003004+53970+032850FM-12+021799999V0200201N001012200019N0120001N1+00741+00671101641ADDGF102991021001999999031001MD1210011+9999REMSYN070AAXX  20031 26882 42962 20201 10074 20067 40164 52001 82030 333 55094;
0175268820999992000042006004+53970+032850FM-12+021799999V0200401N002012200019N0200001N1+01191+00801101711ADDAA199000091GA1001+999999999GF100991001001999999001001KA1999N+00701MD1210111+9999REMSYN064AAXX  20061 26882 32970 00402 10119 20080 40171 52011 333 20070;EQDQ01  00002PRCP99
0112268820999992000042009004+53970+032850FM-12+021799999V0200901N003012200019N0200001N1+01661+00861101651ADDGF102991021021012501001001MD1810021+9999REMSYN060AAXX  20091 26882 42670 20903 10166 20086 40165 58002 82200;
0133268820999992000042012004+53970+032850FM-12+021799999V0200901N004012200019N0200001N1+01741+00851101671ADDGF104991041021012501001001MA1999999099041MD1310031+9999REMSYN066AAXX  20121 26882 42670 40904 10174 20085 39904 40167 53003 84200;
0112268820999992000042015004+53970+032850FM-12+021799999V0201201N002012200019N0200001N1+01811+00671101571ADDGF103991011021012501001041MD1810091+9999REMSYN060AAXX  20151 26882 42670 31202 10181 20067 40157 58009 81204;
0112268820999992000042021004+53970+032850FM-12+021799999V0200501N001012200019N0350001N1+01211+00741101631ADDGF103991031001999999031001MD1310011+9999REMSYN060AAXX  20211 26882 42981 30501 10121 20074 40163 53001 83030;
0122268820999992000042103004+53970+032850FM-12+021799999V0209999C000010300019N0200001N1+00951+00761101691ADDGF106991041021008001031001MD1210031+9999REMSYN070AAXX  21031 26882 42570 60000 10095 20076 40169 52003 84230 333 55118;
0165268820999992000042106004+53970+032850FM-12+021799999V0200501N001019999999N0200001N1+01291+00881101701ADDAA199000091GF107991071001999999031001KA1999N+00921MD1210041+9999REMSYN070AAXX  21061 26882 32970 70501 10129 20088 40170 52004 87030 333 20092;EQDQ01  00002PRCP99
0112268820999992000042109004+53970+032850FM-12+021799999V0201001N001019999999N0200001N1+01791+00301101661ADDGF107991031001999999999999MD1410001+9999REMSYN060AAXX  21091 26882 42970 71001 10179 20030 40166 54000 830//;
0133268820999992000042112004+53970+032850FM-12+021799999V0200801N004010300019N0200001N1+02031+00501101601ADDGF107991041021008001031001MA1999999098991MD1710041+9999REMSYN066AAXX  21121 26882 42570 70804 10203 20050 39899 40160 57004 84230;
0112268820999992000042115004+53970+032850FM-12+021799999V0200601N004010300019N0200001N1+01951+00621101581ADDGF107991041021008001031001MD1710021+9999REMSYN060AAXX  21151 26882 42570 70604 10195 20062 40158 57002 84230;
0135268820999992000042118004+53970+032850FM-12+021799999V0200301N002012200019N0160001N1+01631+00531101591ADDGF102991001001999999001011KA1999M+02101MD1710021+9999REMSYN070AAXX  21181 26882 42966 20302 10163 20053 40159 57002 80001 333 10210;
0112268820999992000042121004+53970+032850FM-12+021799999V0200501N002019999999N0180001N1+01411+00621101661ADDGF106991021001999999031041MD1310041+9999REMSYN060AAXX  21211 26882 42968 60502 10141 20062 40166 53004 82034;
0133268820999992000042200004+53970+032850FM-12+021799999V0200401N002019999999N0110001N1+01391+00921101621ADDGF108991081001999999011999MA1999999098951MD1810041+9999REMSYN066AAXX  22001 26882 42961 80402 10139 20092 39895 40162 58004 8801/;
0122268820999992000042203004+53970+032850FM-12+021799999V0200401N002019999999N0160001N1+01091+00451101641ADDGF108991041001999999031041MD1410001+9999REMSYN070AAXX  22031 26882 42966 80402 10109 20045 40164 54000 84034 333 55033;
0165268820999992000042206004+53970+032850FM-12+021799999V0200501N004019999999N0150001N1+01341+00531101551ADDAA199000091GF108991021001999999031051KA1999N+01081MD1810061+9999REMSYN070AAXX  22061 26882 32965 80504 10134 20053 40155 58006 82035 333 20108;EQDQ01  00002PRCP99
0112268820999992000042209004+53970+032850FM-12+021799999V0200401N004012200019N0200001N1+01931+00211101521ADDGF102991001001999999001051MD1310011+9999REMSYN060AAXX  22091 26882 42970 20404 10193 20021 40152 53001 80005;
0112268820999992000042215004+53970+032850FM-12+021799999V0200201N004012200019N0200001N1+02101+00001101191ADDGF104991001001999999001011MD1710111+9999REMSYN060AAXX  22151 26882 42970 40204 10210 20000 40119 57011 80001;
0165268820999992000042218004+53970+032850FM-12+021799999V0200101N002012200019N0140001N1+01711+00171101251ADDAA199000091GF103991031001999999031001KA1999M+02101MD1210021+9999REMSYN070AAXX  22181 26882 32964 30102 10171 20017 40125 52002 83030 333 10210;EQDQ01  00002PRCP99
0122268820999992000042221004+53970+032850FM-12+021799999V0200101N001012200019N0120001N1+01501+00621101201ADDGA1001+999999999GF100991001001999999001001MD1410001+9999REMSYN054AAXX  22211 26882 42962 00101 10150 20062 40120 54000;
0143268820999992000042300004+53970+032850FM-12+021799999V0200101N003012200019N0150001N1+01151+00301999999ADDGA1001+999999999GF100991001001999999001001MA1999999098591MD1710031+9999REMSYN060AAXX  23001 26882 42965 00103 10115 20030 39859 40/// 57003;
0122268820999992000042303004+53970+032850FM-12+021799999V0200101N003019999999N0200001N1+01051+00291101311ADDGF106991001001999999001011MD1210031+9999REMSYN070AAXX  23031 26882 42970 60103 10105 20029 40131 52003 80001 333 55103;
0165268820999992000042306004+53970+032850FM-12+021799999V0200301N005019999999N0200001N1+01581+00361101281ADDAA199000091GF106991001001999999001011KA1999N+00981MD1210021+9999REMSYN070AAXX  23061 26882 32970 60305 10158 20036 40128 52002 80001 333 20098;EQDQ01  00002PRCP99
0132268820999992000042309004+53970+032850FM-12+021799999V0200601N007012200019N0150001N1+02131+00171101231ADDGA1001+999999999GF100991001001999999001001MD1410001+9999REMSYN064AAXX  23091 26882 42965 00607 10213 20017 40123 54000 333 91116;
0133268820999992000042312004+53970+032850FM-12+021799999V0200701N007019999999N0150001N1+02301+00021101201ADDGF106991001001999999001011MA1999999098631MD1810011+9999REMSYN066AAXX  23121 26882 42965 60707 10230 20002 39863 40120 58001 80001;
0143268820999992000042315004+53970+032850FM-12+021799999V0200701N005010300019N0130001N1+02201+00411101251ADDGF107991021021012501031011MA1999999098671MD1310041+9999REMSYN076AAXX  23151 26882 42663 70705 10220 20041 39867 40125 53004 82231 333 91114;
0165268820999992000042318004+53970+032850FM-12+021799999V0200701N003019999999N0150001N1+01841+00811101491ADDAA199000091GF105991001001999999001011KA1999M+02351MD1210201+9999REMSYN070AAXX  23181 26882 32965 50703 10184 20081 40149 52020 80001 333 10235;EQDQ01  00002PRCP99
0122268820999992000042321004+53970+032850FM-12+021799999V0200501N001012200019N0180001N1+01501+00851101611ADDGA1001+999999999GF100991001001999999001001MD1210091+9999REMSYN054AAXX  23211 26882 42968 00501 10150 20085 40161 52009;
0133268820999992000042400004+53970+032850FM-12+021799999V0200501N001019999999N0110001N1+01191+00821101751ADDGF106991001001999999001011MA1999999099071MD1210111+9999REMSYN066AAXX  24001 26882 42961 60501 10119 20082 39907 40175 52011 80001;
0122268820999992000042403004+53970+032850FM-12+021799999V0200201N002012200019N0150001N1+01041+00771101781ADDGF102991001001999999001011MD1210021+9999REMSYN070AAXX  24031 26882 42965 20202 10104 20077 40178 52002 80001 333 55124;
0165268820999992000042406004+53970+032850FM-12+021799999V0201201N005012200019N0200001N1+01651+01131101891ADDAA199000091GF101991011011008001001001KA1999N+01041MD1210161+9999REMSYN070AAXX  24061 26882 32570 11205 10165 20113 40189 52016 81100 333 20104;EQDQ01  00002PRCP99
0112268820999992000042409004+53970+032850FM-12+021799999V0201201N006012200019N0200001N1+01971+01071101941ADDGF102991021011012501001001MD1210071+9999REMSYN060AAXX  24091 26882 42670 21206 10197 20107 40194 52007 82100;
0122268820999992000042415004+53970+032850FM-12+021799999V0201201N003012200019N0200001N1+02211+00561101841ADDGA1001+999999999GF100991001001999999001001MD1710061+9999REMSYN054AAXX  24151 26882 42970 01203 10221 20056 40184 57006;
0175268820999992000042418004+53970+032850FM-12+021799999V0201201N001012200019N0200001N1+01811+00891101851ADDAA199000091GA1001+999999999GF100991001001999999001001KA1999M+02301MD1710021+9999REMSYN064AAXX  24181 26882 32970 01201 10181 20089 40185 57002 333 10230;EQDQ01  00002PRCP99
0122268820999992000042421004+53970+032850FM-12+021799999V0209999C000012200019N0220001N1+01451+00851101911ADDGA1001+999999999GF100991001001999999001001MD1210031+9999REMSYN054AAXX  24211 26882 42972 00000 10145 20085 40191 52003;
0143268820999992000042500004+53970+032850FM-12+021799999V0209999C000012200019N0130001N1+01211+00821101991ADDGA1001+999999999GF100991001001999999001001MA1999999099301MD1210051+9999REMSYN060AAXX  25001 26882 42963 00000 10121 20082 39930 40199 52005;
0160268820999992000042503004+53970+032850FM-12+021799999V0209999C000012200019N0022001N1+00851+00741102021ADDAY101031AY201031GA1001+999999999GF100991001001999999001001MD1410001+9999MW1101REMSYN070AAXX  25031 26882 41922 00000 10085 20074 40202 54000 71000 333 55129;
0175268820999992000042506004+53970+032850FM-12+021799999V0201101N002012200019N0200001N1+01511+00991102001ADDAA199000091GA1001+999999999GF100991001001999999001001KA1999N+00841MD1210041+9999REMSYN064AAXX  25061 26882 32970 01102 10151 20099 40200 52004 333 20084;EQDQ01  00002PRCP99
0122268820999992000042509004+53970+032850FM-12+021799999V0201401N004012200019N0200001N1+02111+00231101931ADDGA1001+999999999GF100991001001999999001001MD1710021+9999REMSYN054AAXX  25091 26882 42970 01404 10211 20023 40193 57002;
0143268820999992000042512004+53970+032850FM-12+021799999V0201601N002012200019N0200001N1+02251+00321101841ADDGA1001+999999999GF100991001001999999001001MA1999999099241MD1710081+9999REMSYN060AAXX  25121 26882 42970 01602 10225 20032 39924 40184 57008;
0122268820999992000042515004+53970+032850FM-12+021799999V0201701N003012200019N0200001N1+02271+00061101701ADDGA1001+999999999GF100991001001999999001001MD1710131+9999REMSYN054AAXX  25151 26882 42970 01703 10227 20006 40170 57013;
0165268820999992000042518004+53970+032850FM-12+021799999V0201801N001012200019N0200001N1+01851+00451101771ADDAA199000091GF101991001001999999001011KA1999M+02331MD1310031+9999REMSYN070AAXX  25181 26882 32970 11801 10185 20045 40177 53003 80001 333 10233;EQDQ01  00002PRCP99
0122268820999992000042521004+53970+032850FM-12+021799999V0209999C000012200019N0250001N1+01511+00741101781ADDGA1001+999999999GF100991001001999999001001MD1810011+9999REMSYN054AAXX  25211 26882 42975 00000 10151 20074 40178 58001;
0143268820999992000042600004+53970+032850FM-12+021799999V0209999C000012200019N0150001N1+01351+00761101791ADDGA1001+999999999GF100991001001999999001001MA1999999099131MD1410001+9999REMSYN060AAXX  26001 26882 42965 00000 10135 20076 39913 40179 54000;
0138268820999992000042603004+53970+032850FM-12+021799999V0209999C000012200019N0180001N1+00991+00581101741ADDGA1001+999999999GF100991001001999999001001MD1810091+9999REMSYN070AAXX  26031 26882 42968 00000 10099 20058 40174 58009 82089 333 55129;
0165268820999992000042606004+53970+032850FM-12+021799999V0209999C000019999999N0150001N1+01541+00711101621ADDAA199000091GF106991001001999999001091KA1999N+00891MD1710061+9999REMSYN070AAXX  26061 26882 32965 60000 10154 20071 40162 57006 80009 333 20089;EQDQ01  00002PRCP99
0112268820999992000042609004+53970+032850FM-12+021799999V0203301N002019999999N0200001N1+02181+00381101521ADDGF105991021001999999081091MD1710051+9999REMSYN060AAXX  26091 26882 42970 53302 10218 20038 40152 57005 82089;
0133268820999992000042612004+53970+032850FM-12+021799999V0202801N002010300019N0200001N1+02261+00271101461ADDGF107991011011012501031011MA1999999098871MD1710061+9999REMSYN066AAXX  26121 26882 42670 72802 10226 20027 39887 40146 57006 81131;
0112268820999992000042615004+53970+032850FM-12+021799999V0202001N002019999999N0200001N1+02201+00711101391ADDGF107991031001999999031051MD1710061+9999REMSYN060AAXX  26151 26882 42970 72002 10220 20071 40139 57006 83035;
0122268820999992000042621004+53970+032850FM-12+021799999V0202401N004012200019N0230001N1+01391+00591101551ADDGA1001+999999999GF100991001001999999001001MD1210041+9999REMSYN054AAXX  26211 26882 42973 02404 10139 20059 40155 52004;
0143268820999992000042700004+53970+032850FM-12+021799999V0202601N003012200019N0210001N1+01201+00651101591ADDGA1001+999999999GF100991001001999999001001MA1999999098911MD1210021+9999REMSYN060AAXX  27001 26882 42971 02603 10120 20065 39891 40159 52002;
0141268820999992000042703004+53970+032850FM-12+021799999V0203001N002012200019N0200001N1+01181+00651101721ADDGF103991999001999999031001MD1210131+9999REMSYN070AAXX  27031 26882 42970 33002 10118 20065 40172 52013 87030 333 55105;EQDQ01+000072SCOTLC
0165268820999992000042706004+53970+032850FM-12+021799999V0203301N002012200019N0200001N1+01621+00861101821ADDAA199000091GF102991001001999999001011KA1999N+01001MD1210131+9999REMSYN070AAXX  27061 26882 32970 23302 10162 20086 40182 52013 80001 333 20100;EQDQ01  00002PRCP99
0122268820999992000042709004+53970+032850FM-12+021799999V0203401N004012200019N0200001N1+02241+00651101921ADDGA1001+999999999GF100991001001999999001001MD1210161+9999REMSYN054AAXX  27091 26882 42970 03404 10224 20065 40192 52016;
0133268820999992000042712004+53970+032850FM-12+021799999V0203301N004012200019N0200001N1+02351+00761102011ADDGF103991031021012501001001MA1999999099411MD1210081+9999REMSYN066AAXX  27121 26882 42670 33304 10235 20076 39941 40201 52008 83200;
0112268820999992000042715004+53970+032850FM-12+021799999V0203601N005012200019N0200001N1+02321+00671102011ADDGF101991011021012501001001MD1110011+9999REMSYN060AAXX  27151 26882 42670 13605 10232 20067 40201 51001 81200;
0165268820999992000042718004+53970+032850FM-12+021799999V0203601N002012200019N0200001N1+01921+00771102141ADDAA199000091GF102991001001999999001011KA1999M+02411MD1210091+9999REMSYN070AAXX  27181 26882 32970 23602 10192 20077 40214 52009 80001 333 10241;EQDQ01  00002PRCP99
0122268820999992000042721004+53970+032850FM-12+021799999V0200501N002012200019N0500001N1+01441+00411102381ADDGA1001+999999999GF100991001001999999001001MD1210191+9999REMSYN054AAXX  27211 26882 42984 00502 10144 20041 40238 52019;
0143268820999992000042800004+53970+032850FM-12+021799999V0209999C000012200019N0400001N1+01161+00321102491ADDGA1001+999999999GF100991001001999999001001MA1999999099781MD1210081+9999REMSYN060AAXX  28001 26882 42982 00000 10116 20032 39978 40249 52008;
0122268820999992000042803004+53970+032850FM-12+021799999V0209999C000012200019N0200001N1+00911+00361102641ADDGF103991001001999999001011MD1210121+9999REMSYN070AAXX  28031 26882 42970 30000 10091 20036 40264 52012 80001 333 55124;
0165268820999992000042806004+53970+032850FM-12+021799999V0200601N001012200019N0200001N1+01431+00561102731ADDAA199000091GF102991001001999999001011KA1999N+00881MD1210141+9999REMSYN070AAXX  28061 26882 32970 20601 10143 20056 40273 52014 80001 333 20088;EQDQ01  00002PRCP99
0112268820999992000042809004+53970+032850FM-12+021799999V0200401N003012200019N0200001N1+01891+00211102671ADDGF103991001001999999001011MD1810011+9999REMSYN060AAXX  28091 26882 42970 30403 10189 20021 40267 58001 80001;
0152268820999992000042812004+53970+032850FM-12+021799999V0200601N002019999999N0200001N1+02071+00321999999ADDGF106991001001999999001011MA1999999099991MD1710041+9999REMSYN066AAXX  28121 26882 42970 60602 10207 20032 39999 40032 57004 80001;EQDQ01+100323APOSLP
0112268820999992000042815004+53970+032850FM-12+021799999V0200601N001012200019N0200001N1+02111+00321102531ADDGF103991001001999999001011MD1710081+9999REMSYN060AAXX  28151 26882 42970 30601 10211 20032 40253 57008 80001;
0165268820999992000042818004+53970+032850FM-12+021799999V0209999C000012200019N0200001N1+01671+00531102511ADDAA199000091GF102991001001999999001011KA1999M+02151MD1710041+9999REMSYN070AAXX  28181 26882 32970 20000 10167 20053 40251 57004 80001 333 10215;EQDQ01  00002PRCP99
0122268820999992000042821004+53970+032850FM-12+021799999V0209999C000012200019N0200001N1+01241+00561102521ADDGA1001+999999999GF100991001001999999001001MD1710061+9999REMSYN054AAXX  28211 26882 42970 00000 10124 20056 40252 57006;
0143268820999992000042900004+53970+032850FM-12+021799999V0209999C000012200019N0260001N1+01071+00361102571ADDGA1001+999999999GF100991001001999999001001MA1999999099851MD1810061+9999REMSYN060AAXX  29001 26882 42976 00000 10107 20036 39985 40257 58006;
0122268820999992000042903004+53970+032850FM-12+021799999V0202201N005012200019N0200001N1+00881+00431102571ADDGF104991021001999999031011MD1710021+9999REMSYN070AAXX  29031 26882 42970 42205 10088 20043 40257 57002 82031 333 55126;
0165268820999992000042906004+53970+032850FM-12+021799999V0202401N003019999999N0200001N1+01351+00761102491ADDAA199000091GF106991061001999999031001KA1999N+00701MD1710031+9999REMSYN070AAXX  29061 26882 32970 62403 10135 20076 40249 57003 86030 333 20070;EQDQ01  00002PRCP99
0112268820999992000042909004+53970+032850FM-12+021799999V0203201N004019999999N0200001N1+02031+00671102351ADDGF105991051001999999031001MD1710071+9999REMSYN060AAXX  29091 26882 42970 53204 10203 20067 40235 57007 85030;
0133268820999992000042912004+53970+032850FM-12+021799999V0203001N004010300019N0200001N1+02211+00611102101ADDGF106991031021008001031001MA1999999099491MD1710241+9999REMSYN066AAXX  29121 26882 42570 63004 10221 20061 39949 40210 57024 83230;
0140268820999992000042915004+53970+032850FM-12+021799999V0202801N006010300019N0200001N1+02011+01141101941ADDAY181031AY221031GF106991031021008001031001MD1710161+9999MW1021REMSYN066AAXX  29151 26882 42570 62806 10201 20114 40194 57016 70282 83230;
0180268820999992000042918004+53970+032850FM-12+021799999V0203001N006019999999N0180001N1+01551+00731101961ADDAA112000891AY181061AY221061GF106991001001999999001031KA1999M+02351MD1710021+9999MW1021REMSYN082AAXX  29181 26882 11968 63006 10155 20073 40196 57002 69982 70282 80003 333 10235;
0122268820999992000042921004+53970+032850FM-12+021799999V0203101N004012200019N0170001N1+01121+00561102001ADDGA1001+999999999GF100991001001999999001001MD1410001+9999REMSYN054AAXX  29211 26882 42967 03104 10112 20056 40200 54000;
0133268820999992000043000004+53970+032850FM-12+021799999V0203201N003012200019N0140001N1+01081+00791101961ADDGF104991001001999999001011MA1999999099261MD1810051+9999REMSYN066AAXX  30001 26882 42964 43203 10108 20079 39926 40196 58005 80001;
0122268820999992000043003004+53970+032850FM-12+021799999V0202601N002019999999N0170001N1+00991+00761101971ADDGF107991061001999999041021MD1410001+9999REMSYN070AAXX  30031 26882 42967 72602 10099 20076 40197 54000 86042 333 55067;
0165268820999992000043006004+53970+032850FM-12+021799999V0202901N004019999999N0200001N1+01521+00731101771ADDAA199000091GF107991021001999999031011KA1999N+00951MD1810141+9999REMSYN070AAXX  30061 26882 32970 72904 10152 20073 40177 58014 82031 333 20095;EQDQ01  00002PRCP99
0140268820999992000043009004+53970+032850FM-12+021799999V0203201N007010300019N0200001N1+01541+00891101691ADDAY121031AY221031GF107991031021008001061001MD1710071+9999MW1251REMSYN066AAXX  30091 26882 41570 73207 10154 20089 40169 57007 72522 83260;
0161268820999992000043012004+53970+032850FM-12+021799999V0203301N008010300019N0200001N1+01501+00891101661ADDAY181061AY221061GF106991031021012501031001MA1999999099011MD1710041+9999MW1021REMSYN072AAXX  30121 26882 41670 63308 10150 20089 39901 40166 57004 70282 83230;
0112268820999992000043015004+53970+032850FM-12+021799999V0203401N006010300019N0200001N1+01581+00251101581ADDGF106991021021012501031011MD1710071+9999REMSYN060AAXX  30151 26882 42670 63406 10158 20025 40158 57007 82231;
0152268820999992000043018004+53970+032850FM-12+021799999V0200201N003019999999N0200001N1+01051+00171101771ADDAA112000791GF106991061001999999031001KA1999M+01761MD1210131+9999REMSYN076AAXX  30181 26882 12970 60203 10105 20017 40177 52013 69902 86030 333 10176;
0122268820999992000043021004+53970+032850FM-12+021799999V0200501N001012200019N0500001N1+00691+00121101901ADDGA1001+999999999GF100991001001999999001001MD1210091+9999REMSYN054AAXX  30211 26882 42984 00501 10069 20012 40190 52009;
0143268820999992000050100004+53970+032850FM-12+021799999V0200201N002012200019N0500001N1+00441+00021101961ADDGA1001+999999999GF100991001001999999001001MA1999999099191MD1210031+9999REMSYN060AAXX  01001 26882 42984 00202 10044 20002 39919 40196 52003;
0132268820999992000050103004+53970+032850FM-12+021799999V0203601N004012200019N0200001N1+00041-00321102071ADDGA1001+999999999GF100991001001999999001001MD1210071+9999REMSYN064AAXX  01031 26882 42970 03604 10004 21032 40207 52007 333 55092;
0175268820999992000050106004+53970+032850FM-12+021799999V0200101N005012200019N0200001N1+00361-00791102041ADDAA199000091GA1001+999999999GF100991001001999999001001KA1999N+00001MD1410001+9999REMSYN064AAXX  01061 26882 32970 00105 10036 21079 40204 54000 333 20000;EQDQ01  00002PRCP99
0112268820999992000050109004+53970+032850FM-12+021799999V0203601N008012200019N0200001N1+00521-01011101991ADDGF102991021021012501001001MD1810031+9999REMSYN060AAXX  01091 26882 42670 23608 10052 21101 40199 58003 82200;
0133268820999992000050112004+53970+032850FM-12+021799999V0203501N006012200019N0200001N1+00671-01151101951ADDGF103991031021012501001001MA1999999099201MD1710031+9999REMSYN066AAXX  01121 26882 42670 33506 10067 21115 39920 40195 57003 83200;
0112268820999992000050115004+53970+032850FM-12+021799999V0203501N007012200019N0200001N1+00571-01331101961ADDGF103991031021012501001001MD1410001+9999REMSYN060AAXX  01151 26882 42670 33507 10057 21133 40196 54000 83200;
0165268820999992000050118004+53970+032850FM-12+021799999V0203601N004012200019N0200001N1+00321-01191102061ADDAA199000091GF102991021041012501001001KA1999M+00791MD1310071+9999REMSYN070AAXX  01181 26882 32670 23604 10032 21119 40206 53007 82400 333 10079;EQDQ01  00002PRCP99
0122268820999992000050121004+53970+032850FM-12+021799999V0203401N003012200019N0500001N1+00041-00931102101ADDGA1001+999999999GF100991001001999999001001MD1210021+9999REMSYN054AAXX  01211 26882 42984 03403 10004 21093 40210 52002;
0143268820999992000050200004+53970+032850FM-12+021799999V0209999C000012200019N0500001N1-00161-00901102191ADDGA1001+999999999GF100991001001999999001001MA1999999099361MD1210071+9999REMSYN060AAXX  02001 26882 42984 00000 11016 21090 39936 40219 52007;
0132268820999992000050203004+53970+032850FM-12+021799999V0203301N004012200019N0200001N1-00241-00971102331ADDGA1001+999999999GF100991001001999999001001MD1210121+9999REMSYN064AAXX  02031 26882 42970 03304 11024 21097 40233 52012 333 55123;
0175268820999992000050206004+53970+032850FM-12+021799999V0203501N006012200019N0200001N1+00101-00321102451ADDAA199000091GA1001+999999999GF100991001001999999001001KA1999N-00271MD1210161+9999REMSYN064AAXX  02061 26882 32970 03506 10010 21032 40245 52016 333 21027;EQDQ01  00002PRCP99
0122268820999992000050209004+53970+032850FM-12+021799999V0203401N006012200019N0200001N1+00461-00961102451ADDGA1001+999999999GF100991001001999999001001MD1210031+9999REMSYN054AAXX  02091 26882 42970 03406 10046 21096 40245 52003;
0143268820999992000050212004+53970+032850FM-12+021799999V0203101N006012200019N0200001N1+00771-01031102371ADDGA1001+999999999GF100991001001999999001001MA1999999099621MD1810051+9999REMSYN060AAXX  02121 26882 42970 03106 10077 21103 39962 40237 58005;
0122268820999992000050215004+53970+032850FM-12+021799999V0203501N007012200019N0200001N1+00831-01331102341ADDGA1001+999999999GF100991001001999999001001MD1710021+9999REMSYN054AAXX  02151 26882 42970 03507 10083 21133 40234 57002;
0175268820999992000050218004+53970+032850FM-12+021799999V0203301N003012200019N0200001N1+00501-00941102361ADDAA199000091GA1001+999999999GF100991001001999999001001KA1999M+00891MD1710021+9999REMSYN064AAXX  02181 26882 32970 03303 10050 21094 40236 57002 333 10089;EQDQ01  00002PRCP99
0122268820999992000050221004+53970+032850FM-12+021799999V0203301N003012200019N0500001N1+00201-01021102451ADDGA1001+999999999GF100991001001999999001001MD1310051+9999REMSYN054AAXX  02211 26882 42984 03303 10020 21102 40245 53005;
0143268820999992000050300004+53970+032850FM-12+021799999V0209999C000012200019N0500001N1+00031-00761102471ADDGA1001+999999999GF100991001001999999001001MA1999999099651MD1210021+9999REMSYN060AAXX  03001 26882 42984 00000 10003 21076 39965 40247 52002;
0122268820999992000050303004+53970+032850FM-12+021799999V0209999C000019999999N0200001N1-00081-00661102501ADDGF105991001001999999001011MD1210021+9999REMSYN070AAXX  03031 26882 42970 50000 11008 21066 40250 52002 80001 333 55137;
0175268820999992000050306004+53970+032850FM-12+021799999V0203401N001012200019N0200001N1+00591-00591102511ADDAA199000091GA1001+999999999GF100991001001999999001001KA1999N-00111MD1210071+9999REMSYN064AAXX  03061 26882 32970 03401 10059 21059 40251 52007 333 21011;EQDQ01  00002PRCP99
0122268820999992000050309004+53970+032850FM-12+021799999V0202901N004012200019N0200001N1+00951-00741102471ADDGA1001+999999999GF100991001001999999001001MD1410001+9999REMSYN054AAXX  03091 26882 42970 02904 10095 21074 40247 54000;
0133268820999992000050312004+53970+032850FM-12+021799999V0203301N006019999999N0200001N1+01171-00781102301ADDGF105991001001999999001011MA1999999099591MD1710151+9999REMSYN066AAXX  03121 26882 42970 53306 10117 21078 39959 40230 57015 80001;
0112268820999992000050315004+53970+032850FM-12+021799999V0203201N005019999999N0200001N1+01231-00781102191ADDGF105991001001999999001011MD1710101+9999REMSYN060AAXX  03151 26882 42970 53205 10123 21078 40219 57010 80001;
0165268820999992000050318004+53970+032850FM-12+021799999V0203001N002012200019N0200001N1+00651-00571102241ADDAA199000091GF102991001001999999001011KA1999M+01291MD1610011+9999REMSYN070AAXX  03181 26882 32970 23002 10065 21057 40224 56001 80001 333 10129;EQDQ01  00002PRCP99
0152268820999992000050321004+53970+032850FM-12+021799999V0203001N001012200019N0200001N1+00401-00511102271ADDAA199000091GA1001+999999999GF100991001001999999001001MD1410001+9999REMSYN054AAXX  03211 26882 32970 03001 10040 21051 40227 54000;EQDQ01  00002PRCP99
0143268820999992000050400004+53970+032850FM-12+021799999V0202301N003012200019N0400001N1+00201-00561102241ADDGA1001+999999999GF100991001001999999001001MA1999999099441MD1810041+9999REMSYN060AAXX  04001 26882 42982 02303 10020 21056 39944 40224 58004;
0122268820999992000050403004+53970+032850FM-12+021799999V0202301N004019999999N0200001N1+00181-00431102271ADDGF107991071001999999081001MD1310021+9999REMSYN070AAXX  04031 26882 42970 72304 10018 21043 40227 53002 87080 333 55134;
0165268820999992000050406004+53970+032850FM-12+021799999V0202701N004019999999N0200001N1+00841-00051102021ADDAA199000091GF107991071001999999051001KA1999N+00111MD1810171+9999REMSYN070AAXX  04061 26882 32970 72704 10084 21005 40202 58017 87050 333 20011;EQDQ01  00002PRCP99
0112268820999992000050409004+53970+032850FM-12+021799999V0202601N005019999999N0200001N1+01161-00051101941ADDGF107991071001999999051001MD1710051+9999REMSYN060AAXX  04091 26882 42970 72605 10116 21005 40194 57005 87050;
0133268820999992000050412004+53970+032850FM-12+021799999V0202701N008019999999N0200001N1+01421-00171101771ADDGF107991071001999999051001MA1999999099111MD1710131+9999REMSYN066AAXX  04121 26882 42970 72708 10142 21017 39911 40177 57013 87050;
0140268820999992000050415004+53970+032850FM-12+021799999V0203001N006019999999N0200001N1+00961+00171101891ADDAY181031AY221031GF108991081001999999071999MD1310061+9999MW1021REMSYN066AAXX  04151 26882 41970 83006 10096 20017 40189 53006 70282 8807/;
0180268820999992000050418004+53970+032850FM-12+021799999V0203101N003019999999N0090001N1+00671+00561101931ADDAA112000591AY181061AY261061GF108991081001999999071999KA1999M+01431MD1210021+9999MW1611REMSYN082AAXX  04181 26882 11959 83103 10067 20056 40193 52002 69942 76186 8807/ 333 10143;
0150268820999992000050421004+53970+032850FM-12+021799999V0202801N003012200019N0200001N1+00451+00281101841ADDAY161031AY211031GA1001+999999999GF100991001001999999001001MD1710021+9999MW1021REMSYN060AAXX  04211 26882 41970 02803 10045 20028 40184 57002 70261;
0171268820999992000050500004+53970+032850FM-12+021799999V0202501N002012200019N0150001N1+00201-00021101961ADDAY161061AY211061GA1001+999999999GF100991001001999999001001MA1999999099171MD1410001+9999MW1021REMSYN066AAXX  05001 26882 41965 02502 10020 21002 39917 40196 54000 70261;
0160268820999992000050503004+53970+032850FM-12+021799999V0202401N002010003019N0002001N1+00071+00071101981ADDAY141031AY211031GA1091+999999999GF109991091999999999999999MD1410001+9999MW1471REMSYN070AAXX  05031 26882 41/92 92402 10007 20007 40198 54000 74741 333 55002;
0174268820999992000050506004+53970+032850FM-12+021799999V0203501N002012200019N0200001N1+00741+00461102061ADDAA199000021AY141061AY211061GF102991011061004501031001KA1999N+00051MD1310151+9999MW1011REMSYN076AAXX  05061 26882 31470 23502 10074 20046 40206 53015 70141 81630 333 20005;
0112268820999992000050509004+53970+032850FM-12+021799999V0200301N003012200019N0200001N1+01191+00131102021ADDGF103991031021008001001001MD1110011+9999REMSYN060AAXX  05091 26882 42570 30303 10119 20013 40202 51001 83200;
0133268820999992000050512004+53970+032850FM-12+021799999V0202901N002012200019N0200001N1+01371+00071101991ADDGF104991041021008001001001MA1999999099311MD1210021+9999REMSYN066AAXX  05121 26882 42570 42902 10137 20007 39931 40199 52002 84200;
0112268820999992000050515004+53970+032850FM-12+021799999V0202901N002012200019N0200001N1+01471-00141101851ADDGF106991021011012501001011MD1810131+9999REMSYN060AAXX  05151 26882 42670 62902 10147 21014 40185 58013 82101;
0165268820999992000050518004+53970+032850FM-12+021799999V0202801N002019999999N0200001N1+00961+00231101871ADDAA199000091GF106991001001999999001011KA1999M+01521MD1710031+9999REMSYN070AAXX  05181 26882 32970 62802 10096 20023 40187 57003 80001 333 10152;EQDQ01  00002PRCP99
0112268820999992000050521004+53970+032850FM-12+021799999V0202201N003012200019N0400001N1+00661+00141101851ADDGF104991001001999999001011MD1710041+9999REMSYN060AAXX  05211 26882 42982 42203 10066 20014 40185 57004 80001;
0133268820999992000050600004+53970+032850FM-12+021799999V0202201N005019999999N0400001N1+00521+00081101771ADDGF106991001001999999001011MA1999999099021MD1710091+9999REMSYN066AAXX  06001 26882 42982 62205 10052 20008 39902 40177 57009 80001;
0122268820999992000050603004+53970+032850FM-12+021799999V0202201N005019999999N0200001N1+00491+00081101661ADDGF106991001001999999001011MD1710111+9999REMSYN070AAXX  06031 26882 42970 62205 10049 20008 40166 57011 80001 333 55115;
0165268820999992000050606004+53970+032850FM-12+021799999V0202401N004019999999N0200001N1+01041+00301101561ADDAA199000091GF108991001001999999001071KA1999N+00441MD1710051+9999REMSYN070AAXX  06061 26882 32970 82404 10104 20030 40156 57005 80007 333 20044;EQDQ01  00002PRCP99
0112268820999992000050609004+53970+032850FM-12+021799999V0202701N006019999999N0200001N1+01511+00041101401ADDGF107991031001999999081081MD1710111+9999REMSYN060AAXX  06091 26882 42970 72706 10151 20004 40140 57011 83088;
0133268820999992000050612004+53970+032850FM-12+021799999V0202901N007012200019N0200001N1+01751+00021101191ADDGF104991041021012501001001MA1999999098561MD1710191+9999REMSYN066AAXX  06121 26882 42670 42907 10175 20002 39856 40119 57019 84200;
0112268820999992000050615004+53970+032850FM-12+021799999V0203101N008012200019N0200001N1+01661-00091101131ADDGF104991041021012501001001MD1710061+9999REMSYN060AAXX  06151 26882 42670 43108 10166 21009 40113 57006 84200;
0171268820999992000050618004+53970+032850FM-12+021799999V0200101N006012200019N0200001N1+01111-00271101361ADDAA199000091GF104991041041012501001001KA1120M+01831MD1310191+9999REMSYN076AAXX  06181 26882 32670 40106 10111 21027 40136 53019 84400 333 10183 9111/;EQDQ01  00002PRCP99
0122268820999992000050621004+53970+032850FM-12+021799999V0203501N004012200019N0500001N1+99999+99999101561ADDGA1001+999999999GF100991001001999999001001MD1210141+9999REMSYN054AAXX  06211 26882 42984 03504 10/68 21005 40156 52014;
0143268820999992000050700004+53970+032850FM-12+021799999V0203301N003012200019N0500001N1+00421+00001101651ADDGA1001+999999999GF100991001001999999001001MA1999999098891MD1210061+9999REMSYN060AAXX  07001 26882 42984 03303 10042 20000 39889 40165 52006;
0122268820999992000050703004+53970+032850FM-12+021799999V0203301N004012200019N0200001N1+00291+00021101831ADDGF102991021001999999081001MD1210171+9999REMSYN070AAXX  07031 26882 42970 23304 10029 20002 40183 52017 82080 333 55099;
0165268820999992000050706004+53970+032850FM-12+021799999V0203501N007012200019N0200001N1+00711-00051102051ADDAA199000091GF102991021081008001001001KA1999N+00271MD1210251+9999REMSYN070AAXX  07061 26882 32570 23507 10071 21005 40205 52025 82800 333 20027;EQDQ01  00002PRCP99
0138268820999992000050709004+53970+032850FM-12+021799999V0200101N007010123019N0200001N1+00951-00251102231ADDGA1061+012309089GF106991061081012501001001MD1210191+9999REMSYN070AAXX  07091 26882 42670 60107 10095 21025 40223 52019 86800 333 86241;
0133268820999992000050712004+53970+032850FM-12+021799999V0200201N005012200019N0200001N1+01201-00361102291ADDGF103991031081012501001001MA1999999099591MD1110091+9999REMSYN066AAXX  07121 26882 42670 30205 10120 21036 39959 40229 51009 83800;
0112268820999992000050715004+53970+032850FM-12+021799999V0203601N007012200019N0200001N1+01251-00441102251ADDGF104991041081012501001001MD1810031+9999REMSYN060AAXX  07151 26882 42670 43607 10125 21044 40225 58003 84800;
0165268820999992000050718004+53970+032850FM-12+021799999V0203601N002012200019N0200001N1+00951-00251102391ADDAA199000091GF102991021001999999061001KA1999M+01351MD1310101+9999REMSYN070AAXX  07181 26882 32970 23602 10095 21025 40239 53010 82060 333 10135;EQDQ01  00002PRCP99
0122268820999992000050721004+53970+032850FM-12+021799999V0203601N001012200019N0500001N1+00551-00121102481ADDGA1001+999999999GF100991001001999999001001MD1210061+9999REMSYN054AAXX  07211 26882 42984 03601 10055 21012 40248 52006;
0143268820999992000050800004+53970+032850FM-12+021799999V0209999C000012200019N0500001N1+00351-00181102511ADDGA1001+999999999GF100991001001999999001001MA1999999099721MD1110021+9999REMSYN060AAXX  08001 26882 42984 00000 10035 21018 39972 40251 51002;
0122268820999992000050803004+53970+032850FM-12+021799999V0209999C000019999999N0200001N1+00241-00121102561ADDGF106991011001999999041011MD1310031+9999REMSYN070AAXX  08031 26882 42970 60000 10024 21012 40256 53003 81041 333 55127;
0165268820999992000050806004+53970+032850FM-12+021799999V0203101N004012200019N0200001N1+01051-00121102501ADDAA199000091GF104991001001999999001011KA1999N+00151MD1210021+9999REMSYN070AAXX  08061 26882 32970 43104 10105 21012 40250 52002 80001 333 20015;EQDQ01  00002PRCP99
0112268820999992000050809004+53970+032850FM-12+021799999V0203401N005012200019N0200001N1+01451-00021102351ADDGF103991021011012501031001MD1810101+9999REMSYN060AAXX  08091 26882 42670 33405 10145 21002 40235 58010 82130;
0133268820999992000050812004+53970+032850FM-12+021799999V0203201N005012200019N0200001N1+01631-00191102201ADDGF102991011011012501031001MA1999999099541MD1710131+9999REMSYN066AAXX  08121 26882 42670 23205 10163 21019 39954 40220 57013 81130;
0112268820999992000050815004+53970+032850FM-12+021799999V0202901N006012200019N0200001N1+01661-00381102011ADDGF103991001001999999001011MD1710181+9999REMSYN060AAXX  08151 26882 42970 32906 10166 21038 40201 57018 80001;
0165268820999992000050818004+53970+032850FM-12+021799999V0202501N003012200019N0200001N1+01111-00191102041ADDAA199000091GF102991001001999999001011KA1999M+01741MD1710021+9999REMSYN070AAXX  08181 26882 32970 22503 10111 21019 40204 57002 80001 333 10174;EQDQ01  00002PRCP99
0112268820999992000050821004+53970+032850FM-12+021799999V0202701N003012200019N0400001N1+00951+00271102021ADDGF103991001001999999001011MD1710041+9999REMSYN060AAXX  08211 26882 42982 32703 10095 20027 40202 57004 80001;
0133268820999992000050900004+53970+032850FM-12+021799999V0202701N004012200019N0400001N1+00781+00291101961ADDGF102991001001999999001011MA1999999099231MD1710071+9999REMSYN066AAXX  09001 26882 42982 22704 10078 20029 39923 40196 57007 80001;
0122268820999992000050903004+53970+032850FM-12+021799999V0203101N004019999999N0200001N1+00971+00191101831ADDGF107991071001999999081001MD1710101+9999REMSYN070AAXX  09031 26882 42970 73104 10097 20019 40183 57010 87080 333 55135;
0165268820999992000050906004+53970+032850FM-12+021799999V0200101N005019999999N0200001N1+01251+00321101841ADDAA199000091GF105991001001999999001011KA1999N+00751MD1310021+9999REMSYN070AAXX  09061 26882 32970 50105 10125 20032 40184 53002 80001 333 20075;EQDQ01  00002PRCP99
0112268820999992000050909004+53970+032850FM-12+021799999V0200401N005019999999N0200001N1+01481-00171101891ADDGF106991001001999999001011MD1210071+9999REMSYN060AAXX  09091 26882 42970 60405 10148 21017 40189 52007 80001;
0133268820999992000050912004+53970+032850FM-12+021799999V0203301N005012200019N0200001N1+01641-00221101851ADDGF106991021011012501001011MA1999999099201MD1810021+9999REMSYN066AAXX  09121 26882 42670 63305 10164 21022 39920 40185 58002 82101;
0097268820999992000050915004+53970+032850FM-12+021799999V0203201N005019999999N0200001N1+01641-00021101821ADDGF105991999999012501999999REMSYN059AAXX  09151 26882 42670 53205 10164 21002 40182 5700 82131;
0165268820999992000050918004+53970+032850FM-12+021799999V0203401N003012200019N0200001N1+01231+00251101881ADDAA199000091GF102991021001999999031001KA1999M+01721MD1210021+9999REMSYN070AAXX  09181 26882 32970 23403 10123 20025 40188 52002 82030 333 10172;EQDQ01  00002PRCP99
0122268820999992000050921004+53970+032850FM-12+021799999V0209999C000012200019N0270001N1+00991+00341101901ADDGA1001+999999999GF100991001001999999001001MD1410001+9999REMSYN054AAXX  09211 26882 42977 00000 10099 20034 40190 54000;
0143268820999992000051000004+53970+032850FM-12+021799999V0209999C000012200019N0280001N1+00781+00381101921ADDGA1001+999999999GF100991001001999999001001MA1999999099191MD1410001+9999REMSYN060AAXX  10001 26882 42978 00000 10078 20038 39919 40192 54000;
0126268820999992000051003004+53970+032850FM-12+021799999V0209999C000012200019N0200001N1+00501+00171101951ADDGA1001+999999999GF100991001001999999001001MD1410001+9999REMSYN058AAXX  10031 26882 42970 00000 10050 20017 40195 54000 333;
0175268820999992000051006004+53970+032850FM-12+021799999V0203601N003012200019N0200001N1+01251+00361101891ADDAA199000091GA1001+999999999GF100991001001999999001001KA1999N+00461MD1310011+9999REMSYN064AAXX  10061 26882 32970 03603 10125 20036 40189 53001 333 20046;EQDQ01  00002PRCP99
0122268820999992000051009004+53970+032850FM-12+021799999V0203401N005012200019N0200001N1+01611+00061101781ADDGA1001+999999999GF100991001001999999001001MD1710061+9999REMSYN054AAXX  10091 26882 42970 03405 10161 20006 40178 57006;
0133268820999992000051012004+53970+032850FM-12+021799999V0203601N005012200019N0200001N1+01741+00021101721ADDGF102991011011012501001011MA1999999099081MD1710061+9999REMSYN066AAXX  10121 26882 42670 23605 10174 20002 39908 40172 57006 81101;
0112268820999992000051015004+53970+032850FM-12+021799999V0203501N005012200019N0200001N1+01761+00211101671ADDGF102991001001999999001011MD1710051+9999REMSYN060AAXX  10151 26882 42970 23505 10176 20021 40167 57005 80001;
0165268820999992000051018004+53970+032850FM-12+021799999V0209999C000012200019N0150001N1+01401+00431101691ADDAA199000091GF102991001001999999001011KA1999M+01841MD1410001+9999REMSYN070AAXX  10181 26882 32965 20000 10140 20043 40169 54000 80001 333 10184;EQDQ01  00002PRCP99
0112268820999992000051021004+53970+032850FM-12+021799999V0201401N001012200019N0450001N1+01051+00271101691ADDGF104991001001999999001011MD1810041+9999REMSYN060AAXX  10211 26882 42983 41401 10105 20027 40169 58004 80001;
0133268820999992000051100004+53970+032850FM-12+021799999V0201401N002012200019N0400001N1+00771+00251101621ADDGF104991001001999999001011MA1999999098901MD1710091+9999REMSYN066AAXX  11001 26882 42982 41402 10077 20025 39890 40162 57009 80001;
0122268820999992000051103004+53970+032850FM-12+021799999V0202001N001012200019N0200001N1+00601+00291101511ADDGF102991001001999999001011MD1710121+9999REMSYN070AAXX  11031 26882 42970 22001 10060 20029 40151 57012 80001 333 55140;
0175268820999992000051106004+53970+032850FM-12+021799999V0202301N003012200019N0200001N1+01451+00511101281ADDAA199000091GA1001+999999999GF100991001001999999001001KA1999N+00551MD1710151+9999REMSYN064AAXX  11061 26882 32970 02303 10145 20051 40128 57015 333 20055;EQDQ01  00002PRCP99
0112268820999992000051109004+53970+032850FM-12+021799999V0202501N006012200019N0200001N1+01951+00511100961ADDGF106991041021012501001011MD1710261+9999REMSYN060AAXX  11091 26882 42670 62506 10195 20051 40096 57026 84201;
0133268820999992000051112004+53970+032850FM-12+021799999V0202401N007012200019N0200001N1+02131+00401100651ADDGF107991031021012501001011MA1999999098071MD1710301+9999REMSYN066AAXX  11121 26882 42670 72407 10213 20040 39807 40065 57030 83201;
0171268820999992000051118004+53970+032850FM-12+021799999V0203401N007010300019N0200001N1+01291+00621100421ADDAA199000091GF107991021021012501061001KA1120M+02201MD1310021+9999REMSYN076AAXX  11181 26882 32670 73407 10129 20062 40042 53002 82260 333 10220 91114;EQDQ01  00002PRCP99
0140268820999992000051121004+53970+032850FM-12+021799999V0202401N003012200019N0500001N1+00891+00731100291ADDAY181031AY211031GF102991021001999999031001MD1710161+9999MW1011REMSYN066AAXX  11211 26882 41984 22403 10089 20073 40029 57016 70181 82030;
0161268820999992000051200004+53970+032850FM-12+021799999V0202701N004012200019N0500001N1+00621+00361100231ADDAY181061AY211061GF104991041051008001001001MA1999999097531MD1710091+9999MW1031REMSYN072AAXX  12001 26882 41584 42704 10062 20036 39753 40023 57009 70381 84500;
0152268820999992000051203004+53970+032850FM-12+021799999V0203001N003010096019N0200001N1+00461+00151100251ADDGA1061+009609059GF106991061041008001001001GJ106909MD1410001+9999REMSYN076AAXX  12031 26882 42570 63003 10046 20015 40025 54000 86400 333 55115 86632;
0208268820999992000051206004+53970+032850FM-12+021799999V0203101N011010051019N0200001N1+00231+00101100381ADDAA112000591AY181061AY271061GA1071+005109099GF107991071091004501001001KA1120N+00211MD1310111+9999MW1261REMSYN094AAXX  12061 26882 11470 73111 10023 20010 40038 53011 69952 72687 87900 333 20021 87917 91117;
0150268820999992000051209004+53970+032850FM-12+021799999V0203201N011012200019N0200001N1+00501-00061100531ADDAY181031AY271031GF104991041081008001001001MD1210161+9999MW1261REMSYN076AAXX  12091 26882 41570 43211 10050 21006 40053 52016 72687 84800 333 91117;
0171268820999992000051212004+53970+032850FM-12+021799999V0203001N011010300019N0200001N1+00101-00011100771ADDAY181061AY271061GF107991041081008001061001MA1999999098011MD1210211+9999MW1221REMSYN082AAXX  12121 26882 41570 73011 10010 21001 39801 40077 52021 72287 84860 333 91119;
0150268820999992000051215004+53970+032850FM-12+021799999V0203201N010010300019N0200001N1+00421-00161100911ADDAY181031AY221031GF106991041081008001061001MD1210171+9999MW1031REMSYN076AAXX  12151 26882 41570 63210 10042 21016 40091 52017 70382 84860 333 91119;
0225268820999992000051218004+53970+032850FM-12+021799999V0203101N013010045019N0018001N1+00271-00151101091ADDAA112001091AY181061AY211061GA1071+004509099GF107991071091004501001001KA1120M+00641MD1210151+9999MW1861OA140102201REMSYN100AAXX  12181 26882 11418 73113 10027 21015 40109 52015 60012 78681 87900 333 10064 87915 91022 91117;
0150268820999992000051221004+53970+032850FM-12+021799999V0203301N006019999999N0500001N1+00101-00321101201ADDAY181031AY221031GF108991001001999999001011MD1210101+9999MW1021REMSYN076AAXX  12211 26882 41984 83306 10010 21032 40120 52010 70282 80001 333 91122;
0171268820999992000051300004+53970+032850FM-12+021799999V0203201N006012200019N0500001N1-00021-00381101251ADDAY181061AY221061GF103991011001999999041011MA1999999098461MD1210031+9999MW1011REMSYN082AAXX  13001 26882 41984 33206 11002 21038 39846 40125 52003 70182 81041 333 91122;
0141268820999992000051303004+53970+032850FM-12+021799999V0203001N007012200019N0200001N1-00141-00581101361ADDGF102991999001999999041001MD1210091+9999REMSYN070AAXX  13031 26882 42970 23007 11014 21058 40136 52009 81040 333 55035;EQDQ01+000012SCOTLC
0152268820999992000051306004+53970+032850FM-12+021799999V0203001N009012200019N0200001N1+00161-00701101401ADDAA199000021GF104991041021008001001001KA1120N-00141MD1210071+9999REMSYN076AAXX  13061 26882 32570 43009 10016 21070 40140 52007 84200 333 21014 91114;
0144268820999992000051309004+53970+032850FM-12+021799999V0203101N009010060019N0200001N1+00341-00871101361ADDGA1061+006009089GF106991061081004501001001MD1710021+9999REMSYN076AAXX  13091 26882 42470 63109 10034 21087 40136 57002 86800 333 86820 91116;
0143268820999992000051312004+53970+032850FM-12+021799999V0202901N010010300019N0200001N1+00621-00761101251ADDGF107991041021008001031001MA1999999098531MD1710071+9999REMSYN076AAXX  13121 26882 42570 72910 10062 21076 39853 40125 57007 84230 333 91117;
0122268820999992000051315004+53970+032850FM-12+021799999V0203001N011010300019N0200001N1+00691-00681101171ADDGF107991041021008001031001MD1710081+9999REMSYN070AAXX  13151 26882 42570 73011 10069 21068 40117 57008 84230 333 91118;
0187268820999992000051318004+53970+032850FM-12+021799999V0202701N008010102019N0200001N1+00551-00191101101ADDAA199000091GA1061+010209059GF107991061051012501051001KA1120M+00721MD1710081+9999REMSYN076AAXX  13181 26882 32670 72708 10055 21019 40110 57008 86550 333 10072 86634;EQDQ01  00002PRCP99
0122268820999992000051321004+53970+032850FM-12+021799999V0202901N006010042019N0400001N1+00501+00301100981ADDGF107991071071004501001001MD1710121+9999REMSYN070AAXX  13211 26882 42482 72906 10050 20030 40098 57012 87700 333 91115;
0187268820999992000051400004+53970+032850FM-12+021799999V0203101N005010054019N0450001N1+00401+00141100971ADDAY181061AY221061GA1071+005409059GF107991071051004501001001MA1999999098241MD1610011+9999MW1251REMSYN082AAXX  14001 26882 41483 73105 10040 20014 39824 40097 56001 72582 87500 333 87618;
0136268820999992000051403004+53970+032850FM-12+021799999V0203301N006010300019N0200001N1+00141-00211101221ADDGF106991021051004501081001GJ106369MD1310211+9999REMSYN076AAXX  14031 26882 42470 63306 10014 21021 40122 53021 82580 333 55106 91112;
0158268820999992000051406004+53970+032850FM-12+021799999V0203201N009012200019N0200001N1+00501-00481101221ADDAA112000391GF103991031021012501001001KA1120N+00121MD1210031+9999REMSYN082AAXX  14061 26882 12670 33209 10050 21048 40122 52003 69932 83200 333 20012 91114;
0122268820999992000051409004+53970+032850FM-12+021799999V0203001N010010120019N0200001N1+00781-00541101181ADDGF105991051081008001001001MD1810011+9999REMSYN070AAXX  14091 26882 42570 53010 10078 21054 40118 58001 85800 333 91114;
0133268820999992000051412004+53970+032850FM-12+021799999V0203201N011010300019N0200001N1+01021-00711101061ADDGF106991031021012501031011MA1999999098381MD1710091+9999REMSYN066AAXX  14121 26882 42670 63211 10102 21071 39838 40106 57009 83231;
0122268820999992000051415004+53970+032850FM-12+021799999V0203101N008010150019N0200001N1+01121-00501101051ADDGF105991051081012501001001MD1410001+9999REMSYN070AAXX  14151 26882 42670 53108 10112 21050 40105 54000 85800 333 91116;
0171268820999992000051418004+53970+032850FM-12+021799999V0203201N004012200019N0200001N1+00811-00571101111ADDAA199000091GF103991031001999999031001KA1120M+01121MD1210031+9999REMSYN076AAXX  14181 26882 32970 33204 10081 21057 40111 52003 83030 333 10112 91114;EQDQ01  00002PRCP99
0112268820999992000051421004+53970+032850FM-12+021799999V0203001N004012200019N0500001N1+00501-00481101391ADDGF102991021001999999031001MD1210231+9999REMSYN060AAXX  14211 26882 42984 23004 10050 21048 40139 52023 82030;
0143268820999992000051500004+53970+032850FM-12+021799999V0209999C000012200019N0500001N1+00241-00501101471ADDGA1001+999999999GF100991001001999999001001MA1999999098701MD1210061+9999REMSYN060AAXX  15001 26882 42984 00000 10024 21050 39870 40147 52006;
0132268820999992000051503004+53970+032850FM-12+021799999V0203101N004012200019N0200001N1+00101-00391101611ADDGA1001+999999999GF100991001001999999001001MD1210121+9999REMSYN064AAXX  15031 26882 42970 03104 10010 21039 40161 52012 333 55123;
0165268820999992000051506004+53970+032850FM-12+021799999V0203601N003019999999N0200001N1+00681-00521101651ADDAA199000091GF108991001001999999001011KA1999N-00081MD1210091+9999REMSYN070AAXX  15061 26882 32970 83603 10068 21052 40165 52009 80001 333 21008;EQDQ01  00002PRCP99
0122268820999992000051509004+53970+032850FM-12+021799999V0203001N005012200019N0200001N1+01111-00781101611ADDGF102991021001999999041011MD1410001+9999REMSYN070AAXX  15091 26882 42970 23005 10111 21078 40161 54000 82041 333 91112;
0143268820999992000051512004+53970+032850FM-12+021799999V0202901N008012200019N0200001N1+01421-00271101431ADDGF106991021011012501001061MA1999999098781MD1810131+9999REMSYN076AAXX  15121 26882 42670 62908 10142 21027 39878 40143 58013 82106 333 91112;
0122268820999992000051515004+53970+032850FM-12+021799999V0202901N008010300019N0200001N1+01651+00131101271ADDGF106991021021012501081011MD1710151+9999REMSYN070AAXX  15151 26882 42670 62908 10165 20013 40127 57015 82281 333 91114;
0171268820999992000051518004+53970+032850FM-12+021799999V0202601N004012200019N0200001N1+01271+00411101121ADDAA199000091GF103991021001999999031011KA1120M+01701MD1710171+9999REMSYN076AAXX  15181 26882 32970 32604 10127 20041 40112 57017 82031 333 10170 91114;EQDQ01  00002PRCP99
0112268820999992000051521004+53970+032850FM-12+021799999V0202601N005012200019N0500001N1+00991+00341101021ADDGF104991001001999999001011MD1710101+9999REMSYN060AAXX  15211 26882 42984 42605 10099 20034 40102 57010 80001;
0133268820999992000051600004+53970+032850FM-12+021799999V0203501N004012200019N0300001N1+00751+00361101031ADDGF104991041001999999031001MA1999999098321MD1710031+9999REMSYN066AAXX  16001 26882 42980 43504 10075 20036 39832 40103 57003 84030;
0122268820999992000051603004+53970+032850FM-12+021799999V0200101N002019999999N0200001N1+00751+00301101201ADDGF105991051001999999031001MD1210171+9999REMSYN070AAXX  16031 26882 42970 50102 10075 20030 40120 52017 85030 333 55131;
0165268820999992000051606004+53970+032850FM-12+021799999V0200201N004012200019N0200001N1+00971+00251101351ADDAA199000091GF101991011021012501001001KA1999N+00691MD1210171+9999REMSYN070AAXX  16061 26882 32670 10204 10097 20025 40135 52017 81200 333 20069;EQDQ01  00002PRCP99
0122268820999992000051609004+53970+032850FM-12+021799999V0200301N005012200019N0200001N1+01031-00301101511ADDGA1001+999999999GF100991001001999999001001MD1210161+9999REMSYN054AAXX  16091 26882 42970 00305 10103 21030 40151 52016;
0133268820999992000051612004+53970+032850FM-12+021799999V0203601N005019999999N0200001N1+01191-00901101601ADDGF106991001001999999001011MA1999999098911MD1210091+9999REMSYN066AAXX  16121 26882 42970 63605 10119 21090 39891 40160 52009 80001;
0112268820999992000051615004+53970+032850FM-12+021799999V0203401N006012200019N0200001N1+01211-00821101641ADDGF102991001001999999001011MD1210041+9999REMSYN060AAXX  16151 26882 42970 23406 10121 21082 40164 52004 80001;
0165268820999992000051618004+53970+032850FM-12+021799999V0203601N001012200019N0200001N1+00941-00221101761ADDAA199000091GF101991001001999999001011KA1999M+01291MD1210101+9999REMSYN070AAXX  16181 26882 32970 13601 10094 21022 40176 52010 80001 333 10129;EQDQ01  00002PRCP99
0122268820999992000051621004+53970+032850FM-12+021799999V0209999C000012200019N0500001N1+00491-00241101931ADDGA1001+999999999GF100991001001999999001001MD1210111+9999REMSYN054AAXX  16211 26882 42984 00000 10049 21024 40193 52011;
0143268820999992000051700004+53970+032850FM-12+021799999V0209999C000012200019N0500001N1+00151-00471102001ADDGA1001+999999999GF100991001001999999001001MA1999999099211MD1210091+9999REMSYN060AAXX  17001 26882 42984 00000 10015 21047 39921 40200 52009;
0132268820999992000051703004+53970+032850FM-12+021799999V0209999C000012200019N0200001N1+00161-00321102061ADDGA1001+999999999GF100991001001999999001001MD1210041+9999REMSYN064AAXX  17031 26882 42970 00000 10016 21032 40206 52004 333 55146;
0175268820999992000051706004+53970+032850FM-12+021799999V0200301N999999999999N0200001N1+99999+99999102081ADDAA199000091GF106991001001999999001041KA1999N+00081MD1210091+9999REMSYN064AAXX  17061 26882 32970 60387 21036 40208 52009 80004 333 20008;EQDQ01+008703WOSPD Q02  00002PRCP99
0112268820999992000051709004+53970+032850FM-12+021799999V0203501N004019999999N0200001N1+01271-00671101991ADDGF108991001001999999001091MD1810051+9999REMSYN060AAXX  17091 26882 42970 83504 10127 21067 40199 58005 80009;
0133268820999992000051712004+53970+032850FM-12+021799999V0202801N003019999999N0200001N1+01471-00541101791ADDGF108991001001999999001091MA1999999099131MD1710171+9999REMSYN066AAXX  17121 26882 42970 82803 10147 21054 39913 40179 57017 80009;
0112268820999992000051715004+53970+032850FM-12+021799999V0203001N004019999999N0200001N1+01531-00361101591ADDGF106991011001999999041091MD1710191+9999REMSYN060AAXX  17151 26882 42970 63004 10153 21036 40159 57019 81049;
0165268820999992000051718004+53970+032850FM-12+021799999V0202301N002012200019N0200001N1+01091+00341101461ADDAA199000091GF102991001001999999001011KA1999M+01601MD1710161+9999REMSYN070AAXX  17181 26882 32970 22302 10109 20034 40146 57016 80001 333 10160;EQDQ01  00002PRCP99
0122268820999992000051721004+53970+032850FM-12+021799999V0202201N003012200019N0500001N1+00691+00091101351ADDGA1001+999999999GF100991001001999999001001MD1710151+9999REMSYN054AAXX  17211 26882 42984 02203 10069 20009 40135 57015;
0143268820999992000051800004+53970+032850FM-12+021799999V0202301N004012200019N0500001N1+00551+00061101261ADDGA1001+999999999GF100991001001999999001001MA1999999098531MD1710101+9999REMSYN060AAXX  18001 26882 42984 02304 10055 20006 39853 40126 57010;
0122268820999992000051803004+53970+032850FM-12+021799999V0202401N001019999999N0200001N1+00551+00121101201ADDGF108991011001999999041011MD1710061+9999REMSYN070AAXX  18031 26882 42970 82401 10055 20012 40120 57006 81041 333 55145;
0165268820999992000051806004+53970+032850FM-12+021799999V0200901N001019999999N0200001N1+01231+00091101211ADDAA199000091GF106991061001999999031001KA1999N+00311MD1210071+9999REMSYN070AAXX  18061 26882 32970 60901 10123 20009 40121 52007 86030 333 20031;EQDQ01  00002PRCP99
0112268820999992000051809004+53970+032850FM-12+021799999V0200101N003019999999N0200001N1+01651+00271101231ADDGF105991001001999999001011MD1210051+9999REMSYN060AAXX  18091 26882 42970 50103 10165 20027 40123 52005 80001;
0133268820999992000051812004+53970+032850FM-12+021799999V0200301N003019999999N0200001N1+01831+00361101201ADDGF105991001001999999001011MA1999999098581MD1710011+9999REMSYN066AAXX  18121 26882 42970 50303 10183 20036 39858 40120 57001 80001;
0112268820999992000051815004+53970+032850FM-12+021799999V0200401N001019999999N0200001N1+01831+00321101141ADDGF105991001001999999001011MD1710051+9999REMSYN060AAXX  18151 26882 42970 50401 10183 20032 40114 57005 80001;
0165268820999992000051818004+53970+032850FM-12+021799999V0209999C000012200019N0200001N1+01451+00431101201ADDAA199000091GF102991001001999999001041KA1999M+01921MD1310031+9999REMSYN070AAXX  18181 26882 32970 20000 10145 20043 40120 53003 80004 333 10192;EQDQ01  00002PRCP99
0133268820999992000051900004+53970+032850FM-12+021799999V0201201N001012200019N0300001N1+00611-00111101311ADDGF101991001001999999001011MA1999999098581MD1810031+9999REMSYN066AAXX  19001 26882 42980 11201 10061 21011 39858 40131 58003 80001;
0122268820999992000051903004+53970+032850FM-12+021799999V0201101N001012200019N0200001N1+00401-00091101261ADDGF102991011001999999031041MD1710061+9999REMSYN070AAXX  19031 26882 42970 21101 10040 21009 40126 57006 81034 333 55128;
0165268820999992000051906004+53970+032850FM-12+021799999V0200901N002019999999N0200001N1+01241+00061101191ADDAA199000091GF106991001001999999001091KA1999N+00361MD1410001+9999REMSYN070AAXX  19061 26882 32970 60902 10124 20006 40119 54000 80009 333 20036;EQDQ01  00002PRCP99
0097268820999992000051909004+53970+032850FM-12+021799999V0201501N004019999999N0200001N1+01641+99999999999ADDGF106991999999999999999999REMSYN059AAXX  19091 26882 42970 61504 10164 1009 40112 58003 80009;
0133268820999992000051912004+53970+032850FM-12+021799999V0201301N004019999999N0200001N1+01721-00441101101ADDGF106991021001999999031041MA1999999098481MD1710011+9999REMSYN066AAXX  19121 26882 42970 61304 10172 21044 39848 40110 57001 82034;
0112268820999992000051915004+53970+032850FM-12+021799999V0201001N004019999999N0200001N1+01621-00381101051ADDGF107991001001999999001051MD1710061+9999REMSYN060AAXX  19151 26882 42970 71004 10162 21038 40105 57006 80005;
0165268820999992000051918004+53970+032850FM-12+021799999V0201001N001019999999N0200001N1+01371-00071101091ADDAA199000091GF107991041001999999031011KA1999M+01761MD1210011+9999REMSYN070AAXX  19181 26882 32970 71001 10137 21007 40109 52001 84031 333 10176;EQDQ01  00002PRCP99
0112268820999992000051921004+53970+032850FM-12+021799999V0201201N002019999999N0280001N1+01001-00051101271ADDGF105991051001999999031001MD1210151+9999REMSYN060AAXX  19211 26882 42978 51202 10100 21005 40127 52015 85030;
0143268820999992000052000004+53970+032850FM-12+021799999V0201201N003012200019N0300001N1+00501-00291101331ADDGA1001+999999999GF100991001001999999001001MA1999999098591MD1210011+9999REMSYN060AAXX  20001 26882 42980 01203 10050 21029 39859 40133 52001;
0132268820999992000052003004+53970+032850FM-12+021799999V0201101N002012200019N0200001N1+00501-00371101291ADDGA1001+999999999GF100991001001999999001001MD1710041+9999REMSYN064AAXX  20031 26882 42970 01102 10050 21037 40129 57004 333 55117;
0175268820999992000052006004+53970+032850FM-12+021799999V0201401N005012200019N0200001N1+01191-00411101181ADDAA199000091GA1001+999999999GF100991001001999999001001KA1999N+00361MD1710041+9999REMSYN064AAXX  20061 26882 32970 01405 10119 21041 40118 57004 333 20036;EQDQ01  00002PRCP99
0122268820999992000052009004+53970+032850FM-12+021799999V0201301N004012200019N0200001N1+01561-00411101081ADDGA1001+999999999GF100991001001999999001001MD1710071+9999REMSYN054AAXX  20091 26882 42970 01304 10156 21041 40108 57007;
0133268820999992000052012004+53970+032850FM-12+021799999V0201301N007012200019N0200001N1+01761-00381100871ADDGF101991001001999999001021MA1999999098251MD1710191+9999REMSYN066AAXX  20121 26882 42970 11307 10176 21038 39825 40087 57019 80002;
0112268820999992000052015004+53970+032850FM-12+021799999V0201701N005019999999N0200001N1+01791-00331100761ADDGF106991001001999999001021MD1710091+9999REMSYN060AAXX  20151 26882 42970 61705 10179 21033 40076 57009 80002;
0165268820999992000052018004+53970+032850FM-12+021799999V0201901N003019999999N0200001N1+01221+00111100821ADDAA199000091GF106991001001999999001091KA1999M+01901MD1410001+9999REMSYN070AAXX  20181 26882 32970 61903 10122 20011 40082 54000 80009 333 10190;EQDQ01  00002PRCP99
0112268820999992000052021004+53970+032850FM-12+021799999V0209999C000019999999N0300001N1+00841+00191100871ADDGF106991001001999999001011MD1310011+9999REMSYN060AAXX  20211 26882 42980 60000 10084 20019 40087 53001 80001;
0133268820999992000052100004+53970+032850FM-12+021799999V0209999C000019999999N0280001N1+00571+00111100801ADDGF107991061001999999031011MA1999999098071MD1810101+9999REMSYN066AAXX  21001 26882 42978 70000 10057 20011 39807 40080 58010 86031;
0122268820999992000052103004+53970+032850FM-12+021799999V0201101N001019999999N0200001N1+00681+00271100711ADDGF108991081001999999071999MD1710081+9999REMSYN070AAXX  21031 26882 42970 81101 10068 20027 40071 57008 8807/ 333 55142;
0180268820999992000052106004+53970+032850FM-12+021799999V0201301N003019999999N0180001N1+00971+00621100671ADDAA112000791AY161061AY221061GF108991081001999999071999KA1999N+00551MD1410001+9999MW1021REMSYN082AAXX  21061 26882 11968 81303 10097 20062 40067 54000 69902 70262 8807/ 333 20055;
0185268820999992000052109004+53970+032850FM-12+021799999V0201301N005010036019N0014001N1+01071+00991100691ADDAY161031AY221031GA1081+003609069GF108991999071004501021999MD1310031+9999MW1631REMSYN076AAXX  21091 26882 41414 81305 10107 20099 40069 53003 76362 8872/ 333 88712;EQDQ01+000082SCOTLC
0187268820999992000052112004+53970+032850FM-12+021799999V0201001N003010045019N0060001N1+01281+01091100671ADDAY161061AY221061GA1061+004509069GF108991061071004501071999MA1999999098021MD1410001+9999MW1101REMSYN082AAXX  21121 26882 41456 81003 10128 20109 39802 40067 54000 71062 8677/ 333 86715;
0166268820999992000052115004+53970+032850FM-12+021799999V0201201N003010033019N0070001N1+01271+01151100651ADDAY181031AY221031GA1081+003309099GF108991081091004501999999MD1810021+9999MW1801REMSYN076AAXX  21151 26882 41457 81203 10127 20115 40065 58002 78082 889// 333 88911;
0202268820999992000052118004+53970+032850FM-12+021799999V0201001N004010024019N0060001N1+01231+01121100601ADDAA112005191AY181061AY221061GA1071+002409059GF107991071051002501001001KA1120M+01281MD1710051+9999MW1101REMSYN088AAXX  21181 26882 11356 71004 10123 20112 40060 57005 60052 71082 87500 333 10128 87608;
0138268820999992000052121004+53970+032850FM-12+021799999V0200901N004010021019N0130001N1+01221+01121100471ADDGA1071+002109059GF107991071051002501001001MD1710121+9999REMSYN070AAXX  21211 26882 42363 70904 10122 20112 40047 57012 87500 333 87607;
0159268820999992000052200004+53970+032850FM-12+021799999V0200801N004010033019N0120001N1+01251+01121100321ADDGA1071+003309059GF107991071051004501001001MA1999999097681MD1710151+9999REMSYN076AAXX  22001 26882 42462 70804 10125 20112 39768 40032 57015 87500 333 87611;
0199268820999992000052203004+53970+032850FM-12+021799999V0200701N003010042019N0035001N1+01201+01091100271ADDAY161031AY221031GA1081+004209069GF108991999071004501021999GJ100009MD1710051+9999MW1611REMSYN082AAXX  22031 26882 41435 80703 10120 20109 40027 57005 76162 8872/ 333 55000 88714;EQDQ01+000082SCOTLC
0221268820999992000052206004+53970+032850FM-12+021799999V0200901N002010021019N0050001N1+01171+01141100391ADDAA112004191AY161061AY221061GA1081+002109069GF108991999071002501021999KA1120N+01161MD1310111+9999MW1611REMSYN088AAXX  22061 26882 11350 80902 10117 20114 40039 53011 60042 76162 8872/ 333 20116 88707;EQDQ01+000082SCOTLC
0185268820999992000052209004+53970+032850FM-12+021799999V0200701N002010024019N0070001N1+01231+01151100481ADDAY161031AY221031GA1081+002409069GF108991999071002501021999MD1210101+9999MW1611REMSYN076AAXX  22091 26882 41357 80702 10123 20115 40048 52010 76162 8872/ 333 88708;EQDQ01+000082SCOTLC
0187268820999992000052212004+53970+032850FM-12+021799999V0200901N004010051019N0120001N1+01371+01171100651ADDAY161061AY221061GA1071+005109069GF107991071071004501001001MA1999999098011MD1210171+9999MW1211REMSYN082AAXX  22121 26882 41462 70904 10137 20117 39801 40065 52017 72162 87700 333 87717;
0112268820999992000052215004+53970+032850FM-12+021799999V0201001N003010021019N0200001N1+01331+01121100761ADDGF106991061021002501001001MD1210111+9999REMSYN060AAXX  22151 26882 42370 61003 10133 20112 40076 52011 86200;
0209268820999992000052218004+53970+032850FM-12+021799999V0200901N002010054019N0200001N1+01271+01071100801ADDAA109000591AY101061AY201061GA1071+005409069GF107991999999004501999999KA1120M+01401MD1210031+9999REMSYN082AAXX  22181 26882 12470 70902 10127 20107 40080 52003 69968 77000 333 10140 87718;EQDQ01+000702PRSWM1
0112268820999992000052221004+53970+032850FM-12+021799999V0200701N002012200019N0500001N1+01091+01021100911ADDGF102991021001999999031001MD1210091+9999REMSYN060AAXX  22211 26882 42984 20702 10109 20102 40091 52009 82030;
0143268820999992000052300004+53970+032850FM-12+021799999V0200301N001012200019N0500001N1+00811+00741100951ADDGA1001+999999999GF100991001001999999001001MA1999999098251MD1110011+9999REMSYN060AAXX  23001 26882 42984 00301 10081 20074 39825 40095 51001;
0122268820999992000052303004+53970+032850FM-12+021799999V0200301N001019999999N0200001N1+00761+00671101001ADDGF106991001001999999001011MD1310051+9999REMSYN070AAXX  23031 26882 42970 60301 10076 20067 40100 53005 80001 333 55001;
0165268820999992000052306004+53970+032850FM-12+021799999V0200601N003010075019N0200001N1+01151+00921101051ADDAA199000091GF105991051021008001001001KA1999N+00601MD1210081+9999REMSYN070AAXX  23061 26882 32570 50603 10115 20092 40105 52008 85200 333 20060;EQDQ01  00002PRCP99
0112268820999992000052309004+53970+032850FM-12+021799999V0200901N003010300019N0200001N1+01331+00921101131ADDGF107991041021008001031001MD1210101+9999REMSYN060AAXX  23091 26882 42570 70903 10133 20092 40113 52010 84230;
0133268820999992000052312004+53970+032850FM-12+021799999V0209999C000010300019N0200001N1+01581+00851101141ADDGF107991041021008001031001MA1999999098511MD1210031+9999REMSYN066AAXX  23121 26882 42570 70000 10158 20085 39851 40114 52003 84230;
0112268820999992000052315004+53970+032850FM-12+021799999V0201201N001010300019N0200001N1+01571+00841101161ADDGF107991041021008001031001MD1210021+9999REMSYN060AAXX  23151 26882 42570 71201 10157 20084 40116 52002 84230;
0187268820999992000052318004+53970+032850FM-12+021799999V0200401N001010144019N0200001N1+01431+00921101261ADDAA199000091GA1061+014409029GF107991061021012501031001KA1120M+01701MD1210081+9999REMSYN076AAXX  23181 26882 32670 70401 10143 20092 40126 52008 86230 333 10170 86848;EQDQ01  00002PRCP99
0112268820999992000052321004+53970+032850FM-12+021799999V0209999C000010300019N0300001N1+01251+00951101281ADDGF106991041021012501031001MD1210011+9999REMSYN060AAXX  23211 26882 42680 60000 10125 20095 40128 52001 84230;
0133268820999992000052400004+53970+032850FM-12+021799999V0209999C000010300019N0100001N1+01031+00891101311ADDGF107991041021012501031001MA1999999098621MD1410001+9999REMSYN066AAXX  24001 26882 42660 70000 10103 20089 39862 40131 54000 84230;
0122268820999992000052403004+53970+032850FM-12+021799999V0200401N001010300019N0120001N1+01001+00951101331ADDGF107991011021012501031001MD1310021+9999REMSYN070AAXX  24031 26882 42662 70401 10100 20095 40133 53002 81230 333 55061;
0165268820999992000052406004+53970+032850FM-12+021799999V0200401N001010300019N0200001N1+01561+01091101301ADDAA199000091GF106991021021012501021081KA1999N+00911MD1210021+9999REMSYN070AAXX  24061 26882 32670 60401 10156 20109 40130 52002 82228 333 20091;EQDQ01  00002PRCP99
0112268820999992000052409004+53970+032850FM-12+021799999V0202701N002010300019N0200001N1+01561+00921101331ADDGF106991031021012501031001MD1210031+9999REMSYN060AAXX  24091 26882 42670 62702 10156 20092 40133 52003 83230;
0133268820999992000052412004+53970+032850FM-12+021799999V0203501N005010300019N0200001N1+01781+00731101321ADDGF106991031021012501031001MA1999999098701MD1210011+9999REMSYN066AAXX  24121 26882 42670 63505 10178 20073 39870 40132 52001 83230;
0112268820999992000052415004+53970+032850FM-12+021799999V0203501N003010300019N0200001N1+01881+00861101321ADDGF105991021021012501031001MD1210011+9999REMSYN060AAXX  24151 26882 42670 53503 10188 20086 40132 52001 82230;
0165268820999992000052418004+53970+032850FM-12+021799999V0209999C000019999999N0200001N1+01371+01001101491ADDAA199000091GF105991051001999999031001KA1999M+01891MD1210131+9999REMSYN070AAXX  24181 26882 32970 50000 10137 20100 40149 52013 85030 333 10189;EQDQ01  00002PRCP99
0122268820999992000052421004+53970+032850FM-12+021799999V0203101N001012200019N0200001N1+01001+00731101611ADDGA1001+999999999GF100991001001999999001001MD1210071+9999REMSYN054AAXX  24211 26882 42970 03101 10100 20073 40161 52007;
0122268820999992000052503004+53970+032850FM-12+021799999V0202901N001012200019N0140001N1+00841+00781101751ADDGF103991001001999999001011MD1210081+9999REMSYN070AAXX  25031 26882 42964 32901 10084 20078 40175 52008 80001 333 55057;
0169268820999992000052506004+53970+032850FM-12+021799999V0200101N999992200019N0200001N1+99999+99999101751ADDAA199000091GF101991011021012501031011KA1999N+00671MD1210071+9999REMSYN058AAXX  25061 26882 32670 10157 40175 52007 81231 333 20067;EQDQ01+005703WOSPD Q02  00002PRCP99
0112268820999992000052509004+53970+032850FM-12+021799999V0203301N002012200019N0200001N1+01991+01051101801ADDGF104991041021012501001001MD1210081+9999REMSYN060AAXX  25091 26882 42670 43302 10199 20105 40180 52008 84200;
0133268820999992000052512004+53970+032850FM-12+021799999V0203401N004010300019N0200001N1+02111+00891101811ADDGF106991041021012501031001MA1999999099201MD1110011+9999REMSYN066AAXX  25121 26882 42670 63404 10211 20089 39920 40181 51001 84230;
0112268820999992000052515004+53970+032850FM-12+021799999V0202901N003012200019N0200001N1+02151+00511101601ADDGF102991021021012501031011MD1810191+9999REMSYN060AAXX  25151 26882 42670 22903 10215 20051 40160 58019 82231;
0165268820999992000052518004+53970+032850FM-12+021799999V0202601N001012200019N0200001N1+01741+00821101721ADDAA199000091GF104991001001999999001091KA1999M+02251MD1310081+9999REMSYN070AAXX  25181 26882 32970 42601 10174 20082 40172 53008 80009 333 10225;EQDQ01  00002PRCP99
0122268820999992000052521004+53970+032850FM-12+021799999V0209999C000012200019N0400001N1+01441+00731101791ADDGA1001+999999999GF100991001001999999001001MD1210051+9999REMSYN054AAXX  25211 26882 42982 00000 10144 20073 40179 52005;
0152268820999992000052600004+53970+032850FM-12+021799999V0202201N001012200019N0350001N1+00961+00681101871ADDGF102991001001999999001011MA1999999099161MD1210081+9999REMSYN066AAXX  26001 26882 42981 22201 10096 20068 39916 40187 52770 80001;EQDQ01+007707APC3  
0122268820999992000052603004+53970+032850FM-12+021799999V0209999C000019999999N0200001N1+01121+00811101871ADDGF106991001001999999001011MD1210011+9999REMSYN070AAXX  26031 26882 42970 60000 10112 20081 40187 52001 80001 333 55131;
0165268820999992000052606004+53970+032850FM-12+021799999V0202201N003012200019N0200001N1+01821+00951101801ADDAA199000091GF101991001001999999001011KA1999N+00871MD1410001+9999REMSYN070AAXX  26061 26882 32970 12203 10182 20095 40180 54000 80001 333 20087;EQDQ01  00002PRCP99
0112268820999992000052609004+53970+032850FM-12+021799999V0202201N004012200019N0200001N1+02281+00851101741ADDGF103991031021012501001001MD1810021+9999REMSYN060AAXX  26091 26882 42670 32204 10228 20085 40174 58002 83200;
0133268820999992000052612004+53970+032850FM-12+021799999V0202301N007012200019N0200001N1+02371+00761101651ADDGF103991031021012501001001MA1999999099081MD1710071+9999REMSYN066AAXX  26121 26882 42670 32307 10237 20076 39908 40165 57007 83200;
0112268820999992000052615004+53970+032850FM-12+021799999V0202001N005012200019N0200001N1+02351+00801101581ADDGF102991021021012501001001MD1710071+9999REMSYN060AAXX  26151 26882 42670 22005 10235 20080 40158 57007 82200;
0165268820999992000052618004+53970+032850FM-12+021799999V0202001N003019999999N0200001N1+01921+00981101671ADDAA199000091GF107991071001999999061001KA1999M+02451MD1310051+9999REMSYN070AAXX  26181 26882 32970 72003 10192 20098 40167 53005 87060 333 10245;EQDQ01  00002PRCP99
0112268820999992000052621004+53970+032850FM-12+021799999V0203201N005019999999N0500001N1+01691+01131101831ADDGF107991071001999999061001MD1210131+9999REMSYN060AAXX  26211 26882 42984 73205 10169 20113 40183 52013 87060;
0133268820999992000052700004+53970+032850FM-12+021799999V0203401N003012200019N0500001N1+01271+00891102021ADDGF102991001001999999001011MA1999999099341MD1210151+9999REMSYN066AAXX  27001 26882 42984 23403 10127 20089 39934 40202 52015 80001;
0122268820999992000052703004+53970+032850FM-12+021799999V0203301N003019999999N0200001N1+01131+00861102171ADDGF107991021001999999071051MD1210131+9999REMSYN070AAXX  27031 26882 42970 73303 10113 20086 40217 52013 82075 333 55132;
0165268820999992000052706004+53970+032850FM-12+021799999V0203501N002012200019N0200001N1+01611+00701102201ADDAA199000091GF101991001001999999001011KA1999N+00961MD1210071+9999REMSYN070AAXX  27061 26882 32970 13502 10161 20070 40220 52007 80001 333 20096;EQDQ01  00002PRCP99
0122268820999992000052709004+53970+032850FM-12+021799999V0202701N005012200019N0200001N1+01911+00481102181ADDGA1001+999999999GF100991001001999999001001MD1110011+9999REMSYN054AAXX  27091 26882 42970 02705 10191 20048 40218 51001;
0143268820999992000052712004+53970+032850FM-12+021799999V0203201N004012200019N0200001N1+02051+00341102111ADDGA1001+999999999GF100991001001999999001001MA1999999099491MD1810061+9999REMSYN060AAXX  27121 26882 42970 03204 10205 20034 39949 40211 58006;
0112268820999992000052715004+53970+032850FM-12+021799999V0202801N004012200019N0200001N1+02051+00361102041ADDGF103991001001999999001011MD1710071+9999REMSYN060AAXX  27151 26882 42970 32804 10205 20036 40204 57007 80001;
0175268820999992000052718004+53970+032850FM-12+021799999V0202901N002012200019N0200001N1+01651+00651102041ADDAA199000091GA1001+999999999GF100991001001999999001001KA1999M+02141MD1710021+9999REMSYN064AAXX  27181 26882 32970 02902 10165 20065 40204 57002 333 10214;EQDQ01  00002PRCP99
0122268820999992000052721004+53970+032850FM-12+021799999V0209999C000012200019N0500001N1+01291+00591102071ADDGA1001+999999999GF100991001001999999001001MD1610011+9999REMSYN054AAXX  27211 26882 42984 00000 10129 20059 40207 56001;
0143268820999992000052800004+53970+032850FM-12+021799999V0209999C000012200019N0500001N1+00991+00621102121ADDGA1001+999999999GF100991001001999999001001MA1999999099411MD1310021+9999REMSYN060AAXX  28001 26882 42984 00000 10099 20062 39941 40212 53002;
0132268820999992000052803004+53970+032850FM-12+021799999V0209999C000012200019N0200001N1+01061+00731102171ADDGA1001+999999999GF100991001001999999001001MD1210051+9999REMSYN064AAXX  28031 26882 42970 00000 10106 20073 40217 52005 333 55132;
0175268820999992000052806004+53970+032850FM-12+021799999V0201801N004012200019N0200001N1+01931+00851102081ADDAA199000091GA1001+999999999GF100991001001999999001001KA1999N+00811MD1410001+9999REMSYN064AAXX  28061 26882 32970 01804 10193 20085 40208 54000 333 20081;EQDQ01  00002PRCP99
0112268820999992000052809004+53970+032850FM-12+021799999V0201901N004012200019N0200001N1+02351+00981102021ADDGF102991021001999999031001MD1710031+9999REMSYN060AAXX  28091 26882 42970 21904 10235 20098 40202 57003 82030;
0133268820999992000052812004+53970+032850FM-12+021799999V0201701N003012200019N0200001N1+02651+01261101811ADDGF102991021001999999031001MA1999999099261MD1710171+9999REMSYN066AAXX  28121 26882 42970 21703 10265 20126 39926 40181 57017 82030;
0112268820999992000052815004+53970+032850FM-12+021799999V0202001N005012200019N0200001N1+02631+01191101661ADDGF102991021021012501001001MD1710151+9999REMSYN060AAXX  28151 26882 42670 22005 10263 20119 40166 57015 82200;
0175268820999992000052818004+53970+032850FM-12+021799999V0201401N003012200019N0200001N1+02171+01271101661ADDAA199000091GA1001+999999999GF100991001001999999001001KA1999M+02741MD1710041+9999REMSYN064AAXX  28181 26882 32970 01403 10217 20127 40166 57004 333 10274;EQDQ01  00002PRCP99
0122268820999992000052821004+53970+032850FM-12+021799999V0201801N005012200019N0270001N1+01961+01171101651ADDGA1001+999999999GF100991001001999999001001MD1710031+9999REMSYN054AAXX  28211 26882 42977 01805 10196 20117 40165 57003;
0143268820999992000052900004+53970+032850FM-12+021799999V0201801N003012200019N0500001N1+01751+01061101631ADDGA1001+999999999GF100991001001999999001001MA1999999099001MD1710041+9999REMSYN060AAXX  29001 26882 42984 01803 10175 20106 39900 40163 57004;
0132268820999992000052903004+53970+032850FM-12+021799999V0201801N003012200019N0200001N1+01731+01041101611ADDGA1001+999999999GF100991001001999999001001MD1710021+9999REMSYN064AAXX  29031 26882 42970 01803 10173 20104 40161 57002 333 55146;
0175268820999992000052906004+53970+032850FM-12+021799999V0202001N005012200019N0200001N1+02241+01151101561ADDAA199000091GA1001+999999999GF100991001001999999001001KA1999N+01451MD1410001+9999REMSYN064AAXX  29061 26882 32970 02005 10224 20115 40156 54000 333 20145;EQDQ01  00002PRCP99
0112268820999992000052909004+53970+032850FM-12+021799999V0201801N004012200019N0200001N1+02661+00991101481ADDGF101991011011012501001001MD1810051+9999REMSYN060AAXX  29091 26882 42670 11804 10266 20099 40148 58005 81100;
0133268820999992000052912004+53970+032850FM-12+021799999V0201701N006012200019N0200001N1+01761+00781101321ADDGF102991021011012501001001MA1999999098791MD1710141+9999REMSYN066AAXX  29121 26882 42670 21706 10176 20078 39879 40132 57014 82100;
0112268820999992000052915004+53970+032850FM-12+021799999V0201601N004012200019N0200001N1+02721+00651101221ADDGF102991021001999999031001MD1710111+9999REMSYN060AAXX  29151 26882 42970 21604 10272 20065 40122 57011 82030;
0165268820999992000052918004+53970+032850FM-12+021799999V0201401N001012200019N0200001N1+02201+01071101181ADDAA199000091GF102991021001999999031001KA1999M+02811MD1710081+9999REMSYN070AAXX  29181 26882 32970 21401 10220 20107 40118 57008 82030 333 10281;EQDQ01  00002PRCP99
0133268820999992000053000004+53970+032850FM-12+021799999V0201201N002019999999N0018001N1+01591+01171101201ADDGF105991051001999999031001MA1999999098561MD1710041+9999REMSYN066AAXX  30001 26882 42918 51202 10159 20117 39856 40120 57004 85030;
0122268820999992000053003004+53970+032850FM-12+021799999V0201101N003012200019N0200001N1+01481+01171101211ADDGF103991031001999999031001MD1410001+9999REMSYN070AAXX  30031 26882 42970 31103 10148 20117 40121 54000 83030 333 55148;
0165268820999992000053006004+53970+032850FM-12+021799999V0201301N002019999999N0200001N1+02151+01451101181ADDAA199000091GF106991061001999999031001KA1999N+01401MD1310041+9999REMSYN070AAXX  30061 26882 32970 61302 10215 20145 40118 53004 86030 333 20140;EQDQ01  00002PRCP99
0112268820999992000053009004+53970+032850FM-12+021799999V0201801N005012200019N0200001N1+02731+01271101131ADDGF102991021021012501001011MD1410001+9999REMSYN060AAXX  30091 26882 42670 21805 10273 20127 40113 54000 82201;
0171268820999992000053012004+53970+032850FM-12+021799999V0202801N003010300019N0200001N1+01991+01421101041ADDAY191061AY281061GF106991031091008001041031MA1999999098461MD1810141+9999MW1171REMSYN082AAXX  30121 26882 41570 62803 10199 20142 39846 40104 58014 71798 83943 333 91113;
0140268820999992000053015004+53970+032850FM-12+021799999V0209999C000010300019N0200001N1+02311+01411100941ADDAY191031AY221031GF107991021091008001061001MD1710081+9999MW1171REMSYN066AAXX  30151 26882 41570 70000 10231 20141 40094 57008 71792 82960;
0180268820999992000053018004+53970+032850FM-12+021799999V0203101N002010300019N0200001N1+01521+01391101171ADDAA112003091AY191061AY281061GF107991031021008001061001KA1999M+02791MD1310161+9999MW1291REMSYN082AAXX  30181 26882 11570 73102 10152 20139 40117 53016 60032 72998 83260 333 10279;
0140268820999992000053021004+53970+032850FM-12+021799999V0201101N001019999999N0120001N1+01501+01411101051ADDAY181031AY261031GF108991081001999999071999MD1810121+9999MW1611REMSYN066AAXX  30211 26882 41962 81101 10150 20141 40105 58012 76186 8807/;
0161268820999992000053100004+53970+032850FM-12+021799999V0201401N002019999999N0120001N1+01501+01431101071ADDAY181061AY261061GF108991081001999999071999MA1999999098441MD1310021+9999MW1211REMSYN072AAXX  31001 26882 41962 81402 10150 20143 39844 40107 53002 72186 8807/;
0199268820999992000053103004+53970+032850FM-12+021799999V0201401N001010027019N0045001N1+01491+01461101071ADDAY161031AY221031GA1081+002709069GF108991999071002501021999GJ105049MD1410001+9999MW1611REMSYN082AAXX  31031 26882 41345 81401 10149 20146 40107 54000 76162 8872/ 333 55084 88709;EQDQ01+000082SCOTLC
0202268820999992000053106004+53970+032850FM-12+021799999V0203301N003010021019N0200001N1+01281+01211101151ADDAA112008991AY161061AY221061GA1081+002109069GF108991081071002501999999KA1120N+01271MD1310051+9999MW1211REMSYN088AAXX  31061 26882 11370 83303 10128 20121 40115 53005 60092 72162 887// 333 20127 88707;
0185268820999992000053109004+53970+032850FM-12+021799999V0203501N005010024019N0180001N1+01231+01131101301ADDAY181031AY261031GA1081+002409069GF108991999071002501021999MD1210151+9999MW1631REMSYN076AAXX  31091 26882 41368 83505 10123 20113 40130 52015 76386 8872/ 333 88708;EQDQ01+000082SCOTLC
0206268820999992000053112004+53970+032850FM-12+021799999V0203501N005010027019N0180001N1+01321+01211101391ADDAY181061AY261061GA1081+002709069GF108991999071002501021999MA1999999098741MD1210101+9999MW1611REMSYN082AAXX  31121 26882 41368 83505 10132 20121 39874 40139 52010 76186 8872/ 333 88709;EQDQ01+000082SCOTLC
0185268820999992000053115004+53970+032850FM-12+021799999V0203501N005010024019N0080001N1+01251+01211101341ADDAY161031AY221031GA1081+002409069GF108991999071002501021999MD1710061+9999MW1631REMSYN076AAXX  31151 26882 41358 83505 10125 20121 40134 57006 76362 8872/ 333 88708;EQDQ01+000082SCOTLC
0221268820999992000053118004+53970+032850FM-12+021799999V0203401N005010024019N0100001N1+01171+01131101411ADDAA112025991AY161061AY221061GA1081+002409069GF108991999071002501021999KA1120M+01341MD1210061+9999MW1631REMSYN088AAXX  31181 26882 11360 83405 10117 20113 40141 52006 60262 76362 8872/ 333 10134 88708;EQDQ01+000082SCOTLC
0166268820999992000053121004+53970+032850FM-12+021799999V0203101N005010042019N0500001N1+01131+01051101421ADDAY161031AY221031GA1071+004209069GF107991071071004501001001MD1210011+9999MW1211REMSYN076AAXX  31211 26882 41484 73105 10113 20105 40142 52001 72162 87700 333 87714;
0187268820999992000060100004+53970+032850FM-12+021799999V0203501N005010024019N0500001N1+01101+01041101421ADDAY161061AY221061GA1071+002409059GF107991071051002501001001MA1999999098741MD1410001+9999MW1021REMSYN082AAXX  01001 26882 41384 73505 10110 20104 39874 40142 54000 70262 87500 333 87608;
0122268820999992000060103004+53970+032850FM-12+021799999V0203301N005012200019N0200001N1+01021+00921101501ADDGF102991021051004501031011MD1310071+9999REMSYN070AAXX  01031 26882 42470 23305 10102 20092 40150 53007 82531 333 55000;
0174268820999992000060106004+53970+032850FM-12+021799999V0203501N005010063019N0200001N1+01201+00941101641ADDAA112005191GA1071+006309059GF107991071081008001001001KA1120N+01001MD1210141+9999REMSYN082AAXX  01061 26882 12570 73505 10120 20094 40164 52014 60052 87800 333 20100 87621;
0138268820999992000060109004+53970+032850FM-12+021799999V0200101N006010102019N0200001N1+01441+00731101711ADDGA1061+010209059GF107991061051012501001091MD1210101+9999REMSYN070AAXX  01091 26882 42670 70106 10144 20073 40171 52010 86509 333 86634;
0133268820999992000060112004+53970+032850FM-12+021799999V0200201N004010750019N0200001N1+01541+00781101771ADDGF107991031081012501001091MA1999999099131MD1210071+9999REMSYN066AAXX  01121 26882 42670 70204 10154 20078 39913 40177 52007 83809;
0112268820999992000060115004+53970+032850FM-12+021799999V0200101N004012200019N0200001N1+01631+00701101781ADDGF108991021021012501001011MD1110011+9999REMSYN060AAXX  01151 26882 42670 80104 10163 20070 40178 51001 82201;
0187268820999992000060118004+53970+032850FM-12+021799999V0200101N002010123019N0200001N1+01411+00881101951ADDAA199000091GA1061+012309029GF106991061021012501001001KA1120M+01641MD1310141+9999REMSYN076AAXX  01181 26882 32670 60102 10141 20088 40195 53014 86200 333 10164 86841;EQDQ01  00002PRCP99
0112268820999992000060121004+53970+032850FM-12+021799999V0203601N001019999999N0250001N1+01241+00861102041ADDGF107991071001999999031001MD1210081+9999REMSYN060AAXX  01211 26882 42975 73601 10124 20086 40204 52008 87030;
0133268820999992000060200004+53970+032850FM-12+021799999V0203301N001019999999N0180001N1+01031+00891102101ADDGF107991061001999999031011MA1999999099421MD1210061+9999REMSYN066AAXX  02001 26882 42968 73301 10103 20089 39942 40210 52006 86031;
0122268820999992000060203004+53970+032850FM-12+021799999V0203301N002019999999N0150001N1+00881+00761102221ADDGF108991001001999999001021MD1210071+9999REMSYN070AAXX  02031 26882 42965 83302 10088 20076 40222 52007 80002 333 55073;
0165268820999992000060206004+53970+032850FM-12+021799999V0200301N002012200019N0200001N1+01441+00821102311ADDAA199000091GF102991001001999999001091KA1999N+00831MD1210151+9999REMSYN070AAXX  02061 26882 32970 20302 10144 20082 40231 52015 80009 333 20083;EQDQ01  00002PRCP99
0112268820999992000060209004+53970+032850FM-12+021799999V0200101N004012200019N0200001N1+01721+00551102261ADDGF103991031021008001001001MD1810031+9999REMSYN060AAXX  02091 26882 42570 30104 10172 20055 40226 58003 83200;
0133268820999992000060212004+53970+032850FM-12+021799999V0203501N004012200019N0200001N1+01861+00461102201ADDGF103991031021012501001001MA1999999099571MD1710041+9999REMSYN066AAXX  02121 26882 42670 33504 10186 20046 39957 40220 57004 83200;
0112268820999992000060215004+53970+032850FM-12+021799999V0203301N004012200019N0200001N1+01941+00591102161ADDGF103991021021012501031001MD1710041+9999REMSYN060AAXX  02151 26882 42670 33304 10194 20059 40216 57004 82230;
0175268820999992000060218004+53970+032850FM-12+021799999V0202901N002012200019N0200001N1+01511+00731102241ADDAA199000091GA1001+999999999GF100991001001999999001001KA1999M+01951MD1210041+9999REMSYN064AAXX  02181 26882 32970 02902 10151 20073 40224 52004 333 10195;EQDQ01  00002PRCP99
0122268820999992000060221004+53970+032850FM-12+021799999V0202601N002012200019N0200001N1+01201+00731102321ADDGA1001+999999999GF100991001001999999001001MD1210051+9999REMSYN054AAXX  02211 26882 42970 02602 10120 20073 40232 52005;
0143268820999992000060300004+53970+032850FM-12+021799999V0202601N002012200019N0250001N1+00851+00561102341ADDGA1001+999999999GF100991001001999999001001MA1999999099621MD1410001+9999REMSYN060AAXX  03001 26882 42975 02602 10085 20056 39962 40234 54000;
0106268820999992000060303004+53970+032850FM-12+021799999V0202101N002012200019N0200001N1+00911+00651102321ADDGF103991999999999999999999MD1710031+9999REMSYN054AAXX  03031 26882 42970 32102 10091 20065 40232 57003;
0165268820999992000060306004+53970+032850FM-12+021799999V0202301N004019999999N0200001N1+01691+00811102231ADDAA199000091GF106991001001999999001011KA1999N+00741MD1710011+9999REMSYN070AAXX  03061 26882 32970 62304 10169 20081 40223 57001 80001 333 20074;EQDQ01  00002PRCP99
0131268820999992000060309004+53970+032850FM-12+021799999V0202501N004019999999N0200001N1+02051+00801102141ADDGF106991001001999999001011MD1710051+9999REMSYN060AAXX  03091 26882 42970 62504 10205 20080 40214 57005 80801;EQDQ01+000082SCOLCG
0133268820999992000060312004+53970+032850FM-12+021799999V0202401N006019999999N0200001N1+02131+00811101971ADDGF107991001001999999001061MA1999999099361MD1710171+9999REMSYN066AAXX  03121 26882 42970 72406 10213 20081 39936 40197 57017 80006;
0112268820999992000060315004+53970+032850FM-12+021799999V0202201N006019999999N0200001N1+02141+00931101811ADDGF106991001001999999001091MD1710161+9999REMSYN060AAXX  03151 26882 42970 62206 10214 20093 40181 57016 80009;
0165268820999992000060318004+53970+032850FM-12+021799999V0201801N003019999999N0200001N1+01801+01041101761ADDAA199000091GF105991001001999999001041KA1999M+02241MD1710071+9999REMSYN070AAXX  03181 26882 32970 51803 10180 20104 40176 57007 80004 333 10224;EQDQ01  00002PRCP99
0112268820999992000060321004+53970+032850FM-12+021799999V0202101N005012200019N0400001N1+01501+00941101761ADDGF103991001001999999001041MD1710021+9999REMSYN060AAXX  03211 26882 42982 32105 10150 20094 40176 57002 80004;
0133268820999992000060400004+53970+032850FM-12+021799999V0202201N004019999999N0290001N1+01421+00931101671ADDGF107991061001999999031011MA1999999099021MD1710091+9999REMSYN066AAXX  04001 26882 42979 72204 10142 20093 39902 40167 57009 86031;
0122268820999992000060403004+53970+032850FM-12+021799999V0202401N003012200019N0200001N1+01261+00941101571ADDGF104991021021008001001011MD1710041+9999REMSYN070AAXX  04031 26882 42570 42403 10126 20094 40157 57004 82201 333 55142;
0152268820999992000060406004+53970+032850FM-12+021799999V0202801N005012200019N0200001N1+01831+01261101651ADDAA199000091GA1001+999999999GF100991001001999999001001MD1310051+9999REMSYN054AAXX  04061 26882 32970 02805 10183 20126 40165 53005;EQDQ01  00002PRCP99
0122268820999992000060409004+53970+032850FM-12+021799999V0202901N006012200019N0200001N1+02021+00901101691ADDGA1001+999999999GF100991001001999999001001MD1210061+9999REMSYN054AAXX  04091 26882 42970 02906 10202 20090 40169 52006;
0143268820999992000060412004+53970+032850FM-12+021799999V0202601N006012200019N0200001N1+02101+00291101701ADDGA1001+999999999GF100991001001999999001001MA1999999099101MD1110011+9999REMSYN060AAXX  04121 26882 42970 02606 10210 20029 39910 40170 51001;
0112268820999992000060415004+53970+032850FM-12+021799999V0202801N006012200019N0200001N1+02131+00191101721ADDGF101991001001999999001011MD1310021+9999REMSYN060AAXX  04151 26882 42970 12806 10213 20019 40172 53002 80001;
0165268820999992000060418004+53970+032850FM-12+021799999V0202801N002012200019N0200001N1+01721+00741101761ADDAA199000091GF102991001001999999001011KA1999M+02201MD1410001+9999REMSYN070AAXX  04181 26882 32970 22802 10172 20074 40176 54000 80001 333 10220;EQDQ01  00002PRCP99
0122268820999992000060421004+53970+032850FM-12+021799999V0202401N003012200019N0500001N1+01281+00561101861ADDGA1001+999999999GF100991001001999999001001MD1210061+9999REMSYN054AAXX  04211 26882 42984 02403 10128 20056 40186 52006;
0133268820999992000060500004+53970+032850FM-12+021799999V0209999C000012200019N0500001N1+01071+00581101871ADDGF102991001001999999001011MA1999999099171MD1710011+9999REMSYN066AAXX  05001 26882 42984 20000 10107 20058 39917 40187 57001 80001;
0122268820999992000060503004+53970+032850FM-12+021799999V0209999C000019999999N0200001N1+01101+00881101871ADDGF107991071001999999071001MD1410001+9999REMSYN070AAXX  05031 26882 42970 70000 10110 20088 40187 54000 87070 333 55145;
0165268820999992000060506004+53970+032850FM-12+021799999V0209999C000019999999N0200001N1+01301+00901101791ADDAA199000091GF107991071001999999071001KA1999N+00971MD1710061+9999REMSYN070AAXX  05061 26882 32970 70000 10130 20090 40179 57006 87070 333 20097;EQDQ01  00002PRCP99
0140268820999992000060509004+53970+032850FM-12+021799999V0201401N004010300019N0200001N1+01521+00941101641ADDAY181031AY221031GF107991041021008001031001MD1710101+9999MW1021REMSYN066AAXX  05091 26882 41570 71404 10152 20094 40164 57010 70282 84230;
0133268820999992000060512004+53970+032850FM-12+021799999V0202601N004010300019N0200001N1+02051+01061101541ADDGF106991021021008001031001MA1999999098941MD1710071+9999REMSYN066AAXX  05121 26882 41570 62604 10205 20106 39894 40154 57007 82230;
0112268820999992000060515004+53970+032850FM-12+021799999V0200101N004010300019N0200001N1+02061+01171101511ADDGF106991021021008001031001MD1710031+9999REMSYN060AAXX  05151 26882 42570 60104 10206 20117 40151 57003 82230;
0152268820999992000060518004+53970+032850FM-12+021799999V0203501N003012200019N0200001N1+01731+01191101531ADDAA112000791GF103991031001999999031001KA1999M+02221MD1410001+9999REMSYN076AAXX  05181 26882 12970 33503 10173 20119 40153 54000 69902 83030 333 10222;
0112268820999992000060521004+53970+032850FM-12+021799999V0209999C000012200019N0400001N1+01301+01091101581ADDGF101991001001999999001011MD1310011+9999REMSYN060AAXX  05211 26882 42982 10000 10130 20109 40158 53001 80001;
0133268820999992000060600004+53970+032850FM-12+021799999V0200101N001012200019N0350001N1+01181+00681101631ADDGF104991041001999999031001MA1999999098951MD1210041+9999REMSYN066AAXX  06001 26882 42981 40101 10118 20068 39895 40163 52004 84030;
0122268820999992000060603004+53970+032850FM-12+021799999V0203501N001019999999N0200001N1+01111+00671101651ADDGF106991001001999999001011MD1210011+9999REMSYN070AAXX  06031 26882 42970 63501 10111 20067 40165 52001 80001 333 55071;
0165268820999992000060606004+53970+032850FM-12+021799999V0203601N003012200019N0200001N1+01581+00531101621ADDAA199000091GF103991001001999999001011KA1999N+00931MD1210021+9999REMSYN070AAXX  06061 26882 32970 33603 10158 20053 40162 52002 80001 333 20093;EQDQ01  00002PRCP99
0122268820999992000060609004+53970+032850FM-12+021799999V0203001N004012200019N0200001N1+01821+00411101611ADDGA1001+999999999GF100991001001999999001001MD1410001+9999REMSYN054AAXX  06091 26882 42970 03004 10182 20041 40161 54000;
0133268820999992000060612004+53970+032850FM-12+021799999V0202801N004012200019N0200001N1+02021+00591101551ADDGF102991001001999999001011MA1999999098941MD1810041+9999REMSYN066AAXX  06121 26882 42970 22804 10202 20059 39894 40155 58004 80001;
0112268820999992000060615004+53970+032850FM-12+021799999V0203401N002012200019N0200001N1+02051+00621101461ADDGF102991001001999999001011MD1710081+9999REMSYN060AAXX  06151 26882 42970 23402 10205 20062 40146 57008 80001;
0165268820999992000060618004+53970+032850FM-12+021799999V0209999C000019999999N0140001N1+01771+00711101441ADDAA199000091GF106991061001999999031001KA1999M+02091MD1710041+9999REMSYN070AAXX  06181 26882 32964 60000 10177 20071 40144 57004 86030 333 10209;EQDQ01  00002PRCP99
0133268820999992000060621004+53970+032850FM-12+021799999V0200301N001019999999N0150001N1+01331+00781101341ADDGF107991071001999999031001MA1999999098691MD1710091+9999REMSYN066AAXX  06211 26882 42965 70301 10133 20078 39869 40134 57009 87030;
0122268820999992000060703004+53970+032850FM-12+021799999V0200601N001019999999N0200001N1+01311+00811101301ADDGF107991071001999999031001MD1710051+9999REMSYN070AAXX  07031 26882 42970 70601 10131 20081 40130 57005 87030 333 55140;
0180268820999992000060706004+53970+032850FM-12+021799999V0200701N001019999999N0200001N1+01411+01061101201ADDAA112000391AY161061AY221061GF107991071001999999071001KA1999N+01271MD1710111+9999MW1611REMSYN082AAXX  07061 26882 11970 70701 10141 20106 40120 57011 69932 76162 87070 333 20127;
0140268820999992000060709004+53970+032850FM-12+021799999V0200701N001019999999N0200001N1+01521+01361101171ADDAY161031AY221031GF107991071001999999071001MD1710011+9999MW1611REMSYN066AAXX  07091 26882 41970 70701 10152 20136 40117 57001 76162 87070;
0161268820999992000060712004+53970+032850FM-12+021799999V0201201N004012200019N0200001N1+02201+01571101011ADDAY161061AY211061GF102991011011012501031001MA1999999098441MD1710101+9999MW1011REMSYN072AAXX  07121 26882 41670 21204 10220 20157 39844 40101 57010 70161 81130;
0112268820999992000060715004+53970+032850FM-12+021799999V0201501N003010300019N0200001N1+02381+01641100811ADDGF106991021021012501061001MD1710181+9999REMSYN060AAXX  07151 26882 42670 61503 10238 20164 40081 57018 82260;
0208268820999992000060718004+53970+032850FM-12+021799999V0209999C000010039019N0200001N1+01561+01471100881ADDAA112007191AY191061AY281061GA1081+003909099GF108991081091004501999999KA1120M+02451MD1710011+9999MW1951REMSYN094AAXX  07181 26882 11470 80000 10156 20147 40088 57001 60072 79598 889// 333 10245 88913 91119;
0140268820999992000060721004+53970+032850FM-12+021799999V0201701N002019999999N0260001N1+01521+01471100851ADDAY191031AY281031GF108991051001999999061051MD1710021+9999MW1021REMSYN066AAXX  07211 26882 41976 81702 10152 20147 40085 57002 70298 85065;
0187268820999992000060800004+53970+032850FM-12+021799999V0202101N003010015019N0023001N1+01561+01541100791ADDAY191061AY281061GA1081+001509069GF108991081061001501999999MA1999999098181MD1710051+9999MW1101REMSYN082AAXX  08001 26882 41223 82103 10156 20154 39818 40079 57005 71098 886// 333 88705;
0199268820999992000060803004+53970+032850FM-12+021799999V0202801N007010027019N0060001N1+01241+01171100981ADDAY161031AY221031GA1081+002709069GF108991999071002501021999GJ102829MD1310141+9999MW1611REMSYN082AAXX  08031 26882 41356 82807 10124 20117 40098 53014 76162 8872/ 333 55047 88709;EQDQ01+000082SCOTLC
0221268820999992000060806004+53970+032850FM-12+021799999V0203001N003010030019N0160001N1+01131+01031101141ADDAA112003091AY161061AY221061GA1081+003009069GF108991999071002501021999KA1120N+01071MD1210151+9999MW1611REMSYN088AAXX  08061 26882 11366 83003 10113 20103 40114 52015 60032 76162 8872/ 333 20107 88710;EQDQ01+000082SCOTLC
0140268820999992000060809004+53970+032850FM-12+021799999V0202801N007012200019N0200001N1+01581+01071101151ADDAY161031AY211031GF104991041021012501001001MD1210051+9999MW1011REMSYN066AAXX  08091 26882 41670 42807 10158 20107 40115 52005 70161 84200;
0188268820999992000060812004+53970+032850FM-12+021799999V0202701N009010300019N0090001N1+01471+00841101171ADDAY181061AY261061GF107991041091004501061001MA1999999098531MD1010011+9999MW1811OA140101501REMSYN088AAXX  08121 26882 41459 72709 10147 20084 39853 40117 50001 78186 84960 333 91015 91114;
0139268820999992000060815004+53970+032850FM-12+021799999V0202801N009012200019N0200001N1+01491+00501101171ADDGF103991021021008001061001MD1410001+9999OA140101401REMSYN076AAXX  08151 26882 42570 32809 10149 20050 40117 54000 82260 333 91014 91112;
0158268820999992000060818004+53970+032850FM-12+021799999V0202501N002012200019N0200001N1+01231+00861101261ADDAA112000791GF103991031041008001001001KA1120M+01811MD1310071+9999REMSYN082AAXX  08181 26882 12570 32502 10123 20086 40126 53007 69902 83400 333 10181 91114;
0140268820999992000060821004+53970+032850FM-12+021799999V0202501N005012200019N0500001N1+00971+00781101301ADDAY181031AY211031GF104991021041008001061001MD1210011+9999MW1011REMSYN066AAXX  08211 26882 41584 42505 10097 20078 40130 52001 70181 82460;
0161268820999992000060900004+53970+032850FM-12+021799999V0202601N003019999999N0500001N1+00841+00761101321ADDAY181061AY211061GF107991071001999999071001MA1999999098621MD1210011+9999MW1031REMSYN072AAXX  09001 26882 41984 72603 10084 20076 39862 40132 52001 70381 87070;
0152268820999992000060903004+53970+032850FM-12+021799999V0202801N006010042019N0200001N1+00971+00821101321ADDGA1071+004209059GF107991071051004501001001GJ104629MD1210011+9999REMSYN076AAXX  09031 26882 42470 72806 10097 20082 40132 52001 87500 333 55077 87614;
0174268820999992000060906004+53970+032850FM-12+021799999V0202801N004010051019N0200001N1+00991+00671101411ADDAA112000791GA1071+005109059GF107991071051004501001001KA1120N+00831MD1210091+9999REMSYN082AAXX  09061 26882 12470 72804 10099 20067 40141 52009 69902 87500 333 20083 87617;
0138268820999992000060909004+53970+032850FM-12+021799999V0203001N008010105019N0200001N1+01331+00781101381ADDGA1071+010509059GF107991071051012501001001MD1210011+9999REMSYN070AAXX  09091 26882 42670 73008 10133 20078 40138 52001 87500 333 87635;
0171268820999992000060912004+53970+032850FM-12+021799999V0203301N005010300019N0200001N1+01411+00851101381ADDAY181061AY221061GF107991041091004501061001MA1999999098731MD1410001+9999MW1811REMSYN082AAXX  09121 26882 41470 73305 10141 20085 39873 40138 54000 78182 84960 333 91015;
0140268820999992000060915004+53970+032850FM-12+021799999V0203001N008010300019N0200001N1+01431+00921101451ADDAY181031AY221031GF107991041021008001061001MD1210071+9999MW1021REMSYN066AAXX  09151 26882 41570 73008 10143 20092 40145 52007 70282 84260;
0186268820999992000060918004+53970+032850FM-12+021799999V0209999C000012200019N0200001N1+01221+00931101631ADDAA112002091AY181061AY211061GF103991031021008001001001KA1120M+01601MD1210161+9999MW1011REMSYN088AAXX  09181 26882 11570 33300 10122 20093 40163 52016 60022 70181 83200 333 10160 91117;
0122268820999992000060921004+53970+032850FM-12+021799999V0202901N003012200019N0500001N1+00931+00711101811ADDGA1001+999999999GF100991001001999999001001MD1210141+9999REMSYN054AAXX  09211 26882 42984 02903 10093 20071 40181 52014;
0122268820999992000061003004+53970+032850FM-12+021799999V0203001N005012200019N0200001N1+01001+00701102051ADDGF102991021021008001001001MD1210171+9999REMSYN070AAXX  10031 26882 42570 23005 10100 20070 40205 52017 82200 333 55071;
0165268820999992000061006004+53970+032850FM-12+021799999V0203401N004012200019N0200001N1+01521+00781102161ADDAA199000091GF103991031001999999031001KA1999N+00871MD1210151+9999REMSYN070AAXX  10061 26882 32970 33404 10152 20078 40216 52015 83030 333 20087;EQDQ01  00002PRCP99
0112268820999992000061009004+53970+032850FM-12+021799999V0203201N007010300019N0200001N1+01701+00671102181ADDGF105991031021012501031001MD1210041+9999REMSYN060AAXX  10091 26882 42670 53207 10170 20067 40218 52004 83230;
0137268820999992000061012004+53970+032850FM-12+021799999V0203201N007010300019N0200001N1+01981+00781102131ADDGF105991021021012501031001MA1999999099511MD1810021+9999REMSYN070AAXX  10121 26882 42670 53207 10198 20078 39951 40213 58002 82230 555;
0112268820999992000061015004+53970+032850FM-12+021799999V0203101N007012200019N0200001N1+01981+00621102111ADDGF102991021021012501001001MD1710021+9999REMSYN060AAXX  10151 26882 42670 23107 10198 20062 40211 57002 82200;
0175268820999992000061018004+53970+032850FM-12+021799999V0203101N003012200019N0200001N1+01671+00681102181ADDAA199000091GA1001+999999999GF100991001001999999001001KA1999M+02001MD1210041+9999REMSYN064AAXX  10181 26882 32970 03103 10167 20068 40218 52004 333 10200;EQDQ01  00002PRCP99
0106268820999992000061021004+53970+032850FM-12+021799999V0202801N002019999999N0500001N1+01341+00651102331ADDGF107991999999999999999999MD1210121+9999REMSYN054AAXX  10211 26882 42984 72802 10134 20065 40233 52012;
0143268820999992000061100004+53970+032850FM-12+021799999V0209999C000012200019N0500001N1+00991+99999102411ADDGA1001+999999999GF100991001001999999001001MA1999999099691MD1210041+9999REMSYN060AAXX  11001 26882 42984 00000 10099 27758 39969 40241 52004;
0132268820999992000061103004+53970+032850FM-12+021799999V0209999C000012200019N0200001N1+00921+00711102511ADDGA1001+999999999GF100991001001999999001001MD1210081+9999REMSYN064AAXX  11031 26882 42970 00000 10092 20071 40251 52008 333 55151;
0175268820999992000061106004+53970+032850FM-12+021799999V0202501N001012200019N0200001N1+01841+00991102451ADDAA199000091GA1001+999999999GF100991001001999999001001KA1999N+00761MD1210041+9999REMSYN064AAXX  11061 26882 32970 02501 10184 20099 40245 52004 333 20076;EQDQ01  00002PRCP99
0112268820999992000061109004+53970+032850FM-12+021799999V0203201N002012200019N0200001N1+02061+00501102431ADDGF102991011011008001001011MD1410001+9999REMSYN060AAXX  11091 26882 42570 23202 10206 20050 40243 54000 81101;
0133268820999992000061112004+53970+032850FM-12+021799999V0202301N003012200019N0200001N1+02221+00621102311ADDGF102991001001999999001011MA1999999099701MD1810111+9999REMSYN066AAXX  11121 26882 42970 22303 10222 20062 39970 40231 58011 80001;
0112268820999992000061115004+53970+032850FM-12+021799999V0202901N003012200019N0200001N1+02321+00671102241ADDGF102991001001999999001011MD1710061+9999REMSYN060AAXX  11151 26882 42970 22903 10232 20067 40224 57006 80001;
0175268820999992000061118004+53970+032850FM-12+021799999V0202501N002012200019N0200001N1+01961+00971102221ADDAA199000091GA1001+999999999GF100991001001999999001001KA1999M+02361MD1710041+9999REMSYN064AAXX  11181 26882 32970 02502 10196 20097 40222 57004 333 10236;EQDQ01  00002PRCP99
0143268820999992000061200004+53970+032850FM-12+021799999V0202101N003012200019N0500001N1+01201+00861102251ADDGA1001+999999999GF100991001001999999001001MA1999999099551MD1710011+9999REMSYN060AAXX  12001 26882 42984 02103 10120 20086 39955 40225 57001;
0132268820999992000061203004+53970+032850FM-12+021799999V0202101N005012200019N0200001N1+01361+00861102221ADDGA1001+999999999GF100991001001999999001001MD1710011+9999REMSYN064AAXX  12031 26882 42970 02105 10136 20086 40222 57001 333 55155;
0175268820999992000061206004+53970+032850FM-12+021799999V0202301N004012200019N0200001N1+01971+01151102131ADDAA199000091GA1001+999999999GF100991001001999999001001KA1999N+01171MD1710031+9999REMSYN064AAXX  12061 26882 32970 02304 10197 20115 40213 57003 333 20117;EQDQ01  00002PRCP99
0122268820999992000061209004+53970+032850FM-12+021799999V0202201N006012200019N0200001N1+02481+01141101971ADDGA1001+999999999GF100991001001999999001001MD1710111+9999REMSYN054AAXX  12091 26882 42970 02206 10248 20114 40197 57011;
0143268820999992000061212004+53970+032850FM-12+021799999V0202001N007012200019N0200001N1+02691+01271101731ADDGA1001+999999999GF100991001001999999001001MA1999999099181MD1710221+9999REMSYN060AAXX  12121 26882 42970 02007 10269 20127 39918 40173 57022;
0112268820999992000061215004+53970+032850FM-12+021799999V0202001N007019999999N0200001N1+02711+01301101401ADDGF105991001001999999001011MD1710321+9999REMSYN060AAXX  12151 26882 42970 52007 10271 20130 40140 57032 80001;
0193268820999992000061218004+53970+032850FM-12+021799999V0202801N006010300019N0200001N1+02291+01241101541ADDAA199000091AY191061AY211061GF107991041091008001061001KA1999M+02751MD1310111+9999MW1171REMSYN076AAXX  12181 26882 31570 72806 10229 20124 40154 53011 71791 84960 333 10275;EQDQ01  00002PRCP99
0140268820999992000061221004+53970+032850FM-12+021799999V0202701N006019999999N0500001N1+01791+01641101501ADDAY191031AY281031GF107991071001999999061001MD1710091+9999MW1021REMSYN066AAXX  12211 26882 41984 72706 10179 20164 40150 57009 70298 87060;
0161268820999992000061300004+53970+032850FM-12+021799999V0203001N006010300019N0500001N1+01571+01171101551ADDAY191061AY281061GF106991021021008001061001MA1999999098911MD1310031+9999MW1011REMSYN072AAXX  13001 26882 41584 63006 10157 20117 39891 40155 53003 70198 82260;
0122268820999992000061303004+53970+032850FM-12+021799999V0203001N007012200019N0200001N1+01211+00821101781ADDGF103991031001999999031001MD1210091+9999REMSYN070AAXX  13031 26882 42970 33007 10121 20082 40178 52009 83030 333 55135;
0152268820999992000061306004+53970+032850FM-12+021799999V0202901N008012200019N0200001N1+01421+00761101901ADDAA112003091GF103991031021008001001001KA1999N+01211MD1210131+9999REMSYN076AAXX  13061 26882 12570 32908 10142 20076 40190 52013 60032 83200 333 20121;
0112268820999992000061309004+53970+032850FM-12+021799999V0203001N008012200019N0200001N1+01671+00711101941ADDGF104991041021008001001001MD1210071+9999REMSYN060AAXX  13091 26882 42570 43008 10167 20071 40194 52007 84200;
0143268820999992000061312004+53970+032850FM-12+021799999V0203101N008010300019N0200001N1+01791+00641101991ADDGF106991041021008001031001MA1999999099361MD1210061+9999REMSYN076AAXX  13121 26882 42570 63108 10179 20064 39936 40199 52006 84230 333 91114;
0112268820999992000061315004+53970+032850FM-12+021799999V0203001N007010300019N0200001N1+01851+00671102001ADDGF106991041021008001031001MD1210011+9999REMSYN060AAXX  13151 26882 42570 63007 10185 20067 40200 52001 84230;
0181268820999992000061318004+53970+032850FM-12+021799999V0203001N003012200019N0200001N1+01651+00881102011ADDAA199000091GA1001+999999999GF100991001001999999001001KA1120M+01951MD1410001+9999REMSYN070AAXX  13181 26882 32970 03003 10165 20088 40201 54000 333 10195 91114;EQDQ01  00002PRCP99
0122268820999992000061321004+53960+032840FM-12+021799999V0202801N003012200019N0500001N1+01081+00881102121ADDGA1001+999999999GF100991001001999999001001MD1310051+9999REMSYN054AAXX  13211 26882 42984 02803 10108 20088 40212 53005;
0143268820999992000061400004+53960+032840FM-12+021799999V0202401N004012200019N0500001N1+01001+00821102111ADDGA1001+999999999GF100991001001999999001001MA1999999099401MD1810021+9999REMSYN060AAXX  14001 26882 42984 02404 10100 20082 39940 40211 58002;
0132268820999992000061403004+53960+032840FM-12+021799999V0202201N003012200019N0200001N1+01121+00941102101ADDGA1001+999999999GF100991001001999999001001MD1310011+9999REMSYN064AAXX  14031 26882 42970 02203 10112 20094 40210 53001 333 55143;
0175268820999992000061406004+53960+032840FM-12+021799999V0202301N004012200019N0200001N1+01861+01271102011ADDAA199000091GA1001+999999999GF100991001001999999001001KA1999N+00921MD1210031+9999REMSYN064AAXX  14061 26882 32970 02304 10186 20127 40201 52003 333 20092;EQDQ01  00002PRCP99
0112268820999992000061409004+53960+032840FM-12+021799999V0202401N004012200019N0200001N1+02261+01321101871ADDGF102991021011012501001001MD1810101+9999REMSYN060AAXX  14091 26882 42670 22404 10226 20132 40187 58010 82100;
0133268820999992000061412004+53960+032840FM-12+021799999V0202701N003012200019N0200001N1+02501+01231101661ADDGF102991021021012501001001MA1999999099101MD1710181+9999REMSYN066AAXX  14121 26882 42670 22703 10250 20123 39910 40166 57018 82200;
0112268820999992000061415004+53960+032840FM-12+021799999V0202301N005012200019N0200001N1+02541+01451101441ADDGF102991011011012501031001MD1710221+9999REMSYN060AAXX  14151 26882 42670 22305 10254 20145 40144 57022 81130;
0165268820999992000061418004+53960+032840FM-12+021799999V0202001N004010300019N0200001N1+02091+01581101301ADDAA199000091GF105991021021012501031001KA1999M+02611MD1710161+9999REMSYN070AAXX  14181 26882 32670 52004 10209 20158 40130 57016 82230 333 10261;EQDQ01  00002PRCP99
0112268820999992000061421004+53960+032840FM-12+021799999V0202201N003010300019N0250001N1+01701+01361101211ADDGF105991021021012501031001MD1710131+9999REMSYN060AAXX  14211 26882 42675 52203 10170 20136 40121 57013 82230;
0133268820999992000061500004+53960+032840FM-12+021799999V0202201N003010300019N0250001N1+01451+01361101091ADDGF105991021021012501031001MA1999999098451MD1710131+9999REMSYN066AAXX  15001 26882 42675 52203 10145 20136 39845 40109 57013 82230;
0150268820999992000061503004+53960+032840FM-12+021799999V0203001N003010300019N0140001N1+01571+01491101001ADDAY191031AY281031GF107991041091004501061001MD1710071+9999MW1951REMSYN076AAXX  15031 26882 41464 73003 10157 20149 40100 57007 79598 84960 333 55149;
0180268820999992000061506004+53960+032840FM-12+021799999V0202901N002012200019N0200001N1+01741+01271100971ADDAA112004191AY191061AY281061GF104991041001999999061001KA1999N+01411MD1710021+9999MW1011REMSYN082AAXX  15061 26882 11970 42902 10174 20127 40097 57002 60042 70198 84060 333 20141;
0112268820999992000061509004+53960+032840FM-12+021799999V0202701N007010300019N0200001N1+02091+01131100911ADDGF106991021021008001061091MD1710031+9999REMSYN060AAXX  15091 26882 42570 62707 10209 20113 40091 57003 82269;
0143268820999992000061512004+53960+032840FM-12+021799999V0202801N007010750019N0200001N1+02111+00981100891ADDGF105991021021008001001091MA1999999098311MD1710021+9999REMSYN076AAXX  15121 26882 42570 52807 10211 20098 39831 40089 57002 82209 333 91113;
0122268820999992000061515004+53960+032840FM-12+021799999V0203101N007012200019N0200001N1+01971+00411100871ADDGF102991021011012501001001MD1710031+9999REMSYN070AAXX  15151 26882 42670 23107 10197 20041 40087 57003 82100 333 91113;
0171268820999992000061518004+53960+032840FM-12+021799999V0202901N003012200019N0200001N1+01541+00761100951ADDAA199000091GF102991001001999999001011KA1120M+02211MD1310041+9999REMSYN076AAXX  15181 26882 32970 22903 10154 20076 40095 53004 80001 333 10221 91113;EQDQ01  00002PRCP99
0112268820999992000061521004+53960+032840FM-12+021799999V0202401N003019999999N0500001N1+01121+00771100981ADDGF106991001001999999001011MD1810011+9999REMSYN060AAXX  15211 26882 42984 62403 10112 20077 40098 58001 80001;
0133268820999992000061600004+53960+032840FM-12+021799999V0209999C000019999999N0500001N1+01041+00731100871ADDGF107991051001999999031011MA1999999098201MD1710111+9999REMSYN066AAXX  16001 26882 42984 70000 10104 20073 39820 40087 57011 85031;
0150268820999992000061603004+53960+032840FM-12+021799999V0203201N002019999999N0180001N1+01041+00941100811ADDAY161031AY221031GF108991081001999999071999MD1710061+9999MW1611REMSYN076AAXX  16031 26882 41968 83202 10104 20094 40081 57006 76162 8807/ 333 55118;
0180268820999992000061606004+53960+032840FM-12+021799999V0200601N002019999999N0060001N1+01081+00981100781ADDAA112005191AY161061AY221061GF108991081001999999071999KA1999N+00891MD1710091+9999MW1631REMSYN082AAXX  16061 26882 11956 80602 10108 20098 40078 57009 60052 76362 8807/ 333 20089;
0185268820999992000061609004+53960+032840FM-12+021799999V0200901N002010030019N0120001N1+01121+01031100611ADDAY161031AY221031GA1081+003009069GF108991999071004501021999MD1710101+9999MW1611REMSYN076AAXX  16091 26882 42462 80902 10112 20103 40061 57010 76162 8872/ 333 88710;EQDQ01+000082SCOTLC
0187268820999992000061612004+53960+032840FM-12+021799999V0209999C000010063019N0200001N1+01241+01031100601ADDAY161061AY221061GA1071+006309059GF107991071081008001001001MA1999999097951MD1410001+9999MW1021REMSYN082AAXX  16121 26882 41570 70000 10124 20103 39795 40060 54000 70262 87800 333 87621;
0166268820999992000061615004+53960+032840FM-12+021799999V0202801N001010054019N0200001N1+01241+01061100621ADDAY181031AY221031GA1071+005409069GF107991071091004501001001MD1210021+9999MW1801REMSYN076AAXX  16151 26882 41470 72801 10124 20106 40062 52002 78082 87900 333 87718;
0180268820999992000061618004+53960+032840FM-12+021799999V0202401N003012200019N0200001N1+01161+01101100661ADDAA112008991AY181061AY211061GF103991021041004501061001KA1999M+01311MD1210031+9999MW1011REMSYN082AAXX  16181 26882 11470 32403 10116 20110 40066 52003 60092 70181 82460 333 10131;
0122268820999992000061621004+53960+032840FM-12+021799999V0202701N004012200019N0500001N1+00911+00771100781ADDGA1001+999999999GF100991001001999999001001MD1210091+9999REMSYN054AAXX  16211 26882 42984 02704 10091 20077 40078 52009;
0143268820999992000061700004+53960+032840FM-12+021799999V0202501N004012200019N0500001N1+00571+00521100881ADDGA1001+999999999GF100991001001999999001001MA1999999098161MD1210071+9999REMSYN060AAXX  17001 26882 42984 02504 10057 20052 39816 40088 52007;
0122268820999992000061703004+53960+032840FM-12+021799999V0202901N003012200019N0200001N1+00701+00611100921ADDGF102991021051008001031001MD1210051+9999REMSYN070AAXX  17031 26882 42570 22903 10070 20061 40092 52005 82530 333 55005;
0165268820999992000061706004+53960+032840FM-12+021799999V0203001N004012200019N0200001N1+01151+00781101001ADDAA199000091GF103991031021999999001001KA1999N+00551MD1210121+9999REMSYN070AAXX  17061 26882 32970 33004 10115 20078 40100 52012 83200 333 20055;EQDQ01  00002PRCP99
0112268820999992000061709004+53960+032840FM-12+021799999V0203301N004010300019N0200001N1+01251+00561101091ADDGF106991031021008001031001MD1210101+9999REMSYN060AAXX  17091 26882 42570 63304 10125 20056 40109 52010 83230;
0161268820999992000061712004+53960+032840FM-12+021799999V0202801N003010300019N0200001N1+01501+00431101121ADDAY181061AY211061GF106991031021008001031001MA1999999098481MD1210051+9999MW1021REMSYN072AAXX  17121 26882 41570 62803 10150 20043 39848 40112 52005 70281 83230;
0112268820999992000061715004+53960+032840FM-12+021799999V0203101N003012200019N0200001N1+01491+00431101201ADDGF104991021021012501031001MD1210071+9999REMSYN060AAXX  17151 26882 42670 43103 10149 20043 40120 52007 82230;
0180268820999992000061718004+53960+032840FM-12+021799999V0203101N003012200019N0200001N1+01181+00681101311ADDAA112001091AY111061AY211061GF102991021091004501001001KA1999M+01621MD1210091+9999MW1251REMSYN082AAXX  17181 26882 11470 23103 10118 20068 40131 52009 60012 72511 82900 333 10162;
0112268820999992000061721004+53960+032840FM-12+021799999V0202901N003012200019N0500001N1+00731+00531101431ADDGF103991031001999999031001MD1210071+9999REMSYN060AAXX  17211 26882 42984 32903 10073 20053 40143 52007 83030;
0133268820999992000061800004+53960+032840FM-12+021799999V0203101N004010300019N0500001N1+00681+00571101451ADDGF106991021051004501031001MA1999999098731MD1210021+9999REMSYN066AAXX  18001 26882 42484 63104 10068 20057 39873 40145 52002 82530;
0122268820999992000061803004+53960+032840FM-12+021799999V0203301N004019999999N0200001N1+00751+00621101461ADDGF107991071001999999031001MD1210021+9999REMSYN070AAXX  18031 26882 42970 73304 10075 20062 40146 52002 87030 333 55123;
0146268820999992000061806004+53960+032840FM-12+021799999V0203301N004010300019N0200001N1+01041+00731101541ADDAA199000021GF107991031081008001031011KA1999N+00661MD1210101+9999REMSYN070AAXX  18061 26882 32570 73304 10104 20073 40154 52010 83831 333 20066;
0138268820999992000061809004+53960+032840FM-12+021799999V0200301N004010117019N0200001N1+01241+00381101601ADDGA1061+011709029GF107991061021012501001011MD1210071+9999REMSYN070AAXX  18091 26882 42670 70304 10124 20038 40160 52007 86201 333 86839;
0133268820999992000061812004+53960+032840FM-12+021799999V0203501N005010300019N0200001N1+01461+00291101621ADDGF106991041021012501031001MA1999999098971MD1210051+9999REMSYN066AAXX  18121 26882 42670 63505 10146 20029 39897 40162 52005 84230;
0112268820999992000061815004+53960+032840FM-12+021799999V0203401N005010300019N0200001N1+01461+00191101721ADDGF107991021021012501031011MD1210091+9999REMSYN060AAXX  18151 26882 42670 73405 10146 20019 40172 52009 82231;
0165268820999992000061818004+53960+032840FM-12+021799999V0203401N004010300019N0200001N1+01291+00361101921ADDAA199000091GF105991021021012501031001KA1999M+01551MD1210181+9999REMSYN070AAXX  18181 26882 32670 53404 10129 20036 40192 52018 82230 333 10155;EQDQ01  00002PRCP99
0112268820999992000061821004+53960+032840FM-12+021799999V0203401N004012200019N0500001N1+00831+00211102131ADDGF103991031001999999031001MD1210161+9999REMSYN060AAXX  18211 26882 42984 33404 10083 20021 40213 52016 83030;
0133268820999992000061900004+53960+032840FM-12+021799999V0203301N004012200019N0500001N1+00631+00321102231ADDGF103991031001999999031001MA1999999099471MD1210071+9999REMSYN066AAXX  19001 26882 42984 33304 10063 20032 39947 40223 52007 83030;
0122268820999992000061903004+53960+032840FM-12+021799999V0203301N003012200019N0200001N1+00691+00561102231ADDGF103991031001999999031001MD1210011+9999REMSYN070AAXX  19031 26882 42970 33303 10069 20056 40223 52001 83030 333 55081;
0165268820999992000061906004+53960+032840FM-12+021799999V0200101N003012200019N0200001N1+01251+00501102181ADDAA199000091GF102991011011012501031001KA1999N+00571MD1210011+9999REMSYN070AAXX  19061 26882 32670 20103 10125 20050 40218 52001 81130 333 20057;EQDQ01  00002PRCP99
0112268820999992000061909004+53960+032840FM-12+021799999V0203601N003012200019N0200001N1+01401+00131102091ADDGF103991031021008001001001MD1710061+9999REMSYN060AAXX  19091 26882 42570 33603 10140 20013 40209 57006 83200;
0169268820999992000061912004+53960+032840FM-12+021799999V0200401N008012200019N0200001N1+01551+00041999999ADDGF104991041041008001001001MA1999999099361MD1710071+9999ME1312029OA140101201REMSYN082AAXX  19121 26882 42570 40408 10155 20004 39936 48202 57007 84400 333 91012 91112;
0139268820999992000061915004+53960+032840FM-12+021799999V0200201N006010300019N0200001N1+01551+00171101891ADDGF107991021021008001071021MD1710131+9999OA140101201REMSYN076AAXX  19151 26882 42570 70206 10155 20017 40189 57013 82272 333 91012 91112;
0171268820999992000061918004+53960+032840FM-12+021799999V0203401N005019999999N0200001N1+01341+00341101811ADDAA199000091GF107991001001999999001051KA1120M+01701MD1710091+9999REMSYN076AAXX  19181 26882 32970 73405 10134 20034 40181 57009 80005 333 10170 91112;EQDQ01  00002PRCP99
0112268820999992000061921004+53960+032840FM-12+021799999V0203301N005019999999N0500001N1+01081+00381101771ADDGF107991051001999999031011MD1710061+9999REMSYN060AAXX  19211 26882 42984 73305 10108 20038 40177 57006 85031;
0133268820999992000062000004+53960+032840FM-12+021799999V0203301N005019999999N0500001N1+00961+00341101581ADDGF107991071001999999031001MA1999999098881MD1710201+9999REMSYN066AAXX  20001 26882 42984 73305 10096 20034 39888 40158 57020 87030;
0152268820999992000062003004+53960+032840FM-12+021799999V0203301N005019999999N0200001N1+00921+00321101421ADDAA124999999GF108991081001999999071999KA1120N+00891MD1710161+9999REMSYN076AAXX  20031 26882 42970 83305 10092 20032 40142 57016 8807/ 333 20089 7000/;
0180268820999992000062006004+53960+032840FM-12+021799999V0203501N005019999999N0200001N1+00991+00431101381ADDAA112000791AY121061AY221061GF108991081001999999071999KA1999N+00891MD1710031+9999MW1211REMSYN082AAXX  20061 26882 11970 83505 10099 20043 40138 57003 69902 72122 8807/ 333 20089;
0171268820999992000062012004+53960+032840FM-12+021799999V0203501N006010120019N0200001N1+01111+00461101241ADDAY161061AY221061GF108991061071012501071999MA1999999098561MD1710051+9999MW1611REMSYN082AAXX  20121 26882 41670 83506 10111 20046 39856 40124 57005 76162 8677/ 333 91114;
0185268820999992000062015004+53960+032840FM-12+021799999V0203501N005010057019N0200001N1+99999+99999101171ADDAY181031AY221031GA1071+005709059GF107991071081004501001001MD1710061+9999MW1021REMSYN076AAXX  20151 26882 41470 73505 11092 20045 40117 57006 70282 87800 333 87619;EQDQ01-000923ATOT  
0208268820999992000062018004+53960+032840FM-12+021799999V0203501N004010024019N0200001N1+00971+00901101071ADDAA112002091AY181061AY261061GA1071+002409079GF107991071071002501071001KA1120M+01161MD1710111+9999MW1211REMSYN094AAXX  20181 26882 11370 73504 10097 20090 40107 57011 60022 72186 87770 333 10116 87708 91113;
0166268820999992000062021004+53960+032840FM-12+021799999V0200501N004010024019N0120001N1+00971+00901101051ADDAY161031AY221031GA1071+002409069GF107991071071002501001001MD1710021+9999MW1211REMSYN076AAXX  20211 26882 41362 70504 10097 20090 40105 57002 72162 87700 333 87708;
0187268820999992000062100004+53960+032840FM-12+021799999V0200601N002010030019N0500001N1+00891+00781101091ADDAY161061AY221061GA1071+003009059GF107991071051002501001001MA1999999098401MD1310031+9999MW1011REMSYN082AAXX  21001 26882 41384 70602 10089 20078 39840 40109 53003 70162 87500 333 87610;
0180268820999992000062103004+53960+032840FM-12+021799999V0200101N003010018019N0043001N1+00751+00731101151ADDAY121031AY221031GA1071+001809069GF107991071061001501001001GJ100069MD1210051+9999MW1101REMSYN082AAXX  21031 26882 41243 70103 10075 20073 40115 52005 71022 87600 333 55001 87706;
0174268820999992000062106004+53960+032840FM-12+021799999V0200101N003010030019N0120001N1+00991+00891101111ADDAA112000791GA1071+003009059GF107991071051002501001001KA1120N+00711MD1710021+9999REMSYN082AAXX  21061 26882 12362 70103 10099 20089 40111 57002 69902 87500 333 20071 87610;
0185268820999992000062109004+53960+032840FM-12+021799999V0200101N001010030019N0070001N1+01171+01021101091ADDAY161031AY221031GA1081+003009069GF108991999071004501021999MD1410001+9999MW1631REMSYN076AAXX  21091 26882 41457 80101 10117 20102 40109 54000 76362 8872/ 333 88710;EQDQ01+000082SCOTLC
0187268820999992000062112004+53960+032840FM-12+021799999V0203201N007010042019N0200001N1+01271+00861100941ADDAY161061AY221061GA1071+004209059GF107991071051004501001001MA1999999098281MD1710151+9999MW1211REMSYN082AAXX  21121 26882 41470 73207 10127 20086 39828 40094 57015 72162 87500 333 87614;
0185268820999992000062115004+53960+032840FM-12+021799999V0203201N007010030019N0060001N1+01151+01101100811ADDAY161031AY221031GA1081+003009069GF108991999071004501021999MD1710131+9999MW1631REMSYN076AAXX  21151 26882 41456 83207 10115 20110 40081 57013 76362 8872/ 333 88710;EQDQ01+000082SCOTLC
0202268820999992000062118004+53960+032840FM-12+021799999V0200501N005010021019N0060001N1+01231+01191100731ADDAA112003091AY161061AY221061GA1081+002109069GF108991081071002501999999KA1120M+01291MD1710071+9999MW1211REMSYN088AAXX  21181 26882 11356 80505 10123 20119 40073 57007 60032 72162 887// 333 10129 88707;
0166268820999992000062121004+53960+032840FM-12+021799999V0200801N004010039019N0500001N1+01001+00881100951ADDAY161031AY221031GA1071+003909059GF107991071051004501001001MD1210191+9999MW1021REMSYN076AAXX  21211 26882 41484 70804 10100 20088 40095 52019 70262 87500 333 87613;
0161268820999992000062200004+53960+032840FM-12+021799999V0200701N001012200019N0500001N1+00841+00781101121ADDAY161061AY211061GF102991021001999999031001MA1999999098431MD1210161+9999MW1011REMSYN072AAXX  22001 26882 41984 20701 10084 20078 39843 40112 52016 70161 82030;
0160268820999992000062203004+53960+032840FM-12+021799999V0200801N001010003019N0002001N1+00741+00741101211ADDAY141031AY221031GA1091+999999999GF109991091999999999999999MD1210081+9999MW1471REMSYN070AAXX  22031 26882 41/92 90801 10074 20074 40121 52008 74742 333 55000;
0202268820999992000062206004+53960+032840FM-12+021799999V0209999C000010024019N0030001N1+00961+00941101391ADDAA112000391AY141061AY221061GA1081+002409069GF108991081061002501999999KA1120N+00711MD1210191+9999MW1281REMSYN088AAXX  22061 26882 11330 80000 10096 20094 40139 52019 69932 72842 886// 333 20071 88708;
0106268820999992000062209004+53960+032840FM-12+021799999V0209999C000012200019N0200001N1+01611+00921101341ADDGF104991999999008001999999MD1219999+9999REMSYN054AAXX  22091 26882 42570 40000 10161 20092 40134 52///;
0133268820999992000062212004+53960+032840FM-12+021799999V0203401N002012200019N0200001N1+01891+00931101311ADDGF103991031021012501001001MA1999999098701MD1410001+9999REMSYN066AAXX  22121 26882 42670 33402 10189 20093 39870 40131 54000 83200;
0112268820999992000062215004+53960+032840FM-12+021799999V0200401N002010300019N0200001N1+01941+00741101321ADDGF106991021021012501031011MD1310021+9999REMSYN060AAXX  22151 26882 42670 60402 10194 20074 40132 53002 82231;
0165268820999992000062218004+53960+032840FM-12+021799999V0200101N001012200019N0200001N1+01731+00931101421ADDAA199000091GF103991001001999999001011KA1999M+01961MD1210081+9999REMSYN070AAXX  22181 26882 32970 30101 10173 20093 40142 52008 80001 333 10196;EQDQ01  00002PRCP99
0112268820999992000062221004+53960+032840FM-12+021799999V0209999C000012200019N0500001N1+01401+01021101591ADDGF103991001001999999001011MD1210131+9999REMSYN060AAXX  22211 26882 42984 30000 10140 20102 40159 52013 80001;
0133268820999992000062300004+53960+032840FM-12+021799999V0209999C000012200019N0500001N1+01101+00841101691ADDGF103991001001999999001011MA1999999099001MD1210071+9999REMSYN066AAXX  23001 26882 42984 30000 10110 20084 39900 40169 52007 80001;
0122268820999992000062303004+53960+032840FM-12+021799999V0209999C000012200019N0200001N1+01011+00861101711ADDGF103991031001999999031001MD1210011+9999REMSYN070AAXX  23031 26882 42970 30000 10101 20086 40171 52001 83030 333 55107;
0175268820999992000062306004+53960+032840FM-12+021799999V0209999C000012200019N0200001N1+01751+01041101651ADDAA199000091GA1001+999999999GF100991001001999999001001KA1999N+00831MD1210011+9999REMSYN064AAXX  23061 26882 32970 00000 10175 20104 40165 52001 333 20083;EQDQ01  00002PRCP99
0112268820999992000062309004+53960+032840FM-12+021799999V0203401N002012200019N0200001N1+02071+01021101631ADDGF102991021011012501001001MD1210011+9999REMSYN060AAXX  23091 26882 42670 23402 10207 20102 40163 52001 82100;
0133268820999992000062312004+53960+032840FM-12+021799999V0202901N002012200019N0200001N1+02261+00771101491ADDGF102991021011012501001001MA1999999098911MD1810121+9999REMSYN066AAXX  23121 26882 42670 22902 10226 20077 39891 40149 58012 82100;
0112268820999992000062315004+53960+032840FM-12+021799999V0202901N004012200019N0200001N1+02231+01071101391ADDGF102991021011012501001001MD1710091+9999REMSYN060AAXX  23151 26882 42670 22904 10223 20107 40139 57009 82100;
0165268820999992000062318004+53960+032840FM-12+021799999V0209999C000012200019N0200001N1+01971+01261101381ADDAA199000091GF102991021001999999031001KA1999M+02351MD1710041+9999REMSYN070AAXX  23181 26882 32970 20000 10197 20126 40138 57004 82030 333 10235;EQDQ01  00002PRCP99
0112268820999992000062321004+53960+032840FM-12+021799999V0209999C000012200019N0500001N1+01541+01271101331ADDGF102991021001999999031001MD1710091+9999REMSYN060AAXX  23211 26882 42984 20000 10154 20127 40133 57009 82030;
0143268820999992000062400004+53960+032840FM-12+021799999V0202901N002012200019N0500001N1+01451+01271101251ADDGA1001+999999999GF100991001001999999001001MA1999999098601MD1710091+9999REMSYN060AAXX  24001 26882 42984 02902 10145 20127 39860 40125 57009;
0122268820999992000062403004+53960+032840FM-12+021799999V0203101N003012200019N0200001N1+01611+01321101181ADDGF102991021001999999031001MD1710051+9999REMSYN070AAXX  24031 26882 42970 23103 10161 20132 40118 57005 82030 333 55147;
0175268820999992000062406004+53960+032840FM-12+021799999V0203201N003012200019N0200001N1+02061+01561101061ADDAA199000091GA1001+999999999GF100991001001999999001001KA1999N+01411MD1710061+9999REMSYN064AAXX  24061 26882 32970 03203 10206 20156 40106 57006 333 20141;EQDQ01  00002PRCP99
0112268820999992000062409004+53960+032840FM-12+021799999V0203401N004012200019N0200001N1+02491+01551100991ADDGF103991031021012501001001MD1710041+9999REMSYN060AAXX  24091 26882 42670 33404 10249 20155 40099 57004 83200;
0133268820999992000062412004+53960+032840FM-12+021799999V0200201N004012200019N0200001N1+02561+01201100881ADDGF102991021021012501001001MA1999999098341MD1710111+9999REMSYN066AAXX  24121 26882 42670 20204 10256 20120 39834 40088 57011 82200;
0112268820999992000062415004+53960+032840FM-12+021799999V0200501N003012200019N0200001N1+02641+01221100801ADDGF102991011021012501001011MD1710071+9999REMSYN060AAXX  24151 26882 42670 20503 10264 20122 40080 57007 81201;
0165268820999992000062418004+53960+032840FM-12+021799999V0200501N001012200019N0200001N1+02401+01421100841ADDAA199000091GF102991021041008001001021KA1999M+02711MD1210021+9999REMSYN070AAXX  24181 26882 32570 20501 10240 20142 40084 52002 82402 333 10271;EQDQ01  00002PRCP99
0112268820999992000062421004+53960+032840FM-12+021799999V0209999C000012200019N0500001N1+01771+01551100901ADDGF102991021041008001001001MD1210011+9999REMSYN060AAXX  24211 26882 42584 20000 10177 20155 40090 52001 82400;
0133268820999992000062500004+53960+032840FM-12+021799999V0200301N002012200019N0500001N1+01601+01461100951ADDGF101991011041008001001001MA1999999098331MD1210031+9999REMSYN066AAXX  25001 26882 42584 10302 10160 20146 39833 40095 52003 81400;
0122268820999992000062503004+53960+032840FM-12+021799999V0201201N002012200019N0170001N1+01481+01371101031ADDGF102991011001999999081021MD1210071+9999REMSYN070AAXX  25031 26882 42967 21202 10148 20137 40103 52007 81082 333 55147;
0165268820999992000062506004+53960+032840FM-12+021799999V0201501N002019999999N0200001N1+01881+01311100961ADDAA199000091GF106991061001999999031001KA1999N+01411MD1710031+9999REMSYN070AAXX  25061 26882 32970 61502 10188 20131 40096 57003 86030 333 20141;EQDQ01  00002PRCP99
0112268820999992000062509004+53960+032840FM-12+021799999V0201301N004012200019N0200001N1+02331+01371100931ADDGF103991001001999999001011MD1410001+9999REMSYN060AAXX  25091 26882 42970 31304 10233 20137 40093 54000 80001;
0133268820999992000062512004+53960+032840FM-12+021799999V0201201N005010300019N0200001N1+02491+01391100901ADDGF106991021021012501031011MA1999999098361MD1710011+9999REMSYN066AAXX  25121 26882 42670 61205 10249 20139 39836 40090 57001 82231;
0112268820999992000062515004+53960+032840FM-12+021799999V0201301N005010300019N0200001N1+02491+01151100831ADDGF106991021021012501031011MD1710071+9999REMSYN060AAXX  25151 26882 42670 61305 10249 20115 40083 57007 82231;
0165268820999992000062518004+53960+032840FM-12+021799999V0201301N002019999999N0200001N1+02191+01321100821ADDAA199000091GF106991021001999999031021KA1999M+02561MD1710041+9999REMSYN070AAXX  25181 26882 32970 61302 10219 20132 40082 57004 82032 333 10256;EQDQ01  00002PRCP99
0112268820999992000062521004+53960+032840FM-12+021799999V0209999C000010300019N0200001N1+01911+01191100811ADDGF107991021031008001031011MD1710021+9999REMSYN060AAXX  25211 26882 42598 70000 10191 20119 40081 57002 82331;
0133268820999992000062600004+53960+032840FM-12+021799999V0201701N001012200019N0260001N1+01591+01281100811ADDGF101991011001999999031001MA1999999098201MD1710041+9999REMSYN066AAXX  26001 26882 42976 11701 10159 20128 39820 40081 57004 81030;
0122268820999992000062603004+53960+032840FM-12+021799999V0201201N003019999999N0200001N1+01481+01301100801ADDGF106991001001999999001011MD1710031+9999REMSYN070AAXX  26031 26882 42970 61203 10148 20130 40080 57003 80001 333 55132;
0165268820999992000062606004+53960+032840FM-12+021799999V0201201N003012200019N0200001N1+02121+01681100681ADDAA199000091GF103991001001999999001011KA1999N+01411MD1710061+9999REMSYN070AAXX  26061 26882 32970 31203 10212 20168 40068 57006 80001 333 20141;EQDQ01  00002PRCP99
0112268820999992000062609004+53960+032840FM-12+021799999V0201701N004012200019N0200001N1+02501+01741100611ADDGF104991021021012501001011MD1710031+9999REMSYN060AAXX  26091 26882 42670 41704 10250 20174 40061 57003 82201;
0161268820999992000062612004+53960+032840FM-12+021799999V0201501N003010300019N0200001N1+02441+01681100521ADDAY191061AY221061GF107991041031008001031011MA1999999097981MD1710101+9999MW1171REMSYN072AAXX  26121 26882 41570 71503 10244 20168 39798 40052 57010 71792 84331;
0140268820999992000062615004+53960+032840FM-12+021799999V0201701N004010300019N0200001N1+02341+01641100451ADDAY191031AY221031GF107991021021012501061011MD1710061+9999MW1291REMSYN066AAXX  26151 26882 41670 71704 10234 20164 40045 57006 72992 82261;
0180268820999992000062618004+53960+032840FM-12+021799999V0202001N002019999999N0140001N1+01771+01621100571ADDAA112000391AY191061AY261061GF107991071001999999061001KA1999M+02611MD1210061+9999MW1611REMSYN082AAXX  26181 26882 11964 72002 10177 20162 40057 52006 69932 76196 87060 333 10261;
0112268820999992000062621004+53960+032840FM-12+021799999V0202501N003019999999N0150001N1+01521+01341100601ADDGF107991071001999999031001MD1410001+9999REMSYN060AAXX  26211 26882 42965 72503 10152 20134 40060 54000 87030;
0133268820999992000062700004+53960+032840FM-12+021799999V0202801N007019999999N0160001N1+01391+01191100701ADDGF107991071001999999031001MA1999999098061MD1210081+9999REMSYN066AAXX  27001 26882 42966 72807 10139 20119 39806 40070 52008 87030;
0152268820999992000062703004+53960+032840FM-12+021799999V0202901N004010048019N0120001N1+01371+01201100701ADDGA1071+004809059GF107991071051004501001001GJ106189MD1410001+9999REMSYN076AAXX  27031 26882 42462 72904 10137 20120 40070 54000 87500 333 55103 87616;
0174268820999992000062706004+53960+032840FM-12+021799999V0202901N005010063019N0200001N1+01481+01171100801ADDAA112000791GA1071+006309059GF107991071051008001001001KA1120N+01311MD1310111+9999REMSYN082AAXX  27061 26882 12570 72905 10148 20117 40080 53011 69902 87500 333 20131 87621;
0133268820999992000062712004+53960+032840FM-12+021799999V0203001N007012200019N0200001N1+01921+00971100851ADDGF106991031021012501001011MA1999999098261MD1210021+9999REMSYN066AAXX  27121 26882 42670 63007 10192 20097 39826 40085 52002 83201;
0112268820999992000062715004+53960+032840FM-12+021799999V0203101N007010300019N0200001N1+01781+00971100901ADDGF106991021021012501031011MD1210031+9999REMSYN060AAXX  27151 26882 42670 63107 10178 20097 40090 52003 82231;
0165268820999992000062718004+53960+032840FM-12+021799999V0203101N002019999999N0200001N1+01561+01001100961ADDAA199000091GF106991001001999999001011KA1999M+02091MD1210041+9999REMSYN070AAXX  27181 26882 32970 63102 10156 20100 40096 52004 80001 333 10209;EQDQ01  00002PRCP99
0112268820999992000062721004+53960+032840FM-12+021799999V0202601N003019999999N0500001N1+01141+00971101011ADDGF107991001001999999001011MD1210011+9999REMSYN060AAXX  27211 26882 42984 72603 10114 20097 40101 52001 80001;
0133268820999992000062800004+53960+032840FM-12+021799999V0203101N004019999999N0280001N1+01201+00981100981ADDGF107991041001999999031011MA1999999098311MD1810031+9999REMSYN066AAXX  28001 26882 42978 73104 10120 20098 39831 40098 58003 84031;
0122268820999992000062803004+53960+032840FM-12+021799999V0203201N003019999999N0200001N1+01181+00971100951ADDGF107991061001999999031011MD1710031+9999REMSYN070AAXX  28031 26882 42970 73203 10118 20097 40095 57003 86031 333 55116;
0181268820999992000062806004+53960+032840FM-12+021799999V0203001N004012200019N0200001N1+01471+01101100841ADDAA199000091GA1001+999999999GF100991001001999999001001KA1999N+01091MD1710071+9999REMSYN070AAXX  28061 26882 32970 03004 10147 20110 40084 57007 87030 333 20109;EQDQ01  00002PRCP99
0131268820999992000062809004+53960+032840FM-12+021799999V0202801N006019999999N0200001N1+01681+01171100801ADDGF107991999001012501031001MD1710021+9999REMSYN060AAXX  28091 26882 42670 72806 10168 20117 40080 57002 82030;EQDQ01+000022SCOTLC
0133268820999992000062812004+53960+032840FM-12+021799999V0202901N006010300019N0200001N1+01741+01031100711ADDGF107991021021012501031001MA1999999098111MD1710081+9999REMSYN066AAXX  28121 26882 42670 72906 10174 20103 39811 40071 57008 82230;
0097268820999992000062815004+53960+032840FM-12+021799999V0202901N008019999999N0200001N1+99999+99999999999ADDGF107991999999999999999999REMSYN059AAXX  28151 26882 42970 72908 1167 20092 40069 57003 81210;
0165268820999992000062818004+53960+032840FM-12+021799999V0203001N006010300019N0200001N1+01421+00891100741ADDAA199000091GF107991021021008001071001KA1999M+01841MD1210021+9999REMSYN070AAXX  28181 26882 32570 73006 10142 20089 40074 52002 82270 333 10184;EQDQ01  00002PRCP99
0112268820999992000062821004+53960+032840FM-12+021799999V0203001N004019999999N0500001N1+01271+00851100741ADDGF107991071001999999071001MD1710011+9999REMSYN060AAXX  28211 26882 42984 73004 10127 20085 40074 57001 87070;
0122268820999992000062903004+53960+032840FM-12+021799999V0202301N004012200019N0200001N1+00891+00781100711ADDGF102991021001999999031001MD1710041+9999REMSYN070AAXX  29031 26882 42970 22304 10089 20078 40071 57004 82030 333 55023;
0162268820999992000062906004+53960+032840FM-12+021799999V0202301N004012200019N0200001N1+01441+00981100701ADDAA112000791GA1001+999999999GF100991001001999999001001KA1999N+00891MD1210051+9999REMSYN070AAXX  29061 26882 12970 02304 10144 20098 40070 52005 69902 333 20089;
0112268820999992000062909004+53960+032840FM-12+021799999V0202501N007010300019N0200001N1+01651+00761100771ADDGF106991031021008001031001MD1210091+9999REMSYN060AAXX  29091 26882 42570 62507 10165 20076 40077 52009 83230;
0133268820999992000062912004+53960+032840FM-12+021799999V0202201N007010300019N0200001N1+01571+00701100901ADDGF107991041021008001031001MA1999999098271MD1210111+9999REMSYN066AAXX  29121 26882 42570 72207 10157 20070 39827 40090 52011 84230;
0112268820999992000062915004+53960+032840FM-12+021799999V0202401N004010300019N0200001N1+01531+00581100981ADDGF106991031021008001031001MD1210071+9999REMSYN060AAXX  29151 26882 42570 62404 10153 20058 40098 52007 83230;
0165268820999992000062918004+53960+032840FM-12+021799999V0202201N005012200019N0200001N1+01051+00591101141ADDAA199000091GF101991011021008001001001KA1999M+01771MD1210131+9999REMSYN070AAXX  29181 26882 32570 12205 10105 20059 40114 52013 81200 333 10177;EQDQ01  00002PRCP99
0166268820999992000062921004+53960+032840FM-12+021799999V0202201N004010039019N0210001N1+00981+00901101211ADDAY181031AY211031GA1071+003909069GF107991071071004501001001MD1210061+9999MW1251REMSYN076AAXX  29211 26882 41471 72204 10098 20090 40121 52006 72581 87700 333 87713;
0187268820999992000063000004+53960+032840FM-12+021799999V0202001N004010120019N0500001N1+00931+00861101341ADDAY181061AY211061GA1071+012009059GF107991071051012501001001MA1999999098651MD1210121+9999MW1021REMSYN082AAXX  30001 26882 41684 72004 10093 20086 39865 40134 52012 70281 87500 333 87640;
0122268820999992000063003004+53960+032840FM-12+021799999V0202001N004012200019N0200001N1+00831+00731101471ADDGF103991031001999999081001MD1210111+9999REMSYN070AAXX  30031 26882 42970 32004 10083 20073 40147 52011 83080 333 55118;
0152268820999992000063006004+53960+032840FM-12+021799999V0202101N004012200019N0200001N1+01421+00701101521ADDAA112000891GF102991021001999999081001KA1999N+00791MD1210101+9999REMSYN076AAXX  30061 26882 12970 22104 10142 20070 40152 52010 69972 82080 333 20079;
0112268820999992000063009004+53960+032840FM-12+021799999V0202301N005010300019N0200001N1+01741+00581101521ADDGF105991031021012501031001MD1210031+9999REMSYN060AAXX  30091 26882 42670 52305 10174 20058 40152 52003 83230;
0133268820999992000063012004+53960+032840FM-12+021799999V0202101N006010300019N0200001N1+01841+00381101591ADDGF106991021021012501031001MA1999999098961MD1210071+9999REMSYN066AAXX  30121 26882 42670 62106 10184 20038 39896 40159 52007 82230;
0112268820999992000063015004+53960+032840FM-12+021799999V0202201N004010300019N0200001N1+01781+00621101621ADDGF106991021021012501031001MD1210031+9999REMSYN060AAXX  30151 26882 42670 62204 10178 20062 40162 52003 82230;
0165268820999992000063018004+53960+032840FM-12+021799999V0209999C000019999999N0200001N1+01651+00611101751ADDAA199000091GF106991061001999999031001KA1999M+01961MD1210081+9999REMSYN070AAXX  30181 26882 32970 60000 10165 20061 40175 52008 86030 333 10196;EQDQ01  00002PRCP99
0112268820999992000063021004+53960+032840FM-12+021799999V0201401N002012200019N0180001N1+01301+00611101741ADDGF103991031001999999031001MD1410001+9999REMSYN060AAXX  30211 26882 42968 31402 10130 20061 40174 54000 83030;
0133268820999992000070100004+53960+032840FM-12+021799999V0201301N002012200019N0150001N1+01101+00711101721ADDGF103991031001999999031001MA1999999099071MD1410001+9999REMSYN066AAXX  01001 26882 42965 31302 10110 20071 39907 40172 54000 83030;
0122268820999992000070103004+53960+032840FM-12+021799999V0201401N002019999999N0140001N1+01171+00981101681ADDGF107991071001999999031001MD1710071+9999REMSYN070AAXX  01031 26882 42964 71402 10117 20098 40168 57007 87030 333 55106;
0202268820999992000070106004+53960+032840FM-12+021799999V0201601N004010054019N0200001N1+01411+01281101651ADDAA112002091AY181061AY221061GA1071+005409069GF107991071071004501001001KA1120N+00981MD1410001+9999MW1251REMSYN088AAXX  01061 26882 11470 71604 10141 20128 40165 54000 60022 72582 87700 333 20098 87718;
0138268820999992000070109004+53960+032840FM-12+021799999V0201701N005010066019N0200001N1+01691+01151101681ADDGA1071+006609059GF107991071081008001001001MD1310041+9999REMSYN070AAXX  01091 26882 42570 71705 10169 20115 40168 53004 87800 333 87622;
0159268820999992000070112004+53960+032840FM-12+021799999V0201701N003010099019N0200001N1+01791+01231101591ADDGA1061+009909029GF107991061021008001061001MA1999999098971MD1810071+9999REMSYN076AAXX  01121 26882 42570 71703 10179 20123 39897 40159 58007 86260 333 86833;
0112268820999992000070115004+53960+032840FM-12+021799999V0201401N003010300019N0200001N1+01751+01211101551ADDGF105991041021008001061001MD1710051+9999REMSYN060AAXX  01151 26882 42570 51403 10175 20121 40155 57005 84260;
0146268820999992000070118004+53960+032840FM-12+021799999V0201201N002010300019N0200001N1+01541+01271101481ADDAA199000021GF107991021021012501061011KA1999M+02001MD1710081+9999REMSYN070AAXX  01181 26882 32670 71202 10154 20127 40148 57008 82261 333 10200;
0112268820999992000070121004+53960+032840FM-12+021799999V0201101N002012200019N0280001N1+01241+01141101471ADDGF104991021001999999031011MD1710031+9999REMSYN060AAXX  01211 26882 42978 41102 10124 20114 40147 57003 82031;
0171268820999992000070200004+53960+032840FM-12+021799999V0201301N002010003019N0004001N1+01051+01051101361ADDAY141061AY211061GA1091+999999999GF109991091999999999999999MA1999999098681MD1710131+9999MW1471REMSYN066AAXX  02001 26882 41/04 91302 10105 20105 39868 40136 57013 74741;
0160268820999992000070203004+53960+032840FM-12+021799999V0202001N002010003019N0002001N1+01151+01151101331ADDAY141031AY221031GA1091+999999999GF109991091999999999999999MD1710021+9999MW1451REMSYN070AAXX  02031 26882 41/92 92002 10115 20115 40133 57002 74542 333 55055;
0193268820999992000070206004+53960+032840FM-12+021799999V0202401N003010021019N0170001N1+01491+01321101311ADDAA199000091AY141061AY221061GF105991051061002501001001KA1999N+01021MD1310011+9999MW1011REMSYN076AAXX  02061 26882 31367 52403 10149 20132 40131 53001 70142 85600 333 20102;EQDQ01  00002PRCP99
0112268820999992000070209004+53960+032840FM-12+021799999V0202301N002012200019N0200001N1+02001+01061101241ADDGF106991031021012501001011MD1810031+9999REMSYN060AAXX  02091 26882 42670 62302 10200 20106 40124 58003 83201;
0133268820999992000070212004+53960+032840FM-12+021799999V0201701N004010750019N0200001N1+02191+00991101091ADDGF108991011021012501001071MA1999999098521MD1710121+9999REMSYN066AAXX  02121 26882 42670 81704 10219 20099 39852 40109 57012 81207;
0185268820999992000070215004+53960+032840FM-12+021799999V0201901N004010021019N0120001N1+01951+01121100981ADDAY161031AY221031GA1081+002109069GF108991999071002501021999MD1710131+9999MW1631REMSYN076AAXX  02151 26882 41362 81904 10195 20112 40098 57013 76362 8872/ 333 88707;EQDQ01+000082SCOTLC
0202268820999992000070218004+53960+032840FM-12+021799999V0202101N003010027019N0025001N1+01531+01441100921ADDAA112006191AY181061AY261061GA1071+002709099GF108991081091002501999999KA1120M+02261MD1710101+9999MW1811REMSYN088AAXX  02181 26882 11325 82103 10153 20144 40092 57010 60062 78186 889// 333 10226 87909;
0185268820999992000070221004+53960+032840FM-12+021799999V0202001N003010045019N0070001N1+01511+01481101471ADDAY181031AY261031GA1081+004509069GF108991999071004501021999MD1710141+9999MW1611REMSYN076AAXX  02211 26882 41457 82003 10151 20148 40147 57014 76186 8872/ 333 88715;EQDQ01+000082SCOTLC
0206268820999992000070300004+53960+032840FM-12+021799999V0201501N004010033019N0260001N1+01411+01321100662ADDAY181061AY261061GA1081+003309069GF108991081061004501999999MA1999999098091MD1710121+9999MW1021REMSYN082AAXX  03001 26882 41476 81504 10141 20132 39809 40066 57012 70286 886// 333 88711;EQDQ01+100663APOSLP
0152268820999992000070303004+53960+032840FM-12+021799999V0202601N005010036019N0200001N1+01271+01141100691ADDGA1071+003609069GF107991071071004501001001GJ103849MD1310011+9999REMSYN076AAXX  03031 26882 42470 72605 10127 20114 40069 53001 87700 333 55064 87712;
0161268820999992000070306004+53960+032840FM-12+021799999V0202501N006010120019N0200001N1+01351+01001100661ADDAA112001091AY181061AY211061GF107991071041012501001001MD1710021+9999MW1031REMSYN076AAXX  03061 26882 11670 72506 10135 20100 40066 57002 60012 70381 87400 333;
0112268820999992000070309004+53960+032840FM-12+021799999V0202601N006010300019N0200001N1+01491+00931100651ADDGF106991041041012501061021MD1410001+9999REMSYN060AAXX  03091 26882 42670 62606 10149 20093 40065 54000 84462;
0171268820999992000070312004+53960+032840FM-12+021799999V0202601N008010300019N0200001N1+01691+01031100601ADDAY181061AY221061GF105991031021012501061001MA1999999097991MD1810031+9999MW1011REMSYN082AAXX  03121 26882 41670 52608 10169 20103 39799 40060 58003 70182 83260 333 91114;
0150268820999992000070315004+53960+032840FM-12+021799999V0203501N002010300019N0200001N1+01401+00801100621ADDAY191031AY281031GF106991041091008001061001MD1710011+9999MW1171REMSYN076AAXX  03151 26882 41570 63502 10140 20080 40062 57001 71798 84960 333 91112;
0186268820999992000070318004+53960+032840FM-12+021799999V0202501N004010075019N0200001N1+01201+01091100611ADDAA112007191AY191061AY281061GF107991051091008001061001KA1120M+01711MD1710031+9999MW1801REMSYN088AAXX  03181 26882 11570 72504 10120 20109 40061 57003 60072 78098 85960 333 10171 91112;
0112268820999992000070321004+53960+032840FM-12+021799999V0202301N003010300019N0280001N1+01111+01051100541ADDGF107991031021008001061001MD1710061+9999REMSYN060AAXX  03211 26882 42578 72303 10111 20105 40054 57006 83260;
0133268820999992000070400004+53960+032840FM-12+021799999V0202201N003019999999N0500001N1+01041+00981100431ADDGF107991071001999999051001MA1999999097771MD1710121+9999REMSYN066AAXX  04001 26882 42984 72203 10104 20098 39777 40043 57012 87050;
0199268820999992000070403004+53960+032840FM-12+021799999V0202101N004010039019N0080001N1+01131+01071100241ADDAY161031AY221031GA1081+003909069GF108991999071004501021999GJ103609MD1710171+9999MW1611REMSYN082AAXX  04031 26882 41458 82104 10113 20107 40024 57017 76162 8872/ 333 55060 88713;EQDQ01+000082SCOTLC
0221268820999992000070406004+53960+032840FM-12+021799999V0202901N004010045019N0160001N1+01331+01251100151ADDAA112004191AY161061AY221061GA1081+004509069GF108991999071004501021999KA1120N+01021MD1710071+9999MW1611REMSYN088AAXX  04061 26882 11466 82904 10133 20125 40015 57007 60042 76162 8872/ 333 20102 88715;EQDQ01+000082SCOTLC
0161268820999992000070412004+53960+032840FM-12+021799999V0203101N004010300019N0200001N1+01721+01191100551ADDAY181061AY261061GF107991031021008001031011MA1999999097951MD1210161+9999MW1251REMSYN072AAXX  04121 26882 41570 73104 10172 20119 39795 40055 52016 72586 83231;
0112268820999992000070415004+53960+032840FM-12+021799999V0203001N006010300019N0200001N1+01921+01101100591ADDGF106991021021012501031001MD1210061+9999REMSYN060AAXX  04151 26882 42670 63006 10192 20110 40059 52006 82230;
0180268820999992000070418004+53960+032840FM-12+021799999V0209999C000012200019N0200001N1+01591+01321100751ADDAA112000591AY181061AY211061GF103991031001999999061001KA1999M+01961MD1210131+9999MW1011REMSYN082AAXX  04181 26882 11970 30000 10159 20132 40075 52013 69942 70181 83060 333 10196;
0143268820999992000070500004+53960+032840FM-12+021799999V0202901N002012200019N0500001N1+01151+01021100891ADDGA1001+999999999GF100991001001999999001001MA1999999098231MD1410001+9999REMSYN060AAXX  05001 26882 42984 02902 10115 20102 39823 40089 54000;
0132268820999992000070503004+53960+032840FM-12+021799999V0202801N002012200019N0200001N1+01251+01131100961ADDGA1001+999999999GF100991001001999999001001MD1310071+9999REMSYN064AAXX  05031 26882 42970 02802 10125 20113 40096 53007 333 55066;
0175268820999992000070506004+53960+032840FM-12+021799999V0203201N002012200019N0200001N1+01821+01461100911ADDAA199000091GA1001+999999999GF100991001001999999001001KA1999N+01081MD1210011+9999REMSYN064AAXX  05061 26882 32970 03202 10182 20146 40091 52001 333 20108;EQDQ01  00002PRCP99
0138268820999992000070509004+53960+032840FM-12+021799999V0200301N001010180019N0200001N1+02081+01371100851ADDGA1051+018009029GF106991051021017501031001MD1810031+9999REMSYN070AAXX  05091 26882 42770 60301 10208 20137 40085 58003 85230 333 85856;
0133268820999992000070512004+53960+032840FM-12+021799999V0209999C000010300019N0200001N1+02231+01331100821ADDGF106991021021012501031011MA1999999098251MD1710031+9999REMSYN066AAXX  05121 26882 42670 60000 10223 20133 39825 40082 57003 82231;
0112268820999992000070515004+53960+032840FM-12+021799999V0209999C000010300019N0200001N1+02081+01491100821ADDGF107991031021012501061001MD1410001+9999REMSYN060AAXX  05151 26882 42670 70000 10208 20149 40082 54000 83260;
0165268820999992000070518004+53960+032840FM-12+021799999V0201101N001010300019N0200001N1+01901+01581100791ADDAA199000091GF107991011021012501031011KA1999M+02291MD1810041+9999REMSYN070AAXX  05181 26882 32670 71101 10190 20158 40079 58004 81231 333 10229;EQDQ01  00002PRCP99
0112268820999992000070521004+53960+032840FM-12+021799999V0201001N002019999999N0500001N1+01681+01421100781ADDGF107991051001999999031011MD1710031+9999REMSYN060AAXX  05211 26882 42984 71002 10168 20142 40078 57003 85031;
0133268820999992000070600004+53960+032840FM-12+021799999V0201001N001019999999N0350001N1+01461+01331100791ADDGF107991041001999999031011MA1999999098161MD1710021+9999REMSYN066AAXX  06001 26882 42981 71001 10146 20133 39816 40079 57002 84031;
0122268820999992000070603004+53960+032840FM-12+021799999V0209999C000019999999N0200001N1+01321+01101100761ADDGF106991021001999999031011MD1710041+9999REMSYN070AAXX  06031 26882 42970 60000 10132 20110 40076 57004 82031 333 55073;
0165268820999992000070606004+53960+032840FM-12+021799999V0200901N002019999999N0150001N1+01521+01261100701ADDAA199000091GF107991071001999999051001KA1999N+01301MD1710041+9999REMSYN070AAXX  06061 26882 32965 70902 10152 20126 40070 57004 87050 333 20130;EQDQ01  00002PRCP99
0112268820999992000070609004+53960+032840FM-12+021799999V0201001N003010300019N0200001N1+01791+01371100661ADDGF107991021021012501031001MD1610011+9999REMSYN060AAXX  06091 26882 42670 71003 10179 20137 40066 56001 82230;
0133268820999992000070612004+53960+032840FM-12+021799999V0201701N004010300019N0200001N1+02011+01291100571ADDGF107991031021012501031001MA1999999097991MD1710081+9999REMSYN066AAXX  06121 26882 42670 71704 10201 20129 39799 40057 57008 83230;
0140268820999992000070615004+53960+032840FM-12+021799999V0201501N001010300019N0200001N1+02071+01281100511ADDAY191031AY221031GF107991021091008001061031MD1710051+9999MW1171REMSYN066AAXX  06151 26882 41570 71501 10207 20128 40051 57005 71792 82963;
0180268820999992000070618004+53960+032840FM-12+021799999V0209999C000010300019N0070001N1+01571+01491100651ADDAA112007191AY191061AY281061GF108991031021008001061031KA1999M+02101MD1310101+9999MW1101REMSYN082AAXX  06181 26882 11557 80000 10157 20149 40065 53010 60072 71098 83263 333 10210;
0112268820999992000070621004+53960+032840FM-12+021799999V0209999C000010300019N0290001N1+01491+01361100661ADDGF106991021021008001031001MD1110011+9999REMSYN060AAXX  06211 26882 42579 60000 10149 20136 40066 51001 82230;
0161268820999992000070700004+53960+032840FM-12+021799999V0209999C000012200019N0050001N1+01291+01221100701ADDAY111061AY211061GF102991021001999999031001MA1999999098051MD1410001+9999MW1101REMSYN072AAXX  07001 26882 41950 20000 10129 20122 39805 40070 54000 71011 82030;
0112268820999992000070703004+53960+032840FM-12+021799999V0209999C000012200019N0160001N1+01321+01251100801ADDGF102991021001999999031031MD1310111+9999REMSYN060AAXX  07031 26882 42966 20000 10132 20125 40080 53011 82033;
0165268820999992000070706004+53960+032840FM-12+021799999V0209999C000012200019N0200001N1+01751+01281100791ADDAA199000091GF104991031001999999081011KA1999N+01161MD1110031+9999REMSYN070AAXX  07061 26882 32970 40000 10175 20128 40079 51003 83081 333 20116;EQDQ01  00002PRCP99
0112268820999992000070709004+53960+032840FM-12+021799999V0201201N002012200019N0200001N1+02081+00921100781ADDGF103991021021008001081011MD1210011+9999REMSYN060AAXX  07091 26882 42570 31202 10208 20092 40078 52001 82281;
0133268820999992000070712004+53960+032840FM-12+021799999V0200601N004012200019N0200001N1+02221+00941100751ADDGF103991021021008001061011MA1999999098191MD1710011+9999REMSYN066AAXX  07121 26882 42570 30604 10222 20094 39819 40075 57001 82261;
0112268820999992000070715004+53960+032840FM-12+021799999V0201001N002012200019N0200001N1+02211+01031100731ADDGF102991021021012501001001MD1710021+9999REMSYN060AAXX  07151 26882 42670 21002 10221 20103 40073 57002 82200;
0165268820999992000070718004+53960+032840FM-12+021799999V0201401N002012200019N0200001N1+01931+01211100741ADDAA199000091GF101991011001999999031001KA1999M+02301MD1710011+9999REMSYN070AAXX  07181 26882 32970 11402 10193 20121 40074 57001 81030 333 10230;EQDQ01  00002PRCP99
0112268820999992000070721004+53960+032840FM-12+021799999V0209999C000012200019N0400001N1+01591+01001100811ADDGF101991011001999999031001MD1310031+9999REMSYN060AAXX  07211 26882 42982 10000 10159 20100 40081 53003 81030;
0133268820999992000070800004+53960+032840FM-12+021799999V0202001N002012200019N0500001N1+01311+00951100821ADDGF101991011001999999031001MA1999999098171MD1810021+9999REMSYN066AAXX  08001 26882 42984 12002 10131 20095 39817 40082 58002 81030;
0122268820999992000070803004+53960+032840FM-12+021799999V0201201N002012200019N0200001N1+01241+01001100821ADDGF101991011001999999031001MD1410001+9999REMSYN070AAXX  08031 26882 42970 11202 10124 20100 40082 54000 81030 333 55145;
0165268820999992000070806004+53960+032840FM-12+021799999V0201201N002012200019N0200001N1+02021+01281100701ADDAA199000091GF103991031001999999031001KA1999N+01091MD1310051+9999REMSYN070AAXX  08061 26882 32970 31202 10202 20128 40070 53005 83030 333 20109;EQDQ01  00002PRCP99
0112268820999992000070809004+53960+032840FM-12+021799999V0201401N002019999999N0200001N1+02241+01111100661ADDGF106991021001999999031011MD1710021+9999REMSYN060AAXX  08091 26882 42970 61402 10224 20111 40066 57002 82031;
0133268820999992000070812004+53960+032840FM-12+021799999V0201401N002010300019N0200001N1+02301+01101100561ADDGF106991021021012501031011MA1999999098011MD1710091+9999REMSYN066AAXX  08121 26882 42670 61402 10230 20110 39801 40056 57009 82231;
0140268820999992000070815004+53960+032840FM-12+021799999V0202001N002010300019N0200001N1+02001+01431100571ADDAY191031AY221031GF107991021021012501061051MD1710021+9999MW1291REMSYN066AAXX  08151 26882 41670 72002 10200 20143 40057 57002 72992 82265;
0193268820999992000070818004+53960+032840FM-12+021799999V0202001N002012200019N0200001N1+01751+01501100651ADDAA199000091AY191061AY211061GF102991021041012501001011KA1999M+02311MD1310061+9999MW1011REMSYN076AAXX  08181 26882 31670 22002 10175 20150 40065 53006 70191 82401 333 10231;EQDQ01  00002PRCP99
0133268820999992000070900004+53960+032840FM-12+021799999V0209999C000012200019N0250001N1+01271+01181100611ADDGF102991021001999999031011MA1999999097961MD1710031+9999REMSYN066AAXX  09001 26882 42975 20000 10127 20118 39796 40061 57003 82031;
0122268820999992000070903004+53960+032840FM-12+021799999V0201201N002012200019N0200001N1+01291+01151100531ADDGF102991001001999999001011MD1710071+9999REMSYN070AAXX  09031 26882 42970 21202 10129 20115 40053 57007 80001 333 55095;
0165268820999992000070906004+53960+032840FM-12+021799999V0201401N002012200019N0200001N1+02031+01431100411ADDAA199000091GF103991011021012501001041KA1999N+01171MD1710051+9999REMSYN070AAXX  09061 26882 32670 31402 10203 20143 40041 57005 81204 333 20117;EQDQ01  00002PRCP99
0112268820999992000070909004+53960+032840FM-12+021799999V0201201N004010300019N0200001N1+02071+01481100331ADDGF108991031021012501021999MD1710041+9999REMSYN060AAXX  09091 26882 42670 81204 10207 20148 40033 57004 8322/;
0161268820999992000070912004+53960+032840FM-12+021799999V0201501N006010300019N0200001N1+01981+01431100251ADDAY191061AY281061GF107991041021012501061001MA1999999097681MD1710091+9999MW1021REMSYN072AAXX  09121 26882 41670 71506 10198 20143 39768 40025 57009 70298 84260;
0140268820999992000070915004+53960+032840FM-12+021799999V0201501N004010300019N0170001N1+02001+01521100101ADDAY181031AY221031GF107991041021012501061001MD1710141+9999MW1021REMSYN066AAXX  09151 26882 41667 71504 10200 20152 40010 57014 70282 84260;
0202268820999992000070918004+53960+032840FM-12+021799999V0201401N003010039019N0080001N1+01691+01591100051ADDAA112005191AY191061AY281061GA1061+003909099GF107991061091004501061001KA1120M+02201MD1710081+9999MW1951REMSYN088AAXX  09181 26882 11458 71403 10169 20159 40005 57008 60052 79598 86960 333 10220 86913;
0140268820999992000070921004+53960+032840FM-12+021799999V0201401N003019999999N0090001N1+01691+01651099971ADDAY191031AY281031GF107991041001999999061011MD1710081+9999MW1101REMSYN066AAXX  09211 26882 41959 71403 10169 20165 49997 57008 71098 84061;
0161268820999992000071000004+53960+032840FM-12+021799999V0201201N002010300019N0110001N1+01721+01671099841ADDAY191061AY281061GF107991021021008001061011MA1999999097251MD1710131+9999MW1251REMSYN072AAXX  10001 26882 41561 71202 10172 20167 39725 49984 57013 72598 82261;
0180268820999992000071003004+53960+032840FM-12+021799999V0209999C000010033019N0030001N1+01681+01631099781ADDAY191031AY281031GA1081+003309099GF108991081091004501999999GJ104269MD1710051+9999MW1951REMSYN082AAXX  10031 26882 41430 80000 10168 20163 49978 57005 79598 889// 333 55071 88911;
0202268820999992000071006004+53960+032840FM-12+021799999V0200801N002010018019N0022001N1+01641+01601099651ADDAA112009991AY191061AY281061GA1081+001809099GF108991081091001501999999KA1120N+01631MD1710131+9999MW1951REMSYN088AAXX  10061 26882 11222 80802 10164 20160 49965 57013 60102 79598 889// 333 20163 88906;
0166268820999992000071009004+53960+032840FM-12+021799999V0200801N003010018019N0013001N1+01671+01641099541ADDAY181031AY221031GA1081+001809099GF108991081091001501999999MD1710101+9999MW1811REMSYN076AAXX  10091 26882 41213 80803 10167 20164 49954 57010 78182 889// 333 88906;
0161268820999992000071012004+53960+032840FM-12+021799999V0200401N002010300019N0080001N1+01771+01621099421ADDAY191061AY281061GF107991041091004501061001MA1999999096861MD1710111+9999MW1951REMSYN072AAXX  10121 26882 41458 70402 10177 20162 39686 49942 57011 79598 84960;
0140268820999992000071015004+53960+032840FM-12+021799999V0201601N003010075019N0020001N1+01791+01671099381ADDAY181031AY221031GF108991061091008001061001MD1710041+9999MW1811REMSYN066AAXX  10151 26882 41520 81603 10179 20167 49938 57004 78182 86960;
0202268820999992000071018004+53960+032840FM-12+021799999V0201401N003010051019N0200001N1+01711+01631099521ADDAA112029091AY181061AY221061GA1071+005109069GF107991071071004501001001KA1120M+01851MD1310131+9999MW1251REMSYN088AAXX  10181 26882 11470 71403 10171 20163 49952 53013 60292 72582 87700 333 10185 87717;
0166268820999992000071021004+53960+032840FM-12+021799999V0202701N004010024019N0110001N1+01681+01581099701ADDAY181031AY221031GA1071+002409099GF107991071091002501001001MD1210171+9999MW1801REMSYN076AAXX  10211 26882 41361 72704 10168 20158 49970 52017 78082 87900 333 87908;
0206268820999992000071100004+53960+032840FM-12+021799999V0202801N006010018019N0090001N1+01551+01431099991ADDAY181061AY261061GA1081+001809069GF108991999071001501021999MA1999999097391MD1210271+9999MW1611REMSYN082AAXX  11001 26882 41259 82806 10155 20143 39739 49999 52027 76186 8872/ 333 88706;EQDQ01+000082SCOTLC
0119268820999992000071103004+53960+032840FM-12+021799999V0202901N007019999999N0200001N1+01531+99999999999ADDGF107991999999002501999999REMSYN081AAXX  11031 26882 41370 72907 10153 2144 40018 52019 70262 87500 333 55000 87609;
0202268820999992000071106004+53960+032840FM-12+021799999V0202801N005010018019N0110001N1+01571+01491100401ADDAA112000891AY161061AY221061GA1081+001809069GF108991081061001501999999KA1120N+01521MD1210211+9999MW1021REMSYN088AAXX  11061 26882 11261 82805 10157 20149 40040 52021 69982 70262 886// 333 20152 88706;
0138268820999992000071109004+53960+032840FM-12+021799999V0202801N005010045019N0200001N1+01681+01491100621ADDGA1071+004509059GF107991071051004501001001MD1210231+9999REMSYN070AAXX  11091 26882 42470 72805 10168 20149 40062 52023 87500 333 87615;
0133268820999992000071112004+53960+032840FM-12+021799999V0202801N006012200019N0200001N1+02091+01581100741ADDGF102991021021008001001011MA1999999098171MD1210151+9999REMSYN066AAXX  11121 26882 42570 22806 10209 20158 39817 40074 52015 82201;
0112268820999992000071115004+53960+032840FM-12+021799999V0203101N004012200019N0200001N1+02191+01521100791ADDGF103991031021008001001001MD1110061+9999REMSYN060AAXX  11151 26882 42570 33104 10219 20152 40079 51006 83200;
0175268820999992000071118004+53960+032840FM-12+021799999V0209999C000012200019N0200001N1+01991+01601100851ADDAA199000091GA1001+999999999GF100991001001999999001001KA1999M+02261MD1210041+9999REMSYN064AAXX  11181 26882 32970 00000 10199 20160 40085 52004 333 10226;EQDQ01  00002PRCP99
0122268820999992000071121004+53960+032840FM-12+021799999V0209999C000012200019N0250001N1+01621+01531100991ADDGA1001+999999999GF100991001001999999001001MD1210101+9999REMSYN054AAXX  11211 26882 42975 00000 10162 20153 40099 52010;
0171268820999992000071200004+53960+032840FM-12+021799999V0209999C000012200019N0014001N1+01351+01311101031ADDAY141061AY201061GA1001+999999999GF100991001001999999001001MA1999999098381MD1110011+9999MW1111REMSYN066AAXX  12001 26882 41914 00000 10135 20131 39838 40103 51001 71140;
0160268820999992000071203004+53960+032840FM-12+021799999V0201401N002012200019N0022001N1+01391+01351101041ADDAY141031AY201031GA1001+999999999GF100991001001999999001001MD1210021+9999MW1101REMSYN070AAXX  12031 26882 41922 01402 10139 20135 40104 52002 71040 333 55065;
0209268820999992000071206004+53960+032840FM-12+021799999V0202101N999992200019N0200001N1+02061+01611100951ADDAA199000091AY141061AY201061GF104991001001999999001011KA1999N+01221MD1810021+9999MW1031REMSYN076AAXX  12061 26882 31970 47102 10206 20161 40095 58002 70340 80001 333 20122;EQDQ01+010201WOSPD Q02  00002PRCP99
0112268820999992000071209004+53960+032840FM-12+021799999V0201201N003010300019N0200001N1+02321+01501100921ADDGF107991021021012501031999MD1710021+9999REMSYN060AAXX  12091 26882 42670 71203 10232 20150 40092 57002 8223/;
0133268820999992000071212004+53960+032840FM-12+021799999V0201801N005012200019N0200001N1+02501+01271100831ADDGF105991031011012501001011MA1999999098291MD1710071+9999REMSYN066AAXX  12121 26882 42670 51805 10250 20127 39829 40083 57007 83101;
0112268820999992000071215004+53960+032840FM-12+021799999V0201501N004019999999N0200001N1+02361+01271100761ADDGF106991041001999999081011MD1710081+9999REMSYN060AAXX  12151 26882 42970 61504 10236 20127 40076 57008 84081;
0165268820999992000071218004+53960+032840FM-12+021799999V0201401N002019999999N0200001N1+02051+01521100721ADDAA199000091GF107991071001999999071001KA1999M+02531MD1710071+9999REMSYN070AAXX  12181 26882 32970 71402 10205 20152 40072 57007 87070 333 10253;EQDQ01  00002PRCP99
0166268820999992000071221004+53960+032840FM-12+021799999V0203501N004010030019N0130001N1+01521+01431100791ADDAY191031AY281031GA1071+003009069GF107991071091004501001001MD1310031+9999MW1951REMSYN076AAXX  12211 26882 41463 73504 10152 20143 40079 53003 79598 87900 333 87710;
0161268820999992000071300004+53960+032840FM-12+021799999V0201301N004019999999N0230001N1+01481+01311100701ADDAY191061AY281061GF107991071001999999061001MA1999999098101MD1710071+9999MW1021REMSYN072AAXX  13001 26882 41973 71304 10148 20131 39810 40070 57007 70298 87060;
0152268820999992000071303004+53960+032840FM-12+021799999V0209999C000010075019N0200001N1+01591+01521100721ADDGA1071+007509059GF107991071051008001001001GJ106609MD1210011+9999REMSYN076AAXX  13031 26882 42570 70000 10159 20152 40072 52001 87500 333 55110 87625;
0174268820999992000071306004+53960+032840FM-12+021799999V0202801N002010042019N0200001N1+01771+01551100761ADDAA112003091GA1071+004209059GF107991071051004501001001KA1120N+01471MD1210081+9999REMSYN082AAXX  13061 26882 12470 72802 10177 20155 40076 52008 60032 87500 333 20147 87614;
0112268820999992000071309004+53960+032840FM-12+021799999V0202701N001010300019N0200001N1+01871+01481100811ADDGF108991041021008001061021MD1210061+9999REMSYN060AAXX  13091 26882 42570 82701 10187 20148 40081 52006 84262;
0133268820999992000071312004+53960+032840FM-12+021799999V0202801N002010300019N0200001N1+02051+01471100801ADDGF107991041021008001031001MA1999999098221MD1810011+9999REMSYN066AAXX  13121 26882 42570 72802 10205 20147 39822 40080 58001 84230;
0112268820999992000071315004+53960+032840FM-12+021799999V0202201N001010300019N0200001N1+02121+01441100781ADDGF108991021021008001031051MD1710011+9999REMSYN060AAXX  13151 26882 42570 82201 10212 20144 40078 57001 82235;
0165268820999992000071318004+53960+032840FM-12+021799999V0209999C000019999999N0200001N1+01941+01661100781ADDAA199000091GF107991051001999999031051KA1999M+02251MD1710011+9999REMSYN070AAXX  13181 26882 32970 70000 10194 20166 40078 57001 85035 333 10225;EQDQ01  00002PRCP99
0112268820999992000071321004+53960+032840FM-12+021799999V0201301N002019999999N0290001N1+01781+01591100761ADDGF107991041001999999031011MD1710031+9999REMSYN060AAXX  13211 26882 42979 71302 10178 20159 40076 57003 84031;
0133268820999992000071400004+53960+032840FM-12+021799999V0201001N002019999999N0210001N1+01701+01621100621ADDGF108991081001999999071999MA1999999098021MD1710151+9999REMSYN066AAXX  14001 26882 42971 81002 10170 20162 39802 40062 57015 8807/;
0122268820999992000071403004+53960+032840FM-12+021799999V0200901N004019999999N0170001N1+01721+01641100391ADDGF107991031001999999031091MD1710231+9999REMSYN070AAXX  14031 26882 42967 70904 10172 20164 40039 57023 83039 333 55061;
0165268820999992000071406004+53960+032840FM-12+021799999V0201201N005019999999N0180001N1+02181+01731100171ADDAA199000091GF108991001001999999001011KA1999N+01631MD1710161+9999REMSYN070AAXX  14061 26882 32968 81205 10218 20173 40017 57016 80001 333 20163;EQDQ01  00002PRCP99
0122268820999992000071409004+53960+032840FM-12+021799999V0201201N007010750019N0160001N1+02521+01681100031ADDGF108991011021012501001071MD1710121+9999REMSYN070AAXX  14091 26882 42666 81207 10252 20168 40003 57012 81207 333 91112;
0143268820999992000071412004+53960+032840FM-12+021799999V0201401N006019999999N0180001N1+02681+01741099911ADDGF108991011001999999031071MA1999999097411MD1710101+9999REMSYN076AAXX  14121 26882 42968 81406 10268 20174 39741 49991 57010 81037 333 91113;
0139268820999992000071415004+53960+032840FM-12+021799999V0201201N007010750019N0160001N1+02721+01561099721ADDGF108991011021012501001051MD1710181+9999OA140101301REMSYN076AAXX  14151 26882 42666 81207 10272 20156 49972 57018 81205 333 91013 91113;
0171268820999992000071418004+53960+032840FM-12+021799999V0201101N008010300019N0200001N1+02511+01331099711ADDAA199000091GF108991041021008001021999KA1120M+02781MD1710031+9999REMSYN076AAXX  14181 26882 32570 81108 10251 20133 49971 57003 8422/ 333 10278 91115;EQDQ01  00002PRCP99
0150268820999992000071421004+53960+032840FM-12+021799999V0201201N006010021019N0044001N1+01611+01521099871ADDAY191031AY281031GF107991071091002501001001MD1310081+9999MW1951REMSYN076AAXX  14211 26882 41344 71206 10161 20152 49987 53008 79598 87900 333 91120;
0161268820999992000071500004+53960+032840FM-12+021799999V0201301N004012200019N0100001N1+01571+01471099721ADDAY191061AY281061GF102991011021008001061001MA1999999097121MD1810161+9999MW1011REMSYN072AAXX  15001 26882 41560 21304 10157 20147 39712 49972 58016 70198 81260;
0152268820999992000071503004+53960+032840FM-12+021799999V0201501N006010084019N0200001N1+01271+01021099831ADDGA1071+008409059GF107991071071008001001001GJ103909MD1310091+9999REMSYN076AAXX  15031 26882 42570 71506 10127 20102 49983 53009 87700 333 55065 87628;
0174268820999992000071506004+53960+032840FM-12+021799999V0201601N007010057019N0200001N1+01451+01111099881ADDAA112013091GA1071+005709059GF107991071051004501001001KA1120N+01261MD1210061+9999REMSYN082AAXX  15061 26882 12470 71607 10145 20111 49988 52006 60132 87500 333 20126 87619;
0157268820999992000071509004+53960+032840FM-12+021799999V0201801N007010054019N0170001N1+01391+01091100141ADDGA1071+005409059GF107991071051004501001001MD1310261+9999REMSYN070AAXX  15091 26882 42467 71807 10139 20109 40014 53825 87500 333 87618;EQDQ01+008257APC3  
0159268820999992000071512004+53960+032840FM-12+021799999V0201901N005010120019N0200001N1+01551+01141100391ADDGA1071+012009059GF107991071081012501001001MA1999999097781MD1210261+9999REMSYN076AAXX  15121 26882 42670 71905 10155 20114 39778 40039 52026 87800 333 87640;
0144268820999992000071515004+53960+032840FM-12+021799999V0202201N005010150019N0200001N1+01621+01041100721ADDGA1071+015009069GF107991071081017501001001MD1210331+9999REMSYN076AAXX  15151 26882 42770 72205 10162 20104 40072 52033 87800 333 87650 91114;
0165268820999992000071518004+53960+032840FM-12+021799999V0201501N002012200019N0200001N1+01371+00971100971ADDAA199000091GF101991011001999999031001KA1999M+01651MD1210211+9999REMSYN070AAXX  15181 26882 32970 11502 10137 20097 40097 52021 81030 333 10165;EQDQ01  00002PRCP99
0133268820999992000071600004+53960+032840FM-12+021799999V0201201N003012200019N0130001N1+01261+01061101221ADDGF104991021001999999031011MA1999999098561MD1210081+9999REMSYN066AAXX  16001 26882 42963 41203 10126 20106 39856 40122 52008 82031;
0150268820999992000071603004+53960+032840FM-12+021799999V0201201N001012200019N0090001N1+01181+01091101381ADDAY101031AY201031GF103991001001999999001011MD1210151+9999MW1101REMSYN076AAXX  16031 26882 41959 31201 10118 20109 40138 52015 71000 80001 333 55019;
0165268820999992000071606004+53960+032840FM-12+021799999V0201101N001019999999N0200001N1+01911+01471101411ADDAA199000091GF105991001001999999001011KA1999N+01081MD1210101+9999REMSYN070AAXX  16061 26882 32970 51101 10191 20147 40141 52010 80001 333 20108;EQDQ01  00002PRCP99
0112268820999992000071609004+53960+032840FM-12+021799999V0201401N002012200019N0200001N1+02241+99999101411ADDGF104991021011012501001011MD1210031+9999REMSYN060AAXX  16091 26882 42670 41402 10224 28130 40141 52003 82101;
0133268820999992000071612004+53960+032840FM-12+021799999V0200901N003012200019N0200001N1+02371+01071101361ADDGF103991021021012501031001MA1999999098801MD1810041+9999REMSYN066AAXX  16121 26882 42670 30903 10237 20107 39880 40136 58004 82230;
0112268820999992000071615004+53960+032840FM-12+021799999V0200901N004010750019N0200001N1+02381+00951101251ADDGF105991011011012501031011MD1710111+9999REMSYN060AAXX  16151 26882 42670 50904 10238 20095 40125 57011 81131;
0202268820999992000071618004+53960+032840FM-12+021799999V0200401N003010114019N0150001N1+01631+01401101271ADDAA112000191AY181061AY221061GA1061+011409029GF107991061081012501061001KA1120M+02441MD1710051+9999MW1031REMSYN088AAXX  16181 26882 11665 70403 10163 20140 40127 57005 69912 70382 86860 333 10244 86838;
0112268820999992000071621004+53960+032840FM-12+021799999V0200901N002019999999N0130001N1+01631+01511101051ADDGF107991071001999999071001MD1710211+9999REMSYN060AAXX  16211 26882 42963 70902 10163 20151 40105 57021 87070;
0187268820999992000071700004+53960+032840FM-12+021799999V0200601N003010024019N0060001N1+01681+01581100711ADDAY121061AY221061GA1071+002409099GF107991071091002501001001MA1999999098111MD1710321+9999MW1171REMSYN082AAXX  17001 26882 41356 70603 10168 20158 39811 40071 57032 71722 87900 333 87908;
0180268820999992000071703004+53960+032840FM-12+021799999V0201301N004010024019N0090001N1+01711+01641100591ADDAY191031AY281031GA1071+002409069GF107991071061002501001001GJ107089MD1510121+9999MW1101REMSYN082AAXX  17031 26882 41359 71304 10171 20164 40059 55012 71098 87600 333 55118 87708;
0202268820999992000071706004+53960+032840FM-12+021799999V0201801N005010036019N0200001N1+01781+01661100551ADDAA112008991AY191061AY281061GA1071+003609059GF107991071051004501001001KA1120N+01571MD1710031+9999MW1031REMSYN088AAXX  17061 26882 11470 71805 10178 20166 40055 57003 60092 70398 87500 333 20157 87612;
0112268820999992000071709004+53960+032840FM-12+021799999V0201701N005010300019N0200001N1+02121+01661100591ADDGF106991041081008001031001MD1310061+9999REMSYN060AAXX  17091 26882 42570 61705 10212 20166 40059 53006 84830;
0133268820999992000071712004+53960+032840FM-12+021799999V0201701N002012200019N0200001N1+02231+01571100611ADDGF103991031021012501001001MA1999999098051MD1210031+9999REMSYN066AAXX  17121 26882 42670 31702 10223 20157 39805 40061 52003 83200;
0112268820999992000071715004+53960+032840FM-12+021799999V0201401N002010300019N0200001N1+02321+01611100541ADDGF106991021021012501031001MD1810061+9999REMSYN060AAXX  17151 26882 42670 61402 10232 20161 40054 58006 82230;
0180268820999992000071718004+53960+032840FM-12+021799999V0201801N007010021019N0030001N1+01701+01601100631ADDAA112004191AY191061AY281061GF108991081091002501999999KA1999M+02441MD1310041+9999MW1951REMSYN082AAXX  17181 26882 11330 81807 10170 20160 40063 53004 60042 79598 889// 333 10244;
0140268820999992000071721004+53960+032840FM-12+021799999V0209999C000010300019N0250001N1+01481+01431100601ADDAY191031AY281031GF106991021021008001061001MD1810051+9999MW1011REMSYN066AAXX  17211 26882 41575 60000 10148 20143 40060 58005 70198 82260;
0161268820999992000071800004+53960+032840FM-12+021799999V0201501N003019999999N0180001N1+01481+01431100491ADDAY191061AY281061GF105991031001999999031011MA1999999097881MD1710101+9999MW1011REMSYN072AAXX  18001 26882 41968 51503 10148 20143 39788 40049 57010 70198 83031;
0152268820999992000071803004+53960+032840FM-12+021799999V0201801N005010030019N0200001N1+01361+01271100541ADDGA1071+003009059GF107991071051002501001001GJ104389MD1310031+9999REMSYN076AAXX  18031 26882 42370 71805 10136 20127 40054 53003 87500 333 55073 87610;
0152268820999992000071806004+53960+032840FM-12+021799999V0201701N003012200019N0200001N1+01641+01241100571ADDAA112017091GF101991001001999999001011KA1999N+01341MD1210051+9999REMSYN076AAXX  18061 26882 12970 11703 10164 20124 40057 52005 60172 80001 333 20134;
0112268820999992000071809004+53960+032840FM-12+021799999V0201801N004012200019N0200001N1+01941+01191100571ADDGF104991041021012501001001MD1210031+9999REMSYN060AAXX  18091 26882 42670 41804 10194 20119 40057 52003 84200;
0133268820999992000071812004+53960+032840FM-12+021799999V0201701N005010075019N0200001N1+02111+01181100541ADDGF105991051021008001001001MA1999999097971MD1810021+9999REMSYN066AAXX  18121 26882 42570 51705 10211 20118 39797 40054 58002 85200;
0112268820999992000071815004+53960+032840FM-12+021799999V0201901N004012200019N0200001N1+02151+01231100521ADDGF103991031021012501001001MD1710021+9999REMSYN060AAXX  18151 26882 42670 31904 10215 20123 40052 57002 83200;
0180268820999992000071818004+53960+032840FM-12+021799999V0201901N002012200019N0200001N1+01571+01301100651ADDAA112002091AY181061AY211061GF102991011021008001001021KA1999M+02161MD1310081+9999MW1011REMSYN082AAXX  18181 26882 11570 21902 10157 20130 40065 53008 60022 70181 81202 333 10216;
0112268820999992000071821004+53960+032840FM-12+021799999V0201901N003010300019N0260001N1+01411+01351100681ADDGF107991021021008001031021MD1210021+9999REMSYN060AAXX  18211 26882 42576 71903 10141 20135 40068 52002 82232;
0206268820999992000071900004+53960+032840FM-12+021799999V0201901N003010030019N0080001N1+01411+01371100731ADDAY161061AY221061GA1081+003009069GF108991999071004501021999MA1999999098101MD1210051+9999MW1611REMSYN082AAXX  19001 26882 41458 81903 10141 20137 39810 40073 52005 76162 8872/ 333 88710;EQDQ01+000082SCOTLC
0199268820999992000071903004+53960+032840FM-12+021799999V0202001N005010036019N0150001N1+01471+01421100841ADDAY161031AY221031GA1081+003609069GF199999081071004501021999GJ107329MD1210111+9999MW1611REMSYN082AAXX  19031 26882 41465 72005 10147 20142 40084 52011 76162 8872/ 333 55122 88712;EQDQ01+000072SCOTCV
0183268820999992000071906004+53960+032840FM-12+021799999V0202201N005010048019N0200001N1+01551+01431100991ADDAA112003091AY161061AY221061GA1071+004809059GF107991071081004501001001MD1210151+9999MW1011REMSYN082AAXX  19061 26882 11470 72205 10155 20143 40099 52015 60032 70162 87800 333 87616;
0138268820999992000071909004+53960+032840FM-12+021799999V0201901N004010072019N0200001N1+01751+01401101151ADDGA1061+007209029GF106991061081008001001001MD1210181+9999REMSYN070AAXX  19091 26882 42570 61904 10175 20140 40115 52018 86800 333 86824;
0133268820999992000071912004+53960+032840FM-12+021799999V0202301N003010075019N0200001N1+02051+01351101201ADDGF106991051021008001061001MA1999999098611MD1210071+9999REMSYN066AAXX  19121 26882 42570 62303 10205 20135 39861 40120 52007 85260;
0112268820999992000071915004+53960+032840FM-12+021799999V0202901N004012200019N0200001N1+02061+01211101231ADDGF103991021021008001061001MD1210031+9999REMSYN060AAXX  19151 26882 42570 32904 10206 20121 40123 52003 82260;
0165268820999992000071918004+53960+032840FM-12+021799999V0202601N001019999999N0200001N1+01671+01421101301ADDAA199000091GF107991051001999999031011KA1999M+02101MD1210031+9999REMSYN070AAXX  19181 26882 32970 72601 10167 20142 40130 52003 85031 333 10210;EQDQ01  00002PRCP99
0112268820999992000071921004+53960+032840FM-12+021799999V0209999C000012200019N0150001N1+01491+01361101321ADDGF101991011001999999031001MD1110011+9999REMSYN060AAXX  19211 26882 42965 10000 10149 20136 40132 51001 81030;
0161268820999992000072000004+53960+032840FM-12+021799999V0209999C000019999999N0060001N1+01321+01281101351ADDAY111061AY211061GF105991051001999999031001MA1999999098111MD1210031+9999MW1101REMSYN072AAXX  20001 26882 41956 50000 10132 20128 39811 40135 52003 71011 85030;
0150268820999992000072003004+53960+032840FM-12+021799999V0209999C000012200019N0032001N1+01241+01201101391ADDAY141031AY211031GF103991031001999999031001MD1210021+9999MW1281REMSYN076AAXX  20031 26882 41932 30000 10124 20120 40139 52002 72841 83030 333 55066;
0193268820999992000072006004+53960+032840FM-12+021799999V0209999C000012200019N0200001N1+01801+01511101361ADDAA199000091AY141061AY211061GF103991011011008001031011KA1999N+01221MD1210021+9999MW1021REMSYN076AAXX  20061 26882 31570 30000 10180 20151 40136 52002 70241 81131 333 20122;EQDQ01  00002PRCP99
0112268820999992000072009004+53960+032840FM-12+021799999V0202101N001012200019N0200001N1+02221+01461101301ADDGF104991031021012501031001MD1810021+9999REMSYN060AAXX  20091 26882 42670 42101 10222 20146 40130 58002 83230;
0133268820999992000072012004+53960+032840FM-12+021799999V0200501N003012200019N0200001N1+02381+01461101221ADDGF103991021021012501031001MA1999999098661MD1710071+9999REMSYN066AAXX  20121 26882 42670 30503 10238 20146 39866 40122 57007 82230;
0140268820999992000072015004+53960+032840FM-12+021799999V0209999C000010042019N0150001N1+01761+01611101311ADDAY191031AY281031GF107991061091004501061001MD1710041+9999MW1951REMSYN066AAXX  20151 26882 41465 70000 10176 20161 40131 57004 79598 86960;
0180268820999992000072018004+53960+032840FM-12+021799999V0209999C000010300019N0160001N1+01711+01561101321ADDAA112019191AY191061AY281061GF106991021021008001061021KA1999M+02391MD1410001+9999MW1011REMSYN082AAXX  20181 26882 11566 60000 10171 20156 40132 54000 60192 70198 82262 333 10239;
0112268820999992000072021004+53960+032840FM-12+021799999V0203401N001012200019N0150001N1+01521+01451101361ADDGF103991001001999999001011MD1210021+9999REMSYN060AAXX  20211 26882 42965 33401 10152 20145 40136 52002 80001;
0171268820999992000072100004+53960+032840FM-12+021799999V0203501N002012200019N0042001N1+01451+01431101361ADDAY101061AY201061GA1001+999999999GF100991001001999999001001MA1999999098711MD1710011+9999MW1101REMSYN066AAXX  21001 26882 41942 03502 10145 20143 39871 40136 57001 71000;
0160268820999992000072103004+53960+032840FM-12+021799999V0203501N002010003019N0002001N1+01421+01421101261ADDAY141031AY211031GA1091+999999999GF109991091999999999999999MD1710101+9999MW1451REMSYN070AAXX  21031 26882 41/92 93502 10142 20142 40126 57010 74541 333 55085;
0215268820999992000072106004+53960+032840FM-12+021799999V0200101N002010018019N0150001N1+01641+01571101191ADDAA199000091AY141061AY221061GA1081+001809069GF108991081061001501999999KA1120N+01421MD1710051+9999MW1021REMSYN082AAXX  21061 26882 31265 80102 10164 20157 40119 57005 70242 886// 333 20142 88706;EQDQ01  00002PRCP99
0140268820999992000072109004+53960+032840FM-12+021799999V02099999999990012019N0032001N1+01611+01591101141ADDAY191031AY281031GF108991081091001501999999MD1410001+9999MW1951REMSYN066AAXX  21091 26882 41232 8//// 10161 20159 40114 54004 79598 889//;
0206268820999992000072112004+53960+032840FM-12+021799999V0203301N005010015019N0120001N1+01691+01641101091ADDAY191061AY281061GA1081+001509069GF108991999071001501021999MA1999999098481MD1710041+9999MW1611REMSYN082AAXX  21121 26882 41262 83305 10169 20164 39848 40109 57004 76198 8872/ 333 88705;EQDQ01+000082SCOTLC
0140268820999992000072115004+53960+032840FM-12+021799999V0203101N003010300019N0100001N1+01751+01671101131ADDAY161031AY221031GF108991021021008001071999MD1310051+9999MW1611REMSYN066AAXX  21151 26882 41560 83103 10175 20167 40113 53005 76162 8227/;
0180268820999992000072118004+53960+032840FM-12+021799999V0202601N002019999999N0150001N1+01621+01571101181ADDAA112016091AY161061AY221061GF108991081001999999071999KA1999M+01761MD1210021+9999MW1211REMSYN082AAXX  21181 26882 11965 82602 10162 20157 40118 52002 60162 72162 8807/ 333 10176;
0140268820999992000072121004+53960+032840FM-12+021799999V0202301N002012200019N0015001N1+01361+01341101281ADDAY111031AY211031GF103991031001999999041001MD1210081+9999MW1101REMSYN066AAXX  21211 26882 41915 32302 10136 20134 40128 52008 71011 83040;
0171268820999992000072200004+53960+032840FM-12+021799999V0202101N001010006019N0007001N1+01551+01551101351ADDAY141061AY211061GA1091+999999999GF109991091999999999999999MA1999999098721MD1210091+9999MW1471REMSYN066AAXX  22001 26882 41/07 92101 10155 20155 39872 40135 52009 74741;
0180268820999992000072203004+53960+032840FM-12+021799999V0202501N002010021019N0025001N1+01561+01541101431ADDAY141031AY221031GA1081+002109069GF108991081061002501999999GJ100009MD1210081+9999MW1281REMSYN082AAXX  22031 26882 41325 82502 10156 20154 40143 52008 72842 886// 333 55000 88707;
0174268820999992000072206004+53960+032840FM-12+021799999V0202301N003010300019N0200001N1+01801+01621101561ADDAA199000021AY141061AY221061GF105991021011008001031001KA1999N+01341MD1210141+9999MW1011REMSYN076AAXX  22061 26882 31570 52303 10180 20162 40156 52014 70142 82130 333 20134;
0112268820999992000072209004+53960+032840FM-12+021799999V0202801N005012200019N0200001N1+02161+01581101641ADDGF104991041021008001001001MD1210121+9999REMSYN060AAXX  22091 26882 42570 42805 10216 20158 40164 52012 84200;
0133268820999992000072212004+53960+032840FM-12+021799999V0203201N005012200019N0200001N1+02381+01461101721ADDGF105991021011012501001011MA1999999099151MD1210091+9999REMSYN066AAXX  22121 26882 42670 53205 10238 20146 39915 40172 52009 82101;
0112268820999992000072215004+53960+032840FM-12+021799999V0202901N002010300019N0200001N1+02311+01551101751ADDGF108991021011008001031051MD1210031+9999REMSYN060AAXX  22151 26882 42570 82902 10231 20155 40175 52003 82135;
0165268820999992000072218004+53960+032840FM-12+021799999V0209999C000019999999N0170001N1+02171+01511101841ADDAA199000091GF108991041001999999031011KA1999M+02481MD1210071+9999REMSYN070AAXX  22181 26882 32967 80000 10217 20151 40184 52007 84031 333 10248;EQDQ01  00002PRCP99
0140268820999992000072221004+53960+032840FM-12+021799999V0209999C000012200019N0090001N1+01611+01491101921ADDAY111031AY211031GF101991011001999999031001MD1210031+9999MW1101REMSYN066AAXX  22211 26882 41959 10000 10161 20149 40192 52003 71011 81030;
0161268820999992000072300004+53960+032840FM-12+021799999V0209999C000012200019N0060001N1+01491+01401101931ADDAY111061AY211061GF101991011001999999031001MA1999999099281MD1410001+9999MW1101REMSYN072AAXX  23001 26882 41956 10000 10149 20140 39928 40193 54000 71011 81030;
0122268820999992000072303004+53960+032840FM-12+021799999V0209999C000012200019N0200001N1+01431+01341101921ADDGF102991001001999999001011MD1810021+9999REMSYN070AAXX  23031 26882 42970 20000 10143 20134 40192 58002 80001 333 55125;
0165268820999992000072306004+53960+032840FM-12+021799999V0209999C000019999999N0200001N1+01751+01401101861ADDAA199000091GF107991071001999999071001KA1999N+01271MD1710031+9999REMSYN070AAXX  23061 26882 32970 70000 10175 20140 40186 57003 87070 333 20127;EQDQ01  00002PRCP99
0112268820999992000072309004+53960+032840FM-12+021799999V0200801N004010750019N0200001N1+02271+01481101661ADDGF108991021011008001001071MD1710141+9999REMSYN060AAXX  23091 26882 42570 80804 10227 20148 40166 57014 82107;
0133268820999992000072312004+53960+032840FM-12+021799999V0200601N005010300019N0200001N1+02211+01641101481ADDGF108991031021008001071999MA1999999098901MD1710191+9999REMSYN066AAXX  23121 26882 42570 80605 10221 20164 39890 40148 57019 8327/;
0140268820999992000072315004+53960+032840FM-12+021799999V0200201N003019999999N0120001N1+01901+01771101401ADDAY121031AY221031GF108991081001999999071999MD1710101+9999MW1211REMSYN066AAXX  23151 26882 41962 80203 10190 20177 40140 57010 72122 8807/;
0180268820999992000072318004+53960+032840FM-12+021799999V0200101N003010042019N0130001N1+01801+01701101141ADDAA112006191AY181061AY261061GF107991051091004501061001KA1999M+02351MD1710261+9999MW1801REMSYN082AAXX  23181 26882 11463 70103 10180 20170 40114 57026 60062 78086 85960 333 10235;
0166268820999992000072321004+53960+032840FM-12+021799999V0200101N003010045019N0140001N1+01741+01691100871ADDAY181031AY221031GA1071+004509059GF107991071051004501001001MD1710271+9999MW1131REMSYN076AAXX  23211 26882 41464 70103 10174 20169 40087 57027 71382 87500 333 87615;
0161268820999992000072400004+53960+032840FM-12+021799999V0200101N002010042019N0100001N1+01821+01751100661ADDAY191061AY281061GF108991081091004501999999MA1999999098071MD1710201+9999MW1171REMSYN072AAXX  24001 26882 41497 80102 10182 20175 39807 40066 57020 71798 889//;
0150268820999992000072403004+53960+032840FM-12+021799999V0200101N002010300019N0015001N1+99999+99999100271ADDAY191031AY281031GF107991031021008001061001MD1710381+9999MW1101REMSYN076AAXX  24031 26882 41515 70102 10782 20179 40027 57038 71098 83260 333 55047;
0202268820999992000072406004+53960+032840FM-12+021799999V0201901N002010072019N0200001N1+01921+01771100201ADDAA112016091AY191061AY281061GA1051+007209099GF107991051091008001061001KA1120N+01711MD1710061+9999MW1801REMSYN088AAXX  24061 26882 11570 71902 10192 20177 40020 57006 60162 78098 85960 333 20171 85924;
0140268820999992000072409004+53960+032840FM-12+021799999V0201701N004010300019N0200001N1+02141+01811100081ADDAY191031AY281031GF107991041091008001061001MD1710091+9999MW1171REMSYN066AAXX  24091 26882 41570 71704 10214 20181 40008 57009 71798 84960;
0193268820999992000072412004+53960+032840FM-12+021799999V0202001N008010072019N0200001N1+02061+01641099991ADDAY191061AY281061GA1061+007209099GF107991061091008001061001MA1999999097441MD1710101+9999MW1171REMSYN088AAXX  24121 26882 41570 72008 10206 20164 39744 49999 57010 71798 86960 333 86924 91112;
0166268820999992000072415004+53960+032840FM-12+021799999V0202201N006010069019N0200001N1+01741+01591100111ADDAY191031AY281031GA1061+006909099GF107991061091008001061001MD1310081+9999MW1801REMSYN076AAXX  24151 26882 41570 72206 10174 20159 40011 53008 78098 86960 333 86923;
0202268820999992000072418004+53960+032840FM-12+021799999V0202201N005010120019N0200001N1+01631+01481100361ADDAA112003091AY191061AY281061GA1071+012009059GF107991071051012501001001KA1120M+02211MD1210241+9999MW1011REMSYN088AAXX  24181 26882 11670 72205 10163 20148 40036 52024 60032 70198 87500 333 10221 87640;
0122268820999992000072421004+53960+032840FM-12+021799999V0202001N004012200019N0290001N1+01551+01441100461ADDGA1001+999999999GF100991001001999999001001MD1110091+9999REMSYN054AAXX  24211 26882 42979 02004 10155 20144 40046 51009;
0133268820999992000072500004+53960+032840FM-12+021799999V0202101N005019999999N0300001N1+01451+01361100531ADDGF107991071001999999031001MA1999999097911MD1210061+9999REMSYN066AAXX  25001 26882 42980 72105 10145 20136 39791 40053 52006 87030;
0180268820999992000072503004+53960+032840FM-12+021799999V0201901N005010300019N0070001N1+01501+01451100521ADDAY121031AY221031GA1041+002409069GF107991041071002501031001GJ101029MD1410001+9999MW1101REMSYN082AAXX  25031 26882 41357 71905 10150 20145 40052 54000 71022 84730 333 55017 84708;
0180268820999992000072506004+53960+032840FM-12+021799999V0202001N006010300019N0160001N1+01591+01511100571ADDAA112000791AY181061AY221061GF108991041091004501021999KA1999N+01421MD1310051+9999MW1801REMSYN082AAXX  25061 26882 11466 82006 10159 20151 40057 53005 69902 78082 8492/ 333 20142;
0140268820999992000072509004+53960+032840FM-12+021799999V0202001N005010300019N0200001N1+01931+01541100561ADDAY181031AY221031GF107991031021008001031091MD1210021+9999MW1011REMSYN066AAXX  25091 26882 41570 72005 10193 20154 40056 52002 70182 83239;
0161268820999992000072512004+53960+032840FM-12+021799999V0202301N007010750019N0200001N1+02231+01231100481ADDAY181061AY221061GF107991041021012501001021MA1999999097931MD1810051+9999MW1021REMSYN072AAXX  25121 26882 41670 72307 10223 20123 39793 40048 58005 70282 84202;
0112268820999992000072515004+53960+032840FM-12+021799999V0202301N004010300019N0200001N1+02231+01311100471ADDGF106991021021012501041001MD1710011+9999REMSYN060AAXX  25151 26882 42670 62304 10223 20131 40047 57001 82240;
0158268820999992000072518004+53960+032840FM-12+021799999V0209999C000012200019N0200001N1+01901+01351100491ADDAA112000791GF104991021001999999031011KA1120M+02251MD1710011+9999REMSYN082AAXX  25181 26882 12970 40000 10190 20135 40049 57001 69902 82031 333 10225 91113;
0112268820999992000072521004+53960+032840FM-12+021799999V0202001N003019999999N0400001N1+01821+01591100491ADDGF105991031001999999031011MD1710011+9999REMSYN060AAXX  25211 26882 42982 52003 10182 20159 40049 57001 83031;
0133268820999992000072600004+53960+032840FM-12+021799999V0201501N002019999999N0300001N1+01741+01551100381ADDGF106991061001999999031001MA1999999097781MD1710121+9999REMSYN066AAXX  26001 26882 42980 61502 10174 20155 39778 40038 57012 86030;
0180268820999992000072603004+53960+032840FM-12+021799999V0202201N003010024019N0060001N1+01741+01651100251ADDAY181031AY221031GA1081+002409069GF108991081061002501999999GJ103009MD1710121+9999MW1101REMSYN082AAXX  26031 26882 41356 82203 10174 20165 40025 57012 71082 886// 333 55050 88708;
0202268820999992000072606004+53960+032840FM-12+021799999V0202101N003010042019N0100001N1+01881+01661100251ADDAA112000791AY181061AY221061GA1071+004209059GF107991071051004501001001KA1120N+01691MD1310011+9999MW1021REMSYN088AAXX  26061 26882 11460 72103 10188 20166 40025 53001 69902 70282 87500 333 20169 87614;
0112268820999992000072609004+53960+032840FM-12+021799999V0202301N003010075019N0200001N1+02171+01631100231ADDGF106991061021008001001001MD1210011+9999REMSYN060AAXX  26091 26882 42570 62303 10217 20163 40023 52001 86200;
0161268820999992000072612004+53960+032840FM-12+021799999V0202401N003010300019N0070001N1+01921+01791100291ADDAY191061AY281061GF107991031091004501061001MA1999999097721MD1210041+9999MW1801REMSYN072AAXX  26121 26882 41457 72403 10192 20179 39772 40029 52004 78098 83960;
0112268820999992000072615004+53960+032840FM-12+021799999V0202401N004012200019N0200001N1+02231+01651100381ADDGF104991041021008001001001MD1210111+9999REMSYN060AAXX  26151 26882 42570 42404 10223 20165 40038 52011 84200;
0158268820999992000072618004+53960+032840FM-12+021799999V0202801N003012200019N0200001N1+01731+01391100561ADDAA112003091GF103991011021012501061001KA1120M+02331MD1210131+9999REMSYN082AAXX  26181 26882 12670 32803 10173 20139 40056 52013 60032 81260 333 10233 91113;
0122268820999992000072621004+53960+032840FM-12+021799999V0202101N003012200019N0200001N1+01531+01371100651ADDGA1001+999999999GF100991001001999999001001MD1210071+9999REMSYN054AAXX  26211 26882 42970 02103 10153 20137 40065 52007;
0133268820999992000072700004+53960+032840FM-12+021799999V0201901N003019999999N0280001N1+01571+01411100601ADDGF108991081001999999021999MA1999999097981MD1810051+9999REMSYN066AAXX  27001 26882 42978 81903 10157 20141 39798 40060 58005 8802/;
0150268820999992000072703004+53960+032840FM-12+021799999V0202101N003012200019N0050001N1+01411+01391100601ADDAY111031AY211031GF102991021001999999081001MD1410001+9999MW1101REMSYN076AAXX  27031 26882 41950 22103 10141 20139 40060 54000 71011 82080 333 55049;
0165268820999992000072706004+53960+032840FM-12+021799999V0202501N002012200019N0200001N1+01891+01621100531ADDAA199000091GF102991011011012501001011KA1999N+01011MD1710031+9999REMSYN070AAXX  27061 26882 32670 22502 10189 20162 40053 57003 81101 333 20101;EQDQ01  00002PRCP99
0112268820999992000072709004+53960+032840FM-12+021799999V0202501N004012200019N0200001N1+02251+01611100471ADDGF103991021021008001001011MD1710021+9999REMSYN060AAXX  27091 26882 42570 32504 10225 20161 40047 57002 82201;
0133268820999992000072712004+53960+032840FM-12+021799999V0202701N002010300019N0200001N1+02451+01541100361ADDGF106991031021008001061001MA1999999097841MD1710091+9999REMSYN066AAXX  27121 26882 42570 62702 10245 20154 39784 40036 57009 83260;
0112268820999992000072715004+53960+032840FM-12+021799999V0203301N002012200019N0200001N1+02401+01541100341ADDGF104991011021012501031011MD1710031+9999REMSYN060AAXX  27151 26882 42670 43302 10240 20154 40034 57003 81231;
0165268820999992000072718004+53960+032840FM-12+021799999V0209999C000019999999N0200001N1+02151+01661100341ADDAA199000091GF106991061001999999031001KA1999M+02501MD1710021+9999REMSYN070AAXX  27181 26882 32970 60000 10215 20166 40034 57002 86030 333 10250;EQDQ01  00002PRCP99
0112268820999992000072721004+53960+032840FM-12+021799999V0203301N001012200019N0130001N1+01791+01601100401ADDGF102991001001999999001011MD1310021+9999REMSYN060AAXX  27211 26882 42963 23301 10179 20160 40040 53002 80001;
0133268820999992000072800004+53960+032840FM-12+021799999V0209999C000019999999N0100001N1+01641+01521100401ADDGF107991071001999999031001MA1999999097791MD1810021+9999REMSYN066AAXX  28001 26882 42960 70000 10164 20152 39779 40040 58002 87030;
0122268820999992000072803004+53960+032840FM-12+021799999V0203501N002019999999N0110001N1+01651+01551100391ADDGF105991031001999999041011MD1410001+9999REMSYN070AAXX  28031 26882 42961 53502 10165 20155 40039 54000 83041 333 55121;
0203268820999992000072806004+53960+032840FM-12+021799999V0203401N002010006019N0006001N1+01691+01671100501ADDAA199000091AY141061AY221061GA1091+999999999GF109991091999999999999999KA1999N+01591MD1310111+9999MW1431REMSYN070AAXX  28061 26882 31/06 93402 10169 20167 40050 53011 74342 333 20159;EQDQ01  00002PRCP99
0140268820999992000072809004+53960+032840FM-12+021799999V0203301N004010300019N0200001N1+02001+01621100501ADDAY141031AY221031GF106991031081008001031001MD1210031+9999MW1011REMSYN066AAXX  28091 26882 41570 63304 10200 20162 40050 52003 70142 83830;
0161268820999992000072812004+53960+032840FM-12+021799999V0203101N004010300019N0200001N1+01921+01771100551ADDAY181061AY241061GF106991041021008001031001MA1999999097971MD1210041+9999MW1251REMSYN072AAXX  28121 26882 41570 63104 10192 20177 39797 40055 52004 72584 84230;
0112268820999992000072815004+53960+032840FM-12+021799999V0203201N005010300019N0200001N1+01991+01591100651ADDGF106991021021012501031001MD1210101+9999REMSYN060AAXX  28151 26882 42670 63205 10199 20159 40065 52010 82230;
0174268820999992000072818004+53960+032840FM-12+021799999V0203301N005010036019N0200001N1+01611+01451100821ADDAA112001091GA1071+003609059GF107991071051004501001001KA1120M+02211MD1210141+9999REMSYN082AAXX  28181 26882 12470 73305 10161 20145 40082 52014 60012 87500 333 10221 87612;
0138268820999992000072821004+53960+032840FM-12+021799999V0203301N003010021019N0300001N1+01441+01271100941ADDGA1071+002109059GF107991071051002501001001MD1210091+9999REMSYN070AAXX  28211 26882 42380 73303 10144 20127 40094 52009 87500 333 87607;
0143268820999992000072900004+53960+032840FM-12+021799999V0203201N002012200019N0250001N1+01191+01131101061ADDGA1001+999999999GF100991001001999999001001MA1999999098391MD1210091+9999REMSYN060AAXX  29001 26882 42975 03202 10119 20113 39839 40106 52009;
0144268820999992000072903004+53960+032840FM-12+021799999V0203401N002012200019N0002001N1+01091+01051101111ADDAY141031AY201031GF102991999999999999999999MD1210051+9999MW1461REMSYN070AAXX  29031 26882 41992 23402 10109 20105 40111 52005 74640 333 55073;
0193268820999992000072906004+53960+032840FM-12+021799999V0200101N002012200019N0200001N1+01411+01131101221ADDAA199000091AY141061AY211061GF102991021021008001001011KA1999N+01021MD1210131+9999MW1011REMSYN076AAXX  29061 26882 31570 20102 10141 20113 40122 52013 70141 82201 333 20102;EQDQ01  00002PRCP99
0112268820999992000072909004+53960+032840FM-12+021799999V0202801N002012200019N0200001N1+01731+01041101221ADDGF102991021081012501001001MD1110031+9999REMSYN060AAXX  29091 26882 42670 22802 10173 20104 40122 51003 82800;
0133268820999992000072912004+53960+032840FM-12+021799999V0202601N003012200019N0200001N1+01911+01121101191ADDGF104991041021012501001001MA1999999098591MD1810011+9999REMSYN066AAXX  29121 26882 42670 42603 10191 20112 39859 40119 58001 84200;
0112268820999992000072915004+53960+032840FM-12+021799999V0203501N001010300019N0200001N1+02021+01201101171ADDGF107991021021012501031011MD1710011+9999REMSYN060AAXX  29151 26882 42670 73501 10202 20120 40117 57001 82231;
0165268820999992000072918004+53960+032840FM-12+021799999V0209999C000019999999N0200001N1+01761+01311101191ADDAA199000091GF106991031001999999031011KA1999M+02101MD1710011+9999REMSYN070AAXX  29181 26882 32970 60000 10176 20131 40119 57001 83031 333 10210;EQDQ01  00002PRCP99
0112268820999992000072921004+53960+032840FM-12+021799999V0209999C000012200019N0300001N1+01501+01261101261ADDGF102991021001999999031001MD1210051+9999REMSYN060AAXX  29211 26882 42980 20000 10150 20126 40126 52005 82030;
0133268820999992000073000004+53960+032840FM-12+021799999V0209999C000019999999N0300001N1+01361+01201101091ADDGF107991071001999999031001MA1999999098441MD1810181+9999REMSYN066AAXX  30001 26882 42980 70000 10136 20120 39844 40109 58018 87030;
0199268820999992000073003004+53960+032840FM-12+021799999V0200901N003010021019N0080001N1+01361+01301100881ADDAY161031AY221031GA1081+002109069GF108991999071002501021999GJ106729MD1710201+9999MW1611REMSYN082AAXX  30031 26882 41358 80903 10136 20130 40088 57020 76162 8872/ 333 55112 88707;EQDQ01+000082SCOTLC
0180268820999992000073006004+53960+032840FM-12+021799999V0201301N003010300019N0180001N1+01691+01621100781ADDAA112007191AY161061AY221061GF106991011021008001031001KA1999N+01321MD1710061+9999MW1011REMSYN082AAXX  30061 26882 11568 61303 10169 20162 40078 57006 60072 70162 81230 333 20132;
0112268820999992000073009004+53960+032840FM-12+021799999V0201901N004010300019N0200001N1+02071+01741100701ADDGF106991021021012501031001MD1710051+9999REMSYN060AAXX  30091 26882 42670 61904 10207 20174 40070 57005 82230;
0161268820999992000073012004+53960+032840FM-12+021799999V0202201N007012200019N0200001N1+02341+01491100651ADDAY181061AY221061GF105991021021012501001011MA1999999098101MD1710031+9999MW1021REMSYN072AAXX  30121 26882 41670 52207 10234 20149 39810 40065 57003 70282 82201;
0112268820999992000073015004+53960+032840FM-12+021799999V0202201N002010300019N0200001N1+02141+01441100711ADDGF107991041021008001061021MD1310041+9999REMSYN060AAXX  30151 26882 42570 72202 10214 20144 40071 53004 84262;
0180268820999992000073018004+53960+032840FM-12+021799999V0201001N001010300019N0170001N1+01591+01541100841ADDAA112003091AY181061AY221061GF107991021021008001061001KA1999M+02401MD1210091+9999MW1251REMSYN082AAXX  30181 26882 11567 71001 10159 20154 40084 52009 60032 72582 82260 333 10240;
0112268820999992000073021004+53960+032840FM-12+021799999V0201401N001019999999N0400001N1+01551+01501100831ADDGF106991061001999999031001MD1810021+9999REMSYN060AAXX  30211 26882 42982 61401 10155 20150 40083 58002 86030;
0161268820999992000073100004+53960+032840FM-12+021799999V0201801N002010300019N0260001N1+01571+01511100791ADDAY181061AY221061GF107991041021008001061001MA1999999098181MD1710031+9999MW1021REMSYN072AAXX  31001 26882 41576 71802 10157 20151 39818 40079 57003 70282 84260;
0180268820999992000073103004+53960+032840FM-12+021799999V0202701N002010018019N0070001N1+01571+01551100901ADDAY181031AY221031GA1081+001809099GF108991081091001501999999GJ102949MD1310101+9999MW1801REMSYN082AAXX  31031 26882 41257 82702 10157 20155 40090 53010 78082 889// 333 55049 88906;
0221268820999992000073106004+53960+032840FM-12+021799999V0203301N004010048019N0200001N1+01651+01461999999ADDAA112002091AY181061AY221061GA1061+004809089GF107991061021004501061001KA1120N+01561MD1210081+9999MW1021REMSYN088AAXX  31061 26882 11470 73304 10165 20146 40198 52008 60022 70282 86260 333 20156 86216;EQDQ01+101983APOSLP
0112268820999992000073109004+53960+032840FM-12+021799999V0203401N002010300019N0200001N1+01821+01361101171ADDGF107991041021008001061001MD1210201+9999REMSYN060AAXX  31091 26882 42570 73402 10182 20136 40117 52020 84260;
0133268820999992000073112004+53960+032840FM-12+021799999V0203201N004010300019N0200001N1+02051+99999101261ADDGF106991041021008001061001MA1999999098661MD1210101+9999REMSYN066AAXX  31121 26882 42570 63204 10205 28149 39866 40126 52010 84260;
0112268820999992000073115004+53960+032840FM-12+021799999V0203301N005010300019N0200001N1+01961+01291101281ADDGF105991021021008001031001MD1210021+9999REMSYN060AAXX  31151 26882 42570 53305 10196 20129 40128 52002 82230;
0165268820999992000073118004+53960+032840FM-12+021799999V0209999C000019999999N0200001N1+01731+01391101301ADDAA199000091GF107991071001999999031001KA1999M+02081MD1410001+9999REMSYN070AAXX  31181 26882 32970 70000 10173 20139 40130 54000 87030 333 10208;EQDQ01  00002PRCP99
0112268820999992000073121004+53960+032840FM-12+021799999V0203301N001019999999N0500001N1+01611+01321101331ADDGF105991001001999999001011MD1310021+9999REMSYN060AAXX  31211 26882 42984 53301 10161 20132 40133 53002 80001;
0133268820999992000080100004+53960+032840FM-12+021799999V0203301N002019999999N0500001N1+01501+01301101361ADDGF108991001001999999001011MA1999999098721MD1210021+9999REMSYN066AAXX  01001 26882 42984 83302 10150 2013/ 39872 40136 52002 80001;
0122268820999992000080103004+53960+032840FM-12+021799999V0203301N002019999999N0200001N1+01501+01301101331ADDGF107991071001999999031001MD1810031+9999REMSYN070AAXX  01031 26882 42970 73302 10150 20130 40133 58003 87030 333 55049;
0165268820999992000080106004+53960+032840FM-12+021799999V0203301N003019999999N0200001N1+01701+01401101331ADDAA199000091GF107991071001999999031001KA1999N+01451MD1310011+9999REMSYN070AAXX  01061 26882 32970 73303 10170 20140 40133 53001 87030 333 20145;EQDQ01  00002PRCP99
0112268820999992000080109004+53960+032840FM-12+021799999V0200301N003010300019N0200001N1+02041+01241101251ADDGF106991031021012501031011MD1810051+9999REMSYN060AAXX  01091 26882 42670 60303 10204 20124 40125 58005 83231;
0133268820999992000080112004+53960+032840FM-12+021799999V0203501N007010300019N0200001N1+02061+01231101271ADDGF106991021021012501031001MA1999999098681MD1310021+9999REMSYN066AAXX  01121 26882 42670 63507 10206 20123 39868 40127 53002 82230;
0112268820999992000080115004+53960+032840FM-12+021799999V0203501N004010300019N0200001N1+02141+01241101231ADDGF106991021021012501031011MD1810031+9999REMSYN060AAXX  01151 26882 42670 63504 10214 20124 40123 58003 82231;
0165268820999992000080118004+53960+032840FM-12+021799999V0203101N003012200019N0200001N1+01691+01241101311ADDAA199000091GF103991031001999999031001KA1999M+02241MD1210031+9999REMSYN070AAXX  01181 26882 32970 33103 10169 20124 40131 52003 83030 333 10224;EQDQ01  00002PRCP99
0121268820999992000080121004+53960+032840FM-12+021799999V0203301N003012200019N0300001N1+01331+01041101361ADDGA1001+999999999GF100991001001999999001001MD1210031+9999REMSYN053AAXX  01211 2688242980 03303 10133 20104 40136 52003;
0143268820999992000080200004+53960+032840FM-12+021799999V0203101N003012200019N0280001N1+01121+00921101441ADDGA1001+999999999GF100991001001999999001001MA1999999098771MD1210061+9999REMSYN060AAXX  02001 26882 42978 03103 10112 20092 39877 40144 52006;
0122268820999992000080203004+53960+032840FM-12+021799999V0203101N003012200019N0200001N1+01281+01131101491ADDGF102991021001999999031001MD1210061+9999REMSYN070AAXX  02031 26882 42970 23103 10128 20113 40149 52006 82030 333 55059;
0175268820999992000080206004+53960+032840FM-12+021799999V0203101N003012200019N0200001N1+01711+01301101511ADDAA199000091GA1001+999999999GF100991001001999999001001KA1999N+01121MD1210051+9999REMSYN064AAXX  02061 26882 32970 03103 10171 20130 40151 52005 333 20112;EQDQ01  00002PRCP99
0112268820999992000080209004+53960+032840FM-12+021799999V0203101N003012200019N0200001N1+02111+01221101501ADDGF102991021021012501001001MD1210031+9999REMSYN060AAXX  02091 26882 42670 23103 10211 20122 40150 52003 82200;
0133268820999992000080212004+53960+032840FM-12+021799999V0203401N004012200019N0200001N1+02251+00921101511ADDGF103991031021012501001001MA1999999098931MD1210021+9999REMSYN066AAXX  02121 26882 42670 33404 10225 20092 39893 40151 52002 83200;
0112268820999992000080215004+53960+032840FM-12+021799999V0203301N003012200019N0200001N1+02211+01241101521ADDGF102991021021012501001001MD1410001+9999REMSYN060AAXX  02151 26882 42670 23303 10221 20124 40152 54000 82200;
0165268820999992000080218004+53960+032840FM-12+021799999V0203301N001012200019N0200001N1+01821+01341101651ADDAA199000091GF102991021001999999031001KA1999M+02321MD1310101+9999REMSYN070AAXX  02181 26882 32970 23301 10182 20134 40165 53010 82030 333 10232;EQDQ01  00002PRCP99
0112268820999992000080221004+53960+032840FM-12+021799999V0202501N002012200019N0500001N1+01401+01271101651ADDGF104991001001999999001011MD1810031+9999REMSYN060AAXX  02211 26882 42984 42502 10140 20127 40165 58003 80001;
0133268820999992000080300004+53960+032840FM-12+021799999V0202601N002012200019N0500001N1+01301+01151101641ADDGF103991001001999999001011MA1999999098981MD1710021+9999REMSYN066AAXX  03001 26882 42984 32602 10130 20115 39898 40164 57002 80001;
0122268820999992000080303004+53960+032840FM-12+021799999V0202501N002012200019N0200001N1+01161+01101101691ADDGF102991001001999999001011MD1310031+9999REMSYN070AAXX  03031 26882 42970 22502 10116 20110 40169 53003 80001 333 55135;
0135268820999992000080306004+53960+032840FM-12+021799999V0202401N002012200019N0200001N1+01801+01421101651ADDGF106991021021012501001011KA1999N+01101MD1210021+9999REMSYN070AAXX  03061 26882 42670 62402 10180 20142 40165 52002 82201 333 20110;
0112268820999992000080309004+53960+032840FM-12+021799999V0202401N005012200019N0200001N1+02181+01271101501ADDGF105991011021012501001011MD1710111+9999REMSYN060AAXX  03091 26882 42670 52405 10218 20127 40150 57011 81201;
0133268820999992000080312004+53960+032840FM-12+021799999V0202201N005019999999N0200001N1+02151+01271101341ADDGF107991071001999999051001MA1999999098761MD1710161+9999REMSYN066AAXX  03121 26882 42970 72205 10215 20127 39876 40134 57016 87050;
0112268820999992000080315004+53960+032840FM-12+021799999V0202301N005010300019N0200001N1+02151+01501101301ADDGF106991041021012501031001MD1710041+9999REMSYN060AAXX  03151 26882 42670 62305 10215 20150 40130 57004 84230;
0165268820999992000080318004+53960+032840FM-12+021799999V0202401N004012200019N0160001N1+01731+01471101381ADDAA199000091GF103991031021012501001001KA1999M+02311MD1310041+9999REMSYN070AAXX  03181 26882 32666 32404 10173 20147 40138 53004 83200 333 10231;EQDQ01  00002PRCP99
0122268820999992000080321004+53960+032840FM-12+021799999V0202401N004012200019N0210001N1+01371+01281101441ADDGA1001+999999999GF100991001001999999001001MD1210031+9999REMSYN054AAXX  03211 26882 42971 02404 10137 20128 40144 52003;
0143268820999992000080400004+53960+032840FM-12+021799999V0202401N005012200019N0100001N1+01361+01231101511ADDGA1001+999999999GF100991001001999999001001MA1999999098851MD1210061+9999REMSYN060AAXX  04001 26882 42960 02405 10136 20123 39885 40151 52006;
0122268820999992000080403004+53960+032840FM-12+021799999V0202701N003012200019N0180001N1+01271+01211101591ADDGF101991001001999999001011MD1210071+9999REMSYN070AAXX  04031 26882 42968 12703 10127 20121 40159 52007 80001 333 55103;
0165268820999992000080406004+53960+032840FM-12+021799999V0202601N004012200019N0200001N1+01671+01331101611ADDAA199000091GF102991021021999999001001KA1999N+01271MD1210051+9999REMSYN070AAXX  04061 26882 32970 22604 10167 20133 40161 52005 82200 333 20127;EQDQ01  00002PRCP99
0112268820999992000080409004+53960+032840FM-12+021799999V0202701N005012200019N0200001N1+01971+01111101661ADDGF104991041021008001001001MD1210081+9999REMSYN060AAXX  04091 26882 42570 42705 10197 20111 40166 52008 84200;
0133268820999992000080412004+53960+032840FM-12+021799999V0202901N006010300019N0200001N1+02131+01191101671ADDGF106991041021008001031001MA1999999099071MD1210021+9999REMSYN066AAXX  04121 26882 42570 62906 10213 20119 39907 40167 52002 84230;
0112268820999992000080415004+53960+032840FM-12+021799999V0202701N004010300019N0200001N1+01951+01261101701ADDGF106991041021008001031001MD1210021+9999REMSYN060AAXX  04151 26882 42570 62704 10195 20126 40170 52002 84230;
0165268820999992000080418004+53960+032840FM-12+021799999V0202301N003019999999N0200001N1+01601+01351101691ADDAA199000091GF106991061001999999031001KA1999M+02191MD1810041+9999REMSYN070AAXX  04181 26882 32970 62303 10160 20135 40169 58004 86030 333 10219;EQDQ01  00002PRCP99
0122268820999992000080421004+53960+032840FM-12+021799999V0202601N003012200019N0500001N1+01321+01231101741ADDGA1001+999999999GF100991001001999999001001MD1310031+9999REMSYN054AAXX  04211 26882 42984 02603 10132 20123 40174 53003;
0133268820999992000080500004+53960+032840FM-12+021799999V0202501N003012200019N0270001N1+01201+01141101771ADDGF102991001001999999001011MA1999999099101MD1210021+9999REMSYN066AAXX  05001 26882 42977 22503 10120 20114 39910 40177 52002 80001;
0150268820999992000080503004+53960+032840FM-12+021799999V0202301N003019999999N0060001N1+01121+01101101791ADDAY111031AY211031GF105991021001999999031011MD1210011+9999MW1101REMSYN076AAXX  05031 26882 41956 52303 10112 20110 40179 52001 71011 82031 333 55106;
0165268820999992000080506004+53960+032840FM-12+021799999V0202901N002019999999N0200001N1+01731+01301101761ADDAA199000091GF108991001001999999001011KA1999N+01111MD1210021+9999REMSYN070AAXX  05061 26882 32970 82902 10173 20130 40176 52002 80001 333 20111;EQDQ01  00002PRCP99
0112268820999992000080509004+53960+032840FM-12+021799999V0203001N004012200019N0200001N1+02011+01311101761ADDGF105991041021012501001011MD1210021+9999REMSYN060AAXX  05091 26882 42670 53004 10201 20131 40176 52002 84201;
0133268820999992000080512004+53960+032840FM-12+021799999V0202901N005012200019N0200001N1+02191+01131101751ADDGF104991041021012501001001MA1999999099151MD1410001+9999REMSYN066AAXX  05121 26882 42670 42905 10219 20113 39915 40175 54000 84200;
0140268820999992000080515004+53960+032840FM-12+021799999V0202901N003010300019N0200001N1+01901+01431101771ADDAY111031AY211031GF107991041021008001061011MD1410001+9999MW1251REMSYN066AAXX  05151 26882 41570 72903 10190 20143 40177 54000 72511 84261;
0180268820999992000080518004+53960+032840FM-12+021799999V0202701N004019999999N0200001N1+01751+01341101791ADDAA112000591AY181061AY211061GF106991061001999999061001KA1999M+02351MD1210011+9999MW1021REMSYN082AAXX  05181 26882 11970 62704 10175 20134 40179 52001 69942 70281 86060 333 10235;
0112268820999992000080521004+53960+032840FM-12+021799999V0202701N002019999999N0300001N1+01601+01331101801ADDGF106991061001999999061001MD1210011+9999REMSYN060AAXX  05211 26882 42980 62702 10160 20133 40180 52001 86060;
0143268820999992000080600004+53960+032840FM-12+021799999V0202701N002012200019N0300001N1+01261+01171101941ADDGA1001+999999999GF100991001001999999001001MA1999999099261MD1210091+9999REMSYN060AAXX  06001 26882 42980 02702 10126 20117 39926 40194 52009;
0126268820999992000080603004+53960+032840FM-12+021799999V0202701N001012200019N0160001N1+01091+99999101991ADDGA1001+999999999GF100991001001999999001001MD1210031+9999REMSYN058AAXX  06031 26882 42966 02701 10109 40199 52003 333 55102;
0175268820999992000080606004+53960+032840FM-12+021799999V0202701N002012200019N0200001N1+01671+01271102031ADDAA199000091GA1001+999999999GF100991001001999999001001KA1999N+01071MD1210091+9999REMSYN064AAXX  06061 26882 32970 02702 10167 20127 40203 52009 333 20107;EQDQ01  00002PRCP99
0112268820999992000080609004+53960+032840FM-12+021799999V0202701N002012200019N0200001N1+02001+01131102011ADDGF104991041021012501001001MD1210011+9999REMSYN060AAXX  06091 26882 42670 42702 10200 20113 40201 52001 84200;
0133268820999992000080612004+53960+032840FM-12+021799999V0202801N003012200019N0200001N1+02211+01221101951ADDGF104991041021012501001001MA1999999099361MD1810031+9999REMSYN066AAXX  06121 26882 42670 42803 10221 20122 39936 40195 58003 84200;
0112268820999992000080615004+53960+032840FM-12+021799999V0202601N003010300019N0200001N1+02131+01141101911ADDGF106991041021012501031001MD1710051+9999REMSYN060AAXX  06151 26882 42670 62603 10213 20114 40191 57005 84230;
0165268820999992000080618004+53960+032840FM-12+021799999V0202201N003012200019N0200001N1+01691+01371101851ADDAA199000091GF102991001001999999001011KA1999M+02301MD1710091+9999REMSYN070AAXX  06181 26882 32970 22203 10169 20137 40185 57009 80001 333 10230;EQDQ01  00002PRCP99
0122268820999992000080621004+53960+032840FM-12+021799999V0202101N003012200019N0300001N1+01411+01261101901ADDGA1001+999999999GF100991001001999999001001MD1310021+9999REMSYN054AAXX  06211 26882 42980 02103 10141 20126 40190 53002;
0133268820999992000080700004+53960+032840FM-12+021799999V0202101N003012200019N0300001N1+01321+01131101851ADDGF104991001001999999001011MA1999999099191MD1810051+9999REMSYN066AAXX  07001 26882 42980 42103 10132 20113 39919 40185 58005 80001;
0122268820999992000080703004+53960+032840FM-12+021799999V0202201N004019999999N0200001N1+01301+01131101811ADDGF106991041001999999031011MD1710051+9999REMSYN070AAXX  07031 26882 42970 62204 10130 20113 40181 57005 84031 333 55132;
0165268820999992000080706004+53960+032840FM-12+021799999V0202301N004012200019N0200001N1+01831+01311101741ADDAA199000091GF101991001001999999001011KA1999N+01231MD1710021+9999REMSYN070AAXX  07061 26882 32970 12304 10183 20131 40174 57002 80001 333 20123;EQDQ01  00002PRCP99
0112268820999992000080709004+53960+032840FM-12+021799999V0202101N005012200019N0200001N1+02281+01351101631ADDGF102991011021012501001011MD1710061+9999REMSYN060AAXX  07091 26882 42670 22105 10228 20135 40163 57006 81201;
0133268820999992000080712004+53960+032840FM-12+021799999V0201901N005010300019N0200001N1+02411+01371101461ADDGF106991021021012501031011MA1999999098901MD1710161+9999REMSYN066AAXX  07121 26882 42670 61905 10241 20137 39890 40146 57016 82231;
0112268820999992000080715004+53960+032840FM-12+021799999V0201801N004019999999N0200001N1+02251+01391101241ADDGF108991081001999999071999MD1710231+9999REMSYN060AAXX  07151 26882 42970 81804 10225 20139 40124 57023 8807/;
0180268820999992000080718004+53960+032840FM-12+021799999V0201201N006010021019N0048001N1+01591+01541101231ADDAA112008991AY191061AY281061GF107991071091002501001001KA1999M+02491MD1610071+9999MW1951REMSYN082AAXX  07181 26882 11348 71206 10159 20154 40123 56007 60092 79598 87900 333 10249;
0150268820999992000080721004+53960+032840FM-12+021799999V0201601N003010300019N0500001N1+01591+01471101201ADDAY191031AY281031GF107991041021004501061001MD1710031+9999MW1131REMSYN076AAXX  07211 26882 41484 71603 10159 20147 40120 57003 71398 84260 333 91116;
0161268820999992000080800004+53960+032840FM-12+021799999V0201901N004012200019N0080001N1+01551+01501101081ADDAY191061AY281061GF102991001001999999001021MA1999999098451MD1710121+9999MW1101REMSYN072AAXX  08001 26882 41958 21904 10155 20150 39845 40108 57012 71098 80002;
0180268820999992000080803004+53960+032840FM-12+021799999V0202301N004010021019N0070001N1+01591+01541101071ADDAY111031AY211031GA1071+002109069GF107991071061002501001001GJ104989MD1310011+9999MW1101REMSYN082AAXX  08031 26882 41357 72304 10159 20154 40107 53001 71011 87600 333 55083 87707;
0174268820999992000080806004+53960+032840FM-12+021799999V0202801N004010057019N0110001N1+01641+01541101141ADDAA112006191GA1071+005709059GF107991071051004501001001KA1120N+01531MD1210061+9999REMSYN082AAXX  08061 26882 12461 72804 10164 20154 40114 52006 60062 87500 333 20153 87619;
0112268820999992000080809004+53960+032840FM-12+021799999V0202301N005010300019N0200001N1+01951+01521101261ADDGF106991041021008001031001MD1210141+9999REMSYN060AAXX  08091 26882 42570 62305 10195 20152 40126 52014 84230;
0155268820999992000080812004+53960+032840FM-12+021799999V0202601N006010300019N0200001N1+01921+99999101311ADDAY181061AY221061GF106991041021008001031001MA1999999098711MD1210051+9999MW1021REMSYN066AAXX  08121 26882 41570 62606 10192 39871 40131 52005 70282 84230;
0112268820999992000080815004+53960+032840FM-12+021799999V0202701N004010300019N0200001N1+01891+01021101381ADDGF105991021021008001031001MD1210061+9999REMSYN060AAXX  08151 26882 42570 52704 10189 20102 40138 52006 82230;
0152268820999992000080818004+53960+032840FM-12+021799999V0202601N002019999999N0200001N1+01501+01111101441ADDAA112002091GF106991061001999999041001KA1999M+02031MD1210021+9999REMSYN076AAXX  08181 26882 12970 62602 10150 20111 40144 52002 60022 86040 333 10203;
0112268820999992000080821004+53960+032840FM-12+021799999V0202201N002012200019N0500001N1+01301+01071101541ADDGF101991011001999999031001MD1210081+9999REMSYN060AAXX  08211 26882 42984 12202 10130 20107 40154 52008 81030;
0133268820999992000080900004+53960+032840FM-12+021799999V0202201N002019999999N0500001N1+01301+01131101531ADDGF106991001001999999001011MA1999999098861MD1810011+9999REMSYN066AAXX  09001 26882 42984 62202 10130 20113 39886 40153 58001 80001;
0150268820999992000080903004+53960+032840FM-12+021799999V0202501N002012200019N0080001N1+01041+01001101521ADDAY111031AY211031GF103991021001999999031011MD1710021+9999MW1101REMSYN076AAXX  09031 26882 41958 32502 10104 20100 40152 57002 71011 82031 333 55063;
0165268820999992000080906004+53960+032840FM-12+021799999V0203001N002019999999N0200001N1+01621+01121101471ADDAA199000091GF105991031001999999081011KA1999N+00961MD1410001+9999REMSYN070AAXX  09061 26882 32970 53002 10162 20112 40147 54000 83081 333 20096;EQDQ01  00002PRCP99
0112268820999992000080909004+53960+032840FM-12+021799999V0203101N004010750019N0200001N1+01721+00981101501ADDGF105991021021012501031011MD1310031+9999REMSYN060AAXX  09091 26882 42670 53104 10172 20098 40150 53003 82231;
0112268820999992000080915004+53960+032840FM-12+021799999V0202801N003012200019N0200001N1+01731+00841101531ADDGF104991021021012501031001MD1410001+9999REMSYN060AAXX  09151 26882 42670 42803 10173 20084 40153 54000 82230;
0165268820999992000080918004+53960+032840FM-12+021799999V0209999C000012200019N0200001N1+01371+01001101621ADDAA199000091GF101991011001999999031001KA1999M+01941MD1210061+9999REMSYN070AAXX  09181 26882 32970 10000 10137 20100 40162 52006 81030 333 10194;EQDQ01  00002PRCP99
0122268820999992000080921004+53960+032840FM-12+021799999V0209999C000012200019N0500001N1+01101+00841101781ADDGA1001+999999999GF100991001001999999001001MD1210081+9999REMSYN054AAXX  09211 26882 42984 00000 10110 20084 40178 52008;
0143268820999992000081000004+53960+032840FM-12+021799999V0209999C000012200019N0500001N1+00911+00771101751ADDGA1001+999999999GF100991001001999999001001MA1999999099041MD1410001+9999REMSYN060AAXX  10001 26882 42984 00000 10091 20077 39904 40175 54000;
0122268820999992000081003004+53960+032840FM-12+021799999V0202201N003019999999N0200001N1+01011+00901101741ADDGF106991061001999999031001MD1410001+9999REMSYN070AAXX  10031 26882 42970 62203 10101 20090 40174 54000 86030 333 55110;
0165268820999992000081006004+53960+032840FM-12+021799999V0202401N002019999999N0200001N1+01351+01031101741ADDAA199000091GF105991051001999999031001KA1999N+00901MD1210041+9999REMSYN070AAXX  10061 26882 32970 52402 10135 20103 40174 52004 85030 333 20090;EQDQ01  00002PRCP99
0138268820999992000081009004+53960+032840FM-12+021799999V0203101N003010123019N0200001N1+01831+00891101751ADDGA1071+012309029GF107991071021012501001001MD1210051+9999REMSYN070AAXX  10091 26882 42670 73103 10183 20089 40175 52005 87200 333 87841;
0133268820999992000081012004+53960+032840FM-12+021799999V0202301N005010300019N0200001N1+01831+00981101761ADDGF106991041021012501031001MA1999999099141MD1110011+9999REMSYN066AAXX  10121 26882 42670 62305 10183 20098 39914 40176 51001 84230;
0112268820999992000081015004+53960+032840FM-12+021799999V0203301N002012200019N0200001N1+01951+00861101731ADDGF103991021021012501031001MD1810021+9999REMSYN060AAXX  10151 26882 42670 33302 10195 20086 40173 58002 82230;
0165268820999992000081018004+53960+032840FM-12+021799999V0202401N003012200019N0200001N1+01421+00981101761ADDAA199000091GF102991021001999999031001KA1999M+02021MD1310011+9999REMSYN070AAXX  10181 26882 32970 22403 10142 20098 40176 53001 82030 333 10202;EQDQ01  00002PRCP99
0122268820999992000081021004+53960+032840FM-12+021799999V0202301N002012200019N0500001N1+01121+00941101841ADDGA1001+999999999GF100991001001999999001001MD1210041+9999REMSYN054AAXX  10211 26882 42984 02302 10112 20094 40184 52004;
0143268820999992000081100004+53960+032840FM-12+021799999V0209999C000012200019N0400001N1+01021+00881101881ADDGA1001+999999999GF100991001001999999001001MA1999999099171MD1210021+9999REMSYN060AAXX  11001 26882 42982 00000 10102 20088 39917 40188 52002;
0141268820999992000081103004+53960+032840FM-12+021799999V0202001N025022200019N0200001N1+00941+00861101881ADDGF103991001001999999001011MD1410001+9999REMSYN070AAXX  11031 26882 42970 32025 10094 20086 40188 54000 80001 333 55090;EQDQ01+002503WOSPD 
0165268820999992000081106004+53960+032840FM-12+021799999V0202201N002012200019N0200001N1+01611+01171101811ADDAA199000091GF103991001001999999001011KA1999N+00821MD1410001+9999REMSYN070AAXX  11061 26882 32970 32202 10161 20117 40181 54000 80001 333 20082;EQDQ01  00002PRCP99
0142268820999992000081109004+53960+032840FM-12+021799999V0202101N003010120019N0200001N1+01971+00951101811ADDAA199000091GF106991061021012501001091MD1210021+9999REMSYN060AAXX  11091 26882 32670 62103 10197 20095 40181 52002 86209;EQDQ01  00002PRCP99
0133268820999992000081112004+53960+032840FM-12+021799999V0202301N005010300019N0200001N1+02031+00891101741ADDGF107991031021012501061011MA1999999099141MD1810051+9999REMSYN066AAXX  11121 26882 42670 72305 10203 20089 39914 40174 58005 83261;
0112268820999992000081115004+53960+032840FM-12+021799999V0202301N003012200019N0200001N1+02051+00931101641ADDGF103991011021012501031011MD1710101+9999REMSYN060AAXX  11151 26882 42670 32303 10205 20093 40164 57010 81231;
0165268820999992000081118004+53960+032840FM-12+021799999V0201701N002012200019N0200001N1+01611+01061101651ADDAA199000091GF102991021001999999031001KA1999M+02151MD1710031+9999REMSYN070AAXX  11181 26882 32970 21702 10161 20106 40165 57003 82030 333 10215;EQDQ01  00002PRCP99
0112268820999992000081121004+53960+032840FM-12+021799999V0209999C000012200019N0290001N1+01391+01031101671ADDGF101991011001999999031001MD1410001+9999REMSYN060AAXX  11211 26882 42979 10000 10139 20103 40167 54000 81030;
0133268820999992000081200004+53960+032840FM-12+021799999V0209999C000019999999N0250001N1+01301+01031101681ADDGF106991061001999999031001MA1999999099011MD1410001+9999REMSYN066AAXX  12001 26882 42975 60000 10130 20103 39901 40168 54000 86030;
0122268820999992000081203004+53960+032840FM-12+021799999V0209999C000019999999N0200001N1+01251+01121101661ADDGF107991071001999999051001MD1810021+9999REMSYN070AAXX  12031 26882 42970 70000 10125 20112 40166 58002 87050 333 55127;
0165268820999992000081206004+53960+032840FM-12+021799999V0209999C000019999999N0200001N1+01551+01221101591ADDAA199000091GF107991071001999999031001KA1999N+01221MD1710041+9999REMSYN070AAXX  12061 26882 32970 70000 10155 20122 40159 57004 87030 333 20122;EQDQ01  00002PRCP99
0140268820999992000081209004+53960+032840FM-12+021799999V0201701N001019999999N0200001N1+01831+01291101561ADDAY161031AY221031GF107991071001999999031001MD1710011+9999MW1021REMSYN066AAXX  12091 26882 41970 71701 10183 20129 40156 57001 70262 87030;
0124268820999992000081212004+53960+032840FM-12+021799999V0201701N002019999999N0200001N1+02221+01361101401ADDGF106991999999008001999999MA1999999098831REMSYN071AAXX  12121 26882 41570 61702 10222 20136 39883 40140 5711 70262 84230;
0112268820999992000081215004+53960+032840FM-12+021799999V0202101N002010300019N0200001N1+02311+01491101281ADDGF106991041021008001061001MD1710111+9999REMSYN060AAXX  12151 26882 42570 62102 10231 20149 40128 57011 84260;
0199268820999992000081218004+53960+032840FM-12+021799999V0201001N999999999999N0200001N1+01671+01481101381ADDAA112004191AY191061AY281061GF107991071001999999061001KA1999M+02351MD1310041+9999MW1291REMSYN082AAXX  12181 26882 11970 71081 10167 20148 40138 53004 60042 72998 87060 333 10235;EQDQ01+008103WOSPD 
0112268820999992000081221004+53960+032840FM-12+021799999V0202201N002012200019N0140001N1+01461+01401101431ADDGF102991021001999999031001MD1210021+9999REMSYN060AAXX  12211 26882 42964 22202 10146 20140 40143 52002 82030;
0161268820999992000081300004+53960+032840FM-12+021799999V0202301N002012200019N0005001N1+01331+01331101451ADDAY141061AY201061GF102991001001999999001011MA1999999098801MD1210021+9999MW1461REMSYN072AAXX  13001 26882 41905 22302 10133 20133 39880 40145 52002 74640 80001;
0142268820999992000081303004+53960+032840FM-12+021799999V0202201N002019999999N0005001N1+01281+01281101521ADDAY111031GF107991071001999999031001MD1210051+9999MW1441REMSYN076AAXX  13031 26882 41993 72202 10128 20128 40152 52005 7441/ 87030 333 55049;
0193268820999992000081306004+53960+032840FM-12+021799999V0202901N002019999999N0200001N1+01721+01571101581ADDAA199000091AY141061AY211061GF106991061001999999031001KA1999N+01221MD1210101+9999MW1011REMSYN076AAXX  13061 26882 31970 62902 10172 20157 40158 52010 70141 86030 333 20122;EQDQ01  00002PRCP99
0112268820999992000081309004+53960+032840FM-12+021799999V0202801N004010300019N0200001N1+02141+01481101541ADDGF106991041021012501031001MD1410001+9999REMSYN060AAXX  13091 26882 42670 62804 10214 20148 40154 54000 84230;
0133268820999992000081312004+53960+032840FM-12+021799999V0203101N003010300019N0200001N1+02021+01341101561ADDGF106991021021012501031001MA1999999098961MD1210011+9999REMSYN066AAXX  13121 26882 42670 63103 10202 20134 39896 40156 52001 82230;
0165268820999992000081318004+53960+032840FM-12+021799999V0202801N004012200019N0200001N1+01521+01171101681ADDAA199000091GF102991021001999999031001KA1999M+02291MD1210081+9999REMSYN070AAXX  13181 26882 32970 22804 10152 20117 40168 52008 82030 333 10229;EQDQ01  00002PRCP99
0122268820999992000081321004+53960+032840FM-12+021799999V0202601N003012200019N0200001N1+01221+01001101811ADDGA1001+999999999GF100991001001999999001001MD1210101+9999REMSYN054AAXX  13211 26882 42970 02603 10122 20100 40181 52010;
0143268820999992000081400004+53960+032840FM-12+021799999V0203101N003012200019N0280001N1+01091+00991101861ADDGA1001+999999999GF100991001001999999001001MA1999999099161MD1210021+9999REMSYN060AAXX  14001 26882 42978 03103 10109 20099 39916 40186 52002;
0132268820999992000081403004+53960+032840FM-12+021799999V0202601N003012200019N0200001N1+01091+01031101861ADDGA1001+999999999GF100991001001999999001001MD1410001+9999REMSYN064AAXX  14031 26882 42970 02603 10109 20103 40186 54000 333 55070;
0165268820999992000081406004+53960+032840FM-12+021799999V0202901N002012200019N0200001N1+01591+01361101811ADDAA199000091GF102991021021008001001001KA1999N+01021MD1310011+9999REMSYN070AAXX  14061 26882 32570 22902 10159 20136 40181 53001 82200 333 20102;EQDQ01  00002PRCP99
0138268820999992000081409004+53960+032840FM-12+021799999V0203401N004010033019N0170001N1+01651+01341101941ADDGA1071+003309059GF107991071051004501001001MD1210131+9999REMSYN070AAXX  14091 26882 42467 73404 10165 20134 40194 52013 87500 333 87611;
0165268820999992000081418004+53960+032840FM-12+021799999V0203001N002012200019N0200001N1+01581+01311101971ADDAA199000091GF102991021001999999031001KA1999M+01901MD1810041+9999REMSYN070AAXX  14181 26882 32970 23002 10158 20131 40197 58004 82030 333 10190;EQDQ01  00002PRCP99
0122268820999992000081421004+53960+032840FM-12+021799999V0203001N002012200019N0500001N1+01441+01271101981ADDGA1001+999999999GF100991001001999999001001MD1410001+9999REMSYN054AAXX  14211 26882 42984 03002 10144 20127 40198 54000;
0143268820999992000081500004+53960+032840FM-12+021799999V0202901N002012200019N0500001N1+01241+01141102011ADDGA1001+999999999GF100991001001999999001001MA1999999099331MD1310011+9999REMSYN060AAXX  15001 26882 42984 02902 10124 20114 39933 40201 53001;
0132268820999992000081503004+53960+032840FM-12+021799999V0209999C000012200019N0180001N1+01201+01141102031ADDGA1001+999999999GF100991001001999999001001MD1210021+9999REMSYN064AAXX  15031 26882 42968 00000 10120 20114 40203 52002 333 55057;
0165268820999992000081506004+53960+032840FM-12+021799999V0203101N001012200019N0200001N1+01691+01431101991ADDAA199000091GF102991001001999999001011KA1999N+01161MD1210011+9999REMSYN070AAXX  15061 26882 32970 23101 10169 20143 40199 52001 80001 333 20116;EQDQ01  00002PRCP99
0112268820999992000081509004+53960+032840FM-12+021799999V0202801N003012200019N0200001N1+02091+01401101951ADDGF104991041021012501001001MD1810011+9999REMSYN060AAXX  15091 26882 42670 42803 10209 20140 40195 58001 84200;
0133268820999992000081512004+53960+032840FM-12+021799999V0202801N003010300019N0200001N1+02211+01241101911ADDGF105991041021012501061001MA1999999099321MD1710031+9999REMSYN066AAXX  15121 26882 42670 52803 10221 20124 39932 40191 57003 84260;
0112268820999992000081515004+53960+032840FM-12+021799999V0202801N003012200019N0200001N1+02211+01321101811ADDGF103991011021012501031001MD1710091+9999REMSYN060AAXX  15151 26882 42670 32803 10221 20132 40181 57009 81230;
0165268820999992000081518004+53960+032840FM-12+021799999V0209999C000012200019N0200001N1+01671+01411101861ADDAA199000091GF103991031001999999031001KA1999M+02361MD1610011+9999REMSYN070AAXX  15181 26882 32970 30000 10167 20141 40186 56001 83030 333 10236;EQDQ01  00002PRCP99
0122268820999992000081521004+53960+032840FM-12+021799999V0209999C000012200019N0300001N1+01411+01241101921ADDGA1001+999999999GF100991001001999999001001MD1210041+9999REMSYN054AAXX  15211 26882 42980 00000 10141 20124 40192 52004;
0133268820999992000081600004+53960+032840FM-12+021799999V0202201N001012200019N0210001N1+01251+01151101951ADDGF101991001001999999001011MA1999999099271MD1210011+9999REMSYN066AAXX  16001 26882 42971 12201 10125 20115 39927 40195 52001 80001;
0122268820999992000081603004+53960+032840FM-12+021799999V0202101N003019999999N0200001N1+01231+01051101891ADDGF106991051001999999031011MD1810061+9999REMSYN070AAXX  16031 26882 42970 62103 10123 20105 40189 58006 85031 333 55111;
0181268820999992000081606004+53960+032840FM-12+021799999V0202201N003012200019N0200001N1+01651+01311999999ADDAA199000091GF102991021001999999031001KA1999N+01221MD1710091+9999REMSYN070AAXX  16061 26882 32970 22203 10165 20131 40776 57009 82030 333 20122;EQDQ01+107763APOSLPQ02  00002PRCP99
0112268820999992000081609004+53960+032840FM-12+021799999V0202701N005012200019N0200001N1+02281+01311101621ADDGF102991001001999999001011MD1710071+9999REMSYN060AAXX  16091 26882 42970 22705 10228 20131 40162 57007 80001;
0112268820999992000081615004+53960+032840FM-12+021799999V0202601N003019999999N0200001N1+02321+01301101401ADDGF106991061001999999031001MD1710141+9999REMSYN060AAXX  16151 26882 42970 62603 10232 20130 40140 57014 86030;
0165268820999992000081618004+53960+032840FM-12+021799999V0202201N003012200019N0200001N1+01791+01481101371ADDAA199000091GF102991021001999999031001KA1999M+02521MD1710081+9999REMSYN070AAXX  16181 26882 32970 22203 10179 20148 40137 57008 82030 333 10252;EQDQ01  00002PRCP99
0112268820999992000081621004+53960+032840FM-12+021799999V0202101N004019999999N0300001N1+01611+01381101361ADDGF105991051001999999031001MD1710031+9999REMSYN060AAXX  16211 26882 42980 52104 10161 20138 40136 57003 85030;
0133268820999992000081700004+53960+032840FM-12+021799999V0202201N004019999999N0300001N1+01611+01381101341ADDGF106991061001999999031001MA1999999098711MD1710021+9999REMSYN066AAXX  17001 26882 42980 62204 10161 20138 39871 40134 57002 86030;
0122268820999992000081703004+53960+032840FM-12+021799999V0202201N004010300019N0200001N1+01531+01351101301ADDGF107991031021012501031001MD1710051+9999REMSYN070AAXX  17031 26882 42670 72204 10153 20135 40130 57005 83230 333 55125;
0165268820999992000081706004+53960+032840FM-12+021799999V0202601N003019999999N0200001N1+01771+01461101291ADDAA199000091GF108991081001999999071999KA1999N+01471MD1310021+9999REMSYN070AAXX  17061 26882 32970 82603 10177 20146 40129 53002 8807/ 333 20147;EQDQ01  00002PRCP99
0112268820999992000081709004+53960+032840FM-12+021799999V0202901N005012200019N0200001N1+02161+01491101301ADDGF105991031021012501001011MD1210051+9999REMSYN060AAXX  17091 26882 42670 52905 10216 20149 40130 52005 83201;
0133268820999992000081712004+53960+032840FM-12+021799999V0203001N005012200019N0200001N1+02321+01461101301ADDGF104991021021012501031001MA1999999098741MD1210011+9999REMSYN066AAXX  17121 26882 42670 43005 10232 20146 39874 40130 52001 82230;
0112268820999992000081715004+53960+032840FM-12+021799999V0202901N005019999999N0200001N1+02221+01291101341ADDGF105991021001999999031011MD1210031+9999REMSYN060AAXX  17151 26882 42970 52905 10222 20129 40134 52003 82031;
0165268820999992000081718004+53960+032840FM-12+021799999V0202801N002012200019N0200001N1+01711+01371101481ADDAA199000091GF102991021001999999031001KA1999M+02361MD1210081+9999REMSYN070AAXX  17181 26882 32970 22802 10171 20137 40148 52008 82030 333 10236;EQDQ01  00002PRCP99
0122268820999992000081721004+53960+032840FM-12+021799999V0202501N002012200019N0250001N1+01501+01261101521ADDGA1001+999999999GF100991001001999999001001MD1210031+9999REMSYN054AAXX  17211 26882 42975 02502 10150 20126 40152 52003;
0143268820999992000081800004+53960+032840FM-12+021799999V0209999C000012200019N0200001N1+01311+01181101541ADDGA1001+999999999GF100991001001999999001001MA1999999098881MD1410001+9999REMSYN060AAXX  18001 26882 42970 00000 10131 20118 39888 40154 54000;
0122268820999992000081803004+53960+032840FM-12+021799999V0209999C000012200019N0110001N1+01151+01101101501ADDGF103991031001999999031001MD1710051+9999REMSYN070AAXX  18031 26882 42961 30000 10115 20110 40150 57005 83030 333 55089;
0165268820999992000081806004+53960+032840FM-12+021799999V0202001N001019999999N0190001N1+01791+01461101431ADDAA199000091GF107991071001999999051001KA1999N+01111MD1710011+9999REMSYN070AAXX  18061 26882 32969 72001 10179 20146 40143 57001 87050 333 20111;EQDQ01  00002PRCP99
0112268820999992000081809004+53960+032840FM-12+021799999V0202101N004019999999N0170001N1+02091+01581101381ADDGF108991081001999999021999MD1710021+9999REMSYN060AAXX  18091 26882 42967 82104 10209 20158 40138 57002 8802/;
0133268820999992000081812004+53960+032840FM-12+021799999V0202301N004010300019N0200001N1+02251+01631101401ADDGF107991041021012501031001MA1999999098841MD1310041+9999REMSYN066AAXX  18121 26882 42670 72304 10225 20163 39884 40140 53004 84230;
0112268820999992000081815004+53960+032840FM-12+021799999V0202601N005012200019N0150001N1+02311+01521101331ADDGF102991021021012501001001MD1810071+9999REMSYN060AAXX  18151 26882 42665 22605 10231 20152 40133 58007 82200;
0165268820999992000081818004+53960+032840FM-12+021799999V0202501N002012200019N0150001N1+01761+01541101401ADDAA199000091GF102991021001999999031001KA1999M+02401MD1310021+9999REMSYN070AAXX  18181 26882 32965 22502 10176 20154 40140 53002 82030 333 10240;EQDQ01  00002PRCP99
0141268820999992000081821004+53960+032840FM-12+021799999V0203201N004012200019N0400001N1+01671+99999101581ADDGA1001+999999999GF100991001001999999001001MD1210161+9999REMSYN054AAXX  18211 26882 42982 03204 10167 20018 40158 52016;EQDQ01+000183ATOD  
0143268820999992000081900004+53960+032840FM-12+021799999V0202601N002012200019N0130001N1+01361+01301101751ADDGA1001+999999999GF100991001001999999001001MA1999999099091MD1210141+9999REMSYN060AAXX  19001 26882 42963 02602 10136 20130 39909 40175 52014;
0160268820999992000081903004+53960+032840FM-12+021799999V0202401N003012200019N0070001N1+01251+01211101851ADDAY101031AY201031GA1001+999999999GF100991001001999999001001MD1210181+9999MW1101REMSYN070AAXX  19031 26882 41957 02403 10125 20121 40185 52018 71000 333 55048;
0175268820999992000081906004+53960+032840FM-12+021799999V0202301N003012200019N0200001N1+01821+01531101551ADDAA199000091GA1001+999999999GF100991001001999999001001KA1999N+01211MD1210121+9999REMSYN064AAXX  19061 26882 32970 02303 10182 20153 40155 52012 333 20121;EQDQ01  00002PRCP99
0112268820999992000081909004+53960+032840FM-12+021799999V0202501N005010300019N0200001N1+02211+01301101921ADDGF107991011021012501031011MD1210041+9999REMSYN060AAXX  19091 26882 42670 72505 10221 20130 40192 52004 81231;
0133268820999992000081912004+53960+032840FM-12+021799999V0202501N005019999999N0200001N1+02211+01381101931ADDGF107991071001999999031001MA1999999099341MD1210011+9999REMSYN066AAXX  19121 26882 42970 72505 10221 20138 39934 40193 52001 87030;
0112268820999992000081915004+53960+032840FM-12+021799999V0202501N002010300019N0200001N1+02231+01591101831ADDGF106991021021012501031011MD1810101+9999REMSYN060AAXX  19151 26882 42670 62502 10223 20159 40183 58010 82231;
0165268820999992000081918004+53960+032840FM-12+021799999V0201701N002010300019N0110001N1+01951+01641101761ADDAA199000091GF105991021021012501031001KA1999M+02441MD1710111+9999REMSYN070AAXX  19181 26882 32661 51702 10195 20164 40176 57011 82230 333 10244;EQDQ01  00002PRCP99
0112268820999992000081921004+53960+032840FM-12+021799999V0201901N002019999999N0100001N1+01761+01581101691ADDGF107991071001999999051001MD1710081+9999REMSYN060AAXX  19211 26882 42960 71902 10176 20158 40169 57008 87050;
0180268820999992000082000004+53960+032840FM-12+021799999V0202601N005019999999N0350001N1+01811+01391101391ADDAY191061AY221061GF107991999051004501051051MA1999999098781MD1710291+9999MW1171REMSYN072AAXX  20001 26882 41481 72605 10181 20139 39878 40139 57029 71792 80555;EQDQ01+000002SCOTLC
0150268820999992000082003004+53960+032840FM-12+021799999V0202201N005019999999N0200001N1+01611+01561101311ADDAY191031AY281031GF106991061001999999061001MD1710101+9999MW1011REMSYN076AAXX  20031 26882 41970 62205 10161 20156 40131 57010 70198 86060 333 55097;
0180268820999992000082006004+53960+032840FM-12+021799999V0202901N006010300019N0200001N1+01971+01691101271ADDAA112005191AY191061AY281061GF106991031021008001061001KA1999N+01621MD1410001+9999MW1021REMSYN082AAXX  20061 26882 11570 62906 10197 20169 40127 54000 60052 70298 83260 333 20162;
0112268820999992000082009004+53960+032840FM-12+021799999V0202701N004010300019N0200001N1+02021+01681101341ADDGF107991041021008001061001MD1210071+9999REMSYN060AAXX  20091 26882 42570 72704 10202 20168 40134 52007 84260;
0133268820999992000082012004+53960+032840FM-12+021799999V0203101N004010300019N0200001N1+02191+01501101401ADDGF107991041021008001061001MA1999999098831MD1210081+9999REMSYN066AAXX  20121 26882 42570 73104 10219 20150 39883 40140 52008 84260;
0112268820999992000082015004+53960+032840FM-12+021799999V0203301N004010300019N0200001N1+02001+01641101531ADDGF107991041021008001031001MD1210101+9999REMSYN060AAXX  20151 26882 42570 73304 10200 20164 40153 52010 84230;
0165268820999992000082018004+53960+032840FM-12+021799999V0209999C000019999999N0200001N1+01741+01551101621ADDAA199000091GF107991021001999999031011KA1999M+02251MD1210061+9999REMSYN070AAXX  20181 26882 32970 70000 10174 20155 40162 52006 82031 333 10225;EQDQ01  00002PRCP99
0112268820999992000082021004+53960+032840FM-12+021799999V0209999C000019999999N0280001N1+01471+01421101621ADDGF108991001001999999001011MD1810021+9999REMSYN060AAXX  20211 26882 42978 80000 10147 20142 40162 58002 80001;
0133268820999992000082100004+53960+032840FM-12+021799999V0209999C000019999999N0190001N1+01531+01501101571ADDGF107991031001999999031011MA1999999098931MD1710041+9999REMSYN066AAXX  21001 26882 42969 70000 10153 20150 39893 40157 57004 83031;
0150268820999992000082103004+53960+032840FM-12+021799999V0202001N001019999999N0090001N1+01441+01401101551ADDAY121031AY221031GF107991001001999999001011MD1710031+9999MW1101REMSYN076AAXX  21031 26882 41959 72001 10144 20140 40155 57003 71022 80001 333 55079;
0165268820999992000082106004+53960+032840FM-12+021799999V0201701N003012200019N0200001N1+02001+01691101411ADDAA199000091GF102991001001999999001011KA1999N+01421MD1710081+9999REMSYN070AAXX  21061 26882 32970 21703 10200 20169 40141 57008 80001 333 20142;EQDQ01  00002PRCP99
0112268820999992000082109004+53960+032840FM-12+021799999V0202101N003012200019N0200001N1+02501+01771101311ADDGF103991001001999999001011MD1710061+9999REMSYN060AAXX  21091 26882 42970 32103 10250 20177 40131 57006 80001;
0133268820999992000082112004+53960+032840FM-12+021799999V0202501N006019999999N0200001N1+02701+01671101251ADDGF106991021001999999031011MA1999999098721MD1710041+9999REMSYN066AAXX  21121 26882 42970 62506 10270 20167 39872 40125 57004 82031;
0112268820999992000082115004+53960+032840FM-12+021799999V0202201N003019999999N0200001N1+02621+01771101211ADDGF107991001001999999001091MD1710051+9999REMSYN060AAXX  21151 26882 42970 72203 10262 20177 40121 57005 80009;
0165268820999992000082118004+53960+032840FM-12+021799999V0209999C000019999999N0200001N1+02291+01961101221ADDAA199000091GF107991071001999999061001KA1999M+02731MD1710051+9999REMSYN070AAXX  21181 26882 32970 70000 10229 20196 40122 57005 87060 333 10273;EQDQ01  00002PRCP99
0112268820999992000082121004+53960+032840FM-12+021799999V0201101N002019999999N0180001N1+01991+01741101021ADDGF107991071001999999061001MD1710181+9999REMSYN060AAXX  21211 26882 42968 71102 10199 20174 40102 57018 87060;
0133268820999992000082200004+53960+032840FM-12+021799999V0200601N002019999999N0250001N1+01711+01531101041ADDGF105991051001999999031001MA1999999098441MD1410001+9999REMSYN066AAXX  22001 26882 42975 50602 10171 20153 39844 40104 54000 85030;
0180268820999992000082203004+53960+032840FM-12+021799999V0203401N002010138019N0080001N1+01791+01731101091ADDAY121031AY221031GA1071+013809059GF107991071051012501001001GJ106429MD1210051+9999MW1101REMSYN082AAXX  22031 26882 41658 73402 10179 20173 40109 52005 71022 87500 333 55107 87646;
0165268820999992000082206004+53960+032840FM-12+021799999V0202901N002012200019N0200001N1+02081+01751101221ADDAA199000091GF102991021001999999031001KA1999N+01691MD1210151+9999REMSYN070AAXX  22061 26882 32970 22902 10208 20175 40122 52015 82030 333 20169;EQDQ01  00002PRCP99
0112268820999992000082209004+53960+032840FM-12+021799999V0200101N001012200019N0200001N1+02481+01711101171ADDGF105991011011012501001011MD1810021+9999REMSYN060AAXX  22091 26882 42670 50101 10248 20171 40117 58002 81101;
0133268820999992000082212004+53960+032840FM-12+021799999V0201401N002012200019N0200001N1+02741+01801100911ADDGF103991021021012501031001MA1999999098401MD1710221+9999REMSYN066AAXX  22121 26882 42670 31402 10274 20180 39840 40091 57022 82230;
0122268820999992000082215004+53960+032840FM-12+021799999V0201701N002012200019N0200001N1+02721+01811100501ADDGA1001+999999999GF100991001001999999001001MD1710411+9999REMSYN054AAXX  22151 26882 42970 01702 10272 20181 40050 57041;
0186268820999992000082218004+53960+032840FM-12+021799999V0202601N004010300019N0170001N1+02021+01961100441ADDAA112015091AY191061AY281061GF106991021091008001061011KA1120M+02761MD1710111+9999MW1171REMSYN088AAXX  22181 26882 11567 62604 10202 20196 40044 57011 60152 71798 82961 333 10276 97121;
0150268820999992000082221004+53960+032840FM-12+021799999V0202801N006019999999N0500001N1+01741+01621100881ADDAY191031AY221031GF106991061001999999061001MD1310391+9999MW1031REMSYN076AAXX  22211 26882 41984 62806 10174 20162 40088 53039 70392 86060 333 91114;
0165268820999992000082300004+53960+032840FM-12+021799999V0203001N009010090019N0500001N1+01601+01311101031ADDAY191061AY221061GF107991061081004501031001MA1999999098411MD1210141+9999MW1021REMSYN076AAXX  23001 26882 41484 73009 10160 20131 39841 40103 52014 70292 86830 333;
0158268820999992000082303004+53960+032840FM-12+021799999V0203201N005010063019N0200001N1+01421+01181101321ADDGA1071+006309069GF107991071051008001001001GJ106429MD1210261+9999REMSYN082AAXX  23031 26882 42570 73205 10142 20118 40132 52026 87500 333 55107 87621 91116;
0193268820999992000082306004+53960+032840FM-12+021799999V0202901N005010063019N0200001N1+01461+01101101461ADDAA199000091GA1071+006309069GF107991071051008001001001KA1120N+01361MD1210141+9999REMSYN082AAXX  23061 26882 32570 72905 10146 20110 40146 52014 87500 333 20136 87621 91116;EQDQ01  00002PRCP99
0112268820999992000082309004+53960+032840FM-12+021799999V0202801N006010120019N0200001N1+01741+01051101501ADDGF105991051081008001001001MD1210061+9999REMSYN060AAXX  23091 26882 42570 52806 10174 20105 40150 52006 85800;
0133268820999992000082312004+53960+032840FM-12+021799999V0203101N003010300019N0200001N1+01821+00971101501ADDGF106991031021012501031011MA1999999098881MD1110011+9999REMSYN066AAXX  23121 26882 42670 63103 10182 20097 39888 40150 51001 83231;
0112268820999992000082315004+53960+032840FM-12+021799999V0202801N005010750019N0200001N1+01661+00951101531ADDGF107991021081008001001051MD1210011+9999REMSYN060AAXX  23151 26882 42570 72805 10166 20095 40153 52001 82805;
0165268820999992000082318004+53960+032840FM-12+021799999V0202501N003019999999N0350001N1+01211+00861101581ADDAA199000091GF107991071001999999051001KA1999M+01911MD1210011+9999REMSYN070AAXX  23181 26882 32981 72503 10121 20086 40158 52001 87050 333 10191;EQDQ01  00002PRCP99
0122268820999992000082321004+53960+032840FM-12+021799999V0202701N004012200019N0300001N1+01111+00901101561ADDGA1001+999999999GF100991001001999999001001MD1710031+9999REMSYN054AAXX  23211 26882 42980 02704 10111 20090 40156 57003;
0159268820999992000082400004+53960+032840FM-12+021799999V0202801N004010033019N0500001N1+01091+00901101551ADDGA1071+003309059GF107991071051004501001001MA1999999098851MD1710021+9999REMSYN076AAXX  24001 26882 42484 72804 10109 20090 39885 40155 57002 87500 333 87611;
0122268820999992000082403004+53960+032840FM-12+021799999V0202801N003012200019N0200001N1+00831+00731101531ADDGF102991021001999999031001MD1710031+9999REMSYN070AAXX  24031 26882 42970 22803 10083 20073 40153 57003 82030 333 55086;
0165268820999992000082406004+53960+032840FM-12+021799999V0202901N003012200019N0200001N1+01241+00941101521ADDAA199000091GF102991021021012501001001KA1999N+00821MD1210031+9999REMSYN070AAXX  24061 26882 32670 22903 10124 20094 40152 52003 82200 333 20082;EQDQ01  00002PRCP99
0112268820999992000082409004+53960+032840FM-12+021799999V0203001N006010300019N0200001N1+01571+00841101441ADDGF106991041021012501031001MD1710051+9999REMSYN060AAXX  24091 26882 42670 63006 10157 20084 40144 57005 84230;
0133268820999992000082412004+53960+032840FM-12+021799999V0202901N007010300019N0200001N1+01631+00631101421ADDGF106991041021012501031001MA1999999098771MD1710031+9999REMSYN066AAXX  24121 26882 42670 62907 10163 20063 39877 40142 57003 84230;
0112268820999992000082415004+53960+032840FM-12+021799999V0202801N005019999999N0200001N1+01491+00741101451ADDGF106991061001999999031001MD1210031+9999REMSYN060AAXX  24151 26882 42970 62805 10149 20074 40145 52003 86030;
0165268820999992000082418004+53960+032840FM-12+021799999V0202201N004012200019N0300001N1+01081+00841101431ADDAA199000091GF102991011021008001031001KA1999M+01731MD1810051+9999REMSYN070AAXX  24181 26882 32580 22204 10108 20084 40143 58005 81230 333 10173;EQDQ01  00002PRCP99
0112268820999992000082421004+53960+032840FM-12+021799999V0202701N002019999999N0290001N1+01131+00951101301ADDGF108991081001999999071999MD1710121+9999REMSYN060AAXX  24211 26882 42979 82702 10113 20095 40130 57012 8807/;
0159268820999992000082500004+53960+032840FM-12+021799999V0202401N002010111019N0240001N1+01071+00991101201ADDGA1071+011109059GF107991071051012501001001MA1999999098531MD1710101+9999REMSYN076AAXX  25001 26882 42674 72402 10107 20099 39853 40120 57010 87500 333 87637;
0122268820999992000082503004+53960+032840FM-12+021799999V0202201N002019999999N0200001N1+01051+00991101081ADDGF108991081001999999071999MD1710131+9999REMSYN070AAXX  25031 26882 42970 82202 10105 20099 40108 57013 8807/ 333 55092;
0180268820999992000082506004+53960+032840FM-12+021799999V0202201N002019999999N0200001N1+01141+01041101041ADDAA112000791AY161061AY221061GF108991081001999999071999KA1999N+01031MD1710031+9999MW1601REMSYN082AAXX  25061 26882 11970 82202 10114 20104 40104 57003 69902 76062 8807/ 333 20103;
0166268820999992000082509004+53960+032840FM-12+021799999V0202001N003010078019N0200001N1+01461+00981100931ADDAY161031AY221031GA1061+007809059GF107991061051008001031001MD1710081+9999MW1021REMSYN076AAXX  25091 26882 41570 72003 10146 20098 40093 57008 70262 86530 333 86626;
0161268820999992000082512004+53960+032840FM-12+021799999V0200401N001010300019N0150001N1+01341+01131100901ADDAY181061AY261061GF108991021011004501071999MA1999999098251MD1710041+9999MW1251REMSYN072AAXX  25121 26882 41465 80401 10134 20113 39825 40090 57004 72586 8217/;
0140268820999992000082515004+53960+032840FM-12+021799999V0209999C000010300019N0200001N1+01381+01021100921ADDAY181031AY221031GF107991021021008001061091MD1310021+9999MW1021REMSYN066AAXX  25151 26882 41570 70000 10138 20102 40092 53002 70282 82269;
0221268820999992000082518004+53960+032840FM-12+021799999V0201201N002010048019N0090001N1+01191+01051101071ADDAA112000591AY181061AY261061GA1081+004809069GF108991999071004501021999KA1120M+01561MD1210131+9999MW1611REMSYN088AAXX  25181 26882 11459 81202 10119 20105 40107 52013 69942 76186 8872/ 333 10156 88716;EQDQ01+000082SCOTLC
0140268820999992000082521004+53960+032840FM-12+021799999V0201101N002019999999N0100001N1+01101+01061101061ADDAY161031AY221031GF107991071001999999031001MD1210071+9999MW1021REMSYN066AAXX  25211 26882 41960 71102 10110 20106 40106 52007 70262 87030;
0187268820999992000082600004+53960+032840FM-12+021799999V0200801N001010033019N0150001N1+00971+00891101261ADDAY161061AY221061GA1071+003309059GF107991071051004501001001MA1999999098561MD1210091+9999MW1021REMSYN082AAXX  26001 26882 41465 70801 10097 20089 39856 40126 52009 70262 87500 333 87611;
0152268820999992000082603004+53960+032840FM-12+021799999V0200401N002010054019N0100001N1+01011+00991101311ADDGA1071+005409059GF107991071051004501001001GJ100429MD1210061+9999REMSYN076AAXX  26031 26882 42460 70402 10101 20099 40131 52006 87500 333 55007 87618;
0180268820999992000082606004+53960+032840FM-12+021799999V0200701N002019999999N0120001N1+01071+01021101511ADDAA112002091AY161061AY221061GF108991081001999999071999KA1999N+00951MD1210211+9999MW1611REMSYN082AAXX  26061 26882 11962 80702 10107 20102 40151 52021 60022 76162 8807/ 333 20095;
0140268820999992000082609004+53960+032840FM-12+021799999V0200301N001010300019N0200001N1+01191+01101101751ADDAY161031AY221031GF108991021051008001071999MD1210241+9999MW1611REMSYN066AAXX  26091 26882 41570 80301 10119 20110 40175 52024 76162 8257/;
0161268820999992000082612004+53960+032840FM-12+021799999V0200401N002010300019N0200001N1+01531+01101101821ADDAY161061AY221061GF107991021051008001051001MA1999999099171MD1210101+9999MW1011REMSYN072AAXX  26121 26882 41570 70402 10153 20110 39917 40182 52010 70162 82550;
0112268820999992000082615004+53960+032840FM-12+021799999V0201101N003012200019N0200001N1+01611+01031101901ADDGF104991011051008001031001MD1210091+9999REMSYN060AAXX  26151 26882 42570 41103 10161 20103 40190 52009 81530;
0146268820999992000082618004+53960+032840FM-12+021799999V0200101N002012200019N0300001N1+01371+01111102081ADDAA199000021GF102991011001999999031011KA1999M+01701MD1210151+9999REMSYN070AAXX  26181 26882 32980 20102 10137 20111 40208 52015 81031 333 10170;
0122268820999992000082621004+53960+032840FM-12+021799999V0200201N001012200019N0500001N1+01101+00981102251ADDGA1001+999999999GF100991001001999999001001MD1210131+9999REMSYN054AAXX  26211 26882 42984 00201 10110 20098 40225 52013;
0143268820999992000082700004+53960+032840FM-12+021799999V0200201N002012200019N0500001N1+00991+00891102321ADDGA1001+999999999GF100991001001999999001001MA1999999099601MD1210061+9999REMSYN060AAXX  27001 26882 42984 00202 10099 20089 39960 40232 52006;
0132268820999992000082703004+53960+032840FM-12+021799999V0200201N001012200019N0180001N1+00871+00811102441ADDGA1001+999999999GF100991001001999999001001MD1210111+9999REMSYN064AAXX  27031 26882 42968 00201 10087 20081 40244 52011 333 55007;
0175268820999992000082706004+53960+032840FM-12+021799999V0200501N003012200019N0200001N1+01311+00951102511ADDAA199000091GA1001+999999999GF100991001001999999001001KA1999N+00851MD1210101+9999REMSYN064AAXX  27061 26882 32970 00503 10131 20095 40251 52010 333 20085;EQDQ01  00002PRCP99
0112268820999992000082709004+53960+032840FM-12+021799999V0200601N005012200019N0200001N1+01731+00851102501ADDGF101991011011012501001001MD1210041+9999REMSYN060AAXX  27091 26882 42670 10605 10173 20085 40250 52004 81100;
0152268820999992000082712004+53960+032840FM-12+021799999V0200501N005012200019N0200001N1+01951+00861102461ADDGF103991999021012501001001MA1999999099831MD1810021+9999REMSYN066AAXX  27121 26882 42670 30505 10195 20086 39983 40246 58002 81200;EQDQ01+000012SCOTLC
0112268820999992000082715004+53960+032840FM-12+021799999V0200301N003012200019N0200001N1+01871+00761102491ADDGF101991011021999999001001MD1310011+9999REMSYN060AAXX  27151 26882 42/70 10303 10187 20076 40249 53001 81200;
0175268820999992000082718004+53960+032840FM-12+021799999V0209999C000012200019N0500001N1+01451+00841102681ADDAA199000091GA1001+999999999GF100991001001999999001001KA1999M+01961MD1210161+9999REMSYN064AAXX  27181 26882 32984 00000 10145 20084 40268 52016 333 10196;EQDQ01  00002PRCP99
0122268820999992000082721004+53960+032840FM-12+021799999V0209999C000012200019N0500001N1+01151+00891102731ADDGA1001+999999999GF100991001001999999001001MD1210021+9999REMSYN054AAXX  27211 26882 42984 00000 10115 20089 40273 52002;
0143268820999992000082800004+53960+032840FM-12+021799999V0209999C000012200019N0500001N1+00971+00821102771ADDGA1001+999999999GF100991001001999999001001MA1999999100041MD1210021+9999REMSYN060AAXX  28001 26882 42984 00000 10097 20082 30004 40277 52002;
0132268820999992000082803004+53960+032840FM-12+021799999V0200101N001012200019N0200001N1+00891+00821102801ADDGA1001+999999999GF100991001001999999001001MD1210021+9999REMSYN064AAXX  28031 26882 42970 00101 10089 20082 40280 52002 333 55128;
0175268820999992000082806004+53960+032840FM-12+021799999V0200401N002012200019N0200001N1+01371+00981102791ADDAA199000091GA1001+999999999GF100991001001999999001001KA1999N+00871MD1210031+9999REMSYN064AAXX  28061 26882 32970 00402 10137 20098 40279 52003 333 20087;EQDQ01  00002PRCP99
0112268820999992000082809004+53960+032840FM-12+021799999V0200901N004012200019N0200001N1+01801+00901102731ADDGF104991041021008001001001MD1710021+9999REMSYN060AAXX  28091 26882 42570 40904 10180 20090 40273 57002 84200;
0133268820999992000082812004+53960+032840FM-12+021799999V0200801N005012200019N0200001N1+01891+00761102611ADDGF103991031021008001001001MA1999999099971MD1710101+9999REMSYN066AAXX  28121 26882 42570 30805 10189 20076 39997 40261 57010 83200;
0112268820999992000082815004+53960+032840FM-12+021799999V0200601N003012200019N0200001N1+01951+00861102541ADDGF103991031021008001001001MD1710061+9999REMSYN060AAXX  28151 26882 42570 30603 10195 20086 40254 57006 83200;
0122268820999992000082821004+53960+032840FM-12+021799999V0209999C000012200019N0500001N1+01181+00921102611ADDGA1001+999999999GF100991001001999999001001MD1210021+9999REMSYN054AAXX  28211 26882 42984 00000 10118 20092 40261 52002;
0143268820999992000082900004+53960+032840FM-12+021799999V0209999C000012200019N0500001N1+01031+00851102611ADDGA1001+999999999GF100991001001999999001001MA1999999099891MD1810011+9999REMSYN060AAXX  29001 26882 42984 00000 10103 20085 39989 40261 58001;
0122268820999992000082903004+53960+032840FM-12+021799999V0209999C000012200019N0200001N1+00931+00811102611ADDGF102991021001999999031001MD1710011+9999REMSYN070AAXX  29031 26882 42970 20000 10093 20081 40261 57001 82030 333 55121;
0165268820999992000082906004+53960+032840FM-12+021799999V0209999C000019999999N0200001N1+01201+00981102561ADDAA199000091GF106991061001999999031001KA1999N+00911MD1710031+9999REMSYN070AAXX  29061 26882 32970 60000 10120 20098 40256 57003 86030 333 20091;EQDQ01  00002PRCP99
0112268820999992000082909004+53960+032840FM-12+021799999V0200701N002010300019N0200001N1+01961+00881102381ADDGF105991031021012501031001MD1710101+9999REMSYN060AAXX  29091 26882 42670 50702 10196 20088 40238 57010 83230;
0133268820999992000082912004+53960+032840FM-12+021799999V0200801N003010300019N0200001N1+01941+00801102281ADDGF107991021021012501031011MA1999999099661MD1710091+9999REMSYN066AAXX  29121 26882 42670 70803 10194 20080 39966 40228 57009 82231;
0112268820999992000082915004+53960+032840FM-12+021799999V0200701N002019999999N0200001N1+01881+00901102201ADDGF106991021001999999031011MD1710091+9999REMSYN060AAXX  29151 26882 42970 60702 10188 20090 40220 57009 82031;
0165268820999992000082918004+53960+032840FM-12+021799999V0209999C000012200019N0110001N1+01571+01061102231ADDAA199000091GF103991031001999999031001KA1999M+02041MD1410001+9999REMSYN070AAXX  29181 26882 32961 30000 10157 20106 40223 54000 83030 333 10204;EQDQ01  00002PRCP99
0112268820999992000082921004+53960+032840FM-12+021799999V0209999C000019999999N0120001N1+01241+00991102191ADDGF107991071001999999031001MD1710071+9999REMSYN060AAXX  29211 26882 42962 70000 10124 20099 40219 57007 87030;
0133268820999992000083000004+53960+032840FM-12+021799999V0209999C000019999999N0150001N1+01001+00981102151ADDGF107991071001999999031001MA1999999099951MD1710041+9999REMSYN066AAXX  30001 26882 42965 70000 10100 20098 39995 40215 57004 87030;
0152268820999992000083003004+53960+032840FM-12+021799999V0209999C000010048019N0150001N1+01271+01141102031ADDGA1071+004809059GF107991071051004501001001GJ105649MD1710141+9999REMSYN076AAXX  30031 26882 42465 70000 10127 20114 40203 57014 87500 333 55094 87616;
0180268820999992000083006004+53960+032840FM-12+021799999V0209999C000010300019N0100001N1+01351+01261101911ADDAA112000591AY121061AY221061GF108991021051004501071999KA1999N+00971MD1710111+9999MW1211REMSYN082AAXX  30061 26882 11460 80000 10135 20126 40191 57011 69962 72122 8257/ 333 20097;
0140268820999992000083009004+53960+032840FM-12+021799999V0203401N002012200019N0200001N1+01791+01461101781ADDAY161031AY211031GF104991021021008001031021MD1710091+9999MW1011REMSYN066AAXX  30091 26882 41570 43402 10179 20146 40178 57009 70161 82232;
0161268820999992000083012004+53960+032840FM-12+021799999V0209999C000012200019N0200001N1+01951+01431101621ADDAY181061AY261061GF103991021021008001061001MA1999999099011MD1710141+9999MW1011REMSYN072AAXX  30121 26882 41570 30000 10195 20143 39901 40162 57014 70186 82260;
0112268820999992000083015004+53960+032840FM-12+021799999V0201001N001010750019N0200001N1+01971+01361101581ADDGF105991021021008001061021MD1710031+9999REMSYN060AAXX  30151 26882 42570 51001 10197 20136 40158 57003 82262;
0202268820999992000083018004+53960+032840FM-12+021799999V0203001N003010039019N0150001N1+01591+01451101611ADDAA112004191AY181061AY211061GA1071+003909069GF107991071091004501001001KA1120M+02151MD1710011+9999MW1811REMSYN088AAXX  30181 26882 11465 73003 10159 20145 40161 57001 60042 78181 87900 333 10215 87713;
0166268820999992000083021004+53960+032840FM-12+021799999V0209999C000010042019N0170001N1+01551+01411101531ADDAY181031AY221031GA1071+004209029GF107991071021004501001001MD1710081+9999MW1021REMSYN076AAXX  30211 26882 41467 70000 10155 20141 40153 57008 70282 87200 333 87814;
0187268820999992000083100004+53960+032840FM-12+021799999V0200401N001010300019N0110001N1+01391+01351101431ADDAY181061AY221061GA1041+012009059GF108991041051012501071999MA1999999098781MD1710111+9999MW1021REMSYN082AAXX  31001 26882 41661 80401 10139 20135 39878 40143 57011 70282 8457/ 333 84640;
0150268820999992000083103004+53960+032840FM-12+021799999V0209999C000019999999N0060001N1+01381+01341101351ADDAY161031AY221031GF108991081001999999071999MD1710081+9999MW1611REMSYN076AAXX  31031 26882 41956 80000 10138 20134 40135 57008 76162 8807/ 333 55035;
0180268820999992000083106004+53960+032840FM-12+021799999V0201201N002010300019N0070001N1+01521+01411101311ADDAA112003091AY161061AY221061GF107991031071004501031001KA1999N+01371MD1710031+9999MW1101REMSYN082AAXX  31061 26882 11457 71202 10152 20141 40131 57003 60032 71062 83730 333 20137;
0120268820999992000083109004+53960+032840FM-12+021799999V0201301N002010042019N0120001N1+01701+01381101251ADDAY101031AY231031GF107991061021004501031001MW1001REMSYN060AAXX  31091 26882 42462 71302 10170 20138 40125 70003 86230;
0133268820999992000083112004+53960+032840FM-12+021799999V0209999C000010300019N0170001N1+01831+01391101171ADDGF108991031021008001011999MA1999999098561MD1710071+9999REMSYN066AAXX  31121 26882 42567 80000 10183 20139 39856 40117 57007 8321/;
0112268820999992000083115004+53960+032840FM-12+021799999V0202101N001019999999N0200001N1+01751+01401101091ADDGF107991071001999999031001MD1710081+9999REMSYN060AAXX  31151 26882 42970 72101 10175 20140 40109 57008 87030;
0165268820999992000083118004+53960+032840FM-12+021799999V0209999C000019999999N0130001N1+01431+01351101151ADDAA199000091GF107991071001999999051001KA1999M+01871MD1310031+9999REMSYN070AAXX  31181 26882 32963 70000 10143 20135 40115 53003 87050 333 10187;EQDQ01  00002PRCP99
0112268820999992000083121004+53960+032840FM-12+021799999V0209999C000019999999N0130001N1+01331+01271101041ADDGF105991051001999999031001MD1810021+9999REMSYN060AAXX  31211 26882 42963 50000 10133 20127 40104 58002 85030;
0161268820999992000090100004+53960+032840FM-12+021799999V0209999C000019999999N0022001N1+01341+01321100991ADDAY121061AY221061GF108991081001999999011999MA1999999098341MD1810051+9999MW1101REMSYN072AAXX  01001 26882 41922 80000 10134 20132 39834 40099 58005 71022 8801/;
0160268820999992000090103004+53960+032840FM-12+021799999V0202601N002010006019N0006001N1+01251+01251100981ADDAY141031AY221031GA1091+999999999GF109991091999999999999999MD1710021+9999MW1451REMSYN070AAXX  01031 26882 41/06 92602 10125 20125 40098 57002 74542 333 55009;
0215268820999992000090106004+53960+032840FM-12+021799999V0202501N002010042019N0110001N1+01481+01341100981ADDAA199000091AY141061AY221061GA1071+004209059GF107991071051004501001001KA1120N+01271MD1210021+9999MW1021REMSYN082AAXX  01061 26882 31461 72502 10148 20134 40098 52002 70242 87500 333 20127 87614;EQDQ01  00002PRCP99
0112268820999992000090109004+53960+032840FM-12+021799999V0202501N005010300019N0200001N1+01631+01251100971ADDGF106991041021008001031001MD1410001+9999REMSYN060AAXX  01091 26882 42570 62505 10163 20125 40097 54000 84230;
0133268820999992000090112004+53960+032840FM-12+021799999V0202401N004010300019N0200001N1+01991+01141100931ADDGF105991031021008001031001MA1999999098341MD1410001+9999REMSYN066AAXX  01121 26882 42570 52404 10199 20114 39834 40093 54000 83230;
0112268820999992000090115004+53960+032840FM-12+021799999V0202201N004010300019N0200001N1+01801+01221100941ADDGF107991031021008001031001MD1410001+9999REMSYN060AAXX  01151 26882 42570 72204 10180 20122 40094 54000 83230;
0165268820999992000090118004+53960+032840FM-12+021799999V0202701N005010300019N0500001N1+01411+01131101001ADDAA199000091GF107991021021008001031001KA1999M+02051MD1310021+9999REMSYN070AAXX  01181 26882 32584 72705 10141 20113 40100 53002 82230 333 10205;EQDQ01  00002PRCP99
0112268820999992000090121004+53960+032840FM-12+021799999V0201601N002019999999N0500001N1+01311+01141101051ADDGF107991031001999999031011MD1210041+9999REMSYN060AAXX  01211 26882 42984 71602 10131 20114 40105 52004 83031;
0143268820999992000090200004+53960+032840FM-12+021799999V0201701N001012200019N0450001N1+01091+00991101061ADDGA1001+999999999GF100991001001999999001001MA1999999098391MD1810011+9999REMSYN060AAXX  02001 26882 42983 01701 10109 20099 39839 40106 58001;
0150268820999992000090203004+53960+032840FM-12+021799999V0209999C000012200019N0070001N1+00911+00861101081ADDAY141031AY201031GF102991021001999999031001MD1410001+9999MW1101REMSYN076AAXX  02031 26882 41957 20000 10091 20086 40108 54000 71040 82030 333 55052;
0180268820999992000090206004+53960+032840FM-12+021799999V0209999C000019999999N0090001N1+01171+01111101061ADDAA112000391AY141061AY211061GF108991081001999999071999KA1999N+00871MD1410001+9999MW1211REMSYN082AAXX  02061 26882 11959 80000 10117 20111 40106 54000 69932 72141 8807/ 333 20087;
0106268820999992000090209004+53960+032840FM-12+021799999V0200101N001019999999N0120001N1+01661+01361101051ADDGF107991999999000251999999MD1310051+9999REMSYN054AAXX  02091 26882 42062 70101 10166 20136 40105 53005;
0133268820999992000090212004+53960+032840FM-12+021799999V0201801N001010300019N0190001N1+01851+01221101041ADDGF107991021021008001041001MA1999999098441MD1410001+9999REMSYN066AAXX  02121 26882 42569 71801 10185 20122 39844 40104 54000 82240;
0112268820999992000090215004+53960+032840FM-12+021799999V0209999C000019999999N0100001N1+01831+01351100991ADDGF108991081001999999071999MD1710051+9999REMSYN060AAXX  02151 26882 42960 80000 10183 20135 40099 57005 8807/;
0174268820999992000090218004+53960+032840FM-12+021799999V0209999C000019999999N0080001N1+01651+01381101011ADDAA199000021AY121061AY221061GF108991081001999999071999KA1999M+01901MD1410001+9999MW1101REMSYN076AAXX  02181 26882 31958 80000 10165 20138 40101 54000 71022 8807/ 333 10190;
0140268820999992000090221004+53960+032840FM-12+021799999V0209999C000019999999N0070001N1+01431+01261101031ADDAY161031AY221031GF108991081001999999071999MD1410001+9999MW1101REMSYN066AAXX  02211 26882 41957 80000 10143 20126 40103 54000 71062 8807/;
0161268820999992000090300004+53960+032840FM-12+021799999V0201101N001010300019N0090001N1+01301+01231100921ADDAY161061AY221061GF107991031021008001061001MA1999999098271MD1710121+9999MW1101REMSYN072AAXX  03001 26882 41559 71101 10130 20123 39827 40092 57012 71062 83260;
0180268820999992000090303004+53960+032840FM-12+021799999V0201401N001010054019N0080001N1+01331+01311100841ADDAY161031AY221031GA1071+005409059GF107991071051004501001001GJ100909MD1710071+9999MW1101REMSYN082AAXX  03031 26882 41458 71401 10133 20131 40084 57007 71062 87500 333 55015 87618;
0202268820999992000090306004+53960+032840FM-12+021799999V0201301N004010045019N0130001N1+01451+01361100891ADDAA112003091AY161061AY221061GA1071+004509059GF107991071051004501001001KA1120N+01271MD1310051+9999MW1021REMSYN088AAXX  03061 26882 11463 71304 10145 20136 40089 53005 60032 70262 87500 333 20127 87615;
0138268820999992000090309004+53960+032840FM-12+021799999V0201301N004010057019N0180001N1+01631+01441100751ADDGA1071+005709059GF107991071051004501001001MD1810111+9999REMSYN070AAXX  03091 26882 42468 71304 10163 20144 40075 58011 87500 333 87619;
0187268820999992000090312004+53960+032840FM-12+021799999V0201301N003010060019N0190001N1+01851+01601100701ADDAY161061AY221061GA1071+006009059GF107991071051008001001001MA1999999098121MD1710021+9999MW1211REMSYN082AAXX  03121 26882 41569 71303 10185 20160 39812 40070 57002 72162 87500 333 87620;
0140268820999992000090315004+53960+032840FM-12+021799999V0201501N003010300019N0180001N1+02211+01581100661ADDAY181031AY261031GF107991041051008001061001MD1710041+9999MW1211REMSYN066AAXX  03151 26882 41568 71503 10221 20158 40066 57004 72186 84560;
0202268820999992000090318004+53960+032840FM-12+021799999V0201901N002010048019N0240001N1+01731+01611100631ADDAA112001091AY191061AY281061GA1061+004809029GF107991061091004501061001KA1120M+01931MD1710051+9999MW1951REMSYN088AAXX  03181 26882 11474 71902 10173 20161 40063 57005 60012 79598 86960 333 10193 86816;
0140268820999992000090321004+53960+032840FM-12+021799999V0201701N001010120019N0300001N1+01631+01581100661ADDAY191031AY281031GF107991071021012501001001MD1310021+9999MW1291REMSYN066AAXX  03211 26882 41680 71701 10163 20158 40066 53002 72998 87200;
0161268820999992000090400004+53960+032840FM-12+021799999V02099999999999999999N0110001N1+01561+01521100611ADDAY191061AY281061GF105991051001999999031001MA1999999097991MD1710061+9999MW1011REMSYN072AAXX  04001 26882 41961 5170/ 10156 20152 39799 40061 57006 70198 85030;
0180268820999992000090403004+53960+032840FM-12+021799999V0201701N002010036019N0050001N1+01541+01521100551ADDAY121031AY221031GA1071+003609059GF107991071051004501001001GJ100009MD1710051+9999MW1101REMSYN082AAXX  04031 26882 41450 71702 10154 20152 40055 57005 71022 87500 333 55000 87612;
0180268820999992000090406004+53960+032840FM-12+021799999V0201701N002010012019N0030001N1+01581+01551100521ADDAA112003091AY141061AY221061GF107991071061001501001001KA1999N+01471MD1710021+9999MW1281REMSYN082AAXX  04061 26882 11230 71702 10158 20155 40052 57002 60032 72842 87600 333 20147;
0112268820999992000090409004+53960+032840FM-12+021799999V0201701N003010300019N0100001N1+01761+01491100521ADDGF107991011021008001031001MD1310011+9999REMSYN060AAXX  04091 26882 42560 71703 10176 20149 40052 53001 81230;
0187268820999992000090412004+53960+032840FM-12+021799999V0202401N005010090019N0130001N1+01771+01441100531ADDAY181061AY221061GA1061+009009099GF107991061091008001031001MA1999999097941MD1210011+9999MW1801REMSYN082AAXX  04121 26882 41563 72405 10177 20144 39794 40053 52001 78082 86930 333 86930;
0112268820999992000090415004+53960+032840FM-12+021799999V0202601N006010300019N0200001N1+01671+01371100631ADDGF105991031021008001031001MD1210081+9999REMSYN060AAXX  04151 26882 42570 52606 10167 20137 40063 52008 83230;
0180268820999992000090418004+53960+032840FM-12+021799999V0202201N003012200019N0500001N1+01231+01131100841ADDAA112000391AY181061AY211061GF101991011001999999031001KA1999M+01971MD1210171+9999MW1011REMSYN082AAXX  04181 26882 11984 12203 10123 20113 40084 52017 69932 70181 81030 333 10197;
0150268820999992000090421004+53960+032840FM-12+021799999V0202101N003012200019N0500001N1+01171+01071100881ADDAY181031AY211031GA1001+999999999GF100991001001999999001001MD1110031+9999MW1011REMSYN060AAXX  04211 26882 41984 02103 10117 20107 40088 51003 70181;
0171268820999992000090500004+53960+032840FM-12+021799999V0202101N004012200019N0110001N1+01031+00971100901ADDAY181061AY211061GA1001+999999999GF100991001001999999001001MA1999999098231MD1210011+9999MW1021REMSYN066AAXX  05001 26882 41961 02104 10103 20097 39823 40090 52001 70281;
0150268820999992000090503004+53960+032840FM-12+021799999V0202201N003019999999N0050001N1+01031+01021100941ADDAY111031AY211031GF107991071001999999051001MD1210041+9999MW1101REMSYN076AAXX  05031 26882 41950 72203 10103 20102 40094 52004 71011 87050 333 55028;
0152268820999992000090506004+53960+032840FM-12+021799999V0202201N003019999999N0110001N1+01181+01101100941ADDAA112000391GF107991071001999999031001KA1999N+01021MD1410001+9999REMSYN076AAXX  05061 26882 1/961 72203 10118 20110 40094 54000 69932 87030 333 20102;
0112268820999992000090509004+53960+032840FM-12+021799999V0202101N003019999999N0200001N1+01561+01271100901ADDGF107991071001999999031001MD1410001+9999REMSYN060AAXX  05091 26882 42970 72103 10156 20127 40090 54000 87030;
0133268820999992000090512004+53960+032840FM-12+021799999V0202401N006010300019N0200001N1+01751+01171100911ADDGF106991031021008001031001MA1999999098301MD1210031+9999REMSYN066AAXX  05121 26882 42570 62406 10175 20117 39830 40091 52003 83230;
0140268820999992000090515004+53960+032840FM-12+021799999V0202501N004010300019N0200001N1+01651+01201100941ADDAY181031AY221031GF105991031021008001031001MD1210021+9999MW1021REMSYN066AAXX  05151 26882 41570 52504 10165 20120 40094 52002 70282 83230;
0180268820999992000090518004+53960+032840FM-12+021799999V0202301N003012200019N0200001N1+01161+01031101071ADDAA112003091AY181061AY211061GF101991011001999999031001KA1999M+01771MD1210081+9999MW1011REMSYN082AAXX  05181 26882 11970 12303 10116 20103 40107 52008 60032 70181 81030 333 10177;
0122268820999992000090521004+53960+032840FM-12+021799999V0202201N002012200019N0180001N1+00951+00901101091ADDGA1001+999999999GF100991001001999999001001MD1210011+9999REMSYN054AAXX  05211 26882 42968 02202 10095 20090 40109 52001;
0143268820999992000090600004+53960+032840FM-12+021799999V0202201N001012200019N0130001N1+00821+00781101111ADDGA1001+999999999GF100991001001999999001001MA1999999098411MD1410001+9999REMSYN060AAXX  06001 26882 42963 02201 10082 20078 39841 40111 54000;
0160268820999992000090603004+53960+032840FM-12+021799999V0202501N001010003019N0002001N1+00651+00651101121ADDAY141031AY221031GA1091+999999999GF109991091999999999999999MD1410001+9999MW1451REMSYN070AAXX  06031 26882 41/92 92501 10065 20065 40112 54000 74542 333 55031;
0193268820999992000090606004+53960+032840FM-12+021799999V0203001N001012200019N0200001N1+01141+01061101111ADDAA199000091AY141061AY211061GF102991021061002501001011KA1999N+00581MD1210031+9999MW1011REMSYN076AAXX  06061 26882 31370 23001 10114 20106 40111 52003 70141 82601 333 20058;EQDQ01  00002PRCP99
0112268820999992000090609004+53960+032840FM-12+021799999V0203201N002010090019N0200001N1+01391+01001101091ADDGF107991061081004501001011MD1410001+9999REMSYN060AAXX  06091 26882 42470 73202 10139 20100 40109 54000 86801;
0133268820999992000090612004+53960+032840FM-12+021799999V0203001N003010750019N0200001N1+01461+00861101041ADDGF106991041081008001001021MA1999999098401MD1710041+9999REMSYN066AAXX  06121 26882 42570 63003 10146 20086 39840 40104 57004 84802;
0112268820999992000090615004+53960+032840FM-12+021799999V0203301N003010750019N0200001N1+01511+00861101041ADDGF105991021081008001001021MD1410001+9999REMSYN060AAXX  06151 26882 42570 53303 10151 20086 40104 54000 82802;
0165268820999992000090618004+53960+032840FM-12+021799999V0203501N003012200019N0250001N1+01171+00921101081ADDAA199000091GF103991031001999999031001KA1999M+01641MD1210011+9999REMSYN070AAXX  06181 26882 32975 33503 10117 20092 40108 52001 83030 333 10164;EQDQ01  00002PRCP99
0112268820999992000090621004+53960+032840FM-12+021799999V0203501N003019999999N0200001N1+01041+00881101031ADDGF107991071001999999031001MD1710051+9999REMSYN060AAXX  06211 26882 42970 73503 10104 20088 40103 57005 87030;
0133268820999992000090700004+53960+032840FM-12+021799999V0203401N003019999999N0180001N1+00821+00741100991ADDGF107991071001999999031001MA1999999098291MD1710071+9999REMSYN066AAXX  07001 26882 42968 73403 10082 20074 39829 40099 57007 87030;
0152268820999992000090703004+53960+032840FM-12+021799999V0200301N003010036019N0200001N1+01071+00971100851ADDGA1071+003609059GF107991071051004501001001GJ105649MD1710111+9999REMSYN076AAXX  07031 26882 42470 70303 10107 20097 40085 57011 87500 333 55094 87612;
0202268820999992000090706004+53960+032840FM-12+021799999V0200301N004010033019N0200001N1+01071+00931100801ADDAA112000791AY161061AY221061GA1071+003309059GF107991071051004501001001KA1120N+00821MD1710051+9999MW1211REMSYN088AAXX  07061 26882 11470 70304 10107 20093 40080 57005 69902 72162 87500 333 20082 87611;
0206268820999992000090712004+53960+032840FM-12+021799999V0200301N006010042019N0050001N1+99999+99999100661ADDAY161061AY221061GA1081+004209069GF108991999081004501071021MA1999999098011MD1710011+9999MW1631REMSYN082AAXX  07121 26882 41450 80306 10721 20116 39801 40066 57001 76362 88872 333 88714;EQDQ01+000082SCOTLC
0185268820999992000090715004+53960+032840FM-12+021799999V0200401N006010039019N0080001N1+01211+01131100631ADDAY161031AY221031GA1081+003909069GF108991999071004501021999MD1710031+9999MW1631REMSYN076AAXX  07151 26882 41458 80406 10121 20113 40063 57003 76362 8872/ 333 88713;EQDQ01+000082SCOTLC
0227268820999992000090718004+53960+032840FM-12+021799999V0200401N006010048019N0150001N1+01171+01071100731ADDAA112016091AY161061AY221061GA1081+004809079GF108991999071004501021999KA1120M+01231MD1310091+9999MW1611REMSYN094AAXX  07181 26882 11465 80406 10117 20107 40073 53009 60162 76162 8872/ 333 10123 88716 91113;EQDQ01+000082SCOTLC
0185268820999992000090721004+53960+032840FM-12+021799999V0200701N004010033019N0070001N1+01151+01071100791ADDAY161031AY221031GA1081+003309069GF108991999071004501021999MD1210061+9999MW1631REMSYN076AAXX  07211 26882 41457 80704 10115 20107 40079 52006 76362 8872/ 333 88711;EQDQ01+000082SCOTLC
0187268820999992000090800004+53960+032840FM-12+021799999V0200201N004010033019N0500001N1+01151+01101100821ADDAY161061AY221061GA1071+003309059GF107991071051004501001001MA1999999098161MD1210031+9999MW1021REMSYN082AAXX  08001 26882 41484 70204 10115 20110 39816 40082 52003 70262 87500 333 87611;
0199268820999992000090803004+53960+032840FM-12+021799999V0200501N003010027019N0090001N1+01151+01101100971ADDAY161031AY221031GA1081+002709069GF108991999071002501021999GJ100009MD1210141+9999MW1631REMSYN082AAXX  08031 26882 41359 80503 10115 20110 40097 52014 76362 8872/ 333 55000 88709;EQDQ01+000082SCOTLC
0186268820999992000090806004+53960+032840FM-12+021799999V0200501N005010042019N0180001N1+01181+01091101051ADDAA112007191AY161061AY221061GF108991081071004501999999KA1120N+01101MD1210081+9999MW1211REMSYN088AAXX  08061 26882 11468 80505 10118 20109 40105 52008 60072 72162 887// 333 20110 8711/;
0185268820999992000090809004+53960+032840FM-12+021799999V0200401N004010018019N0050001N1+01131+01071101321ADDAY161031AY221031GA1081+001809069GF108991999071001501021999MD1210271+9999MW1611REMSYN076AAXX  08091 26882 41250 80404 10113 20107 40132 52027 76162 8872/ 333 88706;EQDQ01+000082SCOTLC
0138268820999992000090815004+53960+032840FM-12+021799999V0200401N004010039019N0200001N1+01201+01041101641ADDGA1071+003909059GF107991071051004501001001MD1210161+9999REMSYN070AAXX  08151 26882 42470 70404 10120 20104 40164 52016 87500 333 87613;
0174268820999992000090818004+53960+032840FM-12+021799999V0200401N003010039019N0500001N1+01171+01041101871ADDAA112000791GA1071+003909059GF107991071051004501001001KA1120M+01191MD1210221+9999REMSYN082AAXX  08181 26882 12484 70403 10117 20104 40187 52022 69902 87500 333 10119 87613;
0166268820999992000090821004+53960+032840FM-12+021799999V0200301N002010039019N0060001N1+01151+01101101971ADDAY121031AY221031GA1071+003909059GF107991071051004501001001MD1210101+9999MW1101REMSYN076AAXX  08211 26882 41456 70302 10115 20110 40197 52010 71022 87500 333 87613;
0187268820999992000090900004+53960+032840FM-12+021799999V0200201N002010039019N0060001N1+01131+01071101991ADDAY121061AY221061GA1071+003909059GF107991071051004501001001MA1999999099301MD1110021+9999MW1101REMSYN082AAXX  09001 26882 41456 70202 10113 20107 39930 40199 51002 71022 87500 333 87613;
0180268820999992000090903004+53960+032840FM-12+021799999V0202701N002010054019N0080001N1+01091+01051102081ADDAY121031AY221031GA1071+005409059GF107991071051004501001001GJ100009MD1210081+9999MW1101REMSYN082AAXX  09031 26882 41458 72702 10109 20105 40208 52008 71022 87500 333 55000 87618;
0165268820999992000090906004+53960+032840FM-12+021799999V0202501N003012200019N0200001N1+01251+01041102101ADDAA199000091GF103991031001999999031001KA1999N+01111MD1210041+9999REMSYN070AAXX  09061 26882 32970 32503 10125 20104 40210 52004 83030 333 20111;EQDQ01  00002PRCP99
0165268820999992000090909004+53960+032840FM-12+021799999V0202501N003012200019N0200001N1+01251+01041102101ADDAA199000091GF103991031001999999031001KA1999N+01111MD1210041+9999REMSYN070AAXX  09091 26882 32970 32503 10125 20104 40210 52004 83030 333 20111;EQDQ01  00002PRCP99
0133268820999992000090912004+53960+032840FM-12+021799999V0202501N004019999999N0200001N1+01771+00811102041ADDGF106991031001999999031011MA1999999099411MD1710031+9999REMSYN066AAXX  09121 26882 42970 62504 10177 20081 39941 40204 57003 83031;
0112268820999992000090915004+53960+032840FM-12+021799999V0202401N004019999999N0200001N1+01631+01001102051ADDGF107991071001999999061001MD1410001+9999REMSYN060AAXX  09151 26882 42970 72404 10163 20100 40205 54000 87060;
0187268820999992000090918004+53960+032840FM-12+021799999V0202401N004010108019N0210001N1+01441+01001102051ADDAA199000091GA1071+010809059GF107991071051012501001001KA1120M+01901MD1810021+9999REMSYN076AAXX  09181 26882 32671 72404 10144 20100 40205 58002 87500 333 10190 87636;EQDQ01  00002PRCP99
0161268820999992000091000004+53960+032840FM-12+021799999V0200901N00201001201CN9999999N1+01381+01301101991ADDAY161061AY221061GA1081+001209069MA1999999099321MD1710031+9999MW1631REMSYN082AAXX  10001 26882 4121/ /0902 10138 20130 39932 40199 57003 76362 8872/ 333 88704;
0199268820999992000091003004+53960+032840FM-12+021799999V0202801N002010015019N0020001N1+01381+01341101921ADDAY161031AY221031GA1081+001509069GF108991999071001501021999GJ102229MD1710071+9999MW1611REMSYN082AAXX  10031 26882 41220 82802 10138 20134 40192 57007 76162 8872/ 333 55037 88705;EQDQ01+000082SCOTLC
0180268820999992000091006004+53960+032840FM-12+021799999V0202801N003010300019N0130001N1+01381+01271101871ADDAA112002091AY161061AY221061GF108991021021008001071999KA1999N+01321MD1710051+9999MW1021REMSYN082AAXX  10061 26882 11563 82803 10138 20127 40187 57005 60022 70262 8227/ 333 20132;
0112268820999992000091009004+53960+032840FM-12+021799999V0203101N004010300019N0200001N1+01571+01141101821ADDGF106991021021008001031091MD1710031+9999REMSYN060AAXX  10091 26882 42570 63104 10157 20114 40182 57003 82239;
0133268820999992000091012004+53960+032840FM-12+021799999V0202701N006012200019N0200001N1+01761+00881101701ADDGF105991021021008001001061MA1999999099071MD1710101+9999REMSYN066AAXX  10121 26882 42570 52706 10176 20088 39907 40170 57010 82206;
0112268820999992000091015004+53960+032840FM-12+021799999V0202701N003010750019N0200001N1+01551+00981101671ADDGF108991021041008001001071MD1710041+9999REMSYN060AAXX  10151 26882 42570 82703 10155 20098 40167 57004 82407;
0165268820999992000091018004+53960+032840FM-12+021799999V0202401N003019999999N0250001N1+01311+01021101621ADDAA199000091GF105991051001999999031001KA1999M+01831MD1710081+9999REMSYN070AAXX  10181 26882 32975 52403 10131 20102 40162 57008 85030 333 10183;EQDQ01  00002PRCP99
0112268820999992000091021004+53960+032840FM-12+021799999V0202401N002019999999N0200001N1+01001+00851101491ADDGF107991071001999999031001MD1710151+9999REMSYN060AAXX  10211 26882 42970 72402 10100 20085 40149 57015 87030;
0133268820999992000091100004+53960+032840FM-12+021799999V0202601N004019999999N0150001N1+00901+00471101401ADDGF107991071001999999031001MA1999999098701MD1710101+9999REMSYN066AAXX  11001 26882 42965 72604 10090 20047 39870 40140 57010 87030;
0122268820999992000091103004+53960+032840FM-12+021799999V0202601N004019999999N0200001N1+00991+00891101341ADDGF107991071001999999031001MD1710051+9999REMSYN070AAXX  11031 26882 42970 72604 10099 20089 40134 57005 87030 333 55061;
0165268820999992000091106004+53960+032840FM-12+021799999V0203101N004010300019N0200001N1+01141+00901101331ADDAA199000091GF106991021081004501031001KA1999N+00881MD1310011+9999REMSYN070AAXX  11061 26882 32470 63104 10114 20090 40133 53001 82830 333 20088;EQDQ01  00002PRCP99
0112268820999992000091109004+53960+032840FM-12+021799999V0202901N005010300019N0200001N1+01441+00771101311ADDGF106991031081008001031001MD1410001+9999REMSYN060AAXX  11091 26882 42570 62905 10144 20077 40131 54000 83830;
0133268820999992000091112004+53960+032840FM-12+021799999V0202901N005012200019N0200001N1+01621+00611101321ADDGF103991021021012501031001MA1999999098681MD1310021+9999REMSYN066AAXX  11121 26882 42670 32905 10162 20061 39868 40132 53002 82230;
0112268820999992000091115004+53960+032840FM-12+021799999V0203001N004012200019N0200001N1+01591+00641101321ADDGF102991011021012501031001MD1810011+9999REMSYN060AAXX  11151 26882 42670 23004 10159 20064 40132 58001 81230;
0112268820999992000091121004+53960+032840FM-12+021799999V0202201N003012200019N0500001N1+00791+00681101321ADDGF102991001001999999001011MD1710041+9999REMSYN060AAXX  11211 26882 42984 22203 10079 20068 40132 57004 80001;
0133268820999992000091200004+53960+032840FM-12+021799999V0202201N004012200019N0210001N1+00641+00551101241ADDGF102991001001999999001011MA1999999098521MD1710031+9999REMSYN066AAXX  12001 26882 42971 22204 10064 20055 39852 40124 57003 80001;
0122268820999992000091203004+53960+032840FM-12+021799999V0202301N004012200019N0200001N1+00591+00521101141ADDGF103991011021008001031011MD1710101+9999REMSYN070AAXX  12031 26882 42570 32304 10059 20052 40114 57010 81231 333 55103;
0171268820999992000091206004+53960+032840FM-12+021799999V0202301N003012200019N0200001N1+00871+00771101071ADDAA199000091GF103991021021008001031001KA1120N+00551MD1710041+9999REMSYN076AAXX  12061 26882 32570 32303 10087 20077 40107 57004 82230 333 20055 31003;EQDQ01  00002PRCP99
0112268820999992000091209004+53960+032840FM-12+021799999V0202801N006012200019N0200001N1+01541+00811100951ADDGF103991021021012501031001MD1710061+9999REMSYN060AAXX  12091 26882 42670 32806 10154 20081 40095 57006 82230;
0193268820999992000091212004+53960+032840FM-12+021799999V0203301N005010039019N0200001N1+01231+00551101021ADDAY181061AY211061GA1051+003909099GF106991051091004501061001MA1999999098351MD1310031+9999MW1801REMSYN088AAXX  12121 26882 41470 63305 10123 20055 39835 40102 53003 78081 85960 333 85913 91115;
0122268820999992000091215004+53960+032840FM-12+021799999V0203101N005012200019N0200001N1+01361+00531101011ADDGF102991021081008001001001MD1210011+9999REMSYN070AAXX  12151 26882 42570 23105 10136 20053 40101 52001 82800 333 91113;
0162268820999992000091218004+53960+032840FM-12+021799999V0203001N004012200019N0500001N1+00791+00511101181ADDAA112003091GA1001+999999999GF100991001001999999001001KA1999M+01621MD1210121+9999REMSYN070AAXX  12181 26882 12984 03004 10079 20051 40118 52012 60032 333 10162;
0122268820999992000091221004+53960+032840FM-12+021799999V0203001N002012200019N0500001N1+00661+00451101261ADDGA1001+999999999GF100991001001999999001001MD1210061+9999REMSYN054AAXX  12211 26882 42984 03002 10066 20045 40126 52006;
0143268820999992000091300004+53960+032840FM-12+021799999V0203001N002012200019N0500001N1+00441+00321101341ADDGA1001+999999999GF100991001001999999001001MA1999999098591MD1210051+9999REMSYN060AAXX  13001 26882 42984 03002 10044 20032 39859 40134 52005;
0122268820999992000091303004+53960+032840FM-12+021799999V0202601N002019999999N0200001N1+00461+00391101371ADDGF105991051001999999031001MD1210031+9999REMSYN070AAXX  13031 26882 42970 52602 10046 20039 40137 52003 85030 333 55097;
0165268820999992000091306004+53960+032840FM-12+021799999V0202601N003012200019N0200001N1+00851+99999101391ADDAA199000091GF102991021001999999031001KA1999N+00371MD1210061+9999REMSYN070AAXX  13061 26882 32970 22603 10085 20561 40139 52006 82030 333 20037;EQDQ01  00002PRCP99
0112268820999992000091309004+53960+032840FM-12+021799999V0202501N004010300019N0200001N1+01251+00641101421ADDGF105991031021008001031001MD1210081+9999REMSYN060AAXX  13091 26882 42570 52504 10125 20064 40142 52008 83230;
0133268820999992000091312004+53960+032840FM-12+021799999V0203001N004012200019N0200001N1+01411+00411101441ADDGF104991041021008001001001MA1999999098791MD1210031+9999REMSYN066AAXX  13121 26882 42570 43004 10141 20041 39879 40144 52003 84200;
0112268820999992000091315004+53960+032840FM-12+021799999V0202801N004010750019N0200001N1+01381+00501101471ADDGF105991021021008001031011MD1210031+9999REMSYN060AAXX  13151 26882 42570 52804 10138 20050 40147 52003 82231;
0165268820999992000091318004+53960+032840FM-12+021799999V0209999C000019999999N0500001N1+00831+00551101571ADDAA199000091GF108991001001999999001011KA1999M+01491MD1210031+9999REMSYN070AAXX  13181 26882 32984 80000 10083 20055 40157 52003 80001 333 10149;EQDQ01  00002PRCP99
0112268820999992000091321004+53960+032840FM-12+021799999V0209999C000019999999N0500001N1+00671+00461101581ADDGF107991031001999999031011MD1410001+9999REMSYN060AAXX  13211 26882 42984 70000 10067 20046 40158 54000 83031;
0133268820999992000091400004+53960+032840FM-12+021799999V0209999C000019999999N0500001N1+00611+00501101611ADDGF108991021001999999031011MA1999999098871MD1210021+9999REMSYN066AAXX  14001 26882 42984 80000 10061 20050 39887 40161 52002 82031;
0150268820999992000091403004+53960+032840FM-12+021799999V0201001N001019999999N0060001N1+00511+00461101461ADDAY121031AY221031GF107991071001999999051001MD1710151+9999MW1101REMSYN076AAXX  14031 26882 41956 71001 10051 20046 40146 57015 71022 87050 333 55101;
0165268820999992000091406004+53960+032840FM-12+021799999V0201001N001010300019N0200001N1+00851+00651101391ADDAA199000091GF107991011021008001071001KA1999N+00471MD1610031+9999REMSYN070AAXX  14061 26882 32570 71001 10085 20065 40139 56003 81270 333 20047;EQDQ01  00002PRCP99
0140268820999992000091409004+53960+032840FM-12+021799999V0201101N003010300019N0200001N1+01041+00801101321ADDAY161031AY221031GF107991021021008001071001MD1710051+9999MW1021REMSYN066AAXX  14091 26882 41570 71103 10104 20080 40132 57005 70262 82270;
0161268820999992000091412004+53960+032840FM-12+021799999V0201301N003010075019N0200001N1+01171+00671101321ADDAY161061AY221061GF107991061021008001031001MA1999999098651MD1310011+9999MW1011REMSYN072AAXX  14121 26882 41570 71303 10117 20067 39865 40132 53001 70162 86230;
0112268820999992000091415004+53960+032840FM-12+021799999V0201101N001010300019N0200001N1+01111+00591101371ADDGF107991021041008001031011MD1210041+9999REMSYN060AAXX  14151 26882 42570 71101 10111 20059 40137 52004 82431;
0165268820999992000091418004+53960+032840FM-12+021799999V0209999C000019999999N0500001N1+00841+00671101481ADDAA199000091GF105991051001999999031001KA1999M+01171MD1210091+9999REMSYN070AAXX  14181 26882 32984 50000 10084 20067 40148 52009 85030 333 10117;EQDQ01  00002PRCP99
0140268820999992000091421004+53960+032840FM-12+021799999V0209999C000019999999N0080001N1+00651+00561101511ADDAY121031AY221031GF106991061001999999031001MD1210011+9999MW1101REMSYN066AAXX  14211 26882 41958 60000 10065 20056 40151 52001 71022 86030;
0140268820999992000091500004+53960+032840FM-12+021799999V0209999C000019999999N0080001N1+00651+00561101511ADDAY121061AY221061GF106991061001999999031001MD1210011+9999MW1101REMSYN066AAXX  15001 26882 41958 60000 10065 20056 40151 52001 71022 86030;
0160268820999992000091503004+53960+032840FM-12+021799999V0209999C000010003019N0002001N1+00261+00261101611ADDAY141031AY221031GA1091+999999999GF109991091999999999999999MD1210051+9999MW1451REMSYN070AAXX  15031 26882 41/92 90000 10026 20026 40161 52005 74542 333 55000;
0193268820999992000091506004+53960+032840FM-12+021799999V0201001N001012200019N0200001N1+00711+00511101651ADDAA199000091AY141061AY211061GF102991021001999999031001KA1999N+00171MD1210061+9999MW1011REMSYN076AAXX  15061 26882 31970 21001 10071 20051 40165 52006 70141 82030 333 20017;EQDQ01  00002PRCP99
0112268820999992000091509004+53960+032840FM-12+021799999V0200801N002010300019N0200001N1+01191+00561101591ADDGF106991041081008001031001MD1810011+9999REMSYN060AAXX  15091 26882 42570 60802 10119 20056 40159 58001 84830;
0161268820999992000091512004+53960+032840FM-12+021799999V0203401N003010300019N0200001N1+01271+00381101561ADDAY111061AY211061GF105991031021012501051021MA1999999098891MD1710021+9999MW1251REMSYN072AAXX  15121 26882 41670 53403 10127 20038 39889 40156 57002 72511 83252;
0112268820999992000091515004+53960+032840FM-12+021799999V0200201N002012200019N0200001N1+00991+00321101651ADDGF104991021021012501031001MD1310061+9999REMSYN060AAXX  15151 26882 42670 40202 10099 20032 40165 53006 82230;
0152268820999992000091518004+53960+032840FM-12+021799999V0200101N003012200019N0500001N1+00691+00391101781ADDAA112000891GF102991021041008001031001KA1999M+01391MD1210101+9999REMSYN076AAXX  15181 26882 12584 20103 10069 20039 40178 52010 69972 82430 333 10139;
0122268820999992000091521004+53960+032840FM-12+021799999V0203201N003012200019N0500001N1+00551+00311101751ADDGA1001+999999999GF100991001001999999001001MD1410001+9999REMSYN054AAXX  15211 26882 42984 03203 10055 20031 40175 54000;
0162268820999992000091600004+53960+032840FM-12+021799999V0203201N002012200019N0240001N1+00371+00301101831ADDGF103991999999999999999999MA1999999099071MD1210081+9999REMSYN060AAXX  16001 26882 42974 33202 10037 20030 39907 40183 58728;EQDQ01+000087APCTENQ02+007287APC3  
0150268820999992000091603004+53960+032840FM-12+021799999V0203501N003010012019N0050001N1+00481+00411101861ADDAY111031AY211031GF108991081061001501999999MD1210041+9999MW1101REMSYN076AAXX  16031 26882 41250 83503 10048 20041 40186 52004 71011 886// 333 55076;
0215268820999992000091606004+53960+032840FM-12+021799999V0203301N003010012019N0016001N1+00461+00361101891ADDAA199000091AY121061AY221061GA1081+001209069GF108991081061001501999999KA1120N+00321MD1210021+9999MW1101REMSYN082AAXX  16061 26882 31216 83303 10046 20036 40189 52002 71022 886// 333 20032 88704;EQDQ01  00002PRCP99
0138268820999992000091609004+53960+032840FM-12+021799999V0203501N004010105019N0200001N1+00841+00211101831ADDGA1061+010509029GF106991061081012501001001MD1810021+9999REMSYN070AAXX  16091 26882 42670 63504 10084 20021 40183 58002 86800 333 86835;
0161268820999992000091612004+53960+032840FM-12+021799999V0203401N004010075019N0080001N1+00821+00131101801ADDAY181061AY221061GF106991051091008001061001MA1999999099081MD1710031+9999MW1811REMSYN072AAXX  16121 26882 41558 63404 10082 20013 39908 40180 57003 78182 85960;
0140268820999992000091615004+53960+032840FM-12+021799999V0203601N002012200019N0140001N1+00571+00301101841ADDAY181031AY221031GF104991041021008001001001MD1310021+9999MW1251REMSYN066AAXX  16151 26882 41564 43602 10057 20030 40184 53002 72582 84200;
0180268820999992000091618004+53960+032840FM-12+021799999V0203101N001012200019N0500001N1+00311+00181101951ADDAA112000391AY181061AY211061GF101991011001999999031001KA1999M+01091MD1210071+9999MW1011REMSYN082AAXX  16181 26882 11984 13101 10031 20018 40195 52007 69932 70181 81030 333 10109;
0112268820999992000091621004+53960+032840FM-12+021799999V0203101N001012200019N0500001N1+00181+00021102011ADDGF101991011001999999031001MD1210041+9999REMSYN060AAXX  16211 26882 42984 13101 10018 20002 40201 52004 81030;
0152268820999992000091700004+53960+032840FM-12+021799999V0203301N002019999999N0350001N1+00091-00051102011ADDGF108991999001999999031001MA1999999099211MD1410001+9999REMSYN066AAXX  17001 26882 42981 83302 10009 21005 39921 40201 54000 82030;EQDQ01+000022SCOTLC
0132268820999992000091703004+53960+032840FM-12+021799999V0203301N002012200019N0500001N1+00021-00091102101ADDGA1001+999999999GF100991001001999999001001MD1310081+9999REMSYN064AAXX  17031 26882 42984 03302 10002 21009 40210 53008 333 55042;
0175268820999992000091706004+53960+032840FM-12+021799999V0203301N002012200019N0200001N1+00201+00091102161ADDAA199000091GA1001+999999999GF100991001001999999001001KA1999N-00031MD1210081+9999REMSYN064AAXX  17061 26882 32970 03302 10020 20009 40216 52008 333 21003;EQDQ01  00002PRCP99
0112268820999992000091709004+53960+032840FM-12+021799999V0203501N003010300019N0200001N1+00731+00231102201ADDGF106991031021008001031001MD1210081+9999REMSYN060AAXX  17091 26882 42570 63503 10073 20023 40220 52008 83230;
0133268820999992000091712004+53960+032840FM-12+021799999V0200101N002010300019N0200001N1+00881+00341102201ADDGF107991031021008001031001MA1999999099471MD1210021+9999REMSYN066AAXX  17121 26882 42570 70102 10088 20034 39947 40220 52002 83230;
0112268820999992000091715004+53960+032840FM-12+021799999V0209999C000012200019N0200001N1+00891+00251102201ADDGF102991021001999999031001MD1410001+9999REMSYN060AAXX  17151 26882 42970 20000 10089 20025 40220 54000 82030;
0165268820999992000091718004+53960+032840FM-12+021799999V0209999C000012200019N0500001N1+00501+00251102341ADDAA199000091GF101991011001999999031001KA1999M+00941MD1310101+9999REMSYN070AAXX  17181 26882 32984 10000 10050 20025 40234 53010 81030 333 10094;EQDQ01  00002PRCP99
0122268820999992000091721004+53960+032840FM-12+021799999V0209999C000012200019N0500001N1+00251+00011102481ADDGA1001+999999999GF100991001001999999001001MD1210111+9999REMSYN054AAXX  17211 26882 42984 00000 10025 20001 40248 52011;
0133268820999992000091800004+53960+032840FM-12+021799999V0209999C000019999999N0180001N1+00221-00091102491ADDGF105991001001999999001011MA1999999099671MD1810011+9999REMSYN066AAXX  18001 26882 42968 50000 10022 21009 39967 40249 58001 80001;
0122268820999992000091803004+53960+032840FM-12+021799999V0209999C000012200019N0190001N1+00001-00121102561ADDGF104991001001999999001011MD1310071+9999REMSYN070AAXX  18031 26882 42969 40000 10000 21012 40256 53007 80001 333 55058;
0165268820999992000091806004+53960+032840FM-12+021799999V0200901N002012200019N0200001N1+00441+00191102521ADDAA199000091GF103991011001999999041011KA1999N-00081MD1410001+9999REMSYN070AAXX  18061 26882 32970 30902 10044 20019 40252 54000 81041 333 21008;EQDQ01  00002PRCP99
0138268820999992000091809004+53960+032840FM-12+021799999V0200901N004010072019N0200001N1+00991+00191102441ADDGA1051+007209069GF106991051051008001001011MD1710021+9999REMSYN070AAXX  18091 26882 42570 60904 10099 20019 40244 57002 85501 333 85724;
0127268820999992000091812004+53960+032840FM-12+021799999V0201001N003019999999N0200001N1+01071+00151102351ADDGF106991999999017501999999MA1999999099641MD1710081+9999REMSYN060AAXX  18121 26882 42770 61003 10107 20015 39964 40235 57008;
0112268820999992000091815004+53960+032840FM-12+021799999V0201201N002019999999N0200001N1+01011+00211102271ADDGF106991041001999999071061MD1710091+9999REMSYN060AAXX  18151 26882 42970 61202 10101 20021 40227 57009 84076;
0165268820999992000091818004+53960+032840FM-12+021799999V0200901N001019999999N0500001N1+00791+00401102291ADDAA199000091GF108991081001999999071999KA1999M+01141MD1410001+9999REMSYN070AAXX  18181 26882 32984 80901 10079 20040 40229 54000 8807/ 333 10114;EQDQ01  00002PRCP99
0112268820999992000091821004+53960+032840FM-12+021799999V0209999C000019999999N0500001N1+00601+00341102311ADDGF107991071001999999031001MD1410001+9999REMSYN060AAXX  18211 26882 42984 70000 10060 20034 40231 54000 87030;
0133268820999992000091900004+53960+032840FM-12+021799999V0209999C000019999999N0500001N1+00361+00181102341ADDGF107991071001999999031001MA1999999099551MD1410001+9999REMSYN066AAXX  19001 26882 42984 70000 10036 20018 39955 40234 54000 87030;
0116268820999992000091903004+53960+032840FM-12+021799999V0209999C000019999999N0200001N1+00501+00301102331ADDGF107991999999999999999999MD1210011+9999REMSYN064AAXX  19031 26882 42970 70000 10050 20030 40233 52001 333 55065;
0165268820999992000091906004+53960+032840FM-12+021799999V0209999C000019999999N0200001N1+00651+00341102351ADDAA199000091GF108991081001999999071999KA1999N+00341MD1210031+9999REMSYN070AAXX  19061 26882 32970 80000 10065 20034 40235 52003 8807/ 333 20034;EQDQ01  00002PRCP99
0112268820999992000091909004+53960+032840FM-12+021799999V0201001N003019999999N0200001N1+00951+00411102311ADDGF108991081001999999071999MD1810011+9999REMSYN060AAXX  19091 26882 42970 81003 10095 20041 40231 58001 8807/;
0161268820999992000091912004+53960+032840FM-12+021799999V0200901N004010300019N0200001N1+01071+00481102221ADDAY181061AY261061GF108991021071004501071999MA1999999099511MD1710071+9999MW1251REMSYN072AAXX  19121 26882 41470 80904 10107 20048 39951 40222 57007 72586 8277/;
0140268820999992000091915004+53960+032840FM-12+021799999V0201001N003019999999N0200001N1+01011+00501102191ADDAY161031AY221031GF108991081001999999071999MD1710041+9999MW1021REMSYN066AAXX  19151 26882 41970 81003 10101 20050 40219 57004 70262 8807/;
0202268820999992000091918004+53960+032840FM-12+021799999V0201001N003010105019N0230001N1+00911+00531102121ADDAA112000791AY161061AY221061GA1071+010509059GF107991071051012501001001KA1120M+01091MD1710071+9999MW1021REMSYN088AAXX  19181 26882 11673 71003 10091 20053 40212 57007 69902 70262 87500 333 10109 87635;
0185268820999992000091921004+53960+032840FM-12+021799999V0201001N003010066019N0150001N1+00821+00621102071ADDAY161031AY221031GA1081+006609069GF108991999071008001021999MD1710061+9999MW1611REMSYN076AAXX  19211 26882 41565 81003 10082 20062 40207 57006 76162 8872/ 333 88722;EQDQ01+000082SCOTLC
0187268820999992000092000004+53960+032840FM-12+021799999V0201001N002010090019N0060001N1+00751+00671102041ADDAY161061AY221061GA1071+009009059GF107991071051008001001001MA1999999099311MD1710031+9999MW1101REMSYN082AAXX  20001 26882 41556 71002 10075 20067 39931 40204 57003 71062 87500 333 87630;
0180268820999992000092003004+53960+032840FM-12+021799999V0200901N002010015019N0040001N1+00751+00681101941ADDAY121031AY221031GA1081+001509069GF108991081061001501999999GJ100009MD1710101+9999MW1101REMSYN082AAXX  20031 26882 41240 80902 10075 20068 40194 57010 71022 886// 333 55000 88705;
0202268820999992000092006004+53960+032840FM-12+021799999V0200901N003010021019N0018001N1+00771+00731101921ADDAA112002091AY141061AY221061GA1081+002109069GF108991081061002501999999KA1120N+00721MD1710021+9999MW1281REMSYN088AAXX  20061 26882 11318 80903 10077 20073 40192 57002 60022 72842 886// 333 20072 88707;
0166268820999992000092009004+53960+032840FM-12+021799999V0200901N003010051019N0090001N1+01001+00761101861ADDAY121031AY221031GA1071+005109059GF107991071051004501001001MD1710031+9999MW1101REMSYN076AAXX  20091 26882 41459 70903 10100 20076 40186 57003 71022 87500 333 87617;
0187268820999992000092012004+53960+032840FM-12+021799999V0200901N003010060019N0090001N1+01051+00741101811ADDAY121061AY221061GA1071+006009059GF107991071051008001001001MA1999999099121MD1710041+9999MW1101REMSYN082AAXX  20121 26882 41559 70903 10105 20074 39912 40181 57004 71022 87500 333 87620;
0166268820999992000092015004+53960+032840FM-12+021799999V0200901N003010057019N0090001N1+01071+00781101731ADDAY121031AY221031GA1071+005709059GF107991071051004501001001MD1710081+9999MW1101REMSYN076AAXX  20151 26882 41459 70903 10107 20078 40173 57008 71022 87500 333 87619;
0215268820999992000092018004+53960+032840FM-12+021799999V0200901N001010060019N0090001N1+00991+00891101761ADDAA199000091AY121061AY221061GA1071+006009059GF107991071051004501001001KA1120M+01101MD1310031+9999MW1101REMSYN082AAXX  20181 26882 31459 70901 10099 20089 40176 53003 71022 87500 333 10110 87620;EQDQ01  00002PRCP99
0166268820999992000092021004+53960+032840FM-12+021799999V0200201N001010060019N0090001N1+00971+00901101731ADDAY121031AY221031GA1071+006009059GF107991071051004501001001MD1710041+9999MW1101REMSYN076AAXX  20211 26882 41459 70201 10097 20090 40173 57004 71022 87500 333 87620;
0187268820999992000092100004+53960+032840FM-12+021799999V0200201N001010060019N0070001N1+00931+00861101711ADDAY121061AY221061GA1071+006009059GF107991071051004501001001MA1999999098941MD1710071+9999MW1101REMSYN082AAXX  21001 26882 41457 70201 10093 20086 39894 40171 57007 71022 87500 333 87620;
0180268820999992000092103004+53960+032840FM-12+021799999V0200301N001010072019N0070001N1+00901+00811101581ADDAY121031AY221031GA1071+007209059GF107991071051008001001001GJ100009MD1710071+9999MW1101REMSYN082AAXX  21031 26882 41557 70301 10090 20081 40158 57007 71022 87500 333 55000 87624;
0187268820999992000092106004+53960+032840FM-12+021799999V0200301N003010078019N0150001N1+00941+00671101531ADDAA199000091GA1071+007809059GF107991071051008001001001KA1120N+00871MD1710031+9999REMSYN076AAXX  21061 26882 32565 70303 10094 20067 40153 57003 87500 333 20087 87626;EQDQ01  00002PRCP99
0112268820999992000092109004+53960+032840FM-12+021799999V0200501N002010300019N0200001N1+01191+00681101551ADDGF107991041051008001031001MD1310031+9999REMSYN060AAXX  21091 26882 42570 70502 10119 20068 40155 53003 84530;
0159268820999992000092112004+53960+032840FM-12+021799999V0200201N004010096019N0200001N1+01141+00741101661ADDGA1071+009609059GF107991071051008001001001MA1999999098981MD1210111+9999REMSYN076AAXX  21121 26882 42570 70204 10114 20074 39898 40166 52011 87500 333 87632;
0112268820999992000092115004+53960+032840FM-12+021799999V0200301N004010300019N0200001N1+01071+00481101831ADDGF106991031021008001031011MD1210161+9999REMSYN060AAXX  21151 26882 42570 60304 10107 20048 40183 52016 83231;
0187268820999992000092118004+53960+032840FM-12+021799999V0200401N004010084019N0500001N1+00871+00451102101ADDAA199000091GA1061+008409059GF106991061051008001001001KA1120M+01311MD1210241+9999REMSYN076AAXX  21181 26882 32584 60404 10087 20045 40210 52024 86500 333 10131 86628;EQDQ01  00002PRCP99
0143268820999992000092200004+53960+032840FM-12+021799999V0200301N003012200019N0500001N1+00401+00061102421ADDGA1001+999999999GF100991001001999999001001MA1999999099641MD1210131+9999REMSYN060AAXX  22001 26882 42984 00303 10040 20006 39964 40242 52013;
0132268820999992000092203004+53960+032840FM-12+021799999V0200501N001012200019N0180001N1+00091-00171102641ADDGA1001+999999999GF100991001001999999001001MD1210171+9999REMSYN064AAXX  22031 26882 42968 00501 10009 21017 40264 52017 333 55008;
0175268820999992000092206004+53960+032840FM-12+021799999V0200501N004012200019N0200001N1+00281-00301102771ADDAA199000091GA1001+999999999GF100991001001999999001001KA1999N+00041MD1210151+9999REMSYN064AAXX  22061 26882 32970 00504 10028 21030 40277 52015 333 20004;EQDQ01  00002PRCP99
0112268820999992000092209004+53960+032840FM-12+021799999V0203601N006012200019N0200001N1+00851-00861102771ADDGF101991001001999999001011MD1210071+9999REMSYN060AAXX  22091 26882 42970 13606 10085 21086 40277 52007 80001;
0133268820999992000092212004+53960+032840FM-12+021799999V0200201N004019999999N0200001N1+01101-00901102821ADDGF106991001001999999001051MA1999999100091MD1210061+9999REMSYN066AAXX  22121 26882 42970 60204 10110 21090 30009 40282 52006 80005;
0112268820999992000092215004+53960+032840FM-12+021799999V0200401N003019999999N0200001N1+00921-00571102851ADDGF106991001001999999001051MD1110021+9999REMSYN060AAXX  22151 26882 42970 60403 10092 21057 40285 51002 80005;
0165268820999992000092218004+53960+032840FM-12+021799999V0200301N002012200019N0500001N1+00921-00351103071ADDAA199000091GF103991001001999999001011KA1999M+01141MD1210181+9999REMSYN070AAXX  22181 26882 32984 30302 10092 21035 40307 52018 80001 333 10114;EQDQ01  00002PRCP99
0122268820999992000092221004+53960+032840FM-12+021799999V0200301N001012200019N0500001N1+00381-00181103241ADDGA1001+999999999GF100991001001999999001001MD1210141+9999REMSYN054AAXX  22211 26882 42984 00301 10038 21018 40324 52014;
0143268820999992000092300004+53960+032840FM-12+021799999V0200201N001012200019N0500001N1+00121-00201103341ADDGA1001+999999999GF100991001001999999001001MA1999999100511MD1210081+9999REMSYN060AAXX  23001 26882 42984 00201 10012 21020 30051 40334 52008;
0132268820999992000092303004+53960+032840FM-12+021799999V0209999C000012200019N0200001N1-00121-00321103401ADDGA1001+999999999GF100991001001999999001001MD1210051+9999REMSYN064AAXX  23031 26882 42970 00000 11012 21032 40340 52005 333 55099;
0175268820999992000092306004+53960+032840FM-12+021799999V0200301N001012200019N0200001N1+00261-00261103541ADDAA199000091GA1001+999999999GF100991001001999999001001KA1999N-00191MD1210151+9999REMSYN064AAXX  23061 26882 32970 00301 10026 21026 40354 52015 333 21019;EQDQ01  00002PRCP99
0122268820999992000092309004+53960+032840FM-12+021799999V0200201N003012200019N0200001N1+00891-00271103521ADDGA1001+999999999GF100991001001999999001001MD1210041+9999REMSYN054AAXX  23091 26882 42970 00203 10089 21027 40352 52004;
0143268820999992000092312004+53960+032840FM-12+021799999V0200201N004012200019N0200001N1+01131-00091103381ADDGA1001+999999999GF100991001001999999001001MA1999999100641MD1810111+9999REMSYN060AAXX  23121 26882 42970 00204 10113 21009 30064 40338 58011;
0112268820999992000092315004+53960+032840FM-12+021799999V0200501N003012200019N0200001N1+01081-00121103351ADDGF101991001001999999001011MD1710021+9999REMSYN060AAXX  23151 26882 42970 10503 10108 21012 40335 57002 80001;
0175268820999992000092318004+53960+032840FM-12+021799999V0200301N001012200019N0230001N1+00651+00071103401ADDAA199000091GA1001+999999999GF100991001001999999001001KA1999M+01191MD1410001+9999REMSYN064AAXX  23181 26882 32973 00301 10065 20007 40340 54000 333 10119;EQDQ01  00002PRCP99
0122268820999992000092321004+53960+032840FM-12+021799999V0209999C000012200019N0250001N1+00281+00011103501ADDGA1001+999999999GF100991001001999999001001MD1210061+9999REMSYN054AAXX  23211 26882 42975 00000 10028 20001 40350 52006;
0143268820999992000092400004+53960+032840FM-12+021799999V0203401N001012200019N0300001N1+00101-00131103561ADDGA1001+999999999GF100991001001999999001001MA1999999100721MD1210041+9999REMSYN060AAXX  24001 26882 42980 03401 10010 21013 30072 40356 52004;
0132268820999992000092403004+53960+032840FM-12+021799999V0200201N001012200019N0190001N1+00061-00051103611ADDGA1001+999999999GF100991001001999999001001MD1210041+9999REMSYN064AAXX  24031 26882 42969 00201 10006 21005 40361 52004 333 55105;
0175268820999992000092406004+53960+032840FM-12+021799999V0200301N001012200019N0200001N1+00441+00191103561ADDAA199000091GA1001+999999999GF100991001001999999001001KA1999N+00011MD1810011+9999REMSYN064AAXX  24061 26882 32970 00301 10044 20019 40356 58001 333 20001;EQDQ01  00002PRCP99
0112268820999992000092409004+53960+032840FM-12+021799999V0200501N001019999999N0180001N1+01051+00341103501ADDGF107991071001999999051001MD1410001+9999REMSYN060AAXX  24091 26882 42968 70501 10105 20034 40350 54000 87050;
0133268820999992000092412004+53960+032840FM-12+021799999V0200401N002019999999N0200001N1+01131+00411103441ADDGF107991071001999999051001MA1999999100701MD1810051+9999REMSYN066AAXX  24121 26882 42970 70402 10113 20041 30070 40344 58005 87050;
0112268820999992000092415004+53960+032840FM-12+021799999V0200301N001010300019N0200001N1+01091+00531103291ADDGF107991011021012501031001MD1710141+9999REMSYN060AAXX  24151 26882 42670 70301 10109 20053 40329 57014 81230;
0225268820999992000092418004+53960+032840FM-12+021799999V0209999C000012200019N0080001N1+00791+00501103311ADDAA199000091AY111061AY211061GF101991011001999999031001KA1999M+01171MD1210021+9999MW1101REMSYN076AAXX  24181 26882 31958 10000 10079 20050 40331 56061 71011 81030 333 10117;EQDQ01+000062APCTENQ02+000612APC3  Q03  00002PRCP99
0112268820999992000092421004+53960+032840FM-12+021799999V0209999C000019999999N0240001N1+00721+00451103291ADDGF107991071001999999051001MD1710031+9999REMSYN060AAXX  24211 26882 42974 70000 10072 20045 40329 57003 87050;
0133268820999992000092500004+53960+032840FM-12+021799999V0209999C000019999999N0220001N1+00791+00551103181ADDGF107991071001999999051001MA1999999100021MD1710101+9999REMSYN066AAXX  25001 26882 42972 70000 10079 20055 30002 40318 57010 87050;
0122268820999992000092503004+53960+032840FM-12+021799999V0209999C000019999999N0250001N1+00791+00501103111ADDGF107991071001999999051001MD1710071+9999REMSYN070AAXX  25031 26882 42975 70000 10079 20050 40311 57007 87050 333 55036;
0165268820999992000092506004+53960+032840FM-12+021799999V0200101N002019999999N0200001N1+00931+00531103051ADDAA199000091GF107991071001999999031001KA1999N+00671MD1710041+9999REMSYN070AAXX  25061 26882 32970 70102 10093 20053 40305 57004 87030 333 20067;EQDQ01  00002PRCP99
0112268820999992000092509004+53960+032840FM-12+021799999V0203201N003012200019N0200001N1+01451+00741102911ADDGF103991031021012501001001MD1710091+9999REMSYN060AAXX  25091 26882 42670 33203 10145 20074 40291 57009 83200;
0133268820999992000092512004+53960+032840FM-12+021799999V0203401N002010300019N0200001N1+01541+00611102651ADDGF106991031021012501031001MA1999999100061MD1710161+9999REMSYN066AAXX  25121 26882 42670 63402 10154 20061 30006 40265 57016 83230;
0112268820999992000092515004+53960+032840FM-12+021799999V0203301N003019999999N0200001N1+01411+00841102631ADDGF106991061001999999031001MD1710121+9999REMSYN060AAXX  25151 26882 42970 63303 10141 20084 40263 57012 86030;
0165268820999992000092518004+53960+032840FM-12+021799999V0203201N003019999999N0500001N1+01121+00461102591ADDAA199000091GF107991071001999999031001KA1999M+01651MD1710071+9999REMSYN070AAXX  25181 26882 32984 73203 10112 20046 40259 57007 87030 333 10165;EQDQ01  00002PRCP99
0157268820999992000092521004+53960+032840FM-12+021799999V0203301N004010180019N0500001N1+00931+00411102611ADDGA1071+018009059GF107991071051017501999001MD1410001+9999REMSYN070AAXX  25211 26882 42784 73304 10093 20041 40261 54000 87500 333 87656;EQDQ01+000002SCOMCG
0178268820999992000092600004+53960+032840FM-12+021799999V0203001N002010150019N0500001N1+00811+00501102541ADDGA1071+015009059GF107991071051017501999001MA1999999099801MD1710071+9999REMSYN076AAXX  26001 26882 42784 73002 10081 20050 39980 40254 57007 87500 333 87650;EQDQ01    003SCOMCG
0122268820999992000092603004+53960+032840FM-12+021799999V0203401N003019999999N0500001N1+00731+00501102511ADDGF107991071001999999031001MD1710051+9999REMSYN070AAXX  26031 26882 42984 73403 10073 20050 40251 57005 87030 333 55039;
0165268820999992000092606004+53960+032840FM-12+021799999V0203401N004012200019N0200001N1+00891+00461102451ADDAA199000091GF104991041001999999031001KA1999N+00701MD1710031+9999REMSYN070AAXX  26061 26882 32970 43404 10089 20046 40245 57003 84030 333 20070;EQDQ01  00002PRCP99
0112268820999992000092609004+53960+032840FM-12+021799999V0203201N005019999999N0200001N1+01071+00581102441ADDGF107991071001999999071001MD1210011+9999REMSYN060AAXX  26091 26882 42970 73205 10107 20058 40244 52001 87070;
0159268820999992000092612004+53960+032840FM-12+021799999V0203201N004010126019N0200001N1+01271+00641102341ADDGA1061+012609059GF106991061081012501001001MA1999999099651MD1710081+9999REMSYN076AAXX  26121 26882 42670 63204 10127 20064 39965 40234 57008 86800 333 86642;
0112268820999992000092615004+53960+032840FM-12+021799999V0203201N003012200019N0200001N1+01161+00531102331ADDGF104991021041012501031011MD1710021+9999REMSYN060AAXX  26151 26882 42670 43203 10116 20053 40233 57002 82431;
0175268820999992000092618004+53960+032840FM-12+021799999V0203201N001012200019N0500001N1+00771+00431102441ADDAA199000091GA1001+999999999GF100991001001999999001001KA1999M+01301MD1210071+9999REMSYN064AAXX  26181 26882 32984 03201 10077 20043 40244 52007 333 10130;EQDQ01  00002PRCP99
0122268820999992000092621004+53960+032840FM-12+021799999V0209999C000012200019N0500001N1+00501+00251102511ADDGA1001+999999999GF100991001001999999001001MD1210041+9999REMSYN054AAXX  26211 26882 42984 00000 10050 20025 40251 52004;
0143268820999992000092700004+53960+032840FM-12+021799999V0209999C000012200019N0500001N1+00151-00051102601ADDGA1001+999999999GF100991001001999999001001MA1999999099781MD1210041+9999REMSYN060AAXX  27001 26882 42984 00000 10015 21005 39978 40260 52004;
0132268820999992000092703004+53960+032840FM-12+021799999V0209999C000012200019N0200001N1+00121-00081102631ADDGA1001+999999999GF100991001001999999001001MD1210031+9999REMSYN064AAXX  27031 26882 42970 00000 10012 21008 40263 52003 333 55051;
0219268820999992000092706004+53960+032840FM-12+021799999V0209999C000012200019N0200001N1+00381+00231102671ADDAA199000091AY141061AY201061GA1001+999999999GF100991001001999999001001KA1999N+00021MD1210041+9999MW1021REMSYN070AAXX  27061 26882 31970 00000 10038 20023 40267 52808 70240 333 20002;EQDQ01+008087APC3  Q02  00002PRCP99
0122268820999992000092709004+53960+032840FM-12+021799999V0203001N002012200019N0200001N1+01091+00131102611ADDGA1001+999999999GF100991001001999999001001MD1410001+9999REMSYN054AAXX  27091 26882 42970 03002 10109 20013 40261 54000;
0162268820999992000092712004+53960+032840FM-12+021799999V0203001N003012200019N0200001N1+01291-00051102521ADDGA1001+999999999GF100991001001999999001001MA1999999099821MD1810091+9999REMSYN060AAXX  27121 26882 42970 03003 10129 21005 39982 40252 58075;EQDQ01+000752APC3  
0112268820999992000092715004+53960+032840FM-12+021799999V0203201N002012200019N0200001N1+01171+00211102421ADDGF101991001001999999001011MD1710101+9999REMSYN060AAXX  27151 26882 42970 13202 10117 20021 40242 57010 80001;
0175268820999992000092718004+53960+032840FM-12+021799999V02099999999992200019N0200001N1+00691+00131102481ADDAA199000091GA1001+999999999GF100991001001999999001001KA1999M+01441MD1310011+9999REMSYN064AAXX  27181 26882 32998 0//// 10069 20013 40248 53001 333 10144;EQDQ01  00002PRCP99
0165268820999992000092806004+53960+032840FM-12+021799999V0202301N002019999999N0200001N1+00431+00311102491ADDAA199000091GF107991071001999999071001KA1999N+00021MD1410001+9999REMSYN070AAXX  28061 26882 32970 72302 10043 20031 40249 54000 87070 333 20002;EQDQ01  00002PRCP99
0112268820999992000092809004+53960+032840FM-12+021799999V0209999C000019999999N0200001N1+01151+00581102461ADDGF106991061001999999031001MD1310031+9999REMSYN060AAXX  28091 26882 42970 60000 10115 20058 40246 53003 86030;
0133268820999992000092812004+53960+032840FM-12+021799999V0209999C000010300019N0200001N1+01351+00291102421ADDGF107991021021012501081051MA1999999099731MD1810021+9999REMSYN066AAXX  28121 26882 42670 70000 10135 20029 39973 40242 58002 82285;
0112268820999992000092815004+53960+032840FM-12+021799999V0209999C000010300019N0200001N1+01221+00651102401ADDGF108991021021012501071999MD1710031+9999REMSYN060AAXX  28151 26882 42670 80000 10122 20065 40240 57003 8227/;
0165268820999992000092818004+53960+032840FM-12+021799999V02099999999992200019N0200001N1+00911+00531102511ADDAA199000091GF102991001001999999001011KA1999M+01461MD1310071+9999REMSYN070AAXX  28181 26882 32998 2//// 10091 20053 40251 53007 80001 333 10146;EQDQ01  00002PRCP99
0122268820999992000092821004+53960+032840FM-12+021799999V02099999999992200019N0200001N1+00991+00431102611ADDGA1001+999999999GF100991001001999999001001MD1210081+9999REMSYN054AAXX  28211 26882 42998 0//// 10099 20043 40261 52008;
0171268820999992000092900004+53960+032840FM-12+021799999V02099999999992200019N0040001N1+00351+00301102721ADDAY101061AY201061GA1001+999999999GF100991001001999999001001MA1999999099921MD1210071+9999MW1101REMSYN066AAXX  29001 26882 41996 0//// 10035 20030 39992 40272 52007 71000;
0150268820999992000092903004+53960+032840FM-12+021799999V02099999999992200019N0040001N1+00221+00141102711ADDAY101031AY201031GF101991011001999999031001MD1810021+9999MW1101REMSYN076AAXX  29031 26882 41996 1//// 10022 20014 40271 58002 71000 81030 333 55030;
0175268820999992000092906004+53960+032840FM-12+021799999V0209999C000012200019N0200001N1+00571+00331102661ADDAA199000091GA1001+999999999GF100991001001999999001001KA1999N+00221MD1210101+9999REMSYN064AAXX  29061 26882 32970 00000 10057 20033 40266 52010 333 20022;EQDQ01  00002PRCP99
0122268820999992000092909004+53960+032840FM-12+021799999V0201401N001012200019N0200001N1+01331+00551102811ADDGA1001+999999999GF100991001001999999001001MD1210111+9999REMSYN054AAXX  29091 26882 42970 01401 10133 20055 40281 52011;
0143268820999992000092912004+53960+032840FM-12+021799999V0209999C000012200019N0200001N1+01531+00381102801ADDGA1001+999999999GF100991001001999999001001MA1999999100111MD1410001+9999REMSYN060AAXX  29121 26882 42970 00000 10153 20038 30011 40280 54000;
0122268820999992000092915004+53960+032840FM-12+021799999V0201401N002012200019N0200001N1+01381+00431102771ADDGA1001+999999999GF100991001001999999001001MD1710041+9999REMSYN054AAXX  29151 26882 42970 01402 10138 20043 40277 57004;
0175268820999992000092918004+53960+032840FM-12+021799999V0201401N002012200019N0300001N1+00851+00361102851ADDAA199000091GA1001+999999999GF100991001001999999001001KA1999M+01601MD1310031+9999REMSYN064AAXX  29181 26882 32980 01402 10085 20036 40285 53003 333 10160;EQDQ01  00002PRCP99
0122268820999992000092921004+53960+032840FM-12+021799999V0201201N001012200019N0100001N1+00461+00291102931ADDGA1001+999999999GF100991001001999999001001MD1210041+9999REMSYN054AAXX  29211 26882 42960 01201 10046 20029 40293 52004;
0171268820999992000093000004+53960+032840FM-12+021799999V0209999C000012200019N0060001N1+00251+00201103011ADDAY101061AY201061GA1001+999999999GF100991001001999999001001MA1999999100201MD1210061+9999MW1101REMSYN066AAXX  30001 26882 41956 00000 10025 20020 30020 40301 52006 71000;
0160268820999992000093003004+53960+032840FM-12+021799999V0209999C000012200019N0080001N1+00211+00161103091ADDAY101031AY201031GA1001+999999999GF100991001001999999001001MD1210081+9999MW1101REMSYN070AAXX  30031 26882 41958 00000 10021 20016 40309 52008 71000 333 55106;
0175268820999992000093006004+53960+032840FM-12+021799999V0209999C000012200019N0160001N1+00721+00381103101ADDAA199000091GA1001+999999999GF100991001001999999001001KA1999N+00161MD1210061+9999REMSYN064AAXX  30061 26882 32966 00000 10072 20038 40310 52006 333 20016;EQDQ01  00002PRCP99
0122268820999992000093009004+53960+032840FM-12+021799999V0201401N002012200019N0200001N1+01391+00381103131ADDGA1001+999999999GF100991001001999999001001MD1210091+9999REMSYN054AAXX  30091 26882 42670 01402 10139 20038 40313 52009;
0143268820999992000093012004+53960+032840FM-12+021799999V0201301N002012200019N0200001N1+01641+00511103091ADDGA1001+999999999GF100991001001999999001001MA1999999100411MD1810021+9999REMSYN060AAXX  30121 26882 42970 01302 10164 20051 30041 40309 58002;
0122268820999992000093015004+53960+032840FM-12+021799999V0201201N002012200019N0200001N1+01441+00481103041ADDGA1001+999999999GF100991001001999999001001MD1710071+9999REMSYN054AAXX  30151 26882 42970 01202 10144 20048 40304 57007;
0175268820999992000093018004+53960+032840FM-12+021799999V0201501N002012200019N0250001N1+00901+00451103161ADDAA199000091GA1001+999999999GF100991001001999999001001KA1999M+01661MD1210071+9999REMSYN064AAXX  30181 26882 32975 01502 10090 20045 40316 52007 333 10166;EQDQ01  00002PRCP99
0122268820999992000093021004+53960+032840FM-12+021799999V0209999C000012200019N0200001N1+00561+00271103201ADDGA1001+999999999GF100991001001999999001001MD1410001+9999REMSYN054AAXX  30211 26882 42970 00000 10056 20027 40320 54000;
0143268820999992000100100004+53960+032840FM-12+021799999V0209999C000012200019N0200001N1+00151+00141103101ADDGA1001+999999999GF100991001001999999001001MA1999999100521MD1410001+9999REMSYN060AAXX  01001 26882 42970 00000 10015 20014 30052 40310 54000;
0160268820999992000100103004+53960+032840FM-12+021799999V0209999C000012200019N0070001N1+00221+00171103331ADDAY101031AY201031GA1001+999999999GF100991001001999999001001MD1210071+9999MW1101REMSYN070AAXX  01031 26882 41957 00000 10022 20017 40333 52007 71000 333 55099;
0203268820999992000100106004+53960+032840FM-12+021799999V0209999C000012200019N0050001N1+00691+00391103311ADDAA199000091AY101061AY201061GA1001+999999999GF100991001001999999001001KA1999N+00121MD1210031+9999MW1101REMSYN070AAXX  01061 26882 31950 00000 10069 20039 40331 52003 71000 333 20012;EQDQ01  00002PRCP99
0122268820999992000100109004+53960+032840FM-12+021799999V0201401N001012200019N0200001N1+01451+00591103251ADDGA1001+999999999GF100991001001999999001001MD1210021+9999REMSYN054AAXX  01091 26882 42970 01401 10145 20059 40325 52002;
0143268820999992000100112004+53960+032840FM-12+021799999V0201401N002012200019N0200001N1+01701+00481103151ADDGA1001+999999999GF100991001001999999001001MA1999999100471MD1710091+9999REMSYN060AAXX  01121 26882 42970 01402 10170 20048 30047 40315 57009;
0122268820999992000100115004+53960+032840FM-12+021799999V0201901N002012200019N0140001N1+01511+00971103051ADDGA1001+999999999GF100991001001999999001001MD1710111+9999REMSYN054AAXX  01151 26882 42964 01902 10151 20097 40305 57011;
0175268820999992000100118004+53960+032840FM-12+021799999V0201601N002012200019N0300001N1+01091+00531103041ADDAA199000091GA1001+999999999GF100991001001999999001001KA1999M+01841MD1710041+9999REMSYN064AAXX  01181 26882 32980 01602 10109 20053 40304 57004 333 10184;EQDQ01  00002PRCP99
0122268820999992000100121004+53960+032840FM-12+021799999V0201401N002012200019N0300001N1+00621+00381103081ADDGA1001+999999999GF100991001001999999001001MD1710011+9999REMSYN054AAXX  01211 26882 42980 01402 10062 20038 40308 57001;
0143268820999992000100200004+53960+032840FM-12+021799999V0209999C000012200019N0160001N1+00371+00271103091ADDGA1001+999999999GF100991001001999999001001MA1999999100291MD1710021+9999REMSYN060AAXX  02001 26882 42966 00000 10037 20027 30029 40309 57002;
0160268820999992000100203004+53960+032840FM-12+021799999V0209999C000012200019N0090001N1+00301+00171103061ADDAY101031AY201031GA1001+999999999GF100991001001999999001001MD1710031+9999MW1101REMSYN070AAXX  02031 26882 41959 00000 10030 20017 40306 57003 71000 333 55104;
0203268820999992000100206004+53960+032840FM-12+021799999V0209999C000012200019N0090001N1+00731+00481103051ADDAA199000091AY101061AY201061GA1001+999999999GF100991001001999999001001KA1999N+00171MD1310031+9999MW1101REMSYN070AAXX  02061 26882 31959 00000 10073 20048 40305 53003 71000 333 20017;EQDQ01  00002PRCP99
0122268820999992000100209004+53960+032840FM-12+021799999V0201801N003012200019N0160001N1+01551+00621102931ADDGA1001+999999999GF100991001001999999001001MD1810041+9999REMSYN054AAXX  02091 26882 42966 01803 10155 20062 40293 58004;
0143268820999992000100212004+53960+032840FM-12+021799999V0201701N003012200019N0200001N1+01711+00301102781ADDGA1001+999999999GF100991001001999999001001MA1999999100111MD1710141+9999REMSYN060AAXX  02121 26882 42970 01703 10171 20030 30011 40278 57014;
0112268820999992000100215004+53960+032840FM-12+021799999V0201701N002012200019N0150001N1+01461+00581102721ADDGF101991001001999999001011MD1710071+9999REMSYN060AAXX  02151 26882 42965 11702 10146 20058 40272 57007 80001;
0175268820999992000100218004+53960+032840FM-12+021799999V0201601N003012200019N0240001N1+00991+00701102731ADDAA199000091GA1001+999999999GF100991001001999999001001KA1999M+01741MD1710041+9999REMSYN064AAXX  02181 26882 32974 01603 10099 20070 40273 57004 333 10174;EQDQ01  00002PRCP99
0122268820999992000100221004+53960+032840FM-12+021799999V0201301N002012200019N0250001N1+00751+00431102791ADDGA1001+999999999GF100991001001999999001001MD1210031+9999REMSYN054AAXX  02211 26882 42975 01302 10075 20043 40279 52003;
0143268820999992000100300004+53960+032840FM-12+021799999V0201801N002012200019N0200001N1+00501+00251102821ADDGA1001+999999999GF100991001001999999001001MA1999999100041MD1210021+9999REMSYN060AAXX  03001 26882 42970 01802 10050 20025 30004 40282 52002;
0122268820999992000100303004+53960+032840FM-12+021799999V0201401N001012200019N0140001N1+00481+00311102831ADDGF102991001001999999001011MD1210011+9999REMSYN070AAXX  03031 26882 42964 21401 10048 20031 40283 52001 80001 333 55102;
0165268820999992000100306004+53960+032840FM-12+021799999V0209999C000019999999N0200001N1+00651+00441102891ADDAA199000091GF106991061001999999031001KA1999N+00321MD1210071+9999REMSYN070AAXX  03061 26882 32970 60000 10065 20044 40289 52007 86030 333 20032;EQDQ01  00002PRCP99
0112268820999992000100309004+53960+032840FM-12+021799999V0202001N006019999999N0200001N1+01641+00711102811ADDGF105991001001999999001011MD1210021+9999REMSYN060AAXX  03091 26882 42970 52006 10164 20071 40281 52002 80001;
0133268820999992000100312004+53960+032840FM-12+021799999V0202001N005019999999N0200001N1+01771+00671102801ADDGF106991061001999999031001MA1999999100141MD1410001+9999REMSYN066AAXX  03121 26882 42970 62005 10177 20067 30014 40280 54000 86030;
0112268820999992000100315004+53960+032840FM-12+021799999V0201701N003019999999N0200001N1+01671+00881102791ADDGF107991071001999999031001MD1710021+9999REMSYN060AAXX  03151 26882 42970 71703 10167 20088 40279 57002 87030;
0133268820999992000100318004+53960+032840FM-12+021799999V0201701N003019999999N0150001N1+01491+00801999999ADDAA199000091GF107991999999999999999999KA1999M+01961REMSYN052AAXX  03181 26882 32965 71703 10149 20080 333 10196;EQDQ01  00002PRCP99
0112268820999992000100321004+53960+032840FM-12+021799999V0202101N004019999999N0350001N1+01391+00811102731ADDGF107991071001999999031001MD1610011+9999REMSYN060AAXX  03211 26882 42981 72104 10139 20081 40273 56001 87030;
0133268820999992000100400004+53960+032840FM-12+021799999V0202101N004019999999N0500001N1+01271+00821102711ADDGF107991071001999999031001MA1999999100011MD1710031+9999REMSYN066AAXX  04001 26882 42984 72104 10127 20082 30001 40271 57003 87030;
0122268820999992000100403004+53960+032840FM-12+021799999V0202201N003019999999N0300001N1+01191+00801102661ADDGF107991071001999999031001MD1710061+9999REMSYN070AAXX  04031 26882 42980 72203 10119 20080 40266 57006 87030 333 55060;
0165268820999992000100406004+53960+032840FM-12+021799999V0202101N004019999999N0150001N1+01241+00861102621ADDAA199000091GF108991081001999999071999KA1999N+01131MD1710031+9999REMSYN070AAXX  04061 26882 32965 82104 10124 20086 40262 57003 8807/ 333 20113;EQDQ01  00002PRCP99
0112268820999992000100409004+53960+032840FM-12+021799999V0202101N003019999999N0180001N1+01541+00981102551ADDGF108991081001999999071999MD1710041+9999REMSYN060AAXX  04091 26882 42968 82103 10154 20098 40255 57004 8807/;
0133268820999992000100412004+53960+032840FM-12+021799999V0202401N004019999999N0150001N1+01761+01071102481ADDGF108991081001999999071999MA1999999099821MD1710061+9999REMSYN066AAXX  04121 26882 42965 82404 10176 20107 39982 40248 57006 8807/;
0140268820999992000100415004+53960+032840FM-12+021799999V0209999C000019999999N0070001N1+01581+01271102431ADDAY181031AY221031GF108991081001999999071999MD1710061+9999MW1101REMSYN066AAXX  04151 26882 41957 80000 10158 20127 40243 57006 71082 8807/;
0180268820999992000100418004+53960+032840FM-12+021799999V0209999C000019999999N0070001N1+01391+01171102441ADDAA112000791AY181061AY221061GF108991081001999999071999KA1999M+01791MD1710011+9999MW1101REMSYN082AAXX  04181 26882 11957 80000 10139 20117 40244 57001 69902 71082 8807/ 333 10179;
0140268820999992000100421004+53960+032840FM-12+021799999V0209999C000019999999N0070001N1+01301+01171102411ADDAY121031AY221031GF108991081001999999071999MD1210021+9999MW1101REMSYN066AAXX  04211 26882 41957 80000 10130 20117 40241 52002 71022 8807/;
0161268820999992000100500004+53960+032840FM-12+021799999V0209999C000019999999N0060001N1+01191+01101102431ADDAY121061AY221061GF108991081001999999071999MA1999999099731MD1410001+9999MW1101REMSYN072AAXX  05001 26882 41956 80000 10119 20110 39973 40243 54000 71022 8807/;
0150268820999992000100503004+53960+032840FM-12+021799999V0200801N001019999999N0060001N1+01171+01151102411ADDAY181031AY221031GF108991081001999999071999MD1710021+9999MW1101REMSYN076AAXX  05031 26882 41956 80801 10117 20115 40241 57002 71082 8807/ 333 55000;
0190268820999992000100506004+53960+032840FM-12+021799999V0200801N001010001519N0001001N1+01111+01111102421ADDAA112001091AY181061AY241061GA1091+999999999GF109991091999999999999999KA1999N+01071MD1310011+9999MW1471REMSYN076AAXX  05061 26882 11/91 90801 10111 20111 40242 53001 60012 74784 333 20107;
0140268820999992000100509004+53960+032840FM-12+021799999V0209999C000010012019N0035001N1+01291+01231102491ADDAY141031AY221031GF108991081061001501999999MD1210081+9999MW1281REMSYN066AAXX  05091 26882 41235 80000 10129 20123 40249 52008 72842 886//;
0161268820999992000100512004+53960+032840FM-12+021799999V0200901N002012200019N0200001N1+01591+01121102481ADDAY141061AY211061GF101991011021008001001001MA1999999099801MD1410001+9999MW1011REMSYN072AAXX  05121 26882 41570 10902 10159 20112 39980 40248 54000 70141 81200;
0140268820999992000100515004+53960+032840FM-12+021799999V0200901N002012200019N0070001N1+01211+01071102481ADDAY101031AY201031GF101991011001999999031001MD1810021+9999MW1101REMSYN066AAXX  05151 26882 41957 10902 10121 20107 40248 58002 71000 81030;
0203268820999992000100518004+53960+032840FM-12+021799999V0200901N002010006019N0008001N1+00961+00961102531ADDAA199000091AY141061AY211061GA1091+999999999GF109991091999999999999999KA1999M+01651MD1310021+9999MW1471REMSYN070AAXX  05181 26882 31/08 90902 10096 20096 40253 53002 74741 333 10165;EQDQ01  00002PRCP99
0150268820999992000100521004+53960+032840FM-12+021799999V0200901N002010006019N0006001N1+00911+00911102551ADDAY121031AY221031GA1091+999999999GF109991091999999999999999MD1210011+9999MW1451REMSYN060AAXX  05211 26882 41/06 90902 10091 20091 40255 52001 74522;
0171268820999992000100600004+53960+032840FM-12+021799999V0200901N002010003019N0004001N1+99999+99999102531ADDAY141061AY221061GA1091+999999999GF109991091999999999999999MA1999999099801MD1810011+9999MW1471REMSYN066AAXX  06001 26882 41/04 90902 100/9 20099 39980 40253 58001 74742;
0160268820999992000100603004+53960+032840FM-12+021799999V0200901N002010003019N0002001N1+01021+01021102521ADDAY141031AY221031GA1091+999999999GF109991091999999999999999MD1410001+9999MW1451REMSYN070AAXX  06031 26882 41/02 90902 10102 20102 40252 54000 74542 333 55052;
0190268820999992000100606004+53960+032840FM-12+021799999V0200801N001010001519N0001001N1+01111+01111102421ADDAA112001091AY181061AY241061GA1091+999999999GF109991091999999999999999KA1999N+01071MD1310011+9999MW1471REMSYN076AAXX  06061 26882 11/91 90801 10111 20111 40242 53001 60012 74784 333 20107;
0166268820999992000100609004+53960+032840FM-12+021799999V0200901N001010012019N0027001N1+01091+01091102681ADDAY141031AY221031GA1081+001209069GF108991081061001501999999MD1210071+9999MW1281REMSYN076AAXX  06091 26882 41227 80901 10109 20109 40268 52007 72842 886// 333 88704;
0161268820999992000100612004+53960+032840FM-12+021799999V0201401N002012200019N0045001N1+01391+01211102651ADDAY141061AY211061GF102991021051004501001001MA1999999099961MD1410001+9999MW1101REMSYN072AAXX  06121 26882 41445 21402 10139 20121 39996 40265 54000 71041 82500;
0140268820999992000100615004+53960+032840FM-12+021799999V0200701N002012200019N0035001N1+01371+01201102671ADDAY101031AY201031GF102991011001999999031011MD1210021+9999MW1101REMSYN066AAXX  06151 26882 41935 20702 10137 20120 40267 52002 71000 81031;
0215268820999992000100618004+53960+032840FM-12+021799999V0209999C000010024019N0034001N1+01171+01111102831ADDAA199000091AY111061AY211061GA1071+002409059GF107991071051002501001001KA1120M+01491MD1210141+9999MW1101REMSYN082AAXX  06181 26882 31334 70000 10117 20111 40283 52014 71011 87500 333 10149 87608;EQDQ01  00002PRCP99
0166268820999992000100621004+53960+032840FM-12+021799999V0200801N001010027019N0039001N1+01171+01111102911ADDAY121031AY221031GA1071+002709059GF107991071051002501001001MD1210081+9999MW1101REMSYN076AAXX  06211 26882 41339 70801 10117 20111 40291 52008 71022 87500 333 87609;
0187268820999992000100700004+53960+032840FM-12+021799999V0200801N001010024019N0029001N1+01131+01111102901ADDAY121061AY221061GA1071+002409059GF107991071051002501001001MA1999999100191MD1810011+9999MW1101REMSYN082AAXX  07001 26882 41329 70801 10113 20111 30019 40290 58001 71022 87500 333 87608;
0180268820999992000100703004+53960+032840FM-12+021799999V0200901N003010024019N0028001N1+01151+01111102931ADDAY141031AY221031GA1071+002409059GF107991071051002501001001GJ101449MD1310031+9999MW1281REMSYN082AAXX  07031 26882 41328 70903 10115 20111 40293 53003 72842 87500 333 55024 87608;
0203268820999992000100706004+53960+032840FM-12+021799999V0200801N002010006019N0006001N1+01171+01171103001ADDAA199000091AY141061AY221061GA1091+999999999GF109991091999999999999999KA1999N+01121MD1210071+9999MW1451REMSYN070AAXX  07061 26882 31/06 90802 10117 20117 40300 52007 74542 333 20112;EQDQ01  00002PRCP99
0166268820999992000100709004+53960+032840FM-12+021799999V0201101N003010021019N0030001N1+01251+01131103081ADDAY141031AY221031GA1081+002109069GF108991081061002501999999MD1210081+9999MW1101REMSYN076AAXX  07091 26882 42330 81103 10125 20113 40308 52008 71042 886// 333 88707;
0187268820999992000100712004+53960+032840FM-12+021799999V0201201N002010045019N0045001N1+01371+01191103121ADDAY141061AY221061GA1071+004509059GF107991071051004501001001MA1999999100421MD1210051+9999MW1101REMSYN082AAXX  07121 26882 41445 71202 10137 20119 30042 40312 52005 71042 87500 333 87615;
0185268820999992000100715004+53960+032840FM-12+021799999V0201001N002010051019N0030001N1+01331+01241103121ADDAY161031AY221031GA1081+005109069GF108991999071004501021999MD1410001+9999MW1611REMSYN076AAXX  07151 26882 41430 81002 10133 20124 40312 54000 76162 8872/ 333 88717;EQDQ01+000082SCOTLC
0202268820999992000100718004+53960+032840FM-12+021799999V0201301N003010033019N0060001N1+01231+01181103161ADDAA112000591AY161061AY221061GA1081+003309069GF108991081061004501999999KA1120M+01391MD1310031+9999MW1101REMSYN088AAXX  07181 26882 11456 81303 10123 20118 40316 53003 69962 71062 886// 333 10139 88711;
0166268820999992000100721004+53960+032840FM-12+021799999V0201301N003010015019N0080001N1+01091+01021103291ADDAY121031AY221031GA1081+001509069GF108991081061001501999999MD1210111+9999MW1101REMSYN076AAXX  07211 26882 41258 81303 10109 20102 40329 52011 71022 886// 333 88705;
0183268820999992000100800004+53960+032840FM-12+021799999V0200301N999992200019N0080001N1+99999+99999999999ADDAY121061AY221061GA1081+001509069GF199999081061001501999999MD1210051+9999MW1101REMSYN058AAXX  08001 26882 41258 40334 52005 71022 886// 333 88705;EQDQ01+003403WOSPD Q02+000042SCOTCV
0180268820999992000100803004+53960+032840FM-12+021799999V0201301N004010015019N0080001N1+00971+00931103371ADDAY121031AY221031GA1081+001509069GF108991081061001501999999GJ100009MD1210021+9999MW1101REMSYN082AAXX  08031 26882 41258 81304 10097 20093 40337 52002 71022 886// 333 55000 88705;
0215268820999992000100806004+53960+032840FM-12+021799999V02099999999990033019N0090001N1+00961+00881103481ADDAA199000091AY121061AY221061GA1071+003309059GF107991071051004501001001KA1120N+00871MD1210101+9999MW1101REMSYN082AAXX  08061 26882 31459 7130/ 10096 20088 40348 52010 71022 87500 333 20087 87611;EQDQ01  00002PRCP99
0112268820999992000100809004+53960+032840FM-12+021799999V0201301N002010300019N0200001N1+01061+00771103471ADDGF106991021011008001031001MD1410001+9999REMSYN060AAXX  08091 26882 42570 61302 10106 20077 40347 54000 82130;
0159268820999992000100812004+53960+032840FM-12+021799999V0201301N004010111019N0200001N1+01181+00511103381ADDGA1071+011109059GF107991071051012501001001MA1999999100651MD1810081+9999REMSYN076AAXX  08121 26882 42670 71304 10118 20051 30065 40338 58008 87500 333 87637;
0112268820999992000100815004+53960+032840FM-12+021799999V0201201N002012200019N0200001N1+01001+00251103291ADDGF102991001001999999001011MD1710101+9999REMSYN060AAXX  08151 26882 42970 21202 10100 20025 40329 57010 80001;
0175268820999992000100818004+53960+032840FM-12+021799999V0201101N002012200019N0500001N1+00691+00171103461ADDAA199000091GA1001+999999999GF100991001001999999001001KA1999M+01271MD1210131+9999REMSYN064AAXX  08181 26882 32984 01102 10069 20017 40346 52013 333 10127;EQDQ01  00002PRCP99
0122268820999992000100821004+53960+032840FM-12+021799999V0201001N002012200019N0500001N1+00501+00171103311ADDGA1001+999999999GF100991001001999999001001MD1710021+9999REMSYN054AAXX  08211 26882 42984 01002 10050 20017 40331 57002;
0143268820999992000100900004+53960+032840FM-12+021799999V0201101N003012200019N0500001N1+00291+00051103241ADDGA1001+999999999GF100991001001999999001001MA1999999100431MD1710091+9999REMSYN060AAXX  09001 26882 42984 01103 10029 20005 30043 40324 57009;
0132268820999992000100903004+53960+032840FM-12+021799999V0209999C000012200019N0250001N1+00001-00121103211ADDGA1001+999999999GF100991001001999999001001MD1710061+9999REMSYN064AAXX  09031 26882 42975 00000 10000 21012 40321 57006 333 55051;
0175268820999992000100906004+53960+032840FM-12+021799999V0209999C000012200019N0200001N1+00101-00161103131ADDAA199000091GA1001+999999999GF100991001001999999001001KA1999N-00081MD1710061+9999REMSYN064AAXX  09061 26882 32970 00000 10010 21016 40313 57006 333 21008;EQDQ01  00002PRCP99
0112268820999992000100909004+53960+032840FM-12+021799999V0200901N003019999999N0200001N1+00711+00091102981ADDGF105991051001999999031001MD1710091+9999REMSYN060AAXX  09091 26882 42970 50903 10071 20009 40298 57009 85030;
0161268820999992000100912004+53960+032840FM-12+021799999V0201201N002019999999N0140001N1+00431+00281102861ADDAY161061AY211061GF108991081001999999071999MA1999999100071MD1710151+9999MW1611REMSYN072AAXX  09121 26882 41964 81202 10043 20028 30007 40286 57015 76161 8807/;
0185268820999992000100915004+53960+032840FM-12+021799999V0201001N002010024019N0060001N1+00441+00321102751ADDAY161031AY221031GA1081+002409069GF108991999071002501021999MD1710101+9999MW1611REMSYN076AAXX  09151 26882 41356 81002 10044 20032 40275 57010 76162 8872/ 333 88708;EQDQ01+000082SCOTLC
0202268820999992000100918004+53960+032840FM-12+021799999V0201001N004010048019N0140001N1+00371+00271102631ADDAA112004191AY161061AY221061GA1071+004809059GF107991071051004501001001KA1120M+00791MD1710141+9999MW1211REMSYN088AAXX  09181 26882 11464 71004 10037 20027 40263 57014 60042 72162 87500 333 10079 87616;
0185268820999992000100921004+53960+032840FM-12+021799999V0202001N999990018019N0050001N1+00391+00321102491ADDAY151031AY221031GA1081+001809069GF108991081061001501999999MD1710121+9999MW1511REMSYN076AAXX  09211 26882 41250 87001 10039 20032 40249 57012 75152 886// 333 88706;EQDQ01+010101WOSPD 
0187268820999992000101000004+53960+032840FM-12+021799999V0201001N001010018019N0050001N1+00431+00331102381ADDAY151061AY221061GA1081+001809069GF108991081061001501999999MA1999999099601MD1710111+9999MW1511REMSYN082AAXX  10001 26882 41250 81001 10043 20033 39960 40238 57011 75152 886// 333 88706;
0150268820999992000101003004+53960+032840FM-12+021799999V0201101N002010021019N0080001N1+00431+00331102281ADDAY151031AY221031GF108991081061002501999999MD1710101+9999MW1101REMSYN076AAXX  10031 26882 41358 81102 10043 20033 40228 57010 71052 886// 333 55021;
0202268820999992000101006004+53960+032840FM-12+021799999V0201301N005010048019N0080001N1+00501+00281102261ADDAA103000391AY151061AY221061GA1071+004809059GF107991071051004501001001KA1120N+00321MD1710011+9999MW1101REMSYN088AAXX  10061 26882 11458 71305 10050 20028 40226 57001 69937 71052 87500 333 20032 87616;
0138268820999992000101009004+53960+032840FM-12+021799999V0201301N006010093019N0120001N1+00661+00251102211ADDGA1071+009309059GF107991071051008001001001MD1710041+9999REMSYN070AAXX  10091 26882 42562 71306 10066 20025 40221 57004 87500 333 87631;
0159268820999992000101012004+53960+032840FM-12+021799999V0201301N007010093019N0140001N1+00771+00151102101ADDGA1071+009309059GF107991071051008001001001MA1999999099371MD1710081+9999REMSYN076AAXX  10121 26882 42564 71307 10077 20015 39937 40210 57008 87500 333 87631;
0138268820999992000101015004+53960+032840FM-12+021799999V0201101N004010105019N0200001N1+00771+00211102101ADDGA1071+010509059GF107991071051012501001001MD1410001+9999REMSYN070AAXX  10151 26882 42670 71104 10077 20021 40210 54000 87500 333 87635;
0187268820999992000101018004+53960+032840FM-12+021799999V0201101N005010090019N0400001N1+00711+00091102181ADDAA199000091GA1071+009009059GF107991071051999999001001KA1120M+00861MD1310071+9999REMSYN076AAXX  10181 26882 32982 71105 10071 20009 40218 53007 87500 333 10086 87630;EQDQ01  00002PRCP99
0138268820999992000101021004+53960+032840FM-12+021799999V0201201N005010087019N0400001N1+00671+00061102171ADDGA1071+008709059GF107991071051008001001001MD1810021+9999REMSYN070AAXX  10211 26882 42582 71205 10067 20006 40217 58002 87500 333 87629;
0159268820999992000101100004+53960+032840FM-12+021799999V0201201N003010087019N0350001N1+00641+00141102131ADDGA1071+008709059GF107991071051008001001001MA1999999099381MD1710041+9999REMSYN076AAXX  11001 26882 42581 71203 10064 20014 39938 40213 57004 87500 333 87629;
0152268820999992000101103004+53960+032840FM-12+021799999V0201101N004010060019N0150001N1+00691+00281102131ADDGA1071+006009059GF107991071051004501001001GJ100009MD1310011+9999REMSYN076AAXX  11031 26882 42465 71104 10069 20028 40213 53001 87500 333 55000 87620;
0165268820999992000101106004+53960+032840FM-12+021799999V0201201N004019999999N0200001N1+00711+00321102131ADDAA199000091GF107991071001999999031001KA1999N+00651MD1410001+9999REMSYN070AAXX  11061 26882 32970 71204 10071 20032 40213 54000 87030 333 20065;EQDQ01  00002PRCP99
0112268820999992000101109004+53960+032840FM-12+021799999V0201201N004019999999N0200001N1+00791+00291102121ADDGF107991071001999999031001MD1410001+9999REMSYN060AAXX  11091 26882 42970 71204 10079 20029 40212 54000 87030;
0133268820999992000101112004+53960+032840FM-12+021799999V0201401N003019999999N0200001N1+00771+00341102191ADDGF107991071001999999031001MA1999999099451MD1210061+9999REMSYN066AAXX  11121 26882 42970 71403 10077 20034 39945 40219 52006 87030;
0140268820999992000101115004+53960+032840FM-12+021799999V0201101N005019999999N0090001N1+00671+00511102241ADDAY161031AY281031GF108991081001999999071999MD1210041+9999MW1211REMSYN066AAXX  11151 26882 41959 81105 10067 20051 40224 52004 72168 8807/;
0196268820999992000101118004+53960+032840FM-12+021799999V0201101N004010108019N0120001N1+99999+99999102291ADDAA112000891AY161061AY221061GA1071+010809059GF107991071051012501001001KA1120M+00821MD1210061+9999MW1021REMSYN082AAXX  11181 26882 11662 71104 20038 40229 52006 69972 70262 87500 333 10082 87636;
0138268820999992000101121004+53960+032840FM-12+021799999V0201401N004010090019N0300001N1+00781+00361102391ADDGA1071+009009059GF107991071051008001001001MD1210101+9999REMSYN070AAXX  11211 26882 42580 71404 10078 20036 40239 52010 87500 333 87630;
0159268820999992000101200004+53960+032840FM-12+021799999V0201301N004010126019N0300001N1+00721+00381102441ADDGA1071+012609059GF107991071051012501001001MA1999999099691MD1210041+9999REMSYN076AAXX  12001 26882 42680 71304 10072 20038 39969 40244 52004 87500 333 87642;
0152268820999992000101203004+53960+032840FM-12+021799999V0201301N004010105019N0150001N1+00681+00321102541ADDGA1071+010509059GF107991071051012501001001GJ100009MD1210091+9999REMSYN076AAXX  12031 26882 42665 71304 10068 20032 40254 52009 87500 333 55000 87635;
0165268820999992000101206004+53960+032840FM-12+021799999V0201201N005019999999N0200001N1+00661+00251102641ADDAA199000091GF106991061001999999031001KA1999N+00571MD1210101+9999REMSYN070AAXX  12061 26882 32970 61205 10066 20025 40264 52010 86030 333 20057;EQDQ01  00002PRCP99
0112268820999992000101209004+53960+032840FM-12+021799999V0201401N006019999999N0200001N1+01021+00301102641ADDGF105991031001999999031011MD1210041+9999REMSYN060AAXX  12091 26882 42970 51406 10102 20030 40264 52004 83031;
0133268820999992000101212004+53960+032840FM-12+021799999V0201301N006019999999N0200001N1+01061+00151102691ADDGF107991071001999999031001MA1999999099961MD1210041+9999REMSYN066AAXX  12121 26882 42970 71306 10106 20015 39996 40269 52004 87030;
0112268820999992000101215004+53960+032840FM-12+021799999V0201401N005019999999N0200001N1+00991+00001102751ADDGF107991071001999999031001MD1210061+9999REMSYN060AAXX  12151 26882 42970 71405 10099 20000 40275 52006 87030;
0165268820999992000101218004+53960+032840FM-12+021799999V0201401N004019999999N0300001N1+00891+00111102901ADDAA199000091GF107991071001999999031001KA1999M+01111MD1210141+9999REMSYN070AAXX  12181 26882 32980 71404 10089 20011 40290 52014 87030 333 10111;EQDQ01  00002PRCP99
0112268820999992000101221004+53960+032840FM-12+021799999V0201301N003019999999N0250001N1+00731+00171102981ADDGF107991071001999999031001MD1210041+9999REMSYN060AAXX  12211 26882 42975 71303 10073 20017 40298 52004 87030;
0133268820999992000101300004+53960+032840FM-12+021799999V0201501N004019999999N0200001N1+00641+00351103061ADDGF107991071001999999031001MA1999999100291MD1210071+9999REMSYN066AAXX  13001 26882 42970 71504 10064 20035 30029 40306 52007 87030;
0122268820999992000101303004+53960+032840FM-12+021799999V0201201N001012200019N0200001N1+00481+00071103081ADDGF103991001001999999001011MD1410001+9999REMSYN070AAXX  13031 26882 42970 31201 10048 20007 40308 54000 80001 333 55012;
0165268820999992000101306004+53960+032840FM-12+021799999V0201501N004012200019N0200001N1+00571+00141103141ADDAA199000091GF102991001001999999001011KA1999N+00371MD1210061+9999REMSYN070AAXX  13061 26882 32970 21504 10057 20014 40314 52006 80001 333 20037;EQDQ01  00002PRCP99
0169268820999992000101312004+53960+032840FM-12+021799999V0201501N005019999999N0200001N1+01181-00251103081ADDGF108991999999999999999999KA1999M+99999MA1999999100351MD1810011+9999REMSYN070AAXX  13121 26882 42970 81505 10118 21025 30035 40308 58001 333 10013;EQDQ01 +00132ATMX  
0112268820999992000101315004+53960+032840FM-12+021799999V0201501N003019999999N0200001N1+01011-00141103001ADDGF106991041001999999081051MD1710081+9999REMSYN060AAXX  13151 26882 42970 61503 10101 21014 40300 57008 84085;
0165268820999992000101318004+53960+032840FM-12+021799999V0201501N003019999999N0500001N1+00751-00021103001ADDAA199000091GF106991001001999999001011KA1999M+01241MD1710031+9999REMSYN070AAXX  13181 26882 32984 61503 10075 21002 40300 57003 80001 333 10124;EQDQ01  00002PRCP99
0112268820999992000101321004+53960+032840FM-12+021799999V0201701N003019999999N0500001N1+00661-00011102991ADDGF105991001001999999001011MD1710021+9999REMSYN060AAXX  13211 26882 42984 51703 10066 21001 40299 57002 80001;
0133268820999992000101400004+53960+032840FM-12+021799999V0201901N006019999999N0400001N1+00721+00001102911ADDGF107991001001999999001011MA1999999100151MD1710071+9999REMSYN066AAXX  14001 26882 42982 71906 10072 20000 30015 40291 57007 80001;
0122268820999992000101403004+53960+032840FM-12+021799999V0201901N004019999999N0400001N1+00491-00071102831ADDGF105991021001999999031011MD1710101+9999REMSYN070AAXX  14031 26882 42982 51904 10049 21007 40283 57010 82031 333 55062;
0165268820999992000101406004+53960+032840FM-12+021799999V0201801N005019999999N0200001N1+00631-00081102741ADDAA199000091GF108991001001999999001011KA1999N+00421MD1710071+9999REMSYN070AAXX  14061 26882 32970 81805 10063 21008 40274 57007 80001 333 20042;EQDQ01  00002PRCP99
0112268820999992000101409004+53960+032840FM-12+021799999V0201801N005019999999N0200001N1+01171-00021102581ADDGF108991001001999999001011MD1710121+9999REMSYN060AAXX  14091 26882 42970 81805 10117 21002 40258 57012 80001;
0133268820999992000101412004+53960+032840FM-12+021799999V0201801N008019999999N0150001N1+01391+00001102341ADDGF108991001001999999001071MA1999999099661MD1710201+9999REMSYN066AAXX  14121 26882 42965 81808 10139 20000 39966 40234 57020 80007;
0112268820999992000101415004+53960+032840FM-12+021799999V0201801N005019999999N0150001N1+01171+00001102141ADDGF108991001001999999001011MD1710221+9999REMSYN060AAXX  14151 26882 42965 81805 10117 20000 40214 57022 80001;
0165268820999992000101418004+53960+032840FM-12+021799999V0201901N005019999999N0500001N1+01071+00091102011ADDAA199000091GF106991061001999999081001KA1999M+01441MD1710151+9999REMSYN070AAXX  14181 26882 32984 61905 10107 20009 40201 57015 86080 333 10144;EQDQ01  00002PRCP99
0138268820999992000101421004+53960+032840FM-12+021799999V0202101N005010093019N0350001N1+01071+00111101911ADDGA1071+009309059GF107991071051008001001001MD1710101+9999REMSYN070AAXX  14211 26882 42581 72105 10107 20011 40191 57010 87500 333 87631;
0159268820999992000101500004+53960+032840FM-12+021799999V0202501N004010048019N0130001N1+00991+00621101871ADDGA1071+004809059GF107991071051004501001001MA1999999099161MD1710051+9999REMSYN076AAXX  15001 26882 42463 72504 10099 20062 39916 40187 57005 87500 333 87616;
0150268820999992000101503004+53960+032840FM-12+021799999V0203001N004019999999N0090001N1+00871+00731101951ADDAY161031AY221031GF105991031001999999061021MD1310021+9999MW1101REMSYN076AAXX  15031 26882 41959 53004 10087 20073 40195 53002 71062 83062 333 55065;
0180268820999992000101506004+53960+032840FM-12+021799999V0202001N005019999999N0200001N1+00991+00741102051ADDAA112000391AY161061AY221061GF107991071001999999031001KA1999N+00871MD1210161+9999MW1021REMSYN082AAXX  15061 26882 11970 72005 10099 20074 40205 52016 69932 70262 87030 333 20087;
0112268820999992000101509004+53960+032840FM-12+021799999V0203101N007019999999N0200001N1+01071+00451102141ADDGF107991071001999999031001MD1210101+9999REMSYN060AAXX  15091 26882 42970 73107 10107 20045 40214 52010 87030;
0152268820999992000101512004+53960+032840FM-12+021799999V0202901N007019999999N0200001N1+01251+00411102151ADDGF105991999001999999031001MA1999999099451MD1210011+9999REMSYN066AAXX  15121 26882 42970 52907 10125 20041 39945 40215 52001 87030;EQDQ01+000072SCOTLC
0138268820999992000101515004+53960+032840FM-12+021799999V0203001N006010120019N0200001N1+01011+00291102221ADDGA1051+012009059GF106991051051012501031001MD1210051+9999REMSYN070AAXX  15151 26882 42670 63006 10101 20029 40222 52005 85530 333 85640;
0165268820999992000101518004+53960+032840FM-12+021799999V0203201N005019999999N0500001N1+00931+00361102311ADDAA199000091GF107991071001999999031001KA1999M+01291MD1210081+9999REMSYN070AAXX  15181 26882 32984 73205 10093 20036 40231 52008 87030 333 10129;EQDQ01  00002PRCP99
0112268820999992000101521004+53960+032840FM-12+021799999V0203201N004012200019N0260001N1+00681+00321102381ADDGF101991011001999999031001MD1210051+9999REMSYN060AAXX  15211 26882 42976 13204 10068 20032 40238 52005 81030;
0143268820999992000101600004+53960+032840FM-12+021799999V0203301N004012200019N0300001N1+00531+00311102491ADDGA1001+999999999GF100991001001999999001001MA1999999099721MD1210091+9999REMSYN060AAXX  16001 26882 42980 03304 10053 20031 39972 40249 52009;
0122268820999992000101603004+53960+032840FM-12+021799999V0203301N003012200019N0140001N1+00391+00271102601ADDGF101991001001999999001011MD1210101+9999REMSYN070AAXX  16031 26882 42964 13303 10039 20027 40260 52010 80001 333 55051;
0165268820999992000101606004+53960+032840FM-12+021799999V0203501N003012200019N0200001N1+00651+00421102711ADDAA199000091GF104991041001999999031001KA1999N+00271MD1210131+9999REMSYN070AAXX  16061 26882 32970 43503 10065 20042 40271 52013 84030 333 20027;EQDQ01  00002PRCP99
0112268820999992000101609004+53960+032840FM-12+021799999V0200301N003010300019N0200001N1+00981+00411102831ADDGF105991021051008001031001MD1210151+9999REMSYN060AAXX  16091 26882 42570 50303 10098 20041 40283 52015 82530;
0159268820999992000101612004+53960+032840FM-12+021799999V0203501N003010132019N0200001N1+01021+00461102911ADDGA1071+013209059GF107991071051012501001001MA1999999100181MD1210081+9999REMSYN076AAXX  16121 26882 42670 73503 10102 20046 30018 40291 52008 87500 333 87644;
0138268820999992000101615004+53960+032840FM-12+021799999V0200501N001010129019N0180001N1+00921+00501102991ADDGA1071+012909059GF107991071051012501001001MD1210061+9999REMSYN070AAXX  16151 26882 42668 70501 10092 20050 40299 52006 87500 333 87643;
0187268820999992000101618004+53960+032840FM-12+021799999V0200501N002010126019N0200001N1+00821+00511103081ADDAA199000091GA1071+012609059GF107991071051012501001001KA1120M+01031MD1210091+9999REMSYN076AAXX  16181 26882 32670 70502 10082 20051 40308 52009 87500 333 10103 87642;EQDQ01  00002PRCP99
0138268820999992000101621004+53960+032840FM-12+021799999V0200501N001010123019N0500001N1+00771+00531103191ADDGA1071+012309059GF107991071051012501001001MD1210101+9999REMSYN070AAXX  16211 26882 42684 70501 10077 20053 40319 52010 87500 333 87641;
0159268820999992000101700004+53960+032840FM-12+021799999V0200501N001010048019N0500001N1+00731+00531103261ADDGA1061+004809059GF107991061051004501031001MA1999999100491MD1210061+9999REMSYN076AAXX  17001 26882 42484 70501 10073 20053 30049 40326 52006 86530 333 86616;
0180268820999992000101703004+53960+032840FM-12+021799999V0200301N001010048019N0090001N1+00691+00531103281ADDAY121031AY221031GA1071+004809059GF107991071051004501001001GJ101569MD1210021+9999MW1101REMSYN082AAXX  17031 26882 41459 70301 10069 20053 40328 52002 71022 87500 333 55026 87616;
0187268820999992000101706004+53960+032840FM-12+021799999V0200601N001010060019N0200001N1+00691+00531103321ADDAA199000091GA1071+006009059GF107991071051008001001001KA1120N+00671MD1210041+9999REMSYN076AAXX  17061 26882 32570 70601 10069 20053 40332 52004 87500 333 20067 87620;EQDQ01  00002PRCP99
0138268820999992000101709004+53960+032840FM-12+021799999V0200601N002010084019N0200001N1+00871+00361103321ADDGA1071+008409059GF107991071051008001001001MD1210021+9999REMSYN070AAXX  17091 26882 42570 70602 10087 20036 40332 52002 87500 333 87628;
0159268820999992000101712004+53960+032840FM-12+021799999V0200201N001010072019N0200001N1+00811+00711103301ADDGA1071+007209059GF107991071051008001001001MA1999999100541MD1810031+9999REMSYN076AAXX  17121 26882 42570 70201 10081 20071 30054 40330 58003 87500 333 87624;
0138268820999992000101715004+53960+032840FM-12+021799999V0200301N002010087019N0200001N1+00711+00291103321ADDGA1071+008709059GF107991071051008001001001MD1310011+9999REMSYN070AAXX  17151 26882 42570 70302 10071 20029 40332 53001 87500 333 87629;
0187268820999992000101718004+53960+032840FM-12+021799999V0200401N002010081019N0200001N1+00541+00111103331ADDAA199000091GA1071+008109059GF107991071051008001001001KA1120M+00941MD1810011+9999REMSYN076AAXX  17181 26882 32570 70402 10054 20011 40333 58001 87500 333 10094 87627;EQDQ01  00002PRCP99
0138268820999992000101721004+53960+032840FM-12+021799999V0200401N002010108019N0300001N1+00491+00131103381ADDGA1071+010809059GF107991071051012501001001MD1310051+9999REMSYN070AAXX  17211 26882 42680 70402 10049 20013 40338 53005 87500 333 87636;
0143268820999992000101800004+53960+032840FM-12+021799999V0200601N002012200019N0300001N1+00271+00061103451ADDGA1001+999999999GF100991001001999999001001MA1999999100631MD1210041+9999REMSYN060AAXX  18001 26882 42980 00602 10027 20006 30063 40345 52004;
0132268820999992000101803004+53960+032840FM-12+021799999V0200501N001012200019N0180001N1+00091-00021103471ADDGA1001+999999999GF100991001001999999001001MD1210011+9999REMSYN064AAXX  18031 26882 42968 00501 10009 21002 40347 52001 333 55000;
0203268820999992000101806004+53960+032840FM-12+021799999V0201101N003010003019N0002001N1+00021+00021103641ADDAA199000091AY141061AY221061GA1091+999999999GF109991091999999999999999KA1999N+00021MD1210151+9999MW1471REMSYN070AAXX  18061 26882 31/92 91103 10002 20002 40364 52015 74742 333 20002;EQDQ01  00002PRCP99
0166268820999992000101809004+53960+032840FM-12+021799999V0200801N003010051019N0140001N1+00441+00161103681ADDAY141031AY221031GA1071+005109059GF107991071051004501001001MD1210081+9999MW1021REMSYN076AAXX  18091 26882 41464 70803 10044 20016 40368 52008 70242 87500 333 87617;
0187268820999992000101812004+53960+032840FM-12+021799999V0200501N002010090019N0200001N1+00611+00111103661ADDAY141061AY221061GA1071+009009059GF107991071051008001001001MA1999999100871MD1410001+9999MW1021REMSYN082AAXX  18121 26882 41570 70502 10061 20011 30087 40366 54000 70242 87500 333 87630;
0138268820999992000101815004+53960+032840FM-12+021799999V0200801N002010108019N0150001N1+00541+00191103671ADDGA1071+010809059GF107991071051012501001001MD1410001+9999REMSYN070AAXX  18151 26882 42665 70802 10054 20019 40367 54000 87500 333 87636;
0175268820999992000101818004+53960+032840FM-12+021799999V0200801N001012200019N0150001N1+00221+00001103801ADDAA199000091GA1001+999999999GF100991001001999999001001KA1999M+00611MD1310091+9999REMSYN064AAXX  18181 26882 32965 00801 10022 20000 40380 53009 333 10061;EQDQ01  00002PRCP99
0112268820999992000101821004+53960+032840FM-12+021799999V0200801N002019999999N0150001N1+00151-00021103861ADDGF105991051001999999031001MD1210051+9999REMSYN060AAXX  18211 26882 42965 50802 10015 21002 40386 52005 85030;
0171268820999992000101900004+53960+032840FM-12+021799999V0200801N001012200019N0080001N1+00041-00051103921ADDAY111061AY211061GA1001+999999999GF100991001001999999001001MA1999999101061MD1210051+9999MW1101REMSYN066AAXX  19001 26882 41958 00801 10004 21005 30106 40392 52005 71011;
0160268820999992000101903004+53960+032840FM-12+021799999V0200801N001012200019N0021001N1-00021-00081103951ADDAY101031AY201031GA1001+999999999GF100991001001999999001001MD1210021+9999MW1101REMSYN070AAXX  19031 26882 41921 00801 11002 21008 40395 52002 71000 333 55002;
0203268820999992000101906004+53960+032840FM-12+021799999V0209999C000010006019N0008001N1-00201+99999103941ADDAA199000091AY141061AY201061GA1091+999999999GF109991091999999999999999KA1999N-00281MD1210031+9999MW1451REMSYN070AAXX  19061 26882 31/08 90000 11020 21018 40394 52003 74540 333 21028;EQDQ01  00002PRCP99
0150268820999992000101909004+53960+032840FM-12+021799999V0209999C000012200019N0140001N1+00591+00271104011ADDAY141031AY201031GA1001+999999999GF100991001001999999001001MD1210061+9999MW1281REMSYN060AAXX  19091 26882 41964 00000 10059 20027 40401 52006 72840;
0161268820999992000101912004+53960+032840FM-12+021799999V0201501N001010300019N0200001N1+00771-00121103911ADDAY141061AY211061GF106991031021008001031001MA1999999101121MD1710091+9999MW1011REMSYN072AAXX  19121 26882 41570 61501 10077 21012 30112 40391 57009 70141 83230;
0112268820999992000101915004+53960+032840FM-12+021799999V0209999C000019999999N0100001N1+00631+00041103871ADDGF107991071001999999031001MD1710051+9999REMSYN060AAXX  19151 26882 42960 70000 10063 20004 40387 57005 87030;
0165268820999992000101918004+53960+032840FM-12+021799999V0201301N001019999999N0210001N1+00451-00061103881ADDAA199000091GF106991061001999999031001KA1999M+00841MD1710011+9999REMSYN070AAXX  19181 26882 32971 61301 10045 21006 40388 57001 86030 333 10084;EQDQ01  00002PRCP99
0122268820999992000101921004+53960+032840FM-12+021799999V0209999C000012200019N0180001N1+00211-00191103921ADDGA1001+999999999GF100991001001999999001001MD1310021+9999REMSYN054AAXX  19211 26882 42968 00000 10021 21019 40392 53002;
0143268820999992000102000004+53960+032840FM-12+021799999V0209999C000012200019N0240001N1-00131-00331104071ADDGA1001+999999999GF100991001001999999001001MA1999999101191MD1210111+9999REMSYN060AAXX  20001 26882 42974 00000 11013 21033 30119 40407 52011;
0132268820999992000102003004+53960+032840FM-12+021799999V0209999C000012200019N0260001N1-00041-00221104071ADDGA1001+999999999GF100991001001999999001001MD1110011+9999REMSYN064AAXX  20031 26882 42976 00000 11004 21022 40407 51001 333 55044;
0175268820999992000102006004+53960+032840FM-12+021799999V0209999C000012200019N0150001N1+00031-00211104091ADDAA199000091GA1001+999999999GF100991001001999999001001KA1999N-00201MD1210031+9999REMSYN064AAXX  20061 26882 32965 00000 10003 21021 40409 52003 333 21020;EQDQ01  00002PRCP99
0122268820999992000102009004+53960+032840FM-12+021799999V0203501N002012200019N0200001N1+00601-00121104081ADDGA1001+999999999GF100991001001999999001001MD1210041+9999REMSYN054AAXX  20091 26882 /2970 03502 10060 21012 40408 52004;
0143268820999992000102012004+53960+032840FM-12+021799999V0203001N001012200019N0200001N1+00781-00221103971ADDGA1001+999999999GF100991001001999999001001MA1999999101181MD1810091+9999REMSYN060AAXX  20121 26882 42970 03001 10078 21022 30118 40397 58009;
0122268820999992000102015004+53960+032840FM-12+021799999V0203301N002012200019N0150001N1+00561-00211103891ADDGA1001+999999999GF100991001001999999001001MD1710101+9999REMSYN054AAXX  20151 26882 42965 03302 10056 21021 40389 57010;
0175268820999992000102018004+53960+032840FM-12+021799999V0203201N001012200019N0180001N1+00401-00151103951ADDAA199000091GA1001+999999999GF100991001001999999001001KA1999M+00861MD1210051+9999REMSYN064AAXX  20181 26882 32968 03201 10040 21015 40395 52005 333 10086;EQDQ01  00002PRCP99
0122268820999992000102021004+53960+032840FM-12+021799999V0209999C000012200019N0160001N1+00221-00211104001ADDGA1001+999999999GF100991001001999999001001MD1210031+9999REMSYN054AAXX  20211 26882 42966 00000 10022 21021 40400 52003;
0143268820999992000102100004+53960+032840FM-12+021799999V0209999C000012200019N0180001N1-00101-00391104061ADDGA1001+999999999GF100991001001999999001001MA1999999101181MD1210021+9999REMSYN060AAXX  21001 26882 42968 00000 11010 21039 30118 40406 52002;
0132268820999992000102103004+53960+032840FM-12+021799999V0209999C000012200019N0200001N1-00221-00371104081ADDGA1001+999999999GF100991001001999999001001MD1210011+9999REMSYN064AAXX  21031 26882 42970 00000 11022 21037 40408 52001 333 55086;
0175268820999992000102106004+53960+032840FM-12+021799999V0209999C000012200019N0200001N1-00081-00261104091ADDAA199000091GA1001+999999999GF100991001001999999001001KA1999N-00251MD1210031+9999REMSYN064AAXX  21061 26882 32970 00000 11008 21026 40409 52003 333 21025;EQDQ01  00002PRCP99
0122268820999992000102109004+53960+032840FM-12+021799999V0203501N001012200019N0200001N1+00591-00011104101ADDGA1001+999999999GF100991001001999999001001MD1210071+9999REMSYN054AAXX  21091 26882 42970 03501 10059 21001 40410 52007;
0143268820999992000102112004+53960+032840FM-12+021799999V0203101N002012200019N0200001N1+00831-00071104051ADDGA1001+999999999GF100991001001999999001001MA1999999101261MD1810031+9999REMSYN060AAXX  21121 26882 42970 03102 10083 21007 30126 40405 58003;
0112268820999992000102115004+53960+032840FM-12+021799999V0203201N001012200019N0150001N1+00501-00161104011ADDGF101991001001999999001011MD1710061+9999REMSYN060AAXX  21151 26882 42965 13201 10050 21016 40401 57006 80001;
0175268820999992000102118004+53960+032840FM-12+021799999V0203201N001012200019N0190001N1+00311-00141103981ADDAA199000091GA1001+999999999GF100991001001999999001001KA1999M+00961MD1710051+9999REMSYN064AAXX  21181 26882 32969 03201 10031 21014 40398 57005 333 10096;EQDQ01  00002PRCP99
0122268820999992000102121004+53960+032840FM-12+021799999V0209999C000012200019N0150001N1-00051-00231104011ADDGA1001+999999999GF100991001001999999001001MD1710011+9999REMSYN054AAXX  21211 26882 42965 00000 11005 21023 40401 57001;
0137268820999992000102200004+53960+032840FM-12+021799999V0209999C000012200019N0120001N1+99999+99999104021ADDGA1001+999999999GF100991001001999999001001MA1999999101141MD1410001+9999REMSYN054AAXX  22001 26882 42962 00000 21029 30114 40402 54000;
0160268820999992000102203004+53960+032840FM-12+021799999V0209999C000012200019N0080001N1-00291-00391104011ADDAY101031AY201031GA1001+999999999GF100991001001999999001001MD1810021+9999MW1101REMSYN070AAXX  22031 26882 41958 00000 11029 21039 40401 58002 71000 333 55095;
0193268820999992000102206004+53960+032840FM-12+021799999V0209999C000012200019N0060001N1-00081-00151103991ADDAA199000091AY101061AY201061GF102991001001999999001011KA1999N-00431MD1710011+9999MW1101REMSYN076AAXX  22061 26882 31956 20000 11008 21015 40399 57001 71000 80001 333 21043;EQDQ01  00002PRCP99
0112268820999992000102209004+53960+032840FM-12+021799999V0202201N002019999999N0120001N1+00661-00011103851ADDGF107991001001999999001011MD1710061+9999REMSYN060AAXX  22091 26882 42962 72202 10066 21001 40385 57006 80001;
0133268820999992000102212004+53960+032840FM-12+021799999V0202601N003019999999N0150001N1+00871-00071103651ADDGF106991001001999999001011MA1999999100881MD1710171+9999REMSYN066AAXX  22121 26882 42965 62603 10087 21007 30088 40365 57017 80001;
0112268820999992000102215004+53960+032840FM-12+021799999V0202501N003019999999N0120001N1+00401-00091103521ADDGF108991001001999999001011MD1710171+9999REMSYN060AAXX  22151 26882 42962 82503 10040 21009 40352 57017 80001;
0175268820999992000102218004+53960+032840FM-12+021799999V0202301N003012200019N0130001N1+00121-00171103411ADDAA199000091GA1001+999999999GF100991001001999999001001KA1999M+00891MD1710131+9999REMSYN064AAXX  22181 26882 32963 02303 10012 21017 40341 57013 333 10089;EQDQ01  00002PRCP99
0122268820999992000102221004+53960+032840FM-12+021799999V0202201N004012200019N0130001N1+00041-00131103351ADDGA1001+999999999GF100991001001999999001001MD1710071+9999REMSYN054AAXX  22211 26882 42963 02204 10004 21013 40335 57007;
0171268820999992000102300004+53960+032840FM-12+021799999V0202201N005012200019N0080001N1+00021-00091103151ADDAY101061AY201061GA1001+999999999GF100991001001999999001001MA1999999100321MD1710191+9999MW1101REMSYN066AAXX  23001 26882 41958 02205 10002 21009 30032 40315 57019 71000;
0160268820999992000102303004+53960+032840FM-12+021799999V0202101N005012200019N0080001N1-00081-00141103011ADDAY101031AY201031GA1001+999999999GF100991001001999999001001MD1710161+9999MW1101REMSYN070AAXX  23031 26882 41958 02105 11008 21014 40301 57016 71000 333 55083;
0193268820999992000102306004+53960+032840FM-12+021799999V0202301N004019999999N0070001N1+00021-00091102911ADDAA199000091AY111061AY211061GF106991061001999999031001KA1999N-00081MD1710081+9999MW1101REMSYN076AAXX  23061 26882 31957 62304 10002 21009 40291 57008 71011 86030 333 21008;EQDQ01  00002PRCP99
0106268820999992000102309004+53960+032840FM-12+021799999V0202601N003012200019N0200001N1+00591+00111999999ADDGF104991041001999999031001MD1710051+9999REMSYN054AAXX  23091 26882 42970 42603 10059 20011 57005 84030;
0133268820999992000102312004+53960+032840FM-12+021799999V0202501N004019999999N0200001N1+00991+00211102671ADDGF107991071001999999031001MA1999999099881MD1710151+9999REMSYN066AAXX  23121 26882 42970 72504 10099 20021 39988 40267 57015 87030;
0140268820999992000102315004+53960+032840FM-12+021799999V0202701N003019999999N0060001N1+00691+00491102581ADDAY161031AY221031GF108991081001999999071999MD1710061+9999MW1611REMSYN066AAXX  23151 26882 41956 82703 10069 20049 40258 57006 76162 8807/;
0202268820999992000102318004+53960+032840FM-12+021799999V0203101N003010024019N0031001N1+00671+00581102571ADDAA112002091AY161061AY251061GA1081+002409069GF108991081061002501999999KA1120M+01041MD1610011+9999MW1511REMSYN088AAXX  23181 26882 11331 83103 10067 20058 40257 56001 60022 75165 886// 333 10104 88708;
0150268820999992000102321004+53960+032840FM-12+021799999V0203201N003010003019N0003001N1+00611+00611102551ADDAY151031AY241031GA1091+999999999GF109991091999999999999999MD1710021+9999MW1471REMSYN060AAXX  23211 26882 41/03 93203 10061 20061 40255 57002 74754;
0171268820999992000102400004+53960+032840FM-12+021799999V0203401N003010006019N0008001N1+00591+00591102521ADDAY151061AY241061GA1091+999999999GF109991091999999999999999MA1999999099761MD1710031+9999MW1431REMSYN066AAXX  24001 26882 41/08 93403 10059 20059 39976 40252 57003 74354;
0160268820999992000102403004+53960+032840FM-12+021799999V0203201N001010003019N0003001N1+00551+00551102531ADDAY141031AY221031GA1091+999999999GF109991091999999999999999MD1710011+9999MW1451REMSYN070AAXX  24031 26882 41/03 93201 10055 20055 40253 57001 74542 333 55018;
0202268820999992000102406004+53960+032840FM-12+021799999V0203601N001010015019N0038001N1+00511+00441102491ADDAA112000791AY141061AY221061GA1081+001509069GF108991081061001501999999KA1120N+00511MD1710031+9999MW1101REMSYN088AAXX  24061 26882 11238 83601 10051 20044 40249 57003 69902 71042 886// 333 20051 88705;
0138268820999992000102409004+53960+032840FM-12+021799999V0201501N002010036019N0110001N1+00621+00431102471ADDGA1071+003609059GF107991071051004501001001MD1710011+9999REMSYN070AAXX  24091 26882 42461 71502 10062 20043 40247 57001 87500 333 87612;
0133268820999992000102412004+53960+032840FM-12+021799999V0201201N002012200019N0150001N1+00851+00461102281ADDGF104991021051008001031011MA1999999099551MD1810161+9999REMSYN066AAXX  24121 26882 42565 41202 10085 20046 39955 40228 58016 82531;
0166268820999992000102415004+53960+032840FM-12+021799999V0201901N004010300019N0080001N1+00641+00411102141ADDAY111031AY211031GA1041+006309059GF106991041051008001031011MD1710161+9999MW1101REMSYN076AAXX  24151 26882 41558 61904 10064 20041 40214 57016 71011 84531 333 84621;
0193268820999992000102418004+53960+032840FM-12+021799999V0201901N002019999999N0090001N1+00571+00451102041ADDAA199000091AY111061AY211061GF107991071001999999031001KA1999M+00931MD1710101+9999MW1101REMSYN076AAXX  24181 26882 31959 71902 10057 20045 40204 57010 71011 87030 333 10093;EQDQ01  00002PRCP99
0140268820999992000102421004+53960+032840FM-12+021799999V0201801N002019999999N0080001N1+00511+00421101921ADDAY121031AY221031GF107991071001999999031001MD1710131+9999MW1101REMSYN066AAXX  24211 26882 41958 71802 10051 20042 40192 57013 71022 87030;
0161268820999992000102500004+53960+032840FM-12+021799999V0201901N006019999999N0070001N1+00501+00431101711ADDAY121061AY221061GF107991071001999999031001MA1999999098961MD1710201+9999MW1101REMSYN072AAXX  25001 26882 41957 71906 10050 20043 39896 40171 57020 71022 87030;
0122268820999992000102503004+53960+032840FM-12+021799999V0201901N004019999999N0100001N1+00551+00491101501ADDGF107991071001999999031001MD1710201+9999REMSYN070AAXX  25031 26882 42960 71904 10055 20049 40150 57020 87030 333 55014;
0215268820999992000102506004+53960+032840FM-12+021799999V0202201N004010039019N0060001N1+00611+00401101391ADDAA199000091AY121061AY221061GA1071+003909059GF107991071051004501001001KA1120N+00471MD1710101+9999MW1101REMSYN082AAXX  25061 26882 31456 72204 10061 20040 40139 57010 71022 87500 333 20047 87613;EQDQ01  00002PRCP99
0166268820999992000102509004+53960+032840FM-12+021799999V0202401N004010024019N0039001N1+00651+00421101461ADDAY121031AY221031GA1081+002409069GF108991081061002501999999MD1310031+9999MW1101REMSYN076AAXX  25091 26882 41339 82404 10065 20042 40146 53003 71022 886// 333 88708;
0187268820999992000102512004+53960+032840FM-12+021799999V0202201N003010060019N0060001N1+00791+00501101371ADDAY121061AY221061GA1071+006009059GF107991071051008001001001MA1999999098661MD1810031+9999MW1101REMSYN082AAXX  25121 26882 41556 72203 10079 20050 39866 40137 58003 71022 87500 333 87620;
0140268820999992000102515004+53960+032840FM-12+021799999V0202101N003010300019N0060001N1+00771+00581101371ADDAY121031AY221031GF106991041051008001031001MD1410001+9999MW1101REMSYN066AAXX  25151 26882 41556 62103 10077 20058 40137 54000 71022 84530;
0193268820999992000102518004+53960+032840FM-12+021799999V0202101N006019999999N0060001N1+00691+00601101391ADDAA199000091AY121061AY221061GF105991051001999999031001KA1999M+00791MD1310011+9999MW1101REMSYN076AAXX  25181 26882 31956 52106 10069 20060 40139 53001 71022 85030 333 10079;EQDQ01  00002PRCP99
0140268820999992000102521004+53960+032840FM-12+021799999V0202101N005019999999N0060001N1+00701+00591101351ADDAY121031AY221031GF106991061001999999031001MD1810041+9999MW1101REMSYN066AAXX  25211 26882 41956 62105 10070 20059 40135 58004 71022 86030;
0187268820999992000102600004+53960+032840FM-12+021799999V0202001N005010018019N0022001N1+00631+00591101221ADDAY121061AY221061GA1081+001809069GF108991081061001501999999MA1999999098501MD1710131+9999MW1101REMSYN082AAXX  26001 26882 41222 82005 10063 20059 39850 40122 57013 71022 886// 333 88706;
0150268820999992000102603004+53960+032840FM-12+021799999V0201901N005019999999N0060001N1+00661+00591101011ADDAY121031AY221031GF108991081001999999071999MD1710201+9999MW1101REMSYN076AAXX  26031 26882 41956 81905 10066 20059 40101 57020 71022 8807/ 333 55000;
0221268820999992000102606004+53960+032840FM-12+021799999V0202001N006010009019N0019001N1+00671+00561100821ADDAA112006191AY161061AY221061GA1081+000909069GF108991999071000751021999KA1120N+00621MD1710191+9999MW1611REMSYN088AAXX  26061 26882 11119 82006 10067 20056 40082 57019 60062 76162 8872/ 333 20062 88703;EQDQ01+000082SCOTLC
0166268820999992000102609004+53960+032840FM-12+021799999V0202201N007010024019N0011001N1+00731+00671100791ADDAY161031AY221031GA1081+002409069GF108991081061002501999999MD1710031+9999MW1101REMSYN076AAXX  26091 26882 41311 82207 10073 20067 40079 57003 71062 886// 333 88708;
0161268820999992000102612004+53960+032840FM-12+021799999V0202201N005010300019N0023001N1+01031+00851100721ADDAY161061AY221061GF107991021061002501031001MA1999999098051MD1710031+9999MW1101REMSYN072AAXX  26121 26882 41323 72205 10103 20085 39805 40072 57003 71062 82630;
0140268820999992000102615004+53960+032840FM-12+021799999V0202201N005019999999N0023001N1+01041+00851100741ADDAY121031AY221031GF107991071001999999031001MD1310021+9999MW1101REMSYN066AAXX  26151 26882 41923 72205 10104 20085 40074 53002 71022 87030;
0202268820999992000102618004+53960+032840FM-12+021799999V0202201N004010033019N0080001N1+01011+00821100871ADDAA112000391AY121061AY221061GA1071+003309059GF107991071051004501001001KA1120M+01051MD1210121+9999MW1101REMSYN088AAXX  26181 26882 11458 72204 10101 20082 40087 52012 69932 71022 87500 333 10105 87611;
0140268820999992000102621004+53960+032840FM-12+021799999V0202101N003010300019N0090001N1+00951+00761100861ADDAY121031AY221031GF107991041051008001031001MD1810011+9999MW1101REMSYN066AAXX  26211 26882 41559 72103 10095 20076 40086 58001 71022 84530;
0161268820999992000102700004+53960+032840FM-12+021799999V0202201N003010300019N0080001N1+00891+00731100901ADDAY121061AY221061GF107991031051008001031001MA1999999098211MD1310031+9999MW1101REMSYN072AAXX  27001 26882 41558 72203 10089 20073 39821 40090 53003 71022 83530;
0150268820999992000102703004+53960+032840FM-12+021799999V0201901N004010300019N0070001N1+00891+00741100831ADDAY121031AY221031GF106991041051008001031001MD1810071+9999MW1101REMSYN076AAXX  27031 26882 41557 61904 10089 20074 40083 58007 71022 84530 333 55000;
0202268820999992000102706004+53960+032840FM-12+021799999V0202001N006010021019N0025001N1+00911+00851100781ADDAA112000791AY161061AY221061GA1081+002109069GF108991081061002501999999KA1120N+00911MD1710051+9999MW1101REMSYN088AAXX  27061 26882 11325 82006 10091 20085 40078 57005 69902 71062 886// 333 20091 88707;
0166268820999992000102709004+53960+032840FM-12+021799999V0202401N006010021019N0025001N1+01011+00951100771ADDAY151031AY221031GA1081+002109069GF108991081061002501999999MD1410001+9999MW1511REMSYN076AAXX  27091 26882 41325 82406 10101 20095 40077 54000 75152 886// 333 88707;
0187268820999992000102712004+53960+032840FM-12+021799999V0202401N006010021019N0025001N1+01021+00961100771ADDAY151061AY221061GA1081+002109069GF108991081061002501999999MA1999999098091MD1410001+9999MW1101REMSYN082AAXX  27121 26882 41325 82406 10102 20096 39809 40077 54000 71052 886// 333 88707;
0140268820999992000102715004+53960+032840FM-12+021799999V0202301N003019999999N0044001N1+00891+00821100851ADDAY161031AY221031GF108991081001999999071999MD1210031+9999MW1101REMSYN066AAXX  27151 26882 41944 82303 10089 20082 40085 52003 71062 8807/;
0180268820999992000102718004+53960+032840FM-12+021799999V0202701N003019999999N0070001N1+00651+00511101001ADDAA112002091AY161061AY221061GF105991051001999999031001KA1999M+01141MD1210131+9999MW1101REMSYN082AAXX  27181 26882 11957 52703 10065 20051 40100 52013 60022 71062 85030 333 10114;
0157268820999992000102721004+53960+032840FM-12+021799999V0202601N003010150019N0200001N1+00611+00521101091ADDGA1071+015009059GF107991071051017501999001MD1210081+9999REMSYN070AAXX  27211 26882 42770 72603 10061 20052 40109 52008 87500 333 87650;EQDQ01    003SCOMCG
0178268820999992000102800004+53960+032840FM-12+021799999V0202501N004010150019N0260001N1+00601+00411101161ADDGA1071+015009059GF107991071051012501999001MA1999999098441MD1210071+9999REMSYN076AAXX  28001 26882 42676 72504 10060 20041 39844 40116 52007 87500 333 87650;EQDQ01    003SCOMCG
0122268820999992000102803004+53960+032840FM-12+021799999V0202401N004019999999N0190001N1+00531+00411101241ADDGF107991071001999999031001MD1210071+9999REMSYN070AAXX  28031 26882 42969 72404 10053 20041 40124 52007 87030 333 55000;
0165268820999992000102806004+53960+032840FM-12+021799999V0202301N003012200019N0150001N1+00471+00331101381ADDAA199000091GF102991021001999999031001KA1999N+00461MD1210131+9999REMSYN070AAXX  28061 26882 32965 22303 10047 20033 40138 52013 82030 333 20046;EQDQ01  00002PRCP99
0166268820999992000102809004+53960+032840FM-12+021799999V0202501N005010039019N0060001N1+00691+00531101441ADDAY111031AY211031GA1071+003909059GF107991071051004501001001MD1210081+9999MW1101REMSYN076AAXX  28091 26882 41456 72505 10069 20053 40144 52008 71011 87500 333 87613;
0206268820999992000102812004+53960+032840FM-12+021799999V0203401N004010039019N0060001N1+00641+00571101561ADDAY161061AY211061GA1081+003909069GF108991999071004501021999MA1999999098831MD1210111+9999MW1611REMSYN082AAXX  28121 26882 41456 83404 10064 20057 39883 40156 52011 76161 8872/ 333 88713;EQDQ01+000082SCOTLC
0140268820999992000102815004+53960+032840FM-12+021799999V0203301N004019999999N0200001N1+00431+00231101821ADDAY161031AY221031GF106991061001999999031001MD1210231+9999MW1031REMSYN066AAXX  28151 26882 41970 63304 10043 20023 40182 52023 70362 86030;
0190268820999992000102818004+53960+032840FM-12+021799999V0202501N003012200019N0300001N1+00261+00021102001ADDAA112000891AY161061AY211061GA1001+999999999GF100991001001999999001001KA1999M+00711MD1210151+9999MW1021REMSYN076AAXX  28181 26882 11980 02503 10026 20002 40200 52015 69972 70261 333 10071;
0112268820999992000102821004+53960+032840FM-12+021799999V0202301N004019999999N0200001N1+00161-00091102151ADDGF107991071001999999031001MD1210141+9999REMSYN060AAXX  28211 26882 42970 72304 10016 21009 40215 52014 87030;
0133268820999992000102900004+53960+032840FM-12+021799999V0202301N003019999999N0250001N1+00101-00081102151ADDGF107991071001999999031001MA1999999099041MD1210131+9999REMSYN066AAXX  29001 26882 42975 72303 10010 21008 39904 40215 52013 87030;
0122268820999992000102903004+53960+032840FM-12+021799999V0202201N004019999999N0250001N1+00021-00041102171ADDGF107991071001999999031001MD1410001+9999REMSYN070AAXX  29031 26882 42975 72204 10002 21004 40217 54000 87030 333 55003;
0165268820999992000102906004+53960+032840FM-12+021799999V0202101N004019999999N0200001N1+00121+00011102171ADDAA199000091GF107991071001999999051001KA1999N-00031MD1310011+9999REMSYN070AAXX  29061 26882 32970 72104 10012 20001 40217 53001 87050 333 21003;EQDQ01  00002PRCP99
0112268820999992000102909004+53960+032840FM-12+021799999V0202101N005010300019N0200001N1+00361+00071102151ADDGF107991021051004501031001MD1410001+9999REMSYN060AAXX  29091 26882 42470 72105 10036 20007 40215 54000 82530;
0161268820999992000102912004+53960+032840FM-12+021799999V0201901N005019999999N0200001N1+00561+00371101951ADDAY121061AY221061GF108991081001999999071999MA1999999099191MD1810181+9999MW1251REMSYN072AAXX  29121 26882 41970 81905 10056 20037 39919 40195 58018 72522 8807/;
0112268820999992000102915004+53960+032840FM-12+021799999V0202001N004019999999N0200001N1+00701+00461101831ADDGF108991081001999999071999MD1710091+9999REMSYN060AAXX  29151 26882 42970 82004 10070 20046 40183 57009 8807/;
0152268820999992000102918004+53960+032840FM-12+021799999V0202201N006019999999N0260001N1+00741+00501101711ADDAA112000791GF108991081001999999071999KA1999M+00751MD1710121+9999REMSYN076AAXX  29181 26882 12976 82206 10074 20050 40171 57012 69902 8807/ 333 10075;
0112268820999992000102921004+53960+032840FM-12+021799999V0202201N006019999999N0400001N1+00781+00381101641ADDGF107991071001999999051001MD1710061+9999REMSYN060AAXX  29211 26882 42982 72206 10078 20038 40164 57006 87050;
0133268820999992000103000004+53960+032840FM-12+021799999V0202101N007019999999N0500001N1+00761+00301101521ADDGF107991071001999999031001MA1999999098811MD1710111+9999REMSYN066AAXX  30001 26882 42984 72107 10076 20030 39881 40152 57011 87030;
0150268820999992000103003004+53960+032840FM-12+021799999V0202101N006019999999N0500001N1+00621+00361101451ADDAY181031AY221031GF105991021001999999031011MD1710091+9999MW1011REMSYN076AAXX  30031 26882 41984 52106 10062 20036 40145 57009 70182 82031 333 55000;
0180268820999992000103006004+53960+032840FM-12+021799999V0202201N006019999999N0120001N1+00621+00281101411ADDAA112000791AY181061AY221061GF107991071001999999031001KA1999N+00601MD1710041+9999MW1031REMSYN082AAXX  30061 26882 11962 72206 10062 20028 40141 57004 69902 70382 87030 333 20060;
0092268820999992000103009004+53960+032840FM-12+021799999V0202301N007019999999N0150001N1+00981+00451101371ADDGF107991071001999999031001REMSYN054AAXX  30091 26882 42965 72307 10098 20045 40137 87030;
0133268820999992000103012004+53960+032840FM-12+021799999V0202101N006019999999N0150001N1+01171+00551101371ADDGF106991001001999999001011MA1999999098701MD1310021+9999REMSYN066AAXX  30121 26882 42965 62106 10117 20055 39870 40137 53002 80001;
0112268820999992000103015004+53960+032840FM-12+021799999V0202201N004012200019N0120001N1+00621+00481101461ADDGF102991011001999999031011MD1210051+9999REMSYN060AAXX  30151 26882 42962 22204 10062 20048 40146 52005 81031;
0175268820999992000103018004+53960+032840FM-12+021799999V0202101N003012200019N0160001N1+00511+00391101671ADDAA199000091GA1001+999999999GF100991001001999999001001KA1999M+01161MD1210171+9999REMSYN064AAXX  30181 26882 32966 02103 10051 20039 40167 52017 333 10116;EQDQ01  00002PRCP99
0122268820999992000103021004+53960+032840FM-12+021799999V0202101N004012200019N0100001N1+00461+00311101681ADDGA1001+999999999GF100991001001999999001001MD1410001+9999REMSYN054AAXX  30211 26882 42960 02104 10046 20031 40168 54000;
0171268820999992000103100004+53960+032840FM-12+021799999V0202001N005012200019N0080001N1+00401+00301101711ADDAY101061AY201061GA1001+999999999GF100991001001999999001001MA1999999098951MD1310031+9999MW1101REMSYN066AAXX  31001 26882 41958 02005 10040 20030 39895 40171 53003 71000;
0160268820999992000103103004+53960+032840FM-12+021799999V0201801N005012200019N0080001N1+00361+00261101711ADDAY101031AY201031GA1001+999999999GF100991001001999999001001MD1810011+9999MW1101REMSYN070AAXX  31031 26882 41958 01805 10036 20026 40171 58001 71000 333 55030;
0193268820999992000103106004+53960+032840FM-12+021799999V0201601N004012200019N0044001N1+00381+00231101721ADDAA199000091AY101061AY201061GF103991031001999999031001KA1999N+00361MD1210021+9999MW1101REMSYN076AAXX  31061 26882 31944 31604 10038 20023 40172 52002 71000 83030 333 20036;EQDQ01  00002PRCP99
0112268820999992000103109004+53960+032840FM-12+021799999V0201901N005012200019N0110001N1+00911+00461101701ADDGF103991031001999999031001MD1210031+9999REMSYN060AAXX  31091 26882 42961 31905 10091 20046 40170 52003 83030;
0133268820999992000103112004+53960+032840FM-12+021799999V0201901N005019999999N0200001N1+01151+00361101631ADDGF105991001001999999001011MA1999999098941MD1710051+9999REMSYN066AAXX  31121 26882 41970 51905 10115 20036 39894 40163 57005 80001;
0140268820999992000103115004+53960+032840FM-12+021799999V0201601N005019999999N0080001N1+00691+00441101671ADDAY121031AY221031GF105991001001999999001011MD1410001+9999MW1101REMSYN066AAXX  31151 26882 41958 51605 10069 20044 40167 54000 71022 80001;
0166268820999992000103121004+53960+032840FM-12+021799999V0201901N004010015019N0050001N1+00621+00531101681ADDAY121031AY221031GA1061+001509069GF106991061061001501001001MD1310011+9999MW1101REMSYN076AAXX  31211 26882 41250 61904 10062 20053 40168 53001 71022 86600 333 86705;
0187268820999992000110100004+53960+032840FM-12+021799999V0201901N006010015019N0060001N1+00751+00581101581ADDAY121061AY221061GA1071+001509069GF107991071061001501001001MA1999999098861MD1810081+9999MW1101REMSYN082AAXX  01001 26882 41256 71906 10075 20058 39886 40158 58008 71022 87600 333 87705;
0180268820999992000110103004+53960+032840FM-12+021799999V0201901N006010021019N0080001N1+00751+00641101551ADDAY121031AY221031GA1071+002109069GF107991071061002501001001GJ104149MD1710021+9999MW1101REMSYN082AAXX  01031 26882 41358 71906 10075 20064 40155 57002 71022 87600 333 55069 87707;
0215268820999992000110106004+53960+032840FM-12+021799999V0201901N006010018019N0060001N1+00761+00621101621ADDAA199000091AY121061AY221061GA1081+001809069GF108991081061001501999999KA1120N+00571MD1310061+9999MW1101REMSYN082AAXX  01061 26882 31256 81906 10076 20062 40162 53006 71022 886// 333 20057 88706;EQDQ01  00002PRCP99
0138268820999992000110109004+53960+032840FM-12+021799999V0201901N007010036019N0120001N1+00901+00671101651ADDGA1071+003609059GF107991071051004501001001MD1210031+9999REMSYN070AAXX  01091 26882 42462 71907 10090 20067 40165 52003 87500 333 87612;
0165268820999992000110112004+53960+032840FM-12+021799999V0202801N006010042019N0150001N1+01001+00681101661ADDGA1071+004209069GF107991071051004501001001MA1999999098961MD1210031+9999REMSYN082AAXX  01121 26882 42465 72806 10100 20068 39896 40166 52003 87500 333 87614 91113;
0138268820999992000110115004+53960+032840FM-12+021799999V0201901N005010039019N0120001N1+00901+00671101711ADDGA1071+003909059GF107991071051004501001001MD1210041+9999REMSYN070AAXX  01151 26882 42462 71905 10090 20067 40171 52004 87500 333 87613;
0187268820999992000110118004+53960+032840FM-12+021799999V0201701N004010039019N0150001N1+00791+00591101761ADDAA199000091GA1071+003909059GF107991071051004501001001KA1120M+01101MD1210041+9999REMSYN076AAXX  01181 26882 32465 71704 10079 20059 40176 52004 87500 333 10110 87613;EQDQ01  00002PRCP99
0138268820999992000110121004+53960+032840FM-12+021799999V0201801N005010048019N0120001N1+00661+00501101771ADDGA1071+004809059GF107991071051004501001001MD1410001+9999REMSYN070AAXX  01211 26882 42462 71805 10066 20050 40177 54000 87500 333 87616;
0159268820999992000110200004+53960+032840FM-12+021799999V0201701N005010048019N0100001N1+00591+00451101761ADDGA1071+004809059GF107991071051004501001001MA1999999099021MD1710021+9999REMSYN076AAXX  02001 26882 42460 71705 10059 20045 39902 40176 57002 87500 333 87616;
0152268820999992000110203004+53960+032840FM-12+021799999V0201301N004010048019N0100001N1+00591+00431101631ADDGA1071+004809059GF107991071051004501001001GJ100009MD1710131+9999REMSYN076AAXX  02031 26882 42460 71304 10059 20043 40163 57013 87500 333 55000 87616;
0187268820999992000110206004+53960+032840FM-12+021799999V0201601N006010030019N0130001N1+00631+00421101621ADDAA199000091GA1071+003009059GF107991071051004501001001KA1120N+00511MD1710011+9999REMSYN076AAXX  02061 26882 32463 71606 10063 20042 40162 57001 87500 333 20051 87610;EQDQ01  00002PRCP99
0138268820999992000110209004+53960+032840FM-12+021799999V0201801N007010039019N0150001N1+00671+00341101561ADDGA1071+003909059GF107991071051004501001001MD1710041+9999REMSYN070AAXX  02091 26882 42465 71807 10067 20034 40156 57004 87500 333 87613;
0178268820999992000110212004+53960+032840FM-12+021799999V0201601N999990039019N0150001N1+00771+00481101571ADDGA1071+003909059GF107991071051004501001001MA1999999098851MD1310011+9999REMSYN076AAXX  02121 26882 42465 71687 10077 20048 39885 40157 53001 87500 333 87613;EQDQ01+008703WOSPD 
0138268820999992000110215004+53960+032840FM-12+021799999V0201801N006010039019N0150001N1+00771+00531101601ADDGA1071+003909059GF107991071051004501001001MD1210031+9999REMSYN070AAXX  02151 26882 42465 71806 10077 20053 40160 52003 87500 333 87613;
0221268820999992000110218004+53960+032840FM-12+021799999V0201701N003010024019N0060001N1+00761+00701101591ADDAA112004191AY161061AY221061GA1081+002409069GF108991999071002501021999KA1120M+00781MD1810011+9999MW1611REMSYN088AAXX  02181 26882 11356 81703 10076 20070 40159 58001 60042 76162 8872/ 333 10078 88708;EQDQ01+000082SCOTLC
0166268820999992000110221004+53960+032840FM-12+021799999V0201801N002010018019N0050001N1+00761+00711101631ADDAY161031AY221031GA1081+001809069GF108991081061001501999999MD1310041+9999MW1101REMSYN076AAXX  02211 26882 41250 81802 10076 20071 40163 53004 71062 886// 333 88706;
0171268820999992000110300004+53960+032840FM-12+021799999V0201801N002010006019N0007001N1+00761+00761101711ADDAY161061AY241061GA1091+999999999GF109991091999999999999999MA1999999098991MD1210081+9999MW1451REMSYN066AAXX  03001 26882 41/07 91802 10076 20076 39899 40171 52008 74564;
0160268820999992000110303004+53960+032840FM-12+021799999V0201901N001010003019N0002001N1+00761+00761101781ADDAY141031AY221031GA1091+999999999GF109991091999999999999999MD1210071+9999MW1471REMSYN070AAXX  03031 26882 41/02 91901 10076 20076 40178 52007 74742 333 55000;
0190268820999992000110306004+53960+032840FM-12+021799999V0209999C000010003019N0002001N1+00761+00761101961ADDAA112001091AY141061AY221061GA1091+999999999GF109991091999999999999999KA1999N+00751MD1210171+9999MW1451REMSYN076AAXX  03061 26882 11/92 90000 10076 20076 40196 52017 60012 74542 333 20075;
0166268820999992000110309004+53960+032840FM-12+021799999V0201601N002010018019N0033001N1+00841+00841102001ADDAY141031AY221031GA1081+001809069GF108991081061001501999999MD1210051+9999MW1101REMSYN076AAXX  03091 26882 41233 81602 10084 20084 40200 52005 71042 886// 333 88706;
0187268820999992000110312004+53960+032840FM-12+021799999V0201501N002010015019N0045001N1+00871+00851102091ADDAY141061AY221061GA1081+001509069GF108991081061001501999999MA1999999099371MD1210091+9999MW1101REMSYN082AAXX  03121 26882 41245 81502 10087 20085 39937 40209 52009 71042 886// 333 88705;
0150268820999992000110315004+53960+032840FM-12+021799999V0201301N002010006019N0007001N1+00811+00811102161ADDAY141031AY221031GA1091+999999999GF109991091999999999999999MD1210061+9999MW1451REMSYN060AAXX  03151 26882 41/07 91302 10081 20081 40216 52006 74542;
0196268820999992000110318004+53960+032840FM-12+021799999V0201401N002010006019N0008001N1+00801+00801102321ADDAA112000791AY151061AY241061GA1091+999999999GF109991091999999999999999KA1120M+00891MD1210151+9999MW1511REMSYN082AAXX  03181 26882 11/08 91402 10080 20080 40232 52015 69902 75154 333 10089 96045;
0160268820999992000110321004+53960+032840FM-12+021799999V0201401N001010006019N0007001N1+00791+00791102361ADDAY151031AY241031GA1091+999999999GF109991091999999999999999MD1210041+9999MW1511REMSYN070AAXX  03211 26882 41/07 91401 10079 20079 40236 52004 75154 333 96045;
0181268820999992000110400004+53960+032840FM-12+021799999V0201601N002010006019N0008001N1+00791+00791102431ADDAY151061AY241061GA1091+999999999GF109991091999999999999999MA1999999099691MD1210071+9999MW1531REMSYN076AAXX  04001 26882 41/08 91602 10079 20079 39969 40243 52007 75354 333 96045;
0174268820999992000110403004+53960+032840FM-12+021799999V0201301N002010006019N0008001N1+00791+00791102441ADDAY151031AY241031GA1091+999999999GF109991091999999999999999GJ100009MD1210011+9999MW1531REMSYN076AAXX  04031 26882 41/08 91302 10079 20079 40244 52001 75354 333 55000 96045;
0202268820999992000110406004+53960+032840FM-12+021799999V0201401N004010018019N0035001N1+00781+00621102481ADDAA112000391AY151061AY241061GA1081+001809069GF108991081061001501999999KA1120N+00771MD1210041+9999MW1101REMSYN088AAXX  04061 26882 11235 81404 10078 20062 40248 52004 69932 71054 886// 333 20077 88706;
0166268820999992000110409004+53960+032840FM-12+021799999V0201501N004010015019N0021001N1+00801+00761102541ADDAY151031AY221031GA1081+001509069GF108991081061001501999999MD1210061+9999MW1511REMSYN076AAXX  04091 26882 41221 81504 10080 20076 40254 52006 75152 886// 333 88705;
0187268820999992000110412004+53960+032840FM-12+021799999V0201401N004010015019N0021001N1+00831+00811102551ADDAY151061AY221061GA1081+001509069GF108991081061001501999999MA1999999099811MD1210011+9999MW1101REMSYN082AAXX  04121 26882 41221 81404 10083 20081 39981 40255 52001 71052 886// 333 88705;
0166268820999992000110415004+53960+032840FM-12+021799999V0201501N004010039019N0045001N1+00831+00731102551ADDAY121031AY221031GA1071+003909059GF107991071051004501001001MD1410001+9999MW1101REMSYN076AAXX  04151 26882 41445 71504 10083 20073 40255 54000 71022 87500 333 87613;
0202268820999992000110418004+53960+032840FM-12+021799999V0201501N006010030019N0060001N1+00731+00671102611ADDAA112000791AY121061AY221061GA1081+003009069GF108991081061002501999999KA1120M+00841MD1210041+9999MW1101REMSYN088AAXX  04181 26882 11356 81506 10073 20067 40261 52004 69902 71022 886// 333 10084 88710;
0166268820999992000110421004+53960+032840FM-12+021799999V0201401N004010024019N0060001N1+00671+00601102601ADDAY121031AY221031GA1081+002409069GF108991081061002501999999MD1810011+9999MW1101REMSYN076AAXX  04211 26882 41356 81404 10067 20060 40260 58001 71022 886// 333 88708;
0159268820999992000110500004+53960+032840FM-12+021799999V0201601N003010036019N0140001N1+00731+00621102541ADDGA1071+003609059GF107991071051004501001001MA1999999099781MD1710061+9999REMSYN076AAXX  05001 26882 42464 71603 10073 20062 39978 40254 57006 87500 333 87612;
0180268820999992000110503004+53960+032840FM-12+021799999V0201401N003010012019N0040001N1+00781+00741102421ADDAY121031AY221031GA1081+001209069GF108991081061001501999999GJ100009MD1710101+9999MW1101REMSYN082AAXX  05031 26882 41240 81403 10078 20074 40242 57010 71022 886// 333 55000 88704;
0215268820999992000110506004+53960+032840FM-12+021799999V0201401N003010018019N0030001N1+00901+00841102311ADDAA199000091AY121061AY221061GA1081+001809069GF108991081061001501999999KA1120N+00661MD1710101+9999MW1101REMSYN082AAXX  05061 26882 31230 81403 10090 20084 40231 57010 71022 886// 333 20066 88706;EQDQ01  00002PRCP99
0138268820999992000110509004+53960+032840FM-12+021799999V0201501N006010078019N0120001N1+01001+00651102251ADDGA1071+007809059GF107991071051008001001001MD1710051+9999REMSYN070AAXX  05091 26882 42562 71506 10100 20065 40225 57005 87500 333 87626;
0159268820999992000110512004+53960+032840FM-12+021799999V0201601N007010072019N0150001N1+01041+00701102081ADDGA1071+007209059GF107991071051008001001001MA1999999099381MD1710151+9999REMSYN076AAXX  05121 26882 42565 71607 10104 20070 39938 40208 57015 87500 333 87624;
0138268820999992000110515004+53960+032840FM-12+021799999V0201501N006010060019N0160001N1+00911+00611102011ADDGA1071+006009059GF107991071051004501001001MD1710101+9999REMSYN070AAXX  05151 26882 42466 71506 10091 20061 40201 57010 87500 333 87620;
0187268820999992000110518004+53960+032840FM-12+021799999V0201501N005010048019N0100001N1+00841+00641101981ADDAA199000091GA1071+004809059GF107991071051004501001001KA1120M+01051MD1710021+9999REMSYN076AAXX  05181 26882 32460 71505 10084 20064 40198 57002 87500 333 10105 87616;EQDQ01  00002PRCP99
0166268820999992000110521004+53960+032840FM-12+021799999V0201601N005010045019N0100001N1+00771+00641101971ADDAY161031AY221031GA1071+004509059GF107991071051004501001001MD1710021+9999MW1021REMSYN076AAXX  05211 26882 41460 71605 10077 20064 40197 57002 70262 87500 333 87615;
0206268820999992000110600004+53960+032840FM-12+021799999V0201301N003010036019N0080001N1+00691+00621101981ADDAY161061AY221061GA1081+003609069GF108991999071004501021999MA1999999099241MD1410001+9999MW1611REMSYN082AAXX  06001 26882 41458 81303 10069 20062 39924 40198 54000 76162 8872/ 333 88712;EQDQ01+000082SCOTLC
0199268820999992000110603004+53960+032840FM-12+021799999V0201701N003010018019N0035001N1+00751+00731101971ADDAY161031AY221031GA1081+001809069GF108991999071001501021999GJ100009MD1410001+9999MW1611REMSYN082AAXX  06031 26882 41235 81703 10075 20073 40197 54000 76162 8872/ 333 55000 88706;EQDQ01+000082SCOTLC
0196268820999992000110606004+53960+032840FM-12+021799999V0201601N003010006019N0007001N1+00771+00771102071ADDAA112001091AY161061AY251061GA1091+999999999GF109991091999999999999999KA1120N+00671MD1310101+9999MW1531REMSYN082AAXX  06061 26882 11/07 91603 10077 20077 40207 53010 60012 75365 333 20067 96045;
0160268820999992000110609004+53960+032840FM-12+021799999V0201401N003010006019N0009001N1+00651+00651102131ADDAY151031AY241031GA1091+999999999GF109991091999999999999999MD1210051+9999MW1511REMSYN070AAXX  06091 26882 41/09 91403 10065 20065 40213 52005 75154 333 96043;
0187268820999992000110612004+53960+032840FM-12+021799999V0201301N004010018019N0045001N1+00651+00581102101ADDAY151061AY241061GA1081+001809069GF108991081061001501999999MA1999999099361MD1810031+9999MW1101REMSYN082AAXX  06121 26882 41245 81304 10065 20058 39936 40210 58003 71054 886// 333 88706;
0166268820999992000110615004+53960+032840FM-12+021799999V0201201N003010018019N0048001N1+00551+00531102131ADDAY121031AY221031GA1081+001809069GF108991081061001501999999MD1310021+9999MW1101REMSYN076AAXX  06151 26882 41248 81203 10055 20053 40213 53002 71022 886// 333 88706;
0202268820999992000110618004+53960+032840FM-12+021799999V0201201N003010015019N0050001N1+00561+00511102071ADDAA112001091AY151061AY221061GA1081+001509069GF108991081061001501999999KA1120M+00771MD1810061+9999MW1511REMSYN088AAXX  06181 26882 11250 81203 10056 20051 40207 58006 60012 75152 886// 333 10077 88705;
0166268820999992000110621004+53960+032840FM-12+021799999V0201201N004010021019N0060001N1+00611+00561102061ADDAY151031AY221031GA1081+002109069GF108991081061002501999999MD1710011+9999MW1101REMSYN076AAXX  06211 26882 41356 81204 10061 20056 40206 57001 71052 886// 333 88707;
0187268820999992000110700004+53960+032840FM-12+021799999V0201401N004010033019N0150001N1+00521+00451102081ADDAY151061AY221061GA1071+003309059GF107991071051004501001001MA1999999099321MD1310011+9999MW1021REMSYN082AAXX  07001 26882 41465 71404 10052 20045 39932 40208 53001 70252 87500 333 87611;
0152268820999992000110703004+53960+032840FM-12+021799999V0201301N006010039019N0260001N1+00451+00351102091ADDGA1071+003909059GF107991071051004501001001GJ100009MD1410001+9999REMSYN076AAXX  07031 26882 42476 71306 10045 20035 40209 54000 87500 333 55000 87613;
0202268820999992000110706004+53960+032840FM-12+021799999V0201401N006010024019N0070001N1+00331+00201102181ADDAA112002091AY161061AY221061GA1081+002409069GF108991081071002501999999KA1120N+00311MD1310081+9999MW1101REMSYN088AAXX  07061 26882 11357 81406 10033 20020 40218 53008 60022 71062 887// 333 20031 88708;
0165268820999992000110709004+53960+032840FM-12+021799999V0201201N005010012019N0030001N1+00281+00201102211ADDAY151031AY221031GA1081+001209069GF108991081061001501999999MD1210031+9999MW1511REMSYN075AAXX  07091 26882 41230 81205 10028 20020 40221 52003 75152 886// 33388704;
0206268820999992000110712004+53960+032840FM-12+021799999V0201301N007010021019N0012001N1+00351+00271102161ADDAY161061AY251061GA1081+002109069GF108991999071002501021999MA1999999099381MD1810051+9999MW1631REMSYN082AAXX  07121 26882 41312 81307 10035 20027 39938 40216 58005 76365 8872/ 333 88707;EQDQ01+000082SCOTLC
0159268820999992000110715004+53960+032840FM-12+021799999V0201301N008010021019N0300001N1+00341+00211102221ADDAY161031AY221031GF108991999051002501001001MD1310061+9999MW1021REMSYN066AAXX  07151 26882 41380 81308 10034 20021 40222 53006 70262 87500;EQDQ01+000072SCOTLC
0202268820999992000110718004+53960+032840FM-12+021799999V0201301N008010024019N0150001N1+00351+00221102241ADDAA112000891AY161061AY221061GA1071+002409059GF107991071051002501001001KA1120M+00451MD1210011+9999MW1021REMSYN088AAXX  07181 26882 41365 71308 10035 20022 40224 52001 69972 70262 87500 333 10045 87608;
0144268820999992000110721004+53960+032840FM-12+021799999V0201401N009010033019N0170001N1+00331+00181102241ADDGA1071+003309069GF107991071051004501001001MD1410001+9999REMSYN076AAXX  07211 26882 42467 71409 10033 20018 40224 54000 87500 333 87611 91113;
0212268820999992000110800004+53960+032840FM-12+021799999V0201301N009010030019N0100001N1+00441+00241102231ADDAY161061AY221061GA1081+003009079GF108991999071002501021999MA1999999099451MD1410001+9999MW1611REMSYN088AAXX  08001 26882 41360 81309 10044 20024 39945 40223 54000 76162 8872/ 333 88710 91113;EQDQ01+000082SCOTLC
0223268820999992000110806004+53960+032840FM-12+021799999V0201301N008010048019N0200001N1+00341+99999102101ADDAA112000891AY161061AY221061GA1071+004809069GF107991071051004501001001KA1120N+00331MA1999999100081MD1710071+9999MW1021REMSYN094AAXX  08061 26882 11470 71308 10034 30008 40210 57007 69982 70262 87500 333 20033 87616 91117;
0138268820999992000110809004+53960+032840FM-12+021799999V0201301N010010054019N0200001N1+00161-00061102151ADDGA1071+005409059GF107991071051004501001001MD1210041+9999REMSYN070AAXX  08091 26882 42470 71310 10016 21006 40215 52004 87500 333 87618;
0212268820999992000110812004+53960+032840FM-12+021799999V0201401N007010042019N0080001N1+00141+00031102151ADDAY161061AY221061GA1081+004209079GF108991999071004501021999MA1999999099351MD1410001+9999MW1631REMSYN088AAXX  08121 26882 41458 81407 10014 20003 39935 40215 54000 76362 8872/ 333 88714 91118;EQDQ01+000082SCOTLC
0166268820999992000110815004+53960+032840FM-12+021799999V0201301N007010057019N0120001N1+00111+00031102201ADDAY161031AY221031GA1071+005709059GF107991071051004501001001MD1210051+9999MW1021REMSYN076AAXX  08151 26882 41462 71307 10011 20003 40220 52005 70262 87500 333 87619;
0227268820999992000110818004+53960+032840FM-12+021799999V0201501N006010024019N0044001N1+00141+00031102271ADDAA112011991AY161061AY221061GA1081+002409079GF108991999071002501021999KA1120M+00351MD1210061+9999MW1631REMSYN094AAXX  08181 26882 11344 81506 10014 20003 40227 52006 60122 76362 8872/ 333 10035 88708 91116;EQDQ01+000082SCOTLC
0185268820999992000110821004+53960+032840FM-12+021799999V0201401N007010027019N0130001N1+00131+00051102261ADDAY161031AY221031GA1081+002709069GF108991999071002501021999MD1810011+9999MW1611REMSYN076AAXX  08211 26882 41363 81407 10013 20005 40226 58001 76162 8872/ 333 88709;EQDQ01+000082SCOTLC
0187268820999992000110900004+53960+032840FM-12+021799999V0201501N007010036019N0180001N1+00121+00011102221ADDAY161061AY221061GA1071+003609059GF107991071051004501001001MA1999999099421MD1710031+9999MW1021REMSYN082AAXX  09001 26882 41468 71507 10012 20001 39942 40222 57003 70262 87500 333 87612;
0205268820999992000110903004+53960+032840FM-12+021799999V0201501N007010018019N0070001N1+00101+00051102271ADDAY161031AY221031GA1081+001809079GF108991999071001501021999GJ100009MD1210041+9999MW1611REMSYN088AAXX  09031 26882 41257 81507 10010 20005 40227 52004 76162 8872/ 333 55000 88706 91113;EQDQ01+000082SCOTLC
0202268820999992000110906004+53960+032840FM-12+021799999V0201601N007010021019N0035001N1+00081+00031102481ADDAA112010991AY161061AY221061GA1071+002109059GF107991071051002501001001KA1120N+00081MD1210201+9999MW1101REMSYN088AAXX  09061 26882 11335 71607 10008 20003 40248 52020 60112 71062 87500 333 20008 87607;
0166268820999992000110909004+53960+032840FM-12+021799999V0201601N006010015019N0030001N1+00091+00011102611ADDAY121031AY221031GA1081+001509069GF108991081061001501999999MD1210121+9999MW1101REMSYN076AAXX  09091 26882 41230 81606 10009 20001 40261 52012 71022 886// 333 88705;
0187268820999992000110912004+53960+032840FM-12+021799999V0201501N006010021019N0049001N1+00031-00051102631ADDAY121061AY221061GA1081+002109069GF108991081061002501999999MA1999999099801MD1110021+9999MW1101REMSYN082AAXX  09121 26882 41349 81506 10003 21005 39980 40263 51002 71022 886// 333 88707;
0166268820999992000110915004+53960+032840FM-12+021799999V0201401N007010030019N0050001N1-00021-00111102631ADDAY121031AY221031GA1071+003009059GF107991071051002501001001MD1710011+9999MW1101REMSYN076AAXX  09151 26882 41350 71407 11002 21011 40263 57001 71022 87500 333 87610;
0180268820999992000110918004+53960+032840FM-12+021799999V0201401N005010042019N0080001N1-00061-00241102631ADDAA112000391AY161061AY221061GF107991071051004501001001KA1999M+00091MD1410001+9999MW1101REMSYN082AAXX  09181 26882 11458 71405 11006 21024 40263 54000 69932 71062 87500 333 10009;
0166268820999992000110921004+53960+032840FM-12+021799999V0201401N006010078019N0090001N1-00101-00321102451ADDAY121031AY221031GA1071+007809059GF107991071051008001001001MD1710181+9999MW1101REMSYN076AAXX  09211 26882 41559 71406 11010 21032 40245 57018 71022 87500 333 87626;
0187268820999992000111000004+53960+032840FM-12+021799999V0201501N005010039019N0080001N1-00071-00201102291ADDAY121061AY221061GA1071+003909059GF107991071051004501001001MA1999999099461MD1710151+9999MW1101REMSYN082AAXX  10001 26882 41458 71505 11007 21020 39946 40229 57015 71022 87500 333 87613;
0199268820999992000111003004+53960+032840FM-12+021799999V0201501N005010021019N0043001N1-00021-00031102161ADDAY171031AY261031GA1081+002109069GF108991999071002501021999GJ100009MD1710121+9999MW1711REMSYN082AAXX  10031 26882 42343 81505 11002 21003 40216 57012 77176 8872/ 333 55000 88707;EQDQ01+000082SCOTLC
0208268820999992000111006004+53960+032840FM-12+021799999V0201601N006010015019N0032001N1-00021-00111102171ADDAA112001091AY171061AY261061GA1081+001509079GF108991081061001501999999KA1120N-00101MD1310011+9999MW1511REMSYN094AAXX  10061 26882 11232 81606 11002 21011 40217 53001 60012 75176 886// 333 21010 88705 93402;
0172268820999992000111009004+53960+032840FM-12+021799999V0201601N005010015019N0050001N1+00031-00051102141ADDAY151031AY221031GA1081+001509079GF108991081061001501999999MD1810021+9999MW1241REMSYN082AAXX  10091 26882 41250 81605 10003 21005 40214 58002 72452 886// 333 88705 93403;
0181268820999992000111012004+53960+032840FM-12+021799999V0201701N006010006019N0007001N1+00051+00051102151ADDAY151061AY241061GA1091+999999999GF109991091999999999999999MA1999999099341MD1310011+9999MW1511REMSYN076AAXX  10121 26882 41/07 91706 10005 20005 39934 40215 53001 75154 333 96047;
0150268820999992000111015004+53960+032840FM-12+021799999V0201601N005010006019N0008001N1+00081+00081102221ADDAY151031AY241031GA1091+999999999GF109991091999999999999999MD1210071+9999MW1451REMSYN060AAXX  10151 26882 41/08 91605 10008 20008 40222 52007 74554;
0202268820999992000111018004+53960+032840FM-12+021799999V0201701N005010009019N0013001N1+00091+00061102271ADDAA112000591AY151061AY241061GA1081+000909069GF108991081061000751999999KA1120M+00101MD1210051+9999MW1281REMSYN088AAXX  10181 26882 11113 81705 10009 20006 40227 52005 69942 72854 886// 333 10010 88703;
0166268820999992000111021004+53960+032840FM-12+021799999V0201801N005010012019N0010001N1+00121+00071102341ADDAY121031AY221031GA1081+001209069GF108991081061001501999999MD1210071+9999MW1101REMSYN076AAXX  10211 26882 41210 81805 10012 20007 40234 52007 71022 886// 333 88704;
0187268820999992000111100004+53960+032840FM-12+021799999V0201601N005010012019N0010001N1+00141+00091102331ADDAY121061AY221061GA1081+001209069GF108991081061001501999999MA1999999099521MD1710011+9999MW1101REMSYN082AAXX  11001 26882 41210 81605 10014 20009 39952 40233 57001 71022 886// 333 88704;
0160268820999992000111103004+53960+032840FM-12+021799999V0201501N002010003019N0003001N1+00131+00101102291ADDAY121031AY221031GA1091+999999999GF109991091999999999999999MD1710041+9999MW1471REMSYN070AAXX  11031 26882 41/03 91502 10013 20010 40229 57004 74722 333 55000;
0176268820999992000111106004+53960+032840FM-12+021799999V0201601N003010003019N0002001N1+00121+00121102291ADDAA112000791AY161061AY241061GA1091+999999999GF109991091999999999999999KA1120N+00061MW1611REMSYN076AAXX  11061 26882 11/92 91603 10012 20012 40229 69902 76164 333 20006 96045;
0185268820999992000111109004+53960+032840FM-12+021799999V0201701N002010015019N0021001N1+00211+00181102321ADDAY161031AY221031GA1081+001509069GF108991999071001501021999MD1310041+9999MW1611REMSYN076AAXX  11091 26882 41221 81702 10021 20018 40232 53004 76162 8872/ 333 88705;EQDQ01+000082SCOTLC
0206268820999992000111112004+53960+032840FM-12+021799999V0201701N002010012019N0020001N1+00271+00221102291ADDAY161061AY241061GA1081+001209069GF108991999071001501021999MA1999999099491MD1710031+9999MW1611REMSYN082AAXX  11121 26882 41220 81702 10027 20022 39949 40229 57003 76164 8872/ 333 88704;EQDQ01+000082SCOTLC
0185268820999992000111115004+53960+032840FM-12+021799999V0201801N003010012019N0060001N1+00231+00211102311ADDAY161031AY251031GA1081+001209069GF108991999071001501021999MD1310021+9999MW1611REMSYN076AAXX  11151 26882 41256 81803 10023 20021 40231 53002 76165 8872/ 333 88704;EQDQ01+000082SCOTLC
0221268820999992000111118004+53960+032840FM-12+021799999V0201801N002010012019N0013001N1+00201+00171102311ADDAA112003091AY161061AY251061GA1081+001209069GF108991999071001501021999KA1120M+00271MD1410001+9999MW1611REMSYN088AAXX  11181 26882 11213 81802 10020 20017 40231 54000 60032 76165 8872/ 333 10027 88704;EQDQ01+000082SCOTLC
0160268820999992000111121004+53960+032840FM-12+021799999V0202101N003010006019N0006001N1+00201+00201102311ADDAY161031AY251031GA1091+999999999GF109991091999999999999999MD1410001+9999MW1531REMSYN070AAXX  11211 26882 41/06 92103 10020 20020 40231 54000 75365 333 96047;
0181268820999992000111200004+53960+032840FM-12+021799999V0202201N003010006019N0007001N1+00201+00201102311ADDAY161061AY251061GA1091+999999999GF109991091999999999999999MA1999999099511MD1410001+9999MW1531REMSYN076AAXX  12001 26882 41/07 92203 10020 20020 39951 40231 54000 75365 333 96045;
0180268820999992000111203004+53960+032840FM-12+021799999V0202801N003010012019N0050001N1+00181+00131102321ADDAY151031AY241031GA1081+001209069GF108991081061001501999999GJ100009MD1310011+9999MW1281REMSYN082AAXX  12031 26882 41250 82803 10018 20013 40232 53001 72854 886// 333 55000 88704;
0202268820999992000111206004+53960+032840FM-12+021799999V0202501N002010018019N0050001N1+00201+00151102331ADDAA112000391AY151061AY241061GA1081+001809069GF108991081061001501999999KA1120N+00181MD1210011+9999MW1101REMSYN088AAXX  12061 26882 11250 82502 10020 20015 40233 52001 69932 71054 886// 333 20018 88706;
0166268820999992000111209004+53960+032840FM-12+021799999V0202601N003010018019N0035001N1+00241+00191102411ADDAY121031AY221031GA1081+001809069GF108991081061001501999999MD1210081+9999MW1101REMSYN076AAXX  12091 26882 41235 82603 10024 20019 40241 52008 71022 886// 333 88706;
0187268820999992000111212004+53960+032840FM-12+021799999V0202601N004010033019N0060001N1+00281+00201102401ADDAY121061AY221061GA1071+003309059GF107991071051004501001001MA1999999099611MD1410001+9999MW1101REMSYN082AAXX  12121 26882 41456 72604 10028 20020 39961 40240 54000 71022 87500 333 87611;
0166268820999992000111215004+53960+032840FM-12+021799999V0202601N004010018019N0035001N1+00301+00251102431ADDAY121031AY221031GA1081+001809069GF108991081061001501999999MD1210031+9999MW1101REMSYN076AAXX  12151 26882 41235 82604 10030 20025 40243 52003 71022 886// 333 88706;
0215268820999992000111218004+53960+032840FM-12+021799999V0202701N004010012019N0036001N1+00321+00271102411ADDAA199000091AY121061AY221061GA1081+001209069GF108991081061001501999999KA1120M+00321MD1810021+9999MW1101REMSYN082AAXX  12181 26882 31236 82704 10032 20027 40241 58002 71022 886// 333 10032 88704;EQDQ01  00002PRCP99
0166268820999992000111221004+53960+032840FM-12+021799999V0202601N003010015019N0030001N1+00321+00301102451ADDAY121031AY221031GA1081+001509069GF108991081061001501999999MD1310041+9999MW1101REMSYN076AAXX  12211 26882 41230 82603 10032 20030 40245 53004 71022 886// 333 88705;
0187268820999992000111300004+53960+032840FM-12+021799999V0202601N003010021019N0049001N1+00321+00071102471ADDAY121061AY221061GA1081+002109069GF108991081061002501999999MA1999999099681MD1210021+9999MW1101REMSYN082AAXX  13001 26882 41349 82603 10032 20007 39968 40247 52002 71022 886// 333 88707;
0180268820999992000111303004+53960+032840FM-12+021799999V0202601N002010021019N0080001N1+00261+00181102481ADDAY121031AY221031GA1081+002109069GF108991081061002501999999GJ100009MD1410001+9999MW1101REMSYN082AAXX  13031 26882 41358 82602 10026 20018 40248 54000 71022 886// 333 55000 88707;
0215268820999992000111306004+53960+032840FM-12+021799999V0202501N002010021019N0080001N1+00271+00191102511ADDAA199000091AY121061AY221061GA1081+002109069GF108991081061002501999999KA1120N+00221MD1310031+9999MW1101REMSYN082AAXX  13061 26882 31358 82502 10027 20019 40251 53003 71022 886// 333 20022 88707;EQDQ01  00002PRCP99
0138268820999992000111309004+53960+032840FM-12+021799999V0201801N002010048019N0180001N1+00311+00051102451ADDGA1071+004809059GF107991071051004501001001MD1810051+9999REMSYN070AAXX  13091 26882 42468 71802 10031 20005 40245 58005 87500 333 87616;
0159268820999992000111312004+53960+032840FM-12+021799999V02099999999990045019N0210001N1+00291+00081102421ADDGA1071+004509059GF109991091999999999999999MA1999999099631MD1710031+9999REMSYN076AAXX  13121 26882 42971 904// 10029 20008 39963 40242 57003 87500 333 87615;
0187268820999992000111318004+53960+032840FM-12+021799999V0201301N003010036019N0190001N1+00231+00101102331ADDAA199000091GA1071+003609059GF107991071051004501001001KA1120M+00311MD1710031+9999REMSYN076AAXX  13181 26882 32469 71303 10023 20010 40233 57003 87500 333 10031 87612;EQDQ01  00002PRCP99
0138268820999992000111321004+53960+032840FM-12+021799999V0201201N004010033019N0150001N1+00201+00091102351ADDGA1071+003309059GF107991071051004501001001MD1410001+9999REMSYN070AAXX  13211 26882 42465 71204 10020 20009 40235 54000 87500 333 87611;
0159268820999992000111400004+53960+032840FM-12+021799999V0201301N004010033019N0120001N1+00151+00071102291ADDGA1071+003309059GF107991071051004501001001MA1999999099481MD1710051+9999REMSYN076AAXX  14001 26882 42462 71304 10015 20007 39948 40229 57005 87500 333 87611;
0180268820999992000111403004+53960+032840FM-12+021799999V0201201N004010030019N0080001N1+00221+00171102201ADDAY121031AY221031GA1071+003009059GF107991071051002501001001GJ100009MD1710071+9999MW1101REMSYN082AAXX  14031 26882 41358 71204 10022 20017 40220 57007 71022 87500 333 55000 87610;
0196268820999992000111406004+53960+032840FM-12+021799999V0201301N004010003019N0005001N1+00261+00261102191ADDAA112000791AY151061AY241061GA1091+999999999GF109991091999999999999999KA1120N+00151MD1610011+9999MW1531REMSYN082AAXX  14061 26882 11/05 91304 10026 20026 40219 56001 69902 75354 333 20015 96047;
0166268820999992000111409004+53960+032840FM-12+021799999V0201301N003010012019N0017001N1+00341+00291102191ADDAY151031AY241031GA1081+001209069GF108991081061001501999999MD1310011+9999MW1281REMSYN076AAXX  14091 26882 41217 81303 10034 20029 40219 53001 72854 886// 333 88704;
0187268820999992000111412004+53960+032840FM-12+021799999V0201501N004010012019N0035001N1+00421+00321102111ADDAY151061AY241061GA1081+001209069GF108991081061001501999999MA1999999099341MD1810071+9999MW1511REMSYN082AAXX  14121 26882 41235 81504 10042 20032 39934 40211 58007 75154 886// 333 88704;
0166268820999992000111415004+53960+032840FM-12+021799999V0201401N003010012019N0032001N1+00411+00361102131ADDAY151031AY221031GA1081+001209069GF108991081061001501999999MD1310021+9999MW1511REMSYN076AAXX  14151 26882 41232 81403 10041 20036 40213 53002 75152 886// 333 88704;
0202268820999992000111418004+53960+032840FM-12+021799999V0201501N003010018019N0050001N1+00451+00351102071ADDAA112000791AY151061AY221061GA1081+001809069GF108991081061001501999999KA1120M+00451MD1810061+9999MW1101REMSYN088AAXX  14181 26882 11250 81503 10045 20035 40207 58006 69902 71052 886// 333 10045 88706;
0166268820999992000111421004+53960+032840FM-12+021799999V0201501N005010018019N0050001N1+00491+00441102001ADDAY121031AY221031GA1081+001809069GF108991081061001501999999MD1710061+9999MW1101REMSYN076AAXX  14211 26882 41250 81505 10049 20044 40200 57006 71022 886// 333 88706;
0187268820999992000111500004+53960+032840FM-12+021799999V0201501N005010015019N0020001N1+00541+00521101931ADDAY121061AY221061GA1081+001509069GF108991081061001501999999MA1999999099171MD1710071+9999MW1101REMSYN082AAXX  15001 26882 41220 81505 10054 20052 39917 40193 57007 71022 886// 333 88705;
0180268820999992000111503004+53960+032840FM-12+021799999V0201601N006010021019N0050001N1+00671+00631101801ADDAY121031AY221031GA1081+002109069GF108991081061002501999999GJ100009MD1710101+9999MW1101REMSYN082AAXX  15031 26882 41350 81606 10067 20063 40180 57010 71022 886// 333 55000 88707;
0215268820999992000111506004+53960+032840FM-12+021799999V0201901N006010018019N0025001N1+00721+00681101801ADDAA199000091AY121061AY221061GA1081+001809069GF108991081061001501999999KA1120N+00451MD1410001+9999MW1101REMSYN082AAXX  15061 26882 31225 81906 10072 20068 40180 54000 71022 886// 333 20045 88706;EQDQ01  00002PRCP99
0166268820999992000111509004+53960+032840FM-12+021799999V0201901N006010027019N0036001N1+00771+00681101791ADDAY121031AY221031GA1081+002709069GF108991081061002501999999MD1410001+9999MW1101REMSYN076AAXX  15091 26882 41336 81906 10077 20068 40179 54000 71022 886// 333 88709;
0187268820999992000111512004+53960+032840FM-12+021799999V0201801N006010027019N0043001N1+00771+00641101771ADDAY121061AY221061GA1081+002709069GF108991081061002501999999MA1999999099051MD1810021+9999MW1101REMSYN082AAXX  15121 26882 41343 81806 10077 20064 39905 40177 58002 71022 886// 333 88709;
0166268820999992000111515004+53960+032840FM-12+021799999V0201901N007010042019N0060001N1+00751+00591101731ADDAY121031AY221031GA1071+004209059GF107991071051004501001001MD1710041+9999MW1101REMSYN076AAXX  15151 26882 41456 71907 10075 20059 40173 57004 71022 87500 333 87614;
0187268820999992000111518004+53960+032840FM-12+021799999V0202001N008010042019N0160001N1+00771+00621101741ADDAA199000091GA1071+004209059GF107991071051004501001001KA1120M+00791MD1310011+9999REMSYN076AAXX  15181 26882 32466 72008 10077 20062 40174 53001 87500 333 10079 87614;EQDQ01  00002PRCP99
0138268820999992000111521004+53960+032840FM-12+021799999V0202101N006010030019N0150001N1+00761+00621101751ADDGA1071+003009059GF107991071051002501001001MD1210011+9999REMSYN070AAXX  15211 26882 42365 72106 10076 20062 40175 52001 87500 333 87610;
0187268820999992000111600004+53960+032840FM-12+021799999V0202201N006010027019N0080001N1+00851+00741101801ADDAY121061AY221061GA1071+002709059GF108991071051002501001001MA1999999099081MD1210061+9999MW1101REMSYN082AAXX  16001 26882 41358 82206 10085 20074 39908 40180 52006 71022 87500 333 87609;
0180268820999992000111603004+53960+032840FM-12+021799999V0202401N004010030019N0080001N1+00801+00761101951ADDAY121031AY221031GA1071+003009059GF107991071051002501001001GJ100009MD1210131+9999MW1101REMSYN082AAXX  16031 26882 41358 72404 10080 20076 40195 52013 71022 87500 333 55000 87610;
0187268820999992000111606004+53960+032840FM-12+021799999V0202901N002010039019N0120001N1+00741+00511102031ADDAA199000091GA1071+003909059GF107991071051004501001001KA1120N+00741MD1210071+9999REMSYN076AAXX  16061 26882 32462 72902 10074 20051 40203 52007 87500 333 20074 87613;EQDQ01  00002PRCP99
0166268820999992000111609004+53960+032840FM-12+021799999V0202601N001010036019N0080001N1+00781+00701102031ADDAY121031AY221031GA1071+003609059GF107991071051004501001001MD1210011+9999MW1101REMSYN076AAXX  16091 26882 41458 72601 10078 20070 40203 52001 71022 87500 333 87612;
0187268820999992000111612004+53960+032840FM-12+021799999V0201201N002010018019N0035001N1+00751+00681101831ADDAY151061AY221061GA1081+001809069GF108991081061001501999999MA1999999099111MD1710191+9999MW1531REMSYN082AAXX  16121 26882 41235 81202 10075 20068 39911 40183 57019 75352 886// 333 88706;
0150268820999992000111615004+53960+032840FM-12+021799999V0201401N003010003019N0004001N1+00731+00731101401ADDAY161031AY251031GA1091+999999999GF109991091999999999999999MD1710431+9999MW1451REMSYN060AAXX  16151 26882 41/04 91403 10073 20073 40140 57043 74565;
0202268820999992000111618004+53960+032840FM-12+021799999V0201701N007010024019N0100001N1+00751+00681100951ADDAA112006191AY161061AY251061GA1081+002409069GF108991081071002501999999KA1120M+00821MD1710431+9999MW1021REMSYN088AAXX  16181 26882 11360 81707 10075 20068 40095 57043 60062 70265 887// 333 10082 88708;
0208268820999992000111621004+53960+032840FM-12+021799999V0202101N009010036019N0042001N1+00851+00781100751ADDAY161031AY221031GA1081+003609079GF108991999071004501021999MD1710191+9999MW1631OA140101201REMSYN088AAXX  16211 26882 41442 82109 10085 20078 40075 57019 76362 8872/ 333 88712 91012 91114;EQDQ01+000082SCOTLC
0210268820999992000111700004+53960+032840FM-12+021799999V0203001N012010048019N0500001N1+00531+00411100981ADDAY161061AY221061GA1071+004809069GF107991071051004501001001MA1999999098251MD1310191+9999MW1021OA140101601REMSYN094AAXX  17001 26882 41484 73012 10053 20041 39825 40098 53019 70262 87500 333 87616 91016 91119;
0194268820999992000111703004+53960+032840FM-12+021799999V0203001N009010036019N0500001N1+00301+00121101682ADDGA1071+003609069GF107991071051004501001001GJ100009MD1210661+9999OA140101301REMSYN088AAXX  17031 26882 42484 73009 10030 20012 40168 52066 87500 333 55000 87612 91013 91117;EQDQ01+101683APOSLP
0152268820999992000111706004+53960+032840FM-12+021799999V0203101N003012200019N0200001N1+00271+00141102111ADDAA112000591GF102991021061004501031011KA1999N+00251MD1210411+9999REMSYN076AAXX  17061 26882 12470 23103 10027 20014 40211 52041 69962 82631 333 20025;
0138268820999992000111709004+53960+032840FM-12+021799999V0202801N004010048019N0200001N1+00471+00271102361ADDGA1071+004809059GF107991071051004501001001MD1210261+9999REMSYN070AAXX  17091 26882 42470 72804 10047 20027 40236 52026 87500 333 87616;
0133268820999992000111712004+53960+032840FM-12+021799999V0203201N004012200019N0200001N1+00581+00261102411ADDGF103991021051004501031001MA1999999099651MD1110071+9999REMSYN066AAXX  17121 26882 42470 33204 10058 20026 39965 40241 51007 82530;
0112268820999992000111715004+53960+032840FM-12+021799999V0202501N003010300019N0300001N1+00411+00291102571ADDGF106991021051004501031001MD1210141+9999REMSYN060AAXX  17151 26882 42480 62503 10041 20029 40257 52014 82530;
0165268820999992000111718004+53960+032840FM-12+021799999V0202201N002019999999N0350001N1+00351+00251102651ADDAA199000091GF107991071001999999031001KA1999M+00621MD1210061+9999REMSYN070AAXX  17181 26882 32981 72202 10035 20025 40265 52006 87030 333 10062;EQDQ01  00002PRCP99
0112268820999992000111721004+53960+032840FM-12+021799999V0209999C000019999999N0200001N1+00301+00221102751ADDGF107991071001999999031001MD1210101+9999REMSYN060AAXX  17211 26882 42970 70000 10030 20022 40275 52010 87030;
0133268820999992000111800004+53960+032840FM-12+021799999V0209999C000019999999N0150001N1+00251+00201102761ADDGF107991071001999999031001MA1999999099951MD1410001+9999REMSYN066AAXX  18001 26882 42965 70000 10025 20020 39995 40276 54000 87030;
0122268820999992000111803004+53960+032840FM-12+021799999V0201601N004019999999N0180001N1+00151+00011102771ADDGF107991071001999999031001MD1410001+9999REMSYN070AAXX  18031 26882 42968 71604 10015 20001 40277 54000 87030 333 55012;
0165268820999992000111806004+53960+032840FM-12+021799999V0201401N002019999999N0200001N1+00241+00141102791ADDAA199000091GF107991071001999999051001KA1999N+00141MD1310031+9999REMSYN070AAXX  18061 26882 32970 71402 10024 20014 40279 53003 87050 333 20014;EQDQ01  00002PRCP99
0112268820999992000111809004+53960+032840FM-12+021799999V0201601N004010300019N0200001N1+00341+00081102731ADDGF107991041051008001031001MD1810051+9999REMSYN060AAXX  18091 26882 42570 71604 10034 20008 40273 58005 84530;
0133268820999992000111812004+53960+032840FM-12+021799999V0201601N005019999999N0200001N1+00421+00111102541ADDGF108991081001999999071999MA1999999099761MD1710171+9999REMSYN066AAXX  18121 26882 42970 81605 10042 20011 39976 40254 57017 8807/;
0165268820999992000111818004+53960+032840FM-12+021799999V0201601N005019999999N0500001N1+00361+00101102181ADDAA199000091GF108991001001999999001071KA1999M+00421MD1710241+9999REMSYN070AAXX  18181 26882 32984 81605 10036 20010 40218 57024 80007 333 10042;EQDQ01  00002PRCP99
0138268820999992000111821004+53960+032840FM-12+021799999V0202001N004010036019N0400001N1+00381+00181102111ADDGA1071+003609059GF107991071051004501001001MD1710061+9999REMSYN070AAXX  18211 26882 42482 72004 10038 20018 40211 57006 87500 333 87612;
0187268820999992000111900004+53960+032840FM-12+021799999V0201901N004010024019N0060001N1+00381+00311102071ADDAY151061AY221061GA1081+002409069GF108991081061002501999999MA1999999099301MD1710041+9999MW1511REMSYN082AAXX  19001 26882 41356 81904 10038 20031 39930 40207 57004 75152 886// 333 88708;
0180268820999992000111903004+53960+032840FM-12+021799999V0201901N003010018019N0028001N1+00421+00321102051ADDAY151031AY221031GA1081+001809069GF108991081061001501999999GJ100009MD1710021+9999MW1531REMSYN082AAXX  19031 26882 41228 81903 10042 20032 40205 57002 75352 886// 333 55000 88706;
0202268820999992000111906004+53960+032840FM-12+021799999V0202001N004010012019N0011001N1+00401+00351102051ADDAA112000391AY151061AY221061GA1081+001209069GF108991081061001501999999KA1120N+00311MD1410001+9999MW1531REMSYN088AAXX  19061 26882 31211 82004 10040 20035 40205 54000 69932 75352 886// 333 20031 88704;
0166268820999992000111909004+53960+032840FM-12+021799999V0202201N005010012019N0011001N1+00471+00421102091ADDAY151031AY221031GA1081+001209069GF108991081061001501999999MD1310051+9999MW1531REMSYN076AAXX  19091 26882 41211 82205 10047 20042 40209 53005 75352 886// 333 88704;
0181268820999992000111912004+53960+032840FM-12+021799999V0202001N004010006019N0007001N1+00501+00501102091ADDAY151061AY241061GA1091+999999999GF109991091999999999999999MA1999999099331MD1410001+9999MW1511REMSYN076AAXX  19121 26882 41/07 92004 10050 20050 39933 40209 54000 75154 333 96045;
0166268820999992000111915004+53960+032840FM-12+021799999V0202001N003010009019N0021001N1+00481+00461102201ADDAY151031AY241031GA1081+000909069GF108991081061000751999999MD1310111+9999MW1531REMSYN076AAXX  19151 26882 41121 82003 10048 20046 40220 53011 75354 886// 333 88703;
0202268820999992000111918004+53960+032840FM-12+021799999V0202001N001010009019N0020001N1+00501+00481102231ADDAA112000591AY151061AY241061GA1081+000909069GF108991081061000751999999KA1120M+00501MD1210021+9999MW1531REMSYN088AAXX  19181 26882 11120 82001 10050 20048 40223 52002 69942 75354 886// 333 10050 88703;
0166268820999992000111921004+53960+032840FM-12+021799999V0202001N001010009019N0023001N1+00501+00481102241ADDAY151031AY221031GA1081+000909069GF108991081061000751999999MD1210011+9999MW1531REMSYN076AAXX  19211 26882 41123 82001 10050 20048 40224 52001 75352 886// 333 88703;
0187268820999992000112000004+53960+032840FM-12+021799999V0201801N002010027019N0060001N1+00441+00341102251ADDAY151061AY221061GA1071+002709059GF107991071051002501001001MA1999999099471MD1410001+9999MW1101REMSYN082AAXX  20001 26882 41356 71802 10044 20034 39947 40225 54000 71052 87500 333 87609;
0152268820999992000112003004+53960+032840FM-12+021799999V0201401N002010033019N0120001N1+00381+00281102211ADDGA1071+003309059GF107991071051004501001001GJ100009MD1810031+9999REMSYN076AAXX  20031 26882 42462 71402 10038 20028 40221 58003 87500 333 55000 87611;
0202268820999992000112006004+53960+032840FM-12+021799999V0201301N003010018019N0045001N1+00321+00191102221ADDAA112000791AY121061AY221061GA1081+001809069GF108991081061001501999999KA1120N+00311MD1410001+9999MW1101REMSYN088AAXX  20061 26882 11245 81303 10032 20019 40222 54000 69902 71022 886// 333 20031 88706;
0166268820999992000112009004+53960+032840FM-12+021799999V0201401N003010018019N0044001N1+00181+00071102271ADDAY121031AY221031GA1081+001809069GF108991081061001501999999MD1210021+9999MW1101REMSYN076AAXX  20091 26882 41244 81403 10018 20007 40227 52002 71022 886// 333 88706;
0187268820999992000112012004+53960+032840FM-12+021799999V0201301N004010018019N0044001N1+00221+00061102201ADDAY121061AY221061GA1081+001809069GF108991081061001501999999MA1999999099411MD1710051+9999MW1101REMSYN082AAXX  20121 26882 41244 81304 10022 20006 39941 40220 57005 71022 886// 333 88706;
0166268820999992000112015004+53960+032840FM-12+021799999V0201201N003010039019N0070001N1+00221+00061102201ADDAY121031AY221031GA1071+003909059GF107991071051004501001001MD1410001+9999MW1101REMSYN076AAXX  20151 26882 41457 71203 10022 20006 40220 54000 71022 87500 333 87613;
0209268820999992000112018004+53960+032840FM-12+021799999V0201601N003010021019N0050001N1+00171+00061102161ADDAA199000091AY121061AY221061GF108991081061002501999999KA1999M+99999MD1810051+9999MW1101REMSYN076AAXX  20181 26882 31350 81603 10017 20006 40216 58005 71022 886// 333 10002;EQDQ01  00002PRCP99Q02 +00022ATMX  
0166268820999992000112021004+53960+032840FM-12+021799999V0201601N003010024019N0070001N1+00141+00061102161ADDAY121031AY221031GA1081+002409069GF108991081061002501999999MD1410001+9999MW1101REMSYN076AAXX  20211 26882 41357 81603 10014 20006 40216 54000 71022 886// 333 88708;
0187268820999992000112100004+53960+032840FM-12+021799999V0201401N003010021019N0090001N1+00131+00051102161ADDAY121061AY221061GA1081+002109069GF108991081061002501999999MA1999999099361MD1410001+9999MW1101REMSYN082AAXX  21001 26882 41359 81403 10013 20005 39936 40216 54000 71022 886// 333 88707;
0180268820999992000112103004+53960+032840FM-12+021799999V0201301N003010018019N0070001N1+00101+00051102141ADDAY121031AY221031GA1081+001809069GF108991081061001501999999GJ100009MD1810021+9999MW1101REMSYN082AAXX  21031 26882 41257 81303 10010 20005 40214 58002 71022 886// 333 55000 88706;
0215268820999992000112106004+53960+032840FM-12+021799999V0201001N003010015019N0020001N1+00111+00031102131ADDAA199000091AY121061AY221061GA1081+001509069GF108991081061001501999999KA1120N+00061MD1710011+9999MW1101REMSYN082AAXX  21061 26882 31220 81003 10011 20003 40213 57001 71022 886// 333 20006 88705;EQDQ01  00002PRCP99
0166268820999992000112109004+53960+032840FM-12+021799999V0201201N003010021019N0060001N1+00071-00041102171ADDAY121031AY221031GA1081+002109069GF108991081061002501999999MD1310031+9999MW1101REMSYN076AAXX  21091 26882 41356 81203 10007 21004 40217 53003 71022 886// 333 88707;
0187268820999992000112112004+53960+032840FM-12+021799999V0209999C000010018019N0045001N1+00011-00041102191ADDAY121061AY221061GA1081+001809069GF108991081061001501999999MA1999999099381MD1210021+9999MW1101REMSYN082AAXX  21121 26882 41245 80000 10001 21004 39938 40219 52002 71022 886// 333 88706;
0166268820999992000112115004+53960+032840FM-12+021799999V0201201N001010018019N0050001N1+99999+99999102231ADDAY121031AY221031GA1081+001809069GF108991081061001501999999MD1210031+9999MW1101REMSYN076AAXX  21151 26882 41250 81201 12022 21008 40223 52003 71022 886// 333 88706;
0215268820999992000112118004+53960+032840FM-12+021799999V0201401N003010021019N0060001N1-00021-00081102291ADDAA199000091AY121061AY221061GA1081+002109069GF108991081061002501999999KA1120M+00111MD1210051+9999MW1101REMSYN082AAXX  21181 26882 31356 81403 11002 21008 40229 52005 71022 886// 333 10011 88707;EQDQ01  00002PRCP99
0166268820999992000112121004+53960+032840FM-12+021799999V0201301N002010021019N0070001N1-00041-00131102401ADDAY121031AY221031GA1081+002109069GF108991081061002501999999MD1210111+9999MW1101REMSYN076AAXX  21211 26882 42357 81302 11004 21013 40240 52011 71022 886// 333 88707;
0187268820999992000112200004+53960+032840FM-12+021799999V0201501N001010021019N0046001N1-00051-00111102431ADDAY121061AY221061GA1081+002109069GF108991081061002501999999MA1999999099601MD1210031+9999MW1101REMSYN082AAXX  22001 26882 41346 81501 11005 21011 39960 40243 52003 71022 886// 333 88707;
0202268820999992000112206004+53960+032840FM-12+021799999V0201001N002010012019N0013001N1-00161-00181102311ADDAA112000791AY151061AY221061GA1081+001209069GF108991081061001501999999KA1120N-00161MD1310171+9999MW1561REMSYN088AAXX  22061 26882 11213 81002 11016 21018 40231 53017 69902 75652 886// 333 21016 88704;
0166268820999992000112209004+53960+032840FM-12+021799999V0201301N003010012019N0012001N1-00081-00081102691ADDAY151031AY221031GA1081+001209069GF108991081061001501999999MD1210081+9999MW1561REMSYN076AAXX  22091 26882 41212 81303 11008 21008 40269 52008 75652 886// 333 88704;
0193268820999992000112212004+53960+032840FM-12+021799999V0201101N002010015019N0010001N1-00021-00081102781ADDAY151061AY221061GA1081+001509079GF108991081061001501999999MA1999999099941MD1810091+9999MW1561REMSYN088AAXX  22121 26882 41210 81102 11002 21008 39994 40278 58009 75652 886// 333 88705 93402;
0166268820999992000112215004+53960+032840FM-12+021799999V0200901N002010012019N0038001N1+00021-00071102871ADDAY151031AY221031GA1081+001209069GF108991081061001501999999MD1210101+9999MW1511REMSYN076AAXX  22151 26882 41238 80902 10002 21007 40287 52010 75152 886// 333 88704;
0208268820999992000112218004+53960+032840FM-12+021799999V0201001N002010018019N0080001N1+00031-00051102931ADDAA112000891AY171061AY251061GA1081+001809079GF108991081061001501999999KA1120M+00031MD1210061+9999MW1101REMSYN094AAXX  22181 26882 11258 81002 10003 21005 40293 52006 69982 71075 886// 333 10003 88706 93401;
0166268820999992000112221004+53960+032840FM-12+021799999V0201201N003010018019N0060001N1+00071-00011103021ADDAY151031AY221031GA1081+001809069GF108991081061001501999999MD1210091+9999MW1511REMSYN076AAXX  22211 26882 41256 81203 10007 21001 40302 52009 75152 886// 333 88706;
0187268820999992000112300004+53960+032840FM-12+021799999V0209999C000010018019N0050001N1+00081+00031103041ADDAY151061AY221061GA1081+001809069GF108991081061001501999999MA1999999100211MD1210021+9999MW1511REMSYN082AAXX  23001 26882 41250 80000 10008 20003 30021 40304 52002 75152 886// 333 88706;
0180268820999992000112303004+53960+032840FM-12+021799999V0201401N004010018019N0050001N1+00101+00051103091ADDAY151031AY221031GA1081+001809069GF108991081061001501999999GJ100009MD1210061+9999MW1511REMSYN082AAXX  23031 26882 41250 81404 10010 20005 40309 52006 75152 886// 333 55000 88706;
0202268820999992000112306004+53960+032840FM-12+021799999V0201401N005010018019N0020001N1+00091+00041103171ADDAA112001091AY151061AY221061GA1081+001809069GF108991081061001501999999KA1120N+00011MD1210071+9999MW1511REMSYN088AAXX  23061 26882 11220 81405 10009 20004 40317 52007 60012 75152 886// 333 20001 88706;
0166268820999992000112309004+53960+032840FM-12+021799999V0201401N005010018019N0024001N1+00081-00031103271ADDAY151031AY221031GA1081+001809069GF108991081061001501999999MD1210091+9999MW1511REMSYN076AAXX  23091 26882 41224 81405 10008 21003 40327 52009 75152 886// 333 88706;
0187268820999992000112312004+53960+032840FM-12+021799999V0201301N005010021019N0060001N1+00001-00081103301ADDAY151061AY221061GA1081+002109069GF108991081061002501999999MA1999999100461MD1210031+9999MW1101REMSYN082AAXX  23121 26882 41356 81305 10000 21008 30046 40330 52003 71052 886// 333 88707;
0138268820999992000112315004+53960+032840FM-12+021799999V0201301N005010024019N0110001N1-00091-00161103321ADDGA1071+002409059GF107991071051002501001001MD1110011+9999REMSYN070AAXX  23151 26882 42361 71305 11009 21016 40332 51001 87500 333 87608;
0202268820999992000112318004+53960+032840FM-12+021799999V0201201N004010018019N0080001N1-00281-00381103401ADDAA112000791AY121061AY221061GA1081+001809069GF108991081061001501999999KA1120M+00101MD1210061+9999MW1101REMSYN088AAXX  23181 26882 11258 81204 11028 21038 40340 52006 69902 71022 886// 333 10010 88706;
0138268820999992000112321004+53960+032840FM-12+021799999V0201301N007010024019N0500001N1-00411-00531103441ADDGA1071+002409059GF107991071051002501001001MD1210011+9999REMSYN070AAXX  23211 26882 42384 71307 11041 21053 40344 52001 87500 333 87608;
0187268820999992000112400004+53960+032840FM-12+021799999V0201201N006010036019N0500001N1-00501-00631103471ADDAY171061AY221061GA1071+003609059GF107991071051004501001001MA1999999100561MD1210021+9999MW1021REMSYN082AAXX  24001 26882 41484 71206 11050 21063 30056 40347 52002 70272 87500 333 87612;
0152268820999992000112403004+53960+032840FM-12+021799999V0201501N004010048019N0500001N1-00621-00931103411ADDGA1071+004809059GF107991071051004501001001GJ100009MD1810071+9999REMSYN076AAXX  24031 26882 42484 71504 11062 21093 40341 58007 87500 333 55000 87616;
0174268820999992000112406004+53960+032840FM-12+021799999V0201401N005010045019N0100001N1-00741-01081103391ADDAA112000791GA1071+004509059GF107991071051004501001001KA1120N-00741MD1710031+9999REMSYN082AAXX  24061 26882 12460 71405 11074 21108 40339 57003 69902 87500 333 21074 87615;
0166268820999992000112409004+53960+032840FM-12+021799999V0201301N005010054019N0110001N1-00761-01061103381ADDAY171031AY221031GA1071+005409059GF107991071051004501001001MD1710011+9999MW1011REMSYN076AAXX  24091 26882 41461 71305 11076 21106 40338 57001 70172 87500 333 87618;
0161268820999992000112412004+53960+032840FM-12+021799999V0201301N005012200019N0200001N1-00681-01101103301ADDAY171061AY211061GF103991031051004501001001MA1999999100371MD1710081+9999MW1011REMSYN072AAXX  24121 26882 41470 31305 11068 21110 30037 40330 57008 70171 83500;
0122268820999992000112415004+53960+032840FM-12+021799999V0201301N005012200019N0500001N1-00941-01291103321ADDGA1001+999999999GF100991001001999999001001MD1410001+9999REMSYN054AAXX  24151 26882 42984 01305 11094 21129 40332 54000;
0162268820999992000112418004+53960+032840FM-12+021799999V0201201N004012200019N0500001N1-01071-01351103321ADDAA112000791GA1001+999999999GF100991001001999999001001KA1999M-00621MD1810021+9999REMSYN070AAXX  24181 26882 12984 01204 11107 21135 40332 58002 69902 333 11062;
0140268820999992000112421004+53960+032840FM-12+021799999V0201201N003019999999N0260001N1-01051-01331103281ADDAY171031AY211031GF108991081001999999011999MD1710021+9999MW1711REMSYN066AAXX  24211 26882 41976 81203 11105 21133 40328 57002 77171 8801/;
0161268820999992000112500004+53960+032840FM-12+021799999V0201301N004019999999N0180001N1-01061-01261103271ADDAY171061AY211061GF108991081071999999999999MA1999999100321MD1610011+9999MW1711REMSYN072AAXX  25001 26882 41968 81304 11106 21126 30032 40327 56001 77171 887//;
0122268820999992000112503004+53960+032840FM-12+021799999V0201101N003019999999N0170001N1-01161-01361103261ADDGF108991081001999999071999MD1810031+9999REMSYN070AAXX  25031 26882 42967 81103 11116 21136 40326 58003 8807/ 333 55034;
0209268820999992000112506004+53960+032840FM-12+021799999V0201101N003019999999N0060001N1-01151-01351103261ADDAA112000791AJ100009199999999AY171061AY221061GF107991071001999999021001IA1219KA1120N-01201MD1410001+9999MW1711REMSYN088AAXX  25061 26882 11956 71103 11115 21135 40326 54000 69902 77172 87020 333 21120 45998;
0140268820999992000112509004+53960+032840FM-12+021799999V0201201N004012200019N0150001N1-00921+99999103231ADDAY171031AY211031GF102991021051004501001001MD1410001+9999MW1021REMSYN066AAXX  25091 26882 41465 21204 11092 20117 40323 54000 70271 82500;
0161268820999992000112512004+53960+032840FM-12+021799999V0201201N004012200019N0180001N1-00751-01051103201ADDAY171061AY211061GF104991041051008001001001MA1999999100281MD1810011+9999MW1031REMSYN072AAXX  25121 26882 41568 41204 11075 21105 30028 40320 58001 70371 84500;
0112268820999992000112515004+53960+032840FM-12+021799999V0201301N003019999999N0180001N1-00791-01061103221ADDGF106991061001999999031001MD1310011+9999REMSYN060AAXX  25151 26882 42968 61303 11079 21106 40322 53001 86030;
0174268820999992000112518004+53960+032840FM-12+021799999V0201101N003010054019N0150001N1-00761-00941103291ADDAA112000791GA1071+005409059GF107991071051004501001001KA1120M-00661MD1210071+9999REMSYN082AAXX  25181 26882 12465 71103 11076 21094 40329 52007 69902 87500 333 11066 87618;
0138268820999992000112521004+53960+032840FM-12+021799999V0201201N004010051019N0180001N1-00801-00941103251ADDGA1071+005109059GF107991071051004501001001MD1710031+9999REMSYN070AAXX  25211 26882 42468 71204 11080 21094 40325 57003 87500 333 87617;
0133268820999992000112600004+53960+032840FM-12+021799999V0201301N004019999999N0190001N1-00851-00921103291ADDGF107991071001999999031001MA1999999100331MD1410001+9999REMSYN066AAXX  26001 26882 42969 71304 11085 21092 30033 40329 54000 87030;
0122268820999992000112603004+53960+032840FM-12+021799999V0201401N005019999999N0200001N1-00871-00981103241ADDGF107991071001999999031001MD1710011+9999REMSYN070AAXX  26031 26882 42970 71405 11087 21098 40324 57001 87030 333 55046;
0194268820999992000112606004+53960+032840FM-12+021799999V0201401N005019999999N0200001N1-00681-00881103231ADDAA199000091AJ100009199999999GF107991071001999999051001IA1219KA1120N-00891MD1710011+9999REMSYN076AAXX  26061 26882 32970 71405 11068 21088 40323 57001 87050 333 21089 45998;EQDQ01  00002PRCP99
0112268820999992000112609004+53960+032840FM-12+021799999V0201601N006019999999N0200001N1-00641-00871103241ADDGF108991081001999999071999MD1310021+9999REMSYN060AAXX  26091 26882 42970 81606 11064 21087 40324 53002 8807/;
0159268820999992000112612004+53960+032840FM-12+021799999V0201601N005010042019N0200001N1-00541-00831103171ADDGA1071+004209059GF107991071051004501001001MA1999999100271MD1810061+9999REMSYN076AAXX  26121 26882 42470 71605 11054 21083 30027 40317 58006 87500 333 87614;
0138268820999992000112615004+53960+032840FM-12+021799999V0201301N004010036019N0130001N1-00581-00841103131ADDGA1071+003609059GF107991071051004501001001MD1710051+9999REMSYN070AAXX  26151 26882 42463 71304 11058 21084 40313 57005 87500 333 87612;
0175268820999992000112618004+53960+032840FM-12+021799999V0209999C000012200019N0150001N1-00851-01041103111ADDAA199000091GA1001+999999999GF100991001001999999001001KA1999M-00531MD1710041+9999REMSYN064AAXX  26181 26882 32965 00000 11085 21104 40311 57004 333 11053;EQDQ01  00002PRCP99
0122268820999992000112621004+53960+032840FM-12+021799999V0201201N004012200019N0140001N1-00931-01091103071ADDGA1001+999999999GF100991001001999999001001MD1710051+9999REMSYN054AAXX  26211 26882 42964 01204 11093 21109 40307 57005;
0143268820999992000112700004+53960+032840FM-12+021799999V0201101N003012200019N0170001N1-01011-01211103051ADDGA1001+999999999GF100991001001999999001001MA1999999100101MD1710031+9999REMSYN060AAXX  27001 26882 42967 01103 11101 21121 30010 40305 57003;
0132268820999992000112703004+53960+032840FM-12+021799999V0201201N004012200019N0220001N1-01051-01251103051ADDGA1001+999999999GF100991001001999999001001MD1410001+9999REMSYN064AAXX  27031 26882 42972 01204 11105 21125 40305 54000 333 55000;
0220268820999992000112706004+53960+032840FM-12+021799999V0201301N002012200019N0150001N1-01171-01371103091ADDAA199000091AJ100009199999999GA1001+999999999GF100991001001999999001001IA1219KA1120N+99999MD1310011+9999REMSYN070AAXX  27061 26882 32965 01302 11117 21137 40309 53001 333 21718 45998;EQDQ01  00002PRCP99Q02 -07182ATMN  
0122268820999992000112709004+53960+032840FM-12+021799999V0201301N006012200019N0200001N1-00771-01321103061ADDGA1001+999999999GF100991001001999999001001MD1210021+9999REMSYN054AAXX  27091 26882 42970 01306 11077 21132 40306 52002;
0133268820999992000112712004+53960+032840FM-12+021799999V0201201N004012200019N0200001N1-00531-01231102931ADDGF101991001001999999001011MA1999999100041MD1810091+9999REMSYN066AAXX  27121 26882 42970 11204 11053 21123 30004 40293 58009 80001;
0122268820999992000112715004+53960+032840FM-12+021799999V0201001N003012200019N0160001N1-00761-01211102971ADDGA1001+999999999GF100991001001999999001001MD1310021+9999REMSYN054AAXX  27151 26882 42966 01003 11076 21121 40297 53002;
0175268820999992000112718004+53960+032840FM-12+021799999V0201101N004012200019N0500001N1-00901-01241103071ADDAA199000091GA1001+999999999GF100991001001999999001001KA1999M-00531MD1210071+9999REMSYN064AAXX  27181 26882 32984 01104 11090 21124 40307 52007 333 11053;EQDQ01  00002PRCP99
0122268820999992000112721004+53960+032840FM-12+021799999V0201201N004012200019N0500001N1-01001-01281103071ADDGA1001+999999999GF100991001001999999001001MD1810011+9999REMSYN054AAXX  27211 26882 42984 01204 11100 21128 40307 58001;
0159268820999992000112800004+53960+032840FM-12+021799999V0201301N005010027019N0150001N1-00951-01071103051ADDGA1071+002709059GF107991071051002501001001MA1999999100111MD1710011+9999REMSYN076AAXX  28001 26882 42365 71305 11095 21107 30011 40305 57001 87500 333 87609;
0180268820999992000112803004+53960+032840FM-12+021799999V0201201N005010009019N0050001N1-00651-00701102941ADDAY121031AY221031GA1081+000909069GF108991081061001501999999GJ104149MD1710031+9999MW1101REMSYN082AAXX  28031 26882 41250 81205 11065 21070 40294 57003 71022 886// 333 55069 88703;
0222268820999992000112806004+53960+032840FM-12+021799999V0201401N003010012019N0025001N1-00601-00681103021ADDAA199000091AJ100009199999999AY121061AY221061GF108991081061001501999999IA1219KA1120N-01001MD1210031+9999MW1101REMSYN082AAXX  28061 26882 31225 81403 11060 21068 40302 52003 71022 886// 333 21100 45998;EQDQ01  00002PRCP99
0166268820999992000112809004+53960+032840FM-12+021799999V0201201N003010018019N0035001N1-00561-00671103031ADDAY121031AY221031GA1081+001809069GF108991081061001501999999MD1210021+9999MW1101REMSYN076AAXX  28091 26882 41235 81203 11056 21067 40303 52002 71022 886// 333 88706;
0187268820999992000112812004+53960+032840FM-12+021799999V0201301N003010021019N0050001N1-00501-00631103021ADDAY121061AY221061GA1081+002109069GF108991081061002501999999MA1999999100121MD1710011+9999MW1101REMSYN082AAXX  28121 26882 41350 81303 11050 21063 30012 40302 57001 71022 886// 333 88707;
0166268820999992000112815004+53960+032840FM-12+021799999V0201201N005010030019N0050001N1-00581-00691103021ADDAY121031AY221031GA1071+003009059GF107991071051004501001001MD1410001+9999MW1101REMSYN076AAXX  28151 26882 41450 71205 11058 21069 40302 54000 71022 87500 333 87610;
0187268820999992000112818004+53960+032840FM-12+021799999V0201401N003010024019N0260001N1-00541-00721103021ADDAA199000091GA1071+002409059GF107991071051002501001001KA1120M-00481MD1410001+9999REMSYN076AAXX  28181 26882 32376 71403 11054 21072 40302 54000 87500 333 11048 87608;EQDQ01  00002PRCP99
0138268820999992000112821004+53960+032840FM-12+021799999V0201301N002010024019N0500001N1-00461-00621103001ADDGA1071+002409059GF107991071051002501001001MD1810011+9999REMSYN070AAXX  28211 26882 42384 71302 11046 21062 40300 58001 87500 333 87608;
0206268820999992000112900004+53960+032840FM-12+021799999V0201301N002010015019N0025001N1-00411-00531102911ADDAY171061AY221061GA1081+001509069GF108991999071001501021999MA1999999100031MD1710081+9999MW1731REMSYN082AAXX  29001 26882 41225 81302 11041 21053 30003 40291 57008 77372 8872/ 333 88705;EQDQ01+000082SCOTLC
0199268820999992000112903004+53960+032840FM-12+021799999V0201501N002010015019N0034001N1-00391+99999102761ADDAY171031AY221031GA1081+001509069GF108991999071001501021999GJ100009MD1710141+9999MW1731REMSYN082AAXX  29031 26882 41234 81502 11039 21030 40276 57014 77372 8872/ 333 55000 88705;EQDQ01+000082SCOTLC
0250268820999992000112906004+53960+032840FM-12+021799999V0201501N002010015019N0030001N1-00371-00481102701ADDAA112004191AJ100049199999999AY171061AY221061GA1081+001509069GF108991999071001501021999IA1239KA1120N-00541MD1710061+9999MW1731REMSYN094AAXX  29061 26882 11230 81502 11037 21048 40270 57006 60042 77372 8872/ 333 21054 47004 88705;EQDQ01+000082SCOTLC
0140268820999992000112909004+53960+032840FM-12+021799999V0202101N004019999999N0150001N1-00281-00441102591ADDAY171031AY221031GF108991081001999999071999MD1710091+9999MW1021REMSYN066AAXX  29091 26882 41965 82104 11028 21044 40259 57009 70272 8807/;
0187268820999992000112912004+53960+032840FM-12+021799999V0202001N001010033019N0170001N1-00231-00421102531ADDAY171061AY221061GA1071+003309059GF107991071051004501001001MA1999999099681MD1710061+9999MW1021REMSYN082AAXX  29121 26882 41467 72001 11023 21042 39968 40253 57006 70272 87500 333 87611;
0138268820999992000112915004+53960+032840FM-12+021799999V0201901N001010051019N0150001N1-00251-00381102471ADDGA1071+005109059GF107991071051004501001001MD1710061+9999REMSYN070AAXX  29151 26882 42465 71901 11025 21038 40247 57006 87500 333 87617;
0202268820999992000112918004+53960+032840FM-12+021799999V0202001N003010015019N0110001N1-00281-00381102381ADDAA112000891AY171061AY221061GA1071+001509059GF107991071051001501001001KA1120M-00211MD1710091+9999MW1021REMSYN088AAXX  29181 26882 11261 72003 11028 21038 40238 57009 69972 70272 87500 333 11021 87605;
0166268820999992000112921004+53960+032840FM-12+021799999V0202001N002010015019N0070001N1-00301-00371102321ADDAY121031AY221031GA1081+001509069GF108991081061001501999999MD1710071+9999MW1101REMSYN076AAXX  29211 26882 41257 82002 11030 21037 40232 57007 71022 886// 333 88705;
0187268820999992000113000004+53960+032840FM-12+021799999V0202101N002010012019N0070001N1-00251-00311102231ADDAY121061AY221061GA1081+001209069GF108991081061001501999999MA1999999099391MD1710071+9999MW1101REMSYN082AAXX  30001 26882 41257 82102 11025 21031 39939 40223 57007 71022 886// 333 88704;
0180268820999992000113003004+53960+032840FM-12+021799999V0202001N002010045019N0050001N1-00231-00291102211ADDAY121031AY221031GA1071+004509059GF107991071051004501001001GJ100009MD1710021+9999MW1101REMSYN082AAXX  30031 26882 41450 72002 11023 21029 40221 57002 71022 87500 333 55000 87615;
0260268820999992000113006004+53960+032840FM-12+021799999V0202001N002010015019N0020001N1-00201-00231102241ADDAA199000091AJ100039199999999AY121061AY221061GA1081+001509069GF108991081061001501999999IA1239KA1120N+99999MD1310031+9999MW1101REMSYN088AAXX  30061 26882 31220 82002 11020 21023 40224 53003 71022 886// 333 20029 47003 88705;EQDQ01  00002PRCP99Q02 +00292ATMN  
0150268820999992000113009004+53960+032840FM-12+021799999V0202101N002010006019N0009001N1-00131-00151102351ADDAY141031AY221031GA1091+999999999GF109991091999999999999999MD1210111+9999MW1451REMSYN060AAXX  30091 26882 41/09 92102 11013 21015 40235 52011 74542;
0187268820999992000113012004+53960+032840FM-12+021799999V0202101N002010012019N0024001N1-00081-00151102301ADDAY141061AY221061GA1081+001209069GF108991081061001501999999MA1999999099471MD1810041+9999MW1101REMSYN082AAXX  30121 26882 41224 82102 11008 21015 39947 40230 58004 71042 886// 333 88704;
0166268820999992000113015004+53960+032840FM-12+021799999V0202001N002010012019N0024001N1-00081-00151102331ADDAY151031AY221031GA1081+001209069GF108991081061001501999999MD1310031+9999MW1561REMSYN076AAXX  30151 26882 41224 82002 11008 21015 40233 53003 75652 886// 333 88704;
0208268820999992000113018004+53960+032840FM-12+021799999V0202001N003010015019N0019001N1-00051-00111102331ADDAA112000791AY151061AY221061GA1081+001509079GF108991081061001501999999KA1120M-00051MD1410001+9999MW1101REMSYN094AAXX  30181 26882 11219 82003 11005 21011 40233 54000 69902 71052 886// 333 11005 88705 93401;
0160268820999992000113021004+53960+032840FM-12+021799999V0201901N003010006019N0008001N1-00041-00071102291ADDAY141031AY221031GA1091+999999999GF109991091999999999999999MD1810041+9999MW1451REMSYN070AAXX  30211 26882 41/08 91903 11004 21007 40229 58004 74542 333 93401;
0160268820999992000120100004+53960+032840FM-12+021799999V0202101N003010006019N0008001N1+00031+00021102121ADDAA112474092GA1091+999999999GF109991091999999999999999MA1999999099311MD1710151+9999REMSYN066AAXX  01001 26882 41/08 92103 10003 20002 39931 40212 57015 64742;
0160268820999992000120103004+53960+032840FM-12+021799999V0202101N004010006019N0009001N1+00081+00051101911ADDAY141031AY221031GA1091+999999999GF109991091999999999999999MD1710201+9999MW1431REMSYN070AAXX  01031 26882 41/09 92104 10008 20005 40191 57020 74342 333 55000;
0232268820999992000120106004+53960+032840FM-12+021799999V0202301N005010006019N0006001N1+00101+00101101871ADDAA199000091AJ100039199999999AY141061AY221061GA1091+999999999GF109991091999999999999999IA1309KA1120N-00051MD1710081+9999MW1471REMSYN076AAXX  01061 26882 31/06 92305 10010 20010 40187 57008 74742 333 21005 42003;EQDQ01  00002PRCP99
0160268820999992000120109004+53960+032840FM-12+021799999V0202601N003010003019N0002001N1+00141+00141101831ADDAY151031AY241031GA1091+999999999GF109991091999999999999999MD1710021+9999MW1531REMSYN070AAXX  01091 26882 41/92 92603 10014 20014 40183 57002 75354 333 96047;
0171268820999992000120112004+53960+032840FM-12+021799999V0202501N005010006019N0006001N1+00151+00151101741ADDAY151061AY241061GA1091+999999999GF109991091999999999999999MA1999999098951MD1710061+9999MW1431REMSYN066AAXX  01121 26882 41/06 92505 10015 20015 39895 40174 57006 74354;
0166268820999992000120115004+53960+032840FM-12+021799999V0202601N005010018019N0050001N1+00201+00171101701ADDAY141031AY221031GA1081+001809069GF108991081061001501999999MD1710031+9999MW1281REMSYN076AAXX  01151 26882 41250 82605 10020 20017 40170 57003 72842 886// 333 88706;
0202268820999992000120118004+53960+032840FM-12+021799999V0202601N005010018019N0090001N1+00201+00121101731ADDAA112000391AY141061AY221061GA1081+001809069GF108991081061001501999999KA1120M+00201MD1310031+9999MW1101REMSYN088AAXX  01181 26882 11259 82605 10020 20012 40173 53003 69932 71042 886// 333 10020 88706;
0138268820999992000120121004+53960+032840FM-12+021799999V0202701N005010051019N0180001N1+00181+00051101771ADDGA1071+005109059GF107991071051004501001001MD1210031+9999REMSYN070AAXX  01211 26882 42468 72705 10018 20005 40177 52003 87500 333 87617;
0187268820999992000120200004+53960+032840FM-12+021799999V0202801N005010045019N0150001N1+00241+00141101741ADDAY161061AY221061GA1071+004509059GF107991071051004501001001MA1999999098961MD1810021+9999MW1211REMSYN082AAXX  02001 26882 41465 72805 10024 20014 39896 40174 58002 72162 87500 333 87615;
0128268820999992000120203004+53960+032840FM-12+021799999V0202901N005010042019N0500001N1+00321+00111101761ADDGF107991071051004501001001MD1310031+9999REMSYN076AAXX  02031 26882 42484 72905 10032 20011 40176 53003 87500 333 55000 8765/;
0202268820999992000120206004+53960+032840FM-12+021799999V0203001N003010030019N0034001N1+00241+00141101881ADDAA112000191AY151061AY221061GA1081+003009069GF108991081061002501999999KA1120N+00181MD1210111+9999MW1511REMSYN088AAXX  02061 26882 11334 83003 10024 20014 40188 52011 69912 75152 886// 333 20018 88710;
0166268820999992000120209004+53960+032840FM-12+021799999V0203101N003010033019N0038001N1+00221+00171101991ADDAY151031AY221031GA1081+003309069GF108991081061004501999999MD1210101+9999MW1101REMSYN076AAXX  02091 26882 41438 83103 10022 20017 40199 52010 71052 886// 333 88711;
0187268820999992000120212004+53960+032840FM-12+021799999V0203001N004010033019N0090001N1+00201+00041102041ADDAY151061AY221061GA1081+003309069GF108991081061004501999999MA1999999099251MD1210051+9999MW1101REMSYN082AAXX  02121 26882 41459 83004 10020 20004 39925 40204 52005 71052 886// 333 88711;
0138268820999992000120215004+53960+032840FM-12+021799999V0202701N003010042019N0190001N1+00121-00051102151ADDGA1071+004209059GF107991071051004501001001MD1210101+9999REMSYN070AAXX  02151 26882 42469 72703 10012 21005 40215 52010 87500 333 87614;
0174268820999992000120218004+53960+032840FM-12+021799999V0202601N003010036019N0260001N1+00021-00151102201ADDAA112000791GA1071+003609059GF107991071051004501001001KA1120M+00261MD1210041+9999REMSYN082AAXX  02181 26882 12476 72603 10002 21015 40220 52004 69902 87500 333 10026 87612;
0138268820999992000120221004+53960+032840FM-12+021799999V0202601N002010036019N0500001N1-00031-00241102251ADDGA1071+003609059GF107991071051004501001001MD1210041+9999REMSYN070AAXX  02211 26882 42484 72602 11003 21024 40225 52004 87500 333 87612;
0178268820999992000120300004+53960+032840FM-12+021799999V0202401N003011650019N0160001N1-00101-00231102271ADDGA1071+165009019GF107991071051002501001999MA1999999099441MD1210011+9999REMSYN076AAXX  03001 26882 42366 72403 11010 21023 39944 40227 52001 87500 333 87085;EQDQ01+000002SCOHCG
0152268820999992000120303004+53960+032840FM-12+021799999V0202501N003010024019N0180001N1-00161-00271102291ADDGA1071+002409059GF107991071051002501001001GJ100009MD1210011+9999REMSYN076AAXX  03031 26882 42368 72503 11016 21027 40229 52001 87500 333 55000 87608;
0215268820999992000120306004+53960+032840FM-12+021799999V0202301N004010012019N0020001N1-00151-00201102321ADDAA199000091AY121061AY221061GA1081+001209069GF108991081061001501999999KA1120N-00191MD1210031+9999MW1101REMSYN082AAXX  03061 26882 31220 82304 11015 21020 40232 52003 71022 886// 333 21019 88704;EQDQ01  00002PRCP99
0166268820999992000120309004+53960+032840FM-12+021799999V0202301N005010015019N0032001N1-00111-00151102291ADDAY121031AY221031GA1081+001509069GF108991081061001501999999MD1810031+9999MW1101REMSYN076AAXX  03091 26882 41232 82305 11011 21015 40229 58003 71022 886// 333 88705;
0150268820999992000120315004+53960+032840FM-12+021799999V0202201N004010006019N0008001N1-00081-00081102291ADDAY141031AY221031GA1091+999999999GF109991091999999999999999MD1310011+9999MW1451REMSYN060AAXX  03151 26882 41/08 92204 11008 21008 40229 53001 74542;
0203268820999992000120318004+53960+032840FM-12+021799999V0202501N004010006019N0009001N1-00081-00081102291ADDAA199000091AY141061AY221061GA1091+999999999GF109991091999999999999999KA1999M-00071MD1410001+9999MW1451REMSYN070AAXX  03181 26882 31/09 92504 11008 21008 40229 54000 74542 333 11007;EQDQ01  00002PRCP99
0150268820999992000120321004+53960+032840FM-12+021799999V0202601N004010006019N0009001N1-00101-00101102301ADDAY141031AY221031GA1091+999999999GF109991091999999999999999MD1210011+9999MW1451REMSYN060AAXX  03211 26882 41/09 92604 11010 21010 40230 52001 74542;
0181268820999992000120400004+53960+032840FM-12+021799999V0202801N003010006019N0009001N1-00101-00101102291ADDAY141061AY221061GA1091+999999999GF109991091999999999999999MA1999999099461MD1710011+9999MW1451REMSYN076AAXX  04001 26882 41/09 92803 11010 21010 30946 40229 57001 74542 333 93402;
0186268820999992000120403004+53960+032840FM-12+021799999V0202401N004010012019N0027001N1-00121-00121102241ADDAY141031AY221031GA1081+001209079GF108991081061001501999999GJ100009MD1710051+9999MW1281REMSYN088AAXX  04031 26882 41227 82404 11012 21012 40224 57005 72842 886// 333 55000 88704 93403;
0208268820999992000120406004+53960+032840FM-12+021799999V0202601N003010012019N0021001N1-00161-00181102261ADDAA112000791AY151061AY241061GA1081+001209079GF108991081061001501999999KA1120N-00161MD1310021+9999MW1561REMSYN094AAXX  04061 26882 11221 82603 11016 21018 40226 53002 69902 75654 886// 333 21016 88704 93403;
0172268820999992000120409004+53960+032840FM-12+021799999V0202301N003010009019N0013001N1-00141-00191102261ADDAY151031AY221031GA1081+000909079GF108991081061001501999999MD1410001+9999MW1561REMSYN082AAXX  04091 26882 41213 82303 11014 21019 40226 54000 75652 886// 333 88703 93404;
0193268820999992000120412004+53960+032840FM-12+021799999V0202001N002010009019N0017001N1-00161-00181102151ADDAY151061AY241061GA1081+000909079GF108991081061001501999999MA1999999099321MD1810111+9999MW1101REMSYN088AAXX  04121 26882 41217 82002 11016 21018 39932 40215 58011 71054 886// 333 88703 93404;
0172268820999992000120415004+53960+032840FM-12+021799999V0202001N002010009019N0013001N1-00201-00231102071ADDAY151031AY221031GA1081+000909079GF108991081061000751999999MD1710091+9999MW1561REMSYN082AAXX  04151 26882 41113 82002 11020 21023 40207 57009 75652 886// 333 88703 93404;
0208268820999992000120418004+53960+032840FM-12+021799999V0202201N004010018019N0050001N1-00151-00201101961ADDAA112000191AY151061AY221061GA1081+001809079GF108991081061001501999999KA1120M-00141MD1710091+9999MW1561REMSYN094AAXX  04181 26882 11250 82204 11015 21020 40196 57009 69912 75652 886// 333 11014 88706 93404;
0172268820999992000120421004+53960+032840FM-12+021799999V0202201N004010018019N0050001N1-00131-00181101861ADDAY151031AY221031GA1081+001809079GF108991081061001501999999MD1710101+9999MW1561REMSYN082AAXX  04211 26882 41250 82204 11013 21018 40186 57010 75652 886// 333 88706 93404;
0193268820999992000120500004+53960+032840FM-12+021799999V0202401N003010015019N0049001N1-00111-00151101841ADDAY151061AY221061GA1081+001509079GF108991081061001501999999MA1999999099021MD1710021+9999MW1561REMSYN088AAXX  05001 26882 41249 82403 11011 21015 39902 40184 57002 75652 886// 333 88705 93405;
0205268820999992000120503004+53960+032840FM-12+021799999V0202401N001010024019N0110001N1-00091-00161101801ADDAY171031AY251031GA1081+002409079GF108991999071002501021999GJ100009MD1710031+9999MW1711REMSYN088AAXX  05031 26882 41361 82401 11009 21016 40180 57003 77175 8872/ 333 55000 88708 93406;EQDQ01+000082SCOTLC
0237268820999992000120506004+53960+032840FM-12+021799999V0203401N003010018019N0070001N1-00091-00131101881ADDAA112000891AJ100019199999999AY171061AY251061GA1081+001809079GF108991081061001501999999IA1239KA1120N-00151MD1210081+9999MW1101REMSYN100AAXX  05061 26882 11257 83403 11009 21013 40188 52008 69972 71075 886// 333 21015 47001 88706 93405;
0172268820999992000120509004+53960+032840FM-12+021799999V0203001N002010015019N0021001N1-00011-00071102041ADDAY121031AY221031GA1081+001509079GF108991081061001501999999MD1210171+9999MW1101REMSYN082AAXX  05091 26882 41221 83002 11001 21007 40204 52017 71022 886// 333 88705 93404;
0171268820999992000120512004+53960+032840FM-12+021799999V0202901N002010006019N0006001N1+00041+00041102161ADDAY141061AY221061GA1091+999999999GF109991091999999999999999MA1999999099351MD1210111+9999MW1451REMSYN066AAXX  05121 26882 41/06 92902 10004 20004 39935 40216 52011 74542;
0166268820999992000120515004+53960+032840FM-12+021799999V0202801N003010012019N0050001N1+00061+00011102281ADDAY141031AY221031GA1081+001209069GF108991081061001501999999MD1210111+9999MW1101REMSYN076AAXX  05151 26882 41250 82803 10006 20001 40228 52011 71042 886// 333 88704;
0190268820999992000120518004+53960+032840FM-12+021799999V0209999C000010003019N0005001N1+00081+00081102451ADDAA112000791AY141061AY221061GA1091+999999999GF109991091999999999999999KA1999M+00081MD1210171+9999MW1451REMSYN076AAXX  05181 26882 11/05 90000 10008 20008 40245 52017 69902 74542 333 10008;
0150268820999992000120521004+53960+032840FM-12+021799999V0209999C000010003019N0005001N1+00081+00081102541ADDAY141031AY221031GA1091+999999999GF109991091999999999999999MD1210091+9999MW1451REMSYN060AAXX  05211 26882 41/05 90000 10008 20008 40254 52009 74542;
0181268820999992000120600004+53960+032840FM-12+021799999V0209999C000010006019N0008001N1+00161+00161102621ADDAY161061AY251061GA1091+999999999GF109991091999999999999999MA1999999099801MD1210081+9999MW1531REMSYN076AAXX  06001 26882 41/08 90000 10016 20016 39980 40262 52008 75365 333 96043;
0174268820999992000120603004+53960+032840FM-12+021799999V0209999C000010006019N0006001N1+00161+00161102681ADDAY151031AY241031GA1091+999999999GF109991091999999999999999GJ100009MD1210061+9999MW1511REMSYN076AAXX  06031 26882 41/06 90000 10016 20016 40268 52006 75154 333 55000 96045;
0196268820999992000120606004+53960+032840FM-12+021799999V0209999C000010003019N0002001N1+00171+00171102781ADDAA112000591AY151061AY241061GA1091+999999999GF109991091999999999999999KA1120N+00081MD1210101+9999MW1511REMSYN082AAXX  06061 26882 11/92 90000 10017 20017 40278 52010 69962 75154 333 20008 96047;
0160268820999992000120609004+53960+032840FM-12+021799999V0209999C000010001519N0001001N1+00321+00321102881ADDAY151031AY241031GA1091+999999999GF109991091999999999999999MD1210121+9999MW1511REMSYN070AAXX  06091 26882 41/91 90000 10032 20032 40288 52012 75154 333 96045;
0171268820999992000120612004+53960+032840FM-12+021799999V0209999C000010003019N0002001N1+00381+00381102921ADDAY151061AY241061GA1091+999999999GF109991091999999999999999MA1999999100131MD1210051+9999MW1451REMSYN066AAXX  06121 26882 41/92 90000 10038 20038 30013 40292 52005 74554;
0166268820999992000120615004+53960+032840FM-12+021799999V0209999C000010030019N0050001N1+00321+00271102981ADDAY141031AY221031GA1071+003009059GF107991071051004501001001MD1210051+9999MW1101REMSYN076AAXX  06151 26882 41450 70000 10032 20027 40298 52005 71042 87500 333 87610;
0202268820999992000120618004+53960+032840FM-12+021799999V0209999C000010045019N0210001N1+00321+00171103021ADDAA112000791AY141061AY221061GA1071+004509059GF107991071051004501001001KA1120M+00401MD1210041+9999MW1021REMSYN088AAXX  06181 26882 11471 70000 10032 20017 40302 52004 69902 70242 87500 333 10040 87615;
0138268820999992000120621004+53960+032840FM-12+021799999V0209999C000010045019N0260001N1+00321+00171103131ADDGA1071+004509059GF107991071051004501001001MD1210111+9999REMSYN070AAXX  06211 26882 42476 70000 10032 20017 40313 52011 87500 333 87615;
0159268820999992000120700004+53960+032840FM-12+021799999V0209999C000010045019N0240001N1+00231+00181103171ADDGA1071+004509059GF107991071051004501001001MA1999999100351MD1210021+9999REMSYN076AAXX  07001 26882 42474 70000 10023 20018 30035 40317 52002 87500 333 87615;
0152268820999992000120703004+53960+032840FM-12+021799999V0201501N002010063019N0300001N1+00211+00161103191ADDGA1071+006309059GF107991071051008001001001GJ100009MD1210021+9999REMSYN076AAXX  07031 26882 42580 71502 10021 20016 40319 52002 87500 333 55000 87621;
0187268820999992000120706004+53960+032840FM-12+021799999V0201701N003010027019N0170001N1+00231+00181103181ADDAA199000091GA1071+002709059GF107991071051002501001001KA1120N+00171MD1810011+9999REMSYN076AAXX  07061 26882 32367 71703 10023 20018 40318 58001 87500 333 20017 87609;EQDQ01  00002PRCP99
0138268820999992000120709004+53960+032840FM-12+021799999V0201501N003010039019N0180001N1+00271+00191103221ADDGA1071+003909059GF107991071051004501001001MD1310041+9999REMSYN070AAXX  07091 26882 42468 71503 10027 20019 40322 53004 87500 333 87613;
0187268820999992000120712004+53960+032840FM-12+021799999V0201801N002010015019N0080001N1+00281+00231103181ADDAY121061AY221061GA1081+001509069GF108991081061001501999999MA1999999100371MD1810031+9999MW1101REMSYN082AAXX  07121 26882 41258 81802 10028 20023 30037 40318 58003 71022 886// 333 88705;
0138268820999992000120715004+53960+032840FM-12+021799999V0201801N003010030019N0160001N1+00251+00201103131ADDGA1071+003009059GF107991071051002501001001MD1710051+9999REMSYN070AAXX  07151 26882 42366 71803 10025 20020 40313 57005 87500 333 87610;
0215268820999992000120718004+53960+032840FM-12+021799999V0201801N004010015019N0024001N1+00231+00181103121ADDAA199000091AY121061AY221061GA1081+001509069GF108991081061001501999999KA1120M+00281MD1710011+9999MW1101REMSYN082AAXX  07181 26882 31224 81804 10023 20018 40312 57001 71022 886// 333 10028 88705;EQDQ01  00002PRCP99
0138268820999992000120721004+53960+032840FM-12+021799999V0202101N007010045019N0500001N1+00251+00041103121ADDGA1071+004509059GF107991071051004501001001MD1410001+9999REMSYN070AAXX  07211 26882 42484 72107 10025 20004 40312 54000 87500 333 87615;
0133268820999992000120800004+53960+032840FM-12+021799999V0202001N005012200019N0500001N1+00011-00261103111ADDGF102991021001999999031001MA1999999100281MD1810031+9999REMSYN066AAXX  08001 26882 42984 22005 10001 21026 30028 40311 58003 82030;
0132268820999992000120803004+53960+032840FM-12+021799999V0201901N005012200019N0500001N1-00131-00421103041ADDGA1001+999999999GF100991001001999999001001MD1710101+9999REMSYN064AAXX  08031 26882 42984 01905 11013 21042 40304 57010 333 55000;
0165268820999992000120806004+53960+032840FM-12+021799999V0202001N007019999999N0200001N1-00201-00411103001ADDAA199000091GF106991021011999999041011KA1999N-00211MD1710041+9999REMSYN070AAXX  08061 26882 32970 62007 11020 21041 40300 57004 82141 333 21021;EQDQ01  00002PRCP99
0138268820999992000120809004+53960+032840FM-12+021799999V0202001N007010045019N0200001N1-00101-00491102951ADDGA1071+004509059GF107991071051004501001001MD1710051+9999REMSYN070AAXX  08091 26882 42470 72007 11010 21049 40295 57005 87500 333 87615;
0165268820999992000120812004+53960+032840FM-12+021799999V0202001N009010051019N0200001N1-00121-00481102771ADDGA1071+005109069GF107991071051004501001001MA1999999099921MD1710171+9999REMSYN082AAXX  08121 26882 42470 72009 11012 21048 39992 40277 57017 87500 333 87617 91113;
0138268820999992000120815004+53960+032840FM-12+021799999V0201901N006010039019N0500001N1-00161-00431102721ADDGA1071+003909059GF107991071051004501001001MD1710051+9999REMSYN070AAXX  08151 26882 42484 71906 11016 21043 40272 57005 87500 333 87613;
0187268820999992000120818004+53960+032840FM-12+021799999V0202001N005010036019N0500001N1-00171-00481102571ADDAA199000091GA1071+003609059GF107991071051004501001001KA1120M-00101MD1710141+9999REMSYN076AAXX  08181 26882 32484 72005 11017 21048 40257 57014 87500 333 11010 87612;EQDQ01  00002PRCP99
0112268820999992000120821004+53960+032840FM-12+021799999V0202201N007019999999N0500001N1-00211-00561102491ADDGF107991071001999999051001MD1710091+9999REMSYN060AAXX  08211 26882 42984 72207 11021 21056 40249 57009 87050;
0133268820999992000120900004+53960+032840FM-12+021799999V0202101N007019999999N0500001N1-00221-00501102321ADDGF107991071001999999051001MA1999999099471MD1710171+9999REMSYN066AAXX  09001 26882 42984 72107 11022 21050 39947 40232 57017 87050;
0169268820999992000120903004+53960+032840FM-12+021799999V0202001N006019999999N0150001N1-00211-00421102231ADDAY171031AY281031GF108991001001999999999999MD1710081+9999MW1711REMSYN076AAXX  09031 26882 41965 82006 11021 21042 40223 57008 77178 807// 333 55000;EQDQ01+000072SCOLCG
0227268820999992000120906004+53960+032840FM-12+021799999V0202101N006010033019N0120001N1-00201-00351102191ADDAA112002091AY171061AY261061GA1081+003309079GF108991999071004501021999KA1120N-00221MD1710041+9999MW1671REMSYN094AAXX  09061 26882 11462 82106 11020 21035 40219 57004 60022 76776 8872/ 333 21022 88711 93402;EQDQ01+000082SCOTLC
0172268820999992000120909004+53960+032840FM-12+021799999V0202101N007010018019N0060001N1-00161-00301102151ADDAY171031AY261031GA1081+001809079GF108991081061001501999999MD1710011+9999MW1561REMSYN082AAXX  09091 26882 41256 82107 11016 21030 40215 57001 75676 886// 333 88706 93403;
0171268820999992000120912004+53960+032840FM-12+021799999V0202101N007010012019N0022001N1-00101-00141102071ADDAY171061AY261061GF108991081061001501999999MA1999999099251MD1710091+9999MW1571REMSYN082AAXX  09121 26882 41222 82107 11010 21014 39925 40207 57009 75776 886// 333 93404;
0191268820999992000120915004+53960+032840FM-12+021799999V0202101N006010024019N0110001N1-00041-00051102041ADDAY161031AY251031GA1081+002409079GF108991999071002501021999MD1710031+9999MW1671REMSYN082AAXX  09151 26882 41361 82106 11004 21005 40204 57003 76765 8872/ 333 88708 93405;EQDQ01+000082SCOTLC
0227268820999992000120918004+53960+032840FM-12+021799999V0202101N005010024019N0200001N1+00021-00071102001ADDAA112003091AY161061AY221061GA1081+002409079GF108991999071002501021999KA1120M+00021MD1710031+9999MW1661REMSYN094AAXX  09181 26882 11370 82105 10002 21007 40200 57003 60032 76662 8872/ 333 10002 88708 93406;EQDQ01+000082SCOTLC
0191268820999992000120921004+53960+032840FM-12+021799999V0202101N005010024019N0210001N1+00021-00071101981ADDAY161031AY221031GA1081+002409079GF108991999071002501021999MD1710021+9999MW1661REMSYN082AAXX  09211 26882 41371 82105 10002 21007 40198 57002 76662 8872/ 333 88708 93406;EQDQ01+000082SCOTLC
0212268820999992000121000004+53960+032840FM-12+021799999V0202101N003010021019N0180001N1+00021-00041101901ADDAY161061AY221061GA1081+002109079GF108991999071002501021999MA1999999099101MD1710071+9999MW1661REMSYN088AAXX  10001 26882 41368 82103 10002 21004 39910 40190 57007 76662 8872/ 333 88707 93406;EQDQ01+000082SCOTLC
0160268820999992000121003004+53960+032840FM-12+021799999V0202101N003010009019N0031001N1+00011-00021999999ADDAY161031AY251031GA1081+000909079GF108991081061001501999999GJ100009MW1561REMSYN076AAXX  10031 26882 41231 82103 10001 21002 75665 886// 333 55000 88703 93407;
0227268820999992000121006004+53960+032840FM-12+021799999V0209999C000010015019N0042001N1+00031+00001101781ADDAA112002091AY161061AY251061GA1081+001509079GF108991999071001501021999KA1120N+00011MD1710071+9999MW1611REMSYN094AAXX  10061 26882 11242 80000 10003 20000 40178 57007 60022 76165 8872/ 333 20001 88705 93407;EQDQ01+000082SCOTLC
0191268820999992000121009004+53960+032840FM-12+021799999V0209999C000010039019N0050001N1+00031+00001101661ADDAY161031AY221031GA1081+003909079GF108991999071004501021999MD1710121+9999MW1611REMSYN082AAXX  10091 26882 41450 80000 10003 20000 40166 57012 76162 8872/ 333 88713 93404;EQDQ01+000082SCOTLC
0206268820999992000121012004+53960+032840FM-12+021799999V0209999C000010012019N0011001N1+00021-00011101551ADDAY171061AY231061GA1081+001209069GF108991999071001501021999MA1999999098761MD1710101+9999MW1731REMSYN082AAXX  10121 26882 41211 80000 10002 21001 39876 40155 57010 77373 8872/ 333 88704;EQDQ01+000082SCOTLC
0191268820999992000121015004+53960+032840FM-12+021799999V0209999C000010012019N0013001N1+00011-00021101551ADDAY171031AY221031GA1081+001209079GF108991999071001501021999MD1410001+9999MW1731REMSYN082AAXX  10151 26882 41213 80000 10001 21002 40155 54000 77372 8872/ 333 88704 93708;EQDQ01+000082SCOTLC
0208268820999992000121018004+53960+032840FM-12+021799999V0209999C000010012019N0042001N1+00011-00021101561ADDAA112019191AY171061AY221061GA1081+001209079GF108991081061001501999999KA1120M+00041MD1310011+9999MW1101REMSYN094AAXX  10181 26882 11242 80000 10001 21002 40156 53001 60192 71072 886// 333 10004 88704 93716;
0160268820999992000121021004+53960+032840FM-12+021799999V0202001N001010006019N0009001N1+00011+00011101601ADDAY141031AY221031GA1091+999999999GF109991091999999999999999MD1210041+9999MW1431REMSYN070AAXX  10211 26882 41/09 92001 10001 20001 40160 52004 74342 333 93707;
0171268820999992000121100004+53960+032840FM-12+021799999V0202001N001010003019N0004001N1+00021+00021101651ADDAY141061AY221061GA1091+999999999GF109991091999999999999999MA1999999098851MD1210041+9999MW1451REMSYN066AAXX  11001 26882 41/04 92001 10002 20002 39885 40165 52004 74542;
0160268820999992000121103004+53960+032840FM-12+021799999V0209999C000010003019N0003001N1+00031+00031101661ADDAY141031AY221031GA1091+999999999GF109991091999999999999999MD1210011+9999MW1451REMSYN070AAXX  11031 26882 41/03 90000 10003 20003 40166 52001 74542 333 55000;
0232268820999992000121106004+53960+032840FM-12+021799999V0209999C000010003019N0002001N1+00051+00051101781ADDAA199000091AJ100129199999999AY141061AY221061GA1091+999999999GF109991091999999999999999IA1279KA1120N+00011MD1210061+9999MW1451REMSYN076AAXX  11061 26882 31/92 90000 10005 20005 40178 52006 74542 333 20001 43012;EQDQ01  00002PRCP99
0150268820999992000121109004+53960+032840FM-12+021799999V0202101N002010003019N0002001N1+00061+00061101871ADDAY141031AY221031GA1091+999999999GF109991091999999999999999MD1210091+9999MW1451REMSYN060AAXX  11091 26882 41/92 92102 10006 20006 40187 52009 74542;
0171268820999992000121112004+53960+032840FM-12+021799999V0202101N002010003019N0002001N1+00071+00071101941ADDAY141061AY221061GA1091+999999999GF109991091999999999999999MA1999999099141MD1210071+9999MW1451REMSYN066AAXX  11121 26882 41/92 92102 10007 20007 39914 40194 52007 74542;
0166268820999992000121115004+53960+032840FM-12+021799999V0202101N001010015019N0020001N1+00081+00051102031ADDAY141031AY221031GA1081+001509069GF108991081061001501999999MD1210081+9999MW1281REMSYN076AAXX  11151 26882 41220 82101 10008 20005 40203 52008 72842 886// 333 88705;
0215268820999992000121118004+53960+032840FM-12+021799999V0202101N003010015019N0016001N1+00081+00051102141ADDAA199000091AY141061AY221061GA1081+001509069GF108991081061001501999999KA1120M+00091MD1210111+9999MW1101REMSYN082AAXX  11181 26882 31216 82103 10008 20005 40214 52011 71042 886// 333 10009 88705;EQDQ01  00002PRCP99
0166268820999992000121121004+53960+032840FM-12+021799999V0209999C000010015019N0016001N1+00081+00051102151ADDAY141031AY221031GA1081+001509069GF108991081061001501999999MD1210051+9999MW1101REMSYN076AAXX  11211 26882 41216 80000 10008 20005 40215 52005 71042 886// 333 88705;
0187268820999992000121200004+53960+032840FM-12+021799999V0202101N002010015019N0012001N1+00061+00031102211ADDAY121061AY221061GA1081+001509069GF108991081061001501999999MA1999999099401MD1410001+9999MW1101REMSYN082AAXX  12001 26882 41212 82102 10006 20003 39940 40221 54000 71022 886// 333 88705;
0152268820999992000121203004+53960+032840FM-12+021799999V0201901N003010039019N0120001N1-00021-00111102281ADDGA1071+003909059GF107991071051004501001001GJ100009MD1210051+9999REMSYN076AAXX  12031 26882 42462 71903 11002 21011 40228 52005 87500 333 55000 87613;
0244268820999992000121206004+53960+032840FM-12+021799999V0201801N002010024019N0080001N1+00081+00031102201ADDAA199000091AJ100079199999999AY121061AY221061GA1071+002409059GF107991071051002501001001IA1279KA1120N-00021MD1810061+9999MW1101REMSYN088AAXX  12061 26882 31358 71802 10008 20003 40220 58006 71022 87500 333 21002 43007 87608;EQDQ01  00002PRCP99
0166268820999992000121209004+53960+032840FM-12+021799999V0201901N006010012019N0070001N1+00121+00071102141ADDAY121031AY221031GA1081+001209069GF108991081061001501999999MD1710051+9999MW1101REMSYN076AAXX  12091 26882 41257 81906 10012 20007 40214 57005 71022 886// 333 88704;
0187268820999992000121212004+53960+032840FM-12+021799999V0201901N003010009019N0034001N1+00141+00091101961ADDAY121061AY221061GA1081+000909069GF108991081061000751999999MA1999999099161MD1710181+9999MW1101REMSYN082AAXX  12121 26882 41134 81903 10014 20009 39916 40196 57018 71022 886// 333 88703;
0150268820999992000121215004+53960+032840FM-12+021799999V0202101N005010003019N0002001N1+00181+00181101841ADDAY141031AY221031GA1091+999999999GF109991091999999999999999MD1710101+9999MW1451REMSYN060AAXX  12151 26882 41/02 92105 10018 20018 40184 57010 74542;
0196268820999992000121218004+53960+032840FM-12+021799999V0202101N004010006019N0006001N1+00231+00231101711ADDAA112000791AY151061AY241061GA1091+999999999GF109991091999999999999999KA1120M+00231MD1710131+9999MW1511REMSYN082AAXX  12181 26882 11/06 92104 10023 20023 40171 57013 69902 75154 333 10023 96043;
0160268820999992000121221004+53960+032840FM-12+021799999V0202101N003010006019N0009001N1+00271+00241101661ADDAY151031AY241031GA1091+999999999GF109991091999999999999999MD1710051+9999MW1531REMSYN070AAXX  12211 26882 41/09 92103 10027 20024 40166 57005 75354 333 96043;
0171268820999992000121300004+53960+032840FM-12+021799999V0202301N002010003019N0003001N1+00251+00251101641ADDAY151061AY241061GA1091+999999999GF109991091999999999999999MA1999999098861MD1710021+9999MW1471REMSYN066AAXX  13001 26882 41/03 92302 10025 20025 39886 40164 57002 74754;
0160268820999992000121303004+53960+032840FM-12+021799999V0202401N003010003019N0002001N1+00251+00251101601ADDAY141031AY221031GA1091+999999999GF109991091999999999999999MD1710031+9999MW1451REMSYN070AAXX  13031 26882 41/02 92403 10025 20025 40160 57003 74542 333 55000;
0231268820999992000121306004+53960+032840FM-12+021799999V0202201N004010012019N0002001N1+00231+00231101611ADDAA112002091AJ100019199999999AY141061AY221061GA1071+001209069GF107991071061001501001001IA1309KA1120N+00211MD1310011+9999MW1441REMSYN094AAXX  13061 26882 11292 72204 10023 20023 40161 53001 60022 74442 87600 333 20021 42001 87704;
0150268820999992000121309004+53960+032840FM-12+021799999V0202401N004010003019N0002001N1+00281+00281101591ADDAY141031AY221031GA1091+999999999GF109991091999999999999999MD1810011+9999MW1451REMSYN060AAXX  13091 26882 41/92 92404 10028 20028 40159 58001 74542;
0167268820999992000121312004+53960+032840FM-12+021799999V0202201N004010015019N0026001N1+00311+00261101511ADDAY141061AY221061GA1071+001509069GF107991071061001501001001MA1999999098751MW1101REMSYN076AAXX  13121 26882 41226 72204 10031 20026 39875 40151 71042 87600 333 87705;
0140268820999992000121315004+53960+032840FM-12+021799999V0201701N002010012019N0027001N1+00321+00271101351ADDAY121031AY221031GF108991081061001501999999MD1710161+9999MW1101REMSYN066AAXX  13151 26882 41227 81702 10032 20027 40135 57016 71022 886//;
0203268820999992000121318004+53960+032840FM-12+021799999V0201601N003010006019N0006001N1+00351+00331101171ADDAA199000091AY141061AY221061GA1091+999999999GF109991091999999999999999KA1999M+00351MD1710171+9999MW1431REMSYN070AAXX  13181 26882 31/06 91603 10035 20033 40117 57017 74342 333 10035;EQDQ01  00002PRCP99
0180268820999992000121400004+53960+032840FM-12+021799999V0201801N003010012019N0025001N1+00391+00371100601ADDAY161061AY241061GF108991999071001501021999MA1999999097871MD1710291+9999MW1631REMSYN072AAXX  14001 26882 41225 81803 10039 20037 39787 40060 57029 76364 8872/;EQDQ01+000082SCOTLC
0169268820999992000121403004+53960+032840FM-12+021799999V0202101N004010012019N0090001N1+00431+00381100311ADDAY161031AY221031GF108991999071001501021999MD1710281+9999MW1631REMSYN076AAXX  14031 26882 41259 82104 10043 20038 40031 57028 76362 8872/ 333 55000;EQDQ01+000082SCOTLC
0163268820999992000121406004+53960+032840FM-12+021799999V0202801N004010042019N0140001N1+00501+00481100301ADDAY161061AY221061GF107991071051004501001001KA1999N+00341MD1410001+9999MW1021REMSYN076AAXX  14061 26882 11464 72804 10050 20048 40030 54000 70262 87500 333 20034;
0112268820999992000121409004+53960+032840FM-12+021799999V0202801N005010042019N0200001N1+00481+00431100381ADDGF107991071051004501001001MD1210071+9999REMSYN060AAXX  14091 26882 42470 72805 10048 20043 40038 52007 87500;
0133268820999992000121412004+53960+032840FM-12+021799999V0202701N004010075019N0200001N1+00451+00351100381ADDGF107991071051008001001001MA1999999097651MD1410001+9999REMSYN066AAXX  14121 26882 42570 72704 10045 20035 39765 40038 54000 87500;
0152268820999992000121503004+53960+032840FM-12+021799999V0202301N003010039019N0500001N1+00331+00281100121ADDGA1071+003909059GF107991071051004501001001GJ100309MD1710061+9999REMSYN076AAXX  15031 26882 42484 72303 10033 20028 40012 57006 87500 333 55005 87613;
0187268820999992000121506004+53960+032840FM-12+021799999V0202601N006010042019N0200001N1+00331+00181100111ADDAA199000091GA1071+004209059GF107991071051004501001001KA1120N+00251MD1710011+9999REMSYN076AAXX  15061 26882 32470 72606 10033 20018 40011 57001 87500 333 20025 87614;EQDQ01  00002PRCP99
0185268820999992000121509004+53960+032840FM-12+021799999V0202601N005010039019N0060001N1+00311+00211100261ADDAY161031AY221031GA1081+003909069GF108991999071004501021999MD1310101+9999MW1611REMSYN076AAXX  15091 26882 41456 82605 10031 20021 40026 53010 76162 8872/ 333 88713;EQDQ01+000082SCOTLC
0187268820999992000121512004+53960+032840FM-12+021799999V0202901N004010048019N0180001N1+00291+00211100281ADDAY161061AY221061GA1071+004809059GF107991071051004501001001MA1999999097551MD1210071+9999MW1021REMSYN082AAXX  15121 26882 41468 72904 10029 20021 39755 40028 52007 70262 87500 333 87616;
0202268820999992000121518004+53960+032840FM-12+021799999V0209999C000010054019N0300001N1+00171+00061100351ADDAA112000591AY161061AY221061GA1071+005409059GF107991071051004501001001KA1120M+00331MD1710041+9999MW1021REMSYN088AAXX  15181 26882 11480 70000 10017 20006 40035 57004 69962 70262 87500 333 10033 87618;
0138268820999992000121521004+53960+032840FM-12+021799999V0201801N003010060019N0300001N1+00151+00041100351ADDGA1071+006009059GF107991071051008001001001MD1410001+9999REMSYN070AAXX  15211 26882 42580 71803 10015 20004 40035 54000 87500 333 87620;
0206268820999992000121600004+53960+032840FM-12+021799999V0201301N004010024019N0050001N1+00081+00031100151ADDAY171061AY221061GA1081+002409069GF108991999071002501021999MA1999999097391MD1710211+9999MW1731REMSYN082AAXX  16001 26882 41350 81304 10008 20003 39739 40015 57021 77372 8872/ 333 88708;EQDQ01+000082SCOTLC
0199268820999992000121603004+53960+032840FM-12+021799999V0201401N004010030019N0120001N1+00061+00031099941ADDAY171031AY261031GA1081+003009069GF108991999071004501021999GJ100009MD1710201+9999MW1611REMSYN082AAXX  16031 26882 41462 81404 10006 20003 49994 57020 76176 8872/ 333 55000 88710;EQDQ01+000082SCOTLC
0196268820999992000121606004+53960+032840FM-12+021799999V0201301N004010006019N0006001N1+00081+00081099811ADDAA112004191AY171061AY261061GA1091+999999999GF109991091999999999999999KA1120N+00031MD1710131+9999MW1611REMSYN082AAXX  16061 26882 11/06 91304 10008 20008 49981 57013 60042 76176 333 20003 96047;
0185268820999992000121609004+53960+032840FM-12+021799999V0201301N005010018019N0025001N1+00051-00011099701ADDAY171031AY261031GA1081+001809069GF108991999071001501021999MD1710101+9999MW1731REMSYN076AAXX  16091 26882 41225 81305 10005 21001 49970 57010 77376 8872/ 333 88706;EQDQ01+000082SCOTLC
0206268820999992000121612004+53960+032840FM-12+021799999V0201201N004010018019N0022001N1+00051-00011099571ADDAY171061AY261061GA1081+001809069GF108991999071001501021999MA1999999096831MD1710131+9999MW1711REMSYN082AAXX  16121 26882 41222 81204 10005 21001 39683 49957 57013 77176 8872/ 333 88706;EQDQ01+000082SCOTLC
0166268820999992000121615004+53960+032840FM-12+021799999V0209999C000010051019N0240001N1+00051-00031099581ADDAY171031AY221031GA1071+005109059GF107991071051004501001001MD1310011+9999MW1021REMSYN076AAXX  16151 26882 41474 70000 10005 21003 49958 53001 70272 87500 333 87617;
0190268820999992000121618004+53960+032840FM-12+021799999V0203001N003010006019N0007001N1+00111+00111099591ADDAA112007991AY171061AY241061GA1091+999999999GF109991091999999999999999KA1999M+00111MD1210021+9999MW1471REMSYN076AAXX  16181 26882 11/07 93003 10011 20011 49959 52002 60082 74774 333 10011;
0166268820999992000121621004+53960+032840FM-12+021799999V0202901N002010060019N0150001N1+00081-00061099731ADDAY141031AY221031GA1071+006009059GF107991071051008001001001MD1210131+9999MW1281REMSYN076AAXX  16211 26882 41565 72902 10008 21006 49973 52013 72842 87500 333 87620;
0161268820999992000121700004+53960+032840FM-12+021799999V0202501N002019999999N0160001N1-00011-00071099731ADDAY141061AY221061GF106991061001999999031001MA1999999096991MD1410001+9999MW1011REMSYN072AAXX  17001 26882 41966 62502 11001 21007 39699 49973 54000 70142 86030;
0122268820999992000121703004+53960+032840FM-12+021799999V0202101N004012200019N0160001N1-00111-00211099751ADDGF103991031001999999031001MD1410001+9999REMSYN070AAXX  17031 26882 42966 32104 11011 21021 49975 54000 83030 333 55000;
0203268820999992000121706004+53960+032840FM-12+021799999V0202301N002010003019N0002001N1-00141-00191099911ADDAA199000091AY141061AY221061GA1091+999999999GF109991091999999999999999KA1999N-00201MD1310151+9999MW1491REMSYN070AAXX  17061 26882 31/92 92302 11014 21019 49991 53015 74942 333 21020;EQDQ01  00002PRCP99
0166268820999992000121709004+53960+032840FM-12+021799999V0202301N001010015019N0013001N1-00041-00071099991ADDAY141031AY221031GA1081+001509069GF108991081061001501999999MD1210091+9999MW1281REMSYN076AAXX  17091 26882 41213 82301 11004 21007 49999 52009 72842 886// 333 88705;
0187268820999992000121712004+53960+032840FM-12+021799999V0202601N003010048019N0034001N1+00021-00011100071ADDAY141061AY221061GA1071+004809059GF107991071051004501001001MA1999999097321MD1210091+9999MW1101REMSYN082AAXX  17121 26882 41434 72603 10002 21001 39732 40007 52009 71042 87500 333 87616;
0112268820999992000121715004+53960+032840FM-12+021799999V0202501N003010042019N0240001N1-00051-00111100271ADDGF107991071051004501001001MD1210181+9999REMSYN060AAXX  17151 26882 42474 72503 11005 21011 40027 52018 87500;
0165268820999992000121718004+53960+032840FM-12+021799999V0202201N003010042019N0270001N1-00051-00111100381ADDAA199000091GF107991071051004501001001KA1999M+00021MD1210111+9999REMSYN070AAXX  17181 26882 32477 72203 11005 21011 40038 52011 87500 333 10002;EQDQ01  00002PRCP99
0159268820999992000121721004+53960+032840FM-12+021799999V0202501N003010021019N0170001N1-00071-00111100561ADDAY171031AY221031GF108991999071002501021999MD1210171+9999MW1711REMSYN066AAXX  17211 26882 41367 82503 11007 21011 40056 52017 77172 8872/;EQDQ01+000082SCOTLC
0180268820999992000121800004+53960+032840FM-12+021799999V0202601N003010012019N0120001N1-00051-00081100691ADDAY171061AY221061GF108991999071001501021999MA1999999097911MD1210131+9999MW1711REMSYN072AAXX  18001 26882 41262 82603 11005 21008 39791 40069 52013 77172 8872/;EQDQ01+000082SCOTLC
0169268820999992000121803004+53960+032840FM-12+021799999V0202701N003010012019N0140001N1-00051-00081100761ADDAY171031AY221031GF108991999071001501021999MD1210061+9999MW1711REMSYN076AAXX  18031 26882 41264 82703 11005 21008 40076 52006 77172 8872/ 333 55000;EQDQ01+000082SCOTLC
0209268820999992000121806004+53960+032840FM-12+021799999V0202501N004010075019N0200001N1-00061-00121100871ADDAA112000591AJ100019199999999AY171061AY221061GF107991071051008001001001IA1229KA1120N-00091MD1210111+9999MW1021REMSYN088AAXX  18061 26882 11570 72504 11006 21012 40087 52011 69942 70272 87500 333 21009 46001;
0159268820999992000121809004+53960+032840FM-12+021799999V0202701N003010042019N0100001N1-00021-00081100981ADDAY171031AY221031GF108991999071004501021999MD1210111+9999MW1711REMSYN066AAXX  18091 26882 41460 82703 11002 21008 40098 52011 77172 8872/;EQDQ01+000082SCOTLC
0161268820999992000121812004+53960+032840FM-12+021799999V0202601N001010042019N0150001N1-00041-00131101041ADDAY171061AY221061GF107991071051004501001001MA1999999098251MD1210061+9999MW1021REMSYN072AAXX  18121 26882 41465 72601 11004 21013 39825 40104 52006 70272 87500;
0112268820999992000121815004+53960+032840FM-12+021799999V0209999C000010042019N0120001N1-00051-00171101121ADDGF107991071051004501001001MD1210081+9999REMSYN060AAXX  18151 26882 42462 70000 11005 21017 40112 52008 87500;
0199268820999992000121818004+53960+032840FM-12+021799999V0200401N002010042019N0130001N1-00141-00251101221ADDAA112000391AY171061AY221061GF108991999071004501021999KA1999M-00011MD1210091+9999MW1711REMSYN082AAXX  18181 26882 11463 80402 11014 21025 40122 52009 69932 77172 8872/ 333 11001;EQDQ01+000082SCOTLC
0140268820999992000121821004+53960+032840FM-12+021799999V0200501N003010042019N0250001N1-00421-00511101361ADDAY171031AY221031GF107991071051004501001001MD1210101+9999MW1021REMSYN066AAXX  18211 26882 41475 70503 11042 21051 40136 52010 70272 87500;
0161268820999992000121900004+53960+032840FM-12+021799999V0203601N004010042019N0220001N1-00521-00621101471ADDAY171061AY221061GF107991071051004501001001MA1999999098611MD1210091+9999MW1021REMSYN072AAXX  19001 26882 41472 73604 11052 21062 39861 40147 52009 70272 87500;
0122268820999992000121903004+53960+032840FM-12+021799999V0200101N003010042019N0200001N1-00511-00651101501ADDGF107991071051004501001001MD1210031+9999REMSYN070AAXX  19031 26882 42470 70103 11051 21065 40150 52003 87500 333 55000;
0181268820999992000121906004+53960+032840FM-12+021799999V0200101N001010042019N0180001N1-00551-00761101581ADDAA112000791AJ100019199999999GF107991071051004501001001IA1229KA1120N-00641MD1210081+9999REMSYN082AAXX  19061 26882 12468 70101 11055 21076 40158 52008 69902 87500 333 21064 46001;
0140268820999992000121909004+53960+032840FM-12+021799999V0203501N005019999999N0120001N1-00611-00841101681ADDAY171031AY221031GF108991081001999999071999MD1210091+9999MW1711REMSYN066AAXX  19091 26882 41962 83505 11061 21084 40168 52009 77172 8807/;
0161268820999992000121912004+53960+032840FM-12+021799999V0203501N005019999999N0160001N1-00581-00841101781ADDAY171061AY221061GF108991081001999999071999MA1999999098901MD1210091+9999MW1711REMSYN072AAXX  19121 26882 41966 83505 11058 21084 39890 40178 52009 77172 8807/;
0140268820999992000121915004+53960+032840FM-12+021799999V0203301N005019999999N0180001N1-00621-00851101861ADDAY171031AY221031GF108991081001999999071999MD1210081+9999MW1711REMSYN066AAXX  19151 26882 41968 83305 11062 21085 40186 52008 77172 8807/;
0180268820999992000121918004+53960+032840FM-12+021799999V0203301N004019999999N0140001N1-00681-00881101991ADDAA112000591AY171061AY221061GF108991081001999999071999KA1999M-00491MD1210121+9999MW1711REMSYN082AAXX  19181 26882 11964 83304 11068 21088 40199 52012 69952 77172 8807/ 333 11049;
0140268820999992000121921004+53960+032840FM-12+021799999V0203401N005019999999N0200001N1-00751-00881102041ADDAY171031AY221031GF108991081001999999071999MD1210051+9999MW1021REMSYN066AAXX  19211 26882 41970 83405 11075 21088 40204 52005 70272 8807/;
0161268820999992000122000004+53960+032840FM-12+021799999V0203201N006019999999N0180001N1-00871-01021102181ADDAY171061AY221061GF108991081001999999071999MA1999999099271MD1210121+9999MW1021REMSYN072AAXX  20001 26882 41968 83206 11087 21102 39927 40218 52012 70272 8807/;
0150268820999992000122003004+53960+032840FM-12+021799999V0203401N006019999999N0140001N1-00941-01101102351ADDAY171031AY221031GF108991081001999999071999MD1210141+9999MW1711REMSYN076AAXX  20031 26882 41964 83406 11094 21110 40235 52014 77172 8807/ 333 55000;
0209268820999992000122006004+53960+032840FM-12+021799999V0203301N005019999999N0200001N1-01061-01341102501ADDAA112000791AJ100019199999999AY171061AY221061GF108991081001999999071999IA1229KA1120N-01091MD1210101+9999MW1711REMSYN088AAXX  20061 26882 11970 83305 11106 21134 40250 52010 69902 77172 8807/ 333 21109 46001;
0114268820999992000122009004+53960+032840FM-12+021799999V0203301N004012200019N0200001N1-00881-01161999999ADDAY171031AY211031GF103991031051004501001001MW1011REMSYN054AAXX  20091 26882 41470 33304 11088 21116 70171 83500;
0161268820999992000122012004+53960+032840FM-12+021799999V0203001N004019999999N0080001N1-00641-00831102551ADDAY181061AY271061GF108991081001999999071999MA1999999099661MD1210011+9999MW1711REMSYN072AAXX  20121 26882 41958 83004 11064 21083 39966 40255 52001 77187 8807/;
0140268820999992000122015004+53960+032840FM-12+021799999V0203101N004019999999N0090001N1-00581-00801102511ADDAY171031AY221031GF108991081001999999071999MD1810041+9999MW1711REMSYN066AAXX  20151 26882 41959 83104 11058 21080 40251 58004 77172 8807/;
0180268820999992000122018004+53960+032840FM-12+021799999V0203201N005019999999N0150001N1-00541-00721102521ADDAA112000591AY171061AY221061GF108991081001999999071999KA1999M-00541MD1310021+9999MW1711REMSYN082AAXX  20181 26882 11965 83205 11054 21072 40252 53002 69942 77172 8807/ 333 11054;
0140268820999992000122021004+53960+032840FM-12+021799999V0203101N004019999999N0180001N1-00551-00731102521ADDAY171031AY221031GF108991081001999999071999MD1410001+9999MW1711REMSYN066AAXX  20211 26882 41968 83104 11055 21073 40252 54000 77172 8807/;
0161268820999992000122100004+53960+032840FM-12+021799999V0203301N004019999999N0400001N1-00511-00681102491ADDAY171061AY221061GF106991061001999999031001MA1999999099611MD1810031+9999MW1011REMSYN072AAXX  21001 26882 41982 63304 11051 21068 39961 40249 58003 70172 86030;
0150268820999992000122103004+53960+032840FM-12+021799999V0203201N004019999999N0150001N1-00571-00711102461ADDAY171031AY221031GF107991071001999999021001MD1710031+9999MW1711REMSYN076AAXX  21031 26882 41965 73204 11057 21071 40246 57003 77172 87020 333 55011;
0209268820999992000122106004+53960+032840FM-12+021799999V0203101N005010300019N0060001N1-00501-00631102441ADDAA112000391AJ100049199999999AY171061AY221061GF108991021071004501021999IA1239KA1120N-00691MD1710021+9999MW1711REMSYN088AAXX  21061 26882 11456 83105 11050 21063 40244 57002 69932 77172 8272/ 333 21069 47004;
0140268820999992000122109004+53960+032840FM-12+021799999V0203301N004010042019N0200001N1-00431-00661102471ADDAY171031AY221031GF107991071051004501001001MD1310041+9999MW1011REMSYN066AAXX  21091 26882 41470 73304 11043 21066 40247 53004 70172 87500;
0161268820999992000122112004+53960+032840FM-12+021799999V0203601N005010075019N0200001N1-00461-00891102471ADDAY171061AY211061GF107991071051008001001001MA1999999099601MD1410001+9999MW1021REMSYN072AAXX  21121 26882 41570 73605 11046 21089 39960 40247 54000 70271 87500;
0159268820999992000122115004+53960+032840FM-12+021799999V0203001N003010042019N0060001N1-00521-00771102431ADDAY171031AY221031GF108991999071004501021999MD1710051+9999MW1711REMSYN066AAXX  21151 26882 41456 83003 11052 21077 40243 57005 77172 8872/;EQDQ01+000082SCOTLC
0199268820999992000122118004+53960+032840FM-12+021799999V0203101N005010042019N0150001N1-00521-00691102491ADDAA112000391AY171061AY221061GF108991999071004501021999KA1999M-00411MD1310061+9999MW1711REMSYN082AAXX  21181 26882 11465 83105 11052 21069 40249 53006 69932 77172 8872/ 333 11041;EQDQ01+000082SCOTLC
0140268820999992000122121004+53960+032840FM-12+021799999V0203401N003010042019N0210001N1-00501-00711102491ADDAY171031AY221031GF107991071051004501001001MD1410001+9999MW1021REMSYN066AAXX  21211 26882 41471 73403 11050 21071 40249 54000 70272 87500;
0161268820999992000122200004+53960+032840FM-12+021799999V0203401N003010042019N0300001N1-00501-00711102491ADDAY171061AY221061GF107991071051004501001001MA1999999099611MD1410001+9999MW1021REMSYN072AAXX  22001 26882 41480 73403 11050 21071 39961 40249 54000 70272 87500;
0122268820999992000122203004+53960+032840FM-12+021799999V0203301N002010042019N0350001N1-00621-00851102491ADDGF107991071051004501001001MD1810011+9999REMSYN070AAXX  22031 26882 42481 73302 11062 21085 40249 58001 87500 333 55000;
0181268820999992000122206004+53960+032840FM-12+021799999V0200101N003010042019N0200001N1-00601-00871102491ADDAA112000791AJ100049199999999GF107991071051004501001001IA1239KA1120N-00661MD1410001+9999REMSYN082AAXX  22061 26882 11470 70103 11060 21087 40249 54000 69902 87500 333 21066 47004;
0112268820999992000122209004+53960+032840FM-12+021799999V0200201N003019999999N0200001N1-00681-01201102501ADDGF106991061001999999031001MD1410001+9999REMSYN060AAXX  22091 26882 42970 60203 11068 21120 40250 54000 86030;
0161268820999992000122212004+53960+032840FM-12+021799999V0200201N003019999999N0200001N1-00601-00871102361ADDAY171061AY221061GF107991071001999999031001MA1999999099471MD1710131+9999MW1021REMSYN072AAXX  22121 26882 41970 70203 11060 21087 39947 40236 57013 70272 87030;
0140268820999992000122215004+53960+032840FM-12+021799999V0200401N003019999999N0500001N1-00621+99999102171ADDAY171031AY221031GF107991071001999999031001MD1710181+9999MW1021REMSYN066AAXX  22151 26882 41984 70403 11062 20085 40217 57018 70272 87030;
0180268820999992000122218004+53960+032840FM-12+021799999V0202501N006019999999N0110001N1-00601-00791101831ADDAA112000791AY171061AY221061GF108991081001999999071999KA1999M-00591MD1710341+9999MW1711REMSYN082AAXX  22181 26882 11961 82506 11060 21079 40183 57034 69902 77172 8807/ 333 11059;
0159268820999992000122221004+53960+032840FM-12+021799999V0202301N007010042019N0050001N1-00581-00761101551ADDAY171031AY231031GF108991999071004501021999MD1710271+9999MW1731REMSYN066AAXX  22211 26882 41450 82307 11058 21076 40155 57027 77373 8872/;EQDQ01+000082SCOTLC
0180268820999992000122300004+53960+032840FM-12+021799999V0202601N008010021019N0020001N1-00451-00511101231ADDAY171061AY231061GF108991999071002501021999MA1999999098391MD1710291+9999MW1731REMSYN072AAXX  23001 26882 41320 82608 11045 21051 39839 40123 57029 77373 8872/;EQDQ01+000082SCOTLC
0183268820999992000122303004+53960+032840FM-12+021799999V0202501N008010012019N0019001N1-00321-00461100981ADDAY171031AY231031GF108991999071001501021999GJ100849MD1710231+9999MW1731REMSYN082AAXX  23031 26882 41219 82508 11032 21046 40098 57023 77373 8872/ 333 55014 91113;EQDQ01+000082SCOTLC
0234268820999992000122306004+53960+032840FM-12+021799999V0202601N008010012019N0050001N1-00251-00441100901ADDAA112001091AJ100059199999999AY171061AY231061GF108991999071001501021999IA1249KA1120N-00621MD1710081+9999MW1711REMSYN094AAXX  23061 26882 11250 82608 11025 21044 40090 57008 60012 77173 8872/ 333 21062 48005 91113;EQDQ01+000082SCOTLC
0140268820999992000122309004+53960+032840FM-12+021799999V0202501N006019999999N0200001N1-00341-00661100841ADDAY171031AY231031GF108991081001999999071999MD1710071+9999MW1221REMSYN066AAXX  23091 26882 41970 82506 11034 21066 40084 57007 72273 8807/;
0109268820999992000122312004+53960+032840FM-12+021799999V0202401N005019999999N0200001N1-00451+99999999999ADDGF107991999999004501999999REMSYN071AAXX  23121 26882 41470 72405 11045 2183 39784 40066 57018 70373 87500;
0112268820999992000122315004+53960+032840FM-12+021799999V0202401N006010042019N0400001N1-00531-00821100611ADDGF107991071051004501001001MD1710061+9999REMSYN060AAXX  23151 26882 42482 72406 11053 21082 40061 57006 87500;
0152268820999992000122318004+53960+032840FM-12+021799999V0202401N005010042019N0250001N1-00571-00791100501ADDAA112000191GF107991071051004501001001KA1999M-00211MD1710111+9999REMSYN076AAXX  23181 26882 11475 72405 11057 21079 40050 57011 69922 87500 333 11021;
0112268820999992000122321004+53960+032840FM-12+021799999V0202301N005010042019N0200001N1-00601-00791100401ADDGF107991071051004501001001MD1710101+9999REMSYN060AAXX  23211 26882 42470 72305 11060 21079 40040 57010 87500;
0133268820999992000122400004+53960+032840FM-12+021799999V0202201N004010042019N0200001N1-00631-00781100311ADDGF107991071051004501001001MA1999999097481MD1710091+9999REMSYN066AAXX  24001 26882 42470 72204 11063 21078 39748 40031 57009 87500;
0168268820999992000122403004+53960+032840FM-12+021799999V0202201N005010021019N0070001N1-00581-00731100221ADDAY171031AY221031GF108991999071002501021999MD1710081+9999MW1711REMSYN075AAXX  24031 26882 42357 82205 11058 21073 40022 57008 77172 8872/ 333 5500;EQDQ01+000082SCOTLC
0227268820999992000122406004+53960+032840FM-12+021799999V0202401N005010012019N0013001N1-00531-00671100151ADDAJ100069199999999AY171061AY231061GF108991999071001501021999IA1249KA1120N+99999MD1710041+9999MW1731REMSYN082AAXX  24061 26882 11213 82405 11053 21067 40015 57004 77373 8872/ 333 20067 48006;EQDQ01+000082SCOTLCQ02 +00672ATMN  
0159268820999992000122409004+53960+032840FM-12+021799999V0202501N006010021019N0070001N1-00441-00571100161ADDAY171031AY231031GF108991999071002501021999MD1310011+9999MW1711REMSYN066AAXX  24091 26882 41357 82506 11044 21057 40016 53001 77173 8872/;EQDQ01+000082SCOTLC
0161268820999992000122412004+53960+032840FM-12+021799999V0202401N005010012019N0044001N1-00381-00461100131ADDAY171061AY231061GF108991081061001501999999MA1999999097341MD1810011+9999MW1101REMSYN072AAXX  24121 26882 41244 82405 11038 21046 39734 40013 58001 71073 886//;
0140268820999992000122415004+53960+032840FM-12+021799999V0202401N005010012019N0110001N1-00361-00501100191ADDAY171031AY221031GF108991081061001501999999MD1310051+9999MW1021REMSYN066AAXX  24151 26882 41261 82405 11036 21050 40019 53005 70272 886//;
0180268820999992000122418004+53960+032840FM-12+021799999V0202301N005010021019N0210001N1-00351-00561100161ADDAA112000591AY171061AY221061GF107991071051002501001001KA1999M-00351MD1810031+9999MW1021REMSYN082AAXX  24181 26882 11371 72305 11035 21056 40016 58003 69942 70272 87500 333 11035;
0112268820999992000122421004+53960+032840FM-12+021799999V0202401N005010042019N0300001N1-00331-00571100231ADDGF107991071051004501001001MD1310071+9999REMSYN060AAXX  24211 26882 42480 72405 11033 21057 40023 53007 87500;
0133268820999992000122500004+53960+032840FM-12+021799999V0202601N005010021019N0280001N1-00311-00511100281ADDGF107991071051002501001001MA1999999097481MD1210051+9999REMSYN066AAXX  25001 26882 42378 72605 11031 21051 39748 40028 52005 87500;
0122268820999992000122503004+53960+032840FM-12+021799999V0202601N005010042019N0300001N1-00351-00561100341ADDGF107991071051004501001001MD1210061+9999REMSYN070AAXX  25031 26882 42480 72605 11035 21056 40034 52006 87500 333 55000;
0222268820999992000122506004+53960+032840FM-12+021799999V0202601N005010042019N0070001N1-00361-00561100461ADDAA199000091AJ100069199999999AY121061AY221061GF107991071051004501001001IA1249KA1120N-00391MD1210111+9999MW1101REMSYN082AAXX  25061 26882 31457 72605 11036 21056 40046 52011 71022 87500 333 21039 48006;EQDQ01  00002PRCP99
0140268820999992000122509004+53960+032840FM-12+021799999V0202501N004010300019N0050001N1-00391-00611100571ADDAY121031AY221031GF107991021051004501031011MD1210101+9999MW1101REMSYN066AAXX  25091 26882 41450 72504 11039 21061 40057 52010 71022 82531;
0133268820999992000122512004+53960+032840FM-12+021799999V0202601N003010042019N0100001N1-00341-00741100621ADDGF107991071051004501001001MA1999999097811MD1210061+9999REMSYN066AAXX  25121 26882 42460 72603 11034 21074 39781 40062 52006 87500;
0140268820999992000122515004+53960+032840FM-12+021799999V0202701N003010042019N0090001N1-00381-00711100631ADDAY121031AY221031GF107991071051004501001001MD1210011+9999MW1101REMSYN066AAXX  25151 26882 41459 72703 11038 21071 40063 52001 71022 87500;
0165268820999992000122518004+53960+032840FM-12+021799999V0202301N002010042019N0500001N1-00441-00711100661ADDAA199000091GF107991071051004501001001KA1999M-00311MD1210021+9999REMSYN070AAXX  25181 26882 32484 72302 11044 21071 40066 52002 87500 333 11031;EQDQ01  00002PRCP99
0159268820999992000122521004+53960+032840FM-12+021799999V0201201N002010012019N0021001N1-00501-00631100651ADDAY171031AY221031GF108991999071001501021999MD1810021+9999MW1731REMSYN066AAXX  25211 26882 41221 81202 11050 21063 40065 58002 77372 8872/;EQDQ01+000082SCOTLC
0180268820999992000122600004+53960+032840FM-12+021799999V0201201N003010012019N0018001N1-00521-00621100561ADDAY171061AY221061GF108991999071001501021999MA1999999097731MD1710091+9999MW1731REMSYN072AAXX  26001 26882 41218 81203 11052 21062 39773 40056 57009 77372 8872/;EQDQ01+000082SCOTLC
0169268820999992000122603004+53960+032840FM-12+021799999V0201001N002010012019N0017001N1-00541-00641100421ADDAY171031AY221031GF108991999071001501021999MD1710131+9999MW1731REMSYN076AAXX  26031 26882 41217 81002 11054 21064 40042 57013 77372 8872/ 333 55000;EQDQ01+000082SCOTLC
0200268820999992000122606004+53960+032840FM-12+021799999V0201101N003010012019N0013001N1-00521-00591100391ADDAA112005191AJ100139199999999GF108991999071001501021999IA1239KA1120N-00541MD1710031+9999REMSYN082AAXX  26061 26882 11213 81103 11052 21059 40039 57003 60052 8872/ 333 21054 47013;EQDQ01+000082SCOTLC
0159268820999992000122609004+53960+032840FM-12+021799999V0201001N003010012019N0014001N1-00501-00571100351ADDAY171031AY221031GF108991999071001501021999MD1710041+9999MW1731REMSYN066AAXX  26091 26882 41214 81003 11050 21057 40035 57004 77372 8872/;EQDQ01+000082SCOTLC
0159268820999992000122612004+53960+032840FM-12+021799999V0201101N002010012019N0025001N1-00441-00531100531ADDAY171061AY221061GF108991999071001501021999MD1710011+9999MW1731REMSYN066AAXX  26121 26882 41225 81102 11044 21053 40053 57001 77372 8872/;EQDQ01+000082SCOTLC
0159268820999992000122615004+53960+032840FM-12+021799999V0201101N002010021019N0060001N1-00461-00551100351ADDAY171031AY221031GF108991999071002501021999MD1210021+9999MW1711REMSYN066AAXX  26151 26882 41356 81102 11046 21055 40035 52002 77172 8872/;EQDQ01+000082SCOTLC
0180268820999992000122618004+53960+032840FM-12+021799999V0200401N003010042019N0150001N1-00481-00611100581ADDAA112003091AY171061AY221061GF107991071051004501001001KA1999M-00361MD1210221+9999MW1021REMSYN082AAXX  26181 26882 11465 70403 11048 21061 40058 52022 60032 70272 87500 333 11036;
0112268820999992000122621004+53960+032840FM-12+021799999V0200501N002010042019N0140001N1-00481-00611100691ADDGF107991071051004501001001MD1210111+9999REMSYN060AAXX  26211 26882 42464 70502 11048 21061 40069 52011 87500;
0133268820999992000122700004+53960+032840FM-12+021799999V0200701N003010042019N0120001N1-00501-00601100711ADDGF107991071051004501001001MA1999999097881MD1110011+9999REMSYN066AAXX  27001 26882 42462 70703 11050 21060 39788 40071 51001 87500;
0122268820999992000122703004+53960+032840FM-12+021799999V0200801N004010042019N0100001N1-00501-00671100651ADDGF107991071051004501001001MD1710061+9999REMSYN070AAXX  27031 26882 42460 70804 11050 21067 40065 57006 87500 333 55000;
0228268820999992000122706004+53960+032840FM-12+021799999V0200701N004010012019N0020001N1-00591-00741100521ADDAA112001091AJ100159199999999AY171061AY231061GF108991999071001501021999IA1239KA1120N-00591MD1710141+9999MW1731REMSYN088AAXX  27061 26882 11220 80704 11059 21074 40052 57014 60012 77373 8872/ 333 21059 47015;EQDQ01+000082SCOTLC
0160268820999992000122709004+53960+032840FM-12+021799999V0200701N005010006019N0007001N1-00601-00751100411ADDAY171031AY231031GA1091+999999999GF109991091999999999999999MD1710101+9999MW1751REMSYN070AAXX  27091 26882 41/07 90705 11060 21075 40041 57010 77573 333 92992;
0180268820999992000122712004+53960+032840FM-12+021799999V0200801N006010021019N0060001N1-00611-00801100261ADDAY171061AY231061GF108991999071002501021999MA1999999097431MD1710151+9999MW1711REMSYN072AAXX  27121 26882 41356 80806 11061 21080 39743 40026 57015 77173 8872/;EQDQ01+000082SCOTLC
0159268820999992000122715004+53960+032840FM-12+021799999V0200801N004010021019N0048001N1-00651-00851100281ADDAY171031AY231031GF108991999071002501021999MD1310021+9999MW1711REMSYN066AAXX  27151 26882 41348 80804 11065 21085 40028 53002 77173 8872/;EQDQ01+000082SCOTLC
0199268820999992000122718004+53960+032840FM-12+021799999V0200801N003010042019N0090001N1-00721-00891100391ADDAA112010991AY171061AY231061GF108991999071004501021999KA1999M-00491MD1210101+9999MW1711REMSYN082AAXX  27181 26882 11459 80803 11072 21089 40039 52010 60112 77173 8872/ 333 11049;EQDQ01+000082SCOTLC
0140268820999992000122721004+53960+032840FM-12+021799999V0200701N002010042019N0150001N1-00731-00941100571ADDAY171031AY221031GF107991071051004501001001MD1210171+9999MW1021REMSYN066AAXX  27211 26882 41465 70702 11073 21094 40057 52017 70272 87500;
0161268820999992000122800004+53960+032840FM-12+021799999V0200801N002010042019N0200001N1-00751-00951100721ADDAY171061AY221061GF107991071051004501001001MA1999999097871MD1210151+9999MW1021REMSYN072AAXX  28001 26882 41470 70802 11075 21095 39787 40072 52015 70272 87500;
0122268820999992000122803004+53960+032840FM-12+021799999V0200801N001010042019N0200001N1-00821-01011100891ADDGF107991071051004501001001MD1210151+9999REMSYN070AAXX  28031 26882 42470 70801 11082 21101 40089 52015 87500 333 55000;
0181268820999992000122806004+53960+032840FM-12+021799999V0200801N001010042019N0170001N1-00851-01041100911ADDAA112000791AJ100199199999999GF107991071051004501001001IA1249KA1120N-00851MD1210021+9999REMSYN082AAXX  28061 26882 12467 70801 11085 21104 40091 52002 69902 87500 333 21085 48019;
0161268820999992000122812004+53960+032840FM-12+021799999V0201201N002019999999N0150001N1-00771-00991100981ADDAY171061AY221061GF108991081001999999071999MA1999999098121MD1810011+9999MW1031REMSYN072AAXX  28121 26882 41965 81202 11077 21099 39812 40098 58001 70372 8807/;
0112268820999992000122815004+53960+032840FM-12+021799999V0201201N002010042019N0150001N1-00791-00971100991ADDGF107991071051004501001001MD1410001+9999REMSYN060AAXX  28151 26882 42465 71202 11079 21097 40099 54000 87500;
0180268820999992000122818004+53960+032840FM-12+021799999V0201001N002010012019N0070001N1-00831-00931100901ADDAA112000791AY121061AY221061GF108991081061001501999999KA1999M-00741MD1810091+9999MW1101REMSYN082AAXX  28181 26882 11257 81002 11083 21093 40090 58009 69902 71022 886// 333 11074;
0140268820999992000122821004+53960+032840FM-12+021799999V0200901N003010012019N0030001N1-00751-00841100691ADDAY121031AY221031GF108991081061001501999999MD1710191+9999MW1101REMSYN066AAXX  28211 26882 41230 80903 11075 21084 40069 57019 71022 886//;
0161268820999992000122900004+53960+032840FM-12+021799999V0200801N003010012019N0050001N1-00431-00491100291ADDAY121061AY221061GF108991081061001501999999MA1999999097481MD1710361+9999MW1101REMSYN072AAXX  29001 26882 41250 80803 11043 21049 39748 40029 57036 71022 886//;
0175268820999992000122903004+53960+032840FM-12+021799999V0201101N004010021019N0070001N1-00151-00231099971ADDAY161031AY221031GF108991999071002501021999MD1710281+9999MW1661REMSYN082AAXX  29031 26882 41357 81104 11015 21023 49997 57028 76662 8872/ 333 55002 93607;EQDQ01+000082SCOTLC
0234268820999992000122906004+53960+032840FM-12+021799999V0201201N004010012019N0022001N1+00021-00011099771ADDAA112001091AJ100199199999999AY161061AY221061GF108991999071001501021999IA1279KA1120N-00821MD1710171+9999MW1661REMSYN094AAXX  29061 26882 11222 81204 10002 21001 49977 57017 69992 76662 8872/ 333 21082 43019 93607;EQDQ01+000082SCOTLC
0159268820999992000122909004+53960+032840FM-12+021799999V0201201N004010006019N0023001N1+00101+00071099711ADDAY161031AY221031GF108991999071000751021999MD1710051+9999MW1611REMSYN066AAXX  29091 26882 41123 81204 10010 20007 49971 57005 76162 8872/;EQDQ01+000082SCOTLC
0181268820999992000122912004+53960+032840FM-12+021799999V0202201N005010006019N0008001N1+00261+00261099741ADDAY141061AY241061GA1091+999999999GF109991091999999999999999MA1999999097021MD1310041+9999MW1531REMSYN076AAXX  29121 26882 41/08 92205 10026 20026 39702 49974 53004 75344 333 96045;
0140268820999992000122915004+53960+032840FM-12+021799999V0202301N005010012019N0170001N1+00131+00081100061ADDAY151031AY241031GF108991081061001501999999MD1210311+9999MW1021REMSYN066AAXX  29151 26882 41267 82305 10013 20008 40006 52031 70254 886//;
0180268820999992000122918004+53960+032840FM-12+021799999V0202501N005010042019N0230001N1+00041+00011100381ADDAA112004191AY151061AY241061GF107991071051004501001001KA1999M+00301MD1210291+9999MW1021REMSYN082AAXX  29181 26882 11473 72505 10004 20001 40038 52029 60042 70254 87500 333 10030;
0112268820999992000122921004+53960+032840FM-12+021799999V0202601N005010042019N0130001N1+00041-00021100661ADDGF107991071051004501001001MD1210271+9999REMSYN060AAXX  29211 26882 42463 72605 10004 21002 40066 52027 87500;
0133268820999992000123000004+53960+032840FM-12+021799999V0203001N004010042019N0150001N1+00021-00041100761ADDGF107991071051004501001001MA1999999097991MD1110101+9999REMSYN066AAXX  30001 26882 42465 73004 10002 21004 39799 40076 51010 87500;
0122268820999992000123003004+53960+032840FM-12+021799999V0200201N002010042019N0200001N1+00041-00071100911ADDGF107991071051004501001001MD1210151+9999REMSYN070AAXX  30031 26882 42470 70202 10004 21007 40091 52015 87500 333 55000;
0194268820999992000123006004+53960+032840FM-12+021799999V0209999C000010021019N0200001N1+00021-00091100951ADDAA199000091AJ100169199999999GF107991071051002501001001IA1279KA1120N+00021MD1210041+9999REMSYN076AAXX  30061 26882 32370 70000 10002 21009 40095 52004 87500 333 20002 43016;EQDQ01  00002PRCP99
0112268820999992000123009004+53960+032840FM-12+021799999V0201001N004010042019N0200001N1+00001-00151100991ADDGF107991071051004501001001MD1210041+9999REMSYN060AAXX  30091 26882 42470 71004 10000 21015 40099 52004 87500;
0133268820999992000123012004+53960+032840FM-12+021799999V0200901N003010042019N0200001N1+00041-00131100991ADDGF107991071051004501001001MA1999999098221MD1410001+9999REMSYN066AAXX  30121 26882 42470 70903 10004 21013 39822 40099 54000 87500;
0140268820999992000123015004+53960+032840FM-12+021799999V0201001N004010021019N0500001N1+00011-00021100971ADDAY171031AY261031GF107991071051002501001001MD1810021+9999MW1611REMSYN066AAXX  30151 26882 41384 71004 10001 21002 40097 58002 76176 87500;
0180268820999992000123018004+53960+032840FM-12+021799999V0201101N005010021019N0500001N1+00031+00001100931ADDAA112000791AY161061AY221061GF107991071051002501001001KA1999M+00051MD1710041+9999MW1611REMSYN082AAXX  30181 26882 11384 71105 10003 20000 40093 57004 69902 76162 87500 333 10005;
0140268820999992000123021004+53960+032840FM-12+021799999V0201001N004010021019N0200001N1+00031+00001100921ADDAY161031AY221031GF107991071051002501001001MD1710011+9999MW1021REMSYN066AAXX  30211 26882 41370 71004 10003 20000 40092 57001 70262 87500;
0180268820999992000123100004+53960+032840FM-12+021799999V0201101N003010012019N0050001N1+00081+00051100891ADDAY161061AY221061GF108991999071001501021999MA1999999098121MD1710031+9999MW1611REMSYN072AAXX  31001 26882 41250 81103 10008 20005 39812 40089 57003 76162 8872/;EQDQ01+000082SCOTLC
0150268820999992000123103004+53960+032840FM-12+021799999V0201001N003010006019N0026001N1+00061+00031100831ADDAY161031AY221031GF108991081061000751999999MD1710061+9999MW1101REMSYN076AAXX  31031 26882 41126 81003 10006 20003 40083 57006 71062 886// 333 55000;
0180268820999992000123106004+53960+032840FM-12+021799999V0201001N003010006019N0011001N1+00061+00031100831ADDAA112000591AY161061AY221061GF108991081061000751999999KA1999N+00031MD1410001+9999MW1101REMSYN082AAXX  31061 26882 11111 81003 10006 20003 40083 54000 69962 71062 886// 333 20003;
0150268820999992000123109004+53960+032840FM-12+021799999V0201001N003010003019N0002001N1+00081+00081100831ADDAY141031AY221031GA1091+999999999GF109991091999999999999999MD1410001+9999MW1451REMSYN060AAXX  31091 26882 41/92 91003 10008 20008 40083 54000 74542;
0133268820999992000123112004+53960+032840FM-12+021799999V0201201N004010021019N0120001N1+00111+00031100771ADDGF107991071051002501001001MA1999999098011MD1710051+9999REMSYN066AAXX  31121 26882 42362 71204 10011 20003 39801 40077 57005 87500;
0140268820999992000123115004+53960+032840FM-12+021799999V0201201N006010021019N0090001N1+00081+00031100741ADDAY121031AY221031GF107991071051002501001001MD1710041+9999MW1101REMSYN066AAXX  31151 26882 41359 71206 10008 20003 40074 57004 71022 87500;
0205268820999992000123118004+53960+032840FM-12+021799999V0201401N005010012019N0070001N1-00011-00041100761ADDAA112001091AY161061AY221061GF108991999071001501021999KA1120M+00141MD1310021+9999MW1661REMSYN088AAXX  31181 26882 11257 81405 11001 21004 40076 53002 69992 76662 8872/ 333 10014 93400;EQDQ01+000082SCOTLC
0150268820999992000123121004+53960+032840FM-12+021799999V0201901N005010012019N0044001N1+00031+00001100971ADDAY161031AY251031GF108991081061001501999999MD1210211+9999MW1531REMSYN076AAXX  31211 26882 41244 81905 10003 20000 40097 52021 75365 886// 333 93401;
