0208310880999992000010100004+59370+143200FM-12+000699999V0203601N005010075019N0500001N1-01611-02121103741ADDAA100000191AJ100089199999999GF106991061051008001001001IA1239KA1120N-01661MA1999999103661MD1210101+9999REMSYN094AAXX  01001 31088 12599 63605 11161 21212 30366 40374 52010 69920 86500 333 21166 47008 55000;
0112310880999992000010103004+59370+143200FM-12+000699999V0203501N004010300019N0500001N1-01581-02091103781ADDGF107991041051008001031011MD1110041+9999REMSYN060AAXX  01031 31088 42599 73504 11158 21209 40378 51004 84531;
0112310880999992000010106004+59370+143200FM-12+000699999V0200301N004010300019N0500001N1-01511-02021103761ADDGF107991021051008001041011MD1810021+9999REMSYN060AAXX  01061 31088 42599 70304 11151 21202 40376 58002 82541;
0165310880999992000010109004+59370+143200FM-12+000699999V0203601N005010300019N0500001N1-01541-02141103751ADDAA106000091GF107991021051008001041011KA1999M-01451MD1710011+9999REMSYN070AAXX  01091 31088 32599 73605 11154 21214 40375 57001 82541 333 11145;EQDQ01  00002PRCP06
0186310880999992000010112004+59370+143200FM-12+000699999V0200301N003019999999N0500001N1-01661-02251103771ADDAA106000091GF106991031001999999041011KA1999M-01451MA1999999103691MD1310021+9999REMSYN076AAXX  01121 31088 32999 60303 11166 21225 30369 40377 53002 83041 333 11145;EQDQ01  00002PRCP06
0112310880999992000010115004+59370+143200FM-12+000699999V0200201N004019999999N0500001N1-01761-02261103711ADDGF106991021001999999041011MD1810061+9999REMSYN060AAXX  01151 31088 42999 60204 11176 21226 40371 58006 82041;
0112310880999992000010118004+59370+143200FM-12+000699999V0200201N003010300019N0500001N1-01721-02221103601ADDGF107991031051008001051011MD1710031+9999REMSYN060AAXX  01181 31088 42599 70203 11172 21222 40360 57003 83551;
0158310880999992000010121004+59370+143200FM-12+000699999V0200201N004010075019N0500001N1-01401-01911103651ADDAA106000091GF108991061051008001051999IA1239MD1710031+9999REMSYN070AAXX  01211 31088 32599 80204 11140 21191 40365 57003 8655/ 333 47008;EQDQ01  00002PRCP06
0251310880999992000010200004+59370+143200FM-12+000699999V0203501N004010081019N0500001N1-01411-02021103641ADDAA106000091AJ100089199999999GA1081+008109059GF108991081051008001999999GJ100009IA1239KA1120N-01831MA1999999103561MD1710011+9999REMSYN094AAXX  02001 31088 32599 83504 11141 21202 30356 40364 57001 885// 333 21183 47008 55000 88627;EQDQ01  00002PRCP06
0138310880999992000010203004+59370+143200FM-12+000699999V0203601N004010081019N0500001N1-01321-02031103561ADDGA1081+008109059GF108991081051008001999999MD1710081+9999REMSYN070AAXX  02031 31088 42599 83604 11132 21203 40356 57008 885// 333 88627;
0138310880999992000010206004+59370+143200FM-12+000699999V0200101N004010078019N0500001N1-01281-01891103411ADDGA1081+007809059GF108991081051008001999999MD1810151+9999REMSYN070AAXX  02061 31088 42599 80104 11128 21189 40341 58015 885// 333 88626;
0187310880999992000010209004+59370+143200FM-12+000699999V0200101N003010078019N0500001N1-01351-01961103551ADDAA106000091GA1081+007809059GF108991081051008001999999KA1120M-01261MD1310141+9999REMSYN076AAXX  02091 31088 32599 80103 11135 21196 40355 53014 885// 333 11126 88626;EQDQ01  00002PRCP06
0208310880999992000010212004+59370+143200FM-12+000699999V0203601N004010078019N0500001N1-01381-02091103591ADDAA106000091GA1061+007809059GF106991061051008001001001KA1120M-01261MA1999999103511MD1110041+9999REMSYN082AAXX  02121 31088 32599 63604 11138 21209 30351 40359 51004 86500 333 11126 86626;EQDQ01  00002PRCP06
0138310880999992000010215004+59370+143200FM-12+000699999V0203501N003010072019N0500001N1-01401-02011103611ADDGA1081+007209059GF108991081051008001999999MD1210021+9999REMSYN070AAXX  02151 31088 42599 83503 11140 21201 40361 52002 885// 333 88624;
0138310880999992000010218004+59370+143200FM-12+000699999V0203601N004010066019N0500001N1-01431-02041103531ADDGA1081+006609059GF108991081051008001999999MD1810081+9999REMSYN070AAXX  02181 31088 42599 83604 11143 21204 40353 58008 885// 333 88622;
0197310880999992000010221004+59370+143200FM-12+000699999V0203601N004010072019N0500001N1-01521-02121103551ADDAA106000091AJ100089199999999GA1081+007209059GF108991081051008001999999IA1239MD1310021+9999REMSYN076AAXX  02211 31088 32599 83604 11152 21212 40355 53002 885// 333 47008 88624;EQDQ01  00002PRCP06
0112310880999992000010303004+59370+143200FM-12+000699999V0200101N003010075019N0500001N1-01541-02141103591ADDGF108991061051008001071999MD1310041+9999REMSYN060AAXX  03031 31088 42599 80103 11154 21214 40359 53004 8657/;
0101310880999992000010306004+59370+143200FM-12+000699999V0200201N003010075019N0500001N1-01551-02151999999ADDGF108991051051008001071999ME1310029REMSYN054AAXX  03061 31088 42599 80203 11155 21215 48002 8557/;
0165310880999992000010309004+59370+143200FM-12+000699999V0200201N002010300019N0500001N1-01591-02191103651ADDAA106000091GF107991031051008001041011KA1999M-01521MD1310081+9999REMSYN070AAXX  03091 31088 32599 70202 11159 21219 40365 53008 83541 333 11152;EQDQ01  00002PRCP06
0186310880999992000010312004+59370+143200FM-12+000699999V0200101N003010075019N0500001N1-01661-02161103711ADDAA106000091GF107991051051008001031011KA1999M-01521MA1999999103631MD1210061+9999REMSYN076AAXX  03121 31088 32599 70103 11166 21216 30363 40371 52006 85531 333 11152;EQDQ01  00002PRCP06
0112310880999992000010315004+59370+143200FM-12+000699999V0200101N004010075019N0500001N1-01731-02231103701ADDGF107991061051008001031011MD1810011+9999REMSYN060AAXX  03151 31088 42599 70104 11173 21223 40370 58001 86531;
0112310880999992000010318004+59370+143200FM-12+000699999V0200101N003010075019N0500001N1-01681-02181103711ADDGF107991051051008001031011MD1310011+9999REMSYN060AAXX  03181 31088 42599 70103 11168 21218 40371 53001 85531;
0158310880999992000010321004+59370+143200FM-12+000699999V0200101N002010300019N0500001N1-01601-02021103811ADDAA106000091GF107991031051008001031011IA1239MD1210101+9999REMSYN070AAXX  03211 31088 32599 70102 11160 21202 40381 52010 83531 333 47008;EQDQ01  00002PRCP06
0251310880999992000010400004+59370+143200FM-12+000699999V0200101N003010072019N0500001N1-01611-01951103801ADDAA106000091AJ100089199999999GA1061+007209059GF107991061051008001051001GJ100009IA1239KA1120N-01771MA1999999103721MD1810011+9999REMSYN094AAXX  04001 31088 32599 70103 11161 21195 30372 40380 58001 86550 333 21177 47008 55000 86624;EQDQ01  00002PRCP06
0112310880999992000010403004+59370+143200FM-12+000699999V0203601N002010075019N0500001N1-01481-01911103771ADDGF108991051051008001011999MD1710031+9999REMSYN060AAXX  04031 31088 42599 83602 11148 21191 40377 57003 8551/;
0112310880999992000010406004+59370+143200FM-12+000699999V0203301N003010075019N0500001N1-01371-01801103771ADDGF108991061051008001011999MD1410001+9999REMSYN060AAXX  04061 31088 42599 83303 11137 21180 40377 54000 8651/;
0187310880999992000010409004+59370+143200FM-12+000699999V0200101N001010069019N0500001N1-01521-01941103751ADDAA106000091GA1081+006909059GF108991081051008001999999KA1120M-01351MD1810021+9999REMSYN076AAXX  04091 31088 32599 80101 11152 21194 40375 58002 885// 333 11135 88623;EQDQ01  00002PRCP06
0186310880999992000010412004+59370+143200FM-12+000699999V0200201N003010075019N0500001N1-01501-01921103771ADDAA106000091GF108991081051008001999999KA1999M-01351MA1999999103691MD1310021+9999REMSYN076AAXX  04121 31088 32599 80203 11150 21192 30369 40377 53002 885// 333 11135;EQDQ01  00002PRCP06
0112310880999992000010415004+59370+143200FM-12+000699999V0200101N001010075019N0500001N1-01481-01821103741ADDGF108991051051008001071999MD1810031+9999REMSYN060AAXX  04151 31088 42599 80101 11148 21182 40374 58003 8557/;
0112310880999992000010418004+59370+143200FM-12+000699999V0200101N003010300019N0500001N1-01421-01851103651ADDGF108991031051008001071999MD1710091+9999REMSYN060AAXX  04181 31088 42599 80103 11142 21185 40365 57009 8357/;
0158310880999992000010421004+59370+143200FM-12+000699999V0200101N001010075019N0500001N1-01441-01871103641ADDAA106000091GF108991051051008001071999IA1279MD1610011+9999REMSYN070AAXX  04211 31088 32599 80101 11144 21187 40364 56001 8557/ 333 43008;EQDQ01  00002PRCP06
0221310880999992000010500004+59370+143200FM-12+000699999V0200101N003019999999N0500001N1-01421-01851103681ADDAA106000091AJ100089199999999GF108991081001999999071999IA1279KA1120N-01541MA1999999103601MD1310041+9999REMSYN088AAXX  05001 31088 32999 80103 11142 21185 30360 40368 53004 8807/ 333 21154 43008 55000;EQDQ01  00002PRCP06
0112310880999992000010503004+59370+143200FM-12+000699999V0200301N002019999999N0500001N1-01361-01791103661ADDGF108991081001999999071999MD1810021+9999REMSYN060AAXX  05031 31088 42999 80302 11136 21179 40366 58002 8807/;
0112310880999992000010506004+59370+143200FM-12+000699999V0200201N003019999999N0500001N1-01381-01901103661ADDGF108991081001999999071999MD1410001+9999REMSYN060AAXX  05061 31088 42999 80203 11138 21190 40366 54000 8807/;
0165310880999992000010509004+59370+143200FM-12+000699999V0200401N003019999999N0500001N1-01451-01961103691ADDAA106000091GF107991061001999999051011KA1999M-01311MD1310031+9999REMSYN070AAXX  05091 31088 32999 70403 11145 21196 40369 53003 86051 333 11131;EQDQ01  00002PRCP06
0186310880999992000010512004+59370+143200FM-12+000699999V0203601N002019999999N0500001N1-01581-02091103781ADDAA106000091GF107991061001999999051011KA1999M-01311MA1999999103701MD1210091+9999REMSYN076AAXX  05121 31088 32999 73602 11158 21209 30370 40378 52009 86051 333 11131;EQDQ01  00002PRCP06
0112310880999992000010515004+59370+143200FM-12+000699999V0200101N003010300019N0500001N1-01511-02021103771ADDGF107991031051008001051011MD1810011+9999REMSYN060AAXX  05151 31088 42599 70103 11151 21202 40377 58001 83551;
0112310880999992000010518004+59370+143200FM-12+000699999V0200101N003010075019N0500001N1-01511-02021103771ADDGF108991051051008001021999MD1410001+9999REMSYN060AAXX  05181 31088 42599 80103 11151 21202 40377 54000 8552/;
0158310880999992000010521004+59370+143200FM-12+000699999V0200201N003010300019N0500001N1-01501-02011103781ADDAA106000091GF108991031051008001051999IA1279MD1310011+9999REMSYN070AAXX  05211 31088 32599 80203 11150 21201 40378 53001 8355/ 333 43008;EQDQ01  00002PRCP06
0112310880999992000010603004+59370+143200FM-12+000699999V0200301N004019999999N0500001N1-01481-01991103831ADDGF108991081001999999071999MD1810031+9999REMSYN060AAXX  06031 31088 42999 80304 11148 21199 40383 58003 8807/;
0112310880999992000010606004+59370+143200FM-12+000699999V0200201N003019999999N0500001N1-01401-01911103821ADDGF108991081001999999071999MD1210011+9999REMSYN060AAXX  06061 31088 42999 80203 11140 21191 40382 52001 8807/;
0165310880999992000010609004+59370+143200FM-12+000699999V0200201N004019999999N0500001N1-01441-02051103861ADDAA106000091GF107991061001999999051011KA1999M-01391MD1310041+9999REMSYN070AAXX  06091 31088 32999 70204 11144 21205 40386 53004 86051 333 11139;EQDQ01  00002PRCP06
0186310880999992000010612004+59370+143200FM-12+000699999V0200201N003019999999N0500001N1-01451-01961103851ADDAA106000091GF108991081001999999071999KA1999M-01391MA1999999103771MD1810011+9999REMSYN076AAXX  06121 31088 32999 80203 11145 21196 30377 40385 58001 8807/ 333 11139;EQDQ01  00002PRCP06
0140310880999992000010615004+59370+143200FM-12+000699999V0200201N004019999999N0200001N1-01521-01941103791ADDAY171031AY221031GF108991081001999999021999MD1710061+9999MW1711REMSYN066AAXX  06151 31088 41998 80204 11152 21194 40379 57006 77172 8802/;
0156310880999992000010621004+59370+143200FM-12+000699999V0200201N005010075019N0040001N1-01491-01621103701ADDAY181031AY271031GF108991081091008001999999IA1239MD1710041+9999MW1851REMSYN076AAXX  06211 31088 /1596 80205 11149 21162 40370 57004 78587 889// 333 47009;
0236310880999992000010700004+59370+143200FM-12+000699999V0203601N004010075019N0020001N1-01461-01591103641ADDAA100001091AJ100099199999999AY181061AY271061GF108991081091008001999999IA1239KA1120N-01561MA1999999103561MD1710061+9999MW1861REMSYN100AAXX  07001 31088 11595 83604 11146 21159 30356 40364 57006 69990 78687 889// 333 21156 47009 55000;
0140310880999992000010703004+59370+143200FM-12+000699999V0203601N005010075019N0010001N1-01381-01441103521ADDAY181031AY221031GF108991081091008001999999MD1810121+9999MW1861REMSYN066AAXX  07031 31088 41594 83605 11138 21144 40352 58012 78682 889//;
0140310880999992000010706004+59370+143200FM-12+000699999V0203601N004010075019N0010001N1-01271-01331103521ADDAY181061AY221061GF108991081091008001999999MD1410001+9999MW1861REMSYN066AAXX  07061 31088 41594 83604 11127 21133 40352 54000 78682 889//;
0163310880999992000010709004+59370+143200FM-12+000699999V0203501N005010075019N0040001N1-01241-01371103511ADDAY181031AY221031GF108991081091008001999999KA1999M-01231MD1810011+9999MW1851REMSYN076AAXX  07091 31088 /1596 83505 11124 21137 40351 58001 78582 889// 333 11123;
0201310880999992000010712004+59370+143200FM-12+000699999V0200201N004010075019N0040001N1-01181-01311103571ADDAA100003091AY181061AY221061GF108991081091008001999999KA1999M-01231MA1999999103491MD1310061+9999MW1851REMSYN088AAXX  07121 31088 11596 80204 11118 21131 30349 40357 53006 60030 78582 889// 333 11123;
0140310880999992000010715004+59370+143200FM-12+000699999V0200101N004010075019N0020001N1-01121-01181103481ADDAY181031AY221031GF108991081091008001999999MD1810081+9999MW1861REMSYN066AAXX  07151 31088 41595 80104 11112 21118 40348 58008 78682 889//;
0140310880999992000010718004+59370+143200FM-12+000699999V0200101N005010075019N0200001N1-00961-01041103281ADDAY181061AY221061GF108991081091008001999999MD1810201+9999MW1021REMSYN066AAXX  07181 31088 41598 80105 11096 21104 40328 58020 70282 889//;
0156310880999992000010721004+59370+143200FM-12+000699999V0200801N004010075019N0200001N1-00681-01011103321ADDAY181031AY221031GF108991081091008001999999IA1239MD1310041+9999MW1021REMSYN076AAXX  07211 31088 /1598 80804 11068 21101 40332 53004 70282 889// 333 47017;
0238310880999992000010800004+59370+143200FM-12+000699999V0203401N002010069019N0500001N1-01071-01201103221ADDAA100000591AJ100179199999999GA1061+006909059GF108991081031008001999999GJ100009IA1239KA1120N-01251MA1999999103151MD1810101+9999REMSYN100AAXX  08001 31088 12599 83402 11107 21120 30315 40322 58010 69960 883// 333 21125 47017 55000 86623;
0112310880999992000010803004+59370+143200FM-12+000699999V0200101N002010075019N0500001N1-01031-01231102921ADDGF108991061031008001071999MD1810301+9999REMSYN060AAXX  08031 31088 42599 80102 11103 21123 40292 58030 8637/;
0112310880999992000010806004+59370+143200FM-12+000699999V0200601N001010075019N0500001N1-00651-01541102661ADDGF108991061031008001071999MD1710261+9999REMSYN060AAXX  08061 31088 42599 80601 11065 21154 40266 57026 8637/;
0163310880999992000010809004+59370+143200FM-12+000699999V0200501N007010075019N0040001N1-00631-01711102451ADDAY171031AY221031GF108991061051008001071999KA1999M-00591MD1710211+9999MW1711REMSYN076AAXX  08091 31088 /1596 80507 11063 21171 40245 57021 77172 8657/ 333 11059;
0201310880999992000010812004+59370+143200FM-12+000699999V0200501N006010300019N0200001N1-00681-01301102261ADDAA100000191AY171061AY231061GF108991041051008001021999KA1999M-00591MA1999999102191MD1710191+9999MW1361REMSYN088AAXX  08121 31088 11598 80506 11068 21130 30219 40226 57019 69920 73673 8452/ 333 11059;
0140310880999992000010815004+59370+143200FM-12+000699999V0200401N004010300019N0040001N1-00771-00871102101ADDAY171031AY231031GF108991031051008001021999MD1710161+9999MW1711REMSYN066AAXX  08151 31088 41596 80404 11077 21087 40210 57016 77173 8352/;
0140310880999992000010818004+59370+143200FM-12+000699999V0200301N005010300019N0020001N1-00701-00791101931ADDAY171061AY231061GF108991041071004501021999MD1710171+9999MW1731REMSYN066AAXX  08181 31088 41495 80305 11070 21079 40193 57017 77373 8472/;
0156310880999992000010821004+59370+143200FM-12+000699999V0200601N006010042019N0020001N1-00671-00911101821ADDAY171031AY231031GF108991051071004501021999IA1239MD1710111+9999MW1731REMSYN076AAXX  08211 31088 /1495 80606 11067 21091 40182 57011 77373 8572/ 333 47021;
0236310880999992000010900004+59370+143200FM-12+000699999V0200201N004010042019N0020001N1-00651-00811101661ADDAA100004191AJ100219199999999AY171061AY231061GF108991051071004501021999IA1239KA1120N-00781MA1999999101591MD1710161+9999MW1711REMSYN100AAXX  09001 31088 11495 80204 11065 21081 30159 40166 57016 60040 77173 8572/ 333 21078 47021 55000;
0150310880999992000010903004+59370+143200FM-12+000699999V0200601N006019999999N0040001N1-00621-00891101571ADDAY171031AY231031GF108991081001999999021999MD1710091+9999MW1711REMSYN076AAXX  09031 31088 41996 80606 11062 21089 40157 57009 77173 8802/ 333 91114;
0163310880999992000010909004+59370+143200FM-12+000699999V0200101N005019999999N0020001N1-00721-00971101531ADDAY171031AY231031GF108991081001999999021999KA1999M-00561MD1310041+9999MW1711REMSYN076AAXX  09091 31088 /1995 80105 11072 21097 40153 53004 77173 8802/ 333 11056;
0201310880999992000010912004+59370+143200FM-12+000699999V0200901N007010042019N0020001N1-00671-00911101611ADDAA100002091AY171061AY231061GF108991061071004501021999KA1999M-00561MA1999999101541MD1210081+9999MW1731REMSYN088AAXX  09121 31088 11495 80907 11067 21091 30154 40161 52008 60020 77373 8672/ 333 11056;
0150310880999992000010915004+59370+143200FM-12+000699999V0200901N006010042019N0040001N1-00641-00761101651ADDAY171031AY231031GF108991051071004501021999MD1210041+9999MW1711REMSYN076AAXX  09151 31088 41496 80906 11064 21076 40165 52004 77173 8572/ 333 91112;
0140310880999992000010918004+59370+143200FM-12+000699999V0200601N004019999999N0500001N1-00661-01271101591ADDAY171061AY231061GF108991081001999999021999MD1810061+9999MW1011REMSYN066AAXX  09181 31088 41999 80604 11066 21127 40159 58006 70173 8802/;
0156310880999992000010921004+59370+143200FM-12+000699999V0203501N006019999999N0500001N1-00731-01491101611ADDAY131031AY221031GF108991081001999999031999IA1239MD1310021+9999MW1361REMSYN076AAXX  09211 31088 /1999 83506 11073 21149 40161 53002 73632 8803/ 333 47022;
0236310880999992000011000004+59370+143200FM-12+000699999V0203601N002010300019N0200001N1-00711-01401101541ADDAA100002091AJ100229199999999AY131061AY221061GF108991041031008001021999IA1239KA1120N-00821MA1999999101471MD1810071+9999MW1031REMSYN100AAXX  10001 31088 11598 83602 11071 21140 30147 40154 58007 60020 70332 8432/ 333 21082 47022 55000;
0140310880999992000011003004+59370+143200FM-12+000699999V0200101N003010075019N0040001N1-00941-01011101511ADDAY181031AY221031GF108991061091008001021999MD1710031+9999MW1851REMSYN066AAXX  10031 31088 41596 80103 11094 21101 40151 57003 78582 8692/;
0140310880999992000011006004+59370+143200FM-12+000699999V0200401N003010075019N0040001N1-00861-00971101521ADDAY181061AY221061GF108991071091008001021999MD1310011+9999MW1851REMSYN066AAXX  10061 31088 41596 80403 11086 21097 40152 53001 78582 8792/;
0163310880999992000011009004+59370+143200FM-12+000699999V0202701N003010075019N0040001N1-00961-01081101721ADDAY181031AY221031GF108991081091008001999999KA1999M-00591MD1310201+9999MW1851REMSYN076AAXX  10091 31088 /1596 82703 11096 21108 40172 53020 78582 889// 333 11059;
0201310880999992000011012004+59370+143200FM-12+000699999V0200601N002010300019N0500001N1-01131-01191102011ADDAA100003091AY181061AY221061GF107991031051008001041011KA1999M-00591MA1999999101941MD1210291+9999MW1011REMSYN088AAXX  10121 31088 11599 70602 11113 21119 30194 40201 52029 60030 70182 83541 333 11059;
0112310880999992000011015004+59370+143200FM-12+000699999V0200101N001010300019N0500001N1-01691-01751102191ADDGF107991031051008001041011MD1110171+9999REMSYN060AAXX  10151 31088 42599 70101 11169 21175 40219 51017 83541;
0140310880999992000011018004+59370+143200FM-12+000699999V0203501N002010075019N0020001N1-01741-01861102341ADDAY171061AY211061GF108991061051008001021999MD1210151+9999MW1701REMSYN066AAXX  10181 31088 41595 83502 11174 21186 40234 52015 77071 8652/;
0156310880999992000011021004+59370+143200FM-12+000699999V0200201N004010075019N0500001N1-01821-01941102501ADDAY171031AY221031GF107991051051008001051011IA1239MD1210161+9999MW1011REMSYN076AAXX  10211 31088 /1599 70204 11182 21194 40250 52016 70172 85551 333 47025;
0236310880999992000011100004+59370+143200FM-12+000699999V0200101N004012200019N0500001N1-01921-02041102611ADDAA100000591AJ100259199999999AY171061AY221061GF107991021031008001001011IA1239KA1120N-01941MA1999999102531MD1210111+9999MW1021REMSYN100AAXX  11001 31088 11599 70104 11192 21204 30253 40261 52011 69960 70272 82301 333 21194 47025 55000;
0112310880999992000011103004+59370+143200FM-12+000699999V0200201N004019999999N0500001N1-01801-01921102501ADDGF105991001001999999001011MD1810111+9999REMSYN060AAXX  11031 31088 42999 50204 11180 21192 40250 58011 80001;
0112310880999992000011106004+59370+143200FM-12+000699999V0200301N004012200019N0500001N1-01811-01931102351ADDGF103991021001999999031011MD1710151+9999REMSYN060AAXX  11061 31088 42999 30304 11181 21193 40235 57015 82031;
0165310880999992000011109004+59370+143200FM-12+000699999V0200201N005012200019N0500001N1-01941-02061102111ADDAA106000091GF103991021001999999031011KA1999M-01781MD1810241+9999REMSYN070AAXX  11091 31088 32999 30205 11194 21206 40211 58024 82031 333 11178;EQDQ01  00002PRCP06
0186310880999992000011112004+59370+143200FM-12+000699999V0203601N004012200019N0500001N1-01891-02081101761ADDAA106000091GF102991021001999999031001KA1999M-01781MA1999999101681MD1710351+9999REMSYN076AAXX  11121 31088 32999 23604 11189 21208 30168 40176 57035 82030 333 11178;EQDQ01  00002PRCP06
0140310880999992000011115004+59370+143200FM-12+000699999V0203601N006019999999N0500001N1-01711-02051101341ADDAY131031AY211031GF108991081001999999071999MD1710411+9999MW1361REMSYN066AAXX  11151 31088 41999 83606 11171 21205 40134 57041 73631 8807/;
0140310880999992000011118004+59370+143200FM-12+000699999V0203501N007010300019N0500001N1-01491-02001100821ADDAY131061AY211061GF108991031051008001071999MD1710521+9999MW1361REMSYN066AAXX  11181 31088 41599 83507 11149 21200 40082 57052 73631 8357/;
0209310880999992000011121004+59370+143200FM-12+000699999V0203301N008010300019N0200001N1-01221-01841100411ADDAA106000091AJ100229199999999AY131031AY221031GF108991031051008001071999IA1239MD1610391+9999MW1361REMSYN082AAXX  11211 31088 31598 83308 11122 21184 40041 56039 73632 8357/ 333 47022 91113;EQDQ01  00002PRCP06
0263310880999992000011200004+59370+143200FM-12+000699999V0200101N007010300019N0500001N1-00901-01571100111ADDAA106000091AJ100229199999999AY131061AY221061GF108991021051008001051999GJ102469IA1239KA1120N-02031MA1999999100041MD1710301+9999MW1361REMSYN100AAXX  12001 31088 31599 80107 11090 21157 30004 40011 57030 73632 8255/ 333 21203 47022 55041 91112;EQDQ01  00002PRCP06
0150310880999992000011203004+59370+143200FM-12+000699999V0200101N008019999999N0500001N1-00781-01511099811ADDAY131031AY221031GF108991081001008001071999MD1710301+9999MW1361REMSYN076AAXX  12031 31088 41599 80108 11078 21151 49981 57030 73632 8807/ 333 91113;
0150310880999992000011206004+59370+143200FM-12+000699999V0200101N006010300019N0040001N1-00841-01121099701ADDAY171061AY231061GF108991031051008001071999MD1810111+9999MW1711REMSYN076AAXX  12061 31088 41596 80106 11084 21112 49970 58011 77173 8357/ 333 91112;
0169310880999992000011209004+59370+143200FM-12+000699999V0203601N007010300019N0040001N1-00941-01061099641ADDAY171031AY231031GF108991041051008001021999KA1120M-00771MD1710061+9999MW1711REMSYN082AAXX  12091 31088 /1596 83607 11094 21106 49964 57006 77173 8452/ 333 11077 91112;
0207310880999992000011212004+59370+143200FM-12+000699999V0200101N008010300019N0040001N1-00961-01481099611ADDAA100000891AY171061AY231061GF108991021051008001031999KA1120M-00771MA1999999099541MD1710031+9999MW1711REMSYN094AAXX  12121 31088 11596 80108 11096 21148 39954 49961 57003 69970 77173 8253/ 333 11077 91113;
0150310880999992000011215004+59370+143200FM-12+000699999V0203601N005010300019N0500001N1-01161-01601099611ADDAY171031AY231031GF108991021051008001021999MD1410001+9999MW1361REMSYN076AAXX  12151 31088 41599 83605 11116 21160 49961 54000 73673 8252/ 333 91111;
0140310880999992000011218004+59370+143200FM-12+000699999V0200101N001019999999N0500001N1-01421-01931099631ADDAY171061AY231061GF106991031001999999031011MD1310021+9999MW1011REMSYN066AAXX  12181 31088 41999 60101 11142 21193 49963 53002 70173 83031;
0128310880999992000011221004+59370+143200FM-12+000699999V0200301N003012200019N0500001N1-01731-02231099801ADDGF102991021001999999031001IA1239MD1310171+9999REMSYN070AAXX  12211 31088 /2999 20303 11173 21223 49980 53017 82030 333 47021;
0227310880999992000011300004+59370+143200FM-12+000699999V0203601N004010300019N0500001N1-01881-02371100011ADDAA100000191AJ100219199999999GF106991021051008001031011IA1239KA1120N+99999MA1999999099931MD1210201+9999REMSYN094AAXX  13001 31088 12599 63604 11188 21237 39993 40001 52020 69920 82531 333 21174 47021 55000;EQDQ01 -01742ATMN  
0112310880999992000011303004+59370+143200FM-12+000699999V0203601N004010300019N0500001N1-01751-02441100141ADDGF106991021051008001031011MD1210141+9999REMSYN060AAXX  13031 31088 42599 63604 11175 21244 40014 52014 82531;
0112310880999992000011306004+59370+143200FM-12+000699999V0203501N003012200019N0500001N1-01901-02581100391ADDGF102991021051008001001001MD1310241+9999REMSYN060AAXX  13061 31088 42599 23503 11190 21258 40039 53024 82500;
0175310880999992000011309004+59370+143200FM-12+000699999V0200101N004012200019N0500001N1-01981-02651100611ADDAA106000091GA1001+999999999GF100991001001999999001001KA1999M-01701MD1210221+9999REMSYN064AAXX  13091 31088 32999 00104 11198 21265 40061 52022 333 11170;EQDQ01  00002PRCP06
0186310880999992000011312004+59370+143200FM-12+000699999V0200501N005012200019N0500001N1-01991-02661100891ADDAA106000091GF102991001001999999001011KA1999M-01701MA1999999100811MD1210281+9999REMSYN076AAXX  13121 31088 32999 20505 11199 21266 30081 40089 52028 80001 333 11170;EQDQ01  00002PRCP06
0112310880999992000011315004+59370+143200FM-12+000699999V0200401N003010300019N0500001N1-01881-02661101061ADDGF106991021051008001051001MD1210171+9999REMSYN060AAXX  13151 31088 42599 60403 11188 21266 40106 52017 82550;
0112310880999992000011318004+59370+143200FM-12+000699999V0200301N003012200019N0500001N1-01951-02631101241ADDGF103991021001999999051011MD1210181+9999REMSYN060AAXX  13181 31088 42999 30303 11195 21263 40124 52018 82051;
0179310880999992000011321004+59370+143200FM-12+000699999V0200101N004012200019N0500001N1-02041-02711101431ADDAA199000091AJ100209199999999GF102991001001999999001011IA1239MD1210191+9999REMSYN074    AAXX  13211 31088 32999 20104 11204 21271 40143 52019 80001 333 47020;EQDQ01  00002PRCP99
0225310880999992000011400004+59370+143200FM-12+000699999V0200201N003012200019N0500001N1-02101-02771101591ADDAA199000091AJ100209199999999GF102991011001999999031011IA1239KA1120N-02081MA1999999101511MD1210161+9999REMSYN092    AAXX  14001 31088 32999 20203 11210 21277 30151 40159 52016 81031 333 21208 47020 55032;EQDQ01  00002PRCP99
0116310880999992000011403004+59370+143200FM-12+000699999V0200201N003012200019N0500001N1-01961-02741101641ADDGF103991021001999999041011MD1110051+9999REMSYN064    AAXX  14031 31088 42999 30203 11196 21274 40164 51005 82041;
0116310880999992000011406004+59370+143200FM-12+000699999V0200201N002012200019N0500001N1-01991-02771101751ADDGF101991001001999999001011MD1210111+9999REMSYN064    AAXX  14061 31088 42999 10202 11199 21277 40175 52011 80001;
0169310880999992000011409004+59370+143200FM-12+000699999V0200101N004012200019N0500001N1-02091-02861101961ADDAA199000091GF101991001001999999001011KA1999M-01951MD1310211+9999REMSYN074    AAXX  14091 31088 32999 10104 11209 21286 40196 53021 80001 333 11195;EQDQ01  00002PRCP99
0200310880999992000011412004+59370+143200FM-12+000699999V0200101N004012200019N0500001N1-02171-02931101921ADDAA199000091GA1001+999999999GF100991001001999999001001KA1999M-01951MA1999999101841MD1810041+9999REMSYN074    AAXX  14121 31088 32999 00104 11217 21293 30184 40192 58004 333 11195;EQDQ01  00002PRCP99
0126310880999992000011415004+59370+143200FM-12+000699999V0203601N003012200019N0500001N1-02161-02931102041ADDGA1001+999999999GF100991001001999999001001MD1310121+9999REMSYN058    AAXX  14151 31088 42999 03603 11216 21293 40204 53012;
0126310880999992000011418004+59370+143200FM-12+000699999V0203601N004012200019N0500001N1-02261-02931102061ADDGA1001+999999999GF100991001001999999001001MD1110021+9999REMSYN058    AAXX  14181 31088 42999 03604 11226 21293 40206 51002;
0189310880999992000011421004+59370+143200FM-12+000699999V0203501N005012200019N0500001N1-02331-03081102011ADDAA199000091AJ100209199999999GA1001+999999999GF100991001001999999001001IA1279MD1810051+9999REMSYN068    AAXX  14211 31088 32999 03505 11233 21308 40201 58005 333 43020;EQDQ01  00002PRCP99
0251310880999992000011500004+59370+143200FM-12+000699999V0200101N004012200019N0500001N1-02411-03161101991ADDAA199000091AJ100209199999999GA1001+999999999GF100991001001999999001001IA1279KA1120N+99999MA1999999101911MD1710021+9999REMSYN086    AAXX  15001 31088 32999 00104 11241 21316 30191 40199 57002 333 21235 43020 55059;EQDQ01  00002PRCP99Q02 -02352ATMN  
0116310880999992000011503004+59370+143200FM-12+000699999V0200101N003012200019N0500001N1-02101-02871101891ADDGF102991021001999999041001MD1810101+9999REMSYN064    AAXX  15031 31088 42999 20103 11210 21287 40189 58010 82040;
0116310880999992000011506004+59370+143200FM-12+000699999V0200101N003012200019N0500001N1-02061-02831101771ADDGF102991021001999999041001MD1710121+9999REMSYN064    AAXX  15061 31088 42999 20103 11206 21283 40177 57012 82040;
0179310880999992000011509004+59370+143200FM-12+000699999V0200101N003012200019N0500001N1-02171-02931101721ADDAA199000091GA1001+999999999GF100991001001999999001001KA1999M-02051MD1610051+9999REMSYN068    AAXX  15091 31088 32999 00103 11217 21293 40172 56005 333 11205;EQDQ01  00002PRCP99
0200310880999992000011511004+59370+143200FM-12+000699999V0200201N003012200019N0090001N1-03131+99999101631ADDAA199000091GA1001+999999999GF100991001001999999001001KA1999M-03051MA1999999101551MD1710091+9999REMSYN074    AAXX  15111 31088 32959 00203 11313 21289 30155 40163 57009 333 11305;EQDQ01  00002PRCP99
0200310880999992000011512004+59370+143200FM-12+000699999V0200201N003012200019N0500001N1-03131+99999101631ADDAA199000091GA1001+999999999GF100991001001999999001001KA1999M-03051MA1999999101551MD1710091+9999REMSYN074    AAXX  15121 31088 32999 00203 11313 21289 30155 40163 57009 333 11305;EQDQ01  00002PRCP99
0126310880999992000011515004+59370+143200FM-12+000699999V0203601N003012200019N0500001N1-02241-03001101581ADDGA1001+999999999GF100991001001999999001001MD1710051+9999REMSYN058    AAXX  15151 31088 42999 03603 11224 21300 40158 57005;
0126310880999992000011518004+59370+143200FM-12+000699999V0203601N002012200019N0500001N1-02291-03051101601ADDGA1001+999999999GF100991001001999999001001MD1310021+9999REMSYN058    AAXX  15181 31088 42999 03602 11229 21305 40160 53002;
0189310880999992000011521004+59370+143200FM-12+000699999V0209999C000012200019N0500001N1-02091-02861101591ADDAA199000091AJ100209199999999GA1001+999999999GF100991001001999999001001IA1279MD1810011+9999REMSYN068    AAXX  15211 31088 32999 00000 11209 21286 40159 58001 333 43020;EQDQ01  00002PRCP99
0225310880999992000011600004+59370+143200FM-12+000699999V0200301N003012200019N0500001N1-02021-02691101641ADDAA199000091AJ100209199999999GF102991011001999999041011IA1279KA1120N-02381MA1999999101531MD1310021+9999REMSYN092    AAXX  16001 31088 32999 20303 11202 21269 30153 40164 53002 81041 333 21238 43020 55061;EQDQ01  00002PRCP99
0126310880999992000011603004+59370+143200FM-12+000699999V0203601N003012200019N0500001N1-01821-02611101521ADDGA1001+999999999GF100991001001999999001001MD1810091+9999REMSYN058    AAXX  16031 31088 42999 03603 11182 21261 40152 58009;
0116310880999992000011606004+59370+143200FM-12+000699999V0203601N002012200019N0500001N1-01811-02601101511ADDGF102991001001999999001011MD1610011+9999REMSYN064    AAXX  16061 31088 42999 23602 11181 21260 40151 56001 80001;
0169310880999992000011609004+59370+143200FM-12+000699999V0200201N002012200019N0500001N1-01851-02531101531ADDAA199000091GF103991021001999999041011KA1999M-01731MD1310021+9999REMSYN074    AAXX  16091 31088 32999 30202 11185 21253 40153 53002 82041 333 11173;EQDQ01  00002PRCP99
0190310880999992000011612004+59370+143200FM-12+000699999V0200401N002012200019N0500001N1-02021-02691101561ADDAA199000091GF102991021001999999041001KA1999M-01731MA1999999101481MD1210031+9999REMSYN080    AAXX  16121 31088 32999 20402 11202 21269 30148 40156 52003 82040 333 11173;EQDQ01  00002PRCP99
0116310880999992000011615004+59370+143200FM-12+000699999V0200101N002012200019N0500001N1-02031-02801101541ADDGF102991021001999999041001MD1610021+9999REMSYN064    AAXX  16151 31088 42999 20102 11203 21280 40154 56002 82040;
0126310880999992000011618004+59370+143200FM-12+000699999V0200301N002012200019N0500001N1-02011-02791101521ADDGA1001+999999999GF100991001001999999001001MD1710021+9999REMSYN058    AAXX  16181 31088 42999 00302 11201 21279 40152 57002;
0189310880999992000011621004+59370+143200FM-12+000699999V0200401N003012200019N0500001N1-02091-02861101551ADDAA199000091AJ100209199999999GA1001+999999999GF100991001001999999001001IA1279MD1310031+9999REMSYN068    AAXX  16211 31088 32999 00403 11209 21286 40155 53003 333 43020;EQDQ01  00002PRCP99
0235310880999992000011700004+59370+143200FM-12+000699999V0200401N004012200019N0500001N1-02171-02931101601ADDAA199000091AJ100209199999999GA1001+999999999GF100991001001999999001001IA1279KA1120N-02241MA1999999101521MD1210051+9999REMSYN086    AAXX  17001 31088 32999 00404 11217 21293 30152 40160 52005 333 21224 43020 55064;EQDQ01  00002PRCP99
0126310880999992000011703004+59370+143200FM-12+000699999V0200201N003012200019N0500001N1-01941-02721101631ADDGA1001+999999999GF100991001001999999001001MD1210031+9999REMSYN058    AAXX  17031 31088 42999 00203 11194 21272 40163 52003;
0126310880999992000011706004+59370+143200FM-12+000699999V0200301N003012200019N0500001N1-01961-02851101671ADDGA1001+999999999GF100991001001999999001001MD1210041+9999REMSYN058    AAXX  17061 31088 42999 00303 11196 21285 40167 52004;
0179310880999992000011709004+59370+143200FM-12+000699999V0200401N003012200019N0500001N1-02151-02921101791ADDAA199000091GA1001+999999999GF100991001001999999001001KA1999M-01851MD1310121+9999REMSYN068    AAXX  17091 31088 32999 00403 11215 21292 40179 53012 333 11185;EQDQ01  00002PRCP99
0200310880999992000011712004+59370+143200FM-12+000699999V0203601N002012200019N0500001N1-02331-03081101901ADDAA199000091GA1001+999999999GF100991001001999999001001KA1999M-01851MA1999999101821MD1210111+9999REMSYN074    AAXX  17121 31088 32999 03602 11233 21308 30182 40190 52011 333 11185;EQDQ01  00002PRCP99
0145310880999992000011715004+59370+143200FM-12+000699999V0200101N999992200019N0500001N1-02351-03221101881ADDGA1001+999999999GF100991001001999999001001MD1810021+9999REMSYN058    AAXX  17151 31088 42999 00150 11235 21322 40188 58002;EQDQ01+005003WOSPD 
0126310880999992000011718004+59370+143200FM-12+000699999V0200101N005012200019N0500001N1-02411-03161101981ADDGA1001+999999999GF100991001001999999001001MD1310101+9999REMSYN058    AAXX  17181 31088 42999 00105 11241 21316 40198 53010;
0189310880999992000011721004+59370+143200FM-12+000699999V0200301N003012200019N0500001N1-02501-03351102061ADDAA199000091AJ100209199999999GA1001+999999999GF100991001001999999001001IA1279MD1210081+9999REMSYN068    AAXX  17211 31088 32999 00303 11250 21335 40206 52008 333 43020;EQDQ01  00002PRCP99
0235310880999992000011800004+59370+143200FM-12+000699999V0200301N004012200019N0500001N1-02571-03531102171ADDAA199000091AJ100209199999999GA1001+999999999GF100991001001999999001001IA1279KA1120N-02571MA1999999102091MD1210111+9999REMSYN086    AAXX  18001 31088 32999 00304 11257 21353 30209 40217 52011 333 21257 43020 55065;EQDQ01  00002PRCP99
0126310880999992000011803004+59370+143200FM-12+000699999V0200201N004012200019N0500001N1-02321-03181102181ADDGA1001+999999999GF100991001001999999001001MD1110011+9999REMSYN058    AAXX  18031 31088 42999 00204 11232 21318 40218 51001;
0126310880999992000011806004+59370+143200FM-12+000699999V0200201N003012200019N0500001N1-02211-03091102211ADDGA1001+999999999GF100991001001999999001001MD1210031+9999REMSYN058    AAXX  18061 31088 42999 00203 11221 21309 40221 52003;
0179310880999992000011809004+59370+143200FM-12+000699999V0200301N004012200019N0500001N1-02421-03281102261ADDAA199000091GA1001+999999999GF100991001001999999001001KA1999M-02191MD1210051+9999REMSYN068    AAXX  18091 31088 32999 00304 11242 21328 40226 52005 333 11219;EQDQ01  00002PRCP99
0200310880999992000011812004+59370+143200FM-12+000699999V0200301N004012200019N0500001N1-02491-03351102331ADDAA199000091GA1001+999999999GF100991001001999999001001KA1999M-02191MA1999999102251MD1210071+9999REMSYN074    AAXX  18121 31088 32999 00304 11249 21335 30225 40233 52007 333 11219;EQDQ01  00002PRCP99
0126310880999992000011815004+59370+143200FM-12+000699999V0200401N005012200019N0500001N1-02511-03361102351ADDGA1001+999999999GF100991001001999999001001MD1210021+9999REMSYN058    AAXX  18151 31088 42999 00405 11251 21336 40235 52002;
0126310880999992000011818004+59370+143200FM-12+000699999V0200401N004012200019N0500001N1-02571-03411102381ADDGA1001+999999999GF100991001001999999001001MD1210031+9999REMSYN058    AAXX  18181 31088 42999 00404 11257 21341 40238 52003;
0189310880999992000011821004+59370+143200FM-12+000699999V0200401N004012200019N0500001N1-02631-03471102401ADDAA199000091AJ100209199999999GA1001+999999999GF100991001001999999001001IA1279MD1210021+9999REMSYN068    AAXX  18211 31088 32999 00404 11263 21347 40240 52002 333 43020;EQDQ01  00002PRCP99
0235310880999992000011900004+59370+143200FM-12+000699999V0203601N004012200019N0500001N1-02681-03531102461ADDAA199000091AJ100209199999999GA1001+999999999GF100991001001999999001001IA1279KA1120N-02631MA1999999102381MD1210061+9999REMSYN086    AAXX  19001 31088 32999 03604 11268 21353 30238 40246 52006 333 21263 43020 55062;EQDQ01  00002PRCP99
0126310880999992000011903004+59370+143200FM-12+000699999V0200101N005012200019N0500001N1-02441-03301102541ADDGA1001+999999999GF100991001001999999001001MD1210081+9999REMSYN058    AAXX  19031 31088 42999 00105 11244 21330 40254 52008;
0126310880999992000011906004+59370+143200FM-12+000699999V0203601N003012200019N0500001N1-02351-03341102441ADDGA1001+999999999GF100991001001999999001001MD1810101+9999REMSYN058    AAXX  19061 31088 42999 03603 11235 21334 40244 58010;
0179310880999992000011909004+59370+143200FM-12+000699999V0203601N004012200019N0500001N1-02421-03391102461ADDAA199000091GA1001+999999999GF100991001001999999001001KA1999M-02291MD1310021+9999REMSYN068    AAXX  19091 31088 32999 03604 11242 21339 40246 53002 333 11229;EQDQ01  00002PRCP99
0200310880999992000011912004+59370+143200FM-12+000699999V0200301N002012200019N0500001N1-02461-03311102511ADDAA199000091GA1001+999999999GF100991001001999999001001KA1999M-02291MA1999999102471MD1210051+9999REMSYN074    AAXX  19121 31088 32999 00302 11246 21331 30247 40251 52005 333 11229;EQDQ01  00002PRCP99
0122310880999992000011915004+59370+143200FM-12+000699999V0200401N003012200019N0500001N1-02491-03351102441ADDGA1001+999999999GF100991001001999999001001MD1810071+9999REMSYN054AAXX  19151 31088 42999 00403 11249 21335 40244 58007;
0122310880999992000011918004+59370+143200FM-12+000699999V0200101N004012200019N0500001N1-02561-03301102391ADDGA1001+999999999GF100991001001999999001001MD1710051+9999REMSYN054AAXX  19181 31088 42999 00104 11256 21330 40239 57005;
0185310880999992000011921004+59370+143200FM-12+000699999V0200401N003012200019N0500001N1-02601-03331102341ADDAA199000091AJ100199199999999GA1001+999999999GF100991001001999999001001IA1279MD1710051+9999REMSYN064AAXX  19211 31088 32999 00403 11260 21333 40234 57005 333 43019;EQDQ01  00002PRCP99
0231310880999992000012000004+59370+143200FM-12+000699999V0200101N003012200019N0500001N1-02481-03231102351ADDAA199000091AJ100199199999999GA1001+999999999GF100991001001999999001001IA1279KA1120N-02631MA1999999102271MD1310011+9999REMSYN082AAXX  20001 31088 32999 00103 11248 21323 30227 40235 53001 333 21263 43019 55063;EQDQ01  00002PRCP99
0122310880999992000012003004+59370+143200FM-12+000699999V0200101N003012200019N0500001N1-02331-03081102241ADDGA1001+999999999GF100991001001999999001001MD1810111+9999REMSYN054AAXX  20031 31088 42999 00103 11233 21308 40224 58011;
0122310880999992000012006004+59370+143200FM-12+000699999V0200101N002012200019N0500001N1-02221-03091102171ADDGA1001+999999999GF100991001001999999001001MD1710071+9999REMSYN054AAXX  20061 31088 42999 00102 11222 21309 40217 57007;
0175310880999992000012009004+59370+143200FM-12+000699999V0200101N004012200019N0500001N1-02321-03181102171ADDAA199000091GA1001+999999999GF100991001001999999001001KA1999M-02161MD1410001+9999REMSYN064AAXX  20091 31088 32999 00104 11232 21318 40217 54000 333 11216;EQDQ01  00002PRCP99
0196310880999992000012012004+59370+143200FM-12+000699999V0203601N004012200019N0500001N1-02441-03301102151ADDAA199000091GA1001+999999999GF100991001001999999001001KA1999M-02161MA1999999102071MD1810021+9999REMSYN070AAXX  20121 31088 32999 03604 11244 21330 30207 40215 58002 333 11216;EQDQ01  00002PRCP99
0122310880999992000012015004+59370+143200FM-12+000699999V0203601N005012200019N0500001N1-02481-03331102121ADDGA1001+999999999GF100991001001999999001001MD1710031+9999REMSYN054AAXX  20151 31088 42999 03605 11248 21333 40212 57003;
0122310880999992000012018004+59370+143200FM-12+000699999V0203501N004012200019N0500001N1-02491-03351102081ADDGA1001+999999999GF100991001001999999001001MD1710041+9999REMSYN054AAXX  20181 31088 42999 03504 11249 21335 40208 57004;
0185310880999992000012021004+59370+143200FM-12+000699999V0203601N003012200019N0500001N1-02511-03361102051ADDAA199000091AJ100199199999999GA1001+999999999GF100991001001999999001001IA1279MD1710031+9999REMSYN064AAXX  20211 31088 32999 03603 11251 21336 40205 57003 333 43019;EQDQ01  00002PRCP99
0231310880999992000012100004+59370+143200FM-12+000699999V0203601N003012200019N0500001N1-02531-03261102071ADDAA199000091AJ100199199999999GA1001+999999999GF100991001001999999001001IA1279KA1120N-02531MA1999999101991MD1310021+9999REMSYN082AAXX  21001 31088 32999 03603 11253 21326 30199 40207 53002 333 21253 43019 55066;EQDQ01  00002PRCP99
0122310880999992000012103004+59370+143200FM-12+000699999V0200101N003012200019N0500001N1-02351-03111101981ADDGA1001+999999999GF100991001001999999001001MD1810091+9999REMSYN054AAXX  21031 31088 42999 00103 11235 21311 40198 58009;
0122310880999992000012106004+59370+143200FM-12+000699999V0203601N003012200019N0500001N1-02311-03171101931ADDGA1001+999999999GF100991001001999999001001MD1710051+9999REMSYN054AAXX  21061 31088 42999 03603 11231 21317 40193 57005;
0175310880999992000012109004+59370+143200FM-12+000699999V0200101N003012200019N0500001N1-02491-03241101941ADDAA199000091GA1001+999999999GF100991001001999999001001KA1999M-02271MD1310011+9999REMSYN064AAXX  21091 31088 32999 00103 11249 21324 40194 53001 333 11227;EQDQ01  00002PRCP99
0196310880999992000012112004+59370+143200FM-12+000699999V0200201N002012200019N0500001N1-02651-03391101951ADDAA199000091GA1001+999999999GF100991001001999999001001KA1999M-02271MA1999999101871MD1210011+9999REMSYN070AAXX  21121 31088 32999 00202 11265 21339 30187 40195 52001 333 11227;EQDQ01  00002PRCP99
0122310880999992000012115004+59370+143200FM-12+000699999V0200201N002012200019N0500001N1-02861-03481101911ADDGA1001+999999999GF100991001001999999001001MD1810041+9999REMSYN054AAXX  21151 31088 42999 00202 11286 21348 40191 58004;
0122310880999992000012118004+59370+143200FM-12+000699999V0200101N003012200019N0500001N1-02941-03561101871ADDGA1001+999999999GF100991001001999999001001MD1710041+9999REMSYN054AAXX  21181 31088 42999 00103 11294 21356 40187 57004;
0185310880999992000012121004+59370+143200FM-12+000699999V0200101N003012200019N0500001N1-02911-03541101851ADDAA199000091AJ100199199999999GA1001+999999999GF100991001001999999001001IA1279MD1710021+9999REMSYN064AAXX  21211 31088 32999 00103 11291 21354 40185 57002 333 43019;EQDQ01  00002PRCP99
0221310880999992000012200004+59370+143200FM-12+000699999V0200101N003012200019N0500001N1-02941-03561101881ADDAA199000091AJ100199199999999GF102991021001999999041001IA1279KA1120N-02981MA1999999101801MD1310031+9999REMSYN088AAXX  22001 31088 32999 20103 11294 21356 30180 40188 53003 82040 333 21298 43019 55065;EQDQ01  00002PRCP99
0112310880999992000012203004+59370+143200FM-12+000699999V0203401N003012200019N0500001N1-02651-03391101821ADDGF102991021001999999031001MD1810061+9999REMSYN060AAXX  22031 31088 42999 23403 11265 21339 40182 58006 82030;
0112310880999992000012206004+59370+143200FM-12+000699999V0203301N001012200019N0500001N1-02411-03281101751ADDGF102991021001999999031001MD1710071+9999REMSYN060AAXX  22061 31088 42999 23301 11241 21328 40175 57007 82030;
0165310880999992000012209004+59370+143200FM-12+000699999V0203601N002012200019N0500001N1-02581-03431101811ADDAA199000091GF102991021001999999031001KA1999M-02281MD1310061+9999REMSYN070AAXX  22091 31088 32999 23602 11258 21343 40181 53006 82030 333 11228;EQDQ01  00002PRCP99
0186310880999992000012212004+59370+143200FM-12+000699999V0200101N002012200019N0500001N1-02511-03361101851ADDAA199000091GF103991031001999999041001KA1999M-02281MA1999999101771MD1210041+9999REMSYN076AAXX  22121 31088 32999 30102 11251 21336 30177 40185 52004 83040 333 11228;EQDQ01  00002PRCP99
0112310880999992000012215004+59370+143200FM-12+000699999V0200101N003012200019N0500001N1-02491-03351101831ADDGF103991031001999999041001MD1810021+9999REMSYN060AAXX  22151 31088 42999 30103 11249 21335 40183 58002 83040;
0112310880999992000012218004+59370+143200FM-12+000699999V0200101N002019999999N0500001N1-02641-03371101831ADDGF107991031001999999041061MD1410001+9999REMSYN060AAXX  22181 31088 42999 70102 11264 21337 40183 54000 83046;
0175310880999992000012221004+59370+143200FM-12+000699999V0200101N002019999999N0500001N1-02651+99999101831ADDAA199000091AJ100179199999999GF105991031001999999041011IA1279MD1410001+9999REMSYN070AAXX  22211 31088 32999 50102 11265 21239 40183 54000 83041 333 43017;EQDQ01  00002PRCP99
0221310880999992000012300004+59370+143200FM-12+000699999V0200201N003012200019N0500001N1-02631-03471101861ADDAA199000091AJ100179199999999GF103991021001999999041011IA1279KA1120N-02691MA1999999101781MD1310031+9999REMSYN088AAXX  23001 31088 32999 30203 11263 21347 30178 40186 53003 82041 333 21269 43017 55067;EQDQ01  00002PRCP99
0112310880999992000012303004+59370+143200FM-12+000699999V0200201N002019999999N0500001N1-02381-03241101811ADDGF107991001001999999001061MD1810051+9999REMSYN060AAXX  23031 31088 42999 70202 11238 21324 40181 58005 80006;
0142310880999992000012306004+59370+143200FM-12+000699999V0200101N002019999999N0500001N1-02231-03101101801ADDAA199000091GF107991051001999999041011MD1710011+9999REMSYN060AAXX  23061 31088 32999 70102 11223 21310 40180 57001 85041;EQDQ01  00002PRCP99
0165310880999992000012309004+59370+143200FM-12+000699999V0200301N002019999999N0500001N1-02391-03141101851ADDAA199000091GF107991041001999999041061KA1999M-02151MD1310051+9999REMSYN070AAXX  23091 31088 32999 70302 11239 21314 40185 53005 84046 333 11215;EQDQ01  00002PRCP99
0202310880999992000012312004+59370+143200FM-12+000699999V0203201N001019999999N0500001N1-02351-03111101841ADDAA199000091GF107991021001999999041061KA1999N+99999MA1999999101761MD1810011+9999REMSYN076AAXX  23121 31088 32999 73201 11235 21311 30176 40184 58001 82046 333 21215;EQDQ01  00002PRCP99Q02 -02152ATMN  
0152310880999992000012315004+59370+143200FM-12+000699999V0203601N009019999999N0500001N1+99999+99999101821ADDAA199000091GF107991999001999999041001MD1710021+9999REMSYN054AAXX  23151 31088 32999 73609 21220 40182 57002 85040;EQDQ01+000052SCOTLCQ02  00002PRCP99
0112310880999992000012318004+59370+143200FM-12+000699999V0203601N002019999999N0500001N1-02591-03331101791ADDGF106991021001999999041011MD1710031+9999REMSYN060AAXX  23181 31088 42999 63602 11259 21333 40179 57003 82041;
0175310880999992000012321004+59370+143200FM-12+000699999V0203601N004019999999N0500001N1-02651-03391101681ADDAA199000091AJ100179199999999GF105991031001999999041011IA1279MD1810111+9999REMSYN070AAXX  23211 31088 32999 53604 11265 21339 40168 58011 83041 333 43017;EQDQ01  00002PRCP99
0221310880999992000012400004+59370+143200FM-12+000699999V0200401N002019999999N0500001N1-02691-03531101591ADDAA199000091AJ100179199999999GF107991031001999999041011IA1279KA1120N-02691MA1999999101511MD1710091+9999REMSYN088AAXX  24001 31088 32999 70402 11269 21353 30151 40159 57009 83041 333 21269 43017 55045;EQDQ01  00002PRCP99
0112310880999992000012403004+59370+143200FM-12+000699999V0200101N003019999999N0500001N1-02391-03251101351ADDGF107991021001999999041021MD1810241+9999REMSYN060AAXX  24031 31088 42999 70103 11239 21325 40135 58024 82042;
0112310880999992000012406004+59370+143200FM-12+000699999V0203601N002010300019N0500001N1-02211-03091101221ADDGF107991021041008001031011MD1710131+9999REMSYN060AAXX  24061 31088 42599 73602 11221 21309 40122 57013 82431;
0165310880999992000012409004+59370+143200FM-12+000699999V0200201N002010300019N0500001N1-02451-03311101161ADDAA199000091GF107991021041008001031011KA1999M-02171MD1610061+9999REMSYN070AAXX  24091 31088 32599 70202 11245 21331 40116 56006 82431 333 11217;EQDQ01  00002PRCP99
0186310880999992000012412004+59370+143200FM-12+000699999V0200201N002019999999N0500001N1-02531-03371101071ADDAA199000091GF105991021001999999041011KA1999M-02171MA1999999100991MD1710091+9999REMSYN076AAXX  24121 31088 32999 50202 11253 21337 30099 40107 57009 82041 333 11217;EQDQ01  00002PRCP99
0112310880999992000012415004+59370+143200FM-12+000699999V0200101N002012200019N0500001N1-02651-03501101021ADDGF102991021001999999041001MD1710051+9999REMSYN060AAXX  24151 31088 42999 20102 11265 21350 40102 57005 82040;
0122310880999992000012418004+59370+143200FM-12+000699999V0200301N004012200019N0500001N1-02571+99999101011ADDGA1001+999999999GF100991001001999999001001MD1710011+9999REMSYN054AAXX  24181 31088 42999 00304 11257 21241 40101 57001;
0185310880999992000012421004+59370+143200FM-12+000699999V0200301N003012200019N0500001N1-02631-03471101041ADDAA199000091AJ100169199999999GA1001+999999999GF100991001001999999001001IA1279MD1310031+9999REMSYN064AAXX  24211 31088 32999 00303 11263 21347 40104 53003 333 43016;EQDQ01  00002PRCP99
0231310880999992000012500004+59370+143200FM-12+000699999V0203601N003012200019N0500001N1-02651-03501101071ADDAA199000091AJ100169199999999GA1001+999999999GF100991001001999999001001IA1279KA1120N-02771MA1999999100991MD1210031+9999REMSYN082AAXX  25001 31088 32999 03603 11265 21350 30099 40107 52003 333 21277 43016 55044;EQDQ01  00002PRCP99
0122310880999992000012503004+59370+143200FM-12+000699999V0203501N005012200019N0500001N1-02211-03211101131ADDGA1001+999999999GF100991001001999999001001MD1210061+9999REMSYN054AAXX  25031 31088 42999 03505 11221 21321 40113 52006;
0122310880999992000012506004+59370+143200FM-12+000699999V0200101N003012200019N0500001N1-02101-03111101181ADDGA1001+999999999GF100991001001999999001001MD1210051+9999REMSYN054AAXX  25061 31088 42999 00103 11210 21311 40118 52005;
0175310880999992000012509004+59370+143200FM-12+000699999V0203601N003012200019N0500001N1-02291-03281101351ADDAA199000091GA1001+999999999GF100991001001999999001001KA1999M-01991MD1310171+9999REMSYN064AAXX  25091 31088 32999 03603 11229 21328 40135 53017 333 11199;EQDQ01  00002PRCP99
0196310880999992000012512004+59370+143200FM-12+000699999V0200401N002012200019N0500001N1-02331-03191101411ADDAA199000091GA1001+999999999GF100991001001999999001001KA1999M-01991MA1999999101331MD1110061+9999REMSYN070AAXX  25121 31088 32999 00402 11233 21319 30133 40141 51006 333 11199;EQDQ01  00002PRCP99
0122310880999992000012515004+59370+143200FM-12+000699999V0200301N003012200019N0500001N1-02391-03141101331ADDGA1001+999999999GF100991001001999999001001MD1810081+9999REMSYN054AAXX  25151 31088 42999 00303 11239 21314 40133 58008;
0122310880999992000012518004+59370+143200FM-12+000699999V0200101N003012200019N0500001N1-02331+99999101191ADDGA1001+999999999GF100991001001999999001001MD1710141+9999REMSYN054AAXX  25181 31088 42999 00103 11233 21208 40119 57014;
0206310880999992000012521004+59370+143200FM-12+000699999V0200401N004012200019N0500001N1-02331-03081101061ADDAA199000091AJ100169199999999GA1001+999999999GF100991001001999999001001IA1279MA1999999100981MD1710131+9999REMSYN070AAXX  25211 31088 32999 00404 11233 21308 30098 40106 57013 333 43016;EQDQ01  00002PRCP99
0221310880999992000012600004+59370+143200FM-12+000699999V0200401N005012200019N0500001N1-02241-03001100901ADDAA199000091AJ100169199999999GF102991001001999999001011IA1279KA1120N-02501MA1999999100821MD1710161+9999REMSYN088AAXX  26001 31088 32999 20405 11224 21300 30082 40090 57016 80001 333 21250 43016 55069;EQDQ01  00002PRCP99
0112310880999992000012603004+59370+143200FM-12+000699999V0200101N004012200019N0500001N1-01971-02751100731ADDGF101991001001999999001011MD1710171+9999REMSYN060AAXX  26031 31088 42999 10104 11197 21275 40073 57017 80001;
0112310880999992000012606004+59370+143200FM-12+000699999V0200201N001019999999N0500001N1-01851-02751100691ADDGF107991001001999999001011MD1610041+9999REMSYN060AAXX  26061 31088 42999 70201 11185 21275 40069 56004 80001;
0165310880999992000012609004+59370+143200FM-12+000699999V0200301N003019999999N0500001N1-01781-02571100651ADDAA199000091GF107991001001999999001011KA1999M-01751MD1710041+9999REMSYN070AAXX  26091 31088 32999 70303 11178 21257 40065 57004 80001 333 11175;EQDQ01  00002PRCP99
0186310880999992000012612004+59370+143200FM-12+000699999V0200101N004019999999N0500001N1-01901-02801100481ADDAA199000091GF107991001001999999001011KA1999M-01751MA1999999100401MD1810171+9999REMSYN076AAXX  26121 31088 32999 70104 11190 21280 30040 40048 58017 80001 333 11175;EQDQ01  00002PRCP99
0112310880999992000012615004+59370+143200FM-12+000699999V0200301N003019999999N0500001N1-01961-02851100331ADDGF107991021001999999041011MD1710151+9999REMSYN060AAXX  26151 31088 42999 70303 11196 21285 40033 57015 82041;
0112310880999992000012618004+59370+143200FM-12+000699999V0203601N004012200019N0500001N1-02071-02951100281ADDGF102991021001999999041001MD1610051+9999REMSYN060AAXX  26181 31088 42999 23604 11207 21295 40028 56005 82040;
0175310880999992000012621004+59370+143200FM-12+000699999V0203601N005012200019N0500001N1-02591-03231100241ADDAA199000091AJ100169199999999GF101991011001999999041001IA1279MD1710041+9999REMSYN070AAXX  26211 31088 32999 13605 11259 21323 40024 57004 81040 333 43016;EQDQ01  00002PRCP99
0221310880999992000012700004+59370+143200FM-12+000699999V0200101N004012200019N0500001N1-02231-02891100301ADDAA199000091AJ100169199999999GF102991001001999999001011IA1279KA1120N-02611MA1999999100221MD1310061+9999REMSYN088AAXX  27001 31088 32999 20104 11223 21289 30022 40030 53006 80001 333 21261 43016 55066;EQDQ01  00002PRCP99
0112310880999992000012703004+59370+143200FM-12+000699999V0200101N004012200019N0500001N1-01961-02741100311ADDGF102991021001999999041001MD1210011+9999REMSYN060AAXX  27031 31088 42999 20104 11196 21274 40031 52001 82040;
0112310880999992000012706004+59370+143200FM-12+000699999V0200101N003012200019N0500001N1-01871-02651100351ADDGF102991021001999999041001MD1210041+9999REMSYN060AAXX  27061 31088 42999 20103 11187 21265 40035 52004 82040;
0165310880999992000012709004+59370+143200FM-12+000699999V0200201N002012200019N0500001N1-01951-02731100391ADDAA199000091GF102991021001999999041001KA1999M-01781MD1210041+9999REMSYN070AAXX  27091 31088 32999 20202 11195 21273 40039 52004 82040 333 11178;EQDQ01  00002PRCP99
0196310880999992000012712004+59370+143200FM-12+000699999V0200101N004012200019N0500001N1-02051-02821100441ADDAA199000091GA1001+999999999GF100991001001999999001001KA1999M-01781MA1999999100361MD1210051+9999REMSYN070AAXX  27121 31088 32999 00104 11205 21282 30036 40044 52005 333 11178;EQDQ01  00002PRCP99
0122310880999992000012715004+59370+143200FM-12+000699999V0200201N002012200019N0500001N1-02061-02831100521ADDGA1001+999999999GF100991001001999999001001MD1210081+9999REMSYN054AAXX  27151 31088 42999 00202 11206 21283 40052 52008;
0122310880999992000012718004+59370+143200FM-12+000699999V0200201N003012200019N0500001N1-02151-02921100671ADDGA1001+999999999GF100991001001999999001001MD1310151+9999REMSYN054AAXX  27181 31088 42999 00203 11215 21292 40067 53015;
0185310880999992000012721004+59370+143200FM-12+000699999V0200401N004012200019N0500001N1-02291-03051100891ADDAA199000091AJ100159199999999GA1001+999999999GF100991001001999999001001IA1279MD1210221+9999REMSYN064AAXX  27211 31088 32999 00404 11229 21305 40089 52022 333 43015;EQDQ01  00002PRCP99
0247310880999992000012800004+59370+143200FM-12+000699999V0203501N003012200019N0500001N1-02401-03151101141ADDAA199000091AJ100159199999999GA1001+999999999GF100991001001999999001001IA1279KA1120N+99999MA1999999101061MD1210251+9999REMSYN082AAXX  28001 31088 32999 03503 11240 21315 30106 40114 52025 333 21234 43015 55070;EQDQ01  00002PRCP99Q02 -02342ATMN  
0112310880999992000012803004+59370+143200FM-12+000699999V0203601N002019999999N0500001N1-02071-02951101311ADDGF105991021001999999031011MD1210171+9999REMSYN060AAXX  28031 31088 42999 53602 11207 21295 40131 52017 82031;
0112310880999992000012806004+59370+143200FM-12+000699999V0203501N002019999999N0500001N1-01911-02931101601ADDGF107991031001999999051011MD1210291+9999REMSYN060AAXX  28061 31088 42999 73502 11191 21293 40160 52029 83051;
0165310880999992000012809004+59370+143200FM-12+000699999V0203601N003019999999N0500001N1-02351-03221101971ADDAA199000091GF106991031001999999051011KA1999M-01861MD1310371+9999REMSYN070AAXX  28091 31088 32999 63603 11235 21322 40197 53037 83051 333 11186;EQDQ01  00002PRCP99
0186310880999992000012812004+59370+143200FM-12+000699999V0200101N003019999999N0500001N1-02501-03351102251ADDAA199000091GF105991001001999999001011KA1999M-01861MA1999999102171MD1210281+9999REMSYN076AAXX  28121 31088 32999 50103 11250 21335 30217 40225 52028 80001 333 11186;EQDQ01  00002PRCP99
0112310880999992000012815004+59370+143200FM-12+000699999V0200101N003019999999N0500001N1-02431+99999102451ADDGF105991031001999999041011MD1210201+9999REMSYN060AAXX  28151 31088 42999 50103 11243 21241 40245 52020 83041;
0112310880999992000012818004+59370+143200FM-12+000699999V0200101N004012200019N0500001N1-02671+99999102561ADDGF102991021001999999041001MD1110111+9999REMSYN060AAXX  28181 31088 42999 20104 11267 21247 40256 51011 82040;
0175310880999992000012821004+59370+143200FM-12+000699999V0200101N001012200019N0500001N1-02811-03641102621ADDAA199000091AJ100159199999999GF102991021001999999041001IA1279MD1210061+9999REMSYN070AAXX  28211 31088 32999 20101 11281 21364 40262 52006 82040 333 43015;EQDQ01  00002PRCP99
0231310880999992000012900004+59370+143200FM-12+000699999V0200401N003012200019N0500001N1-02611-03461102741ADDAA199000091AJ100159199999999GA1001+999999999GF100991001001999999001001IA1279KA1120N-02811MA1999999102661MD1210091+9999REMSYN082AAXX  29001 31088 32999 00403 11261 21346 30266 40274 52009 333 21281 43015 55059;EQDQ01  00002PRCP99
0122310880999992000012903004+59370+143200FM-12+000699999V0200301N004012200019N0500001N1-02291-03161102711ADDGA1001+999999999GF100991001001999999001001MD1810031+9999REMSYN054AAXX  29031 31088 42999 00304 11229 21316 40271 58003;
0122310880999992000012906004+59370+143200FM-12+000699999V0200301N003012200019N0500001N1-02211-03211102691ADDGA1001+999999999GF100991001001999999001001MD1710021+9999REMSYN054AAXX  29061 31088 42999 00303 11221 21321 40269 57002;
0175310880999992000012909004+59370+143200FM-12+000699999V0200401N004012200019N0500001N1-02361-03351102701ADDAA199000091GA1001+999999999GF100991001001999999001001KA1999M-02141MD1310011+9999REMSYN064AAXX  29091 31088 32999 00404 11236 21335 40270 53001 333 11214;EQDQ01  00002PRCP99
0122310880999992000012915004+59370+143200FM-12+000699999V0200201N004012200019N0500001N1-02351-03341102561ADDGA1001+999999999GF100991001001999999001001MD1610051+9999REMSYN054AAXX  29151 31088 42999 00204 11235 21334 40256 56005;
0122310880999992000012918004+59370+143200FM-12+000699999V0200201N005012200019N0500001N1-02461-03311102761ADDGA1001+999999999GF100991001001999999001001MD1710091+9999REMSYN054AAXX  29181 31088 42999 00205 11246 21331 40276 57009;
0191310880999992000012921004+59370+143200FM-12+000699999V0202901N999992200019N0700001N1-02361-03231102291ADDAA199000091AJ100159199999999GF103991999999000251999999IA1279MD1810181+9999REMSYN070AAXX  29211 31088 31088 32999 00205 11236 21323 40229 58018 333 43015;EQDQ01+020501WOSPD Q02  00002PRCP99
0231310880999992000013000004+59370+143200FM-12+000699999V0200101N004012200019N0500001N1-02361-03121102171ADDAA199000091AJ100159199999999GA1001+999999999GF100991001001999999001001IA1279KA1120N-02511MA1999999102091MD1710121+9999REMSYN082AAXX  30001 31088 32999 00104 11236 21312 30209 40217 57012 333 21251 43015 55070;EQDQ01  00002PRCP99
0122310880999992000013003004+59370+143200FM-12+000699999V0200301N002012200019N0500001N1-02051-02821101951ADDGA1001+999999999GF100991001001999999001001MD1810221+9999REMSYN054AAXX  30031 31088 42999 00302 11205 21282 40195 58022;
0122310880999992000013006004+59370+143200FM-12+000699999V0200301N003012200019N0500001N1-01881-02781101731ADDGA1001+999999999GF100991001001999999001001MD1710221+9999REMSYN054AAXX  30061 31088 42999 00303 11188 21278 40173 57022;
0165310880999992000013009004+59370+143200FM-12+000699999V0200401N003012200019N0500001N1-01991-02881101521ADDAA199000091GF101991011001999999041001KA1999M-01861MD1710211+9999REMSYN070AAXX  30091 31088 32999 10403 11199 21288 40152 57021 81040 333 11186;EQDQ01  00002PRCP99
0196310880999992000013012004+59370+143200FM-12+000699999V0200401N003012200019N0500001N1-02031-02801101291ADDAA199000091GA1001+999999999GF100991001001999999001001KA1999M-01861MA1999999101211MD1710231+9999REMSYN070AAXX  30121 31088 32999 00403 11203 21280 30121 40129 57023 333 11186;EQDQ01  00002PRCP99
0122310880999992000013015004+59370+143200FM-12+000699999V0200401N002012200019N0500001N1-02141-02911101041ADDGA1001+999999999GF100991001001999999001001MD1710251+9999REMSYN054AAXX  30151 31088 42999 00402 11214 21291 40104 57025;
0122310880999992000013018004+59370+143200FM-12+000699999V0200101N002012200019N0500001N1-02301-02961100591ADDGA1001+999999999GF100991001001999999001001MD1810451+9999REMSYN054AAXX  30181 31088 42999 00102 11230 21296 40059 58045;
0175310880999992000013021004+59370+143200FM-12+000699999V0200101N002019999999N0500001N1-02351-02911100311ADDAA199000091AJ100149199999999GF107991071001999999031001IA1279MD1610281+9999REMSYN070AAXX  30211 31088 32999 70102 11235 21291 40031 56028 87030 333 43014;EQDQ01  00002PRCP99
0224310880999992000013100004+59370+143200FM-12+000699999V0203401N001010075019N0040001N1+99999+99999100101ADDAA199000021AJ100149199999999AY171061AY221061GF108991081051008001999999IA1279KA1120N-02441MA1999999100021MD1710211+9999MW1711REMSYN088AAXX  31001 31088 31596 83401 21240 30002 40010 57021 77172 885// 333 21244 43014 55074;
0140310880999992000013103004+59370+143200FM-12+000699999V0203601N004010075019N0200001N1-02051-02301099991ADDAY171031AY221031GF107991061051008001051061MD1610111+9999MW1011REMSYN066AAXX  31031 31088 41598 73604 11205 21230 49999 56011 70172 86556;
0140310880999992000013106004+59370+143200FM-12+000699999V0203601N003010300019N0500001N1-01861-02121100051ADDAY171061AY221061GF107991021051008001031061MD1310061+9999MW1021REMSYN066AAXX  31061 31088 41599 73603 11186 21212 40005 53006 70272 82536;
0135310880999992000013109004+59370+143200FM-12+000699999V0203501N002010300019N0500001N1-01661-01851100191ADDGF107991031051008001031061KA1999M-01641MD1210141+9999REMSYN070AAXX  31091 31088 /2599 73502 11166 21185 40019 52014 83536 333 11164;
0173310880999992000013112004+59370+143200FM-12+000699999V0200301N003019999999N0500001N1-01861-02271100361ADDAA100000591GF107991071001999999031061KA1999M-01641MA1999999100281MD1210171+9999REMSYN082AAXX  31121 31088 12999 70303 11186 21227 30028 40036 52017 69960 87036 333 11164;
0112310880999992000013115004+59370+143200FM-12+000699999V0200201N003019999999N0500001N1-01961-02541100421ADDGF107991031001999999031011MD1110061+9999REMSYN060AAXX  31151 31088 42999 70203 11196 21254 40042 51006 83031;
0175310880999992000013121004+59370+143200FM-12+000699999V0200201N002019999999N0500001N1-02391-02951100661ADDAA199000091AJ100159199999999GF105991001001999999001011IA1239MD1210111+9999REMSYN070AAXX  31211 31088 32999 50202 11239 21295 40066 52011 80001 333 47015;EQDQ01  00002PRCP99
0221310880999992000020100004+59370+143200FM-12+000699999V0203501N001019999999N0500001N1-02041-02611100751ADDAA199000091AJ100159199999999GF107991031001999999031061IA1239KA1120N-02391MA1999999100671MD1210091+9999REMSYN088AAXX  01001 31088 32999 73501 11204 21261 30067 40075 52009 83036 333 21239 47015 55000;EQDQ01  00002PRCP99
0112310880999992000020103004+59370+143200FM-12+000699999V0203601N002019999999N0500001N1-01711-02511100821ADDGF107991021001999999031061MD1210081+9999REMSYN060AAXX  01031 31088 42999 73602 11171 21251 40082 52008 82036;
0112310880999992000020106004+59370+143200FM-12+000699999V0203401N004019999999N0500001N1-01531-02461100791ADDGF107991011001999999041011MD1810031+9999REMSYN060AAXX  01061 31088 42999 73404 11153 21246 40079 58003 81041;
0165310880999992000020109004+59370+143200FM-12+000699999V0203601N004019999999N0500001N1-01831-02731100921ADDAA199000091GF107991011001999999041011KA1999M-01481MD1310111+9999REMSYN070AAXX  01091 31088 32999 73604 11183 21273 40092 53011 81041 333 11148;EQDQ01  00002PRCP99
0186310880999992000020112004+59370+143200FM-12+000699999V0200201N002019999999N0500001N1-02011-02901100931ADDAA199000091GF107991001001999999001011KA1999M-01481MA1999999100851MD1110021+9999REMSYN076AAXX  01121 31088 32999 70202 11201 21290 30085 40093 51002 80001 333 11148;EQDQ01  00002PRCP99
0112310880999992000020115004+59370+143200FM-12+000699999V0203601N005019999999N0500001N1-01851-02751100951ADDGF107991001001999999001011MD1210021+9999REMSYN060AAXX  01151 31088 42999 73605 11185 21275 40095 52002 80001;
0112310880999992000020118004+59370+143200FM-12+000699999V0200101N003019999999N0500001N1-01871-02901101011ADDGF106991001001999999001011MD1210061+9999REMSYN060AAXX  01181 31088 42999 60103 11187 21290 40101 52006 80001;
0175310880999992000020121004+59370+143200FM-12+000699999V0203601N003012200019N0500001N1-02051-02941101041ADDAA199000091AJ100149199999999GF103991001001999999001011IA1239MD1210031+9999REMSYN070AAXX  01211 31088 32999 33603 11205 21294 40104 52003 80001 333 47014;EQDQ01  00002PRCP99
0231310880999992000020200004+59370+143200FM-12+000699999V0200101N003012200019N0500001N1-01991-02771101101ADDAA199000091AJ100149199999999GA1001+999999999GF100991001001999999001001IA1239KA1120N-02161MA1999999101021MD1210061+9999REMSYN082AAXX  02001 31088 32999 00103 11199 21277 30102 40110 52006 333 21216 47014 55045;EQDQ01  00002PRCP99
0112310880999992000020203004+59370+143200FM-12+000699999V0200101N003012200019N0500001N1-01671-02591101061ADDGF102991001001999999001011MD1810041+9999REMSYN060AAXX  02031 31088 42999 20103 11167 21259 40106 58004 80001;
0112310880999992000020206004+59370+143200FM-12+000699999V0203501N002012200019N0500001N1-01421-02361101021ADDGF102991021001999999041001MD1710031+9999REMSYN060AAXX  02061 31088 42999 23502 11142 21236 40102 57003 82040;
0165310880999992000020209004+59370+143200FM-12+000699999V0200101N002012200019N0500001N1-01781-02691101081ADDAA199000091GF102991021001999999041001KA1999M-01371MD1310051+9999REMSYN070AAXX  02091 31088 32999 20102 11178 21269 40108 53005 82040 333 11137;EQDQ01  00002PRCP99
0196310880999992000020212004+59370+143200FM-12+000699999V0209999C000012200019N0500001N1-01941-02831101111ADDAA199000091GA1001+999999999GF100991001001999999001001KA1999M-01371MA1999999101031MD1210031+9999REMSYN070AAXX  02121 31088 32999 00000 11194 21283 30103 40111 52003 333 11137;EQDQ01  00002PRCP99
0122310880999992000020215004+59370+143200FM-12+000699999V0203601N002012200019N0500001N1-02051-02821101131ADDGA1001+999999999GF100991001001999999001001MD1210021+9999REMSYN054AAXX  02151 31088 42999 03602 11205 21282 40113 52002;
0122310880999992000020218004+59370+143200FM-12+000699999V0203601N004012200019N0500001N1-02051-02821101131ADDGA1001+999999999GF100991001001999999001001MD1410001+9999REMSYN054AAXX  02181 31088 42999 03604 11205 21282 40113 54000;
0185310880999992000020221004+59370+143200FM-12+000699999V0200101N003012200019N0500001N1-01851-02641101201ADDAA199000091AJ100149199999999GA1001+999999999GF100991001001999999001001IA1239MD1310071+9999REMSYN064AAXX  02211 31088 32999 00103 11185 21264 40120 53007 333 47014;EQDQ01  00002PRCP99
0221310880999992000020300004+59370+143200FM-12+000699999V0203401N005012200019N0500001N1-01761-02551101341ADDAA199000091AJ100149199999999GF102991001001999999001011IA1239KA1120N-02231MA1999999101261MD1310141+9999REMSYN088AAXX  03001 31088 32999 23405 11176 21255 30126 40134 53014 80001 333 21223 47014 55076;EQDQ01  00002PRCP99
0112310880999992000020303004+59370+143200FM-12+000699999V0203601N004012200019N0500001N1-01411-02351101341ADDGF103991011001999999031011MD1410001+9999REMSYN060AAXX  03031 31088 42999 33604 11141 21235 40134 54000 81031;
0112310880999992000020306004+59370+143200FM-12+000699999V0203601N004012200019N0500001N1-01301-02241101311ADDGF103991021001999999051011MD1810021+9999REMSYN060AAXX  03061 31088 42999 33604 11130 21224 40131 58002 82051;
0165310880999992000020309004+59370+143200FM-12+000699999V0200401N001019999999N0500001N1-01471-02401101431ADDAA199000091GF106991021001999999051011KA1999M-01261MD1310121+9999REMSYN070AAXX  03091 31088 32999 60401 11147 21240 40143 53012 82051 333 11126;EQDQ01  00002PRCP99
0186310880999992000020312004+59370+143200FM-12+000699999V0200101N004012200019N0500001N1-01441-02371101521ADDAA199000091GF103991031001999999041001KA1999M-01261MA1999999101451MD1210091+9999REMSYN076AAXX  03121 31088 32999 30104 11144 21237 30145 40152 52009 83040 333 11126;EQDQ01  00002PRCP99
0112310880999992000020315004+59370+143200FM-12+000699999V0200101N003019999999N0500001N1-01631-02551101711ADDGF106991031001999999041011MD1310181+9999REMSYN060AAXX  03151 31088 42999 60103 11163 21255 40171 53018 83041;
0112310880999992000020318004+59370+143200FM-12+000699999V0200201N002019999999N0500001N1-01761-02551101781ADDGF107991031001999999041011MD1110071+9999REMSYN060AAXX  03181 31088 42999 70202 11176 21255 40178 51007 83041;
0175310880999992000020321004+59370+143200FM-12+000699999V0200401N003019999999N0500001N1-01731-02231101801ADDAA199000091AJ100149199999999GF105991021001999999041011IA1279MD1210021+9999REMSYN070AAXX  03211 31088 32999 50403 11173 21223 40180 52002 82041 333 43014;EQDQ01  00002PRCP99
0231310880999992000020400004+59370+143200FM-12+000699999V0200301N003012200019N0500001N1-01801-02481101831ADDAA199000091AJ100149199999999GA1001+999999999GF100991001001999999001001IA1279KA1120N-01971MA1999999101751MD1210031+9999REMSYN082AAXX  04001 31088 32999 00303 11180 21248 30175 40183 52003 333 21197 43014 55074;EQDQ01  00002PRCP99
0122310880999992000020403004+59370+143200FM-12+000699999V0200201N003012200019N0500001N1-01481-02291101731ADDGA1001+999999999GF100991001001999999001001MD1810101+9999REMSYN054AAXX  04031 31088 42999 00203 11148 21229 40173 58010;
0112310880999992000020406004+59370+143200FM-12+000699999V0200301N004012200019N0500001N1-01311-02251101691ADDGF102991021001999999041011MD1710041+9999REMSYN060AAXX  04061 31088 42999 20304 11131 21225 40169 57004 82041;
0165310880999992000020409004+59370+143200FM-12+000699999V0200501N003012200019N0500001N1-01681-02481101691ADDAA199000091GF102991021001999999041011KA1999M-01271MD1410001+9999REMSYN070AAXX  04091 31088 32999 20503 11168 21248 40169 54000 82041 333 11127;EQDQ01  00002PRCP99
0186310880999992000020412004+59370+143200FM-12+000699999V0200201N002012200019N0500001N1-01611-02411101671ADDAA199000091GF103991001001999999001011KA1999M-01271MA1999999101591MD1810021+9999REMSYN076AAXX  04121 31088 32999 30202 11161 21241 30159 40167 58002 80001 333 11127;EQDQ01  00002PRCP99
0122310880999992000020415004+59370+143200FM-12+000699999V0203601N004012200019N0500001N1-01581-02381101641ADDGA1001+999999999GF100991001001999999001001MD1710031+9999REMSYN054AAXX  04151 31088 42999 03604 11158 21238 40164 57003;
0122310880999992000020418004+59370+143200FM-12+000699999V0200201N004012200019N0500001N1-01631-02431101661ADDGA1001+999999999GF100991001001999999001001MD1310021+9999REMSYN054AAXX  04181 31088 42999 00204 11163 21243 40166 53002;
0175310880999992000020421004+59370+143200FM-12+000699999V0200101N005012200019N0500001N1-01631-02431101661ADDAA199000091AJ100149199999999GF102991021001999999031001IA1279MD1410001+9999REMSYN070AAXX  04211 31088 32999 20105 11163 21243 40166 54000 82030 333 43014;EQDQ01  00002PRCP99
0221310880999992000020500004+59370+143200FM-12+000699999V0200301N003012200019N0500001N1-01641-02331101761ADDAA199000091AJ100149199999999GF103991011001999999041011IA1279KA1120N-01811MA1999999101681MD1310101+9999REMSYN088AAXX  05001 31088 32999 30303 11164 21233 30168 40176 53010 81041 333 21181 43014 55070;EQDQ01  00002PRCP99
0112310880999992000020503004+59370+143200FM-12+000699999V0200301N004012200019N0500001N1-01331-02041101741ADDGF101991001001999999001011MD1810021+9999REMSYN060AAXX  05031 31088 42999 10304 11133 21204 40174 58002 80001;
0112310880999992000020506004+59370+143200FM-12+000699999V0200401N003012200019N0500001N1-01171-02121101711ADDGF102991001001999999001011MD1710021+9999REMSYN060AAXX  05061 31088 42999 20403 11117 21212 40171 57002 80001;
0165310880999992000020509004+59370+143200FM-12+000699999V0200301N005012200019N0500001N1-01351-02291101751ADDAA199000091GF102991001001999999001011KA1999M-01141MD1310031+9999REMSYN070AAXX  05091 31088 32999 20305 11135 21229 40175 53003 80001 333 11114;EQDQ01  00002PRCP99
0186310880999992000020512004+59370+143200FM-12+000699999V0200401N005012200019N0500001N1-01421-02241101771ADDAA199000091GF102991001001999999001011KA1999M-01141MA1999999101691MD1210021+9999REMSYN076AAXX  05121 31088 32999 20405 11142 21224 30169 40177 52002 80001 333 11114;EQDQ01  00002PRCP99
0122310880999992000020515004+59370+143200FM-12+000699999V0200401N003012200019N0500001N1-01481-02291101771ADDGA1001+999999999GF100991001001999999001001MD1410001+9999REMSYN054AAXX  05151 31088 42999 00403 11148 21229 40177 54000;
0122310880999992000020518004+59370+143200FM-12+000699999V0200401N004012200019N0500001N1-01551-02361101771ADDGA1001+999999999GF100991001001999999001001MD1410001+9999REMSYN054AAXX  05181 31088 42999 00404 11155 21236 40177 54000;
0185310880999992000020521004+59370+143200FM-12+000699999V0200301N005012200019N0500001N1-01551-02361101691ADDAA199000091AJ100129199999999GA1001+999999999GF100991001001999999001001IA1279MD1810081+9999REMSYN064AAXX  05211 31088 32999 00305 11155 21236 40169 58008 333 43012;EQDQ01  00002PRCP99
0231310880999992000020600004+59370+143200FM-12+000699999V0203601N005012200019N0500001N1-01641-02441101651ADDAA199000091AJ100139199999999GA1001+999999999GF100991001001999999001001IA1279KA1120N-01731MA1999999101571MD1710041+9999REMSYN082AAXX  06001 31088 32999 03605 11164 21244 30157 40165 57004 333 21173 43013 55075;EQDQ01  00002PRCP99
0122310880999992000020603004+59370+143200FM-12+000699999V0203601N006012200019N0500001N1-01111-01951101501ADDGA1001+999999999GF100991001001999999001001MD1810141+9999REMSYN054AAXX  06031 31088 42999 03606 11111 21195 40150 58014;
0122310880999992000020606004+59370+143200FM-12+000699999V0203601N006012200019N0500001N1-00881-01891101421ADDGA1001+999999999GF100991001001999999001001MD1710081+9999REMSYN054AAXX  06061 31088 42999 03606 11088 21189 40142 57008;
0165310880999992000020609004+59370+143200FM-12+000699999V0203501N003012200019N0500001N1-01031-02001101331ADDAA199000091GF102991021001999999031001KA1999M-00811MD1710091+9999REMSYN070AAXX  06091 31088 32999 23503 11103 21200 40133 57009 82030 333 11081;EQDQ01  00002PRCP99
0186310880999992000020612004+59370+143200FM-12+000699999V0200201N003012200019N0500001N1-01081-01921101351ADDAA199000091GF102991021001999999041001KA1999M-00811MA1999999101281MD1310021+9999REMSYN076AAXX  06121 31088 32999 20203 11108 21192 30128 40135 53002 82040 333 11081;EQDQ01  00002PRCP99
0112310880999992000020615004+59370+143200FM-12+000699999V0200301N002012200019N0500001N1-01241-02071101261ADDGF101991011001999999041001MD1810091+9999REMSYN060AAXX  06151 31088 42999 10302 11124 21207 40126 58009 81040;
0112310880999992000020618004+59370+143200FM-12+000699999V0200101N003019999999N0500001N1-01141-02101101191ADDGF105991021001999999041011MD1710071+9999REMSYN060AAXX  06181 31088 42999 50103 11114 21210 40119 57007 82041;
0175310880999992000020621004+59370+143200FM-12+000699999V0200301N003012200019N0500001N1-01341-02161101101ADDAA199000091AJ100139199999999GF102991021001999999031001IA1279MD1710091+9999REMSYN070AAXX  06211 31088 32999 20303 11134 21216 40110 57009 82030 333 43013;EQDQ01  00002PRCP99
0221310880999992000020700004+59370+143200FM-12+000699999V0203601N004010300019N0500001N1-00921-01741101031ADDAA199000091AJ100139199999999GF107991021051008001031011IA1279KA1120N-01391MA1999999100961MD1710071+9999REMSYN088AAXX  07001 31088 32599 73604 11092 21174 30096 40103 57007 82531 333 21139 43013 55078;EQDQ01  00002PRCP99
0112310880999992000020703004+59370+143200FM-12+000699999V0203501N005010300019N0500001N1-00671-01511100921ADDGF107991021051008001031011MD1710111+9999REMSYN060AAXX  07031 31088 42599 73505 11067 21151 40092 57011 82531;
0112310880999992000020706004+59370+143200FM-12+000699999V0203501N007010300019N0500001N1-00561-01631100811ADDGF107991021051008001031011MD1710111+9999REMSYN060AAXX  07061 31088 42599 73507 11056 21163 40081 57011 82531;
0165310880999992000020709004+59370+143200FM-12+000699999V0203501N004010300019N0500001N1-00691-01751100781ADDAA199000091GF107991011051008001031011KA1999M-00531MD1610031+9999REMSYN070AAXX  07091 31088 32599 73504 11069 21175 40078 56003 81531 333 11053;EQDQ01  00002PRCP99
0186310880999992000020712004+59370+143200FM-12+000699999V0203601N004010300019N0500001N1-00871-01791100781ADDAA199000091GF107991021051008001031011KA1999M-00531MA1999999100711MD1410001+9999REMSYN076AAXX  07121 31088 32599 73604 11087 21179 30071 40078 54000 82531 333 11053;EQDQ01  00002PRCP99
0112310880999992000020715004+59370+143200FM-12+000699999V0203501N001019999999N0500001N1-01281-02111100781ADDGF106991021001999999041011MD1410001+9999REMSYN060AAXX  07151 31088 42999 63501 11128 21211 40078 54000 82041;
0112310880999992000020718004+59370+143200FM-12+000699999V0203401N003012200019N0000001N1-01341-02051100781ADDGF103991011001000251041011MD1410001+9999REMSYN060AAXX  07181 31088 42000 33403 11134 21205 40078 54000 81041;
0175310880999992000020721004+59370+143200FM-12+000699999V0203601N003012200019N0500001N1-01481-02181100811ADDAA199000091AJ100139199999999GF102991021001999999041001IA1279MD1310031+9999REMSYN070AAXX  07211 31088 32999 23603 11148 21218 40081 53003 82040 333 43013;EQDQ01  00002PRCP99
0208310880999992000020800004+59370+143200FM-12+000699999V0203401N002010300019N0500001N1-01471-02071100911ADDAA199000091AJ100139199999999GF107991031051008001041011IA1279MA1999999100841MD1210101+9999REMSYN088AAXX  08001 31088 32599 73402 11147 21207 30084 40091 52010 83541 333 24150 43013 55023;EQDQ01  00002PRCP99
0112310880999992000020803004+59370+143200FM-12+000699999V0203601N002010042019N0500001N1-01051-01891100861ADDGF107991051061004501041011MD1810051+9999REMSYN060AAXX  08031 31088 42499 73602 11105 21189 40086 58005 85641;
0112310880999992000020806004+59370+143200FM-12+000699999V0200101N002019999999N0500001N1-00831-01871999999ADDGF105991021001999999041011MD1710081+9999REMSYN060AAXX  08061 31088 42999 50102 11083 21187 44078 57008 82041;
0165310880999992000020809004+59370+143200FM-12+000699999V0200101N002019999999N0500001N1-01291-02011100771ADDAA199000091GF105991021001999999041011KA1999M-00791MD1610011+9999REMSYN070AAXX  08091 31088 32999 50102 11129 21201 40077 56001 82041 333 11079;EQDQ01  00002PRCP99
0186310880999992000020812004+59370+143200FM-12+000699999V0203501N003012200019N0500001N1-01611-02311100751ADDAA199000091GF102991011001999999041011KA1999M-00791MA1999999100681MD1710021+9999REMSYN076AAXX  08121 31088 32999 23503 11161 21231 30068 40075 57002 81041 333 11079;EQDQ01  00002PRCP99
0112310880999992000020815004+59370+143200FM-12+000699999V0203501N002012200019N0500001N1-01761-02261100611ADDGF102991001001999999001011MD1810151+9999REMSYN060AAXX  08151 31088 42999 23502 11176 21226 40061 58015 80001;
0106310880999992000020818004+59370+143200FM-12+000699999V0203501N003012200019N0500001N1-01581-02181100441ADDGF104991999999999999999999MD1710161+9999REMSYN054AAXX  08181 31088 42999 43503 11158 21218 40044 57016;
0175310880999992000020821004+59370+143200FM-12+000699999V0203501N002012200019N0500001N1-01641-02241100271ADDAA199000091AJ100139199999999GF102991001001999999001011IA1279MD1710171+9999REMSYN070AAXX  08211 31088 32999 23502 11164 21224 40027 57017 80001 333 43013;EQDQ01  00002PRCP99
0221310880999992000020900004+59370+143200FM-12+000699999V0203601N003012200019N0500001N1-01451-02061100221ADDAA199000091AJ100139199999999GF103991021001999999031011IA1279KA1120N-01921MA1999999100151MD1610051+9999REMSYN088AAXX  09001 31088 32999 33603 11145 21206 30015 40022 56005 82031 333 21192 43013 55072;EQDQ01  00002PRCP99
0112310880999992000020903004+59370+143200FM-12+000699999V0203401N003019999999N0500001N1-01181-01811099981ADDGF105991021001999999031011MD1810241+9999REMSYN060AAXX  09031 31088 42999 53403 11118 21181 49998 58024 82031;
0112310880999992000020906004+59370+143200FM-12+000699999V0203601N003019999999N0500001N1-00881-01891099831ADDGF107991051001999999051011MD1610151+9999REMSYN060AAXX  09061 31088 42999 73603 11088 21189 49983 56015 85051;
0165310880999992000020909004+59370+143200FM-12+000699999V0203501N003019999999N0500001N1-01091-02821099811ADDAA199000091GF108991081001999999071999KA1999M-00221MD1610021+9999REMSYN070AAXX  09091 31088 32999 83503 11109 21282 49981 56002 8807/ 333 11022;EQDQ01  00002PRCP99
0186310880999992000020912004+59370+143200FM-12+000699999V0200101N001019999999N0500001N1-01091-01821099801ADDAA199000091GF107991051001999999041011KA1999M-00821MA1999999099731MD1710011+9999REMSYN076AAXX  09121 31088 32999 70101 11109 21182 39973 49980 57001 85041 333 11082;EQDQ01  00002PRCP99
0112310880999992000020915004+59370+143200FM-12+000699999V0200101N002019999999N0500001N1-01021-01751099751ADDGF107991061001999999041011MD1710051+9999REMSYN060AAXX  09151 31088 42999 70102 11102 21175 49975 57005 86041;
0112310880999992000020918004+59370+143200FM-12+000699999V0200201N002019999999N0500001N1-01181-01801099751ADDGF107991061001999999041011MD1710021+9999REMSYN060AAXX  09181 31088 42999 70202 11118 21180 49975 57002 86041;
0175310880999992000020921004+59370+143200FM-12+000699999V0200201N001019999999N0500001N1-01311-01921099711ADDAA199000091AJ100129199999999GF107991051001999999041011IA1279MD1710021+9999REMSYN070AAXX  09211 31088 32999 70201 11131 21192 49971 57002 85041 333 43012;EQDQ01  00002PRCP99
0221310880999992000021000004+59370+143200FM-12+000699999V0200101N002019999999N0500001N1-01311-01921099741ADDAA199000091AJ100129199999999GF108991081001999999071999IA1279KA1120N-01311MA1999999099671MD1310031+9999REMSYN088AAXX  10001 31088 32999 80102 11131 21192 39967 49974 53003 8807/ 333 21131 43012 55078;EQDQ01  00002PRCP99
0112310880999992000021003004+59370+143200FM-12+000699999V0200201N002019999999N0500001N1-01061-01691099691ADDGF108991031001999999041071MD1810051+9999REMSYN060AAXX  10031 31088 42999 80202 11106 21169 49969 58005 83047;
0112310880999992000021006004+59370+143200FM-12+000699999V0200101N002019999999N0500001N1-00981-01691099691ADDGF107991021001999999051061MD1410001+9999REMSYN060AAXX  10061 31088 42999 70102 11098 21169 49969 54000 82056;
0165310880999992000021009004+59370+143200FM-12+000699999V0200301N002019999999N0500001N1-01151-01771099741ADDAA199000091GF107991021001999999051061KA1999M-00931MD1310051+9999REMSYN070AAXX  10091 31088 32999 70302 11115 21177 49974 53005 82056 333 11093;EQDQ01  00002PRCP99
0186310880999992000021012004+59370+143200FM-12+000699999V0203601N002019999999N0500001N1-01511-02021099801ADDAA199000091GF105991031001999999051011KA1999M-00531MA1999999099731MD1210061+9999REMSYN076AAXX  10121 31088 32999 53602 11151 21202 39973 49980 52006 83051 333 11053;EQDQ01  00002PRCP99
0131310880999992000021015004+59370+143200FM-12+000699999V0203601N002012200019N0500001N1+99999-02141099851ADDGF103991021001999999031011MD1210051+9999REMSYN060AAXX  10151 31088 42999 33602 10164 21214 49985 52005 82031;EQDQ01+001643ATOT  
0112310880999992000021018004+59370+143200FM-12+000699999V0200201N002019999999N0500001N1-01671-02171099941ADDGF107991031001999999051011MD1210091+9999REMSYN060AAXX  10181 31088 42999 70202 11167 21217 49994 52009 83051;
0175310880999992000021021004+59370+143200FM-12+000699999V0200101N003019999999N0500001N1-01661-02251100041ADDAA199000091AJ100129199999999GF107991041001999999051011IA1279MD1210101+9999REMSYN070AAXX  10211 31088 32999 70103 11166 21225 40004 52010 84051 333 43012;EQDQ01  00002PRCP99
0255310880999992000041900004+59370+143200FM-12+000699999V0201501N005010075019N0200001N1+00021-00071100991ADDAA100000791AJ199992999999999AY171061AY221061GF108991051051008001011999IA1259KA1120N-00011MA1999999100921MD1210051+9999MW1711REMSYN100AAXX  19001 31088 11598 81505 10002 21007 30092 40099 52005 69900 77172 8551/ 333 21001 41998 55120;EQDQ01  09972SNDP  
0140310880999992000041903004+59370+143200FM-12+000699999V0201401N001010300019N0200001N1-00051-00111101111ADDAY181031AY271031GF108991041091008001011999MD1210121+9999MW1851REMSYN066AAXX  19031 31088 41598 81401 11005 21011 40111 52012 78587 8491/;
0166310880999992000041906004+59370+143200FM-12+000699999V0201701N006010060019N0200001N1-00191-00251101271ADDAY181061AY271061GA1061+006009059GF108991081031008001999999MD1210161+9999MW1021REMSYN076AAXX  19061 31088 41598 81706 11019 21025 40127 52016 70287 883// 333 86620;
0223310880999992000041912004+59370+143200FM-12+000699999V0201601N005010072019N0200001N1-00301-00331101571ADDAA100000191AY181061AY271061GA1051+007209059GF108991081091008001999999KA1120M+00041MA1999999101501MD1210141+9999MW1021REMSYN094AAXX  19121 31088 11598 81605 11030 21033 30150 40157 52014 69920 70287 889// 333 10004 85624;
0140310880999992000041915004+59370+143200FM-12+000699999V0201401N004010042019N0200001N1-00301-00331101681ADDAY171031AY221031GF108991081061004501999999MD1210111+9999MW1771REMSYN066AAXX  19151 31088 41498 81404 11030 21033 40168 52011 77772 886//;
0140310880999992000041918004+59370+143200FM-12+000699999V0201301N004010042019N0200001N1-00361-00361101741ADDAY171061AY221061GF108991081061004501999999MD1110061+9999MW1771REMSYN066AAXX  19181 31088 41498 81304 11036 21036 40174 51006 77772 886//;
0173310880999992000041921004+59370+143200FM-12+000699999V0201801N003010021019N0200001N1-00391-00411101831ADDAJ100009199999999AY171031AY221031GF108991081061002501999999IA1219MD1210091+9999MW1771REMSYN076AAXX  19211 31088 /1398 81803 11039 21041 40183 52009 77772 886// 333 45997;
0255310880999992000042000004+59370+143200FM-12+000699999V0201601N003010021019N0200001N1-00351-00401101941ADDAA100000591AJ199993999999999AY171061AY221061GF108991081061002501999999IA1219KA1120N-00411MA1999999101871MD1210111+9999MW1771REMSYN100AAXX  20001 31088 11398 81603 11035 21040 30187 40194 52011 69940 77772 886// 333 21041 45997 55000;EQDQ01  09982SNDP  
0140310880999992000042003004+59370+143200FM-12+000699999V0201801N004010021019N0200001N1-00281-00351101941ADDAY171031AY221031GF108991061061002501071999MD1410001+9999MW1021REMSYN066AAXX  20031 31088 41398 81804 11028 21035 40194 54000 70272 8667/;
0166310880999992000042006004+59370+143200FM-12+000699999V0201801N003010036019N0200001N1-00241-00301101961ADDAY171061AY221061GA1071+003609069GF107991071061004501001001MD1310021+9999MW1021REMSYN076AAXX  20061 31088 41498 71803 11024 21030 40196 53002 70272 87600 333 87712;
0157310880999992000042009004+59370+143200FM-12+000699999V0201801N003010030019N0009001N1-00311-00351101961ADDGA1081+003009069GF108991081061004501999999KA1120M-00171MD1410001+9999REMSYN076AAXX  20091 31088 /2409 81803 11031 21035 40196 54000 886// 333 11017 88710;
0195310880999992000042012004+59370+143200FM-12+000699999V0209999C000010027019N0200001N1-00311-00381102011ADDAA100000791GA1081+002709069GF108991081061002501999999KA1120M-00171MA1999999101941MD1310051+9999REMSYN088AAXX  20121 31088 12398 80000 11031 21038 30194 40201 53005 69900 886// 333 11017 88709;
0140310880999992000042015004+59370+143200FM-12+000699999V0209999C000010021019N0200001N1-00311-00381101981ADDAY171031AY221031GF108991081061002501999999MD1810031+9999MW1771REMSYN066AAXX  20151 31088 41398 80000 11031 21038 40198 58003 77772 886//;
0140310880999992000042018004+59370+143200FM-12+000699999V0209999C000010021019N0200001N1-00321-00381101981ADDAY171061AY221061GF108991081061002501999999MD1410001+9999MW1771REMSYN066AAXX  20181 31088 41398 80000 11032 21038 40198 54000 77772 886//;
0173310880999992000042021004+59370+143200FM-12+000699999V0203001N001010021019N0200001N1-00351-00401101921ADDAJ100009199999999AY171031AY221031GF108991081061002501999999IA1219MD1810061+9999MW1771REMSYN076AAXX  20211 31088 /1398 83001 11035 21040 40192 58006 77772 886// 333 45997;
0138310880999992000042103004+59370+143200FM-12+000699999V0202201N002010033019N0500001N1-00221-00491101791ADDGA1061+003309069GF108991081031004501999999MD1810101+9999REMSYN070AAXX  21031 31088 42499 82202 11022 21049 40179 58010 883// 333 86711;
0112310880999992000042106004+59370+143200FM-12+000699999V0202301N003010075019N0500001N1+99999+99999101731ADDGF107991071021008001001001MD1710061+9999REMSYN060AAXX  21061 31088 42599 72303 11006 21827 40173 57006 87200;
0157310880999992000042109004+59370+143200FM-12+000699999V0202301N003010030019N0200001N1-00221-00311101701ADDGA1051+003009069GF108991081061004501999999KA1120M-00021MD1710031+9999REMSYN076AAXX  21091 31088 /2498 82303 11022 21031 40170 57003 886// 333 11002 85710;
0195310880999992000042112004+59370+143200FM-12+000699999V0202401N002010027019N0200001N1-00261-00261101751ADDAA100000791GA1081+002709069GF108991081061002501999999KA1120M-00021MA1999999101681MD1310051+9999REMSYN088AAXX  21121 31088 12398 82402 11026 21026 30168 40175 53005 69900 886// 333 11002 88709;
0138310880999992000042115004+59370+143200FM-12+000699999V0202001N001010021019N0200001N1-00301-00301101691ADDGA1081+002109069GF108991081061002501999999MD1810061+9999REMSYN070AAXX  21151 31088 42398 82001 11030 21030 40169 58006 886// 333 88707;
0140310880999992000042118004+59370+143200FM-12+000699999V0209999C000010012019N0200001N1-00271-00271101671ADDAY171061AY221061GF108991081061001501999999MD1710021+9999MW1711REMSYN066AAXX  21181 31088 41298 80000 11027 21027 40167 57002 77172 886//;
0214310880999992000042121004+59370+143200FM-12+000699999V0209999C000010024019N0200001N1-00321-00321101761ADDAJ199992999999999AY171031AY221031GA1081+002409069GF108991081061001501999999IA1229MD1310091+9999MW1021REMSYN082AAXX  21211 31088 /1298 80000 11032 21032 40176 53009 70272 886// 333 46998 88708;EQDQ01  09972SNDP  
0260310880999992000042200004+59370+143200FM-12+000699999V0209999C000010024019N0020001N1-00311-00311101821ADDAA199000021AJ199992999999999AY171061AY221061GA1081+002409069GF108991081061002501999999GJ102049IA1229MA1999999101751MD1210061+9999MW1101REMSYN094AAXX  22001 31088 31395 80000 11031 21031 30175 40182 52006 71072 886// 333 46998 55034 88708;EQDQ01  09972SNDP  
0138310880999992000042203004+59370+143200FM-12+000699999V0202301N002010027019N0100001N1-00151-00231101831ADDGA1081+002709069GF108991081061002501999999MD1210011+9999REMSYN070AAXX  22031 31088 41397 82302 11015 21023 40183 52001 886// 333 88709;
0138310880999992000042206004+59370+143200FM-12+000699999V0202501N003010024019N0100001N1-00141-00221101821ADDGA1081+002409069GF108991081061002501999999MD1810011+9999REMSYN070AAXX  22061 31088 41397 82503 11014 21022 40182 58001 886// 333 88708;
0163310880999992000042209004+59370+143200FM-12+000699999V0202401N003010021019N0020001N1-00181-00181101861ADDAY171031AY221031GF108991081061002501999999KA1999M-00081MD1310041+9999MW1771REMSYN076AAXX  22091 31088 /1395 82403 11018 21018 40186 53004 77772 886// 333 11008;
0140310880999992000042215004+59370+143200FM-12+000699999V0201001N003010021019N0020001N1-00261-00361101991ADDAY171031AY221031GF108991081061002501999999MD1110021+9999MW1771REMSYN066AAXX  22151 31088 41395 81003 11026 21036 40199 51002 77772 886//;
0173310880999992000042221004+59370+143200FM-12+000699999V0209999C000010042019N0100001N1-00241-00431101971ADDAJ100009199999999AY171031AY221031GF108991081061004501999999IA1229MD1810031+9999MW1771REMSYN076AAXX  22211 31088 /1497 80000 11024 21043 40197 58003 77772 886// 333 46998;
0255310880999992000042300004+59370+143200FM-12+000699999V0209999C000010042019N0010001N1-00191-00401102021ADDAA100000591AJ199992999999999AY171061AY221061GF108991081061004501999999IA1229KA1120N-00291MA1999999101951MD1310051+9999MW1771REMSYN100AAXX  23001 31088 11494 80000 11019 21040 30195 40202 53005 69940 77772 886// 333 21029 46998 55000;EQDQ01  09972SNDP  
0166310880999992000042303004+59370+143200FM-12+000699999V0202401N001010030019N0200001N1-00131-00331102001ADDAY171031AY221031GA1051+003009069GF108991081061004501999999MD1810021+9999MW1021REMSYN076AAXX  23031 31088 41498 82401 11013 21033 40200 58002 70272 886// 333 85710;
0166310880999992000042306004+59370+143200FM-12+000699999V0202501N00101004201CN0200001N1-00081-00301101921ADDAY171061AY221061GA1041+003009069GF108991081061004501999999MD1710081+9999MW1021REMSYN076AAXX  23061 31088 41498 82501 11008 21030 40192 57008 70272 886// 333 84710;
0163310880999992000042309004+59370+143200FM-12+000699999V0202601N001010042019N0040001N1-00181-00181101901ADDAY171031AY221031GF108991061061004501021999KA1999M-00081MD1610021+9999MW1731REMSYN076AAXX  23091 31088 /1496 82601 11018 21018 40190 56002 77372 8662/ 333 11008;
0201310880999992000042312004+59370+143200FM-12+000699999V0202501N002010042019N0040001N1-00151-00171101871ADDAA100000391AY171061AY221061GF108991081061004501999999KA1999M-00081MA1999999101801MD1710031+9999MW1731REMSYN088AAXX  23121 31088 11496 82502 11015 21017 30180 40187 57003 69930 77372 886// 333 11008;
0140310880999992000042315004+59370+143200FM-12+000699999V0202701N002010042019N0020001N1-00161-00161101821ADDAY181031AY271031GF108991081061004501999999MD1710051+9999MW1851REMSYN066AAXX  23151 31088 41495 82702 11016 21016 40182 57005 78587 886//;
0159310880999992000042318004+59370+143200FM-12+000699999V0202801N001019999999N0040001N1-00141-00141101771ADDAY181061AY271061GF108991999091004501999999MD1710051+9999MW1851REMSYN066AAXX  23181 31088 41496 82801 11014 21014 40177 57005 78587 899//;EQDQ01+000092SCOTLC
0195310880999992000042321004+59370+143200FM-12+000699999V0200201N001010030019N0200001N1-00191-00191101771ADDAJ100019199999999AY171031AY221031GA1051+003009069GF108991061061004501051999IA1239MD1410001+9999MW1221REMSYN082AAXX  23211 31088 /1498 80201 11019 21019 40177 54000 72272 8665/ 333 47001 85710;
0266310880999992000042400004+59370+143200FM-12+000699999V0203601N002010072019N0200001N1-00041-00281101751ADDAA100002091AJ100019199999999AY171061AY221061GA1051+007209059GF107991071031008001001001GJ100009IA1239KA1120N-00201MA1999999101681MD1810021+9999MW1021REMSYN106AAXX  24001 31088 11598 73602 11004 21028 30168 40175 58002 60020 70272 87300 333 21020 47001 55000 85624;
0112310880999992000042403004+59370+143200FM-12+000699999V0202401N004010300019N0500001N1+00131-00161101711ADDGF106991021011008001031011MD1710041+9999REMSYN060AAXX  24031 31088 42599 62404 10013 21016 40171 57004 82131;
0112310880999992000042406004+59370+143200FM-12+000699999V0202501N004010300019N0500001N1+00161+00001101721ADDGF107991021041008001031011MD1310011+9999REMSYN060AAXX  24061 31088 42599 72504 10016 21000 40172 53001 82431;
0165310880999992000042409004+59370+143200FM-12+000699999V0202601N999990075019N0500001N1+00001-00031101721ADDAA199000021GF107991051051008001051011KA1999M+00281MD1410001+9999REMSYN070AAXX  24091 31088 32599 77603 10000 21003 40172 54800 85551 333 10028;EQDQ01+010301WOSPD 
0140310880999992000042415004+59370+143200FM-12+000699999V0209999C000010021019N0020001N1-00281-00281101991ADDAY121031AY221031GF108991081061002501999999MD1210121+9999MW1101REMSYN066AAXX  24151 31088 41395 80000 11028 21028 40199 52012 71022 886//;
0166310880999992000042418004+59370+143200FM-12+000699999V0209999C000010030019N0040001N1-00121-00121102161ADDAY121061AY221061GA1081+003009069GF108991081061004501999999MD1210151+9999MW1101REMSYN076AAXX  24181 31088 41496 80000 11012 21012 40216 52015 71022 886// 333 88710;
0180310880999992000042421004+59370+143200FM-12+000699999V0203501N002010006019N0010001N1-00311-00311102281ADDAA199000091AY141031AY221031GA1091+999999999GF109991091999999999999999MD1210121+9999MW1451REMSYN060AAXX  24211 31088 31/94 93502 11031 21031 40228 52012 74542;EQDQ01  00002PRCP99
0275310880999992000042500004+59370+143200FM-12+000699999V0201401N004012200019N0500001N1+00251-00421102331ADDAA199000091AJ199992999999999AY141061AY211061GA1001+999999999GF100991001001999999001001IA1259KA1120N-00331MA1999999102261MD1110051+9999MW1011REMSYN088AAXX  25001 31088 31999 01404 10025 21042 30226 40233 51005 70141 333 21033 41998 55060;EQDQ01  00002PRCP99Q02  09972SNDP  
0138310880999992000042503004+59370+143200FM-12+000699999V0202001N002010033019N0200001N1-00081-00171102371ADDGA1071+003309069GF107991071061004501001001MD1210041+9999REMSYN070AAXX  25031 31088 42498 72002 11008 21017 40237 52004 87600 333 87711;
0112310880999992000042506004+59370+143200FM-12+000699999V0201801N002010042019N0200001N1-00111-00171102271ADDGF106991061061004501001001MD1810101+9999REMSYN060AAXX  25061 31088 42498 61802 11011 21017 40227 58010 86600;
0165310880999992000042509004+59370+143200FM-12+000699999V0201801N001012200019N0500001N1-00041-00161102191ADDAA199000091GF102991001001999999001011KA1999M+00311MD1710081+9999REMSYN070AAXX  25091 31088 32999 21801 11004 21016 40219 57008 80001 333 10031;EQDQ01  00002PRCP99
0196310880999992000042512004+59370+143200FM-12+000699999V0202301N002012200019N0500001N1+00001-00121102131ADDAA199000091GA1001+999999999GF100991001001999999001001KA1999M+00311MA1999999102061MD1710061+9999REMSYN070AAXX  25121 31088 32999 02302 10000 21012 30206 40213 57006 333 10031;EQDQ01  00002PRCP99
0122310880999992000042515004+59370+143200FM-12+000699999V0202401N001012200019N0500001N1+99999+99999102011ADDGA1001+999999999GF100991001001999999001001MD1810121+9999REMSYN054AAXX  25151 31088 42999 02401 11005 21808 40201 58012;
0112310880999992000042518004+59370+143200FM-12+000699999V0202701N004010042019N0200001N1-00081-01121101891ADDGF106991061061004501001001MD1710121+9999REMSYN060AAXX  25181 31088 42498 62704 11008 21112 40189 57012 86600;
0142310880999992000042521004+59370+143200FM-12+000699999V0203001N002010042019N0200001N1-00101-00121101761ADDAA199000091GF106991061061004501001001MD1710131+9999REMSYN060AAXX  25211 31088 32498 63002 11010 21012 40176 57013 86600;EQDQ01  00002PRCP99
0192310880999992000042600004+59370+143200FM-12+000699999V0202301N002010042019N0200001N1-00071-00221101531ADDAA199000091GF107991061061004501041011KA1120N-00141MA1999999101461MD1810231+9999REMSYN082AAXX  26001 31088 32498 72302 11007 21022 30146 40153 58023 86641 333 21014 55128;EQDQ01  00002PRCP99
0112310880999992000042603004+59370+143200FM-12+000699999V0202501N004010042019N0200001N1-00011-00321101341ADDGF107991071061004501001001MD1710191+9999REMSYN060AAXX  26031 31088 42498 72504 11001 21032 40134 57019 87600;
0112310880999992000042606004+59370+143200FM-12+000699999V0202601N003010042019N0500001N1+00011-00291101131ADDGF107991051061004501001011MD1710211+9999REMSYN060AAXX  26061 31088 42499 72603 10001 21029 40113 57021 85601;
0187310880999992000042609004+59370+143200FM-12+000699999V0202201N004010030019N0200001N1-00151-00261101021ADDAA199000091GA1071+003009069GF107991071061004501001001KA1120M+00121MD1610111+9999REMSYN076AAXX  26091 31088 32498 72204 11015 21026 40102 56011 87600 333 10012 87710;EQDQ01  00002PRCP99
0208310880999992000042612004+59370+143200FM-12+000699999V0202101N001010030019N0200001N1-00191-00251100941ADDAA199000091GA1081+003009069GF108991081061004501999999KA1120M+00121MA1999999100871MD1710081+9999REMSYN082AAXX  26121 31088 32498 82101 11019 21025 30087 40094 57008 886// 333 10012 88710;EQDQ01  00002PRCP99
0138310880999992000042615004+59370+143200FM-12+000699999V0201901N002010030019N0200001N1-00211-00241100841ADDGA1081+003009069GF108991081061004501999999MD1710101+9999REMSYN070AAXX  26151 31088 42498 81902 11021 21024 40084 57010 886// 333 88710;
0140310880999992000042618004+59370+143200FM-12+000699999V0201701N003010042019N0100001N1-00201-00261100781ADDAY171061AY221061GF108991081061004501999999MD1710081+9999MW1711REMSYN066AAXX  26181 31088 41497 81703 11020 21026 40078 57008 77172 886//;
0173310880999992000042621004+59370+143200FM-12+000699999V0209999C000010042019N0200001N1-00171-00251100701ADDAJ100019199999999AY171031AY221031GF108991081061004501999999IA1239MD1710061+9999MW1711REMSYN076AAXX  26211 31088 /1498 80000 11017 21025 40070 57006 77172 886// 333 47001;
0208310880999992000042700004+59370+143200FM-12+000699999V0201301N004010042019N0200001N1-00071-00261100601ADDAA100000391AJ100019199999999GF107991071061004501001001IA1239KA1120N-00221MA1999999100531MD1710101+9999REMSYN094AAXX  27001 31088 11498 71304 11007 21026 30053 40060 57010 69930 87600 333 21022 47001 55089;
0166310880999992000042703004+59370+143200FM-12+000699999V0200201N005010033019N0200001N1-00061-00061100421ADDAY181031AY221031GA1061+003309069GF108991081031004501999999MD1710181+9999MW1261REMSYN076AAXX  27031 31088 41498 80205 11006 21006 40042 57018 72682 883// 333 86711;
0185310880999992000042706004+59370+143200FM-12+000699999V0201801N004010030019N0100001N1-00111-00181999999ADDAY181061AY271061GA1081+003009069GF108991081061004501999999MD1610011+9999MW1771REMSYN076AAXX  27061 31088 41497 81804 11011 21018 40141 56001 77787 886// 333 88710;EQDQ01+101413APOSLP
0163310880999992000042709004+59370+143200FM-12+000699999V0201601N005010021019N0040001N1-00161-00161100321ADDAY171031AY221031GF108991081061002501999999KA1999M+00001MD1710091+9999MW1771REMSYN076AAXX  27091 31088 /1396 81605 11016 21016 40032 57009 77772 886// 333 10000;
0201310880999992000042712004+59370+143200FM-12+000699999V0201701N001010021019N0040001N1-00171-00191100331ADDAA100000191AY181061AY271061GF108991081061002501999999KA1999M+00001MA1999999100261MD1610011+9999MW1851REMSYN088AAXX  27121 31088 11396 81701 11017 21019 30026 40033 56001 69920 78587 886// 333 10000;
0140310880999992000042715004+59370+143200FM-12+000699999V0209999C000010021019N0040001N1-00171-00191100401ADDAY181031AY221031GF108991081061002501999999MD1310071+9999MW1851REMSYN066AAXX  27151 31088 41396 80000 11017 21019 40040 53007 78582 886//;
0166310880999992000042718004+59370+143200FM-12+000699999V0203501N002010024019N0009001N1-00141+99999100361ADDAY181061AY221061GA1081+002409069GF108991081061002501999999MD1810041+9999MW1021REMSYN076AAXX  27181 31088 41309 83502 11014 21012 40036 58004 70282 886// 333 88708;
0112310880999992000042721004+59370+143200FM-12+000699999V0200101N003010300019N0500001N1-00211-00391100391ADDGF107991031061004501041011MD1310031+9999REMSYN060AAXX  27211 31088 12499 70103 11021 21039 40039 53003 83641;
0208310880999992000042800004+59370+143200FM-12+000699999V0200201N001019999999N0500001N1+00281-00201100491ADDAA100000191AJ100019199999999GF107991041001999999041011IA1229KA1120N-00221MA1999999100421MD1210101+9999REMSYN094AAXX  28001 31088 12999 70201 10028 21020 30042 40049 52010 69920 84041 333 21022 46001 55000;
0112310880999992000042803004+59370+143200FM-12+000699999V0202901N002019999999N0500001N1+00281+00011100471ADDGF105991021001999999041011MD1810021+9999REMSYN060AAXX  28031 31088 42999 52902 10028 20001 40047 58002 82041;
0112310880999992000042806004+59370+143200FM-12+000699999V0202601N004010300019N0500001N1+00181+00051100481ADDGF107991031051008001051011MD1310011+9999REMSYN060AAXX  28061 31088 42599 72604 10018 20005 40048 53001 83551;
0165310880999992000042809004+59370+143200FM-12+000699999V0209999C000010300019N0500001N1+00141+00031100631ADDAA199000091GF107991011051008001031061KA1999M+00921MD1310151+9999REMSYN070AAXX  28091 31088 32599 70000 10014 20003 40063 53015 81536 333 10092;EQDQ01  00002PRCP99
0186310880999992000042812004+59370+143200FM-12+000699999V0201501N004010300019N0500001N1+00131+00101100691ADDAA199000091GF107991021051008001051061KA1999M+00921MA1999999100621MD1110061+9999REMSYN076AAXX  28121 31088 32599 71504 10013 20010 30062 40069 51006 82556 333 10092;EQDQ01  00002PRCP99
0138310880999992000042815004+59370+143200FM-12+000699999V0201401N005010036019N0200001N1+00131+00021100741ADDGA1081+003609069GF108991081061004501999999MD1210051+9999REMSYN070AAXX  28151 31088 42498 81405 10013 20002 40074 52005 886// 333 88712;
0112310880999992000042818004+59370+143200FM-12+000699999V0201001N002010075019N0500001N1+00061-00051100781ADDGF108991051051008001051999MD1210051+9999REMSYN060AAXX  28181 31088 42599 81002 10006 21005 40078 52005 8555/;
0142310880999992000042821004+59370+143200FM-12+000699999V0201501N003010075019N0500001N1+00031-00031100781ADDAA199000091GF107991071051008001001001MD1410001+9999REMSYN060AAXX  28211 31088 32599 71503 10003 21003 40078 54000 87500;EQDQ01  00002PRCP99
0192310880999992000042900004+59370+143200FM-12+000699999V0201701N006010042019N0500001N1+00081+00001100851ADDAA199000091GF106991061061004501001001KA1120N-00051MA1999999100781MD1310071+9999REMSYN082AAXX  29001 31088 32499 61706 10008 21000 30078 40085 53007 86600 333 21005 55096;EQDQ01  00002PRCP99
0112310880999992000042903004+59370+143200FM-12+000699999V0201601N008012200019N0500001N1+00131+00051100761ADDGF103991031061004501001001MD1810021+9999REMSYN060AAXX  29031 31088 42499 31608 10013 20005 40076 58002 83600;
0138310880999992000042906004+59370+143200FM-12+000699999V0201601N009010036019N0500001N1-00011-00041100791ADDGA1071+003609069GF107991071061004501001001MD1210041+9999REMSYN070AAXX  29061 31088 42499 71609 11001 21004 40079 52004 87600 333 87712;
0193310880999992000042909004+59370+143200FM-12+000699999V0201601N008010033019N0200001N1+99999+99999100811ADDAA199000091GA1071+003309079GF107991071061004501001001KA1120M+00151MD1310021+9999REMSYN082AAXX  29091 31088 32498 71608 11008 21912 40081 53002 87600 333 10015 87711 91112;EQDQ01  00002PRCP99
0214310880999992000042912004+59370+143200FM-12+000699999V0201601N007010024019N0200001N1-00111-00121100821ADDAA199000091GA1081+002409079GF108991081061002501999999KA1120M+00151MA1999999100751MD1210011+9999REMSYN088AAXX  29121 31088 32398 81607 11011 21012 30075 40082 52001 886// 333 10015 88708 91111;EQDQ01  00002PRCP99
0140310880999992000042915004+59370+143200FM-12+000699999V0201501N004010021019N0040001N1-00101-00171100821ADDAY171031AY221031GF108991081061002501999999MD1410001+9999MW1771REMSYN066AAXX  29151 31088 41396 81504 11010 21017 40082 54000 77772 886//;
0140310880999992000042918004+59370+143200FM-12+000699999V0201401N006010021019N0040001N1-00121-00191100741ADDAY171061AY221061GF108991081061002501999999MD1810081+9999MW1771REMSYN066AAXX  29181 31088 41396 81406 11012 21019 40074 58008 77772 886//;
0173310880999992000042921004+59370+143200FM-12+000699999V0201501N007010021019N0040001N1-00131-00131100671ADDAJ100009199999999AY171031AY221031GF108991081061002501999999IA1229MD1710071+9999MW1771REMSYN076AAXX  29211 31088 /1396 81507 11013 21013 40067 57007 77772 886// 333 46998;
0255310880999992000043000004+59370+143200FM-12+000699999V0201501N004010021019N0040001N1-00101-00101100621ADDAA112000791AJ199992999999999AY171061AY221061GF108991081061002501999999IA1229KA1120N-00151MA1999999100551MD1710051+9999MW1771REMSYN100AAXX  30001 31088 11396 81504 11010 21010 30055 40062 57005 69902 77772 886// 333 21015 46998 55067;EQDQ01  09972SNDP  
0166310880999992000043003004+59370+143200FM-12+000699999V0201401N005010027019N0200001N1-00021-00081100601ADDAY171031AY221031GA1051+002709069GF107991071051002501001001MD1710021+9999MW1021REMSYN076AAXX  30031 31088 41398 71405 11002 21008 40060 57002 70272 87500 333 85709;
0140310880999992000043006004+59370+143200FM-12+000699999V0201701N003010075019N0500001N1+00071-00011100531ADDAY171061AY221061GF107991061051008001031011MD1710071+9999MW1021REMSYN066AAXX  30061 31088 41599 71703 10007 21001 40053 57007 70272 86531;
0135310880999992000043009004+59370+143200FM-12+000699999V0201801N002010300019N0500001N1-00011-00041100511ADDGF107991021051008001031061KA1999M+00151MD1610021+9999REMSYN070AAXX  30091 31088 /2599 71802 11001 21004 40051 56002 82536 333 10015;
0173310880999992000043012004+59370+143200FM-12+000699999V0201701N004010300019N0500001N1-00011-00071100561ADDAA100000191GF107991031051008001031061KA1999M+00151MA1999999100491MD1310051+9999REMSYN082AAXX  30121 31088 12599 71704 11001 21007 30049 40056 53005 69920 83536 333 10015;
0112310880999992000043015004+59370+143200FM-12+000699999V0200201N001019999999N0500001N1-00221-00251100501ADDGF105991021001999999041011MD1810061+9999REMSYN060AAXX  30151 31088 42999 50201 11022 21025 40050 58006 82041;
0140310880999992000043018004+59370+143200FM-12+000699999V0209999C000010042019N0040001N1-00131-00131100451ADDAY121061AY221061GF108991081061004501999999MD1710051+9999MW1101REMSYN066AAXX  30181 31088 41496 80000 11013 21013 40045 57005 71022 886//;
0170310880999992000043021004+59370+143200FM-12+000699999V0201901N003010042019N0200001N1-00101-00101100351ADDAA199000091AY121031AY221031GF108991081031004501999999MD1710101+9999MW1021REMSYN066AAXX  30211 31088 31498 81903 11010 21010 40035 57010 70222 883//;EQDQ01  00002PRCP99
0192310880999992000050100004+59370+143200FM-12+000699999V0202601N001010033019N0200001N1+00011-00051100471ADDGA1081+003309069GF108991081061004501999999GJ100069KA1120N-00231MA1999999100401MD1710121+9999REMSYN088AAXX  01001 31088 42498 82601 10001 21005 30040 40047 57012 886// 333 21023 55001 88711;
0112310880999992000050103004+59370+143200FM-12+000699999V0201601N004010042019N0500001N1+00111-00061100351ADDGF105991051061004501001001MD1710121+9999REMSYN060AAXX  01031 31088 42499 51604 10011 21006 40035 57012 85600;
0112310880999992000050106004+59370+143200FM-12+000699999V0203001N008012200019N0500001N1+01141-00821100231ADDGF103991031021008001001001MD1710121+9999REMSYN060AAXX  01061 31088 42599 33008 10114 21082 40023 57012 83200;
0171310880999992000050109004+59370+143200FM-12+000699999V0203001N010012200019N0500001N1+00891-00271100351ADDAA199000091GF102991021021008001001011KA1120M+01161MD1310121+9999REMSYN076AAXX  01091 31088 32599 23010 10089 21027 40035 53012 82201 333 10116 91115;EQDQ01  00002PRCP99
0192310880999992000050112004+59370+143200FM-12+000699999V0203201N008012200019N0500001N1+00551-00651100551ADDAA199000091GF101991011041008001001001KA1120M+01161MA1999999100481MD1310201+9999REMSYN082AAXX  01121 31088 32599 13208 10055 21065 30048 40055 53020 81400 333 10116 91114;EQDQ01  00002PRCP99
0132310880999992000050115004+59370+143200FM-12+000699999V0203401N007012200019N0500001N1+00371-00681100721ADDGA1001+999999999GF100991001001999999001001MD1210171+9999REMSYN064AAXX  01151 31088 42999 03407 10037 21068 40072 52017 333 91112;
0122310880999992000050118004+59370+143200FM-12+000699999V0203401N006012200019N0500001N1+00161-00581100941ADDGF102991011001999999041011MD1210221+9999REMSYN070AAXX  01181 31088 42999 23406 10016 21058 40094 52022 81041 333 91111;
0142310880999992000050121004+59370+143200FM-12+000699999V0200101N002012200019N0500001N1+00261-00521101161ADDAA199000091GF102991001001999999001011MD1210221+9999REMSYN060AAXX  01211 31088 32999 20102 10026 21052 40116 52022 80001;EQDQ01  00002PRCP99
0192310880999992000050200004+59370+143200FM-12+000699999V0200101N001010300019N0500001N1+00811-00141101231ADDAA199000091GF107991031051008001041011KA1120N+00111MA1999999101161MD1110071+9999REMSYN082AAXX  02001 31088 32599 70101 10081 21014 30116 40123 51007 83541 333 20011 55075;EQDQ01  00002PRCP99
0112310880999992000050203004+59370+143200FM-12+000699999V0201701N004010300019N0500001N1+00581+00041101231ADDGF107991021051008001051011MD1410001+9999REMSYN060AAXX  02031 31088 42599 71704 10058 20004 40123 54000 82551;
0112310880999992000050206004+59370+143200FM-12+000699999V0201501N004019999999N0500001N1+00381+00011101131ADDGF105991001001999999001011MD1810101+9999REMSYN060AAXX  02061 31088 42999 51504 10038 20001 40113 58010 80001;
0165310880999992000050209004+59370+143200FM-12+000699999V0201601N005010300019N0500001N1+00201-00081101101ADDAA199000091GF107991031051008001041011KA1999M+00881MD1610031+9999REMSYN070AAXX  02091 31088 32599 71605 10020 21008 40110 56003 83541 333 10088;EQDQ01  00002PRCP99
0186310880999992000050212004+59370+143200FM-12+000699999V0201301N007010300019N0500001N1+00191-00211100891ADDAA199000091GF107991021051008001041011KA1999M+00881MA1999999100821MD1810211+9999REMSYN076AAXX  02121 31088 32599 71307 10019 21021 30082 40089 58021 82541 333 10088;EQDQ01  00002PRCP99
0122310880999992000050215004+59370+143200FM-12+000699999V0201201N009012200019N0500001N1+00091-00111100741ADDGF107991021051008001001011MD1710151+9999REMSYN070AAXX  02151 31088 42599 71209 10009 21011 40074 57015 82501 333 91113;
0122310880999992000050218004+59370+143200FM-12+000699999V0201301N007012200019N0500001N1+00091-00171100601ADDGF107991011051008001001011MD1710141+9999REMSYN070AAXX  02181 31088 42599 71307 10009 21017 40060 57014 81501 333 91112;
0152310880999992000050221004+59370+143200FM-12+000699999V0203201N006010075019N0500001N1+00071-00161100571ADDAA199000091GF107991061061008001001011MD1610031+9999REMSYN070AAXX  02211 31088 32599 73206 10007 21016 40057 56003 86601 333 91111;EQDQ01  00002PRCP99
0192310880999992000050300004+59370+143200FM-12+000699999V0201001N007010042019N0200001N1+00331-00141100411ADDAA199000091GF107991061061004501001021KA1120N+00051MA1999999100341MD1810161+9999REMSYN082AAXX  03001 31088 32498 71007 10033 21014 30034 40041 58016 86602 333 20005 55114;EQDQ01  00002PRCP99
0122310880999992000050303004+59370+143200FM-12+000699999V0201101N009012200019N0500001N1+00421-00031100311ADDGF107991021021008001001011MD1710101+9999REMSYN070AAXX  03031 31088 42599 71109 10042 21003 40031 57010 82201 333 91117;
0122310880999992000050306004+59370+143200FM-12+000699999V0201101N008010042019N0500001N1+00261+00051100231ADDGF107991061031004501061001MD1710081+9999REMSYN070AAXX  03061 31088 42499 71108 10026 20005 40023 57008 86360 333 91115;
0171310880999992000050309004+59370+143200FM-12+000699999V0201201N008010042019N0200001N1+00181+00051100201ADDAA199000091GF107991071061004501001001KA1120M+00481MD1610031+9999REMSYN076AAXX  03091 31088 32498 71208 10018 20005 40020 56003 87600 333 10048 91115;EQDQ01  00002PRCP99
0192310880999992000050312004+59370+143200FM-12+000699999V0201201N010010042019N0200001N1+00121-00081100161ADDAA199000091GF108991051061004501071999KA1120M+00481MA1999999100091MD1710041+9999REMSYN082AAXX  03121 31088 32498 81210 10012 21008 30009 40016 57004 8567/ 333 10048 91113;EQDQ01  00002PRCP99
0144310880999992000050315004+59370+143200FM-12+000699999V0201101N008010039019N0200001N1+00181-00101099991ADDGA1081+003909079GF108991081061004501999999MD1810171+9999REMSYN076AAXX  03151 31088 42498 81108 10018 21010 49999 58017 886// 333 88713 91114;
0150310880999992000050321004+59370+143200FM-12+000699999V0201601N012010042019N0200001N1+00081-00031099581ADDAY181031AY221031GF107991071031004501001001MD1810301+9999MW1251REMSYN076AAXX  03211 31088 /1498 71612 10008 21003 49958 58030 72582 87300 333 91119;
0243310880999992000050400004+59370+143200FM-12+000699999V0202601N006010066019N0200001N1+00121+00041099951ADDAA100000791AY181061AY221061GA1051+006609069GF107991071051002501001001GJ104689KA1120N+00071MA1999999099881MD1310371+9999MW1011REMSYN106AAXX  04001 31088 11398 72606 10012 20004 39988 49995 53037 69900 70182 87500 333 20007 55078 85622 91115;
0112310880999992000050403004+59370+143200FM-12+000699999V0202601N006010075019N0500001N1+00421-00131100131ADDGF106991061021008001001001MD1110181+9999REMSYN060AAXX  04031 31088 42599 62606 10042 21013 40013 51018 86200;
0112310880999992000050406004+59370+143200FM-12+000699999V0203101N007010075019N0500001N1+00731-00711100381ADDGF106991061031008001001001MD1310251+9999REMSYN060AAXX  04061 31088 42599 63107 10073 21071 40038 53025 86300;
0146310880999992000050409004+59370+143200FM-12+000699999V0203201N008012200019N0500001N1+00611-00931100631ADDAA199000021GF101991011051008001001001KA1999M+00861MD1210251+9999REMSYN070AAXX  04091 31088 32599 13208 10061 21093 40063 52025 81500 333 10086;
0186310880999992000050412004+59370+143200FM-12+000699999V0202601N003012200019N0500001N1+00281-00931100921ADDAA199000091GF102991011051008001031001KA1999M+00861MA1999999100851MD1210291+9999REMSYN076AAXX  04121 31088 32599 22603 10028 21093 30085 40092 52029 81530 333 10086;EQDQ01  00002PRCP99
0112310880999992000050415004+59370+143200FM-12+000699999V0202801N002012200019N0500001N1+00121-00591101091ADDGF102991021001999999031001MD1110171+9999REMSYN060AAXX  04151 31088 42999 22802 10012 21059 40109 51017 82030;
0112310880999992000050418004+59370+143200FM-12+000699999V0209999C000012200019N0500001N1+00011-00581101271ADDGF103991021001999999031011MD1310351+9999REMSYN060AAXX  04181 31088 42999 30000 10001 21058 40127 53035 82031;
0142310880999992000050421004+59370+143200FM-12+000699999V0203001N001012200019N0500001N1+00201-00521101311ADDAA199000091GF102991021001999999031001MD1110041+9999REMSYN060AAXX  04211 31088 32999 23001 10020 21052 40131 51004 82030;EQDQ01  00002PRCP99
0192310880999992000050500004+59370+143200FM-12+000699999V0202701N004019999999N0500001N1+00441-00231101351ADDAA199000091GF107991011001999999041011KA1120N-00051MA1999999101281MD1210041+9999REMSYN082AAXX  05001 31088 32999 72704 10044 21023 30128 40135 52004 81041 333 21005 55070;EQDQ01  00002PRCP99
0112310880999992000050503004+59370+143200FM-12+000699999V0202601N006012200019N0500001N1+00451-00191101321ADDGF105991031021008001001011MD1810031+9999REMSYN060AAXX  05031 31088 42599 52606 10045 21019 40132 58003 83201;
0112310880999992000050506004+59370+143200FM-12+000699999V0202501N002012200019N0500001N1+00341-00101101231ADDGF106991031021008001001011MD1710091+9999REMSYN060AAXX  05061 31088 42599 62502 10034 21010 40123 57009 83201;
0165310880999992000050509004+59370+143200FM-12+000699999V0202101N003012200019N0500001N1+00241-00031101151ADDAA199000091GF106991021021008001001011KA1999M+00561MD1710081+9999REMSYN070AAXX  05091 31088 32599 62103 10024 21003 40115 57008 82201 333 10056;EQDQ01  00002PRCP99
0186310880999992000050512004+59370+143200FM-12+000699999V0202001N005019999999N0500001N1+00141-00031101141ADDAA199000091GF107991051001999999031061KA1999M+00561MA1999999101071MD1610011+9999REMSYN076AAXX  05121 31088 32999 72005 10014 21003 30107 40114 56001 85036 333 10056;EQDQ01  00002PRCP99
0112310880999992000050515004+59370+143200FM-12+000699999V0201801N005019999999N0500001N1+00131-00041101101ADDGF108991081051999999999999MD1710041+9999REMSYN060AAXX  05151 31088 42999 81805 10013 21004 40110 57004 885//;
0112310880999992000050518004+59370+143200FM-12+000699999V0201501N007010300019N0500001N1+00121-00111100871ADDGF108991041051008001051999MD1810231+9999REMSYN060AAXX  05181 31088 42599 81507 10012 21011 40087 58023 8455/;
0174310880999992000050521004+59370+143200FM-12+000699999V0201501N007010078019N0500001N1+00161-00061100681ADDAA199000091GA1081+007809069GF108991081051008001999999MD1710191+9999REMSYN076AAXX  05211 31088 32599 81507 10016 21006 40068 57019 885// 333 88626 91113;EQDQ01  00002PRCP99
0215310880999992000050600004+59370+143200FM-12+000699999V0201401N009010075019N0040001N1+00141+00061100611ADDAA199000021AY181061AY221061GF108991081091008001999999GJ108469KA1120N+00081MA1999999100541MD1610071+9999MW1851REMSYN094AAXX  06001 31088 31596 81409 10014 20006 30054 40061 56007 78582 889// 333 20008 55141 91114;
0150310880999992000050603004+59370+143200FM-12+000699999V0201701N008010075019N0040001N1+00091+00061100571ADDAY181031AY221031GF108991081091008001999999MD1710041+9999MW1851REMSYN076AAXX  06031 31088 41596 81708 10009 20006 40057 57004 78582 889// 333 91113;
0150310880999992000050606004+59370+143200FM-12+000699999V0201201N008010075019N0010001N1+00031+00031100561ADDAY181061AY221061GF108991081091008001999999MD1610011+9999MW1861REMSYN076AAXX  06061 31088 41594 81208 10003 20003 40056 56001 78682 889// 333 91114;
0169310880999992000050609004+59370+143200FM-12+000699999V0201101N007010300019N0020001N1+00001-00061100651ADDAY181031AY271031GF108991021071004501021999KA1120M+00211MD1310091+9999MW1731REMSYN082AAXX  06091 31088 /1495 81107 10000 21006 40065 53009 77387 8272/ 333 10021 91113;
0207310880999992000050612004+59370+143200FM-12+000699999V0201001N006010300019N0020001N1-00021-00081100961ADDAA100002091AY181061AY271061GF108991021071004501021999KA1120M+00211MA1999999100891MD1310211+9999MW1731REMSYN094AAXX  06121 31088 11495 81006 11002 21008 30089 40096 53021 60020 77387 8272/ 333 10021 91111;
0150310880999992000050615004+59370+143200FM-12+000699999V0200701N007010042019N0200001N1-00021-00111101111ADDAY171031AY221031GF108991051061004501071999MD1210151+9999MW1021REMSYN076AAXX  06151 31088 41498 80707 11002 21011 40111 52015 70272 8567/ 333 91111;
0140310880999992000050618004+59370+143200FM-12+000699999V0209999C000010300019N0500001N1-00181-00231101141ADDAY171061AY221061GF107991041051008001031011MD1110031+9999MW1021REMSYN066AAXX  06181 31088 41599 70000 11018 21023 40114 51003 70272 84531;
0155310880999992000050621004+59370+143200FM-12+000699999V0209999C000012200019N0500001N1-00101-00121101251ADDAJ100009199999999GA1001+999999999GF100991001001999999001001IA1239MD1310111+9999REMSYN064AAXX  06211 31088 /2999 00000 11010 21012 40125 53011 333 47998;
0227310880999992000050700004+59370+143200FM-12+000699999V0202501N003012200019N0500001N1+00211-00161101221ADDAA100000591AJ199992999999999GF102991021011008001001001IA1239KA1120N-00261MA1999999101151MD1810031+9999REMSYN094AAXX  07001 31088 12599 22503 10021 21016 30115 40122 58003 69960 82100 333 21026 47998 55000;EQDQ01  09972SNDP  
0112310880999992000050703004+59370+143200FM-12+000699999V0202501N004012200019N0500001N1+00391+00051101171ADDGF106991021011008001001011MD1710051+9999REMSYN060AAXX  07031 31088 42599 62504 10039 20005 40117 57005 82101;
0112310880999992000050706004+59370+143200FM-12+000699999V0202601N005012200019N0500001N1+00321-00031101131ADDGF107991031021008001001011MD1710041+9999REMSYN060AAXX  07061 31088 42599 72605 10032 21003 40113 57004 83201;
0165310880999992000050709004+59370+143200FM-12+000699999V0202301N003010075019N0500001N1+00151-00071101141ADDAA199000091GF108991081061008001999999KA1999M+00451MD1310011+9999REMSYN070AAXX  07091 31088 32599 82303 10015 21007 40114 53001 886// 333 10045;EQDQ01  00002PRCP99
0208310880999992000050712004+59370+143200FM-12+000699999V0201901N003010075019N0500001N1+00091+00011101231ADDAA199000091GA1081+007509059GF108991081051008001999999KA1120M+00451MA1999999101161MD1210091+9999REMSYN082AAXX  07121 31088 32599 81903 10009 20001 30116 40123 52009 885// 333 10045 88625;EQDQ01  00002PRCP99
0166310880999992000050715004+59370+143200FM-12+000699999V0202001N003010063019N0200001N1+00021-00041101321ADDAY171031AY221031GA1081+006309059GF108991081051008001999999MD1210091+9999MW1221REMSYN076AAXX  07151 31088 41598 82003 10002 21004 40132 52009 72272 885// 333 88621;
0166310880999992000050718004+59370+143200FM-12+000699999V0201501N006010030019N0200001N1+00061+00031101351ADDAY171061AY221061GA1061+003009069GF108991081061004501999999MD1110031+9999MW1021REMSYN076AAXX  07181 31088 41498 81506 10006 20003 40135 51003 70272 886// 333 86710;
0140310880999992000050721004+59370+143200FM-12+000699999V0201301N007010075019N0040001N1+00071-00041101391ADDAY171031AY221031GF108991081051008001999999MD1210041+9999MW1731REMSYN066AAXX  07211 31088 /1596 81307 10007 21004 40139 52004 77372 885//;
0237310880999992000050800004+59370+143200FM-12+000699999V0201301N006010063019N0200001N1+00091-00171101311ADDAA100000191AY171061AY221061GA1061+006309059GF108991081051004501999999GJ106189KA1120N+00011MA1999999101241MD1810081+9999MW1021REMSYN100AAXX  08001 31088 11498 81306 10009 21017 30124 40131 58008 69910 70272 885// 333 20001 55103 86621;
0144310880999992000050803004+59370+143200FM-12+000699999V0201301N007010066019N0200001N1+00121-00201101161ADDGA1061+006609069GF108991081051004501999999MD1810151+9999REMSYN076AAXX  08031 31088 42498 81307 10012 21020 40116 58015 885// 333 86622 91114;
0144310880999992000050806004+59370+143200FM-12+000699999V0201301N008010066019N0200001N1+00131-00161101011ADDGA1061+006609069GF108991081051004501999999MD1710151+9999REMSYN076AAXX  08061 31088 42498 81308 10013 21016 40101 57015 885// 333 86622 91114;
0163310880999992000050809004+59370+143200FM-12+000699999V0201301N008010042019N0040001N1+00041+00011100971ADDAY151031AY221031GF108991081061004501999999KA1999M+00141MD1610041+9999MW1511REMSYN076AAXX  08091 31088 /1496 81308 10004 20001 40097 56004 75152 886// 333 10014;
0207310880999992000050812004+59370+143200FM-12+000699999V0201301N009010042019N0040001N1+00011-00021100961ADDAA100000791AY171061AY251061GF108991081061004501999999KA1120M+00141MA1999999100891MD1710011+9999MW1711REMSYN094AAXX  08121 31088 11496 81309 10001 21002 30089 40096 57001 69900 77175 886// 333 10014 91114;
0150310880999992000050815004+59370+143200FM-12+000699999V0201201N007010042019N0040001N1+00011-00051100871ADDAY171031AY221031GF108991081061004501999999MD1710091+9999MW1711REMSYN076AAXX  08151 31088 41496 81207 10001 21005 40087 57009 77172 886// 333 91113;
0150310880999992000050818004+59370+143200FM-12+000699999V0201201N005010042019N0020001N1-00011-00011100681ADDAY171061AY221061GF108991081061004501999999MD1810191+9999MW1731REMSYN076AAXX  08181 31088 41495 81205 11001 21001 40068 58019 77372 886// 333 91112;
0179310880999992000050821004+59370+143200FM-12+000699999V0201101N005010042019N0010001N1-00031-00031100651ADDAJ100019199999999AY171031AY221031GF108991081061004501999999IA1239MD1610031+9999MW1751REMSYN082AAXX  08211 31088 /1494 81105 11003 21003 40065 56003 77572 886// 333 47001 91111;
0207310880999992000050900004+59370+143200FM-12+000699999V0200901N006010021019N0010001N1-00021-00021100541ADDAA100008991AY181061AY271061GF108991081061002501999999KA1120N-00061MA1999999100471MD1710111+9999MW1881REMSYN094AAXX  09001 31088 11394 80906 11002 21002 30047 40054 57011 60090 78887 886// 333 21006 55000;
0140310880999992000050903004+59370+143200FM-12+000699999V0203601N002010042019N0020001N1+00041+00011100571ADDAY171031AY281031GF108991081061004501999999MD1310031+9999MW1731REMSYN066AAXX  09031 31088 41495 83602 10004 20001 40057 53003 77378 886//;
0140310880999992000050906004+59370+143200FM-12+000699999V0202301N002012200019N0500001N1+00261+00051100741ADDAY181061AY271061GF103991031031008001001001MD1310171+9999MW1011REMSYN066AAXX  09061 31088 41599 32302 10026 20005 40074 53017 70187 83300;
0135310880999992000050909004+59370+143200FM-12+000699999V0201701N003012200019N0500001N1+00131-00041100991ADDGF103991021051008001051001KA1999M+00301MD1210251+9999REMSYN070AAXX  09091 31088 /2599 31703 10013 21004 40099 52025 82550 333 10030;
0173310880999992000050912004+59370+143200FM-12+000699999V0201501N003010042019N0200001N1+00221-00051101171ADDAA100007991GF108991081061004501999999KA1999M+00301MA1999999101101MD1710181+9999REMSYN082AAXX  09121 31088 12498 81503 10022 21005 30110 40117 57018 60080 886// 333 10030;
0131310880999992000050915004+59370+143200FM-12+000699999V0200101N003012200019N0200001N1+00861-00061101581ADDGF101991999061004501999999MD1210201+9999REMSYN060AAXX  09151 31088 42498 10103 10086 21006 40158 52020 886//;EQDQ01+000082SCOTLC
0138310880999992000050918004+59370+143200FM-12+000699999V0201401N002010030019N0200001N1-00041-00071101681ADDGA1081+003009069GF108991081061004501999999MD1710271+9999REMSYN070AAXX  09181 31088 42498 81402 11004 21007 40168 57027 886// 333 88710;
0213310880999992000050921004+59370+143200FM-12+000699999V0209999C000010003019N0005001N1-00061-00061101911ADDAA199000091AJ100009199999999AY141031AY221031GA1091+999999999GF109991091999999999999999IA1239MD1210231+9999MW1471REMSYN070AAXX  09211 31088 32/93 90000 11006 21006 40191 52023 74742 333 47998;EQDQ01  00002PRCP99
0295310880999992000051000004+59370+143200FM-12+000699999V0209999C000010033019N0040001N1-00021-00051102071ADDAA199000091AJ199992999999999AY141061AY221061GA1081+003309069GF108991081061004501999999GJ103189IA1239KA1120N-00221MA1999999102001MD1210171+9999MW1101REMSYN100AAXX  10001 31088 31496 80000 11002 21005 30200 40207 52017 71042 886// 333 21022 47998 55053 88711;EQDQ01  00002PRCP99Q02  09972SNDP  
0112310880999992000051003004+59370+143200FM-12+000699999V0201701N007010042019N0500001N1+00041-00021102121ADDGF106991051061004501051001MD1110021+9999REMSYN060AAXX  10031 31088 42499 61707 10004 21002 40212 51002 85650;
0140310880999992000051006004+59370+143200FM-12+000699999V0201701N007012200019N0005001N1-00041-00041102171ADDAY141061AY211061GF103991001001999999001011MD1210051+9999MW1461REMSYN066AAXX  10061 31088 41993 31707 11004 21004 40217 52005 74641 80001;
0215310880999992000051009004+59370+143200FM-12+000699999V0201701N005010072019N0500001N1+00101+00051102231ADDAA199000091AY141031AY211031GA1061+007209059GF107991061051008001051001KA1120M+00161MD1210061+9999MW1031REMSYN082AAXX  10091 31088 31599 71705 10010 20005 40223 52006 70341 86550 333 10016 86624;EQDQ01  00002PRCP99
0214310880999992000051012004+59370+143200FM-12+000699999V0209999C000010075019N0500001N1+00041+00011102351ADDAA199000091AY141061AY211061GF107991051051008001051001KA1999M+00161MA1999999102281MD1210121+9999MW1021REMSYN082AAXX  10121 31088 31599 70000 10004 20001 30228 40235 52012 70241 85550 333 10016;EQDQ01  00002PRCP99
0112310880999992000051015004+59370+143200FM-12+000699999V0203601N001010075019N0500001N1-00071-00071102441ADDGF107991071051008001001001MD1210091+9999REMSYN060AAXX  10151 31088 42599 73601 11007 21007 40244 52009 87500;
0112310880999992000051018004+59370+143200FM-12+000699999V0203401N002012200019N0500001N1-00161-00161102481ADDGF105991021051008001001011MD1210041+9999REMSYN060AAXX  10181 31088 42599 53402 11016 21016 40248 52004 82501;
0175310880999992000051021004+59370+143200FM-12+000699999V0200201N001010300019N0500001N1-00061-00121102541ADDAA199000091AJ100009199999999GF106991021051008001031011IA1259MD1210061+9999REMSYN070AAXX  10211 31088 32599 60201 11006 21012 40254 52006 82531 333 41998;EQDQ01  00002PRCP99
0237310880999992000051100004+59370+143200FM-12+000699999V0200101N001010300019N0500001N1+00321+00061102641ADDAA199000091AJ199992999999999GF107991021051008001051011IA1259KA1120N-00171MA1999999102571MD1210101+9999REMSYN088AAXX  11001 31088 32599 70101 10032 20006 30257 40264 52010 82551 333 21017 41998 55046;EQDQ01  00002PRCP99Q02  09972SNDP  
0138310880999992000051103004+59370+143200FM-12+000699999V0202101N003010075019N0500001N1+00241+00081102661ADDGA1061+007509059GF108991061051008001051999MD1110021+9999REMSYN070AAXX  11031 31088 42599 82103 10024 20008 40266 51002 8655/ 333 86625;
0138310880999992000051106004+59370+143200FM-12+000699999V0202301N00301007501CN0500001N1+00251+00121102661ADDGA1041+007809059GF107991061031008001051001MD1410001+9999REMSYN070AAXX  11061 31088 42599 72303 10025 20012 40266 54000 86350 333 84626;
0187310880999992000051109004+59370+143200FM-12+000699999V0202101N002010081019N0500001N1+00221+00091102571ADDAA199000091GA1061+008109059GF107991061051008001051001KA1120M+00501MD1810021+9999REMSYN076AAXX  11091 31088 32599 72102 10022 20009 40257 58002 86550 333 10050 86627;EQDQ01  00002PRCP99
0224310880999992000051112004+59370+143200FM-12+000699999V0202201N002012200019N0500001N1+00181+00101102721ADDAA199000091GA1071+007509059GF199999071051008001001001KA1120M+00501MA1999999102651MD1310081+9999REMSYN082AAXX  11121 31088 32599 22202 10018 20010 30265 40272 53008 87500 333 10050 87625;EQDQ01+000022SCOTCVQ02  00002PRCP99
0138310880999992000051118004+59370+143200FM-12+000699999V0202101N001010072019N0500001N1+00101+00051102801ADDGA1071+007209059GF107991071051008001001001MD1210071+9999REMSYN070AAXX  11181 31088 42599 72101 10010 20005 40280 52007 87500 333 87624;
0168310880999992000051121004+59370+143200FM-12+000699999V0209999C000010072019N0500001N1+00121+00041102851ADDAA199000091GA1061+007209059GF107991061051008001051001MD1210051+9999REMSYN070AAXX  11211 31088 32599 70000 10012 20004 40285 52005 86550 333 86624;EQDQ01  00002PRCP99
0192310880999992000051200004+59370+143200FM-12+000699999V0202201N001010300019N0500001N1+00311+00071102841ADDAA199000091GF106991031051008001051001KA1120N+00091MA1999999102771MD1810011+9999REMSYN082AAXX  12001 31088 32599 62201 10031 20007 30277 40284 58001 83550 333 20009 55013;EQDQ01  00002PRCP99
0112310880999992000051203004+59370+143200FM-12+000699999V0202101N003010750019N0500001N1+00421+00141102801ADDGF107991011011008001001061MD1710041+9999REMSYN060AAXX  12031 31088 42599 72103 10042 20014 40280 57004 81106;
0112310880999992000051206004+59370+143200FM-12+000699999V0202201N003019999999N0500001N1+00361+00071102771ADDGF106991021001999999031011MD1710031+9999REMSYN060AAXX  12061 31088 42999 62203 10036 20007 40277 57003 82031;
0165310880999992000051209004+59370+143200FM-12+000699999V0202101N001019999999N0500001N1+00271+00061102721ADDAA199000091GF107991031001999999031011KA1999M+00521MD1710051+9999REMSYN070AAXX  12091 31088 32999 72101 10027 20006 40272 57005 83031 333 10052;EQDQ01  00002PRCP99
0186310880999992000051212004+59370+143200FM-12+000699999V0202001N002019999999N0500001N1+00221+00031102751ADDAA199000091GF107991051001999999051011KA1999M+00521MA1999999102681MD1310031+9999REMSYN076AAXX  12121 31088 32999 72002 10022 20003 30268 40275 53003 85051 333 10052;EQDQ01  00002PRCP99
0112310880999992000051215004+59370+143200FM-12+000699999V0201901N002019999999N0500001N1+00221+00001102691ADDGF106991031001999999041011MD1810061+9999REMSYN060AAXX  12151 31088 42999 61902 10022 20000 40269 58006 83041;
0112310880999992000051218004+59370+143200FM-12+000699999V0202201N001019999999N0500001N1+00101+00051102591ADDGF107991031001999999041061MD1710101+9999REMSYN060AAXX  12181 31088 42999 72201 10010 20005 40259 57010 83046;
0142310880999992000051221004+59370+143200FM-12+000699999V0209999C000019999999N0500001N1+00201+00071102561ADDAA199000091GF107991041001999999051011MD1610031+9999REMSYN060AAXX  12211 31088 32999 70000 10020 20007 40256 56003 84051;EQDQ01  00002PRCP99
0192310880999992000051300004+59370+143200FM-12+000699999V0202201N001019999999N0500001N1+00411+00181102451ADDAA199000091GF107991071001999999051001KA1120N+00071MA1999999102381MD1810111+9999REMSYN082AAXX  13001 31088 32999 72201 10041 20018 30238 40245 58011 87050 333 20007 55107;EQDQ01  00002PRCP99
0112310880999992000051303004+59370+143200FM-12+000699999V0202001N002019999999N0500001N1+00431+00061102351ADDGF107991051001999999051061MD1710101+9999REMSYN060AAXX  13031 31088 42999 72002 10043 20006 40235 57010 85056;
0112310880999992000051306004+59370+143200FM-12+000699999V0202201N003010300019N0500001N1+00441+00131102161ADDGF107991021051008001051061MD1710191+9999REMSYN060AAXX  13061 31088 42599 72203 10044 20013 40216 57019 82556;
0165310880999992000051309004+59370+143200FM-12+000699999V0202401N003010042019N0500001N1+00211+00051102111ADDAA199000091GF107991061061004501031001KA1999M+00541MD1610051+9999REMSYN070AAXX  13091 31088 32499 72403 10021 20005 40211 56005 86630 333 10054;EQDQ01  00002PRCP99
0208310880999992000051312004+59370+143200FM-12+000699999V0202101N003010030019N0200001N1+00151+00011102001ADDAA199000091GA1071+003009069GF107991071061004501001001KA1120M+00541MA1999999101931MD1710111+9999REMSYN082AAXX  13121 31088 32498 72103 10015 20001 30193 40200 57011 87600 333 10054 87710;EQDQ01  00002PRCP99
0138310880999992000051315004+59370+143200FM-12+000699999V0202301N002010024019N0200001N1+00091+00011101961ADDGA1081+002409069GF108991081061002501999999MD1610051+9999REMSYN070AAXX  13151 31088 42398 82302 10009 20001 40196 56005 886// 333 88708;
0166310880999992000051318004+59370+143200FM-12+000699999V0209999C000010021019N0040001N1+00061+00031101901ADDAY121061AY221061GA1081+002109069GF108991081061002501999999MD1710051+9999MW1101REMSYN076AAXX  13181 31088 41396 80000 10006 20003 40190 57005 71022 886// 333 88707;
0196310880999992000051321004+59370+143200FM-12+000699999V0209999C000010021019N0020001N1-00011-00041101851ADDAA199000091AY121031AY221031GA1081+002109069GF108991081061002501999999MD1710051+9999MW1101REMSYN076AAXX  13211 31088 31395 80000 11001 21004 40185 57005 71022 886// 333 88707;EQDQ01  00002PRCP99
0220310880999992000051400004+59370+143200FM-12+000699999V0209999C000010021019N0040001N1+00061-00021101841ADDAA199000091AY121061AY221061GF108991081061002501999999KA1120N-00031MA1999999101771MD1710011+9999MW1101REMSYN088AAXX  14001 31088 31396 80000 10006 21002 30177 40184 57001 71022 886// 333 21003 55062;EQDQ01  00002PRCP99
0138310880999992000051403004+59370+143200FM-12+000699999V0201701N004010030019N0200001N1+00181+00021101741ADDGA1061+003009069GF106991061061004501001001MD1710031+9999REMSYN070AAXX  14031 31088 42498 61704 10018 20002 40174 57003 86600 333 86710;
0138310880999992000051406004+59370+143200FM-12+000699999V0201601N005010030019N0200001N1+00221+00061101781ADDGA1081+003009069GF108991081061004501999999MD1710031+9999REMSYN070AAXX  14061 31088 42498 81605 10022 20006 40178 57003 886// 333 88710;
0187310880999992000051409004+59370+143200FM-12+000699999V0201601N004010030019N0200001N1+00181+00071101781ADDAA199000091GA1081+003009069GF108991081061004501999999KA1120M+00221MD1410001+9999REMSYN076AAXX  14091 31088 32498 81604 10018 20007 40178 54000 886// 333 10022 88710;EQDQ01  00002PRCP99
0208310880999992000051412004+59370+143200FM-12+000699999V0201201N003010030019N0200001N1+00151+00011101781ADDAA199000091GA1081+003009069GF108991081061004501999999KA1120M+00221MA1999999101711MD1410001+9999REMSYN082AAXX  14121 31088 32498 81203 10015 20001 30171 40178 54000 886// 333 10022 88710;EQDQ01  00002PRCP99
0138310880999992000051415004+59370+143200FM-12+000699999V0200901N001010030019N0200001N1+00131+00021101761ADDGA1081+003009069GF108991081061004501999999MD1810021+9999REMSYN070AAXX  14151 31088 42498 80901 10013 20002 40176 58002 886// 333 88710;
0138310880999992000051418004+59370+143200FM-12+000699999V0201301N002010030019N0200001N1+00121+00071101671ADDGA1081+003009069GF108991081061004501999999MD1710091+9999REMSYN070AAXX  14181 31088 42498 81302 10012 20007 40167 57009 886// 333 88710;
0140310880999992000051421004+59370+143200FM-12+000699999V0203101N001010042019N0100001N1+00121+00071101641ADDAY151031AY221031GF108991081061004501999999MD1710031+9999MW1511REMSYN066AAXX  14211 31088 /1497 83101 10012 20007 40164 57003 75152 886//;
0237310880999992000051500004+59370+143200FM-12+000699999V0209999C000010030019N0200001N1+00221+00121101551ADDAA100000791AY151061AY221061GA1061+003009069GF108991081061004501999999GJ100189KA1120N+00111MA1999999101481MD1810091+9999MW1241REMSYN100AAXX  15001 31088 11498 80000 10022 20012 30148 40155 58009 69900 72452 886// 333 20011 55003 86710;
0138310880999992000051503004+59370+143200FM-12+000699999V0201801N002010033019N0200001N1+00281+00071101451ADDGA1061+003309069GF108991061061004501051999MD1710101+9999REMSYN070AAXX  15031 31088 42498 81802 10028 20007 40145 57010 8665/ 333 86711;
0112310880999992000051506004+59370+143200FM-12+000699999V0201701N003010042019N0500001N1+00281+00071101321ADDGF107991051051004501051001MD1710131+9999REMSYN060AAXX  15061 31088 42499 71703 10028 20007 40132 57013 85550;
0135310880999992000051509004+59370+143200FM-12+000699999V0201701N003010042019N0200001N1+00221+00061101251ADDGF107991061051004501051001KA1999M+00361MD1710071+9999REMSYN070AAXX  15091 31088 /2498 71703 10022 20006 40125 57007 86550 333 10036;
0195310880999992000051512004+59370+143200FM-12+000699999V0201501N002010030019N0200001N1+00181+00071101261ADDAA100000791GA1081+003009069GF108991081061004501999999KA1120M+00361MA1999999101191MD1310011+9999REMSYN088AAXX  15121 31088 12498 81502 10018 20007 30119 40126 53001 69900 886// 333 10036 88710;
0138310880999992000051515004+59370+143200FM-12+000699999V0201501N004010030019N0200001N1+00151+00011101191ADDGA1081+003009069GF108991081061004501999999MD1810071+9999REMSYN070AAXX  15151 31088 42498 81504 10015 20001 40119 58007 886// 333 88710;
0138310880999992000051518004+59370+143200FM-12+000699999V0201401N003010030019N0200001N1+00141+00031101051ADDGA1081+003009069GF108991081061004501999999MD1810141+9999REMSYN070AAXX  15181 31088 42498 81403 10014 20003 40105 58014 886// 333 88710;
0168310880999992000051521004+59370+143200FM-12+000699999V0209999C000010030019N0200001N1+00161+00051101021ADDAA199000091GA1081+003009069GF108991081061004501999999MD1610031+9999REMSYN070AAXX  15211 31088 32498 80000 10016 20005 40102 56003 886// 333 88710;EQDQ01  00002PRCP99
0206310880999992000051600004+59370+143200FM-12+000699999V0203101N002010042019N0200001N1+00251+00151100961ADDAA199000091GF108991081061004501999999GJ100969KA1120N+00141MA1999999100891MD1710061+9999REMSYN088AAXX  16001 31088 32498 83102 10025 20015 30089 40096 57006 886// 333 20014 55016 887//;EQDQ01  00002PRCP99
0112310880999992000051603004+59370+143200FM-12+000699999V0202901N003010042019N0200001N1+00241+00241100811ADDGF108991081061004501999999MD1010151+9999REMSYN060AAXX  16031 31088 42498 82903 10024 20024 40081 50015 886//;
0140310880999992000051606004+59370+143200FM-12+000699999V0202001N003010042019N0100001N1+00241+00191100921ADDAY161061AY221061GF108991081061004501999999MD1210111+9999MW1611REMSYN066AAXX  16061 31088 41497 82003 10024 20019 40092 52011 76162 886//;
0163310880999992000051609004+59370+143200FM-12+000699999V0202001N002010042019N0100001N1+00281+00201100851ADDAY161031AY221031GF108991081061004501999999KA1999M+00341MD1810041+9999MW1611REMSYN076AAXX  16091 31088 /1497 82002 10028 20020 40085 58004 76162 886// 333 10034;
0201310880999992000051612004+59370+143200FM-12+000699999V0209999C000010042019N0040001N1+00221+00171100841ADDAA100000591AY161061AY221061GF108991081061004501999999KA1999M+00341MA1999999100771MD1710011+9999MW1611REMSYN088AAXX  16121 31088 11496 80000 10022 20017 30077 40084 57001 69960 76162 886// 333 10034;
0140310880999992000051615004+59370+143200FM-12+000699999V0201801N002010021019N0040001N1+00111+00111100861ADDAY161031AY221031GF108991081061002501999999MD1310021+9999MW1631REMSYN066AAXX  16151 31088 41396 81802 10011 20011 40086 53002 76362 886//;
0166310880999992000051618004+59370+143200FM-12+000699999V0201301N001010027019N0200001N1+00131+00131100861ADDAY161061AY221061GA1051+002709069GF108991081061002501999999MD1410001+9999MW1021REMSYN076AAXX  16181 31088 41398 81301 10013 20013 40086 54000 70262 886// 333 85709;
0138310880999992000051621004+59370+143200FM-12+000699999V0201301N002010030019N0200001N1+00161+00081100961ADDGA1051+003009069GF108991081061004501999999MD1310101+9999REMSYN070AAXX  16211 31088 /2498 81302 10016 20008 40096 53010 886// 333 85710;
0203310880999992000051700004+59370+143200FM-12+000699999V0209999C000010030019N0200001N1+00281+00121101051ADDAA199000021GA1081+003009069GF108991081061004501999999GJ100009KA1120N+00091MA1999999100981MD1210091+9999REMSYN088AAXX  17001 31088 32498 80000 10028 20012 30098 40105 52009 886// 333 20009 55000 88710;
0112310880999992000051703004+59370+143200FM-12+000699999V0202201N003010300019N0500001N1+00301+00031101151ADDGF107991031011008001031011MD1210101+9999REMSYN060AAXX  17031 31088 42599 72203 10030 20003 40115 52010 83131;
0112310880999992000051706004+59370+143200FM-12+000699999V0202201N003010300019N0500001N1+00321+00001101271ADDGF107991021031008001031011MD1210121+9999REMSYN060AAXX  17061 31088 42599 72203 10032 20000 40127 52012 82331;
0165310880999992000051709004+59370+143200FM-12+000699999V0201901N003010300019N0500001N1+00311+00051101371ADDAA199000091GF107991031031008001051011KA1999M+00441MD1210101+9999REMSYN070AAXX  17091 31088 32599 71903 10031 20005 40137 52010 83351 333 10044;EQDQ01  00002PRCP99
0234310880999992000051712004+59370+143200FM-12+000699999V0201501N003010036019N0500001N1+00221+00191101521ADDAA199000091GA1081+003609079GF199999081061004501999999KA1120M+00441MA1999999101451MD1210151+9999REMSYN092AAXX  17121 31088 32499 71503 10022 20019 30145 40152 52015 886// 333 10044 88712 555 10004;EQDQ01+000072SCOTCVQ02  00002PRCP99
0140310880999992000051715004+59370+143200FM-12+000699999V0201201N001010042019N0020001N1+00101+00051101561ADDAY181031AY221031GF108991081061004501999999MD1110041+9999MW1861REMSYN066AAXX  17151 31088 41495 81201 10010 20005 40156 51004 78682 886//;
0140310880999992000051718004+59370+143200FM-12+000699999V0201201N003010042019N0040001N1+00121+00071101561ADDAY181061AY221061GF108991081061004501999999MD1410001+9999MW1851REMSYN066AAXX  17181 31088 41496 81203 10012 20007 40156 54000 78582 886//;
0140310880999992000051721004+59370+143200FM-12+000699999V0201401N004010042019N0040001N1+00141+00111101621ADDAY181031AY251031GF108991081061004501999999MD1310061+9999MW1511REMSYN066AAXX  17211 31088 /1496 81404 10014 20011 40162 53006 75185 886//;
0207310880999992000051800004+59370+143200FM-12+000699999V0201501N005010021019N0020001N1+00171+00141101661ADDAA100003091AY181061AY251061GF108991081061002501999999KA1120N+00051MA1999999101591MD1210041+9999MW1531REMSYN094AAXX  18001 31088 11395 81505 10017 20014 30159 40166 52004 60030 75385 886// 333 20005 55064;
0140310880999992000051803004+59370+143200FM-12+000699999V0201201N005010021019N0040001N1+00201+00121101641ADDAY151031AY221031GF108991081061002501999999MD1810021+9999MW1531REMSYN066AAXX  18031 31088 41396 81205 10020 20012 40164 58002 75352 886//;
0140310880999992000051806004+59370+143200FM-12+000699999V0201301N004010021019N0020001N1+00181+00101101651ADDAY181061AY271061GF108991061071002501021999MD1310011+9999MW1731REMSYN066AAXX  18061 31088 41395 81304 10018 20010 40165 53001 77387 8672/;
0163310880999992000051809004+59370+143200FM-12+000699999V0209999C000010300019N0020001N1+00121+00071101631ADDAY181031AY271031GF108991041061002501021999KA1999M+00271MD1810021+9999MW1731REMSYN076AAXX  18091 31088 /1395 80000 10012 20007 40163 58002 77387 8462/ 333 10027;
0201310880999992000051812004+59370+143200FM-12+000699999V0201301N005010021019N0020001N1+00141+00031101551ADDAA100006191AY181061AY271061GF108991061061002501021999KA1999M+00271MA1999999101481MD1710081+9999MW1731REMSYN088AAXX  18121 31088 11395 81305 10014 20003 30148 40155 57008 60060 77387 8662/ 333 10027;
0140310880999992000051815004+59370+143200FM-12+000699999V0201401N008010021019N0020001N1+00071+00041101361ADDAY181031AY271031GF108991081061002501999999MD1810191+9999MW1851REMSYN066AAXX  18151 31088 41395 81408 10007 20004 40136 58019 78587 886//;
0140310880999992000051818004+59370+143200FM-12+000699999V0201501N007010021019N0020001N1+00081+00031101201ADDAY181061AY271061GF108991081061002501999999MD1710161+9999MW1851REMSYN066AAXX  18181 31088 41395 81507 10008 20003 40120 57016 78587 886//;
0140310880999992000051821004+59370+143200FM-12+000699999V0201601N006010021019N0020001N1+00081+00051101191ADDAY181031AY221031GF108991081061002501999999MD1610011+9999MW1851REMSYN066AAXX  18211 31088 /1395 81606 10008 20005 40119 56001 78582 886//;
0207310880999992000051900004+59370+143200FM-12+000699999V0201601N005010021019N0020001N1+00121+00091101221ADDAA100010991AY181061AY221061GF108991081061002501999999KA1120N+00031MA1999999101151MD1310021+9999MW1861REMSYN094AAXX  19001 31088 11395 81605 10012 20009 30115 40122 53002 60110 78682 886// 333 20003 55000;
0140310880999992000051903004+59370+143200FM-12+000699999V0202101N004010021019N0040001N1+00241+00141101331ADDAY181031AY271031GF108991081061002501999999MD1210111+9999MW1711REMSYN066AAXX  19031 31088 41396 82104 10024 20014 40133 52011 77187 886//;
0140310880999992000051906004+59370+143200FM-12+000699999V0201801N003010021019N0100001N1+00131+00051101401ADDAY181061AY271061GF108991081061002501999999MD1210071+9999MW1611REMSYN066AAXX  19061 31088 41397 81803 10013 20005 40140 52007 76187 886//;
0185310880999992000051909004+59370+143200FM-12+000699999V0201601N004010039019N0200001N1+00181+00051101481ADDAY181031AY261031GA1081+003909069GF108991081061004501999999KA1120M+00301MD1210081+9999MW1021REMSYN082AAXX  19091 31088 /1498 81604 10018 20005 40148 52008 70286 886// 333 10030 88713;
0223310880999992000051912004+59370+143200FM-12+000699999V0201801N004010021019N0040001N1+00091+00041101621ADDAA100003091AY181061AY261061GA1081+002109069GF108991081061002501999999KA1120M+00301MA1999999101551MD1310141+9999MW1101REMSYN094AAXX  19121 31088 11396 81804 10009 20004 30155 40162 53014 60030 71086 886// 333 10030 88707;
0166310880999992000051915004+59370+143200FM-12+000699999V0201301N003010018019N0040001N1+00031+00001101671ADDAY121031AY221031GA1081+001809069GF108991081061002501999999MD1110051+9999MW1101REMSYN076AAXX  19151 31088 41396 81303 10003 20000 40167 51005 71022 886// 333 88706;
0138310880999992000051918004+59370+143200FM-12+000699999V0209999C00001002101CN0200001N1+00001-00121101701ADDGA1041+003009069GF107991071051002501001001MD1210031+9999REMSYN070AAXX  19181 31088 42398 70000 10000 21012 40170 52003 87500 333 84710;
0184310880999992000051921004+59370+143200FM-12+000699999V0201001N002010027019N0200001N1+00051-00181101721ADDAA199000091GA1051+002709069GF107991999051002501999999MD1210021+9999REMSYN070AAXX  19211 31088 32398 71002 10005 21018 40172 52002 885// 333 85709;EQDQ01+000082SCOTLCQ02  00002PRCP99
0192310880999992000052000004+59370+143200FM-12+000699999V0201701N001010042019N0200001N1+00151+00121101771ADDAA199000091GF107991071061004501001001KA1120N-00041MA1999999101701MD1210051+9999REMSYN082AAXX  20001 31088 32498 71701 10015 20012 30170 40177 52005 87600 333 21004 55013;EQDQ01  00002PRCP99
0112310880999992000052003004+59370+143200FM-12+000699999V0201801N003010042019N0500001N1+00201-00111101741ADDGF107991061061004501051001MD1610031+9999REMSYN060AAXX  20031 31088 42499 71803 10020 21011 40174 56003 86650;
0112310880999992000052006004+59370+143200FM-12+000699999V0202001N002010042019N0500001N1+00161-00121101711ADDGF108991051061004501041999MD1710031+9999REMSYN060AAXX  20061 31088 42499 82002 10016 21012 40171 57003 8564/;
0165310880999992000052009004+59370+143200FM-12+000699999V0202001N003010042019N0500001N1+00131-00091101751ADDAA199000091GF107991051051004501041011KA1999M+00271MD1310041+9999REMSYN070AAXX  20091 31088 32499 72003 10013 21009 40175 53004 85541 333 10027;EQDQ01  00002PRCP99
0208310880999992000052012004+59370+143200FM-12+000699999V0202001N002010036019N0200001N1+00061-00081101731ADDAA199000091GA1061+003609069GF108991081061004501999999KA1120M+00271MA1999999101661MD1810021+9999REMSYN082AAXX  20121 31088 32498 82002 10006 21008 30166 40173 58002 886// 333 10027 86712;EQDQ01  00002PRCP99
0138310880999992000052015004+59370+143200FM-12+000699999V0201801N002010036019N0200001N1+00021-00041101761ADDGA1071+003609069GF108991081061004501999999MD1310031+9999REMSYN070AAXX  20151 31088 42498 81802 10002 21004 40176 53003 886// 333 87712;
0166310880999992000052018004+59370+143200FM-12+000699999V0201801N001010030019N0020001N1-00021-00021101771ADDAY121061AY221061GA1081+003009069GF108991081061004501999999MD1210011+9999MW1101REMSYN076AAXX  20181 31088 41495 81801 11002 21002 40177 52001 71022 886// 333 88710;
0196310880999992000052021004+59370+143200FM-12+000699999V0209999C000010030019N0020001N1-00021-00021101871ADDAA199000091AY121031AY221031GA1081+003009069GF108991081061004501999999MD1310101+9999MW1101REMSYN076AAXX  20211 31088 31495 80000 11002 21002 40187 53010 71022 886// 333 88710;EQDQ01  00002PRCP99
0250310880999992000052100004+59370+143200FM-12+000699999V0201801N002010030019N0020001N1+00081-00031101841ADDAA199000091AY121061AY221061GA1081+003009069GF108991081061004501999999GJ101629KA1120N-00041MA1999999101771MD1810031+9999MW1101REMSYN094AAXX  21001 31088 31495 81802 10008 21003 30177 40184 58003 71022 886// 333 21004 55027 88710;EQDQ01  00002PRCP99
0138310880999992000052103004+59370+143200FM-12+000699999V0202301N003010030019N0200001N1+00151-00071101871ADDGA1081+003009069GF108991081061004501999999MD1310031+9999REMSYN070AAXX  21031 31088 42498 82303 10015 21007 40187 53003 886// 333 88710;
0138310880999992000052106004+59370+143200FM-12+000699999V0202201N003010033019N0200001N1+00221-00031101851ADDGA1051+003309069GF108991081061004501999999MD1810021+9999REMSYN070AAXX  21061 31088 42498 82203 10022 21003 40185 58002 886// 333 85711;
0187310880999992000052109004+59370+143200FM-12+000699999V0202301N003010060019N0200001N1+00171+00031101861ADDAA199000091GA1051+006009059GF108991081051004501999999KA1120M+00271MD1310011+9999REMSYN076AAXX  21091 31088 32498 82303 10017 20003 40186 53001 885// 333 10027 85620;EQDQ01  00002PRCP99
0208310880999992000052112004+59370+143200FM-12+000699999V0202301N002010060019N0200001N1+00131-00011101941ADDAA199000091GA1051+006009059GF108991081061004501999999KA1120M+00271MA1999999101871MD1310081+9999REMSYN082AAXX  21121 31088 32498 82302 10013 21001 30187 40194 53008 886// 333 10027 85620;EQDQ01  00002PRCP99
0138310880999992000052115004+59370+143200FM-12+000699999V0209999C000010030019N0200001N1+00131-00011101941ADDGA1081+003009069GF108991081061004501999999MD1410001+9999REMSYN070AAXX  21151 31088 42498 80000 10013 21001 40194 54000 886// 333 88710;
0138310880999992000052118004+59370+143200FM-12+000699999V0203201N001010030019N0200001N1+00081+00001101931ADDGA1081+003009069GF108991081061004501999999MD1810011+9999REMSYN070AAXX  21181 31088 42498 83201 10008 21000 40193 58001 886// 333 88710;
0168310880999992000052121004+59370+143200FM-12+000699999V0203601N003010030019N0200001N1+00091-00051101921ADDAA199000091GA1081+003009069GF108991081061004501999999MD1710011+9999REMSYN070AAXX  21211 31088 32498 83603 10009 21005 40192 57001 886// 333 88710;EQDQ01  00002PRCP99
0192310880999992000052200004+59370+143200FM-12+000699999V0200101N003019999999N0500001N1+00531+00041101841ADDAA199000091GF105991001001999999001011KA1120N+00051MA1999999101771MD1710081+9999REMSYN082AAXX  22001 31088 32999 50103 10053 20004 30177 40184 57008 80001 333 20005 55000;EQDQ01  00002PRCP99
0112310880999992000052203004+59370+143200FM-12+000699999V0202601N003012200019N0500001N1+00481+00181101791ADDGF107991011061004501001011MD1710051+9999REMSYN060AAXX  22031 31088 42499 72603 10048 20018 40179 57005 81601;
0138310880999992000052206004+59370+143200FM-12+000699999V0202101N003010024019N0200001N1+00391+00161101721ADDGA1061+002409059GF107991061061002501001011MD1710071+9999REMSYN070AAXX  22061 31088 42398 72103 10039 20016 40172 57007 86601 333 86608;
0215310880999992000052209004+59370+143200FM-12+000699999V0202101N004010024019N0020001N1+00141+00061101731ADDAA199000091AY121031AY221031GA1081+002409069GF108991081061002501999999KA1120M+00941MD1310011+9999MW1101REMSYN082AAXX  22091 31088 31395 82104 10014 20006 40173 53001 71022 886// 333 10094 88708;EQDQ01  00002PRCP99
0236310880999992000052212004+59370+143200FM-12+000699999V0201801N003010021019N0020001N1+00091+00061101721ADDAA199000091AY121061AY221061GA1081+002109059GF108991081061002501999999KA1120M+00941MA1999999101651MD1810011+9999MW1101REMSYN088AAXX  22121 31088 31395 81803 10009 20006 30165 40172 58001 71022 886// 333 10094 88607;EQDQ01  00002PRCP99
0166310880999992000052215004+59370+143200FM-12+000699999V0201001N003010024019N0020001N1+00011-00021101711ADDAY121031AY221031GA1081+002409069GF108991081061002501999999MD1710011+9999MW1101REMSYN076AAXX  22151 31088 41395 81003 10001 21002 40171 57001 71022 886// 333 88708;
0166310880999992000052218004+59370+143200FM-12+000699999V0200601N002010027019N0020001N1-00041-00101101691ADDAY121061AY221061GA1081+002709069GF108991081061002501999999MD1710021+9999MW1101REMSYN076AAXX  22181 31088 41395 80602 11004 21010 40169 57002 71022 886// 333 88709;
0196310880999992000052221004+59370+143200FM-12+000699999V0209999C000010027019N0040001N1+00281-00041101691ADDAA199000091AY121031AY221031GA1081+002709069GF108991081061002501999999MD1410001+9999MW1101REMSYN076AAXX  22211 31088 31396 80000 10028 21004 40169 54000 71022 886// 333 88709;EQDQ01  00002PRCP99
0201310880999992000052300004+59370+143200FM-12+000699999V0201801N003010042019N0100001N1+00181-00011101721ADDAA199000021AY171061AY221061GF108991061061004501021999KA1120N-00041MA1999999101651MD1310031+9999MW1711REMSYN088AAXX  23001 31088 31497 81803 10018 21001 30165 40172 53003 77172 8662/ 333 21004 55044;
0140310880999992000052303004+59370+143200FM-12+000699999V0201701N005010300019N0100001N1+00271+00111101721ADDAY171031AY261031GF108991031061004501021999MD1410001+9999MW1611REMSYN066AAXX  23031 31088 41497 81705 10027 20011 40172 54000 76176 8362/;
0140310880999992000052306004+59370+143200FM-12+000699999V0201801N005010042019N0100001N1+00271+00141101671ADDAY171061AY261061GF108991061061004501021999MD1810051+9999MW1611REMSYN066AAXX  23061 31088 41497 81805 10027 20014 40167 58005 76176 8662/;
0185310880999992000052309004+59370+143200FM-12+000699999V0201901N002010024019N0200001N1+00261+00101101621ADDAY161031AY221031GA1081+002409069GF108991081061002501999999KA1120M+00311MD1710051+9999MW1021REMSYN082AAXX  23091 31088 /1398 81902 10026 20010 40162 57005 70262 886// 333 10031 88708;
0223310880999992000052312004+59370+143200FM-12+000699999V0202001N001010024019N0200001N1+00261+00131101571ADDAA100000591AY161061AY221061GA1081+002409069GF108991081061002501999999KA1120M+00311MA1999999101501MD1710051+9999MW1021REMSYN094AAXX  23121 31088 11398 82001 10026 20013 30150 40157 57005 69940 70262 886// 333 10031 88708;
0138310880999992000052315004+59370+143200FM-12+000699999V0209999C000010024019N0200001N1+00241+00161101501ADDGA1081+002409069GF108991081061002501999999MD1710071+9999REMSYN070AAXX  23151 31088 42398 80000 10024 20016 40150 57007 886// 333 88708;
0138310880999992000052318004+59370+143200FM-12+000699999V0209999C000010027019N0200001N1+00241+00161101481ADDGA1081+002709069GF108991081061002501999999MD1710021+9999REMSYN070AAXX  23181 31088 42398 80000 10024 20016 40148 57002 886// 333 88709;
0168310880999992000052321004+59370+143200FM-12+000699999V0201501N003010024019N0200001N1+00251+00121101491ADDAA199000091GA1081+002409069GF108991081061002501999999MD1310011+9999REMSYN070AAXX  23211 31088 32398 81503 10025 20012 40149 53001 886// 333 88708;EQDQ01  00002PRCP99
0222310880999992000052400004+59370+143200FM-12+000699999V0201401N004010021019N0200001N1+00281+00231101481ADDAA199000091GA1081+002109069GF108991081061002501999999GJ100009KA1120N+00221MA1999999101411MD1810011+9999REMSYN088AAXX  24001 31088 32398 81404 10028 20023 30141 40148 58001 886// 333 20022 55000 88707;EQDQ01  00002PRCP99
0138310880999992000052403004+59370+143200FM-12+000699999V0201601N005010027019N0200001N1+00391+00051101421ADDGA1061+002709069GF107991071061002501001001MD1710061+9999REMSYN070AAXX  24031 31088 42398 71605 10039 20005 40142 57006 87600 333 86709;
0112310880999992000052406004+59370+143200FM-12+000699999V0201801N004010075019N0500001N1+00421+00171101341ADDGF107991051051008001051001MD1710081+9999REMSYN060AAXX  24061 31088 42599 71804 10042 20017 40134 57008 85550;
0187310880999992000052409004+59370+143200FM-12+000699999V0201601N004010060019N0200001N1+00291+00131101251ADDAA199000091GA1051+006009059GF108991081061004501999999KA1120M+00451MD1710091+9999REMSYN076AAXX  24091 31088 32498 81604 10029 20013 40125 57009 886// 333 10045 85620;EQDQ01  00002PRCP99
0186310880999992000052412004+59370+143200FM-12+000699999V0201701N003010042019N0200001N1+00261+00051101301ADDAA199000091GF108991081061004501999999KA1999M+00451MA1999999101231MD1310051+9999REMSYN076AAXX  24121 31088 32498 81703 10026 20005 30123 40130 53005 886// 333 10045;EQDQ01  00002PRCP99
0138310880999992000052415004+59370+143200FM-12+000699999V0201501N003010030019N0200001N1+00221+00061101241ADDGA1081+003009069GF108991081061004501999999MD1810061+9999REMSYN070AAXX  24151 31088 42498 81503 10022 20006 40124 58006 886// 333 88710;
0112310880999992000052418004+59370+143200FM-12+000699999V0209999C000010042019N0500001N1+00181+00071101171ADDGF108991081061004501999999MD1710071+9999REMSYN060AAXX  24181 31088 42499 80000 10018 20007 40117 57007 886//;
0168310880999992000052421004+59370+143200FM-12+000699999V0209999C000010033019N0500001N1+00241+00081101071ADDAA199000091GA1081+003309069GF108991081061004501999999MD1710101+9999REMSYN070AAXX  24211 31088 32499 80000 10024 20008 40107 57010 886// 333 88711;EQDQ01  00002PRCP99
0140310880999992000052503004+59370+143200FM-12+000699999V0209999C000010042019N0500001N1+00351+00141100961ADDAY161031AY221031GF108991061061004501021999MD1310021+9999MW1021REMSYN066AAXX  25031 31088 41499 80000 10035 20014 40096 53002 70262 8662/;
0140310880999992000052506004+59370+143200FM-12+000699999V0201601N002010042019N0500001N1+00391+00131100871ADDAY161061AY221061GF107991061061004501051001MD1810101+9999MW1021REMSYN066AAXX  25061 31088 41499 71602 10039 20013 40087 58010 70262 86650;
0157310880999992000052509004+59370+143200FM-12+000699999V0201201N003010069019N0500001N1+00341+00131100851ADDGA1071+006909059GF108991081061004501999999KA1120M+00461MD1710011+9999REMSYN076AAXX  25091 31088 /2499 81203 10034 20013 40085 57001 886// 333 10046 87623;
0223310880999992000052512004+59370+143200FM-12+000699999V0201201N002010069019N0200001N1+00301+00171100831ADDAA100000391AY161061AY221061GA1061+006909059GF108991081061004501999999KA1120M+00461MA1999999100761MD1710021+9999MW1021REMSYN094AAXX  25121 31088 11498 81202 10030 20017 30076 40083 57002 69930 70262 886// 333 10046 86623;
0138310880999992000052515004+59370+143200FM-12+000699999V0200701N004010024019N0200001N1+00251+00121100811ADDGA1081+002409069GF108991081061002501999999MD1710021+9999REMSYN070AAXX  25151 31088 42398 80704 10025 20012 40081 57002 886// 333 88708;
0138310880999992000052518004+59370+143200FM-12+000699999V0200901N003010072019N0200001N1+00321+00061100771ADDGA1051+007209059GF108991081061002501999999MD1710041+9999REMSYN070AAXX  25181 31088 42398 80903 10032 20006 40077 57004 886// 333 85624;
0138310880999992000052521004+59370+143200FM-12+000699999V0203601N002010027019N0200001N1+00311+00131100661ADDGA1051+002709069GF108991081051002501999999MD1810111+9999REMSYN070AAXX  25211 31088 /2398 83602 10031 20013 40066 58011 885// 333 85709;
0201310880999992000052600004+59370+143200FM-12+000699999V0201501N003010021019N0100001N1+00401+00201100641ADDAA100000191AY161061AY221061GF108991081061002501999999KA1999N+00221MA1999999100571MD1610021+9999MW1611REMSYN088AAXX  26001 31088 11397 81503 10040 20020 30057 40064 56002 69910 76162 886// 333 20022;
0140310880999992000052603004+59370+143200FM-12+000699999V0201501N003010021019N0100001N1+00541+00351100551ADDAY161031AY221031GF108991081091002501999999MD1810091+9999MW1611REMSYN066AAXX  26031 31088 41397 81503 10054 20035 40055 58009 76162 889//;
0140310880999992000052606004+59370+143200FM-12+000699999V0201701N003010042019N0100001N1+00511+00291100551ADDAY161061AY221061GF108991081091004501999999MD1410001+9999MW1611REMSYN066AAXX  26061 31088 41497 81703 10051 20029 40055 54000 76162 889//;
0163310880999992000052609004+59370+143200FM-12+000699999V0201501N003010042019N0200001N1+00401+00251100641ADDAY161031AY221031GF108991081061004501999999KA1999M+00621MD1310091+9999MW1611REMSYN076AAXX  26091 31088 /1498 81503 10040 20025 40064 53009 76162 886// 333 10062;
0201310880999992000052612004+59370+143200FM-12+000699999V0201101N003010042019N0200001N1+00361+00231100771ADDAA100000391AY161061AY221061GF108991081061004501999999KA1999M+00621MA1999999100701MD1210131+9999MW1611REMSYN088AAXX  26121 31088 11498 81103 10036 20023 30070 40077 52013 69930 76162 886// 333 10062;
0140310880999992000052615004+59370+143200FM-12+000699999V0209999C000010042019N0200001N1+00371+00301100821ADDAY161031AY221031GF108991081061004501999999MD1110051+9999MW1611REMSYN066AAXX  26151 31088 41498 80000 10037 20030 40082 51005 76162 886//;
0166310880999992000052618004+59370+143200FM-12+000699999V0209999C000010036019N0200001N1+00321+00271100821ADDAY161061AY221061GA1081+003609069GF108991081061004501999999MD1410001+9999MW1021REMSYN076AAXX  26181 31088 41498 80000 10032 20027 40082 54000 70262 886// 333 88712;
0112310880999992000052621004+59370+143200FM-12+000699999V0209999C000010042019N0200001N1+00401+00351100831ADDGF108991081061004501999999MD1310011+9999REMSYN060AAXX  26211 31088 /1498 80000 10040 20035 40083 53001 886//;
0201310880999992000052700004+59370+143200FM-12+000699999V0202301N002010042019N0200001N1+00571+00391100831ADDAA100002091AY161061AY221061GF107991051051004501051001KA1999N+00301MA1999999100761MD1410001+9999MW1011REMSYN088AAXX  27001 31088 11498 72302 10057 20039 30076 40083 54000 60020 70162 85550 333 20030;
0140310880999992000052703004+59370+143200FM-12+000699999V0202501N004010042019N0040001N1+00581+00491100751ADDAY141031AY221031GF107991051031004501051011MD1810081+9999MW1101REMSYN066AAXX  27031 31088 41496 72504 10058 20049 40075 58008 71042 85351;
0166310880999992000052706004+59370+143200FM-12+000699999V0202201N002010027019N0020001N1+00421+00371100681ADDAY141061AY221061GA1071+002709069GF107991071061002501001001MD1710071+9999MW1101REMSYN076AAXX  27061 31088 41395 72202 10042 20037 40068 57007 71042 87600 333 87709;
0185310880999992000052709004+59370+143200FM-12+000699999V0202101N002010024019N0020001N1+00291+00291100631ADDAY121031AY221031GA1081+002409069GF108991081061002501999999KA1120M+00671MD1710051+9999MW1101REMSYN082AAXX  27091 31088 /1395 82102 10029 20029 40063 57005 71022 886// 333 10067 88708;
0211310880999992000052712004+59370+143200FM-12+000699999V0202201N001010003019N0005001N1+00211+00181100721ADDAA100000791AY141061AY221061GA1091+999999999GF109991091999999999999999KA1999M+00671MA1999999100651MD1310091+9999MW1451REMSYN082AAXX  27121 31088 11/93 92201 10021 20018 30065 40072 53009 69900 74542 333 10067;
0150310880999992000052715004+59370+143200FM-12+000699999V0202301N002010003019N0005001N1+00131+00101100751ADDAY141031AY221031GA1091+999999999GF109991091999999999999999MD1110031+9999MW1451REMSYN060AAXX  27151 31088 41/93 92302 10013 20010 40075 51003 74542;
0180310880999992000052721004+59370+143200FM-12+000699999V0201701N002010003019N0005001N1+00121+00071100921ADDAA199000091AY141031AY221031GA1091+999999999GF109991091999999999999999MD1210071+9999MW1451REMSYN060AAXX  27211 31088 31/93 91702 10012 20007 40092 52007 74542;EQDQ01  00002PRCP99
0250310880999992000052800004+59370+143200FM-12+000699999V0201901N006010027019N0200001N1+00221+00141100921ADDAA199000091AY141061AY221061GA1081+002709069GF108991081061002501999999GJ103249KA1120N+00101MA1999999100851MD1410001+9999MW1021REMSYN094AAXX  28001 31088 31398 81906 10022 20014 30085 40092 54000 70242 886// 333 20010 55054 88709;EQDQ01  00002PRCP99
0138310880999992000052803004+59370+143200FM-12+000699999V0201901N007010027019N0200001N1+00311+00101101031ADDGA1061+002709069GF108991081061002501999999MD1310111+9999REMSYN070AAXX  28031 31088 42398 81907 10031 20010 40103 53011 886// 333 86709;
0140310880999992000052806004+59370+143200FM-12+000699999V0201401N006010021019N0200001N1+00371+00191101031ADDAY181061AY221061GF107991061031002501051001MD1410001+9999MW1011REMSYN066AAXX  28061 31088 41398 71406 10037 20019 40103 54000 70182 86350;
0135310880999992000052809004+59370+143200FM-12+000699999V0201501N005010021019N0200001N1+00321+00171101091ADDGF107991061031002501051011KA1999M+00451MD1310061+9999REMSYN070AAXX  28091 31088 /2398 71505 10032 20017 40109 53006 86351 333 10045;
0173310880999992000052812004+59370+143200FM-12+000699999V0201201N006010042019N0200001N1+00251+00221101121ADDAA100000591GF107991051031004501051011KA1999M+00451MA1999999101051MD1210031+9999REMSYN082AAXX  28121 31088 12498 71206 10025 20022 30105 40112 52003 69940 85351 333 10045;
0112310880999992000052815004+59370+143200FM-12+000699999V0201101N005010300019N0200001N1+00321+00191101091ADDGF106991031051004501051011MD1210041+9999REMSYN060AAXX  28151 31088 42498 61105 10032 20019 40109 52004 83551;
0138310880999992000052818004+59370+143200FM-12+000699999V0201301N006010030019N0200001N1+00281+00251101171ADDGA1081+003009069GF108991081061004501999999MD1210011+9999REMSYN070AAXX  28181 31088 42498 81306 10028 20025 40117 52001 886// 333 88710;
0168310880999992000052821004+59370+143200FM-12+000699999V0201501N002010030019N0200001N1+00261+00261101241ADDAA199000091GA1081+003009069GF108991081061004501999999MD1210071+9999REMSYN070AAXX  28211 31088 32498 81502 10026 20026 40124 52007 886// 333 88710;EQDQ01  00002PRCP99
0220310880999992000052900004+59370+143200FM-12+000699999V0201801N004010075019N0500001N1+00421+00321101251ADDAA199000091AY141061AY221061GF105991051021008001001001KA1120N+00221MA1999999101181MD1110011+9999MW1281REMSYN088AAXX  29001 31088 31599 51804 10042 20032 30118 40125 51001 72842 85200 333 20022 55023;EQDQ01  00002PRCP99
0112310880999992000052903004+59370+143200FM-12+000699999V0202701N002012200019N0500001N1+00461+00261101121ADDGF107991011021008001001011MD1810131+9999REMSYN060AAXX  29031 31088 42599 72702 10046 20026 40112 58013 81201;
0112310880999992000052906004+59370+143200FM-12+000699999V0201901N004012200019N0500001N1+00611+00271100951ADDGF105991011021008001001011MD1710171+9999REMSYN060AAXX  29061 31088 42599 51904 10061 20027 40095 57017 81201;
0165310880999992000052909004+59370+143200FM-12+000699999V0202301N001019999999N0500001N1+00691+00391100851ADDAA199000091GF106991011001999999061011KA1999M+00801MD1610101+9999REMSYN070AAXX  29091 31088 32999 62301 10069 20039 40085 56010 81061 333 10080;EQDQ01  00002PRCP99
0186310880999992000052912004+59370+143200FM-12+000699999V0200201N001019999999N0500001N1+00671+00341100761ADDAA199000091GF106991021001999999061011KA1999M+00801MA1999999100691MD1710091+9999REMSYN076AAXX  29121 31088 32999 60201 10067 20034 30069 40076 57009 82061 333 10080;EQDQ01  00002PRCP99
0112310880999992000052915004+59370+143200FM-12+000699999V0203501N002012200019N0500001N1+00531+00261100581ADDGF103991011001999999031011MD1810181+9999REMSYN060AAXX  29151 31088 42999 33502 10053 20026 40058 58018 81031;
0112310880999992000052918004+59370+143200FM-12+000699999V0200201N004010300019N0500001N1+00611+00241100451ADDGF107991011051008001031011MD1710131+9999REMSYN060AAXX  29181 31088 42599 70204 10061 20024 40045 57013 81531;
0142310880999992000052921004+59370+143200FM-12+000699999V0200401N001012200019N0500001N1+01081+00411100511ADDAA199000091GF102991021001999999061001MD1310061+9999REMSYN060AAXX  29211 31088 32999 20401 10108 20041 40051 53006 82060;EQDQ01  00002PRCP99
0192310880999992000053000004+59370+143200FM-12+000699999V0202301N001012200019N0500001N1+01001+00551100561ADDAA199000091GF103991021001008001011011KA1120N+00521MA1999999100491MD1210051+9999REMSYN082AAXX  30001 31088 32599 32301 10100 20055 30049 40056 52005 82011 333 20052 55110;EQDQ01  00002PRCP99
0112310880999992000053003004+59370+143200FM-12+000699999V0202201N003012200019N0500001N1+01181+00381100531ADDGF103991031011008001001001MD1810031+9999REMSYN060AAXX  30031 31088 42599 32203 10118 20038 40053 58003 83100;
0112310880999992000053006004+59370+143200FM-12+000699999V0201801N003012200019N0500001N1+00981+00301100531ADDGF105991031011008001001011MD1410001+9999REMSYN060AAXX  30061 31088 42599 51803 10098 20030 40053 54000 83101;
0165310880999992000053009004+59370+143200FM-12+000699999V0202301N002010075019N0500001N1+00871+00361100561ADDAA199000091GF107991061051008001001011KA1999M+01311MD1310031+9999REMSYN070AAXX  30091 31088 32599 72302 10087 20036 40056 53003 86501 333 10131;EQDQ01  00002PRCP99
0208310880999992000053012004+59370+143200FM-12+000699999V0201501N005010075019N0500001N1+00691+00331100651ADDAA199000091GA1071+007509059GF107991071051008001001001KA1120M+01311MA1999999100581MD1210091+9999REMSYN082AAXX  30121 31088 32599 71505 10069 20033 30058 40065 52009 87500 333 10131 87625;EQDQ01  00002PRCP99
0112310880999992000053015004+59370+143200FM-12+000699999V0201201N004010075019N0500001N1+00671+00291100701ADDGF106991061051008001001001MD1110051+9999REMSYN060AAXX  30151 31088 42599 61204 10067 20029 40070 51005 86500;
0112310880999992000053018004+59370+143200FM-12+000699999V0201701N004010300019N0500001N1+00611+00321100761ADDGF107991021051008001041011MD1210051+9999REMSYN060AAXX  30181 31088 42599 71704 10061 20032 40076 52005 82541;
0142310880999992000053021004+59370+143200FM-12+000699999V0201301N003010300019N0500001N1+00651+00291100791ADDAA199000091GF106991041031008001031011MD1210031+9999REMSYN060AAXX  30211 31088 32599 61303 10065 20029 40079 52003 84331;EQDQ01  00002PRCP99
0192310880999992000053100004+59370+143200FM-12+000699999V0201801N003010300019N0500001N1+00761+00231100801ADDAA199000091GF107991041031008001031011KA1120N+00591MA1999999100731MD1210011+9999REMSYN082AAXX  31001 31088 32599 71803 10076 20023 30073 40080 52001 84331 333 20059 55139;EQDQ01  00002PRCP99
0112310880999992000053103004+59370+143200FM-12+000699999V0202001N004010300019N0500001N1+00781+00301100741ADDGF107991021011008001041061MD1810061+9999REMSYN060AAXX  31031 31088 42599 72004 10078 20030 40074 58006 82146;
0112310880999992000053106004+59370+143200FM-12+000699999V0201801N005010300019N0500001N1+00691+00331100731ADDGF107991021031008001041061MD1710011+9999REMSYN060AAXX  31061 31088 42599 71805 10069 20033 40073 57001 82346;
0165310880999992000053109004+59370+143200FM-12+000699999V0201601N005010300019N0500001N1+00871+00301100571ADDAA199000091GF107991031011008001051011KA1999M+00921MD1810161+9999REMSYN070AAXX  31091 31088 32599 71605 10087 20030 40057 58016 83151 333 10092;EQDQ01  00002PRCP99
0186310880999992000053112004+59370+143200FM-12+000699999V0201601N009010075019N0500001N1+00681+00301100661ADDAA199000091GF107991061011008001051011KA1999M+00921MA1999999100591MD1310091+9999REMSYN076AAXX  31121 31088 32599 71609 10068 20030 30059 40066 53009 86151 333 10092;EQDQ01  00002PRCP99
0112310880999992000053115004+59370+143200FM-12+000699999V0200501N002010075019N0500001N1+00581+00341100721ADDGF107991061011008001051011MD1210061+9999REMSYN060AAXX  31151 31088 42599 70502 10058 20034 40072 52006 86151;
0112310880999992000053118004+59370+143200FM-12+000699999V0202801N004010075019N0500001N1+00481+00281100811ADDGF107991051011008001051011MD1210091+9999REMSYN060AAXX  31181 31088 42599 72804 10048 20028 40081 52009 85151;
0142310880999992000053121004+59370+143200FM-12+000699999V0209999C000010300019N0500001N1+00601+00361100861ADDAA199000091GF107991021051008001051001MD1210051+9999REMSYN060AAXX  31211 31088 32599 70000 10060 20036 40086 52005 82550;EQDQ01  00002PRCP99
0112310880999992000060103004+59370+143200FM-12+000699999V0201801N009010300019N0500001N1+00641+00231101001ADDGF107991021051008001031011MD1410001+9999REMSYN060AAXX  01031 31088 42599 71809 10064 20023 40100 54007 82531;
0112310880999992000060106004+59370+143200FM-12+000699999V0201801N009010300019N0500001N1+00541+00321101001ADDGF107991031051008001071011MD1410001+9999REMSYN060AAXX  01061 31088 42599 71809 10054 20032 40100 54000 83571;
0165310880999992000060109004+59370+143200FM-12+000699999V0201701N008010021019N0500001N1+00531+00311101081ADDAA199000091GF107991051061002501031001KA1999M+00901MD1310081+9999REMSYN070AAXX  01091 31088 32399 71708 10053 20031 40108 53008 85630 333 10090;EQDQ01  00002PRCP99
0195310880999992000060112004+59370+143200FM-12+000699999V0201601N007010030019N0200001N1+00461+00311101161ADDAA199000091GA1081+003009079GF108991081061004501999999MA1999999101091MD1210081+9999REMSYN082AAXX  01121 31088 32498 81607 10046 20031 30109 40116 52008 886// 333 88710 91113;EQDQ01  00002PRCP99
0122310880999992000060115004+59370+143200FM-12+000699999V0201601N006010300019N0500001N1+00481+00281101191ADDGF107991041061004501041011MD1110031+9999REMSYN070AAXX  01151 31088 42499 71606 10048 20028 40119 51003 84641 333 91111;
0112310880999992000060118004+59370+143200FM-12+000699999V0203501N003010042019N0500001N1+00421+00251101261ADDGF107991051061004501041011MD1210061+9999REMSYN060AAXX  01181 31088 42499 73503 10042 20025 40126 52006 85641;
0142310880999992000060121004+59370+143200FM-12+000699999V0202901N001010042019N0500001N1+00561+00291101261ADDAA199000091GF107991061061004501051011MD1110011+9999REMSYN060AAXX  01211 31088 32499 72901 10056 20029 40126 51001 86651;EQDQ01  00002PRCP99
0222310880999992000060200004+59370+143200FM-12+000699999V0201501N004010066019N0500001N1+00581+00321101291ADDAA199000091GA1051+006609059GF107991071051004501001001GJ101929KA1120N+00361MA1999999101221MD1210031+9999REMSYN088AAXX  02001 31088 32499 71504 10058 20032 30122 40129 52003 87500 333 20036 55032 85622;EQDQ01  00002PRCP99
0112310880999992000060203004+59370+143200FM-12+000699999V0201601N006010075019N0500001N1+00631+00351101271ADDGF107991061051008001051021MD1810021+9999REMSYN060AAXX  02031 31088 42599 71606 10063 20035 40127 58002 86552;
0138310880999992000060206004+59370+143200FM-12+000699999V0201601N007010063019N0500001N1+00531+00361101241ADDGA1061+006309059GF107991061051008001051001MD1710031+9999REMSYN070AAXX  02061 31088 42599 71607 10053 20036 40124 57003 86550 333 86621;
0165310880999992000060209004+59370+143200FM-12+000699999V0201601N007010300019N0500001N1+00531+00361101251ADDAA199000091GF106991031051008001051011KA1999M+00721MD1310011+9999REMSYN070AAXX  02091 31088 32599 61607 10053 20036 40125 53001 83551 333 10072;EQDQ01  00002PRCP99
0186310880999992000060212004+59370+143200FM-12+000699999V0201701N008010300019N0500001N1+00731+00311101291ADDAA199000091GF105991031061004501031001KA1999M+00721MA1999999101221MD1110041+9999REMSYN076AAXX  02121 31088 32499 51708 10073 20031 30122 40129 51004 83630 333 10072;EQDQ01  00002PRCP99
0112310880999992000060215004+59370+143200FM-12+000699999V0201101N001010042019N0200001N1+00321+00221101301ADDGF107991071061004501001001MD1210011+9999REMSYN060AAXX  02151 31088 42498 71101 10032 20022 40130 52001 87600;
0138310880999992000060218004+59370+143200FM-12+000699999V0200901N004010030019N0200001N1+00321+00241101261ADDGA1081+003009069GF108991081061004501999999MD1810041+9999REMSYN070AAXX  02181 31088 42498 80904 10032 20024 40126 58004 886// 333 88710;
0168310880999992000060221004+59370+143200FM-12+000699999V0201701N003010030019N0200001N1+00321+00241101271ADDAA199000091GA1081+003009069GF108991081061004501999999MD1310011+9999REMSYN070AAXX  02211 31088 32498 81703 10032 20024 40127 53001 886// 333 88710;EQDQ01  00002PRCP99
0222310880999992000060300004+59370+143200FM-12+000699999V0201601N004010030019N0200001N1+00381+00281101291ADDAA199000091GA1081+003009069GF108991081061004501999999GJ101629KA1120N+00261MA1999999101221MD1210021+9999REMSYN088AAXX  03001 31088 32498 81604 10038 20028 30122 40129 52002 886// 333 20026 55027 88710;EQDQ01  00002PRCP99
0138310880999992000060303004+59370+143200FM-12+000699999V0201701N004010030019N0200001N1+00491+00271101211ADDGA1051+003009069GF107991071061004501001001MD1810081+9999REMSYN070AAXX  03031 31088 42498 71704 10049 20027 40121 58008 87600 333 85710;
0138310880999992000060306004+59370+143200FM-12+000699999V0201701N005010030019N0200001N1+00471+00271101191ADDGA1051+003009069GF108991081061004501999999MD1610021+9999REMSYN070AAXX  03061 31088 42498 81705 10047 20027 40119 56002 886// 333 85710;
0187310880999992000060309004+59370+143200FM-12+000699999V0201601N004010030019N0200001N1+00501+00281101251ADDAA199000091GA1061+003009069GF107991071061004501001001KA1120M+00541MD1310061+9999REMSYN076AAXX  03091 31088 32498 71604 10050 20028 40125 53006 87600 333 10054 86710;EQDQ01  00002PRCP99
0208310880999992000060312004+59370+143200FM-12+000699999V0201401N003010030019N0200001N1+00471+00331101301ADDAA199000091GA1081+003009069GF108991081061004501999999KA1120M+00541MA1999999101231MD1210051+9999REMSYN082AAXX  03121 31088 32498 81403 10047 20033 30123 40130 52005 886// 333 10054 88710;EQDQ01  00002PRCP99
0138310880999992000060315004+59370+143200FM-12+000699999V0203601N001010033019N0200001N1+00481+00361101301ADDGA1081+003309069GF108991081061004501999999MD1410001+9999REMSYN070AAXX  03151 31088 42498 83601 10048 20036 40130 54000 886// 333 88711;
0138310880999992000060318004+59370+143200FM-12+000699999V0209999C000010030019N0200001N1+00461+00391101301ADDGA1081+003009069GF108991081061004501999999MD1410001+9999REMSYN070AAXX  03181 31088 42498 80000 10046 20039 40130 54000 886// 333 88710;
0168310880999992000060321004+59370+143200FM-12+000699999V0209999C000010030019N0200001N1+00531+00361101351ADDAA199000091GA1081+003009069GF108991081061004501999999MD1310051+9999REMSYN070AAXX  03211 31088 32498 80000 10053 20036 40135 53005 886// 333 88710;EQDQ01  00002PRCP99
0201310880999992000060400004+59370+143200FM-12+000699999V0201401N004010075019N0100001N1+00541+00421101381ADDAA199000021AY161061AY221061GF108991071051008001999999KA1120N+00431MA1999999101311MD1210031+9999MW1611REMSYN088AAXX  04001 31088 31597 81404 10054 20042 30131 40138 52003 76162 875// 333 20043 55006;
0166310880999992000060403004+59370+143200FM-12+000699999V0201701N002010063019N0200001N1+00541+00451101441ADDAY161031AY221031GA1071+006309059GF108991071051008001999999MD1210061+9999MW1021REMSYN076AAXX  04031 31088 41598 81702 10054 20045 40144 52006 70262 875// 333 87621;
0166310880999992000060406004+59370+143200FM-12+000699999V0201501N003010024019N0020001N1+00571+00501101441ADDAY161061AY251061GA1081+002409069GF108991081061002501999999MD1410001+9999MW1201REMSYN076AAXX  04061 31088 41395 81503 10057 20050 40144 54000 72065 886// 333 88708;
0157310880999992000060409004+59370+143200FM-12+000699999V0201701N004010027019N0200001N1+00521+00431101431ADDGA1051+002709069GF108991081051002501999999KA1120M+00601MD1810011+9999REMSYN076AAXX  04091 31088 /2398 81704 10052 20043 40143 58001 885// 333 10060 85709;
0195310880999992000060412004+59370+143200FM-12+000699999V0201701N003010078019N0500001N1+00511+00371101521ADDAA100000891GA1081+007809059GF108991081051008001999999KA1120M+00601MA1999999101451MD1310091+9999REMSYN088AAXX  04121 31088 12599 81703 10051 20037 30145 40152 53009 69980 885// 333 10060 88626;
0138310880999992000060415004+59370+143200FM-12+000699999V0209999C000010078019N0500001N1+00441+00371101521ADDGA1081+007809059GF108991081051008001999999MD1410001+9999REMSYN070AAXX  04151 31088 42599 80000 10044 20037 40152 54000 885// 333 88626;
0166310880999992000060418004+59370+143200FM-12+000699999V0209999C000010024019N0020001N1+00411+00361101501ADDAY121061AY221061GA1081+002409069GF108991081061002501999999MD1810021+9999MW1101REMSYN076AAXX  04181 31088 41395 80000 10041 20036 40150 58002 71022 886// 333 88708;
0180310880999992000060421004+59370+143200FM-12+000699999V0200101N001010003019N0005001N1+00421+00371101491ADDAA199000091AY141031AY221031GA1091+999999999GF109991091999999999999999MD1710011+9999MW1451REMSYN060AAXX  04211 31088 31/93 90101 10042 20037 40149 57001 74542;EQDQ01  00002PRCP99
0220310880999992000060500004+59370+143200FM-12+000699999V0202301N002010075019N0500001N1+00751+00551101471ADDAA199000091AY141061AY221061GF107991061051008001031001KA1120N+00371MA1999999101401MD1710021+9999MW1281REMSYN088AAXX  05001 31088 31599 72302 10075 20055 30140 40147 57002 72842 86530 333 20037 55000;EQDQ01  00002PRCP99
0112310880999992000060503004+59370+143200FM-12+000699999V0202301N005012200019N0500001N1+00981+00651101341ADDGF103991021021008001001011MD1810131+9999REMSYN060AAXX  05031 31088 42599 32305 10098 20065 40134 58013 82201;
0112310880999992000060506004+59370+143200FM-12+000699999V0201801N003012200019N0500001N1+00801+00581101261ADDGF102991021021008001001011MD1710081+9999REMSYN060AAXX  05061 31088 42599 21803 10080 20058 40126 57008 82201;
0165310880999992000060509004+59370+143200FM-12+000699999V0201801N002012200019N0500001N1+00701+00431101271ADDAA199000091GF102991011021008001001011KA1999M+01041MD1310011+9999REMSYN070AAXX  05091 31088 32599 21802 10070 20043 40127 53001 81201 333 10104;EQDQ01  00002PRCP99
0186310880999992000060512004+59370+143200FM-12+000699999V0201401N006010042019N0200001N1+00541+00491101311ADDAA199000091GF106991061061004501001001KA1999M+01041MA1999999101241MD1210041+9999REMSYN076AAXX  05121 31088 32498 61406 10054 20049 30124 40131 52004 86600 333 10104;EQDQ01  00002PRCP99
0166310880999992000060515004+59370+143200FM-12+000699999V0201401N005010075019N0500001N1+00521+00451101321ADDAY141031AY221031GA1071+007509059GF107991071051008001001001MD1110011+9999MW1021REMSYN076AAXX  05151 31088 41599 71405 10052 20045 40132 51001 70242 87500 333 87625;
0166310880999992000060518004+59370+143200FM-12+000699999V0201301N004010081019N0500001N1+00461+00411101301ADDAY141061AY221061GA1071+008109059GF107991071051008001001001MD1810021+9999MW1021REMSYN076AAXX  05181 31088 41599 71304 10046 20041 40130 58002 70242 87500 333 87627;
0168310880999992000060521004+59370+143200FM-12+000699999V0200201N001010078019N0200001N1+00521+00431101321ADDAA199000091GA1061+007809059GF107991071061004501001001MD1310021+9999REMSYN070AAXX  05211 31088 32498 70201 10052 20043 40132 53002 87600 333 86626;EQDQ01  00002PRCP99
0192310880999992000060600004+59370+143200FM-12+000699999V0202001N002010300019N0500001N1+00691+00511101211ADDAA199000091GF107991041061004501041011KA1120N+00431MA1999999101141MD1810111+9999REMSYN082AAXX  06001 31088 32499 72002 10069 20051 30114 40121 58011 84641 333 20043 55111;EQDQ01  00002PRCP99
0112310880999992000060603004+59370+143200FM-12+000699999V0202001N002010300019N0500001N1+00771+00531101051ADDGF107991021051008001031011MD1710161+9999REMSYN060AAXX  06031 31088 42599 72002 10077 20053 40105 57016 82531;
0112310880999992000060606004+59370+143200FM-12+000699999V0202001N002019999999N0500001N1+00771+00531100981ADDGF107991051001999999041011MD1610071+9999REMSYN060AAXX  06061 31088 42999 72002 10077 20053 40098 56007 85041;
0165310880999992000060609004+59370+143200FM-12+000699999V0202001N002019999999N0500001N1+00751+00451101011ADDAA199000091GF107991031001999999041011KA1999M+00961MD1310031+9999REMSYN070AAXX  06091 31088 32999 72002 10075 20045 40101 53003 83041 333 10096;EQDQ01  00002PRCP99
0186310880999992000060612004+59370+143200FM-12+000699999V0202001N005019999999N0500001N1+00631+00451101041ADDAA199000091GF106991021001999999041011KA1999M+00961MA1999999100971MD1210031+9999REMSYN076AAXX  06121 31088 32999 62005 10063 20045 30097 40104 52003 82041 333 10096;EQDQ01  00002PRCP99
0112310880999992000060615004+59370+143200FM-12+000699999V0202001N002019999999N0500001N1+00581+00441101001ADDGF106991001001999999001011MD1810041+9999REMSYN060AAXX  06151 31088 42999 62002 10058 20044 40100 58004 80001;
0112310880999992000060618004+59370+143200FM-12+000699999V0209999C000019999999N0500001N1+00321+00301100951ADDGF107991001001999999001011MD1710051+9999REMSYN060AAXX  06181 31088 42999 70000 10032 20030 40095 57005 80001;
0142310880999992000060621004+59370+143200FM-12+000699999V0209999C000019999999N0500001N1+00491+00351100911ADDAA199000091GF107991001001999999001011MD1710041+9999REMSYN060AAXX  06211 31088 32999 70000 10049 20035 40091 57004 80001;EQDQ01  00002PRCP99
0192310880999992000060700004+59370+143200FM-12+000699999V0202501N002010300019N0500001N1+00891+00581100821ADDAA199000091GF106991021051008001041021KA1120N+00271MA1999999100751MD1810091+9999REMSYN082AAXX  07001 31088 32599 62502 10089 20058 30075 40082 58009 82542 333 20027 55120;EQDQ01  00002PRCP99
0112310880999992000060703004+59370+143200FM-12+000699999V0202401N003010042019N0500001N1+00801+00611100701ADDGF106991051061004501031001MD1610121+9999REMSYN060AAXX  07031 31088 42499 62403 10080 20061 40070 56012 85630;
0112310880999992000060706004+59370+143200FM-12+000699999V0202101N002010300019N0500001N1+00861+00671100601ADDGF107991041011008001041011MD1710101+9999REMSYN060AAXX  07061 31088 42599 72102 10086 20067 40060 57010 84141;
0165310880999992000060709004+59370+143200FM-12+000699999V0201901N003010075019N0500001N1+00781+00621100551ADDAA199000091GF107991051011008001031011KA1999M+01001MD1610051+9999REMSYN070AAXX  07091 31088 32599 71903 10078 20062 40055 56005 85131 333 10100;EQDQ01  00002PRCP99
0186310880999992000060712004+59370+143200FM-12+000699999V0202201N002019999999N0500001N1+00681+00551100571ADDAA199000091GF105991031001999999041011KA1999M+01001MA1999999100501MD1310021+9999REMSYN076AAXX  07121 31088 32999 52202 10068 20055 30050 40057 53002 83041 333 10100;EQDQ01  00002PRCP99
0112310880999992000060715004+59370+143200FM-12+000699999V0209999C000012200019N0500001N1+00671+00561100551ADDGF103991031001999999041001MD1810021+9999REMSYN060AAXX  07151 31088 42999 30000 10067 20056 40055 58002 83040;
0112310880999992000060718004+59370+143200FM-12+000699999V0209999C000010300019N0500001N1+00521+00401100541ADDGF107991021051008001041011MD1710011+9999REMSYN060AAXX  07181 31088 42599 70000 10052 20040 40054 57001 82541;
0142310880999992000060721004+59370+143200FM-12+000699999V0203601N001010300019N0500001N1+00641+00551100511ADDAA199000091GF107991031051008001041011MD1710031+9999REMSYN060AAXX  07211 31088 32599 73601 10064 20055 40051 57003 83541;EQDQ01  00002PRCP99
0222310880999992000060800004+59370+143200FM-12+000699999V0201701N00301007501CN0500001N1+00861+00711100491ADDAA199000091GA1041+006609059GF108991061031008001051999GJ108829KA1120N+00411MA1999999100421MD1710021+9999REMSYN088AAXX  08001 31088 32599 81703 10086 20071 30042 40049 57002 8635/ 333 20041 55147 84622;EQDQ01  00002PRCP99
0112310880999992000060803004+59370+143200FM-12+000699999V0201301N006019999999N0500001N1+00851+00611100401ADDGF107991031001999999051011MD1710021+9999REMSYN060AAXX  08031 31088 42999 71306 10085 20061 40040 57002 83051;
0112310880999992000060806004+59370+143200FM-12+000699999V0202001N006012200019N0500001N1+00871+00701100451ADDGF107991021011008001001011MD1710021+9999REMSYN060AAXX  08061 31088 42599 72006 10087 20070 40045 57002 82101;
0165310880999992000060809004+59370+143200FM-12+000699999V0201701N005010300019N0500001N1+00811+00701100421ADDAA199000091GF107991031051008001051011KA1999M+00951MD1710031+9999REMSYN070AAXX  08091 31088 32599 71705 10081 20070 40042 57003 83551 333 10095;EQDQ01  00002PRCP99
0186310880999992000060812004+59370+143200FM-12+000699999V0201901N006010300019N0500001N1+00761+00621100421ADDAA199000091GF106991041051008001041011KA1999M+00951MA1999999100351MD1410001+9999REMSYN076AAXX  08121 31088 32599 61906 10076 20062 30035 40042 54000 84541 333 10095;EQDQ01  00002PRCP99
0112310880999992000060815004+59370+143200FM-12+000699999V0200401N002012200019N0500001N1+00611+00561100411ADDGF106991041051008001001011MD1810011+9999REMSYN060AAXX  08151 31088 42599 60402 10061 20056 40041 58001 84501;
0150310880999992000060818004+59370+143200FM-12+000699999V0203601N001010003019N0005001N1+00411+00391100341ADDAY141061AY221061GA1091+999999999GF109991091999999999999999MD1810071+9999MW1471REMSYN060AAXX  08181 31088 41/93 93601 10041 20039 40034 58007 74742;
0170310880999992000060821004+59370+143200FM-12+000699999V0203601N002012200019N0500001N1+00861+00621100231ADDAA199000091AY141031AY211031GF102991011001999999041011MD1710111+9999MW1011REMSYN066AAXX  08211 31088 31999 23602 10086 20062 40023 57011 70141 81041;EQDQ01  00002PRCP99
0220310880999992000060900004+59370+143200FM-12+000699999V0202501N002012200019N0500001N1+01251+00861100081ADDAA199000091AY141061AY211061GF102991011021008001001011KA1120N+00391MA1999999100011MD1710151+9999MW1021REMSYN088AAXX  09001 31088 31599 22502 10125 20086 30001 40008 57015 70241 81201 333 20039 55104;EQDQ01  00002PRCP99
0112310880999992000060903004+59370+143200FM-12+000699999V0202601N004012200019N0500001N1+01371+00891099921ADDGF102991021021008001001001MD1710161+9999REMSYN060AAXX  09031 31088 42599 22604 10137 20089 49992 57016 82200;
0122310880999992000060906004+59370+143200FM-12+000699999V0201601N014010042019N0500001N1+00841+00711099951ADDGF105991051061004501001001MD1310031+9999REMSYN070AAXX  09061 31088 42499 51614 10084 20071 49995 53003 85600 333 91119;
0193310880999992000060909004+59370+143200FM-12+000699999V0201501N014010030019N0200001N1+00671+00561100191ADDAA199000091GA1051+003009079GF106991061061004501001001KA1120M+01681MD1310241+9999REMSYN082AAXX  09091 31088 32498 61514 10067 20056 40019 53024 86600 333 10168 85710 91119;EQDQ01  00002PRCP99
0192310880999992000060912004+59370+143200FM-12+000699999V0201401N009012200019N0200001N1+00601+00561100351ADDAA199000091GF103991031061004501001001KA1120M+01681MA1999999100281MD1210161+9999REMSYN082AAXX  09121 31088 32498 31409 10060 20056 30028 40035 52016 83600 333 10168 91117;EQDQ01  00002PRCP99
0144310880999992000060915004+59370+143200FM-12+000699999V0201301N006010030019N0200001N1+00611+00471100531ADDGA1051+003009079GF108991081061004501999999MD1210181+9999REMSYN076AAXX  09151 31088 42498 81306 10061 20047 40053 52018 886// 333 85710 91111;
0112310880999992000060918004+59370+143200FM-12+000699999V0203601N002010042019N0500001N1+00491+00421100601ADDGF106991061051004501001001MD1110071+9999REMSYN060AAXX  09181 31088 42499 63602 10049 20042 40060 51007 86500;
0142310880999992000060921004+59370+143200FM-12+000699999V0203601N001010042019N0200001N1+00651+00441100641ADDAA199000091GF107991071051004501001001MD1210041+9999REMSYN060AAXX  09211 31088 32498 73601 10065 20044 40064 52004 87500;EQDQ01  00002PRCP99
0192310880999992000061000004+59370+143200FM-12+000699999V0201701N005010075019N0500001N1+00811+00501100701ADDAA199000091GF106991061051008001001001KA1120N+00461MA1999999100631MD1210061+9999REMSYN082AAXX  10001 31088 32599 61705 10081 20050 30063 40070 52006 86500 333 20046 55135;EQDQ01  00002PRCP99
0112310880999992000061003004+59370+143200FM-12+000699999V0201601N007010300019N0500001N1+00741+00461100621ADDGF107991021021008001031001MD1810081+9999REMSYN060AAXX  10031 31088 42599 71607 10074 20046 40062 58008 82230;
0112310880999992000061006004+59370+143200FM-12+000699999V0201401N006010042019N0500001N1+00761+00451100641ADDGF107991051061004501031011MD1310021+9999REMSYN060AAXX  10061 31088 42499 71406 10076 20045 40064 53002 85631;
0165310880999992000061009004+59370+143200FM-12+000699999V0201501N006010042019N0500001N1+00661+00431100581ADDAA199000091GF107991061061004501031011KA1999M+01011MD1810061+9999REMSYN070AAXX  10091 31088 32499 71506 10066 20043 40058 58006 86631 333 10101;EQDQ01  00002PRCP99
0208310880999992000061012004+59370+143200FM-12+000699999V0201501N004010081019N0200001N1+00631+00351100731ADDAA199000091GA1051+008109099GF108991081031004501999999KA1120M+01011MA1999999100661MD1310151+9999REMSYN082AAXX  10121 31088 32498 81504 10063 20035 30066 40073 53015 883// 333 10101 85927;EQDQ01  00002PRCP99
0172310880999992000061015004+59370+143200FM-12+000699999V0201601N009010081019N0500001N1+00661+00351100561ADDAY181031AY221031GA1061+008109099GF108991081091008001999999MD1810171+9999MW1251REMSYN082AAXX  10151 31088 41599 81609 10066 20035 40056 58017 72582 889// 333 86927 91113;
0166310880999992000061018004+59370+143200FM-12+000699999V0209999C000010075019N0500001N1+00591+00431100491ADDAY181061AY221061GA1061+007509099GF108991081031008001999999MD1610071+9999MW1021REMSYN076AAXX  10181 31088 41599 80000 10059 20043 40049 56007 70282 883// 333 86925;
0138310880999992000061021004+59370+143200FM-12+000699999V0209999C000010072019N0500001N1+00601+00391100491ADDGA1061+007209059GF108991081051004501999999MD1410001+9999REMSYN070AAXX  10211 31088 /2499 80000 10060 20039 40049 54000 885// 333 86624;
0209310880999992000061100004+59370+143200FM-12+000699999V0203101N002010081019N0500001N1+00791+00501100401ADDAA100000891GA1081+008109059GF108991081051008001999999GJ105649KA1120N+00551MA1999999100331MD1810091+9999REMSYN094AAXX  11001 31088 12599 83102 10079 20050 30033 40040 58009 69970 885// 333 20055 55094 88627;
0138310880999992000061103004+59370+143200FM-12+000699999V0202201N00301007501CN0500001N1+00861+00581100281ADDGA1041+008709059GF107991061021008001051001MD1710121+9999REMSYN070AAXX  11031 31088 42599 72203 10086 20058 40028 57012 86250 333 84629;
0112310880999992000061106004+59370+143200FM-12+000699999V0202101N005010075019N0500001N1+00911+00581100211ADDGF107991061051008001031011MD1610071+9999REMSYN060AAXX  11061 31088 42599 72105 10091 20058 40021 56007 86531;
0165310880999992000061109004+59370+143200FM-12+000699999V0202201N003010075019N0500001N1+00731+00531100111ADDAA199000091GF107991061051008001031011KA1999M+01071MD1710101+9999REMSYN070AAXX  11091 31088 32599 72203 10073 20053 40011 57010 86531 333 10107;EQDQ01  00002PRCP99
0186310880999992000061112004+59370+143200FM-12+000699999V0202301N002010075019N0500001N1+00701+00401100021ADDAA199000091GF107991051051008001031011KA1999M+01071MA1999999099951MD1710091+9999REMSYN076AAXX  11121 31088 32599 72302 10070 20040 39995 40002 57009 85531 333 10107;EQDQ01  00002PRCP99
0140310880999992000061115004+59370+143200FM-12+000699999V0202001N001010075019N0200001N1+00641+00431099891ADDAY151031AY221031GF108991061051008001071999MD1710131+9999MW1631REMSYN066AAXX  11151 31088 41598 82001 10064 20043 49989 57013 76352 8657/;
0140310880999992000061118004+59370+143200FM-12+000699999V0201701N001010042019N0100001N1+00571+00481099801ADDAY151061AY221061GF108991081061004501999999MD1710091+9999MW1631REMSYN066AAXX  11181 31088 41497 81701 10057 20048 49980 57009 76352 886//;
0140310880999992000061121004+59370+143200FM-12+000699999V0201401N002010042019N0100001N1+00561+00471099701ADDAY161031AY221031GF108991081061004501999999MD1710101+9999MW1631REMSYN066AAXX  11211 31088 /1497 81402 10056 20047 49970 57010 76362 886//;
0207310880999992000061200004+59370+143200FM-12+000699999V0200201N001010042019N0100001N1+00651+00511099611ADDAA100011991AY181061AY261061GF108991081091004501999999KA1120N+00541MA1999999099541MD1710091+9999MW1811REMSYN094AAXX  12001 31088 11497 80201 10065 20051 39954 49961 57009 60120 78186 889// 333 20054 55032;
0140310880999992000061203004+59370+143200FM-12+000699999V0200101N003010042019N0100001N1+00831+00701099511ADDAY181031AY221031GF108991081091004501999999MD1710101+9999MW1801REMSYN066AAXX  12031 31088 41497 80103 10083 20070 49951 57010 78082 889//;
0140310880999992000061206004+59370+143200FM-12+000699999V0200101N001010042019N0200001N1+00961+00681099381ADDAY181061AY221061GF108991081091004501999999MD1710131+9999MW1801REMSYN066AAXX  12061 31088 41498 80101 10096 20068 49938 57013 78082 889//;
0163310880999992000061209004+59370+143200FM-12+000699999V0200101N001010042019N0200001N1+00991+00761099361ADDAY181031AY221031GF108991081091004501999999KA1999M+01031MD1610021+9999MW1801REMSYN076AAXX  12091 31088 /1498 80101 10099 20076 49936 56002 78082 889// 333 10103;
0201310880999992000061212004+59370+143200FM-12+000699999V0203601N001010075019N0200001N1+00921+00771099391ADDAA100005191AY181061AY221061GF108991081091008001999999KA1999M+01031MA1999999099321MD1310031+9999MW1801REMSYN088AAXX  12121 31088 11598 83601 10092 20077 39932 49939 53003 60050 78082 889// 333 10103;
0140310880999992000061215004+59370+143200FM-12+000699999V0200201N001010075019N0200001N1+00811+00731099351ADDAY181031AY261031GF108991081051008001999999MD1810041+9999MW1611REMSYN066AAXX  12151 31088 41598 80201 10081 20073 49935 58004 76186 885//;
0140310880999992000061218004+59370+143200FM-12+000699999V0202101N003010075019N0100001N1+00651+00581099521ADDAY181061AY261061GF108991081051008001999999MD1310171+9999MW1611REMSYN066AAXX  12181 31088 41597 82103 10065 20058 49952 53017 76186 885//;
0140310880999992000061221004+59370+143200FM-12+000699999V0202701N002010075019N0500001N1+00691+00601099661ADDAY161031AY221031GF107991061051008001051001MD1210141+9999MW1011REMSYN066AAXX  12211 31088 /1599 72702 10069 20060 49966 52014 70162 86550;
0207310880999992000061300004+59370+143200FM-12+000699999V0202801N002010075019N0500001N1+00921+00761099791ADDAA100003091AY161061AY221061GF107991061031008001031001KA1120N+00631MA1999999099721MD1210131+9999MW1021REMSYN094AAXX  13001 31088 11599 72802 10092 20076 39972 49979 52013 60030 70262 86330 333 20063 55000;
0112310880999992000061303004+59370+143200FM-12+000699999V0202301N003010075019N0500001N1+01091+00821099881ADDGF107991051051008001031001MD1210091+9999REMSYN060AAXX  13031 31088 42599 72303 10109 20082 49988 52009 85530;
0112310880999992000061306004+59370+143200FM-12+000699999V0202501N003010075019N0500001N1+00931+00651100011ADDGF106991051051008001031001MD1210131+9999REMSYN060AAXX  13061 31088 42599 62503 10093 20065 40001 52013 85530;
0165310880999992000061309004+59370+143200FM-12+000699999V0202501N003010075019N0500001N1+00831+00611100101ADDAA199000091GF105991051051008001001001KA1999M+01121MD1210091+9999REMSYN070AAXX  13091 31088 32599 52503 10083 20061 40010 52009 85500 333 10112;EQDQ01  00002PRCP99
0186310880999992000061312004+59370+143200FM-12+000699999V0202501N003010075019N0500001N1+00851+00551100281ADDAA199000091GF107991061051008001001011KA1999M+01121MA1999999100211MD1310181+9999REMSYN076AAXX  13121 31088 32599 72503 10085 20055 30021 40028 53018 86501 333 10112;EQDQ01  00002PRCP99
0112310880999992000061315004+59370+143200FM-12+000699999V0202001N003010075019N0500001N1+00731+00481100361ADDGF107991051051008001031011MD1110081+9999REMSYN060AAXX  13151 31088 42599 72003 10073 20048 40036 51008 85531;
0138310880999992000061318004+59370+143200FM-12+000699999V0209999C000010066019N0500001N1+00681+00471100371ADDGA1061+006609059GF107991061051008001041011MD1110011+9999REMSYN070AAXX  13181 31088 42599 70000 10068 20047 40037 51001 86541 333 86622;
0142310880999992000061321004+59360+143200FM-12+000699999V0203601N001010075019N0500001N1+00861+00531100341ADDAA199000091GF107991051051008001041011MD1810031+9999REMSYN060AAXX  13211 31088 32599 73601 10086 20053 40034 58003 85541;EQDQ01  00002PRCP99
0192310880999992000061400004+59360+143200FM-12+000699999V0202601N002012200019N0500001N1+01151+00781100241ADDAA199000091GF102991021051008001001001KA1120N+00671MA1999999100171MD1810101+9999REMSYN082AAXX  14001 31088 32599 22602 10115 20078 30017 40024 58010 82500 333 20067 55090;EQDQ01  00002PRCP99
0112310880999992000061403004+59360+143200FM-12+000699999V0202401N005012200019N0500001N1+01041+00851100161ADDGF106991021011008001001041MD1710081+9999REMSYN060AAXX  14031 31088 42599 62405 10104 20085 40016 57008 82104;
0112310880999992000061406004+59360+143200FM-12+000699999V0202201N005010042019N0500001N1+01071+00801100111ADDGF107991061051004501051021MD1710051+9999REMSYN060AAXX  14061 31088 42499 72205 10107 20080 40011 57005 86552;
0187310880999992000061409004+59360+143200FM-12+000699999V0202201N003010030019N0200001N1+00911+00781100111ADDAA199000091GA1061+003009069GF108991081061004501999999KA1120M+01211MD1410001+9999REMSYN076AAXX  14091 31088 32498 82203 10091 20078 40011 54000 886// 333 10121 86710;EQDQ01  00002PRCP99
0208310880999992000061412004+59360+143200FM-12+000699999V0202001N006010030019N0500001N1+00811+00641100101ADDAA199000091GA1081+003009069GF108991081061004501999999KA1120M+01211MA1999999100031MD1810011+9999REMSYN082AAXX  14121 31088 32499 82006 10081 20064 30003 40010 58001 886// 333 10121 88710;EQDQ01  00002PRCP99
0138310880999992000061415004+59360+143200FM-12+000699999V0202001N006010030019N0200001N1+00801+00611100071ADDGA1081+003009069GF108991081061004501999999MD1710031+9999REMSYN070AAXX  14151 31088 42498 82006 10080 20061 40007 57003 886// 333 88710;
0138310880999992000061418004+59360+143200FM-12+000699999V0202001N005010030019N0200001N1+00771+00591100071ADDGA1081+003009069GF108991081061004501999999MD1410001+9999REMSYN070AAXX  14181 31088 42498 82005 10077 20059 40007 54000 886// 333 88710;
0168310880999992000061421004+59360+143200FM-12+000699999V0202301N004010030019N0200001N1+00741+00561100061ADDAA199000091GA1081+003009069GF108991081061004501999999MD1810011+9999REMSYN070AAXX  14211 31088 32498 82304 10074 20056 40006 58001 886// 333 88710;EQDQ01  00002PRCP99
0201310880999992000061500004+59360+143200FM-12+000699999V0202001N003010021019N0200001N1+00731+00621100111ADDAA199000021AY181061AY221061GF108991081061002501999999KA1120N+00731MA1999999100041MD1310051+9999MW1801REMSYN088AAXX  15001 31088 31398 82003 10073 20062 30004 40011 53005 78082 886// 333 20073 55112;
0166310880999992000061503004+59360+143200FM-12+000699999V0201801N002010027019N0200001N1+00751+00641100071ADDAY181031AY221031GA1081+002709069GF108991081061002501999999MD1810041+9999MW1021REMSYN076AAXX  15031 31088 41398 81802 10075 20064 40007 58004 70282 886// 333 88709;
0166310880999992000061506004+59360+143200FM-12+000699999V0201601N004010027019N0200001N1+00741+00561100031ADDAY181061AY221061GA1081+002709069GF108991081061002501999999MD1710041+9999MW1021REMSYN076AAXX  15061 31088 41398 81604 10074 20056 40003 57004 70282 886// 333 88709;
0157310880999992000061509004+59360+143200FM-12+000699999V0201701N004010024019N0200001N1+00691+00561100071ADDGA1081+002409069GF108991081061002501999999KA1120M+00801MD1310041+9999REMSYN076AAXX  15091 31088 /2398 81704 10069 20056 40007 53004 886// 333 10080 88708;
0201310880999992000061512004+59360+143200FM-12+000699999V0201301N003010021019N0020001N1+00661+00591100181ADDAA100000891AY151061AY221061GF108991081061002501999999KA1999M+00801MA1999999100111MD1210111+9999MW1511REMSYN088AAXX  15121 31088 11395 81303 10066 20059 30011 40018 52011 69970 75152 886// 333 10080;
0140310880999992000061515004+59360+143200FM-12+000699999V0201001N002010021019N0020001N1+00631+00611100161ADDAY151031AY221031GF108991081061002501999999MD1810021+9999MW1511REMSYN066AAXX  15151 31088 41395 81002 10063 20061 40016 58002 75152 886//;
0166310880999992000061518004+59360+143200FM-12+000699999V0209999C000010030019N0200001N1+00611+00561100221ADDAY151061AY221061GA1061+003009069GF108991081061004501999999MD1310061+9999MW1021REMSYN076AAXX  15181 31088 41498 80000 10061 20056 40022 53006 70252 886// 333 86710;
0138310880999992000061521004+59360+143200FM-12+000699999V0201101N002010030019N0200001N1+00681+00641100331ADDGA1071+003009069GF108991081061004501999999MD1210111+9999REMSYN070AAXX  15211 31088 /2498 81102 10068 20064 40033 52011 886// 333 87710;
0237310880999992000061600004+59360+143200FM-12+000699999V0201201N004010066019N0200001N1+00741+00621100351ADDAA100000591AY181061AY221061GA1061+006609029GF108991081031008001999999GJ100009KA1120N+00591MA1999999100281MD1110021+9999MW1021REMSYN100AAXX  16001 31088 11598 81204 10074 20062 30028 40035 51002 69940 70282 883// 333 20059 55000 86822;
0140310880999992000061603004+59360+143200FM-12+000699999V0200901N005010075019N0200001N1+00741+00671100501ADDAY181031AY221031GF108991071091008001999999MD1310151+9999MW1801REMSYN066AAXX  16031 31088 41598 80905 10074 20067 40050 53015 78082 879//;
0140310880999992000061606004+59360+143200FM-12+000699999V0201101N005010075019N0040001N1+00691+00581100531ADDAY181061AY221061GF108991071091008001999999MD1110031+9999MW1811REMSYN066AAXX  16061 31088 41596 81105 10069 20058 40053 51003 78182 879//;
0163310880999992000061609004+59360+143200FM-12+000699999V0201301N006010075019N0040001N1+00631+00561100641ADDAY181031AY221031GF108991081091008001999999KA1999M+00821MD1310111+9999MW1811REMSYN076AAXX  16091 31088 /1596 81306 10063 20056 40064 53011 78182 889// 333 10082;
0223310880999992000061612004+59360+143200FM-12+000699999V0201301N004010030019N0200001N1+00591+00451100731ADDAA100003091AY181061AY221061GA1061+003009069GF108991081031004501999999KA1120M+00821MA1999999100661MD1210091+9999MW1021REMSYN094AAXX  16121 31088 11498 81304 10059 20045 30066 40073 52009 60030 70282 883// 333 10082 86710;
0121310880999992000061618004+59360+143200FM-12+000699999V0200701N003019999999N0200001N1+00551+00381100741ADDGF108991999999004501999999MD1410001+9999REMSYN069AAXX  16181 31088 42498 80703 10055 20038 40074 54000 883/ 333 85710;
0166310880999992000061621004+59360+143200FM-12+000699999V0200801N003010030019N0200001N1+00551+00381100841ADDAY181031AY221031GA1081+003009069GF108991081061004501999999MD1310101+9999MW1251REMSYN076AAXX  16211 31088 /1498 80803 10055 20038 40084 53010 72582 886// 333 88710;
0207310880999992000061700004+59360+143200FM-12+000699999V0200101N003010042019N0200001N1+00541+00451100871ADDAA100001091AY181061AY221061GF108991081061004501999999KA1120N+00531MA1999999100801MD1210031+9999MW1801REMSYN094AAXX  17001 31088 11498 80103 10054 20045 30080 40087 52003 69990 78082 886// 333 20053 55000;
0140310880999992000061703004+59360+143200FM-12+000699999V0200201N002010075019N0200001N1+00631+00541100931ADDAY181031AY221031GF108991081091008001999999MD1210061+9999MW1811REMSYN066AAXX  17031 31088 41598 80202 10063 20054 40093 52006 78182 889//;
0140310880999992000061706004+59360+143200FM-12+000699999V0201301N002010042019N0200001N1+00621+00531101011ADDAY181061AY221061GF108991081061004501999999MD1210081+9999MW1801REMSYN066AAXX  17061 31088 42498 81302 10062 20053 40101 52008 78082 886//;
0185310880999992000061709004+59360+143200FM-12+000699999V0201301N003010081019N0200001N1+00601+00491101121ADDAY181031AY221031GA1061+008109059GF108991081061004501999999KA1120M+00661MD1210111+9999MW1021REMSYN082AAXX  17091 31088 /1498 81303 10060 20049 40112 52011 70282 886// 333 10066 86627;
0223310880999992000061712004+59360+143200FM-12+000699999V0209999C000010060019N0200001N1+00651+00611101201ADDAA100007991AY181061AY221061GA1081+006009059GF108991081051008001999999KA1120M+00661MA1999999101131MD1210081+9999MW1021REMSYN094AAXX  17121 31088 11598 80000 10065 20061 30113 40120 52008 60080 70282 885// 333 10066 88620;
0138310880999992000061715004+59360+143200FM-12+000699999V0209999C000010069019N0200001N1+00611+00561101161ADDGA1081+006909059GF108991081051008001999999MD1810041+9999REMSYN070AAXX  17151 31088 42598 80000 10061 20056 40116 58004 885// 333 88623;
0138310880999992000061718004+59360+143200FM-12+000699999V0209999C000010081019N0500001N1+00661+00641101171ADDGA1081+008109059GF108991081051008001999999MD1310011+9999REMSYN070AAXX  17181 31088 42599 80000 10066 20064 40117 53001 885// 333 88627;
0168310880999992000061721004+59360+143200FM-12+000699999V0201801N002010075019N0200001N1+00681+00661101181ADDAA199000091GA1051+007509059GF108991081061004501999999MD1210011+9999REMSYN070AAXX  17211 31088 32498 81802 10068 20066 40118 52001 886// 333 85625;EQDQ01  00002PRCP99
0222310880999992000061800004+59360+143200FM-12+000699999V0201701N004010069019N0200001N1+00651+00471101221ADDAA199000091GA1081+006909059GF108991081061004501999999GJ100009KA1120N+00571MA1999999101151MD1210041+9999REMSYN088AAXX  18001 31088 32498 81704 10065 20047 30115 40122 52004 886// 333 20057 55000 88623;EQDQ01  00002PRCP99
0140310880999992000061803004+59360+143200FM-12+000699999V0201901N002010075019N0200001N1+00611+00471101231ADDAY181031AY221031GF108991081091008001999999MD1210011+9999MW1251REMSYN066AAXX  18031 31088 41598 81902 10061 20047 40123 52001 72582 889//;
0166310880999992000061806004+59360+143200FM-12+000699999V0201701N002010069019N0500001N1+00651+00541101251ADDAY181061AY221061GA1061+006909059GF108991081031004501999999MD1210021+9999MW1801REMSYN076AAXX  18061 31088 41499 81702 10065 20054 40125 52002 78082 883// 333 86623;
0185310880999992000061809004+59360+143200FM-12+000699999V0202001N002010069019N0500001N1+00631+00471101191ADDAY181031AY221031GA1081+006909059GF108991081051008001999999KA1120M+00701MD1810061+9999MW1021REMSYN082AAXX  18091 31088 /1599 82002 10063 20047 40119 58006 70282 885// 333 10070 88623;
0223310880999992000061812004+59360+143200FM-12+000699999V0201601N003010081019N0500001N1+00631+00491101111ADDAA100001091AY181061AY221061GA1081+008109059GF108991081051008001999999KA1120M+00701MA1999999101041MD1710081+9999MW1021REMSYN094AAXX  18121 31088 11599 81603 10063 20049 30104 40111 57008 60010 70282 885// 333 10070 88627;
0138310880999992000061815004+59360+143200FM-12+000699999V0203401N001010081019N0500001N1+00561+00471100971ADDGA1081+008109059GF108991081051008001999999MD1710141+9999REMSYN070AAXX  18151 31088 42599 83401 10056 20047 40097 57014 885// 333 88627;
0140310880999992000061818004+59360+143200FM-12+000699999V0203401N002010075019N0200001N1+00551+00461100901ADDAY181061AY221061GF108991081091008001999999MD1710071+9999MW1801REMSYN066AAXX  18181 31088 41598 83402 10055 20046 40090 57007 78082 889//;
0140310880999992000061821004+59360+143200FM-12+000699999V0200301N001010075019N0200001N1+00621+00551100881ADDAY181031AY221031GF108991081091008001999999MD1610021+9999MW1801REMSYN066AAXX  18211 31088 /1598 80301 10062 20055 40088 56002 78082 889//;
0237310880999992000061900004+59360+143200FM-12+000699999V0201901N002010066019N0200001N1+00631+00591100881ADDAA100001091AY181061AY221061GA1061+006609059GF108991081091008001999999GJ100009KA1120N+00541MA1999999100811MD1410001+9999MW1251REMSYN100AAXX  19001 31088 11598 81902 10063 20059 30081 40088 54000 69990 72582 889// 333 20054 55000 86622;
0138310880999992000061903004+59360+143200FM-12+000699999V0209999C000010030019N0200001N1+00761+00671100881ADDGA1051+003009069GF108991081031004501999999MD1410001+9999REMSYN070AAXX  19031 31088 42498 80000 10076 20067 40088 54000 883// 333 85710;
0138310880999992000061906004+59360+143200FM-12+000699999V0202001N001010030019N0200001N1+00771+00681100851ADDGA1061+003009069GF108991081091004501999999MD1810031+9999REMSYN070AAXX  19061 31088 42498 82001 10077 20068 40085 58003 889// 333 86710;
0157310880999992000061909004+59360+143200FM-12+000699999V0201701N003010030019N0200001N1+00691+00601100881ADDGA1071+003009069GF108991081061004501999999KA1120M+00811MD1310031+9999REMSYN076AAXX  19091 31088 /2498 81703 10069 20060 40088 53003 886// 333 10081 87710;
0195310880999992000061912004+59360+143200FM-12+000699999V0201401N002010030019N0200001N1+00671+00561100941ADDAA100000791GA1071+003009069GF108991081061004501999999KA1120M+00811MA1999999100871MD1210061+9999REMSYN088AAXX  19121 31088 12498 81402 10067 20056 30087 40094 52006 69900 886// 333 10081 87710;
0140310880999992000061915004+59360+143200FM-12+000699999V0201601N003010021019N0100001N1+00631+00541100931ADDAY151031AY221031GF108991081061002501999999MD1810011+9999MW1511REMSYN066AAXX  19151 31088 41397 81603 10063 20054 40093 58001 75152 886//;
0140310880999992000061918004+59360+143200FM-12+000699999V0201801N001010042019N0200001N1+00611+00541100951ADDAY161061AY221061GF108991081061004501999999MD1310021+9999MW1511REMSYN066AAXX  19181 31088 41498 81801 10061 20054 40095 53002 75162 886//;
0166310880999992000061921004+59360+143200FM-12+000699999V0201501N002010030019N0200001N1+00601+00531100951ADDAY151031AY221031GA1081+003009069GF108991081061004501999999MD1410001+9999MW1021REMSYN076AAXX  19211 31088 /1498 81502 10060 20053 40095 54000 70252 886// 333 88710;
0237310880999992000062000004+59360+143200FM-12+000699999V0201901N002010024019N0200001N1+00591+00521100981ADDAA100000891AY151061AY221061GA1081+002409069GF108991081061002501999999GJ100009KA1120N+00591MA1999999100911MD1310031+9999MW1021REMSYN100AAXX  20001 31088 11398 81902 10059 20052 30091 40098 53003 69980 70252 886// 333 20059 55000 88708;
0138310880999992000062003004+59360+143200FM-12+000699999V0202001N002010072019N0200001N1+00731+00621100961ADDGA1051+007209059GF107991071051002501001001MD1810021+9999REMSYN070AAXX  20031 31088 42398 72002 10073 20062 40096 58002 87500 333 85624;
0138310880999992000062006004+59360+143200FM-12+000699999V0202001N003010069019N0200001N1+00811+00591100891ADDGA1051+006909059GF108991081051002501999999MD1710071+9999REMSYN070AAXX  20061 31088 42398 82003 10081 20059 40089 57007 885// 333 85623;
0187310880999992000062009004+59360+143200FM-12+000699999V0202001N003010024019N0200001N1+00591+00451100881ADDAA199000091GA1081+002409069GF108991081061002501999999KA1120M+00871MD1610011+9999REMSYN076AAXX  20091 31088 32398 82003 10059 20045 40088 56001 886// 333 10087 88708;EQDQ01  00002PRCP99
0208310880999992000062012004+59360+143200FM-12+000699999V0201801N002010024019N0100001N1+00511+00461100881ADDAA199000091GA1081+002409069GF108991081061002501999999KA1120M+00871MA1999999100811MD1410001+9999REMSYN082AAXX  20121 31088 32397 81802 10051 20046 30081 40088 54000 886// 333 10087 88708;EQDQ01  00002PRCP99
0138310880999992000062015004+59360+143200FM-12+000699999V0202001N002010024019N0200001N1+00431+00361100871ADDGA1081+002409069GF108991081061002501999999MD1810011+9999REMSYN070AAXX  20151 31088 42398 82002 10043 20036 40087 58001 886// 333 88708;
0138310880999992000062018004+59360+143200FM-12+000699999V0202401N001010027019N0200001N1+00461+00391100831ADDGA1061+002709069GF108991081061002501999999MD1710041+9999REMSYN070AAXX  20181 31088 42398 82401 10046 20039 40083 57004 886// 333 86709;
0140310880999992000062021004+59360+143200FM-12+000699999V0201801N002010021019N0020001N1+00491+00421100831ADDAY151031AY221031GF107991071061002501001001MD1410001+9999MW1511REMSYN066AAXX  20211 31088 /1395 71802 10049 20042 40083 54000 75152 87600;
0207310880999992000062100004+59360+143200FM-12+000699999V0201701N004010021019N0020001N1+00591+00541100781ADDAA100000791AY151061AY221061GF108991081061002501999999KA1120N+00361MA1999999100711MD1810051+9999MW1511REMSYN094AAXX  21001 31088 11395 81704 10059 20054 30071 40078 58005 69900 75152 886// 333 20036 55013;
0166310880999992000062103004+59360+143200FM-12+000699999V0202001N006010021019N0040001N1+00641+00531100791ADDAY151031AY221031GA1071+002109069GF107991071061002501001001MD1310011+9999MW1201REMSYN076AAXX  21031 31088 41396 72006 10064 20053 40079 53001 72052 87600 333 87707;
0140310880999992000062106004+59360+143200FM-12+000699999V0202001N005010042019N0200001N1+00661+00401100801ADDAY151061AY221061GF107991061061004501031011MD1210011+9999MW1011REMSYN066AAXX  21061 31088 41498 72005 10066 20040 40080 52001 70152 86631;
0163310880999992000062109004+59360+143200FM-12+000699999V0201901N005010042019N0200001N1+00551+00481100751ADDAY181031AY221031GF108991081091004501999999KA1999M+00701MD1810051+9999MW1801REMSYN076AAXX  21091 31088 /1498 81905 10055 20048 40075 58005 78082 889// 333 10070;
0223310880999992000062112004+59360+143200FM-12+000699999V0201901N006010030019N0200001N1+00571+00501100781ADDAA100000791AY181061AY221061GA1081+003009069GF108991081061004501999999KA1120M+00701MA1999999100711MD1310031+9999MW1021REMSYN094AAXX  21121 31088 11498 81906 10057 20050 30071 40078 53003 69900 70282 886// 333 10070 88710;
0166310880999992000062115004+59360+143200FM-12+000699999V0202001N006010030019N0200001N1+00581+00491100691ADDAY181031AY221031GA1081+003009069GF108991081061004501999999MD1810091+9999MW1251REMSYN076AAXX  21151 31088 41498 82006 10058 20049 40069 58009 72582 886// 333 88710;
0140310880999992000062118004+59360+143200FM-12+000699999V0202001N005010021019N0020001N1+00571+00521100681ADDAY181061AY251061GF108991081061002501999999MD1610011+9999MW1531REMSYN066AAXX  21181 31088 41395 82005 10057 20052 40068 56001 75385 886//;
0140310880999992000062121004+59360+143200FM-12+000699999V0201901N004010021019N0040001N1+00581+00511100721ADDAY181031AY221031GF108991081061002501999999MD1310041+9999MW1811REMSYN066AAXX  21211 31088 /1396 81904 10058 20051 40072 53004 78182 886//;
0207310880999992000062200004+59360+143200FM-12+000699999V0201801N001010021019N0200001N1+00611+00521100771ADDAA100003091AY181061AY251061GF108991081061002501999999KA1120N+00511MA1999999100701MD1210051+9999MW1801REMSYN094AAXX  22001 31088 11398 81801 10061 20052 30070 40077 52005 60030 78085 886// 333 20051 55005;
0166310880999992000062203004+59360+143200FM-12+000699999V0201801N001010027019N0200001N1+00721+00591100821ADDAY181031AY221031GA1071+002709069GF108991081061004501999999MD1210051+9999MW1021REMSYN076AAXX  22031 31088 41498 81801 10072 20059 40082 52005 70282 886// 333 87709;
0140310880999992000062206004+59360+143200FM-12+000699999V0201601N002010021019N0200001N1+00761+00531100851ADDAY181061AY221061GF107991071061002501001001MD1210031+9999MW1021REMSYN066AAXX  22061 31088 41398 71602 10076 20053 40085 52003 70282 87600;
0154310880999992000062209004+59360+143200FM-12+000699999V0201601N005019999999N0200001N1+00661+00521100871ADDGF107991999061002501001001KA1999M+00781MD1210021+9999REMSYN070AAXX  22091 31088 /2398 71605 10066 20052 40087 52002 88600 333 10078;EQDQ01+000082SCOTLC
0195310880999992000062212004+59360+143200FM-12+000699999V0201601N006010021019N0200001N1+00631+00591100971ADDAA100002091GA1081+002109069GF108991081061002501999999KA1120M+00781MA1999999100901MD1310101+9999REMSYN088AAXX  22121 31088 12398 81606 10063 20059 30090 40097 53010 60020 886// 333 10078 88707;
0140310880999992000062215004+59360+143200FM-12+000699999V0201701N004010021019N0020001N1+00611+00591100951ADDAY151031AY221031GF108991081061002501999999MD1810021+9999MW1531REMSYN066AAXX  22151 31088 41395 81704 10061 20059 40095 58002 75352 886//;
0140310880999992000062218004+59360+143200FM-12+000699999V0201601N004010021019N0020001N1+00591+00571101001ADDAY151061AY221061GF108991081061002501999999MD1310051+9999MW1511REMSYN066AAXX  22181 31088 41395 81604 10059 20057 40100 53005 75152 886//;
0140310880999992000062221004+59360+143200FM-12+000699999V0201201N004010021019N0020001N1+00641+00621101041ADDAY151031AY221031GF108991081061002501999999MD1210041+9999MW1531REMSYN066AAXX  22211 31088 /1395 81204 10064 20062 40104 52004 75352 886//;
0237310880999992000062300004+59360+143200FM-12+000699999V0201801N003010027019N0200001N1+00691+00591101031ADDAA100000591AY151061AY221061GA1081+002709069GF108991081061002501999999GJ100429KA1120N+00551MA1999999100961MD1810011+9999MW1021REMSYN100AAXX  23001 31088 11398 81803 10069 20059 30096 40103 58001 69960 70252 886// 333 20055 55007 88709;
0138310880999992000062303004+59360+143200FM-12+000699999V0201901N003010069019N0200001N1+00801+00671100991ADDGA1061+006909059GF108991081061004501999999MD1710041+9999REMSYN070AAXX  23031 31088 42498 81903 10080 20067 40099 57004 886// 333 86623;
0112310880999992000062306004+59360+143200FM-12+000699999V0201901N004010042019N0500001N1+00821+00671100961ADDGF107991071061004501041011MD1710031+9999REMSYN060AAXX  23061 31088 42499 71904 10082 20067 40096 57003 87641;
0157310880999992000062309004+59360+143200FM-12+000699999V0202201N005010024019N0200001N1+00721+00591101011ADDGA1081+002409069GF108991081061002501999999KA1120M+00901MD1310051+9999REMSYN076AAXX  23091 31088 /2398 82205 10072 20059 40101 53005 886// 333 10090 88708;
0195310880999992000062312004+59360+143200FM-12+000699999V0201801N002010024019N0200001N1+00681+00611101151ADDAA100000791GA1081+002409069GF108991081061002501999999KA1120M+00901MA1999999101081MD1210141+9999REMSYN088AAXX  23121 31088 12398 81802 10068 20061 30108 40115 52014 69900 886// 333 10090 88708;
0140310880999992000062315004+59360+143200FM-12+000699999V0201701N002010021019N0040001N1+00611+00541101211ADDAY151031AY221031GF108991081061002501999999MD1210061+9999MW1511REMSYN066AAXX  23151 31088 41396 81702 10061 20054 40121 52006 75152 886//;
0166310880999992000062318004+59360+143200FM-12+000699999V0201901N002010024019N0040001N1+00591+00501101261ADDAY151061AY221061GA1081+002409069GF108991081061002501999999MD1210051+9999MW1101REMSYN076AAXX  23181 31088 41396 81902 10059 20050 40126 52005 71052 886// 333 88708;
0140310880999992000062321004+59360+143200FM-12+000699999V0202001N001010021019N0040001N1+00611+00541101261ADDAY151031AY221031GF108991081061002501999999MD1410001+9999MW1511REMSYN066AAXX  23211 31088 /1396 82001 10061 20054 40126 54000 75152 886//;
0237310880999992000062400004+59360+143200FM-12+000699999V0202001N001010027019N0040001N1+00621+00581101301ADDAA100000191AY151061AY221061GA1081+002709069GF108991081061002501999999GJ101149KA1120N+00571MA1999999101231MD1310041+9999MW1101REMSYN100AAXX  24001 31088 11396 82001 10062 20058 30123 40130 53004 69910 71052 886// 333 20057 55019 88709;
0166310880999992000062403004+59360+143200FM-12+000699999V0202301N002010027019N0040001N1+00611+00541101281ADDAY121031AY221031GA1061+002709069GF108991081061002501999999MD1810021+9999MW1101REMSYN076AAXX  24031 31088 41396 82302 10061 20054 40128 58002 71022 886// 333 86709;
0138310880999992000062406004+59360+143200FM-12+000699999V0202001N001010027019N0200001N1+00661+00571101091ADDGA1061+002709069GF108991081061002501999999MD1810191+9999REMSYN070AAXX  24061 31088 42398 82001 10066 20057 40109 58019 886// 333 86709;
0185310880999992000062409004+59360+143200FM-12+000699999V0202201N002010024019N0020001N1+00651+00581101041ADDAY121031AY221031GA1081+002409069GF108991081061002501999999KA1120M+00731MD1610051+9999MW1101REMSYN082AAXX  24091 31088 /1395 82202 10065 20058 40104 56005 71022 886// 333 10073 88708;
0223310880999992000062412004+59360+143200FM-12+000699999V0202401N004010024019N0040001N1+00621+00551100981ADDAA100000791AY121061AY221061GA1081+002409069GF108991081061002501999999KA1120M+00731MA1999999100911MD1710061+9999MW1101REMSYN094AAXX  24121 31088 11396 82404 10062 20055 30091 40098 57006 69900 71022 886// 333 10073 88708;
0140310880999992000062415004+59360+143200FM-12+000699999V0202401N002010021019N0040001N1+00651+00621100951ADDAY151031AY221031GF108991081061002501999999MD1710031+9999MW1511REMSYN066AAXX  24151 31088 41396 82402 10065 20062 40095 57003 75152 886//;
0140310880999992000062418004+59360+143200FM-12+000699999V0203101N002010042019N0100001N1+00691+00601100951ADDAY151061AY221061GF108991081061004501999999MD1410001+9999MW1511REMSYN066AAXX  24181 31088 41497 83102 10069 20060 40095 54000 75152 886//;
0166310880999992000062421004+59360+143200FM-12+000699999V0203501N00101004201CN0200001N1+00741+00411100901ADDAY151031AY221031GA1041+006909059GF108991081031004501999999MD1810051+9999MW1021REMSYN076AAXX  24211 31088 /1498 83501 10074 20041 40090 58005 70252 883// 333 84623;
0237310880999992000062500004+59360+143200FM-12+000699999V0202201N001010027019N0200001N1+00781+00651101051ADDAA100000391AY151061AY221061GA1061+002709069GF108991081061002501999999GJ100009KA1120N+00581MA1999999100981MD1310151+9999MW1021REMSYN100AAXX  25001 31088 11398 82201 10078 20065 30098 40105 53015 69930 70252 886// 333 20058 55000 86709;
0138310880999992000062503004+59360+143200FM-12+000699999V0202101N003010027019N0200001N1+00871+00611100991ADDGA1071+002709069GF107991071061002501001001MD1810061+9999REMSYN070AAXX  25031 31088 42398 72103 10087 20061 40099 58006 87600 333 87709;
0138310880999992000062506004+59360+143200FM-12+000699999V0202101N003010024019N0200001N1+00861+00681100911ADDGA1081+002409069GF108991081061002501999999MD1710081+9999REMSYN070AAXX  25061 31088 42398 82103 10086 20068 40091 57008 886// 333 88708;
0187310880999992000062509004+59360+143200FM-12+000699999V0202001N003010024019N0200001N1+00851+00701100861ADDAA199000091GA1061+002409069GF107991071061002501001001KA1120M+00961MD1710051+9999REMSYN076AAXX  25091 31088 32398 72003 10085 20070 40086 57005 87600 333 10096 86708;EQDQ01  00002PRCP99
0208310880999992000062512004+59360+143200FM-12+000699999V0201801N002010027019N0200001N1+00831+00731100871ADDAA199000091GA1051+002709059GF108991081061002501999999KA1120M+00961MA1999999100801MD1310011+9999REMSYN082AAXX  25121 31088 32398 81802 10083 20073 30080 40087 53001 886// 333 10096 85609;EQDQ01  00002PRCP99
0140310880999992000062515004+59360+143200FM-12+000699999V0201601N002010021019N0040001N1+00771+00701100881ADDAY151031AY221031GF108991081061002501999999MD1210011+9999MW1511REMSYN066AAXX  25151 31088 41396 81602 10077 20070 40088 52001 75152 886//;
0166310880999992000062518004+59360+143200FM-12+000699999V0201601N002010027019N0040001N1+00771+00681100881ADDAY151061AY221061GA1081+002709069GF108991081061002501999999MD1410001+9999MW1101REMSYN076AAXX  25181 31088 41396 81602 10077 20068 40088 54000 71052 886// 333 88709;
0140310880999992000062521004+59360+143200FM-12+000699999V0201301N001010021019N0040001N1+00791+00741100941ADDAY161031AY251031GF108991081061002501999999MD1310061+9999MW1631REMSYN066AAXX  25211 31088 /1396 81301 10079 20074 40094 53006 76365 886//;
0237310880999992000062600004+59360+143200FM-12+000699999V0201801N003010024019N0200001N1+00791+00731101001ADDAA100003091AY181061AY251061GA1061+002409069GF108991081061002501999999GJ100789KA1120N+00751MA1999999100931MD1210061+9999MW1201REMSYN100AAXX  26001 31088 11398 81803 10079 20073 30093 40100 52006 60030 72085 886// 333 20075 55013 86708;
0138310880999992000062603004+59360+143200FM-12+000699999V0201701N003010024019N0200001N1+00841+00761101081ADDGA1081+002409069GF108991081061002501999999MD1210081+9999REMSYN070AAXX  26031 31088 42398 81703 10084 20076 40108 52008 886// 333 88708;
0138310880999992000062606004+59360+143200FM-12+000699999V0201401N004010021019N0200001N1+00831+00771101071ADDGA1081+002109069GF108991081061002501999999MD1810011+9999REMSYN070AAXX  26061 31088 42398 81404 10083 20077 40107 58001 886// 333 88707;
0157310880999992000062609004+59360+143200FM-12+000699999V0201401N005010021019N0200001N1+00851+00771101051ADDGA1081+002109069GF108991081061002501999999KA1120M+00881MD1710021+9999REMSYN076AAXX  26091 31088 /2398 81405 10085 20077 40105 57002 886// 333 10088 88707;
0178310880999992000062612004+59360+143200FM-12+000699999V0201101N003010024019N0200001N1+00831+00701101101ADDGA1081+002409069GF108991081061002501999999KA1120M+00881MA1999999101031MD1310051+9999REMSYN082AAXX  26121 31088 12398 81103 10083 20070 30103 40110 53005 886// 333 10088 88708;
0138310880999992000062615004+59360+143200FM-12+000699999V0209999C000010027019N0200001N1+00821+00711101101ADDGA1081+002709069GF108991081061002501999999MD1410001+9999REMSYN070AAXX  26151 31088 42398 80000 10082 20071 40110 54000 886// 333 88709;
0166310880999992000062618004+59360+143200FM-12+000699999V0201001N002010024019N0200001N1+00831+00701101081ADDAY151061AY221061GA1081+002409069GF108991081061002501999999MD1810021+9999MW1201REMSYN076AAXX  26181 31088 41398 81002 10083 20070 40108 58002 72052 886// 333 88708;
0187310880999992000062621004+59360+143200FM-12+000699999V0201001N005010021019N0100001N1+00831+00731101081ADDAY181031AY221031GA1081+002109069GF108991081061002501999999MA1999999101011MD1410001+9999MW1251REMSYN082AAXX  26211 31088 /1397 81005 10083 20073 30101 40108 54000 72582 886// 333 88707;
0207310880999992000062700004+59360+143200FM-12+000699999V0201301N006010021019N0100001N1+00791+00701101071ADDAA100000891AY181061AY221061GF108991081061002501999999KA1120N+00791MA1999999101001MD1810011+9999MW1801REMSYN094AAXX  27001 31088 11397 81306 10079 20070 30100 40107 58001 69980 78082 886// 333 20079 55000;
0140310880999992000062703004+59360+143200FM-12+000699999V0201301N007010021019N0200001N1+00781+00671100941ADDAY181031AY251031GF108991081061002501999999MD1810131+9999MW1511REMSYN066AAXX  27031 31088 41398 81307 10078 20067 40094 58013 75185 886//;
0166310880999992000062706004+59360+143200FM-12+000699999V0201301N008010024019N0200001N1+00781+00671101081ADDAY181061AY251061GA1081+002409069GF108991081061002501999999MD1710141+9999MW1021REMSYN076AAXX  27061 31088 41398 81308 10078 20067 40108 57014 70285 886// 333 88708;
0157310880999992000062709004+59360+143200FM-12+000699999V0201101N004010021019N0200001N1+00751+00681101131ADDGA1081+002109069GF108991081061002501999999KA1120M+00861MD1310051+9999REMSYN076AAXX  27091 31088 /2398 81104 10075 20068 40113 53005 886// 333 10086 88707;
0201310880999992000062712004+59360+143200FM-12+000699999V0209999C000010021019N0040001N1+00751+00731101271ADDAA100001091AY151061AY221061GF108991081061002501999999KA1999M+00861MA1999999101201MD1210141+9999MW1511REMSYN088AAXX  27121 31088 11396 80000 10075 20073 30120 40127 52014 69990 75152 886// 333 10086;
0140310880999992000062715004+59360+143200FM-12+000699999V0201201N002010021019N0040001N1+00731+00681101311ADDAY151031AY221031GF108991081061002501999999MD1110041+9999MW1511REMSYN066AAXX  27151 31088 41396 81202 10073 20068 40131 51004 75152 886//;
0140310880999992000062718004+59360+143200FM-12+000699999V0209999C000010021019N0040001N1+00711+00671101411ADDAY151061AY221061GF108991081061002501999999MD1310101+9999MW1511REMSYN066AAXX  27181 31088 41396 80000 10071 20067 40141 53010 75152 886//;
0166310880999992000062721004+59360+143200FM-12+000699999V0201101N003010021019N0040001N1+00721+00651101491ADDAY151031AY221031GA1081+002109069GF108991081061002501999999MD1210081+9999MW1101REMSYN076AAXX  27211 31088 /1396 81103 10072 20065 40149 52008 71052 886// 333 88707;
0237310880999992000062800004+59360+143200FM-12+000699999V0201701N003010024019N0100001N1+00751+00641101551ADDAA100000391AY151061AY221061GA1081+002409069GF108991081061002501999999GJ100009KA1120N+00681MA1999999101481MD1210061+9999MW1021REMSYN100AAXX  28001 31088 11397 81703 10075 20064 30148 40155 52006 69930 70252 886// 333 20068 55000 88708;
0138310880999992000062803004+59360+143200FM-12+000699999V0201701N003010024019N0100001N1+00781+00671101581ADDGA1081+002409069GF108991081061002501999999MD1210031+9999REMSYN070AAXX  28031 31088 42397 81703 10078 20067 40158 52003 886// 333 88708;
0138310880999992000062806004+59360+143200FM-12+000699999V0201701N004010021019N0100001N1+00781+00621101611ADDGA1081+002109069GF108991081061002501999999MD1210031+9999REMSYN070AAXX  28061 31088 42397 81704 10078 20062 40161 52003 886// 333 88707;
0187310880999992000062809004+59360+143200FM-12+000699999V0201601N003010024019N0100001N1+00811+00681101671ADDAA199000091GA1081+002409069GF108991081061002501999999KA1120M+00861MD1210061+9999REMSYN076AAXX  28091 31088 32397 81603 10081 20068 40167 52006 886// 333 10086 88708;EQDQ01  00002PRCP99
0236310880999992000062812004+59360+143200FM-12+000699999V0209999C000010021019N0040001N1+00831+00731101771ADDAA199000091AY121061AY221061GA1081+002109069GF108991081061002501999999KA1120M+00861MA1999999101701MD1210101+9999MW1101REMSYN088AAXX  28121 31088 31396 80000 10083 20073 30170 40177 52010 71022 886// 333 10086 88707;EQDQ01  00002PRCP99
0140310880999992000062815004+59360+143200FM-12+000699999V0209999C000010021019N0040001N1+00811+00731101821ADDAY181031AY251031GF108991081061002501999999MD1210051+9999MW1511REMSYN066AAXX  28151 31088 41396 80000 10081 20073 40182 52005 75185 886//;
0140310880999992000062818004+59360+143200FM-12+000699999V0209999C000010021019N0040001N1+00791+00701101821ADDAY181061AY251061GF108991081061002501999999MD1410001+9999MW1511REMSYN066AAXX  28181 31088 41396 80000 10079 20070 40182 54000 75185 886//;
0140310880999992000062821004+59360+143200FM-12+000699999V0201201N003010021019N0020001N1+00751+00681101921ADDAY151031AY221031GF108991081061002501999999MD1310101+9999MW1531REMSYN066AAXX  28211 31088 /1395 81203 10075 20068 40192 53010 75352 886//;
0207310880999992000062900004+59360+143200FM-12+000699999V0201601N004010021019N0020001N1+00811+00771101941ADDAA100001091AY151061AY221061GF108991081061002501999999KA1120N+00741MA1999999101871MD1110021+9999MW1511REMSYN094AAXX  29001 31088 11395 81604 10081 20077 30187 40194 51002 60010 75152 886// 333 20074 55000;
0166310880999992000062903004+59360+143200FM-12+000699999V0201801N004010027019N0040001N1+00851+00781101901ADDAY151031AY221031GA1081+002709069GF108991081061002501999999MD1810041+9999MW1101REMSYN076AAXX  29031 31088 41396 81804 10085 20078 40190 58004 71052 886// 333 88709;
0166310880999992000062906004+59360+143200FM-12+000699999V0201601N005010027019N0040001N1+00841+00781101871ADDAY151061AY221061GA1081+002709069GF108991081061002501999999MD1710031+9999MW1101REMSYN076AAXX  29061 31088 41396 81605 10084 20078 40187 57003 71052 886// 333 88709;
0163310880999992000062909004+59360+143200FM-12+000699999V0202001N002010021019N0020001N1+00761+00701101851ADDAY151031AY221031GF108991081061002501999999KA1999M+00901MD1710021+9999MW1511REMSYN076AAXX  29091 31088 /1395 82002 10076 20070 40185 57002 75152 886// 333 10090;
0211310880999992000062912004+59360+143200FM-12+000699999V0209999C000010003019N0005001N1+00771+00701101831ADDAA100000791AY151061AY241061GA1091+999999999GF109991091999999999999999KA1999M+00901MA1999999101761MD1710021+9999MW1511REMSYN082AAXX  29121 31088 11/93 90000 10077 20070 30176 40183 57002 69900 75154 333 10090;
0150310880999992000062915004+59360+143200FM-12+000699999V0209999C000010003019N0005001N1+00791+00741101731ADDAY151031AY241031GA1091+999999999GF109991091999999999999999MD1810101+9999MW1451REMSYN060AAXX  29151 31088 41/93 90000 10079 20074 40173 58010 74554;
0150310880999992000062918004+59360+143200FM-12+000699999V0200201N001010003019N0005001N1+00791+00741101571ADDAY151061AY241061GA1091+999999999GF109991091999999999999999MD1810161+9999MW1451REMSYN060AAXX  29181 31088 41/93 90201 10079 20074 40157 58016 74554;
0138310880999992000062921004+59360+143200FM-12+000699999V0200201N00301004201CN0500001N1+00931+00861101421ADDGA1041+006909059GF107991071061004501071001MD1710151+9999REMSYN070AAXX  29211 31088 /2499 70203 10093 20086 40142 57015 87670 333 84623;
0192310880999992000063000004+59360+143200FM-12+000699999V0202801N003010030019N0200001N1+01011+00931101231ADDGA1081+003009069GF108991081061004501999999GJ100009KA1120N+00741MA1999999101161MD1710191+9999REMSYN088AAXX  30001 31088 11498 82803 10101 20093 30116 40123 57019 886// 333 20074 55000 88710;
0140310880999992000063003004+59360+143200FM-12+000699999V0209999C000010300019N0200001N1+01251+01131101101ADDAY161031AY221031GF108991021061004501021999MD1810201+9999MW1611REMSYN066AAXX  30031 31088 41498 80000 10125 20113 40110 58020 76162 8262/;
0140310880999992000063006004+59360+143200FM-12+000699999V0201801N001010042019N0200001N1+01231+01121101021ADDAY181061AY261061GF108991061091004501021999MD1610081+9999MW1801REMSYN066AAXX  30061 31088 41498 81801 10123 20112 40102 56008 78086 8692/;
0163310880999992000063009004+59360+143200FM-12+000699999V0201301N003010042019N0020001N1+00971+00891100911ADDAY181031AY251031GF108991081091004501999999KA1999M+01361MD1710111+9999MW1811REMSYN076AAXX  30091 31088 /1495 81303 10097 20089 40091 57011 78185 889// 333 10136;
0201310880999992000063012004+59360+143200FM-12+000699999V0201201N001010042019N0100001N1+00961+00901100851ADDAA100003091AY181061AY221061GF108991081091004501999999KA1999M+01361MA1999999100781MD1610061+9999MW1801REMSYN088AAXX  30121 31088 11497 81201 10096 20090 30078 40085 56006 60030 78082 889// 333 10136;
0140310880999992000063015004+59360+143200FM-12+000699999V0201101N002010042019N0040001N1+00931+00861100841ADDAY181031AY251031GF108991081061004501999999MD1710011+9999MW1511REMSYN066AAXX  30151 31088 41496 81102 10093 20086 40084 57001 75185 886//;
0140310880999992000063018004+59360+143200FM-12+000699999V0201301N003010042019N0040001N1+00781+00711100861ADDAY181061AY251061GF108991081061004501999999MD1310021+9999MW1531REMSYN066AAXX  30181 31088 41496 81303 10078 20071 40086 53002 75385 886//;
0140310880999992000063021004+59360+143200FM-12+000699999V0201201N003010042019N0040001N1+00781+00711100881ADDAY151031AY221031GF108991081061004501999999MD1210021+9999MW1511REMSYN066AAXX  30211 31088 /1496 81203 10078 20071 40088 52002 75152 886//;
0207310880999992000070100004+59360+143200FM-12+000699999V0201101N003010021019N0020001N1+00851+00781100901ADDAA100002091AY151061AY221061GF108991081061002501999999KA1120N+00751MA1999999100831MD1210021+9999MW1511REMSYN094AAXX  01001 31088 11395 81103 10085 20078 30083 40090 52002 60020 75152 886// 333 20075 55000;
0166310880999992000070103004+59360+143200FM-12+000699999V0201001N004010027019N0040001N1+00841+00761100951ADDAY151031AY221031GA1081+002709069GF108991081061002501999999MD1210051+9999MW1101REMSYN076AAXX  01031 31088 41396 81004 10084 20076 40095 52005 71052 886// 333 88709;
0166310880999992000070106004+59360+143200FM-12+000699999V0201401N004010030019N0200001N1+00891+00771100961ADDAY151061AY221061GA1051+003009069GF108991081051004501999999MD1110011+9999MW1021REMSYN076AAXX  01061 31088 41498 81404 10089 20077 40096 51001 70252 885// 333 85710;
0157310880999992000070109004+59360+143200FM-12+000699999V0201701N003010033019N0200001N1+00871+00741100951ADDGA1061+003309069GF108991081051004501999999KA1120M+00921MD1810011+9999REMSYN076AAXX  01091 31088 /2498 81703 10087 20074 40095 58001 885// 333 10092 86711;
0167310880999992000070112004+59360+143200FM-12+000699999V0201401N003010042019N0200001N1+00871+00811101011ADDAA199000021GF108991081051004501999999KA1999M+00921MA1999999100941MD1310061+9999REMSYN076AAXX  01121 31088 32498 81403 10087 20081 30094 40101 53006 885// 333 10092;
0140310880999992000070115004+59360+143200FM-12+000699999V0209999C000010042019N0200001N1+00841+00781100991ADDAY181031AY221031GF108991081091004501999999MD1710021+9999MW1801REMSYN066AAXX  01151 31088 41498 80000 10084 20078 40099 57002 78082 889//;
0166310880999992000070118004+59360+143200FM-12+000699999V0201501N003010069019N0500001N1+00791+00651101041ADDAY181061AY221061GA1061+006909059GF108991081051004501999999MD1310051+9999MW1021REMSYN076AAXX  01181 31088 41499 81503 10079 20065 40104 53005 70282 885// 333 86623;
0140310880999992000070121004+59360+143200FM-12+000699999V0201401N003010042019N0200001N1+00801+00701101101ADDAY181031AY221031GF108991081091004501999999MD1210061+9999MW1801REMSYN066AAXX  01211 31088 /1498 81403 10080 20070 40110 52006 78082 889//;
0237310880999992000070200004+59360+143200FM-12+000699999V0201601N003010069019N0200001N1+00801+00711101161ADDAA100004191AY181061AY221061GA1051+006909059GF108991081051004501999999GJ100009KA1120N+00771MA1999999101091MD1210061+9999MW1021REMSYN100AAXX  02001 31088 11498 81603 10080 20071 30109 40116 52006 60040 70282 885// 333 20077 55000 85623;
0166310880999992000070203004+59360+143200FM-12+000699999V0201901N002010069019N0040001N1+00871+00771101191ADDAY121031AY221031GA1061+006909059GF108991081051004501999999MD1210031+9999MW1101REMSYN076AAXX  02031 31088 41496 81902 10087 20077 40119 52003 71022 885// 333 86623;
0138310880999992000070206004+59360+143200FM-12+000699999V0201601N002010075019N0200001N1+00911+00771101251ADDGA1061+007509059GF108991081051004501999999MD1210061+9999REMSYN070AAXX  02061 31088 42498 81602 10091 20077 40125 52006 885// 333 86625;
0157310880999992000070209004+59360+143200FM-12+000699999V0201501N004010075019N0500001N1+00881+00671101271ADDGA1071+007509069GF108991081051004501999999KA1120M+01011MD1210021+9999REMSYN076AAXX  02091 31088 /2499 81504 10088 20067 40127 52002 885// 333 10101 87725;
0195310880999992000070212004+59360+143200FM-12+000699999V0201401N003010066019N0200001N1+00881+00731101291ADDAA100001091GA1061+006609059GF108991081051004501999999KA1120M+01011MA1999999101221MD1210021+9999REMSYN088AAXX  02121 31088 12498 81403 10088 20073 30122 40129 52002 60010 885// 333 10101 86622;
0138310880999992000070215004+59360+143200FM-12+000699999V0201501N002010072019N0200001N1+00891+00781101341ADDGA1071+007209059GF108991081051004501999999MD1210051+9999REMSYN070AAXX  02151 31088 42498 81502 10089 20078 40134 52005 885// 333 87624;
0138310880999992000070218004+59360+143200FM-12+000699999V0201301N001010030019N0200001N1+00881+00801101451ADDGA1061+003009069GF108991081061004501999999MD1310111+9999REMSYN070AAXX  02181 31088 42498 81301 10088 20080 40145 53011 886// 333 86710;
0168310880999992000070221004+59360+143200FM-12+000699999V0201401N004010081019N0200001N1+00851+00811101471ADDAA199000091GA1051+008109059GF108991081061004501999999MD1110021+9999REMSYN070AAXX  02211 31088 32498 81404 10085 20081 40147 51002 886// 333 85627;EQDQ01  00002PRCP99
0222310880999992000070300004+59360+143200FM-12+000699999V0202301N002010078019N0200001N1+00881+00731101631ADDAA199000091GA1051+007809059GF108991081061004501999999GJ100429KA1120N+00841MA1999999101561MD1310161+9999REMSYN088AAXX  03001 31088 32498 82302 10088 20073 30156 40163 53016 886// 333 20084 55007 85626;EQDQ01  00002PRCP99
0112310880999992000070303004+59360+143200FM-12+000699999V0201801N004010042019N0200001N1+00961+00731101581ADDGF106991061051004501031001MD1810051+9999REMSYN060AAXX  03031 31088 42498 61804 10096 20073 40158 58005 86530;
0112310880999992000070306004+59360+143200FM-12+000699999V0202201N003010042019N0200001N1+00911+00701101601ADDGF107991071061004501001001MD1310021+9999REMSYN060AAXX  03061 31088 42498 72203 10091 20070 40160 53002 87600;
0215310880999992000070309004+59360+143200FM-12+000699999V0201901N004010033019N0020001N1+00761+00701101581ADDAA199000091AY121031AY221031GA1081+003309069GF108991081061004501999999KA1120M+01051MD1810021+9999MW1101REMSYN082AAXX  03091 31088 31495 81904 10076 20070 40158 58002 71022 886// 333 10105 88711;EQDQ01  00002PRCP99
0236310880999992000070312004+59360+143200FM-12+000699999V0202001N002010021019N0020001N1+00691+00621101641ADDAA199000091AY121061AY221061GA1081+002109069GF108991081061002501999999KA1120M+01051MA1999999101571MD1310061+9999MW1101REMSYN088AAXX  03121 31088 31395 82002 10069 20062 30157 40164 53006 71022 886// 333 10105 88707;EQDQ01  00002PRCP99
0140310880999992000070315004+59360+143200FM-12+000699999V0201701N002010021019N0020001N1+00681+00611101621ADDAY151031AY221031GF108991081061002501999999MD1810021+9999MW1511REMSYN066AAXX  03151 31088 41395 81702 10068 20061 40162 58002 75152 886//;
0177310880999992000070318004+59360+143200FM-12+000699999V0201701N006010021019N0020001N1+00681+00611101551ADDAA199000021AY151061AY221061GA1081+002109069GF108991081061002501999999MD1710071+9999MW1101REMSYN076AAXX  03181 31088 31395 81706 10068 20061 40155 57007 71052 886// 333 88707;
0138310880999992000070321004+59360+143200FM-12+000699999V0201301N005010027019N0200001N1+00731+00621101531ADDGA1071+002709069GF108991081061002501999999MD1710021+9999REMSYN070AAXX  03211 31088 /2398 81305 10073 20062 40153 57002 886// 333 87709;
0211310880999992000070400004+59360+143200FM-12+000699999V0201301N005010021019N0020001N1+00771+00731101471ADDAA100000191AY181061AY221061GF108991081061002501999999KA1120N+00651MD1710061+9999MW1811REMSYN094AAXX  04001 31088 11395 81305 10077 20073 31140 40147 57006 69910 78182 886// 333 20065 55030;EQDQ01+011401APOSP 
0140310880999992000070403004+59360+143200FM-12+000699999V0201201N007010021019N0020001N1+00811+00781101391ADDAY181031AY221031GF108991081061002501999999MD1710081+9999MW1811REMSYN066AAXX  04031 31088 41395 81207 10081 20078 40139 57008 78182 886//;
0140310880999992000070406004+59360+143200FM-12+000699999V0201201N006010021019N0020001N1+00881+00841101241ADDAY181061AY221061GF108991081061002501999999MD1710151+9999MW1811REMSYN066AAXX  04061 31088 41395 81206 10088 20084 40124 57015 78182 886//;
0169310880999992000070409004+59360+143200FM-12+000699999V0201201N008010021019N0020001N1+00841+00771101151ADDAY181031AY251031GF108991081061002501999999KA1120M+00901MD1710091+9999MW1531REMSYN082AAXX  04091 31088 /1395 81208 10084 20077 40115 57009 75385 886// 333 10090 91113;
0207310880999992000070412004+59360+143200FM-12+000699999V0201301N008010021019N0020001N1+00811+00731101061ADDAA100016091AY151061AY221061GF108991081061002501999999KA1120M+00901MA1999999100991MD1710091+9999MW1511REMSYN094AAXX  04121 31088 11395 81308 10081 20073 30099 40106 57009 60160 75152 886// 333 10090 91112;
0150310880999992000070415004+59360+143200FM-12+000699999V0201401N007010021019N0020001N1+00801+00741100931ADDAY151031AY221031GF108991081061002501999999MD1710131+9999MW1511REMSYN076AAXX  04151 31088 41395 81407 10080 20074 40093 57013 75152 886// 333 91111;
0140310880999992000070418004+59360+143200FM-12+000699999V0201401N005010021019N0100001N1+00801+00711100861ADDAY181061AY221061GF108991081061002501999999MD1710071+9999MW1251REMSYN066AAXX  04181 31088 41397 81405 10080 20071 40086 57007 72582 886//;
0237310880999992000070500004+59360+143200FM-12+000699999V0200101N001010027019N0200001N1+00941+00861100891ADDAA100004191AY181061AY221061GA1051+002709069GF107991071031002501001001GJ100009KA1120N+00791MA1999999100821MD1310031+9999MW1251REMSYN100AAXX  05001 31088 11398 70101 10094 20086 30082 40089 53003 60040 72582 87300 333 20079 55000 85709;
0112310880999992000070503004+59360+143200FM-12+000699999V0202301N002010075019N0500001N1+01051+00851100831ADDGF106991061011008001001001MD1810061+9999REMSYN060AAXX  05031 31088 42599 62302 10105 20085 40083 58006 86100;
0112310880999992000070506004+59360+143200FM-12+000699999V0202101N003012200019N0500001N1+01061+00811100831ADDGF103991021011008001031001MD1410001+9999REMSYN060AAXX  05061 31088 42599 32103 10106 20081 40083 54000 82130;
0135310880999992000070509004+59360+143200FM-12+000699999V0201501N003012200019N0500001N1+01031+00891100801ADDGF103991011011008001001011KA1999M+01251MD1810031+9999REMSYN070AAXX  05091 31088 /2599 31503 10103 20089 40080 58003 81101 333 10125;
0173310880999992000070512004+59360+143200FM-12+000699999V0201601N002012200019N0500001N1+00921+00841100921ADDAA100007191GF103991011011008001041011KA1999M+01251MA1999999100851MD1310121+9999REMSYN082AAXX  05121 31088 12599 31602 10092 20084 30085 40092 53012 60070 81141 333 10125;
0112310880999992000070515004+59360+143200FM-12+000699999V0201301N003012200019N0500001N1+00851+00781101001ADDGF103991001001999999001011MD1210081+9999REMSYN060AAXX  05151 31088 42999 31303 10085 20078 40100 52008 80001;
0112310880999992000070518004+59360+143200FM-12+000699999V0200501N002019999999N0500001N1+01081+00651101011ADDGF105991021001999999031011MD1110011+9999REMSYN060AAXX  05181 31088 42999 50502 10108 20065 40101 51001 82031;
0142310880999992000070521004+59360+143200FM-12+000699999V0209999C000012200019N0500001N1+01141+00701101111ADDAA199000091GF102991011001999999031011MD1310101+9999REMSYN060AAXX  05211 31088 32999 20000 10114 20070 40111 53010 81031;EQDQ01  00002PRCP99
0192310880999992000070600004+59360+143200FM-12+000699999V0202501N002010300019N0500001N1+01321+00931101061ADDAA199000091GF107991021051008001031011KA1120N+00801MA1999999100991MD1810051+9999REMSYN082AAXX  06001 31088 32599 72502 10132 20093 30099 40106 58005 82531 333 20080 55093;EQDQ01  00002PRCP99
0112310880999992000070603004+59360+143200FM-12+000699999V0202001N001019999999N0500001N1+01651+01111101021ADDGF107991021001999999031021MD1710041+9999REMSYN060AAXX  06031 31088 42999 72001 10165 20111 40102 57004 82032;
0112310880999992000070606004+59360+143200FM-12+000699999V0201701N003010300019N0500001N1+01381+00971100891ADDGF107991011011008001061021MD1810131+9999REMSYN060AAXX  06061 31088 42599 71703 10138 20097 40089 58013 81162;
0165310880999992000070609004+59360+143200FM-12+000699999V0201401N005010300019N0500001N1+01271+01061100841ADDAA199000091GF106991021051008001041011KA1999M+01861MD1610051+9999REMSYN070AAXX  06091 31088 32599 61405 10127 20106 40084 56005 82541 333 10186;EQDQ01  00002PRCP99
0186310880999992000070612004+59360+143200FM-12+000699999V0201501N006010300019N0500001N1+01091+00901100731ADDAA199000091GF107991031051008001051001KA1999M+01861MA1999999100661MD1810111+9999REMSYN076AAXX  06121 31088 32599 71506 10109 20090 30066 40073 58011 83550 333 10186;EQDQ01  00002PRCP99
0138310880999992000070615004+59360+143200FM-12+000699999V0201301N006010033019N0200001N1+01031+00861100631ADDGA1061+003309069GF108991081061004501999999MD1710101+9999REMSYN070AAXX  06151 31088 42498 81306 10103 20086 40063 57010 886// 333 86711;
0138310880999992000070618004+59360+143200FM-12+000699999V0200301N002010030019N0200001N1+00991+00861100561ADDGA1061+003009069GF108991081061004501999999MD1710071+9999REMSYN070AAXX  06181 31088 42498 80302 10099 20086 40056 57007 886// 333 86710;
0112310880999992000070621004+59360+143200FM-12+000699999V0209999C000010042019N0200001N1+00991+00901100591ADDGF107991061031004501031001MD1310031+9999REMSYN060AAXX  06211 31088 /1498 70000 10099 20090 40059 53003 86330;
0179310880999992000070700004+59360+143200FM-12+000699999V0201901N002012200019N0500001N1+01181+00981100591ADDAA100000191GF103991011011008001031011KA1120N+00961MA1999999100521MD1410001+9999REMSYN088AAXX  07001 31088 12599 31902 10118 20098 30052 40059 54000 69910 81131 333 20096 55128;
0112310880999992000070703004+59360+143200FM-12+000699999V0201801N004010300019N0500001N1+01161+00881100501ADDGF106991021011008001031011MD1810091+9999REMSYN060AAXX  07031 31088 42599 61804 10116 20088 40050 58009 82131;
0112310880999992000070706004+59360+143200FM-12+000699999V0201501N006010042019N0500001N1+01051+00901100421ADDGF107991071051004501001011MD1710081+9999REMSYN060AAXX  07061 31088 42499 71506 10105 20090 40042 57008 87501;
0165310880999992000070709004+59360+143200FM-12+000699999V0201501N006010075019N0500001N1+00981+00881100361ADDAA199000091GF107991071051008001001001KA1999M+01301MD1710061+9999REMSYN070AAXX  07091 31088 32599 71506 10098 20088 40036 57006 87500 333 10130;EQDQ01  00002PRCP99
0195310880999992000070712004+59360+143200FM-12+000699999V0201401N004010075019N0100001N1+00941+00901100321ADDAA199000021AY181061AY221061GF107991071091008001001001KA1999M+01301MA1999999100251MD1710041+9999MW1801REMSYN082AAXX  07121 31088 31597 71404 10094 20090 30025 40032 57004 78082 87900 333 10130;
0140310880999992000070715004+59360+143200FM-12+000699999V0201401N006010300019N0200001N1+00831+00811100231ADDAY181031AY221031GF106991031061004501031001MD1810091+9999MW1021REMSYN066AAXX  07151 31088 41498 61406 10083 20081 40023 58009 70282 83630;
0140310880999992000070718004+59360+143200FM-12+000699999V0209999C000010300019N0500001N1+00681+00641100161ADDAY181061AY221061GF107991041051008001031011MD1710071+9999MW1031REMSYN066AAXX  07181 31088 41599 70000 10068 20064 40016 57007 70382 84531;
0112310880999992000070721004+59360+143200FM-12+000699999V0209999C000012200019N0500001N1+00861+00801100221ADDGF103991031051008001001001MD1310061+9999REMSYN060AAXX  07211 31088 /2599 30000 10086 20080 40022 53006 83500;
0226310880999992000070800004+59360+143200FM-12+000699999V0202101N002019999999N0020001N1+00881+00771100231ADDAA100000591AY111061AY211061GF107991999061008001001001KA1120N+00651MA1999999100161MD1110011+9999MW1101REMSYN094AAXX  08001 31088 11595 72102 10088 20077 30016 40023 51001 69950 71011 88600 333 20065 55075;EQDQ01+000082SCOTLC
0112310880999992000070803004+59360+143200FM-12+000699999V0201701N006010042019N0500001N1+01071+00861100221ADDGF107991071051004501001001MD1810011+9999REMSYN060AAXX  08031 31088 42499 71706 10107 20086 40022 58001 87500;
0140310880999992000070806004+59360+143200FM-12+000699999V0202001N004010075019N0500001N1+01061+00851100241ADDAY181061AY221061GF107991071031008001001001MD1310021+9999MW1251REMSYN066AAXX  08061 31088 41599 72004 10106 20085 40024 53002 72582 87300;
0135310880999992000070809004+59360+143200FM-12+000699999V0202301N002010075019N0500001N1+01071+00821100291ADDGF106991061031008001001001KA1999M+01171MD1210051+9999REMSYN070AAXX  08091 31088 /2599 62302 10107 20082 40029 52005 86300 333 10117;
0173310880999992000070812004+59360+143200FM-12+000699999V0201501N003012200019N0500001N1+01041+00841100351ADDAA100000391GF102991021051008001001001KA1999M+01171MA1999999100281MD1210061+9999REMSYN082AAXX  08121 31088 12599 21503 10104 20084 30028 40035 52006 69930 82500 333 10117;
0112310880999992000070815004+59360+143200FM-12+000699999V0202101N003012200019N0500001N1+00941+00841100311ADDGF101991011051008001001001MD1810041+9999REMSYN060AAXX  08151 31088 42599 12103 10094 20084 40031 58004 81500;
0140310880999992000070818004+59360+143200FM-12+000699999V0200101N002012200019N0040001N1+00691+00621100351ADDAY101061AY201061GF103991021061004501001011MD1310041+9999MW1101REMSYN066AAXX  08181 31088 41496 30102 10069 20062 40035 53004 71000 82601;
0142310880999992000070821004+59360+143200FM-12+000699999V0203601N001012200019N0500001N1+00941+00811100351ADDAA199000091GF102991011051008001001011MD1410001+9999REMSYN060AAXX  08211 31088 32599 23601 10094 20081 40035 54000 81501;EQDQ01  00002PRCP99
0192310880999992000070900004+59360+143200FM-12+000699999V0201701N002012200019N0500001N1+01271+01101100351ADDAA199000091GF102991011011008001031001KA1120N+00621MA1999999100281MD1410001+9999REMSYN082AAXX  09001 31088 32599 21702 10127 20110 30028 40035 54000 81130 333 20062 55087;EQDQ01  00002PRCP99
0112310880999992000070903004+59360+143200FM-12+000699999V0202001N003012200019N0500001N1+01351+00951100371ADDGF103991021011008001051001MD1310021+9999REMSYN060AAXX  09031 31088 42599 32003 10135 20095 40037 53002 82150;
0112310880999992000070906004+59360+143200FM-12+000699999V0202001N004010075019N0020001N1+01421+00951100521ADDGF105991051051008001001001MD1310151+9999REMSYN060AAXX  09061 31088 42595 52004 10142 20095 40052 53015 85500;
0165310880999992000070909004+59360+143200FM-12+000699999V0202301N002012200019N0500001N1+01281+00901100591ADDAA199000091GF102991011001999999031011KA1999M+01551MD1210071+9999REMSYN070AAXX  09091 31088 32999 22302 10128 20090 40059 52007 81031 333 10155;EQDQ01  00002PRCP99
0186310880999992000070912004+59360+143200FM-12+000699999V0201901N001012200019N0500001N1+01161+00901100721ADDAA199000091GF102991021001999999041011KA1999M+01551MA1999999100651MD1210131+9999REMSYN076AAXX  09121 31088 32999 21901 10116 20090 30065 40072 52013 82041 333 10155;EQDQ01  00002PRCP99
0112310880999992000070915004+59360+143200FM-12+000699999V0209999C000012200019N0500001N1+01101+00811100741ADDGF101991011001999999041001MD1110021+9999REMSYN060AAXX  09151 31088 42999 10000 10110 20081 40074 51002 81040;
0112310880999992000070918004+59360+143200FM-12+000699999V0201701N001012200019N0500001N1+01031+00901100771ADDGF101991011001999999041001MD1210031+9999REMSYN060AAXX  09181 31088 42999 11701 10103 20090 40077 52003 81040;
0142310880999992000070921004+59360+143200FM-12+000699999V0203501N001012200019N0500001N1+01091+00851100871ADDAA199000091GF101991011001999999041001MD1310101+9999REMSYN060AAXX  09211 31088 32999 13501 10109 20085 40087 53010 81040;EQDQ01  00002PRCP99
0202310880999992000071000004+59360+143200FM-12+000699999V0202101N002012200019N0500001N1+01291+99999100861ADDAA199000091GA1001+999999999GF100991001001999999001001KA1120N+00981MA1999999100791MD1810011+9999REMSYN076AAXX  10001 31088 32999 02102 10129 20789 30079 40086 58001 333 20098 55156;EQDQ01  00002PRCP99
0138310880999992000071003004+59360+143200FM-12+000699999V0202001N003010030019N0200001N1+01091+00951100831ADDGA1061+003009069GF106991061061004501001001MD1710031+9999REMSYN070AAXX  10031 31088 42498 62003 10109 20095 40083 57003 86600 333 86710;
0157310880999992000071006004+59360+143200FM-12+000699999V0202001N004010030019N0200001N1+01031+00991100771ADDGA1081+003009069GF199999071061004501999999MD1710061+9999REMSYN070AAXX  10061 31088 42498 72004 10103 20099 40077 57006 876// 333 88710;EQDQ01+000072SCOTCV
0187310880999992000071009004+59360+143200FM-12+000699999V0202001N003010030019N0200001N1+01031+00991100741ADDAA199000091GA1081+003009069GF108991081061004501999999KA1120M+01331MD1710031+9999REMSYN076AAXX  10091 31088 32498 82003 10103 20099 40074 57003 886// 333 10133 88710;EQDQ01  00002PRCP99
0208310880999992000071012004+59360+143200FM-12+000699999V0202001N002010033019N0200001N1+00981+00941100731ADDAA199000091GA1061+003309069GF108991081061004501999999KA1120M+01331MA1999999100661MD1710011+9999REMSYN082AAXX  10121 31088 32498 82002 10098 20094 30066 40073 57001 886// 333 10133 86711;EQDQ01  00002PRCP99
0138310880999992000071015004+59360+143200FM-12+000699999V0202101N002010033019N0200001N1+00931+00891100661ADDGA1061+003309069GF108991081061004501999999MD1810071+9999REMSYN070AAXX  10151 31088 42498 82102 10093 20089 40066 58007 886// 333 86711;
0138310880999992000071018004+59360+143200FM-12+000699999V0209999C000010030019N0200001N1+00981+00941100671ADDGA1051+003009069GF108991081061004501999999MD1310011+9999REMSYN070AAXX  10181 31088 42498 80000 10098 20094 40067 53001 886// 333 85710;
0168310880999992000071021004+59360+143200FM-12+000699999V0203601N001010033019N0200001N1+01021+00841100691ADDAA199000091GA1061+003309069GF108991081061004501999999MD1210021+9999REMSYN070AAXX  10211 31088 32498 83601 10102 20084 40069 52002 886// 333 86711;EQDQ01  00002PRCP99
0192310880999992000071100004+59360+143200FM-12+000699999V0202101N001010300019N0500001N1+01141+00841100711ADDAA199000091GF107991031011004501031021KA1120N+00891MA1999999100641MD1210021+9999REMSYN082AAXX  11001 31088 32499 72101 10114 20084 30064 40071 52002 83132 333 20089 55118;EQDQ01  00002PRCP99
0112310880999992000071103004+59360+143200FM-12+000699999V0201901N005010300019N0500001N1+01251+00981100701ADDGF107991021021008001031011MD1810011+9999REMSYN060AAXX  11031 31088 42599 71905 10125 20098 40070 58001 82231;
0112310880999992000071106004+59360+143200FM-12+000699999V0202201N004010300019N0500001N1+01221+00941100711ADDGF107991041021008001061011MD1310011+9999REMSYN060AAXX  11061 31088 42599 72204 10122 20094 40071 53001 84261;
0187310880999992000071109004+59360+143200FM-12+000699999V0202001N004010066019N0200001N1+01011+00891100731ADDAA199000091GA1051+006609059GF108991081061004501999999KA1120M+01421MD1210021+9999REMSYN076AAXX  11091 31088 32498 82004 10101 20089 40073 52002 886// 333 10142 85622;EQDQ01  00002PRCP99
0208310880999992000071112004+59360+143200FM-12+000699999V0209999C000010066019N0200001N1+00981+00951100791ADDAA199000091GA1051+006609059GF108991081061004501999999KA1120M+01421MA1999999100721MD1710061+9999REMSYN082AAXX  11121 31088 32498 80000 10098 20095 30072 40079 57006 886// 333 10142 85622;EQDQ01  00002PRCP99
0138310880999992000071115004+59360+143200FM-12+000699999V0209999C000010030019N0200001N1+00971+00811100761ADDGA1081+003009069GF108991081061004501999999MD1810021+9999REMSYN070AAXX  11151 31088 42498 80000 10097 20081 40076 58002 886// 333 88710;
0138310880999992000071118004+59360+143200FM-12+000699999V0200101N002010030019N0200001N1+00911+00781100761ADDGA1081+003009069GF108991081061004501999999MD1410001+9999REMSYN070AAXX  11181 31088 42498 80102 10091 20078 40076 54000 886// 333 88710;
0196310880999992000071121004+59360+143200FM-12+000699999V0200101N004010024019N0020001N1+00881+00801100751ADDAA199000091AY121031AY221031GA1081+002409069GF108991081061002501999999MD1810011+9999MW1101REMSYN076AAXX  11211 31088 31395 80104 10088 20080 40075 58001 71022 886// 333 88708;EQDQ01  00002PRCP99
0192310880999992000071200004+59360+143200FM-12+000699999V0203401N001019999999N0500001N1+01601+00901100681ADDAA199000091GF107991031001999999041011KA1120N+00841MA1999999100611MD1710071+9999REMSYN082AAXX  12001 31088 32999 73401 10160 20090 30061 40068 57007 83041 333 20084 55061;EQDQ01  00002PRCP99
0112310880999992000071203004+59360+143200FM-12+000699999V0202401N003012200019N0500001N1+01601+01131100671ADDGF107991021011008001001011MD1710011+9999REMSYN060AAXX  12031 31088 42599 72403 10160 20113 40067 57001 82101;
0112310880999992000071206004+59360+143200FM-12+000699999V0202401N003012200019N0500001N1+01521+01191100641ADDGF103991011011008001001011MD1710031+9999REMSYN060AAXX  12061 31088 42599 32403 10152 20119 40064 57003 81101;
0165310880999992000071209004+59360+143200FM-12+000699999V0202601N002012200019N0500001N1+01541+01191100661ADDAA199000091GF106991021051008001001011KA1999M+01841MD1310021+9999REMSYN070AAXX  12091 31088 32599 62602 10154 20119 40066 53002 82501 333 10184;EQDQ01  00002PRCP99
0208310880999992000071212004+59360+143200FM-12+000699999V0201601N001010075019N0500001N1+01321+01151100731ADDAA199000091GA1071+007509059GF107991071051008001001001KA1120M+01841MA1999999100661MD1210071+9999REMSYN082AAXX  12121 31088 32599 71601 10132 20115 30066 40073 52007 87500 333 10184 87625;EQDQ01  00002PRCP99
0138310880999992000071215004+59360+143200FM-12+000699999V0209999C000010078019N0500001N1+01051+00891100731ADDGA1071+007809059GF107991071051008001001001MD1410001+9999REMSYN070AAXX  12151 31088 42599 70000 10105 20089 40073 54000 87500 333 87626;
0138310880999992000071218004+59360+143200FM-12+000699999V0209999C000010072019N0500001N1+01321+01131100811ADDGA1071+007209059GF107991071051008001001001MD1310081+9999REMSYN070AAXX  12181 31088 42599 70000 10132 20113 40081 53008 87500 333 87624;
0168310880999992000071221004+59360+143200FM-12+000699999V0209999C000010069019N0500001N1+01371+00981100911ADDAA199000091GA1071+006909059GF107991071051008001001001MD1210101+9999REMSYN070AAXX  12211 31088 32599 70000 10137 20098 40091 52010 87500 333 87623;EQDQ01  00002PRCP99
0192310880999992000071300004+59360+143200FM-12+000699999V0202501N001010300019N0500001N1+01521+01151100931ADDAA199000091GF105991021051008001031001KA1120N+01051MA1999999100861MD1110021+9999REMSYN082AAXX  13001 31088 32599 52501 10152 20115 30086 40093 51002 82530 333 20105 55118;EQDQ01  00002PRCP99
0112310880999992000071303004+59360+143200FM-12+000699999V0202701N004012200019N0500001N1+01701+01091100901ADDGF102991021051008001031001MD1810031+9999REMSYN060AAXX  13031 31088 42599 22704 10170 20109 40090 58003 82530;
0112310880999992000071306004+59360+143200FM-12+000699999V0202701N003012200019N0500001N1+01681+01121100881ADDGF103991021011008001041011MD1710021+9999REMSYN060AAXX  13061 31088 42599 32703 10168 20112 40088 57002 82141;
0165310880999992000071309004+59360+143200FM-12+000699999V0202601N004019999999N0500001N1+01401+01071100851ADDAA199000091GF105991021001999999041011KA1999M+01781MD1710031+9999REMSYN070AAXX  13091 31088 32999 52604 10140 20107 40085 57003 82041 333 10178;EQDQ01  00002PRCP99
0186310880999992000071312004+59360+143200FM-12+000699999V0201701N001019999999N0500001N1+01401+01071100871ADDAA199000091GF106991021001999999041011KA1999M+01781MA1999999100801MD1310021+9999REMSYN076AAXX  13121 31088 32999 61701 10140 20107 30080 40087 53002 82041 333 10178;EQDQ01  00002PRCP99
0112310880999992000071315004+59360+143200FM-12+000699999V0209999C000012200019N0500001N1+01301+01051100891ADDGF101991001001999999001011MD1210021+9999REMSYN060AAXX  13151 31088 42999 10000 10130 20105 40089 52002 80001;
0112310880999992000071318004+59360+143200FM-12+000699999V0201501N003012200019N0500001N1+01181+00981100961ADDGF102991001001999999001011MD1210071+9999REMSYN060AAXX  13181 31088 42999 21503 10118 20098 40096 52007 80001;
0142310880999992000071321004+59360+143200FM-12+000699999V0200101N001019999999N0500001N1+01341+01031101041ADDAA199000091GF107991001001999999001011MD1210081+9999REMSYN060AAXX  13211 31088 32999 70101 10134 20103 40104 52008 80001;EQDQ01  00002PRCP99
0192310880999992000071400004+59360+143200FM-12+000699999V0201601N003019999999N0500001N1+01451+01131101101ADDAA199000091GF105991001001999999001011KA1120N+01111MA1999999101031MD1210061+9999REMSYN082AAXX  14001 31088 32999 51603 10145 20113 30103 40110 52006 80001 333 20111 55124;EQDQ01  00002PRCP99
0112310880999992000071403004+59360+143200FM-12+000699999V0201701N005012200019N0500001N1+01571+01181101141ADDGF103991001001999999001011MD1210041+9999REMSYN060AAXX  14031 31088 42999 31705 10157 20118 40114 52004 80001;
0112310880999992000071406004+59360+143200FM-12+000699999V0201501N004012200019N0500001N1+01581+01251101141ADDGF103991001001999999001011MD1410001+9999REMSYN060AAXX  14061 31088 42999 31504 10158 20125 40114 54000 80001;
0165310880999992000071409004+59360+143200FM-12+000699999V0201601N002012200019N0500001N1+01561+01181101251ADDAA199000091GF102991001001999999001011KA1999M+01671MD1210071+9999REMSYN070AAXX  14091 31088 32999 21602 10156 20118 40125 52007 80001 333 10167;EQDQ01  00002PRCP99
0186310880999992000071412004+59360+143200FM-12+000699999V0209999C000012200019N0500001N1+01391+01191101291ADDAA199000091GF103991021001999999031011KA1999M+01671MA1999999101221MD1210041+9999REMSYN076AAXX  14121 31088 32999 30000 10139 20119 30122 40129 52004 82031 333 10167;EQDQ01  00002PRCP99
0112310880999992000071415004+59360+143200FM-12+000699999V0200601N001012200019N0500001N1+01141+00921101311ADDGF101991011001999999041001MD1210021+9999REMSYN060AAXX  14151 31088 42999 10601 10114 20092 40131 52002 81040;
0112310880999992000071418004+59360+143200FM-12+000699999V0200201N001012200019N0500001N1+00891+00811101321ADDGF101991011001999999041001MD1210011+9999REMSYN060AAXX  14181 31088 42999 10201 10089 20081 40132 52001 81040;
0142310880999992000071421004+59360+143200FM-12+000699999V0203601N002012200019N0500001N1+01241+00971101411ADDAA199000091GF101991001001999999001011MD1310091+9999REMSYN060AAXX  14211 31088 32999 13602 10124 20097 40141 53009 80001;EQDQ01  00002PRCP99
0192310880999992000071500004+59360+143200FM-12+000699999V0201701N004012200019N0500001N1+01561+01111101481ADDAA199000091GF102991011011008001001021KA1120N+00881MA1999999101411MD1210071+9999REMSYN082AAXX  15001 31088 32599 21704 10156 20111 30141 40148 52007 81102 333 20088 55161;EQDQ01  00002PRCP99
0112310880999992000071503004+59360+143200FM-12+000699999V0201701N004012200019N0500001N1+01541+01131101511ADDGF102991001001999999001021MD1210031+9999REMSYN060AAXX  15031 31088 42999 21704 10154 20113 40151 52003 80002;
0112310880999992000071506004+59360+143200FM-12+000699999V0201801N003012200019N0500001N1+01521+01131101531ADDGF102991011051008001031001MD1210021+9999REMSYN060AAXX  15061 31088 42599 21803 10152 20113 40153 52002 81530;
0165310880999992000071509004+59360+143200FM-12+000699999V0201901N002012200019N0500001N1+01451+01151101551ADDAA199000091GF102991011011008001061011KA1999M+01661MD1210021+9999REMSYN070AAXX  15091 31088 32599 21902 10145 20115 40155 52002 81161 333 10166;EQDQ01  00002PRCP99
0186310880999992000071512004+59360+143200FM-12+000699999V0201801N001012200019N0500001N1+01361+01201101521ADDAA199000091GF102991011001999999061011KA1999M+01661MA1999999101451MD1810031+9999REMSYN076AAXX  15121 31088 32999 21801 10136 20120 30145 40152 58003 81061 333 10166;EQDQ01  00002PRCP99
0112310880999992000071515004+59360+143200FM-12+000699999V0203601N001012200019N0500001N1+01061+01001101521ADDGF102991021001999999031001MD1410001+9999REMSYN060AAXX  15151 31088 42999 23601 10106 20100 40152 54000 82030;
0112310880999992000071518004+59360+143200FM-12+000699999V0203401N001010042019N0200001N1+00831+00781101541ADDGF107991051061004501001011MD1310021+9999REMSYN060AAXX  15181 31088 42498 73401 10083 20078 40154 53002 85601;
0220310880999992000071600004+59360+143200FM-12+000699999V0202101N002012200019N0500001N1+01341+01191101481ADDAA199000091AY141061AY211061GF103991021061004501001011KA1120N+00801MA1999999101411MD1710041+9999MW1011REMSYN088AAXX  16001 31088 31499 32102 10134 20119 30141 40148 57004 70141 82601 333 20080 55164;EQDQ01  00002PRCP99
0138310880999992000071603004+59360+143200FM-12+000699999V0202201N003010030019N0200001N1+01441+01241101381ADDGA1071+003009069GF107991071061004501001001MD1810101+9999REMSYN070AAXX  16031 31088 42498 72203 10144 20124 40138 58010 87600 333 87710;
0138310880999992000071606004+59360+143200FM-12+000699999V0202101N005010033019N0200001N1+01351+01201101281ADDGA1071+003309069GF107991071061004501001001MD1710101+9999REMSYN070AAXX  16061 31088 42498 72105 10135 20120 40128 57010 87600 333 87711;
0215310880999992000071609004+59360+143200FM-12+000699999V0202001N004010021019N0040001N1+01291+01221101201ADDAA199000091AY121031AY221031GA1081+002109069GF108991081061002501999999KA1120M+01511MD1710081+9999MW1101REMSYN082AAXX  16091 31088 31396 82004 10129 20122 40120 57008 71022 886// 333 10151 88707;EQDQ01  00002PRCP99
0208310880999992000071612004+59360+143200FM-12+000699999V0202001N003010021019N0200001N1+01251+01131101111ADDAA199000091GA1081+002109069GF108991081061002501999999KA1120M+01511MA1999999101041MD1710091+9999REMSYN082AAXX  16121 31088 32398 82003 10125 20113 30104 40111 57009 886// 333 10151 88707;EQDQ01  00002PRCP99
0138310880999992000071615004+59360+143200FM-12+000699999V0201701N002010021019N0200001N1+01291+01151101071ADDGA1081+002109069GF108991081061002501999999MD1710041+9999REMSYN070AAXX  16151 31088 42398 81702 10129 20115 40107 57004 886// 333 88707;
0166310880999992000071618004+59360+143200FM-12+000699999V0200201N001010021019N0020001N1+01171+01071101001ADDAY121061AY221061GA1081+002109069GF108991081061002501999999MD1710071+9999MW1101REMSYN076AAXX  16181 31088 41395 80201 10117 20107 40100 57007 71022 886// 333 88707;
0196310880999992000071621004+59360+143200FM-12+000699999V0200101N001010021019N0020001N1+01111+01051101001ADDAA199000091AY121031AY221031GA1081+002109069GF108991081061002501999999MD1410001+9999MW1101REMSYN076AAXX  16211 31088 31395 80101 10111 20105 40100 54000 71022 886// 333 88707;EQDQ01  00002PRCP99
0192310880999992000071700004+59360+143200FM-12+000699999V0203001N001010300019N0500001N1+01491+01221100911ADDAA199000091GF106991021011008001031011KA1120N+01111MA1999999100841MD1810091+9999REMSYN082AAXX  17001 31088 32599 63001 10149 20122 30084 40091 58009 82131 333 20111 55041;EQDQ01  00002PRCP99
0112310880999992000071703004+59360+143200FM-12+000699999V0202401N003012200019N0500001N1+01541+01301100841ADDGF107991011011008001001011MD1710071+9999REMSYN060AAXX  17031 31088 42599 72403 10154 20130 40084 57007 81101;
0112310880999992000071706004+59360+143200FM-12+000699999V0202001N002012200019N0500001N1+01521+01301100711ADDGF102991011011008001001011MD1710131+9999REMSYN060AAXX  17061 31088 42599 22002 10152 20130 40071 57013 81101;
0165310880999992000071709004+59360+143200FM-12+000699999V0201601N002012200019N0500001N1+01521+01301100661ADDAA199000091GF102991001001999999001011KA1999M+01641MD1710051+9999REMSYN070AAXX  17091 31088 32999 21602 10152 20130 40066 57005 80001 333 10164;EQDQ01  00002PRCP99
0186310880999992000071712004+59360+143200FM-12+000699999V0201701N005010750019N0500001N1+01441+01311100591ADDAA199000091GF105991021051008001031011KA1999M+01641MA1999999100521MD1710071+9999REMSYN076AAXX  17121 31088 32599 51705 10144 20131 30052 40059 57007 82531 333 10164;EQDQ01  00002PRCP99
0112310880999992000071715004+59360+143200FM-12+000699999V0201301N004012200019N0500001N1+01431+01261100621ADDGF102991021051008001001001MD1310031+9999REMSYN060AAXX  17151 31088 42599 21304 10143 20126 40062 53003 82500;
0138310880999992000071718004+59360+143200FM-12+000699999V0201401N003010069019N0500001N1+01381+01291100611ADDGA1061+006909059GF106991061051008001001001MD1810011+9999REMSYN070AAXX  17181 31088 42599 61403 10138 20129 40061 58001 86500 333 86623;
0142310880999992000071721004+59360+143200FM-12+000699999V0201201N001010300019N0500001N1+01471+01301100651ADDAA199000091GF105991021051008001031001MD1310041+9999REMSYN060AAXX  17211 31088 32599 51201 10147 20130 40065 53004 82530;EQDQ01  00002PRCP99
0192310880999992000071800004+59360+143200FM-12+000699999V0201701N005010300019N0500001N1+01471+01231100711ADDAA199000091GF107991041051008001031011KA1120N+01261MA1999999100641MD1210061+9999REMSYN082AAXX  18001 31088 32599 71705 10147 20123 30064 40071 52006 84531 333 20126 55105;EQDQ01  00002PRCP99
0112310880999992000071803004+59360+143200FM-12+000699999V0202201N005012200019N0500001N1+01651+01291100731ADDGF103991021021008001031001MD1210021+9999REMSYN060AAXX  18031 31088 42599 32205 10165 20129 40073 52002 82230;
0112310880999992000071806004+59360+143200FM-12+000699999V0202201N004012200019N0500001N1+01561+01151100711ADDGF102991021021008001001001MD1810021+9999REMSYN060AAXX  18061 31088 42599 22204 10156 20115 40071 58002 82200;
0165310880999992000071809004+59360+143200FM-12+000699999V0202001N004012200019N0500001N1+01531+01151100711ADDAA199000091GF101991011001999999041001KA1999M+01711MD1410001+9999REMSYN070AAXX  18091 31088 32999 12004 10153 20115 40071 54000 81040 333 10171;EQDQ01  00002PRCP99
0186310880999992000071812004+59360+143200FM-12+000699999V0201701N006012200019N0500001N1+01461+01141100791ADDAA199000091GF102991011001999999041011KA1999M+01711MA1999999100721MD1310081+9999REMSYN076AAXX  18121 31088 32999 21706 10146 20114 30072 40079 53008 81041 333 10171;EQDQ01  00002PRCP99
0112310880999992000071815004+59360+143200FM-12+000699999V0201701N005012200019N0500001N1+01341+01131100871ADDGF102991021001999999041011MD1210081+9999REMSYN060AAXX  18151 31088 42999 21705 10134 20113 40087 52008 82041;
0112310880999992000071818004+59360+143200FM-12+000699999V0201901N003010300019N0500001N1+01331+01121100911ADDGF107991021051008001041011MD1210041+9999REMSYN060AAXX  18181 31088 42599 71903 10133 20112 40091 52004 82541;
0168310880999992000071821004+59360+143200FM-12+000699999V0202401N001010075019N0500001N1+01361+01101100921ADDAA199000091GA1071+007509059GF108991081061004501999999MD1210011+9999REMSYN070AAXX  18211 31088 32499 82401 10136 20110 40092 52001 886// 333 87625;EQDQ01  00002PRCP99
0192310880999992000071900004+59360+143200FM-12+000699999V0201701N003010075019N0500001N1+01441+01221100931ADDAA199000091GF107991051051008001001011KA1120N+01301MA1999999100861MD1210011+9999REMSYN082AAXX  19001 31088 32599 71703 10144 20122 30086 40093 52001 85501 333 20130 55143;EQDQ01  00002PRCP99
0112310880999992000071903004+59360+143200FM-12+000699999V0201801N002012200019N0500001N1+01581+01201100911ADDGF107991041051008001001011MD1810021+9999REMSYN060AAXX  19031 31088 42599 71802 10158 20120 40091 58002 84501;
0112310880999992000071906004+59360+143200FM-12+000699999V0201801N003012200019N0500001N1+01501+01261100771ADDGF106991021051008001001011MD1810141+9999REMSYN060AAXX  19061 31088 42599 61803 10150 20126 40077 58014 82501;
0165310880999992000071909004+59360+143200FM-12+000699999V0202101N004012200019N0500001N1+01451+01181100751ADDAA199000091GF102991011001999999051011KA1999M+01631MD1610021+9999REMSYN070AAXX  19091 31088 32999 22104 10145 20118 40075 56002 81051 333 10163;EQDQ01  00002PRCP99
0186310880999992000071912004+59360+143200FM-12+000699999V0202201N005012200019N0500001N1+01391+01091100731ADDAA199000091GF103991011001999999041011KA1999M+01631MA1999999100661MD1710021+9999REMSYN076AAXX  19121 31088 32999 32205 10139 20109 30066 40073 57002 81041 333 10163;EQDQ01  00002PRCP99
0112310880999992000071915004+59360+143200FM-12+000699999V0202201N005012200019N0500001N1+01311+01221100701ADDGF102991011001999999041011MD1710031+9999REMSYN060AAXX  19151 31088 42999 22205 10131 20122 40070 57003 81041;
0112310880999992000071918004+59360+143200FM-12+000699999V0200801N002012200019N0500001N1+01061+00941100631ADDGF101991011001999999041001MD1710071+9999REMSYN060AAXX  19181 31088 42999 10802 10106 20094 40063 57007 81040;
0168310880999992000071921004+59360+143200FM-12+000699999V0200201N002010039019N0100001N1+01081+01001100611ADDAA199000091GA1071+003909069GF107991071061004501001001MD1710021+9999REMSYN070AAXX  19211 31088 32497 70202 10108 20100 40061 57002 87600 333 87713;EQDQ01  00002PRCP99
0186310880999992000072000004+59360+143200FM-12+000699999V0201801N002012200019N0500001N1+01581+01271100671ADDAA199000091GF102991001001999999001011KA1999N+01011MA1999999100601MD1310061+9999REMSYN076AAXX  20001 31088 32999 21802 10158 20127 30060 40067 53006 80001 333 20101;EQDQ01  00002PRCP99
0174310880999992000072003004+59360+143200FM-12+000699999V0201801N003012200019N0500001N1+01661+01311101442ADDAA199000091GA1001+999999999GF100991001001999999001001MD1810231+9999REMSYN060AAXX  20031 31088 32999 01803 10166 20131 40144 58023 80001;EQDQ01+101443APOSLPQ02  00002PRCP99
0112310880999992000072006004+59360+143200FM-12+000699999V0202101N001012200019N0500001N1+01591+01281100801ADDGF101991011001999999031001MD1610041+9999REMSYN060AAXX  20061 31088 42999 12101 10159 20128 40080 56004 81030;
0165310880999992000072009004+59360+143200FM-12+000699999V0202101N002019999999N0500001N1+01491+01381100411ADDAA199000091GF106991061001999999031001KA1999M+01741MD1310011+9999REMSYN070AAXX  20091 31088 32999 62102 10149 20138 40041 53001 86030 333 10174;EQDQ01  00002PRCP99
0186310880999992000072012004+59360+143200FM-12+000699999V0201801N001010300019N0500001N1+01411+01301100461ADDAA199000091GF107991021051008001051011KA1999M+01741MA1999999100391MD1210051+9999REMSYN076AAXX  20121 31088 32599 71801 10141 20130 30039 40046 52005 82551 333 10174;EQDQ01  00002PRCP99
0112310880999992000072015004+59360+143200FM-12+000699999V0202001N001019999999N0500001N1+01381+01271100441ADDGF107991031001999999051011MD1810021+9999REMSYN060AAXX  20151 31088 42999 72001 10138 20127 40044 58002 83051;
0112310880999992000072018004+59360+143200FM-12+000699999V0203601N001019999999N0500001N1+01041+00991100491ADDGF107991031001999999051011MD1310051+9999REMSYN060AAXX  20181 31088 42999 73601 10104 20099 40049 53005 83051;
0142310880999992000072021004+59360+143200FM-12+000699999V0203601N001010042019N0200001N1+01171+01071100501ADDAA199000091GF105991051061004501001001MD1210011+9999REMSYN060AAXX  20211 31088 32498 53601 10117 20107 40050 52001 85600;EQDQ01  00002PRCP99
0250310880999992000072100004+59360+143200FM-12+000699999V0201601N003010030019N0040001N1+01501+01411100541ADDAA199000091AY121061AY221061GA1071+003009059GF107991071061004501001001GJ107989KA1120N+00951MA1999999100471MD1210041+9999MW1101REMSYN094AAXX  21001 31088 31496 71603 10150 20141 30047 40054 52004 71022 87600 333 20095 55133 87610;EQDQ01  00002PRCP99
0112310880999992000080706004+59360+143200FM-12+000699999V0202301N003010075019N0500001N1+01731+01321101251ADDGF107991061031008001051001MD1310021+9999REMSYN060AAXX  07061 31088 42599 72303 10173 20132 40125 53002 86350;
0165310880999992000080709004+59360+143200FM-12+000699999V0202301N003012200019N0500001N1+01621+01291101361ADDAA199000091GF103991031051008001001001KA1999M+02211MD1310111+9999REMSYN070AAXX  07091 31088 32599 32303 10162 20129 40136 53011 83500 333 10221;EQDQ01  00002PRCP99
0196310880999992000080712004+59360+143200FM-12+000699999V0209999C000012200019N0500001N1+01421+01201101451ADDAA199000091GA1001+999999999GF100991001001999999001001KA1999M+02211MA1999999101281MD1210091+9999REMSYN070AAXX  07121 31088 32299 00000 10142 20120 30128 40145 52009 333 10221;EQDQ01  00002PRCP99
0122310880999992000080715004+59360+143200FM-12+000699999V0200201N002012200019N0500001N1+01191+99999101461ADDGA1001+999999999GF100991001001999999001001MD1610011+9999REMSYN054AAXX  07151 31088 42999 00202 10119 23008 40146 56001;
0112310880999992000080718004+59360+143200FM-12+000699999V0200101N003012200019N0500001N1+00901+00731101501ADDGF102991001001999999001011MD1210041+9999REMSYN060AAXX  07181 31088 42999 20103 10090 20073 40150 52004 80001;
0142310880999992000080721004+59360+143200FM-12+000699999V0200101N003012200019N0500001N1+01031+00821101571ADDAA199000091GF102991001001999999001011MD1210071+9999REMSYN060AAXX  07211 31088 32999 20103 10103 20082 40157 52007 80001;EQDQ01  00002PRCP99
0192310880999992000080800004+59360+143200FM-12+000699999V0203601N002019999999N0500001N1+01801+01051101531ADDAA199000091GF107991001001999999001021KA1120N+00841MA1999999101461MD1810041+9999REMSYN082AAXX  08001 31088 32999 73602 10180 20105 30146 40153 58004 80002 333 20084 55106;EQDQ01  00002PRCP99
0097310880999992000080803004+59360+143200FM-12+000699999V0202301N002019999999N0500001N1+99999+99999999999ADDGF107991999999999999999999REMSYN059AAXX  08031 31088 42999 72302 0188 20131 40141 58012 80001;
0112310880999992000080806004+59360+143200FM-12+000699999V0202301N003019999999N0500001N1+01811+01451101281ADDGF107991001001999999001011MD1710131+9999REMSYN060AAXX  08061 31088 42999 72303 10181 20145 40128 57013 80001;
0165310880999992000080809004+59360+143200FM-12+000699999V0201601N002019999999N0500001N1+01631+01361101191ADDAA199000091GF106991001001999999001011KA1999M+02121MD1710091+9999REMSYN070AAXX  08091 31088 32999 61602 10163 20136 40119 57009 80001 333 10212;EQDQ01  00002PRCP99
0186310880999992000080812004+59360+143200FM-12+000699999V0201801N004019999999N0500001N1+01511+01251101101ADDAA199000091GF105991021001999999041011KA1999M+02121MA1999999101031MD1710091+9999REMSYN076AAXX  08121 31088 32999 51804 10151 20125 30103 40110 57009 82041 333 10212;EQDQ01  00002PRCP99
0112310880999992000080815004+59360+143200FM-12+000699999V0201601N005019999999N0500001N1+01511+01251101031ADDGF106991031001999999041011MD1710071+9999REMSYN060AAXX  08151 31088 42999 61605 10151 20125 40103 57007 83041;
0112310880999992000080818004+59360+143200FM-12+000699999V0201801N006019999999N0500001N1+01411+01301100961ADDGF107991021001999999041011MD1710071+9999REMSYN060AAXX  08181 31088 42999 71806 10141 20130 40096 57007 82041;
0170310880999992000080821004+59360+143200FM-12+000699999V0202301N005010042019N0040001N1+01401+01311100981ADDAA199000091AY121031AY221031GF108991081061004501999999MD1310021+9999MW1101REMSYN066AAXX  08211 31088 31496 82305 10140 20131 40098 53002 71022 886//;EQDQ01  00002PRCP99
0192310880999992000080900004+59360+143200FM-12+000699999V0202301N003010042019N0200001N1+01391+01241100981ADDAA199000091GF108991081061004501999999KA1120N+01391MA1999999100911MD1410001+9999REMSYN082AAXX  09001 31088 32498 82303 10139 20124 30091 40098 54000 886// 333 20139 55143;EQDQ01  00002PRCP99
0112310880999992000080903004+59360+143200FM-12+000699999V0201801N004010042019N0200001N1+01441+01241100941ADDGF108991081061004501999999MD1810041+9999REMSYN060AAXX  09031 31088 42498 81804 10144 20124 40094 58004 886//;
0112310880999992000080906004+59360+143200FM-12+000699999V0201801N003010042019N0200001N1+01471+01181100791ADDGF108991081061004501999999MD1810151+9999REMSYN060AAXX  09061 31088 42498 81803 10147 20118 40079 58015 886//;
0165310880999992000080909004+59360+143200FM-12+000699999V0201801N004010042019N0500001N1+01481+01261100691ADDAA199000091GF108991081061004501999999KA1999M+01511MD1710101+9999REMSYN070AAXX  09091 31088 32499 81804 10148 20126 40069 57010 886// 333 10151;EQDQ01  00002PRCP99
0186310880999992000080912004+59360+143200FM-12+000699999V0209999C000010042019N0200001N1+01451+01321100721ADDAA199000091GF108991081061004501999999KA1999M+01511MA1999999100651MD1310031+9999REMSYN076AAXX  09121 31088 32498 80000 10145 20132 30065 40072 53003 886// 333 10151;EQDQ01  00002PRCP99
0112310880999992000080915004+59360+143200FM-12+000699999V0201401N002010042019N0200001N1+01421+01341100671ADDGF108991081061004501999999MD1810051+9999REMSYN060AAXX  09151 31088 42498 81402 10142 20134 40067 58005 886//;
0112310880999992000080918004+59360+143200FM-12+000699999V0201401N002010042019N0200001N1+01421+01341100581ADDGF108991081061004501999999MD1710091+9999REMSYN060AAXX  09181 31088 42498 81402 10142 20134 40058 57009 886//;
0142310880999992000080921004+59360+143200FM-12+000699999V0201401N001010042019N0200001N1+01431+01351100541ADDAA199000091GF108991081061004501999999MD1710041+9999REMSYN060AAXX  09211 31088 32498 81401 10143 20135 40054 57004 886//;EQDQ01  00002PRCP99
0192310880999992000081000004+59360+143200FM-12+000699999V0201401N002010042019N0200001N1+01501+01351100541ADDAA199000091GF108991081031004501999999KA1120N+01391MA1999999100471MD1410001+9999REMSYN082AAXX  10001 31088 32498 81402 10150 20135 30047 40054 54000 883// 333 20139 55000;EQDQ01  00002PRCP99
0112310880999992000081003004+59360+143200FM-12+000699999V0201101N003010042019N0200001N1+01531+01331100491ADDGF108991081031004501999999MD1810051+9999REMSYN060AAXX  10031 31088 42498 81103 10153 20133 40049 58005 883//;
0131310880999992000081006004+59360+143200FM-12+000699999V0201101N004010042019N0200001N1+01531+01371100421ADDGF108991999031004501011011MD1710071+9999REMSYN060AAXX  10061 31088 42498 81104 10153 20137 40042 57007 88311;EQDQ01+000082SCOTLC
0181310880999992000081009004+59360+143200FM-12+000699999V0201101N004010042019N0200001N1+01531+01351100381ADDAA199000091GF108991999051004501011011KA1999M+01551MD1710041+9999REMSYN070AAXX  10091 31088 32498 81104 10153 20135 40038 57004 88511 333 10155;EQDQ01+000082SCOTLCQ02  00002PRCP99
0160310880999992000081012004+59360+143200FM-12+000699999V0201101N001019999999N0500001N1+01481+01281100421ADDAA199000091KA1999M+01551MA1999999100351MD1310041+9999REMSYN076AAXX  10121 31088 32599 /1101 10148 20128 30035 40042 53004 885// 333 10155;EQDQ01  00002PRCP99
0112310880999992000081015004+59360+143200FM-12+000699999V0200901N001010042019N0200001N1+01451+01211100401ADDGF108991081051004501999999MD1810021+9999REMSYN060AAXX  10151 31088 42498 80901 10145 20121 40040 58002 885//;
0112310880999992000081018004+59360+143200FM-12+000699999V0200701N001010042019N0200001N1+01391+01191100361ADDGF108991081051004501999999MD1710041+9999REMSYN060AAXX  10181 31088 42498 80701 10139 20119 40036 57004 885//;
0140310880999992000081021004+59360+143200FM-12+000699999V0201801N002010021019N0100001N1+01411+01301100381ADDAY151031AY221031GF108991081061002501999999MD1310021+9999MW1021REMSYN066AAXX  10211 31088 /1397 81802 10141 20130 40038 53002 70252 886//;
0207310880999992000081100004+59360+143200FM-12+000699999V0201601N003010042019N0200001N1+01411+01261100401ADDAA100000791AY151061AY221061GF108991081051004501999999KA1120N+01351MA1999999100331MD1210021+9999MW1021REMSYN094AAXX  11001 31088 11498 81603 10141 20126 30033 40040 52002 69900 70252 885// 333 20135 55000;
0112310880999992000081103004+59360+143200FM-12+000699999V0201601N003010042019N0200001N1+01451+01231100401ADDGF108991081051004501999999MD1410001+9999REMSYN060AAXX  11031 31088 42498 81603 10145 20123 40040 54000 885//;
0112310880999992000081106004+59360+143200FM-12+000699999V0201601N004010042019N0200001N1+01421+01181100391ADDGF108991081051004501999999MD1810011+9999REMSYN060AAXX  11061 31088 42498 81604 10142 20118 40039 58001 885//;
0135310880999992000081109004+59360+143200FM-12+000699999V0201601N003010042019N0200001N1+01361+01151100411ADDGF108991081051004501999999KA1999M+01501MD1310021+9999REMSYN070AAXX  11091 31088 /2498 81603 10136 20115 40041 53002 885// 333 10150;
0173310880999992000081112004+59360+143200FM-12+000699999V0200901N004010042019N0200001N1+01351+01201100491ADDAA100000791GF108991081051004501999999KA1999M+01501MA1999999100421MD1210081+9999REMSYN082AAXX  11121 31088 12498 80904 10135 20120 30042 40049 52008 69900 885// 333 10150;
0112310880999992000081115004+59360+143200FM-12+000699999V0201101N003010042019N0200001N1+01331+01241100521ADDGF108991081051004501999999MD1110031+9999REMSYN060AAXX  11151 31088 42498 81103 10133 20124 40052 51003 885//;
0112310880999992000081118004+59360+143200FM-12+000699999V0201201N004010042019N0200001N1+01321+01261100541ADDGF108991081051004501999999MD1210021+9999REMSYN060AAXX  11181 31088 42498 81204 10132 20126 40054 52002 885//;
0140310880999992000081121004+59360+143200FM-12+000699999V0200901N003010021019N0020001N1+01331+01251100531ADDAY161031AY221031GF108991081051002501999999MD1810011+9999MW1611REMSYN066AAXX  11211 31088 /1395 80903 10133 20125 40053 58001 76162 885//;
0207310880999992000081200004+59360+143200FM-12+000699999V0201801N003010042019N0100001N1+01341+01231100551ADDAA100002091AY161061AY221061GF108991081051004501999999KA1120N+01311MA1999999100481MD1310021+9999MW1211REMSYN094AAXX  12001 31088 11497 81803 10134 20123 30048 40055 53002 60020 72162 885// 333 20131 55000;
0140310880999992000081203004+59360+143200FM-12+000699999V0201601N004010021019N0020001N1+01361+01301100511ADDAY151031AY221031GF108991081061002501999999MD1810041+9999MW1511REMSYN066AAXX  12031 31088 41395 81604 10136 20130 40051 58004 75152 886//;
0140310880999992000081206004+59360+143200FM-12+000699999V0201601N006010021019N0040001N1+01401+01341100511ADDAY151061AY221061GF108991081061002501999999MD1410001+9999MW1511REMSYN066AAXX  12061 31088 41396 81606 10140 20134 40051 54000 75152 886//;
0163310880999992000081209004+59360+143200FM-12+000699999V0201801N005010042019N0100001N1+01421+01331100571ADDAY151031AY221031GF108991081051004501999999KA1999M+01431MD1310061+9999MW1021REMSYN076AAXX  12091 31088 /1497 81805 10142 20133 40057 53006 70252 885// 333 10143;
0201310880999992000081212004+59360+143200FM-12+000699999V0201801N004010042019N0200001N1+01451+01281100611ADDAA100004191AY151061AY221061GF108991081051004501999999KA1999M+01431MA1999999100541MD1210041+9999MW1021REMSYN088AAXX  12121 31088 11498 81804 10145 20128 30054 40061 52004 60040 70252 885// 333 10143;
0112310880999992000081215004+59360+143200FM-12+000699999V0202001N004010042019N0200001N1+01451+01301100611ADDGF108991081051004501999999MD1410001+9999REMSYN060AAXX  12151 31088 42498 82004 10145 20130 40061 54000 885//;
0140310880999992000081218004+59360+143200FM-12+000699999V0202001N004010042019N0200001N1+01431+01251100561ADDAY151061AY221061GF108991081061004501999999MD1810051+9999MW1511REMSYN066AAXX  12181 31088 41498 82004 10143 20125 40056 58005 75152 886//;
0140310880999992000081221004+59360+143200FM-12+000699999V0201801N003010042019N0200001N1+01431+01261100551ADDAY151031AY221031GF108991081051004501999999MD1710011+9999MW1021REMSYN066AAXX  12211 31088 /1498 81803 10143 20126 40055 57001 70252 885//;
0226310880999992000081300004+59360+143200FM-12+000699999V0201101N004010042019N0200001N1+01341+01231100601ADDAA100000191AY151061AY221061GF108991081031004501999999KA1120N+99999MA1999999100531MD1310051+9999MW1021REMSYN094AAXX  13001 31088 11498 81104 10134 20123 30053 40060 53005 69910 70252 883// 333 20141 55000;EQDQ01 +01412ATMN  
0163310880999992000081309004+59360+143200FM-12+000699999V0209999C000010006019N0049001N1+01251+01021100821ADDAY181031AY251031GF108991081031000751999999KA1999M+01451MD1110071+9999MW1251REMSYN076AAXX  13091 31088 /1149 80000 10125 20102 40082 51007 72585 883// 333 10145;
0201310880999992000081312004+59360+143200FM-12+000699999V0209999C000010075019N0500001N1+01191+01071100861ADDAA100003091AY181061AY221061GF107991071031008001001001KA1999M+01451MA1999999100791MD1210041+9999MW1021REMSYN088AAXX  13121 31088 11599 70000 10119 20107 30079 40086 52004 60030 70282 87300 333 10145;
0112310880999992000081315004+59360+143200FM-12+000699999V0200701N001012200019N0500001N1+00951+00861100871ADDGF102991021051008001001001MD1210011+9999REMSYN060AAXX  13151 31088 42599 20701 10095 20086 40087 52001 82500;
0150310880999992000081321004+59360+143200FM-12+000699999V0200201N002010003019N0005001N1+00711+00671100841ADDAY141031AY211031GA1091+999999999GF109991091999999999999999MD1810031+9999MW1421REMSYN060AAXX  13211 31088 /1/93 90202 10071 20067 40084 58003 74241;
0217310880999992000081400004+59360+143200FM-12+000699999V0203601N002012200019N0500001N1+01311+00981100741ADDAA100000391AY141061AY211061GA1001+999999999GF100991001001999999001001KA1120N+00621MA1999999100671MD1810101+9999MW1021REMSYN088AAXX  14001 31088 11999 03602 10131 20098 30067 40074 58010 69930 70241 333 20062 55000;
0112310880999992000081403004+59360+143200FM-12+000699999V0203601N001012200019N0500001N1+01811+00641100551ADDGF103991021021008001031001MD1710191+9999REMSYN060AAXX  14031 31088 42599 33601 10181 20064 40055 57019 82230;
0112310880999992000081406004+59360+143200FM-12+000699999V0202301N004010075019N0500001N1+01601+01071100481ADDGF105991051031008001001001MD1610071+9999REMSYN060AAXX  14061 31088 42599 52304 10160 20107 40048 56007 85300;
0165310880999992000081409004+59360+143200FM-12+000699999V0202301N003010750019N0500001N1+01531+01291100461ADDAA199000091GF105991021061004501041011KA1999M+01871MD1710021+9999REMSYN070AAXX  14091 31088 32499 52303 10153 20129 40046 57002 82641 333 10187;EQDQ01  00002PRCP99
0112310880999992000081415004+59360+143200FM-12+000699999V0202901N002012200019N0500001N1+01001+00851100661ADDGF102991021001999999031001MD1210121+9999REMSYN060AAXX  14151 31088 42999 22902 10100 20085 40066 52012 82030;
0112310880999992000081418004+59360+143200FM-12+000699999V0209999C000010300019N0500001N1+00571+00481100731ADDGF106991021051008001051001MD1210071+9999REMSYN060AAXX  14181 31088 42599 60000 10057 20048 40073 52007 82550;
0142310880999992000081421004+59360+143200FM-12+000699999V0203601N002010075019N0500001N1+00681+00381100691ADDAA199000091GF107991061051008001051001MD1810041+9999REMSYN060AAXX  14211 31088 32599 73602 10068 20038 40069 58004 86550;EQDQ01  00002PRCP99
0192310880999992000081500004+59360+143200FM-12+000699999V0203201N001010075019N0500001N1+01211+00501100681ADDAA199000091GF107991061051008001051001KA1120N+00551MA1999999100611MD1710011+9999REMSYN082AAXX  15001 31088 32599 73201 10121 20050 30061 40068 57001 86550 333 20055 55128;EQDQ01  00002PRCP99
0112310880999992000081503004+59360+143200FM-12+000699999V0209999C000010075019N0500001N1+01351+00671100651ADDGF108991081051008001999999MD1710031+9999REMSYN060AAXX  15031 31088 42599 80000 10135 20067 40065 57003 885//;
0112310880999992000081506004+59360+143200FM-12+000699999V0201101N004010075019N0500001N1+01351+00591100541ADDGF108991081031008001999999MD1810111+9999REMSYN060AAXX  15061 31088 42599 81104 10135 20059 40054 58011 883//;
0159310880999992000081509004+59360+143200FM-12+000699999V0201101N007010075019N0200001N1+99999+99999100461ADDAA199000091GF108991081091008001999999KA1999M+01341MD1710081+9999REMSYN064AAXX  15091 31088 32598 81107 20095 40046 57008 889// 333 10134;EQDQ01  00002PRCP99
0192310880999992000081512004+59360+143200FM-12+000699999V0201401N010010042019N0200001N1+01351+01031100391ADDAA199000091GF108991081031004501999999KA1120M+01391MA1999999100321MD1710071+9999REMSYN082AAXX  15121 31088 32498 81410 10135 20103 30032 40039 57007 883// 333 10139 91116;EQDQ01  00002PRCP99
0122310880999992000081515004+59360+143200FM-12+000699999V0201601N007010042019N0200001N1+01401+01271100341ADDGF108991081031004501999999MD1710051+9999REMSYN070AAXX  15151 31088 42498 81607 10140 20127 40034 57005 883// 333 91112;
0140310880999992000081518004+59360+143200FM-12+000699999V0203601N002010042019N0200001N1+01051+00971100341ADDAY181061AY221061GF108991081061004501999999MD1410001+9999MW1021REMSYN066AAXX  15181 31088 41498 83602 10105 20097 40034 54000 70282 886//;
0140310880999992000081521004+59360+143200FM-12+000699999V0201601N005010042019N0020001N1+01341+01261100371ADDAY151031AY221031GF108991081061004501999999MD1310031+9999MW1551REMSYN066AAXX  15211 31088 /1495 81605 10134 20126 40037 53003 75552 886//;
0207310880999992000081600004+59360+143200FM-12+000699999V0201801N005010042019N0200001N1+01351+01241100371ADDAA100000891AY151061AY221061GF108991081061004501999999KA1120N+01021MA1999999100301MD1410001+9999MW1511REMSYN094AAXX  16001 31088 11498 81805 10135 20124 30030 40037 54000 69970 75152 886// 333 20102 55110;
0140310880999992000081603004+59360+143200FM-12+000699999V0201501N006010042019N0200001N1+01341+01211100361ADDAY151031AY221031GF108991081061004501999999MD1810011+9999MW1021REMSYN066AAXX  16031 31088 41498 81506 10134 20121 40036 58001 70252 886//;
0163310880999992000081609004+59360+143200FM-12+000699999V0201801N006010042019N0200001N1+01341+01211100281ADDAY151031AY221031GF108991081061004501999999KA1999M+01371MD1710061+9999MW1511REMSYN076AAXX  16091 31088 /1498 81806 10134 20121 40028 57006 75152 886// 333 10137;
0201310880999992000081612004+59360+143200FM-12+000699999V0201101N005010042019N0200001N1+01331+01241100331ADDAA100000891AY161061AY251061GF108991081051004501999999KA1999M+01371MA1999999100261MD1310051+9999MW1511REMSYN088AAXX  16121 31088 11498 81105 10133 20124 30026 40033 53005 69980 75165 885// 333 10137;
0140310880999992000081615004+59360+143200FM-12+000699999V0203601N002010042019N0200001N1+01291+01231100421ADDAY151031AY221031GF108991081061004501999999MD1210091+9999MW1511REMSYN066AAXX  16151 31088 41498 83602 10129 20123 40042 52009 75152 886//;
0140310880999992000081618004+59360+143200FM-12+000699999V0203601N002010042019N0200001N1+01241+01191100601ADDAY181061AY221061GF108991081061004501999999MD1310181+9999MW1021REMSYN066AAXX  16181 31088 41498 83602 10124 20119 40060 53018 70282 886//;
0140310880999992000081621004+59360+143200FM-12+000699999V0203601N003010042019N0040001N1+01181+01101100701ADDAY181031AY221031GF108991081091004501999999MD1210101+9999MW1811REMSYN066AAXX  16211 31088 /1496 83603 10118 20110 40070 52010 78182 889//;
0207310880999992000081700004+59360+143200FM-12+000699999V0200201N002010042019N0200001N1+01501+01281100771ADDAA100002091AY181061AY221061GF106991061061004501001001KA1120N+01171MA1999999100701MD1210071+9999MW1021REMSYN094AAXX  17001 31088 11498 60202 10150 20128 30070 40077 52007 60020 70282 86600 333 20117 55000;
0112310880999992000081703004+59360+143200FM-12+000699999V0200501N001010075019N0500001N1+01831+01331100811ADDGF106991061021008001001001MD1210041+9999REMSYN060AAXX  17031 31088 42599 60501 10183 20133 40081 52004 86200;
0135310880999992000081709004+59360+143200FM-12+000699999V0202301N001012200019N0500001N1+01481+01311100871ADDGF106991011051008001001041KA1999M+01891MD1310071+9999REMSYN070AAXX  17091 31088 /2599 62301 10148 20131 40087 53007 81504 333 10189;
0173310880999992000081712004+59360+143200FM-12+000699999V0201801N002010300019N0500001N1+01341+01211101021ADDAA100000591GF107991031051008001031011KA1999M+01891MA1999999100951MD1310151+9999REMSYN082AAXX  17121 31088 12599 71802 10134 20121 30095 40102 53015 69940 83531 333 10189;
0112310880999992000081715004+59360+143200FM-12+000699999V0201401N005012200019N0500001N1+01321+01251101031ADDGF102991001001999999001011MD1110011+9999REMSYN060AAXX  17151 31088 42999 21405 10132 20125 40103 51001 80001;
0112310880999992000081718004+59360+143200FM-12+000699999V0201401N003012200019N0500001N1+01341+01231101061ADDGF102991021051008001001011MD1210031+9999REMSYN060AAXX  17181 31088 42599 21403 10134 20123 40106 52003 82501;
0142310880999992000081721004+59360+143200FM-12+000699999V0203601N002010042019N0200001N1+01121+01041101091ADDAA199000091GF108991081051004501999999MD1210031+9999REMSYN060AAXX  17211 31088 32498 83602 10112 20104 40109 52003 885//;EQDQ01  00002PRCP99
0192310880999992000081800004+59360+143200FM-12+000699999V0209999C000010042019N0200001N1+01141+99999101121ADDAA199000091GF108991081061004501999999KA1120N+00991MA1999999101051MD1210031+9999REMSYN082AAXX  18001 31088 32498 80000 10114 20133 30105 40112 52003 886// 333 20099 55096;EQDQ01  00002PRCP99
0112310880999992000081803004+59360+143200FM-12+000699999V0209999C000010042019N0200001N1+01421+01341101141ADDGF108991081061004501999999MD1210021+9999REMSYN060AAXX  18031 31088 42498 80000 10142 20134 40114 52002 886//;
0112310880999992000081806004+59360+143200FM-12+000699999V0202301N003010075019N0500001N1+01511+01421101001ADDGF107991061031008001001011MD1810141+9999REMSYN060AAXX  18061 31088 42599 72303 10151 20142 40100 58014 86301;
0165310880999992000081809004+59360+143200FM-12+000699999V0202301N003010075019N0500001N1+01471+01291100951ADDAA199000091GF107991051051008001051001KA1999M+01761MD1610051+9999REMSYN070AAXX  18091 31088 32599 72303 10147 20129 40095 56005 85550 333 10176;EQDQ01  00002PRCP99
0186310880999992000081812004+59360+143200FM-12+000699999V0202301N002010042019N0200001N1+01341+01251100961ADDAA199000091GF107991061051004501051001KA1999M+01761MA1999999100891MD1310011+9999REMSYN076AAXX  18121 31088 32498 72302 10134 20125 30089 40096 53001 86550 333 10176;EQDQ01  00002PRCP99
0159310880999992000081818004+59360+143200FM-12+000699999V0209999C000010021019N0040001N1+99999+99999100741ADDAY161061AY221061GF108991081061002501999999MD1710101+9999MW1631REMSYN066AAXX  18181 31088 41396 80000 11343 20126 40074 57010 76362 886//;EQDQ01-003433ATOT  
0140310880999992000081821004+59360+143200FM-12+000699999V0202001N001010021019N0100001N1+01321+01251100721ADDAY181031AY221031GF108991081091002501999999MD1610021+9999MW1811REMSYN066AAXX  18211 31088 /1397 82001 10132 20125 40072 56002 78182 889//;
0207310880999992000081900004+59360+143200FM-12+000699999V0203601N001010021019N0100001N1+01401+01311100661ADDAA100016091AY181061AY221061GF108991081061002501999999KA1120N+01301MA1999999100591MD1710061+9999MW1021REMSYN094AAXX  19001 31088 11397 83601 10140 20131 30059 40066 57006 60160 70282 886// 333 20130 55028;
0112310880999992000081903004+59360+143200FM-12+000699999V0201801N002010021019N0200001N1+01371+01291100711ADDGF108991081061002501999999MD1310051+9999REMSYN060AAXX  19031 31088 42398 81802 10137 20129 40071 53005 886//;
0112310880999992000081906004+59360+143200FM-12+000699999V0202001N001010021019N0200001N1+01391+01311100751ADDGF108991081061002501999999MD1210041+9999REMSYN060AAXX  19061 31088 42398 82001 10139 20131 40075 52004 886//;
0146310880999992000081909004+59360+143200FM-12+000699999V0202001N001010042019N0200001N1+01341+01251100861ADDAA199000021GF107991071051004501001001KA1999M+01481MD1310111+9999REMSYN070AAXX  19091 31088 32498 72001 10134 20125 40086 53011 87500 333 10148;
0173310880999992000081912004+59360+143200FM-12+000699999V0201601N002010042019N0200001N1+01361+01281100921ADDAA100003091GF108991081061004501999999KA1999M+01481MA1999999100851MD1210061+9999REMSYN082AAXX  19121 31088 12498 81602 10136 20128 30085 40092 52006 60030 886// 333 10148;
0112310880999992000081915004+59360+143200FM-12+000699999V0201601N001010042019N0008001N1+01361+01281100951ADDGF108991081061004501999999MD1110031+9999REMSYN060AAXX  19151 31088 42408 81601 10136 20128 40095 51003 886//;
0131310880999992000081918004+59360+143200FM-12+000699999V0201401N003010042019N0200001N1+01371+01291999999ADDGF108991081061004501999999MD1810061+9999REMSYN060AAXX  19181 31088 42498 81403 10137 20129 40194 58006 886//;EQDQ01+101943APOSLP
0140310880999992000081921004+59360+143200FM-12+000699999V0201401N004010042019N0200001N1+01351+01291100971ADDAY181031AY221031GF108991081061004501999999MD1310031+9999MW1021REMSYN066AAXX  19211 31088 /1498 81404 10135 20129 40097 53003 70282 886//;
0207310880999992000082000004+59360+143200FM-12+000699999V0201401N005010042019N0200001N1+01391+01311101031ADDAA100000591AY181061AY221061GF108991081061004501999999KA1120N+01311MA1999999100961MD1210061+9999MW1021REMSYN094AAXX  20001 31088 11498 81405 10139 20131 30096 40103 52006 69950 70282 886// 333 20131 55000;
0150310880999992000082003004+59360+143200FM-12+000699999V0201401N004010003019N0005001N1+01441+01351101041ADDAY141031AY221031GA1091+999999999GF109991091999999999999999MD1210011+9999MW1471REMSYN060AAXX  20031 31088 41/93 91404 10144 20135 40104 52001 74742;
0159310880999992000082006004+59360+143200FM-12+000699999V0201801N005019999999N0200001N1+01411+01321101051ADDAY141061AY221061GF107991999061004501001001MD1210011+9999MW1021REMSYN066AAXX  20061 31088 41498 71805 10141 20132 40105 52001 70242 88600;EQDQ01+000082SCOTLC
0165310880999992000082009004+59360+143200FM-12+000699999V0201401N005012200019N0500001N1+01361+01281101121ADDAA199000091GF102991021061004501001011KA1999M+01461MD1210071+9999REMSYN070AAXX  20091 31088 32499 21405 10136 20128 40112 52007 82601 333 10146;EQDQ01  00002PRCP99
0186310880999992000082012004+59360+143200FM-12+000699999V0201601N006012200019N0500001N1+01271+01231101121ADDAA199000091GF103991021061004501051001KA1999M+01461MA1999999101051MD1410001+9999REMSYN076AAXX  20121 31088 32499 31606 10127 20123 30105 40112 54000 82650 333 10146;EQDQ01  00002PRCP99
0112310880999992000082015004+59360+143200FM-12+000699999V0201401N005010075019N0500001N1+01271+01201101191ADDGF107991071031008001001001MD1310071+9999REMSYN060AAXX  20151 31088 42599 71405 10127 20120 40119 53007 87300;
0112310880999992000082018004+59360+143200FM-12+000699999V0201801N002010042019N0200001N1+01111+01071101221ADDGF106991061031004501001001MD1210031+9999REMSYN060AAXX  20181 31088 42498 61802 10111 20107 40122 52003 86300;
0140310880999992000082021004+59360+143200FM-12+000699999V0201801N002010042019N0020001N1+01091+01031101251ADDAY141031AY221031GF107991071061004501001001MD1210031+9999MW1281REMSYN066AAXX  20211 31088 /1495 71802 10109 20103 40125 52003 72842 87600;
0207310880999992000082100004+59360+143200FM-12+000699999V0203601N003012200019N0500001N1+01431+00671101261ADDAA100000591AY141061AY211061GF102991001001999999001011KA1120N+00981MA1999999101191MD1210011+9999MW1021REMSYN094AAXX  21001 31088 11999 23603 10143 20067 30119 40126 52001 69950 70241 80001 333 20098 55039;
0112310880999992000082103004+59360+143200FM-12+000699999V0202301N004012200019N0500001N1+01531+00901101331ADDGF106991011011008001001011MD1310071+9999REMSYN060AAXX  21031 31088 42599 62304 10153 20090 40133 53007 81101;
0112310880999992000082106004+59360+143200FM-12+000699999V0201801N003012200019N0500001N1+01561+01071101341ADDGF107991031021008001001011MD1510011+9999REMSYN060AAXX  21061 31088 42599 71803 10156 20107 40134 55001 83201;
0165310880999992000082109004+59360+143200FM-12+000699999V0201601N003010075019N0500001N1+01421+01151101361ADDAA199000091GF107991071051008001001001KA1999M+01591MD1210021+9999REMSYN070AAXX  21091 31088 32599 71603 10142 20115 40136 52002 87500 333 10159;EQDQ01  00002PRCP99
0195310880999992000082112004+59360+143200FM-12+000699999V0201801N001010042019N0200001N1+01361+01251101451ADDAA199000021AY161061AY221061GF108991081061004501999999KA1999M+01591MA1999999101381MD1210091+9999MW1631REMSYN082AAXX  21121 31088 31498 81801 10136 20125 30138 40145 52009 76362 886// 333 10159;
0140310880999992000082115004+59360+143200FM-12+000699999V0201601N003010042019N0200001N1+01351+01271101461ADDAY161031AY221031GF108991081061004501999999MD1110011+9999MW1611REMSYN066AAXX  21151 31088 41498 81603 10135 20127 40146 51001 76162 886//;
0140310880999992000082118004+59360+143200FM-12+000699999V0201601N003010042019N0100001N1+01331+01221101391ADDAY181061AY261061GF108991081091004501999999MD1810071+9999MW1811REMSYN066AAXX  21181 31088 41497 81603 10133 20122 40139 58007 78186 889//;
0140310880999992000082121004+59360+143200FM-12+000699999V0201601N003010042019N0200001N1+01291+01101101321ADDAY181031AY221031GF108991081091004501999999MD1710071+9999MW1801REMSYN066AAXX  21211 31088 /1498 81603 10129 20110 40132 57007 78082 889//;
0207310880999992000082200004+59360+143200FM-12+000699999V0201401N006010042019N0100001N1+01311+01201101281ADDAA100003091AY181061AY221061GF108991081091004501999999KA1120N+01261MA1999999101211MD1710041+9999MW1811REMSYN094AAXX  22001 31088 11497 81406 10131 20120 30121 40128 57004 60030 78182 889// 333 20126 55083;
0140310880999992000082206004+59360+143200FM-12+000699999V0200501N002010042019N0200001N1+01391+01171101291ADDAY181061AY221061GF107991071031004501001001MD1310011+9999MW1021REMSYN066AAXX  22061 31088 41498 70502 10139 20117 40129 53001 70282 87300;
0135310880999992000082209004+59360+143200FM-12+000699999V0203201N001010075019N0500001N1+01501+01211101251ADDGF106991061031008001001001KA1999M+01501MD1810041+9999REMSYN070AAXX  22091 31088 /2599 63201 10150 20121 40125 58004 86300 333 10150;
0192310880999992000082212004+59360+143200FM-12+000699999V0202701N002010075019N0500001N1+01231+01151101311ADDAA100007991GF105991051051008001001001KA1999M+99999MA1999999101241MD1310061+9999REMSYN082AAXX  22121 31088 12599 52702 10123 20115 30124 40131 53006 60080 85500 333 11150;EQDQ01 -01502ATMX  
0112310880999992000082215004+59360+143200FM-12+000699999V0209999C000012200019N0500001N1+01101+01061101311ADDGF102991021051008001001001MD1410001+9999REMSYN060AAXX  22151 31088 42599 20000 10110 20106 40131 54000 82500;
0140310880999992000082218004+59360+143200FM-12+000699999V0203601N001012200019N0500001N1+00921+00881101251ADDAY111061AY211061GF102991021001999999041001MD1810061+9999MW1101REMSYN066AAXX  22181 31088 41999 23601 10092 20088 40125 58006 71011 82040;
0170310880999992000082221004+59360+143200FM-12+000699999V0203601N004012200019N0500001N1+00891+00851101191ADDAA199000091AY141031AY201031GF102991021051008001001001MD1710061+9999MW1281REMSYN066AAXX  22211 31088 31599 23604 10089 20085 40119 57006 72840 82500;EQDQ01  00002PRCP99
0220310880999992000082300004+59360+143200FM-12+000699999V0203601N002012200019N0500001N1+01431+01151101151ADDAA199000091AY141061AY201061GF102991021021008001051001KA1120N+00841MA1999999101081MD1710041+9999MW1021REMSYN088AAXX  23001 31088 31599 23602 10143 20115 30108 40115 57004 70240 82250 333 20084 55019;EQDQ01  00002PRCP99
0112310880999992000082303004+59360+143200FM-12+000699999V0201601N003010075019N0500001N1+01451+01071101081ADDGF107991071051008001001001MD1710071+9999REMSYN060AAXX  23031 31088 42599 71603 10145 20107 40108 57007 87500;
0140310880999992000082306004+59360+143200FM-12+000699999V0201601N003010042019N0020001N1+01251+01181101021ADDAY181061AY251061GF108991081061004501999999MD1710041+9999MW1811REMSYN066AAXX  23061 31088 41495 81603 10125 20118 40102 57004 78185 886//;
0163310880999992000082309004+59360+143200FM-12+000699999V0201601N001010042019N0100001N1+01211+01151101051ADDAY181031AY221031GF108991081091004501999999KA1999M+01621MD1310031+9999MW1811REMSYN076AAXX  23091 31088 /1497 81601 10121 20115 40105 53003 78182 889// 333 10162;
0201310880999992000082312004+59360+143200FM-12+000699999V0203601N002010042019N0100001N1+01151+01071101091ADDAA100011991AY181061AY221061GF107991071031004501001001KA1999M+01621MA1999999101021MD1210041+9999MW1251REMSYN088AAXX  23121 31088 11497 73602 10115 20107 30102 40109 52004 60120 72582 87300 333 10162;
0120310880999992000082315004+59360+143200FM-12+000699999V0203601N002012200019N0010001N1+00871+00821101071ADDAY111031AY211031GF102991021051008001001001MW1101REMSYN060AAXX  23151 31088 41594 23602 10087 20082 40107 71011 82500;
0139310880999992000082318004+59360+143200FM-12+000699999V0200101N003010003019N0002001N1+00951+00861101101ADDAA124505092GA1091+999999999GF109991091999999999999999MD1310031+9999REMSYN060AAXX  23181 31088 41/92 90103 10095 20086 40110 53003 65054;
0150310880999992000082321004+59360+143200FM-12+000699999V0200501N003010003019N0005001N1+00921+00881101171ADDAY141031AY211031GA1091+999999999GF109991091999999999999999MD1210071+9999MW1451REMSYN060AAXX  23211 31088 /1/93 90503 10092 20088 40117 52007 74541;
0207310880999992000082400004+59360+143200FM-12+000699999V0203601N002010300019N0500001N1+01371+00981101261ADDAA100008991AY141061AY221061GF105991011011008001051001KA1120N+00861MA1999999101191MD1210091+9999MW1031REMSYN094AAXX  24001 31088 11599 53602 10137 20098 30119 40126 52009 60090 70342 81150 333 20086 55056;
0112310880999992000082403004+59360+143200FM-12+000699999V0202301N003012200019N0500001N1+01501+01091101251ADDGF103991021031008001031001MD1810011+9999REMSYN060AAXX  24031 31088 42599 32303 10150 20109 40125 58001 82330;
0112310880999992000082406004+59360+143200FM-12+000699999V0202001N003010300019N0500001N1+01521+00921101221ADDGF105991041031008001031001MD1710031+9999REMSYN060AAXX  24061 31088 42599 52003 10152 20092 40122 57003 84330;
0163310880999992000082409004+59360+143200FM-12+000699999V0202301N002010075019N0500001N1+01381+01071101331ADDAY181031AY221031GF107991071091008001001001KA1999M+01641MD1310111+9999MW1801REMSYN076AAXX  24091 31088 /1599 72302 10138 20107 40133 53011 78082 87900 333 10164;
0201310880999992000082412004+59360+143200FM-12+000699999V0200501N001010300019N0500001N1+01251+01061101321ADDAA100000791AY181061AY221061GF106991031051008001051001KA1999M+01641MA1999999101251MD1810011+9999MW1011REMSYN088AAXX  24121 31088 11599 60501 10125 20106 30125 40132 58001 69900 70182 83550 333 10164;
0112310880999992000082415004+59360+143200FM-12+000699999V0200701N001010300019N0500001N1+01071+00861101341ADDGF105991031051008001051001MD1210021+9999REMSYN060AAXX  24151 31088 42599 50701 10107 20086 40134 52002 83550;
0112310880999992000082418004+59360+143200FM-12+000699999V0203601N002010075019N0500001N1+00761+00671101391ADDGF107991061031008001051001MD1210051+9999REMSYN060AAXX  24181 31088 42599 73602 10076 20067 40139 52005 86350;
0112310880999992000082421004+59360+143200FM-12+000699999V0203601N002010075019N0500001N1+00811+00731101511ADDGF107991071031008001001001MD1310121+9999REMSYN060AAXX  24211 31088 /2599 73602 10081 20073 40151 53012 87300;
0226310880999992000082500004+59360+143200FM-12+000699999V0200501N004010075019N0200001N1+00151+99999101541ADDAA100000891AY181061AY221061GF107991071031008001001001KA1120N+99999MA1999999101471MD1110031+9999MW1021REMSYN094AAXX  25001 31088 11598 70504 10015 20097 30147 40154 51003 69980 70282 87300 333 20069 55102;EQDQ01 +00692ATMN  
0131310880999992000082503004+59360+143200FM-12+000699999V0201801N002010075019N0200001N1+01392+00881101561ADDGF107991071031008001001001MD1210021+9999REMSYN060AAXX  25031 31088 42598 71802 10139 20088 40156 52002 87300;EQDQ01+001393ATOT  
0140310880999992000082506004+59360+143200FM-12+000699999V0201401N004010300019N0100001N1+01281+00941101541ADDAY181061AY221061GF106991041031008001031001MD1810021+9999MW1801REMSYN066AAXX  25061 31088 41597 61404 10128 20094 40154 58002 78082 84330;
0163310880999992000082509004+59360+143200FM-12+000699999V0201401N005012200019N0500001N1+01271+01041101601ADDAY181031AY211031GF102991021031008001001001KA1999M+01471MD1310061+9999MW1011REMSYN076AAXX  25091 31088 /1599 21405 10127 20104 40160 53006 70181 82300 333 10147;
0201310880999992000082512004+59360+143200FM-12+000699999V0200701N001012200019N0500001N1+00931+00811101651ADDAA100001091AY181061AY211061GF101991011051008001001001KA1999M+01471MA1999999101581MD1210051+9999MW1011REMSYN088AAXX  25121 31088 11599 10701 10093 20081 30158 40165 52005 69990 70181 81500 333 10147;
0122310880999992000082515004+59360+143200FM-12+000699999V0203601N002012200019N0500001N1+00711+00621101711ADDGA1001+999999999GF100991001001999999001001MD1210061+9999REMSYN054AAXX  25151 31088 42999 03602 10071 20062 40171 52006;
0122310880999992000082518004+59360+143200FM-12+000699999V0203601N004012200019N0500001N1+00501+00451101721ADDGA1001+999999999GF100991001001999999001001MD1110011+9999REMSYN054AAXX  25181 31088 42999 03604 10050 20045 40172 51001;
0180310880999992000082521004+59360+143200FM-12+000699999V0203601N003012200019N0002001N1+00701+00651101801ADDAA199000091AY141031AY201031GA1001+999999999GF100991001001999999001001MD1310081+9999MW1441REMSYN060AAXX  25211 31088 31992 03603 10070 20065 40180 53008 74440;EQDQ01  00002PRCP99
0230310880999992000082600004+59360+143200FM-12+000699999V0209999C000010003019N0002001N1+00851+00781101811ADDAA199000091AY141061AY221061GA1091+999999999GF109991091999999999999999KA1120N+00421MA1999999101741MD1210011+9999MW1451REMSYN082AAXX  26001 31088 31/92 90000 10085 20078 30174 40181 52001 74542 333 20042 55067;EQDQ01  00002PRCP99
0159310880999992000082603004+59360+143200FM-12+000699999V0200201N003019999999N0020001N1+01091+00951101811ADDAY141031AY221031GF107991999061004501001001MD1410001+9999MW1101REMSYN066AAXX  26031 31088 41495 70203 10109 20095 40181 54000 71042 88600;EQDQ01+000082SCOTLC
0140310880999992000082606004+59360+143200FM-12+000699999V0202301N002010042019N0040001N1+01151+00991101741ADDAY141061AY221061GF108991081061004501999999MD1810071+9999MW1101REMSYN066AAXX  26061 31088 41496 82302 10115 20099 40174 58007 71042 886//;
0181310880999992000082609004+59360+143200FM-12+000699999V0200201N002019999999N0200001N1+01221+01061101721ADDAA199000091GF107991999061004501001001KA1999M+01251MD1710021+9999REMSYN070AAXX  26091 31088 32498 70202 10122 20106 40172 57002 88600 333 10125;EQDQ01+000082SCOTLCQ02  00002PRCP99
0186310880999992000082612004+59360+143200FM-12+000699999V0201801N002010042019N0200001N1+01231+01121101701ADDAA199000091GF107991071051004501001001KA1999M+01251MA1999999101631MD1710021+9999REMSYN076AAXX  26121 31088 32498 71802 10123 20112 30163 40170 57002 87500 333 10125;EQDQ01  00002PRCP99
0112310880999992000082615004+59360+143200FM-12+000699999V0201401N002010075019N0200001N1+01191+01111101691ADDGF106991061051008001001001MD1710011+9999REMSYN060AAXX  26151 31088 42598 61402 10119 20111 40169 57001 86500;
0112310880999992000082618004+59360+143200FM-12+000699999V0201401N003010075019N0200001N1+01171+01051101651ADDGF108991081051008001999999MD1710041+9999REMSYN060AAXX  26181 31088 42598 81403 10117 20105 40165 57004 885//;
0142310880999992000082621004+59360+143200FM-12+000699999V0203601N001010075019N0500001N1+01031+00931101641ADDAA199000091GF107991071051008001001001MD1710011+9999REMSYN060AAXX  26211 31088 32599 73601 10103 20093 40164 57001 87500;EQDQ01  00002PRCP99
0192310880999992000082700004+59360+143200FM-12+000699999V0201601N004010075019N0500001N1+01251+01041101581ADDAA199000091GF108991081051008001999999KA1120N+01011MA1999999101511MD1710061+9999REMSYN082AAXX  27001 31088 32599 81604 10125 20104 30151 40158 57006 885// 333 20101 55048;EQDQ01  00002PRCP99
0112310880999992000082703004+59360+143200FM-12+000699999V0201801N002010075019N0500001N1+01391+01051101511ADDGF108991061031008001071999MD1710071+9999REMSYN060AAXX  27031 31088 42599 81802 10139 20105 40151 57007 8637/;
0112310880999992000082706004+59360+143200FM-12+000699999V0201601N003010075019N0500001N1+01421+01241101331ADDGF107991071031008001001011MD1810181+9999REMSYN060AAXX  27061 31088 42599 71603 10142 20124 40133 58018 87301;
0165310880999992000082709004+59360+143200FM-12+000699999V0201601N003010075019N0500001N1+01381+01271101211ADDAA199000091GF108991061031008001071999KA1999M+01451MD1710121+9999REMSYN070AAXX  27091 31088 32599 81603 10138 20127 40121 57012 8637/ 333 10145;EQDQ01  00002PRCP99
0186310880999992000082712004+59360+143200FM-12+000699999V0201401N004010075019N0500001N1+01361+01271101111ADDAA199000091GF108991061031008001071999KA1999M+01451MA1999999101041MD1710101+9999REMSYN076AAXX  27121 31088 32599 81404 10136 20127 30104 40111 57010 8637/ 333 10145;EQDQ01  00002PRCP99
0140310880999992000082715004+59360+143200FM-12+000699999V0201101N006010075019N0200001N1+01351+01171100931ADDAY181031AY221031GF108991081091008001999999MD1810181+9999MW1801REMSYN066AAXX  27151 31088 41598 81106 10135 20117 40093 58018 78082 889//;
0140310880999992000082718004+59360+143200FM-12+000699999V0201101N004010075019N0200001N1+01261+01131100911ADDAY181061AY221061GF108991081091008001999999MD1610021+9999MW1801REMSYN066AAXX  27181 31088 41598 81104 10126 20113 40091 56002 78082 889//;
0140310880999992000082721004+59360+143200FM-12+000699999V0203601N001010042019N0500001N1+01221+00991100931ADDAY181031AY221031GF107991061051004501041011MD1310021+9999MW1011REMSYN066AAXX  27211 31088 /1499 73601 10122 20099 40093 53002 70182 86541;
0207310880999992000082800004+59360+143200FM-12+000699999V0200401N002012200019N0500001N1+01481+01001101001ADDAA100000591AY181061AY221061GF106991041031008001001011KA1120N+01181MA1999999100941MD1210071+9999MW1011REMSYN094AAXX  28001 31088 11599 60402 10148 20100 30094 40100 52007 69940 70182 84301 333 20118 55037;
0112310880999992000082803004+59360+143200FM-12+000699999V0201801N003010075019N0500001N1+01531+00951100941ADDGF106991061031008001001001MD1810061+9999REMSYN060AAXX  28031 31088 42599 61803 10153 20095 40094 58006 86300;
0112310880999992000082806004+59360+143200FM-12+000699999V0202301N003012200019N0500001N1+01491+01021100931ADDGF102991021011008001001001MD1710011+9999REMSYN060AAXX  28061 31088 42599 22303 10149 20102 40093 57001 82100;
0165310880999992000082809004+59360+143200FM-12+000699999V0202701N002012200019N0500001N1+01341+01051100951ADDAA199000091GF103991031051008001001001KA1999M+01651MD1310021+9999REMSYN070AAXX  28091 31088 32599 32702 10134 20105 40095 53002 83500 333 10165;EQDQ01  00002PRCP99
0186310880999992000082812004+59360+143200FM-12+000699999V0209999C000012200019N0500001N1+01221+01031100951ADDAA199000091GF102991021051008001001001KA1999M+01651MA1999999100881MD1410001+9999REMSYN076AAXX  28121 31088 32599 20000 10122 20103 30088 40095 54000 82500 333 10165;EQDQ01  00002PRCP99
0112310880999992000082815004+59360+143200FM-12+000699999V0203601N002012200019N0500001N1+00891+00781100951ADDGF101991011051008001001001MD1410001+9999REMSYN060AAXX  28151 31088 42599 13602 10089 20078 40095 54000 81500;
0122310880999992000082818004+59360+143200FM-12+000699999V0200701N003012200019N0500001N1+00811+00701101001ADDGA1001+999999999GF100991001001999999001001MD1310051+9999REMSYN054AAXX  28181 31088 42999 00703 10081 20070 40100 53005;
0142310880999992000082821004+59360+143200FM-12+000699999V0200501N003012200019N0500001N1+00951+00701101061ADDAA199000091GF102991001001999999001011MD1210061+9999REMSYN060AAXX  28211 31088 32999 20503 10095 20070 40106 52006 80001;EQDQ01  00002PRCP99
0192310880999992000082900004+59360+143200FM-12+000699999V0200201N002019999999N0500001N1+01531+00931101091ADDAA199000091GF107991001001999999001011KA1120N+00811MA1999999101021MD1210031+9999REMSYN082AAXX  29001 31088 32999 70202 10153 20093 30102 40109 52003 80001 333 20081 55103;EQDQ01  00002PRCP99
0112310880999992000082903004+59360+143200FM-12+000699999V0202501N003012200019N0500001N1+01651+01151101031ADDGF103991011021008001001091MD1810061+9999REMSYN060AAXX  29031 31088 42599 32503 10165 20115 40103 58006 81209;
0112310880999992000082906004+59360+143200FM-12+000699999V0202501N003012200019N0500001N1+01701+01251100901ADDGF103991001001999999001091MD1810131+9999REMSYN060AAXX  29061 31088 42999 32503 10170 20125 40090 58013 80009;
0165310880999992000082909004+59360+143200FM-12+000699999V0201801N002012200019N0500001N1+01451+01091100851ADDAA199000091GF103991011001999999031011KA1999M+01941MD1610051+9999REMSYN070AAXX  29091 31088 32999 31802 10145 20109 40085 56005 81031 333 10194;EQDQ01  00002PRCP99
0186310880999992000082912004+59360+143200FM-12+000699999V0202001N001012200019N0500001N1+01401+01071100821ADDAA199000091GF102991001001999999001011KA1999M+01941MA1999999100751MD1710031+9999REMSYN076AAXX  29121 31088 32999 22001 10140 20107 30075 40082 57003 80001 333 10194;EQDQ01  00002PRCP99
0122310880999992000082915004+59360+143200FM-12+000699999V0201601N003012200019N0500001N1+01281+01131100771ADDGA1001+999999999GF100991001001999999001001MD1710051+9999REMSYN054AAXX  29151 31088 42999 01603 10128 20113 40077 57005;
0112310880999992000082918004+59360+143200FM-12+000699999V0203601N001012200019N0500001N1+01021+00921100731ADDGF102991021001008001031001MD1710041+9999REMSYN060AAXX  29181 31088 42599 23601 10102 20092 40073 57004 82030;
0142310880999992000082921004+59360+143200FM-12+000699999V0203601N002010042019N0500001N1+00711+00671100741ADDAA199000091GF107991071061004501001001MD1310011+9999REMSYN060AAXX  29211 31088 32499 73602 10071 20067 40074 53001 87600;EQDQ01  00002PRCP99
0230310880999992000083000004+59360+143200FM-12+000699999V0203601N002010003019N0002001N1+01031+01021100781ADDAA199000091AY141061AY211061GA1091+999999999GF109991091999999999999999KA1120N+00671MA1999999100711MD1210041+9999MW1451REMSYN082AAXX  30001 31088 31/92 93602 10103 20102 30071 40078 52004 74541 333 20067 55131;EQDQ01  00002PRCP99
0140310880999992000083003004+59360+143200FM-12+000699999V0201801N002019999999N0500001N1+01491+01181100781ADDAY141031AY221031GF105991011001999999031011MD1410001+9999MW1021REMSYN066AAXX  30031 31088 41999 51802 10149 20118 40078 54000 70242 81031;
0140310880999992000083006004+59360+143200FM-12+000699999V0201601N005012200019N0500001N1+01411+01231100671ADDAY141061AY221061GF106991031061004501001011MD1810111+9999MW1031REMSYN066AAXX  30061 31088 41499 61605 10141 20123 40067 58011 70342 83601;
0165310880999992000083009004+59360+143200FM-12+000699999V0201601N007010042019N0200001N1+01271+01151100651ADDAA199000091GF105991051061004501001001KA1999M+01501MD1610021+9999REMSYN070AAXX  30091 31088 32498 51607 10127 20115 40065 56002 85600 333 10150;EQDQ01  00002PRCP99
0186310880999992000083012004+59360+143200FM-12+000699999V0201101N003012200019N0200001N1+01221+01051100761ADDAA199000091GF103991031061004501001001KA1999M+01501MA1999999100691MD1310111+9999REMSYN076AAXX  30121 31088 32498 31103 10122 20105 30069 40076 53011 83600 333 10150;EQDQ01  00002PRCP99
0112310880999992000083015004+59360+143200FM-12+000699999V0203601N002010042019N0200001N1+00941+00901100791ADDGF107991071061004501001001MD1110031+9999REMSYN060AAXX  30151 31088 42498 73602 10094 20090 40079 51003 87600;
0112310880999992000083018004+59360+143200FM-12+000699999V0203601N002010042019N0200001N1+01091+00991100771ADDGF108991081061004501999999MD1810021+9999REMSYN060AAXX  30181 31088 42498 83602 10109 20099 40077 58002 886//;
0142310880999992000083021004+59360+143200FM-12+000699999V0203601N002010042019N0200001N1+01081+00981100831ADDAA199000091GF108991081061004501999999MD1310061+9999REMSYN060AAXX  30211 31088 32498 83602 10108 20098 40083 53006 886//;EQDQ01  00002PRCP99
0112310880999992000083103004+59360+143200FM-12+000699999V0209999C000010042019N0200001N1+01351+01091100871ADDGF108991081061004501999999MD1810011+9999REMSYN060AAXX  31031 31088 42498 80000 10135 20109 40087 58001 886//;
0112310880999992000083106004+59360+143200FM-12+000699999V0201801N003010042019N0200001N1+01331+01101100871ADDGF108991081061004501999999MD1410001+9999REMSYN060AAXX  31061 31088 42498 81803 10133 20110 40087 54000 886//;
0165310880999992000083109004+59360+143200FM-12+000699999V0201801N003010042019N0200001N1+01291+01121100871ADDAA199000091GF108991081061004501999999KA1999M+01371MD1410001+9999REMSYN070AAXX  31091 31088 32498 81803 10129 20112 40087 54000 886// 333 10137;EQDQ01  00002PRCP99
0186310880999992000083112004+59360+143200FM-12+000699999V0201601N003010042019N0200001N1+01291+01201100891ADDAA199000091GF108991081061004501999999KA1999M+01371MA1999999100821MD1310021+9999REMSYN076AAXX  31121 31088 32498 81603 10129 20120 30082 40089 53002 886// 333 10137;EQDQ01  00002PRCP99
0140310880999992000083115004+59360+143200FM-12+000699999V0201101N004010021019N0040001N1+01241+01201100881ADDAY151031AY221031GF108991081061002501999999MD1810011+9999MW1511REMSYN066AAXX  31151 31088 41396 81104 10124 20120 40088 58001 75152 886//;
0140310880999992000083118004+59360+143200FM-12+000699999V0201401N004010021019N0020001N1+01251+01211100861ADDAY101061AY221061GF108991081061002501999999MD1710021+9999MW1531REMSYN066AAXX  31181 31088 41395 81404 10125 20121 40086 57002 75302 886//;
0103310880999992000083121004+59360+143200FM-12+000699999V0202301N002019999999N0020001N1+01271+01231999999ADDGF108991999999002501999999REMSYN065AAXX  31211 31088 /1395 82302 10127 20123 4008 53002 75152 886//;
0207310880999992000090100004+59360+143200FM-12+000699999V0203601N001010021019N0100001N1+01301+01211100891ADDAA100001091AY151061AY221061GF108991081061002501999999KA1120N+01201MA1999999100821MD1210011+9999MW1511REMSYN094AAXX  01001 31088 11397 83601 10130 20121 30082 40089 52001 69990 75152 886// 333 20120 55000;
0140310880999992000090106004+59360+143200FM-12+000699999V0202301N002010042019N0200001N1+01441+01291100851ADDAY151061AY221061GF108991081061004501999999MD1710031+9999MW1021REMSYN066AAXX  01061 31088 41498 82302 10144 20129 40085 57003 70252 886//;
0135310880999992000090109004+59360+143200FM-12+000699999V0202701N002010042019N0200001N1+01361+01201100821ADDGF108991081061004501999999KA1999M+01471MD1710031+9999REMSYN070AAXX  01091 31088 /2498 82702 10136 20120 40082 57003 886// 333 10147;
0201310880999992000090112004+59360+143200FM-12+000699999V0202301N003010042019N0200001N1+01371+01291100831ADDAA100000391AY151061AY221061GF108991081061004501999999KA1999M+01471MA1999999100751MD1410001+9999MW1511REMSYN088AAXX  01121 31088 11498 82303 10137 20129 30075 40083 54000 69930 75152 886// 333 10147;
0140310880999992000090115004+59360+143200FM-12+000699999V0201801N002010042019N0100001N1+01391+01311100791ADDAY151031AY221031GF108991081061004501999999MD1810031+9999MW1551REMSYN066AAXX  01151 31088 41497 81802 10139 20131 40079 58003 75552 886//;
0140310880999992000090118004+59360+143200FM-12+000699999V0201801N002010042019N0040001N1+01291+01271100801ADDAY151061AY221061GF108991081061004501999999MD1310011+9999MW1531REMSYN066AAXX  01181 31088 41496 81802 10129 20127 40080 53001 75352 886//;
0140310880999992000090121004+59360+143200FM-12+000699999V0201801N002010042019N0040001N1+01241+01191100801ADDAY151031AY221031GF108991081061004501999999MD1410001+9999MW1511REMSYN066AAXX  01211 31088 /1496 81802 10124 20119 40080 54000 75152 886//;
0207310880999992000090200004+59360+143200FM-12+000699999V0201801N002010042019N0040001N1+01281+01221100761ADDAA100001091AY151061AY221061GF108991081061004501999999KA1120N+01221MA1999999100691MD1810041+9999MW1511REMSYN094AAXX  02001 31088 11496 81802 10128 20122 30069 40076 58004 60010 75152 886// 333 20122 55000;
0140310880999992000090203004+59360+143200FM-12+000699999V0201801N001010042019N0040001N1+01371+01311100641ADDAY151031AY221031GF108991081061004501999999MD1710121+9999MW1511REMSYN066AAXX  02031 31088 41496 81801 10137 20131 40064 57012 75152 886//;
0140310880999992000090206004+59360+143200FM-12+000699999V0202001N004010042019N0040001N1+01391+01331100531ADDAY151061AY221061GF108991081061004501999999MD1710111+9999MW1101REMSYN066AAXX  02061 31088 41496 82004 10139 20133 40053 57011 71052 886//;
0163310880999992000090209004+59360+143200FM-12+000699999V0202301N004010042019N0040001N1+01391+01331100451ADDAY151031AY221031GF108991081061004501999999KA1999M+01401MD1710081+9999MW1511REMSYN076AAXX  02091 31088 /1496 82304 10139 20133 40045 57008 75152 886// 333 10140;
0201310880999992000090212004+59360+143200FM-12+000699999V0203401N002012200019N0500001N1+01291+00891100471ADDAA100000591AY151061AY211061GF103991031061004501001001KA1999M+01401MA1999999100401MD1310021+9999MW1011REMSYN088AAXX  02121 31088 11499 33402 10129 20089 30040 40047 53002 69940 70151 83600 333 10140;
0112310880999992000090215004+59360+143200FM-12+000699999V0203401N001019999999N0500001N1+01171+00591100591ADDGF106991001001999999001011MD1310121+9999REMSYN060AAXX  02151 31088 42999 63401 10117 20059 40059 53012 80001;
0112310880999992000090218004+59360+143200FM-12+000699999V0203601N006010300019N0500001N1+01171+00151100701ADDGF106991021051008001041011MD1210111+9999REMSYN060AAXX  02181 31088 42599 63606 10117 20015 40070 52011 82541;
0122310880999992000090221004+59360+143200FM-12+000699999V0203601N009012200019N0500001N1+01071+00021100771ADDGF103991021001999999041011MD1210071+9999REMSYN070AAXX  02211 31088 /2999 33609 10107 20002 40077 52007 82041 333 91114;
0165310880999992000090309004+59360+143200FM-12+000699999V0203401N004012200019N0500001N1+01491-00071100951ADDAA199000091GF103991021001999999041011KA1999M+01721MD1210051+9999REMSYN070AAXX  03091 31088 32999 33404 10149 21007 40095 52005 82041 333 10172;EQDQ01  00002PRCP99
0186310880999992000090312004+59360+143200FM-12+000699999V0203601N002012200019N0500001N1+01031+00151101031ADDAA199000091GF102991011001999999041011KA1999M+01721MA1999999100961MD1210081+9999REMSYN076AAXX  03121 31088 32999 23602 10103 20015 30096 40103 52008 81041 333 10172;EQDQ01  00002PRCP99
0112310880999992000090315004+59360+143200FM-12+000699999V0203601N002012200019N0500001N1+00881+00131101011ADDGF103991031001999999041001MD1810021+9999REMSYN060AAXX  03151 31088 42999 33602 10088 20013 40101 58002 83040;
0112310880999992000090318004+59360+143200FM-12+000699999V0203201N001010075019N0500001N1+00661+00331101041ADDGF108991051051008001051999MD1310051+9999REMSYN060AAXX  03181 31088 42599 83201 10066 20033 40104 53005 8555/;
0192310880999992000090400004+59360+143200FM-12+000699999V0201601N003010075019N0500001N1+01181+00151100921ADDAA199000091GF108991081051008001999999KA1120N+00571MA1999999100851MD1710071+9999REMSYN082AAXX  04001 31088 32599 81603 10118 20015 30085 40092 57007 885// 333 20057 55132;EQDQ01  00002PRCP99
0112310880999992000090403004+59360+143200FM-12+000699999V0201401N003010075019N0500001N1+01181+00211100701ADDGF108991081051008001999999MD1810221+9999REMSYN060AAXX  04031 31088 42599 81403 10118 20021 40070 58022 885//;
0140310880999992000090406004+59360+143200FM-12+000699999V0201401N008010075019N0100001N1+00971+00711100331ADDAY181061AY221061GF108991081091008001999999MD1710371+9999MW1811REMSYN066AAXX  04061 31088 41597 81408 10097 20071 40033 57037 78182 889//;
0163310880999992000090409004+59360+143200FM-12+000699999V0201401N008010075019N0100001N1+00781+00581100061ADDAY181031AY221031GF108991081091008001999999KA1999M+01241MD1710271+9999MW1811REMSYN076AAXX  04091 31088 /1597 81408 10078 20058 40006 57027 78182 889// 333 10124;
0201310880999992000090412004+59360+143200FM-12+000699999V0200701N007010075019N0040001N1+00751+00481099621ADDAA100008991AY181061AY261061GF108991081051008001999999KA1999M+01241MA1999999099551MD1810441+9999MW1611REMSYN088AAXX  04121 31088 11596 80707 10075 20048 39955 49962 58044 60090 76186 885// 333 10124;
0140310880999992000090415004+59360+143200FM-12+000699999V0203601N004010075019N0200001N1+00671+00531099351ADDAY181031AY261031GF108991081051008001999999MD1610271+9999MW1021REMSYN066AAXX  04151 31088 41598 83604 10067 20053 49935 56027 70286 885//;
0140310880999992000090418004+59360+143200FM-12+000699999V0203401N005010075019N0200001N1+00591+00521099151ADDAY181061AY261061GF108991081051008001999999MD1710201+9999MW1021REMSYN066AAXX  04181 31088 41598 83405 10059 20052 49915 57020 70286 885//;
0159310880999992000090421004+59360+143200FM-12+000699999V0203601N004010075019N0040001N1+00571+00501099141ADDAY161031AY221031GF108991081051008001999999MD1610011+9999MW1611REMSYN066AAXX  04211 31088 /1596 83604 10057 20050 49914 56081 76162 885//;EQDQ01+000812APC3  
0207310880999992000090500004+59360+143200FM-12+000699999V0203601N005010075019N0500001N1+00801+00431099161ADDAA100003091AY161061AY221061GF107991071051008001001001KA1120N+00561MA1999999099091MD1310021+9999MW1021REMSYN094AAXX  05001 31088 11599 73605 10080 20043 39909 49916 53002 60030 70262 87500 333 20056 55000;
0112310880999992000090503004+59360+143200FM-12+000699999V0203601N008010075019N0500001N1+01171+00341099171ADDGF106991061021008001001001MD1210011+9999REMSYN060AAXX  05031 31088 42599 63608 10117 20034 49917 52001 86200;
0112310880999992000090506004+59360+143200FM-12+000699999V0203401N008010075019N0500001N1+01411+00231099181ADDGF105991051021008001001001MD1210011+9999REMSYN060AAXX  05061 31088 42599 53408 10141 20023 49918 52001 85200;
0135310880999992000090509004+59360+143200FM-12+000699999V0203401N004010750019N0500001N1+01231+00191099361ADDGF105991011051008001031011KA1999M+01421MD1310181+9999REMSYN070AAXX  05091 31088 /2599 53404 10123 20019 49936 53018 81531 333 10142;
0173310880999992000090512004+59360+143200FM-12+000699999V0202701N002012200019N0500001N1+00701+00041099561ADDAA100000791GF102991021051008001001001KA1999M+01421MA1999999099491MD1210201+9999REMSYN082AAXX  05121 31088 12599 22702 10070 20004 39949 49956 52020 69900 82500 333 10142;
0112310880999992000090515004+59360+143200FM-12+000699999V0202701N002012200019N0500001N1+00541+00161099661ADDGF101991011051008001001001MD1110101+9999REMSYN060AAXX  05151 31088 42599 12702 10054 20016 49966 51010 81500;
0112310880999992000090518004+59360+143200FM-12+000699999V0202701N003012200019N0500001N1+00471-00161099771ADDGF101991011051008001001001MD1210111+9999REMSYN060AAXX  05181 31088 42599 12703 10047 21016 49977 52011 81500;
0142310880999992000090521004+59360+143200FM-12+000699999V0202701N003012200019N0500001N1+00521-00181099941ADDAA199000091GF101991011051008001001001MD1210171+9999REMSYN060AAXX  05211 31088 32599 12703 10052 21018 49994 52017 81500;EQDQ01  00002PRCP99
0192310880999992000090600004+59360+143200FM-12+000699999V0202501N006012200019N0500001N1+00911-00021100031ADDAA199000091GF101991011021008001001001KA1120N+00401MA1999999099961MD1110091+9999REMSYN082AAXX  06001 31088 32599 12506 10091 21002 39996 40003 51009 81200 333 20040 55101;EQDQ01  00002PRCP99
0112310880999992000090603004+59360+143200FM-12+000699999V0202501N005012200019N0500001N1+01171+00021100051ADDGF103991031021008001001001MD1110021+9999REMSYN060AAXX  06031 31088 42599 32505 10117 20002 40005 51002 83200;
0112310880999992000090606004+59360+143200FM-12+000699999V0202701N002010075019N0500001N1+01251-00141100161ADDGF107991061051008001051001MD1310111+9999REMSYN060AAXX  06061 31088 42599 72702 10125 21014 40016 53011 86550;
0165310880999992000090609004+59360+143200FM-12+000699999V0203401N004010300019N0500001N1+01041-00191100431ADDAA199000091GF105991031051008001031001KA1999M+01271MD1310271+9999REMSYN070AAXX  06091 31088 32599 53404 10104 21019 40043 53027 83530 333 10127;EQDQ01  00002PRCP99
0186310880999992000090612004+59360+143200FM-12+000699999V0203201N004012200019N0500001N1+00731-00171100691ADDAA199000091GF102991021051008001041001KA1999M+01271MA1999999100621MD1210261+9999REMSYN076AAXX  06121 31088 32599 23204 10073 21017 30062 40069 52026 82540 333 10127;EQDQ01  00002PRCP99
0112310880999992000090615004+59360+143200FM-12+000699999V0209999C000012200019N0500001N1+00441-00011100971ADDGF101991011001999999041001MD1210281+9999REMSYN060AAXX  06151 31088 42999 10000 10044 21001 40097 52028 81040;
0186310880999992000090618004+59360+143200FM-12+000699999V0203201N004012200019N0500001N1+00731-00171100691ADDAA199000091GF102991021051008001041001KA1999M+01271MA1999999100621MD1210261+9999REMSYN076AAXX  06181 31088 32599 23204 10073 21017 30062 40069 52026 82540 333 10127;EQDQ01  00002PRCP99
0152310880999992000090621004+59360+143200FM-12+000699999V0200501N002012200019N0500001N1+00451-00261101361ADDAA199000091GA1001+999999999GF100991001001999999001001MD1110151+9999REMSYN054AAXX  06211 31088 32999 00502 10045 21026 40136 51015;EQDQ01  00002PRCP99
0202310880999992000090700004+59360+143200FM-12+000699999V0203601N002012200019N0500001N1+01021-00091101451ADDAA199000091GA1001+999999999GF100991001001999999001001KA1120N+00261MA1999999101381MD1210091+9999REMSYN076AAXX  07001 31088 32999 03602 10102 21009 30138 40145 52009 333 20026 55099;EQDQ01  00002PRCP99
0122310880999992000090703004+59360+143200FM-12+000699999V0203201N001012200019N0500001N1+01331+00151101451ADDGA1001+999999999GF100991001001999999001001MD1410001+9999REMSYN054AAXX  07031 31088 42999 03201 10133 20015 40145 54000;
0112310880999992000090706004+59360+143200FM-12+000699999V0201401N005012200019N0500001N1+01211+00451101391ADDGF101991011011008001001001MD1810061+9999REMSYN060AAXX  07061 31088 42599 11405 10121 20045 40139 58006 81100;
0181310880999992000090709004+59360+143200FM-12+000699999V0202701N004012200019N0500001N1+01201+00481101411ADDAA199000091GF101991999041008001001001KA1999M+01461MD1310021+9999REMSYN070AAXX  07091 31088 32599 12704 10120 20048 40141 53002 82400 333 10146;EQDQ01+000022SCOTLCQ02  00002PRCP99
0196310880999992000090712004+59360+143200FM-12+000699999V0203001N002012200019N0500001N1+00841-00021101451ADDAA199000091GA1001+999999999GF100991001001999999001001KA1999M+01461MA1999999101381MD1210041+9999REMSYN070AAXX  07121 31088 32999 03002 10084 21002 30138 40145 52004 333 10146;EQDQ01  00002PRCP99
0122310880999992000090715004+59360+143200FM-12+000699999V0203401N002012200019N0500001N1+00371-00091101381ADDGA1001+999999999GF100991001001999999001001MD1410001+9999REMSYN054AAXX  07151 31088 42999 03402 10037 21009 40138 54000;
0122310880999992000090718004+59360+143200FM-12+000699999V0203601N001012200019N0500001N1+00391-00011101451ADDGA1001+999999999GF100991001001999999001001MD1410001+9999REMSYN054AAXX  07181 31088 42999 03601 10039 21001 40145 54000;
0142310880999992000090721004+59360+143200FM-12+000699999V0203601N002010300019N0500001N1+00411+00131101441ADDAA199000091GF106991021051008001051011MD1810011+9999REMSYN060AAXX  07211 31088 32599 63602 10041 20013 40144 58001 82551;EQDQ01  00002PRCP99
0187310880999992000090800004+59360+143200FM-12+000699999V0202701N003010750019N0500001N1+01101+00301101361ADDAA124999999GF105991011051008001031011GJ107869KA1120N+00251MA1999999101291MD1710081+9999REMSYN088AAXX  08001 31088 32599 52703 10110 20030 30129 40136 57008 81531 333 20025 55131 7000/;
0112310880999992000090803004+59360+143200FM-12+000699999V0203101N005010300019N0500001N1+01361+00151101181ADDGF106991021051008001031011MD1810181+9999REMSYN060AAXX  08031 31088 42599 63105 10136 20015 40118 58018 82531;
0112310880999992000090806004+59360+143200FM-12+000699999V0202901N002010300019N0500001N1+01521+00341100941ADDGF107991031051008001031011MD1710241+9999REMSYN060AAXX  08061 31088 42599 72902 10152 20034 40094 57024 83531;
0165310880999992000090809004+59360+143200FM-12+000699999V0202801N001010300019N0500001N1+01191+00641100801ADDAA199000091GF107991021051008001031011KA1999M+01531MD1710141+9999REMSYN070AAXX  08091 31088 32599 72801 10119 20064 40080 57014 82531 333 10153;EQDQ01  00002PRCP99
0186310880999992000090812004+59360+143200FM-12+000699999V0202701N005010300019N0500001N1+01021+00381100621ADDAA199000091GF107991041051008001031011KA1999M+01531MA1999999100551MD1710181+9999REMSYN076AAXX  08121 31088 32599 72705 10102 20038 30055 40062 57018 84531 333 10153;EQDQ01  00002PRCP99
0112310880999992000090815004+59360+143200FM-12+000699999V0209999C000012200019N0500001N1+00861+00431100471ADDGF102991021001999999041001MD1710151+9999REMSYN060AAXX  08151 31088 42999 20000 10086 20043 40047 57015 82040;
0112310880999992000090818004+59360+143200FM-12+000699999V0203601N001012200019N0500001N1+00971+00651100251ADDGF102991021001999999041001MD1810221+9999REMSYN060AAXX  08181 31088 42999 23601 10097 20065 40025 58022 82040;
0142310880999992000090821004+59360+143200FM-12+000699999V0202601N002012200019N0500001N1+00701+00551100161ADDAA199000091GF105991031051008001001011MD1610091+9999REMSYN060AAXX  08211 31088 32599 52602 10070 20055 40016 56009 83501;EQDQ01  00002PRCP99
0192310880999992000090900004+59360+143200FM-12+000699999V0203401N006012200019N0500001N1+01431+00211100061ADDAA199000091GF102991021021008001001011KA1120N+00681MA1999999099991MD1710101+9999REMSYN082AAXX  09001 31088 32599 23406 10143 20021 39999 40006 57010 82201 333 20068 55115;EQDQ01  00002PRCP99
0122310880999992000090903004+59360+143200FM-12+000699999V0203401N008012200019N0500001N1+01461-00171100011ADDGF102991011021008001041001MD1710051+9999REMSYN070AAXX  09031 31088 42599 23408 10146 21017 40001 57005 81240 333 91114;
0122310880999992000090906004+59360+143200FM-12+000699999V0203301N010012200019N0500001N1+01371-00471100031ADDGF101991011021008001001001MD1310021+9999REMSYN070AAXX  09061 31088 42599 13310 10137 21047 40003 53002 81200 333 91115;
0171310880999992000090909004+59360+143200FM-12+000699999V0203401N010012200019N0500001N1+01051-00601100231ADDAA199000091GF101991011021008001001001KA1120M+01471MD1310201+9999REMSYN076AAXX  09091 31088 32599 13410 10105 21060 40023 53020 81200 333 10147 91114;EQDQ01  00002PRCP99
0202310880999992000090912004+59360+143200FM-12+000699999V0203201N009012200019N0500001N1+00741-00381100521ADDAA199000091GA1001+999999999GF100991001001999999001001KA1120M+01471MA1999999100451MD1210291+9999REMSYN076AAXX  09121 31088 32999 03209 10074 21038 30045 40052 52029 333 10147 91113;EQDQ01  00002PRCP99
0132310880999992000090915004+59360+143200FM-12+000699999V0203401N008012200019N0500001N1+00561-00511100641ADDGA1001+999999999GF100991001001999999001001MD1110121+9999REMSYN064AAXX  09151 31088 42999 03408 10056 21051 40064 51012 333 91112;
0122310880999992000090918004+59360+143200FM-12+000699999V0200201N003012200019N0500001N1+00211-00361100871ADDGA1001+999999999GF100991001001999999001001MD1210231+9999REMSYN054AAXX  09181 31088 42999 00203 10021 21036 40087 52023;
0152310880999992000090921004+59360+143200FM-12+000699999V0200201N003012200019N0500001N1+00351-00501101041ADDAA199000091GA1001+999999999GF100991001001999999001001MD1210171+9999REMSYN054AAXX  09211 31088 32999 00203 10035 21050 40104 52017;EQDQ01  00002PRCP99
0202310880999992000091000004+59360+143200FM-12+000699999V0203601N004012200019N0500001N1+00791-00051101131ADDAA199000091GA1001+999999999GF100991001001999999001001KA1120N+00091MA1999999101061MD1110091+9999REMSYN076AAXX  10001 31088 32999 03604 10079 21005 30106 40113 51009 333 20009 55122;EQDQ01  00002PRCP99
0122310880999992000091003004+59360+143200FM-12+000699999V0203501N003012200019N0500001N1+01081-00501101151ADDGA1001+999999999GF100991001001999999001001MD1110021+9999REMSYN054AAXX  10031 31088 42999 03503 10108 21050 40115 51002;
0122310880999992000091006004+59360+143200FM-12+000699999V0203601N002012200019N0500001N1+01281-00331101131ADDGA1001+999999999GF100991001001999999001001MD1810021+9999REMSYN054AAXX  10061 31088 42999 03602 10128 21033 40113 58002;
0165310880999992000091009004+59360+143200FM-12+000699999V0202701N003012200019N0500001N1+00921+00231101161ADDAA199000091GF102991011001999999031011KA1999M+01301MD1310031+9999REMSYN070AAXX  10091 31088 32999 22703 10092 20023 40116 53003 81031 333 10130;EQDQ01  00002PRCP99
0186310880999992000091012004+59360+143200FM-12+000699999V0203601N001012200019N0500001N1+00631+00371101231ADDAA199000091GF102991011001999999041011KA1999M+01301MA1999999101161MD1210071+9999REMSYN076AAXX  10121 31088 32999 23601 10063 20037 30116 40123 52007 81041 333 10130;EQDQ01  00002PRCP99
0112310880999992000091015004+59360+143200FM-12+000699999V0201501N001012200019N0500001N1+00481+00331101251ADDGF103991021001999999041011MD1210021+9999REMSYN060AAXX  10151 31088 42999 31501 10048 20033 40125 52002 82041;
0112310880999992000091018004+59360+143200FM-12+000699999V0200201N001012200019N0500001N1+00401+00301101251ADDGF101991001001999999001011MD1410001+9999REMSYN060AAXX  10181 31088 42999 10201 10040 20030 40125 54000 80001;
0142310880999992000091021004+59360+143200FM-12+000699999V0200201N002019999999N0500001N1-00231-00361101231ADDAA199000091GF106991041001999999041011MD1810021+9999REMSYN060AAXX  10211 31088 32999 60202 11023 21036 40123 58002 84041;EQDQ01  00002PRCP99
0192310880999992000091100004+59360+143200FM-12+000699999V0203601N002012200019N0500001N1+00521-00201101261ADDAA199000091GF101991011001999999041001KA1120N-00321MA1999999101191MD1310031+9999REMSYN082AAXX  11001 31088 32999 13602 10052 21020 30119 40126 53003 81040 333 21032 55129;EQDQ01  00002PRCP99
0112310880999992000091103004+59360+143200FM-12+000699999V0201801N002012200019N0500001N1+00871+00511101191ADDGF102991001001999999001011MD1810071+9999REMSYN060AAXX  11031 31088 42999 21802 10087 20051 40119 58007 80001;
0112310880999992000091106004+59360+143200FM-12+000699999V0201901N002010300019N0500001N1+00991+00711101071ADDGF106991031051008001031011MD1710121+9999REMSYN060AAXX  11061 31088 42599 61902 10099 20071 40107 57012 83531;
0187310880999992000091109004+59360+143200FM-12+000699999V0201501N004010066019N0200001N1+00911+00861100961ADDAA199000091GA1061+006609059GF108991081051004501999999KA1120M+01011MD1710111+9999REMSYN076AAXX  11091 31088 32498 81504 10091 20086 40096 57011 885// 333 10101 86622;EQDQ01  00002PRCP99
0208310880999992000091112004+59360+143200FM-12+000699999V0201601N003010063019N0200001N1+00881+00821100911ADDAA199000091GA1061+006309059GF108991081051004501999999KA1120M+01011MA1999999100841MD1710051+9999REMSYN082AAXX  11121 31088 32498 81603 10088 20082 30084 40091 57005 885// 333 10101 86621;EQDQ01  00002PRCP99
0138310880999992000091115004+59360+143200FM-12+000699999V0201401N003010030019N0200001N1+00911+00891100681ADDGA1081+003009069GF108991081061004501999999MD1810231+9999REMSYN070AAXX  11151 31088 42498 81403 10091 20089 40068 58023 886// 333 88710;
0166310880999992000091118004+59360+143200FM-12+000699999V0201501N002010027019N0040001N1+00931+00901100601ADDAY121061AY221061GA1081+002709069GF108991081061002501999999MD1610081+9999MW1101REMSYN076AAXX  11181 31088 41396 81502 10093 20090 40060 56008 71022 886// 333 88709;
0142310880999992000091121004+59360+143200FM-12+000699999V0203601N001010300019N0500001N1+00881+00841100551ADDAA199000091GF107991031061004501051011MD1710051+9999REMSYN060AAXX  11211 31088 32499 73601 10088 20084 40055 57005 83651;EQDQ01  00002PRCP99
0222310880999992000091200004+59360+143200FM-12+000699999V0201901N004010039019N0040001N1+00921+00841100551ADDAA199000091GA1071+003909069GF107991071061004501001001GJ106489KA1120N+00861MA1999999100481MD1410001+9999REMSYN088AAXX  12001 31088 32496 71904 10092 20084 30048 40055 54000 87600 333 20086 55108 87713;EQDQ01  00002PRCP99
0166310880999992000091203004+59360+143200FM-12+000699999V0201701N006010039019N0040001N1+00981+00641100441ADDAY121031AY221031GA1071+003909069GF107991071061004501001001MD1810111+9999MW1101REMSYN076AAXX  12031 31088 41496 71706 10098 20064 40044 58011 71022 87600 333 87713;
0138310880999992000091206004+59360+143200FM-12+000699999V0201601N007010072019N0500001N1+00991+00861100291ADDGA1061+007209059GF107991061051008001031001MD1710151+9999REMSYN070AAXX  12061 31088 42599 71607 10099 20086 40029 57015 86530 333 86624;
0187310880999992000091209004+59360+143200FM-12+000699999V0201501N007010048019N0500001N1+00971+00861100141ADDAA199000091GA1061+004809069GF108991061061008001071999KA1120M+01071MD1710151+9999REMSYN076AAXX  12091 31088 32599 81507 10097 20086 40014 57015 8667/ 333 10107 86716;EQDQ01  00002PRCP99
0208310880999992000091212004+59360+143200FM-12+000699999V0201301N008010030019N0200001N1+00961+00921100071ADDAA199000091GA1081+003009069GF108991081061004501999999KA1120M+01071MA1999999100001MD1610071+9999REMSYN082AAXX  12121 31088 32498 81308 10096 20092 30000 40007 56007 886// 333 10107 88710;EQDQ01  00002PRCP99
0166310880999992000091215004+59360+143200FM-12+000699999V0200701N002010033019N0200001N1+01051+01021100031ADDAY181031AY221031GA1081+003309069GF108991081061004501999999MD1710041+9999MW1021REMSYN076AAXX  12151 31088 41498 80702 10105 20102 40003 57004 70282 886// 333 88711;
0166310880999992000091218004+59360+143200FM-12+000699999V0203601N002010033019N0200001N1+00971+00931099971ADDAY181061AY221061GA1061+003309069GF106991061061004501001001MD1710061+9999MW1021REMSYN076AAXX  12181 31088 41498 63602 10097 20093 49997 57006 70282 86600 333 86711;
0150310880999992000091221004+59360+143200FM-12+000699999V0209999C000010003019N0002001N1+00851+00851099981ADDAY141031AY221031GA1091+999999999GF109991091999999999999999MD1310011+9999MW1471REMSYN060AAXX  12211 31088 /1/92 90000 10085 20085 49998 53001 74742;
0221310880999992000091300004+59360+143200FM-12+000699999V0203401N009012200019N0500001N1+01251+00001100001ADDAA100000791AY141061AY211061GF101991011051008001001001GJ101449KA1120N+00791MA1999999099931MD1210021+9999MW1011REMSYN100AAXX  13001 31088 11599 13409 10125 20000 39993 40000 52002 69900 70141 81500 333 20079 55024 91113;
0122310880999992000091303004+59360+143200FM-12+000699999V0203201N010012200019N0500001N1+01501-00191099921ADDGF102991021021008001001001MD1810081+9999REMSYN070AAXX  13031 31088 42599 23210 10150 21019 49992 58008 82200 333 91115;
0122310880999992000091306004+59360+143200FM-12+000699999V0203401N007012200019N0500001N1+01571-00141099891ADDGF102991021021008001001001MD1710031+9999REMSYN070AAXX  13061 31088 42599 23407 10157 21014 49989 57003 82200 333 91114;
0165310880999992000091309004+59360+143200FM-12+000699999V0203201N005012200019N0500001N1+01251-00121099971ADDAA199000091GF102991011051008001031001KA1999M+01591MD1310081+9999REMSYN070AAXX  13091 31088 32599 23205 10125 21012 49997 53008 81530 333 10159;EQDQ01  00002PRCP99
0196310880999992000091312004+59360+143200FM-12+000699999V0203201N007012200019N0500001N1+00981-00361100151ADDAA199000091GA1001+999999999GF100991001001999999001001KA1999M+01591MA1999999100081MD1310181+9999REMSYN070AAXX  13121 31088 32999 03207 10098 21036 30008 40015 53018 333 10159;EQDQ01  00002PRCP99
0122310880999992000091315004+59360+143200FM-12+000699999V0200301N001012200019N0500001N1+00631+00011100211ADDGA1001+999999999GF100991001001999999001001MD1110061+9999REMSYN054AAXX  13151 31088 42999 00301 10063 20001 40021 51006;
0122310880999992000091318004+59360+143200FM-12+000699999V0200301N001012200019N0500001N1+00481-00321100251ADDGA1001+999999999GF100991001001999999001001MD1210041+9999REMSYN054AAXX  13181 31088 42999 00301 10048 21032 40025 52004;
0152310880999992000091321004+59360+143200FM-12+000699999V0200201N004012200019N0500001N1+00491-00381100351ADDAA199000091GA1001+999999999GF100991001001999999001001MD1210101+9999REMSYN054AAXX  13211 31088 32999 00204 10049 21038 40035 52010;EQDQ01  00002PRCP99
0192310880999992000091400004+59360+143200FM-12+000699999V0203401N004012200019N0500001N1+01051-00221100381ADDAA199000091GF102991011001999999051011KA1120N+00361MA1999999100311MD1110031+9999REMSYN082AAXX  14001 31088 32999 23404 10105 21022 30031 40038 51003 81051 333 20036 55106;EQDQ01  00002PRCP99
0112310880999992000091403004+59360+143200FM-12+000699999V0203401N003012200019N0500001N1+01411-00251100361ADDGF103991021011008001001011MD1810021+9999REMSYN060AAXX  14031 31088 42599 33403 10141 21025 40036 58002 82101;
0112310880999992000091406004+59360+143200FM-12+000699999V0203401N003010075019N0500001N1+01511-00361100391ADDGF105991051011008001001001MD1310031+9999REMSYN060AAXX  14061 31088 42599 53403 10151 21036 40039 53003 85100;
0187310880999992000091409004+59360+143200FM-12+000699999V0203301N002010069019N0500001N1+01111+00001100661ADDAA199000091GA1051+006909059GF107991071031008001001001KA1120M+01501MD1310271+9999REMSYN076AAXX  14091 31088 32599 73302 10111 20000 40066 53027 87300 333 10150 85623;EQDQ01  00002PRCP99
0186310880999992000091412004+59360+143200FM-12+000699999V0200801N001012200019N0500001N1+00751+00321100861ADDAA199000091GF102991021051008001001001KA1999M+01501MA1999999100791MD1210201+9999REMSYN076AAXX  14121 31088 32599 20801 10075 20032 30079 40086 52020 82500 333 10150;EQDQ01  00002PRCP99
0112310880999992000091415004+59360+143200FM-12+000699999V0200201N001012200019N0500001N1+00331-00051101031ADDGF102991021051008001001001MD1210171+9999REMSYN060AAXX  14151 31088 42599 20201 10033 21005 40103 52017 82500;
0112310880999992000091418004+59360+143200FM-12+000699999V0200101N002012200019N0500001N1+00211-00101101131ADDGF102991021051008001041001MD1210101+9999REMSYN060AAXX  14181 31088 42599 20102 10021 21010 40113 52010 82540;
0142310880999992000091421004+59360+143200FM-12+000699999V0200201N003012200019N0500001N1+00061-00271101281ADDAA199000091GF102991021051008001001001MD1210151+9999REMSYN060AAXX  14211 31088 32599 20203 10006 21027 40128 52015 82500;EQDQ01  00002PRCP99
0192310880999992000091500004+59360+143200FM-12+000699999V0203601N002012200019N0500001N1+00581-00081101431ADDAA199000091GF102991021001999999031001KA1120N-00051MA1999999101361MD1210151+9999REMSYN082AAXX  15001 31088 32999 23602 10058 21008 30136 40143 52015 82030 333 21005 55108;EQDQ01  00002PRCP99
0112310880999992000091503004+59360+143200FM-12+000699999V0201801N004012200019N0500001N1+00941+00301101491ADDGF103991011011008001031011MD1110061+9999REMSYN060AAXX  15031 31088 42599 31804 10094 20030 40149 51006 81131;
0112310880999992000091506004+59360+143200FM-12+000699999V0201901N005012200019N0500001N1+00891+00361101571ADDGF103991021041008001061011MD1210081+9999REMSYN060AAXX  15061 31088 42599 31905 10089 20036 40157 52008 82461;
0187310880999992000091509004+59360+143200FM-12+000699999V0201901N003010072019N0500001N1+00761+00511101631ADDAA199000091GA1081+007209059GF108991081051008001999999KA1120M+00971MD1210061+9999REMSYN076AAXX  15091 31088 32599 81903 10076 20051 40163 52006 885// 333 10097 88624;EQDQ01  00002PRCP99
0208310880999992000091512004+59360+143200FM-12+000699999V0201501N003010072019N0500001N1+00751+00551101671ADDAA199000091GA1081+007209059GF108991081051008001999999KA1120M+00971MA1999999101601MD1210041+9999REMSYN082AAXX  15121 31088 32599 81503 10075 20055 30160 40167 52004 885// 333 10097 88624;EQDQ01  00002PRCP99
0138310880999992000091515004+59360+143200FM-12+000699999V0201201N003010072019N0500001N1+00771+00431101741ADDGA1081+007209059GF108991081051008001999999MD1210071+9999REMSYN070AAXX  15151 31088 42599 81203 10077 20043 40174 52007 885// 333 88624;
0138310880999992000091518004+59360+143200FM-12+000699999V0201201N005010072019N0500001N1+00731+00431101681ADDGA1061+007209059GF108991061051008001051999MD1810061+9999REMSYN070AAXX  15181 31088 42599 81205 10073 20043 40168 58006 8655/ 333 86624;
0168310880999992000091521004+59360+143200FM-12+000699999V0201401N005010072019N0500001N1+00731+00501101631ADDAA199000091GA1081+007209059GF108991081051008001999999MD1710051+9999REMSYN070AAXX  15211 31088 32599 81405 10073 20050 40163 57005 885// 333 88624;EQDQ01  00002PRCP99
0222310880999992000091600004+59360+143200FM-12+000699999V0201401N007010072019N0500001N1+00771+00401101541ADDAA199000091GA1081+007209059GF108991081051008001999999GJ106189KA1120N+00671MA1999999101471MD1710091+9999REMSYN088AAXX  16001 31088 32599 81407 10077 20040 30147 40154 57009 885// 333 20067 55103 88624;EQDQ01  00002PRCP99
0122310880999992000091603004+59360+143200FM-12+000699999V0201301N009010075019N0500001N1+00801+00431101411ADDGF108991061051008001071999MD1710131+9999REMSYN070AAXX  16031 31088 42599 81309 10080 20043 40141 57013 8657/ 333 91113;
0172310880999992000091606004+59360+143200FM-12+000699999V0201301N010010039019N0020001N1+00691+00601101251ADDAY161061AY221061GA1081+003909079GF108991081061004501999999MD1710161+9999MW1611REMSYN082AAXX  16061 31088 41495 81310 10069 20060 40125 57016 76162 886// 333 88713 91114;
0169310880999992000091609004+59360+143200FM-12+000699999V0201201N013010042019N0020001N1+00661+00591101081ADDAY161031AY231031GF108991081061004501999999KA1120M+00831MD1710171+9999MW1611REMSYN082AAXX  16091 31088 /1495 81213 10066 20059 40108 57017 76163 886// 333 10083 91118;
0207310880999992000091612004+59360+143200FM-12+000699999V0201201N015010042019N0020001N1+00651+00611100941ADDAA100002091AY161061AY221061GF108991071071004501021999KA1120M+00831MA1999999100871MD1710141+9999MW1631REMSYN094AAXX  16121 31088 11495 81215 10065 20061 30087 40094 57014 60020 76362 8772/ 333 10083 91122;
0150310880999992000091615004+59360+143200FM-12+000699999V0201101N016010042019N0020001N1+00721+00641100831ADDAY161031AY221031GF108991061071004501021999MD1710111+9999MW1631REMSYN076AAXX  16151 31088 41495 81116 10072 20064 40083 57011 76362 8672/ 333 91123;
0150310880999992000091618004+59360+143200FM-12+000699999V0201001N015010042019N0200001N1+00761+00701100661ADDAY161061AY221061GF108991071071004501021999MD1710171+9999MW1211REMSYN076AAXX  16181 31088 41498 81015 10076 20070 40066 57017 72162 8772/ 333 91121;
0150310880999992000091621004+59360+143200FM-12+000699999V0201101N014010042019N0040001N1+00821+00741100671ADDAY181031AY221031GF108991081091004501999999MD1310011+9999MW1811REMSYN076AAXX  16211 31088 /1496 81114 10082 20074 40067 53001 78182 889// 333 91120;
0207310880999992000091700004+59360+143200FM-12+000699999V0200101N003010042019N0040001N1+00611+00521100751ADDAA100005191AY181061AY221061GF108991081061004501999999KA1120N+00631MA1999999100681MD1310081+9999MW1811REMSYN094AAXX  17001 31088 11496 80103 10061 20052 30068 40075 53008 60050 78182 886// 333 20063 55000;
0140310880999992000091703004+59360+143200FM-12+000699999V0200301N005010042019N0040001N1+00641+00551100771ADDAY181031AY221031GF108991081061004501999999MD1110021+9999MW1811REMSYN066AAXX  17031 31088 41496 80305 10064 20055 40077 51002 78182 886//;
0140310880999992000091706004+59360+143200FM-12+000699999V0200201N004010042019N0100001N1+00621+00551100771ADDAY181061AY221061GF108991081061004501999999MD1410001+9999MW1811REMSYN066AAXX  17061 31088 41497 80204 10062 20055 40077 54000 78182 886//;
0163310880999992000091709004+59360+143200FM-12+000699999V0200201N003010042019N0040001N1+00561+00491100761ADDAY181031AY221031GF108991081061004501999999KA1999M+00831MD1810011+9999MW1811REMSYN076AAXX  17091 31088 /1496 80203 10056 20049 40076 58001 78182 886// 333 10083;
0201310880999992000091712004+59360+143200FM-12+000699999V0203601N003010042019N0100001N1+00521+00451100801ADDAA100025991AY181061AY261061GF108991071071004501021999KA1999M+00831MA1999999100731MD1310041+9999MW1651REMSYN088AAXX  17121 31088 11497 83603 10052 20045 30073 40080 53004 60260 76586 8772/ 333 10083;
0140310880999992000091715004+59360+143200FM-12+000699999V0200101N002010042019N0100001N1+00671+00581100771ADDAY161031AY221031GF108991071071004501021999MD1810031+9999MW1651REMSYN066AAXX  17151 31088 41497 80102 10067 20058 40077 58003 76562 8772/;
0150310880999992000091718004+59360+143200FM-12+000699999V0201201N007010042019N0100001N1+00571+00481100871ADDAY161061AY221061GF108991071071004501021999MD1310101+9999MW1631REMSYN076AAXX  17181 31088 41497 81207 10057 20048 40087 53010 76362 8772/ 333 91112;
0112310880999992000091721004+59360+143200FM-12+000699999V0200401N002010042019N0200001N1+00541+00451100971ADDGF108991071071004501021999MD1210101+9999REMSYN060AAXX  17211 31088 /1498 80402 10054 20045 40097 52010 8772/;
0237310880999992000091800004+59360+143200FM-12+000699999V0203601N001010066019N0200001N1+00601+00581101001ADDAA100013091AY161061AY221061GA1051+006609029GF108991051071004501021999GJ100009KA1120N+00501MA1999999100931MD1210031+9999MW1021REMSYN100AAXX  18001 31088 11498 83601 10060 20058 30093 40100 52003 60130 70262 8572/ 333 20050 55000 85522;
0112310880999992000091803004+59360+143200FM-12+000699999V0203601N002010042019N0500001N1+00811+00461101011ADDGF107991071031004501001001MD1210011+9999REMSYN060AAXX  18031 31088 42499 73602 10081 20046 40101 52001 87300;
0112310880999992000091806004+59360+143200FM-12+000699999V0203601N004012200019N0500001N1+01111+00361101061ADDGF105991041031008001001011MD1210051+9999REMSYN060AAXX  18061 31088 42599 53604 10111 20036 40106 52005 84301;
0135310880999992000091809004+59360+143200FM-12+000699999V0200101N001012200019N0500001N1+00831+00211101211ADDGF102991011051008001031001KA1999M+01151MD1310151+9999REMSYN070AAXX  18091 31088 /2599 20101 10083 20021 40121 53015 81530 333 10115;
0183310880999992000091812004+59360+143200FM-12+000699999V0200801N001012200019N0500001N1+00401+00351101351ADDAA100000891GA1001+999999999GF100991001001999999001001KA1999M+01151MA1999999101281MD1210141+9999REMSYN076AAXX  18121 31088 12999 00801 10040 20035 30128 40135 52014 69980 333 10115;
0122310880999992000091815004+59360+143200FM-12+000699999V0200401N001012200019N0500001N1+00211+00131101411ADDGA1001+999999999GF100991001001999999001001MD1110061+9999REMSYN054AAXX  18151 31088 42999 00401 10021 20013 40141 51006;
0122310880999992000091818004+59360+143200FM-12+000699999V0200201N002012200019N0500001N1+00081-00121101481ADDGA1001+999999999GF100991001001999999001001MD1210071+9999REMSYN054AAXX  18181 31088 42999 00202 10008 21012 40148 52007;
0142310880999992000091821004+59360+143200FM-12+000699999V0200201N003012200019N0500001N1-00031-00211101581ADDAA199000091GF101991001001999999001011MD1210101+9999REMSYN060AAXX  18211 31088 32999 10203 11003 21021 40158 52010 80001;EQDQ01  00002PRCP99
0192310880999992000091900004+59360+143200FM-12+000699999V0203601N004012200019N0500001N1+00501-00031101661ADDAA199000091GF101991011001999999041001KA1120N-00051MA1999999101591MD1210081+9999REMSYN082AAXX  19001 31088 32999 13604 10050 21003 30159 40166 52008 81040 333 21005 55048;EQDQ01  00002PRCP99
0112310880999992000091903004+59360+143200FM-12+000699999V0201901N002012200019N0500001N1+00831-00051101671ADDGF101991011011008001001001MD1110011+9999REMSYN060AAXX  19031 31088 42599 11902 10083 21005 40167 51001 81100;
0122310880999992000091906004+59360+143200FM-12+000699999V0202301N002012200019N0500001N1+00851+00301101651ADDGA1001+999999999GF100991001001999999001001MD1810021+9999REMSYN054AAXX  19061 31088 42999 02302 10085 20030 40165 58002;
0165310880999992000091909004+59360+143200FM-12+000699999V0201801N003012200019N0500001N1+00771+00681101621ADDAA199000091GF103991031051008001001001KA1999M+00901MD1710031+9999REMSYN070AAXX  19091 31088 32599 31803 10077 20068 40162 57003 83500 333 10090;EQDQ01  00002PRCP99
0208310880999992000091912004+59360+143200FM-12+000699999V0201601N002010033019N0500001N1+00761+00701101711ADDAA199000091GA1051+003309069GF107991061061004501001001KA1120M+00901MA1999999101641MD1310091+9999REMSYN082AAXX  19121 31088 32499 71602 10076 20070 30164 40171 53009 86600 333 10090 85711;EQDQ01  00002PRCP99
0112310880999992000091915004+59360+143200FM-12+000699999V0201801N001012200019N0500001N1+00731+00681101691ADDGF102991021051008001001001MD1810021+9999REMSYN060AAXX  19151 31088 42599 21801 10073 20068 40169 58002 82500;
0112310880999992000091918004+59360+143200FM-12+000699999V0202001N002012200019N0500001N1+00771+00701101681ADDGF102991021051008001001001MD1710011+9999REMSYN060AAXX  19181 31088 42599 22002 10077 20070 40168 57001 82500;
0168310880999992000091921004+59360+143200FM-12+000699999V0201401N003010072019N0500001N1+00771+00681101701ADDAA199000091GA1081+007209059GF108991081051008001999999MD1310021+9999REMSYN070AAXX  19211 31088 32599 81403 10077 20068 40170 53002 885// 333 88624;EQDQ01  00002PRCP99
0250310880999992000092000004+59360+143200FM-12+000699999V0201701N002010081019N0500001N1+00781+00651101691ADDAA199000091AY151061AY221061GA1071+008109059GF108991081051004501999999GJ107089KA1120N+00701MA1999999101621MD1810011+9999MW1021REMSYN094AAXX  20001 31088 31499 81702 10078 20065 30162 40169 58001 70252 885// 333 20070 55118 87627;EQDQ01  00002PRCP99
0166310880999992000092003004+59360+143200FM-12+000699999V0201601N003010081019N0500001N1+00801+00701101651ADDAY181031AY221031GA1051+008109059GF107991071031004501001001MD1710041+9999MW1021REMSYN076AAXX  20031 31088 41499 71603 10080 20070 40165 57004 70282 87300 333 85627;
0140310880999992000092006004+59360+143200FM-12+000699999V0201901N004010042019N0100001N1+00811+00681101561ADDAY181061AY221061GF108991081091004501999999MD1710091+9999MW1811REMSYN066AAXX  20061 31088 41497 81904 10081 20068 40156 57009 78182 889//;
0185310880999992000092009004+59360+143200FM-12+000699999V0201201N002010081019N0500001N1+00791+00641101491ADDAY181031AY221031GA1071+008109059GF108991081051004501999999KA1120M+00881MD1710071+9999MW1021REMSYN082AAXX  20091 31088 /1499 81202 10079 20064 40149 57007 70282 885// 333 10088 87627;
0223310880999992000092012004+59360+143200FM-12+000699999V0201301N003010072019N0200001N1+00801+00711101401ADDAA100000591AY181061AY221061GA1081+007209059GF108991081051008001999999KA1120M+00881MA1999999101331MD1710091+9999MW1021REMSYN094AAXX  20121 31088 11598 81303 10080 20071 30133 40140 57009 69960 70282 885// 333 10088 88624;
0140310880999992000092015004+59360+143200FM-12+000699999V0201101N003010075019N0040001N1+00781+00711101361ADDAY161031AY221031GF108991081051008001999999MD1610041+9999MW1611REMSYN066AAXX  20151 31088 41596 81103 10078 20071 40136 56004 76162 885//;
0166310880999992000092018004+59360+143200FM-12+000699999V0201301N006010069019N0100001N1+00741+00701101201ADDAY161061AY221061GA1061+006909059GF108991081051004501999999MD1810161+9999MW1611REMSYN076AAXX  20181 31088 41497 81306 10074 20070 40120 58016 76162 885// 333 86623;
0166310880999992000092021004+59360+143200FM-12+000699999V0201401N004010030019N0200001N1+00801+00741101191ADDAY161031AY221031GA1081+003009069GF108991081061004501999999MD1610011+9999MW1021REMSYN076AAXX  20211 31088 /1498 81404 10080 20074 40119 56001 70262 886// 333 88710;
0207310880999992000092100004+59360+143200FM-12+000699999V0201601N005010042019N0020001N1+00781+00711101191ADDAA100000891AY151061AY221061GF108991081061004501999999KA1120N+00721MA1999999101121MD1410001+9999MW1531REMSYN094AAXX  21001 31088 11495 81605 10078 20071 30112 40119 54000 69980 75352 886// 333 20072 55003;
0140310880999992000092103004+59360+143200FM-12+000699999V0201901N004010042019N0040001N1+00851+00781101151ADDAY151031AY221031GF108991081061004501999999MD1810041+9999MW1511REMSYN066AAXX  21031 31088 41496 81904 10085 20078 40115 58004 75152 886//;
0140310880999992000092106004+59360+143200FM-12+000699999V0202801N002010042019N0040001N1+00831+00781101131ADDAY161061AY251061GF108991081061004501999999MD1710021+9999MW1631REMSYN066AAXX  21061 31088 41496 82802 10083 20078 40113 57002 76365 886//;
0182310880999992000092109004+59360+143200FM-12+000699999V0202801N002019999999N0500001N1+00741+00651101131ADDAY161031AY221031GF105991999051004501001001KA1999M+00861MD1410001+9999MW1011REMSYN076AAXX  21091 31088 /1499 52802 10074 20065 40113 54000 70162 88500 333 10086;EQDQ01+000082SCOTLC
0201310880999992000092112004+59360+143200FM-12+000699999V0209999C000012200019N0500001N1+00621+00581101161ADDAA100006191AY161061AY211061GF102991021051008001001001KA1999M+00861MA1999999101091MD1310031+9999MW1011REMSYN088AAXX  21121 31088 11599 20000 10062 20058 30109 40116 53003 60060 70161 82500 333 10086;
0166310880999992000092115004+59360+143200FM-12+000699999V0209999C000010030019N0010001N1+00571+00501101161ADDAY111031AY211031GA1071+003009069GF107991071061004501001001MD1410001+9999MW1101REMSYN076AAXX  21151 31088 41494 70000 10057 20050 40116 54000 71011 87600 333 87710;
0166310880999992000092118004+59360+143200FM-12+000699999V0200101N002010030019N0010001N1+00301+00271101211ADDAY111061AY211061GA1071+003009069GF107991071061004501001001MD1810051+9999MW1101REMSYN076AAXX  21181 31088 41494 70102 10030 20027 40121 58005 71011 87600 333 87710;
0150310880999992000092121004+59360+143200FM-12+000699999V0200101N003012200019N0500001N1+00221+00171101401ADDAY151031AY211031GA1001+999999999GF100991001001999999001001MD1310191+9999MW1011REMSYN060AAXX  21211 31088 /1999 00103 10022 20017 40140 53019 70151;
0207310880999992000092200004+59360+143200FM-12+000699999V0203601N002012200019N0500001N1+00521+00251101401ADDAA100000191AY151061AY211061GF103991011061004501001011KA1120N+00161MA1999999101331MD1410001+9999MW1031REMSYN094AAXX  22001 31088 11499 33602 10052 20025 30133 40140 54000 69920 70351 81601 333 20016 55000;
0112310880999992000092203004+59360+143200FM-12+000699999V0209999C000012200019N0500001N1+00961+00291101311ADDGF102991001001999999001011MD1810091+9999REMSYN060AAXX  22031 31088 42999 20000 10096 20029 40131 58009 80001;
0112310880999992000092206004+59360+143200FM-12+000699999V0202201N003012200019N0500001N1+00841+00411101261ADDGF103991011051008001001011MD1710051+9999REMSYN060AAXX  22061 31088 42599 32203 10084 20041 40126 57005 81501;
0165310880999992000092209004+59360+143200FM-12+000699999V0201701N003010750019N0500001N1+00801+00671101311ADDAA199000091GF105991011051008001031011KA1999M+01011MD1310051+9999REMSYN070AAXX  22091 31088 32599 51703 10080 20067 40131 53005 81531 333 10101;EQDQ01  00002PRCP99
0186310880999992000092212004+59360+143200FM-12+000699999V0201601N003010075019N0500001N1+00781+00651101291ADDAA199000091GF107991071051008001001001KA1999M+01011MA1999999101221MD1810021+9999REMSYN076AAXX  22121 31088 32599 71603 10078 20065 30122 40129 58002 87500 333 10101;EQDQ01  00002PRCP99
0140310880999992000092215004+59360+143200FM-12+000699999V0201601N003010075019N0100001N1+00821+00701101271ADDAY161031AY221031GF108991081051008001999999MD1710021+9999MW1611REMSYN066AAXX  22151 31088 41597 81603 10082 20070 40127 57002 76162 885//;
0140310880999992000092218004+59360+143200FM-12+000699999V0200201N002010042019N0040001N1+00621+00551101281ADDAY161061AY221061GF108991081061004501999999MD1310011+9999MW1611REMSYN066AAXX  22181 31088 41496 80202 10062 20055 40128 53001 76162 886//;
0140310880999992000092221004+59360+143200FM-12+000699999V0200201N001010042019N0500001N1+00561+00471101441ADDAY161031AY221031GF108991061051004501071999MD1310161+9999MW1021REMSYN066AAXX  22211 31088 /1499 80201 10056 20047 40144 53016 70262 8657/;
0207310880999992000092300004+59360+143200FM-12+000699999V0203401N002010300019N0500001N1+00781+00671101581ADDAA100001091AY161061AY221061GF107991021051008001031021KA1120N+00561MA1999999101511MD1210141+9999MW1011REMSYN094AAXX  23001 31088 11599 73402 10078 20067 30151 40158 52014 60010 70162 82532 333 20056 55113;
0112310880999992000092303004+59360+143200FM-12+000699999V0203601N002010300019N0500001N1+01151+00191101601ADDGF107991031051008001031021MD1110021+9999REMSYN060AAXX  23031 31088 42599 73602 10115 20019 40160 51002 83532;
0112310880999992000092306004+59360+143200FM-12+000699999V0203401N005010300019N0500001N1+01291+00021101651ADDGF107991041051008001031021MD1210051+9999REMSYN060AAXX  23061 31088 42599 73405 10129 20002 40165 52005 84532;
0165310880999992000092309004+59360+143200FM-12+000699999V0203001N002012200019N0500001N1+01051-00021101881ADDAA199000091GF103991021051008001001011KA1999M+01341MD1310231+9999REMSYN070AAXX  23091 31088 32599 33002 10105 21002 40188 53023 82501 333 10134;EQDQ01  00002PRCP99
0186310880999992000092312004+59360+143200FM-12+000699999V0203601N002012200019N0500001N1+00621+00001102171ADDAA199000091GF102991011051008001001011KA1999M+01341MA1999999102101MD1210291+9999REMSYN076AAXX  23121 31088 32599 23602 10062 20000 30210 40217 52029 81501 333 10134;EQDQ01  00002PRCP99
0122310880999992000092315004+59360+143200FM-12+000699999V0200201N002012200019N0500001N1+00511-00211102291ADDGA1001+999999999GF100991001001999999001001MD1110121+9999REMSYN054AAXX  23151 31088 42999 00202 10051 21021 40229 51012;
0122310880999992000092318004+59360+143200FM-12+000699999V0200201N002012200019N0500001N1+00321-00221102351ADDGA1001+999999999GF100991001001999999001001MD1210061+9999REMSYN054AAXX  23181 31088 42999 00202 10032 21022 40235 52006;
0142310880999992000092321004+59360+143200FM-12+000699999V0200101N003012200019N0500001N1+00081-00211102511ADDAA199000091GF102991001001999999001011MD1310161+9999REMSYN060AAXX  23211 31088 32999 20103 10008 21021 40251 53016 80001;EQDQ01  00002PRCP99
0192310880999992000092400004+59360+143200FM-12+000699999V0203601N003012200019N0500001N1+00671-00231102601ADDAA199000091GF101991001001999999001011KA1120N+00061MA1999999102531MD1210091+9999REMSYN082AAXX  24001 31088 32999 13603 10067 21023 30253 40260 52009 80001 333 20006 55044;EQDQ01  00002PRCP99
0112310880999992000092403004+59360+143200FM-12+000699999V0202001N001012200019N0500001N1+01261-00411102541ADDGF102991001001999999001011MD1810061+9999REMSYN060AAXX  24031 31088 42999 22001 10126 21041 40254 58006 80001;
0112310880999992000092406004+59360+143200FM-12+000699999V0202101N001019999999N0500001N1+00981+00461102461ADDGF106991001001999999001011MD1710081+9999REMSYN060AAXX  24061 31088 42999 62101 10098 20046 40246 57008 80001;
0165310880999992000092409004+59360+143200FM-12+000699999V0201601N002019999999N0500001N1+00651+00491102501ADDAA199000091GF106991001001999999001011KA1999M+01271MD1310041+9999REMSYN070AAXX  24091 31088 32999 61602 10065 20049 40250 53004 80001 333 10127;EQDQ01  00002PRCP99
0186310880999992000092412004+59360+143200FM-12+000699999V0201301N003012200019N0500001N1+00581+00241102491ADDAA199000091GF102991001001999999001011KA1999M+01241MA1999999102421MD1810011+9999REMSYN076AAXX  24121 31088 32999 21303 10058 20024 30242 40249 58001 80001 333 10124;EQDQ01  00002PRCP99
0138310880999992000092415004+59360+143200FM-12+000699999V0201401N004010072019N0500001N1+00691+00511102491ADDGA1081+007209059GF108991081051008001999999MD1410001+9999REMSYN070AAXX  24151 31088 42599 81404 10069 20051 40249 54000 885// 333 88624;
0138310880999992000092418004+59360+143200FM-12+000699999V0201301N004010069019N0500001N1+00781+00511102421ADDGA1081+006909059GF108991081051008001999999MD1810071+9999REMSYN070AAXX  24181 31088 42599 81304 10078 20051 40242 58007 885// 333 88623;
0168310880999992000092421004+59360+143200FM-12+000699999V0200301N002010066019N0500001N1+00481+00281102431ADDAA199000091GA1081+006609059GF108991081051008001999999MD1310011+9999REMSYN070AAXX  24211 31088 32599 80302 10048 20028 40243 53001 885// 333 88622;EQDQ01  00002PRCP99
0222310880999992000092500004+59360+143200FM-12+000699999V0201201N002010069019N0500001N1+00781+00461102421ADDAA199000091GA1081+006909059GF108991081051008001999999GJ106849KA1120N+00461MA1999999102351MD1810011+9999REMSYN088AAXX  25001 31088 32599 81202 10078 20046 30235 40242 58001 885// 333 20046 55114 88623;EQDQ01  00002PRCP99
0138310880999992000092503004+59360+143200FM-12+000699999V0201401N00301004201CN0500001N1+00871+00681102391ADDGA1041+006909059GF108991081061004501999999MD1710031+9999REMSYN070AAXX  25031 31088 42499 81403 10087 20068 40239 57003 886// 333 84623;
0138310880999992000092506004+59360+143200FM-12+000699999V0201601N00401004201CN0500001N1+00901+00761102321ADDGA1041+006909059GF107991071061004501001001MD1710071+9999REMSYN070AAXX  25061 31088 42499 71604 10090 20076 40232 57007 87600 333 84623;
0165310880999992000092509004+59360+143200FM-12+000699999V0201501N003010042019N0500001N1+00791+00701102291ADDAA199000091GF107991071031004501001001KA1999M+00911MD1710031+9999REMSYN070AAXX  25091 31088 32499 71503 10079 20070 40229 57003 87300 333 10091;EQDQ01  00002PRCP99
0208310880999992000092512004+59360+143200FM-12+000699999V0201401N003010072019N0500001N1+00751+00681102311ADDAA199000091GA1061+007209059GF107991071051004501001001KA1120M+00911MA1999999102241MD1310021+9999REMSYN082AAXX  25121 31088 32499 71403 10075 20068 30224 40231 53002 87500 333 10091 86624;EQDQ01  00002PRCP99
0138310880999992000092515004+59360+143200FM-12+000699999V0201301N003010078019N0500001N1+00761+00671102301ADDGA1061+007809059GF106991061051008001001001MD1810011+9999REMSYN070AAXX  25151 31088 42599 61303 10076 20067 40230 58001 86500 333 86626;
0138310880999992000092518004+59360+143200FM-12+000699999V0201701N003010069019N0500001N1+00791+00551102191ADDGA1081+006909059GF108991081051008001999999MD1810111+9999REMSYN070AAXX  25181 31088 42599 81703 10079 20055 40219 58011 885// 333 88623;
0168310880999992000092521004+59360+143200FM-12+000699999V0201401N002010072019N0500001N1+00801+00561102201ADDAA199000091GA1081+007209059GF108991081051008001999999MD1310011+9999REMSYN070AAXX  25211 31088 32599 81402 10080 20056 40220 53001 885// 333 88624;EQDQ01  00002PRCP99
0222310880999992000092600004+59360+143200FM-12+000699999V0201301N003010066019N0200001N1+00811+00611102211ADDAA199000091GA1061+006609059GF108991081051004501999999GJ100009KA1120N+00711MA1999999102141MD1210011+9999REMSYN088AAXX  26001 31088 32498 81303 10081 20061 30214 40221 52001 885// 333 20071 55000 86622;EQDQ01  00002PRCP99
0166310880999992000092603004+59360+143200FM-12+000699999V0201401N005010030019N0200001N1+00811+00781102191ADDAY151031AY221031GA1081+003009069GF108991081061004501999999MD1810021+9999MW1511REMSYN076AAXX  26031 31088 41498 81405 10081 20078 40219 58002 75152 886// 333 88710;
0140310880999992000092606004+59360+143200FM-12+000699999V0201701N003010042019N0100001N1+00811+00781102191ADDAY181061AY251061GF108991081091004501999999MD1410001+9999MW1811REMSYN066AAXX  26061 31088 41497 81703 10081 20078 40219 54000 78185 889//;
0163310880999992000092609004+59360+143200FM-12+000699999V0201501N003010075019N0100001N1+00811+00811102171ADDAY181031AY221031GF108991081091008001999999KA1999M+00851MD1810021+9999MW1811REMSYN076AAXX  26091 31088 /1597 81503 10081 20081 40217 58002 78182 889// 333 10085;
0201310880999992000092612004+59360+143200FM-12+000699999V0201601N004010042019N0100001N1+00801+00701102211ADDAA100004191AY181061AY221061GF108991081091004501999999KA1999M+00851MA1999999102141MD1310041+9999MW1801REMSYN088AAXX  26121 31088 11497 81604 10080 20070 30214 40221 53004 60040 78082 889// 333 10085;
0140310880999992000092615004+59360+143200FM-12+000699999V0201601N002010075019N0100001N1+00791+00731102191ADDAY181031AY221031GF108991081091008001999999MD1810021+9999MW1811REMSYN066AAXX  26151 31088 41597 81602 10079 20073 40219 58002 78182 889//;
0140310880999992000092618004+59360+143200FM-12+000699999V0201001N001010075019N0100001N1+00751+00671102201ADDAY181061AY221061GF108991081091008001999999MD1310011+9999MW1801REMSYN066AAXX  26181 31088 41597 81001 10075 20067 40220 53001 78082 889//;
0159310880999992000092621004+59360+143200FM-12+000699999V0201501N003010042019N0500001N1+00751+00591102281ADDAY181031AY221031GF108991999051004501071999MD1310081+9999MW1021REMSYN066AAXX  26211 31088 /1499 81503 10075 20059 40228 53008 70282 8857/;EQDQ01+000082SCOTLC
0237310880999992000092700004+59360+143200FM-12+000699999V0201301N004010072019N0500001N1+00811+00741102341ADDAA100006191AY181061AY221061GA1081+007209059GF108991081051008001999999GJ100009KA1120N+00681MA1999999102271MD1210061+9999MW1021REMSYN100AAXX  27001 31088 11599 81304 10081 20074 30227 40234 52006 60060 70282 885// 333 20068 55000 88624;
0138310880999992000092703004+59360+143200FM-12+000699999V0201401N005010078019N0500001N1+00861+00731102321ADDGA1051+007809059GF107991071031008001001001MD1810021+9999REMSYN070AAXX  27031 31088 42599 71405 10086 20073 40232 58002 87300 333 85626;
0138310880999992000092706004+59360+143200FM-12+000699999V0201301N004010075019N0500001N1+00841+00731102321ADDGA1061+007509059GF108991081031008001999999MD1410001+9999REMSYN070AAXX  27061 31088 42599 81304 10084 20073 40232 54000 883// 333 86625;
0187310880999992000092709004+59360+143200FM-12+000699999V0201201N00501004201CN0200001N1+00811+00771102321ADDAA199000091GA1041+006009099GF108991081031004501999999KA1120M+00901MD1410001+9999REMSYN076AAXX  27091 31088 32498 81205 10081 20077 40232 54000 883// 333 10090 84920;EQDQ01  00002PRCP99
0208310880999992000092712004+59360+143200FM-12+000699999V0201601N002010063019N0200001N1+00801+00781102341ADDAA199000091GA1051+006309099GF108991081031004501999999KA1120M+00901MA1999999102271MD1310021+9999REMSYN082AAXX  27121 31088 32498 81602 10080 20078 30227 40234 53002 883// 333 10090 85921;EQDQ01  00002PRCP99
0166310880999992000092715004+59360+143200FM-12+000699999V0201501N001010030019N0100001N1+00771+00771102321ADDAY151031AY221031GA1081+003009069GF108991081061004501999999MD1810021+9999MW1511REMSYN076AAXX  27151 31088 41497 81501 10077 20077 40232 58002 75152 886// 333 88710;
0166310880999992000092718004+59360+143200FM-12+000699999V0200301N001010030019N0200001N1+00671+00671102281ADDAY151061AY221061GA1081+003009069GF108991081061004501999999MD1710041+9999MW1021REMSYN076AAXX  27181 31088 41498 80301 10067 20067 40228 57004 70252 886// 333 88710;
0138310880999992000092721004+59360+143200FM-12+000699999V0200201N002010072019N0500001N1+00641+00641102281ADDGA1061+007209059GF108991061051008001051999MD1410001+9999REMSYN070AAXX  27211 31088 /2599 80202 10064 20064 40228 54000 8655/ 333 86624;
0209310880999992000092800004+59360+143200FM-12+000699999V0203401N002010075019N0500001N1+00771+00651102271ADDAA100000591GA1051+007509059GF107991051051008001051001GJ100009KA1120N+00621MA1999999102201MD1810011+9999REMSYN094AAXX  28001 31088 12599 73402 10077 20065 30220 40227 58001 69940 85550 333 20062 55000 85625;
0138310880999992000092803004+59360+143200FM-12+000699999V0203501N002010075019N0500001N1+01041+00481102221ADDGA1061+007509059GF108991061051008001051999MD1710051+9999REMSYN070AAXX  28031 31088 42599 83502 10104 20048 40222 57005 8655/ 333 86625;
0112310880999992000092806004+59360+143200FM-12+000699999V0202301N003010300019N0500001N1+01001+00701102181ADDGF107991021051008001031011MD1710041+9999REMSYN060AAXX  28061 31088 42599 72303 10100 20070 40218 57004 82531;
0165310880999992000092809004+59360+143200FM-12+000699999V0202801N001010300019N0500001N1+00811+00641102231ADDAA199000091GF107991031051008001031011KA1999M+01141MD1310051+9999REMSYN070AAXX  28091 31088 32599 72801 10081 20064 40223 53005 83531 333 10114;EQDQ01  00002PRCP99
0186310880999992000092812004+59360+143200FM-12+000699999V0203501N002010300019N0500001N1+00631+00351102231ADDAA199000091GF107991041051008001031011KA1999M+01141MA1999999102161MD1410001+9999REMSYN076AAXX  28121 31088 32599 73502 10063 20035 30216 40223 54000 84531 333 10114;EQDQ01  00002PRCP99
0112310880999992000092815004+59360+143200FM-12+000699999V0203601N001010300019N0500001N1+00441+00191102231ADDGF105991021051008001031001MD1410001+9999REMSYN060AAXX  28151 31088 42599 53601 10044 20019 40223 54000 82530;
0112310880999992000092818004+59360+143200FM-12+000699999V0203401N003012200019N0500001N1+00341-00041102271ADDGF102991021001999999041001MD1310041+9999REMSYN060AAXX  28181 31088 42999 23403 10034 21004 40227 53004 82040;
0142310880999992000092821004+59360+143200FM-12+000699999V0203401N005012200019N0500001N1+00311-00271102271ADDAA199000091GF102991011051008001041001MD1410001+9999REMSYN060AAXX  28211 31088 32599 23405 10031 21027 40227 54000 81540;EQDQ01  00002PRCP99
0192310880999992000092900004+59360+143200FM-12+000699999V0200201N006012200019N0500001N1+00711-00571102281ADDAA199000091GF102991011051008001041001KA1120N+00261MA1999999102211MD1310011+9999REMSYN082AAXX  29001 31088 32599 20206 10071 21057 30221 40228 53001 81540 333 20026 55028;EQDQ01  00002PRCP99
0112310880999992000092903004+59360+143200FM-12+000699999V0203601N006012200019N0500001N1+01031-00601102151ADDGF102991011001999999041011MD1810131+9999REMSYN060AAXX  29031 31088 42999 23606 10103 21060 40215 58013 81041;
0112310880999992000092906004+59360+143200FM-12+000699999V0202001N003012200019N0500001N1+00941+00171102081ADDGF102991011011008001041011MD1710071+9999REMSYN060AAXX  29061 31088 42599 22003 10094 20017 40208 57007 81141;
0165310880999992000092909004+59360+143200FM-12+000699999V0203201N002012200019N0500001N1+00781-00381102071ADDAA199000091GF101991011051008001001001KA1999M+01081MD1610011+9999REMSYN070AAXX  29091 31088 32599 13202 10078 21038 40207 56001 81500 333 10108;EQDQ01  00002PRCP99
0196310880999992000092912004+59360+143200FM-12+000699999V0203501N003012200019N0500001N1+00321-00471102101ADDAA199000091GA1001+999999999GF100991001001999999001001KA1999M+01081MA1999999102031MD1310031+9999REMSYN070AAXX  29121 31088 32999 03503 10032 21047 30203 40210 53003 333 10108;EQDQ01  00002PRCP99
0122310880999992000092915004+59360+143200FM-12+000699999V0203501N003012200019N0500001N1+00171-00601102121ADDGA1001+999999999GF100991001001999999001001MD1210021+9999REMSYN054AAXX  29151 31088 42999 03503 10017 21060 40212 52002;
0122310880999992000092918004+59360+143200FM-12+000699999V0203601N002012200019N0500001N1-00051-00621102081ADDGA1001+999999999GF100991001001999999001001MD1810041+9999REMSYN054AAXX  29181 31088 42999 03602 11005 21062 40208 58004;
0142310880999992000092921004+59360+143200FM-12+000699999V0203601N002019999999N0500001N1-00171-00581102051ADDAA199000091GF106991021001999999041011MD1710031+9999REMSYN060AAXX  29211 31088 32999 63602 11017 21058 40205 57003 82041;EQDQ01  00002PRCP99
0192310880999992000093000004+59360+143200FM-12+000699999V0203401N003019999999N0500001N1+00421-00481102001ADDAA199000091GF105991021001999999041021KA1120N-00191MA1999999101931MD1710051+9999REMSYN082AAXX  30001 31088 32999 53403 10042 21048 30193 40200 57005 82042 333 21019 55106;EQDQ01  00002PRCP99
0112310880999992000093003004+59360+143200FM-12+000699999V0203601N002012200019N0500001N1+01031-00641101861ADDGF103991011001999999041011MD1810141+9999REMSYN060AAXX  30031 31088 42999 33602 10103 21064 40186 58014 81041;
0112310880999992000093006004+59360+143200FM-12+000699999V0203401N002012200019N0500001N1+01191-00641101731ADDGF102991011001999999041011MD1710131+9999REMSYN060AAXX  30061 31088 42999 23402 10119 21064 40173 57013 81041;
0181310880999992000093009004+59360+143200FM-12+000699999V0202201N002012200019N0500001N1+00751+00301101731ADDAA199000091GF102991999001999999041001KA1999M+01231MD1310031+9999REMSYN070AAXX  30091 31088 32999 22202 10075 20030 40173 53003 81040 333 10123;EQDQ01+000012SCOTLCQ02  00002PRCP99
0196310880999992000093012004+59360+143200FM-12+000699999V0202501N001012200019N0500001N1+00401-00031101751ADDAA199000091GA1001+999999999GF100991001001999999001001KA1999M+01231MA1999999101681MD1810011+9999REMSYN070AAXX  30121 31088 32999 02501 10040 21003 30168 40175 58001 333 10123;EQDQ01  00002PRCP99
0122310880999992000093015004+59360+143200FM-12+000699999V0200201N002012200019N0500001N1-00041-00351101761ADDGA1001+999999999GF100991001001999999001001MD1310011+9999REMSYN054AAXX  30151 31088 42999 00202 11004 21035 40176 53001;
0122310880999992000093018004+59360+143200FM-12+000699999V0200301N003012200019N0500001N1+00051-00691101761ADDGA1001+999999999GF100991001001999999001001MD1410001+9999REMSYN054AAXX  30181 31088 42999 00303 10005 21069 40176 54000;
0142310880999992000093021004+59360+143200FM-12+000699999V0200401N004012200019N0500001N1+00101-00791101791ADDAA199000091GF102991011001999999041011MD1310031+9999REMSYN060AAXX  30211 31088 32999 20404 10010 21079 40179 53003 81041;EQDQ01  00002PRCP99
0192310880999992000100100004+59360+143200FM-12+000699999V0200101N003012200019N0500001N1+00501-00521101701ADDAA199000091GF102991021001999999031001KA1120N-00081MA1999999101631MD1210091+9999REMSYN082AAXX  01001 31088 32999 20103 10050 21052 30163 40170 52009 82030 333 21008 55110;EQDQ01  00002PRCP99
0112310880999992000100103004+59360+143200FM-12+000699999V0201801N002012200019N0500001N1+00931-00641101801ADDGF101991011001999999031001MD1210101+9999REMSYN060AAXX  01031 31088 42999 11802 10093 21064 40180 52010 81030;
0112310880999992000100106004+59360+143200FM-12+000699999V0202101N003012200019N0500001N1+00841+00191101791ADDGF103991011051008001041011MD1810011+9999REMSYN060AAXX  01061 31088 42599 32103 10084 20019 40179 58001 81541;
0165310880999992000100109004+59360+143200FM-12+000699999V0201801N003012200019N0500001N1+00691+00411101821ADDAA199000091GF101991011051008001001001KA1999M+01001MD1310031+9999REMSYN070AAXX  01091 31088 32599 11803 10069 20041 40182 53003 81500 333 10100;EQDQ01  00002PRCP99
0196310880999992000100112004+59360+143200FM-12+000699999V0201801N002012200019N0500001N1+00621+00311101931ADDAA199000091GA1001+999999999GF100991001001999999001001KA1999M+01001MA1999999101861MD1310111+9999REMSYN070AAXX  01121 31088 32999 01802 10062 20031 30186 40193 53011 333 10100;EQDQ01  00002PRCP99
0122310880999992000100115004+59360+143200FM-12+000699999V0203601N002012200019N0500001N1+00041-00191101971ADDGA1001+999999999GF100991001001999999001001MD1110041+9999REMSYN054AAXX  01151 31088 42999 03602 10004 21019 40197 51004;
0122310880999992000100118004+59360+143200FM-12+000699999V0203601N002012200019N0500001N1-00181-00401102031ADDGA1001+999999999GF100991001001999999001001MD1210061+9999REMSYN054AAXX  01181 31088 42999 03602 11018 21040 40203 52006;
0142310880999992000100121004+59360+143200FM-12+000699999V0203501N003012200019N0500001N1-00311-00481102091ADDAA199000091GF102991011051008001001011MD1210061+9999REMSYN060AAXX  01211 31088 32599 23503 11031 21048 40209 52006 81501;EQDQ01  00002PRCP99
0192310880999992000100200004+59360+143200FM-12+000699999V0203501N002012200019N0500001N1+00211-00221102181ADDAA199000091GF102991021001999999041001KA1120N-00331MA1999999102111MD1210091+9999REMSYN082AAXX  02001 31088 32999 23502 10021 21022 30211 40218 52009 82040 333 21033 55110;EQDQ01  00002PRCP99
0112310880999992000100203004+59360+143200FM-12+000699999V0201801N001012200019N0500001N1+00741+00341102191ADDGF101991001001999999001011MD1210011+9999REMSYN060AAXX  02031 31088 42999 11801 10074 20034 40219 52001 80001;
0112310880999992000100206004+59360+143200FM-12+000699999V0201701N001012200019N0500001N1+00721+00611102181ADDGF101991001001999999001011MD1810011+9999REMSYN060AAXX  02061 31088 42999 11701 10072 20061 40218 58001 80001;
0165310880999992000100209004+59360+143200FM-12+000699999V0202001N002012200019N0500001N1+00671+00491102241ADDAA199000091GF102991001001999999001011KA1999M+00811MD1310061+9999REMSYN070AAXX  02091 31088 32999 22002 10067 20049 40224 53006 80001 333 10081;EQDQ01  00002PRCP99
0196310880999992000100212004+59360+143200FM-12+000699999V0201801N002012200019N0500001N1+00591+00541102301ADDAA199000091GA1001+999999999GF100991001001999999001001KA1999M+00811MA1999999102231MD1210061+9999REMSYN070AAXX  02121 31088 32999 01802 10059 20054 30223 40230 52006 333 10081;EQDQ01  00002PRCP99
0122310880999992000100215004+59360+143200FM-12+000699999V0203601N002012200019N0500001N1+00011-00021102371ADDGA1001+999999999GF100991001001999999001001MD1210071+9999REMSYN054AAXX  02151 31088 42999 03602 10001 21002 40237 52007;
0112310880999992000100218004+59360+143200FM-12+000699999V0203401N003012200019N0500001N1+00011+00011102371ADDGF103991031051008001001001MD1410001+9999REMSYN060AAXX  02181 31088 42599 33403 10001 20001 40237 54000 83500;
0168310880999992000100221004+59360+143200FM-12+000699999V0203501N004010075019N0500001N1-00181-00291102391ADDAA199000091GA1061+007509059GF106991061051008001001001MD1310021+9999REMSYN070AAXX  02211 31088 32599 63504 11018 21029 40239 53002 86500 333 86625;EQDQ01  00002PRCP99
0222310880999992000100300004+59360+143200FM-12+000699999V0200201N002010072019N0500001N1+00241+00141102481ADDAA199000091GA1071+007209059GF107991071051008001001001GJ106249KA1120N-00191MA1999999102411MD1210091+9999REMSYN088AAXX  03001 31088 32599 70202 10024 20014 30241 40248 52009 87500 333 21019 55104 87624;EQDQ01  00002PRCP99
0112310880999992000100303004+59360+143200FM-12+000699999V0202001N001012200019N0500001N1+00631+00191102421ADDGF101991011041008001001001MD1810061+9999REMSYN060AAXX  03031 31088 42599 12001 10063 20019 40242 58006 81400;
0112310880999992000100306004+59360+143200FM-12+000699999V0202201N003012200019N0500001N1+00551+00381102341ADDGF102991021041008001001001MD1710081+9999REMSYN060AAXX  03061 31088 42599 22203 10055 20038 40234 57008 82400;
0165310880999992000100309004+59360+143200FM-12+000699999V0202301N002010042019N0500001N1+00491+00351102351ADDAA199000091GF106991061061004501001001KA1999M+00701MD1310011+9999REMSYN070AAXX  03091 31088 32499 62302 10049 20035 40235 53001 86600 333 10070;EQDQ01  00002PRCP99
0208310880999992000100312004+59360+143200FM-12+000699999V0202101N002010039019N0200001N1+00571+00381102371ADDAA199000091GA1081+003909069GF108991081061004501999999KA1120M+00701MA1999999102261MD1810021+9999REMSYN082AAXX  03121 31088 32498 82102 10057 20038 30226 40237 58002 886// 333 10070 88713;EQDQ01  00002PRCP99
0138310880999992000100315004+59360+143200FM-12+000699999V0209999C000010039019N0200001N1+00451+00351102261ADDGA1081+003909069GF108991081061004501999999MD1710071+9999REMSYN070AAXX  03151 31088 42498 80000 10045 20035 40226 57007 886// 333 88713;
0138310880999992000100318004+59360+143200FM-12+000699999V0203401N002010042019N0200001N1+00311+00211102231ADDGA1081+004209069GF108991081061004501999999MD1710031+9999REMSYN070AAXX  03181 31088 42498 83402 10031 20021 40223 57003 886// 333 88714;
0168310880999992000100321004+59360+143200FM-12+000699999V0203201N001010042019N0200001N1+00261+00161102301ADDAA199000091GA1081+004209069GF108991081061004501999999MD1310071+9999REMSYN070AAXX  03211 31088 32498 83201 10026 20016 40230 53007 886// 333 88714;EQDQ01  00002PRCP99
0222310880999992000100400004+59360+143200FM-12+000699999V0200201N00201004201CN0200001N1+00271+00091102341ADDAA199000091GA1041+006909059GF108991081061004501999999GJ104689KA1120N+00231MA1999999102271MD1210041+9999REMSYN088AAXX  04001 31088 32498 80202 10027 20009 30227 40234 52004 886// 333 20023 55078 84623;EQDQ01  00002PRCP99
0138310880999992000100403004+59360+143200FM-12+000699999V0200301N002010075019N0500001N1+00341+00131102311ADDGA1061+007509059GF108991081061004501999999MD1810031+9999REMSYN070AAXX  04031 31088 42499 80302 10034 20013 40231 58003 886// 333 86625;
0112310880999992000100406004+59360+143200FM-12+000699999V0209999C000012200019N0500001N1+00501+00251102231ADDGF101991011061004501001001MD1710081+9999REMSYN060AAXX  04061 31088 42499 10000 10050 20025 40223 57008 81600;
0165310880999992000100409004+59360+143200FM-12+000699999V0202701N001012200019N0500001N1+00451+00251102251ADDAA199000091GF101991011001999999041001KA1999M+00521MD1310021+9999REMSYN070AAXX  04091 31088 32999 12701 10045 20025 40225 53002 81040 333 10052;EQDQ01  00002PRCP99
0186310880999992000100412004+59360+143200FM-12+000699999V0209999C000012200019N0500001N1+00091+00011102311ADDAA199000091GF101991011001999999041001KA1999M+00521MA1999999102241MD1210061+9999REMSYN076AAXX  04121 31088 32999 10000 10009 20001 30224 40231 52006 81040 333 10052;EQDQ01  00002PRCP99
0122310880999992000100415004+59360+143200FM-12+000699999V0200101N001012200019N0500001N1-00111-00141102341ADDGA1001+999999999GF100991001001999999001001MD1210031+9999REMSYN054AAXX  04151 31088 42999 00101 11011 21014 40234 52003;
0122310880999992000100418004+59360+143200FM-12+000699999V0200101N003012200019N0500001N1-00261-00261102371ADDGA1001+999999999GF100991001001999999001001MD1210031+9999REMSYN054AAXX  04181 31088 42999 00103 11026 21026 40237 52003;
0142310880999992000100421004+59360+143200FM-12+000699999V0200201N002019999999N0500001N1-00261-00261102391ADDAA199000091GF106991041001999999051011MD1210021+9999REMSYN060AAXX  04211 31088 32999 60202 11026 21026 40239 52002 84051;EQDQ01  00002PRCP99
0192310880999992000100500004+59360+143200FM-12+000699999V0200301N002010075019N0500001N1-00121-00141102431ADDAA199000091GF107991051051008001031011KA1120N-00301MA1999999102361MD1210041+9999REMSYN082AAXX  05001 31088 32599 70302 11012 21014 30236 40243 52004 85531 333 21030 55026;EQDQ01  00002PRCP99
0138310880999992000100503004+59360+143200FM-12+000699999V0201901N002010066019N0500001N1+00511+00371102451ADDGA1061+006609059GF107991061051008001031011MD1210021+9999REMSYN070AAXX  05031 31088 42599 71902 10051 20037 40245 52002 86531 333 86622;
0112310880999992000100506004+59360+143200FM-12+000699999V0201501N003010075019N0500001N1+00511+00371102491ADDGF108991051061008001071999MD1210041+9999REMSYN060AAXX  05061 31088 42599 81503 10051 20037 40249 52004 8567/;
0165310880999992000100509004+59360+143200FM-12+000699999V0201601N004010042019N0500001N1+00541+00401102531ADDAA199000091GF108991051061004501071999KA1999M+00571MD1210041+9999REMSYN070AAXX  05091 31088 32499 81604 10054 20040 40253 52004 8567/ 333 10057;EQDQ01  00002PRCP99
0186310880999992000100512004+59360+143200FM-12+000699999V0209999C000010042019N0500001N1+00341+00321102551ADDAA199000091GF107991061061004501071001KA1999M+00571MA1999999102481MD1210021+9999REMSYN076AAXX  05121 31088 32499 70000 10034 20032 30248 40255 52002 86670 333 10057;EQDQ01  00002PRCP99
0112310880999992000100515004+59360+143200FM-12+000699999V0209999C000010042019N0500001N1+00261+00261102521ADDGF107991061061004501051001MD1810031+9999REMSYN060AAXX  05151 31088 42499 70000 10026 20026 40252 58003 86650;
0112310880999992000100518004+59360+143200FM-12+000699999V0200801N001010300019N0500001N1+00381+00361102541ADDGF106991041061004501031001MD1310021+9999REMSYN060AAXX  05181 31088 42499 60801 10038 20036 40254 53002 84630;
0142310880999992000100521004+59360+143200FM-12+000699999V0200101N001010075019N0500001N1+00121+00121102601ADDAA199000091GF107991071051008001001001MD1210061+9999REMSYN060AAXX  05211 31088 32599 70101 10012 20012 40260 52006 87500;EQDQ01  00002PRCP99
0187310880999992000100600004+59360+143200FM-12+000699999V0203601N001010075019N0500001N1+00271+00221102641ADDAA124999999GF107991051051008001051001GJ100129KA1120N+00111MA1999999102571MD1210041+9999REMSYN088AAXX  06001 31088 32599 73601 10027 20022 30257 40264 52004 85550 333 20011 55002 7000/;
0138310880999992000100603004+59360+143200FM-12+000699999V0201101N003010072019N0500001N1+00611+00351102611ADDGA1071+007209059GF107991071051008001001001MD1810031+9999REMSYN070AAXX  06031 31088 42599 71103 10061 20035 40261 58003 87500 333 87624;
0166310880999992000100606004+59360+143200FM-12+000699999V0201401N003010066019N0100001N1+00581+00491102591ADDAY181061AY221061GA1051+006609059GF108991081031004501999999MD1710021+9999MW1021REMSYN076AAXX  06061 31088 41497 81403 10058 20049 40259 57002 70282 883// 333 85622;
0157310880999992000100609004+59360+143200FM-12+000699999V0201601N003010066019N0200001N1+00591+00381102591ADDGA1051+006609059GF108991081031004501999999KA1120M+00641MD1410001+9999REMSYN076AAXX  06091 31088 /2498 81603 10059 20038 40259 54000 883// 333 10064 85622;
0195310880999992000100612004+59360+143200FM-12+000699999V0209999C000010066019N0200001N1+00461+00341102631ADDAA100000791GA1051+006609059GF108991081051004501999999KA1120M+00641MA1999999102561MD1310041+9999REMSYN088AAXX  06121 31088 12498 80000 10046 20034 30256 40263 53004 69900 885// 333 10064 85622;
0112310880999992000100615004+59360+143200FM-12+000699999V0200301N001012200019N0500001N1+00261+00211102531ADDGF102991021051008001001001MD1810011+9999REMSYN060AAXX  06151 31088 42599 20301 10026 20021 40253 58001 82500;
0122310880999992000100618004+59360+143200FM-12+000699999V0203501N002012200019N0500001N1-00041-00041102471ADDGA1001+999999999GF100991001001999999001001MD1710061+9999REMSYN054AAXX  06181 31088 42999 03502 11004 21004 40247 57006;
0142310880999992000100621004+59360+143200FM-12+000699999V0203601N002010300019N0500001N1-00021-00021102471ADDAA199000091GF107991021051004501031011MD1410001+9999REMSYN060AAXX  06211 31088 32499 73602 11002 21002 40247 54000 82531;EQDQ01  00002PRCP99
0230310880999992000100700004+59360+143200FM-12+000699999V0203601N003010003019N0005001N1+00041+00041102411ADDAA199000091AY141061AY211061GA1091+999999999GF109991091999999999999999KA1120N-00131MA1999999102341MD1810061+9999MW1471REMSYN082AAXX  07001 31088 31/93 93603 10004 20004 30234 40241 58006 74741 333 21013 55000;EQDQ01  00002PRCP99
0140310880999992000100703004+59360+143200FM-12+000699999V0203001N002012200019N0500001N1+00561+00191102281ADDAY141031AY211031GF102991001001999999001011MD1710131+9999MW1021REMSYN066AAXX  07031 31088 41999 23002 10056 20019 40228 57013 70241 80001;
0150310880999992000100706004+59360+143200FM-12+000699999V0202301N003012200019N0500001N1+00631+00351102161ADDAY141061AY211061GA1001+999999999GF100991001001999999001001MD1710121+9999MW1021REMSYN060AAXX  07061 31088 41999 02303 10063 20035 40216 57012 70241;
0165310880999992000100709004+59360+143200FM-12+000699999V0201301N002012200019N0500001N1+00531+00481102101ADDAA199000091GF102991021051008001001001KA1999M+00661MD1610061+9999REMSYN070AAXX  07091 31088 32599 21302 10053 20048 40210 56006 82500 333 10066;EQDQ01  00002PRCP99
0186310880999992000100712004+59360+143200FM-12+000699999V0201601N002012200019N0500001N1+00531+00511102001ADDAA199000091GF102991001001999999001011KA1999M+00661MA1999999101931MD1710101+9999REMSYN076AAXX  07121 31088 32999 21602 10053 20051 30193 40200 57010 80001 333 10066;EQDQ01  00002PRCP99
0150310880999992000100715004+59360+143200FM-12+000699999V0209999C000010003019N0005001N1-00021-00021101901ADDAY141031AY211031GA1091+999999999GF109991091999999999999999MD1710101+9999MW1471REMSYN060AAXX  07151 31088 41/93 90000 11002 21002 40190 57010 74741;
0150310880999992000100718004+59360+143200FM-12+000699999V0203401N002010003019N0005001N1-00061-00061101821ADDAY141061AY211061GA1091+999999999GF109991091999999999999999MD1710081+9999MW1451REMSYN060AAXX  07181 31088 41/93 93402 11006 21006 40182 57008 74541;
0170310880999992000100721004+59360+143200FM-12+000699999V0203501N003012200019N0500001N1-00121-00121101811ADDAA199000091AY141031AY211031GF102991011001999999031011MD1610011+9999MW1281REMSYN066AAXX  07211 31088 31999 23503 11012 21012 40181 56001 72841 81031;EQDQ01  00002PRCP99
0220310880999992000100800004+59360+143200FM-12+000699999V0203601N002019999999N0500001N1+00201+00011101761ADDAA199000091AY141061AY211061GF107991001001999999001061KA1120N-00141MA1999999101691MD1710051+9999MW1031REMSYN088AAXX  08001 31088 31999 73602 10020 20001 30169 40176 57005 70341 80006 333 21014 55066;EQDQ01  00002PRCP99
0112310880999992000100803004+59360+143200FM-12+000699999V0202201N001019999999N0500001N1+00591+00141101641ADDGF107991001001999999001061MD1810121+9999REMSYN060AAXX  08031 31088 42999 72201 10059 20014 40164 58012 80006;
0112310880999992000100806004+59360+143200FM-12+000699999V0201601N002019999999N0500001N1+00701+00381101481ADDGF107991001001999999001061MD1710161+9999REMSYN060AAXX  08061 31088 42999 71602 10070 20038 40148 57016 80006;
0165310880999992000100809004+59360+143200FM-12+000699999V0202301N001012200019N0500001N1+00671+00441101381ADDAA199000091GF107991011051008001001011KA1999M+00731MD1710101+9999REMSYN070AAXX  08091 31088 32599 72301 10067 20044 40138 57010 81501 333 10073;EQDQ01  00002PRCP99
0186310880999992000100812004+59360+143200FM-12+000699999V0202401N002012200019N0500001N1+00641+00601101281ADDAA199000091GF101991011051008001001001KA1999M+00731MA1999999101211MD1710101+9999REMSYN076AAXX  08121 31088 32599 12402 10064 20060 30121 40128 57010 81500 333 10073;EQDQ01  00002PRCP99
0112310880999992000100815004+59360+143200FM-12+000699999V0209999C000012200019N0500001N1+00571+00551101241ADDGF102991021051008001001001MD1610041+9999REMSYN060AAXX  08151 31088 42599 20000 10057 20055 40124 56004 82500;
0112310880999992000100818004+59360+143200FM-12+000699999V0203601N001012200019N0500001N1-00021-00051101281ADDGF101991011001999999041001MD1310041+9999REMSYN060AAXX  08181 31088 42999 13601 11002 21005 40128 53004 81040;
0141310880999992000100821004+59360+143200FM-12+000699999V0203601N002012200019N0500001N1+00031-00171101361ADDAA199000091GF102991999999999999999999MD1210081+9999REMSYN059AAXX  08211 31088 32999 23602 10003 21017 40136 52008 8200;EQDQ01  00002PRCP99
0192310880999992000100900004+59360+143200FM-12+000699999V0200201N002012200019N0500001N1+00271-00151101431ADDAA199000091GF103991011001999999041011KA1120N-00041MA1999999101361MD1210071+9999REMSYN082AAXX  09001 31088 32999 30202 10027 21015 30136 40143 52007 81041 333 21004 55091;EQDQ01  00002PRCP99
0112310880999992000100903004+59360+143200FM-12+000699999V0200101N004012200019N0500001N1+00731-00781101391ADDGF102991001001999999001011MD1810041+9999REMSYN060AAXX  09031 31088 42999 20104 10073 21078 40139 58004 80001;
0112310880999992000100906004+59360+143200FM-12+000699999V0200101N002012200019N0500001N1+00871-00781101301ADDGF101991001001999999001011MD1710091+9999REMSYN060AAXX  09061 31088 42999 10102 10087 21078 40130 57009 80001;
0175310880999992000100909004+59360+143200FM-12+000699999V0200101N001012200019N0500001N1+00411-00801101291ADDAA199000091GA1001+999999999GF100991001001999999001001KA1999M+00881MD1610011+9999REMSYN064AAXX  09091 31088 32999 00101 10041 21080 40129 56001 333 10088;EQDQ01  00002PRCP99
0196310880999992000100912004+59360+143200FM-12+000699999V0203201N001012200019N0500001N1+00121-00441101271ADDAA199000091GA1001+999999999GF100991001001999999001001KA1999M+00881MA1999999101201MD1710021+9999REMSYN070AAXX  09121 31088 32999 03201 10012 21044 30120 40127 57002 333 10088;EQDQ01  00002PRCP99
0122310880999992000100915004+59360+143200FM-12+000699999V0200101N003012200019N0500001N1-00121-00791101251ADDGA1001+999999999GF100991001001999999001001MD1710021+9999REMSYN054AAXX  09151 31088 42999 00103 11012 21079 40125 57002;
0122310880999992000100918004+59360+143200FM-12+000699999V0200101N003012200019N0500001N1-00211-00881101181ADDGA1001+999999999GF100991001001999999001001MD1710071+9999REMSYN054AAXX  09181 31088 42999 00103 11021 21088 40118 57007;
0142310880999992000100921004+59360+143200FM-12+000699999V0200101N003012200019N0500001N1-00251-00941101141ADDAA199000091GF102991001001999999001011MD1710041+9999REMSYN060AAXX  09211 31088 32999 20103 11025 21094 40114 57004 80001;EQDQ01  00002PRCP99
0192310880999992000101000004+59360+143200FM-12+000699999V0200401N003012200019N0500001N1-00021-00941101051ADDAA199000091GF101991001001999999001011KA1120N-00261MA1999999100981MD1710091+9999REMSYN082AAXX  10001 31088 32999 10403 11002 21094 30098 40105 57009 80001 333 21026 55100;EQDQ01  00002PRCP99
0112310880999992000101003004+59360+143200FM-12+000699999V0200101N004012200019N0500001N1+00441-00951100861ADDGF101991001001999999001011MD1810191+9999REMSYN060AAXX  10031 31088 42999 10104 10044 21095 40086 58019 80001;
0112310880999992000101006004+59360+143200FM-12+000699999V0203501N004012200019N0500001N1+00621-01021100601ADDGF102991021001999999041001MD1810261+9999REMSYN060AAXX  10061 31088 42999 23504 10062 21102 40060 58026 82040;
0165310880999992000101009004+59360+143200FM-12+000699999V0203101N001012200019N0500001N1+00211-00801100501ADDAA199000091GF102991021001999999041011KA1999M+00651MD1610101+9999REMSYN070AAXX  10091 31088 32999 23101 10021 21080 40050 56010 82041 333 10065;EQDQ01  00002PRCP99
0186310880999992000101012004+59360+143200FM-12+000699999V0200101N007012200019N0500001N1+00181-01111100401ADDAA199000091GF103991001001999999001011KA1999M+00651MA1999999100331MD1310101+9999REMSYN076AAXX  10121 31088 32999 30107 10018 21111 30033 40040 53010 80001 333 10065;EQDQ01  00002PRCP99
0112310880999992000101015004+59360+143200FM-12+000699999V0200101N006019999999N0500001N1-00031-01211100311ADDGF106991021001999999041011MD1810091+9999REMSYN060AAXX  10151 31088 42999 60106 11003 21121 40031 58009 82041;
0112310880999992000101018004+59360+143200FM-12+000699999V0203601N007019999999N0500001N1-00121-01221100261ADDGF107991041001999999041011MD1710051+9999REMSYN060AAXX  10181 31088 42999 73607 11012 21122 40026 57005 84041;
0142310880999992000101021004+59360+143200FM-12+000699999V0203601N005019999999N0500001N1-00161-01191100081ADDAA199000091GF107991021001999999041011MD1810181+9999REMSYN060AAXX  10211 31088 32999 73605 11016 21119 40008 58018 82041;EQDQ01  00002PRCP99
0192310880999992000101100004+59360+143200FM-12+000699999V0203601N008019999999N0500001N1+00041-01151099941ADDAA199000091GF107991051001999999041011KA1120N-00171MA1999999099871MD1710141+9999REMSYN082AAXX  11001 31088 32999 73608 10004 21115 39987 49994 57014 85041 333 21017 55103;EQDQ01  00002PRCP99
0122310880999992000101103004+59360+143200FM-12+000699999V0200101N008010300019N0500001N1+00271-01061099731ADDGF106991021051008001041011MD1810211+9999REMSYN070AAXX  11031 31088 42599 60108 10027 21106 49973 58021 82541 333 91113;
0122310880999992000101106004+59360+143200FM-12+000699999V0200101N007012200019N0500001N1+00321-01131099601ADDGF102991021001999999041001MD1610131+9999REMSYN070AAXX  11061 31088 42999 20107 10032 21113 49960 56013 82040 333 91112;
0165310880999992000101109004+59360+143200FM-12+000699999V0203501N005012200019N0500001N1+00041-01261099471ADDAA199000091GF102991021001999999041001KA1999M+00341MD1710151+9999REMSYN070AAXX  11091 31088 32999 23505 10004 21126 49947 57015 82040 333 10034;EQDQ01  00002PRCP99
0186310880999992000101112004+59360+143200FM-12+000699999V0203501N006012200019N0500001N1-00101-01291099411ADDAA199000091GF101991011001999999041001KA1999M+00341MA1999999099341MD1610061+9999REMSYN076AAXX  11121 31088 32999 13506 11010 21129 39934 49941 56006 81040 333 10034;EQDQ01  00002PRCP99
0112310880999992000101115004+59360+143200FM-12+000699999V0200501N002012200019N0500001N1-00441-01411099311ADDGF101991011001999999041001MD1710101+9999REMSYN060AAXX  11151 31088 42999 10502 11044 21141 49931 57010 81040;
0112310880999992000101118004+59360+143200FM-12+000699999V0200301N002012200019N0500001N1-00461-01221099171ADDGF103991021001999999041011MD1710141+9999REMSYN060AAXX  11181 31088 42999 30302 11046 21122 49917 57014 82041;
0142310880999992000101121004+59360+143200FM-12+000699999V0200501N002012200019N0500001N1-00581-01251099111ADDAA199000091GF102991011001999999041011MD1610061+9999REMSYN060AAXX  11211 31088 32999 20502 11058 21125 49911 56006 81041;EQDQ01  00002PRCP99
0192310880999992000101200004+59360+143200FM-12+000699999V0203401N005012200019N0500001N1-00131-01081098971ADDAA199000091GF102991011001999999041011KA1120N-00581MA1999999098901MD1810141+9999REMSYN082AAXX  12001 31088 32999 23405 11013 21108 39890 49897 58014 81041 333 21058 55080;EQDQ01  00002PRCP99
0112310880999992000101203004+59360+143200FM-12+000699999V0203201N005012200019N0500001N1+00231-01021098751ADDGF102991021001999999041001MD1710221+9999REMSYN060AAXX  12031 31088 42999 23205 10023 21102 49875 57022 82040;
0112310880999992000101206004+59360+143200FM-12+000699999V0203101N005019999999N0500001N1+00341-00981098571ADDGF106991031001999999051021MD1710181+9999REMSYN060AAXX  12061 31088 42999 63105 10034 21098 49857 57018 83052;
0165310880999992000101209004+59360+143200FM-12+000699999V0203201N002010300019N0500001N1+00011-00881098521ADDAA199000091GF107991021051008001051021KA1999M+00351MD1610051+9999REMSYN070AAXX  12091 31088 32599 73202 10001 21088 49852 56005 82552 333 10035;EQDQ01  00002PRCP99
0186310880999992000101212004+59360+143200FM-12+000699999V0200301N002010300019N0500001N1-00091-00851098511ADDAA199000091GF107991021051008001041061KA1999M+00351MA1999999098441MD1710011+9999REMSYN076AAXX  12121 31088 32599 70302 11009 21085 39844 49851 57001 82546 333 10035;EQDQ01  00002PRCP99
0112310880999992000101215004+59360+143200FM-12+000699999V0200501N002010300019N0500001N1-00151-00871098491ADDGF107991021051008001041061MD1710021+9999REMSYN060AAXX  12151 31088 42599 70502 11015 21087 49849 57002 82546;
0112310880999992000101218004+59360+143200FM-12+000699999V0200301N002010300019N0500001N1-00171-00861098451ADDGF107991021051008001041061MD1710031+9999REMSYN060AAXX  12181 31088 42599 70302 11017 21086 49845 57003 82546;
0168310880999992000101221004+59360+143200FM-12+000699999V0200401N002010066019N0200001N1-00301-00841098531ADDAA199000091GA1061+006609059GF108991081051004501999999MD1210011+9999REMSYN070AAXX  12211 31088 32498 80402 11030 21084 49853 52001 885// 333 86622;EQDQ01  00002PRCP99
0201310880999992000101300004+59360+143200FM-12+000699999V0209999C000010075019N0020001N1-00281-00351098611ADDAA199000021AY171061AY221061GF108991081051008001999999KA1120N-00301MA1999999098541MD1310081+9999MW1731REMSYN088AAXX  13001 31088 31595 80000 11028 21035 39854 49861 53008 77372 885// 333 21030 55096;
0140310880999992000101303004+59360+143200FM-12+000699999V0203601N002010075019N0010001N1-00191-00191098681ADDAY171031AY221031GF108991081001008001021999MD1210071+9999MW1731REMSYN066AAXX  13031 31088 41594 83602 11019 21019 49868 52007 77372 8802/;
0140310880999992000101306004+59360+143200FM-12+000699999V0203401N003010075019N0020001N1-00271-00271098881ADDAY171061AY221061GF108991081001008001021999MD1310201+9999MW1731REMSYN066AAXX  13061 31088 41595 83403 11027 21027 49888 53020 77372 8802/;
0185310880999992000101309004+59360+143200FM-12+000699999V0203601N003010072019N0200001N1-00371-00391099091ADDAY171031AY221031GA1071+007209059GF107991071051008001001001KA1120M-00161MD1210211+9999MW1221REMSYN082AAXX  13091 31088 /1598 73603 11037 21039 49909 52021 72272 87500 333 11016 87624;
0223310880999992000101312004+59360+143200FM-12+000699999V0209999C000010072019N0500001N1-00381-00601099311ADDAA100006191AY171061AY221061GA1071+007209059GF107991071051008001001001KA1120M-00161MA1999999099241MD1210221+9999MW1021REMSYN094AAXX  13121 31088 11599 70000 11038 21060 39924 49931 52022 60060 70272 87500 333 11016 87624;
0112310880999992000101315004+59360+143200FM-12+000699999V0200201N002019999999N0500001N1-00541-00791099491ADDGF107991031001999999051061MD1210181+9999REMSYN060AAXX  13151 31088 42999 70202 11054 21079 49949 52018 83056;
0112310880999992000101318004+59360+143200FM-12+000699999V0200101N001012200019N0500001N1-00721-01061099661ADDGF102991021001999999031001MD1210171+9999REMSYN060AAXX  13181 31088 42999 20101 11072 21106 49966 52017 82030;
0178310880999992000101321004+59360+143200FM-12+000699999V0200101N001010072019N0500001N1-00541-00921099791ADDAA199000021AJ100129199999999GA1071+007209059GF107991071051008001001001IA1239MD1210131+9999REMSYN076AAXX  13211 31088 32599 70101 11054 21092 49979 52013 87500 333 47012 87624;
0251310880999992000101400004+59360+143200FM-12+000699999V0200101N002010072019N0500001N1-00491-00621100021ADDAA199000091AJ100129199999999GA1051+007209059GF107991051051008001031001GJ100009IA1239KA1120N-00751MA1999999099951MD1210231+9999REMSYN094AAXX  14001 31088 32599 70102 11049 21062 39995 40002 52023 85530 333 21075 47012 55000 85624;EQDQ01  00002PRCP99
0166310880999992000101403004+59360+143200FM-12+000699999V0203601N003010072019N0100001N1-00341-00421100111ADDAY171031AY221031GA1071+007209059GF108991071051008001011999MD1110091+9999MW1711REMSYN076AAXX  14031 31088 41597 83603 11034 21042 40011 51009 77172 8751/ 333 87624;
0140310880999992000101406004+59360+143200FM-12+000699999V0203501N002010075019N0500001N1-00211-00421100281ADDAY171061AY221061GF107991061031008001031011MD1210171+9999MW1021REMSYN066AAXX  14061 31088 41599 73502 11021 21042 40028 52017 70272 86331;
0157310880999992000101409004+59360+143200FM-12+000699999V0200201N001010075019N0500001N1-00321-00671100491ADDGA1061+007509059GF107991071031008001031011KA1120M-00181MD1210211+9999REMSYN076AAXX  14091 31088 /2599 70201 11032 21067 40049 52021 87331 333 11018 86625;
0223310880999992000101412004+59360+143200FM-12+000699999V0200101N002010063019N0100001N1-00431-00771100681ADDAA100000591AY181061AY221061GA1051+006309099GF107991071091008001001001KA1120M-00181MA1999999100611MD1210191+9999MW1851REMSYN094AAXX  14121 31088 11597 70102 11043 21077 30061 40068 52019 69950 78582 87900 333 11018 85921;
0140310880999992000101415004+59360+143200FM-12+000699999V0200201N003010075019N0500001N1-00561-00821100851ADDAY181031AY221031GF106991061051008001001001MD1210171+9999MW1011REMSYN066AAXX  14151 31088 41599 60203 11056 21082 40085 52017 70182 86500;
0166310880999992000101418004+59360+143200FM-12+000699999V0203601N003010075019N0500001N1-00681-01201100981ADDAY181061AY221061GA1071+007509059GF107991071051008001001001MD1210131+9999MW1021REMSYN076AAXX  14181 31088 41599 73603 11068 21120 40098 52013 70282 87500 333 87625;
0167310880999992000101421004+59360+143200FM-12+000699999V0203601N004010078019N0500001N1-00801-01421101051ADDAJ100079199999999GA1071+007809059GF107991071051008001001001IA1239MD1110071+9999REMSYN076AAXX  14211 31088 /2599 73604 11080 21142 40105 51007 87500 333 47007 87626;
0236310880999992000101500004+59360+143200FM-12+000699999V0200301N005010075019N0100001N1-00821-01341101111ADDAA100000391AJ100079199999999AY171061AY221061GF108991081051008001999999IA1239KA1120N-00811MA1999999101041MD1210061+9999MW1711REMSYN100AAXX  15001 31088 11597 80305 11082 21134 30104 40111 52006 69930 77172 885// 333 21081 47007 55028;
0140310880999992000101503004+59360+143200FM-12+000699999V0200201N005010075019N0100001N1-00661-00901101011ADDAY181031AY271031GF108991081091008001999999MD1810101+9999MW1871REMSYN066AAXX  15031 31088 41597 80205 11066 21090 40101 58010 78787 889//;
0140310880999992000101506004+59360+143200FM-12+000699999V0200101N003010075019N0040001N1-00521-00551100841ADDAY181061AY271061GF108991081091008001999999MD1810171+9999MW1851REMSYN066AAXX  15061 31088 41596 80103 11052 21055 40084 58017 78587 889//;
0163310880999992000101509004+59360+143200FM-12+000699999V0200301N006010075019N0100001N1-00521-00621100571ADDAY181031AY221031GF108991081091008001999999KA1999M-00431MD1710271+9999MW1851REMSYN076AAXX  15091 31088 /1597 80306 11052 21062 40057 57027 78582 889// 333 11043;
0201310880999992000101512004+59360+143200FM-12+000699999V0203601N007010075019N0020001N1-00541-00541100231ADDAA100001091AY181061AY221061GF108991081091008001999999KA1999M-00431MA1999999100161MD1710341+9999MW1861REMSYN088AAXX  15121 31088 11595 83607 11054 21054 30016 40023 57034 60010 78682 889// 333 11043;
0150310880999992000101515004+59360+143200FM-12+000699999V0203501N008010075019N0020001N1-00491-00491099691ADDAY181031AY221031GF108991081091008001999999MD1810541+9999MW1861REMSYN076AAXX  15151 31088 41595 83508 11049 21049 49969 58054 78682 889// 333 92992;
0167310880999992000101518004+59360+143200FM-12+000699999V0203201N007010075019N0020001N1-00501-00501099201ADDAY181061AY231061GF108991081091008001999999MD1710491+9999MW1861OA149901301REMSYN082AAXX  15181 31088 41595 83207 11050 21050 49920 57049 78683 889// 333 91113 92992;
0196310880999992000101521004+59360+143200FM-12+000699999V0203201N007010075019N0020001N1-00451-00451099101ADDAJ100289199999999AY181031AY231031GF108991081091008001999999IA1239MD1610101+9999MW1861OA149901201REMSYN088AAXX  15211 31088 /1595 83207 11045 21045 49910 56010 78683 889// 333 47028 91112 92992;
0236310880999992000101600004+59360+143200FM-12+000699999V0203501N008010075019N0040001N1-00491-00521099021ADDAA100015091AJ100289199999999AY181061AY231061GF108991081091008001999999IA1239KA1120N-00561MA1999999098951MD1710081+9999MW1851REMSYN100AAXX  16001 31088 11596 83508 11049 21052 39895 49902 57008 60150 78583 889// 333 21056 47028 55000;
0156310880999992000101603004+59360+143200FM-12+000699999V0203601N006010075019N0020001N1-00501-00501098931ADDAY181031AY231031GF108991081091008001999999MD1710091+9999MW1861REMSYN082AAXX  16031 31088 41595 83606 11050 21050 49893 57009 78683 889// 333 92992 91111;
0140310880999992000101606004+59360+143200FM-12+000699999V0203501N006010075019N0100001N1-00511-00541098891ADDAY181061AY221061GF108991081091008001999999MD1710041+9999MW1851REMSYN066AAXX  16061 31088 41597 83506 11051 21054 49889 57004 78582 889//;
0163310880999992000101609004+59360+143200FM-12+000699999V0203501N007010075019N0040001N1-00481-00541098871ADDAY181031AY221031GF108991081091008001999999KA1999M-00451MD1710021+9999MW1851REMSYN076AAXX  16091 31088 /1596 83507 11048 21054 49887 57002 78582 889// 333 11045;
0201310880999992000101612004+59360+143200FM-12+000699999V0203301N004010075019N0040001N1-00581-00801099031ADDAA100005191AY181061AY221061GF108991061091008001011999KA1999M-00451MA1999999098961MD1310061+9999MW1851REMSYN088AAXX  16121 31088 11596 83304 11058 21080 39896 49903 53006 60050 78582 8691/ 333 11045;
0140310880999992000101615004+59360+143200FM-12+000699999V0203601N005010075019N0200001N1-00641-01241099211ADDAY181031AY221031GF108991051091008001011999MD1310251+9999MW1021REMSYN066AAXX  16151 31088 41598 83605 11064 21124 49921 53025 70282 8591/;
0140310880999992000101618004+59360+143200FM-12+000699999V0203201N004010075019N0200001N1-00831-01201099591ADDAY181061AY221061GF108991051091008001011999MD1210311+9999MW1021REMSYN066AAXX  16181 31088 41598 83204 11083 21120 49959 52031 70282 8591/;
0145310880999992000101621004+59360+143200FM-12+000699999V0200301N004010075019N0200001N1-01021-01551099881ADDAJ100319199999999GF108991061091008001999999IA1239MD1210291+9999REMSYN070AAXX  16211 31088 /2598 80304 11102 21155 49988 52029 869// 333 47031;
0238310880999992000101700004+59360+143200FM-12+000699999V0200401N003010069019N0200001N1-01071-01921100231ADDAA100000591AJ100319199999999GA1051+006909099GF108991081031008001999999GJ100009IA1239KA1120N-01031MA1999999100161MD1210351+9999REMSYN100AAXX  17001 31088 12598 80403 11107 21192 30016 40023 52035 69950 883// 333 21103 47031 55000 85923;
0112310880999992000101703004+59360+143200FM-12+000699999V0200101N003010075019N0500001N1-00991-01711100481ADDGF107991051031008001041011MD1110251+9999REMSYN060AAXX  17031 31088 42599 70103 11099 21171 40048 51025 85341;
0112310880999992000101706004+59360+143200FM-12+000699999V0203601N001010300019N0500001N1-00891-01831100141ADDGF107991021051008001041011MD1210261+9999REMSYN060AAXX  17061 31088 42599 73601 11089 21183 40014 52026 82541;
0165310880999992000101709004+59360+143200FM-12+000699999V0203301N001010300019N0500001N1-01011-01981100961ADDAA199000091GF107991031051008001041011KA1999M-00901MD1210221+9999REMSYN070AAXX  17091 31088 32599 73301 11101 21198 40096 52022 83541 333 11090;EQDQ01  00002PRCP99
0186310880999992000101712004+59360+143200FM-12+000699999V0200501N001019999999N0500001N1-01311-02131101071ADDAA199000091GF108991041001999999041011KA1999M-00901MA1999999101001MD1110111+9999REMSYN076AAXX  17121 31088 32999 80501 11131 21213 30100 40107 51011 84041 333 11090;EQDQ01  00002PRCP99
0112310880999992000101715004+59360+143200FM-12+000699999V0200401N003010300019N0500001N1-01401-02111101071ADDGF108991021051008001041011MD1410001+9999REMSYN060AAXX  17151 31088 42599 80403 11140 21211 40107 54000 82541;
0112310880999992000101718004+59360+143200FM-12+000699999V0200301N003010300019N0500001N1-01411-02021101011ADDGF108991021051008001041011MD1810061+9999REMSYN060AAXX  17181 31088 42599 80303 11141 21202 40101 58006 82541;
0175310880999992000101721004+59360+143200FM-12+000699999V0200301N007010075019N0500001N1-01221-01741100811ADDAA199000091AJ100329199999999GF108991061051008001071999IA1239MD1810201+9999REMSYN070AAXX  17211 31088 32599 80307 11122 21174 40081 58020 8657/ 333 47032;EQDQ01  00002PRCP99
0266310880999992000101800004+59360+143200FM-12+000699999V0203301N008010066019N0040001N1-01021-01381100391ADDAA199000021AJ100329199999999AY171061AY231061GA1081+006609069GF108991081051008001999999GJ101929IA1239KA1120N-01421MA1999999100321MD1810421+9999MW1711REMSYN106AAXX  18001 31088 31596 83308 11102 21138 30032 40039 58042 77173 885// 333 21142 47032 55032 88622 91114;
0167310880999992000101803004+59360+143200FM-12+000699999V0203301N009010075019N0010001N1-00811-00831099971ADDAY171031AY231031GF108991081051008001999999MD1710421+9999MW1711OA149901601REMSYN082AAXX  18031 31088 41594 83309 11081 21083 49997 57042 77173 885// 333 91116 92982;
0167310880999992000101806004+59360+143200FM-12+000699999V0203501N008010075019N0010001N1-00681-00681099661ADDAY181061AY271061GF108991081091008001999999MD1610311+9999MW1861OA149901701REMSYN082AAXX  18061 31088 41594 83508 11068 21068 49966 56031 78687 889// 333 91117 92983;
0186310880999992000101809004+59360+143200FM-12+000699999V0203601N006010075019N0010001N1-00561-00561099481ADDAY181031AY231031GF108991081091008001999999KA1120M-00541MD1710181+9999MW1861OA149901701REMSYN088AAXX  18091 31088 /1594 83606 11056 21056 49948 57018 78683 889// 333 11054 91117 92982;
0243310880999992000101812004+59360+143200FM-12+000699999V0201101N010010075019N0040001N1+00111+00111099391ADDAA112013091AY181061AY231061GF108991081091008001999999KA1120M+99999MA1999999099321MD1610091+9999MW1841OA149901701REMSYN100AAXX  18121 31088 11596 81110 10011 20011 39932 49939 56009 60132 78483 889// 333 11054 91117 92980;EQDQ01 -00542ATMX  
0150310880999992000101815004+59360+143200FM-12+000699999V0200901N014010075019N0020001N1+00161+00131099391ADDAY181031AY221031GF108991081091008001999999MD1410001+9999MW1841REMSYN076AAXX  18151 31088 41595 80914 10016 20013 49939 54000 78482 889// 333 91124;
0150310880999992000101818004+59360+143200FM-12+000699999V0201101N015010075019N0020001N1+00141+00141099711ADDAY181061AY221061GF108991081091008001999999MD1310321+9999MW1841REMSYN076AAXX  18181 31088 41595 81115 10014 20014 49971 53032 78482 889// 333 91124;
0179310880999992000101821004+59360+143200FM-12+000699999V0201101N014010075019N0020001N1+00321+00241100231ADDAJ100339199999999AY181031AY221031GF108991081091008001999999IA1309MD1310521+9999MW1811REMSYN082AAXX  18211 31088 /1595 81114 10032 20024 40023 53052 78182 889// 333 42033 91122;
0269310880999992000101900004+59360+143200FM-12+000699999V0201201N013010042019N0040001N1+00211+00111100471ADDAA100030091AJ100339199999999AY181061AY261061GF108991999071004501021999GJ100009IA1309KA1120N-00561MA1999999100401MD1110241+9999MW1631REMSYN106AAXX  19001 31088 11496 81213 10021 20011 30040 40047 51024 60300 76386 8872/ 333 21056 42033 55000 91121;EQDQ01+000082SCOTLC
0169310880999992000101903004+59360+143200FM-12+000699999V0200701N008010042019N0040001N1+00201+00121100641ADDAY161031AY221031GF108991999071004501021999MD1210171+9999MW1611REMSYN076AAXX  19031 31088 41496 80708 10020 20012 40064 52017 76162 8872/ 333 91116;EQDQ01+000082SCOTLC
0150310880999992000101906004+59360+143200FM-12+000699999V0203601N003010021019N0040001N1+00121+00091100741ADDAY161061AY221061GF108991071071002501021999MD1110101+9999MW1631REMSYN076AAXX  19061 31088 41396 83603 10012 20009 40074 51010 76362 8772/ 333 91111;
0163310880999992000101909004+59360+143200FM-12+000699999V0200301N002010021019N0040001N1+00141+00091100881ADDAY161031AY221031GF108991061071002501021999KA1999M+00351MD1210141+9999MW1611REMSYN076AAXX  19091 31088 /1396 80302 10014 20009 40088 52014 76162 8672/ 333 10035;
0201310880999992000101912004+59360+143200FM-12+000699999V0200801N004010021019N0040001N1+00181+00071100941ADDAA100007191AY161061AY221061GF108991061071002501021999KA1999M+00351MA1999999100871MD1210061+9999MW1611REMSYN088AAXX  19121 31088 11396 80804 10018 20007 30087 40094 52006 60070 76162 8672/ 333 10035;
0140310880999992000101915004+59360+143200FM-12+000699999V0200901N005010021019N0040001N1+00161+00081100901ADDAY161031AY221031GF108991071071002501021999MD1810041+9999MW1681REMSYN066AAXX  19151 31088 41396 80905 10016 20008 40090 58004 76862 8772/;
0140310880999992000101918004+59360+143200FM-12+000699999V0201201N006010021019N0040001N1+00161+00111100801ADDAY161061AY221061GF108991051071002501021999MD1710101+9999MW1611REMSYN066AAXX  19181 31088 41396 81206 10016 20011 40080 57010 76162 8572/;
0140310880999992000101921004+59360+143200FM-12+000699999V0201801N006010042019N0040001N1-00081-00151100981ADDAY171031AY261031GF108991061071004501021999MD1310181+9999MW1711REMSYN066AAXX  19211 31088 /1496 81806 11008 21015 40098 53018 77176 8672/;
0236310880999992000102000004+59360+143200FM-12+000699999V0201801N005010042019N0100001N1-00091-00191101081ADDAA100005191AJ100259199999999AY171061AY261061GF108991071071004501011999IA1279KA1120N-00091MA1999999101011MD1210101+9999MW1711REMSYN100AAXX  20001 31088 11497 81805 11009 21019 30101 40108 52010 60050 77176 8771/ 333 21009 43025 55000;
0166310880999992000102003004+59360+143200FM-12+000699999V0201701N005010066019N0200001N1-00061-00301101151ADDAY171031AY221031GA1071+006609059GF108991081031008001999999MD1210071+9999MW1021REMSYN076AAXX  20031 31088 41598 81705 11006 21030 40115 52007 70272 883// 333 87622;
0166310880999992000102006004+59360+143200FM-12+000699999V0201301N004010069019N0500001N1+00071-00391101121ADDAY171061AY221061GA1061+006909059GF108991071031008001011999MD1810031+9999MW1021REMSYN076AAXX  20061 31088 41599 81304 10007 21039 40112 58003 70272 8731/ 333 86623;
0185310880999992000102009004+59360+143200FM-12+000699999V0201001N004010069019N0200001N1-00041-00281101091ADDAY181031AY221031GA1071+006909059GF108991081031008001999999KA1120M+00121MD1710031+9999MW1261REMSYN082AAXX  20091 31088 /1598 81004 11004 21028 40109 57003 72682 883// 333 10012 87623;
0201310880999992000102012004+59360+143200FM-12+000699999V0200801N004010075019N0040001N1-00121-00171100981ADDAA100000591AY181061AY221061GF108991081091008001999999KA1999M+00121MA1999999100911MD1810111+9999MW1861REMSYN088AAXX  20121 31088 11596 80804 11012 21017 30091 40098 58011 69940 78682 889// 333 10012;
0140310880999992000102015004+59360+143200FM-12+000699999V0200201N002010075019N0040001N1-00151-00201100751ADDAY181031AY221031GF108991071091008001999999MD1710231+9999MW1851REMSYN066AAXX  20151 31088 41596 80202 11015 21020 40075 57023 78582 879//;
0166310880999992000102018004+59360+143200FM-12+000699999V0200201N002010063019N0200001N1-00171-00221100571ADDAY181061AY221061GA1051+006309099GF108991081031008001999999MD1710181+9999MW1021REMSYN076AAXX  20181 31088 41598 80202 11017 21022 40057 57018 70282 883// 333 85921;
0195310880999992000102021004+59360+143200FM-12+000699999V0203601N004010072019N0200001N1-00121-00191100371ADDAJ100259199999999AY181031AY221031GA1051+007209059GF108991081031008001999999IA1239MD1710201+9999MW1021REMSYN082AAXX  20211 31088 /1598 83604 11012 21019 40037 57020 70282 883// 333 47025 85624;
0236310880999992000102100004+59360+143200FM-12+000699999V0200201N006010075019N0040001N1-00071-00071100081ADDAA100001091AJ100259199999999AY181061AY221061GF108991081091008001999999IA1239KA1120N-00161MA1999999100011MD1710291+9999MW1861REMSYN100AAXX  21001 31088 11596 80206 11007 21007 30001 40008 57029 60010 78682 889// 333 21016 47025 55000;
0140310880999992000102103004+59360+143200FM-12+000699999V0201301N007010075019N0040001N1+00041+00011099981ADDAY181031AY221031GF108991081091008001999999MD1610101+9999MW1851REMSYN066AAXX  21031 31088 41596 81307 10004 20001 49998 56010 78582 889//;
0140310880999992000102106004+59360+143200FM-12+000699999V0201601N005010075019N0040001N1+00011-00021100041ADDAY181061AY221061GF108991081091008001999999MD1310061+9999MW1851REMSYN066AAXX  21061 31088 41596 81605 10001 21002 40004 53006 78582 889//;
0185310880999992000102109004+59360+143200FM-12+000699999V0202001N006010066019N0200001N1-00061-00441100161ADDAY181031AY221031GA1081+006609099GF108991081031008001999999KA1120M+00101MD1210121+9999MW1021REMSYN082AAXX  21091 31088 /1598 82006 11006 21044 40016 52012 70282 883// 333 10010 88922;
0223310880999992000102112004+59360+143200FM-12+000699999V0209999C000010072019N0200001N1-00091-00411100171ADDAA100004191AY181061AY221061GA1071+007209059GF108991081031008001999999KA1120M+00101MA1999999100101MD1110011+9999MW1021REMSYN094AAXX  21121 31088 11598 80000 11009 21041 30010 40017 51001 60040 70282 883// 333 10010 87624;
0140310880999992000102115004+59360+143200FM-12+000699999V0200201N001010075019N0100001N1-00101-00261100181ADDAY181031AY221031GF108991081091008001999999MD1210011+9999MW1851REMSYN066AAXX  21151 31088 41597 80201 11010 21026 40018 52001 78582 889//;
0140310880999992000102118004+59360+143200FM-12+000699999V0200101N003010075019N0100001N1-00271-00301100191ADDAY181061AY221061GF108991081091008001999999MD1210011+9999MW1851REMSYN066AAXX  21181 31088 41597 80103 11027 21030 40019 52001 78582 889//;
0195310880999992000102121004+59360+143200FM-12+000699999V0203501N002010072019N0500001N1-00491-00491100221ADDAJ100289199999999AY181031AY221031GA1061+007209059GF107991071031008001001001IA1239MD1210031+9999MW1021REMSYN082AAXX  21211 31088 /1599 73502 11049 21049 40022 52003 70282 87300 333 47028 86624;
0236310880999992000102200004+59360+143200FM-12+000699999V0200301N001012200019N0500001N1-00431-00451100221ADDAA100000591AJ100289199999999AY181061AY211061GF102991021051008001001011IA1239KA1120N-00521MA1999999100151MD1410001+9999MW1011REMSYN100AAXX  22001 31088 11599 20301 11043 21045 30015 40022 54000 69940 70181 82501 333 21052 47028 55000;
0112310880999992000102203004+59360+143200FM-12+000699999V0200201N004012200019N0500001N1-00151-00491100141ADDGF103991021051008001041011MD1810081+9999REMSYN060AAXX  22031 31088 42599 30204 11015 21049 40014 58008 82541;
0112310880999992000102206004+59360+143200FM-12+000699999V0200301N003012200019N0500001N1-00261-00671100101ADDGF103991021051008001001011MD1710041+9999REMSYN060AAXX  22061 31088 42599 30303 11026 21067 40010 57004 82501;
0165310880999992000102209004+59360+143200FM-12+000699999V0200301N004010075019N0500001N1-00371-00851100091ADDAA199000091GF105991051051008001001001KA1999M-00151MD1710011+9999REMSYN070AAXX  22091 31088 32599 50304 11037 21085 40009 57001 85500 333 11015;EQDQ01  00002PRCP99
0186310880999992000102212004+59360+143200FM-12+000699999V0200401N003012200019N0500001N1-00501-00951100181ADDAA199000091GF103991021041008001001011KA1999M-00151MA1999999100111MD1310091+9999REMSYN076AAXX  22121 31088 32599 30403 11050 21095 30011 40018 53009 82401 333 11015;EQDQ01  00002PRCP99
0112310880999992000102215004+59360+143200FM-12+000699999V0200401N002012200019N0500001N1-00551-01011100231ADDGF103991001001999999001011MD1210051+9999REMSYN060AAXX  22151 31088 42999 30402 11055 21101 40023 52005 80001;
0112310880999992000102218004+59360+143200FM-12+000699999V0200101N001019999999N0500001N1-00661-01121100321ADDGF105991021001999999041011MD1210091+9999REMSYN060AAXX  22181 31088 42999 50101 11066 21112 40032 52009 82041;
0175310880999992000102221004+59360+143200FM-12+000699999V0200201N004019999999N0500001N1-00641-01141100381ADDAA199000091AJ100279199999999GF106991021001999999041011IA1239MD1210061+9999REMSYN070AAXX  22211 31088 32999 60204 11064 21114 40038 52006 82041 333 47027;EQDQ01  00002PRCP99
0221310880999992000102300004+59360+143200FM-12+000699999V0200101N004019999999N0500001N1-00501-01231100471ADDAA199000091AJ100279199999999GF106991031001999999041011IA1239KA1120N-00671MA1999999100401MD1210091+9999REMSYN088AAXX  23001 31088 32999 60104 11050 21123 30040 40047 52009 83041 333 21067 47027 55061;EQDQ01  00002PRCP99
0112310880999992000102303004+59360+143200FM-12+000699999V0200101N004019999999N0500001N1-00251-01191100511ADDGF105991021001999999041011MD1210041+9999REMSYN060AAXX  23031 31088 42999 50104 11025 21119 40051 52004 82041;
0112310880999992000102306004+59360+143200FM-12+000699999V0203501N005012200019N0500001N1-00191-01241100641ADDGF102991021001999999041001MD1310131+9999REMSYN060AAXX  23061 31088 42999 23505 11019 21124 40064 53013 82040;
0171310880999992000102309004+59360+143200FM-12+000699999V0203101N008012200019N0500001N1-00291-01491100851ADDAA199000091GF102991021001999999041001KA1120M-00171MD1310211+9999REMSYN076AAXX  23091 31088 32999 23108 11029 21149 40085 53021 82040 333 11017 91113;EQDQ01  00002PRCP99
0196310880999992000102312004+59360+143200FM-12+000699999V0200401N004012200019N0500001N1-00631-01631101021ADDAA199000091GA1001+999999999GF100991001001999999001001KA1999M-00171MA1999999100951MD1210171+9999REMSYN070AAXX  23121 31088 32999 00404 11063 21163 30095 40102 52017 333 11017;EQDQ01  00002PRCP99
0122310880999992000102315004+59360+143200FM-12+000699999V0200201N004012200019N0500001N1-00601-01511101101ADDGA1001+999999999GF100991001001999999001001MD1110081+9999REMSYN054AAXX  23151 31088 42999 00204 11060 21151 40110 51008;
0122310880999992000102318004+59360+143200FM-12+000699999V0200301N003012200019N0500001N1-00661-01561101291ADDGA1001+999999999GF100991001001999999001001MD1310191+9999REMSYN054AAXX  23181 31088 42999 00303 11066 21156 40129 53019;
0175310880999992000102321004+59360+143200FM-12+000699999V0200201N004012200019N0500001N1-00801-01671101471ADDAA199000091AJ100269199999999GF101991011001999999041001IA1239MD1210181+9999REMSYN070AAXX  23211 31088 32999 10204 11080 21167 40147 52018 81040 333 47026;EQDQ01  00002PRCP99
0221310880999992000102400004+59360+143200FM-12+000699999V0203601N003019999999N0500001N1-00701-01631101611ADDAA199000091AJ100269199999999GF105991001001999999001011IA1239KA1120N-00811MA1999999101541MD1210141+9999REMSYN088AAXX  24001 31088 32999 53603 11070 21163 30154 40161 52014 80001 333 21081 47026 55088;EQDQ01  00002PRCP99
0112310880999992000102403004+59360+143200FM-12+000699999V0203601N004019999999N0500001N1-00481-01481101611ADDGF106991021001999999031011MD1410001+9999REMSYN060AAXX  24031 31088 42999 63604 11048 21148 40161 54000 82031;
0112310880999992000102406004+59360+143200FM-12+000699999V0203601N003019999999N0500001N1-00471-01531101611ADDGF107991041001999999051011MD1410001+9999REMSYN060AAXX  24061 31088 42999 73603 11047 21153 40161 54000 84051;
0165310880999992000102409004+59360+143200FM-12+000699999V0200101N002019999999N0500001N1-00771-01681101591ADDAA199000091GF106991031001999999031011KA1999M-00451MD1810021+9999REMSYN070AAXX  24091 31088 32999 60102 11077 21168 40159 58002 83031 333 11045;EQDQ01  00002PRCP99
0186310880999992000102412004+59360+143200FM-12+000699999V0200101N003012200019N0500001N1-00881-01741101591ADDAA199000091GF102991021001999999041001KA1999M-00451MA1999999101521MD1410001+9999REMSYN076AAXX  24121 31088 32999 20103 11088 21174 30152 40159 54000 82040 333 11045;EQDQ01  00002PRCP99
0112310880999992000102415004+59360+143200FM-12+000699999V0200101N005012200019N0500001N1-01071-01911101521ADDGF103991021001999999041011MD1810071+9999REMSYN060AAXX  24151 31088 42999 30105 11107 21191 40152 58007 82041;
0112310880999992000102418004+59360+143200FM-12+000699999V0200101N004019999999N0500001N1-01041-01881101401ADDGF105991021001999999041011MD1710121+9999REMSYN060AAXX  24181 31088 42999 50104 11104 21188 40140 57012 82041;
0175310880999992000102421004+59360+143200FM-12+000699999V0203601N005010300019N0500001N1-01421-02031101211ADDAA199000091AJ100269199999999GF107991021051008001041011IA1279MD1710191+9999REMSYN070AAXX  24211 31088 32599 73605 11142 21203 40121 57019 82541 333 43026;EQDQ01  00002PRCP99
0251310880999992000102500004+59360+143200FM-12+000699999V0203601N006010075019N0500001N1-01301-01911101051ADDAA199000091AJ100269199999999GA1061+007509059GF108991061051008001071999GJ105109IA1279KA1120N-01431MA1999999100981MD1710161+9999REMSYN094AAXX  25001 31088 32599 83606 11130 21191 30098 40105 57016 8657/ 333 21143 43026 55085 86625;EQDQ01  00002PRCP99
0138310880999992000102503004+59360+143200FM-12+000699999V0203501N007010072019N0500001N1-01081-01811100761ADDGA1061+007209059GF108991061051008001071999MD1810291+9999REMSYN070AAXX  25031 31088 42599 83507 11108 21181 40076 58029 8657/ 333 86624;
0138310880999992000102506004+59360+143200FM-12+000699999V0203601N007010300019N0200001N1-00921-01671100471ADDGA1041+006609059GF108991041051008001021999MD1710291+9999REMSYN070AAXX  25061 31088 42598 83607 11092 21167 40047 57029 8452/ 333 84622;
0187310880999992000102509004+59360+143200FM-12+000699999V0203601N007010066019N0200001N1-00841-01541100141ADDAA199000091GA1051+006609059GF108991051061008001021999KA1120M-00831MD1710331+9999REMSYN076AAXX  25091 31088 32598 83607 11084 21154 40014 57033 8562/ 333 11083 85622;EQDQ01  00002PRCP99
0224310880999992000102512004+59360+143200FM-12+000699999V0203601N006010063019N0200001N1-00711-01461099791ADDAA199000091GA1061+006309059GF108991061051008001021999KA1120M+99999MA1999999099721MD1710351+9999REMSYN082AAXX  25121 31088 32598 83606 11071 21146 39972 49979 57035 8652/ 333 11083 86621;EQDQ01  00002PRCP99Q02 -00832ATMX  
0144310880999992000102515004+59360+143200FM-12+000699999V0203601N009010063019N0200001N1-00681-01351099361ADDGA1061+006309069GF108991061051008001021999MD1810431+9999REMSYN076AAXX  25151 31088 42598 83609 11068 21135 49936 58043 8652/ 333 86621 91114;
0122310880999992000102518004+59360+143200FM-12+000699999V0203501N009010300019N0200001N1-00651-01311099171ADDGF108991041051008001021999MD1610191+9999REMSYN070AAXX  25181 31088 42598 83509 11065 21131 49917 56019 8452/ 333 91117;
0179310880999992000102521004+59360+143200FM-12+000699999V0203401N010010075019N0040001N1-00681-00921099021ADDAJ100269199999999AY181031AY231031GF108991061091008001021999IA1279MD1710151+9999MW1851REMSYN082AAXX  25211 31088 /1596 83410 11068 21092 49902 57015 78583 8692/ 333 43026 91116;
0272310880999992000102600004+59360+143200FM-12+000699999V0203401N009010069019N0500001N1-00601-01181098871ADDAA100000791AJ100269199999999AY181061AY231061GA1071+006909069GF108991061051008001021999GJ100009IA1279KA1120N-00841MA1999999098801MD1710151+9999MW1361REMSYN112AAXX  26001 31088 11599 83409 11060 21118 39880 49887 57015 69900 73683 8652/ 333 21084 43026 55000 87623 91115;
0191310880999992000102603004+59360+143200FM-12+000699999V0203401N010010069019N0500001N1-00511-01201098361ADDAY131031AY221031GA1061+006909069GF107991061051008001051001MD1810512+9999MW1361REMSYN082AAXX  26031 31088 41599 73410 11051 21120 49836 58051 73632 86550 333 86623 91116;EQDQ01+000512APC3  
0172310880999992000102606004+59360+143200FM-12+000699999V0203401N009010072019N0500001N1-00501-01231098591ADDAY131061AY221061GA1071+007209069GF108991071051008001071999MD1310231+9999MW1361REMSYN082AAXX  26061 31088 41599 83409 11050 21123 49859 53023 73632 8757/ 333 87624 91116;
0191310880999992000102609004+59360+143200FM-12+000699999V0203401N007010072019N0500001N1-00551-01311098771ADDAY131031AY221031GA1081+007209069GF108991081051008001999999KA1120M-00491MD1210181+9999MW1021REMSYN088AAXX  26091 31088 /1599 83407 11055 21131 49877 52018 70232 885// 333 11049 88624 91112;
0207310880999992000102612004+59360+143200FM-12+000699999V0203501N008012200019N0500001N1-00641-01351098791ADDAA100000791AY131061AY211061GF102991021051008001001001KA1120M-00491MA1999999098721MD1110021+9999MW1011REMSYN094AAXX  26121 31088 11599 23508 11064 21135 39872 49879 51002 69900 70131 82500 333 11049 91113;
0122310880999992000102615004+59360+143200FM-12+000699999V0203401N007012200019N0500001N1-00741-01501098791ADDGF102991021001999999041001MD1410001+9999REMSYN070AAXX  26151 31088 42999 23407 11074 21150 49879 54000 82040 333 91112;
0122310880999992000102618004+59360+143200FM-12+000699999V0203501N008012200019N0500001N1-00761-01531098841ADDGF102991021001999999041001MD1310051+9999REMSYN070AAXX  26181 31088 42999 23508 11076 21153 49884 53005 82040 333 91113;
0181310880999992000102621004+59360+143200FM-12+000699999V0203601N009012200019N0500001N1-00851-01681098891ADDAA199000091AJ100259199999999GF102991011051008001041001IA1279MD1210061+9999REMSYN076AAXX  26211 31088 32599 23609 11085 21168 49889 52006 81540 333 43025 91114;EQDQ01  00002PRCP99
0235310880999992000102700004+59360+143200FM-12+000699999V0203601N009012200019N0500001N1-00821-01711098941ADDAA199000091AJ100259199999999GF102991021001008001041001GJ100009IA1279KA1120N-00861MA1999999098871MD1210051+9999REMSYN094AAXX  27001 31088 32599 23609 11082 21171 39887 49894 52005 82040 333 21086 43025 55000 91115;EQDQ01  00002PRCP99
0122310880999992000102703004+59360+143200FM-12+000699999V0203601N009012200019N0500001N1-00621-01551098891ADDGF103991021001999999041011MD1810051+9999REMSYN070AAXX  27031 31088 42999 33609 11062 21155 49889 58005 82041 333 91114;
0157310880999992000102706004+59360+143200FM-12+000699999V0203501N009019999999N0500001N1-00581-01611999999ADDGF105991999001999999051001MD1310011+9999REMSYN070AAXX  27061 31088 42999 53509 11058 21161 49990 53001 82050 333 91114;EQDQ01+000022SCOTLCQ02+099903APOSLP
0171310880999992000102709004+59360+143200FM-12+000699999V0203501N009012200019N0500001N1-00781-01771098921ADDAA199000091GF103991021001999999051011KA1120M-00551MD1210021+9999REMSYN076AAXX  27091 31088 32999 33509 11078 21177 49892 52002 82051 333 11055 91113;EQDQ01  00002PRCP99
0192310880999992000102712004+59360+143200FM-12+000699999V0203401N008019999999N0500001N1-00851-01831098911ADDAA199000091GF105991021001999999051011KA1120M-00551MA1999999098841MD1810011+9999REMSYN082AAXX  27121 31088 32999 53408 11085 21183 39884 49891 58001 82051 333 11055 91113;EQDQ01  00002PRCP99
0122310880999992000102715004+59360+143200FM-12+000699999V0203401N007019999999N0500001N1-00851-01761098901ADDGF106991001001999999001011MD1710011+9999REMSYN070AAXX  27151 31088 42999 63407 11085 21176 49890 57001 80001 333 91112;
0122310880999992000102718004+59360+143200FM-12+000699999V0203401N007019999999N0500001N1-00801-01741098891ADDGF107991001001999999001011MD1710011+9999REMSYN070AAXX  27181 31088 42999 73407 11080 21174 49889 57001 80001 333 91112;
0181310880999992000102721004+59360+143200FM-12+000699999V0203301N006019999999N0500001N1-00751-01651098881ADDAA199000091AJ100259199999999GF107991021001999999041011IA1279MD1710011+9999REMSYN076AAXX  27211 31088 32999 73306 11075 21165 49888 57001 82041 333 43025 91112;EQDQ01  00002PRCP99
0235310880999992000102800004+59360+143200FM-12+000699999V0200101N005019999999N0500001N1-00631-01511098891ADDAA199000091AJ100259199999999GF107991051001999999041011GJ105109IA1279KA1120N-00881MA1999999098821MD1310011+9999REMSYN094AAXX  28001 31088 32999 70105 11063 21151 39882 49889 53001 85041 333 21088 43025 55085 91111;EQDQ01  00002PRCP99
0122310880999992000102803004+59360+143200FM-12+000699999V0200101N006019999999N0500001N1-00491-01441098821ADDGF107991031001999999041011MD1810071+9999REMSYN070AAXX  28031 31088 42999 70106 11049 21144 49882 58007 83041 333 91111;
0122310880999992000102806004+59360+143200FM-12+000699999V0200101N005019999999N0500001N1-00511-01411098821ADDGF107991041001999999051011MD1410001+9999REMSYN070AAXX  28061 31088 42999 70105 11051 21141 49882 54000 84051 333 91111;
0165310880999992000102809004+59360+143200FM-12+000699999V0200201N004019999999N0500001N1-00581-01481098881ADDAA199000091GF107991051001999999051011KA1999M-00411MD1310061+9999REMSYN070AAXX  28091 31088 32999 70204 11058 21148 49888 53006 85051 333 11041;EQDQ01  00002PRCP99
0186310880999992000102812004+59360+143200FM-12+000699999V0200101N004019999999N0500001N1-00711-01401098931ADDAA199000091GF107991041001999999051011KA1999M-00411MA1999999098861MD1210051+9999REMSYN076AAXX  28121 31088 32999 70104 11071 21140 39886 49893 52005 84051 333 11041;EQDQ01  00002PRCP99
0112310880999992000102815004+59360+143200FM-12+000699999V0200201N002019999999N0500001N1-00921-01541098931ADDGF105991021001999999051011MD1410001+9999REMSYN060AAXX  28151 31088 42999 50202 11092 21154 49893 54000 82051;
0112310880999992000102818004+59360+143200FM-12+000699999V0200101N003019999999N0500001N1-01001-01591098941ADDGF105991021001999999051011MD1310011+9999REMSYN060AAXX  28181 31088 42999 50103 11100 21159 49894 53001 82051;
0175310880999992000102821004+59360+143200FM-12+000699999V0200101N003019999999N0500001N1-01091-01711099021ADDAA199000091AJ100259199999999GF107991031001999999051011IA1279MD1210081+9999REMSYN070AAXX  28211 31088 32999 70103 11109 21171 49902 52008 83051 333 43025;EQDQ01  00002PRCP99
0221310880999992000102900004+59360+143200FM-12+000699999V0200101N002019999999N0500001N1-01041-01671099121ADDAA199000091AJ100259199999999GF107991031001999999051061IA1279KA1120N-01221MA1999999099051MD1210101+9999REMSYN088AAXX  29001 31088 32999 70102 11104 21167 39905 49912 52010 83056 333 21122 43025 55056;EQDQ01  00002PRCP99
0112310880999992000102903004+59360+143200FM-12+000699999V0200201N002019999999N0500001N1-00711-01711099121ADDGF107991041001999999051011MD1410001+9999REMSYN060AAXX  29031 31088 42999 70202 11071 21171 49912 54000 84051;
0112310880999992000102906004+59360+143200FM-12+000699999V0200201N003019999999N0500001N1-00671-01571099191ADDGF107991051001999999051011MD1310071+9999REMSYN060AAXX  29061 31088 42999 70203 11067 21157 49919 53007 85051;
0163310880999992000102909004+59360+143200FM-12+000699999V0203501N002010075019N0100001N1-00791-01151099331ADDAY171031AY221031GF108991081051008001999999KA1999M-00671MD1310141+9999MW1711REMSYN076AAXX  29091 31088 /1597 83502 11079 21115 49933 53014 77172 885// 333 11067;
0201310880999992000102912004+59360+143200FM-12+000699999V0200201N003010075019N0100001N1-00871-00981099481ADDAA100000791AY171061AY221061GF108991081051008001999999KA1999M-00671MA1999999099411MD1210051+9999MW1711REMSYN088AAXX  29121 31088 11597 80203 11087 21098 39941 49948 52005 69900 77172 885// 333 11067;
0140310880999992000102915004+59360+143200FM-12+000699999V0203601N001010075019N0100001N1-00901-01011099561ADDAY171031AY221031GF108991061051008001011999MD1110081+9999MW1711REMSYN066AAXX  29151 31088 41597 83601 11090 21101 49956 51008 77172 8651/;
0140310880999992000102918004+59360+143200FM-12+000699999V0200301N002010750019N0500001N1-01041-01171099691ADDAY171061AY221061GF105991021041008001041011MD1210131+9999MW1011REMSYN066AAXX  29181 31088 41599 50302 11104 21117 49969 52013 70172 82441;
0145310880999992000102921004+59360+143200FM-12+000699999V0200301N003012200019N0500001N1-01201-01401099801ADDAJ100259199999999GF103991021041008001041001IA1239MD1210111+9999REMSYN070AAXX  29211 31088 /2599 30303 11120 21140 49980 52011 82440 333 47025;
0227310880999992000103000004+59360+143200FM-12+000699999V0200101N003012200019N0500001N1-01281-01631099921ADDAA100000591AJ100259199999999GF103991031001999999051001IA1239KA1120N+99999MA1999999099851MD1210121+9999REMSYN094AAXX  30001 31088 12999 30103 11128 21163 39985 49992 52012 69960 83050 333 21122 47025 55050;EQDQ01 -01222ATMN  
0112310880999992000103003004+59360+143200FM-12+000699999V0200101N002012200019N0500001N1-00991-01521100011ADDGF103991031001999999051001MD1210091+9999REMSYN060AAXX  30031 31088 42999 30102 11099 21152 40001 52009 83050;
0112310880999992000103006004+59360+143200FM-12+000699999V0200101N002010300019N0500001N1-00971-01491100041ADDGF107991021051008001041011MD1110031+9999REMSYN060AAXX  30061 31088 42599 70102 11097 21149 40004 51003 82541;
0165310880999992000103009004+59360+143200FM-12+000699999V0203601N002010300019N0500001N1-01101-01631100171ADDAA199000091GF107991021051008001041011KA1999M-00791MD1310131+9999REMSYN070AAXX  30091 31088 32599 73602 11110 21163 40017 53013 82541 333 11079;EQDQ01  00002PRCP99
0186310880999992000103012004+59360+143200FM-12+000699999V0200201N004010300019N0500001N1-01301-01731100141ADDAA199000091GF107991021051008001041011KA1999M-00791MA1999999100071MD1810031+9999REMSYN076AAXX  30121 31088 32599 70204 11130 21173 30007 40014 58003 82541 333 11079;EQDQ01  00002PRCP99
0112310880999992000103015004+59360+143200FM-12+000699999V0200201N005010300019N0500001N1-01231-01581100111ADDGF107991031051008001031011MD1710031+9999REMSYN060AAXX  30151 31088 42599 70205 11123 21158 40011 57003 83531;
0112310880999992000103018004+59360+143200FM-12+000699999V0200101N006010300019N0500001N1-01201-01471100011ADDGF107991031051008001051001MD1810101+9999REMSYN060AAXX  30181 31088 42599 70106 11120 21147 40001 58010 83550;
0173310880999992000103021004+59360+143200FM-12+000699999V0200301N008010075019N0100001N1-01041-01321100061ADDAJ100259199999999AY171031AY221031GF108991081051008001999999IA1239MD1310051+9999MW1711REMSYN076AAXX  30211 31088 /1597 80308 11104 21132 40006 53005 77172 885// 333 47025;
0236310880999992000103100004+59360+143200FM-12+000699999V0203401N006010075019N0500001N1-01031-01561100191ADDAA100000591AJ100259199999999AY171061AY221061GF107991051051008001051021IA1239KA1120N-01331MA1999999100121MD1310131+9999MW1011REMSYN100AAXX  31001 31088 11599 73406 11103 21156 30012 40019 53013 69940 70172 85552 333 21133 47025 55072;
0112310880999992000103103004+59360+143200FM-12+000699999V0200101N003010300019N0500001N1-00981-01691100271ADDGF106991031051008001031011MD1110081+9999REMSYN060AAXX  31031 31088 42599 60103 11098 21169 40027 51008 83531;
0112310880999992000103106004+59360+143200FM-12+000699999V0203601N003010300019N0500001N1-00721-01591100431ADDGF106991021051008001031011MD1210161+9999REMSYN060AAXX  31061 31088 42599 63603 11072 21159 40043 52016 82531;
0135310880999992000103109004+59360+143200FM-12+000699999V0200201N003010300019N0500001N1-01051-01891100621ADDGF106991031051008001031011KA1999M-00691MD1210191+9999REMSYN070AAXX  31091 31088 /2599 60203 11105 21189 40062 52019 83531 333 11069;
0173310880999992000103112004+59360+143200FM-12+000699999V0200101N003012200019N0500001N1-01151-01871100741ADDAA100000791GF103991031051008001001001KA1999M-00691MA1999999100671MD1210121+9999REMSYN082AAXX  31121 31088 12599 30103 11115 21187 30067 40074 52012 69900 83500 333 11069;
0112310880999992000103115004+59360+143200FM-12+000699999V0200101N003010300019N0500001N1-01301-02011100851ADDGF106991031051008001041011MD1210111+9999REMSYN060AAXX  31151 31088 42599 60103 11130 21201 40085 52011 83541;
0112310880999992000103118004+59360+143200FM-12+000699999V0200101N003010300019N0500001N1-01311-02041100851ADDGF106991021051008001041011MD1210111+9999REMSYN060AAXX  31181 31088 42599 60103 11131 21204 40085 52011 82541;
0175310880999992000103121004+59360+143200FM-12+000699999V0200101N002019999999N0500001N1-01401-02111101151ADDAA199000091AJ100259199999999GF105991021001008001041011IA1279MD1210161+9999REMSYN070AAXX  31211 31088 32599 50102 11140 21211 40115 52016 82041 333 43025;EQDQ01  00002PRCP99
0221310880999992000110100004+59360+143200FM-12+000699999V0203601N004012200019N0500001N1-01331-01941101311ADDAA199000091AJ100259199999999GF103991011051008001001011IA1279KA1120N-01431MA1999999101241MD1210161+9999REMSYN088AAXX  01001 31088 32599 33604 11133 21194 30124 40131 52016 81501 333 21143 43025 55034;EQDQ01  00002PRCP99
0112310880999992000110103004+59360+143200FM-12+000699999V0200101N004010750019N0500001N1-01001-01731101301ADDGF105991011051008001041011MD1110081+9999REMSYN060AAXX  01031 31088 42599 50104 11100 21173 40130 51008 81541;
0112310880999992000110106004+59360+143200FM-12+000699999V0203601N005012200019N0500001N1-00841-01671101521ADDGF102991021001999999041001MD1210131+9999REMSYN060AAXX  01061 31088 42999 23605 11084 21167 40152 52013 82040;
0165310880999992000110109004+59360+143200FM-12+000699999V0200101N003012200019N0500001N1-01161-01991101701ADDAA199000091GF102991021001999999041001KA1999M-00841MD1210181+9999REMSYN070AAXX  01091 31088 32999 20103 11116 21199 40170 52018 82040 333 11084;EQDQ01  00002PRCP99
0186310880999992000110112004+59360+143200FM-12+000699999V0200101N002012200019N0500001N1-01271-01991101811ADDAA199000091GF102991021001999999041001KA1999M-00841MA1999999101741MD1210111+9999REMSYN076AAXX  01121 31088 32999 20102 11127 21199 30174 40181 52011 82040 333 11084;EQDQ01  00002PRCP99
0122310880999992000110115004+59360+143200FM-12+000699999V0200201N003012200019N0500001N1-01391-02101101971ADDGA1001+999999999GF100991001001999999001001MD1210151+9999REMSYN054AAXX  01151 31088 42999 00203 11139 21210 40197 52015;
0122310880999992000110118004+59360+143200FM-12+000699999V0200301N002012200019N0500001N1-01461-02071102111ADDGA1001+999999999GF100991001001999999001001MD1210151+9999REMSYN054AAXX  01181 31088 42999 00302 11146 21207 40211 52015;
0175310880999992000110121004+59360+143200FM-12+000699999V0200201N003012200019N0500001N1-01571-02191102221ADDAA199000091AJ100259199999999GF101991011001999999031001IA1279MD1210111+9999REMSYN070AAXX  01211 31088 32999 10203 11157 21219 40222 52011 81030 333 43025;EQDQ01  00002PRCP99
0231310880999992000110200004+59360+143200FM-12+000699999V0203601N003012200019N0500001N1-01551-02151102391ADDAA199000091AJ100259199999999GA1001+999999999GF100991001001999999001001IA1279KA1120N-01631MA1999999102311MD1210161+9999REMSYN082AAXX  02001 31088 32999 03603 11155 21215 30231 40239 52016 333 21163 43025 55081;EQDQ01  00002PRCP99
0122310880999992000110203004+59360+143200FM-12+000699999V0203501N003012200019N0500001N1-01191-01911102481ADDGA1001+999999999GF100991001001999999001001MD1210101+9999REMSYN054AAXX  02031 31088 42999 03503 11119 21191 40248 52010;
0122310880999992000110206004+59360+143200FM-12+000699999V0203601N003012200019N0500001N1-01071-01911102551ADDGA1001+999999999GF100991001001999999001001MD1210071+9999REMSYN054AAXX  02061 31088 42999 03603 11107 21191 40255 52007;
0175310880999992000110209004+59360+143200FM-12+000699999V0200101N003012200019N0500001N1-01311-02021102641ADDAA199000091GA1001+999999999GF100991001001999999001001KA1999M-01061MD1210081+9999REMSYN064AAXX  02091 31088 32999 00103 11131 21202 40264 52008 333 11106;EQDQ01  00002PRCP99
0196310880999992000110212004+59360+143200FM-12+000699999V0203601N005012200019N0500001N1-01541-02141102761ADDAA199000091GA1001+999999999GF100991001001999999001001KA1999M-01061MA1999999102681MD1210121+9999REMSYN070AAXX  02121 31088 32999 03605 11154 21214 30268 40276 52012 333 11106;EQDQ01  00002PRCP99
0122310880999992000110215004+59360+143200FM-12+000699999V0203501N004012200019N0500001N1-01681-02271102731ADDGA1001+999999999GF100991001001999999001001MD1810031+9999REMSYN054AAXX  02151 31088 42999 03504 11168 21227 40273 58003;
0122310880999992000110218004+59360+143200FM-12+000699999V0203601N004012200019N0500001N1-01781-02281102781ADDGA1001+999999999GF100991001001999999001001MD1310051+9999REMSYN054AAXX  02181 31088 42999 03604 11178 21228 40278 53005;
0185310880999992000110221004+59360+143200FM-12+000699999V0203501N005012200019N0500001N1-01891-02381102781ADDAA199000091AJ100249199999999GA1001+999999999GF100991001001999999001001IA1279MD1410001+9999REMSYN064AAXX  02211 31088 32999 03505 11189 21238 40278 54000 333 43024;EQDQ01  00002PRCP99
0221310880999992000110300004+59360+143200FM-12+000699999V0200101N006012200019N0500001N1-01851-02341102831ADDAA199000091AJ100249199999999GF102991021001999999051001IA1279KA1120N-01911MA1999999102751MD1310051+9999REMSYN088AAXX  03001 31088 32999 20106 11185 21234 30275 40283 53005 82050 333 21191 43024 55082;EQDQ01  00002PRCP99
0112310880999992000110303004+59360+143200FM-12+000699999V0200101N005012200019N0500001N1-01501-02201102761ADDGF101991011001999999051001MD1810071+9999REMSYN060AAXX  03031 31088 42999 10105 11150 21220 40276 58007 81050;
0112310880999992000110306004+59360+143200FM-12+000699999V0200201N005012200019N0500001N1-01311-02021102701ADDGF101991011001999999051001MD1710061+9999REMSYN060AAXX  03061 31088 42999 10205 11131 21202 40270 57006 81050;
0165310880999992000110309004+59360+143200FM-12+000699999V0200301N002012200019N0500001N1-01501-02201102731ADDAA199000091GF101991011001999999051001KA1999M-01291MD1310031+9999REMSYN070AAXX  03091 31088 32999 10302 11150 21220 40273 53003 81050 333 11129;EQDQ01  00002PRCP99
0196310880999992000110312004+59360+143200FM-12+000699999V0200101N003012200019N0500001N1-01631-02231102691ADDAA199000091GA1001+999999999GF100991001001999999001001KA1999M-01291MA1999999102611MD1810041+9999REMSYN070AAXX  03121 31088 32999 00103 11163 21223 30261 40269 58004 333 11129;EQDQ01  00002PRCP99
0122310880999992000110315004+59360+143200FM-12+000699999V0200201N002012200019N0500001N1-01761-02351102691ADDGA1001+999999999GF100991001001999999001001MD1410001+9999REMSYN054AAXX  03151 31088 42999 00202 11176 21235 40269 54000;
0122310880999992000110318004+59360+143200FM-12+000699999V0200201N003012200019N0500001N1-01861-02441102651ADDGA1001+999999999GF100991001001999999001001MD1810041+9999REMSYN054AAXX  03181 31088 42999 00203 11186 21244 40265 58004;
0185310880999992000110321004+59360+143200FM-12+000699999V0200201N003012200019N0500001N1-01931-02421102631ADDAA199000091AJ100249199999999GA1001+999999999GF100991001001999999001001IA1279MD1710021+9999REMSYN064AAXX  03211 31088 32999 00203 11193 21242 40263 57002 333 43024;EQDQ01  00002PRCP99
0231310880999992000110400004+59360+143200FM-12+000699999V0200301N004012200019N0500001N1-01921-02411102711ADDAA199000091AJ100249199999999GA1001+999999999GF100991001001999999001001IA1279KA1120N-01991MA1999999102631MD1310081+9999REMSYN082AAXX  04001 31088 32999 00304 11192 21241 30263 40271 53008 333 21199 43024 55072;EQDQ01  00002PRCP99
0122310880999992000110403004+59360+143200FM-12+000699999V0200201N003012200019N0500001N1-01501-02201102641ADDGA1001+999999999GF100991001001999999001001MD1810071+9999REMSYN054AAXX  04031 31088 42999 00203 11150 21220 40264 58007;
0112310880999992000110406004+59360+143200FM-12+000699999V0200201N003012200019N0500001N1-01381-02091102591ADDGF103991001001999999001011MD1710051+9999REMSYN060AAXX  04061 31088 42999 30203 11138 21209 40259 57005 80001;
0165310880999992000110409004+59360+143200FM-12+000699999V0200201N003012200019N0500001N1-01541-02141102591ADDAA199000091GF102991001001999999001011KA1999M-01351MD1410001+9999REMSYN070AAXX  04091 31088 32999 20203 11154 21214 40259 54000 80001 333 11135;EQDQ01  00002PRCP99
0196310880999992000110412004+59360+143200FM-12+000699999V0200201N004012200019N0500001N1-01741-02331102521ADDAA199000091GA1001+999999999GF100991001001999999001001KA1999M-01351MA1999999102441MD1810071+9999REMSYN070AAXX  04121 31088 32999 00204 11174 21233 30244 40252 58007 333 11135;EQDQ01  00002PRCP99
0122310880999992000110415004+59360+143200FM-12+000699999V0200201N004012200019N0500001N1-01901-02391102501ADDGA1001+999999999GF100991001001999999001001MD1710021+9999REMSYN054AAXX  04151 31088 42999 00204 11190 21239 40250 57002;
0122310880999992000110418004+59360+143200FM-12+000699999V0200201N005012200019N0500001N1-01961-02451102481ADDGA1001+999999999GF100991001001999999001001MD1710021+9999REMSYN054AAXX  04181 31088 42999 00205 11196 21245 40248 57002;
0175310880999992000110421004+59360+143200FM-12+000699999V0200201N005012200019N0500001N1-02011-02501102421ADDAA199000091AJ100249199999999GF102991021001999999051001IA1279MD1710061+9999REMSYN070AAXX  04211 31088 32999 20205 11201 21250 40242 57006 82050 333 43024;EQDQ01  00002PRCP99
0221310880999992000110500004+59360+143200FM-12+000699999V0200201N005012200019N0500001N1-01931-02421102371ADDAA199000091AJ100249199999999GF101991011001999999051001IA1279KA1120N-02071MA1999999102301MD1710041+9999REMSYN088AAXX  05001 31088 32999 10205 11193 21242 30230 40237 57004 81050 333 21207 43024 55082;EQDQ01  00002PRCP99
0122310880999992000110503004+59360+143200FM-12+000699999V0200201N006012200019N0500001N1-01611-02311102311ADDGA1001+999999999GF100991001001999999001001MD1710071+9999REMSYN054AAXX  05031 31088 42999 00206 11161 21231 40231 57007;
0112310880999992000110506004+59360+143200FM-12+000699999V0200101N003012200019N0500001N1-01471-02171102251ADDGF102991021001999999041001MD1710061+9999REMSYN060AAXX  05061 31088 42999 20103 11147 21217 40225 57006 82040;
0165310880999992000110509004+59360+143200FM-12+000699999V0200301N003012200019N0500001N1-01661-02351102191ADDAA199000091GF103991031001999999041001KA1999M-01471MD1710061+9999REMSYN070AAXX  05091 31088 32999 30303 11166 21235 40219 57006 83040 333 11147;EQDQ01  00002PRCP99
0186310880999992000110512004+59360+143200FM-12+000699999V0200301N004012200019N0500001N1-01701-02291102181ADDAA199000091GF103991031001999999041001KA1999M-01471MA1999999102101MD1610011+9999REMSYN076AAXX  05121 31088 32999 30304 11170 21229 30210 40218 56001 83040 333 11147;EQDQ01  00002PRCP99
0112310880999992000110515004+59360+143200FM-12+000699999V0200301N004012200019N0500001N1-01821-02411102131ADDGF102991021001999999041001MD1710051+9999REMSYN060AAXX  05151 31088 42999 20304 11182 21241 40213 57005 82040;
0122310880999992000110518004+59360+143200FM-12+000699999V0200201N005012200019N0500001N1-01821-02411101991ADDGA1001+999999999GF100991001001999999001001MD1810141+9999REMSYN054AAXX  05181 31088 42999 00205 11182 21241 40199 58014;
0185310880999992000110521004+59360+143200FM-12+000699999V0200401N003012200019N0500001N1-01741-02431101911ADDAA199000091AJ100249199999999GA1001+999999999GF100991001001999999001001IA1279MD1710081+9999REMSYN064AAXX  05211 31088 32999 00403 11174 21243 40191 57008 333 43024;EQDQ01  00002PRCP99
0215310880999992000110600004+59360+143200FM-12+000699999V0200101N004019999999N0500001N1-01641-02331101861ADDAA199000091AJ100249199999999GF105991999999999999999999IA1279KA1120N-01861MA1999999101781MD1710051+9999REMSYN082AAXX  06001 31088 32999 50104 11164 21233 30178 40186 57005 333 21186 43024 55069;EQDQ01  00002PRCP99
0112310880999992000110603004+59360+143200FM-12+000699999V0203501N004012200019N0500001N1-01291-02121101751ADDGF101991011001999999041001MD1810111+9999REMSYN060AAXX  06031 31088 42999 13504 11129 21212 40175 58011 81040;
0122310880999992000110606004+59360+143200FM-12+000699999V0203601N003012200019N0500001N1-01151-02111101661ADDGA1001+999999999GF100991001001999999001001MD1710081+9999REMSYN054AAXX  06061 31088 42999 03603 11115 21211 40166 57008;
0175310880999992000110609004+59360+143200FM-12+000699999V0200101N002012200019N0500001N1-01241-02191101721ADDAA199000091GA1001+999999999GF100991001001999999001001KA1999M-01131MD1310061+9999REMSYN064AAXX  06091 31088 32999 00102 11124 21219 40172 53006 333 11113;EQDQ01  00002PRCP99
0196310880999992000110612004+59360+143200FM-12+000699999V0200301N004012200019N0500001N1-01411-02231101651ADDAA199000091GA1001+999999999GF100991001001999999001001KA1999M-01131MA1999999101571MD1810021+9999REMSYN070AAXX  06121 31088 32999 00304 11141 21223 30157 40165 58002 333 11113;EQDQ01  00002PRCP99
0122310880999992000110615004+59360+143200FM-12+000699999V0200201N004012200019N0500001N1-01561-02261101551ADDGA1001+999999999GF100991001001999999001001MD1810101+9999REMSYN054AAXX  06151 31088 42999 00204 11156 21226 40155 58010;
0122310880999992000110618004+59360+143200FM-12+000699999V0200301N005012200019N0500001N1-01511-02211101471ADDGA1001+999999999GF100991001001999999001001MD1710081+9999REMSYN054AAXX  06181 31088 42999 00305 11151 21221 40147 57008;
0175310880999992000110621004+59360+143200FM-12+000699999V0200301N002012200019N0500001N1-01571-02271101421ADDAA199000091AJ100249199999999GF102991021001999999041001IA1279MD1710051+9999REMSYN070AAXX  06211 31088 32999 20302 11157 21227 40142 57005 82040 333 43024;EQDQ01  00002PRCP99
0221310880999992000110700004+59360+143200FM-12+000699999V0200101N004012200019N0500001N1-01511-02211101301ADDAA199000091AJ100249199999999GF102991021001999999041001IA1279KA1120N-01621MA1999999101231MD1810111+9999REMSYN088AAXX  07001 31088 32999 20104 11151 21221 30123 40130 58011 82040 333 21162 43024 55074;EQDQ01  00002PRCP99
0122310880999992000110703004+59360+143200FM-12+000699999V0203601N002012200019N0500001N1-01151-01991101261ADDGA1001+999999999GF100991001001999999001001MD1610041+9999REMSYN054AAXX  07031 31088 42999 03602 11115 21199 40126 56004;
0112310880999992000110706004+59360+143200FM-12+000699999V0203601N002012200019N0500001N1-01061-01901101241ADDGF102991021001999999041001MD1710021+9999REMSYN060AAXX  07061 31088 42999 23602 11106 21190 40124 57002 82040;
0181310880999992000110709004+59360+143200FM-12+000699999V0203501N002012200019N0500001N1-01261-02091101211ADDAA199000091GF103991999001999999041001KA1999M+00951MD1710031+9999REMSYN070AAXX  07091 31088 32999 33502 11126 21209 40121 57003 82040 333 10095;EQDQ01+000022SCOTLCQ02  00002PRCP99
0186310880999992000110712004+59360+143200FM-12+000699999V0203401N004019999999N0500001N1-01311-02021101201ADDAA199000091GF107991031001999999041061KA1999M-00951MA1999999101131MD1710011+9999REMSYN076AAXX  07121 31088 32999 73404 11131 21202 30113 40120 57001 83046 333 11095;EQDQ01  00002PRCP99
0112310880999992000110715004+59360+143200FM-12+000699999V0203501N002019999999N0500001N1-01401-02111101101ADDGF107991031001999999041061MD1810101+9999REMSYN060AAXX  07151 31088 42999 73502 11140 21211 40110 58010 83046;
0112310880999992000110718004+59360+143200FM-12+000699999V0200101N003019999999N0500001N1-01491-02091101071ADDGF107991021001999999041011MD1610031+9999REMSYN060AAXX  07181 31088 42999 70103 11149 21209 40107 56003 82041;
0175310880999992000110721004+59360+143200FM-12+000699999V0200101N003019999999N0500001N1-01621-02221101011ADDAA199000091AJ100249199999999GF107991021001999999041011IA1279MD1710061+9999REMSYN070AAXX  07211 31088 32999 70103 11162 21222 40101 57006 82041 333 43024;EQDQ01  00002PRCP99
0221310880999992000110800004+59360+143200FM-12+000699999V0203601N004019999999N0500001N1-01521-02121100981ADDAA199000091AJ100249199999999GF107991021001999999041011IA1279KA1120N-01631MA1999999100911MD1710031+9999REMSYN088AAXX  08001 31088 32999 73604 11152 21212 30091 40098 57003 82041 333 21163 43024 55074;EQDQ01  00002PRCP99
0112310880999992000110806004+59360+143200FM-12+000699999V0200101N004010750019N0500001N1-01101-01831100771ADDGF105991011051008001031011MD1610081+9999REMSYN060AAXX  08061 31088 42599 50104 11110 21183 40077 56008 81531;
0165310880999992000110809004+59360+143200FM-12+000699999V0200201N004012200019N0500001N1-01261-01981100791ADDAA199000091GF102991021001999999041001KA1999M-00981MD1310021+9999REMSYN070AAXX  08091 31088 32999 20204 11126 21198 40079 53002 82040 333 11098;EQDQ01  00002PRCP99
0186310880999992000110812004+59360+143200FM-12+000699999V0203601N003012200019N0500001N1-01411-02121100721ADDAA199000091GF102991021001999999041001KA1999M-00981MA1999999100651MD1810071+9999REMSYN076AAXX  08121 31088 32999 23603 11141 21212 30065 40072 58007 82040 333 11098;EQDQ01  00002PRCP99
0112310880999992000110815004+59360+143200FM-12+000699999V0203601N002012200019N0500001N1-01511-02211100631ADDGF102991021001999999041001MD1710091+9999REMSYN060AAXX  08151 31088 42999 23602 11151 21221 40063 57009 82040;
0115310880999992000110818004+59360+143200FM-12+000699999V0200101N002012200019N0500001N1-01611+99999100571ADDGA1001+999999999GF100991001001999999001001MD1710061+9999REMSYN047AAXX  08181 31088 42999 00102 11161 4005757006;
0175310880999992000110821004+59360+143200FM-12+000699999V0200201N003012200019N0500001N1-01591-02291100531ADDAA199000091AJ100249199999999GF101991011001999999041001IA1279MD1710041+9999REMSYN070AAXX  08211 31088 32999 10203 11159 21229 40053 57004 81040 333 43024;EQDQ01  00002PRCP99
0221310880999992000110900004+59360+143200FM-12+000699999V0200201N004012200019N0500001N1-01591-02291100521ADDAA199000091AJ100249199999999GF101991011001999999041001IA1279KA1120N-01671MA1999999100451MD1710011+9999REMSYN088AAXX  09001 31088 32999 10204 11159 21229 30045 40052 57001 81040 333 21167 43024 55055;EQDQ01  00002PRCP99
0122310880999992000110903004+59360+143200FM-12+000699999V0200101N003012200019N0500001N1-01291-02121100461ADDGA1001+999999999GF100991001001999999001001MD1710061+9999REMSYN054AAXX  09031 31088 42999 00103 11129 21212 40046 57006;
0122310880999992000110906004+59360+143200FM-12+000699999V0200201N003012200019N0500001N1-01271-02101100441ADDGA1001+999999999GF100991001001999999001001MD1710021+9999REMSYN054AAXX  09061 31088 42999 00203 11127 21210 40044 57002;
0175310880999992000110909004+59360+143200FM-12+000699999V0200201N002012200019N0500001N1-01451-02261100451ADDAA199000091GA1001+999999999GF100991001001999999001001KA1999M-00981MD1310011+9999REMSYN064AAXX  09091 31088 32999 00202 11145 21226 40045 53001 333 11098;EQDQ01  00002PRCP99
0196310880999992000110912004+59360+143200FM-12+000699999V0200101N003012200019N0500001N1-01471-02281100421ADDAA199000091GA1001+999999999GF100991001001999999001001KA1999M-00981MA1999999100351MD1810031+9999REMSYN070AAXX  09121 31088 32999 00103 11147 21228 30035 40042 58003 333 11098;EQDQ01  00002PRCP99
0122310880999992000110915004+59360+143200FM-12+000699999V0203601N003012200019N0500001N1-01501-02201100381ADDGA1001+999999999GF100991001001999999001001MD1710041+9999REMSYN054AAXX  09151 31088 42999 03603 11150 21220 40038 57004;
0122310880999992000110918004+59360+143200FM-12+000699999V0200201N004012200019N0500001N1-01501-02311100361ADDGA1001+999999999GF100991001001999999001001MD1710021+9999REMSYN054AAXX  09181 31088 42999 00204 11150 21231 40036 57002;
0185310880999992000110921004+59360+143200FM-12+000699999V0200301N003012200019N0500001N1-01541-02351100281ADDAA199000091AJ100249199999999GA1001+999999999GF100991001001999999001001IA1279MD1810081+9999REMSYN064AAXX  09211 31088 32999 00303 11154 21235 40028 58008 333 43024;EQDQ01  00002PRCP99
0231310880999992000111000004+59360+143200FM-12+000699999V0200401N004012200019N0500001N1-01461-02271100191ADDAA199000091AJ100249199999999GA1001+999999999GF100991001001999999001001IA1279KA1120N-01571MA1999999100121MD1710091+9999REMSYN082AAXX  10001 31088 32999 00404 11146 21227 30012 40019 57009 333 21157 43024 55075;EQDQ01  00002PRCP99
0112310880999992000111003004+59360+143200FM-12+000699999V0200201N005012200019N0500001N1-01171-02001100061ADDGF102991001001999999001011MD1710131+9999REMSYN060AAXX  10031 31088 42999 20205 11117 21200 40006 57013 80001;
0112310880999992000111006004+59360+143200FM-12+000699999V0200101N003012200019N0500001N1-01171-02001100001ADDGF101991011051999999001001MD1610061+9999REMSYN060AAXX  10061 31088 42999 10103 11117 21200 40000 56006 81500;
0165310880999992000111009004+59360+143200FM-12+000699999V0200401N003010300019N0500001N1-01251-02081099971ADDAA199000091GF106991011051008001031001KA1999M-01141MD1710031+9999REMSYN070AAXX  10091 31088 32599 60403 11125 21208 49997 57003 81530 333 11114;EQDQ01  00002PRCP99
0186310880999992000111012004+59360+143200FM-12+000699999V0200201N002012200019N0500001N1-01301-02011099981ADDAA199000091GF102991021001999999041001KA1999M-01141MA1999999099911MD1310011+9999REMSYN076AAXX  10121 31088 32999 20202 11130 21201 39991 49998 53001 82040 333 11114;EQDQ01  00002PRCP99
0112310880999992000111015004+59360+143200FM-12+000699999V0200101N002012200019N0500001N1-01411-02121099961ADDGF101991011001999999041001MD1810021+9999REMSYN060AAXX  10151 31088 42999 10102 11141 21212 49996 58002 81040;
0112310880999992000111018004+59360+143200FM-12+000699999V0200201N003012200019N0500001N1-01561-02261100001ADDGF101991011001999999041001MD1310041+9999REMSYN060AAXX  10181 31088 42999 10203 11156 21226 40000 53004 81040;
0175310880999992000111021004+59360+143200FM-12+000699999V0200201N003012200019N0500001N1-01651-02341100011ADDAA199000091AJ100239199999999GF102991021001999999041001IA1279MD1210011+9999REMSYN070AAXX  10211 31088 32999 20203 11165 21234 40001 52001 82040 333 43023;EQDQ01  00002PRCP99
0221310880999992000111100004+59360+143200FM-12+000699999V0200301N003012200019N0500001N1-01621-02321100061ADDAA199000091AJ100239199999999GF103991011001999999041011IA1279KA1120N-01681MA1999999099991MD1210051+9999REMSYN088AAXX  11001 31088 32999 30303 11162 21232 39999 40006 52005 81041 333 21168 43023 55072;EQDQ01  00002PRCP99
0112310880999992000111103004+59360+143200FM-12+000699999V0200301N005012200019N0500001N1-01381-02201100041ADDGF102991001001999999001011MD1810021+9999REMSYN060AAXX  11031 31088 42999 20305 11138 21220 40004 58002 80001;
0112310880999992000111106004+59360+143200FM-12+000699999V0200301N004012200019N0500001N1-01391-02101100031ADDGF102991001001999999001011MD1710011+9999REMSYN060AAXX  11061 31088 42999 20304 11139 21210 40003 57001 80001;
0165310880999992000111109004+59360+143200FM-12+000699999V0200101N003012200019N0500001N1-01541-02241100041ADDAA199000091GF102991011001999999041011KA1999M-01331MD1310011+9999REMSYN070AAXX  11091 31088 32999 20103 11154 21224 40004 53001 81041 333 11133;EQDQ01  00002PRCP99
0196310880999992000111112004+59360+143200FM-12+000699999V0200401N003012200019N0500001N1-01621-02321100061ADDAA199000091GA1001+999999999GF100991001001999999001001KA1999M-01331MA1999999099991MD1210021+9999REMSYN070AAXX  11121 31088 32999 00403 11162 21232 39999 40006 52002 333 11133;EQDQ01  00002PRCP99
0112310880999992000111115004+59360+143200FM-12+000699999V0200201N003019999999N0500001N1-01681-02371100051ADDGF105991051001999999031001MD1810011+9999REMSYN060AAXX  11151 31088 42999 50203 11168 21237 40005 58001 85030;
0112310880999992000111118004+59360+143200FM-12+000699999V0200401N004019999999N0500001N1-01721-02411100021ADDGF105991051001999999031001MD1710031+9999REMSYN060AAXX  11181 31088 42999 50404 11172 21241 40002 57003 85030;
0175310880999992000111121004+59360+143200FM-12+000699999V0200301N003012200019N0500001N1-01781-02471100031ADDAA199000091AJ100239199999999GF103991031001999999041001IA1279MD1410001+9999REMSYN070AAXX  11211 31088 32999 30303 11178 21247 40003 54000 83040 333 43023;EQDQ01  00002PRCP99
0221310880999992000111200004+59360+143200FM-12+000699999V0200401N005012200019N0500001N1-01731-02421100001ADDAA199000091AJ100239199999999GF103991021001999999041011IA1279KA1120N-01831MA1999999099931MD1810031+9999REMSYN088AAXX  12001 31088 32999 30405 11173 21242 39993 40000 58003 82041 333 21183 43023 55076;EQDQ01  00002PRCP99
0112310880999992000111203004+59360+143200FM-12+000699999V0200301N005019999999N0500001N1-01511-02321099971ADDGF107991031001999999041011MD1710031+9999REMSYN060AAXX  12031 31088 42999 70305 11151 21232 49997 57003 83041;
0112310880999992000111206004+59360+143200FM-12+000699999V0200301N003019999999N0500001N1-01541-02351099921ADDGF106991041001999999041011MD1710051+9999REMSYN060AAXX  12061 31088 42999 60303 11154 21235 49992 57005 84041;
0165310880999992000111209004+59360+143200FM-12+000699999V0200501N004010075019N0500001N1-01631-02431099981ADDAA199000091GF106991051051008001051001KA1999M-01501MD1310061+9999REMSYN070AAXX  12091 31088 32599 60504 11163 21243 49998 53006 85550 333 11150;EQDQ01  00002PRCP99
0186310880999992000111212004+59360+143200FM-12+000699999V0200101N003010300019N0500001N1-01711-02401100131ADDAA199000091GF107991021041008001051011KA1999M-01501MA1999999100061MD1210151+9999REMSYN076AAXX  12121 31088 32599 70103 11171 21240 30006 40013 52015 82451 333 11150;EQDQ01  00002PRCP99
0112310880999992000111215004+59360+143200FM-12+000699999V0200301N003019999999N0500001N1-01801-02481100201ADDGF106991021001999999031011MD1210061+9999REMSYN060AAXX  12151 31088 42999 60303 11180 21248 40020 52006 82031;
0112310880999992000111218004+59360+143200FM-12+000699999V0200401N004019999999N0500001N1-01871-02451100331ADDGF107991031001999999051011MD1210131+9999REMSYN060AAXX  12181 31088 42999 70404 11187 21245 40033 52013 83051;
0175310880999992000111221004+59360+143200FM-12+000699999V0200401N004019999999N0500001N1-01991-02571100441ADDAA199000091AJ100239199999999GF107991021001999999051011IA1279MD1210111+9999REMSYN070AAXX  12211 31088 32999 70404 11199 21257 40044 52011 82051 333 43023;EQDQ01  00002PRCP99
0221310880999992000111300004+59360+143200FM-12+000699999V0200101N003012200019N0500001N1-01951-02531100561ADDAA199000091AJ100239199999999GF103991031001999999041001IA1279KA1120N-02041MA1999999100481MD1210121+9999REMSYN088AAXX  13001 31088 32999 30103 11195 21253 30048 40056 52012 83040 333 21204 43023 55068;EQDQ01  00002PRCP99
0112310880999992000111303004+59360+143200FM-12+000699999V0203601N004012200019N0500001N1-01621-02321100641ADDGF103991031001999999041001MD1210081+9999REMSYN060AAXX  13031 31088 42999 33604 11162 21232 40064 52008 83040;
0112310880999992000111306004+59360+143200FM-12+000699999V0200101N003019999999N0500001N1-01621-02321100781ADDGF107991031001999999041011MD1310151+9999REMSYN060AAXX  13061 31088 42999 70103 11162 21232 40078 53015 83041;
0165310880999992000111309004+59360+143200FM-12+000699999V0203501N003019999999N0500001N1-01851-02431100901ADDAA199000091GF107991031001999999041011KA1999M-01531MD1210111+9999REMSYN070AAXX  13091 31088 32999 73503 11185 21243 40090 52011 83041 333 11153;EQDQ01  00002PRCP99
0186310880999992000111312004+59360+143200FM-12+000699999V0200401N004019999999N0500001N1-01891-02471101051ADDAA199000091GF106991021001999999031011KA1999M-01531MA1999999100971MD1210151+9999REMSYN076AAXX  13121 31088 32999 60404 11189 21247 30097 40105 52015 82031 333 11153;EQDQ01  00002PRCP99
0112310880999992000111318004+59360+143200FM-12+000699999V0200301N003019999999N0500001N1-01991-02571101281ADDGF107991031001999999031061MD1210121+9999REMSYN060AAXX  13181 31088 42999 70303 11199 21257 40128 52012 83036;
0175310880999992000111321004+59360+143200FM-12+000699999V0200301N003019999999N0500001N1-02031-02611101371ADDAA199000091AJ100239199999999GF107991021001999999031061IA1279MD1210091+9999REMSYN070AAXX  13211 31088 32999 70303 11203 21261 40137 52009 82036 333 43023;EQDQ01  00002PRCP99
0221310880999992000111400004+59360+143200FM-12+000699999V0200101N002019999999N0500001N1-02111-02681101481ADDAA199000091AJ100239199999999GF106991031001999999031011IA1279KA1120N-02071MA1999999101401MD1210111+9999REMSYN088AAXX  14001 31088 32999 60102 11211 21268 30140 40148 52011 83031 333 21207 43023 55061;EQDQ01  00002PRCP99
0112310880999992000111403004+59360+143200FM-12+000699999V0203601N004012200019N0500001N1-01751-02441101481ADDGF102991021001999999031011MD1110011+9999REMSYN060AAXX  14031 31088 42999 23604 11175 21244 40148 51001 82031;
0112310880999992000111406004+59360+143200FM-12+000699999V0203601N004012200019N0500001N1-01731-02421101531ADDGF103991031001999999031001MD1210051+9999REMSYN060AAXX  14061 31088 42999 33604 11173 21242 40153 52005 83030;
0165310880999992000111409004+59360+143200FM-12+000699999V0200101N002012200019N0500001N1-01881-02561101601ADDAA199000091GF103991031001999999031001KA1999M-01671MD1210061+9999REMSYN070AAXX  14091 31088 32999 30102 11188 21256 40160 52006 83030 333 11167;EQDQ01  00002PRCP99
0186310880999992000111412004+59360+143200FM-12+000699999V0203601N003012200019N0500001N1-02331-03081101631ADDAA199000091GF103991031001999999041001KA1999M-01671MA1999999101551MD1210031+9999REMSYN076AAXX  14121 31088 32999 33603 11233 21308 30155 40163 52003 83040 333 11167;EQDQ01  00002PRCP99
0112310880999992000111415004+59360+143200FM-12+000699999V0203501N003012200019N0500001N1-02201-02961101711ADDGF103991031001999999041001MD1210081+9999REMSYN060AAXX  14151 31088 42999 33503 11220 21296 40171 52008 83040;
0112310880999992000111418004+59360+143200FM-12+000699999V0200401N002012200019N0500001N1-02251-03241101701ADDGF102991021001999999041001MD1810011+9999REMSYN060AAXX  14181 31088 42999 20402 11225 21324 40170 58001 82040;
0175310880999992000111421004+59360+143200FM-12+000699999V0200101N003012200019N0500001N1-02271-02931101721ADDAA199000091AJ100239199999999GF102991021001999999041001IA1279MD1310021+9999REMSYN070AAXX  14211 31088 32999 20103 11227 21293 40172 53002 82040 333 43023;EQDQ01  00002PRCP99
0221310880999992000111500004+59360+143200FM-12+000699999V0203601N004012200019N0500001N1-02291-02861101721ADDAA199000091AJ100239199999999GF102991011001999999041011IA1279KA1120N-02301MA1999999101641MD1410001+9999REMSYN088AAXX  15001 31088 32999 23604 11229 21286 30164 40172 54000 81041 333 21230 43023 55051;EQDQ01  00002PRCP99
0112310880999992000111503004+59360+143200FM-12+000699999V0203401N003012200019N0500001N1-02011-02681101691ADDGF102991011001999999041011MD1810031+9999REMSYN060AAXX  15031 31088 42999 23403 11201 21268 40169 58003 81041;
0112310880999992000111506004+59360+143200FM-12+000699999V0203601N002012200019N0500001N1-01861-02541101671ADDGF103991021001999999041011MD1710021+9999REMSYN060AAXX  15061 31088 42999 33602 11186 21254 40167 57002 82041;
0165310880999992000111509004+59360+143200FM-12+000699999V0203601N004012200019N0500001N1-01921-02601101681ADDAA199000091GF102991021001999999041001KA1999M-01801MD1310011+9999REMSYN070AAXX  15091 31088 32999 23604 11192 21260 40168 53001 82040 333 11180;EQDQ01  00002PRCP99
0186310880999992000111512004+59360+143200FM-12+000699999V0203501N002012200019N0500001N1-02231-02791101671ADDAA199000091GF103991031001999999041001KA1999M-01801MA1999999101591MD1810011+9999REMSYN076AAXX  15121 31088 32999 33502 11223 21279 30159 40167 58001 83040 333 11180;EQDQ01  00002PRCP99
0112310880999992000111515004+59360+143200FM-12+000699999V0200101N003012200019N0500001N1-02001-02671101591ADDGF102991021001999999041011MD1810081+9999REMSYN060AAXX  15151 31088 42999 20103 11200 21267 40159 58008 82041;
0112310880999992000111518004+59360+143200FM-12+000699999V0200101N003019999999N0500001N1-01871-02551101521ADDGF106991031001999999041011MD1710071+9999REMSYN060AAXX  15181 31088 42999 60103 11187 21255 40152 57007 83041;
0175310880999992000111521004+59360+143200FM-12+000699999V0200201N003012200019N0500001N1-01771-02461101491ADDAA199000091AJ100239199999999GF103991031001999999041001IA1279MD1710031+9999REMSYN070AAXX  15211 31088 32999 30203 11177 21246 40149 57003 83040 333 43023;EQDQ01  00002PRCP99
0221310880999992000111600004+59360+143200FM-12+000699999V0200201N003019999999N0500001N1-01691-02381101491ADDAA199000091AJ100239199999999GF107991071001999999031001IA1279KA1120N-02261MA1999999101421MD1310011+9999REMSYN088AAXX  16001 31088 32999 70203 11169 21238 30142 40149 53001 87030 333 21226 43023 55066;EQDQ01  00002PRCP99
0142310880999992000111603004+59360+143200FM-12+000699999V0203601N002019999999N0500001N1-01531-02231101471ADDAA199000091GF107991061001999999031011MD1810021+9999REMSYN060AAXX  16031 31088 32999 73602 11153 21223 40147 58002 86031;EQDQ01  00002PRCP99
0142310880999992000111606004+59360+143200FM-12+000699999V0203601N002019999999N0500001N1-01491-02191101461ADDAA199000091GF107991021001999999031011MD1710011+9999REMSYN060AAXX  16061 31088 32999 73602 11149 21219 40146 57001 82031;EQDQ01  00002PRCP99
0165310880999992000111609004+59360+143200FM-12+000699999V0203601N001019999999N0500001N1-01561-02261101481ADDAA199000091GF107991041001999999031011KA1999M-01371MD1310021+9999REMSYN070AAXX  16091 31088 32999 73601 11156 21226 40148 53002 84031 333 11137;EQDQ01  00002PRCP99
0186310880999992000111612004+59360+143200FM-12+000699999V0203401N004010300019N0500001N1-01441-02251101471ADDAA199000091GF107991021051008001031011KA1999M-01371MA1999999101401MD1810011+9999REMSYN076AAXX  16121 31088 32599 73404 11144 21225 30140 40147 58001 82531 333 11137;EQDQ01  00002PRCP99
0112310880999992000111615004+59360+143200FM-12+000699999V0203401N003012200019N0500001N1-01601-02301101431ADDGF103991031001999999031001MD1710041+9999REMSYN060AAXX  16151 31088 42999 33403 11160 21230 40143 57004 83030;
0112310880999992000111618004+59360+143200FM-12+000699999V0200101N002012200019N0500001N1-01741-02431101411ADDGF102991021001999999031001MD1710021+9999REMSYN060AAXX  16181 31088 42999 20102 11174 21243 40141 57002 82030;
0175310880999992000111621004+59360+143200FM-12+000699999V0203601N003019999999N0500001N1-01781-02471101351ADDAA199000091AJ100239199999999GF106991021001999999041011IA1279MD1810071+9999REMSYN070AAXX  16211 31088 32999 63603 11178 21247 40135 58007 82041 333 43023;EQDQ01  00002PRCP99
0221310880999992000111700004+59360+143200FM-12+000699999V0200301N004019999999N0500001N1-01831-02511101241ADDAA199000091AJ100239199999999GF107991021001999999041011IA1279KA1120N-01901MA1999999101171MD1710101+9999REMSYN088AAXX  17001 31088 32999 70304 11183 21251 30117 40124 57010 82041 333 21190 43023 55000;EQDQ01  00002PRCP99
0112310880999992000111703004+59360+143200FM-12+000699999V0200301N003019999999N0500001N1-01391-02101101111ADDGF107991021001999999041011MD1710131+9999REMSYN060AAXX  17031 31088 42999 70303 11139 21210 40111 57013 82041;
0112310880999992000111706004+59360+143200FM-12+000699999V0200201N002019999999N0500001N1-01371-02081101001ADDGF107991051001999999041011MD1710111+9999REMSYN060AAXX  17061 31088 42999 70202 11137 21208 40100 57011 85041;
0165310880999992000111709004+59360+143200FM-12+000699999V0200401N003019999999N0500001N1-01301-02011101031ADDAA199000091GF107991061001999999041011KA1999M-01231MD1310031+9999REMSYN070AAXX  17091 31088 32999 70403 11130 21201 40103 53003 86041 333 11123;EQDQ01  00002PRCP99
0186310880999992000111712004+59360+143200FM-12+000699999V0200101N003019999999N0500001N1-01281-01891100991ADDAA199000091GF107991061001999999041011KA1999M-01231MA1999999100921MD1810041+9999REMSYN076AAXX  17121 31088 32999 70103 11128 21189 30092 40099 58004 86041 333 11123;EQDQ01  00002PRCP99
0112310880999992000111715004+59360+143200FM-12+000699999V0203401N002019999999N0500001N1-01121-01851100991ADDGF107991031001999999041011MD1410001+9999REMSYN060AAXX  17151 31088 42999 73402 11112 21185 40099 54000 83041;
0112310880999992000111718004+59360+143200FM-12+000699999V0200301N002019999999N0500001N1-01301-01911100991ADDGF106991051001999999041011MD1410001+9999REMSYN060AAXX  17181 31088 42999 60302 11130 21191 40099 54000 85041;
0175310880999992000111721004+59360+143200FM-12+000699999V0203601N002019999999N0500001N1-01271-01881101061ADDAA199000091AJ100229199999999GF106991021001999999041011IA1279MD1310071+9999REMSYN070AAXX  17211 31088 32999 63602 11127 21188 40106 53007 82041 333 43022;EQDQ01  00002PRCP99
0221310880999992000111800004+59360+143200FM-12+000699999V0200101N002010300019N0500001N1-01421-02031101181ADDAA199000091AJ100229199999999GF107991021041008001041011IA1279KA1120N-01371MA1999999101111MD1210121+9999REMSYN088AAXX  18001 31088 32599 70102 11142 21203 30111 40118 52012 82441 333 21137 43022 55051;EQDQ01  00002PRCP99
0112310880999992000111803004+59360+143200FM-12+000699999V0200301N003010300019N0500001N1-01031-01761101201ADDGF107991021041008001041011MD1110021+9999REMSYN060AAXX  18031 31088 42599 70303 11103 21176 40120 51002 82441;
0112310880999992000111806004+59360+143200FM-12+000699999V0200101N002010300019N0500001N1-01031-01761101231ADDGF107991031041008001041011MD1210031+9999REMSYN060AAXX  18061 31088 42599 70102 11103 21176 40123 52003 83441;
0187310880999992000111809004+59360+143200FM-12+000699999V0200101N002010081019N0500001N1-01121-01851101311ADDAA199000091GA1051+008109059GF107991051041008001051001KA1120M-00981MD1210081+9999REMSYN076AAXX  18091 31088 32599 70102 11112 21185 40131 52008 85450 333 11098 85627;EQDQ01  00002PRCP99
0208310880999992000111812004+59360+143200FM-12+000699999V0200101N002010081019N0500001N1-01201-01821101331ADDAA199000091GA1051+008109059GF107991051041008001051001KA1120M-00981MA1999999101261MD1210021+9999REMSYN082AAXX  18121 31088 32599 70102 11120 21182 30126 40133 52002 85450 333 11098 85627;EQDQ01  00002PRCP99
0112310880999992000111815004+59360+143200FM-12+000699999V0200201N003010300019N0500001N1-01181-01901101361ADDGF107991031041008001051001MD1210031+9999REMSYN060AAXX  18151 31088 42599 70203 11118 21190 40136 52003 83450;
0112310880999992000111818004+59360+143200FM-12+000699999V0200201N004010300019N0500001N1-01361-02071101391ADDGF107991031041008001051011MD1210031+9999REMSYN060AAXX  18181 31088 42599 70204 11136 21207 40139 52003 83451;
0169310880999992000111821004+59360+143200FM-12+000699999V0200301N002019999999N0500001N1-01541-02241101441ADDAA199000091AJ100229199999999GF107991999999008001999999IA1279MD1210051+9999REMSYN064AAXX  18211 31088 32599 70302 11154 21224 40144 52005 333 43022;EQDQ01  00002PRCP99
0221310880999992000111900004+59360+143200FM-12+000699999V0200201N003010300019N0500001N1-01561-02161101441ADDAA199000091AJ100229199999999GF106991021051008001041011IA1279KA1120N-01561MA1999999101361MD1810011+9999REMSYN088AAXX  19001 31088 32599 60203 11156 21216 30136 40144 58001 82541 333 21156 43022 55037;EQDQ01  00002PRCP99
0112310880999992000111903004+59360+143200FM-12+000699999V0200301N003019999999N0500001N1-01341-02051101421ADDGF107991041001999999041011MD1710011+9999REMSYN060AAXX  19031 31088 42999 70303 11134 21205 40142 57001 84041;
0112310880999992000111906004+59360+143200FM-12+000699999V0200301N003019999999N0500001N1-01441-02151101481ADDGF107991021001999999041011MD1310051+9999REMSYN060AAXX  19061 31088 42999 70303 11144 21215 40148 53005 82041;
0165310880999992000111909004+59360+143200FM-12+000699999V0200401N004019999999N0500001N1-01651-02341101521ADDAA199000091GF107991031001999999041011KA1999M-01321MD1210041+9999REMSYN070AAXX  19091 31088 32999 70404 11165 21234 40152 52004 83041 333 11132;EQDQ01  00002PRCP99
0186310880999992000111912004+59360+143200FM-12+000699999V0200101N003019999999N0500001N1-01771-02461101601ADDAA199000091GF106991021001999999041011KA1999M-01321MA1999999101521MD1210081+9999REMSYN076AAXX  19121 31088 32999 60103 11177 21246 30152 40160 52008 82041 333 11132;EQDQ01  00002PRCP99
0112310880999992000111915004+59360+143200FM-12+000699999V0200301N004019999999N0500001N1-01861-02541101651ADDGF106991001001999999001011MD1210051+9999REMSYN060AAXX  19151 31088 42999 60304 11186 21254 40165 52005 80001;
0112310880999992000111918004+59360+143200FM-12+000699999V0200101N005019999999N0500001N1-01941-02621101681ADDGF107991011001999999041011MD1210031+9999REMSYN060AAXX  19181 31088 42999 70105 11194 21262 40168 52003 81041;
0175310880999992000111921004+59360+143200FM-12+000699999V0200301N004019999999N0500001N1-01901-02581101741ADDAA199000091AJ100229199999999GF107991051001999999051011IA1279MD1210061+9999REMSYN070AAXX  19211 31088 32999 70304 11190 21258 40174 52006 85051 333 43022;EQDQ01  00002PRCP99
0221310880999992000112000004+59360+143200FM-12+000699999V0200301N004010075019N0500001N1-01861-02541101731ADDAA199000091AJ100229199999999GF107991051051008001031001IA1279KA1120N-01961MA1999999101651MD1810011+9999REMSYN088AAXX  20001 31088 32599 70304 11186 21254 30165 40173 58001 85530 333 21196 43022 55054;EQDQ01  00002PRCP99
0112310880999992000112003004+59360+143200FM-12+000699999V0200201N003010300019N0500001N1-01751-02441101761ADDGF107991031051008001031011MD1310031+9999REMSYN060AAXX  20031 31088 42599 70203 11175 21244 40176 53003 83531;
0112310880999992000112006004+59360+143200FM-12+000699999V0200101N003010300019N0500001N1-01691-02381101781ADDGF107991021051008001021999MD1210021+9999REMSYN060AAXX  20061 31088 42599 70103 11169 21238 40178 52002 8252/;
0165310880999992000112009004+59360+143200FM-12+000699999V0203501N003019999999N0500001N1-01721-02411101821ADDAA199000091GF108991081001999999021999KA1999M-01651MD1210041+9999REMSYN070AAXX  20091 31088 32999 83503 11172 21241 40182 52004 8802/ 333 11165;EQDQ01  00002PRCP99
0186310880999992000112012004+59360+143200FM-12+000699999V0200201N004019999999N0500001N1-01681-02371101881ADDAA199000091GF107991071001999999071001KA1999M-01651MA1999999101801MD1210061+9999REMSYN076AAXX  20121 31088 32999 70204 11168 21237 30180 40188 52006 87070 333 11165;EQDQ01  00002PRCP99
0112310880999992000112015004+59360+143200FM-12+000699999V0200301N004019999999N0500001N1-01621-02221101901ADDGF108991081001999999021999MD1210021+9999REMSYN060AAXX  20151 31088 42999 80304 11162 21222 40190 52002 8802/;
0112310880999992000112018004+59360+143200FM-12+000699999V0200401N004019999999N0500001N1-01611-02211101891ADDGF108991081001999999021999MD1810011+9999REMSYN060AAXX  20181 31088 42999 80404 11161 21221 40189 58001 8802/;
0175310880999992000112021004+59360+143200FM-12+000699999V0200301N005019999999N0500001N1-01601-02201101931ADDAA199000091AJ100229199999999GF108991081001999999021999IA1279MD1310041+9999REMSYN070AAXX  20211 31088 32999 80305 11160 21220 40193 53004 8802/ 333 43022;EQDQ01  00002PRCP99
0221310880999992000112100004+59360+143200FM-12+000699999V0202501N002019999999N0500001N1-01611-02121101941ADDAA199000091AJ100229199999999GF108991081001999999021999IA1279KA1120N-01721MA1999999101861MD1210011+9999REMSYN088AAXX  21001 31088 32999 82502 11161 21212 30186 40194 52001 8802/ 333 21172 43022 55005;EQDQ01  00002PRCP99
0112310880999992000112103004+59360+143200FM-12+000699999V0203601N003010300019N0500001N1-01461-01971101881ADDGF108991021051008001071999MD1810061+9999REMSYN060AAXX  21031 31088 42599 83603 11146 21197 40188 58006 8257/;
0112310880999992000112106004+59360+143200FM-12+000699999V0200101N002010300019N0500001N1-01431-01941101811ADDGF108991031051008001071999MD1710071+9999REMSYN060AAXX  21061 31088 42599 80102 11143 21194 40181 57007 8357/;
0165310880999992000112109004+59360+143200FM-12+000699999V0203601N003010300019N0500001N1-01511-02021101751ADDAA199000091GF107991021051008001051011KA1999M-01381MD1710061+9999REMSYN070AAXX  21091 31088 32599 73603 11151 21202 40175 57006 82551 333 11138;EQDQ01  00002PRCP99
0186310880999992000112112004+59360+143200FM-12+000699999V0200101N003010300019N0500001N1-01511-02111101711ADDAA199000091GF107991021051008001041011KA1999M-01381MA1999999101631MD1710041+9999REMSYN076AAXX  21121 31088 32599 70103 11151 21211 30163 40171 57004 82541 333 11138;EQDQ01  00002PRCP99
0112310880999992000112115004+59360+143200FM-12+000699999V0200201N002019999999N0500001N1-01651-02151101531ADDGF107991051001999999041011MD1810181+9999REMSYN060AAXX  21151 31088 42999 70202 11165 21215 40153 58018 85041;
0112310880999992000112118004+59360+143200FM-12+000699999V0200201N002019999999N0500001N1-01771-02271101491ADDGF107991001001999999001011MD1610041+9999REMSYN060AAXX  21181 31088 42999 70202 11177 21227 40149 56004 80001;
0175310880999992000112121004+59360+143200FM-12+000699999V0200101N002019999999N0500001N1-01821-02321101431ADDAA199000091AJ100229199999999GF107991001001999999001011IA1279MD1710061+9999REMSYN070AAXX  21211 31088 32999 70102 11182 21232 40143 57006 80001 333 43022;EQDQ01  00002PRCP99
0221310880999992000112200004+59360+143200FM-12+000699999V0203601N003010300019N0500001N1-01861-02271101401ADDAA199000091AJ100229199999999GF107991021051008001051001IA1279KA1120N-01831MA1999999101321MD1710031+9999REMSYN088AAXX  22001 31088 32599 73603 11186 21227 30132 40140 57003 82550 333 21183 43022 55000;EQDQ01  00002PRCP99
0112310880999992000112203004+59360+143200FM-12+000699999V0203601N004010300019N0500001N1-01711-02211101401ADDGF106991011051008001031011MD1310011+9999REMSYN060AAXX  22031 31088 42599 63604 11171 21221 40140 53001 81531;
0112310880999992000112206004+59360+143200FM-12+000699999V0203501N003012200019N0500001N1-01741-02241101351ADDGF102991011051008001041001MD1810051+9999REMSYN060AAXX  22061 31088 42599 23503 11174 21224 40135 58005 81540;
0165310880999992000112209004+59360+143200FM-12+000699999V0200101N003012200019N0500001N1-01891-02381101301ADDAA199000091GF102991021001999999041001KA1999M-01661MD1710061+9999REMSYN070AAXX  22091 31088 32999 20103 11189 21238 40130 57006 82040 333 11166;EQDQ01  00002PRCP99
0186310880999992000112212004+59360+143200FM-12+000699999V0200201N003012200019N0500001N1-01961-02451101281ADDAA199000091GF102991021001999999041001KA1999M-01661MA1999999101201MD1610021+9999REMSYN076AAXX  22121 31088 32999 20203 11196 21245 30120 40128 56002 82040 333 11166;EQDQ01  00002PRCP99
0122310880999992000112215004+59360+143200FM-12+000699999V0200201N002012200019N0500001N1-02031-02611101261ADDGA1001+999999999GF100991001001999999001001MD1710021+9999REMSYN054AAXX  22151 31088 42999 00202 11203 21261 40126 57002;
0122310880999992000112218004+59360+143200FM-12+000699999V0200101N002012200019N0500001N1-02111-02681101261ADDGA1001+999999999GF100991001001999999001001MD1410001+9999REMSYN054AAXX  22181 31088 42999 00102 11211 21268 40126 54000;
0185310880999992000112221004+59360+143200FM-12+000699999V0200201N004012200019N0500001N1-02181-02661101271ADDAA199000091AJ100229199999999GA1001+999999999GF100991001001999999001001IA1279MD1310011+9999REMSYN064AAXX  22211 31088 32999 00204 11218 21266 40127 53001 333 43022;EQDQ01  00002PRCP99
0231310880999992000112300004+59360+143200FM-12+000699999V0200201N004012200019N0500001N1-02231-02711101311ADDAA199000091AJ100229199999999GA1001+999999999GF100991001001999999001001IA1279KA1120N-02221MA1999999101231MD1210041+9999REMSYN082AAXX  23001 31088 32999 00204 11223 21271 30123 40131 52004 333 21222 43022 55013;EQDQ01  00002PRCP99
0122310880999992000112303004+59360+143200FM-12+000699999V0203601N004012200019N0500001N1-02001-02581101351ADDGA1001+999999999GF100991001001999999001001MD1210041+9999REMSYN054AAXX  23031 31088 42999 03604 11200 21258 40135 52004;
0141310880999992000112306004+59360+143200FM-12+000699999V0200101N004012200019N0500001N1-02021-02601999999ADDGA1001+999999999GF100991001001999999001001MD1810061+9999REMSYN054AAXX  23061 31088 42999 00104 11202 21260 40219 58006;EQDQ01+102193APOSLP
0175310880999992000112309004+59360+143200FM-12+000699999V0200101N005012200019N0500001N1-02131-02701101301ADDAA199000091GA1001+999999999GF100991001001999999001001KA1999M-01991MD1310011+9999REMSYN064AAXX  23091 31088 32999 00105 11213 21270 40130 53001 333 11199;EQDQ01  00002PRCP99
0196310880999992000112312004+59360+143200FM-12+000699999V0203601N004012200019N0500001N1-02191-02761101331ADDAA199000091GA1001+999999999GF100991001001999999001001KA1999M-01991MA1999999101251MD1210031+9999REMSYN070AAXX  23121 31088 32999 03604 11219 21276 30125 40133 52003 333 11199;EQDQ01  00002PRCP99
0122310880999992000112315004+59360+143200FM-12+000699999V0203601N005012200019N0500001N1-02231-02791101331ADDGA1001+999999999GF100991001001999999001001MD1410001+9999REMSYN054AAXX  23151 31088 42999 03605 11223 21279 40133 54000;
0122310880999992000112318004+59360+143200FM-12+000699999V0200101N005012200019N0500001N1-02261-02821101341ADDGA1001+999999999GF100991001001999999001001MD1310011+9999REMSYN054AAXX  23181 31088 42999 00105 11226 21282 40134 53001;
0185310880999992000112321004+59360+143200FM-12+000699999V0203601N005012200019N0500001N1-02301-02871101391ADDAA199000091AJ100229199999999GA1001+999999999GF100991001001999999001001IA1279MD1210051+9999REMSYN064AAXX  23211 31088 32999 03605 11230 21287 40139 52005 333 43022;EQDQ01  00002PRCP99
0221310880999992000112400004+59360+143200FM-12+000699999V0200301N005012200019N0500001N1-02331-02891101421ADDAA199000091AJ100229199999999GF102991011051008001051001IA1279KA1120N-02331MA1999999101341MD1210031+9999REMSYN088AAXX  24001 31088 32599 20305 11233 21289 30134 40142 52003 81550 333 21233 43022 55064;EQDQ01  00002PRCP99
0112310880999992000112403004+59360+143200FM-12+000699999V0200201N004012200019N0500001N1-02071-02641101401ADDGF101991011001999999051001MD1810021+9999REMSYN060AAXX  24031 31088 42999 10204 11207 21264 40140 58002 81050;
0112310880999992000112406004+59360+143200FM-12+000699999V0200201N005012200019N0500001N1-02021-02691101371ADDGF101991011051008001001001MD1710031+9999REMSYN060AAXX  24061 31088 42599 10205 11202 21269 40137 57003 81500;
0165310880999992000112409004+59360+143200FM-12+000699999V0200201N005012200019N0500001N1-02151-02721101351ADDAA199000091GF101991011051008001001001KA1999M-01961MD1710021+9999REMSYN070AAXX  24091 31088 32599 10205 11215 21272 40135 57002 81500 333 11196;EQDQ01  00002PRCP99
0196310880999992000112412004+59360+143200FM-12+000699999V0200101N005012200019N0500001N1-02201-02771101311ADDAA199000091GA1001+999999999GF100991001001999999001001KA1999M-01961MA1999999101231MD1710041+9999REMSYN070AAXX  24121 31088 32999 00105 11220 21277 30123 40131 57004 333 11196;EQDQ01  00002PRCP99
0112310880999992000112415004+59360+143200FM-12+000699999V0200101N004012200019N0500001N1-02161-02731101281ADDGF102991021001999999041001MD1710031+9999REMSYN060AAXX  24151 31088 42999 20104 11216 21273 40128 57003 82040;
0112310880999992000112418004+59360+143200FM-12+000699999V0200101N005012200019N0500001N1-02081-02651101301ADDGF102991021001999999041001MD1310021+9999REMSYN060AAXX  24181 31088 42999 20105 11208 21265 40130 53002 82040;
0145310880999992000112421004+59360+143200FM-12+000699999V0200101N005019999999N0500001N1-01961-02541101301ADDAJ100229199999999GF105991031001999999041011IA1279MD1410001+9999REMSYN070AAXX  24211 31088 42999 50105 11196 21254 40130 54000 83041 333 43022;
0221310880999992000112500004+59360+143200FM-12+000699999V0200301N004010300019N0500001N1-01881-02461101301ADDAA199000091AJ100229199999999GF107991031051008001051011IA1279KA1120N-02231MA1999999101221MD1410001+9999REMSYN088AAXX  25001 31088 32599 70304 11188 21246 30122 40130 54000 83551 333 21223 43022 55053;EQDQ01  00002PRCP99
0138310880999992000112503004+59360+143200FM-12+000699999V0200301N005010081019N0500001N1-01721-02311101321ADDGA1061+008109059GF108991061051008001051999MD1310031+9999REMSYN070AAXX  25031 31088 42599 80305 11172 21231 40132 53003 8655/ 333 86627;
0138310880999992000112506004+59360+143200FM-12+000699999V0200201N004010081019N0500001N1-01681-02271101391ADDGA1061+008109059GF107991061051008001051001MD1210061+9999REMSYN070AAXX  25061 31088 42599 70204 11168 21227 40139 52006 86550 333 86627;
0165310880999992000112509004+59360+143200FM-12+000699999V0200401N003010300019N0500001N1-01801-02391101461ADDAA199000091GF106991021051008001031011KA1999M-01651MD1210071+9999REMSYN070AAXX  25091 31088 32599 60403 11180 21239 40146 52007 82531 333 11165;EQDQ01  00002PRCP99
0186310880999992000112512004+59360+143200FM-12+000699999V0200301N005010750019N0500001N1-01731-02321101511ADDAA199000091GF105991021051008001031011KA1999M-01651MA1999999101441MD1210061+9999REMSYN076AAXX  25121 31088 32599 50305 11173 21232 30144 40151 52006 82531 333 11165;EQDQ01  00002PRCP99
0112310880999992000112515004+59360+143200FM-12+000699999V0200301N005010300019N0500001N1-01831-02421101561ADDGF107991021051008001031011MD1210041+9999REMSYN060AAXX  25151 31088 42599 70305 11183 21242 40156 52004 82531;
0112310880999992000112518004+59360+143200FM-12+000699999V0200301N005019999999N0500001N1-01871-02451101621ADDGF106991031001999999031011MD1210061+9999REMSYN060AAXX  25181 31088 42999 60305 11187 21245 40162 52006 83031;
0175310880999992000112521004+59360+143200FM-12+000699999V0200301N006012200019N0500001N1-01961-02541101681ADDAA199000091AJ100229199999999GF103991021001999999031011IA1279MD1210061+9999REMSYN070AAXX  25211 31088 32999 30306 11196 21254 40168 52006 82031 333 43022;EQDQ01  00002PRCP99
0221310880999992000112600004+59360+143200FM-12+000699999V0200101N004010300019N0500001N1-02001-02581101711ADDAA199000091AJ100229199999999GF107991031051008001031011IA1279KA1120N-01991MA1999999101631MD1210031+9999REMSYN088AAXX  26001 31088 32599 70104 11200 21258 30163 40171 52003 83531 333 21199 43022 55000;EQDQ01  00002PRCP99
0112310880999992000112603004+59360+143200FM-12+000699999V0200101N005010075019N0500001N1-01891-02471101771ADDGF107991051051008001031011MD1210061+9999REMSYN060AAXX  26031 31088 42599 70105 11189 21247 40177 52006 85531;
0138310880999992000112606004+59360+143200FM-12+000699999V0200101N005010072019N0500001N1-01831-02421101751ADDGA1061+007209059GF107991061051008001031001MD1810021+9999REMSYN070AAXX  26061 31088 42599 70105 11183 21242 40175 58002 86530 333 86624;
0187310880999992000112609004+59360+143200FM-12+000699999V0200101N003010069019N0500001N1-01811-02401101771ADDAA199000091GA1081+006909059GF108991081051008001999999KA1120M-01801MD1310021+9999REMSYN076AAXX  26091 31088 32599 80103 11181 21240 40177 53002 885// 333 11180 88623;EQDQ01  00002PRCP99
0195310880999992000112612004+59360+143200FM-12+000699999V0200301N005010075019N0100001N1-01871-02281101781ADDAA199000021AY171061AY221061GF108991081051008001999999KA1999M-01801MA1999999101701MD1210011+9999MW1711REMSYN082AAXX  26121 31088 31597 80305 11187 21228 30170 40178 52001 77172 885// 333 11180;
0140310880999992000112615004+59360+143200FM-12+000699999V0200201N004010075019N0040001N1-01821-02081101721ADDAY171031AY221031GF108991081051008001999999MD1810061+9999MW1731REMSYN066AAXX  26151 31088 41596 80204 11182 21208 40172 58006 77372 885//;
0140310880999992000112618004+59360+143200FM-12+000699999V0200101N006010075019N0040001N1-01721-01841101621ADDAY181061AY271061GF108991081091008001999999MD1710111+9999MW1851REMSYN066AAXX  26181 31088 41596 80106 11172 21184 40162 57011 78587 889//;
0173310880999992000112621004+59360+143200FM-12+000699999V0200201N005010075019N0040001N1-01661-01791101511ADDAJ100339199999999AY181031AY271031GF108991081091008001999999IA1239MD1710111+9999MW1851REMSYN076AAXX  26211 31088 /1596 80205 11166 21179 40151 57011 78587 889// 333 47033;
0236310880999992000112700004+59360+143200FM-12+000699999V0200201N004010075019N0020001N1-01631-01761101461ADDAA100002091AJ100339199999999AY181061AY221061GF108991081091008001999999IA1239KA1120N-01891MA1999999101391MD1710051+9999MW1861REMSYN100AAXX  27001 31088 11595 80204 11163 21176 30139 40146 57005 60020 78682 889// 333 21189 47033 55000;
0140310880999992000112703004+59360+143200FM-12+000699999V0200201N006010075019N0020001N1-01481-01541101411ADDAY181031AY221031GF108991081091008001999999MD1710051+9999MW1861REMSYN066AAXX  27031 31088 41595 80206 11148 21154 40141 57005 78682 889//;
0140310880999992000112706004+59360+143200FM-12+000699999V0200201N005010075019N0020001N1-01421-01481101351ADDAY181061AY231061GF108991081091008001999999MD1710061+9999MW1861REMSYN066AAXX  27061 31088 41595 80205 11142 21148 40135 57006 78683 889//;
0163310880999992000112709004+59360+143200FM-12+000699999V0203501N006010075019N0200001N1-01181-01241101311ADDAY181031AY221031GF107991071031008001001001KA1999M-01151MD1710041+9999MW1261REMSYN076AAXX  27091 31088 /1598 73506 11118 21124 40131 57004 72682 87300 333 11115;
0201310880999992000112712004+59360+143200FM-12+000699999V0200601N002010300019N0500001N1-01331-01601101321ADDAA100007991AY181061AY221061GF107991041031008001051011KA1999M-01151MA1999999101251MD1310011+9999MW1011REMSYN088AAXX  27121 31088 11599 70602 11133 21160 30125 40132 53001 60080 70182 84351 333 11115;
0112310880999992000112715004+59360+143200FM-12+000699999V0203501N004010300019N0500001N1-01751-01941101311ADDGF107991031031008001041011MD1810021+9999REMSYN060AAXX  27151 31088 42599 73504 11175 21194 40131 58002 83341;
0112310880999992000112718004+59360+143200FM-12+000699999V0203401N004012200019N0500001N1-01871-02061101331ADDGF103991031001999999041001MD1310021+9999REMSYN060AAXX  27181 31088 42999 33404 11187 21206 40133 53002 83040;
0156310880999992000112721004+59360+143200FM-12+000699999V0203301N004012200019N0500001N1-01981-02171101331ADDAA199000021AJ100499199999999GF103991031001999999041001IA1239MD1410001+9999REMSYN070AAXX  27211 31088 32999 33304 11198 21217 40133 54000 83040 333 47049;
0221310880999992000112800004+59360+143200FM-12+000699999V0203601N005010750019N0500001N1-01981-02171101321ADDAA199000091AJ100499199999999GF105991021051008001041011IA1239KA1120N-02201MA1999999101241MD1810011+9999REMSYN088AAXX  28001 31088 32599 53605 11198 21217 30124 40132 58001 82541 333 21220 47049 55000;EQDQ01  00002PRCP99
0112310880999992000112803004+59360+143200FM-12+000699999V0203501N003010300019N0500001N1-01581-01921101221ADDGF106991021051008001041011MD1810091+9999REMSYN060AAXX  28031 31088 42599 63503 11158 21192 40122 58009 82541;
0112310880999992000112806004+59360+143200FM-12+000699999V0203501N003010075019N0200001N1-01331-01681101181ADDGF108991061051008001051999MD1710021+9999REMSYN060AAXX  28061 31088 42598 83503 11133 21168 40118 57002 8655/;
0163310880999992000112809004+59360+143200FM-12+000699999V0203601N002010075019N0040001N1-01171-01231101171ADDAY181031AY271031GF108991081091008001999999KA1999M-01141MD1710011+9999MW1851REMSYN076AAXX  28091 31088 /1596 83602 11117 21123 40117 57001 78587 889// 333 11114;
0201310880999992000112812004+59360+143200FM-12+000699999V0200101N005010075019N0040001N1-01121-01181101201ADDAA100000391AY181061AY271061GF108991081091008001999999KA1999M-01141MA1999999101131MD1310031+9999MW1861REMSYN088AAXX  28121 31088 11596 80105 11112 21118 30113 40120 53003 69930 78687 889// 333 11114;
0140310880999992000112815004+59360+143200FM-12+000699999V0200201N003010075019N0100001N1-01121-01401101241ADDAY181031AY221031GF108991081031008001999999MD1210041+9999MW1261REMSYN066AAXX  28151 31088 41597 80203 11112 21140 40124 52004 72682 883//;
0140310880999992000112818004+59360+143200FM-12+000699999V0200101N003010075019N0500001N1-01411-01841101201ADDAY181061AY221061GF105991051051008001001001MD1810041+9999MW1011REMSYN066AAXX  28181 31088 41599 50103 11141 21184 40120 58004 70182 85500;
0145310880999992000112821004+59360+143200FM-12+000699999V0200301N004012200019N0500001N1-01601-02111101191ADDAJ100519199999999GF103991021051008001041011IA1239MD1710011+9999REMSYN070AAXX  28211 31088 /2599 30304 11160 21211 40119 57001 82541 333 47051;
0208310880999992000112900004+59360+143200FM-12+000699999V0200101N003019999999N0500001N1-01731-02231101191ADDAA100002091AJ100519199999999GF107991031001999999041011IA1239KA1120N-01681MA1999999101121MD1410001+9999REMSYN094AAXX  29001 31088 12999 70103 11173 21223 30112 40119 54000 60020 83041 333 21168 47051 55036;
0112310880999992000112903004+59360+143200FM-12+000699999V0203501N002019999999N0500001N1-01521-02121101011ADDGF107991021001999999041011MD1810181+9999REMSYN060AAXX  29031 31088 42999 73502 11152 21212 40101 58018 82041;
0112310880999992000112906004+59360+143200FM-12+000699999V0203601N003010300019N0500001N1-01471-02171100921ADDGF107991011051008001041011MD1610091+9999REMSYN060AAXX  29061 31088 42599 73603 11147 21217 40092 56009 81541;
0165310880999992000112909004+59360+143200FM-12+000699999V0203501N003010300019N0500001N1-01551-02251100941ADDAA199000091GF107991021051008001041011KA1999M-01351MD1310021+9999REMSYN070AAXX  29091 31088 32599 73503 11155 21225 40094 53002 82541 333 11135;EQDQ01  00002PRCP99
0186310880999992000112912004+59360+143200FM-12+000699999V0200101N003010300019N0500001N1-01441-02151100901ADDAA199000091GF107991021051008001041021KA1999M-01351MA1999999100831MD1810041+9999REMSYN076AAXX  29121 31088 32599 70103 11144 21215 30083 40090 58004 82542 333 11135;EQDQ01  00002PRCP99
0112310880999992000112915004+59360+143200FM-12+000699999V0203601N002010075019N0500001N1-01481-01991100881ADDGF107991051051008001041021MD1710021+9999REMSYN060AAXX  29151 31088 42599 73602 11148 21199 40088 57002 85542;
0112310880999992000112918004+59360+143200FM-12+000699999V0200101N002010075019N0200001N1-01421-01931100881ADDGF108991051051008001071999MD1410001+9999REMSYN060AAXX  29181 31088 42598 80102 11142 21193 40088 54000 8557/;
0173310880999992000112921004+59360+143200FM-12+000699999V0200101N004010300019N0040001N1-01221-01491100861ADDAJ100449199999999AY171031AY221031GF108991031051008001011999IA1239MD1810021+9999MW1711REMSYN076AAXX  29211 31088 /1596 80104 11122 21149 40086 58002 77172 8351/ 333 47044;
0236310880999992000113000004+59360+143200FM-12+000699999V0203601N003010075019N0020001N1-01191-01321100871ADDAA100000191AJ100449199999999AY171061AY221061GF108991081051008001999999IA1239KA1120N-01581MA1999999100801MD1310011+9999MW1731REMSYN100AAXX  30001 31088 11595 83603 11119 21132 30080 40087 53001 69920 77372 885// 333 21158 47044 55012;
0140310880999992000113003004+59360+143200FM-12+000699999V0203601N004010075019N0020001N1-01151-01211100841ADDAY171031AY221031GF108991081051008001999999MD1810031+9999MW1731REMSYN066AAXX  30031 31088 41595 83604 11115 21121 40084 58003 77372 885//;
0140310880999992000113006004+59360+143200FM-12+000699999V0203601N005010075019N0020001N1-01131-01191100871ADDAY171061AY221061GF108991081051008001999999MD1310031+9999MW1731REMSYN066AAXX  30061 31088 41595 83605 11113 21119 40087 53003 77372 885//;
0163310880999992000113009004+59360+143200FM-12+000699999V0203601N004010075019N0010001N1-01101-01161100901ADDAY171031AY221031GF108991081051008001999999KA1999M-01091MD1210031+9999MW1751REMSYN076AAXX  30091 31088 /1594 83604 11110 21116 40090 52003 77572 885// 333 11109;
0223310880999992000113012004+59360+143200FM-12+000699999V0203601N003010069019N0200001N1-01091-01151100951ADDAA100004191AY171061AY221061GA1081+006909059GF108991081051008001999999KA1120M-01091MA1999999100881MD1210051+9999MW1221REMSYN094AAXX  30121 31088 11598 83603 11109 21115 30088 40095 52005 60040 72272 885// 333 11109 88623;
0140310880999992000113015004+59360+143200FM-12+000699999V0203601N004010075019N0040001N1-01101-01161100941ADDAY171031AY221031GF108991081051008001999999MD1810011+9999MW1711REMSYN066AAXX  30151 31088 41596 83604 11110 21116 40094 58001 77172 885//;
0140310880999992000113018004+59360+143200FM-12+000699999V0203601N003012200019N0500001N1-01391-01521100941ADDAY171061AY211061GF102991021051008001001001MD1410001+9999MW1011REMSYN066AAXX  30181 31088 41599 23603 11139 21152 40094 54000 70171 82500;
0145310880999992000113021004+59360+143200FM-12+000699999V0200101N004012200019N0500001N1-01431-01701100931ADDAJ100489199999999GF102991021051008001001001IA1239MD1810011+9999REMSYN070AAXX  30211 31088 /2599 20104 11143 21170 40093 58001 82500 333 47048;
0227310880999992000120100004+59360+143200FM-12+000699999V0200301N004012200019N0500001N1-01671-01931100941ADDAA100000391AJ100489199999999GF101991011041008001001001IA1239KA1120N+99999MA1999999100871MD1310011+9999REMSYN094AAXX  01001 31088 12599 10304 11167 21193 30087 40094 53001 69930 81400 333 21148 47048 55000;EQDQ01 -01482ATMN  
0122310880999992000120103004+59360+143200FM-12+000699999V0200201N004012200019N0500001N1-01471-01981100951ADDGA1001+999999999GF100991001001999999001001MD1210011+9999REMSYN054AAXX  01031 31088 42999 00204 11147 21198 40095 52001;
0112310880999992000120106004+59360+143200FM-12+000699999V0200401N004012200019N0500001N1-01601-02111100991ADDGF101991011001999999041001MD1210041+9999REMSYN060AAXX  01061 31088 42999 10404 11160 21211 40099 52004 81040;
0175310880999992000120109004+59360+143200FM-12+000699999V0200201N004012200019N0500001N1-01711-02301100961ADDAA199000091GA1001+999999999GF100991001001999999001001KA1999M-01401MD1810031+9999REMSYN064AAXX  01091 31088 32999 00204 11171 21230 40096 58003 333 11140;EQDQ01  00002PRCP99
0196310880999992000120112004+59360+143200FM-12+000699999V0200201N003012200019N0500001N1-01711-02301100931ADDAA199000091GA1001+999999999GF100991001001999999001001KA1999M-01401MA1999999100861MD1710031+9999REMSYN070AAXX  01121 31088 32999 00203 11171 21230 30086 40093 57003 333 11140;EQDQ01  00002PRCP99
0122310880999992000120115004+59360+143200FM-12+000699999V0200201N003012200019N0500001N1-01781-02471100891ADDGA1001+999999999GF100991001001999999001001MD1710051+9999REMSYN054AAXX  01151 31088 42999 00203 11178 21247 40089 57005;
0122310880999992000120118004+59360+143200FM-12+000699999V0200201N003012200019N0500001N1-01801-02481100911ADDGA1001+999999999GF100991001001999999001001MD1310021+9999REMSYN054AAXX  01181 31088 42999 00203 11180 21248 40091 53002;
0185310880999992000120121004+59360+143200FM-12+000699999V0200201N004012200019N0500001N1-01751-02441100891ADDAA199000091AJ100489199999999GA1001+999999999GF100991001001999999001001IA1239MD1210011+9999REMSYN064AAXX  01211 31088 32999 00204 11175 21244 40089 52001 333 47048;EQDQ01  00002PRCP99
0221310880999992000120200004+59360+143200FM-12+000699999V0200201N003010300019N0500001N1-01711-02401100981ADDAA199000091AJ100489199999999GF107991031041008001051001IA1239KA1120N-01891MA1999999100911MD1310091+9999REMSYN088AAXX  02001 31088 32599 70203 11171 21240 30091 40098 53009 83450 333 21189 47048 55055;EQDQ01  00002PRCP99
0112310880999992000120203004+59360+143200FM-12+000699999V0200201N003010300019N0500001N1-01561-02161100981ADDGF108991031051008001071999MD1410001+9999REMSYN060AAXX  02031 31088 42599 80203 11156 21216 40098 54000 8357/;
0138310880999992000120206004+59360+143200FM-12+000699999V0200201N003010300019N0500001N1-01471-01981100921ADDGA1041+008109059GF108991041051008001071999MD1810061+9999REMSYN070AAXX  02061 31088 42599 80203 11147 21198 40092 58006 8457/ 333 84627;
0163310880999992000120209004+59360+143200FM-12+000699999V0200201N004010075019N0100001N1-01381-01901100901ADDAY171031AY221031GF108991061051008001071999KA1999M-01351MD1710021+9999MW1711REMSYN076AAXX  02091 31088 /1597 80204 11138 21190 40090 57002 77172 8657/ 333 11135;
0201310880999992000120212004+59360+143200FM-12+000699999V0200101N004010300019N0040001N1-01361-01491100841ADDAA100000791AY171061AY221061GF108991031051008001021999KA1999M-01351MA1999999100771MD1710061+9999MW1711REMSYN088AAXX  02121 31088 11596 80104 11136 21149 30077 40084 57006 69900 77172 8352/ 333 11135;
0140310880999992000120215004+59360+143200FM-12+000699999V0200101N004010300019N0040001N1-01301-01431100751ADDAY171031AY221031GF108991021051008001021999MD1710091+9999MW1711REMSYN066AAXX  02151 31088 41596 80104 11130 21143 40075 57009 77172 8252/;
0140310880999992000120218004+59360+143200FM-12+000699999V0200101N006010075019N0020001N1-01181-01311100641ADDAY181061AY271061GF108991081091008001999999MD1710111+9999MW1861REMSYN066AAXX  02181 31088 41595 80106 11118 21131 40064 57011 78687 889//;
0195310880999992000120221004+59360+143200FM-12+000699999V0203601N004010072019N0200001N1-01081-01141100511ADDAJ100509199999999AY181031AY221031GA1051+007209099GF108991081091008001999999IA1239MD1710131+9999MW1021REMSYN082AAXX  02211 31088 /1598 83604 11108 21114 40051 57013 70282 889// 333 47050 85924;
0236310880999992000120300004+59360+143200FM-12+000699999V0200401N005010075019N0100001N1-00791-00891100421ADDAA100001091AJ100509199999999AY181061AY221061GF108991081091008001999999IA1239KA1120N-01401MA1999999100351MD1710091+9999MW1851REMSYN100AAXX  03001 31088 11597 80405 11079 21089 30035 40042 57009 60010 78582 889// 333 21140 47050 55000;
0140310880999992000120303004+59360+143200FM-12+000699999V0201101N007010075019N0100001N1-00561-00631100301ADDAY181031AY221031GF108991081091008001999999MD1710121+9999MW1861REMSYN066AAXX  03031 31088 41597 81107 11056 21063 40030 57012 78682 889//;
0167310880999992000120306004+59360+143200FM-12+000699999V0201001N009010075019N0040001N1-00521-00661100181ADDAY181061AY231061GF108991081051008001999999MD1710121+9999MW1711OA149901401REMSYN082AAXX  03061 31088 41596 81009 11052 21066 40018 57012 77183 885// 333 91114 92952;
0186310880999992000120309004+59360+143200FM-12+000699999V0201001N010010075019N0040001N1-00491-00731100131ADDAY171031AY231031GF108991051051008001021999KA1120M-00461MD1610051+9999MW1711OA149901401REMSYN088AAXX  03091 31088 /1596 81010 11049 21073 40013 56005 77173 8552/ 333 11046 91114 92952;
0243310880999992000120312004+59360+143200FM-12+000699999V0200901N012010075019N0040001N1-00401-00661100171ADDAA100002091AY171061AY231061GF108991081051008001999999KA1120M+99999MA1999999100101MD1310041+9999MW1711OA149901701REMSYN100AAXX  03121 31088 11596 80912 11040 21066 30010 40017 53004 60020 77173 885// 333 11046 91117 92981;EQDQ01 -00462ATMX  
0167310880999992000120315004+59360+143200FM-12+000699999V0200901N014010075019N0040001N1-00361-00801100121ADDAY171031AY231031GF108991081051008001999999MD1810051+9999MW1361OA149901801REMSYN082AAXX  03151 31088 41596 80914 11036 21080 40012 58005 73673 885// 333 91118 92980;
0150310880999992000120318004+59360+143200FM-12+000699999V0200901N013010075019N0200001N1-00321-00751100181ADDAY171061AY231061GF108991081051008001999999MD1310061+9999MW1361REMSYN076AAXX  03181 31088 41598 80913 11032 21075 40018 53006 73673 885// 333 91119;
0179310880999992000120321004+59360+143200FM-12+000699999V0201001N010010075019N0200001N1-00421-00971100381ADDAJ100529199999999AY131031AY221031GF108991061051008001021999IA1239MD1310201+9999MW1361REMSYN082AAXX  03211 31088 /1598 81010 11042 21097 40038 53020 73632 8652/ 333 47052 91115;
0291310880999992000120400004+59360+143200FM-12+000699999V0200201N005010072019N0200001N1-00471-01091100541ADDAA100000891AJ100529199999999AY131061AY221061GA1061+007209069GF108991999051008001071999GJ100009IA1239KA1120N-00511MA1999999100471MD1210161+9999MW1021REMSYN112AAXX  04001 31088 11598 80205 11047 21109 30047 40054 52016 69980 70232 8857/ 333 21051 47052 55000 86624 91112;EQDQ01+000082SCOTLC
0138310880999992000120403004+59360+143200FM-12+000699999V0200201N004010069019N0200001N1-00521-01321100671ADDGA1051+006909059GF108991051051008001071999MD1210131+9999REMSYN070AAXX  04031 31088 42598 80204 11052 21132 40067 52013 8557/ 333 85623;
0112310880999992000120406004+59360+143200FM-12+000699999V0200201N004010300019N0500001N1-00621-01431100701ADDGF107991031051008001041011MD1110031+9999REMSYN060AAXX  04061 31088 42599 70204 11062 21143 40070 51003 83541;
0165310880999992000120409004+59360+143200FM-12+000699999V0203501N003010300019N0500001N1-00761-01601100781ADDAA199000091GF107991031051008001041011KA1999M-00411MD1310081+9999REMSYN070AAXX  04091 31088 32599 73503 11076 21160 40078 53008 83541 333 11041;EQDQ01  00002PRCP99
0186310880999992000120412004+59360+143200FM-12+000699999V0200301N003010300019N0500001N1-00961-01731100801ADDAA199000091GF106991021051008001041011KA1999M-00411MA1999999100731MD1110021+9999REMSYN076AAXX  04121 31088 32599 60303 11096 21173 30073 40080 51002 82541 333 11041;EQDQ01  00002PRCP99
0112310880999992000120415004+59360+143200FM-12+000699999V0200101N002010300019N0500001N1-01201-01921100861ADDGF107991021051008001041011MD1210061+9999REMSYN060AAXX  04151 31088 42599 70102 11120 21192 40086 52006 82541;
0112310880999992000120418004+59360+143200FM-12+000699999V0200101N003012200019N0500001N1-01241-01961100931ADDGF103991011001999999041011MD1210071+9999REMSYN060AAXX  04181 31088 42999 30103 11124 21196 40093 52007 81041;
0191310880999992000120421004+59360+143200FM-12+000699999V0203501N003012200019N0500001N1-01651-02151100981ADDAA199000091AJ100529199999999GF102991999001999999041001IA1239MD1210051+9999REMSYN070AAXX  04211 31088 32999 23503 11165 21215 40098 52005 83040 333 47052;EQDQ01+000032SCOTLCQ02  00002PRCP99
0221310880999992000120500004+59360+143200FM-12+000699999V0200101N002012200019N0500001N1-01611-02211101081ADDAA199000091AJ100529199999999GF102991021001999999041001IA1239KA1120N-01721MA1999999101011MD1210101+9999REMSYN088AAXX  05001 31088 32999 20102 11161 21221 30101 40108 52010 82040 333 21172 47052 55000;EQDQ01  00002PRCP99
0112310880999992000120503004+59360+143200FM-12+000699999V0203401N003012200019N0500001N1-01511-02321101191ADDGF102991021001999999041001MD1210111+9999REMSYN060AAXX  05031 31088 42999 23403 11151 21232 40119 52011 82040;
0112310880999992000120506004+59360+143200FM-12+000699999V0200101N003012200019N0500001N1-01481-02541101291ADDGF103991021001999999041011MD1210101+9999REMSYN060AAXX  05061 31088 42999 30103 11148 21254 40129 52010 82041;
0165310880999992000120509004+59360+143200FM-12+000699999V0203601N003012200019N0500001N1-01751-02661101221ADDAA199000091GF102991021001999999041001KA1999M-01111MD1310031+9999REMSYN070AAXX  05091 31088 32999 23603 11175 21266 40122 53003 82040 333 11111;EQDQ01  00002PRCP99
0186310880999992000120512004+59360+143200FM-12+000699999V0200101N003012200019N0500001N1-01841-02631101291ADDAA199000091GF102991021001999999041001KA1999M-01111MA1999999101211MD1210061+9999REMSYN076AAXX  05121 31088 32999 20103 11184 21263 30121 40129 52006 82040 333 11111;EQDQ01  00002PRCP99
0122310880999992000120515004+59360+143200FM-12+000699999V0200101N003012200019N0500001N1-01851-02641101331ADDGA1001+999999999GF100991001001999999001001MD1210041+9999REMSYN054AAXX  05151 31088 42999 00103 11185 21264 40133 52004;
0122310880999992000120518004+59360+143200FM-12+000699999V0200101N002012200019N0500001N1-01851-02641101711ADDGA1001+999999999GF100991001001999999001001MD1210081+9999REMSYN054AAXX  05181 31088 42999 00102 11185 21264 40171 52008;
0162310880999992000120521004+59360+143200FM-12+000699999V0200101N003012200019N0500001N1-01991-02661101511ADDAA124999999GA1001+999999999GF100991001001999999001001KA1120N-02011MD1210101+9999REMSYN070AAXX  05211 31088 32999 00103 11199 21266 40151 52010 333 21201 7000/;
0231310880999992000120600004+59360+143200FM-12+000699999V0203601N005012200019N0500001N1-02031-02701101611ADDAA199000091AJ100529199999999GA1001+999999999GF100991001001999999001001IA1279KA1120N-02011MA1999999101531MD1210101+9999REMSYN082AAXX  06001 31088 32999 03605 11203 21270 30153 40161 52010 333 21201 43052 55055;EQDQ01  00002PRCP99
0122310880999992000120603004+59360+143200FM-12+000699999V0203601N004012200019N0500001N1-01971-02751101661ADDGA1001+999999999GF100991001001999999001001MD1110051+9999REMSYN054AAXX  06031 31088 42999 03604 11197 21275 40166 51005;
0122310880999992000120606004+59360+143200FM-12+000699999V0203601N004012200019N0500001N1-02111-02781101651ADDGA1001+999999999GF100991001001999999001001MD1810011+9999REMSYN054AAXX  06061 31088 42999 03604 11211 21278 40165 58001;
0175310880999992000120609004+59360+143200FM-12+000699999V0200101N005012200019N0500001N1-02211-02871101661ADDAA199000091GA1001+999999999GF100991001001999999001001KA1999M-01941MD1310011+9999REMSYN064AAXX  06091 31088 32999 00105 11221 21287 40166 53001 333 11194;EQDQ01  00002PRCP99
0196310880999992000120612004+59360+143200FM-12+000699999V0200101N004012200019N0500001N1-02291-02951101631ADDAA199000091GA1001+999999999GF100991001001999999001001KA1999M-01941MA1999999101551MD1810031+9999REMSYN070AAXX  06121 31088 32999 00104 11229 21295 30155 40163 58003 333 11194;EQDQ01  00002PRCP99
0122310880999992000120615004+59360+143200FM-12+000699999V0200201N004012200019N0500001N1-02281-02941101581ADDGA1001+999999999GF100991001001999999001001MD1710051+9999REMSYN054AAXX  06151 31088 42999 00204 11228 21294 40158 57005;
0122310880999992000120618004+59360+143200FM-12+000699999V0200101N005012200019N0500001N1-02361-03021101631ADDGA1001+999999999GF100991001001999999001001MD1310051+9999REMSYN054AAXX  06181 31088 42999 00105 11236 21302 40163 53005;
0185310880999992000120621004+59360+143200FM-12+000699999V0200101N004012200019N0500001N1-02331-02981101651ADDAA199000091AJ100529199999999GA1001+999999999GF100991001001999999001001IA1279MD1210021+9999REMSYN064AAXX  06211 31088 32999 00104 11233 21298 40165 52002 333 43052;EQDQ01  00002PRCP99
0231310880999992000120700004+59360+143200FM-12+000699999V0200101N005012200019N0500001N1-02441-03091101691ADDAA199000091AJ100529199999999GA1001+999999999GF100991001001999999001001IA1279KA1120N-02421MA1999999101611MD1210041+9999REMSYN082AAXX  07001 31088 32999 00105 11244 21309 30161 40169 52004 333 21242 43052 55055;EQDQ01  00002PRCP99
0112310880999992000120703004+59360+143200FM-12+000699999V0200101N003012200019N0500001N1-02281-02941101671ADDGF102991001001999999001011MD1810021+9999REMSYN060AAXX  07031 31088 42999 20103 11228 21294 40167 58002 80001;
0112310880999992000120706004+59360+143200FM-12+000699999V0200201N003012200019N0500001N1-02281-03041101651ADDGF102991001001999999001011MD1710021+9999REMSYN060AAXX  07061 31088 42999 20203 11228 21304 40165 57002 80001;
0165310880999992000120709004+59360+143200FM-12+000699999V0200101N002012200019N0500001N1-02351-03011101641ADDAA199000091GF102991001001999999001011KA1999M-02271MD1710011+9999REMSYN070AAXX  07091 31088 32999 20102 11235 21301 40164 57001 80001 333 11227;EQDQ01  00002PRCP99
0176310880999992000120712004+59360+143200FM-12+000699999V0203601N004012200019N0500001N1-02461-03101101571ADDAA199000091GA1001+999999999GF100991001001999999001001KA1999M-02271MA1999999101491REMSYN064AAXX  07121 31088 32999 03604 11246 21310 30149 40157 333 11227;EQDQ01  00002PRCP99
0122310880999992000120715004+59360+143200FM-12+000699999V0200101N004012200019N0500001N1-02481-03131101451ADDGA1001+999999999GF100991001001999999001001MD1710121+9999REMSYN054AAXX  07151 31088 42999 00104 11248 21313 40145 57012;
0122310880999992000120718004+59360+143200FM-12+000699999V0203601N005012200019N0500001N1-02491-03141101381ADDGA1001+999999999GF100991001001999999001001MD1610071+9999REMSYN054AAXX  07181 31088 42999 03605 11249 21314 40138 56007;
0185310880999992000120721004+59360+143200FM-12+000699999V0200201N005012200019N0500001N1-02501-03051101351ADDAA199000091AJ100529199999999GA1001+999999999GF100991001001999999001001IA1279MD1710031+9999REMSYN064AAXX  07211 31088 32999 00205 11250 21305 40135 57003 333 43052;EQDQ01  00002PRCP99
0231310880999992000120800004+59360+143200FM-12+000699999V0200301N004012200019N0500001N1-02541-03181101221ADDAA199000091AJ100529199999999GA1001+999999999GF100991001001999999001001IA1279KA1120N-02531MA1999999101141MD1810131+9999REMSYN082AAXX  08001 31088 32999 00304 11254 21318 30114 40122 58013 333 21253 43052 55054;EQDQ01  00002PRCP99
0122310880999992000120803004+59360+143200FM-12+000699999V0200301N003012200019N0500001N1-02381-03031101071ADDGA1001+999999999GF100991001001999999001001MD1710151+9999REMSYN054AAXX  08031 31088 42999 00303 11238 21303 40107 57015;
0122310880999992000120806004+59360+143200FM-12+000699999V0200401N004012200019N0500001N1-02521-03171100901ADDGA1001+999999999GF100991001001999999001001MD1710171+9999REMSYN054AAXX  08061 31088 42999 00404 11252 21317 40090 57017;
0165310880999992000120809004+59360+143200FM-12+000699999V0200101N002019999999N0500001N1-02571-03211100941ADDAA199000091GF107991001001999999001011KA1999M-02341MD1310041+9999REMSYN070AAXX  08091 31088 32999 70102 11257 21321 40094 53004 80001 333 11234;EQDQ01  00002PRCP99
0186310880999992000120812004+59360+143200FM-12+000699999V0203601N002019999999N0500001N1-02611-03251100881ADDAA199000091GF106991001001999999001011KA1999M-02341MA1999999100801MD1810061+9999REMSYN076AAXX  08121 31088 32999 63602 11261 21325 30080 40088 58006 80001 333 11234;EQDQ01  00002PRCP99
0112310880999992000120815004+59360+143200FM-12+000699999V0203601N002012200019N0500001N1-02721-03351100731ADDGF102991001001999999001011MD1810151+9999REMSYN060AAXX  08151 31088 42999 23602 11272 21335 40073 58015 80001;
0112310880999992000120818004+59360+143200FM-12+000699999V0200101N003019999999N0500001N1-02621-03171100521ADDGF106991021001999999041011MD1710211+9999REMSYN060AAXX  08181 31088 42999 60103 11262 21317 40052 57021 82041;
0173310880999992000120821004+59360+143200FM-12+000699999V0200101N001019999999N0100001N1-02151-02721100331ADDAJ100529199999999AY171031AY221031GF108991081001999999071999IA1239MD1710191+9999MW1711REMSYN076AAXX  08211 31088 /1997 80101 11215 21272 40033 57019 77172 8807/ 333 47052;
0236310880999992000120900004+59360+143200FM-12+000699999V0200301N002010300019N0500001N1-02011-02271100141ADDAA100000191AJ100529199999999AY171061AY221061GF107991031051008001051001IA1239KA1120N-02841MA1999999100061MD1710191+9999MW1021REMSYN100AAXX  09001 31088 11599 70302 11201 21227 30006 40014 57019 69920 70272 83550 333 21284 47052 55056;
0138310880999992000120903004+59360+143200FM-12+000699999V0200601N004010081019N0500001N1-01961-02371099931ADDGA1051+008109059GF107991051051008001051001MD1710211+9999REMSYN070AAXX  09031 31088 42599 70604 11196 21237 49993 57021 85550 333 85627;
0112310880999992000120906004+59360+143200FM-12+000699999V0200301N002010300019N0500001N1-02031-02441099681ADDGF107991021041008001051011MD1710251+9999REMSYN060AAXX  09061 31088 42599 70302 11203 21244 49968 57025 82451;
0135310880999992000120909004+59360+143200FM-12+000699999V0200201N004019999999N0500001N1-02031-02521099461ADDGF106991031001999999031011KA1999M-01921MD1710221+9999REMSYN070AAXX  09091 31088 /2999 60204 11203 21252 49946 57022 83031 333 11192;
0173310880999992000120912004+59360+143200FM-12+000699999V0200301N004019999999N0500001N1-01981-02471099311ADDAA100000791GF107991071001999999051001KA1999M-01921MA1999999099241MD1610141+9999REMSYN082AAXX  09121 31088 12999 70304 11198 21247 39924 49931 56014 69900 87050 333 11192;
0140310880999992000120915004+59360+143200FM-12+000699999V0200401N004019999999N0100001N1-01991-02321099241ADDAY171031AY221031GF108991081001999999071999MD1710071+9999MW1711REMSYN066AAXX  09151 31088 41997 80404 11199 21232 49924 57007 77172 8807/;
0140310880999992000120918004+59360+143200FM-12+000699999V0200301N002019999999N0500001N1-02031-02361099211ADDAY171061AY221061GF108991081001999999071999MD1710031+9999MW1021REMSYN066AAXX  09181 31088 41999 80302 11203 21236 49921 57003 70272 8807/;
0173310880999992000120921004+59360+143200FM-12+000699999V0200401N004019999999N0100001N1-02091-02341099241ADDAJ100539199999999AY171031AY221031GF108991081001999999071999IA1239MD1310031+9999MW1711REMSYN076AAXX  09211 31088 /1997 80404 11209 21234 49924 53003 77172 8807/ 333 47053;
0236310880999992000121000004+59360+143200FM-12+000699999V0200301N005019999999N0500001N1-02111-02511099261ADDAA100000191AJ100539199999999AY171061AY221061GF108991081001999999071999IA1239KA1120N-02121MA1999999099191MD1210021+9999MW1021REMSYN100AAXX  10001 31088 11999 80305 11211 21251 39919 49926 52002 69920 70272 8807/ 333 21212 47053 55000;
0112310880999992000121003004+59360+143200FM-12+000699999V0200201N004010300019N0500001N1-02151-02631099371ADDGF107991021051008001031011MD1310111+9999REMSYN060AAXX  10031 31088 42599 70204 11215 21263 49937 53011 82531;
0112310880999992000121006004+59360+143200FM-12+000699999V0200301N005010300019N0500001N1-02171-02491099581ADDGF107991021051008001071001MD1310211+9999REMSYN060AAXX  10061 31088 42599 70305 11217 21249 49958 53021 82570;
0135310880999992000121009004+59360+143200FM-12+000699999V0200301N005019999999N0500001N1-02211-02471099731ADDGF107991071001999999031001KA1999M-02061MD1110141+9999REMSYN070AAXX  10091 31088 /2999 70305 11221 21247 49973 51014 87030 333 11206;
0173310880999992000121012004+59360+143200FM-12+000699999V0200201N004012200019N0500001N1-02341-02661099991ADDAA100000791GF103991031001999999041001KA1999M-02061MA1999999099911MD1310261+9999REMSYN082AAXX  10121 31088 12999 30204 11234 21266 39991 49999 53026 69900 83040 333 11206;
0112310880999992000121015004+59360+143200FM-12+000699999V0200301N005012200019N0500001N1-02401-02721100091ADDGF101991011001999999041001MD1210101+9999REMSYN060AAXX  10151 31088 42999 10305 11240 21272 40009 52010 81040;
0112310880999992000121018004+59360+143200FM-12+000699999V0200301N005012200019N0500001N1-02431-02751100181ADDGF103991001001999999001011MD1210091+9999REMSYN060AAXX  10181 31088 42999 30305 11243 21275 40018 52009 80001;
0175310880999992000121021004+59360+143200FM-12+000699999V0200401N004012200019N0500001N1-02431-02821100181ADDAA199000091AJ100539199999999GF102991001001999999001011IA1239MD1410001+9999REMSYN070AAXX  10211 31088 32999 20404 11243 21282 40018 54000 80001 333 47053;EQDQ01  00002PRCP99
0221310880999992000121100004+59360+143200FM-12+000699999V0200101N004019999999N0500001N1-02341-02661100091ADDAA199000091AJ100539199999999GF107991031001999999041011IA1239KA1120N-02441MA1999999100011MD1810091+9999REMSYN088AAXX  11001 31088 32999 70104 11234 21266 30001 40009 58009 83041 333 21244 47053 55000;EQDQ01  00002PRCP99
0112310880999992000121103004+59360+143200FM-12+000699999V0200101N005010300019N0500001N1-02141-02621099831ADDGF107991021051008001041011MD1810261+9999REMSYN060AAXX  11031 31088 42599 70105 11214 21262 49983 58026 82541;
0112310880999992000121106004+59360+143200FM-12+000699999V0200101N005010300019N0500001N1-01871-02361099621ADDGF107991041051008001041011MD1710211+9999REMSYN060AAXX  11061 31088 42599 70105 11187 21236 49962 57021 84541;
0165310880999992000121109004+59360+143200FM-12+000699999V0203501N003010075019N0500001N1-01811-02311099451ADDAA199000091GF107991051051008001041011KA1999M-01801MD1710171+9999REMSYN070AAXX  11091 31088 32599 73503 11181 21231 49945 57017 85541 333 11180;EQDQ01  00002PRCP99
0202310880999992000121112004+59360+143200FM-12+000699999V0200301N003019999999N0500001N1-01741-02241099201ADDAA199000091GF107991041001999999041061KA1999M+99999MA1999999099131MD1710241+9999REMSYN076AAXX  11121 31088 32999 70303 11174 21224 39913 49920 57024 84046 333 11180;EQDQ01  00002PRCP99Q02 -01802ATMX  
0112310880999992000121115004+59360+143200FM-12+000699999V0200301N004019999999N0500001N1-01621-02121098951ADDGF107991061001999999041061MD1710251+9999REMSYN060AAXX  11151 31088 42999 70304 11162 21212 49895 57025 86046;
0112310880999992000121118004+59360+143200FM-12+000699999V0200301N005019999999N0500001N1-01621-02221098831ADDGF107991051001999999051061MD1610121+9999REMSYN060AAXX  11181 31088 42999 70305 11162 21222 49883 56012 85056;
0175310880999992000121121004+59360+143200FM-12+000699999V0200301N004019999999N0500001N1-01561-02161098871ADDAA199000091AJ100539199999999GF108991081001999999071999IA1239MD1310041+9999REMSYN070AAXX  11211 31088 32999 80304 11156 21216 49887 53004 8807/ 333 47053;EQDQ01  00002PRCP99
0221310880999992000121200004+59360+143200FM-12+000699999V0200201N003010300019N0500001N1-01581-02091098971ADDAA199000091AJ100539199999999GF107991031051008001051001IA1239KA1120N-01811MA1999999098901MD1210101+9999REMSYN088AAXX  12001 31088 32599 70203 11158 21209 39890 49897 52010 83550 333 21181 47053 55007;EQDQ01  00002PRCP99
0112310880999992000121203004+59360+143200FM-12+000699999V0200101N005010300019N0500001N1-01541-02051099081ADDGF108991021051008001071999MD1210111+9999REMSYN060AAXX  12031 31088 42599 80105 11154 21205 49908 52011 8257/;
0140310880999992000121206004+59360+143200FM-12+000699999V0203401N003010300019N0040001N1-01621-01811099301ADDAY171061AY221061GF108991031051008001021999MD1210221+9999MW1711REMSYN066AAXX  12061 31088 41596 83403 11162 21181 49930 52022 77172 8352/;
0163310880999992000121209004+59360+143200FM-12+000699999V0200201N003010300019N0040001N1-01721-01981099511ADDAY171031AY221031GF108991041051008001011999KA1999M-01531MD1210211+9999MW1711REMSYN076AAXX  12091 31088 /1596 80203 11172 21198 49951 52021 77172 8451/ 333 11153;
0201310880999992000121212004+59360+143200FM-12+000699999V0200101N002019999999N0500001N1-01761-02261099731ADDAA100000191AY171061AY221061GF107991031001999999051061KA1999M-01531MA1999999099651MD1210211+9999MW1011REMSYN088AAXX  12121 31088 11999 70102 11176 21226 39965 49973 52021 69920 70172 83056 333 11153;
0112310880999992000121215004+59360+143200FM-12+000699999V0203601N003019999999N0500001N1-01771-02271099881ADDGF107991031001999999041061MD1210151+9999REMSYN060AAXX  12151 31088 42999 73603 11177 21227 49988 52015 83046;
0112310880999992000121218004+59360+143200FM-12+000699999V0200101N002019999999N0500001N1-01921-02411099971ADDGF105991021001999999041011MD1210091+9999REMSYN060AAXX  12181 31088 42999 50102 11192 21241 49997 52009 82041;
0156310880999992000121221004+59360+143200FM-12+000699999V0200101N003019999999N0500001N1-02011-02501100031ADDAA199000021AJ100539199999999GF107991051001999999041061IA1239MD1210061+9999REMSYN070AAXX  12211 31088 32999 70103 11201 21250 40003 52006 85046 333 47053;
0221310880999992000121300004+59360+143200FM-12+000699999V0203601N003019999999N0500001N1-02041-02531100231ADDAA199000091AJ100539199999999GF107991021001999999041011IA1239KA1120N-02011MA1999999100151MD1310201+9999REMSYN088AAXX  13001 31088 32999 73603 11204 21253 30015 40023 53020 82041 333 21201 47053 55000;EQDQ01  00002PRCP99
0112310880999992000121303004+59360+143200FM-12+000699999V0200101N004019999999N0500001N1-02021-02511100301ADDGF106991021001999999041011MD1110071+9999REMSYN060AAXX  13031 31088 42999 60104 11202 21251 40030 51007 82041;
0112310880999992000121306004+59360+143200FM-12+000699999V0203601N004012200019N0500001N1-02111-02591100411ADDGF102991021001999999041001MD1210111+9999REMSYN060AAXX  13061 31088 42999 23604 11211 21259 40041 52011 82040;
0165310880999992000121309004+59360+143200FM-12+000699999V0203601N005012200019N0500001N1-02231-02711100451ADDAA199000091GF102991021001999999041001KA1999M-01991MD1110041+9999REMSYN070AAXX  13091 31088 32999 23605 11223 21271 40045 51004 82040 333 11199;EQDQ01  00002PRCP99
0186310880999992000121312004+59360+143200FM-12+000699999V0200101N004019999999N0500001N1-02091-02571100521ADDAA199000091GF107991051001999999051011KA1999M-01991MA1999999100441MD1210071+9999REMSYN076AAXX  13121 31088 32999 70104 11209 21257 30044 40052 52007 85051 333 11199;EQDQ01  00002PRCP99
0112310880999992000121315004+59360+143200FM-12+000699999V0200101N002012200019N0500001N1-02131-02611100551ADDGF103991031001999999051001MD1210031+9999REMSYN060AAXX  13151 31088 42999 30102 11213 21261 40055 52003 83050;
0122310880999992000121318004+59360+143200FM-12+000699999V0200201N003012200019N0500001N1-02161-02641100581ADDGA1001+999999999GF100991001001999999001001MD1810031+9999REMSYN054AAXX  13181 31088 42999 00203 11216 21264 40058 58003;
0175310880999992000121321004+59360+143200FM-12+000699999V0200201N003012200019N0500001N1-02151-02631100511ADDAA199000091AJ100539199999999GF102991021001999999031001IA1239MD1710011+9999REMSYN070AAXX  13211 31088 32999 20203 11215 21263 40051 57001 82030 333 47053;EQDQ01  00002PRCP99
0221310880999992000121400004+59360+143200FM-12+000699999V0200101N002012200019N0500001N1-02181-02661100471ADDAA199000091AJ100539199999999GF101991001001999999001011IA1239KA1120N-02301MA1999999100391MD1710041+9999REMSYN088AAXX  14001 31088 32999 10102 11218 21266 30039 40047 57004 80001 333 21230 47053 55043;EQDQ01  00002PRCP99
0112310880999992000121403004+59360+143200FM-12+000699999V0200101N002012200019N0500001N1-02061-02551100351ADDGF101991001001999999001011MD1810121+9999REMSYN060AAXX  14031 31088 42999 10102 11206 21255 40035 58012 80001;
0112310880999992000121406004+59360+143200FM-12+000699999V0200101N003012200019N0500001N1-02191-02671100201ADDGF102991011001999999041011MD1710151+9999REMSYN060AAXX  14061 31088 42999 20103 11219 21267 40020 57015 81041;
0135310880999992000121409004+59360+143200FM-12+000699999V0200201N003012200019N0500001N1-02271-02831100111ADDGF102991021001999999041011KA1999M-02041MD1710091+9999REMSYN070AAXX  14091 31088 42999 20203 11227 21283 40011 57009 82041 333 11204;
0186310880999992000121412004+59360+143200FM-12+000699999V0203601N004012200019N0500001N1-02261-02741099991ADDAA199000091GF102991021001999999041001KA1999M-02041MA1999999099911MD1710121+9999REMSYN076AAXX  14121 31088 32999 23604 11226 21274 39991 49999 57012 82040 333 11204;EQDQ01  00002PRCP99
0112310880999992000121415004+59360+143200FM-12+000699999V0200101N003012200019N0500001N1-02211-02781099921ADDGF101991011001999999041001MD1710071+9999REMSYN060AAXX  14151 31088 42999 10103 11221 21278 49992 57007 81040;
0122310880999992000121418004+59360+143200FM-12+000699999V0203601N005012200019N0500001N1-02151-02721099971ADDGA1001+999999999GF100991001001999999001001MD1310051+9999REMSYN054AAXX  14181 31088 42999 03605 11215 21272 49997 53005;
0185310880999992000121421004+59360+143200FM-12+000699999V0200101N006012200019N0500001N1-02101-02671100001ADDAA199000091AJ100539199999999GA1001+999999999GF100991001001999999001001IA1279MD1210031+9999REMSYN064AAXX  14211 31088 32999 00106 11210 21267 40000 52003 333 43053;EQDQ01  00002PRCP99
0221310880999992000121500004+59360+143200FM-12+000699999V0200201N004012200019N0500001N1-02271-02751999999ADDAA199000091AJ100539199999999GF101991001001999999001011IA1279KA1120N-02281MA1999999100131MD1310211+9999REMSYN088AAXX  15001 31088 32999 10204 11227 21275 30013 40921 53021 80001 333 21228 43053 55050;EQDQ01  00002PRCP99
0112310880999992000121503004+59360+143200FM-12+000699999V0200401N004012200019N0500001N1-02121-02691100221ADDGF102991001001999999001011MD1110011+9999REMSYN060AAXX  15031 31088 42999 20404 11212 21269 40022 51001 80001;
0131310880999992000121506004+59360+143200FM-12+000699999V0200401N003012200019N0500001N1-02051-02621100271ADDGF102991001001999999001011MD1210051+9999REMSYN060AAXX  15061 31088 42099 20403 11205 21262 40027 52005 80001;EQDQ01+000252SCOLCB
0165310880999992000121509004+59360+143200FM-12+000699999V0200301N004012200019N0500001N1-02091-02661100281ADDAA199000091GF102991001001999999001011KA1999M-02021MD1210011+9999REMSYN070AAXX  15091 31088 32999 20304 11209 21266 40028 52001 80001 333 11202;EQDQ01  00002PRCP99
0186310880999992000121512004+59360+143200FM-12+000699999V0203601N003012200019N0500001N1-02181-02581100271ADDAA199000091GF102991001001999999001011KA1999M-02021MA1999999100191MD1810011+9999REMSYN076AAXX  15121 31088 32999 23603 11218 21258 30019 40027 58001 80001 333 11202;EQDQ01  00002PRCP99
0112310880999992000121515004+59360+143200FM-12+000699999V0200101N003012200019N0500001N1-02091-02421100171ADDGF102991001001999999001011MD1810101+9999REMSYN060AAXX  15151 31088 42999 20103 11209 21242 40017 58010 80001;
0112310880999992000121518004+59360+143200FM-12+000699999V0200201N005019999999N0500001N1-01891-02301100021ADDGF107991031001999999031011MD1710151+9999REMSYN060AAXX  15181 31088 42999 70205 11189 21230 40002 57015 83031;
0175310880999992000121521004+59360+143200FM-12+000699999V0200201N002019999999N0500001N1-01741-02241099781ADDAA199000091AJ100529199999999GF107991061001999999031011IA1279MD1710231+9999REMSYN070AAXX  15211 31088 32999 70202 11174 21224 49978 57023 86031 333 43052;EQDQ01  00002PRCP99
0221310880999992000121600004+59360+143200FM-12+000699999V0200401N003019999999N0500001N1-01711-02211099841ADDAA199000091AJ100529199999999GF107991061001999999051011IA1279KA1120N-02211MA1999999099771MD1310061+9999REMSYN088AAXX  16001 31088 32999 70403 11171 21221 39977 49984 53006 86051 333 21221 43052 55050;EQDQ01  00002PRCP99
0140310880999992000121603004+59360+143200FM-12+000699999V0200301N004019999999N0100001N1-01661-01921099881ADDAY171031AY221031GF108991081001999999071999MD1210041+9999MW1711REMSYN066AAXX  16031 31088 41997 80304 11166 21192 49988 52004 77172 8807/;
0140310880999992000121606004+59360+143200FM-12+000699999V0200301N004019999999N0040001N1-01641-01831100021ADDAY171061AY221061GF108991081001999999021999MD1310141+9999MW1731REMSYN066AAXX  16061 31088 41996 80304 11164 21183 40002 53014 77372 8802/;
0163310880999992000121609004+59360+143200FM-12+000699999V0200301N004019999999N0040001N1-01601-01791100291ADDAY171031AY221031GF108991081001999999021999KA1999M-01581MD1210271+9999MW1711REMSYN076AAXX  16091 31088 /1996 80304 11160 21179 40029 52027 77172 8802/ 333 11158;
0201310880999992000121612004+59360+143200FM-12+000699999V0200301N004019999999N0100001N1-01581-01711100511ADDAA100000891AY171061AY221061GF108991081001999999021999KA1999M-01581MA1999999100441MD1210221+9999MW1711REMSYN088AAXX  16121 31088 11997 80304 11158 21171 30044 40051 52022 69980 77172 8802/ 333 11158;
0140310880999992000121615004+59360+143200FM-12+000699999V0200301N004019999999N0500001N1-01711-01901100651ADDAY101031AY221031GF107991071001999999051001MD1110141+9999MW1011REMSYN066AAXX  16151 31088 41999 70304 11171 21190 40065 51014 70102 87050;
0140310880999992000121618004+59360+143200FM-12+000699999V0200301N004019999999N0500001N1-01841-02101100901ADDAY171061AY221061GF107991071001999999051001MD1310241+9999MW1021REMSYN066AAXX  16181 31088 41999 70304 11184 21210 40090 53024 70272 87050;
0145310880999992000121621004+59360+143200FM-12+000699999V0200301N004019999999N0500001N1-01891-02151101011ADDAJ100539199999999GF108991081001999999071999IA1239MD1110111+9999REMSYN070AAXX  16211 31088 /2999 80304 11189 21215 40101 51011 8807/ 333 47053;
0208310880999992000121700004+59360+143200FM-12+000699999V0200301N003019999999N0500001N1-01921-02251101091ADDAA100000191AJ100539199999999GF107991071001999999051001IA1239KA1120N-01911MA1999999101011MD1210081+9999REMSYN094AAXX  17001 31088 12999 70303 11192 21225 30101 40109 52008 69920 87050 333 21191 47053 55000;
0112310880999992000121703004+59360+143200FM-12+000699999V0200301N002012200019N0500001N1-01941-02351101061ADDGF102991021001999999031011MD1810031+9999REMSYN060AAXX  17031 31088 42999 20302 11194 21235 40106 58003 82031;
0112310880999992000121706004+59360+143200FM-12+000699999V0200301N003012200019N0500001N1-01951-02361101021ADDGF101991011001999999041001MD1710041+9999REMSYN060AAXX  17061 31088 42999 10303 11195 21236 40102 57004 81040;
0165310880999992000121709004+59360+143200FM-12+000699999V0200301N003012200019N0500001N1-02081-02481100941ADDAA199000091GF101991011001999999041001KA1999M-01861MD1710081+9999REMSYN070AAXX  17091 31088 32999 10303 11208 21248 40094 57008 81040 333 11186;EQDQ01  00002PRCP99
0186310880999992000121712004+59360+143200FM-12+000699999V0200301N004012200019N0500001N1-02051-02451100881ADDAA199000091GF101991011001999999041001KA1999M-01861MA1999999100801MD1710061+9999REMSYN076AAXX  17121 31088 32999 10304 11205 21245 30080 40088 57006 81040 333 11186;EQDQ01  00002PRCP99
0112310880999992000121715004+59360+143200FM-12+000699999V0200301N004019999999N0500001N1-01991-02481100831ADDGF105991031001999999031011MD1710051+9999REMSYN060AAXX  17151 31088 42999 50304 11199 21248 40083 57005 83031;
0112310880999992000121718004+59360+143200FM-12+000699999V0200401N004019999999N0500001N1-01781-02281100831ADDGF107991051001999999051011MD1410001+9999REMSYN060AAXX  17181 31088 42999 70404 11178 21228 40083 54000 85051;
0175310880999992000121721004+59360+143200FM-12+000699999V0200301N003019999999N0500001N1-01731-02231100851ADDAA199000091AJ100539199999999GF107991061001999999051011IA1239MD1310031+9999REMSYN070AAXX  17211 31088 32999 70303 11173 21223 40085 53003 86051 333 47053;EQDQ01  00002PRCP99
0221310880999992000121800004+59360+143200FM-12+000699999V0200101N004019999999N0500001N1-01701-02121100941ADDAA199000091AJ100539199999999GF108991081001999999071999IA1239KA1120N-02211MA1999999100861MD1210081+9999REMSYN088AAXX  18001 31088 32999 80104 11170 21212 30086 40094 52008 8807/ 333 21221 47053 55027;EQDQ01  00002PRCP99
0112310880999992000121803004+59360+143200FM-12+000699999V0200101N004019999999N0500001N1-01531-02041100941ADDGF108991081001999999071999MD1410001+9999REMSYN060AAXX  18031 31088 42999 80104 11153 21204 40094 54000 8807/;
0112310880999992000121806004+59360+143200FM-12+000699999V0203501N004010300019N0500001N1-01701-02121101031ADDGF107991021051008001041011MD1310091+9999REMSYN060AAXX  18061 31088 42599 73504 11170 21212 40103 53009 82541;
0165310880999992000121809004+59360+143200FM-12+000699999V0203601N003019999999N0500001N1-01801-02211101101ADDAA199000091GF107991031001999999041011KA1999M-01501MD1210071+9999REMSYN070AAXX  18091 31088 32999 73603 11180 21221 40110 52007 83041 333 11150;EQDQ01  00002PRCP99
0186310880999992000121812004+59360+143200FM-12+000699999V0200301N003019999999N0500001N1-01631-02141101081ADDAA199000091GF108991081001999999071999KA1999M-01501MA1999999101011MD1810011+9999REMSYN076AAXX  18121 31088 32999 80303 11163 21214 30101 40108 58001 8807/ 333 11150;EQDQ01  00002PRCP99
0112310880999992000121815004+59360+143200FM-12+000699999V0200201N003019999999N0500001N1-01601-02111101161ADDGF108991081001999999071999MD1310081+9999REMSYN060AAXX  18151 31088 42999 80203 11160 21211 40116 53008 8807/;
0112310880999992000121818004+59360+143200FM-12+000699999V0200201N002019999999N0500001N1-01601-02111101351ADDGF108991081001999999071999MD1310181+9999REMSYN060AAXX  18181 31088 42999 80202 11160 21211 40135 53018 8807/;
0175310880999992000121821004+59360+143200FM-12+000699999V0200301N003019999999N0500001N1-01681-02181101501ADDAA199000091AJ100539199999999GF106991051001999999051011IA1239MD1210151+9999REMSYN070AAXX  18211 31088 32999 60303 11168 21218 40150 52015 85051 333 47053;EQDQ01  00002PRCP99
0221310880999992000121900004+59360+143200FM-12+000699999V0203601N002010300019N0200001N1-01691-02111101681ADDAA199000091AJ100539199999999GF107991031051008001051011IA1239KA1120N-01801MA1999999101601MD1210181+9999REMSYN088AAXX  19001 31088 32598 73602 11169 21211 30160 40168 52018 83551 333 21180 47053 55000;EQDQ01  00002PRCP99
0112310880999992000121903004+59360+143200FM-12+000699999V0200101N003010300019N0200001N1-01651-02071101681ADDGF108991031051008001011999MD1110011+9999REMSYN060AAXX  19031 31088 42598 80103 11165 21207 40168 51001 8351/;
0112310880999992000121906004+59360+143200FM-12+000699999V0203401N002010300019N0500001N1-01821-02231101711ADDGF108991021051008001071999MD1210021+9999REMSYN060AAXX  19061 31088 42599 83402 11182 21223 40171 52002 8257/;
0165310880999992000121909004+59360+143200FM-12+000699999V0200101N002019999999N0500001N1-01861-02271101711ADDAA199000091GF105991051001999999051001KA1999M-01581MD1410001+9999REMSYN070AAXX  19091 31088 32999 50102 11186 21227 40171 54000 85050 333 11158;EQDQ01  00002PRCP99
0186310880999992000121912004+59360+143200FM-12+000699999V0200101N004019999999N0500001N1-01941-02431101731ADDAA199000091GF105991031001999999041011KA1999M-01581MA1999999101651MD1310021+9999REMSYN076AAXX  19121 31088 32999 50104 11194 21243 30165 40173 53002 83041 333 11158;EQDQ01  00002PRCP99
0112310880999992000121915004+59360+143200FM-12+000699999V0200101N004012200019N0500001N1-02051-02541101641ADDGF102991021001999999041001MD1810091+9999REMSYN060AAXX  19151 31088 42999 20104 11205 21254 40164 58009 82040;
0112310880999992000121918004+59360+143200FM-12+000699999V0203501N004012200019N0500001N1-02021-02511101441ADDGF102991021001999999041001MD1810201+9999REMSYN060AAXX  19181 31088 42999 23504 11202 21251 40144 58020 82040;
0175310880999992000121921004+59360+143200FM-12+000699999V0203601N004010300019N0500001N1-01981-02471101311ADDAA199000091AJ100539199999999GF107991031051008001041011IA1279MD1610131+9999REMSYN070AAXX  19211 31088 32599 73604 11198 21247 40131 56013 83541 333 43053;EQDQ01  00002PRCP99
0221310880999992000122000004+59360+143200FM-12+000699999V0203601N004010300019N0500001N1-01761-02171101241ADDAA199000091AJ100539199999999GF107991021051008001031011IA1279KA1120N-02151MA1999999101161MD1710071+9999REMSYN088AAXX  20001 31088 32599 73604 11176 21217 30116 40124 57007 82531 333 21215 43053 55000;EQDQ01  00002PRCP99
0112310880999992000122003004+59360+143200FM-12+000699999V0203601N004010300019N0500001N1-01741-02081101141ADDGF105991031051008001031001MD1710091+9999REMSYN060AAXX  20031 31088 42599 53604 11174 21208 40114 57009 83530;
0112310880999992000122006004+59360+143200FM-12+000699999V0200101N004010075019N0500001N1-01651-02151101141ADDGF106991051051008001031001MD1410001+9999REMSYN060AAXX  20061 31088 42599 60104 11165 21215 40114 54000 85530;
0165310880999992000122009004+59360+143200FM-12+000699999V0203501N004012200019N0500001N1-01821-02321101181ADDAA199000091GF102991021051008001001001KA1999M-01561MD1310031+9999REMSYN070AAXX  20091 31088 32599 23504 11182 21232 40118 53003 82500 333 11156;EQDQ01  00002PRCP99
0186310880999992000122012004+59360+143200FM-12+000699999V0203601N004012200019N0500001N1-01911-02321101211ADDAA199000091GF102991021001999999051001KA1999M-01561MA1999999101131MD1210031+9999REMSYN076AAXX  20121 31088 32999 23604 11191 21232 30113 40121 52003 82050 333 11156;EQDQ01  00002PRCP99
0112310880999992000122015004+59360+143200FM-12+000699999V0200101N002012200019N0500001N1-01991-02401101251ADDGF102991021001999999051001MD1210041+9999REMSYN060AAXX  20151 31088 42999 20102 11199 21240 40125 52004 82050;
0112310880999992000122018004+59360+143200FM-12+000699999V0203401N003019999999N0500001N1-02071-02471101271ADDGF105991031001999999051011MD1210021+9999REMSYN060AAXX  20181 31088 42999 53403 11207 21247 40127 52002 83051;
0175310880999992000122021004+59360+143200FM-12+000699999V0203601N002019999999N0500001N1-02091-02491101301ADDAA199000091AJ100519199999999GF106991031001999999051011IA1279MD1210031+9999REMSYN070AAXX  20211 31088 32999 63602 11209 21249 40130 52003 83051 333 43051;EQDQ01  00002PRCP99
0221310880999992000122100004+59360+143200FM-12+000699999V0200101N003019999999N0500001N1-02081-02561101321ADDAA199000091AJ100519199999999GF107991061001999999031011IA1279KA1120N-02151MA1999999101241MD1210021+9999REMSYN088AAXX  21001 31088 32999 70103 11208 21256 30124 40132 52002 86031 333 21215 43051 55020;EQDQ01  00002PRCP99
0112310880999992000122103004+59360+143200FM-12+000699999V0203401N003019999999N0500001N1-02021-02511101301ADDGF107991071001999999031001MD1810021+9999REMSYN060AAXX  21031 31088 42999 73403 11202 21251 40130 58002 87030;
0112310880999992000122106004+59360+143200FM-12+000699999V0203601N003019999999N0500001N1-02151-02631101321ADDGF107991061001999999031011MD1310021+9999REMSYN060AAXX  21061 31088 42999 73603 11215 21263 40132 53002 86031;
0165310880999992000122109004+59360+143200FM-12+000699999V0203501N003019999999N0500001N1-02351-02831101321ADDAA199000091GF107991031001999999031011KA1999M-02001MD1410001+9999REMSYN070AAXX  21091 31088 32999 73503 11235 21283 40132 54000 83031 333 11200;EQDQ01  00002PRCP99
0186310880999992000122112004+59360+143200FM-12+000699999V0203601N005012200019N0500001N1-02431-02901101301ADDAA199000091GF102991021001999999041001KA1999M-02001MA1999999101221MD1810021+9999REMSYN076AAXX  21121 31088 32999 23605 11243 21290 30122 40130 58002 82040 333 11200;EQDQ01  00002PRCP99
0112310880999992000122115004+59360+143200FM-12+000699999V0203601N004012200019N0500001N1-02431-02901101181ADDGF102991021001999999041001MD1710121+9999REMSYN060AAXX  21151 31088 42999 23604 11243 21290 40118 57012 82040;
0112310880999992000122118004+59360+143200FM-12+000699999V0200101N005012200019N0500001N1-02361-02841101121ADDGF102991021001999999041001MD1610061+9999REMSYN060AAXX  21181 31088 42999 20105 11236 21284 40112 56006 82040;
0175310880999992000122121004+59360+143200FM-12+000699999V0200101N005010300019N0500001N1-02241-02721101051ADDAA199000091AJ100519199999999GF106991021051008001031001IA1279MD1710071+9999REMSYN070AAXX  21211 31088 32599 60105 11224 21272 40105 57007 82530 333 43051;EQDQ01  00002PRCP99
0221310880999992000122200004+59360+143200FM-12+000699999V0200201N004010300019N0500001N1-02081-02561101061ADDAA199000091AJ100519199999999GF106991021051008001031001IA1279KA1120N-02451MA1999999100981MD1310011+9999REMSYN088AAXX  22001 31088 32599 60204 11208 21256 30098 40106 53001 82530 333 21245 43051 55000;EQDQ01  00002PRCP99
0140310880999992000122203004+59360+143200FM-12+000699999V0200201N004010300019N0100001N1-01871-02131101021ADDAY171031AY221031GF108991021051008001071999MD1810041+9999MW1711REMSYN066AAXX  22031 31088 41597 80204 11187 21213 40102 58004 77172 8257/;
0140310880999992000122206004+59360+143200FM-12+000699999V0200301N003010300019N0500001N1-01751-02011101001ADDAY171061AY221061GF108991021051008001071999MD1710021+9999MW1021REMSYN066AAXX  22061 31088 41599 80303 11175 21201 40100 57002 70272 8257/;
0163310880999992000122209004+59360+143200FM-12+000699999V0200201N003010300019N0100001N1-01721-01911101031ADDAY171031AY221031GF108991041051008001021999KA1999M-01701MD1310041+9999MW1711REMSYN076AAXX  22091 31088 /1597 80203 11172 21191 40103 53004 77172 8452/ 333 11170;
0201310880999992000122212004+59360+143200FM-12+000699999V0200101N003010075019N0100001N1-01701-01891101021ADDAA100000191AY171061AY221061GF108991051051008001021999KA1999M-01701MA1999999100951MD1810011+9999MW1711REMSYN088AAXX  22121 31088 11597 80103 11170 21189 30095 40102 58001 69920 77172 8552/ 333 11170;
0140310880999992000122215004+59360+143200FM-12+000699999V0200101N002010075019N0040001N1-01661-01851101071ADDAY171031AY221031GF108991081051008001999999MD1310051+9999MW1731REMSYN066AAXX  22151 31088 41596 80102 11166 21185 40107 53005 77372 885//;
0166310880999992000122218004+59360+143200FM-12+000699999V0200101N003010072019N0100001N1-01751-01941101101ADDAY171061AY221061GA1081+007209059GF108991081051008001999999MD1210031+9999MW1711REMSYN076AAXX  22181 31088 41597 80103 11175 21194 40110 52003 77172 885// 333 88624;
0173310880999992000122221004+59360+143200FM-12+000699999V0200101N002010075019N0040001N1-01691-01881101121ADDAJ100539199999999AY171031AY221031GF108991081051008001999999IA1239MD1210021+9999MW1731REMSYN076AAXX  22211 31088 /1596 80102 11169 21188 40112 52002 77372 885// 333 47053;
0236310880999992000122300004+59360+143200FM-12+000699999V0200201N004010075019N0100001N1-01681-01811101221ADDAA100002091AJ100539199999999AY171061AY221061GF108991081051008001999999IA1239KA1120N-01761MA1999999101151MD1310101+9999MW1711REMSYN100AAXX  23001 31088 11597 80204 11168 21181 30115 40122 53010 60020 77172 885// 333 21176 47053 55000;
0140310880999992000122303004+59360+143200FM-12+000699999V0200201N002010075019N0100001N1-01621-01751101291ADDAY171031AY221031GF108991061051008001021999MD1210071+9999MW1711REMSYN066AAXX  23031 31088 41597 80202 11162 21175 40129 52007 77172 8652/;
0140310880999992000122306004+59360+143200FM-12+000699999V0200101N003019999999N0500001N1-01661-01851101431ADDAY171061AY221061GF108991081001999999071999MD1310141+9999MW1021REMSYN066AAXX  23061 31088 41999 80103 11166 21185 40143 53014 70272 8807/;
0135310880999992000122309004+59360+143200FM-12+000699999V0200301N003019999999N0500001N1-01681-01871101581ADDGF107991071001999999051001KA1999M-01601MD1210151+9999REMSYN070AAXX  23091 31088 /2999 70303 11168 21187 40158 52015 87050 333 11160;
0156310880999992000122312004+59360+143200FM-12+000699999V0200201N003019999999N0500001N1-01641-01831101751ADDGF107991071001999999051001KA1999M-01601MA1999999101681MD1210171+9999REMSYN076AAXX  23121 31088 12999 70203 11164 21183 30168 40175 52017 87050 333 11160;
0140310880999992000122315004+59360+143200FM-12+000699999V0200301N003019999999N0100001N1-01731-01921101881ADDAY171031AY221031GF108991081001999999071999MD1210121+9999MW1711REMSYN066AAXX  23151 31088 41997 80303 11173 21192 40188 52012 77172 8807/;
0140310880999992000122318004+59360+143200FM-12+000699999V0203601N003019999999N0500001N1-01831-01951102021ADDAY171061AY221061GF108991081001999999071999MD1210141+9999MW1021REMSYN066AAXX  23181 31088 41999 83603 11183 21195 40202 52014 70272 8807/;
0145310880999992000122321004+59360+143200FM-12+000699999V0200201N004019999999N0500001N1-01841-02031102141ADDAJ100539199999999GF105991021001999999051011IA1239MD1210121+9999REMSYN070AAXX  23211 31088 /2999 50204 11184 21203 40214 52012 82051 333 47053;
0227310880999992000122400004+59360+143200FM-12+000699999V0200201N002019999999N0500001N1-02071-02191102291ADDAA100000791AJ100539199999999GF107991021001999999031011IA1239KA1120N+99999MA1999999102211MD1210151+9999REMSYN094AAXX  24001 31088 12999 70202 11207 21219 30221 40229 52015 69900 82031 333 21190 47053 55000;EQDQ01 -01902ATMN  
0112310880999992000122403004+59360+143200FM-12+000699999V0200101N002012200019N0500001N1-01991-02181102351ADDGF103991021001999999041011MD1110061+9999REMSYN060AAXX  24031 31088 42999 30102 11199 21218 40235 51006 82041;
0112310880999992000122406004+59360+143200FM-12+000699999V0200201N002012200019N0500001N1-02191-02371102491ADDGF101991011001999999041001MD1310141+9999REMSYN060AAXX  24061 31088 42999 10202 11219 21237 40249 53014 81040;
0165310880999992000122409004+59360+143200FM-12+000699999V0200201N003012200019N0500001N1-02341-02521102591ADDAA199000091GF101991011001999999041001KA1999M-01811MD1210101+9999REMSYN070AAXX  24091 31088 32999 10203 11234 21252 40259 52010 81040 333 11181;EQDQ01  00002PRCP99
0186310880999992000122412004+59360+143200FM-12+000699999V0200101N003012200019N0500001N1-02631-02801102651ADDAA199000091GF101991011001999999041001KA1999M-01811MA1999999102571MD1210061+9999REMSYN076AAXX  24121 31088 32999 10103 11263 21280 30257 40265 52006 81040 333 11181;EQDQ01  00002PRCP99
0122310880999992000122415004+59360+143200FM-12+000699999V0200301N003012200019N0500001N1-02461-02631102631ADDGA1001+999999999GF100991001001999999001001MD1810021+9999REMSYN054AAXX  24151 31088 42999 00303 11246 21263 40263 58002;
0122310880999992000122418004+59360+143200FM-12+000699999V0200401N002012200019N0500001N1-02511-02751102601ADDGA1001+999999999GF100991001001999999001001MD1710031+9999REMSYN054AAXX  24181 31088 42999 00402 11251 21275 40260 57003;
0175310880999992000122421004+59360+143200FM-12+000699999V0200201N004012200019N0500001N1-02311-02631102511ADDAA199000091AJ100539199999999GF102991021001999999041001IA1239MD1710091+9999REMSYN070AAXX  24211 31088 32999 20204 11231 21263 40251 57009 82040 333 47053;EQDQ01  00002PRCP99
0221310880999992000122500004+59360+143200FM-12+000699999V0203601N004019999999N0500001N1-02341-02741102421ADDAA199000091AJ100539199999999GF107991031001999999041011IA1239KA1120N-02641MA1999999102341MD1710091+9999REMSYN088AAXX  25001 31088 32999 73604 11234 21274 30234 40242 57009 83041 333 21264 47053 55040;EQDQ01  00002PRCP99
0106310880999992000122503004+59360+143200FM-12+000699999V0203501N003019999999N0500001N1-02131+99999102261ADDGF107991031001999999041061MD1810161+9999REMSYN054AAXX  25031 31088 42999 73503 11213 40226 58016 83046;
0112310880999992000122506004+59360+143200FM-12+000699999V0203601N003019999999N0500001N1-02001-02491102091ADDGF107991031001999999041061MD1710171+9999REMSYN060AAXX  25061 31088 42999 73603 11200 21249 40209 57017 83046;
0165310880999992000122509004+59360+143200FM-12+000699999V0203601N003019999999N0500001N1-01871-02361102001ADDAA199000091GF107991031001999999041011KA1999M-01851MD1610091+9999REMSYN070AAXX  25091 31088 32999 73603 11187 21236 40200 56009 83041 333 11185;EQDQ01  00002PRCP99
0186310880999992000122512004+59360+143200FM-12+000699999V0200301N004019999999N0500001N1-01851-02431101951ADDAA199000091GF106991021001999999041011KA1999M-01851MA1999999101871MD1710051+9999REMSYN076AAXX  25121 31088 32999 60304 11185 21243 30187 40195 57005 82041 333 11185;EQDQ01  00002PRCP99
0112310880999992000122515004+59360+143200FM-12+000699999V0200401N004019999999N0500001N1-01841-02431101791ADDGF106991021001999999041011MD1810161+9999REMSYN060AAXX  25151 31088 42999 60404 11184 21243 40179 58016 82041;
0112310880999992000122518004+59360+143200FM-12+000699999V0200401N003012200019N0500001N1-01841-02431101771ADDGF102991021001999999041001MD1610021+9999REMSYN060AAXX  25181 31088 42999 20403 11184 21243 40177 56002 82040;
0175310880999992000122521004+59360+143200FM-12+000699999V0200401N003012200019N0500001N1-01951-02531101711ADDAA199000091AJ100539199999999GF101991011001999999041001IA1279MD1710061+9999REMSYN070AAXX  25211 31088 32999 10403 11195 21253 40171 57006 81040 333 43053;EQDQ01  00002PRCP99
0221310880999992000122600004+59360+143200FM-12+000699999V0200201N002012200019N0500001N1-01941-02431101691ADDAA199000091AJ100539199999999GF103991031001999999041001IA1279KA1120N-01971MA1999999101611MD1710021+9999REMSYN088AAXX  26001 31088 32999 30202 11194 21243 30161 40169 57002 83040 333 21197 43053 55003;EQDQ01  00002PRCP99
0112310880999992000122603004+59360+143200FM-12+000699999V0200201N003012200019N0500001N1-01661-02251101681ADDGF102991021001999999041001MD1710011+9999REMSYN060AAXX  26031 31088 42999 20203 11166 21225 40168 57001 82040;
0112310880999992000122606004+59360+143200FM-12+000699999V0200101N004019999999N0500001N1-01581-02281101581ADDGF105991021001999999041011MD1810101+9999REMSYN060AAXX  26061 31088 42999 50104 11158 21228 40158 58010 82041;
0165310880999992000122609004+59360+143200FM-12+000699999V0200301N004012200019N0500001N1-01771-02461101601ADDAA199000091GF102991021001999999041001KA1999M-01531MD1310021+9999REMSYN070AAXX  26091 31088 32999 20304 11177 21246 40160 53002 82040 333 11153;EQDQ01  00002PRCP99
0186310880999992000122612004+59360+143200FM-12+000699999V0200101N003012200019N0500001N1-01741-02431101601ADDAA199000091GF102991021001999999041001KA1999M-01531MA1999999101521MD1410001+9999REMSYN076AAXX  26121 31088 32999 20103 11174 21243 30152 40160 54000 82040 333 11153;EQDQ01  00002PRCP99
0112310880999992000122615004+59360+143200FM-12+000699999V0200101N003019999999N0500001N1-01901-02481101601ADDGF105991021001999999041011MD1410001+9999REMSYN060AAXX  26151 31088 42999 50103 11190 21248 40160 54000 82041;
0122310880999992000122618004+59360+143200FM-12+000699999V0203501N003012200019N0500001N1-02071-02641101601ADDGA1001+999999999GF100991001001999999001001MD1410001+9999REMSYN054AAXX  26181 31088 42999 03503 11207 21264 40160 54000;
0175310880999992000122621004+59360+143200FM-12+000699999V0200201N004012200019N0500001N1-01971-02551101591ADDAA199000091AJ100539199999999GF102991021001999999041001IA1279MD1810011+9999REMSYN070AAXX  26211 31088 32999 20204 11197 21255 40159 58001 82040 333 43053;EQDQ01  00002PRCP99
0231310880999992000122700004+59360+143200FM-12+000699999V0203601N003012200019N0500001N1-02151-02631101551ADDAA199000091AJ100539199999999GA1001+999999999GF100991001001999999001001IA1279KA1120N-02221MA1999999101471MD1710041+9999REMSYN082AAXX  27001 31088 32999 03603 11215 21263 30147 40155 57004 333 21222 43053 55051;EQDQ01  00002PRCP99
0112310880999992000122703004+59360+143200FM-12+000699999V0203601N004012200019N0500001N1-01841-02341101501ADDGF101991011001999999041001MD1710051+9999REMSYN060AAXX  27031 31088 42999 13604 11184 21234 40150 57005 81040;
0112310880999992000122706004+59360+143200FM-12+000699999V0200101N004012200019N0500001N1-01881-02561101501ADDGF102991021001999999041001MD1410001+9999REMSYN060AAXX  27061 31088 42999 20104 11188 21256 40150 54000 82040;
0165310880999992000122709004+59360+143200FM-12+000699999V0203601N004012200019N0500001N1-01921-02601101511ADDAA199000091GF102991021001999999041001KA1999M-01691MD1310011+9999REMSYN070AAXX  27091 31088 32999 23604 11192 21260 40151 53001 82040 333 11169;EQDQ01  00002PRCP99
0186310880999992000122712004+59360+143200FM-12+000699999V0200201N004012200019N0500001N1-01981-02561101491ADDAA199000091GF102991021001999999041001KA1999M-01691MA1999999101411MD1810021+9999REMSYN076AAXX  27121 31088 32999 20204 11198 21256 30141 40149 58002 82040 333 11169;EQDQ01  00002PRCP99
0112310880999992000122715004+59360+143200FM-12+000699999V0200101N003012200019N0500001N1-02091-02661101521ADDGF102991021001999999041001MD1310031+9999REMSYN060AAXX  27151 31088 42999 20103 11209 21266 40152 53003 82040;
0112310880999992000122718004+59360+143200FM-12+000699999V0200101N004012200019N0500001N1-02111-02681101611ADDGF102991021001999999041001MD1310091+9999REMSYN060AAXX  27181 31088 42999 20104 11211 21268 40161 53009 82040;
0185310880999992000122721004+59360+143200FM-12+000699999V0200101N004012200019N0500001N1-02131-02701101731ADDAA199000091AJ100519199999999GA1001+999999999GF100991001001999999001001IA1279MD1210121+9999REMSYN064AAXX  27211 31088 32999 00104 11213 21270 40173 52012 333 43051;EQDQ01  00002PRCP99
0221310880999992000122800004+59360+143200FM-12+000699999V0200101N004012200019N0500001N1-02141-02711101841ADDAA199000091AJ100519199999999GF103991031001999999031001IA1279KA1120N-02161MA1999999101761MD1210111+9999REMSYN088AAXX  28001 31088 32999 30104 11214 21271 30176 40184 52011 83030 333 21216 43051 55055;EQDQ01  00002PRCP99
0112310880999992000122803004+59360+143200FM-12+000699999V0200101N004012200019N0500001N1-02081-02651101911ADDGF102991021001999999031001MD1210071+9999REMSYN060AAXX  28031 31088 42999 20104 11208 21265 40191 52007 82030;
0112310880999992000122806004+59360+143200FM-12+000699999V0200101N004012200019N0500001N1-02141-02711101951ADDGF102991021001999999041001MD1210041+9999REMSYN060AAXX  28061 31088 42999 20104 11214 21271 40195 52004 82040;
0165310880999992000122809004+59360+143200FM-12+000699999V0200101N004012200019N0500001N1-02271-02831102011ADDAA199000091GF102991021001999999041001KA1999M-02061MD1210061+9999REMSYN070AAXX  28091 31088 32999 20104 11227 21283 40201 52006 82040 333 11206;EQDQ01  00002PRCP99
0186310880999992000122812004+59360+143200FM-12+000699999V0203601N004012200019N0500001N1-02241-02801101961ADDAA199000091GF102991021001999999041001KA1999M-02061MA1999999101881MD1810051+9999REMSYN076AAXX  28121 31088 32999 23604 11224 21280 30188 40196 58005 82040 333 11206;EQDQ01  00002PRCP99
0112310880999992000122815004+59360+143200FM-12+000699999V0203601N006012200019N0500001N1-02251-02731102011ADDGF102991021001999999041001MD1310051+9999REMSYN060AAXX  28151 31088 42999 23606 11225 21273 40201 53005 82040;
0112310880999992000122818004+59360+143200FM-12+000699999V0200101N005012200019N0500001N1-02311-02781102031ADDGF101991011001999999041001MD1210021+9999REMSYN060AAXX  28181 31088 42999 10105 11231 21278 40203 52002 81040;
0175310880999992000122821004+59360+143200FM-12+000699999V0200201N005012200019N0500001N1-02371-02841102051ADDAA199000091AJ100519199999999GF101991011001999999041001IA1279MD1210021+9999REMSYN070AAXX  28211 31088 32999 10205 11237 21284 40205 52002 81040 333 43051;EQDQ01  00002PRCP99
0231310880999992000122900004+59360+143200FM-12+000699999V0200301N005012200019N0500001N1-02431-02901102111ADDAA199000091AJ100519199999999GA1001+999999999GF100991001001999999001001IA1279KA1120N-02381MA1999999102031MD1210061+9999REMSYN082AAXX  29001 31088 32999 00305 11243 21290 30203 40211 52006 333 21238 43051 55046;EQDQ01  00002PRCP99
0122310880999992000122903004+59360+143200FM-12+000699999V0200301N005012200019N0500001N1-02301-02781102061ADDGA1001+999999999GF100991001001999999001001MD1810051+9999REMSYN054AAXX  29031 31088 42999 00305 11230 21278 40206 58005;
0122310880999992000122906004+59360+143200FM-12+000699999V0200401N003012200019N0500001N1-02381-02851102081ADDGA1001+999999999GF100991001001999999001001MD1310021+9999REMSYN054AAXX  29061 31088 42999 00403 11238 21285 40208 53002;
0175310880999992000122909004+59360+143200FM-12+000699999V0200301N003012200019N0500001N1-02311-02781102061ADDAA199000091GA1001+999999999GF100991001001999999001001KA1999M-02221MD1810021+9999REMSYN064AAXX  29091 31088 32999 00303 11231 21278 40206 58002 333 11222;EQDQ01  00002PRCP99
0196310880999992000122912004+59360+143200FM-12+000699999V0200301N004012200019N0500001N1-02351-02831102001ADDAA199000091GA1001+999999999GF100991001001999999001001KA1999M-02221MA1999999101921MD1710061+9999REMSYN070AAXX  29121 31088 32999 00304 11235 21283 30192 40200 57006 333 11222;EQDQ01  00002PRCP99
0122310880999992000122915004+59360+143200FM-12+000699999V0200201N004012200019N0500001N1-02341-02821101931ADDGA1001+999999999GF100991001001999999001001MD1710071+9999REMSYN054AAXX  29151 31088 42999 00204 11234 21282 40193 57007;
0185310880999992000122921004+59360+143200FM-12+000699999V0200101N005012200019N0500001N1-02321-02881101891ADDAA199000091AJ100519199999999GA1001+999999999GF100991001001999999001001IA1279MD1710031+9999REMSYN064AAXX  29211 31088 32999 00105 11232 21288 40189 57003 333 43051;EQDQ01  00002PRCP99
0231310880999992000123000004+59360+143200FM-12+000699999V0200301N003012200019N0500001N1-02301-02871101901ADDAA199000091AJ100519199999999GA1001+999999999GF100991001001999999001001IA1279KA1120N-02391MA1999999101821MD1310011+9999REMSYN082AAXX  30001 31088 32999 00303 11230 21287 30182 40190 53001 333 21239 43051 55052;EQDQ01  00002PRCP99
0122310880999992000123003004+59360+143200FM-12+000699999V0200301N004012200019N0500001N1-02211-02781101831ADDGA1001+999999999GF100991001001999999001001MD1810071+9999REMSYN054AAXX  30031 31088 42999 00304 11221 21278 40183 58007;
0122310880999992000123006004+59360+143200FM-12+000699999V0200401N002012200019N0500001N1-02211-02781101811ADDGA1001+999999999GF100991001001999999001001MD1710021+9999REMSYN054AAXX  30061 31088 42999 00402 11221 21278 40181 57002;
0175310880999992000123009004+59360+143200FM-12+000699999V0200401N004012200019N0500001N1-02221-02781101791ADDAA199000091GA1001+999999999GF100991001001999999001001KA1999M-02141MD1710021+9999REMSYN064AAXX  30091 31088 32999 00404 11222 21278 40179 57002 333 11214;EQDQ01  00002PRCP99
0196310880999992000123012004+59360+143200FM-12+000699999V0200301N004012200019N0500001N1-02301-02871101791ADDAA199000091GA1001+999999999GF100991001001999999001001KA1999M-02141MA1999999101711MD1410001+9999REMSYN070AAXX  30121 31088 32999 00304 11230 21287 30171 40179 54000 333 11214;EQDQ01  00002PRCP99
0112310880999992000123015004+59360+143200FM-12+000699999V0200301N004019999999N0500001N1-02051-02621101791ADDGF105991051001999999051001MD1410001+9999REMSYN060AAXX  30151 31088 42999 50304 11205 21262 40179 54000 85050;
0140310880999992000123018004+59360+143200FM-12+000699999V0200301N005019999999N0100001N1-01991-02571101821ADDAY171061AY211061GF108991081001999999071999MD1310031+9999MW1711REMSYN066AAXX  30181 31088 41997 80305 11199 21257 40182 53003 77171 8807/;
0173310880999992000123021004+59360+143200FM-12+000699999V0200301N005019999999N0100001N1-01991-02571101861ADDAJ100519199999999AY171031AY221031GF108991081001999999071999IA1239MD1210041+9999MW1711REMSYN076AAXX  30211 31088 /1997 80305 11199 21257 40186 52004 77172 8807/ 333 47051;
0236310880999992000123100004+59360+143200FM-12+000699999V0200301N004019999999N0500001N1-02001-02491101931ADDAA100000791AJ100519199999999AY171061AY221061GF108991081001999999071999IA1239KA1120N-02311MA1999999101851MD1210071+9999MW1021REMSYN100AAXX  31001 31088 11999 80304 11200 21249 30185 40193 52007 69900 70272 8807/ 333 21231 47051 55052;
0112310880999992000123103004+59360+143200FM-12+000699999V0200301N004019999999N0500001N1-01941-02431101971ADDGF108991081001999999071999MD1210041+9999REMSYN060AAXX  31031 31088 42999 80304 11194 21243 40197 52004 8807/;
0112310880999992000123106004+59360+143200FM-12+000699999V0200301N003019999999N0500001N1-01911-02401102061ADDGF108991081001999999071999MD1210091+9999REMSYN060AAXX  31061 31088 42999 80303 11191 21240 40206 52009 8807/;
0135310880999992000123109004+59360+143200FM-12+000699999V0200301N003019999999N0500001N1-01861-02351102021ADDGF108991081001999999071999KA1999M-01831MD1210041+9999REMSYN070AAXX  31091 31088 /2999 80303 11186 21235 40202 52004 8807/ 333 11183;
0173310880999992000123112004+59360+143200FM-12+000699999V0200201N004019999999N0500001N1-01881-02371102241ADDAA100000791GF108991081001999999071999KA1999M-01831MA1999999102161MD1310141+9999REMSYN082AAXX  31121 31088 12999 80204 11188 21237 30216 40224 53014 69900 8807/ 333 11183;
0112310880999992000123115004+59360+143200FM-12+000699999V0200301N003019999999N0500001N1-01951-02441102291ADDGF107991071001999999051001MD1210051+9999REMSYN060AAXX  31151 31088 42999 70303 11195 21244 40229 52005 87050;
0112310880999992000123118004+59360+143200FM-12+000699999V0200201N003019999999N0500001N1-02121-02521102311ADDGF106991061001999999051001MD1210021+9999REMSYN060AAXX  31181 31088 42999 60203 11212 21252 40231 52002 86050;
0175310880999992000123121004+59360+143200FM-12+000699999V0200101N003012200019N0500001N1-02171-02571102341ADDAA199000091AJ100519199999999GF103991021001999999031011IA1239MD1210031+9999REMSYN070AAXX  31211 31088 32999 30103 11217 21257 40234 52003 82031 333 47051;EQDQ01  00002PRCP99
