0217426230999992000010100004+24770+093900FM-12+0781VEIM V0209999C000012200019N0040001N1+00621+00531101761ADDAA106000091AY101061AY201061GA1011+005409059GF101991011051004501001001MA1999999092651MD1999999+0121MW1051REMSYN082AAXX  01004 42623 31496 10000 10062 20053 39265 40176 70500 81500 333 58012 81618;EQDQ01  00002PRCP06
0224426230999992000010103004+24770+093900FM-12+0781VEIM V0209999C000012200019N0020001N1+01201+00691101981ADDAA106000091AY141031AY201031GA1001+999999999GF100991001001999999001001KA1120N+00281MA1999999093001MD1999999+0121MW1051REMSYN076AAXX  01034 42623 31995 00000 10120 20069 39300 40198 70540 333 20028 58012;EQDQ01  00002PRCP06
0205426230999992000010106004+24770+093900FM-12+0781VEIM V0209999C000012200019N0040001N1+01861+00591101451ADDAA106000091AY101061AY201061GA1001+999999999GF100991001001999999001001MA1999999092721MD1999999+0051MW1051REMSYN070AAXX  01064 42623 31996 00000 10186 20059 39272 40145 70500 333 58005;EQDQ01  00002PRCP06
0177426230999992000010109004+24770+093900FM-12+0781VEIM V0209999C000012200019N0040001N1+02141+00361101141ADDAA106000091GA1001+999999999GF100991001001999999001001MA1999999092521MD1999999+0071REMSYN064AAXX  01094 42623 32996 00000 10214 20036 39252 40114 333 58007;EQDQ01  00002PRCP06
0217426230999992000010115004+24770+093900FM-12+0781VEIM V0209999C000012200019N0040001N1+00861+00571101741ADDAA106000091AY101031AY201031GA1011+006009059GF101991011051008001001001MA1999999092691MD1999999+0061MW1051REMSYN082AAXX  01154 42623 31596 10000 10086 20057 39269 40174 70500 81500 333 58006 81620;EQDQ01  00002PRCP06
0217426230999992000010200004+24770+093900FM-12+0781VEIM V0209999C000012200019N0002001N1+00261+00211102041ADDAA106000091AY141061AY201061GA1011+001809069GF101991011061001501001001MA1999999092781MD1999999+0031MW1461REMSYN082AAXX  02004 42623 31292 10000 10026 20021 39278 40204 74640 81600 333 58003 81706;EQDQ01  00002PRCP06
0195426230999992000010300004+24770+093900FM-12+0781VEIM V0209999C000012200019N0005001N1+00301+00211101931ADDAA106000091GF101991999061004501041001MA1999999092681MD1999999-0101REMSYN082AAXX  03004 42623 31493 10000 10030 20021 39268 40193 84640 81400 333 59010 81618;EQDQ01+000042SCOTLCQ02  00002PRCP06
0224426230999992000010303004+24770+093900FM-12+0781VEIM V0209999C000012200019N0020001N1+01101+00571101861ADDAA106000091AY141031AY201031GA1001+999999999GF100991001001999999001001KA1120N+00211MA1999999092861MD1999999-0171MW1051REMSYN076AAXX  03034 42623 31995 00000 10110 20057 39286 40186 70540 333 20021 59017;EQDQ01  00002PRCP06
0205426230999992000010306004+24770+093900FM-12+0781VEIM V0209999C000012200019N0040001N1+01841+00751101331ADDAA106000091AY121061AY221061GA1001+999999999GF100991001001999999001001MA1999999092611MD1999999-0191MW1051REMSYN070AAXX  03064 42623 31996 00000 10184 20075 39261 40133 70522 333 59019;EQDQ01  00002PRCP06
0177426230999992000010309004+24770+093900FM-12+0781VEIM V0209999C000012200019N0040001N1+02281+00531100851ADDAA106000091GA1001+999999999GF100991001001999999001001MA1999999092281MD1999999-0221REMSYN064AAXX  03094 42623 32996 00000 10228 20053 39228 40085 333 59022;EQDQ01  00002PRCP06
0217426230999992000010315004+24770+093900FM-12+0781VEIM V0209999C000012200019N0020001N1+00861+00611101551ADDAA106000091AY101031AY201031GA1011+006009059GF101991011051008001001001MA1999999092521MD1999999-0171MW1101REMSYN082AAXX  03154 42623 31595 10000 10086 20061 39252 40155 71000 81500 333 59017 81620;EQDQ01  00002PRCP06
0217426230999992000010400004+24770+093900FM-12+0781VEIM V0209999C000012200019N0002001N1+00301+00251101731ADDAA106000091AY141061AY201061GA1021+001809069GF102991021061001501001001MA1999999092501MD1999999-0181MW1461REMSYN082AAXX  04004 42623 31292 20000 10030 20025 39250 40173 74640 82600 333 59018 82706;EQDQ01  00002PRCP06
0224426230999992000010403004+24770+093900FM-12+0781VEIM V0209999C000012200019N0020001N1+01061+00521101831ADDAA106000091AY141031AY201031GA1001+999999999GF100991001001999999001001KA1120M+02331MA1999999092841MD1999999-0021MW1051REMSYN076AAXX  04034 42623 31995 00000 10106 20052 39284 40183 70540 333 10233 59002;EQDQ01  00002PRCP06
0193426230999992000010409004+24770+093900FM-12+0781VEIM V0209999C000012200019N0040001N1+02241+00681100912ADDAA106000091GA1001+999999999GF100991001001999999001001MA1999999092341MD1999999+0061REMSYN064AAXX  04094 42623 32996 00000 10224 20068 39234 40091 333 58006;EQDQ01+100913APOSLPQ02  00002PRCP06
0236426230999992000010412004+24770+093900FM-12+0781VEIM V0209999C000012200019N0040001N1+01601+00481101161ADDAA106000091AY101061AY201061GA1011+005409059GF101991011051004501001001KA1120M+02291MA1999999092371MD1999999+0061MW1051REMSYN088AAXX  04124 42623 31496 10000 10160 20048 39237 40116 70500 81500 333 10229 58006 81618;EQDQ01  00002PRCP06
0217426230999992000010415004+24770+093900FM-12+0781VEIM V0209999C000012200019N0040001N1+00941+00661101621ADDAA106000091AY101031AY201031GA1011+005409059GF101991011051004501001001MA1999999092611MD1999999+0091MW1051REMSYN082AAXX  04154 42623 31496 10000 10094 20066 39261 40162 70500 81500 333 58009 81618;EQDQ01  00002PRCP06
0217426230999992000010418004+24770+093900FM-12+0781VEIM V0209999C000012200019N0040001N1+00681+00511101801ADDAA106000091AY101061AY201061GA1011+005409059GF101991011051004501001001MA1999999092691MD1999999+0151MW1051REMSYN082AAXX  04184 42623 31496 10000 10068 20051 39269 40180 70500 81500 333 58015 81618;EQDQ01  00002PRCP06
0205426230999992000010506004+24770+093900FM-12+0781VEIM V0201601N001012200019N0040001N1+01821+00731101361ADDAA106000091AY141061AY201061GA1001+999999999GF100991001001999999001001MA1999999092641MD1999999+0011MW1051REMSYN070AAXX  05064 42623 31996 01602 10182 20073 39264 40136 70540 333 58001;EQDQ01  00002PRCP06
0208426230999992000010612004+24770+093900FM-12+0781VEIM V0209999C000012200019N0040001N1+01541+00781101091ADDAA106000091GA1011+009009019GF104991011041004501031001KA1120M+02371MA1999999092311MD1999999-0071REMSYN082AAXX  06124 42623 32496 40000 10154 20078 39231 40109 81430 333 10237 59007 81430;EQDQ01  00002PRCP06
0253426230999992000010703004+24770+093900FM-12+0781VEIM V0209999C000012200019N0020001N1+01401+00741101561ADDAA100000791AA224999999AY121031AY221031GA1011+030009079GF101991011001999999031001KA1120N+00651MA1999999092681MD1999999-0101MW1051REMSYN094AAXX  07034 42623 21995 10000 10140 20074 39268 40156 70522 81030 333 20065 59010 6990/ 81360;EQDQ01  99992PRCP24
0189426230999992000010706004+24770+093900FM-12+0781VEIM V0202301N001012200019N0040001N1+02181+00891101081ADDAA106000091GA1021+006009059GF102991021051008001001001MA1999999092461MD1999999-0091REMSYN076AAXX  07064 42623 32596 22302 10218 20089 39246 40108 82500 333 59009 82620;EQDQ01  00002PRCP06
0195426230999992000010709004+24770+093900FM-12+0781VEIM V0202301N002612200019N0040001N1+02341+00731100761ADDAA106000091GA1011+006009069GF104991041041008001001001MA1999999092231MD1999999-0061REMSYN082AAXX  07094 42623 32596 42305 10234 20073 39223 40076 84400 333 59006 81620 83825;EQDQ01  00002PRCP06
0208426230999992000010712004+24770+093900FM-12+0781VEIM V0209999C000012200019N0040001N1+01521+01521101161ADDAA106000091GA1011+005409059GF101991011051004501001001KA1120M+02381MA1999999092371MD1999999+0061REMSYN082AAXX  07124 42623 32496 10000 10152 20152 39237 40116 81500 333 10238 58006 81618;EQDQ01  00002PRCP06
0189426230999992000010715004+24770+093900FM-12+0781VEIM V0209999C000012200019N0040001N1+01221+00711101501ADDAA106000091GA1011+005409059GF101991011041004501001001MA1999999092591MD1999999+0051REMSYN076AAXX  07154 42623 32496 10000 10122 20071 39259 40150 81400 333 58005 81618;EQDQ01  00002PRCP06
0189426230999992000010718004+24770+093900FM-12+0781VEIM V0209999C000012200019N0040001N1+01001+00811101591ADDAA106000091GA1011+005409059GF101991011041004501001001MA1999999092581MD1999999+0111REMSYN076AAXX  07184 42623 32496 10000 10100 20081 39258 40159 81400 333 58011 81618;EQDQ01  00002PRCP06
0217426230999992000010800004+24770+093900FM-12+0781VEIM V0209999C000012200019N0020001N1+00321+00221101811ADDAA106000091AY101061AY201061GA1011+002409069GF101991011051002501001001MA1999999092601MD1999999+0141MW1051REMSYN082AAXX  08004 42623 31395 10000 10032 20022 39260 40181 70500 81500 333 58014 81708;EQDQ01  00002PRCP06
0224426230999992000010803004+24770+093900FM-12+0781VEIM V0209999C000012200019N0020001N1+00921+00521101811ADDAA106000091AY121031AY221031GA1001+999999999GF100991001001999999001001KA1120M+02381MA1999999092791MD1999999+0111MW1051REMSYN076AAXX  08034 42623 31995 00000 10092 20052 39279 40181 70522 333 10238 58011;EQDQ01  00002PRCP06
0233426230999992000010806004+24770+093900FM-12+0781VEIM V0209999C000012200019N0040001N1+01801+00601101321ADDAA106000091AY101061AY201061GA1011+060009019GF101991001001999999001011MA1999999092571MD1999999+0111MW1051REMSYN082AAXX  08064 42623 31996 10000 10180 20060 39257 40132 70500 81001 333 58011 81070;EQDQ01+000012SCOTLCQ02  00002PRCP06
0189426230999992000010809004+24770+093900FM-12+0781VEIM V0201601N001012200019N0040001N1+02241+00681100831ADDAA106000091GA1011+006009059GF101991011041008001001001MA1999999092261MD1999999+0011REMSYN076AAXX  08094 42623 32596 11602 10224 20068 39226 40083 81400 333 58001 81620;EQDQ01  00002PRCP06
0214426230999992000010812004+24770+093900FM-12+0781VEIM V0201601N002612200019N0040001N1+01541+00951101031ADDAA106000091GA1021+005409069GF104991021051004501031001KA1120M+02301MA1999999092261MD1999999-0111REMSYN088AAXX  08124 42623 32496 41605 10154 20095 39226 40103 82530 333 10230 59011 82618 83360;EQDQ01  00002PRCP06
0189426230999992000010815004+24770+093900FM-12+0781VEIM V0209999C000012200019N0040001N1+01161+01011101411ADDAA106000091GA1021+005409059GF103991021051004501031001MA1999999092491MD1999999-0101REMSYN076AAXX  08154 42623 32496 30000 10116 20101 39249 40141 82530 333 59010 82618;EQDQ01  00002PRCP06
0224426230999992000010903004+24770+093900FM-12+0781VEIM V0209999C000010001519N0001001N1+00941+00861101681ADDAA106000091AY141031AY241031GA1091+999999999GF109991091999999999999999KA1120N+00571MA1999999092671MD1999999-0121MW1471REMSYN076AAXX  09034 42623 31/91 90000 10094 20086 39267 40168 74744 333 20057 59012;EQDQ01  00002PRCP06
0217426230999992000010906004+24770+093900FM-12+0781VEIM V0201601N001512200019N0040001N1+01841+01061101161ADDAA106000091AY141061AY201061GA1021+005409059GF102991021051004501001001MA1999999092451MD1999999-0121MW1051REMSYN082AAXX  09064 42623 31496 21603 10184 20106 39245 40116 70540 82500 333 59012 82618;EQDQ01  00002PRCP06
0195426230999992000010909004+24770+093900FM-12+0781VEIM V0201401N00101220001CN0040001N1+02141+00521100791ADDAA106000091GA1011+006009069GF105991011051008001001011MA1999999092201MD1999999-0061REMSYN082AAXX  09094 42623 32596 51402 10214 20052 39220 40079 81501 333 59006 81620 85070;EQDQ01  00002PRCP06
0224426230999992000010912004+24770+093900FM-12+0781VEIM V0202701N002612200019N0040001N1+01541+00671101061ADDAA106000091GA1021+060009019GF102991001001999999001011KA1120M+02221MA1999999092281MD1999999+0021REMSYN082AAXX  09124 42623 32996 22705 10154 20067 39228 40106 82001 333 10222 58002 82070;EQDQ01+000022SCOTLCQ02  00002PRCP06
0205426230999992000010915004+24770+093900FM-12+0781VEIM V0202701N002112200019N0040001N1+01361+00741101341ADDAA106000091GA1021+060009019GF102991001001999999001011MA1999999092471MD1999999-0021REMSYN076AAXX  09154 42623 32996 22704 10136 20074 39247 40134 82001 333 59002 82070;EQDQ01+000022SCOTLCQ02  00002PRCP06
0211426230999992000011000004+24770+093900FM-12+0781VEIM V0209999C000012200019N0010001N1+99999+99999101651ADDAA106000091AY101061AY201061GA1011+001809069GF102991011061001501001011MA1999999092451MD1999999+0001MW1101REMSYN076AAXX  10004 42623 31294 20000 20026 39245 40165 71000 81601 333 58000 81706;EQDQ01  00002PRCP06
0224426230999992000011003004+24770+093900FM-12+0781VEIM V0209999C000012200019N0010001N1+01101+00571101661ADDAA106000091AY141031AY241031GA1001+999999999GF100991001001999999001001KA1120N+00351MA1999999092681MD1999999+0011MW1101REMSYN076AAXX  10034 42623 31994 00000 10110 20057 39268 40166 71044 333 20035 58001;EQDQ01  00002PRCP06
0205426230999992000011006004+24770+093900FM-12+0781VEIM V0209999C000012200019N0040001N1+01761+00641101231ADDAA106000091AY121061AY221061GA1001+999999999GF100991001001999999001001MA1999999092491MD1999999+0041MW1051REMSYN070AAXX  10064 42623 31996 00000 10176 20064 39249 40123 70522 333 58004;EQDQ01  00002PRCP06
0177426230999992000011009004+24770+093900FM-12+0781VEIM V0209999C000012200019N0040001N1+02101+00581100891ADDAA106000091GA1001+999999999GF100991001001999999001001MA1999999092261MD1999999+0061REMSYN064AAXX  10094 42623 32996 00000 10210 20058 39226 40089 333 58006;EQDQ01  00002PRCP06
0196426230999992000011012004+24770+093900FM-12+0781VEIM V0203201N002112200019N0040001N1+01481+00611101141ADDAA106000091GA1001+999999999GF100991001001999999001001KA1120M+02221MA1999999092331MD1999999+0051REMSYN070AAXX  10124 42623 32996 03204 10148 20061 39233 40114 333 10222 58005;EQDQ01  00002PRCP06
0205426230999992000011015004+24770+093900FM-12+0781VEIM V0202301N002112200019N0040001N1+01321+00651101431ADDAA106000091AY101031AY201031GA1001+999999999GF100991001001999999001001MA1999999092561MD1999999+0091MW1051REMSYN070AAXX  10154 42623 31996 02304 10132 20065 39256 40143 70500 333 58009;EQDQ01  00002PRCP06
0205426230999992000011100004+24770+093900FM-12+0781VEIM V0209999C000012200019N0020001N1+00421+00331101811ADDAA106000091AY141061AY201061GA1001+999999999GF100991001001999999001001MA1999999092641MD1999999+0191MW1101REMSYN070AAXX  11004 42623 31995 00000 10042 20033 39264 40181 71040 333 58019;EQDQ01  00002PRCP06
0224426230999992000011103004+24770+093900FM-12+0781VEIM V0209999C000012200019N0020001N1+01081+00551101821ADDAA106000091AY141031AY201031GA1001+999999999GF100991001001999999001001KA1120N+00321MA1999999092831MD1999999+0151MW1051REMSYN076AAXX  11034 42623 31995 00000 10108 20055 39283 40182 70540 333 20032 58015;EQDQ01  00002PRCP06
0177426230999992000011109004+24770+093900FM-12+0781VEIM V0201601N001512200019N0040001N1+02301+00821100901ADDAA106000091GA1001+999999999GF100991001001999999001001MA1999999092331MD1999999+0091REMSYN064AAXX  11094 42623 32996 01603 10230 20082 39233 40090 333 58009;EQDQ01  00002PRCP06
0196426230999992000011112004+24770+093900FM-12+0781VEIM V0209999C000012200019N0040001N1+01641+00951101151ADDAA106000091GA1001+999999999GF100991001001999999001001KA1120M+02341MA1999999092391MD1999999+0061REMSYN070AAXX  11124 42623 32996 00000 10164 20095 39239 40115 333 10234 58006;EQDQ01  00002PRCP06
0196426230999992000011200004+24770+093900FM-12+0781VEIM V0209999C000012200019N0010001N1+00621+00491101641ADDAA106000091AY101061AY201061GA1011+001809069GF101991011061001501001001MD1999999-0101MW1101REMSYN076AAXX  12004 42623 31294 10000 10062 20049 40164 71000 81600 333 59010 81706;EQDQ01  00002PRCP06
0236426230999992000011203004+24770+093900FM-12+0781VEIM V0209999C000012200019N0010001N1+01241+00771101651ADDAA106000091AY101031AY201031GA1011+001809069GF101991011061001501001001KA1120N+00531MA1999999092731MD1999999-0101MW1101REMSYN088AAXX  12034 42623 31294 10000 10124 20077 39273 40165 71000 81600 333 20053 59010 81706;EQDQ01  00002PRCP06
0205426230999992000011209004+24770+093900FM-12+0781VEIM V0202301N002612200019N0040001N1+02241+00831100871ADDAA106000091AY101031AY201031GA1001+999999999GF100991001001999999001001MA1999999092301MD1999999-0031MW1051REMSYN070AAXX  12094 42623 31996 02305 10224 20083 39230 40087 70500 333 59003;EQDQ01  00002PRCP06
0204426230999992000011212004+24770+093900FM-12+0781VEIM V0202701N002112200019N0040001N1+01761+00741101091ADDAA106000091AY101061AY201061GA1001+999999999GF100991001001999999001001KA1999M+02401MA1999999092361MW1051REMSYN070AAXX  12124 42623 31996 02704 10176 20074 39236 40109 70500 333 1024/;EQDQ01  00002PRCP06
0205426230999992000011215004+24770+093900FM-12+0781VEIM V0209999C000012200019N0040001N1+01421+00851101411ADDAA106000091AY101031AY201031GA1001+999999999GF100991001001999999001001MA1999999092571MD1999999+0021MW1051REMSYN070AAXX  12154 42623 31996 00000 10142 20085 39257 40141 70500 333 58002;EQDQ01  00002PRCP06
0205426230999992000011218004+24770+093900FM-12+0781VEIM V0209999C000012200019N0040001N1+01221+00881101481ADDAA106000091AY101061AY201061GA1001+999999999GF100991001001999999001001MA1999999092571MD1999999-0031MW1051REMSYN070AAXX  12184 42623 31996 00000 10122 20088 39257 40148 70500 333 59003;EQDQ01  00002PRCP06
0205426230999992000011300004+24770+093900FM-12+0781VEIM V0209999C000012200019N0040001N1+00781+00611101541ADDAA106000091AY101061AY201061GA1001+999999999GF100991001001999999001001MA1999999092491MD1999999+0001MW1051REMSYN070AAXX  13004 42623 31996 00000 10078 20061 39249 40154 70500 333 58000;EQDQ01  00002PRCP06
0224426230999992000011303004+24770+093900FM-12+0781VEIM V0209999C000012200019N0020001N1+01201+00691101651ADDAA106000091AY101031AY201031GA1001+999999999GF100991001001999999001001KA1120N+00441MA1999999092701MD1999999-0031MW1051REMSYN076AAXX  13034 42623 31995 00000 10120 20069 39270 40165 70500 333 20044 59003;EQDQ01  00002PRCP06
0205426230999992000011306004+24770+093900FM-12+0781VEIM V0201801N002112200019N0040001N1+01941+00791101181ADDAA106000091AY101061AY201061GA1001+999999999GF100991001001999999001001MA1999999092501MD1999999-0051MW1051REMSYN070AAXX  13064 42623 31996 01804 10194 20079 39250 40118 70500 333 59005;EQDQ01  00002PRCP06
0205426230999992000011309004+24770+093900FM-12+0781VEIM V0202301N002112200019N0040001N1+02361+00761100721ADDAA106000091AY121031AY221031GA1001+999999999GF100991001001999999001001MA1999999092191MD1999999-0111MW1051REMSYN070AAXX  13094 42623 31996 02304 10236 20076 39219 40072 70522 333 59011;EQDQ01  00002PRCP06
0196426230999992000011312004+24770+093900FM-12+0781VEIM V0202501N002112200019N0040001N1+01661+00801100901ADDAA106000091GA1001+999999999GF100991001001999999001001KA1120M+02401MA1999999092231MD1999999-0131REMSYN070AAXX  13124 42623 31996 02504 10166 20080 39223 40090 333 10240 59013;EQDQ01  00002PRCP06
0217426230999992000011315004+24770+093900FM-12+0781VEIM V0209999C000012200019N0040001N1+01181+00751101281ADDAA106000091AY101031AY201031GA1011+030009079GF101991011001999999031001MA1999999092361MD1999999-0211MW1051REMSYN082AAXX  13154 42623 32996 10000 10118 20075 39236 40128 70500 81030 333 59021 81360;EQDQ01  00002PRCP06
0221426230999992000011400004+24770+093900FM-12+078199999V0209999C000012200019N0005001N1+00601+00511101451ADDAA199000091AY141061AY201061GA1031+001809069GF103991031061001501001001MA1999999092341MD1999999-0141MW1441REMSYN086    AAXX  14004 42623 31293 30000 10060 20051 39234 40145 74440 83600 333 59014 83706;EQDQ01  00002PRCP99
0246426230999992000011403004+24770+093900FM-12+078199999V0209999C00001036001CN0010001N1+01261+00841101481ADDAA199000091AY141031AY201031GA1041+005409069GF106991041051004501031001KA1120N+00531MA1999999092571MD1999999-0131MW1101REMSYN098    AAXX  14034 42623 31494 60000 10126 20084 39257 40148 71040 84530 333 20053 59013 84618 85360;EQDQ01  00002PRCP99
0227426230999992000011406004+24770+093900FM-12+078199999V0209999C000012200019N0020001N1+02001+00921101061ADDAA199000091AY141061AY221061GA1031+005409069GF104991031051004501031001MA1999999092391MD1999999-0111MW1051REMSYN092    AAXX  14064 42623 31495 40000 10200 20092 39239 40106 70542 83530 333 59011 83618 83360;EQDQ01  00002PRCP99
0219426230999992000011409004+24770+093900FM-12+078199999V0209999C00001004801CN0020001N1+01941+01181100851ADDAY121031AY261031GA1021+002409079GA2031+004809069GF107991041061002501031001MA1999999092201MD1999999+0011MW1051REMSYN098    AAXX  14094 42623 21395 70000 10194 20118 39220 40085 70526 84630 333 58001 82708 83616 86360;
0247426230999992000011415004+24770+093900FM-12+078199999V0209999C00001036001CN0020001N1+01441+01271101221ADDAA100000191AA212000191AY161031AY221031GA1011+002409079GA2031+005409069GF106991031041002501031001MA1999999092401MD1999999+0041MW1601REMSYN104    AAXX  14154 42623 21395 60000 10144 20127 39240 40122 76062 83430 333 58004 6991/ 81708 83618 85360;
0225426230999992000011418004+24770+093900FM-12+078199999V0209999C000012200019N0020001N1+01301+01121101251ADDAA100000191AA215000191AY121061AY211061GA1021+005409069GF104991021041004501031001MA1999999092361MD1999999-0021MW1051REMSYN098    AAXX  14184 42623 21495 40000 10130 20112 39236 40125 70521 82430 333 59002 6991/ 82618 83360;
0238426230999992000011503004+24770+093900FM-12+078199999V0209999C000012200019N0010001N1+01741+01261101321ADDAA100000191AA224000191AY121031AY221031GA1021+005409059GF103991021051004501031001KA1120N+00711MA1999999092571MD1999999+0001MW1101REMSYN098    AAXX  15034 42623 21494 30000 10174 20126 39257 40132 71022 82530 333 20071 58000 6991/ 82618;
0185426230999992000011506004+24770+093900FM-12+078199999V0202301N003112200019N0040001N1+02301+00721101051ADDAA199000091AY141061AY201061GF102991021051004501001001MA1999999092461MW1051REMSYN080    AAXX  15064 42623 31496 22306 10230 20072 39246 40105 70540 82500 333 58///;EQDQ01  00002PRCP99
0197426230999992000011509004+24770+093900FM-12+078199999V0202501N004112200019N0040001N1+02361+99999100851ADDAA199000091GA1001+999999999GF100991001001999999001001MA1999999092311MD1999999+0111REMSYN068    AAXX  15094 42623 32996 02508 10236 21056 39231 40085 333 58011;EQDQ01-000563ATOD  Q02  00002PRCP99
0200426230999992000011512004+24770+093900FM-12+078199999V0202301N002112200019N0040001N1+01701+01181101171ADDAA199000091GA1001+999999999GF100991001001999999001001KA1120M+02491MA1999999092411MD1999999+0241REMSYN074    AAXX  15124 42623 31996 02304 10170 20118 39241 40117 333 10249 58024;EQDQ01  00002PRCP99
0221426230999992000011515004+24770+093900FM-12+078199999V0209999C000012200019N0040001N1+01141+00571101421ADDAA199000091AY101031AY201031GA1011+005409059GF102991011041004501031001MA1999999092491MD1999999-0091MW1051REMSYN086    AAXX  15154 42623 31496 20000 10114 20057 39249 40142 70500 81430 333 59009 81618;EQDQ01  00002PRCP99
0227426230999992000011518004+24770+093900FM-12+078199999V0209999C000012200019N0040001N1+00841+00411101511ADDAA199000091AY101061AY201061GA1011+005409069GF103991011041004501031001MA1999999092481MD1999999+0121MW1051REMSYN092    AAXX  15184 42623 31496 30000 10084 20041 39248 40151 70500 81430 333 58012 81618 83360;EQDQ01  00002PRCP99
0227426230999992000011600004+24770+093900FM-12+078199999V0209999C00001036001CN0010001N1+00801+00591101771ADDAA199000091AY141061AY221061GA1031+005409069GF106991031041004501031001MA1999999092691MD1999999+0331MW1101REMSYN092    AAXX  16004 42623 31494 60000 10080 20059 39269 40177 71042 83430 333 58033 83618 85360;EQDQ01  00002PRCP99
0246426230999992000011603004+24770+093900FM-12+078199999V0209999C00001036001CN0020001N1+01181+00571101821ADDAA199000091AY141031AY201031GA1031+005409069GF105991031051004501031001KA1120N+00681MA1999999092851MD1999999+0281MW1051REMSYN098    AAXX  16034 42623 31495 50000 10118 20057 39285 40182 70540 83530 333 20068 58028 83618 84360;EQDQ01  00002PRCP99
0227426230999992000011606004+24770+093900FM-12+078199999V0209999C00001036001CN0020001N1+02101+00871101371ADDAA199000091AY141061AY221061GA1041+005409069GF106991041051004501031001MA1999999092701MD1999999+0241MW1051REMSYN092    AAXX  16064 42623 31495 60000 10210 20087 39270 40137 70542 84530 333 58024 84618 86360;EQDQ01  00002PRCP99
0227426230999992000011609004+24770+093900FM-12+078199999V0202301N00261036001CN0040001N1+02041+01101101141ADDAA199000091AY121031AY221031GA1031+005409069GF105991031051004501031001MA1999999092491MD1999999+0181MW1051REMSYN092    AAXX  16094 42623 31496 52305 10204 20110 39249 40114 70522 83530 333 58018 83618 84360;EQDQ01  00002PRCP99
0227426230999992000011615004+24770+093900FM-12+078199999V0209999C000012200019N0040001N1+01321+01031101431ADDAA199000091AY121031AY221031GA1021+005409069GF104991021051004501031001MA1999999092611MD1999999+0121MW1051REMSYN092    AAXX  16154 42623 31496 40000 10132 20103 39261 40143 70522 82530 333 58012 82618 83360;EQDQ01  00002PRCP99
0227426230999992000011618004+24770+093900FM-12+078199999V0209999C000012200019N0040001N1+01241+01021101511ADDAA199000091AY121061AY221061GA1021+005409069GF104991021051004501031001MA1999999092601MD1999999+0121MW1051REMSYN092    AAXX  16184 42623 31496 40000 10124 20102 39260 40151 70522 82530 333 58012 82618 83360;EQDQ01  00002PRCP99
0227426230999992000011700004+24770+093900FM-12+078199999V0209999C000012200019N0040001N1+01061+00951101571ADDAA199000091AY121061AY221061GA1021+005409069GF104991021051004501031001MA1999999092601MD1999999+0041MW1051REMSYN092    AAXX  17004 42623 31496 40000 10106 20095 39260 40157 70522 82530 333 58004 82618 83360;EQDQ01  00002PRCP99
0246426230999992000011703004+24770+093900FM-12+078199999V0200701N00101036001CN0010001N1+01381+01241101731ADDAA199000091AY141031AY241031GA1031+005409069GF105991031051004501031001KA1120N+00861MA1999999092841MD1999999-0011MW1101REMSYN098    AAXX  17034 42623 31494 50702 10138 20124 39284 40173 71044 83530 333 20086 59001 83618 84360;EQDQ01  00002PRCP99
0221426230999992000011706004+24770+093900FM-12+078199999V0202901N004112200019N0040001N1+02161+00771101321ADDAA199000091AY141061AY221061GA1031+005409059GF104991031051004501031001MA1999999092691MD1999999-0011MW1051REMSYN086    AAXX  17064 42623 31496 42908 10216 20077 39269 40132 70542 83530 333 59001 83618;EQDQ01  00002PRCP99
0209426230999992000011709004+24770+093900FM-12+078199999V0202701N005112200019N0040001N1+02201+00281100662ADDAA199000091GA1021+005409059GF102991021051004501001001MA1999999092451MD1999999-0041REMSYN080    AAXX  17094 42623 32496 22710 10220 20028 39245 40066 82500 333 59004 82618;EQDQ01+100663APOSLPQ02  00002PRCP99
0221426230999992000011718004+24770+093900FM-12+078199999V0209999C000012200019N0040001N1+00941+00661101741ADDAA199000091AY101061AY201061GA1011+005409059GF101991011051004501001001MA1999999092731MD1999999+0131MW1011REMSYN086    AAXX  17184 42623 31496 10000 10094 20066 39273 40174 70100 81500 333 58013 81618;EQDQ01  00002PRCP99
0221426230999992000011800004+24770+093900FM-12+078199999V0209999C000012200019N0005001N1+00441+00391101831ADDAA199000091AY141061AY201061GA1021+001809069GF102991021061001501001001MA1999999092651MD1999999+0031MW1461REMSYN086    AAXX  18004 42623 31293 20000 10044 20039 39265 40183 74640 82600 333 58003 82706;EQDQ01  00002PRCP99
0228426230999992000011803004+24770+093900FM-12+078199999V0209999C000012200019N0010001N1+01041+00721101891ADDAA199000091AY141031AY201031GA1001+999999999GF100991001001999999001001KA1120N+00361MA1999999092891MD1999999+0051MW1101REMSYN080    AAXX  18034 42623 31994 00000 10104 20072 39289 40189 71040 333 20036 58005;EQDQ01  00002PRCP99
0221426230999992000011806004+24770+093900FM-12+078199999V0209999C000012200019N0020001N1+01901+00691101331ADDAA199000091AY141061AY201061GA1011+005409059GF101991011051004501001001MA1999999092611MD1999999-0081MW1051REMSYN086    AAXX  18064 42623 31495 10000 10190 20069 39261 40133 70540 81500 333 59008 81618;EQDQ01  00002PRCP99
0181426230999992000011809004+24770+093900FM-12+078199999V0201801N001012200019N0040001N1+02201+00281100941ADDAA199000091GA1001+999999999GF100991001001999999001001MA1999999092341MD1999999-0111REMSYN068    AAXX  18094 42623 32996 01802 10220 20028 39234 40094 333 59011;EQDQ01  00002PRCP99
0200426230999992000011812004+24770+093900FM-12+078199999V0209999C000012200019N0040001N1+01501+00691101281ADDAA199000091GA1001+999999999GF100991001001999999001001KA1120M+02241MA1999999092451MD1999999-0101REMSYN074    AAXX  18124 42623 32996 00000 10150 20069 39245 40128 333 10224 59010;EQDQ01  00002PRCP99
0209426230999992000011815004+24770+093900FM-12+078199999V0209999C000012200019N0040001N1+01041+00451101651ADDAA199000091AY101031AY201031GA1001+999999999GF100991001001999999001001MA1999999092671MD1999999-0041MW1051REMSYN074    AAXX  18154 42623 31996 00000 10104 20045 39267 40165 70500 333 59004;EQDQ01  00002PRCP99
0209426230999992000011900004+24770+093900FM-12+078199999V0209999C000012200019N0020001N1+00401+00351101691ADDAA199000091AY141061AY201061GA1001+999999999GF100991001001999999001001MA1999999092491MD1999999-0161MW1101REMSYN074    AAXX  19004 42623 31995 00000 10040 20035 39249 40169 71040 333 59016;EQDQ01  00002PRCP99
0228426230999992000011903004+24770+093900FM-12+078199999V0209999C000012200019N0010001N1+01201+00691101561ADDAA199000091AY141031AY241031GA1001+999999999GF100991001001999999001001KA1120N+00381MA1999999092621MD1999999-0271MW1101REMSYN080    AAXX  19034 42623 31994 00000 10120 20069 39262 40156 71044 333 20038 59027;EQDQ01  00002PRCP99
0221426230999992000011906004+24770+093900FM-12+078199999V0209999C000012200019N0040001N1+02001+00781101031ADDAA199000091AY141061AY201061GA1011+005409059GF101991011051004501031001MA1999999092361MD1999999-0251MW1051REMSYN086    AAXX  19064 42623 31496 10000 10200 20078 39236 40103 70540 81530 333 59025 81618;EQDQ01  00002PRCP99
0246426230999992000011912004+24770+093900FM-12+078199999V0202301N002112200019N0040001N1+01761+00921100711ADDAA199000091AY121061AY221061GA1021+002409079GF104991041071002501001001KA1120M+02341MA1999999092021MD1999999-0431MW1051REMSYN098    AAXX  19124 42623 31396 42304 10176 20092 39202 40071 70522 84700 333 10234 59043 82708 83618;EQDQ01  00002PRCP99
0223426230999992000011915004+24770+093900FM-12+0781VEIM V0209999C000012200019N0040001N1+01161+00591101271ADDAA199000091AY121031AY221031GA1021+002409079GF104991041071002501001001MA1999999092271MD1999999-0181MW1051REMSYN088AAXX  19154 42623 31396 40000 10116 20059 39227 40127 70522 84700 333 59018 82708 83618;EQDQ01  00002PRCP99
0217426230999992000012000004+24770+093900FM-12+0781VEIM V0209999C000012200019N0020001N1+00801+00681101211ADDAA199000091AY101061AY201061GA1021+001809069GF102991021061001501001001MA1999999092181MD1999999-0311MW1101REMSYN082AAXX  20004 42623 31295 20000 10080 20068 39218 40121 71000 82600 333 59031 82706;EQDQ01  00002PRCP99
0236426230999992000012003004+24770+093900FM-12+0781VEIM V0209999C000012200019N0020001N1+01361+00991101201ADDAA199000091AY141031AY201031GA1021+005409059GF102991021051004501001001KA1120N+00581MA1999999092351MD1999999-0251MW1051REMSYN088AAXX  20034 42623 31495 20000 10136 20099 39235 40120 70540 82500 333 20058 59025 82618;EQDQ01  00002PRCP99
0217426230999992000012006004+24770+093900FM-12+0781VEIM V0202701N005110360019N0040001N1+01761+00691100921ADDAA199000091AY121061AY221061GA1031+005409059GF105991031051004501031001MA1999999092211MD1999999-0151MW1051REMSYN082AAXX  20064 42623 31496 52710 10176 20069 39221 40092 70522 83530 333 59015 83618;EQDQ01  00002PRCP99
0217426230999992000012009004+24770+093900FM-12+0781VEIM V0202501N002612200019N0040001N1+01841+00711100771ADDAA199000091AY141031AY201031GA1031+005409059GF103991031051004501001001MA1999999092161MD1999999+0061MW1051REMSYN082AAXX  20094 42623 31496 32505 10184 20071 39216 40077 70540 83500 333 58006 83618;EQDQ01  00002PRCP99
0175426230999992000012015004+24770+093900FM-12+0781VEIM V0209999C000012200019N0040001N1+01401+00701101301ADDAA199000091AY101031AY201031GF102991021051004501001001MA1999999092441MW1051REMSYN070AAXX  20154 42623 31496 20000 10140 20070 39244 40130 70500 82500 333;EQDQ01  00002PRCP99
0217426230999992000012018004+24770+093900FM-12+0781VEIM V0209999C000012200019N0040001N1+01361+00651101281ADDAA199000091AY101061AY201061GA1021+005409059GF103991021051004501031001MA1999999092421MD1999999+0121MW1051REMSYN082AAXX  20184 42623 31496 30000 10136 20065 39242 40128 70500 82530 333 58012 82618;EQDQ01  00002PRCP99
0245426230999992000012100004+24770+093900FM-12+0781VEIM V0209999C00001036001CN0040001N1+00941+00701101611ADDAA199000091AY121061AY221061GA1011+002409079GA2031+005409069GF106991041061002501031001MA1999999092601MD1999999+0421MW1051REMSYN094AAXX  21004 42623 31396 60000 10094 20070 39260 40161 70522 84630 333 58042 81708 83618 85360;EQDQ01  00002PRCP99
0236426230999992000012103004+24770+093900FM-12+0781VEIM V0209999C000012200019N0020001N1+01341+00761101781ADDAA199000091AY141031AY201031GA1021+005409059GF102991021051004501001001KA1120N+00621MA1999999092881MD1999999+0531MW1101REMSYN088AAXX  21034 42623 31495 20000 10134 20076 39288 40178 71040 82500 333 20062 58053 82618;EQDQ01  00002PRCP99
0217426230999992000012106004+24770+093900FM-12+0781VEIM V0201801N002612200019N0040001N1+02081+00841101401ADDAA199000091AY141061AY201061GA1021+006009059GF102991021051008001001001MA1999999092731MD1999999+0521MW1051REMSYN082AAXX  21064 42623 31596 21805 10208 20084 39273 40140 70540 82500 333 58052 82620;EQDQ01  00002PRCP99
0195426230999992000012109004+24770+093900FM-12+0781VEIM V0202701N00151036001CN0040001N1+02181+00591101151ADDAA199000091GA1031+006009069GF106991031051008001031001MA1999999092541MD1999999+0441REMSYN082AAXX  21094 42623 32596 62703 10218 20059 39254 40115 83530 333 58044 83620 85360;EQDQ01  00002PRCP99
0236426230999992000012112004+24770+093900FM-12+0781VEIM V0202701N001512200019N0040001N1+01641+00681101341ADDAA199000091AY121061AY201061GA1031+005409059GF104991031051004501031001KA1120M+02251MA1999999092591MD1999999+0421MW1051REMSYN088AAXX  21124 42623 31496 42703 10164 20068 39259 40134 70520 83530 333 10225 58042 83618;EQDQ01  00002PRCP99
0229426230999992000012118004+24770+093900FM-12+0781VEIM V02099999999992200019N0010001N1+99999+99999101661ADDAA100000391AA215000391AY161061AY251061GA1031+001809079GA2041+004809069GF199999061071001501021999MD1999999+0321MW1601REMSYN082AAXX  21184 42623 21294 39274 40166 76065 8672/ 333 58032 6993/ 83706 84616 87459;EQDQ01+000032SCOTCV
0240426230999992000012203004+24770+093900FM-12+0781VEIM V0209999C000012200019N0020001N1+01341+00721101771ADDAA100000791AA224999929AY141031AY201031GA1021+005409069GF104991021051004501031001KA1120N+00631MA1999999092871MD1999999-0011MW1051REMSYN100AAXX  22034 42623 21495 40000 10134 20072 39287 40177 70540 82530 333 20063 59001 6990/ 82618 83360;
0204426230999992000012206004+24770+093900FM-12+0781VEIM V0200901N00101036001CN0040001N1+02041+00841101291ADDAA199000021AY141061AY221061GA1031+006009069GF105991031051008001031001MA1999999092631MD1999999-0101MW1051REMSYN088AAXX  22064 42623 31596 50902 10204 20084 39263 40129 70542 83530 333 59010 83620 84360;
0195426230999992000012209004+24770+093900FM-12+0781VEIM V0201401N00211036001CN0040001N1+02181+00841101001ADDAA199000091GA1031+005409069GF107991031051004501031001MA1999999092391MD1999999-0151REMSYN082AAXX  22094 42623 31496 71404 10218 20084 39239 40100 83530 333 59015 83618 85360;EQDQ01  00002PRCP99
0259426230999992000012212004+24770+093900FM-12+0781VEIM V0209999C00001036001CN0040001N1+01701+01101101221ADDAA100000791AA209999999AY161061AY221061GA1031+005409069GF105991031051004501031001KA1120M+02241MA1999999092451MD1999999-0141MW1051REMSYN100AAXX  22124 42623 21496 50000 10170 20110 39245 40122 70562 83530 333 10224 59014 6990/ 83618 84360;EQDQ01  99992PRCP09
0240426230999992000012215004+24770+093900FM-12+0781VEIM V0209999C000012200019N0040001N1+01321+00911101511ADDAA100000791AA212999999AY121031AY211031GA1021+005409069GF104991021041004501031001MA1999999092641MD1999999-0091MW1051REMSYN094AAXX  22154 42623 21496 40000 10132 20091 39264 40151 70521 82430 333 59009 6990/ 82618 83360;EQDQ01  99992PRCP12
0223426230999992000012306004+24770+093900FM-12+0781VEIM V0201801N00261036001CN0020001N1+01781+01191101381ADDAA199000091AY141061AY221061GA1031+005409069GF107991041081004501031001MA1999999092631MD1999999+0001MW1051REMSYN088AAXX  23064 42623 31495 71805 10178 20119 39263 40138 70542 84830 333 58000 83618 86360;EQDQ01  00002PRCP99
0212426230999992000012309004+24770+093900FM-12+0781VEIM V0201801N00261036001CN0040001N1+01501+00951101321ADDAA100000791AA206999999GA1031+005409069GF107991031051004501051001MA1999999092491MD1999999+0101REMSYN088AAXX  23094 42623 22496 71805 10150 20095 39249 40132 83550 333 58010 6990/ 83618 87360;EQDQ01  99992PRCP06
0253426230999992000012312004+24770+093900FM-12+0781VEIM V0209999C000010054019N0040001N1+01381+00931101451ADDAA100000791AA209999999GA1021+002409079GA2031+005409069GF107991051071002501031001KA1120M+01841MA1999999092581MD1999999+0131REMSYN100AAXX  23124 42623 22396 70000 10138 20093 39258 40145 85730 333 10184 58013 6990/ 82708 83618 86360;EQDQ01  99992PRCP09
0243426230999992000012400004+24770+093900FM-12+0781VEIM V0209999C000010048019N0020001N1+01041+00961101821ADDAA100002091AA221002091AY121061AY221061GA1021+001809079GA2031+004809069GF107991051071001501021001MA1999999092821MD1999999+0221MW1051REMSYN100AAXX  24004 42623 21295 70000 10104 20096 39282 40182 70522 85720 333 58022 6002/ 82706 83616 87459;
0262426230999992000012403004+24770+093900FM-12+0781VEIM V0209999C000010048019N0020001N1+01161+01091102011ADDAA100002091AA224002091AY151031AY211031GA1031+002409079GA2041+004809069GF108991061071002501021999KA1120N+00961MA1999999093031MD1999999+0261MW1101REMSYN106AAXX  24034 42623 21395 80000 10116 20109 39303 40201 71051 8672/ 333 20096 58026 6002/ 83708 84616 88459;
0243426230999992000012406004+24770+093900FM-12+0781VEIM V0209999C000010048019N0020001N1+01301+01121101911ADDAA100000891AA203000891AY161061AY251061GA1031+002409079GA2051+004809069GF108991061071002501021999MA1999999092961MD1999999+0331MW1601REMSYN100AAXX  24064 42623 21395 80000 10130 20112 39296 40191 76065 8672/ 333 58033 6998/ 83708 85616 88459;
0243426230999992000012409004+24770+093900FM-12+0781VEIM V0209999C000010054019N0040001N1+01501+01151101591ADDAA100001092AA206000992AY161031AY251031GA1021+002409079GA2041+005409069GF107991051071002501021001MA1999999092741MD1999999+0251MW1051REMSYN100AAXX  24094 42623 21396 70000 10150 20115 39274 40159 70565 85720 333 58025 6999/ 82708 84618 87400;
0240426230999992000012412004+24770+093900FM-12+0781VEIM V0209999C000012200019N0040001N1+01301+01121101711ADDAA100001092AA209000992AY101061AY221061GA1011+002409079GF103991031051002501031001KA1120M+01551MA1999999092781MD1999999+0201MW1051REMSYN100AAXX  24124 42623 21396 30000 10130 20112 39278 40171 70502 83530 333 10155 58020 6999/ 81708 83618;
0187426230999992000012415004+24770+093900FM-12+0781VEIM V0209999C000012200019N0002001N1+00941+00901101961ADDAY121031AY221031GA1021+001209069GF103991031051001501001001MA1999999092931MD1999999+0181MW1461REMSYN082AAXX  24154 42623 21292 30000 10094 20090 39293 40196 74622 83500 333 58018 82704;
0215426230999992000012418004+24770+093900FM-12+0781VEIM V0209999C000012200019N0002001N1+00881+00841102051ADDAA100001092AA215000992AY121061AY221061GA1021+001209069GF103991031051001501001001MA1999999092971MD1999999+0151MW1461REMSYN088AAXX  24184 42623 21292 30000 10088 20084 39297 40205 74622 83500 333 58015 6999/ 82704;
0243426230999992000012500004+24770+093900FM-12+0781VEIM V0209999C00001036001CN0005001N1+01081+01011101921ADDAA100001092AA221000992AY121061AY221061GA1011+002409079GA2031+005409069GF106991031071002501031001MA1999999092961MD1999999+0141MW1101REMSYN100AAXX  25004 42623 21393 60000 10108 20101 39296 40192 71022 83730 333 58014 6999/ 81708 83618 86360;
0189426230999992000012509004+24770+093900FM-12+0781VEIM V0209999C000012200019N0040001N1+02001+01091101481ADDAA199000091GA1021+005409059GF102991021051004501001001MA1999999092781MD1999999+0041REMSYN076AAXX  25094 42623 32496 20000 10200 20109 39278 40148 82500 333 58004 82618;EQDQ01  00002PRCP99
0208426230999992000012512004+24770+093900FM-12+0781VEIM V0209999C000012200019N0040001N1+01621+01051101661ADDAA199000091GA1021+005409059GF102991021051004501001001KA1120M+02061MA1999999092851MD1999999+0071REMSYN082AAXX  25124 42623 32496 20000 10162 20105 39285 40166 82500 333 10206 58007 82618;EQDQ01  00002PRCP99
0217426230999992000012515004+24770+093900FM-12+0781VEIM V0209999C000012200019N0040001N1+01121+00851101981ADDAA199000091AY101031AY201031GA1021+005409059GF102991021051004501001001MA1999999093001MD1999999+0071MW1051REMSYN082AAXX  25154 42623 31496 20000 10112 20085 39300 40198 70500 82500 333 58007 82618;EQDQ01  00002PRCP99
0230426230999992000012603004+24770+093900FM-12+0781VEIM V0209999C000010003019N0002001N1+00921+00801102251ADDAA199000091AY141031AY241031GA1091+999999999GF109991091999999999999999KA1120N+00361MA1999999093191MD1999999-0021MW1451REMSYN082AAXX  26034 42623 31/92 90000 10092 20080 39319 40225 74544 89/// 333 20036 59002;EQDQ01  00002PRCP99
0163426230999992000012612004+24770+093900FM-12+0781VEIM V0209999C000012200019N0040001N1+01801+99999999999ADDAA199000091GA1001+999999999GF100991001001999999001001KA1120M+02341MD1999999-0181REMSYN052AAXX  26124 42623 32996 00000 10180 333 10234 59018;EQDQ01  00002PRCP99
0205426230999992000012618004+24770+093900FM-12+0781VEIM V0209999C000012200019N0040001N1+00941+00741102001ADDAA199000091AY101061AY201061GA1001+999999999GF100991001001999999001001MA1999999092961MD1999999-0041MW1051REMSYN070AAXX  26184 42623 31496 00000 10094 20074 39296 40200 70500 333 59004;EQDQ01  00002PRCP99
0217426230999992000012800004+24770+093900FM-12+0781VEIM V0209999C000012200019N0020001N1+00581+00451101881ADDAA199000091AY101061AY201061GA1011+001809069GF101991011071001501001001MA1999999092731MD1999999-0091MW1051REMSYN082AAXX  28004 42623 31295 10000 10058 20045 39273 40188 70500 81700 333 59009 81706;EQDQ01  00002PRCP99
0236426230999992000012803004+24770+093900FM-12+0781VEIM V0209999C000012200019N0020001N1+01241+00691101871ADDAA199000091AY101031AY201031GA1011+005409059GF101991011051004501001001KA1120N+00481MA1999999092931MD1999999-0051MW1051REMSYN088AAXX  28034 42623 31495 10000 10124 20069 39293 40187 70500 81500 333 20048 59005 81618;EQDQ01  00002PRCP99
0223426230999992000012818004+24770+093900FM-12+0781VEIM V0209999C000010360019N0040001N1+01001+00721101691ADDAA199000091AY101061AY201061GA1011+002409079GF105991031061002501031001MA1999999092681MD1999999-0051MW1051REMSYN088AAXX  28184 42623 32396 50000 10100 20072 39268 40169 70500 83630 333 59005 81708 83618;EQDQ01  00002PRCP99
0245426230999992000012821004+24770+093900FM-12+0781VEIM V0209999C00001005401CN0040001N1+00941+00741101611ADDAA199000091AY101031AY201031GA1021+002409079GA2031+005409069GF106991041071002501031001MA1999999092601MD1999999-0041MW1051REMSYN094AAXX  28214 42623 31396 60000 10094 20074 39260 40161 70500 84730 333 59004 82708 83618 85360;EQDQ01  00002PRCP99
0243426230999992000012900004+24770+093900FM-12+0781VEIM V0209999C000010054019N0020001N1+00861+00781101731ADDAA100000892AA221000792AY121061AY221061GA1021+002409079GA2041+005409069GF108991051071002501031999MA1999999092681MD1999999-0051MW1611REMSYN100AAXX  29004 42623 21395 80000 10086 20078 39268 40173 76122 8573/ 333 59005 6997/ 82708 84618 88459;
0257426230999992000012903004+24770+093900FM-12+0781VEIM V0200201N002610048019N0020001N1+01081+99999999999ADDAA100006192AA224006092AY161031AY261031GA1021+002409079GA2041+004809069GA3011+007509099GF108991051071002501021999KA1120N+00651MD1999999+0031MW1601REMSYN100AAXX  29034 42623 21395 80205 10108 2/401 76066 8572/ 333 20065 58003 6006/ 82708 84616 81925 88459;
0265426230999992000012906004+24770+093900FM-12+0781VEIM V0203601N001510054019N0040001N1+01201+00901101801ADDAA100000892AA203000792AY161061AY231061GA1021+002409079GA2041+005409069GA3011+009009099GF108991061031002501021999MA1999999092841MD1999999+0091MW1201REMSYN106AAXX  29064 42623 21396 83603 10120 20090 39284 40180 72063 8632/ 333 58009 6997/ 82708 84618 81930 88459;
0265426230999992000012909004+24770+093900FM-12+0781VEIM V0209999C000010054019N0040001N1+01061+00951101551ADDAA100006192AA206006092AY191031AY211031GA1021+002409079GA2041+005409069GA3011+009009099GF108991061031002501021001MA1999999092581MD1999999+0031MW1951REMSYN106AAXX  29094 42623 21396 80000 10106 20095 39258 40155 79591 86320 333 58003 6006/ 82708 84618 81930 88459;
0212426230999992000012912004+24770+093900FM-12+0781VEIM V0200501N00211001201CN0020001N1+01021+00941101631ADDAY191061AY261061GA1031+001809079GF107991061071001501021001KA1120M+01231MA1999999092651MD1999999+0091MW1611REMSYN094AAXX  29124 42623 21295 70504 10102 20094 39265 40163 76196 86720 333 10123 58009 83706 85616;
0217426230999992000013003004+24770+093900FM-12+0781VEIM V0209999C000010003019N0002001N1+00761+00721102131ADDAA100017091AY141031AY241031GA1091+999999999GF109991091999999999999999KA1120N+00461MA1999999093021MD1999999+0061MW1451REMSYN088AAXX  30034 42623 21/92 90000 10076 20072 39302 40213 74544 89/// 333 20046 58006 6017/;
0196426230999992000013015004+24770+093900FM-12+0781VEIM V0209999C000012200019N0040001N1+00921+00801101881ADDAA199000091AY101031AY201031GA1011+005409059GF101991011041004501031001MD1999999+0181MW1051REMSYN076AAXX  30154 42623 31496 10000 10092 20080 40188 70500 81430 333 58018 81618;EQDQ01  00002PRCP99
0186426230999992000013100004+24770+093900FM-12+0781VEIM V0209999C000010001519N0001001N1+00361+00311102331ADDAA199000021AY141061AY201061GA1091+999999999GF109991091999999999999999MA1999999103071MD1999999+0271MW1911REMSYN070AAXX  31004 42623 31991 90000 10036 20031 30307 40233 79140 333 58027;
0205426230999992000013103004+24770+093900FM-12+0781VEIM V0209999C000010001519N0001001N1+00701+00701102401ADDAA199000021AY141031AY241031GA1091+999999999GF109991091999999999999999KA1120N+00301MA1999999093231MD1999999+0211MW1451REMSYN076AAXX  31034 42623 31/91 90000 10070 20070 39323 40240 74544 333 20030 58021;
0170426230999992000013106004+24770+093900FM-12+0781VEIM V0209999C000012200019N0040001N1+01681+00821101921ADDAA199000021GA1021+006009059GF102991021051008001001001MA1999999093091MD1999999+0211REMSYN076AAXX  31064 42623 32596 20000 10168 20082 39309 40192 82500 333 58021 82620;
0189426230999992000013112004+24770+093900FM-12+0781VEIM V0201401N002112200019N0040001N1+01441+00881101601ADDAA199000021GA1021+005409059GF102991021051004501001001KA1120M+02101MA1999999092751MD1999999-0031REMSYN082AAXX  31124 42623 32496 21404 10144 20088 39275 40160 82500 333 10210 59003 82618;
0245426230999992000020100004+24770+093900FM-12+0781VEIM V0209999C000010360019N0020001N1+00861+00781102001ADDAA199000091AY121061AY221061GA1021+002409079GA2041+005409069GF106991041071002501031001MA1999999092931MD1999999-0141MW1101REMSYN094AAXX  01004 42623 31395 60000 10086 20078 39293 40200 71022 84730 333 59014 82708 84618 86311;EQDQ01  00002PRCP99
0242426230999992000020103004+24770+093900FM-12+0781VEIM V0209999C000012200019N0020001N1+01421+00811101891ADDAA199000091AY121031AY221031GA1021+005409069GF104991021051004501031001KA1120N+00711MA1999999093011MD1999999-0221MW1051REMSYN094AAXX  01034 42623 31495 40000 10142 20081 39301 40189 70522 82530 333 20071 59022 82618 83360;EQDQ01  00002PRCP99
0217426230999992000020115004+24770+093900FM-12+0781VEIM V0209999C000012200019N0040001N1+01341+01051101581ADDAA199000091AY101031AY201031GA1021+005409059GF103991021051004501031001MA1999999092711MD1999999-0251MW1051REMSYN082AAXX  01154 42623 31496 30000 10134 20105 39271 40158 70500 82530 333 59025 82618;EQDQ01  00002PRCP99
0242426230999992000020203004+24770+093900FM-12+0781VEIM V0209999C000012200019N0020001N1+01441+01001101841ADDAA199000091AY141031AY221031GA1021+005409069GF104991021051004501031001KA1120N+00751MA1999999092961MD1999999-0051MW1051REMSYN094AAXX  02034 42623 31495 40000 10144 20100 39296 40184 70542 82530 333 20075 59005 82618 84360;EQDQ01  00002PRCP99
0223426230999992000020206004+24770+093900FM-12+0781VEIM V0209999C00001036001CN0040001N1+01901+01011101551ADDAA199000091AY141061AY221061GA1031+005409069GF106991031051004501031001MA1999999092811MD1999999-0021MW1051REMSYN088AAXX  02064 42623 31496 60000 10190 20101 39281 40155 70542 83530 333 59002 83618 86360;EQDQ01  00002PRCP99
0265426230999992000020306004+24770+093900FM-12+0781VEIM V0202701N001510054019N0040001N1+01541+01191101671ADDAA100000591AA203000591AY161061AY211061GA1021+002409079GA2041+005409069GA3011+009009099GF108991061031002501021999MA1999999092841MD1999999+0031MW1601REMSYN106AAXX  03064 42623 21396 82703 10154 20119 39284 40167 76061 8632/ 333 58003 6995/ 82708 84618 81930 88459;
0234426230999992000020312004+24770+093900FM-12+0781VEIM V0209999C000010360019N0040001N1+01521+01241101451ADDAA100000591AA209000691GA1011+002409079GA2031+005409069GF106991041031002501031001KA1120M+01871MA1999999092641MD1999999+0091REMSYN100AAXX  03124 42623 22396 60000 10152 20124 39264 40145 84330 333 10187 58009 6996/ 81708 83618 81930;
0262426230999992000020403004+24770+093900FM-12+0781VEIM V0209999C00001005401CN0020001N1+01501+01291101641ADDAA100002091AA224002091AY121031AY221031GA1021+002409079GA2031+005409069GF106991041071002501031001KA1120N+01141MA1999999092781MD1999999-0151MW1051REMSYN106AAXX  04034 42623 21395 60000 10150 20129 39278 40164 70522 84730 333 20114 59015 6002/ 82708 83618 86360;
0262426230999992000020409004+24770+093900FM-12+0781VEIM V0200201N001510054019N0040001N1+01981+01341101061ADDAA100000791AA206999999AY151031AY221031GA1021+002409079GA2041+005409069GF106991051071002501031001MA1999999092391MD1999999-0211MW1051REMSYN100AAXX  04094 42623 31396 60203 10198 20134 39239 40106 70552 85730 333 59021 6990/ 82708 84618 86360;EQDQ01  99992PRCP06
0262426230999992000020421004+24770+093900FM-12+0781VEIM V0209999C00001005401CN0040001N1+01261+01121101421ADDAA100000791AA218999999AY121031AY221031GA1021+002409079GA2031+005409069GF106991041071002501021001MA1999999092521MD1999999-0041MW1051REMSYN100AAXX  04214 42623 21396 60000 10126 20112 39252 40142 70522 84720 333 59004 6990/ 82708 83618 86459;EQDQ01  99992PRCP18
0245426230999992000020506004+24770+093900FM-12+0781VEIM V0209999C000010054019N0020001N1+01781+01381101391ADDAA199000091AY121061AY221061GA1031+002409079GA2041+005409069GF107991051071002501021001MA1999999092641MD1999999+0011MW1051REMSYN094AAXX  05064 42623 31395 70000 10178 20138 39264 40139 70522 85720 333 58001 83708 84618 87460;EQDQ01  00002PRCP99
0262426230999992000020512004+24770+093900FM-12+0781VEIM V0201801N002610054019N0040001N1+01601+01431101281ADDAA100000791AA209999929AY161061AY221061GA1021+002409079GA2051+005409069GF108991051071002501021999KA1120M+02011MA1999999092491MD1999999+0071MW1211REMSYN106AAXX  05124 42623 21396 81805 10160 20143 39249 40128 72162 8572/ 333 10201 58007 6990/ 82708 85618 88460;
0265426230999992000020721004+24770+093900FM-12+0781VEIM V0209999C000010054019N0040001N1+01141+00991101251ADDAA100004192AA218004092AY191031AY261031GA1021+002409079GA2041+005409069GA3011+009009099GF108991051031002501021999MA1999999092341MD1999999-0201MW1131REMSYN106AAXX  07214 42623 21396 80000 10114 20099 39234 40125 71396 8532/ 333 59020 6004/ 82708 84618 81930 88460;
0195426230999992000020809004+24770+093900FM-12+0781VEIM V0202301N001512200019N0040001N1+02161+01081100861ADDAA199000091GA1021+006009069GF104991041081008001001001MA1999999092261MD1999999-0041REMSYN082AAXX  08094 42623 32596 42303 10216 20108 39226 40086 84800 333 59004 82620 83825;EQDQ01  00002PRCP99
0195426230999992000020812004+24770+093900FM-12+0781VEIM V0209999C000012200019N0040001N1+01741+01101101011ADDAA199000091GA1021+008409059GF102991021051008001001001MA1999999092291MD1999999+0051REMSYN082AAXX  08124 42623 32596 20000 10174 20110 39229 40101 82500 333 1/224 58005 82628;EQDQ01  00002PRCP99
0189426230999992000020906004+24770+093900FM-12+0781VEIM V0202301N002612200019N0040001N1+02101+00921101101ADDAA199000091GA1011+006009059GF101991011051008001001001MA1999999092451MD1999999-0071REMSYN076AAXX  09064 42623 32596 12305 10210 20092 39245 40110 81500 333 59007 81620;EQDQ01  00002PRCP99
0189426230999992000020909004+24770+093900FM-12+0781VEIM V0202901N005112200019N0040001N1+02121+00261100801ADDAA199000091GA1021+006009059GF102991021051008001001001MA1999999092211MD1999999-0051REMSYN076AAXX  09094 42623 32596 22910 10212 20026 39221 40080 82500 333 59005 82620;EQDQ01  00002PRCP99
0223426230999992000021000004+24770+093900FM-12+0781VEIM V0209999C000012200019N0040001N1+00641+00561101681ADDAA199000091AY101061AY201061GA1031+005409069GF104991031051004501031001MA1999999092571MD1999999+0131MW1051REMSYN088AAXX  10004 42623 31496 40000 10064 20056 39257 40168 70500 83530 333 58013 83618 83360;EQDQ01  00002PRCP99
0236426230999992000021003004+24770+093900FM-12+0781VEIM V0203601N001012200019N0040001N1+01201+00601101721ADDAA199000091AY121031AY201031GA1011+005409059GF101991011051004501001001KA1120N+00581MA1999999092761MD1999999+0161MW1051REMSYN088AAXX  10034 42623 31496 13602 10120 20060 39276 40172 70520 81500 333 20058 58016 81618;EQDQ01  00002PRCP99
0168426230999992000021006004+24770+093900FM-12+0781VEIM V0209999C000012200019N0040001N1+01941+00651101311ADDAA199000091GA1011+005409059GF101991011051004501001001MD1999999+0171REMSYN070AAXX  10064 42623 31496 10000 10194 20065 40131 81500 333 58017 81618;EQDQ01  00002PRCP99
0189426230999992000021009004+24770+093900FM-12+0781VEIM V0203201N002112200019N0040001N1+02101+00471100991ADDAA199000091GA1011+005409059GF101991011051004501001001MA1999999092381MD1999999+0171REMSYN076AAXX  10094 42623 32496 13204 1021/ 20047 39238 40099 81500 333 58017 81618;EQDQ01  00002PRCP99
0217426230999992000021100004+24770+093900FM-12+0781VEIM V0209999C000012200019N0010001N1+00441+00391101741ADDAA199000091AY101061AY201061GA1011+002409069GF101991011061002501001001MA1999999092571MD1999999+0001MW1101REMSYN082AAXX  11004 42623 31394 10000 10044 20039 39257 40174 71000 81600 333 58000 81708;EQDQ01  00002PRCP99
0234426230999992000021103004+24770+093900FM-12+0781VEIM V0209999C000012200019N0020001N1+01261+00621101691ADDAA199000091AY121031AY221031GA1001+999999999GF100991001001999999001001KA1120N+00381MA1999999092761MD1999999+0001MW1051REMSYN086AAXX  11034 42623 31995 00000 10126 20062 39276 40169 70522 333 20038 58000 555 10040;EQDQ01  00002PRCP99
0177426230999992000021106004+24770+093900FM-12+0781VEIM V0209999C000012200019N0040001N1+02001+00581101281ADDAA199000091GA1001+999999999GF100991001001999999001001MA1999999092591MD1999999-0031REMSYN064AAXX  11064 42623 32996 00000 10200 20058 39259 40128 333 59003;EQDQ01  00002PRCP99
0205426230999992000021115004+24770+093900FM-12+0781VEIM V0209999C000012200019N0040001N1+01161+00731101481ADDAA199000091AY101031AY201031GA1001+999999999GF100991001001999999001001MA1999999092551MD1999999-0041MW1051REMSYN070AAXX  11154 42623 31996 00000 10116 20073 39255 40148 70500 333 59004;EQDQ01  00002PRCP99
0205426230999992000021118004+24770+093900FM-12+0781VEIM V0209999C000012200019N0040001N1+00881+00631101571ADDAA199000091AY101061AY201061GA1001+999999999GF100991001001999999001001MA1999999092541MD1999999-0061MW1051REMSYN070AAXX  11184 42623 31996 00000 10088 20063 39254 40157 70500 333 59006;EQDQ01  00002PRCP99
0205426230999992000021121004+24770+093900FM-12+0781VEIM V0209999C000012200019N0040001N1+00781+00611101581ADDAA199000091AY101031AY201031GA1001+999999999GF100991001001999999001001MA1999999092521MD1999999+0021MW1051REMSYN070AAXX  11214 42623 31996 00000 10078 20061 39252 40158 70500 333 58002;EQDQ01  00002PRCP99
0217426230999992000021200004+24770+093900FM-12+0781VEIM V0209999C000012200019N0020001N1+00741+00621101581ADDAA199000091AY141061AY201061GA1011+005409059GF101991011041004501001001MA1999999092521MD1999999+0031MW1101REMSYN082AAXX  12004 42623 31495 10000 10074 20062 39252 40158 71040 81400 333 58003 81618;EQDQ01  00002PRCP99
0195426230999992000021206004+24770+093900FM-12+0781VEIM V0202001N00151036001CN0040001N1+02061+00671101301ADDAA199000091GA1031+005409069GF107991031051004501031001MA1999999092641MD1999999+0051REMSYN082AAXX  12064 42623 32496 72003 10206 20067 39264 40130 83530 333 58005 83618 86360;EQDQ01  00002PRCP99
0217426230999992000021209004+24770+093900FM-12+0781VEIM V0202301N00151036001CN0040001N1+02201+00621101051ADDAA199000091GA1011+003009079GA2031+005409069GF107991041071004501051001MA1999999092441MD1999999+0061REMSYN088AAXX  12094 42623 32496 72303 10220 20062 39244 40105 84750 333 58006 81710 83618 86360;EQDQ01  00002PRCP99
0236426230999992000021212004+24770+093900FM-12+0781VEIM V0209999C000010054019N0040001N1+01841+00981101141ADDAA199000091GA1021+002409079GA2031+005409069GF107991051071002501031001KA1120M+02361MA1999999092431MD1999999+0091REMSYN094AAXX  12124 42623 32396 70000 10184 20098 39243 40114 85730 333 10236 58009 82708 83618 86360;EQDQ01  00002PRCP99
0236426230999992000021303004+24770+093900FM-12+0781VEIM V0209999C000012200019N0020001N1+01541+00831101501ADDAA199000091AY121031AY221031GA1011+030009079GF101991011001999999031001KA1120N+00681MA1999999092681MD1999999-0081MW1051REMSYN088AAXX  13034 42623 31995 10000 10154 20083 39268 40150 70522 81030 333 20068 59008 81360;EQDQ01  00002PRCP99
0189426230999992000021309004+24770+093900FM-12+0781VEIM V0202701N003112200019N0040001N1+02381+00641100851ADDAA199000091GA1011+006009059GF101991011051008001001001MA1999999092311MD1999999-0131REMSYN076AAXX  13094 42623 32596 12706 10238 20064 39231 40085 81500 333 59013 81620;EQDQ01  00002PRCP99
0214426230999992000021312004+24770+093900FM-12+0781VEIM V0209999C000012200019N0040001N1+02001+00781101041ADDAA199000091GA1011+005409069GF103991011051004501031001KA1120M+02511MA1999999092371MD1999999-0061REMSYN088AAXX  13124 42623 32496 30000 10200 20078 39237 40104 81530 333 10251 59006 81618 83360;EQDQ01  00002PRCP99
0195426230999992000021315004+24770+093900FM-12+0781VEIM V0209999C000012200019N0040001N1+01601+00721101341ADDAA199000091GA1011+005409069GF103991011051004501031001MA1999999092551MD1999999+0001REMSYN082AAXX  13154 42623 32496 30000 10160 20072 39255 40134 81530 333 58000 81618 83360;EQDQ01  00002PRCP99
0242426230999992000021403004+24770+093900FM-12+0781VEIM V0209999C00001036001CN0040001N1+01421+00681101571ADDAA199000091AY121031AY201031GA1031+005409069GF106991031051004501031001KA1120N+00711MA1999999092721MD1999999+0041MW1051REMSYN094AAXX  14034 42623 31496 60000 10142 20068 39272 40157 70520 83530 333 20071 58004 83618 86360;EQDQ01  00002PRCP99
0202426230999992000021406004+24770+093900FM-12+0781VEIM V0209999C00001036001CN0040001N1+02141+00881101211ADDAA199000091AY121061AY221061GA1031+005409069GF107991031051004501031001MD1999999+0041MW1051REMSYN082AAXX  14064 42623 31496 70000 10214 20088 40121 70522 83530 333 58004 83618 86360;EQDQ01  00002PRCP99
0203426230999992000021409004+24770+093900FM-12+0781VEIM V0209999C000010054019N0040001N1+02241+00971100971ADDAA199000091GA1021+002409079GA2031+005409069GF107991051071002501031001MA1999999092391REMSYN088AAXX  14094 42623 32396 70000 10224 20097 39239 40097 85730 333 58//8 82708 83618 86360;EQDQ01  00002PRCP99
0242426230999992000021412004+24770+093900FM-12+0781VEIM V0209999C00001036001CN0040001N1+01961+00911101071ADDAA199000091AY121061AY221061GA1041+005409069GF106991041051004501031001KA1120M+02361MA1999999092401MD1999999+0031MW1051REMSYN094AAXX  14124 42623 31496 60000 10196 20091 39240 40107 70522 84530 333 10236 58003 84618 86360;EQDQ01  00002PRCP99
0217426230999992000021600004+24770+093900FM-12+0781VEIM V0209999C000012200019N0020001N1+00601+00511101711ADDAA199000091AY141061AY201061GA1011+005409059GF101991011041004501001001MA1999999092571MD1999999+0081MW1101REMSYN082AAXX  16004 42623 31495 10000 10060 20051 39257 40171 71040 81400 333 58008 81618;EQDQ01  00002PRCP99
0205426230999992000021606004+24770+093900FM-12+0781VEIM V0209999C000012200019N0040001N1+02121+00661101161ADDAA199000091AY141061AY201061GA1001+999999999GF100991001001999999001001MA1999999092551MD1999999+0031MW1051REMSYN070AAXX  16064 42623 31996 00000 10212 20066 39255 40116 70540 333 58003;EQDQ01  00002PRCP99
0217426230999992000021621004+24770+093900FM-12+0781VEIM V0209999C000012200019N0040001N1+00881+00591101311ADDAA199000091AY101031AY201031GA1011+005409059GF101991011051004501001001MA1999999092301MD1999999-0241MW1051REMSYN082AAXX  16214 42623 31496 10000 10088 20059 39230 40131 70500 81500 333 59024 81618;EQDQ01  00002PRCP99
0214426230999992000021712004+24770+093900FM-12+0781VEIM V0209999C00001036001CN0040001N1+01901+00641100601ADDAA199000091GA1011+006009069GF105991011051008001031001KA1120M+02471MA1999999091951MD1999999-0201REMSYN088AAXX  17124 42623 32596 50000 10190 20064 39195 40060 81530 333 10247 59020 81620 85360;EQDQ01  00002PRCP99
0262426230999992000021803004+24770+093900FM-12+0781VEIM V0209999C000010054019N0020001N1+01301+00801101381ADDAA100000791AA224999929AY161031AY221031GA1021+002409079GA2041+005409069GF107991051071002501021001KA1120N+01021MA1999999092481MD1999999-0011MW1601REMSYN106AAXX  18034 42623 21395 70000 10130 20080 39248 40138 76062 85720 333 20102 59001 6990/ 82708 84618 87460;
0226426230999992000021806004+24770+093900FM-12+0781VEIM V02099999999990054019N0020001N1+99999+99999999999ADDAA199000021AY161061AY221061GA1021+002409079GA2041+005409069GF107991051071002501091001MA1999999092391MD1999999+0111MW1051REMSYN094AAXX  18064 42623 31395 716// 1//11 20083 39239 4/106 70562 85790 333 58011 82708 84618 87360;
0245426230999992000021812004+24770+093900FM-12+0781VEIM V0209999C00001005401CN0040001N1+01641+00581101001ADDAA199000021AY121061AY221061GA1021+002409079GA2031+005409069GF107991041071002501031001KA1120M+02061MA1999999092251MD1999999+0301MW1051REMSYN100AAXX  18124 42623 31396 70000 10164 20058 39225 40100 70522 84730 333 10206 58030 82708 83618 86360;
0217426230999992000022000004+24770+093900FM-12+0781VEIM V0209999C000012200019N0020001N1+00901+00661101381ADDAA199000091AY141061AY221061GA1021+005409059GF103991021041004501031001MA1999999092361MD1999999-0101MW1101REMSYN082AAXX  20004 42623 31495 30000 10090 20066 39236 40138 71042 82430 333 59010 82618;EQDQ01  00002PRCP99
0224426230999992000022003004+24770+093900FM-12+0781VEIM V0209999C000012200019N0020001N1+01561+00721101381ADDAA199000091AY121031AY221031GA1001+999999999GF100991001001999999001001KA1120N+00781MA1999999092571MD1999999-0021MW1051REMSYN076AAXX  20034 42623 31995 00000 10156 20072 39257 40138 70522 333 20078 59002;EQDQ01  00002PRCP99
0217426230999992000022006004+24770+093900FM-12+0781VEIM V0201601N002612200019N0040001N1+02201+00671101011ADDAA199000091AY141061AY201061GA1021+006009059GF102991021051008001001001MA1999999092401MD1999999-0041MW1051REMSYN082AAXX  20064 42623 31596 21605 10220 20067 39240 40101 70540 82500 333 59004 82620;EQDQ01  00002PRCP99
0208426230999992000022012004+24770+093900FM-12+0781VEIM V0202701N001512200019N0040001N1+01701+00461100981ADDAA199000091GA1021+005409059GF103991021051004501031001KA1120M+02281MA1999999092231MD1999999+0041REMSYN082AAXX  20124 42623 32496 32703 10170 20046 39223 40098 82530 333 10228 58004 82618;EQDQ01  00002PRCP99
0203426230999992000022100004+24770+093900FM-12+0781VEIM V0209999C000012200019N0020001N1+00561+99999101741ADDAA199000091AY101061AY201061GA1021+005409059GF102991021999004501001001MA1999999092601MW1051REMSYN082AAXX  21004 42623 31495 20000 10056 20843 39260 40174 70500 82/00 333 5824/ 82618;EQDQ01  00002PRCP99
0195426230999992000022106004+24770+093900FM-12+0781VEIM V0209999C00001036001CN0040001N1+01821+00531101431ADDAA199000091GA1031+005409069GF107991031051004501031001MA1999999092701MD1999999+0301REMSYN082AAXX  21064 42623 32496 70000 10182 20053 39270 40143 83530 333 58030 83618 86360;EQDQ01  00002PRCP99
0236426230999992000022112004+24770+093900FM-12+0781VEIM V0209999C000010054019N0040001N1+01601+00311101261ADDAA199000091GA1011+002409079GA2041+005409069GF108991051071002501021999KA1120M+01981MA1999999092461MD1999999+0231REMSYN094AAXX  21124 42623 32396 80000 10160 20031 39246 40126 8572/ 333 10198 58023 81708 84618 88459;EQDQ01  00002PRCP99
0143426230999992000022115004+24770+093900FM-12+0781VEIM V0209999C000010021019N0040001N1+01461+00441101401ADDAA199000091GF108991051071002501021999MA1999999092561REMSYN060AAXX  21154 42623 32396 80000 10146 20044 39256 40140 8572/;EQDQ01  00002PRCP99
0245426230999992000022121004+24770+093900FM-12+0781VEIM V0209999C00001036001CN0040001N1+00861+00701101611ADDAA199000091AY101031AY201031GA1011+002409079GA2031+005409069GF105991031061002501031001MA1999999092571MD1999999+0111MW1051REMSYN094AAXX  21214 42623 31396 50000 10086 20070 39257 40161 70500 83630 333 58011 81708 83618 85360;EQDQ01  00002PRCP99
0210426230999992000022203004+24770+093900FM-12+0781VEIM V0209999C000012200019N0040001N1+01401+99999101631ADDAA199000091AY121031AY221031GA1001+999999999GF100991001001999999001001KA1120N+00501MA1999999092751MW1051REMSYN076AAXX  22034 42623 31996 00000 10140 2/061 39275 40163 70522 333 20050 5/007;EQDQ01  00002PRCP99
0207426230999992000022206004+24770+093900FM-12+0781VEIM V0209999C000012200019N0040001N1+02181+00591999999ADDAA199000091AY121061AY221061GA1001+999999999GF100991001001999999001001MA1999999092641MW1051REMSYN070AAXX  22064 42623 31996 00000 10218 20059 39264 40726 70522 333 99006;EQDQ01+107263APOSLPQ02  00002PRCP99
0177426230999992000022209004+24770+093900FM-12+0781VEIM V0202901N003112200019N0040001N1+02361+00111100951ADDAA199000091GA1001+999999999GF100991001001999999001001MA1999999092401MD1999999-0111REMSYN064AAXX  22094 42623 32996 02906 10236 20011 39240 40095 333 59011;EQDQ01  00002PRCP99
0208426230999992000022212004+24770+093900FM-12+0781VEIM V0202701N001512200019N0040001N1+01861+00311101231ADDAA199000091GA1011+030009079GF101991011001999999041001KA1120M+02451MA1999999092521MD1999999+0061REMSYN082AAXX  22124 42623 32996 12703 10186 20031 39252 40123 81040 333 10245 58006 81360;EQDQ01  00002PRCP99
0205426230999992000022306004+24770+093900FM-12+0781VEIM V0201801N003112200019N0040001N1+02141+00631101281ADDAA199000091AY101061AY201061GA1001+999999999GF100991001001999999001001MA1999999092611MD1999999-0031MW1051REMSYN070AAXX  23064 42623 31996 01806 10214 20063 39261 40128 70500 333 59003;EQDQ01  00002PRCP99
0150426230999992000022321004+24770+093900FM-12+0781VEIM V0200101N037012200019N0040001N1+99999+99999999999ADDAA199000091AY101031AY201031GF104991999999999999999999MD1999999+0041MW1051REMSYN046AAXX  23214 42623 31996 40172 70500 333 58004;EQDQ01  00002PRCP99
0245426230999992000022421004+24770+093900FM-12+0781VEIM V0209999C00001005401CN0040001N1+01021+00661101441ADDAA199000091AY121031AY221031GA1021+002409079GA2031+005409069GF106991041071002501021001MA1999999092401MD1999999-0131MW1051REMSYN094AAXX  24214 42623 31396 60000 10102 20066 39240 40144 70522 84720 333 59013 82708 83618 85459;EQDQ01  00002PRCP99
0264426230999992000022503004+24770+093900FM-12+0781VEIM V0209999C000010054019N0020001N1+01401+00941101491ADDAA199000091AY121031AY221031GA1021+002409079GA2031+005409069GF107991051061002501031001KA1120N+00861MA1999999092621MD1999999-0111MW1051REMSYN100AAXX  25034 42623 31395 70000 10140 20094 39262 40149 70522 85630 333 20086 59011 82708 83618 86360;EQDQ01  00002PRCP99
0236426230999992000022512004+24770+093900FM-12+0781VEIM V0209999C00001036001CN0040001N1+01941+00071100811ADDAA199000091GA1011+002409079GA2031+005409069GF107991041061002501031001KA1120M+02451MA1999999092161MD1999999-0191REMSYN094AAXX  25124 42623 32396 70000 10194 20007 39216 40081 84630 333 10245 59019 81708 83618 86360;EQDQ01  00002PRCP99
0217426230999992000022721004+24770+093900FM-12+0781VEIM V0209999C000012200019N0040001N1+00721+00461101631ADDAA199000091AY101031AY201031GA1011+005409059GF101991011051004501001001MA1999999092561MD1999999+0211MW1051REMSYN082AAXX  27214 42623 31496 10000 10072 20046 39256 40163 70500 81500 333 58021 81618;EQDQ01  00002PRCP99
0189426230999992000022809004+24770+093900FM-12+0781VEIM V0202301N004112200019N0040001N1+02241+00281100881ADDAA199000091GA1031+105009059GF104991031051004501031001MA1999999092311MD1999999+0021REMSYN076AAXX  28094 42623 32496 42308 10224 20028 39231 40088 83530 333 58002 83681;EQDQ01  00002PRCP99
0262426230999992000022821004+24770+093900FM-12+0781VEIM V0209999C00001005401CN0040001N1+01041+00681101401ADDAA100000791AA218999999AY121031AY221031GA1021+002409079GA2031+005409069GF106991041071002501021001MA1999999092441MD1999999-0121MW1051REMSYN100AAXX  28214 42623 21396 60000 10104 20068 39244 40140 70522 84720 333 59012 6990/ 82708 83618 86459;EQDQ01  99992PRCP18
0265426230999992000022903004+24770+093900FM-12+0781VEIM V0209999C00001036001CN0020001N1+01461+00771101551ADDAA100000791AA224999999AY161031AY261031GA1031+005409069GF106991031051004501031001KA1120N+00821MA1999999092701MD1999999-0171MW1051REMSYN106AAXX  29034 42623 21495 60000 10146 20077 39270 40155 70566 83530 333 20082 56660 59017 6990/ 83618 85360;EQDQ01  99992PRCP24
0264426230999992000022912004+24770+093900FM-12+0781VEIM V0202701N002610054019N0040001N1+01901+00831100871ADDAA199000091AY101061AY201061GA1021+002409079GA2041+005409069GF107991051071002501031001KA1120M+02341MA1999999092211MD1999999-0131MW1051REMSYN100AAXX  29124 42623 31396 72705 10190 20083 39221 40087 70500 85730 333 10234 59013 82708 84618 86360;EQDQ01  00002PRCP99
0259426230999992000030103004+24770+093900FM-12+0781VEIM V0209999C00001036001CN0020001N1+01541+01111101221ADDAA100000791AA224999999AY161031AY221031GA1031+005409069GF106991031051004501031001KA1120N+01201MA1999999092431MD1999999-0271MW1051REMSYN100AAXX  01034 42623 21495 60000 10154 20111 39243 40122 70562 83530 333 20120 59027 6990/ 83618 85360;EQDQ01  99992PRCP24
0265426230999992000030121004+24770+093900FM-12+0781VEIM V0209999C000010048019N0020001N1+01221+01181101071ADDAA100004192AA218004092AY191031AY261031GA1031+001809079GA2041+004809069GA3011+007509099GF108991061091001501021999MA1999999092201MD1999999-0041MW1951REMSYN106AAXX  01214 42623 21295 80000 10122 20118 39220 40107 79596 8692/ 333 59004 6004/ 83706 84616 81925 97459;
0251426230999992000030200004+24770+093900FM-12+0781VEIM V0209999C000010048019N0005001N1+01201+01161101141ADDAA100007192AA221007092AY191061AY261061GA1031+001809079GA2041+004809069GA3011+009009099GF107991051091001501021001MA1999999092241MW1461REMSYN106AAXX  02004 42623 21293 70000 10120 20116 39224 40114 74696 85920 333 5904/ 6007/ 83706 84616 81930 87459;
0262426230999992000030203004+24770+093900FM-12+0781VEIM V0209999C000010054019N0020001N1+01361+01331101331ADDAA100007991AA224008091AY161031AY241031GA1031+001809079GA2041+005409069GF107991051071001501031001KA1120N+01141MA1999999092471MD1999999+0041MW1601REMSYN106AAXX  02034 42623 21295 70000 10136 20133 39247 40133 76064 85730 333 20114 58004 6008/ 83706 84618 86360;
0265426230999992000030209004+24770+093900FM-12+0781VEIM V0201101N002110048019N0040001N1+01501+01331101001ADDAA100006192AA206006092AY161031AY291031GA1031+002109079GA2041+004809069GA3011+009009099GF108991061031002501021999MA1999999092201MD1999999+0181MW1611REMSYN106AAXX  02094 42623 21396 81104 10150 20133 39220 40100 76169 8632/ 333 58018 6006/ 83707 84616 81930 88459;
0265426230999992000030218004+24770+093900FM-12+0781VEIM V0209999C000010048019N0040001N1+01261+01191101351ADDAA100026991AA215027091AY191061AY261061GA1021+002109079GA2041+004809069GA3011+009009099GF108991051031002501021999MA1999999092451MD1999999+0151MW1601REMSYN106AAXX  02184 42623 21396 80000 10126 20119 39245 40135 76096 8532/ 333 58015 6027/ 82707 84616 81930 88459;
0265426230999992000030221004+24770+093900FM-12+0781VEIM V0209999C000010048019N0040001N1+01261+01231101181ADDAA100026991AA218027091AY161031AY221031GA1021+002109079GA2041+004809069GA3011+009009099GF108991051031002501021999MA1999999092301MD1999999+0101MW1051REMSYN106AAXX  02214 42623 21396 80000 10126 20123 39230 40118 70562 8532/ 333 58010 6027/ 82707 84616 81930 88459;
0243426230999992000030300004+24770+093900FM-12+0781VEIM V0209999C000010054019N0020001N1+01281+01251101271ADDAA100026991AA221027091AY161061AY221061GA1021+002409079GA2041+005409069GF107991051031002501071001MA1999999092381MD1999999+0141MW1051REMSYN100AAXX  03004 42623 21395 70000 10128 20125 39238 40127 70562 85370 333 58014 6027/ 82708 84618 87460;
0303426230999992000030303004+24770+093900FM-12+0781VEIM V0209999C000010048019N0020001N1+01461+01361101471ADDAA100029091AA224029091AY191031AY261031GA1021+002109079GA2051+004809069GA3011+009009099GF108991061031002501021999KA1120M+01541KA2120N+01181MA1999999092631MD1999999+0161MW1951REMSYN118AAXX  03034 42623 21395 80000 10146 20136 39263 40147 79596 8632/ 333 10154 20118 58016 6029/ 82707 85616 81930 88459;
0243426230999992000030400004+24770+093900FM-12+0781VEIM V0209999C000010048019N0020001N1+01201+01161101391ADDAA100005192AA221005092AY161061AY221061GA1021+001809079GA2041+004809069GF107991051071001501021001MA1999999092461MD1999999+0081MW1211REMSYN100AAXX  04004 42623 21295 70000 10120 20116 39246 40139 72162 85720 333 58008 6005/ 82706 84616 87459;
0284426230999992000030403004+24770+093900FM-12+0781VEIM V0209999C000010048019N0020001N1+01501+01331101581ADDAA100006192AA224006092AY161031AY221031GA1021+001809079GA2041+004809069GA3011+007509099GF107991051031001501021001KA1120N+01141MA1999999092731MD1999999+0101MW1051REMSYN112AAXX  04034 42623 21295 70000 10150 20133 39273 40158 70562 85320 333 20114 58010 6006/ 82706 84616 81925 87459;
0248426230999992000030406004+24770+093900FM-12+0781VEIM V0209999C000010048019N0040001N1+01641+01371101421ADDAA199000021AY121061AY221061GA1021+002409079GA2041+004809069GA3011+009009099GF107991051031002501031001MA1999999092641MD1999999+0221MW1051REMSYN100AAXX  04064 42623 31396 70000 10164 20137 39264 40142 70522 85330 333 58022 82708 84616 81930 86360;
0176426230999992000030409004+24770+093900FM-12+0781VEIM V0209999C00001036001CN0040001N1+02141+01381100931ADDAA199000021GA1021+005409069GF105991021051004501031001MA1999999092331MD1999999+0211REMSYN082AAXX  04094 42623 32496 50000 10214 20138 39233 40093 82530 333 58021 82618 84360;
0217426230999992000030412004+24770+093900FM-12+0781VEIM V0209999C000012200019N0040001N1+02001+01331100941ADDAA199000021GA1011+005409069GA2011+009009099GF104991021031004501031001KA1120M+02321MA1999999092281MD1999999+0051REMSYN094AAXX  04124 42623 32496 40000 10200 20133 39228 40094 82330 333 10232 58005 81618 81930 83360;
0236426230999992000030415004+24770+093900FM-12+0781VEIM V0209999C000012200019N0040001N1+02001+01331999999ADDAA199000091GA1011+005409019GA2011+009009099GF104991021031004501031001KA1120M+02321MA1999999092281MD1999999+0051REMSYN094AAXX  04154 42623 32496 40000 10200 20133 39228 4/094 82330 333 10232 58005 81118 81930 83360;EQDQ01  00002PRCP99
0268426230999992000030503004+24770+093900FM-12+0781VEIM V0209999C00001005401CN0040001N1+01621+01451101391ADDAA100005192AA224005092AY191031AY221031GA1021+002409079GA2031+005409069GF106991041071002501031001KA1120N+01341MA1999999092611MD1999999-0121MW1051REMSYN112AAXX  05034 42623 21396 60000 10162 20145 39261 40139 70592 84730 333 20134 56590 59012 6005/ 82708 83618 85360;
0265426230999992000030600004+24770+093900FM-12+0781VEIM V0202301N002110048019N0040001N1+01501+01431101021ADDAA100005192AA221005092AY191061AY261061GA1021+001809079GA2041+004809069GA3011+007509099GF107991051091001501031001MA1999999092221MD1999999-0171MW1951REMSYN106AAXX  06004 42623 21296 72304 10150 20143 39222 40102 79596 85930 333 59017 6005/ 82706 84616 81925 86360;
0195426230999992000030612004+24770+093900FM-12+0781VEIM V0209999C000012200019N0040001N1+01081+99999100791ADDAA199000021GA1011+005409069GF102991021031004501041001KA1120M+02551MA1999999092171MD1999999+0061REMSYN088AAXX  06124 42623 32496 20000 10108 20153 39217 40079 82340 333 10255 58006 81618 81930;
0223426230999992000030615004+24770+093900FM-12+0781VEIM V0209999C000012200019N0040001N1+01701+01331101201ADDAA199000091AY101031AY201031GA1011+005409069GF102991021031004501031001MA1999999092441MD1999999+0211MW1131REMSYN088AAXX  06154 42623 31496 20000 10170 20133 39244 40120 71300 82330 333 58021 81618 81930;EQDQ01  00002PRCP99
0217426230999992000030700004+24770+093900FM-12+0781VEIM V0209999C000012200019N0040001N1+01321+01251101281ADDAA199000091AY101061AY201061GA1021+005409059GF102991021041004501031001MA1999999092421MD1999999+0201MW1051REMSYN082AAXX  07004 42623 31496 20000 10132 20125 39242 40128 70500 82430 333 58020 82618;EQDQ01  00002PRCP99
0243426230999992000030721004+24770+093900FM-12+0781VEIM V0209999C00001005401CN0040001N1+01481+01241101111ADDAA100000791AA218999929AY191031AY221031GA1021+002409079GA2031+005409069GF106991041071002501021001MA1999999092301MD1999999-0031MW1951REMSYN100AAXX  07214 42623 21396 60000 10148 20124 39230 40111 79592 84720 333 59003 6990/ 82708 83618 86459;
0265426230999992000030806004+24770+093900FM-12+0781VEIM V0209999C00001009001CN0040001N1+02001+01491101091ADDAA100000191AA203000291AY161061AY221061GA1011+002409079GA2031+005409069GA3011+009009099GF106991041031002501031001MA1999999092371MD1999999-0121MW1051REMSYN106AAXX  08064 42623 21396 60000 10200 20149 39237 40109 70562 84330 333 59012 6992/ 81708 83618 81930 86360;
0265426230999992000030809004+24770+093900FM-12+0781VEIM V0202901N004110054019N0040001N1+01841+01331100861ADDAA100001091AA206001091AY161031AY251031GA1021+002409079GA2041+005409069GA3011+007509099GF107991051091002501021001MA1999999092181MD1999999-0071MW1201REMSYN106AAXX  08094 42623 21396 72908 10184 20133 39218 40086 72065 85920 333 59007 6001/ 82708 84618 81925 87460;
0262426230999992000030812004+24770+093900FM-12+0781VEIM V0209999C000010054019N0040001N1+01781+01301100801ADDAA100001091AA209001091AY121061AY221061GA1021+002409079GA2051+005409069GF108991051071002501021999KA1120M+02131MA1999999092101MD1999999-0151MW1501REMSYN106AAXX  08124 42623 21396 80000 10178 20130 39210 40080 75022 8572/ 333 10213 59015 6001/ 82708 85618 88450;
0265426230999992000030815004+24770+093900FM-12+0781VEIM V0209999C000010054019N0040001N1+01561+01461100981ADDAA100007991AA212008091AY191031AY221031GA1021+002409079GA2041+005409069GA3011+009009099GF108991051091002501021999MA1999999092211MD1999999-0161MW1951REMSYN106AAXX  08154 42623 21396 80000 10156 20146 39221 40098 79592 8592/ 333 59016 6008/ 82708 84618 81930 88459;
0243426230999992000030818004+24770+093900FM-12+0781VEIM V0209999C000010054019N0020001N1+01501+01431101001ADDAA100008991AA215009091AY121061AY261061GA1021+002409079GA2051+005409069GF108991051071002501021999MA1999999092201MD1999999-0151MW1511REMSYN100AAXX  08184 42623 21395 80000 10150 20143 39220 40100 75126 8572/ 333 59015 6009/ 82708 85618 88459;
0265426230999992000030900004+24770+093900FM-12+0781VEIM V0209999C000010054019N0040001N1+01441+01341100961ADDAA100018091AA221018091AY161061AY261061GA1021+002409079GA2051+005409069GA3011+009009099GF108991051031002501021999MA1999999092161MD1999999-0101MW1611REMSYN106AAXX  09004 42623 21396 80000 10144 20134 39216 40096 76166 8532/ 333 59010 6018/ 82708 85618 81930 88459;
0284426230999992000030903004+24770+093900FM-12+0781VEIM V0209999C000010054019N0040001N1+01501+01361101131ADDAA100018091AA224018091AY161031AY251031GA1021+001809079GA2041+005409069GA3011+009009099GF108991061091002501021999KA1120N+01371MA1999999092321MD1999999-0141MW1051REMSYN112AAXX  09034 42623 21396 80000 10150 20136 39232 40113 70565 8692/ 333 20137 59014 6018/ 82706 84618 81930 88460;
0198426230999992000030906004+24770+093900FM-12+0781VEIM V0209999C000010054019N0040001N1+01941+01341100941ADDAA199000021GA1021+002409079GA2041+005409069GF107991051071002501031001MA1999999092281MD1999999-0091REMSYN088AAXX  09064 42623 32396 70000 10194 20134 39228 40094 85730 333 59009 82708 84618 86360;
0234426230999992000031003004+24770+093900FM-12+0781VEIM V0209999C000012200019N0040001N1+01781+01111101151ADDAA100000592AA224000492AY161031AY221031GA1031+005409059GF103991031051004501001001KA1120N+01051MA1999999092421MD1999999+0101MW1051REMSYN094AAXX  10034 42623 21496 30000 10178 20111 39242 40115 70562 83500 333 20105 58010 6994/ 83618;
0186426230999992000031012004+24770+093900FM-12+0781VEIM V0209999C000010360019N0040001N1+01961+00961100701ADDAA199000091GF106991041031004501031001KA1120M+02461MA1999999092071MD1999999+0051REMSYN076AAXX  10124 42623 32496 60000 10196 20096 39207 40070 84330 333 10246 58005;EQDQ01  00002PRCP99
0243426230999992000031015004+24770+093900FM-12+0781VEIM V0209999C00001036001CN0040001N1+01781+01151100901ADDAA100000791AA212999929AY121031AY221031GA1031+005409069GA2011+009009099GF107991041031002501031001MA1999999092191MD1999999+0041MW1611REMSYN100AAXX  10154 42623 21396 70000 10178 20115 39219 40090 76122 84330 333 58004 6990/ 83618 81930 85360;
0208426230999992000031112004+24770+093900FM-12+0781VEIM V0209999C000012200019N0040001N1+01961+01041100791ADDAA199000091GA1021+005409059GF102991021051004501001001KA1120M+02401MA1999999092151MD1999999-0081REMSYN082AAXX  11124 42623 32496 20000 10196 20104 39215 40079 82500 333 10240 59008 82618;EQDQ01  00002PRCP99
0243426230999992000031121004+24770+093900FM-12+0781VEIM V0209999C000010054019N0040001N1+01401+01231101041ADDAA100002091AA218002091AY191031AY221031GA1021+002409079GA2031+005409069GF107991051071002501031001MA1999999092201MD1999999+0011MW1951REMSYN100AAXX  11214 42623 21396 70000 10140 20123 39220 40104 79592 85730 333 58001 6002/ 82708 83618 87459;
0284426230999992000031203004+24770+093900FM-12+0781VEIM V0209999C000010054019N0040001N1+01481+01271101241ADDAA100002091AA224002091AY191031AY241031GA1021+002409079GA2041+005409069GA3011+009009099GF108991061031002501021999KA1120N+01271MA1999999092421MD1999999+0051MW1051REMSYN112AAXX  12034 42623 21396 80000 10148 20127 39242 40124 70594 8632/ 333 20127 58005 6002/ 82708 84618 81930 88459;
0198426230999992000031206004+24770+093900FM-12+0781VEIM V0209999C00001036001CN0040001N1+01941+01181100861ADDAA199000021GA1021+002409079GA2041+005409069GF106991041061002501031001MA1999999092211MD1999999-0121REMSYN088AAXX  12064 42623 32396 60000 10194 20118 39221 40086 84630 333 59012 82708 84618 86360;
0262426230999992000031212004+24770+093900FM-12+0781VEIM V0209999C000010054019N0040001N1+01701+01431100681ADDAA100000592AA209000492AY161061AY221061GA1021+002409079GA2051+005409069GF108991051071002501021999KA1120M+02251MA1999999091961MD1999999-0161MW1501REMSYN106AAXX  12124 42623 21396 80000 10170 20143 39196 40068 75062 8572/ 333 10225 59016 6994/ 82708 85618 88459;
0243426230999992000031215004+24770+093900FM-12+0781VEIM V0209999C000010048019N0040001N1+01461+01431100961ADDAA100004192AA212004092AY161031AY251031GA1021+002409079GA2041+004809069GF108991051071002501021999MA1999999092161MD1999999-0061MW1211REMSYN100AAXX  12154 42623 21396 80000 10146 20143 39216 40096 72165 8572/ 333 59006 6004/ 82708 84616 88459;
0189426230999992000031521004+24770+093900FM-12+0781VEIM V0209999C000012200019N0040001N1+01321+01141101041ADDAA199000091GA1031+005409059GF104991031051004501031001MA1999999092201MD1999999+0011REMSYN076AAXX  15214 42623 32496 40000 10132 20114 39220 40104 83530 333 58001 83618;EQDQ01  00002PRCP99
0177426230999992000031606004+24770+093900FM-12+0781VEIM V0202701N010310360019N0020001N1+99999+99999101001ADDAA199000091GA1021+005409059GF105991031041004501031001MA1999999092281MD1999999-0041REMSYN064AAXX  16064 42623 32495 52720 39228 40100 83430 333 59004 82618;EQDQ01  00002PRCP99
0195426230999992000031609004+24770+093900FM-12+0781VEIM V0202301N003110360019N0040001N1+02421+00991100521ADDAA199000091GA1021+006009069GF106991041081008001031001MA1999999092041MD1999999-0051REMSYN082AAXX  16094 42623 31596 62306 10242 20099 39204 40052 84830 333 59005 82620 83825;EQDQ01  00002PRCP99
0258426230999992000031612004+24770+093900FM-12+0781VEIM V0209999C000010075019N0040001N1+02101+01181100591ADDAA199000091GA1031+005409069GA2031+007509089GA3011+009009099GF107991051031004501031001KA1120M+02481MA1999999091991MD1999999-0081REMSYN100AAXX  16124 42623 32496 70000 10210 20118 39199 40059 85330 333 10248 59008 83618 83825 81930 86360;EQDQ01  00002PRCP99
0243426230999992000031618004+24770+093900FM-12+0781VEIM V0209999C000012200019N0040001N1+01321+01211101021ADDAA100002091AA215002091AY161061AY221061GA1021+005409069GA2011+009009099GF104991031031004501031001MA1999999092181MD1999999-0081MW1011REMSYN100AAXX  16184 42623 21496 40000 10132 20121 39218 40102 70162 83330 333 59008 6002/ 82618 81930 83360;
0243426230999992000031621004+24770+093900FM-12+0781VEIM V0209999C000012200019N0040001N1+01201+01091101001ADDAA100002091AA218002091AY101031AY201031GA1021+005409069GA2011+009009099GF103991021031004501031001MA1999999092111MD1999999-0091MW1051REMSYN100AAXX  16214 42623 21496 30000 10120 20109 39211 40100 70500 82330 333 59009 6002/ 82618 81930 83360;
0189426230999992000031706004+24770+093900FM-12+0781VEIM V0202001N002612200019N0040001N1+02281+00691101221ADDAA199000091GA1021+006009059GF103991031081008001001001MA1999999092251MD1999999-0031REMSYN076AAXX  17064 42623 32596 32005 10228 20069 39225 40122 83800 333 59003 82620;EQDQ01  00002PRCP99
0189426230999992000031815004+24770+093900FM-12+0781VEIM V0209999C000012200019N0040001N1+01521+01131101111ADDAA199000091GA1011+005409059GF101991011051004501001001MA1999999092331MD1999999+0101REMSYN076AAXX  18154 42623 32496 10000 10152 20113 39233 40111 81500 333 58010 81618;EQDQ01  00002PRCP99
0189426230999992000031818004+24770+093900FM-12+0781VEIM V0209999C000012200019N0040001N1+01341+01051101221ADDAA199000091GA1021+005409059GF102991021051004501001001MA1999999092361MD1999999+0111REMSYN076AAXX  18184 42623 31496 20000 10134 20105 39236 40122 82500 333 58011 82618;EQDQ01  00002PRCP99
0223426230999992000031900004+24770+093900FM-12+0781VEIM V0209999C000012200019N0020001N1+01001+00921101401ADDAA199000091AY141061AY201061GA1021+005409069GF103991021051004501031001MA1999999092411MD1999999+0111MW1101REMSYN088AAXX  19004 42623 31495 30000 10100 20092 39241 40140 71040 82530 333 58011 82618 83360;EQDQ01  00002PRCP99
0236426230999992000031903004+24770+093900FM-12+0781VEIM V0209999C000012200019N0020001N1+01721+01041101351ADDAA199000091AY121031AY221031GA1021+006009059GF102991021051008001001001KA1120N+00911MA1999999092601MD1999999+0081MW1051REMSYN088AAXX  19034 42623 31595 20000 10172 20104 39260 40135 70522 82500 333 20091 58008 82620;EQDQ01  00002PRCP99
0195426230999992000031909004+24770+093900FM-12+0781VEIM V0203201N00101036001CN0040001N1+02441+00971100701ADDAA199000091GA1031+006009069GF106991031051008001031011MA1999999092201MD1999999+0081REMSYN082AAXX  19094 42623 32596 63202 10244 20097 39220 40070 83531 333 58008 83620 85360;EQDQ01  00002PRCP99
0214426230999992000031912004+24770+093900FM-12+0781VEIM V0209999C000012200019N0040001N1+02081+00981100741ADDAA199000091GA1031+005409069GF104991031051004501031001KA1120M+02551MA1999999092131MD1999999-0071REMSYN088AAXX  19124 42623 32496 40000 10208 20098 39213 40074 83530 333 10255 59007 83618 84360;EQDQ01  00002PRCP99
0217426230999992000031921004+24770+093900FM-12+0781VEIM V0209999C000012200019N0040001N1+01201+01051101231ADDAA199000091AY101031AY201031GA1031+005409059GF103991031051004501001001MA1999999092321MD1999999+0021MW1051REMSYN082AAXX  19214 42623 31496 30000 10120 20105 39232 40123 70500 83500 333 58002 83618;EQDQ01  00002PRCP99
0251426230999992000032003004+24770+093900FM-12+0781VEIM V0209999C000012200019N0020001N1+01741+01021101331ADDAA199000091AY101031AY201031GA1031+999999069GF199999011001999999031001KA1120N+00951MA1999999092581MD1999999-0021MW1051REMSYN087AAXX  20034 42623 31995 10000 10174 20102 39258 40133 70500 81030 333 20095 59002 8360;EQDQ01+000012SCOTCVQ02  00002PRCP99
0217426230999992000032006004+24770+093900FM-12+0781VEIM V0209999C000012200019N0040001N1+02481+01031100921ADDAA199000091AY121061AY221061GA1011+007509029GF101991011011008001001001MA1999999092401MD1999999-0071MW1051REMSYN082AAXX  20064 42623 31596 10000 10248 20103 39240 40092 70522 81100 333 59007 81825;EQDQ01  00002PRCP99
0189426230999992000032115004+24770+093900FM-12+0781VEIM V0209999C000012200019N0040001N1+01941+00651101151ADDAA199000091GA1021+005409059GF102991021051004501001001MA1999999092471MD1999999+0121REMSYN076AAXX  21154 42623 32496 20000 10194 20065 39247 40115 82500 333 58012 82618;EQDQ01  00002PRCP99
0217426230999992000032200004+24770+093900FM-12+0781VEIM V0209999C000012200019N0040001N1+01201+00861101391ADDAA199000091AY101061AY201061GA1021+005409059GF102991021051004501001001MA1999999092501MD1999999+0101MW1051REMSYN082AAXX  22004 42623 31496 20000 10120 20086 39250 40139 70500 82500 333 58010 82618;EQDQ01  00002PRCP99
0208426230999992000032212004+24770+093900FM-12+0781VEIM V0209999C000012200019N0040001N1+02301+00751100841ADDAA199000091GA1021+006009059GF102991021041008001001011KA1120M+02811MA1999999092301MD1999999-0031REMSYN082AAXX  22124 42623 32596 20000 10230 20075 39230 40084 82401 333 10281 59003 82620;EQDQ01  00002PRCP99
0195426230999992000032300004+24770+093900FM-12+0781VEIM V0209999C000012200019N0020001N1+01001+00841101741ADDAA199000091AY101061AY201061GF101991011051004501001001MA1999999092721MD1999999+0131MW1051REMSYN076AAXX  23004 42623 31495 10000 10100 20084 39272 40174 70500 81500 333 58013;EQDQ01  00002PRCP99
0290426230999992000032412004+24770+093900FM-12+0781VEIM V0209999C000012200019N0020001N1+02441+01111100801ADDAA199000091AY121061AY221061GA1031+005409069GF199999999999999999001001KA1120M+02811MA1999999092291MD1999999-0151MW1051REMSYN094AAXX  24124 42623 31495 00000 10244 20111 39229 40080 70522 83530 333 10281 59015 83618 85360;EQDQ01+000002SCOTCVQ02+000002SCOTLCQ03+000002SCOLCGQ04  00002PRCP99
0242426230999992000032603004+24770+093900FM-12+0781VEIM V0209999C00001036001CN0020001N1+01781+01341101631ADDAA199000091AY121031AY221031GA1031+005409069GF107991031051004501031011KA1120N+01221MA1999999092861MD1999999+0051MW1051REMSYN094AAXX  26034 42623 31495 70000 10178 20134 39286 40163 70522 83531 333 20122 58005 83618 86360;EQDQ01  00002PRCP99
0223426230999992000032615004+24770+093900FM-12+0781VEIM V0209999C00001036001CN0040001N1+02001+01621101231ADDAA199000091AY121031AY221031GA1021+005409069GF106991021051004501031001MA1999999092551MD1999999-0111MW1051REMSYN088AAXX  26154 42623 31496 60000 10200 20162 39255 40123 70522 82530 333 59011 82618 84360;EQDQ01  00002PRCP99
0223426230999992000032618004+24770+093900FM-12+0781VEIM V0209999C00001036001CN0020001N1+01741+01421101391ADDAA199000091AY121061AY221061GA1031+005409069GF107991031051004501031001MA1999999092641MD1999999-0051MW1051REMSYN088AAXX  26184 42623 31495 70000 10174 20142 39264 40139 70522 83530 333 59005 83618 86360;EQDQ01  00002PRCP99
0223426230999992000032621004+24770+093900FM-12+0781VEIM V0209999C00001036001CN0020001N1+01621+01421101401ADDAA199000091AY121031AY221031GA1031+005409069GF107991031051004501031001MA1999999092621MD1999999+0021MW1051REMSYN088AAXX  26214 42623 31495 70000 10162 20142 39262 40140 70522 83530 333 58002 83618 86360;EQDQ01  00002PRCP99
0223426230999992000032700004+24770+093900FM-12+0781VEIM V0209999C000010054019N0020001N1+01481+01271101541ADDAA199000091AY121061AY221061GA1051+005409069GF107991031051004501031001MA1999999092691MD1999999+0021MW1051REMSYN088AAXX  27004 42623 31495 70000 10148 20127 39269 40154 70522 83530 333 58002 85618 87360;EQDQ01  00002PRCP99
0242426230999992000032712004+24770+093900FM-12+0781VEIM V0209999C00001036001CN0040001N1+02501+01621100871ADDAA199000091AY121061AY221061GA1031+005409069GF106991041051004501031001KA1120M+02981MA1999999092361MD1999999+0081MW1051REMSYN094AAXX  27124 42623 31496 60000 10250 20162 39236 40087 70522 84530 333 10298 58008 83618 85360;EQDQ01  00002PRCP99
0217426230999992000032800004+24770+093900FM-12+0781VEIM V0209999C00001002101CN0020001N1+01561+01431101411ADDAA199000091AY121061AY221061GA1021+002409069GF107991051071002501021001MA1999999092601MD1999999-0061MW1051REMSYN082AAXX  28004 42623 31395 70000 10156 20143 39260 40141 70522 85720 333 59006 82708;EQDQ01  00002PRCP99
0245426230999992000032809004+24770+093900FM-12+0781VEIM V0209999C000010048019N0020001N1+02461+01611100951ADDAA199000091AY141031AY221031GA1021+002409079GA2041+004809069GF107991051071002501021001MA1999999092431MD1999999+0131MW1051REMSYN094AAXX  28094 42623 31395 70000 10246 20161 39243 40095 70542 85720 333 58013 82708 84616 87459;EQDQ01  00002PRCP99
0264426230999992000032812004+24770+093900FM-12+0781VEIM V0209999C000010054019N0020001N1+02101+01791101111ADDAA199000091AY121061AY221061GA1021+002409079GA2041+005409069GF108991051071002501021999KA1120M+02481MA1999999092461MD1999999+0101MW1051REMSYN100AAXX  28124 42623 31395 80000 10210 20179 39246 40111 70522 8572/ 333 10248 58010 82708 84618 88459;EQDQ01  00002PRCP99
0245426230999992000032815004+24770+093900FM-12+0781VEIM V0209999C000010054019N0020001N1+02001+01811101391ADDAA199000091AY121031AY221031GA1021+002409079GA2041+005409069GF108991051071002501021999MA1999999092701MD1999999+0091MW1051REMSYN094AAXX  28154 42623 31395 80000 10200 20181 39270 40139 70522 8572/ 333 58009 82708 84618 88459;EQDQ01  00002PRCP99
0245426230999992000032818004+24770+093900FM-12+0781VEIM V0209999C000010054019N0020001N1+01861+01601101451ADDAA199000091AY121061AY221061GA1021+002409079GA2041+005409069GF108991051071002501021999MA1999999092721MD1999999+0111MW1051REMSYN094AAXX  28184 42623 31395 80000 10186 20160 39272 40145 70522 8572/ 333 58011 82708 84618 88459;EQDQ01  00002PRCP99
0245426230999992000032821004+24770+093900FM-12+0781VEIM V0209999C000010054019N0020001N1+01681+01551101451ADDAA199000091AY121031AY221031GA1021+002409079GA2041+005409069GF108991051071002501021999MA1999999092671MD1999999+0111MW1051REMSYN094AAXX  28214 42623 31395 80000 10168 20155 39267 40145 70522 8572/ 333 58011 82708 84618 88459;EQDQ01  00002PRCP99
0243426230999992000032900004+24770+093900FM-12+0781VEIM V0209999C000010054019N0020001N1+01701+01601101481ADDAA100000791AA221999929AY121061AY221061GA1021+002409079GA2041+005409069GF107991051071002501021001MA1999999092691MD1999999+0091MW1211REMSYN100AAXX  29004 42623 21395 70000 10170 20160 39269 40148 72122 85720 333 58009 6990/ 82708 84618 87459;
0262426230999992000032903004+24770+093900FM-12+0781VEIM V0209999C000010048019N0010001N1+01841+01681101621ADDAA100000791AA224999929AY161031AY241031GA1021+002409079GA2041+004809069GF108991051071002501021999KA1120N+01631MA1999999092871MD1999999+0091MW1101REMSYN106AAXX  29034 42623 21394 80000 10184 20168 39287 40162 71064 8572/ 333 20163 58009 6990/ 82708 84616 88459;
0243426230999992000032921004+24770+093900FM-12+0781VEIM V0209999C000010048019N0040001N1+01701+01571101381ADDAA100000191AA218000191AY121031AY221031GA1031+001809079GA2041+004809069GF108991051071001501021999MA1999999092621MD1999999-0051MW1051REMSYN100AAXX  29214 42623 21296 80000 10170 20157 39262 40138 70522 8572/ 333 59005 6991/ 83706 84616 88459;
0217426230999992000033015004+24770+093900FM-12+0781VEIM V0209999C000012200019N0040001N1+02041+01821100961ADDAA199000091AY111031AY201031GA1021+005409059GF103991021051004501031001MA1999999092331MD1999999-0381MW1051REMSYN082AAXX  30154 42623 31496 30000 10204 20182 39233 40096 70510 82530 333 59038 82618;EQDQ01  00002PRCP99
0223426230999992000033018004+24770+093900FM-12+0781VEIM V0209999C000012200019N0040001N1+01881+01691101021ADDAA199000091AY101061AY201061GA1021+005409069GF104991021051004501031001MA1999999092341MD1999999+0321MW1051REMSYN088AAXX  30184 42623 31496 40000 10188 20169 39234 40102 70500 82530 333 58032 82618 83360;EQDQ01  00002PRCP99
0243426230999992000033021004+24770+093900FM-12+0781VEIM V0209999C000010048019N0040001N1+01701+01571101381ADDAA100000191AA218000191AY121031AY221031GA1031+001809079GA2041+004809069GF108991051071001501021999MA1999999092621MD1999999-0051MW1051REMSYN100AAXX  30214 42623 21296 80000 10170 20157 39262 40138 70522 8572/ 333 59005 6991/ 83706 84616 88459;
0223426230999992000033100004+24770+093900FM-12+0781VEIM V0209999C00001036001CN0010001N1+01501+01431101141ADDAA199000091AY141061AY221061GA1031+005409069GF105991031041004501031001MA1999999092331MD1999999-0171MW1101REMSYN088AAXX  31004 42623 31494 50000 10150 20143 39233 40114 71042 83430 333 59017 83618 84360;EQDQ01  00002PRCP99
0245426230999992000040100004+24770+093900FM-12+0781VEIM V0209999C000010048019N0020001N1+01661+01531100911ADDAA199000091AY121061AY221061GA1021+001809079GA2031+004809069GF107991051071002501021001MA1999999092161MD1999999-0171MW1051REMSYN094AAXX  01004 42623 31395 70000 10166 20153 39216 40091 70522 85720 333 59017 82706 83616 87459;EQDQ01  00002PRCP99
0217426230999992000040109004+24770+093900FM-12+0781VEIM V0202701N002612200019N0040001N1+02841+01351100181ADDAA199000091AY121031AY221031GA1031+005409059GF104991031051004501031001MA1999999091841MD1999999-0111MW1051REMSYN082AAXX  01094 42623 31496 42705 10284 20135 39184 40018 70522 83530 333 59011 83618;EQDQ01  00002PRCP99
0236426230999992000040112004+24770+093900FM-12+0781VEIM V0209999C000012200019N0020001N1+02501+01401100231ADDAA199000091AY121061AY221061GA1031+005409059GF104991031051004501031001KA1120M+02861MA1999999091771MD1999999-0231MW1051REMSYN088AAXX  01124 42623 31495 40000 10250 20140 39177 40023 70522 83530 333 10286 59023 83618;EQDQ01  00002PRCP99
0217426230999992000040121004+24770+093900FM-12+0781VEIM V0209999C000010360019N0020001N1+02161+01551100681ADDAA199000091AY121031AY221031GA1031+005409059GF105991031051004501031001MA1999999091991MD1999999-0211MW1051REMSYN082AAXX  01214 42623 31495 50000 10216 20155 39199 40068 70522 83530 333 59021 83618;EQDQ01  00002PRCP99
0217426230999992000040200004+24770+093900FM-12+0781VEIM V0202701N002612200019N0040001N1+02101+01181100511ADDAA199000091AY121061AY221061GA1021+005409059GF103991021051004501031001MA1999999091921MD1999999-0241MW1051REMSYN082AAXX  02004 42623 31496 32705 10210 20118 39192 40051 70522 82530 333 59024 82618;EQDQ01  00002PRCP99
0208426230999992000040203004+24770+093900FM-12+0781VEIM V0202701N002112200019N0040001N1+02541+01331100531ADDAA199000091GA1031+005409059GF104991031051004501031001KA1120N+01781MA1999999092071MD1999999-0211REMSYN082AAXX  02034 42623 32496 42704 10254 20133 39207 40053 83530 333 20178 59021 83618;EQDQ01  00002PRCP99
0189426230999992000040206004+24770+093900FM-12+0781VEIM V0202901N005112200019N0040001N1+02761+01491100351ADDAA199000091GA1021+005409059GF102991021051004501001001MA1999999091961MD1999999-0111REMSYN076AAXX  02064 42623 32496 22910 10276 20149 39196 40035 82500 333 59011 82618;EQDQ01  00002PRCP99
0245426230999992000040318004+24770+093900FM-12+0781VEIM V0209999C000012200019N0040001N1+02201+01661100551ADDAA199000091AY121061AY201061GA1021+005409069GA2011+009009099GF104991031031004501031001MA1999999091981MD1999999+0011MW1131REMSYN094AAXX  03184 42623 31496 40000 10220 20166 39198 40055 71320 83330 333 58001 82618 81930 83360;EQDQ01  00002PRCP99
0214426230999992000040403004+24770+093900FM-12+0781VEIM V0202301N002112200019N0040001N1+02561+01511100661ADDAA199000091GA1031+005409059GF104991031041004501031001KA1120N+01841MA1999999092191MD1999999-0121REMSYN088AAXX  04034 42623 32496 42304 10256 20151 39219 40066 83430 333 20184 56690 59012 83618;EQDQ01  00002PRCP99
0189426230999992000040409004+24770+093900FM-12+0781VEIM V0202701N005112200019N0040001N1+02881+01281100211ADDAA199000091GA1021+006009059GF102991021051008001001001MA1999999091861MD1999999-0081REMSYN076AAXX  04094 42623 32596 22710 10288 20128 39186 40021 82500 333 59008 82620;EQDQ01  00002PRCP99
0208426230999992000040412004+24770+093900FM-12+0781VEIM V0209999C000012200019N0040001N1+02641+01451100271ADDAA199000091GA1021+006009059GF102991021051008001001001KA1120M+02991MA1999999091841MD1999999-0061REMSYN082AAXX  04124 42623 32596 20000 10264 20145 39184 40027 82500 333 10299 59006 82620;EQDQ01  00002PRCP99
0195426230999992000040421004+24770+093900FM-12+0781VEIM V0209999C00001036001CN0040001N1+02201+01561100381ADDAA199000091GA1041+005409069GF106991041051004501031001MA1999999091821MD1999999-0011REMSYN082AAXX  04214 42623 32496 60000 10220 20156 39182 40038 84530 333 59001 84618 85360;EQDQ01  00002PRCP99
0189426230999992000040506004+24770+093900FM-12+0781VEIM V0201801N002612200019N0040001N1+02921+01301100411ADDAA199000091GA1021+006009059GF103991031081008001001001MA1999999092071MD1999999-0121REMSYN076AAXX  05064 42623 32596 31805 10292 20130 39207 40041 83800 333 59012 82620;EQDQ01  00002PRCP99
0208426230999992000040512004+24770+093900FM-12+0781VEIM V0209999C000012200019N0040001N1+02641+01331100161ADDAA199000091GA1021+006009059GF103991021041008001031001KA1120M+03101MA1999999091761MD1999999-0081REMSYN082AAXX  05124 42623 32596 30000 10264 20133 39176 40016 82430 333 10310 59008 82620;EQDQ01  00002PRCP99
0217426230999992000040521004+24770+093900FM-12+0781VEIM V0209999C00001036001CN0040001N1+02321+01591100431ADDAA199000091GA1011+002409079GA2031+005409069GF106991041061002501031001MA1999999091931MD1999999+0091REMSYN088AAXX  05214 42623 32396 60000 10232 20159 39193 40043 84630 333 58009 81708 83618 85360;EQDQ01  00002PRCP99
0217426230999992000040600004+24770+093900FM-12+0781VEIM V0209999C000012200019N0040001N1+02061+01651100691ADDAA199000091AY101061AY201061GA1021+005409059GF103991021041004501031001MA1999999092081MD1999999+0071MW1051REMSYN082AAXX  06004 42623 31496 30000 10206 20165 39208 40069 70500 82430 333 58007 82618;EQDQ01  00002PRCP99
0242426230999992000040603004+24770+093900FM-12+0781VEIM V0201801N00311036001CN0040001N1+02641+01611100681ADDAA199000091AY121031AY221031GA1031+005409069GF105991031041004501031001KA1120N+02001MA1999999092241MD1999999+0031MW1051REMSYN094AAXX  06034 42623 31496 51806 10264 20161 39224 40068 70522 83430 333 20200 58003 83618 85360;EQDQ01  00002PRCP99
0223426230999992000040718004+24770+093900FM-12+0781VEIM V0209999C000012200019N0040001N1+02201+01701100921ADDAA199000091AY101061AY201061GA1011+005409069GF103991021031004501031001MA1999999092321MD1999999+0241MW1131REMSYN088AAXX  07184 42623 31496 30000 10220 20170 39232 40092 71300 82330 333 58024 81618 81930;EQDQ01  00002PRCP99
0195426230999992000040809004+24770+093900FM-12+0781VEIM V0202701N004112200019N0040001N1+02961+01391100321ADDAA199000091GA1021+005409069GF104991041041004501001001MA1999999091991MD1999999-0221REMSYN082AAXX  08094 42623 32496 42708 10296 20139 39199 40032 84400 333 59022 82618 83820;EQDQ01  00002PRCP99
0217426230999992000040906004+24770+093900FM-12+0781VEIM V0201801N001512200019N0040001N1+03081+01431100411ADDAA199000091AY101061AY201061GA1011+007509029GF101991011011008001001001MA1999999092101MD1999999-0141MW1041REMSYN082AAXX  09064 42623 31596 11803 10308 20143 39210 40041 70400 81100 333 59014 81825;EQDQ01  00002PRCP99
0194426230999992000041003004+24770+093900FM-12+0781VEIM V0209999C000012200019N0020001N1+02361+01641100941ADDAY101031AY201031GA1001+999999999GF100991001001999999001001KA1120N+01661MA1999999092391MD1999999+0141MW1051REMSYN076AAXX  10034 42623 21995 00000 10236 20164 39239 40094 70500 333 20166 58014;
0195426230999992000041109004+24770+093900FM-12+0781VEIM V0202701N005112200019N0040001N1+03101+00861100281ADDAA199000091GA1031+007509089GF104991041031008001001001MA1999999091971MD1999999+0121REMSYN082AAXX  11094 42623 32596 42710 10310 20086 39197 40028 84300 333 58012 83825 81930;EQDQ01  00002PRCP99
0208426230999992000041112004+24770+093900FM-12+0781VEIM V0209999C000012200019N0040001N1+02601+01061100491ADDAA199000091GA1011+005409059GF101991011041004501001001KA1120M+03211MA1999999092041MD1999999+0211REMSYN082AAXX  11124 42623 32496 10000 10260 20106 39204 40049 81400 333 10321 58021 81618;EQDQ01  00002PRCP99
0217426230999992000041115004+24770+093900FM-12+0781VEIM V0203201N002612200019N0040001N1+02221+00991100761ADDAA199000091AY101031AY201031GA1011+005409059GF101991011041004501001001MA1999999092201MD1999999+0231MW1051REMSYN082AAXX  11154 42623 31496 13205 10222 20099 39220 40076 70500 81400 333 58023 81618;EQDQ01  00002PRCP99
0265426230999992000041121004+24770+093900FM-12+0781VEIM V0202501N009310045019N0020001N1+01621+01531101391ADDAA100001092AA218000992AY191031AY261031GA1021+001809079GA2051+004509069GA3021+007509099GF108991061091001501021999MA1999999092611MD1999999+0561MW1951REMSYN106AAXX  11214 42623 21295 82518 10162 20153 39261 40139 79596 8692/ 333 58056 6999/ 82706 85615 82925 88459;
0243426230999992000041200004+24770+093900FM-12+0781VEIM V0209999C00001036001CN0040001N1+01501+01431101411ADDAA100007192AA221007092AY191061AY261061GA1031+005409069GA2011+009009099GF107991041031004501031001MA1999999092571MD1999999+0491MW1051REMSYN100AAXX  12004 42623 21496 70000 10150 20143 39257 40141 70596 84330 333 58049 6007/ 83618 81930 86360;
0212426230999992000041203004+24770+093900FM-12+0781VEIM V0209999C00001036001CN0040001N1+01921+01391101211ADDAA100007192AA224007092GA1031+005409069GF107991031051004501031001KA1120N+01431MA1999999092531MD1999999+0231REMSYN094AAXX  12034 42623 22496 70000 10192 20139 39253 40121 83530 333 20143 58023 6007/ 83618 86360;
0176426230999992000041206004+24770+093900FM-12+0781VEIM V0209999C00001036001CN0040001N1+02241+01381100921ADDAA199000021GA1031+005409069GF107991031051004501031001MA1999999092391MD1999999+0021REMSYN082AAXX  12064 42623 32496 70000 10224 20138 39239 40092 83530 333 58002 83618 86360;
0214426230999992000041212004+24770+093900FM-12+0781VEIM V0209999C000012200019N0040001N1+02361+01421100561ADDAA199000091GA1031+005409069GF104991041081004501001001KA1120M+02651MA1999999092041MD1999999+0001REMSYN088AAXX  12124 42623 32496 40000 10236 20142 39204 40056 84800 333 10265 58000 83618 82825;EQDQ01  00002PRCP99
0189426230999992000041221004+24770+093900FM-12+0781VEIM V0209999C000012200019N0040001N1+01541+01301100881ADDAA199000091GA1021+005409059GF102991021051004501001001MA1999999092121MD1999999-0491REMSYN076AAXX  12214 42623 32496 20000 10154 20130 39212 40088 82500 333 59049 82618;EQDQ01  00002PRCP99
0236426230999992000041303004+24770+093900FM-12+0781VEIM V0209999C000012200019N0040001N1+02241+01351100841ADDAA199000091AY111031AY201031GA1021+005409059GF102991021051004501001001KA1120N+01351MA1999999092271MD1999999-0261MW1051REMSYN088AAXX  13034 42623 31496 20000 10224 20135 39227 40084 70510 82500 333 20135 59026 82618;EQDQ01  00002PRCP99
0195426230999992000041306004+24770+093900FM-12+0781VEIM V0201801N002112200019N0040001N1+02741+01581100461ADDAA199000091GA1011+006009069GF103991031041008001001001MA1999999092061MD1999999-0331REMSYN082AAXX  13064 42623 32596 31804 10274 20158 39206 40046 83400 333 59033 81620 83825;EQDQ01  00002PRCP99
0174426230999992000041309004+24770+093900FM-12+0781VEIM V0202301N002612200019N0040001N1+02941+01281100091ADDAA199000091GA1011+006009069GF103991031041008001001001MD1999999-0281REMSYN076AAXX  13094 42623 32596 32305 10294 20128 40009 83400 333 59028 81620 83825;EQDQ01  00002PRCP99
0214426230999992000041312004+24770+093900FM-12+0781VEIM V0202701N001512200019N0040001N1+02541+01451100251ADDAA199000091GA1021+007509089GF104991021011008001001011KA1120M+02971MA1999999091851MD1999999-0221REMSYN088AAXX  13124 42623 32596 42703 10254 20145 39185 40025 82101 333 10297 59022 82825 83070;EQDQ01  00002PRCP99
0189426230999992000041315004+24770+093900FM-12+0781VEIM V0209999C000012200019N0040001N1+02201+01561100611ADDAA199000091GA1021+005409059GF103991021051004501031001MA1999999092041MD1999999-0161REMSYN076AAXX  13154 42623 32496 30000 10220 20156 39204 40061 82530 333 59016 82618;EQDQ01  00002PRCP99
0242426230999992000041403004+24770+093900FM-12+0781VEIM V0209999C000012200019N0040001N1+02421+01601100691ADDAA199000091AY121031AY221031GA1011+006009069GF104991011051008001001011KA1120N+01441MA1999999092191MD1999999-0091MW1051REMSYN094AAXX  14034 42623 31596 40000 10242 20160 39219 40069 70522 81501 333 20144 59009 81620 84075;EQDQ01  00002PRCP99
0217426230999992000041500004+24770+093900FM-12+0781VEIM V0209999C000012200019N0010001N1+01561+01461100971ADDAA199000091AY101061AY201061GA1011+001809069GF102991021061001501001001MA1999999092201MD1999999+0131MW1101REMSYN082AAXX  15004 42623 31294 20000 10156 20146 39220 40097 71000 82600 333 58013 81706;EQDQ01  00002PRCP99
0259426230999992000041603004+24770+093900FM-12+0781VEIM V0209999C000012200019N0020001N1+02401+01501100921ADDAA100000791AA224999999AY141031AY221031GA1011+005409069GF103991011051004501031001KA1120N+01591MA1999999092371MD1999999+0011MW1051REMSYN100AAXX  16034 42623 21495 30000 10240 20150 39237 40092 70542 81530 333 20159 58001 6990/ 81618 83360;EQDQ01  99992PRCP24
0189426230999992000041915004+24770+093900FM-12+0781VEIM V0209999C000012200019N0040001N1+02301+01711100851ADDAA199000091GA1011+005409059GF102991011051004501031001MA1999999092281MD1999999-0051REMSYN076AAXX  19154 42623 32496 20000 10230 20171 39228 40085 81530 333 59005 81618;EQDQ01  00002PRCP99
0245426230999992000042221004+24770+093900FM-12+0781VEIM V0209999C000010360019N0040001N1+02061+01811100521ADDAA199000091AY121031AY221031GA1021+005409069GA2011+009009099GF105991031031004501031001MA1999999091931MD1999999-0201MW1131REMSYN094AAXX  22214 42623 31496 50000 10206 20181 39193 40052 71322 83330 333 59020 82618 81930 8536/;EQDQ01  00002PRCP99
0208426230999992000042312004+24770+093900FM-12+0781VEIM V0209999C000012200019N0040001N1+02401+01581100501ADDAA199000091GA1011+006009059GF101991011041008001001001KA1120M+02841MA1999999091991MD1999999+0121REMSYN082AAXX  23124 42623 32596 10000 10240 20158 39199 40050 81400 333 10284 58012 81620;EQDQ01  00002PRCP99
0199426230999992000042400004+24770+093900FM-12+0781VEIM V0202701N005110012019N0020001N1+01801+01671101001ADDAA100017091AA221017091AY191061AY261061GF108991061091001501021999MA1999999092281MD1999999-0061MW1951REMSYN088AAXX  24004 42623 21295 82710 10180 20167 39228 40100 79596 8692/ 333 59006 6017/ 93706;
0243426230999992000042418004+24770+093900FM-12+0781VEIM V0209999C000010054019N0040001N1+01641+01611100741ADDAA100014091AA215014091AY161061AY221061GA1021+001809079GA2031+005409069GF107991051071001501021999MA1999999092021MD1999999-0181MW1511REMSYN100AAXX  24184 42623 21296 70000 10164 20161 39202 40074 75162 8572/ 333 59018 6014/ 82706 83618 884//;
0165426230999992000042421004+24770+093900FM-12+0781VEIM V0209999C000010012019N0040001N1+01621+01591100721ADDAY161031AY251031GF107991051071001501021001MA1999999092001MD1999999-0101MW1211REMSYN076AAXX  24214 42623 21296 70000 10162 20159 39200 40072 72165 85720 333 59010;
0215426230999992000042500004+24770+093900FM-12+0781VEIM V0209999C000010048019N0040001N1+01601+01531100761ADDAA100014091AA221014091GA1021+001809079GA2041+004809069GF107991051071001501031001MA1999999092011MD1999999-0271REMSYN094AAXX  25004 42623 22296 70000 10160 20153 39201 40076 85730 333 59027 6014/ 82706 84616 86360;
0176426230999992000042509004+24770+093900FM-12+0781VEIM V0209999C000012200019N0040001N1+02701+01681100181ADDAA199000021GA1021+006009069GF104991041081008001031001MA1999999091791MD1999999-0581REMSYN082AAXX  25094 42623 32596 40000 10270 20168 39179 40018 84830 333 59058 82620 83825;
0245426230999992000042600004+24770+093900FM-12+0781VEIM V0209999C00001036001CN0020001N1+01801+01741100671ADDAA199000091AY121061AY221061GA1031+005409069GA2011+007509099GF106991041091004501031001MA1999999091981MD1999999-0031MW1171REMSYN094AAXX  26004 42623 31495 60000 10180 20174 39198 40067 71722 84930 333 59003 83618 81925 85360;EQDQ01  00002PRCP99
0195426230999992000042609004+24770+093900FM-12+0781VEIM V0209999C000012200019N0040001N1+02701+01681100181ADDAA199000091GA1021+006009069GF104991041081008001031001MA1999999091791MD1999999-0581REMSYN082AAXX  26094 42623 32596 40000 10270 20168 39179 40018 84830 333 59058 82620 83825;EQDQ01  00002PRCP99
0284426230999992000042712004+24770+093900FM-12+0781VEIM V0209999C000010048019N0040001N1+02241+02031100381ADDAA100001091AA209001091AY161061AY221061GA1021+002409079GA2041+004809069GA3011+009009099GF108991051031002501021999KA1120M+02581MA1999999091851MD1999999-0051MW1601REMSYN112AAXX  27124 42623 21396 80000 10224 20203 39185 40038 76062 8532/ 333 10258 59005 6001/ 82708 84616 81930 88459;
0243426230999992000042806004+24770+093900FM-12+0781VEIM V0209999C000010048019N0040001N1+01941+01881100591ADDAA100008991AA203009091AY161061AY261061GA1031+002409079GA2041+004809069GF108991061091002501021999MA1999999091961MD1999999-0101MW1511REMSYN100AAXX  28064 42623 21396 80000 10194 20188 39196 40059 75166 8692/ 333 59010 6009/ 83708 84616 81930;
0284426230999992000042903004+24770+093900FM-12+0781VEIM V0209999C000010048019N0040001N1+01841+01841100951ADDAA100048091AA224048091AY161031AY251031GA1031+002409079GA2041+004809069GA3011+007509099GF108991061031002501021999KA1120N+01681MA1999999092281MD1999999+0231MW1501REMSYN112AAXX  29034 42623 21396 80000 10184 20184 39228 40095 75065 8632/ 333 20168 58023 6048/ 83708 84616 81925 88459;
0243426230999992000042906004+24770+093900FM-12+0781VEIM V0209999C000010054019N0040001N1+02261+01801100781ADDAA100000191AA203000291AY161061AY231061GA1021+002409079GA2041+005409069GF106991051061002501001011MA1999999092221MD1999999+0261MW1011REMSYN100AAXX  29064 42623 21396 60000 10226 20180 39222 40078 70163 85601 333 58026 6992/ 82708 84618 85075;
0265426230999992000042909004+24770+093900FM-12+0781VEIM V0209999C000010054019N0040001N1+02441+01831100521ADDAA100000191AA206000291AY161031AY261031GA1021+002409079GA2041+005409069GA3011+009009099GF107991051031002501021001MA1999999092041MD1999999+0061MW1601REMSYN106AAXX  29094 42623 21396 70000 10244 20183 39204 40052 76066 85320 333 58006 6992/ 82708 84618 81930 86460;
0240426230999992000043003004+24770+093900FM-12+0781VEIM V0209999C000012200019N0040001N1+02261+01861101051ADDAA100049091AA224049091AY161031AY261031GA1021+005409069GF104991021051004501031011KA1120N+01641MA1999999092471MD1999999+0191MW1011REMSYN100AAXX  30034 42623 21496 40000 10226 20186 39247 40105 70166 82531 333 20164 58019 6049/ 82618 83360;
0221426230999992000043015004+24770+093900FM-12+0781VEIM V0209999C000012200019N0040001N1+02341+02101100511ADDAA100002091AA212002091AY131031AY201031GA1031+005409069GF104991031031004501031001MA1999999092001MD1999999-0311MW1131REMSYN094AAXX  30154 42623 21496 40000 10234 20210 39200 40051 71330 83330 333 59031 6002/ 83618 81930;
0265426230999992000050200004+24770+093900FM-12+0781VEIM V0209999C000010054019N0040001N1+01801+01771101191ADDAA100009991AA221010091AY191061AY261061GA1021+002409079GA2041+005409069GA3011+009009099GF108991051031002501021999MA1999999092451MD1999999+0141MW1051REMSYN106AAXX  02004 42623 21396 80000 10180 20177 39245 40119 70596 8532/ 333 58014 6010/ 82708 84618 81930 88460;
0284426230999992000050203004+24770+093900FM-12+0781VEIM V0201801N002610048019N0040001N1+01941+01621101151ADDAA100009991AA224010091AY151031AY221031GA1021+001809079GA2041+004809069GA3011+009009099GF108991061031001501021999KA1120N+01721MA1999999092471MD1999999-0041MW1501REMSYN112AAXX  02034 42623 21296 81805 10194 20162 39247 40115 75052 8632/ 333 20172 59004 6010/ 82706 84616 81930 88459;
0245426230999992000050315004+24770+093900FM-12+0781VEIM V0209999C00001036001CN0040001N1+02101+01791101011ADDAA199000091AY121031AY221031GA1021+005409069GA2011+009009099GF105991031031004501031001MA1999999092371MD1999999-0201MW1131REMSYN094AAXX  03154 42623 31496 50000 10210 20179 39237 40101 71322 83330 333 59020 82618 81930 84260;EQDQ01  00002PRCP99
0195426230999992000050321004+24770+093900FM-12+0781VEIM V0209999C00001036001CN0040001N1+01861+01731101001ADDAA199000091GA1021+005409069GF105991021051004501031001MA1999999092311MD1999999-0171REMSYN082AAXX  03214 42623 32496 50000 10186 20173 39231 40100 82530 333 59017 82618 84360;EQDQ01  00002PRCP99
0195426230999992000050400004+24770+093900FM-12+0781VEIM V0209999C00001036001CN0040001N1+01801+01671101151ADDAA199000091GA1021+005409069GF106991021051004501031011MA1999999092421MD1999999-0051REMSYN082AAXX  04004 42623 32496 60000 10180 20167 39242 40115 82531 333 59005 82618 84070;EQDQ01  00002PRCP99
0284426230999992000050603004+24770+093900FM-12+0781VEIM V0202501N001510054019N0040001N1+02181+01941101281ADDAA100007192AA224007092AY151031AY221031GA1021+002409079GA2041+005409069GA3011+007509099GF107991051091002501021001KA1120N+01851MA1999999092651MD1999999+0091MW1501REMSYN112AAXX  06034 42623 21396 72503 10218 20194 39265 40128 75052 85920 333 20185 58009 6007/ 82708 84618 81925 87460;
0253426230999992000050703004+24770+093900FM-12+0781VEIM V0209999C00001036001CN0040001N1+02301+02001101211ADDAA100006192AA224006092GA1011+002409079GA2041+005409069GF107991041071002501031001KA1120M+02861KA2120N+01941MA1999999092621MD1999999-0031REMSYN106AAXX  07034 42623 22396 70000 10230 20200 39262 40121 84730 333 10286 20194 59003 6006/ 81708 84618 86360;
0214426230999992000050803004+24770+093900FM-12+0781VEIM V0209999C00001036001CN0040001N1+02541+01941100861ADDAA199000091GA1021+005409069GF106991021051004501031011KA1120N+02041MA1999999092371MD1999999-0251REMSYN088AAXX  08034 42623 32496 60000 10254 20194 39237 40086 82531 333 20204 59025 82618 85070;EQDQ01  00002PRCP99
0223426230999992000050918004+24770+093900FM-12+0781VEIM V0209999C000012200019N0040001N1+02301+01941100671ADDAA199000091AY101061AY201061GA1011+005409069GF103991021031004501031001MA1999999092121MD1999999+0001MW1131REMSYN088AAXX  09184 42623 31496 30000 10230 20194 39212 40067 71300 82330 333 58000 81618 81930;EQDQ01  00002PRCP99
0223426230999992000050921004+24770+093900FM-12+0781VEIM V0209999C000012200019N0040001N1+02141+01931100671ADDAA199000091AY101031AY201031GA1011+005409069GF103991021031004501031001MA1999999092091MD1999999+0011MW1051REMSYN088AAXX  09214 42623 31496 30000 10214 20193 39209 40067 70500 82330 333 58001 81618 81930;EQDQ01  00002PRCP99
0217426230999992000051000004+24770+093900FM-12+0781VEIM V0209999C000012200019N0040001N1+02061+01971100781ADDAA199000091AY101061AY201061GA1021+005409059GF103991021041004501031011MA1999999092161MD1999999-0121MW1051REMSYN082AAXX  10004 42623 31496 30000 10206 20197 39216 40078 70500 82431 333 59012 82618;EQDQ01  00002PRCP99
0195426230999992000051006004+24770+093900FM-12+0781VEIM V0202501N00151090001CN0040001N1+02841+02071100491ADDAA199000091GA1021+006009069GF105991021051008001031011MA1999999092121MD1999999-0081REMSYN082AAXX  10064 42623 32596 52503 10284 20207 39212 40049 82531 333 59008 82620 84070;EQDQ01  00002PRCP99
0214426230999992000051012004+24770+093900FM-12+0781VEIM V0203201N002112200019N0040001N1+02701+02091100141ADDAA199000091GA1021+006009069GF103991031041008001001001KA1120M+02991MA1999999091751MD1999999-0191REMSYN088AAXX  10124 42623 32596 33204 10270 20209 39175 40014 83400 333 10299 59019 82620 83825;EQDQ01  00002PRCP99
0217426230999992000051021004+24770+093900FM-12+0781VEIM V0209999C00001005401CN0040001N1+02301+02031100421ADDAA199000091GA1021+002409079GA2031+005409069GF106991041071002501021001MA1999999091891MD1999999-0201REMSYN088AAXX  10214 42623 32396 60000 10230 20203 39189 40042 84720 333 59020 82708 83618 87459;EQDQ01  00002PRCP99
0242426230999992000051103004+24770+093900FM-12+0781VEIM V0209999C000012200019N0040001N1+02701+02121100531ADDAA199000091AY121031AY221031GA1021+006009069GF104991021051008001031011KA1120N+02091MA1999999092101MD1999999-0141MW1051REMSYN094AAXX  11034 42623 31596 40000 10270 20212 39210 40053 70522 82531 333 20209 59014 82620 83070;EQDQ01  00002PRCP99
0189426230999992000051106004+24770+093900FM-12+0781VEIM V0202701N002112200019N0040001N1+03001+02171100261ADDAA199000091GA1021+006009059GF104991021041008001031001MA1999999091931MD1999999-0191REMSYN076AAXX  11064 42623 32596 42704 10300 20217 39193 40026 82430 333 59019 82620;EQDQ01  00002PRCP99
0195426230999992000051121004+24770+093900FM-12+0781VEIM V0209999C000012200019N0040001N1+02361+02061100281ADDAA199000091GA1021+005409069GF104991021051004501031001MA1999999091791MD1999999-0101REMSYN082AAXX  11214 42623 32496 40000 10236 20206 39179 40028 82530 333 59010 82618 83360;EQDQ01  00002PRCP99
0217426230999992000051200004+24770+093900FM-12+0781VEIM V0209999C000012200019N0020001N1+02221+02131100541ADDAA199000091AY101061AY201061GA1011+005409059GF102991011041004501031001MA1999999092001MD1999999+0021MW1051REMSYN082AAXX  12004 42623 31495 20000 10222 20213 39200 40054 70500 81430 333 58002 81618;EQDQ01  00002PRCP99
0236426230999992000051203004+24770+093900FM-12+0781VEIM V0209999C000012200019N0040001N1+02761+02211100461ADDAA199000091AY101031AY201031GA1031+005409059GF103991031041004501001001KA1120N+02061MA1999999092071MD1999999-0031MW1051REMSYN088AAXX  12034 42623 31496 30000 10276 20221 39207 40046 70500 83400 333 20206 59003 83618;EQDQ01  00002PRCP99
0284426230999992000051209004+24770+093900FM-12+0781VEIM V0209999C00001007501CN0040001N1+02781+02301099961ADDAA100000791AA206999999AY191031AY261031GA1021+005409069GA2031+007509089GA3011+009009099GF106991041091004501021001MA1999999091611MD1999999+0011MW1171REMSYN106AAXX  12094 42623 21496 60000 10278 20230 39161 49996 71796 84920 333 58001 6990/ 82618 83825 81930 86459;EQDQ01  99992PRCP06
0223426230999992000051315004+24770+093900FM-12+0781VEIM V0209999C000012200019N0040001N1+02541+01941100211ADDAA199000091AY101031AY201031GA1011+005409069GF102991021031004501031001MA1999999091781MD1999999-0111MW1131REMSYN088AAXX  13154 42623 31496 20000 10254 20194 39178 40021 71300 82330 333 59011 81618 81930;EQDQ01  00002PRCP99
0205426230999992000051321004+24770+093900FM-12+0781VEIM V0209999C000012200019N0040001N1+02241+02001100441ADDAA199000091GA1031+033009099GF199999011041004501031001MA1999999091911MD1999999+0011REMSYN076AAXX  13214 42623 32496 20000 10224 20200 39191 40044 81430 333 58001 83161;EQDQ01+000022SCOTCVQ02  00002PRCP99
0181426230999992000051500004+24770+093900FM-12+0781VEIM V0209999C000012200019N0020001N1+02141+02021100371ADDAA199000091AY101061AY201061GF103991031051004501001001MA1999999091821MW1051REMSYN076AAXX  15004 42623 31495 30000 10214 20202 39182 40037 70500 83500 333 590//;EQDQ01  00002PRCP99
0217426230999992000051606004+24770+093900FM-12+0781VEIM V0202001N00151220001CN0040001N1+03021+02191099971ADDAA199000091GA1021+007509089GA2011+009009099GF105991031031008001001011MA1999999091691MD1999999-0101REMSYN088AAXX  16064 42623 32596 52003 10302 20219 39169 49997 83301 333 59010 82825 81930 85070;EQDQ01  00002PRCP99
0265426230999992000051615004+24770+093900FM-12+0781VEIM V0209999C000010048019N0040001N1+02161+02161100311ADDAA100038192AA212038092AY191031AY261031GA1031+001809079GA2041+004809069GA3011+009009099GF108991061031001501021999MA1999999091761MD1999999-0071MW1601REMSYN106AAXX  16154 42623 21296 80000 10216 20216 39176 40031 76096 8632/ 333 59007 6038/ 83706 84616 81930 88459;
0265426230999992000051621004+24770+093900FM-12+0781VEIM V0209999C000010048019N0040001N1+02081+02081100301ADDAA100038192AA218038092AY161031AY261031GA1031+001809079GA2041+004809069GA3011+009009099GF108991061031001501021999MA1999999091751MD1999999-0091MW1611REMSYN106AAXX  16214 42623 21296 80000 10208 20208 39175 40030 76166 8632/ 333 59009 6038/ 83706 84616 81930 88459;
0214426230999992000051712004+24770+093900FM-12+0781VEIM V0209999C000012200019N0040001N1+02821+02281099611ADDAA199000091GA1021+006009069GF104991041041008001001001KA1120M+03111MA1999999091321MD1999999-0331REMSYN088AAXX  17124 42623 32596 40000 10282 20228 39132 49961 84400 333 10311 59033 82620 83825;EQDQ01  00002PRCP99
0243426230999992000051800004+24770+093900FM-12+0781VEIM V0209999C000010048019N0020001N1+02281+02221100111ADDAA100001091AA221001091AY121061AY221061GA1031+001809079GA2041+004809069GF107991051071001501021001MA1999999091611MD1999999-0051MW1051REMSYN100AAXX  18004 42623 21295 70000 10228 20222 39161 40011 70522 85720 333 59005 6001/ 83706 84616 87459;
0265426230999992000051809004+24770+093900FM-12+0781VEIM V0209999C000010054019N0040001N1+02781+02211099641ADDAA100003091AA206003091AY161031AY231031GA1021+002409079GA2041+005409069GA3011+009009099GF108991061031002501021999MA1999999091311MD1999999+0001MW1151REMSYN106AAXX  18094 42623 21396 80000 10278 20221 39131 49964 71563 8632/ 333 58000 6003/ 82708 84618 81930 88460;
0265426230999992000051900004+24770+093900FM-12+0781VEIM V0209999C000010048019N0020001N1+02301+02241099981ADDAA100005192AA221005092AY121061AY221061GA1031+001809079GA2041+004809069GA3011+007509099GF108991061031001501021999MA1999999091491MD1999999-0121MW1051REMSYN106AAXX  19004 42623 22295 80000 10230 20224 39149 49998 70522 8632/ 333 59012 6005/ 83706 84616 81925 88459;
0284426230999992000051903004+24770+093900FM-12+0781VEIM V0201401N002610048019N0020001N1+02081+02051100371ADDAA100026991AA224027091AY191031AY221031GA1031+001809079GA2041+004809069GA3011+007509099GF108991061091001501021999KA1120N+01941MA1999999091791MD1999999+0121MW1951REMSYN112AAXX  19034 42623 21295 81405 10208 20205 39179 40037 79592 8692/ 333 20194 58012 6027/ 83706 84616 81925 88459;
0265426230999992000051906004+24770+093900FM-12+0781VEIM V0209999C000010054019N0040001N1+02401+02171100251ADDAA100002091AA203002091AY161061AY251061GA1021+002409079GA2041+005409069GA3011+007509099GF108991051091002501021999MA1999999091761MD1999999+0191MW1501REMSYN106AAXX  19064 42623 21396 80000 10240 20217 39176 40025 75065 8592/ 333 58019 6002/ 82708 84618 81925 88459;
0237426230999992000052000004+24770+093900FM-12+0781VEIM V0209999C000010054019N0040001N1+01941+01751100661ADDAA100005192AA221005092GA1021+002409079GA2041+005409069GA3011+009009099GF107991051031002501021001MA1999999092031MD1999999+0441REMSYN100AAXX  20004 42623 22396 70000 10194 20175 39203 40066 85320 333 58044 6005/ 82708 84618 81930 87459;
0217426230999992000052006004+24770+093900FM-12+0781VEIM V0209999C000010054019N0040001N1+02241+01781100641ADDAA199000091GA1021+002409079GA2041+005409069GF107991051071002501021001MA1999999092091MD1999999+0331REMSYN088AAXX  20064 42623 32396 70000 10224 20178 39209 40064 85720 333 58033 82708 84618 87460;EQDQ01  00002PRCP99
0245426230999992000052015004+24770+093900FM-12+0781VEIM V0209999C000010054019N0040001N1+02081+01871100661ADDAA199000091AY121031AY221031GA1021+002409079GA2041+005409069GF107991051071002501031001MA1999999092051MD1999999+0051MW1051REMSYN094AAXX  20154 42623 31396 70000 10208 20187 39205 40066 70522 85730 333 58005 82708 84618 86360;EQDQ01  00002PRCP99
0245426230999992000052021004+24770+093900FM-12+0781VEIM V0209999C000010054019N0040001N1+01941+01821100661ADDAA199000091AY121031AY221031GA1021+002409079GA2041+005409069GF107991051071002501031001MA1999999092031MD1999999+0011MW1051REMSYN094AAXX  20214 42623 31396 70000 10194 20182 39203 40066 70522 85730 333 58001 82708 84618 86360;EQDQ01  00002PRCP99
0255426230999992000052103004+24770+093900FM-12+0781VEIM V0209999C000010054019N0040001N1+02161+01851100711ADDAA199000091GA1031+002409079GA2041+005409069GF108991061071002501021999KA1120M+02331KA2120N+01941MA1999999092131MD1999999-0041REMSYN100AAXX  21034 42623 32396 80000 10216 20185 39213 40071 8672/ 333 10233 20194 59004 83708 84618 88459;EQDQ01  00002PRCP99
0239426230999992000052109004+24770+093900FM-12+0781VEIM V0209999C000010054019N0040001N1+02501+01901100301ADDAA199000091GA1021+002409079GA2041+005409069GA3011+007509099GF107991051031002501021001MA1999999091841MD1999999-0061REMSYN094AAXX  21094 42623 32396 70000 10250 20190 39184 40030 85320 333 59006 82708 84618 81925 87459;EQDQ01  00002PRCP99
0236426230999992000052112004+24770+093900FM-12+0781VEIM V0209999C00001036001CN0040001N1+02401+02011100281ADDAA199000091GA1011+002409079GA2041+005409069GF107991041061002501031001KA1120M+02521MA1999999091791MD1999999-0091REMSYN094AAXX  21124 42623 32396 70000 10240 20201 39179 40028 84630 333 10252 59009 81708 84618 86360;EQDQ01  00002PRCP99
0217426230999992000052115004+24770+093900FM-12+0781VEIM V0209999C00001036001CN0040001N1+02241+02061100541ADDAA199000091GA1011+002409079GA2041+005409069GF107991041061002501031001MA1999999092001MD1999999-0051REMSYN088AAXX  21154 42623 32396 70000 10224 20206 39200 40054 84630 333 59005 81708 84618 86360;EQDQ01  00002PRCP99
0236426230999992000052203004+24770+093900FM-12+0781VEIM V0209999C000010054019N0040001N1+02341+01981100651ADDAA199000091GA1031+002409079GA2051+005409069GF108991051071002501021011KA1120N+02031MA1999999092131MD1999999+0001REMSYN094AAXX  22034 42623 32396 80000 10234 20198 39213 40065 85721 333 20203 58000 83708 85618 88459;EQDQ01  00002PRCP99
0243426230999992000052206004+24770+093900FM-12+0781VEIM V0209999C000010048019N0040001N1+02341+02011100621ADDAA100000791AA203999929AY161061AY211061GA1031+002409079GA2041+004809069GF108991061071002501021999MA1999999092101MD1999999+0071MW1601REMSYN100AAXX  22064 42623 21396 80000 10234 20201 39210 40062 76061 8672/ 333 58007 6990/ 83708 84616 88459;
0234426230999992000052212004+24770+093900FM-12+0781VEIM V0209999C000010054019N0040001N1+02341+02101100411ADDAA100001091AA209001091GA1021+002409079GA2041+005409069GF108991051071002501021999KA1120M+02511MA1999999091911MD1999999+0121REMSYN100AAXX  22124 42623 22396 80000 10234 20210 39191 40041 8572/ 333 10251 58012 6001/ 82708 84618 88459;
0243426230999992000052221004+24770+093900FM-12+0781VEIM V0209999C000010048019N0040001N1+02121+02091100631ADDAA100002091AA218002091AY151031AY251031GA1031+001809079GA2041+004809069GF108991061071001501021999MA1999999092051MD1999999+0051MW1511REMSYN100AAXX  22214 42623 21296 80000 10212 20209 39205 40063 75155 8672/ 333 58005 6002/ 83706 84616 88459;
0234426230999992000052303004+24770+093900FM-12+0781VEIM V0209999C000010048019N0040001N1+02281+02101100621ADDAA100003091AA224003091GA1031+002409079GA2041+004809069GF108991061071002501021999KA1120N+02021MA1999999092071MD1999999-0061REMSYN100AAXX  23034 42623 22396 80000 10228 20210 39207 40062 8672/ 333 20202 59006 6003/ 83708 84616 88459;
0198426230999992000052309004+24770+093900FM-12+0781VEIM V0209999C000010054019N0040001N1+02641+02081100121ADDAA199000021GA1011+003009079GA2041+005409069GF107991051061004501031001MA1999999091731MD1999999-0221REMSYN088AAXX  23094 42623 32496 70000 10264 20208 39173 40012 85630 333 59022 81710 84618 86360;
0215426230999992000052315004+24770+093900FM-12+0781VEIM V0209999C000010054019N0040001N1+02201+02081100421ADDAA100003091AA212003091GA1021+002409079GA2051+005409069GF108991051071002501021999MA1999999091871MD1999999-0221REMSYN094AAXX  23154 42623 22396 80000 10220 20208 39187 40042 8572/ 333 59022 6003/ 82708 85618 88459;
0262426230999992000052403004+24770+093900FM-12+0781VEIM V0209999C000010048019N0020001N1+02201+02141100311ADDAA100022192AA224022092AY161031AY251031GA1031+002109079GA2051+004809069GF108991061071002501021999KA1120N+02041MA1999999091761MD1999999-0311MW1201REMSYN106AAXX  24034 42623 21395 80000 10220 20214 39176 40031 72065 8672/ 333 20204 59031 6022/ 83707 85616 88459;
0265426230999992000052406004+24770+093900FM-12+0781VEIM V0209999C000010048019N0040001N1+02441+02181100121ADDAA100000191AA203000291AY151061AY221061GA1031+002409079GA2041+004809069GA3011+007509099GF107991051071002501021001MA1999999091671MD1999999-0271MW1501REMSYN106AAXX  24064 42623 21396 70000 10244 20218 39167 40012 75052 85720 333 59027 6992/ 83708 84616 81925 87459;
0264426230999992000052412004+24770+093900FM-12+0781VEIM V0209999C000010054019N0040001N1+02381+02211099921ADDAA100000191AA209000291AY161061AY221061GA1021+002409079GA2041+005409069GA3011+009009099GF107991051031002501031001KA1120M+02581MA1999999091461MW1211REMSYN106AAXX  24124 42623 21396 70000 10238 20221 39146 49992 72162 85330 333 10258 6992/ 82708 84618 81930 86360;
0243426230999992000052418004+24770+093900FM-12+0781VEIM V0209999C000010048019N0040001N1+02201+02171100151ADDAA100000891AA215000891AY161061AY221061GA1031+001809079GA2041+004809069GF108991061071001501021999MA1999999091621MD1999999-0201MW1601REMSYN100AAXX  24184 42623 21296 80000 10220 20217 39162 40015 76062 8672/ 333 59020 6998/ 83706 84616 87459;
0262426230999992000052503004+24770+093900FM-12+0781VEIM V0209999C000010054019N0040001N1+02321+02261100041ADDAA100010991AA224011091AY161031AY221031GA1021+002409079GA2041+005409069GF106991051071002501031001KA1120N+01951MA1999999091571MD1999999-0191MW1011REMSYN106AAXX  25034 42623 21396 60000 10232 20226 39157 40004 70162 85730 333 20195 59019 6011/ 82708 84618 86360;
0284426230999992000052612004+24770+093900FM-12+0781VEIM V0209999C000010045019N0040001N1+02101+02041100261ADDAA100010991AA209011091AY161061AY251061GA1031+001809079GA2051+004509069GA3011+007509099GF108991061091001501021999KA1120M+02941MA1999999091691MD1999999+0361MW1601REMSYN112AAXX  26124 42623 21296 80000 10210 20204 39169 40026 76065 8692/ 333 10294 58036 6011/ 83706 85615 81925 88459;
0265426230999992000052700004+24770+093900FM-12+0781VEIM V0209999C000010045019N0020001N1+02001+01971100611ADDAA100019192AA221019092AY161061AY251061GA1031+001809079GA2051+004509069GA3011+007509099GF108991061031001501021999MA1999999091981MD1999999+0461MW1601REMSYN106AAXX  27004 42623 21295 80000 10200 20197 39198 40061 76065 8632/ 333 58046 6019/ 83706 85615 81925 88459;
0284426230999992000052703004+24770+093900FM-12+0781VEIM V0209999C000010054019N0040001N1+02241+02031100471ADDAA100029091AA224029091AY161031AY251031GA1021+002409079GA2041+005409069GA3011+007509099GF107991051031002501021001KA1120N+01951MA1999999091941MD1999999+0241MW1201REMSYN112AAXX  27034 42623 21396 70000 10224 20203 39194 40047 72065 85320 333 20195 58024 6029/ 82708 84618 81925 87460;
0265426230999992000052709004+24770+093900FM-12+0781VEIM V0201801N002110048019N0040001N1+02101+02041100401ADDAA100004192AA206004092AY161031AY241031GA1031+001809079GA2041+004809069GA3011+007509099GF108991061031001501021999MA1999999091821MD1999999+0291MW1601REMSYN106AAXX  27094 42623 21296 81804 10210 20204 39182 40040 76064 8632/ 333 58029 6004/ 83706 84616 81925 88459;
0234426230999992000052712004+24770+093900FM-12+0781VEIM V0209999C000010054019N0040001N1+02201+02021100111ADDAA100004192AA209004092GA1021+002409079GA2051+005409069GF108991061071002501021999KA1120M+02461MA1999999091761MD1999999+0071REMSYN100AAXX  27124 42623 22396 80000 10220 20202 39176 40011 8672/ 333 10246 58007 6004/ 82708 85618 88459;
0243426230999992000052721004+24770+093900FM-12+0781VEIM V0209999C000010054019N0040001N1+02021+01961100441ADDAA100013091AA218013091AY161031AY251031GA1021+002409079GA2051+005409069GF108991051071002501021999MA1999999091851MD1999999+0191MW1611REMSYN100AAXX  27214 42623 21396 80000 10202 20196 39185 40044 76165 8572/ 333 58019 6013/ 82708 85618 88459;
0234426230999992000052803004+24770+093900FM-12+0781VEIM V0209999C000010054019N0040001N1+02141+02021100711ADDAA100019192AA224019092GA1021+002409079GA2041+005409069GF107991051071002501031001KA1120N+01991MA1999999092131MD1999999+0191REMSYN100AAXX  28034 42623 22396 70000 10214 20202 39213 40071 85730 333 20199 58019 6019/ 82708 84618 87360;
0195426230999992000052915004+24770+093900FM-12+0781VEIM V0209999C000010360019N0040001N1+02401+01951100551ADDAA199000091GA1011+002409079GF105991041071002501031001MA1999999090241MD1999999+0041REMSYN082AAXX  29154 42623 32396 50000 10240 20195 39024 40055 84730 333 58004 81708 83618;EQDQ01  00002PRCP99
0262426230999992000053103004+24770+093900FM-12+0781VEIM V0209999C000010054019N0040001N1+02261+02171100711ADDAA100005192AA224005092AY121031AY221031GA1021+002409079GA2041+005409069GF107991051071002501021001KA1120N+02061MA1999999092061MD1999999-0081MW1051REMSYN106AAXX  31034 42623 21396 70000 10226 20217 39206 40071 70522 85720 333 20206 59008 6005/ 82708 84618 87460;
0214426230999992000053112004+24770+093900FM-12+0781VEIM V0203201N00261036001CN0040001N1+02601+02171099941ADDAA199000091GA1031+005409069GF106991031051004501031011KA1120M+02941MA1999999091551MD1999999-0151REMSYN088AAXX  31124 42623 32496 63205 10260 20217 39155 49994 83531 333 10294 59015 83618 85360;EQDQ01  00002PRCP99
0262426230999992000060103004+24770+093900FM-12+0781VEIM V0209999C000010054019N0040001N1+02641+02271100331ADDAA100002091AA224002091AY161031AY241031GA1021+002409079GA2041+005409069GF107991051071002501021001KA1120N+02091MA1999999091921MD1999999-0141MW1051REMSYN106AAXX  01034 42623 21396 70000 10264 20227 39192 40033 70564 85720 333 20209 59014 6002/ 82708 84618 86460;
0217426230999992000060106004+24770+093900FM-12+0781VEIM V0201401N002110054019N0040001N1+02841+02241100131ADDAA199000091GA1021+003009079GA2041+005409069GF106991051071004501031011MA1999999091791MD1999999-0131REMSYN088AAXX  01064 42623 32496 61404 10284 20224 39179 40013 85731 333 59013 82710 84618 85360;EQDQ01  00002PRCP99
0262426230999992000060203004+24770+093900FM-12+0781VEIM V0209999C000010054019N0040001N1+02421+02221100531ADDAA100005192AA224005092AY121031AY221031GA1031+002409079GA2041+005409069GF108991061071002501021999KA1120N+02011MA1999999092051MD1999999+0131MW1051REMSYN106AAXX  02034 42623 21396 80000 10242 20222 39205 40053 70522 8672/ 333 20201 58013 6005/ 83708 84618 88459;
0284426230999992000060403004+24770+093900FM-12+0781VEIM V0201801N002110048019N0020001N1+02341+02311100591ADDAA100007192AA224007092AY191031AY221031GA1031+001809079GA2051+004809069GA3021+007509099GF108991061091001501021999KA1120N+02221MA1999999092071MD1999999+0141MW1951REMSYN112AAXX  04034 42623 21295 81804 10234 20231 39207 40059 79592 8692/ 333 20222 58014 6007/ 83706 85616 82925 88459;
0234426230999992000060412004+24770+093900FM-12+0781VEIM V0209999C00001005401CN0040001N1+02501+02241100141ADDAA100009991AA209010091GA1021+002409079GA2031+005409069GF107991041071002501031001KA1120M+02581MA1999999091691MD1999999+0191REMSYN100AAXX  04124 42623 22396 70000 10250 20224 39169 40014 84730 333 10258 58019 6010/ 82708 83618 86360;
0223426230999992000060515004+24770+093900FM-12+0781VEIM V0209999C000010360019N0040001N1+02421+02221100421ADDAA199000091AY121031AY221031GA1021+003009079GF106991041031004501031001MA1999999091951MD1999999+0081MW1131REMSYN088AAXX  05154 42623 31496 60000 10242 20222 39195 40042 71322 84330 333 58008 82710 83618;EQDQ01  00002PRCP99
0262426230999992000060706004+24770+093900FM-12+0781VEIM V0201401N002610054019N0040001N1+02941+02291100441ADDAA100000791AA203999999AY161061AY221061GA1011+002409079GA2041+005409069GF107991051071002501031001MA1999999092101MD1999999+0091MW1021REMSYN100AAXX  07064 42623 21396 71405 10294 20229 39210 40044 70262 85730 333 58009 6990/ 81708 84618 85360;EQDQ01  99992PRCP03
0231426230999992000060709004+24770+093900FM-12+0781VEIM V0202701N004110048019N0020001N1+02481+02371100411ADDAA100005192AA206005092GA1031+001809079GA2051+004809069GA3011+009009099GF108991999999001501999999MA1999999091941MD1999999+0101REMSYN094AAXX  07094 42623 21295 82708 10248 20237 39194 40041 333 58010 6005/ 83706 85616 81930 88459;
0234426230999992000060712004+24770+093900FM-12+0781VEIM V0209999C000010054019N0040001N1+02561+02361100341ADDAA100008991AA209009091GA1031+002409079GA2041+005409069GF107991051071002501021001KA1120M+03021MA1999999091901MD1999999+0021REMSYN100AAXX  07124 42623 22396 70000 10256 20236 39190 40034 85720 333 10302 58002 6009/ 83708 84618 87459;
0193426230999992000060800004+24770+093900FM-12+0781VEIM V0209999C00001001201CN0040001N1+02341+02221100581ADDAA100008991AA221009091GA1031+001809079GF107991051071001501021001MA1999999092061MD1999999-0031REMSYN088AAXX  08004 42623 22296 70000 10234 20222 39206 40058 85720 333 59003 6009/ 83706 87459;
0265426230999992000060806004+24770+093900FM-12+0781VEIM V0203201N002110054019N0040001N1+02581+02291100521ADDAA100000592AA203000492AY121061AY221061GA1021+002409079GA2041+005409069GA3011+009009099GF107991051031002501031001MA1999999092061MD1999999-0041MW1601REMSYN106AAXX  08064 42623 21396 73204 10258 20229 39206 40052 76022 85330 333 59004 6994/ 82708 84618 81930 86360;
0220426230999992000060812004+24770+093900FM-12+0781VEIM V0209999C00001036001CN0040001N1+02721+02261100131ADDAA100001091AA209001091GA1031+005409069GA2011+009009099GF106991041031004501031001KA1120M+03031MA1999999091761REMSYN100AAXX  08124 42623 22496 60000 10272 20226 39176 40013 84330 333 10303 50014 6001/ 83618 81930 83360;
0310426230999992000060915004+24770+093900FM-12+0781VEIM V0209999C000012200019N0040001N1+02401+02341100251ADDAA100000791AA212999999AY121031AY221031GA1021+002409079GA2031+005409069GF199999999999999999001001MA1999999091761MD1999999-0261MW1051REMSYN100AAXX  09154 42623 21396 00000 10240 20234 39176 40025 70522 84730 333 59026 6990/ 82708 83618 86360;EQDQ01+000002SCOTCVQ02+000002SCOTLCQ03+000002SCOLCGQ04  99992PRCP12
0234426230999992000061000004+24770+093900FM-12+0781VEIM V0209999C000010054019N0040001N1+02401+02261100281ADDAA100000791AA221999999GA1021+002409079GA2041+005409069GF108991061071002501021999MA1999999091791MD1999999-0231REMSYN094AAXX  10004 42623 22396 80000 10240 20226 39179 40028 8672/ 333 59023 6990/ 82708 84618 88459;EQDQ01  99992PRCP21
0262426230999992000061203004+24770+093900FM-12+0781VEIM V0209999C000010048019N0040001N1+02441+02371100081ADDAA100029091AA224029091AY151031AY221031GA1021+002409079GA2041+004809069GF107991051071002501021001KA1120N+02241MA1999999091641MD1999999-0131MW1201REMSYN106AAXX  12034 42623 21396 70000 10244 20237 39164 40008 72052 85720 333 20224 59013 6029/ 82708 84616 87460;
0243426230999992000061415004+24760+093890FM-12+0781VEIM V0209999C00001036001CN0040001N1+02361+02221100221ADDAA100000191AA212000291AY121031AY221031GA1021+005409069GA2011+009009099GF106991031031004501031001MA1999999091741MD1999999+0091MW1131REMSYN100AAXX  14154 42623 21496 60000 10236 20222 39174 40022 71322 83330 333 58009 6992/ 82618 81930 85360;
0193426230999992000061421004+24760+093890FM-12+0781VEIM V0209999C00001036001CN0040001N1+02301+02011100141ADDAA100000191AA218000291GA1031+005409069GF106991031041004501031001MA1999999091641MD1999999+0001REMSYN088AAXX  14214 42623 22496 60000 10230 20201 39164 40014 83430 333 58000 6992/ 83618 85360;
0193426230999992000061500004+24760+093890FM-12+0781VEIM V0209999C00001036001CN0040001N1+02341+02071100171ADDAA100000191AA221000291GA1031+005409069GF107991031041004501031001MA1999999091691MD1999999+0021REMSYN088AAXX  15004 42623 22496 70000 10234 20207 39169 40017 83430 333 58002 6992/ 83618 86360;
0221426230999992000061503004+24760+093890FM-12+0781VEIM V0209999C00001036001CN0040001N1+02501+02211100261ADDAA100000191AA224000291GA1011+002409079GA2041+005409069GF107991041071002501051001MA1999999091801MD1999999+0001REMSYN100AAXX  15034 42623 21396 70000 10250 20221 39180 40026 84750 333 2022/ 58000 6992/ 81708 84618 87360;
0195426230999992000061506004+24760+093890FM-12+0781VEIM V0202001N01541036001CN0040001N1+02781+02341100051ADDAA199000091GA1031+005409069GF107991041041004501031001MA1999999091691MD1999999-0041REMSYN082AAXX  15064 42623 32496 72030 10278 20234 39169 40005 84430 333 59004 83618 86360;EQDQ01  00002PRCP99
0236426230999992000061603004+24760+093890FM-12+0781VEIM V0209999C00001003901CN0040001N1+02741+02311100071ADDAA199000091GA1021+002409079GA2031+003909069GF106991041061002501031001KA1120N+02241MA1999999091711MD1999999-0091REMSYN094AAXX  16034 42623 32396 60000 10274 20231 39171 40007 84630 333 20224 59009 82708 83613 85360;EQDQ01  00002PRCP99
0234426230999992000062003004+24760+093890FM-12+0781VEIM V0209999C000010054019N0040001N1+02561+02301100371ADDAA100018091AA224018091GA1021+002409079GA2041+005409069GF107991051071002501031001KA1120N+02221MA1999999091931MD1999999-0051REMSYN100AAXX  20034 42623 22396 70000 10256 20230 39193 40037 85730 333 20222 59005 6018/ 82708 84618 86360;
0243426230999992000062006004+24760+093890FM-12+0781VEIM V0201801N002110054019N0040001N1+02501+02271100351ADDAA100000391AA203000391AY161061AY211061GA1031+001809079GA2041+005409069GF108991061071001501021999MA1999999091881MD1999999-0041MW1601REMSYN100AAXX  20064 42623 21296 81804 10250 20227 39188 40035 76061 8672/ 333 59004 6993/ 83706 84618 88459;
0195426230999992000062106004+24760+093890FM-12+0781VEIM V0203201N00211009001CN0040001N1+02801+02171100291ADDAA199000091GA1041+005409069GF107991051081004501031001MA1999999091911MD1999999+0031REMSYN082AAXX  21064 42623 32496 73204 10280 20217 39191 40029 85830 333 58003 84618 86360;EQDQ01  00002PRCP99
0258426230999992000062112004+24760+093890FM-12+0781VEIM V0209999C00001009001CN0040001N1+02541+02131100261ADDAA199000091GA1011+002409079GA2041+005409069GA3011+009009099GF107991051031002501031001KA1120M+02841MA1999999091301MD1999999+0131REMSYN100AAXX  21124 42623 32396 70000 10254 20213 3913/ 40026 85330 333 10284 58013 81708 84618 81930 87360;EQDQ01  00002PRCP99
0243426230999992000062121004+24760+093890FM-12+0781VEIM V0209999C000010054019N0040001N1+02261+02171100441ADDAA100000191AA218000291AY161031AY221031GA1021+002409079GA2041+005409069GF107991051071002501021001MA1999999091911MD1999999+0051MW1211REMSYN100AAXX  21214 42623 21396 70000 10226 20217 39191 40044 72162 85720 333 58005 6992/ 82708 84618 87459;
0162426230999992000062206004+24760+093890FM-12+0781VEIM V0201401N003110360019N0040001N1+02841+02181100281ADDAA199000021GA1041+005409069GF107991041041004501031001MA1999999091931REMSYN082AAXX  22064 42623 32496 71406 10284 20218 39193 40028 84430 333 5800/ 84618 83630;
0215426230999992000062400004+24760+093890FM-12+0781VEIM V0209999C000010054019N0040001N1+02261+02231100021ADDAA100006192AA221006092GA1021+002409079GA2041+005409069GF108991051071002501021999MA1999999091531MD1999999-0391REMSYN094AAXX  24004 42623 22396 80000 10226 20223 39153 40002 8572/ 333 59039 6006/ 82708 84618 88459;
0243426230999992000062409004+24760+093890FM-12+0781VEIM V0201401N002610054019N0040001N1+02241+02211099901ADDAA100036192AA206036092AY161031AY261031GA1021+002409079GA2041+005409069GF108991051071002501021999MA1999999091421MD1999999-0211MW1601REMSYN100AAXX  24094 42623 21396 81405 10224 20221 39142 49990 76066 8572/ 333 59021 6036/ 82708 84618 88459;
0262426230999992000062412004+24760+093890FM-12+0781VEIM V0209999C99999005401CN0040001N1+02261+02171099861ADDAA100037192AA209037092AY151061AY261061GA1021+002409079GA2031+005409069GF107991041051002501021001KA1120M+02821MA1999999091381MD1999999-0231MW1511REMSYN106AAXX  24124 42623 21396 75000 10226 20217 39138 49986 75156 84520 333 10282 59023 6037/ 82708 83618 8245/;
0215426230999992000062415004+24760+093890FM-12+0781VEIM V0209999C000010054019N0040001N1+02281+02221099991ADDAA100037192AA212037092GA1021+002409079GA2041+005409069GF107991051071002501021001MA1999999091501MD1999999-0221REMSYN094AAXX  24154 42623 22396 70000 10228 20222 39150 49999 85720 333 59022 6037/ 82708 84618 87459;
0243426230999992000062500004+24760+093890FM-12+0781VEIM V0209999C000010054019N0040001N1+02241+02211099971ADDAA100045091AA221045091AY121061AY261061GA1021+002409079GA2041+005409069GF107991051071002501021001MA1999999091481MD1999999-0031MW1051REMSYN100AAXX  25004 42623 21396 70000 10224 20221 39148 49997 70526 85720 333 59003 6045/ 82708 84618 87459;
0243426230999992000062506004+24760+093890FM-12+0781VEIM V0209999C000010048019N0020001N1+02361+02301100161ADDAA100004192AA203004092AY161061AY221061GA1031+001809079GA2041+004809069GF108991061071001501021999MA1999999091681MD1999999+0191MW1601REMSYN100AAXX  25064 42623 21295 80000 10236 20230 39168 40016 76062 8672/ 333 58019 6004/ 83706 84616 88459;
0193426230999992000062615004+24760+093890FM-12+0781VEIM V0209999C000012200019N0040001N1+02401+02111100211ADDAA100001091AA212001091GA1021+005409069GF104991021041004501031001MA1999999091731MD1999999+0031REMSYN088AAXX  26154 42623 22496 40000 10240 20211 39173 40021 82430 333 58003 6001/ 82618 83360;
0243426230999992000062618004+24760+093890FM-12+0781VEIM V0209999C00001036001CN0040001N1+02341+02161100221ADDAA100001091AA215001091AY121061AY221061GA1031+005409069GA2011+009009099GF106991041031004501031001MA1999999091741MD1999999+0011MW1131REMSYN100AAXX  26184 42623 21496 60000 10234 20216 39174 40022 71322 84330 333 58001 6001/ 83618 81930 85360;
0236426230999992000062812004+24760+093890FM-12+0781VEIM V0201401N00211036001CN0040001N1+02801+02231100071ADDAA199000091GA1031+005409069GA2011+009009099GF106991041031004501031001KA1120M+03121MA1999999091721MD1999999+0131REMSYN094AAXX  28124 42623 32496 61404 10280 20223 39172 40007 84330 333 10312 58013 83618 81930 85360;EQDQ01  00002PRCP99
0236426230999992000062903004+24760+093890FM-12+0781VEIM V0203201N00261036001CN0040001N1+02641+02241100531ADDAA199000091GA1011+002409079GA2041+005409069GF106991041061002501031001KA1120N+02341MA1999999092081MD1999999+0021REMSYN094AAXX  29034 42623 32396 63205 10264 20224 39208 40053 84630 333 20234 58002 81708 84618 85360;EQDQ01  00002PRCP99
0234426230999992000062915004+24760+093890FM-12+0781VEIM V0202701N002110054019N0040001N1+02541+02071100351ADDAA100000791AA212999999GA1021+002409079GA2041+005409069GF107991051071002501031001MA1999999091911MD1999999-0061REMSYN094AAXX  29154 42623 22396 72704 10254 20207 39191 40035 85730 333 59006 6990/ 82708 84618 86360;EQDQ01  99992PRCP12
0262426230999992000063003004+24760+093890FM-12+0781VEIM V0209999C000010054019N0040001N1+02481+02251100531ADDAA100001091AA224001091AY161031AY221031GA1021+002409079GA2041+005409069GF107991051071002501031001KA1120N+02201MA1999999092051MD1999999-0031MW1011REMSYN106AAXX  30034 42623 21396 70000 10248 20225 39205 40053 70162 85730 333 20220 59003 6001/ 82708 84618 86360;
0195426230999992000063009004+24760+093890FM-12+0781VEIM V0202701N00151036001CN0040001N1+02781+02181100091ADDAA199000091GA1041+005409069GF107991041041004501031001MA1999999091731MD1999999-0021REMSYN082AAXX  30094 42623 32496 72703 10278 20218 39173 40009 84430 333 59002 84618 86360;EQDQ01  00002PRCP99
0252426230999992000063012004+24760+093890FM-12+0781VEIM V0209999C00001036001CN0040001N1+02621+02161100221ADDAA199000091GA1031+005409069GA2011+009009099GF106991041041004501031001KA1120M+02941MA1999999092342MD1999999+0121REMSYN094AAXX  30124 42623 32496 60000 10262 20216 39234 40022 84430 333 10294 58012 83618 81930 85360;EQDQ01+092343APOSP Q02  00002PRCP99
0243426230999992000070100004+24760+093890FM-12+0781VEIM V0209999C000010048019N0040001N1+02281+02251100471ADDAA100003091AA221003091AY161061AY261061GA1031+002409079GA2051+004809069GF108991061071002501021999MA1999999091941MD1999999+0001MW1601REMSYN100AAXX  01004 42623 21396 80000 10228 20225 39194 40047 76066 8672/ 333 58000 6003/ 83708 85616 88459;
0195426230999992000070200004+24760+093890FM-12+0781VEIM V0209999C00001036001CN0040001N1+02341+02281100401ADDAA199000091GA1031+005409069GF106991031041004501031001MA1999999091911MD1999999-0021REMSYN082AAXX  02004 42623 32496 60000 10234 20228 39191 40040 83430 333 59002 83618 85360;EQDQ01  00002PRCP99
0206426230999992000070203004+24760+093890FM-12+0781VEIM V0209999C00001007501CN0040001N1+02641+02301100381ADDGA1021+004809069GA2031+007509089GF106991041041004501031001KA1120N+02201MA1999999091961MD1999999+0001REMSYN094AAXX  02034 42623 /2496 60000 10264 20230 39196 40038 84430 333 20220 59000 82616 83825 85360;
0195426230999992000070209004+24760+093890FM-12+0781VEIM V0209999C000010360019N0040001N1+03001+02351099911ADDAA199000091GA1021+005409069GF105991041081004501031011MA1999999091611MD1999999-0151REMSYN082AAXX  02094 42623 32496 50000 10300 20235 39161 49991 84831 333 59015 82618 83825;EQDQ01  00002PRCP99
0217426230999992000070300004+24760+093890FM-12+0781VEIM V0209999C00001036001CN0040001N1+02241+02131100311ADDAA199000091GA1011+002409079GA2031+005409069GF106991041061002501031001MA1999999091791MD1999999-0111REMSYN088AAXX  03004 42623 32396 60000 10224 20213 39179 40031 84630 333 59011 81708 83618 85360;EQDQ01  00002PRCP99
0236426230999992000070303004+24760+093890FM-12+0781VEIM V0209999C00001036001CN0040001N1+02541+02251100301ADDAA199000091GA1011+003009079GA2031+005409069GF106991041061004501031001KA1120N+02181MA1999999091861MD1999999-0101REMSYN094AAXX  03034 42623 32496 60000 10254 20225 39186 40030 84630 333 20218 59010 81710 83618 85360;EQDQ01  00002PRCP99
0195426230999992000070306004+24760+093890FM-12+0781VEIM V0201801N00151036001CN0040001N1+02861+02321100101ADDAA199000091GA1031+005409069GF106991041041004501031011MA1999999091761MD1999999-0121REMSYN082AAXX  03064 42623 32496 61803 10286 20232 39176 40010 84431 333 59012 83618 85075;EQDQ01  00002PRCP99
0193426230999992000070509004+24760+093890FM-12+0781VEIM V0202301N00311036001CN0040001N1+02961+02221099871ADDAA100000191AA206000291GA1021+006009069GF105991031081008001031001MA1999999091571MD1999999+0071REMSYN088AAXX  05094 42623 22596 52306 10296 20222 39157 49987 83830 333 58007 6992/ 82620 84360;
0262426230999992000070703004+24760+093890FM-12+0781VEIM V0209999C00001005401CN0040001N1+02481+02281100271ADDAA100016091AA224016091AY151031AY221031GA1021+002409079GA2031+005409069GF107991041071002501031011KA1120N+02191MA1999999091811MD1999999-0011MW1011REMSYN106AAXX  07034 42623 21396 70000 10248 20228 39181 40027 70152 84731 333 20219 59001 6016/ 82708 83618 85360;
0262426230999992000071203004+24760+093890FM-12+0781VEIM V0200501N001010048019N0040001N1+02441+02301100331ADDAA100006192AA224006092AY161031AY251031GA1031+002409079GA2041+004809069GF107991051071002501021001KA1120N+02261MA1999999091861MD1999999+0241MW1011REMSYN106AAXX  12034 42623 21396 70502 10244 20230 39186 40033 70165 85720 333 20226 58024 6006/ 83708 84616 87459;
0234426230999992000071403004+24760+093890FM-12+0781VEIM V0209999C000010054019N0040001N1+02641+02211100281ADDAA100004192AA224004092GA1021+002409079GA2041+005409069GF107991051061002501031001KA1120N+02211MA1999999091571MD1999999-0061REMSYN100AAXX  14034 42623 22396 70000 10264 20221 39157 40028 85630 333 20221 59006 6004/ 82708 84618 86360;
0262426230999992000071503004+24760+093890FM-12+0781VEIM V0209999C00001036001CN0040001N1+02741+02351099971ADDAA100007991AA224008091AY121031AY221031GA1011+002409079GA2041+005409069GF106991041071002501031001KA1120N+02371MA1999999091591MD1999999-0281MW1021REMSYN106AAXX  15034 42623 21396 60000 10274 20235 39159 49997 70222 84730 333 20237 59028 6008/ 81708 84618 85360;
0243426230999992000071600004+24760+093890FM-12+0781VEIM V0209999C000010054019N0040001N1+02401+02371099991ADDAA100001091AA221001091AY121061AY221061GA1021+002409079GA2041+005409069GF107991051071002501021001MA1999999091531MD1999999-0031MW1051REMSYN100AAXX  16004 42623 21396 70000 10240 20237 39153 49999 70522 85720 333 59003 6001/ 82708 84618 87459;
0234426230999992000071603004+24760+093890FM-12+0781VEIM V0209999C000010039019N0040001N1+02661+02381099941ADDAA100001091AA224001091GA1021+002409079GA2041+003909069GF107991051071002501031001KA1120N+02331MA1999999091561MD1999999-0031REMSYN100AAXX  16034 42623 22396 70000 10266 20238 39156 49994 85730 333 20233 59003 6001/ 82708 84613 86360;
0303426230999992000071703004+24760+093890FM-12+0781VEIM V0209999C000010054019N0040001N1+02541+02341100001ADDAA100000791AA224999999AY191031AY221031GA1021+002409079GA2041+005409069GA3011+007509099GF107991051031002501031001KA1120N+02341MA1999999091591MD1999999+0031MW1171REMSYN112AAXX  17034 42623 21396 70000 10254 20234 39159 40000 71792 85330 333 20234 58003 6990/ 82708 84618 81925 86360;EQDQ01  99992PRCP24
0284426230999992000071803004+24760+093890FM-12+0781VEIM V0209999C000010048019N0040001N1+02541+02341100031ADDAA100013091AA224013091AY161031AY221031GA1031+001809079GA2041+004809069GA3011+009009099GF107991051031001501031001KA1120N+02191MA1999999091621MD1999999+0031MW1161REMSYN112AAXX  18034 42623 21296 70000 10254 20234 39162 40003 71662 85330 333 20219 58003 6013/ 83706 84616 81930 86360;
0284426230999992000071912004+24760+093890FM-12+0781VEIM V0209999C00001005401CN0040001N1+02661+02381099801ADDAA100000791AA209999929AY121061AY221061GA1021+002409079GA2031+005409069GA3011+009009099GF107991041031002501031001KA1120M+03111MA1999999091431MD1999999+0001MW1501REMSYN112AAXX  19124 42623 21396 70000 10266 20238 39143 49980 75022 84330 333 10311 58000 6990/ 82708 83618 81930 86360;
0243426230999992000071915004+24760+093890FM-12+0781VEIM V0209999C000010054019N0040001N1+02461+02261100061ADDAA100000791AA212999929AY151031AY221031GA1021+002409079GA2031+005409069GF107991051071002501031001MA1999999091621MD1999999+0071MW1051REMSYN100AAXX  19154 42623 21396 70000 10246 20226 39162 40006 70552 85730 333 58007 6990/ 82708 83618 86360;
0217426230999992000072006004+24760+093890FM-12+0781VEIM V0209999C000010054019N0040001N1+02841+02271100141ADDAA199000091GA1021+002409079GA2031+005409069GF107991051071002501031001MA1999999091801MD1999999+0371REMSYN088AAXX  20064 42623 32396 70000 10284 20227 39180 40014 85730 333 58037 82708 83618 86360;EQDQ01  00002PRCP99
0195426230999992000072009004+24760+093890FM-12+0781VEIM V0209999C00001036001CN0040001N1+02901+02241099991ADDAA199000091GA1031+005409069GF107991041061004501031001MA1999999091661MD1999999+0211REMSYN082AAXX  20094 42623 32496 70000 10290 20224 39166 49999 84630 333 58021 83618 86360;EQDQ01  00002PRCP99
0258426230999992000072012004+24760+093890FM-12+0781VEIM V0209999C00001009001CN0040001N1+02741+02351099981ADDAA199000091GA1011+002409079GA2041+005409069GA3011+009009099GF107991051031002501071001KA1120M+02971MA1999999091631MD1999999+0201REMSYN100AAXX  20124 42623 32396 70000 10274 20235 39163 49998 85370 333 10297 58020 81708 84618 81930 87460;EQDQ01  00002PRCP99
0262426230999992000072103004+24760+093890FM-12+0781VEIM V0209999C00001005401CN0040001N1+02561+02211100391ADDAA100006192AA224006092AY161031AY221031GA1021+002409079GA2031+005409069GF106991041071002501031001KA1120N+02201MA1999999091951MD1999999+0111MW1011REMSYN106AAXX  21034 42623 21396 60000 10256 20221 39195 40039 70162 84730 333 20220 58011 6006/ 82708 83618 85360;
0217426230999992000072106004+24760+093890FM-12+0781VEIM V0209999C00001036001CN0040001N1+02881+02351100171ADDAA199000091GA1031+005409069GA2031+007509089GF106991041081004501031001MA1999999091831MD1999999+0031REMSYN088AAXX  21064 42623 32496 60000 10288 20235 39183 40017 84830 333 58003 83618 83825 85360;EQDQ01  00002PRCP99
0206426230999992000072112004+24760+093890FM-12+0781VEIM V0209999C00001036001CN0040001N1+02741+02401099961ADDGA1021+005409069GA2011+009009099GF105991031031004501031001KA1120M+02981MA1999999091611MD1999999-0021REMSYN094AAXX  21124 42623 22496 50000 10274 20240 39161 49996 83330 333 10298 59002 82618 81930 84360;
0284426230999992000072203004+24760+093890FM-12+0781VEIM V0209999C000010048019N0040001N1+02521+02351100381ADDAA100001091AA224001091AY151031AY221031GA1021+002409079GA2031+004809069GA3011+007509099GF107991051071002501031001KA1120N+02171MA1999999091941MD1999999-0011MW1021REMSYN112AAXX  22034 42623 21396 70000 10252 20235 39194 40038 70252 85730 333 20217 59001 6001/ 82708 83616 81925 86360;
0217426230999992000072206004+24760+093890FM-12+0781VEIM V0209999C000010075019N0040001N1+02841+02301100151ADDAA199000091GA1031+005409069GA2031+007509089GF107991051041004501031011MA1999999091811MD1999999-0021REMSYN088AAXX  22064 42623 32496 70000 10284 20230 39181 40015 85431 333 59002 83618 83825 85070;EQDQ01  00002PRCP99
0195426230999992000072209004+24760+093890FM-12+0781VEIM V0203201N00261036001CN0040001N1+02781+02331099891ADDAA199000091GA1031+005409069GF106991041041004501031031MA1999999091541MD1999999-0121REMSYN082AAXX  22094 42623 32496 63205 10278 20233 39154 49989 84433 333 59012 83618 86170;EQDQ01  00002PRCP99
0195426230999992000072215004+24760+093890FM-12+0781VEIM V0209999C00001036001CN0040001N1+02501+02091100171ADDAA199000091GA1031+005409069GF106991041051004501031001MA1999999091721MD1999999-0231REMSYN082AAXX  22154 42623 32496 60000 10250 20209 39172 40017 84530 333 59023 83618 85360;EQDQ01  00002PRCP99
0234426230999992000072303004+24760+093890FM-12+0781VEIM V0209999C000010054019N0040001N1+02681+02281100171ADDAA100000592AA224000492GA1021+002409079GA2031+005409069GF106991051071002501031001KA1120N+02201MA1999999091771MD1999999-0171REMSYN100AAXX  23034 42623 22396 60000 10268 20228 39177 40017 85730 333 20220 59017 6994/ 82708 83618 85360;
0197426230999992000072318004+24760+093890FM-12+0781VEIM V0209999C000019999999N0040001N1+02261+02171100071ADDAA199000091AY121061AY221061GA1031+005409069GF106991999999004501999999MA1999999091601MW1051REMSYN076AAXX  23184 42623 31496 60000 10226 20217 39160 40007 70522 333 83618 85360;EQDQ01  00002PRCP99
0234426230999992000072603004+24760+093890FM-12+0781VEIM V0209999C00001005401CN0040001N1+02661+02231100331ADDAA100003091AA224003091GA1021+002409079GA2031+005409069GF106991041061002501031001KA1120N+02181MA1999999091921MD1999999+0031REMSYN100AAXX  26034 42623 22396 60000 10266 20223 39192 40033 84630 333 20218 58003 6003/ 82708 83618 86360;
0217426230999992000072606004+24760+093890FM-12+0781VEIM V0203201N00151002101CN0040001N1+02901+02371100181ADDAA199000091GA1011+002409079GA2031+005409069GF107991051071002501031001MA1999999091841MD1999999+0081REMSYN088AAXX  26064 42623 32396 73203 10290 20237 39184 40018 85730 333 58008 81708 83618 86360;EQDQ01  00002PRCP99
0234426230999992000072621004+24760+093890FM-12+0781VEIM V0209999C00001036001CN0040001N1+02321+02261100371ADDAA100000791AA218999999GA1011+002409079GA2041+005409069GF107991041061002501021001MA1999999081881MD1999999+0141REMSYN094AAXX  26214 42623 22396 70000 10232 20226 38188 40037 84620 333 58014 6990/ 81708 84618 86459;EQDQ01  99992PRCP18
0250426230999992000072700004+24760+093890FM-12+0781VEIM V0209999C00001036001CN0040001N1+02161+02131100431ADDAA100000791AA221999999GA1011+002409079GA2031+005409069GF106991041061002501031001MA1999999091882MD1999999+0051REMSYN094AAXX  27004 42623 22396 60000 10216 20213 39188 40043 84630 333 58005 6990/ 81708 83618 85360;EQDQ01+091883APOSP Q02  99992PRCP21
0214426230999992000072712004+24760+093890FM-12+0781VEIM V0209999C00001036001CN0040001N1+02661+02111099951ADDAA199000091GA1031+005409069GF106991041041004501031001KA1120M+02931MA1999999091571MD1999999-0071REMSYN088AAXX  27124 42623 32496 60000 10266 20211 39157 49995 84430 333 10293 59007 83618 85360;EQDQ01  00002PRCP99
0217426230999992000072809004+24760+093890FM-12+0781VEIM V0203201N001510054019N0040001N1+02641+02051100191ADDAA199000091GA1021+002409079GA2041+005409069GF108991051071002501021999MA1999999091791MD1999999+0181REMSYN088AAXX  28094 42623 32396 83203 10264 20205 39179 40019 8572/ 333 58018 82708 84618 88459;EQDQ01  00002PRCP99
0212426230999992000073012004+24760+093890FM-12+0781VEIM V0209999C00001036001CN0040001N1+02641+02121100221ADDAA100001091AA209001091GA1021+005409069GF106991021041004501031011KA1120M+02851MA1999999091821MD1999999+0071REMSYN094AAXX  30124 42623 22496 60000 10264 20212 39182 40022 82431 333 10285 58007 6001/ 82618 83360;
0234426230999992000073103004+24760+093890FM-12+0781VEIM V0209999C000010054019N0040001N1+02501+02031100571ADDAA100001091AA224001091GA1021+002409079GA2041+005409069GF108991051071002501021999KA1120N+02201MA1999999092081MD1999999-0071REMSYN100AAXX  31034 42623 22396 80000 10250 20203 39208 40057 8572/ 333 20220 59007 6001/ 82708 84618 88459;
0222426230999992000080100004+24760+093890FM-12+0781VEIM V0209999C000010054019N0040001N1+02361+02091100361ADDAA100000191AA221000291AY151061AY221061GA1031+002409079GA2041+005409069GF108991061071002501021999MD1999999-0061MW1051REMSYN094AAXX  01004 42623 21396 80000 10236 20209 40036 70552 8672/ 333 59006 6992/ 83708 84618 87459;
0234426230999992000080103004+24760+093890FM-12+0781VEIM V0201401N001510054019N0040001N1+02421+02161100421ADDAA100000191AA224000291GA1021+002409079GA2041+005409069GF108991061071002501021999KA1120N+02141MA1999999091951MD1999999-0131REMSYN100AAXX  01034 42623 22396 81403 10242 20216 39195 40042 8672/ 333 20214 59013 6992/ 82708 84618 88459;
0215426230999992000080115004+24760+093890FM-12+0781VEIM V0209999C000010054019N0040001N1+02381+02201100411ADDAA100000191AA212000191GA1021+002409079GA2041+005409069GF108991051071002501021999MA1999999091911MD1999999-0051REMSYN094AAXX  01154 42623 22396 80000 10238 20220 39191 40041 8572/ 333 59005 6991/ 82708 84618 88460;
0262426230999992000080306004+24760+093890FM-12+0781VEIM V0209999C000010054019N0040001N1+02521+02201100311ADDAA100000791AA203999999AY151061AY221061GA1021+002409079GA2041+005409069GF108991051071002501021999MA1999999091871MD1999999+0021MW1021REMSYN100AAXX  03064 42623 21396 80000 10252 20220 39187 40031 70252 8572/ 333 58002 6990/ 82708 84618 88459;EQDQ01  99992PRCP03
0262426230999992000080503004+24760+093890FM-12+0781VEIM V0209999C000010054019N0040001N1+02341+02101100421ADDAA100000191AA224000291AY151031AY221031GA1021+002409079GA2041+005409069GF107991051071002501031001KA1120N+02031MA1999999091921MD1999999-0031MW1051REMSYN106AAXX  05034 42623 21396 70000 10234 20210 39192 40042 70552 85730 333 20203 59003 6992/ 82708 84618 86360;
0245426230999992000080521004+24760+093890FM-12+0781VEIM V0209999C00001036001CN0040001N1+02261+02171100251ADDAA199000091AY121031AY221031GA1021+005409069GA2011+009009099GF105991031031004501031001MA1999999091741MD1999999-0091MW1051REMSYN094AAXX  05214 42623 31496 50000 10226 20217 39174 40025 70522 83330 333 59009 82618 81930 83360;EQDQ01  00002PRCP99
0223426230999992000080609004+24760+093890FM-12+0781VEIM V0209999C00001036001CN0040001N1+02861+02321099861ADDAA199000091AY121031AY221031GA1031+005409069GF107991031051004501031081MA1999999091541MD1999999-0041MW1051REMSYN088AAXX  06094 42623 31496 70000 10286 20232 39154 49986 70522 83538 333 59004 83618 86070;EQDQ01  00002PRCP99
0262426230999992000080703004+24760+093890FM-12+0781VEIM V0209999C000010048019N0040001N1+02501+02271100371ADDAA100003091AA224003091AY151031AY221031GA1021+002409079GA2041+004809069GF107991051071002501021001KA1120N+02231MA1999999091901MD1999999+0041MW1051REMSYN106AAXX  07034 42623 21396 70000 10250 20227 39190 40037 70552 85720 333 20223 58004 6003/ 82708 84616 87460;
0284426230999992000080903004+24760+093890FM-12+0781VEIM V0209999C00001036001CN0040001N1+02501+02331100461ADDAA100000391AA224000391AY161031AY251031GA1021+002409079GA2041+005409069GA3011+007509099GF108991031021002501031999KA1120N+02271MA1999999091981MD1999999+0011MW1501REMSYN112AAXX  09034 42623 21396 80000 10250 20233 39198 40046 75065 8323/ 333 20227 58001 6993/ 82708 84618 81925 88460;
0243426230999992000081109004+24760+093890FM-12+0781VEIM V0209999C00001005401CN0040001N1+02561+02241100291ADDAA100000892AA206000792AY151031AY221031GA1021+003009079GA2031+005409069GF107991041071004501021001MA1999999091851MD1999999+0071MW1021REMSYN100AAXX  11094 42623 21496 70000 10256 20224 39185 40029 70252 84720 333 58007 6997/ 82710 83618 87460;
0284426230999992000081312004+24760+093890FM-12+0781VEIM V0203201N001510054019N0040001N1+02461+02171100421ADDAA100000791AA209999929AY151061AY221061GA1021+002409079GA2041+005409069GA3011+009009099GF107991051031002501071001KA1120M+02991MA1999999091951MD1999999+0041MW1501REMSYN112AAXX  13124 42623 21396 73203 10246 20217 39195 40042 75052 85370 333 10299 58004 6990/ 82708 84618 81930 87460;
0265426230999992000081318004+24760+093890FM-12+0781VEIM V0209999C000010048019N0040001N1+02361+02271100661ADDAA100000791AA215999929AY151061AY221061GA1021+002409079GA2051+004809069GA3011+009009099GF108991061031002501021999MA1999999092141MD1999999-0061MW1501REMSYN106AAXX  13184 42623 21396 80000 10236 20227 39214 40066 75052 8632/ 333 59006 6990/ 82708 85616 81930 88460;
0243426230999992000081400004+24760+093890FM-12+0781VEIM V0209999C000010054019N0040001N1+02241+02181100671ADDAA100000592AA221000492AY161061AY251061GA1021+002409079GA2041+005409069GF107991051071002501031001MA1999999092121MD1999999-0071MW1021REMSYN100AAXX  14004 42623 21396 70000 10224 20218 39212 40067 70265 85730 333 59007 6994/ 82708 84618 87360;
0262426230999992000081403004+24760+093890FM-12+0781VEIM V0209999C000010054019N0040001N1+02501+02151100721ADDAA100000592AA224000492AY121031AY221031GA1021+002409079GA2041+005409069GF107991051071002501051001KA1120N+02191MA1999999092221MD1999999-0061MW1021REMSYN106AAXX  14034 42623 21396 70000 10250 20215 39222 40072 70222 85750 333 20219 59006 6994/ 82708 84618 87360;
0234426230999992000081406004+24760+093890FM-12+0781VEIM V0209999C00001002101CN0040001N1+02621+02221100521ADDAA100000791AA203999999GA1011+002409079GA2031+005409069GF107991051061002501031001MA1999999092091MD1999999-0051REMSYN094AAXX  14064 42623 22396 70000 10262 20222 39209 40052 85630 333 59005 6990/ 81708 83618 86360;EQDQ01  99992PRCP03
0253426230999992000081412004+24760+093890FM-12+0781VEIM V0209999C00001007501CN0040001N1+02601+02171100211ADDAA100000791AA209999999GA1021+005409069GA2031+007509089GF106991041041004501031001KA1120M+02851MA1999999091781MD1999999-0171REMSYN100AAXX  14124 42623 22496 60000 10260 20217 39178 40021 84430 333 10285 59017 6990/ 82618 83825 85360;EQDQ01  99992PRCP09
0215426230999992000081521004+24760+093890FM-12+0781VEIM V0209999C000010054019N0040001N1+02361+02131100321ADDAA100000591AA218000591GA1021+002409079GA2041+005409069GF107991051071002501031001MA1999999091831MD1999999-0101REMSYN094AAXX  15214 42623 22396 70000 10236 20213 39183 40032 85730 333 59010 6995/ 82708 84618 86360;
0217426230999992000081709004+24760+093890FM-12+0781VEIM V0209999C00001007501CN0040001N1+03141+02171099591ADDAA199000091GA1021+006009069GA2031+007509089GF105991041041008001001011MA1999999091371MD1999999-0151REMSYN088AAXX  17094 42623 32596 50000 10314 20217 39137 49959 84401 333 59015 82620 83825 85070;EQDQ01  00002PRCP99
0215426230999992000081806004+24760+093890FM-12+0781VEIM V0209999C000010054019N0040001N1+02461+02231100421ADDAY161061AY251061GA1021+002409079GA2051+005409069GF107991051071002501021001MA1999999091951MD1999999+0341MW1021REMSYN094AAXX  18064 42623 21396 70000 10246 20223 39195 40042 70265 85720 333 58034 82708 85618 87460;
0243426230999992000081900004+24760+093890FM-12+0781VEIM V0209999C000010048019N0040001N1+02321+02231100481ADDAA100003091AA221003091AY151061AY221061GA1031+001809079GA2041+004809069GF108991061071001501021999MA1999999091981MD1999999+0171MW1511REMSYN100AAXX  19004 42623 21296 80000 10232 20223 39198 40048 75152 8672/ 333 58017 6003/ 83706 84616 88450;
0193426230999992000081909004+24760+093890FM-12+0781VEIM V0209999C00001036001CN0040001N1+02901+02281100071ADDAA100002091AA206002091GA1031+005409069GF105991031041004501031001MA1999999091741MD1999999-0021REMSYN088AAXX  19094 42623 22496 50000 10290 20228 39174 40007 83430 333 59002 6002/ 83618 85360;
0212426230999992000081912004+24760+093890FM-12+0781VEIM V0209999C00001036001CN0040001N1+02641+02241100041ADDAA100002091AA209002091GA1031+005409069GF106991041041004501031001KA1120M+02971MA1999999091651MD1999999-0121REMSYN094AAXX  19124 42623 22496 60000 10264 20224 39165 40004 84430 333 10297 59012 6002/ 83618 84360;
0265426230999992000082118004+24760+093890FM-12+0781VEIM V0209999C000010054019N0040001N1+02341+02251100311ADDAA100002091AA215002091AY161061AY221061GA1021+002409079GA2041+005409069GA3011+009009099GF107991051031002501071001MA1999999091821MD1999999-0011MW1131REMSYN106AAXX  21184 42623 21396 70000 10234 20225 39182 40031 71362 85370 333 59001 6002/ 82708 84618 81930 87460;
0243426230999992000082200004+24760+093890FM-12+0781VEIM V0209999C000010048019N0010001N1+02241+02211100401ADDAA100002091AA221002091AY141061AY221061GA1021+002109079GA2041+004809069GF107991051071002501031001MA1999999091871MD1999999+0091MW1101REMSYN100AAXX  22004 42623 21394 70000 10224 20221 39187 40040 71042 85730 333 58009 6002/ 82707 84616 86360;
0236426230999992000082303004+24760+093890FM-12+0781VEIM V0209999C00001036001CN0040001N1+02841+02331100421ADDAA199000091GA1031+004809069GA2031+007509089GF106991041081004501031011KA1120N+02431MA1999999092051MD1999999+0041REMSYN094AAXX  23034 42623 32496 60000 10284 20233 39205 40042 84831 333 20243 58004 83616 83825 85360;EQDQ01  00002PRCP99
0245426230999992000082500004+24760+093890FM-12+0781VEIM V0209999C000010054019N0040001N1+02281+02161100531ADDAA199000091AY131061AY221061GA1021+002409079GA2041+005409069GF107991051071002501031001MA1999999091991MD1999999+0091MW1051REMSYN094AAXX  25004 42623 31396 70000 10228 20216 39199 40053 70532 85730 333 58009 82708 84618 86360;EQDQ01  00002PRCP99
0236426230999992000082612004+24760+093890FM-12+0781VEIM V0209999C00001220001CN0040001N1+02921+02451099991ADDAA199000091GA1031+005409069GA2011+009009099GF106991041031004501001011KA1120M+03331MA1999999091681MD1999999+0031REMSYN094AAXX  26124 42623 32496 60000 10292 20245 39168 49999 84301 333 10333 58003 83618 81930 85070;EQDQ01  00002PRCP99
0262426230999992000082703004+24760+093890FM-12+0781VEIM V0209999C00001220001CN0040001N1+02741+02251100361ADDAA100001091AA224001091AY161031AY241031GA1011+002409079GA2031+005409069GF106991031071002501001011KA1120N+02201MA1999999091971MD1999999-0131MW1011REMSYN106AAXX  27034 42623 21396 60000 10274 20225 39197 40036 70164 83701 333 20220 59013 6001/ 81708 83618 85075;
0195426230999992000082706004+24760+093890FM-12+0781VEIM V0209999C000010360019N0040001N1+03001+02141100151ADDAA199000091GA1021+005409069GF106991031041004501031011MA1999999091831MD1999999-0101REMSYN082AAXX  27064 42623 32496 60000 10300 20214 39183 40015 83431 333 59010 82618 83825;EQDQ01  00002PRCP99
0215426230999992000082909004+24760+093890FM-12+0781VEIM V0209999C000010054019N0040001N1+02581+02381099771ADDAA100018091AA206018091GA1021+002409079GA2041+005409069GF107991051071002501031001MA1999999091381MD1999999-0081REMSYN094AAXX  29094 42623 22396 70000 10258 20238 39138 49977 85730 333 59008 6018/ 82708 84618 87360;
0284426230999992000082912004+24760+093890FM-12+0781VEIM V0209999C000010054019N0040001N1+02401+02261099811ADDAA100018091AA209018091AY191061AY261061GA1021+002409079GA2041+005409069GA3011+009009099GF108991051031002501021999KA1120M+02901MA1999999091451MD1999999-0021MW1021REMSYN112AAXX  29124 42623 21396 80000 10240 20226 39145 49981 70296 8532/ 333 10290 59002 6018/ 82708 84618 81930 88460;
0243426230999992000083000004+24760+093890FM-12+0781VEIM V0209999C000010048019N0040001N1+02221+02191100021ADDAA100021192AA221021092AY161061AY251061GA1021+002409079GA2041+004809069GF108991051071002501021999MA1999999091531MD1999999-0191MW1021REMSYN100AAXX  30004 42623 21396 80000 10222 20219 39153 40002 70265 8572/ 333 59019 6021/ 82708 84616 88459;
0262426230999992000083003004+24760+093890FM-12+0781VEIM V0209999C000010054019N0040001N1+02701+02271100021ADDAA100021192AA224021092AY121031AY221031GA1021+002409079GA2041+005409069GF107991051071002501031001KA1120N+02151MA1999999091641MD1999999-0061MW1021REMSYN106AAXX  30034 42623 21396 70000 10270 20227 39164 40002 70222 85730 333 20215 59006 6021/ 82708 84618 86360;
0217426230999992000083006004+24760+093890FM-12+0781VEIM V0209999C000010054019N0040001N1+02841+02301099841ADDAA199000091GA1021+002409079GA2041+005409069GF107991051071002501031001MA1999999091521MD1999999-0121REMSYN088AAXX  30064 42623 32396 70000 10284 20230 39152 49984 85730 333 59012 82708 84618 86360;EQDQ01  00002PRCP99
0265426230999992000083009004+24760+093890FM-12+0781VEIM V0201801N006210048019N0040001N1+02501+02301099711ADDAA100000791AA206999929AY161031AY251031GA1031+001809079GA2041+004809069GA3011+007509099GF108991061031001501021999MA1999999091301MD1999999-0081MW1501REMSYN106AAXX  30094 42623 21296 81812 10250 20230 39130 49971 75065 8632/ 333 59008 6990/ 83706 84616 81925 88459;
0262426230999992000083103004+24760+093890FM-12+0781VEIM V0209999C000010045019N0020001N1+02301+02011100001ADDAA100003091AA224003091AY151031AY251031GA1031+001509079GA2051+004509069GF108991061071001501021999KA1120N+02201MA1999999091511MD1999999-0131MW1501REMSYN106AAXX  31034 42623 21295 80000 10230 20201 39151 40000 75055 8672/ 333 20220 59013 6003/ 83705 85615 88458;
0243426230999992000083115004+24760+093890FM-12+0781VEIM V0209999C000010054019N0040001N1+02341+02251099981ADDAA100007192AA212007092AY151031AY221031GA1021+002409079GA2051+005409069GF108991051071002501021999MA1999999091531MD1999999-0051MW1501REMSYN100AAXX  31154 42623 21396 80000 10234 20225 39153 49998 75052 8572/ 333 59005 6007/ 82708 85618 88459;
0243426230999992000083121004+24760+093890FM-12+0781VEIM V0209999C000010054019N0040001N1+02241+02211099981ADDAA100032091AA218032091AY161031AY261031GA1021+002409079GA2051+005409069GF108991061071002501021999MA1999999091491MD1999999+0191MW1611REMSYN100AAXX  31214 42623 21396 80000 10224 20221 39149 49998 76166 8672/ 333 58019 6032/ 82708 85618 88459;
0243426230999992000090115004+24760+093890FM-12+0781VEIM V0209999C000010048019N0040001N1+02341+02251100111ADDAA100004192AA212004092AY161031AY251031GA1031+001809079GA2041+004809069GF108991051071001501021999MA1999999091641MD1999999+0111MW1501REMSYN100AAXX  01154 42623 21296 80000 10234 20225 39164 40011 75065 8572/ 333 58011 6004/ 83706 84616 88459;
0265426230999992000090200004+24760+093890FM-12+0781VEIM V0209999C000010054019N0020001N1+02221+02221100091ADDAA100031091AA221031091AY161061AY251061GA1021+002409079GA2041+005409069GA3011+009009099GF107991051031002501031001MA1999999091591MD1999999+0041MW1051REMSYN106AAXX  02004 42623 21395 70000 10222 20222 39159 40009 70565 85330 333 58004 6031/ 82708 84618 81930 86360;
0201426230999992000090203004+24760+093890FM-12+0781VEIM V0209999C000010012019N0020001N1+02361+02331100181ADDAA100031091AY161031AY251031GF108991061071001501021999KA1120N+02141MA1999999091701MD1999999+0031MW1501REMSYN088AAXX  02034 42623 21295 80000 10236 20233 39170 40018 75065 8672/ 333 20214 58003 6031/;
0243426230999992000090218004+24760+093890FM-12+0781VEIM V0209999C000012200019N0040001N1+02341+02251100181ADDAA100002091AA215002091AY121061AY211061GA1021+005409069GA2011+009009099GF104991031031004501031001MA1999999091701MD1999999+0031MW1131REMSYN100AAXX  02184 42623 21496 40000 10234 20225 39170 40018 71321 83330 333 58003 6002/ 82618 81930 83360;
0217426230999992000090306004+24760+093890FM-12+0781VEIM V0209999C000010048019N0040001N1+02801+02291100101ADDAA199000091GA1021+002409079GA2041+004809069GF107991051071002501051001MA1999999091741MD1999999+0091REMSYN088AAXX  03064 42623 32396 70000 10280 20229 39174 40010 85750 333 58009 82708 84616 87360;EQDQ01  00002PRCP99
0262426230999992000090403004+24760+093890FM-12+0781VEIM V0209999C000010048019N0020001N1+02421+02251100571ADDAA100000191AA224000291AY121031AY221031GA1021+002409079GA2041+004809069GF107991051071002501021001KA1120N+02231MA1999999092081MD1999999+0271MW1161REMSYN106AAXX  04034 42623 21395 70000 10242 20225 39208 40057 71622 85720 333 20223 58027 6992/ 82708 84616 87459;
0243426230999992000090409004+24760+093890FM-12+0781VEIM V0209999C000010054019N0040001N1+02501+02181100251ADDAA100007991AA206008091AY161031AY221031GA1021+002409079GA2041+005409069GF107991051071002501021001MA1999999091831MD1999999+0191MW1021REMSYN100AAXX  04094 42623 21396 70000 10250 20218 39183 40025 70262 85720 333 58019 6008/ 82708 84618 87460;
0243426230999992000091000004+24760+093890FM-12+0781VEIM V0209999C000010054019N0040001N1+02241+02181100421ADDAA100006192AA221006092AY161061AY221061GA1021+002409079GA2041+005409069GF107991051071002501021001MA1999999091891MD1999999-0141MW1051REMSYN100AAXX  10004 42623 21396 70000 10224 20218 39189 40042 70562 85720 333 59014 6006/ 82708 84618 87459;
0195426230999992000091006004+24760+093890FM-12+0781VEIM V0202301N00151036001CN0040001N1+02781+02221100301ADDAA199000091GA1031+005409069GF108991041081004501031001MA1999999091921MD1999999-0091REMSYN082AAXX  10064 42623 32496 82303 10278 20222 39192 40030 84830 333 59009 83618 85360;EQDQ01  00002PRCP99
0267426230999992000091015004+24760+093890FM-12+0781VEIM V0209999C00001009001CN0040001N1+02421+02181100341ADDAA199000091AY121031AY221031GA1011+002409079GA2031+005409069GA3011+009009099GF107991041031004501071001MA1999999091871MD1999999-0151MW1131REMSYN100AAXX  10154 42623 31496 70000 10242 20218 39187 40034 71322 84370 333 59015 81708 83618 81930 87360;EQDQ01  00002PRCP99
0253426230999992000091112004+24760+093890FM-12+0781VEIM V0209999C000010075019N0040001N1+02701+02261099851ADDAA100000791AA209999999GA1031+005409069GA2031+007509089GF106991051081004501031001KA1120M+03161MA1999999091481MD1999999-0161REMSYN100AAXX  11124 42623 22496 60000 10270 20226 39148 49985 85830 333 10316 59016 6990/ 83618 83825 85360;EQDQ01  99992PRCP09
0212426230999992000091115004+24760+093890FM-12+0781VEIM V0209999C00001004201CN0040001N1+02521+02251100121ADDAA100000791AA212999999GA1041+005409069GF107991051051004501031001MA1999999091701MD1999999-0171REMSYN088AAXX  11154 42623 22496 70000 10252 20225 39170 40012 85530 333 59017 6990/ 84618 86360;EQDQ01  99992PRCP12
0212426230999992000091118004+24760+093890FM-12+0781VEIM V0209999C00001004201CN0040001N1+02401+02251100161ADDAA100000791AA215999999GA1041+005409069GF107991051051004501031001MA1999999091681MD1999999-0111REMSYN088AAXX  11184 42623 22496 70000 10240 20225 39168 40016 85530 333 59011 6990/ 84618 86360;EQDQ01  99992PRCP15
0265426230999992000091206004+24760+093890FM-12+0781VEIM V0209999C000010054019N0040001N1+02481+02271100421ADDAA100000191AA203000291AY161061AY221061GA1021+002409079GA2041+005409069GA3011+009009099GF107991051031002501021001MA1999999091951MD1999999+0221MW1021REMSYN106AAXX  12064 42623 21396 70000 10248 20227 39195 40042 70262 85320 333 58022 6992/ 82708 84618 81930 87459;
0212426230999992000091212004+24760+093890FM-12+0781VEIM V0209999C00001220001CN0040001N1+02681+02271100081ADDAA100000191AA209000291GA1031+005409069GF107991041081004501001011KA1120M+02921MA1999999091691MD1999999+0211REMSYN094AAXX  12124 42623 22496 70000 10268 20227 39169 40008 84801 333 10292 58021 6992/ 83618 85070;
0253426230999992000091403004+24760+093890FM-12+0781VEIM V0209999C000010054019N0040001N1+02561+02291100801ADDAA100000791AA224999999GA1021+002409079GA2041+005409069GF107991051071002501031001KA1120N+02161MA1999999092321MD1999999+0151REMSYN100AAXX  14034 42623 22396 70000 10256 20229 39232 40080 85730 333 20216 58015 6990/ 82708 84618 86360;EQDQ01  99992PRCP24
0284426230999992000091503004+24760+093890FM-12+0781VEIM V0203201N001510045019N0020001N1+02161+02131101011ADDAA100020192AA224020092AY161031AY251031GA1041+002409079GA2051+004509069GA3011+009009099GF108991051031001501021999KA1120N+02011MA1999999092401MD1999999+0081MW1611REMSYN112AAXX  15034 42623 21295 83203 10216 20213 39240 40101 76165 8532/ 333 20201 58008 6020/ 84708 85615 81930 88459;
0256426230999992000091512004+24760+093890FM-12+0781VEIM V0209999C000010054019N0040001N1+02381+02201100501ADDAA100002091AA209002091GA1031+002409079GA2041+005409069GA3011+009009099GF107991051031002501021001KA1120M+02791MA1999999091991MD1999999-0041REMSYN106AAXX  15124 42623 22396 70000 10238 20220 39199 40050 85320 333 10279 59004 6002/ 83708 84618 81930 87459;
0237426230999992000091515004+24760+093890FM-12+0781VEIM V0209999C000010054019N0040001N1+02301+02181100721ADDAA100003091AA212003091GA1031+002409079GA2041+005409069GA3011+009009099GF107991051031002501021001MA1999999092171MD1999999-0061REMSYN100AAXX  15154 42623 22396 70000 10230 20218 39217 40072 85320 333 59006 6003/ 83708 84618 81930 87459;
0265426230999992000091600004+24760+093890FM-12+0781VEIM V0209999C000010048019N0040001N1+02141+02111100701ADDAA100015091AA221015091AY161061AY221061GA1031+001809079GA2041+004809069GA3011+009009099GF108991061031001501021999MA1999999092121MD1999999-0021MW1511REMSYN106AAXX  16004 42623 21296 80000 10214 20211 39212 40070 75162 8632/ 333 59002 6015/ 83706 84616 81930 88459;
0262426230999992000091603004+24760+093890FM-12+0781VEIM V0209999C000010048019N0020001N1+02241+02211100871ADDAA100019192AA224019092AY161031AY251031GA1031+001809079GA2041+004809069GF108991061071001501021999KA1120N+02061MA1999999092301MD1999999-0101MW1201REMSYN106AAXX  16034 42623 21295 80000 10224 20221 39230 40087 72065 8672/ 333 20206 59010 6019/ 83706 84616 88458;
0243426230999992000091606004+24760+093890FM-12+0781VEIM V0209999C000010054019N0040001N1+02621+02361100631ADDAA100000191AA203000191AY151061AY221061GA1021+002409079GA2041+005409069GF107991051071002501031001MA1999999092191MD1999999-0031MW1011REMSYN100AAXX  16064 42623 21396 70000 10262 20236 39219 40063 70152 85730 333 59003 6991/ 82708 84618 86360;
0243426230999992000091700004+24760+093890FM-12+0781VEIM V0209999C000010054019N0040001N1+02141+02081100931ADDAA100002091AA221002091AY161061AY251061GA1021+002409079GA2051+005409069GF108991051071002501021999MA1999999092331MD1999999+0211MW1601REMSYN100AAXX  17004 42623 21396 80000 10214 20208 39233 40093 76065 8572/ 333 58021 6002/ 82708 85618 88459;
0262426230999992000091703004+24760+093890FM-12+0781VEIM V0209999C000010048019N0040001N1+02221+02161101051ADDAA100006192AA224006092AY161031AY211031GA1031+001809079GA2051+004809069GF108991061071001501021999KA1120N+02041MA1999999092471MD1999999+0171MW1051REMSYN106AAXX  17034 42623 21296 80000 10222 20216 39247 40105 70561 8672/ 333 20204 58017 6006/ 83706 85616 88459;
0243426230999992000091718004+24760+093890FM-12+0781VEIM V0209999C000010048019N0040001N1+02161+02101100991ADDAA100002091AA215002091AY161061AY251061GA1031+001809079GA2041+004809069GF108991061071001501021999MA1999999092381MD1999999+0041MW1501REMSYN100AAXX  17184 42623 21296 80000 10216 20210 39238 40099 75065 8672/ 333 58004 6002/ 83706 84616 88459;
0284426230999992000091812004+24760+093890FM-12+0781VEIM V0209999C000010054019N0040001N1+02161+01941100731ADDAA100004192AA209004092AY161061AY251061GA1021+002409079GA2041+005409069GA3011+009009099GF107991051031002501071001KA1120M+02381MA1999999092151MD1999999-0061MW1021REMSYN112AAXX  18124 42623 21396 70000 10216 20194 39215 40073 70265 85370 333 10238 59006 6004/ 82708 84618 81930 87460;
0281426230999992000091903004+24760+093890FM-12+0781VEIM V0209999C000010048019N0040001N1+02181+99999101201ADDAA100007991AA224008091AY161031AY221031GA1031+001809079GA2051+004809069GF108991061071001501021999KA1120M+02381KA2120N+01961MA1999999092581MD1999999+0221MW1501REMSYN112AAXX  19034 42623 21296 80000 10218 20223 39258 40120 75062 8672/ 333 10238 20196 58022 6008/ 83706 85616 88458;
0252426230999992000091906004+24760+093890FM-12+0781VEIM V0209999C000010054019N0040001N1+02461+02221999999ADDAA100000791AA203999929AY121061AY221061GA1021+002409079GA2051+005409069GF107991051071002501021001MA1999999092451MD1999999+0181ME1199999MW1501REMSYN100AAXX  19064 42623 21396 70000 10246 20222 39245 41998 75022 85720 333 58018 6990/ 82708 85618 87459;
0262426230999992000092003004+24760+093890FM-12+0781VEIM V0209999C000010048019N0040001N1+02281+02071101261ADDAA100000191AA224000291AY151031AY221031GA1021+001809079GA2041+004809069GF107991051071001501021001KA1120N+02041MA1999999092661MD1999999+0081MW1501REMSYN106AAXX  20034 42623 21296 70000 10228 20207 39266 40126 75052 85720 333 20204 58008 6992/ 82706 84616 87459;
0217426230999992000092115004+24760+093890FM-12+0781VEIM V0209999C000012200019N0040001N1+02301+02091101211ADDAA199000091AY101031AY201031GA1021+005409059GF103991021051004501031001MA1999999092621MD1999999+0001MW1051REMSYN082AAXX  21154 42623 32496 30000 10230 20209 39262 40121 70500 82530 333 58000 82618;EQDQ01  00002PRCP99
0217426230999992000092118004+24760+093890FM-12+0781VEIM V0209999C000012200019N0040001N1+02081+01921101301ADDAA199000091AY101061AY201061GA1021+005409059GF103991031051004501031001MA1999999092641MD1999999+0031MW1051REMSYN082AAXX  21184 42623 31496 30000 10208 20192 39264 40130 70500 83530 333 58003 82618;EQDQ01  00002PRCP99
0261426230999992000092200004+24760+093890FM-12+0781VEIM V0209999C00001036001CN0040001N1+02101+02011999999ADDAA199000091AY121061AY221061GA1031+001809079GA2041+004809069GF107991021071008001021001MA1999999092541MD1999999-0091MW1051REMSYN094AAXX  22004 42623 31596 70000 10210 20201 39254 40619 70522 82720 333 59009 83706 84616 87459;EQDQ01  00002PRCP99Q02 106193APOSLP
0252426230999992000092203004+24760+093890FM-12+0781VEIM V0209999C00001005401CN0040001N1+02361+02051101322ADDAA199000091GA1021+002409079GA2031+005409069GF107991041071002501031001KA1120N+02001MA1999999092751MD1999999+0031REMSYN094AAXX  22034 42623 32396 70000 10236 20205 39275 40132 84730 333 20200 58003 82708 83618 86360;EQDQ01+101323APOSLPQ02  00002PRCP99
0189426230999992000092206004+24760+093890FM-12+0781VEIM V02099999999990360019N0040001N1+02741+01901101071ADDAA199000091GA1011+003009069GF106991041061004501031001MA1999999092621MD1999999+0041REMSYN076AAXX  22064 42623 32496 6//// 10274 20190 39262 40107 84630 333 58004 81710;EQDQ01  00002PRCP99
0262426230999992000092300004+24760+093890FM-12+0781VEIM V0209999C00001036001CN0040001N1+01981+01921101181ADDAA100000791AA221999999AY121061AY221061GA1011+002409079GA2041+005409069GF107991041071002501031001MA1999999092521MD1999999-0021MW1051REMSYN100AAXX  23004 42623 21396 70000 10198 20192 39252 40118 70522 84730 333 59002 6990/ 81708 84618 87360;EQDQ01  99992PRCP21
0243426230999992000092400004+24760+093890FM-12+0781VEIM V0209999C000010048019N0040001N1+02001+01971100991ADDAA100003091AA221003091AY151061AY221061GA1031+001809079GA2041+004809069GF108991061031001501021999MA1999999092331MD1999999-0191MW1511REMSYN100AAXX  24004 42623 21296 80000 10200 20197 39233 40099 75152 8632/ 333 59019 6003/ 83706 84616 88459;
0234426230999992000092503004+24760+093890FM-12+0781VEIM V0209999C000010054019N0040001N1+02621+02201100971ADDAY161031AY241031GA1021+002409079GA2041+005409069GF107991051071002501031001KA1120N+02181MA1999999092501MD1999999-0051MW1021REMSYN100AAXX  25034 42623 21396 70000 10262 20220 39250 40097 70264 85730 333 20218 59005 82708 84618 86360;
0253426230999992000092612004+24760+093890FM-12+0781VEIM V0203201N00211036001CN0040001N1+02301+01891100751ADDAA100000791AA209999999GA1021+005409069GA2011+009009099GF106991031031004501031011KA1120M+02751MA1999999092191MD1999999+0011REMSYN100AAXX  26124 42623 22496 63204 10230 20189 39219 40075 83331 333 10275 58001 6990/ 82618 81930 83360;EQDQ01  99992PRCP09
0278426230999992000092615004+24760+093890FM-12+0781VEIM V0209999C00001036001CN0040001N1+02121+01871100951ADDAA100000791AA212999999AY121031AY221031GA1021+005409069GA2011+009009099GF105991031031004501031001MA1999999091352MD1999999-0011MW1131REMSYN100AAXX  26154 42623 21496 50000 10212 20187 39135 40095 71322 83330 333 59001 6990/ 82618 81930 84360;EQDQ01+091353APOSP Q02  99992PRCP12
0214426230999992000092712004+24760+093890FM-12+0781VEIM V0209999C000012200019N0040001N1+02441+01911100521ADDAA199000091GA1021+005409069GF104991021081004501031001KA1120M+02771MA1999999092031MD1999999-0161REMSYN088AAXX  27124 42623 32496 40000 10244 20191 39203 40052 82830 333 10277 59016 82618 86360;EQDQ01  00002PRCP99
0195426230999992000092721004+24760+093890FM-12+0781VEIM V0209999C00001036001CN0040001N1+01961+01831100801ADDAA199000091GA1031+005409069GF105991031051004501031001MA1999999092161MD1999999-0131REMSYN082AAXX  27214 42623 32496 50000 10196 20183 39216 40080 83530 333 59013 83618 84360;EQDQ01  00002PRCP99
0205426230999992000092809004+24760+093890FM-12+0781VEIM V0209999C000019999999N0040001N1+02941+01861100331ADDAA199000091GA1021+007509029GF105991999011008001001001MA1999999092001MD1999999-0091REMSYN076AAXX  28094 42623 32596 50000 10294 20186 39200 40033 82100 333 59009 82825;EQDQ01+000022SCOTLCQ02  00002PRCP99
0195426230999992000092818004+24760+093890FM-12+0781VEIM V0209999C000012200019N0040001N1+02081+01891100821ADDAA199000091GA1011+006009069GF104991011041004501031001MA1999999092201MD1999999-0061REMSYN082AAXX  28184 42623 32496 40000 10208 20189 39220 40082 81430 333 59006 81620 83360;EQDQ01  00002PRCP99
0205426230999992000092900004+24760+093890FM-12+0781VEIM V0209999C000010003019N0002001N1+01861+01831100981ADDAA199000091AY121061AY221061GA1091+999999999GF109991091999999999999999MA1999999092291MD1999999-0011MW1461REMSYN070AAXX  29004 42623 31/92 90000 10186 20183 39229 40098 74622 333 59001;EQDQ01  00002PRCP99
0264426230999992000092903004+24760+093890FM-12+0781VEIM V0209999C000012200019N0040001N1+02461+02031100981ADDAA199000091AY141031AY241031GA1011+002409079GA2031+004809069GF103991031071002501001001KA1120N+01721MA1999999092461MD1999999+0011MW1051REMSYN100AAXX  29034 42623 31396 30000 10246 20203 39246 40098 70544 83700 333 20172 58001 81708 83616 90577;EQDQ01  00002PRCP99
0189426230999992000092909004+24760+093890FM-12+0781VEIM V0209999C000012200019N0040001N1+03101+02051100311ADDAA199000091GA1021+005409059GF103991031081008001001011MA1999999092001MD1999999+0001REMSYN076AAXX  29094 42623 32596 30000 10310 20205 39200 40031 83801 333 58000 82618;EQDQ01  00002PRCP99
0243426230999992000100100004+24760+093890FM-12+0781VEIM V0209999C000010048019N0020001N1+02041+01981101001ADDAA100015091AA221015091AY161061AY261061GA1031+001809079GA2041+004809069GF108991061071001501021999MA1999999092361MD1999999+0161MW1611REMSYN100AAXX  01004 42623 21295 80000 10204 20198 39236 40100 76166 8672/ 333 58016 6015/ 83706 84616 88458;
0221426230999992000100115004+24760+093890FM-12+0781VEIM V0209999C00001001201CN0040001N1+02061+02031101161ADDAA100009991AA212010091AY161031AY221031GA1031+001809079GF108991061031001501021999MA1999999092511MD1999999+0071MW1611REMSYN094AAXX  01154 42623 21296 80000 10206 20203 39251 40116 76162 8632/ 333 58007 6010/ 83706 84616;
0243426230999992000100209004+24760+093890FM-12+0781VEIM V0209999C000010048019N0040001N1+02181+02121100751ADDAA100017091AA206017091AY161031AY251031GA1041+001809079GA2051+004809069GF108991061071001501021999MA1999999092161MD1999999-0131MW1501REMSYN100AAXX  02094 42623 21296 80000 10218 20212 39216 40075 75065 8672/ 333 59013 6017/ 84706 85616 88458;
0243426230999992000100212004+24760+093890FM-12+0781VEIM V0209999C000010048019N0040001N1+02101+02071100801ADDAA100025991AA209026091AY161061AY261061GA1041+001809079GA2051+004809069GF108991061071001501021999MA1999999092181MD1999999-0171MW1611REMSYN100AAXX  02124 42623 21296 80000 10210 20207 39218 40080 76166 8672/ 333 59017 6026/ 84706 85616 88458;
0243426230999992000100321004+24760+093890FM-12+0781VEIM V0209999C000010048019N0040001N1+02041+02011101011ADDAA100003091AA218003091AY121031AY221031GA1031+001809079GA2041+004809069GF107991051071001501031001MA1999999092371MD1999999+0051MW1051REMSYN100AAXX  03214 42623 21296 70000 10204 20201 39237 40101 70522 85730 333 58005 6003/ 83706 84616 86360;
0243426230999992000100400004+24760+093890FM-12+0781VEIM V0209999C000010054019N0020001N1+02041+02041101011ADDAA100003091AA221003091AY121061AY221061GA1021+002409079GA2041+005409069GF107991051071002501031001MA1999999092371MD1999999+0051MW1051REMSYN100AAXX  04004 42623 21395 70000 10204 20204 39237 40101 70522 85730 333 58005 6003/ 82708 84618 85360;
0189426230999992000100409004+24760+093890FM-12+0781VEIM V0209999C000012200019N0040001N1+02821+02031100431ADDAA199000091GA1011+006009059GF102991021041008001001001MA1999999092061MD1999999-0141REMSYN076AAXX  04094 42623 32596 20000 10282 20203 39206 40043 82400 333 59014 81620;EQDQ01  00002PRCP99
0214426230999992000100412004+24760+093890FM-12+0781VEIM V0209999C000012200019N0040001N1+02521+02101100601ADDAA199000091GA1011+006009069GF103991021041008001001011KA1120M+02941MA1999999092141MD1999999-0101REMSYN088AAXX  04124 42623 32596 30000 10252 20210 39214 40060 82401 333 10294 59010 81620 83070;EQDQ01  00002PRCP99
0218426230999992000100415004+24760+093890FM-12+0781VEIM V0209999C00001005401CN0040001N1+02381+02111100961ADDAA199000091GA1021+002409079GA2031+005409069GF105991031071002501031001MD1999999+0011REMSYN088AAXX  04154 42623 32396 50000 10238 20211 39421 40096 83730 333 58001 82708 83618 84360;EQDQ01+094213APOSP Q02  00002PRCP99
0217426230999992000100418004+24760+093890FM-12+0781VEIM V0209999C00001005401CN0040001N1+02161+02071101021ADDAA199000091GA1021+002409079GA2031+005409069GF106991031071002501031001MA1999999092441MD1999999+0031REMSYN088AAXX  04184 42623 32396 60000 10216 20207 39244 40102 83730 333 58003 82708 83618 84360;EQDQ01  00002PRCP99
0217426230999992000100421004+24760+093890FM-12+0781VEIM V0209999C00001036001CN0040001N1+02161+02071101011ADDAA199000091GA1031+002409079GA2041+005409069GF106991041071002501031001MA1999999092401MD1999999+0031REMSYN088AAXX  04214 42623 32396 60000 10216 20207 39240 40101 84730 333 58003 83708 84618 85360;EQDQ01  00002PRCP99
0245426230999992000100500004+24760+093890FM-12+0781VEIM V0209999C00001036001CN0020001N1+02001+01941101161ADDAA199000091AY121061AY221061GA1031+002409079GA2041+005409069GF106991041071002501031001MA1999999092481MD1999999+0111MW1051REMSYN094AAXX  05004 42623 31395 60000 10200 20194 39248 40116 70522 84730 333 58011 83708 84618 85360;EQDQ01  00002PRCP99
0242426230999992000100503004+24760+093890FM-12+0781VEIM V0209999C000012200019N0040001N1+02421+02081101131ADDAA199000091AY121031AY221031GA1011+002409079GF104991031071002501031001KA1120N+01941MA1999999092601MD1999999+0041MW1051REMSYN094AAXX  05034 42623 31396 40000 10242 20208 39260 40113 70522 83730 333 20194 58004 81708 83618;EQDQ01  00002PRCP99
0284426230999992000100512004+24760+093890FM-12+0781VEIM V0201401N002610054019N0040001N1+02441+02071100681ADDAA100000191AA209000291AY161061AY221061GA1031+002409079GA2041+005409069GA3011+009009099GF107991051031002501021001KA1120M+03031MA1999999092191MD1999999+0051MW1171REMSYN112AAXX  05124 42623 21396 71405 10244 20207 39219 40068 71762 85320 333 10303 58005 6992/ 83708 84618 81930 87459;
0215426230999992000100518004+24760+093890FM-12+0781VEIM V0209999C000010048019N0040001N1+02081+01951101241ADDAA100031091AA215031091GA1031+001809079GA2041+004809069GF107991051071001501021001MA1999999092591MD1999999+0151REMSYN094AAXX  05184 42623 22296 70000 10208 20195 39259 40124 85720 333 58015 6031/ 83706 84616 87459;
0217426230999992000100715004+24760+093890FM-12+0781VEIM V0209999C000012200019N0040001N1+02241+02061100951ADDAA199000091AY101031AY201031GA1011+005409059GF102991021051004501001001MA1999999092371MD1999999-0031MW1051REMSYN082AAXX  07154 42623 31496 20000 10224 20206 39237 40095 70500 82500 333 59003 81618;EQDQ01  00002PRCP99
0217426230999992000100800004+24760+093890FM-12+0781VEIM V0209999C000010048019N0040001N1+02121+02061101021ADDAA199000091GA1031+001809079GA2041+004809069GF107991051071001501031001MA1999999092411MD1999999-0051REMSYN088AAXX  08004 42623 31296 70000 10212 20206 39241 40102 85730 333 59005 83706 84616 85360;EQDQ01  00002PRCP99
0195426230999992000100809004+24760+093890FM-12+0781VEIM V0209999C000012200019N0040001N1+03001+02071100271ADDAA199000091GA1021+007509089GF103991021031008001001011MA1999999091951MD1999999-0221REMSYN082AAXX  08094 42623 32596 30000 10300 20207 39195 40027 82301 333 59022 82825 81930;EQDQ01  00002PRCP99
0236426230999992000100812004+24760+093890FM-12+0781VEIM V0200501N00211220001CN0040001N1+02521+02031100411ADDAA199000091GA1011+006009069GA2011+009009099GF106991021031008001001011KA1120M+03071MA1999999091961MD1999999-0231REMSYN094AAXX  08124 42623 32596 60504 10252 20203 39196 40041 82301 333 10307 59023 81620 81930 85075;EQDQ01  00002PRCP99
0242426230999992000100903004+24760+093890FM-12+0781VEIM V0209999C000010360019N0020001N1+02441+02171100921ADDAA199000091AY141031AY221031GA1021+002409079GF105991041061002501031001KA1120N+01901MA1999999092401MD1999999-0101MW1051REMSYN094AAXX  09034 42623 31395 50000 10244 20217 39240 40092 70542 84630 333 20190 59010 82708 83618;EQDQ01  00002PRCP99
0195426230999992000100906004+24760+093890FM-12+0781VEIM V0209999C000012200019N0040001N1+02841+02151100471ADDAA199000091GA1011+005409069GF103991031041004501001001MA1999999092121MD1999999-0141REMSYN082AAXX  09064 42623 32496 30000 10284 20215 39212 40047 83400 333 59014 81618 83825;EQDQ01  00002PRCP99
0189426230999992000100909004+24760+093890FM-12+0781VEIM V0209999C000012200019N0040001N1+03021+02001100131ADDAA199000091GA1031+007509029GF103991031081008001001001MA1999999091841MD1999999-0111REMSYN076AAXX  09094 42623 32596 30000 10302 2020/ 39184 40013 83800 333 59011 83825;EQDQ01  00002PRCP99
0145426230999992000100912004+24760+093890FM-12+0781VEIM V0209999C000012200019N0040001N1+02101+02081100361ADDAA199000091GF102991021051008001001081KA1999M+03071REMSYN064AAXX  09124 42623 32596 20000 10210 20208 40036 82508 333 10307;EQDQ01  00002PRCP99
0212426230999992000101003004+24760+093890FM-12+0781VEIM V0209999C00001036001CN0040001N1+02521+01961100931ADDAA100001091AA224001091GA1031+005409069GF105991031051004501031001KA1120N+01921MA1999999092441MD1999999+0041REMSYN094AAXX  10034 42623 31496 50000 10252 20196 39244 40093 83530 333 20192 58004 6001/ 83618 84360;
0195426230999992000101006004+24760+093890FM-12+0781VEIM V0209999C00001036001CN0040001N1+02641+02061100661ADDAA199000091GA1031+005409069GF107991041081004501031011MA1999999092221MD1999999+0101REMSYN082AAXX  10064 42623 32496 70000 10264 20206 39222 40066 84831 333 58010 83618 85360;EQDQ01  00002PRCP99
0208426230999992000101012004+24760+093890FM-12+0781VEIM V0209999C000012200019N0040001N1+02601+02181100391ADDAA199000091GA1021+007509029GF102991021081008001001001KA1120M+02991MA1999999091951MD1999999+0031REMSYN082AAXX  10124 42623 32596 20000 10260 20218 39195 40039 82800 333 10299 58003 82825;EQDQ01  00002PRCP99
0189426230999992000101015004+24760+093890FM-12+0781VEIM V0209999C000012200019N0040001N1+02301+02181100751ADDAA199000091GA1021+006009059GF103991021041008001031001MA1999999092191MD1999999+0001REMSYN076AAXX  10154 42623 32596 30000 10230 20218 39219 40075 82430 333 58000 82620;EQDQ01  00002PRCP99
0217426230999992000101118004+24760+093890FM-12+0781VEIM V0209999C000012200019N0040001N1+02141+01981100911ADDAA199000091AY101061AY201061GA1011+006009059GF101991011051008001001001MA1999999092311MD1999999+0141MW1051REMSYN082AAXX  11184 42623 31596 10000 10214 20198 39231 40091 70500 81500 333 58014 81620;EQDQ01  00002PRCP99
0223426230999992000101215004+24760+093890FM-12+0781VEIM V0209999C000012200019N0040001N1+02301+02091100651ADDAA199000091AY101031AY201031GA1021+005409069GF102991021031004501001001MA1999999092101MD1999999-0191MW1131REMSYN088AAXX  12154 42623 31496 20000 10230 20209 39210 40065 71300 82300 333 59019 82618 81930;EQDQ01  00002PRCP99
0209426230999992000101218004+24760+093890FM-12+0781VEIM V0209999C000012200019N0040001N1+02141+01941100741ADDAA199000091AY121061AY201061GA1021+005409069GF103991021041004501031001MA1999999092171MW1051REMSYN088AAXX  12184 42623 31496 30000 10214 20194 39217 40074 70520 82430 333 52014 82618 84360;EQDQ01  00002PRCP99
0242426230999992000101303004+24760+093890FM-12+0781VEIM V0209999C000010360019N0040001N1+02541+02151100771ADDAA199000091AY191031AY241031GA1011+002409079GF105991041071002501031001KA1120N+01981MA1999999092291MD1999999-0211MW1051REMSYN094AAXX  13034 42623 31396 50000 10254 20215 39229 40077 70594 84730 333 20198 59021 81708 84618;EQDQ01  00002PRCP99
0173426230999992000101312004+24760+093890FM-12+0781VEIM V0209999C000012200019N0040001N1+02661+02121100121ADDAA115261991GF102991021051008001001001KA1120M+03101MA1999999091731MD1999999-0151REMSYN082AAXX  13124 42623 32596 20000 10266 20212 39173 40012 82500 333 10310 59015 62620;
0187426230999992000101418004+24760+093890FM-12+0781VEIM V0209999C000012200019N0040001N1+01941+01881100821ADDAA100006192AA215006092GA1021+005409059GF103991021051004501031001MA1999999092171MD1999999+0171REMSYN082AAXX  14184 42623 22496 30000 10194 20188 39217 40082 82530 333 58017 6006/ 82618;
0243426230999992000101500004+24760+093890FM-12+0781VEIM V0209999C00001036001CN0010001N1+01921+01861100951ADDAA100006192AA221006092AY141061AY221061GA1021+002409079GA2041+004809069GF106991041071002501031001MA1999999092291MD1999999+0221MW1101REMSYN100AAXX  15004 42623 21394 60000 10192 20186 39229 40095 71042 84730 333 58022 6006/ 82708 84616 85360;
0240426230999992000101503004+24760+093890FM-12+0781VEIM V0209999C000012200019N0020001N1+02441+02111100961ADDAA100006192AA224006092AY141031AY221031GA1021+002409079GF104991031061002501031011KA1120N+01921MA1999999092441MD1999999+0231MW1051REMSYN100AAXX  15034 42623 21395 40000 10244 20211 39244 40096 70542 83631 333 20192 58023 6006/ 82708 83616;
0243426230999992000101518004+24760+093890FM-12+0781VEIM V0209999C000010054019N0040001N1+02081+01991101031ADDAA100002091AA215002091AY121061AY221061GA1021+002409079GA2031+005409069GF107991051071002501031001MA1999999092391MD1999999+0221MW1051REMSYN100AAXX  15184 42623 21396 70000 10208 20199 39239 40103 70522 85730 333 58022 6002/ 82708 83618 86360;
0243426230999992000101521004+24760+093890FM-12+0781VEIM V0209999C000010054019N0040001N1+02021+01961101001ADDAA100002091AA218002091AY121031AY221031GA1031+002409079GA2041+005409069GF107991051071002501021001MA1999999092371MD1999999+0231MW1051REMSYN100AAXX  15214 42623 21396 70000 10202 20196 39237 40100 70522 85720 333 58023 6002/ 83708 84618 87459;
0236426230999992000101612004+24760+093890FM-12+0781VEIM V0209999C00001036001CN0040001N1+02581+02101100661ADDAA199000091GA1011+005409069GA2011+009009099GF106991021031004501031011KA1120M+03061MA1999999092191MD1999999+0081REMSYN094AAXX  16124 42623 32496 60000 10258 20210 39219 40066 82331 333 10306 58008 81618 81930 85070;EQDQ01  00002PRCP99
0265426230999992000101718004+24760+093890FM-12+0781VEIM V0209999C000010054019N0040001N1+02141+01981100941ADDAA100001091AA215001091AY151061AY221061GA1031+002409079GA2041+005409069GA3011+009009099GF107991051031002501031001MA1999999092341MD1999999-0041MW1511REMSYN106AAXX  17184 42623 21396 70000 10214 20198 39234 40094 75152 85330 333 59004 6001/ 83708 84618 81930 86360;
0237426230999992000101721004+24760+093890FM-12+0781VEIM V0209999C000010054019N0040001N1+02061+01931100941ADDAA100001091AA218001091AY121031AY221031GA1031+002409079GA2041+005409069GF107991999999002501999999MA1999999092311MD1999999-0041MW1051REMSYN094AAXX  17214 42623 21396 70000 10206 20193 39231 40094 70522 333 59004 6001/ 83708 84618 86360;
0243426230999992000101800004+24760+093890FM-12+0781VEIM V0209999C00001036001CN0020001N1+01961+01901100961ADDAA100001091AA221001091AY121061AY221061GA1031+002409079GA2041+005409069GF106991041071002501031001MA1999999092301MD1999999-0131MW1101REMSYN100AAXX  18004 42623 21395 60000 10196 20190 39230 40096 71022 84730 333 59013 6001/ 83708 84618 86360;
0195426230999992000101809004+24760+093890FM-12+0781VEIM V0209999C00001090001CN0040001N1+02961+01921100181ADDAA199000091GA1021+007509089GF105991021021008001031011MA1999999091851MD1999999-0231REMSYN082AAXX  18094 42623 32596 50000 10296 20192 39185 40018 82231 333 59023 82825 84070;EQDQ01  00002PRCP99
0252426230999992000101812004+24760+093890FM-12+0781VEIM V0209999C00001036001CN0040001N1+02461+00002100401ADDAA199000091GA1031+005409069GA2011+009009099GF106991031031004501031001KA1120M+03041MA1999999091931MD1999999-0231REMSYN094AAXX  18124 42623 32496 60000 10246 20000 39193 40040 83330 333 10304 59023 83618 81930 85360;EQDQ01+000003ATOD  Q02  00002PRCP99
0217426230999992000101821004+24760+093890FM-12+0781VEIM V0209999C00001036001CN0040001N1+02061+02001100821ADDAA199000091GA1011+002409079GA2031+005409069GF106991031061002501031001MA1999999092201MD1999999-0121REMSYN088AAXX  18214 42623 32396 60000 10206 20200 39220 40082 83630 333 59012 81708 83618 85360;EQDQ01  00002PRCP99
0264426230999992000101903004+24760+093890FM-12+0781VEIM V0202701N001510048019N0040001N1+02441+02071100911ADDAA199000091AY121031AY221031GA1031+002109079GA2051+004809069GF107991061071002501031001KA1120N+01991MA1999999092391MD1999999+0051MW1051REMSYN100AAXX  19034 42623 31396 72703 10244 20207 39239 40091 70522 86730 333 20199 58005 83707 85616 86360;EQDQ01  00002PRCP99
0189426230999992000101906004+24760+093890FM-12+0781VEIM V0203201N001512200019N0040001N1+02901+01991100501ADDAA199000091GA1031+005409059GF104991041081004501001001MA1999999092151MD1999999+0051REMSYN076AAXX  19064 42623 32496 43203 10290 20199 39215 40050 84800 333 58005 83618;EQDQ01  00002PRCP99
0223426230999992000102000004+24760+093890FM-12+0781VEIM V0209999C00001002101CN0040001N1+01901+01841101001ADDAA199000091AY121061AY221061GA1031+002409079GF107991061071002501021001MA1999999092311MD1999999+0081MW1051REMSYN088AAXX  20004 42623 31396 70000 10190 20184 39231 40100 70522 86720 333 58008 83708 85618;EQDQ01  00002PRCP99
0208426230999992000102012004+24760+093890FM-12+0781VEIM V0209999C000012200019N0040001N1+02341+01461100551ADDAA199000091GA1011+005409059GF102991011041004501041001KA1120M+03031MA1999999092041MD1999999+0121REMSYN082AAXX  20124 42623 32496 20000 10234 20146 39204 40055 81440 333 10303 58012 81618;EQDQ01  00002PRCP99
0262426230999992000102109004+24760+093890FM-12+0781VEIM V0209999C000010048019N0040001N1+02521+01931100491ADDAA100000791AA206999999AY161031AY241031GA1021+002409079GA2041+004809069GF107991051071002501031001MA1999999092041MD1999999+0071MW1021REMSYN100AAXX  21094 42623 21396 70000 10252 20193 39204 40049 70264 85730 333 58007 6990/ 82708 84616 86360;EQDQ01  99992PRCP06
0240426230999992000102118004+24760+093890FM-12+0781VEIM V0209999C00001036001CN0040001N1+01901+01801100931ADDAA100000791AA215999999AY121061AY221061GA1041+005409069GF106991041051002501031001MA1999999092241MD1999999-0011MW1051REMSYN094AAXX  21184 42623 21396 60000 10190 20180 39224 40093 70522 84530 333 59001 6990/ 84618 85360;EQDQ01  99992PRCP15
0214426230999992000102203004+24760+093890FM-12+0781VEIM V0209999C000010054019N0020001N1+02101+01911101141ADDAY121031AY221031GA1031+002409079GA2051+005409069GF107991051071002501031001KA1120N+01771MA1999999092491MW1101REMSYN094AAXX  22034 42623 21395 70000 10210 20191 39249 40114 71022 85730 333 20177 83708 85618 86360;
0222426230999992000102212004+24760+093890FM-12+0781VEIM V0209999C000010360019N0040001N1+02301+01861100451ADDAA199000091AY121061AY221061GA1011+002409079GF105991031061002501031001KA1120M+02911MA1999999091921MW1051REMSYN088AAXX  22124 42623 31396 50000 10230 20186 39192 40045 70522 83630 333 10291 81708 83618;EQDQ01  00002PRCP99
0217426230999992000102215004+24760+093890FM-12+0781VEIM V0209999C000012200019N0040001N1+02001+01771100761ADDAA199000091AY121031AY221031GA1011+002409069GF104991031061002501031001MA1999999092121MD1999999-0131MW1051REMSYN082AAXX  22154 42623 31396 40000 10200 20177 39212 40076 70522 83630 333 59013 81708;EQDQ01  00002PRCP99
0234426230999992000102303004+24760+093890FM-12+0781VEIM V0209999C000010048019N0010001N1+01981+01851101091ADDAY141031AY241031GA1041+001809079GA2041+004809069GF108991061071001501021999KA1120N+01621MA1999999092421MD1999999-0071MW1101REMSYN100AAXX  23034 42623 21294 80000 10198 20185 39242 40109 71044 8672/ 333 20162 59007 84706 84616 88459;
0245426230999992000102306004+24760+093890FM-12+0781VEIM V0209999C000010054019N0040001N1+02481+01851100721ADDAA199000091AY121061AY221061GA1031+002409079GA2041+005409069GF107991051071002501031001MA1999999092221MD1999999-0021MW1051REMSYN094AAXX  23064 42623 31396 70000 10248 20185 39222 40072 70522 85730 333 59002 83708 84618 86360;EQDQ01  00002PRCP99
0217426230999992000102318004+24760+093890FM-12+0781VEIM V0209999C000012200019N0040001N1+01941+01711100881ADDAA199000091AY101061AY201061GA1021+005409059GF103991021051004501031001MA1999999092231MD1999999+0111MW1051REMSYN082AAXX  23184 42623 31496 30000 10194 20171 39223 40088 70500 82530 333 58011 82618;EQDQ01  00002PRCP99
0217426230999992000102415004+24760+093890FM-12+0781VEIM V0209999C000012200019N0040001N1+02021+01621101001ADDAA199000091AY111031AY201031GA1011+005409059GF102991011041004501031001MA1999999092361MD1999999+0131MW1051REMSYN082AAXX  24154 42623 31496 20000 10202 20162 39236 40100 70510 81430 333 58013 81618;EQDQ01  00002PRCP99
0217426230999992000102418004+24760+093890FM-12+0781VEIM V0209999C000012200019N0040001N1+01781+01651101221ADDAA199000091AY101061AY201061GA1011+005409059GF102991011041004501031001MA1999999092481MD1999999+0251MW1051REMSYN082AAXX  24184 42623 31496 20000 10178 20165 39248 40122 70500 81430 333 58025 81618;EQDQ01  00002PRCP99
0217426230999992000102421004+24760+093890FM-12+0781VEIM V0209999C000012200019N0040001N1+01641+01541101201ADDAA199000091AY101031AY201031GA1021+005409059GF102991021041004501001001MA1999999092451MD1999999+0241MW1051REMSYN082AAXX  24214 42623 31496 20000 10164 20154 39245 40120 70500 82400 333 58024 82618;EQDQ01  00002PRCP99
0242426230999992000102503004+24760+093890FM-12+0781VEIM V0209999C000012200019N0020001N1+02081+01791101451ADDAA199000091AY141031AY241031GA1021+002109079GF104991041071002501001001KA1120N+01491MA1999999092781MD1999999+0151MW1101REMSYN094AAXX  25034 42623 31395 40000 10208 20179 39278 40145 71044 84700 333 20149 58015 82707 83616;EQDQ01  00002PRCP99
0189426230999992000102512004+24760+093890FM-12+0781VEIM V0209999C000012200019N0040001N1+02301+01651100881ADDAA199000091GA1011+005409059GF101991011051008001001001MA1999999092311MD1999999+0101REMSYN076AAXX  25124 42623 32596 10000 10230 20165 39231 40088 81500 333 58010 81618;EQDQ01  00002PRCP99
0262426230999992000102603004+24760+093890FM-12+0781VEIM V0209999C000010054019N0040001N1+02061+01801101441ADDAA100000791AA224999929AY161031AY221031GA1021+002409079GA2041+005409069GF107991051071002501021001KA1120N+01671MA1999999092771MD1999999-0011MW1601REMSYN106AAXX  26034 42623 21396 70000 10206 20180 39277 40144 76062 85720 333 20167 59001 6990/ 82708 84618 86460;
0243426230999992000102606004+24760+093890FM-12+0781VEIM V0209999C000010054019N0040001N1+02301+01751101111ADDAA100000791AA203999929AY161061AY221061GA1021+002409079GA2041+005409069GF108991061071002501021999MA1999999092601MD1999999+0081MW1051REMSYN100AAXX  26064 42623 21396 80000 10230 20175 39260 40111 70562 8672/ 333 58008 6990/ 82708 84618 88459;
0262426230999992000102703004+24760+093890FM-12+0781VEIM V0209999C000010048019N0020001N1+01861+01761101551ADDAA100006192AA224006092AY161031AY221031GA1031+001809079GA2051+004809069GF108991061071001501021999KA1120N+01761MA1999999092811MD1999999+0041MW1611REMSYN106AAXX  27034 42623 21295 80000 10186 20176 39281 40155 76162 8672/ 333 20176 58004 6006/ 83706 85616 88459;
0243426230999992000102706004+24760+093890FM-12+0781VEIM V0209999C000010048019N0020001N1+01981+01851101401ADDAA100006192AA203006092AY161061AY251061GA1031+001809079GA2051+004809069GF108991061071001501021999MA1999999092711MD1999999+0111MW1611REMSYN100AAXX  27064 42623 21295 80000 10198 20185 39271 40140 76165 8672/ 333 58011 6006/ 83706 85616 88459;
0243426230999992000102715004+24760+093890FM-12+0781VEIM V0209999C000010048019N0040001N1+01861+01831101451ADDAA100017091AA212017091AY161031AY261031GA1031+001809079GA2051+004809069GF108991061071001501021999MA1999999092721MD1999999+0111MW1611REMSYN100AAXX  27154 42623 21296 80000 10186 20183 39272 40145 76166 8672/ 333 58011 6017/ 83706 85616 88459;
0243426230999992000102721004+24760+093890FM-12+0781VEIM V0209999C000010048019N0040001N1+01801+01771101291ADDAA100025991AA218026091AY161031AY261031GA1031+001809079GA2051+004809069GF108991061071001501021999MA1999999092551MD1999999-0071MW1611REMSYN100AAXX  27214 42623 21296 80000 10180 20177 39255 40129 76166 8672/ 333 59007 6026/ 83706 85616 88459;
0243426230999992000102800004+24760+093890FM-12+0781VEIM V0209999C000010048019N0040001N1+01701+01701101351ADDAA100025991AA221026091AY161061AY261061GA1031+001809079GA2051+004809069GF108991061071001501021999MA1999999092571MD1999999-0011MW1611REMSYN100AAXX  28004 42623 21296 80000 10170 20170 39257 40135 76166 8672/ 333 59001 6026/ 83706 85616 88459;
0215426230999992000102809004+24760+093890FM-12+0781VEIM V0209999C000010048019N0040001N1+01821+01721101141ADDAA100011991AA206012091GA1031+002409079GA2051+004809069GF108991061071002501021999MA1999999092441MD1999999-0081REMSYN094AAXX  28094 42623 22396 80000 10182 20172 39244 40114 8672/ 333 59008 6012/ 83708 85616 88459;
0281426230999992000102812004+24760+093890FM-12+0781VEIM V0209999C000010054019N0040001N1+01741+01661101391ADDAA100011991AA209012091AY161061AY261061GA1021+002409079GA2041+005409069GF108991051071002501021999KA1120M+03841MA1999999091552MD1999999-0051MW1211REMSYN106AAXX  28124 42623 21396 80000 10174 20166 39155 40139 72166 8572/ 333 10384 59005 6012/ 82708 84618 88460;EQDQ01+091553APOSP 
0215426230999992000102821004+24760+093890FM-12+0781VEIM V0209999C000010054019N0040001N1+01681+01541101421ADDAA100013091AA218013091GA1021+002409079GA2041+005409069GF108991051071002501021999MA1999999092641MD1999999+0091REMSYN094AAXX  28214 42623 22396 80000 10168 20154 39264 40142 8572/ 333 58009 6013/ 82708 84618 88460;
0234426230999992000102900004+24760+093890FM-12+0781VEIM V0209999C000010054019N0040001N1+01701+01671100502ADDAA100013091AA221013091GA1021+002409079GA2041+005409069GF107991051071002501071001MA1999999092711MD1999999+0141REMSYN094AAXX  29004 42623 22396 70000 10170 20167 39271 40050 85770 333 58014 6013/ 82708 84618 87360;EQDQ01+100503APOSLP
0236426230999992000102912004+24760+093890FM-12+0781VEIM V0209999C000012200019N0040001N1+02101+01711101051ADDAA199000091AY101061AY201061GA1011+006009059GF101991011051008001001001KA1120M+02681MA1999999092411MD1999999-0141MW1051REMSYN088AAXX  29124 42623 31596 10000 10210 20171 39241 40105 70500 81500 333 10268 59014 81620;EQDQ01  00002PRCP99
0264426230999992000103003004+24760+093890FM-12+0781VEIM V0209999C000010048019N0010001N1+01781+01711101461ADDAA199000091AY141031AY241031GA1041+001809079GA2051+004809069GF108991061061001501021999KA1120N+01511MA1999999092701MD1999999-0171MW1101REMSYN100AAXX  30034 42623 31294 80000 10178 20171 39270 40146 71044 8662/ 333 20151 59017 84706 85616 88459;EQDQ01  00002PRCP99
0195426230999992000103006004+24760+093890FM-12+0781VEIM V0209999C000012200019N0040001N1+02341+01621100991ADDAA199000091GA1021+002409079GF104991041061002501001001MA1999999092441MD1999999-0151REMSYN082AAXX  30064 42623 32396 40000 10234 20162 39244 40099 84600 333 59015 82708 83618;EQDQ01  00002PRCP99
0217426230999992000103015004+24760+093890FM-12+0781VEIM V0209999C000012200019N0040001N1+01841+01641101171ADDAA199000091AY101031AY201031GA1021+005409059GF102991021051004501001001MA1999999092461MD1999999-0151MW1051REMSYN082AAXX  30154 42623 31496 20000 10184 20164 39246 40117 70500 82500 333 59015 82618;EQDQ01  00002PRCP99
0205426230999992000103100004+24760+093890FM-12+0781VEIM V0209999C000010003019N0002001N1+01501+01431101381ADDAA199000091AY121061AY201061GA1091+999999999GF109991091999999999999999MA1999999092551MD1999999-0011MW1471REMSYN070AAXX  31004 42623 31/92 90000 10150 20143 39255 40138 74720 333 59001;EQDQ01  00002PRCP99
0217426230999992000103118004+24760+093890FM-12+0781VEIM V0209999C000012200019N0040001N1+01541+01401101431ADDAA199000091AY101061AY201061GA1011+006009059GF101991011051008001001001MA1999999092621MD1999999+0151MW1051REMSYN082AAXX  31184 42623 31596 10000 10154 20140 39262 40143 70500 81500 333 58015 81620;EQDQ01  00002PRCP99
0223426230999992000110100004+24760+093890FM-12+0781VEIM V0209999C00001001201CN0001001N1+01341+01271101681ADDAA199000091AY141061AY201061GA1041+001809079GF107991061061001501021001MA1999999092791MD1999999+0241MW1461REMSYN088AAXX  01004 42623 31291 70000 10134 20127 39279 40168 74640 86620 333 58024 84706 85616;EQDQ01  00002PRCP99
0217426230999992000110200004+24760+093890FM-12+0781VEIM V0209999C000012200019N0020001N1+01321+01211101801ADDAA199000091AY141061AY221061GA1021+005409059GF102991021041004501031001MA1999999092901MD1999999+0111MW1101REMSYN082AAXX  02004 42623 31495 20000 10132 20121 39290 40180 71042 82430 333 58011 82618;EQDQ01  00002PRCP99
0223426230999992000110221004+24760+093890FM-12+0781VEIM V0209999C000012200019N0040001N1+01441+01331101601ADDAA199000091AY121031AY221031GA1021+005409069GF104991021051004501031001MA1999999092751MD1999999-0031MW1051REMSYN088AAXX  02214 42623 31496 40000 10144 20133 39275 40160 70522 82530 333 59003 82618 86360;EQDQ01  00002PRCP99
0217426230999992000110321004+24760+093890FM-12+0781VEIM V0209999C000012200019N0040001N1+01441+01331101691ADDAA199000091AY101031AY201031GA1011+005409059GF101991011041004501001001MA1999999092831MD1999999+0091MW1051REMSYN082AAXX  03214 42623 31496 10000 10144 20133 39283 40169 70500 81400 333 58009 81618;EQDQ01  00002PRCP99
0208426230999992000110412004+24760+093890FM-12+0781VEIM V0209999C000012200019N0040001N1+02201+01641101311ADDAA199000091GA1021+005409059GF102991021051004501001001KA1120M+02861MA1999999092681MD1999999+0021REMSYN082AAXX  04124 42623 32496 20000 10220 20164 39268 40131 82500 333 10286 58002 82618;EQDQ01  00002PRCP99
0217426230999992000110421004+24760+093890FM-12+0781VEIM V0209999C000012200019N0040001N1+01481+01371101611ADDAA199000091AY101031AY201031GA1021+005409059GF102991021051004501001001MA1999999092761MD1999999-0071MW1051REMSYN082AAXX  04214 42623 31496 20000 10148 20137 39276 40161 70500 82500 333 59007 82618;EQDQ01  00002PRCP99
0223426230999992000110521004+24760+093890FM-12+0781VEIM V0209999C000012200019N0040001N1+01421+01271101241ADDAA199000091AY121031AY221031GA1011+002409079GF103991031061002501001001MA1999999092421MD1999999-0321MW1051REMSYN088AAXX  05214 42623 31396 30000 10142 20127 39242 40124 70522 83600 333 59032 81708 83618;EQDQ01  00002PRCP99
0173426230999992000110609004+24760+093890FM-12+0781VEIM V0202301N001512200019N0040001N1+02581+01231100711ADDAA199000091GF103991021041004501031001MA1999999092241MD1999999-0111REMSYN076AAXX  06094 42623 32496 32303 10258 20123 39224 40071 82430 333 59011 82///;EQDQ01  00002PRCP99
0189426230999992000110709004+24760+093890FM-12+0781VEIM V0209999C000012200019N0040001N1+02561+01161100871ADDAA199000091GA1021+007509029GF102991021011008001001001MA1999999092381MD1999999+0141REMSYN076AAXX  07094 42623 32596 20000 10256 20116 39238 40087 82100 333 58014 82825;EQDQ01  00002PRCP99
0208426230999992000110712004+24760+093890FM-12+0781VEIM V0209999C000012200019N0040001N1+02001+01491101151ADDAA199000091GA1011+006009059GF101991011051008001001001KA1120M+02761MA1999999092481MD1999999+0171REMSYN082AAXX  07124 42623 32596 10000 10200 20149 39248 40115 81500 333 10276 58017 81620;EQDQ01  00002PRCP99
0224426230999992000110803004+24760+093890FM-12+0781VEIM V0209999C000010003019N0005001N1+01521+01451101691ADDAA199000091AY141031AY241031GA1091+999999999GF109991091999999999999999KA1120N+01141MA1999999092851MD1999999+0041MW1431REMSYN076AAXX  08034 42623 31/93 90000 10152 20145 39285 40169 74344 333 20114 58004;EQDQ01  00002PRCP99
0217426230999992000110806004+24760+093890FM-12+0781VEIM V0209999C000012200019N0040001N1+02301+01461101201ADDAA199000091AY141061AY201061GA1011+005409059GF101991011051004501001001MA1999999092611MD1999999+0041MW1051REMSYN082AAXX  08064 42623 31496 10000 10230 20146 39261 40120 70540 81500 333 58004 81618;EQDQ01  00002PRCP99
0223426230999992000110900004+24760+093890FM-12+0781VEIM V0209999C00001001201CN0005001N1+01261+01191101451ADDAA199000091AY141061AY221061GA1031+001809079GF107991061061001501021001MA1999999092551MD1999999-0101MW1461REMSYN088AAXX  09004 42623 31293 70000 10126 20119 39255 40145 74642 86620 333 59010 83706 85616;EQDQ01  00002PRCP99
0208426230999992000110912004+24760+093890FM-12+0781VEIM V0209999C000012200019N0040001N1+01941+01461101001ADDAA199000091GA1011+006009059GF101991011041008001001001KA1120M+02711MA1999999092341MD1999999-0071REMSYN082AAXX  09124 42623 32596 10000 10194 20146 39234 40100 81400 333 10271 59007 81620;EQDQ01  00002PRCP99
0217426230999992000110915004+24760+093890FM-12+0781VEIM V0209999C000012200019N0040001N1+01601+01431101301ADDAA199000091AY101031AY201031GA1011+005409059GF101991011041004501001001MA1999999092501MD1999999-0111MW1051REMSYN082AAXX  09154 42623 31496 10000 10160 20143 39250 40130 70500 81400 333 59011 81618;EQDQ01  00002PRCP99
0223426230999992000111321004+24760+093890FM-12+0781VEIM V0209999C000012200019N0040001N1+01161+01001101341ADDAA199000091AY101031AY201031GA1011+005409069GF103991011041004501031001MA1999999092411MD1999999-0171MW1051REMSYN088AAXX  13214 42623 31496 30000 10116 20100 39241 40134 70500 81430 333 59017 81618 83360;EQDQ01  00002PRCP99
0208426230999992000111412004+24760+093890FM-12+0781VEIM V0209999C000012200019N0040001N1+01961+01411101111ADDAA199000091GA1021+005409059GF102991021051004501001001KA1120M+02591MA1999999092431MD1999999+0121REMSYN082AAXX  14124 42623 32496 20000 10196 20141 39243 40111 82500 333 10259 58012 82618;EQDQ01  00002PRCP99
0242426230999992000111503004+24760+093890FM-12+0781VEIM V0209999C000010018019N0005001N1+01481+01411101811ADDAA199000091AY141031AY221031GA1051+001809079GF107991071061001501001001KA1120N+01021MA1999999092941MD1999999+0161MW1421REMSYN094AAXX  15034 42623 31293 70000 10148 20141 39294 40181 74242 87600 333 20102 58016 85706 86616;EQDQ01  00002PRCP99
0208426230999992000111512004+24760+093890FM-12+0781VEIM V0209999C000012200019N0040001N1+01981+01471101291ADDAA199000091GA1011+006009059GF103991011051008001031001KA1120M+02591MA1999999092601MD1999999+0171REMSYN082AAXX  15124 42623 32596 30000 10198 20147 39260 40129 81530 333 10259 58017 81620;EQDQ01  00002PRCP99
0217426230999992000111600004+24760+093890FM-12+0781VEIM V0209999C000012200019N0020001N1+01021+00941101751ADDAA199000091AY121061AY221061GA1011+001809069GF102991021061001501001001MA1999999092761MD1999999+0041MW1101REMSYN082AAXX  16004 42623 31295 20000 10102 20094 39276 40175 71022 82600 333 58004 81706;EQDQ01  00002PRCP99
0236426230999992000111603004+24760+093890FM-12+0781VEIM V0209999C000012200019N0040001N1+01901+01261101711ADDAA199000091AY101031AY201031GA1011+006009059GF101991011051008001001001KA1120N+00971MA1999999092961MD1999999+0021MW1051REMSYN088AAXX  16034 42623 31596 10000 10190 20126 39296 40171 70500 81500 333 20097 58002 81620;EQDQ01  00002PRCP99
0217426230999992000111700004+24760+093890FM-12+0781VEIM V0209999C000012200019N0005001N1+00881+00801101851ADDAA199000091AY141061AY201061GA1011+001809069GF102991021061001501001001MA1999999092791MD1999999+0031MW1461REMSYN082AAXX  17004 42623 31293 20000 10088 20080 39279 40185 74640 82600 333 58003 81706;EQDQ01  00002PRCP99
0223426230999992000111718004+24760+093890FM-12+0781VEIM V0209999C000010360019N0040001N1+01541+01251101331ADDAA199000091AY101061AY201061GA1011+002409079GF105991041071004501031001MA1999999092501MD1999999-0271MW1051REMSYN088AAXX  17184 42623 31496 50000 10154 20125 39250 40133 70500 84730 333 59027 81708 83618;EQDQ01  00002PRCP99
0223426230999992000111721004+24760+093890FM-12+0781VEIM V0209999C000012200019N0040001N1+01421+01241101301ADDAA199000091AY121031AY221031GA1031+005409069GF104991031041004501031001MA1999999092471MD1999999-0281MW1051REMSYN088AAXX  17214 42623 31496 40000 10142 20124 39247 40130 70522 83430 333 59028 83618 84360;EQDQ01  00002PRCP99
0223426230999992000111800004+24760+093890FM-12+0781VEIM V0209999C000010360019N0020001N1+01421+01311101371ADDAA199000091AY121061AY221061GA1011+002409079GF105991041071004501031001MA1999999092541MD1999999-0251MW1051REMSYN088AAXX  18004 42623 31495 50000 10142 20131 39254 40137 70522 84730 333 59025 81708 83618;EQDQ01  00002PRCP99
0281426230999992000111803004+24760+093890FM-12+0781VEIM V0209999C00001036001CN0020001N1+01721+01401101441ADDAA100000791AA224999999AY151031AY221031GA1021+002409079GA2041+005409069GF107991041071002501031001KA1120N+01341MA1999999092681MD1999999-0241MW1051REMSYN106AAXX  18034 42623 21395 70000 10172 20140 39268 40144 70552 84730 333 20134 59024 6990/ 82708 84618 87360;EQDQ01  99992PRCP24
0223426230999992000111806004+24760+093890FM-12+0781VEIM V0209999C000012200019N0020001N1+02341+01351100971ADDAA199000091AY121061AY221061GA1021+005409069GF104991021051004501031001MA1999999092421MD1999999-0221MW1051REMSYN088AAXX  18064 42623 31495 40000 10234 20135 39242 40097 70522 82530 333 59022 82618 83360;EQDQ01  00002PRCP99
0214426230999992000111812004+24760+093890FM-12+0781VEIM V0203201N001512200019N0040001N1+02061+01451100911ADDAA199000091GA1021+005409069GF104991021051004501031001KA1120M+02611MA1999999092281MD1999999-0171REMSYN088AAXX  18124 42623 32496 43203 10206 20145 39228 40091 82530 333 10261 59017 82618 83360;EQDQ01  00002PRCP99
0245426230999992000111900004+24760+093890FM-12+0781VEIM V0209999C000010054019N0020001N1+01401+01291101381ADDAA199000091AY121061AY221061GA1031+002409079GA2041+005409069GF107991051071002501031001MA1999999092511MD1999999-0031MW1101REMSYN094AAXX  19004 42623 31395 70000 10140 20129 39251 40138 71022 85730 333 59003 83708 84618 86360;EQDQ01  00002PRCP99
0230426230999992000111903004+24760+093890FM-12+0781VEIM V0209999C000010003019N0005001N1+01581+01511101491ADDAA199000091AY141031AY221031GA1091+999999999GF109991091999999999999999KA1120N+01221MA1999999092671MD1999999-0011MW1471REMSYN082AAXX  19034 42623 31/93 90000 10158 20151 39267 40149 74742 89/// 333 20122 59001;EQDQ01  00002PRCP99
0223426230999992000111915004+24760+093890FM-12+0781VEIM V0209999C000012200019N0040001N1+01641+01361101191ADDAA199000091AY101031AY201031GA1021+005409069GF104991021051004501031001MA1999999092431MD1999999+0001MW1051REMSYN088AAXX  19154 42623 31496 40000 10164 20136 39243 40119 70500 82530 333 58000 82618 83360;EQDQ01  00002PRCP99
0245426230999992000112000004+24760+093890FM-12+0781VEIM V0209999C000010054019N0010001N1+01321+99999101361ADDAA199000091AY121061AY221061GA1031+002409079GA2041+005409069GF107991051071002501031001MA1999999092591MD1999999+0081MW1101REMSYN094AAXX  20004 42623 31394 70000 10132 20227 39259 40136 71022 85730 333 58008 83708 84618 86359;EQDQ01  00002PRCP99
0201426230999992000112018004+24760+093890FM-12+0781VEIM V0209999C000012200019N0020001N1+01441+01221101461ADDAA199000091AY101061AY201061GF101991011051004501001001MA1999999092621MD1999999+0191MW1051REMSYN082AAXX  20184 42623 31495 10000 10144 20122 39262 40146 70500 81500 333 58019 91618;EQDQ01  00002PRCP99
0189426230999992000112109004+24760+093890FM-12+0781VEIM V0209999C000012200019N0040001N1+02401+01211100941ADDAA199000091GA1011+007509029GF101991011011008001031001MA1999999092391MD1999999+0091REMSYN076AAXX  21094 42623 32596 10000 10240 20121 39239 40094 81130 333 58009 81825;EQDQ01  00002PRCP99
0236426230999992000112112004+24760+093890FM-12+0781VEIM V0209999C000012200019N0040001N1+01801+01461101231ADDAA199000091AY101061AY201061GA1011+005409059GF101991011041004501001001KA1120M+02471MA1999999092491MD1999999+0101MW1051REMSYN088AAXX  21124 42623 32496 10000 10180 20146 39249 40123 70500 81400 333 10247 58010 81618;EQDQ01  00002PRCP99
0224426230999992000112203004+24760+093890FM-12+0781VEIM V0209999C000010001519N0001001N1+01301+99999101931ADDAA199000091AY141031AY241031GA1091+999999999GF109991091999999999999999KA1120N+00921MA1999999092981MD1999999+0121MW1471REMSYN076AAXX  22034 42623 31/91 90000 10130 22123 39298 40193 74744 333 20092 58012;EQDQ01  00002PRCP99
0217426230999992000112206004+24760+093890FM-12+0781VEIM V0209999C000012200019N0040001N1+02101+01371101461ADDAA199000091AY101061AY201061GA1011+005409059GF101991011051004501001001MA1999999092791MD1999999+0181MW1051REMSYN082AAXX  22064 42623 31496 10000 10210 20137 39279 40146 70500 81500 333 58018 81618;EQDQ01  00002PRCP99
0217426230999992000112306004+24760+093890FM-12+0781VEIM V0209999C000012200019N0040001N1+02041+01341101551ADDAA199000091AY101061AY201061GA1021+005409059GF102991021051004501001001MA1999999092871MD1999999+0081MW1051REMSYN082AAXX  23064 42623 31496 20000 10204 20134 39287 40155 70500 82500 333 58008 82618;EQDQ01  00002PRCP99
0217426230999992000112309004+24760+093890FM-12+0781VEIM V0201801N001512200019N0040001N1+02321+01281101161ADDAA199000091AY101031AY201031GA1011+007509029GF101991011011008001001001MA1999999092601MD1999999+0041MW1051REMSYN082AAXX  23094 42623 31596 11803 10232 20128 39260 40116 70500 81100 333 58004 81825;EQDQ01  00002PRCP99
0236426230999992000112312004+24760+093890FM-12+0781VEIM V0209999C000012200019N0020001N1+01801+01421101371ADDAA199000091AY121061AY221061GA1021+005409059GF102991021051004501001001KA1120M+02401MA1999999092621MD1999999-0041MW1051REMSYN088AAXX  23124 42623 31495 20000 10180 20142 39262 40137 70522 82500 333 10240 59004 82618;EQDQ01  00002PRCP99
0217426230999992000112409004+24760+093890FM-12+0781VEIM V0209999C000012200019N0040001N1+02261+01201100941ADDAA199000091AY101031AY201031GA1011+005409059GF101991011051004501001001MA1999999092361MD1999999-0241MW1051REMSYN082AAXX  24094 42623 31496 10000 10226 20120 39236 40094 70500 81500 333 59024 81618;EQDQ01  00002PRCP99
0211426230999992000112500004+24760+093890FM-12+0781VEIM V0209999C000010001519N0001001N1+01141+01101101641ADDAA199000091AY141061AY201061GA1091+999999999GF109991091999999999999999MA1999999092691MD1999999-0141MW1471REMSYN076AAXX  25004 42623 31/91 90000 10114 20110 39269 40164 74740 8//// 333 59014;EQDQ01  00002PRCP99
0236426230999992000112512004+24760+093890FM-12+0781VEIM V0209999C000012200019N0020001N1+01641+01471101161ADDAA199000091AY101061AY201061GA1011+005409059GF101991011051004501001001KA1120M+02381MA1999999092401MD1999999+0071MW1051REMSYN088AAXX  25124 42623 31495 10000 10164 20147 39240 40116 70500 81500 333 10238 58007 81618;EQDQ01  00002PRCP99
0217426230999992000112518004+24760+093890FM-12+0781VEIM V0209999C000012200019N0020001N1+01281+01131101541ADDAA199000091AY101061AY201061GA1011+005409059GF101991011051004501001001MA1999999092621MD1999999+0101MW1051REMSYN082AAXX  25184 42623 31495 10000 10128 20113 39262 40154 70500 81500 333 58010 81618;EQDQ01  00002PRCP99
0211426230999992000112600004+24760+093890FM-12+0781VEIM V0209999C000010001519N0001001N1+00781+00691101781ADDAA199000091AY141061AY201061GA1091+999999999GF109991091999999999999999MA1999999092701MD1999999+0011MW1471REMSYN076AAXX  26004 42623 31/91 90000 10078 20069 39270 40178 74740 89/// 333 58001;EQDQ01  00002PRCP99
0189426230999992000112709004+24760+093890FM-12+0781VEIM V0209999C000010600019N0040001N1+02441+01221101091ADDAA199000091GA1051+060009019GF105991001001999999001011MA1999999092561MD1999999+0071REMSYN076AAXX  27094 42623 32996 50000 10244 20122 39256 40109 80001 333 58007 85070;EQDQ01  00002PRCP99
0208426230999992000112712004+24760+093890FM-12+0781VEIM V0209999C000012200019N0040001N1+01761+01341101361ADDAA199000091GA1011+005409059GF103991011051004501031001KA1120M+02501MA1999999092611MD1999999+0011REMSYN082AAXX  27124 42623 32496 30000 10176 20134 39261 40136 81530 333 10250 58001 81618;EQDQ01  00002PRCP99
0264426230999992000112803004+24760+093890FM-12+0781VEIM V0209999C00001036001CN0020001N1+01701+01211101611ADDAA199000091AY121031AY221031GA1011+002409079GA2031+005409069GF106991031061002501031001KA1120N+00871MA1999999092911MD1999999-0071MW1051REMSYN100AAXX  28034 42623 31395 60000 10170 20121 39291 40161 70522 83630 333 20087 59007 81708 83618 85070;EQDQ01  00002PRCP99
0223426230999992000112806004+24760+093890FM-12+0781VEIM V0209999C00001036001CN0040001N1+02241+01221101231ADDAA199000091AY141061AY221061GA1031+005409069GF107991031041004501031011MA1999999092641MD1999999-0201MW1051REMSYN088AAXX  28064 42623 31496 70000 10224 20122 39264 40123 70542 83431 333 59020 83618 86360;EQDQ01  00002PRCP99
0217426230999992000112906004+24760+093890FM-12+0781VEIM V0209999C000010054019N0040001N1+01861+01371101421ADDAA199000091GA1021+002409079GA2041+005409069GF107991051071002501031001MA1999999092691MD1999999+0051REMSYN088AAXX  29064 42623 32396 70000 10186 20137 39269 40142 85730 333 58005 82708 84618 86360;EQDQ01  00002PRCP99
0240426230999992000112915004+24760+093890FM-12+0781VEIM V0209999C00001036001CN0040001N1+01441+01261101651ADDAA100000791AA212999999AY121031AY201031GA1031+005409069GF106991031041004501031001MA1999999092791MD1999999+0111MW1051REMSYN094AAXX  29154 42623 21496 60000 10144 20126 39279 40165 70520 83430 333 58011 6990/ 83618 85360;EQDQ01  99992PRCP12
0223426230999992000120106004+24760+093890FM-12+0781VEIM V0201801N00151001201CN0020001N1+01561+01151101621ADDAA199000091AY121061AY221061GA1031+001809079GF106991061061001501001001MA1999999092791MD1999999-0031MW1051REMSYN088AAXX  01064 42623 31295 61803 10156 20115 39279 40162 70522 86600 333 59003 83706 85616;EQDQ01  00002PRCP99
0189426230999992000120109004+24760+093890FM-12+0781VEIM V0201801N002112200019N0040001N1+01981+01191101231ADDAA199000091GA1011+006009059GF101991011051008001001001MA1999999092551MD1999999-0021REMSYN076AAXX  01094 42623 32596 11804 10198 20119 39255 40123 81500 333 59002 81620;EQDQ01  00002PRCP99
0208426230999992000120112004+24760+093890FM-12+0781VEIM V0209999C000012200019N0040001N1+01441+01141101421ADDAA199000091GA1021+005409059GF102991021051004501001001KA1120M+02041MA1999999092551MD1999999-0051REMSYN082AAXX  01124 42623 32496 20000 10144 20114 39255 40142 82500 333 10204 59005 82618;EQDQ01  00002PRCP99
0224426230999992000120203004+24760+093890FM-12+0781VEIM V0209999C000010003019N0002001N1+01081+01001102131ADDAA199000091AY141031AY241031GA1091+999999999GF109991091999999999999999KA1120N+00651MA1999999093111MD1999999+0151MW1451REMSYN076AAXX  02034 42623 31/92 90000 10108 20100 39311 40213 74544 333 20065 58015;EQDQ01  00002PRCP99
0217426230999992000120518004+24760+093890FM-12+0781VEIM V0209999C000012200019N0040001N1+00941+00841101641ADDAA199000091AY121061AY221061GA1011+005409059GF101991011051004501001001MA1999999092631MD1999999+0011MW1051REMSYN082AAXX  05184 42623 31496 10000 10094 20084 39263 40164 70522 81500 333 58001 81618;EQDQ01  00002PRCP99
0236426230999992000120603004+24760+093890FM-12+0781VEIM V0209999C000012200019N0040001N1+01541+00921101731ADDAA199000091AY121031AY201031GA1021+005409059GF102991021051004501001001KA1120N+00811MA1999999092891MD1999999+0081MW1051REMSYN088AAXX  06034 42623 31496 20000 10154 20092 39289 40173 70520 82500 333 20081 58008 82618;EQDQ01  00002PRCP99
0217426230999992000120615004+24760+093890FM-12+0781VEIM V0209999C000012200019N0040001N1+01301+01031101671ADDAA199000091AY101031AY201031GA1011+005409059GF101991011051004501001001MA1999999092751MD1999999+0071MW1051REMSYN082AAXX  06154 42623 31496 10000 10130 20103 39275 40167 70500 81500 333 58007 81618;EQDQ01  00002PRCP99
0223426230999992000120700004+24760+093890FM-12+0781VEIM V0209999C00001001201CN0001001N1+00601+00561101941ADDAA199000091AY141061AY201061GA1031+001809079GF106991061061001501001001MA1999999092781MD1999999+0111MW1461REMSYN088AAXX  07004 42623 31291 60000 10060 20056 39278 40194 74640 86600 333 58011 83706 85616;EQDQ01  00002PRCP99
0217426230999992000120721004+24760+093890FM-12+0781VEIM V0209999C000012200019N0040001N1+00761+00631101741ADDAA199000091AY101031AY201031GA1011+005409059GF101991011041004501001001MA1999999092661MD1999999-0091MW1051REMSYN082AAXX  07214 42623 31496 10000 10076 20063 39266 40174 70500 81400 333 59009 81618;EQDQ01  00002PRCP99
0217426230999992000120800004+24760+093890FM-12+0781VEIM V0209999C000012200019N0010001N1+00501+00411102021ADDAA199000091AY141061AY201061GA1011+005409059GF101991011041004501001001MA1999999092831MD1999999+0051MW1101REMSYN082AAXX  08004 42623 31494 10000 10050 20041 39283 40202 71040 81400 333 58005 81618;EQDQ01  00002PRCP99
0217426230999992000121006004+24760+093890FM-12+0781VEIM V0209999C000012200019N0040001N1+01941+01011101301ADDAA199000091AY141061AY201061GA1011+006009059GF101991011051008001001001MA1999999092611MD1999999+0071MW1051REMSYN082AAXX  10064 42623 31596 10000 10194 20101 39261 40130 70540 81500 333 58007 81620;EQDQ01  00002PRCP99
0236426230999992000121012004+24760+093890FM-12+0781VEIM V0209999C000012200019N0040001N1+01601+01031101351ADDAA199000091AY101061AY201061GA1021+005409059GF102991021051004501001001KA1120M+02321MA1999999092551MD1999999+0211MW1051REMSYN088AAXX  10124 42623 31496 20000 10160 20103 39255 40135 70500 82500 333 10232 58021 82618;EQDQ01  00002PRCP99
0217426230999992000121018004+24760+093890FM-12+0781VEIM V0209999C000012200019N0020001N1+01001+00841101731ADDAA199000091AY101061AY201061GA1011+005409059GF101991011051004501001001MA1999999092711MD1999999+0141MW1051REMSYN082AAXX  10184 42623 31495 10000 10100 20084 39271 40173 70500 81500 333 58014 81618;EQDQ01  00002PRCP99
0217426230999992000121306004+24760+093890FM-12+0781VEIM V0209999C000012200019N0040001N1+01701+01021101321ADDAA199000091AY141061AY201061GA1011+005409059GF101991011051004501001001MA1999999092551MD1999999-0181MW1051REMSYN082AAXX  13064 42623 31496 10000 10170 20102 39255 40132 70540 81500 333 59018 81618;EQDQ01  00002PRCP99
0217426230999992000121400004+24760+093890FM-12+0781VEIM V0209999C000012200019N0005001N1+00461+00361101681ADDAA199000091AY141061AY221061GA1031+001809069GF103991031061001501001001MA1999999092521MD1999999-0121MW1461REMSYN082AAXX  14004 42623 31293 30000 10046 20036 39252 40168 74642 83600 333 59012 83706;EQDQ01  00002PRCP99
0236426230999992000121503004+24760+093890FM-12+0781VEIM V0209999C000012200019N0020001N1+01341+00771101721ADDAA199000091AY141031AY221031GA1011+002409069GF102991021061002501001001KA1120N+00351MA1999999092831MD1999999+0121MW1051REMSYN088AAXX  15034 42623 31395 20000 10134 20077 39283 40172 70542 82600 333 20035 58012 81708;EQDQ01  00002PRCP99
0217426230999992000121515004+24760+093890FM-12+0781VEIM V0209999C000012200019N0040001N1+01061+00861101771ADDAA199000091AY101031AY201031GA1011+005409059GF101991011041004501001001MA1999999092781MD1999999+0151MW1051REMSYN082AAXX  15154 42623 31496 10000 10106 20086 39278 40177 70500 81400 333 58015 81618;EQDQ01  00002PRCP99
0217426230999992000121521004+24760+093890FM-12+0781VEIM V0209999C000012200019N0040001N1+00541+00401101981ADDAA199000091AY101031AY201031GA1011+005409059GF101991011041004501001001MA1999999092821MD1999999+0181MW1051REMSYN082AAXX  15214 42623 31496 10000 10054 20040 39282 40198 70500 81400 333 58018 81618;EQDQ01  00002PRCP99
0217426230999992000121600004+24760+093890FM-12+0781VEIM V0209999C000012200019N0010001N1+00501+00451102141ADDAA199000091AY141061AY201061GA1011+004809059GF101991011041004501001001MA1999999092941MD1999999+0271MW1101REMSYN082AAXX  16004 42623 31494 10000 10050 20045 39294 40214 71040 81400 333 58027 81616;EQDQ01  00002PRCP99
0217426230999992000121606004+24760+093890FM-12+0781VEIM V0209999C000012200019N0040001N1+02041+00911101511ADDAA199000091AY101061AY201061GA1011+006009059GF101991011051008001001001MA1999999092841MD1999999+0231MW1051REMSYN082AAXX  16064 42623 31596 10000 10204 20091 39284 40151 70500 81500 333 58023 81620;EQDQ01  00002PRCP99
0217426230999992000121618004+24760+093890FM-12+0781VEIM V0209999C000012200019N0040001N1+00881+00711102051ADDAA199000091AY101061AY201061GA1011+005409059GF101991011051004501001001MA1999999092971MD1999999+0101MW1051REMSYN082AAXX  16184 42623 31496 10000 10088 20071 39297 40205 70500 81500 333 58010 81618;EQDQ01  00002PRCP99
0217426230999992000121621004+24760+093890FM-12+0781VEIM V0209999C000012200019N0020001N1+00641+00501102071ADDAA199000091AY101031AY201031GA1011+005409059GF101991011051004501001001MA1999999092931MD1999999+0111MW1051REMSYN082AAXX  16214 42623 31495 10000 10064 20050 39293 40207 70500 81500 333 58011 81618;EQDQ01  00002PRCP99
0189426230999992000121709004+24760+093890FM-12+0781VEIM V0209999C000012200019N0040001N1+02281+00641101141ADDAA199000091GA1011+006009059GF101991011051008001021001MA1999999092551MD1999999-0141REMSYN076AAXX  17094 42623 32596 10000 10228 20064 39255 40114 81520 333 59014 81620;EQDQ01  00002PRCP99
0214426230999992000121712004+24760+093890FM-12+0781VEIM V0209999C000012200019N0040001N1+01521+00761101411ADDAA199000091GA1011+006009069GF103991011051008001001011KA1120M+02331MA1999999092601MD1999999-0211REMSYN088AAXX  17124 42623 32596 30000 10152 20076 39260 40141 81501 333 10233 59021 81620 83070;EQDQ01  00002PRCP99
0217426230999992000121721004+24760+093890FM-12+0781VEIM V0209999C000012200019N0040001N1+00661+00571101811ADDAA199000091AY121031AY221031GA1011+005409059GF101991011051004501001001MA1999999092701MD1999999-0231MW1051REMSYN082AAXX  17214 42623 31496 10000 10066 20057 39270 40181 70522 81500 333 59023 81618;EQDQ01  00002PRCP99
0223426230999992000121800004+24760+093890FM-12+0781VEIM V0209999C000012200019N0010001N1+00441+00341101871ADDAA199000091AY121061AY221061GA1011+005409069GF103991011051004501031001MA1999999092701MD1999999-0161MW1101REMSYN088AAXX  18004 42623 31494 30000 10044 20034 39270 40187 71022 81530 333 59016 81618 83360;EQDQ01  00002PRCP99
0217426230999992000121915004+24760+093890FM-12+0781VEIM V0209999C000012200019N0040001N1+01161+01001101451ADDAA199000091AY101031AY201031GA1011+005409059GF101991011051004501001001MA1999999092521MD1999999-0031MW1051REMSYN082AAXX  19154 42623 31496 10000 10116 20100 39252 40145 70500 81500 333 59003 81618;EQDQ01  00002PRCP99
0217426230999992000121921004+24760+093890FM-12+0781VEIM V0209999C000012200019N0020001N1+00681+00591101671ADDAA199000091AY101031AY201031GA1011+005409059GF101991011051004501001001MA1999999092571MD1999999+0021MW1051REMSYN082AAXX  19214 42623 31495 10000 10068 20059 39257 40167 70500 81500 333 58002 81618;EQDQ01  00002PRCP99
0183426230999992000122100004+24760+093890FM-12+0781VEIM V0209999C000010001519N0001001N1+00541+00451101921ADDAA199000091GA1091+999999999GF109991091999999999999999MA1999999092771MD1999999+0121REMSYN070AAXX  21004 42623 31/91 90000 10054 20045 39277 40192 84744 333 58012;EQDQ01  00002PRCP99
0224426230999992000122103004+24760+093890FM-12+0781VEIM V0209999C000010003019N0002001N1+01001+00881102041ADDAA199000091AY141031AY241031GA1091+999999999GF109991091999999999999999KA1120N+00491MA1999999093001MD1999999+0071MW1431REMSYN076AAXX  21034 42623 31/92 90000 10100 20088 39300 40204 74344 333 20049 58007;EQDQ01  00002PRCP99
0217426230999992000122121004+24760+093890FM-12+0781VEIM V0209999C000012200019N0040001N1+00741+00561101801ADDAA199000091AY101031AY201031GA1011+005409059GF101991011041004501001001MA1999999092721MD1999999-0031MW1051REMSYN082AAXX  21214 42623 31496 10000 10074 20056 39272 40180 70500 81400 333 59003 81618;EQDQ01  00002PRCP99
0205426230999992000122200004+24760+093890FM-12+0781VEIM V0209999C000010001519N0001001N1+00501+00451102021ADDAA199000091AY141061AY221061GA1091+999999999GF109991091999999999999999MA1999999092831MD1999999+0061MW1471REMSYN070AAXX  22004 42623 31/91 90000 10050 20045 39283 40202 74742 333 58006;EQDQ01  00002PRCP99
0196426230999992000122312004+24760+093890FM-12+0781VEIM V0209999C000012200019N0040001N1+01581+01001101451ADDAA199000091GA1001+999999999GF100991001001999999001001KA1120M+02391MA1999999092641MD1999999+0091REMSYN070AAXX  23124 42623 32996 00000 10158 20100 39264 40145 333 10239 58009;EQDQ01  00002PRCP99
0205426230999992000122315004+24760+093890FM-12+0781VEIM V0209999C000012200019N0040001N1+01041+00921101831ADDAA199000091AY101031AY201031GA1001+999999999GF100991001001999999001001MA1999999092841MD1999999+0071MW1051REMSYN070AAXX  23154 42623 31996 00000 10104 20092 39284 40183 70500 333 58007;EQDQ01  00002PRCP99
0217426230999992000122321004+24760+093890FM-12+0781VEIM V0209999C000012200019N0040001N1+00641+00551101891ADDAA199000091AY101031AY201031GA1011+005409059GF101991011041004501001001MA1999999092761MD1999999+0011MW1051REMSYN082AAXX  23214 42623 31496 10000 10064 20055 39276 40189 70500 81400 333 58001 81618;EQDQ01  00002PRCP99
0205426230999992000122400004+24760+093890FM-12+0781VEIM V0209999C000010001519N0001001N1+00521+00491101951ADDAA199000091AY141061AY221061GA1091+999999999GF109991091999999999999999MA1999999092791MD1999999-0021MW1471REMSYN070AAXX  24004 42623 31/91 90000 10052 20049 39279 40195 74742 333 59002;EQDQ01  00002PRCP99
0236426230999992000122403004+24760+093890FM-12+0781VEIM V0209999C000012200019N0020001N1+01241+00791102001ADDAA199000091AY141031AY241031GA1021+002409069GF102991021071002501001001KA1120N+00291MA1999999093051MD1999999-0021MW1101REMSYN088AAXX  24034 42623 31395 20000 10124 20079 39305 40200 71044 82700 333 20029 59002 82708;EQDQ01  00002PRCP99
0205426230999992000122406004+24760+093890FM-12+0781VEIM V0209999C000012200019N0040001N1+01981+00781101481ADDAA199000091AY141061AY201061GA1001+999999999GF100991001001999999001001MA1999999092781MD1999999-0011MW1051REMSYN070AAXX  24064 42623 31996 00000 10198 20078 39278 40148 70540 333 59001;EQDQ01  00002PRCP99
0177426230999992000122409004+24760+093890FM-12+0781VEIM V0202001N001512200019N0040001N1+02301+00881101101ADDAA199000091GA1001+999999999GF100991001001999999001001MA1999999092511MD1999999-0041REMSYN064AAXX  24094 42623 32996 02003 10230 20088 39251 40110 333 59004;EQDQ01  00002PRCP99
0234426230999992000122503004+24760+093890FM-12+0781VEIM V0209999C000012200019N0020001N1+01141+00731101971ADDAA199000091AY141031AY201031GA1001+999999999GF100991001001999999001001KA1120N+00321MA1999999092991MD1999999-0061MW1101REMSYN086AAXX  25034 42623 31995 00000 10114 20073 39299 40197 71040 333 20032 59006 555 10215;EQDQ01  00002PRCP99
0205426230999992000122515004+24760+093890FM-12+0781VEIM V0209999C000012200019N0040001N1+01001+00751101701ADDAA199000091AY101031AY201031GA1001+999999999GF100991001001999999001001MA1999999092691MD1999999+0011MW1051REMSYN070AAXX  25154 42623 31996 00000 10100 20075 39269 40170 70500 333 58001;EQDQ01  00002PRCP99
0217426230999992000122518004+24760+093890FM-12+0781VEIM V0209999C000012200019N0040001N1+00921+00751101731ADDAA199000091AY101061AY201061GA1011+005409059GF101991011041004501001001MA1999999092711MD1999999+0011MW1051REMSYN082AAXX  25184 42623 31496 10000 10092 20075 39271 40173 70500 81400 333 58001 81618;EQDQ01  00002PRCP99
0217426230999992000122600004+24760+093890FM-12+0781VEIM V0209999C000012200019N0010001N1+00341+00291102031ADDAA199000091AY121061AY221061GA1021+002409069GF102991021061002501001001MA1999999092801MD1999999+0041MW1101REMSYN082AAXX  26004 42623 31394 20000 10034 20029 39280 40203 71022 82600 333 58004 82708;EQDQ01  00002PRCP99
0189426230999992000122709004+24760+093890FM-12+0781VEIM V0209999C000012200019N0040001N1+02201+00891101161ADDAA199000091GA1031+006009059GF103991031051008001001001MA1999999092541MD1999999-0011REMSYN076AAXX  27094 42623 32596 30000 10220 20089 39254 40116 83500 333 59001 83620;EQDQ01  00002PRCP99
0217426230999992000122721004+24760+093890FM-12+0781VEIM V0209999C000012200019N0040001N1+00761+00671101881ADDAA199000091AY101031AY201031GA1011+005409059GF101991011041004501001001MA1999999092791MD1999999-0011MW1051REMSYN082AAXX  27214 42623 31496 10000 10076 20067 39279 40188 70500 81400 333 59001 81618;EQDQ01  00002PRCP99
0217426230999992000122821004+24760+093890FM-12+0781VEIM V0209999C000012200019N0020001N1+00781+00691101651ADDAA199000091AY101031AY201031GA1021+005409059GF102991021051004501001001MA1999999092571MD1999999-0221MW1051REMSYN082AAXX  28214 42623 31495 20000 10078 20069 39257 40165 70500 82500 333 59022 82618;EQDQ01  00002PRCP99
0223426230999992000122900004+24760+093890FM-12+0781VEIM V0209999C000012200019N0020001N1+00761+00671101671ADDAA199000091AY121061AY221061GA1021+005409069GF104991021051004501031001MA1999999092601MD1999999-0291MW1101REMSYN088AAXX  29004 42623 31495 40000 10076 20067 39260 40167 71022 82530 333 59029 82618 83360;EQDQ01  00002PRCP99
0217426230999992000122906004+24760+093890FM-12+0781VEIM V0209999C000012200019N0040001N1+02101+00751101281ADDAA199000091AY141061AY201061GA1021+006009059GF102991021051008001031001MA1999999092621MD1999999-0201MW1051REMSYN082AAXX  29064 42623 31596 20000 10210 20075 39262 40128 70540 82530 333 59020 82620;EQDQ01  00002PRCP99
0181426230999992000123006004+24760+093890FM-12+0781VEIM V0209999C000012200019N0040001N1+02101+00851101321ADDAA199000091AY141061AY201061GF103991021051008001031001MA1999999092651MW1031REMSYN076AAXX  30064 42623 32596 30000 10210 20085 39265 40132 70340 82530 333 58///;EQDQ01  00002PRCP99
