0137475170999992000010103004+41230+141150FM-15+001099999V0202601N002112200019N0112651N1+00301-00601999999ADDGA1021+009009999GF104991999999999999999999MA1102001999999MW1001REMMET06247517 0300Z 26004KT 9999 SCT030 03/M06 Q1020 RMK 4CU030 A3014;
0137475170999992000010106004+41230+141150FM-15+001099999V0202001N001010090019N0112651N1+00201-00401999999ADDGA1071+009009999GF107991999999999999999999MA1102001999999MW1001REMMET06247517 0600Z 20002KT 9999 BKN030 02/M04 Q1020 RMK 6CU030 A3015;
0209475170999992000010200004+41230+141150FM-15+001099999V0203401N002110090019N0112651N1+00001-00601999999ADDGA1021+006009999GA2071+009009999GF107991999999999999999999MA1102201999999MW1851REMMET08347517 0000Z 34004KT 9999 -SHSN SCT020 BKN030 M00/M06 Q1022 RMK 3CU020 5CU030 A3019;EQDQ01+000003PRSWM1Q02    003PRSWM1
0156475170999992000010203004+41230+141150FM-15+001099999V0200701N002112200019N0112651N1+00301-00701999999ADDGA1021+009009999GF104991999999999999999999MA1102001999999MW1001REMMET06247517 0300Z 07004KT 9999 SCT030 03/M07 Q1020 RMK 4CU030 A3015;EQDQ01+000000PRSWM2
0156475170999992000010206004+41230+141150FM-15+001099999V0200901N001510090019N0112651N1+00201-00501999999ADDGA1071+009009999GF107991999999999999999999MA1101901999999MW1001REMMET06247517 0600Z 09003KT 9999 BKN030 02/M05 Q1019 RMK 6CU030 A3012;EQDQ01+000000PRSWM2
0247475170999992000010303004+41230+141150FM-15+001099999V0203301N001510045019N0049001N1+00301+00201999999ADDGA1021+001509999GA2071+004509999GA3081+006009999GF108991999999999999999999MA1100611999999MW1611MW2711REMMET09947517 0300Z COR 33003KT 4900 -RASN FEW005 BKN015 OVC020 03/02 Q1006 RMK 2ST005 5ST015 8SC020 A2973;EQDQ01+000003PRSWM1Q02    003PRSWM1
0245475170999992000010306004+41230+141150FM-15+001099999V0203501N001510045019N0030001N1+00101+00101999999ADDGA1021+001509999GA2071+004509999GA3071+006009999GF107991999999999999999999MA1100611999999MW1801MW2851REMMET09747517 0600Z 35003KT 3000 -SHSNRA FEW005 BKN015 BKN020 01/01 Q1006 RMK 2ST005 5ST015 7CU020 A2971;EQDQ01+000003PRSWM1Q02    003PRSWM1
0243475170999992000010400004+41230+141150FM-15+001099999V0200301N002110030019N0060001N1+00101+00101999999ADDGA1021+001509999GA2071+003009999GA3081+007509999GF108991999999999999999999MA1101291999999MW1611MW2711REMMET09547517 0000Z 03004KT 6000 -RASN FEW005 BKN010 OVC025 01/01 Q1013 RMK 2ST005 6ST010 8SC025 A2994;EQDQ01+000003PRSWM1Q02    003PRSWM1
0245475170999992000010403004+41230+141150FM-15+001099999V0200101N002110030019N0060001N1+00101+00101999999ADDGA1021+001509999GA2071+003009999GA3081+006009999GF108991999999999999999999MA1101291999999MW1801MW2851REMMET09747517 0300Z 01004KT 6000 -SHRASN FEW005 BKN010 OVC020 01/01 Q1013 RMK 2ST005 5ST010 8CU020 A2992;EQDQ01+000003PRSWM1Q02    003PRSWM1
0245475170999992000010406004+41230+141150FM-15+001099999V0200101N003610030019N0070001N1+00201+00101999999ADDGA1021+001509999GA2071+003009999GA3081+007509999GF108991999999999999999999MA1101291999999MW1801MW2851REMMET09747517 0600Z 01007KT 7000 -SHRASN FEW005 BKN010 OVC025 02/01 Q1013 RMK 1ST005 5ST010 8CU025 A2994;EQDQ01+000003PRSWM1Q02    003PRSWM1
0156475170999992000010500004+41230+141150FM-15+001099999V0202901N000512200019N0112651N1+00201-00301999999ADDGA1021+009009999GF102991999999999999999999MA1102401999999MW1001REMMET06247517 0000Z 29001KT 9999 FEW030 02/M03 Q1024 RMK 1CU030 A3027;EQDQ01+000000PRSWM2
0156475170999992000010503004+41230+141150FM-15+001099999V0203301N002112200019N0112651N1+00401-00301999999ADDGA1021+009009999GF102991999999999999999999MA1102401999999MW1001REMMET06247517 0300Z 33004KT 9999 FEW030 04/M03 Q1024 RMK 2CU030 A3026;EQDQ01+000000PRSWM2
0156475170999992000010506004+41230+141150FM-15+001099999V0203401N001010090019N0112651N1+00301-00101999999ADDGA1071+009009999GF107991999999999999999999MA1102401999999MW1001REMMET06247517 0600Z 34002KT 9999 BKN030 03/M01 Q1024 RMK 5CU030 A3025;EQDQ01+000000PRSWM2
0185475170999992000010603004+41230+141150FM-15+001099999V0201101N003610090019N0112651N1+00401+00001999999ADDGA1021+006009999GA2071+009009999GF107991999999999999999999MA1102201999999MW1001REMMET07547517 0300Z 11007KT 9999 SCT020 BKN030 04/00 Q1022 RMK 3CU020 7SC030 A3020;EQDQ01+000000PRSWM2
0235475170999992000010700004+41230+141150FM-15+001099999V0202601N001010090019N0112651N1+00601+00601999999ADDGA1021+003009999GA2071+009009999GA3081+024009999GF108991999999999999999999MA1100611999999MW1611REMMET09347517 0000Z 26002KT 9999 -RA FEW010 BKN030 OVC080 06/06 Q1006 RMK 1ST010 6SC030 8AS080 A2971;EQDQ01+000003PRSWM1Q02    003PRSWM1
0185475170999992000010703004+41230+141150FM-15+001099999V0202401N004610060019N0112651N1+00501+00201999999ADDGA1071+006009999GA2081+009009999GF108991999999999999999999MA1100711999999MW1001REMMET07547517 0300Z 24009KT 9999 BKN020 OVC030 05/02 Q1007 RMK 5CU020 8CU030 A2974;EQDQ01+000000PRSWM2
0238475170999992000010706004+41230+141150FM-15+001099999V0202501N004110090019N0112651N1+00301-00101999999ADDGA1021+006009999GA2071+009009999GA3071+024009999GF107991999999999999999999MA1100911999999MW1851REMMET09647517 0600Z 25008KT 9999 -SHSN FEW020 BKN030 BKN080 03/M01 Q1009 RMK 2CU020 6CU030 7AC080 A2980;EQDQ01+000003PRSWM1Q02    003PRSWM1
0243475170999992000010803004+41230+141150FM-15+001099999V0203001N001010045019N0025001N1-00101-00101999999ADDGA1021+003009999GA2071+004509999GA3071+007509999GF107991999999999999999999MA1101391999999MW1851REMMET10147517 0300Z COR 30002KT 2500 -SHSN SCT010 BKN015 BKN025 M01/M01 Q1014 RMK 3ST010 5CU015 7CU025 A2995;EQDQ01+000003PRSWM1Q02    003PRSWM1
0238475170999992000010806004+41230+141150FM-15+001099999V0202101N002110045019N0040001N1+00001+00001999999ADDGA1021+003009999GA2071+004509999GA3071+007509999GF107991999999999999999999MA1101391999999MW1851REMMET09647517 0600Z 21004KT 4000 -SHSN FEW010 BKN015 BKN025 00/M00 Q1014 RMK 2ST010 5CU015 7CU025 A2995;EQDQ01+000003PRSWM1Q02    003PRSWM1
0187475170999992000010900004+41230+141150FM-15+001099999V0201501N000510075019N0112651N1-00101-00101999999ADDGA1021+003009999GA2071+007509999GF107991999999999999999999MA1102201999999MW1001REMMET07747517 0000Z 15001KT 9999 FEW010 BKN025 M01/M01 Q1022 RMK 1ST010 6CU025 A3019;EQDQ01+000000PRSWM2
0156475170999992000010903004+41230+141150FM-15+001099999V0202201N002610090019N0112651N1+00301-00201999999ADDGA1071+009009999GF107991999999999999999999MA1102101999999MW1001REMMET06247517 0300Z 22005KT 9999 BKN030 03/M02 Q1021 RMK 7CU030 A3017;EQDQ01+000000PRSWM2
0205475170999992000011000004+41230+141150FM-15+001099999V0202801N001010045019N0060001N1+00301+00201999999ADDGA1071+004509999GA2081+009009999GF108991999999999999999999MA1101021999999MW1611REMMET07947517 0000Z 28002KT 6000 -RA BKN015 OVC030 03/02 Q1010 RMK 5ST015 8SC030 A2985;EQDQ01+000003PRSWM1Q02    003PRSWM1
0210475170999992000011003004+41230+141150FM-15+001099999V0202401N002110090019N0090001N1+00401+00301999999ADDGA1021+004509999GA2081+009009999GF108991999999999999999999MA1100511999999MW1611REMMET08447517 0300Z 24004KT 9000 -RA SCT015 OVC030 04/03 Q1005 RMK 4ST015 8SC030 A2969 P/FR;EQDQ01+000003PRSWM1Q02    003PRSWM1
0207475170999992000011006004+41230+141150FM-15+001099999V0201501N000510090019N0112651N1+00401+00301999999ADDGA1021+004509999GA2071+009009999GF107991999999999999999999MA1100311999999MW1801REMMET08147517 0600Z 15001KT 9999 -SHRA FEW015 BKN030 04/03 Q1003 RMK 2ST015 7CU030 A2962;EQDQ01+000003PRSWM1Q02    003PRSWM1
0209475170999992000011100004+41230+141150FM-15+001099999V0202601N004610060019N0070001N1-00201-00801999999ADDGA1021+002409999GA2071+006009999GF107991999999999999999999MA1101391999999MW1851REMMET08347517 0000Z 26009KT 7000 -SHSN SCT008 BKN020 M02/M08 Q1014 RMK 3CU008 7CU020 A2997;EQDQ01+000003PRSWM1Q02    003PRSWM1
0209475170999992000011103004+41230+141150FM-15+001099999V0202801N003610075019N0112651N1-00201-01001999999ADDGA1021+004509999GA2071+007509999GF107991999999999999999999MA1101491999999MW1851REMMET08347517 0300Z 28007KT 9999 -SHSN FEW015 BKN025 M02/M10 Q1015 RMK 2CU015 7CU025 A2999;EQDQ01+000003PRSWM1Q02    003PRSWM1
0209475170999992000011106004+41230+141150FM-15+001099999V0202101N001510030019N0030001N1-00301-00601999999ADDGA1071+003009999GA2071+006009999GF107991999999999999999999MA1101691999999MW1851REMMET08347517 0600Z 21003KT 3000 -SHSN BKN010 BKN020 M03/M06 Q1017 RMK 5CU010 7CU020 A3004;EQDQ01+000003PRSWM1Q02    003PRSWM1
0209475170999992000011200004+41230+141150FM-15+001099999V0203101N002110075019N0112651N1-00201-01001999999ADDGA1021+004509999GA2071+007509999GF107991999999999999999999MA1102611999999MW1851REMMET08347517 0000Z 31004KT 9999 -SHSN FEW015 BKN025 M02/M10 Q1026 RMK 2CU015 6CU025 A3031;EQDQ01+000003PRSWM1Q02    003PRSWM1
0187475170999992000011203004+41230+141150FM-15+001099999V0201601N001510090019N0112651N1-00101-00701999999ADDGA1021+004509999GA2071+009009999GF107991999999999999999999MA1102511999999MW1001REMMET07747517 0300Z 16003KT 9999 FEW015 BKN030 M01/M07 Q1025 RMK 2CU015 5CU030 A3029;EQDQ01+000000PRSWM2
0186475170999992000011206004+41230+141150FM-15+001099999V0203201N001510090019N0112651N1+00001-00801999999ADDGA1021+006009999GA2071+009009999GF107991999999999999999999MA1102511999999MW1001REMMET07647517 0600Z 32003KT 9999 FEW020 BKN030 00/M08 Q1025 RMK 1CU020 5CU030 A3029;EQDQ01+000000PRSWM2
0207475170999992000011400004+41230+141150FM-15+001099999V0209999C000010090019N0080001N1+00401+00301999999ADDGA1071+009009999GA2071+024009999GF107991999999999999999999MA1100311999999MW1801REMMET08147517 0000Z 00000KT 8000 -SHRA BKN030 BKN080 04/03 Q1003 RMK 5CU030 7AC080 A2963;EQDQ01+000003PRSWM1Q02    003PRSWM1
0207475170999992000011403004+41230+141150FM-15+001099999V0200801N001010045019N0060001N1+00501+00401999999ADDGA1071+004509999GA2071+007509999GF107991999999999999999999MA1100201999999MW1801REMMET08147517 0300Z 08002KT 6000 -SHRA BKN015 BKN025 05/04 Q1002 RMK 5CU015 7CU025 A2961;EQDQ01+000003PRSWM1Q02    003PRSWM1
0207475170999992000011406004+41230+141150FM-15+001099999V0201601N001010075019N0112651N1+00501+00401999999ADDGA1021+004509999GA2071+007509999GF107991999999999999999999MA1100411999999MW1801REMMET08147517 0600Z 16002KT 9999 -SHRA SCT015 BKN025 05/04 Q1004 RMK 4CU015 7CU025 A2968;EQDQ01+000003PRSWM1Q02    003PRSWM1
0179475170999992000011500004+41230+141150FM-15+001099999V0200501N001010600019N0112651N1+00301-00601999999ADDGA1021+009009999GA2071+060009999GF107991999999999999999999MA1101901999999MW1001REMMET06947517 0000Z 05002KT 9999 FEW030 BKN200 03/M06 Q1019 RMK 1CU030 A3011;EQDQ01+000000PRSWM2
0209475170999992000011503004+41230+141150FM-15+001099999V0200201N001510090019N0112651N1+00401-00501999999ADDGA1071+009009999GA2021+030009999GA3071+060009999GF107991999999999999999999MA1102001999999MW1001REMMET08347517 0300Z 02003KT 9999 BKN030 SCT100 BKN200 04/M05 Q1020 RMK 5CU030 4AC100 A3013;EQDQ01+000000PRSWM2
0186475170999992000011506004+41230+141150FM-15+001099999V0200501N001510090019N0112651N1+00401-00601999999ADDGA1071+009009999GA2071+030009999GF107991999999999999999999MA1102001999999MW1001REMMET07647517 0600Z 05003KT 9999 BKN030 BKN100 04/M06 Q1020 RMK 5CU030 5AC100 A3014;EQDQ01+000000PRSWM2
0180475170999992000011600004+41230+141150FM-15+001099999V0200901N000512200019N0112651N1+00001-00301999999ADDGA1021+009009999GA2021+060009999GF104991999999999999999999MA1102301999999MW1001REMMET07047517 0000Z 09001KT 9999 FEW030 SCT200 M00/M03 Q1023 RMK 1CU030 A3022;EQDQ01+000000PRSWM2
0209475170999992000011603004+41230+141150FM-15+001099999V0202201N001510240019N0112651N1+00301-00501999999ADDGA1021+009009999GA2071+024009999GA3071+060009999GF107991999999999999999999MA1102101999999MW1001REMMET08347517 0300Z 22003KT 9999 FEW030 BKN080 BKN200 03/M05 Q1021 RMK 1CU030 5AC080 A3015;EQDQ01+000000PRSWM2
0179475170999992000011606004+41230+141150FM-15+001099999V0202301N000510600019N0112651N1+00401-00401999999ADDGA1021+024009999GA2071+060009999GF107991999999999999999999MA1101801999999MW1001REMMET06947517 0600Z 23001KT 9999 SCT080 BKN200 04/M04 Q1018 RMK 3AC080 A3008;EQDQ01+000000PRSWM2
0169475170999992000011700004+41230+141150FM-15+001099999V0202601N00211000151CN0006001N1+00101-00101999999ADDGA1091+000159999GF109991999999000251999999MA1101591999999MW1861REMMET05947517 0000Z 26004KT 0600 SHSN VV008 01/M01 Q1016 RMK A3001;EQDQ01+000003PRSWM1Q02    003PRSWM1
0156475170999992000011703004+41230+141150FM-15+001099999V0202601N003110090019N0112651N1+00201-00301999999ADDGA1071+009009999GF107991999999999999999999MA1101491999999MW1001REMMET06247517 0300Z 26006KT 9999 BKN030 02/M03 Q1015 RMK 7CU030 A3000;EQDQ01+000000PRSWM2
0156475170999992000011706004+41230+141150FM-15+001099999V0202501N003110090019N0112651N1+00201-00501999999ADDGA1071+009009999GF107991999999999999999999MA1101391999999MW1001REMMET06247517 0600Z 25006KT 9999 BKN030 02/M05 Q1014 RMK 7CU030 A2997;EQDQ01+000000PRSWM2
0156475170999992000011800004+41230+141150FM-15+001099999V0201901N001510090019N0112651N1+00001-00501999999ADDGA1071+009009999GF107991999999999999999999MA1101491999999MW1001REMMET06247517 0000Z 19003KT 9999 BKN030 00/M05 Q1015 RMK 6CU030 A2998;EQDQ01+000000PRSWM2
0156475170999992000011803004+41230+141150FM-15+001099999V0201701N003112200019N0112651N1+00301-00301999999ADDGA1021+009009999GF104991999999999999999999MA1101291999999MW1001REMMET06247517 0300Z 17006KT 9999 SCT030 03/M03 Q1013 RMK 3CU030 A2992;EQDQ01+000000PRSWM2
0208475170999992000011806004+41230+141150FM-15+001099999V0202001N001510090019N0112651N1+00201+00001999999ADDGA1021+004509999GA2071+009009999GF107991999999999999999999MA1101191999999MW1851REMMET08247517 0600Z 20003KT 9999 -SHSN SCT015 BKN030 02/M00 Q1012 RMK 3CU015 7CU030 A2991;EQDQ01+000003PRSWM1Q02    003PRSWM1
0237475170999992000011900004+41230+141150FM-15+001099999V0202501N003110045019N0112651N1+00101+00001999999ADDGA1021+003009999GA2071+004509999GA3071+007509999GF107991999999999999999999MA1101391999999MW1851REMMET09547517 0000Z 25006KT 9999 -SHSN FEW010 BKN015 BKN025 01/00 Q1014 RMK 1ST010 5ST015 7CU025 A2995;EQDQ01+000003PRSWM1Q02    003PRSWM1
0237475170999992000011903004+41230+141150FM-15+001099999V0202701N001510045019N0020001N1+00201+00001999999ADDGA1021+003009999GA2071+004509999GA3071+007509999GF107991999999999999999999MA1101291999999MW1851REMMET09547517 0300Z 27003KT 2000 -SHSN FEW010 BKN015 BKN025 02/00 Q1013 RMK 2ST010 6ST015 7CU025 A2993;EQDQ01+000003PRSWM1Q02    003PRSWM1
0209475170999992000011906004+41230+141150FM-15+001099999V0202401N002610240019N0112651N1+00301-00101999999ADDGA1021+007509999GA2071+024009999GA3071+060009999GF107991999999999999999999MA1101191999999MW1001REMMET08347517 0600Z 24005KT 9999 FEW025 BKN080 BKN200 03/M01 Q1012 RMK 1CU025 5AC080 A2989;EQDQ01+000000PRSWM2
0207475170999992000012000004+41230+141150FM-15+001099999V0200401N004110045019N0040001N1+00201+00101999999ADDGA1071+004509999GA2071+007509999GF107991999999999999999999MA1100411999999MW1851REMMET08147517 0000Z 04008KT 4000 -SHSN BKN015 BKN025 02/01 Q1004 RMK 5CU015 7CU025 A2967;EQDQ01+000003PRSWM1Q02    003PRSWM1
0207475170999992000012003004+41230+141150FM-15+001099999V0200401N004610045019N0060001N1+00101+00101999999ADDGA1071+004509999GA2071+007509999GF107991999999999999999999MA1100311999999MW1851REMMET08147517 0300Z 04009KT 6000 -SHSN BKN015 BKN025 01/01 Q1003 RMK 5CU015 7CU025 A2963;EQDQ01+000003PRSWM1Q02    003PRSWM1
0216475170999992000012006004+41230+141150FM-15+001099999V0202701N002110300019N0112651N1+00301-00101999999ADDGA1021+004509999GA2021+013509999GA3071+030009999GF107991999999999999999999MA1100411999999MW1001REMMET09047517 0600Z 27004KT 9999 SCT015 SCT045 BKN100 03/M01 Q1004 RMK 3CU015 3SC045 7AC100 A2966;EQDQ01+000000PRSWM2
0186475170999992000012103004+41230+141150FM-15+001099999V0203501N003112200019N0112651N1+00101-00701999999ADDGA1021+004509999GA2021+009009999GF104991999999999999999999MA1101391999999MW1001REMMET07647517 0300Z 35006KT 9999 FEW015 SCT030 01/M07 Q1014 RMK 1CU015 3CU030 A2994;EQDQ01+000000PRSWM2
0209475170999992000012106004+41230+141150FM-15+001099999V0203401N005110090019N0112651N1-00101-00701999999ADDGA1021+004509999GA2071+009009999GF107991999999999999999999MA1101591999999MW1851REMMET08347517 0600Z 34010KT 9999 -SHSN FEW015 BKN030 M01/M07 Q1016 RMK 2CU015 5CU030 A3001;EQDQ01+000003PRSWM1Q02    003PRSWM1
0157475170999992000012200004+41230+141150FM-15+001099999V0201701N001010090019N0112651N1-00201-00701999999ADDGA1071+009009999GF107991999999999999999999MA1102811999999MW1001REMMET06347517 0000Z 17002KT 9999 BKN030 M02/M07 Q1028 RMK 6CU030 A3036;EQDQ01+000000PRSWM2
0179475170999992000012203004+41230+141150FM-15+001099999V0202601N004610075019N0112651N1-00101-00501999999ADDGA1071+007509999GF107991999999999999999999MA1102611999999MW1851REMMET06947517 0300Z 26009KT 9999 -SHSN BKN025 M01/M05 Q1026 RMK 6CU025 A3032;EQDQ01+000003PRSWM1Q02    003PRSWM1
0209475170999992000012206004+41230+141150FM-15+001099999V0202201N003110060019N0020001N1+00001-00401999999ADDGA1021+003009999GA2071+006009999GF107991999999999999999999MA1102611999999MW1851REMMET08347517 0600Z 22006KT 2000 -SHSN SCT010 BKN020 M00/M04 Q1026 RMK 3ST010 7CU020 A3030;EQDQ01+000003PRSWM1Q02    003PRSWM1
0216475170999992000012300004+41230+141150FM-15+001099999V0202101N003610075019N0112651N1+00201-00101999999ADDGA1021+004509999GA2071+007509999GA3071+030009999GF107991999999999999999999MA1101801999999MW1001REMMET09047517 0000Z 21007KT 9999 FEW015 BKN025 BKN100 02/M01 Q1018 RMK 2CU015 5CU025 6AC100 A3007;EQDQ01+000000PRSWM2
0237475170999992000012303004+41230+141150FM-15+001099999V0202101N002610045019N0070001N1+00101+00101999999ADDGA1021+001509999GA2021+003009999GA3081+004509999GF108991999999999999999999MA1101591999999MW1851REMMET09547517 0300Z 21005KT 7000 -SHSN FEW005 SCT010 OVC015 01/01 Q1016 RMK 2ST005 4CU010 8CU015 A3002;EQDQ01+000003PRSWM1Q02    003PRSWM1
0185475170999992000012306004+41230+141150FM-15+001099999V0200801N002110075019N0112651N1+00301+00001999999ADDGA1021+004509999GA2071+007509999GF107991999999999999999999MA1101591999999MW1001REMMET07547517 0600Z 08004KT 9999 FEW015 BKN025 03/00 Q1016 RMK 2CU015 7CU025 A3001;EQDQ01+000000PRSWM2
0186475170999992000012400004+41230+141150FM-15+001099999V0202401N001010300019N0112651N1+00101-00401999999ADDGA1021+007509999GA2071+030009999GF107991999999999999999999MA1101691999999MW1001REMMET07647517 0000Z 24002KT 9999 SCT025 BKN100 01/M04 Q1017 RMK 3CU025 7AC100 A3004;EQDQ01+000000PRSWM2
0219475170999992000012403004+41230+141150FM-15+001099999V0202701N004610090019N0112651N1+00201-00601999999ADDGA1021+004509999GA2071+009009999GF107991999999999999999999MA1101391999999MW1851OC101131REMMET08547517 0300Z 27009G22KT 9999 -SHSN FEW015 BKN030 02/M06 Q1014 RMK 2CU015 6CU030 A2997;EQDQ01+000003PRSWM1Q02    003PRSWM1
0209475170999992000012406004+41230+141150FM-15+001099999V0202401N002610045019N0020001N1-00201-00301999999ADDGA1021+003009999GA2071+004509999GF107991999999999999999999MA1101391999999MW1851REMMET08347517 0600Z 24005KT 2000 -SHSN SCT010 BKN015 M02/M03 Q1014 RMK 3ST010 7CU015 A2996;EQDQ01+000003PRSWM1Q02    003PRSWM1
0239475170999992000012500004+41230+141150FM-15+001099999V0202401N002110060019N0080001N1-00701-01001999999ADDGA1021+003009999GA2071+006009999GA3071+024009999GF107991999999999999999999MA1101591999999MW1851REMMET09747517 0000Z 24004KT 8000 -SHSN FEW010 BKN020 BKN080 M07/M10 Q1016 RMK 2CU010 5CU020 7AC080 A3002;EQDQ01+000003PRSWM1Q02    003PRSWM1
0157475170999992000012503004+41230+141150FM-15+001099999V0202701N004610075019N0112651N1-00501-01301999999ADDGA1071+007509999GF107991999999999999999999MA1101291999999MW1001REMMET06347517 0300Z 27009KT 9999 BKN025 M05/M13 Q1013 RMK 5CU025 A2993;EQDQ01+000000PRSWM2
0209475170999992000012506004+41230+141150FM-15+001099999V0202601N002610090019N0112651N1-00601-01301999999ADDGA1021+004509999GA2071+009009999GF107991999999999999999999MA1101291999999MW1851REMMET08347517 0600Z 26005KT 9999 -SHSN FEW015 BKN030 M06/M13 Q1013 RMK 2CU015 7CU030 A2992;EQDQ01+000003PRSWM1Q02    003PRSWM1
0187475170999992000012603004+41230+141150FM-15+001099999V0202201N001512200019N0112651N1-00401-01101999999ADDGA1021+004509999GA2021+009009999GF104991999999999999999999MA1101491999999MW1001REMMET07747517 0300Z 22003KT 9999 FEW015 SCT030 M04/M11 Q1015 RMK 1CU015 3CU030 A2999;EQDQ01+000000PRSWM2
0157475170999992000012606004+41230+141150FM-15+001099999V0200301N002612200019N0112651N1-00501-01001999999ADDGA1021+009009999GF102991999999999999999999MA1101491999999MW1001REMMET06347517 0600Z 03005KT 9999 FEW030 M05/M10 Q1015 RMK 2CU030 A3000;EQDQ01+000000PRSWM2
0187475170999992000012700004+41230+141150FM-15+001099999V0202401N001010120019N0112651N1-00501-01201999999ADDGA1021+009009999GA2071+012009999GF107991999999999999999999MA1102101999999MW1001REMMET07747517 0000Z 24002KT 9999 FEW030 BKN040 M05/M12 Q1021 RMK 2CU030 7SC040 A3015;EQDQ01+000000PRSWM2
0187475170999992000012703004+41230+141150FM-15+001099999V0201901N001010120019N0112651N1-00201-01001999999ADDGA1021+009009999GA2071+012009999GF107991999999999999999999MA1101901999999MW1001REMMET07747517 0300Z 19002KT 9999 SCT030 BKN040 M02/M10 Q1019 RMK 4CU030 7SC040 A3012;EQDQ01+000000PRSWM2
0209475170999992000012800004+41230+141150FM-15+001099999V0202301N001510075019N0040001N1-00101-00101999999ADDGA1021+004509999GA2071+007509999GF107991999999999999999999MA1102101999999MW1851REMMET08347517 0000Z 23003KT 4000 -SHSN SCT015 BKN025 M01/M01 Q1021 RMK 3CU015 7CU025 A3017;EQDQ01+000003PRSWM1Q02    003PRSWM1
0186475170999992000012803004+41230+141150FM-15+001099999V0202301N002110090019N0112651N1+00201-00301999999ADDGA1021+006009999GA2071+009009999GF107991999999999999999999MA1102101999999MW1001REMMET07647517 0300Z 23004KT 9999 FEW020 BKN030 02/M03 Q1021 RMK 2CU020 6CU030 A3016;EQDQ01+000000PRSWM2
0186475170999992000012806004+41230+141150FM-15+001099999V0202601N002610090019N0112651N1+00201-00601999999ADDGA1021+006009999GA2071+009009999GF107991999999999999999999MA1102201999999MW1001REMMET07647517 0600Z 26005KT 9999 FEW020 BKN030 02/M06 Q1022 RMK 1CU020 6CU030 A3020;EQDQ01+000000PRSWM2
0156475170999992000012900004+41230+141150FM-15+001099999V0209999C000010105019N0112651N1+00101-00201999999ADDGA1071+010509999GF107991999999999999999999MA1102911999999MW1001REMMET06247517 0000Z 00000KT 9999 BKN035 01/M02 Q1029 RMK 7CU035 A3041;EQDQ01+000000PRSWM2
0156475170999992000012903004+41230+141150FM-15+001099999V0202401N003610105019N0112651N1+00501-00401999999ADDGA1071+010509999GF107991999999999999999999MA1102811999999MW1001REMMET06247517 0300Z 24007KT 9999 BKN035 05/M04 Q1028 RMK 6CU035 A3037;EQDQ01+000000PRSWM2
0156475170999992000012906004+41230+141150FM-15+001099999V0202301N003110090019N0112651N1+00401-00301999999ADDGA1071+009009999GF107991999999999999999999MA1102711999999MW1001REMMET06247517 0600Z 23006KT 9999 BKN030 04/M03 Q1027 RMK 7CU030 A3035;EQDQ01+000000PRSWM2
0185475170999992000013000004+41230+141150FM-15+001099999V0202401N002110045019N0112651N1+00301+00101999999ADDGA1071+004509999GA2071+009009999GF107991999999999999999999MA1101691999999MW1001REMMET07547517 0000Z 24004KT 9999 BKN015 BKN030 03/01 Q1017 RMK 5CU015 7CU030 A3005;EQDQ01+000000PRSWM2
0237475170999992000013003004+41230+141150FM-15+001099999V0202301N003610045019N0112651N1+00301+00201999999ADDGA1021+002409999GA2071+004509999GA3081+009009999GF108991999999999999999999MA1101391999999MW1801REMMET09547517 0300Z 23007KT 9999 -SHRA FEW008 BKN015 OVC030 03/02 Q1014 RMK 2ST008 6CU015 8CU030 A2996;EQDQ01+000003PRSWM1Q02    003PRSWM1
0200475170999992000013006004+41230+141150FM-15+001099999V0202201N003110075019N0112651N1+00301+00101999999ADDGA1071+007509999GA2071+060009999GF107991999999999999999999MA1101081999999MW1801REMMET07447517 0600Z 22006KT 9999 -SHRA BKN025 BKN200 03/01 Q1011 RMK 5CU025 A2988;EQDQ01+000003PRSWM1Q02    003PRSWM1
0160475170999992000013100004+41230+141150FM-15+001099999V0200201N002612200019N0112651N1-00201-01001999999ADDGA1021+009009999GF102991999999999999999999MA1101801999999MW1001REMMET06647517 0000Z COR 02005KT 9999 FEW030 M02/M10Q1018 RMK 2CU030 A3006;EQDQ01+000000PRSWM2
0157475170999992000013103004+41230+141150FM-15+001099999V0200301N003112200019N0112651N1+00001-01001999999ADDGA1021+009009999GF102991999999999999999999MA1101691999999MW1001REMMET06347517 0300Z 03006KT 9999 FEW030 M00/M10 Q1017 RMK 2CU030 A3005;EQDQ01+000000PRSWM2
0239475170999992000013106004+41230+141150FM-15+001099999V0202901N001510060019N0060001N1-00101-00701999999ADDGA1021+004509999GA2071+006009999GA3071+009009999GF107991999999999999999999MA1101691999999MW1851REMMET09747517 0600Z 29003KT 6000 -SHSN FEW015 BKN020 BKN030 M01/M07 Q1017 RMK 2CU015 5CU020 7CU030 A3005;EQDQ01+000003PRSWM1Q02    003PRSWM1
0208475170999992000020100004+41230+141150FM-15+001099999V0202201N004110090019N0112651N1+00201-00401999999ADDGA1021+006009999GA2071+009009999GF107991999999999999999999MA1101591999999MW1851REMMET08247517 0000Z 22008KT 9999 -SHSN FEW020 BKN030 02/M04 Q1016 RMK 2CU020 7CU030 A3003;EQDQ01+000003PRSWM1Q02    003PRSWM1
0219475170999992000020103004+41230+141150FM-15+001099999V0202501N009310090019N0112651N1+00301-00301999999ADDGA1021+006009999GA2071+009009999GF107991999999999999999999MA1101491999999MW1851OC101541REMMET08547517 0300Z 25018G30KT 9999 -SHSN FEW020 BKN030 03/M03 Q1015 RMK 2CU020 7CU030 A2998;EQDQ01+000003PRSWM1Q02    003PRSWM1
0208475170999992000020106004+41230+141150FM-15+001099999V0202301N005110075019N0112651N1+00201-00201999999ADDGA1021+004509999GA2071+007509999GF107991999999999999999999MA1101491999999MW1851REMMET08247517 0600Z 23010KT 9999 -SHSN FEW015 BKN025 02/M02 Q1015 RMK 2CU015 7CU025 A2998;EQDQ01+000003PRSWM1Q02    003PRSWM1
0186475170999992000020200004+41230+141150FM-15+001099999V0200401N000510090019N0112651N1+00201-00201999999ADDGA1021+004509999GA2071+009009999GF107991999999999999999999MA1101591999999MW1001REMMET07647517 0000Z 04001KT 9999 SCT015 BKN030 02/M02 Q1016 RMK 3CU015 7CU030 A3003;EQDQ01+000000PRSWM2
0156475170999992000020203004+41230+141150FM-15+001099999V0202601N002110090019N0112651N1+00301-00501999999ADDGA1071+009009999GF107991999999999999999999MA1101591999999MW1001REMMET06247517 0300Z 26004KT 9999 BKN030 03/M05 Q1016 RMK 6CU030 A3001;EQDQ01+000000PRSWM2
0156475170999992000020206004+41230+141150FM-15+001099999V0202401N003610090019N0112651N1+00501-00401999999ADDGA1071+009009999GF107991999999999999999999MA1101591999999MW1001REMMET06247517 0600Z 24007KT 9999 BKN030 05/M04 Q1016 RMK 7CU030 A3002;EQDQ01+000000PRSWM2
0208475170999992000020300004+41230+141150FM-15+001099999V0202601N000510045019N0030001N1+00101+00001999999ADDGA1021+002409999GA2081+004509999GF108991999999999999999999MA1102001999999MW1851REMMET08247517 0000Z 26001KT 3000 -SHSN FEW008 OVC015 01/M00 Q1020 RMK 2ST008 8CU015 A3013;EQDQ01+000003PRSWM1Q02    003PRSWM1
0237475170999992000020303004+41230+141150FM-15+001099999V0209999C000010045019N0040001N1+00101+00101999999ADDGA1021+002409999GA2071+004509999GA3071+007509999GF107991999999999999999999MA1101801999999MW1851REMMET09547517 0300Z 00000KT 4000 -SHSN FEW008 BKN015 BKN025 01/01 Q1018 RMK 2ST008 5CU015 7CU025 A3008;EQDQ01+000003PRSWM1Q02    003PRSWM1
0245475170999992000020306004+41230+141150FM-15+001099999V0203201N001010045019N0040001N1+00201+00101999999ADDGA1021+002409999GA2071+004509999GA3081+007509999GF108991999999999999999999MA1101691999999MW1801MW2851REMMET09747517 0600Z 32002KT 4000 -SHRASN FEW008 BKN015 OVC025 02/01 Q1017 RMK 2ST008 6CU015 8CU025 A3005;EQDQ01+000003PRSWM1Q02    003PRSWM1
0178475170999992000020400004+41230+141150FM-15+001099999V0200201N002610075019N0112651N1+00301-00201999999ADDGA1071+007509999GF107991999999999999999999MA1101691999999MW1851REMMET06847517 0000Z 02005KT 9999 -SHSN BKN025 03/M02 Q1017 RMK 6CU025 A3004;EQDQ01+000003PRSWM1Q02    003PRSWM1
0156475170999992000020403004+41230+141150FM-15+001099999V0200201N002110090019N0112651N1+00301-00301999999ADDGA1071+009009999GF107991999999999999999999MA1101691999999MW1001REMMET06247517 0300Z 02004KT 9999 BKN030 03/M03 Q1017 RMK 7CU030 A3005;EQDQ01+000000PRSWM2
0156475170999992000020406004+41230+141150FM-15+001099999V0200401N003110090019N0112651N1+00301-00501999999ADDGA1071+009009999GF107991999999999999999999MA1101801999999MW1001REMMET06247517 0600Z 04006KT 9999 BKN030 03/M05 Q1018 RMK 5CU030 A3007;EQDQ01+000000PRSWM2
0178475170999992000020500004+41230+141150FM-15+001099999V0202101N000510075019N0112651N1+00001-00101999999ADDGA1071+007509999GF107991999999999999999999MA1102201999999MW1851REMMET06847517 0000Z 21001KT 9999 -SHSN BKN025 00/M01 Q1022 RMK 6CU025 A3018;EQDQ01+000003PRSWM1Q02    003PRSWM1
0156475170999992000020503004+41230+141150FM-15+001099999V0202701N002610090019N0112651N1+00401-00401999999ADDGA1071+009009999GF107991999999999999999999MA1102101999999MW1001REMMET06247517 0300Z 27005KT 9999 BKN030 04/M04 Q1021 RMK 7CU030 A3015;EQDQ01+000000PRSWM2
0156475170999992000020506004+41230+141150FM-15+001099999V0202601N003610090019N0112651N1+00301-00601999999ADDGA1071+009009999GF107991999999999999999999MA1102001999999MW1001REMMET06247517 0600Z 26007KT 9999 BKN030 03/M06 Q1020 RMK 7CU030 A3014;EQDQ01+000000PRSWM2
0209475170999992000020600004+41230+141150FM-15+001099999V0201301N001010600019N0112651N1+00001-00401999999ADDGA1021+009009999GA2021+030009999GA3071+060009999GF107991999999999999999999MA1101801999999MW1001REMMET08347517 0000Z 13002KT 9999 SCT030 SCT100 BKN200 00/M04 Q1018 RMK 3CU030 3AC100 A3008;EQDQ01+000000PRSWM2
0216475170999992000020603004+41230+141150FM-15+001099999V0201001N000510300019N0112651N1+00101-00501999999ADDGA1021+009009999GA2021+015009999GA3071+030009999GF107991999999999999999999MA1101591999999MW1001REMMET09047517 0300Z 10001KT 9999 FEW030 SCT050 BKN100 01/M05 Q1016 RMK 1CU030 3SC050 7AC100 A3001;EQDQ01+000000PRSWM2
0209475170999992000020606004+41230+141150FM-15+001099999V0201601N001010600019N0112651N1+00201-00401999999ADDGA1021+009009999GA2021+030009999GA3071+060009999GF107991999999999999999999MA1101291999999MW1001REMMET08347517 0600Z 16002KT 9999 SCT030 SCT100 BKN200 02/M04 Q1013 RMK 3CU030 3AC100 A2994;EQDQ01+000000PRSWM2
0206475170999992000020700004+41230+141150FM-15+001099999V0200401N004110090019N0050001N1+00001-00101999999ADDGA1021+006009999GA2081+009009999GF108991999999999999999999MA1100511999999MW1711REMMET08047517 0000Z 04008KT 5000 -SN SCT020 OVC030 00/M01 Q1005 RMK 4SC020 8SC030 A2971;EQDQ01+000003PRSWM1Q02    003PRSWM1
0208475170999992000020703004+41230+141150FM-15+001099999V0200601N003110090019N0112651N1+00101-00101999999ADDGA1021+004509999GA2071+009009999GF107991999999999999999999MA1100511999999MW1851REMMET08247517 0300Z 06006KT 9999 -SHSN SCT015 BKN030 01/M01 Q1005 RMK 3CU015 7CU030 A2970;EQDQ01+000003PRSWM1Q02    003PRSWM1
0185475170999992000020800004+41230+141150FM-15+001099999V0200701N001010060019N0112651N1+00201+00001999999ADDGA1071+006009999GA2071+024009999GF107991999999999999999999MA1099901999999MW1001REMMET07547517 0000Z 07002KT 9999 BKN020 BKN080 02/00 Q0999 RMK 6CU020 7AC080 A2951;EQDQ01+000000PRSWM2
0186475170999992000020803004+41230+141150FM-15+001099999V0200201N002610060019N0112651N1+00301+00001999999ADDGA1021+004509999GA2071+006009999GF107991999999999999999999MA1099591999999MW1001REMMET07647517 0300Z 02005KT 9999 SCT015 BKN020 03/M00 Q0996 RMK 3CU015 7CU020 A2941;EQDQ01+000000PRSWM2
0208475170999992000020806004+41230+141150FM-15+001099999V0200301N004610045019N0112651N1+00101+00001999999ADDGA1021+002409999GA2081+004509999GF108991999999999999999999MA1099391999999MW1851REMMET08247517 0600Z 03009KT 9999 -SHSN FEW008 OVC015 01/M00 Q0994 RMK 2ST008 8CU015 A2937;EQDQ01+000003PRSWM1Q02    003PRSWM1
0187475170999992000020900004+41230+141150FM-15+001099999V0201201N001010075019N0112651N1-00101-00701999999ADDGA1021+003009999GA2071+007509999GF107991999999999999999999MA1099901999999MW1001REMMET07747517 0000Z 12002KT 9999 FEW010 BKN025 M01/M07 Q0999 RMK 1ST010 6CU025 A2950;EQDQ01+000000PRSWM2
0179475170999992000020903004+41230+141150FM-15+001099999V0203501N003112200019N0112651N1+00101-00801999999ADDGA1021+007509999GA2021+060009999GF104991999999999999999999MA1100001999999MW1001REMMET06947517 0300Z 35006KT 9999 SCT025 SCT200 01/M08 Q1000 RMK 3CU025 A2954;EQDQ01+000000PRSWM2
0209475170999992000021000004+41230+141150FM-15+001099999V0202101N000510075019N0112651N1-00101-00601999999ADDGA1021+006009999GA2071+007509999GF107991999999999999999999MA1100811999999MW1851REMMET08347517 0000Z 21001KT 9999 -SHSN FEW020 BKN025 M01/M06 Q1008 RMK 2CU020 7CU025 A2977;EQDQ01+000003PRSWM1Q02    003PRSWM1
0208475170999992000021003004+41230+141150FM-15+001099999V0202501N004110090019N0112651N1+00101-00701999999ADDGA1021+006009999GA2071+009009999GF107991999999999999999999MA1100811999999MW1851REMMET08247517 0300Z 25008KT 9999 -SHSN FEW020 BKN030 01/M07 Q1008 RMK 2CU020 7CU030 A2977;EQDQ01+000003PRSWM1Q02    003PRSWM1
0208475170999992000021006004+41230+141150FM-15+001099999V0202401N005110024019N0010001N1-00101-00401999999ADDGA1071+002409999GA2081+004509999GF108991999999999999999999MA1100811999999MW1861REMMET08247517 0600Z 24010KT 1000 SHSN BKN008 OVC015 M01/M04 Q1008 RMK 5ST008 8CU015 A2979;EQDQ01+000003PRSWM1Q02    003PRSWM1
0208475170999992000021100004+41230+141150FM-15+001099999V0202301N002110090019N0112651N1+00101-00501999999ADDGA1021+004509999GA2071+009009999GF107991999999999999999999MA1100811999999MW1851REMMET08247517 0000Z 23004KT 9999 -SHSN FEW015 BKN030 01/M05 Q1008 RMK 2CU015 7CU030 A2979;EQDQ01+000003PRSWM1Q02    003PRSWM1
0219475170999992000021103004+41230+141150FM-15+001099999V0202401N003610090019N0112651N1+00301-00501999999ADDGA1021+006009999GA2071+009009999GF107991999999999999999999MA1100711999999MW1851OC100931REMMET08547517 0300Z 24007G18KT 9999 -SHSN FEW020 BKN030 03/M05 Q1007 RMK 1CU020 6CU030 A2975;EQDQ01+000003PRSWM1Q02    003PRSWM1
0208475170999992000021106004+41230+141150FM-15+001099999V0202601N002110045019N0050001N1+00001-00201999999ADDGA1071+004509999GA2071+009009999GF107991999999999999999999MA1100611999999MW1851REMMET08247517 0600Z 26004KT 5000 -SHSN BKN015 BKN030 00/M02 Q1006 RMK 5CU015 7CU030 A2973;EQDQ01+000003PRSWM1Q02    003PRSWM1
0209475170999992000021200004+41230+141150FM-15+001099999V0202701N002610600019N0112651N1+00001-00901999999ADDGA1021+009009999GA2021+030009999GA3071+060009999GF107991999999999999999999MA1100811999999MW1001REMMET08347517 0000Z 27005KT 9999 SCT030 SCT100 BKN200 00/M09 Q1008 RMK 3CU030 4AC100 A2978;EQDQ01+000000PRSWM2
0238475170999992000021203004+41230+141150FM-15+001099999V0202501N005110090019N0112651N1+00101-00601999999ADDGA1021+007509999GA2071+009009999GA3071+030009999GF107991999999999999999999MA1100611999999MW1851REMMET09647517 0300Z 25010KT 9999 -SHSN FEW025 BKN030 BKN100 01/M06 Q1006 RMK 2CU025 6CU030 7AC100 A2973;EQDQ01+000003PRSWM1Q02    003PRSWM1
0208475170999992000021206004+41230+141150FM-15+001099999V0202501N001010090019N0112651N1+00101-00601999999ADDGA1021+007509999GA2071+009009999GF107991999999999999999999MA1100611999999MW1851REMMET08247517 0600Z 25002KT 9999 -SHSN FEW025 BKN030 01/M06 Q1006 RMK 2CU025 7CU030 A2973;EQDQ01+000003PRSWM1Q02    003PRSWM1
0187475170999992000021300004+41230+141150FM-15+001099999V0202801N002612200019N0112651N1-00101-00901999999ADDGA1021+004509999GA2021+009009999GF104991999999999999999999MA1101291999999MW1001REMMET07747517 0000Z 28005KT 9999 FEW015 SCT030 M01/M09 Q1013 RMK 1CU015 3CU030 A2992;EQDQ01+000000PRSWM2
0208475170999992000021303004+41230+141150FM-15+001099999V0203301N002610090019N0030001N1+00101-00501999999ADDGA1021+004509999GA2071+009009999GF107991999999999999999999MA1101191999999MW1851REMMET08247517 0300Z 33005KT 3000 -SHSN SCT015 BKN030 01/M05 Q1012 RMK 3CU015 6CU030 A2991;EQDQ01+000003PRSWM1Q02    003PRSWM1
0187475170999992000021306004+41230+141150FM-15+001099999V0202701N002610090019N0112651N1+00001-00901999999ADDGA1021+006009999GA2071+009009999GF107991999999999999999999MA1101191999999MW1001REMMET07747517 0600Z 27005KT 9999 FEW020 BKN030 M00/M09 Q1012 RMK 1CU020 7CU030 A2989;EQDQ01+000000PRSWM2
0209475170999992000021400004+41230+141150FM-15+001099999V0209999C000010045019N0040001N1-00101-00201999999ADDGA1021+001509999GA2081+004509999GF108991999999999999999999MA1100911999999MW1851REMMET08347517 0000Z 00000KT 4000 -SHSN SCT005 OVC015 M01/M02 Q1009 RMK 3ST005 8CU015 A2982;EQDQ01+000003PRSWM1Q02    003PRSWM1
0209475170999992000021403004+41230+141150FM-15+001099999V0202301N002610030019N0015001N1+00001-00101999999ADDGA1021+001509999GA2071+003009999GF107991999999999999999999MA1100711999999MW1851REMMET08347517 0300Z 23005KT 1500 -SHSN SCT005 BKN010 M00/M01 Q1007 RMK 4ST005 7CU010 A2976;EQDQ01+000003PRSWM1Q02    003PRSWM1
0209475170999992000021406004+41230+141150FM-15+001099999V0200701N000510030019N0112651N1+00001-00101999999ADDGA1021+001509999GA2071+003009999GF107991999999999999999999MA1100511999999MW1851REMMET08347517 0600Z 07001KT 9999 -SHSN SCT005 BKN010 M00/M01 Q1005 RMK 3ST005 7CU010 A2968;EQDQ01+000003PRSWM1Q02    003PRSWM1
0209475170999992000021500004+41230+141150FM-15+001099999V0200501N002612200019N0112651N1-00301-00601999999ADDGA1021+002409999GA2021+024009999GF104991999999999999999999MA1099591999999MW1851REMMET08347517 0000Z 05005KT 9999 -SHSN FEW008 SCT080 M03/M06 Q0996 RMK 1ST008 4AC080 A2944;EQDQ01+000003PRSWM1Q02    003PRSWM1
0209475170999992000021503004+41230+141150FM-15+001099999V0202101N001510075019N0045001N1-00201-00601999999ADDGA1021+004509999GA2071+007509999GF107991999999999999999999MA1099491999999MW1851REMMET08347517 0300Z 21003KT 4500 -SHSN SCT015 BKN025 M02/M06 Q0995 RMK 3CU015 7CU025 A2938;EQDQ01+000003PRSWM1Q02    003PRSWM1
0213475170999992000021506004+41230+141150FM-15+001099999V0202701N003110075019N0112651N1-00201-01001999999ADDGA1021+003009999GA2071+007509999GF107991999999999999999999MA1099291999999MW1851REMMET08747517 0600Z COR 27006KT 9999 -SHSN FEW010 BKN025 M02/M10 Q0993 RMK 2CU010 5CU025 A2935;EQDQ01+000003PRSWM1Q02    003PRSWM1
0209475170999992000021600004+41230+141150FM-15+001099999V0202901N002110075019N0112651N1-00301-00901999999ADDGA1071+007509999GA2071+024009999GF107991999999999999999999MA1099591999999MW1851REMMET08347517 0000Z 29004KT 9999 -SHSN BKN025 BKN080 M03/M09 Q0996 RMK 5CU025 7AC080 A2943;EQDQ01+000003PRSWM1Q02    003PRSWM1
0209475170999992000021603004+41230+141150FM-15+001099999V0202701N002110015019N0015001N1-00401-00601999999ADDGA1071+001509999GA2071+004509999GF107991999999999999999999MA1099701999999MW1851REMMET08347517 0300Z 27004KT 1500 -SHSN BKN005 BKN015 M04/M06 Q0997 RMK 5ST005 7CU015 A2945;EQDQ01+000003PRSWM1Q02    003PRSWM1
0156475170999992000021703004+41230+141150FM-15+001099999V0202401N002112200019N0112651N1+00201-00801999999ADDGA1021+009009999GF104991999999999999999999MA1100811999999MW1001REMMET06247517 0300Z 24004KT 9999 SCT030 02/M08 Q1008 RMK 4CU030 A2978;EQDQ01+000000PRSWM2
0179475170999992000021706004+41230+141150FM-15+001099999V0202401N003610075019N0112651N1-00101-00401999999ADDGA1071+007509999GF107991999999999999999999MA1100811999999MW1851REMMET06947517 0600Z 24007KT 9999 -SHSN BKN025 M01/M04 Q1008 RMK 6CU025 A2978;EQDQ01+000003PRSWM1Q02    003PRSWM1
0209475170999992000021800004+41230+141150FM-15+001099999V0202401N001010075019N0112651N1-00101-00301999999ADDGA1021+004509999GA2071+007509999GF107991999999999999999999MA1100911999999MW1851REMMET08347517 0000Z 24002KT 9999 -SHSN FEW015 BKN025 M01/M03 Q1009 RMK 2CU015 7CU025 A2982;EQDQ01+000003PRSWM1Q02    003PRSWM1
0186475170999992000021803004+41230+141150FM-15+001099999V0202601N002110075019N0112651N1+00201-00401999999ADDGA1021+004509999GA2071+007509999GF107991999999999999999999MA1100911999999MW1001REMMET07647517 0300Z 26004KT 9999 FEW015 BKN025 02/M04 Q1009 RMK 2CU015 6CU025 A2980;EQDQ01+000000PRSWM2
0231475170999992000021806004+41230+141150FM-15+001099999V0202801N001510075019N0112651N1+00201-00301999999ADDGA1021+003009999GA2071+007509999GA3071+060009999GF107991999999999999999999MA1100911999999MW1851REMMET08947517 0600Z 28003KT 9999 -SHSN FEW010 BKN025 BKN200 02/M03 Q1009 RMK 2CU010 6CU025 A2980;EQDQ01+000003PRSWM1Q02    003PRSWM1
0157475170999992000021900004+41230+141150FM-15+001099999V0202101N003110090019N0112651N1+00001-00301999999ADDGA1071+009009999GF107991999999999999999999MA1101591999999MW1001REMMET06347517 0000Z 21006KT 9999 BKN030 M00/M03 Q1016 RMK 5CU030 A3002;EQDQ01+000000PRSWM2
0186475170999992000021903004+41230+141150FM-15+001099999V0202501N004112200019N0112651N1+00201-00601999999ADDGA1021+004509999GA2021+009009999GF104991999999999999999999MA1101491999999MW1001REMMET07647517 0300Z 25008KT 9999 FEW015 SCT030 02/M06 Q1015 RMK 1CU015 4CU030 A2998;EQDQ01+000000PRSWM2
0208475170999992000021906004+41230+141150FM-15+001099999V0202501N003610090019N0112651N1+00201-00501999999ADDGA1021+006009999GA2071+009009999GF107991999999999999999999MA1101391999999MW1851REMMET08247517 0600Z 25007KT 9999 -SHSN FEW020 BKN030 02/M05 Q1014 RMK 2CU020 7CU030 A2996;EQDQ01+000003PRSWM1Q02    003PRSWM1
0209475170999992000022000004+41230+141150FM-15+001099999V0201901N001510090019N0112651N1+00101-00101999999ADDGA1021+006009999GA2071+009009999GA3071+060009999GF107991999999999999999999MA1100811999999MW1001REMMET08347517 0000Z 19003KT 9999 FEW020 BKN030 BKN200 01/M01 Q1008 RMK 2CU020 5CU030 A2978;EQDQ01+000000PRSWM2
0179475170999992000022003004+41230+141150FM-15+001099999V0201901N001510600019N0112651N1+00301-00201999999ADDGA1021+007509999GA2071+060009999GF107991999999999999999999MA1100411999999MW1001REMMET06947517 0300Z 19003KT 9999 SCT025 BKN200 03/M02 Q1004 RMK 3CU025 A2967;EQDQ01+000000PRSWM2
0156475170999992000022006004+41230+141150FM-15+001099999V0201401N001012200019N0112651N1+00301-00301999999ADDGA1021+009009999GF102991999999999999999999MA1100201999999MW1001REMMET06247517 0600Z 14002KT 9999 FEW030 03/M03 Q1002 RMK 1CU030 A2960;EQDQ01+000000PRSWM2
0209475170999992000022100004+41230+141150FM-15+001099999V02099999999990030019N0020001N1-00101-00301999999ADDGA1071+003009999GA2071+006009999GF107991999999999999999999MA1100101999999MW1851REMMET08347517 0000Z VRB02KT 2000 -SHSN BKN010 BKN020 M01/M03 Q1001 RMK 5CU010 7CU020 A2957;EQDQ01+000003PRSWM1Q02    003PRSWM1
0209475170999992000022103004+41230+141150FM-15+001099999V0202401N001010060019N0030001N1-00201-00401999999ADDGA1021+003009999GA2071+006009999GF107991999999999999999999MA1100001999999MW1851REMMET08347517 0300Z 24002KT 3000 -SHSN SCT010 BKN020 M02/M04 Q1000 RMK 3CU010 7CU020 A2955;EQDQ01+000003PRSWM1Q02    003PRSWM1
0209475170999992000022106004+41230+141150FM-15+001099999V02099999999990060019N0080001N1-00201-00401999999ADDGA1021+002409999GA2071+006009999GF107991999999999999999999MA1100001999999MW1851REMMET08347517 0600Z VRB02KT 8000 -SHSN SCT008 BKN020 M02/M04 Q1000 RMK 4CU008 7CU020 A2954;EQDQ01+000003PRSWM1Q02    003PRSWM1
0180475170999992000022200004+41230+141150FM-15+001099999V0200301N004610600019N0112651N1-00301-00801999999ADDGA1021+007509999GA2071+060009999GF107991999999999999999999MA1100711999999MW1001REMMET07047517 0000Z 03009KT 9999 FEW025 BKN200 M03/M08 Q1007 RMK 2CU025 A2976;EQDQ01+000000PRSWM2
0180475170999992000022203004+41230+141150FM-15+001099999V0201101N002610600019N0112651N1-00101-00701999999ADDGA1021+009009999GA2071+060009999GF107991999999999999999999MA1100811999999MW1001REMMET07047517 0300Z 11005KT 9999 FEW030 BKN200 M01/M07 Q1008 RMK 1CU030 A2978;EQDQ01+000000PRSWM2
0232475170999992000022206004+41230+141150FM-15+001099999V0201901N001010090019N0112651N1-00201-00501999999ADDGA1021+006009999GA2071+009009999GA3071+060009999GF107991999999999999999999MA1100811999999MW1851REMMET09047517 0600Z 19002KT 9999 -SHSN FEW020 BKN030 BKN200 M02/M05 Q1008 RMK 1CU020 5CU030 A2979;EQDQ01+000003PRSWM1Q02    003PRSWM1
0168475170999992000022306004+41230+141150FM-15+001099999V0202601N005710075019N0112651N1+00001-01001999999ADDGA1071+007509999GF107991999999999999999999MA1101291999999MW1001OC101231REMMET06647517 0600Z 26011G24KT 9999 BKN025 M00/M10 Q1013 RMK 5CU025 A2993;EQDQ01+000000PRSWM2
0157475170999992000022406004+41230+141150FM-15+001099999V0202201N003112200019N0112651N1-00101-00701999999ADDGA1021+004509999GF102991999999999999999999MA1100611999999MW1001REMMET06347517 0600Z 22006KT 9999 FEW015 M01/M07 Q1006 RMK 1CU015 A2972;EQDQ01+000000PRSWM2
0209475170999992000022500004+41230+141150FM-15+001099999V0202601N000510030019N0015001N1-00501-00601999999ADDGA1071+003009999GA2081+004509999GF108991999999999999999999MA1101291999999MW1851REMMET08347517 0000Z 26001KT 1500 -SHSN BKN010 OVC015 M05/M06 Q1013 RMK 5CU010 8CU015 A2992;EQDQ01+000003PRSWM1Q02    003PRSWM1
0209475170999992000022503004+41230+141150FM-15+001099999V0202201N002610075019N0112651N1-00301-00601999999ADDGA1021+004509999GA2071+007509999GF107991999999999999999999MA1101191999999MW1851REMMET08347517 0300Z 22005KT 9999 -SHSN SCT015 BKN025 M03/M06 Q1012 RMK 3CU015 6CU025 A2990;EQDQ01+000003PRSWM1Q02    003PRSWM1
0209475170999992000022506004+41230+141150FM-15+001099999V0202601N002610075019N0050001N1-00301-00701999999ADDGA1021+004509999GA2071+007509999GF107991999999999999999999MA1101191999999MW1851REMMET08347517 0600Z 26005KT 5000 -SHSN SCT015 BKN025 M03/M07 Q1012 RMK 3CU015 7CU025 A2991;EQDQ01+000003PRSWM1Q02    003PRSWM1
0202475170999992000022600004+41230+141150FM-15+001099999V0202201N001010075019N0112651N1-00301-00501999999ADDGA1071+007509999GA2071+060009999GF107991999999999999999999MA1101591999999MW1851REMMET07647517 0000Z 22002KT 9999 -SHSN BKN025 BKN200 M03/M05 Q1016 RMK 5CU025 A3002;EQDQ01+000003PRSWM1Q02    003PRSWM1
0209475170999992000022603004+41230+141150FM-15+001099999V0202001N002110075019N0030001N1-00201-00401999999ADDGA1021+003009999GA2071+007509999GF107991999999999999999999MA1101491999999MW1851REMMET08347517 0300Z 20004KT 3000 -SHSN SCT010 BKN025 M02/M04 Q1015 RMK 3CU010 6CU025 A3000;EQDQ01+000003PRSWM1Q02    003PRSWM1
0170475170999992000022800004+41230+141150FM-15+001099999V0202601N00511000151CN0005001N1-00101-00201999999ADDGA1091+000159999GF109991999999000251999999MA1100911999999MW1861REMMET06047517 0000Z 26010KT 0500 SHSN VV006 M01/M02 Q1009 RMK A2980;EQDQ01+000003PRSWM1Q02    003PRSWM1
0208475170999992000022803004+41230+141150FM-15+001099999V0202401N004610090019N0112651N1+00101-00501999999ADDGA1021+006009999GA2071+009009999GF107991999999999999999999MA1100911999999MW1851REMMET08247517 0300Z 24009KT 9999 -SHSN FEW020 BKN030 01/M05 Q1009 RMK 2CU020 7CU030 A2981;EQDQ01+000003PRSWM1Q02    003PRSWM1
0157475170999992000022900004+41230+141150FM-15+001099999V0202401N002112200019N0112651N1-00101-00501999999ADDGA1021+009009999GF102991999999999999999999MA1101391999999MW1001REMMET06347517 0000Z 24004KT 9999 FEW030 M01/M05 Q1014 RMK 1CU030 A2995;EQDQ01+000000PRSWM2
0156475170999992000022903004+41230+141150FM-15+001099999V0203401N000510090019N0112651N1+00101-00501999999ADDGA1071+009009999GF107991999999999999999999MA1101391999999MW1001REMMET06247517 0300Z 34001KT 9999 BKN030 01/M05 Q1014 RMK 5CU030 A2997;EQDQ01+000000PRSWM2
0156475170999992000022906004+41230+141150FM-15+001099999V0200901N001512200019N0112651N1+00101-00501999999ADDGA1021+009009999GF104991999999999999999999MA1101391999999MW1001REMMET06247517 0600Z 09003KT 9999 SCT030 01/M05 Q1014 RMK 3CU030 A2996;EQDQ01+000000PRSWM2
0217475170999992000030100004+41230+141150FM-15+001099999V0202101N001510300019N0112651N1-00101-00501999999ADDGA1021+006009999GA2021+009009999GA3071+030009999GF107991999999999999999999MA1102101999999MW1001REMMET09147517 0000Z 21003KT 9999 FEW020 SCT030 BKN100 M01/M05 Q1021 RMK 1CU020 3CU030 5AC100 A3016;EQDQ01+000000PRSWM2
0238475170999992000030103004+41230+141150FM-15+001099999V0202401N005110090019N0112651N1+00001-00501999999ADDGA1021+006009999GA2071+009009999GA3071+030009999GF107991999999999999999999MA1102001999999MW1851REMMET09647517 0300Z 24010KT 9999 -SHSN SCT020 BKN030 BKN100 00/M05 Q1020 RMK 3CU020 5CU030 6AC100 A3015;EQDQ01+000003PRSWM1Q02    003PRSWM1
0249475170999992000030106004+41230+141150FM-15+001099999V0202501N006210090019N0112651N1+00101-00501999999ADDGA1021+006009999GA2071+009009999GA3071+030009999GF107991999999999999999999MA1101901999999MW1851OC101291REMMET09947517 0600Z 25012G25KT 9999 -SHSN FEW020 BKN030 BKN100 01/M05 Q1019 RMK 2CU020 5CU030 6AC100 A3010;EQDQ01+000003PRSWM1Q02    003PRSWM1
0178475170999992000030200004+41230+141150FM-15+001099999V0202501N005110090019N0112651N1+00501-00101999999ADDGA1071+009009999GF107991999999999999999999MA1101491999999MW1801REMMET06847517 0000Z 25010KT 9999 -SHRA BKN030 05/M01 Q1015 RMK 7CU030 A2999;EQDQ01+000003PRSWM1Q02    003PRSWM1
0156475170999992000030203004+41230+141150FM-15+001099999V0202501N005112200019N0112651N1+00701-00201999999ADDGA1021+009009999GF104991999999999999999999MA1101491999999MW1001REMMET06247517 0300Z 25010KT 9999 SCT030 07/M02 Q1015 RMK 4CU030 A2998;EQDQ01+000000PRSWM2
0156475170999992000030300004+41230+141150FM-15+001099999V0201301N001012200019N0112651N1+00101-00201999999ADDGA1021+009009999GF102991999999999999999999MA1102401999999MW1001REMMET06247517 0000Z 13002KT 9999 FEW030 01/M02 Q1024 RMK 1CU030 A3025;EQDQ01+000000PRSWM2
0167475170999992000030303004+41230+141150FM-15+001099999V0202001N005112200019N0112651N1+00601-00201999999ADDGA1021+009009999GF102991999999999999999999MA1102201999999MW1001OC101031REMMET06547517 0300Z 20010G20KT 9999 FEW030 06/M02 Q1022 RMK 2CU030 A3019;EQDQ01+000000PRSWM2
0179475170999992000030306004+41230+141150FM-15+001099999V0202301N004610600019N0112651N1+00701-00401999999ADDGA1021+009009999GA2071+060009999GF107991999999999999999999MA1102101999999MW1001REMMET06947517 0600Z 23009KT 9999 FEW030 BKN200 07/M04 Q1021 RMK 1CU030 A3016;EQDQ01+000000PRSWM2
0178475170999992000030400004+41230+141150FM-15+001099999V0202201N003610600019N0112651N1+00801+00201999999ADDGA1021+009009999GA2071+060009999GF107991999999999999999999MA1101291999999MW1001REMMET06847517 0000Z 22007KT 9999 FEW030 BKN200 08/02 Q1013 RMK 1CU030 A2992;EQDQ01+000000PRSWM2
0178475170999992000030403004+41230+141150FM-15+001099999V0202001N003610600019N0112651N1+01001+00001999999ADDGA1021+030009999GA2071+060009999GF107991999999999999999999MA1101021999999MW1001REMMET06847517 0300Z 20007KT 9999 SCT100 BKN200 10/00 Q1010 RMK 3AC100 A2983;EQDQ01+000000PRSWM2
0178475170999992000030406004+41230+141150FM-15+001099999V0202301N005710600019N0112651N1+01101+00201999999ADDGA1021+009009999GA2071+060009999GF107991999999999999999999MA1100711999999MW1001REMMET06847517 0600Z 23011KT 9999 FEW030 BKN200 11/02 Q1007 RMK 1CU030 A2974;EQDQ01+000000PRSWM2
0156475170999992000030500004+41230+141150FM-15+001099999V0202601N003610090019N0112651N1+00701-00801999999ADDGA1071+009009999GF107991999999999999999999MA1100511999999MW1001REMMET06247517 0000Z 26007KT 9999 BKN030 07/M08 Q1005 RMK 6CU030 A2968;EQDQ01+000000PRSWM2
0167475170999992000030503004+41230+141150FM-15+001099999V0202501N008712200019N0112651N1+00401-00701999999ADDGA1021+009009999GF104991999999999999999999MA1100611999999MW1001OC101701REMMET06547517 0300Z 25017G33KT 9999 SCT030 04/M07 Q1006 RMK 3CU030 A2973;EQDQ01+000000PRSWM2
0167475170999992000030506004+41230+141150FM-15+001099999V0202601N005112200019N0112651N1+00301-00801999999ADDGA1021+009009999GF104991999999999999999999MA1100811999999MW1001OC101031REMMET06547517 0600Z 26010G20KT 9999 SCT030 03/M08 Q1008 RMK 4CU030 A2977;EQDQ01+000000PRSWM2
0179475170999992000030600004+41230+141150FM-15+001099999V0202201N002110600019N0112651N1+00101-00301999999ADDGA1021+009009999GA2071+060009999GF107991999999999999999999MA1101391999999MW1001REMMET06947517 0000Z 22004KT 9999 SCT030 BKN200 01/M03 Q1014 RMK 3CU030 A2997;EQDQ01+000000PRSWM2
0179475170999992000030603004+41230+141150FM-15+001099999V0201701N003110600019N0112651N1+00301-00501999999ADDGA1021+009009999GA2071+060009999GF107991999999999999999999MA1101291999999MW1001REMMET06947517 0300Z 17006KT 9999 SCT030 BKN200 03/M05 Q1013 RMK 3CU030 A2994;EQDQ01+000000PRSWM2
0179475170999992000030606004+41230+141150FM-15+001099999V0201501N002610600019N0112651N1+00301-00601999999ADDGA1021+009009999GA2071+060009999GF107991999999999999999999MA1101191999999MW1001REMMET06947517 0600Z 15005KT 9999 FEW030 BKN200 03/M06 Q1012 RMK 2CU030 A2989;EQDQ01+000000PRSWM2
0155475170999992000030700004+41230+141150FM-15+001099999V0202201N003612200019N0112651N1+00301+00101999999ADDGA1021+007509999GF102991999999999999999999MA1100101999999MW1001REMMET06147517 0000Z 22007KT 9999 FEW025 03/01 Q1001 RMK 2CU025 A2958;EQDQ01+000000PRSWM2
0167475170999992000030703004+41230+141150FM-15+001099999V0202501N007712200019N0112651N1+00201-00801999999ADDGA1021+009009999GF102991999999999999999999MA1100201999999MW1001OC101391REMMET06547517 0300Z 25015G27KT 9999 FEW030 02/M08 Q1002 RMK 2CU030 A2960;EQDQ01+000000PRSWM2
0189475170999992000030706004+41230+141150FM-15+001099999V0202401N005710090019N0112651N1+00001-00801999999ADDGA1071+009009999GF107991999999999999999999MA1100201999999MW1851OC101181REMMET07147517 0600Z 24011G23KT 9999 -SHSN BKN030 00/M08 Q1002 RMK 5CU030 A2961;EQDQ01+000003PRSWM1Q02    003PRSWM1
0209475170999992000030800004+41230+141150FM-15+001099999V0202301N004110060019N0080001N1-00201-00401999999ADDGA1021+003009999GA2071+006009999GF107991999999999999999999MA1100101999999MW1851REMMET08347517 0000Z 23008KT 8000 -SHSN FEW010 BKN020 M02/M04 Q1001 RMK 2CU010 7CU020 A2958;EQDQ01+000003PRSWM1Q02    003PRSWM1
0209475170999992000030803004+41230+141150FM-15+001099999V0202401N004610030019N0015001N1-00201-00401999999ADDGA1071+003009999GA2081+004509999GF108991999999999999999999MA1100101999999MW1851REMMET08347517 0300Z 24009KT 1500 -SHSN BKN010 OVC015 M02/M04 Q1001 RMK 5ST010 8CU015 A2958;EQDQ01+000003PRSWM1Q02    003PRSWM1
0209475170999992000030806004+41230+141150FM-15+001099999V0202501N004610090019N0112651N1-00101-00601999999ADDGA1021+004509999GA2071+009009999GF107991999999999999999999MA1100101999999MW1851REMMET08347517 0600Z 25009KT 9999 -SHSN FEW015 BKN030 M01/M06 Q1001 RMK 2CU015 7CU030 A2959;EQDQ01+000003PRSWM1Q02    003PRSWM1
0187475170999992000030900004+41230+141150FM-15+001099999V0202501N004110090019N0112651N1-00201-01101999999ADDGA1021+004509999GA2071+009009999GF107991999999999999999999MA1100711999999MW1001REMMET07747517 0000Z 25008KT 9999 FEW015 BKN030 M02/M11 Q1007 RMK 2CU015 7CU030 A2976;EQDQ01+000000PRSWM2
0191475170999992000030903004+41230+141150FM-15+001099999V0202601N005110600019N0112651N1-00101-01301999999ADDGA1021+009009999GA2071+060009999GF107991999999999999999999MA1100811999999MW1001OC101341REMMET07347517 0300Z 26010G26KT 9999 SCT030 BKN200 M01/M13 Q1008 RMK 4CU030 A2977;EQDQ01+000000PRSWM2
0239475170999992000030906004+41230+141150FM-15+001099999V0202901N002110030019N0020001N1-00301-00901999999ADDGA1021+001809999GA2071+003009999GA3081+006009999GF108991999999999999999999MA1100711999999MW1851REMMET09747517 0600Z 29004KT 2000 -SHSN FEW006 BKN010 OVC020 M03/M09 Q1007 RMK 2ST006 5CU010 8CU020 A2976;EQDQ01+000003PRSWM1Q02    003PRSWM1
0209475170999992000031000004+41230+141150FM-15+001099999V0202401N002610090019N0112651N1-00401-01001999999ADDGA1021+006009999GA2071+009009999GF107991999999999999999999MA1101591999999MW1851REMMET08347517 0000Z 24005KT 9999 -SHSN FEW020 BKN030 M04/M10 Q1016 RMK 2CU020 6CU030 A3002;EQDQ01+000003PRSWM1Q02    003PRSWM1
0209475170999992000031003004+41230+141150FM-15+001099999V0202401N004110030019N0015001N1-00401-00601999999ADDGA1021+001509999GA2071+003009999GF107991999999999999999999MA1101591999999MW1851REMMET08347517 0300Z 24008KT 1500 -SHSN SCT005 BKN010 M04/M06 Q1016 RMK 4ST005 7CU010 A3002;EQDQ01+000003PRSWM1Q02    003PRSWM1
0209475170999992000031006004+41230+141150FM-15+001099999V0202501N004110075019N0070001N1-00301-00601999999ADDGA1021+004509999GA2071+007509999GF107991999999999999999999MA1101491999999MW1851REMMET08347517 0600Z 25008KT 7000 -SHSN FEW015 BKN025 M03/M06 Q1015 RMK 2ST015 7CU025 A2999;EQDQ01+000003PRSWM1Q02    003PRSWM1
0156475170999992000031100004+41230+141150FM-15+001099999V0202601N003110090019N0112651N1+00301-00601999999ADDGA1071+009009999GF107991999999999999999999MA1101191999999MW1001REMMET06247517 0000Z 26006KT 9999 BKN030 03/M06 Q1012 RMK 6CU030 A2989;EQDQ01+000000PRSWM2
0219475170999992000031103004+41230+141150FM-15+001099999V0202501N007210075019N0080001N1+00301-00301999999ADDGA1021+003009999GA2071+007509999GF107991999999999999999999MA1101021999999MW1851OC101491REMMET08547517 0300Z 25014G29KT 8000 -SHSN SCT010 BKN025 03/M03 Q1010 RMK 3ST010 7CU025 A2985;EQDQ01+000003PRSWM1Q02    003PRSWM1
0156475170999992000031106004+41230+141150FM-15+001099999V0202501N005710090019N0112651N1+00501-00601999999ADDGA1071+009009999GF107991999999999999999999MA1100811999999MW1001REMMET06247517 0600Z 25011KT 9999 BKN030 05/M06 Q1008 RMK 5CU030 A2979;EQDQ01+000000PRSWM2
0156475170999992000031200004+41230+141150FM-15+001099999V0203201N001510090019N0112651N1+00201-00801999999ADDGA1071+009009999GF107991999999999999999999MA1100711999999MW1001REMMET06247517 0000Z 32003KT 9999 BKN030 02/M08 Q1007 RMK 7CU030 A2975;EQDQ01+000000PRSWM2
0208475170999992000031203004+41230+141150FM-15+001099999V0202801N002110090019N0112651N1+00101-00601999999ADDGA1021+006009999GA2071+009009999GF107991999999999999999999MA1100711999999MW1851REMMET08247517 0300Z 28004KT 9999 -SHSN FEW020 BKN030 01/M06 Q1007 RMK 1CU020 6CU030 A2974;EQDQ01+000003PRSWM1Q02    003PRSWM1
0156475170999992000031206004+41230+141150FM-15+001099999V0202501N005710090019N0112651N1+00201-00801999999ADDGA1071+009009999GF107991999999999999999999MA1100611999999MW1001REMMET06247517 0600Z 25011KT 9999 BKN030 02/M08 Q1006 RMK 5CU030 A2971;EQDQ01+000000PRSWM2
0237475170999992000031300004+41230+141150FM-15+001099999V0202401N002610030019N0020001N1+00101+00001999999ADDGA1021+001509999GA2071+003009999GA3071+006009999GF107991999999999999999999MA1100311999999MW1851REMMET09547517 0000Z 24005KT 2000 -SHSN FEW005 BKN010 BKN020 01/00 Q1003 RMK 2ST005 5CU010 7CU020 A2965;EQDQ01+000003PRSWM1Q02    003PRSWM1
0208475170999992000031303004+41230+141150FM-15+001099999V0202701N002110060019N0112651N1+00101-00501999999ADDGA1021+003009999GA2071+006009999GF107991999999999999999999MA1100411999999MW1851REMMET08247517 0300Z 27004KT 9999 -SHSN FEW010 BKN020 01/M05 Q1004 RMK 2CU010 5CU020 A2967;EQDQ01+000003PRSWM1Q02    003PRSWM1
0209475170999992000031306004+41230+141150FM-15+001099999V0202601N004610060019N0112651N1-00101-00901999999ADDGA1021+003009999GA2071+006009999GF107991999999999999999999MA1100711999999MW1851REMMET08347517 0600Z 26009KT 9999 -SHSN FEW010 BKN020 M01/M09 Q1007 RMK 2CU010 6CU020 A2974;EQDQ01+000003PRSWM1Q02    003PRSWM1
0156475170999992000031400004+41230+141150FM-15+001099999V0202701N003110090019N0112651N1+00101-00901999999ADDGA1071+009009999GF107991999999999999999999MA1101291999999MW1001REMMET06247517 0000Z 27006KT 9999 BKN030 01/M09 Q1013 RMK 5CU030 A2992;EQDQ01+000000PRSWM2
0178475170999992000031403004+41230+141150FM-15+001099999V0202501N004610090019N0112651N1+00101-00701999999ADDGA1071+009009999GF107991999999999999999999MA1101191999999MW1851REMMET06847517 0300Z 25009KT 9999 -SHSN BKN030 01/M07 Q1012 RMK 7CU030 A2989;EQDQ01+000003PRSWM1Q02    003PRSWM1
0208475170999992000031406004+41230+141150FM-15+001099999V0202901N002610090019N0112651N1+00101-00801999999ADDGA1021+006009999GA2071+009009999GF107991999999999999999999MA1101191999999MW1851REMMET08247517 0600Z 29005KT 9999 -SHSN FEW020 BKN030 01/M08 Q1012 RMK 1CU020 7CU030 A2989;EQDQ01+000003PRSWM1Q02    003PRSWM1
0179475170999992000031500004+41230+141150FM-15+001099999V0201701N002110090019N0112651N1+00101-00401999999ADDGA1071+009009999GA2071+060009999GF107991999999999999999999MA1101591999999MW1001REMMET06947517 0000Z 17004KT 9999 BKN030 BKN200 01/M04 Q1016 RMK 5CU030 A3002;EQDQ01+000000PRSWM2
0167475170999992000031503004+41230+141150FM-15+001099999V0202501N005110090019N0112651N1+00301-00501999999ADDGA1071+009009999GF107991999999999999999999MA1101491999999MW1001OC101031REMMET06547517 0300Z 25010G20KT 9999 BKN030 03/M05 Q1015 RMK 7CU030 A3000;EQDQ01+000000PRSWM2
0208475170999992000031506004+41230+141150FM-15+001099999V0202501N004610090019N0112651N1+00301-00501999999ADDGA1021+006009999GA2071+009009999GF107991999999999999999999MA1101491999999MW1851REMMET08247517 0600Z 25009KT 9999 -SHSN SCT020 BKN030 03/M05 Q1015 RMK 3CU020 7CU030 A2999;EQDQ01+000003PRSWM1Q02    003PRSWM1
0186475170999992000031600004+41230+141150FM-15+001099999V0202701N001010360019N0112651N1+00301-00201999999ADDGA1021+009009999GA2071+036009999GF107991999999999999999999MA1101021999999MW1001REMMET07647517 0000Z 27002KT 9999 FEW030 BKN120 03/M02 Q1010 RMK 1CU030 7AC120 A2985;EQDQ01+000000PRSWM2
0205475170999992000031606004+41230+141150FM-15+001099999V0200801N003610024019N0040001N1+00101+00001999999ADDGA1071+002409999GA2071+004509999GF107991999999999999999999MA1100201999999MW1711REMMET07947517 0600Z 08007KT 4000 -SN BKN008 BKN015 01/00 Q1002 RMK 5ST008 7ST015 A2962;EQDQ01+000003PRSWM1Q02    003PRSWM1
0179475170999992000031700004+41230+141150FM-15+001099999V0203601N001510600019N0112651N1+00301-00201999999ADDGA1021+009009999GA2071+060009999GF107991999999999999999999MA1100201999999MW1001REMMET06947517 0000Z 36003KT 9999 FEW030 BKN200 03/M02 Q1002 RMK 2CU030 A2959;EQDQ01+000000PRSWM2
0179475170999992000031703004+41230+141150FM-15+001099999V0203601N001010600019N0112651N1+00401-00401999999ADDGA1021+009009999GA2071+060009999GF107991999999999999999999MA1100311999999MW1001REMMET06947517 0300Z 36002KT 9999 FEW030 BKN200 04/M04 Q1003 RMK 2CU030 A2963;EQDQ01+000000PRSWM2
0231475170999992000031706004+41230+141150FM-15+001099999V0200101N001510075019N0112651N1+00401-00301999999ADDGA1021+004509999GA2071+007509999GA3071+060009999GF107991999999999999999999MA1100511999999MW1851REMMET08947517 0600Z 01003KT 9999 -SHSN FEW015 BKN025 BKN200 04/M03 Q1005 RMK 2CU015 5CU025 A2969;EQDQ01+000003PRSWM1Q02    003PRSWM1
0208475170999992000031800004+41230+141150FM-15+001099999V0202401N003610075019N0112651N1+00201-00201999999ADDGA1021+003009999GA2071+007509999GF107991999999999999999999MA1101691999999MW1851REMMET08247517 0000Z 24007KT 9999 -SHSN FEW010 BKN025 02/M02 Q1017 RMK 1ST010 6CU025 A3004;EQDQ01+000003PRSWM1Q02    003PRSWM1
0156475170999992000031803004+41230+141150FM-15+001099999V0202001N002612200019N0112651N1+00401-00301999999ADDGA1021+009009999GF104991999999999999999999MA1101491999999MW1001REMMET06247517 0300Z 20005KT 9999 SCT030 04/M03 Q1015 RMK 3CU030 A2999;EQDQ01+000000PRSWM2
0245475170999992000031806004+41230+141150FM-15+001099999V0202501N002610045019N0080001N1+00201+00101999999ADDGA1021+001509999GA2071+004509999GA3071+006009999GF107991999999999999999999MA1101191999999MW1801MW2851REMMET09747517 0600Z 25005KT 8000 -SHRASN SCT005 BKN015 BKN020 02/01 Q1012 RMK 3ST005 7ST015 7CU020 A2989;EQDQ01+000003PRSWM1Q02    003PRSWM1
0179475170999992000031900004+41230+141150FM-15+001099999V0201101N002110600019N0112651N1+00301-00101999999ADDGA1021+007509999GA2071+060009999GF107991999999999999999999MA1101081999999MW1001REMMET06947517 0000Z 11004KT 9999 FEW025 BKN200 03/M01 Q1011 RMK 1CU025 A2987;EQDQ01+000000PRSWM2
0207475170999992000032000004+41230+141150FM-15+001099999V0200301N002110075019N0070001N1+00101+00001999999ADDGA1021+003009999GA2071+007509999GF107991999999999999999999MA1101021999999MW1851REMMET08147517 0000Z 03004KT 7000 -SHSN FEW010 BKN025 01/00 Q1010 RMK 2ST010 7CU025 A2984;EQDQ01+000003PRSWM1Q02    003PRSWM1
0207475170999992000032003004+41230+141150FM-15+001099999V0200401N002610060019N0020001N1+00101+00001999999ADDGA1021+003009999GA2081+006009999GF108991999999999999999999MA1101021999999MW1851REMMET08147517 0300Z 04005KT 2000 -SHSN SCT010 OVC020 01/00 Q1010 RMK 3ST010 8CU020 A2985;EQDQ01+000003PRSWM1Q02    003PRSWM1
0156475170999992000032100004+41230+141150FM-15+001099999V0200401N001512200019N0112651N1+00201-00601999999ADDGA1021+007509999GF102991999999999999999999MA1101801999999MW1001REMMET06247517 0000Z 04003KT 9999 FEW025 02/M06 Q1018 RMK 1CU025 A3007;EQDQ01+000000PRSWM2
0156475170999992000032103004+41230+141150FM-15+001099999V0201701N003610090019N0112651N1+00201-00401999999ADDGA1071+009009999GF107991999999999999999999MA1101591999999MW1001REMMET06247517 0300Z 17007KT 9999 BKN030 02/M04 Q1016 RMK 6CU030 A3003;EQDQ01+000000PRSWM2
0201475170999992000032106004+41230+141150FM-15+001099999V0203301N001510075019N0112651N1+00201-00201999999ADDGA1071+007509999GA2071+060009999GF107991999999999999999999MA1101491999999MW1851REMMET07547517 0600Z 33003KT 9999 -SHSN BKN025 BKN200 02/M02 Q1015 RMK 6CU025 A2998;EQDQ01+000003PRSWM1Q02    003PRSWM1
0186475170999992000032200004+41230+141150FM-15+001099999V0200401N002610300019N0112651N1+00001-00501999999ADDGA1021+009009999GA2071+030009999GF107991999999999999999999MA1101801999999MW1001REMMET07647517 0000Z 04005KT 9999 SCT030 BKN100 00/M05 Q1018 RMK 3CU030 6AC100 A3007;EQDQ01+000000PRSWM2
0156475170999992000032203004+41230+141150FM-15+001099999V0200601N003112200019N0112651N1+00301-00501999999ADDGA1021+009009999GF104991999999999999999999MA1101901999999MW1001REMMET06247517 0300Z 06006KT 9999 SCT030 03/M05 Q1019 RMK 3CU030 A3010;EQDQ01+000000PRSWM2
0156475170999992000032206004+41230+141150FM-15+001099999V0202101N002610090019N0112651N1+00201-00601999999ADDGA1071+009009999GF107991999999999999999999MA1101901999999MW1001REMMET06247517 0600Z 21005KT 9999 BKN030 02/M06 Q1019 RMK 6CU030 A3011;EQDQ01+000000PRSWM2
0186475170999992000032300004+41230+141150FM-15+001099999V0200301N000510120019N0112651N1+00101-00301999999ADDGA1021+009009999GA2081+012009999GF108991999999999999999999MA1102301999999MW1001REMMET07647517 0000Z 03001KT 9999 SCT030 OVC040 01/M03 Q1023 RMK 3CU030 8SC040 A3022;EQDQ01+000000PRSWM2
0185475170999992000032403004+41230+141150FM-15+001099999V0202301N002110090019N0112651N1+00601+00301999999ADDGA1071+009009999GA2071+024009999GF107991999999999999999999MA1099091999999MW1001REMMET07547517 0300Z 23004KT 9999 BKN030 BKN080 06/03 Q0991 RMK 5CU030 7AC080 A2927;EQDQ01+000000PRSWM2
0167475170999992000032406004+41230+141150FM-15+001099999V0202601N005112200019N0112651N1+00701+00001999999ADDGA1021+009009999GF104991999999999999999999MA1098981999999MW1001OC101131REMMET06547517 0600Z 26010G22KT 9999 SCT030 07/M00 Q0990 RMK 3CU030 A2926;EQDQ01+000000PRSWM2
0219475170999992000032500004+41230+141150FM-15+001099999V0202601N007710090019N0112651N1+00301-00301999999ADDGA1021+006009999GA2071+009009999GF107991999999999999999999MA1099491999999MW1851OC101591REMMET08547517 0000Z 26015G31KT 9999 -SHSN FEW020 BKN030 03/M03 Q0995 RMK 2CU020 6CU030 A2940;EQDQ01+000003PRSWM1Q02    003PRSWM1
0219475170999992000032503004+41230+141150FM-15+001099999V0202501N007210090019N0112651N1+00301-00301999999ADDGA1021+006009999GA2071+009009999GF107991999999999999999999MA1099491999999MW1851OC101341REMMET08547517 0300Z 25014G26KT 9999 -SHSN FEW020 BKN030 03/M03 Q0995 RMK 2CU020 7CU030 A2940;EQDQ01+000003PRSWM1Q02    003PRSWM1
0249475170999992000032506004+41230+141150FM-15+001099999V0202501N006710060019N0030001N1+00101-00101999999ADDGA1021+003009999GA2071+006009999GA3071+009009999GF107991999999999999999999MA1099491999999MW1851OC101701REMMET09947517 0600Z 25013G33KT 3000 -SHSN SCT010 BKN020 BKN030 01/M01 Q0995 RMK 3CU010 5CU020 7CU030 A2941;EQDQ01+000003PRSWM1Q02    003PRSWM1
0178475170999992000032606004+41230+141150FM-15+001099999V0202501N004610090019N0070001N1+00001-00601999999ADDGA1071+009009999GF107991999999999999999999MA1100001999999MW1851REMMET06847517 0600Z 25009KT 7000 -SHSN BKN030 00/M06 Q1000 RMK 7CU030 A2955;EQDQ01+000003PRSWM1Q02    003PRSWM1
0208475170999992000032700004+41230+141150FM-15+001099999V0202501N004610090019N0070001N1+00101-00501999999ADDGA1021+004509999GA2071+009009999GF107991999999999999999999MA1101081999999MW1851REMMET08247517 0000Z 25009KT 7000 -SHSN SCT015 BKN030 01/M05 Q1011 RMK 3CU015 7CU030 A2988;EQDQ01+000003PRSWM1Q02    003PRSWM1
0219475170999992000032703004+41230+141150FM-15+001099999V0202601N006210075019N0112651N1+00201-00501999999ADDGA1021+004509999GA2071+007509999GF107991999999999999999999MA1101291999999MW1851OC101131REMMET08547517 0300Z 26012G22KT 9999 -SHSN FEW015 BKN025 02/M05 Q1013 RMK 2CU015 7CU025 A2992;EQDQ01+000003PRSWM1Q02    003PRSWM1
0186475170999992000032706004+41230+141150FM-15+001099999V0202501N003110075019N0112651N1+00301-00601999999ADDGA1021+004509999GA2071+007509999GF107991999999999999999999MA1101391999999MW1001REMMET07647517 0600Z 25006KT 9999 FEW015 BKN025 03/M06 Q1014 RMK 1CU015 7CU025 A2995;EQDQ01+000000PRSWM2
0179475170999992000032800004+41230+141150FM-15+001099999V0200601N001510300019N0112651N1+00301-00401999999ADDGA1071+030009999GA2071+060009999GF107991999999999999999999MA1102001999999MW1001REMMET06947517 0000Z 06003KT 9999 BKN100 BKN200 03/M04 Q1020 RMK 5AC100 A3013;EQDQ01+000000PRSWM2
0179475170999992000032803004+41230+141150FM-15+001099999V0200601N001010600019N0112651N1+00601-00101999999ADDGA1021+012009999GA2071+060009999GF107991999999999999999999MA1101901999999MW1001REMMET06947517 0300Z 06002KT 9999 FEW040 BKN200 06/M01 Q1019 RMK 1SC040 A3010;EQDQ01+000000PRSWM2
0178475170999992000032806004+41230+141150FM-15+001099999V0200901N003110600019N0112651N1+00601+00101999999ADDGA1021+006009999GA2071+060009999GF107991999999999999999999MA1101691999999MW1001REMMET06847517 0600Z 09006KT 9999 FEW020 BKN200 06/01 Q1017 RMK 1CU020 A3004;EQDQ01+000000PRSWM2
0237475170999992000032900004+41230+141150FM-15+001099999V0202401N002110030019N0060001N1+00701+00701999999ADDGA1021+001809999GA2071+003009999GA3071+007509999GF107991999999999999999999MA1099701999999MW1801REMMET09547517 0000Z 24004KT 6000 -SHRA FEW006 BKN010 BKN025 07/07 Q0997 RMK 2ST006 5ST010 7CU025 A2945;EQDQ01+000003PRSWM1Q02    003PRSWM1
0215475170999992000032903004+41230+141150FM-15+001099999V0202601N002610075019N0112651N1+00901+00701999999ADDGA1021+003009999GA2071+007509999GA3071+024009999GF107991999999999999999999MA1099391999999MW1001REMMET08947517 0300Z 26005KT 9999 FEW010 BKN025 BKN080 09/07 Q0994 RMK 2ST010 6CU025 7AC080 A2936;EQDQ01+000000PRSWM2
0185475170999992000032906004+41230+141150FM-15+001099999V0202101N001510090019N0112651N1+00801+00701999999ADDGA1021+004509999GA2071+009009999GF107991999999999999999999MA1099091999999MW1001REMMET07547517 0600Z 21003KT 9999 FEW015 BKN030 08/07 Q0991 RMK 2CU015 7CU030 A2929;EQDQ01+000000PRSWM2
0156475170999992000033000004+41230+141150FM-15+001099999V0202601N004110090019N0112651N1+00601-00101999999ADDGA1071+009009999GF107991999999999999999999MA1099591999999MW1001REMMET06247517 0000Z 26008KT 9999 BKN030 06/M01 Q0996 RMK 6CU030 A2944;EQDQ01+000000PRSWM2
0245475170999992000033003004+41230+141150FM-15+001099999V0202401N004610060019N0112651N1+00301+00001999999ADDGA1021+003009999GA2071+006009999GA3081+009009999GF108991999999999999999999MA1099701999999MW1801MW2851REMMET09747517 0300Z 24009KT 9999 -SHSNRA FEW010 BKN020 OVC030 03/00 Q0997 RMK 2ST010 6CU020 8CU030 A2945;EQDQ01+000003PRSWM1Q02    003PRSWM1
0167475170999992000033006004+41230+141150FM-15+001099999V0202401N009312200019N0112651N1+00501-00401999999ADDGA1021+009009999GF102991999999999999999999MA1099801999999MW1001OC101951REMMET06547517 0600Z 24018G38KT 9999 FEW030 05/M04 Q0998 RMK 2CU030 A2948;EQDQ01+000000PRSWM2
0155475170999992000033100004+41230+141150FM-15+001099999V0202401N006212200019N0112651N1+01001+00201999999ADDGA1021+009009999GF102991999999999999999999MA1100411999999MW1001REMMET06147517 0000Z 24012KT 9999 FEW030 10/02 Q1004 RMK 2CU030 A2966;EQDQ01+000000PRSWM2
0155475170999992000033103004+41230+141150FM-15+001099999V0202101N006212200019N0112651N1+01001+00201999999ADDGA1021+009009999GF102991999999999999999999MA1100201999999MW1001REMMET06147517 0300Z 21012KT 9999 FEW030 10/02 Q1002 RMK 1CU030 A2961;EQDQ01+000000PRSWM2
0186475170999992000033106004+41230+141150FM-15+001099999V0202601N004110240019N0112651N1+01001-00101999999ADDGA1021+009009999GA2071+024009999GF107991999999999999999999MA1100101999999MW1001REMMET07647517 0600Z 26008KT 9999 SCT030 BKN080 10/M01 Q1001 RMK 3CU030 5AC080 A2957;EQDQ01+000000PRSWM2
0218475170999992000040100004+41230+141150FM-15+001099999V0202601N006210075019N0060001N1+00401+00101999999ADDGA1021+004509999GA2071+007509999GF107991999999999999999999MA1099901999999MW1801OC101651REMMET08447517 0000Z 26012G32KT 6000 -SHRA SCT015 BKN025 04/01 Q0999 RMK 3ST015 7CU025 A2950;EQDQ01+000003PRSWM1Q02    003PRSWM1
0218475170999992000040103004+41230+141150FM-15+001099999V0202701N005710075019N0050001N1+00501+00001999999ADDGA1021+003009999GA2071+007509999GF107991999999999999999999MA1100201999999MW1801OC101291REMMET08447517 0300Z 27011G25KT 5000 -SHRA SCT010 BKN025 05/00 Q1002 RMK 4ST010 7CU025 A2959;EQDQ01+000003PRSWM1Q02    003PRSWM1
0156475170999992000040106004+41230+141150FM-15+001099999V0202501N004612200019N0112651N1+00701-00101999999ADDGA1021+009009999GF104991999999999999999999MA1100411999999MW1001REMMET06247517 0600Z 25009KT 9999 SCT030 07/M01 Q1004 RMK 4CU030 A2967;EQDQ01+000000PRSWM2
0155475170999992000040200004+41230+141150FM-15+001099999V0202601N004110090019N0112651N1+00701+00401999999ADDGA1071+009009999GF107991999999999999999999MA1101591999999MW1001REMMET06147517 0000Z 26008KT 9999 BKN030 07/04 Q1016 RMK 5CU030 A3000;EQDQ01+000000PRSWM2
0167475170999992000040203004+41230+141150FM-15+001099999V0202401N008710090019N0112651N1+00701-00501999999ADDGA1071+009009999GF107991999999999999999999MA1101591999999MW1001OC101651REMMET06547517 0300Z 24017G32KT 9999 BKN030 07/M05 Q1016 RMK 6CU030 A3002;EQDQ01+000000PRSWM2
0167475170999992000040206004+41230+141150FM-15+001099999V0202401N006212200019N0112651N1+00601-00801999999ADDGA1021+009009999GF102991999999999999999999MA1101691999999MW1001OC101231REMMET06547517 0600Z 24012G24KT 9999 FEW030 06/M08 Q1017 RMK 1CU030 A3005;EQDQ01+000000PRSWM2
0156475170999992000040300004+41230+141150FM-15+001099999V0202501N004612200019N0112651N1+00801-00701999999ADDGA1021+009009999GF102991999999999999999999MA1102101999999MW1001REMMET06247517 0000Z 25009KT 9999 FEW030 08/M07 Q1021 RMK 1CU030 A3015;EQDQ01+000000PRSWM2
0130475170999992000040303004+41230+141150FM-15+001099999V0202701N003112200019N0112651N1+01001-00601999999ADDGF100991999999999999999999MA1102001999999MW1001REMMET05247517 0300Z 27006KT 9999 SKC 10/M06 Q1020 RMK A3013;EQDQ01+000000PRSWM2
0130475170999992000040306004+41230+141150FM-15+001099999V0202401N004112200019N0112651N1+01001-00701999999ADDGF100991999999999999999999MA1101901999999MW1001REMMET05247517 0600Z 24008KT 9999 SKC 10/M07 Q1019 RMK A3012;EQDQ01+000000PRSWM2
0129475170999992000040400004+41230+141150FM-15+001099999V0202001N002612200019N0112651N1+00501+00201999999ADDGF100991999999999999999999MA1102301999999MW1001REMMET05147517 0000Z 20005KT 9999 SKC 05/02 Q1023 RMK A3022;EQDQ01+000000PRSWM2
0130475170999992000040403004+41230+141150FM-15+001099999V0201901N002612200019N0112651N1+00901-00101999999ADDGF100991999999999999999999MA1102201999999MW1001REMMET05247517 0300Z 19005KT 9999 SKC 09/M01 Q1022 RMK A3019;EQDQ01+000000PRSWM2
0149475170999992000040406004+41230+141150FM-15+001099999V0201901N001512200019N0112651N1+01201-00201999999ADDGA1021+060009999GF102991999999999999999999MA1102001999999MW1001REMMET05547517 0600Z 19003KT 9999 FEW200 12/M02 Q1020 RMK A3012;EQDQ01+000000PRSWM2
0235475170999992000040506004+41230+141150FM-15+001099999V0203201N001010075019N0080001N1+01001+00801999999ADDGA1021+004509999GA2071+007509999GA3081+024009999GF108991999999999999999999MA1100711999999MW1611REMMET09347517 0600Z 32002KT 8000 -RA SCT015 BKN025 OVC080 10/08 Q1007 RMK 3ST015 6SC025 8AS080 A2976;EQDQ01+000003PRSWM1Q02    003PRSWM1
0186475170999992000040600004+41230+141150FM-15+001099999V0202501N003610090019N0112651N1+00601+00001999999ADDGA1021+004509999GA2071+009009999GF107991999999999999999999MA1100611999999MW1001REMMET07647517 0000Z 25007KT 9999 FEW015 BKN030 06/M00 Q1006 RMK 1CU015 6CU030 A2971;EQDQ01+000000PRSWM2
0156475170999992000040603004+41230+141150FM-15+001099999V0202601N004610090019N0112651N1+00601-00201999999ADDGA1071+009009999GF107991999999999999999999MA1100811999999MW1001REMMET06247517 0300Z 26009KT 9999 BKN030 06/M02 Q1008 RMK 6CU030 A2977;EQDQ01+000000PRSWM2
0167475170999992000040606004+41230+141150FM-15+001099999V0202501N007710090019N0112651N1+00701-00501999999ADDGA1071+009009999GF107991999999999999999999MA1100911999999MW1001OC101751REMMET06547517 0600Z 25015G34KT 9999 BKN030 07/M05 Q1009 RMK 5CU030 A2981;EQDQ01+000000PRSWM2
0149475170999992000040700004+41230+141150FM-15+001099999V0202201N002112200019N0112651N1+00801-00201999999ADDGA1021+060009999GF102991999999999999999999MA1101801999999MW1001REMMET05547517 0000Z 22004KT 9999 FEW200 08/M02 Q1018 RMK A3008;EQDQ01+000000PRSWM2
0149475170999992000040703004+41230+141150FM-15+001099999V0202001N002112200019N0112651N1+01101+00001999999ADDGA1021+060009999GF102991999999999999999999MA1101491999999MW1001REMMET05547517 0300Z 20004KT 9999 FEW200 11/M00 Q1015 RMK A2999;EQDQ01+000000PRSWM2
0149475170999992000040706004+41230+141150FM-15+001099999V0201801N002112200019N0112651N1+01501+00001999999ADDGA1021+060009999GF102991999999999999999999MA1101081999999MW1001REMMET05547517 0600Z 18004KT 9999 FEW200 15/M00 Q1011 RMK A2987;EQDQ01+000000PRSWM2
0166475170999992000040800004+41230+141150FM-15+001099999V0202501N007210090019N0112651N1+00901+00101999999ADDGA1071+009009999GF107991999999999999999999MA1100911999999MW1001OC101291REMMET06447517 0000Z 25014G25KT 9999 BKN030 09/01 Q1009 RMK 6CU030 A2982;EQDQ01+000000PRSWM2
0166475170999992000040803004+41230+141150FM-15+001099999V0202501N005110090019N0112651N1+00901+00101999999ADDGA1071+009009999GF107991999999999999999999MA1101081999999MW1001OC101181REMMET06447517 0300Z 25010G23KT 9999 BKN030 09/01 Q1011 RMK 6CU030 A2987;EQDQ01+000000PRSWM2
0167475170999992000040806004+41230+141150FM-15+001099999V0202401N005110090019N0112651N1+00801-00201999999ADDGA1071+009009999GF107991999999999999999999MA1101391999999MW1001OC101031REMMET06547517 0600Z 24010G20KT 9999 BKN030 08/M02 Q1014 RMK 5CU030 A2994;EQDQ01+000000PRSWM2
0155475170999992000040900004+41230+141150FM-15+001099999V0202001N004112200019N0112651N1+00801+00101999999ADDGA1021+009009999GF104991999999999999999999MA1102301999999MW1001REMMET06147517 0000Z 20008KT 9999 SCT030 08/01 Q1023 RMK 3CU030 A3022;EQDQ01+000000PRSWM2
0155475170999992000040903004+41230+141150FM-15+001099999V0201901N003112200019N0112651N1+00901+00101999999ADDGA1021+009009999GF102991999999999999999999MA1102201999999MW1001REMMET06147517 0300Z 19006KT 9999 FEW030 09/01 Q1022 RMK 1CU030 A3020;EQDQ01+000000PRSWM2
0156475170999992000040906004+41230+141150FM-15+001099999V0202001N004112200019N0112651N1+01101-00101999999ADDGA1021+009009999GF102991999999999999999999MA1102101999999MW1001REMMET06247517 0600Z 20008KT 9999 FEW030 11/M01 Q1021 RMK 1CU030 A3018;EQDQ01+000000PRSWM2
0178475170999992000041000004+41230+141150FM-15+001099999V0202401N002610660019N0112651N1+01401+00301999999ADDGA1021+024009999GA2071+066009999GF107991999999999999999999MA1101391999999MW1001REMMET06847517 0000Z 24005KT 9999 FEW080 BKN220 14/03 Q1014 RMK 2AC080 A2996;EQDQ01+000000PRSWM2
0186475170999992000041100004+41230+141150FM-15+001099999V0202501N005110090019N0112651N1+00501-00301999999ADDGA1071+009009999GA2071+024009999GF107991999999999999999999MA1100001999999MW1001REMMET07647517 0000Z 25010KT 9999 BKN030 BKN080 05/M03 Q1000 RMK 6CU030 7AC080 A2955;EQDQ01+000000PRSWM2
0237475170999992000041200004+41230+141150FM-15+001099999V0202301N005110045019N0112651N1+00401+00201999999ADDGA1021+003009999GA2071+004509999GA3071+009009999GF107991999999999999999999MA1099591999999MW1801REMMET09547517 0000Z 23010KT 9999 -SHRA FEW010 BKN015 BKN030 04/02 Q0996 RMK 2ST010 5CU015 7CU030 A2943;EQDQ01+000003PRSWM1Q02    003PRSWM1
0215475170999992000041206004+41230+141150FM-15+001099999V0202301N003610090019N0112651N1+00601+00201999999ADDGA1021+003009999GA2021+006009999GA3071+009009999GF107991999999999999999999MA1099591999999MW1001REMMET08947517 0600Z 23007KT 9999 FEW010 SCT020 BKN030 06/02 Q0996 RMK 1ST010 4CU020 7CU030 A2942;EQDQ01+000000PRSWM2
0185475170999992000041300004+41230+141150FM-15+001099999V0202401N005110240019N0112651N1+01001+00201999999ADDGA1021+009009999GA2071+024009999GF107991999999999999999999MA1100511999999MW1001REMMET07547517 0000Z 24010KT 9999 FEW030 BKN080 10/02 Q1005 RMK 1CU030 5AC080 A2969;EQDQ01+000000PRSWM2
0155475170999992000041303004+41230+141150FM-15+001099999V0202301N005712200019N0112651N1+01301+00001999999ADDGA1021+009009999GF104991999999999999999999MA1100511999999MW1001REMMET06147517 0300Z 23011KT 9999 SCT030 13/00 Q1005 RMK 3CU030 A2968;EQDQ01+000000PRSWM2
0156475170999992000041306004+41230+141150FM-15+001099999V0202301N004612200019N0112651N1+01401-00101999999ADDGA1021+009009999GF102991999999999999999999MA1100511999999MW1001REMMET06247517 0600Z 23009KT 9999 FEW030 14/M01 Q1005 RMK 1CU030 A2969;EQDQ01+000000PRSWM2
0215475170999992000041400004+41230+141150FM-15+001099999V0200501N003610120019N0112651N1+00901+00501999999ADDGA1021+006009999GA2071+012009999GA3071+024009999GF107991999999999999999999MA1100411999999MW1001REMMET08947517 0000Z 05007KT 9999 FEW020 BKN040 BKN080 09/05 Q1004 RMK 1CU020 5SC040 7AC080 A2966;EQDQ01+000000PRSWM2
0235475170999992000041403004+41230+141150FM-15+001099999V0201901N000510120019N0060001N1+00801+00701999999ADDGA1021+006009999GA2071+012009999GA3081+024009999GF108991999999999999999999MA1100311999999MW1611REMMET09347517 0300Z 19001KT 6000 -RA FEW020 BKN040 OVC080 08/07 Q1003 RMK 2CU020 6SC040 8AS080 A2964;EQDQ01+000003PRSWM1Q02    003PRSWM1
0215475170999992000041406004+41230+141150FM-15+001099999V0200401N003110060019N0112651N1+00801+00601999999ADDGA1021+003009999GA2071+006009999GA3071+024009999GF107991999999999999999999MA1100411999999MW1001REMMET08947517 0600Z 04006KT 9999 FEW010 BKN020 BKN080 08/06 Q1004 RMK 2ST010 5CU020 7AC080 A2965;EQDQ01+000000PRSWM2
0155475170999992000041500004+41230+141150FM-15+001099999V0202501N003610090019N0112651N1+00901+00201999999ADDGA1071+009009999GF107991999999999999999999MA1101021999999MW1001REMMET06147517 0000Z 25007KT 9999 BKN030 09/02 Q1010 RMK 7CU030 A2984;EQDQ01+000000PRSWM2
0185475170999992000041503004+41230+141150FM-15+001099999V0202601N003110090019N0112651N1+00901+00101999999ADDGA1021+006009999GA2071+009009999GF107991999999999999999999MA1100911999999MW1001REMMET07547517 0300Z 26006KT 9999 SCT020 BKN030 09/01 Q1009 RMK 3CU020 7CU030 A2981;EQDQ01+000000PRSWM2
0178475170999992000041506004+41230+141150FM-15+001099999V0202601N003610600019N0112651N1+00901+00101999999ADDGA1021+009009999GA2071+060009999GF107991999999999999999999MA1100811999999MW1001REMMET06847517 0600Z 26007KT 9999 FEW030 BKN200 09/01 Q1008 RMK 2CU030 A2978;EQDQ01+000000PRSWM2
0185475170999992000041600004+41230+141150FM-15+001099999V0201101N002110090019N0112651N1+00701+00201999999ADDGA1021+004509999GA2071+009009999GF107991999999999999999999MA1100411999999MW1001REMMET07547517 0000Z 11004KT 9999 FEW015 BKN030 07/02 Q1004 RMK 1CU015 6CU030 A2968;EQDQ01+000000PRSWM2
0186475170999992000041603004+41230+141150FM-15+001099999V0202801N002610090019N0112651N1+00901-00101999999ADDGA1021+006009999GA2071+009009999GF107991999999999999999999MA1100311999999MW1001REMMET07647517 0300Z 28005KT 9999 FEW020 BKN030 09/M01 Q1003 RMK 1CU020 7CU030 A2964;EQDQ01+000000PRSWM2
0156475170999992000041606004+41230+141150FM-15+001099999V0202701N004110090019N0112651N1+00801-00201999999ADDGA1071+009009999GF107991999999999999999999MA1100311999999MW1001REMMET06247517 0600Z 27008KT 9999 BKN030 08/M02 Q1003 RMK 7CU030 A2962;EQDQ01+000000PRSWM2
0237475170999992000041700004+41230+141150FM-15+001099999V0202501N003110060019N0112651N1+00501+00201999999ADDGA1021+004509999GA2071+006009999GA3071+009009999GF107991999999999999999999MA1101021999999MW1801REMMET09547517 0000Z 25006KT 9999 -SHRA FEW015 BKN020 BKN030 05/02 Q1010 RMK 2ST015 6CU020 7CU030 A2983;EQDQ01+000003PRSWM1Q02    003PRSWM1
0207475170999992000041703004+41230+141150FM-15+001099999V0202301N004110075019N0112651N1+00701+00301999999ADDGA1021+004509999GA2071+007509999GF107991999999999999999999MA1101021999999MW1801REMMET08147517 0300Z 23008KT 9999 -SHRA SCT015 BKN025 07/03 Q1010 RMK 3CU015 7CU025 A2984;EQDQ01+000003PRSWM1Q02    003PRSWM1
0207475170999992000041706004+41230+141150FM-15+001099999V0202401N003110075019N0112651N1+00501+00201999999ADDGA1021+004509999GA2071+007509999GF107991999999999999999999MA1101081999999MW1801REMMET08147517 0600Z 24006KT 9999 -SHRA FEW015 BKN025 05/02 Q1011 RMK 2CU015 7CU025 A2986;EQDQ01+000003PRSWM1Q02    003PRSWM1
0155475170999992000041800004+41230+141150FM-15+001099999V0202501N002110090019N0112651N1+00701+00101999999ADDGA1071+009009999GF107991999999999999999999MA1101491999999MW1001REMMET06147517 0000Z 25004KT 9999 BKN030 07/01 Q1015 RMK 6CU030 A3000;EQDQ01+000000PRSWM2
0155475170999992000041803004+41230+141150FM-15+001099999V0202601N002612200019N0112651N1+01001+00201999999ADDGA1021+009009999GF104991999999999999999999MA1101491999999MW1001REMMET06147517 0300Z 26005KT 9999 SCT030 10/02 Q1015 RMK 3CU030 A2998;EQDQ01+000000PRSWM2
0200475170999992000041806004+41230+141150FM-15+001099999V0202401N003610090019N0112651N1+01001+00201999999ADDGA1071+009009999GA2071+060009999GF107991999999999999999999MA1101391999999MW1801REMMET07447517 0600Z 24007KT 9999 -SHRA BKN030 BKN200 10/02 Q1014 RMK 5CU030 A2997;EQDQ01+000003PRSWM1Q02    003PRSWM1
0157475170999992000041900004+41230+141150FM-15+001099999V0201701N002612200019N0112651N1+00901+00201999999ADDGA1021+009009999GF102991999999999999999999MA1101591999999MW1001REMMET06347517 190000Z 17005KT 9999 FEW030 09/02 Q1016 RMK 2CU030 A3001;EQDQ01+000000PRSWM2
0157475170999992000041903004+41230+141150FM-15+001099999V0201801N002112200019N0112651N1+01101+00201999999ADDGA1021+009009999GF102991999999999999999999MA1101591999999MW1001REMMET06347517 190300Z 18004KT 9999 FEW030 11/02 Q1016 RMK 1CU030 A3002;EQDQ01+000000PRSWM2
0157475170999992000041906004+41230+141150FM-15+001099999V0201701N002112200019N0112651N1+01101+00101999999ADDGA1021+009009999GF102991999999999999999999MA1101591999999MW1001REMMET06347517 190600Z 17004KT 9999 FEW030 11/01 Q1016 RMK 1CU030 A3002;EQDQ01+000000PRSWM2
0157475170999992000042003004+41230+141150FM-15+001099999V0201201N003610060019N0112651N1+00701+00301999999ADDGA1071+006009999GF107991999999999999999999MA1102001999999MW1001REMMET06347517 200300Z 12007KT 9999 BKN020 07/03 Q1020 RMK 7CU020 A3015;EQDQ01+000000PRSWM2
0187475170999992000042006004+41230+141150FM-15+001099999V0201401N003110060019N0112651N1+00701+00301999999ADDGA1021+004509999GA2071+006009999GF107991999999999999999999MA1102001999999MW1001REMMET07747517 200600Z 14006KT 9999 SCT015 BKN020 07/03 Q1020 RMK 3CU015 7CU020 A3013;EQDQ01+000000PRSWM2
0217475170999992000042103004+41230+141150FM-15+001099999V0200601N002110045019N0112651N1+01101+00801999999ADDGA1021+002409999GA2071+004509999GA3071+007509999GF107991999999999999999999MA1101491999999MW1001REMMET09147517 210300Z 06004KT 9999 FEW008 BKN015 BKN025 11/08 Q1015 RMK 2ST008 5ST015 7SC025 A2999;EQDQ01+000000PRSWM2
0237475170999992000042106004+41230+141150FM-15+001099999V0203501N002110045019N0080001N1+01201+01001999999ADDGA1021+002409999GA2071+004509999GA3081+006009999GF108991999999999999999999MA1101191999999MW1611REMMET09547517 210600Z 35004KT 8000 -RA FEW008 BKN015 OVC020 12/10 Q1012 RMK 2ST008 6ST015 8SC020 A2991;EQDQ01+000003PRSWM1Q02    003PRSWM1
0237475170999992000042200004+41230+141150FM-15+001099999V0202201N002610030019N0112651N1+01101+01001999999ADDGA1021+001509999GA2071+003009999GA3081+006009999GF108991999999999999999999MA1099491999999MW1611REMMET09547517 220000Z 22005KT 9999 -RA FEW005 BKN010 OVC020 11/10 Q0995 RMK 2ST005 5ST010 8SC020 A2939;EQDQ01+000003PRSWM1Q02    003PRSWM1
0198475170999992000042203004+41230+141150FM-15+001099999V0202501N005710045019N0112651N1+01001+00801999999ADDGA1071+004509999GA2071+007509999GF107991999999999999999999MA1099591999999MW1001OC101181REMMET08047517 220300Z 25011G23KT 9999 BKN015 BKN025 10/08 Q0996 RMK 5ST015 7CU025 A2942;EQDQ01+000000PRSWM2
0239475170999992000042206004+41230+141150FM-15+001099999V0202401N004110060019N0112651N1+01101+00701999999ADDGA1021+003009999GA2021+004509999GA3071+006009999GF107991999999999999999999MA1099591999999MW1801REMMET09747517 220600Z 24008KT 9999 -SHRA FEW010 SCT015 BKN020 11/07 Q0996 RMK 1ST010 3ST015 7CU020 A2944;EQDQ01+000003PRSWM1Q02    003PRSWM1
0187475170999992000042300004+41230+141150FM-15+001099999V0201901N001510105019N0112651N1+01101+00601999999ADDGA1071+010509999GA2071+024009999GF107991999999999999999999MA1099701999999MW1001REMMET07747517 230000Z 19003KT 9999 BKN035 BKN080 11/06 Q0997 RMK 5CU035 7AC080 A2947;EQDQ01+000000PRSWM2
0198475170999992000042303004+41230+141150FM-15+001099999V0202301N005110090019N0112651N1+01201+00501999999ADDGA1071+009009999GA2071+024009999GF107991999999999999999999MA1099591999999MW1001OC101131REMMET08047517 230300Z 23010G22KT 9999 BKN030 BKN080 12/05 Q0996 RMK 5CU030 7AC080 A2941;EQDQ01+000000PRSWM2
0187475170999992000042306004+41230+141150FM-15+001099999V0202401N005110090019N0112651N1+01201+00201999999ADDGA1071+009009999GA2071+024009999GF107991999999999999999999MA1099491999999MW1001REMMET07747517 230600Z 24010KT 9999 BKN030 BKN080 12/02 Q0995 RMK 5CU030 6AC080 A2940;EQDQ01+000000PRSWM2
0179475170999992000042400004+41230+141150FM-15+001099999V0202401N002610075019N0112651N1+00701+00501999999ADDGA1071+007509999GF107991999999999999999999MA1100101999999MW1801REMMET06947517 240000Z 24005KT 9999 -SHRA BKN025 07/05 Q1001 RMK 7CU025 A2956;EQDQ01+000003PRSWM1Q02    003PRSWM1
0187475170999992000042403004+41230+141150FM-15+001099999V0202301N002610075019N0112651N1+00901+00501999999ADDGA1021+004509999GA2071+007509999GF107991999999999999999999MA1100101999999MW1001REMMET07747517 240300Z 23005KT 9999 FEW015 BKN025 09/05 Q1001 RMK 2CU015 7CU025 A2959;EQDQ01+000000PRSWM2
0217475170999992000042406004+41230+141150FM-15+001099999V0202401N003110075019N0112651N1+01001+00601999999ADDGA1021+004509999GA2071+007509999GA3071+030009999GF107991999999999999999999MA1100101999999MW1001REMMET09147517 240600Z 24006KT 9999 FEW015 BKN025 BKN100 10/06 Q1001 RMK 1CU015 6CU025 7AC100 A2957;EQDQ01+000000PRSWM2
0187475170999992000042500004+41230+141150FM-15+001099999V0201901N002112200019N0112651N1+00901+00701999999ADDGA1021+004509999GA2021+007509999GF104991999999999999999999MA1100311999999MW1001REMMET07747517 250000Z 19004KT 9999 FEW015 SCT025 09/07 Q1003 RMK 1CU015 3CU025 A2964;EQDQ01+000000PRSWM2
0198475170999992000042503004+41230+141150FM-15+001099999V0202601N005112200019N0112651N1+01201+00501999999ADDGA1021+007509999GA2021+024009999GF104991999999999999999999MA1100311999999MW1001OC101131REMMET08047517 250300Z 26010G22KT 9999 SCT025 SCT080 12/05 Q1003 RMK 3CU025 3AC080 A2964;EQDQ01+000000PRSWM2
0198475170999992000042506004+41230+141150FM-15+001099999V0202501N006710075019N0112651N1+00901+00401999999ADDGA1021+006009999GA2071+007509999GF107991999999999999999999MA1100511999999MW1001OC101491REMMET08047517 250600Z 25013G29KT 9999 FEW020 BKN025 09/04 Q1005 RMK 1CU020 7CU025 A2970;EQDQ01+000000PRSWM2
0180475170999992000042600004+41230+141150FM-15+001099999V0201701N002110600019N0112651N1+00901+00301999999ADDGA1021+009009999GA2071+060009999GF107991999999999999999999MA1101191999999MW1001REMMET07047517 260000Z 17004KT 9999 FEW030 BKN200 09/03 Q1012 RMK 2CU030 A2990;EQDQ01+000000PRSWM2
0180475170999992000042603004+41230+141150FM-15+001099999V0201701N001510600019N0112651N1+01101+00501999999ADDGA1021+009009999GA2071+060009999GF107991999999999999999999MA1101081999999MW1001REMMET07047517 260300Z 17003KT 9999 FEW030 BKN200 11/05 Q1011 RMK 2CU030 A2988;EQDQ01+000000PRSWM2
0150475170999992000042606004+41230+141150FM-15+001099999V0200501N002610600019N0112651N1+01201+00501999999ADDGA1071+060009999GF107991999999999999999999MA1101021999999MW1001REMMET05647517 260600Z 05005KT 9999 BKN200 12/05 Q1010 RMK A2983;EQDQ01+000000PRSWM2
0237475170999992000042700004+41230+141150FM-15+001099999V0200901N006710030019N0112651N1+00701+00501999999ADDGA1021+001509999GA2071+003009999GA3081+006009999GF108991999999999999999999MA1100511999999MW1611REMMET09547517 270000Z 09013KT 9999 -RA FEW005 BKN010 OVC020 07/05 Q1005 RMK 2ST005 5ST010 8SC020 A2971;EQDQ01+000003PRSWM1Q02    003PRSWM1
0239475170999992000042800004+41230+141150FM-15+001099999V0202501N001510090019N0112651N1+00701+00501999999ADDGA1021+003009999GA2071+009009999GA3071+024009999GF107991999999999999999999MA1099801999999MW1801REMMET09747517 280000Z 25003KT 9999 -SHRA FEW010 BKN030 BKN080 07/05 Q0998 RMK 2ST010 6CU030 7AC080 A2948;EQDQ01+000003PRSWM1Q02    003PRSWM1
0187475170999992000042803004+41230+141150FM-15+001099999V0200701N001510075019N0112651N1+00901+00601999999ADDGA1021+004509999GA2071+007509999GF107991999999999999999999MA1099701999999MW1001REMMET07747517 280300Z 07003KT 9999 FEW015 BKN025 09/06 Q0997 RMK 2ST015 7CU025 A2945;EQDQ01+000000PRSWM2
0187475170999992000042806004+41230+141150FM-15+001099999V0201001N000510075019N0112651N1+00901+00601999999ADDGA1021+006009999GA2071+007509999GF107991999999999999999999MA1099701999999MW1001REMMET07747517 280600Z 10001KT 9999 FEW020 BKN025 09/06 Q0997 RMK 1CU020 7CU025 A2945;EQDQ01+000000PRSWM2
0191475170999992000042900004+41230+141150FM-15+001099999V0202701N004610600019N0112651N1+00801+00101999999ADDGA1021+009009999GA2071+060009999GF107991999999999999999999MA1100711999999MW1001OC101031REMMET07347517 290000Z 27009G20KT 9999 FEW030 BKN200 08/01 Q1007 RMK 1CU030 A2976;EQDQ01+000000PRSWM2
0187475170999992000042903004+41230+141150FM-15+001099999V0202601N004112200019N0112651N1+01001+00201999999ADDGA1021+009009999GA2021+036009999GF104991999999999999999999MA1100811999999MW1001REMMET07747517 290300Z 26008KT 9999 FEW030 SCT120 10/02 Q1008 RMK 1CU030 3AC120 A2978;EQDQ01+000000PRSWM2
0187475170999992000042906004+41230+141150FM-15+001099999V0202601N003612200019N0112651N1+01101+00101999999ADDGA1021+009009999GA2021+030009999GF104991999999999999999999MA1100811999999MW1001REMMET07747517 290600Z 26007KT 9999 FEW030 SCT100 11/01 Q1008 RMK 1CU030 4AC100 A2979;EQDQ01+000000PRSWM2
0157475170999992000043000004+41230+141150FM-15+001099999V0201301N001512200019N0112651N1+00901+00401999999ADDGA1021+009009999GF102991999999999999999999MA1101491999999MW1001REMMET06347517 300000Z 13003KT 9999 FEW030 09/04 Q1015 RMK 1CU030 A2999;EQDQ01+000000PRSWM2
0180475170999992000043003004+41230+141150FM-15+001099999V0201001N002110600019N0112651N1+01201+00701999999ADDGA1021+009009999GA2071+060009999GF107991999999999999999999MA1101291999999MW1001REMMET07047517 300300Z 10004KT 9999 FEW030 BKN200 12/07 Q1013 RMK 1CU030 A2994;EQDQ01+000000PRSWM2
0217475170999992000050100004+41230+141150FM-15+001099999V0200801N002610075019N0112651N1+01101+00701999999ADDGA1021+004509999GA2071+007509999GA3071+024009999GF107991999999999999999999MA1101191999999MW1001REMMET09147517 010000Z 08005KT 9999 FEW015 BKN025 BKN080 11/07 Q1012 RMK 2CU015 5CU025 7AC080 A2990;EQDQ01+000000PRSWM2
0187475170999992000050103004+41230+141150FM-15+001099999V0200801N002610075019N0112651N1+01201+00901999999ADDGA1021+004509999GA2071+007509999GF107991999999999999999999MA1101081999999MW1001REMMET07747517 010300Z 08005KT 9999 SCT015 BKN025 12/09 Q1011 RMK 3CU015 7CU025 A2988;EQDQ01+000000PRSWM2
0217475170999992000050106004+41230+141150FM-15+001099999V0200301N003110045019N0090001N1+01001+00801999999ADDGA1021+003009999GA2071+004509999GA3081+007509999GF108991999999999999999999MA1101081999999MW1001REMMET09147517 010600Z 03006KT 9000 FEW010 BKN015 OVC025 10/08 Q1011 RMK 2ST010 5ST015 8SC025 A2986;EQDQ01+000000PRSWM2
0217475170999992000050200004+41230+141150FM-15+001099999V0200701N002610075019N0112651N1+01001+00801999999ADDGA1021+003009999GA2071+007509999GA3071+024009999GF107991999999999999999999MA1101291999999MW1001REMMET09147517 020000Z 07005KT 9999 FEW010 BKN025 BKN080 10/08 Q1013 RMK 2ST010 5CU025 7AC080 A2993;EQDQ01+000000PRSWM2
0187475170999992000050203004+41230+141150FM-15+001099999V0200701N002610240019N0112651N1+01301+00901999999ADDGA1021+006009999GA2071+024009999GF107991999999999999999999MA1101291999999MW1001REMMET07747517 020300Z 07005KT 9999 SCT020 BKN080 13/09 Q1013 RMK 3CU020 7AC080 A2992;EQDQ01+000000PRSWM2
0207475170999992000050206004+41230+141150FM-15+001099999V0200501N003110045019N0070001N1+01101+00901999999ADDGA1021+003009999GA2081+004509999GF108991999999999999999999MA1101191999999MW1511REMMET08147517 020600Z 05006KT 7000 -DZ SCT010 OVC015 11/09 Q1012 RMK 3ST010 8ST015 A2990;EQDQ01+000003PRSWM1Q02    003PRSWM1
0239475170999992000050300004+41230+141150FM-15+001099999V0200201N001010030019N0080001N1+01101+01001999999ADDGA1021+001509999GA2071+003009999GA3071+006009999GF107991999999999999999999MA1101021999999MW1801REMMET09747517 030000Z 02002KT 8000 -SHRA FEW005 BKN010 BKN020 11/10 Q1010 RMK 2ST005 5CU010 7CU020 A2985;EQDQ01+000003PRSWM1Q02    003PRSWM1
0239475170999992000050400004+41230+141150FM-15+001099999V0200201N002610030019N0112651N1+00801+00701999999ADDGA1021+002409999GA2071+003009999GA3071+006009999GF107991999999999999999999MA1101291999999MW1801REMMET09747517 040000Z 02005KT 9999 -SHRA SCT008 BKN010 BKN020 08/07 Q1013 RMK 3ST008 5ST010 7CU020 A2994;EQDQ01+000003PRSWM1Q02    003PRSWM1
0207475170999992000050403004+41230+141150FM-15+001099999V0200401N002610030019N0112651N1+00801+00701999999ADDGA1021+002409999GA2081+003009999GF108991999999999999999999MA1101391999999MW1511REMMET08147517 040300Z 04005KT 9999 -DZ SCT008 OVC010 08/07 Q1014 RMK 3ST008 8ST010 A2994;EQDQ01+000003PRSWM1Q02    003PRSWM1
0207475170999992000050406004+41230+141150FM-15+001099999V0200201N002610030019N0112651N1+00801+00701999999ADDGA1021+001809999GA2081+003009999GF108991999999999999999999MA1101391999999MW1511REMMET08147517 040600Z 02005KT 9999 -DZ SCT006 OVC010 08/07 Q1014 RMK 3ST006 8ST010 A2995;EQDQ01+000003PRSWM1Q02    003PRSWM1
0236475170999992000050500004+41230+141150FM-15+001099999V0202201N001010030019N0050001N1+00901+00901999999ADDGA1021+001509999GA2071+003009999GA3071+009009999GF107991999999999999999999MA1101801999999MW1101REMMET09447517 050000Z 22002KT 5000 BR FEW005 BKN010 BKN030 09/09 Q1018 RMK 2ST005 5ST010 7CU030 A3007;EQDQ01+000003PRSWM1Q02    003PRSWM1
0187475170999992000050503004+41230+141150FM-15+001099999V0202001N000510090019N0112651N1+01001+00801999999ADDGA1021+001509999GA2071+009009999GF107991999999999999999999MA1101901999999MW1001REMMET07747517 050300Z 20001KT 9999 FEW005 BKN030 10/08 Q1019 RMK 1ST005 7CU030 A3010;EQDQ01+000000PRSWM2
0187475170999992000050506004+41230+141150FM-15+001099999V0201901N001512200019N0112651N1+01101+00801999999ADDGA1021+004509999GA2021+007509999GF104991999999999999999999MA1101801999999MW1001REMMET07747517 050600Z 19003KT 9999 FEW015 SCT025 11/08 Q1018 RMK 1ST015 3CU025 A3008;EQDQ01+000000PRSWM2
0180475170999992000050600004+41230+141150FM-15+001099999V0201001N002110600019N0112651N1+01001+00601999999ADDGA1021+007509999GA2071+060009999GF107991999999999999999999MA1102001999999MW1001REMMET07047517 060000Z 10004KT 9999 FEW025 BKN200 10/06 Q1020 RMK 2CU025 A3014;EQDQ01+000000PRSWM2
0187475170999992000050603004+41230+141150FM-15+001099999V0201001N002110090019N0112651N1+01201+00701999999ADDGA1021+007509999GA2071+009009999GF107991999999999999999999MA1101901999999MW1001REMMET07747517 060300Z 10004KT 9999 FEW025 BKN030 12/07 Q1019 RMK 2CU025 7CU030 A3012;EQDQ01+000000PRSWM2
0180475170999992000050606004+41230+141150FM-15+001099999V0201301N003610600019N0112651N1+01201+00701999999ADDGA1021+007509999GA2071+060009999GF107991999999999999999999MA1101801999999MW1001REMMET07047517 060600Z 13007KT 9999 FEW025 BKN200 12/07 Q1018 RMK 1CU025 A3007;EQDQ01+000000PRSWM2
0236475170999992000050700004+41230+141150FM-15+001099999V0201101N001510090019N0015001N1+01001+00801999999ADDGA1021+001509999GA2071+009009999GA3071+024009999GF107991999999999999999999MA1101801999999MW1101REMMET09447517 070000Z 11003KT 1500 BR FEW005 BKN030 BKN080 10/08 Q1018 RMK 2ST005 5CU030 7AC080 A3008;EQDQ01+000003PRSWM1Q02    003PRSWM1
0210475170999992000050703004+41230+141150FM-15+001099999V0200601N004110600019N0112651N1+01401+01001999999ADDGA1021+003009999GA2021+030009999GA3071+060009999GF107991999999999999999999MA1101801999999MW1001REMMET08447517 070300Z 06008KT 9999 FEW010 SCT100 BKN200 14/10 Q1018 RMK 1ST010 3AC100 A3007;EQDQ01+000000PRSWM2
0180475170999992000050706004+41230+141150FM-15+001099999V0200601N003110600019N0112651N1+01501+01001999999ADDGA1021+009009999GA2071+060009999GF107991999999999999999999MA1101691999999MW1001REMMET07047517 070600Z 06006KT 9999 FEW030 BKN200 15/10 Q1017 RMK 1CU030 A3004;EQDQ01+000000PRSWM2
0187475170999992000050900004+41230+141150FM-15+001099999V0202001N002110075019N0112651N1+01301+01001999999ADDGA1021+002409999GA2071+007509999GF107991999999999999999999MA1101391999999MW1001REMMET07747517 090000Z 20004KT 9999 SCT008 BKN025 13/10 Q1014 RMK 3ST008 6CU025 A2996;EQDQ01+000000PRSWM2
0210475170999992000050903004+41230+141150FM-15+001099999V0200701N002110600019N0112651N1+01301+01101999999ADDGA1021+007509999GA2021+009009999GA3071+060009999GF107991999999999999999999MA1101391999999MW1001REMMET08447517 090300Z 07004KT 9999 FEW025 SCT030 BKN200 13/11 Q1014 RMK 1CU025 4CU030 A2997;EQDQ01+000000PRSWM2
0180475170999992000050906004+41230+141150FM-15+001099999V0201701N001510600019N0112651N1+01501+01101999999ADDGA1021+007509999GA2071+060009999GF107991999999999999999999MA1101391999999MW1001REMMET07047517 090600Z 17003KT 9999 SCT025 BKN200 15/11 Q1014 RMK 3CU025 A2996;EQDQ01+000000PRSWM2
0206475170999992000051000004+41230+141150FM-15+001099999V0200601N002610030019N0050001N1+01001+00801999999ADDGA1021+001509999GA2071+003009999GF107991999999999999999999MA1101801999999MW1101REMMET08047517 100000Z 06005KT 5000 BR SCT005 BKN010 10/08 Q1018 RMK 3ST005 7ST010 A3007;EQDQ01+000003PRSWM1Q02    003PRSWM1
0187475170999992000051003004+41230+141150FM-15+001099999V0200501N003110045019N0112651N1+01201+00901999999ADDGA1021+003009999GA2071+004509999GF107991999999999999999999MA1101691999999MW1001REMMET07747517 100300Z 05006KT 9999 FEW010 BKN015 12/09 Q1017 RMK 2ST010 7ST015 A3006;EQDQ01+000000PRSWM2
0187475170999992000051006004+41230+141150FM-15+001099999V0200501N002610045019N0112651N1+01201+00901999999ADDGA1021+003009999GA2071+004509999GF107991999999999999999999MA1101591999999MW1001REMMET07747517 100600Z 05005KT 9999 FEW010 BKN015 12/09 Q1016 RMK 2ST010 7ST015 A3003;EQDQ01+000000PRSWM2
0246475170999992000051203004+41230+141150FM-15+001099999V0200401N001510030019N0050001N1+01301+01201999999ADDGA1021+001509999GA2071+003009999GA3071+004509999GF107991999999999999999999MA1101021999999MW1101MW2611REMMET09847517 120300Z 04003KT 5000 -RA BR SCT005 BKN010 BKN015 13/12 Q1010 RMK 3ST005 5ST010 7ST015 A2983;EQDQ01+000003PRSWM1Q02    003PRSWM1
0217475170999992000051206004+41230+141150FM-15+001099999V0200401N002110030019N0112651N1+01401+01301999999ADDGA1021+001509999GA2071+003009999GA3071+004509999GF107991999999999999999999MA1100911999999MW1001REMMET09147517 120600Z 04004KT 9999 FEW005 BKN010 BKN015 14/13 Q1009 RMK 2ST005 5ST010 7ST015 A2981;EQDQ01+000000PRSWM2
0209475170999992000051300004+41230+141150FM-15+001099999V0200601N000510015019N0060001N1+01301+01301999999ADDGA1071+001509999GA2081+006009999GF108991999999999999999999MA1101191999999MW1801REMMET08347517 130000Z 06001KT 6000 -SHRA BKN005 OVC020 13/13 Q1012 RMK 6ST005 8CU020 A2989;EQDQ01+000003PRSWM1Q02    003PRSWM1
0248475170999992000051303004+41230+141150FM-15+001099999V0201601N001010015019N0030001N1+01301+01301999999ADDGA1071+001509999GA2071+003009999GA3081+006009999GF108991999999999999999999MA1101191999999MW1101MW2801REMMET10047517 130300Z 16002KT 3000 -SHRA BR BKN005 BKN010 OVC020 13/13 Q1012 RMK 5ST005 6ST010 8CU020 A2989;EQDQ01+000003PRSWM1Q02    003PRSWM1
0248475170999992000051306004+41230+141150FM-15+001099999V0201001N000510030019N0040001N1+01301+01201999999ADDGA1021+001509999GA2071+003009999GA3081+006009999GF108991999999999999999999MA1101081999999MW1101MW2801REMMET10047517 130600Z 10001KT 4000 -SHRA BR SCT005 BKN010 OVC020 13/12 Q1011 RMK 3ST005 6ST010 8CU020 A2988;EQDQ01+000003PRSWM1Q02    003PRSWM1
0239475170999992000051403004+41230+141150FM-15+001099999V0200501N002610075019N0080001N1+01101+01001999999ADDGA1021+001509999GA2021+004509999GA3071+007509999GF107991999999999999999999MA1101021999999MW1801REMMET09747517 140300Z 05005KT 8000 -SHRA FEW005 SCT015 BKN025 11/10 Q1010 RMK 2ST005 3ST015 7CU025 A2984;EQDQ01+000003PRSWM1Q02    003PRSWM1
0209475170999992000051406004+41230+141150FM-15+001099999V0200601N001510075019N0112651N1+01101+01101999999ADDGA1021+001509999GA2071+007509999GF107991999999999999999999MA1100811999999MW1801REMMET08347517 140600Z 06003KT 9999 -SHRA FEW005 BKN025 11/11 Q1008 RMK 2ST005 7CU025 A2979;EQDQ01+000003PRSWM1Q02    003PRSWM1
0157475170999992000051500004+41230+141150FM-15+001099999V0202301N004612200019N0112651N1+01401+01001999999ADDGA1021+004509999GF102991999999999999999999MA1100911999999MW1001REMMET06347517 150000Z 23009KT 9999 FEW015 14/10 Q1009 RMK 1ST015 A2980;EQDQ01+000000PRSWM2
0157475170999992000051503004+41230+141150FM-15+001099999V0202501N004612200019N0112651N1+01701+00901999999ADDGA1021+007509999GF102991999999999999999999MA1100811999999MW1001REMMET06347517 150300Z 25009KT 9999 FEW025 17/09 Q1008 RMK 1CU025 A2979;EQDQ01+000000PRSWM2
0168475170999992000051506004+41230+141150FM-15+001099999V0202501N006212200019N0112651N1+01501+00801999999ADDGA1021+009009999GF102991999999999999999999MA1100811999999MW1001OC101131REMMET06647517 150600Z 25012G22KT 9999 FEW030 15/08 Q1008 RMK 1CU030 A2977;EQDQ01+000000PRSWM2
0168475170999992000051603004+41230+141150FM-15+001099999V0202601N006712200019N0112651N1+01601+00801999999ADDGA1021+009009999GF102991999999999999999999MA1100811999999MW1001OC101181REMMET06647517 160300Z 26013G23KT 9999 FEW030 16/08 Q1008 RMK 2CU030 A2977;EQDQ01+000000PRSWM2
0157475170999992000051606004+41230+141150FM-15+001099999V0202401N006712200019N0112651N1+01501+00801999999ADDGA1021+009009999GF102991999999999999999999MA1100811999999MW1001REMMET06347517 160600Z 24013KT 9999 FEW030 15/08 Q1008 RMK 2CU030 A2977;EQDQ01+000000PRSWM2
0217475170999992000051700004+41230+141150FM-15+001099999V0201001N001010060019N0080001N1+01101+00801999999ADDGA1021+003009999GA2071+006009999GA3081+010509999GF108991999999999999999999MA1101081999999MW1001REMMET09147517 170000Z 10002KT 8000 FEW010 BKN020 OVC035 11/08 Q1011 RMK 2ST010 5CU020 8SC035 A2988;EQDQ01+000000PRSWM2
0217475170999992000051703004+41230+141150FM-15+001099999V0201701N001010120019N0112651N1+01201+00901999999ADDGA1021+003609999GA2021+007509999GA3071+012009999GF107991999999999999999999MA1101081999999MW1001REMMET09147517 170300Z 17002KT 9999 FEW012 SCT025 BKN040 12/09 Q1011 RMK 2ST012 4CU025 7SC040 A2986;EQDQ01+000000PRSWM2
0157475170999992000051803004+41230+141150FM-15+001099999V0200901N001512200019N0112651N1+01801+01201999999ADDGA1021+007509999GF102991999999999999999999MA1101191999999MW1001REMMET06347517 180300Z 09003KT 9999 FEW025 18/12 Q1012 RMK 2CU025 A2989;EQDQ01+000000PRSWM2
0157475170999992000051806004+41230+141150FM-15+001099999V0200701N002612200019N0112651N1+01801+01201999999ADDGA1021+009009999GF102991999999999999999999MA1101081999999MW1001REMMET06347517 180600Z 07005KT 9999 FEW030 18/12 Q1011 RMK 1CU030 A2987;EQDQ01+000000PRSWM2
0157475170999992000051900004+41230+141150FM-15+001099999V0201001N002112200019N0112651N1+01401+01101999999ADDGA1021+007509999GF102991999999999999999999MA1101491999999MW1001REMMET06347517 190000Z 10004KT 9999 FEW025 14/11 Q1015 RMK 1CU025 A2998;EQDQ01+000000PRSWM2
0157475170999992000051903004+41230+141150FM-15+001099999V0201601N002112200019N0112651N1+01701+01201999999ADDGA1021+007509999GF102991999999999999999999MA1100911999999MW1001REMMET06347517 190300Z 16004KT 9999 FEW025 17/12 Q1009 RMK 1CU025 A2980;EQDQ01+000000PRSWM2
0217475170999992000052000004+41230+141150FM-15+001099999V0200601N001510030019N0112651N1+01301+01001999999ADDGA1021+001509999GA2071+003009999GA3071+004509999GF107991999999999999999999MA1101391999999MW1001REMMET09147517 200000Z 06003KT 9999 FEW005 BKN010 BKN015 13/10 Q1014 RMK 2ST005 5ST010 7ST015 A2997;EQDQ01+000000PRSWM2
0217475170999992000052006004+41230+141150FM-15+001099999V0200801N001010030019N0112651N1+01301+01101999999ADDGA1021+001509999GA2071+003009999GA3081+004509999GF108991999999999999999999MA1101291999999MW1001REMMET09147517 200600Z 08002KT 9999 SCT005 BKN010 OVC015 13/11 Q1013 RMK 3ST005 6ST010 8ST015 A2993;EQDQ01+000000PRSWM2
0207475170999992000052100004+41230+141150FM-15+001099999V0200501N001010030019N0080001N1+01101+01001999999ADDGA1021+001509999GA2081+003009999GF108991999999999999999999MA1101191999999MW1511REMMET08147517 210000Z 05002KT 8000 -DZ SCT005 OVC010 11/10 Q1012 RMK 3ST005 8ST010 A2990;EQDQ01+000003PRSWM1Q02    003PRSWM1
0209475170999992000052103004+41230+141150FM-15+001099999V0200501N001010015019N0080001N1+01201+01001999999ADDGA1071+001509999GA2081+003009999GF108991999999999999999999MA1101191999999MW1801REMMET08347517 210300Z 05002KT 8000 -SHRA BKN005 OVC010 12/10 Q1012 RMK 5ST005 8ST010 A2990;EQDQ01+000003PRSWM1Q02    003PRSWM1
0187475170999992000052106004+41230+141150FM-15+001099999V0200601N001510030019N0112651N1+01201+01101999999ADDGA1021+002109999GA2081+003009999GF108991999999999999999999MA1101191999999MW1001REMMET07747517 210600Z 06003KT 9999 SCT007 OVC010 12/11 Q1012 RMK 3ST007 8ST010 A2989;EQDQ01+000000PRSWM2
0187475170999992000052203004+41230+141150FM-15+001099999V0201901N003112200019N0112651N1+01601+01201999999ADDGA1021+009009999GA2021+030009999GF104991999999999999999999MA1101291999999MW1001REMMET07747517 220300Z 19006KT 9999 SCT030 SCT100 16/12 Q1013 RMK 3CU030 3AC100 A2992;EQDQ01+000000PRSWM2
0157475170999992000052206004+41230+141150FM-15+001099999V0202101N003610090019N0112651N1+01801+01101999999ADDGA1071+009009999GF107991999999999999999999MA1101191999999MW1001REMMET06347517 220600Z 21007KT 9999 BKN030 18/11 Q1012 RMK 6CU030 A2990;EQDQ01+000000PRSWM2
0187475170999992000052300004+41230+141150FM-15+001099999V0201801N001010075019N0060001N1+01401+01201999999ADDGA1021+003609999GA2071+007509999GF107991999999999999999999MA1101081999999MW1001REMMET07747517 230000Z 18002KT 6000 SCT012 BKN025 14/12 Q1011 RMK 4ST012 7CU025 A2987;EQDQ01+000000PRSWM2
0157475170999992000052303004+41230+141150FM-15+001099999V0201101N002612200019N0112651N1+01501+01301999999ADDGA1021+007509999GF104991999999999999999999MA1101081999999MW1001REMMET06347517 230300Z 11005KT 9999 SCT025 15/13 Q1011 RMK 3CU025 A2986;EQDQ01+000000PRSWM2
0180475170999992000052306004+41230+141150FM-15+001099999V0202301N002610600019N0112651N1+02101+01201999999ADDGA1021+009009999GA2071+060009999GF107991999999999999999999MA1100911999999MW1001REMMET07047517 230600Z 23005KT 9999 SCT030 BKN200 21/12 Q1009 RMK 3CU030 A2982;EQDQ01+000000PRSWM2
0210475170999992000052400004+41230+141150FM-15+001099999V0200901N002110300019N0112651N1+01501+01201999999ADDGA1021+006009999GA2071+030009999GA3081+060009999GF108991999999999999999999MA1100811999999MW1001REMMET08447517 240000Z 09004KT 9999 SCT020 BKN100 OVC200 15/12 Q1008 RMK 3CU020 6AC100 A2979;EQDQ01+000000PRSWM2
0210475170999992000052406004+41230+141150FM-15+001099999V0201001N004110300019N0112651N1+01401+01001999999ADDGA1021+003609999GA2071+030009999GA3071+060009999GF107991999999999999999999MA1100911999999MW1001REMMET08447517 240600Z 10008KT 9999 FEW012 BKN100 BKN200 14/10 Q1009 RMK 2ST012 6AC100 A2980;EQDQ01+000000PRSWM2
0236475170999992000052500004+41230+141150FM-15+001099999V0201701N002610030019N0020001N1+01201+01101999999ADDGA1021+000909999GA2021+001509999GA3071+003009999GF107991999999999999999999MA1101391999999MW1101REMMET09447517 250000Z 17005KT 2000 BR FEW003 SCT005 BKN010 12/11 Q1014 RMK 1ST003 3ST005 7ST010 A2995;EQDQ01+000003PRSWM1Q02    003PRSWM1
0176475170999992000052503004+41230+141150FM-15+001099999V0201601N002112200019N0050001N1+01601+01301999999ADDGA1021+001509999GF102991999999999999999999MA1101191999999MW1101REMMET06647517 250300Z 16004KT 5000 BR FEW005 16/13 Q1012 RMK 1ST005 A2991;EQDQ01+000003PRSWM1Q02    003PRSWM1
0180475170999992000052700004+41230+141150FM-15+001099999V0200801N001010360019N0112651N1+01801+01301999999ADDGA1071+036009999GA2071+060009999GF107991999999999999999999MA1101021999999MW1001REMMET07047517 270000Z 08002KT 9999 BKN120 BKN200 18/13 Q1010 RMK 5AC120 A2984;EQDQ01+000000PRSWM2
0180475170999992000052706004+41230+141150FM-15+001099999V0200701N002610600019N0112651N1+02101+01201999999ADDGA1021+036009999GA2071+060009999GF107991999999999999999999MA1100611999999MW1001REMMET07047517 270600Z 07005KT 9999 FEW120 BKN200 21/12 Q1006 RMK 2AC120 A2972;EQDQ01+000000PRSWM2
0218475170999992000052800004+41230+141150FM-15+001099999V0202401N002610060019N0050001N1+01801+01701999999ADDGA1021+003009999GA2071+006009999GF107991999999999999999999MA1099291999999MW1101MW2801REMMET08647517 280000Z 24005KT 5000 -SHRA BR FEW010 BKN020 18/17 Q0993 RMK 2ST010 7CU020 A2933;EQDQ01+000003PRSWM1Q02    003PRSWM1
0217475170999992000052803004+41230+141150FM-15+001099999V0202301N004110060019N0112651N1+02001+01801999999ADDGA1021+003009999GA2071+006009999GA3071+024009999GF107991999999999999999999MA1098921999999MW1001REMMET09147517 280300Z 23008KT 9999 FEW010 BKN020 BKN080 20/18 Q0989 RMK 1ST010 6CU020 7AC080 A2923;EQDQ01+000000PRSWM2
0187475170999992000052806004+41230+141150FM-15+001099999V0202301N005710075019N0112651N1+02001+01601999999ADDGA1021+004509999GA2071+007509999GF107991999999999999999999MA1098921999999MW1001REMMET07747517 280600Z 23011KT 9999 FEW015 BKN025 20/16 Q0989 RMK 2ST015 7CU025 A2921;EQDQ01+000000PRSWM2
0191475170999992000052900004+41230+141150FM-15+001099999V0202701N007212200019N0112651N1+01701+01101999999ADDGA1021+007509999GA2021+060009999GF104991999999999999999999MA1099701999999MW1001OC101541REMMET07347517 290000Z 27014G30KT 9999 FEW025 SCT200 17/11 Q0997 RMK 2CU025 A2946;EQDQ01+000000PRSWM2
0168475170999992000052903004+41230+141150FM-15+001099999V0202601N008212200019N0112651N1+02301+00901999999ADDGA1021+007509999GF102991999999999999999999MA1099801999999MW1001OC101651REMMET06647517 290300Z 26016G32KT 9999 FEW025 23/09 Q0998 RMK 1CU025 A2948;EQDQ01+000000PRSWM2
0157475170999992000053006004+41230+141150FM-15+001099999V0202501N005712200019N0112651N1+02401+00701999999ADDGA1021+036009999GF102991999999999999999999MA1100411999999MW1001REMMET06347517 300600Z 25011KT 9999 FEW120 24/07 Q1004 RMK 1AC120 A2965;EQDQ01+000000PRSWM2
0180475170999992000053100004+41230+141150FM-15+001099999V0200701N001510600019N0112651N1+02001+01201999999ADDGA1021+030009999GA2081+060009999GF108991999999999999999999MA1100811999999MW1001REMMET07047517 310000Z 07003KT 9999 SCT100 OVC200 20/12 Q1008 RMK 3AC100 A2977;EQDQ01+000000PRSWM2
0210475170999992000053103004+41230+141150FM-15+001099999V0200601N001510600019N0112651N1+02301+00901999999ADDGA1021+009009999GA2021+030009999GA3081+060009999GF108991999999999999999999MA1100711999999MW1001REMMET08447517 310300Z 06003KT 9999 FEW030 SCT100 OVC200 23/09 Q1007 RMK 2CU030 3AC100 A2974;EQDQ01+000000PRSWM2
0238475170999992000060100004+41230+141150FM-15+001099999V0200401N001510030019N0050001N1+01301+01201999999ADDGA1021+002409999GA2071+003009999GA3081+004509999GF108991999999999999999999MA1100611999999MW1101MW2511MW3611REMMET10047517 010000Z 04003KT 5000 -RADZ BR FEW008 BKN010 OVC015 13/12 Q1006 RMK 2ST008 5ST010 8ST015 A2972;EQDQ01+000003PRSWM1
0217475170999992000060106004+41230+141150FM-15+001099999V0200501N001510030019N0112651N1+01301+01201999999ADDGA1021+001509999GA2071+003009999GA3081+004509999GF108991999999999999999999MA1100611999999MW1001REMMET09147517 010600Z 05003KT 9999 FEW005 BKN010 OVC015 13/12 Q1006 RMK 1ST005 6ST010 8ST015 A2973;EQDQ01+000000PRSWM2
0168475170999992000060200004+41230+141150FM-15+001099999V0202401N006712200019N0112651N1+01801+01301999999ADDGA1021+009009999GF102991999999999999999999MA1101021999999MW1001OC101341REMMET06647517 020000Z 24013G26KT 9999 FEW030 18/13 Q1010 RMK 1CU030 A2984;EQDQ01+000000PRSWM2
0168475170999992000060206004+41230+141150FM-15+001099999V0202401N005712200019N0112651N1+01901+01001999999ADDGA1021+009009999GF104991999999999999999999MA1101021999999MW1001OC101131REMMET06647517 020600Z 24011G22KT 9999 SCT030 19/10 Q1010 RMK 4CU030 A2985;EQDQ01+000000PRSWM2
0187475170999992000060300004+41230+141150FM-15+001099999V0201701N003612200019N0112651N1+01501+01201999999ADDGA1021+004509999GA2021+009009999GF104991999999999999999999MA1101021999999MW1001REMMET07747517 030000Z 17007KT 9999 FEW015 SCT030 15/12 Q1010 RMK 2ST015 4CU030 A2985;EQDQ01+000000PRSWM2
0157475170999992000060303004+41230+141150FM-15+001099999V0202401N003612200019N0112651N1+01901+01201999999ADDGA1021+009009999GF102991999999999999999999MA1100811999999MW1001REMMET06347517 030300Z 24007KT 9999 FEW030 19/12 Q1008 RMK 2CU030 A2979;EQDQ01+000000PRSWM2
0173475170999992000060306004+41230+141150FM-15+001099999V0200601N002112200019N0112651N1+01801+01201999999ADDGA1021+009009999GF104991999999999999999999MA1101692999999MW1001REMMET06347517 030600Z 06004KT 9999 SCT030 18/12 Q1017 RMK 3CU030 A3004;EQDQ01+101693APOA  Q02+000000PRSWM2
0209475170999992000060403004+41230+141150FM-15+001099999V0203401N000510060019N0112651N1+01301+01001999999ADDGA1021+003009999GA2071+006009999GF107991999999999999999999MA1100511999999MW1801REMMET08347517 040300Z 34001KT 9999 -SHRA FEW010 BKN020 13/10 Q1005 RMK 2ST010 7CU020 A2968;EQDQ01+000003PRSWM1Q02    003PRSWM1
0187475170999992000060406004+41230+141150FM-15+001099999V0202101N001510060019N0112651N1+01401+01101999999ADDGA1021+004509999GA2071+006009999GF107991999999999999999999MA1100511999999MW1001REMMET07747517 040600Z 21003KT 9999 FEW015 BKN020 14/11 Q1005 RMK 2ST015 6CU020 A2969;EQDQ01+000000PRSWM2
0180475170999992000060506004+41230+141150FM-15+001099999V0202001N002610600019N0112651N1+02001+01101999999ADDGA1021+009009999GA2071+060009999GF107991999999999999999999MA1100711999999MW1001REMMET07047517 050600Z 20005KT 9999 FEW030 BKN200 20/11 Q1007 RMK 1CU030 A2974;EQDQ01+000000PRSWM2
0180475170999992000060600004+41230+141150FM-15+001099999V0201901N002610600019N0112651N1+01901+01101999999ADDGA1021+009009999GA2071+060009999GF107991999999999999999999MA1100411999999MW1001REMMET07047517 060000Z 19005KT 9999 FEW030 BKN200 19/11 Q1004 RMK 1CU030 A2966;EQDQ01+000000PRSWM2
0221475170999992000060606004+41230+141150FM-15+001099999V0202501N005110600019N0112651N1+02501+01301999999ADDGA1021+009009999GA2021+030009999GA3071+060009999GF107991999999999999999999MA1100001999999MW1001OC101031REMMET08747517 060600Z 25010G20KT 9999 FEW030 SCT100 BKN200 25/13 Q1000 RMK 1CU030 3AC100 A2955;EQDQ01+000000PRSWM2
0157475170999992000060700004+41230+141150FM-15+001099999V0202401N004112200019N0112651N1+02001+01201999999ADDGA1021+007509999GF104991999999999999999999MA1100001999999MW1001REMMET06347517 070000Z 24008KT 9999 SCT025 20/12 Q1000 RMK 3CU025 A2955;EQDQ01+000000PRSWM2
0168475170999992000060703004+41230+141150FM-15+001099999V0202501N004612200019N0112651N1+02101+00601999999ADDGA1021+009009999GF102991999999999999999999MA1100101999999MW1001OC101031REMMET06647517 070300Z 25009G20KT 9999 FEW030 21/06 Q1001 RMK 1CU030 A2958;EQDQ01+000000PRSWM2
0168475170999992000060706004+41230+141150FM-15+001099999V0202601N005112200019N0112651N1+02001+00501999999ADDGA1021+009009999GF102991999999999999999999MA1100201999999MW1001OC101131REMMET06647517 070600Z 26010G22KT 9999 FEW030 20/05 Q1002 RMK 1CU030 A2960;EQDQ01+000000PRSWM2
0217475170999992000060800004+41230+141150FM-15+001099999V0200401N002110135019N0112651N1+01301+00901999999ADDGA1021+009009999GA2071+013509999GA3071+024009999GF107991999999999999999999MA1100711999999MW1001REMMET09147517 080000Z 04004KT 9999 FEW030 BKN045 BKN080 13/09 Q1007 RMK 1CU030 5SC045 7AC080 A2976;EQDQ01+000000PRSWM2
0187475170999992000060803004+41230+141150FM-15+001099999V0200701N001510240019N0112651N1+01701+01001999999ADDGA1021+004509999GA2071+024009999GF107991999999999999999999MA1100611999999MW1001REMMET07747517 080300Z 07003KT 9999 FEW015 BKN080 17/10 Q1006 RMK 1CU015 7AC080 A2972;EQDQ01+000000PRSWM2
0191475170999992000060806004+41230+141150FM-15+001099999V0200701N001510360019N0112651N1+01701+01001999999ADDGA1021+004509999GA2071+036009999GF107991999999999999999999MA1100511999999MW1001REMMET08147517 080600Z RTD 07003KT 9999 FEW015 BKN120 17/10 Q1005 RMK 1CU015 7AC120 A2970;EQDQ01+000000PRSWM2
0217475170999992000060906004+41230+141150FM-15+001099999V0202001N004110045019N0112651N1+01401+01301999999ADDGA1021+003009999GA2071+004509999GA3071+007509999GF107991999999999999999999MA1100001999999MW1001REMMET09147517 090600Z 20008KT 9999 FEW010 BKN015 BKN025 14/13 Q1000 RMK 2ST010 5CU015 7CU025 A2955;EQDQ01+000000PRSWM2
0187475170999992000061000004+41230+141150FM-15+001099999V0202601N004110060019N0112651N1+01301+00901999999ADDGA1021+004509999GA2071+006009999GF107991999999999999999999MA1101021999999MW1001REMMET07747517 100000Z 26008KT 9999 FEW015 BKN020 13/09 Q1010 RMK 2CU015 7CU020 A2985;EQDQ01+000000PRSWM2
0157475170999992000061003004+41230+141150FM-15+001099999V0202401N002112200019N0112651N1+01701+00901999999ADDGA1021+006009999GF104991999999999999999999MA1101021999999MW1001REMMET06347517 100300Z 24004KT 9999 SCT020 17/09 Q1010 RMK 3CU020 A2984;EQDQ01+000000PRSWM2
0157475170999992000061006004+41230+141150FM-15+001099999V0201801N002112200019N0112651N1+01801+01001999999ADDGA1021+006009999GF102991999999999999999999MA1101021999999MW1001REMMET06347517 100600Z 18004KT 9999 FEW020 18/10 Q1010 RMK 2CU020 A2985;EQDQ01+000000PRSWM2
0180475170999992000061100004+41230+141150FM-15+001099999V0201401N001010600019N0112651N1+01601+01001999999ADDGA1021+009009999GA2071+060009999GF107991999999999999999999MA1101291999999MW1001REMMET07047517 110000Z 14002KT 9999 FEW030 BKN200 16/10 Q1013 RMK 1CU030 A2992;EQDQ01+000000PRSWM2
0180475170999992000061103004+41230+141150FM-15+001099999V0201701N001012200019N0112651N1+01901+00901999999ADDGA1021+009009999GA2021+060009999GF104991999999999999999999MA1101081999999MW1001REMMET07047517 110300Z 17002KT 9999 FEW030 SCT200 19/09 Q1011 RMK 1CU030 A2987;EQDQ01+000000PRSWM2
0187475170999992000061106004+41230+141150FM-15+001099999V0201601N002112200019N0112651N1+02001+01101999999ADDGA1021+009009999GA2021+030009999GF104991999999999999999999MA1101021999999MW1001REMMET07747517 110600Z 16004KT 9999 FEW030 SCT100 20/11 Q1010 RMK 1CU030 3AC100 A2983;EQDQ01+000000PRSWM2
0187475170999992000061200004+41230+141150FM-15+001099999V0202001N003612200019N0112651N1+01501+01101999999ADDGA1021+003009999GA2021+006009999GF104991999999999999999999MA1100911999999MW1001REMMET07747517 120000Z 20007KT 9999 FEW010 SCT020 15/11 Q1009 RMK 1ST010 3CU020 A2980;EQDQ01+000000PRSWM2
0157475170999992000061203004+41230+141150FM-15+001099999V0201201N002112200019N0112651N1+01701+01201999999ADDGA1021+009009999GF102991999999999999999999MA1100711999999MW1001REMMET06347517 120300Z 12004KT 9999 FEW030 17/12 Q1007 RMK 1CU030 A2976;EQDQ01+000000PRSWM2
0180475170999992000061300004+41230+141150FM-15+001099999V0201701N001510600019N0112651N1+01801+01001999999ADDGA1021+036009999GA2071+060009999GF107991999999999999999999MA1100511999999MW1001REMMET07047517 130000Z 17003KT 9999 FEW120 BKN200 18/10 Q1005 RMK 2AC120 A2970;EQDQ01+000000PRSWM2
0180475170999992000061303004+41230+141150FM-15+001099999V0201901N001510600019N0112651N1+02101+01301999999ADDGA1021+009009999GA2071+060009999GF107991999999999999999999MA1100411999999MW1001REMMET07047517 130300Z 19003KT 9999 FEW030 BKN200 21/13 Q1004 RMK 1CU030 A2967;EQDQ01+000000PRSWM2
0210475170999992000061306004+41230+141150FM-15+001099999V0201801N001010600019N0112651N1+02201+01401999999ADDGA1021+009009999GA2021+036009999GA3071+060009999GF107991999999999999999999MA1100411999999MW1001REMMET08447517 130600Z 18002KT 9999 FEW030 SCT120 BKN200 22/14 Q1004 RMK 1CU030 3AC120 A2965;EQDQ01+000000PRSWM2
0217475170999992000061400004+41230+141140FM-15+001099999V0200601N002110135019N0112651N1+01501+01301999999ADDGA1021+003009999GA2071+013509999GA3071+030009999GF107991999999999999999999MA1100411999999MW1001REMMET09147517 140000Z 06004KT 9999 SCT010 BKN045 BKN100 15/13 Q1004 RMK 3CU010 6SC045 7AC100 A2965;EQDQ01+000000PRSWM2
0180475170999992000061500004+41230+141140FM-15+001099999V0201901N002610090019N0112651N1+01901+01301999999ADDGA1071+009009999GA2071+060009999GF107991999999999999999999MA1101191999999MW1001REMMET07047517 150000Z 19005KT 9999 BKN030 BKN200 19/13 Q1012 RMK 5CU030 A2989;EQDQ01+000000PRSWM2
0180475170999992000061503004+41230+141140FM-15+001099999V0202001N004112200019N0112651N1+02201+01401999999ADDGA1021+009009999GA2021+060009999GF104991999999999999999999MA1101081999999MW1001REMMET07047517 150300Z 20008KT 9999 FEW030 SCT200 22/14 Q1011 RMK 2CU030 A2986;EQDQ01+000000PRSWM2
0157475170999992000061506004+41230+141140FM-15+001099999V0201801N001512200019N0112651N1+02201+01501999999ADDGA1021+009009999GF102991999999999999999999MA1101081999999MW1001REMMET06347517 150600Z 18003KT 9999 FEW030 22/15 Q1011 RMK 2CU030 A2986;EQDQ01+000000PRSWM2
0187475170999992000061600004+41230+141140FM-15+001099999V0201601N001512200019N0112651N1+01901+01601999999ADDGA1021+009009999GA2021+024009999GF104991999999999999999999MA1101191999999MW1001REMMET07747517 160000Z 16003KT 9999 FEW030 SCT080 19/16 Q1012 RMK 2CU030 4AC080 A2991;EQDQ01+000000PRSWM2
0210475170999992000061603004+41230+141140FM-15+001099999V0201601N002610600019N0112651N1+02201+01401999999ADDGA1021+009009999GA2021+030009999GA3071+060009999GF107991999999999999999999MA1101191999999MW1001REMMET08447517 160300Z 16005KT 9999 FEW030 SCT100 BKN200 22/14 Q1012 RMK 2CU030 4AC100 A2990;EQDQ01+000000PRSWM2
0210475170999992000061606004+41230+141140FM-15+001099999V0201001N002110600019N0112651N1+02301+01501999999ADDGA1021+009009999GA2021+030009999GA3071+060009999GF107991999999999999999999MA1101081999999MW1001REMMET08447517 160600Z 10004KT 9999 FEW030 SCT100 BKN200 23/15 Q1011 RMK 2CU030 3AC100 A2987;EQDQ01+000000PRSWM2
0180475170999992000061700004+41230+141140FM-15+001099999V0201401N001510600019N0112651N1+02101+01501999999ADDGA1021+009009999GA2071+060009999GF107991999999999999999999MA1101291999999MW1001REMMET07047517 170000Z 14003KT 9999 FEW030 BKN200 21/15 Q1013 RMK 1CU030 A2992;EQDQ01+000000PRSWM2
0180475170999992000061706004+41230+141140FM-15+001099999V0201601N002610600019N0112651N1+02301+01601999999ADDGA1021+009009999GA2071+060009999GF107991999999999999999999MA1101021999999MW1001REMMET07047517 170600Z 16005KT 9999 FEW030 BKN200 23/16 Q1010 RMK 1CU030 A2985;EQDQ01+000000PRSWM2
0157475170999992000061800004+41230+141140FM-15+001099999V0201601N002112200019N0112651N1+02001+01601999999ADDGA1021+009009999GF102991999999999999999999MA1100811999999MW1001REMMET06347517 180000Z 16004KT 9999 FEW030 20/16 Q1008 RMK 1CU030 A2979;EQDQ01+000000PRSWM2
0157475170999992000061803004+41230+141140FM-15+001099999V0201801N002112200019N0112651N1+02401+01501999999ADDGA1021+009009999GF102991999999999999999999MA1100711999999MW1001REMMET06347517 180300Z 18004KT 9999 FEW030 24/15 Q1007 RMK 1CU030 A2976;EQDQ01+000000PRSWM2
0157475170999992000061900004+41230+141140FM-15+001099999V0202201N004112200019N0112651N1+02401+01501999999ADDGA1021+036009999GF102991999999999999999999MA1100711999999MW1001REMMET06347517 190000Z 22008KT 9999 FEW120 24/15 Q1007 RMK 1AC120 A2975;EQDQ01+000000PRSWM2
0187475170999992000061906004+41230+141140FM-15+001099999V0202601N002110090019N0112651N1+02501+01001999999ADDGA1071+009009999GA2071+036009999GF107991999999999999999999MA1100611999999MW1001REMMET07747517 190600Z 26004KT 9999 BKN030 BKN120 25/10 Q1006 RMK 5CU030 7AC120 A2972;EQDQ01+000000PRSWM2
0150475170999992000062000004+41230+141140FM-15+001099999V0202201N003612200019N0112651N1+02301+01401999999ADDGA1021+060009999GF102991999999999999999999MA1100811999999MW1001REMMET05647517 200000Z 22007KT 9999 FEW200 23/14 Q1008 RMK A2979;EQDQ01+000000PRSWM2
0157475170999992000062003004+41230+141140FM-15+001099999V0202301N003610360019N0112651N1+02801+01101999999ADDGA1071+036009999GF107991999999999999999999MA1100711999999MW1001REMMET06347517 200300Z 23007KT 9999 BKN120 28/11 Q1007 RMK 5AC120 A2976;EQDQ01+000000PRSWM2
0157475170999992000062006004+41230+141140FM-15+001099999V0200801N001010360019N0112651N1+02401+01601999999ADDGA1071+036009999GF107991999999999999999999MA1100711999999MW1001REMMET06347517 200600Z 08002KT 9999 BKN120 24/16 Q1007 RMK 6AC120 A2976;EQDQ01+000000PRSWM2
0180475170999992000062100004+41230+141140FM-15+001099999V0201101N001010600019N0060001N1+02101+01701999999ADDGA1021+030009999GA2071+060009999GF107991999999999999999999MA1100611999999MW1001REMMET07047517 210000Z 11002KT 6000 SCT100 BKN200 21/17 Q1006 RMK 3AC100 A2973;EQDQ01+000000PRSWM2
0180475170999992000062103004+41230+141140FM-15+001099999V0201101N002110600019N0080001N1+02201+01801999999ADDGA1021+007509999GA2071+060009999GF107991999999999999999999MA1100611999999MW1001REMMET07047517 210300Z 11004KT 8000 FEW025 BKN200 22/18 Q1006 RMK 2CU025 A2973;EQDQ01+000000PRSWM2
0210475170999992000062106004+41230+141140FM-15+001099999V0200601N001010600019N0070001N1+02401+01901999999ADDGA1021+007509999GA2021+030009999GA3071+060009999GF107991999999999999999999MA1100511999999MW1001REMMET08447517 210600Z 06002KT 7000 FEW025 SCT100 BKN200 24/19 Q1005 RMK 1CU025 3AC100 A2970;EQDQ01+000000PRSWM2
0157475170999992000062200004+41230+141140FM-15+001099999V0201801N001512200019N0070001N1+02101+01701999999ADDGA1021+006009999GF102991999999999999999999MA1100911999999MW1001REMMET06347517 220000Z 18003KT 7000 FEW020 21/17 Q1009 RMK 1CU020 A2981;EQDQ01+000000PRSWM2
0157475170999992000062203004+41230+141140FM-15+001099999V0201601N002112200019N0080001N1+02201+01701999999ADDGA1021+009009999GF102991999999999999999999MA1100911999999MW1001REMMET06347517 220300Z 16004KT 8000 FEW030 22/17 Q1009 RMK 1CU030 A2980;EQDQ01+000000PRSWM2
0180475170999992000062206004+41230+141140FM-15+001099999V0200701N002110600019N0080001N1+02301+01801999999ADDGA1021+009009999GA2071+060009999GF107991999999999999999999MA1100811999999MW1001REMMET07047517 220600Z 07004KT 8000 FEW030 BKN200 23/18 Q1008 RMK 1CU030 A2978;EQDQ01+000000PRSWM2
0180475170999992000062303004+41230+141140FM-15+001099999V0200501N002110600019N0060001N1+02101+01601999999ADDGA1021+004509999GA2081+060009999GF108991999999999999999999MA1100811999999MW1001REMMET07047517 230300Z 05004KT 6000 SCT015 OVC200 21/16 Q1008 RMK 3ST015 A2979;EQDQ01+000000PRSWM2
0187475170999992000062503004+41230+141140FM-15+001099999V0201101N004110045019N0112651N1+01501+01101999999ADDGA1071+004509999GA2071+007509999GF107991999999999999999999MA1101491999999MW1001REMMET07747517 250300Z 11008KT 9999 BKN015 BKN025 15/11 Q1015 RMK 5ST015 7CU025 A2998;EQDQ01+000000PRSWM2
0187475170999992000062600004+41230+141140FM-15+001099999V0200901N002110060019N0112651N1+01701+01301999999ADDGA1071+006009999GA2071+009009999GF107991999999999999999999MA1101491999999MW1001REMMET07747517 260000Z 09004KT 9999 BKN020 BKN030 17/13 Q1015 RMK 5CU020 7CU030 A2998;EQDQ01+000000PRSWM2
0187475170999992000062603004+41230+141140FM-15+001099999V0201201N004610060019N0112651N1+01701+01301999999ADDGA1021+003009999GA2071+006009999GF107991999999999999999999MA1101391999999MW1001REMMET07747517 260300Z 12009KT 9999 FEW010 BKN020 17/13 Q1014 RMK 2ST010 7CU020 A2995;EQDQ01+000000PRSWM2
0237475170999992000062703004+41230+141140FM-15+001099999V0200301N002110030019N0112651N1+01801+01601999999ADDGA1021+001509999GA2071+003009999GA3081+004509999GF108991999999999999999999MA1101021999999MW1611REMMET09547517 270300Z 03004KT 9999 -RA FEW005 BKN010 OVC015 18/16 Q1010 RMK 2ST005 6ST010 8ST015 A2983;EQDQ01+000003PRSWM1Q02    003PRSWM1
0207475170999992000062706004+41230+141140FM-15+001099999V0200501N001010015019N0080001N1+01701+01601999999ADDGA1071+001509999GA2081+003009999GF108991999999999999999999MA1100811999999MW1611REMMET08147517 270600Z 05002KT 8000 -RA BKN005 OVC010 17/16 Q1008 RMK 5ST005 8ST010 A2979;EQDQ01+000003PRSWM1Q02    003PRSWM1
0180475170999992000062806004+41230+141140FM-15+001099999V0202201N004112200019N0112651N1+02401+01901999999ADDGA1021+009009999GA2021+060009999GF104991999999999999999999MA1099591999999MW1001REMMET07047517 280600Z 22008KT 9999 SCT030 SCT200 24/19 Q0996 RMK 3CU030 A2944;EQDQ01+000000PRSWM2
0157475170999992000062900004+41230+141140FM-15+001099999V0202401N004612200019N0112651N1+02101+01601999999ADDGA1021+009009999GF104991999999999999999999MA1100611999999MW1001REMMET06347517 290000Z 24009KT 9999 SCT030 21/16 Q1006 RMK 4CU030 A2971;EQDQ01+000000PRSWM2
0157475170999992000062903004+41230+141140FM-15+001099999V0202301N004612200019N0112651N1+02401+01601999999ADDGA1021+009009999GF102991999999999999999999MA1100511999999MW1001REMMET06347517 290300Z 23009KT 9999 FEW030 24/16 Q1005 RMK 2CU030 A2970;EQDQ01+000000PRSWM2
0157475170999992000062906004+41230+141140FM-15+001099999V0202201N002612200019N0112651N1+02501+01601999999ADDGA1021+009009999GF102991999999999999999999MA1100511999999MW1001REMMET06347517 290600Z 22005KT 9999 FEW030 25/16 Q1005 RMK 1CU030 A2970;EQDQ01+000000PRSWM2
0187475170999992000063000004+41230+141140FM-15+001099999V0200901N001010300019N0112651N1+02101+01801999999ADDGA1021+012009999GA2071+030009999GF107991999999999999999999MA1100811999999MW1001REMMET07747517 300000Z 09002KT 9999 FEW040 BKN100 21/18 Q1008 RMK 2SC040 7AC100 A2978;EQDQ01+000000PRSWM2
0217475170999992000063006004+41230+141140FM-15+001099999V0201601N001010240019N0112651N1+02201+01801999999ADDGA1021+009009999GA2021+012009999GA3071+024009999GF107991999999999999999999MA1100711999999MW1001REMMET09147517 300600Z 16002KT 9999 FEW030 SCT040 BKN080 22/18 Q1007 RMK 1CU030 3SC040 7AC080 A2976;EQDQ01+000000PRSWM2
0187475170999992000070103004+41230+141140FM-15+001099999V0202201N002610360019N0112651N1+02701+02201999999ADDGA1021+007509999GA2071+036009999GF107991999999999999999999MA1100811999999MW1001REMMET07747517 010300Z 22005KT 9999 SCT025 BKN120 27/22 Q1008 RMK 3CU025 6AC120 A2978;EQDQ01+000000PRSWM2
0187475170999992000070200004+41230+141140FM-15+001099999V0201001N002110300019N0112651N1+02301+02001999999ADDGA1021+007509999GA2071+030009999GF107991999999999999999999MA1101081999999MW1001REMMET07747517 020000Z 10004KT 9999 SCT025 BKN100 23/20 Q1011 RMK 3CU025 5AC100 A2986;EQDQ01+000000PRSWM2
0157475170999992000070203004+41230+141140FM-15+001099999V0202001N003612200019N0112651N1+02701+02101999999ADDGA1021+009009999GF104991999999999999999999MA1101021999999MW1001REMMET06347517 020300Z 20007KT 9999 SCT030 27/21 Q1010 RMK 3CU030 A2983;EQDQ01+000000PRSWM2
0157475170999992000070206004+41230+141140FM-15+001099999V0202001N002612200019N0112651N1+02701+02101999999ADDGA1021+009009999GF102991999999999999999999MA1100911999999MW1001REMMET06347517 020600Z 20005KT 9999 FEW030 27/21 Q1009 RMK 2CU030 A2980;EQDQ01+000000PRSWM2
0187475170999992000070400004+41230+141140FM-15+001099999V0201201N001510060019N0112651N1+02101+01801999999ADDGA1021+003009999GA2071+006009999GF107991999999999999999999MA1101391999999MW1001REMMET07747517 040000Z 12003KT 9999 FEW010 BKN020 21/18 Q1014 RMK 2ST010 7CU020 A2996;EQDQ01+000000PRSWM2
0187475170999992000070403004+41230+141140FM-15+001099999V0201201N004110030019N0112651N1+02101+01801999999ADDGA1071+003009999GA2071+006009999GF107991999999999999999999MA1101391999999MW1001REMMET07747517 040300Z 12008KT 9999 BKN010 BKN020 21/18 Q1014 RMK 5ST010 7CU020 A2997;EQDQ01+000000PRSWM2
0217475170999992000070503004+41230+141140FM-15+001099999V0200801N001010045019N0112651N1+02101+01801999999ADDGA1021+003009999GA2071+004509999GA3071+006009999GF107991999999999999999999MA1101291999999MW1001REMMET09147517 050300Z 08002KT 9999 SCT010 BKN015 BKN020 21/18 Q1013 RMK 3ST010 5CU015 7CU020 A2994;EQDQ01+000000PRSWM2
0217475170999992000070506004+41230+141140FM-15+001099999V0200901N001510060019N0112651N1+02101+01801999999ADDGA1021+003009999GA2021+004509999GA3071+006009999GF107991999999999999999999MA1101191999999MW1001REMMET09147517 050600Z 09003KT 9999 FEW010 SCT015 BKN020 21/18 Q1012 RMK 1ST010 3CU015 6CU020 A2991;EQDQ01+000000PRSWM2
0217475170999992000070603004+41230+141140FM-15+001099999V0201401N002610045019N0112651N1+02001+01701999999ADDGA1021+003009999GA2071+004509999GA3071+007509999GF107991999999999999999999MA1101081999999MW1001REMMET09147517 060300Z 14005KT 9999 SCT010 BKN015 BKN025 20/17 Q1011 RMK 3ST010 6ST015 7CU025 A2988;EQDQ01+000000PRSWM2
0187475170999992000070700004+41230+141140FM-15+001099999V0200801N001010015019N0112651N1+01901+01701999999ADDGA1071+001509999GA2071+003009999GF107991999999999999999999MA1101021999999MW1001REMMET07747517 070000Z 08002KT 9999 BKN005 BKN010 19/17 Q1010 RMK 5ST005 7ST010 A2985;EQDQ01+000000PRSWM2
0187475170999992000070703004+41230+141140FM-15+001099999V0200601N001510030019N0112651N1+02001+01801999999ADDGA1071+003009999GA2071+004509999GF107991999999999999999999MA1100911999999MW1001REMMET07747517 070300Z 06003KT 9999 BKN010 BKN015 20/18 Q1009 RMK 5ST010 7ST015 A2981;EQDQ01+000000PRSWM2
0187475170999992000070706004+41230+141140FM-15+001099999V0200801N002110024019N0112651N1+02001+01801999999ADDGA1071+002409999GA2071+003609999GF107991999999999999999999MA1100811999999MW1001REMMET07747517 070600Z 08004KT 9999 BKN008 BKN012 20/18 Q1008 RMK 5ST008 7ST012 A2977;EQDQ01+000000PRSWM2
0239475170999992000070800004+41230+141140FM-15+001099999V0200501N003110030019N0060001N1+01801+01701999999ADDGA1021+000909999GA2071+003009999GA3081+006009999GF108991999999999999999999MA1100201999999MW1801REMMET09747517 080000Z 05006KT 6000 -SHRA SCT003 BKN010 OVC020 18/17 Q1002 RMK 3ST003 6CU010 8CU020 A2960;EQDQ01+000003PRSWM1Q02    003PRSWM1
0263475170999992000070806004+41230+141140FM-15+001099999V0200201N006710030019N0040001N1+01801+01601999999ADDGA1021+001509999GA2071+003009999GA3081+006009999GF108991999999999999999999MA1099291999999MW1101MW2811OC101651REMMET10747517 080600Z 02013G32KT 4000 SHRA BR SCT005 BKN010 OVC020 18/16 Q0993 RMK 4ST005 6CU010 8CU020 A2935 P/FR;EQDQ01+000003PRSWM1Q02    003PRSWM1
0209475170999992000070900004+41230+141140FM-15+001099999V0202301N002110075019N0080001N1+02001+01801999999ADDGA1021+004509999GA2081+007509999GF108991999999999999999999MA1100101999999MW1801REMMET08347517 090000Z 23004KT 8000 -SHRA SCT015 OVC025 20/18 Q1001 RMK 3CU015 8CU025 A2957;EQDQ01+000003PRSWM1Q02    003PRSWM1
0209475170999992000070903004+41230+141140FM-15+001099999V0202401N003110240019N0112651N1+02001+01801999999ADDGA1021+009009999GA2081+024009999GF108991999999999999999999MA1100311999999MW1801REMMET08347517 090300Z 24006KT 9999 -SHRA SCT030 OVC080 20/18 Q1003 RMK 4CU030 8AC080 A2964;EQDQ01+000003PRSWM1Q02    003PRSWM1
0217475170999992000070906004+41230+141140FM-15+001099999V0202401N004110240019N0112651N1+02001+01801999999ADDGA1021+003009999GA2021+013509999GA3081+024009999GF108991999999999999999999MA1100511999999MW1001REMMET09147517 090600Z 24008KT 9999 FEW010 SCT045 OVC080 20/18 Q1005 RMK 1ST010 3SC045 8AC080 A2969;EQDQ01+000000PRSWM2
0161475170999992000071003004+41230+141140FM-15+001099999V0202001N004612200019N0112651N1+02201+01601999999ADDGA1021+007509999GF102991999999999999999999MA1101081999999MW1001REMMET06747517 100300Z COR 20009KT 9999 FEW025 22/16 Q1011 RMK 1CU025 A2988;EQDQ01+000000PRSWM2
0157475170999992000071006004+41230+141140FM-15+001099999V0202601N006712200019N0112651N1+02401+01601999999ADDGA1021+007509999GF102991999999999999999999MA1101081999999MW1001REMMET06347517 100600Z 26013KT 9999 FEW025 24/16 Q1011 RMK 1CU025 A2987;EQDQ01+000000PRSWM2
0157475170999992000071100004+41230+141140FM-15+001099999V0202501N004112200019N0112651N1+02301+01701999999ADDGA1021+006009999GF104991999999999999999999MA1101081999999MW1001REMMET06347517 110000Z 25008KT 9999 SCT020 23/17 Q1011 RMK 4CU020 A2986;EQDQ01+000000PRSWM2
0180475170999992000071106004+41230+141140FM-15+001099999V0202201N004110600019N0112651N1+02501+01801999999ADDGA1021+006009999GA2071+060009999GF107991999999999999999999MA1100811999999MW1001REMMET07047517 110600Z 22008KT 9999 FEW020 BKN200 25/18 Q1008 RMK 1CU020 A2977;EQDQ01+000000PRSWM2
0187475170999992000071203004+41230+141140FM-15+001099999V0201801N001512200019N0112651N1+02501+02001999999ADDGA1021+009009999GA2021+030009999GF104991999999999999999999MA1100311999999MW1001REMMET07747517 120300Z 18003KT 9999 FEW030 SCT100 25/20 Q1003 RMK 1CU030 4AC100 A2964;EQDQ01+000000PRSWM2
0157475170999992000071206004+41230+141140FM-15+001099999V0201801N001512200019N0112651N1+02701+02201999999ADDGA1021+009009999GF102991999999999999999999MA1100201999999MW1001REMMET06347517 120600Z 18003KT 9999 FEW030 27/22 Q1002 RMK 2CU030 A2962;EQDQ01+000000PRSWM2
0187475170999992000071300004+41230+141140FM-15+001099999V0202301N003110075019N0112651N1+02401+02101999999ADDGA1071+007509999GA2071+030009999GF107991999999999999999999MA1100001999999MW1001REMMET07747517 130000Z 23006KT 9999 BKN025 BKN100 24/21 Q1000 RMK 5CU025 7AC100 A2955;EQDQ01+000000PRSWM2
0217475170999992000071303004+41230+141140FM-15+001099999V0202401N003110075019N0112651N1+02401+02201999999ADDGA1021+004509999GA2071+007509999GA3071+030009999GF107991999999999999999999MA1100001999999MW1001REMMET09147517 130300Z 24006KT 9999 FEW015 BKN025 BKN100 24/22 Q1000 RMK 2CU015 5CU025 6AC100 A2955;EQDQ01+000000PRSWM2
0187475170999992000071306004+41230+141140FM-15+001099999V0202501N003610360019N0112651N1+02601+02001999999ADDGA1021+007509999GA2071+036009999GF107991999999999999999999MA1100101999999MW1001REMMET07747517 130600Z 25007KT 9999 SCT025 BKN120 26/20 Q1001 RMK 3CU025 6AC120 A2956;EQDQ01+000000PRSWM2
0157475170999992000071400004+41230+141140FM-15+001099999V0201901N002112200019N0112651N1+02301+02001999999ADDGA1021+009009999GF102991999999999999999999MA1100711999999MW1001REMMET06347517 140000Z 19004KT 9999 FEW030 23/20 Q1007 RMK 2CU030 A2975;EQDQ01+000000PRSWM2
0157475170999992000071403004+41230+141140FM-15+001099999V0202001N003112200019N0112651N1+02601+02001999999ADDGA1021+009009999GF102991999999999999999999MA1100611999999MW1001REMMET06347517 140300Z 20006KT 9999 FEW030 26/20 Q1006 RMK 2CU030 A2973;EQDQ01+000000PRSWM2
0180475170999992000071406004+41230+141140FM-15+001099999V0200601N001512200019N0112651N1+02801+01901999999ADDGA1021+009009999GA2021+069009999GF104991999999999999999999MA1100611999999MW1001REMMET07047517 140600Z 06003KT 9999 FEW030 SCT230 28/19 Q1006 RMK 1CU030 A2972;EQDQ01+000000PRSWM2
0157475170999992000071500004+41230+141140FM-15+001099999V0202301N004110075019N0112651N1+02701+02201999999ADDGA1071+007509999GF107991999999999999999999MA1100811999999MW1001REMMET06347517 150000Z 23008KT 9999 BKN025 27/22 Q1008 RMK 5CU025 A2979;EQDQ01+000000PRSWM2
0157475170999992000071503004+41230+141140FM-15+001099999V0202401N004612200019N0112651N1+03001+02101999999ADDGA1021+009009999GF104991999999999999999999MA1100811999999MW1001REMMET06347517 150300Z 24009KT 9999 SCT030 30/21 Q1008 RMK 3CU030 A2978;EQDQ01+000000PRSWM2
0217475170999992000071603004+41230+141140FM-15+001099999V0202001N003110090019N0112651N1+02501+02101999999ADDGA1021+006009999GA2071+009009999GA3071+024009999GF107991999999999999999999MA1100811999999MW1001REMMET09147517 160300Z 20006KT 9999 FEW020 BKN030 BKN080 25/21 Q1008 RMK 1CU020 5CU030 7AC080 A2978;EQDQ01+000000PRSWM2
0217475170999992000071606004+41230+141140FM-15+001099999V0202401N002610090019N0112651N1+02601+02201999999ADDGA1021+006009999GA2071+009009999GA3071+024009999GF107991999999999999999999MA1100711999999MW1001REMMET09147517 160600Z 24005KT 9999 FEW020 BKN030 BKN080 26/22 Q1007 RMK 1CU020 5CU030 7AC080 A2976;EQDQ01+000000PRSWM2
0210475170999992000071700004+41230+141140FM-15+001099999V0202501N003110240019N0112651N1+02501+02001999999ADDGA1021+006009999GA2071+024009999GA3071+060009999GF107991999999999999999999MA1100811999999MW1001REMMET08447517 170000Z 25006KT 9999 SCT020 BKN080 BKN200 25/20 Q1008 RMK 3CU020 6AC080 A2977;EQDQ01+000000PRSWM2
0217475170999992000071703004+41230+141140FM-15+001099999V0200701N000510060019N0112651N1+02501+02101999999ADDGA1021+004509999GA2071+006009999GA3071+024009999GF107991999999999999999999MA1100811999999MW1001REMMET09147517 170300Z 07001KT 9999 FEW015 BKN020 BKN080 25/21 Q1008 RMK 2CU015 6CU020 7AC080 A2977;EQDQ01+000000PRSWM2
0209475170999992000071706004+41230+141140FM-15+001099999V0201701N002610060019N0112651N1+02301+02101999999ADDGA1021+003009999GA2071+006009999GF107991999999999999999999MA1100711999999MW1801REMMET08347517 170600Z 17005KT 9999 -SHRA FEW010 BKN020 23/21 Q1007 RMK 1ST010 7CU020 A2974;EQDQ01+000003PRSWM1Q02    003PRSWM1
0239475170999992000071800004+41230+141140FM-15+001099999V0202101N002610015019N0060001N1+02101+02001999999ADDGA1021+000609999GA2071+001509999GA3081+003009999GF108991999999999999999999MA1100201999999MW1801REMMET09747517 180000Z 21005KT 6000 -SHRA FEW002 BKN005 OVC010 21/20 Q1002 RMK 2ST002 5ST005 8ST010 A2960;EQDQ01+000003PRSWM1Q02    003PRSWM1
0157475170999992000071806004+41230+141140FM-15+001099999V0202401N004110075019N0112651N1+02501+02001999999ADDGA1071+007509999GF107991999999999999999999MA1100101999999MW1001REMMET06347517 180600Z 24008KT 9999 BKN025 25/20 Q1001 RMK 6CU025 A2958;EQDQ01+000000PRSWM2
0239475170999992000071900004+41230+141140FM-15+001099999V0209999C000010030019N0112651N1+01801+01701999999ADDGA1021+001509999GA2071+003009999GA3071+006009999GF107991999999999999999999MA1101021999999MW1801REMMET09747517 190000Z 00000KT 9999 -SHRA FEW005 BKN010 BKN020 18/17 Q1010 RMK 2ST005 6ST010 7CU020 A2983;EQDQ01+000003PRSWM1Q02    003PRSWM1
0217475170999992000071903004+41230+141140FM-15+001099999V0201601N001010030019N0112651N1+01901+01801999999ADDGA1021+001809999GA2071+003009999GA3071+006009999GF107991999999999999999999MA1101021999999MW1001REMMET09147517 190300Z 16002KT 9999 FEW006 BKN010 BKN020 19/18 Q1010 RMK 2ST006 5ST010 7CU020 A2984;EQDQ01+000000PRSWM2
0217475170999992000072003004+41230+141140FM-15+001099999V0200901N002610030019N0112651N1+01901+01601999999ADDGA1021+001809999GA2071+003009999GA3071+006009999GF107991999999999999999999MA1101191999999MW1001REMMET09147517 200300Z 09005KT 9999 FEW006 BKN010 BKN020 19/16 Q1012 RMK 2ST006 6ST010 7CU020 A2989;EQDQ01+000000PRSWM2
0217475170999992000072006004+41230+141140FM-15+001099999V0200801N001010030019N0112651N1+01901+01701999999ADDGA1021+001809999GA2071+003009999GA3071+006009999GF107991999999999999999999MA1101081999999MW1001REMMET09147517 200600Z 08002KT 9999 FEW006 BKN010 BKN020 19/17 Q1011 RMK 2ST006 6ST010 7CU020 A2988;EQDQ01+000000PRSWM2
0187475170999992000090806004+41230+141140FM-15+001099999V0200601N002110360019N0112651N1+02201+01501999999ADDGA1021+007509999GA2071+036009999GF107991999999999999999999MA1101801999999MW1001REMMET07747517 080600Z 06004KT 9999 FEW025 BKN120 22/15 Q1018 RMK 1CU025 5AC120 A3007;EQDQ01+000000PRSWM2
0217475170999992000091403004+41230+141140FM-15+001099999V0201101N003110045019N0080001N1+02101+01901999999ADDGA1021+001509999GA2071+004509999GA3071+006009999GF107991999999999999999999MA1101191999999MW1001REMMET09147517 140300Z 11006KT 8000 FEW005 BKN015 BKN020 21/19 Q1012 RMK 2ST005 5ST015 7CU020 A2989;EQDQ01+000000PRSWM2
0217475170999992000091406004+41230+141140FM-15+001099999V0201101N003610045019N0080001N1+02101+01901999999ADDGA1021+001509999GA2071+004509999GA3071+006009999GF107991999999999999999999MA1101081999999MW1001REMMET09147517 140600Z 11007KT 8000 FEW005 BKN015 BKN020 21/19 Q1011 RMK 2ST005 5ST015 7CU020 A2987;EQDQ01+000000PRSWM2
0217475170999992000091500004+41230+141140FM-15+001099999V0201001N003610030019N0112651N1+01901+01701999999ADDGA1021+001509999GA2071+003009999GA3071+004509999GF107991999999999999999999MA1101191999999MW1001REMMET09147517 150000Z 10007KT 9999 FEW005 BKN010 BKN015 19/17 Q1012 RMK 2ST005 5ST010 7CU015 A2991;EQDQ01+000000PRSWM2
0217475170999992000091506004+41230+141140FM-15+001099999V0200901N003610030019N0112651N1+01901+01701999999ADDGA1021+001509999GA2071+003009999GA3071+006009999GF107991999999999999999999MA1101081999999MW1001REMMET09147517 150600Z 09007KT 9999 FEW005 BKN010 BKN020 19/17 Q1011 RMK 2ST005 6ST010 7CU020 A2988;EQDQ01+000000PRSWM2
0157475170999992000091600004+41230+141140FM-15+001099999V0200601N001012200019N0112651N1+02601+02201999999ADDGA1021+009009999GF102991999999999999999999MA1100711999999MW1001REMMET06347517 160000Z 06002KT 9999 FEW030 26/22 Q1007 RMK 1CU030 A2975;EQDQ01+000000PRSWM2
0157475170999992000091603004+41230+141140FM-15+001099999V0201701N001012200019N0112651N1+02601+02301999999ADDGA1021+006009999GF102991999999999999999999MA1100611999999MW1001REMMET06347517 160300Z 17002KT 9999 FEW020 26/23 Q1006 RMK 2CU020 A2971;EQDQ01+000000PRSWM2
0157475170999992000091606004+41230+141140FM-15+001099999V0200401N001512200019N0112651N1+02701+02301999999ADDGA1021+006009999GF102991999999999999999999MA1100411999999MW1001REMMET06347517 160600Z 04003KT 9999 FEW020 27/23 Q1004 RMK 1CU020 A2966;EQDQ01+000000PRSWM2
0187475170999992000091700004+41230+141140FM-15+001099999V0202401N002110240019N0112651N1+02701+02301999999ADDGA1021+009009999GA2071+024009999GF107991999999999999999999MA1100201999999MW1001REMMET07747517 170000Z 24004KT 9999 FEW030 BKN080 27/23 Q1002 RMK 2CU030 6AC080 A2960;EQDQ01+000000PRSWM2
0187475170999992000091703004+41230+141140FM-15+001099999V0202201N002110300019N0112651N1+02801+02401999999ADDGA1021+007509999GA2071+030009999GF107991999999999999999999MA1100101999999MW1001REMMET07747517 170300Z 22004KT 9999 FEW025 BKN100 28/24 Q1001 RMK 2CU025 7AC100 A2958;EQDQ01+000000PRSWM2
0217475170999992000091706004+41230+141140FM-15+001099999V0201901N002110300019N0112651N1+02501+02201999999ADDGA1021+004509999GA2021+007509999GA3071+030009999GF107991999999999999999999MA1100101999999MW1001REMMET09147517 170600Z 19004KT 9999 FEW015 SCT025 BKN100 25/22 Q1001 RMK 1ST015 4CU025 7AC100 A2956;EQDQ01+000000PRSWM2
0157475170999992000091800004+41230+141140FM-15+001099999V0202401N004112200019N0112651N1+02301+01501999999ADDGA1021+007509999GF104991999999999999999999MA1100511999999MW1001REMMET06347517 180000Z 24008KT 9999 SCT025 23/15 Q1005 RMK 4CU025 A2969;EQDQ01+000000PRSWM2
0157475170999992000091803004+41230+141140FM-15+001099999V0202501N004612200019N0112651N1+02401+01401999999ADDGA1021+007509999GF104991999999999999999999MA1100611999999MW1001REMMET06347517 180300Z 25009KT 9999 SCT025 24/14 Q1006 RMK 3CU025 A2971;EQDQ01+000000PRSWM2
0157475170999992000091806004+41230+141140FM-15+001099999V0202501N003110090019N0112651N1+02301+01401999999ADDGA1071+009009999GF107991999999999999999999MA1100711999999MW1001REMMET06347517 180600Z 25006KT 9999 BKN030 23/14 Q1007 RMK 5CU030 A2976;EQDQ01+000000PRSWM2
0157475170999992000091900004+41230+141140FM-15+001099999V0202301N002612200019N0112651N1+02201+01301999999ADDGA1021+009009999GF104991999999999999999999MA1101801999999MW1001REMMET06347517 190000Z 23005KT 9999 SCT030 22/13 Q1018 RMK 3CU030 A3006;EQDQ01+000000PRSWM2
0157475170999992000091903004+41230+141140FM-15+001099999V0202101N002612200019N0112651N1+02301+01401999999ADDGA1021+009009999GF102991999999999999999999MA1101691999999MW1001REMMET06347517 190300Z 21005KT 9999 FEW030 23/14 Q1017 RMK 2CU030 A3005;EQDQ01+000000PRSWM2
0187475170999992000091906004+41230+141140FM-15+001099999V0202501N002110300019N0112651N1+02301+01201999999ADDGA1021+009009999GA2071+030009999GF107991999999999999999999MA1101691999999MW1001REMMET07747517 190600Z 25004KT 9999 FEW030 BKN100 23/12 Q1017 RMK 1CU030 6AC100 A3005;EQDQ01+000000PRSWM2
0157475170999992000092000004+41230+141140FM-15+001099999V0202401N002612200019N0112651N1+02201+01301999999ADDGA1021+009009999GF102991999999999999999999MA1102301999999MW1001REMMET06347517 200000Z 24005KT 9999 FEW030 22/13 Q1023 RMK 2CU030 A3021;EQDQ01+000000PRSWM2
0157475170999992000092003004+41230+141140FM-15+001099999V0202601N004612200019N0112651N1+02301+00901999999ADDGA1021+009009999GF102991999999999999999999MA1102301999999MW1001REMMET06347517 200300Z 26009KT 9999 FEW030 23/09 Q1023 RMK 1CU030 A3021;EQDQ01+000000PRSWM2
0157475170999992000092006004+41230+141140FM-15+001099999V0202601N003112200019N0112651N1+02301+01201999999ADDGA1021+009009999GF102991999999999999999999MA1102201999999MW1001REMMET06347517 200600Z 26006KT 9999 FEW030 23/12 Q1022 RMK 1CU030 A3020;EQDQ01+000000PRSWM2
0180475170999992000092100004+41230+141140FM-15+001099999V0202301N004110600019N0112651N1+02301+01501999999ADDGA1021+009009999GA2071+060009999GF107991999999999999999999MA1102201999999MW1001REMMET07047517 210000Z 23008KT 9999 FEW030 BKN200 23/15 Q1022 RMK 1CU030 A3019;EQDQ01+000000PRSWM2
0180475170999992000092103004+41230+141140FM-15+001099999V0202701N004110600019N0112651N1+02301+01501999999ADDGA1021+009009999GA2071+060009999GF107991999999999999999999MA1102101999999MW1001REMMET07047517 210300Z 27008KT 9999 FEW030 BKN200 23/15 Q1021 RMK 2CU030 A3016;EQDQ01+000000PRSWM2
0180475170999992000092106004+41230+141140FM-15+001099999V0202301N003110600019N0112651N1+02301+01601999999ADDGA1021+009009999GA2071+060009999GF107991999999999999999999MA1102001999999MW1001REMMET07047517 210600Z 23006KT 9999 SCT030 BKN200 23/16 Q1020 RMK 3CU030 A3012;EQDQ01+000000PRSWM2
0180475170999992000092200004+41230+141140FM-15+001099999V0200801N001012200019N0112651N1+02101+01201999999ADDGA1021+030009999GA2021+060009999GF104991999999999999999999MA1102101999999MW1001REMMET07047517 220000Z 08002KT 9999 FEW100 SCT200 21/12 Q1021 RMK 2AC100 A3016;EQDQ01+000000PRSWM2
0180475170999992000092203004+41230+141140FM-15+001099999V0201301N001010600019N0112651N1+02301+00901999999ADDGA1021+030009999GA2071+060009999GF107991999999999999999999MA1102001999999MW1001REMMET07047517 220300Z 13002KT 9999 FEW100 BKN200 23/09 Q1020 RMK 1AC100 A3013;EQDQ01+000000PRSWM2
0180475170999992000092206004+41230+141140FM-15+001099999V0200301N001510600019N0112651N1+02201+01301999999ADDGA1021+030009999GA2071+060009999GF107991999999999999999999MA1101901999999MW1001REMMET07047517 220600Z 03003KT 9999 FEW100 BKN200 22/13 Q1019 RMK 2AC100 A3011;EQDQ01+000000PRSWM2
0210475170999992000092300004+41230+141140FM-15+001099999V0201101N004110600019N0112651N1+02101+01601999999ADDGA1021+004509999GA2021+007509999GA3071+060009999GF107991999999999999999999MA1101901999999MW1001REMMET08447517 230000Z 11008KT 9999 FEW015 SCT025 BKN200 21/16 Q1019 RMK 1ST015 4CU025 A3010;EQDQ01+000000PRSWM2
0217475170999992000092306004+41230+141140FM-15+001099999V0201201N004610075019N0112651N1+02001+01501999999ADDGA1021+004509999GA2071+007509999GA3071+024009999GF107991999999999999999999MA1101691999999MW1001REMMET09147517 230600Z 12009KT 9999 FEW015 BKN025 BKN080 20/15 Q1017 RMK 1ST015 6CU025 7AC080 A3005;EQDQ01+000000PRSWM2
0237475170999992000092406004+41230+141140FM-15+001099999V0201201N005710030019N0080001N1+01901+01601999999ADDGA1021+002409999GA2071+003009999GA3081+006009999GF108991999999999999999999MA1100911999999MW1611REMMET09547517 240600Z 12011KT 8000 -RA FEW008 BKN010 OVC020 19/16 Q1009 RMK 2ST008 6ST010 8SC020 A2980;EQDQ01+000003PRSWM1Q02    003PRSWM1
0209475170999992000092503004+41230+141140FM-15+001099999V0203301N001010060019N0112651N1+01801+01601999999ADDGA1021+003009999GA2071+006009999GF107991999999999999999999MA1100311999999MW1801REMMET08347517 250300Z 33002KT 9999 -SHRA FEW010 BKN020 18/16 Q1003 RMK 2ST010 7CU020 A2963;EQDQ01+000003PRSWM1Q02    003PRSWM1
0209475170999992000092506004+41230+141140FM-15+001099999V0202801N000510060019N0112651N1+01801+01601999999ADDGA1021+003009999GA2071+006009999GF107991999999999999999999MA1100311999999MW1801REMMET08347517 250600Z 28001KT 9999 -SHRA SCT010 BKN020 18/16 Q1003 RMK 3ST010 7CU020 A2962;EQDQ01+000003PRSWM1Q02    003PRSWM1
0209475170999992000092600004+41230+141140FM-15+001099999V0203001N002612200019N0112651N1+02101+01701999999ADDGA1021+003009999GA2021+006009999GF104991999999999999999999MA1100411999999MW1801REMMET08347517 260000Z 30005KT 9999 -SHRA FEW010 SCT020 21/17 Q1004 RMK 1CU010 4CU020 A2966;EQDQ01+000003PRSWM1Q02    003PRSWM1
0187475170999992000092603004+41230+141140FM-15+001099999V0202501N001510075019N0112651N1+02001+01201999999ADDGA1021+004509999GA2071+007509999GF107991999999999999999999MA1100511999999MW1001REMMET07747517 260300Z 25003KT 9999 FEW015 BKN025 20/12 Q1005 RMK 1CU015 6CU025 A2968;EQDQ01+000000PRSWM2
0209475170999992000092606004+41230+141140FM-15+001099999V0203001N002112200019N0112651N1+02001+01001999999ADDGA1021+006009999GA2021+030009999GF104991999999999999999999MA1100611999999MW1801REMMET08347517 260600Z 30004KT 9999 -SHRA SCT020 SCT100 20/10 Q1006 RMK 4CU020 4AC100 A2972;EQDQ01+000003PRSWM1Q02    003PRSWM1
0180475170999992000092700004+41230+141140FM-15+001099999V0203301N002110600019N0112651N1+01801+01001999999ADDGA1021+009009999GA2071+060009999GF107991999999999999999999MA1100811999999MW1001REMMET07047517 270000Z 33004KT 9999 SCT030 BKN200 18/10 Q1008 RMK 3CU030 A2979;EQDQ01+000000PRSWM2
0187475170999992000092703004+41230+141140FM-15+001099999V02099999999990090019N0112651N1+01901+01001999999ADDGA1071+009009999GA2071+024009999GF107991999999999999999999MA1100711999999MW1001REMMET07747517 270300Z VRB01KT 9999 BKN030 BKN080 19/10 Q1007 RMK 5CU030 7AC080 A2976;EQDQ01+000000PRSWM2
0209475170999992000092706004+41230+141140FM-15+001099999V0203101N002110090019N0112651N1+01601+01201999999ADDGA1021+006009999GA2071+009009999GF107991999999999999999999MA1100711999999MW1801REMMET08347517 270600Z 31004KT 9999 -SHRA SCT020 BKN030 16/12 Q1007 RMK 3CU020 7CU030 A2975;EQDQ01+000003PRSWM1Q02    003PRSWM1
0157475170999992000092800004+41230+141140FM-15+001099999V0202201N001512200019N0112651N1+01901+01101999999ADDGA1021+009009999GF104991999999999999999999MA1101021999999MW1001REMMET06347517 280000Z 22003KT 9999 SCT030 19/11 Q1010 RMK 3CU030 A2983;EQDQ01+000000PRSWM2
0157475170999992000092803004+41230+141140FM-15+001099999V0200201N002112200019N0112651N1+02101+01101999999ADDGA1021+009009999GF104991999999999999999999MA1100911999999MW1001REMMET06347517 280300Z 02004KT 9999 SCT030 21/11 Q1009 RMK 3CU030 A2982;EQDQ01+000000PRSWM2
0157475170999992000092806004+41230+141140FM-15+001099999V0200601N001012200019N0112651N1+02101+01101999999ADDGA1021+009009999GF104991999999999999999999MA1101021999999MW1001REMMET06347517 280600Z 06002KT 9999 SCT030 21/11 Q1010 RMK 3CU030 A2983;EQDQ01+000000PRSWM2
0180475170999992000092900004+41230+141140FM-15+001099999V0202201N002610600019N0112651N1+01901+01301999999ADDGA1021+009009999GA2071+060009999GF107991999999999999999999MA1101591999999MW1001REMMET07047517 290000Z 22005KT 9999 SCT030 BKN200 19/13 Q1016 RMK 3CU030 A3001;EQDQ01+000000PRSWM2
0180475170999992000092903004+41230+141140FM-15+001099999V0202401N004110600019N0112651N1+02201+01201999999ADDGA1021+009009999GA2071+060009999GF107991999999999999999999MA1101391999999MW1001REMMET07047517 290300Z 24008KT 9999 FEW030 BKN200 22/12 Q1014 RMK 1CU030 A2997;EQDQ01+000000PRSWM2
0191475170999992000092906004+41230+141140FM-15+001099999V0202501N006210600019N0112651N1+02101+01001999999ADDGA1021+009009999GA2071+060009999GF107991999999999999999999MA1101391999999MW1001OC101341REMMET07347517 290600Z 25012G26KT 9999 FEW030 BKN200 21/10 Q1014 RMK 1CU030 A2996;EQDQ01+000000PRSWM2
0157475170999992000093000004+41230+141140FM-15+001099999V02099999999992200019N0112651N1+01901+01401999999ADDGA1021+007509999GF104991999999999999999999MA1101901999999MW1001REMMET06347517 300000Z VRB02KT 9999 SCT025 19/14 Q1019 RMK 3CU025 A3012;EQDQ01+000000PRSWM2
0180475170999992000093003004+41230+141140FM-15+001099999V0201701N001510600019N0112651N1+02101+01401999999ADDGA1021+009009999GA2071+060009999GF107991999999999999999999MA1101801999999MW1001REMMET07047517 300300Z 17003KT 9999 SCT030 BKN200 21/14 Q1018 RMK 3CU030 A3009;EQDQ01+000000PRSWM2
0180475170999992000093006004+41230+141140FM-15+001099999V0201001N003110600019N0112651N1+02001+01401999999ADDGA1021+007509999GA2071+060009999GF107991999999999999999999MA1101801999999MW1001REMMET07047517 300600Z 10006KT 9999 SCT025 BKN200 20/14 Q1018 RMK 4CU025 A3007;EQDQ01+000000PRSWM2
0187475170999992000100100004+41230+141140FM-15+001099999V0201801N003110075019N0112651N1+02001+01401999999ADDGA1021+004509999GA2071+007509999GF107991999999999999999999MA1101591999999MW1001REMMET07747517 010000Z 18006KT 9999 FEW015 BKN025 20/14 Q1016 RMK 2CU015 6CU025 A3000;EQDQ01+000000PRSWM2
0157475170999992000100103004+41230+141140FM-15+001099999V0201701N001012200019N0112651N1+02201+01501999999ADDGA1021+007509999GF104991999999999999999999MA1101391999999MW1001REMMET06347517 010300Z 17002KT 9999 SCT025 22/15 Q1014 RMK 3CU025 A2997;EQDQ01+000000PRSWM2
0157475170999992000100106004+41230+141140FM-15+001099999V0201701N001512200019N0112651N1+02201+01301999999ADDGA1021+009009999GF102991999999999999999999MA1101291999999MW1001REMMET06347517 010600Z 17003KT 9999 FEW030 22/13 Q1013 RMK 1CU030 A2994;EQDQ01+000000PRSWM2
0187475170999992000100200004+41230+141140FM-15+001099999V0202701N002110300019N0112651N1+01901+01401999999ADDGA1021+009009999GA2071+030009999GF107991999999999999999999MA1101391999999MW1001REMMET07747517 020000Z 27004KT 9999 FEW030 BKN100 19/14 Q1014 RMK 2CU030 7AC100 A2996;EQDQ01+000000PRSWM2
0210475170999992000100203004+41230+141140FM-15+001099999V0200901N001010600019N0112651N1+02101+01501999999ADDGA1021+009009999GA2021+036009999GA3071+060009999GF107991999999999999999999MA1101291999999MW1001REMMET08447517 020300Z 09002KT 9999 FEW030 SCT120 BKN200 21/15 Q1013 RMK 2CU030 4AC120 A2992;EQDQ01+000000PRSWM2
0209475170999992000100300004+41230+141140FM-15+001099999V0200501N000510075019N0112651N1+01901+01701999999ADDGA1071+007509999GA2081+030009999GF108991999999999999999999MA1100411999999MW1801REMMET08347517 030000Z 05001KT 9999 -SHRA BKN025 OVC100 19/17 Q1004 RMK 5CU025 8AC100 A2968;EQDQ01+000003PRSWM1Q02    003PRSWM1
0187475170999992000100303004+41230+141140FM-15+001099999V0201801N001010300019N0112651N1+02001+01501999999ADDGA1021+007509999GA2071+030009999GF107991999999999999999999MA1100311999999MW1001REMMET07747517 030300Z 18002KT 9999 SCT025 BKN100 20/15 Q1003 RMK 4CU025 7AC100 A2962;EQDQ01+000000PRSWM2
0239475170999992000100306004+41230+141140FM-15+001099999V0200301N000510075019N0070001N1+01801+01601999999ADDGA1021+004509999GA2071+007509999GA3071+030009999GF107991999999999999999999MA1100201999999MW1801REMMET09747517 030600Z 03001KT 7000 -SHRA FEW015 BKN025 BKN100 18/16 Q1002 RMK 1ST015 6CU025 7AC100 A2962;EQDQ01+000003PRSWM1Q02    003PRSWM1
0157475170999992000100400004+41230+141140FM-15+001099999V0202401N003612200019N0112651N1+01901+01101999999ADDGA1021+009009999GF104991999999999999999999MA1101081999999MW1001REMMET06347517 040000Z 24007KT 9999 SCT030 19/11 Q1011 RMK 3CU030 A2986;EQDQ01+000000PRSWM2
0157475170999992000100403004+41230+141140FM-15+001099999V0202601N004112200019N0112651N1+02001+00901999999ADDGA1021+009009999GF104991999999999999999999MA1101081999999MW1001REMMET06347517 040300Z 26008KT 9999 SCT030 20/09 Q1011 RMK 3CU030 A2987;EQDQ01+000000PRSWM2
0157475170999992000100406004+41230+141140FM-15+001099999V0202501N003612200019N0112651N1+01901+00901999999ADDGA1021+009009999GF104991999999999999999999MA1101191999999MW1001REMMET06347517 040600Z 25007KT 9999 SCT030 19/09 Q1012 RMK 3CU030 A2989;EQDQ01+000000PRSWM2
0157475170999992000100500004+41230+141140FM-15+001099999V0202801N002110090019N0112651N1+01801+00901999999ADDGA1071+009009999GF107991999999999999999999MA1101691999999MW1001REMMET06347517 050000Z 28004KT 9999 BKN030 18/09 Q1017 RMK 5CU030 A3006;EQDQ01+000000PRSWM2
0157475170999992000100503004+41230+141140FM-15+001099999V0202501N003610090019N0112651N1+01901+00901999999ADDGA1071+009009999GF107991999999999999999999MA1101801999999MW1001REMMET06347517 050300Z 25007KT 9999 BKN030 19/09 Q1018 RMK 5CU030 A3006;EQDQ01+000000PRSWM2
0157475170999992000100506004+41230+141140FM-15+001099999V0202101N002612200019N0112651N1+01801+01301999999ADDGA1021+009009999GF104991999999999999999999MA1101691999999MW1001REMMET06347517 050600Z 21005KT 9999 SCT030 18/13 Q1017 RMK 4CU030 A3006;EQDQ01+000000PRSWM2
0157475170999992000100600004+41230+141140FM-15+001099999V0202401N002612200019N0112651N1+01801+00701999999ADDGA1021+009009999GF104991999999999999999999MA1102101999999MW1001REMMET06347517 060000Z 24005KT 9999 SCT030 18/07 Q1021 RMK 3CU030 A3017;EQDQ01+000000PRSWM2
0157475170999992000100603004+41230+141140FM-15+001099999V0200201N002110090019N0112651N1+01901+00901999999ADDGA1071+009009999GF107991999999999999999999MA1102001999999MW1001REMMET06347517 060300Z 02004KT 9999 BKN030 19/09 Q1020 RMK 5CU030 A3013;EQDQ01+000000PRSWM2
0209475170999992000100606004+41230+141140FM-15+001099999V0202901N001510090019N0112651N1+01701+00901999999ADDGA1071+009009999GA2071+030009999GF107991999999999999999999MA1102001999999MW1801REMMET08347517 060600Z 29003KT 9999 -SHRA BKN030 BKN100 17/09 Q1020 RMK 6CU030 6AC100 A3013;EQDQ01+000003PRSWM1Q02    003PRSWM1
0157475170999992000100700004+41230+141140FM-15+001099999V0200101N002112200019N0112651N1+01701+00701999999ADDGA1021+009009999GF102991999999999999999999MA1102201999999MW1001REMMET06347517 070000Z 01004KT 9999 FEW030 17/07 Q1022 RMK 2CU030 A3020;EQDQ01+000000PRSWM2
0157475170999992000100703004+41230+141140FM-15+001099999V0200801N002110090019N0112651N1+01801+00701999999ADDGA1071+009009999GF107991999999999999999999MA1102101999999MW1001REMMET06347517 070300Z 08004KT 9999 BKN030 18/07 Q1021 RMK 5CU030 A3017;EQDQ01+000000PRSWM2
0157475170999992000100706004+41230+141140FM-15+001099999V0203401N001010090019N0112651N1+01701+01001999999ADDGA1071+009009999GF107991999999999999999999MA1102101999999MW1001REMMET06347517 070600Z 34002KT 9999 BKN030 17/10 Q1021 RMK 5CU030 A3015;EQDQ01+000000PRSWM2
0180475170999992000100800004+41230+141140FM-15+001099999V0202301N002610600019N0112651N1+01801+00901999999ADDGA1021+007509999GA2071+060009999GF107991999999999999999999MA1101901999999MW1001REMMET07047517 080000Z 23005KT 9999 FEW025 BKN200 18/09 Q1019 RMK 1CU025 A3011;EQDQ01+000000PRSWM2
0150475170999992000100803004+41230+141140FM-15+001099999V0201701N002110600019N0112651N1+02101+00801999999ADDGA1071+060009999GF107991999999999999999999MA1101691999999MW1001REMMET05647517 080300Z 17004KT 9999 BKN200 21/08 Q1017 RMK A3005;EQDQ01+000000PRSWM2
0180475170999992000100806004+41230+141140FM-15+001099999V0202601N001510600019N0112651N1+02001+01001999999ADDGA1021+009009999GA2071+060009999GF107991999999999999999999MA1101591999999MW1001REMMET07047517 080600Z 26003KT 9999 FEW030 BKN200 20/10 Q1016 RMK 1CU030 A3001;EQDQ01+000000PRSWM2
0187475170999992000100900004+41230+141140FM-15+001099999V02099999999990150019N0112651N1+01701+01301999999ADDGA1071+015009999GA2071+030009999GF107991999999999999999999MA1101191999999MW1001REMMET07747517 090000Z VRB01KT 9999 BKN050 BKN100 17/13 Q1012 RMK 5SC050 7AC100 A2990;EQDQ01+000000PRSWM2
0187475170999992000100903004+41230+141140FM-15+001099999V0202101N002610300019N0112651N1+01901+01501999999ADDGA1021+007509999GA2071+030009999GF107991999999999999999999MA1101021999999MW1001REMMET07747517 090300Z 21005KT 9999 FEW025 BKN100 19/15 Q1010 RMK 1CU025 7AC100 A2985;EQDQ01+000000PRSWM2
0180475170999992000100906004+41230+141140FM-15+001099999V0202201N003110600019N0112651N1+02201+01401999999ADDGA1021+007509999GA2071+060009999GF107991999999999999999999MA1100911999999MW1001REMMET07047517 090600Z 22006KT 9999 FEW025 BKN200 22/14 Q1009 RMK 1CU025 A2980;EQDQ01+000000PRSWM2
0150475170999992000101000004+41230+141140FM-15+001099999V0200601N001012200019N0112651N1+01801+01001999999ADDGA1021+060009999GF102991999999999999999999MA1101291999999MW1001REMMET05647517 100000Z 06002KT 9999 FEW200 18/10 Q1013 RMK A2994;EQDQ01+000000PRSWM2
0150475170999992000101003004+41230+141140FM-15+001099999V0202401N004112200019N0112651N1+02101+00801999999ADDGA1021+060009999GF102991999999999999999999MA1101191999999MW1001REMMET05647517 100300Z 24008KT 9999 FEW200 21/08 Q1012 RMK A2991;EQDQ01+000000PRSWM2
0157475170999992000101006004+41230+141140FM-15+001099999V0202401N003612200019N0112651N1+02001+00801999999ADDGA1021+036009999GF102991999999999999999999MA1101291999999MW1001REMMET06347517 100600Z 24007KT 9999 FEW120 20/08 Q1013 RMK 1AC120 A2992;EQDQ01+000000PRSWM2
0180475170999992000101100004+41230+141140FM-15+001099999V0201701N002110600019N0112651N1+01701+01201999999ADDGA1021+009009999GA2071+060009999GF107991999999999999999999MA1101491999999MW1001REMMET07047517 110000Z 17004KT 9999 FEW030 BKN200 17/12 Q1015 RMK 1CU030 A2999;EQDQ01+000000PRSWM2
0187475170999992000101103004+41230+141140FM-15+001099999V0202601N002110120019N0112651N1+01701+00901999999ADDGA1071+012009999GA2071+030009999GF107991999999999999999999MA1101291999999MW1001REMMET07747517 110300Z 26004KT 9999 BKN040 BKN100 17/09 Q1013 RMK 5SC040 7AC100 A2992;EQDQ01+000000PRSWM2
0210475170999992000101200004+41230+141140FM-15+001099999V0202401N003610300019N0112651N1+01501+00601999999ADDGA1021+009009999GA2071+030009999GA3071+060009999GF107991999999999999999999MA1100811999999MW1001REMMET08447517 120000Z 24007KT 9999 SCT030 BKN100 BKN200 15/06 Q1008 RMK 3CU030 5AC100 A2979;EQDQ01+000000PRSWM2
0187475170999992000101203004+41230+141140FM-15+001099999V0202501N004110090019N0112651N1+01501+00501999999ADDGA1071+009009999GA2071+030009999GF107991999999999999999999MA1100811999999MW1001REMMET07747517 120300Z 25008KT 9999 BKN030 BKN100 15/05 Q1008 RMK 5CU030 7AC100 A2977;EQDQ01+000000PRSWM2
0157475170999992000101206004+41230+141140FM-15+001099999V0202601N002110090019N0112651N1+01301+00401999999ADDGA1071+009009999GF107991999999999999999999MA1100811999999MW1001REMMET06347517 120600Z 26004KT 9999 BKN030 13/04 Q1008 RMK 7CU030 A2979;EQDQ01+000000PRSWM2
0187475170999992000101300004+41230+141140FM-15+001099999V0201301N001510090019N0112651N1+01201+00601999999ADDGA1021+006009999GA2071+009009999GF107991999999999999999999MA1101491999999MW1001REMMET07747517 130000Z 13003KT 9999 FEW020 BKN030 12/06 Q1015 RMK 1CU020 5CU030 A2998;EQDQ01+000000PRSWM2
0187475170999992000101303004+41230+141140FM-15+001099999V0202401N002110090019N0112651N1+01401+00501999999ADDGA1021+006009999GA2071+009009999GF107991999999999999999999MA1101291999999MW1001REMMET07747517 130300Z 24004KT 9999 FEW020 BKN030 14/05 Q1013 RMK 1CU020 6CU030 A2993;EQDQ01+000000PRSWM2
0157475170999992000101306004+41230+141140FM-15+001099999V0202201N003112200019N0112651N1+01501+00301999999ADDGA1021+009009999GF104991999999999999999999MA1101191999999MW1001REMMET06347517 130600Z 22006KT 9999 SCT030 15/03 Q1012 RMK 3CU030 A2990;EQDQ01+000000PRSWM2
0209475170999992000101400004+41230+141140FM-15+001099999V0202401N003110090019N0112651N1+01201+00801999999ADDGA1021+004509999GA2071+009009999GF107991999999999999999999MA1101801999999MW1801REMMET08347517 140000Z 24006KT 9999 -SHRA SCT015 BKN030 12/08 Q1018 RMK 3CU015 7CU030 A3007;EQDQ01+000003PRSWM1Q02    003PRSWM1
0157475170999992000101403004+41230+141140FM-15+001099999V0202501N003610090019N0112651N1+01501+00301999999ADDGA1071+009009999GF107991999999999999999999MA1101801999999MW1001REMMET06347517 140300Z 25007KT 9999 BKN030 15/03 Q1018 RMK 5CU030 A3007;EQDQ01+000000PRSWM2
0180475170999992000101406004+41230+141140FM-15+001099999V0202601N003612200019N0112651N1+01601+00301999999ADDGA1021+009009999GA2021+060009999GF104991999999999999999999MA1101801999999MW1001REMMET07047517 140600Z 26007KT 9999 SCT030 SCT200 16/03 Q1018 RMK 3CU030 A3008;EQDQ01+000000PRSWM2
0180475170999992000101500004+41230+141140FM-15+001099999V0202101N003110600019N0112651N1+01601+00801999999ADDGA1021+009009999GA2071+060009999GF107991999999999999999999MA1102101999999MW1001REMMET07047517 150000Z 21006KT 9999 FEW030 BKN200 16/08 Q1021 RMK 2CU030 A3016;EQDQ01+000000PRSWM2
0157475170999992000101503004+41230+141140FM-15+001099999V0202001N004112200019N0112651N1+01701+00701999999ADDGA1021+009009999GF102991999999999999999999MA1101801999999MW1001REMMET06347517 150300Z 20008KT 9999 FEW030 17/07 Q1018 RMK 2CU030 A3009;EQDQ01+000000PRSWM2
0157475170999992000101506004+41230+141140FM-15+001099999V0202301N003612200019N0112651N1+01701+00601999999ADDGA1021+009009999GF104991999999999999999999MA1101691999999MW1001REMMET06347517 150600Z 23007KT 9999 SCT030 17/06 Q1017 RMK 3CU030 A3003;EQDQ01+000000PRSWM2
0157475170999992000101600004+41230+141140FM-15+001099999V0202301N002612200019N0112651N1+01301+00201999999ADDGA1021+009009999GF104991999999999999999999MA1102511999999MW1001REMMET06347517 160000Z 23005KT 9999 SCT030 13/02 Q1025 RMK 3CU030 A3028;EQDQ01+000000PRSWM2
0157475170999992000101603004+41230+141140FM-15+001099999V0202501N005112200019N0112651N1+01401+00201999999ADDGA1021+009009999GF102991999999999999999999MA1102401999999MW1001REMMET06347517 160300Z 25010KT 9999 FEW030 14/02 Q1024 RMK 2CU030 A3025;EQDQ01+000000PRSWM2
0157475170999992000101606004+41230+141140FM-15+001099999V0202601N004112200019N0112651N1+01301+00201999999ADDGA1021+009009999GF102991999999999999999999MA1102301999999MW1001REMMET06347517 160600Z 26008KT 9999 FEW030 13/02 Q1023 RMK 1CU030 A3023;EQDQ01+000000PRSWM2
0157475170999992000101700004+41230+141140FM-15+001099999V0202001N002112200019N0112651N1+01401+00601999999ADDGA1021+009009999GF102991999999999999999999MA1101901999999MW1001REMMET06347517 170000Z 20004KT 9999 FEW030 14/06 Q1019 RMK 1CU030 A3010;EQDQ01+000000PRSWM2
0150475170999992000101703004+41230+141140FM-15+001099999V0201801N002112200019N0112651N1+01501+00501999999ADDGA1021+060009999GF102991999999999999999999MA1101491999999MW1001REMMET05647517 170300Z 18004KT 9999 FEW200 15/05 Q1015 RMK A2999;EQDQ01+000000PRSWM2
0180475170999992000101706004+41230+141140FM-15+001099999V0203001N001010360019N0112651N1+01501+00601999999ADDGA1071+036009999GA2071+060009999GF107991999999999999999999MA1101191999999MW1001REMMET07047517 170600Z 30002KT 9999 BKN120 BKN200 15/06 Q1012 RMK 5AC120 A2991;EQDQ01+000000PRSWM2
0169475170999992000101800004+41230+141140FM-15+001099999V0202701N004110090019N0112651N1+00701-00301999999ADDGA1071+009009999GF107991999999999999999999MA1101191999999MW1001OC100931REMMET06747517 180000Z 27008G18KT 9999 BKN030 07/M03 Q1012 RMK 5CU030 A2990;EQDQ01+000000PRSWM2
0191475170999992000101803004+41230+141140FM-15+001099999V0202701N003110090019N0112651N1+00601+00001999999ADDGA1071+009009999GF107991999999999999999999MA1101291999999MW1801OC100931REMMET07347517 180300Z 27006G18KT 9999 -SHRA BKN030 06/M00 Q1013 RMK 7CU030 A2994;EQDQ01+000003PRSWM1Q02    003PRSWM1
0169475170999992000101806004+41230+141140FM-15+001099999V0202801N003110090019N0112651N1+00701-00401999999ADDGA1071+009009999GF107991999999999999999999MA1101591999999MW1001OC100821REMMET06747517 180600Z 28006G16KT 9999 BKN030 07/M04 Q1016 RMK 7CU030 A3001;EQDQ01+000000PRSWM2
0157475170999992000101903004+41230+141140FM-15+001099999V0202401N004112200019N0112651N1+01401+00401999999ADDGA1021+009009999GF102991999999999999999999MA1102101999999MW1001REMMET06347517 190300Z 24008KT 9999 FEW030 14/04 Q1021 RMK 1CU030 A3016;EQDQ01+000000PRSWM2
0157475170999992000101906004+41230+141140FM-15+001099999V0202301N003112200019N0112651N1+01401+00401999999ADDGA1021+009009999GF102991999999999999999999MA1102101999999MW1001REMMET06347517 190600Z 23006KT 9999 FEW030 14/04 Q1021 RMK 1CU030 A3018;EQDQ01+000000PRSWM2
0187475170999992000102003004+41230+141140FM-15+001099999V0202601N002110360019N0112651N1+01701+00401999999ADDGA1021+006009999GA2071+036009999GF107991999999999999999999MA1101691999999MW1001REMMET07747517 200300Z 26004KT 9999 FEW020 BKN120 17/04 Q1017 RMK 1CU020 7AC120 A3004;EQDQ01+000000PRSWM2
0157475170999992000102100004+41230+141140FM-15+001099999V0202701N002612200019N0112651N1+01701+00801999999ADDGA1021+007509999GF102991999999999999999999MA1101491999999MW1001REMMET06347517 210000Z 27005KT 9999 FEW025 17/08 Q1015 RMK 1CU025 A2999;EQDQ01+000000PRSWM2
0157475170999992000102103004+41230+141140FM-15+001099999V0202501N003612200019N0112651N1+01701+00801999999ADDGA1021+007509999GF102991999999999999999999MA1101391999999MW1001REMMET06347517 210300Z 25007KT 9999 FEW025 17/08 Q1014 RMK 2CU025 A2996;EQDQ01+000000PRSWM2
0157475170999992000102106004+41230+141140FM-15+001099999V0202301N002112200019N0112651N1+01601+00501999999ADDGA1021+007509999GF102991999999999999999999MA1101491999999MW1001REMMET06347517 210600Z 23004KT 9999 FEW025 16/05 Q1015 RMK 2CU025 A2998;EQDQ01+000000PRSWM2
0158475170999992000102200004+41230+141140FM-15+001099999V0202701N003612200019N0112651N1+01301-00101999999ADDGA1021+009009999GF102991999999999999999999MA1102301999999MW1001REMMET06447517 220000Z 27007KT 9999 FEW030 13/M01 Q1023 RMK 2CU030 A3024;EQDQ01+000000PRSWM2
0157475170999992000102203004+41230+141140FM-15+001099999V02099999999992200019N0112651N1+01501+00001999999ADDGA1021+009009999GF102991999999999999999999MA1102201999999MW1001REMMET06347517 220300Z 25009K 9999 FEW030 15/M00 Q1022 RMK 2CU030 A3020;EQDQ01+000000PRSWM2
0181475170999992000102206004+41230+141140FM-15+001099999V0202701N003112200019N0112651N1+01401+00001999999ADDGA1021+009009999GA2021+060009999GF104991999999999999999999MA1102201999999MW1001REMMET07147517 220600Z 27006KT 9999 SCT030 SCT200 14/M00 Q1022 RMK 3CU030 A3020;EQDQ01+000000PRSWM2
0210475170999992000102300004+41230+141140FM-15+001099999V0200901N001010600019N0112651N1+01301+00501999999ADDGA1021+009009999GA2021+045009999GA3071+060009999GF107991999999999999999999MA1102401999999MW1001REMMET08447517 230000Z 09002KT 9999 FEW030 SCT150 BKN200 13/05 Q1024 RMK 1CU030 3AC150 A3024;EQDQ01+000000PRSWM2
0180475170999992000102303004+41230+141140FM-15+001099999V0201101N001010600019N0112651N1+01401+00501999999ADDGA1021+009009999GA2071+060009999GF107991999999999999999999MA1102101999999MW1001REMMET07047517 230300Z 11002KT 9999 FEW030 BKN200 14/05 Q1021 RMK 1CU030 A3016;EQDQ01+000000PRSWM2
0217475170999992000102306004+41230+141140FM-15+001099999V0201001N003110300019N0112651N1+01401+00601999999ADDGA1021+009009999GA2021+013509999GA3081+030009999GF108991999999999999999999MA1102001999999MW1001REMMET09147517 230600Z 10006KT 9999 FEW030 SCT045 OVC100 14/06 Q1020 RMK 1CU030 3SC045 8AS100 A3014;EQDQ01+000000PRSWM2
0150475170999992000102400004+41230+141140FM-15+001099999V0200901N001512200019N0112651N1+01501+00801999999ADDGA1021+069009999GF102991999999999999999999MA1102301999999MW1001REMMET05647517 240000Z 09003KT 9999 FEW230 15/08 Q1023 RMK A3023;EQDQ01+000000PRSWM2
0180475170999992000102403004+41230+141140FM-15+001099999V0201001N001010690019N0112651N1+01601+00501999999ADDGA1021+009009999GA2071+069009999GF107991999999999999999999MA1102201999999MW1001REMMET07047517 240300Z 10002KT 9999 FEW030 BKN230 16/05 Q1022 RMK 1CU030 A3021;EQDQ01+000000PRSWM2
0180475170999992000102406004+41230+141140FM-15+001099999V0201201N003612200019N0112651N1+01601+00601999999ADDGA1021+009009999GA2021+060009999GF104991999999999999999999MA1102201999999MW1001REMMET07047517 240600Z 12007KT 9999 FEW030 SCT200 16/06 Q1022 RMK 1CU030 A3019;EQDQ01+000000PRSWM2
0187475170999992000102500004+41230+141140FM-15+001099999V0202101N002610240019N0112651N1+01501+01101999999ADDGA1021+009009999GA2071+024009999GF107991999999999999999999MA1101191999999MW1001REMMET07747517 250000Z 21005KT 9999 FEW030 BKN080 15/11 Q1012 RMK 1CU030 7AC080 A2990;EQDQ01+000000PRSWM2
0239475170999992000102506004+41230+141140FM-15+001099999V0202801N001010045019N0040001N1+01601+01401999999ADDGA1021+002409999GA2071+004509999GA3071+007509999GF107991999999999999999999MA1100711999999MW1801REMMET09747517 250600Z 28002KT 4000 -SHRA FEW008 BKN015 BKN025 16/14 Q1007 RMK 2ST008 5CU015 7CU025 A2976;EQDQ01+000003PRSWM1Q02    003PRSWM1
0157475170999992000102600004+41230+141140FM-15+001099999V0202501N004112200019N0112651N1+01201+00101999999ADDGA1021+010509999GF102991999999999999999999MA1101021999999MW1001REMMET06347517 260000Z 25008KT 9999 FEW035 12/01 Q1010 RMK 1CU035 A2983;EQDQ01+000000PRSWM2
0221475170999992000102603004+41230+141140FM-15+001099999V0202601N005110090019N0112651N1+01001-00101999999ADDGA1021+006009999GA2071+009009999GF107991999999999999999999MA1101081999999MW1801OC101131REMMET08747517 260300Z 26010G22KT 9999 -SHRA FEW020 BKN030 10/M01 Q1011 RMK 1CU020 7CU030 A2988;EQDQ01+000003PRSWM1Q02    003PRSWM1
0158475170999992000102606004+41230+141140FM-15+001099999V0202601N003610090019N0112651N1+00901-00301999999ADDGA1071+009009999GF107991999999999999999999MA1101291999999MW1001REMMET06447517 260600Z 26007KT 9999 BKN030 09/M03 Q1013 RMK 6CU030 A2994;EQDQ01+000000PRSWM2
0158475170999992000102700004+41230+141140FM-15+001099999V0202801N001512200019N0112651N1+01101-00101999999ADDGA1021+009009999GF102991999999999999999999MA1102201999999MW1001REMMET06447517 270000Z 28003KT 9999 FEW030 11/M01 Q1022 RMK 2CU030 A3018;EQDQ01+000000PRSWM2
0158475170999992000102703004+41230+141140FM-15+001099999V0202501N005112200019N0112651N1+01201+00001999999ADDGA1021+009009999GF104991999999999999999999MA1102101999999MW1001REMMET06447517 270300Z 25010KT 9999 SCT030 12/M00 Q1021 RMK 3CU030 A3017;EQDQ01+000000PRSWM2
0187475170999992000102706004+41230+141140FM-15+001099999V0202301N003110090019N0112651N1+01101+00101999999ADDGA1021+006009999GA2071+009009999GF107991999999999999999999MA1102101999999MW1001REMMET07747517 270600Z 23006KT 9999 FEW020 BKN030 11/01 Q1021 RMK 2CU020 6CU030 A3017;EQDQ01+000000PRSWM2
0180475170999992000102800004+41230+141140FM-15+001099999V0202601N002610600019N0112651N1+01101+00001999999ADDGA1021+009009999GA2071+060009999GF107991999999999999999999MA1102101999999MW1001REMMET07047517 280000Z 26005KT 9999 FEW030 BKN200 11/00 Q1021 RMK 2CU030 A3017;EQDQ01+000000PRSWM2
0191475170999992000102803004+41230+141140FM-15+001099999V0202501N005112200019N0112651N1+01301+00001999999ADDGA1021+009009999GA2021+060009999GF104991999999999999999999MA1101901999999MW1001OC101131REMMET07347517 280300Z 25010G22KT 9999 SCT030 SCT200 13/00 Q1019 RMK 3CU030 A3009;EQDQ01+000000PRSWM2
0180475170999992000102806004+41230+141140FM-15+001099999V0202501N003610090019N0112651N1+01201+00101999999ADDGA1071+009009999GA2071+060009999GF107991999999999999999999MA1101691999999MW1001REMMET07047517 280600Z 25007KT 9999 BKN030 BKN200 12/01 Q1017 RMK 5CU030 A3006;EQDQ01+000000PRSWM2
0158475170999992000102903004+41230+141140FM-15+001099999V0202101N002612200019N0112651N1+01301-00101999999ADDGA1021+009009999GF102991999999999999999999MA1101021999999MW1001REMMET06447517 290300Z 21005KT 9999 FEW030 13/M01 Q1010 RMK 1CU030 A2983;EQDQ01+000000PRSWM2
0158475170999992000102906004+41230+141140FM-15+001099999V0202601N003112200019N0112651N1+01301-00101999999ADDGA1021+009009999GF102991999999999999999999MA1100911999999MW1001REMMET06447517 290600Z 26006KT 9999 FEW030 13/M01 Q1009 RMK 1CU030 A2981;EQDQ01+000000PRSWM2
0188475170999992000103000004+41230+141140FM-15+001099999V0202101N001512200019N0112651N1+01001-00101999999ADDGA1021+006009999GA2021+012009999GF104991999999999999999999MA1101291999999MW1001REMMET07847517 300000Z 21003KT 9999 FEW020 SCT040 10/M01 Q1013 RMK 1CU020 4SC040 A2992;EQDQ01+000000PRSWM2
0158475170999992000103003004+41230+141140FM-15+001099999V0203001N002610090019N0112651N1+01201-00101999999ADDGA1071+009009999GF107991999999999999999999MA1101391999999MW1001REMMET06447517 300300Z 30005KT 9999 BKN030 12/M01 Q1014 RMK 6CU030 A2994;EQDQ01+000000PRSWM2
0158475170999992000103006004+41230+141140FM-15+001099999V0202501N003610090019N0112651N1+01101-00101999999ADDGA1071+009009999GF107991999999999999999999MA1101491999999MW1001REMMET06447517 300600Z 25007KT 9999 BKN030 11/M01 Q1015 RMK 6CU030 A2998;EQDQ01+000000PRSWM2
0217475170999992000103100004+41230+141140FM-15+001099999V0202201N002610135019N0112651N1+01101+00301999999ADDGA1021+006009999GA2021+009009999GA3071+013509999GF107991999999999999999999MA1102301999999MW1001REMMET09147517 310000Z 22005KT 9999 FEW020 SCT030 BKN045 11/03 Q1023 RMK 1CU020 3CU030 5SC045 A3024;EQDQ01+000000PRSWM2
0198475170999992000103103004+41230+141140FM-15+001099999V0202501N003110090019N0112651N1+01301+00201999999ADDGA1021+006009999GA2071+009009999GF107991999999999999999999MA1102301999999MW1001OC100931REMMET08047517 310300Z 25006G18KT 9999 FEW020 BKN030 13/02 Q1023 RMK 1CU020 7CU030 A3022;EQDQ01+000000PRSWM2
0157475170999992000103106004+41230+141140FM-15+001099999V0202201N003612200019N0112651N1+01401+00301999999ADDGA1021+009009999GF102991999999999999999999MA1102301999999MW1001REMMET06347517 310600Z 22007KT 9999 FEW030 14/03 Q1023 RMK 2CU030 A3021;EQDQ01+000000PRSWM2
0237475170999992000110106004+41230+141140FM-15+001099999V0202501N002610120019N0112651N1+01201+01001999999ADDGA1021+004509999GA2071+012009999GA3081+024009999GF108991999999999999999999MA1101901999999MW1611REMMET09547517 010600Z 25005KT 9999 -RA SCT015 BKN040 OVC080 12/10 Q1019 RMK 4ST015 6SC040 8AS080 A3009;EQDQ01+000003PRSWM1Q02    003PRSWM1
0237475170999992000110200004+41230+141140FM-15+001099999V0202601N000510045019N0112651N1+01101+00801999999ADDGA1021+001509999GA2071+004509999GA3071+009009999GF107991999999999999999999MA1101901999999MW1611REMMET09547517 020000Z 26001KT 9999 -RA FEW005 BKN015 BKN030 11/08 Q1019 RMK 2ST005 6ST015 7SC030 A3010;EQDQ01+000003PRSWM1Q02    003PRSWM1
0237475170999992000110203004+41230+141140FM-15+001099999V0200101N000510045019N0080001N1+01201+00901999999ADDGA1021+001509999GA2071+004509999GA3071+007509999GF107991999999999999999999MA1101801999999MW1611REMMET09547517 020300Z 01001KT 8000 -RA FEW005 BKN015 BKN025 12/09 Q1018 RMK 2ST005 6ST015 7SC025 A3007;EQDQ01+000003PRSWM1Q02    003PRSWM1
0237475170999992000110206004+41230+141140FM-15+001099999V0201301N001510030019N0080001N1+01101+00801999999ADDGA1021+001509999GA2071+003009999GA3071+006009999GF107991999999999999999999MA1101801999999MW1611REMMET09547517 020600Z 13003KT 8000 -RA FEW005 BKN010 BKN020 11/08 Q1018 RMK 2ST005 5ST010 7SC020 A3009;EQDQ01+000003PRSWM1Q02    003PRSWM1
0217475170999992000110300004+41230+141140FM-15+001099999V0202101N002110075019N0112651N1+01201+00801999999ADDGA1021+004509999GA2071+007509999GA3071+030009999GF107991999999999999999999MA1102201999999MW1001REMMET09147517 030000Z 21004KT 9999 FEW015 BKN025 BKN100 12/08 Q1022 RMK 2CU015 6CU025 7AC100 A3019;EQDQ01+000000PRSWM2
0157475170999992000110403004+41230+141140FM-15+001099999V0201101N001012200019N0112651N1+01401+00101999999ADDGA1021+009009999GF102991999999999999999999MA1102301999999MW1001REMMET06347517 040300Z 11002KT 9999 FEW030 14/01 Q1023 RMK 1CU030 A3022;EQDQ01+000000PRSWM2
0157475170999992000110500004+41230+141140FM-15+001099999V0202201N002610090019N0112651N1+01301+00801999999ADDGA1071+009009999GF107991999999999999999999MA1101081999999MW1001REMMET06347517 050000Z 22005KT 9999 BKN030 13/08 Q1011 RMK 6CU030 A2987;EQDQ01+000000PRSWM2
0187475170999992000110503004+41230+141140FM-15+001099999V0202201N002612200019N0112651N1+01601+01201999999ADDGA1021+004509999GA2021+009009999GF104991999999999999999999MA1100911999999MW1001REMMET07747517 050300Z 22005KT 9999 FEW015 SCT030 16/12 Q1009 RMK 1ST015 4CU030 A2982;EQDQ01+000000PRSWM2
0157475170999992000110506004+41230+141140FM-15+001099999V0202501N004610090019N0112651N1+01601+00901999999ADDGA1071+009009999GF107991999999999999999999MA1101021999999MW1001REMMET06347517 050600Z 25009KT 9999 BKN030 16/09 Q1010 RMK 6CU030 A2983;EQDQ01+000000PRSWM2
0157475170999992000110600004+41230+141140FM-15+001099999V0201801N001512200019N0112651N1+01301+00301999999ADDGA1021+009009999GF102991999999999999999999MA1101901999999MW1001REMMET06347517 060000Z 18003KT 9999 FEW030 13/03 Q1019 RMK 2CU030 A3010;EQDQ01+000000PRSWM2
0157475170999992000110603004+41230+141140FM-15+001099999V0202501N003112200019N0112651N1+01501+00401999999ADDGA1021+009009999GF102991999999999999999999MA1101801999999MW1001REMMET06347517 060300Z 25006KT 9999 FEW030 15/04 Q1018 RMK 2CU030 A3007;EQDQ01+000000PRSWM2
0157475170999992000110606004+41230+141140FM-15+001099999V0202501N004112200019N0112651N1+01501+00301999999ADDGA1021+009009999GF102991999999999999999999MA1101801999999MW1001REMMET06347517 060600Z 25008KT 9999 FEW030 15/03 Q1018 RMK 1CU030 A3008;EQDQ01+000000PRSWM2
0150475170999992000110700004+41230+141140FM-15+001099999V0202001N002112200019N0112651N1+01301+00801999999ADDGA1021+060009999GF102991999999999999999999MA1101491999999MW1001REMMET05647517 070000Z 20004KT 9999 FEW200 13/08 Q1015 RMK A2998;EQDQ01+000000PRSWM2
0180475170999992000110703004+41230+141140FM-15+001099999V0201901N002610660019N0112651N1+01501+00901999999ADDGA1021+030009999GA2071+066009999GF107991999999999999999999MA1101081999999MW1001REMMET07047517 070300Z 19005KT 9999 FEW100 BKN220 15/09 Q1011 RMK 1AC100 A2986;EQDQ01+000000PRSWM2
0192475170999992000110806004+41230+141140FM-15+001099999V0202601N006210600019N0112651N1+00401-00201999999ADDGA1021+007509999GA2071+060009999GF107991999999999999999999MA1101491999999MW1001OC101341REMMET07447517 080600Z 26012G26KT 9999 FEW025 BKN200 04/M02 Q1015 RMK 2CU025 A2998;EQDQ01+000000PRSWM2
0164475170999992000110900004+41230+141140FM-15+001099999V0200701N001010090019N0112651N1+00501-00101999999ADDGA1021+006009999GA2071+009009999GF107991999999999999999999MW1001REMMET06947517 090000Z 07002KT 9999 FEW020 BKN030 05/M01 Q10PA20 6CU030 A3020;EQDQ01+000000PRSWM2
0158475170999992000110903004+41230+141140FM-15+001099999V0202701N002612200019N0112651N1+00701+00001999999ADDGA1021+009009999GF104991999999999999999999MA1102001999999MW1001REMMET06447517 090300Z 27005KT 9999 SCT030 07/M00 Q1020 RMK 3CU030 A3015;EQDQ01+000000PRSWM2
0169475170999992000110906004+41230+141140FM-15+001099999V0202601N004110090019N0112651N1+00701-00401999999ADDGA1071+009009999GF107991999999999999999999MA1102001999999MW1001OC101031REMMET06747517 090600Z 26008G20KT 9999 BKN030 07/M04 Q1020 RMK 5CU030 A3015;EQDQ01+000000PRSWM2
0217475170999992000111000004+41230+141140FM-15+001099999V0201301N001010090019N0112651N1+00601+00101999999ADDGA1021+006009999GA2071+009009999GA3081+024009999GF108991999999999999999999MA1102101999999MW1001REMMET09147517 100000Z 13002KT 9999 FEW020 BKN030 OVC080 06/01 Q1021 RMK 2CU020 6CU030 8AC080 A3017;EQDQ01+000000PRSWM2
0158475170999992000111006004+41230+141140FM-15+001099999V0200401N001512200019N0112651N1+00701+00001999999ADDGA1021+007509999GF102991999999999999999999MA1101801999999MW1001REMMET06447517 100600Z 04003KT 9999 FEW025 07/M00 Q1018 RMK 1CU025 A3009;EQDQ01+000000PRSWM2
0218475170999992000111100004+41230+141140FM-15+001099999V0203401N002110075019N0112651N1+00401-00101999999ADDGA1021+003009999GA2071+007509999GF107991999999999999999999MA1101691999999MW1801MW2851REMMET08647517 110000Z 34004KT 9999 -SHRASN FEW010 BKN025 04/M01 Q1017 RMK 2ST010 7CU025 A3004;EQDQ01+000003PRSWM1Q02    003PRSWM1
0158475170999992000111103004+41230+141140FM-15+001099999V0203001N003112200019N0112651N1+00601-00301999999ADDGA1021+009009999GF104991999999999999999999MA1101691999999MW1001REMMET06447517 110300Z 30006KT 9999 SCT030 06/M03 Q1017 RMK 3CU030 A3004;EQDQ01+000000PRSWM2
0158475170999992000111106004+41230+141140FM-15+001099999V0202801N002112200019N0112651N1+00501-00501999999ADDGA1021+009009999GF104991999999999999999999MA1101801999999MW1001REMMET06447517 110600Z 28004KT 9999 SCT030 05/M05 Q1018 RMK 3CU030 A3009;EQDQ01+000000PRSWM2
0237475170999992000111203004+41230+141140FM-15+001099999V0202701N002610120019N0112651N1+00701+00201999999ADDGA1021+007509999GA2071+012009999GA3071+024009999GF107991999999999999999999MA1101801999999MW1611REMMET09547517 120300Z 27005KT 9999 -RA SCT025 BKN040 BKN080 07/02 Q1018 RMK 3CU025 6SC040 7AC080 A3008;EQDQ01+000003PRSWM1Q02    003PRSWM1
0180475170999992000111206004+41230+141140FM-15+001099999V0202301N003112200019N0112651N1+01001+00201999999ADDGA1021+007509999GA2021+060009999GF104991999999999999999999MA1101491999999MW1001REMMET07047517 120600Z 23006KT 9999 FEW025 SCT200 10/02 Q1015 RMK 2CU025 A2999;EQDQ01+000000PRSWM2
0158475170999992000111300004+41230+141140FM-15+001099999V0202401N002112200019N0112651N1+00701-00301999999ADDGA1021+009009999GF102991999999999999999999MA1102201999999MW1001REMMET06447517 130000Z 24004KT 9999 FEW030 07/M03 Q1022 RMK 2CU030 A3020;EQDQ01+000000PRSWM2
0188475170999992000111303004+41230+141140FM-15+001099999V0202301N002610090019N0112651N1+00801-00301999999ADDGA1021+006009999GA2071+009009999GF107991999999999999999999MA1102201999999MW1001REMMET07847517 130300Z 23005KT 9999 FEW020 BKN030 08/M03 Q1022 RMK 1CU020 6CU030 A3020;EQDQ01+000000PRSWM2
0207475170999992000111403004+41230+141140FM-15+001099999V0202301N002110120019N0112651N1+00901+00301999999ADDGA1021+009009999GA2071+012009999GF107991999999999999999999MA1102711999999MW1611REMMET08147517 140300Z 23004KT 9999 -RA FEW030 BKN040 09/03 Q1027 RMK 2CU030 7SC040 A3035;EQDQ01+000003PRSWM1Q02    003PRSWM1
0187475170999992000111406004+41230+141140FM-15+001099999V0202601N001510120019N0112651N1+01001+00401999999ADDGA1021+006009999GA2071+012009999GF107991999999999999999999MA1102611999999MW1001REMMET07747517 140600Z 26003KT 9999 FEW020 BKN040 10/04 Q1026 RMK 2ST020 7SC040 A3030;EQDQ01+000000PRSWM2
0187475170999992000111500004+41230+141140FM-15+001099999V0202101N001510090019N0112651N1+01101+00601999999ADDGA1021+006009999GA2071+009009999GF107991999999999999999999MA1101901999999MW1001REMMET07747517 150000Z 21003KT 9999 FEW020 BKN030 11/06 Q1019 RMK 2CU020 7CU030 A3012;EQDQ01+000000PRSWM2
0180475170999992000111506004+41230+141140FM-15+001099999V0202601N002610600019N0112651N1+01201+00001999999ADDGA1021+009009999GA2071+060009999GF107991999999999999999999MA1101691999999MW1001REMMET07047517 150600Z 26005KT 9999 FEW030 BKN200 12/00 Q1017 RMK 2CU030 A3005;EQDQ01+000000PRSWM2
0187475170999992000111700004+41230+141140FM-15+001099999V0200201N000510060019N0112651N1+00501+00001999999ADDGA1071+006009999GA2071+009009999GF107991999999999999999999MA1102201999999MW1001REMMET07747517 170000Z 02001KT 9999 BKN020 BKN030 05/00 Q1022 RMK 5CU020 7CU030 A3021;EQDQ01+000000PRSWM2
0187475170999992000111703004+41230+141140FM-15+001099999V0200301N002110045019N0112651N1+00601+00201999999ADDGA1071+004509999GA2071+009009999GF107991999999999999999999MA1101901999999MW1001REMMET07747517 170300Z 03004KT 9999 BKN015 BKN030 06/02 Q1019 RMK 5CU015 7CU030 A3012;EQDQ01+000000PRSWM2
0158475170999992000111803004+41230+141140FM-15+001099999V0200501N002610075019N0112651N1+00701-00101999999ADDGA1071+007509999GF107991999999999999999999MA1101081999999MW1001REMMET06447517 180300Z 05005KT 9999 BKN025 07/M01 Q1011 RMK 6CU025 A2987;EQDQ01+000000PRSWM2
0248475170999992000111806004+41230+141140FM-15+001099999V0202901N002110075019N0112651N1+00401-00101999999ADDGA1021+004509999GA2071+007509999GA3071+024009999GF107991999999999999999999MA1101191999999MW1801REMMET10647517 180600Z 29004KT 9999 -SHRA FEW015 BKN025 BKN080 04/M01 Q1012 RMK 2CU015 6CU025 6AC080 A29XONLLLOOE5;EQDQ01+000003PRSWM1Q02    003PRSWM1
0168475170999992000112100004+41230+141140FM-15+001099999V0202501N008712200019N0112651N1+01201+00301999999ADDGA1021+009009999GF102991999999999999999999MA1100001999999MW1001OC101951REMMET06647517 210000Z 25017G38KT 9999 FEW030 12/03 Q1000 RMK 2CU030 A2953;EQDQ01+000000PRSWM2
0168475170999992000112103004+41230+141140FM-15+001099999V0202501N008212200019N0112651N1+00901+00101999999ADDGA1021+009009999GF104991999999999999999999MA1100511999999MW1001OC101651REMMET06647517 210300Z 25016G32KT 9999 SCT030 09/01 Q1005 RMK 3CU030 A2969;EQDQ01+000000PRSWM2
0168475170999992000112106004+41230+141140FM-15+001099999V0202601N004112200019N0112651N1+00501+00101999999ADDGA1021+009009999GF102991999999999999999999MA1100911999999MW1001OC101231REMMET06647517 210600Z 26008G24KT 9999 FEW030 05/01 Q1009 RMK 2CU030 A2980;EQDQ01+000000PRSWM2
0180475170999992000112200004+41230+141140FM-15+001099999V0202701N002110090019N0112651N1+00101-00701999999ADDGA1071+009009999GF107991999999999999999999MA1102511999999MW1851REMMET07047517 220000Z 27004KT 9999 -SHSN BKN030 01/M07 Q1025 RMK 7CU030 A3029;EQDQ01+000003PRSWM1Q02    003PRSWM1
0158475170999992000112206004+41230+141140FM-15+001099999V0202701N001010090019N0112651N1+00201-00701999999ADDGA1071+009009999GF107991999999999999999999MA1102711999999MW1001REMMET06447517 220600Z 27002KT 9999 BKN030 02/M07 Q1027 RMK 7CU030 A3034;EQDQ01+000000PRSWM2
0158475170999992000112300004+41230+141140FM-15+001099999V0202301N002610090019N0112651N1+00501-00101999999ADDGA1071+009009999GF107991999999999999999999MA1102511999999MW1001REMMET06447517 230000Z 23005KT 9999 BKN030 05/M01 Q1025 RMK 5CU030 A3028;EQDQ01+000000PRSWM2
0150475170999992000112303004+41230+141140FM-15+001099999V0202001N003112200019N0112651N1+00701-00201999999ADDGA1021+007509999GF102991999999999999999999MA1102201999999MW1001REMMET05647517 230300Z 20006KT 9999 FEW025 07/M02 Q1022 RMK 18X7;EQDQ01+000000PRSWM2
0188475170999992000112306004+41230+141140FM-15+001099999V0202401N003110135019N0112651N1+00901-00101999999ADDGA1021+007509999GA2071+013509999GF107991999999999999999999MA1102001999999MW1001REMMET07847517 230600Z 24006KT 9999 FEW025 BKN045 09/M01 Q1020 RMK 2CU025 6SC045 A3014;EQDQ01+000000PRSWM2
0165475170999992000112400004+41230+141140FM-15+001099999V0202601N002612200019N0112651N1+00701-00101999999ADDGA1021+007509999GF102991999999999999999999MA1102101999999MW1001REMMET07147517 240000Z 26005KT 9999 FEW025 07/M01 Q1021 RMK 2CU025PX7O N LLNNNN;EQDQ01+000000PRSWM2
0158475170999992000112403004+41230+141140FM-15+001099999V0202601N003612200019N0112651N1+00701-00301999999ADDGA1021+007509999GF104991999999999999999999MA1102101999999MW1001REMMET06447517 240300Z 26007KT 9999 SCT025 07/M03 Q1021 RMK 3CU025 A3017;EQDQ01+000000PRSWM2
0158475170999992000112406004+41230+141140FM-15+001099999V0202501N003610075019N0112651N1+00601-00201999999ADDGA1071+007509999GF107991999999999999999999MA1102201999999MW1001REMMET06447517 240600Z 25007KT 9999 BKN025 06/M02 Q1022 RMK 5CU025 A3018;EQDQ01+000000PRSWM2
0181475170999992000112500004+41230+141140FM-15+001099999V0200401N001010600019N0112651N1+00401-00101999999ADDGA1021+009009999GA2071+060009999GF107991999999999999999999MA1102711999999MW1001REMMET07147517 250000Z 04002KT 9999 SCT030 BKN200 04/M01 Q1027 RMK 3CU030 A3034;EQDQ01+000000PRSWM2
0158475170999992000112506004+41230+141140FM-15+001099999V0202401N002112200019N0112651N1+00701-00401999999ADDGA1021+009009999GF102991999999999999999999MA1102401999999MW1001REMMET06447517 250600Z 24004KT 9999 FEW030 07/M04 Q1024 RMK 1CU030 A3026;EQDQ01+000000PRSWM2
0180475170999992000112600004+41230+141140FM-15+001099999V0202301N002110600019N0112651N1+01001+00701999999ADDGA1021+009009999GA2071+060009999GF107991999999999999999999MA1101291999999MW1001REMMET07047517 260000Z 23004KT 9999 FEW030 BKN200 10/07 Q1013 RMK 1CU030 A2994;EQDQ01+000000PRSWM2
0213475170999992000112603004+41230+141140FM-15+001099999V0202601N005710600019N0112651N1+01201+00701999999ADDGA1021+009009999GA2071+060009999GF107991999999999999999999MA1101081999999MW1801OC101391REMMET07947517 260300Z 26011G27KT 9999 -SHRA SCT030 BKN200 12/07 Q1011 RMK 3CU030 A2988;EQDQ01+000003PRSWM1Q02    003PRSWM1
0191475170999992000112606004+41230+141140FM-15+001099999V0202501N006210600019N0112651N1+01001+00501999999ADDGA1021+009009999GA2071+060009999GF107991999999999999999999MA1101081999999MW1001OC101131REMMET07347517 260600Z 25012G22KT 9999 SCT030 BKN200 10/05 Q1011 RMK 3CU030 A2988;EQDQ01+000000PRSWM2
0158475170999992000112703004+41230+141140FM-15+001099999V0202601N003110090019N0112651N1+00601-00501999999ADDGA1071+009009999GF107991999999999999999999MA1101291999999MW1001REMMET06447517 270300Z 26006KT 9999 BKN030 06/M05 Q1013 RMK 5CU030 A2993;EQDQ01+000000PRSWM2
0188475170999992000112706004+41230+141140FM-15+001099999V0202901N001510090019N0112651N1+00601-00401999999ADDGA1021+006009999GA2071+009009999GF107991999999999999999999MA1101191999999MW1001REMMET07847517 270600Z 29003KT 9999 FEW020 BKN030 06/M04 Q1012 RMK 1CU020 7CU030 A2991;EQDQ01+000000PRSWM2
0210475170999992000112800004+41230+141140FM-15+001099999V0203101N001510090019N0112651N1+00201-00501999999ADDGA1021+006009999GA2071+009009999GF107991999999999999999999MA1101491999999MW1851REMMET08447517 280000Z 31003KT 9999 -SHSN FEW020 BKN030 02/M05 Q1015 RMK 1CU020 6CU030 A2999;EQDQ01+000003PRSWM1Q02    003PRSWM1
0210475170999992000112900004+41230+141140FM-15+001099999V0203001N002610075019N0112651N1+00101-00701999999ADDGA1021+004509999GA2071+007509999GF107991999999999999999999MA1102301999999MW1851REMMET08447517 290000Z 30005KT 9999 -SHSN FEW015 BKN025 01/M07 Q1023 RMK 1CU015 5CU025 A3022;EQDQ01+000003PRSWM1Q02    003PRSWM1
0210475170999992000112903004+41230+141140FM-15+001099999V0202501N001510075019N0080001N1+00101-00601999999ADDGA1021+004509999GA2071+007509999GF107991999999999999999999MA1102201999999MW1851REMMET08447517 290300Z 25003KT 8000 -SHSN FEW015 BKN025 01/M06 Q1022 RMK 1CU015 6CU025 A3018;EQDQ01+000003PRSWM1Q02    003PRSWM1
0158475170999992000113006004+41230+141140FM-15+001099999V0203001N002110090019N0112651N1+00201-00701999999ADDGA1071+009009999GF107991999999999999999999MA1102101999999MW1001REMMET06447517 300600Z 30004KT 9999 BKN030 02/M07 Q1021 RMK 6CU030 A3017;EQDQ01+000000PRSWM2
0181475170999992000120100004+41230+141140FM-15+001099999V0202001N002110600019N0112651N1+00101-00601999999ADDGA1021+012009999GA2071+060009999GF107991999999999999999999MA1102511999999MW1001REMMET07147517 010000Z 20004KT 9999 FEW040 BKN200 01/M06 Q1025 RMK 1SC040 A3029;EQDQ01+000000PRSWM2
0158475170999992000120103004+41230+141140FM-15+001099999V0202401N001510090019N0112651N1+00401-00601999999ADDGA1071+009009999GF107991999999999999999999MA1102401999999MW1001REMMET06447517 010300Z 24003KT 9999 BKN030 04/M06 Q1024 RMK 5CU030 A3025;EQDQ01+000000PRSWM2
0158475170999992000120106004+41230+141140FM-15+001099999V0202501N001512200019N0112651N1+00401-00501999999ADDGA1021+009009999GF104991999999999999999999MA1102301999999MW1001REMMET06447517 010600Z 25003KT 9999 SCT030 04/M05 Q1023 RMK 3CU030 A3024;EQDQ01+000000PRSWM2
0158475170999992000120203004+41230+141140FM-15+001099999V0202301N002110090019N0112651N1+00701-00101999999ADDGA1071+009009999GF107991999999999999999999MA1102201999999MW1001REMMET06447517 020300Z 23004KT 9999 BKN030 07/M01 Q1022 RMK 7CU030 A3020;EQDQ01+000000PRSWM2
0158475170999992000120206004+41230+141140FM-15+001099999V0202301N002610090019N0112651N1+00701-00101999999ADDGA1071+009009999GF107991999999999999999999MA1102101999999MW1001REMMET06447517 020600Z 23005KT 9999 BKN030 07/M01 Q1021 RMK 7CU030 A3016;EQDQ01+000000PRSWM2
0239475170999992000120300004+41230+141140FM-15+001099999V0202501N003110045019N0080001N1+00701+00501999999ADDGA1021+001509999GA2071+004509999GA3081+009009999GF108991999999999999999999MA1100811999999MW1801REMMET09747517 030000Z 25006KT 8000 -SHRA SCT005 BKN015 OVC030 07/05 Q1008 RMK 3ST005 6CU015 8CU030 A2978;EQDQ01+000003PRSWM1Q02    003PRSWM1
0239475170999992000120303004+41230+141140FM-15+001099999V0202501N002110075019N0112651N1+00801+00301999999ADDGA1021+003009999GA2071+007509999GA3071+030009999GF107991999999999999999999MA1100711999999MW1801REMMET09747517 030300Z 25004KT 9999 -SHRA FEW010 BKN025 BKN100 08/03 Q1007 RMK 1ST010 6CU025 7AC100 A2974;EQDQ01+000003PRSWM1Q02    003PRSWM1
0239475170999992000120503004+41230+141140FM-15+001099999V0202801N001010045019N0112651N1+00301+00101999999ADDGA1021+003009999GA2071+004509999GA3081+007509999GF108991999999999999999999MA1100101999999MW1801REMMET09747517 050300Z 28002KT 9999 -SHRA FEW010 BKN015 OVC025 03/01 Q1001 RMK 1CU010 6CU015 8CU025 A2957;EQDQ01+000003PRSWM1Q02    003PRSWM1
0211475170999992000120600004+41230+141140FM-15+001099999V0202601N003110030019N0045001N1-00301-00601999999ADDGA1071+003009999GA2081+007509999GF108991999999999999999999MA1100711999999MW1851REMMET08547517 060000Z 26006KT 4500 -SHSN BKN010 OVC025 M03/M06 Q1007 RMK 5CU010 8CU025 A2976;EQDQ01+000003PRSWM1Q02    003PRSWM1
0180475170999992000120700004+41230+141140FM-15+001099999V0201801N001510090019N0112651N1+00101-00701999999ADDGA1071+009009999GF107991999999999999999999MA1102301999999MW1851REMMET07047517 070000Z 18003KT 9999 -SHSN BKN030 01/M07 Q1023 RMK 6CU030 A3023;EQDQ01+000003PRSWM1Q02    003PRSWM1
0180475170999992000120703004+41230+141140FM-15+001099999V0202801N002610090019N0112651N1+00201-00501999999ADDGA1071+009009999GF107991999999999999999999MA1102201999999MW1851REMMET07047517 070300Z 28005KT 9999 -SHSN BKN030 02/M05 Q1022 RMK 5CU030 A3021;EQDQ01+000003PRSWM1Q02    003PRSWM1
0180475170999992000120706004+41230+141140FM-15+001099999V0202701N001510090019N0112651N1+00201-00501999999ADDGA1071+009009999GF107991999999999999999999MA1102301999999MW1851REMMET07047517 070600Z 27003KT 9999 -SHSN BKN030 02/M05 Q1023 RMK 6CU030 A3021;EQDQ01+000003PRSWM1Q02    003PRSWM1
0173475170999992000120803004+41230+141140FM-15+001099999V0202601N006212200019N0112651N1+00601-00401999999ADDGA1021+009009999GF104991999999999999999999MA1101491999999MW1001OC101391REMMET07147517 080300Z COR 26012G27KT 9999 SCT030 06/M04 Q1015 RMK 3CU030 A3000;EQDQ01+000000PRSWM2
0158475170999992000120806004+41230+141140FM-15+001099999V0202501N004610090019N0112651N1+00401-00401999999ADDGA1071+009009999GF107991999999999999999999MA1101491999999MW1001REMMET06447517 080600Z 25009KT 9999 BKN030 04/M04 Q1015 RMK 5CU030 A2999;EQDQ01+000000PRSWM2
0158475170999992000120903004+41230+141140FM-15+001099999V0202701N003112200019N0112651N1+00401-00401999999ADDGA1021+009009999GF102991999999999999999999MA1101801999999MW1001REMMET06447517 090300Z 27006KT 9999 FEW030 04/M04 Q1018 RMK 1CU030 A3007;EQDQ01+000000PRSWM2
0158475170999992000120906004+41230+141140FM-15+001099999V0202401N002612200019N0112651N1+00401-00501999999ADDGA1021+009009999GF102991999999999999999999MA1101801999999MW1001REMMET06447517 090600Z 24005KT 9999 FEW030 04/M05 Q1018 RMK 1CU030 A3008;EQDQ01+000000PRSWM2
0209475170999992000121003004+41230+141140FM-15+001099999V0202501N002610060019N0060001N1+00301+00101999999ADDGA1021+002409999GA2081+006009999GF108991999999999999999999MA1100611999999MW1801REMMET08347517 100300Z 25005KT 6000 -SHRA SCT008 OVC020 03/01 Q1006 RMK 3ST008 8CU020 A2972;EQDQ01+000003PRSWM1Q02    003PRSWM1
0189475170999992000121100004+41230+141140FM-15+001099999V0202701N002610090019N0112651N1-00301-01301999999ADDGA1021+006009999GA2071+009009999GF107991999999999999999999MA1100811999999MW1001REMMET07947517 110000Z 27005KT 9999 FEW020 BKN030 M03/M13 Q1008 RMK 1CU020 7CU030 A2977;EQDQ01+000000PRSWM2
0222475170999992000121106004+41230+141140FM-15+001099999V0202801N004110015019N0012001N1-00601-00801999999ADDGA1071+001509999GA2081+003009999GF108991999999999999999999MA1100511999999MW1851OC101181REMMET08847517 110600Z 28008G23KT 1200 -SHSN BKN005 OVC010 M06/M08 Q1005 RMK 6ST005 8CU010 A2968;EQDQ01+000003PRSWM1Q02    003PRSWM1
0211475170999992000121206004+41230+141140FM-15+001099999V0202701N003110075019N0070001N1-00501-00901999999ADDGA1021+003009999GA2071+007509999GF107991999999999999999999MA1100611999999MW1851REMMET08547517 120600Z 27006KT 7000 -SHSN SCT010 BKN025 M05/M09 Q1006 RMK 3CU010 6CU025 A2973;EQDQ01+000003PRSWM1Q02    003PRSWM1
0211475170999992000121300004+41230+141140FM-15+001099999V0200901N001510090019N0112651N1-00301-00701999999ADDGA1021+006009999GA2071+009009999GF107991999999999999999999MA1101391999999MW1851REMMET08547517 130000Z 09003KT 9999 -SHSN SCT020 BKN030 M03/M07 Q1014 RMK 3CU020 6CU030 A2996;EQDQ01+000003PRSWM1Q02    003PRSWM1
0181475170999992000121303004+41230+141140FM-15+001099999V0202001N001510090019N0112651N1-00101-00701999999ADDGA1071+009009999GF107991999999999999999999MA1101391999999MW1851REMMET07147517 130300Z 20003KT 9999 -SHSN BKN030 M01/M07 Q1014 RMK 6CU030 A2995;EQDQ01+000003PRSWM1Q02    003PRSWM1
0181475170999992000121306004+41230+141140FM-15+001099999V0202901N002110090019N0112651N1+00001-00701999999ADDGA1071+009009999GF107991999999999999999999MA1101491999999MW1851REMMET07147517 130600Z 29004KT 9999 -SHSN BKN030 M00/M07 Q1015 RMK 6CU030 A2999;EQDQ01+000003PRSWM1Q02    003PRSWM1
0211475170999992000121400004+41230+141140FM-15+001099999V0202601N001010045019N0015001N1+00001-00101999999ADDGA1021+003009999GA2071+004509999GF107991999999999999999999MA1102001999999MW1851REMMET08547517 140000Z 26002KT 1500 -SHSN SCT010 BKN015 M00/M01 Q1020 RMK 3ST010 7CU015 A3012;EQDQ01+000003PRSWM1Q02    003PRSWM1
0239475170999992000121406004+41230+141140FM-15+001099999V0200401N000510045019N0112651N1+00101+00001999999ADDGA1021+001509999GA2021+003009999GA3071+004509999GF107991999999999999999999MA1101691999999MW1851REMMET09747517 140600Z 04001KT 9999 -SHSN FEW005 SCT010 BKN015 01/00 Q1017 RMK 1ST005 3ST010 7CU015 A3006;EQDQ01+000003PRSWM1Q02    003PRSWM1
0210475170999992000121500004+41230+141140FM-15+001099999V0201901N000510060019N0030001N1+00001-00201999999ADDGA1021+003009999GA2071+006009999GF107991999999999999999999MA1102101999999MW1851REMMET08447517 150000Z 19001KT 3000 -SHSN FEW010 BKN020 00/M02 Q1021 RMK 2ST010 6CU020 A3018;EQDQ01+000003PRSWM1Q02    003PRSWM1
0157475170999992000121503004+41230+141140FM-15+001099999V0202301N002610060019N0112651N1+00301+00001999999ADDGA1071+006009999GF107991999999999999999999MA1101901999999MW1001REMMET06347517 150300Z 23005KT 9999 BKN020 03/00 Q1019 RMK 5CU020 A3010;EQDQ01+000000PRSWM2
0158475170999992000121506004+41230+141140FM-15+001099999V0202401N002112200019N0112651N1+00401-00301999999ADDGA1021+009009999GF102991999999999999999999MA1101691999999MW1001REMMET06447517 150600Z 24004KT 9999 FEW030 04/M03 Q1017 RMK 2CU030 A3006;EQDQ01+000000PRSWM2
0221475170999992000121603004+41230+141140FM-15+001099999V0202401N004110030019N0020001N1+00201-00101999999ADDGA1071+003009999GA2081+006009999GF108991999999999999999999MA1100811999999MW1851OC101231REMMET08747517 160300Z 24008G24KT 2000 -SHSN BKN010 OVC020 02/M01 Q1008 RMK 5CU010 8CU020 A2978;EQDQ01+000003PRSWM1Q02    003PRSWM1
0199475170999992000121606004+41230+141140FM-15+001099999V0202701N003610075019N0112651N1+00101-00701999999ADDGA1021+004509999GA2071+007509999GF107991999999999999999999MA1101081999999MW1001OC100931REMMET08147517 160600Z 27007G18KT 9999 FEW015 BKN025 01/M07 Q1011 RMK 1CU015 5CU025 A2987;EQDQ01+000000PRSWM2
0211475170999992000121700004+41230+141140FM-15+001099999V0202101N000510090019N0050001N1-00101-00501999999ADDGA1021+004509999GA2071+009009999GF107991999999999999999999MA1102511999999MW1851REMMET08547517 170000Z 21001KT 5000 -SHSN FEW015 BKN030 M01/M05 Q1025 RMK 2CU015 5CU030 A3029;EQDQ01+000003PRSWM1Q02    003PRSWM1
0211475170999992000121703004+41230+141140FM-15+001099999V0202401N002610060019N0010001N1+00001-00201999999ADDGA1021+003009999GA2071+006009999GF107991999999999999999999MA1102401999999MW1851REMMET08547517 170300Z 24005KT 1000 -SHSN SCT010 BKN020 M00/M02 Q1024 RMK 4CU010 7CU020 A3025;EQDQ01+000003PRSWM1Q02    003PRSWM1
0158475170999992000121706004+41230+141140FM-15+001099999V0202201N002110060019N0112651N1+00101-00501999999ADDGA1071+006009999GF107991999999999999999999MA1102401999999MW1001REMMET06447517 170600Z 22004KT 9999 BKN020 01/M05 Q1024 RMK 6CU020 A3025;EQDQ01+000000PRSWM2
0188475170999992000121800004+41230+141140FM-15+001099999V0202801N000510090019N0112651N1+00201-00101999999ADDGA1021+006009999GA2071+009009999GF107991999999999999999999MA1102711999999MW1001REMMET07847517 180000Z 28001KT 9999 FEW020 BKN030 02/M01 Q1027 RMK 2CU020 7CU030 A3033;EQDQ01+000000PRSWM2
0187475170999992000121803004+41230+141140FM-15+001099999V0202201N001010090019N0112651N1+00301+00101999999ADDGA1021+004509999GA2071+009009999GF107991999999999999999999MA1102511999999MW1001REMMET07747517 180300Z 22002KT 9999 FEW015 BKN030 03/01 Q1025 RMK 2ST015 7CU030 A3027;EQDQ01+000000PRSWM2
0187475170999992000121806004+41230+141140FM-15+001099999V0202101N001010090019N0112651N1+00301+00101999999ADDGA1021+004509999GA2071+009009999GF107991999999999999999999MA1102401999999MW1001REMMET07747517 180600Z 21002KT 9999 FEW015 BKN030 03/01 Q1024 RMK 1ST015 7CU030 A3025;EQDQ01+000000PRSWM2
0242475170999992000121903004+41230+141140FM-15+001099999V0200201N002110030019N0080001N1+00601+00401999999ADDGA1021+000909999GA2071+003009999GA3081+007509999GF108991999999999999999999MA1099801999999MW1611REMMET10047517 190300Z 02004KT 8000 -RA SCT003 BKN010 OVC025 06/04 Q0998 RMK 3ST003 5ST010 8SC025 A2950 P/FR;EQDQ01+000003PRSWM1Q02    003PRSWM1
0253475170999992000121906004+41230+141140FM-15+001099999V0200301N006710030019N0060001N1+00301+00101999999ADDGA1021+001209999GA2071+003009999GA3081+007509999GF108991999999999999999999MA1099801999999MW1801OC101491REMMET10347517 190600Z 03013G29KT 6000 -SHRA FEW004 BKN010 OVC025 03/01 Q0998 RMKONPPPP 004 6ST010 8CU025 A2948;EQDQ01+000003PRSWM1Q02    003PRSWM1
0188475170999992000122006004+41230+141140FM-15+001099999V0202501N002110075019N0112651N1+00401-00201999999ADDGA1071+007509999GA2071+024009999GF107991999999999999999999MA1101801999999MW1001REMMET07847517 200600Z 25004KT 9999 BKN025 BKN080 04/M02 Q1018 RMK 5CU025 7AC080 A3008;EQDQ01+000000PRSWM2
0255475170999992000122103004+41230+141140FM-15+001099999V0202501N007210090019N0112651N1+00401-00201999999ADDGA1021+003009999GA2021+006009999GA3071+009009999GF107991999999999999999999MA1100101999999MW1851OC101651REMMET10547517 210300Z COR 25014G32KT 9999 -SHSN FEW010 SCT020 BKN030 04/M02 Q1001 RMK 1ST010 3CU020 7CU030 A2958;EQDQ01+000003PRSWM1Q02    003PRSWM1
0158475170999992000122206004+41230+141140FM-15+001099999V0202501N002112200019N0112651N1+00101-00601999999ADDGA1021+009009999GF104991999999999999999999MA1101901999999MW1001REMMET06447517 220600Z 25004KT 9999 SCT030 01/M06 Q1019 RMK 3CU030 A3011;EQDQ01+000000PRSWM2
0238475170999992000122300004+41230+141140FM-15+001099999V0202701N001510090019N0112651N1+00301+00001999999ADDGA1021+003009999GA2071+009009999GA3071+030009999GF107991999999999999999999MA1101391999999MW1611REMMET09647517 230000Z 27003KT 9999 -RA FEW010 BKN030 BKN100 03/M00 Q1014 RMK 2ST010 6SC030 7AC100 A2995;EQDQ01+000003PRSWM1Q02    003PRSWM1
0237475170999992000122303004+41230+141140FM-15+001099999V0202101N002110090019N0112651N1+00401+00201999999ADDGA1021+003009999GA2071+009009999GA3081+030009999GF108991999999999999999999MA1101081999999MW1611REMMET09547517 230300Z 21004KT 9999 -RA FEW010 BKN030 OVC100 04/02 Q1011 RMK 1ST010 5SC030 8AS100 A2986;EQDQ01+000003PRSWM1Q02    003PRSWM1
0217475170999992000122306004+41230+141140FM-15+001099999V0202601N000510090019N0112651N1+00501+00201999999ADDGA1021+006009999GA2071+009009999GA3071+030009999GF107991999999999999999999MA1100811999999MW1001REMMET09147517 230600Z 26001KT 9999 FEW020 BKN030 BKN100 05/02 Q1008 RMK 1CU020 5CU030 7AC100 A2978;EQDQ01+000000PRSWM2
0210475170999992000122400004+41230+141140FM-15+001099999V0202601N005710090019N0040001N1+00201-00201999999ADDGA1021+004509999GA2071+009009999GF107991999999999999999999MA1100101999999MW1851REMMET08447517 240000Z 26011KT 4000 -SHSN FEW015 BKN030 02/M02 Q1001 RMK 1CU015 7CU030 A2957;EQDQ01+000003PRSWM1Q02    003PRSWM1
0221475170999992000122403004+41230+141140FM-15+001099999V0202501N007710090019N0080001N1+00201-00501999999ADDGA1021+004509999GA2071+009009999GF107991999999999999999999MA1100311999999MW1851OC101441REMMET08747517 240300Z 25015G28KT 8000 -SHSN FEW015 BKN030 02/M05 Q1003 RMK 2CU015 7CU030 A2963;EQDQ01+000003PRSWM1Q02    003PRSWM1
0199475170999992000122406004+41230+141140FM-15+001099999V0202501N006210090019N0112651N1+00201-00701999999ADDGA1021+004509999GA2071+009009999GF107991999999999999999999MA1100611999999MW1001OC101131REMMET08147517 240600Z 25012G22KT 9999 FEW015 BKN030 02/M07 Q1006 RMK 1CU015 6CU030 A2972;EQDQ01+000000PRSWM2
0156475170999992000122500004+41230+141140FM-15+001099999V0202001N002612200019N0112651N1-00201-00501999999ADDGA1021+009009999GF102991999999999999999999MA1101021999999MW1001REMMET06247517 250000Z 20005KT 9999 FEW030 M02/M05 Q1010 RMK 2CU030 A2;EQDQ01+000000PRSWM2
0241475170999992000122600004+41230+141140FM-15+001099999V0202601N001510024019N0020001N1-00701-01101999999ADDGA1021+001509999GA2071+002409999GA3081+006009999GF108991999999999999999999MA1100711999999MW1851REMMET09947517 260000Z 26003KT 2000 -SHSN FEW005 BKN008 OVC020 M07/M11 Q1007 RMK 2ST005 5ST008 8CU020 A2974;EQDQ01+000003PRSWM1Q02    003PRSWM1
0211475170999992000122703004+41230+141140FM-15+001099999V0202501N003110090019N0112651N1+00001-00701999999ADDGA1021+006009999GA2071+009009999GF107991999999999999999999MA1101801999999MW1851REMMET08547517 270300Z 25006KT 9999 -SHSN FEW020 BKN030 M00/M07 Q1018 RMK 2CU020 7CU030 A3007;EQDQ01+000003PRSWM1Q02    003PRSWM1
0211475170999992000122800004+41230+141140FM-15+001099999V0202601N001510090019N0070001N1-00301-00401999999ADDGA1021+006009999GA2071+009009999GF107991999999999999999999MA1101901999999MW1851REMMET08547517 280000Z 26003KT 7000 -SHSN FEW020 BKN030 M03/M04 Q1019 RMK 2CU020 7CU030 A3010;EQDQ01+000003PRSWM1Q02    003PRSWM1
0240475170999992000122803004+41230+141140FM-15+001099999V0202301N001010060019N0010001N1-00201-00401999999ADDGA1021+001509999GA2021+003009999GA3081+006009999GF108991999999999999999999MA1101801999999MW1861REMMET09847517 280300Z 23002KT 1000 SHSN FEW005 SCT010 OVC020 M02/M04 Q1018 RMK 2ST005 4ST010 8CU020 A3006;EQDQ01+000003PRSWM1Q02    003PRSWM1
0211475170999992000122806004+41230+141140FM-15+001099999V0200101N001510090019N0112651N1-00101-00301999999ADDGA1021+003009999GA2071+009009999GF107991999999999999999999MA1101691999999MW1851REMMET08547517 280600Z 01003KT 9999 -SHSN FEW010 BKN030 M01/M03 Q1017 RMK 1ST010 6CU030 A3006;EQDQ01+000003PRSWM1Q02    003PRSWM1
0159475170999992000122900004+41230+141140FM-15+001099999V0202201N002110090019N0112651N1-00101-00901999999ADDGA1071+009009999GF107991999999999999999999MA1102201999999MW1001REMMET06547517 290000Z 22004KT 9999 BKN030 M01/M09 Q1022 RMK 5CU030 A3019;EQDQ01+000000PRSWM2
0159475170999992000122903004+41230+141140FM-15+001099999V0203201N001510090019N0112651N1-00101-00801999999ADDGA1071+009009999GF107991999999999999999999MA1102201999999MW1001REMMET06547517 290300Z 32003KT 9999 BKN030 M01/M08 Q1022 RMK 7CU030 A3019;EQDQ01+000000PRSWM2
0159475170999992000123000004+41230+141140FM-15+001099999V0200801N001012200019N0112651N1-00101-00301999999ADDGA1021+009009999GF104991999999999999999999MA1102401999999MW1001REMMET06547517 300000Z 08002KT 9999 SCT030 M01/M03 Q1024 RMK 3CU030 A3026;EQDQ01+000000PRSWM2
0158475170999992000123003004+41230+141140FM-15+001099999V0201601N002110090019N0112651N1+00201-00601999999ADDGA1071+009009999GF107991999999999999999999MA1102201999999MW1001REMMET06447517 300300Z 16004KT 9999 BKN030 02/M06 Q1022 RMK 6CU030 A3020;EQDQ01+000000PRSWM2
0158475170999992000123006004+41230+141140FM-15+001099999V0202101N002112200019N0112651N1+00101-00301999999ADDGA1021+009009999GF104991999999999999999999MA1102201999999MW1001REMMET06447517 300600Z 21004KT 9999 SCT030 01/M03 Q1022 RMK 3CU030 A3018;EQDQ01+000000PRSWM2
0180475170999992000123100004+41230+141140FM-15+001099999V0202801N002610600019N0112651N1+00601+00001999999ADDGA1021+006009999GA2071+060009999GF107991999999999999999999MA1100811999999MW1001REMMET07047517 310000Z 28005KT 9999 FEW020 BKN200 06/00 Q1008 RMK 1CU020 A2978;EQDQ01+000000PRSWM2
0209475170999992000123106004+41230+141140FM-15+001099999V0202601N004110090019N0112651N1+00801+00301999999ADDGA1021+006009999GA2071+009009999GF107991999999999999999999MA1100201999999MW1801REMMET08347517 310600Z 26008KT 9999 -SHRA FEW020 BKN030 08/03 Q1002 RMK 2CU020 6CU030 A2962;EQDQ01+000003PRSWM1Q02    003PRSWM1
