0125477160999992000010100004+36030+140200FM-15+0029RJAK V0202701N001512200019N0112651N1+00501+00101999999ADDGF100991999999999999999999MA1102101999999MW1001REMMET066RJAK 0000Z 27003KT 9999 SKC 05/01 Q1021 RMK A3016 FCST 0009 NOSIG;
0155477160999992000010322004+36030+140200FM-15+0029RJAK V0202901N001012200019N0112651N1+00401-00401999999ADDGA1021+012009999GF102991999999999999999999MA1101491999999MW1001REMMET061RJAK 2200Z 29002KT 9999 FEW040 04/M04 Q1015 RMK 1SC040 A2999;EQDQ01+000000PRSWM2
0171477160999992000010323004+36030+140200FM-15+0029RJAK V0202501N001012200019N0112651N1+00401-00301999999ADDGA1021+012009999GF102991999999999999999999MA1101591999999MW1001REMMET077RJAK 2300Z 25002KT 9999 FEW040 04/M03 Q1016 RMK 1SC040 A3000 FCST 2308 NOSIG;EQDQ01+000000PRSWM2
0145477160999992000010400004+36030+140200FM-15+0029RJAK V0203101N001512200019N0112651N1+00801-00301999999ADDGF100991999999999999999999MA1101591999999MW1001REMMET067RJAK 0000Z 31003KT 9999 SKC 08/M03 Q1016 RMK A3002 FCST 0009 NOSIG;EQDQ01+000000PRSWM2
0129477160999992000010401004+36030+140200FM-15+0029RJAK V0203001N002612200019N0112651N1+01001-00401999999ADDGF100991999999999999999999MA1101591999999MW1001REMMET051RJAK 0100Z 30005KT 9999 SKC 10/M04 Q1016 RMK A3002;EQDQ01+000000PRSWM2
0129477160999992000010402004+36030+140200FM-15+0029RJAK V0203201N003112200019N0112651N1+01101-00401999999ADDGF100991999999999999999999MA1101591999999MW1001REMMET051RJAK 0200Z 32006KT 9999 SKC 11/M04 Q1016 RMK A3001;EQDQ01+000000PRSWM2
0145477160999992000010403004+36030+140200FM-15+0029RJAK V0202801N002112200019N0112651N1+01201-00401999999ADDGF100991999999999999999999MA1101491999999MW1001REMMET067RJAK 0300Z 28004KT 9999 SKC 12/M04 Q1015 RMK A2999 FCST 0312 NOSIG;EQDQ01+000000PRSWM2
0140477160999992000010405004+36030+140200FM-15+0029RJAK V0202901N005112200019N0112651N1+01501-00501999999ADDGF100991999999999999999999MA1101491999999MW1001OC101031REMMET054RJAK 0500Z 29010G20KT 9999 SKC 15/M05 Q1015 RMK A2998;EQDQ01+000000PRSWM2
0169477160999992000010406004+36030+140200FM-15+0029RJAK V0203001N005712200019N0112651N1+01401-00601999999ADDGF100991999999999999999999MA1101591999999MW1001OC101181REMMET083RJAK 0600Z 30011G23KT 9999 SKC 14/M06 Q1016 RMK A3000 FCST 0615 BECMG 0607 29012KT;EQDQ01+000000PRSWM2
0129477160999992000010407004+36030+140200FM-15+0029RJAK V0203401N002612200019N0112651N1+01301-00501999999ADDGF100991999999999999999999MA1101591999999MW1001REMMET051RJAK 0700Z 34005KT 9999 SKC 13/M05 Q1016 RMK A3002;EQDQ01+000000PRSWM2
0171477160999992000010408004+36030+140200FM-15+0029RJAK V0202601N001512200019N0112651N1+01201-00501999999ADDGA1021+009009999GF102991999999999999999999MA1101691999999MW1001REMMET077RJAK 0800Z 26003KT 9999 FEW030 12/M05 Q1017 RMK 1CU030 A3005 FCST 0817 NOSIG;EQDQ01+000000PRSWM2
0155477160999992000010422004+36030+140200FM-15+0029RJAK V0202701N001012200019N0112651N1+00001-00301999999ADDGA1021+030009999GF102991999999999999999999MA1102401999999MW1001REMMET061RJAK 2200Z 27002KT 9999 FEW100 00/M03 Q1024 RMK 1AC100 A3024;EQDQ01+000000PRSWM2
0172477160999992000010423004+36030+140200FM-15+0029RJAK V0209999C000012200019N0112651N1-00101-00401999999ADDGA1021+030009999GF102991999999999999999999MA1102401999999MW1001REMMET078RJAK 2300Z 00000KT 9999 FEW100 M01/M04 Q1024 RMK 1AC100 A3025 FCST 2308 NOSIG;EQDQ01+000000PRSWM2
0171477160999992000010500004+36030+140200FM-15+0029RJAK V0203001N001012200019N0112651N1+00501-00201999999ADDGA1021+030009999GF102991999999999999999999MA1102511999999MW1001REMMET077RJAK 0000Z 30002KT 9999 FEW100 05/M02 Q1025 RMK 1AC100 A3027 FCST 0009 NOSIG;EQDQ01+000000PRSWM2
0155477160999992000010501004+36030+140200FM-15+0029RJAK V0202701N001012200019N0112651N1+00701-00201999999ADDGA1021+030009999GF102991999999999999999999MA1102511999999MW1001REMMET061RJAK 0100Z 27002KT 9999 FEW100 07/M02 Q1025 RMK 1AC100 A3028;EQDQ01+000000PRSWM2
0185477160999992000010502004+36030+140200FM-15+0029RJAK V0200701N002612200019N0112651N1+00901-00201999999ADDGA1021+015009999GA2021+024009999GF104991999999999999999999MA1102401999999MW1001REMMET075RJAK 0200Z 07005KT 9999 SCT050 SCT080 09/M02 Q1024 RMK 3SC050 4AC080 A3026;EQDQ01+000000PRSWM2
0177477160999992000010502074+36030+140200FM-16+0029RJAK V0200601N00261220001CN0112651N1+00901-00201999999ADDGA1071+015009999GA2021+069009999MA1102511999999MW1001REMMET077RJAK 050207Z 06005KT 9999 BKN050 SCT230 09/M02 Q1025 RMK 5SC050 3CI230 A3026;EQDQ01+000042SCOTCVQ02+000000PRSWM2
0214477160999992000010503004+36030+140200FM-15+0029RJAK V0209999999999220001CN0112651N1+00901-00201999999ADDGA1071+015009999GA2021+069009999MA1102401999999MW1001REMMET114RJAK 0300Z VRB01KT 9999 BKN050 SCT230 09/M02 Q1024 RMK 6SC050 3CI230 A3024 FCST 0312 TEMPO 0510 SCT050SC SCT230CI;EQDQ01+000042SCOTCVQ02+000000PRSWM2
0185477160999992000010505004+36030+140200FM-15+0029RJAK V0200801N002110690019N0112651N1+01001-00201999999ADDGA1021+015009999GA2071+069009999GF107991999999999999999999MA1102301999999MW1001REMMET075RJAK 0500Z 08004KT 9999 SCT050 BKN230 10/M02 Q1023 RMK 3SC050 7CI230 A3021;EQDQ01+000000PRSWM2
0231477160999992000010506004+36030+140200FM-15+0029RJAK V0200901N003110150019N0112651N1+01101-00101999999ADDGA1021+009009999GA2071+015009999GA3071+069009999GF107991999999999999999999MA1102301999999MW1001REMMET105RJAK 0600Z 09006KT 9999 FEW030 BKN050 BKN230 11/M01 Q1023 RMK 1SC030 5SC050 7CI230 A3021 FCST 0615 NOSIG;EQDQ01+000000PRSWM2
0214477160999992000010507004+36030+140200FM-15+0029RJAK V0200901N002610090019N0112651N1+01001+00201999999ADDGA1071+009009999GA2021+030009999GA3071+069009999GF107991999999999999999999MA1102301999999MW1001REMMET088RJAK 0700Z 09005KT 9999 BKN030 SCT100 BKN230 10/02 Q1023 RMK 7SC030 4AC100 6CI230 A3022;EQDQ01+000000PRSWM2
0230477160999992000010508004+36030+140200FM-15+0029RJAK V0200601N002110150019N0112651N1+00901+00401999999ADDGA1021+006009999GA2071+015009999GA3081+030009999GF108991999999999999999999MA1102301999999MW1001REMMET104RJAK 0800Z 06004KT 9999 FEW020 BKN050 OVC100 09/04 Q1023 RMK 1CU020 7SC050 8AC100 A3023 FCST 0817 NOSIG;EQDQ01+000000PRSWM2
0184477160999992000010522004+36030+140200FM-15+0029RJAK V0203401N001510090019N0112651N1+00801+00401999999ADDGA1071+009009999GA2081+030009999GF108991999999999999999999MA1102201999999MW1001REMMET074RJAK 2200Z 34003KT 9999 BKN030 OVC100 08/04 Q1022 RMK 6SC030 8AC100 A3018;EQDQ01+000000PRSWM2
0214477160999992000010601004+36030+140200FM-15+0029RJAK V0200301N003610090019N0112651N1+01101+00701999999ADDGA1021+006009999GA2071+009009999GA3071+030009999GF107991999999999999999999MA1102201999999MW1001REMMET088RJAK 0100Z 03007KT 9999 FEW020 BKN030 BKN100 11/07 Q1022 RMK 2CU020 5SC030 7AC100 A3018;EQDQ01+000000PRSWM2
0214477160999992000010602004+36030+140200FM-15+0029RJAK V0203501N001510090019N0112651N1+01201+00701999999ADDGA1021+006009999GA2071+009009999GA3081+030009999GF108991999999999999999999MA1102101999999MW1001REMMET088RJAK 0200Z 35003KT 9999 FEW020 BKN030 OVC100 12/07 Q1021 RMK 2CU020 6SC030 8AC100 A3015;EQDQ01+000000PRSWM2
0216477160999992000010602454+36030+140200FM-15+0029RJAK V0203101N001510300019N0112651N1+01201+00601999999ADDGA1021+006009999GA2021+009009999GA3071+030009999GF107991999999999999999999MA1102001999999MW1001REMMET090RJAK 060245Z 31003KT 9999 FEW020 SCT030 BKN100 12/06 Q1020 RMK 2CU020 4SC030 6AC100 A3012;EQDQ01+000000PRSWM2
0296477160999992000010603004+36030+140200FM-15+0029RJAK V0203301N001510300019N0112651N1+01301+00701999999ADDGA1021+006009999GA2021+009009999GA3071+030009999GF107991999999999999999999MA1102001999999MW1001REMMET170RJAK 0300Z 33003KT 9999 FEW020 SCT030 BKN100 13/07 Q1020 RMK 2CU020 3SC030 6AC100 A3012 FCST 0312 BECMG 0506 FEW020CU BKN030SC BKN100AC TEMPO 0609 -SHRA BECMG 0910 -SHRA;EQDQ01+000000PRSWM2
0216477160999992000010603224+36030+140200FM-16+0029RJAK V0203201N001510690019N0112651N1+01301+00701999999ADDGA1021+006009999GA2021+030009999GA3071+069009999GF107991999999999999999999MA1101901999999MW1001REMMET090RJAK 060322Z 32003KT 9999 FEW020 SCT100 BKN230 13/07 Q1019 RMK 1CU020 3AC100 5CI230 A3010;EQDQ01+000000PRSWM2
0214477160999992000010604004+36030+140200FM-15+0029RJAK V0200201N002110690019N0112651N1+01401+00801999999ADDGA1021+006009999GA2021+030009999GA3071+069009999GF107991999999999999999999MA1101801999999MW1001REMMET088RJAK 0400Z 02004KT 9999 FEW020 SCT100 BKN230 14/08 Q1018 RMK 2CU020 3AC100 5CI230 A3008;EQDQ01+000000PRSWM2
0184477160999992000010605004+36030+140200FM-15+0029RJAK V0200701N001512200019N0112651N1+01501+00901999999ADDGA1021+006009999GA2021+030009999GF104991999999999999999999MA1101801999999MW1001REMMET074RJAK 0500Z 07003KT 9999 SCT020 SCT100 15/09 Q1018 RMK 4CU020 3AC100 A3006;EQDQ01+000000PRSWM2
0232477160999992000010606004+36030+140200FM-15+0029RJAK V0201001N001512200019N0112651N1+01501+01001999999ADDGA1021+006009999GA2021+024009999GF104991999999999999999999MA1101691999999MW1001REMMET122RJAK 0600Z 10003KT 9999 FEW020 SCT080 15/10 Q1017 RMK 2CU020 3AC080 A3003 FCST 0615 TEMPO 1015 FEW020CU BKN040SC BKN100AC;EQDQ01+000000PRSWM2
0184477160999992000010607004+36030+140200FM-15+0029RJAK V0200601N002112200019N0112651N1+01501+01001999999ADDGA1021+006009999GA2021+018009999GF104991999999999999999999MA1101691999999MW1001REMMET074RJAK 0700Z 06004KT 9999 FEW020 SCT060 15/10 Q1017 RMK 2CU020 4SC060 A3003;EQDQ01+000000PRSWM2
0232477160999992000010608004+36030+140200FM-15+0029RJAK V0203301N000512200019N0112651N1+01401+01001999999ADDGA1021+006009999GA2021+018009999GF104991999999999999999999MA1101691999999MW1001REMMET122RJAK 0800Z 33001KT 9999 FEW020 SCT060 14/10 Q1017 RMK 1CU020 4SC060 A3004 FCST 0817 TEMPO 1017 FEW020CU SCT060SC BKN080AC;EQDQ01+000000PRSWM2
0305477160999992000010700004+36030+140200FM-15+0029RJAK V0202701N002110060019N0015001N1+00901+00901999999ADDGA1021+003009999GA2071+006009999GA3081+012009999GF108991999999999999999999MA1100811999999MW1101REMMET163RJAK 0000Z 27004KT 1500 BR SCT010 BKN020 OVC040 09/09 Q1008 RMK 3ST010 7CU020 8SC040 A2978 FCST 0009 BECMG 0203 NSW FEW020CU SCT040SC TEMPO 0709 FEW020CU BKN040SC;EQDQ01+000003PRSWM1Q02    003PRSWM1
0233477160999992000010702004+36030+140200FM-15+0029RJAK V0202801N001010060019N0021001N1+01201+01101999999ADDGA1021+003009999GA2071+006009999GA3081+015009999GF108991999999999999999999MA1100711999999MW1101REMMET091RJAK 0200Z 28002KT 2100 BR FEW010 BKN020 OVC050 12/11 Q1007 RMK 2ST010 5CU020 8SC050 A2976;EQDQ01+000003PRSWM1Q02    003PRSWM1
0292477160999992000010703004+36030+140200FM-15+0029RJAK V0203001N001010075019N0035001N1+01401+01201999999ADDGA1021+003009999GA2071+007509999GA3071+015009999GF107991999999999999999999MA1100711999999MW1101REMMET150RJAK 0300Z 30002KT 3500 BR FEW010 BKN025 BKN050 14/12 Q1007 RMK 1ST010 5CU025 7SC050 A2973 FCST 0312 BECMG 0304 5000 BECMG 0405 NSW SCT025CU SCT050SC;EQDQ01+000003PRSWM1Q02    003PRSWM1
0233477160999992000010704004+36030+140200FM-15+0029RJAK V0203001N001510075019N0030001N1+01501+01201999999ADDGA1021+003009999GA2071+007509999GA3071+015009999GF107991999999999999999999MA1100611999999MW1101REMMET091RJAK 0400Z 30003KT 3000 BR FEW010 BKN025 BKN050 15/12 Q1006 RMK 2ST010 5CU025 7SC050 A2973;EQDQ01+000003PRSWM1Q02    003PRSWM1
0233477160999992000010705004+36030+140200FM-15+0029RJAK V0202601N001010060019N0030001N1+01501+01201999999ADDGA1021+003009999GA2071+006009999GA3071+012009999GF107991999999999999999999MA1100611999999MW1101REMMET091RJAK 0500Z 26002KT 3000 BR FEW010 BKN020 BKN040 15/12 Q1006 RMK 1ST010 5CU020 7SC040 A2972;EQDQ01+000003PRSWM1Q02    003PRSWM1
0205477160999992000010705294+36030+140200FM-16+0029RJAK V0202301N001512200019N0035001N1+01601+01201999999ADDGA1021+006009999GA2021+063009999GF104991999999999999999999MA1100611999999MW1101REMMET079RJAK 070529Z 23003KT 3500 BR FEW020 SCT210 16/12 Q1006 RMK 1CU020 3CI210 A2971;EQDQ01+000003PRSWM1Q02    003PRSWM1
0242477160999992000010706004+36030+140200FM-15+0029RJAK V0202101N002112200019N0040001N1+01601+01201999999ADDGA1021+007509999GA2021+063009999GF104991999999999999999999MA1100611999999MW1101REMMET116RJAK 0600Z 21004KT 4000 BR FEW025 SCT210 16/12 Q1006 RMK 1CU025 4CI210 A2971 FCST 0615 TEMPO 0709 FEW025CU BKN100AC;EQDQ01+000003PRSWM1Q02    003PRSWM1
0186477160999992000010706254+36030+140200FM-15+0029RJAK V0202801N001012200019N0060001N1+01601+01101999999ADDGA1021+007509999GA2021+063009999GF104991999999999999999999MA1100611999999MW1001REMMET076RJAK 070625Z 28002KT 6000 FEW025 SCT210 16/11 Q1006 RMK 1CU025 3CI210 A2973;EQDQ01+000000PRSWM2
0203477160999992000010707004+36030+140200FM-15+0029RJAK V0200701N002610120019N0050001N1+01501+01201999999ADDGA1021+007509999GA2071+012009999GF107991999999999999999999MA1100711999999MW1101REMMET077RJAK 0700Z 07005KT 5000 BR FEW025 BKN040 15/12 Q1007 RMK 2CU025 5SC040 A2973;EQDQ01+000003PRSWM1Q02    003PRSWM1
0251477160999992000010708004+36030+140200FM-15+0029RJAK V0200501N001512200019N0030001N1+01401+01201999999ADDGA1021+007509999GA2021+012009999GF104991999999999999999999MA1100711999999MW1101REMMET125RJAK 0800Z 05003KT 3000 BR FEW025 SCT040 14/12 Q1007 RMK 1CU025 4SC040 A2975 FCST 0817 TEMPO 0815 FEW025CU BKN040SC SCT100AC;EQDQ01+000003PRSWM1Q02    003PRSWM1
0155477160999992000011022004+36030+140200FM-15+0029RJAK V02099999999992200019N0112651N1+00301-00201999999ADDGA1021+015009999GF104991999999999999999999MA1101801999999MW1001REMMET061RJAK 2200Z VRB01KT 9999 SCT050 03/M02 Q1018 RMK 3SC050 A3008;EQDQ01+000000PRSWM2
0217477160999992000011023004+36030+140200FM-15+0029RJAK V02099999999992200019N0112651N1+00501-00301999999ADDGA1021+012009999GA2021+015009999GF104991999999999999999999MA1101901999999MW1001REMMET107RJAK 2300Z VRB03KT 9999 FEW040 SCT050 05/M03 Q1019 RMK 2SC040 3SC050 A3010 FCST 2308 TEMPO 0006 30013G25KT;EQDQ01+000000PRSWM2
0187477160999992000011100004+36030+140200FM-15+0029RJAK V0202701N002112200019N0112651N1+00801-00401999999ADDGA1021+009009999GF102991999999999999999999MA1102001999999MW1001REMMET093RJAK 0000Z 27004KT 9999 FEW030 08/M04 Q1020 RMK 1CU030 A3012 FCST 0009 TEMPO 0106 30013G25KT;EQDQ01+000000PRSWM2
0168477160999992000011100034+36030+140200FM-16+0029RJAK V0203101N004112200019N0112651N1+00801-00501999999ADDGA1021+009009999GF102991999999999999999999MA1101901999999MW1001OC101031REMMET066RJAK 110003Z 31008G20KT 9999 FEW030 08/M05 Q1019 RMK 1CU030 A3011;EQDQ01+000000PRSWM2
0166477160999992000011101004+36030+140200FM-15+0029RJAK V0203001N007212200019N0112651N1+00801-00601999999ADDGA1021+015009999GF102991999999999999999999MA1102001999999MW1001OC101541REMMET064RJAK 0100Z 30014G30KT 9999 FEW050 08/M06 Q1020 RMK 1SC050 A3012;EQDQ01+000000PRSWM2
0166477160999992000011102004+36030+140200FM-15+0029RJAK V0203001N007212200019N0112651N1+00901-00701999999ADDGA1021+007509999GF102991999999999999999999MA1102001999999MW1001OC101701REMMET064RJAK 0200Z 30014G33KT 9999 FEW025 09/M07 Q1020 RMK 1CU025 A3013;EQDQ01+000000PRSWM2
0168477160999992000011102074+36030+140200FM-16+0029RJAK V0203001N007212200019N0112651N1+00901-00701999999ADDGA1021+007509999GF102991999999999999999999MA1102001999999MW1001OC101951REMMET066RJAK 110207Z 30014G38KT 9999 FEW025 09/M07 Q1020 RMK 1CU025 A3013;EQDQ01+000000PRSWM2
0168477160999992000011102304+36030+140200FM-15+0029RJAK V0203101N006212200019N0112651N1+00901-00701999999ADDGA1021+007509999GF102991999999999999999999MA1102001999999MW1001OC101391REMMET066RJAK 110230Z 31012G27KT 9999 FEW025 09/M07 Q1020 RMK 1CU025 A3012;EQDQ01+000000PRSWM2
0195477160999992000011103004+36030+140200FM-15+0029RJAK V0203101N005112200019N0112651N1+01001-00701999999ADDGA1021+007509999GF102991999999999999999999MA1101901999999MW1001OC101131REMMET093RJAK 0300Z 31010G22KT 9999 FEW025 10/M07 Q1019 RMK 1CU025 A3011 FCST 0312 BECMG 0607 30010KT;EQDQ01+000000PRSWM2
0166477160999992000011104004+36030+140200FM-15+0029RJAK V0203101N005712200019N0112651N1+01101-00601999999ADDGA1021+007509999GF102991999999999999999999MA1101901999999MW1001OC101391REMMET064RJAK 0400Z 31011G27KT 9999 FEW025 11/M06 Q1019 RMK 1CU025 A3009;EQDQ01+000000PRSWM2
0166477160999992000011105004+36030+140200FM-15+0029RJAK V0202901N006712200019N0112651N1+01101-00701999999ADDGA1021+007509999GF102991999999999999999999MA1101801999999MW1001OC101341REMMET064RJAK 0500Z 29013G26KT 9999 FEW025 11/M07 Q1018 RMK 1CU025 A3008;EQDQ01+000000PRSWM2
0195477160999992000011106004+36030+140200FM-15+0029RJAK V0203001N007212200019N0112651N1+01101-00701999999ADDGA1021+012009999GF102991999999999999999999MA1101901999999MW1001OC101391REMMET093RJAK 0600Z 30014G27KT 9999 FEW040 11/M07 Q1019 RMK 1SC040 A3009 FCST 0615 BECMG 0708 30010KT;EQDQ01+000000PRSWM2
0166477160999992000011107004+36030+140200FM-15+0029RJAK V0202901N005112200019N0112651N1+00901-00801999999ADDGA1021+012009999GF102991999999999999999999MA1102001999999MW1001OC101031REMMET064RJAK 0700Z 29010G20KT 9999 FEW040 09/M08 Q1020 RMK 1SC040 A3013;EQDQ01+000000PRSWM2
0157477160999992000011107354+36030+140200FM-16+0029RJAK V0203001N002112200019N0112651N1+00901-00801999999ADDGA1021+012009999GF102991999999999999999999MA1102101999999MW1001REMMET063RJAK 110735Z 30004KT 9999 FEW040 09/M08 Q1021 RMK 1SC040 A3015;EQDQ01+000000PRSWM2
0171477160999992000011108004+36030+140200FM-15+0029RJAK V0203001N002112200019N0112651N1+00901-00701999999ADDGA1021+012009999GF102991999999999999999999MA1102101999999MW1001REMMET077RJAK 0800Z 30004KT 9999 FEW040 09/M07 Q1021 RMK 1SC040 A3015 FCST 0817 NOSIG;EQDQ01+000000PRSWM2
0215477160999992000011122004+36030+140200FM-15+0029RJAK V0203101N001510120019N0112651N1+00201-00401999999ADDGA1021+006009999GA2071+012009999GA3081+030009999GF108991999999999999999999MA1102511999999MW1001REMMET089RJAK 2200Z 31003KT 9999 FEW020 BKN040 OVC100 02/M04 Q1025 RMK 1SC020 5SC040 8AC100 A3029;EQDQ01+000000PRSWM2
0313477160999992000011123004+36030+140200FM-15+0029RJAK V0203201N001010120019N0112651N1+00201-00401999999ADDGA1021+006009999GA2071+012009999GA3081+030009999GF108991999999999999999999MA1102611999999MW1001REMMET187RJAK 2300Z COR 32002KT 9999 FEW020 BKN040 OVC100 02/M04 Q1026 RMK 1SC020 5SC040 8AC100 A3029 FCST 2308 TEMPO 0507 -RA FEW015SC BKN025SC OVC100AC BECMG 0708 -RA FEW015SC BKN020SC OVC100AC;EQDQ01+000000PRSWM2
0305477160999992000011200004+36030+140200FM-15+0029RJAK V0203301N001010300019N0112651N1+00301-00301999999ADDGA1021+012009999GA2021+024009999GA3081+030009999GF108991999999999999999999MA1102611999999MW1001REMMET179RJAK 0000Z 33002KT 9999 FEW040 SCT080 OVC100 03/M03 Q1026 RMK 1SC040 3AC080 8AC100 A3031 FCST 0009 BECMG 0203 FEW020SC BKN040SC OVC080AC BECMG 0506 -RA FEW015SC BKN020SC OVC080AC;EQDQ01+000000PRSWM2
0215477160999992000011201004+36030+140200FM-15+0029RJAK V0200301N002610300019N0112651N1+00501-00401999999ADDGA1021+012009999GA2021+024009999GA3081+030009999GF108991999999999999999999MA1102611999999MW1001REMMET089RJAK 0100Z 03005KT 9999 FEW040 SCT080 OVC100 05/M04 Q1026 RMK 2SC040 3AC080 8AC100 A3031;EQDQ01+000000PRSWM2
0185477160999992000011202004+36030+140200FM-15+0029RJAK V0200201N004110240019N0112651N1+00601-00301999999ADDGA1021+012009999GA2081+024009999GF108991999999999999999999MA1102511999999MW1001REMMET075RJAK 0200Z 02008KT 9999 SCT040 OVC080 06/M03 Q1025 RMK 4SC040 8AC080 A3028;EQDQ01+000000PRSWM2
0207477160999992000011202434+36030+140200FM-16+0029RJAK V0200201N003610096019N0112651N1+00601-00301999999ADDGA1071+009609999GA2081+024009999GF108991999999999999999999MA1102401999999MW1611REMMET081RJAK 120243Z 02007KT 9999 -RA BKN032 OVC080 06/M03 Q1024 RMK 5SC032 8AC080 A3026;EQDQ01+000003PRSWM1Q02    003PRSWM1
0238477160999992000011203004+36030+140200FM-15+0029RJAK V0200201N003110096019N0112651N1+00601-00201999999ADDGA1071+009609999GA2081+024009999GF108991999999999999999999MA1102401999999MW1611REMMET112RJAK 0300Z 02006KT 9999 -RA BKN032 OVC080 06/M02 Q1024 RMK 5SC032 8AC080 A3026 FCST 0312 BECMG 0708 4500 -RA BR;EQDQ01+000003PRSWM1Q02    003PRSWM1
0204477160999992000011204004+36030+140200FM-15+0029RJAK V0200101N002610090019N0070001N1+00501+00001999999ADDGA1071+009009999GA2081+015009999GF108991999999999999999999MA1102401999999MW1611REMMET078RJAK 0400Z 01005KT 7000 -RA BKN030 OVC050 05/00 Q1024 RMK 6SC030 8SC050 A3024;EQDQ01+000003PRSWM1Q02    003PRSWM1
0239477160999992000011206004+36030+140200FM-15+0029RJAK V0203601N003610090019N0060001N1+00301+00201999999ADDGA1021+006009999GA2081+009009999GF108991999999999999999999MA1102401999999MW1611REMMET113RJAK 0600Z 36007KT 6000 -RA SCT020 OVC030 03/02 Q1024 RMK 4SC020 8SC030 A3026 FCST 0615 BECMG 0708 4000 -RASN BR;EQDQ01+000003PRSWM1Q02    003PRSWM1
0234477160999992000011207004+36030+140200FM-15+0029RJAK V0203601N003110060019N0060001N1+00301+00201999999ADDGA1021+003009999GA2071+006009999GA3081+009009999GF108991999999999999999999MA1102401999999MW1611REMMET092RJAK 0700Z 36006KT 6000 -RA SCT010 BKN020 OVC030 03/02 Q1024 RMK 3ST010 5SC020 8SC030 A3025;EQDQ01+000003PRSWM1Q02    003PRSWM1
0275477160999992000011208004+36030+140200FM-15+0029RJAK V0203501N003610045019N0050001N1+00301+00201999999ADDGA1021+002409999GA2071+004509999GA3081+007509999GF108991999999999999999999MA1102401999999MW1101MW2611REMMET127RJAK 0800Z 35007KT 5000 -RA BR SCT008 BKN015 OVC025 03/02 Q1024 RMK 3ST008 5SC015 8SC025 A3025 FCST 0817 BECMG 0809 4000 -RASN;EQDQ01+000003PRSWM1Q02    003PRSWM1
0243477160999992000011222004+36030+140200FM-15+0029RJAK V0200301N002610030019N0025001N1+00401+00401999999ADDGA1021+001809999GA2071+003009999GA3081+006009999GF108991999999999999999999MA1101191999999MW1101MW2611REMMET095RJAK 2200Z 03005KT 2500 -RA BR SCT006 BKN010 OVC020 04/04 Q1012 RMK 3ST006 6ST010 8SC020 A2991;EQDQ01+000003PRSWM1Q02    003PRSWM1
0269477160999992000011300004+36030+140200FM-15+0029RJAK V0202901N003610030019N0040001N1+00401+00401999999ADDGA1021+001809999GA2081+003009999GF108991999999999999999999MA1101191999999MW1101MW2611REMMET137RJAK 0000Z 29007KT 4000 -RA BR SCT006 OVC010 04/04 Q1012 RMK 4ST006 8ST010 A2989 FCST 0009 TEMPO 0006 5000 BR SCT006ST SCT010ST BKN020SC;EQDQ01+000003PRSWM1Q02    003PRSWM1
0235477160999992000011301404+36030+140200FM-16+0029RJAK V0202801N002610036019N0040001N1+00501+00501999999ADDGA1021+001809999GA2071+003609999GA3081+006009999GF108991999999999999999999MA1101021999999MW1101REMMET093RJAK 130140Z 28005KT 4000 BR SCT006 BKN012 OVC020 05/05 Q1010 RMK 3ST006 5ST012 8SC020 A2984;EQDQ01+000003PRSWM1Q02    003PRSWM1
0243477160999992000011302004+36030+140200FM-15+0029RJAK V0202901N003110036019N0038001N1+00501+00501999999ADDGA1021+001809999GA2071+003609999GA3081+006009999GF108991999999999999999999MA1101021999999MW1101MW2611REMMET095RJAK 0200Z 29006KT 3800 -RA BR SCT006 BKN012 OVC020 05/05 Q1010 RMK 3ST006 6ST012 8SC020 A2983;EQDQ01+000003PRSWM1Q02    003PRSWM1
0243477160999992000011304004+36030+140200FM-15+0029RJAK V0202701N001010036019N0020001N1+00701+00701999999ADDGA1021+001809999GA2071+003609999GA3081+006009999GF108991999999999999999999MA1100711999999MW1101MW2611REMMET095RJAK 0400Z 27002KT 2000 -RA BR SCT006 BKN012 OVC020 07/07 Q1007 RMK 4ST006 5ST012 8SC020 A2975;EQDQ01+000003PRSWM1Q02    003PRSWM1
0233477160999992000011305004+36030+140200FM-15+0029RJAK V0202901N001510036019N0020001N1+00801+00801999999ADDGA1021+001809999GA2071+003609999GA3081+006009999GF108991999999999999999999MA1100611999999MW1101REMMET091RJAK 0500Z 29003KT 2000 BR SCT006 BKN012 OVC020 08/08 Q1006 RMK 4ST006 6ST012 8SC020 A2973;EQDQ01+000003PRSWM1Q02    003PRSWM1
0273477160999992000011306004+36030+140200FM-15+0029RJAK V0202901N001010036019N0025001N1+00801+00801999999ADDGA1021+001809999GA2071+003609999GA3081+006009999GF108991999999999999999999MA1100611999999MW1101REMMET131RJAK 0600Z 29002KT 2500 BR SCT006 BKN012 OVC020 08/08 Q1006 RMK 3ST006 5ST012 8SC020 A2973 FCST 0615 TEMPO 0810 -RA BECMG 1012 -RA;EQDQ01+000003PRSWM1Q02    003PRSWM1
0255477160999992000011306264+36030+140200FM-16+0029RJAK V0202901N000510030019N0025001N1+00901+00801999999ADDGA1021+001809999GA2071+003009999GA3081+006009999GF108991999999999999999999MA1100611999999MW1611REMMET097RJAK 130626Z 29001KT 2500 -RA BR SCT006 BKN010 OVC020 09/08 Q1006 RMK 3ST006 6ST010 8SC020 A2973;EQDQ01+000100PRSWM3Q02+000003PRSWM1Q03    003PRSWM1
0243477160999992000011307004+36030+140200FM-15+0029RJAK V0200101N001010030019N0025001N1+00801+00801999999ADDGA1021+001809999GA2071+003009999GA3081+006009999GF108991999999999999999999MA1100611999999MW1101MW2611REMMET095RJAK 0700Z 01002KT 2500 -RA BR SCT006 BKN010 OVC020 08/08 Q1006 RMK 3ST006 6ST010 8SC020 A2972;EQDQ01+000003PRSWM1Q02    003PRSWM1
0259477160999992000011308004+36030+140200FM-15+0029RJAK V0203201N001010030019N0018001N1+00801+00801999999ADDGA1021+001809999GA2071+003009999GA3081+006009999GF108991999999999999999999MA1100611999999MW1101MW2611REMMET111RJAK 0800Z 32002KT 1800 -RA BR SCT006 BKN010 OVC020 08/08 Q1006 RMK 4ST006 6ST010 8SC020 A2972 FCST 0817 NOSIG;EQDQ01+000003PRSWM1Q02    003PRSWM1
0271477160999992000011323004+36030+140200FM-15+0029RJAK V0202801N000510090019N0045001N1+00801+00801999999ADDGA1021+001809999GA2071+009009999GF107991999999999999999999MA1100611999999MW1101REMMET145RJAK 2300Z 28001KT 4500 BR SCT006 BKN030 08/08 Q1006 RMK 3ST006 5SC030 A2971 FCST 2308 BECMG 2300 6000 NSW FEW006ST SCT030CU TEMPO 0308 BKN030CU;EQDQ01+000003PRSWM1Q02    003PRSWM1
0218477160999992000011400004+36030+140200FM-15+0029RJAK V0202801N002612200019N0050001N1+00901+00901999999ADDGA1021+006009999GF102991999999999999999999MA1100711999999MW1101REMMET108RJAK 0000Z 28005KT 5000 BR FEW020 09/09 Q1007 RMK 1CU020 A2974 FCST 0009 BECMG 0001 NSW TEMPO 0308 BKN030CU;EQDQ01+000003PRSWM1Q02    003PRSWM1
0175477160999992000011400064+36030+140200FM-16+0029RJAK V0202701N003110024019N0016001N1+00901+00901999999ADDGA1071+002409999GF107991999999999999999999MA1100711999999MW1101REMMET065RJAK 140006Z 27006KT 1600 BR BKN008 09/09 Q1007 RMK 7ST008 A2975;EQDQ01+000003PRSWM1Q02    003PRSWM1
0203477160999992000011401004+36030+140200FM-15+0029RJAK V0202801N002610024019N0016001N1+00901+00901999999ADDGA1021+000909999GA2071+002409999GF107991999999999999999999MA1100811999999MW1101REMMET077RJAK 0100Z 28005KT 1600 BR SCT003 BKN008 09/09 Q1008 RMK 3ST003 6ST008 A2976;EQDQ01+000003PRSWM1Q02    003PRSWM1
0203477160999992000011402004+36030+140200FM-15+0029RJAK V0202701N003612200019N0030001N1+01101+00901999999ADDGA1021+001209999GA2021+002709999GF104991999999999999999999MA1100811999999MW1101REMMET077RJAK 0200Z 27007KT 3000 BR FEW004 SCT009 11/09 Q1008 RMK 2ST004 4ST009 A2977;EQDQ01+000003PRSWM1Q02    003PRSWM1
0205477160999992000011402234+36030+140200FM-16+0029RJAK V0202801N003112200019N0050001N1+01201+00901999999ADDGA1021+002409999GA2021+003609999GF104991999999999999999999MA1100811999999MW1101REMMET079RJAK 140223Z 28006KT 5000 BR FEW008 SCT012 12/09 Q1008 RMK 1ST008 3ST012 A2976;EQDQ01+000003PRSWM1Q02    003PRSWM1
0203477160999992000011403004+36030+140200FM-15+0029RJAK V0203101N002112200019N0050001N1+01301+01001999999ADDGA1021+004509999GF102991999999999999999999MA1100711999999MW1101REMMET093RJAK 0300Z 31004KT 5000 BR FEW015 13/10 Q1007 RMK 1CU015 A2976 FCST 0312 BECMG 0304 6000 NSW;EQDQ01+000003PRSWM1Q02    003PRSWM1
0154477160999992000011404004+36030+140200FM-15+0029RJAK V0202701N002612200019N0112651N1+01601+00501999999ADDGA1021+006009999GF102991999999999999999999MA1100711999999MW1001REMMET060RJAK 0400Z 27005KT 9999 FEW020 16/05 Q1007 RMK 1CU020 A2975;EQDQ01+000000PRSWM2
0154477160999992000011405004+36030+140200FM-15+0029RJAK V0203101N004112200019N0112651N1+01601+00201999999ADDGA1021+006009999GF102991999999999999999999MA1100811999999MW1001REMMET060RJAK 0500Z 31008KT 9999 FEW020 16/02 Q1008 RMK 1CU020 A2977;EQDQ01+000000PRSWM2
0179477160999992000011406004+36030+140200FM-15+0029RJAK V0203301N004112200019N0112651N1+01601-00101999999ADDGA1021+007509999GF102991999999999999999999MA1100811999999MW1001REMMET085RJAK 0600Z 33008KT 260V010 9999 FEW025 16/M01 Q1008 RMK 1CU025 A2977 FCST 0615 NOSIG;EQDQ01+000000PRSWM2
0155477160999992000011407004+36030+140200FM-15+0029RJAK V0203501N002612200019N0112651N1+01501-00101999999ADDGA1021+069009999GF102991999999999999999999MA1100911999999MW1001REMMET061RJAK 0700Z 35005KT 9999 FEW230 15/M01 Q1009 RMK 2CI230 A2979;EQDQ01+000000PRSWM2
0171477160999992000011408004+36030+140200FM-15+0029RJAK V0203201N002112200019N0112651N1+01401-00201999999ADDGA1021+007509999GF102991999999999999999999MA1101021999999MW1001REMMET077RJAK 0800Z 32004KT 9999 FEW025 14/M02 Q1010 RMK 1CU025 A2983 FCST 0817 NOSIG;EQDQ01+000000PRSWM2
0212477160999992000011622004+36030+140200FM-15+0029RJAK V0200101N002610030019N0040001N1+00401+00401999999ADDGA1071+003009999GA2081+006009999GF108991999999999999999999MA1101591999999MW1101MW2631REMMET080RJAK 2200Z 01005KT 4000 RA BR BKN010 OVC020 04/04 Q1016 RMK 5ST010 8SC020 A3000;EQDQ01+000003PRSWM1Q02    003PRSWM1
0239477160999992000011623004+36030+140200FM-15+0029RJAK V0200101N003610024019N0050001N1+00401+00301999999ADDGA1071+002409999GA2081+006009999GF108991999999999999999999MA1101591999999MW1101MW2611REMMET107RJAK 2300Z 01007KT 5000 -RA BR BKN008 OVC020 04/03 Q1016 RMK 5ST008 8SC020 A3000 FCST 2308 BECMG 2300 4000;EQDQ01+000003PRSWM1Q02    003PRSWM1
0335477160999992000011703004+36030+140200FM-15+0029RJAK V0200101N003110300019N0112651N1+00501+00401999999ADDGA1021+003609999GA2021+012009999GA3071+030009999GF107991999999999999999999MA1101391999999MW1611REMMET193RJAK 0300Z 01006KT 9999 -RA FEW012 SCT040 BKN100 05/04 Q1014 RMK 1CU012 3SC040 7AC100 A2995 FCST 0312 BECMG 0304 NSW TEMPO 0308 SCT012SC BKN030SC OVC100AC TEMPO 0812 SCT008ST BKN009ST OVC020SC;EQDQ01+000003PRSWM1Q02    003PRSWM1
0206477160999992000011703214+36030+140200FM-16+0029RJAK V0200201N004612200019N0112651N1+00601+00401999999ADDGA1021+003609999GA2021+030009999GF104991999999999999999999MA1101291999999MW1611REMMET080RJAK 170321Z 02009KT 9999 -RA SCT012 SCT100 06/04 Q1013 RMK 3CU012 3AC100 A2992;EQDQ01+000003PRSWM1Q02    003PRSWM1
0186477160999992000011703354+36030+140200FM-16+0029RJAK V0200201N004112200019N0112651N1+00701+00401999999ADDGA1021+004209999GA2021+030009999GF104991999999999999999999MA1101291999999MW1001REMMET076RJAK 170335Z 02008KT 9999 SCT014 SCT100 07/04 Q1013 RMK 3CU014 4AC100 A2991;EQDQ01+000000PRSWM2
0184477160999992000011704004+36030+140200FM-15+0029RJAK V0200201N003612200019N0112651N1+00701+00501999999ADDGA1021+004509999GA2021+030009999GF104991999999999999999999MA1101291999999MW1001REMMET074RJAK 0400Z 02007KT 9999 SCT015 SCT100 07/05 Q1013 RMK 4CU015 3AC100 A2991;EQDQ01+000000PRSWM2
0186477160999992000011704094+36030+140200FM-16+0029RJAK V0200301N004110060019N0112651N1+00701+00401999999ADDGA1021+004509999GA2071+006009999GF107991999999999999999999MA1101191999999MW1001REMMET076RJAK 170409Z 03008KT 9999 FEW015 BKN020 07/04 Q1012 RMK 2CU015 5CU020 A2990;EQDQ01+000000PRSWM2
0214477160999992000011705004+36030+140200FM-15+0029RJAK V0200401N004610060019N0112651N1+00801+00401999999ADDGA1021+004509999GA2071+006009999GA3081+012009999GF108991999999999999999999MA1101191999999MW1001REMMET088RJAK 0500Z 04009KT 9999 FEW015 BKN020 OVC040 08/04 Q1012 RMK 2CU015 5CU020 8SC040 A2989;EQDQ01+000000PRSWM2
0253477160999992000011706004+36030+140200FM-15+0029RJAK V0200301N003110075019N0112651N1+00801+00401999999ADDGA1021+006009999GA2071+007509999GA3081+012009999GF108991999999999999999999MA1101191999999MW1001REMMET127RJAK 0600Z 03006KT 9999 SCT020 BKN025 OVC040 08/04 Q1012 RMK 3CU020 5CU025 8SC040 A2989 FCST 0615 TEMPO 0815 BKN009ST OVC020SC;EQDQ01+000000PRSWM2
0214477160999992000011707004+36030+140200FM-15+0029RJAK V0200201N002110120019N0112651N1+00801+00401999999ADDGA1021+006009999GA2021+007509999GA3081+012009999GF108991999999999999999999MA1101291999999MW1001REMMET088RJAK 0700Z 02004KT 9999 FEW020 SCT025 OVC040 08/04 Q1013 RMK 1CU020 3CU025 8SC040 A2991;EQDQ01+000000PRSWM2
0154477160999992000011722004+36030+140200FM-15+0029RJAK V0209999C000012200019N0112651N1+00301+00001999999ADDGA1021+006009999GF102991999999999999999999MA1101191999999MW1001REMMET060RJAK 2200Z 00000KT 9999 FEW020 03/00 Q1012 RMK 1CU020 A2990;EQDQ01+000000PRSWM2
0170477160999992000011723004+36030+140200FM-15+0029RJAK V0209999C000012200019N0112651N1+00301+00101999999ADDGA1021+006009999GF102991999999999999999999MA1101291999999MW1001REMMET076RJAK 2300Z 00000KT 9999 FEW020 03/01 Q1013 RMK 1CU020 A2991 FCST 2308 NOSIG;EQDQ01+000000PRSWM2
0170477160999992000011800004+36030+140200FM-15+0029RJAK V0200401N002612200019N0112651N1+00601+00001999999ADDGA1021+006009999GF102991999999999999999999MA1101391999999MW1001REMMET076RJAK 0000Z 04005KT 9999 FEW020 06/00 Q1014 RMK 1CU020 A2994 FCST 0009 NOSIG;EQDQ01+000000PRSWM2
0154477160999992000011801004+36030+140200FM-15+0029RJAK V0200501N004612200019N0112651N1+00701+00001999999ADDGA1021+006009999GF102991999999999999999999MA1101391999999MW1001REMMET060RJAK 0100Z 05009KT 9999 FEW020 07/00 Q1014 RMK 1CU020 A2994;EQDQ01+000000PRSWM2
0154477160999992000011802004+36030+140200FM-15+0029RJAK V0200801N004612200019N0112651N1+00901+00101999999ADDGA1021+007509999GF102991999999999999999999MA1101291999999MW1001REMMET060RJAK 0200Z 08009KT 9999 FEW025 09/01 Q1013 RMK 1CU025 A2993;EQDQ01+000000PRSWM2
0170477160999992000011803004+36030+140200FM-15+0029RJAK V0200901N004612200019N0112651N1+00901+00101999999ADDGA1021+007509999GF104991999999999999999999MA1101191999999MW1001REMMET076RJAK 0300Z 09009KT 9999 SCT025 09/01 Q1012 RMK 3CU025 A2990 FCST 0312 NOSIG;EQDQ01+000000PRSWM2
0154477160999992000011804004+36030+140200FM-15+0029RJAK V0200901N003112200019N0112651N1+00901+00001999999ADDGA1021+007509999GF104991999999999999999999MA1101081999999MW1001REMMET060RJAK 0400Z 09006KT 9999 SCT025 09/00 Q1011 RMK 3CU025 A2988;EQDQ01+000000PRSWM2
0154477160999992000011805004+36030+140200FM-15+0029RJAK V0201001N002612200019N0112651N1+01001+00001999999ADDGA1021+009009999GF104991999999999999999999MA1101081999999MW1001REMMET060RJAK 0500Z 10005KT 9999 SCT030 10/00 Q1011 RMK 3CU030 A2987;EQDQ01+000000PRSWM2
0170477160999992000011806004+36030+140200FM-15+0029RJAK V0201401N002112200019N0112651N1+01001+00101999999ADDGA1021+009009999GF102991999999999999999999MA1101081999999MW1001REMMET076RJAK 0600Z 14004KT 9999 FEW030 10/01 Q1011 RMK 2CU030 A2988 FCST 0615 NOSIG;EQDQ01+000000PRSWM2
0154477160999992000011807004+36030+140200FM-15+0029RJAK V0200801N005112200019N0112651N1+00801+00101999999ADDGA1021+009009999GF102991999999999999999999MA1101191999999MW1001REMMET060RJAK 0700Z 08010KT 9999 FEW030 08/01 Q1012 RMK 1CU030 A2989;EQDQ01+000000PRSWM2
0170477160999992000011808004+36030+140200FM-15+0029RJAK V0200901N003612200019N0112651N1+00701+00201999999ADDGA1021+009009999GF102991999999999999999999MA1101191999999MW1001REMMET076RJAK 0800Z 09007KT 9999 FEW030 07/02 Q1012 RMK 1CU030 A2991 FCST 0817 NOSIG;EQDQ01+000000PRSWM2
0185477160999992000011822004+36030+140200FM-15+0029RJAK V0200301N003110135019N0112651N1+00401-00301999999ADDGA1071+013509999GA2071+030009999GF107991999999999999999999MA1101491999999MW1001REMMET075RJAK 2200Z 03006KT 9999 BKN045 BKN100 04/M03 Q1015 RMK 6SC045 5AC100 A2998;EQDQ01+000000PRSWM2
0288477160999992000011823004+36030+140200FM-15+0029RJAK V0200301N00261220001CN0112651N1+00501-00201999999ADDGA1071+013509999GA2021+030009999MA1101491999999MW1001REMMET188RJAK 2300Z 03005KT 9999 BKN045 SCT100 05/M02 Q1015 RMK 6SC045 4AC100 A2999 FCST 2308 BECMG 0304 FEW020SC BKN030SC OVC100AS TEMPO 0307 -RA TEMPO 0708 3000 -RA BR SCT008ST BKN009ST OVC020SC;EQDQ01+000042SCOTCVQ02+000000PRSWM2
0328477160999992000011900004+36030+140200FM-15+0029RJAK V0200201N002610135019N0112651N1+00501-00201999999ADDGA1021+009009999GA2071+013509999GA3071+024009999GF107991999999999999999999MA1101491999999MW1001REMMET202RJAK 0000Z 02005KT 9999 FEW030 BKN045 BKN080 05/M02 Q1015 RMK 1CU030 5SC045 5AC080 A2999 FCST 0009 BECMG 0304 FEW020SC BKN030SC OVC100AS TEMPO 0307 -RA TEMPO 0709 3000 -RA BR SCT008ST BKN009ST OVC020SC;EQDQ01+000000PRSWM2
0215477160999992000011901004+36030+140200FM-15+0029RJAK V0200201N003610090019N0112651N1+00601-00101999999ADDGA1071+009009999GA2071+024009999GA3071+060009999GF107991999999999999999999MA1101591999999MW1001REMMET089RJAK 0100Z 02007KT 9999 BKN030 BKN080 BKN200 06/M01 Q1016 RMK 6SC030 6AC080 7CS200 A3000;EQDQ01+000000PRSWM2
0215477160999992000011902004+36030+140200FM-15+0029RJAK V0200301N003110090019N0112651N1+00701-00101999999ADDGA1021+006009999GA2071+009009999GA3071+024009999GF107991999999999999999999MA1101491999999MW1001REMMET089RJAK 0200Z 03006KT 9999 FEW020 BKN030 BKN080 07/M01 Q1015 RMK 2CU020 5SC030 6AC080 A2999;EQDQ01+000000PRSWM2
0290477160999992000011903004+36030+140200FM-15+0029RJAK V0200401N002610090019N0112651N1+00701-00101999999ADDGA1021+006009999GA2071+009009999GA3071+024009999GF107991999999999999999999MA1101391999999MW1001REMMET164RJAK 0300Z 04005KT 9999 FEW020 BKN030 BKN080 07/M01 Q1014 RMK 1CU020 6SC030 7AC080 A2996 FCST 0312 BECMG 0304 -RA TEMPO 0712 3000 -RA BR SCT008ST BKN009ST OVC020SC;EQDQ01+000000PRSWM2
0237477160999992000011903274+36030+140200FM-16+0029RJAK V0200601N002110090019N0112651N1+00701-00101999999ADDGA1021+006009999GA2071+009009999GA3071+024009999GF107991999999999999999999MA1101391999999MW1611REMMET095RJAK 190327Z 06004KT 9999 -RA FEW020 BKN030 BKN080 07/M01 Q1014 RMK 1CU020 6SC030 7AC080 A2995;EQDQ01+000003PRSWM1Q02    003PRSWM1
0234477160999992000011904004+36030+140200FM-15+0029RJAK V0201401N003110090019N0112651N1+00601+00201999999ADDGA1021+006009999GA2071+009009999GA3081+024009999GF108991999999999999999999MA1101391999999MW1611REMMET092RJAK 0400Z 14006KT 9999 -RA SCT020 BKN030 OVC080 06/02 Q1014 RMK 3CU020 7SC030 8AC080 A2995;EQDQ01+000003PRSWM1Q02    003PRSWM1
0234477160999992000011905004+36030+140200FM-15+0029RJAK V0200501N002110105019N0090001N1+00501+00301999999ADDGA1021+007509999GA2071+010509999GA3081+024009999GF108991999999999999999999MA1101291999999MW1611REMMET092RJAK 0500Z 05004KT 9000 -RA FEW025 BKN035 OVC080 05/03 Q1013 RMK 2CU025 6SC035 8AC080 A2994;EQDQ01+000003PRSWM1Q02    003PRSWM1
0332477160999992000011906004+36030+140200FM-15+0029RJAK V0200401N002610105019N0080001N1+00501+00301999999ADDGA1021+007509999GA2071+010509999GA3081+018009999GF108991999999999999999999MA1101291999999MW1611REMMET190RJAK 0600Z 04005KT 8000 -RA FEW025 BKN035 OVC060 05/03 Q1013 RMK 1CU025 5SC035 8SC060 A2993 FCST 0615 BECMG 0607 SCT025CU BKN030SC OVC040SC TEMPO 0715 3000 -RA BR SCT008ST BKN009ST OVC020SC;EQDQ01+000003PRSWM1Q02    003PRSWM1
0243477160999992000011907004+36030+140200FM-15+0029RJAK V0200401N002610090019N0050001N1+00401+00401999999ADDGA1021+004509999GA2071+009009999GA3081+018009999GF108991999999999999999999MA1101291999999MW1101MW2611REMMET095RJAK 0700Z 04005KT 5000 -RA BR FEW015 BKN030 OVC060 04/04 Q1013 RMK 1ST015 5SC030 8SC060 A2993;EQDQ01+000003PRSWM1Q02    003PRSWM1
0333477160999992000011908004+36030+140200FM-15+0029RJAK V0200401N002610090019N0050001N1+00401+00401999999ADDGA1021+004509999GA2071+009009999GA3081+018009999GF108991999999999999999999MA1101291999999MW1101MW2611REMMET185RJAK 0800Z 04005KT 5000 -RA BR FEW015 BKN030 OVC060 04/04 Q1013 RMK 1ST015 5SC030 8SC060 A2992 FCST 0817 TEMPO 0815 3000 SCT008ST BKN009ST OVC020SC TEMPO 1517 2000 SN BKN005ST OVC010ST;EQDQ01+000003PRSWM1Q02    003PRSWM1
0173477160999992000011922004+36030+140200FM-15+0029RJAK V0202701N001512200019N0030001N1+00201+00101999999ADDGA1021+007509999GF102991999999999999999999MA1100811999999MW1101REMMET063RJAK 2200Z 27003KT 3000 BR FEW025 02/01 Q1008 RMK 1CU025 A2978;EQDQ01+000003PRSWM1Q02    003PRSWM1
0220477160999992000011923004+36030+140200FM-15+0029RJAK V0202901N001512200019N0045001N1+00301+00201999999ADDGA1021+007509999GF102991999999999999999999MA1100911999999MW1101REMMET110RJAK 2300Z 29003KT 4500 BR FEW025 03/02 Q1009 RMK 1CU025 A2979 FCST 2308 BECMG 2300 NSW TEMPO 0608 29015G25KT;EQDQ01+000003PRSWM1Q02    003PRSWM1
0194477160999992000012000004+36030+140200FM-15+0029RJAK V0202901N002112200019N0040001N1+00501+00201999999ADDGF100991999999999999999999MA1100911999999MW1101REMMET100RJAK 0000Z 29004KT 4000 BR SKC 05/02 Q1009 RMK A2981 FCST 0009 BECMG 0001 NSW TEMPO 0608 29015G25KT;EQDQ01+000003PRSWM1Q02    003PRSWM1
0147477160999992000012001004+36030+140200FM-15+0029RJAK V0202901N001512200019N0045001N1+00601+00201999999ADDGF100991999999999999999999MA1100911999999MW1101REMMET053RJAK 0100Z 29003KT 4500 BR SKC 06/02 Q1009 RMK A2981;EQDQ01+000003PRSWM1Q02    003PRSWM1
0146477160999992000012001154+36030+140200FM-16+0029RJAK V0202701N002112200019N9999999N1+00701+00101999999ADDGF100991999999999999999999MA1100911999999MW1001REMMET052RJAK 200115Z 27004KT 6000 SKC 07/01 Q1009 RMK A2981;EQDQ01+060002VODIS Q02+000000PRSWM2
0144477160999992000012002004+36030+140200FM-15+0029RJAK V0202601N002612200019N0112651N1+00801+00001999999ADDGF100991999999999999999999MA1100911999999MW1001REMMET050RJAK 0200Z 26005KT 7000 SKC 08/00 Q1009 RMK A2980;EQDQ01+070002VODIS Q02+000000PRSWM2
0161477160999992000012003004+36030+140200FM-15+0029RJAK V0202701N004112200019N0112651N1+00901-00201999999ADDGF100991999999999999999999MA1100811999999MW1001REMMET083RJAK 0300Z 27008KT 9999 SKC 09/M02 Q1008 RMK A2977 FCST 0312 TEMPO 0308 29015G25KT;EQDQ01+000000PRSWM2
0155477160999992000012004004+36030+140200FM-15+0029RJAK V0202701N004612200019N0112651N1+01201-00301999999ADDGA1021+009009999GF102991999999999999999999MA1100711999999MW1001REMMET061RJAK 0400Z 27009KT 9999 FEW030 12/M03 Q1007 RMK 1CU030 A2974;EQDQ01+000000PRSWM2
0155477160999992000012005004+36030+140200FM-15+0029RJAK V0202901N004612200019N0112651N1+01201-00801999999ADDGA1021+009009999GF102991999999999999999999MA1100611999999MW1001REMMET061RJAK 0500Z 29009KT 9999 FEW030 12/M08 Q1006 RMK 1CU030 A2973;EQDQ01+000000PRSWM2
0168477160999992000012005204+36030+140200FM-15+0029RJAK V0202701N005112200019N0112651N1+01201-00901999999ADDGA1021+009009999GF102991999999999999999999MA1100611999999MW1001OC101031REMMET066RJAK 200520Z 27010G20KT 9999 FEW030 12/M09 Q1006 RMK 1CU030 A2973;EQDQ01+000000PRSWM2
0195477160999992000012006004+36030+140200FM-15+0029RJAK V0202901N005712200019N0112651N1+01201-00901999999ADDGA1021+009009999GF102991999999999999999999MA1100611999999MW1001OC101081REMMET093RJAK 0600Z 29011G21KT 9999 FEW030 12/M09 Q1006 RMK 1CU030 A2973 FCST 0615 BECMG 0708 29008KT;EQDQ01+000000PRSWM2
0155477160999992000012007004+36030+140200FM-15+0029RJAK V0202901N004612200019N0112651N1+01001-00901999999ADDGA1021+009009999GF102991999999999999999999MA1100711999999MW1001REMMET061RJAK 0700Z 29009KT 9999 FEW030 10/M09 Q1007 RMK 1CU030 A2974;EQDQ01+000000PRSWM2
0187477160999992000012008004+36030+140200FM-15+0029RJAK V0202801N005112200019N0112651N1+00901-01001999999ADDGA1021+009009999GF102991999999999999999999MA1100711999999MW1001REMMET093RJAK 0800Z 28010KT 9999 FEW030 09/M10 Q1007 RMK 1CU030 A2975 FCST 0817 TEMPO 0809 29012G22KT;EQDQ01+000000PRSWM2
0166477160999992000012022004+36030+140200FM-15+0029RJAK V0202801N005112200019N0112651N1+00201-01001999999ADDGA1021+007509999GF102991999999999999999999MA1101801999999MW1001OC101081REMMET064RJAK 2200Z 28010G21KT 9999 FEW025 02/M10 Q1018 RMK 1SC025 A3007;EQDQ01+000000PRSWM2
0209477160999992000012023004+36030+140200FM-15+0029RJAK V0202601N004112200019N0112651N1+00201-01001999999ADDGA1021+007509999GF102991999999999999999999MA1101901999999MW1001REMMET115RJAK 2300Z 26008KT 9999 FEW025 02/M10 Q1019 RMK 1CU025 A3010 FCST 2308 BECMG 2300 29010G20KT TEMPO 0007 30025G35KT;EQDQ01+000000PRSWM2
0168477160999992000012023404+36030+140200FM-16+0029RJAK V0202701N005112200019N0112651N1+00301-01001999999ADDGA1021+007509999GF102991999999999999999999MA1102001999999MW1001OC101031REMMET066RJAK 202340Z 27010G20KT 9999 FEW025 03/M10 Q1020 RMK 1CU025 A3012;EQDQ01+000000PRSWM2
0198477160999992000012100004+36030+140200FM-15+0029RJAK V0202701N005712200019N0112651N1+00301-01001999999ADDGA1021+007509999GF102991999999999999999999MA1102001999999MW1001OC101181REMMET096RJAK 0000Z 27011G23KT 9999 FEW025 03/M10 Q1020 RMK 1CU025 A3013 FCST 0009 TEMPO 0007 30025G35KT;EQDQ01+000000PRSWM2
0166477160999992000012101004+36030+140200FM-15+0029RJAK V0202801N006712200019N0112651N1+00401-01101999999ADDGA1021+007509999GF102991999999999999999999MA1102001999999MW1001OC101341REMMET064RJAK 0100Z 28013G26KT 9999 FEW025 04/M11 Q1020 RMK 1CU025 A3013;EQDQ01+000000PRSWM2
0166477160999992000012102004+36030+140200FM-15+0029RJAK V0203001N007712200019N0112651N1+00401-01201999999ADDGA1021+007509999GF102991999999999999999999MA1102001999999MW1001OC101591REMMET064RJAK 0200Z 30015G31KT 9999 FEW025 04/M12 Q1020 RMK 1CU025 A3013;EQDQ01+000000PRSWM2
0198477160999992000012103004+36030+140200FM-15+0029RJAK V0202901N008212200019N0112651N1+00401-01301999999ADDGA1021+007509999GF102991999999999999999999MA1101901999999MW1001OC101441REMMET096RJAK 0300Z 29016G28KT 9999 FEW025 04/M13 Q1019 RMK 1CU025 A3011 FCST 0312 TEMPO 0307 29025G35KT;EQDQ01+000000PRSWM2
0166477160999992000012104004+36030+140200FM-15+0029RJAK V0202801N008212200019N0112651N1+00601-01301999999ADDGA1021+009009999GF102991999999999999999999MA1101901999999MW1001OC101491REMMET064RJAK 0400Z 28016G29KT 9999 FEW030 06/M13 Q1019 RMK 1CU030 A3010;EQDQ01+000000PRSWM2
0168477160999992000012104454+36030+140200FM-15+0029RJAK V0202901N009312200019N0112651N1+00601-01401999999ADDGA1021+009009999GF102991999999999999999999MA1101901999999MW1001OC101851REMMET066RJAK 210445Z 29018G36KT 9999 FEW030 06/M14 Q1019 RMK 1CU030 A3010;EQDQ01+000000PRSWM2
0166477160999992000012105004+36030+140200FM-15+0029RJAK V0202901N008712200019N0112651N1+00601-01401999999ADDGA1021+009009999GF102991999999999999999999MA1101901999999MW1001OC101851REMMET064RJAK 0500Z 29017G36KT 9999 FEW030 06/M14 Q1019 RMK 1CU030 A3010;EQDQ01+000000PRSWM2
0168477160999992000012105384+36030+140200FM-16+0029RJAK V0202901N008212200019N0112651N1+00501-01501999999ADDGA1021+009009999GF102991999999999999999999MA1102001999999MW1001OC101591REMMET066RJAK 210538Z 29016G31KT 9999 FEW030 05/M15 Q1020 RMK 1CU030 A3013;EQDQ01+000000PRSWM2
0182477160999992000012106004+36030+140200FM-15+0029RJAK V0202901N008712200019N0112651N1+00501-01401999999ADDGA1021+009009999GF102991999999999999999999MA1102001999999MW1001OC101541REMMET080RJAK 0600Z 29017G30KT 9999 FEW030 05/M14 Q1020 RMK 1CU030 A3013 FCST 0615 NOSIG;EQDQ01+000000PRSWM2
0166477160999992000012107004+36030+140200FM-15+0029RJAK V0203101N005712200019N0112651N1+00401-01301999999ADDGA1021+009009999GF102991999999999999999999MA1102101999999MW1001OC101181REMMET064RJAK 0700Z 31011G23KT 9999 FEW030 04/M13 Q1021 RMK 1CU030 A3016;EQDQ01+000000PRSWM2
0182477160999992000012108004+36030+140200FM-15+0029RJAK V0203001N005712200019N0112651N1+00301-01301999999ADDGA1021+007509999GF102991999999999999999999MA1102201999999MW1001OC101131REMMET080RJAK 0800Z 30011G22KT 9999 FEW025 03/M13 Q1022 RMK 1CU025 A3019 FCST 0817 NOSIG;EQDQ01+000000PRSWM2
0184477160999992000012322004+36030+140200FM-15+0029RJAK V0203001N001010150019N0112651N1+00201+00001999999ADDGA1071+015009999GA2081+030009999GF108991999999999999999999MA1101691999999MW1001REMMET074RJAK 2200Z 30002KT 9999 BKN050 OVC100 02/00 Q1017 RMK 6SC050 8AC100 A3004;EQDQ01+000000PRSWM2
0205477160999992000012322084+36030+140200FM-16+0029RJAK V0202901N002110135019N0040001N1+00201+00001999999ADDGA1071+013509999GA2071+030009999GF107991999999999999999999MA1101691999999MW1101REMMET079RJAK 232208Z 29004KT 4000 BR BKN045 BKN100 02/00 Q1017 RMK 6SC045 5AC100 A3004;EQDQ01+000003PRSWM1Q02    003PRSWM1
0229477160999992000012323004+36030+140200FM-15+0029RJAK V0209999C000010135019N0045001N1+00301+00001999999ADDGA1071+013509999GA2071+030009999GF107991999999999999999999MA1101691999999MW1101REMMET103RJAK 2300Z 00000KT 4500 BR BKN045 BKN100 03/00 Q1017 RMK 7SC045 5AC100 A3004 FCST 2308 BECMG 0204 5000;EQDQ01+000003PRSWM1Q02    003PRSWM1
0249477160999992000012400004+36030+140200FM-15+0029RJAK V0201501N001510135019N0030001N1+00301+00101999999ADDGA1071+013509999GA2071+030009999GF107991999999999999999999MA1101801999999MW1101REMMET123RJAK 0000Z 15003KT 3000 BR BKN045 BKN100 03/01 Q1018 RMK 6SC045 7AC100 A3006 FCST 0009 BECMG 0204 5000 TEMPO 0206 BKN030SC;EQDQ01+000003PRSWM1Q02    003PRSWM1
0205477160999992000012400324+36030+140200FM-16+0029RJAK V02099999999990135019N0050001N1+00301+00001999999ADDGA1071+013509999GA2071+030009999GF107991999999999999999999MA1101801999999MW1101REMMET079RJAK 240032Z VRB01KT 5000 BR BKN045 BKN100 03/00 Q1018 RMK 6SC045 7AC100 A3007;EQDQ01+000003PRSWM1Q02    003PRSWM1
0184477160999992000012401004+36030+140200FM-15+0029RJAK V02099999999990300019N0060001N1+00701+00301999999ADDGA1021+013509999GA2071+030009999GF107991999999999999999999MA1101801999999MW1001REMMET074RJAK 0100Z VRB01KT 6000 SCT045 BKN100 07/03 Q1018 RMK 4SC045 7AC100 A3006;EQDQ01+000000PRSWM2
0214477160999992000012402004+36030+140200FM-15+0029RJAK V0200501N005110300019N0090001N1+01001+00601999999ADDGA1021+007509999GA2021+013509999GA3071+030009999GF107991999999999999999999MA1101801999999MW1001REMMET088RJAK 0200Z 05010KT 9000 FEW025 SCT045 BKN100 10/06 Q1018 RMK 1CU025 3SC045 7AC100 A3006;EQDQ01+000000PRSWM2
0190477160999992000012403004+36030+140200FM-15+0029RJAK V0200701N00511220001CN0112651N1+01001+00601999999ADDGA1071+007509999GA2021+013509999MA1101691999999MW1001REMMET090RJAK 0300Z 07010KT 9999 BKN025 SCT045 10/06 Q1017 RMK 5CU025 3SC045 A3005 FCST 0312 NOSIG;EQDQ01+000042SCOTCVQ02+000000PRSWM2
0214477160999992000012404004+36030+140200FM-15+0029RJAK V0200801N004610300019N0112651N1+01101+00501999999ADDGA1021+007509999GA2021+013509999GA3071+030009999GF107991999999999999999999MA1101591999999MW1001REMMET088RJAK 0400Z 08009KT 9999 SCT025 SCT045 BKN100 11/05 Q1016 RMK 4CU025 3SC045 5AC100 A3001;EQDQ01+000000PRSWM2
0214477160999992000012405004+36030+140200FM-15+0029RJAK V0201001N004610630019N0112651N1+01101+00501999999ADDGA1021+009009999GA2021+030009999GA3071+063009999GF107991999999999999999999MA1101491999999MW1001REMMET088RJAK 0500Z 10009KT 9999 FEW030 SCT100 BKN210 11/05 Q1015 RMK 1CU030 3AC100 7CI210 A2999;EQDQ01+000000PRSWM2
0216477160999992000012405334+36030+140200FM-16+0029RJAK V0201001N004110300019N0112651N1+01001+00501999999ADDGA1021+012009999GA2071+030009999GA3071+063009999GF107991999999999999999999MA1101491999999MW1001REMMET090RJAK 240533Z 10008KT 9999 FEW040 BKN100 BKN210 10/05 Q1015 RMK 2SC040 5AC100 7CI210 A2999;EQDQ01+000000PRSWM2
0230477160999992000012406004+36030+140200FM-15+0029RJAK V0201001N004110300019N0112651N1+01001+00501999999ADDGA1021+012009999GA2071+030009999GA3071+063009999GF107991999999999999999999MA1101491999999MW1001REMMET104RJAK 0600Z 10008KT 9999 FEW040 BKN100 BKN210 10/05 Q1015 RMK 2SC040 6AC100 7CI210 A2999 FCST 0615 NOSIG;EQDQ01+000000PRSWM2
0214477160999992000012407004+36030+140200FM-15+0029RJAK V0200801N003610300019N0112651N1+00901+00501999999ADDGA1021+012009999GA2071+030009999GA3071+063009999GF107991999999999999999999MA1101591999999MW1001REMMET088RJAK 0700Z 08007KT 9999 FEW040 BKN100 BKN210 09/05 Q1016 RMK 2SC040 6AC100 7CI210 A3000;EQDQ01+000000PRSWM2
0230477160999992000012408004+36030+140200FM-15+0029RJAK V0200701N002610300019N0112651N1+00801+00501999999ADDGA1021+012009999GA2071+030009999GA3071+063009999GF107991999999999999999999MA1101591999999MW1001REMMET104RJAK 0800Z 07005KT 9999 FEW040 BKN100 BKN210 08/05 Q1016 RMK 2SC040 5AC100 6CI210 A3000 FCST 0817 NOSIG;EQDQ01+000000PRSWM2
0235477160999992000012422004+36030+140200FM-15+0029RJAK V0201101N001510135019N0112651N1+00301-00101999999ADDGA1021+009009999GA2071+013509999GA3081+030009999GF108991999999999999999999MA1101591999999MW1611REMMET093RJAK 2200Z 11003KT 9999 -RA SCT030 BKN045 OVC100 03/M01 Q1016 RMK 3SC030 5SC045 8AC100 A3002;EQDQ01+000003PRSWM1Q02    003PRSWM1
0268477160999992000012423004+36030+140200FM-15+0029RJAK V0201001N001510135019N0112651N1+00301+00001999999ADDGA1021+009009999GA2071+013509999GA3081+030009999GF108991999999999999999999MA1101691999999MW1001REMMET142RJAK 2300Z 10003KT 9999 FEW030 BKN045 OVC100 03/M00 Q1017 RMK 2SC030 5SC045 8AC100 A3004 FCST 2308 TEMPO 0206 BR BECMG 0608 BKN100AC BKN200CI;EQDQ01+000000PRSWM2
0254477160999992000012500004+36030+140200FM-15+0029RJAK V0200801N001510300019N0112651N1+00401-00201999999ADDGA1021+009009999GA2021+013509999GA3081+030009999GF108991999999999999999999MA1101691999999MW1001REMMET128RJAK 0000Z 08003KT 9999 FEW030 SCT045 OVC100 04/M02 Q1017 RMK 1SC030 4SC045 8AC100 A3003 FCST 0009 TEMPO 0106 BKN045SC OVC100AC;EQDQ01+000000PRSWM2
0215477160999992000012501004+36030+140200FM-15+0029RJAK V0200401N003110135019N0112651N1+00401-00501999999ADDGA1021+009009999GA2071+013509999GA3081+030009999GF108991999999999999999999MA1101691999999MW1001REMMET089RJAK 0100Z 04006KT 9999 FEW030 BKN045 OVC100 04/M05 Q1017 RMK 1SC030 5SC045 8AC100 A3003;EQDQ01+000000PRSWM2
0215477160999992000012502004+36030+140200FM-15+0029RJAK V0200101N001510135019N0112651N1+00401-00501999999ADDGA1021+009009999GA2071+013509999GA3081+030009999GF108991999999999999999999MA1101591999999MW1001REMMET089RJAK 0200Z 01003KT 9999 FEW030 BKN045 OVC100 04/M05 Q1016 RMK 1SC030 5SC045 8AC100 A3002;EQDQ01+000000PRSWM2
0266477160999992000012502104+36030+140200FM-16+0029RJAK V0200501N001010135019N0112651N1+00401-00301999999ADDGA1021+009009999GA2071+013509999GA3081+030009999GF108991999999999999999999MA1101591999999MW1711REMMET124RJAK 250210Z 05002KT 9999 -SN FEW030 BKN045 OVC100 04/M03 Q1016 RMK 1SC030 5SC045 8AC100 A3000 FCST AMD 0209 BECMG 0608 NSW;EQDQ01+000003PRSWM1Q02    003PRSWM1
0269477160999992000012503004+36030+140200FM-15+0029RJAK V0202301N002110135019N0112651N1+00401-00201999999ADDGA1021+009009999GA2071+013509999GA3081+030009999GF108991999999999999999999MA1101491999999MW1001REMMET143RJAK 0300Z 23004KT 9999 FEW030 BKN045 OVC100 04/M02 Q1015 RMK 1SC030 5SC045 8AC100 A2998 FCST 0312 TEMPO 0306 -SN BECMG 0608 SCT045SC BKN100AC;EQDQ01+000000PRSWM2
0215477160999992000012504004+36030+140200FM-15+0029RJAK V0200901N002610135019N0112651N1+00401-00401999999ADDGA1021+009009999GA2071+013509999GA3081+030009999GF108991999999999999999999MA1101391999999MW1001REMMET089RJAK 0400Z 09005KT 9999 FEW030 BKN045 OVC100 04/M04 Q1014 RMK 1CU030 5SC045 8AC100 A2996;EQDQ01+000000PRSWM2
0215477160999992000012505004+36030+140200FM-15+0029RJAK V0201601N002110135019N0112651N1+00401-00301999999ADDGA1021+009009999GA2071+013509999GA3081+030009999GF108991999999999999999999MA1101391999999MW1001REMMET089RJAK 0500Z 16004KT 9999 FEW030 BKN045 OVC100 04/M03 Q1014 RMK 1SC030 5SC045 8AC100 A2996;EQDQ01+000000PRSWM2
0254477160999992000012506004+36030+140200FM-15+0029RJAK V0201401N001510135019N0112651N1+00401-00401999999ADDGA1021+009009999GA2071+013509999GA3071+030009999GF107991999999999999999999MA1101391999999MW1001REMMET128RJAK 0600Z 14003KT 9999 FEW030 BKN045 BKN100 04/M04 Q1014 RMK 1SC030 5SC045 7AC100 A2997 FCST 0615 BECMG 1012 SCT045SC BKN100AC;EQDQ01+000000PRSWM2
0215477160999992000012507004+36030+140200FM-15+0029RJAK V0201701N002110135019N0112651N1+00401-00201999999ADDGA1021+009009999GA2071+013509999GA3071+030009999GF107991999999999999999999MA1101491999999MW1001REMMET089RJAK 0700Z 17004KT 9999 FEW030 BKN045 BKN100 04/M02 Q1015 RMK 1SC030 5SC045 7AC100 A2997;EQDQ01+000000PRSWM2
0231477160999992000012508004+36030+140200FM-15+0029RJAK V0201701N001510135019N0112651N1+00301-00201999999ADDGA1021+009009999GA2071+013509999GA3071+030009999GF107991999999999999999999MA1101491999999MW1001REMMET105RJAK 0800Z 17003KT 9999 FEW030 BKN045 BKN100 03/M02 Q1015 RMK 1SC030 5SC045 6AC100 A2999 FCST 0817 NOSIG;EQDQ01+000000PRSWM2
0156477160999992000012522004+36030+140200FM-15+0029RJAK V0203101N002112200019N0112651N1+00001-01001999999ADDGA1021+012009999GF102991999999999999999999MA1101691999999MW1001REMMET062RJAK 2200Z 31004KT 9999 FEW040 M00/M10 Q1017 RMK 1SC040 A3005;EQDQ01+000000PRSWM2
0172477160999992000012523004+36030+140200FM-15+0029RJAK V0202701N001512200019N0112651N1+00001-01001999999ADDGA1021+024009999GF102991999999999999999999MA1101801999999MW1001REMMET078RJAK 2300Z 27003KT 9999 FEW080 M00/M10 Q1018 RMK 1AC080 A3006 FCST 2308 NOSIG;EQDQ01+000000PRSWM2
0179477160999992000012600004+36030+140200FM-15+0029RJAK V0203101N003112200019N0112651N1+00201-01001999999ADDGA1021+012009999GF102991999999999999999999MA1101801999999MW1001REMMET085RJAK 0000Z 31006KT 260V020 9999 FEW040 02/M10 Q1018 RMK 1SC040 A3007 FCST 0009 NOSIG;EQDQ01+000000PRSWM2
0168477160999992000012600334+36030+140200FM-16+0029RJAK V0203101N004112200019N0112651N1+00401-01201999999ADDGA1021+010509999GF102991999999999999999999MA1101801999999MW1001OC100981REMMET066RJAK 260033Z 31008G19KT 9999 FEW035 04/M12 Q1018 RMK 1CU035 A3007;EQDQ01+000000PRSWM2
0163477160999992000012601004+36030+140200FM-15+0029RJAK V0203101N004112200019N0112651N1+00401-01101999999ADDGA1021+009009999GF102991999999999999999999MA1101801999999MW1001REMMET069RJAK 0100Z 31008KT 240V330 9999 FEW030 04/M11 Q1018 RMK 1CU030 A3007;EQDQ01+000000PRSWM2
0176477160999992000012601054+36030+140200FM-16+0029RJAK V0203101N004112200019N0112651N1+00401-01101999999ADDGA1021+009009999GF102991999999999999999999MA1101801999999MW1001OC101031REMMET074RJAK 260105Z 31008G20KT 240V330 9999 FEW030 04/M11 Q1018 RMK 1CU030 A3007;EQDQ01+000000PRSWM2
0166477160999992000012602004+36030+140200FM-15+0029RJAK V0203201N005712200019N0112651N1+00501-01201999999ADDGA1021+009009999GF102991999999999999999999MA1101691999999MW1001OC101081REMMET064RJAK 0200Z 32011G21KT 9999 FEW030 05/M12 Q1017 RMK 1CU030 A3005;EQDQ01+000000PRSWM2
0166477160999992000012604004+36030+140200FM-15+0029RJAK V0202901N007712200019N0112651N1+00701-01501999999ADDGA1021+009009999GF102991999999999999999999MA1101491999999MW1001OC101441REMMET064RJAK 0400Z 29015G28KT 9999 FEW030 07/M15 Q1015 RMK 1CU030 A2999;EQDQ01+000000PRSWM2
0155477160999992000012605004+36030+140200FM-15+0029RJAK V0202901N004612200019N0112651N1+00701-01401999999ADDGA1021+009009999GF102991999999999999999999MA1101491999999MW1001REMMET061RJAK 0500Z 29009KT 9999 FEW030 07/M14 Q1015 RMK 1CU030 A2998;EQDQ01+000000PRSWM2
0168477160999992000012605254+36030+140200FM-15+0029RJAK V0203201N004112200019N0112651N1+00701-01301999999ADDGA1021+009009999GF102991999999999999999999MA1101491999999MW1001OC100931REMMET066RJAK 260525Z 32008G18KT 9999 FEW030 07/M13 Q1015 RMK 1CU030 A2998;EQDQ01+000000PRSWM2
0201477160999992000012606004+36030+140200FM-15+0029RJAK V0203001N003112200019N0112651N1+00701-01301999999ADDGA1021+009009999GA2021+075009999GF104991999999999999999999MA1101491999999MW1001REMMET091RJAK 0600Z 30006KT 9999 FEW030 SCT250 07/M13 Q1015 RMK 1CU030 3CI250 A2997 FCST 0615 NOSIG;EQDQ01+000000PRSWM2
0155477160999992000012607004+36030+140200FM-15+0029RJAK V0203201N004112200019N0112651N1+00601-01301999999ADDGA1021+009009999GF102991999999999999999999MA1101491999999MW1001REMMET061RJAK 0700Z 32008KT 9999 FEW030 06/M13 Q1015 RMK 1CU030 A2998;EQDQ01+000000PRSWM2
0168477160999992000012607204+36030+140200FM-15+0029RJAK V0203201N005112200019N0112651N1+00601-01501999999ADDGA1021+009009999GF102991999999999999999999MA1101491999999MW1001OC101131REMMET066RJAK 260720Z 32010G22KT 9999 FEW030 06/M15 Q1015 RMK 1CU030 A2999;EQDQ01+000000PRSWM2
0171477160999992000012608004+36030+140200FM-15+0029RJAK V0203201N003612200019N0112651N1+00501-01501999999ADDGA1021+009009999GF102991999999999999999999MA1101591999999MW1001REMMET077RJAK 0800Z 32007KT 9999 FEW030 05/M15 Q1016 RMK 1CU030 A3000 FCST 0817 NOSIG;EQDQ01+000000PRSWM2
0186477160999992000012622004+36030+140200FM-15+0029RJAK V0203101N001012200019N0112651N1-00301-00801999999ADDGA1021+007509999GA2021+030009999GF104991999999999999999999MA1101901999999MW1001REMMET076RJAK 2200Z 31002KT 9999 FEW025 SCT100 M03/M08 Q1019 RMK 1CU025 3AC100 A3011;EQDQ01+000000PRSWM2
0202477160999992000012623004+36030+140200FM-15+0029RJAK V0203101N001512200019N0112651N1-00301-00801999999ADDGA1021+007509999GA2021+069009999GF104991999999999999999999MA1102001999999MW1001REMMET092RJAK 2300Z 31003KT 9999 FEW025 SCT230 M03/M08 Q1020 RMK 1CU025 3CI230 A3012 FCST 2308 NOSIG;EQDQ01+000000PRSWM2
0202477160999992000012700004+36030+140200FM-15+0029RJAK V0203301N001012200019N0112651N1-00101-00701999999ADDGA1021+007509999GA2021+030009999GF104991999999999999999999MA1102001999999MW1001REMMET092RJAK 0000Z 33002KT 9999 FEW025 SCT100 M01/M07 Q1020 RMK 1CU025 3AC100 A3013 FCST 0009 NOSIG;EQDQ01+000000PRSWM2
0215477160999992000012701004+36030+140200FM-15+0029RJAK V0200301N002110690019N0112651N1+00201-00801999999ADDGA1021+007509999GA2021+030009999GA3071+069009999GF107991999999999999999999MA1102001999999MW1001REMMET089RJAK 0100Z 03004KT 9999 FEW025 SCT100 BKN230 02/M08 Q1020 RMK 1CU025 3AC100 5CI230 A3014;EQDQ01+000000PRSWM2
0185477160999992000012702004+36030+140200FM-15+0029RJAK V0200501N003112200019N0112651N1+00301-00901999999ADDGA1021+007509999GA2021+069009999GF104991999999999999999999MA1102001999999MW1001REMMET075RJAK 0200Z 05006KT 9999 FEW025 SCT230 03/M09 Q1020 RMK 1CU025 4CI230 A3013;EQDQ01+000000PRSWM2
0201477160999992000012703004+36030+140200FM-15+0029RJAK V0200501N001510690019N0112651N1+00401-01001999999ADDGA1021+007509999GA2071+069009999GF107991999999999999999999MA1101901999999MW1001REMMET091RJAK 0300Z 05003KT 9999 FEW025 BKN230 04/M10 Q1019 RMK 1CU025 6CI230 A3010 FCST 0312 NOSIG;EQDQ01+000000PRSWM2
0185477160999992000012704004+36030+140200FM-15+0029RJAK V0200601N002610690019N0112651N1+00401-01001999999ADDGA1021+007509999GA2071+069009999GF107991999999999999999999MA1101801999999MW1001REMMET075RJAK 0400Z 06005KT 9999 FEW025 BKN230 04/M10 Q1018 RMK 1CU025 6CI230 A3008;EQDQ01+000000PRSWM2
0215477160999992000012705004+36030+140200FM-15+0029RJAK V0200801N003110690019N0112651N1+00401-00901999999ADDGA1021+007509999GA2021+036009999GA3071+069009999GF107991999999999999999999MA1101801999999MW1001REMMET089RJAK 0500Z 08006KT 9999 FEW025 SCT120 BKN230 04/M09 Q1018 RMK 1CU025 3AC120 6CI230 A3007;EQDQ01+000000PRSWM2
0155477160999992000012707004+36030+140200FM-15+0029RJAK V0200901N005112200019N0112651N1+00401-00601999999ADDGA1021+007509999GF102991999999999999999999MA1101901999999MW1001REMMET061RJAK 0700Z 09010KT 9999 FEW025 04/M06 Q1019 RMK 1CU025 A3009;EQDQ01+000000PRSWM2
0171477160999992000012708004+36030+140200FM-15+0029RJAK V0200801N003612200019N0112651N1+00301-00601999999ADDGA1021+007509999GF102991999999999999999999MA1102001999999MW1001REMMET077RJAK 0800Z 08007KT 9999 FEW025 03/M06 Q1020 RMK 1CU025 A3012 FCST 0817 NOSIG;EQDQ01+000000PRSWM2
0156477160999992000012715004+36030+140200FM-15+0029RJAK V0200301N001512200019N0112651N1-00101-00601999999ADDGA1021+009009999GF102991999999999999999999MA1102301999999MW1001REMMET062RJAK 1500Z 03003KT 9999 FEW030 M01/M06 Q1023 RMK 1CU030 A3020;EQDQ01+000000PRSWM2
0156477160999992000012722004+36030+140200FM-15+0029RJAK V0202501N001012200019N0112651N1-00401-00801999999ADDGA1021+009009999GF102991999999999999999999MA1102401999999MW1001REMMET062RJAK 2200Z 25002KT 9999 FEW030 M04/M08 Q1024 RMK 1CU030 A3026;EQDQ01+000000PRSWM2
0172477160999992000012723004+36030+140200FM-15+0029RJAK V0202601N001512200019N0112651N1-00201-00801999999ADDGA1021+009009999GF102991999999999999999999MA1102511999999MW1001REMMET078RJAK 2300Z 26003KT 9999 FEW030 M02/M08 Q1025 RMK 1CU030 A3027 FCST 2308 NOSIG;EQDQ01+000000PRSWM2
0145477160999992000012800004+36030+140200FM-15+0029RJAK V0202901N002112200019N0112651N1+00101-00701999999ADDGF100991999999999999999999MA1102511999999MW1001REMMET067RJAK 0000Z 29004KT 9999 SKC 01/M07 Q1025 RMK A3029 FCST 0009 NOSIG;EQDQ01+000000PRSWM2
0129477160999992000012801004+36030+140200FM-15+0029RJAK V0203301N001012200019N0112651N1+00301-00701999999ADDGF100991999999999999999999MA1102611999999MW1001REMMET051RJAK 0100Z 33002KT 9999 SKC 03/M07 Q1026 RMK A3030;EQDQ01+000000PRSWM2
0129477160999992000012802004+36030+140200FM-15+0029RJAK V0203101N002112200019N0112651N1+00401-00701999999ADDGF100991999999999999999999MA1102611999999MW1001REMMET051RJAK 0200Z 31004KT 9999 SKC 04/M07 Q1026 RMK A3029;EQDQ01+000000PRSWM2
0145477160999992000012803004+36030+140200FM-15+0029RJAK V0202901N001512200019N0112651N1+00501-00801999999ADDGF100991999999999999999999MA1102511999999MW1001REMMET067RJAK 0300Z 29003KT 9999 SKC 05/M08 Q1025 RMK A3027 FCST 0312 NOSIG;EQDQ01+000000PRSWM2
0129477160999992000012804004+36030+140200FM-15+0029RJAK V0203001N001512200019N0112651N1+00701-00901999999ADDGF100991999999999999999999MA1102401999999MW1001REMMET051RJAK 0400Z 30003KT 9999 SKC 07/M09 Q1024 RMK A3024;EQDQ01+000000PRSWM2
0129477160999992000012805004+36030+140200FM-15+0029RJAK V0203101N001512200019N0112651N1+00701-01001999999ADDGF100991999999999999999999MA1102401999999MW1001REMMET051RJAK 0500Z 31003KT 9999 SKC 07/M10 Q1024 RMK A3024;EQDQ01+000000PRSWM2
0145477160999992000012806004+36030+140200FM-15+0029RJAK V0202801N002112200019N0112651N1+00801-00901999999ADDGF100991999999999999999999MA1102401999999MW1001REMMET067RJAK 0600Z 28004KT 9999 SKC 08/M09 Q1024 RMK A3026 FCST 0615 NOSIG;EQDQ01+000000PRSWM2
0129477160999992000012807004+36030+140200FM-15+0029RJAK V0202901N002112200019N0112651N1+00801-01001999999ADDGF100991999999999999999999MA1102511999999MW1001REMMET051RJAK 0700Z 29004KT 9999 SKC 08/M10 Q1025 RMK A3027;EQDQ01+000000PRSWM2
0145477160999992000012808004+36030+140200FM-15+0029RJAK V0203001N001512200019N0112651N1+00701-01001999999ADDGF100991999999999999999999MA1102611999999MW1001REMMET067RJAK 0800Z 30003KT 9999 SKC 07/M10 Q1026 RMK A3029 FCST 0817 NOSIG;EQDQ01+000000PRSWM2
0156477160999992000013022004+36030+140200FM-15+0029RJAK V0201101N001512200019N0112651N1+00001-00401999999ADDGA1021+015009999GF102991999999999999999999MA1101801999999MW1001REMMET062RJAK 2200Z 11003KT 9999 FEW050 M00/M04 Q1018 RMK 1SC050 A3006;EQDQ01+000000PRSWM2
0187477160999992000013023004+36030+140200FM-15+0029RJAK V0202301N001512200019N0112651N1+00101-00301999999ADDGA1021+012009999GF102991999999999999999999MA1101801999999MW1001REMMET093RJAK 2300Z 23003KT 9999 FEW040 01/M03 Q1018 RMK 1SC040 A3007 FCST 2308 TEMPO 0307 33012G22KT;EQDQ01+000000PRSWM2
0187477160999992000013100004+36030+140200FM-15+0029RJAK V0200201N002112200019N0112651N1+00601-00501999999ADDGA1021+012009999GF102991999999999999999999MA1101901999999MW1001REMMET093RJAK 0000Z 02004KT 9999 FEW040 06/M05 Q1019 RMK 1SC040 A3009 FCST 0009 TEMPO 0307 33012G22KT;EQDQ01+000000PRSWM2
0155477160999992000013101004+36030+140200FM-15+0029RJAK V0203501N001512200019N0112651N1+00701-00501999999ADDGA1021+007509999GF102991999999999999999999MA1101901999999MW1001REMMET061RJAK 0100Z 35003KT 9999 FEW025 07/M05 Q1019 RMK 1CU025 A3009;EQDQ01+000000PRSWM2
0155477160999992000013102004+36030+140200FM-15+0029RJAK V0203501N002612200019N0112651N1+00801-00601999999ADDGA1021+009009999GF102991999999999999999999MA1101801999999MW1001REMMET061RJAK 0200Z 35005KT 9999 FEW030 08/M06 Q1018 RMK 1CU030 A3008;EQDQ01+000000PRSWM2
0168477160999992000013102224+36030+140200FM-16+0029RJAK V0203001N004112200019N0112651N1+00801-00701999999ADDGA1021+009009999GF102991999999999999999999MA1101801999999MW1001OC100981REMMET066RJAK 310222Z 30008G19KT 9999 FEW030 08/M07 Q1018 RMK 1CU030 A3007;EQDQ01+000000PRSWM2
0195477160999992000013103004+36030+140200FM-15+0029RJAK V0203001N004612200019N0112651N1+00901-00701999999ADDGA1021+009009999GF102991999999999999999999MA1101691999999MW1001OC100981REMMET093RJAK 0300Z 30009G19KT 9999 FEW030 09/M07 Q1017 RMK 1CU030 A3005 FCST 0312 BECMG 0709 30008KT;EQDQ01+000000PRSWM2
0166477160999992000013104004+36030+140200FM-15+0029RJAK V0203101N005112200019N0112651N1+01001-00701999999ADDGA1021+009009999GF102991999999999999999999MA1101691999999MW1001OC101031REMMET064RJAK 0400Z 31010G20KT 9999 FEW030 10/M07 Q1017 RMK 2CU030 A3004;EQDQ01+000000PRSWM2
0166477160999992000013105004+36030+140200FM-15+0029RJAK V0203301N005712200019N0112651N1+00901-00801999999ADDGA1021+009009999GF102991999999999999999999MA1101691999999MW1001OC101081REMMET064RJAK 0500Z 33011G21KT 9999 FEW030 09/M08 Q1017 RMK 1CU030 A3005;EQDQ01+000000PRSWM2
0217477160999992000013106004+36030+140200FM-15+0029RJAK V0203301N003612200019N0112651N1+00801-00901999999ADDGA1021+009009999GA2021+015009999GF104991999999999999999999MA1101801999999MW1001REMMET107RJAK 0600Z 33007KT 9999 FEW030 SCT050 08/M09 Q1018 RMK 1CU030 3SC050 A3006 FCST 0615 TEMPO 0608 33010G20KT;EQDQ01+000000PRSWM2
0198477160999992000013106294+36030+140200FM-16+0029RJAK V0203201N005110150019N0112651N1+00801-01101999999ADDGA1021+009009999GA2071+015009999GF107991999999999999999999MA1101801999999MW1001OC101181REMMET080RJAK 310629Z 32010G23KT 9999 FEW030 BKN050 08/M11 Q1018 RMK 1CU030 5SC050 A3008;EQDQ01+000000PRSWM2
0185477160999992000013107004+36030+140200FM-15+0029RJAK V0203301N004610150019N0112651N1+00801-01101999999ADDGA1021+009009999GA2071+015009999GF107991999999999999999999MA1101901999999MW1001REMMET075RJAK 0700Z 33009KT 9999 FEW030 BKN050 08/M11 Q1019 RMK 1CU030 5SC050 A3010;EQDQ01+000000PRSWM2
0198477160999992000013107024+36030+140200FM-16+0029RJAK V0203301N005110150019N0112651N1+00801-01101999999ADDGA1021+009009999GA2071+015009999GF107991999999999999999999MA1101901999999MW1001OC101031REMMET080RJAK 310702Z 33010G20KT 9999 FEW030 BKN050 08/M11 Q1019 RMK 1CU030 5SC050 A3010;EQDQ01+000000PRSWM2
0225477160999992000013108004+36030+140200FM-15+0029RJAK V0203201N006212200019N0112651N1+00601-01201999999ADDGA1021+009009999GA2021+015009999GF104991999999999999999999MA1102001999999MW1001OC101291REMMET107RJAK 0800Z 32012G25KT 9999 FEW030 SCT050 06/M12 Q1020 RMK 1CU030 4SC050 A3013 FCST 0817 BECMG 0810 33008KT;EQDQ01+000000PRSWM2
0156477160999992000013122004+36030+140200FM-15+0029RJAK V0203101N001512200019N0112651N1-00101-00901999999ADDGA1021+015009999GF102991999999999999999999MA1102401999999MW1001REMMET062RJAK 2200Z 31003KT 9999 FEW050 M01/M09 Q1024 RMK 1SC050 A3025;EQDQ01+000000PRSWM2
0171477160999992000013123004+36030+140200FM-15+0029RJAK V0202901N001512200019N0112651N1+00101-00901999999ADDGA1021+009009999GF102991999999999999999999MA1102401999999MW1001REMMET077RJAK 2300Z 29003KT 9999 FEW030 01/M09 Q1024 RMK 1CU030 A3026 FCST 2308 NOSIG;EQDQ01+000000PRSWM2
0171477160999992000020100004+36030+140200FM-15+0029RJAK V0203001N002612200019N0112651N1+00301-00901999999ADDGA1021+009009999GF102991999999999999999999MA1102401999999MW1001REMMET077RJAK 0000Z 30005KT 9999 FEW030 03/M09 Q1024 RMK 1CU030 A3026 FCST 0009 NOSIG;EQDQ01+000000PRSWM2
0163477160999992000020101004+36030+140200FM-15+0029RJAK V0202901N004612200019N0112651N1+00401-00901999999ADDGA1021+015009999GF102991999999999999999999MA1102401999999MW1001REMMET069RJAK 0100Z 29009KT 240V360 9999 FEW050 04/M09 Q1024 RMK 1SC050 A3025;EQDQ01+000000PRSWM2
0168477160999992000020101374+36030+140200FM-16+0029RJAK V0203201N004612200019N0112651N1+00501-00801999999ADDGA1021+015009999GF102991999999999999999999MA1102301999999MW1001OC101031REMMET066RJAK 010137Z 32009G20KT 9999 FEW050 05/M08 Q1023 RMK 1SC050 A3022;EQDQ01+000000PRSWM2
0155477160999992000020102004+36030+140200FM-15+0029RJAK V0203201N004612200019N0112651N1+00501-00801999999ADDGA1021+015009999GF102991999999999999999999MA1102301999999MW1001REMMET061RJAK 0200Z 32009KT 9999 FEW050 05/M08 Q1023 RMK 1SC050 A3022;EQDQ01+000000PRSWM2
0171477160999992000020103004+36030+140200FM-15+0029RJAK V0203301N003612200019N0112651N1+00601-00801999999ADDGA1021+015009999GF102991999999999999999999MA1102201999999MW1001REMMET077RJAK 0300Z 33007KT 9999 FEW050 06/M08 Q1022 RMK 1SC050 A3019 FCST 0312 NOSIG;EQDQ01+000000PRSWM2
0155477160999992000020104004+36030+140200FM-15+0029RJAK V0203101N003112200019N0112651N1+00701-01001999999ADDGA1021+015009999GF102991999999999999999999MA1102101999999MW1001REMMET061RJAK 0400Z 31006KT 9999 FEW050 07/M10 Q1021 RMK 1SC050 A3015;EQDQ01+000000PRSWM2
0155477160999992000020105004+36030+140200FM-15+0029RJAK V0203201N002112200019N0112651N1+00901-00901999999ADDGA1021+036009999GF102991999999999999999999MA1102101999999MW1001REMMET061RJAK 0500Z 32004KT 9999 FEW120 09/M09 Q1021 RMK 1AC120 A3015;EQDQ01+000000PRSWM2
0171477160999992000020106004+36030+140200FM-15+0029RJAK V02099999999992200019N0112651N1+00901-00801999999ADDGA1021+036009999GF102991999999999999999999MA1102101999999MW1001REMMET077RJAK 0600Z VRB02KT 9999 FEW120 09/M08 Q1021 RMK 1AC120 A3015 FCST 0615 NOSIG;EQDQ01+000000PRSWM2
0155477160999992000020107004+36030+140200FM-15+0029RJAK V0203301N002112200019N0112651N1+00801-00901999999ADDGA1021+063009999GF102991999999999999999999MA1102001999999MW1001REMMET061RJAK 0700Z 33004KT 9999 FEW210 08/M09 Q1020 RMK 1CI210 A3014;EQDQ01+000000PRSWM2
0171477160999992000020108004+36030+140200FM-15+0029RJAK V0203601N001512200019N0112651N1+00701-00901999999ADDGA1021+036009999GF102991999999999999999999MA1102101999999MW1001REMMET077RJAK 0800Z 36003KT 9999 FEW120 07/M09 Q1021 RMK 1AC120 A3015 FCST 0817 NOSIG;EQDQ01+000000PRSWM2
0215477160999992000020122004+36030+140200FM-15+0029RJAK V0202901N002610120019N0112651N1+00101-00601999999ADDGA1071+012009999GA2021+015009999GA3071+030009999GF107991999999999999999999MA1102001999999MW1001REMMET089RJAK 2200Z 29005KT 9999 BKN040 SCT050 BKN100 01/M06 Q1020 RMK 5SC040 4SC050 6AC100 A3013;EQDQ01+000000PRSWM2
0254477160999992000020123004+36030+140200FM-15+0029RJAK V0203101N002610690019N0112651N1+00201-00701999999ADDGA1021+012009999GA2021+015009999GA3071+069009999GF107991999999999999999999MA1102001999999MW1001REMMET128RJAK 2300Z 31005KT 9999 SCT040 SCT050 BKN230 02/M07 Q1020 RMK 3SC040 3SC050 6CI230 A3013 FCST 2308 TEMPO 2301 SCT030CU BKN040CU;EQDQ01+000000PRSWM2
0201477160999992000020200004+36030+140200FM-15+0029RJAK V0202901N002610690019N0112651N1+00401-00601999999ADDGA1021+015009999GA2071+069009999GF107991999999999999999999MA1102101999999MW1001REMMET091RJAK 0000Z 29005KT 9999 FEW050 BKN230 04/M06 Q1021 RMK 1SC050 6CI230 A3015 FCST 0009 NOSIG;EQDQ01+000000PRSWM2
0185477160999992000020201004+36030+140200FM-15+0029RJAK V0202701N003610690019N0112651N1+00601-00601999999ADDGA1021+015009999GA2071+069009999GF107991999999999999999999MA1102101999999MW1001REMMET075RJAK 0100Z 27007KT 9999 FEW050 BKN230 06/M06 Q1021 RMK 1SC050 6CI230 A3015;EQDQ01+000000PRSWM2
0185477160999992000020202004+36030+140200FM-15+0029RJAK V0202901N003610690019N0112651N1+00801-00501999999ADDGA1021+030009999GA2071+069009999GF107991999999999999999999MA1102001999999MW1001REMMET075RJAK 0200Z 29007KT 9999 FEW100 BKN230 08/M05 Q1020 RMK 1AC100 5CI230 A3014;EQDQ01+000000PRSWM2
0171477160999992000020203004+36030+140200FM-15+0029RJAK V0202901N004112200019N0112651N1+00801-00601999999ADDGA1021+007509999GF102991999999999999999999MA1101901999999MW1001REMMET077RJAK 0300Z 29008KT 9999 FEW025 08/M06 Q1019 RMK 1CU025 A3011 FCST 0312 NOSIG;EQDQ01+000000PRSWM2
0155477160999992000020204004+36030+140200FM-15+0029RJAK V0203201N004112200019N0112651N1+01001-00601999999ADDGA1021+007509999GF102991999999999999999999MA1101901999999MW1001REMMET061RJAK 0400Z 32008KT 9999 FEW025 10/M06 Q1019 RMK 1CU025 A3009;EQDQ01+000000PRSWM2
0155477160999992000020205004+36030+140200FM-15+0029RJAK V0203201N002612200019N0112651N1+01101-00801999999ADDGA1021+007509999GF102991999999999999999999MA1101901999999MW1001REMMET061RJAK 0500Z 32005KT 9999 FEW025 11/M08 Q1019 RMK 1CU025 A3009;EQDQ01+000000PRSWM2
0171477160999992000020206004+36030+140200FM-15+0029RJAK V0200201N003112200019N0112651N1+01001-00901999999ADDGA1021+007509999GF102991999999999999999999MA1101901999999MW1001REMMET077RJAK 0600Z 02006KT 9999 FEW025 10/M09 Q1019 RMK 1CU025 A3010 FCST 0615 NOSIG;EQDQ01+000000PRSWM2
0155477160999992000020207004+36030+140200FM-15+0029RJAK V0203501N002612200019N0112651N1+01001-00901999999ADDGA1021+007509999GF102991999999999999999999MA1101901999999MW1001REMMET061RJAK 0700Z 35005KT 9999 FEW025 10/M09 Q1019 RMK 1CU025 A3010;EQDQ01+000000PRSWM2
0171477160999992000020208004+36030+140200FM-15+0029RJAK V0203601N001512200019N0112651N1+01001-00801999999ADDGA1021+007509999GF102991999999999999999999MA1101901999999MW1001REMMET077RJAK 0800Z 36003KT 9999 FEW025 10/M08 Q1019 RMK 1CU025 A3011 FCST 0817 NOSIG;EQDQ01+000000PRSWM2
0156477160999992000020222004+36030+140200FM-15+0029RJAK V0202901N001012200019N0112651N1-00101-00501999999ADDGA1021+009009999GF104991999999999999999999MA1102201999999MW1001REMMET062RJAK 2200Z 29002KT 9999 SCT030 M01/M05 Q1022 RMK 3SC030 A3019;EQDQ01+000000PRSWM2
0202477160999992000020223004+36030+140200FM-15+0029RJAK V0202801N001012200019N0112651N1+00001-00401999999ADDGA1021+006009999GA2021+009009999GF104991999999999999999999MA1102201999999MW1001REMMET092RJAK 2300Z 28002KT 9999 FEW020 SCT030 M00/M04 Q1022 RMK 2CU020 4SC030 A3020 FCST 2308 NOSIG;EQDQ01+000000PRSWM2
0254477160999992000020300004+36030+140200FM-15+0029RJAK V0203201N001010150019N0112651N1+00201-00201999999ADDGA1021+007509999GA2021+009009999GA3071+015009999GF107991999999999999999999MA1102201999999MW1001REMMET128RJAK 0000Z 32002KT 9999 SCT025 SCT030 BKN050 02/M02 Q1022 RMK 3CU025 3SC030 5SC050 A3019 FCST 0009 BECMG 0001 SCT030SC FEW080AC;EQDQ01+000000PRSWM2
0185477160999992000020301004+36030+140200FM-15+0029RJAK V0202801N002110150019N0112651N1+00501-00201999999ADDGA1021+007509999GA2071+015009999GF107991999999999999999999MA1102201999999MW1001REMMET075RJAK 0100Z 28004KT 9999 FEW025 BKN050 05/M02 Q1022 RMK 1CU025 5SC050 A3019;EQDQ01+000000PRSWM2
0155477160999992000020302004+36030+140200FM-15+0029RJAK V0203401N001510135019N0112651N1+00701-00101999999ADDGA1071+013509999GF107991999999999999999999MA1102101999999MW1001REMMET061RJAK 0200Z 34003KT 9999 BKN045 07/M01 Q1021 RMK 5SC045 A3017;EQDQ01+000000PRSWM2
0223477160999992000020303004+36030+140200FM-15+0029RJAK V0203601N000512200019N0112651N1+00801+00001999999ADDGA1021+009009999GA2021+013509999GF104991999999999999999999MA1102001999999MW1001REMMET113RJAK 0300Z 36001KT 9999 FEW030 SCT045 08/00 Q1020 RMK 2CU030 4SC045 A3014 FCST 0312 BECMG 0709 BKN045SC SCT100AC;EQDQ01+000000PRSWM2
0185477160999992000020304004+36030+140200FM-15+0029RJAK V0200301N001512200019N0112651N1+00901-00101999999ADDGA1021+009009999GA2021+013509999GF104991999999999999999999MA1101901999999MW1001REMMET075RJAK 0400Z 03003KT 9999 FEW030 SCT045 09/M01 Q1019 RMK 2CU030 4SC045 A3010;EQDQ01+000000PRSWM2
0185477160999992000020305004+36030+140200FM-15+0029RJAK V0200501N001512200019N0112651N1+01101-00201999999ADDGA1021+009009999GA2021+013509999GF104991999999999999999999MA1101801999999MW1001REMMET075RJAK 0500Z 05003KT 9999 FEW030 SCT045 11/M02 Q1018 RMK 1CU030 3SC045 A3008;EQDQ01+000000PRSWM2
0224477160999992000020306004+36030+140200FM-15+0029RJAK V0201301N002112200019N0112651N1+01001-00201999999ADDGA1021+009009999GA2021+013509999GF104991999999999999999999MA1101801999999MW1001REMMET114RJAK 0600Z 13004KT 9999 FEW030 SCT045 10/M02 Q1018 RMK 1CU030 3SC045 A3007 FCST 0615 BECMG 0911 FEW030CU BKN045SC;EQDQ01+000000PRSWM2
0154477160999992000020307004+36030+140200FM-15+0029RJAK V0201301N003112200019N0112651N1+01001+00001999999ADDGA1021+009009999GF102991999999999999999999MA1101691999999MW1001REMMET060RJAK 0700Z 13006KT 9999 FEW030 10/00 Q1017 RMK 1CU030 A3005;EQDQ01+000000PRSWM2
0200477160999992000020308004+36030+140200FM-15+0029RJAK V0201201N003112200019N0112651N1+00901+00001999999ADDGA1021+009009999GA2021+036009999GF104991999999999999999999MA1101691999999MW1001REMMET090RJAK 0800Z 12006KT 9999 FEW030 SCT120 09/00 Q1017 RMK 1SC030 3AC120 A3005 FCST 0817 NOSIG;EQDQ01+000000PRSWM2
0185477160999992000020322004+36030+140200FM-15+0029RJAK V0203501N001512200019N0112651N1+00401-00101999999ADDGA1021+007509999GA2021+012009999GF104991999999999999999999MA1101491999999MW1001REMMET075RJAK 2200Z 35003KT 9999 FEW025 SCT040 04/M01 Q1015 RMK 1CU025 3SC040 A2998;EQDQ01+000000PRSWM2
0201477160999992000020323004+36030+140200FM-15+0029RJAK V0202901N001512200019N0112651N1+00201-00101999999ADDGA1021+007509999GA2021+012009999GF104991999999999999999999MA1101591999999MW1001REMMET091RJAK 2300Z 29003KT 9999 FEW025 SCT040 02/M01 Q1016 RMK 1CU025 3SC040 A3000 FCST 2308 NOSIG;EQDQ01+000000PRSWM2
0171477160999992000020400004+36030+140200FM-15+0029RJAK V0203001N001512200019N0112651N1+00601+00001999999ADDGA1021+009009999GF102991999999999999999999MA1101591999999MW1001REMMET077RJAK 0000Z 30003KT 9999 FEW030 06/M00 Q1016 RMK 1CU030 A3002 FCST 0009 NOSIG;EQDQ01+000000PRSWM2
0184477160999992000020401004+36030+140200FM-15+0029RJAK V0203301N002112200019N0112651N1+00701+00001999999ADDGA1021+007509999GA2021+009009999GF104991999999999999999999MA1101691999999MW1001REMMET074RJAK 0100Z 33004KT 9999 FEW025 SCT030 07/00 Q1017 RMK 1CU025 4CU030 A3004;EQDQ01+000000PRSWM2
0184477160999992000020402004+36030+140200FM-15+0029RJAK V0203001N001512200019N0112651N1+00801+00001999999ADDGA1021+007509999GA2021+009009999GF104991999999999999999999MA1101691999999MW1001REMMET074RJAK 0200Z 30003KT 9999 FEW025 SCT030 08/00 Q1017 RMK 1CU025 3CU030 A3004;EQDQ01+000000PRSWM2
0198477160999992000020402264+36030+140200FM-16+0029RJAK V0203101N002610090019N0112651N1+00901-00101999999ADDGA1021+007509999GA2071+009009999GF107991999999999999999999MA1101691999999MW1001OC100931REMMET080RJAK 040226Z 31005G18KT 9999 FEW025 BKN030 09/M01 Q1017 RMK 2CU025 5CU030 A3004;EQDQ01+000000PRSWM2
0224477160999992000020403004+36030+140200FM-15+0029RJAK V0202901N004110105019N0112651N1+00901-00101999999ADDGA1021+007509999GA2071+010509999GF107991999999999999999999MA1101691999999MW1001REMMET114RJAK 0300Z 29008KT 9999 SCT025 BKN035 09/M01 Q1017 RMK 4CU025 6CU035 A3003 FCST 0312 TEMPO 0306 BKN025CU BKN035CU;EQDQ01+000000PRSWM2
0154477160999992000020404004+36030+140200FM-15+0029RJAK V0203501N003612200019N0112651N1+01001+00001999999ADDGA1021+009009999GF102991999999999999999999MA1101691999999MW1001REMMET060RJAK 0400Z 35007KT 9999 FEW030 10/00 Q1017 RMK 1CU030 A3004;EQDQ01+000000PRSWM2
0155477160999992000020405004+36030+140200FM-15+0029RJAK V0203501N003612200019N0112651N1+01001-00401999999ADDGA1021+009009999GF102991999999999999999999MA1101691999999MW1001REMMET061RJAK 0500Z 35007KT 9999 FEW030 10/M04 Q1017 RMK 1CU030 A3003;EQDQ01+000000PRSWM2
0201477160999992000020406004+36030+140200FM-15+0029RJAK V0203001N004112200019N0112651N1+01001-00401999999ADDGA1021+009009999GA2021+010509999GF104991999999999999999999MA1101691999999MW1001REMMET091RJAK 0600Z 30008KT 9999 FEW030 SCT035 10/M04 Q1017 RMK 1CU030 3CU035 A3005 FCST 0615 NOSIG;EQDQ01+000000PRSWM2
0179477160999992000020406504+36030+140200FM-15+0029RJAK V0203601N005112200019N0112651N1+01001-00401999999ADDGA1021+009009999GF104991999999999999999999MA1101801999999MW1801REMMET069RJAK 040650Z 36010KT 9999 -SHRA SCT030 10/M04 Q1018 RMK 4CU030 A3007;EQDQ01+000003PRSWM1Q02    003PRSWM1
0177477160999992000020407004+36030+140200FM-15+0029RJAK V0200101N003610090019N0112651N1+01001-00401999999ADDGA1071+009009999GF107991999999999999999999MA1101801999999MW1801REMMET067RJAK 0700Z 01007KT 9999 -SHRA BKN030 10/M04 Q1018 RMK 5CU030 A3007;EQDQ01+000003PRSWM1Q02    003PRSWM1
0157477160999992000020407304+36030+140200FM-15+0029RJAK V0200501N001512200019N0112651N1+00801-00201999999ADDGA1021+004509999GF102991999999999999999999MA1101901999999MW1001REMMET063RJAK 040730Z 05003KT 9999 FEW015 08/M02 Q1019 RMK 1CU015 A3009;EQDQ01+000000PRSWM2
0171477160999992000020408004+36030+140200FM-15+0029RJAK V0200501N001512200019N0112651N1+00801-00301999999ADDGA1021+004509999GF102991999999999999999999MA1101901999999MW1001REMMET077RJAK 0800Z 05003KT 9999 FEW015 08/M03 Q1019 RMK 1CU015 A3010 FCST 0817 NOSIG;EQDQ01+000000PRSWM2
0147477160999992000020622004+36030+140200FM-15+0029RJAK V0202301N000512200019N0030001N1+00101+00001999999ADDGF100991999999999999999999MA1100411999999MW1101REMMET053RJAK 2200Z 23001KT 3000 BR SKC 01/00 Q1004 RMK A2965;EQDQ01+000003PRSWM1Q02    003PRSWM1
0192477160999992000020623004+36030+140200FM-15+0029RJAK V0202601N001012200019N0050001N1+00301+00201999999ADDGF100991999999999999999999MA1100411999999MW1101REMMET098RJAK 2300Z 26002KT 5000 BR SKC 03/02 Q1004 RMK A2967 FCST 2308 BECMG 2300 NSW TEMPO 0508 BKN025CU;EQDQ01+000003PRSWM1Q02    003PRSWM1
0158477160999992000020700004+36030+140200FM-15+0029RJAK V0202601N001512200019N0070001N1+00701+00201999999ADDGF100991999999999999999999MA1100511999999MW1001REMMET080RJAK 0000Z 26003KT 7000 SKC 07/02 Q1005 RMK A2968 FCST 0009 TEMPO 0508 BKN025CU;EQDQ01+000000PRSWM2
0155477160999992000020701004+36030+140200FM-15+0029RJAK V0202801N004612200019N0112651N1+01101-00401999999ADDGA1021+009009999GF102991999999999999999999MA1100511999999MW1001REMMET061RJAK 0100Z 28009KT 9999 FEW030 11/M04 Q1005 RMK 1CU030 A2968;EQDQ01+000000PRSWM2
0168477160999992000020701024+36030+140200FM-16+0029RJAK V0203001N004612200019N0112651N1+01101-00401999999ADDGA1021+009009999GF102991999999999999999999MA1100511999999MW1001OC100981REMMET066RJAK 070102Z 30009G19KT 9999 FEW030 11/M04 Q1005 RMK 1CU030 A2968;EQDQ01+000000PRSWM2
0166477160999992000020702004+36030+140200FM-15+0029RJAK V0202801N006212200019N0112651N1+01201-00601999999ADDGA1021+009009999GF102991999999999999999999MA1100511999999MW1001OC101341REMMET064RJAK 0200Z 28012G26KT 9999 FEW030 12/M06 Q1005 RMK 1CU030 A2968;EQDQ01+000000PRSWM2
0195477160999992000020703004+36030+140200FM-15+0029RJAK V0202801N007712200019N0112651N1+01201-00801999999ADDGA1021+009009999GF102991999999999999999999MA1100511999999MW1001OC101491REMMET093RJAK 0300Z 28015G29KT 9999 FEW030 12/M08 Q1005 RMK 1CU030 A2968 FCST 0312 BECMG 0709 30010KT;EQDQ01+000000PRSWM2
0166477160999992000020704004+36030+140200FM-15+0029RJAK V0203001N007212200019N0112651N1+01301-00801999999ADDGA1021+030009999GF102991999999999999999999MA1100411999999MW1001OC101291REMMET064RJAK 0400Z 30014G25KT 9999 FEW100 13/M08 Q1004 RMK 1AC100 A2965;EQDQ01+000000PRSWM2
0166477160999992000020705004+36030+140200FM-15+0029RJAK V0202801N005112200019N0112651N1+01401-00801999999ADDGA1021+009009999GF102991999999999999999999MA1100411999999MW1001OC101031REMMET064RJAK 0500Z 28010G20KT 9999 FEW030 14/M08 Q1004 RMK 1CU030 A2965;EQDQ01+000000PRSWM2
0195477160999992000020706004+36030+140200FM-15+0029RJAK V0202901N005112200019N0112651N1+01401-00901999999ADDGA1021+009009999GF102991999999999999999999MA1100411999999MW1001OC101131REMMET093RJAK 0600Z 29010G22KT 9999 FEW030 14/M09 Q1004 RMK 1CU030 A2967 FCST 0615 BECMG 0608 30010KT;EQDQ01+000000PRSWM2
0155477160999992000020707004+36030+140200FM-15+0029RJAK V0202901N004612200019N0112651N1+01301-00901999999ADDGA1021+030009999GF102991999999999999999999MA1100511999999MW1001REMMET061RJAK 0700Z 29009KT 9999 FEW100 13/M09 Q1005 RMK 1AC100 A2968;EQDQ01+000000PRSWM2
0171477160999992000020708004+36030+140200FM-15+0029RJAK V0202801N004112200019N0112651N1+01201-00801999999ADDGA1021+030009999GF102991999999999999999999MA1100511999999MW1001REMMET077RJAK 0800Z 28008KT 9999 FEW100 12/M08 Q1005 RMK 1AC100 A2969 FCST 0817 NOSIG;EQDQ01+000000PRSWM2
0185477160999992000020722004+36030+140200FM-15+0029RJAK V0202901N001512200019N0112651N1+00501-00101999999ADDGA1021+007509999GA2021+012009999GF104991999999999999999999MA1099901999999MW1001REMMET075RJAK 2200Z 29003KT 9999 SCT025 SCT040 05/M01 Q0999 RMK 3CU025 4SC040 A2952;EQDQ01+000000PRSWM2
0280477160999992000020723004+36030+140200FM-15+0029RJAK V0202901N001510300019N0112651N1+00501-00201999999ADDGA1021+007509999GA2021+012009999GA3071+030009999GF107991999999999999999999MA1099901999999MW1001REMMET154RJAK 2300Z 29003KT 9999 FEW025 SCT040 BKN100 05/M02 Q0999 RMK 1CU025 3SC040 5AC100 A2951 FCST 2308 BECMG 0002 FEW025CU BKN040SC OVC100AC TEMPO 0508 -SHRA;EQDQ01+000000PRSWM2
0280477160999992000020800004+36030+140200FM-15+0029RJAK V0202801N000510300019N0112651N1+00501-00101999999ADDGA1021+007509999GA2021+012009999GA3071+030009999GF107991999999999999999999MA1099801999999MW1001REMMET154RJAK 0000Z 28001KT 9999 FEW025 SCT040 BKN100 05/M01 Q0998 RMK 2CU025 3SC040 5AC100 A2949 FCST 0009 BECMG 0204 FEW025CU BKN040SC OVC100AC TEMPO 0509 -SHRA;EQDQ01+000000PRSWM2
0185477160999992000020801004+36030+140200FM-15+0029RJAK V0201001N001510300019N0112651N1+00701-00101999999ADDGA1021+007509999GA2071+030009999GF107991999999999999999999MA1099701999999MW1001REMMET075RJAK 0100Z 10003KT 9999 FEW025 BKN100 07/M01 Q0997 RMK 1CU025 5AC100 A2946;EQDQ01+000000PRSWM2
0154477160999992000020802004+36030+140200FM-15+0029RJAK V0200501N002112200019N0112651N1+00801+00001999999ADDGA1021+007509999GF102991999999999999999999MA1099591999999MW1001REMMET060RJAK 0200Z 05004KT 9999 FEW025 08/00 Q0996 RMK 1CU025 A2943;EQDQ01+000000PRSWM2
0198477160999992000020803004+36030+140200FM-15+0029RJAK V0200501N002612200019N0112651N1+00901+00301999999ADDGA1021+007509999GF102991999999999999999999MA1099491999999MW1001REMMET104RJAK 0300Z 05005KT 9999 FEW025 09/03 Q0995 RMK 1CU025 A2938 P/FR FCST 0312 BECMG 1012 BKN025CU BKN080AC;EQDQ01+000000PRSWM2
0159477160999992000020804004+36030+140200FM-15+0029RJAK V0200601N003112200019N0112651N1+01001+00201999999ADDGA1021+007509999GF102991999999999999999999MA1099291999999MW1001REMMET065RJAK 0400Z 06006KT 9999 FEW025 10/02 Q0993 RMK 1CU025 A2933 P/FR;EQDQ01+000000PRSWM2
0154477160999992000020805004+36030+140200FM-15+0029RJAK V0200701N003112200019N0112651N1+01101+00201999999ADDGA1021+007509999GF102991999999999999999999MA1099191999999MW1001REMMET060RJAK 0500Z 07006KT 9999 FEW025 11/02 Q0992 RMK 1CU025 A2930;EQDQ01+000000PRSWM2
0201477160999992000020806004+36030+140200FM-15+0029RJAK V0200901N001512200019N0112651N1+01201+00101999999ADDGA1021+009009999GF102991999999999999999999MA1099091999999MW1001REMMET107RJAK 0600Z 09003KT 9999 FEW030 12/01 Q0991 RMK 1CU030 A2927 FCST 0615 BECMG 1113 BKN030CU TEMPO 1315 -SHRA;EQDQ01+000000PRSWM2
0154477160999992000020807004+36030+140200FM-15+0029RJAK V0200901N003112200019N0112651N1+01001+00201999999ADDGA1021+009009999GF102991999999999999999999MA1098921999999MW1001REMMET060RJAK 0700Z 09006KT 9999 FEW030 10/02 Q0989 RMK 1CU030 A2923;EQDQ01+000000PRSWM2
0190477160999992000020808004+36030+140200FM-15+0029RJAK V0200801N005112200019N0112651N1+00901+00501999999ADDGA1021+009009999GF102991999999999999999999MA1098921999999MW1001REMMET096RJAK 0800Z 08010KT 9999 FEW030 09/05 Q0989 RMK 1CU030 A2920 FCST 0817 TEMPO 1315 -SHRA BKN025CU;EQDQ01+000000PRSWM2
0195477160999992000020822004+36030+140200FM-15+0029RJAK V0202901N009812200019N0112651N1+00201+00001999999ADDGA1021+003609999GA2021+030009999GF104991999999999999999999MA1099701999999MW1001OC102011REMMET077RJAK 2200Z 29019G39KT 9999 FEW012 SCT100 02/00 Q0997 RMK 1CU012 3AC100 A2944;EQDQ01+000000PRSWM2
0228477160999992000020822384+36030+140200FM-16+0029RJAK V0202901N008710120019N0112651N1+00201+00001999999ADDGA1021+003009999GA2071+012009999GA3071+030009999GF107991999999999999999999MA1099801999999MW1001OC102111REMMET094RJAK 082238Z 29017G41KT 9999 FEW010 BKN040 BKN100 02/M00 Q0998 RMK 1CU010 5SC040 5AC100 A2949;EQDQ01+000000PRSWM2
0336477160999992000020823004+36030+140200FM-15+0029RJAK V0203001N010310120019N0112651N1+00201+00001999999ADDGA1021+003009999GA2071+012009999GA3071+030009999GF107991999999999999999999MA1099801999999MW1001OC101851REMMET202RJAK 2300Z 30020G36KT 9999 FEW010 BKN040 BKN100 02/M00 Q0998 RMK 1CU010 5SC040 5AC100 A2949 P/RR FCST 2308 BECMG 2300 FEW010CU SCT040SC SCT100AC TEMPO 0005 FEW010CU BKN040SC BKN100AC BECMG 0708 29014KT;EQDQ01+000000PRSWM2
0173477160999992000020823214+36030+140200FM-16+0029RJAK V0203001N007212200019N0112651N1+00301+00001999999ADDGA1021+003009999GF102991999999999999999999MA1099901999999MW1001OC101591REMMET071RJAK 082321Z 30014G31KT 9999 FEW010 03/M00 Q0999 RMK 1CU010 A2952 P/RR;EQDQ01+000000PRSWM2
0214477160999992000020900004+36030+140200FM-15+0029RJAK V0203001N007212200019N0112651N1+00401-00101999999ADDGA1021+003609999GF102991999999999999999999MA1100001999999MW1001OC101341REMMET112RJAK 0000Z 30014G26KT 9999 FEW012 04/M01 Q1000 RMK 1CU012 A2953 FCST 0009 TEMPO 0206 29015KT BECMG 0607 29008KT;EQDQ01+000000PRSWM2
0166477160999992000020901004+36030+140200FM-15+0029RJAK V0203101N004112200019N0112651N1+00501-00101999999ADDGA1021+007509999GF102991999999999999999999MA1100101999999MW1001OC101081REMMET064RJAK 0100Z 31008G21KT 9999 FEW025 05/M01 Q1001 RMK 1CU025 A2957;EQDQ01+000000PRSWM2
0166477160999992000020902004+36030+140200FM-15+0029RJAK V0203001N006212200019N0112651N1+00701-00401999999ADDGA1021+007509999GF102991999999999999999999MA1100101999999MW1001OC101341REMMET064RJAK 0200Z 30012G26KT 9999 FEW025 07/M04 Q1001 RMK 1CU025 A2957;EQDQ01+000000PRSWM2
0217477160999992000020903004+36030+140200FM-15+0029RJAK V0203001N005112200019N0112651N1+00801-00401999999ADDGA1021+006009999GA2021+009009999GF104991999999999999999999MA1100201999999MW1001REMMET107RJAK 0300Z 30010KT 9999 FEW020 SCT030 08/M04 Q1002 RMK 1CU020 3CU030 A2959 FCST 0312 TEMPO 0306 30012G22KT;EQDQ01+000000PRSWM2
0168477160999992000020903214+36030+140200FM-16+0029RJAK V0203001N004612200019N0112651N1+00801-00601999999ADDGA1021+009009999GF104991999999999999999999MA1100101999999MW1001OC101131REMMET066RJAK 090321Z 30009G22KT 9999 SCT030 08/M06 Q1001 RMK 3CU030 A2958;EQDQ01+000000PRSWM2
0166477160999992000020904004+36030+140200FM-15+0029RJAK V0202901N007212200019N0112651N1+00901-00801999999ADDGA1021+009009999GF102991999999999999999999MA1100101999999MW1001OC101441REMMET064RJAK 0400Z 29014G28KT 9999 FEW030 09/M08 Q1001 RMK 2CU030 A2957;EQDQ01+000000PRSWM2
0166477160999992000020905004+36030+140200FM-15+0029RJAK V0203001N007212200019N0112651N1+00801-00701999999ADDGA1021+009009999GF102991999999999999999999MA1100101999999MW1001OC101491REMMET064RJAK 0500Z 30014G29KT 9999 FEW030 08/M07 Q1001 RMK 1CU030 A2958;EQDQ01+000000PRSWM2
0198477160999992000020905434+36030+140200FM-16+0029RJAK V0202901N009312200019N0112651N1+00801-00901999999ADDGA1021+009009999GA2021+015009999GF104991999999999999999999MA1100201999999MW1001OC101801REMMET080RJAK 090543Z 29018G35KT 9999 FEW030 SCT050 08/M09 Q1002 RMK 1CU030 4SC050 A2960;EQDQ01+000000PRSWM2
0171477160999992000020907004+36030+140200FM-15+0029RJAK V0203001N007712200019N0112651N1+00701-00901999999ADDGA1021+009009999GF102991999999999999999999MA1100411999999MW1001OC101491REMMET069RJAK 0700Z 30015G29KT 9999 FEW030 07/M09 Q1004 RMK 1CU030 A2965 P/RR;EQDQ01+000000PRSWM2
0195477160999992000020908004+36030+140200FM-15+0029RJAK V0203001N006212200019N0112651N1+00601-01101999999ADDGA1021+009009999GF102991999999999999999999MA1100511999999MW1001OC101541REMMET093RJAK 0800Z 30012G30KT 9999 FEW030 06/M11 Q1005 RMK 1CU030 A2969 FCST 0817 BECMG 1214 30005KT;EQDQ01+000000PRSWM2
0166477160999992000020922004+36030+140200FM-15+0029RJAK V0202701N004112200019N0112651N1+00101-01001999999ADDGA1021+009009999GF102991999999999999999999MA1101191999999MW1001OC100931REMMET064RJAK 2200Z 27008G18KT 9999 FEW030 01/M10 Q1012 RMK 1CU030 A2989;EQDQ01+000000PRSWM2
0195477160999992000020923004+36030+140200FM-15+0029RJAK V0202701N005112200019N0112651N1+00201-01001999999ADDGA1021+009009999GF102991999999999999999999MA1101291999999MW1001OC101181REMMET093RJAK 2300Z 27010G23KT 9999 FEW030 02/M10 Q1013 RMK 1CU030 A2991 FCST 2308 BECMG 0507 33010KT;EQDQ01+000000PRSWM2
0157477160999992000020923154+36030+140200FM-16+0029RJAK V0202701N004112200019N0112651N1+00301-01001999999ADDGA1021+009009999GF102991999999999999999999MA1101291999999MW1001REMMET063RJAK 092315Z 27008KT 9999 FEW030 03/M10 Q1013 RMK 1CU030 A2992;EQDQ01+000000PRSWM2
0168477160999992000020923194+36030+140200FM-16+0029RJAK V0202701N004112200019N0112651N1+00301-00901999999ADDGA1021+009009999GF102991999999999999999999MA1101291999999MW1001OC101081REMMET066RJAK 092319Z 27008G21KT 9999 FEW030 03/M09 Q1013 RMK 1CU030 A2992;EQDQ01+000000PRSWM2
0195477160999992000021000004+36030+140200FM-15+0029RJAK V0202701N005112200019N0112651N1+00401-01001999999ADDGA1021+009009999GF102991999999999999999999MA1101291999999MW1001OC101081REMMET093RJAK 0000Z 27010G21KT 9999 FEW030 04/M10 Q1013 RMK 1CU030 A2993 FCST 0009 BECMG 0507 33010KT;EQDQ01+000000PRSWM2
0166477160999992000021001004+36030+140200FM-15+0029RJAK V0202801N006712200019N0112651N1+00501-01001999999ADDGA1021+009009999GF102991999999999999999999MA1101291999999MW1001OC101231REMMET064RJAK 0100Z 28013G24KT 9999 FEW030 05/M10 Q1013 RMK 1CU030 A2994;EQDQ01+000000PRSWM2
0166477160999992000021002004+36030+140200FM-15+0029RJAK V0202801N005712200019N0112651N1+00601-00901999999ADDGA1021+009009999GF102991999999999999999999MA1101391999999MW1001OC101181REMMET064RJAK 0200Z 28011G23KT 9999 FEW030 06/M09 Q1014 RMK 1CU030 A2994;EQDQ01+000000PRSWM2
0195477160999992000021003004+36030+140200FM-15+0029RJAK V0202901N006712200019N0112651N1+00701-00901999999ADDGA1021+009009999GF102991999999999999999999MA1101291999999MW1001OC101291REMMET093RJAK 0300Z 29013G25KT 9999 FEW030 07/M09 Q1013 RMK 1CU030 A2992 FCST 0312 BECMG 0810 33010KT;EQDQ01+000000PRSWM2
0166477160999992000021004004+36030+140200FM-15+0029RJAK V0202901N006212200019N0112651N1+00901-00901999999ADDGA1021+009009999GF102991999999999999999999MA1101191999999MW1001OC101181REMMET064RJAK 0400Z 29012G23KT 9999 FEW030 09/M09 Q1012 RMK 1CU030 A2990;EQDQ01+000000PRSWM2
0166477160999992000021005004+36030+140200FM-15+0029RJAK V0202801N007212200019N0112651N1+00901-00901999999ADDGA1021+009009999GF102991999999999999999999MA1101191999999MW1001OC101391REMMET064RJAK 0500Z 28014G27KT 9999 FEW030 09/M09 Q1012 RMK 1CU030 A2990;EQDQ01+000000PRSWM2
0195477160999992000021006004+36030+140200FM-15+0029RJAK V0202901N005712200019N0112651N1+00901-01001999999ADDGA1021+009009999GF102991999999999999999999MA1101191999999MW1001OC101291REMMET093RJAK 0600Z 29011G25KT 9999 FEW030 09/M10 Q1012 RMK 1CU030 A2991 FCST 0615 BECMG 0810 30013KT;EQDQ01+000000PRSWM2
0166477160999992000021007004+36030+140200FM-15+0029RJAK V0202901N006212200019N0112651N1+00901-01001999999ADDGA1021+009009999GF102991999999999999999999MA1101291999999MW1001OC101181REMMET064RJAK 0700Z 29012G23KT 9999 FEW030 09/M10 Q1013 RMK 1CU030 A2991;EQDQ01+000000PRSWM2
0171477160999992000021008004+36030+140200FM-15+0029RJAK V0203301N002112200019N0112651N1+00801-00901999999ADDGA1021+009009999GF102991999999999999999999MA1101291999999MW1001REMMET077RJAK 0800Z 33004KT 9999 FEW030 08/M09 Q1013 RMK 1CU030 A2993 FCST 0817 NOSIG;EQDQ01+000000PRSWM2
0185477160999992000021322004+36030+140200FM-15+0029RJAK V0200801N002110120019N0112651N1+00301-00301999999ADDGA1021+006009999GA2071+012009999GF107991999999999999999999MA1101291999999MW1001REMMET075RJAK 2200Z 08004KT 9999 SCT020 BKN040 03/M03 Q1013 RMK 3CU020 7SC040 A2993;EQDQ01+000000PRSWM2
0260477160999992000021323004+36030+140200FM-15+0029RJAK V0200501N002110120019N0112651N1+00401-00301999999ADDGA1021+006009999GA2071+012009999GA3081+024009999GF108991999999999999999999MA1101291999999MW1001REMMET134RJAK 2300Z 05004KT 9999 FEW020 BKN040 OVC080 04/M03 Q1013 RMK 2CU020 6SC040 8AC080 A2992 FCST 2308 BECMG 0204 BKN030SC TEMPO 0608 -SN;EQDQ01+000000PRSWM2
0260477160999992000021400004+36030+140200FM-15+0029RJAK V0200401N002610105019N0112651N1+00401-00401999999ADDGA1021+006009999GA2071+010509999GA3081+024009999GF108991999999999999999999MA1101291999999MW1001REMMET134RJAK 0000Z 04005KT 9999 FEW020 BKN035 OVC080 04/M04 Q1013 RMK 1CU020 7SC035 8AC080 A2991 FCST 0009 BECMG 0204 BKN030SC TEMPO 0609 -SN;EQDQ01+000000PRSWM2
0215477160999992000021401004+36030+140200FM-15+0029RJAK V0200101N001010105019N0112651N1+00501-00301999999ADDGA1021+006009999GA2071+010509999GA3081+024009999GF108991999999999999999999MA1101191999999MW1001REMMET089RJAK 0100Z 01002KT 9999 FEW020 BKN035 OVC080 05/M03 Q1012 RMK 2CU020 7SC035 8AC080 A2990;EQDQ01+000000PRSWM2
0185477160999992000021402004+36030+140200FM-15+0029RJAK V0200701N002610105019N0112651N1+00601-00101999999ADDGA1071+010509999GA2081+024009999GF108991999999999999999999MA1101081999999MW1001REMMET075RJAK 0200Z 07005KT 9999 BKN035 OVC080 06/M01 Q1011 RMK 7SC035 8AC080 A2986;EQDQ01+000000PRSWM2
0234477160999992000021403004+36030+140200FM-15+0029RJAK V0200701N002610105019N0112651N1+00601+00201999999ADDGA1071+010509999GA2081+024009999GF108991999999999999999999MA1100911999999MW1001REMMET124RJAK 0300Z 07005KT 9999 BKN035 OVC080 06/02 Q1009 RMK 7SC035 8AC080 A2982 P/FR FCST 0312 BECMG 0305 BKN030SC TEMPO 0612 -SN;EQDQ01+000000PRSWM2
0219477160999992000021404004+36030+140200FM-15+0029RJAK V0200601N003610105019N0112651N1+00501+00201999999ADDGA1021+007509999GA2071+010509999GA3081+024009999GF108991999999999999999999MA1100811999999MW1001REMMET093RJAK 0400Z 06007KT 9999 FEW025 BKN035 OVC080 05/02 Q1008 RMK 2CU025 7SC035 8AC080 A2977 P/FR;EQDQ01+000000PRSWM2
0214477160999992000021405004+36030+140200FM-15+0029RJAK V0200601N002110090019N0112651N1+00701+00201999999ADDGA1021+006009999GA2071+009009999GA3071+024009999GF107991999999999999999999MA1100711999999MW1001REMMET088RJAK 0500Z 06004KT 9999 SCT020 BKN030 BKN080 07/02 Q1007 RMK 3CU020 7SC030 7AC080 A2975;EQDQ01+000000PRSWM2
0261477160999992000021406004+36030+140200FM-15+0029RJAK V0200901N003610105019N0112651N1+00701+00101999999ADDGA1021+007509999GA2071+010509999GA3071+024009999GF107991999999999999999999MA1100611999999MW1001REMMET135RJAK 0600Z 09007KT 9999 FEW025 BKN035 BKN080 07/01 Q1006 RMK 2CU025 7SC035 7AC080 A2972 FCST 0615 BECMG 0709 BKN030SC TEMPO 1015 -RASN;EQDQ01+000000PRSWM2
0214477160999992000021407004+36030+140200FM-15+0029RJAK V0200701N005110105019N0112651N1+00701+00101999999ADDGA1021+007509999GA2071+010509999GA3071+024009999GF107991999999999999999999MA1100511999999MW1001REMMET088RJAK 0700Z 07010KT 9999 FEW025 BKN035 BKN080 07/01 Q1005 RMK 1CU025 7SC035 5AC080 A2969;EQDQ01+000000PRSWM2
0201477160999992000021408004+36030+140200FM-15+0029RJAK V0200801N00311220001CN0112651N1+00701+00101999999ADDGA1071+009009999GA2021+024009999MA1100511999999MW1001REMMET101RJAK 0800Z 08006KT 9999 BKN030 SCT080 07/01 Q1005 RMK 7SC030 3AC080 A2969 FCST 0817 TEMPO 1217 -RASN;EQDQ01+000042SCOTCVQ02+000000PRSWM2
0175477160999992000021422004+36030+140200FM-15+0029RJAK V0202201N001512200019N0025001N1+00001-00201999999ADDGA1021+009009999GF102991999999999999999999MA1099291999999MW1101REMMET065RJAK 2200Z 22003KT 2500 BR FEW030 M00/M02 Q0993 RMK 2SC030 A2933;EQDQ01+000003PRSWM1Q02    003PRSWM1
0221477160999992000021423004+36030+140200FM-15+0029RJAK V0202901N002612200019N0040001N1+00101-00101999999ADDGA1021+009009999GF104991999999999999999999MA1099291999999MW1101REMMET111RJAK 2300Z 29005KT 4000 BR SCT030 01/M01 Q0993 RMK 3SC030 A2934 FCST 2308 BECMG 2301 NSW BECMG 0103 30015G30KT;EQDQ01+000003PRSWM1Q02    003PRSWM1
0210477160999992000021500004+36030+140200FM-15+0029RJAK V0202801N004112200019N0050001N1+00301-00101999999ADDGA1021+009009999GF104991999999999999999999MA1099291999999MW1051REMMET100RJAK 0000Z COR 28008KT 5000 HZ SCT030 03/M01 Q0993 RMK 3CU030 A2935 FCST 0009 BECMG 0103 30015G30KT;EQDQ01+000003PRSWM1Q02    003PRSWM1
0186477160999992000021500064+36030+140200FM-16+0029RJAK V0202801N004110105019N0060001N1+00401+00001999999ADDGA1021+007509999GA2071+010509999GF107991999999999999999999MA1099291999999MW1001REMMET076RJAK 150006Z 28008KT 6000 FEW025 BKN035 04/00 Q0993 RMK 2CU025 5CU035 A2935;EQDQ01+000000PRSWM2
0184477160999992000021501004+36030+140200FM-15+0029RJAK V0202901N002610105019N0060001N1+00401+00001999999ADDGA1021+006009999GA2071+010509999GF107991999999999999999999MA1099391999999MW1001REMMET074RJAK 0100Z 29005KT 6000 FEW020 BKN035 04/00 Q0994 RMK 1CU020 5CU035 A2936;EQDQ01+000000PRSWM2
0204477160999992000021502004+36030+140200FM-15+0029RJAK V0203501N004112200019N0050001N1+00801+00001999999ADDGA1021+007509999GA2021+010509999GF104991999999999999999999MA1099291999999MW1051REMMET078RJAK 0200Z 35008KT 5000 HZ FEW025 SCT035 08/M00 Q0993 RMK 2CU025 3SC035 A2934;EQDQ01+000003PRSWM1Q02    003PRSWM1
0237477160999992000021503004+36030+140200FM-15+0029RJAK V0203401N003612200019N0112651N1+00901-00401999999ADDGA1021+007509999GA2021+010509999GF104991999999999999999999MA1099291999999MW1001REMMET127RJAK 0300Z 34007KT 9999 FEW025 SCT035 09/M04 Q0993 RMK 2CU025 3SC035 A2933 FCST 0312 BECMG 0305 35015G28KT TEMPO 0408 BKN035SC;EQDQ01+000000PRSWM2
0217477160999992000021503054+36030+140200FM-16+0029RJAK V0203201N004610300019N0112651N1+00901-00601999999ADDGA1021+009009999GA2021+012009999GA3071+030009999GF107991999999999999999999MA1099291999999MW1001REMMET091RJAK 150305Z 32009KT 9999 SCT030 SCT040 BKN100 09/M06 Q0993 RMK 4CU030 4SC040 6AC100 A2934;EQDQ01+000000PRSWM2
0226477160999992000021504004+36030+140200FM-15+0029RJAK V0203301N007210090019N0112651N1+00701-00701999999ADDGA1021+003009999GA2071+009009999GA3071+030009999GF107991999999999999999999MA1099391999999MW1001OC101231REMMET092RJAK 0400Z 33014G24KT 9999 FEW010 BKN030 BKN100 07/M07 Q0994 RMK 2CU010 6CU030 7AC100 A2936;EQDQ01+000000PRSWM2
0254477160999992000021504234+36030+140200FM-16+0029RJAK V0203301N006210090019N0112651N1+00501-00401999999ADDGA1021+003009999GA2071+009009999GA3081+030009999GF108991999999999999999999MA1099491999999MW1851OC101231REMMET104RJAK COR 150423Z 33012G24KT 9999 -SHSN FEW010 BKN030 OVC100 05/M04 Q0995 RMK 2CU010 7CU030 8AC100 A2939;EQDQ01+000003PRSWM1Q02    003PRSWM1
0237477160999992000021505004+36030+140200FM-15+0029RJAK V0203201N002610090019N0112651N1+00401-00301999999ADDGA1021+003009999GA2071+009009999GA3071+030009999GF107991999999999999999999MA1099491999999MW1851REMMET095RJAK 0500Z 32005KT 9999 -SHSN FEW010 BKN030 BKN100 04/M03 Q0995 RMK 2CU010 5CU030 5AC100 A2940;EQDQ01+000003PRSWM1Q02    003PRSWM1
0157477160999992000021505134+36030+140200FM-16+0029RJAK V0203501N003112200019N0112651N1+00601-00401999999ADDGA1021+009009999GF104991999999999999999999MA1099491999999MW1001REMMET063RJAK 150513Z 35006KT 9999 SCT030 06/M04 Q0995 RMK 3CU030 A2940;EQDQ01+000000PRSWM2
0217477160999992000021506004+36030+140200FM-15+0029RJAK V0203301N002612200019N0112651N1+00701-00501999999ADDGA1021+009009999GA2021+012009999GF104991999999999999999999MA1099491999999MW1001REMMET107RJAK 0600Z 33005KT 9999 FEW030 SCT040 07/M05 Q0995 RMK 1CU030 3CU040 A2941 FCST 0615 TEMPO 0608 33010G20KT;EQDQ01+000000PRSWM2
0185477160999992000021507004+36030+140200FM-15+0029RJAK V0203601N004612200019N0112651N1+00701-00901999999ADDGA1021+009009999GA2021+012009999GF104991999999999999999999MA1099591999999MW1001REMMET075RJAK 0700Z 36009KT 9999 FEW030 SCT040 07/M09 Q0996 RMK 1CU030 3CU040 A2942;EQDQ01+000000PRSWM2
0198477160999992000021507334+36030+140200FM-16+0029RJAK V0203401N005712200019N0112651N1+00601-01201999999ADDGA1021+009009999GA2021+030009999GF104991999999999999999999MA1099701999999MW1001OC101081REMMET080RJAK 150733Z 34011G21KT 9999 FEW030 SCT100 06/M12 Q0997 RMK 1CU030 3AC100 A2945;EQDQ01+000000PRSWM2
0217477160999992000021508004+36030+140200FM-15+0029RJAK V0203501N005712200019N0112651N1+00501-01301999999ADDGA1021+009009999GA2021+024009999GF104991999999999999999999MA1099701999999MW1001REMMET107RJAK 0800Z 35011KT 9999 FEW030 SCT080 05/M13 Q0997 RMK 1CU030 3AC080 A2945 FCST 0817 TEMPO 0811 36012G24KT;EQDQ01+000000PRSWM2
0156477160999992000021522004+36030+140200FM-15+0029RJAK V0202901N001012200019N0112651N1-00101-00801999999ADDGA1021+009009999GF102991999999999999999999MA1100311999999MW1001REMMET062RJAK 2200Z 29002KT 9999 FEW030 M01/M08 Q1003 RMK 1CU030 A2962;EQDQ01+000000PRSWM2
0188477160999992000021523004+36030+140200FM-15+0029RJAK V0202001N001512200019N0112651N1-00101-00801999999ADDGA1021+009009999GF102991999999999999999999MA1100311999999MW1001REMMET094RJAK 2300Z 20003KT 9999 FEW030 M01/M08 Q1003 RMK 1CU030 A2964 FCST 2308 TEMPO 0106 35015G30KT;EQDQ01+000000PRSWM2
0187477160999992000021600004+36030+140200FM-15+0029RJAK V0202801N004112200019N0112651N1+00201-00901999999ADDGA1021+009009999GF102991999999999999999999MA1100311999999MW1001REMMET093RJAK 0000Z 28008KT 9999 FEW030 02/M09 Q1003 RMK 1CU030 A2964 FCST 0009 TEMPO 0106 35015G30KT;EQDQ01+000000PRSWM2
0168477160999992000021600034+36030+140200FM-16+0029RJAK V0202701N005712200019N0112651N1+00201-00901999999ADDGA1021+009009999GF102991999999999999999999MA1100311999999MW1001OC101081REMMET066RJAK 160003Z 27011G21KT 9999 FEW030 02/M09 Q1003 RMK 1CU030 A2964;EQDQ01+000000PRSWM2
0166477160999992000021601004+36030+140200FM-15+0029RJAK V0202701N006712200019N0112651N1+00401-01201999999ADDGA1021+009009999GF102991999999999999999999MA1100311999999MW1001OC101231REMMET064RJAK 0100Z 27013G24KT 9999 FEW030 04/M12 Q1003 RMK 1CU030 A2964;EQDQ01+000000PRSWM2
0166477160999992000021602004+36030+140200FM-15+0029RJAK V0202801N005712200019N0112651N1+00501-01201999999ADDGA1021+009009999GF102991999999999999999999MA1100311999999MW1001OC101291REMMET064RJAK 0200Z 28011G25KT 9999 FEW030 05/M12 Q1003 RMK 2CU030 A2964;EQDQ01+000000PRSWM2
0217477160999992000021603004+36030+140200FM-15+0029RJAK V0202901N005712200019N0112651N1+00601-01301999999ADDGA1021+007509999GA2021+009009999GF104991999999999999999999MA1100311999999MW1001REMMET107RJAK 0300Z 29011KT 9999 FEW025 SCT030 06/M13 Q1003 RMK 1CU025 3CU030 A2962 FCST 0312 TEMPO 0306 30013G28KT;EQDQ01+000000PRSWM2
0198477160999992000021603034+36030+140200FM-16+0029RJAK V0203101N006212200019N0112651N1+00601-01101999999ADDGA1021+007509999GA2021+009009999GF104991999999999999999999MA1100201999999MW1001OC101181REMMET080RJAK 160303Z 31012G23KT 9999 FEW025 SCT030 06/M11 Q1002 RMK 1CU025 3CU030 A2961;EQDQ01+000000PRSWM2
0196477160999992000021604004+36030+140200FM-15+0029RJAK V0203001N005112200019N0112651N1+00601-01201999999ADDGA1021+009009999GA2021+013509999GF104991999999999999999999MA1100201999999MW1001OC101291REMMET078RJAK 0400Z 30010G25KT 9999 FEW030 SCT045 06/M12 Q1002 RMK 2CU030 3SC045 A2960;EQDQ01+000000PRSWM2
0204477160999992000021605004+36030+140200FM-15+0029RJAK V0203001N006212200019N0112651N1+00601-01301999999ADDGA1021+009009999GA2021+010509999GF104991999999999999999999MA1100201999999MW1001OC101181REMMET086RJAK 0500Z 30012G23KT 250V350 9999 FEW030 SCT035 06/M13 Q1002 RMK 2CU030 3CU035 A2960;EQDQ01+000000PRSWM2
0225477160999992000021606004+36030+140200FM-15+0029RJAK V0203001N007212200019N0112651N1+00601-01501999999ADDGA1021+009009999GA2021+013509999GF104991999999999999999999MA1100201999999MW1001OC101341REMMET107RJAK 0600Z 30014G26KT 9999 FEW030 SCT045 06/M15 Q1002 RMK 1CU030 3SC045 A2961 FCST 0615 BECMG 0608 30013KT;EQDQ01+000000PRSWM2
0166477160999992000021607004+36030+140200FM-15+0029RJAK V0203101N005712200019N0112651N1+00501-01301999999ADDGA1021+009009999GF102991999999999999999999MA1100311999999MW1001OC101181REMMET064RJAK 0700Z 31011G23KT 9999 FEW030 05/M13 Q1003 RMK 1CU030 A2963;EQDQ01+000000PRSWM2
0200477160999992000021608004+36030+140200FM-15+0029RJAK V0202901N008212200019N0112651N1+00401-01401999999ADDGA1021+009009999GF102991999999999999999999MA1100511999999MW1001OC101591REMMET098RJAK 0800Z 29016G31KT 9999 FEW030 04/M14 Q1005 RMK 1CU030 A2968 P/RR FCST 0817 BECMG 0911 29010KT;EQDQ01+000000PRSWM2
0156477160999992000021622004+36030+140200FM-15+0029RJAK V0202801N003612200019N0112651N1-00101-01201999999ADDGA1021+009009999GF102991999999999999999999MA1101291999999MW1001REMMET062RJAK 2200Z 28007KT 9999 FEW030 M01/M12 Q1013 RMK 1CU030 A2992;EQDQ01+000000PRSWM2
0187477160999992000021623004+36030+140200FM-15+0029RJAK V0202701N003612200019N0112651N1+00001-01201999999ADDGA1021+009009999GF102991999999999999999999MA1101391999999MW1001REMMET093RJAK 2300Z 27007KT 9999 FEW030 00/M12 Q1014 RMK 1CU030 A2995 FCST 2308 TEMPO 0208 30012G22KT;EQDQ01+000000PRSWM2
0182477160999992000021700004+36030+140200FM-15+0029RJAK V0202801N005712200019N0112651N1+00301-01201999999ADDGA1021+009009999GF102991999999999999999999MA1101391999999MW1001OC101081REMMET080RJAK 0000Z 28011G21KT 9999 FEW030 03/M12 Q1014 RMK 1CU030 A2996 FCST 0009 NOSIG;EQDQ01+000000PRSWM2
0166477160999992000021701004+36030+140200FM-15+0029RJAK V0202701N006212200019N0112651N1+00401-01301999999ADDGA1021+009009999GF102991999999999999999999MA1101391999999MW1001OC101231REMMET064RJAK 0100Z 27012G24KT 9999 FEW030 04/M13 Q1014 RMK 1CU030 A2995;EQDQ01+000000PRSWM2
0166477160999992000021702004+36030+140200FM-15+0029RJAK V0202901N006712200019N0112651N1+00501-01301999999ADDGA1021+009009999GF102991999999999999999999MA1101391999999MW1001OC101591REMMET064RJAK 0200Z 29013G31KT 9999 FEW030 05/M13 Q1014 RMK 1CU030 A2994;EQDQ01+000000PRSWM2
0215477160999992000021703004+36030+140200FM-15+0029RJAK V0202901N006712200019N0112651N1+00601-01201999999ADDGA1021+009009999GF102991999999999999999999MA1101291999999MW1001OC101231REMMET113RJAK 0300Z 29013G24KT 9999 FEW030 06/M12 Q1013 RMK 1CU030 A2993 FCST 0312 BECMG 0809 29011KT TEMPO 0912 BKN030CU;EQDQ01+000000PRSWM2
0166477160999992000021704004+36030+140200FM-15+0029RJAK V0202901N006212200019N0112651N1+00701-01301999999ADDGA1021+009009999GF102991999999999999999999MA1101191999999MW1001OC101181REMMET064RJAK 0400Z 29012G23KT 9999 FEW030 07/M13 Q1012 RMK 2CU030 A2989;EQDQ01+000000PRSWM2
0166477160999992000021705004+36030+140200FM-15+0029RJAK V0203001N005112200019N0112651N1+00801-01301999999ADDGA1021+009009999GF102991999999999999999999MA1101081999999MW1001OC101081REMMET064RJAK 0500Z 30010G21KT 9999 FEW030 08/M13 Q1011 RMK 2CU030 A2988;EQDQ01+000000PRSWM2
0187477160999992000021706004+36030+140200FM-15+0029RJAK V0203101N004112200019N0112651N1+00801-01301999999ADDGA1021+009009999GF102991999999999999999999MA1101081999999MW1001REMMET093RJAK 0600Z 31008KT 9999 FEW030 08/M13 Q1011 RMK 1CU030 A2987 FCST 0615 TEMPO 0608 31009G19KT;EQDQ01+000000PRSWM2
0168477160999992000021706124+36030+140200FM-16+0029RJAK V0203101N004612200019N0112651N1+00801-01301999999ADDGA1021+009009999GF102991999999999999999999MA1101081999999MW1001OC100981REMMET066RJAK 170612Z 31009G19KT 9999 FEW030 08/M13 Q1011 RMK 1CU030 A2987;EQDQ01+000000PRSWM2
0155477160999992000021707004+36030+140200FM-15+0029RJAK V0203301N004612200019N0112651N1+00801-01301999999ADDGA1021+007509999GF102991999999999999999999MA1101081999999MW1001REMMET061RJAK 0700Z 33009KT 9999 FEW025 08/M13 Q1011 RMK 1CU025 A2987;EQDQ01+000000PRSWM2
0171477160999992000021708004+36030+140200FM-15+0029RJAK V0202901N003612200019N0112651N1+00701-01301999999ADDGA1021+007509999GF102991999999999999999999MA1101081999999MW1001REMMET077RJAK 0800Z 29007KT 9999 FEW025 07/M13 Q1011 RMK 2CU025 A2987 FCST 0817 NOSIG;EQDQ01+000000PRSWM2
0156477160999992000021722004+36030+140200FM-15+0029RJAK V0202201N001012200019N0112651N1-00501-00801999999ADDGA1021+009009999GF102991999999999999999999MA1101391999999MW1001REMMET062RJAK 2200Z 22002KT 9999 FEW030 M05/M08 Q1014 RMK 1CU030 A2996;EQDQ01+000000PRSWM2
0188477160999992000021723004+36030+140200FM-15+0029RJAK V0202601N001512200019N0112651N1-00201-00601999999ADDGA1021+009009999GF102991999999999999999999MA1101491999999MW1001REMMET094RJAK 2300Z 26003KT 9999 FEW030 M02/M06 Q1015 RMK 1CU030 A2998 FCST 2308 TEMPO 0206 29013G23KT;EQDQ01+000000PRSWM2
0187477160999992000021800004+36030+140200FM-15+0029RJAK V0202401N001012200019N0112651N1+00201-00601999999ADDGA1021+009009999GF102991999999999999999999MA1101491999999MW1001REMMET093RJAK 0000Z 24002KT 9999 FEW030 02/M06 Q1015 RMK 1CU030 A2998 FCST 0009 TEMPO 0206 29013G23KT;EQDQ01+000000PRSWM2
0168477160999992000021800214+36030+140200FM-16+0029RJAK V0202801N004112200019N0112651N1+00401-00701999999ADDGA1021+009009999GF102991999999999999999999MA1101491999999MW1001OC100931REMMET066RJAK 180021Z 28008G18KT 9999 FEW030 04/M07 Q1015 RMK 1CU030 A2998;EQDQ01+000000PRSWM2
0166477160999992000021801004+36030+140200FM-15+0029RJAK V0202701N004112200019N0112651N1+00501-00801999999ADDGA1021+009009999GF102991999999999999999999MA1101491999999MW1001OC100931REMMET064RJAK 0100Z 27008G18KT 9999 FEW030 05/M08 Q1015 RMK 1CU030 A2997;EQDQ01+000000PRSWM2
0166477160999992000021802004+36030+140200FM-15+0029RJAK V0202801N005112200019N0112651N1+00701-01001999999ADDGA1021+009009999GF102991999999999999999999MA1101391999999MW1001OC101031REMMET064RJAK 0200Z 28010G20KT 9999 FEW030 07/M10 Q1014 RMK 2CU030 A2997;EQDQ01+000000PRSWM2
0254477160999992000021803004+36030+140200FM-15+0029RJAK V0202801N007212200019N0112651N1+00601-01201999999ADDGA1021+006009999GA2021+009009999GF104991999999999999999999MA1101391999999MW1001OC101341REMMET136RJAK 0300Z 28014G26KT 9999 FEW020 SCT030 06/M12 Q1014 RMK 2CU020 4CU030 A2995 FCST 0312 TEMPO 0307 FEW020CU BKN030CU BECMG 0708 30010KT;EQDQ01+000000PRSWM2
0196477160999992000021804004+36030+140200FM-15+0029RJAK V0203201N005112200019N0112651N1+00601-00901999999ADDGA1021+006009999GA2021+009009999GF104991999999999999999999MA1101391999999MW1001OC101181REMMET078RJAK 0400Z 32010G23KT 9999 FEW020 SCT030 06/M09 Q1014 RMK 2CU020 4CU030 A2994;EQDQ01+000000PRSWM2
0196477160999992000021805004+36030+140200FM-15+0029RJAK V0203101N006212200019N0112651N1+00701-01301999999ADDGA1021+006009999GA2021+009009999GF104991999999999999999999MA1101291999999MW1001OC101291REMMET078RJAK 0500Z 31012G25KT 9999 FEW020 SCT030 07/M13 Q1013 RMK 1CU020 3CU030 A2992;EQDQ01+000000PRSWM2
0254477160999992000021806004+36030+140200FM-15+0029RJAK V0203301N006212200019N0112651N1+00701-01401999999ADDGA1021+006009999GA2021+010509999GF104991999999999999999999MA1101291999999MW1001OC101231REMMET136RJAK 0600Z 33012G24KT 9999 FEW020 SCT035 07/M14 Q1013 RMK 1CU020 3CU035 A2991 FCST 0615 TEMPO 0608 FEW020CU BKN035CU BECMG 0809 33010KT;EQDQ01+000000PRSWM2
0166477160999992000021807004+36030+140200FM-15+0029RJAK V0203201N005712200019N0112651N1+00701-01401999999ADDGA1021+007509999GF102991999999999999999999MA1101291999999MW1001OC101181REMMET064RJAK 0700Z 32011G23KT 9999 FEW025 07/M14 Q1013 RMK 2CU025 A2993;EQDQ01+000000PRSWM2
0195477160999992000021808004+36030+140200FM-15+0029RJAK V0203201N006212200019N0112651N1+00601-01401999999ADDGA1021+007509999GF102991999999999999999999MA1101391999999MW1001OC101131REMMET093RJAK 0800Z 32012G22KT 9999 FEW025 06/M14 Q1014 RMK 1CU025 A2994 FCST 0817 BECMG 0809 32010KT;EQDQ01+000000PRSWM2
0166477160999992000022022004+36030+140200FM-15+0029RJAK V0203001N005112200019N0112651N1+00301-00901999999ADDGA1021+006009999GF102991999999999999999999MA1100411999999MW1001OC101031REMMET064RJAK 2200Z 30010G20KT 9999 FEW020 03/M09 Q1004 RMK 1CU020 A2966;EQDQ01+000000PRSWM2
0231477160999992000022023004+36030+140200FM-15+0029RJAK V0202901N005112200019N0112651N1+00301-00901999999ADDGA1021+006009999GF102991999999999999999999MA1100511999999MW1001REMMET137RJAK 2300Z 29010KT 9999 FEW020 03/M09 Q1005 RMK 1CU020 A2968 FCST 2308 TEMPO 2301 30015G25KT TEMPO 0205 31020G30KT TEMPO 0608 30015G25KT;EQDQ01+000000PRSWM2
0231477160999992000022100004+36030+140200FM-15+0029RJAK V0202701N005712200019N0112651N1+00401-00801999999ADDGA1021+006009999GF102991999999999999999999MA1100511999999MW1001REMMET137RJAK 0000Z 27011KT 9999 FEW020 04/M08 Q1005 RMK 1CU020 A2969 FCST 0009 TEMPO 0001 28015G25KT TEMPO 0206 31020G30KT TEMPO 0708 31015G25KT;EQDQ01+000000PRSWM2
0168477160999992000022100044+36030+140200FM-16+0029RJAK V0202801N006212200019N0112651N1+00501-00801999999ADDGA1021+006009999GF102991999999999999999999MA1100511999999MW1001OC101291REMMET066RJAK 210004Z 28012G25KT 9999 FEW020 05/M08 Q1005 RMK 1CU020 A2969;EQDQ01+000000PRSWM2
0166477160999992000022101004+36030+140200FM-15+0029RJAK V0202901N006712200019N0112651N1+00501-01101999999ADDGA1021+007509999GF102991999999999999999999MA1100511999999MW1001OC101231REMMET064RJAK 0100Z 29013G24KT 9999 FEW025 05/M11 Q1005 RMK 1CU025 A2969;EQDQ01+000000PRSWM2
0166477160999992000022102004+36030+140200FM-15+0029RJAK V0203001N007212200019N0112651N1+00601-01201999999ADDGA1021+007509999GF102991999999999999999999MA1100511999999MW1001OC101541REMMET064RJAK 0200Z 30014G30KT 9999 FEW025 06/M12 Q1005 RMK 1CU025 A2969;EQDQ01+000000PRSWM2
0217477160999992000022103004+36030+140200FM-15+0029RJAK V0202901N008712200019N0112651N1+00701-01201999999ADDGA1021+007509999GF102991999999999999999999MA1100411999999MW1001OC101651REMMET115RJAK 0300Z 29017G32KT 9999 FEW025 07/M12 Q1004 RMK 2CU025 A2967 FCST 0312 TEMPO 0306 30020G35KT BECMG 0809 30015KT;EQDQ01+000000PRSWM2
0166477160999992000022104004+36030+140200FM-15+0029RJAK V0202901N008212200019N0112651N1+00701-01301999999ADDGA1021+009009999GF102991999999999999999999MA1100411999999MW1001OC101491REMMET064RJAK 0400Z 29016G29KT 9999 FEW030 07/M13 Q1004 RMK 2CU030 A2966;EQDQ01+000000PRSWM2
0168477160999992000022104284+36030+140200FM-16+0029RJAK V0202901N009312200019N0112651N1+00601-01401999999ADDGA1021+009009999GF102991999999999999999999MA1100411999999MW1001OC101801REMMET066RJAK 210428Z 29018G35KT 9999 FEW030 06/M14 Q1004 RMK 2CU030 A2966;EQDQ01+000000PRSWM2
0166477160999992000022105004+36030+140200FM-15+0029RJAK V0202901N008212200019N0112651N1+00701-01501999999ADDGA1021+009009999GF102991999999999999999999MA1100411999999MW1001OC101651REMMET064RJAK 0500Z 29016G32KT 9999 FEW030 07/M15 Q1004 RMK 2CU030 A2967;EQDQ01+000000PRSWM2
0195477160999992000022106004+36030+140200FM-15+0029RJAK V0202901N007212200019N0112651N1+00601-01301999999ADDGA1021+009009999GF102991999999999999999999MA1100511999999MW1001OC101231REMMET093RJAK 0600Z 29014G24KT 9999 FEW030 06/M13 Q1005 RMK 1CU030 A2969 FCST 0615 BECMG 0809 29012KT;EQDQ01+000000PRSWM2
0166477160999992000022107004+36030+140200FM-15+0029RJAK V0203101N005712200019N0112651N1+00601-01201999999ADDGA1021+009009999GF102991999999999999999999MA1100611999999MW1001OC101131REMMET064RJAK 0700Z 31011G22KT 9999 FEW030 06/M12 Q1006 RMK 1CU030 A2972;EQDQ01+000000PRSWM2
0171477160999992000022108004+36030+140200FM-15+0029RJAK V0203001N005112200019N0112651N1+00501-01301999999ADDGA1021+009009999GF102991999999999999999999MA1100711999999MW1001REMMET077RJAK 0800Z 30010KT 9999 FEW030 05/M13 Q1007 RMK 1CU030 A2973 FCST 0817 NOSIG;EQDQ01+000000PRSWM2
0130477160999992000022122004+36030+140200FM-15+0029RJAK V0202501N004112200019N0112651N1-00101-01001999999ADDGF100991999999999999999999MA1101191999999MW1001REMMET052RJAK 2200Z 25008KT 9999 SKC M01/M10 Q1012 RMK A2989;EQDQ01+000000PRSWM2
0195477160999992000022123004+36030+140200FM-15+0029RJAK V0202701N005712200019N0112651N1+00101-01001999999ADDGA1021+007509999GF102991999999999999999999MA1101191999999MW1001OC101181REMMET093RJAK 2300Z 27011G23KT 9999 FEW025 01/M10 Q1012 RMK 1CU025 A2991 FCST 2308 BECMG 0506 30010KT;EQDQ01+000000PRSWM2
0195477160999992000022200004+36030+140200FM-15+0029RJAK V0202701N005712200019N0112651N1+00201-01001999999ADDGA1021+007509999GF102991999999999999999999MA1101291999999MW1001OC101391REMMET093RJAK 0000Z 27011G27KT 9999 FEW025 02/M10 Q1013 RMK 1CU025 A2991 FCST 0009 BECMG 0506 30010KT;EQDQ01+000000PRSWM2
0166477160999992000022201004+36030+140200FM-15+0029RJAK V0202701N006712200019N0112651N1+00301-01001999999ADDGA1021+007509999GF102991999999999999999999MA1101291999999MW1001OC101441REMMET064RJAK 0100Z 27013G28KT 9999 FEW025 03/M10 Q1013 RMK 1CU025 A2991;EQDQ01+000000PRSWM2
0166477160999992000022202004+36030+140200FM-15+0029RJAK V0202901N006712200019N0112651N1+00501-01101999999ADDGA1021+007509999GF102991999999999999999999MA1101191999999MW1001OC101291REMMET064RJAK 0200Z 29013G25KT 9999 FEW025 05/M11 Q1012 RMK 1CU025 A2990;EQDQ01+000000PRSWM2
0195477160999992000022203004+36030+140200FM-15+0029RJAK V0202901N007712200019N0112651N1+00601-01301999999ADDGA1021+007509999GF102991999999999999999999MA1101191999999MW1001OC101491REMMET093RJAK 0300Z 29015G29KT 9999 FEW025 06/M13 Q1012 RMK 1CU025 A2988 FCST 0312 BECMG 0708 30010KT;EQDQ01+000000PRSWM2
0196477160999992000022204004+36030+140200FM-15+0029RJAK V0202901N006712200019N0112651N1+00701-01301999999ADDGA1021+009009999GA2021+066009999GF104991999999999999999999MA1101081999999MW1001OC101391REMMET078RJAK 0400Z 29013G27KT 9999 FEW030 SCT220 07/M13 Q1011 RMK 1CU030 3CI220 A2987;EQDQ01+000000PRSWM2
0196477160999992000022205004+36030+140200FM-15+0029RJAK V0203001N007712200019N0112651N1+00701-01401999999ADDGA1021+009009999GA2021+066009999GF104991999999999999999999MA1101081999999MW1001OC101491REMMET078RJAK 0500Z 30015G29KT 9999 FEW030 SCT220 07/M14 Q1011 RMK 1CU030 3CI220 A2988;EQDQ01+000000PRSWM2
0195477160999992000022206004+36030+140200FM-15+0029RJAK V0202901N008212200019N0112651N1+00701-01401999999ADDGA1021+009009999GF102991999999999999999999MA1101081999999MW1001OC101441REMMET093RJAK 0600Z 29016G28KT 9999 FEW030 07/M14 Q1011 RMK 1CU030 A2988 FCST 0615 BECMG 0708 30012KT;EQDQ01+000000PRSWM2
0196477160999992000022207004+36030+140200FM-15+0029RJAK V0203101N007212200019N0112651N1+00701-01301999999ADDGA1021+009009999GA2021+066009999GF104991999999999999999999MA1101081999999MW1001OC101541REMMET078RJAK 0700Z 31014G30KT 9999 FEW030 SCT220 07/M13 Q1011 RMK 1CU030 3CI220 A2987;EQDQ01+000000PRSWM2
0225477160999992000022208004+36030+140200FM-15+0029RJAK V0203201N005112200019N0112651N1+00601-01201999999ADDGA1021+007509999GA2021+066009999GF104991999999999999999999MA1101191999999MW1001OC101031REMMET107RJAK 0800Z 32010G20KT 9999 FEW025 SCT220 06/M12 Q1012 RMK 1CU025 4CI220 A2989 FCST 0817 BECMG 0809 32010KT;EQDQ01+000000PRSWM2
0171477160999992000022306004+36030+140200FM-15+0029RJAK V0201301N002110690019N0112651N1+00901-01001999999ADDGA1071+069009999GF107991999999999999999999MA1101591999999MW1001REMMET077RJAK 0600Z 13004KT 9999 BKN230 09/M10 Q1016 RMK 6CI230 A3000 FCST 0615 NOSIG;EQDQ01+000000PRSWM2
0185477160999992000022307004+36030+140200FM-15+0029RJAK V0200801N003610690019N0112651N1+00801-01001999999ADDGA1021+009009999GA2071+069009999GF107991999999999999999999MA1101591999999MW1001REMMET075RJAK 0700Z 08007KT 9999 FEW030 BKN230 08/M10 Q1016 RMK 1CU030 7CI230 A3001;EQDQ01+000000PRSWM2
0233477160999992000022308004+36030+140200FM-15+0029RJAK V0201101N003110690019N0112651N1+00701-01001999999ADDGA1021+009009999GA2071+069009999GF107991999999999999999999MA1101591999999MW1001REMMET123RJAK 0800Z 11006KT 9999 FEW030 BKN230 07/M10 Q1016 RMK 1CU030 7CI230 A3001 FCST 0817 BECMG 1517 FEW030CU BKN100AC OVC200CI;EQDQ01+000000PRSWM2
0156477160999992000022322004+36030+140200FM-15+0029RJAK V0203201N001012200019N0112651N1-00101-00901999999ADDGA1021+007509999GF102991999999999999999999MA1101081999999MW1001REMMET062RJAK 2200Z 32002KT 9999 FEW025 M01/M09 Q1011 RMK 1CU025 A2987;EQDQ01+000000PRSWM2
0186477160999992000022323004+36030+140200FM-15+0029RJAK V0203201N001512200019N0112651N1+00101-00801999999ADDGA1021+007509999GF102991999999999999999999MA1101081999999MW1001REMMET092RJAK 2300Z 32003KT 9999 FEW025 01/M08 Q1011 RMK 1CU025 A2988 FCST 2308 TEMPO 0206 2910G23KT;EQDQ01+000000PRSWM2
0187477160999992000022400004+36030+140200FM-15+0029RJAK V0200201N001512200019N0112651N1+00301-00701999999ADDGA1021+007509999GF102991999999999999999999MA1101191999999MW1001REMMET093RJAK 0000Z 02003KT 9999 FEW025 03/M07 Q1012 RMK 1CU025 A2989 FCST 0009 TEMPO 0206 29010G23KT;EQDQ01+000000PRSWM2
0129477160999992000022401004+36030+140200FM-15+0029RJAK V0200601N004112200019N0112651N1+00601-00601999999ADDGF100991999999999999999999MA1101081999999MW1001REMMET051RJAK 0100Z 06008KT 9999 SKC 06/M06 Q1011 RMK A2987;EQDQ01+000000PRSWM2
0155477160999992000022402004+36030+140200FM-15+0029RJAK V0200401N003112200019N0112651N1+00701-00601999999ADDGA1021+009009999GF102991999999999999999999MA1101081999999MW1001REMMET061RJAK 0200Z 04006KT 9999 FEW030 07/M06 Q1011 RMK 1CU030 A2986;EQDQ01+000000PRSWM2
0187477160999992000022403004+36030+140200FM-15+0029RJAK V0201401N002612200019N0112651N1+00801-00701999999ADDGA1021+009009999GF102991999999999999999999MA1101021999999MW1001REMMET093RJAK 0300Z 14005KT 9999 FEW030 08/M07 Q1010 RMK 2CU030 A2983 FCST 0312 TEMPO 0306 29010G20KT;EQDQ01+000000PRSWM2
0155477160999992000022404004+36030+140200FM-15+0029RJAK V0202101N001512200019N0112651N1+00901-00601999999ADDGA1021+009009999GF102991999999999999999999MA1100811999999MW1001REMMET061RJAK 0400Z 21003KT 9999 FEW030 09/M06 Q1008 RMK 1CU030 A2978;EQDQ01+000000PRSWM2
0185477160999992000022405004+36030+140200FM-15+0029RJAK V0200601N003612200019N0112651N1+01001-00501999999ADDGA1021+009009999GA2021+030009999GF104991999999999999999999MA1100711999999MW1001REMMET075RJAK 0500Z 06007KT 9999 FEW030 SCT100 10/M05 Q1007 RMK 2CU030 3AC100 A2976;EQDQ01+000000PRSWM2
0217477160999992000022405244+36030+140200FM-16+0029RJAK V0200701N006210300019N0112651N1+00801-00501999999ADDGA1021+009009999GA2021+015009999GA3071+030009999GF107991999999999999999999MA1100711999999MW1001REMMET091RJAK 240524Z 07012KT 9999 SCT030 SCT050 BKN100 08/M05 Q1007 RMK 4CU030 3SC050 5AC100 A2976;EQDQ01+000000PRSWM2
0254477160999992000022406004+36030+140200FM-15+0029RJAK V0200801N004610300019N0112651N1+00801-00301999999ADDGA1021+009009999GA2021+015009999GA3071+030009999GF107991999999999999999999MA1100711999999MW1001REMMET128RJAK 0600Z 08009KT 9999 SCT030 SCT050 BKN100 08/M03 Q1007 RMK 4CU030 4SC050 6AC100 A2976 FCST 0615 TEMPO 0612 BKN030CU BKN080AC;EQDQ01+000000PRSWM2
0217477160999992000022406104+36030+140200FM-16+0029RJAK V0201001N002610090019N0112651N1+00801-00401999999ADDGA1071+009009999GA2021+015009999GA3071+030009999GF107991999999999999999999MA1100811999999MW1001REMMET091RJAK 240610Z 10005KT 9999 BKN030 SCT050 BKN100 08/M04 Q1008 RMK 5CU030 4SC050 6AC100 A2976;EQDQ01+000000PRSWM2
0215477160999992000022407004+36030+140200FM-15+0029RJAK V0200401N004110090019N0112651N1+00701-00201999999ADDGA1021+004509999GA2071+009009999GA3071+030009999GF107991999999999999999999MA1100811999999MW1001REMMET089RJAK 0700Z 04008KT 9999 SCT015 BKN030 BKN100 07/M02 Q1008 RMK 3CU015 6CU030 7AC100 A2978;EQDQ01+000000PRSWM2
0333477160999992000022407034+36030+140200FM-16+0029RJAK V0200401N007210090019N0112651N1+00501-00301999999ADDGA1021+004509999GA2071+009009999GA3081+030009999GF108991999999999999999999MA1100911999999MW1801OC101291REMMET183RJAK 240703Z 04014G25KT 9999 -SHRA SCT015 BKN030 OVC100 05/M03 Q1009 RMK 4CU015 7CU030 8AC100 A2981 FCST AMD 0715 TEMPO 0712 3000 BR FEW008ST BKN010ST BKN020CU BECMG 1012 03010KT NSW;EQDQ01+000003PRSWM1Q02    003PRSWM1
0217477160999992000022407254+36030+140200FM-15+0029RJAK V0200401N007210045019N0040001N1+00201+00001999999ADDGA1071+004509999GA2081+009009999GF108991999999999999999999MA1101021999999MW1101MW2851REMMET085RJAK 240725Z 04014KT 4000 -SHSN BR BKN015 OVC030 02/00 Q1010 RMK 5CU015 8CU030 A2982;EQDQ01+000003PRSWM1Q02    003PRSWM1
0331477160999992000022408004+36030+140200FM-15+0029RJAK V0200401N005710090019N0050001N1+00201+00001999999ADDGA1021+004509999GA2071+009009999GA3081+015009999GF108991999999999999999999MA1101021999999MW1101MW2851REMMET183RJAK 0800Z 04011KT 5000 -SHSN BR SCT015 BKN030 OVC050 02/00 Q1010 RMK 3CU015 6CU030 8SC050 A2983 FCST 0817 TEMPO 0812 3000 FEW008ST BKN010ST BKN020CU BECMG 1213 NSW FEW020CU BKN080AC;EQDQ01+000003PRSWM1Q02    003PRSWM1
0156477160999992000022422004+36030+140200FM-15+0029RJAK V0202201N001512200019N0112651N1-00301-01201999999ADDGA1021+009009999GF102991999999999999999999MA1100711999999MW1001REMMET062RJAK 2200Z 22003KT 9999 FEW030 M03/M12 Q1007 RMK 1CU030 A2973;EQDQ01+000000PRSWM2
0188477160999992000022423004+36030+140200FM-15+0029RJAK V0202501N001012200019N0112651N1+00001-01101999999ADDGA1021+009009999GF102991999999999999999999MA1101691999999MW1001REMMET094RJAK 2300Z 25002KT 9999 FEW030 M00/M11 Q1017 RMK 1CU030 A3005 FCST 2308 TEMPO 0106 30008G18KT;EQDQ01+000000PRSWM2
0187477160999992000022500004+36030+140200FM-15+0029RJAK V0202801N001512200019N0112651N1+00101-01101999999ADDGA1021+009009999GF102991999999999999999999MA1101801999999MW1001REMMET093RJAK 0000Z 28003KT 9999 FEW030 01/M11 Q1018 RMK 1CU030 A3007 FCST 0009 TEMPO 0106 30008G18KT;EQDQ01+000000PRSWM2
0155477160999992000022501004+36030+140200FM-15+0029RJAK V02099999999992200019N0112651N1+00201-01101999999ADDGA1021+009009999GF102991999999999999999999MA1101801999999MW1001REMMET061RJAK 0100Z VRB02KT 9999 FEW030 02/M11 Q1018 RMK 1CU030 A3007;EQDQ01+000000PRSWM2
0155477160999992000022502004+36030+140200FM-15+0029RJAK V0203101N002112200019N0112651N1+00301-01201999999ADDGA1021+009009999GF102991999999999999999999MA1101801999999MW1001REMMET061RJAK 0200Z 31004KT 9999 FEW030 03/M12 Q1018 RMK 1CU030 A3006;EQDQ01+000000PRSWM2
0168477160999992000022502024+36030+140200FM-16+0029RJAK V0202601N002612200019N0112651N1+00401-01201999999ADDGA1021+009009999GF102991999999999999999999MA1101691999999MW1001OC100821REMMET066RJAK 250202Z 26005G16KT 9999 FEW030 04/M12 Q1017 RMK 1CU030 A3005;EQDQ01+000000PRSWM2
0157477160999992000022502214+36030+140200FM-16+0029RJAK V0203001N003612200019N0112651N1+00401-01301999999ADDGA1021+009009999GF102991999999999999999999MA1101691999999MW1001REMMET063RJAK 250221Z 30007KT 9999 FEW030 04/M13 Q1017 RMK 1CU030 A3005;EQDQ01+000000PRSWM2
0187477160999992000022503004+36030+140200FM-15+0029RJAK V0203101N003612200019N0112651N1+00401-01201999999ADDGA1021+009009999GF102991999999999999999999MA1101691999999MW1001REMMET093RJAK 0300Z 31007KT 9999 FEW030 04/M12 Q1017 RMK 1CU030 A3003 FCST 0312 TEMPO 0306 31010G20KT;EQDQ01+000000PRSWM2
0168477160999992000022503024+36030+140200FM-16+0029RJAK V0202901N004612200019N0112651N1+00501-01401999999ADDGA1021+009009999GF102991999999999999999999MA1101591999999MW1001OC101081REMMET066RJAK 250302Z 29009G21KT 9999 FEW030 05/M14 Q1016 RMK 1CU030 A3002;EQDQ01+000000PRSWM2
0166477160999992000022504004+36030+140200FM-15+0029RJAK V0203101N003612200019N0112651N1+00501-01501999999ADDGA1021+009009999GF102991999999999999999999MA1101491999999MW1001OC100931REMMET064RJAK 0400Z 31007G18KT 9999 FEW030 05/M15 Q1015 RMK 1CU030 A2999;EQDQ01+000000PRSWM2
0157477160999992000022504444+36030+140200FM-16+0029RJAK V0203001N003612200019N0112651N1+00601-01401999999ADDGA1021+009009999GF102991999999999999999999MA1101591999999MW1001REMMET063RJAK 250444Z 30007KT 9999 FEW030 06/M14 Q1016 RMK 1CU030 A3000;EQDQ01+000000PRSWM2
0166477160999992000022505004+36030+140200FM-15+0029RJAK V0202901N004112200019N0112651N1+00601-01401999999ADDGA1021+009009999GF102991999999999999999999MA1101591999999MW1001OC100981REMMET064RJAK 0500Z 29008G19KT 9999 FEW030 06/M14 Q1016 RMK 1CU030 A3000;EQDQ01+000000PRSWM2
0195477160999992000022506004+36030+140200FM-15+0029RJAK V0202801N004112200019N0112651N1+00601-01401999999ADDGA1021+009009999GF102991999999999999999999MA1101591999999MW1001OC100931REMMET093RJAK 0600Z 28008G18KT 9999 FEW030 06/M14 Q1016 RMK 2CU030 A3001 FCST 0615 BECMG 0809 31008KT;EQDQ01+000000PRSWM2
0166477160999992000022507004+36030+140200FM-15+0029RJAK V0203001N005112200019N0112651N1+00601-01501999999ADDGA1021+009009999GF102991999999999999999999MA1101691999999MW1001OC101031REMMET064RJAK 0700Z 30010G20KT 9999 FEW030 06/M15 Q1017 RMK 1CU030 A3003;EQDQ01+000000PRSWM2
0195477160999992000022508004+36030+140200FM-15+0029RJAK V0203001N003612200019N0112651N1+00501-01601999999ADDGA1021+009009999GF102991999999999999999999MA1101691999999MW1001OC100871REMMET093RJAK 0800Z 30007G17KT 9999 FEW030 05/M16 Q1017 RMK 1CU030 A3003 FCST 0817 BECMG 0910 31007KT;EQDQ01+000000PRSWM2
0207477160999992000022800004+36030+140200FM-15+0029RJAK V0202901N001512200019N0112651N1+00601-01001999999ADDGA1021+009009999GF102991999999999999999999MA1101491999999MW1001REMMET113RJAK 0000Z 29003KT 9999 FEW030 06/M10 Q1015 RMK 1CU030 A2997 FCST 0009 TEMPO 0207 20010G20KT TEMPO 0609 BKN030CU;EQDQ01+000000PRSWM2
0129477160999992000022801004+36030+140200FM-15+0029RJAK V0201901N002112200019N0112651N1+00601-01101999999ADDGF100991999999999999999999MA1101291999999MW1001REMMET051RJAK 0100Z 19004KT 9999 SKC 06/M11 Q1013 RMK A2992;EQDQ01+000000PRSWM2
0171477160999992000022802004+36030+140200FM-15+0029RJAK V0201901N005712200019N0112651N1+00801-01001999999ADDGA1021+066009999GF102991999999999999999999MA1101081999999MW1001OC101131REMMET069RJAK 0200Z 19011G22KT 9999 FEW220 08/M10 Q1011 RMK 1CI220 A2988 P/FR;EQDQ01+000000PRSWM2
0220477160999992000022803004+36030+140200FM-15+0029RJAK V0201901N007212200019N0112651N1+01001-00801999999ADDGA1021+066009999GF102991999999999999999999MA1101021999999MW1001OC101441REMMET118RJAK 0300Z 19014G28KT 9999 FEW220 10/M08 Q1010 RMK 1CI220 A2983 P/FR FCST 0312 TEMPO 0611 BKN030CU BECMG 0910 22010KT;EQDQ01+000000PRSWM2
0195477160999992000022808004+36030+140200FM-15+0029RJAK V0202801N005112200019N0112651N1+01101-01301999999ADDGA1021+007509999GF102991999999999999999999MA1100711999999MW1001OC101031REMMET093RJAK 0800Z 28010G20KT 9999 FEW025 11/M13 Q1007 RMK 2CU025 A2973 FCST 0817 BECMG 1113 31010KT;EQDQ01+000000PRSWM2
0156477160999992000022822004+36030+140200FM-15+0029RJAK V0202701N004112200019N0112651N1+00001-01401999999ADDGA1021+009009999GF102991999999999999999999MA1101591999999MW1001REMMET062RJAK 2200Z 27008KT 9999 FEW030 M00/M14 Q1016 RMK 1CU030 A3002;EQDQ01+000000PRSWM2
0179477160999992000022823004+36030+140200FM-15+0029RJAK V0202701N006212200019N0112651N1+00101-01401999999ADDGF100991999999999999999999MA1101691999999MW1001OC101391REMMET093RJAK 2300Z 27012G27KT 9999 SKC 01/M14 Q1017 RMK A3004 FCST 2308 TEMPO 0608 BKN030CU BKN100AC;EQDQ01+000000PRSWM2
0179477160999992000022900004+36030+140200FM-15+0029RJAK V0202901N006712200019N0112651N1+00201-01301999999ADDGF100991999999999999999999MA1101691999999MW1001OC101341REMMET093RJAK 0000Z 29013G26KT 9999 SKC 02/M13 Q1017 RMK A3005 FCST 0009 TEMPO 0609 BKN030CU BKN100AC;EQDQ01+000000PRSWM2
0166477160999992000022901004+36030+140200FM-15+0029RJAK V0202801N006712200019N0112651N1+00401-01301999999ADDGA1021+009009999GF102991999999999999999999MA1101801999999MW1001OC101231REMMET064RJAK 0100Z 28013G24KT 9999 FEW030 04/M13 Q1018 RMK 1CU030 A3007;EQDQ01+000000PRSWM2
0166477160999992000022902004+36030+140200FM-15+0029RJAK V0202901N006212200019N0112651N1+00501-01201999999ADDGA1021+009009999GF102991999999999999999999MA1101801999999MW1001OC101181REMMET064RJAK 0200Z 29012G23KT 9999 FEW030 05/M12 Q1018 RMK 1CU030 A3006;EQDQ01+000000PRSWM2
0224477160999992000022903004+36030+140200FM-15+0029RJAK V0202901N006212200019N0112651N1+00601-01201999999ADDGA1021+009009999GF104991999999999999999999MA1101691999999MW1001OC101131REMMET122RJAK 0300Z 29012G22KT 9999 SCT030 06/M12 Q1017 RMK 4CU030 A3005 FCST 0312 TEMPO 0509 BKN030CU BKN100AC BECMG 1112 30008KT;EQDQ01+000000PRSWM2
0196477160999992000022904004+36030+140200FM-15+0029RJAK V0203001N005710090019N0112651N1+00601-01201999999ADDGA1021+006009999GA2071+009009999GF107991999999999999999999MA1101691999999MW1001OC101181REMMET078RJAK 0400Z 30011G23KT 9999 FEW020 BKN030 06/M12 Q1017 RMK 2CU020 5CU030 A3005;EQDQ01+000000PRSWM2
0196477160999992000022905004+36030+140200FM-15+0029RJAK V0202901N006210090019N0112651N1+00701-01201999999ADDGA1021+006009999GA2071+009009999GF107991999999999999999999MA1101691999999MW1001OC101291REMMET078RJAK 0500Z 29012G25KT 9999 FEW020 BKN030 07/M12 Q1017 RMK 1CU020 5CU030 A3003;EQDQ01+000000PRSWM2
0225477160999992000022906004+36030+140200FM-15+0029RJAK V0202901N005710090019N0112651N1+00601-01301999999ADDGA1021+006009999GA2071+009009999GF107991999999999999999999MA1101691999999MW1001OC101291REMMET107RJAK 0600Z 29011G25KT 9999 FEW020 BKN030 06/M13 Q1017 RMK 1CU020 5CU030 A3005 FCST 0615 BECMG 1011 30008KT;EQDQ01+000000PRSWM2
0195477160999992000022908004+36030+140200FM-15+0029RJAK V0203001N006712200019N0112651N1+00501-01501999999ADDGA1021+009009999GF102991999999999999999999MA1101901999999MW1001OC101291REMMET093RJAK 0800Z 30013G25KT 9999 FEW030 05/M15 Q1019 RMK 1CU030 A3009 FCST 0817 BECMG 1011 30008KT;EQDQ01+000000PRSWM2
0156477160999992000022922004+36030+140200FM-15+0029RJAK V0203101N001012200019N0112651N1-00101-01201999999ADDGA1021+007509999GF102991999999999999999999MA1102301999999MW1001REMMET062RJAK 2200Z 31002KT 9999 FEW025 M01/M12 Q1023 RMK 1CU025 A3022;EQDQ01+000000PRSWM2
0171477160999992000022923004+36030+140200FM-15+0029RJAK V0200401N001012200019N0112651N1+00101-01201999999ADDGA1021+007509999GF102991999999999999999999MA1102401999999MW1001REMMET077RJAK 2300Z 04002KT 9999 FEW025 01/M12 Q1024 RMK 1CU025 A3025 FCST 2308 NOSIG;EQDQ01+000000PRSWM2
0145477160999992000030100004+36030+140200FM-15+0029RJAK V0203201N002612200019N0112651N1+00301-01201999999ADDGF100991999999999999999999MA1102511999999MW1001REMMET067RJAK 0000Z 32005KT 9999 SKC 03/M12 Q1025 RMK A3028 FCST 0009 NOSIG;EQDQ01+000000PRSWM2
0129477160999992000030101004+36030+140200FM-15+0029RJAK V0202901N003612200019N0112651N1+00501-01201999999ADDGF100991999999999999999999MA1102511999999MW1001REMMET051RJAK 0100Z 29007KT 9999 SKC 05/M12 Q1025 RMK A3028;EQDQ01+000000PRSWM2
0155477160999992000030102004+36030+140200FM-15+0029RJAK V0203001N004112200019N0112651N1+00601-01101999999ADDGA1021+009009999GF102991999999999999999999MA1102511999999MW1001REMMET061RJAK 0200Z 30008KT 9999 FEW030 06/M11 Q1025 RMK 1CU030 A3028;EQDQ01+000000PRSWM2
0168477160999992000030102024+36030+140200FM-16+0029RJAK V0203101N003612200019N0112651N1+00601-01101999999ADDGA1021+009009999GF102991999999999999999999MA1102511999999MW1001OC100981REMMET066RJAK 010202Z 31007G19KT 9999 FEW030 06/M11 Q1025 RMK 1CU030 A3027;EQDQ01+000000PRSWM2
0217477160999992000030103004+36030+140200FM-15+0029RJAK V0203001N003112200019N0112651N1+00701-01101999999ADDGA1021+009009999GA2021+069009999GF104991999999999999999999MA1102401999999MW1001REMMET107RJAK 0300Z 30006KT 9999 FEW030 SCT230 07/M11 Q1024 RMK 1CU030 3CI230 A3026 FCST 0312 TEMPO 0306 30008G18KT;EQDQ01+000000PRSWM2
0155477160999992000030104004+36030+140200FM-15+0029RJAK V0203201N003112200019N0112651N1+00801-01001999999ADDGA1021+009009999GF102991999999999999999999MA1102301999999MW1001REMMET061RJAK 0400Z 32006KT 9999 FEW030 08/M10 Q1023 RMK 1CU030 A3022;EQDQ01+000000PRSWM2
0168477160999992000030104404+36030+140200FM-16+0029RJAK V0202301N002612200019N0112651N1+00901-01101999999ADDGA1021+009009999GF102991999999999999999999MA1102301999999MW1001OC100821REMMET066RJAK 010440Z 23005G16KT 9999 FEW030 09/M11 Q1023 RMK 1CU030 A3021;EQDQ01+000000PRSWM2
0163477160999992000030105004+36030+140200FM-15+0029RJAK V0203101N003612200019N0112651N1+00901-01101999999ADDGA1021+009009999GF102991999999999999999999MA1102301999999MW1001REMMET069RJAK 0500Z 31007KT 230V010 9999 FEW030 09/M11 Q1023 RMK 1CU030 A3021;EQDQ01+000000PRSWM2
0176477160999992000030105024+36030+140200FM-16+0029RJAK V0202901N004112200019N0112651N1+01001-01201999999ADDGA1021+009009999GF102991999999999999999999MA1102301999999MW1001OC101031REMMET074RJAK 010502Z 29008G20KT 230V320 9999 FEW030 10/M12 Q1023 RMK 1CU030 A3021;EQDQ01+000000PRSWM2
0203477160999992000030106004+36030+140200FM-15+0029RJAK V0203101N003612200019N0112651N1+01001-01201999999ADDGA1021+009009999GF102991999999999999999999MA1102301999999MW1001OC100981REMMET101RJAK 0600Z 31007G19KT 260V030 9999 FEW030 10/M12 Q1023 RMK 1CU030 A3021 FCST 0615 BECMG 0709 31007KT;EQDQ01+000000PRSWM2
0129477160999992000030107004+36030+140200FM-15+0029RJAK V0203001N003612200019N0112651N1+01001-01301999999ADDGF100991999999999999999999MA1102301999999MW1001REMMET051RJAK 0700Z 30007KT 9999 SKC 10/M13 Q1023 RMK A3021;EQDQ01+000000PRSWM2
0145477160999992000030108004+36030+140200FM-15+0029RJAK V0203001N003112200019N0112651N1+01001-01301999999ADDGF100991999999999999999999MA1102301999999MW1001REMMET067RJAK 0800Z 30006KT 9999 SKC 10/M13 Q1023 RMK A3022 FCST 0817 NOSIG;EQDQ01+000000PRSWM2
0146477160999992000030123004+36030+140200FM-15+0029RJAK V02099999999992200019N0112651N1+00001-00701999999ADDGF100991999999999999999999MA1102301999999MW1001REMMET068RJAK 2300Z VRB01KT 9999 SKC M00/M07 Q1023 RMK A3021 FCST 2308 NOSIG;EQDQ01+000000PRSWM2
0145477160999992000030200004+36030+140200FM-15+0029RJAK V02099999999992200019N0112651N1+00401-00501999999ADDGF100991999999999999999999MA1102301999999MW1001REMMET067RJAK 0000Z VRB02KT 9999 SKC 04/M05 Q1023 RMK A3021 FCST 0009 NOSIG;EQDQ01+000000PRSWM2
0129477160999992000030201004+36030+140200FM-15+0029RJAK V02099999999992200019N0112651N1+00601-00301999999ADDGF100991999999999999999999MA1102201999999MW1001REMMET051RJAK 0100Z VRB01KT 9999 SKC 06/M03 Q1022 RMK A3020;EQDQ01+000000PRSWM2
0129477160999992000030202004+36030+140200FM-15+0029RJAK V0202601N000512200019N0112651N1+00801-00401999999ADDGF100991999999999999999999MA1102101999999MW1001REMMET051RJAK 0200Z 26001KT 9999 SKC 08/M04 Q1021 RMK A3017;EQDQ01+000000PRSWM2
0145477160999992000030203004+36030+140200FM-15+0029RJAK V0203101N001512200019N0112651N1+00901-00401999999ADDGF100991999999999999999999MA1102101999999MW1001REMMET067RJAK 0300Z 31003KT 9999 SKC 09/M04 Q1021 RMK A3017 FCST 0312 NOSIG;EQDQ01+000000PRSWM2
0134477160999992000030204004+36030+140200FM-15+0029RJAK V02099999999992200019N0112651N1+01101-00501999999ADDGF100991999999999999999999MA1101901999999MW1001REMMET056RJAK 0400Z VRB03KT 9999 SKC 11/M05 Q1019 RMK A3010 P/FR;EQDQ01+000000PRSWM2
0129477160999992000030205004+36030+140200FM-15+0029RJAK V02099999999992200019N0112651N1+01101-00501999999ADDGF100991999999999999999999MA1101801999999MW1001REMMET051RJAK 0500Z VRB02KT 9999 SKC 11/M05 Q1018 RMK A3008;EQDQ01+000000PRSWM2
0145477160999992000030223004+36030+140200FM-15+0029RJAK V0202801N001012200019N0060001N1+00301-00101999999ADDGF100991999999999999999999MA1102511999999MW1001REMMET067RJAK 2300Z 28002KT 6000 SKC 03/M01 Q1025 RMK A3029 FCST 2308 NOSIG;EQDQ01+000000PRSWM2
0160477160999992000030300004+36030+140200FM-15+0029RJAK V0202701N001012200019N9999999N1+00801+00101999999ADDGF100991999999999999999999MA1102611999999MW1001REMMET066RJAK 0000Z 27002KT 6000 SKC 08/01 Q1026 RMK A3031 FCST 0009 NOSIG;EQDQ01+060002VODIS Q02+000000PRSWM2
0128477160999992000030301004+36030+140200FM-15+0029RJAK V02099999999992200019N0080001N1+01001+00101999999ADDGF100991999999999999999999MA1102611999999MW1001REMMET050RJAK 0100Z VRB02KT 8000 SKC 10/01 Q1026 RMK A3031;EQDQ01+000000PRSWM2
0137477160999992000030302004+36030+140200FM-15+0029RJAK V0201901N002112200019N0112651N1+01201-00301999999ADDGF100991999999999999999999MA1102611999999MW1001REMMET059RJAK 0200Z 19004KT 120V240 9999 SKC 12/M03 Q1026 RMK A3030;EQDQ01+000000PRSWM2
0153477160999992000030303004+36030+140200FM-15+0029RJAK V0202001N002612200019N0112651N1+01301-00601999999ADDGF100991999999999999999999MA1102511999999MW1001REMMET075RJAK 0300Z 20005KT 180V320 9999 SKC 13/M06 Q1025 RMK A3028 FCST 0312 NOSIG;EQDQ01+000000PRSWM2
0155477160999992000030304004+36030+140200FM-15+0029RJAK V02099999999992200019N0112651N1+01401-00801999999ADDGA1021+069009999GF102991999999999999999999MA1102401999999MW1001REMMET061RJAK 0400Z VRB03KT 9999 FEW230 14/M08 Q1024 RMK 2CI230 A3025;EQDQ01+000000PRSWM2
0163477160999992000030305004+36030+140200FM-15+0029RJAK V0202301N004110690019N0112651N1+01501-00801999999ADDGA1071+069009999GF107991999999999999999999MA1102401999999MW1001REMMET069RJAK 0500Z 23008KT 210V320 9999 BKN230 15/M08 Q1024 RMK 5CI230 A3024;EQDQ01+000000PRSWM2
0171477160999992000030306004+36030+140200FM-15+0029RJAK V0201501N002110690019N0112651N1+01501-00901999999ADDGA1071+069009999GF107991999999999999999999MA1102401999999MW1001REMMET077RJAK 0600Z 15004KT 9999 BKN230 15/M09 Q1024 RMK 5CI230 A3024 FCST 0615 NOSIG;EQDQ01+000000PRSWM2
0155477160999992000030307004+36030+140200FM-15+0029RJAK V0201901N004112200019N0112651N1+01501-00801999999ADDGA1021+069009999GF102991999999999999999999MA1102301999999MW1001REMMET061RJAK 0700Z 19008KT 9999 FEW230 15/M08 Q1023 RMK 2CI230 A3022;EQDQ01+000000PRSWM2
0201477160999992000030308004+36030+140200FM-15+0029RJAK V0202001N003112200019N0112651N1+01401-00901999999ADDGA1021+030009999GA2021+069009999GF104991999999999999999999MA1102301999999MW1001REMMET091RJAK 0800Z 20006KT 9999 FEW100 SCT230 14/M09 Q1023 RMK 1AC100 3CI230 A3021 FCST 0817 NOSIG;EQDQ01+000000PRSWM2
0234477160999992000030522004+36030+140200FM-15+0029RJAK V0200401N005110120019N0112651N1+00401+00001999999ADDGA1021+007509999GA2071+012009999GA3071+030009999GF107991999999999999999999MA1101391999999MW1611REMMET092RJAK 2200Z 04010KT 9999 -RA FEW025 BKN040 BKN100 04/00 Q1014 RMK 2CU025 6SC040 6AC100 A2995;EQDQ01+000003PRSWM1Q02    003PRSWM1
0298477160999992000030523004+36030+140200FM-15+0029RJAK V0200301N004610120019N0112651N1+00401+00001999999ADDGA1021+007509999GA2071+012009999GA3071+030009999GF107991999999999999999999MA1101391999999MW1611REMMET156RJAK 2300Z 03009KT 9999 -RA FEW025 BKN040 BKN100 04/M00 Q1014 RMK 2CU025 6SC040 6AC100 A2996 FCST 2308 BECMG 0003 NSW BECMG 0306 FEW025CU SCT040SC BKN100AC;EQDQ01+000003PRSWM1Q02    003PRSWM1
0297477160999992000030600004+36030+140200FM-15+0029RJAK V0200301N005110120019N0112651N1+00401+00001999999ADDGA1021+007509999GA2071+012009999GA3071+030009999GF107991999999999999999999MA1101391999999MW1611REMMET155RJAK 0000Z 03010KT 9999 -RA FEW025 BKN040 BKN100 04/00 Q1014 RMK 1CU025 5SC040 6AC100 A2996 FCST 0009 BECMG 0103 NSW BECMG 0406 FEW025CU SCT040SC BKN100AC;EQDQ01+000003PRSWM1Q02    003PRSWM1
0234477160999992000030601004+36030+140200FM-15+0029RJAK V0200301N004610120019N0112651N1+00501+00001999999ADDGA1021+007509999GA2071+012009999GA3071+024009999GF107991999999999999999999MA1101391999999MW1611REMMET092RJAK 0100Z 03009KT 9999 -RA FEW025 BKN040 BKN080 05/00 Q1014 RMK 1CU025 5SC040 6AC080 A2996;EQDQ01+000003PRSWM1Q02    003PRSWM1
0235477160999992000030602004+36030+140200FM-15+0029RJAK V0200401N005110120019N0112651N1+00501-00101999999ADDGA1021+007509999GA2071+012009999GA3081+024009999GF108991999999999999999999MA1101391999999MW1611REMMET093RJAK 0200Z 04010KT 9999 -RA FEW025 BKN040 OVC080 05/M01 Q1014 RMK 1CU025 7SC040 8AC080 A2996;EQDQ01+000003PRSWM1Q02    003PRSWM1
0187477160999992000030602414+36030+140200FM-16+0029RJAK V0200401N006210120019N0112651N1+00601-00101999999ADDGA1021+007509999GA2071+012009999GF107991999999999999999999MA1101391999999MW1001REMMET077RJAK 060241Z 04012KT 9999 FEW025 BKN040 06/M01 Q1014 RMK 1CU025 7SC040 A2994;EQDQ01+000000PRSWM2
0201477160999992000030603004+36030+140200FM-15+0029RJAK V0200401N004110120019N0112651N1+00601-00101999999ADDGA1021+007509999GA2071+012009999GF107991999999999999999999MA1101391999999MW1001REMMET091RJAK 0300Z 04008KT 9999 FEW025 BKN040 06/M01 Q1014 RMK 1CU025 7SC040 A2994 FCST 0312 NOSIG;EQDQ01+000000PRSWM2
0185477160999992000030604004+36030+140200FM-15+0029RJAK V0200501N004110120019N0112651N1+00701+00001999999ADDGA1021+007509999GA2071+012009999GF107991999999999999999999MA1101291999999MW1001REMMET075RJAK 0400Z 05008KT 9999 FEW025 BKN040 07/M00 Q1013 RMK 1CU025 7SC040 A2991;EQDQ01+000000PRSWM2
0185477160999992000030605004+36030+140200FM-15+0029RJAK V0200301N003610120019N0112651N1+00701-00101999999ADDGA1021+007509999GA2071+012009999GF107991999999999999999999MA1101191999999MW1001REMMET075RJAK 0500Z 03007KT 9999 FEW025 BKN040 07/M01 Q1012 RMK 2SC025 7SC040 A2990;EQDQ01+000000PRSWM2
0201477160999992000030606004+36030+140200FM-15+0029RJAK V0200201N003610120019N0112651N1+00701-00101999999ADDGA1021+007509999GA2071+012009999GF107991999999999999999999MA1101191999999MW1001REMMET091RJAK 0600Z 02007KT 9999 FEW025 BKN040 07/M01 Q1012 RMK 2SC025 7SC040 A2989 FCST 0615 NOSIG;EQDQ01+000000PRSWM2
0185477160999992000030607004+36030+140200FM-15+0029RJAK V0200101N002610120019N0112651N1+00701-00101999999ADDGA1021+007509999GA2071+012009999GF107991999999999999999999MA1101191999999MW1001REMMET075RJAK 0700Z 01005KT 9999 FEW025 BKN040 07/M01 Q1012 RMK 1SC025 7SC040 A2989;EQDQ01+000000PRSWM2
0201477160999992000030608004+36030+140200FM-15+0029RJAK V0200601N002110120019N0112651N1+00701-00101999999ADDGA1021+007509999GA2071+012009999GF107991999999999999999999MA1101191999999MW1001REMMET091RJAK 0800Z 06004KT 9999 FEW025 BKN040 07/M01 Q1012 RMK 1SC025 7SC040 A2989 FCST 0817 NOSIG;EQDQ01+000000PRSWM2
0148477160999992000030622004+36030+140200FM-15+0029RJAK V0202601N001512200019N0040001N1+00201-00101999999ADDGF100991999999999999999999MA1100811999999MW1101REMMET054RJAK 2200Z 26003KT 4000 BR SKC 02/M01 Q1008 RMK A2977;EQDQ01+000003PRSWM1Q02    003PRSWM1
0195477160999992000030623004+36030+140200FM-15+0029RJAK V0202801N002612200019N0045001N1+00401-00101999999ADDGF100991999999999999999999MA1100811999999MW1101REMMET101RJAK 2300Z 28005KT 4500 BR SKC 04/M01 Q1008 RMK A2977 FCST 2308 BECMG 2300 NSW TEMPO 0308 28010G20KT;EQDQ01+000003PRSWM1Q02    003PRSWM1
0150477160999992000030623154+36030+140200FM-16+0029RJAK V0202701N001512200019N0050001N1+00501+00001999999ADDGF100991999999999999999999MA1100811999999MW1101REMMET056RJAK 062315Z 27003KT 5000 BR SKC 05/M00 Q1008 RMK A2976;EQDQ01+000003PRSWM1Q02    003PRSWM1
0179477160999992000030700004+36030+140200FM-15+0029RJAK V0202201N002112200019N0050001N1+00601+00001999999ADDGF100991999999999999999999MA1100711999999MW1101REMMET085RJAK 0000Z 22004KT 5000 BR SKC 06/00 Q1007 RMK A2975 FCST 0009 TEMPO 0308 28010G20KT;EQDQ01+000003PRSWM1Q02    003PRSWM1
0128477160999992000030701004+36030+140200FM-15+0029RJAK V0202301N001512200019N0060001N1+00801+00101999999ADDGF100991999999999999999999MA1100711999999MW1001REMMET050RJAK 0100Z 23003KT 6000 SKC 08/01 Q1007 RMK A2973;EQDQ01+000000PRSWM2
0144477160999992000030702004+36030+140200FM-15+0029RJAK V0201901N003112200019N9999999N1+01101+00201999999ADDGF100991999999999999999999MA1100611999999MW1001REMMET050RJAK 0200Z 19006KT 6000 SKC 11/02 Q1006 RMK A2972;EQDQ01+060002VODIS Q02+000000PRSWM2
0176477160999992000030703004+36030+140200FM-15+0029RJAK V0201801N002112200019N9999999N1+01201+00201999999ADDGF100991999999999999999999MA1100511999999MW1001REMMET082RJAK 0300Z 18004KT 6000 SKC 12/02 Q1005 RMK A2969 FCST 0312 TEMPO 0408 28010G20KT;EQDQ01+060002VODIS Q02+000000PRSWM2
0144477160999992000030704004+36030+140200FM-15+0029RJAK V0202201N002112200019N9999999N1+01401+00001999999ADDGF100991999999999999999999MA1100411999999MW1001REMMET050RJAK 0400Z 22004KT 6000 SKC 14/00 Q1004 RMK A2965;EQDQ01+060002VODIS Q02+000000PRSWM2
0155477160999992000030705004+36030+140200FM-15+0029RJAK V0202301N001512200019N0112651N1+01501-00501999999ADDGA1021+009009999GF102991999999999999999999MA1100311999999MW1001REMMET061RJAK 0500Z 23003KT 9999 FEW030 15/M05 Q1003 RMK 1CU030 A2962;EQDQ01+000000PRSWM2
0171477160999992000030706004+36030+140200FM-15+0029RJAK V0202101N002612200019N0112651N1+01601-00601999999ADDGA1021+009009999GF102991999999999999999999MA1100311999999MW1001REMMET077RJAK 0600Z 21005KT 9999 FEW030 16/M06 Q1003 RMK 2CU030 A2962 FCST 0615 NOSIG;EQDQ01+000000PRSWM2
0155477160999992000030707004+36030+140200FM-15+0029RJAK V0202101N003112200019N0112651N1+01601-00601999999ADDGA1021+009009999GF102991999999999999999999MA1100311999999MW1001REMMET061RJAK 0700Z 21006KT 9999 FEW030 16/M06 Q1003 RMK 1CU030 A2962;EQDQ01+000000PRSWM2
0171477160999992000030708004+36030+140200FM-15+0029RJAK V02099999999992200019N0112651N1+01501-00601999999ADDGA1021+015009999GF102991999999999999999999MA1100311999999MW1001REMMET077RJAK 0800Z VRB01KT 9999 FEW050 15/M06 Q1003 RMK 2SC050 A2962 FCST 0817 NOSIG;EQDQ01+000000PRSWM2
0155477160999992000030722004+36030+140200FM-15+0029RJAK V0202901N002112200019N0112651N1+00401-00901999999ADDGA1021+012009999GF102991999999999999999999MA1100811999999MW1001REMMET061RJAK 2200Z 29004KT 9999 FEW040 04/M09 Q1008 RMK 1SC040 A2977;EQDQ01+000000PRSWM2
0171477160999992000030723004+36030+140200FM-15+0029RJAK V0203201N001512200019N0112651N1+00601-00901999999ADDGA1021+030009999GF102991999999999999999999MA1100811999999MW1001REMMET077RJAK 2300Z 32003KT 9999 FEW100 06/M09 Q1008 RMK 1AC100 A2977 FCST 2308 NOSIG;EQDQ01+000000PRSWM2
0187477160999992000030800004+36030+140200FM-15+0029RJAK V0203001N004112200019N0112651N1+00701-01001999999ADDGA1021+009009999GF102991999999999999999999MA1100811999999MW1001REMMET093RJAK 0000Z 30008KT 9999 FEW030 07/M10 Q1008 RMK 1CU030 A2977 FCST 0009 TEMPO 0108 30010G20KT;EQDQ01+000000PRSWM2
0142477160999992000030800204+36030+140200FM-15+0029RJAK V0202901N004612200019N0112651N1+00801-01101999999ADDGF100991999999999999999999MA1100811999999MW1001OC101081REMMET056RJAK 080020Z 29009G21KT 9999 SKC 08/M11 Q1008 RMK A2977;EQDQ01+000000PRSWM2
0166477160999992000030801004+36030+140200FM-15+0029RJAK V0203001N004112200019N0112651N1+00801-01201999999ADDGA1021+009009999GF102991999999999999999999MA1100811999999MW1001OC100931REMMET064RJAK 0100Z 30008G18KT 9999 FEW030 08/M12 Q1008 RMK 1CU030 A2976;EQDQ01+000000PRSWM2
0155477160999992000030802004+36030+140200FM-15+0029RJAK V0203001N004112200019N0112651N1+00901-01301999999ADDGA1021+009009999GF102991999999999999999999MA1100711999999MW1001REMMET061RJAK 0200Z 30008KT 9999 FEW030 09/M13 Q1007 RMK 1CU030 A2975;EQDQ01+000000PRSWM2
0168477160999992000030802024+36030+140200FM-16+0029RJAK V0202901N003612200019N0112651N1+00901-01301999999ADDGA1021+009009999GF102991999999999999999999MA1100711999999MW1001OC101081REMMET066RJAK 080202Z 29007G21KT 9999 FEW030 09/M13 Q1007 RMK 1CU030 A2975;EQDQ01+000000PRSWM2
0195477160999992000030803004+36030+140200FM-15+0029RJAK V0202501N004112200019N0112651N1+01001-01201999999ADDGA1021+009009999GF102991999999999999999999MA1100611999999MW1001OC100931REMMET093RJAK 0300Z 25008G18KT 9999 FEW030 10/M12 Q1006 RMK 1CU030 A2973 FCST 0312 BECMG 0608 30010KT;EQDQ01+000000PRSWM2
0155477160999992000030804004+36030+140200FM-15+0029RJAK V0202801N003112200019N0112651N1+01001-01101999999ADDGA1021+009009999GF102991999999999999999999MA1100511999999MW1001REMMET061RJAK 0400Z 28006KT 9999 FEW030 10/M11 Q1005 RMK 2CU030 A2970;EQDQ01+000000PRSWM2
0193477160999992000030805004+36030+140200FM-15+0029RJAK V0203301N002610120019N0112651N1+01001-01001999999ADDGA1021+009009999GA2071+012009999GF107991999999999999999999MA1100411999999MW1001REMMET083RJAK 0500Z 33005KT 260V020 9999 SCT030 BKN040 10/M10 Q1004 RMK 3CU030 5SC040 A2966;EQDQ01+000000PRSWM2
0245477160999992000030806004+36030+140200FM-15+0029RJAK V0202901N004110105019N0112651N1+01001-01001999999ADDGA1021+006009999GA2021+009009999GA3071+010509999GF107991999999999999999999MA1100411999999MW1001REMMET119RJAK 0600Z 29008KT 9999 FEW020 SCT030 BKN035 10/M10 Q1004 RMK 1CU020 3CU030 6SC035 A2966 FCST 0615 BECMG 1415 SCT035SC;EQDQ01+000000PRSWM2
0250477160999992000030806224+36030+140200FM-16+0029RJAK V0202401N005110105019N0112651N1+00901-00601999999ADDGA1021+006009999GA2021+007509999GA3071+010509999GF107991999999999999999999MA1100511999999MW1801OC101081REMMET100RJAK 080622Z 24010G21KT 9999 -SHRA FEW020 SCT025 BKN035 09/M06 Q1005 RMK 2CU020 4CU025 6SC035 A2968;EQDQ01+000003PRSWM1Q02    003PRSWM1
0215477160999992000030807004+36030+140200FM-15+0029RJAK V0202201N004110120019N0112651N1+00801-00501999999ADDGA1021+006009999GA2021+007509999GA3071+012009999GF107991999999999999999999MA1100511999999MW1001REMMET089RJAK 0700Z 22008KT 9999 FEW020 SCT025 BKN040 08/M05 Q1005 RMK 1CU020 4CU025 5SC040 A2968;EQDQ01+000000PRSWM2
0187477160999992000030807284+36030+140200FM-16+0029RJAK V0201901N002612200019N0112651N1+00901-00501999999ADDGA1021+007509999GA2021+009009999GF104991999999999999999999MA1100511999999MW1001REMMET077RJAK 080728Z 19005KT 9999 FEW025 SCT030 09/M05 Q1005 RMK 2CU025 4CU030 A2969;EQDQ01+000000PRSWM2
0201477160999992000030808004+36030+140200FM-15+0029RJAK V0201701N001512200019N0112651N1+00901-00501999999ADDGA1021+007509999GA2021+009009999GF104991999999999999999999MA1100511999999MW1001REMMET091RJAK 0800Z 17003KT 9999 FEW025 SCT030 09/M05 Q1005 RMK 2CU025 3CU030 A2969 FCST 0817 NOSIG;EQDQ01+000000PRSWM2
0156477160999992000030822004+36030+140200FM-15+0029RJAK V0202401N001012200019N0112651N1-00101-00701999999ADDGA1021+009009999GF102991999999999999999999MA1101081999999MW1001REMMET062RJAK 2200Z 24002KT 9999 FEW030 M01/M07 Q1011 RMK 1CU030 A2987;EQDQ01+000000PRSWM2
0187477160999992000030823004+36030+140200FM-15+0029RJAK V0202801N001512200019N0112651N1+00301-00801999999ADDGA1021+009009999GF102991999999999999999999MA1101081999999MW1001REMMET093RJAK 2300Z 28003KT 9999 FEW030 03/M08 Q1011 RMK 1CU030 A2986 FCST 2308 TEMPO 0108 29011G22KT;EQDQ01+000000PRSWM2
0187477160999992000030900004+36030+140200FM-15+0029RJAK V0202801N003112200019N0112651N1+00501-01001999999ADDGA1021+009009999GF102991999999999999999999MA1101081999999MW1001REMMET093RJAK 0000Z 28006KT 9999 FEW030 05/M10 Q1011 RMK 1CU030 A2988 FCST 0009 TEMPO 0108 29010G22KT;EQDQ01+000000PRSWM2
0155477160999992000030901004+36030+140200FM-15+0029RJAK V02099999999992200019N0112651N1+00601-00901999999ADDGA1021+009009999GF102991999999999999999999MA1101081999999MW1001REMMET061RJAK 0100Z VRB03KT 9999 FEW030 06/M09 Q1011 RMK 1CU030 A2988;EQDQ01+000000PRSWM2
0155477160999992000030902004+36030+140200FM-15+0029RJAK V0202901N002612200019N0112651N1+00801-00901999999ADDGA1021+009009999GF102991999999999999999999MA1101081999999MW1001REMMET061RJAK 0200Z 29005KT 9999 FEW030 08/M09 Q1011 RMK 1CU030 A2987;EQDQ01+000000PRSWM2
0168477160999992000030902304+36030+140200FM-15+0029RJAK V0203001N003612200019N0112651N1+00801-01001999999ADDGA1021+007509999GF102991999999999999999999MA1101081999999MW1001OC100981REMMET066RJAK 090230Z 30007G19KT 9999 FEW025 08/M10 Q1011 RMK 1CU025 A2987;EQDQ01+000000PRSWM2
0195477160999992000030903004+36030+140200FM-15+0029RJAK V0203001N003112200019N0112651N1+00801-01001999999ADDGA1021+007509999GF102991999999999999999999MA1101081999999MW1001OC101031REMMET093RJAK 0300Z 30006G20KT 9999 FEW025 08/M10 Q1011 RMK 1CU025 A2986 FCST 0312 BECMG 0708 31010KT;EQDQ01+000000PRSWM2
0166477160999992000030904004+36030+140200FM-15+0029RJAK V0202901N005112200019N0112651N1+00901-01101999999ADDGA1021+009009999GF102991999999999999999999MA1101021999999MW1001OC101131REMMET064RJAK 0400Z 29010G22KT 9999 FEW030 09/M11 Q1010 RMK 2CU030 A2984;EQDQ01+000000PRSWM2
0166477160999992000030905004+36030+140200FM-15+0029RJAK V0203001N006712200019N0112651N1+00901-01201999999ADDGA1021+009009999GF102991999999999999999999MA1101021999999MW1001OC101341REMMET064RJAK 0500Z 30013G26KT 9999 FEW030 09/M12 Q1010 RMK 2CU030 A2983;EQDQ01+000000PRSWM2
0195477160999992000030906004+36030+140200FM-15+0029RJAK V0203101N006712200019N0112651N1+00901-01201999999ADDGA1021+009009999GF102991999999999999999999MA1101021999999MW1001OC101491REMMET093RJAK 0600Z 31013G29KT 9999 FEW030 09/M12 Q1010 RMK 1CU030 A2985 FCST 0615 BECMG 0708 33010KT;EQDQ01+000000PRSWM2
0166477160999992000030907004+36030+140200FM-15+0029RJAK V0203301N006212200019N0112651N1+00801-01401999999ADDGA1021+009009999GF102991999999999999999999MA1101081999999MW1001OC101341REMMET064RJAK 0700Z 33012G26KT 9999 FEW030 08/M14 Q1011 RMK 1CU030 A2988;EQDQ01+000000PRSWM2
0195477160999992000030908004+36030+140200FM-15+0029RJAK V0203301N003612200019N0112651N1+00701-01401999999ADDGA1021+009009999GF102991999999999999999999MA1101291999999MW1001OC100931REMMET093RJAK 0800Z 33007G18KT 9999 FEW030 07/M14 Q1013 RMK 1CU030 A2991 FCST 0817 BECMG 0809 33010KT;EQDQ01+000000PRSWM2
0155477160999992000030922004+36030+140200FM-15+0029RJAK V0202701N002612200019N0112651N1+00001-00901999999ADDGA1021+007509999GF102991999999999999999999MA1102101999999MW1001REMMET061RJAK 2200Z 27005KT 9999 FEW025 00/M09 Q1021 RMK 1CU025 A3016;EQDQ01+000000PRSWM2
0187477160999992000030923004+36030+140200FM-15+0029RJAK V0202701N004112200019N0112651N1+00201-01001999999ADDGA1021+007509999GF102991999999999999999999MA1102201999999MW1001REMMET093RJAK 2300Z 27008KT 9999 FEW025 02/M10 Q1022 RMK 1CU025 A3018 FCST 2308 TEMPO 2306 27010G23KT;EQDQ01+000000PRSWM2
0168477160999992000030923124+36030+140200FM-16+0029RJAK V0202701N004612200019N0112651N1+00301-01101999999ADDGA1021+007509999GF102991999999999999999999MA1102201999999MW1001OC101081REMMET066RJAK 092312Z 27009G21KT 9999 FEW025 03/M11 Q1022 RMK 1CU025 A3018;EQDQ01+000000PRSWM2
0195477160999992000031000004+36030+140200FM-15+0029RJAK V0202901N005112200019N0112651N1+00401-01201999999ADDGA1021+007509999GF102991999999999999999999MA1102201999999MW1001OC101031REMMET093RJAK 0000Z 29010G20KT 9999 FEW025 04/M12 Q1022 RMK 1CU025 A3018 FCST 0009 BECMG 0608 31010KT;EQDQ01+000000PRSWM2
0166477160999992000031001004+36030+140200FM-15+0029RJAK V0202901N006712200019N0112651N1+00501-01301999999ADDGA1021+007509999GF102991999999999999999999MA1102101999999MW1001OC101391REMMET064RJAK 0100Z 29013G27KT 9999 FEW025 05/M13 Q1021 RMK 1CU025 A3017;EQDQ01+000000PRSWM2
0174477160999992000031002004+36030+140200FM-15+0029RJAK V0203001N005712200019N0112651N1+00601-01501999999ADDGA1021+007509999GF102991999999999999999999MA1102101999999MW1001OC101231REMMET072RJAK 0200Z 30011G24KT 260V020 9999 FEW025 06/M15 Q1021 RMK 1CU025 A3017;EQDQ01+000000PRSWM2
0195477160999992000031003004+36030+140200FM-15+0029RJAK V0203101N006712200019N0112651N1+00701-01601999999ADDGA1021+007509999GF102991999999999999999999MA1102101999999MW1001OC101541REMMET093RJAK 0300Z 31013G30KT 9999 FEW025 07/M16 Q1021 RMK 1CU025 A3015 FCST 0312 BECMG 0608 33010KT;EQDQ01+000000PRSWM2
0166477160999992000031004004+36030+140200FM-15+0029RJAK V0203101N005112200019N0112651N1+00801-01501999999ADDGA1021+009009999GF102991999999999999999999MA1102001999999MW1001OC101291REMMET064RJAK 0400Z 31010G25KT 9999 FEW030 08/M15 Q1020 RMK 1CU030 A3013;EQDQ01+000000PRSWM2
0166477160999992000031005004+36030+140200FM-15+0029RJAK V0202901N005712200019N0112651N1+00801-01601999999ADDGA1021+009009999GF102991999999999999999999MA1102001999999MW1001OC101231REMMET064RJAK 0500Z 29011G24KT 9999 FEW030 08/M16 Q1020 RMK 1CU030 A3012;EQDQ01+000000PRSWM2
0195477160999992000031006004+36030+140200FM-15+0029RJAK V0202801N005112200019N0112651N1+00901-01601999999ADDGA1021+009009999GF102991999999999999999999MA1101901999999MW1001OC101081REMMET093RJAK 0600Z 28010G21KT 9999 FEW030 09/M16 Q1019 RMK 1CU030 A3011 FCST 0615 BECMG 0608 33010KT;EQDQ01+000000PRSWM2
0155477160999992000031007004+36030+140200FM-15+0029RJAK V0203101N004612200019N0112651N1+00901-01701999999ADDGA1021+015009999GF102991999999999999999999MA1102001999999MW1001REMMET061RJAK 0700Z 31009KT 9999 FEW050 09/M17 Q1020 RMK 1SC050 A3012;EQDQ01+000000PRSWM2
0171477160999992000031008004+36030+140200FM-15+0029RJAK V0203001N003112200019N0112651N1+00801-01701999999ADDGA1021+015009999GF102991999999999999999999MA1102001999999MW1001REMMET077RJAK 0800Z 30006KT 9999 FEW050 08/M17 Q1020 RMK 1SC050 A3012 FCST 0817 NOSIG;EQDQ01+000000PRSWM2
0155477160999992000031222004+36030+140200FM-15+0029RJAK V02099999999992200019N0112651N1+00401-00101999999ADDGA1021+009009999GF102991999999999999999999MA1101291999999MW1001REMMET061RJAK 2200Z VRB01KT 9999 FEW030 04/M01 Q1013 RMK 1CU030 A2992;EQDQ01+000000PRSWM2
0186477160999992000031223004+36030+140200FM-15+0029RJAK V0203501N001012200019N0112651N1+00601+00001999999ADDGA1021+012009999GF102991999999999999999999MA1101291999999MW1001REMMET092RJAK 2300Z 35002KT 9999 FEW040 06/00 Q1013 RMK 1SC040 A2992 FCST 2308 TEMPO 0708 30013G23KT;EQDQ01+000000PRSWM2
0186477160999992000031300004+36030+140200FM-15+0029RJAK V0201301N002612200019N0112651N1+00801+00201999999ADDGA1021+030009999GF102991999999999999999999MA1101191999999MW1001REMMET092RJAK 0000Z 13005KT 9999 FEW100 08/02 Q1012 RMK 1AC100 A2989 FCST 0009 TEMPO 0709 30013G23KT;EQDQ01+000000PRSWM2
0155477160999992000031301004+36030+140200FM-15+0029RJAK V0201701N002112200019N0112651N1+01101-00101999999ADDGA1021+030009999GF102991999999999999999999MA1101081999999MW1001REMMET061RJAK 0100Z 17004KT 9999 FEW100 11/M01 Q1011 RMK 1AC100 A2986;EQDQ01+000000PRSWM2
0155477160999992000031302004+36030+140200FM-15+0029RJAK V0202601N002612200019N0112651N1+01101-00301999999ADDGA1021+030009999GF102991999999999999999999MA1101021999999MW1001REMMET061RJAK 0200Z 26005KT 9999 FEW100 11/M03 Q1010 RMK 1AC100 A2982;EQDQ01+000000PRSWM2
0187477160999992000031303004+36030+140200FM-15+0029RJAK V0202401N004612200019N0112651N1+01201-00501999999ADDGA1021+009009999GF102991999999999999999999MA1100911999999MW1001REMMET093RJAK 0300Z 24009KT 9999 FEW030 12/M05 Q1009 RMK 1CU030 A2981 FCST 0312 TEMPO 0710 30013G23KT;EQDQ01+000000PRSWM2
0168477160999992000031303394+36030+140200FM-16+0029RJAK V0202101N005112200019N0112651N1+01401-00301999999ADDGA1021+009009999GF102991999999999999999999MA1100811999999MW1001OC101031REMMET066RJAK 130339Z 21010G20KT 9999 FEW030 14/M03 Q1008 RMK 2CU030 A2977;EQDQ01+000000PRSWM2
0155477160999992000031304004+36030+140200FM-15+0029RJAK V0202101N005112200019N0112651N1+01401-00401999999ADDGA1021+009009999GF102991999999999999999999MA1100811999999MW1001REMMET061RJAK 0400Z 21010KT 9999 FEW030 14/M04 Q1008 RMK 2CU030 A2977;EQDQ01+000000PRSWM2
0185477160999992000031305004+36030+140200FM-15+0029RJAK V0202201N005112200019N0112651N1+01301-00201999999ADDGA1021+007509999GA2021+009009999GF104991999999999999999999MA1100711999999MW1001REMMET075RJAK 0500Z 22010KT 9999 FEW025 SCT030 13/M02 Q1007 RMK 1CU025 3CU030 A2976;EQDQ01+000000PRSWM2
0187477160999992000031306004+36030+140200FM-15+0029RJAK V0202201N004112200019N0112651N1+01301-00401999999ADDGA1021+009009999GF104991999999999999999999MA1100811999999MW1001REMMET093RJAK 0600Z 22008KT 9999 SCT030 13/M04 Q1008 RMK 3CU030 A2977 FCST 0615 TEMPO 0710 29011G21KT;EQDQ01+000000PRSWM2
0168477160999992000031306304+36030+140200FM-15+0029RJAK V0202801N005112200019N0112651N1+01501-00701999999ADDGA1021+009009999GF102991999999999999999999MA1100811999999MW1001OC101231REMMET066RJAK 130630Z 28010G24KT 9999 FEW030 15/M07 Q1008 RMK 2CU030 A2978;EQDQ01+000000PRSWM2
0166477160999992000031307004+36030+140200FM-15+0029RJAK V0203201N006212200019N0112651N1+01401-00601999999ADDGA1021+009009999GF102991999999999999999999MA1100811999999MW1001OC101341REMMET064RJAK 0700Z 32012G26KT 9999 FEW030 14/M06 Q1008 RMK 2CU030 A2979;EQDQ01+000000PRSWM2
0195477160999992000031308004+36030+140200FM-15+0029RJAK V0203301N005112200019N0112651N1+01201-00801999999ADDGA1021+009009999GF102991999999999999999999MA1101021999999MW1001OC101181REMMET093RJAK 0800Z 33010G23KT 9999 FEW030 12/M08 Q1010 RMK 2CU030 A2983 FCST 0817 BECMG 0910 33010KT;EQDQ01+000000PRSWM2
0155477160999992000031322004+36030+140200FM-15+0029RJAK V0203001N002612200019N0112651N1+00201+00001999999ADDGA1021+009009999GF102991999999999999999999MA1101901999999MW1001REMMET061RJAK 2200Z 30005KT 9999 FEW030 02/M00 Q1019 RMK 1CU030 A3011;EQDQ01+000000PRSWM2
0203477160999992000031323004+36030+140200FM-15+0029RJAK V0203001N004112200019N0112651N1+00301-01001999999ADDGA1021+009009999GF102991999999999999999999MA1102001999999MW1001REMMET109RJAK 2300Z 30008KT 9999 FEW030 03/M10 Q1020 RMK 1CU030 A3012 FCST 2308 BECMG 0406 FEW025CU BKN040SC BKN100AC;EQDQ01+000000PRSWM2
0203477160999992000031400004+36030+140200FM-15+0029RJAK V0202901N005112200019N0112651N1+00501-01101999999ADDGA1021+009009999GF102991999999999999999999MA1101901999999MW1001REMMET109RJAK 0000Z 29010KT 9999 FEW030 05/M11 Q1019 RMK 1CU030 A3010 FCST 0009 BECMG 0406 FEW025CU BKN040SC BKN100AC;EQDQ01+000000PRSWM2
0155477160999992000031401004+36030+140200FM-15+0029RJAK V0203001N002612200019N0112651N1+00701-01201999999ADDGA1021+009009999GF102991999999999999999999MA1101801999999MW1001REMMET061RJAK 0100Z 30005KT 9999 FEW030 07/M12 Q1018 RMK 1CU030 A3008;EQDQ01+000000PRSWM2
0155477160999992000031402004+36030+140200FM-15+0029RJAK V0202801N003112200019N0112651N1+00801-01301999999ADDGA1021+009009999GF102991999999999999999999MA1101691999999MW1001REMMET061RJAK 0200Z 28006KT 9999 FEW030 08/M13 Q1017 RMK 1CU030 A3005;EQDQ01+000000PRSWM2
0241477160999992000031403004+36030+140200FM-15+0029RJAK V0202701N003612200019N0112651N1+01001-01301999999ADDGA1021+009009999GF102991999999999999999999MA1101591999999MW1001REMMET147RJAK 0300Z 27007KT 9999 FEW030 10/M13 Q1016 RMK 1CU030 A3001 FCST 0312 BECMG 0406 FEW025CU BKN040SC BKN100AC TEMPO 0811 BKN030CU BKN040SC OVC080AC;EQDQ01+000000PRSWM2
0155477160999992000031404004+36030+140200FM-15+0029RJAK V0202801N004612200019N0112651N1+01001-01301999999ADDGA1021+009009999GF102991999999999999999999MA1101491999999MW1001REMMET061RJAK 0400Z 28009KT 9999 FEW030 10/M13 Q1015 RMK 1CU030 A2997;EQDQ01+000000PRSWM2
0155477160999992000031405004+36030+140200FM-15+0029RJAK V0202101N004612200019N0112651N1+01101-01201999999ADDGA1021+009009999GF102991999999999999999999MA1101391999999MW1001REMMET061RJAK 0500Z 21009KT 9999 FEW030 11/M12 Q1014 RMK 1CU030 A2995;EQDQ01+000000PRSWM2
0262477160999992000031406004+36030+140200FM-15+0029RJAK V0202301N003110630019N0112651N1+01101-01101999999ADDGA1021+009009999GA2071+063009999GF107991999999999999999999MA1101391999999MW1001REMMET152RJAK 0600Z 23006KT 9999 FEW030 BKN210 11/M11 Q1014 RMK 1CU030 6CI210 A2994 FCST 0615 BECMG 0709 FEW030CU BKN040SC BKN100AC BECMG 1415 FEW030CU SCT040SC;EQDQ01+000000PRSWM2
0185477160999992000031407004+36030+140200FM-15+0029RJAK V0202401N003612200019N0112651N1+01101-01301999999ADDGA1021+009009999GA2021+069009999GF104991999999999999999999MA1101391999999MW1001REMMET075RJAK 0700Z 24007KT 9999 FEW030 SCT230 11/M13 Q1014 RMK 1CU030 3CI230 A2995;EQDQ01+000000PRSWM2
0232477160999992000031408004+36030+140200FM-15+0029RJAK V0202401N003612200019N0112651N1+01001-00601999999ADDGA1021+009009999GF102991999999999999999999MA1101391999999MW1001REMMET138RJAK 0800Z 24007KT 9999 FEW030 10/M06 Q1014 RMK 1CU030 A2995 FCST 0817 BECMG 1012 FEW030CU BKN040SC BKN100AC BECMG 1517 FEW030CU SCT040SC;EQDQ01+000000PRSWM2
0156477160999992000031422004+36030+140200FM-15+0029RJAK V0209999C000012200019N0112651N1+00001-00601999999ADDGA1021+007509999GF102991999999999999999999MA1102101999999MW1001REMMET062RJAK 2200Z 00000KT 9999 FEW025 M00/M06 Q1021 RMK 1CU025 A3015;EQDQ01+000000PRSWM2
0171477160999992000031423004+36030+140200FM-15+0029RJAK V0201401N002112200019N0112651N1+00301-00501999999ADDGA1021+036009999GF102991999999999999999999MA1102101999999MW1001REMMET077RJAK 2300Z 14004KT 9999 FEW120 03/M05 Q1021 RMK 1AC120 A3016 FCST 2308 NOSIG;EQDQ01+000000PRSWM2
0171477160999992000031500004+36030+140200FM-15+0029RJAK V0201801N001012200019N0112651N1+00501-00601999999ADDGA1021+007509999GF102991999999999999999999MA1102101999999MW1001REMMET077RJAK 0000Z 18002KT 9999 FEW025 05/M06 Q1021 RMK 1CU025 A3016 FCST 0009 NOSIG;EQDQ01+000000PRSWM2
0155477160999992000031501004+36030+140200FM-15+0029RJAK V0202501N002112200019N0112651N1+00601-00801999999ADDGA1021+036009999GF102991999999999999999999MA1102101999999MW1001REMMET061RJAK 0100Z 25004KT 9999 FEW120 06/M08 Q1021 RMK 1AC120 A3016;EQDQ01+000000PRSWM2
0155477160999992000031502004+36030+140200FM-15+0029RJAK V0203101N001512200019N0112651N1+00801-00901999999ADDGA1021+075009999GF102991999999999999999999MA1102101999999MW1001REMMET061RJAK 0200Z 31003KT 9999 FEW250 08/M09 Q1021 RMK 2CI250 A3015;EQDQ01+000000PRSWM2
0203477160999992000031503004+36030+140200FM-15+0029RJAK V0202501N002610750019N0112651N1+01001-00901999999ADDGA1071+075009999GF107991999999999999999999MA1102101999999MW1001REMMET109RJAK 0300Z 25005KT 9999 BKN250 10/M09 Q1021 RMK 5CI250 A3016 FCST 0312 BECMG 0810 FEW030CU BKN120AC BKN200CI;EQDQ01+000000PRSWM2
0160477160999992000031504004+36030+140200FM-15+0029RJAK V0203001N003110750019N0112651N1+01101-01201999999ADDGA1071+075009999GF107991999999999999999999MA1101901999999MW1001REMMET066RJAK 0400Z 30006KT 9999 BKN250 11/M12 Q1019 RMK 5CI250 A3010 P/FR;EQDQ01+000000PRSWM2
0155477160999992000031505004+36030+140200FM-15+0029RJAK V0202701N004110690019N0112651N1+01201-01301999999ADDGA1071+069009999GF107991999999999999999999MA1101801999999MW1001REMMET061RJAK 0500Z 27008KT 9999 BKN230 12/M13 Q1018 RMK 5CI230 A3007;EQDQ01+000000PRSWM2
0171477160999992000031506004+36030+140200FM-15+0029RJAK V0202201N003110690019N0112651N1+01201-01401999999ADDGA1071+069009999GF107991999999999999999999MA1101691999999MW1001REMMET077RJAK 0600Z 22006KT 9999 BKN230 12/M14 Q1017 RMK 5CI230 A3005 FCST 0615 NOSIG;EQDQ01+000000PRSWM2
0155477160999992000031507004+36030+140200FM-15+0029RJAK V0201801N004612200019N0112651N1+01201-01001999999ADDGA1021+069009999GF104991999999999999999999MA1101801999999MW1001REMMET061RJAK 0700Z 18009KT 9999 SCT230 12/M10 Q1018 RMK 4CI230 A3006;EQDQ01+000000PRSWM2
0203477160999992000031508004+36030+140200FM-15+0029RJAK V0202101N003112200019N0112651N1+01101-00701999999ADDGA1021+069009999GF104991999999999999999999MA1101801999999MW1001REMMET109RJAK 0800Z 21006KT 9999 SCT230 11/M07 Q1018 RMK 4CI230 A3007 FCST 0817 TEMPO 1517 FEW040SC BKN100AC BKN230CI;EQDQ01+000000PRSWM2
0205477160999992000031522004+36030+140200FM-15+0029RJAK V0200401N001510135019N0112651N1+00601-00101999999ADDGA1021+004509999GA2071+013509999GF107991999999999999999999MA1101081999999MW1611REMMET079RJAK 2200Z 04003KT 9999 -RA SCT015 BKN045 06/M01 Q1011 RMK 3CU015 7SC045 A2987;EQDQ01+000003PRSWM1Q02    003PRSWM1
0353477160999992000031523004+36030+140200FM-15+0029RJAK V0200601N001510135019N0070001N1+00501+00101999999ADDGA1021+004509999GA2021+006009999GA3071+013509999GF107991999999999999999999MA1101021999999MW1611REMMET211RJAK 2300Z 06003KT 7000 -RA FEW015 SCT020 BKN045 05/01 Q1010 RMK 2CU015 3CU020 7SC045 A2984 FCST 2308 BECMG 2300 4000 -SHRA BR SCT015CU BKN020CU OVC040SC TEMPO 0207 20015G30KT SHRA BR BKN006ST BKN010CU OVC030SC;EQDQ01+000003PRSWM1Q02    003PRSWM1
0308477160999992000031600004+36030+140200FM-15+0029RJAK V0200701N003610120019N0070001N1+00501+00301999999ADDGA1021+006009999GA2071+012009999GF107991999999999999999999MA1100911999999MW1001REMMET198RJAK 0000Z 07007KT 7000 SCT020 BKN040 05/03 Q1009 RMK 4CU020 7SC040 A2980 P/FR FCST 0009 BECMG 0001 4000 -SHRA BR SCT015CU BKN020CU OVC040SC TEMPO 0207 20015G30KT SHRA BR BKN006ST BKN010CU OVC030SC;EQDQ01+000000PRSWM2
0220477160999992000031600204+36030+140200FM-15+0029RJAK V0200501N003610120019N0050001N1+00501+00301999999ADDGA1021+006009999GA2071+012009999GF107991999999999999999999MA1100711999999MW1101MW2611REMMET088RJAK 160020Z 05007KT 5000 -RA BR SCT020 BKN040 05/03 Q1007 RMK 3CU020 7SC040 A2974 P/FR;EQDQ01+000003PRSWM1Q02    003PRSWM1
0254477160999992000031601394+36030+140200FM-16+0029RJAK V0200501N003610060019N0020001N1+00501+00401999999ADDGA1021+003009999GA2071+006009999GA3081+012009999GF108991999999999999999999MA1100411999999MW1611REMMET096RJAK 160139Z 05007KT 2000 -RA BR SCT010 BKN020 OVC040 05/04 Q1004 RMK 3ST010 6SC020 8C040 A2966;EQDQ01+000100PRSWM3Q02+000003PRSWM1Q03    003PRSWM1
0248477160999992000031602004+36030+140200FM-15+0029RJAK V0200501N004110045019N0015001N1+00501+00401999999ADDGA1021+002409999GA2071+004509999GA3081+012009999GF108991999999999999999999MA1100411999999MW1101MW2611REMMET100RJAK 0200Z 05008KT 1500 -RA BR SCT008 BKN015 OVC040 05/04 Q1004 RMK 4ST008 7SC015 8SC040 A2965 P/FR;EQDQ01+000003PRSWM1Q02    003PRSWM1
0217477160999992000031604004+36030+140200FM-15+0029RJAK V0200401N005710024019N0015001N1+00701+00601999999ADDGA1071+002409999GA2081+004509999GF108991999999999999999999MA1099801999999MW1101MW2631REMMET085RJAK 0400Z 04011KT 1500 RA BR BKN008 OVC015 07/06 Q0998 RMK 5ST008 8SC015 A2948 P/FR;EQDQ01+000003PRSWM1Q02    003PRSWM1
0241477160999992000031605224+36030+140200FM-16+0029RJAK V0200201N005110030019N0018001N1+00701+00601999999ADDGA1071+003009999GA2081+004509999GF108991999999999999999999MA1099191999999MW1611OC101031REMMET091RJAK 160522Z 02010G20KT 1800 -RA BR BKN010 OVC015 07/06 Q0992 RMK 5ST010 8SC015 A2931 P/FR;EQDQ01+000100PRSWM3Q02+000003PRSWM1Q03    003PRSWM1
0275477160999992000031606004+36030+140200FM-15+0029RJAK V0200101N005110030019N0018001N1+00701+00601999999ADDGA1071+003009999GA2081+006009999GF108991999999999999999999MA1099191999999MW1101MW2611REMMET143RJAK 0600Z 01010KT 1800 -RA BR BKN010 OVC020 07/06 Q0992 RMK 5ST010 8SC020 A2929 FCST 0615 BECMG 0709 NSW SCT010CU BKN030SC BECMG 0910 30010KT;EQDQ01+000003PRSWM1Q02    003PRSWM1
0215477160999992000031607004+36030+140200FM-15+0029RJAK V0200101N003110030019N0020001N1+00701+00601999999ADDGA1071+003009999GA2081+007509999GF108991999999999999999999MA1098981999999MW1101MW2801REMMET083RJAK 0700Z 01006KT 2000 -SHRA BR BKN010 OVC025 07/06 Q0990 RMK 5CU010 8SC025 A2925;EQDQ01+000003PRSWM1Q02    003PRSWM1
0288477160999992000031608004+36030+140200FM-15+0029RJAK V0203101N003110030019N0020001N1+00701+00601999999ADDGA1021+002409999GA2071+003009999GA3081+007509999GF108991999999999999999999MA1098921999999MW1101MW2801REMMET140RJAK 0800Z 31006KT 2000 -SHRA BR FEW008 BKN010 OVC025 07/06 Q0989 RMK 1ST008 5ST010 8CU025 A2922 FCST 0817 BECMG 0810 NSW SCT010ST BKN030CU;EQDQ01+000003PRSWM1Q02    003PRSWM1
0155477160999992000031622004+36030+140200FM-15+0029RJAK V0203201N003112200019N0112651N1+00701-00101999999ADDGA1021+007509999GF102991999999999999999999MA1099901999999MW1001REMMET061RJAK 2200Z 32006KT 9999 FEW025 07/M01 Q0999 RMK 1CU025 A2952;EQDQ01+000000PRSWM2
0187477160999992000031623004+36030+140200FM-15+0029RJAK V0202801N003612200019N0112651N1+00801-00101999999ADDGA1021+007509999GF102991999999999999999999MA1100001999999MW1001REMMET093RJAK 2300Z 28007KT 9999 FEW025 08/M01 Q1000 RMK 1CU025 A2954 FCST 2308 TEMPO 0106 28015G30KT;EQDQ01+000000PRSWM2
0168477160999992000031623354+36030+140200FM-16+0029RJAK V0203001N005112200019N0112651N1+01001-00101999999ADDGA1021+009009999GF102991999999999999999999MA1100101999999MW1001OC101081REMMET066RJAK 162335Z 30010G21KT 9999 FEW030 10/M01 Q1001 RMK 2CU030 A2956;EQDQ01+000000PRSWM2
0225477160999992000031700004+36030+140200FM-15+0029RJAK V0203101N005712200019N0112651N1+01001-00101999999ADDGA1021+007509999GA2021+009009999GF104991999999999999999999MA1100201999999MW1001OC101081REMMET107RJAK 0000Z 31011G21KT 9999 FEW025 SCT030 10/M01 Q1002 RMK 1CU025 3CU030 A2959 FCST 0009 BECMG 0608 28010KT;EQDQ01+000000PRSWM2
0166477160999992000031701004+36030+140200FM-15+0029RJAK V0203001N005110090019N0112651N1+01101-00101999999ADDGA1071+009009999GF107991999999999999999999MA1100311999999MW1001OC101081REMMET064RJAK 0100Z 30010G21KT 9999 BKN030 11/M01 Q1003 RMK 5CU030 A2962;EQDQ01+000000PRSWM2
0157477160999992000031701314+36030+140200FM-16+0029RJAK V0203201N003110090019N0112651N1+01201-00101999999ADDGA1071+009009999GF107991999999999999999999MA1100411999999MW1001REMMET063RJAK 170131Z 32006KT 9999 BKN030 12/M01 Q1004 RMK 5CU030 A2966;EQDQ01+000000PRSWM2
0155477160999992000031702004+36030+140200FM-15+0029RJAK V0203301N003110090019N0112651N1+01101-00101999999ADDGA1071+009009999GF107991999999999999999999MA1100311999999MW1001REMMET061RJAK 0200Z 33006KT 9999 BKN030 11/M01 Q1003 RMK 5CU030 A2964;EQDQ01+000000PRSWM2
0179477160999992000031702114+36030+140200FM-16+0029RJAK V0202901N004110075019N0112651N1+01101-00101999999ADDGA1071+007509999GF107991999999999999999999MA1100411999999MW1801REMMET069RJAK 170211Z 29008KT 9999 -SHRA BKN025 11/M01 Q1004 RMK 5CU025 A2965;EQDQ01+000003PRSWM1Q02    003PRSWM1
0186477160999992000031703004+36030+140200FM-15+0029RJAK V0203501N005710075019N0112651N1+01001+00101999999ADDGA1071+007509999GF107991999999999999999999MA1100411999999MW1001REMMET092RJAK 0300Z 35011KT 9999 BKN025 10/01 Q1004 RMK 6CU025 A2966 FCST 0312 TEMPO 0306 35010G20KT;EQDQ01+000000PRSWM2
0178477160999992000031703134+36030+140200FM-16+0029RJAK V0200101N004610075019N0112651N1+01001+00001999999ADDGA1071+007509999GF107991999999999999999999MA1100411999999MW1801REMMET068RJAK 170313Z 01009KT 9999 -SHRA BKN025 10/00 Q1004 RMK 5CU025 A2966;EQDQ01+000003PRSWM1Q02    003PRSWM1
0254477160999992000031704004+36030+140200FM-15+0029RJAK V0200201N00361220001CN0112651N1+01001+00001999999ADDGA1021+006009999GA2071+007509999GA3021+009009029MA1100511999999MW1801OC100981REMMET114RJAK 0400Z 02007G19KT 9999 -SHRA FEW020 BKN025 FEW030TCU 10/00 Q1005 RMK 1CU020 6CU025 2TCU030 A2969 TCU E MOV SE;EQDQ01+000022SCOTCVQ02+000003PRSWM1Q03    003PRSWM1
0186477160999992000031704204+36030+140200FM-15+0029RJAK V0200301N003612200019N0112651N1+00801+00201999999ADDGA1021+006009999GA2021+007509999GF104991999999999999999999MA1100511999999MW1001REMMET076RJAK 170420Z 03007KT 9999 FEW020 SCT025 08/02 Q1005 RMK 1CU020 3CU025 A2970;EQDQ01+000000PRSWM2
0184477160999992000031705004+36030+140200FM-15+0029RJAK V0203201N001512200019N0112651N1+01101+00001999999ADDGA1021+006009999GA2021+007509999GF104991999999999999999999MA1100611999999MW1001REMMET074RJAK 0500Z 32003KT 9999 SCT020 SCT025 11/00 Q1006 RMK 3CU020 4CU025 A2970;EQDQ01+000000PRSWM2
0245477160999992000031706004+36030+140200FM-15+0029RJAK V0203501N005112200019N0112651N1+01001-00101999999ADDGA1021+006009999GA2021+007509999GF104991999999999999999999MA1100711999999MW1001OC101031REMMET127RJAK 0600Z 35010G20KT 9999 SCT020 SCT025 10/M01 Q1007 RMK 3CU020 4CU025 A2973 FCST 0615 TEMPO 0608 BKN025CU BECMG 0708 35010KT;EQDQ01+000000PRSWM2
0196477160999992000031707004+36030+140200FM-15+0029RJAK V0203001N006712200019N0112651N1+01101-00601999999ADDGA1021+006009999GA2021+007509999GF104991999999999999999999MA1100811999999MW1001OC101391REMMET078RJAK 0700Z 30013G27KT 9999 FEW020 SCT025 11/M06 Q1008 RMK 2CU020 3CU025 A2977;EQDQ01+000000PRSWM2
0200477160999992000031708004+36030+140200FM-15+0029RJAK V0202901N007212200019N0112651N1+00901-01101999999ADDGA1021+006009999GF102991999999999999999999MA1101021999999MW1001OC101541REMMET098RJAK 0800Z 29014G30KT 9999 FEW020 09/M11 Q1010 RMK 1CU020 A2983 P/RR FCST 0817 BECMG 0911 29010KT;EQDQ01+000000PRSWM2
0279477160999992000031903004+36030+140200FM-15+0029RJAK V0202201N003610630019N0112651N1+01601+00101999999ADDGA1021+030009999GA2071+063009999GF107991999999999999999999MA1101081999999MW1001REMMET169RJAK 0300Z 22007KT 9999 FEW100 BKN210 16/01 Q1011 RMK 1AC100 6CI210 A2986 FCST 0312 BECMG 0608 SCT025CU BKN100AC OVC200CI BECMG 0810 BKN020CU OVC100AC TEMPO 1012 -RA BR;EQDQ01+000000PRSWM2
0232477160999992000031903404+36030+140200FM-16+0029RJAK V0202101N005110600019N0112651N1+01601+00201999999ADDGA1021+007509999GA2021+030009999GA3071+060009999GF107991999999999999999999MA1100911999999MW1001OC101081REMMET098RJAK 190340Z 21010G21KT 9999 FEW025 SCT100 BKN200 16/02 Q1009 RMK 1CU025 3AC100 7CI200 A2982 P/FR;EQDQ01+000000PRSWM2
0225477160999992000031904004+36030+140200FM-15+0029RJAK V0202001N005110600019N0112651N1+01501+00201999999ADDGA1021+007509999GA2021+030009999GA3071+060009999GF107991999999999999999999MA1100911999999MW1001OC101031REMMET091RJAK 0400Z 20010G20KT 9999 FEW025 SCT100 BKN200 15/02 Q1009 RMK 1CU025 3AC100 7CI200 A2981;EQDQ01+000000PRSWM2
0184477160999992000031905004+36030+140200FM-15+0029RJAK V0201901N005710600019N0112651N1+01501+00301999999ADDGA1021+007509999GA2071+060009999GF107991999999999999999999MA1100811999999MW1001REMMET074RJAK 0500Z 19011KT 9999 FEW025 BKN200 15/03 Q1008 RMK 1CU025 7CS200 A2979;EQDQ01+000000PRSWM2
0197477160999992000031905034+36030+140200FM-16+0029RJAK V0202001N005110600019N0112651N1+01501+00301999999ADDGA1021+007509999GA2071+060009999GF107991999999999999999999MA1100811999999MW1001OC101031REMMET079RJAK 190503Z 20010G20KT 9999 FEW025 BKN200 15/03 Q1008 RMK 1CU025 7CS200 A2978;EQDQ01+000000PRSWM2
0155477160999992000032022004+36030+140200FM-15+0029RJAK V0200401N002610690019N0112651N1+00201-00701999999ADDGA1071+069009999GF107991999999999999999999MA1101901999999MW1001REMMET061RJAK 2200Z 04005KT 9999 BKN230 02/M07 Q1019 RMK 5CI230 A3010;EQDQ01+000000PRSWM2
0233477160999992000032023004+36030+140200FM-15+0029RJAK V0200501N003110690019N0112651N1+00401-00801999999ADDGA1021+045009999GA2071+069009999GF107991999999999999999999MA1101901999999MW1001REMMET123RJAK 2300Z 05006KT 9999 FEW150 BKN230 04/M08 Q1019 RMK 2AC150 5CI230 A3010 FCST 2308 BECMG 0608 SCT025CU BKN100AC BKN210CI;EQDQ01+000000PRSWM2
0233477160999992000032100004+36030+140200FM-15+0029RJAK V0200701N003110690019N0112651N1+00501-00801999999ADDGA1021+030009999GA2071+069009999GF107991999999999999999999MA1101901999999MW1001REMMET123RJAK 0000Z 07006KT 9999 FEW100 BKN230 05/M08 Q1019 RMK 1AC100 5CI230 A3010 FCST 0009 BECMG 0608 SCT025CU BKN100AC BKN210CI;EQDQ01+000000PRSWM2
0185477160999992000032101004+36030+140200FM-15+0029RJAK V0201201N001010690019N0112651N1+00701-00901999999ADDGA1021+030009999GA2071+069009999GF107991999999999999999999MA1101901999999MW1001REMMET075RJAK 0100Z 12002KT 9999 FEW100 BKN230 07/M09 Q1019 RMK 1AC100 5CI230 A3010;EQDQ01+000000PRSWM2
0185477160999992000032102004+36030+140200FM-15+0029RJAK V0200501N002612200019N0112651N1+00801-00801999999ADDGA1021+009009999GA2021+069009999GF104991999999999999999999MA1101901999999MW1001REMMET075RJAK 0200Z 05005KT 9999 FEW030 SCT230 08/M08 Q1019 RMK 1CU030 4CI230 A3009;EQDQ01+000000PRSWM2
0233477160999992000032103004+36030+140200FM-15+0029RJAK V0200601N004110690019N0112651N1+00801-00801999999ADDGA1021+009009999GA2071+069009999GF107991999999999999999999MA1101801999999MW1001REMMET123RJAK 0300Z 06008KT 9999 FEW030 BKN230 08/M08 Q1018 RMK 1CU030 7CI230 A3007 FCST 0312 BECMG 0709 SCT025CU BKN100AC OVC200CI;EQDQ01+000000PRSWM2
0215477160999992000032104004+36030+140200FM-15+0029RJAK V0200701N003110690019N0112651N1+00901-00801999999ADDGA1021+007509999GA2021+015009999GA3071+069009999GF107991999999999999999999MA1101691999999MW1001REMMET089RJAK 0400Z 07006KT 9999 FEW025 SCT050 BKN230 09/M08 Q1017 RMK 1CU025 3SC050 7CI230 A3003;EQDQ01+000000PRSWM2
0217477160999992000032104034+36030+140200FM-16+0029RJAK V0200901N002110150019N0112651N1+00901-00701999999ADDGA1021+007509999GA2071+015009999GA3071+069009999GF107991999999999999999999MA1101691999999MW1001REMMET091RJAK 210403Z 09004KT 9999 FEW025 BKN050 BKN230 09/M07 Q1017 RMK 1CU025 5SC050 7CI230 A3003;EQDQ01+000000PRSWM2
0215477160999992000032105004+36030+140200FM-15+0029RJAK V0200901N002610150019N0112651N1+00901-00401999999ADDGA1021+012009999GA2071+015009999GA3071+069009999GF107991999999999999999999MA1101591999999MW1001REMMET089RJAK 0500Z 09005KT 9999 FEW040 BKN050 BKN230 09/M04 Q1016 RMK 2SC040 5SC050 6CI230 A3001;EQDQ01+000000PRSWM2
0217477160999992000032105434+36030+140200FM-16+0029RJAK V0201201N005110690019N0112651N1+01101-00301999999ADDGA1021+007509999GA2021+015009999GA3071+069009999GF107991999999999999999999MA1101491999999MW1001REMMET091RJAK 210543Z 12010KT 9999 FEW025 SCT050 BKN230 11/M03 Q1015 RMK 1CU025 3SC050 5CI230 A2999;EQDQ01+000000PRSWM2
0263477160999992000032106004+36030+140200FM-15+0029RJAK V0201401N006210690019N0112651N1+01001-00301999999ADDGA1021+007509999GA2021+015009999GA3071+069009999GF107991999999999999999999MA1101491999999MW1001REMMET137RJAK 0600Z 14012KT 9999 FEW025 SCT050 BKN230 10/M03 Q1015 RMK 1CU025 3SC050 5CI230 A2999 FCST 0615 BECMG 0810 FEW025CU SCT045SC BKN100AC;EQDQ01+000000PRSWM2
0185477160999992000032107004+36030+140200FM-15+0029RJAK V0201501N005112200019N0112651N1+00901-00301999999ADDGA1021+007509999GA2021+015009999GF104991999999999999999999MA1101591999999MW1001REMMET075RJAK 0700Z 15010KT 9999 FEW025 SCT050 09/M03 Q1016 RMK 1CU025 3SC050 A3000;EQDQ01+000000PRSWM2
0187477160999992000032107254+36030+140200FM-15+0029RJAK V0201501N005110150019N0112651N1+00801-00301999999ADDGA1021+007509999GA2071+015009999GF107991999999999999999999MA1101591999999MW1001REMMET077RJAK 210725Z 15010KT 9999 FEW025 BKN050 08/M03 Q1016 RMK 1CU025 5SC050 A3000;EQDQ01+000000PRSWM2
0231477160999992000032108004+36030+140200FM-15+0029RJAK V0201201N004610150019N0112651N1+00801-00301999999ADDGA1021+007509999GA2071+015009999GA3071+024009999GF107991999999999999999999MA1101591999999MW1001REMMET105RJAK 0800Z 12009KT 9999 FEW025 BKN050 BKN080 08/M03 Q1016 RMK 1CU025 6SC050 7AC080 A3000 FCST 0817 NOSIG;EQDQ01+000000PRSWM2
0154477160999992000032122004+36030+140200FM-15+0029RJAK V0202601N001012200019N0090001N1+00501+00301999999ADDGA1021+009009999GF102991999999999999999999MA1101491999999MW1001REMMET060RJAK 2200Z 26002KT 9000 FEW030 05/03 Q1015 RMK 1CU030 A2998;EQDQ01+000000PRSWM2
0170477160999992000032123004+36030+140200FM-15+0029RJAK V02099999999992200019N0070001N1+00601+00201999999ADDGA1021+009009999GF102991999999999999999999MA1101491999999MW1001REMMET076RJAK 2300Z VRB02KT 7000 FEW030 06/02 Q1015 RMK 1CU030 A2999 FCST 2308 NOSIG;EQDQ01+000000PRSWM2
0187477160999992000032200004+36030+140200FM-15+0029RJAK V0202801N003612200019N0112651N1+00701-00101999999ADDGA1021+009009999GF102991999999999999999999MA1101591999999MW1001REMMET093RJAK 0000Z 28007KT 9999 FEW030 07/M01 Q1016 RMK 1CU030 A3001 FCST 0009 TEMPO 0207 30010G22KT;EQDQ01+000000PRSWM2
0168477160999992000032200204+36030+140200FM-15+0029RJAK V0203001N004612200019N0112651N1+00901-00301999999ADDGA1021+009009999GF102991999999999999999999MA1101591999999MW1001OC100981REMMET066RJAK 220020Z 30009G19KT 9999 FEW030 09/M03 Q1016 RMK 1CU030 A3000;EQDQ01+000000PRSWM2
0166477160999992000032201004+36030+140200FM-15+0029RJAK V0202901N006712200019N0112651N1+01101-00601999999ADDGA1021+009009999GF102991999999999999999999MA1101591999999MW1001OC101341REMMET064RJAK 0100Z 29013G26KT 9999 FEW030 11/M06 Q1016 RMK 2CU030 A3000;EQDQ01+000000PRSWM2
0166477160999992000032202004+36030+140200FM-15+0029RJAK V0203101N005712200019N0112651N1+01001-00501999999ADDGA1021+009009999GF104991999999999999999999MA1101591999999MW1001OC101131REMMET064RJAK 0200Z 31011G22KT 9999 SCT030 10/M05 Q1016 RMK 3CU030 A3001;EQDQ01+000000PRSWM2
0195477160999992000032203004+36030+140200FM-15+0029RJAK V0202901N005712200019N0112651N1+01101-00601999999ADDGA1021+009009999GF104991999999999999999999MA1101591999999MW1001OC101291REMMET093RJAK 0300Z 29011G25KT 9999 SCT030 11/M06 Q1016 RMK 3CU030 A3000 FCST 0312 BECMG 0709 34010KT;EQDQ01+000000PRSWM2
0166477160999992000032204004+36030+140200FM-15+0029RJAK V0203201N003612200019N0112651N1+01301-00501999999ADDGA1021+009009999GF104991999999999999999999MA1101591999999MW1001OC100871REMMET064RJAK 0400Z 32007G17KT 9999 SCT030 13/M05 Q1016 RMK 3CU030 A3000;EQDQ01+000000PRSWM2
0195477160999992000032205004+36030+140200FM-15+0029RJAK V0203001N006212200019N0112651N1+01201-00701999999ADDGA1021+007509999GA2021+009009999GF104991999999999999999999MA1101591999999MW1001OC101131REMMET077RJAK 0500Z 30012G22KT 9999 FEW025 SCT030 12/M07 Q1016 RMK 1CU05 4CU030 A3001;EQDQ01+000000PRSWM2
0195477160999992000032206004+36030+140200FM-15+0029RJAK V0202801N006212200019N0112651N1+01201-00701999999ADDGA1021+009009999GF104991999999999999999999MA1101591999999MW1001OC101181REMMET093RJAK 0600Z 28012G23KT 9999 SCT030 12/M07 Q1016 RMK 3CU030 A3002 FCST 0615 BECMG 0810 31010KT;EQDQ01+000000PRSWM2
0155477160999992000032207004+36030+140200FM-15+0029RJAK V0203601N004112200019N0112651N1+01301-00801999999ADDGA1021+009009999GF104991999999999999999999MA1101691999999MW1001REMMET061RJAK 0700Z 36008KT 9999 SCT030 13/M08 Q1017 RMK 3CU030 A3005;EQDQ01+000000PRSWM2
0171477160999992000032208004+36030+140200FM-15+0029RJAK V0203601N004612200019N0112651N1+01101-00801999999ADDGA1021+009009999GF102991999999999999999999MA1101801999999MW1001REMMET077RJAK 0800Z 36009KT 9999 FEW030 11/M08 Q1018 RMK 2CU030 A3008 FCST 0817 NOSIG;EQDQ01+000000PRSWM2
0185477160999992000032222004+36030+140200FM-15+0029RJAK V0209999C000010750019N0112651N1+00201-00301999999ADDGA1021+007509999GA2071+075009999GF107991999999999999999999MA1102511999999MW1001REMMET075RJAK 2200Z 00000KT 9999 FEW025 BKN250 02/M03 Q1025 RMK 1CU025 5CI250 A3028;EQDQ01+000000PRSWM2
0255477160999992000032223004+36030+140200FM-15+0029RJAK V0200501N002110750019N0112651N1+00501-00201999999ADDGA1021+007509999GA2071+075009999GF107991999999999999999999MA1102511999999MW1001REMMET145RJAK 2300Z 05004KT 9999 FEW025 BKN250 05/M02 Q1025 RMK 1CU025 5CI250 A3028 FCST 2308 BECMG 0507 SCT025CU BKN100AC OVC200CI TEMPO 0608 17010G22KT;EQDQ01+000000PRSWM2
0255477160999992000032300004+36030+140200FM-15+0029RJAK V0200701N002112200019N0112651N1+00701-00101999999ADDGA1021+007509999GA2021+075009999GF104991999999999999999999MA1102511999999MW1001REMMET145RJAK 0000Z 07004KT 9999 FEW025 SCT250 07/M01 Q1025 RMK 1CU025 4CI250 A3027 FCST 0009 BECMG 0507 SCT025CU BKN100AC OVC200CI TEMPO 0609 17010G22KT;EQDQ01+000000PRSWM2
0187477160999992000032300314+36030+140200FM-16+0029RJAK V0200701N001510360019N0112651N1+00801-00101999999ADDGA1021+007509999GA2071+036009999GF107991999999999999999999MA1102401999999MW1001REMMET077RJAK 230031Z 07003KT 9999 FEW025 BKN120 08/M01 Q1024 RMK 1CU025 5AC120 A3026;EQDQ01+000000PRSWM2
0185477160999992000032301004+36030+140200FM-15+0029RJAK V0200301N001010300019N0112651N1+00801-00101999999ADDGA1021+013509999GA2071+030009999GF107991999999999999999999MA1102401999999MW1001REMMET075RJAK 0100Z 03002KT 9999 SCT045 BKN100 08/M01 Q1024 RMK 3SC045 6AC100 A3026;EQDQ01+000000PRSWM2
0185477160999992000032302004+36030+140200FM-15+0029RJAK V0200701N002610300019N0112651N1+00901+00001999999ADDGA1021+013509999GA2071+030009999GF107991999999999999999999MA1102301999999MW1001REMMET075RJAK 0200Z 07005KT 9999 SCT045 BKN100 09/M00 Q1023 RMK 3SC045 7AC100 A3023;EQDQ01+000000PRSWM2
0260477160999992000032303004+36030+140200FM-15+0029RJAK V0200801N001510240019N0112651N1+00901+00001999999ADDGA1021+012009999GA2071+024009999GF107991999999999999999999MA1102201999999MW1001REMMET150RJAK 0300Z 08003KT 9999 SCT040 BKN080 09/00 Q1022 RMK 4SC040 7AC080 A3019 FCST 0312 BECMG 0709 17010G22KT BECMG 1012 -SHRA BKN025CU BKN040SC OVC080AC;EQDQ01+000000PRSWM2
0189477160999992000032304004+36030+140200FM-15+0029RJAK V0201501N005710240019N0112651N1+01101+00201999999ADDGA1021+012009999GA2071+024009999GF107991999999999999999999MA1102001999999MW1001REMMET079RJAK 0400Z 15011KT 9999 SCT040 BKN080 11/02 Q1020 RMK 4SC040 7AC080 A3013 P/FR;EQDQ01+000000PRSWM2
0214477160999992000032305004+36030+140200FM-15+0029RJAK V0201601N004610120019N0112651N1+01101+00301999999ADDGA1021+007509999GA2071+012009999GA3071+024009999GF107991999999999999999999MA1101901999999MW1001REMMET088RJAK 0500Z 16009KT 9999 FEW025 BKN040 BKN080 11/03 Q1019 RMK 1CU025 5SC040 7AC080 A3009;EQDQ01+000000PRSWM2
0288477160999992000032306004+36030+140200FM-15+0029RJAK V0201501N005110120019N0112651N1+01101+00401999999ADDGA1021+007509999GA2021+010509999GA3071+012009999GF107991999999999999999999MA1101801999999MW1001REMMET162RJAK 0600Z 15010KT 9999 FEW025 SCT035 BKN040 11/04 Q1018 RMK 1CU025 3SC035 5SC040 A3006 FCST 0615 BECMG 0709 17012G22KT SCT025CU BKN030SC BKN040SC BECMG 1214 -RA;EQDQ01+000000PRSWM2
0184477160999992000032307004+36030+140200FM-15+0029RJAK V0201901N006210120019N0112651N1+01201+00501999999ADDGA1021+007509999GA2071+012009999GF107991999999999999999999MA1101691999999MW1001REMMET074RJAK 0700Z 19012KT 9999 FEW025 BKN040 12/05 Q1017 RMK 1CU025 5SC040 A3003;EQDQ01+000000PRSWM2
0315477160999992000032308004+36030+140200FM-15+0029RJAK V0201701N005110120019N0112651N1+01201+00601999999ADDGA1021+007509999GA2071+012009999GA3071+060009999GF107991999999999999999999MA1101591999999MW1001REMMET189RJAK 0800Z 17010KT 9999 FEW025 BKN040 BKN200 12/06 Q1016 RMK 1CU025 5SC040 6CI200 A3002 FCST 0817 BECMG 0810 17012G22KT SCT025CU BKN030CU BKN040SC BECMG 1214 -RA BKN020CU BKN030CU BKN040SC;EQDQ01+000000PRSWM2
0247477160999992000032322504+36030+140200FM-15+0029RJAK V0202601N004110048019N0035001N1+00801+00701999999ADDGA1021+003009999GA2071+004809999GA3081+006009999GF108991999999999999999999MA1099291999999MW1101MW2801REMMET099RJAK 232250Z 26008KT 3500 -SHRA BR FEW010 BKN016 OVC020 08/07 Q0993 RMK 2ST010 5CU016 8CU020 A2934;EQDQ01+000003PRSWM1Q02    003PRSWM1
0348477160999992000032323004+36030+140200FM-15+0029RJAK V0202601N004110048019N0035001N1+00901+00701999999ADDGA1021+003009999GA2071+004809999GA3081+006009999GF108991999999999999999999MA1099291999999MW1101MW2801REMMET200RJAK 2300Z 26008KT 3500 -SHRA BR FEW010 BKN016 OVC020 09/07 Q0993 RMK 2ST010 5CU016 8CU020 A2934 FCST 2308 BECMG 2301 NSW FEW010ST SCT015CU BKN020CU TEMPO 0006 30012G25KT BECMG 0103 SCT020CU SCT100AC;EQDQ01+000003PRSWM1Q02    003PRSWM1
0238477160999992000032323124+36030+140200FM-16+0029RJAK V0202701N004610048019N0070001N1+00901+00701999999ADDGA1021+004209999GA2071+004809999GA3071+009009999GF107991999999999999999999MA1099291999999MW1801REMMET096RJAK 232312Z 27009KT 7000 -SHRA FEW014 BKN016 BKN030 09/07 Q0993 RMK 1CU014 5CU016 6CU030 A2934;EQDQ01+000003PRSWM1Q02    003PRSWM1
0275477160999992000032400004+36030+140200FM-15+0029RJAK V0202701N003610090019N0112651N1+01001+00701999999ADDGA1021+004209999GA2021+004809999GA3071+009009999GF107991999999999999999999MA1099291999999MW1001REMMET149RJAK 0000Z 27007KT 9999 FEW014 SCT016 BKN030 10/07 Q0993 RMK 1CU014 3CU016 5CU030 A2933 FCST 0009 BECMG 0001 FEW016CU SCT030CU TEMPO 0309 30012G25KT;EQDQ01+000000PRSWM2
0186477160999992000032400204+36030+140200FM-15+0029RJAK V0203101N001512200019N0112651N1+01101+00901999999ADDGA1021+004809999GA2021+009009999GF104991999999999999999999MA1099291999999MW1001REMMET076RJAK 240020Z 31003KT 9999 FEW016 SCT030 11/09 Q0993 RMK 2CU016 3SC030 A2933;EQDQ01+000000PRSWM2
0184477160999992000032401004+36030+140200FM-15+0029RJAK V0200701N001012200019N0112651N1+01201+00901999999ADDGA1021+005409999GA2021+009009999GF104991999999999999999999MA1099291999999MW1001REMMET074RJAK 0100Z 07002KT 9999 SCT018 SCT030 12/09 Q0993 RMK 3CU018 3SC030 A2932;EQDQ01+000000PRSWM2
0216477160999992000032401174+36030+140200FM-16+0029RJAK V02099999999990090019N0112651N1+01201+00801999999ADDGA1021+004509999GA2071+009009999GA3071+012009999GF107991999999999999999999MA1099291999999MW1001REMMET090RJAK 240117Z VRB03KT 9999 FEW015 BKN030 BKN040 12/08 Q0993 RMK 2CU015 5CU030 6SC040 A2933;EQDQ01+000000PRSWM2
0238477160999992000032401354+36030+140200FM-16+0029RJAK V0201901N002110090019N0112651N1+01301+00801999999ADDGA1021+004509999GA2071+009009999GA3071+012009999GF107991999999999999999999MA1099291999999MW1801REMMET096RJAK 240135Z 19004KT 9999 -SHRA FEW015 BKN030 BKN040 13/08 Q0993 RMK 2CU015 5CU030 6SC040 A2934;EQDQ01+000003PRSWM1Q02    003PRSWM1
0206477160999992000032402004+36030+140200FM-15+0029RJAK V0201801N001510090019N0112651N1+01301+00801999999ADDGA1021+004509999GA2071+009009999GF107991999999999999999999MA1099291999999MW1801REMMET080RJAK 0200Z 18003KT 9999 -SHRA SCT015 BKN030 13/08 Q0993 RMK 3CU015 6CU030 A2933;EQDQ01+000003PRSWM1Q02    003PRSWM1
0288477160999992000032403004+36030+140200FM-15+0029RJAK V02099999999990090019N0112651N1+01301+00801999999ADDGA1021+004509999GA2071+009009999GA3071+012009999GF107991999999999999999999MA1099391999999MW1801REMMET146RJAK 0300Z VRB03KT 9999 -SHRA FEW015 BKN030 BKN040 13/08 Q0994 RMK 2CU015 6CU030 7SC040 A2936 FCST 0312 BECMG 0305 NSW FEW015CU SCT030CU SCT040SC;EQDQ01+000003PRSWM1Q02    003PRSWM1
0249477160999992000032403124+36030+140200FM-16+0029RJAK V0202801N005110090019N0112651N1+01301+00801999999ADDGA1021+004509999GA2071+009009999GA3071+012009999GF107991999999999999999999MA1099391999999MW1801OC101081REMMET099RJAK 240312Z 28010G21KT 9999 -SHRA FEW015 BKN030 BKN040 13/08 Q0994 RMK 2CU015 6CU030 7SC040 A2936;EQDQ01+000003PRSWM1Q02    003PRSWM1
0214477160999992000032404004+36030+140200FM-15+0029RJAK V0202601N002110090019N0112651N1+01201+00301999999ADDGA1021+004509999GA2071+009009999GA3071+012009999GF107991999999999999999999MA1099391999999MW1001REMMET088RJAK 0400Z 26004KT 9999 FEW015 BKN030 BKN040 12/03 Q0994 RMK 2CU015 5CU030 7SC040 A2936;EQDQ01+000000PRSWM2
0249477160999992000032404204+36030+140200FM-15+0029RJAK V0202801N004110090019N0112651N1+01301+00101999999ADDGA1021+004509999GA2071+009009999GA3071+012009999GF107991999999999999999999MA1099291999999MW1801OC100931REMMET099RJAK 240420Z 28008G18KT 9999 -SHRA FEW015 BKN030 BKN040 13/01 Q0993 RMK 1CU015 5SC030 6SC040 A2935;EQDQ01+000003PRSWM1Q02    003PRSWM1
0232477160999992000032404454+36030+140200FM-15+0029RJAK V0200201N005110090019N0112651N1+01001+00501999999ADDGA1021+003009999GA2071+009009999GA3071+012009999GF107991999999999999999999MA1099491999999MW1001OC101181REMMET098RJAK 240445Z 02010G23KT 9999 FEW010 BKN030 BKN040 10/05 Q0995 RMK 1CU010 5CU030 7SC040 A2939 P/RR;EQDQ01+000000PRSWM2
0236477160999992000032405004+36030+140200FM-15+0029RJAK V0200401N003110090019N0112651N1+01001+00501999999ADDGA1021+003009999GA2071+009009999GA3071+012009999GF107991999999999999999999MA1099391999999MW1801REMMET094RJAK 0500Z 04006KT 9999 -SHRA FEW010 BKN030 BKN040 10/05 Q0994 RMK 1CU010 6CU030 7SC040 A2937;EQDQ01+000003PRSWM1Q02    003PRSWM1
0252477160999992000032406004+36030+140200FM-15+0029RJAK V0200101N002110075019N0112651N1+01201+00201999999ADDGA1071+007509999GA2071+012009999GF107991999999999999999999MA1099491999999MW1001REMMET142RJAK 0600Z 01004KT 9999 BKN025 BKN040 12/02 Q0995 RMK 5CU025 7SC040 A2939 FCST 0615 BECMG 0608 SCT025CU BKN040SC BECMG 0810 FEW025CU SCT040SC;EQDQ01+000000PRSWM2
0195477160999992000032407004+36030+140200FM-15+0029RJAK V0203201N003110075019N0112651N1+01201+00101999999ADDGA1071+007509999GA2071+012009999GF107991999999999999999999MA1099591999999MW1001OC100981REMMET077RJAK 0700Z 32006G19KT 9999 BKN025 BKN040 12/01 Q0996 RMK 5CU025 6SC040 A2944;EQDQ01+000000PRSWM2
0198477160999992000032407204+36030+140200FM-15+0029RJAK V0202901N006710120019N0112651N1+01201-00601999999ADDGA1021+007509999GA2071+012009999GF107991999999999999999999MA1099701999999MW1001OC101441REMMET080RJAK 240720Z 29013G28KT 9999 SCT025 BKN040 12/M06 Q0997 RMK 3CU025 6SC040 A2945;EQDQ01+000000PRSWM2
0254477160999992000032408004+36030+140200FM-15+0029RJAK V0202901N005710120019N0112651N1+01201-00601999999ADDGA1021+007509999GA2071+012009999GF107991999999999999999999MA1099801999999MW1001OC101231REMMET136RJAK 0800Z 29011G24KT 9999 FEW025 BKN040 12/M06 Q0998 RMK 2CU025 6SC040 A2947 FCST 0817 BECMG 0810 FEW025CU SCT040SC BECMG 1012 30010KT;EQDQ01+000000PRSWM2
0155477160999992000032604004+36030+140200FM-15+0029RJAK V0202601N003612200019N0112651N1+01101-00601999999ADDGA1021+009009999GF104991999999999999999999MA1100611999999MW1001REMMET061RJAK 0400Z 26007KT 9999 SCT030 11/M06 Q1006 RMK 3CU030 A2970;EQDQ01+000000PRSWM2
0157477160999992000032604164+36030+140200FM-16+0029RJAK V0202701N004610090019N0112651N1+01001-00601999999ADDGA1071+009009999GF107991999999999999999999MA1100511999999MW1001REMMET063RJAK 260416Z 27009KT 9999 BKN030 10/M06 Q1005 RMK 5CU030 A2969;EQDQ01+000000PRSWM2
0166477160999992000032605004+36030+140200FM-15+0029RJAK V0202901N006212200019N0112651N1+01101-00701999999ADDGA1021+009009999GF104991999999999999999999MA1100511999999MW1001OC101341REMMET064RJAK 0500Z 29012G26KT 9999 SCT030 11/M07 Q1005 RMK 4CU030 A2969;EQDQ01+000000PRSWM2
0137477160999992000032622004+36030+140200FM-15+0029RJAK V0202601N002112200019N0112651N1+00201-01001999999ADDGF100991999999999999999999MA1101591999999MW1001REMMET059RJAK 2200Z 26004KT 230V330 9999 SKC 02/M10 Q1016 RMK A3001;EQDQ01+000000PRSWM2
0153477160999992000032623004+36030+140200FM-15+0029RJAK V0203001N003612200019N0112651N1+00501-01001999999ADDGF100991999999999999999999MA1101691999999MW1001REMMET075RJAK 2300Z 30007KT 260V360 9999 SKC 05/M10 Q1017 RMK A3003 FCST 2308 NOSIG;EQDQ01+000000PRSWM2
0153477160999992000032700004+36030+140200FM-15+0029RJAK V0202901N004112200019N0112651N1+00701-01001999999ADDGF100991999999999999999999MA1101691999999MW1001REMMET075RJAK 0000Z 29008KT 260V340 9999 SKC 07/M10 Q1017 RMK A3005 FCST 0009 NOSIG;EQDQ01+000000PRSWM2
0150477160999992000032700014+36030+140200FM-16+0029RJAK V0203401N003612200019N0112651N1+00701-00901999999ADDGF100991999999999999999999MA1101691999999MW1001OC100931REMMET064RJAK 270001Z 34007G18KT 240V020 9999 SKC 07/M09 Q1017 RMK A3005;EQDQ01+000000PRSWM2
0139477160999992000032700154+36030+140200FM-16+0029RJAK V0203301N004612200019N0112651N1+00901-01001999999ADDGF100991999999999999999999MA1101691999999MW1001REMMET061RJAK 270015Z 33009KT 240V020 9999 SKC 09/M10 Q1017 RMK A3005;EQDQ01+000000PRSWM2
0142477160999992000032700424+36030+140200FM-16+0029RJAK V0203001N005112200019N0112651N1+00901-01201999999ADDGF100991999999999999999999MA1101691999999MW1001OC101131REMMET056RJAK 270042Z 30010G22KT 9999 SKC 09/M12 Q1017 RMK A3005;EQDQ01+000000PRSWM2
0148477160999992000032701004+36030+140200FM-15+0029RJAK V0202801N005112200019N0112651N1+01001-01101999999ADDGF100991999999999999999999MA1101691999999MW1001OC101231REMMET062RJAK 0100Z 28010G24KT 220V310 9999 SKC 10/M11 Q1017 RMK A3005;EQDQ01+000000PRSWM2
0148477160999992000032702004+36030+140200FM-15+0029RJAK V0202701N004112200019N0112651N1+01101-01101999999ADDGF100991999999999999999999MA1101691999999MW1001OC100931REMMET062RJAK 0200Z 27008G18KT 210V330 9999 SKC 11/M11 Q1017 RMK A3004;EQDQ01+000000PRSWM2
0177477160999992000032703004+36030+140200FM-15+0029RJAK V0202601N004612200019N0112651N1+01201-01101999999ADDGF100991999999999999999999MA1101691999999MW1001OC100981REMMET091RJAK 0300Z 26009G19KT 200V310 9999 SKC 12/M11 Q1017 RMK A3003 FCST 0312 BECMG 0507 26009KT;EQDQ01+000000PRSWM2
0137477160999992000032704004+36030+140200FM-15+0029RJAK V0202701N003612200019N0112651N1+01301-00901999999ADDGF100991999999999999999999MA1101591999999MW1001REMMET059RJAK 0400Z 27007KT 220V330 9999 SKC 13/M09 Q1016 RMK A3001;EQDQ01+000000PRSWM2
0176477160999992000032704084+36030+140200FM-16+0029RJAK V0202701N004112200019N0112651N1+01301-00901999999ADDGA1021+009009999GF102991999999999999999999MA1101591999999MW1001OC101031REMMET074RJAK 270408Z 27008G20KT 220V330 9999 FEW030 13/M09 Q1016 RMK 1CU030 A3001;EQDQ01+000000PRSWM2
0166477160999992000032705004+36030+140200FM-15+0029RJAK V0202701N004612200019N0112651N1+01401-00901999999ADDGA1021+009009999GF102991999999999999999999MA1101591999999MW1001OC100981REMMET064RJAK 0500Z 27009G19KT 9999 FEW030 14/M09 Q1016 RMK 1CU030 A3000;EQDQ01+000000PRSWM2
0171477160999992000032706004+36030+140200FM-15+0029RJAK V0202201N004612200019N0112651N1+01501-00901999999ADDGA1021+009009999GF102991999999999999999999MA1101491999999MW1001REMMET077RJAK 0600Z 22009KT 9999 FEW030 15/M09 Q1015 RMK 1CU030 A2999 FCST 0615 NOSIG;EQDQ01+000000PRSWM2
0129477160999992000032707004+36030+140200FM-15+0029RJAK V0202001N005112200019N0112651N1+01401-00801999999ADDGF100991999999999999999999MA1101491999999MW1001REMMET051RJAK 0700Z 20010KT 9999 SKC 14/M08 Q1015 RMK A2999;EQDQ01+000000PRSWM2
0145477160999992000032708004+36030+140200FM-15+0029RJAK V0202201N003612200019N0112651N1+01401-00801999999ADDGF100991999999999999999999MA1101591999999MW1001REMMET067RJAK 0800Z 22007KT 9999 SKC 14/M08 Q1016 RMK A3001 FCST 0817 NOSIG;EQDQ01+000000PRSWM2
0184477160999992000032722004+36030+140200FM-15+0029RJAK V0202801N000510690019N0070001N1+00501+00001999999ADDGA1021+039009999GA2071+069009999GF107991999999999999999999MA1101901999999MW1001REMMET074RJAK 2200Z 28001KT 7000 FEW130 BKN230 05/00 Q1019 RMK 2AC130 6CI230 A3011;EQDQ01+000000PRSWM2
0205477160999992000032800204+36030+140200FM-15+0029RJAK V0209999C000010390019N0050001N1+01101+00401999999ADDGA1071+039009999GA2071+063009999GF107991999999999999999999MA1102001999999MW1101REMMET079RJAK 280020Z 00000KT 5000 BR BKN130 BKN210 11/04 Q1020 RMK 5AC130 7CS210 A3012;EQDQ01+000003PRSWM1Q02    003PRSWM1
0233477160999992000032801004+36030+140200FM-15+0029RJAK V0201701N001010390019N0050001N1+01101+00501999999ADDGA1021+015009999GA2071+039009999GA3071+063009999GF107991999999999999999999MA1101901999999MW1101REMMET091RJAK 0100Z 17002KT 5000 BR FEW050 BKN130 BKN210 11/05 Q1019 RMK 2SC050 5AC130 6CS210 A3011;EQDQ01+000003PRSWM1Q02    003PRSWM1
0230477160999992000032802004+36030+140200FM-15+0029RJAK V0201401N002110630019N9999999N1+01301+00601999999ADDGA1021+015009999GA2021+039009999GA3071+063009999GF107991999999999999999999MA1101901999999MW1001REMMET088RJAK 0200Z 14004KT 6000 FEW050 SCT130 BKN210 13/06 Q1019 RMK 1SC050 4AC130 7CS210 A3009;EQDQ01+060002VODIS Q02+000000PRSWM2
0238477160999992000032804004+36030+140200FM-15+0029RJAK V0201101N002610390019N9999999N1+01501+00701999999ADDGA1021+009009999GA2071+039009999GA3081+060009999GF108991999999999999999999MA1101691999999MW1001REMMET096RJAK 0400Z 11005KT 050V180 7000 SCT030 BKN130 OVC200 15/07 Q1017 RMK 3CU030 6AC130 8CS200 A3004;EQDQ01+070002VODIS Q02+000000PRSWM2
0214477160999992000032805004+36030+140200FM-15+0029RJAK V0201601N006210300019N0080001N1+01601+00801999999ADDGA1021+009009999GA2071+030009999GA3081+060009999GF108991999999999999999999MA1101591999999MW1001REMMET088RJAK 0500Z 16012KT 8000 SCT030 BKN100 OVC200 16/08 Q1016 RMK 3CU030 6AC100 8CS200 A3001;EQDQ01+000000PRSWM2
0227477160999992000032805014+36030+140200FM-16+0029RJAK V0201601N005710300019N0080001N1+01601+00801999999ADDGA1021+009009999GA2071+030009999GA3081+060009999GF108991999999999999999999MA1101591999999MW1001OC101081REMMET093RJAK 280501Z 16011G21KT 8000 SCT030 BKN100 OVC200 16/08 Q1016 RMK 3CU030 6AC100 8CS200 A3001;EQDQ01+000000PRSWM2
0249477160999992000032805034+36030+140200FM-16+0029RJAK V0201601N005710300019N0080001N1+01601+00801999999ADDGA1021+009009999GA2071+030009999GA3081+060009999GF108991999999999999999999MA1101591999999MW1801OC101081REMMET099RJAK 280503Z 16011G21KT 8000 -SHRA SCT030 BKN100 OVC200 16/08 Q1016 RMK 4CU030 7AC100 8CS200 A3001;EQDQ01+000003PRSWM1Q02    003PRSWM1
0238477160999992000032806054+36030+140200FM-16+0029RJAK V0201701N003610090019N0070001N1+01301+01001999999ADDGA1021+006009999GA2071+009009999GA3071+030009999GF107991999999999999999999MA1101591999999MW1801REMMET096RJAK 280605Z 17007KT 7000 -SHRA FEW020 BKN030 BKN100 13/10 Q1016 RMK 2CU020 5CU030 7AC100 A3001;EQDQ01+000003PRSWM1Q02    003PRSWM1
0236477160999992000032807004+36030+140200FM-15+0029RJAK V0201601N003110090019N0070001N1+01301+01101999999ADDGA1021+006009999GA2071+009009999GA3071+030009999GF107991999999999999999999MA1101591999999MW1801REMMET094RJAK 0700Z 16006KT 7000 -SHRA FEW020 BKN030 BKN100 13/11 Q1016 RMK 2CU020 5CU030 7AC100 A3000;EQDQ01+000003PRSWM1Q02    003PRSWM1
0344477160999992000032808004+36030+140200FM-15+0029RJAK V0201901N002110090019N0060001N1+01301+01101999999ADDGA1021+004509999GA2071+009009999GA3071+030009999GF107991999999999999999999MA1101491999999MW1801REMMET202RJAK 0800Z 19004KT 6000 -SHRA FEW015 BKN030 BKN100 13/11 Q1015 RMK 2CU015 5CU030 7AC100 A2998 FCST 0817 TEMPO 0812 17012G25KT 4000 -SHRA BR BECMG 1214 17015G30KT 4000 SHRA BR BKN010CU BKN020CU OVC040SC;EQDQ01+000003PRSWM1Q02    003PRSWM1
0165477160999992000032822004+36030+140200FM-15+0029RJAK V0202001N007212200019N0112651N1+01501+00801999999ADDGA1021+007509999GF102991999999999999999999MA1099801999999MW1001OC101291REMMET063RJAK 2200Z 20014G25KT 9999 FEW025 15/08 Q0998 RMK 1CU025 A2949;EQDQ01+000000PRSWM2
0195477160999992000032823004+36030+140200FM-15+0029RJAK V0202101N006712200019N0112651N1+01601+00601999999ADDGF100991999999999999999999MA1099901999999MW1001OC101181REMMET109RJAK 2300Z 21013G23KT 9999 SKC 16/06 Q0999 RMK A2950 FCST 2308 TEMPO 0508 BKN030CU BKN050SC TEMPO 0608 -SHRA;EQDQ01+000000PRSWM2
0221477160999992000032900004+36030+140200FM-15+0029RJAK V0202101N007212200019N0112651N1+01601+00601999999ADDGA1021+007509999GF102991999999999999999999MA1099901999999MW1001OC101341REMMET119RJAK 0000Z 21014G26KT 9999 FEW025 16/06 Q0999 RMK 1CU025 A2950 FCST 0009 TEMPO 0509 BKN030CU BKN050SC TEMPO 0609 -SHRA;EQDQ01+000000PRSWM2
0165477160999992000032901004+36030+140200FM-15+0029RJAK V0202101N006712200019N0112651N1+01701+00501999999ADDGA1021+007509999GF102991999999999999999999MA1099801999999MW1001OC101341REMMET063RJAK 0100Z 21013G26KT 9999 FEW025 17/05 Q0998 RMK 1CU025 A2948;EQDQ01+000000PRSWM2
0165477160999992000032902004+36030+140200FM-15+0029RJAK V0202001N008712200019N0112651N1+01801+00301999999ADDGA1021+009009999GF102991999999999999999999MA1099701999999MW1001OC101491REMMET063RJAK 0200Z 20017G29KT 9999 FEW030 18/03 Q0997 RMK 1CU030 A2945;EQDQ01+000000PRSWM2
0262477160999992000032903004+36030+140200FM-15+0029RJAK V0202001N008712200019N0112651N1+01801+00401999999ADDGA1021+009009999GF102991999999999999999999MA1099591999999MW1001OC101801REMMET160RJAK 0300Z 20017G35KT 9999 FEW030 18/04 Q0996 RMK 1CU030 A2943 FCST 0312 TEMPO 0509 BKN030CU BKN050SC TEMPO 0608 -SHRA BECMG 0608 20010G25KT BECMG 1012 23010KT;EQDQ01+000000PRSWM2
0167477160999992000032903254+36030+140200FM-15+0029RJAK V0202001N007712200019N0112651N1+01801+00301999999ADDGA1021+009009999GF102991999999999999999999MA1099491999999MW1001OC101491REMMET065RJAK 290325Z 20015G29KT 9999 FEW030 18/03 Q0995 RMK 1CU030 A2940;EQDQ01+000000PRSWM2
0170477160999992000032904004+36030+140200FM-15+0029RJAK V0202001N008212200019N0112651N1+01801+00201999999ADDGA1021+009009999GF102991999999999999999999MA1099491999999MW1001OC101441REMMET068RJAK 0400Z 20016G28KT 9999 FEW030 18/02 Q0995 RMK 1CU030 A2938 P/FR;EQDQ01+000000PRSWM2
0167477160999992000032904204+36030+140200FM-15+0029RJAK V0202101N008712200019N0112651N1+01801+00301999999ADDGA1021+009009999GF102991999999999999999999MA1099391999999MW1001OC101801REMMET065RJAK 290420Z 21017G35KT 9999 FEW030 18/03 Q0994 RMK 1CU030 A2937;EQDQ01+000000PRSWM2
0195477160999992000032905004+36030+140200FM-15+0029RJAK V0202001N008210240019N0112651N1+01701+00401999999ADDGA1021+009009999GA2071+024009999GF107991999999999999999999MA1099391999999MW1001OC101801REMMET077RJAK 0500Z 20016G35KT 9999 FEW030 BKN080 17/04 Q0994 RMK 1CU030 5AC080 A2936;EQDQ01+000000PRSWM2
0270477160999992000032906004+36030+140200FM-15+0029RJAK V0202001N008710240019N0112651N1+01601+00401999999ADDGA1021+009009999GA2071+024009999GF107991999999999999999999MA1099291999999MW1001OC101751REMMET152RJAK 0600Z 20017G34KT 9999 FEW030 BKN080 16/04 Q0993 RMK 1CU030 6AC080 A2933 FCST 0615 TEMPO 0711 BKN030CU BKN050SC TEMPO 0811 -SHRA BECMG 1012 23010KT;EQDQ01+000000PRSWM2
0195477160999992000032907004+36030+140200FM-15+0029RJAK V0202101N007210240019N0112651N1+01601+00301999999ADDGA1021+009009999GA2071+024009999GF107991999999999999999999MA1099291999999MW1001OC101441REMMET077RJAK 0700Z 21014G28KT 9999 FEW030 BKN080 16/03 Q0993 RMK 1CU030 5AC080 A2933;EQDQ01+000000PRSWM2
0270477160999992000032908004+36030+140200FM-15+0029RJAK V0202001N005710240019N0112651N1+01501+00401999999ADDGA1021+009009999GA2071+024009999GA3071+036009999GF107991999999999999999999MA1099191999999MW1001REMMET144RJAK 0800Z 20011KT 9999 SCT030 BKN080 BKN120 15/04 Q0992 RMK 3CU030 5AC080 7AC120 A2931 FCST 0817 TEMPO 0812 BKN030CU BKN080AC TEMPO 0912 -SHRA;EQDQ01+000000PRSWM2
0155477160999992000032922004+36030+140200FM-15+0029RJAK V0202801N005112200019N0112651N1+01101-00101999999ADDGA1021+009009999GF102991999999999999999999MA1100311999999MW1001REMMET061RJAK 2200Z 28010KT 9999 FEW030 11/M01 Q1003 RMK 1CU030 A2962;EQDQ01+000000PRSWM2
0198477160999992000032922204+36030+140200FM-15+0029RJAK V0202701N005112200019N0112651N1+01201-00101999999ADDGA1021+009009999GA2021+069009999GF104991999999999999999999MA1100311999999MW1001OC101231REMMET080RJAK 292220Z 27010G24KT 9999 FEW030 SCT230 12/M01 Q1003 RMK 1CU030 3CI230 A2963;EQDQ01+000000PRSWM2
0217477160999992000032923004+36030+140200FM-15+0029RJAK V0202701N006710690019N0112651N1+01201-00101999999ADDGA1021+009009999GA2071+069009999GF107991999999999999999999MA1100411999999MW1001REMMET107RJAK 2300Z 27013KT 9999 FEW030 BKN230 12/M01 Q1004 RMK 1CU030 5CI230 A2965 FCST 2308 TEMPO 2301 27013G23KT;EQDQ01+000000PRSWM2
0198477160999992000032923054+36030+140200FM-16+0029RJAK V0202701N006210690019N0112651N1+01201-00101999999ADDGA1021+009009999GA2071+069009999GF107991999999999999999999MA1100411999999MW1001OC101131REMMET080RJAK 292305Z 27012G22KT 9999 FEW030 BKN230 12/M01 Q1004 RMK 1CU030 5CI230 A2965;EQDQ01+000000PRSWM2
0244477160999992000033000004+36030+140200FM-15+0029RJAK V0202701N006710660019N0112651N1+01301-00201999999ADDGA1021+009009999GA2071+066009999GF107991999999999999999999MA1100411999999MW1001OC101291REMMET126RJAK 0000Z 27013G25KT 9999 FEW030 BKN220 13/M02 Q1004 RMK 1CU030 5CI220 A2966 FCST 0009 TEMPO 0305 28012KT BECMG 0507 29010KT;EQDQ01+000000PRSWM2
0196477160999992000033001004+36030+140200FM-15+0029RJAK V0202901N006210660019N0112651N1+01401-00301999999ADDGA1021+009009999GA2071+066009999GF107991999999999999999999MA1100411999999MW1001OC101181REMMET078RJAK 0100Z 29012G23KT 9999 FEW030 BKN220 14/M03 Q1004 RMK 1CU030 6CI220 A2965;EQDQ01+000000PRSWM2
0196477160999992000033002004+36030+140200FM-15+0029RJAK V0203001N007710660019N0112651N1+01501-00401999999ADDGA1021+009009999GA2071+066009999GF107991999999999999999999MA1100311999999MW1001OC101491REMMET078RJAK 0200Z 30015G29KT 9999 FEW030 BKN220 15/M04 Q1003 RMK 1CU030 6CI220 A2964;EQDQ01+000000PRSWM2
0225477160999992000033003004+36030+140200FM-15+0029RJAK V0203001N009312200019N0112651N1+01601-00501999999ADDGA1021+009009999GA2021+069009999GF104991999999999999999999MA1100311999999MW1001OC101591REMMET107RJAK 0300Z 30018G31KT 9999 FEW030 SCT230 16/M05 Q1003 RMK 1CU030 3CI230 A2963 FCST 0312 BECMG 0709 30013KT;EQDQ01+000000PRSWM2
0166477160999992000033004004+36030+140200FM-15+0029RJAK V0203001N005112200019N0112651N1+01701-00401999999ADDGA1021+009009999GF102991999999999999999999MA1100311999999MW1001OC101031REMMET064RJAK 0400Z 30010G20KT 9999 FEW030 17/M04 Q1003 RMK 1CU030 A2963;EQDQ01+000000PRSWM2
0166477160999992000033005004+36030+140200FM-15+0029RJAK V0202901N005712200019N0112651N1+01701-00401999999ADDGA1021+009009999GF102991999999999999999999MA1100311999999MW1001OC101341REMMET064RJAK 0500Z 29011G26KT 9999 FEW030 17/M04 Q1003 RMK 1CU030 A2963;EQDQ01+000000PRSWM2
0169477160999992000033006004+36030+140200FM-15+0029RJAK V0202801N005712200019N0112651N1+01801-00501999999ADDGF100991999999999999999999MA1100311999999MW1001OC101081REMMET083RJAK 0600Z 28011G21KT 9999 SKC 18/M05 Q1003 RMK A2964 FCST 0615 BECMG 0709 28010KT;EQDQ01+000000PRSWM2
0166477160999992000033007004+36030+140200FM-15+0029RJAK V0202801N005112200019N0112651N1+01801-00601999999ADDGA1021+045009999GF102991999999999999999999MA1100311999999MW1001OC101031REMMET064RJAK 0700Z 28010G20KT 9999 FEW150 18/M06 Q1003 RMK 1AC150 A2964;EQDQ01+000000PRSWM2
0157477160999992000033007334+36030+140200FM-16+0029RJAK V0202601N004612200019N0112651N1+01801-00701999999ADDGA1021+045009999GF102991999999999999999999MA1100411999999MW1001REMMET063RJAK 300733Z 26009KT 9999 FEW150 18/M07 Q1004 RMK 1AC150 A2965;EQDQ01+000000PRSWM2
0171477160999992000033008004+36030+140200FM-15+0029RJAK V0202701N004112200019N0112651N1+01701-00801999999ADDGA1021+045009999GF102991999999999999999999MA1100411999999MW1001REMMET077RJAK 0800Z 27008KT 9999 FEW150 17/M08 Q1004 RMK 1AC150 A2966 FCST 0817 NOSIG;EQDQ01+000000PRSWM2
0224477160999992000033023004+36030+140200FM-15+0029RJAK V0203201N002110750019N0112651N1+00901-00201999999ADDGA1021+015009999GA2071+075009999GF107991999999999999999999MA1101081999999MW1001REMMET114RJAK 2300Z 32004KT 9999 FEW050 BKN250 09/M02 Q1011 RMK 1SC050 5CI250 A2985 FCST 2308 TEMPO 0608 SCT030CU BKN100AC;EQDQ01+000000PRSWM2
0254477160999992000033100004+36030+140200FM-15+0029RJAK V0203001N001010690019N0112651N1+01101+00001999999ADDGA1021+012009999GA2021+024009999GA3071+069009999GF107991999999999999999999MA1101081999999MW1001REMMET128RJAK 0000Z 30002KT 9999 SCT040 SCT080 BKN230 11/M00 Q1011 RMK 3SC040 3AC080 6CI230 A2986 FCST 0009 BECMG 0406 SCT030CU BKN080AC;EQDQ01+000000PRSWM2
0186477160999992000033100394+36030+140200FM-16+0029RJAK V0200701N003110090019N0112651N1+01201+00201999999ADDGA1071+009009999GA2071+024009999GF107991999999999999999999MA1101021999999MW1001REMMET076RJAK 310039Z 07006KT 9999 BKN030 BKN080 12/02 Q1010 RMK 6SC030 5AC080 A2984;EQDQ01+000000PRSWM2
0174477160999992000033101004+36030+140200FM-15+0029RJAK V0200701N00361220001CN0112651N1+01301+00301999999ADDGA1071+009009999GA2021+024009999MA1101021999999MW1001REMMET074RJAK 0100Z 07007KT 9999 BKN030 SCT080 13/03 Q1010 RMK 6SC030 4AC080 A2984;EQDQ01+000042SCOTCVQ02+000000PRSWM2
0184477160999992000033102004+36030+140200FM-15+0029RJAK V0200801N003110090019N0112651N1+01401+00401999999ADDGA1021+007509999GA2071+009009999GF107991999999999999999999MA1100911999999MW1001REMMET074RJAK 0200Z 08006KT 9999 FEW025 BKN030 14/04 Q1009 RMK 1CU025 6CU030 A2982;EQDQ01+000000PRSWM2
0193477160999992000033103004+36030+140200FM-15+0029RJAK V0200901N005112200019N0112651N1+01401+00501999999ADDGA1021+009009999GF104991999999999999999999MA1100811999999MW1001REMMET099RJAK 0300Z 09010KT 9999 SCT030 14/05 Q1008 RMK 4CU030 A2979 FCST 0312 BECMG 0305 BKN030CU SCT080AC;EQDQ01+000000PRSWM2
0156477160999992000033103024+36030+140200FM-16+0029RJAK V0200901N005110090019N0112651N1+01401+00501999999ADDGA1071+009009999GF107991999999999999999999MA1100811999999MW1001REMMET062RJAK 310302Z 09010KT 9999 BKN030 14/05 Q1008 RMK 5CU030 A2979;EQDQ01+000000PRSWM2
0189477160999992000033104004+36030+140200FM-15+0029RJAK V0200801N005710090019N0112651N1+01401+00501999999ADDGA1021+007509999GA2071+009009999GF107991999999999999999999MA1100711999999MW1001REMMET079RJAK 0400Z 08011KT 9999 FEW025 BKN030 14/05 Q1007 RMK 2CU025 5CU030 A2973 P/FR;EQDQ01+000000PRSWM2
0184477160999992000033105004+36030+140200FM-15+0029RJAK V0200701N005110090019N0112651N1+01401+00501999999ADDGA1021+007509999GA2071+009009999GF107991999999999999999999MA1100611999999MW1001REMMET074RJAK 0500Z 07010KT 9999 FEW025 BKN030 14/05 Q1006 RMK 2CU025 6CU030 A2973;EQDQ01+000000PRSWM2
0223477160999992000033106004+36030+140200FM-15+0029RJAK V0200701N005110090019N0112651N1+01401+00501999999ADDGA1021+007509999GA2071+009009999GF107991999999999999999999MA1100511999999MW1001REMMET113RJAK 0600Z 07010KT 9999 FEW025 BKN030 14/05 Q1005 RMK 2CU025 6CU030 A2969 FCST 0615 BECMG 1415 FEW025CU SCT030CU;EQDQ01+000000PRSWM2
0214477160999992000033107004+36030+140200FM-15+0029RJAK V0201101N004610300019N0112651N1+01401+00601999999ADDGA1021+007509999GA2021+009009999GA3081+030009999GF108991999999999999999999MA1100511999999MW1001REMMET088RJAK 0700Z 11009KT 9999 FEW025 SCT030 OVC100 14/06 Q1005 RMK 1CU025 3CU030 8AC100 A2969;EQDQ01+000000PRSWM2
0253477160999992000033108004+36030+140200FM-15+0029RJAK V0200901N004110360019N0112651N1+01301+00701999999ADDGA1021+009009999GA2021+024009999GA3081+036009999GF108991999999999999999999MA1100511999999MW1001REMMET127RJAK 0800Z 09008KT 9999 FEW030 SCT080 OVC120 13/07 Q1005 RMK 1CU030 3AC080 8AC120 A2968 FCST 0817 BECMG 1416 FEW030CU SCT080AC;EQDQ01+000000PRSWM2
0154477160999992000033122004+36030+140200FM-15+0029RJAK V0202801N001512200019N0080001N1+00801+00301999999ADDGA1021+009009999GF102991999999999999999999MA1100811999999MW1001REMMET060RJAK 2200Z 28003KT 8000 FEW030 08/03 Q1008 RMK 2CU030 A2979;EQDQ01+000000PRSWM2
0187477160999992000033123004+36030+140200FM-15+0029RJAK V0203101N003112200019N0112651N1+01001-00201999999ADDGA1021+009009999GF102991999999999999999999MA1100911999999MW1001REMMET093RJAK 2300Z 31006KT 9999 FEW030 10/M02 Q1009 RMK 1CU030 A2981 FCST 2308 TEMPO 0107 28015G30KT;EQDQ01+000000PRSWM2
0168477160999992000033123304+36030+140200FM-15+0029RJAK V0203001N005112200019N0112651N1+01201-00801999999ADDGA1021+009009999GF102991999999999999999999MA1101021999999MW1001OC101541REMMET066RJAK 312330Z 30010G30KT 9999 FEW030 12/M08 Q1010 RMK 1CU030 A2983;EQDQ01+000000PRSWM2
0168477160999992000033123384+36030+140200FM-16+0029RJAK V0203001N006712200019N0112651N1+01201-00801999999ADDGA1021+009009999GF102991999999999999999999MA1101021999999MW1001OC101801REMMET066RJAK 312338Z 30013G35KT 9999 FEW030 12/M08 Q1010 RMK 1CU030 A2983;EQDQ01+000000PRSWM2
0217477160999992000040100004+36030+140200FM-15+0029RJAK V0203001N008212200019N0112651N1+01101-01101999999ADDGA1021+009009999GF102991999999999999999999MA1101021999999MW1001OC101951REMMET115RJAK 0000Z 30016G38KT 9999 FEW030 11/M11 Q1010 RMK 1CU030 A2982 FCST 0009 BECMG 0103 30015G33KT BECMG 0709 30010KT;EQDQ01+000000PRSWM2
0166477160999992000040101004+36030+140200FM-15+0029RJAK V0203001N009312200019N0112651N1+01201-01101999999ADDGA1021+009009999GF102991999999999999999999MA1101021999999MW1001OC101851REMMET064RJAK 0100Z 30018G36KT 9999 FEW030 12/M11 Q1010 RMK 1CU030 A2983;EQDQ01+000000PRSWM2
0166477160999992000040102004+36030+140200FM-15+0029RJAK V0202901N007712200019N0112651N1+01301-01001999999ADDGA1021+009009999GF102991999999999999999999MA1101021999999MW1001OC101591REMMET064RJAK 0200Z 29015G31KT 9999 FEW030 13/M10 Q1010 RMK 1CU030 A2984;EQDQ01+000000PRSWM2
0195477160999992000040103004+36030+140200FM-15+0029RJAK V0203101N007712200019N0112651N1+01301-01001999999ADDGA1021+009009999GF102991999999999999999999MA1101021999999MW1001OC101591REMMET093RJAK 0300Z 31015G31KT 9999 FEW030 13/M10 Q1010 RMK 1CU030 A2984 FCST 0312 BECMG 0709 31010KT;EQDQ01+000000PRSWM2
0166477160999992000040104004+36030+140200FM-15+0029RJAK V0203101N007712200019N0112651N1+01401-01001999999ADDGA1021+009009999GF102991999999999999999999MA1101021999999MW1001OC101701REMMET064RJAK 0400Z 31015G33KT 9999 FEW030 14/M10 Q1010 RMK 1CU030 A2984;EQDQ01+000000PRSWM2
0166477160999992000040105004+36030+140200FM-15+0029RJAK V0203201N007212200019N0112651N1+01401-01201999999ADDGA1021+009009999GF102991999999999999999999MA1101021999999MW1001OC101441REMMET064RJAK 0500Z 32014G28KT 9999 FEW030 14/M12 Q1010 RMK 1CU030 A2985;EQDQ01+000000PRSWM2
0195477160999992000040106004+36030+140200FM-15+0029RJAK V0203201N005712200019N0112651N1+01501-01301999999ADDGA1021+009009999GF102991999999999999999999MA1101021999999MW1001REMMET101RJAK 0600Z 32011KT 260V030 9999 FEW030 15/M13 Q1010 RMK 1CU030 A2985 FCST 0615 TEMPO 0607 32012G25KT;EQDQ01+000000PRSWM2
0176477160999992000040106104+36030+140200FM-16+0029RJAK V0203201N005112200019N0112651N1+01501-01301999999ADDGA1021+009009999GF102991999999999999999999MA1101081999999MW1001OC101181REMMET074RJAK 010610Z 32010G23KT 260V030 9999 FEW030 15/M13 Q1011 RMK 1CU030 A2986;EQDQ01+000000PRSWM2
0155477160999992000040107004+36030+140200FM-15+0029RJAK V0203301N005112200019N0112651N1+01401-01401999999ADDGA1021+015009999GF102991999999999999999999MA1101081999999MW1001REMMET061RJAK 0700Z 33010KT 9999 FEW050 14/M14 Q1011 RMK 1SC050 A2987;EQDQ01+000000PRSWM2
0171477160999992000040108004+36030+140200FM-15+0029RJAK V0203201N003612200019N0112651N1+01301-01501999999ADDGA1021+015009999GF102991999999999999999999MA1101191999999MW1001REMMET077RJAK 0800Z 32007KT 9999 FEW050 13/M15 Q1012 RMK 1SC050 A2989 FCST 0817 NOSIG;EQDQ01+000000PRSWM2
0155477160999992000040122004+36030+140200FM-15+0029RJAK V02099999999992200019N0112651N1+00801-01201999999ADDGA1021+060009999GF104991999999999999999999MA1102201999999MW1001REMMET061RJAK 2200Z VRB03KT 9999 SCT200 08/M12 Q1022 RMK 3CI200 A3018;EQDQ01+000000PRSWM2
0171477160999992000040123004+36030+140200FM-15+0029RJAK V0202701N001510600019N0112651N1+00901-01101999999ADDGA1071+060009999GF107991999999999999999999MA1102201999999MW1001REMMET077RJAK 2300Z 27003KT 9999 BKN200 09/M11 Q1022 RMK 5CI200 A3018 FCST 2308 NOSIG;EQDQ01+000000PRSWM2
0171477160999992000040200004+36030+140200FM-15+0029RJAK V0203301N002110600019N0112651N1+01101-01201999999ADDGA1071+060009999GF107991999999999999999999MA1102101999999MW1001REMMET077RJAK 0000Z 33004KT 9999 BKN200 11/M12 Q1021 RMK 6CI200 A3017 FCST 0009 NOSIG;EQDQ01+000000PRSWM2
0155477160999992000040201004+36030+140200FM-15+0029RJAK V0203201N004110600019N0112651N1+01201-01201999999ADDGA1071+060009999GF107991999999999999999999MA1102201999999MW1001REMMET061RJAK 0100Z 32008KT 9999 BKN200 12/M12 Q1022 RMK 6CI200 A3018;EQDQ01+000000PRSWM2
0155477160999992000040202004+36030+140200FM-15+0029RJAK V0203101N002610600019N0112651N1+01301-01101999999ADDGA1071+060009999GF107991999999999999999999MA1102201999999MW1001REMMET061RJAK 0200Z 31005KT 9999 BKN200 13/M11 Q1022 RMK 6CI200 A3018;EQDQ01+000000PRSWM2
0214477160999992000040222004+36030+140200FM-15+0029RJAK V0200601N007210300019N0112651N1+00901+00201999999ADDGA1021+013509999GA2071+030009999GA3081+066009999GF108991999999999999999999MA1102301999999MW1001REMMET088RJAK 2200Z 06014KT 9999 FEW045 BKN100 OVC220 09/02 Q1023 RMK 2SC045 6AC100 8CI220 A3021;EQDQ01+000000PRSWM2
0246477160999992000040223004+36030+140200FM-15+0029RJAK V0200601N008710300019N0112651N1+00901+00101999999ADDGA1021+009009999GA2071+030009999GA3081+066009999GF108991999999999999999999MA1102301999999MW1001REMMET120RJAK 2300Z 06017KT 9999 FEW030 BKN100 OVC220 09/01 Q1023 RMK 1CU030 6AC100 8CI220 A3021 FCST 2308 TEMPO 0006 06017G27KT;EQDQ01+000000PRSWM2
0288477160999992000040300004+36030+140200FM-15+0029RJAK V0200601N007710300019N0112651N1+01001+00101999999ADDGA1021+009009999GA2021+013509999GA3071+030009999GF107991999999999999999999MA1102301999999MW1001REMMET162RJAK 0000Z 06015KT 9999 FEW030 SCT045 BKN100 10/01 Q1023 RMK 1CU030 4SC045 5AC100 A3022 FCST 0009 TEMPO 0007 06015G25KT TEMPO 0609 -RA BKN045SC BKN100AC OVC200CS;EQDQ01+000000PRSWM2
0214477160999992000040301004+36030+140200FM-15+0029RJAK V0200701N007210135019N0112651N1+01001+00001999999ADDGA1021+009009999GA2071+013509999GA3081+066009999GF108991999999999999999999MA1102301999999MW1001REMMET088RJAK 0100Z 07014KT 9999 FEW030 BKN045 OVC220 10/00 Q1023 RMK 1CU030 5SC045 8CS220 A3022;EQDQ01+000000PRSWM2
0215477160999992000040302004+36030+140200FM-15+0029RJAK V0200701N007210120019N0112651N1+01001+00001999999ADDGA1021+009009999GA2071+012009999GA3071+024009999GF107991999999999999999999MA1102301999999MW1001REMMET089RJAK 0200Z 07014KT 9999 FEW030 BKN040 BKN080 10/M00 Q1023 RMK 1CU030 5SC040 6AC080 A3023;EQDQ01+000000PRSWM2
0240477160999992000040303004+36030+140200FM-15+0029RJAK V0200701N006710120019N0112651N1+01001-00101999999ADDGA1021+009009999GA2071+012009999GA3071+024009999GF107991999999999999999999MA1102301999999MW1001REMMET114RJAK 0300Z 07013KT 9999 FEW030 BKN040 BKN080 10/M01 Q1023 RMK 1CU030 6SC040 7AC080 A3021 FCST 0312 TEMPO 0712 -RA;EQDQ01+000000PRSWM2
0215477160999992000040304004+36030+140200FM-15+0029RJAK V0200801N006710240019N0112651N1+01101-00101999999ADDGA1021+009009999GA2071+024009999GA3071+066009999GF107991999999999999999999MA1102201999999MW1001REMMET089RJAK 0400Z 08013KT 9999 FEW030 BKN080 BKN220 11/M01 Q1022 RMK 1CU030 5AC080 6CI220 A3019;EQDQ01+000000PRSWM2
0215477160999992000040305004+36030+140200FM-15+0029RJAK V0200901N006710240019N0112651N1+01101-00101999999ADDGA1021+009009999GA2021+012009999GA3071+024009999GF107991999999999999999999MA1102201999999MW1001REMMET089RJAK 0500Z 09013KT 9999 FEW030 SCT040 BKN080 11/M01 Q1022 RMK 2CU030 3SC040 6AC080 A3018;EQDQ01+000000PRSWM2
0263477160999992000040306004+36030+140200FM-15+0029RJAK V0200801N006710660019N0112651N1+01001-00101999999ADDGA1021+009009999GA2021+036009999GA3071+066009999GF107991999999999999999999MA1102101999999MW1001REMMET137RJAK 0600Z 08013KT 9999 FEW030 SCT120 BKN220 10/M01 Q1021 RMK 1CU030 3AC120 6CI220 A3017 FCST 0615 TEMPO 0812 SCT030CU BKN100AC BKN220CI;EQDQ01+000000PRSWM2
0184477160999992000040307004+36030+140200FM-15+0029RJAK V0200901N006712200019N0112651N1+01001+00001999999ADDGA1021+009009999GA2021+036009999GF104991999999999999999999MA1102101999999MW1001REMMET074RJAK 0700Z 09013KT 9999 FEW030 SCT120 10/00 Q1021 RMK 1CU030 3AC120 A3016;EQDQ01+000000PRSWM2
0224477160999992000040308004+36030+140200FM-15+0029RJAK V0200601N005712200019N0112651N1+00901-00101999999ADDGA1021+009009999GA2021+030009999GF104991999999999999999999MA1102101999999MW1001REMMET114RJAK 0800Z 06011KT 9999 FEW030 SCT100 09/M01 Q1021 RMK 1CU030 4AC100 A3017 FCST 0817 TEMPO 0812 FEW030CU BKN100AC;EQDQ01+000000PRSWM2
0185477160999992000040322004+36030+140200FM-15+0029RJAK V0200201N001510690019N0112651N1+00601-00101999999ADDGA1021+007509999GA2071+069009999GF107991999999999999999999MA1102401999999MW1001REMMET075RJAK 2200Z 02003KT 9999 FEW025 BKN230 06/M01 Q1024 RMK 1CU025 5CI230 A3024;EQDQ01+000000PRSWM2
0183477160999992000040323004+36030+140200FM-15+0029RJAK V0200201N004612200019N0112651N1+00801+00101999999ADDGA1021+069009999GF104991999999999999999999MA1102401999999MW1001REMMET089RJAK 2300Z 02009KT 9999 SCT230 08/01 Q1024 RMK 3CI230 A3024 FCST 2308 BECMG 0103 09010KT;EQDQ01+000000PRSWM2
0200477160999992000040400004+36030+140200FM-15+0029RJAK V0200401N004112200019N0112651N1+01001+00201999999ADDGA1021+007509999GA2021+069009999GF104991999999999999999999MA1102401999999MW1001REMMET090RJAK 0000Z 04008KT 9999 FEW025 SCT230 10/02 Q1024 RMK 1CU025 3CI230 A3026 FCST 0009 NOSIG;EQDQ01+000000PRSWM2
0184477160999992000040401004+36030+140200FM-15+0029RJAK V0200801N004112200019N0112651N1+01201+00201999999ADDGA1021+007509999GA2021+069009999GF104991999999999999999999MA1102511999999MW1001REMMET074RJAK 0100Z 08008KT 9999 FEW025 SCT230 12/02 Q1025 RMK 1CU025 4CI230 A3027;EQDQ01+000000PRSWM2
0184477160999992000040402004+36030+140200FM-15+0029RJAK V0200901N004112200019N0112651N1+01301+00301999999ADDGA1021+009009999GA2021+069009999GF104991999999999999999999MA1102401999999MW1001REMMET074RJAK 0200Z 09008KT 9999 FEW030 SCT230 13/03 Q1024 RMK 1CU030 4CI230 A3026;EQDQ01+000000PRSWM2
0213477160999992000040403004+36030+140200FM-15+0029RJAK V0200901N004612200019N0112651N1+01401+00201999999ADDGA1021+009009999GF104991999999999999999999MA1102401999999MW1001REMMET119RJAK 0300Z 09009KT 9999 SCT030 14/02 Q1024 RMK 4CU030 A3024 FCST 0312 TEMPO 0306 BKN030CU BECMG 1012 SCT030CU BKN100AC;EQDQ01+000000PRSWM2
0154477160999992000040404004+36030+140200FM-15+0029RJAK V0200601N006212200019N0112651N1+01301+00301999999ADDGA1021+009009999GF104991999999999999999999MA1102301999999MW1001REMMET060RJAK 0400Z 06012KT 9999 SCT030 13/03 Q1023 RMK 3CU030 A3022;EQDQ01+000000PRSWM2
0184477160999992000040405004+36030+140200FM-15+0029RJAK V0200601N007210690019N0112651N1+01301+00401999999ADDGA1021+010509999GA2071+069009999GF107991999999999999999999MA1102201999999MW1001REMMET074RJAK 0500Z 06014KT 9999 FEW035 BKN230 13/04 Q1022 RMK 2CU035 5CI230 A3020;EQDQ01+000000PRSWM2
0232477160999992000040406004+36030+140200FM-15+0029RJAK V0200701N007710690019N0112651N1+01301+00401999999ADDGA1021+010509999GA2071+069009999GF107991999999999999999999MA1102201999999MW1001REMMET122RJAK 0600Z 07015KT 9999 FEW035 BKN230 13/04 Q1022 RMK 1CU035 7CI230 A3020 FCST 0615 BECMG 1012 SCT030CU BKN100AC BKN210CI;EQDQ01+000000PRSWM2
0184477160999992000040407004+36030+140200FM-15+0029RJAK V0200701N006710690019N0112651N1+01301+00501999999ADDGA1021+010509999GA2071+069009999GF107991999999999999999999MA1102201999999MW1001REMMET074RJAK 0700Z 07013KT 9999 FEW035 BKN230 13/05 Q1022 RMK 1CU035 7CS230 A3019;EQDQ01+000000PRSWM2
0236477160999992000040408004+36030+140200FM-15+0029RJAK V0200701N005710600019N0112651N1+01301+00601999999ADDGA1021+010509999GA2081+060009999GF108991999999999999999999MA1102201999999MW1001REMMET126RJAK 0800Z RTD 07011KT 9999 FEW035 OVC200 13/06 Q1022 RMK 1CU035 8CS200 A3020 FCST 0817 BECMG 1113 SCT035SC BKN100AC OVC200CS;EQDQ01+000000PRSWM2
0243477160999992000040422004+36030+140200FM-15+0029RJAK V0200101N003110090019N0050001N1+01001+00801999999ADDGA1021+002409999GA2071+009009999GA3081+024009999GF108991999999999999999999MA1101591999999MW1101MW2611REMMET095RJAK 2200Z 01006KT 5000 -RA BR FEW008 BKN030 OVC080 10/08 Q1016 RMK 2ST008 6SC030 8AS080 A3000;EQDQ01+000003PRSWM1Q02    003PRSWM1
0255477160999992000040422124+36030+140200FM-16+0029RJAK V0200201N002110090019N0032001N1+01101+00901999999ADDGA1021+002409999GA2071+009009999GA3081+024009999GF108991999999999999999999MA1101491999999MW1611REMMET097RJAK 042212Z 02004KT 3200 -RA BR SCT008 BKN030 OVC080 11/09 Q1015 RMK 3ST008 6SC030 8AS080 A2999;EQDQ01+000100PRSWM3Q02+000003PRSWM1Q03    003PRSWM1
0323477160999992000040423004+36030+140200FM-15+0029RJAK V0200601N004610090019N0060001N1+01101+01001999999ADDGA1021+002409999GA2071+009009999GA3071+030009999GF107991999999999999999999MA1101491999999MW1801REMMET181RJAK 2300Z 06009KT 6000 -SHRA FEW008 BKN030 BKN100 11/10 Q1015 RMK 2CU008 5CU030 7AC100 A2997 FCST 2308 TEMPO 2303 4000 -SHRA BR BECMG 0304 3500 -SHRA BR BKN008CU BKN020CU OVC080AC;EQDQ01+000003PRSWM1Q02    003PRSWM1
0305477160999992000040500004+36030+140200FM-15+0029RJAK V0200401N004110090019N0045001N1+01101+01001999999ADDGA1021+002109999GA2071+009009999GA3081+030009999GF108991999999999999999999MA1101291999999MW1101MW2611REMMET157RJAK 0000Z 04008KT 4500 -RA BR SCT007 BKN030 OVC100 11/10 Q1013 RMK 3ST007 6SC030 8AC100 A2993 FCST 0009 TEMPO 0408 BKN008ST BKN020SC OVC100AC TEMPO 0809 BR;EQDQ01+000003PRSWM1Q02    003PRSWM1
0225477160999992000040500404+36030+140200FM-16+0029RJAK V0200401N003110021019N0045001N1+01201+01101999999ADDGA1071+002109999GA2081+009009999GF108991999999999999999999MA1101191999999MW1611REMMET083RJAK 050040Z 04006KT 4500 -RA BR BKN007 OVC030 12/11 Q1012 RMK 6ST007 8SC030 A2991;EQDQ01+000100PRSWM3Q02+000003PRSWM1Q03    003PRSWM1
0243477160999992000040502004+36030+140200FM-15+0029RJAK V0200401N003110024019N0035001N1+01301+01201999999ADDGA1021+001809999GA2071+002409999GA3081+007509999GF108991999999999999999999MA1101081999999MW1101MW2611REMMET095RJAK 0200Z 04006KT 3500 -RA BR SCT006 BKN008 OVC025 13/12 Q1011 RMK 3ST006 6ST008 8SC025 A2986;EQDQ01+000003PRSWM1Q02    003PRSWM1
0313477160999992000040503004+36030+140200FM-15+0029RJAK V0200701N003610021019N0045001N1+01301+01201999999ADDGA1021+001209999GA2071+002109999GA3081+004509999GF108991999999999999999999MA1100911999999MW1101MW2611REMMET165RJAK 0300Z 07007KT 4500 -RA BR SCT004 BKN007 OVC015 13/12 Q1009 RMK 3ST004 6ST007 8SC015 A2981 P/FR FCST 0312 TEMPO 0810 BR BECMG 1012 BR FEW005ST SCT008ST BKN015SC;EQDQ01+000003PRSWM1Q02    003PRSWM1
0248477160999992000040504004+36030+140200FM-15+0029RJAK V0200801N005110018019N0030001N1+01301+01101999999ADDGA1021+001209999GA2071+001809999GA3081+004509999GF108991999999999999999999MA1100711999999MW1101MW2611REMMET100RJAK 0400Z 08010KT 3000 -RA BR SCT004 BKN006 OVC015 13/11 Q1007 RMK 3ST004 6ST006 8SC015 A2975 P/FR;EQDQ01+000003PRSWM1Q02    003PRSWM1
0248477160999992000040505004+36030+140200FM-15+0029RJAK V0200801N004110024019N0020001N1+01401+01401999999ADDGA1021+001209999GA2071+002409999GA3081+004509999GF108991999999999999999999MA1100511999999MW1101MW2611REMMET100RJAK 0500Z 08008KT 2000 -RA BR SCT004 BKN008 OVC015 14/14 Q1005 RMK 3ST004 6ST008 8SC015 A2969 P/FR;EQDQ01+000003PRSWM1Q02    003PRSWM1
0308477160999992000040506004+36030+140200FM-15+0029RJAK V0200701N004110021019N0018001N1+01401+01401999999ADDGA1021+001209999GA2071+002109999GA3081+004509999GF108991999999999999999999MA1100411999999MW1101MW2611REMMET160RJAK 0600Z 07008KT 1800 -RA BR SCT004 BKN007 OVC015 14/14 Q1004 RMK 3ST004 6ST007 8SC015 A2965 FCST 0615 TEMPO 0812 BR BECMG 1214 BR FEW005ST SCT008ST BKN015SC;EQDQ01+000003PRSWM1Q02    003PRSWM1
0248477160999992000040507004+36030+140200FM-15+0029RJAK V0200601N004110021019N0018001N1+01501+01401999999ADDGA1021+001209999GA2071+002109999GA3081+004509999GF108991999999999999999999MA1100201999999MW1101MW2611REMMET100RJAK 0700Z 06008KT 1800 -RA BR SCT004 BKN007 OVC015 15/14 Q1002 RMK 3ST004 6ST007 8SC015 A2960 P/FR;EQDQ01+000003PRSWM1Q02    003PRSWM1
0308477160999992000040508004+36030+140200FM-15+0029RJAK V0200301N003610021019N0020001N1+01501+01401999999ADDGA1021+001209999GA2071+002109999GA3081+003609999GF108991999999999999999999MA1100001999999MW1101MW2611REMMET160RJAK 0800Z 03007KT 2000 -RA BR SCT004 BKN007 OVC012 15/14 Q1000 RMK 3ST004 6ST007 8SC012 A2955 FCST 0817 TEMPO 1012 BR BECMG 1214 BR FEW004ST SCT008ST OVC015SC;EQDQ01+000003PRSWM1Q02    003PRSWM1
0214477160999992000040522004+36030+140200FM-15+0029RJAK V02099999999990150019N0112651N1+01201+01001999999ADDGA1021+004509999GA2021+009009999GA3071+015009999GF107991999999999999999999MA1100711999999MW1001REMMET088RJAK 2200Z VRB03KT 9999 FEW015 SCT030 BKN050 12/10 Q1007 RMK 2CU015 3CU030 6SC050 A2976;EQDQ01+000000PRSWM2
0205477160999992000040523004+36030+140200FM-15+0029RJAK V0200201N001512200019N0112651N1+01301+00401999999ADDGA1021+009009999GA2021+015009999GF104991999999999999999999MA1100911999999MW1001REMMET095RJAK 2300Z 02003KT 9999 FEW030 SCT050 13/04 Q1009 RMK 2CU030 4SC050 A2981 P/RR FCST 2308 NOSIG;EQDQ01+000000PRSWM2
0216477160999992000040600004+36030+140200FM-15+0029RJAK V0203001N002612200019N0112651N1+01401+00101999999ADDGA1021+009009999GA2021+015009999GF104991999999999999999999MA1101021999999MW1001REMMET106RJAK 0000Z 30005KT 9999 FEW030 SCT050 14/01 Q1010 RMK 1CU030 3SC050 A2983 FCST 0009 TEMPO 0005 30012G25KT;EQDQ01+000000PRSWM2
0195477160999992000040601004+36030+140200FM-15+0029RJAK V0202801N003612200019N0112651N1+01601+00201999999ADDGA1021+015009999GA2021+036009999GF104991999999999999999999MA1101081999999MW1001OC100931REMMET077RJAK 0100Z 28007G18KT 9999 FEW050 SCT120 16/02 Q1011 RMK 2SC050 3AC120 A2988;EQDQ01+000000PRSWM2
0196477160999992000040602004+36030+140200FM-15+0029RJAK V0203001N005710150019N0112651N1+01601-00401999999ADDGA1021+009009999GA2071+015009999GF107991999999999999999999MA1101081999999MW1001OC101081REMMET078RJAK 0200Z 30011G21KT 9999 FEW030 BKN050 16/M04 Q1011 RMK 1CU030 5SC050 A2988;EQDQ01+000000PRSWM2
0225477160999992000040603004+36030+140200FM-15+0029RJAK V0203101N004112200019N0112651N1+01701+00001999999ADDGA1021+009009999GA2021+015009999GF104991999999999999999999MA1101191999999MW1001OC100931REMMET107RJAK 0300Z 31008G18KT 9999 FEW030 SCT050 17/M00 Q1012 RMK 1CU030 4SC050 A2990 FCST 0312 BECMG 0507 33010KT;EQDQ01+000000PRSWM2
0215477160999992000040604004+36030+140200FM-15+0029RJAK V0202901N004610300019N0112651N1+01701-00701999999ADDGA1021+009009999GA2021+015009999GA3071+030009999GF107991999999999999999999MA1101291999999MW1001REMMET089RJAK 0400Z 29009KT 9999 FEW030 SCT050 BKN100 17/M07 Q1013 RMK 1CU030 4SC050 6AC100 A2992;EQDQ01+000000PRSWM2
0215477160999992000040605004+36030+140200FM-15+0029RJAK V0202401N002110300019N0112651N1+01701-00601999999ADDGA1021+009009999GA2021+015009999GA3071+030009999GF107991999999999999999999MA1101291999999MW1001REMMET089RJAK 0500Z 24004KT 9999 FEW030 SCT050 BKN100 17/M06 Q1013 RMK 1CU030 4SC050 5AC100 A2993;EQDQ01+000000PRSWM2
0200477160999992000040606004+36030+140200FM-15+0029RJAK V0201001N004610135019N0112651N1+01701+00202999999ADDGA1021+009009999GA2071+013509999GF107991999999999999999999MA1101391999999MW1001REMMET090RJAK 0600Z 10009KT 9999 FEW030 BKN045 17/02 Q1014 RMK 1CU030 5SC045 A2995 FCST 0615 NOSIG;EQDQ01+000000PRSWM2
0184477160999992000040607004+36030+140200FM-15+0029RJAK V0201201N005112200019N0112651N1+01601+00201999999ADDGA1021+009009999GA2021+013509999GF104991999999999999999999MA1101491999999MW1001REMMET074RJAK 0700Z 12010KT 9999 FEW030 SCT045 16/02 Q1015 RMK 1CU030 3SC045 A2997;EQDQ01+000000PRSWM2
0170477160999992000040608004+36030+140200FM-15+0029RJAK V0201001N004612200019N0112651N1+01501+00101999999ADDGA1021+009009999GF102991999999999999999999MA1101591999999MW1001REMMET076RJAK 0800Z 10009KT 9999 FEW030 15/01 Q1016 RMK 1CU030 A3001 FCST 0817 NOSIG;EQDQ01+000000PRSWM2
0184477160999992000040622004+36030+140200FM-15+0029RJAK V0201001N002110150019N0112651N1+01101+00601999999ADDGA1021+010509999GA2071+015009999GF107991999999999999999999MA1102101999999MW1001REMMET074RJAK 2200Z 10004KT 9999 FEW035 BKN050 11/06 Q1021 RMK 1SC035 6SC050 A3017;EQDQ01+000000PRSWM2
0214477160999992000040623004+36030+140200FM-15+0029RJAK V0201301N001510150019N0112651N1+01201+00701999999ADDGA1021+010509999GA2071+015009999GF107991999999999999999999MA1102201999999MW1001REMMET104RJAK 2300Z 13003KT 9999 SCT035 BKN050 12/07 Q1022 RMK 3SC035 7SC050 A3019 FCST 2308 TEMPO 0608 BKN030SC;EQDQ01+000000PRSWM2
0244477160999992000040700004+36030+140200FM-15+0029RJAK V0201801N002110120019N0112651N1+01401+00801999999ADDGA1021+007509999GA2071+012009999GA3081+024009999GF108991999999999999999999MA1102201999999MW1001REMMET118RJAK 0000Z 18004KT 9999 FEW025 BKN040 OVC080 14/08 Q1022 RMK 1CU025 5SC040 8AC080 A3018 FCST 0009 TEMPO 0609 BKN030SC;EQDQ01+000000PRSWM2
0214477160999992000040701004+36030+140200FM-15+0029RJAK V0201801N002110120019N0112651N1+01401+00901999999ADDGA1021+007509999GA2071+012009999GA3081+024009999GF108991999999999999999999MA1102201999999MW1001REMMET088RJAK 0100Z 18004KT 9999 SCT025 BKN040 OVC080 14/09 Q1022 RMK 3CU025 6SC040 8AC080 A3018;EQDQ01+000000PRSWM2
0214477160999992000040702004+36030+140200FM-15+0029RJAK V0201201N002110120019N0112651N1+01501+01001999999ADDGA1021+007509999GA2071+012009999GA3081+024009999GF108991999999999999999999MA1102001999999MW1001REMMET088RJAK 0200Z 12004KT 9999 FEW025 BKN040 OVC080 15/10 Q1020 RMK 2CU025 6SC040 8AC080 A3014;EQDQ01+000000PRSWM2
0223477160999992000040703004+36030+140200FM-15+0029RJAK V0201601N003110120019N0112651N1+01501+01001999999ADDGA1021+007509999GA2081+012009999GF108991999999999999999999MA1101901999999MW1001REMMET113RJAK 0300Z 16006KT 9999 SCT025 OVC040 15/10 Q1019 RMK 4CU025 8SC040 A3011 FCST 0312 BECMG 0608 BKN025CU BKN040SC;EQDQ01+000000PRSWM2
0214477160999992000040704004+36030+140200FM-15+0029RJAK V0201701N005110120019N0112651N1+01701+01101999999ADDGA1021+007509999GA2071+012009999GA3071+024009999GF107991999999999999999999MA1101801999999MW1001REMMET088RJAK 0400Z 17010KT 9999 SCT025 BKN040 BKN080 17/11 Q1018 RMK 3CU025 5SC040 6AC080 A3008;EQDQ01+000000PRSWM2
0186477160999992000040704104+36030+140200FM-16+0029RJAK V0201901N004610075019N0112651N1+01801+01101999999ADDGA1071+007509999GA2071+063009999GF107991999999999999999999MA1101801999999MW1001REMMET076RJAK 070410Z 19009KT 9999 BKN025 BKN210 18/11 Q1018 RMK 6CU025 7CI210 A3007;EQDQ01+000000PRSWM2
0214477160999992000040705004+36030+140200FM-15+0029RJAK V0201801N004610630019N0112651N1+01901+01001999999ADDGA1021+007509999GA2021+009009999GA3071+063009999GF107991999999999999999999MA1101691999999MW1001REMMET088RJAK 0500Z 18009KT 9999 FEW025 SCT030 BKN210 19/10 Q1017 RMK 2CU025 4CU030 7CI210 A3005;EQDQ01+000000PRSWM2
0227477160999992000040705304+36030+140200FM-15+0029RJAK V0202001N004610630019N0112651N1+01901+01001999999ADDGA1021+007509999GA2021+009009999GA3071+063009999GF107991999999999999999999MA1101691999999MW1001OC100981REMMET093RJAK 070530Z 20009G19KT 9999 FEW025 SCT030 BKN210 19/10 Q1017 RMK 1CU025 3CU030 7CI210 A3003;EQDQ01+000000PRSWM2
0230477160999992000040706004+36030+140200FM-15+0029RJAK V0202101N005110630019N0112651N1+01901+01001999999ADDGA1021+007509999GA2021+009009999GA3071+063009999GF107991999999999999999999MA1101591999999MW1001REMMET104RJAK 0600Z 21010KT 9999 FEW025 SCT030 BKN210 19/10 Q1016 RMK 1CU025 3CU030 6CI210 A3002 FCST 0615 NOSIG;EQDQ01+000000PRSWM2
0184477160999992000040707004+36030+140200FM-15+0029RJAK V0202101N005712200019N0112651N1+01901+00901999999ADDGA1021+007509999GA2021+063009999GF104991999999999999999999MA1101491999999MW1001REMMET074RJAK 0700Z 21011KT 9999 FEW025 SCT210 19/09 Q1015 RMK 1CU025 4CI210 A2999;EQDQ01+000000PRSWM2
0200477160999992000040708004+36030+140200FM-15+0029RJAK V0202101N004612200019N0112651N1+01901+00901999999ADDGA1021+007509999GA2021+063009999GF104991999999999999999999MA1101491999999MW1001REMMET090RJAK 0800Z 21009KT 9999 FEW025 SCT210 19/09 Q1015 RMK 1CU025 4CI210 A2998 FCST 0817 NOSIG;EQDQ01+000000PRSWM2
0202477160999992000040723004+36030+140200FM-15+0029RJAK V0202901N002612200019N9999999N1+01301+00701999999ADDGA1021+069009999GF102991999999999999999999MA1101291999999MW1001REMMET092RJAK 2300Z 29005KT 6000 FEW230 13/07 Q1013 RMK 2CI230 A2992 FCST 2308 TEMPO 0308 33010G23KT;EQDQ01+060002VODIS Q02+000000PRSWM2
0186477160999992000040800004+36030+140200FM-15+0029RJAK V0203201N003112200019N0112651N1+01601+00501999999ADDGA1021+069009999GF102991999999999999999999MA1101291999999MW1001REMMET092RJAK 0000Z 32006KT 9999 FEW230 16/05 Q1013 RMK 2CI230 A2992 FCST 0009 TEMPO 0308 33010G23KT;EQDQ01+000000PRSWM2
0165477160999992000040802004+36030+140200FM-15+0029RJAK V0203301N005112200019N0112651N1+01901+00201999999ADDGA1021+009009999GF102991999999999999999999MA1101291999999MW1001OC101031REMMET063RJAK 0200Z 33010G20KT 9999 FEW030 19/02 Q1013 RMK 1CU030 A2993;EQDQ01+000000PRSWM2
0186477160999992000040803004+36030+140200FM-15+0029RJAK V0203401N004112200019N0112651N1+02001+00001999999ADDGA1021+009009999GF102991999999999999999999MA1101291999999MW1001REMMET092RJAK 0300Z 34008KT 9999 FEW030 20/00 Q1013 RMK 2CU030 A2994 FCST 0312 TEMPO 0308 33010G21KT;EQDQ01+000000PRSWM2
0155477160999992000040821004+36030+140200FM-15+0029RJAK V0209999C000012200019N0112651N1+00501-00101999999ADDGA1021+063009999GF104991999999999999999999MA1102511999999MW1001REMMET061RJAK 2100Z 00000KT 9999 SCT210 05/M01 Q1025 RMK 3CI210 A3027;EQDQ01+000000PRSWM2
0129477160999992000040822004+36030+140200FM-15+0029RJAK V0202901N000512200019N0112651N1+00601-00201999999ADDGF100991999999999999999999MA1102611999999MW1001REMMET051RJAK 2200Z 29001KT 9999 SKC 06/M02 Q1026 RMK A3030;EQDQ01+000000PRSWM2
0158477160999992000040823004+36030+140200FM-15+0029RJAK V0200201N001012200019N0112651N1+01001-00201999999ADDGF100991999999999999999999MA1102611999999MW1001REMMET080RJAK 2300Z 02002KT 9999 SKC 10/M02 Q1026 RMK A3032 FCST 2308 BECMG 0002 12010KT;EQDQ01+000000PRSWM2
0145477160999992000040900004+36030+140200FM-15+0029RJAK V0200801N001512200019N0112651N1+01101+00001999999ADDGF100991999999999999999999MA1102611999999MW1001REMMET067RJAK 0000Z 08003KT 9999 SKC 11/M00 Q1026 RMK A3031 FCST 0009 NOSIG;EQDQ01+000000PRSWM2
0154477160999992000040901004+36030+140200FM-15+0029RJAK V0201401N003112200019N0112651N1+01401+00201999999ADDGA1021+069009999GF102991999999999999999999MA1102611999999MW1001REMMET060RJAK 0100Z 14006KT 9999 FEW230 14/02 Q1026 RMK 1CI230 A3031;EQDQ01+000000PRSWM2
0165477160999992000040902004+36030+140200FM-15+0029RJAK V0201401N003112200019N0112651N1+01601+00101999999ADDGA1021+009009999GF102991999999999999999999MA1102511999999MW1001OC101081REMMET063RJAK 0200Z 14006G21KT 9999 FEW030 16/01 Q1025 RMK 1CU030 A3028;EQDQ01+000000PRSWM2
0186477160999992000040903004+36030+140200FM-15+0029RJAK V0201801N003612200019N0112651N1+01701+00201999999ADDGA1021+009009999GF102991999999999999999999MA1102401999999MW1001REMMET092RJAK 0300Z 18007KT 9999 FEW030 17/02 Q1024 RMK 2CU030 A3026 FCST 0312 TEMPO 0308 16010G22KT;EQDQ01+000000PRSWM2
0197477160999992000040903054+36030+140200FM-16+0029RJAK V0201601N004110690019N0112651N1+01601+00301999999ADDGA1021+009009999GA2071+069009999GF107991999999999999999999MA1102401999999MW1001OC100931REMMET079RJAK 090305Z 16008G18KT 9999 SCT030 BKN230 16/03 Q1024 RMK 4CU030 5CI230 A3025;EQDQ01+000000PRSWM2
0195477160999992000040904004+36030+140200FM-15+0029RJAK V0200601N003610690019N0112651N1+01601+00401999999ADDGA1021+009009999GA2071+069009999GF107991999999999999999999MA1102401999999MW1001OC100871REMMET077RJAK 0400Z 06007G17KT 9999 SCT030 BKN230 16/04 Q1024 RMK 4CU030 5CI230 A3024;EQDQ01+000000PRSWM2
0225477160999992000040905004+36030+140200FM-15+0029RJAK V0201301N005110690019N0112651N1+01701+00601999999ADDGA1021+007509999GA2021+009009999GA3071+069009999GF107991999999999999999999MA1102301999999MW1001OC101081REMMET091RJAK 0500Z 13010G21KT 9999 FEW025 SCT030 BKN230 17/06 Q1023 RMK 1CU025 4CU030 5CI230 A3022;EQDQ01+000000PRSWM2
0184477160999992000040922004+36030+140200FM-15+0029RJAK V0201601N004110120019N0112651N1+01301+00801999999ADDGA1071+012009999GA2071+030009999GF107991999999999999999999MA1101901999999MW1001REMMET074RJAK 2200Z 16008KT 9999 BKN040 BKN100 13/08 Q1019 RMK 6SC040 7AC100 A3010;EQDQ01+000000PRSWM2
0266477160999992000040923004+36030+140200FM-15+0029RJAK V0201701N003110120019N0112651N1+01401+00901999999ADDGA1021+010509999GA2071+012009999GA3081+030009999GF108991999999999999999999MA1101901999999MW1001REMMET140RJAK 2300Z 17006KT 9999 FEW035 BKN040 OVC100 14/09 Q1019 RMK 1SC035 6SC040 8AC100 A3009 FCST 2308 TEMPO 0508 -SHRA TEMPO 0608 4000 -SHRA BR;EQDQ01+000000PRSWM2
0315477160999992000041000004+36030+140200FM-15+0029RJAK V0201801N006210120019N0112651N1+01701+00901999999ADDGA1021+007509999GA2071+012009999GA3081+030009999GF108991999999999999999999MA1101801999999MW1001OC101131REMMET181RJAK 0000Z 18012G22KT 9999 FEW025 BKN040 OVC100 17/09 Q1018 RMK 1CU025 6SC040 8AC100 A3007 FCST 0009 TEMPO 0509 -SHRA BECMG 0608 SCT015CU BKN025SC OVC040SC TEMPO 0709 4000 -SHRA BR;EQDQ01+000000PRSWM2
0219477160999992000041001004+36030+140200FM-15+0029RJAK V0201801N006210300019N0112651N1+01801+00901999999ADDGA1021+007509999GA2021+012009999GA3071+030009999GF107991999999999999999999MA1101691999999MW1001REMMET093RJAK 0100Z 18012KT 9999 FEW025 SCT040 BKN100 18/09 Q1017 RMK 1CU025 4SC040 5AC100 A3003 P/FR;EQDQ01+000000PRSWM2
0214477160999992000041002004+36030+140200FM-15+0029RJAK V0201601N007210300019N0112651N1+01801+00901999999ADDGA1021+007509999GA2071+030009999GA3071+069009999GF107991999999999999999999MA1101491999999MW1001REMMET088RJAK 0200Z 16014KT 9999 SCT025 BKN100 BKN230 18/09 Q1015 RMK 3CU025 5AC100 7CI230 A2999;EQDQ01+000000PRSWM2
0304477160999992000041003004+36030+140200FM-15+0029RJAK V0201601N005710135019N0112651N1+01701+01001999999ADDGA1021+009009999GA2071+013509999GA3071+030009999GF107991999999999999999999MA1101391999999MW1001REMMET178RJAK 0300Z 16011KT 9999 SCT030 BKN045 BKN100 17/10 Q1014 RMK 3CU030 5SC045 7AC100 A2995 FCST 0312 TEMPO 0307 -SHRA BECMG 0608 SCT015CU BKN025SC OVC040SC TEMPO 0712 3000 -SHRA BR;EQDQ01+000000PRSWM2
0238477160999992000041003124+36030+140200FM-16+0029RJAK V0201601N006210090019N0112651N1+01701+01001999999ADDGA1071+009009999GA2071+013509999GA3071+030009999GF107991999999999999999999MA1101291999999MW1801REMMET096RJAK 100312Z 16012KT 9999 -SHRA BKN030 BKN045 BKN100 17/10 Q1013 RMK 5CU030 6SC045 7AC100 A2993;EQDQ01+000003PRSWM1Q02    003PRSWM1
0208477160999992000041004084+36030+140200FM-16+0029RJAK V0201701N003610075019N0112651N1+01701+01101999999ADDGA1071+007509999GA2071+013509999GF107991999999999999999999MA1101191999999MW1801REMMET082RJAK 100408Z 17007KT 9999 -SHRA BKN025 BKN045 17/11 Q1012 RMK 5CU025 7SC045 A2989;EQDQ01+000003PRSWM1Q02    003PRSWM1
0184477160999992000041005004+36030+140200FM-15+0029RJAK V0201701N005710075019N0112651N1+01701+01101999999ADDGA1071+007509999GA2081+012009999GF108991999999999999999999MA1101081999999MW1001REMMET074RJAK 0500Z 17011KT 9999 BKN025 OVC040 17/11 Q1011 RMK 5CU025 8SC040 A2987;EQDQ01+000000PRSWM2
0208477160999992000041005084+36030+140200FM-16+0029RJAK V0201701N005710075019N0112651N1+01701+01201999999ADDGA1071+007509999GA2081+012009999GF108991999999999999999999MA1101081999999MW1801REMMET082RJAK 100508Z 17011KT 9999 -SHRA BKN025 OVC040 17/12 Q1011 RMK 5CU025 8SC040 A2986;EQDQ01+000003PRSWM1Q02    003PRSWM1
0186477160999992000041005354+36030+140200FM-16+0029RJAK V0201701N006710150019N0112651N1+01701+01201999999ADDGA1021+007509999GA2081+015009999GF108991999999999999999999MA1101021999999MW1001REMMET076RJAK 100535Z 17013KT 9999 SCT025 OVC050 17/12 Q1010 RMK 4CU025 8SC050 A2984;EQDQ01+000000PRSWM2
0225477160999992000041007004+36030+140200FM-15+0029RJAK V0201601N006710075019N0112651N1+01701+01201999999ADDGA1021+004509999GA2071+007509999GA3081+013509999GF108991999999999999999999MA1100911999999MW1001OC101181REMMET091RJAK 0700Z 16013G23KT 9999 FEW015 BKN025 OVC045 17/12 Q1009 RMK 1CU015 5CU025 8SC045 A2981;EQDQ01+000000PRSWM2
0309477160999992000041008004+36030+140200FM-15+0029RJAK V0201601N007710075019N0112651N1+01601+01201999999ADDGA1071+007509999GA2071+015009999GA3081+024009999GF108991999999999999999999MA1100811999999MW1801REMMET167RJAK 0800Z 16015KT 9999 -SHRA BKN025 BKN050 OVC080 16/12 Q1008 RMK 5CU025 7SC050 8AC080 A2978 FCST 0817 TEMPO 1016 10015G30KT 3000 -SHRA BR SCT006CU BKN010CU BKN025SC;EQDQ01+000003PRSWM1Q02    003PRSWM1
0184477160999992000041022004+36030+140200FM-15+0029RJAK V0200301N002610120019N0112651N1+01001+00401999999ADDGA1021+006009999GA2071+012009999GF107991999999999999999999MA1099701999999MW1001REMMET074RJAK 2200Z 03005KT 9999 FEW020 BKN040 10/04 Q0997 RMK 1CU020 7SC040 A2945;EQDQ01+000000PRSWM2
0236477160999992000041023004+36030+140200FM-15+0029RJAK V0202801N001510120019N0112651N1+01001+00401999999ADDGA1021+006009999GA2071+012009999GF107991999999999999999999MA1099801999999MW1001REMMET126RJAK 2300Z 28003KT 9999 FEW020 BKN040 10/04 Q0998 RMK 1CU020 6SC040 A2949 FCST 2308 BECMG 0002 SCT040SC TEMPO 0206 32015G30KT;EQDQ01+000000PRSWM2
0236477160999992000041100004+36030+140200FM-15+0029RJAK V0203001N002610120019N0112651N1+01101+00201999999ADDGA1021+007509999GA2071+012009999GF107991999999999999999999MA1099901999999MW1001REMMET126RJAK 0000Z 30005KT 9999 FEW025 BKN040 11/02 Q0999 RMK 1CU025 6SC040 A2951 FCST 0009 BECMG 0002 SCT040SC TEMPO 0206 32015G30KT;EQDQ01+000000PRSWM2
0197477160999992000041100054+36030+140200FM-16+0029RJAK V0202901N005112200019N0112651N1+01301+00101999999ADDGA1021+007509999GA2021+012009999GF104991999999999999999999MA1100001999999MW1001OC101231REMMET079RJAK 110005Z 29010G24KT 9999 FEW025 SCT040 13/01 Q1000 RMK 1CU025 4SC040 A2954;EQDQ01+000000PRSWM2
0166477160999992000041101004+36030+140200FM-15+0029RJAK V0203001N007212200019N0112651N1+01301-00501999999ADDGA1021+009009999GF102991999999999999999999MA1100001999999MW1001OC101701REMMET064RJAK 0100Z 30014G33KT 9999 FEW030 13/M05 Q1000 RMK 1CU030 A2955;EQDQ01+000000PRSWM2
0168477160999992000041101084+36030+140200FM-16+0029RJAK V0203101N008212200019N0112651N1+01301-00701999999ADDGA1021+009009999GF102991999999999999999999MA1100101999999MW1001OC101801REMMET066RJAK 110108Z 31016G35KT 9999 FEW030 13/M07 Q1001 RMK 1CU030 A2956;EQDQ01+000000PRSWM2
0128477160999992000041122004+36030+140200FM-15+0029RJAK V0201901N001012200019N0080001N1+00801+00401999999ADDGF100991999999999999999999MA1100411999999MW1001REMMET050RJAK 2200Z 19002KT 8000 SKC 08/04 Q1004 RMK A2966;EQDQ01+000000PRSWM2
0160477160999992000041123004+36030+140200FM-15+0029RJAK V0202001N002612200019N0080001N1+01201+00501999999ADDGF100991999999999999999999MA1100411999999MW1001REMMET082RJAK 2300Z 20005KT 8000 SKC 12/05 Q1004 RMK A2965 FCST 2308 TEMPO 0106 23012G25KT;EQDQ01+000000PRSWM2
0168477160999992000041200004+36030+140200FM-15+0029RJAK V0202001N004612200019N0112651N1+01501+00201999999ADDGF100991999999999999999999MA1100311999999MW1001OC100981REMMET082RJAK 0000Z 20009G19KT 9999 SKC 15/02 Q1003 RMK A2963 FCST 0009 BECMG 0608 16010KT;EQDQ01+000000PRSWM2
0128477160999992000041201004+36030+140200FM-15+0029RJAK V0202001N005112200019N0112651N1+01601+00201999999ADDGF100991999999999999999999MA1100311999999MW1001REMMET050RJAK 0100Z 20010KT 9999 SKC 16/02 Q1003 RMK A2962;EQDQ01+000000PRSWM2
0154477160999992000041202004+36030+140200FM-15+0029RJAK V0202101N005112200019N0112651N1+01701+00101999999ADDGA1021+063009999GF102991999999999999999999MA1100201999999MW1001REMMET060RJAK 0200Z 21010KT 9999 FEW210 17/01 Q1002 RMK 1CI210 A2960;EQDQ01+000000PRSWM2
0186477160999992000041203004+36030+140200FM-15+0029RJAK V0202001N006712200019N0112651N1+01801+00101999999ADDGA1021+063009999GF102991999999999999999999MA1100101999999MW1001REMMET092RJAK 0300Z 20013KT 9999 FEW210 18/01 Q1001 RMK 1CI210 A2958 FCST 0312 TEMPO 0306 20012G25KT;EQDQ01+000000PRSWM2
0154477160999992000041204004+36030+140200FM-15+0029RJAK V0201901N006212200019N0112651N1+01901+00201999999ADDGA1021+069009999GF102991999999999999999999MA1100101999999MW1001REMMET060RJAK 0400Z 19012KT 9999 FEW230 19/02 Q1001 RMK 1CI230 A2956;EQDQ01+000000PRSWM2
0164477160999992000041205004+36030+140200FM-15+0029RJAK V0202101N005112200019N0112651N1+01901+00101999999ADDGA1021+069009999GF102991999999999999999999MA1100001999999MW1001OC101131REMMET062RJAK 0500Z 21010G22KT 9999 FEW230 19/1 Q1000 RMK 1CI230 A2954;EQDQ01+000000PRSWM2
0144477160999992000041206004+36030+140200FM-15+0029RJAK V0202001N004612200019N0112651N1+02001+00301999999ADDGF100991999999999999999999MA1100001999999MW1001REMMET066RJAK 0600Z 20009KT 9999 SKC 20/03 Q1000 RMK A2953 FCST 0615 NOSIG;EQDQ01+000000PRSWM2
0154477160999992000041207004+36030+140200FM-15+0029RJAK V0202001N005112200019N0112651N1+02001+00201999999ADDGA1021+069009999GF102991999999999999999999MA1099901999999MW1001REMMET060RJAK 0700Z 20010KT 9999 FEW230 20/02 Q0999 RMK 1CI230 A2950;EQDQ01+000000PRSWM2
0170477160999992000041208004+36030+140200FM-15+0029RJAK V0202001N005112200019N0112651N1+01901+00401999999ADDGA1021+069009999GF102991999999999999999999MA1100001999999MW1001REMMET076RJAK 0800Z 20010KT 9999 FEW230 19/04 Q1000 RMK 1CI230 A2954 FCST 0817 NOSIG;EQDQ01+000000PRSWM2
0154477160999992000041222004+36030+140200FM-15+0029RJAK V02099999999990690019N0112651N1+01201+00501999999ADDGA1071+069009999GF107991999999999999999999MA1100711999999MW1001REMMET060RJAK 2200Z VRB01KT 9999 BKN230 12/05 Q1007 RMK 6CI230 A2975;EQDQ01+000000PRSWM2
0202477160999992000041223004+36030+140200FM-15+0029RJAK V0200301N002610690019N0090001N1+01401+00601999999ADDGA1071+069009999GF107991999999999999999999MA1100711999999MW1001REMMET108RJAK 2300Z 03005KT 9000 BKN230 14/06 Q1007 RMK 5CI230 A2975 FCST 2308 TEMPO 0608 BKN030CU SCT100AC BKN230CI;EQDQ01+000000PRSWM2
0232477160999992000041300004+36030+140200FM-15+0029RJAK V0200501N003612200019N0112651N1+01501+00701999999ADDGA1021+010509999GA2021+069009999GF104991999999999999999999MA1100811999999MW1001REMMET122RJAK 0000Z 05007KT 9999 FEW035 SCT230 15/07 Q1008 RMK 1CU035 4CI230 A2977 FCST 0009 TEMPO 0609 BKN030CU SCT100AC BKN230CI;EQDQ01+000000PRSWM2
0154477160999992000041301004+36030+140200FM-15+0029RJAK V0200801N003612200019N0112651N1+01801+00901999999ADDGA1021+069009999GF104991999999999999999999MA1100811999999MW1001REMMET060RJAK 0100Z 08007KT 9999 SCT230 18/09 Q1008 RMK 3CI230 A2977;EQDQ01+000000PRSWM2
0184477160999992000041302004+36030+140200FM-15+0029RJAK V0200601N004612200019N0112651N1+01901+00801999999ADDGA1021+009009999GA2021+069009999GF104991999999999999999999MA1100811999999MW1001REMMET074RJAK 0200Z 06009KT 9999 FEW030 SCT230 19/08 Q1008 RMK 1CU030 3CI230 A2977;EQDQ01+000000PRSWM2
0193477160999992000041303004+36030+140200FM-15+0029RJAK V0200701N006212200019N0112651N1+01901+00901999999ADDGA1021+009009999GF102991999999999999999999MA1100711999999MW1001REMMET099RJAK 0300Z 07012KT 9999 FEW030 19/09 Q1007 RMK 2CU030 A2976 FCST 0312 TEMPO 0612 BKN030CU SCT100AC;EQDQ01+000000PRSWM2
0154477160999992000041304004+36030+140200FM-15+0029RJAK V0200601N006712200019N0112651N1+01901+01001999999ADDGA1021+009009999GF102991999999999999999999MA1100711999999MW1001REMMET060RJAK 0400Z 06013KT 9999 FEW030 19/10 Q1007 RMK 2CU030 A2975;EQDQ01+000000PRSWM2
0184477160999992000041305004+36030+140200FM-15+0029RJAK V0200701N007212200019N0112651N1+02001+01201999999ADDGA1021+009009999GA2021+069009999GF104991999999999999999999MA1100711999999MW1001REMMET074RJAK 0500Z 07014KT 9999 FEW030 SCT230 20/12 Q1007 RMK 2CU030 3CI230 A2974;EQDQ01+000000PRSWM2
0200477160999992000041306004+36030+140200FM-15+0029RJAK V0200801N006210690019N0112651N1+01901+01001999999ADDGA1021+009009999GA2071+069009999GF107991999999999999999999MA1100611999999MW1001REMMET090RJAK 0600Z 08012KT 9999 FEW030 BKN230 19/10 Q1006 RMK 1CU030 7CI230 A2972 FCST 0615 NOSIG;EQDQ01+000000PRSWM2
0184477160999992000041307004+36030+140200FM-15+0029RJAK V0201001N006710600019N0112651N1+01901+01001999999ADDGA1021+009009999GA2071+060009999GF107991999999999999999999MA1100611999999MW1001REMMET074RJAK 0700Z 10013KT 9999 FEW030 BKN200 19/10 Q1006 RMK 1CU030 7CI200 A2972;EQDQ01+000000PRSWM2
0200477160999992000041308004+36030+140200FM-15+0029RJAK V0201301N006210600019N0112651N1+01901+01101999999ADDGA1021+009009999GA2071+060009999GF107991999999999999999999MA1100711999999MW1001REMMET090RJAK 0800Z 13012KT 9999 FEW030 BKN200 19/11 Q1007 RMK 1CU030 7CS200 A2973 FCST 0817 NOSIG;EQDQ01+000000PRSWM2
0203477160999992000041322004+36030+140200FM-15+0029RJAK V0202501N002110024019N0003001N1+01001+00901999999ADDGA1021+001209999GA2071+002409999GF107991999999999999999999MA1100811999999MW1441REMMET077RJAK 2200Z 25004KT 0300 FG FEW004 BKN008 10/09 Q1008 RMK 2ST004 7ST008 A2977;EQDQ01+000003PRSWM1Q02    003PRSWM1
0266477160999992000041323004+36030+140200FM-15+0029RJAK V0202301N001512200019N0006001N1+01101+01001999999ADDGA1021+002409999GA2021+060009999GF104991999999999999999999MA1100711999999MW1441REMMET140RJAK 2300Z 23003KT 0600 FG SCT008 SCT200 11/10 Q1007 RMK 4ST008 4CI200 A2976 FCST 2308 BECMG 2300 1500 BR BECMG 0001 5000 BR BECMG 0102 NSW;EQDQ01+000003PRSWM1Q02    003PRSWM1
0205477160999992000041323364+36030+140200FM-16+0029RJAK V0202201N001510600019N0018001N1+01301+01101999999ADDGA1021+003009999GA2071+060009999GF107991999999999999999999MA1100711999999MW1101REMMET079RJAK 132336Z 22003KT 1800 BR FEW010 BKN200 13/11 Q1007 RMK 2ST010 6CI200 A2975;EQDQ01+000003PRSWM1Q02    003PRSWM1
0239477160999992000041400004+36030+140200FM-15+0029RJAK V0202101N001510600019N0030001N1+01401+01101999999ADDGA1071+060009999GF107991999999999999999999MA1100711999999MW1101REMMET129RJAK 0000Z 21003KT 3000 BR BKN200 14/11 Q1007 RMK 6CI200 A2975 FCST 0009 BECMG 0001 5000 BR BECMG 0102 NSW TEMPO 0307 22012G23KT;EQDQ01+000003PRSWM1Q02    003PRSWM1
0172477160999992000041400524+36030+140200FM-16+0029RJAK V0201801N003110600019N9999999N1+01701+01001999999ADDGA1071+060009999GF107991999999999999999999MA1100711999999MW1001REMMET062RJAK 140052Z 18006KT 6000 BKN200 17/10 Q1007 RMK 7CI200 A2975;EQDQ01+060002VODIS Q02+000000PRSWM2
0170477160999992000041401004+36030+140200FM-15+0029RJAK V0201801N003110600019N9999999N1+01701+01001999999ADDGA1071+060009999GF107991999999999999999999MA1100611999999MW1001REMMET060RJAK 0100Z 18006KT 6000 BKN200 17/10 Q1006 RMK 7CI200 A2972;EQDQ01+060002VODIS Q02+000000PRSWM2
0165477160999992000041402004+36030+140200FM-15+0029RJAK V0202301N005110600019N0070001N1+01901+00801999999ADDGA1071+060009999GF107991999999999999999999MA1100511999999MW1001OC101081REMMET063RJAK 0200Z 23010G21KT 7000 BKN200 19/08 Q1005 RMK 7CI200 A2970;EQDQ01+000000PRSWM2
0210477160999992000041403004+36030+140200FM-15+0029RJAK V0202301N004610600019N9999999N1+02001+00801999999ADDGA1071+060009999GF107991999999999999999999MA1100511999999MW1001OC100981REMMET092RJAK 0300Z 23009G19KT 7000 BKN200 20/08 Q1005 RMK 7CI200 A2968 FCST 0312 BECMG 0709 23008KT;EQDQ01+070002VODIS Q02+000000PRSWM2
0165477160999992000041404004+36030+140200FM-15+0029RJAK V0202201N005710600019N0080001N1+02101+00801999999ADDGA1071+060009999GF107991999999999999999999MA1100411999999MW1001OC101081REMMET063RJAK 0400Z 22011G21KT 8000 BKN200 21/08 Q1004 RMK 7CS200 A2966;EQDQ01+000000PRSWM2
0154477160999992000041405004+36030+140200FM-15+0029RJAK V0202001N005110600019N0080001N1+02101+00901999999ADDGA1071+060009999GF107991999999999999999999MA1100411999999MW1001REMMET060RJAK 0500Z 20010KT 8000 BKN200 21/09 Q1004 RMK 7CI200 A2965;EQDQ01+000000PRSWM2
0170477160999992000041406004+36030+140200FM-15+0029RJAK V0202001N004110600019N0080001N1+02201+01001999999ADDGA1071+060009999GF107991999999999999999999MA1100311999999MW1001REMMET076RJAK 0600Z 20008KT 8000 BKN200 22/10 Q1003 RMK 7CI200 A2963 FCST 0615 NOSIG;EQDQ01+000000PRSWM2
0154477160999992000041407004+36030+140200FM-15+0029RJAK V0202201N003110600019N0080001N1+02201+01001999999ADDGA1071+060009999GF107991999999999999999999MA1100411999999MW1001REMMET060RJAK 0700Z 22006KT 8000 BKN200 22/10 Q1004 RMK 7CI200 A2965;EQDQ01+000000PRSWM2
0200477160999992000041408004+36030+140200FM-15+0029RJAK V0201801N004110600019N0080001N1+02201+01001999999ADDGA1021+009009999GA2071+060009999GF107991999999999999999999MA1100411999999MW1001REMMET090RJAK 0800Z 18008KT 8000 FEW030 BKN200 22/10 Q1004 RMK 1CU030 7CI200 A2965 FCST 0817 NOSIG;EQDQ01+000000PRSWM2
0155477160999992000041622004+36030+140200FM-15+0029RJAK V0202901N002112200019N0112651N1+00701-00201999999ADDGA1021+010509999GF102991999999999999999999MA1101291999999MW1001REMMET061RJAK 2200Z 29004KT 9999 FEW035 07/M02 Q1013 RMK 1SC035 A2993;EQDQ01+000000PRSWM2
0171477160999992000041623004+36030+140200FM-15+0029RJAK V0203201N001512200019N0112651N1+00901-00201999999ADDGA1021+010509999GF102991999999999999999999MA1101391999999MW1001REMMET077RJAK 2300Z 32003KT 9999 FEW035 09/M02 Q1014 RMK 1SC035 A2995 FCST 2308 NOSIG;EQDQ01+000000PRSWM2
0171477160999992000041700004+36030+140200FM-15+0029RJAK V0203101N001012200019N0112651N1+01001-00401999999ADDGA1021+009009999GF102991999999999999999999MA1101391999999MW1001REMMET077RJAK 0000Z 31002KT 9999 FEW030 10/M04 Q1014 RMK 1CU030 A2996 FCST 0009 NOSIG;EQDQ01+000000PRSWM2
0155477160999992000041701004+36030+140200FM-15+0029RJAK V0201601N002112200019N0112651N1+01201-00301999999ADDGA1021+009009999GF102991999999999999999999MA1101391999999MW1001REMMET061RJAK 0100Z 16004KT 9999 FEW030 12/M03 Q1014 RMK 1CU030 A2996;EQDQ01+000000PRSWM2
0155477160999992000041702004+36030+140200FM-15+0029RJAK V02099999999992200019N0112651N1+01301-00301999999ADDGA1021+009009999GF102991999999999999999999MA1101391999999MW1001REMMET061RJAK 0200Z VRB02KT 9999 FEW030 13/M03 Q1014 RMK 1CU030 A2995;EQDQ01+000000PRSWM2
0202477160999992000041703004+36030+140200FM-15+0029RJAK V0202301N003112200019N0112651N1+01301-00401999999ADDGA1021+009009999GF102991999999999999999999MA1101391999999MW1001REMMET108RJAK 0300Z 23006KT 230V020 9999 FEW030 13/M04 Q1014 RMK 2CU030 A2994 FCST 0312 TEMPO 0912 FEW030CU BKN100AC;EQDQ01+000000PRSWM2
0155477160999992000041704004+36030+140200FM-15+0029RJAK V0202101N003112200019N0112651N1+01501-00401999999ADDGA1021+009009999GF102991999999999999999999MA1101391999999MW1001REMMET061RJAK 0400Z 21006KT 9999 FEW030 15/M04 Q1014 RMK 2CU030 A2994;EQDQ01+000000PRSWM2
0155477160999992000041705004+36030+140200FM-15+0029RJAK V0203501N002112200019N0112651N1+01501-00401999999ADDGA1021+009009999GF102991999999999999999999MA1101291999999MW1001REMMET061RJAK 0500Z 35004KT 9999 FEW030 15/M04 Q1013 RMK 1CU030 A2993;EQDQ01+000000PRSWM2
0194477160999992000041706004+36030+140200FM-15+0029RJAK V0202001N002612200019N0112651N1+01601-00301999999ADDGA1021+007509999GF102991999999999999999999MA1101291999999MW1001REMMET100RJAK 0600Z 20005KT 9999 FEW025 16/M03 Q1013 RMK 1CU025 A2991 FCST 0615 TEMPO 0915 FEW030CU BKN100AC;EQDQ01+000000PRSWM2
0185477160999992000041707004+36030+140200FM-15+0029RJAK V0201301N003612200019N0112651N1+01501-00301999999ADDGA1021+009009999GA2021+030009999GF104991999999999999999999MA1101291999999MW1001REMMET075RJAK 0700Z 13007KT 9999 FEW030 SCT100 15/M03 Q1013 RMK 1CU030 4AC100 A2991;EQDQ01+000000PRSWM2
0217477160999992000041707174+36030+140200FM-16+0029RJAK V0201501N003610300019N0112651N1+01501-00201999999ADDGA1021+009009999GA2021+012009999GA3071+030009999GF107991999999999999999999MA1101291999999MW1001REMMET091RJAK 170717Z 15007KT 9999 FEW030 SCT040 BKN100 15/M02 Q1013 RMK 1CU030 4SC040 7AC100 A2992;EQDQ01+000000PRSWM2
0198477160999992000041707364+36030+140200FM-16+0029RJAK V0201601N004610300019N0112651N1+01401-00201999999ADDGA1021+012009999GA2071+030009999GF107991999999999999999999MA1101291999999MW1001OC101031REMMET080RJAK 170736Z 16009G20KT 9999 SCT040 BKN100 14/M02 Q1013 RMK 4SC040 7AC100 A2993;EQDQ01+000000PRSWM2
0201477160999992000041708004+36030+140200FM-15+0029RJAK V0201601N006210300019N0112651N1+01301+00001999999ADDGA1021+012009999GA2071+030009999GF107991999999999999999999MA1101291999999MW1001REMMET091RJAK 0800Z 16012KT 9999 SCT040 BKN100 13/M00 Q1013 RMK 4SC040 7AC100 A2993 FCST 0817 NOSIG;EQDQ01+000000PRSWM2
0128477160999992000041722004+36030+140200FM-15+0029RJAK V0202001N001012200019N0112651N1+00701+00301999999ADDGF100991999999999999999999MA1101801999999MW1001REMMET050RJAK 2200Z 20002KT 9999 SKC 07/03 Q1018 RMK A3008;EQDQ01+000000PRSWM2
0144477160999992000041723004+36030+140200FM-15+0029RJAK V0202301N001012200019N0112651N1+01001+00301999999ADDGF100991999999999999999999MA1101901999999MW1001REMMET066RJAK 2300Z 23002KT 9999 SKC 10/03 Q1019 RMK A3010 FCST 2308 NOSIG;EQDQ01+000000PRSWM2
0144477160999992000041800004+36030+140200FM-15+0029RJAK V0202101N001512200019N0112651N1+01301+00401999999ADDGF100991999999999999999999MA1101901999999MW1001REMMET066RJAK 0000Z 21003KT 9999 SKC 13/04 Q1019 RMK A3010 FCST 0009 NOSIG;EQDQ01+000000PRSWM2
0154477160999992000041801004+36030+140200FM-15+0029RJAK V0202501N002112200019N0112651N1+01501+00101999999ADDGA1021+007509999GF102991999999999999999999MA1101901999999MW1001REMMET060RJAK 0100Z 25004KT 9999 FEW025 15/01 Q1019 RMK 1CU025 A3010;EQDQ01+000000PRSWM2
0155477160999992000041802004+36030+140200FM-15+0029RJAK V0202601N003112200019N0112651N1+01601-00101999999ADDGA1021+007509999GF102991999999999999999999MA1101901999999MW1001REMMET061RJAK 0200Z 26006KT 9999 FEW025 16/M01 Q1019 RMK 1CU025 A3009;EQDQ01+000000PRSWM2
0145477160999992000041803004+36030+140200FM-15+0029RJAK V0203101N002612200019N0112651N1+01701-00201999999ADDGF100991999999999999999999MA1101801999999MW1001REMMET067RJAK 0300Z 31005KT 9999 SKC 17/M02 Q1018 RMK A3007 FCST 0312 NOSIG;EQDQ01+000000PRSWM2
0155477160999992000041804004+36030+140200FM-15+0029RJAK V0203301N002612200019N0112651N1+01801-00401999999ADDGA1021+009009999GF102991999999999999999999MA1101691999999MW1001REMMET061RJAK 0400Z 33005KT 9999 FEW030 18/M04 Q1017 RMK 1CU030 A3005;EQDQ01+000000PRSWM2
0155477160999992000041805004+36030+140200FM-15+0029RJAK V02099999999992200019N0112651N1+01901-00501999999ADDGA1021+009009999GF102991999999999999999999MA1101591999999MW1001REMMET061RJAK 0500Z VRB03KT 9999 FEW030 19/M05 Q1016 RMK 1CU030 A3002;EQDQ01+000000PRSWM2
0194477160999992000041806004+36030+140200FM-15+0029RJAK V0202201N003112200019N0112651N1+02001-00201999999ADDGA1021+009009999GF102991999999999999999999MA1101591999999MW1001REMMET100RJAK 0600Z 22006KT 9999 FEW030 20/M02 Q1016 RMK 1CU030 A3001 FCST 0615 BECMG 1315 FEW030CU BKN100AC;EQDQ01+000000PRSWM2
0167477160999992000041806324+36030+140200FM-16+0029RJAK V0201701N005112200019N0112651N1+01801+00601999999ADDGA1021+009009999GF102991999999999999999999MA1101591999999MW1001OC101131REMMET065RJAK 180632Z 17010G22KT 9999 FEW030 18/06 Q1016 RMK 2CU030 A3001;EQDQ01+000000PRSWM2
0154477160999992000041807004+36030+140200FM-15+0029RJAK V0201301N006712200019N0112651N1+01701+00701999999ADDGA1021+009009999GF102991999999999999999999MA1101591999999MW1001REMMET060RJAK 0700Z 13013KT 9999 FEW030 17/07 Q1016 RMK 1CU030 A3002;EQDQ01+000000PRSWM2
0223477160999992000041808004+36030+140200FM-15+0029RJAK V0201501N007212200019N0112651N1+01601+00601999999ADDGA1021+015009999GA2021+030009999GF104991999999999999999999MA1101591999999MW1001REMMET113RJAK 0800Z 15014KT 9999 FEW050 SCT100 16/06 Q1016 RMK 1SC050 3AC100 A3002 FCST 0817 BECMG 1416 FEW030CU BKN100AC;EQDQ01+000000PRSWM2
0235477160999992000041822004+36030+140200FM-15+0029RJAK V0203001N001510300019N0050001N1+01101+00701999999ADDGA1021+015009999GA2071+030009999GA3071+060009999GF107991999999999999999999MA1101591999999MW1101REMMET093RJAK 182200Z 30003KT 5000 BR FEW050 BKN100 BKN200 11/07 Q1016 RMK 2SC050 6AC100 7CI200 A3000;EQDQ01+000003PRSWM1Q02    003PRSWM1
0248477160999992000041823004+36030+140200FM-15+0029RJAK V0203001N002110300019N9999999N1+01301+00601999999ADDGA1021+015009999GA2071+030009999GA3081+060009999GF108991999999999999999999MA1101591999999MW1001REMMET106RJAK 182300Z 30004KT 6000 FEW050 BKN100 OVC200 13/06 Q1016 RMK 1SC050 7AC100 8CI200 A3001 FCST 2308 NOSIG;EQDQ01+060002VODIS Q02+000000PRSWM2
0218477160999992000041900004+36030+140200FM-15+0029RJAK V0202801N002110300019N9999999N1+01401+00501999999ADDGA1071+030009999GA2081+060009999GF108991999999999999999999MA1101591999999MW1001REMMET092RJAK 190000Z 28004KT 6000 BKN100 OVC200 14/05 Q1016 RMK 6AC100 8CI200 A3002 FCST 0009 NOSIG;EQDQ01+060002VODIS Q02+000000PRSWM2
0202477160999992000041901004+36030+140200FM-15+0029RJAK V0200101N001510600019N9999999N1+01601+00601999999ADDGA1021+030009999GA2071+060009999GF107991999999999999999999MA1101591999999MW1001REMMET076RJAK 190100Z 01003KT 6000 SCT100 BKN200 16/06 Q1016 RMK 4AC100 7CS200 A3002;EQDQ01+060002VODIS Q02+000000PRSWM2
0186477160999992000041902004+36030+140200FM-15+0029RJAK V02099999999990600019N0080001N1+01801+00701999999ADDGA1021+030009999GA2081+060009999GF108991999999999999999999MA1101591999999MW1001REMMET076RJAK 190200Z VRB03KT 8000 FEW100 OVC200 18/07 Q1016 RMK 1AC100 8CS200 A3001;EQDQ01+000000PRSWM2
0225477160999992000041903004+36030+140200FM-15+0029RJAK V02099999999990600019N0080001N1+01901+00801999999ADDGA1021+030009999GA2071+060009999GF107991999999999999999999MA1101491999999MW1001REMMET115RJAK 190300Z VRB03KT 8000 FEW100 BKN200 19/08 Q1015 RMK 1AC100 7CS200 A2999 FCST 0312 BECMG 0406 BKN100AC BKN200CS;EQDQ01+000000PRSWM2
0202477160999992000041904004+36030+140200FM-15+0029RJAK V0201001N002610600019N9999999N1+02001+00901999999ADDGA1021+030009999GA2071+060009999GF107991999999999999999999MA1101491999999MW1001REMMET076RJAK 190400Z 10005KT 7000 FEW100 BKN200 20/09 Q1015 RMK 1AC100 7CS200 A2997;EQDQ01+070002VODIS Q02+000000PRSWM2
0202477160999992000041905004+36030+140200FM-15+0029RJAK V0201501N004110600019N9999999N1+02101+00801999999ADDGA1021+045009999GA2071+060009999GF107991999999999999999999MA1101391999999MW1001REMMET076RJAK 190500Z 15008KT 7000 SCT150 BKN200 21/08 Q1014 RMK 3AC150 7CS200 A2996;EQDQ01+070002VODIS Q02+000000PRSWM2
0249477160999992000041906004+36030+140200FM-15+0029RJAK V0201501N004612200019N0112651N1+02101+00701999999ADDGA1021+045009999GA2021+069009999GF104991999999999999999999MA1101391999999MW1001REMMET139RJAK 190600Z 15009KT 9999 FEW150 SCT230 21/07 Q1014 RMK 2AC150 3CI230 A2995 FCST 0615 BECMG 0810 BKN100AC TEMPO 1215 -RA BKN030SC OVC100AC;EQDQ01+000000PRSWM2
0176477160999992000041907004+36030+140200FM-15+0029RJAK V0201301N00461220001CN0112651N1+02001+00801999999ADDGA1071+045009999GA2021+069009999MA1101391999999MW1001REMMET076RJAK 190700Z 13009KT 9999 BKN150 SCT230 20/08 Q1014 RMK 5AC150 3CI230 A2994;EQDQ01+000042SCOTCVQ02+000000PRSWM2
0261477160999992000041908004+36030+140200FM-15+0029RJAK V0201501N003610450019N0112651N1+02001+00501999999ADDGA1021+030009999GA2071+045009999GF107991999999999999999999MA1101391999999MW1001REMMET151RJAK 190800Z 15007KT 9999 SCT100 BKN150 20/05 Q1014 RMK 4AC100 7AC150 A2994 FCST 0817 TEMPO 1113 -RA BECMG 1315 4000 -RA BR BKN030SC BKN050SC OVC100AC;EQDQ01+000000PRSWM2
0186477160999992000041922004+36030+140200FM-15+0029RJAK V0200501N007210036019N0090001N1+01001+00701999999ADDGA1071+003609999GA2081+009009999GF108991999999999999999999MA1101391999999MW1001REMMET076RJAK 192200Z 05014KT 9000 BKN012 OVC030 10/07 Q1014 RMK 5CU012 8SC030 A2995;EQDQ01+000000PRSWM2
0238477160999992000041922404+36030+140200FM-16+0029RJAK V0200501N006710036019N0070001N1+01001+00801999999ADDGA1021+003009999GA2071+003609999GA3081+007509999GF108991999999999999999999MA1101391999999MW1801REMMET096RJAK 192240Z 05013KT 7000 -SHRA FEW010 BKN012 OVC025 10/08 Q1014 RMK 2CU010 5CU012 8SC025 A2994;EQDQ01+000003PRSWM1Q02    003PRSWM1
0311477160999992000041923004+36030+140200FM-15+0029RJAK V0200401N007210036019N0070001N1+01001+00801999999ADDGA1021+003009999GA2071+003609999GA3081+007509999GF108991999999999999999999MA1101391999999MW1801REMMET169RJAK 192300Z 04014KT 7000 -SHRA FEW010 BKN012 OVC025 10/08 Q1014 RMK 2CU010 6CU012 8SC025 A2994 FCST 2308 TEMPO 0006 08015G32KT 4000 -TSRA BR BKN008CU SCT015CB OVC020CU;EQDQ01+000003PRSWM1Q02    003PRSWM1
0329477160999992000042000004+36030+140200FM-15+0029RJAK V0200501N007210024019N0050001N1+01001+00901999999ADDGA1021+001809999GA2071+002409999GA3081+006009999GF108991999999999999999999MA1101391999999MW1101MW2801REMMET181RJAK 200000Z 05014KT 5000 -SHRA BR FEW006 BKN008 OVC020 10/09 Q1014 RMK 2ST006 6ST008 8CU020 A2994 FCST 0009 TEMPO 0006 08015G32KT 4000 -TSRA BR FEW006ST BKN008ST FEW010CB OVC020CU;EQDQ01+000003PRSWM1Q02    003PRSWM1
0216477160999992000042001004+36030+140200FM-15+0029RJAK V0200401N007210024019N0060001N1+01101+00901999999ADDGA1021+001809999GA2071+002409999GA3081+006009999GF108991999999999999999999MA1101291999999MW1001REMMET090RJAK 200100Z 04014KT 6000 SCT006 BKN008 OVC020 11/09 Q1013 RMK 3ST006 6ST008 8CU020 A2993;EQDQ01+000000PRSWM2
0216477160999992000042002004+36030+140200FM-15+0029RJAK V0200401N006710024019N0060001N1+01201+01001999999ADDGA1021+001809999GA2071+002409999GA3081+006009999GF108991999999999999999999MA1101291999999MW1001REMMET090RJAK 200200Z 04013KT 6000 FEW006 BKN008 OVC020 12/10 Q1013 RMK 2ST006 5ST008 8CU020 A2991;EQDQ01+000000PRSWM2
0238477160999992000042002344+36030+140200FM-16+0029RJAK V0200401N006710024019N0060001N1+01201+01001999999ADDGA1021+002109999GA2071+002409999GA3081+006009999GF108991999999999999999999MA1101291999999MW1801REMMET096RJAK 200234Z 04013KT 6000 -SHRA SCT007 BKN008 OVC020 12/10 Q1013 RMK 3ST007 6ST008 8CU020 A2991;EQDQ01+000003PRSWM1Q02    003PRSWM1
0334477160999992000042003004+36030+140200FM-15+0029RJAK V0200501N008210024019N0060001N1+01201+01001999999ADDGA1021+002109999GA2071+002409999GA3081+006009999GF108991999999999999999999MA1101291999999MW1801OC101341REMMET184RJAK 200300Z 05016G26KT 6000 -SHRA SCT007 BKN008 OVC020 12/10 Q1013 RMK 3ST007 6ST008 8CU020 A2991 FCST 0312 TEMPO 0307 3000 -TSRA BR BECMG 0810 02010KT NSW SCT010CU BKN030CU BKN100AC;EQDQ01+000003PRSWM1Q02    003PRSWM1
0247477160999992000042004004+36030+140200FM-15+0029RJAK V0200401N007710024019N0050001N1+01301+01101999999ADDGA1021+001809999GA2071+002409999GA3081+006009999GF108991999999999999999999MA1101191999999MW1101MW2801REMMET099RJAK 200400Z 04015KT 5000 -SHRA BR SCT006 BKN008 OVC020 13/11 Q1012 RMK 3ST006 5ST008 8CU020 A2991;EQDQ01+000003PRSWM1Q02    003PRSWM1
0247477160999992000042005004+36030+140200FM-15+0029RJAK V0200501N007210024019N0050001N1+01201+01101999999ADDGA1021+001809999GA2071+002409999GA3081+006009999GF108991999999999999999999MA1101291999999MW1101MW2801REMMET099RJAK 200500Z 05014KT 5000 -SHRA BR SCT006 BKN008 OVC020 12/11 Q1013 RMK 3ST006 5ST008 8CU020 A2992;EQDQ01+000003PRSWM1Q02    003PRSWM1
0268477160999992000042005364+36030+140200FM-16+0029RJAK V0200401N007210024019N0050001N1+01201+01101999999ADDGA1021+001809999GA2071+002409999GA3081+006009999GF108991999999999999999999MA1101291999999MW1801OC101341REMMET102RJAK 200536Z 04014G26KT 5000 -SHRA BR SCT006 BKN008 OVC020 12/11 Q1013 RMK 3ST006 6ST008 8CU020 A2992;EQDQ01+000100PRSWM3Q02+000003PRSWM1Q03    003PRSWM1
0317477160999992000042006004+36030+140200FM-15+0029RJAK V0200501N006710024019N0060001N1+01201+01101999999ADDGA1021+001809999GA2071+002409999GA3081+006009999GF108991999999999999999999MA1101291999999MW1801REMMET175RJAK 200600Z 05013KT 6000 -SHRA FEW006 BKN008 OVC020 12/11 Q1013 RMK 2ST006 5ST008 8CU020 A2993 FCST 0615 TEMPO 0609 05013G26KT 4000 -SHRA BR BECMG 1113 NSW SCT020CU BKN030SC;EQDQ01+000003PRSWM1Q02    003PRSWM1
0216477160999992000042007004+36030+140200FM-15+0029RJAK V0200501N006210024019N0070001N1+01301+01101999999ADDGA1021+001809999GA2071+002409999GA3081+006009999GF108991999999999999999999MA1101291999999MW1001REMMET090RJAK 200700Z 05012KT 7000 FEW006 BKN008 OVC020 13/11 Q1013 RMK 2ST006 5ST008 8CU020 A2993;EQDQ01+000000PRSWM2
0249477160999992000042007264+36030+140200FM-16+0029RJAK V0200401N005710024019N0070001N1+01301+01101999999ADDGA1021+001809999GA2071+002409999GA3081+006009999GF108991999999999999999999MA1101291999999MW1801OC101081REMMET099RJAK 200726Z 04011G21KT 7000 -SHRA FEW006 BKN008 OVC020 13/11 Q1013 RMK 2ST006 6ST008 8CU020 A2993;EQDQ01+000003PRSWM1Q02    003PRSWM1
0281477160999992000042008004+36030+140200FM-15+0029RJAK V0200401N006710024019N0070001N1+01201+01001999999ADDGA1021+001809999GA2071+002409999GA3081+006009999GF108991999999999999999999MA1101291999999MW1801REMMET139RJAK 200800Z 04013KT 7000 -SHRA FEW006 BKN008 OVC020 12/10 Q1013 RMK 2ST006 5ST008 8CU020 A2993 FCST 0817 BECMG 1113 NSW SCT020CU BKN030SC;EQDQ01+000003PRSWM1Q02    003PRSWM1
0247477160999992000042022004+36030+140200FM-15+0029RJAK V0200601N005110015019N0030001N1+01201+01101999999ADDGA1021+001209999GA2071+001509999GA3081+003009999GF108991999999999999999999MA1101491999999MW1101MW2801REMMET099RJAK 202200Z 06010KT 3000 -SHRA BR SCT004 BKN005 OVC010 12/11 Q1015 RMK 3ST004 6ST005 8CU010 A2997;EQDQ01+000003PRSWM1Q02    003PRSWM1
0279477160999992000042023004+36030+140200FM-15+0029RJAK V0200501N004110012019N0020001N1+01201+01101999999ADDGA1021+000909999GA2071+001209999GA3081+003009999GF108991999999999999999999MA1101491999999MW1101MW2801REMMET131RJAK 202300Z 05008KT 2000 -SHRA BR SCT003 BKN004 OVC010 12/11 Q1015 RMK 4ST003 6ST004 8CU010 A2997 FCST 2308 TEMPO 0608 08013G28KT;EQDQ01+000003PRSWM1Q02    003PRSWM1
0247477160999992000042101004+36030+140200FM-15+0029RJAK V0200701N005110024019N0030001N1+01401+01301999999ADDGA1021+001809999GA2071+002409999GA3081+004209999GF108991999999999999999999MA1101391999999MW1101MW2801REMMET099RJAK 210100Z 07010KT 3000 -SHRA BR SCT006 BKN008 OVC014 14/13 Q1014 RMK 4ST006 6ST008 8CU014 A2995;EQDQ01+000003PRSWM1Q02    003PRSWM1
0235477160999992000042105004+36030+140200FM-15+0029RJAK V0200701N005110024019N0050001N1+01601+01401999999ADDGA1071+002409999GA2071+003009999GA3081+004509999GF108991999999999999999999MA1101021999999MW1101REMMET093RJAK 210500Z 07010KT 5000 BR BKN008 BKN010 OVC015 16/14 Q1010 RMK 5ST008 7ST010 8SC015 A2985;EQDQ01+000003PRSWM1Q02    003PRSWM1
0236477160999992000042106204+36030+140200FM-15+0029RJAK V0200701N004110027019N0060001N1+01701+01501999999ADDGA1021+001809999GA2071+002709999GA3081+003609999GF108991999999999999999999MA1100911999999MW1611REMMET094RJAK 210620Z 07008KT 6000 -RA SCT006 BKN009 OVC012 17/15 Q1009 RMK 3ST006 6ST009 8SC012 A2981;EQDQ01+000003PRSWM1Q02    003PRSWM1
0236477160999992000042107124+36030+140200FM-16+0029RJAK V0200701N005110030019N0060001N1+01701+01501999999ADDGA1021+001809999GA2071+003009999GA3081+003609999GF108991999999999999999999MA1100811999999MW1611REMMET094RJAK 210712Z 07010KT 6000 -RA SCT006 BKN010 OVC012 17/15 Q1008 RMK 3ST006 5ST010 8SC012 A2978;EQDQ01+000003PRSWM1Q02    003PRSWM1
0261477160999992000042108004+36030+140200FM-15+0029RJAK V0200701N003610024019N0040001N1+01601+01501999999ADDGA1021+001809999GA2071+002409999GA3081+003609999GF108991999999999999999999MA1100811999999MW1101MW2611REMMET113RJAK 210800Z 07007KT 4000 -RA BR SCT006 BKN008 OVC012 16/15 Q1008 RMK 3ST006 5ST008 8SC012 A2976 FCST 0817 NOSIG;EQDQ01+000003PRSWM1Q02    003PRSWM1
0156477160999992000042322004+36030+140200FM-15+0029RJAK V0202801N002112200019N0112651N1+01101+00601999999ADDGA1021+007509999GF102991999999999999999999MA1100611999999MW1001REMMET062RJAK 232200Z 28004KT 9999 FEW025 11/06 Q1006 RMK 1CU025 A2972;EQDQ01+000000PRSWM2
0214477160999992000042323004+36030+140200FM-15+0029RJAK V0202601N002112200019N0112651N1+01301+00401999999ADDGA1021+007509999GF102991999999999999999999MA1100611999999MW1001REMMET120RJAK 232300Z 26004KT 9999 FEW025 13/04 Q1006 RMK 1CU025 A2972 FCST 2308 BECMG 0102 19010KT TEMPO 0608 BKN025CU SCT100AC;EQDQ01+000000PRSWM2
0214477160999992000042400004+36030+140200FM-15+0029RJAK V0202701N002112200019N0112651N1+01401+00401999999ADDGA1021+007509999GF102991999999999999999999MA1100611999999MW1001REMMET120RJAK 240000Z 27004KT 9999 FEW025 14/04 Q1006 RMK 1CU025 A2971 FCST 0009 BECMG 0002 20010KT TEMPO 0609 BKN025CU SCT100AC;EQDQ01+000000PRSWM2
0156477160999992000042401004+36030+140200FM-15+0029RJAK V0202401N001512200019N0112651N1+01501+00401999999ADDGA1021+007509999GF102991999999999999999999MA1100511999999MW1001REMMET062RJAK 240100Z 24003KT 9999 FEW025 15/04 Q1005 RMK 1CU025 A2970;EQDQ01+000000PRSWM2
0156477160999992000042402004+36030+140200FM-15+0029RJAK V0202801N002612200019N0112651N1+01701+00401999999ADDGA1021+007509999GF102991999999999999999999MA1100511999999MW1001REMMET062RJAK 240200Z 28005KT 9999 FEW025 17/04 Q1005 RMK 2CU025 A2968;EQDQ01+000000PRSWM2
0196477160999992000042403004+36030+140200FM-15+0029RJAK V0203301N001512200019N0112651N1+01801+00401999999ADDGA1021+007509999GF104991999999999999999999MA1100411999999MW1001REMMET102RJAK 240300Z 33003KT 9999 SCT025 18/04 Q1004 RMK 3CU025 A2966 FCST 0312 TEMPO 0509 BKN025CU FEW030TCU;EQDQ01+000000PRSWM2
0156477160999992000042404004+36030+140200FM-15+0029RJAK V0201801N001512200019N0112651N1+01801+00401999999ADDGA1021+007509999GF104991999999999999999999MA1100411999999MW1001REMMET062RJAK 240400Z 18003KT 9999 SCT025 18/04 Q1004 RMK 4CU025 A2965;EQDQ01+000000PRSWM2
0156477160999992000042405004+36030+140200FM-15+0029RJAK V02099999999992200019N0112651N1+01901+00301999999ADDGA1021+007509999GF104991999999999999999999MA1100311999999MW1001REMMET062RJAK 240500Z VRB03KT 9999 SCT025 19/03 Q1003 RMK 4CU025 A2963;EQDQ01+000000PRSWM2
0203477160999992000042406004+36030+140200FM-15+0029RJAK V0200801N004610075019N0112651N1+01801+00401999999ADDGA1071+007509999GF107991999999999999999999MA1100201999999MW1001REMMET109RJAK 240600Z 08009KT 9999 BKN025 18/04 Q1002 RMK 5CU025 A2961 FCST 0615 TEMPO 0610 -SHRA BECMG 1012 SCT025CU;EQDQ01+000000PRSWM2
0223477160999992000042406234+36030+140200FM-16+0029RJAK V0201001N00571220001CN0112651N1+01701+00701999999ADDGA1071+007509999GA2021+009009099MA1100201999999MW1801MW2951REMMET101RJAK 240623Z 10011KT 9999 -TSRA BKN025 FEW030CB 17/07 Q1002 RMK 6CU025 2CB030 A2960 FBL TS SW MOV NE;EQDQ01+000022SCOTCVQ02+000003PRSWM1Q03    003PRSWM1
0273477160999992000042406374+36030+140200FM-16+0029RJAK V0201401N004610075019N0112651N1+01501+01001999999ADDGA1071+007509999GA2021+009009099GA3071+030009999GF107991999999999999999999MA1100201999999MW1961REMMET115RJAK 240637Z 14009KT 9999 TSGR BKN025 SCT030CB BKN100 15/10 Q1002 RMK 7CU025 3CB030 5AC100 A2960 MOD TS OHD MOV NE;EQDQ01+000900PRSWM3Q02+000003PRSWM1Q03    003PRSWM1
0264477160999992000042407004+36030+140200FM-15+0029RJAK V02099999999990075019N0112651N1+01301+00901999999ADDGA1071+007509999GA2021+009009099GA3071+030009999GF107991999999999999999999MA1100201999999MW1801MW2951REMMET116RJAK 240700Z VRB03KT 9999 -TSRA BKN025 SCT030CB BKN100 13/09 Q1002 RMK 5CU025 4CB030 7AC100 A2961 FBL TS OHD MOV NE;EQDQ01+000003PRSWM1Q02    003PRSWM1
0275477160999992000042407384+36030+140200FM-16+0029RJAK V0201501N006710090019N0112651N1+01401+00801999999ADDGA1021+007509999GA2071+009009099GA3071+030009999GF107991999999999999999999MA1100311999999MW1801MW2951OC101441REMMET119RJAK 240738Z 15013G28KT 9999 -TSRA SCT025 BKN030CB BKN100 14/08 Q1003 RMK 4CU025 5CB030 7AC100 A2962 FBL TS OHD MOV NE;EQDQ01+000003PRSWM1Q02    003PRSWM1
0130477160999992000042422004+36030+140200FM-15+0029RJAK V0202801N002612200019N0112651N1+00901+00501999999ADDGF100991999999999999999999MA1101081999999MW1001REMMET052RJAK 242200Z 28005KT 9999 SKC 09/05 Q1011 RMK A2986;EQDQ01+000000PRSWM2
0172477160999992000042423004+36030+140200FM-15+0029RJAK V0202701N003612200019N0112651N1+01101+00501999999ADDGA1021+030009999GF102991999999999999999999MA1101081999999MW1001REMMET078RJAK 242300Z 27007KT 9999 FEW100 11/05 Q1011 RMK 1AC100 A2987 FCST 2308 NOSIG;EQDQ01+000000PRSWM2
0202477160999992000042500004+36030+140200FM-15+0029RJAK V0202601N004112200019N0112651N1+01401+00301999999ADDGA1021+036009999GA2021+063009999GF104991999999999999999999MA1101081999999MW1001REMMET092RJAK 250000Z 26008KT 9999 FEW120 SCT210 14/03 Q1011 RMK 1AC120 3CI210 A2987 FCST 0009 NOSIG;EQDQ01+000000PRSWM2
0157477160999992000042501004+36030+140200FM-15+0029RJAK V0202601N004612200019N0112651N1+01601+00001999999ADDGA1021+069009999GF104991999999999999999999MA1101081999999MW1001REMMET063RJAK 250100Z 26009KT 9999 SCT230 16/M00 Q1011 RMK 4CI230 A2986;EQDQ01+000000PRSWM2
0156477160999992000042502004+36030+140200FM-15+0029RJAK V0202401N003112200019N0112651N1+01701+00001999999ADDGA1021+069009999GF104991999999999999999999MA1101021999999MW1001REMMET062RJAK 250200Z 24006KT 9999 SCT230 17/00 Q1010 RMK 4CI230 A2984;EQDQ01+000000PRSWM2
0173477160999992000042503004+36030+140200FM-15+0029RJAK V0202401N004112200019N0112651N1+01901-00101999999ADDGA1021+069009999GF104991999999999999999999MA1101021999999MW1001REMMET079RJAK 250300Z 24008KT 9999 SCT230 19/M01 Q1010 RMK 4CI230 A2983 FCST 0312 NOSIG;EQDQ01+000000PRSWM2
0157477160999992000042504004+36030+140200FM-15+0029RJAK V0202301N004112200019N0112651N1+02001-00201999999ADDGA1021+069009999GF102991999999999999999999MA1100911999999MW1001REMMET063RJAK 250400Z 23008KT 9999 FEW230 20/M02 Q1009 RMK 1CI230 A2982;EQDQ01+000000PRSWM2
0167477160999992000042505004+36030+140200FM-15+0029RJAK V0202001N005112200019N0112651N1+02001+00301999999ADDGA1021+007509999GF102991999999999999999999MA1100911999999MW1001OC101031REMMET065RJAK 250500Z 20010G20KT 9999 FEW025 20/03 Q1009 RMK 1CU025 A2980;EQDQ01+000000PRSWM2
0156477160999992000042505304+36030+140200FM-15+0029RJAK V0201901N005112200019N0112651N1+02001+00201999999ADDGA1021+007509999GF102991999999999999999999MA1100911999999MW1001REMMET062RJAK 250530Z 19010KT 9999 FEW025 20/02 Q1009 RMK 1CU025 A2979;EQDQ01+000000PRSWM2
0172477160999992000042506004+36030+140200FM-15+0029RJAK V0201901N006712200019N0112651N1+01901+00201999999ADDGA1021+007509999GF102991999999999999999999MA1100911999999MW1001REMMET078RJAK 250600Z 19013KT 9999 FEW025 19/02 Q1009 RMK 1CU025 A2979 FCST 0615 NOSIG;EQDQ01+000000PRSWM2
0156477160999992000042507004+36030+140200FM-15+0029RJAK V0202001N005112200019N0112651N1+01901+00101999999ADDGA1021+069009999GF102991999999999999999999MA1100911999999MW1001REMMET062RJAK 250700Z 20010KT 9999 FEW230 19/01 Q1009 RMK 1CI230 A2979;EQDQ01+000000PRSWM2
0172477160999992000042508004+36030+140200FM-15+0029RJAK V0202001N005112200019N0112651N1+01801+00101999999ADDGA1021+036009999GF102991999999999999999999MA1100911999999MW1001REMMET078RJAK 250800Z 20010KT 9999 FEW120 18/01 Q1009 RMK 1AC120 A2980 FCST 0817 NOSIG;EQDQ01+000000PRSWM2
0236477160999992000042600454+36030+140200FM-15+0029RJAK V0201601N001510120019N0060001N1+01401+00901999999ADDGA1021+009009999GA2071+012009999GA3081+030009999GF108991999999999999999999MA1101191999999MW1611REMMET094RJAK 260045Z 16003KT 6000 -RA FEW030 BKN040 OVC100 14/09 Q1012 RMK 2SC030 6SC040 8AC100 A2988;EQDQ01+000003PRSWM1Q02    003PRSWM1
0236477160999992000042602204+36030+140200FM-15+0029RJAK V0201001N001510120019N0080001N1+01601+00901999999ADDGA1021+009009999GA2071+012009999GA3081+030009999GF108991999999999999999999MA1101021999999MW1611REMMET094RJAK 260220Z 10003KT 8000 -RA SCT030 BKN040 OVC100 16/09 Q1010 RMK 3SC030 6SC040 8AC100 A2984;EQDQ01+000003PRSWM1Q02    003PRSWM1
0236477160999992000042604004+36030+140200FM-15+0029RJAK V0201901N002610120019N0070001N1+01601+00901999999ADDGA1021+009009999GA2071+012009999GA3081+030009999GF108991999999999999999999MA1101021999999MW1611REMMET094RJAK 260400Z 19005KT 7000 -RA FEW030 BKN040 OVC100 16/09 Q1010 RMK 2SC030 6SC040 8AC100 A2984;EQDQ01+000003PRSWM1Q02    003PRSWM1
0236477160999992000042605004+36030+140200FM-15+0029RJAK V0201801N001510120019N0080001N1+01501+00901999999ADDGA1021+009009999GA2071+012009999GA3081+024009999GF108991999999999999999999MA1101021999999MW1611REMMET094RJAK 260500Z 18003KT 8000 -RA SCT030 BKN040 OVC080 15/09 Q1010 RMK 3SC030 6SC040 8AC080 A2983;EQDQ01+000003PRSWM1Q02    003PRSWM1
0296477160999992000042606004+36030+140200FM-15+0029RJAK V0201101N001510120019N0070001N1+01501+01001999999ADDGA1021+009009999GA2071+012009999GA3081+024009999GF108991999999999999999999MA1100911999999MW1611REMMET154RJAK 260600Z 11003KT 7000 -RA SCT030 BKN040 OVC080 15/10 Q1009 RMK 3SC030 6SC040 8AC080 A2981 FCST 0615 BECMG 0608 4000 -RA BR BKN020SC BKN030SC OVC080AC;EQDQ01+000003PRSWM1Q02    003PRSWM1
0236477160999992000042607004+36030+140200FM-15+0029RJAK V0202001N001510105019N0060001N1+01301+01001999999ADDGA1021+007509999GA2071+010509999GA3081+024009999GF108991999999999999999999MA1100911999999MW1611REMMET094RJAK 260700Z 20003KT 6000 -RA SCT025 BKN035 OVC080 13/10 Q1009 RMK 3SC025 6SC035 8AC080 A2981;EQDQ01+000003PRSWM1Q02    003PRSWM1
0305477160999992000042608004+36030+140200FM-15+0029RJAK V0200801N003110090019N0050001N1+01301+01101999999ADDGA1021+007509999GA2071+009009999GA3081+024009999GF108991999999999999999999MA1100911999999MW1101MW2611REMMET157RJAK 260800Z 08006KT 5000 -RA BR SCT025 BKN030 OVC080 13/11 Q1009 RMK 3CU025 6SC030 8AC080 A2979 FCST 0817 BECMG 0809 4000 -RA BR BKN020SC BKN030SC OVC080AC;EQDQ01+000003PRSWM1Q02    003PRSWM1
0309477160999992000042623004+36030+140200FM-15+0029RJAK V0203601N004610024019N0070001N1+01301+01201999999ADDGA1021+001809999GA2071+002409999GA3081+006009999GF108991999999999999999999MA1099801999999MW1611REMMET167RJAK 262300Z 36009KT 7000 -RA FEW006 BKN008 OVC020 13/12 Q0998 RMK 2ST006 5ST008 8SC020 A2947 FCST 2308 TEMPO 2304 34010G25KT BECMG 2301 NSW BKN030CU TEMPO 0608 -SHRA;EQDQ01+000003PRSWM1Q02    003PRSWM1
0216477160999992000042623364+36030+140200FM-16+0029RJAK V0203601N004610024019N0112651N1+01401+01201999999ADDGA1071+002409999GA2071+003009999GA3081+006009999GF108991999999999999999999MA1099701999999MW1001REMMET090RJAK 262336Z 36009KT 9999 BKN008 BKN010 OVC020 14/12 Q0997 RMK 5ST008 6ST010 8SC020 A2944;EQDQ01+000000PRSWM2
0285477160999992000042700004+36030+140200FM-15+0029RJAK V0203601N003610024019N0112651N1+01401+01201999999ADDGA1071+002409999GA2071+003009999GA3081+006009999GF108991999999999999999999MA1099701999999MW1001REMMET159RJAK 270000Z 36007KT 9999 BKN008 BKN010 OVC020 14/12 Q0997 RMK 5ST008 6ST010 8SC020 A2945 FCST 0009 TEMPO 0004 34010G25KT BECMG 0002 BKN030CU TEMPO 0609 -SHRA;EQDQ01+000000PRSWM2
0216477160999992000042701004+36030+140200FM-15+0029RJAK V0203401N002610045019N0112651N1+01501+01201999999ADDGA1021+003009999GA2071+004509999GA3081+006009999GF108991999999999999999999MA1099701999999MW1001REMMET090RJAK 270100Z 34005KT 9999 SCT010 BKN015 OVC020 15/12 Q0997 RMK 3ST010 6SC015 8SC020 A2946;EQDQ01+000000PRSWM2
0216477160999992000042702004+36030+140200FM-15+0029RJAK V0203001N002110048019N0112651N1+01501+01201999999ADDGA1021+003609999GA2071+004809999GA3081+006009999GF108991999999999999999999MA1099701999999MW1001REMMET090RJAK 270200Z 30004KT 9999 SCT012 BKN016 OVC020 15/12 Q0997 RMK 4SC012 7SC016 8SC020 A2946;EQDQ01+000000PRSWM2
0213477160999992000042703004+36030+140200FM-15+0029RJAK V0202801N003110075019N0112651N1+01701+01201999999ADDGA1021+006009999GA2071+007509999GF107991999999999999999999MA1099701999999MW1001REMMET103RJAK 270300Z 28006KT 9999 SCT020 BKN025 17/12 Q0997 RMK 3CU020 6SC025 A2945 FCST 0312 TEMPO 0710 -SHRA;EQDQ01+000000PRSWM2
0186477160999992000042704004+36030+140200FM-15+0029RJAK V02099999999990075019N0112651N1+01901+01201999999ADDGA1021+006009999GA2071+007509999GF107991999999999999999999MA1099701999999MW1001REMMET076RJAK 270400Z VRB03KT 9999 SCT020 BKN025 19/12 Q0997 RMK 3CU020 7CU025 A2944;EQDQ01+000000PRSWM2
0186477160999992000042705004+36030+140200FM-15+0029RJAK V0201501N001510075019N0112651N1+01901+01201999999ADDGA1021+006009999GA2071+007509999GF107991999999999999999999MA1099591999999MW1001REMMET076RJAK 270500Z 15003KT 9999 FEW020 BKN025 19/12 Q0996 RMK 2CU020 6CU025 A2943;EQDQ01+000000PRSWM2
0213477160999992000042706004+36030+140200FM-15+0029RJAK V0201701N002610075019N0112651N1+01901+01201999999ADDGA1021+006009999GA2071+007509999GF107991999999999999999999MA1099591999999MW1001REMMET103RJAK 270600Z 17005KT 9999 FEW020 BKN025 19/12 Q0996 RMK 1CU020 5CU025 A2942 FCST 0615 TEMPO 0811 -SHRA;EQDQ01+000000PRSWM2
0186477160999992000042707004+36030+140200FM-15+0029RJAK V0201201N004610075019N0112651N1+01801+01301999999ADDGA1021+006009999GA2071+007509999GF107991999999999999999999MA1099591999999MW1001REMMET076RJAK 270700Z 12009KT 9999 FEW020 BKN025 18/13 Q0996 RMK 1CU020 5CU025 A2942;EQDQ01+000000PRSWM2
0213477160999992000042708004+36030+140200FM-15+0029RJAK V0200901N006210075019N0112651N1+01601+01301999999ADDGA1021+004509999GA2071+007509999GF107991999999999999999999MA1099591999999MW1001REMMET103RJAK 270800Z 09012KT 9999 FEW015 BKN025 16/13 Q0996 RMK 1CU015 6CU025 A2943 FCST 0817 TEMPO 0912 -SHRA;EQDQ01+000000PRSWM2
0156477160999992000042722004+36030+140200FM-15+0029RJAK V0202101N002112200019N0112651N1+01201+00901999999ADDGA1021+002709999GF104991999999999999999999MA1100101999999MW1001REMMET062RJAK 272200Z 21004KT 9999 SCT009 12/09 Q1001 RMK 4CU009 A2957;EQDQ01+000000PRSWM2
0172477160999992000042723004+36030+140200FM-15+0029RJAK V0202201N003112200019N0112651N1+01301+01001999999ADDGA1021+003909999GF104991999999999999999999MA1100101999999MW1001REMMET078RJAK 272300Z 22006KT 9999 SCT013 13/10 Q1001 RMK 4CU013 A2958 FCST 2308 NOSIG;EQDQ01+000000PRSWM2
0186477160999992000042800004+36030+140200FM-15+0029RJAK V0202501N002612200019N0112651N1+01501+00901999999ADDGA1021+004509999GF104991999999999999999999MA1100101999999MW1001REMMET092RJAK 280000Z 25005KT 9999 SCT015 15/09 Q1001 RMK 3CU015 A2958 FCST 0009 TEMPO 0809 BKN020CU;EQDQ01+000000PRSWM2
0156477160999992000042801004+36030+140200FM-15+0029RJAK V0203001N004112200019N0112651N1+01701+00701999999ADDGA1021+006009999GF102991999999999999999999MA1100101999999MW1001REMMET062RJAK 280100Z 30008KT 9999 FEW020 17/07 Q1001 RMK 1CU020 A2958;EQDQ01+000000PRSWM2
0164477160999992000042802004+36030+140200FM-15+0029RJAK V0202801N005112200019N0112651N1+01901+00501999999ADDGA1021+007509999GF102991999999999999999999MA1100101999999MW1001REMMET070RJAK 280200Z 28010KT 210V330 9999 FEW025 19/05 Q1001 RMK 2CU025 A2958;EQDQ01+000000PRSWM2
0167477160999992000042802304+36030+140200FM-15+0029RJAK V0202701N005112200019N0112651N1+01901+00301999999ADDGA1021+007509999GF102991999999999999999999MA1100101999999MW1001OC101081REMMET065RJAK 280230Z 27010G21KT 9999 FEW025 19/03 Q1001 RMK 2CU025 A2957;EQDQ01+000000PRSWM2
0208477160999992000042803004+36030+140200FM-15+0029RJAK V0202701N004112200019N0112651N1+01901+00301999999ADDGA1021+007509999GF102991999999999999999999MA1100101999999MW1001REMMET114RJAK 280300Z 27008KT 9999 FEW025 19/03 Q1001 RMK 2CU025 A2956 FCST 0312 TEMPO 0306 27010G20KT TEMPO 0912 BKN020CU;EQDQ01+000000PRSWM2
0167477160999992000042803064+36030+140200FM-16+0029RJAK V0202901N005112200019N0112651N1+02001+00301999999ADDGA1021+007509999GF104991999999999999999999MA1100101999999MW1001OC101031REMMET065RJAK 280306Z 29010G20KT 9999 SCT025 20/03 Q1001 RMK 3CU025 A2956;EQDQ01+000000PRSWM2
0167477160999992000042804004+36030+140200FM-15+0029RJAK V0202801N004612200019N0112651N1+02001+00201999999ADDGA1021+007509999GF104991999999999999999999MA1100101999999MW1001OC100981REMMET065RJAK 280400Z 28009G19KT 9999 SCT025 20/02 Q1001 RMK 3CU025 A2957;EQDQ01+000000PRSWM2
0186477160999992000042805004+36030+140200FM-15+0029RJAK V0202601N004110075019N0112651N1+02001+00201999999ADDGA1021+006009999GA2071+007509999GF107991999999999999999999MA1100101999999MW1001REMMET076RJAK 280500Z 26008KT 9999 FEW020 BKN025 20/02 Q1001 RMK 1CU020 5CU025 A2957;EQDQ01+000000PRSWM2
0186477160999992000042806004+36030+140200FM-15+0029RJAK V0202901N003112200019N0112651N1+02001+00201999999ADDGA1021+007509999GF104991999999999999999999MA1100101999999MW1001REMMET092RJAK 280600Z 29006KT 9999 SCT025 20/02 Q1001 RMK 4CU025 A2957 FCST 0615 TEMPO 1015 BKN020CU;EQDQ01+000000PRSWM2
0186477160999992000042807004+36030+140200FM-15+0029RJAK V0202801N004112200019N0112651N1+02001+00201999999ADDGA1021+007509999GA2021+012009999GF104991999999999999999999MA1100201999999MW1001REMMET076RJAK 280700Z 28008KT 9999 FEW025 SCT040 20/02 Q1002 RMK 2CU025 3SC040 A2959;EQDQ01+000000PRSWM2
0186477160999992000042808004+36030+140200FM-15+0029RJAK V0202901N004112200019N0112651N1+02001+00201999999ADDGA1021+007509999GF104991999999999999999999MA1100201999999MW1001REMMET092RJAK 280800Z 29008KT 9999 SCT025 20/02 Q1002 RMK 3CU025 A2961 FCST 0817 TEMPO 1015 BKN020CU;EQDQ01+000000PRSWM2
0186477160999992000043022004+36030+140200FM-15+0029RJAK V0201901N003110660019N0112651N1+01701+01001999999ADDGA1021+009009999GA2071+066009999GF107991999999999999999999MA1101081999999MW1001REMMET076RJAK 302200Z 19006KT 9999 FEW030 BKN220 17/10 Q1011 RMK 1CU030 6CI220 A2986;EQDQ01+000000PRSWM2
0202477160999992000043023004+36030+140200FM-15+0029RJAK V0202101N003610660019N0112651N1+01801+01001999999ADDGA1021+009009999GA2071+066009999GF107991999999999999999999MA1101081999999MW1001REMMET092RJAK 302300Z 21007KT 9999 FEW030 BKN220 18/10 Q1011 RMK 2CU030 6CI220 A2986 FCST 2308 NOSIG;EQDQ01+000000PRSWM2
0218477160999992000050100004+36030+140200FM-15+0029RJAK V0202201N004110660019N0112651N1+01901+00901999999ADDGA1021+009009999GA2071+066009999GF107991999999999999999999MA1101081999999MW1001REMMET108RJAK 010000Z 22008KT 9999 SCT030 BKN220 19/09 Q1011 RMK 3CU030 5CI220 A2986 FCST 0009 TEMPO 0006 22010G21KT;EQDQ01+000000PRSWM2
0186477160999992000050101004+36030+140200FM-15+0029RJAK V0202201N004112200019N0112651N1+02001+00801999999ADDGA1021+009009999GA2021+066009999GF104991999999999999999999MA1101081999999MW1001REMMET076RJAK 010100Z 22008KT 9999 SCT030 SCT220 20/08 Q1011 RMK 3CU030 4CI220 A2986;EQDQ01+000000PRSWM2
0156477160999992000050102004+36030+140200FM-15+0029RJAK V0201801N004112200019N0112651N1+02101+00901999999ADDGA1021+009009999GF104991999999999999999999MA1101021999999MW1001REMMET062RJAK 010200Z 18008KT 9999 SCT030 21/09 Q1010 RMK 3CU030 A2985;EQDQ01+000000PRSWM2
0172477160999992000050103004+36030+140200FM-15+0029RJAK V0201901N004612200019N0112651N1+02101+00801999999ADDGA1021+009009999GF102991999999999999999999MA1101021999999MW1001REMMET078RJAK 010300Z 19009KT 9999 FEW030 21/08 Q1010 RMK 1CU030 A2983 FCST 0312 NOSIG;EQDQ01+000000PRSWM2
0156477160999992000050104004+36030+140200FM-15+0029RJAK V0201901N004612200019N0112651N1+02201+00701999999ADDGA1021+009009999GF102991999999999999999999MA1100911999999MW1001REMMET062RJAK 010400Z 19009KT 9999 FEW030 22/07 Q1009 RMK 2CU030 A2981;EQDQ01+000000PRSWM2
0156477160999992000050105004+36030+140200FM-15+0029RJAK V0202001N005112200019N0112651N1+02201+00801999999ADDGA1021+009009999GF102991999999999999999999MA1100911999999MW1001REMMET062RJAK 010500Z 20010KT 9999 FEW030 22/08 Q1009 RMK 1CU030 A2979;EQDQ01+000000PRSWM2
0172477160999992000050106004+36030+140200FM-15+0029RJAK V0202001N004112200019N0112651N1+02201+00901999999ADDGA1021+009009999GF102991999999999999999999MA1100811999999MW1001REMMET078RJAK 010600Z 20008KT 9999 FEW030 22/09 Q1008 RMK 2CU030 A2978 FCST 0615 NOSIG;EQDQ01+000000PRSWM2
0186477160999992000050107004+36030+140200FM-15+0029RJAK V0201901N004112200019N0112651N1+02201+01001999999ADDGA1021+009009999GA2021+069009999GF104991999999999999999999MA1100811999999MW1001REMMET076RJAK 010700Z 19008KT 9999 FEW030 SCT230 22/10 Q1008 RMK 2CU030 4CI230 A2976;EQDQ01+000000PRSWM2
0202477160999992000050108004+36030+140200FM-15+0029RJAK V0201601N004610690019N0112651N1+02201+01201999999ADDGA1021+009009999GA2071+069009999GF107991999999999999999999MA1100811999999MW1001REMMET092RJAK 010800Z 16009KT 9999 FEW030 BKN230 22/12 Q1008 RMK 2CU030 6CI230 A2977 FCST 0817 NOSIG;EQDQ01+000000PRSWM2
0235477160999992000050122004+36030+140200FM-15+0029RJAK V0200401N003110009019N0010001N1+01301+01301999999ADDGA1021+000309999GA2071+000909999GA3081+002409999GF108991999999999999999999MA1101081999999MW1101REMMET093RJAK 012200Z 04006KT 1000 BR SCT001 BKN003 OVC008 13/13 Q1011 RMK 3ST001 5ST003 8ST008 A2988;EQDQ01+000003PRSWM1Q02    003PRSWM1
0235477160999992000050122264+36030+140200FM-16+0029RJAK V0200601N003110033019N0016001N1+01401+01301999999ADDGA1021+001209999GA2071+003309999GA3071+004809999GF107991999999999999999999MA1101191999999MW1101REMMET093RJAK 012226Z 06006KT 1600 BR SCT004 BKN011 BKN016 14/13 Q1012 RMK 3ST004 5ST011 7SC016 A2988;EQDQ01+000003PRSWM1Q02    003PRSWM1
0316477160999992000050123004+36030+140200FM-15+0029RJAK V0200501N003110036019N0030001N1+01401+01301999999ADDGA1021+001809999GA2071+003609999GA3071+005409999GF107991999999999999999999MA1101191999999MW1101REMMET174RJAK 012300Z 05006KT 3000 BR SCT006 BKN012 BKN018 14/13 Q1012 RMK 3ST006 5ST012 7SC018 A2989 FCST 2308 BECMG 0002 NSW SCT020CU TEMPO 0508 BKN025CU FEW030TCU TEMPO 0708 -SHRA;EQDQ01+000003PRSWM1Q02    003PRSWM1
0277477160999992000050200004+36030+140200FM-15+0029RJAK V0200701N003110036019N0030001N1+01501+01301999999ADDGA1021+001809999GA2071+003609999GA3081+005409999GF108991999999999999999999MA1101191999999MW1101REMMET135RJAK 020000Z 07006KT 3000 BR SCT006 BKN012 OVC018 15/13 Q1012 RMK 3ST006 6ST012 8SC018 A2990 FCST 0009 BECMG 0002 NSW TEMPO 0709 -SHRA;EQDQ01+000003PRSWM1Q02    003PRSWM1
0216477160999992000050201004+36030+140200FM-15+0029RJAK V0200801N003610690019N0060001N1+01701+01301999999ADDGA1021+002409999GA2021+004509999GA3071+069009999GF107991999999999999999999MA1101191999999MW1001REMMET090RJAK 020100Z 08007KT 6000 FEW008 SCT015 BKN230 17/13 Q1012 RMK 2ST008 4CU015 6CI230 A2991;EQDQ01+000000PRSWM2
0186477160999992000050202004+36030+140200FM-15+0029RJAK V0200901N003610690019N0080001N1+01901+01401999999ADDGA1021+006009999GA2071+069009999GF107991999999999999999999MA1101191999999MW1001REMMET076RJAK 020200Z 09007KT 8000 FEW020 BKN230 19/14 Q1012 RMK 1CU020 6CI230 A2990;EQDQ01+000000PRSWM2
0242477160999992000050203004+36030+140200FM-15+0029RJAK V0200701N005110690019N0112651N1+01901+01301999999ADDGA1021+006009999GA2071+069009999GF107991999999999999999999MA1101191999999MW1001REMMET132RJAK 020300Z 07010KT 9999 FEW020 BKN230 19/13 Q1012 RMK 1CU020 5CI230 A2990 FCST 0312 BECMG 0608 BKN025CU BKN100AC TEMPO 0812 -SHRA;EQDQ01+000000PRSWM2
0186477160999992000050204004+36030+140200FM-15+0029RJAK V0200701N006210690019N0112651N1+02001+01401999999ADDGA1021+007509999GA2071+069009999GF107991999999999999999999MA1101081999999MW1001REMMET076RJAK 020400Z 07012KT 9999 FEW025 BKN230 20/14 Q1011 RMK 2CU025 5CI230 A2987;EQDQ01+000000PRSWM2
0156477160999992000050205004+36030+140200FM-15+0029RJAK V0200801N007212200019N0112651N1+02001+01401999999ADDGA1021+007509999GF104991999999999999999999MA1101021999999MW1001REMMET062RJAK 020500Z 08014KT 9999 SCT025 20/14 Q1010 RMK 3CU025 A2985;EQDQ01+000000PRSWM2
0203477160999992000050206004+36030+140200FM-15+0029RJAK V0201001N005712200019N0112651N1+02001+01401999999ADDGA1021+007509999GF104991999999999999999999MA1101021999999MW1001REMMET109RJAK 020600Z 10011KT 9999 SCT025 20/14 Q1010 RMK 3CU025 A2984 FCST 0615 BECMG 0709 BKN025CU TEMPO 0913 -SHRA;EQDQ01+000000PRSWM2
0186477160999992000050207004+36030+140200FM-15+0029RJAK V0200901N003612200019N0112651N1+01901+01501999999ADDGA1021+007509999GA2021+069009999GF104991999999999999999999MA1101021999999MW1001REMMET076RJAK 020700Z 09007KT 9999 SCT025 SCT230 19/15 Q1010 RMK 3CU025 3CI230 A2983;EQDQ01+000000PRSWM2
0280477160999992000050208004+36030+140200FM-15+0029RJAK V0200801N005110690019N0112651N1+01901+01501999999ADDGA1021+007509999GA2021+015009999GA3071+069009999GF107991999999999999999999MA1100911999999MW1001REMMET154RJAK 020800Z 08010KT 9999 FEW025 SCT050 BKN230 19/15 Q1009 RMK 2CU025 3SC050 5CI230 A2982 FCST 0817 BECMG 0911 BKN025CU BKN050SC TEMPO 1217 4000 -SHRA BR;EQDQ01+000000PRSWM2
0202477160999992000050603004+36030+140200FM-15+0029RJAK V0200701N004110090019N0112651N1+01401+00901999999ADDGA1021+007509999GA2071+009009999GF107991999999999999999999MA1102101999999MW1001REMMET092RJAK 060300Z 07008KT 9999 FEW025 BKN030 14/09 Q1021 RMK 2CU025 7SC030 A3015 FCST 0312 NOSIG;EQDQ01+000000PRSWM2
0186477160999992000050722004+36030+140200FM-15+0029RJAK V0201701N003112200019N0112651N1+01801+01401999999ADDGA1021+006009999GA2021+012009999GF104991999999999999999999MA1101801999999MW1001REMMET076RJAK 072200Z 17006KT 9999 FEW020 SCT040 18/14 Q1018 RMK 2CU020 4SC040 A3006;EQDQ01+000000PRSWM2
0242477160999992000050723004+36030+140200FM-15+0029RJAK V0201601N004112200019N0112651N1+01901+01301999999ADDGA1021+006009999GA2021+012009999GF104991999999999999999999MA1101691999999MW1001REMMET132RJAK 072300Z 16008KT 9999 FEW020 SCT040 19/13 Q1017 RMK 2CU020 3SC040 A3005 FCST 2308 TEMPO 0508 SCT020CU BKN030CU TEMPO 0608 -SHRA;EQDQ01+000000PRSWM2
0264477160999992000050800004+36030+140200FM-15+0029RJAK V0201801N004612200019N0112651N1+02101+01401999999ADDGA1021+006009999GA2021+009009999GF104991999999999999999999MA1101691999999MW1001REMMET154RJAK 080000Z 18009KT 9999 FEW020 SCT030 21/14 Q1017 RMK 1CU020 3CU030 A3005 FCST 0009 TEMPO 0208 18010G21KT TEMPO 0508 SCT020CU BKN030CU TEMPO 0608 -SHRA;EQDQ01+000000PRSWM2
0186477160999992000050801004+36030+140200FM-15+0029RJAK V0202001N004612200019N0112651N1+02201+01201999999ADDGA1021+006009999GA2021+009009999GF104991999999999999999999MA1101591999999MW1001REMMET076RJAK 080100Z 20009KT 9999 FEW020 SCT030 22/12 Q1016 RMK 1CU020 3CU030 A3002;EQDQ01+000000PRSWM2
0186477160999992000050802004+36030+140200FM-15+0029RJAK V0202001N004612200019N0112651N1+02301+01201999999ADDGA1021+009009999GA2021+030009999GF104991999999999999999999MA1101591999999MW1001REMMET076RJAK 080200Z 20009KT 9999 SCT030 SCT100 23/12 Q1016 RMK 3CU030 3AC100 A3001;EQDQ01+000000PRSWM2
0258477160999992000050802314+36030+140200FM-16+0029RJAK V0202101N004112200019N0112651N1+02401+01201999999ADDGA1021+009009999GA2021+010509099GA3021+030009999GF104991999999999999999999MA1101591999999MW1171REMMET116RJAK 080231Z 21008KT 9999 TS SCT030 FEW035CB SCT100 24/12 Q1016 RMK 3CU030 1CB035 3AC100 A3000 FBL TS 20KM NW MOV E;EQDQ01+000003PRSWM1Q02    003PRSWM1
0344477160999992000050803004+36030+140200FM-15+0029RJAK V0202201N004612200019N0112651N1+02301+01201999999ADDGA1021+009009999GA2021+010509099GA3021+030009999GF104991999999999999999999MA1101491999999MW1171REMMET202RJAK 080300Z 22009KT 9999 TS SCT030 FEW035CB SCT100 23/12 Q1015 RMK 3CU030 1CB035 3AC100 A2999 FBL TS 20KM NW MOV E FCST 0312 TEMPO 0304 -TSRA BKN030CU FEW035CB BECMG 0405 NSW TEMPO 0510 -SHRA BKN030CU;EQDQ01+000003PRSWM1Q02    003PRSWM1
0237477160999992000050804004+36030+140200FM-15+0029RJAK V0202001N004610300019N0112651N1+02301+01101999999ADDGA1021+009009999GA2021+010509099GA3071+030009999GF107991999999999999999999MA1101491999999MW1001REMMET111RJAK 080400Z 20009KT 9999 SCT030 FEW035CB BKN100 23/11 Q1015 RETS RMK 4CU030 1CB035 5AC100 A2997 CB W-NW MOV E;EQDQ01+000000PRSWM2
0186477160999992000050805004+36030+140200FM-15+0029RJAK V0201901N005712200019N0112651N1+02301+01001999999ADDGA1021+009009999GA2021+030009999GF104991999999999999999999MA1101391999999MW1001REMMET076RJAK 080500Z 19011KT 9999 FEW030 SCT100 23/10 Q1014 RMK 1CU030 4AC100 A2994;EQDQ01+000000PRSWM2
0186477160999992000050806004+36030+140200FM-15+0029RJAK V0202001N005712200019N0112651N1+02401+01101999999ADDGA1021+009009999GF102991999999999999999999MA1101291999999MW1001REMMET092RJAK 080600Z 20011KT 9999 FEW030 24/11 Q1013 RMK 2CU030 A2993 FCST 0615 TEMPO 0712 BKN030CU;EQDQ01+000000PRSWM2
0156477160999992000050807004+36030+140200FM-15+0029RJAK V0202001N005712200019N0112651N1+02301+01101999999ADDGA1021+009009999GF102991999999999999999999MA1101291999999MW1001REMMET062RJAK 080700Z 20011KT 9999 FEW030 23/11 Q1013 RMK 1CU030 A2992;EQDQ01+000000PRSWM2
0172477160999992000050808004+36030+140200FM-15+0029RJAK V0202001N005112200019N0112651N1+02301+01201999999ADDGA1021+009009999GF102991999999999999999999MA1101291999999MW1001REMMET078RJAK 080800Z 20010KT 9999 FEW030 23/12 Q1013 RMK 1CU030 A2993 FCST 0817 NOSIG;EQDQ01+000000PRSWM2
0149477160999992000050822004+36030+140200FM-15+0029RJAK V0202601N001012200019N0050001N1+01701+01401999999ADDGF100991999999999999999999MA1101291999999MW1101REMMET055RJAK 082200Z 26002KT 5000 BR SKC 17/14 Q1013 RMK A2991;EQDQ01+000003PRSWM1Q02    003PRSWM1
0172477160999992000050823004+36030+140200FM-15+0029RJAK V0200301N000512200019N0060001N1+01801+01401999999ADDGA1021+007509999GF102991999999999999999999MA1101291999999MW1001REMMET078RJAK 082300Z 03001KT 6000 FEW025 18/14 Q1013 RMK 1CU025 A2991 FCST 2308 NOSIG;EQDQ01+000000PRSWM2
0162477160999992000050900004+36030+140200FM-15+0029RJAK V0203401N002112200019N9999999N1+02101+01501999999ADDGF100991999999999999999999MA1101291999999MW1001REMMET068RJAK 090000Z 34004KT 7000 SKC 21/15 Q1013 RMK A2991 FCST 0009 NOSIG;EQDQ01+070002VODIS Q02+000000PRSWM2
0130477160999992000050901004+36030+140200FM-15+0029RJAK V0203501N001512200019N0080001N1+02301+01301999999ADDGF100991999999999999999999MA1101191999999MW1001REMMET052RJAK 090100Z 35003KT 8000 SKC 23/13 Q1012 RMK A2990;EQDQ01+000000PRSWM2
0130477160999992000050902004+36030+140200FM-15+0029RJAK V02099999999992200019N0080001N1+02401+01401999999ADDGF100991999999999999999999MA1101191999999MW1001REMMET052RJAK 090200Z VRB02KT 8000 SKC 24/14 Q1012 RMK A2989;EQDQ01+000000PRSWM2
0172477160999992000050903004+36030+140200FM-15+0029RJAK V0200801N007712200019N0080001N1+02401+01501999999ADDGA1021+007509999GF102991999999999999999999MA1101191999999MW1001REMMET078RJAK 090300Z 08015KT 8000 FEW025 24/15 Q1012 RMK 1CU025 A2988 FCST 0312 NOSIG;EQDQ01+000000PRSWM2
0130477160999992000050904004+36030+140200FM-15+0029RJAK V0200801N008212200019N0112651N1+02301+01301999999ADDGF100991999999999999999999MA1101191999999MW1001REMMET052RJAK 090400Z 08016KT 9999 SKC 23/13 Q1012 RMK A2990;EQDQ01+000000PRSWM2
0130477160999992000050905004+36030+140200FM-15+0029RJAK V0200801N007212200019N0112651N1+02101+01001999999ADDGF100991999999999999999999MA1101191999999MW1001REMMET052RJAK 090500Z 08014KT 9999 SKC 21/10 Q1012 RMK A2991;EQDQ01+000000PRSWM2
0146477160999992000050906004+36030+140200FM-15+0029RJAK V0200901N008212200019N0112651N1+02001+01001999999ADDGF100991999999999999999999MA1101191999999MW1001REMMET068RJAK 090600Z 09016KT 9999 SKC 20/10 Q1012 RMK A2990 FCST 0615 NOSIG;EQDQ01+000000PRSWM2
0130477160999992000050907004+36030+140200FM-15+0029RJAK V0200901N007212200019N0112651N1+02001+00901999999ADDGF100991999999999999999999MA1101291999999MW1001REMMET052RJAK 090700Z 09014KT 9999 SKC 20/09 Q1013 RMK A2992;EQDQ01+000000PRSWM2
0146477160999992000050908004+36030+140200FM-15+0029RJAK V0200801N007212200019N0112651N1+01801+00901999999ADDGF100991999999999999999999MA1101391999999MW1001REMMET068RJAK 090800Z 08014KT 9999 SKC 18/09 Q1014 RMK A2995 FCST 0817 NOSIG;EQDQ01+000000PRSWM2
0156477160999992000050922004+36030+140200FM-15+0029RJAK V0200501N004112200019N0060001N1+01301+01001999999ADDGA1021+002409999GF104991999999999999999999MA1101691999999MW1001REMMET062RJAK 092200Z 05008KT 6000 SCT008 13/10 Q1017 RMK 4CU008 A3005;EQDQ01+000000PRSWM2
0195477160999992000050923004+36030+140200FM-15+0029RJAK V0200801N004110030019N0070001N1+01401+01001999999ADDGA1071+003009999GF107991999999999999999999MA1101691999999MW1001REMMET101RJAK 092300Z 08008KT 7000 BKN010 14/10 Q1017 RMK 5CU010 A3005 FCST 2308 BECMG 2300 SCT010CU SCT040SC;EQDQ01+000000PRSWM2
0156477160999992000050923154+36030+140200FM-16+0029RJAK V0200701N004612200019N0070001N1+01401+01001999999ADDGA1021+004509999GF104991999999999999999999MA1101691999999MW1001REMMET062RJAK 092315Z 07009KT 7000 SCT015 14/10 Q1017 RMK 3CU015 A3004;EQDQ01+000000PRSWM2
0172477160999992000051000004+36030+140200FM-15+0029RJAK V0200801N004112200019N0080001N1+01501+01001999999ADDGA1021+006009999GF102991999999999999999999MA1101691999999MW1001REMMET078RJAK 100000Z 08008KT 8000 FEW020 15/10 Q1017 RMK 1CU020 A3003 FCST 0009 NOSIG;EQDQ01+000000PRSWM2
0156477160999992000051001004+36030+140200FM-15+0029RJAK V0200801N003612200019N0112651N1+01601+01101999999ADDGA1021+006009999GF102991999999999999999999MA1101691999999MW1001REMMET062RJAK 100100Z 08007KT 9999 FEW020 16/11 Q1017 RMK 1CU020 A3004;EQDQ01+000000PRSWM2
0186477160999992000051002004+36030+140200FM-15+0029RJAK V0200901N005112200019N0112651N1+01801+01101999999ADDGA1021+006009999GA2021+069009999GF104991999999999999999999MA1101691999999MW1001REMMET076RJAK 100200Z 09010KT 9999 FEW020 SCT230 18/11 Q1017 RMK 1CU020 3CI230 A3004;EQDQ01+000000PRSWM2
0197477160999992000051002124+36030+140200FM-16+0029RJAK V0200801N006210690019N0112651N1+01701+01101999999ADDGA1021+007509999GA2071+069009999GF107991999999999999999999MA1101691999999MW1001OC101441REMMET079RJAK 100212Z 08012G28KT 9999 FEW025 BKN230 17/11 Q1017 RMK 1CU025 6CI230 A3004;EQDQ01+000000PRSWM2
0186477160999992000051002324+36030+140200FM-16+0029RJAK V0200801N006210690019N0112651N1+01601+01001999999ADDGA1021+007509999GA2071+069009999GF107991999999999999999999MA1101691999999MW1001REMMET076RJAK 100232Z 08012KT 9999 FEW025 BKN230 16/10 Q1017 RMK 1CU025 6CI230 A3004;EQDQ01+000000PRSWM2
0225477160999992000051003004+36030+140200FM-15+0029RJAK V0200801N006210690019N0112651N1+01501+01001999999ADDGA1021+007509999GA2071+069009999GF107991999999999999999999MA1101691999999MW1001REMMET115RJAK 100300Z 08012KT 9999 FEW025 BKN230 15/10 Q1017 RMK 1CU025 6CI230 A3003 FCST 0312 TEMPO 0608 BKN020SC BKN230CI;EQDQ01+000000PRSWM2
0186477160999992000051004004+36030+140200FM-15+0029RJAK V0200901N005710690019N0112651N1+01601+01001999999ADDGA1021+007509999GA2071+069009999GF107991999999999999999999MA1101591999999MW1001REMMET076RJAK 100400Z 09011KT 9999 FEW025 BKN230 16/10 Q1016 RMK 1CU025 6CI230 A3002;EQDQ01+000000PRSWM2
0186477160999992000051005004+36030+140200FM-15+0029RJAK V0200801N006210690019N0112651N1+01601+01101999999ADDGA1021+007509999GA2071+069009999GF107991999999999999999999MA1101591999999MW1001REMMET076RJAK 100500Z 08012KT 9999 FEW025 BKN230 16/11 Q1016 RMK 1CU025 6CI230 A3001;EQDQ01+000000PRSWM2
0225477160999992000051006004+36030+140200FM-15+0029RJAK V0200901N006710690019N0112651N1+01501+01001999999ADDGA1021+009009999GA2071+069009999GF107991999999999999999999MA1101591999999MW1001REMMET115RJAK 100600Z 09013KT 9999 FEW030 BKN230 15/10 Q1016 RMK 1CU030 7CI230 A3001 FCST 0615 TEMPO 0710 BKN020SC BKN230CI;EQDQ01+000000PRSWM2
0186477160999992000051007004+36030+140200FM-15+0029RJAK V0200901N005710690019N0112651N1+01501+01001999999ADDGA1021+009009999GA2071+069009999GF107991999999999999999999MA1101591999999MW1001REMMET076RJAK 100700Z 09011KT 9999 FEW030 BKN230 15/10 Q1016 RMK 1CU030 5CI230 A3000;EQDQ01+000000PRSWM2
0225477160999992000051008004+36030+140200FM-15+0029RJAK V0200801N005710690019N0112651N1+01401+01001999999ADDGA1021+006009999GA2071+069009999GF107991999999999999999999MA1101591999999MW1001REMMET115RJAK 100800Z 08011KT 9999 FEW020 BKN230 14/10 Q1016 RMK 1CU020 5CI230 A3002 FCST 0817 TEMPO 0812 BKN020SC BKN230CI;EQDQ01+000000PRSWM2
0205477160999992000051022004+36030+140200FM-15+0029RJAK V0200401N003610015019N0035001N1+01101+01001999999ADDGA1021+001209999GA2081+001509999GF108991999999999999999999MA1101491999999MW1101REMMET079RJAK 102200Z 04007KT 3500 BR SCT004 OVC005 11/10 Q1015 RMK 3ST004 8ST005 A2998;EQDQ01+000003PRSWM1Q02    003PRSWM1
0292477160999992000051023004+36030+140200FM-15+0029RJAK V0200701N002610018019N0035001N1+01201+01001999999ADDGA1021+001209999GA2081+001809999GF108991999999999999999999MA1101491999999MW1101REMMET166RJAK 102300Z 07005KT 3500 BR SCT004 OVC006 12/10 Q1015 RMK 3ST004 8ST006 A2998 FCST 2308 BECMG 0001 5000 SCT006ST BKN015SC BKN050SC BECMG 0102 NSW TEMPO 0608 4000 BR;EQDQ01+000003PRSWM1Q02    003PRSWM1
0322477160999992000051100004+36030+140200FM-15+0029RJAK V0200301N003110045019N0045001N1+01301+01001999999ADDGA1021+001809999GA2071+004509999GA3071+009009999GF107991999999999999999999MA1101391999999MW1101REMMET180RJAK 110000Z 03006KT 4500 BR SCT006 BKN015 BKN030 13/10 Q1014 RMK 3ST006 5CU015 6SC030 A2997 FCST 0009 BECMG 0001 5000 BECMG 0102 NSW BECMG 0608 4000 BR BKN010ST BKN015CU BKN030SC;EQDQ01+000003PRSWM1Q02    003PRSWM1
0235477160999992000051100304+36030+140200FM-15+0029RJAK V0200601N003610240019N0050001N1+01501+01101999999ADDGA1021+004509999GA2021+009009999GA3071+024009999GF107991999999999999999999MA1101391999999MW1101REMMET093RJAK 110030Z 06007KT 5000 BR FEW015 SCT030 BKN080 15/11 Q1014 RMK 1CU015 4SC030 7AC080 A2995;EQDQ01+000003PRSWM1Q02    003PRSWM1
0216477160999992000051101004+36030+140200FM-15+0029RJAK V0200501N003110240019N0060001N1+01501+01101999999ADDGA1021+004509999GA2021+009009999GA3071+024009999GF107991999999999999999999MA1101391999999MW1001REMMET090RJAK 110100Z 05006KT 6000 FEW015 SCT030 BKN080 15/11 Q1014 RMK 1SC015 4SC030 7AC080 A2995;EQDQ01+000000PRSWM2
0216477160999992000051102004+36030+140200FM-15+0029RJAK V0200801N003610120019N0060001N1+01701+01201999999ADDGA1021+006009999GA2071+012009999GA3071+024009999GF107991999999999999999999MA1101391999999MW1001REMMET090RJAK 110200Z 08007KT 6000 FEW020 BKN040 BKN080 17/12 Q1014 RMK 1SC020 5SC040 7AC080 A2994;EQDQ01+000000PRSWM2
0311477160999992000051103004+36030+140200FM-15+0029RJAK V0200901N003110120019N0060001N1+01701+01301999999ADDGA1021+006009999GA2071+012009999GA3081+024009999GF108991999999999999999999MA1101291999999MW1001REMMET185RJAK 110300Z 09006KT 6000 FEW020 BKN040 OVC080 17/13 Q1013 RMK 1SC020 6SC040 8AC080 A2993 FCST 0312 BECMG 0608 4000 BR BKN015SC BKN030SC TEMPO 0710 -RA BECMG 1012 -RA BKN010SC OVC030SC;EQDQ01+000000PRSWM2
0216477160999992000051104004+36030+140200FM-15+0029RJAK V0201001N004610120019N0060001N1+01601+01201999999ADDGA1021+004509999GA2071+012009999GA3081+024009999GF108991999999999999999999MA1101291999999MW1001REMMET090RJAK 110400Z 10009KT 6000 FEW015 BKN040 OVC080 16/12 Q1013 RMK 2SC015 6SC040 8AC080 A2991;EQDQ01+000000PRSWM2
0236477160999992000051105004+36030+140200FM-15+0029RJAK V0201001N003610120019N0080001N1+01601+01301999999ADDGA1021+003909999GA2071+012009999GA3081+024009999GF108991999999999999999999MA1101291999999MW1611REMMET094RJAK 110500Z 10007KT 8000 -RA FEW013 BKN040 OVC080 16/13 Q1013 RMK 2SC013 6SC040 8AC080 A2991;EQDQ01+000003PRSWM1Q02    003PRSWM1
0329477160999992000051106004+36030+140200FM-15+0029RJAK V0200501N004110120019N0080001N1+01501+01301999999ADDGA1021+004209999GA2071+012009999GA3081+024009999GF108991999999999999999999MA1101081999999MW1001REMMET203RJAK 110600Z 05008KT 8000 FEW014 BKN040 OVC080 15/13 Q1011 RMK 1ST014 6SC040 8AC080 A2988 FCST 0615 BECMG 0608 4000 BR FEW010ST BKN020SC BKN040SC TEMPO 0710 -RA BECMG 1012 -RA BKN008ST BKN020SC OVC030SC;EQDQ01+000000PRSWM2
0236477160999992000051106224+36030+140200FM-16+0029RJAK V0200501N003610105019N0112651N1+01601+01301999999ADDGA1021+004209999GA2071+010509999GA3081+024009999GF108991999999999999999999MA1101081999999MW1611REMMET094RJAK 110622Z 05007KT 9999 -RA FEW014 BKN035 OVC080 16/13 Q1011 RMK 1ST014 6SC035 8AC080 A2987;EQDQ01+000003PRSWM1Q02    003PRSWM1
0236477160999992000051107004+36030+140200FM-15+0029RJAK V0200601N004110105019N0080001N1+01601+01301999999ADDGA1021+007509999GA2071+010509999GA3081+024009999GF108991999999999999999999MA1101081999999MW1611REMMET094RJAK 110700Z 06008KT 8000 -RA FEW025 BKN035 OVC080 16/13 Q1011 RMK 2SC025 6SC035 8AC080 A2985;EQDQ01+000003PRSWM1Q02    003PRSWM1
0345477160999992000051108004+36030+140200FM-15+0029RJAK V0200701N004610105019N0045001N1+01501+01401999999ADDGA1021+003609999GA2021+007509999GA3081+010509999GF108991999999999999999999MA1101081999999MW1101MW2611REMMET197RJAK 110800Z 07009KT 4500 -RA BR FEW012 SCT025 OVC035 15/14 Q1011 RMK 2ST012 4SC025 8SC035 A2985 FCST 0817 TEMPO 0812 BR BECMG 0910 SCT010ST BKN020SC OVC030SC BECMG 1113 BKN008ST BKN020SC OVC030SC;EQDQ01+000003PRSWM1Q02    003PRSWM1
0205477160999992000051122004+36030+140200FM-15+0029RJAK V0200601N003110009019N0040001N1+01501+01401999999ADDGA1071+000909999GA2081+001809999GF108991999999999999999999MA1100911999999MW1101REMMET079RJAK 112200Z 06006KT 4000 BR BKN003 OVC006 15/14 Q1009 RMK 6ST003 8ST006 A2981;EQDQ01+000003PRSWM1Q02    003PRSWM1
0354477160999992000051123004+36030+140200FM-15+0029RJAK V0200801N003610018019N0045001N1+01601+01401999999ADDGA1021+001209999GA2071+001809999GA3081+002709999GF108991999999999999999999MA1100911999999MW1101REMMET212RJAK 112300Z 08007KT 4500 BR SCT004 BKN006 OVC009 16/14 Q1009 RMK 3ST004 6ST006 8ST009 A2981 FCST 2308 BECMG 2300 5000 BR BECMG 0001 SCT008ST SCT020CU BKN040SC TEMPO 0608 4000 -SHRA BR SCT015CU BKN020CU BKN040SC;EQDQ01+000003PRSWM1Q02    003PRSWM1
0339477160999992000051200004+36030+140200FM-15+0029RJAK V0200701N003610024019N0050001N1+01701+01501999999ADDGA1021+002109999GA2071+002409999GA3071+003009999GF107991999999999999999999MA1100911999999MW1101REMMET197RJAK 120000Z 07007KT 5000 BR SCT007 BKN008 BKN010 17/15 Q1009 RMK 4ST007 6ST008 7ST010 A2981 FCST 0009 BECMG 0001 NSW FEW008ST SCT015CU BKN040SC TEMPO 0609 4000 -SHRA BR SCT015CU BKN020CU BKN040SC;EQDQ01+000003PRSWM1Q02    003PRSWM1
0216477160999992000051200444+36030+140200FM-16+0029RJAK V0200701N003610045019N0060001N1+01901+01501999999ADDGA1021+002409999GA2021+003009999GA3071+004509999GF107991999999999999999999MA1100911999999MW1001REMMET090RJAK 120044Z 07007KT 6000 FEW008 SCT010 BKN015 19/15 Q1009 RMK 2ST008 4ST010 5CU015 A2981;EQDQ01+000000PRSWM2
0186477160999992000051201004+36030+140200FM-15+0029RJAK V0200701N003612200019N0060001N1+01901+01501999999ADDGA1021+003009999GA2021+004509999GF104991999999999999999999MA1100911999999MW1001REMMET076RJAK 120100Z 07007KT 6000 FEW010 SCT015 19/15 Q1009 RMK 2ST010 4CU015 A2980;EQDQ01+000000PRSWM2
0186477160999992000051202004+36030+140200FM-15+0029RJAK V0200601N002612200019N0080001N1+02201+01501999999ADDGA1021+004509999GA2021+007509999GF104991999999999999999999MA1100811999999MW1001REMMET076RJAK 120200Z 06005KT 8000 FEW015 SCT025 22/15 Q1008 RMK 2CU015 4CU025 A2979;EQDQ01+000000PRSWM2
0280477160999992000051203004+36030+140200FM-15+0029RJAK V0200701N004112200019N0112651N1+02201+01501999999ADDGA1021+004509999GA2021+007509999GF104991999999999999999999MA1100811999999MW1001REMMET170RJAK 120300Z 07008KT 9999 FEW015 SCT025 22/15 Q1008 RMK 2CU015 4CU025 A2978 FCST 0312 TEMPO 0408 FEW015CU BKN025CU BECMG 0810 SCT015CU BKN020CU BKN100AC TEMPO 0912 -SHRA;EQDQ01+000000PRSWM2
0264477160999992000051203404+36030+140200FM-16+0029RJAK V0200901N005110075019N0112651N1+02201+01501999999ADDGA1021+006009999GA2021+006909029GA3071+007509999GA4071+030009999GF107991999999999999999999MA1100811999999MW1001REMMET122RJAK 120340Z 09010KT 9999 FEW020 FEW023TCU BKN025 BKN100 22/15 Q1008 RMK 1CU020 2TCU023 5CU025 5AC100 A2978 TCU S MOV UNK;EQDQ01+000000PRSWM2
0234477160999992000051204004+36030+140200FM-15+0029RJAK V0201001N006210075019N0112651N1+02101+01501999999ADDGA1021+006909029GA2071+007509999GA3071+030009999GF107991999999999999999999MA1100811999999MW1001REMMET108RJAK 120400Z 10012KT 9999 FEW023TCU BKN025 BKN100 21/15 Q1008 RMK 2TCU023 5CU025 6AC100 A2978 TCU S MOV UNK;EQDQ01+000000PRSWM2
0286477160999992000051204254+36030+140200FM-15+0029RJAK V0201001N005110090019N0112651N1+01801+01501999999ADDGA1021+004509999GA2021+006909029GA3071+009009999GA4071+030009999GF107991999999999999999999MA1100811999999MW1801REMMET128RJAK 120425Z 10010KT 9999 -SHRA FEW015 FEW023TCU BKN030 BKN100 18/15 Q1008 RMK 1CU015 2TCU023 5CU030 6AC100 A2978 TCU S MOV UNK;EQDQ01+000003PRSWM1Q02    003PRSWM1
0238477160999992000051205004+36030+140200FM-15+0029RJAK V0201001N005110090019N0112651N1+01801+01601999999ADDGA1021+007509999GA2071+009009999GA3071+030009999GF107991999999999999999999MA1100811999999MW1801REMMET096RJAK 120500Z 10010KT 9999 -SHRA FEW025 BKN030 BKN100 18/16 Q1008 RMK 2CU025 5CU030 7AC100 A2978;EQDQ01+000003PRSWM1Q02    003PRSWM1
0286477160999992000051206004+36030+140200FM-15+0029RJAK V0200901N005110090019N0090001N1+01801+01601999999ADDGA1021+004509999GA2071+009009999GA3071+013509999GF107991999999999999999999MA1100811999999MW1801REMMET144RJAK 120600Z 09010KT 9000 -SHRA FEW015 BKN030 BKN045 18/16 Q1008 RMK 1CU015 5CU030 6SC045 A2977 FCST 0615 TEMPO 0709 BR BECMG 0910 000 -SHRA BR;EQDQ01+000003PRSWM1Q02    003PRSWM1
0238477160999992000051207004+36030+140200FM-15+0029RJAK V0200801N001510105019N0070001N1+01801+01701999999ADDGA1021+004509999GA2071+010509999GA3071+013509999GF107991999999999999999999MA1100811999999MW1801REMMET096RJAK 120700Z 08003KT 7000 -SHRA FEW015 BKN035 BKN045 18/17 Q1008 RMK 2CU015 5CU035 6SC045 A2978;EQDQ01+000003PRSWM1Q02    003PRSWM1
0295477160999992000051208004+36030+140200FM-15+0029RJAK V0200801N003610105019N0080001N1+01901+01701999999ADDGA1021+004509999GA2071+010509999GA3071+013509999GF107991999999999999999999MA1100811999999MW1001REMMET169RJAK 120800Z 08007KT 8000 FEW015 BKN035 BKN045 19/17 Q1008 RMK 2CU015 5SC035 6SC045 A2978 FCST 0817 TEMPO 0810 -SHRA BECMG 1012 4000 -SHRA BR FEW010ST BKN020CU BKN030SC;EQDQ01+000000PRSWM2
0291477160999992000051223004+36030+140200FM-15+0029RJAK V0200501N002610015019N0030001N1+01701+01601999999ADDGA1021+000909999GA2071+001509999GA3081+003009999GF108991999999999999999999MA1101191999999MW1101REMMET149RJAK 122300Z 05005KT 3000 BR SCT003 BKN005 OVC010 17/16 Q1012 RMK 3ST003 7ST005 8SC010 A2989 FCST 2308 BECMG 0103 5000 BR SCT008ST BKN012SC OVC030SC;EQDQ01+000003PRSWM1Q02    003PRSWM1
0291477160999992000051300004+36030+140200FM-15+0029RJAK V0200701N003110018019N0028001N1+01801+01601999999ADDGA1021+001509999GA2071+001809999GA3081+003009999GF108991999999999999999999MA1101191999999MW1101REMMET149RJAK 130000Z 07006KT 2800 BR SCT005 BKN006 OVC010 18/16 Q1012 RMK 4ST005 7ST006 8SC010 A2989 FCST 0009 BECMG 0103 5000 BR SCT008ST BKN012SC OVC030SC;EQDQ01+000003PRSWM1Q02    003PRSWM1
0235477160999992000051301004+36030+140200FM-15+0029RJAK V0200701N002110024019N0040001N1+01901+01701999999ADDGA1021+001809999GA2071+002409999GA3071+003009999GF107991999999999999999999MA1101191999999MW1101REMMET093RJAK 130100Z 07004KT 4000 BR FEW006 BKN008 BKN010 19/17 Q1012 RMK 2ST006 6ST008 7SC010 A2989;EQDQ01+000003PRSWM1Q02    003PRSWM1
0156477160999992000051322004+36030+140200FM-15+0029RJAK V0200901N003612200019N0112651N1+01701+01501999999ADDGA1021+001809999GF104991999999999999999999MA1101021999999MW1001REMMET062RJAK 132200Z 09007KT 9999 SCT006 17/15 Q1010 RMK 3ST006 A2983;EQDQ01+000000PRSWM2
0236477160999992000051323004+36030+140200FM-15+0029RJAK V0201201N001512200019N0112651N1+01901+01601999999ADDGA1021+002409999GA2021+069009999GF104991999999999999999999MA1101021999999MW1001REMMET126RJAK 132300Z 12003KT 9999 FEW008 SCT230 19/16 Q1010 RMK 2CU008 3CI230 A2983 FCST 2308 TEMPO 0608 4000 -TSRA BKN020CU SCT025CB;EQDQ01+000000PRSWM2
0186477160999992000051323054+36030+140200FM-16+0029RJAK V0200801N001010054019N0112651N1+01901+01601999999ADDGA1021+003009999GA2071+005409999GF107991999999999999999999MA1101021999999MW1001REMMET076RJAK 132305Z 08002KT 9999 SCT010 BKN018 19/16 Q1010 RMK 3CU010 6CU018 A2983;EQDQ01+000000PRSWM2
0330477160999992000051400004+36030+140200FM-15+0029RJAK V0200401N002110027019N0112651N1+01801+01601999999ADDGA1021+002109999GA2071+002709999GA3081+004509999GF108991999999999999999999MA1101021999999MW1801REMMET188RJAK 140000Z 04004KT 9999 -SHRA SCT007 BKN009 OVC015 18/16 Q1010 RMK 3ST007 6CU009 8CU015 A2983 FCST 0009 BECMG 0002 NSW SCT015CU BKN025CU TEMPO 0609 4000 -TSRA BKN010CU SCT020CB BKN025CU;EQDQ01+000003PRSWM1Q02    003PRSWM1
0216477160999992000051401004+36030+140200FM-15+0029RJAK V0200201N002110030019N0090001N1+01801+01601999999ADDGA1021+002109999GA2071+003009999GA3081+004509999GF108991999999999999999999MA1101021999999MW1001REMMET090RJAK 140100Z 02004KT 9000 SCT007 BKN010 OVC015 18/16 Q1010 RMK 3ST007 6CU010 8CU015 A2983;EQDQ01+000000PRSWM2
0216477160999992000051402004+36030+140200FM-15+0029RJAK V0200401N002610045019N0070001N1+01901+01601999999ADDGA1021+003009999GA2071+004509999GA3071+007509999GF107991999999999999999999MA1101021999999MW1001REMMET090RJAK 140200Z 04005KT 7000 SCT010 BKN015 BKN025 19/16 Q1010 RMK 3ST010 5CU015 5CU025 A2982;EQDQ01+000000PRSWM2
0292477160999992000051403004+36030+140200FM-15+0029RJAK V0203401N001510045019N0090001N1+02001+01601999999ADDGA1021+003609999GA2071+004509999GA3081+007509999GF108991999999999999999999MA1100911999999MW1001REMMET166RJAK 140300Z 34003KT 9000 FEW012 BKN015 OVC025 20/16 Q1009 RMK 2CU012 6CU015 8CU025 A2981 FCST 0312 TEMPO 0608 -SHRA TEMPO 0812 4000 -TSRA BKN010CU BKN020CU SCT025CB;EQDQ01+000000PRSWM2
0216477160999992000051404004+36030+140200FM-15+0029RJAK V0200301N002110066019N0112651N1+02101+01601999999ADDGA1021+004809999GA2071+006609999GA3071+009009999GF107991999999999999999999MA1100811999999MW1001REMMET090RJAK 140400Z 03004KT 9999 SCT016 BKN022 BKN030 21/16 Q1008 RMK 3CU016 5CU022 6CU030 A2978;EQDQ01+000000PRSWM2
0186477160999992000051404254+36030+140200FM-15+0029RJAK V0200601N001512200019N0112651N1+02201+01601999999ADDGA1021+004809999GA2021+006009999GF104991999999999999999999MA1100811999999MW1001REMMET076RJAK 140425Z 06003KT 9999 FEW016 SCT020 22/16 Q1008 RMK 2CU016 3CU020 A2976;EQDQ01+000000PRSWM2
0186477160999992000051405004+36030+140200FM-15+0029RJAK V0201301N001012200019N0112651N1+02201+01601999999ADDGA1021+006009999GA2021+007509999GF104991999999999999999999MA1100811999999MW1001REMMET076RJAK 140500Z 13002KT 9999 FEW020 SCT025 22/16 Q1008 RMK 2CU020 3CU025 A2976;EQDQ01+000000PRSWM2
0186477160999992000051405284+36030+140200FM-16+0029RJAK V0200601N004110075019N0112651N1+02201+01601999999ADDGA1021+006009999GA2071+007509999GF107991999999999999999999MA1100711999999MW1001REMMET076RJAK 140528Z 06008KT 9999 SCT020 BKN025 22/16 Q1007 RMK 3CU020 5CU025 A2975;EQDQ01+000000PRSWM2
0205477160999992000051422004+36030+140200FM-15+0029RJAK V0200601N001512200019N0020001N1+01601+01401999999ADDGA1021+002409999GA2021+069009999GF104991999999999999999999MA1101021999999MW1101REMMET079RJAK 142200Z 06003KT 2000 BR FEW008 SCT230 16/14 Q1010 RMK 2ST008 3CC230 A2984;EQDQ01+000003PRSWM1Q02    003PRSWM1
0267477160999992000051423004+36030+140200FM-15+0029RJAK V0200501N001012200019N0045001N1+01701+01401999999ADDGA1021+002409999GA2021+075009999GF104991999999999999999999MA1101021999999MW1101REMMET141RJAK 142300Z 05002KT 4500 BR FEW008 SCT250 17/14 Q1010 RMK 2CU008 4CS250 A2985 FCST 2308 BECMG 2300 NSW BECMG 0507 BKN025CU TEMPO 0708 -SHRA;EQDQ01+000003PRSWM1Q02    003PRSWM1
0186477160999992000051423114+36030+140200FM-16+0029RJAK V0203301N001512200019N0080001N1+01801+01401999999ADDGA1021+003009999GA2021+075009999GF104991999999999999999999MA1101021999999MW1001REMMET076RJAK 142311Z 33003KT 8000 FEW010 SCT250 18/14 Q1010 RMK 1CU010 3CS250 A2985;EQDQ01+000000PRSWM2
0267477160999992000051500004+36030+140200FM-15+0029RJAK V0200501N001510750019N0112651N1+01901+01301999999ADDGA1021+003609999GA2071+075009999GF107991999999999999999999MA1101021999999MW1001REMMET157RJAK 150000Z 05003KT 9999 FEW012 BKN250 19/13 Q1010 RMK 2CU012 7CS250 A2984 FCST 0009 TEMPO 0305 BKN025CU BECMG 0507 FEW020CB BKN025CU TEMPO 0709 4000 -SHRA;EQDQ01+000000PRSWM2
0186477160999992000051501004+36030+140200FM-15+0029RJAK V0200601N002110690019N0112651N1+02001+01401999999ADDGA1021+006009999GA2071+069009999GF107991999999999999999999MA1101021999999MW1001REMMET076RJAK 150100Z 06004KT 9999 FEW020 BKN230 20/14 Q1010 RMK 2CU020 6CI230 A2984;EQDQ01+000000PRSWM2
0156477160999992000051502004+36030+140200FM-15+0029RJAK V0200901N002612200019N0112651N1+02101+01401999999ADDGA1021+006009999GF104991999999999999999999MA1101021999999MW1001REMMET062RJAK 150200Z 09005KT 9999 SCT020 21/14 Q1010 RMK 3CU020 A2983;EQDQ01+000000PRSWM2
0267477160999992000051503004+36030+140200FM-15+0029RJAK V0201601N002112200019N0112651N1+02201+01401999999ADDGA1021+007509999GA2021+036009999GF104991999999999999999999MA1100911999999MW1001REMMET157RJAK 150300Z 16004KT 9999 FEW025 SCT120 22/14 Q1009 RMK 2CU025 3AC120 A2980 FCST 0312 TEMPO 0507 BKN025CU BECMG 0708 FEW020CB BKN025CU TEMPO 0812 4000 -SHRA;EQDQ01+000000PRSWM2
0186477160999992000051504004+36030+140200FM-15+0029RJAK V0200701N004612200019N0112651N1+02201+01401999999ADDGA1021+009009999GA2021+036009999GF104991999999999999999999MA1100811999999MW1001REMMET076RJAK 150400Z 07009KT 9999 SCT030 SCT120 22/14 Q1008 RMK 3CU030 4AC120 A2979;EQDQ01+000000PRSWM2
0268477160999992000051505004+36030+140200FM-15+0029RJAK V0200801N005110090019N0112651N1+02201+01401999999ADDGA1021+007509999GA2071+009009999GA3021+010509029GA4071+069009999GF107991999999999999999999MA1100811999999MW1001REMMET126RJAK 150500Z 08010KT 9999 FEW025 BKN030 FEW035TCU BKN230 22/14 Q1008 RMK 2CU025 5CU030 1TCU035 6CI230 A2977 TCU 10KM S MOV NE;EQDQ01+000000PRSWM2
0289477160999992000051505074+36030+140200FM-16+0029RJAK V0201101N004610090019N0112651N1+02101+01401999999ADDGA1021+007509999GA2071+009009999GA3021+010509029GA4071+069009999GF107991999999999999999999MA1100811999999MW1801REMMET131RJAK 150507Z 11009KT 9999 -SHRA SCT025 BKN030 FEW035TCU BKN230 21/14 Q1008 RMK 3CU025 6CU030 1TCU035 7CI230 A2977 TCU 10KM S MOV E;EQDQ01+000003PRSWM1Q02    003PRSWM1
0265477160999992000051508004+36030+140200FM-15+0029RJAK V0201201N004610090019N0112651N1+02001+01201999999ADDGA1021+007509999GA2071+009009999GA3081+030009999GF108991999999999999999999MA1100711999999MW1001REMMET139RJAK 150800Z 12009KT 9999 FEW025 BKN030 OVC100 20/12 Q1007 RMK 2CU025 7CU030 8AC100 A2973 FCST 0817 BECMG 0809 -SHRA TEMPO 0912 4000 -TSRA;EQDQ01+000000PRSWM2
0186477160999992000051522004+36030+140200FM-15+0029RJAK V02099999999990150019N0080001N1+01601+01301999999ADDGA1071+015009999GA2071+024009999GF107991999999999999999999MA1100811999999MW1001REMMET076RJAK 152200Z VRB01KT 8000 BKN050 BKN080 16/13 Q1008 RMK 5SC050 6AC080 A2979;EQDQ01+000000PRSWM2
0225477160999992000051523004+36030+140200FM-15+0029RJAK V0209999C000010240019N0112651N1+01701+01301999999ADDGA1021+015009999GA2071+024009999GF107991999999999999999999MA1100911999999MW1001REMMET115RJAK 152300Z 00000KT 9999 SCT050 BKN080 17/13 Q1009 RMK 3SC050 6AC080 A2979 FCST 2308 TEMPO 0608 BKN030CU SCT100AC;EQDQ01+000000PRSWM2
0195477160999992000051600004+36030+140200FM-15+0029RJAK V0200601N001512200019N0112651N1+01901+01201999999ADDGA1021+024009999GF104991999999999999999999MA1100911999999MW1001REMMET101RJAK 160000Z 06003KT 9999 SCT080 19/12 Q1009 RMK 3AC080 A2981 FCST 0009 TEMPO 0609 BKN030CU SCT100AC;EQDQ01+000000PRSWM2
0156477160999992000051601004+36030+140200FM-15+0029RJAK V02099999999992200019N0112651N1+02101+01101999999ADDGA1021+007509999GF102991999999999999999999MA1100911999999MW1001REMMET062RJAK 160100Z VRB02KT 9999 FEW025 21/11 Q1009 RMK 1CU025 A2980;EQDQ01+000000PRSWM2
0156477160999992000051602004+36030+140200FM-15+0029RJAK V02099999999992200019N0112651N1+02101+01001999999ADDGA1021+007509999GF102991999999999999999999MA1100811999999MW1001REMMET062RJAK 160200Z VRB03KT 9999 FEW025 21/10 Q1008 RMK 1CU025 A2979;EQDQ01+000000PRSWM2
0232477160999992000051603004+36030+140200FM-15+0029RJAK V0200701N003112200019N0112651N1+02201+01001999999ADDGA1021+009009999GF102991999999999999999999MA1100811999999MW1001REMMET138RJAK 160300Z 07006KT 020V170 9999 FEW030 22/10 Q1008 RMK 1CU030 A2979 FCST 0312 TEMPO 0610 BKN030CU SCT100AC BECMG 1012 BKN030CU BKN100AC;EQDQ01+000000PRSWM2
0186477160999992000051605004+36030+140200FM-15+0029RJAK V0200901N005712200019N0112651N1+02201+01301999999ADDGA1021+009009999GA2021+069009999GF104991999999999999999999MA1100811999999MW1001REMMET076RJAK 160500Z 09011KT 9999 FEW030 SCT230 22/13 Q1008 RMK 1CU030 3CI230 A2977;EQDQ01+000000PRSWM2
0186477160999992000051607004+36030+140200FM-15+0029RJAK V0200801N005712200019N0112651N1+02001+01301999999ADDGA1021+009009999GA2021+069009999GF104991999999999999999999MA1100811999999MW1001REMMET076RJAK 160700Z 08011KT 9999 FEW030 SCT230 20/13 Q1008 RMK 1CU030 3CI230 A2976;EQDQ01+000000PRSWM2
0216477160999992000051622004+36030+140200FM-15+0029RJAK V0200501N005110690019N0080001N1+01501+01101999999ADDGA1021+006009999GA2021+009009999GA3071+069009999GF107991999999999999999999MA1101021999999MW1001REMMET090RJAK 162200Z 05010KT 8000 FEW020 SCT030 BKN230 15/11 Q1010 RMK 1CU020 3CU030 6CI230 A2984;EQDQ01+000000PRSWM2
0265477160999992000051623004+36030+140200FM-15+0029RJAK V0200501N004610690019N0070001N1+01601+01201999999ADDGA1021+009009999GA2071+069009999GF107991999999999999999999MA1101021999999MW1001REMMET155RJAK 162300Z 05009KT 7000 FEW030 BKN230 16/12 Q1010 RMK 1CU030 7CI230 A2984 FCST 2308 TEMPO 0204 -SHRA BKN030CU TEMPO 0408 4000 -SHRA BR BKN015CU BKN030CU;EQDQ01+000000PRSWM2
0295477160999992000051700004+36030+140200FM-15+0029RJAK V0200601N004110600019N0070001N1+01701+01201999999ADDGA1021+007509999GA2021+030009999GA3081+060009999GF108991999999999999999999MA1101021999999MW1001REMMET169RJAK 170000Z 06008KT 7000 FEW025 SCT100 OVC200 17/12 Q1010 RMK 2CU025 4AC100 8CI200 A2983 FCST 0009 TEMPO 0105 -SHRA BKN040SC TEMPO 0509 4000 -SHRA BR BKN015CU BKN030CU;EQDQ01+000000PRSWM2
0264477160999992000051700154+36030+140200FM-16+0029RJAK V0200801N004610075019N0112651N1+01701+01201999999ADDGA1021+006009999GA2071+007509999GA3021+009009029GA4081+027009999GF108991999999999999999999MA1101021999999MW1001REMMET122RJAK 170015Z 08009KT 9999 SCT020 BKN025 FEW030TCU OVC090 17/12 Q1010 RMK 3CU020 6CU025 2TCU030 8AC090 A2985 TCU SE MOV NE;EQDQ01+000000PRSWM2
0216477160999992000051701004+36030+140200FM-15+0029RJAK V0200901N004610090019N0090001N1+01701+01201999999ADDGA1021+006009999GA2071+009009999GA3081+027009999GF108991999999999999999999MA1101081999999MW1001REMMET090RJAK 170100Z 09009KT 9000 FEW020 BKN030 OVC090 17/12 Q1011 RMK 2CU020 5CU030 8AC090 A2986;EQDQ01+000000PRSWM2
0238477160999992000051701124+36030+140200FM-16+0029RJAK V0201001N004610090019N0080001N1+01701+01201999999ADDGA1021+006009999GA2071+009009999GA3081+027009999GF108991999999999999999999MA1101081999999MW1801REMMET096RJAK 170112Z 10009KT 8000 -SHRA SCT020 BKN030 OVC090 17/12 Q1011 RMK 3CU020 6CU030 8AC090 A2986;EQDQ01+000003PRSWM1Q02    003PRSWM1
0238477160999992000051702044+36030+140200FM-16+0029RJAK V0200801N005110054019N0080001N1+01601+01201999999ADDGA1021+004509999GA2071+005409999GA3071+009009999GF107991999999999999999999MA1101081999999MW1801REMMET096RJAK 170204Z 08010KT 8000 -SHRA FEW015 BKN018 BKN030 16/12 Q1011 RMK 2CU015 5CU018 7CU030 A2986;EQDQ01+000003PRSWM1Q02    003PRSWM1
0238477160999992000051704004+36030+140200FM-15+0029RJAK V0200801N004110090019N0080001N1+01601+01301999999ADDGA1021+004509999GA2071+009009999GA3071+024009999GF107991999999999999999999MA1101021999999MW1801REMMET096RJAK 170400Z 08008KT 8000 -SHRA SCT015 BKN030 BKN080 16/13 Q1010 RMK 4CU015 6CU030 7AC080 A2984;EQDQ01+000003PRSWM1Q02    003PRSWM1
0216477160999992000051704174+36030+140200FM-16+0029RJAK V0200801N004610090019N0080001N1+01701+01301999999ADDGA1021+004509999GA2071+009009999GA3071+024009999GF107991999999999999999999MA1101021999999MW1001REMMET090RJAK 170417Z 08009KT 8000 SCT015 BKN030 BKN080 17/13 Q1010 RMK 4CU015 6CU030 7AC080 A2983;EQDQ01+000000PRSWM2
0216477160999992000051705004+36030+140200FM-15+0029RJAK V0200801N004110090019N0080001N1+01701+01301999999ADDGA1021+004509999GA2071+009009999GA3071+024009999GF107991999999999999999999MA1101021999999MW1001REMMET090RJAK 170500Z 08008KT 8000 SCT015 BKN030 BKN080 17/13 Q1010 RMK 3CU015 5CU030 7AC080 A2983;EQDQ01+000000PRSWM2
0216477160999992000051707004+36030+140200FM-15+0029RJAK V0201301N004610240019N0112651N1+01801+01301999999ADDGA1021+003009999GA2021+004509999GA3071+024009999GF107991999999999999999999MA1100911999999MW1001REMMET090RJAK 170700Z 13009KT 9999 FEW010 SCT015 BKN080 18/13 Q1009 RMK 2CU010 3CU015 5AC080 A2981;EQDQ01+000000PRSWM2
0304477160999992000051708004+36030+140200FM-15+0029RJAK V0200801N005110240019N0112651N1+01801+01401999999ADDGA1021+003009999GA2021+004509999GA3071+024009999GF107991999999999999999999MA1100911999999MW1001REMMET178RJAK 170800Z 08010KT 9999 FEW010 SCT015 BKN080 18/14 Q1009 RMK 2CU010 3CU015 5AC080 A2980 FCST 0817 BECMG 0911 -SHRA BKN015CU BKN030CU BECMG 1113 4000 -SHRA BR BKN008ST BKN010CU;EQDQ01+000000PRSWM2
0208477160999992000051722004+36030+140200FM-15+0029RJAK V0200401N004610036019N0090001N1+01501+01201999999ADDGA1071+003609999GA2081+006009999GF108991999999999999999999MA1100711999999MW1801REMMET082RJAK 172200Z 04009KT 9000 -SHRA BKN012 OVC020 15/12 Q1007 RMK 6CU012 8CU020 A2976;EQDQ01+000003PRSWM1Q02    003PRSWM1
0272477160999992000051723004+36030+140200FM-15+0029RJAK V0200301N005110036019N0080001N1+01501+01201999999ADDGA1071+003609999GA2081+006009999GF108991999999999999999999MA1100811999999MW1801REMMET146RJAK 172300Z 03010KT 8000 -SHRA BKN012 OVC020 15/12 Q1008 RMK 6CU012 8SC020 A2976 FCST 2308 TEMPO 2303 03010G20KT 4000 -SHRA BR BKN008CU BKN010CU;EQDQ01+000003PRSWM1Q02    003PRSWM1
0257477160999992000051723354+36030+140200FM-16+0029RJAK V0203501N003110024019N0035001N1+01501+01301999999ADDGA1021+001809999GA2071+002409999GA3081+003909999GF108991999999999999999999MA1100811999999MW1801REMMET099RJAK 172335Z 35006KT 3500 -SHRA BR FEW006 BKN008 OVC013 15/13 Q1008 RMK 2ST006 6ST008 8CU013 A2976;EQDQ01+000100PRSWM3Q02+000003PRSWM1Q03    003PRSWM1
0238477160999992000051802444+36030+140200FM-16+0029RJAK V0203301N002610060019N0060001N1+01601+01401999999ADDGA1021+001209999GA2021+003609999GA3071+006009999GF107991999999999999999999MA1100911999999MW1801REMMET096RJAK 180244Z 33005KT 6000 -SHRA FEW004 SCT012 BKN020 16/14 Q1009 RMK 1ST004 4CU012 6CU020 A2980;EQDQ01+000003PRSWM1Q02    003PRSWM1
0292477160999992000051803004+36030+140200FM-15+0029RJAK V0203401N003110060019N0060001N1+01601+01401999999ADDGA1021+001809999GA2021+003609999GA3071+006009999GF107991999999999999999999MA1100911999999MW1801REMMET150RJAK 180300Z 34006KT 6000 -SHRA FEW006 SCT012 BKN020 16/14 Q1009 RMK 2ST006 4CU012 7CU020 A2980 FCST 0312 TEMPO 0304 BKN010CU BKN020CU BECMG 0405 NSW;EQDQ01+000003PRSWM1Q02    003PRSWM1
0216477160999992000051804004+36030+140200FM-15+0029RJAK V0200101N003110060019N0112651N1+01801+01301999999ADDGA1021+003609999GA2071+006009999GA3071+030009999GF107991999999999999999999MA1100911999999MW1001REMMET090RJAK 180400Z 01006KT 9999 SCT012 BKN020 BKN100 18/13 Q1009 RMK 4CU012 6CU020 7AC100 A2979;EQDQ01+000000PRSWM2
0216477160999992000051805004+36030+140200FM-15+0029RJAK V0200601N004110060019N0112651N1+01801+01301999999ADDGA1021+003609999GA2071+006009999GA3071+009009999GF107991999999999999999999MA1100811999999MW1001REMMET090RJAK 180500Z 06008KT 9999 FEW012 BKN020 BKN030 18/13 Q1008 RMK 2CU012 5CU020 6CU030 A2979;EQDQ01+000000PRSWM2
0156477160999992000051807004+36030+140200FM-15+0029RJAK V0200501N006212200019N0112651N1+02001+01301999999ADDGA1021+007509999GF104991999999999999999999MA1100811999999MW1001REMMET062RJAK 180700Z 05012KT 9999 SCT025 20/13 Q1008 RMK 3CU025 A2978;EQDQ01+000000PRSWM2
0167477160999992000051807104+36030+140200FM-16+0029RJAK V0200601N006712200019N0112651N1+01901+01301999999ADDGA1021+007509999GF102991999999999999999999MA1100811999999MW1001OC101181REMMET065RJAK 180710Z 06013G23KT 9999 FEW025 19/13 Q1008 RMK 2CU025 A2979;EQDQ01+000000PRSWM2
0172477160999992000051808004+36030+140200FM-15+0029RJAK V0200501N008712200019N0112651N1+01901+01201999999ADDGA1021+007509999GF102991999999999999999999MA1100911999999MW1001REMMET078RJAK 180800Z 05017KT 9999 FEW025 19/12 Q1009 RMK 1CU025 A2980 FCST 0817 NOSIG;EQDQ01+000000PRSWM2
0186477160999992000051822004+36030+140200FM-15+0029RJAK V0200301N004110600019N0112651N1+01601+01001999999ADDGA1021+012009999GA2071+060009999GF107991999999999999999999MA1101291999999MW1001REMMET076RJAK 182200Z 03008KT 9999 FEW040 BKN200 16/10 Q1013 RMK 1SC040 7CS200 A2993;EQDQ01+000000PRSWM2
0186477160999992000051901004+36030+140200FM-15+0029RJAK V0200401N005110600019N0112651N1+01901+01201999999ADDGA1021+007509999GA2081+060009999GF108991999999999999999999MA1101391999999MW1001REMMET076RJAK 190100Z 04010KT 9999 FEW025 OVC200 19/12 Q1014 RMK 2CU025 8CS200 A2995;EQDQ01+000000PRSWM2
0216477160999992000051902004+36030+140200FM-15+0029RJAK V0200501N005710600019N0112651N1+01901+01201999999ADDGA1021+006009999GA2021+007509999GA3081+060009999GF108991999999999999999999MA1101391999999MW1001REMMET090RJAK 190200Z 05011KT 9999 FEW020 SCT025 OVC200 19/12 Q1014 RMK 1CU020 3CU025 8CS200 A2996;EQDQ01+000000PRSWM2
0264477160999992000051906004+36030+140200FM-15+0029RJAK V0200601N004610600019N0112651N1+01901+01301999999ADDGA1021+006009999GA2021+007509999GA3081+060009999GF108991999999999999999999MA1101291999999MW1001REMMET138RJAK 190600Z 06009KT 9999 FEW020 SCT025 OVC200 19/13 Q1013 RMK 2CU020 3CU025 8CS200 A2994 FCST 0615 BECMG 0911 FEW020CU SCT040SC BKN100AC;EQDQ01+000000PRSWM2
0216477160999992000051907004+36030+140200FM-15+0029RJAK V0200701N005110600019N0112651N1+01901+01301999999ADDGA1021+006009999GA2021+007509999GA3081+060009999GF108991999999999999999999MA1101291999999MW1001REMMET090RJAK 190700Z 07010KT 9999 FEW020 SCT025 OVC200 19/13 Q1013 RMK 2CU020 3CU025 8CS200 A2994;EQDQ01+000000PRSWM2
0273477160999992000051908004+36030+140200FM-15+0029RJAK V0200601N004610600019N0112651N1+01801+01301999999ADDGA1021+006009999GA2021+036009999GA3081+060009999GF108991999999999999999999MA1101291999999MW1001REMMET147RJAK 190800Z 06009KT 9999 FEW020 SCT120 OVC200 18/13 Q1013 RMK 2CU020 3AC120 8CS200 A2993 FCST 0817 BECMG 0911 FEW020CU SCT040SC BKN120AC OVC200CS;EQDQ01+000000PRSWM2
0245477160999992000052021004+36030+140200FM-15+0029RJAK V0203401N001510030019N0040001N1+01401+01301999999ADDGA1021+001509999GA2021+002409999GA3071+003009999GF107991999999999999999999MA1101021999999MW1101MW2611REMMET097RJAK 202100Z 34003KT 4000 -RA BR FEW005 SCT008 BKN010 14/13 Q1010 RMK 2ST005 4ST008 6CU010 A2984;EQDQ01+000003PRSWM1Q02    003PRSWM1
0202477160999992000052123004+36030+140200FM-15+0029RJAK V0200501N001012200019N0070001N1+01601+01301999999ADDGA1021+005409999GA2021+011109999GF104991999999999999999999MA1101691999999MW1001REMMET092RJAK 212300Z 05002KT 7000 FEW018 SCT037 16/13 Q1017 RMK 1CU018 3SC037 A3004 FCST 2308 NOSIG;EQDQ01+000000PRSWM2
0216477160999992000052123264+36030+140200FM-16+0029RJAK V0201101N001010108019N0070001N1+01801+01401999999ADDGA1021+005409999GA2071+010809999GA3071+060009999GF107991999999999999999999MA1101691999999MW1001REMMET090RJAK 212326Z 11002KT 7000 FEW018 BKN036 BKN200 18/14 Q1017 RMK 1CU018 5SC036 6CI200 A3005;EQDQ01+000000PRSWM2
0225477160999992000052200004+36030+140200FM-15+0029RJAK V0201401N002110108019N0080001N1+01801+01401999999ADDGA1021+004509999GA2071+010809999GF107991999999999999999999MA1101691999999MW1001REMMET115RJAK 220000Z 14004KT 8000 FEW015 BKN036 18/14 Q1017 RMK 1CU015 5SC036 A3004 FCST 0009 BECMG 0001 FEW020CU SCT036SC;EQDQ01+000000PRSWM2
0186477160999992000052200264+36030+140200FM-16+0029RJAK V0201601N001512200019N0112651N1+02001+01401999999ADDGA1021+005409999GA2021+060009999GF104991999999999999999999MA1101691999999MW1001REMMET076RJAK 220026Z 16003KT 9999 FEW018 SCT200 20/14 Q1017 RMK 2CU018 3CI200 A3003;EQDQ01+000000PRSWM2
0156477160999992000052201004+36030+140200FM-15+0029RJAK V0201601N001512200019N0112651N1+02001+01401999999ADDGA1021+005409999GF102991999999999999999999MA1101691999999MW1001REMMET062RJAK 220100Z 16003KT 9999 FEW018 20/14 Q1017 RMK 2CU018 A3003;EQDQ01+000000PRSWM2
0186477160999992000052202004+36030+140200FM-15+0029RJAK V0201701N001512200019N0112651N1+02101+01501999999ADDGA1021+006009999GA2021+009009999GF104991999999999999999999MA1101591999999MW1001REMMET076RJAK 220200Z 17003KT 9999 FEW020 SCT030 21/15 Q1016 RMK 1CU020 4CU030 A3002;EQDQ01+000000PRSWM2
0225477160999992000052203004+36030+140200FM-15+0029RJAK V0200901N002612200019N0112651N1+02201+01501999999ADDGA1021+007509999GA2021+069009999GF104991999999999999999999MA1101591999999MW1001REMMET115RJAK 220300Z 09005KT 9999 SCT025 SCT230 22/15 Q1016 RMK 3CU025 3CI230 A3000 FCST 0312 TEMPO 0610 BKN025CU SCT230CI;EQDQ01+000000PRSWM2
0186477160999992000052204004+36030+140200FM-15+0029RJAK V0200701N003610690019N0112651N1+02301+01501999999ADDGA1021+007509999GA2071+069009999GF107991999999999999999999MA1101491999999MW1001REMMET076RJAK 220400Z 07007KT 9999 SCT025 BKN230 23/15 Q1015 RMK 3CU025 5CS230 A2997;EQDQ01+000000PRSWM2
0186477160999992000052205004+36030+140200FM-15+0029RJAK V0201901N002110690019N0112651N1+02401+01401999999ADDGA1021+007509999GA2071+069009999GF107991999999999999999999MA1101391999999MW1001REMMET076RJAK 220500Z 19004KT 9999 FEW025 BKN230 24/14 Q1014 RMK 2CU025 5CI230 A2996;EQDQ01+000000PRSWM2
0202477160999992000052206004+36030+140200FM-15+0029RJAK V0201701N004110690019N0112651N1+02401+01501999999ADDGA1021+007509999GA2071+069009999GF107991999999999999999999MA1101391999999MW1001REMMET092RJAK 220600Z 17008KT 9999 FEW025 BKN230 24/15 Q1014 RMK 1CU025 5CI230 A2994 FCST 0615 NOSIG;EQDQ01+000000PRSWM2
0186477160999992000052207004+36030+140200FM-15+0029RJAK V0201701N003110690019N0112651N1+02401+01401999999ADDGA1021+007509999GA2071+069009999GF107991999999999999999999MA1101291999999MW1001REMMET076RJAK 220700Z 17006KT 9999 SCT025 BKN230 24/14 Q1013 RMK 3CU025 6CI230 A2993;EQDQ01+000000PRSWM2
0202477160999992000052208004+36030+140200FM-15+0029RJAK V0201801N003610690019N0112651N1+02401+01601999999ADDGA1021+007509999GA2071+069009999GF107991999999999999999999MA1101291999999MW1001REMMET092RJAK 220800Z 18007KT 9999 FEW025 BKN230 24/16 Q1013 RMK 1CU025 6CI230 A2993 FCST 0817 NOSIG;EQDQ01+000000PRSWM2
0259477160999992000052300004+36030+140200FM-15+0029RJAK V02099999999990630019N0050001N1+02101+01601999999ADDGA1021+036009999GA2071+063009999GF107991999999999999999999MA1101191999999MW1101REMMET133RJAK 230000Z VRB02KT 5000 BR FEW120 BKN210 21/16 Q1012 RMK 1AC120 6CI210 A2990 FCST 0009 BECMG 0001 NSW TEMPO 0609 BKN030CU SCT120AC;EQDQ01+000003PRSWM1Q02    003PRSWM1
0172477160999992000052301004+36030+140200FM-15+0029RJAK V02099999999990630019N9999999N1+02301+01601999999ADDGA1071+063009999GF107991999999999999999999MA1101191999999MW1001REMMET062RJAK 230100Z VRB02KT 6000 BKN210 23/16 Q1012 RMK 5CI210 A2989;EQDQ01+060002VODIS Q02+000000PRSWM2
0202477160999992000052302004+36030+140200FM-15+0029RJAK V0200401N001512200019N9999999N1+02401+01601999999ADDGA1021+007509999GA2021+063009999GF104991999999999999999999MA1101081999999MW1001REMMET076RJAK 230200Z 04003KT 7000 FEW025 SCT210 24/16 Q1011 RMK 1CU025 3CI210 A2988;EQDQ01+070002VODIS Q02+000000PRSWM2
0172477160999992000052304004+36030+140200FM-15+0029RJAK V0200801N003112200019N9999999N1+02701+01801999999ADDGA1021+007509999GF102991999999999999999999MA1101021999999MW1001REMMET062RJAK 230400Z 08006KT 7000 FEW025 27/18 Q1010 RMK 1CU025 A2984;EQDQ01+070002VODIS Q02+000000PRSWM2
0185477160999992000052306004+36030+140200FM-15+0029RJAK V0200901N004112200019N0070001N1+02701+01601999999ADDGA1021+009009999GF102991999999999999999999MA1100911999999MW1001REMMET091RJAK 230600Z 09008KT 7000 FEW030 27/16 Q1009 RMK 1CU030 A2979 FCST 0615 BECMG 1113 4000 BR;EQDQ01+000000PRSWM2
0172477160999992000052307004+36030+140200FM-15+0029RJAK V0200801N006212200019N9999999N1+02601+01801999999ADDGA1021+009009999GF102991999999999999999999MA1100811999999MW1001REMMET062RJAK 230700Z 08012KT 7000 FEW030 26/18 Q1008 RMK 1CU030 A2979;EQDQ01+070002VODIS Q02+000000PRSWM2
0253477160999992000052400004+36030+140200FM-15+0029RJAK V0201401N002112200019N0040001N1+02201+01701999999ADDGA1021+004509999GF104991999999999999999999MA1100811999999MW1101REMMET143RJAK 240000Z 14004KT 4000 BR SCT015 22/17 Q1008 RMK 3CU015 A2978 FCST 0009 BECMG 0001 5000 BECMG 0102 NSW BECMG 0305 BKN025CU TEMPO 0508 -SHRA;EQDQ01+000003PRSWM1Q02    003PRSWM1
0175477160999992000052400384+36030+140200FM-16+0029RJAK V02099999999992200019N0050001N1+02301+01801999999ADDGA1021+004509999GF104991999999999999999999MA1100711999999MW1101REMMET065RJAK 240038Z VRB03KT 5000 BR SCT015 23/18 Q1007 RMK 3CU015 A2976;EQDQ01+000003PRSWM1Q02    003PRSWM1
0205477160999992000052402194+36030+140200FM-16+0029RJAK V0200501N003612200019N0050001N1+02401+01701999999ADDGA1021+006009999GA2021+007509999GF104991999999999999999999MA1100711999999MW1101REMMET079RJAK 240219Z 05007KT 5000 BR FEW020 SCT025 24/17 Q1007 RMK 1CU020 3CU025 A2974;EQDQ01+000003PRSWM1Q02    003PRSWM1
0258477160999992000052403134+36030+140200FM-16+0029RJAK V0200501N00721220001CN0050001N1+02201+01701999999ADDGA1021+006009999GA2071+007509999GA3021+009009099MA1100711999999MW1801MW2951REMMET120RJAK 240313Z 05014KT 5000 -TSRA BR SCT020 BKN025 FEW030CB 22/17 Q1007 RMK 3CU020 6CU025 2CB030 A2975 FBL TS W APCHG STN;EQDQ01+000022SCOTCVQ02+000100PRSWM4Q03+000003PRSWM1
0282477160999992000052403434+36030+140200FM-16+0029RJAK V0200601N008712200019N0050001N1+02101+01701999999ADDGA1021+006009999GA2021+007509999GA3021+009009099GF102991999999999999999999MA1100511999999MW1171OC101391REMMET116RJAK 240343Z 06017G27KT 5000 TS BR FEW020 SCT025 FEW030CB 21/17 Q1005 RMK 1CU020 3CU025 1CB030 A2970 FBL TS S MOV S;EQDQ01+000100PRSWM3Q02+000003PRSWM1Q03    003PRSWM1
0130477160999992000052405004+36030+140200FM-15+0029RJAK V0200601N006712200019N0112651N1+02201+01401999999ADDGF100991999999999999999999MA1100711999999MW1001REMMET052RJAK 240500Z 06013KT 9999 SKC 22/14 Q1007 RMK A2973;EQDQ01+000000PRSWM2
0156477160999992000052407004+36030+140200FM-15+0029RJAK V0200901N005112200019N0112651N1+02201+01401999999ADDGA1021+009009999GF102991999999999999999999MA1100611999999MW1001REMMET062RJAK 240700Z 09010KT 9999 FEW030 22/14 Q1006 RMK 1CU030 A2972;EQDQ01+000000PRSWM2
0172477160999992000052408004+36030+140200FM-15+0029RJAK V0200901N005112200019N0112651N1+02101+01301999999ADDGA1021+009009999GF102991999999999999999999MA1100611999999MW1001REMMET078RJAK 240800Z 09010KT 9999 FEW030 21/13 Q1006 RMK 2CU030 A2973 FCST 0817 NOSIG;EQDQ01+000000PRSWM2
0186477160999992000052422004+36030+140200FM-15+0029RJAK V0200701N006210030019N0112651N1+01501+01201999999ADDGA1021+002409999GA2071+003009999GF107991999999999999999999MA1101391999999MW1001REMMET076RJAK 242200Z 07012KT 9999 SCT008 BKN010 15/12 Q1014 RMK 3ST008 6CU010 A2995;EQDQ01+000000PRSWM2
0166477160999992000052422304+36030+140200FM-15+0029RJAK V0200701N004610021019N0080001N1+01401+01201999999ADDGA1021+001809999GA2071+002109999GA3081+003009999GF108991999999999999999999MW1001REMMET055RJAK 242230Z 07009KT 8000 FEW006 BKN007 OVC010 14/12 Q;EQDQ01+000000PRSWM2
0255477160999992000052423004+36030+140200FM-15+0029RJAK V0200701N004610021019N0070001N1+01401+01201999999ADDGA1021+001809999GA2071+002109999GA3071+003009999GF107991999999999999999999MA1101391999999MW1001REMMET129RJAK 242300Z 07009KT 7000 FEW006 BKN007 BKN010 14/12 Q1014 RMK 1ST006 5ST007 7CU010 A2997 FCST 2308 BECMG 0002 SCT010CU SCT030CU;EQDQ01+000000PRSWM2
0225477160999992000052500004+36030+140200FM-15+0029RJAK V0201001N002610021019N0070001N1+01501+01201999999ADDGA1071+002109999GA2071+003009999GF107991999999999999999999MA1101491999999MW1001REMMET115RJAK 250000Z 10005KT 7000 BKN007 BKN010 15/12 Q1015 RMK 5ST007 7CU010 A2999 FCST 0009 BECMG 0002 SCT010CU SCT030CU;EQDQ01+000000PRSWM2
0186477160999992000052500314+36030+140200FM-16+0029RJAK V0200901N003610030019N0080001N1+01601+01201999999ADDGA1021+002409999GA2071+003009999GF107991999999999999999999MA1101491999999MW1001REMMET076RJAK 250031Z 09007KT 8000 SCT008 BKN010 16/12 Q1015 RMK 3ST008 5CU010 A2999;EQDQ01+000000PRSWM2
0156477160999992000052502004+36030+140200FM-15+0029RJAK V0200701N004112200019N0090001N1+01801+01301999999ADDGA1021+004509999GF102991999999999999999999MA1101491999999MW1001REMMET062RJAK 250200Z 07008KT 9000 FEW015 18/13 Q1015 RMK 1CU015 A2999;EQDQ01+000000PRSWM2
0172477160999992000052503004+36030+140200FM-15+0029RJAK V0200801N004112200019N0112651N1+01901+01401999999ADDGA1021+006009999GF102991999999999999999999MA1101491999999MW1001REMMET078RJAK 250300Z 08008KT 9999 FEW020 19/14 Q1015 RMK 1CU020 A2997 FCST 0312 NOSIG;EQDQ01+000000PRSWM2
0156477160999992000052504004+36030+140200FM-15+0029RJAK V0200601N005112200019N0112651N1+02101+01501999999ADDGA1021+007509999GF102991999999999999999999MA1101491999999MW1001REMMET062RJAK 250400Z 06010KT 9999 FEW025 21/15 Q1015 RMK 1CU025 A2997;EQDQ01+000000PRSWM2
0146477160999992000052506004+36030+140200FM-15+0029RJAK V0200901N005112200019N0112651N1+02201+01301999999ADDGF100991999999999999999999MA1101391999999MW1001REMMET068RJAK 250600Z 09010KT 9999 SKC 22/13 Q1014 RMK A2996 FCST 0615 NOSIG;EQDQ01+000000PRSWM2
0130477160999992000052507004+36030+140200FM-15+0029RJAK V0201001N004612200019N0112651N1+02101+01301999999ADDGF100991999999999999999999MA1101391999999MW1001REMMET052RJAK 250700Z 10009KT 9999 SKC 21/13 Q1014 RMK A2995;EQDQ01+000000PRSWM2
0149477160999992000052522004+36030+140200FM-15+0029RJAK V0202201N001512200019N0040001N1+01701+01501999999ADDGF100991999999999999999999MA1101591999999MW1101REMMET055RJAK 252200Z 22003KT 4000 BR SKC 17/15 Q1016 RMK A3001;EQDQ01+000003PRSWM1Q02    003PRSWM1
0216477160999992000052523004+36030+140200FM-15+0029RJAK V0202101N002112200019N0045001N1+02001+01601999999ADDGA1021+006009999GF102991999999999999999999MA1101591999999MW1101REMMET106RJAK 252300Z 21004KT 4500 BR FEW020 20/16 Q1016 RMK 2CU020 A3000 FCST 2308 BECMG 2300 5000 BECMG 0001 NSW;EQDQ01+000003PRSWM1Q02    003PRSWM1
0175477160999992000052523174+36030+140200FM-16+0029RJAK V0202501N002612200019N0050001N1+02001+01601999999ADDGA1021+006009999GF102991999999999999999999MA1101591999999MW1101REMMET065RJAK 252317Z 25005KT 5000 BR FEW020 20/16 Q1016 RMK 1CU020 A3000;EQDQ01+000003PRSWM1Q02    003PRSWM1
0200477160999992000052600004+36030+140200FM-15+0029RJAK V0202601N002612200019N0050001N1+02101+01601999999ADDGA1021+006009999GF102991999999999999999999MA1101491999999MW1101REMMET090RJAK 260000Z 26005KT 5000 BR FEW020 21/16 Q1015 RMK 2CU020 A2999 FCST 0009 BECMG 0001 NSW;EQDQ01+000003PRSWM1Q02    003PRSWM1
0146477160999992000052603004+36030+140200FM-15+0029RJAK V0202201N004612200019N0112651N1+02501+01401999999ADDGF100991999999999999999999MA1101391999999MW1001REMMET068RJAK 260300Z 22009KT 9999 SKC 25/14 Q1014 RMK A2996 FCST 0312 NOSIG;EQDQ01+000000PRSWM2
0156477160999992000052604004+36030+140200FM-15+0029RJAK V0201901N005112200019N0112651N1+02701+01601999999ADDGA1021+069009999GF102991999999999999999999MA1101391999999MW1001REMMET062RJAK 260400Z 19010KT 9999 FEW230 27/16 Q1014 RMK 2CI230 A2995;EQDQ01+000000PRSWM2
0186477160999992000052605004+36030+140200FM-15+0029RJAK V0201901N004612200019N0112651N1+02701+01501999999ADDGA1021+036009999GA2021+069009999GF104991999999999999999999MA1101291999999MW1001REMMET076RJAK 260500Z 19009KT 9999 FEW120 SCT230 27/15 Q1013 RMK 1AC120 4CI230 A2994;EQDQ01+000000PRSWM2
0202477160999992000052606004+36030+140200FM-15+0029RJAK V0202001N004112200019N0112651N1+02701+01501999999ADDGA1021+036009999GA2021+069009999GF104991999999999999999999MA1101291999999MW1001REMMET092RJAK 260600Z 20008KT 9999 FEW120 SCT230 27/15 Q1013 RMK 1AC120 3CI230 A2992 FCST 0615 NOSIG;EQDQ01+000000PRSWM2
0202477160999992000052608004+36030+140200FM-15+0029RJAK V0202201N004612200019N0112651N1+02501+01401999999ADDGA1021+030009999GA2021+069009999GF104991999999999999999999MA1101291999999MW1001REMMET092RJAK 260800Z 22009KT 9999 FEW100 SCT230 25/14 Q1013 RMK 1AC100 3CI230 A2991 FCST 0817 NOSIG;EQDQ01+000000PRSWM2
0202477160999992000052822004+36030+140200FM-15+0029RJAK V0202501N002110360019N9999999N1+02201+01601999999ADDGA1021+009009999GA2071+036009999GF107991999999999999999999MA1100311999999MW1001REMMET076RJAK 282200Z 25004KT 7000 FEW030 BKN120 22/16 Q1003 RMK 1SC030 5AC120 A2962;EQDQ01+070002VODIS Q02+000000PRSWM2
0186477160999992000052822384+36030+140200FM-16+0029RJAK V0202601N002612200019N0112651N1+02301+01601999999ADDGA1021+007509999GA2021+036009999GF104991999999999999999999MA1100311999999MW1001REMMET076RJAK 282238Z 26005KT 9999 FEW025 SCT120 23/16 Q1003 RMK 1CU025 3AC120 A2963;EQDQ01+000000PRSWM2
0202477160999992000052823004+36030+140200FM-15+0029RJAK V0202701N002612200019N0112651N1+02301+01601999999ADDGA1021+007509999GA2021+036009999GF104991999999999999999999MA1100311999999MW1001REMMET092RJAK 282300Z 27005KT 9999 FEW025 SCT120 23/16 Q1003 RMK 1CU025 3AC120 A2963 FCST 2308 NOSIG;EQDQ01+000000PRSWM2
0167477160999992000052901454+36030+140200FM-15+0029RJAK V0202901N006712200019N0112651N1+02701+00901999999ADDGA1021+007509999GF102991999999999999999999MA1100511999999MW1001OC101291REMMET065RJAK 290145Z 29013G25KT 9999 FEW025 27/09 Q1005 RMK 2CU025 A2969;EQDQ01+000000PRSWM2
0167477160999992000052902004+36030+140200FM-15+0029RJAK V0203101N005112200019N0112651N1+02701+01001999999ADDGA1021+007509999GF102991999999999999999999MA1100511999999MW1001OC101081REMMET065RJAK 290200Z 31010G21KT 9999 FEW025 27/10 Q1005 RMK 2CU025 A2969;EQDQ01+000000PRSWM2
0185477160999992000052903004+36030+140200FM-15+0029RJAK V0203001N004112200019N0112651N1+02701+01101999999ADDGA1021+007509999GF102991999999999999999999MA1100511999999MW1001REMMET091RJAK 290300Z 30008KT 9999 FEW025 27/11 Q1005 RMK 2CU025 A2968 FCST 0312 BECMG 0406 20010KT;EQDQ01+000000PRSWM2
0156477160999992000052904004+36030+140200FM-15+0029RJAK V0200701N006712200019N0112651N1+02601+01601999999ADDGA1021+007509999GF102991999999999999999999MA1100511999999MW1001REMMET062RJAK 290400Z 07013KT 9999 FEW025 26/16 Q1005 RMK 2CU025 A2969;EQDQ01+000000PRSWM2
0172477160999992000052906004+36030+140200FM-15+0029RJAK V0200901N002112200019N0112651N1+02701+01401999999ADDGA1021+007509999GF102991999999999999999999MA1100611999999MW1001REMMET078RJAK 290600Z 09004KT 9999 FEW025 27/14 Q1006 RMK 1CU025 A2971 FCST 0615 NOSIG;EQDQ01+000000PRSWM2
0156477160999992000052907004+36030+140200FM-15+0029RJAK V0200701N003112200019N0112651N1+02801+01401999999ADDGA1021+007509999GF102991999999999999999999MA1100611999999MW1001REMMET062RJAK 290700Z 07006KT 9999 FEW025 28/14 Q1006 RMK 1CU025 A2973;EQDQ01+000000PRSWM2
0172477160999992000052908004+36030+140200FM-15+0029RJAK V0200701N002112200019N0112651N1+02801+01101999999ADDGA1021+007509999GF102991999999999999999999MA1100711999999MW1001REMMET078RJAK 290800Z 07004KT 9999 FEW025 28/11 Q1007 RMK 1CU025 A2973 FCST 0817 NOSIG;EQDQ01+000000PRSWM2
0202477160999992000052923004+36030+140200FM-15+0029RJAK V0202301N002610690019N0060001N1+02101+01701999999ADDGA1021+007509999GA2071+069009999GF107991999999999999999999MA1101191999999MW1001REMMET092RJAK 292300Z 23005KT 6000 FEW025 BKN230 21/17 Q1012 RMK 1CU025 5CI230 A2988 FCST 2308 NOSIG;EQDQ01+000000PRSWM2
0218477160999992000053000004+36030+140200FM-15+0029RJAK V02099999999992200019N9999999N1+02301+01701999999ADDGA1021+007509999GA2021+069009999GF104991999999999999999999MA1101081999999MW1001REMMET092RJAK 300000Z VRB03KT 7000 FEW025 SCT230 23/17 Q1011 RMK 1CU025 4CI230 A2988 FCST 0009 NOSIG;EQDQ01+070002VODIS Q02+000000PRSWM2
0156477160999992000053001004+36030+140200FM-15+0029RJAK V0201801N003612200019N0080001N1+02601+01601999999ADDGA1021+007509999GF102991999999999999999999MA1101081999999MW1001REMMET062RJAK 300100Z 18007KT 8000 FEW025 26/16 Q1011 RMK 1CU025 A2987;EQDQ01+000000PRSWM2
0156477160999992000053002004+36030+140200FM-15+0029RJAK V0202201N004112200019N0112651N1+02701+01301999999ADDGA1021+007509999GF102991999999999999999999MA1101081999999MW1001REMMET062RJAK 300200Z 22008KT 9999 FEW025 27/13 Q1011 RMK 1CU025 A2986;EQDQ01+000000PRSWM2
0172477160999992000053003004+36030+140200FM-15+0029RJAK V0202201N004112200019N0112651N1+02801+01001999999ADDGA1021+007509999GF102991999999999999999999MA1101021999999MW1001REMMET078RJAK 300300Z 22008KT 9999 FEW025 28/10 Q1010 RMK 1CU025 A2985 FCST 0312 NOSIG;EQDQ01+000000PRSWM2
0156477160999992000053004004+36030+140200FM-15+0029RJAK V0202001N003612200019N0112651N1+02901+01401999999ADDGA1021+069009999GF102991999999999999999999MA1100911999999MW1001REMMET062RJAK 300400Z 20007KT 9999 FEW230 29/14 Q1009 RMK 1CI230 A2982;EQDQ01+000000PRSWM2
0172477160999992000053006004+36030+140200FM-15+0029RJAK V0201701N004612200019N0112651N1+03001+01201999999ADDGA1021+069009999GF104991999999999999999999MA1100811999999MW1001REMMET078RJAK 300600Z 17009KT 9999 SCT230 30/12 Q1008 RMK 3CI230 A2978 FCST 0615 NOSIG;EQDQ01+000000PRSWM2
0172477160999992000053008004+36030+140200FM-15+0029RJAK V0201701N004110600019N0112651N1+02801+01301999999ADDGA1071+060009999GF107991999999999999999999MA1100811999999MW1001REMMET078RJAK 300800Z 17008KT 9999 BKN200 28/13 Q1008 RMK 6CI200 A2977 FCST 0817 NOSIG;EQDQ01+000000PRSWM2
0216477160999992000053022004+36030+140200FM-15+0029RJAK V0201501N002610690019N0080001N1+02101+01701999999ADDGA1021+024009999GA2021+036009999GA3071+069009999GF107991999999999999999999MA1100811999999MW1001REMMET090RJAK 302200Z 15005KT 8000 FEW080 SCT120 BKN230 21/17 Q1008 RMK 1AC080 3AC120 6CS230 A2977;EQDQ01+000000PRSWM2
0308477160999992000053100004+36030+140200FM-15+0029RJAK V0202001N003610690019N0080001N1+02401+01701999999ADDGA1021+009009999GA2021+036009999GA3071+069009999GF107991999999999999999999MA1100711999999MW1001REMMET182RJAK 310000Z 20007KT 8000 SCT030 SCT120 BKN230 24/17 Q1007 RMK 3CU030 4AC120 6CS230 A2976 FCST 0009 TEMPO 0206 -SHRA SCT030CU BKN120AC BECMG 0607 -SHRA BR SCT015CU BKN030CU OVC100AC;EQDQ01+000000PRSWM2
0238477160999992000053100384+36030+140200FM-16+0029RJAK V0202001N004110360019N0080001N1+02301+01701999999ADDGA1021+009009999GA2071+036009999GA3081+069009999GF108991999999999999999999MA1100711999999MW1801REMMET096RJAK 310038Z 20008KT 8000 -SHRA SCT030 BKN120 OVC230 23/17 Q1007 RMK 3CU030 6AC120 8CS230 A2976;EQDQ01+000003PRSWM1Q02    003PRSWM1
0208477160999992000053103144+36030+140200FM-16+0029RJAK V0202001N003610360019N0112651N1+02401+01601999999ADDGA1021+009009999GA2071+036009999GF107991999999999999999999MA1100611999999MW1801REMMET082RJAK 310314Z 20007KT 9999 -SHRA FEW030 BKN120 24/16 Q1006 RMK 2CU030 7AC120 A2971;EQDQ01+000003PRSWM1Q02    003PRSWM1
0208477160999992000053104004+36030+140200FM-15+0029RJAK V0202001N005110360019N0112651N1+02301+01601999999ADDGA1021+009009999GA2071+036009999GF107991999999999999999999MA1100611999999MW1801REMMET082RJAK 310400Z 20010KT 9999 -SHRA FEW030 BKN120 23/16 Q1006 RMK 2CU030 7AC120 A2970;EQDQ01+000003PRSWM1Q02    003PRSWM1
0299477160999992000053106004+36030+140200FM-15+0029RJAK V0201801N002110360019N0080001N1+02201+01701999999ADDGA1021+007509999GA2081+036009999GF108991999999999999999999MA1100511999999MW1801REMMET173RJAK 310600Z 18004KT 8000 -SHRA FEW025 OVC120 22/17 Q1005 RMK 2CU025 8AC120 A2969 FCST 0615 TEMPO 0608 -SHRA BR BKN030CU OVC100AC BECMG 0810 4000 -SHRA BR BKN010CU BKN020CU;EQDQ01+000003PRSWM1Q02    003PRSWM1
0216477160999992000053107004+36030+140200FM-15+0029RJAK V0202001N003110360019N0112651N1+02301+01601999999ADDGA1021+007509999GA2021+012009999GA3081+036009999GF108991999999999999999999MA1100511999999MW1001REMMET090RJAK 310700Z 20006KT 9999 FEW025 SCT040 OVC120 23/16 Q1005 RMK 2CU025 4SC040 8AC120 A2968;EQDQ01+000000PRSWM2
0291477160999992000053108004+36030+140200FM-15+0029RJAK V0202701N001510360019N0112651N1+02001+01501999999ADDGA1021+007509999GA2021+012009999GA3081+036009999GF108991999999999999999999MA1100411999999MW1801REMMET149RJAK 310800Z 27003KT 9999 -SHRA FEW025 SCT040 OVC120 20/15 Q1004 RMK 1CU025 4SC040 8AC120 A2967 FCST 0817 BECMG 0810 3000 -SHRA BR BKN010CU BKN020CU;EQDQ01+000003PRSWM1Q02    003PRSWM1
0216477160999992000053123004+36030+140200FM-15+0029RJAK V02099999999990360019N0112651N1+02001+01701999999ADDGA1021+004509999GA2071+036009999GF107991999999999999999999MA1100311999999MW1001REMMET106RJAK 312300Z VRB01KT 9999 FEW015 BKN120 20/17 Q1003 RMK 2CU015 5AC120 A2963 FCST 2308 TEMPO 0608 BKN030CU;EQDQ01+000000PRSWM2
0246477160999992000060100004+36030+140200FM-15+0029RJAK V0201501N001510360019N0112651N1+02201+01701999999ADDGA1021+004509999GA2021+007509999GA3071+036009999GF107991999999999999999999MA1100411999999MW1001REMMET120RJAK 010000Z 15003KT 9999 FEW015 SCT025 BKN120 22/17 Q1004 RMK 1CU015 3CU025 6AC120 A2965 FCST 0009 TEMPO 0609 BKN030CU;EQDQ01+000000PRSWM2
0186477160999992000060100234+36030+140200FM-16+0029RJAK V0201501N001510075019N0112651N1+02201+01701999999ADDGA1021+004509999GA2071+007509999GF107991999999999999999999MA1100411999999MW1001REMMET076RJAK 010023Z 15003KT 9999 FEW015 BKN025 22/17 Q1004 RMK 1CU015 5CU025 A2966;EQDQ01+000000PRSWM2
0186477160999992000060101004+36030+140200FM-15+0029RJAK V0201201N002110075019N0112651N1+02201+01701999999ADDGA1021+004509999GA2071+007509999GF107991999999999999999999MA1100411999999MW1001REMMET076RJAK 010100Z 12004KT 9999 FEW015 BKN025 22/17 Q1004 RMK 1CU015 5CU025 A2967;EQDQ01+000000PRSWM2
0186477160999992000060102004+36030+140200FM-15+0029RJAK V0201301N002110075019N0112651N1+02301+01701999999ADDGA1021+004509999GA2071+007509999GF107991999999999999999999MA1100511999999MW1001REMMET076RJAK 010200Z 13004KT 9999 FEW015 BKN025 23/17 Q1005 RMK 1CU015 6CU025 A2968;EQDQ01+000000PRSWM2
0156477160999992000060104004+36030+140200FM-15+0029RJAK V0201501N003610075019N0112651N1+02501+01801999999ADDGA1071+007509999GF107991999999999999999999MA1100411999999MW1001REMMET062RJAK 010400Z 15007KT 9999 BKN025 25/18 Q1004 RMK 5CU025 A2966;EQDQ01+000000PRSWM2
0156477160999992000060104404+36030+140200FM-16+0029RJAK V0201301N004112200019N0112651N1+02601+01901999999ADDGA1021+009609999GF104991999999999999999999MA1100411999999MW1001REMMET062RJAK 010440Z 13008KT 9999 SCT032 26/19 Q1004 RMK 4CU032 A2966;EQDQ01+000000PRSWM2
0186477160999992000060105004+36030+140200FM-15+0029RJAK V0201101N004112200019N0112651N1+02601+01901999999ADDGA1021+009609999GA2021+036009999GF104991999999999999999999MA1100411999999MW1001REMMET076RJAK 010500Z 11008KT 9999 SCT032 SCT120 26/19 Q1004 RMK 3CU032 3AC120 A2966;EQDQ01+000000PRSWM2
0284477160999992000060106004+36030+140200FM-15+0029RJAK V0200701N006712200019N0112651N1+02401+01801999999ADDGA1021+009009999GA2021+036009999GF104991999999999999999999MA1100411999999MW1001OC101181REMMET166RJAK 010600Z 07013G23KT 9999 SCT030 SCT120 24/18 Q1004 RMK 3CU030 4AC120 A2966 FCST 0615 BECMG 0708 08010KT TEMPO 0709 BKN030CU TEMPO 0913 -SHRA BR SCT015CU BKN030CU;EQDQ01+000000PRSWM2
0186477160999992000060107004+36030+140200FM-15+0029RJAK V0200801N006710360019N0112651N1+02301+01801999999ADDGA1021+009009999GA2071+036009999GF107991999999999999999999MA1100411999999MW1001REMMET076RJAK 010700Z 08013KT 9999 FEW030 BKN120 23/18 Q1004 RMK 2CU030 7AC120 A2967;EQDQ01+000000PRSWM2
0231477160999992000060108004+36030+140200FM-15+0029RJAK V0201101N005712200019N0112651N1+02201+01701999999ADDGA1021+012009999GA2021+030009999GF104991999999999999999999MA1100511999999MW1001REMMET121RJAK 010800Z 11011KT 9999 SCT040 SCT100 22/17 Q1005 RMK 4SC040 4AC100 A2968 FCST 0817 TEMPO 0912 -SHRA SCT010CU BKN030CU;EQDQ01+000000PRSWM2
0235477160999992000060122004+36030+140200FM-15+0029RJAK V0201901N001510690019N0050001N1+01901+01601999999ADDGA1021+003009999GA2021+004509999GA3071+069009999GF107991999999999999999999MA1101291999999MW1101REMMET093RJAK 012200Z 19003KT 5000 BR FEW010 SCT015 BKN230 19/16 Q1013 RMK 1ST010 3CU015 5CI230 A2993;EQDQ01+000003PRSWM1Q02    003PRSWM1
0232477160999992000060123004+36030+140200FM-15+0029RJAK V0201901N001510690019N0060001N1+02001+01601999999ADDGA1021+004509999GA2021+006009999GA3071+069009999GF107991999999999999999999MA1101391999999MW1001REMMET106RJAK 012300Z 19003KT 6000 FEW015 SCT020 BKN230 20/16 Q1014 RMK 2CU015 3CU020 5CI230 A2994 FCST 2308 NOSIG;EQDQ01+000000PRSWM2
0232477160999992000060200004+36030+140200FM-15+0029RJAK V0201701N001010690019N0080001N1+02101+01501999999ADDGA1021+004509999GA2021+006009999GA3071+069009999GF107991999999999999999999MA1101391999999MW1001REMMET106RJAK 020000Z 17002KT 8000 FEW015 SCT020 BKN230 21/15 Q1014 RMK 1CU015 3CU020 6CI230 A2994 FCST 0009 NOSIG;EQDQ01+000000PRSWM2
0216477160999992000060201004+36030+140200FM-15+0029RJAK V0201601N001510690019N0112651N1+02201+01401999999ADDGA1021+006009999GA2021+007509999GA3071+069009999GF107991999999999999999999MA1101391999999MW1001REMMET090RJAK 020100Z 16003KT 9999 FEW020 SCT025 BKN230 22/14 Q1014 RMK 1CU020 3CU025 5CI230 A2994;EQDQ01+000000PRSWM2
0186477160999992000060202004+36030+140200FM-15+0029RJAK V0201301N002112200019N0112651N1+02301+01401999999ADDGA1021+007509999GA2021+069009999GF104991999999999999999999MA1101291999999MW1001REMMET076RJAK 020200Z 13004KT 9999 FEW025 SCT230 23/14 Q1013 RMK 2CU025 4CI230 A2993;EQDQ01+000000PRSWM2
0216477160999992000060203004+36030+140200FM-15+0029RJAK V0201601N003112200019N0112651N1+02501+01501999999ADDGA1021+007509999GA2021+069009999GF104991999999999999999999MA1101291999999MW1001REMMET106RJAK 020300Z 16006KT 9999 FEW025 SCT230 25/15 Q1013 RMK 2CU025 3CI230 A2992 FCST 0312 TEMPO 0912 BKN030CU;EQDQ01+000000PRSWM2
0156477160999992000060204004+36030+140200FM-15+0029RJAK V0200701N004612200019N0112651N1+02501+01501999999ADDGA1021+007509999GF104991999999999999999999MA1101291999999MW1001REMMET062RJAK 020400Z 07009KT 9999 SCT025 25/15 Q1013 RMK 3CU025 A2991;EQDQ01+000000PRSWM2
0156477160999992000060205004+36030+140200FM-15+0029RJAK V0200901N005112200019N0112651N1+02601+01601999999ADDGA1021+009009999GF102991999999999999999999MA1101191999999MW1001REMMET062RJAK 020500Z 09010KT 9999 FEW030 26/16 Q1012 RMK 2CU030 A2989;EQDQ01+000000PRSWM2
0178477160999992000060309404+36030+140200FM-16+0029RJAK V0200601N00411220001CN0045001N1+99999+99999999999ADDGA1021+004509999GA2071+007509999GA3021+009009099MW1001MW2171REMMET055RJAK 030940Z 06008KT 4500 TS BR FEW015 BKN025 FEW030CB;EQDQ01+000022SCOTCVQ02+000100PRSWM3Q03+000003PRSWM1
0246477160999992000060311004+36030+140200FM-15+0029RJAK V0200501N00571220001CN0040001N1+01801+01601999999ADDGA1021+003009999GA2071+007509999GA3021+009009099MA1100511999999MW1101MW2801MW3951REMMET118RJAK 031100Z 05011KT 4000 -TSRA BR FEW010 BKN025 FEW030CB 18/16 Q1005 RMK 2CU010 7CU025 2CB030 A2970 FBL TS OHD MOV E;EQDQ01+000022SCOTCVQ02+000003PRSWM1
0216477160999992000060500004+36030+140200FM-15+0029RJAK V0201001N003112200019N0112651N1+01801+01201999999ADDGA1021+006009999GA2021+009009999GF104991999999999999999999MA1101081999999MW1001REMMET106RJAK 050000Z 10006KT 9999 FEW020 SCT030 18/12 Q1011 RMK 1CU020 3CU030 A2986 FCST 0009 TEMPO 0709 BKN030CU;EQDQ01+000000PRSWM2
0186477160999992000060502004+36030+140200FM-15+0029RJAK V0200501N003612200019N0112651N1+02001+01201999999ADDGA1021+006009999GA2021+009009999GF104991999999999999999999MA1101081999999MW1001REMMET076RJAK 050200Z 05007KT 9999 FEW020 SCT030 20/12 Q1011 RMK 1CU020 4CU030 A2986;EQDQ01+000000PRSWM2
0156477160999992000060504004+36030+140200FM-15+0029RJAK V0201201N003612200019N0112651N1+02101+01301999999ADDGA1021+009009999GF102991999999999999999999MA1101021999999MW1001REMMET062RJAK 050400Z 12007KT 9999 FEW030 21/13 Q1010 RMK 2CU030 A2984;EQDQ01+000000PRSWM2
0156477160999992000060505004+36030+140200FM-15+0029RJAK V0200701N005712200019N0112651N1+02201+01401999999ADDGA1021+009009999GF102991999999999999999999MA1101021999999MW1001REMMET062RJAK 050500Z 07011KT 9999 FEW030 22/14 Q1010 RMK 2CU030 A2983;EQDQ01+000000PRSWM2
0172477160999992000060506004+36030+140200FM-15+0029RJAK V0200901N005112200019N0112651N1+02201+01401999999ADDGA1021+009009999GF102991999999999999999999MA1101021999999MW1001REMMET078RJAK 050600Z 09010KT 9999 FEW030 22/14 Q1010 RMK 2CU030 A2983 FCST 0615 NOSIG;EQDQ01+000000PRSWM2
0156477160999992000060507004+36030+140200FM-15+0029RJAK V0201501N004612200019N0112651N1+02201+01301999999ADDGA1021+009009999GF102991999999999999999999MA1100911999999MW1001REMMET062RJAK 050700Z 15009KT 9999 FEW030 22/13 Q1009 RMK 1CU030 A2982;EQDQ01+000000PRSWM2
0172477160999992000060508004+36030+140200FM-15+0029RJAK V0201301N005112200019N0112651N1+02201+01401999999ADDGA1021+007509999GF102991999999999999999999MA1101021999999MW1001REMMET078RJAK 050800Z 13010KT 9999 FEW025 22/14 Q1010 RMK 1CU025 A2983 FCST 0817 NOSIG;EQDQ01+000000PRSWM2
0186477160999992000060522004+36030+140200FM-15+0029RJAK V0201301N001512200019N0112651N1+02001+01601999999ADDGA1021+006009999GA2021+010509999GF104991999999999999999999MA1101021999999MW1001REMMET076RJAK 052200Z 13003KT 9999 FEW020 SCT035 20/16 Q1010 RMK 1CU020 3SC035 A2984;EQDQ01+000000PRSWM2
0246477160999992000060600004+36030+140200FM-15+0029RJAK V0201601N003110690019N0112651N1+02201+01501999999ADDGA1021+006009999GA2021+012009999GA3071+069009999GF107991999999999999999999MA1101021999999MW1001REMMET120RJAK 060000Z 16006KT 9999 SCT020 SCT040 BKN230 22/15 Q1010 RMK 3CU020 3SC040 6CI230 A2983 FCST 0009 TEMPO 0709 BKN030CU;EQDQ01+000000PRSWM2
0186477160999992000060602004+36030+140200FM-15+0029RJAK V0201601N003112200019N0112651N1+02401+01501999999ADDGA1021+006009999GA2021+007509999GF104991999999999999999999MA1100911999999MW1001REMMET076RJAK 060200Z 16006KT 9999 FEW020 SCT025 24/15 Q1009 RMK 1CU020 3CU025 A2979;EQDQ01+000000PRSWM2
0186477160999992000060604004+36030+140200FM-15+0029RJAK V0201701N004112200019N0112651N1+02501+01501999999ADDGA1021+007509999GA2021+009009999GF104991999999999999999999MA1100711999999MW1001REMMET076RJAK 060400Z 17008KT 9999 FEW025 SCT030 25/15 Q1007 RMK 1CU025 3CU030 A2976;EQDQ01+000000PRSWM2
0156477160999992000060605004+36030+140200FM-15+0029RJAK V0201601N005112200019N0112651N1+02601+01501999999ADDGA1021+009009999GF104991999999999999999999MA1100611999999MW1001REMMET062RJAK 060500Z 16010KT 9999 SCT030 26/15 Q1006 RMK 3CU030 A2973;EQDQ01+000000PRSWM2
0186477160999992000060606004+36030+140200FM-15+0029RJAK V0201501N005712200019N0112651N1+02501+01501999999ADDGA1021+009009999GF102991999999999999999999MA1100611999999MW1001REMMET092RJAK 060600Z 15011KT 9999 FEW030 25/15 Q1006 RMK 1CU030 A2971 FCST 0615 TEMPO 0812 BKN030CU;EQDQ01+000000PRSWM2
0156477160999992000060607004+36030+140200FM-15+0029RJAK V0201501N006212200019N0112651N1+02501+01401999999ADDGA1021+009009999GF102991999999999999999999MA1100511999999MW1001REMMET062RJAK 060700Z 15012KT 9999 FEW030 25/14 Q1005 RMK 1CU030 A2970;EQDQ01+000000PRSWM2
0172477160999992000060608004+36030+140200FM-15+0029RJAK V0201601N006212200019N0112651N1+02401+01301999999ADDGA1021+009009999GF102991999999999999999999MA1100511999999MW1001REMMET078RJAK 060800Z 16012KT 9999 FEW030 24/13 Q1005 RMK 1CU030 A2970 FCST 0817 NOSIG;EQDQ01+000000PRSWM2
0130477160999992000060622004+36030+140200FM-15+0029RJAK V0202401N001512200019N0080001N1+02001+01601999999ADDGF100991999999999999999999MA1100611999999MW1001REMMET052RJAK 062200Z 24003KT 8000 SKC 20/16 Q1006 RMK A2971;EQDQ01+000000PRSWM2
0146477160999992000060623004+36030+140200FM-15+0029RJAK V0202701N002612200019N0080001N1+02201+01601999999ADDGF100991999999999999999999MA1100611999999MW1001REMMET068RJAK 062300Z 27005KT 8000 SKC 22/16 Q1006 RMK A2971 FCST 2308 NOSIG;EQDQ01+000000PRSWM2
0172477160999992000060700004+36030+140200FM-15+0029RJAK V0202601N002112200019N0112651N1+02401+01701999999ADDGA1021+069009999GF102991999999999999999999MA1100511999999MW1001REMMET078RJAK 070000Z 26004KT 9999 FEW230 24/17 Q1005 RMK 1CI230 A2970 FCST 0009 NOSIG;EQDQ01+000000PRSWM2
0156477160999992000060701004+36030+140200FM-15+0029RJAK V0202501N002612200019N0112651N1+02501+01601999999ADDGA1021+069009999GF102991999999999999999999MA1100511999999MW1001REMMET062RJAK 070100Z 25005KT 9999 FEW230 25/16 Q1005 RMK 2CI230 A2969;EQDQ01+000000PRSWM2
0156477160999992000060702004+36030+140200FM-15+0029RJAK V0201801N002612200019N0090001N1+02701+01701999999ADDGA1021+069009999GF104991999999999999999999MA1100511999999MW1001REMMET062RJAK 070200Z 18005KT 9000 SCT230 27/17 Q1005 RMK 3CI230 A2968;EQDQ01+000000PRSWM2
0172477160999992000060703004+36030+140200FM-15+0029RJAK V0201801N004612200019N0112651N1+02801+01701999999ADDGA1021+069009999GF104991999999999999999999MA1100511999999MW1001REMMET078RJAK 070300Z 18009KT 9999 SCT230 28/17 Q1005 RMK 4CI230 A2968 FCST 0312 NOSIG;EQDQ01+000000PRSWM2
0186477160999992000060704004+36030+140200FM-15+0029RJAK V0202001N004112200019N0112651N1+02901+01701999999ADDGA1021+045009999GA2021+069009999GF104991999999999999999999MA1100411999999MW1001REMMET076RJAK 070400Z 20008KT 9999 FEW150 SCT230 29/17 Q1004 RMK 1AC150 4CI230 A2967;EQDQ01+000000PRSWM2
0172477160999992000060706004+36030+140200FM-15+0029RJAK V0202101N004110690019N0112651N1+03001+01501999999ADDGA1071+069009999GF107991999999999999999999MA1100411999999MW1001REMMET078RJAK 070600Z 21008KT 9999 BKN230 30/15 Q1004 RMK 5CI230 A2965 FCST 0615 NOSIG;EQDQ01+000000PRSWM2
0156477160999992000060707004+36030+140200FM-15+0029RJAK V0202001N004610600019N0112651N1+03001+01301999999ADDGA1071+060009999GF107991999999999999999999MA1100411999999MW1001REMMET062RJAK 070700Z 20009KT 9999 BKN200 30/13 Q1004 RMK 5CI200 A2966;EQDQ01+000000PRSWM2
0172477160999992000060708004+36030+140200FM-15+0029RJAK V0201901N004112200019N0112651N1+03001+01301999999ADDGA1021+060009999GF104991999999999999999999MA1100411999999MW1001REMMET078RJAK 070800Z 19008KT 9999 SCT200 30/13 Q1004 RMK 4CI200 A2966 FCST 0817 NOSIG;EQDQ01+000000PRSWM2
0186477160999992000060722004+36030+140200FM-15+0029RJAK V0202001N004110690019N0112651N1+02301+01801999999ADDGA1021+036009999GA2071+069009999GF107991999999999999999999MA1100611999999MW1001REMMET076RJAK 072200Z 20008KT 9999 SCT120 BKN230 23/18 Q1006 RMK 3AC120 6CI230 A2973;EQDQ01+000000PRSWM2
0238477160999992000060723004+36030+140200FM-15+0029RJAK V0202201N004610690019N0112651N1+02401+01701999999ADDGA1021+015009999GA2071+069009999GF107991999999999999999999MA1100711999999MW1001REMMET128RJAK 072300Z 22009KT 9999 FEW050 BKN230 24/17 Q1007 RMK 1SC050 6CI230 A2976 FCST 2308 BECMG 0305 BKN100AC TEMPO 0308 20014G28KT;EQDQ01+000000PRSWM2
0197477160999992000060801004+36030+140200FM-15+0029RJAK V0202001N006710630019N0112651N1+02701+01601999999ADDGA1021+009009999GA2071+063009999GF107991999999999999999999MA1100711999999MW1001OC101181REMMET079RJAK 080100Z 20013G23KT 9999 FEW030 BKN210 27/16 Q1007 RMK 1CU030 6CI210 A2974;EQDQ01+000000PRSWM2
0236477160999992000060803004+36030+140200FM-15+0029RJAK V0202001N008210630019N0112651N1+02701+01601999999ADDGA1021+009009999GA2071+063009999GF107991999999999999999999MA1100511999999MW1001OC101491REMMET118RJAK 080300Z 20016G29KT 9999 FEW030 BKN210 27/16 Q1005 RMK 1CU030 6CI210 A2969 FCST 0312 BECMG 0608 SCT030CU BKN100AC;EQDQ01+000000PRSWM2
0216477160999992000060804004+36030+140200FM-15+0029RJAK V0201901N007710600019N0112651N1+02801+01701999999ADDGA1021+009009999GA2021+036009999GA3071+060009999GF107991999999999999999999MA1100411999999MW1001REMMET090RJAK 080400Z 19015KT 9999 FEW030 SCT120 BKN200 28/17 Q1004 RMK 1CU030 3AC120 6CI200 A2967;EQDQ01+000000PRSWM2
0227477160999992000060804024+36030+140200FM-16+0029RJAK V0201901N007710600019N0112651N1+02801+01701999999ADDGA1021+009009999GA2021+036009999GA3071+060009999GF107991999999999999999999MA1100411999999MW1001OC101341REMMET093RJAK 080402Z 19015G26KT 9999 FEW030 SCT120 BKN200 28/17 Q1004 RMK 1CU030 3AC120 6CI200 A2967;EQDQ01+000000PRSWM2
0197477160999992000060805004+36030+140200FM-15+0029RJAK V0202101N007710600019N0112651N1+02701+01701999999ADDGA1021+009009999GA2071+060009999GF107991999999999999999999MA1100411999999MW1001OC101541REMMET079RJAK 080500Z 21015G30KT 9999 FEW030 BKN200 27/17 Q1004 RMK 1CU030 6CI200 A2967;EQDQ01+000000PRSWM2
0227477160999992000060806004+36030+140200FM-15+0029RJAK V0202101N007210600019N0112651N1+02801+01701999999ADDGA1021+009009999GA2071+060009999GF107991999999999999999999MA1100511999999MW1001OC101391REMMET109RJAK 080600Z 21014G27KT 9999 FEW030 BKN200 28/17 Q1005 RMK 1CU030 6CI200 A2968 FCST 0615 BECMG 0709 BKN100AC;EQDQ01+000000PRSWM2
0227477160999992000060807004+36030+140200FM-15+0029RJAK V0202001N007210600019N0112651N1+02701+01701999999ADDGA1021+009009999GA2021+036009999GA3071+060009999GF107991999999999999999999MA1100511999999MW1001OC101391REMMET093RJAK 080700Z 20014G27KT 9999 FEW030 SCT120 BKN200 27/17 Q1005 RMK 1CU030 4AC120 7CI200 A2968;EQDQ01+000000PRSWM2
0254477160999992000060808004+36030+140200FM-15+0029RJAK V0201901N007210360019N0112651N1+02701+01801999999ADDGA1021+009009999GA2071+036009999GA3071+060009999GF107991999999999999999999MA1100411999999MW1001OC101441REMMET120RJAK 080800Z 19014G28KT 9999 FEW030 BKN120 BKN200 27/18 Q1004 RMK 1CU030 5AC120 7CI200 A2965 FCST 0817 TEMPO 1117 -SHRA;EQDQ01+000000PRSWM2
0247477160999992000060822004+36030+140200FM-15+0029RJAK V0201801N003110021019N0035001N1+02201+02001999999ADDGA1021+000909999GA2071+002109999GA3081+004509999GF108991999999999999999999MA1099901999999MW1101MW2801REMMET099RJAK 082200Z 18006KT 3500 -SHRA BR SCT003 BKN007 OVC015 22/20 Q0999 RMK 4ST003 6ST007 8CU015 A2952;EQDQ01+000003PRSWM1Q02    003PRSWM1
0180477160999992000060823024+36030+140200FM-16+0029RJAK V0202001N00931000301CN0080001N1+99999+99999999999ADDGA1081+000309999GA2021+001509999GA3071+003009999GF108991999999999999999999MW1001MW2801OC101901REMMET055RJAK 082302Z 20018G37KT 8000 -SHRA SCT005 BKN010 OVC01;EQDQ01+000003PRSWM1
0360477160999992000060900004+36030+140200FM-15+0029RJAK V0202001N011310042019N0080001N1+02401+02201999999ADDGA1021+003009999GA2071+004209999GA3081+006009999GF108991999999999999999999MA1099591999999MW1801OC102011REMMET210RJAK 090000Z 20022G39KT 8000 -SHRA SCT010 BKN014 OVC020 24/22 Q0996 RMK 3ST010 6CU014 8CU020 A2943 P/FR FCST 0009 TEMPO 0004 BKN009ST BKN015CU OVC020CU TEMPO 0204 4000 SHRA TEMPO 0509 NSW BECMG 0608 18015G25KT;EQDQ01+000003PRSWM1Q02    003PRSWM1
0249477160999992000060901254+36030+140200FM-15+0029RJAK V0202001N012310060019N0080001N1+02501+02201999999ADDGA1021+004509999GA2071+006009999GA3081+009009999GF108991999999999999999999MA1099591999999MW1801OC102471REMMET099RJAK 090125Z 20024G48KT 8000 -SHRA SCT015 BKN020 OVC030 25/22 Q0996 RMK 3CU015 6CU020 8SC030 A2943;EQDQ01+000003PRSWM1Q02    003PRSWM1
0249477160999992000060902344+36030+140200FM-16+0029RJAK V0202001N009310060019N0080001N1+02501+02101999999ADDGA1021+003609999GA2071+006009999GA3081+012009999GF108991999999999999999999MA1099801999999MW1801OC101751REMMET099RJAK 090234Z 20018G34KT 8000 -SHRA SCT012 BKN020 OVC040 25/21 Q0998 RMK 3CU012 6CU020 8SC040 A2947;EQDQ01+000003PRSWM1Q02    003PRSWM1
0353477160999992000060903004+36030+140200FM-15+0029RJAK V0202101N008210060019N0080001N1+02501+02201999999ADDGA1021+004509999GA2071+006009999GA3081+012009999GF108991999999999999999999MA1099801999999MW1801OC101801REMMET203RJAK 090300Z 21016G35KT 8000 -SHRA FEW015 BKN020 OVC040 25/22 Q0998 RMK 2CU015 6CU020 8SC040 A2947 P/RR FCST 0312 TEMPO 0409 4000 SHRA BKN009ST BKN015CU BKN020CU BECMG 0709 21015G25KT BECMG 1012 21010KT;EQDQ01+000003PRSWM1Q02    003PRSWM1
0227477160999992000060904004+36030+140200FM-15+0029RJAK V0202001N008210045019N0080001N1+02501+02101999999ADDGA1071+004509999GA2071+006009999GA3081+012009999GF108991999999999999999999MA1099701999999MW1001OC101441REMMET093RJAK 090400Z 20016G28KT 8000 BKN015 BKN020 OVC040 25/21 Q0997 RMK 5CU015 6CU020 8SC040 A2945;EQDQ01+000000PRSWM2
0249477160999992000060904094+36030+140200FM-16+0029RJAK V0202101N006710060019N0080001N1+02501+02101999999ADDGA1021+004509999GA2071+006009999GA3081+012009999GF108991999999999999999999MA1099801999999MW1801OC101341REMMET099RJAK 090409Z 21013G26KT 8000 -SHRA SCT015 BKN020 OVC040 25/21 Q0998 RMK 4CU015 6CU020 8SC040 A2947;EQDQ01+000003PRSWM1Q02    003PRSWM1
0249477160999992000060905004+36030+140200FM-15+0029RJAK V0202301N004110045019N0080001N1+02601+02001999999ADDGA1071+004509999GA2071+006009999GA3081+012009999GF108991999999999999999999MA1099901999999MW1801OC100931REMMET099RJAK 090500Z 23008G18KT 8000 -SHRA BKN015 BKN020 OVC040 26/20 Q0999 RMK 5CU015 6CU020 8SC040 A2950;EQDQ01+000003PRSWM1Q02    003PRSWM1
0227477160999992000060905074+36030+140200FM-16+0029RJAK V0202101N004610045019N0045001N1+02501+02101999999ADDGA1071+004509999GA2081+006009999GF108991999999999999999999MA1099901999999MW1801REMMET085RJAK 090507Z 21009KT 4500 -SHRA BR BKN015 OVC020 25/21 Q0999 RMK 6CU015 8CU020 A2952;EQDQ01+000100PRSWM3Q02+000003PRSWM1Q03    003PRSWM1
0238477160999992000060905404+36030+140200FM-16+0029RJAK V0202101N003610045019N0070001N1+02301+02101999999ADDGA1071+004509999GA2071+006009999GA3081+012009999GF108991999999999999999999MA1100001999999MW1801REMMET096RJAK 090540Z 21007KT 7000 -SHRA BKN015 BKN020 OVC040 23/21 Q1000 RMK 5CU015 6CU020 8SC040 A2953;EQDQ01+000003PRSWM1Q02    003PRSWM1
0294477160999992000060906004+36030+140200FM-15+0029RJAK V0202101N003110045019N0070001N1+02301+02101999999ADDGA1071+004509999GA2071+006009999GA3081+012009999GF108991999999999999999999MA1100001999999MW1801REMMET152RJAK 090600Z 21006KT 7000 -SHRA BKN015 BKN020 OVC040 23/21 Q1000 RMK 5CU015 6CU020 8SC040 A2953 FCST 0615 TEMPO 0612 4000 BR SCT009ST BKN010CU BKN020CU;EQDQ01+000003PRSWM1Q02    003PRSWM1
0247477160999992000060907004+36030+140200FM-15+0029RJAK V0202101N004610045019N0050001N1+02301+02101999999ADDGA1021+002409999GA2071+004509999GA3071+006009999GF107991999999999999999999MA1100001999999MW1101MW2801REMMET099RJAK 090700Z 21009KT 5000 -SHRA BR FEW008 BKN015 BKN020 23/21 Q1000 RMK 2ST008 5CU015 6CU020 A2954;EQDQ01+000003PRSWM1Q02    003PRSWM1
0295477160999992000060908004+36030+140200FM-15+0029RJAK V0202001N003110045019N0050001N1+02201+02101999999ADDGA1021+002109999GA2071+004509999GA3081+006009999GF108991999999999999999999MA1100101999999MW1101MW2801REMMET147RJAK 090800Z 20006KT 5000 -SHRA BR SCT007 BKN015 OVC020 22/21 Q1001 RMK 4ST007 6CU015 8CU020 A2956 FCST 0817 TEMPO 0912 4000 BR BECMG 1213 4000 BR;EQDQ01+000003PRSWM1Q02    003PRSWM1
0236477160999992000061201004+36030+140200FM-15+0029RJAK V0200401N003110120019N0112651N1+01701+01401999999ADDGA1021+004509999GA2071+012009999GA3081+024009999GF108991999999999999999999MA1100911999999MW1611REMMET094RJAK 120100Z 04006KT 9999 -RA FEW015 BKN040 OVC080 17/14 Q1009 RMK 1CU015 5SC040 8AC080 A2981;EQDQ01+000003PRSWM1Q02    003PRSWM1
0236477160999992000061202004+36030+140200FM-15+0029RJAK V0200501N003110120019N0112651N1+01701+01501999999ADDGA1021+004509999GA2071+012009999GA3081+024009999GF108991999999999999999999MA1100911999999MW1611REMMET094RJAK 120200Z 05006KT 9999 -RA FEW015 BKN040 OVC080 17/15 Q1009 RMK 2CU015 5SC040 8AC080 A2980;EQDQ01+000003PRSWM1Q02    003PRSWM1
0236477160999992000061202084+36030+140200FM-16+0029RJAK V0200401N003110045019N0112651N1+01801+01501999999ADDGA1021+003009999GA2071+004509999GA3071+012009999GF107991999999999999999999MA1100911999999MW1611REMMET094RJAK 120208Z 04006KT 9999 -RA FEW010 BKN015 BKN040 18/15 Q1009 RMK 1CU010 5CU015 6SC040 A2981;EQDQ01+000003PRSWM1Q02    003PRSWM1
0291477160999992000061203004+36030+140200FM-15+0029RJAK V0200401N003610045019N0112651N1+01801+01501999999ADDGA1021+003009999GA2071+004509999GA3071+012009999GF107991999999999999999999MA1100911999999MW1001REMMET165RJAK 120300Z 04007KT 9999 FEW010 BKN015 BKN040 18/15 Q1009 RMK 1CU010 5CU015 6SC040 A2981 FCST 0312 TEMPO 0307 -RA BECMG 0709 4000 -RA BR FEW008ST BKN010ST BKN015CU;EQDQ01+000000PRSWM2
0216477160999992000061204004+36030+140200FM-15+0029RJAK V0200501N003110045019N0112651N1+01901+01501999999ADDGA1071+004509999GA2071+007509999GA3081+024009999GF108991999999999999999999MA1100911999999MW1001REMMET090RJAK 120400Z 05006KT 9999 BKN015 BKN025 OVC080 19/15 Q1009 RMK 5CU015 6CU025 8AC080 A2980;EQDQ01+000000PRSWM2
0216477160999992000061205004+36030+140200FM-15+0029RJAK V0200501N003110045019N0112651N1+01901+01501999999ADDGA1071+004509999GA2071+007509999GA3081+024009999GF108991999999999999999999MA1100811999999MW1001REMMET090RJAK 120500Z 05006KT 9999 BKN015 BKN025 OVC080 19/15 Q1008 RMK 5CU015 6CU025 8AC080 A2978;EQDQ01+000000PRSWM2
0291477160999992000061206004+36030+140200FM-15+0029RJAK V0200701N002610120019N0112651N1+01901+01501999999ADDGA1021+006009999GA2071+012009999GA3081+024009999GF108991999999999999999999MA1100811999999MW1001REMMET165RJAK 120600Z 07005KT 9999 SCT020 BKN040 OVC080 19/15 Q1008 RMK 3CU020 5SC040 8AC080 A2977 FCST 0615 TEMPO 0609 -RA BECMG 0911 4000 -RA BR SCT008ST BKN010ST BKN020CU;EQDQ01+000000PRSWM2
0236477160999992000061206154+36030+140200FM-16+0029RJAK V0200501N002110120019N0112651N1+01901+01501999999ADDGA1021+006009999GA2071+012009999GA3081+024009999GF108991999999999999999999MA1100811999999MW1611REMMET094RJAK 120615Z 05004KT 9999 -RA SCT020 BKN040 OVC080 19/15 Q1008 RMK 3CU020 6SC040 8AC080 A2977;EQDQ01+000003PRSWM1Q02    003PRSWM1
0236477160999992000061207004+36030+140200FM-15+0029RJAK V0200601N002110120019N0112651N1+01801+01501999999ADDGA1021+007509999GA2071+012009999GA3081+024009999GF108991999999999999999999MA1100811999999MW1611REMMET094RJAK 120700Z 06004KT 9999 -RA SCT025 BKN040 OVC080 18/15 Q1008 RMK 3CU025 7SC040 8AC080 A2977;EQDQ01+000003PRSWM1Q02    003PRSWM1
0300477160999992000061208004+36030+140200FM-15+0029RJAK V0200901N003110120019N0070001N1+01701+01601999999ADDGA1021+004509999GA2071+012009999GA3081+024009999GF108991999999999999999999MA1100811999999MW1611REMMET158RJAK 120800Z 09006KT 7000 -RA SCT015 BKN040 OVC080 17/16 Q1008 RMK 3CU015 7SC040 8AC080 A2977 FCST 0817 BECMG 0810 4000 BECMG 1012 FEW008ST BKN010ST BKN015CU;EQDQ01+000003PRSWM1Q02    003PRSWM1
0245477160999992000061301004+36030+140200FM-15+0029RJAK V0203601N002110027019N0050001N1+01901+01701999999ADDGA1021+002109999GA2071+002709999GA3081+004509999GF108991999999999999999999MA1100611999999MW1101MW2611REMMET097RJAK 130100Z 36004KT 5000 -RA BR FEW007 BKN009 OVC015 19/17 Q1006 RMK 2ST007 6ST009 8SC015 A2970;EQDQ01+000003PRSWM1Q02    003PRSWM1
0245477160999992000061302004+36030+140200FM-15+0029RJAK V0200201N002110030019N0050001N1+01901+01701999999ADDGA1021+002409999GA2071+003009999GA3081+004509999GF108991999999999999999999MA1100511999999MW1101MW2611REMMET097RJAK 130200Z 02004KT 5000 -RA BR FEW008 BKN010 OVC015 19/17 Q1005 RMK 2ST008 6ST010 8SC015 A2970;EQDQ01+000003PRSWM1Q02    003PRSWM1
0339477160999992000061303004+36030+140200FM-15+0029RJAK V0200701N001510030019N0060001N1+01901+01701999999ADDGA1021+002409999GA2071+003009999GA3081+004509999GF108991999999999999999999MA1100511999999MW1611REMMET197RJAK 130300Z 07003KT 6000 -RA FEW008 BKN010 OVC015 19/17 Q1005 RMK 2ST008 6ST010 8SC015 A2970 FCST 0312 TEMPO 0307 4000 FEW006ST BKN009ST OVC015SC BECMG 0709 4000 -RA BR SCT006ST BKN009ST OVC015SC;EQDQ01+000003PRSWM1Q02    003PRSWM1
0236477160999992000061304004+36030+140200FM-15+0029RJAK V0200501N003610030019N0060001N1+01901+01701999999ADDGA1021+002409999GA2071+003009999GA3081+004509999GF108991999999999999999999MA1100511999999MW1611REMMET094RJAK 130400Z 05007KT 6000 -RA FEW008 BKN010 OVC015 19/17 Q1005 RMK 2ST008 6ST010 8SC015 A2969;EQDQ01+000003PRSWM1Q02    003PRSWM1
0236477160999992000061305004+36030+140200FM-15+0029RJAK V0200501N002610030019N0060001N1+01901+01701999999ADDGA1021+001809999GA2071+003009999GA3081+003609999GF108991999999999999999999MA1100511999999MW1611REMMET094RJAK 130500Z 05005KT 6000 -RA SCT006 BKN010 OVC012 19/17 Q1005 RMK 3ST006 6ST010 8SC012 A2969;EQDQ01+000003PRSWM1Q02    003PRSWM1
0296477160999992000061306004+36030+140200FM-15+0029RJAK V0200701N002610030019N0060001N1+01801+01701999999ADDGA1021+001809999GA2071+003009999GA3081+003609999GF108991999999999999999999MA1100511999999MW1611REMMET154RJAK 130600Z 07005KT 6000 -RA SCT006 BKN010 OVC012 18/17 Q1005 RMK 4ST006 6ST010 8SC012 A2969 FCST 0615 BECMG 0608 4000 -RA BR SCT006ST BKN008ST OVC012SC;EQDQ01+000003PRSWM1Q02    003PRSWM1
0236477160999992000061307004+36030+140200FM-15+0029RJAK V0200501N002610027019N0060001N1+01801+01701999999ADDGA1021+001809999GA2071+002709999GA3081+003609999GF108991999999999999999999MA1100511999999MW1611REMMET094RJAK 130700Z 05005KT 6000 -RA SCT006 BKN009 OVC012 18/17 Q1005 RMK 3ST006 6ST009 8SC012 A2969;EQDQ01+000003PRSWM1Q02    003PRSWM1
0261477160999992000061308004+36030+140200FM-15+0029RJAK V0200601N003110024019N0045001N1+01801+01701999999ADDGA1021+001809999GA2071+002409999GA3081+003609999GF108991999999999999999999MA1100511999999MW1101MW2611REMMET113RJAK 130800Z 06006KT 4500 -RA BR SCT006 BKN008 OVC012 18/17 Q1005 RMK 3ST006 6ST008 8SC012 A2969 FCST 0817 NOSIG;EQDQ01+000003PRSWM1Q02    003PRSWM1
0245477160999992000061322004+36300+140200FM-15+0029RJAK V0203101N001010036019N0045001N1+01801+01701999999ADDGA1021+001809999GA2071+003609999GA3081+006009999GF108991999999999999999999MA1100311999999MW1101MW2611REMMET097RJAK 132200Z 31002KT 4500 -RA BR SCT006 BKN012 OVC020 18/17 Q1003 RMK 3ST006 5ST012 8SC020 A2964;EQDQ01+000003PRSWM1Q02    003PRSWM1
0298477160999992000061323004+36300+140200FM-15+0029RJAK V0203201N001510024019N0040001N1+01801+01701999999ADDGA1021+001509999GA2071+002409999GA3081+004509999GF108991999999999999999999MA1100411999999MW1101MW2611REMMET150RJAK 132300Z 32003KT 4000 -RA BR SCT005 BKN008 OVC015 18/17 Q1004 RMK 3ST005 6ST008 8SC015 A2965 FCST 2308 TEMPO 0106 5000 FEW005ST SCT008ST OVC020SC;EQDQ01+000003PRSWM1Q02    003PRSWM1
0236477160999992000061400354+36300+140200FM-16+0029RJAK V0203301N001010030019N0080001N1+01901+01701999999ADDGA1021+002109999GA2071+003009999GA3081+005409999GF108991999999999999999999MA1100511999999MW1611REMMET094RJAK 140035Z 33002KT 8000 -RA SCT007 BKN010 OVC018 19/17 Q1005 RMK 4ST007 6ST010 8SC018 A2968;EQDQ01+000003PRSWM1Q02    003PRSWM1
0236477160999992000061401004+36300+140200FM-15+0029RJAK V0203501N000510033019N0080001N1+01901+01701999999ADDGA1021+002109999GA2071+003309999GA3081+006009999GF108991999999999999999999MA1100511999999MW1611REMMET094RJAK 140100Z 35001KT 8000 -RA SCT007 BKN011 OVC020 19/17 Q1005 RMK 3ST007 5ST011 8SC020 A2968;EQDQ01+000003PRSWM1Q02    003PRSWM1
0236477160999992000061402004+36300+140200FM-15+0029RJAK V02099999999990036019N0080001N1+01901+01701999999ADDGA1021+002409999GA2071+003609999GA3081+006009999GF108991999999999999999999MA1100511999999MW1611REMMET094RJAK 140200Z VRB02KT 8000 -RA SCT008 BKN012 OVC020 19/17 Q1005 RMK 4ST008 6SC012 8SC020 A2968;EQDQ01+000003PRSWM1Q02    003PRSWM1
0315477160999992000061403004+36300+140200FM-15+0029RJAK V02099999999990036019N0060001N1+01901+01701999999ADDGA1021+002709999GA2071+003609999GA3081+006009999GF108991999999999999999999MA1100511999999MW1611REMMET173RJAK 140300Z VRB01KT 6000 -RA SCT009 BKN012 OVC020 19/17 Q1005 RMK 3ST009 5SC012 8SC020 A2970 FCST 0312 TEMPO 0409 4000 -RA BR FEW005ST BKN009ST BKN012SC BECMG 0911 4000 BR;EQDQ01+000003PRSWM1Q02    003PRSWM1
0236477160999992000061404004+36300+140200FM-15+0029RJAK V0201501N001010036019N0080001N1+02001+01701999999ADDGA1021+002709999GA2071+003609999GA3081+006009999GF108991999999999999999999MA1100511999999MW1611REMMET094RJAK 140400Z 15002KT 8000 -RA FEW009 BKN012 OVC020 20/17 Q1005 RMK 2ST009 5SC012 8SC020 A2970;EQDQ01+000003PRSWM1Q02    003PRSWM1
0236477160999992000061405004+36300+140200FM-15+0029RJAK V0202101N002110027019N0060001N1+02001+01801999999ADDGA1021+002109999GA2071+002709999GA3081+006009999GF108991999999999999999999MA1100611999999MW1611REMMET094RJAK 140500Z 21004KT 6000 -RA FEW007 BKN009 OVC020 20/18 Q1006 RMK 1ST007 5ST009 8SC020 A2972;EQDQ01+000003PRSWM1Q02    003PRSWM1
0290477160999992000061406004+36300+140200FM-15+0029RJAK V0201801N002610027019N0050001N1+01901+01801999999ADDGA1021+001809999GA2071+002709999GA3081+006009999GF108991999999999999999999MA1100611999999MW1101MW2611REMMET142RJAK 140600Z 18005KT 5000 -RA BR FEW006 BKN009 OVC020 19/18 Q1006 RMK 1ST006 5ST009 8SC020 A2973 FCST 0615 TEMPO 0610 4000 BECMG 1214 4000 BR;EQDQ01+000003PRSWM1Q02    003PRSWM1
0317477160999992000061408004+36300+140200FM-15+0029RJAK V0201601N001510027019N0050001N1+01901+01801999999ADDGA1021+001509999GA2071+002709999GA3071+006009999GF107991999999999999999999MA1100711999999MW1101MW2611REMMET169RJAK 140800Z 16003KT 5000 -RA BR FEW005 BKN009 BKN020 19/18 Q1007 RMK 1ST005 5ST009 6SC020 A2975 FCST 0817 BECMG 1012 5000 BR BECMG 1214 4000 SCT010ST BKN025SC BKN040SC;EQDQ01+000003PRSWM1Q02    003PRSWM1
0205477160999992000061422004+36300+140200FM-15+0029RJAK V0200201N000510009019N0012001N1+01801+01701999999ADDGA1071+000909999GA2071+001209999GF107991999999999999999999MA1101391999999MW1101REMMET079RJAK 142200Z 02001KT 1200 BR BKN003 BKN004 18/17 Q1014 RMK 5ST003 7ST004 A2995;EQDQ01+000003PRSWM1Q02    003PRSWM1
0205477160999992000061422304+36300+140200FM-15+0029RJAK V0209999C000010018019N0020001N1+01901+01701999999ADDGA1071+001809999GA2071+002409999GF107991999999999999999999MA1101391999999MW1101REMMET079RJAK 142230Z 00000KT 2000 BR BKN006 BKN008 19/17 Q1014 RMK 5ST006 7ST008 A2996;EQDQ01+000003PRSWM1Q02    003PRSWM1
0273477160999992000061423004+36300+140200FM-15+0029RJAK V02099999999990024019N0035001N1+01901+01701999999ADDGA1021+001809999GA2071+002409999GF107991999999999999999999MA1101391999999MW1101REMMET147RJAK 142300Z VRB01KT 3500 BR SCT006 BKN008 19/17 Q1014 RMK 3ST006 7ST008 A2996 FCST 2308 BECMG 2300 5000 SCT008ST SCT020CU BKN200CI BECMG 0001 NSW;EQDQ01+000003PRSWM1Q02    003PRSWM1
0235477160999992000061423224+36300+140200FM-16+0029RJAK V02099999999990030019N0040001N1+02001+01701999999ADDGA1021+002409999GA2071+003009999GA3071+060009999GF107991999999999999999999MA1101391999999MW1101REMMET093RJAK 142322Z VRB02KT 4000 BR SCT008 BKN010 BKN200 20/17 Q1014 RMK 3ST008 5SC010 7CI200 A2995;EQDQ01+000003PRSWM1Q02    003PRSWM1
0205477160999992000061423504+36300+140200FM-15+0029RJAK V02099999999990600019N0050001N1+02101+01701999999ADDGA1021+002409999GA2071+060009999GF107991999999999999999999MA1101391999999MW1101REMMET079RJAK 142350Z VRB02KT 5000 BR FEW008 BKN200 21/17 Q1014 RMK 1ST008 7CI200 A2994;EQDQ01+000003PRSWM1Q02    003PRSWM1
0216477160999992000061501004+36300+140200FM-15+0029RJAK V02099999999990600019N0070001N1+02301+01801999999ADDGA1021+004509999GA2021+005409999GA3071+060009999GF107991999999999999999999MA1101391999999MW1001REMMET090RJAK 150100Z VRB03KT 7000 FEW015 SCT018 BKN200 23/18 Q1014 RMK 1CU015 3CU018 6CI200 A2994;EQDQ01+000000PRSWM2
0232477160999992000061501224+36300+140200FM-16+0029RJAK V02099999999990066019N9999999N1+02301+01701999999ADDGA1021+005409999GA2071+006609999GA3071+060009999GF107991999999999999999999MA1101291999999MW1001REMMET090RJAK 150122Z VRB02KT 7000 FEW018 BKN022 BKN200 23/17 Q1013 RMK 1CU018 5CU022 6CI200 A2993;EQDQ01+070002VODIS Q02+000000PRSWM2
0186477160999992000061502004+36300+140200FM-15+0029RJAK V02099999999990600019N0080001N1+02301+01701999999ADDGA1021+007509999GA2071+060009999GF107991999999999999999999MA1101391999999MW1001REMMET076RJAK 150200Z VRB03KT 8000 SCT025 BKN200 23/17 Q1014 RMK 4CU025 6CI200 A2994;EQDQ01+000000PRSWM2
0218477160999992000061503004+36300+140200FM-15+0029RJAK V0201201N001510600019N9999999N1+02401+01701999999ADDGA1021+007509999GA2071+060009999GF107991999999999999999999MA1101291999999MW1001REMMET092RJAK 150300Z 12003KT 7000 SCT025 BKN200 24/17 Q1013 RMK 3CU025 7CI200 A2993 FCST 0312 NOSIG;EQDQ01+070002VODIS Q02+000000PRSWM2
0232477160999992000061504004+36300+140200FM-15+0029RJAK V0201601N001510600019N9999999N1+02401+01701999999ADDGA1021+006009999GA2021+007509999GA3071+060009999GF107991999999999999999999MA1101291999999MW1001REMMET090RJAK 150400Z 16003KT 7000 FEW020 SCT025 BKN200 24/17 Q1013 RMK 1CU020 3CU025 7CI200 A2992;EQDQ01+070002VODIS Q02+000000PRSWM2
0186477160999992000061505004+36300+140200FM-15+0029RJAK V0201301N002610600019N0080001N1+02501+01801999999ADDGA1021+007509999GA2071+060009999GF107991999999999999999999MA1101291999999MW1001REMMET076RJAK 150500Z 13005KT 8000 SCT025 BKN200 25/18 Q1013 RMK 3CU025 7CI200 A2992;EQDQ01+000000PRSWM2
0202477160999992000061508004+36300+140200FM-15+0029RJAK V0201601N004112200019N0112651N1+02501+01701999999ADDGA1021+006009999GA2021+060009999GF104991999999999999999999MA1101291999999MW1001REMMET092RJAK 150800Z 16008KT 9999 FEW020 SCT200 25/17 Q1013 RMK 1CU020 3CI200 A2991 FCST 0817 NOSIG;EQDQ01+000000PRSWM2
0205477160999992000061522334+36300+140200FM-16+0029RJAK V0201601N001010690019N0015001N1+02001+01901999999ADDGA1021+000909999GA2071+069009999GF107991999999999999999999MA1101491999999MW1101REMMET079RJAK 152233Z 16002KT 1500 BR FEW003 BKN230 20/19 Q1015 RMK 2ST003 6CI230 A2998;EQDQ01+000003PRSWM1Q02    003PRSWM1
0216477160999992000061600004+36300+140200FM-15+0029RJAK V0202801N001512200019N0040001N1+02401+01801999999ADDGA1021+069009999GF102991999999999999999999MA1101491999999MW1101REMMET106RJAK 160000Z 28003KT 4000 BR FEW230 24/18 Q1015 RMK 2CI230 A2997 FCST 0009 BECMG 0001 5000 BECMG 0102 NSW;EQDQ01+000003PRSWM1Q02    003PRSWM1
0175477160999992000061600244+36300+140200FM-16+0029RJAK V0202601N002112200019N0050001N1+02501+01801999999ADDGA1021+069009999GF102991999999999999999999MA1101391999999MW1101REMMET065RJAK 160024Z 26004KT 5000 BR FEW230 25/18 Q1014 RMK 2CI230 A2996;EQDQ01+000003PRSWM1Q02    003PRSWM1
0175477160999992000061601004+36300+140200FM-15+0029RJAK V0202801N001512200019N0050001N1+02701+01901999999ADDGA1021+069009999GF102991999999999999999999MA1101391999999MW1101REMMET065RJAK 160100Z 28003KT 5000 BR FEW230 27/19 Q1014 RMK 2CI230 A2996;EQDQ01+000003PRSWM1Q02    003PRSWM1
0156477160999992000061602004+36300+140200FM-15+0029RJAK V0201801N001010690019N0060001N1+02701+01801999999ADDGA1071+069009999GF107991999999999999999999MA1101391999999MW1001REMMET062RJAK 160200Z 18002KT 6000 BKN230 27/18 Q1014 RMK 6CI230 A2995;EQDQ01+000000PRSWM2
0188477160999992000061603004+36300+140200FM-15+0029RJAK V0201901N001012200019N9999999N1+02901+01901999999ADDGA1021+069009999GF104991999999999999999999MA1101391999999MW1001REMMET078RJAK 160300Z 19002KT 6000 SCT230 29/19 Q1014 RMK 4CI230 A2994 FCST 0312 NOSIG;EQDQ01+060002VODIS Q02+000000PRSWM2
0172477160999992000061604004+36300+140200FM-15+0029RJAK V0202101N002610690019N9999999N1+03001+01701999999ADDGA1071+069009999GF107991999999999999999999MA1101291999999MW1001REMMET062RJAK 160400Z 21005KT 7000 BKN230 30/17 Q1013 RMK 5CI230 A2993;EQDQ01+070002VODIS Q02+000000PRSWM2
0156477160999992000061605004+36300+140200FM-15+0029RJAK V0201801N003110690019N0080001N1+03001+01601999999ADDGA1071+069009999GF107991999999999999999999MA1101291999999MW1001REMMET062RJAK 160500Z 18006KT 8000 BKN230 30/16 Q1013 RMK 5CI230 A2991;EQDQ01+000000PRSWM2
0172477160999992000061608004+36300+140200FM-15+0029RJAK V0201901N004612200019N0112651N1+03001+01901999999ADDGA1021+069009999GF102991999999999999999999MA1101291999999MW1001REMMET078RJAK 160800Z 19009KT 9999 FEW230 30/19 Q1013 RMK 2CI230 A2991 FCST 0817 NOSIG;EQDQ01+000000PRSWM2
0205477160999992000061822004+36300+140200FM-15+0029RJAK V0200301N001010690019N0030001N1+02001+01801999999ADDGA1021+036009999GA2071+069009999GF107991999999999999999999MA1100911999999MW1101REMMET079RJAK 182200Z 03002KT 3000 BR SCT120 BKN230 20/18 Q1009 RMK 3AC120 6CI230 A2979;EQDQ01+000003PRSWM1Q02    003PRSWM1
0234477160999992000061823004+36300+140200FM-15+0029RJAK V02099999999990690019N0040001N1+02201+01701999999ADDGA1021+036009999GA2071+069009999GF107991999999999999999999MA1100911999999MW1101REMMET108RJAK 182300Z VRB01KT 4000 BR FEW120 BKN230 22/17 Q1009 RMK 2AC120 6CI230 A2980 FCST 2308 BECMG 2301 5000 BR;EQDQ01+000003PRSWM1Q02    003PRSWM1
0205477160999992000061823154+36300+140200FM-16+0029RJAK V0209999C000010690019N0050001N1+02301+01801999999ADDGA1021+036009999GA2071+069009999GF107991999999999999999999MA1100911999999MW1101REMMET079RJAK 182315Z 00000KT 5000 BR FEW120 BKN230 23/18 Q1009 RMK 2AC120 6CI230 A2980;EQDQ01+000003PRSWM1Q02    003PRSWM1
0218477160999992000061900004+36300+140200FM-15+0029RJAK V0200601N001010690019N9999999N1+02401+01701999999ADDGA1021+036009999GA2071+069009999GF107991999999999999999999MA1100911999999MW1001REMMET092RJAK 190000Z 06002KT 6000 FEW120 BKN230 24/17 Q1009 RMK 1AC120 6CI230 A2979 FCST 0009 NOSIG;EQDQ01+060002VODIS Q02+000000PRSWM2
0202477160999992000061901004+36300+140200FM-15+0029RJAK V0200901N002610690019N9999999N1+02501+01801999999ADDGA1021+006009999GA2071+069009999GF107991999999999999999999MA1100911999999MW1001REMMET076RJAK 190100Z 09005KT 7000 FEW020 BKN230 25/18 Q1009 RMK 1CU020 6CI230 A2980;EQDQ01+070002VODIS Q02+000000PRSWM2
0186477160999992000061902004+36300+140200FM-15+0029RJAK V0200701N002110690019N0080001N1+02501+01801999999ADDGA1021+006009999GA2071+069009999GF107991999999999999999999MA1100911999999MW1001REMMET076RJAK 190200Z 07004KT 8000 FEW020 BKN230 25/18 Q1009 RMK 1CU020 5CI230 A2980;EQDQ01+000000PRSWM2
0202477160999992000061903004+36300+140200FM-15+0029RJAK V0200601N002112200019N0080001N1+02701+01701999999ADDGA1021+007509999GA2021+069009999GF104991999999999999999999MA1100911999999MW1001REMMET092RJAK 190300Z 06004KT 8000 FEW025 SCT230 27/17 Q1009 RMK 1CU025 3CI230 A2979 FCST 0312 NOSIG;EQDQ01+000000PRSWM2
0156477160999992000061904004+36300+140200FM-15+0029RJAK V0200801N002612200019N0112651N1+02801+01601999999ADDGA1021+007509999GF102991999999999999999999MA1100811999999MW1001REMMET062RJAK 190400Z 08005KT 9999 FEW025 28/16 Q1008 RMK 1CU025 A2978;EQDQ01+000000PRSWM2
0156477160999992000061905004+36300+140200FM-15+0029RJAK V0200901N003112200019N0112651N1+02801+01801999999ADDGA1021+009009999GF102991999999999999999999MA1100811999999MW1001REMMET062RJAK 190500Z 09006KT 9999 FEW030 28/18 Q1008 RMK 1CU030 A2976;EQDQ01+000000PRSWM2
0172477160999992000061906004+36300+140200FM-15+0029RJAK V0201301N004112200019N0112651N1+02801+02001999999ADDGA1021+009009999GF102991999999999999999999MA1100711999999MW1001REMMET078RJAK 190600Z 13008KT 9999 FEW030 28/20 Q1007 RMK 1CU030 A2976 FCST 0615 NOSIG;EQDQ01+000000PRSWM2
0156477160999992000061907004+36300+140200FM-15+0029RJAK V0201201N003612200019N0112651N1+02901+02001999999ADDGA1021+009009999GF102991999999999999999999MA1100711999999MW1001REMMET062RJAK 190700Z 12007KT 9999 FEW030 29/20 Q1007 RMK 2CU030 A2975;EQDQ01+000000PRSWM2
0172477160999992000061908004+36300+140200FM-15+0029RJAK V0201501N004612200019N0112651N1+02701+02001999999ADDGA1021+009009999GF102991999999999999999999MA1100811999999MW1001REMMET078RJAK 190800Z 15009KT 9999 FEW030 27/20 Q1008 RMK 1CU030 A2976 FCST 0817 NOSIG;EQDQ01+000000PRSWM2
0174477160999992000061923004+36300+140200FM-15+0029RJAK V0201401N001012200019N0050001N1+02301+01901999999ADDGF100991999999999999999999MA1101021999999MW1101REMMET080RJAK 192300Z 14002KT 5000 BR SKC 23/19 Q1010 RMK A2985 FCST 2308 BECMG 2301 NSW;EQDQ01+000003PRSWM1Q02    003PRSWM1
0172477160999992000062000004+36300+140200FM-15+0029RJAK V0201201N001012200019N0060001N1+02401+01901999999ADDGA1021+007509999GF102991999999999999999999MA1101021999999MW1001REMMET078RJAK 200000Z 12002KT 6000 FEW025 24/19 Q1010 RMK 1CU025 A2985 FCST 0009 NOSIG;EQDQ01+000000PRSWM2
0172477160999992000062001004+36300+140200FM-15+0029RJAK V0200601N001512200019N9999999N1+02601+02001999999ADDGA1021+007509999GF102991999999999999999999MA1101021999999MW1001REMMET062RJAK 200100Z 06003KT 7000 FEW025 26/20 Q1010 RMK 1CU025 A2984;EQDQ01+070002VODIS Q02+000000PRSWM2
0156477160999992000062002004+36300+140200FM-15+0029RJAK V0200601N003612200019N0112651N1+02701+01901999999ADDGA1021+007509999GF102991999999999999999999MA1101021999999MW1001REMMET062RJAK 200200Z 06007KT 9999 FEW025 27/19 Q1010 RMK 1CU025 A2983;EQDQ01+000000PRSWM2
0172477160999992000062003004+36300+140200FM-15+0029RJAK V0200601N004612200019N0112651N1+02801+01901999999ADDGA1021+007509999GF102991999999999999999999MA1100911999999MW1001REMMET078RJAK 200300Z 06009KT 9999 FEW025 28/19 Q1009 RMK 1CU025 A2982 FCST 0312 NOSIG;EQDQ01+000000PRSWM2
0156477160999992000062004004+36300+140200FM-15+0029RJAK V0200601N005112200019N0112651N1+02901+02001999999ADDGA1021+007509999GF102991999999999999999999MA1100911999999MW1001REMMET062RJAK 200400Z 06010KT 9999 FEW025 29/20 Q1009 RMK 1CU025 A2980;EQDQ01+000000PRSWM2
0156477160999992000062005004+36300+140200FM-15+0029RJAK V0200601N005712200019N0112651N1+02801+01901999999ADDGA1021+007509999GF102991999999999999999999MA1100911999999MW1001REMMET062RJAK 200500Z 06011KT 9999 FEW025 28/19 Q1009 RMK 1CU025 A2980;EQDQ01+000000PRSWM2
0172477160999992000062006004+36300+140200FM-15+0029RJAK V0201301N004112200019N0112651N1+02901+01901999999ADDGA1021+007509999GF102991999999999999999999MA1100911999999MW1001REMMET078RJAK 200600Z 13008KT 9999 FEW025 29/19 Q1009 RMK 1CU025 A2979 FCST 0615 NOSIG;EQDQ01+000000PRSWM2
0156477160999992000062007004+36300+140200FM-15+0029RJAK V0201401N005712200019N0112651N1+02801+01901999999ADDGA1021+007509999GF102991999999999999999999MA1100811999999MW1001REMMET062RJAK 200700Z 14011KT 9999 FEW025 28/19 Q1008 RMK 1CU025 A2978;EQDQ01+000000PRSWM2
0172477160999992000062008004+36300+140200FM-15+0029RJAK V0201401N004612200019N0112651N1+02701+01901999999ADDGA1021+060009999GF102991999999999999999999MA1100911999999MW1001REMMET078RJAK 200800Z 14009KT 9999 FEW200 27/19 Q1009 RMK 1CI200 A2980 FCST 0817 NOSIG;EQDQ01+000000PRSWM2
0175477160999992000062022004+36300+140200FM-15+0029RJAK V0201801N001010600019N0020001N1+02101+02001999999ADDGA1071+060009999GF107991999999999999999999MA1100911999999MW1101REMMET065RJAK 202200Z 18002KT 2000 BR BKN200 21/20 Q1009 RMK 7CI200 A2981;EQDQ01+000003PRSWM1Q02    003PRSWM1
0216477160999992000062023004+36300+140200FM-15+0029RJAK V0201901N001510600019N0025001N1+02201+02001999999ADDGA1071+060009999GF107991999999999999999999MA1100911999999MW1101REMMET106RJAK 202300Z 19003KT 2500 BR BKN200 22/20 Q1009 RMK 7CI200 A2981 FCST 2308 BECMG 0002 5000 BECMG 0203 NSW;EQDQ01+000003PRSWM1Q02    003PRSWM1
0246477160999992000062100004+36300+140200FM-15+0029RJAK V0202001N001010600019N0025001N1+02301+02001999999ADDGA1021+004509999GA2071+060009999GF107991999999999999999999MA1100911999999MW1101REMMET120RJAK 210000Z 20002KT 2500 BR SCT015 BKN200 23/20 Q1009 RMK 3SC015 7CI200 A2981 FCST 0009 BECMG 0001 5000 BECMG 0102 NSW;EQDQ01+000003PRSWM1Q02    003PRSWM1
0235477160999992000062101004+36300+140200FM-15+0029RJAK V0201901N001510360019N0045001N1+02401+02001999999ADDGA1021+004509999GA2071+036009999GA3071+060009999GF107991999999999999999999MA1100811999999MW1101REMMET093RJAK 210100Z 19003KT 4500 BR SCT015 BKN120 BKN200 24/20 Q1008 RMK 3SC015 5AC120 7CI200 A2978;EQDQ01+000003PRSWM1Q02    003PRSWM1
0235477160999992000062102004+36300+140200FM-15+0029RJAK V0201901N001510360019N0045001N1+02501+02001999999ADDGA1021+005409999GA2021+024009999GA3071+036009999GF107991999999999999999999MA1100811999999MW1051REMMET093RJAK 210200Z 19003KT 4500 HZ FEW018 SCT080 BKN120 25/20 Q1008 RMK 2CU018 4AC080 7AC120 A2977;EQDQ01+000003PRSWM1Q02    003PRSWM1
0260477160999992000062103004+36300+140200FM-15+0029RJAK V0201801N001510360019N0050001N1+02601+02101999999ADDGA1021+006009999GA2021+024009999GA3071+036009999GF107991999999999999999999MA1100711999999MW1051REMMET118RJAK 210300Z 18003KT 5000 HZ FEW020 SCT080 BKN120 26/21 Q1007 RMK 2CU020 4AC080 7AC120 A2975 FCST 0312 BECMG 0304 NSW;EQDQ01+000003PRSWM1Q02    003PRSWM1
0205477160999992000062105004+36300+140200FM-15+0029RJAK V0201701N002610360019N0050001N1+02701+02101999999ADDGA1021+024009999GA2071+036009999GF107991999999999999999999MA1100711999999MW1051REMMET079RJAK 210500Z 17005KT 5000 HZ FEW080 BKN120 27/21 Q1007 RMK 2AC080 7AC120 A2973;EQDQ01+000003PRSWM1Q02    003PRSWM1
0218477160999992000062106004+36300+140200FM-15+0029RJAK V0201901N003110360019N9999999N1+02701+02101999999ADDGA1021+024009999GA2071+036009999GF107991999999999999999999MA1100611999999MW1001REMMET092RJAK 210600Z 19006KT 6000 SCT080 BKN120 27/21 Q1006 RMK 3AC080 7AC120 A2972 FCST 0615 NOSIG;EQDQ01+060002VODIS Q02+000000PRSWM2
0186477160999992000062107004+36300+140200FM-15+0029RJAK V0201901N002610360019N0060001N1+02701+02001999999ADDGA1021+030009999GA2071+036009999GF107991999999999999999999MA1100611999999MW1001REMMET076RJAK 210700Z 19005KT 6000 SCT100 BKN120 27/20 Q1006 RMK 3AC100 6AC120 A2971;EQDQ01+000000PRSWM2
0218477160999992000062108004+36300+140200FM-15+0029RJAK V0201901N002610360019N9999999N1+02701+01901999999ADDGA1021+030009999GA2071+036009999GF107991999999999999999999MA1100611999999MW1001REMMET092RJAK 210800Z 19005KT 6000 SCT100 BKN120 27/19 Q1006 RMK 3AC100 7AC120 A2972 FCST 0817 NOSIG;EQDQ01+060002VODIS Q02+000000PRSWM2
0205477160999992000062122004+36300+140200FM-15+0029RJAK V0200601N004612200019N0050001N1+02201+01801999999ADDGA1021+036009999GA2021+069009999GF104991999999999999999999MA1100811999999MW1101REMMET079RJAK 212200Z 06009KT 5000 BR FEW120 SCT230 22/18 Q1008 RMK 1AC120 3CI230 A2979;EQDQ01+000003PRSWM1Q02    003PRSWM1
0162477160999992000062200004+36300+140200FM-15+0029RJAK V0200801N005112200019N9999999N1+02501+01701999999ADDGF100991999999999999999999MA1100911999999MW1001REMMET068RJAK 220000Z 08010KT 7000 SKC 25/17 Q1009 RMK A2980 FCST 0009 NOSIG;EQDQ01+070002VODIS Q02+000000PRSWM2
0156477160999992000062201004+36300+140200FM-15+0029RJAK V0200801N005712200019N0080001N1+02601+01601999999ADDGA1021+069009999GF104991999999999999999999MA1100911999999MW1001REMMET062RJAK 220100Z 08011KT 8000 SCT230 26/16 Q1009 RMK 3CI230 A2979;EQDQ01+000000PRSWM2
0156477160999992000062202004+36300+140200FM-15+0029RJAK V0200801N006210690019N0080001N1+02701+01601999999ADDGA1071+069009999GF107991999999999999999999MA1100911999999MW1001REMMET062RJAK 220200Z 08012KT 8000 BKN230 27/16 Q1009 RMK 5CI230 A2980;EQDQ01+000000PRSWM2
0172477160999992000062203004+36300+140200FM-15+0029RJAK V0200801N006210690019N0112651N1+02601+01501999999ADDGA1071+069009999GF107991999999999999999999MA1100811999999MW1001REMMET078RJAK 220300Z 08012KT 9999 BKN230 26/15 Q1008 RMK 6CI230 A2979 FCST 0312 NOSIG;EQDQ01+000000PRSWM2
0176477160999992000062204004+36300+140200FM-15+0029RJAK V0200901N00511220001CN0112651N1+02701+01601999999ADDGA1071+036009999GA2021+069009999MA1100811999999MW1001REMMET076RJAK 220400Z 09010KT 9999 BKN120 SCT230 27/16 Q1008 RMK 5AC120 3CI230 A2979;EQDQ01+000042SCOTCVQ02+000000PRSWM2
0186477160999992000062204324+36300+140200FM-16+0029RJAK V0200901N005110690019N0112651N1+02601+01501999999ADDGA1021+036009999GA2071+069009999GF107991999999999999999999MA1100811999999MW1001REMMET076RJAK 220432Z 09010KT 9999 FEW120 BKN230 26/15 Q1008 RMK 2AC120 7CI230 A2979;EQDQ01+000000PRSWM2
0186477160999992000062205004+36300+140200FM-15+0029RJAK V0200901N005710690019N0112651N1+02501+01501999999ADDGA1021+036009999GA2071+069009999GF107991999999999999999999MA1100811999999MW1001REMMET076RJAK 220500Z 09011KT 9999 SCT120 BKN230 25/15 Q1008 RMK 3AC120 7CI230 A2978;EQDQ01+000000PRSWM2
0202477160999992000062206004+36300+140200FM-15+0029RJAK V0200801N005110690019N0112651N1+02501+01601999999ADDGA1021+036009999GA2071+069009999GF107991999999999999999999MA1100811999999MW1001REMMET092RJAK 220600Z 08010KT 9999 FEW120 BKN230 25/16 Q1008 RMK 2AC120 7CI230 A2979 FCST 0615 NOSIG;EQDQ01+000000PRSWM2
0186477160999992000062206184+36300+140200FM-16+0029RJAK V0200701N005110360019N0112651N1+02401+01601999999ADDGA1071+036009999GA2071+069009999GF107991999999999999999999MA1100811999999MW1001REMMET076RJAK 220618Z 07010KT 9999 BKN120 BKN230 24/16 Q1008 RMK 5AC120 7CI230 A2979;EQDQ01+000000PRSWM2
0186477160999992000062207004+36300+140200FM-15+0029RJAK V0200701N005710360019N0090001N1+02401+01601999999ADDGA1071+036009999GA2071+069009999GF107991999999999999999999MA1100811999999MW1001REMMET076RJAK 220700Z 07011KT 9000 BKN120 BKN230 24/16 Q1008 RMK 6AC120 7CI230 A2978;EQDQ01+000000PRSWM2
0186477160999992000062207354+36300+140200FM-16+0029RJAK V0200701N005110690019N0112651N1+02301+01601999999ADDGA1021+036009999GA2071+069009999GF107991999999999999999999MA1100811999999MW1001REMMET076RJAK 220735Z 07010KT 9999 SCT120 BKN230 23/16 Q1008 RMK 3AC120 5CI230 A2978;EQDQ01+000000PRSWM2
0268477160999992000062208004+36300+140200FM-15+0029RJAK V0200701N003610690019N0112651N1+02301+01701999999ADDGA1021+036009999GA2071+069009999GF107991999999999999999999MA1100811999999MW1001REMMET158RJAK 220800Z 07007KT 9999 SCT120 BKN230 23/17 Q1008 RMK 3AC120 7CI230 A2978 FCST 0817 BECMG 1113 SCT040SC BKN120AC BECMG 1315 4000 -SHRA BR BKN030SC BKN080AC;EQDQ01+000000PRSWM2
0284477160999992000062223004+36300+140200FM-15+0029RJAK V0200601N005110120019N0030001N1+02001+01801999999ADDGA1021+003009999GA2071+012009999GA3071+024009999GF107991999999999999999999MA1100911999999MW1101MW2611REMMET136RJAK 222300Z 06010KT 3000 -RA BR FEW010 BKN040 BKN080 20/18 Q1009 RMK 1ST010 5SC040 7AC080 A2980 FCST 2308 BECMG 0002 SCT010CU BKN020CU;EQDQ01+000003PRSWM1Q02    003PRSWM1
0284477160999992000062300004+36300+140200FM-15+0029RJAK V0200501N002610120019N0035001N1+02001+01801999999ADDGA1021+003009999GA2071+012009999GA3081+024009999GF108991999999999999999999MA1100911999999MW1101MW2611REMMET136RJAK 230000Z 05005KT 3500 -RA BR FEW010 BKN040 OVC080 20/18 Q1009 RMK 1CU010 6SC040 8AC080 A2981 FCST 0009 TEMPO 0105 SCT010CU BKN030CU;EQDQ01+000003PRSWM1Q02    003PRSWM1
0236477160999992000062300454+36300+140200FM-15+0029RJAK V0201001N003110120019N0060001N1+02001+01801999999ADDGA1021+003009999GA2071+012009999GA3081+024009999GF108991999999999999999999MA1100911999999MW1611REMMET094RJAK 230045Z 10006KT 6000 -RA FEW010 BKN040 OVC080 20/18 Q1009 RMK 1ST010 5SC040 8AC080 A2981;EQDQ01+000003PRSWM1Q02    003PRSWM1
0236477160999992000062302004+36300+140200FM-15+0029RJAK V0201001N002610120019N0060001N1+02001+01801999999ADDGA1021+003009999GA2071+012009999GA3081+024009999GF108991999999999999999999MA1100911999999MW1611REMMET094RJAK 230200Z 10005KT 6000 -RA FEW010 BKN040 OVC080 20/18 Q1009 RMK 2ST010 5SC040 8AC080 A2980;EQDQ01+000003PRSWM1Q02    003PRSWM1
0245477160999992000062305004+36300+140200FM-15+0029RJAK V0200401N002610024019N0025001N1+01901+01801999999ADDGA1021+001209999GA2071+002409999GA3071+003609999GF107991999999999999999999MA1100811999999MW1101MW2611REMMET097RJAK 230500Z 04005KT 2500 -RA BR FEW004 BKN008 BKN012 19/18 Q1008 RMK 1ST004 5ST008 5SC012 A2977;EQDQ01+000003PRSWM1Q02    003PRSWM1
0198477160999992000062305244+36300+140200FM-16+0029RJAK V0200701N003110042019N0038001N1+02001+99999999999ADDGA1021+002409999GA2071+004209999GA3081+012009999GF108991999999999999999999MW1101REMMET055RJAK 230524Z 07006KT 3800 BR SCT008 BKN014 OVC040 20/1;EQDQ01+000103ATOD  Q02+000003PRSWM1Q03    003PRSWM1
0261477160999992000062306004+36300+140200FM-15+0029RJAK V0200701N003110039019N0038001N1+02001+01801999999ADDGA1021+002409999GA2071+003909999GA3081+012009999GF108991999999999999999999MA1100811999999MW1101MW2611REMMET113RJAK 230600Z 07006KT 3800 -RA BR SCT008 BKN013 OVC040 20/18 Q1008 RMK 3ST008 6SC013 8SC040 A2977 FCST 0615 NOSIG;EQDQ01+000003PRSWM1Q02    003PRSWM1
0216477160999992000062603004+36300+140200FM-15+0029RJAK V0200601N003110033019N0060001N1+02101+01701999999ADDGA1071+003309999GA2081+010509999GF108991999999999999999999MA1101391999999MW1001REMMET106RJAK 260300Z 06006KT 6000 BKN011 OVC035 21/17 Q1014 RMK 6SC011 8SC035 A2995 FCST 0312 BECMG 0305 BKN015SC;EQDQ01+000000PRSWM2
0186477160999992000062604004+36300+140200FM-15+0029RJAK V0200601N003110039019N0080001N1+02201+01801999999ADDGA1071+003909999GA2071+010509999GF107991999999999999999999MA1101391999999MW1001REMMET076RJAK 260400Z 06006KT 8000 BKN013 BKN035 22/18 Q1014 RMK 5SC013 7SC035 A2994;EQDQ01+000000PRSWM2
0216477160999992000062605004+36300+140200FM-15+0029RJAK V0200501N002610075019N0080001N1+02201+01801999999ADDGA1021+004509999GA2071+007509999GA3071+024009999GF107991999999999999999999MA1101291999999MW1001REMMET090RJAK 260500Z 05005KT 8000 SCT015 BKN025 BKN080 22/18 Q1013 RMK 3CU015 5CU025 7AC080 A2993;EQDQ01+000000PRSWM2
0202477160999992000062606004+36300+140200FM-15+0029RJAK V0200801N003110060019N0112651N1+02301+01801999999ADDGA1021+004509999GA2071+006009999GF107991999999999999999999MA1101291999999MW1001REMMET092RJAK 260600Z 08006KT 9999 SCT015 BKN020 23/18 Q1013 RMK 3CU015 6CU020 A2992 FCST 0615 NOSIG;EQDQ01+000000PRSWM2
0162477160999992000062606274+36300+140200FM-16+0029RJAK V0200801N003112200019N0112651N1+02301+01801999999ADDGA1021+006009999GA2021+024009999GF104991999999999999999999MA1101291999999MW1001REMMET052RJAK 260627Z 08006KT 9999 SCT020 SCT080 23/18 Q1013;EQDQ01+000000PRSWM2
0232477160999992000062608004+36300+140200FM-15+0029RJAK V0201101N003110690019N0112651N1+02301+01801999999ADDGA1021+007509999GA2021+036009999GA3071+069009999GF107991999999999999999999MA1101291999999MW1001REMMET106RJAK 260800Z 11006KT 9999 FEW025 SCT120 BKN230 23/18 Q1013 RMK 1CU025 3AC120 5CI230 A2991 FCST 0817 NOSIG;EQDQ01+000000PRSWM2
0250477160999992000062623004+36300+140200FM-15+0029RJAK V0200901N001510300019N0090001N1+02201+01901999999ADDGA1021+007509999GA2021+018009999GA3071+030009999GF107991999999999999999999MA1101191999999MW1001REMMET124RJAK 262300Z 09003KT 9000 FEW025 SCT060 BKN100 22/19 Q1012 RMK 2SC025 3SC060 5AC100 A2989 FCST 2308 BECMG 0608 -RA BKN020SC;EQDQ01+000000PRSWM2
0309477160999992000062700004+36300+140200FM-15+0029RJAK V0201301N002610600019N0112651N1+02401+01901999999ADDGA1021+004509999GA2021+006009999GA3071+060009999GF107991999999999999999999MA1101081999999MW1001REMMET183RJAK 270000Z 13005KT 9999 FEW015 SCT020 BKN200 24/19 Q1011 RMK 1CU015 4CU020 6CI200 A2988 FCST 0009 BECMG 0204 SCT020CU SCT040SC BKN100AC TEMPO 0709 -RA BR BKN020SC BKN040SC OVC100AC;EQDQ01+000000PRSWM2
0216477160999992000062702004+36300+140200FM-15+0029RJAK V0201701N003110300019N0112651N1+02501+01701999999ADDGA1021+004509999GA2071+030009999GA3071+060009999GF107991999999999999999999MA1101021999999MW1001REMMET090RJAK 270200Z 17006KT 9999 FEW015 BKN100 BKN200 25/17 Q1010 RMK 1CU015 5AC100 6CI200 A2984;EQDQ01+000000PRSWM2
0270477160999992000062703004+36300+140200FM-15+0029RJAK V0201601N003610600019N0112651N1+02601+01701999999ADDGA1021+006009999GA2021+007509999GA3071+060009999GF107991999999999999999999MA1101021999999MW1001REMMET144RJAK 270300Z 16007KT 9999 FEW020 SCT025 BKN200 26/17 Q1010 RMK 1CU020 3CU025 6CI200 A2983 FCST 0312 BECMG 0406 BKN025CU BKN100AC TEMPO 0608 -RA;EQDQ01+000000PRSWM2
0216477160999992000062704004+36300+140200FM-15+0029RJAK V0201701N003610075019N0112651N1+02601+01801999999ADDGA1021+006009999GA2071+007509999GA3071+024009999GF107991999999999999999999MA1100911999999MW1001REMMET090RJAK 270400Z 17007KT 9999 FEW020 BKN025 BKN080 26/18 Q1009 RMK 1CU020 5CU025 6AC080 A2980;EQDQ01+000000PRSWM2
0281477160999992000062706004+36300+140200FM-15+0029RJAK V0201701N004110240019N0112651N1+02601+02001999999ADDGA1021+006009999GA2021+007509999GA3071+024009999GF107991999999999999999999MA1100811999999MW1001REMMET155RJAK 270600Z 17008KT 9999 FEW020 SCT025 BKN080 26/20 Q1008 RMK 1CU020 3CU025 7AC080 A2977 FCST 0615 BECMG 0608 SCT020CU BKN025CU BKN040SC BECMG 0810 -SHRA;EQDQ01+000000PRSWM2
0240477160999992000062707394+36300+140200FM-16+0029RJAK V0201401N004610120019N0112651N1+02501+01501999999ADDGA1021+004509999GA2021+006009999GA3071+012009999GF107991999999999999999999MA1100711999999MW1611REMMET098RJAK COR 270739Z 14009KT 9999 -RA FEW015 SCT020 BKN040 25/15 Q1007 RMK 1CU015 3CU020 5SC040 A2976;EQDQ01+000003PRSWM1Q02    003PRSWM1
0284477160999992000062708004+36300+140200FM-15+0029RJAK V0201401N003610120019N0112651N1+02501+02001999999ADDGA1021+004509999GA2021+006009999GA3071+012009999GF107991999999999999999999MA1100711999999MW1611REMMET142RJAK 270800Z 14007KT 9999 -RA FEW015 SCT020 BKN040 25/20 Q1007 RMK 1CU015 3CU020 5SC040 A2976 FCST 0817 BECMG 0911 SCT010CU BKN020SC BKN040SC;EQDQ01+000003PRSWM1Q02    003PRSWM1
0227477160999992000062722004+36300+140200FM-15+0029RJAK V0202001N006710150019N0112651N1+02401+02201999999ADDGA1021+003609999GA2071+015009999GA3081+030009999GF108991999999999999999999MA1100201999999MW1001OC101231REMMET093RJAK 272200Z 20013G24KT 9999 FEW012 BKN050 OVC100 24/22 Q1002 RMK 1ST012 5SC050 8AC100 A2960;EQDQ01+000000PRSWM2
0249477160999992000062723054+36300+140200FM-16+0029RJAK V0202101N005110036019N0112651N1+02501+02201999999ADDGA1021+003009999GA2071+003609999GA3081+004509999GF108991999999999999999999MA1100201999999MW1801OC101031REMMET099RJAK 272305Z 21010G20KT 9999 -SHRA SCT010 BKN012 OVC015 25/22 Q1002 RMK 3ST010 6ST012 8SC015 A2961;EQDQ01+000003PRSWM1Q02    003PRSWM1
0308477160999992000062800004+36300+140200FM-15+0029RJAK V0202101N006710036019N0112651N1+02501+02301999999ADDGA1021+003009999GA2071+003609999GA3081+006009999GF108991999999999999999999MA1100311999999MW1801OC101591REMMET158RJAK 280000Z 21013G31KT 9999 -SHRA SCT010 BKN012 OVC020 25/23 Q1003 RMK 3ST010 6ST012 8CU020 A2962 FCST 0009 BECMG 0103 SCT008ST BKN010ST TEMPO 0309 BKN008ST;EQDQ01+000003PRSWM1Q02    003PRSWM1
0227477160999992000062800264+36300+140200FM-16+0029RJAK V0202101N007210240019N0112651N1+02501+02201999999ADDGA1021+003609999GA2021+010509999GA3071+024009999GF107991999999999999999999MA1100311999999MW1001OC101491REMMET093RJAK 280026Z 21014G29KT 9999 FEW012 SCT035 BKN080 25/22 Q1003 RMK 2ST012 3SC035 5AC080 A2962;EQDQ01+000000PRSWM2
0227477160999992000062801004+36300+140200FM-15+0029RJAK V0202001N008710150019N0112651N1+02501+02101999999ADDGA1021+003609999GA2071+015009999GA3081+030009999GF108991999999999999999999MA1100311999999MW1001OC101701REMMET093RJAK 280100Z 20017G33KT 9999 SCT012 BKN050 OVC100 25/21 Q1003 RMK 3ST012 5SC050 8AC100 A2962;EQDQ01+000000PRSWM2
0249477160999992000062801044+36300+140200FM-16+0029RJAK V0202101N008710135019N0112651N1+02501+02101999999ADDGA1021+003609999GA2071+013509999GA3081+030009999GF108991999999999999999999MA1100201999999MW1801OC102161REMMET099RJAK 280104Z 21017G42KT 9999 -SHRA SCT012 BKN045 OVC100 25/21 Q1002 RMK 3ST012 6SC045 8AC100 A2961;EQDQ01+000003PRSWM1Q02    003PRSWM1
0227477160999992000062802004+36300+140200FM-15+0029RJAK V0202101N007710135019N0112651N1+02501+02001999999ADDGA1021+004509999GA2071+013509999GA3071+030009999GF107991999999999999999999MA1100201999999MW1001OC101801REMMET093RJAK 280200Z 21015G35KT 9999 FEW015 BKN045 BKN100 25/20 Q1002 RMK 1CU015 6SC045 7AC100 A2961;EQDQ01+000000PRSWM2
0335477160999992000062803004+36300+140200FM-15+0029RJAK V0202001N008210075019N0112651N1+02501+02101999999ADDGA1021+003609999GA2071+007509999GA3071+013509999GF107991999999999999999999MA1100201999999MW1801OC101701REMMET185RJAK 280300Z 20016G33KT 9999 -SHRA FEW012 BKN025 BKN045 25/21 Q1002 RMK 1CU012 5CU025 7SC045 A2960 FCST 0312 TEMPO 0308 20020G40KT BECMG 0304 BKN008ST BKN010ST TEMPO 0408 4000 -SHRA BR;EQDQ01+000003PRSWM1Q02    003PRSWM1
0258477160999992000062803204+36300+140200FM-15+0029RJAK V0202001N008210036019N0050001N1+02301+02201999999ADDGA1021+002409999GA2071+003609999GA3071+007509999GF107991999999999999999999MA1100201999999MW1101MW2801OC101541REMMET102RJAK 280320Z 20016G30KT 5000 -SHRA BR FEW008 BKN012 BKN025 23/22 Q1002 RMK 1ST008 5ST012 7CU025 A2959;EQDQ01+000003PRSWM1Q02    003PRSWM1
0258477160999992000062804004+36300+140200FM-15+0029RJAK V0202001N009810036019N0045001N1+02301+02101999999ADDGA1021+002409999GA2071+003609999GA3071+007509999GF107991999999999999999999MA1100101999999MW1101MW2801OC101851REMMET102RJAK 280400Z 20019G36KT 4500 -SHRA BR SCT008 BKN012 BKN025 23/21 Q1001 RMK 3ST008 6ST012 7CU025 A2957;EQDQ01+000003PRSWM1Q02    003PRSWM1
0313477160999992000062806004+36300+140200FM-15+0029RJAK V0202101N007210030019N0040001N1+02201+02101999999ADDGA1021+002709999GA2071+003009999GA3071+007509999GF107991999999999999999999MA1100101999999MW1101MW2801OC101391REMMET157RJAK 280600Z 21014G27KT 4000 -SHRA BR SCT009 BKN010 BKN025 22/21 Q1001 RMK 3ST009 5ST010 6CU025 A2958 FCST 0615 TEMPO 0609 BKN008ST TEMPO 0915 SHRA BKN008ST;EQDQ01+000003PRSWM1Q02    003PRSWM1
0247477160999992000062807004+36300+140200FM-15+0029RJAK V0202001N006210075019N0050001N1+02301+02201999999ADDGA1021+002709999GA2021+003609999GA3071+007509999GF107991999999999999999999MA1100101999999MW1101MW2801REMMET099RJAK 280700Z 20012KT 5000 -SHRA BR FEW009 SCT012 BKN025 23/22 Q1001 RMK 1ST009 4ST012 5CU025 A2956;EQDQ01+000003PRSWM1Q02    003PRSWM1
0268477160999992000062807104+36300+140200FM-16+0029RJAK V0201901N006710033019N0045001N1+02301+02201999999ADDGA1021+002709999GA2071+003309999GA3071+007509999GF107991999999999999999999MA1100001999999MW1801OC101231REMMET102RJAK 280710Z 19013G24KT 4500 -SHRA BR FEW009 BKN011 BKN025 23/22 Q1000 RMK 1ST009 5ST011 6CU025 A2955;EQDQ01+000100PRSWM3Q02+000003PRSWM1Q03    003PRSWM1
0230477160999992000062823004+36300+140200FM-15+0029RJAK V0202001N003112200019N0045001N1+02401+02201999999ADDGA1021+002409999GA2021+003609999GF104991999999999999999999MA1100611999999MW1101REMMET104RJAK 282300Z 20006KT 4500 BR FEW008 SCT012 24/22 Q1006 RMK 1ST008 3CU012 A2973 FCST 2308 BECMG 2301 NSW;EQDQ01+000003PRSWM1Q02    003PRSWM1
0205477160999992000062823104+36300+140200FM-16+0029RJAK V0202001N002110045019N0050001N1+02401+02201999999ADDGA1021+003009999GA2071+004509999GF107991999999999999999999MA1100711999999MW1101REMMET079RJAK 282310Z 20004KT 5000 BR FEW010 BKN015 24/22 Q1007 RMK 1CU010 7CU015 A2973;EQDQ01+000003PRSWM1Q02    003PRSWM1
0255477160999992000062900004+36300+140200FM-15+0029RJAK V0202201N002610060019N0060001N1+02501+02201999999ADDGA1021+003609999GA2071+006009999GA3071+036009999GF107991999999999999999999MA1100711999999MW1001REMMET129RJAK 290000Z 22005KT 6000 SCT012 BKN020 BKN120 25/22 Q1007 RMK 3CU012 6CU020 6AC120 A2974 FCST 0009 TEMPO 0106 FEW015CU SCT020CU;EQDQ01+000000PRSWM2
0216477160999992000062902004+36300+140200FM-15+0029RJAK V0201901N005710045019N0080001N1+02601+02201999999ADDGA1021+003009999GA2071+004509999GA3071+030009999GF107991999999999999999999MA1100711999999MW1001REMMET090RJAK 290200Z 19011KT 8000 FEW010 BKN015 BKN100 26/22 Q1007 RMK 2CU010 5CU015 6AC100 A2975;EQDQ01+000000PRSWM2
0227477160999992000062902384+36300+140200FM-16+0029RJAK V0202101N006710075019N0112651N1+02701+02201999999ADDGA1021+004509999GA2071+007509999GA3071+030009999GF107991999999999999999999MA1100711999999MW1001OC101341REMMET093RJAK 290238Z 21013G26KT 9999 FEW015 BKN025 BKN100 27/22 Q1007 RMK 1CU015 5CU025 7AC100 A2975;EQDQ01+000000PRSWM2
0248477160999992000062903004+36300+140200FM-15+0029RJAK V0202101N005110075019N0112651N1+02601+02201999999ADDGA1021+004509999GA2071+007509999GA3071+030009999GF107991999999999999999999MA1100711999999MW1001REMMET122RJAK 290300Z 21010KT 9999 FEW015 BKN025 BKN100 26/22 Q1007 RMK 2CU015 5CU025 7AC100 A2975 FCST 0312 TEMPO 0306 21010G21KT;EQDQ01+000000PRSWM2
0227477160999992000062903154+36300+140200FM-16+0029RJAK V0202101N005710075019N0112651N1+02701+02201999999ADDGA1021+004509999GA2071+007509999GA3071+030009999GF107991999999999999999999MA1100711999999MW1001OC101181REMMET093RJAK 290315Z 21011G23KT 9999 FEW015 BKN025 BKN100 27/22 Q1007 RMK 1CU015 5CU025 7AC100 A2974;EQDQ01+000000PRSWM2
0227477160999992000062905004+36300+140200FM-15+0029RJAK V0202201N007710300019N0112651N1+02601+02101999999ADDGA1021+004509999GA2021+007509999GA3071+030009999GF107991999999999999999999MA1100711999999MW1001OC101541REMMET093RJAK 290500Z 22015G30KT 9999 FEW015 SCT025 BKN100 26/21 Q1007 RMK 1CU015 3CU025 7AC100 A2974;EQDQ01+000000PRSWM2
0249477160999992000062905304+36300+140200FM-15+0029RJAK V0202001N006210240019N0112651N1+02601+02101999999ADDGA1021+003009999GA2021+012009999GA3071+024009999GF107991999999999999999999MA1100711999999MW1801OC101181REMMET099RJAK 290530Z 20012G23KT 9999 -SHRA FEW010 SCT040 BKN080 26/21 Q1007 RMK 1CU010 4SC040 7AC080 A2973;EQDQ01+000003PRSWM1Q02    003PRSWM1
0254477160999992000062906004+36300+140200FM-15+0029RJAK V0202101N005710120019N0112651N1+02501+02201999999ADDGA1021+003009999GA2071+012009999GA3071+024009999GF107991999999999999999999MA1100611999999MW1001REMMET128RJAK 290600Z 21011KT 9999 FEW010 BKN040 BKN080 25/22 Q1006 RMK 1CU010 5SC040 7AC080 A2973 FCST 0615 TEMPO 0608 22010G21KT -SHRA;EQDQ01+000000PRSWM2
0249477160999992000062906284+36300+140200FM-16+0029RJAK V0202001N004610048019N0112651N1+02501+02201999999ADDGA1021+004209999GA2071+004809999GA3071+012009999GF107991999999999999999999MA1100611999999MW1801OC100981REMMET099RJAK 290628Z 20009G19KT 9999 -SHRA FEW014 BKN016 BKN040 25/22 Q1006 RMK 2CU014 5CU016 6SC040 A2973;EQDQ01+000003PRSWM1Q02    003PRSWM1
0216477160999992000062907004+36300+140200FM-15+0029RJAK V0202001N005710048019N0112651N1+02501+02301999999ADDGA1021+004209999GA2071+004809999GA3071+012009999GF107991999999999999999999MA1100611999999MW1001REMMET090RJAK 290700Z 20011KT 9999 SCT014 BKN016 BKN040 25/23 Q1006 RMK 3CU014 5CU016 6SC040 A2973;EQDQ01+000000PRSWM2
0256477160999992000062908004+36300+140200FM-15+0029RJAK V0201901N007210240019N0112651N1+02601+02301999999ADDGA1021+004809999GA2021+012009999GA3071+024009999GF107991999999999999999999MA1100611999999MW1001OC101291REMMET122RJAK 290800Z 19014G25KT 9999 FEW016 SCT040 BKN080 26/23 Q1006 RMK 1CU016 4SC040 6AC080 A2972 FCST 0817 BECMG 0810 20010KT;EQDQ01+000000PRSWM2
0216477160999992000062922004+36300+140200FM-15+0029RJAK V0202301N003110033019N0090001N1+02501+02201999999ADDGA1021+002709999GA2071+003309999GA3071+006009999GF107991999999999999999999MA1100911999999MW1001REMMET090RJAK 292200Z 23006KT 9000 FEW009 BKN011 BKN020 25/22 Q1009 RMK 1CU009 6CU011 7CU020 A2982;EQDQ01+000000PRSWM2
0277477160999992000062923004+36300+140200FM-15+0029RJAK V0202301N003110045019N0090001N1+02501+02301999999ADDGA1021+003309999GA2071+004509999GA3071+006009999GF107991999999999999999999MA1101021999999MW1001REMMET151RJAK 292300Z 23006KT 9000 SCT011 BKN015 BKN020 25/23 Q1010 RMK 3CU011 6CU015 7CU020 A2983 FCST 2308 TEMPO 0206 20012G25KT BECMG 0203 SCT010SC BKN040SC;EQDQ01+000000PRSWM2
0247477160999992000063000004+36300+140200FM-15+0029RJAK V0202101N003610045019N0090001N1+02601+02301999999ADDGA1071+004509999GA2071+006009999GF107991999999999999999999MA1100911999999MW1001REMMET137RJAK 300000Z 21007KT 9000 BKN015 BKN020 26/23 Q1009 RMK 6CU015 7CU020 A2981 FCST 0009 TEMPO 0106 21010G20KT BECMG 0204 SCT015CU BKN035SC;EQDQ01+000000PRSWM2
0227477160999992000063001004+36300+140200FM-15+0029RJAK V0202101N004110045019N0112651N1+02601+02301999999ADDGA1021+003609999GA2071+004509999GA3071+006009999GF107991999999999999999999MA1100911999999MW1001OC100981REMMET093RJAK 300100Z 21008G19KT 9999 FEW012 BKN015 BKN020 26/23 Q1009 RMK 2CU012 6CU015 7CU020 A2982;EQDQ01+000000PRSWM2
0227477160999992000063002004+36300+140200FM-15+0029RJAK V0202101N005110060019N0112651N1+02801+02301999999ADDGA1021+004509999GA2071+006009999GA3071+069009999GF107991999999999999999999MA1100911999999MW1001OC101131REMMET093RJAK 300200Z 21010G22KT 9999 FEW015 BKN020 BKN230 28/23 Q1009 RMK 2CU015 5CU020 7CI230 A2981;EQDQ01+000000PRSWM2
0216477160999992000063002304+36300+140200FM-15+0029RJAK V0202001N005110150019N0112651N1+02801+02401999999ADDGA1021+004509999GA2071+015009999GA3071+030009999GF107991999999999999999999MA1100911999999MW1001REMMET090RJAK 300230Z 20010KT 9999 FEW015 BKN050 BKN100 28/24 Q1009 RMK 1CU015 5SC050 6AC100 A2980;EQDQ01+000000PRSWM2
0286477160999992000063003004+36300+140200FM-15+0029RJAK V0201901N005710360019N0112651N1+02701+02301999999ADDGA1021+004509999GA2021+015009999GA3071+036009999GF107991999999999999999999MA1100911999999MW1001REMMET160RJAK 300300Z 19011KT 9999 FEW015 SCT050 BKN120 27/23 Q1009 RMK 1CU015 3SC050 5AC120 A2980 FCST 0312 TEMPO 0306 20012G24KT TEMPO 0612 FEW015CU BKN025CU BKN100AC;EQDQ01+000000PRSWM2
0186477160999992000063004004+36300+140200FM-15+0029RJAK V0202001N005110630019N0112651N1+02901+02401999999ADDGA1021+004509999GA2071+063009999GF107991999999999999999999MA1100811999999MW1001REMMET076RJAK 300400Z 20010KT 9999 FEW015 BKN210 29/24 Q1008 RMK 1CU015 7CI210 A2978;EQDQ01+000000PRSWM2
0216477160999992000063005004+36300+140200FM-15+0029RJAK V0202101N005110630019N0112651N1+02801+02401999999ADDGA1021+004509999GA2021+036009999GA3071+063009999GF107991999999999999999999MA1100811999999MW1001REMMET090RJAK 300500Z 21010KT 9999 FEW015 SCT120 BKN210 28/24 Q1008 RMK 1CU015 3AC120 7CI210 A2979;EQDQ01+000000PRSWM2
0227477160999992000063005284+36300+140200FM-16+0029RJAK V0202101N005710630019N0112651N1+02801+02401999999ADDGA1021+004509999GA2021+036009999GA3071+063009999GF107991999999999999999999MA1100811999999MW1001OC101081REMMET093RJAK 300528Z 21011G21KT 9999 FEW015 SCT120 BKN210 28/24 Q1008 RMK 1CU015 3AC120 6CI210 A2979;EQDQ01+000000PRSWM2
0255477160999992000063006004+36300+140200FM-15+0029RJAK V0202001N005110630019N0112651N1+02901+02401999999ADDGA1021+004509999GA2021+036009999GA3071+063009999GF107991999999999999999999MA1100811999999MW1001REMMET129RJAK 300600Z 20010KT 9999 FEW015 SCT120 BKN210 29/24 Q1008 RMK 1CU015 3AC120 6CI210 A2978 FCST 0615 TEMPO 0815 SCT040SC BKN120AC;EQDQ01+000000PRSWM2
0227477160999992000063007004+36300+140200FM-15+0029RJAK V0202001N005710630019N0112651N1+02801+02401999999ADDGA1021+004509999GA2021+036009999GA3071+063009999GF107991999999999999999999MA1100811999999MW1001OC101081REMMET093RJAK 300700Z 20011G21KT 9999 FEW015 SCT120 BKN210 28/24 Q1008 RMK 1CU015 4AC120 6CI210 A2979;EQDQ01+000000PRSWM2
0225477160999992000063008004+36300+140200FM-15+0029RJAK V0202201N004610630019N0112651N1+02701+02301999999ADDGA1021+036009999GA2071+063009999GF107991999999999999999999MA1100911999999MW1001REMMET115RJAK 300800Z 22009KT 9999 SCT120 BKN210 27/23 Q1009 RMK 3AC120 6CI210 A2979 FCST 0817 TEMPO 1117 SCT040SC BKN120AC;EQDQ01+000000PRSWM2
0256477160999992000070108004+36300+140200FM-15+0029RJAK V0202101N002612200019N0112651N1+03001+02501999999ADDGA1021+007509999GA2021+009009099GF102991999999999999999999MA1101021999999MW1001REMMET146RJAK 010800Z 21005KT 9999 FEW025 FEW030CB 30/25 Q1010 RMK 1CU025 1CB030 A2985 CB NW MOV UNK FCST 0817 TEMPO 1012 -SHRA SCT020CU FEW025CB BKN030CU;EQDQ01+000000PRSWM2
0202477160999992000070109004+36300+140200FM-15+0029RJAK V0202001N004112200019N0112651N1+02801+02301999999ADDGA1021+007509999GA2021+009009099GF102991999999999999999999MA1101081999999MW1001REMMET092RJAK 010900Z 20008KT 9999 FEW025 FEW030CB 28/23 Q1011 RMK 1CU025 1CB030 A2986 CB NW MOV UNK;EQDQ01+000000PRSWM2
0156477160999992000070222004+36300+140200FM-15+0029RJAK V0202701N002112200019N0060001N1+02501+02201999999ADDGA1021+036009999GF102991999999999999999999MA1101191999999MW1001REMMET062RJAK 022200Z 27004KT 6000 FEW120 25/22 Q1012 RMK 2AC120 A2990;EQDQ01+000000PRSWM2
0201477160999992000070223004+36300+140200FM-15+0029RJAK V0202801N002612200019N0090001N1+02601+02201999999ADDGA1021+036009999GF102991999999999999999999MA1101191999999MW1001REMMET107RJAK 022300Z 28005KT 9000 FEW120 26/22 Q1012 RMK 2AC120 A2990 FCST 2308 TEMPO 0608 -TSRA SCT020CB BKN030CU;EQDQ01+000000PRSWM2
0201477160999992000070300004+36300+140200FM-15+0029RJAK V0202901N002112200019N0112651N1+02701+02201999999ADDGA1021+036009999GF102991999999999999999999MA1101191999999MW1001REMMET107RJAK 030000Z 29004KT 9999 FEW120 27/22 Q1012 RMK 2AC120 A2990 FCST 0009 TEMPO 0609 -TSRA SCT020CB BKN030CU;EQDQ01+000000PRSWM2
0186477160999992000070302004+36300+140200FM-15+0029RJAK V0201101N002610300019N0112651N1+03101+02301999999ADDGA1021+009009999GA2071+030009999GF107991999999999999999999MA1101191999999MW1001REMMET076RJAK 030200Z 11005KT 9999 FEW030 BKN100 31/23 Q1012 RMK 1CU030 5AC100 A2989;EQDQ01+000000PRSWM2
0242477160999992000070303004+36300+140200FM-15+0029RJAK V0201201N002112200019N0112651N1+03101+02301999999ADDGA1021+009009999GA2021+030009999GF104991999999999999999999MA1101191999999MW1001REMMET132RJAK 030300Z 12004KT 9999 FEW030 SCT100 31/23 Q1012 RMK 2CU030 3AC100 A2988 FCST 0312 TEMPO 0612 SCT020CB BKN030CU TEMPO 0710 -TSRA;EQDQ01+000000PRSWM2
0156477160999992000070304004+36300+140200FM-15+0029RJAK V0200701N004612200019N0112651N1+03101+02301999999ADDGA1021+009009999GF102991999999999999999999MA1101081999999MW1001REMMET062RJAK 030400Z 07009KT 9999 FEW030 31/23 Q1011 RMK 2CU030 A2987;EQDQ01+000000PRSWM2
0253477160999992000070305384+36300+140200FM-16+0029RJAK V0200801N004110690019N0112651N1+02901+02101999999ADDGA1021+007509999GA2021+009009099GA3071+069009999GF107991999999999999999999MA1101021999999MW1171REMMET111RJAK 030538Z 08008KT 9999 TS FEW025 SCT030CB BKN230 29/21 Q1010 RMK 2CU025 3CB030 5CI230 A2985 FBL TS SW MOV E;EQDQ01+000003PRSWM1Q02    003PRSWM1
0262477160999992000070306004+36300+140200FM-15+0029RJAK V0201001N003610690019N0112651N1+02901+02201999999ADDGA1021+007509999GA2021+009009099GA3071+069009999GF107991999999999999999999MA1101081999999MW1001REMMET136RJAK 030600Z 10007KT 9999 SCT025 FEW030CB BKN230 29/22 Q1011 RETS RMK 3CU025 2CB030 5CI230 A2985 CB SW MOV E FCST 0615 TEMPO 0610 -TSRA;EQDQ01+000000PRSWM2
0235477160999992000070307004+36300+140200FM-15+0029RJAK V0201201N004110690019N0112651N1+03001+02101999999ADDGA1021+007509999GA2021+009009099GA3071+069009999GF107991999999999999999999MA1101021999999MW1001REMMET109RJAK 030700Z 12008KT 9999 FEW025 FEW030CB BKN230 30/21 Q1010 RETS RMK 2CU025 2CB030 5CI230 A2985 CB S MOV NE;EQDQ01+000000PRSWM2
0257477160999992000070308004+36300+140200FM-15+0029RJAK V0201301N003610690019N0112651N1+03001+02101999999ADDGA1021+007509999GA2021+009009099GA3071+069009999GF107991999999999999999999MA1101021999999MW1001REMMET131RJAK 030800Z 13007KT 9999 FEW025 FEW030CB BKN230 30/21 Q1010 RMK 2CU025 1CB030 5CI230 A2984 CB SW MOV E FCST 0817 TEMPO 0911 -TSRA;EQDQ01+000000PRSWM2
0186477160999992000070322004+36300+140200FM-15+0029RJAK V0202001N001010600019N0060001N1+02401+02201999999ADDGA1021+007509999GA2071+060009999GF107991999999999999999999MA1101291999999MW1001REMMET076RJAK 032200Z 20002KT 6000 FEW025 BKN200 24/22 Q1013 RMK 1CU025 6CI200 A2991;EQDQ01+000000PRSWM2
0231477160999992000070323004+36300+140200FM-15+0029RJAK V02099999999990600019N0060001N1+02601+02101999999ADDGA1021+007509999GA2071+060009999GF107991999999999999999999MA1101291999999MW1001REMMET121RJAK 032300Z VRB02KT 6000 FEW025 BKN200 26/21 Q1013 RMK 1CU025 7CI200 A2991 FCST 2308 TEMPO 0308 -TSRA BKN020CB SCT030CU;EQDQ01+000000PRSWM2
0258477160999992000070400004+36300+140200FM-15+0029RJAK V0200801N002110600019N9999999N1+02801+02201999999ADDGA1021+030009999GA2071+060009999GF107991999999999999999999MA1101291999999MW1001REMMET132RJAK 040000Z 08004KT 7000 FEW100 BKN200 28/22 Q1013 RMK 1AC100 7CI200 A2991 FCST 0009 TEMPO 0309 BKN020CB SCT030CU TEMPO 0408 -TSRA;EQDQ01+070002VODIS Q02+000000PRSWM2
0232477160999992000070401004+36300+140200FM-15+0029RJAK V0200801N003110600019N9999999N1+02801+02101999999ADDGA1021+007509999GA2021+030009999GA3071+060009999GF107991999999999999999999MA1101291999999MW1001REMMET090RJAK 040100Z 08006KT 7000 FEW025 SCT100 BKN200 28/21 Q1013 RMK 1CU025 3AC100 7CI200 A2992;EQDQ01+070002VODIS Q02+000000PRSWM2
0202477160999992000070402004+36300+140200FM-15+0029RJAK V0200901N004110600019N0090001N1+02801+02101999999ADDGA1021+007509999GA2071+060009999GF107991999999999999999999MA1101291999999MW1001REMMET076RJAK 040200Z 09008KT 7000 FEW025 BKN200 28/21 Q1013 RMK 1CU025 6CI200 A2991;EQDQ01+070002VODIS Q02+000000PRSWM2
0231477160999992000070403004+36300+140200FM-15+0029RJAK V0200801N005110600019N0090001N1+02901+02201999999ADDGA1021+009009999GA2071+060009999GF107991999999999999999999MA1101191999999MW1001REMMET121RJAK 040300Z 08010KT 9000 FEW030 BKN200 29/22 Q1012 RMK 1CU030 7CI200 A2989 FCST 0312 TEMPO 0410 -TSRA BKN020CB SCT030CU;EQDQ01+000000PRSWM2
0186477160999992000070404004+36300+140200FM-15+0029RJAK V0200901N004610600019N0080001N1+02901+02001999999ADDGA1021+009009999GA2071+060009999GF107991999999999999999999MA1101081999999MW1001REMMET076RJAK 040400Z 09009KT 8000 FEW030 BKN200 29/20 Q1011 RMK 1CU030 6CI200 A2988;EQDQ01+000000PRSWM2
0216477160999992000070405004+36300+140200FM-15+0029RJAK V0201001N004110600019N0080001N1+02801+02001999999ADDGA1021+009009999GA2021+036009999GA3071+060009999GF107991999999999999999999MA1101081999999MW1001REMMET090RJAK 040500Z 10008KT 8000 FEW030 SCT120 BKN200 28/20 Q1011 RMK 2CU030 3AC120 7CI200 A2987;EQDQ01+000000PRSWM2
0263477160999992000070407004+36300+140200FM-15+0029RJAK V0200601N005710240019N0080001N1+02501+02001999999ADDGA1021+009009999GA2021+010509029GA3071+024009999GA4071+060009999GF107991999999999999999999MA1101081999999MW1001REMMET121RJAK 040700Z 06011KT 8000 FEW030 FEW035TCU BKN080 BKN200 25/20 Q1011 RMK 2CU030 1TCU035 5AC080 7CI200 A2986 TCU W MOV SE;EQDQ01+000000PRSWM2
0282477160999992000070408004+36300+140200FM-15+0029RJAK V0200701N004610240019N0060001N1+02301+02101999999ADDGA1021+009009999GA2071+024009999GA3071+060009999GF107991999999999999999999MA1101081999999MW1801REMMET140RJAK 040800Z 07009KT 6000 -SHRA SCT030 BKN080 BKN200 23/21 Q1011 RMK 4CU030 6AC080 7CI200 A2987 FCST 087 TEMPO 0911 -TSRA BKN030CU SCT035CB;EQDQ01+000003PRSWM1Q02    003PRSWM1
0186477160999992000070422004+36300+140200FM-15+0029RJAK V0200301N001512200019N0070001N1+02101+01901999999ADDGA1021+006009999GA2021+069009999GF104991999999999999999999MA1101291999999MW1001REMMET076RJAK 042200Z 03003KT 7000 FEW020 SCT230 21/19 Q1013 RMK 1CU020 4CI230 A2991;EQDQ01+000000PRSWM2
0216477160999992000070422254+36300+140200FM-15+0029RJAK V0200501N002610090019N0080001N1+02201+01901999999ADDGA1021+007509999GA2071+009009999GA3071+069009999GF107991999999999999999999MA1101291999999MW1001REMMET090RJAK 042225Z 05005KT 8000 FEW025 BKN030 BKN230 22/19 Q1013 RMK 2CU025 5CU030 5CI230 A2993;EQDQ01+000000PRSWM2
0236477160999992000070423004+36300+140200FM-15+0029RJAK V0200701N002112200019N0112651N1+02301+01801999999ADDGA1021+006009999GA2021+009009999GF104991999999999999999999MA1101291999999MW1001REMMET126RJAK 042300Z 07004KT 9999 FEW020 SCT030 23/18 Q1013 RMK 1CU020 3CU030 A2993 FCST 2308 TEMPO 2301 BKN025CU TEMPO 0708 BKN030CU;EQDQ01+000000PRSWM2
0271477160999992000070500004+36300+140200FM-15+0029RJAK V0200401N003112200019N0112651N1+02301+01901999999ADDGA1021+006009999GA2021+069009999GF104991999999999999999999MA1101291999999MW1001REMMET161RJAK 050000Z 04006KT 9999 SCT020 SCT230 23/19 Q1013 RMK 3CU020 4CI230 A2992 FCST 0009 TEMPO 0002 BKN025CU SCT230CI TEMPO 0709 BKN030CU BKN230CI TEMPO 0809 -SHRA;EQDQ01+000000PRSWM2
0186477160999992000070501004+36300+140200FM-15+0029RJAK V0200701N001510690019N0112651N1+02401+01901999999ADDGA1021+006009999GA2071+069009999GF107991999999999999999999MA1101191999999MW1001REMMET076RJAK 050100Z 07003KT 9999 SCT020 BKN230 24/19 Q1012 RMK 3CU020 5CI230 A2991;EQDQ01+000000PRSWM2
0186477160999992000070502004+36300+140200FM-15+0029RJAK V0200801N001510690019N0112651N1+02501+01901999999ADDGA1021+006009999GA2071+069009999GF107991999999999999999999MA1101191999999MW1001REMMET076RJAK 050200Z 08003KT 9999 SCT020 BKN230 25/19 Q1012 RMK 4CU020 6CI230 A2989;EQDQ01+000000PRSWM2
0251477160999992000070503004+36300+140200FM-15+0029RJAK V0201201N001510690019N0112651N1+02601+01901999999ADDGA1021+006009999GA2071+069009999GF107991999999999999999999MA1101081999999MW1001REMMET141RJAK 050300Z 12003KT 9999 SCT020 BKN230 26/19 Q1011 RMK 4CU020 5CI230 A2988 FCST 0312 TEMPO 0511 BKN020CU SCT030CU BKN230CI TEMPO 0810 -SHRA;EQDQ01+000000PRSWM2
0186477160999992000070505004+36300+140200FM-15+0029RJAK V0201201N002612200019N0112651N1+02701+01901999999ADDGA1021+006009999GA2021+069009999GF104991999999999999999999MA1101021999999MW1001REMMET076RJAK 050500Z 12005KT 9999 SCT020 SCT230 27/19 Q1010 RMK 3CU020 4CI230 A2985;EQDQ01+000000PRSWM2
0233477160999992000070507004+36300+140200FM-15+0029RJAK V0200901N004610690019N0112651N1+02601+01801999999ADDGA1021+006009999GA2021+009009029GA3071+069009999GF107991999999999999999999MA1101021999999MW1001REMMET107RJAK 050700Z 09009KT 9999 SCT020 FEW030TCU BKN230 26/18 Q1010 RMK 3CU020 2TCU030 5CI230 A2983 TCU NW MOV E;EQDQ01+000000PRSWM2
0316477160999992000070508004+36300+140200FM-15+0029RJAK V0200801N00621030001CN0112651N1+02501+02001999999ADDGA1021+006009999GA2021+009009029GA3021+030009999GA4071+069009999GF107991999999999999999999MA1101021999999MW1001REMMET174RJAK 050800Z 08012KT 9999 FEW020 FEW030TCU SCT100 BKN230 25/20 Q1010 RMK 2CU020 1TCU030 3AC100 6CI230 A2984 TCU N MOV E FCST 0817 TEMPO 1012 -SHRA BKN020CU SCT100AC BKN230CI;EQDQ01+000000PRSWM2
0281477160999992000070523004+36300+140200FM-15+0029RJAK V0200801N003110024019N0060001N1+02101+01901999999ADDGA1071+002409999GA2071+003009999GA3081+004509999GF108991999999999999999999MA1101191999999MW1001REMMET155RJAK 052300Z 08006KT 6000 BKN008 BKN010 OVC015 21/19 Q1012 RMK 5ST008 6ST010 8SC015 A2989 FCST 2308 BECMG 0002 SCT010ST SCT025CU TEMPO 0608 -SHRA BKN025CU;EQDQ01+000000PRSWM2
0186477160999992000070601004+36300+140200FM-15+0029RJAK V0200801N003610060019N0080001N1+02401+01901999999ADDGA1021+004209999GA2071+006009999GF107991999999999999999999MA1101191999999MW1001REMMET076RJAK 060100Z 08007KT 8000 SCT014 BKN020 24/19 Q1012 RMK 4CU014 7CU020 A2989;EQDQ01+000000PRSWM2
0186477160999992000070602004+36300+140200FM-15+0029RJAK V0200901N004110075019N0080001N1+02401+01901999999ADDGA1021+004509999GA2071+007509999GF107991999999999999999999MA1101191999999MW1001REMMET076RJAK 060200Z 09008KT 8000 SCT015 BKN025 24/19 Q1012 RMK 4CU015 7CU025 A2989;EQDQ01+000000PRSWM2
0216477160999992000070603004+36300+140200FM-15+0029RJAK V0200701N003112200019N0080001N1+02401+02001999999ADDGA1021+007509999GA2021+009009999GF104991999999999999999999MA1101081999999MW1001REMMET106RJAK 060300Z 07006KT 8000 FEW025 SCT030 24/20 Q1011 RMK 1CU025 3CU030 A2987 FCST 0312 TEMPO 0609 BKN030CU;EQDQ01+000000PRSWM2
0172477160999992000070606004+36300+140200FM-15+0029RJAK V0200601N005712200019N0112651N1+02701+01901999999ADDGA1021+006009999GF102991999999999999999999MA1101021999999MW1001REMMET078RJAK 060600Z 06011KT 9999 FEW020 27/19 Q1010 RMK 1CU020 A2983 FCST 0615 NOSIG;EQDQ01+000000PRSWM2
0156477160999992000070607004+36300+140200FM-15+0029RJAK V0200901N004612200019N0112651N1+02701+02001999999ADDGA1021+006009999GF102991999999999999999999MA1100911999999MW1001REMMET062RJAK 060700Z 09009KT 9999 FEW020 27/20 Q1009 RMK 2CU020 A2982;EQDQ01+000000PRSWM2
0205477160999992000070622204+36300+140200FM-15+0029RJAK V0200601N005110003019N0025001N1+02001+01901999999ADDGA1071+000309999GA2081+000609999GF108991999999999999999999MA1100911999999MW1101REMMET079RJAK 062220Z 06010KT 2500 BR BKN001 OVC002 20/19 Q1009 RMK 5ST001 8ST002 A2981;EQDQ01+000003PRSWM1Q02    003PRSWM1
0272477160999992000070700004+36300+140200FM-15+0029RJAK V0200501N004610018019N0045001N1+02101+02001999999ADDGA1021+001209999GA2081+001809999GF108991999999999999999999MA1100911999999MW1101REMMET146RJAK 070000Z 05009KT 4500 BR SCT004 OVC006 21/20 Q1009 RMK 3ST004 8ST006 A2980 FCST 0009 TEMPO 0304 SCT008ST BKN010ST TEMPO 0309 11020G40KT -SHRA;EQDQ01+000003PRSWM1Q02    003PRSWM1
0205477160999992000070701004+36300+140200FM-15+0029RJAK V0200601N005710024019N0050001N1+02201+02001999999ADDGA1021+001509999GA2081+002409999GF108991999999999999999999MA1100811999999MW1101REMMET079RJAK 070100Z 06011KT 5000 BR SCT005 OVC008 22/20 Q1008 RMK 3ST005 8ST008 A2978;EQDQ01+000003PRSWM1Q02    003PRSWM1
0186477160999992000070702004+36300+140200FM-15+0029RJAK V0200601N005110036019N0070001N1+02201+02001999999ADDGA1021+002709999GA2081+003609999GF108991999999999999999999MA1100811999999MW1001REMMET076RJAK 070200Z 06010KT 7000 SCT009 OVC012 22/20 Q1008 RMK 4ST009 8CU012 A2978;EQDQ01+000000PRSWM2
0264477160999992000070703004+36300+140200FM-15+0029RJAK V0200601N005710036019N0070001N1+02301+02001999999ADDGA1021+002409999GA2081+003609999GF108991999999999999999999MA1100711999999MW1001REMMET154RJAK 070300Z 06011KT 7000 SCT008 OVC012 23/20 Q1007 RMK 4ST008 8CU012 A2976 FCST 0312 TEMPO 0406 -SHRA BECMG 0608 BKN008ST OVC010CU TEMPO 0812 10015G30KT;EQDQ01+000000PRSWM2
0208477160999992000070703124+36300+140200FM-16+0029RJAK V0200601N005110036019N0070001N1+02201+02001999999ADDGA1021+002409999GA2081+003609999GF108991999999999999999999MA1100711999999MW1801REMMET082RJAK 070312Z 06010KT 7000 -SHRA SCT008 OVC012 22/20 Q1007 RMK 4ST008 8CU012 A2975;EQDQ01+000003PRSWM1Q02    003PRSWM1
0216477160999992000070704004+36300+140200FM-15+0029RJAK V0200601N005110030019N0070001N1+02301+02001999999ADDGA1021+002709999GA2071+003009999GA3081+003609999GF108991999999999999999999MA1100711999999MW1001REMMET090RJAK 070400Z 06010KT 7000 SCT009 BKN010 OVC012 23/20 Q1007 RMK 3ST009 5ST010 8CU012 A2974;EQDQ01+000000PRSWM2
0216477160999992000070705004+36300+140200FM-15+0029RJAK V0200601N005710045019N0080001N1+02301+02001999999ADDGA1021+003009999GA2071+004509999GA3081+009009999GF108991999999999999999999MA1100611999999MW1001REMMET090RJAK 070500Z 06011KT 8000 FEW010 BKN015 OVC030 23/20 Q1006 RMK 1ST010 5CU015 8CU030 A2971;EQDQ01+000000PRSWM2
0296477160999992000070706004+36300+140200FM-15+0029RJAK V0200701N005710051019N0090001N1+02401+02001999999ADDGA1021+003609999GA2071+005109999GA3081+024009999GF108991999999999999999999MA1100511999999MW1001REMMET170RJAK 070600Z 07011KT 9000 FEW012 BKN017 OVC080 24/20 Q1005 RMK 1CU012 5CU017 8AC080 A2970 FCST 0615 TEMPO 0608 -SHRA BECMG 0910 07015G30KT 3000 SHRA BR BKN006CU OVC010CU;EQDQ01+000000PRSWM2
0186477160999992000070707004+36300+140200FM-15+0029RJAK V0200601N005710300019N0090001N1+02301+02001999999ADDGA1021+006009999GA2081+030009999GF108991999999999999999999MA1100411999999MW1001REMMET076RJAK 070700Z 06011KT 9000 FEW020 OVC100 23/20 Q1004 RMK 1CU020 8AC100 A2967;EQDQ01+000000PRSWM2
0216477160999992000070923004+36300+140200FM-15+0029RJAK V0200501N003110690019N0112651N1+02301+01801999999ADDGA1021+030009999GA2071+069009999GF107991999999999999999999MA1101291999999MW1001REMMET106RJAK 092300Z 05006KT 9999 FEW100 BKN230 23/18 Q1013 RMK 2AC100 7CS230 A2993 FCST 2308 TEMPO 0608 BKN025CU;EQDQ01+000000PRSWM2
0186477160999992000071001004+36300+140200FM-15+0029RJAK V0200501N003110690019N0112651N1+02601+01801999999ADDGA1021+007509999GA2071+069009999GF107991999999999999999999MA1101291999999MW1001REMMET076RJAK 100100Z 05006KT 9999 FEW025 BKN230 26/18 Q1013 RMK 1CU025 6CI230 A2993;EQDQ01+000000PRSWM2
0186477160999992000071002004+36300+140200FM-15+0029RJAK V0200801N003112200019N0112651N1+02701+01901999999ADDGA1021+007509999GA2021+069009999GF104991999999999999999999MA1101291999999MW1001REMMET076RJAK 100200Z 08006KT 9999 FEW025 SCT230 27/19 Q1013 RMK 1CU025 4CI230 A2993;EQDQ01+000000PRSWM2
0156477160999992000071004004+36300+140200FM-15+0029RJAK V0201201N002112200019N0112651N1+02901+01901999999ADDGA1021+009009999GF102991999999999999999999MA1101191999999MW1001REMMET062RJAK 100400Z 12004KT 9999 FEW030 29/19 Q1012 RMK 1CU030 A2991;EQDQ01+000000PRSWM2
0156477160999992000071005004+36300+140200FM-15+0029RJAK V0200601N003612200019N0112651N1+02901+02001999999ADDGA1021+009009999GF102991999999999999999999MA1101191999999MW1001REMMET062RJAK 100500Z 06007KT 9999 FEW030 29/20 Q1012 RMK 1CU030 A2989;EQDQ01+000000PRSWM2
0172477160999992000071006004+36300+140200FM-15+0029RJAK V0200701N005112200019N0112651N1+02901+02001999999ADDGA1021+009009999GF102991999999999999999999MA1101191999999MW1001REMMET078RJAK 100600Z 07010KT 9999 FEW030 29/20 Q1012 RMK 1CU030 A2989 FCST 0615 NOSIG;EQDQ01+000000PRSWM2
0172477160999992000071008004+36300+140200FM-15+0029RJAK V0200801N005712200019N0112651N1+02601+01801999999ADDGA1021+009009999GF102991999999999999999999MA1101191999999MW1001REMMET078RJAK 100800Z 08011KT 9999 FEW030 26/18 Q1012 RMK 1CU030 A2990 FCST 0817 NOSIG;EQDQ01+000000PRSWM2
0130477160999992000071022004+36300+140200FM-15+0029RJAK V0200101N000512200019N0060001N1+02201+01901999999ADDGF100991999999999999999999MA1101391999999MW1001REMMET052RJAK 102200Z 01001KT 6000 SKC 22/19 Q1014 RMK A2995;EQDQ01+000000PRSWM2
0172477160999992000071023004+36300+140200FM-15+0029RJAK V02099999999992200019N0060001N1+02401+02001999999ADDGA1021+006009999GF102991999999999999999999MA1101391999999MW1001REMMET078RJAK 102300Z VRB01KT 6000 FEW020 24/20 Q1014 RMK 1CU020 A2995 FCST 2308 NOSIG;EQDQ01+000000PRSWM2
0188477160999992000071100004+36300+140200FM-15+0029RJAK V0202601N001012200019N9999999N1+02601+02001999999ADDGA1021+006009999GF102991999999999999999999MA1101391999999MW1001REMMET078RJAK 110000Z 26002KT 6000 FEW020 26/20 Q1014 RMK 2CU020 A2994 FCST 0009 NOSIG;EQDQ01+060002VODIS Q02+000000PRSWM2
0172477160999992000071101004+36300+140200FM-15+0029RJAK V0202201N002112200019N9999999N1+02701+02001999999ADDGA1021+007509999GF102991999999999999999999MA1101291999999MW1001REMMET062RJAK 110100Z 22004KT 7000 FEW025 27/20 Q1013 RMK 1CU025 A2992;EQDQ01+070002VODIS Q02+000000PRSWM2
0156477160999992000071102004+36300+140200FM-15+0029RJAK V0202301N001512200019N0090001N1+02901+02001999999ADDGA1021+006009999GF102991999999999999999999MA1101291999999MW1001REMMET062RJAK 110200Z 23003KT 9000 FEW020 29/20 Q1013 RMK 1CU020 A2991;EQDQ01+000000PRSWM2
0172477160999992000071103004+36300+140200FM-15+0029RJAK V0202201N002112200019N0112651N1+03001+01901999999ADDGA1021+006009999GF102991999999999999999999MA1101191999999MW1001REMMET078RJAK 110300Z 22004KT 9999 FEW020 30/19 Q1012 RMK 1CU020 A2989 FCST 0312 NOSIG;EQDQ01+000000PRSWM2
0156477160999992000071104004+36300+140200FM-15+0029RJAK V0201601N001512200019N0112651N1+03201+01801999999ADDGA1021+007509999GF102991999999999999999999MA1101081999999MW1001REMMET062RJAK 110400Z 16003KT 9999 FEW025 32/18 Q1011 RMK 1CU025 A2985;EQDQ01+000000PRSWM2
0186477160999992000071105004+36300+140200FM-15+0029RJAK V0201401N002112200019N0112651N1+03201+01701999999ADDGA1021+007509999GA2021+069009999GF104991999999999999999999MA1101021999999MW1001REMMET076RJAK 110500Z 14004KT 9999 FEW025 SCT230 32/17 Q1010 RMK 1CU025 3CI230 A2984;EQDQ01+000000PRSWM2
0202477160999992000071106004+36300+140200FM-15+0029RJAK V0201201N002612200019N0112651N1+03101+02101999999ADDGA1021+009009999GA2021+069009999GF104991999999999999999999MA1100911999999MW1001REMMET092RJAK 110600Z 12005KT 9999 FEW030 SCT230 31/21 Q1009 RMK 2CU030 3CI230 A2982 FCST 0615 NOSIG;EQDQ01+000000PRSWM2
0186477160999992000071107004+36300+140200FM-15+0029RJAK V0201601N004612200019N0112651N1+03101+02201999999ADDGA1021+009009999GA2021+069009999GF104991999999999999999999MA1100911999999MW1001REMMET076RJAK 110700Z 16009KT 9999 FEW030 SCT230 31/22 Q1009 RMK 1CU030 4CI230 A2980;EQDQ01+000000PRSWM2
0225477160999992000071108004+36300+140200FM-15+0029RJAK V0202001N002610690019N0112651N1+03001+01901999999ADDGA1021+036009999GA2071+069009999GF107991999999999999999999MA1100911999999MW1001REMMET115RJAK 110800Z 20005KT 9999 FEW120 BKN230 30/19 Q1009 RMK 1AC120 6CI230 A2980 FCST 0817 BECMG 1315 BKN120AC BKN200CI;EQDQ01+000000PRSWM2
0235477160999992000071122204+36300+140200FM-15+0029RJAK V0202101N002610045019N0050001N1+02501+02201999999ADDGA1071+004509999GA2021+006009999GA3071+024009999GF107991999999999999999999MA1100811999999MW1101REMMET093RJAK 112220Z 21005KT 5000 BR BKN015 SCT020 BKN080 25/22 Q1008 RMK 5CU015 3CU020 7AC080 A2978;EQDQ01+000003PRSWM1Q02    003PRSWM1
0216477160999992000071123004+36300+140200FM-15+0029RJAK V0202101N003610240019N0060001N1+02501+02201999999ADDGA1021+004809999GA2071+024009999GF107991999999999999999999MA1100811999999MW1001REMMET106RJAK 112300Z 21007KT 6000 SCT016 BKN080 25/22 Q1008 RMK 3CU016 7AC080 A2978 FCST 2308 TEMPO 0105 BKN015CU;EQDQ01+000000PRSWM2
0216477160999992000071200004+36300+140200FM-15+0029RJAK V0202101N003110240019N0060001N1+02601+02201999999ADDGA1021+004509999GA2071+024009999GF107991999999999999999999MA1100811999999MW1001REMMET106RJAK 120000Z 21006KT 6000 SCT015 BKN080 26/22 Q1008 RMK 4CU015 7AC080 A2978 FCST 0009 TEMPO 0105 BKN015CU;EQDQ01+000000PRSWM2
0176477160999992000071201274+36300+140200FM-16+0029RJAK V0201801N00621220001CN0080001N1+02801+02301999999ADDGA1071+005409999GA2021+006009999MA1100711999999MW1001REMMET076RJAK 120127Z 18012KT 8000 BKN018 SCT020 28/23 Q1007 RMK 5CU018 3CU020 A2974;EQDQ01+000042SCOTCVQ02+000000PRSWM2
0232477160999992000071203004+36300+140200FM-15+0029RJAK V0202301N004110090019N0080001N1+02801+02301999999ADDGA1021+006009999GA2071+009009999GA3071+024009999GF107991999999999999999999MA1100611999999MW1001REMMET106RJAK 120300Z 23008KT 8000 SCT020 BKN030 BKN080 28/23 Q1006 RMK 3CU020 5CU030 7AC080 A2972 FCST 0312 NOSIG;EQDQ01+000000PRSWM2
0186477160999992000071203134+36300+140200FM-16+0029RJAK V0202301N003610360019N0080001N1+02901+02301999999ADDGA1021+006009999GA2071+036009999GF107991999999999999999999MA1100611999999MW1001REMMET076RJAK 120313Z 23007KT 8000 FEW020 BKN120 29/23 Q1006 RMK 1CU020 7AC120 A2971;EQDQ01+000000PRSWM2
0216477160999992000071205004+36300+140200FM-15+0029RJAK V0202201N003610630019N0112651N1+03001+02401999999ADDGA1021+007509999GA2021+036009999GA3071+063009999GF107991999999999999999999MA1100511999999MW1001REMMET090RJAK 120500Z 22007KT 9999 FEW025 SCT120 BKN210 30/24 Q1005 RMK 2CU025 3AC120 6CI210 A2968;EQDQ01+000000PRSWM2
0246477160999992000071206004+36300+140200FM-15+0029RJAK V0201901N004610630019N0112651N1+03101+02501999999ADDGA1021+007509999GA2021+036009999GA3071+063009999GF107991999999999999999999MA1100411999999MW1001REMMET120RJAK 120600Z 19009KT 9999 SCT025 SCT120 BKN210 31/25 Q1004 RMK 4CU025 3AC120 5CI210 A2966 FCST 0615 TEMPO 0609 BKN020CU;EQDQ01+000000PRSWM2
0186477160999992000071207004+36300+140200FM-15+0029RJAK V0201901N003612200019N0112651N1+03101+02501999999ADDGA1021+006009999GA2021+036009999GF104991999999999999999999MA1100411999999MW1001REMMET076RJAK 120700Z 19007KT 9999 FEW020 SCT120 31/25 Q1004 RMK 2CU020 3AC120 A2965;EQDQ01+000000PRSWM2
0202477160999992000071208004+36300+140200FM-15+0029RJAK V0202101N002612200019N0112651N1+03001+02301999999ADDGA1021+006009999GA2021+030009999GF104991999999999999999999MA1100311999999MW1001REMMET092RJAK 120800Z 21005KT 9999 FEW020 SCT100 30/23 Q1003 RMK 1CU020 3AC100 A2963 FCST 0817 NOSIG;EQDQ01+000000PRSWM2
0186477160999992000071222004+36300+140200FM-15+0029RJAK V0202201N002610036019N0070001N1+02601+02401999999ADDGA1071+003609999GA2071+030009999GF107991999999999999999999MA1100411999999MW1001REMMET076RJAK 122200Z 22005KT 7000 BKN012 BKN100 26/24 Q1004 RMK 5CU012 6AC100 A2966;EQDQ01+000000PRSWM2
0186477160999992000071222204+36300+140200FM-15+0029RJAK V0202201N002612200019N0080001N1+02601+02301999999ADDGA1021+004509999GA2021+030009999GF104991999999999999999999MA1100411999999MW1001REMMET076RJAK 122220Z 22005KT 8000 SCT015 SCT100 26/23 Q1004 RMK 3CU015 3AC100 A2967;EQDQ01+000000PRSWM2
0266477160999992000071223004+36300+140200FM-15+0029RJAK V0202201N002610690019N0080001N1+02701+02401999999ADDGA1021+004509999GA2021+030009999GA3071+069009999GF107991999999999999999999MA1100411999999MW1001REMMET140RJAK 122300Z 22005KT 8000 SCT015 SCT100 BKN230 27/24 Q1004 RMK 3CU015 3AC100 5CI230 A2966 FCST 2308 TEMPO 2302 BKN015CU TEMPO 0608 BKN025CU;EQDQ01+000000PRSWM2
0266477160999992000071300004+36300+140200FM-15+0029RJAK V0202301N002610690019N0080001N1+02801+02301999999ADDGA1021+004509999GA2021+006009999GA3071+069009999GF107991999999999999999999MA1100411999999MW1001REMMET140RJAK 130000Z 23005KT 8000 FEW015 SCT020 BKN230 28/23 Q1004 RMK 1CU015 3CU020 5CI230 A2966 FCST 0009 TEMPO 0002 BKN020CU TEMPO 0609 BKN025CU;EQDQ01+000000PRSWM2
0216477160999992000071301004+36300+140200FM-15+0029RJAK V0202001N002610690019N0090001N1+02901+02401999999ADDGA1021+006009999GA2021+036009999GA3071+069009999GF107991999999999999999999MA1100411999999MW1001REMMET090RJAK 130100Z 20005KT 9000 SCT020 SCT120 BKN230 29/24 Q1004 RMK 3CU020 3AC120 5CI230 A2966;EQDQ01+000000PRSWM2
0216477160999992000071302004+36300+140200FM-15+0029RJAK V0202201N002110690019N0080001N1+03001+02301999999ADDGA1021+006009999GA2021+036009999GA3071+069009999GF107991999999999999999999MA1100411999999MW1001REMMET090RJAK 130200Z 22004KT 8000 SCT020 SCT120 BKN230 30/23 Q1004 RMK 3CU020 4AC120 6CI230 A2965;EQDQ01+000000PRSWM2
0246477160999992000071303004+36300+140200FM-15+0029RJAK V0201801N002610690019N0080001N1+03101+02401999999ADDGA1021+006009999GA2021+036009999GA3071+069009999GF107991999999999999999999MA1100411999999MW1001REMMET120RJAK 130300Z 18005KT 8000 FEW020 SCT120 BKN230 31/24 Q1004 RMK 2CU020 3AC120 7CI230 A2965 FCST 0312 TEMPO 0610 BKN025CU;EQDQ01+000000PRSWM2
0186477160999992000071304004+36300+140200FM-15+0029RJAK V0201801N003110690019N0080001N1+03001+02401999999ADDGA1021+006009999GA2071+069009999GF107991999999999999999999MA1100311999999MW1001REMMET076RJAK 130400Z 18006KT 8000 FEW020 BKN230 30/24 Q1003 RMK 1CU020 7CI230 A2964;EQDQ01+000000PRSWM2
0216477160999992000071305004+36300+140200FM-15+0029RJAK V0201901N003610690019N0080001N1+03101+02401999999ADDGA1021+006009999GA2021+036009999GA3071+069009999GF107991999999999999999999MA1100311999999MW1001REMMET090RJAK 130500Z 19007KT 8000 FEW020 SCT120 BKN230 31/24 Q1003 RMK 1CU020 4AC120 7CI230 A2964;EQDQ01+000000PRSWM2
0216477160999992000071307004+36300+140200FM-15+0029RJAK V0201901N003610360019N0080001N1+02901+02301999999ADDGA1021+006009999GA2071+036009999GA3081+060009999GF108991999999999999999999MA1100411999999MW1001REMMET090RJAK 130700Z 19007KT 8000 FEW020 BKN120 OVC200 29/23 Q1004 RMK 1CU020 6AC120 8CI200 A2965;EQDQ01+000000PRSWM2
0248477160999992000071308004+36300+140200FM-15+0029RJAK V0202001N003610360019N9999999N1+02901+02301999999ADDGA1021+006009999GA2071+036009999GA3071+060009999GF107991999999999999999999MA1100311999999MW1001REMMET106RJAK 130800Z 20007KT 7000 FEW020 BKN120 BKN200 29/23 Q1003 RMK 1CU020 5AC120 7CI200 A2964 FCST 0817 NOSIG;EQDQ01+070002VODIS Q02+000000PRSWM2
0235477160999992000071322004+36300+140200FM-15+0029RJAK V0200601N000510690019N0035001N1+02501+02301999999ADDGA1021+002709999GA2021+003609999GA3071+069009999GF107991999999999999999999MA1100411999999MW1101REMMET093RJAK 132200Z 06001KT 3500 BR FEW009 SCT012 BKN230 25/23 Q1004 RMK 2ST009 4ST012 6CI230 A2965;EQDQ01+000003PRSWM1Q02    003PRSWM1
0259477160999992000071323004+36300+140200FM-15+0029RJAK V02099999999992200019N0035001N1+02601+02301999999ADDGA1021+003609999GA2021+069009999GF104991999999999999999999MA1100912999999MW1101REMMET133RJAK 132300Z VRB01KT 3500 BR FEW012 SCT230 26/23 Q1009 RMK 1ST012 3CI230 A2979 FCST 2308 BECMG 2301 NSW TEMPO 0608 BKN020CU BKN120AC;EQDQ01+000003PRSWM1Q02    003PRSWM1
0259477160999992000071400004+36300+140200FM-15+0029RJAK V02099999999992200019N0040001N1+02801+02401999999ADDGA1021+006009999GA2021+069009999GF104991999999999999999999MA1100911999999MW1101REMMET133RJAK 140000Z VRB01KT 4000 BR FEW020 SCT230 28/24 Q1009 RMK 1CU020 3CI230 A2979 FCST 0009 BECMG 0001 NSW TEMPO 0609 BKN020CU BKN120AC;EQDQ01+000003PRSWM1Q02    003PRSWM1
0175477160999992000071402004+36300+140200FM-15+0029RJAK V0201401N001512200019N0050001N1+03001+02401999999ADDGA1021+006009999GF104991999999999999999999MA1100911999999MW1051REMMET065RJAK 140200Z 14003KT 5000 HZ SCT020 30/24 Q1009 RMK 3CU020 A2979;EQDQ01+000003PRSWM1Q02    003PRSWM1
0284477160999992000071403004+36300+140200FM-15+0029RJAK V0201801N003110690019N0050001N1+03101+02501999999ADDGA1021+007509999GA2071+069009999GF107991999999999999999999MA1100811999999MW1051REMMET158RJAK 140300Z 18006KT 5000 HZ SCT025 BKN230 31/25 Q1008 RMK 3CU025 5CI230 A2979 FCST 0312 TEMPO 0610 BKN020CU BECMG 1012 4000 -SHRA BKN020CU BKN100AC OVC200CI;EQDQ01+000003PRSWM1Q02    003PRSWM1
0235477160999992000071404004+36300+140200FM-15+0029RJAK V0201601N002610690019N0050001N1+03201+02501999999ADDGA1021+007509999GA2021+009009999GA3071+069009999GF107991999999999999999999MA1100811999999MW1051REMMET093RJAK 140400Z 16005KT 5000 HZ FEW025 SCT030 BKN230 32/25 Q1008 RMK 1CU025 3CU030 5CI230 A2977;EQDQ01+000003PRSWM1Q02    003PRSWM1
0202477160999992000071405004+36300+140200FM-15+0029RJAK V0201901N004110690019N9999999N1+03401+02301999999ADDGA1021+009009999GA2071+069009999GF107991999999999999999999MA1100811999999MW1001REMMET076RJAK 140500Z 19008KT 7000 FEW030 BKN230 34/23 Q1008 RMK 2CU030 5CI230 A2976;EQDQ01+070002VODIS Q02+000000PRSWM2
0266477160999992000071406004+36300+140200FM-15+0029RJAK V0202101N005710690019N0112651N1+03101+02201999999ADDGA1021+007509999GA2071+069009999GF107991999999999999999999MA1100811999999MW1001REMMET156RJAK 140600Z 21011KT 9999 FEW025 BKN230 31/22 Q1008 RMK 1CU025 5CI230 A2977 FCST 0615 TEMPO 0812 BKN020CU BECMG 1214 4000 -RA BR FEW008ST BKN020CU BKN100AC;EQDQ01+000000PRSWM2
0186477160999992000071407004+36300+140200FM-15+0029RJAK V0202001N006210690019N0112651N1+03001+02301999999ADDGA1021+036009999GA2071+069009999GF107991999999999999999999MA1100811999999MW1001REMMET076RJAK 140700Z 20012KT 9999 FEW120 BKN230 30/23 Q1008 RMK 2AC120 6CI230 A2977;EQDQ01+000000PRSWM2
0175477160999992000071622004+36300+140200FM-15+0029RJAK V0201101N000512200019N0040001N1+02601+02301999999ADDGA1021+030009999GF102991999999999999999999MA1101021999999MW1101REMMET065RJAK 162200Z 11001KT 4000 BR FEW100 26/23 Q1010 RMK 2AC100 A2984;EQDQ01+000003PRSWM1Q02    003PRSWM1
0156477160999992000071622404+36300+140200FM-16+0029RJAK V0202001N001012200019N0060001N1+02701+02301999999ADDGA1021+030009999GF102991999999999999999999MA1101021999999MW1001REMMET062RJAK 162240Z 20002KT 6000 FEW100 27/23 Q1010 RMK 2AC100 A2984;EQDQ01+000000PRSWM2
0172477160999992000071623004+36300+140200FM-15+0029RJAK V0202001N001012200019N0060001N1+02801+02301999999ADDGA1021+030009999GF102991999999999999999999MA1101021999999MW1001REMMET078RJAK 162300Z 20002KT 6000 FEW100 28/23 Q1010 RMK 2AC100 A2984 FCST 2308 NOSIG;EQDQ01+000000PRSWM2
0202477160999992000071700004+36300+140200FM-15+0029RJAK V0201601N001012200019N0090001N1+02901+02201999999ADDGA1021+030009999GA2021+069009999GF104991999999999999999999MA1101021999999MW1001REMMET092RJAK 170000Z 16002KT 9000 FEW100 SCT230 29/22 Q1010 RMK 2AC100 3CI230 A2984 FCST 0009 NOSIG;EQDQ01+000000PRSWM2
0186477160999992000071701004+36300+140200FM-15+0029RJAK V0200601N001512200019N0112651N1+03101+02201999999ADDGA1021+009009999GA2021+069009999GF104991999999999999999999MA1101021999999MW1001REMMET076RJAK 170100Z 06003KT 9999 FEW030 SCT230 31/22 Q1010 RMK 1CU030 4CI230 A2983;EQDQ01+000000PRSWM2
0186477160999992000071702004+36300+140200FM-15+0029RJAK V0200601N003610690019N0112651N1+03101+02301999999ADDGA1021+009009999GA2071+069009999GF107991999999999999999999MA1100911999999MW1001REMMET076RJAK 170200Z 06007KT 9999 FEW030 BKN230 31/23 Q1009 RMK 1CU030 6CI230 A2982;EQDQ01+000000PRSWM2
0202477160999992000071703004+36300+140200FM-15+0029RJAK V0200601N004612200019N0112651N1+03201+02301999999ADDGA1021+009009999GA2021+069009999GF104991999999999999999999MA1100911999999MW1001REMMET092RJAK 170300Z 06009KT 9999 FEW030 SCT230 32/23 Q1009 RMK 1CU030 3CI230 A2979 FCST 0312 NOSIG;EQDQ01+000000PRSWM2
0156477160999992000071704004+36300+140200FM-15+0029RJAK V0201301N003612200019N0112651N1+03301+02301999999ADDGA1021+009009999GF102991999999999999999999MA1100811999999MW1001REMMET062RJAK 170400Z 13007KT 9999 FEW030 33/23 Q1008 RMK 1CU030 A2978;EQDQ01+000000PRSWM2
0156477160999992000071705004+36300+140200FM-15+0029RJAK V0201301N004112200019N0112651N1+03301+02001999999ADDGA1021+009009999GF102991999999999999999999MA1100711999999MW1001REMMET062RJAK 170500Z 13008KT 9999 FEW030 33/20 Q1007 RMK 1CU030 A2976;EQDQ01+000000PRSWM2
0172477160999992000071706004+36300+140200FM-15+0029RJAK V0201201N004112200019N0112651N1+03301+02101999999ADDGA1021+069009999GF104991999999999999999999MA1100711999999MW1001REMMET078RJAK 170600Z 12008KT 9999 SCT230 33/21 Q1007 RMK 3CI230 A2975 FCST 0615 NOSIG;EQDQ01+000000PRSWM2
0186477160999992000071707004+36300+140200FM-15+0029RJAK V0201301N005712200019N0112651N1+03201+02101999999ADDGA1021+009009999GA2021+069009999GF104991999999999999999999MA1100611999999MW1001REMMET076RJAK 170700Z 13011KT 9999 FEW030 SCT230 32/21 Q1006 RMK 1CU030 4CI230 A2973;EQDQ01+000000PRSWM2
0186477160999992000071722004+36030+140200FM-15+0029RJAK V0202801N001510360019N0112651N1+02501+02101999999ADDGA1021+024009999GA2071+036009999GF107991999999999999999999MA1100711999999MW1001REMMET076RJAK 172200Z 28003KT 9999 SCT080 BKN120 25/21 Q1007 RMK 3AC080 7AC120 A2974;EQDQ01+000000PRSWM2
0254477160999992000071723004+36030+140200FM-15+0029RJAK V0202501N001510360019N0112651N1+02601+02101999999ADDGA1021+024009999GA2071+036009999GF107991999999999999999999MA1100711999999MW1001REMMET144RJAK 172300Z 25003KT 9999 SCT080 BKN120 26/21 Q1007 RMK 4AC080 7AC120 A2974 FCST 2308 BECMG 0103 FEW025CU SCT120AC TEMPO 0708 BKN025CU BKN120AC;EQDQ01+000000PRSWM2
0284477160999992000071800004+36030+140200FM-15+0029RJAK V0201301N001010360019N0112651N1+02701+02201999999ADDGA1021+024009999GA2071+036009999GA3071+045009999GF107991999999999999999999MA1100711999999MW1001REMMET158RJAK 180000Z 13002KT 9999 FEW080 BKN120 BKN150 27/22 Q1007 RMK 2AC080 5AC120 7AC150 A2973 FCST 0009 BECMG 0103 FEW025CU SCT120AC TEMPO 0709 BKN025CU BKN120AC;EQDQ01+000000PRSWM2
0186477160999992000071801004+36030+140200FM-15+0029RJAK V0201601N001510690019N0112651N1+02901+02201999999ADDGA1021+036009999GA2071+069009999GF107991999999999999999999MA1100711999999MW1001REMMET076RJAK 180100Z 16003KT 9999 SCT120 BKN230 29/22 Q1007 RMK 4AC120 6CI230 A2973;EQDQ01+000000PRSWM2
0216477160999992000071802004+36030+140200FM-15+0029RJAK V02099999999990600019N0060001N1+02801+02201999999ADDGA1021+007509999GA2021+036009999GA3071+060009999GF107991999999999999999999MA1100611999999MW1001REMMET090RJAK 180200Z VRB02KT 6000 FEW025 SCT120 BKN200 28/22 Q1006 RMK 1CU025 4AC120 7CI200 A2973;EQDQ01+000000PRSWM2
0300477160999992000071803004+36030+140200FM-15+0029RJAK V0201701N002110360019N9999999N1+02901+02301999999ADDGA1021+009009999GA2071+036009999GA3081+060009999GF108991999999999999999999MA1100611999999MW1001REMMET158RJAK 180300Z 17004KT 7000 SCT030 BKN120 OVC200 29/23 Q1006 RMK 3CU030 5AC120 8CI200 A2971 FCST 0312 TEMPO 0307 SCT030CU SCT120AC TEMPO 0712 BKN025CU BKN120AC;EQDQ01+070002VODIS Q02+000000PRSWM2
0232477160999992000071804004+36030+140200FM-15+0029RJAK V0201501N001510360019N9999999N1+03001+02401999999ADDGA1021+007509999GA2071+036009999GA3071+060009999GF107991999999999999999999MA1100511999999MW1001REMMET090RJAK 180400Z 15003KT 7000 FEW025 BKN120 BKN200 30/24 Q1005 RMK 2CU025 5AC120 7CI200 A2970;EQDQ01+070002VODIS Q02+000000PRSWM2
0216477160999992000071804364+36030+140200FM-16+0029RJAK V0201601N001510600019N0080001N1+03001+02301999999ADDGA1021+009009999GA2021+036009999GA3071+060009999GF107991999999999999999999MA1100511999999MW1001REMMET090RJAK 180436Z 16003KT 8000 SCT030 SCT120 BKN200 30/23 Q1005 RMK 3CU030 4AC120 7CI200 A2969;EQDQ01+000000PRSWM2
0216477160999992000071805004+36030+140200FM-15+0029RJAK V0201601N002110600019N0080001N1+03101+02301999999ADDGA1021+009009999GA2021+036009999GA3071+060009999GF107991999999999999999999MA1100511999999MW1001REMMET090RJAK 180500Z 16004KT 8000 FEW030 SCT120 BKN200 31/23 Q1005 RMK 2CU030 4AC120 6CI200 A2969;EQDQ01+000000PRSWM2
0255477160999992000071806004+36030+140200FM-15+0029RJAK V02099999999990660019N0080001N1+03101+02301999999ADDGA1021+009009999GA2021+036009999GA3071+066009999GF107991999999999999999999MA1100511999999MW1001REMMET129RJAK 180600Z VRB03KT 8000 FEW030 SCT120 BKN220 31/23 Q1005 RMK 2CU030 4AC120 7CI220 A2969 FCST 0615 TEMPO 0812 BKN025CU BKN120AC;EQDQ01+000000PRSWM2
0216477160999992000071807004+36030+140200FM-15+0029RJAK V0201801N001510660019N0080001N1+03201+02301999999ADDGA1021+009009999GA2021+036009999GA3071+066009999GF107991999999999999999999MA1100511999999MW1001REMMET090RJAK 180700Z 18003KT 8000 FEW030 SCT120 BKN220 32/23 Q1005 RMK 1CU030 4AC120 7CI220 A2968;EQDQ01+000000PRSWM2
0216477160999992000071807104+36030+140200FM-16+0029RJAK V0201301N001510360019N0080001N1+03201+02301999999ADDGA1021+009009999GA2071+036009999GA3071+066009999GF107991999999999999999999MA1100511999999MW1001REMMET090RJAK 180710Z 13003KT 8000 FEW030 BKN120 BKN220 32/23 Q1005 RMK 1CU030 5AC120 7CI220 A2968;EQDQ01+000000PRSWM2
0264477160999992000071808004+36030+140200FM-15+0029RJAK V0201601N003110360019N0080001N1+03101+02301999999ADDGA1021+007509999GA2071+036009999GA3071+066009999GF107991999999999999999999MA1100511999999MW1001REMMET138RJAK 180800Z 16006KT 8000 FEW025 BKN120 BKN220 31/23 Q1005 RMK 1CU025 6AC120 7CI220 A2969 FCST 0817 BECMG 1214 FEW025CU SCT120AC BKN220CI;EQDQ01+000000PRSWM2
0235477160999992000071822004+36030+140200FM-15+0029RJAK V02099999999990039019N0030001N1+02501+02301999999ADDGA1021+002109999GA2071+003909999GA3071+069009999GF107991999999999999999999MA1100811999999MW1101REMMET093RJAK 182200Z VRB01KT 3000 BR SCT007 BKN013 BKN230 25/23 Q1008 RMK 4ST007 6CU013 7CI230 A2979;EQDQ01+000003PRSWM1Q02    003PRSWM1
0293477160999992000071823004+36030+140200FM-15+0029RJAK V0201301N001010036019N0030001N1+02601+02301999999ADDGA1021+002709999GA2071+003609999GF107991999999999999999999MA1100911999999MW1101REMMET167RJAK 182300Z 13002KT 3000 BR SCT009 BKN012 26/23 Q1009 RMK 4ST009 6CU012 A2979 FCST 2308 BECMG 0001 5000 BECMG 0102 NSW SCT020CU BKN230CI TEMPO 0608 BKN025CU BKN230CI;EQDQ01+000003PRSWM1Q02    003PRSWM1
0211477160999992000071903004+36030+140200FM-15+0029RJAK V02099999999992200019N9999999N1+03001+02401999999ADDGA1021+007509999GF104991999999999999999999MA1100811999999MW1001REMMET101RJAK 190300Z VRB03KT 6000 SCT025 30/24 Q1008 RMK 3CU025 A2978 FCST 0312 TEMPO 0712 BKN025CU BKN120AC;EQDQ01+060002VODIS Q02+000000PRSWM2
0172477160999992000071904004+36030+140200FM-15+0029RJAK V0200701N003112200019N9999999N1+03101+02401999999ADDGA1021+007509999GF104991999999999999999999MA1100811999999MW1001REMMET062RJAK 190400Z 07006KT 6000 SCT025 31/24 Q1008 RMK 3CU025 A2977;EQDQ01+060002VODIS Q02+000000PRSWM2
0172477160999992000071907004+36030+140200FM-15+0029RJAK V0201401N005112200019N9999999N1+03101+02501999999ADDGA1021+010509999GF102991999999999999999999MA1100811999999MW1001REMMET062RJAK 190700Z 14010KT 7000 FEW035 31/25 Q1008 RMK 2CU035 A2977;EQDQ01+070002VODIS Q02+000000PRSWM2
0205477160999992000072022004+36030+140200FM-15+0029RJAK V0200401N005010006019N0040001N1+02401+02301999999ADDGA1071+000609999GA2071+001509999GF107991999999999999999999MA1100911999999MW1101REMMET079RJAK 202200Z 04005KT 4000 BR BKN002 BKN005 24/23 Q1009 RMK 6ST002 7ST005 A2981;EQDQ01+000003PRSWM1Q02    003PRSWM1
0316477160999992000072023004+36030+140200FM-15+0029RJAK V0200201N006010027019N0050001N1+02601+02301999999ADDGA1021+001509999GA2071+002709999GA3071+060009999GF107991999999999999999999MA1100911999999MW1101REMMET174RJAK 202300Z 02006KT 5000 BR FEW005 BKN009 BKN200 26/23 Q1009 RMK 2ST005 6ST009 6CI200 A2980 FCST 2308 BECMG 0002 NSW SCT009ST SCT025CU BKN200CI TEMPO 0608 BKN025CU BKN230CI;EQDQ01+000003PRSWM1Q02    003PRSWM1
0225477160999992000072100004+36030+140200FM-15+0029RJAK V0200201N007010600019N0070001N1+02701+02401999999ADDGA1021+003609999GA2071+060009999GF107991999999999999999999MA1100911999999MW1001REMMET115RJAK 210000Z 02007KT 7000 SCT012 BKN200 27/24 Q1009 RMK 3CU012 7CI200 A2980 FCST 0009 TEMPO 0809 BKN025CU BKN230CI;EQDQ01+000000PRSWM2
0186477160999992000072101004+36030+140200FM-15+0029RJAK V0200601N008010600019N0112651N1+02801+02301999999ADDGA1021+004509999GA2071+060009999GF107991999999999999999999MA1100811999999MW1001REMMET076RJAK 210100Z 06008KT 9999 FEW015 BKN200 28/23 Q1008 RMK 2CU015 7CI200 A2977;EQDQ01+000000PRSWM2
0216477160999992000072102004+36030+140200FM-15+0029RJAK V0200501N010010600019N0112651N1+02901+02301999999ADDGA1021+006009999GA2021+030009999GA3071+060009999GF107991999999999999999999MA1100711999999MW1001REMMET090RJAK 210200Z 05010KT 9999 FEW020 SCT100 BKN200 29/23 Q1007 RMK 2CU020 3AC100 7CI200 A2975;EQDQ01+000000PRSWM2
0216477160999992000072104004+36030+140200FM-15+0029RJAK V0200401N011010300019N0112651N1+02901+02201999999ADDGA1021+006009999GA2071+030009999GA3071+060009999GF107991999999999999999999MA1100611999999MW1001REMMET090RJAK 210400Z 04011KT 9999 SCT020 BKN100 BKN200 29/22 Q1006 RMK 3CU020 5AC100 6CI200 A2972;EQDQ01+000000PRSWM2
0216477160999992000072105004+36030+140200FM-15+0029RJAK V0200501N013010600019N0112651N1+03001+02201999999ADDGA1021+006009999GA2021+036009999GA3071+060009999GF107991999999999999999999MA1100611999999MW1001REMMET090RJAK 210500Z 05013KT 9999 SCT020 SCT120 BKN200 30/22 Q1006 RMK 3CU020 3AC120 6CI200 A2971;EQDQ01+000000PRSWM2
0313477160999992000072106004+36030+140200FM-15+0029RJAK V0200401N014010600019N0112651N1+02901+02201999999ADDGA1021+004509999GA2021+036009999GA3071+060009999GF107991999999999999999999MA1100511999999MW1001REMMET187RJAK 210600Z 04014KT 9999 FEW015 SCT120 BKN200 29/22 Q1005 RMK 2CU015 3AC120 6CI200 A2969 FCST 0615 BECMG 0709 04014G24KT SCT020CU BKN100AC BKN230CI TEMPO 1014 BKN025CU BKN100AC BKN230CI;EQDQ01+000000PRSWM2
0265477160999992000072107004+36030+140200FM-15+0029RJAK V0200501N01301036001CN0112651N1+02801+02301999999ADDGA1021+004509999GA2021+007509029GA3021+036009999GA4071+060009999GF107991999999999999999999MA1100411999999MW1001REMMET123RJAK 210700Z 05013KT 9999 SCT015 FEW025TCU SCT120 BKN200 28/23 Q1004 RMK 3CU015 1TCU025 4AC120 5CI200 A2967 TCU NW MOV UNK;EQDQ01+000000PRSWM2
0292477160999992000072108004+36030+140200FM-15+0029RJAK V0200401N012010600019N0112651N1+02701+02301999999ADDGA1021+003609999GA2021+036009999GA3071+060009999GF107991999999999999999999MA1100411999999MW1001OC102201REMMET158RJAK 210800Z 04012G22KT 9999 SCT012 SCT120 BKN200 27/23 Q1004 RMK 3CU012 4AC120 5CI200 A2965 FCST 0817 BECMG 0911 BKN012CU BKN120AC BKN200CI TEMPO 1115 -SHRA;EQDQ01+000000PRSWM2
0197477160999992000072322004+36030+140200FM-15+0029RJAK V0202001N006712200019N0112651N1+02801+02301999999ADDGA1021+007509999GA2021+069009999GF104991999999999999999999MA1100511999999MW1001OC101231REMMET079RJAK 232200Z 20013G24KT 9999 FEW025 SCT230 28/23 Q1005 RMK 1CU025 3CI230 A2968;EQDQ01+000000PRSWM2
0213477160999992000072323004+36030+140200FM-15+0029RJAK V0201901N007712200019N0112651N1+02901+02301999999ADDGA1021+007509999GA2021+069009999GF104991999999999999999999MA1100511999999MW1001OC101291REMMET095RJAK 232300Z 19015G25KT 9999 FEW025 SCT230 29/23 Q1005 RMK 1CU025 3CI230 A2969 FCST 2308 NOSIG;EQDQ01+000000PRSWM2
0183477160999992000072400004+36030+140200FM-15+0029RJAK V0202101N007712200019N0112651N1+03001+02301999999ADDGA1021+009009999GF102991999999999999999999MA1100511999999MW1001OC101441REMMET081RJAK 240000Z 21015G28KT 9999 FEW030 30/23 Q1005 RMK 1CU030 A2969 FCST 0009 NOSIG;EQDQ01+000000PRSWM2
0167477160999992000072401024+36030+140200FM-16+0029RJAK V0202001N007212200019N0112651N1+03101+02301999999ADDGA1021+009009999GF102991999999999999999999MA1100511999999MW1001OC101291REMMET065RJAK 240102Z 20014G25KT 9999 FEW030 31/23 Q1005 RMK 1CU030 A2970;EQDQ01+000000PRSWM2
0167477160999992000072402004+36030+140200FM-15+0029RJAK V0202001N007212200019N0112651N1+03101+02301999999ADDGA1021+009009999GF102991999999999999999999MA1100511999999MW1001OC101491REMMET065RJAK 240200Z 20014G29KT 9999 FEW030 31/23 Q1005 RMK 1CU030 A2970;EQDQ01+000000PRSWM2
0213477160999992000072403004+36030+140200FM-15+0029RJAK V0202101N007212200019N0112651N1+03101+02301999999ADDGA1021+009009999GA2021+069009999GF104991999999999999999999MA1100511999999MW1001OC101441REMMET095RJAK 240300Z 21014G28KT 9999 FEW030 SCT230 31/23 Q1005 RMK 1CU030 3CI230 A2970 FCST 0312 NOSIG;EQDQ01+000000PRSWM2
0213477160999992000072406004+36030+140200FM-15+0029RJAK V0202001N007712200019N0112651N1+03201+02301999999ADDGA1021+009009999GA2021+069009999GF104991999999999999999999MA1100411999999MW1001OC101341REMMET095RJAK 240600Z 20015G26KT 9999 FEW030 SCT230 32/23 Q1004 RMK 1CU030 3CI230 A2967 FCST 0615 NOSIG;EQDQ01+000000PRSWM2
0167477160999992000072407004+36030+140200FM-15+0029RJAK V0202001N008212200019N0112651N1+03101+02301999999ADDGA1021+069009999GF104991999999999999999999MA1100411999999MW1001OC101391REMMET065RJAK 240700Z 20016G27KT 9999 SCT230 31/23 Q1004 RMK 3CI230 A2966;EQDQ01+000000PRSWM2
0213477160999992000072408004+36030+140200FM-15+0029RJAK V0202001N006712200019N0112651N1+03001+02301999999ADDGA1021+036009999GA2021+069009999GF104991999999999999999999MA1100411999999MW1001OC101341REMMET095RJAK 240800Z 20013G26KT 9999 FEW120 SCT230 30/23 Q1004 RMK 1AC120 4CI230 A2966 FCST 0817 NOSIG;EQDQ01+000000PRSWM2
0227477160999992000072422004+36030+140200FM-15+0029RJAK V0202001N006210690019N0112651N1+02701+02401999999ADDGA1021+004509999GA2021+036009999GA3071+069009999GF107991999999999999999999MA1100511999999MW1001OC101231REMMET093RJAK 242200Z 20012G24KT 9999 FEW015 SCT120 BKN230 27/24 Q1005 RMK 2CU015 3AC120 6CI230 A2968;EQDQ01+000000PRSWM2
0262477160999992000072423004+36030+140200FM-15+0029RJAK V0202001N006210690019N0112651N1+02801+02401999999ADDGA1021+007509999GA2071+069009999GF107991999999999999999999MA1100511999999MW1001OC101391REMMET144RJAK 242300Z 20012G27KT 9999 SCT025 BKN230 28/24 Q1005 RMK 4CU025 6CI230 A2968 FCST 2308 BECMG 2301 BKN025CU BKN100AC BKN230CI TEMPO 0308 -SHRA;EQDQ01+000000PRSWM2
0262477160999992000072500004+36030+140200FM-15+0029RJAK V0202001N007710690019N0112651N1+02901+02401999999ADDGA1021+007509999GA2071+069009999GF107991999999999999999999MA1100411999999MW1001OC101441REMMET144RJAK 250000Z 20015G28KT 9999 FEW025 BKN230 29/24 Q1004 RMK 2CU025 6CI230 A2966 FCST 0009 BECMG 0103 BKN025CU BKN120AC BKN230CI TEMPO 0409 -SHRA;EQDQ01+000000PRSWM2
0227477160999992000072501434+36030+140200FM-16+0029RJAK V0202101N009310075019N0112651N1+02901+02401999999ADDGA1021+006009999GA2071+007509999GA3071+063009999GF107991999999999999999999MA1100411999999MW1001OC102011REMMET093RJAK 250143Z 21018G39KT 9999 SCT020 BKN025 BKN210 29/24 Q1004 RMK 3CU020 6CU025 6CI210 A2967;EQDQ01+000000PRSWM2
0291477160999992000072503004+36030+140200FM-15+0029RJAK V0202001N006210090019N0112651N1+02801+02301999999ADDGA1021+006009999GA2071+009009999GA3071+060009999GF107991999999999999999999MA1100311999999MW1001OC101231REMMET157RJAK 250300Z 20012G24KT 9999 FEW020 BKN030 BKN200 28/23 Q1003 RMK 2CU020 5CU030 7CI200 A2964 FCST 0312 TEMPO 0308 -SHRA BECMG 0809 SHRA TEMPO 1012 4000 SHRA;EQDQ01+000000PRSWM2
0227477160999992000072504004+36030+140200FM-15+0029RJAK V0201901N006210090019N0112651N1+02701+02201999999ADDGA1021+004509999GA2071+009009999GA3071+030009999GF107991999999999999999999MA1100311999999MW1001OC101291REMMET093RJAK 250400Z 19012G25KT 9999 FEW015 BKN030 BKN100 27/22 Q1003 RMK 2CU015 5CU030 5AC100 A2963;EQDQ01+000000PRSWM2
0249477160999992000072504054+36030+140200FM-16+0029RJAK V0201901N006710075019N0112651N1+02701+02201999999ADDGA1021+004509999GA2071+007509999GA3071+030009999GF107991999999999999999999MA1100311999999MW1801OC101291REMMET099RJAK 250405Z 19013G25KT 9999 -SHRA FEW015 BKN025 BKN100 27/22 Q1003 RMK 2CU015 5CU025 5AC100 A2963;EQDQ01+000003PRSWM1Q02    003PRSWM1
0360477160999992000072506004+36030+140200FM-15+0029RJAK V0201901N005110300019N0112651N1+02601+02201999999ADDGA1021+004509999GA2021+009009999GA3071+030009999GF107991999999999999999999MA1100311999999MW1801REMMET218RJAK 250600Z 19010KT 9999 -SHRA FEW015 SCT030 BKN100 26/22 Q1003 RMK 1CU015 4CU030 5AC100 A2962 FCST 0615 TEMPO 0608 NSW BECMG 0810 BKN020CU BKN100AC OVC200CI BECMG 1012 BKN010CU BKN020CU BKN100AC TEMPO 1115 4000 SHRA;EQDQ01+000003PRSWM1Q02    003PRSWM1
0249477160999992000072507004+36030+140200FM-15+0029RJAK V0202001N006210300019N0112651N1+02601+02201999999ADDGA1021+004509999GA2021+009009999GA3071+030009999GF107991999999999999999999MA1100311999999MW1801OC101181REMMET099RJAK 250700Z 20012G23KT 9999 -SHRA FEW015 SCT030 BKN100 26/22 Q1003 RMK 2CU015 4CU030 5AC100 A2963;EQDQ01+000003PRSWM1Q02    003PRSWM1
0216477160999992000072522004+36030+140200FM-15+0029RJAK V0201801N003110300019N0112651N1+02401+02301999999ADDGA1021+003009999GA2021+012009999GA3081+030009999GF108991999999999999999999MA1100411999999MW1001REMMET090RJAK 252200Z 18006KT 9999 FEW010 SCT040 OVC100 24/23 Q1004 RMK 1CU010 4SC040 8AC100 A2966;EQDQ01+000000PRSWM2
0345477160999992000072523004+36030+140200FM-15+0029RJAK V0202001N002610120019N0112651N1+02401+02201999999ADDGA1021+004509999GA2071+012009999GA3081+030009999GF108991999999999999999999MA1100511999999MW1801REMMET203RJAK 252300Z 20005KT 9999 -SHRA FEW015 BKN040 OVC100 24/22 Q1005 RMK 1CU015 5SC040 8AC100 A2968 FCST 2308 BECMG 2301 SCT015CU BKN025CU BKN040SC TEMPO 0208 20012G27KT 4000 SHRA BKN010CU BKN025CU BKN040SC;EQDQ01+000003PRSWM1Q02    003PRSWM1
0388477160999992000072600004+36030+140200FM-15+0029RJAK V0202101N002610120019N0080001N1+02301+02201999999ADDGA1021+006009999GA2071+012009999GA3081+030009999GF108991999999999999999999MA1100511999999MW1801REMMET246RJAK 260000Z 21005KT 8000 -SHRA SCT020 BKN040 OVC100 23/22 Q1005 RMK 3CU020 6SC040 8AC100 A2968 FCST 0009 BECMG 0001 SCT015CU BKN025CU BKN040SC TEMPO 0208 20012G27KT 4000 SHRA BKN010CU BKN025CU BKN040SC TEMPO 0809 4000 BKN010CU BKN025CU BKN040SC;EQDQ01+000003PRSWM1Q02    003PRSWM1
0238477160999992000072601004+36030+140200FM-15+0029RJAK V0202301N002110120019N0060001N1+02301+02101999999ADDGA1021+002409999GA2021+003609999GA3071+012009999GF107991999999999999999999MA1100511999999MW1801REMMET096RJAK 260100Z 23004KT 6000 -SHRA FEW008 SCT012 BKN040 23/21 Q1005 RMK 1ST008 4CU012 5SC040 A2968;EQDQ01+000003PRSWM1Q02    003PRSWM1
0205477160999992000072622004+36030+140200FM-15+0029RJAK V0200501N003110012019N0040001N1+02101+02001999999ADDGA1021+000909999GA2081+001209999GF108991999999999999999999MA1100811999999MW1101REMMET079RJAK 262200Z 05006KT 4000 BR SCT003 OVC004 21/20 Q1008 RMK 4ST003 8ST004 A2978;EQDQ01+000003PRSWM1Q02    003PRSWM1
0264477160999992000072700004+36030+140200FM-15+0029RJAK V0200601N004610030019N0070001N1+02201+02001999999ADDGA1021+002409999GA2071+003009999GA3081+004509999GF108991999999999999999999MA1100911999999MW1001REMMET138RJAK 270000Z 06009KT 7000 SCT008 BKN010 OVC015 22/20 Q1009 RMK 4ST008 6ST010 8CU015 A2980 FCST 0009 BECMG 0102 FEW010ST SCT015CU BKN030CU;EQDQ01+000000PRSWM2
0216477160999992000072701004+36030+140200FM-15+0029RJAK V0200401N002610030019N0090001N1+02301+02101999999ADDGA1021+002409999GA2071+003009999GA3081+004509999GF108991999999999999999999MA1100911999999MW1001REMMET090RJAK 270100Z 04005KT 9000 SCT008 BKN010 OVC015 23/21 Q1009 RMK 4ST008 6ST010 8CU015 A2980;EQDQ01+000000PRSWM2
0186477160999992000072702004+36030+140200FM-15+0029RJAK V0200701N003610033019N0112651N1+02501+02101999999ADDGA1021+002409999GA2071+003309999GF107991999999999999999999MA1100911999999MW1001REMMET076RJAK 270200Z 07007KT 9999 FEW008 BKN011 25/21 Q1009 RMK 2ST008 7CU011 A2981;EQDQ01+000000PRSWM2
0202477160999992000072703004+36030+140200FM-15+0029RJAK V0200601N003110054019N0112651N1+02601+02101999999ADDGA1021+004809999GA2071+005409999GF107991999999999999999999MA1100911999999MW1001REMMET092RJAK 270300Z 06006KT 9999 FEW016 BKN018 26/21 Q1009 RMK 1CU016 5CU018 A2980 FCST 0312 NOSIG;EQDQ01+000000PRSWM2
0186477160999992000072704004+36030+140200FM-15+0029RJAK V0200701N002610054019N0112651N1+02601+02101999999ADDGA1021+004509999GA2071+005409999GF107991999999999999999999MA1100811999999MW1001REMMET076RJAK 270400Z 07005KT 9999 FEW015 BKN018 26/21 Q1008 RMK 2CU015 5CU018 A2979;EQDQ01+000000PRSWM2
0186477160999992000072705004+36030+140200FM-15+0029RJAK V0200801N003112200019N0112651N1+02701+02201999999ADDGA1021+006009999GA2021+007509999GF104991999999999999999999MA1100811999999MW1001REMMET076RJAK 270500Z 08006KT 9999 FEW020 SCT025 27/22 Q1008 RMK 1CU020 3CU025 A2979;EQDQ01+000000PRSWM2
0216477160999992000072706004+36030+140200FM-15+0029RJAK V0200601N003612200019N0112651N1+02701+02201999999ADDGA1021+007509999GA2021+036009999GF104991999999999999999999MA1100811999999MW1001REMMET106RJAK 270600Z 06007KT 9999 FEW025 SCT120 27/22 Q1008 RMK 2CU025 4AC120 A2978 FCST 0615 TEMPO 0712 BKN025CU;EQDQ01+000000PRSWM2
0216477160999992000072707004+36030+140200FM-15+0029RJAK V0200701N002610300019N0112651N1+02701+02101999999ADDGA1021+006009999GA2071+030009999GA3071+060009999GF107991999999999999999999MA1100811999999MW1001REMMET090RJAK 270700Z 07005KT 9999 FEW020 BKN100 BKN200 27/21 Q1008 RMK 1CU020 5AC100 7CI200 A2978;EQDQ01+000000PRSWM2
0186477160999992000072722004+36030+140200FM-15+0029RJAK V0201901N001512200019N0080001N1+02401+02301999999ADDGA1021+003009999GA2021+004509999GF104991999999999999999999MA1101021999999MW1001REMMET076RJAK 272200Z 19003KT 8000 FEW010 SCT015 24/23 Q1010 RMK 1CU010 3CU015 A2984;EQDQ01+000000PRSWM2
0186477160999992000072722144+36030+140200FM-16+0029RJAK V0202001N002110036019N0090001N1+02501+02301999999ADDGA1021+003009999GA2071+003609999GF107991999999999999999999MA1101021999999MW1001REMMET076RJAK 272214Z 20004KT 9000 FEW010 BKN012 25/23 Q1010 RMK 2CU010 5CU012 A2983;EQDQ01+000000PRSWM2
0206477160999992000072800004+36030+140200FM-15+0029RJAK V0202101N003112200019N0112651N1+02701+02201999999ADDGA1021+005409999GF104991999999999999999999MA1101021999999MW1001REMMET112RJAK 280000Z 21006KT 9999 SCT018 27/22 Q1010 RMK 4CU018 A2983 FCST 0009 TEMPO 0002 BKN014CU TEMPO 0208 BKN025CU;EQDQ01+000000PRSWM2
0186477160999992000072801004+36030+140200FM-15+0029RJAK V0202401N003610060019N0112651N1+02801+02201999999ADDGA1021+004509999GA2071+006009999GF107991999999999999999999MA1101021999999MW1001REMMET076RJAK 280100Z 24007KT 9999 FEW015 BKN020 28/22 Q1010 RMK 1CU015 5CU020 A2983;EQDQ01+000000PRSWM2
0264477160999992000072803004+36030+140200FM-15+0029RJAK V0202001N004610300019N0112651N1+02801+02301999999ADDGA1021+006009999GA2021+007509999GA3071+030009999GF107991999999999999999999MA1100911999999MW1001REMMET138RJAK 280300Z 20009KT 9999 FEW020 SCT025 BKN100 28/23 Q1009 RMK 2CU020 4CU025 5AC100 A2981 FCST 0312 TEMPO 0309 FEW020CU BKN025CU BKN100AC;EQDQ01+000000PRSWM2
0216477160999992000072804004+36030+140200FM-15+0029RJAK V0202001N005110300019N0112651N1+02801+02301999999ADDGA1021+006009999GA2021+007509999GA3071+030009999GF107991999999999999999999MA1100911999999MW1001REMMET090RJAK 280400Z 20010KT 9999 FEW020 SCT025 BKN100 28/23 Q1009 RMK 1CU020 3CU025 6AC100 A2981;EQDQ01+000000PRSWM2
0227477160999992000072805004+36030+140200FM-15+0029RJAK V0202201N005110240019N0112651N1+02701+02201999999ADDGA1021+007509999GA2071+024009999GA3071+063009999GF107991999999999999999999MA1100911999999MW1001OC101081REMMET093RJAK 280500Z 22010G21KT 9999 FEW025 BKN080 BKN210 27/22 Q1009 RMK 2CU025 5AC080 7CI210 A2980;EQDQ01+000000PRSWM2
0249477160999992000072805044+36030+140200FM-16+0029RJAK V0202201N005110240019N0112651N1+02701+02201999999ADDGA1021+007509999GA2071+024009999GA3071+063009999GF107991999999999999999999MA1100911999999MW1801OC101081REMMET099RJAK 280504Z 22010G21KT 9999 -SHRA FEW025 BKN080 BKN210 27/22 Q1009 RMK 2CU025 5AC080 7CI210 A2980;EQDQ01+000003PRSWM1Q02    003PRSWM1
0238477160999992000072805354+36030+140200FM-16+0029RJAK V0202101N003610240019N0112651N1+02701+02401999999ADDGA1021+006009999GA2071+024009999GA3071+036009999GF107991999999999999999999MA1100911999999MW1801REMMET096RJAK 280535Z 21007KT 9999 -SHRA FEW020 BKN080 BKN120 27/24 Q1009 RMK 2CU020 5AC080 7AC120 A2980;EQDQ01+000003PRSWM1Q02    003PRSWM1
0243477160999992000072806004+36030+140200FM-15+0029RJAK V0202001N004110240019N0112651N1+02701+02301999999ADDGA1021+007509999GA2071+024009999GA3071+036009999GF107991999999999999999999MA1100911999999MW1001REMMET117RJAK 280600Z 20008KT 9999 FEW025 BKN080 BKN120 27/23 Q1009 RMK 2CU025 5AC080 7AC120 A2980 FCST 0615 TEMPO 0610 -SHRA;EQDQ01+000000PRSWM2
0238477160999992000072806304+36030+140200FM-15+0029RJAK V0202101N003110240019N0112651N1+02701+02301999999ADDGA1021+007509999GA2071+024009999GA3071+036009999GF107991999999999999999999MA1100911999999MW1801REMMET096RJAK 280630Z 21006KT 9999 -SHRA FEW025 BKN080 BKN120 27/23 Q1009 RMK 1CU025 6AC080 7AC120 A2980;EQDQ01+000003PRSWM1Q02    003PRSWM1
0216477160999992000072807004+36030+140200FM-15+0029RJAK V0201901N003110240019N0112651N1+02701+02301999999ADDGA1021+007509999GA2071+024009999GA3071+030009999GF107991999999999999999999MA1100911999999MW1001REMMET090RJAK 280700Z 19006KT 9999 FEW025 BKN080 BKN100 27/23 Q1009 RMK 2CU025 5AC080 6AC100 A2979;EQDQ01+000000PRSWM2
0243477160999992000072808004+36030+140200FM-15+0029RJAK V0202001N004110240019N0112651N1+02701+02301999999ADDGA1021+007509999GA2071+024009999GA3071+036009999GF107991999999999999999999MA1100811999999MW1001REMMET117RJAK 280800Z 20008KT 9999 FEW025 BKN080 BKN120 27/23 Q1008 RMK 1CU025 5AC080 6AC120 A2978 FCST 0817 TEMPO 0810 -SHRA;EQDQ01+000000PRSWM2
0197477160999992000073022004+36030+140200FM-15+0029RJAK V0201901N005712200019N0112651N1+02801+02401999999ADDGA1021+004509999GA2021+066009999GF104991999999999999999999MA1100911999999MW1001OC101081REMMET079RJAK 302200Z 19011G21KT 9999 FEW015 SCT220 28/24 Q1009 RMK 1CU015 3CI220 A2981;EQDQ01+000000PRSWM2
0213477160999992000073023004+36030+140200FM-15+0029RJAK V0202001N006212200019N0112651N1+02901+02401999999ADDGA1021+004509999GA2021+066009999GF104991999999999999999999MA1100911999999MW1001OC101131REMMET095RJAK 302300Z 20012G22KT 9999 FEW015 SCT220 29/24 Q1009 RMK 1CU015 3CI220 A2981 FCST 2308 NOSIG;EQDQ01+000000PRSWM2
0213477160999992000073100004+36030+140200FM-15+0029RJAK V0202001N006712200019N0112651N1+03001+02401999999ADDGA1021+004509999GA2021+066009999GF104991999999999999999999MA1100911999999MW1001OC101391REMMET095RJAK 310000Z 20013G27KT 9999 FEW015 SCT220 30/24 Q1009 RMK 1CU015 3CI220 A2981 FCST 0009 NOSIG;EQDQ01+000000PRSWM2
0167477160999992000073102004+36030+140200FM-15+0029RJAK V0202001N007712200019N0112651N1+03101+02401999999ADDGA1021+006009999GF102991999999999999999999MA1100911999999MW1001OC101391REMMET065RJAK 310200Z 20015G27KT 9999 FEW020 31/24 Q1009 RMK 1CU020 A2981;EQDQ01+000000PRSWM2
0167477160999992000073104004+36030+140200FM-15+0029RJAK V0202001N008712200019N0112651N1+03201+02301999999ADDGA1021+006009999GF102991999999999999999999MA1100811999999MW1001OC101441REMMET065RJAK 310400Z 20017G28KT 9999 FEW020 32/23 Q1008 RMK 1CU020 A2979;EQDQ01+000000PRSWM2
0197477160999992000073105004+36030+140200FM-15+0029RJAK V0201901N007712200019N0112651N1+03201+02301999999ADDGA1021+009009999GA2021+069009999GF104991999999999999999999MA1100811999999MW1001OC101341REMMET079RJAK 310500Z 19015G26KT 9999 FEW030 SCT230 32/23 Q1008 RMK 1CU030 3CI230 A2978;EQDQ01+000000PRSWM2
0213477160999992000073106004+36030+140200FM-15+0029RJAK V0202001N007712200019N0112651N1+03201+02301999999ADDGA1021+009009999GA2021+069009999GF104991999999999999999999MA1100811999999MW1001OC101491REMMET095RJAK 310600Z 20015G29KT 9999 FEW030 SCT230 32/23 Q1008 RMK 1CU030 3CI230 A2976 FCST 0615 NOSIG;EQDQ01+000000PRSWM2
0167477160999992000073107004+36030+140200FM-15+0029RJAK V0202001N007712200019N0112651N1+03101+02301999999ADDGA1021+009009999GF102991999999999999999999MA1100811999999MW1001OC101441REMMET065RJAK 310700Z 20015G28KT 9999 FEW030 31/23 Q1008 RMK 1CU030 A2977;EQDQ01+000000PRSWM2
0213477160999992000073108004+36030+140200FM-15+0029RJAK V0202001N005712200019N0112651N1+03001+02301999999ADDGA1021+009009999GA2021+069009999GF104991999999999999999999MA1100711999999MW1001OC101081REMMET095RJAK 310800Z 20011G21KT 9999 FEW030 SCT230 30/23 Q1007 RMK 1CU030 3CI230 A2976 FCST 0817 NOSIG;EQDQ01+000000PRSWM2
0156477160999992000073122004+36030+140200FM-15+0029RJAK V0202101N004612200019N0112651N1+02701+02401999999ADDGA1021+003009999GF102991999999999999999999MA1100911999999MW1001REMMET062RJAK 312200Z 21009KT 9999 FEW010 27/24 Q1009 RMK 2CU010 A2981;EQDQ01+000000PRSWM2
0188477160999992000073123004+36030+140200FM-15+0029RJAK V0202001N005112200019N0112651N1+02801+02401999999ADDGA1021+003609999GF102991999999999999999999MA1101021999999MW1001REMMET094RJAK 312300Z 20010KT 9999 FEW012 28/24 Q1010 RMK 2CU012 A2982 FCST 2308 TEMPO 0007 20012G23KT;EQDQ01+000000PRSWM2
0188477160999992000080100004+36030+140200FM-15+0029RJAK V0202101N003612200019N0112651N1+03001+02401999999ADDGA1021+003609999GF102991999999999999999999MA1101021999999MW1001REMMET094RJAK 010000Z 21007KT 9999 FEW012 30/24 Q1010 RMK 1CU012 A2982 FCST 0009 TEMPO 0106 21010G21KT;EQDQ01+000000PRSWM2
0156477160999992000080101004+36030+140200FM-15+0029RJAK V0202001N003612200019N0112651N1+03101+02501999999ADDGA1021+004509999GF104991999999999999999999MA1101021999999MW1001REMMET062RJAK 010100Z 20007KT 9999 SCT015 31/25 Q1010 RMK 3CU015 A2982;EQDQ01+000000PRSWM2
0155477160999992000080102004+36030+140200FM-15+0029RJAK V02099999999992200019N0112651N1+03201+02501999999ADDGA1021+006009999GF104991999999999999999999MA1100911999999MW1001REMMET061RJAK 010200Z 1809KT 9999 SCT020 32/25 Q1009 RMK 4CU020 A2982;EQDQ01+000000PRSWM2
0172477160999992000080103004+36030+140200FM-15+0029RJAK V0201801N005712200019N0112651N1+03201+02401999999ADDGA1021+009009999GF104991999999999999999999MA1100911999999MW1001REMMET078RJAK 010300Z 18011KT 9999 SCT030 32/24 Q1009 RMK 3CU030 A2981 FCST 0312 NOSIG;EQDQ01+000000PRSWM2
0156477160999992000080104004+36030+140200FM-15+0029RJAK V0201901N006212200019N0112651N1+03201+02301999999ADDGA1021+009009999GF102991999999999999999999MA1100811999999MW1001REMMET062RJAK 010400Z 19012KT 9999 FEW030 32/23 Q1008 RMK 2CU030 A2978;EQDQ01+000000PRSWM2
0156477160999992000080105004+36030+140200FM-15+0029RJAK V0202001N005712200019N0112651N1+03201+02301999999ADDGA1021+009009999GF102991999999999999999999MA1100811999999MW1001REMMET062RJAK 010500Z 20011KT 9999 FEW030 32/23 Q1008 RMK 2CU030 A2978;EQDQ01+000000PRSWM2
0172477160999992000080106004+36030+140200FM-15+0029RJAK V0201901N005712200019N0112651N1+03201+02401999999ADDGA1021+009009999GF102991999999999999999999MA1100811999999MW1001REMMET078RJAK 010600Z 19011KT 9999 FEW030 32/24 Q1008 RMK 2CU030 A2977 FCST 0615 NOSIG;EQDQ01+000000PRSWM2
0156477160999992000080107004+36030+140200FM-15+0029RJAK V0201901N006712200019N0112651N1+03201+02301999999ADDGA1021+009009999GF102991999999999999999999MA1100811999999MW1001REMMET062RJAK 010700Z 19013KT 9999 FEW030 32/23 Q1008 RMK 1CU030 A2978;EQDQ01+000000PRSWM2
0212477160999992000080107284+36030+140200FM-16+0029RJAK V0202001N007212200019N0112651N1+03101+02301999999ADDGA1021+009009999GA2021+010509099GF102991999999999999999999MA1100811999999MW1001OC101291REMMET094RJAK 010728Z 20014G25KT 9999 FEW030 FEW035CB 31/23 Q1008 RMK 2CU030 1CB035 A2978 CB N MOV UNK;EQDQ01+000000PRSWM2
0241477160999992000080108004+36030+140200FM-15+0029RJAK V0202001N006212200019N0112651N1+03101+02301999999ADDGA1021+009009999GA2021+010509099GF102991999999999999999999MA1100811999999MW1001OC101181REMMET123RJAK 010800Z 20012G23KT 9999 FEW030 FEW035CB 31/23 Q1008 RMK 1CU030 1CB035 A2977 CB N MOV UNK FCST 0817 BECMG 0911 20010KT;EQDQ01+000000PRSWM2
0156477160999992000080122004+36030+140200FM-15+0029RJAK V02099999999992200019N0090001N1+02601+02401999999ADDGA1021+004509999GF102991999999999999999999MA1101191999999MW1001REMMET062RJAK 012200Z VRB02KT 9000 FEW015 26/24 Q1012 RMK 2CU015 A2990;EQDQ01+000000PRSWM2
0172477160999992000080123004+36030+140200FM-15+0029RJAK V0202101N001512200019N0112651N1+02701+02401999999ADDGA1021+003609999GF104991999999999999999999MA1101291999999MW1001REMMET078RJAK 012300Z 21003KT 9999 SCT012 27/24 Q1013 RMK 3CU012 A2991 FCST 2308 NOSIG;EQDQ01+000000PRSWM2
0186477160999992000080200004+36030+140200FM-15+0029RJAK V02099999999992200019N0112651N1+02901+02401999999ADDGA1021+006009999GF104991999999999999999999MA1101191999999MW1001REMMET092RJAK 020000Z VRB03KT 9999 SCT020 29/24 Q1012 RMK 4CU020 A2991 FCST 0009 TEMPO 0809 BKN025CU;EQDQ01+000000PRSWM2
0186477160999992000080200304+36030+140200FM-15+0029RJAK V02099999999990075019N0112651N1+02901+02401999999ADDGA1021+006009999GA2071+007509999GF107991999999999999999999MA1101191999999MW1001REMMET076RJAK 020030Z VRB01KT 9999 FEW020 BKN025 29/24 Q1012 RMK 1CU020 5CU025 A2990;EQDQ01+000000PRSWM2
0254477160999992000080203004+36030+140200FM-15+0029RJAK V02099999999990090019N0112651N1+03101+02401999999ADDGA1021+007509029GA2071+009009999GF107991999999999999999999MA1101081999999MW1001REMMET144RJAK 020300Z VRB03KT 9999 FEW025TCU BKN030 31/24 Q1011 RMK 1TCU025 6CU030 A2987 TCU SW APCHG STN FCST 0312 TEMPO 0609 -SHRA BECMG 1112 SCT030CU;EQDQ01+000000PRSWM2
0203477160999992000080203354+36030+140200FM-16+0029RJAK V0201801N002110090019N0112651N1+03201+02501999999ADDGA1021+007509029GA2071+009009999GF107991999999999999999999MA1101081999999MW1001REMMET093RJAK 020335Z 18004KT 9999 FEW025TCU BKN030 32/25 Q1011 RMK 2TCU025 6CU030 A2986 TCU S MOV NE;EQDQ01+000000PRSWM2
0206477160999992000080204004+36030+140200FM-15+0029RJAK V0201801N002110090019N0112651N1+03301+02501999999ADDGA1021+007509029GA2071+009009999GF107991999999999999999999MA1101081999999MW1001REMMET096RJAK 020400Z 18004KT 9999 FEW025TCU BKN030 33/25 Q1011 RMK 2TCU025 6CU030 A2985 TCU S APCHG STN;EQDQ01+000000PRSWM2
0200477160999992000080204484+36030+140200FM-16+0029RJAK V0202001N004610090019N0112651N1+03301+02501999999ADDGA1021+007509099GA2071+009009999GF107991999999999999999999MA1101021999999MW1001REMMET090RJAK 020448Z 20009KT 9999 FEW025CB BKN030 33/25 Q1010 RMK 2CB025 5CU030 A2985 CB NE MOV E;EQDQ01+000000PRSWM2
0200477160999992000080205004+36030+140200FM-15+0029RJAK V0202001N004612200019N0112651N1+03301+02501999999ADDGA1021+007509099GA2021+009009999GF104991999999999999999999MA1101021999999MW1001REMMET090RJAK 020500Z 20009KT 9999 FEW025CB SCT030 33/25 Q1010 RMK 2CB025 4CU030 A2985 CB NE MOV E;EQDQ01+000000PRSWM2
0156477160999992000080222004+36030+140200FM-15+0029RJAK V0209999C000012200019N0112651N1+02601+02301999999ADDGA1021+006009999GF102991999999999999999999MA1101391999999MW1001REMMET062RJAK 022200Z 00000KT 9999 FEW020 26/23 Q1014 RMK 1CU020 A2994;EQDQ01+000000PRSWM2
0186477160999992000080223004+36030+140200FM-15+0029RJAK V0203401N001512200019N0112651N1+02701+02401999999ADDGA1021+004509999GF104991999999999999999999MA1101391999999MW1001REMMET092RJAK 022300Z 34003KT 9999 SCT015 27/24 Q1014 RMK 3CU015 A2994 FCST 2308 TEMPO 0608 BKN030CU;EQDQ01+000000PRSWM2
0156477160999992000080301004+36030+140200FM-15+0029RJAK V0200701N001512200019N0112651N1+03101+02301999999ADDGA1021+004509999GF104991999999999999999999MA1101291999999MW1001REMMET062RJAK 030100Z 07003KT 9999 SCT015 31/23 Q1013 RMK 3CU015 A2993;EQDQ01+000000PRSWM2
0186477160999992000080303004+36030+140200FM-15+0029RJAK V0200601N003112200019N0112651N1+03301+02401999999ADDGA1021+005409999GF104991999999999999999999MA1101291999999MW1001REMMET092RJAK 030300Z 06006KT 9999 SCT018 33/24 Q1013 RMK 3CU018 A2991 FCST 0312 TEMPO 0609 BKN020CU;EQDQ01+000000PRSWM2
0156477160999992000080304004+36030+140200FM-15+0029RJAK V0200601N003612200019N0112651N1+03301+02401999999ADDGA1021+006009999GF104991999999999999999999MA1101191999999MW1001REMMET062RJAK 030400Z 06007KT 9999 SCT020 33/24 Q1012 RMK 3CU020 A2990;EQDQ01+000000PRSWM2
0203477160999992000080305004+36030+140200FM-15+0029RJAK V0200801N004612200019N0112651N1+03401+02401999999ADDGA1021+006009999GA2021+009009029GF102991999999999999999999MA1101191999999MW1001REMMET093RJAK 030500Z 08009KT 9999 FEW020 FEW030TCU 34/24 Q1012 RMK 2CU020 1TCU030 A2989 TCU SW MOV E;EQDQ01+000000PRSWM2
0218477160999992000080306004+36030+140200FM-15+0029RJAK V0201301N003112200019N0112651N1+03301+02501999999ADDGA1021+006009999GA2021+009009029GF102991999999999999999999MA1101191999999MW1001REMMET108RJAK 030600Z 13006KT 9999 FEW020 FEW030TCU 33/25 Q1012 RMK 2CU020 1TCU030 A2989 TCU S MOV E FCST 0615 NOSIG;EQDQ01+000000PRSWM2
0202477160999992000080307004+36030+140200FM-15+0029RJAK V0201401N003112200019N0112651N1+03301+02501999999ADDGA1021+007509999GA2021+009009029GF102991999999999999999999MA1101191999999MW1001REMMET092RJAK 030700Z 14006KT 9999 SCT025 FEW030TCU 33/25 Q1012 RMK 3CU025 1TCU030 A2989 TCU N MOV E;EQDQ01+000000PRSWM2
0172477160999992000080308004+36030+140200FM-15+0029RJAK V0201401N002612200019N0112651N1+03201+02501999999ADDGA1021+007509999GF104991999999999999999999MA1101191999999MW1001REMMET078RJAK 030800Z 14005KT 9999 SCT025 32/25 Q1012 RMK 3CU025 A2989 FCST 0817 NOSIG;EQDQ01+000000PRSWM2
0181477160999992000080323184+36030+140200FM-16+0029RJAK V0201101N001012200019N0030001N1+02701+02401999999ADDGA1021+001809999GA2021+069009999GF104991999999999999999999MA1101491999999MW1101REMMET055RJAK 032318Z 11002KT 3000 BR FEW006 SCT230 27/24 Q1015;EQDQ01+000003PRSWM1Q02    003PRSWM1
0259477160999992000080400004+36030+140200FM-15+0029RJAK V0201401N001512200019N0050001N1+02801+02401999999ADDGA1021+004509999GA2021+036009999GF104991999999999999999999MA1101591999999MW1101REMMET133RJAK 040000Z 14003KT 5000 BR SCT015 SCT120 28/24 Q1016 RMK 3CU015 3AC120 A3000 FCST 0009 BECMG 0001 NSW TEMPO 0309 BKN020CU SCT230CI;EQDQ01+000003PRSWM1Q02    003PRSWM1
0195477160999992000080400334+36030+140200FM-16+0029RJAK V0209999999999220001CN0050001N1+02801+02401999999ADDGA1071+004509999GA2021+036009999MA1101591999999MW1101REMMET079RJAK 040033Z VRB03KT 5000 BR BKN015 SCT120 28/24 Q1016 RMK 5CU015 3AC120 A3000;EQDQ01+000042SCOTCVQ02+000003PRSWM1Q03    003PRSWM1
0175477160999992000080401004+36030+140200FM-15+0029RJAK V0200501N002610045019N0050001N1+02901+02501999999ADDGA1071+004509999GF107991999999999999999999MA1101591999999MW1101REMMET065RJAK 040100Z 05005KT 5000 BR BKN015 29/25 Q1016 RMK 5CU015 A3000;EQDQ01+000003PRSWM1Q02    003PRSWM1
0186477160999992000080402004+36030+140200FM-15+0029RJAK V0200901N002112200019N0060001N1+02901+02501999999ADDGA1021+005409999GA2021+036009999GF104991999999999999999999MA1101491999999MW1001REMMET076RJAK 040200Z 09004KT 6000 SCT018 SCT120 29/25 Q1015 RMK 3CU018 3AC120 A2999;EQDQ01+000000PRSWM2
0242477160999992000080403004+36030+140200FM-15+0029RJAK V0201401N002112200019N0080001N1+03001+02401999999ADDGA1021+006009999GA2021+033009999GF104991999999999999999999MA1101491999999MW1001REMMET132RJAK 040300Z 14004KT 8000 FEW020 SCT110 30/24 Q1015 RMK 2CU020 4AC110 A2997 FCST 0312 TEMPO 0512 BKN020CU BKN110AC TEMPO 0811 -SHRA;EQDQ01+000000PRSWM2
0262477160999992000080404004+36030+140200FM-15+0029RJAK V0201301N00261036001CN0090001N1+03201+02301999999ADDGA1021+006009999GA2021+009009029GA3021+036009999GA4071+069009999GF107991999999999999999999MA1101391999999MW1001REMMET120RJAK 040400Z 13005KT 9000 SCT020 FEW030TCU SCT120 BKN230 32/23 Q1014 RMK 3CU020 1TCU030 3AC120 5CI230 A2996 TCU N MOV E;EQDQ01+000000PRSWM2
0231477160999992000080405004+36030+140200FM-15+0029RJAK V0200701N004110690019N0112651N1+03301+02501999999ADDGA1021+007509999GA2021+009009029GA3071+069009999GF107991999999999999999999MA1101391999999MW1001REMMET105RJAK 040500Z 07008KT 9999 FEW025 FEW030TCU BKN230 33/25 Q1014 RMK 2CU025 1TCU030 5CI230 A2995 TCU N STNR;EQDQ01+000000PRSWM2
0271477160999992000080406004+36030+140200FM-15+0029RJAK V0200601N006710690019N0112651N1+03301+02401999999ADDGA1021+007509999GA2021+009009029GA3071+069009999GF107991999999999999999999MA1101391999999MW1001REMMET145RJAK 040600Z 06013KT 9999 SCT025 FEW030TCU BKN230 33/24 Q1014 RMK 3CU025 1TCU030 5CI230 A2995 TCU N MOV E FCST 0615 TEMPO 0710 BKN025CU BKN230CI;EQDQ01+000000PRSWM2
0235477160999992000080407004+36030+140200FM-15+0029RJAK V0201401N004110690019N0112651N1+03201+02301999999ADDGA1021+007509999GA2021+009009029GA3071+069009999GF107991999999999999999999MA1101391999999MW1001REMMET109RJAK 040700Z 14008KT 9999 FEW025 FEW030TCU BKN230 32/23 Q1014 RMK 2CU025 1TCU030 5CI230 A2995 TCU NW MOV UNK;EQDQ01+000000PRSWM2
0281477160999992000080408004+36030+140200FM-15+0029RJAK V0201501N00361036001CN0112651N1+03101+02101999999ADDGA1021+007509999GA2021+009009029GA3021+036009999GA4071+069009999GF107991999999999999999999MA1101491999999MW1001REMMET139RJAK 040800Z 15007KT 9999 FEW025 FEW030TCU SCT120 BKN230 31/21 Q1015 RMK 2CU025 1TCU030 3AC120 5CI230 A2997 TCU NW MOV UNK FCST 0817 NOSIG;EQDQ01+000000PRSWM2
0205477160999992000080622004+36030+140200FM-15+0029RJAK V0200401N001510030019N0040001N1+02501+02401999999ADDGA1021+001209999GA2071+003009999GF107991999999999999999999MA1101391999999MW1101REMMET079RJAK 062200Z 04003KT 4000 BR SCT004 BKN010 25/24 Q1014 RMK 3ST004 5CU010 A2994;EQDQ01+000003PRSWM1Q02    003PRSWM1
0266477160999992000080700004+36030+140200FM-15+0029RJAK V0200901N001510600019N0080001N1+02901+02301999999ADDGA1021+004509999GA2021+006009999GA3071+060009999GF107991999999999999999999MA1101391999999MW1001REMMET140RJAK 070000Z 09003KT 8000 FEW015 SCT020 BKN200 29/23 Q1014 RMK 2CU015 3CU020 5CI200 A2994 FCST 0009 TEMPO 0003 BKN010CU TEMPO 0409 BKN020CU;EQDQ01+000000PRSWM2
0235477160999992000080702004+36030+140200FM-15+0029RJAK V0200501N002110600019N0112651N1+03101+02201999999ADDGA1021+007509999GA2021+009009029GA3071+060009999GF107991999999999999999999MA1101291999999MW1001REMMET109RJAK 070200Z 05004KT 9999 SCT025 FEW030TCU BKN200 31/22 Q1013 RMK 3CU025 1TCU030 6CI200 A2992 TCU SE MOV UNK;EQDQ01+000000PRSWM2
0311477160999992000080703004+36030+140200FM-15+0029RJAK V0200901N00311009001CN0112651N1+03201+02301999999ADDGA1021+006009999GA2021+007509999GA3021+009009029GA4071+060009999GF107991999999999999999999MA1101191999999MW1001REMMET169RJAK 070300Z 09006KT 9999 FEW020 SCT025 FEW030TCU BKN200 32/23 Q1012 RMK 1CU020 3CU025 1TCU030 5CI200 A2991 TCU S STNR FCST 0312 TEMPO 0407 BKN020CU TEMPO 0712 BKN035SC;EQDQ01+000000PRSWM2
0234477160999992000080704004+36030+140200FM-15+0029RJAK V0201001N004612200019N0112651N1+03101+02301999999ADDGA1021+007509999GA2021+009009029GA3021+060009999GF104991999999999999999999MA1101191999999MW1001REMMET108RJAK 070400Z 10009KT 9999 SCT025 FEW030TCU SCT200 31/23 Q1012 RMK 3CU025 1TCU030 4CI200 A2989 TCU S MOV UNK;EQDQ01+000000PRSWM2
0234477160999992000080705004+36030+140200FM-15+0029RJAK V0201101N005110600019N0112651N1+03101+02401999999ADDGA1021+007509999GA2021+009009029GA3071+060009999GF107991999999999999999999MA1101081999999MW1001REMMET108RJAK 070500Z 11010KT 9999 SCT025 FEW030TCU BKN200 31/24 Q1011 RMK 3CU025 1TCU030 6CI200 A2987 TCU SW MOV SE;EQDQ01+000000PRSWM2
0320477160999992000080706004+36030+140200FM-15+0029RJAK V0200701N00771036001CN0112651N1+03001+02401999999ADDGA1021+007509999GA2021+009009029GA3021+036009999GA4071+060009999GF107991999999999999999999MA1101081999999MW1001REMMET178RJAK 070600Z 07015KT 9999 SCT025 FEW030TCU SCT120 BKN200 30/24 Q1011 RMK 3CU025 1TCU030 3AC120 7CI200 A2987 TCU W MOV UNK FCST 0615 TEMPO 0810 BKN020CU TEMPO 1015 -SHRA BKN020CU;EQDQ01+000000PRSWM2
0186477160999992000080722004+36030+140200FM-15+0029RJAK V0202801N001510690019N0060001N1+02501+02201999999ADDGA1021+036009999GA2071+069009999GF107991999999999999999999MA1101291999999MW1001REMMET076RJAK 072200Z 28003KT 6000 FEW120 BKN230 25/22 Q1013 RMK 1AC120 6CI230 A2993;EQDQ01+000000PRSWM2
0216477160999992000080723004+36030+140200FM-15+0029RJAK V0202601N001510690019N0070001N1+02601+02201999999ADDGA1021+036009999GA2071+069009999GF107991999999999999999999MA1101291999999MW1001REMMET106RJAK 072300Z 26003KT 7000 FEW120 BKN230 26/22 Q1013 RMK 1AC120 6CI230 A2993 FCST 2308 TEMPO 0608 BKN025CU;EQDQ01+000000PRSWM2
0186477160999992000080801004+36030+140200FM-15+0029RJAK V0202301N002112200019N0112651N1+02901+02101999999ADDGA1021+006009999GA2021+069009999GF104991999999999999999999MA1101291999999MW1001REMMET076RJAK 080100Z 23004KT 9999 FEW020 SCT230 29/21 Q1013 RMK 1CU020 3CI230 A2993;EQDQ01+000000PRSWM2
0212477160999992000080803004+36030+140200FM-15+0029RJAK V0201501N002612200019N0112651N1+03201+02201999999ADDGA1021+007509999GF104991999999999999999999MA1101191999999MW1001REMMET118RJAK 080300Z 15005KT 9999 SCT025 32/22 Q1012 RMK 3CU025 A2989 FCST 0312 TEMPO 0710 BKN025CU TEMPO 1012 -SHRA BKN025CU;EQDQ01+000000PRSWM2
0156477160999992000080804004+36030+140200FM-15+0029RJAK V0201801N003112200019N0112651N1+03201+02101999999ADDGA1021+007509999GF104991999999999999999999MA1101081999999MW1001REMMET062RJAK 080400Z 18006KT 9999 SCT025 32/21 Q1011 RMK 3CU025 A2988;EQDQ01+000000PRSWM2
0156477160999992000080805004+36030+140200FM-15+0029RJAK V0201601N001512200019N0112651N1+03301+02101999999ADDGA1021+009009999GF104991999999999999999999MA1101081999999MW1001REMMET062RJAK 080500Z 16003KT 9999 SCT030 33/21 Q1011 RMK 3CU030 A2987;EQDQ01+000000PRSWM2
0259477160999992000080806004+36030+140200FM-15+0029RJAK V0201901N001512200019N0112651N1+03301+02101999999ADDGA1021+009009999GA2021+010509029GF102991999999999999999999MA1101081999999MW1001REMMET149RJAK 080600Z 19003KT 9999 SCT030 FEW035TCU 33/21 Q1011 RMK 4CU030 1TCU035 A2986 TCU SW MOV E FCST 0615 TEMPO 0810 BKN030CU TEMPO 1013 -SHRA BKN030CU;EQDQ01+000000PRSWM2
0209477160999992000080807004+36030+140200FM-15+0029RJAK V0201301N004112200019N0112651N1+03201+02301999999ADDGA1021+007509999GA2021+009009029GF102991999999999999999999MA1101081999999MW1001REMMET099RJAK 080700Z 13008KT 9999 SCT025 FEW030TCU 32/23 Q1011 RMK 3CU025 1TCU030 A2985 TCU N AND SW MOV E;EQDQ01+000000PRSWM2
0265477160999992000080807274+36030+140200FM-16+0029RJAK V0201201N003610090019N0112651N1+03101+02401999999ADDGA1021+006009999GA2071+009009999GA3021+010509029GA4071+069009999GF107991999999999999999999MA1101081999999MW1001REMMET123RJAK 080727Z 12007KT 9999 FEW020 BKN030 FEW035TCU BKN230 31/24 Q1011 RMK 1CU020 5CU030 1TCU035 5CI230 A2988 TCU OHD MOV SE;EQDQ01+000000PRSWM2
0295477160999992000080807354+36030+140200FM-16+0029RJAK V0200901N004110075019N0112651N1+02801+02201999999ADDGA1021+006009999GA2071+007509999GA3021+009009099GA4071+069009999GF107991999999999999999999MA1101191999999MW1171OC101131REMMET129RJAK 080735Z 09008G22KT 9999 TS SCT020 BKN025 FEW030CB BKN230 28/22 Q1012 RMK 3CU020 5CU025 1CB030 5CI230 A2988 FBL TS OHD MOV S;EQDQ01+000003PRSWM1Q02    003PRSWM1
0363477160999992000080808004+36030+140200FM-15+0029RJAK V0200501N006210075019N0060001N1+02601+02101999999ADDGA1021+006009999GA2071+007509999GA3021+009009099GA4071+069009999GF107991999999999999999999MA1101081999999MW1811MW2951OC101391REMMET191RJAK 080800Z 05012G27KT 6000 TSRA SCT020 BKN025 SCT030CB BKN230 26/21 Q1011 RMK 3CU020 6CU025 3CB030 7CI230 A2988 MOD TS OHD MOV S FCST 0817 BECMG 0810 24006KT -SHRA BECMG 1012 NSW SCT025 CU;EQDQ01+000003PRSWM1Q02    003PRSWM1
0259477160999992000080823004+36030+140200FM-15+0029RJAK V0200401N002110024019N0040001N1+02501+02301999999ADDGA1021+001809999GA2081+002409999GF108991999999999999999999MA1101491999999MW1101REMMET133RJAK 082300Z 04004KT 4000 BR SCT006 OVC008 25/23 Q1015 RMK 4ST006 8ST008 A2997 FCST 2308 BECMG 2301 NSW BKN010ST BECMG 0102 SCT015CU;EQDQ01+000003PRSWM1Q02    003PRSWM1
0304477160999992000080900004+36030+140200FM-15+0029RJAK V0200501N002610045019N0045001N1+02501+02301999999ADDGA1021+002409999GA2071+004509999GA3081+024009999GF108991999999999999999999MA1101491999999MW1101REMMET162RJAK 090000Z 05005KT 4500 BR FEW008 BKN015 OVC080 25/23 Q1015 RMK 2ST008 5CU015 8AC080 A2997 FCST 0009 BECMG 0002 NSW FEW010CU SCT015CU TEMPO 0709 -SHRA BKN020CU;EQDQ01+000003PRSWM1Q02    003PRSWM1
0216477160999992000080901004+36030+140200FM-15+0029RJAK V0200801N002610060019N0060001N1+02701+02301999999ADDGA1021+004509999GA2071+006009999GA3071+024009999GF107991999999999999999999MA1101491999999MW1001REMMET090RJAK 090100Z 08005KT 6000 SCT015 BKN020 BKN080 27/23 Q1015 RMK 3CU015 6CU020 7AC080 A2997;EQDQ01+000000PRSWM2
0230477160999992000080903004+36030+140200FM-15+0029RJAK V0200801N002612200019N0080001N1+02801+02301999999ADDGA1021+005709999GA2021+007509999GF104991999999999999999999MA1101291999999MW1001REMMET120RJAK 090300Z 08005KT 8000 FEW019 SCT025 28/23 Q1013 RMK 2CU019 4CU025 A2994 FCST 0312 TEMPO 0712 5000 -TSRA BR BKN020CU;EQDQ01+000000PRSWM2
0186477160999992000080904004+36030+140200FM-15+0029RJAK V0200801N002612200019N0080001N1+03001+02301999999ADDGA1021+006009999GA2021+069009999GF104991999999999999999999MA1101291999999MW1001REMMET076RJAK 090400Z 08005KT 8000 FEW020 SCT230 30/23 Q1013 RMK 1CU020 4CI230 A2991;EQDQ01+000000PRSWM2
0239477160999992000080906004+36030+140200FM-15+0029RJAK V0200901N005112200019N0080001N1+03001+02301999999ADDGA1021+007509999GA2021+069009999GF104991999999999999999999MA1101081999999MW1001REMMET129RJAK 090600Z 09010KT 8000 FEW025 SCT230 30/23 Q1011 RMK 2CU025 4CI230 A2988 FCST 0615 TEMPO 0915 -SHRA BKN030CU TEMPO 1113 -TSRA;EQDQ01+000000PRSWM2
0205477160999992000080922444+36030+140200FM-16+0029RJAK V0201701N001512200019N0040001N1+02501+02301999999ADDGA1021+009009999GA2021+036009999GF104991999999999999999999MA1101191999999MW1101REMMET079RJAK 092244Z 17003KT 4000 BR FEW030 SCT120 25/23 Q1012 RMK 2CU030 3AC120 A2989;EQDQ01+000003PRSWM1Q02    003PRSWM1
0202477160999992000080923004+36030+140200FM-15+0029RJAK V0201801N001512200019N0070001N1+02501+02201999999ADDGA1021+009009999GA2021+036009999GF104991999999999999999999MA1101191999999MW1001REMMET092RJAK 092300Z 18003KT 7000 FEW030 SCT120 25/22 Q1012 RMK 2CU030 3AC120 A2989 FCST 2308 NOSIG;EQDQ01+000000PRSWM2
0172477160999992000081000004+36030+140200FM-15+0029RJAK V0202301N002112200019N0070001N1+02701+02201999999ADDGA1021+006009999GF102991999999999999999999MA1101191999999MW1001REMMET078RJAK 100000Z 23004KT 7000 FEW020 27/22 Q1012 RMK 2CU020 A2989 FCST 0009 NOSIG;EQDQ01+000000PRSWM2
0186477160999992000081001004+36030+140200FM-15+0029RJAK V0202501N001512200019N0112651N1+02801+02301999999ADDGA1021+006009999GA2021+060009999GF104991999999999999999999MA1101081999999MW1001REMMET076RJAK 100100Z 25003KT 9999 SCT020 SCT200 28/23 Q1011 RMK 3CU020 3CI200 A2987;EQDQ01+000000PRSWM2
0186477160999992000081002004+36030+140200FM-15+0029RJAK V0202001N002112200019N0112651N1+02901+02301999999ADDGA1021+008109999GA2021+066009999GF104991999999999999999999MA1101081999999MW1001REMMET076RJAK 100200Z 20004KT 9999 SCT027 SCT220 29/23 Q1011 RMK 3CU027 3CI220 A2985;EQDQ01+000000PRSWM2
0172477160999992000081003004+36030+140200FM-15+0029RJAK V0202101N001512200019N0112651N1+03001+02201999999ADDGA1021+009009999GF104991999999999999999999MA1101021999999MW1001REMMET078RJAK 100300Z 21003KT 9999 SCT030 30/22 Q1010 RMK 3CU030 A2983 FCST 0312 NOSIG;EQDQ01+000000PRSWM2
0202477160999992000081023004+36030+140200FM-15+0029RJAK V0202801N002112200019N0112651N1+02601+02201999999ADDGA1021+039009999GA2021+063009999GF104991999999999999999999MA1100811999999MW1001REMMET092RJAK 102300Z 28004KT 9999 FEW130 SCT210 26/22 Q1008 RMK 1AC130 3CI210 A2978 FCST 2308 NOSIG;EQDQ01+000000PRSWM2
0202477160999992000081100004+36030+140200FM-15+0029RJAK V0202701N002112200019N0112651N1+02801+02201999999ADDGA1021+030009999GA2021+063009999GF104991999999999999999999MA1100811999999MW1001REMMET092RJAK 110000Z 27004KT 9999 FEW100 SCT210 28/22 Q1008 RMK 1AC100 3CI210 A2978 FCST 0009 NOSIG;EQDQ01+000000PRSWM2
0186477160999992000081101004+36030+140200FM-15+0029RJAK V0202301N001512200019N0112651N1+02901+02301999999ADDGA1021+009009999GA2021+063009999GF104991999999999999999999MA1100811999999MW1001REMMET076RJAK 110100Z 23003KT 9999 FEW030 SCT210 29/23 Q1008 RMK 1CU030 3CI210 A2977;EQDQ01+000000PRSWM2
0156477160999992000081102004+36030+140200FM-15+0029RJAK V0201901N003112200019N0112651N1+03101+02401999999ADDGA1021+007509999GF102991999999999999999999MA1100711999999MW1001REMMET062RJAK 110200Z 19006KT 9999 FEW025 31/24 Q1007 RMK 2CU025 A2975;EQDQ01+000000PRSWM2
0156477160999992000081104004+36030+140200FM-15+0029RJAK V0202001N003612200019N0112651N1+03301+02301999999ADDGA1021+007509999GF102991999999999999999999MA1100611999999MW1001REMMET062RJAK 110400Z 20007KT 9999 FEW025 33/23 Q1006 RMK 1CU025 A2973;EQDQ01+000000PRSWM2
0156477160999992000081105004+36030+140200FM-15+0029RJAK V0202001N005112200019N0112651N1+03201+02301999999ADDGA1021+007509999GF102991999999999999999999MA1100611999999MW1001REMMET062RJAK 110500Z 20010KT 9999 FEW025 32/23 Q1006 RMK 1CU025 A2972;EQDQ01+000000PRSWM2
0172477160999992000081106004+36030+140200FM-15+0029RJAK V0202101N005712200019N0112651N1+03301+02301999999ADDGA1021+007509999GF102991999999999999999999MA1100611999999MW1001REMMET078RJAK 110600Z 21011KT 9999 FEW025 33/23 Q1006 RMK 1CU025 A2971 FCST 0615 NOSIG;EQDQ01+000000PRSWM2
0197477160999992000081107004+36030+140200FM-15+0029RJAK V0201901N006712200019N0112651N1+03101+02301999999ADDGA1021+007509999GA2021+063009999GF104991999999999999999999MA1100611999999MW1001OC101391REMMET079RJAK 110700Z 19013G27KT 9999 FEW025 SCT210 31/23 Q1006 RMK 1CU025 3CI210 A2971;EQDQ01+000000PRSWM2
0226477160999992000081108004+36030+140200FM-15+0029RJAK V0202001N006712200019N0112651N1+03001+02301999999ADDGA1021+007509999GA2021+063009999GF104991999999999999999999MA1100611999999MW1001OC101341REMMET108RJAK 110800Z 20013G26KT 9999 FEW025 SCT210 30/23 Q1006 RMK 1CU025 3CI210 A2971 FCST 0817 BECMG 0810 20010KT;EQDQ01+000000PRSWM2
0216477160999992000081322004+36030+140200FM-15+0029RJAK V0203001N001510120019N0112651N1+02201+02001999999ADDGA1021+003009999GA2021+007509999GA3071+012009999GF107991999999999999999999MA1100311999999MW1001REMMET090RJAK 132200Z 30003KT 9999 FEW010 SCT025 BKN040 22/20 Q1003 RMK 2ST010 3CU025 6SC040 A2963;EQDQ01+000000PRSWM2
0216477160999992000081323004+36030+140200FM-15+0029RJAK V0203201N001510120019N0112651N1+02401+02001999999ADDGA1021+007509999GA2071+012009999GF107991999999999999999999MA1100311999999MW1001REMMET106RJAK 132300Z 32003KT 9999 SCT025 BKN040 24/20 Q1003 RMK 3CU025 7SC040 A2964 FCST 2308 BECMG 0204 SCT040SC;EQDQ01+000000PRSWM2
0216477160999992000081400004+36030+140200FM-15+0029RJAK V0200101N001010120019N0112651N1+02501+02101999999ADDGA1021+007509999GA2071+012009999GF107991999999999999999999MA1100411999999MW1001REMMET106RJAK 140000Z 01002KT 9999 SCT025 BKN040 25/21 Q1004 RMK 3CU025 6SC040 A2965 FCST 0009 BECMG 0305 SCT040SC;EQDQ01+000000PRSWM2
0186477160999992000081401004+36030+140200FM-15+0029RJAK V0203501N001510120019N0112651N1+02701+02101999999ADDGA1021+007509999GA2071+012009999GF107991999999999999999999MA1100311999999MW1001REMMET076RJAK 140100Z 35003KT 9999 SCT025 BKN040 27/21 Q1003 RMK 4CU025 7SC040 A2964;EQDQ01+000000PRSWM2
0186477160999992000081402004+36030+140200FM-15+0029RJAK V0203301N002110120019N0112651N1+02701+02101999999ADDGA1021+007509999GA2071+012009999GF107991999999999999999999MA1100311999999MW1001REMMET076RJAK 140200Z 33004KT 9999 SCT025 BKN040 27/21 Q1003 RMK 3CU025 6SC040 A2962;EQDQ01+000000PRSWM2
0186477160999992000081403324+36030+140200FM-16+0029RJAK V0200901N002612200019N0112651N1+02901+02201999999ADDGA1021+006009999GA2021+009009999GF104991999999999999999999MA1100201999999MW1001REMMET076RJAK 140332Z 09005KT 9999 FEW020 SCT030 29/22 Q1002 RMK 1CU020 3CU030 A2960;EQDQ01+000000PRSWM2
0186477160999992000081404004+36030+140200FM-15+0029RJAK V0200701N004612200019N0112651N1+03001+02301999999ADDGA1021+004509999GA2021+007509999GF104991999999999999999999MA1100201999999MW1001REMMET076RJAK 140400Z 07009KT 9999 FEW015 SCT025 30/23 Q1002 RMK 1CU015 4CU025 A2960;EQDQ01+000000PRSWM2
0186477160999992000081405004+36030+140200FM-15+0029RJAK V0200801N005712200019N0112651N1+02901+02201999999ADDGA1021+007509999GA2021+009009999GF104991999999999999999999MA1100201999999MW1001REMMET076RJAK 140500Z 08011KT 9999 FEW025 SCT030 29/22 Q1002 RMK 2CU025 4CU030 A2960;EQDQ01+000000PRSWM2
0172477160999992000081406004+36030+140200FM-15+0029RJAK V0200701N006712200019N0112651N1+02901+02201999999ADDGA1021+009009999GF104991999999999999999999MA1100201999999MW1001REMMET078RJAK 140600Z 07013KT 9999 SCT030 29/22 Q1002 RMK 3CU030 A2960 FCST 0615 NOSIG;EQDQ01+000000PRSWM2
0156477160999992000081407004+36030+140200FM-15+0029RJAK V0200801N006712200019N0112651N1+02801+02101999999ADDGA1021+009009999GF102991999999999999999999MA1100201999999MW1001REMMET062RJAK 140700Z 08013KT 9999 FEW030 28/21 Q1002 RMK 1CU030 A2960;EQDQ01+000000PRSWM2
0216477160999992000081500004+36030+140200FM-15+0029RJAK V0200701N003612200019N0080001N1+02701+02201999999ADDGA1021+009009999GA2021+036009999GF104991999999999999999999MA1100511999999MW1001REMMET106RJAK 150000Z 07007KT 8000 SCT030 SCT120 27/22 Q1005 RMK 3CU030 4AC120 A2970 FCST 0009 TEMPO 0709 BKN030CU;EQDQ01+000000PRSWM2
0186477160999992000081501004+36030+140200FM-15+0029RJAK V0200901N003612200019N0112651N1+02701+02201999999ADDGA1021+009009999GA2021+036009999GF104991999999999999999999MA1100611999999MW1001REMMET076RJAK 150100Z 09007KT 9999 FEW030 SCT120 27/22 Q1006 RMK 2CU030 4AC120 A2970;EQDQ01+000000PRSWM2
0186477160999992000081502004+36030+140200FM-15+0029RJAK V0200801N003112200019N0112651N1+02901+02201999999ADDGA1021+009009999GA2021+030009999GF104991999999999999999999MA1100511999999MW1001REMMET076RJAK 150200Z 08006KT 9999 FEW030 SCT100 29/22 Q1005 RMK 2CU030 4AC100 A2970;EQDQ01+000000PRSWM2
0203477160999992000081503004+36030+140200FM-15+0029RJAK V02099999999992200019N0112651N1+02901+02201999999ADDGA1021+009009999GF104991999999999999999999MA1100511999999MW1001REMMET109RJAK 150300Z VRB03KT 9999 SCT030 29/22 Q1005 RMK 4CU030 A2969 FCST 0312 TEMPO 0712 BKN030CU TEMPO 0912 -SHRA;EQDQ01+000000PRSWM2
0216477160999992000081522004+36030+140200FM-15+0029RJAK V0200401N001510240019N0112651N1+02501+02201999999ADDGA1021+006009999GA2021+012009999GA3071+024009999GF107991999999999999999999MA1100811999999MW1001REMMET090RJAK 152200Z 04003KT 9999 FEW020 SCT040 BKN080 25/22 Q1008 RMK 1CU020 3SC040 6AC080 A2977;EQDQ01+000000PRSWM2
0225477160999992000081600004+36030+140200FM-15+0029RJAK V0200901N002610060019N0112651N1+02601+02201999999ADDGA1071+006009999GA2071+030009999GF107991999999999999999999MA1100811999999MW1001REMMET115RJAK 160000Z 09005KT 9999 BKN020 BKN100 26/22 Q1008 RMK 5CU020 6AC100 A2978 FCST 0009 BECMG 0204 SCT020CU BKN100AC;EQDQ01+000000PRSWM2
0186477160999992000081601004+36030+140200FM-15+0029RJAK V0200901N004112200019N0112651N1+02801+02201999999ADDGA1021+006009999GA2021+030009999GF104991999999999999999999MA1100811999999MW1001REMMET076RJAK 160100Z 09008KT 9999 SCT020 SCT100 28/22 Q1008 RMK 3CU020 4AC100 A2978;EQDQ01+000000PRSWM2
0225477160999992000081603004+36030+140200FM-15+0029RJAK V0200701N004112200019N0112651N1+02901+02201999999ADDGA1021+006009999GA2021+007509999GF104991999999999999999999MA1100811999999MW1001REMMET115RJAK 160300Z 07008KT 9999 FEW020 SCT025 29/22 Q1008 RMK 2CU020 3CU025 A2977 FCST 0312 TEMPO 0712 FEW020CU BKN040SC;EQDQ01+000000PRSWM2
0186477160999992000081604004+36030+140200FM-15+0029RJAK V0201001N003612200019N0112651N1+03001+02201999999ADDGA1021+006009999GA2021+007509999GF104991999999999999999999MA1100711999999MW1001REMMET076RJAK 160400Z 10007KT 9999 FEW020 SCT025 30/22 Q1007 RMK 2CU020 4CU025 A2975;EQDQ01+000000PRSWM2
0186477160999992000081605004+36030+140200FM-15+0029RJAK V0200801N005112200019N0112651N1+03001+02201999999ADDGA1021+006009999GA2021+007509999GF104991999999999999999999MA1100711999999MW1001REMMET076RJAK 160500Z 08010KT 9999 FEW020 SCT025 30/22 Q1007 RMK 1CU020 3CU025 A2975;EQDQ01+000000PRSWM2
0233477160999992000081606004+36030+140200FM-15+0029RJAK V0200901N006212200019N0112651N1+02901+02101999999ADDGA1021+006009999GA2021+007509999GF104991999999999999999999MA1100711999999MW1001REMMET123RJAK 160600Z 09012KT 9999 FEW020 SCT025 29/21 Q1007 RMK 1CU020 3CU025 A2974 FCST 0615 TEMPO 0813 BKN025CU TEMPO 1013 -SHRA;EQDQ01+000000PRSWM2
0311477160999992000081608004+36030+140200FM-15+0029RJAK V0200801N005710690019N0112651N1+02601+02001999999ADDGA1021+007509999GA2021+010509099GA3071+069009999GF107991999999999999999999MA1100811999999MW1001REMMET185RJAK 160800Z 08011KT 9999 SCT025 FEW035CB BKN230 26/20 Q1008 RMK 4CU025 1CB035 6CI230 A2976 CB N MOV UNK FCST 0817 TEMPO 0810 -SHRA TEMPO 1014 -TSRA SCT025CU FEW035CB BKN045SC BKN120AC;EQDQ01+000000PRSWM2
0186477160999992000081622284+36030+140200FM-16+0029RJAK V0200601N003110060019N0112651N1+02401+02101999999ADDGA1021+003009999GA2071+006009999GF107991999999999999999999MA1101021999999MW1001REMMET076RJAK 162228Z 06006KT 9999 SCT010 BKN020 24/21 Q1010 RMK 3CU010 5CU020 A2982;EQDQ01+000000PRSWM2
0254477160999992000081623004+36030+140200FM-15+0029RJAK V0200501N003110060019N0112651N1+02401+02101999999ADDGA1021+003009999GA2071+006009999GF107991999999999999999999MA1101021999999MW1001REMMET144RJAK 162300Z 05006KT 9999 FEW010 BKN020 24/21 Q1010 RMK 2CU010 6CU020 A2983 FCST 2308 BECMG 0103 FEW010CU SCT020CU TEMPO 0708 SCT030CU BKN040SC;EQDQ01+000000PRSWM2
0254477160999992000081700004+36030+140200FM-15+0029RJAK V0200901N002610105019N0112651N1+02501+02001999999ADDGA1021+004509999GA2071+010509999GF107991999999999999999999MA1101021999999MW1001REMMET144RJAK 170000Z 09005KT 9999 FEW015 BKN035 25/20 Q1010 RMK 2CU015 6SC035 A2982 FCST 0009 TEMPO 0103 FEW015CU SCT035SC TEMPO 0709 SCT030CU BKN040SC;EQDQ01+000000PRSWM2
0186477160999992000081701004+36030+140200FM-15+0029RJAK V0200701N003610105019N0112651N1+02601+02101999999ADDGA1021+006009999GA2071+010509999GF107991999999999999999999MA1100911999999MW1001REMMET076RJAK 170100Z 07007KT 9999 SCT020 BKN035 26/21 Q1009 RMK 3CU020 7SC035 A2981;EQDQ01+000000PRSWM2
0186477160999992000081702004+36030+140200FM-15+0029RJAK V0200801N003110105019N0112651N1+02601+02101999999ADDGA1021+006009999GA2071+010509999GF107991999999999999999999MA1100911999999MW1001REMMET076RJAK 170200Z 08006KT 9999 SCT020 BKN035 26/21 Q1009 RMK 4CU020 7SC035 A2981;EQDQ01+000000PRSWM2
0225477160999992000081703004+36030+140200FM-15+0029RJAK V0200901N003110105019N0112651N1+02501+02101999999ADDGA1021+006009999GA2071+010509999GF107991999999999999999999MA1100911999999MW1001REMMET115RJAK 170300Z 09006KT 9999 SCT020 BKN035 25/21 Q1009 RMK 4CU020 7SC035 A2981 FCST 0312 TEMPO 0308 FEW020CU SCT035SC;EQDQ01+000000PRSWM2
0186477160999992000081704004+36030+140200FM-15+0029RJAK V0200801N003612200019N0112651N1+02701+02101999999ADDGA1021+006009999GA2021+012009999GF104991999999999999999999MA1100811999999MW1001REMMET076RJAK 170400Z 08007KT 9999 SCT020 SCT040 27/21 Q1008 RMK 3CU020 3SC040 A2978;EQDQ01+000000PRSWM2
0156477160999992000081705004+36030+140200FM-15+0029RJAK V0200801N003112200019N0112651N1+02701+02101999999ADDGA1021+006009999GF102991999999999999999999MA1100811999999MW1001REMMET062RJAK 170500Z 08006KT 9999 FEW020 27/21 Q1008 RMK 2CU020 A2977;EQDQ01+000000PRSWM2
0195477160999992000081706004+36030+140200FM-15+0029RJAK V0201001N003612200019N0112651N1+02801+02201999999ADDGA1021+006009999GF102991999999999999999999MA1100711999999MW1001REMMET101RJAK 170600Z 10007KT 9999 FEW020 28/22 Q1007 RMK 2CU020 A2975 FCST 0615 TEMPO 0912 FEW020CU BKN040SC;EQDQ01+000000PRSWM2
0156477160999992000081707004+36030+140200FM-15+0029RJAK V0201401N002612200019N0112651N1+02801+02201999999ADDGA1021+006009999GF104991999999999999999999MA1100711999999MW1001REMMET062RJAK 170700Z 14005KT 9999 SCT020 28/22 Q1007 RMK 3CU020 A2975;EQDQ01+000000PRSWM2
0204477160999992000081708004+36030+140200FM-15+0029RJAK V0201301N003612200019N0112651N1+02701+02101999999ADDGA1021+006009999GF102991999999999999999999MA1100711999999MW1001REMMET110RJAK 170800Z 13007KT 9999 FEW020 27/21 Q1007 RMK 2CU020 A2974 FCST 0817 BECMG 1315 FEW020CU SCT040SC BKN100AC;EQDQ01+000000PRSWM2
0264477160999992000081723004+36030+140200FM-15+0029RJAK V0200601N002110102019N0060001N1+02301+02001999999ADDGA1021+002409999GA2021+006009999GA3081+010209999GF108991999999999999999999MA1100911999999MW1001REMMET138RJAK 172300Z 06004KT 6000 FEW008 SCT020 OVC034 23/20 Q1009 RMK 2CU008 4CU020 8SC034 A2979 FCST 2308 BECMG 0204 FEW020CU SCT035SC SCT120AC;EQDQ01+000000PRSWM2
0274477160999992000081800004+36030+140200FM-15+0029RJAK V0201501N000510075019N0050001N1+02301+02001999999ADDGA1021+003609999GA2071+007509999GA3081+012009999GF108991999999999999999999MA1100911999999MW1101REMMET132RJAK 180000Z 15001KT 5000 BR FEW012 BKN025 OVC040 23/20 Q1009 RMK 2CU012 5CU025 8SC040 A2980 FCST 0009 TEMPO 0309 SCT025CU BKN040SC;EQDQ01+000003PRSWM1Q02    003PRSWM1
0186477160999992000081804004+36030+140200FM-15+0029RJAK V0201001N004610240019N0112651N1+02801+01601999999ADDGA1021+007509999GA2071+024009999GF107991999999999999999999MA1100811999999MW1001REMMET076RJAK 180400Z 10009KT 9999 FEW025 BKN080 28/16 Q1008 RMK 1CU025 6AC080 A2976;EQDQ01+000000PRSWM2
0186477160999992000081805004+36030+140200FM-15+0029RJAK V0200901N004610240019N0112651N1+02801+01601999999ADDGA1021+007509999GA2071+024009999GF107991999999999999999999MA1100711999999MW1001REMMET076RJAK 180500Z 09009KT 9999 FEW025 BKN080 28/16 Q1007 RMK 1CU025 6AC080 A2975;EQDQ01+000000PRSWM2
0156477160999992000081807004+36030+140200FM-15+0029RJAK V0200801N005712200019N0112651N1+02701+01701999999ADDGA1021+006009999GF102991999999999999999999MA1100711999999MW1001REMMET062RJAK 180700Z 08011KT 9999 FEW020 27/17 Q1007 RMK 1CU020 A2974;EQDQ01+000000PRSWM2
0172477160999992000081823004+36030+140200FM-15+0029RJAK V0200701N002112200019N0112651N1+02401+02001999999ADDGA1021+007509999GF102991999999999999999999MA1100811999999MW1001REMMET078RJAK 182300Z 07004KT 9999 FEW025 24/20 Q1008 RMK 1CU025 A2977 FCST 2308 NOSIG;EQDQ01+000000PRSWM2
0156477160999992000081901004+36030+140200FM-15+0029RJAK V0200501N002612200019N0112651N1+02601+02001999999ADDGA1021+007509999GF102991999999999999999999MA1100811999999MW1001REMMET062RJAK 190100Z 05005KT 9999 FEW025 26/20 Q1008 RMK 2CU025 A2977;EQDQ01+000000PRSWM2
0156477160999992000081902004+36030+140200FM-15+0029RJAK V0200601N003112200019N0112651N1+02801+01901999999ADDGA1021+007509999GF102991999999999999999999MA1100711999999MW1001REMMET062RJAK 190200Z 06006KT 9999 FEW025 28/19 Q1007 RMK 2CU025 A2975;EQDQ01+000000PRSWM2
0156477160999992000082022004+36030+140200FM-15+0029RJAK V0201401N001512200019N0080001N1+02501+02201999999ADDGA1021+006009999GF102991999999999999999999MA1101021999999MW1001REMMET062RJAK 202200Z 14003KT 8000 FEW020 25/22 Q1010 RMK 1CU020 A2985;EQDQ01+000000PRSWM2
0186477160999992000082022304+36030+140200FM-15+0029RJAK V0202001N002610075019N0080001N1+02501+02201999999ADDGA1021+004509999GA2071+007509999GF107991999999999999999999MA1101081999999MW1001REMMET076RJAK 202230Z 20005KT 8000 FEW015 BKN025 25/22 Q1011 RMK 1CU015 5CU025 A2986;EQDQ01+000000PRSWM2
0225477160999992000082023004+36030+140200FM-15+0029RJAK V0202001N002612200019N0080001N1+02601+02201999999ADDGA1021+004509999GA2021+007509999GF104991999999999999999999MA1101081999999MW1001REMMET115RJAK 202300Z 20005KT 8000 FEW015 SCT025 26/22 Q1011 RMK 1CU015 3CU025 A2986 FCST 2308 TEMPO 2303 FEW015CU BKN025CU;EQDQ01+000000PRSWM2
0245477160999992000082100004+36030+140200FM-15+0029RJAK V0202201N002110075019N0112651N1+02701+02301999999ADDGA1021+004509999GA2071+007509999GF107991999999999999999999MA1101021999999MW1001REMMET135RJAK 210000Z 22004KT 9999 SCT015 BKN025 27/23 Q1010 RMK 3CU015 7CU025 A2985 FCST 0009 TEMPO 0003 FEW015CU SCT025CU BECMG 0305 SCT030CU;EQDQ01+000000PRSWM2
0216477160999992000082101004+36030+140200FM-15+0029RJAK V0201901N002610075019N0112651N1+02801+02301999999ADDGA1021+004509999GA2071+007509999GA3071+024009999GF107991999999999999999999MA1101021999999MW1001REMMET090RJAK 210100Z 19005KT 9999 FEW015 BKN025 BKN080 28/23 Q1010 RMK 2CU015 5CU025 7AC080 A2985;EQDQ01+000000PRSWM2
0216477160999992000082102004+36030+140200FM-15+0029RJAK V0202101N002610075019N0112651N1+02801+02201999999ADDGA1021+004509999GA2021+006009999GA3071+007509999GF107991999999999999999999MA1101021999999MW1001REMMET090RJAK 210200Z 21005KT 9999 FEW015 SCT020 BKN025 28/22 Q1010 RMK 1CU015 3CU020 7CU025 A2983;EQDQ01+000000PRSWM2
0216477160999992000082104004+36030+140200FM-15+0029RJAK V0202101N003610075019N0112651N1+03001+02301999999ADDGA1021+006009999GA2071+007509999GA3071+009009999GF107991999999999999999999MA1100911999999MW1001REMMET090RJAK 210400Z 21007KT 9999 FEW020 BKN025 BKN030 30/23 Q1009 RMK 2CU020 5CU025 7CU030 A2981;EQDQ01+000000PRSWM2
0255477160999992000082106004+36030+140200FM-15+0029RJAK V0202201N001510120019N0112651N1+03101+02301999999ADDGA1021+007509999GA2021+009009999GA3071+012009999GF107991999999999999999999MA1100911999999MW1001REMMET129RJAK 210600Z 22003KT 9999 FEW025 SCT030 BKN040 31/23 Q1009 RMK 2CU025 4CU030 7SC040 A2980 FCST 0615 BECMG 0810 FEW030CU SCT040SC;EQDQ01+000000PRSWM2
0176477160999992000082107004+36030+140200FM-15+0029RJAK V0201901N00151220001CN0112651N1+03001+02401999999ADDGA1071+007509999GA2021+024009999MA1100911999999MW1001REMMET076RJAK 210700Z 19003KT 9999 BKN025 SCT080 30/24 Q1009 RMK 5CU025 3AC080 A2980;EQDQ01+000042SCOTCVQ02+000000PRSWM2
0224477160999992000082108004+36030+140200FM-15+0029RJAK V0200601N002110075019N0112651N1+03001+02401999999ADDGA1071+007509999GF107991999999999999999999MA1100911999999MW1001REMMET130RJAK 210800Z 06004KT 9999 BKN025 30/24 Q1009 RMK 5CU025 A2981 FCST 0817 TEMPO 0810 SCT025CU BKN040SC BECMG 1012 FEW025CU SCT040SC;EQDQ01+000000PRSWM2
0303477160999992000082200004+36030+140200FM-15+0029RJAK V0200601N003610018019N0040001N1+02501+02201999999ADDGA1071+001809999GA2071+002709999GF107991999999999999999999MA1101391999999MW1101REMMET177RJAK 220000Z 06007KT 4000 BR BKN006 BKN009 25/22 Q1014 RMK 5ST006 7ST009 A2995 FCST 0009 BECMG 0001 5000 BR SCT006ST BKN010ST BKN020CU BECMG 0102 NSW FEW010ST SCT020CU BKN040SC;EQDQ01+000003PRSWM1Q02    003PRSWM1
0216477160999992000082201004+36030+140200FM-15+0029RJAK V0200701N003110033019N0060001N1+02601+02201999999ADDGA1021+003009999GA2071+003309999GA3071+006009999GF107991999999999999999999MA1101391999999MW1001REMMET090RJAK 220100Z 07006KT 6000 FEW010 BKN011 BKN020 26/22 Q1014 RMK 2ST010 6CU011 7CU020 A2996;EQDQ01+000000PRSWM2
0263477160999992000082203004+36030+140200FM-15+0029RJAK V0200801N003110045019N0080001N1+02801+02301999999ADDGA1071+004509999GA2071+024009999GF107991999999999999999999MA1101391999999MW1001REMMET153RJAK 220300Z 08006KT 8000 BKN015 BKN080 28/23 Q1014 RMK 5CU015 6AC080 A2994 FCST 0312 TEMPO 0308 SCT015CU BKN080AC BECMG 0810 FEW020CU SCT040SC BKN100AC;EQDQ01+000000PRSWM2
0186477160999992000082204004+36030+140200FM-15+0029RJAK V0200701N003612200019N0090001N1+02901+02301999999ADDGA1021+007509999GA2021+012009999GF104991999999999999999999MA1101291999999MW1001REMMET076RJAK 220400Z 07007KT 9000 SCT025 SCT040 29/23 Q1013 RMK 4CU025 4SC040 A2994;EQDQ01+000000PRSWM2
0186477160999992000082205004+36030+140200FM-15+0029RJAK V0200701N004112200019N0090001N1+02901+02301999999ADDGA1021+007509999GA2021+012009999GF104991999999999999999999MA1101291999999MW1001REMMET076RJAK 220500Z 07008KT 9000 SCT025 SCT040 29/23 Q1013 RMK 3CU025 4SC040 A2994;EQDQ01+000000PRSWM2
0172477160999992000082206004+36030+140200FM-15+0029RJAK V0200801N004612200019N0112651N1+02901+02301999999ADDGA1021+009009999GF102991999999999999999999MA1101291999999MW1001REMMET078RJAK 220600Z 08009KT 9999 FEW030 29/23 Q1013 RMK 2CU030 A2992 FCST 0615 NOSIG;EQDQ01+000000PRSWM2
0172477160999992000082208004+36030+140200FM-15+0029RJAK V0200801N005112200019N0112651N1+02801+02301999999ADDGA1021+007509999GF102991999999999999999999MA1101291999999MW1001REMMET078RJAK 220800Z 08010KT 9999 FEW025 28/23 Q1013 RMK 2CU025 A2993 FCST 0817 NOSIG;EQDQ01+000000PRSWM2
0205477160999992000082222004+36030+140200FM-15+0029RJAK V0209999C000010024019N0040001N1+02501+02301999999ADDGA1021+001809999GA2081+002409999GF108991999999999999999999MA1101391999999MW1101REMMET079RJAK 222200Z 00000KT 4000 BR SCT006 OVC008 25/23 Q1014 RMK 3ST006 8ST008 A2996;EQDQ01+000003PRSWM1Q02    003PRSWM1
0235477160999992000082223304+36030+140200FM-15+0029RJAK V0200501N002110036019N0050001N1+02601+02301999999ADDGA1021+002409999GA2071+003609999GA3071+012009999GF107991999999999999999999MA1101391999999MW1101REMMET093RJAK 222330Z 05004KT 5000 BR SCT008 BKN012 BKN040 26/23 Q1014 RMK 4ST008 6SC012 7SC040 A2996;EQDQ01+000003PRSWM1Q02    003PRSWM1
0235477160999992000082301004+36030+140200FM-15+0029RJAK V0201101N003110060019N0050001N1+02801+02401999999ADDGA1021+002409999GA2071+006009999GA3071+012009999GF107991999999999999999999MA1101391999999MW1101REMMET093RJAK 230100Z 11006KT 5000 BR FEW008 BKN020 BKN040 28/24 Q1014 RMK 1ST008 5CU020 7SC040 A2996;EQDQ01+000003PRSWM1Q02    003PRSWM1
0216477160999992000082302004+36030+140200FM-15+0029RJAK V0201401N001510150019N0060001N1+02901+02401999999ADDGA1021+006009999GA2071+015009999GA3071+030009999GF107991999999999999999999MA1101391999999MW1001REMMET090RJAK 230200Z 14003KT 6000 FEW020 BKN050 BKN100 29/24 Q1014 RMK 2CU020 5SC050 6AC100 A2995;EQDQ01+000000PRSWM2
0258477160999992000082303004+36030+140200FM-15+0029RJAK V0201601N001012200019N9999999N1+03001+02301999999ADDGA1021+007509999GA2021+015009999GF104991999999999999999999MA1101391999999MW1001REMMET132RJAK 230300Z 16002KT 6000 SCT025 SCT050 30/23 Q1014 RMK 3CU025 4SC050 A2994 FCST 0312 TEMPO 0712 FEW025CU BKN040SC TEMPO 0912 -SHRA;EQDQ01+060002VODIS Q02+000000PRSWM2
0172477160999992000082305004+36030+140200FM-15+0029RJAK V0200601N004112200019N9999999N1+03101+02401999999ADDGA1021+007509999GF104991999999999999999999MA1101291999999MW1001REMMET062RJAK 230500Z 06008KT 7000 SCT025 31/24 Q1013 RMK 3CU025 A2992;EQDQ01+070002VODIS Q02+000000PRSWM2
0216477160999992000082322004+36030+140200FM-15+0029RJAK V0200401N002110150019N0080001N1+02601+02201999999ADDGA1021+007509999GA2071+015009999GA3071+030009999GF107991999999999999999999MA1101491999999MW1001REMMET090RJAK 232200Z 04004KT 8000 FEW025 BKN050 BKN100 26/22 Q1015 RMK 2CU025 5SC050 6AC100 A2997;EQDQ01+000000PRSWM2
0255477160999992000082323004+36030+140200FM-15+0029RJAK V0200301N003110135019N0112651N1+02701+02101999999ADDGA1021+009009999GA2071+013509999GA3071+030009999GF107991999999999999999999MA1101491999999MW1001REMMET129RJAK 232300Z 03006KT 9999 FEW030 BKN045 BKN100 27/21 Q1015 RMK 2CU030 5SC045 7AC100 A2997 FCST 2308 BECMG 0002 FEW040SC SCT100AC;EQDQ01+000000PRSWM2
0202477160999992000082403004+36030+140200FM-15+0029RJAK V0200701N005112200019N0112651N1+03001+02101999999ADDGA1021+009009999GA2021+030009999GF104991999999999999999999MA1101391999999MW1001REMMET092RJAK 240300Z 07010KT 9999 FEW030 SCT100 30/21 Q1014 RMK 2CU030 4AC100 A2994 FCST 0312 NOSIG;EQDQ01+000000PRSWM2
0156477160999992000082404004+36030+140200FM-15+0029RJAK V0200701N005112200019N0112651N1+03001+02101999999ADDGA1021+009009999GF102991999999999999999999MA1101291999999MW1001REMMET062RJAK 240400Z 07010KT 9999 FEW030 30/21 Q1013 RMK 2CU030 A2993;EQDQ01+000000PRSWM2
0156477160999992000082405004+36030+140200FM-15+0029RJAK V0200801N005712200019N0112651N1+03101+02001999999ADDGA1021+009009999GF102991999999999999999999MA1101291999999MW1001REMMET062RJAK 240500Z 08011KT 9999 FEW030 31/20 Q1013 RMK 2CU030 A2991;EQDQ01+000000PRSWM2
0202477160999992000082406004+36030+140200FM-15+0029RJAK V0200701N005712200019N0112651N1+03101+02001999999ADDGA1021+009009999GA2021+036009999GF104991999999999999999999MA1101191999999MW1001REMMET092RJAK 240600Z 07011KT 9999 FEW030 SCT120 31/20 Q1012 RMK 1CU030 4AC120 A2990 FCST 0615 NOSIG;EQDQ01+000000PRSWM2
0172477160999992000082408004+36030+140200FM-15+0029RJAK V0200901N003612200019N0112651N1+03001+01901999999ADDGA1021+063009999GF102991999999999999999999MA1101191999999MW1001REMMET078RJAK 240800Z 09007KT 9999 FEW210 30/19 Q1012 RMK 2CI210 A2991 FCST 0817 NOSIG;EQDQ01+000000PRSWM2
0206477160999992000082500004+36030+140200FM-15+0029RJAK V02099999999990060019N0060001N1+02901+02401999999ADDGA1071+006009999GF107991999999999999999999MA1101391999999MW1001REMMET112RJAK 250000Z VRB03KT 6000 BKN020 29/24 Q1014 RMK 5CU020 A2995 FCST 0009 TEMPO 0003 SCT020CU BECMG 0305 SCT020CU;EQDQ01+000000PRSWM2
0172477160999992000082501004+36030+140200FM-15+0029RJAK V0201501N002112200019N9999999N1+03001+02301999999ADDGA1021+006009999GF104991999999999999999999MA1101391999999MW1001REMMET062RJAK 250100Z 15004KT 6000 SCT020 30/23 Q1014 RMK 4CU020 A2994;EQDQ01+060002VODIS Q02+000000PRSWM2
0156477160999992000082502004+36030+140200FM-15+0029RJAK V0201401N001012200019N0070001N1+03101+02301999999ADDGA1021+009009999GF104991999999999999999999MA1101291999999MW1001REMMET062RJAK 250200Z 14002KT 7000 SCT030 31/23 Q1013 RMK 4CU030 A2992;EQDQ01+000000PRSWM2
0188477160999992000082503004+36030+140200FM-15+0029RJAK V02099999999992200019N9999999N1+03201+02301999999ADDGA1021+009009999GF104991999999999999999999MA1101191999999MW1001REMMET078RJAK 250300Z VRB03KT 7000 SCT030 32/23 Q1012 RMK 3CU030 A2990 FCST 0312 NOSIG;EQDQ01+070002VODIS Q02+000000PRSWM2
0186477160999992000082504004+36030+140200FM-15+0029RJAK V0201301N002610630019N0112651N1+03301+02401999999ADDGA1021+009009999GA2071+063009999GF107991999999999999999999MA1101081999999MW1001REMMET076RJAK 250400Z 13005KT 9999 SCT030 BKN210 33/24 Q1011 RMK 3CU030 6CI210 A2988;EQDQ01+000000PRSWM2
0216477160999992000082505004+36030+140200FM-15+0029RJAK V0200901N004110630019N0112651N1+03301+02401999999ADDGA1021+007509999GA2021+009009999GA3071+063009999GF107991999999999999999999MA1101081999999MW1001REMMET090RJAK 250500Z 09008KT 9999 FEW025 SCT030 BKN210 33/24 Q1011 RMK 1CU025 4CU030 5CI210 A2987;EQDQ01+000000PRSWM2
0232477160999992000082507004+36030+140200FM-15+0029RJAK V0201601N005710630019N0112651N1+03101+02301999999ADDGA1021+009009999GA2021+010509029GA3071+063009999GF107991999999999999999999MA1101081999999MW1001REMMET106RJAK 250700Z 16011KT 9999 SCT030 FEW035TCU BKN210 31/23 Q1011 RMK 3CU030 1TCU035 5CI210 A2985 TCU N MOV N;EQDQ01+000000PRSWM2
0202477160999992000082508004+36030+140200FM-15+0029RJAK V0201501N004610690019N0112651N1+03001+02401999999ADDGA1021+007509999GA2071+069009999GF107991999999999999999999MA1101081999999MW1001REMMET092RJAK 250800Z 15009KT 9999 FEW025 BKN230 30/24 Q1011 RMK 2CU025 5CI230 A2986 FCST 0817 NOSIG;EQDQ01+000000PRSWM2
0205477160999992000082622004+36030+140200FM-15+0029RJAK V0200301N001012200019N0038001N1+02501+02301999999ADDGA1021+003009999GA2021+060009999GF104991999999999999999999MA1101491999999MW1101REMMET079RJAK 262200Z 03002KT 3800 BR SCT010 SCT200 25/23 Q1015 RMK 4ST010 4CI200 A2997;EQDQ01+000003PRSWM1Q02    003PRSWM1
0205477160999992000082622454+36030+140200FM-15+0029RJAK V0200901N001012200019N0045001N1+02601+02401999999ADDGA1021+003009999GA2021+004509999GF104991999999999999999999MA1101491999999MW1101REMMET079RJAK 262245Z 09002KT 4500 BR FEW010 SCT015 26/24 Q1015 RMK 1ST010 4CU015 A2998;EQDQ01+000003PRSWM1Q02    003PRSWM1
0205477160999992000082623164+36030+140200FM-16+0029RJAK V02099999999990036019N0050001N1+02701+02401999999ADDGA1021+003009999GA2071+003609999GF107991999999999999999999MA1101491999999MW1101REMMET079RJAK 262316Z VRB01KT 5000 BR FEW010 BKN012 27/24 Q1015 RMK 2CU010 6CU012 A2998;EQDQ01+000003PRSWM1Q02    003PRSWM1
0172477160999992000082700004+36030+140200FM-15+0029RJAK V02099999999992200019N0060001N1+02801+02401999999ADDGA1021+005409999GF104991999999999999999999MA1101491999999MW1001REMMET078RJAK 270000Z VRB01KT 6000 SCT018 28/24 Q1015 RMK 3CU018 A2998 FCST 0009 NOSIG;EQDQ01+000000PRSWM2
0186477160999992000082722004+36030+140200FM-15+0029RJAK V0200801N002112200019N0060001N1+02601+02401999999ADDGA1021+002409999GA2021+003609999GF104991999999999999999999MA1101801999999MW1001REMMET076RJAK 272200Z 08004KT 6000 FEW008 SCT012 26/24 Q1018 RMK 1ST008 3CU012 A3008;EQDQ01+000000PRSWM2
0186477160999992000082723224+36030+140200FM-16+0029RJAK V0200501N002610060019N0070001N1+02701+02401999999ADDGA1021+004509999GA2071+006009999GF107991999999999999999999MA1101801999999MW1001REMMET076RJAK 272322Z 05005KT 7000 FEW015 BKN020 27/24 Q1018 RMK 1CU015 5CU020 A3008;EQDQ01+000000PRSWM2
0206477160999992000082800004+36030+140200FM-15+0029RJAK V0200901N002110045019N0080001N1+02801+02301999999ADDGA1071+004509999GF107991999999999999999999MA1101801999999MW1001REMMET112RJAK 280000Z 09004KT 8000 BKN015 28/23 Q1018 RMK 5CU015 A3008 FCST 0009 TEMPO 0103 SCT015CU BECMG 0304 SCT015CU;EQDQ01+000000PRSWM2
0186477160999992000082800254+36030+140200FM-15+0029RJAK V0200701N002112200019N0090001N1+02901+02301999999ADDGA1021+004509999GA2021+006009999GF104991999999999999999999MA1101801999999MW1001REMMET076RJAK 280025Z 07004KT 9000 FEW015 SCT020 29/23 Q1018 RMK 2CU015 3CU020 A3008;EQDQ01+000000PRSWM2
0156477160999992000082801004+36030+140200FM-15+0029RJAK V0200501N001012200019N0090001N1+02901+02301999999ADDGA1021+006009999GF104991999999999999999999MA1101801999999MW1001REMMET062RJAK 280100Z 05002KT 9000 SCT020 29/23 Q1018 RMK 3CU020 A3007;EQDQ01+000000PRSWM2
0172477160999992000082802004+36030+140200FM-15+0029RJAK V0201401N003112200019N0080001N1+03001+02101999999ADDGA1021+007509999GF104991999999999999999999MA1101691999999MW1001REMMET062RJAK 280200Z 14006KT 7000 SCT025 30/21 Q1017 RMK 3CU025 A3005;EQDQ01+070002VODIS Q02+000000PRSWM2
0172477160999992000082803004+36030+140200FM-15+0029RJAK V0201601N002612200019N0080001N1+03101+02101999999ADDGA1021+007509999GF104991999999999999999999MA1101691999999MW1001REMMET078RJAK 280300Z 16005KT 8000 SCT025 31/21 Q1017 RMK 4CU025 A3003 FCST 0312 NOSIG;EQDQ01+000000PRSWM2
0186477160999992000082804004+36030+140200FM-15+0029RJAK V0201401N002612200019N0112651N1+03301+02001999999ADDGA1021+007509999GA2021+009009999GF104991999999999999999999MA1101591999999MW1001REMMET076RJAK 280400Z 14005KT 9999 FEW025 SCT030 33/20 Q1016 RMK 2CU025 3CU030 A3001;EQDQ01+000000PRSWM2
0234477160999992000082805004+36030+140200FM-15+0029RJAK V0201101N001512200019N0112651N1+03101+02201999999ADDGA1021+007509999GA2021+009009999GA3021+010509029GF102991999999999999999999MA1101491999999MW1001REMMET108RJAK 280500Z 11003KT 9999 SCT025 SCT030 FEW035TCU 31/22 Q1015 RMK 3CU025 4CU030 1TCU035 A2999 TCU E MOV UNK;EQDQ01+000000PRSWM2
0225477160999992000082806004+36030+140200FM-15+0029RJAK V0201701N005112200019N0112651N1+03201+02201999999ADDGA1021+007509999GA2021+009009999GF104991999999999999999999MA1101491999999MW1001REMMET115RJAK 280600Z 17010KT 9999 FEW025 SCT030 32/22 Q1015 RMK 1CU025 3CU030 A2998 FCST 0615 TEMPO 0609 FEW025CU BKN030CU;EQDQ01+000000PRSWM2
0156477160999992000082807004+36030+140200FM-15+0029RJAK V0201701N004612200019N0112651N1+03101+02201999999ADDGA1021+009009999GF102991999999999999999999MA1101491999999MW1001REMMET062RJAK 280700Z 17009KT 9999 FEW030 31/22 Q1015 RMK 2CU030 A2997;EQDQ01+000000PRSWM2
0172477160999992000082808004+36030+140200FM-15+0029RJAK V0201601N003612200019N0112651N1+03001+02301999999ADDGA1021+007509999GF102991999999999999999999MA1101491999999MW1001REMMET078RJAK 280800Z 16007KT 9999 FEW025 30/23 Q1015 RMK 1CU025 A2997 FCST 0817 NOSIG;EQDQ01+000000PRSWM2
0130477160999992000082822004+36030+140200FM-15+0029RJAK V0202101N001512200019N0070001N1+02501+02201999999ADDGF100991999999999999999999MA1101591999999MW1001REMMET052RJAK 282200Z 21003KT 7000 SKC 25/22 Q1016 RMK A3000;EQDQ01+000000PRSWM2
0146477160999992000082823004+36030+140200FM-15+0029RJAK V0202701N002112200019N0070001N1+02701+02201999999ADDGF100991999999999999999999MA1101591999999MW1001REMMET068RJAK 282300Z 27004KT 7000 SKC 27/22 Q1016 RMK A3000 FCST 2308 NOSIG;EQDQ01+000000PRSWM2
0172477160999992000082900004+36030+140200FM-15+0029RJAK V0202601N002612200019N0070001N1+02801+02301999999ADDGA1021+007509999GF102991999999999999999999MA1101491999999MW1001REMMET078RJAK 290000Z 26005KT 7000 FEW025 28/23 Q1015 RMK 1CU025 A2999 FCST 0009 NOSIG;EQDQ01+000000PRSWM2
0175477160999992000082902004+36030+140200FM-15+0029RJAK V0202801N001512200019N0050001N1+03101+02201999999ADDGA1021+009009999GF102991999999999999999999MA1101491999999MW1101REMMET065RJAK 290200Z 28003KT 5000 BR FEW030 31/22 Q1015 RMK 1CU030 A2998;EQDQ01+000003PRSWM1Q02    003PRSWM1
0175477160999992000082902354+36030+140200FM-16+0029RJAK V0201801N000512200019N0045001N1+03201+02201999999ADDGA1021+009009999GF102991999999999999999999MA1101391999999MW1051REMMET065RJAK 290235Z 18001KT 4500 HZ FEW030 32/22 Q1014 RMK 1CU030 A2997;EQDQ01+000003PRSWM1Q02    003PRSWM1
0216477160999992000082903004+36030+140200FM-15+0029RJAK V0202101N002112200019N0045001N1+03201+02201999999ADDGA1021+009009999GF102991999999999999999999MA1101391999999MW1051REMMET106RJAK 290300Z 21004KT 4500 HZ FEW030 32/22 Q1014 RMK 1CU030 A2997 FCST 0312 TEMPO 0307 5000 BECMG 0708 NSW;EQDQ01+000003PRSWM1Q02    003PRSWM1
0175477160999992000082904004+36030+140200FM-15+0029RJAK V02099999999992200019N0035001N1+03201+02201999999ADDGA1021+009009999GF102991999999999999999999MA1101391999999MW1051REMMET065RJAK 290400Z VRB03KT 3500 HZ FEW030 32/22 Q1014 RMK 2CU030 A2995;EQDQ01+000003PRSWM1Q02    003PRSWM1
0172477160999992000082905154+36030+140200FM-16+0029RJAK V0201701N003612200019N9999999N1+03301+02101999999ADDGA1021+009009999GF102991999999999999999999MA1101291999999MW1001REMMET062RJAK 290515Z 17007KT 6000 FEW030 33/21 Q1013 RMK 2CU030 A2993;EQDQ01+060002VODIS Q02+000000PRSWM2
0188477160999992000082906004+36030+140200FM-15+0029RJAK V0201701N003612200019N9999999N1+03301+01901999999ADDGA1021+009009999GF102991999999999999999999MA1101291999999MW1001REMMET078RJAK 290600Z 17007KT 6000 FEW030 33/19 Q1013 RMK 2CU030 A2992 FCST 0615 NOSIG;EQDQ01+060002VODIS Q02+000000PRSWM2
0172477160999992000082908004+36030+140200FM-15+0029RJAK V0202001N003112200019N0112651N1+03001+02001999999ADDGA1021+009009999GF102991999999999999999999MA1101291999999MW1001REMMET078RJAK 290800Z 20006KT 9999 FEW030 30/20 Q1013 RMK 1CU030 A2993 FCST 0817 NOSIG;EQDQ01+000000PRSWM2
0205477160999992000082922004+36030+140200FM-15+0029RJAK V0200701N003110024019N0040001N1+02501+02301999999ADDGA1021+001809999GA2071+002409999GF107991999999999999999999MA1101591999999MW1101REMMET079RJAK 292200Z 07006KT 4000 BR FEW006 BKN008 25/23 Q1016 RMK 2ST006 5ST008 A3001;EQDQ01+000003PRSWM1Q02    003PRSWM1
0275477160999992000082923004+36030+140200FM-15+0029RJAK V0200801N003612200019N0040001N1+02601+02301999999ADDGA1021+002709999GA2021+006009999GF104991999999999999999999MA1101591999999MW1101REMMET149RJAK 292300Z 08007KT 4000 BR SCT009 SCT020 26/23 Q1016 RMK 3ST009 4CU020 A3001 FCST 2308 TEMPO 2301 FEW010ST BKN015CU BECMG 2300 5000 BECMG 0001 NSW;EQDQ01+000003PRSWM1Q02    003PRSWM1
0205477160999992000082923304+36030+140200FM-15+0029RJAK V0200801N003612200019N0050001N1+02701+02201999999ADDGA1021+004509999GA2021+006009999GF104991999999999999999999MA1101591999999MW1101REMMET079RJAK 292330Z 08007KT 5000 BR SCT015 SCT020 27/22 Q1016 RMK 3CU015 4CU020 A3001;EQDQ01+000003PRSWM1Q02    003PRSWM1
0248477160999992000083000004+36030+140200FM-15+0029RJAK V0200901N003110069019N0050001N1+02801+02301999999ADDGA1021+004509999GA2071+006909999GF107991999999999999999999MA1101591999999MW1051REMMET122RJAK 300000Z 09006KT 5000 HZ FEW015 BKN023 28/23 Q1016 RMK 2CU015 5CU023 A3001 FCST 0009 BECMG 0001 NSW FEW015CU SCT020CU;EQDQ01+000003PRSWM1Q02    003PRSWM1
0156477160999992000083002004+36030+140200FM-15+0029RJAK V0200601N002612200019N0070001N1+03001+02201999999ADDGA1021+009009999GF104991999999999999999999MA1101591999999MW1001REMMET062RJAK 300200Z 06005KT 7000 SCT030 30/22 Q1016 RMK 3CU030 A3001;EQDQ01+000000PRSWM2
0188477160999992000083003004+36030+140200FM-15+0029RJAK V0201001N002612200019N9999999N1+03101+02201999999ADDGA1021+009009999GF104991999999999999999999MA1101591999999MW1001REMMET078RJAK 300300Z 10005KT 7000 SCT030 31/22 Q1016 RMK 3CU030 A3000 FCST 0312 NOSIG;EQDQ01+070002VODIS Q02+000000PRSWM2
0156477160999992000083004004+36030+140200FM-15+0029RJAK V0201401N002112200019N0080001N1+03101+02201999999ADDGA1021+009009999GF104991999999999999999999MA1101491999999MW1001REMMET062RJAK 300400Z 14004KT 8000 SCT030 31/22 Q1015 RMK 3CU030 A2998;EQDQ01+000000PRSWM2
0250477160999992000083005004+36030+140200FM-15+0029RJAK V0200801N005112200019N9999999N1+03201+02301999999ADDGA1021+009009999GA2021+010509029GA3021+036009999GF104991999999999999999999MA1101491999999MW1001REMMET108RJAK 300500Z 08010KT 6000 FEW030 FEW035TCU SCT120 32/23 Q1015 RMK 2CU030 1TCU035 3AC120 A2997 TCU S MOV UNK;EQDQ01+060002VODIS Q02+000000PRSWM2
0241477160999992000083005284+36030+140200FM-16+0029RJAK V0201001N00411220001CN0050001N1+03001+02301999999ADDGA1071+009009999GA2021+010509029GA3021+030009999MA1101391999999MW1051REMMET109RJAK 300528Z 10008KT 5000 HZ BKN030 FEW035TCU SCT100 30/23 Q1014 RMK 5CU030 1TCU035 4AC100 A2997 TCU S MOV W;EQDQ01+000042SCOTCVQ02+000003PRSWM1Q03    003PRSWM1
0253477160999992000083005504+36030+140200FM-15+0029RJAK V0201101N004110300019N0050001N1+03001+02301999999ADDGA1021+009009999GA2021+010509029GA3071+030009999GF107991999999999999999999MA1101391999999MW1051REMMET111RJAK 300550Z 11008KT 5000 HZ SCT030 FEW035TCU BKN100 30/23 Q1014 RMK 3CU030 1TCU035 5AC100 A2996 TCU W MOV UNK;EQDQ01+000003PRSWM1Q02    003PRSWM1
0298477160999992000083006004+36030+140200FM-15+0029RJAK V0201101N004110300019N0050001N1+03001+02301999999ADDGA1021+009009999GA2021+010509029GA3071+030009999GF107991999999999999999999MA1101391999999MW1051REMMET156RJAK 300600Z 11008KT 5000 HZ SCT030 FEW035TCU BKN100 30/23 Q1014 RMK 3CU030 1TCU035 5AC100 A2996 TCU W MOV UNK FCST 0615 TEMPO 0709 -SHRA BKN030CU FEW035CB;EQDQ01+000003PRSWM1Q02    003PRSWM1
0263477160999992000083007004+36030+140200FM-15+0029RJAK V0201201N00361024001CN0060001N1+02901+02301999999ADDGA1021+007509999GA2021+010509029GA3021+024009999GA4071+036009999GF107991999999999999999999MA1101391999999MW1001REMMET121RJAK 300700Z 12007KT 6000 FEW025 FEW035TCU SCT080 BKN120 29/23 Q1014 RMK 2CU025 1TCU035 3AC080 5AC120 A2996 TCU NW MOV N;EQDQ01+000000PRSWM2
0232477160999992000083008004+36030+140200FM-15+0029RJAK V0201101N002610360019N0060001N1+02901+02401999999ADDGA1021+007509999GA2021+024009999GA3071+036009999GF107991999999999999999999MA1101491999999MW1001REMMET106RJAK 300800Z 11005KT 6000 FEW025 SCT080 BKN120 29/24 Q1015 RMK 1CU025 3AC080 5AC120 A2997 FCST 0817 NOSIG;EQDQ01+000000PRSWM2
0216477160999992000083022004+36030+140200FM-15+0029RJAK V0201401N001510300019N0070001N1+02501+02401999999ADDGA1021+007509999GA2021+013509999GA3071+030009999GF107991999999999999999999MA1101591999999MW1001REMMET090RJAK 302200Z 14003KT 7000 FEW025 SCT045 BKN100 25/24 Q1016 RMK 1CU025 3SC045 7AC100 A3000;EQDQ01+000000PRSWM2
0325477160999992000083103004+36030+140200FM-15+0029RJAK V0202401N003110690019N0112651N1+03101+02201999999ADDGA1021+004509999GA2021+007509999GA3071+069009999GF107991999999999999999999MA1101391999999MW1001REMMET199RJAK 310300Z 24006KT 9999 FEW015 SCT025 BKN230 31/22 Q1014 RMK 2CU015 3CU025 5CI230 A2997 FCST 0312 TEMPO 0408 -SHRA FEW015CU BKN025CU BKN100AC TEMPO 0812 12010G20KT -SHRA FEW015CU BKN025CU BKN100AC;EQDQ01+000000PRSWM2
0216477160999992000083104004+36030+140200FM-15+0029RJAK V0201701N005110300019N0112651N1+03101+02201999999ADDGA1021+004509999GA2021+007509999GA3071+030009999GF107991999999999999999999MA1101391999999MW1001REMMET090RJAK 310400Z 17010KT 9999 FEW015 SCT025 BKN100 31/22 Q1014 RMK 2CU015 4CU025 5AC100 A2995;EQDQ01+000000PRSWM2
0291477160999992000083105364+36030+140200FM-16+0029RJAK V0202001N003610060019N0112651N1+02601+02401999999ADDGA1021+004509999GA2071+006009999GA3021+007509099GA4071+030009999GF107991999999999999999999MA1101391999999MW1801MW2951REMMET127RJAK 310536Z 20007KT 9999 -TSRA FEW015 BKN020 FEW025CB BKN100 26/24 Q1014 RMK 2CU015 5CU020 2CB025 7AC100 A2994 FBL TS S MOV E;EQDQ01+000003PRSWM1Q02    003PRSWM1
0313477160999992000083106004+36030+140200FM-15+0029RJAK V0202001N003610060019N0112651N1+02601+02401999999ADDGA1021+004509999GA2071+006009999GA3021+007509099GA4071+030009999GF107991999999999999999999MA1101391999999MW1801REMMET155RJAK 310600Z 20007KT 9999 -SHRA FEW015 BKN020 FEW025CB BKN100 26/24 Q1014 RETS RMK 2CU015 5CU020 1CB025 6AC100 A2994 CB S MOV E FCST 0615 TEMPO 0609 -TSRA;EQDQ01+000003PRSWM1Q02    003PRSWM1
0238477160999992000083107004+36030+140200FM-15+0029RJAK V0201501N001510300019N0112651N1+02601+02401999999ADDGA1021+004509999GA2021+006009999GA3071+030009999GF107991999999999999999999MA1101291999999MW1801REMMET096RJAK 310700Z 15003KT 9999 -SHRA FEW015 SCT020 BKN100 26/24 Q1013 RMK 1CU015 3CU020 5AC100 A2994;EQDQ01+000003PRSWM1Q02    003PRSWM1
0216477160999992000083107354+36030+140200FM-16+0029RJAK V0201401N002610300019N0112651N1+02601+02401999999ADDGA1021+004509999GA2021+006009999GA3071+030009999GF107991999999999999999999MA1101291999999MW1001REMMET090RJAK 310735Z 14005KT 9999 SCT015 SCT020 BKN100 26/24 Q1013 RMK 3CU015 3CU020 6AC100 A2994;EQDQ01+000000PRSWM2
0360477160999992000083108004+36030+140200FM-15+0029RJAK V0201401N00261007501CN0112651N1+02601+02401999999ADDGA1021+004509999GA2021+006009999GA3021+007509029GA4071+030009999GF107991999999999999999999MA1101291999999MW1001REMMET218RJAK 310800Z 14005KT 9999 FEW015 SCT020 FEW025TCU BKN100 26/24 Q1013 RMK 2CU015 3CU020 1TCU025 6AC100 A2993 TCU S MOV E FCST 0817 TEMPO 0813 -SHRA FEW015CU BKN020CU BKN100AC TEMPO 1317 -SHRA FEW015CU BKN020CU BKN100AC;EQDQ01+000000PRSWM2
0216477160999992000083122004+36030+140200FM-15+0029RJAK V0201801N002610045019N0112651N1+02501+02301999999ADDGA1071+004509999GA2021+030009999GA3071+063009999GF107991999999999999999999MA1101081999999MW1001REMMET090RJAK 312200Z 18005KT 9999 BKN015 SCT100 BKN210 25/23 Q1011 RMK 5CU015 3AC100 6CI210 A2986;EQDQ01+000000PRSWM2
0266477160999992000083123004+36030+140200FM-15+0029RJAK V0201901N00461220001CN0112651N1+02701+02401999999ADDGA1071+004509999GA2021+007509999MA1101081999999MW1001REMMET166RJAK 312300Z 19009KT 9999 BKN015 SCT025 27/24 Q1011 RMK 5CU015 3CU025 A2986 FCST 2308 BECMG 2301 SCT015CU SCT025CU TEMPO 0107 20010G22KT TEMPO 0608 BKN020CU BKN100AC;EQDQ01+000042SCOTCVQ02+000000PRSWM2
0163477160999992000083123044+36030+140200FM-16+0029RJAK V0202001N00571220001CN0112651N1+02701+02401999999ADDGA1071+004509999GA2021+007509999MA1101081999999MW1001OC101081REMMET055RJAK 312304Z 20011G21KT 9999 BKN015 SCT025 27/24 Q1011;EQDQ01+000042SCOTCVQ02+000000PRSWM2
0277477160999992000090100004+36030+140200FM-15+0029RJAK V0202101N005710060019N0112651N1+02801+02401999999ADDGA1021+004509999GA2071+006009999GA3071+030009999GF107991999999999999999999MA1101081999999MW1001REMMET151RJAK 010000Z 21011KT 9999 FEW015 BKN020 BKN100 28/24 Q1011 RMK 2CU015 5CU020 5AC100 A2986 FCST 0009 TEMPO 0006 21011G23KT TEMPO 0106 SCT020CU BKN100AC;EQDQ01+000000PRSWM2
0216477160999992000090101004+36030+140200FM-15+0029RJAK V0202101N005110045019N0112651N1+02801+02401999999ADDGA1071+004509999GA2021+006009999GA3071+030009999GF107991999999999999999999MA1101081999999MW1001REMMET090RJAK 010100Z 21010KT 9999 BKN015 SCT020 BKN100 28/24 Q1011 RMK 6CU015 3CU020 7AC100 A2985;EQDQ01+000000PRSWM2
0238477160999992000090101164+36030+140200FM-16+0029RJAK V0202001N005710075019N0112651N1+02801+02401999999ADDGA1021+004509999GA2071+007509999GA3071+030009999GF107991999999999999999999MA1101021999999MW1801REMMET096RJAK 010116Z 20011KT 9999 -SHRA SCT015 BKN025 BKN100 28/24 Q1010 RMK 3CU015 6CU025 7AC100 A2984;EQDQ01+000003PRSWM1Q02    003PRSWM1
0227477160999992000090102004+36030+140200FM-15+0029RJAK V0202101N005110060019N0112651N1+02801+02401999999ADDGA1021+004509999GA2071+006009999GA3071+030009999GF107991999999999999999999MA1101021999999MW1001OC101131REMMET093RJAK 010200Z 21010G22KT 9999 SCT015 BKN020 BKN100 28/24 Q1010 RMK 3CU015 6CU020 7AC100 A2984;EQDQ01+000000PRSWM2
0256477160999992000090103004+36030+140200FM-15+0029RJAK V0202101N005110060019N0112651N1+02801+02301999999ADDGA1021+004509999GA2071+006009999GA3071+030009999GF107991999999999999999999MA1100911999999MW1001OC101181REMMET122RJAK 010300Z 21010G23KT 9999 SCT015 BKN020 BKN100 28/23 Q1009 RMK 3CU015 5CU020 7AC100 A2982 FCST 0312 BECMG 0608 21010KT;EQDQ01+000000PRSWM2
0216477160999992000090104004+36030+140200FM-15+0029RJAK V0202001N005710300019N0112651N1+02901+02401999999ADDGA1021+004509999GA2021+024009999GA3071+030009999GF107991999999999999999999MA1100911999999MW1001REMMET090RJAK 010400Z 20011KT 9999 SCT015 SCT080 BKN100 29/24 Q1009 RMK 3CU015 3AC080 7AC100 A2980;EQDQ01+000000PRSWM2
0216477160999992000090105004+36030+140200FM-15+0029RJAK V0202101N005710360019N0112651N1+02901+02301999999ADDGA1021+004509999GA2021+024009999GA3071+036009999GF107991999999999999999999MA1100811999999MW1001REMMET090RJAK 010500Z 21011KT 9999 SCT015 SCT080 BKN120 29/23 Q1008 RMK 3CU015 3AC080 6AC120 A2978;EQDQ01+000000PRSWM2
0232477160999992000090106004+36030+140200FM-15+0029RJAK V0202001N004610360019N0112651N1+02901+02401999999ADDGA1021+006009999GA2021+024009999GA3071+036009999GF107991999999999999999999MA1100711999999MW1001REMMET106RJAK 010600Z 20009KT 9999 FEW020 SCT080 BKN120 29/24 Q1007 RMK 2CU020 3AC080 7AC120 A2976 FCST 0615 NOSIG;EQDQ01+000000PRSWM2
0186477160999992000090107004+36030+140200FM-15+0029RJAK V0202001N005110300019N0112651N1+03001+02401999999ADDGA1021+006009999GA2071+030009999GF107991999999999999999999MA1100711999999MW1001REMMET076RJAK 010700Z 20010KT 9999 FEW020 BKN100 30/24 Q1007 RMK 1CU020 5AC100 A2975;EQDQ01+000000PRSWM2
0232477160999992000090108004+36030+140200FM-15+0029RJAK V0202001N005110690019N0112651N1+02901+02401999999ADDGA1021+006009999GA2021+030009999GA3071+069009999GF107991999999999999999999MA1100711999999MW1001REMMET106RJAK 010800Z 20010KT 9999 FEW020 SCT100 BKN230 29/24 Q1007 RMK 1CU020 3AC100 5CI230 A2974 FCST 0817 NOSIG;EQDQ01+000000PRSWM2
0167477160999992000090221004+36030+140200FM-15+0029RJAK V0202901N005712200019N0112651N1+02601+01301999999ADDGA1021+007509999GF102991999999999999999999MA1100201999999MW1001OC101081REMMET065RJAK 022100Z 29011G21KT 9999 FEW025 26/13 Q1002 RMK 1CU025 A2960;EQDQ01+000000PRSWM2
0156477160999992000090222004+36030+140200FM-15+0029RJAK V0203001N002612200019N0112651N1+02601+01401999999ADDGA1021+007509999GF102991999999999999999999MA1100311999999MW1001REMMET062RJAK 022200Z 30005KT 9999 FEW025 26/14 Q1003 RMK 1CU025 A2963;EQDQ01+000000PRSWM2
0216477160999992000090223004+36030+140200FM-15+0029RJAK V0203001N005112200019N0112651N1+02701+01401999999ADDGA1021+007509999GF102991999999999999999999MA1100311999999MW1001OC101181REMMET114RJAK 022300Z 30010G23KT 9999 FEW025 27/14 Q1003 RMK 1CU025 A2962 FCST 2308 BECMG 0507 31009KT TEMPO 0708 BKN025CU;EQDQ01+000000PRSWM2
0216477160999992000090300004+36030+140200FM-15+0029RJAK V0203001N007212200019N0112651N1+02801+01301999999ADDGA1021+007509999GF102991999999999999999999MA1100201999999MW1001OC101491REMMET114RJAK 030000Z 30014G29KT 9999 FEW025 28/13 Q1002 RMK 1CU025 A2960 FCST 0009 BECMG 0507 31010KT TEMPO 0709 BKN025CU;EQDQ01+000000PRSWM2
0167477160999992000090301004+36030+140200FM-15+0029RJAK V0203001N007212200019N0112651N1+02901+01201999999ADDGA1021+030009999GF102991999999999999999999MA1100201999999MW1001OC101541REMMET065RJAK 030100Z 30014G30KT 9999 FEW100 29/12 Q1002 RMK 1AC100 A2959;EQDQ01+000000PRSWM2
0167477160999992000090302004+36030+140200FM-15+0029RJAK V0202901N008212200019N0112651N1+03001+01201999999ADDGA1021+007509999GF102991999999999999999999MA1100101999999MW1001OC101751REMMET065RJAK 030200Z 29016G34KT 9999 FEW025 30/12 Q1001 RMK 1CU025 A2957;EQDQ01+000000PRSWM2
0216477160999992000090303004+36030+140200FM-15+0029RJAK V0202901N007212200019N0112651N1+03101+01101999999ADDGA1021+007509999GF102991999999999999999999MA1100101999999MW1001OC101651REMMET114RJAK 030300Z 29014G32KT 9999 FEW025 31/11 Q1001 RMK 1CU025 A2957 FCST 0312 BECMG 0709 30010KT TEMPO 0812 BKN025CU;EQDQ01+000000PRSWM2
0167477160999992000090304004+36030+140200FM-15+0029RJAK V0203001N008712200019N0112651N1+03101+01101999999ADDGA1021+009009999GF102991999999999999999999MA1100101999999MW1001OC101651REMMET065RJAK 030400Z 30017G32KT 9999 FEW030 31/11 Q1001 RMK 1CU030 A2957;EQDQ01+000000PRSWM2
0167477160999992000090305004+36030+140200FM-15+0029RJAK V0203001N008212200019N0112651N1+03101+01101999999ADDGA1021+009009999GF102991999999999999999999MA1100101999999MW1001OC101391REMMET065RJAK 030500Z 30016G27KT 9999 FEW030 31/11 Q1001 RMK 1CU030 A2957;EQDQ01+000000PRSWM2
0216477160999992000090306004+36030+140200FM-15+0029RJAK V0203001N005712200019N0112651N1+03101+01001999999ADDGA1021+009009999GF102991999999999999999999MA1100101999999MW1001OC101231REMMET114RJAK 030600Z 30011G24KT 9999 FEW030 31/10 Q1001 RMK 1CU030 A2957 FCST 0615 BECMG 0709 30010KT TEMPO 1015 BKN025CU;EQDQ01+000000PRSWM2
0216477160999992000090322004+36030+140200FM-15+0029RJAK V0200301N002610300019N0112651N1+02201+01601999999ADDGA1021+004509999GA2021+007509999GA3071+030009999GF107991999999999999999999MA1100711999999MW1001REMMET090RJAK 032200Z 03005KT 9999 FEW015 SCT025 BKN100 22/16 Q1007 RMK 1CU015 3CU025 5AC100 A2976;EQDQ01+000000PRSWM2
0234477160999992000090323004+36030+140200FM-15+0029RJAK V0200201N004112200019N0112651N1+02201+01601999999ADDGA1021+004509999GA2021+009009999GF104991999999999999999999MA1100811999999MW1001REMMET124RJAK 032300Z 02008KT 9999 FEW015 SCT030 22/16 Q1008 RMK 2CU015 4CU030 A2976 FCST 2308 TEMPO 0408 SCT020CU BKN040SC BKN100AC;EQDQ01+000000PRSWM2
0186477160999992000090400164+36030+140200FM-16+0029RJAK V0200401N005110090019N0112651N1+02301+01601999999ADDGA1021+004509999GA2071+009009999GF107991999999999999999999MA1100811999999MW1001REMMET076RJAK 040016Z 04010KT 9999 SCT015 BKN030 23/16 Q1008 RMK 3CU015 5CU030 A2977;EQDQ01+000000PRSWM2
0238477160999992000090401004+36030+140200FM-15+0029RJAK V0200501N005710075019N0112651N1+02401+01701999999ADDGA1021+004509999GA2071+007509999GA3071+030009999GF107991999999999999999999MA1100811999999MW1801REMMET096RJAK 040100Z 05011KT 9999 -SHRA FEW015 BKN025 BKN100 24/17 Q1008 RMK 2CU015 6CU025 5AC100 A2977;EQDQ01+000003PRSWM1Q02    003PRSWM1
0216477160999992000090402004+36030+140200FM-15+0029RJAK V0200201N005110075019N0112651N1+02401+01701999999ADDGA1021+004509999GA2071+007509999GA3071+024009999GF107991999999999999999999MA1100711999999MW1001REMMET090RJAK 040200Z 02010KT 9999 FEW015 BKN025 BKN080 24/17 Q1007 RMK 2CU015 6CU025 5AC080 A2976;EQDQ01+000000PRSWM2
0235477160999992000090403004+36030+140200FM-15+0029RJAK V0200401N006210090019N0112651N1+02401+01901999999ADDGA1021+006009999GA2071+009009999GF107991999999999999999999MA1100811999999MW1001REMMET125RJAK 040300Z 04012KT 9999 FEW020 BKN030 24/19 Q1008 RMK 2CU020 5CU030 A2976 FCST 0312 TEMPO 0307 04012G23KT TEMPO 0712 -SHRA;EQDQ01+000000PRSWM2
0186477160999992000090404004+36030+140200FM-15+0029RJAK V0200501N008210090019N0112651N1+02501+01601999999ADDGA1021+006009999GA2071+009009999GF107991999999999999999999MA1100811999999MW1001REMMET076RJAK 040400Z 05016KT 9999 FEW020 BKN030 25/16 Q1008 RMK 2CU020 5CU030 A2976;EQDQ01+000000PRSWM2
0186477160999992000090405004+36030+140200FM-15+0029RJAK V0200501N007710090019N0112651N1+02501+01701999999ADDGA1021+006009999GA2071+009009999GF107991999999999999999999MA1100711999999MW1001REMMET076RJAK 040500Z 05015KT 9999 SCT020 BKN030 25/17 Q1007 RMK 3CU020 5CU030 A2975;EQDQ01+000000PRSWM2
0197477160999992000090405024+36030+140200FM-16+0029RJAK V0200501N008210090019N0112651N1+02501+01701999999ADDGA1021+006009999GA2071+009009999GF107991999999999999999999MA1100711999999MW1001OC101341REMMET079RJAK 040502Z 05016G26KT 9999 SCT020 BKN030 25/17 Q1007 RMK 3CU020 5CU030 A2975;EQDQ01+000000PRSWM2
0202477160999992000090406004+36030+140200FM-15+0029RJAK V0200701N007710090019N0112651N1+02501+01701999999ADDGA1021+007509999GA2071+009009999GF107991999999999999999999MA1100711999999MW1001REMMET092RJAK 040600Z 07015KT 9999 FEW025 BKN030 25/17 Q1007 RMK 2CU025 5CU030 A2975 FCST 0615 NOSIG;EQDQ01+000000PRSWM2
0186477160999992000090407004+36030+140200FM-15+0029RJAK V0200501N007712200019N0112651N1+02301+01601999999ADDGA1021+007509999GA2021+009009999GF104991999999999999999999MA1100711999999MW1001REMMET076RJAK 040700Z 05015KT 9999 FEW025 SCT030 23/16 Q1007 RMK 1CU025 3CU030 A2975;EQDQ01+000000PRSWM2
0202477160999992000090408004+36030+140200FM-15+0029RJAK V0200501N006712200019N0112651N1+02301+01701999999ADDGA1021+007509999GA2021+009009999GF104991999999999999999999MA1100711999999MW1001REMMET092RJAK 040800Z 05013KT 9999 FEW025 SCT030 23/17 Q1007 RMK 2CU025 3CU030 A2976 FCST 0817 NOSIG;EQDQ01+000000PRSWM2
0325477160999992000090500004+36030+140200FM-15+0029RJAK V0200201N004610036019N0070001N1+02001+01801999999ADDGA1021+002109999GA2071+003609999GA3081+009009999GF108991999999999999999999MA1100711999999MW1611REMMET183RJAK 050000Z COR 02009KT 7000 -RA SCT007 BKN012 OVC030 20/18 Q1007 RMK 3ST007 6ST012 8SC030 A2975 FCST COR 0009 BECMG 0103 FEW006ST BKN008CU OVC020CU TEMPO 0309 03012G27KT 3000 RA BR;EQDQ01+000003PRSWM1Q02    003PRSWM1
0349477160999992000090503004+36030+140200FM-15+0029RJAK V0200301N005710036019N0080001N1+02101+02001999999ADDGA1021+003009999GA2071+003609999GA3081+012009999GF108991999999999999999999MA1100511999999MW1611REMMET207RJAK 050300Z 03011KT 8000 -RA SCT010 BKN012 OVC040 21/20 Q1005 RMK 3ST010 6CU012 8SC040 A2970 FCST 0312 TEMPO 0305 5000 -RA BR SCT005ST BKN008CU BECMG 0506 03012G25KT 3000 SHRA BR SCT005ST BKN008CU OVC010CU;EQDQ01+000003PRSWM1Q02    003PRSWM1
0247477160999992000090503254+36030+140200FM-15+0029RJAK V0200301N005110030019N0040001N1+02101+02001999999ADDGA1021+002409999GA2071+003009999GA3081+012009999GF108991999999999999999999MA1100511999999MW1101MW2801REMMET099RJAK 050325Z 03010KT 4000 -SHRA BR SCT008 BKN010 OVC040 21/20 Q1005 RMK 3ST008 6CU010 8SC040 A2970;EQDQ01+000003PRSWM1Q02    003PRSWM1
0217477160999992000090504004+36030+140200FM-15+0029RJAK V0200201N004110030019N0040001N1+02001+02001999999ADDGA1021+001809999GA2071+003009999GF107991999999999999999999MA1100511999999MW1101MW2801REMMET085RJAK 050400Z 02008KT 4000 -SHRA BR SCT006 BKN010 20/20 Q1005 RMK 3ST006 7CU010 A2970;EQDQ01+000003PRSWM1Q02    003PRSWM1
0226477160999992000090506054+36030+140200FM-16+0029RJAK V0200201N005110024019N0035001N1+01901+01901999999ADDGA1071+002409999GA2071+003609999GF107991999999999999999999MA1100411999999MW1811REMMET084RJAK 050605Z 02010KT 3500 SHRA BR BKN008 BKN012 19/19 Q1004 RMK 5ST008 7CU012 A2967;EQDQ01+000100PRSWM3Q02+000003PRSWM1Q03    003PRSWM1
0222477160999992000090507004+36030+140200FM-15+0029RJAK V0200301N005710021019N0040001N1+01901+01801999999ADDGA1071+002109999GA2071+003609999GF107991999999999999999999MA1100411999999MW1101MW2801REMMET090RJAK 050700Z 03011KT 4000 -SHRA BR BKN007 BKN012 19/18 Q1004 RERA RMK 5ST007 7CU012 A2967;EQDQ01+000003PRSWM1Q02    003PRSWM1
0282477160999992000090508004+36030+140200FM-15+0029RJAK V0200201N004110021019N0035001N1+01901+01801999999ADDGA1071+002109999GA2071+003009999GF107991999999999999999999MA1100411999999MW1101MW2801REMMET150RJAK 050800Z 02008KT 3500 -SHRA BR BKN007 BKN010 19/18 Q1004 RMK 5ST007 7CU010 A2967 FCST 0817 TEMPO 0811 03012G24KT BECMG 1214 NSW SCT007ST BKN015CU;EQDQ01+000003PRSWM1Q02    003PRSWM1
0303477160999992000090523004+36030+140200FM-15+0029RJAK V0202901N002110024019N0040001N1+02001+02001999999ADDGA1071+002409999GA2071+003009999GF107991999999999999999999MA1100711999999MW1101REMMET177RJAK 052300Z 29004KT 4000 BR BKN008 BKN010 20/20 Q1007 RMK 5ST008 7CU010 A2974 FCST 2308 TEMPO 2302 -SHRA TEMPO 0208 22012G24KT -SHRA BECMG 0406 5000 -SHRA BR SCT010ST BKN015CU;EQDQ01+000003PRSWM1Q02    003PRSWM1
0270477160999992000090603004+36030+140200FM-15+0029RJAK V02099999999990300019N0070001N1+02601+02201999999ADDGA1021+002709999GA2021+003009999GA3071+030009999GF107991999999999999999999MA1100711999999MW1001REMMET144RJAK 060300Z VRB03KT 7000 FEW009 SCT010 BKN100 26/22 Q1007 RMK 1ST009 3CU010 6AC100 A2975 FCST 0312 TEMPO 0912 -SHRA FEW010ST SCT020CU BKN030CU;EQDQ01+000000PRSWM2
0186477160999992000090603274+36030+140200FM-16+0029RJAK V02099999999992200019N0080001N1+02701+02201999999ADDGA1021+004509999GA2021+030009999GF104991999999999999999999MA1100711999999MW1001REMMET076RJAK 060327Z VRB03KT 8000 SCT015 SCT100 27/22 Q1007 RMK 4CU015 3AC100 A2974;EQDQ01+000000PRSWM2
0186477160999992000090604004+36030+140200FM-15+0029RJAK V0201901N003112200019N0080001N1+02801+02301999999ADDGA1021+004509999GA2021+060009999GF104991999999999999999999MA1100711999999MW1001REMMET076RJAK 060400Z 19006KT 8000 FEW015 SCT200 28/23 Q1007 RMK 2CU015 4CI200 A2974;EQDQ01+000000PRSWM2
0186477160999992000090605004+36030+140200FM-15+0029RJAK V0201901N002112200019N0080001N1+02801+02301999999ADDGA1021+004509999GA2021+006009999GF104991999999999999999999MA1100711999999MW1001REMMET076RJAK 060500Z 19004KT 8000 FEW015 SCT020 28/23 Q1007 RMK 1CU015 3CU020 A2973;EQDQ01+000000PRSWM2
0261477160999992000090607004+36030+140200FM-15+0029RJAK V0202001N004110300019N0112651N1+02901+02201999999ADDGA1021+006009999GA2021+009009099GA3071+030009999GA4071+060009999GF107991999999999999999999MA1100711999999MW1001REMMET119RJAK 060700Z 20008KT 9999 SCT020 FEW030CB BKN100 BKN200 29/22 Q1007 RMK 3CU020 2CB030 6AC100 7CI200 A2974 CB NE MOV NE;EQDQ01+000000PRSWM2
0304477160999992000090608004+36030+140200FM-15+0029RJAK V0201901N003110600019N0112651N1+02801+02301999999ADDGA1021+006009029GA2021+009009999GA3071+060009999GF107991999999999999999999MA1100711999999MW1801REMMET162RJAK 060800Z 19006KT 9999 -SHRA FEW020TCU SCT030 BKN200 28/23 Q1007 RMK 2TCU020 3CU030 7CI200 A2975 TCU SE MOV NE FCST 0817 BECMG 0810 FEW030CU SCT040SC BKN100AC;EQDQ01+000003PRSWM1Q02    003PRSWM1
0247477160999992000090622004+36030+140200FM-15+0029RJAK V0200501N002110015019N0035001N1+02401+02301999999ADDGA1021+000909999GA2071+001509999GA3081+004209999GF108991999999999999999999MA1101021999999MW1101MW2801REMMET099RJAK 062200Z 05004KT 3500 -SHRA BR SCT003 BKN005 OVC014 24/23 Q1010 RMK 3ST003 6ST005 8CU014 A2983;EQDQ01+000003PRSWM1Q02    003PRSWM1
0256477160999992000090623004+36030+140200FM-15+0029RJAK V0200201N003110015019N0040001N1+02401+02301999999ADDGA1071+001509999GA2081+004209999GF108991999999999999999999MA1101021999999MW1101MW2801REMMET124RJAK 062300Z 02006KT 4000 -SHRA BR BKN005 OVC014 24/23 Q1010 RMK 6ST005 8CU014 A2984 FCST 2308 BECMG 0305 SCT005ST BKN010CU;EQDQ01+000003PRSWM1Q02    003PRSWM1
0257477160999992000090700334+36030+140200FM-16+0029RJAK V0200501N003110060019N0040001N1+02401+02301999999ADDGA1021+001509999GA2021+004509999GA3071+006009999GF107991999999999999999999MA1101081999999MW1801REMMET099RJAK 070033Z 05006KT 4000 -SHRA BR SCT005 SCT015 BKN020 24/23 Q1011 RMK 3ST005 4CU015 7CU020 A2985;EQDQ01+000100PRSWM3Q02+000003PRSWM1Q03    003PRSWM1
0227477160999992000090701054+36030+140200FM-16+0029RJAK V0200601N003610015019N0045001N1+02401+02301999999ADDGA1071+001509999GA2081+004509999GF108991999999999999999999MA1101081999999MW1801REMMET085RJAK 070105Z 06007KT 4500 -SHRA BR BKN005 OVC015 24/23 Q1011 RMK 6ST005 8CU015 A2986;EQDQ01+000100PRSWM3Q02+000003PRSWM1Q03    003PRSWM1
0235477160999992000090701324+36030+140200FM-16+0029RJAK V0200801N002610060019N0050001N1+02401+02301999999ADDGA1021+001509999GA2021+003609999GA3081+006009999GF108991999999999999999999MA1101081999999MW1101REMMET093RJAK 070132Z 08005KT 5000 BR SCT005 SCT012 OVC020 24/23 Q1011 RMK 4ST005 3CU012 8CU020 A2986;EQDQ01+000003PRSWM1Q02    003PRSWM1
0235477160999992000090702004+36030+140200FM-15+0029RJAK V0200801N003110036019N0050001N1+02401+02301999999ADDGA1021+001509999GA2071+003609999GA3081+006009999GF108991999999999999999999MA1101081999999MW1101REMMET093RJAK 070200Z 08006KT 5000 BR SCT005 BKN012 OVC020 24/23 Q1011 RMK 3ST005 5CU012 8CU020 A2987;EQDQ01+000003PRSWM1Q02    003PRSWM1
0312477160999992000090703004+36030+140200FM-15+0029RJAK V0200501N002110060019N0060001N1+02501+02301999999ADDGA1021+002409999GA2071+006009999GA3071+009009999GF107991999999999999999999MA1101081999999MW1001REMMET186RJAK 070300Z 05004KT 6000 FEW008 BKN020 BKN030 25/23 Q1011 RMK 2ST008 5CU020 7CU030 A2987 FCST 0312 TEMPO 0305 5000 -SHRA BR SCT008ST BKN010CU BECMG 0507 4000 -SHRA BR SCT010ST BKN015CU;EQDQ01+000000PRSWM2
0238477160999992000090703404+36030+140200FM-16+0029RJAK V0200801N002610036019N0060001N1+02901+02201999999ADDGA1021+002109999GA2071+003609999GA3081+007509999GF108991999999999999999999MA1101021999999MW1801REMMET096RJAK 070340Z 08005KT 6000 -SHRA SCT007 BKN012 OVC025 29/22 Q1010 RMK 3ST007 6CU012 8CU025 A2983;EQDQ01+000003PRSWM1Q02    003PRSWM1
0251477160999992000090704004+36030+140200FM-15+0029RJAK V0200601N00151220001CN0050001N1+02501+02201999999ADDGA1021+002109999GA2071+003609999GA3021+006009099MA1101081999999MW1101MW2801REMMET113RJAK 070400Z 06003KT 5000 -SHRA BR SCT007 BKN012 FEW020CB 25/22 Q1011 RMK 3ST007 6CU012 1CB020 A2985 CB S MOV NE;EQDQ01+000022SCOTCVQ02+000003PRSWM1Q03    003PRSWM1
0287477160999992000090704204+36030+140200FM-15+0029RJAK V0200601N001510036019N0040001N1+02501+02201999999ADDGA1021+001809999GA2071+003609999GA3021+006009099GA4081+012009999GF108991999999999999999999MA1101081999999MW1101MW2801MW3951REMMET133RJAK 070420Z 06003KT 4000 -TSRA BR SCT006 BKN012 FEW020CB OVC040 25/22 Q1011 RMK 3ST006 6CU012 2CB020 8SC040 A2987 FBL TS OHD MOV NE;EQDQ01+000003PRSWM1
0240477160999992000090705354+36030+140200FM-16+0029RJAK V0200101N001510060019N0050001N1+02401+02301999999ADDGA1021+001809999GA2071+006009999GA3071+024009999GF107991999999999999999999MA1101081999999MW1101REMMET098RJAK 070535Z 01003KT 5000 BR FEW006 BKN020 BKN080 24/23 Q1011 RETS RMK 2ST006 5CU020 7AC080 A2987;EQDQ01+000003PRSWM1Q02    003PRSWM1
0311477160999992000090706004+36030+140200FM-15+0029RJAK V0200101N001510036019N0050001N1+02401+02301999999ADDGA1021+002109999GA2071+003609999GA3071+024009999GF107991999999999999999999MA1101081999999MW1101MW2801REMMET163RJAK 070600Z 01003KT 5000 -SHRA BR FEW007 BKN012 BKN080 24/23 Q1011 RETS RMK 2ST007 5CU012 6AC080 A2986 FCST 0615 TEMPO 0709 NSW TEMPO 0915 4000 SCT006ST BKN010CU;EQDQ01+000003PRSWM1Q02    003PRSWM1
0235477160999992000090706184+36030+140200FM-16+0029RJAK V0200301N002110240019N0050001N1+02501+02301999999ADDGA1021+002409999GA2021+004509999GA3071+024009999GF107991999999999999999999MA1101081999999MW1101REMMET093RJAK 070618Z 03004KT 5000 BR FEW008 SCT015 BKN080 25/23 Q1011 RMK 2ST008 4CU015 7AC080 A2988;EQDQ01+000003PRSWM1Q02    003PRSWM1
0186477160999992000090707004+36030+140200FM-15+0029RJAK V0200701N003112200019N0060001N1+02601+02301999999ADDGA1021+003009999GA2021+004509999GF104991999999999999999999MA1101081999999MW1001REMMET076RJAK 070700Z 07006KT 6000 FEW010 SCT015 26/23 Q1011 RMK 1CU010 3CU015 A2988;EQDQ01+000000PRSWM2
0239477160999992000090708004+36030+140200FM-15+0029RJAK V0200701N002610600019N0060001N1+02601+02301999999ADDGA1021+003009999GA2071+060009999GF107991999999999999999999MA1101191999999MW1001REMMET129RJAK 070800Z 07005KT 6000 FEW010 BKN200 26/23 Q1012 RMK 1CU010 5CI200 A2988 FCST 0817 TEMPO 0913 4000 -SHRA BR SCT008ST BKN010CU;EQDQ01+000000PRSWM2
0343477160999992000090723004+36030+140200FM-15+0029RJAK V0203601N002610084019N0045001N1+02501+02301999999ADDGA1021+003009999GA2021+006009999GA3071+008409999GF107991999999999999999999MA1101591999999MW1101REMMET201RJAK 072300Z 36005KT 4500 BR FEW010 SCT020 BKN028 25/23 Q1016 RMK 2ST010 3CU020 7CU028 A3001 FCST 2308 TEMPO 2301 BKN008ST BECMG 0102 5000 BECMG 0203 NSW SCT020CU BKN033CU TEMPO 0608 BKN020CU BKN030CU;EQDQ01+000003PRSWM1Q02    003PRSWM1
0235477160999992000090723054+36030+140200FM-16+0029RJAK V0203401N003110024019N0045001N1+02501+02301999999ADDGA1021+001809999GA2071+002409999GA3081+004509999GF108991999999999999999999MA1101591999999MW1101REMMET093RJAK 072305Z 34006KT 4500 BR SCT006 BKN008 OVC015 25/23 Q1016 RMK 4ST006 6ST008 8CU015 A3001;EQDQ01+000003PRSWM1Q02    003PRSWM1
0359477160999992000090800004+36030+140200FM-15+0029RJAK V0202901N001010027019N0045001N1+02601+02301999999ADDGA1021+001809999GA2071+002709999GA3081+004509999GF108991999999999999999999MA1101691999999MW1101REMMET217RJAK 080000Z 29002KT 4500 BR SCT006 BKN009 OVC015 26/23 Q1017 RMK 3ST006 6ST009 8CU015 A3003 FCST 0009 BECMG 0102 5000 FEW006ST SCT009ST BKN020CU BECMG 0203 NSW FEW010ST SCT020CU BKN033CU TEMPO 0608 BKN020CU BKN030CU;EQDQ01+000003PRSWM1Q02    003PRSWM1
0216477160999992000090800294+36030+140200FM-16+0029RJAK V0200501N001010036019N0060001N1+02601+02301999999ADDGA1021+002709999GA2071+003609999GA3081+005409999GF108991999999999999999999MA1101691999999MW1001REMMET090RJAK 080029Z 05002KT 6000 SCT009 BKN012 OVC018 26/23 Q1017 RMK 3ST009 6CU012 8CU018 A3003;EQDQ01+000000PRSWM2
0216477160999992000090801004+36030+140200FM-15+0029RJAK V0200501N002110054019N0080001N1+02601+02201999999ADDGA1021+003009999GA2071+005409999GA3081+007509999GF108991999999999999999999MA1101691999999MW1001REMMET090RJAK 080100Z 05004KT 8000 SCT010 BKN018 OVC025 26/22 Q1017 RMK 4ST010 6CU018 8CU025 A3004;EQDQ01+000000PRSWM2
0235477160999992000090802004+36030+140200FM-15+0029RJAK V0200701N002110075019N0050001N1+02701+02401999999ADDGA1021+004509999GA2071+007509999GA3071+012009999GF107991999999999999999999MA1101691999999MW1101REMMET093RJAK 080200Z 07004KT 5000 BR FEW015 BKN025 BKN040 27/24 Q1017 RMK 1CU015 5CU025 7SC040 A3003;EQDQ01+000003PRSWM1Q02    003PRSWM1
0216477160999992000090802374+36030+140200FM-16+0029RJAK V0200601N001510630019N0060001N1+02901+02401999999ADDGA1021+007509999GA2021+030009999GA3071+063009999GF107991999999999999999999MA1101591999999MW1001REMMET090RJAK 080237Z 06003KT 6000 SCT025 SCT100 BKN210 29/24 Q1016 RMK 3CU025 3AC100 5CI210 A3002;EQDQ01+000000PRSWM2
0288477160999992000090803004+36030+140200FM-15+0029RJAK V0200901N001510300019N9999999N1+03001+02401999999ADDGA1021+005409999GA2021+007509999GA3071+030009999GF107991999999999999999999MA1101591999999MW1001REMMET146RJAK 080300Z 09003KT 7000 FEW018 SCT025 BKN100 30/24 Q1016 RMK 1CU018 3CU025 5AC100 A3002 FCST 0312 TEMPO 0712 BKN025CU BKN100AC TEMPO 1012 -SHRA;EQDQ01+070002VODIS Q02+000000PRSWM2
0232477160999992000090805004+36030+140200FM-15+0029RJAK V0201301N001510300019N9999999N1+03101+02301999999ADDGA1021+004509999GA2021+007509999GA3071+030009999GF107991999999999999999999MA1101491999999MW1001REMMET090RJAK 080500Z 13003KT 6000 FEW015 SCT025 BKN100 31/23 Q1015 RMK 1CU015 4CU025 5AC100 A2998;EQDQ01+060002VODIS Q02+000000PRSWM2
0269477160999992000090806004+36030+140200FM-15+0029RJAK V0201101N002610360019N0050001N1+03001+02301999999ADDGA1021+007509999GA2071+036009999GF107991999999999999999999MA1101491999999MW1051REMMET143RJAK 080600Z 11005KT 5000 HZ SCT025 BKN120 30/23 Q1015 RMK 3CU025 6AC120 A2998 FCST 0615 BECMG 0709 4000 BR BKN025CU BKN120AC TEMPO 1014 -SHRA;EQDQ01+000003PRSWM1Q02    003PRSWM1
0205477160999992000090807004+36030+140200FM-15+0029RJAK V0200801N005710075019N0050001N1+02801+02301999999ADDGA1071+007509999GA2071+036009999GF107991999999999999999999MA1101491999999MW1101REMMET079RJAK 080700Z 08011KT 5000 BR BKN025 BKN120 28/23 Q1015 RMK 5CU025 7AC120 A2999;EQDQ01+000003PRSWM1Q02    003PRSWM1
0247477160999992000090807304+36030+140200FM-15+0029RJAK V0200901N005710036019N0050001N1+02501+02401999999ADDGA1021+002409999GA2071+003609999GA3071+007509999GF107991999999999999999999MA1101591999999MW1101MW2801REMMET099RJAK 080730Z 09011KT 5000 -SHRA BR SCT008 BKN012 BKN025 25/24 Q1016 RMK 3ST008 5CU012 7CU025 A3000;EQDQ01+000003PRSWM1Q02    003PRSWM1
0308477160999992000090808004+36030+140200FM-15+0029RJAK V0200801N005110036019N0050001N1+02501+02401999999ADDGA1021+002109999GA2071+003609999GA3081+007509999GF108991999999999999999999MA1101591999999MW1101REMMET166RJAK 080800Z 08010KT 5000 BR SCT007 BKN012 OVC025 25/24 Q1016 RMK 3ST007 6CU012 8CU025 A3001 FCST 0817 BECMG 0810 4000 BR BKN007ST BKN012CU OVC025CU TEMPO 1014 -SHRA;EQDQ01+000003PRSWM1Q02    003PRSWM1
0339477160999992000091100004+36030+140200FM-15+0029RJAK V0200301N00411220001CN0030001N1+02301+02201999999ADDGA1071+002109999GA2071+004509999GA3021+006009029MA1101081999999MW1101MW2801REMMET201RJAK 110000Z 03008KT 3000 -SHRA BR BKN007 BKN015 FEW020TCU 23/22 Q1011 RMK 5ST007 7CU015 1TCU020 A2988 TCU S MOV NE FCST 0009 TEMPO 0003 -TSRA BECMG 0305 SCT006ST BKN010CU BECMG 0608 SCT010CU BKN015CU;EQDQ01+000022SCOTCVQ02+000003PRSWM1Q03    003PRSWM1
0297477160999992000091103004+36030+140200FM-15+0029RJAK V0200501N005710018019N0070001N1+02401+02201999999ADDGA1071+001809999GA2081+004509999GF108991999999999999999999MA1101021999999MW1001REMMET187RJAK 110300Z 05011KT 7000 BKN006 OVC015 24/22 Q1010 RMK 5ST006 8CU015 A2984 FCST 0312 TEMPO 0310 4000 -SHRA BR TEMPO 0410 SCT006CU BKN015CU OVC040SC BECMG 1012 SCT008CU BKN015CU BKN040SC;EQDQ01+000000PRSWM2
0216477160999992000091104004+36030+140200FM-15+0029RJAK V0200401N005710024019N0112651N1+02601+02301999999ADDGA1071+002409999GA2071+004509999GA3071+030009999GF107991999999999999999999MA1100911999999MW1001REMMET090RJAK 110400Z 04011KT 9999 BKN008 BKN015 BKN100 26/23 Q1009 RMK 5ST008 5CU015 6AC100 A2981;EQDQ01+000000PRSWM2
0238477160999992000091104354+36030+140200FM-16+0029RJAK V0200601N005110024019N0112651N1+02601+02301999999ADDGA1071+002409999GA2071+003609999GA3081+004509999GF108991999999999999999999MA1100911999999MW1801REMMET096RJAK 110435Z 06010KT 9999 -SHRA BKN008 BKN012 OVC015 26/23 Q1009 RMK 5ST008 6CU012 8CU015 A2980;EQDQ01+000003PRSWM1Q02    003PRSWM1
0291477160999992000091106004+36030+140200FM-15+0029RJAK V0200601N004610036019N0050001N1+02501+02301999999ADDGA1021+002409999GA2071+003609999GA3081+007509999GF108991999999999999999999MA1100911999999MW1101MW2801REMMET143RJAK 110600Z 06009KT 5000 -SHRA BR SCT008 BKN012 OVC025 25/23 Q1009 RMK 4ST008 6CU012 8CU025 A2980 FCST 0615 TEMPO 0610 4000 BKN008ST BKN010CU;EQDQ01+000003PRSWM1Q02    003PRSWM1
0257477160999992000091106124+36030+140200FM-16+0029RJAK V0200201N003110018019N0040001N1+02501+02301999999ADDGA1071+001809999GA2071+003009999GA3081+007509999GF108991999999999999999999MA1100911999999MW1801REMMET099RJAK 110612Z 02006KT 4000 -SHRA BR BKN006 BKN010 OVC025 25/23 Q1009 RMK 5ST006 6CU010 8CU025 A2979;EQDQ01+000100PRSWM3Q02+000003PRSWM1Q03    003PRSWM1
0295477160999992000091107134+36030+140200FM-16+0029RJAK V0200501N005110018019N0050001N1+02401+02301999999ADDGA1071+001809999GA2071+003609999GA3021+004509099GA4081+007509999GF108991999999999999999999MA1100911999999MW1801MW2951REMMET131RJAK 110713Z 05010KT 5000 -TSRA BR BKN006 BKN012 FEW015CB OVC025 24/23 Q1009 RMK 5ST006 6CU012 1CB015 8CU025 A2979 FBL TS S MOV NE;EQDQ01+000100PRSWM4Q02+000003PRSWM1
0286477160999992000091108004+36030+140200FM-15+0029RJAK V0203001N00211220001CN0030001N1+02501+02301999999ADDGA1071+001809999GA2071+002409999GA3021+003609999MW1101MW2801MW3951REMMET173RJAK 110800Z RTD 30004KT 3000 -TSRA BR BKN006 BKN008 FEW012 25/23 Q2981 RMK FBLTS E MOV NE FCST 0817 BECMG 0910 5000 -RASH BR SCT008ST BKN010CU BECMG 1012 FEW008ST BKN015CU;EQDQ01+000022SCOTCVQ02+000003PRSWM1
0233477160999992000091202004+36030+140200FM-15+0029RJAK V0201701N001010300019N0112651N1+02701+02401999999ADDGA1021+004509999GA2021+006009099GA3071+030009999GF107991999999999999999999MA1101021999999MW1001REMMET107RJAK 120200Z 17002KT 9999 SCT015 FEW020CB BKN100 27/24 Q1010 RMK 4CU015 1CB020 7AC100 A2984 CB W APCHG STN;EQDQ01+000000PRSWM2
0253477160999992000091202454+36030+140200FM-15+0029RJAK V0201701N001010075019N0090001N1+02701+02401999999ADDGA1071+007509999GA2021+009009099GA3071+030009999GF107991999999999999999999MA1101021999999MW1171REMMET111RJAK 120245Z 17002KT 9000 TS BKN025 FEW030CB BKN100 27/24 Q1010 RMK 5CU025 2CB030 7AC100 A2982 FBL TS NW MOV N;EQDQ01+000003PRSWM1Q02    003PRSWM1
0232477160999992000091204004+36030+140200FM-15+0029RJAK V0202001N006210300019N0112651N1+03001+02301999999ADDGA1021+007509999GA2071+030009999GA3071+066009999GF107991999999999999999999MA1100911999999MW1001OC101231REMMET098RJAK 120400Z 20012G24KT 9999 SCT025 BKN100 BKN220 30/23 Q1009 RETS RMK 3CU025 5AC100 7CS220 A2981;EQDQ01+000000PRSWM2
0249477160999992000091204454+36030+140200FM-15+0029RJAK V0202001N006710300019N0112651N1+03001+02401999999ADDGA1021+007509999GA2071+030009999GA3071+066009999GF107991999999999999999999MA1100911999999MW1801OC101291REMMET099RJAK 120445Z 20013G25KT 9999 -SHRA SCT025 BKN100 BKN220 30/24 Q1009 RMK 4CU025 5AC100 7CS220 A2981;EQDQ01+000003PRSWM1Q02    003PRSWM1
0227477160999992000091205004+36030+140200FM-15+0029RJAK V0202101N005110300019N0112651N1+03001+02401999999ADDGA1021+006009999GA2021+007509999GA3071+030009999GF107991999999999999999999MA1100911999999MW1001OC101031REMMET093RJAK 120500Z 21010G20KT 9999 FEW020 SCT025 BKN100 30/24 Q1009 RMK 1CU020 4CU025 5AC100 A2981;EQDQ01+000000PRSWM2
0276477160999992000091206004+36030+140200FM-15+0029RJAK V0202101N005710360019N0112651N1+03001+02401999999ADDGA1021+007509999GA2071+036009999GA3071+066009999GF107991999999999999999999MA1100911999999MW1001OC101081REMMET142RJAK 120600Z 21011G21KT 9999 SCT025 BKN120 BKN220 30/24 Q1009 RMK 3CU025 5AC120 6CS220 A2981 FCST 0615 BECMG 0809 21012KT TEMPO 0812 BKN025CU;EQDQ01+000000PRSWM2
0216477160999992000091207004+36030+140200FM-15+0029RJAK V0202101N003610075019N0112651N1+02901+02401999999ADDGA1021+006009999GA2071+007509999GA3071+066009999GF107991999999999999999999MA1101021999999MW1001REMMET090RJAK 120700Z 21007KT 9999 FEW020 BKN025 BKN220 29/24 Q1010 RMK 1CU020 5CU025 6CI220 A2982;EQDQ01+000000PRSWM2
0293477160999992000091208004+36030+140200FM-15+0029RJAK V0202001N00461009001CN0112651N1+02901+02401999999ADDGA1021+006009999GA2021+007509999GA3021+009009029GA4071+030009999GF107991999999999999999999MA1101021999999MW1001REMMET151RJAK 120800Z 20009KT 9999 FEW020 SCT025 FEW030TCU BKN100 29/24 Q1010 RMK 2CU020 4CU025 1TCU030 5AC100 A2984 TCU E MOV NE FCST 0817 TEMPO 0912 BKN025CU;EQDQ01+000000PRSWM2
0186477160999992000091209004+36030+140200FM-15+0029RJAK V0202101N003612200019N0112651N1+02801+02401999999ADDGA1021+007509999GA2021+015009999GF104991999999999999999999MA1101021999999MW1001REMMET076RJAK 120900Z 21007KT 9999 SCT025 SCT050 28/24 Q1010 RMK 3CU025 3SC050 A2985;EQDQ01+000000PRSWM2
0156477160999992000091210004+36030+140200FM-15+0029RJAK V0202001N003612200019N0112651N1+02701+02401999999ADDGA1021+007509999GF102991999999999999999999MA1101081999999MW1001REMMET062RJAK 121000Z 20007KT 9999 FEW025 27/24 Q1011 RMK 1CU025 A2987;EQDQ01+000000PRSWM2
0186477160999992000091222004+36030+140200FM-15+0029RJAK V0200601N006210021019N0080001N1+02201+02101999999ADDGA1071+002109999GA2081+004509999GF108991999999999999999999MA1101491999999MW1001REMMET076RJAK 122200Z 06012KT 8000 BKN007 OVC015 22/21 Q1015 RMK 6ST007 8CU015 A2997;EQDQ01+000000PRSWM2
0271477160999992000091300004+36030+140200FM-15+0029RJAK V0200501N005710024019N0112651N1+02301+02001999999ADDGA1071+002409999GA2081+006009999GF108991999999999999999999MA1101491999999MW1001REMMET161RJAK 130000Z 05011KT 9999 BKN008 OVC020 23/20 Q1015 RMK 6ST008 8CU020 A2999 FCST 0009 BECMG 0001 BKN010ST BKN020CU BECMG 0103 SCT010ST BKN020CU TEMPO 0809 -SHRA;EQDQ01+000000PRSWM2
0216477160999992000091300374+36030+140200FM-16+0029RJAK V0200501N005710030019N0112651N1+02401+02001999999ADDGA1021+002409999GA2071+003009999GA3071+006009999GF107991999999999999999999MA1101491999999MW1001REMMET090RJAK 130037Z 05011KT 9999 SCT008 BKN010 BKN020 24/20 Q1015 RMK 3ST008 6ST010 6CU020 A2999;EQDQ01+000000PRSWM2
0186477160999992000091301004+36030+140200FM-15+0029RJAK V0200601N005710036019N0112651N1+02501+02101999999ADDGA1021+003009999GA2071+003609999GF107991999999999999999999MA1101491999999MW1001REMMET076RJAK 130100Z 06011KT 9999 FEW010 BKN012 25/21 Q1015 RMK 1ST010 7CU012 A2999;EQDQ01+000000PRSWM2
0216477160999992000091302004+36030+140200FM-15+0029RJAK V0200701N006710042019N0112651N1+02501+02001999999ADDGA1021+003609999GA2071+004209999GA3081+006009999GF108991999999999999999999MA1101491999999MW1001REMMET090RJAK 130200Z 07013KT 9999 SCT012 BKN014 OVC020 25/20 Q1015 RMK 4CU012 5CU014 8CU020 A2999;EQDQ01+000000PRSWM2
0272477160999992000091303004+36030+140200FM-15+0029RJAK V0200701N005710045019N0112651N1+02601+02101999999ADDGA1021+003609999GA2071+004509999GA3081+006009999GF108991999999999999999999MA1101491999999MW1001REMMET146RJAK 130300Z 07011KT 9999 SCT012 BKN015 OVC020 26/21 Q1015 RMK 3CU012 5CU015 8CU020 A2998 FCST 0312 TEMPO 0406 SCT015CU BKN020CU TEMPO 0712 -SHRA;EQDQ01+000000PRSWM2
0186477160999992000091304004+36030+140200FM-15+0029RJAK V0200701N006210045019N0112651N1+02701+02101999999ADDGA1021+003609999GA2071+004509999GF107991999999999999999999MA1101491999999MW1001REMMET076RJAK 130400Z 07012KT 9999 SCT012 BKN015 27/21 Q1015 RMK 3CU012 7CU015 A2997;EQDQ01+000000PRSWM2
0216477160999992000091305004+36030+140200FM-15+0029RJAK V0200701N005710045019N0112651N1+02701+02101999999ADDGA1021+003609999GA2071+004509999GA3071+006009999GF107991999999999999999999MA1101391999999MW1001REMMET090RJAK 130500Z 07011KT 9999 FEW012 BKN015 BKN020 27/21 Q1014 RMK 2CU012 5CU015 7CU020 A2995;EQDQ01+000000PRSWM2
0278477160999992000091306004+36030+140200FM-15+0029RJAK V0200701N005710045019N0080001N1+02601+02101999999ADDGA1021+003609999GA2071+004509999GA3071+006009999GF107991999999999999999999MA1101391999999MW1001REMMET152RJAK 130600Z 07011KT 8000 SCT012 BKN015 BKN020 26/21 Q1014 RMK 4CU012 5CU015 7CU020 A2995 FCST 0615 TEMPO 1015 4000 -SHRA BR BKN010CU BKN015CU OVC020CU;EQDQ01+000000PRSWM2
0205477160999992000091401004+36030+140200FM-15+0029RJAK V0200401N001510027019N0045001N1+02601+02301999999ADDGA1021+001809999GA2071+002709999GF107991999999999999999999MA1101391999999MW1101REMMET079RJAK 140100Z 04003KT 4500 BR SCT006 BKN009 26/23 Q1014 RMK 3ST006 7ST009 A2994;EQDQ01+000003PRSWM1Q02    003PRSWM1
0205477160999992000091402004+36030+140200FM-15+0029RJAK V0200801N002110024019N0045001N1+02701+02301999999ADDGA1071+002409999GA2071+003609999GF107991999999999999999999MA1101291999999MW1101REMMET079RJAK 140200Z 08004KT 4500 BR BKN008 BKN012 27/23 Q1013 RMK 5ST008 7CU012 A2993;EQDQ01+000003PRSWM1Q02    003PRSWM1
0235477160999992000091402274+36030+140200FM-16+0029RJAK V0200501N001510030019N0050001N1+02701+02301999999ADDGA1021+002409999GA2071+003009999GA3071+003609999GF107991999999999999999999MA1101291999999MW1101REMMET093RJAK 140227Z 05003KT 5000 BR SCT008 BKN010 BKN012 27/23 Q1013 RMK 3ST008 6ST010 7CU012 A2993;EQDQ01+000003PRSWM1Q02    003PRSWM1
0315477160999992000091403004+36030+140200FM-15+0029RJAK V0200601N002610030019N0045001N1+02701+02301999999ADDGA1021+002409999GA2071+003009999GA3071+003609999GF107991999999999999999999MA1101291999999MW1101REMMET173RJAK 140300Z 06005KT 4500 BR FEW008 BKN010 BKN012 27/23 Q1013 RMK 2ST008 6ST010 7CU012 A2992 FCST 0312 BECMG 0304 5000 FEW010ST BKN015CU TEMPO 0812 4000 BR TEMPO 1012 -SHRA;EQDQ01+000003PRSWM1Q02    003PRSWM1
0205477160999992000091403154+36030+140200FM-16+0029RJAK V0200901N001510054019N0050001N1+02801+02301999999ADDGA1021+003609999GA2071+005409999GF107991999999999999999999MA1101291999999MW1051REMMET079RJAK 140315Z 09003KT 5000 HZ SCT012 BKN018 28/23 Q1013 RMK 3ST012 6CU018 A2992;EQDQ01+000003PRSWM1Q02    003PRSWM1
0232477160999992000091404004+36030+140200FM-15+0029RJAK V0201201N002110054019N9999999N1+03101+02401999999ADDGA1021+004509999GA2071+005409999GA3071+012009999GF107991999999999999999999MA1101291999999MW1001REMMET090RJAK 140400Z 12004KT 6000 FEW015 BKN018 BKN040 31/24 Q1013 RMK 1CU015 5CU018 5SC040 A2991;EQDQ01+060002VODIS Q02+000000PRSWM2
0202477160999992000091405004+36030+140200FM-15+0029RJAK V0201401N002610054019N9999999N1+03001+02301999999ADDGA1071+005409999GA2071+012009999GF107991999999999999999999MA1101191999999MW1001REMMET076RJAK 140500Z 14005KT 6000 BKN018 BKN040 30/23 Q1012 RMK 6CU018 7SC040 A2990;EQDQ01+060002VODIS Q02+000000PRSWM2
0238477160999992000091405184+36030+140200FM-16+0029RJAK V0201301N002610054019N0060001N1+02901+02301999999ADDGA1021+003609999GA2071+005409999GA3081+012009999GF108991999999999999999999MA1101191999999MW1801REMMET096RJAK 140518Z 13005KT 6000 -SHRA FEW012 BKN018 OVC040 29/23 Q1012 RMK 2CU012 6CU018 8SC040 A2989;EQDQ01+000003PRSWM1Q02    003PRSWM1
0297477160999992000091406004+36030+140200FM-15+0029RJAK V0202001N001510054019N0050001N1+02801+02301999999ADDGA1021+003609999GA2071+005409999GA3071+012009999GF107991999999999999999999MA1101191999999MW1101MW2801REMMET149RJAK 140600Z 20003KT 5000 -SHRA BR SCT012 BKN018 BKN040 28/23 Q1012 RMK 3CU012 6CU018 7SC040 A2989 FCST 0615 BECMG 0607 NSW TEMPO 1215 4000 -SHRA BR;EQDQ01+000003PRSWM1Q02    003PRSWM1
0216477160999992000091406184+36030+140200FM-16+0029RJAK V0202701N000510240019N0070001N1+02801+02301999999ADDGA1021+005409999GA2021+015009999GA3071+024009999GF107991999999999999999999MA1101191999999MW1001REMMET090RJAK 140618Z 27001KT 7000 FEW018 SCT050 BKN080 28/23 Q1012 RMK 2CU018 3SC050 5AC080 A2989;EQDQ01+000000PRSWM2
0186477160999992000091407004+36030+140200FM-15+0029RJAK V02099999999992200019N0090001N1+02801+02401999999ADDGA1021+004509999GA2021+024009999GF104991999999999999999999MA1101191999999MW1001REMMET076RJAK 140700Z VRB01KT 9000 FEW015 SCT080 28/24 Q1012 RMK 1CU015 3AC080 A2988;EQDQ01+000000PRSWM2
0172477160999992000091408004+36030+140200FM-15+0029RJAK V0200601N000512200019N0112651N1+03001+02301999999ADDGA1021+004509999GF102991999999999999999999MA1101191999999MW1001REMMET078RJAK 140800Z 06001KT 9999 FEW015 30/23 Q1012 RMK 1CU015 A2989 FCST 0817 NOSIG;EQDQ01+000000PRSWM2
0302477160999992000091423004+36030+140200FM-15+0029RJAK V0200801N001510012019N0040001N1+02501+02401999999ADDGA1071+001209999GA2071+003609999GF107991999999999999999999MA1101081999999MW1101REMMET176RJAK 142300Z 08003KT 4000 BR BKN004 BKN012 25/24 Q1011 RMK 6ST004 7CU012 A2987 FCST 2308 BECMG 2301 5000 BECMG 0102 NSW FEW008ST BKN015CU BKN025CU TEMPO 0306 SCT015CU SCT025CU;EQDQ01+000003PRSWM1Q02    003PRSWM1
0254477160999992000091500004+36030+140200FM-15+0029RJAK V0200401N001512200019N0070001N1+02701+02401999999ADDGA1021+002409999GA2021+003609999GF104991999999999999999999MA1101081999999MW1001REMMET144RJAK 150000Z 04003KT 7000 FEW008 SCT012 27/24 Q1011 RMK 2ST008 3CU012 A2987 FCST 0009 TEMPO 0002 FEW008ST BKN015CU TEMPO 0709 BKN015CU BKN025CU;EQDQ01+000000PRSWM2
0186477160999992000091501004+36030+140200FM-15+0029RJAK V0200601N002110060019N0070001N1+02901+02401999999ADDGA1021+003609999GA2071+006009999GF107991999999999999999999MA1101081999999MW1001REMMET076RJAK 150100Z 06004KT 7000 FEW012 BKN020 29/24 Q1011 RMK 1CU012 5CU020 A2986;EQDQ01+000000PRSWM2
0202477160999992000091522004+36030+140200FM-15+0029RJAK V0201301N001512200019N0112651N1+02501+02401999999ADDGA1021+002409999GA2021+006009099GF102991999999999999999999MA1100911999999MW1001REMMET092RJAK 152200Z 13003KT 9999 FEW008 FEW020CB 25/24 Q1009 RMK 1ST008 1CB020 A2981 CB SW-W MOV N;EQDQ01+000000PRSWM2
0324477160999992000091523004+36030+140200FM-15+0029RJAK V0201701N00361220001CN0112651N1+02701+02501999999ADDGA1021+003009999GA2071+003609999GA3021+006009099MA1100911999999MW1001REMMET208RJAK 152300Z 17007KT 9999 FEW010 BKN012 FEW020CB 27/25 Q1009 RMK 1CU010 5CU012 1CB020 A2980 CB SW MOV NE FCST 2308 TEMPO 0103 4000 -SHRA BKN010CU TEMPO 0308 18010G21KT TEMPO 0608 4000 -SHRA BKN010CU BKN020CU;EQDQ01+000022SCOTCVQ02+000000PRSWM2
0334477160999992000091603004+36030+140200FM-15+0029RJAK V0201501N004110360019N0112651N1+03001+02401999999ADDGA1021+004509999GA2021+006009099GA3071+036009999GF107991999999999999999999MA1100811999999MW1001REMMET208RJAK 160300Z 15008KT 9999 SCT015 FEW020CB BKN120 30/24 Q1008 RMK 3CU015 2CB020 6AC120 A2977 CB N AND SW MOV NE FCST 0312 TEMPO 0306 -SHRA BKN015CU BKN120AC TEMPO 0612 4000 -SHRA BR FEW008ST BKN012CU OVC020CU;EQDQ01+000000PRSWM2
0186477160999992000091722004+36030+140200FM-15+0029RJAK V0200601N001512200019N0112651N1+02201+01901999999ADDGA1021+004809999GA2021+006009999GF104991999999999999999999MA1100611999999MW1001REMMET076RJAK 172200Z 06003KT 9999 FEW016 SCT020 22/19 Q1006 RMK 2CU016 3SC020 A2971;EQDQ01+000000PRSWM2
0172477160999992000091723004+36030+140200FM-15+0029RJAK V0200401N003112200019N0112651N1+02401+02001999999ADDGA1021+004809999GF102991999999999999999999MA1100611999999MW1001REMMET078RJAK 172300Z 04006KT 9999 FEW016 24/20 Q1006 RMK 1CU016 A2972 FCST 2308 NOSIG;EQDQ01+000000PRSWM2
0172477160999992000091800004+36030+140200FM-15+0029RJAK V0200301N002612200019N0112651N1+02701+01901999999ADDGA1021+006009999GF102991999999999999999999MA1100711999999MW1001REMMET078RJAK 180000Z 03005KT 9999 FEW020 27/19 Q1007 RMK 1CU020 A2975 FCST 0009 NOSIG;EQDQ01+000000PRSWM2
0156477160999992000091801004+36030+140200FM-15+0029RJAK V0200801N001510075019N0112651N1+03001+02001999999ADDGA1071+007509999GF107991999999999999999999MA1100811999999MW1001REMMET062RJAK 180100Z 08003KT 9999 BKN025 30/20 Q1008 RMK 5CU025 A2977;EQDQ01+000000PRSWM2
0186477160999992000091802004+36030+140200FM-15+0029RJAK V02099999999990090019N0112651N1+02901+02001999999ADDGA1021+006009999GA2071+009009999GF107991999999999999999999MA1100811999999MW1001REMMET076RJAK 180200Z VRB02KT 9999 SCT020 BKN030 29/20 Q1008 RMK 3CU020 6CU030 A2977;EQDQ01+000000PRSWM2
0202477160999992000091803004+36030+140200FM-15+0029RJAK V0200701N002112200019N0112651N1+03001+02001999999ADDGA1021+009009999GA2021+015009999GF104991999999999999999999MA1100811999999MW1001REMMET092RJAK 180300Z 07004KT 9999 FEW030 SCT050 30/20 Q1008 RMK 2CU030 4SC050 A2977 FCST 0312 NOSIG;EQDQ01+000000PRSWM2
0186477160999992000091804004+36030+140200FM-15+0029RJAK V0200401N003112200019N0112651N1+03001+02101999999ADDGA1021+007509999GA2021+010509999GF104991999999999999999999MA1100811999999MW1001REMMET076RJAK 180400Z 04006KT 9999 FEW025 SCT035 30/21 Q1008 RMK 2CU025 4CU035 A2977;EQDQ01+000000PRSWM2
0156477160999992000091805004+36030+140200FM-15+0029RJAK V0200601N004612200019N0112651N1+03001+02001999999ADDGA1021+007509999GF102991999999999999999999MA1100811999999MW1001REMMET062RJAK 180500Z 06009KT 9999 FEW025 30/20 Q1008 RMK 1CU025 A2978;EQDQ01+000000PRSWM2
0172477160999992000091806004+36030+140200FM-15+0029RJAK V0200901N004612200019N0112651N1+03001+02001999999ADDGA1021+007509999GF102991999999999999999999MA1100811999999MW1001REMMET078RJAK 180600Z 09009KT 9999 FEW025 30/20 Q1008 RMK 1CU025 A2978 FCST 0615 NOSIG;EQDQ01+000000PRSWM2
0156477160999992000091807004+36030+140200FM-15+0029RJAK V0200901N004612200019N0112651N1+02901+01901999999ADDGA1021+007509999GF102991999999999999999999MA1100911999999MW1001REMMET062RJAK 180700Z 09009KT 9999 FEW025 29/19 Q1009 RMK 1CU025 A2981;EQDQ01+000000PRSWM2
0172477160999992000091808004+36030+140200FM-15+0029RJAK V0201001N004612200019N0112651N1+02801+01901999999ADDGA1021+007509999GF102991999999999999999999MA1101021999999MW1001REMMET078RJAK 180800Z 10009KT 9999 FEW025 28/19 Q1010 RMK 1CU025 A2983 FCST 0817 NOSIG;EQDQ01+000000PRSWM2
0156477160999992000091822004+36030+140200FM-15+0029RJAK V0200401N004612200019N0112651N1+02201+01801999999ADDGA1021+007509999GF102991999999999999999999MA1101691999999MW1001REMMET062RJAK 182200Z 04009KT 9999 FEW025 22/18 Q1017 RMK 1CU025 A3003;EQDQ01+000000PRSWM2
0172477160999992000091823004+36030+140200FM-15+0029RJAK V0200501N004612200019N0112651N1+02201+01901999999ADDGA1021+006009999GF102991999999999999999999MA1101691999999MW1001REMMET078RJAK 182300Z 05009KT 9999 FEW020 22/19 Q1017 RMK 1CU020 A3005 FCST 2308 NOSIG;EQDQ01+000000PRSWM2
0172477160999992000091900004+36030+140200FM-15+0029RJAK V0200501N004112200019N0112651N1+02601+01901999999ADDGA1021+006009999GF102991999999999999999999MA1101801999999MW1001REMMET078RJAK 190000Z 05008KT 9999 FEW020 26/19 Q1018 RMK 2CU020 A3007 FCST 0009 NOSIG;EQDQ01+000000PRSWM2
0186477160999992000091901004+36030+140200FM-15+0029RJAK V0200201N003112200019N0112651N1+02801+01801999999ADDGA1021+006009999GA2021+007509999GF104991999999999999999999MA1101801999999MW1001REMMET076RJAK 190100Z 02006KT 9999 FEW020 SCT025 28/18 Q1018 RMK 2CU020 3CU025 A3007;EQDQ01+000000PRSWM2
0186477160999992000091902004+36030+140200FM-15+0029RJAK V0200801N003612200019N0112651N1+03001+01901999999ADDGA1021+007509999GA2021+009009999GF104991999999999999999999MA1101801999999MW1001REMMET076RJAK 190200Z 08007KT 9999 FEW025 SCT030 30/19 Q1018 RMK 2CU025 3CU030 A3006;EQDQ01+000000PRSWM2
0202477160999992000091903004+36030+140200FM-15+0029RJAK V0200801N003612200019N0112651N1+03001+01801999999ADDGA1021+007509999GA2021+009009999GF104991999999999999999999MA1101801999999MW1001REMMET092RJAK 190300Z 08007KT 9999 FEW025 SCT030 30/18 Q1018 RMK 2CU025 3CU030 A3006 FCST 0312 NOSIG;EQDQ01+000000PRSWM2
0156477160999992000091904004+36030+140200FM-15+0029RJAK V0200901N002112200019N0112651N1+03001+01701999999ADDGA1021+007509999GF102991999999999999999999MA1101801999999MW1001REMMET062RJAK 190400Z 09004KT 9999 FEW025 30/17 Q1018 RMK 1CU025 A3006;EQDQ01+000000PRSWM2
0186477160999992000091905004+36030+140200FM-15+0029RJAK V0201001N004612200019N0112651N1+03001+01801999999ADDGA1021+007509999GA2021+066009999GF104991999999999999999999MA1101801999999MW1001REMMET076RJAK 190500Z 10009KT 9999 FEW025 SCT220 30/18 Q1018 RMK 1CU025 3CI220 A3006;EQDQ01+000000PRSWM2
0202477160999992000091906004+36030+140200FM-15+0029RJAK V0200901N004110660019N0112651N1+03001+01801999999ADDGA1021+007509999GA2071+066009999GF107991999999999999999999MA1101691999999MW1001REMMET092RJAK 190600Z 09008KT 9999 FEW025 BKN220 30/18 Q1017 RMK 2CU025 5CI220 A3005 FCST 0615 NOSIG;EQDQ01+000000PRSWM2
0186477160999992000091907004+36030+140200FM-15+0029RJAK V0200801N005710660019N0112651N1+02901+01801999999ADDGA1021+007509999GA2071+066009999GF107991999999999999999999MA1101801999999MW1001REMMET076RJAK 190700Z 08011KT 9999 FEW025 BKN220 29/18 Q1018 RMK 2CU025 5CI220 A3006;EQDQ01+000000PRSWM2
0202477160999992000091908004+36030+140200FM-15+0029RJAK V0200801N005110690019N0112651N1+02701+01901999999ADDGA1021+007509999GA2071+069009999GF107991999999999999999999MA1101801999999MW1001REMMET092RJAK 190800Z 08010KT 9999 FEW025 BKN230 27/19 Q1018 RMK 1CU025 6CI230 A3007 FCST 0817 NOSIG;EQDQ01+000000PRSWM2
0186477160999992000091922004+36030+140200FM-15+0029RJAK V0203401N001510600019N0112651N1+02101+01701999999ADDGA1021+007509999GA2071+060009999GF107991999999999999999999MA1102201999999MW1001REMMET076RJAK 192200Z 34003KT 9999 FEW025 BKN200 21/17 Q1022 RMK 1CU025 5CI200 A3019;EQDQ01+000000PRSWM2
0172477160999992000091923004+36030+140200FM-15+0029RJAK V0200401N003610600019N0112651N1+02201+01601999999ADDGA1071+060009999GF107991999999999999999999MA1102301999999MW1001REMMET078RJAK 192300Z 04007KT 9999 BKN200 22/16 Q1023 RMK 5CI200 A3021 FCST 2308 NOSIG;EQDQ01+000000PRSWM2
0172477160999992000092000004+36030+140200FM-15+0029RJAK V0200401N003112200019N0112651N1+02601+01601999999ADDGA1021+060009999GF104991999999999999999999MA1102301999999MW1001REMMET078RJAK 200000Z 04006KT 9999 SCT200 26/16 Q1023 RMK 4CI200 A3023 FCST 0009 NOSIG;EQDQ01+000000PRSWM2
0156477160999992000092001004+36030+140200FM-15+0029RJAK V0200501N004112200019N0112651N1+02701+01601999999ADDGA1021+060009999GF102991999999999999999999MA1102301999999MW1001REMMET062RJAK 200100Z 05008KT 9999 FEW200 27/16 Q1023 RMK 2CI200 A3023;EQDQ01+000000PRSWM2
0156477160999992000092002004+36030+140200FM-15+0029RJAK V0200601N005712200019N0112651N1+02901+01501999999ADDGA1021+007509999GF102991999999999999999999MA1102301999999MW1001REMMET062RJAK 200200Z 06011KT 9999 FEW025 29/15 Q1023 RMK 1CU025 A3022;EQDQ01+000000PRSWM2
0172477160999992000092003004+36030+140200FM-15+0029RJAK V0200501N004612200019N0112651N1+03001+01501999999ADDGA1021+007509999GF102991999999999999999999MA1102301999999MW1001REMMET078RJAK 200300Z 05009KT 9999 FEW025 30/15 Q1023 RMK 1CU025 A3021 FCST 0312 NOSIG;EQDQ01+000000PRSWM2
0186477160999992000092004004+36030+140200FM-15+0029RJAK V0201001N005712200019N0112651N1+03001+01501999999ADDGA1021+009009999GA2021+063009999GF104991999999999999999999MA1102201999999MW1001REMMET076RJAK 200400Z 10011KT 9999 FEW030 SCT210 30/15 Q1022 RMK 1CU030 4CI210 A3019;EQDQ01+000000PRSWM2
0186477160999992000092005004+36030+140200FM-15+0029RJAK V0201001N005112200019N0112651N1+03001+01501999999ADDGA1021+009009999GA2021+063009999GF104991999999999999999999MA1102201999999MW1001REMMET076RJAK 200500Z 10010KT 9999 FEW030 SCT210 30/15 Q1022 RMK 1CU030 3CI210 A3018;EQDQ01+000000PRSWM2
0202477160999992000092006004+36030+140200FM-15+0029RJAK V0200901N005112200019N0112651N1+02901+01601999999ADDGA1021+009009999GA2021+063009999GF104991999999999999999999MA1102201999999MW1001REMMET092RJAK 200600Z 09010KT 9999 FEW030 SCT210 29/16 Q1022 RMK 1CU030 3CI210 A3018 FCST 0615 NOSIG;EQDQ01+000000PRSWM2
0186477160999992000092007004+36030+140200FM-15+0029RJAK V0200901N005112200019N0112651N1+02901+01601999999ADDGA1021+009009999GA2021+063009999GF104991999999999999999999MA1102201999999MW1001REMMET076RJAK 200700Z 09010KT 9999 FEW030 SCT210 29/16 Q1022 RMK 1CU030 3CI210 A3019;EQDQ01+000000PRSWM2
0202477160999992000092008004+36030+140200FM-15+0029RJAK V0200901N003610630019N0112651N1+02701+01501999999ADDGA1021+009009999GA2071+063009999GF107991999999999999999999MA1102201999999MW1001REMMET092RJAK 200800Z 09007KT 9999 FEW030 BKN210 27/15 Q1022 RMK 1CU030 6CI210 A3019 FCST 0817 NOSIG;EQDQ01+000000PRSWM2
0156477160999992000092022004+36030+140200FM-15+0029RJAK V0203601N001012200019N0112651N1+02001+01701999999ADDGA1021+018009999GF102991999999999999999999MA1102301999999MW1001REMMET062RJAK 202200Z 36002KT 9999 FEW060 20/17 Q1023 RMK 1SC060 A3023;EQDQ01+000000PRSWM2
0172477160999992000092023004+36030+140200FM-15+0029RJAK V0200401N002612200019N0112651N1+02201+01701999999ADDGA1021+015009999GF102991999999999999999999MA1102301999999MW1001REMMET078RJAK 202300Z 04005KT 9999 FEW050 22/17 Q1023 RMK 1SC050 A3023 FCST 2308 NOSIG;EQDQ01+000000PRSWM2
0172477160999992000092100004+36030+140200FM-15+0029RJAK V0200501N003112200019N0112651N1+02501+01701999999ADDGA1021+007509999GF102991999999999999999999MA1102401999999MW1001REMMET078RJAK 210000Z 05006KT 9999 FEW025 25/17 Q1024 RMK 1CU025 A3024 FCST 0009 NOSIG;EQDQ01+000000PRSWM2
0156477160999992000092101004+36030+140200FM-15+0029RJAK V0200701N002612200019N0112651N1+02701+01701999999ADDGA1021+007509999GF102991999999999999999999MA1102401999999MW1001REMMET062RJAK 210100Z 07005KT 9999 FEW025 27/17 Q1024 RMK 2CU025 A3023;EQDQ01+000000PRSWM2
0186477160999992000092102004+36030+140200FM-15+0029RJAK V0200501N002612200019N0112651N1+02901+01601999999ADDGA1021+007509999GA2021+009009999GF104991999999999999999999MA1102301999999MW1001REMMET076RJAK 210200Z 05005KT 9999 FEW025 SCT030 29/16 Q1023 RMK 1CU025 3CU030 A3023;EQDQ01+000000PRSWM2
0172477160999992000092103004+36030+140200FM-15+0029RJAK V0200701N002612200019N0112651N1+02901+01701999999ADDGA1021+007509999GF102991999999999999999999MA1102301999999MW1001REMMET078RJAK 210300Z 07005KT 9999 FEW025 29/17 Q1023 RMK 2CU025 A3022 FCST 0312 NOSIG;EQDQ01+000000PRSWM2
0156477160999992000092104004+36030+140200FM-15+0029RJAK V0200801N002112200019N0112651N1+02901+01701999999ADDGA1021+007509999GF102991999999999999999999MA1102201999999MW1001REMMET062RJAK 210400Z 08004KT 9999 FEW025 29/17 Q1022 RMK 2CU025 A3020;EQDQ01+000000PRSWM2
0156477160999992000092105004+36030+140200FM-15+0029RJAK V0200901N002612200019N0112651N1+02901+01701999999ADDGA1021+007509999GF102991999999999999999999MA1102101999999MW1001REMMET062RJAK 210500Z 09005KT 9999 FEW025 29/17 Q1021 RMK 2CU025 A3017;EQDQ01+000000PRSWM2
0172477160999992000092106004+36030+140200FM-15+0029RJAK V0201301N003112200019N0112651N1+02901+01701999999ADDGA1021+009009999GF102991999999999999999999MA1102101999999MW1001REMMET078RJAK 210600Z 13006KT 9999 FEW030 29/17 Q1021 RMK 1CU030 A3015 FCST 0615 NOSIG;EQDQ01+000000PRSWM2
0156477160999992000092107004+36030+140200FM-15+0029RJAK V0200901N002612200019N0112651N1+02801+01701999999ADDGA1021+009009999GF102991999999999999999999MA1102101999999MW1001REMMET062RJAK 210700Z 09005KT 9999 FEW030 28/17 Q1021 RMK 1CU030 A3015;EQDQ01+000000PRSWM2
0172477160999992000092108004+36030+140200FM-15+0029RJAK V0201301N002612200019N0112651N1+02601+01601999999ADDGA1021+036009999GF102991999999999999999999MA1102101999999MW1001REMMET078RJAK 210800Z 13005KT 9999 FEW120 26/16 Q1021 RMK 1AC120 A3015 FCST 0817 NOSIG;EQDQ01+000000PRSWM2
0220477160999992000092200004+36030+140200FM-15+0029RJAK V0200501N001012200019N9999999N1+02401+01801999999ADDGA1021+069009999GF102991999999999999999999MA1102001999999MW1001REMMET110RJAK 220000Z 05002KT 6000 FEW230 24/18 Q1020 RMK 2CI230 A3013 FCST 0009 BECMG 0809 SCT025CU BKN120AC BKN210CI;EQDQ01+060002VODIS Q02+000000PRSWM2
0172477160999992000092201004+36030+140200FM-15+0029RJAK V0200401N001012200019N9999999N1+02801+01801999999ADDGA1021+007509999GF102991999999999999999999MA1102001999999MW1001REMMET062RJAK 220100Z 04002KT 6000 FEW025 28/18 Q1020 RMK 1CU025 A3012;EQDQ01+060002VODIS Q02+000000PRSWM2
0156477160999992000092202004+36030+140200FM-15+0029RJAK V0200701N003112200019N0060001N1+03001+01801999999ADDGA1021+069009999GF102991999999999999999999MA1101901999999MW1001REMMET062RJAK 220200Z 07006KT 6000 FEW230 30/18 Q1019 RMK 2CI230 A3011;EQDQ01+000000PRSWM2
0250477160999992000092203004+36030+140200FM-15+0029RJAK V0200901N003110600019N9999999N1+03001+01901999999ADDGA1021+007509999GA2071+060009999GF107991999999999999999999MA1101901999999MW1001REMMET124RJAK 220300Z 09006KT 7000 FEW025 BKN200 30/19 Q1019 RMK 1CU025 5CI200 A3010 FCST 0312 BECMG 1012 SCT025CU BKN120AC BKN210CI;EQDQ01+070002VODIS Q02+000000PRSWM2
0202477160999992000092204004+36030+140200FM-15+0029RJAK V0200901N003610630019N9999999N1+03001+02001999999ADDGA1021+007509999GA2071+063009999GF107991999999999999999999MA1101801999999MW1001REMMET076RJAK 220400Z 09007KT 7000 FEW025 BKN210 30/20 Q1018 RMK 1CU025 5CI210 A3008;EQDQ01+070002VODIS Q02+000000PRSWM2
0186477160999992000092205004+36030+140200FM-15+0029RJAK V0200701N003610630019N0080001N1+03001+02001999999ADDGA1021+007509999GA2071+063009999GF107991999999999999999999MA1101801999999MW1001REMMET076RJAK 220500Z 07007KT 8000 FEW025 BKN210 30/20 Q1018 RMK 1CU025 6CI210 A3006;EQDQ01+000000PRSWM2
0264477160999992000092206004+36030+140200FM-15+0029RJAK V0200801N004610630019N0080001N1+02801+01901999999ADDGA1021+007509999GA2021+036009999GA3071+063009999GF107991999999999999999999MA1101691999999MW1001REMMET138RJAK 220600Z 08009KT 8000 FEW025 SCT120 BKN210 28/19 Q1017 RMK 1CU025 3AC120 7CI210 A3005 FCST 0615 BECMG 1012 SCT025CU BKN120AC OVC210CI;EQDQ01+000000PRSWM2
0186477160999992000092207004+36030+140200FM-15+0029RJAK V0200601N005110360019N0070001N1+02601+01901999999ADDGA1071+036009999GA2071+063009999GF107991999999999999999999MA1101691999999MW1001REMMET076RJAK 220700Z 06010KT 7000 BKN120 BKN210 26/19 Q1017 RMK 5AC120 7CI210 A3005;EQDQ01+000000PRSWM2
0245477160999992000092208004+36030+140200FM-15+0029RJAK V0200501N004610360019N0070001N1+02501+02001999999ADDGA1021+009009999GA2071+036009999GA3071+063009999GF107991999999999999999999MA1101801999999MW1001REMMET119RJAK 220800Z 05009KT 7000 FEW030 BKN120 BKN210 25/20 Q1018 RMK 1CU030 5AC120 7CI210 A3006 FCST 0817 BECMG 1012 4000 BR;EQDQ01+000000PRSWM2
0216477160999992000092222004+36030+140200FM-15+0029RJAK V0200401N002610360019N0070001N1+02201+01901999999ADDGA1021+006009999GA2021+013509999GA3071+036009999GF107991999999999999999999MA1101591999999MW1001REMMET090RJAK 222200Z 04005KT 7000 FEW020 SCT045 BKN120 22/19 Q1016 RMK 2CU020 3SC045 7AC120 A3002;EQDQ01+000000PRSWM2
0315477160999992000092223004+36030+140200FM-15+0029RJAK V0200401N003610360019N0070001N1+02301+01901999999ADDGA1021+006009999GA2021+013509999GA3071+036009999GF107991999999999999999999MA1101691999999MW1001REMMET189RJAK 222300Z 04007KT 7000 FEW020 SCT045 BKN120 23/19 Q1017 RMK 1CU020 3SC045 7AC120 A3003 FCST 2308 BECMG 0304 5000 BR SCT020CU BKN040SC BKN100AC TEMPO 0408 4000 -SHRA BR SCT010CU BKN020CU;EQDQ01+000000PRSWM2
0285477160999992000092300004+36030+140200FM-15+0029RJAK V0200501N004610360019N0080001N1+02401+02001999999ADDGA1021+006009999GA2071+036009999GF107991999999999999999999MA1101691999999MW1001REMMET175RJAK 230000Z 05009KT 8000 FEW020 BKN120 24/20 Q1017 RMK 2CU020 7AC120 A3003 FCST 0009 BECMG 0304 5000 BR SCT020CU BKN040SC BKN100AC TEMPO 0408 4000 -SHRA BR SCT010CU BKN020CU;EQDQ01+000000PRSWM2
0216477160999992000092301004+36030+140200FM-15+0029RJAK V0200701N005110360019N0080001N1+02601+02001999999ADDGA1021+004509999GA2021+009009999GA3071+036009999GF107991999999999999999999MA1101591999999MW1001REMMET090RJAK 230100Z 07010KT 8000 FEW015 SCT030 BKN120 26/20 Q1016 RMK 1CU015 3CU030 7AC120 A3002;EQDQ01+000000PRSWM2
0216477160999992000092302004+36030+140200FM-15+0029RJAK V0200601N005110360019N0112651N1+02601+02001999999ADDGA1021+006009999GA2021+009009999GA3071+036009999GF107991999999999999999999MA1101591999999MW1001REMMET090RJAK 230200Z 06010KT 9999 FEW020 SCT030 BKN120 26/20 Q1016 RMK 1CU020 3CU030 7AC120 A3001;EQDQ01+000000PRSWM2
0247477160999992000092322004+36030+140200FM-15+0029RJAK V0200401N001510075019N0035001N1+02201+02101999999ADDGA1021+003009999GA2071+007509999GA3071+009009999GF107991999999999999999999MA1100711999999MW1101MW2801REMMET099RJAK 232200Z 04003KT 3500 -SHRA BR FEW010 BKN025 BKN030 22/21 Q1007 RMK 2CU010 5CU025 7CU030 A2976;EQDQ01+000003PRSWM1Q02    003PRSWM1
0156477160999992000092422004+36030+140200FM-15+0029RJAK V0203301N001010105019N0112651N1+02101+01901999999ADDGA1071+010509999GF107991999999999999999999MA1100711999999MW1001REMMET062RJAK 242200Z 33002KT 9999 BKN035 21/19 Q1007 RMK 7SC035 A2976;EQDQ01+000000PRSWM2
0246477160999992000092423004+36030+140200FM-15+0029RJAK V0203101N000510240019N0112651N1+02201+01901999999ADDGA1021+004509999GA2021+012009999GA3071+024009999GF107991999999999999999999MA1100811999999MW1001REMMET120RJAK 242300Z 31001KT 9999 FEW015 SCT040 BKN080 22/19 Q1008 RMK 1CU015 3SC040 7AC080 A2977 FCST 2308 TEMPO 0708 BKN040SC;EQDQ01+000000PRSWM2
0225477160999992000092500004+36030+140200FM-15+0029RJAK V0200701N001012200019N0112651N1+02401+01901999999ADDGA1021+004509999GA2021+030009999GF104991999999999999999999MA1100811999999MW1001REMMET115RJAK 250000Z 07002KT 9999 FEW015 SCT100 24/19 Q1008 RMK 1CU015 3AC100 A2978 FCST 0009 TEMPO 0709 FEW015CU BKN040SC;EQDQ01+000000PRSWM2
0156477160999992000092501004+36030+140200FM-15+0029RJAK V0201801N001012200019N0112651N1+02801+01901999999ADDGA1021+006009999GF104991999999999999999999MA1100811999999MW1001REMMET062RJAK 250100Z 18002KT 9999 SCT020 28/19 Q1008 RMK 4CU020 A2977;EQDQ01+000000PRSWM2
0156477160999992000092502004+36030+140200FM-15+0029RJAK V0201801N001512200019N0112651N1+02901+01901999999ADDGA1021+006909999GF102991999999999999999999MA1100711999999MW1001REMMET062RJAK 250200Z 18003KT 9999 FEW023 29/19 Q1007 RMK 2CU023 A2976;EQDQ01+000000PRSWM2
0195477160999992000092503004+36030+140200FM-15+0029RJAK V0201201N002112200019N0112651N1+02901+02001999999ADDGA1021+007509999GF104991999999999999999999MA1100711999999MW1001REMMET101RJAK 250300Z 12004KT 9999 SCT025 29/20 Q1007 RMK 3CU025 A2975 FCST 0312 TEMPO 0712 SCT025CU BKN040SC;EQDQ01+000000PRSWM2
0186477160999992000092504004+36030+140200FM-15+0029RJAK V0200901N002612200019N0112651N1+02901+02101999999ADDGA1021+007509999GA2021+030009999GF104991999999999999999999MA1100711999999MW1001REMMET076RJAK 250400Z 09005KT 9999 SCT025 SCT100 29/21 Q1007 RMK 3CU025 4AC100 A2974;EQDQ01+000000PRSWM2
0156477160999992000092505004+36030+140200FM-15+0029RJAK V0201201N003112200019N0112651N1+03001+01801999999ADDGA1021+007509999GF104991999999999999999999MA1100611999999MW1001REMMET062RJAK 250500Z 12006KT 9999 SCT025 30/18 Q1006 RMK 3CU025 A2973;EQDQ01+000000PRSWM2
0195477160999992000092506004+36030+140200FM-15+0029RJAK V0200901N003612200019N0112651N1+02901+02001999999ADDGA1021+007509999GF102991999999999999999999MA1100611999999MW1001REMMET101RJAK 250600Z 09007KT 9999 FEW025 29/20 Q1006 RMK 2CU025 A2972 FCST 0615 TEMPO 0812 SCT025CU BKN030CU;EQDQ01+000000PRSWM2
0156477160999992000092507004+36030+140200FM-15+0029RJAK V0201001N005112200019N0112651N1+02701+01901999999ADDGA1021+007509999GF102991999999999999999999MA1100711999999MW1001REMMET062RJAK 250700Z 10010KT 9999 FEW025 27/19 Q1007 RMK 2CU025 A2973;EQDQ01+000000PRSWM2
0186477160999992000092508004+36030+140200FM-15+0029RJAK V0201101N003612200019N0112651N1+02601+01801999999ADDGA1021+007509999GF102991999999999999999999MA1100711999999MW1001REMMET092RJAK 250800Z 11007KT 9999 FEW025 26/18 Q1007 RMK 1CU025 A2975 FCST 0817 TEMPO 0912 BKN025CU;EQDQ01+000000PRSWM2
0156477160999992000092509004+36030+140200FM-15+0029RJAK V0201201N001512200019N0112651N1+02401+01801999999ADDGA1021+007509999GF102991999999999999999999MA1100711999999MW1001REMMET062RJAK 250900Z 12003KT 9999 FEW025 24/18 Q1007 RMK 1CU025 A2976;EQDQ01+000000PRSWM2
0156477160999992000092510004+36030+140200FM-15+0029RJAK V0201501N001512200019N0112651N1+02201+01901999999ADDGA1021+007509999GF102991999999999999999999MA1100811999999MW1001REMMET062RJAK 251000Z 15003KT 9999 FEW025 22/19 Q1008 RMK 2CU025 A2978;EQDQ01+000000PRSWM2
0186477160999992000092522004+36030+140200FM-15+0029RJAK V0203101N001010300019N0112651N1+01901+01701999999ADDGA1021+015009999GA2081+030009999GF108991999999999999999999MA1100911999999MW1001REMMET076RJAK 252200Z 31002KT 9999 SCT050 OVC100 19/17 Q1009 RMK 4SC050 8AC100 A2982;EQDQ01+000000PRSWM2
0284477160999992000092523004+36030+140200FM-15+0029RJAK V0200401N001010120019N0112651N1+02001+01701999999ADDGA1021+006009999GA2071+012009999GA3071+030009999GF107991999999999999999999MA1100911999999MW1001REMMET158RJAK 252300Z 04002KT 9999 FEW020 BKN040 BKN100 20/17 Q1009 RMK 1CU020 5SC040 7AC100 A2982 FCST 2308 BECMG 0103 SCT040SC SCT100AC TEMPO 0708 BKN030CU BKN080AC;EQDQ01+000000PRSWM2
0272477160999992000092600004+36030+140200FM-15+0029RJAK V0200601N002110120019N0112651N1+02001+01501999999ADDGA1021+006009999GA2071+012009999GA3081+030009999GF108991999999999999999999MA1101021999999MW1001REMMET146RJAK 260000Z 06004KT 9999 FEW020 BKN040 OVC100 20/15 Q1010 RMK 1CU020 5SC040 8AC100 A2983 FCST 0009 TEMPO 0002 -SHRA TEMPO 0307 SCT040SC SCT100AC;EQDQ01+000000PRSWM2
0238477160999992000092600094+36030+140200FM-16+0029RJAK V0200501N002110120019N0112651N1+02001+01501999999ADDGA1021+006009999GA2071+012009999GA3081+030009999GF108991999999999999999999MA1101021999999MW1801REMMET096RJAK 260009Z 05004KT 9999 -SHRA FEW020 BKN040 OVC100 20/15 Q1010 RMK 1CU020 6SC040 8AC100 A2983;EQDQ01+000003PRSWM1Q02    003PRSWM1
0238477160999992000092601004+36030+140200FM-15+0029RJAK V0200801N002610120019N0112651N1+02001+01501999999ADDGA1021+007509999GA2071+012009999GA3071+030009999GF107991999999999999999999MA1101021999999MW1801REMMET096RJAK 260100Z 08005KT 9999 -SHRA FEW025 BKN040 BKN100 20/15 Q1010 RMK 2CU025 6SC040 7AC100 A2982;EQDQ01+000003PRSWM1Q02    003PRSWM1
0216477160999992000092601224+36030+140200FM-16+0029RJAK V0200501N002110135019N0112651N1+02001+01601999999ADDGA1021+007509999GA2071+013509999GA3071+030009999GF107991999999999999999999MA1100911999999MW1001REMMET090RJAK 260122Z 05004KT 9999 FEW025 BKN045 BKN100 20/16 Q1009 RMK 2CU025 6SC045 7AC100 A2982;EQDQ01+000000PRSWM2
0216477160999992000092602004+36030+140200FM-15+0029RJAK V0200901N001010135019N0112651N1+02101+01601999999ADDGA1021+007509999GA2071+013509999GA3071+030009999GF107991999999999999999999MA1100911999999MW1001REMMET090RJAK 260200Z 09002KT 9999 FEW025 BKN045 BKN100 21/16 Q1009 RMK 2CU025 5SC045 7AC100 A2981;EQDQ01+000000PRSWM2
0272477160999992000092603004+36030+140200FM-15+0029RJAK V0200501N003110240019N0112651N1+02301+01401999999ADDGA1021+006009999GA2021+009009999GA3071+024009999GF107991999999999999999999MA1100911999999MW1001REMMET146RJAK 260300Z 05006KT 9999 FEW020 SCT030 BKN080 23/14 Q1009 RMK 1CU020 3CU030 6AC080 A2980 FCST 0312 TEMPO 0712 BKN030CU BKN080AC TEMPO 1012 -SHRA;EQDQ01+000000PRSWM2
0263477160999992000092604004+36030+140200FM-15+0029RJAK V0201001N002610090019N0112651N1+02601+01401999999ADDGA1021+006009999GA2071+009009999GA3021+010509029GA4071+024009999GF107991999999999999999999MA1100811999999MW1001REMMET121RJAK 260400Z 10005KT 9999 FEW020 BKN030 FEW035TCU BKN080 26/14 Q1008 RMK 2CU020 5CU030 1TCU035 6AC080 A2979 TCU SW MOV N;EQDQ01+000000PRSWM2
0285477160999992000092604104+36030+140200FM-16+0029RJAK V0201001N002610090019N0112651N1+02501+01501999999ADDGA1021+006009999GA2071+009009999GA3021+010509029GA4071+024009999GF107991999999999999999999MA1100811999999MW1801REMMET127RJAK 260410Z 10005KT 9999 -SHRA FEW020 BKN030 FEW035TCU BKN080 25/15 Q1008 RMK 2CU020 5CU030 1TCU035 7AC080 A2979 TCU SW MOV N;EQDQ01+000003PRSWM1Q02    003PRSWM1
0216477160999992000092604424+36030+140200FM-16+0029RJAK V0201001N002610270019N0112651N1+02301+01601999999ADDGA1021+006009999GA2021+010509999GA3071+027009999GF107991999999999999999999MA1100811999999MW1001REMMET090RJAK 260442Z 10005KT 9999 FEW020 SCT035 BKN090 23/16 Q1008 RMK 2CU020 4CU035 6AC090 A2977;EQDQ01+000000PRSWM2
0216477160999992000092605004+36030+140200FM-15+0029RJAK V0201001N003610270019N0112651N1+02301+01601999999ADDGA1021+006009999GA2021+010509999GA3071+027009999GF107991999999999999999999MA1100811999999MW1001REMMET090RJAK 260500Z 10007KT 9999 FEW020 SCT035 BKN090 23/16 Q1008 RMK 2CU020 3CU035 5AC090 A2977;EQDQ01+000000PRSWM2
0186477160999992000092605174+36030+140200FM-16+0029RJAK V0201401N002612200019N0112651N1+02301+01601999999ADDGA1021+006009999GA2021+030009999GF104991999999999999999999MA1100811999999MW1001REMMET076RJAK 260517Z 14005KT 9999 FEW020 SCT100 23/16 Q1008 RMK 2CU020 4AC100 A2978;EQDQ01+000000PRSWM2
0280477160999992000092606004+36030+140200FM-15+0029RJAK V0201301N002612200019N0112651N1+02601+01601999999ADDGA1021+006009999GA2021+010509029GA3021+030009999GF104991999999999999999999MA1100811999999MW1001REMMET154RJAK 260600Z 13005KT 9999 FEW020 FEW035TCU SCT100 26/16 Q1008 RMK 2CU020 1TCU035 4AC100 A2978 TCU N MOV SE FCST 0615 TEMPO 0713 BKN030CU TEMPO 0913 -SHRA;EQDQ01+000000PRSWM2
0260477160999992000092607004+36030+140200FM-15+0029RJAK V0200701N003110090019N0112651N1+02501+01601999999ADDGA1021+006009999GA2071+009009999GA3021+010509099GA4071+030009999GF107991999999999999999999MA1100811999999MW1001REMMET118RJAK 260700Z 07006KT 9999 SCT020 BKN030 FEW035CB BKN100 25/16 Q1008 RMK 3CU020 5CU030 1CB035 6AC100 A2978 CB NW MOV S;EQDQ01+000000PRSWM2
0283477160999992000092607354+36030+140200FM-16+0029RJAK V0201001N003610090019N0112651N1+02301+01601999999ADDGA1021+006009999GA2071+009009999GA3021+010509099GA4071+024009999GF107991999999999999999999MA1100911999999MW1171REMMET125RJAK 260735Z 10007KT 9999 TS SCT020 BKN030 FEW035CB BKN080 23/16 Q1009 RMK 3CU020 6CU030 2CB035 7AC080 A2980 FBL TS NW MOV S;EQDQ01+000003PRSWM1Q02    003PRSWM1
0352477160999992000092608004+36030+140200FM-15+0029RJAK V0200901N003110090019N0112651N1+02201+01601999999ADDGA1021+006009999GA2071+009009999GA3021+010509099GA4071+024009999GF107991999999999999999999MA1100911999999MW1801MW2951REMMET188RJAK 260800Z 09006KT 9999 -TSRA SCT020 BKN030 SCT035CB BKN080 22/16 Q1009 RMK 3CU020 6CU030 3CB035 7AC080 A2981 FBL TS NW MOV S FCST 0817 TEMPO 0809 4000 -TSRA BR BECMG 0910 5000 -SHRA BR;EQDQ01+000003PRSWM1Q02    003PRSWM1
0266477160999992000092608404+36030+140200FM-16+0029RJAK V0200801N000510090019N0080001N1+01901+01701999999ADDGA1021+006009999GA2071+009009999GA3021+010509099GA4071+024009999GF107991999999999999999999MA1100911999999MW1001REMMET124RJAK 260840Z 08001KT 8000 FEW020 BKN030 FEW035CB BKN080 19/17 Q1009 RETS RMK 2CU020 5CU030 1CB035 7AC080 A2982 CB SE MOV SE;EQDQ01+000000PRSWM2
0221477160999992000092609004+36030+140200FM-15+0029RJAK V0200801N000510090019N0112651N1+01901+01701999999ADDGA1021+006009999GA2071+009009999GA3071+024009999GF107991999999999999999999MA1100911999999MW1001REMMET095RJAK 260900Z 08001KT 9999 SCT020 BKN030 BKN080 19/17 Q1009 RETS RMK 3CU020 5CU030 7AC080 A2982;EQDQ01+000000PRSWM2
0186477160999992000092623004+36030+140200FM-15+0029RJAK V0203101N001012200019N0112651N1+01901+01301999999ADDGA1021+009009999GF102991999999999999999999MA1101191999999MW1001REMMET092RJAK 262300Z 31002KT 9999 FEW030 19/13 Q1012 RMK 1CU030 A2990 FCST 2308 TEMPO 0708 BKN030CU;EQDQ01+000000PRSWM2
0186477160999992000092700004+36030+140200FM-15+0029RJAK V0202501N001512200019N0112651N1+02001+01301999999ADDGA1021+009009999GF102991999999999999999999MA1101291999999MW1001REMMET092RJAK 270000Z 25003KT 9999 FEW030 20/13 Q1013 RMK 1CU030 A2991 FCST 0009 TEMPO 0709 BKN030CU;EQDQ01+000000PRSWM2
0156477160999992000092701004+36030+140200FM-15+0029RJAK V0202001N002112200019N0112651N1+02301+01001999999ADDGA1021+009009999GF102991999999999999999999MA1101191999999MW1001REMMET062RJAK 270100Z 20004KT 9999 FEW030 23/10 Q1012 RMK 1CU030 A2990;EQDQ01+000000PRSWM2
0156477160999992000092702004+36030+140200FM-15+0029RJAK V0202101N001012200019N0112651N1+02301+01101999999ADDGA1021+009009999GF102991999999999999999999MA1101191999999MW1001REMMET062RJAK 270200Z 21002KT 9999 FEW030 23/11 Q1012 RMK 1CU030 A2989;EQDQ01+000000PRSWM2
0186477160999992000092703004+36030+140200FM-15+0029RJAK V0202501N001512200019N0112651N1+02701+01101999999ADDGA1021+009009999GF102991999999999999999999MA1101081999999MW1001REMMET092RJAK 270300Z 25003KT 9999 FEW030 27/11 Q1011 RMK 2CU030 A2986 FCST 0312 TEMPO 0712 BKN030CU;EQDQ01+000000PRSWM2
0156477160999992000092704004+36030+140200FM-15+0029RJAK V0201301N001512200019N0112651N1+02701+01101999999ADDGA1021+009009999GF102991999999999999999999MA1101021999999MW1001REMMET062RJAK 270400Z 13003KT 9999 FEW030 27/11 Q1010 RMK 2CU030 A2985;EQDQ01+000000PRSWM2
0156477160999992000092705004+36030+140200FM-15+0029RJAK V0200801N002112200019N0112651N1+02801+01001999999ADDGA1021+007509999GF102991999999999999999999MA1101021999999MW1001REMMET062RJAK 270500Z 08004KT 9999 FEW025 28/10 Q1010 RMK 2CU025 A2983;EQDQ01+000000PRSWM2
0216477160999992000092706004+36030+140200FM-15+0029RJAK V0202701N002112200019N0112651N1+02701+01101999999ADDGA1021+007509999GA2021+010509999GF104991999999999999999999MA1101021999999MW1001REMMET106RJAK 270600Z 27004KT 9999 FEW025 SCT035 27/11 Q1010 RMK 2CU025 3CU035 A2983 FCST 0615 TEMPO 0712 BKN030CU;EQDQ01+000000PRSWM2
0216477160999992000092707004+36030+140200FM-15+0029RJAK V0200901N001510300019N0112651N1+02701+01201999999ADDGA1021+007509999GA2021+010509999GA3071+030009999GF107991999999999999999999MA1101021999999MW1001REMMET090RJAK 270700Z 09003KT 9999 FEW025 SCT035 BKN100 27/12 Q1010 RMK 2CU025 4CU035 6AC100 A2983;EQDQ01+000000PRSWM2
0246477160999992000092708004+36030+140200FM-15+0029RJAK V0201201N002110300019N0112651N1+02401+01301999999ADDGA1021+007509999GA2021+010509999GA3071+030009999GF107991999999999999999999MA1101021999999MW1001REMMET120RJAK 270800Z 12004KT 9999 FEW025 SCT035 BKN100 24/13 Q1010 RMK 1CU025 4CU035 5AC100 A2984 FCST 0817 TEMPO 0812 BKN035SC;EQDQ01+000000PRSWM2
0156477160999992000092722004+36030+140200FM-15+0029RJAK V0200501N000512200019N0112651N1+01401+01101999999ADDGA1021+006009999GF102991999999999999999999MA1101291999999MW1001REMMET062RJAK 272200Z 05001KT 9999 FEW020 14/11 Q1013 RMK 1CU020 A2993;EQDQ01+000000PRSWM2
0172477160999992000092723004+36030+140200FM-15+0029RJAK V0202601N002112200019N0112651N1+01801+01201999999ADDGA1021+006009999GF102991999999999999999999MA1101291999999MW1001REMMET078RJAK 272300Z 26004KT 9999 FEW020 18/12 Q1013 RMK 1CU020 A2993 FCST 2308 NOSIG;EQDQ01+000000PRSWM2
0172477160999992000092800004+36030+140200FM-15+0029RJAK V0203201N001012200019N0112651N1+02201+01201999999ADDGA1021+007509999GF102991999999999999999999MA1101391999999MW1001REMMET078RJAK 280000Z 32002KT 9999 FEW025 22/12 Q1014 RMK 1CU025 A2994 FCST 0009 NOSIG;EQDQ01+000000PRSWM2
0156477160999992000092801004+36030+140200FM-15+0029RJAK V0203101N001512200019N0112651N1+02501+01101999999ADDGA1021+009009999GF102991999999999999999999MA1101391999999MW1001REMMET062RJAK 280100Z 31003KT 9999 FEW030 25/11 Q1014 RMK 1CU030 A2994;EQDQ01+000000PRSWM2
0156477160999992000092802004+36030+140200FM-15+0029RJAK V0203001N002112200019N0112651N1+02501+01001999999ADDGA1021+009009999GF102991999999999999999999MA1101391999999MW1001REMMET062RJAK 280200Z 30004KT 9999 FEW030 25/10 Q1014 RMK 1CU030 A2994;EQDQ01+000000PRSWM2
0172477160999992000092803004+36030+140200FM-15+0029RJAK V0203201N001512200019N0112651N1+02701+01001999999ADDGA1021+009009999GF102991999999999999999999MA1101291999999MW1001REMMET078RJAK 280300Z 32003KT 9999 FEW030 27/10 Q1013 RMK 2CU030 A2992 FCST 0312 NOSIG;EQDQ01+000000PRSWM2
0156477160999992000092804004+36030+140200FM-15+0029RJAK V0203301N003112200019N0112651N1+02801+00901999999ADDGA1021+009009999GF104991999999999999999999MA1101191999999MW1001REMMET062RJAK 280400Z 33006KT 9999 SCT030 28/09 Q1012 RMK 3CU030 A2990;EQDQ01+000000PRSWM2
0186477160999992000092805004+36030+140200FM-15+0029RJAK V0203001N002612200019N0112651N1+02701+01001999999ADDGA1021+009009999GA2021+066009999GF104991999999999999999999MA1101191999999MW1001REMMET076RJAK 280500Z 30005KT 9999 SCT030 SCT220 27/10 Q1012 RMK 3CU030 3CI220 A2990;EQDQ01+000000PRSWM2
0172477160999992000092806004+36030+140200FM-15+0029RJAK V0203001N001512200019N0112651N1+02701+01001999999ADDGA1021+009009999GF102991999999999999999999MA1101191999999MW1001REMMET078RJAK 280600Z 30003KT 9999 FEW030 27/10 Q1012 RMK 2CU030 A2989 FCST 0615 NOSIG;EQDQ01+000000PRSWM2
0156477160999992000092807004+36030+140200FM-15+0029RJAK V02099999999992200019N0112651N1+02701+01001999999ADDGA1021+009009999GF104991999999999999999999MA1101191999999MW1001REMMET062RJAK 280700Z VRB02KT 9999 SCT030 27/10 Q1012 RMK 4CU030 A2990;EQDQ01+000000PRSWM2
0172477160999992000092808004+36030+140200FM-15+0029RJAK V0200201N003112200019N0112651N1+02501+01101999999ADDGA1021+009009999GF104991999999999999999999MA1101291999999MW1001REMMET078RJAK 280800Z 02006KT 9999 SCT030 25/11 Q1013 RMK 3CU030 A2991 FCST 0817 NOSIG;EQDQ01+000000PRSWM2
0216477160999992000092822004+36030+140200FM-15+0029RJAK V0209999C000010660019N0112651N1+01601+01201999999ADDGA1021+007509999GA2021+036009999GA3071+066009999GF107991999999999999999999MA1101801999999MW1001REMMET090RJAK 282200Z 00000KT 9999 FEW025 SCT120 BKN220 16/12 Q1018 RMK 1CU025 3AC120 7CI220 A3006;EQDQ01+000000PRSWM2
0255477160999992000092823004+36030+140200FM-15+0029RJAK V0200601N001010660019N0112651N1+01701+01301999999ADDGA1021+007509999GA2021+030009999GA3071+066009999GF107991999999999999999999MA1101801999999MW1001REMMET129RJAK 282300Z 06002KT 9999 FEW025 SCT100 BKN220 17/13 Q1018 RMK 1CU025 3AC100 5CI220 A3007 FCST 2308 TEMPO 0608 BKN025CU BKN120AC;EQDQ01+000000PRSWM2
0225477160999992000092900004+36030+140200FM-15+0029RJAK V0200301N002112200019N0112651N1+02201+01101999999ADDGA1021+007509999GA2021+036009999GF104991999999999999999999MA1101801999999MW1001REMMET115RJAK 290000Z 03004KT 9999 FEW025 SCT120 22/11 Q1018 RMK 1CU025 3AC120 A3008 FCST 0009 TEMPO 0609 BKN025CU BKN120AC;EQDQ01+000000PRSWM2
0186477160999992000092900134+36030+140200FM-16+0029RJAK V0200501N002610360019N0112651N1+02301+01101999999ADDGA1021+015009999GA2071+036009999GF107991999999999999999999MA1101801999999MW1001REMMET076RJAK 290013Z 05005KT 9999 SCT050 BKN120 23/11 Q1018 RMK 3SC050 6AC120 A3008;EQDQ01+000000PRSWM2
0186477160999992000092901004+36030+140200FM-15+0029RJAK V02099999999990360019N0112651N1+02401+01201999999ADDGA1021+007509999GA2071+036009999GF107991999999999999999999MA1101801999999MW1001REMMET076RJAK 290100Z VRB03KT 9999 FEW025 BKN120 24/12 Q1018 RMK 1CU025 6AC120 A3008;EQDQ01+000000PRSWM2
0216477160999992000092902004+36030+140200FM-15+0029RJAK V02099999999990660019N0112651N1+02301+01301999999ADDGA1021+007509999GA2021+036009999GA3071+066009999GF107991999999999999999999MA1101801999999MW1001REMMET090RJAK 290200Z VRB02KT 9999 FEW025 SCT120 BKN220 23/13 Q1018 RMK 1CU025 4AC120 7CI220 A3007;EQDQ01+000000PRSWM2
0264477160999992000092903004+36030+140200FM-15+0029RJAK V0200601N003110300019N0112651N1+02301+01401999999ADDGA1021+007509999GA2071+030009999GA3071+066009999GF107991999999999999999999MA1101801999999MW1001REMMET138RJAK 290300Z 06006KT 9999 FEW025 BKN100 BKN220 23/14 Q1018 RMK 1CU025 5AC100 7CI220 A3006 FCST 0312 TEMPO 0712 BKN030CU BKN100AC OVC220CI;EQDQ01+000000PRSWM2
0216477160999992000092904004+36030+140200FM-15+0029RJAK V0201101N001510300019N0112651N1+02501+01401999999ADDGA1021+007509999GA2071+030009999GA3071+066009999GF107991999999999999999999MA1101691999999MW1001REMMET090RJAK 290400Z 11003KT 9999 FEW025 BKN100 BKN220 25/14 Q1017 RMK 1CU025 6AC100 6CI220 A3004;EQDQ01+000000PRSWM2
0216477160999992000092905004+36030+140200FM-15+0029RJAK V0201101N002110300019N0112651N1+02601+01301999999ADDGA1021+007509999GA2071+030009999GA3071+066009999GF107991999999999999999999MA1101691999999MW1001REMMET090RJAK 290500Z 11004KT 9999 FEW025 BKN100 BKN220 26/13 Q1017 RMK 2CU025 5AC100 7CI220 A3003;EQDQ01+000000PRSWM2
0264477160999992000092906004+36030+140200FM-15+0029RJAK V0201101N004110300019N0112651N1+02301+01401999999ADDGA1021+010509999GA2071+030009999GA3071+066009999GF107991999999999999999999MA1101691999999MW1001REMMET138RJAK 290600Z 11008KT 9999 SCT035 BKN100 BKN220 23/14 Q1017 RMK 4CU035 6AC100 7CI220 A3005 FCST 0615 BECMG 0608 BKN030CU BKN100AC OVC220CI;EQDQ01+000000PRSWM2
0186477160999992000092907004+36030+140200FM-15+0029RJAK V0201101N002610090019N0112651N1+02301+01401999999ADDGA1071+009009999GA2071+030009999GF107991999999999999999999MA1101691999999MW1001REMMET076RJAK 290700Z 11005KT 9999 BKN030 BKN100 23/14 Q1017 RMK 5CU030 7AC100 A3005;EQDQ01+000000PRSWM2
0234477160999992000092908004+36030+140200FM-15+0029RJAK V0201001N003110300019N0112651N1+02201+01501999999ADDGA1021+009009999GA2071+030009999GF107991999999999999999999MA1101691999999MW1001REMMET124RJAK 290800Z 10006KT 9999 SCT030 BKN100 22/15 Q1017 RMK 3CU030 6AC100 A3005 FCST 0817 BECMG 0810 BKN030CU BKN100AC OVC210CI;EQDQ01+000000PRSWM2
0225477160999992000100103004+36030+140200FM-15+0029RJAK V0200701N005112200019N0080001N1+02301+01801999999ADDGA1021+004509999GA2021+030009999GF104991999999999999999999MA1101291999999MW1001REMMET115RJAK 010300Z 07010KT 8000 SCT015 SCT100 23/18 Q1013 RMK 3CU015 3AC100 A2993 FCST 0312 TEMPO 0812 SCT015CU BKN100AC;EQDQ01+000000PRSWM2
0186477160999992000100104004+36030+140200FM-15+0029RJAK V0200701N004112200019N0112651N1+02601+01701999999ADDGA1021+005409999GA2021+007509999GF104991999999999999999999MA1101291999999MW1001REMMET076RJAK 010400Z 07008KT 9999 SCT018 SCT025 26/17 Q1013 RMK 3CU018 4CU025 A2992;EQDQ01+000000PRSWM2
0186477160999992000100105004+36030+140200FM-15+0029RJAK V0200801N005710075019N0112651N1+02501+01701999999ADDGA1021+006009999GA2071+007509999GF107991999999999999999999MA1101291999999MW1001REMMET076RJAK 010500Z 08011KT 9999 SCT020 BKN025 25/17 Q1013 RMK 4CU020 6CU025 A2991;EQDQ01+000000PRSWM2
0232477160999992000100106004+36030+140200FM-15+0029RJAK V0200801N005710300019N0112651N1+02401+01601999999ADDGA1021+007509999GA2021+012009999GA3071+030009999GF107991999999999999999999MA1101291999999MW1001REMMET106RJAK 010600Z 08011KT 9999 FEW025 SCT040 BKN100 24/16 Q1013 RMK 1CU025 3SC040 5AC100 A2992 FCST 0615 NOSIG;EQDQ01+000000PRSWM2
0216477160999992000100107004+36030+140200FM-15+0029RJAK V0200701N005110300019N0112651N1+02401+01601999999ADDGA1021+007509999GA2021+015009999GA3071+030009999GF107991999999999999999999MA1101291999999MW1001REMMET090RJAK 010700Z 07010KT 9999 FEW025 SCT050 BKN100 24/16 Q1013 RMK 1CU025 3SC050 7AC100 A2993;EQDQ01+000000PRSWM2
0216477160999992000100122004+36030+140200FM-15+0029RJAK V0203601N001510135019N0112651N1+01901+01601999999ADDGA1021+006009999GA2071+013509999GA3071+024009999GF107991999999999999999999MA1101391999999MW1001REMMET090RJAK 012200Z 36003KT 9999 FEW020 BKN045 BKN080 19/16 Q1014 RMK 1CU020 6SC045 7AC080 A2995;EQDQ01+000000PRSWM2
0232477160999992000100123004+36030+140200FM-15+0029RJAK V0200201N001510135019N0112651N1+02001+01601999999ADDGA1021+006009999GA2071+013509999GA3071+024009999GF107991999999999999999999MA1101391999999MW1001REMMET106RJAK 012300Z 02003KT 9999 FEW020 BKN045 BKN080 20/16 Q1014 RMK 1CU020 6SC045 7AC080 A2996 FCST 2308 NOSIG;EQDQ01+000000PRSWM2
0252477160999992000100200004+36030+140200FM-15+0029RJAK V0203601N002610150019N0112651N1+02101+01601999999ADDGA1021+006009999GA2071+015009999GA3071+024009999GF107991999999999999999999MA1101391999999MW1001REMMET126RJAK 020000Z 36005KT 9999 FEW020 BKN050 BKN080 21/16 Q1014 RMK 2CU020 5SC050 7AC080 A2995 FCST 0009 TEMPO 0809 -SHRA BKN025CU;EQDQ01+000000PRSWM2
0216477160999992000100201004+36030+140200FM-15+0029RJAK V0200301N001510150019N0112651N1+02201+01701999999ADDGA1021+006009999GA2071+015009999GA3081+024009999GF108991999999999999999999MA1101391999999MW1001REMMET090RJAK 020100Z 03003KT 9999 SCT020 BKN050 OVC080 22/17 Q1014 RMK 3CU020 6SC050 8AC080 A2994;EQDQ01+000000PRSWM2
0216477160999992000100202004+36030+140200FM-15+0029RJAK V0200301N003110150019N0112651N1+02201+01701999999ADDGA1021+006009999GA2071+015009999GA3081+024009999GF108991999999999999999999MA1101291999999MW1001REMMET090RJAK 020200Z 03006KT 9999 SCT020 BKN050 OVC080 22/17 Q1013 RMK 3CU020 5SC050 8AC080 A2991;EQDQ01+000000PRSWM2
0305477160999992000100203004+36030+140200FM-15+0029RJAK V0200601N002610150019N0112651N1+02201+01701999999ADDGA1021+005109999GA2071+015009999GA3081+024009999GF108991999999999999999999MA1101191999999MW1001REMMET179RJAK 020300Z 06005KT 9999 SCT017 BKN050 OVC080 22/17 Q1012 RMK 4CU017 6SC050 8AC080 A2991 FCST 0312 TEMPO 0406 -SHRA BKN015CU BKN050SC TEMPO 0812 -SHRA SCT015CU BKN020CU BKN050SC;EQDQ01+000000PRSWM2
0238477160999992000100204004+36030+140200FM-15+0029RJAK V0200201N002110045019N0112651N1+02201+01801999999ADDGA1071+004509999GA2071+013509999GA3081+024009999GF108991999999999999999999MA1101081999999MW1801REMMET096RJAK 020400Z 02004KT 9999 -SHRA BKN015 BKN045 OVC080 22/18 Q1011 RMK 5CU015 6SC045 8AC080 A2988;EQDQ01+000003PRSWM1Q02    003PRSWM1
0255477160999992000100204384+36030+140200FM-16+0029RJAK V0203601N002110045019N0045001N1+02101+01801999999ADDGA1071+004509999GA2071+012009999GA3081+024009999GF108991999999999999999999MA1101081999999MW1611REMMET097RJAK 020438Z 36004KT 4500 -RA BR BKN015 BKN040 OVC080 21/18 Q1011 RMK 5SC015 6SC040 8AC080 A2986;EQDQ01+000100PRSWM3Q02+000003PRSWM1Q03    003PRSWM1
0245477160999992000100205004+36030+140200FM-15+0029RJAK V0200201N002110045019N0045001N1+02101+01901999999ADDGA1071+004509999GA2071+012009999GA3081+024009999GF108991999999999999999999MA1101081999999MW1101MW2611REMMET097RJAK 020500Z 02004KT 4500 -RA BR BKN015 BKN040 OVC080 21/19 Q1011 RMK 5SC015 6SC040 8AC080 A2986;EQDQ01+000003PRSWM1Q02    003PRSWM1
0236477160999992000100205354+36030+140200FM-16+0029RJAK V0203401N001010120019N0060001N1+02001+01901999999ADDGA1021+004509999GA2071+012009999GA3081+024009999GF108991999999999999999999MA1101081999999MW1611REMMET094RJAK 020535Z 34002KT 6000 -RA SCT015 BKN040 OVC080 20/19 Q1011 RMK 4SC015 6SC040 8AC080 A2986;EQDQ01+000003PRSWM1Q02    003PRSWM1
0346477160999992000100206004+36030+140200FM-15+0029RJAK V0203601N001510120019N0050001N1+02001+01901999999ADDGA1021+004509999GA2071+012009999GA3081+024009999GF108991999999999999999999MA1101021999999MW1101MW2611REMMET198RJAK 020600Z 36003KT 5000 -RA BR SCT015 BKN040 OVC080 20/19 Q1010 RMK 4SC015 7SC040 8AC080 A2985 FCST 0615 TEMPO 0710 4000 -RA BR BKN015SC BKN040SC BECMG 1315 4000 -RA BR SCT008CU BKN010CU BKN015CU;EQDQ01+000003PRSWM1Q02    003PRSWM1
0245477160999992000100207004+36030+140200FM-15+0029RJAK V0203501N001510045019N0040001N1+02001+01901999999ADDGA1021+003009999GA2071+004509999GA3071+012009999GF107991999999999999999999MA1101021999999MW1101MW2611REMMET097RJAK 020700Z 35003KT 4000 -RA BR FEW010 BKN015 BKN040 20/19 Q1010 RMK 1CU010 5SC015 7SC040 A2985;EQDQ01+000003PRSWM1Q02    003PRSWM1
0261477160999992000100208004+36030+140200FM-15+0029RJAK V0203101N002110045019N0035001N1+01901+01701999999ADDGA1021+003009999GA2071+004509999GA3081+012009999GF108991999999999999999999MA1101021999999MW1101MW2611REMMET113RJAK 020800Z 31004KT 3500 -RA BR FEW010 BKN015 OVC040 19/17 Q1010 RMK 2ST010 6SC015 8SC040 A2985 FCST 0817 NOSIG;EQDQ01+000003PRSWM1Q02    003PRSWM1
0236477160999992000100300404+36030+140200FM-16+0029RJAK V0203601N001510021019N0080001N1+02001+01801999999ADDGA1021+001509999GA2071+002109999GA3081+003609999GF108991999999999999999999MA1100411999999MW1611REMMET094RJAK 030040Z 36003KT 8000 -RA SCT005 BKN007 OVC012 20/18 Q1004 RMK 3ST005 5ST007 8SC012 A2967;EQDQ01+000003PRSWM1Q02    003PRSWM1
0235477160999992000100301404+36030+140200FM-16+0029RJAK V0203101N002610021019N0040001N1+01901+01801999999ADDGA1021+001509999GA2071+002109999GA3081+003609999GF108991999999999999999999MA1100411999999MW1101REMMET093RJAK 030140Z 31005KT 4000 BR SCT005 BKN007 OVC012 19/18 Q1004 RMK 3ST005 6ST007 8SC012 A2967;EQDQ01+000003PRSWM1Q02    003PRSWM1
0235477160999992000100302004+36030+140200FM-15+0029RJAK V0203101N002610021019N0040001N1+01901+01801999999ADDGA1021+001209999GA2071+002109999GA3081+003609999GF108991999999999999999999MA1100411999999MW1101REMMET093RJAK 030200Z 31005KT 4000 BR SCT004 BKN007 OVC012 19/18 Q1004 RMK 3ST004 6ST007 8SC012 A2966;EQDQ01+000003PRSWM1Q02    003PRSWM1
0255477160999992000100303004+36030+140200FM-15+0029RJAK V0203401N001010300019N0060001N1+02101+01801999999ADDGA1021+002409999GA2021+003009999GA3071+030009999GF107991999999999999999999MA1100411999999MW1001REMMET129RJAK 030300Z 34002KT 6000 FEW008 SCT010 BKN100 21/18 Q1004 RMK 2ST008 4CU010 6AC100 A2966 FCST 0312 BECMG 0608 FEW010CU SCT100AC;EQDQ01+000000PRSWM2
0216477160999992000100304004+36030+140200FM-15+0029RJAK V0203101N001510300019N0112651N1+02301+01801999999ADDGA1021+003609999GA2021+005409999GA3071+030009999GF107991999999999999999999MA1100411999999MW1001REMMET090RJAK 030400Z 31003KT 9999 FEW012 SCT018 BKN100 23/18 Q1004 RMK 1CU012 4CU018 6AC100 A2965;EQDQ01+000000PRSWM2
0186477160999992000100305004+36030+140200FM-15+0029RJAK V0200501N002612200019N0112651N1+02301+01801999999ADDGA1021+006009999GA2021+007509999GF104991999999999999999999MA1100311999999MW1001REMMET076RJAK 030500Z 05005KT 9999 FEW020 SCT025 23/18 Q1003 RMK 1CU020 3CU025 A2964;EQDQ01+000000PRSWM2
0172477160999992000100306004+36030+140200FM-15+0029RJAK V0200701N002112200019N0112651N1+02401+01801999999ADDGA1021+006009999GF102991999999999999999999MA1100411999999MW1001REMMET078RJAK 030600Z 07004KT 9999 FEW020 24/18 Q1004 RMK 1CU020 A2965 FCST 0615 NOSIG;EQDQ01+000000PRSWM2
0156477160999992000100307004+36030+140200FM-15+0029RJAK V0200601N002112200019N0112651N1+02401+01801999999ADDGA1021+006009999GF102991999999999999999999MA1100411999999MW1001REMMET062RJAK 030700Z 06004KT 9999 FEW020 24/18 Q1004 RMK 1CU020 A2966;EQDQ01+000000PRSWM2
0172477160999992000100308004+36030+140200FM-15+0029RJAK V0201201N001512200019N0112651N1+02301+01801999999ADDGA1021+007509999GF102991999999999999999999MA1100511999999MW1001REMMET078RJAK 030800Z 12003KT 9999 FEW025 23/18 Q1005 RMK 1CU025 A2968 FCST 0817 NOSIG;EQDQ01+000000PRSWM2
0280477160999992000100323004+36030+140200FM-15+0029RJAK V0202001N001510150019N0112651N1+02101+01601999999ADDGA1021+006009999GA2071+015009999GA3071+036009999GF107991999999999999999999MA1101291999999MW1001REMMET154RJAK 032300Z 20003KT 9999 FEW020 BKN050 BKN120 21/16 Q1013 RMK 2CU020 6SC050 7AC120 A2993 FCST 2308 BECMG 0204 SCT020CU BKN030CU TEMPO 0408 4000 -SHRA BR;EQDQ01+000000PRSWM2
0297477160999992000100400004+36030+140200FM-15+0029RJAK V0201701N001510135019N0112651N1+02101+01701999999ADDGA1021+006009999GA2071+013509999GA3071+030009999GF107991999999999999999999MA1101391999999MW1001REMMET171RJAK 040000Z 17003KT 9999 FEW020 BKN045 BKN100 21/17 Q1014 RMK 2CU020 6SC045 7AC100 A2994 FCST 0009 TEMPO 0104 -SHRA BECMG 0204 SCT020CU BKN030CU TEMPO 0409 4000 -SHRA BR;EQDQ01+000000PRSWM2
0216477160999992000100401004+36030+140200FM-15+0029RJAK V0201701N001510135019N0112651N1+02201+01701999999ADDGA1021+007509999GA2071+013509999GA3071+030009999GF107991999999999999999999MA1101391999999MW1001REMMET090RJAK 040100Z 17003KT 9999 FEW025 BKN045 BKN100 22/17 Q1014 RMK 1CU025 6SC045 7AC100 A2995;EQDQ01+000000PRSWM2
0216477160999992000100402004+36030+140200FM-15+0029RJAK V0201501N001510120019N0112651N1+02201+01601999999ADDGA1021+007509999GA2071+012009999GA3081+030009999GF108991999999999999999999MA1101391999999MW1001REMMET090RJAK 040200Z 15003KT 9999 FEW025 BKN040 OVC100 22/16 Q1014 RMK 2CU025 6SC040 8AC100 A2995;EQDQ01+000000PRSWM2
0294477160999992000100403004+36030+140200FM-15+0029RJAK V0200701N001510135019N0112651N1+02201+01601999999ADDGA1021+007509999GA2071+013509999GA3071+030009999GF107991999999999999999999MA1101391999999MW1001REMMET168RJAK 040300Z 07003KT 9999 FEW025 BKN045 BKN100 22/16 Q1014 RMK 2CU025 6SC045 7AC100 A2994 FCST 0312 TEMPO 0609 5000 -SHRA BR FEW010CU BKN025CU TEMPO 0912 4000 -SHRA BR;EQDQ01+000000PRSWM2
0186477160999992000100403454+36030+140200FM-15+0029RJAK V0200601N002612200019N0112651N1+02401+01601999999ADDGA1021+007509999GA2021+013509999GF104991999999999999999999MA1101391999999MW1001REMMET076RJAK 040345Z 06005KT 9999 FEW025 SCT045 24/16 Q1014 RMK 1CU025 3SC045 A2994;EQDQ01+000000PRSWM2
0186477160999992000100404004+36030+140200FM-15+0029RJAK V0200701N002612200019N0112651N1+02301+01601999999ADDGA1021+007509999GA2021+030009999GF104991999999999999999999MA1101291999999MW1001REMMET076RJAK 040400Z 07005KT 9999 FEW025 SCT100 23/16 Q1013 RMK 1CU025 3AC100 A2993;EQDQ01+000000PRSWM2
0186477160999992000100405004+36030+140200FM-15+0029RJAK V0200701N004112200019N0112651N1+02401+01601999999ADDGA1021+007509999GA2021+030009999GF104991999999999999999999MA1101291999999MW1001REMMET076RJAK 040500Z 07008KT 9999 FEW025 SCT100 24/16 Q1013 RMK 2CU025 4AC100 A2993;EQDQ01+000000PRSWM2
0239477160999992000100406004+36030+140200FM-15+0029RJAK V0200701N004612200019N0112651N1+02401+01501999999ADDGA1021+007509999GA2021+015009999GF104991999999999999999999MA1101391999999MW1001REMMET129RJAK 040600Z 07009KT 9999 FEW025 SCT050 24/15 Q1014 RMK 1CU025 3SC050 A2994 FCST 0615 TEMPO 1015 5000 -SHRA BR SCT025SC BKN040SC;EQDQ01+000000PRSWM2
0156477160999992000100407004+36030+140200FM-15+0029RJAK V0200901N004112200019N0112651N1+02401+01401999999ADDGA1021+007509999GF102991999999999999999999MA1101391999999MW1001REMMET062RJAK 040700Z 09008KT 9999 FEW025 24/14 Q1014 RMK 1CU025 A2994;EQDQ01+000000PRSWM2
0213477160999992000100408004+36030+140200FM-15+0029RJAK V0200801N003610150019N0112651N1+02201+01501999999ADDGA1021+006009999GA2071+015009999GF107991999999999999999999MA1101391999999MW1001REMMET103RJAK 040800Z 08007KT 9999 FEW020 BKN050 22/15 Q1014 RMK 1CU020 5SC050 A2997 FCST 0817 TEMPO 1117 -SHRA;EQDQ01+000000PRSWM2
0216477160999992000100422004+36030+140200FM-15+0029RJAK V0200301N004110090019N0112651N1+01801+01501999999ADDGA1021+004509999GA2071+009009999GA3071+015009999GF107991999999999999999999MA1101801999999MW1001REMMET090RJAK 042200Z 03008KT 9999 FEW015 BKN030 BKN050 18/15 Q1018 RMK 1CU015 5SC030 7SC050 A3006;EQDQ01+000000PRSWM2
0253477160999992000100423004+36030+140200FM-15+0029RJAK V0200501N004610150019N0112651N1+01901+01501999999ADDGA1021+006009999GA2021+009009999GA3071+015009999GF107991999999999999999999MA1101801999999MW1001REMMET127RJAK 042300Z 05009KT 9999 FEW020 SCT030 BKN050 19/15 Q1018 RMK 1CU020 3SC030 6SC050 A3008 FCST 2308 TEMPO 0104 -RA BR BKN020SC;EQDQ01+000000PRSWM2
0216477160999992000100423104+36030+140200FM-16+0029RJAK V0200401N004110090019N0112651N1+02001+01501999999ADDGA1021+006009999GA2071+009009999GA3071+015009999GF107991999999999999999999MA1101901999999MW1001REMMET090RJAK 042310Z 04008KT 9999 FEW020 BKN030 BKN050 20/15 Q1019 RMK 1CU020 5SC030 7SC050 A3009;EQDQ01+000000PRSWM2
0244477160999992000100500004+36030+140200FM-15+0029RJAK V0200401N004610090019N0112651N1+02001+01601999999ADDGA1021+004509999GA2071+009009999GA3071+015009999GF107991999999999999999999MA1101801999999MW1001REMMET118RJAK 050000Z 04009KT 9999 FEW015 BKN030 BKN050 20/16 Q1018 RMK 2CU015 5SC030 7SC050 A3007 FCST 0009 TEMPO 0104 -RA BR;EQDQ01+000000PRSWM2
0216477160999992000100501004+36030+140200FM-15+0029RJAK V0200401N004610084019N0112651N1+02101+01601999999ADDGA1021+006009999GA2071+008409999GA3071+015009999GF107991999999999999999999MA1101801999999MW1001REMMET090RJAK 050100Z 04009KT 9999 FEW020 BKN028 BKN050 21/16 Q1018 RMK 1CU020 5CU028 7SC050 A3007;EQDQ01+000000PRSWM2
0216477160999992000100502004+36030+140200FM-15+0029RJAK V0200501N006710090019N0112651N1+02101+01501999999ADDGA1021+006009999GA2071+009009999GA3071+015009999GF107991999999999999999999MA1101801999999MW1001REMMET090RJAK 050200Z 05013KT 9999 FEW020 BKN030 BKN050 21/15 Q1018 RMK 1CU020 5SC030 7SC050 A3007;EQDQ01+000000PRSWM2
0232477160999992000100503004+36030+140200FM-15+0029RJAK V0200401N005710090019N0112651N1+02101+01401999999ADDGA1021+006009999GA2071+009009999GA3071+015009999GF107991999999999999999999MA1101801999999MW1001REMMET106RJAK 050300Z 04011KT 9999 FEW020 BKN030 BKN050 21/14 Q1018 RMK 1CU020 6SC030 7SC050 A3007 FCST 0312 NOSIG;EQDQ01+000000PRSWM2
0216477160999992000100504004+36030+140200FM-15+0029RJAK V0200501N006210090019N0112651N1+02101+01501999999ADDGA1021+006009999GA2071+009009999GA3071+015009999GF107991999999999999999999MA1101691999999MW1001REMMET090RJAK 050400Z 05012KT 9999 FEW020 BKN030 BKN050 21/15 Q1017 RMK 1CU020 6SC030 6SC050 A3005;EQDQ01+000000PRSWM2
0186477160999992000100505004+36030+140200FM-15+0029RJAK V0200501N006212200019N0112651N1+02201+01401999999ADDGA1021+007509999GA2021+010509999GF104991999999999999999999MA1101691999999MW1001REMMET076RJAK 050500Z 05012KT 9999 FEW025 SCT035 22/14 Q1017 RMK 1CU025 3SC035 A3004;EQDQ01+000000PRSWM2
0232477160999992000100506004+36030+140200FM-15+0029RJAK V0200501N005110630019N0112651N1+02101+01501999999ADDGA1021+007509999GA2021+010509999GA3071+063009999GF107991999999999999999999MA1101691999999MW1001REMMET106RJAK 050600Z 05010KT 9999 FEW025 SCT035 BKN210 21/15 Q1017 RMK 1CU025 3SC035 5CI210 A3005 FCST 0615 NOSIG;EQDQ01+000000PRSWM2
0186477160999992000100507004+36030+140200FM-15+0029RJAK V0200501N004610630019N0112651N1+02101+01501999999ADDGA1021+007509999GA2071+063009999GF107991999999999999999999MA1101691999999MW1001REMMET076RJAK 050700Z 05009KT 9999 FEW025 BKN210 21/15 Q1017 RMK 1CU025 7CI210 A3005;EQDQ01+000000PRSWM2
0202477160999992000100508004+36030+140200FM-15+0029RJAK V0200401N003610630019N0112651N1+02001+01401999999ADDGA1021+009009999GA2071+063009999GF107991999999999999999999MA1101691999999MW1001REMMET092RJAK 050800Z 04007KT 9999 FEW030 BKN210 20/14 Q1017 RMK 1SC030 7CI210 A3005 FCST 0817 NOSIG;EQDQ01+000000PRSWM2
0186477160999992000100522004+36030+140200FM-15+0029RJAK V0203201N002112200019N0112651N1+01601+01101999999ADDGA1021+012009999GA2021+069009999GF104991999999999999999999MA1101901999999MW1001REMMET076RJAK 052200Z 32004KT 9999 FEW040 SCT230 16/11 Q1019 RMK 1SC040 3CI230 A3009;EQDQ01+000000PRSWM2
0202477160999992000100523004+36030+140200FM-15+0029RJAK V0203401N001510690019N0112651N1+01801+01201999999ADDGA1021+036009999GA2071+069009999GF107991999999999999999999MA1101901999999MW1001REMMET092RJAK 052300Z 34003KT 9999 FEW120 BKN230 18/12 Q1019 RMK 1AC120 5CI230 A3009 FCST 2308 NOSIG;EQDQ01+000000PRSWM2
0202477160999992000100600004+36030+140200FM-15+0029RJAK V0203401N001510690019N0112651N1+02001+01301999999ADDGA1021+036009999GA2071+069009999GF107991999999999999999999MA1101901999999MW1001REMMET092RJAK 060000Z 34003KT 9999 FEW120 BKN230 20/13 Q1019 RMK 1AC120 6CI230 A3010 FCST 0009 NOSIG;EQDQ01+000000PRSWM2
0186477160999992000100601004+36030+140200FM-15+0029RJAK V0203501N001510690019N0112651N1+02201+01401999999ADDGA1021+036009999GA2071+069009999GF107991999999999999999999MA1101901999999MW1001REMMET076RJAK 060100Z 35003KT 9999 FEW120 BKN230 22/14 Q1019 RMK 1AC120 7CI230 A3010;EQDQ01+000000PRSWM2
0186477160999992000100602004+36030+140200FM-15+0029RJAK V0200501N003110690019N0112651N1+02301+01401999999ADDGA1021+007509999GA2071+069009999GF107991999999999999999999MA1101901999999MW1001REMMET076RJAK 060200Z 05006KT 9999 FEW025 BKN230 23/14 Q1019 RMK 1CU025 7CI230 A3010;EQDQ01+000000PRSWM2
0202477160999992000100603004+36030+140200FM-15+0029RJAK V0200401N002110690019N0112651N1+02301+01401999999ADDGA1021+007509999GA2071+069009999GF107991999999999999999999MA1101801999999MW1001REMMET092RJAK 060300Z 04004KT 9999 FEW025 BKN230 23/14 Q1018 RMK 1CU025 7CI230 A3008 FCST 0312 NOSIG;EQDQ01+000000PRSWM2
0186477160999992000100604004+36030+140200FM-15+0029RJAK V0201001N004110690019N0112651N1+02401+01601999999ADDGA1021+007509999GA2071+069009999GF107991999999999999999999MA1101801999999MW1001REMMET076RJAK 060400Z 10008KT 9999 FEW025 BKN230 24/16 Q1018 RMK 1CU025 7CI230 A3008;EQDQ01+000000PRSWM2
0186477160999992000100605004+36030+140200FM-15+0029RJAK V0200801N005710690019N0112651N1+02301+01501999999ADDGA1021+007509999GA2071+069009999GF107991999999999999999999MA1101801999999MW1001REMMET076RJAK 060500Z 08011KT 9999 FEW025 BKN230 23/15 Q1018 RMK 1CU025 7CI230 A3007;EQDQ01+000000PRSWM2
0202477160999992000100606004+36030+140200FM-15+0029RJAK V0200601N006210690019N0112651N1+02201+01201999999ADDGA1021+007509999GA2071+069009999GF107991999999999999999999MA1101801999999MW1001REMMET092RJAK 060600Z 06012KT 9999 FEW025 BKN230 22/12 Q1018 RMK 1CU025 7CI230 A3008 FCST 0615 NOSIG;EQDQ01+000000PRSWM2
0186477160999992000100607004+36030+140200FM-15+0029RJAK V0200501N004110690019N0112651N1+02101+01301999999ADDGA1021+007509999GA2071+069009999GF107991999999999999999999MA1101801999999MW1001REMMET076RJAK 060700Z 05008KT 9999 FEW025 BKN230 21/13 Q1018 RMK 1CU025 7CI230 A3008;EQDQ01+000000PRSWM2
0202477160999992000100608004+36030+140200FM-15+0029RJAK V0200501N003110690019N0112651N1+02001+01401999999ADDGA1021+007509999GA2071+069009999GF107991999999999999999999MA1101801999999MW1001REMMET092RJAK 060800Z 05006KT 9999 FEW025 BKN230 20/14 Q1018 RMK 1CU025 7CI230 A3008 FCST 0817 NOSIG;EQDQ01+000000PRSWM2
0205477160999992000100922004+36030+140200FM-15+0029RJAK V0203301N001510120019N0030001N1+01701+01701999999ADDGA1021+002109999GA2071+012009999GF107991999999999999999999MA1101191999999MW1101REMMET079RJAK 092200Z 33003KT 3000 BR SCT007 BKN040 17/17 Q1012 RMK 3ST007 6SC040 A2990;EQDQ01+000003PRSWM1Q02    003PRSWM1
0250477160999992000100923004+36030+140200FM-15+0029RJAK V0203201N001010120019N0045001N1+01801+01701999999ADDGA1021+002409999GA2071+012009999GF107991999999999999999999MA1101291999999MW1101REMMET124RJAK 092300Z 32002KT 4500 BR FEW008 BKN040 18/17 Q1013 RMK 2ST008 6SC040 A2992 FCST 2308 BECMG 2301 NSW BECMG 0406 BKN030CU;EQDQ01+000003PRSWM1Q02    003PRSWM1
0186477160999992000100923334+36030+140200FM-16+0029RJAK V0200201N001510120019N0060001N1+01901+01801999999ADDGA1021+003009999GA2071+012009999GF107991999999999999999999MA1101291999999MW1001REMMET076RJAK 092333Z 02003KT 6000 FEW010 BKN040 19/18 Q1013 RMK 1ST010 6SC040 A2993;EQDQ01+000000PRSWM2
0246477160999992000101000004+36030+140200FM-15+0029RJAK V0200101N002610120019N0060001N1+01901+01701999999ADDGA1021+003009999GA2071+012009999GA3071+030009999GF107991999999999999999999MA1101291999999MW1001REMMET120RJAK 100000Z 01005KT 6000 FEW010 BKN040 BKN100 19/17 Q1013 RMK 1ST010 6SC040 6AC100 A2993 FCST 0009 BECMG 0406 BKN030CU;EQDQ01+000000PRSWM2
0216477160999992000101001004+36030+140200FM-15+0029RJAK V0203101N001510120019N0080001N1+02001+01801999999ADDGA1021+004509999GA2071+012009999GA3071+030009999GF107991999999999999999999MA1101391999999MW1001REMMET090RJAK 100100Z 31003KT 8000 FEW015 BKN040 BKN100 20/18 Q1014 RMK 1CU015 6SC040 6AC100 A2994;EQDQ01+000000PRSWM2
0186477160999992000101002004+36030+140200FM-15+0029RJAK V0200501N002112200019N0112651N1+02201+01501999999ADDGA1021+006009999GA2021+030009999GF104991999999999999999999MA1101291999999MW1001REMMET076RJAK 100200Z 05004KT 9999 FEW020 SCT100 22/15 Q1013 RMK 1CU020 4AC100 A2992;EQDQ01+000000PRSWM2
0216477160999992000101003004+36030+140200FM-15+0029RJAK V0200701N004110300019N0112651N1+02401+01501999999ADDGA1021+007509999GA2071+030009999GF107991999999999999999999MA1101291999999MW1001REMMET106RJAK 100300Z 07008KT 9999 FEW025 BKN100 24/15 Q1013 RMK 1CU025 5AC100 A2992 FCST 0312 BECMG 0406 BKN030CU;EQDQ01+000000PRSWM2
0186477160999992000101004004+36030+140200FM-15+0029RJAK V0200701N004612200019N0112651N1+02401+01501999999ADDGA1021+007509999GA2021+030009999GF104991999999999999999999MA1101291999999MW1001REMMET076RJAK 100400Z 07009KT 9999 FEW025 SCT100 24/15 Q1013 RMK 1CU025 3AC100 A2991;EQDQ01+000000PRSWM2
0156477160999992000101005004+36030+140200FM-15+0029RJAK V0200901N005112200019N0112651N1+02401+01501999999ADDGA1021+009009999GF102991999999999999999999MA1101291999999MW1001REMMET062RJAK 100500Z 09010KT 9999 FEW030 24/15 Q1013 RMK 1CU030 A2992;EQDQ01+000000PRSWM2
0186477160999992000101006004+36030+140200FM-15+0029RJAK V0200901N004112200019N0112651N1+02301+01601999999ADDGA1021+009009999GF102991999999999999999999MA1101291999999MW1001REMMET092RJAK 100600Z 09008KT 9999 FEW030 23/16 Q1013 RMK 1CU030 A2992 FCST 0615 BECMG 1012 BKN030CU;EQDQ01+000000PRSWM2
0156477160999992000101007004+36030+140200FM-15+0029RJAK V0201001N005112200019N0112651N1+02201+01601999999ADDGA1021+009009999GF102991999999999999999999MA1101291999999MW1001REMMET062RJAK 100700Z 10010KT 9999 FEW030 22/16 Q1013 RMK 1CU030 A2993;EQDQ01+000000PRSWM2
0172477160999992000101008004+36030+140200FM-15+0029RJAK V0200701N003112200019N0112651N1+02101+01701999999ADDGA1021+007509999GF102991999999999999999999MA1101391999999MW1001REMMET078RJAK 100800Z 07006KT 9999 FEW025 21/17 Q1014 RMK 1CU025 A2995 FCST 0817 NOSIG;EQDQ01+000000PRSWM2
0205477160999992000101022004+36030+140200FM-15+0029RJAK V0200401N001012200019N0040001N1+01701+01601999999ADDGA1021+004509999GA2021+036009999GF104991999999999999999999MA1101591999999MW1101REMMET079RJAK 102200Z 04002KT 4000 BR FEW015 SCT120 17/16 Q1016 RMK 1CU015 3AC120 A3002;EQDQ01+000003PRSWM1Q02    003PRSWM1
0200477160999992000101023004+36030+140200FM-15+0029RJAK V0200201N001512200019N0045001N1+01901+01701999999ADDGA1021+036009999GF104991999999999999999999MA1101591999999MW1101REMMET090RJAK 102300Z 02003KT 4500 BR SCT120 19/17 Q1016 RMK 3AC120 A3002 FCST 2308 BECMG 2300 NSW;EQDQ01+000003PRSWM1Q02    003PRSWM1
0175477160999992000101023354+36030+140200FM-16+0029RJAK V0200201N001512200019N0050001N1+02101+01901999999ADDGA1021+036009999GF104991999999999999999999MA1101691999999MW1101REMMET065RJAK 102335Z 02003KT 5000 BR SCT120 21/19 Q1017 RMK 3AC120 A3004;EQDQ01+000003PRSWM1Q02    003PRSWM1
0219477160999992000101100004+36030+140200FM-15+0029RJAK V0200401N001512200019N0050001N1+02101+01801999999ADDGA1021+036009999GF104991999999999999999999MA1101691999999MW1101REMMET109RJAK 110000Z 04003KT 5000 BR SCT120 21/18 Q1017 RMK 3AC120 A3004 FCST 0009 BECMG 0001 NSW BECMG 0305 22010KT;EQDQ01+000003PRSWM1Q02    003PRSWM1
0186477160999992000101101004+36030+140200FM-15+0029RJAK V0200401N002112200019N0080001N1+02201+01801999999ADDGA1021+006009999GA2021+030009999GF104991999999999999999999MA1101591999999MW1001REMMET076RJAK 110100Z 04004KT 8000 FEW020 SCT100 22/18 Q1016 RMK 2CU020 4AC100 A3001;EQDQ01+000000PRSWM2
0186477160999992000101102004+36030+140200FM-15+0029RJAK V0200501N002112200019N0080001N1+02401+01501999999ADDGA1021+006009999GA2021+036009999GF104991999999999999999999MA1101491999999MW1001REMMET076RJAK 110200Z 05004KT 8000 FEW020 SCT120 24/15 Q1015 RMK 1CU020 3AC120 A2999;EQDQ01+000000PRSWM2
0215477160999992000101103004+36030+140200FM-15+0029RJAK V0200501N002112200019N0112651N1+02401+01601999999ADDGA1021+006009999GA2021+069009999GF104991999999999999999999MA1101391999999MW1001REMMET105RJAK 110300Z 05004KT 9999 FEW020 SCT230 24/16 Q1014 RMK 1CU020 3CI230 A2997 FCST 0312 BECMG 0406 22010KT;EQDQ01+000000PRSWM2
0186477160999992000101105004+36030+140200FM-15+0029RJAK V0200501N003112200019N0112651N1+02501+01701999999ADDGA1021+007509999GA2021+063009999GF104991999999999999999999MA1101291999999MW1001REMMET076RJAK 110500Z 05006KT 9999 FEW025 SCT210 25/17 Q1013 RMK 1CU025 3CI210 A2992;EQDQ01+000000PRSWM2
0202477160999992000101106004+36030+140200FM-15+0029RJAK V0200601N004110630019N0112651N1+02401+01701999999ADDGA1021+007509999GA2071+063009999GF107991999999999999999999MA1101291999999MW1001REMMET092RJAK 110600Z 06008KT 9999 FEW025 BKN210 24/17 Q1013 RMK 2CU025 5CI210 A2992 FCST 0615 NOSIG;EQDQ01+000000PRSWM2
0186477160999992000101107004+36030+140200FM-15+0029RJAK V0201001N003610630019N0112651N1+02401+01801999999ADDGA1021+007509999GA2071+063009999GF107991999999999999999999MA1101291999999MW1001REMMET076RJAK 110700Z 10007KT 9999 FEW025 BKN210 24/18 Q1013 RMK 1CU025 5CI210 A2991;EQDQ01+000000PRSWM2
0202477160999992000101108004+36030+140200FM-15+0029RJAK V0200801N002610600019N0112651N1+02301+01801999999ADDGA1021+006009999GA2071+060009999GF107991999999999999999999MA1101191999999MW1001REMMET092RJAK 110800Z 08005KT 9999 FEW020 BKN200 23/18 Q1012 RMK 2CU020 5CI200 A2990 FCST 0817 NOSIG;EQDQ01+000000PRSWM2
0175477160999992000101122004+36030+140200FM-15+0029RJAK V0202201N000512200019N0006001N1+01701+01701999999ADDGA1021+000309999GF102991999999999999999999MA1101021999999MW1441REMMET065RJAK 112200Z 22001KT 0600 FG FEW001 17/17 Q1010 RMK 2ST001 A2984;EQDQ01+000003PRSWM1Q02    003PRSWM1
0232477160999992000101123004+36030+140200FM-15+0029RJAK V0202601N001012200019N0020001N1+01801+01801999999ADDGF100991999999999999999999MA1101081999999MW1101REMMET138RJAK 112300Z 26002KT 2000 BR SKC 18/18 Q1011 RMK A2985 FCST 2308 BECMG 2301 NSW BECMG 0305 FEW030CU BKN100AC TEMPO 0708 BKN030CU BKN080AC;EQDQ01+000003PRSWM1Q02    003PRSWM1
0232477160999992000101200004+36030+140200FM-15+0029RJAK V0202501N001512200019N0030001N1+02101+01701999999ADDGF100991999999999999999999MA1101021999999MW1101REMMET138RJAK 120000Z 25003KT 3000 BR SKC 21/17 Q1010 RMK A2984 FCST 0009 BECMG 0001 NSW BECMG 0406 FEW030CU BKN100AC TEMPO 0709 BKN030CU BKN080AC;EQDQ01+000003PRSWM1Q02    003PRSWM1
0149477160999992000101201004+36030+140200FM-15+0029RJAK V0202701N002112200019N0045001N1+02301+01701999999ADDGF100991999999999999999999MA1100911999999MW1051REMMET055RJAK 120100Z 27004KT 4500 HZ SKC 23/17 Q1009 RMK A2982;EQDQ01+000003PRSWM1Q02    003PRSWM1
0149477160999992000101202004+36030+140200FM-15+0029RJAK V0202101N002112200019N0048001N1+02501+01801999999ADDGF100991999999999999999999MA1100811999999MW1051REMMET055RJAK 120200Z 21004KT 4800 HZ SKC 25/18 Q1008 RMK A2979;EQDQ01+000003PRSWM1Q02    003PRSWM1
0146477160999992000101204004+36030+140200FM-15+0029RJAK V0201201N002112200019N9999999N1+02701+01801999999ADDGF100991999999999999999999MA1100611999999MW1001REMMET052RJAK 120400Z 12004KT 6000 SKC 27/18 Q1006 RMK A2972;EQDQ01+060002VODIS Q02+000000PRSWM2
0146477160999992000101205004+36030+140200FM-15+0029RJAK V0201901N001012200019N9999999N1+02801+01801999999ADDGF100991999999999999999999MA1100611999999MW1001REMMET052RJAK 120500Z 19002KT 7000 SKC 28/18 Q1006 RMK A2971;EQDQ01+070002VODIS Q02+000000PRSWM2
0214477160999992000101206004+36030+140200FM-15+0029RJAK V0200501N003612200019N9999999N1+02601+01901999999ADDGF100991999999999999999999MA1100611999999MW1001REMMET120RJAK 120600Z 05007KT 6000 SKC 26/19 Q1006 RMK A2971 FCST 0615 BECMG 0911 FEW030CU BKN100AC TEMPO 1215 BKN030CU BKN080AC;EQDQ01+060002VODIS Q02+000000PRSWM2
0156477160999992000101207004+36030+140200FM-15+0029RJAK V0200701N003112200019N0060001N1+02701+01701999999ADDGA1021+009009999GF102991999999999999999999MA1100611999999MW1001REMMET062RJAK 120700Z 07006KT 6000 FEW030 27/17 Q1006 RMK 1CU030 A2973;EQDQ01+000000PRSWM2
0249477160999992000101208004+36030+140200FM-15+0029RJAK V0200601N008212200019N0060001N1+02301+01801999999ADDGA1021+009009999GF102991999999999999999999MA1100711999999MW1001OC101341REMMET147RJAK 120800Z 06016G26KT 6000 FEW030 23/18 Q1007 RMK 1CU030 A2976 FCST 0817 BECMG 0911 4500 BR FEW030CU BKN100AC TEMPO 1115 -SHRA BKN030CU BKN080AC;EQDQ01+000000PRSWM2
0231477160999992000101300004+36030+140200FM-15+0029RJAK V0200301N004610105019N0112651N1+01401+01101999999ADDGA1021+003609999GA2081+010509999GF108991999999999999999999MA1101591999999MW1611REMMET105RJAK 130000Z 03009KT 9999 -RA FEW012 OVC035 14/11 Q1016 RMK 1ST012 8SC035 A3001 FCST 0009 BECMG 0001 NSW;EQDQ01+000003PRSWM1Q02    003PRSWM1
0216477160999992000101300254+36030+140200FM-15+0029RJAK V0200301N004110105019N0112651N1+01501+01101999999ADDGA1021+004509999GA2021+007509999GA3081+010509999GF108991999999999999999999MA1101591999999MW1001REMMET090RJAK 130025Z 03008KT 9999 FEW015 SCT025 OVC035 15/11 Q1016 RMK 1CU015 3SC025 8SC035 A3001;EQDQ01+000000PRSWM2
0216477160999992000101301004+36030+140200FM-15+0029RJAK V0200201N004110105019N0112651N1+01501+01101999999ADDGA1021+006009999GA2071+010509999GA3081+015009999GF108991999999999999999999MA1101591999999MW1001REMMET090RJAK 130100Z 02008KT 9999 FEW020 BKN035 OVC050 15/11 Q1016 RMK 1CU020 6SC035 8SC050 A3001;EQDQ01+000000PRSWM2
0216477160999992000101302004+36030+140200FM-15+0029RJAK V0200301N004610120019N0112651N1+01701+01001999999ADDGA1021+006009999GA2021+010509999GA3071+012009999GF107991999999999999999999MA1101591999999MW1001REMMET090RJAK 130200Z 03009KT 9999 FEW020 SCT035 BKN040 17/10 Q1016 RMK 1CU020 3SC035 6SC040 A3000;EQDQ01+000000PRSWM2
0232477160999992000101303004+36030+140200FM-15+0029RJAK V0200501N005710120019N0112651N1+01701+01001999999ADDGA1021+006009999GA2071+012009999GA3081+030009999GF108991999999999999999999MA1101491999999MW1001REMMET106RJAK 130300Z 05011KT 9999 FEW020 BKN040 OVC100 17/10 Q1015 RMK 1CU020 6SC040 8AC100 A2998 FCST 0312 NOSIG;EQDQ01+000000PRSWM2
0216477160999992000101304004+36030+140200FM-15+0029RJAK V0200401N003610120019N0112651N1+01701+01001999999ADDGA1021+006009999GA2021+010509999GA3071+012009999GF107991999999999999999999MA1101391999999MW1001REMMET090RJAK 130400Z 04007KT 9999 FEW020 SCT035 BKN040 17/10 Q1014 RMK 1CU020 3SC035 6SC040 A2997;EQDQ01+000000PRSWM2
0216477160999992000101305004+36030+140200FM-15+0029RJAK V0200701N004110120019N0112651N1+01801+01001999999ADDGA1021+006009999GA2021+010509999GA3071+012009999GF107991999999999999999999MA1101391999999MW1001REMMET090RJAK 130500Z 07008KT 9999 FEW020 SCT035 BKN040 18/10 Q1014 RMK 1CU020 3SC035 7SC040 A2995;EQDQ01+000000PRSWM2
0232477160999992000101306004+36030+140200FM-15+0029RJAK V0200501N004610090019N0112651N1+01801+01101999999ADDGA1021+006009999GA2071+009009999GA3071+012009999GF107991999999999999999999MA1101391999999MW1001REMMET106RJAK 130600Z 05009KT 9999 FEW020 BKN030 BKN040 18/11 Q1014 RMK 2CU020 5SC030 7SC040 A2995 FCST 0615 NOSIG;EQDQ01+000000PRSWM2
0216477160999992000101307004+36030+140200FM-15+0029RJAK V0200401N004610105019N0112651N1+01801+01101999999ADDGA1021+006009999GA2071+010509999GA3071+012009999GF107991999999999999999999MA1101391999999MW1001REMMET090RJAK 130700Z 04009KT 9999 FEW020 BKN035 BKN040 18/11 Q1014 RMK 1SC020 5SC035 7SC040 A2996;EQDQ01+000000PRSWM2
0202477160999992000101308004+36030+140200FM-15+0029RJAK V0200601N003110090019N0112651N1+01701+01101999999ADDGA1071+009009999GA2081+012009999GF108991999999999999999999MA1101391999999MW1001REMMET092RJAK 130800Z 06006KT 9999 BKN030 OVC040 17/11 Q1014 RMK 6SC030 8SC040 A2997 FCST 0817 NOSIG;EQDQ01+000000PRSWM2
0186477160999992000101505004+36030+140200FM-15+0029RJAK V02099999999990135019N0112651N1+02101+01401999999ADDGA1071+013509999GA2071+030009999GF107991999999999999999999MA1101901999999MW1001REMMET076RJAK 150500Z VRB02KT 9999 BKN045 BKN100 21/14 Q1019 RMK 5SC045 7AC100 A3010;EQDQ01+000000PRSWM2
0260477160999992000101506004+36030+140200FM-15+0029RJAK V02099999999990135019N0112651N1+02101+01401999999ADDGA1071+013509999GA2071+030009999GF107991999999999999999999MA1102001999999MW1611REMMET134RJAK 150600Z VRB01KT 9999 -RA BKN045 BKN100 21/14 Q1020 RMK 6SC045 7AC100 A3012 FCST 0615 TEMPO 0612 NSW TEMPO 0915 BKN030SC OVC080AC;EQDQ01+000003PRSWM1Q02    003PRSWM1
0186477160999992000101506254+36030+140200FM-15+0029RJAK V02099999999990120019N0112651N1+02001+01401999999ADDGA1071+012009999GA2071+030009999GF107991999999999999999999MA1102001999999MW1001REMMET076RJAK 150625Z VRB01KT 9999 BKN040 BKN100 20/14 Q1020 RMK 5SC040 7AC100 A3012;EQDQ01+000000PRSWM2
0206477160999992000101506324+36030+140200FM-16+0029RJAK V0201001N000510120019N0112651N1+02001+01401999999ADDGA1071+012009999GA2071+030009999GF107991999999999999999999MA1102001999999MW1611REMMET080RJAK 150632Z 10001KT 9999 -RA BKN040 BKN100 20/14 Q1020 RMK 6SC040 7AC100 A3012;EQDQ01+000003PRSWM1Q02    003PRSWM1
0186477160999992000101522004+36030+140200FM-15+0029RJAK V0209999C000012200019N0112651N1+01501+01301999999ADDGA1021+006009999GA2021+063009999GF104991999999999999999999MA1102301999999MW1001REMMET076RJAK 152200Z 00000KT 9999 SCT020 SCT210 15/13 Q1023 RMK 3CU020 3CI210 A3022;EQDQ01+000000PRSWM2
0186477160999992000101522254+36030+140200FM-15+0029RJAK V0200101N001010060019N0112651N1+01501+01401999999ADDGA1021+004509999GA2071+006009999GF107991999999999999999999MA1102401999999MW1001REMMET076RJAK 152225Z 01002KT 9999 FEW015 BKN020 15/14 Q1024 RMK 1CU015 5CU020 A3023;EQDQ01+000000PRSWM2
0226477160999992000101523004+36030+140200FM-15+0029RJAK V0200201N00261220001CN0112651N1+01601+01301999999ADDGA1071+007509999GA2021+069009999MA1102401999999MW1001REMMET126RJAK 152300Z 02005KT 9999 BKN025 SCT230 16/13 Q1024 RMK 5CU025 3CI230 A3025 FCST 2308 BECMG 2301 SCT025CU TEMPO 0608 BKN030CU;EQDQ01+000042SCOTCVQ02+000000PRSWM2
0156477160999992000101523254+36030+140200FM-15+0029RJAK V0200301N004112200019N0112651N1+01701+01201999999ADDGA1021+007509999GF102991999999999999999999MA1102401999999MW1001REMMET062RJAK 152325Z 03008KT 9999 FEW025 17/12 Q1024 RMK 2CU025 A3025;EQDQ01+000000PRSWM2
0216477160999992000101600004+36030+140200FM-15+0029RJAK V0200401N006212200019N0112651N1+01801+01201999999ADDGA1021+007509999GA2021+069009999GF104991999999999999999999MA1102401999999MW1001REMMET106RJAK 160000Z 04012KT 9999 SCT025 SCT230 18/12 Q1024 RMK 3CU025 3CI230 A3025 FCST 0009 TEMPO 0609 BKN030CU;EQDQ01+000000PRSWM2
0216477160999992000101601004+36030+140200FM-15+0029RJAK V0200601N005110300019N0112651N1+01901+01101999999ADDGA1021+007509999GA2021+012009999GA3071+030009999GF107991999999999999999999MA1102401999999MW1001REMMET090RJAK 160100Z 06010KT 9999 FEW025 SCT040 BKN100 19/11 Q1024 RMK 1CU025 4SC040 6AC100 A3026;EQDQ01+000000PRSWM2
0186477160999992000101602004+36030+140200FM-15+0029RJAK V0200501N005712200019N0112651N1+02001+01201999999ADDGA1021+007509999GA2021+030009999GF104991999999999999999999MA1102401999999MW1001REMMET076RJAK 160200Z 05011KT 9999 FEW025 SCT100 20/12 Q1024 RMK 1CU025 4AC100 A3023;EQDQ01+000000PRSWM2
0156477160999992000101605004+36030+140200FM-15+0029RJAK V0200801N006212200019N0112651N1+02001+01101999999ADDGA1021+007509999GF102991999999999999999999MA1102201999999MW1001REMMET062RJAK 160500Z 08012KT 9999 FEW025 20/11 Q1022 RMK 1CU025 A3020;EQDQ01+000000PRSWM2
0216477160999992000101606004+36030+140200FM-15+0029RJAK V0200801N005712200019N0112651N1+01901+01201999999ADDGA1021+007509999GA2021+069009999GF104991999999999999999999MA1102201999999MW1001REMMET106RJAK 160600Z 08011KT 9999 FEW025 SCT230 19/12 Q1022 RMK 1CU025 3CI230 A3019 FCST 0615 TEMPO 0915 BKN030SC;EQDQ01+000000PRSWM2
0156477160999992000101607004+36030+140200FM-15+0029RJAK V0200701N006212200019N0112651N1+01801+01201999999ADDGA1021+007509999GF102991999999999999999999MA1102201999999MW1001REMMET062RJAK 160700Z 07012KT 9999 FEW025 18/12 Q1022 RMK 1CU025 A3019;EQDQ01+000000PRSWM2
0186477160999992000101608004+36030+140200FM-15+0029RJAK V0200801N005112200019N0112651N1+01701+01201999999ADDGA1021+006009999GF102991999999999999999999MA1102301999999MW1001REMMET092RJAK 160800Z 08010KT 9999 FEW020 17/12 Q1023 RMK 1CU020 A3020 FCST 0817 TEMPO 1017 BKN030CU;EQDQ01+000000PRSWM2
0186477160999992000101622004+36030+140200FM-15+0029RJAK V0202701N001010105019N0112651N1+01501+01101999999ADDGA1071+010509999GA2081+030009999GF108991999999999999999999MA1102001999999MW1001REMMET076RJAK 162200Z 27002KT 9999 BKN035 OVC100 15/11 Q1020 RMK 6SC035 8AC100 A3013;EQDQ01+000000PRSWM2
0255477160999992000101623004+36030+140200FM-15+0029RJAK V0203101N000510105019N0112651N1+01601+01201999999ADDGA1021+009009999GA2071+010509999GA3081+030009999GF108991999999999999999999MA1101901999999MW1001REMMET129RJAK 162300Z 31001KT 9999 FEW030 BKN035 OVC100 16/12 Q1019 RMK 2SC030 6SC035 8AC100 A3011 FCST 2308 TEMPO 0508 BKN030SC OVC100AC;EQDQ01+000000PRSWM2
0255477160999992000101700004+36030+140200FM-15+0029RJAK V0200301N003110300019N0112651N1+01801+01201999999ADDGA1021+009009999GA2021+012009999GA3071+030009999GF107991999999999999999999MA1101901999999MW1001REMMET129RJAK 170000Z 03006KT 9999 FEW030 SCT040 BKN100 18/12 Q1019 RMK 1SC030 3SC040 7AC100 A3010 FCST 0009 TEMPO 0509 BKN030SC OVC100AC;EQDQ01+000000PRSWM2
0216477160999992000101701004+36030+140200FM-15+0029RJAK V0200301N003110120019N0112651N1+01901+01301999999ADDGA1021+009009999GA2071+012009999GA3081+030009999GF108991999999999999999999MA1101801999999MW1001REMMET090RJAK 170100Z 03006KT 9999 FEW030 BKN040 OVC100 19/13 Q1018 RMK 2CU030 5SC040 8AC100 A3008;EQDQ01+000000PRSWM2
0216477160999992000101702004+36030+140200FM-15+0029RJAK V0200301N003110135019N0112651N1+01801+01301999999ADDGA1021+007509999GA2071+013509999GA3071+030009999GF107991999999999999999999MA1101801999999MW1001REMMET090RJAK 170200Z 03006KT 9999 FEW025 BKN045 BKN100 18/13 Q1018 RMK 1CU025 5SC045 7AC100 A3006;EQDQ01+000000PRSWM2
0255477160999992000101703004+36030+140200FM-15+0029RJAK V0200201N002610120019N0112651N1+01901+01401999999ADDGA1021+009009999GA2071+012009999GA3071+030009999GF107991999999999999999999MA1101691999999MW1001REMMET129RJAK 170300Z 02005KT 9999 FEW030 BKN040 BKN100 19/14 Q1017 RMK 1SC030 5SC040 7AC100 A3003 FCST 0312 TEMPO 0612 BKN030SC OVC100AC;EQDQ01+000000PRSWM2
0216477160999992000101704004+36030+140200FM-15+0029RJAK V0200301N002110300019N0112651N1+02001+01301999999ADDGA1021+009009999GA2021+012009999GA3071+030009999GF107991999999999999999999MA1101591999999MW1001REMMET090RJAK 170400Z 03004KT 9999 FEW030 SCT040 BKN100 20/13 Q1016 RMK 1CU030 4SC040 7AC100 A3000;EQDQ01+000000PRSWM2
0216477160999992000101705004+36030+140200FM-15+0029RJAK V0200501N003110120019N0112651N1+02001+01401999999ADDGA1021+009009999GA2071+012009999GA3071+030009999GF107991999999999999999999MA1101491999999MW1001REMMET090RJAK 170500Z 05006KT 9999 FEW030 BKN040 BKN100 20/14 Q1015 RMK 2CU030 5SC040 7AC100 A2998;EQDQ01+000000PRSWM2
0284477160999992000101706004+36030+140200FM-15+0029RJAK V0200401N001510300019N0112651N1+02001+01501999999ADDGA1021+009009999GA2021+012009999GA3071+030009999GF107991999999999999999999MA1101391999999MW1001REMMET158RJAK 170600Z 04003KT 9999 FEW030 SCT040 BKN100 20/15 Q1014 RMK 1CU030 4SC040 7AC100 A2996 FCST 0615 TEMPO 0712 BKN030SC OVC100AC BECMG 1214 BKN025SC OVC080AC;EQDQ01+000000PRSWM2
0236477160999992000101707004+36030+140200FM-15+0029RJAK V0200101N001010120019N0112651N1+02001+01501999999ADDGA1021+007509999GA2071+012009999GA3071+030009999GF107991999999999999999999MA1101391999999MW1611REMMET094RJAK 170700Z 01002KT 9999 -RA FEW025 BKN040 BKN100 20/15 Q1014 RMK 2CU025 5SC040 7AC100 A2995;EQDQ01+000003PRSWM1Q02    003PRSWM1
0252477160999992000101708004+36030+140200FM-15+0029RJAK V0203101N001510090019N0070001N1+01901+01501999999ADDGA1021+006009999GA2071+009009999GA3081+030009999GF108991999999999999999999MA1101391999999MW1611REMMET110RJAK 170800Z 31003KT 7000 -RA FEW020 BKN030 OVC100 19/15 Q1014 RMK 1CU020 5SC030 8AC100 A2994 FCST 0817 NOSIG;EQDQ01+000003PRSWM1Q02    003PRSWM1
0216477160999992000101722004+36030+140200FM-15+0029RJAK V0203501N000510300019N0112651N1+01601+01201999999ADDGA1021+012009999GA2021+015009999GA3071+030009999GF107991999999999999999999MA1101081999999MW1001REMMET090RJAK 172200Z 35001KT 9999 FEW040 SCT050 BKN100 16/12 Q1011 RMK 2SC040 4SC050 7AC100 A2986;EQDQ01+000000PRSWM2
0264477160999992000101723004+36030+140200FM-15+0029RJAK V0203301N001510150019N0112651N1+01701+01101999999ADDGA1021+012009999GA2071+015009999GA3071+030009999GF107991999999999999999999MA1101081999999MW1001REMMET138RJAK 172300Z 33003KT 9999 FEW040 BKN050 BKN100 17/11 Q1011 RMK 1SC040 5SC050 7AC100 A2987 FCST 2308 BECMG 0103 FEW040SC SCT050SC SCT100AC;EQDQ01+000000PRSWM2
0286477160999992000101800004+36030+140200FM-15+0029RJAK V0203501N002110150019N0112651N1+01801+01001999999ADDGA1021+012009999GA2071+015009999GA3071+030009999GF107991999999999999999999MA1101191999999MW1001REMMET160RJAK 180000Z 35004KT 9999 FEW040 BKN050 BKN100 18/10 Q1012 RMK 2SC040 5SC050 7AC100 A2990 FCST 0009 BECMG 0103 FEW040SC SCT050SC SCT100AC TEMPO 0104 32012G25KT;EQDQ01+000000PRSWM2
0216477160999992000101801004+36030+140200FM-15+0029RJAK V0203101N003110150019N0112651N1+02001+00901999999ADDGA1021+007509999GA2071+015009999GA3071+030009999GF107991999999999999999999MA1101291999999MW1001REMMET090RJAK 180100Z 31006KT 9999 FEW025 BKN050 BKN100 20/09 Q1013 RMK 2CU025 5SC050 7AC100 A2994;EQDQ01+000000PRSWM2
0216477160999992000101802004+36030+140200FM-15+0029RJAK V0203001N003110600019N0112651N1+02101+01001999999ADDGA1021+007509999GA2021+015009999GA3071+060009999GF107991999999999999999999MA1101391999999MW1001REMMET090RJAK 180200Z 30006KT 9999 FEW025 SCT050 BKN200 21/10 Q1014 RMK 2CU025 4SC050 7CI200 A2995;EQDQ01+000000PRSWM2
0248477160999992000101803004+36030+140200FM-15+0029RJAK V0202901N003110300019N0112651N1+02101+00901999999ADDGA1021+007509999GA2021+015009999GA3071+030009999GF107991999999999999999999MA1101391999999MW1001REMMET122RJAK 180300Z 29006KT 9999 FEW025 SCT050 BKN100 21/09 Q1014 RMK 2CU025 4SC050 6AC100 A2995 FCST 0312 TEMPO 0408 30012G25KT;EQDQ01+000000PRSWM2
0216477160999992000101804004+36030+140200FM-15+0029RJAK V0202801N002110300019N0112651N1+02101+00901999999ADDGA1021+007509999GA2071+030009999GA3071+060009999GF107991999999999999999999MA1101391999999MW1001REMMET090RJAK 180400Z 28004KT 9999 FEW025 BKN100 BKN200 21/09 Q1014 RMK 2CU025 5AC100 7CI200 A2994;EQDQ01+000000PRSWM2
0227477160999992000101805004+36030+140200FM-15+0029RJAK V0202701N005110300019N0112651N1+02001+00501999999ADDGA1021+007509999GA2021+015009999GA3071+030009999GF107991999999999999999999MA1101391999999MW1001OC101031REMMET093RJAK 180500Z 27010G20KT 9999 FEW025 SCT050 BKN100 20/05 Q1014 RMK 1CU025 3SC050 5AC100 A2994;EQDQ01+000000PRSWM2
0248477160999992000101806004+36030+140200FM-15+0029RJAK V0202701N005110600019N0112651N1+02001+00501999999ADDGA1021+007509999GA2021+030009999GA3071+060009999GF107991999999999999999999MA1101291999999MW1001REMMET122RJAK 180600Z 27010KT 9999 FEW025 SCT100 BKN200 20/05 Q1013 RMK 1CU025 4AC100 7CI200 A2993 FCST 0615 TEMPO 0608 30010G20KT;EQDQ01+000000PRSWM2
0216477160999992000101807004+36030+140200FM-15+0029RJAK V0202901N003610300019N0112651N1+01901+00501999999ADDGA1021+007509999GA2071+030009999GA3071+060009999GF107991999999999999999999MA1101491999999MW1001REMMET090RJAK 180700Z 29007KT 9999 FEW025 BKN100 BKN200 19/05 Q1015 RMK 1CU025 5AC100 7CI200 A2997;EQDQ01+000000PRSWM2
0232477160999992000101808004+36030+140200FM-15+0029RJAK V0203101N002610690019N0112651N1+01801+00401999999ADDGA1021+012009999GA2021+030009999GA3071+069009999GF107991999999999999999999MA1101591999999MW1001REMMET106RJAK 180800Z 31005KT 9999 FEW040 SCT100 BKN230 18/04 Q1016 RMK 1SC040 3AC100 6CI230 A3000 FCST 0817 NOSIG;EQDQ01+000000PRSWM2
0156477160999992000101902004+36030+140200FM-15+0029RJAK V0200801N003612200019N0112651N1+01701+00801999999ADDGA1021+009009999GF102991999999999999999999MA1102401999999MW1001REMMET062RJAK 190200Z 08007KT 9999 FEW030 17/08 Q1024 RMK 1CU030 A3025;EQDQ01+000000PRSWM2
0156477160999992000101904004+36030+140200FM-15+0029RJAK V0200501N003112200019N0112651N1+01901+01001999999ADDGA1021+007509999GF102991999999999999999999MA1102301999999MW1001REMMET062RJAK 190400Z 05006KT 9999 FEW025 19/10 Q1023 RMK 2CU025 A3020;EQDQ01+000000PRSWM2
0202477160999992000101906004+36030+140200FM-15+0029RJAK V0200701N005112200019N0112651N1+01901+01001999999ADDGA1021+007509999GA2021+030009999GF104991999999999999999999MA1102201999999MW1001REMMET092RJAK 190600Z 07010KT 9999 FEW025 SCT100 19/10 Q1022 RMK 1CU025 4AC100 A3019 FCST 0615 NOSIG;EQDQ01+000000PRSWM2
0156477160999992000101907004+36030+140200FM-15+0029RJAK V0200901N004112200019N0112651N1+01801+01101999999ADDGA1021+009009999GF102991999999999999999999MA1102201999999MW1001REMMET062RJAK 190700Z 09008KT 9999 FEW030 18/11 Q1022 RMK 1SC030 A3020;EQDQ01+000000PRSWM2
0202477160999992000101908004+36030+140200FM-15+0029RJAK V0201001N002612200019N0112651N1+01701+01101999999ADDGA1021+009009999GA2021+069009999GF104991999999999999999999MA1102201999999MW1001REMMET092RJAK 190800Z 10005KT 9999 FEW030 SCT230 17/11 Q1022 RMK 1SC030 3CI230 A3020 FCST 0817 NOSIG;EQDQ01+000000PRSWM2
0186477160999992000101922004+36030+140200FM-15+0029RJAK V0203401N001510240019N0112651N1+01601+01301999999ADDGA1021+012009999GA2071+024009999GF107991999999999999999999MA1102201999999MW1001REMMET076RJAK 192200Z 34003KT 9999 SCT040 BKN080 16/13 Q1022 RMK 3SC040 7AC080 A3019;EQDQ01+000000PRSWM2
0392477160999992000102003004+36030+140200FM-15+0029RJAK V0209999V000510135019N0050001N1+01901+01401999999ADDGA1021+009009999GA2071+013509999GA3071+030009999GF107991999999999999999999MA1102001999999MW1051REMMET250RJAK 200300Z COR VRB01KT 5000 HZ FEW030 BKN045 BKN100 19/14 Q1020 RMK 1CU030 5SC045 7AC100 A3012 P/FR FCST COR 0312 TEMPO 0406 4000 -SHRA FEW020CU BKN030SC BECMG 0608 3000 -SHRA FEW010CU SCT020CU BKN030SC TEMPO 0812 1400 SHRA SCT006CU BKN010CU BKN020EQDQ01+000003PRSWM1Q02    003PRSWM1
0255477160999992000102004354+36030+140200FM-16+0029RJAK V0203101N001010120019N0040001N1+01801+01601999999ADDGA1021+007509999GA2071+012009999GA3081+024009999GF108991999999999999999999MA1101901999999MW1611REMMET097RJAK 200435Z 31002KT 4000 -RA BR FEW025 BKN040 OVC080 18/16 Q1019 RMK 2CU025 6SC040 8AC080 A3010;EQDQ01+000100PRSWM3Q02+000003PRSWM1Q03    003PRSWM1
0292477160999992000102006004+36030+140200FM-15+0029RJAK V0200501N002110120019N0025001N1+01701+01701999999ADDGA1021+006009999GA2071+012009999GA3081+024009999GF108991999999999999999999MA1101801999999MW1101MW2611REMMET144RJAK 200600Z 05004KT 2500 -RA BR FEW020 BKN040 OVC080 17/17 Q1018 RMK 2CU020 7SC040 8AC080 A3006 FCST 0615 TEMPO 0713 1400 RA FEW020CU BKN030SC;EQDQ01+000003PRSWM1Q02    003PRSWM1
0245477160999992000102007004+36030+140200FM-15+0029RJAK V0200901N001510120019N0025001N1+01701+01601999999ADDGA1021+004509999GA2071+012009999GA3081+024009999GF108991999999999999999999MA1101691999999MW1101MW2611REMMET097RJAK 200700Z 09003KT 2500 -RA BR FEW015 BKN040 OVC080 17/16 Q1017 RMK 2CU015 6SC040 8AC080 A3004;EQDQ01+000003PRSWM1Q02    003PRSWM1
0261477160999992000102008004+36030+140200FM-15+0029RJAK V0200501N002110090019N0030001N1+01701+01601999999ADDGA1021+004509999GA2071+009009999GA3081+024009999GF108991999999999999999999MA1101591999999MW1101MW2611REMMET113RJAK 200800Z 05004KT 3000 -RA BR FEW015 BKN030 OVC080 17/16 Q1016 RMK 2CU015 6SC030 8AC080 A3002 FCST 0817 NOSIG;EQDQ01+000003PRSWM1Q02    003PRSWM1
0186477160999992000102123004+36030+140200FM-15+0029RJAK V0200301N003610135019N0112651N1+01701+01201999999ADDGA1021+009009999GA2071+013509999GF107991999999999999999999MA1102301999999MW1001REMMET076RJAK 212300Z 03007KT 9999 SCT030 BKN045 17/12 Q1023 RMK 3SC030 6SC045 A3022;EQDQ01+000000PRSWM2
0311477160999992000102223004+36030+140200FM-15+0029RJAK V0200501N003110105019N0112651N1+01701+01301999999ADDGA1021+009009999GA2071+010509999GA3071+024009999GF107991999999999999999999MA1102301999999MW1611REMMET169RJAK 222300Z 05006KT 9999 -RA FEW030 BKN035 BKN080 17/13 Q1023 RMK 2SC030 5SC035 7AC080 A3021 FCST 2308 TEMPO 2301 4000 BR BECMG 0103 3000 BR FEW010ST SCT020CU BKN030SC;EQDQ01+000003PRSWM1Q02    003PRSWM1
0311477160999992000102300004+36030+140200FM-15+0029RJAK V0200301N002110105019N0112651N1+01801+01401999999ADDGA1021+009009999GA2071+010509999GA3071+024009999GF107991999999999999999999MA1102201999999MW1611REMMET169RJAK 230000Z 03004KT 9999 -RA SCT030 BKN035 BKN080 18/14 Q1022 RMK 3SC030 5SC035 7AC080 A3019 FCST 0009 TEMPO 0001 4000 BR BECMG 0103 3000 BR FEW010ST SCT020CU BKN030SC;EQDQ01+000003PRSWM1Q02    003PRSWM1
0216477160999992000102300164+36030+140200FM-16+0029RJAK V0200401N003610105019N0112651N1+01801+01401999999ADDGA1021+006009999GA2021+009009999GA3071+010509999GF107991999999999999999999MA1102201999999MW1001REMMET090RJAK 230016Z 04007KT 9999 FEW020 SCT030 BKN035 18/14 Q1022 RMK 1CU020 3SC030 6SC035 A3018;EQDQ01+000000PRSWM2
0216477160999992000102301004+36030+140200FM-15+0029RJAK V0200401N003110105019N0112651N1+01801+01401999999ADDGA1021+006009999GA2071+010509999GA3071+024009999GF107991999999999999999999MA1102201999999MW1001REMMET090RJAK 230100Z 04006KT 9999 FEW020 BKN035 BKN080 18/14 Q1022 RMK 1CU020 6SC035 7AC080 A3018;EQDQ01+000000PRSWM2
0236477160999992000102301274+36030+140200FM-16+0029RJAK V0200401N002110090019N0080001N1+01801+01501999999ADDGA1021+006009999GA2071+009009999GA3071+013509999GF107991999999999999999999MA1102201999999MW1611REMMET094RJAK 230127Z 04004KT 8000 -RA FEW020 BKN030 BKN045 18/15 Q1022 RMK 2CU020 5SC030 7SC045 A3018;EQDQ01+000003PRSWM1Q02    003PRSWM1
0236477160999992000102302004+36030+140200FM-15+0029RJAK V0200101N000510090019N0070001N1+01701+01601999999ADDGA1021+006009999GA2071+009009999GA3071+012009999GF107991999999999999999999MA1102101999999MW1611REMMET094RJAK 230200Z 01001KT 7000 -RA FEW020 BKN030 BKN040 17/16 Q1021 RMK 2CU020 6SC030 7SC040 A3015;EQDQ01+000003PRSWM1Q02    003PRSWM1
0261477160999992000102303004+36030+140200FM-15+0029RJAK V0200101N001010090019N0045001N1+01801+01701999999ADDGA1021+006009999GA2071+009009999GA3081+012009999GF108991999999999999999999MA1102001999999MW1101MW2611REMMET113RJAK 230300Z 01002KT 4500 -RA BR FEW020 BKN030 OVC040 18/17 Q1020 RMK 2CU020 5SC030 8SC040 A3013 FCST 0312 NOSIG;EQDQ01+000003PRSWM1Q02    003PRSWM1
0245477160999992000102304004+36030+140200FM-15+0029RJAK V0202901N001010042019N0030001N1+01701+01701999999ADDGA1021+001809999GA2071+004209999GA3081+009009999GF108991999999999999999999MA1101901999999MW1101MW2611REMMET097RJAK 230400Z 29002KT 3000 -RA BR SCT006 BKN014 OVC030 17/17 Q1019 RMK 3ST006 6SC014 8SC030 A3010;EQDQ01+000003PRSWM1Q02    003PRSWM1
0245477160999992000102305004+36030+140200FM-15+0029RJAK V0203201N000510030019N0025001N1+01801+01701999999ADDGA1021+001509999GA2071+003009999GA3081+007509999GF108991999999999999999999MA1101801999999MW1101MW2611REMMET097RJAK 230500Z 32001KT 2500 -RA BR SCT005 BKN010 OVC025 18/17 Q1018 RMK 3ST005 6ST010 8SC025 A3007;EQDQ01+000003PRSWM1Q02    003PRSWM1
0293477160999992000102306004+36030+140200FM-15+0029RJAK V0209999C000010060019N0025001N1+01801+01801999999ADDGA1021+002709999GA2071+006009999GA3081+010509999GF108991999999999999999999MA1101801999999MW1101MW2611REMMET145RJAK 230600Z 00000KT 2500 -RA BR FEW009 BKN020 OVC035 18/18 Q1018 RMK 2ST009 6SC020 8SC035 A3006 FCST 0615 TEMPO 0712 FEW006ST BKN010SC OVC025SC;EQDQ01+000003PRSWM1Q02    003PRSWM1
0245477160999992000102307004+36030+140200FM-15+0029RJAK V0202001N000510060019N0025001N1+01701+01701999999ADDGA1021+003009999GA2071+006009999GA3081+012009999GF108991999999999999999999MA1101801999999MW1101MW2611REMMET097RJAK 230700Z 20001KT 2500 -RA BR FEW010 BKN020 OVC040 17/17 Q1018 RMK 2ST010 6SC020 8SC040 A3007;EQDQ01+000003PRSWM1Q02    003PRSWM1
0293477160999992000102308004+36030+140200FM-15+0029RJAK V0203101N000510045019N0018001N1+01701+01701999999ADDGA1021+003009999GA2071+004509999GA3081+009009999GF108991999999999999999999MA1101801999999MW1101MW2611REMMET145RJAK 230800Z 31001KT 1800 -RA BR FEW010 BKN015 OVC030 17/17 Q1018 RMK 2ST010 6SC015 8SC030 A3008 FCST 0817 TEMPO 0915 FEW006ST BKN010SC OVC030SC;EQDQ01+000003PRSWM1Q02    003PRSWM1
0205477160999992000102322004+36030+140200FM-15+0029RJAK V0201701N001512200019N0035001N1+01401+01401999999ADDGA1021+002409999GA2021+003609999GF104991999999999999999999MA1101901999999MW1101REMMET079RJAK 232200Z 17003KT 3500 BR FEW008 SCT012 14/14 Q1019 RMK 2ST008 4ST012 A3009;EQDQ01+000003PRSWM1Q02    003PRSWM1
0175477160999992000102322304+36030+140200FM-15+0029RJAK V0200501N002112200019N0050001N1+01601+01501999999ADDGA1021+002709999GF102991999999999999999999MA1101901999999MW1101REMMET065RJAK 232230Z 05004KT 5000 BR FEW009 16/15 Q1019 RMK 2ST009 A3011;EQDQ01+000003PRSWM1Q02    003PRSWM1
0172477160999992000102323004+36030+140200FM-15+0029RJAK V0200601N002112200019N0060001N1+01601+01501999999ADDGA1021+002709999GF102991999999999999999999MA1101901999999MW1001REMMET078RJAK 232300Z 06004KT 6000 FEW009 16/15 Q1019 RMK 2ST009 A3011 FCST 2308 NOSIG;EQDQ01+000000PRSWM2
0188477160999992000102400004+36030+140200FM-15+0029RJAK V0200401N003612200019N0112651N1+01901+01401999999ADDGA1021+003609999GF102991999999999999999999MA1102001999999MW1001REMMET094RJAK 240000Z 04007KT 9999 FEW012 19/14 Q1020 RMK 1CU012 A3013 FCST 0009 TEMPO 0106 06010G20KT;EQDQ01+000000PRSWM2
0167477160999992000102401004+36030+140200FM-15+0029RJAK V0200501N005712200019N0112651N1+02101+01201999999ADDGA1021+005409999GF102991999999999999999999MA1102101999999MW1001OC101081REMMET065RJAK 240100Z 05011G21KT 9999 FEW018 21/12 Q1021 RMK 2CU018 A3015;EQDQ01+000000PRSWM2
0156477160999992000102402004+36030+140200FM-15+0029RJAK V0200701N006212200019N0112651N1+02101+01201999999ADDGA1021+007509999GF102991999999999999999999MA1102101999999MW1001REMMET062RJAK 240200Z 07012KT 9999 FEW025 21/12 Q1021 RMK 2CU025 A3015;EQDQ01+000000PRSWM2
0188477160999992000102403004+36030+140200FM-15+0029RJAK V0200801N006712200019N0112651N1+02101+01201999999ADDGA1021+007509999GF102991999999999999999999MA1102001999999MW1001REMMET094RJAK 240300Z 08013KT 9999 FEW025 21/12 Q1020 RMK 2CU025 A3013 FCST 0312 TEMPO 0306 10010G20KT;EQDQ01+000000PRSWM2
0156477160999992000102404004+36030+140200FM-15+0029RJAK V0200801N007712200019N0112651N1+02101+01101999999ADDGA1021+009009999GF102991999999999999999999MA1102001999999MW1001REMMET062RJAK 240400Z 08015KT 9999 FEW030 21/11 Q1020 RMK 2CU030 A3012;EQDQ01+000000PRSWM2
0156477160999992000102405004+36030+140200FM-15+0029RJAK V0200801N006712200019N0112651N1+02101+01201999999ADDGA1021+007509999GF102991999999999999999999MA1102001999999MW1001REMMET062RJAK 240500Z 08013KT 9999 FEW025 21/12 Q1020 RMK 1CU025 A3013;EQDQ01+000000PRSWM2
0195477160999992000102406004+36030+140200FM-15+0029RJAK V0200701N007212200019N0112651N1+02001+01201999999ADDGA1021+007509999GF102991999999999999999999MA1102001999999MW1001REMMET101RJAK 240600Z 07014KT 9999 FEW025 20/12 Q1020 RMK 1CU025 A3014 FCST 0615 TEMPO 0915 FEW020CU BKN045SC;EQDQ01+000000PRSWM2
0156477160999992000102407004+36030+140200FM-15+0029RJAK V0200701N006212200019N0112651N1+01901+01201999999ADDGA1021+007509999GF102991999999999999999999MA1102101999999MW1001REMMET062RJAK 240700Z 07012KT 9999 FEW025 19/12 Q1021 RMK 1CU025 A3015;EQDQ01+000000PRSWM2
0245477160999992000102408004+36030+140200FM-15+0029RJAK V0200801N005112200019N0112651N1+01701+01201999999ADDGA1021+006009999GA2021+036009999GF104991999999999999999999MA1102101999999MW1001REMMET135RJAK 240800Z 08010KT 9999 FEW020 SCT120 17/12 Q1021 RMK 1CU020 3AC120 A3017 FCST 0817 TEMPO 1013 BKN120AC TEMPO 1317 BKN035SC BKN120AC;EQDQ01+000000PRSWM2
0216477160999992000102422004+36030+140200FM-15+0029RJAK V0209999C000010135019N0112651N1+01401+01201999999ADDGA1021+006009999GA2071+013509999GA3071+030009999GF107991999999999999999999MA1101901999999MW1001REMMET090RJAK 242200Z 00000KT 9999 FEW020 BKN045 BKN100 14/12 Q1019 RMK 1CU020 5SC045 7AC100 A3010;EQDQ01+000000PRSWM2
0296477160999992000102423004+36030+140200FM-15+0029RJAK V0202301N000510120019N0112651N1+01501+01201999999ADDGA1021+006009999GA2071+012009999GA3071+024009999GF107991999999999999999999MA1101901999999MW1611REMMET154RJAK 242300Z 23001KT 9999 -RA FEW020 BKN040 BKN080 15/12 Q1019 RMK 1CU020 5SC040 7AC080 A3010 FCST 2308 TEMPO 2303 BR TEMPO 0208 19010G20KT TEMPO 0308 BR;EQDQ01+000003PRSWM1Q02    003PRSWM1
0308477160999992000102500004+36030+140200FM-15+0029RJAK V0202501N000510120019N0060001N1+01601+01301999999ADDGA1021+006009999GA2071+012009999GA3071+024009999GF107991999999999999999999MA1101901999999MW1611REMMET166RJAK 250000Z 25001KT 6000 -RA FEW020 BKN040 BKN080 16/13 Q1019 RMK 1CU020 6SC040 7AC080 A3010 FCST 0009 TEMPO 0006 BR BECMG 0103 FEW020CU BKN030SC TEMPO 0609 4000 BR;EQDQ01+000003PRSWM1Q02    003PRSWM1
0245477160999992000102501004+36030+140200FM-15+0029RJAK V0202801N001010120019N0050001N1+01601+01401999999ADDGA1021+006009999GA2021+009009999GA3071+012009999GF107991999999999999999999MA1101801999999MW1101MW2611REMMET097RJAK 250100Z 28002KT 5000 -RA BR FEW020 SCT030 BKN040 16/14 Q1018 RMK 1CU020 3SC030 7SC040 A3007;EQDQ01+000003PRSWM1Q02    003PRSWM1
0245477160999992000102502004+36030+140200FM-15+0029RJAK V0202901N001510090019N0050001N1+01601+01501999999ADDGA1021+005409999GA2071+009009999GA3081+012009999GF108991999999999999999999MA1101691999999MW1101MW2611REMMET097RJAK 250200Z 29003KT 5000 -RA BR SCT018 BKN030 OVC040 16/15 Q1017 RMK 3CU018 5SC030 8SC040 A3005;EQDQ01+000003PRSWM1Q02    003PRSWM1
0245477160999992000102502104+36030+140200FM-16+0029RJAK V0202801N001510090019N0040001N1+01601+01501999999ADDGA1021+005409999GA2071+009009999GA3081+012009999GF108991999999999999999999MA1101691999999MW1101MW2611REMMET097RJAK 250210Z 28003KT 4000 -RA BR SCT018 BKN030 OVC040 16/15 Q1017 RMK 3CU018 5SC030 8SC040 A3004;EQDQ01+000003PRSWM1Q02    003PRSWM1
0271477160999992000102503004+36030+140200FM-15+0029RJAK V0202701N001510090019N0050001N1+01601+01501999999ADDGA1021+002409999GA2021+004509999GA3071+009009999GF107991999999999999999999MA1101591999999MW1101MW2611REMMET123RJAK 250300Z 27003KT 5000 -RA BR FEW008 SCT015 BKN030 16/15 Q1016 RMK 2ST008 3SC015 7SC030 A3002 FCST 0312 TEMPO 0612 4000;EQDQ01+000003PRSWM1Q02    003PRSWM1
0245477160999992000102504004+36030+140200FM-15+0029RJAK V0202701N001510090019N0040001N1+01601+01501999999ADDGA1021+001809999GA2021+004209999GA3081+009009999GF108991999999999999999999MA1101491999999MW1101MW2611REMMET097RJAK 250400Z 27003KT 4000 -RA BR FEW006 SCT014 OVC030 16/15 Q1015 RMK 2ST006 4SC014 8SC030 A2998;EQDQ01+000003PRSWM1Q02    003PRSWM1
0235477160999992000102505004+36030+140200FM-15+0029RJAK V0202301N001510240019N0045001N1+01701+01501999999ADDGA1021+004509999GA2021+009009999GA3071+024009999GF107991999999999999999999MA1101391999999MW1101REMMET093RJAK 250500Z 23003KT 4500 BR FEW015 SCT030 BKN080 17/15 Q1014 RMK 1SC015 4SC030 6AC080 A2994;EQDQ01+000003PRSWM1Q02    003PRSWM1
0205477160999992000102505204+36030+140200FM-15+0029RJAK V0202401N002110045019N0050001N1+01701+01501999999ADDGA1071+004509999GA2081+009009999GF108991999999999999999999MA1101391999999MW1101REMMET079RJAK 250520Z 24004KT 5000 BR BKN015 OVC030 17/15 Q1014 RMK 5SC015 8SC030 A2994;EQDQ01+000003PRSWM1Q02    003PRSWM1
0238477160999992000102506004+36030+140200FM-15+0029RJAK V0202301N001510045019N0050001N1+01801+01501999999ADDGA1071+004509999GA2081+009009999GF108991999999999999999999MA1101291999999MW1101REMMET112RJAK 250600Z 23003KT 5000 BR BKN015 OVC030 18/15 Q1013 RMK 6SC015 8SC030 A2993 FCST 0615 TEMPO 0814 4000 -RA BR;EQDQ01+000003PRSWM1Q02    003PRSWM1
0205477160999992000102507004+36030+140200FM-15+0029RJAK V0202201N001510045019N0045001N1+01801+01501999999ADDGA1071+004509999GA2071+024009999GF107991999999999999999999MA1101191999999MW1101REMMET079RJAK 250700Z 22003KT 4500 BR BKN015 BKN080 18/15 Q1012 RMK 6SC015 5AC080 A2989;EQDQ01+000003PRSWM1Q02    003PRSWM1
0261477160999992000102508004+36030+140200FM-15+0029RJAK V0203201N000510045019N0035001N1+01801+01601999999ADDGA1071+004509999GA2021+009009999GA3071+024009999GF107991999999999999999999MA1101191999999MW1101MW2611REMMET113RJAK 250800Z 32001KT 3500 -RA BR BKN015 SCT030 BKN080 18/16 Q1012 RMK 6SC015 3SC030 7AC080 A2989 FCST 0817 NOSIG;EQDQ01+000003PRSWM1Q02    003PRSWM1
0205477160999992000102522004+36030+140200FM-15+0029RJAK V0203101N001012200019N0025001N1+01601+01401999999ADDGA1021+007509999GA2021+060009999GF104991999999999999999999MA1100911999999MW1101REMMET079RJAK 252200Z 31002KT 2500 BR FEW025 SCT200 16/14 Q1009 RMK 1CU025 3CI200 A2980;EQDQ01+000003PRSWM1Q02    003PRSWM1
0268477160999992000102523004+36030+140200FM-15+0029RJAK V0203401N000512200019N0040001N1+01801+01501999999ADDGA1021+007509999GA2021+060009999GF104991999999999999999999MA1100911999999MW1101REMMET142RJAK 252300Z 34001KT 4000 BR FEW025 SCT200 18/15 Q1009 RMK 1CU025 4CI200 A2981 FCST 2308 BECMG 2300 5000 BECMG 0001 NSW TEMPO 0408 01010G20KT;EQDQ01+000003PRSWM1Q02    003PRSWM1
0186477160999992000102523404+36030+140200FM-16+0029RJAK V0200101N001512200019N0070001N1+02101+01601999999ADDGA1021+007509999GA2021+066009999GF104991999999999999999999MA1100911999999MW1001REMMET076RJAK 252340Z 01003KT 7000 FEW025 SCT220 21/16 Q1009 RMK 2CU025 4CI220 A2981;EQDQ01+000000PRSWM2
0264477160999992000102600004+36030+140200FM-15+0029RJAK V0203501N000510660019N9999999N1+02201+01601999999ADDGA1021+007509999GA2021+036009999GA3071+066009999GF107991999999999999999999MA1101021999999MW1001REMMET122RJAK 260000Z 35001KT 7000 FEW025 SCT120 BKN220 22/16 Q1010 RMK 1CU025 3AC120 5CI220 A2984 FCST 0009 TEMPO 0409 01010G20KT;EQDQ01+070002VODIS Q02+000000PRSWM2
0216477160999992000102601004+36030+140200FM-15+0029RJAK V0200301N003610660019N0112651N1+02301+01501999999ADDGA1021+007509999GA2021+036009999GA3071+066009999GF107991999999999999999999MA1101021999999MW1001REMMET090RJAK 260100Z 03007KT 9999 FEW025 SCT120 BKN220 23/15 Q1010 RMK 2CU025 3AC120 6CI220 A2985;EQDQ01+000000PRSWM2
0216477160999992000102602004+36030+140200FM-15+0029RJAK V0200401N004610660019N0112651N1+02401+01401999999ADDGA1021+007509999GA2021+012009999GA3071+066009999GF107991999999999999999999MA1101081999999MW1001REMMET090RJAK 260200Z 04009KT 9999 FEW025 SCT040 BKN220 24/14 Q1011 RMK 1CU025 3SC040 5CI220 A2986;EQDQ01+000000PRSWM2
0218477160999992000102603004+36030+140200FM-15+0029RJAK V0200601N003112200019N0112651N1+02301+01401999999ADDGA1021+007509999GA2021+012009999GF104991999999999999999999MA1101021999999MW1001REMMET108RJAK 260300Z 06006KT 9999 FEW025 SCT040 23/14 Q1010 RMK 1CU025 3SC040 A2984 FCST 0312 TEMPO 0309 06010G20KT;EQDQ01+000000PRSWM2
0216477160999992000102604004+36030+140200FM-15+0029RJAK V0200801N002610360019N0112651N1+02301+01301999999ADDGA1021+007509999GA2021+012009999GA3071+036009999GF107991999999999999999999MA1101021999999MW1001REMMET090RJAK 260400Z 08005KT 9999 FEW025 SCT040 BKN120 23/13 Q1010 RMK 2CU025 4SC040 6AC120 A2985;EQDQ01+000000PRSWM2
0216477160999992000102605004+36030+140200FM-15+0029RJAK V0200701N003610660019N0112651N1+02401+01501999999ADDGA1021+009009999GA2021+015009999GA3071+066009999GF107991999999999999999999MA1101081999999MW1001REMMET090RJAK 260500Z 07007KT 9999 FEW030 SCT050 BKN220 24/15 Q1011 RMK 1CU030 3SC050 6CI220 A2987;EQDQ01+000000PRSWM2
0232477160999992000102606004+36030+140200FM-15+0029RJAK V0200801N005110660019N0112651N1+02301+01501999999ADDGA1021+009009999GA2021+036009999GA3071+066009999GF107991999999999999999999MA1101191999999MW1001REMMET106RJAK 260600Z 08010KT 9999 FEW030 SCT120 BKN220 23/15 Q1012 RMK 1CU030 3AC120 6CI220 A2989 FCST 0615 NOSIG;EQDQ01+000000PRSWM2
0186477160999992000102607004+36030+140200FM-15+0029RJAK V0200801N004610660019N0112651N1+02101+01401999999ADDGA1021+009009999GA2071+066009999GF107991999999999999999999MA1101291999999MW1001REMMET076RJAK 260700Z 08009KT 9999 FEW030 BKN220 21/14 Q1013 RMK 1CU030 7CI220 A2992;EQDQ01+000000PRSWM2
0255477160999992000102608004+36030+140200FM-15+0029RJAK V0201101N003110660019N0112651N1+01901+01301999999ADDGA1021+009009999GA2021+015009999GA3071+066009999GF107991999999999999999999MA1101391999999MW1001REMMET129RJAK 260800Z 11006KT 9999 FEW030 SCT050 BKN220 19/13 Q1014 RMK 1CU030 3SC050 5CI220 A2995 FCST 0817 TEMPO 0912 FEW030CU BKN050SC;EQDQ01+000000PRSWM2
0186477160999992000102622004+36030+140200FM-15+0029RJAK V0200801N000510135019N0112651N1+01201+00501999999ADDGA1021+010509999GA2071+013509999GF107991999999999999999999MA1102401999999MW1001REMMET076RJAK 262200Z 08001KT 9999 FEW035 BKN045 12/05 Q1024 RMK 2SC035 5SC045 A3024;EQDQ01+000000PRSWM2
0215477160999992000102623004+36030+140200FM-15+0029RJAK V0200501N00151220001CN0112651N1+01301+00501999999ADDGA1071+015009999GA2021+024009999MA1102511999999MW1001REMMET115RJAK 262300Z 05003KT 9999 BKN050 SCT080 13/05 Q1025 RMK 6SC050 3AC080 A3027 FCST 2308 BECMG 0002 FEW030SC SCT050SC;EQDQ01+000042SCOTCVQ02+000000PRSWM2
0186477160999992000102623204+36030+140200FM-15+0029RJAK V0200601N001512200019N0112651N1+01301+00401999999ADDGA1021+015009999GA2021+024009999GF104991999999999999999999MA1102511999999MW1001REMMET076RJAK 262320Z 06003KT 9999 FEW050 SCT080 13/04 Q1025 RMK 2SC050 3AC080 A3027;EQDQ01+000000PRSWM2
0172477160999992000102700004+36030+140200FM-15+0029RJAK V0200501N002112200019N0112651N1+01501+00401999999ADDGA1021+015009999GF102991999999999999999999MA1102511999999MW1001REMMET078RJAK 270000Z 05004KT 9999 FEW050 15/04 Q1025 RMK 1SC050 A3027 FCST 0009 NOSIG;EQDQ01+000000PRSWM2
0186477160999992000102701004+36030+140200FM-15+0029RJAK V0200501N001512200019N0112651N1+01501+00401999999ADDGA1021+007509999GA2021+042009999GF104991999999999999999999MA1102401999999MW1001REMMET076RJAK 270100Z 05003KT 9999 FEW025 SCT140 15/04 Q1024 RMK 1CU025 4AC140 A3026;EQDQ01+000000PRSWM2
0186477160999992000102702004+36030+140200FM-15+0029RJAK V02099999999990450019N0112651N1+01601+00501999999ADDGA1021+009009999GA2071+045009999GF107991999999999999999999MA1102401999999MW1001REMMET076RJAK 270200Z VRB03KT 9999 FEW030 BKN150 16/05 Q1024 RMK 1CU030 5AC150 A3025;EQDQ01+000000PRSWM2
0202477160999992000102703004+36030+140200FM-15+0029RJAK V02099999999990450019N0112651N1+01701+00401999999ADDGA1021+009009999GA2071+045009999GF107991999999999999999999MA1102301999999MW1001REMMET092RJAK 270300Z VRB02KT 9999 FEW030 BKN150 17/04 Q1023 RMK 1CU030 6AC150 A3023 FCST 0312 NOSIG;EQDQ01+000000PRSWM2
0186477160999992000102705004+36030+140200FM-15+0029RJAK V0201001N001512200019N0112651N1+01701+00401999999ADDGA1021+015009999GA2021+045009999GF104991999999999999999999MA1102301999999MW1001REMMET076RJAK 270500Z 10003KT 9999 FEW050 SCT150 17/04 Q1023 RMK 1SC050 4AC150 A3021;EQDQ01+000000PRSWM2
0202477160999992000102706004+36030+140200FM-15+0029RJAK V0201001N001512200019N0112651N1+01801+00501999999ADDGA1021+015009999GA2021+045009999GF104991999999999999999999MA1102301999999MW1001REMMET092RJAK 270600Z 10003KT 9999 FEW050 SCT150 18/05 Q1023 RMK 1SC050 3AC150 A3022 FCST 0615 NOSIG;EQDQ01+000000PRSWM2
0156477160999992000102707004+36030+140200FM-15+0029RJAK V0201501N002612200019N0112651N1+01701+00501999999ADDGA1021+012009999GF102991999999999999999999MA1102301999999MW1001REMMET062RJAK 270700Z 15005KT 9999 FEW040 17/05 Q1023 RMK 1SC040 A3023;EQDQ01+000000PRSWM2
0172477160999992000102708004+36030+140200FM-15+0029RJAK V0201401N002112200019N0112651N1+01501+00601999999ADDGA1021+018009999GF102991999999999999999999MA1102401999999MW1001REMMET078RJAK 270800Z 14004KT 9999 FEW060 15/06 Q1024 RMK 1SC060 A3024 FCST 0817 NOSIG;EQDQ01+000000PRSWM2
0186477160999992000102722004+36030+140200FM-15+0029RJAK V0203401N001012200019N0112651N1+01901+01701999999ADDGA1021+009009999GA2021+063009999GF104991999999999999999999MA1102511999999MW1001REMMET076RJAK 272200Z 34002KT 9999 FEW030 SCT210 19/17 Q1025 RMK 1CU030 4CI210 A3028;EQDQ01+000000PRSWM2
0232477160999992000102723004+36030+140200FM-15+0029RJAK V0203101N001010300019N0112651N1+02001+01801999999ADDGA1021+012009999GA2071+030009999GA3071+063009999GF107991999999999999999999MA1102511999999MW1001REMMET106RJAK 272300Z 31002KT 9999 FEW040 BKN100 BKN210 20/18 Q1025 RMK 2SC040 5AC100 6CI210 A3029 FCST 2308 NOSIG;EQDQ01+000000PRSWM2
0175477160999992000102922004+36030+140200FM-15+0029RJAK V0202701N001010051019N0050001N1+01201+01101999999ADDGA1081+005109999GF108991999999999999999999MA1100811999999MW1101REMMET065RJAK 292200Z 27002KT 5000 BR OVC017 12/11 Q1008 RMK 8SC017 A2978;EQDQ01+000003PRSWM1Q02    003PRSWM1
0307477160999992000102923004+36030+140200FM-15+0029RJAK V0203001N002110051019N0050001N1+01201+01101999999ADDGA1071+005109999GA2081+015009999GF108991999999999999999999MA1100911999999MW1101MW2611REMMET175RJAK 292300Z 30004KT 5000 -RA BR BKN017 OVC050 12/11 Q1009 RMK 7SC017 8SC050 A2981 FCST 2308 BECMG 2300 NSW BECMG 0103 FEW020SC BKN035SC BECMG 0406 FEW020SC SCT035SC SCT100AC;EQDQ01+000003PRSWM1Q02    003PRSWM1
0297477160999992000103000004+36030+140200FM-15+0029RJAK V0203201N002610060019N0050001N1+01301+01101999999ADDGA1021+004509999GA2081+006009999GF108991999999999999999999MA1101021999999MW1101REMMET171RJAK 300000Z 32005KT 5000 BR FEW015 OVC020 13/11 Q1010 RMK 1SC015 8SC020 A2984 FCST 0009 BECMG 0001 NSW BECMG 0103 SCT020SC BKN035SC BECMG 0406 FEW020SC SCT035SC SCT100AC;EQDQ01+000003PRSWM1Q02    003PRSWM1
0205477160999992000103000114+36030+140200FM-16+0029RJAK V0203501N002610060019N0040001N1+01301+01101999999ADDGA1021+004509999GA2081+006009999GF108991999999999999999999MA1101021999999MW1101REMMET079RJAK 300011Z 35005KT 4000 BR FEW015 OVC020 13/11 Q1010 RMK 1CU015 8SC020 A2985;EQDQ01+000003PRSWM1Q02    003PRSWM1
0235477160999992000103001004+36030+140200FM-15+0029RJAK V0200701N000510240019N0050001N1+01301+01101999999ADDGA1021+004509999GA2021+006009999GA3081+024009999GF108991999999999999999999MA1101081999999MW1101REMMET093RJAK 300100Z 07001KT 5000 BR FEW015 SCT020 OVC080 13/11 Q1011 RMK 1CU015 4SC020 8AC080 A2986;EQDQ01+000003PRSWM1Q02    003PRSWM1
0186477160999992000103002004+36030+140200FM-15+0029RJAK V0200301N002610270019N0112651N1+01401+01101999999ADDGA1021+006009999GA2071+027009999GF107991999999999999999999MA1101081999999MW1001REMMET076RJAK 300200Z 03005KT 9999 FEW020 BKN090 14/11 Q1011 RMK 1CU020 7AC090 A2987;EQDQ01+000000PRSWM2
0264477160999992000103003004+36030+140200FM-15+0029RJAK V0200501N002110300019N0112651N1+01501+01101999999ADDGA1021+006009999GA2021+024009999GA3071+030009999GF107991999999999999999999MA1101081999999MW1001REMMET138RJAK 300300Z 05004KT 9999 FEW020 SCT080 BKN100 15/11 Q1011 RMK 1CU020 3AC080 7AC100 A2988 FCST 0312 BECMG 0608 FEW020SC FEW050SC SCT100AC;EQDQ01+000000PRSWM2
0216477160999992000103004004+36030+140200FM-15+0029RJAK V0200701N002110300019N0112651N1+01601+01001999999ADDGA1021+006009999GA2021+024009999GA3071+030009999GF107991999999999999999999MA1101191999999MW1001REMMET090RJAK 300400Z 07004KT 9999 FEW020 SCT080 BKN100 16/10 Q1012 RMK 1CU020 3AC080 5AC100 A2989;EQDQ01+000000PRSWM2
0186477160999992000103004254+36030+140200FM-15+0029RJAK V0200901N002112200019N0112651N1+01701+00901999999ADDGA1021+006009999GA2021+036009999GF104991999999999999999999MA1101191999999MW1001REMMET076RJAK 300425Z 09004KT 9999 FEW020 SCT120 17/09 Q1012 RMK 1CU020 3AC120 A2989;EQDQ01+000000PRSWM2
0156477160999992000103005004+36030+140200FM-15+0029RJAK V0200801N002112200019N0112651N1+01801+00901999999ADDGA1021+006009999GF102991999999999999999999MA1101191999999MW1001REMMET062RJAK 300500Z 08004KT 9999 FEW020 18/09 Q1012 RMK 1CU020 A2990;EQDQ01+000000PRSWM2
0172477160999992000103006004+36030+140200FM-15+0029RJAK V0200801N003612200019N0112651N1+01801+00901999999ADDGA1021+007509999GF102991999999999999999999MA1101291999999MW1001REMMET078RJAK 300600Z 08007KT 9999 FEW025 18/09 Q1013 RMK 1CU025 A2992 FCST 0615 NOSIG;EQDQ01+000000PRSWM2
0186477160999992000103007004+36030+140200FM-15+0029RJAK V0200801N003112200019N0112651N1+01701+00901999999ADDGA1021+007509999GA2021+060009999GF104991999999999999999999MA1101391999999MW1001REMMET076RJAK 300700Z 08006KT 9999 FEW025 SCT200 17/09 Q1014 RMK 1CU025 3CI200 A2997;EQDQ01+000000PRSWM2
0202477160999992000103008004+36030+140200FM-15+0029RJAK V0200901N003112200019N0112651N1+01601+01001999999ADDGA1021+006009999GA2021+015009999GF104991999999999999999999MA1101491999999MW1001REMMET092RJAK 300800Z 09006KT 9999 FEW020 SCT050 16/10 Q1015 RMK 1CU020 3SC050 A2999 FCST 0817 NOSIG;EQDQ01+000000PRSWM2
0186477160999992000103022004+36030+140200FM-15+0029RJAK V0202801N001512200019N0112651N1+00901+00501999999ADDGA1021+012009999GA2021+069009999GF104991999999999999999999MA1102611999999MW1001REMMET076RJAK 302200Z 28003KT 9999 FEW040 SCT230 09/05 Q1026 RMK 1SC040 3CI230 A3031;EQDQ01+000000PRSWM2
0225477160999992000103023004+36030+140200FM-15+0029RJAK V0203001N001512200019N0112651N1+01101+00701999999ADDGA1021+036009999GA2021+069009999GF104991999999999999999999MA1102611999999MW1001REMMET115RJAK 302300Z 30003KT 9999 FEW120 SCT230 11/07 Q1026 RMK 1AC120 4CI230 A3032 FCST 2308 TEMPO 0708 SCT040SC BKN100AC;EQDQ01+000000PRSWM2
0234477160999992000103100004+36030+140200FM-15+0029RJAK V0203101N001012200019N0112651N1+01401+00701999999ADDGA1021+036009999GA2021+069009999GF104991999999999999999999MA1102711999999MW1001REMMET124RJAK 310000Z 31002KT 9999 FEW120 SCT230 14/07 Q1027 RMK 1AC120 3CI230 A3033 FCST 0009 TEMPO 0709 FEW025SC SCT040SC BKN100AC;EQDQ01+000000PRSWM2
0186477160999992000103101004+36030+140200FM-15+0029RJAK V0200501N002612200019N0112651N1+01601+00801999999ADDGA1021+007509999GA2021+069009999GF104991999999999999999999MA1102611999999MW1001REMMET076RJAK 310100Z 05005KT 9999 FEW025 SCT230 16/08 Q1026 RMK 1CU025 3CI230 A3032;EQDQ01+000000PRSWM2
0186477160999992000103102004+36030+140200FM-15+0029RJAK V0200701N003110690019N0112651N1+01601+00701999999ADDGA1021+007509999GA2071+069009999GF107991999999999999999999MA1102611999999MW1001REMMET076RJAK 310200Z 07006KT 9999 FEW025 BKN230 16/07 Q1026 RMK 1CU025 6CS230 A3031;EQDQ01+000000PRSWM2
0234477160999992000103103004+36030+140200FM-15+0029RJAK V0200801N002110690019N0112651N1+01701+00801999999ADDGA1021+009009999GA2071+069009999GF107991999999999999999999MA1102611999999MW1001REMMET124RJAK 310300Z 08004KT 9999 FEW030 BKN230 17/08 Q1026 RMK 1CU030 6CS230 A3030 FCST 0312 BECMG 0709 FEW030SC SCT040SC BKN100AC;EQDQ01+000000PRSWM2
0186477160999992000103104004+36030+140200FM-15+0029RJAK V0200501N002610690019N0112651N1+01801+00701999999ADDGA1021+009009999GA2071+069009999GF107991999999999999999999MA1102511999999MW1001REMMET076RJAK 310400Z 05005KT 9999 FEW030 BKN230 18/07 Q1025 RMK 1CU030 5CI230 A3027;EQDQ01+000000PRSWM2
0186477160999992000103105004+36030+140200FM-15+0029RJAK V0201201N003110690019N0112651N1+01801+00801999999ADDGA1021+009009999GA2071+069009999GF107991999999999999999999MA1102511999999MW1001REMMET076RJAK 310500Z 12006KT 9999 FEW030 BKN230 18/08 Q1025 RMK 1CU030 6CI230 A3027;EQDQ01+000000PRSWM2
0272477160999992000103106004+36030+140200FM-15+0029RJAK V0200901N003610690019N0112651N1+01801+00801999999ADDGA1021+007509999GA2071+069009999GF107991999999999999999999MA1102511999999MW1001REMMET162RJAK 310600Z 09007KT 9999 FEW025 BKN230 18/08 Q1025 RMK 1CU025 6CI230 A3027 FCST 0615 BECMG 0709 FEW025SC SCT040SC BKN100AC BECMG 1315 BKN025SC BKN040SC OVC100AC;EQDQ01+000000PRSWM2
0186477160999992000103107004+36030+140200FM-15+0029RJAK V0200901N002610690019N0112651N1+01601+00801999999ADDGA1021+007509999GA2071+069009999GF107991999999999999999999MA1102511999999MW1001REMMET076RJAK 310700Z 09005KT 9999 FEW025 BKN230 16/08 Q1025 RMK 1CU025 5CI230 A3028;EQDQ01+000000PRSWM2
0317477160999992000103108004+36030+140200FM-15+0029RJAK V0200901N002110690019N0112651N1+01501+00901999999ADDGA1021+007509999GA2021+036009999GA3071+069009999GF107991999999999999999999MA1102511999999MW1001REMMET191RJAK 310800Z 09004KT 9999 FEW025 SCT120 BKN230 15/09 Q1025 RMK 1CU025 4AC120 6CI230 A3028 FCST 0817 BECMG 0810 FEW025CU BKN120AC BKN230CI BECMG 1315 BKN025SC BKN040SC OVC120AC TEMPO 1517 -RA;EQDQ01+000000PRSWM2
0285477160999992000103123004+36030+140200FM-15+0029RJAK V0203301N000510021019N0012001N1+01301+01201999999ADDGA1021+000909999GA2071+002109999GA3081+004509999GF108991999999999999999999MA1102201999999MW1101MW2611REMMET137RJAK 312300Z 33001KT 1200 -RA BR SCT003 BKN007 OVC015 13/12 Q1022 RMK 3ST003 5ST007 8SC015 A3019 FCST 2308 BECMG 0002 3000 TEMPO 0206 BR;EQDQ01+000003PRSWM1Q02    003PRSWM1
0312477160999992000110100004+36030+140200FM-15+0029RJAK V0203501N001510024019N0012001N1+01301+01301999999ADDGA1021+000909999GA2071+002409999GA3081+004509999GF108991999999999999999999MA1102101999999MW1101MW2611REMMET164RJAK 010000Z 35003KT 1200 -RA BR SCT003 BKN008 OVC015 13/13 Q1021 RMK 3ST003 6ST008 8SC015 A3016 FCST 0009 BECMG 0002 3000 TEMPO 0206 BR FEW008ST SCT015SC BKN025SC;EQDQ01+000003PRSWM1Q02    003PRSWM1
0235477160999992000110100424+36030+140200FM-16+0029RJAK V0203401N001010024019N0012001N1+01401+01401999999ADDGA1021+000909999GA2071+002409999GA3081+004509999GF108991999999999999999999MA1102001999999MW1101REMMET093RJAK 010042Z 34002KT 1200 BR SCT003 BKN008 OVC015 14/14 Q1020 RMK 3ST003 6ST008 8SC015 A3013;EQDQ01+000003PRSWM1Q02    003PRSWM1
0235477160999992000110101004+36030+140200FM-15+0029RJAK V0203001N001510024019N0013001N1+01401+01401999999ADDGA1021+001209999GA2071+002409999GA3081+004509999GF108991999999999999999999MA1102001999999MW1101REMMET093RJAK 010100Z 30003KT 1300 BR SCT004 BKN008 OVC015 14/14 Q1020 RMK 3ST004 6ST008 8SC015 A3013;EQDQ01+000003PRSWM1Q02    003PRSWM1
0245477160999992000110102004+36030+140200FM-15+0029RJAK V0203001N001510024019N0013001N1+01401+01401999999ADDGA1021+000909999GA2071+002409999GA3081+004509999GF108991999999999999999999MA1101901999999MW1101MW2611REMMET097RJAK 010200Z 30003KT 1300 -RA BR SCT003 BKN008 OVC015 14/14 Q1019 RMK 4ST003 6ST008 8SC015 A3009;EQDQ01+000003PRSWM1Q02    003PRSWM1
0271477160999992000110103004+36030+140200FM-15+0029RJAK V0202901N002110024019N0011001N1+01401+01401999999ADDGA1021+000909999GA2081+002409999GF108991999999999999999999MA1101801999999MW1101MW2611REMMET139RJAK 010300Z 29004KT 1100 -RA BR SCT003 OVC008 14/14 Q1018 RMK 3ST003 8ST008 A3006 FCST 0312 TEMPO 0507 2000 BR FEW003ST SCT008ST BKN012ST;EQDQ01+000003PRSWM1Q02    003PRSWM1
0215477160999992000110104004+36030+140200FM-15+0029RJAK V0203001N001510024019N0015001N1+01401+01401999999ADDGA1021+001509999GA2081+002409999GF108991999999999999999999MA1101591999999MW1101MW2611REMMET083RJAK 010400Z 30003KT 1500 -RA BR SCT005 OVC008 14/14 Q1016 RMK 4ST005 8ST008 A3002;EQDQ01+000003PRSWM1Q02    003PRSWM1
0215477160999992000110105004+36030+140200FM-15+0029RJAK V0203101N001510009019N0012001N1+01501+01501999999ADDGA1071+000909999GA2081+002409999GF108991999999999999999999MA1101591999999MW1101MW2611REMMET083RJAK 010500Z 31003KT 1200 -RA BR BKN003 OVC008 15/15 Q1016 RMK 5ST003 8ST008 A3002;EQDQ01+000003PRSWM1Q02    003PRSWM1
0231477160999992000110106004+36030+140200FM-15+0029RJAK V0203601N002110006019N0011001N1+01501+01501999999ADDGA1071+000609999GA2081+002109999GF108991999999999999999999MA1101591999999MW1101MW2611REMMET099RJAK 010600Z 36004KT 1100 -RA BR BKN002 OVC007 15/15 Q1016 RMK 5ST002 8ST007 A3002 FCST 0615 NOSIG;EQDQ01+000003PRSWM1Q02    003PRSWM1
0245477160999992000110107004+36030+140200FM-15+0029RJAK V0200501N003610018019N0040001N1+01601+01501999999ADDGA1021+001209999GA2071+001809999GA3081+003009999GF108991999999999999999999MA1101591999999MW1101MW2611REMMET097RJAK 010700Z 05007KT 4000 -RA BR SCT004 BKN006 OVC010 16/15 Q1016 RMK 3ST004 6ST006 8ST010 A3001;EQDQ01+000003PRSWM1Q02    003PRSWM1
0271477160999992000110108004+36030+140200FM-15+0029RJAK V0200501N002610027019N0040001N1+01601+01501999999ADDGA1021+001509999GA2071+002709999GA3081+003909999GF108991999999999999999999MA1101591999999MW1101MW2611REMMET123RJAK 010800Z 05005KT 4000 -RA BR FEW005 BKN009 OVC013 16/15 Q1016 RMK 2ST005 6ST009 8SC013 A3002 FCST 0817 BECMG 0911 1200;EQDQ01+000003PRSWM1Q02    003PRSWM1
0242477160999992000110123004+36030+140200FM-15+0029RJAK V0200301N003110009019N0035001N1+01501+01401999999ADDGA1071+000909999GA2081+001809999GF108991999999999999999999MA1101391999999MW1101MW2611REMMET110RJAK 012300Z 03006KT 3500 -RA BR BKN003 OVC006 15/14 Q1014 RMK 6ST003 8ST006 A2994 FCST 2308 TEMPO 2303 RA BR;EQDQ01+000003PRSWM1Q02    003PRSWM1
0303477160999992000110203004+36030+140200FM-15+0029RJAK V0203401N001510018019N0050001N1+01601+01501999999ADDGA1021+001209999GA2071+001809999GA3081+002409999GF108991999999999999999999MA1101191999999MW1101MW2611REMMET155RJAK 020300Z 34003KT 5000 -RA BR SCT004 BKN006 OVC008 16/15 Q1012 RMK 3ST004 6ST006 8ST008 A2989 FCST 0312 TEMPO 0410 4000 BECMG 1012 24010G25KT 4000 SHRA;EQDQ01+000003PRSWM1Q02    003PRSWM1
0245477160999992000110204004+36030+140200FM-15+0029RJAK V0203201N001510024019N0040001N1+01501+01501999999ADDGA1021+001509999GA2071+002409999GA3081+003009999GF108991999999999999999999MA1101081999999MW1101MW2611REMMET097RJAK 020400Z 32003KT 4000 -RA BR SCT005 BKN008 OVC010 15/15 Q1011 RMK 3ST005 6ST008 8ST010 A2987;EQDQ01+000003PRSWM1Q02    003PRSWM1
0245477160999992000110205004+36030+140200FM-15+0029RJAK V0200101N002110027019N0040001N1+01501+01501999999ADDGA1021+001509999GA2071+002709999GA3081+003609999GF108991999999999999999999MA1101081999999MW1101MW2611REMMET097RJAK 020500Z 01004KT 4000 -RA BR SCT005 BKN009 OVC012 15/15 Q1011 RMK 3ST005 6ST009 8SC012 A2987;EQDQ01+000003PRSWM1Q02    003PRSWM1
0282477160999992000110206004+36030+140200FM-15+0029RJAK V0200301N003110027019N0045001N1+01501+01501999999ADDGA1021+001809999GA2071+002709999GA3081+003609999GF108991999999999999999999MA1101191999999MW1101MW2611REMMET134RJAK 020600Z 03006KT 4500 -RA BR FEW006 BKN009 OVC012 15/15 Q1012 RMK 2ST006 5ST009 8SC012 A2988 FCST 0615 TEMPO 1015 24010G20KT SHRA;EQDQ01+000003PRSWM1Q02    003PRSWM1
0215477160999992000110207004+36030+140200FM-15+0029RJAK V0200501N003610024019N0050001N1+01501+01501999999ADDGA1021+001809999GA2081+002409999GF108991999999999999999999MA1101081999999MW1101MW2611REMMET083RJAK 020700Z 05007KT 5000 -RA BR SCT006 OVC008 15/15 Q1011 RMK 3ST006 8ST008 A2988;EQDQ01+000003PRSWM1Q02    003PRSWM1
0252477160999992000110208004+36030+140200FM-15+0029RJAK V0200301N004610018019N0035001N1+01501+01501999999ADDGA1071+001809999GA2081+002409999GF108991999999999999999999MA1101191999999MW1101MW2611REMMET120RJAK 020800Z 03009KT 3500 -RA BR BKN006 OVC008 15/15 Q1012 RMK 6ST006 8ST008 A2989 FCST 0817 TEMPO 1015 24010G20KT SHRA;EQDQ01+000003PRSWM1Q02    003PRSWM1
0186477160999992000110522004+36030+140200FM-15+0029RJAK V0200301N001012200019N0070001N1+01001+00901999999ADDGA1021+006009999GA2021+069009999GF104991999999999999999999MA1101901999999MW1001REMMET076RJAK 052200Z 03002KT 7000 FEW020 SCT230 10/09 Q1019 RMK 1CU020 3CI230 A3010;EQDQ01+000000PRSWM2
0202477160999992000110523004+36030+140200FM-15+0029RJAK V0200301N003110630019N0080001N1+01401+01101999999ADDGA1021+006009999GA2071+063009999GF107991999999999999999999MA1102001999999MW1001REMMET092RJAK 052300Z 03006KT 8000 FEW020 BKN210 14/11 Q1020 RMK 1CU020 5CI210 A3012 FCST 2308 NOSIG;EQDQ01+000000PRSWM2
0232477160999992000110600004+36030+140200FM-15+0029RJAK V0200501N004110630019N0070001N1+01501+01201999999ADDGA1021+006009999GA2021+030009999GA3071+063009999GF107991999999999999999999MA1102001999999MW1001REMMET106RJAK 060000Z 05008KT 7000 FEW020 SCT100 BKN210 15/12 Q1020 RMK 1CU020 3AC100 5CI210 A3012 FCST 0009 NOSIG;EQDQ01+000000PRSWM2
0216477160999992000110601004+36030+140200FM-15+0029RJAK V0200501N004110150019N0070001N1+01601+01201999999ADDGA1021+006009999GA2071+015009999GA3071+030009999GF107991999999999999999999MA1102001999999MW1001REMMET090RJAK 060100Z 05008KT 7000 FEW020 BKN050 BKN100 16/12 Q1020 RMK 1CU020 5SC050 6AC100 A3012;EQDQ01+000000PRSWM2
0216477160999992000110602004+36030+140200FM-15+0029RJAK V0200601N005110150019N0112651N1+01701+01101999999ADDGA1021+006009999GA2021+009009999GA3071+015009999GF107991999999999999999999MA1101901999999MW1001REMMET090RJAK 060200Z 06010KT 9999 FEW020 SCT030 BKN050 17/11 Q1019 RMK 2CU020 3CU030 6SC050 A3011;EQDQ01+000000PRSWM2
0264477160999992000110603004+36030+140200FM-15+0029RJAK V0200601N004610150019N0112651N1+01701+01001999999ADDGA1021+006009999GA2021+009009999GA3071+015009999GF107991999999999999999999MA1101901999999MW1001REMMET138RJAK 060300Z 06009KT 9999 FEW020 SCT030 BKN050 17/10 Q1019 RMK 1CU020 3CU030 6SC050 A3010 FCST 0312 TEMPO 0409 FEW030CU SCT050SC BKN200CI;EQDQ01+000000PRSWM2
0186477160999992000110604004+36030+140200FM-15+0029RJAK V0200701N006212200019N0112651N1+01801+01001999999ADDGA1021+009009999GA2021+060009999GF104991999999999999999999MA1101901999999MW1001REMMET076RJAK 060400Z 07012KT 9999 FEW030 SCT200 18/10 Q1019 RMK 1CU030 3CI200 A3009;EQDQ01+000000PRSWM2
0216477160999992000110605004+36030+140200FM-15+0029RJAK V0200701N007210360019N0112651N1+01801+00901999999ADDGA1021+009009999GA2021+015009999GA3071+036009999GF107991999999999999999999MA1101901999999MW1001REMMET090RJAK 060500Z 07014KT 9999 FEW030 SCT050 BKN120 18/09 Q1019 RMK 1CU030 4SC050 5AC120 A3010;EQDQ01+000000PRSWM2
0264477160999992000110606004+36030+140200FM-15+0029RJAK V0200701N006210150019N0112651N1+01701+00601999999ADDGA1021+009009999GA2071+015009999GA3071+036009999GF107991999999999999999999MA1101901999999MW1001REMMET138RJAK 060600Z 07012KT 9999 FEW030 BKN050 BKN120 17/06 Q1019 RMK 1CU030 5SC050 5AC120 A3010 FCST 0615 TEMPO 0609 FEW050SC SCT120AC BKN210CI;EQDQ01+000000PRSWM2
0186477160999992000110606354+36030+140200FM-16+0029RJAK V0200601N003612200019N0112651N1+01601+00701999999ADDGA1021+009009999GA2021+015009999GF104991999999999999999999MA1102001999999MW1001REMMET076RJAK 060635Z 06007KT 9999 FEW030 SCT050 16/07 Q1020 RMK 1CU030 3SC050 A3012;EQDQ01+000000PRSWM2
0186477160999992000110607004+36030+140200FM-15+0029RJAK V0200601N004112200019N0112651N1+01601+00801999999ADDGA1021+009009999GA2021+036009999GF104991999999999999999999MA1102001999999MW1001REMMET076RJAK 060700Z 06008KT 9999 FEW030 SCT120 16/08 Q1020 RMK 1CU030 3AC120 A3012;EQDQ01+000000PRSWM2
0255477160999992000110608004+36030+140200FM-15+0029RJAK V0200501N002610150019N0112651N1+01501+01001999999ADDGA1021+009009999GA2071+015009999GA3071+036009999GF107991999999999999999999MA1101901999999MW1001REMMET129RJAK 060800Z 05005KT 9999 FEW030 BKN050 BKN120 15/10 Q1019 RMK 1CU030 5SC050 6AC120 A3011 FCST 0817 TEMPO 0810 SCT050SC BKN210CI;EQDQ01+000000PRSWM2
0245477160999992000110622004+36030+140200FM-15+0029RJAK V0202601N000510036019N0018001N1+01301+01301999999ADDGA1021+001809999GA2071+003609999GA3081+012009999GF108991999999999999999999MA1102001999999MW1101MW2611REMMET097RJAK 062200Z 26001KT 1800 -RA BR SCT006 BKN012 OVC040 13/13 Q1020 RMK 4ST006 6SC012 8SC040 A3013;EQDQ01+000003PRSWM1Q02    003PRSWM1
0307477160999992000110623004+36030+140200FM-15+0029RJAK V0202801N000510036019N0015001N1+01401+01401999999ADDGA1021+002109999GA2071+003609999GA3081+012009999GF108991999999999999999999MA1102001999999MW1101MW2611REMMET159RJAK 062300Z 28001KT 1500 -RA BR FEW007 BKN012 OVC040 14/14 Q1020 RMK 2ST007 6SC012 8SC040 A3014 FCST 2308 BECMG 0103 5000 BR BECMG 0304 NSW SCT012SC BKN040SC;EQDQ01+000003PRSWM1Q02    003PRSWM1
0307477160999992000110700004+36030+140200FM-15+0029RJAK V0202701N001510036019N0022001N1+01401+01401999999ADDGA1021+001209999GA2071+003609999GA3081+012009999GF108991999999999999999999MA1102001999999MW1101MW2611REMMET159RJAK 070000Z 27003KT 2200 -RA BR SCT004 BKN012 OVC040 14/14 Q1020 RMK 3ST004 6SC012 8SC040 A3014 FCST 0009 BECMG 0103 5000 BR BECMG 0304 NSW SCT012SC BKN040SC;EQDQ01+000003PRSWM1Q02    003PRSWM1
0245477160999992000110702004+36030+140200FM-15+0029RJAK V0202801N002110012019N0016001N1+01401+01301999999ADDGA1071+001209999GA2071+003609999GA3081+012009999GF108991999999999999999999MA1101901999999MW1101MW2611REMMET097RJAK 070200Z 28004KT 1600 -RA BR BKN004 BKN012 OVC040 14/13 Q1019 RMK 5ST004 6SC012 8SC040 A3010;EQDQ01+000003PRSWM1Q02    003PRSWM1
0307477160999992000110703004+36030+140200FM-15+0029RJAK V0202801N001510012019N0025001N1+01501+01401999999ADDGA1071+001209999GA2071+003609999GA3081+012009999GF108991999999999999999999MA1101801999999MW1101MW2611REMMET159RJAK 070300Z 28003KT 2500 -RA BR BKN004 BKN012 OVC040 15/14 Q1018 RMK 5ST004 6SC012 8SC040 A3007 FCST 0312 BECMG 0406 5000 BR SCT012SC BKN040SC BECMG 0608 NSW;EQDQ01+000003PRSWM1Q02    003PRSWM1
0235477160999992000110704004+36030+140200FM-15+0029RJAK V0202901N001510015019N0030001N1+01601+01501999999ADDGA1071+001509999GA2071+004509999GA3081+012009999GF108991999999999999999999MA1101691999999MW1101REMMET093RJAK 070400Z 29003KT 3000 BR BKN005 BKN015 OVC040 16/15 Q1017 RMK 5ST005 6SC015 8SC040 A3005;EQDQ01+000003PRSWM1Q02    003PRSWM1
0235477160999992000110704304+36030+140200FM-15+0029RJAK V0202901N002110120019N0040001N1+01601+01501999999ADDGA1021+001809999GA2021+004509999GA3071+012009999GF107991999999999999999999MA1101691999999MW1101REMMET093RJAK 070430Z 29004KT 4000 BR FEW006 SCT015 BKN040 16/15 Q1017 RMK 2ST006 3SC015 6SC040 A3004;EQDQ01+000003PRSWM1Q02    003PRSWM1
0235477160999992000110704424+36030+140200FM-16+0029RJAK V0203301N001010045019N0050001N1+01701+01401999999ADDGA1021+002109999GA2071+004509999GA3071+060009999GF107991999999999999999999MA1101691999999MW1101REMMET093RJAK 070442Z 33002KT 5000 BR SCT007 BKN015 BKN200 17/14 Q1017 RMK 4ST007 5SC015 5CI200 A3004;EQDQ01+000003PRSWM1Q02    003PRSWM1
0205477160999992000110705004+36030+140200FM-15+0029RJAK V0202501N001512200019N0050001N1+01701+01401999999ADDGA1021+002109999GA2021+004509999GF104991999999999999999999MA1101691999999MW1101REMMET079RJAK 070500Z 25003KT 5000 BR SCT007 SCT015 17/14 Q1017 RMK 3ST007 4SC015 A3003;EQDQ01+000003PRSWM1Q02    003PRSWM1
0175477160999992000110722004+36030+140200FM-15+0029RJAK V0202701N001010006019N0002001N1+01001+01001999999ADDGA1071+000609999GF107991999999999999999999MA1101191999999MW1441REMMET065RJAK 072200Z 27002KT 0200 FG BKN002 10/10 Q1012 RMK 7ST002 A2990;EQDQ01+000003PRSWM1Q02    003PRSWM1
0205477160999992000110801004+36030+140200FM-15+0029RJAK V0202901N001010018019N0008001N1+01401+01301999999ADDGA1021+000609999GA2071+001809999GF107991999999999999999999MA1101291999999MW1441REMMET079RJAK 080100Z 29002KT 0800 FG SCT002 BKN006 14/13 Q1013 RMK 3ST002 7ST006 A2991;EQDQ01+000003PRSWM1Q02    003PRSWM1
0205477160999992000110802004+36030+140200FM-15+0029RJAK V0200301N002110021019N0010001N1+01601+01401999999ADDGA1021+001209999GA2071+002109999GF107991999999999999999999MA1101191999999MW1101REMMET079RJAK 080200Z 03004KT 1000 BR SCT004 BKN007 16/14 Q1012 RMK 4ST004 7ST007 A2991;EQDQ01+000003PRSWM1Q02    003PRSWM1
0205477160999992000110802404+36030+140200FM-16+0029RJAK V0200601N001510024019N0015001N1+01801+01501999999ADDGA1021+001209999GA2071+002409999GF107991999999999999999999MA1101191999999MW1101REMMET079RJAK 080240Z 06003KT 1500 BR SCT004 BKN008 18/15 Q1012 RMK 3ST004 6ST008 A2989;EQDQ01+000003PRSWM1Q02    003PRSWM1
0149477160999992000110804004+36030+140200FM-15+0029RJAK V0200801N003612200019N0050001N1+02001+01401999999ADDGF100991999999999999999999MA1101191999999MW1051REMMET055RJAK 080400Z 08007KT 5000 HZ SKC 20/14 Q1012 RMK A2989;EQDQ01+000003PRSWM1Q02    003PRSWM1
0172477160999992000110806004+36030+140200FM-15+0029RJAK V0201001N004612200019N0112651N1+02001+01301999999ADDGA1021+009009999GF102991999999999999999999MA1101291999999MW1001REMMET078RJAK 080600Z 10009KT 9999 FEW030 20/13 Q1013 RMK 1CU030 A2991 FCST 0615 NOSIG;EQDQ01+000000PRSWM2
0191477160999992000110807004+36030+140200FM-15+0029RJAK V0201001N004612200019N0112651N1+01701+01101999999ADDGA1021+009009999GA2021+060009999GF104991999999999999999999MA1101391999999MW1001REMMET081RJAK 080700Z 10009KT 9999 SCT030 SCT200 17/11 Q1014 RMK 3CU030 4CI200 A2995 P/RR;EQDQ01+000000PRSWM2
0216477160999992000110807354+36030+140200FM-16+0029RJAK V0200601N005710090019N0112651N1+01601+00701999999ADDGA1021+007509999GA2071+009009999GA3071+036009999GF107991999999999999999999MA1101491999999MW1001REMMET090RJAK 080735Z 06011KT 9999 FEW025 BKN030 BKN120 16/07 Q1015 RMK 1CU025 5CU030 6AC120 A2997;EQDQ01+000000PRSWM2
0232477160999992000110808004+36030+140200FM-15+0029RJAK V0200601N004110090019N0112651N1+01601+00701999999ADDGA1021+007509999GA2071+009009999GA3071+036009999GF107991999999999999999999MA1101491999999MW1001REMMET106RJAK 080800Z 06008KT 9999 FEW025 BKN030 BKN120 16/07 Q1015 RMK 1CU025 5CU030 6AC120 A2998 FCST 0817 NOSIG;EQDQ01+000000PRSWM2
0186477160999992000110822004+36030+140200FM-15+0029RJAK V0200501N003110135019N0112651N1+01001+00301999999ADDGA1021+009009999GA2071+013509999GF107991999999999999999999MA1102201999999MW1001REMMET076RJAK 082200Z 05006KT 9999 FEW030 BKN045 10/03 Q1022 RMK 2CU030 7SC045 A3018;EQDQ01+000000PRSWM2
0202477160999992000110823004+36030+140200FM-15+0029RJAK V0200301N004110135019N0112651N1+01001+00301999999ADDGA1021+009009999GA2071+013509999GF107991999999999999999999MA1102301999999MW1001REMMET092RJAK 082300Z 03008KT 9999 FEW030 BKN045 10/03 Q1023 RMK 2SC030 7SC045 A3023 FCST 2308 NOSIG;EQDQ01+000000PRSWM2
0202477160999992000110900004+36030+140200FM-15+0029RJAK V0200401N004110135019N0112651N1+01001+00301999999ADDGA1021+009009999GA2071+013509999GF107991999999999999999999MA1102401999999MW1001REMMET092RJAK 090000Z 04008KT 9999 FEW030 BKN045 10/03 Q1024 RMK 1SC030 7SC045 A3025 FCST 0009 NOSIG;EQDQ01+000000PRSWM2
0186477160999992000110901004+36030+140200FM-15+0029RJAK V0200601N004610135019N0112651N1+01101+00301999999ADDGA1021+009009999GA2071+013509999GF107991999999999999999999MA1102401999999MW1001REMMET076RJAK 090100Z 06009KT 9999 FEW030 BKN045 11/03 Q1024 RMK 1SC030 7SC045 A3025;EQDQ01+000000PRSWM2
0186477160999992000110902004+36030+140200FM-15+0029RJAK V0200401N004110135019N0112651N1+01101+00201999999ADDGA1021+009009999GA2071+013509999GF107991999999999999999999MA1102401999999MW1001REMMET076RJAK 090200Z 04008KT 9999 FEW030 BKN045 11/02 Q1024 RMK 1SC030 7SC045 A3024;EQDQ01+000000PRSWM2
0202477160999992000110903004+36030+140200FM-15+0029RJAK V0200501N005110135019N0112651N1+01101+00201999999ADDGA1021+009009999GA2071+013509999GF107991999999999999999999MA1102301999999MW1001REMMET092RJAK 090300Z 05010KT 9999 FEW030 BKN045 11/02 Q1023 RMK 2SC030 7SC045 A3023 FCST 0312 NOSIG;EQDQ01+000000PRSWM2
0186477160999992000110904004+36030+140200FM-15+0029RJAK V0200401N004110135019N0112651N1+01201+00201999999ADDGA1021+009009999GA2071+013509999GF107991999999999999999999MA1102301999999MW1001REMMET076RJAK 090400Z 04008KT 9999 FEW030 BKN045 12/02 Q1023 RMK 1SC030 7SC045 A3021;EQDQ01+000000PRSWM2
0216477160999992000110905004+36030+140200FM-15+0029RJAK V0200601N004110135019N0112651N1+01201+00301999999ADDGA1021+009009999GA2071+013509999GA3071+030009999GF107991999999999999999999MA1102201999999MW1001REMMET090RJAK 090500Z 06008KT 9999 FEW030 BKN045 BKN100 12/03 Q1022 RMK 1SC030 6SC045 7AC100 A3020;EQDQ01+000000PRSWM2
0232477160999992000110906004+36030+140200FM-15+0029RJAK V0200601N003610135019N0112651N1+01201+00301999999ADDGA1021+009009999GA2071+013509999GA3071+030009999GF107991999999999999999999MA1102201999999MW1001REMMET106RJAK 090600Z 06007KT 9999 FEW030 BKN045 BKN100 12/03 Q1022 RMK 1SC030 6SC045 7AC100 A3020 FCST 0615 NOSIG;EQDQ01+000000PRSWM2
0186477160999992000110907004+36030+140200FM-15+0029RJAK V0200501N002610135019N0112651N1+01201+00301999999ADDGA1021+009009999GA2071+013509999GF107991999999999999999999MA1102301999999MW1001REMMET076RJAK 090700Z 05005KT 9999 FEW030 BKN045 12/03 Q1023 RMK 1SC030 6SC045 A3021;EQDQ01+000000PRSWM2
0202477160999992000110908004+36030+140200FM-15+0029RJAK V0200301N002110120019N0112651N1+01101+00301999999ADDGA1021+009009999GA2071+012009999GF107991999999999999999999MA1102301999999MW1001REMMET092RJAK 090800Z 03004KT 9999 FEW030 BKN040 11/03 Q1023 RMK 1SC030 7SC040 A3021 FCST 0817 NOSIG;EQDQ01+000000PRSWM2
0186477160999992000110922004+36030+140200FM-15+0029RJAK V0203001N001510090019N0080001N1+00901+00501999999ADDGA1021+006009999GA2071+009009999GF107991999999999999999999MA1102101999999MW1001REMMET076RJAK 092200Z 30003KT 8000 FEW020 BKN030 09/05 Q1021 RMK 2SC020 5SC030 A3015;EQDQ01+000000PRSWM2
0253477160999992000110923004+36030+140200FM-15+0029RJAK V0203101N002110105019N0070001N1+01001+00501999999ADDGA1021+007509999GA2071+010509999GA3071+030009999GF107991999999999999999999MA1102101999999MW1001REMMET127RJAK 092300Z 31004KT 7000 FEW025 BKN035 BKN100 10/05 Q1021 RMK 2SC025 5SC035 6AC100 A3015 PPG P7A BECMG 0406 SCT035SC SCT100AC;EQDQ01+000000PRSWM2
0271477160999992000111000004+36030+140200FM-15+0029RJAK V0200201N001010105019N9999999N1+01201+00601999999ADDGA1021+009009999GA2071+010509999GA3071+030009999GF107991999999999999999999MA1102001999999MW1001REMMET129RJAK 100000Z 02002KT 7000 FEW030 BKN035 BKN100 12/06 Q1020 RMK 2SC030 5SC035 7AC100 A3014 FCST 0009 BECMG 0406 SCT035SC SCT100AC;EQDQ01+070002VODIS Q02+000000PRSWM2
0232477160999992000111001004+36030+140200FM-15+0029RJAK V0203101N001010120019N9999999N1+01301+00701999999ADDGA1021+009009999GA2071+012009999GA3071+030009999GF107991999999999999999999MA1102001999999MW1001REMMET090RJAK 100100Z 31002KT 7000 FEW030 BKN040 BKN100 13/07 Q1020 RMK 1SC030 6SC040 7AC100 A3013;EQDQ01+070002VODIS Q02+000000PRSWM2
0216477160999992000111002004+36030+140200FM-15+0029RJAK V0202901N002110135019N0070001N1+01401+00701999999ADDGA1021+009009999GA2071+013509999GA3071+030009999GF107991999999999999999999MA1101901999999MW1001REMMET090RJAK 100200Z 29004KT 7000 FEW030 BKN045 BKN100 14/07 Q1019 RMK 2SC030 6SC045 7AC100 A3010;EQDQ01+000000PRSWM2
0261477160999992000111003004+36030+140200FM-15+0029RJAK V0203001N003110135019N9999999N1+01401+00801999999ADDGA1021+009009999GA2071+013509999GA3071+030009999GF107991999999999999999999MA1101691999999MW1001REMMET119RJAK 100300Z 30006KT 6000 SCT030 BKN045 BKN100 14/08 Q1017 RMK 3SC030 6SC045 7AC100 A3005 P/FR FCST 0312 TEMPO 0508 BR;EQDQ01+060002VODIS Q02+000000PRSWM2
0221477160999992000111004004+36030+140200FM-15+0029RJAK V0203001N002610135019N9999999N1+01401+00801999999ADDGA1021+009009999GA2071+013509999GA3071+030009999GF107991999999999999999999MA1101691999999MW1001REMMET079RJAK 100400Z 30005KT 7000 SCT030 BKN045 BKN100 14/08 Q1017 RMK 3S<C <S5 7AC100;EQDQ01+070002VODIS Q02+000000PRSWM2
0237477160999992000111005004+36030+140200FM-15+0029RJAK V0203001N002610135019N9999999N1+01501+00801999999ADDGA1021+009009999GA2071+013509999GA3071+030009999GF107991999999999999999999MA1101491999999MW1001REMMET095RJAK 100500Z 30005KT 7000 SCT030 BKN045 BKN100 15/08 Q1015 RMK 3SC030 6SC045 7AC100 A2998 P/FR;EQDQ01+070002VODIS Q02+000000PRSWM2
0245477160999992000111006254+36030+140200FM-15+0029RJAK V0203201N001510135019N0050001N1+01401+01001999999ADDGA1021+009009999GA2071+013509999GA3071+030009999GF107991999999999999999999MA1101491999999MW1101MW2611REMMET097RJAK 100625Z 32003KT 5000 -RA BR SCT030 BKN045 BKN100 14/10 Q1015 RMK 3SC030 6SC045 7AC100 A2998;EQDQ01+000003PRSWM1Q02    003PRSWM1
0235477160999992000111007004+36030+140200FM-15+0029RJAK V0200201N001010135019N0050001N1+01401+00901999999ADDGA1021+009009999GA2071+013509999GA3071+030009999GF107991999999999999999999MA1101391999999MW1051REMMET093RJAK 100700Z 02002KT 5000 HZ SCT030 BKN045 BKN100 14/09 Q1014 RMK 3SC030 6SC045 7AC100 A2995;EQDQ01+000003PRSWM1Q02    003PRSWM1
0235477160999992000111007254+36030+140200FM-15+0029RJAK V0202701N001510120019N0040001N1+01401+00901999999ADDGA1021+007509999GA2071+012009999GA3071+030009999GF107991999999999999999999MA1101491999999MW1051REMMET093RJAK 100725Z 27003KT 4000 HZ SCT025 BKN040 BKN100 14/09 Q1015 RMK 3SC025 6SC040 7AC100 A2999;EQDQ01+000003PRSWM1Q02    003PRSWM1
0251477160999992000111008004+36030+140200FM-15+0029RJAK V0201601N000510120019N0035001N1+01401+00901999999ADDGA1021+007509999GA2071+012009999GA3071+030009999GF107991999999999999999999MA1101391999999MW1051REMMET109RJAK 100800Z 16001KT 3500 HZ SCT025 BKN040 BKN100 14/09 Q1014 RMK 3SC025 6SC040 7AC100 A2995 FCST 0817 NOSIG;EQDQ01+000003PRSWM1Q02    003PRSWM1
0186477160999992000111222004+36030+140200FM-15+0029RJAK V0203401N000512200019N0060001N1+00801+00601999999ADDGA1021+009009999GA2021+039009999GF104991999999999999999999MA1102101999999MW1001REMMET076RJAK 122200Z 34001KT 6000 FEW030 SCT130 08/06 Q1021 RMK 1SC030 3AC130 A3015;EQDQ01+000000PRSWM2
0202477160999992000111223004+36030+140200FM-15+0029RJAK V0209999C000012200019N0080001N1+01001+00701999999ADDGA1021+009009999GA2021+060009999GF104991999999999999999999MA1102201999999MW1001REMMET092RJAK 122300Z 00000KT 8000 FEW030 SCT200 10/07 Q1022 RMK 1SC030 3CI200 A3018 FCST 2308 NOSIG;EQDQ01+000000PRSWM2
0186477160999992000111301004+36030+140200FM-15+0029RJAK V0200701N003612200019N0112651N1+01601+00501999999ADDGA1021+007509999GA2021+060009999GF104991999999999999999999MA1102301999999MW1001REMMET076RJAK 130100Z 07007KT 9999 FEW025 SCT200 16/05 Q1023 RMK 1CU025 3CI200 A3022;EQDQ01+000000PRSWM2
0186477160999992000111302004+36030+140200FM-15+0029RJAK V02099999999992200019N0112651N1+01501+00501999999ADDGA1021+007509999GA2021+024009999GF104991999999999999999999MA1102301999999MW1001REMMET076RJAK 130200Z VRB03KT 9999 FEW025 SCT080 15/05 Q1023 RMK 1CU025 3AC080 A3022;EQDQ01+000000PRSWM2
0202477160999992000111303004+36030+140200FM-15+0029RJAK V0200401N001510240019N0112651N1+01701+00401999999ADDGA1021+007509999GA2071+024009999GF107991999999999999999999MA1102301999999MW1001REMMET092RJAK 130300Z 04003KT 9999 FEW025 BKN080 17/04 Q1023 RMK 1CU025 5AC080 A3022 FCST 0312 NOSIG;EQDQ01+000000PRSWM2
0216477160999992000111304004+36030+140200FM-15+0029RJAK V0201001N003110660019N0112651N1+01801+00501999999ADDGA1021+007509999GA2021+012009999GA3071+066009999GF107991999999999999999999MA1102301999999MW1001REMMET090RJAK 130400Z 10006KT 9999 FEW025 SCT040 BKN220 18/05 Q1023 RMK 1CU025 3SC040 5CI220 A3022;EQDQ01+000000PRSWM2
0186477160999992000111305004+36030+140200FM-15+0029RJAK V0201301N002610660019N0112651N1+01701+00401999999ADDGA1021+007509999GA2071+066009999GF107991999999999999999999MA1102301999999MW1001REMMET076RJAK 130500Z 13005KT 9999 FEW025 BKN220 17/04 Q1023 RMK 1CU025 7CI220 A3023;EQDQ01+000000PRSWM2
0255477160999992000111306004+36030+140200FM-15+0029RJAK V0201101N002610660019N0112651N1+01601+00501999999ADDGA1021+007509999GA2021+036009999GA3071+066009999GF107991999999999999999999MA1102401999999MW1001REMMET129RJAK 130600Z 11005KT 9999 FEW025 SCT120 BKN220 16/05 Q1024 RMK 1CU025 4AC120 7CI220 A3025 FCST 0615 TEMPO 0711 FEW025CU BKN100AC;EQDQ01+000000PRSWM2
0216477160999992000111306354+36030+140200FM-16+0029RJAK V0201001N003110360019N0112651N1+01501+00501999999ADDGA1021+007509999GA2071+036009999GA3071+066009999GF107991999999999999999999MA1102511999999MW1001REMMET090RJAK 130635Z 10006KT 9999 FEW025 BKN120 BKN220 15/05 Q1025 RMK 1CU025 5AC120 7CI220 A3027;EQDQ01+000000PRSWM2
0216477160999992000111307004+36030+140200FM-15+0029RJAK V0201001N002610360019N0112651N1+01501+00501999999ADDGA1021+007509999GA2071+036009999GA3071+066009999GF107991999999999999999999MA1102511999999MW1001REMMET090RJAK 130700Z 10005KT 9999 FEW025 BKN120 BKN220 15/05 Q1025 RMK 1CU025 5AC120 7CI220 A3028;EQDQ01+000000PRSWM2
0255477160999992000111308004+36030+140200FM-15+0029RJAK V0200901N002610600019N0112651N1+01401+00501999999ADDGA1021+009009999GA2021+030009999GA3071+060009999GF107991999999999999999999MA1102611999999MW1001REMMET129RJAK 130800Z 09005KT 9999 FEW030 SCT100 BKN200 14/05 Q1026 RMK 1SC030 4AC100 7CI200 A3031 FCST 0817 TEMPO 0811 FEW030SC BKN100AC;EQDQ01+000000PRSWM2
0216477160999992000111322004+36030+140200FM-15+0029RJAK V0200401N003610135019N0112651N1+01101+00401999999ADDGA1021+009009999GA2071+013509999GA3081+030009999GF108991999999999999999999MA1103011999999MW1001REMMET090RJAK 132200Z 04007KT 9999 SCT030 BKN045 OVC100 11/04 Q1030 RMK 3SC030 5SC045 8AC100 A3044;EQDQ01+000000PRSWM2
0264477160999992000111323004+36030+140200FM-15+0029RJAK V0200301N003610135019N0112651N1+01201+00401999999ADDGA1021+009009999GA2071+013509999GA3081+030009999GF108991999999999999999999MA1103121999999MW1001REMMET138RJAK 132300Z 03007KT 9999 SCT030 BKN045 OVC100 12/04 Q1031 RMK 3SC030 5SC045 8AC100 A3045 FCST 2308 BECMG 0305 BKN030SC TEMPO 0408 -RA BR;EQDQ01+000000PRSWM2
0264477160999992000111400004+36030+140200FM-15+0029RJAK V0200301N002610135019N0112651N1+01301+00501999999ADDGA1021+009009999GA2071+013509999GA3081+030009999GF108991999999999999999999MA1103121999999MW1001REMMET138RJAK 140000Z 03005KT 9999 FEW030 BKN045 OVC100 13/05 Q1031 RMK 2SC030 5SC045 8AC100 A3045 FCST 0009 BECMG 0305 BKN030SC TEMPO 0409 -RA BR;EQDQ01+000000PRSWM2
0216477160999992000111401004+36030+140200FM-15+0029RJAK V0200201N001510120019N0112651N1+01301+00601999999ADDGA1021+009009999GA2071+012009999GA3081+030009999GF108991999999999999999999MA1103121999999MW1001REMMET090RJAK 140100Z 02003KT 9999 FEW030 BKN040 OVC100 13/06 Q1031 RMK 2SC030 5SC040 8AC100 A3045;EQDQ01+000000PRSWM2
0236477160999992000111401034+36030+140200FM-16+0029RJAK V0200101N002610120019N0112651N1+01301+00601999999ADDGA1021+009009999GA2071+012009999GA3081+030009999GF108991999999999999999999MA1103121999999MW1611REMMET094RJAK 140103Z 01005KT 9999 -RA FEW030 BKN040 OVC100 13/06 Q1031 RMK 2SC030 5SC040 8AC100 A3044;EQDQ01+000003PRSWM1Q02    003PRSWM1
0216477160999992000111401304+36030+140200FM-15+0029RJAK V0200101N002610120019N0112651N1+01301+00601999999ADDGA1021+009009999GA2021+010509999GA3071+012009999GF107991999999999999999999MA1103011999999MW1001REMMET090RJAK 140130Z 01005KT 9999 FEW030 SCT035 BKN040 13/06 Q1030 RMK 1SC030 3SC035 7SC040 A3043;EQDQ01+000000PRSWM2
0216477160999992000111402004+36030+140200FM-15+0029RJAK V0200201N002610120019N0112651N1+01301+00601999999ADDGA1021+009009999GA2021+010509999GA3071+012009999GF107991999999999999999999MA1103011999999MW1001REMMET090RJAK 140200Z 02005KT 9999 FEW030 SCT035 BKN040 13/06 Q1030 RMK 1SC030 3SC035 7SC040 A3042;EQDQ01+000000PRSWM2
0302477160999992000111403004+36030+140200FM-15+0029RJAK V0203501N002610120019N0112651N1+01401+00601999999ADDGA1021+010509999GA2071+012009999GF107991999999999999999999MA1102911999999MW1001REMMET192RJAK 140300Z 35005KT 9999 SCT035 BKN040 14/06 Q1029 RMK 3SC035 7SC040 A3040 FCST 0312 TEMPO 0406 BKN030SC TEMPO 0608 -RA BR FEW020SC BKN030SC TEMPO 0812 4000 -RA BR FEW010SC SCT020SC BKN030SC;EQDQ01+000000PRSWM2
0186477160999992000111404004+36030+140200FM-15+0029RJAK V0203301N001010120019N0112651N1+01401+00701999999ADDGA1021+010509999GA2071+012009999GF107991999999999999999999MA1102811999999MW1001REMMET076RJAK 140400Z 33002KT 9999 SCT035 BKN040 14/07 Q1028 RMK 3SC035 7SC040 A3038;EQDQ01+000000PRSWM2
0186477160999992000111405004+36030+140200FM-15+0029RJAK V0203301N001510105019N0112651N1+01401+00701999999ADDGA1021+009009999GA2081+010509999GF108991999999999999999999MA1102811999999MW1001REMMET076RJAK 140500Z 33003KT 9999 SCT030 OVC035 14/07 Q1028 RMK 3SC030 8SC035 A3037;EQDQ01+000000PRSWM2
0234477160999992000111406004+36030+140200FM-15+0029RJAK V0203401N001510090019N0112651N1+01301+00701999999ADDGA1021+007509999GA2071+009009999GF107991999999999999999999MA1102811999999MW1001REMMET124RJAK 140600Z 34003KT 9999 FEW025 BKN030 13/07 Q1028 RMK 1SC025 7SC030 A3037 FCST 0615 TEMPO 0709 -RA BECMG 0911 4000 -RA BR;EQDQ01+000000PRSWM2
0206477160999992000111407004+36030+140200FM-15+0029RJAK V0203301N001010090019N0080001N1+01301+00701999999ADDGA1021+007509999GA2081+009009999GF108991999999999999999999MA1102811999999MW1611REMMET080RJAK 140700Z 33002KT 8000 -RA FEW025 OVC030 13/07 Q1028 RMK 2SC025 8SC030 A3038;EQDQ01+000003PRSWM1Q02    003PRSWM1
0238477160999992000111408004+36030+140200FM-15+0029RJAK V0203301N001010090019N0050001N1+01301+00701999999ADDGA1021+007509999GA2081+009009999GF108991999999999999999999MA1102811999999MW1051REMMET112RJAK 140800Z 33002KT 5000 HZ FEW025 OVC030 13/07 Q1028 RMK 2SC025 8SC030 A3037 FCST 0817 BECMG 0809 4000 -RA BR;EQDQ01+000003PRSWM1Q02    003PRSWM1
0235477160999992000111422004+36030+140200FM-15+0029RJAK V0202401N001510135019N0035001N1+01101+01001999999ADDGA1021+006009999GA2071+013509999GA3071+030009999GF107991999999999999999999MA1102201999999MW1101REMMET093RJAK 142200Z 24003KT 3500 BR SCT020 BKN045 BKN100 11/10 Q1022 RMK 3SC020 5SC045 7AC100 A3019;EQDQ01+000003PRSWM1Q02    003PRSWM1
0280477160999992000111423004+36030+140200FM-15+0029RJAK V0202601N001510690019N0045001N1+01201+01001999999ADDGA1021+006009999GA2021+012009999GA3071+069009999GF107991999999999999999999MA1102201999999MW1101REMMET138RJAK 142300Z 26003KT 4500 BR FEW020 SCT040 BKN230 12/10 Q1022 RMK 2SC020 4SC040 5CI230 A3018 FCST 2308 BECMG 2300 NSW TEMPO 0708 BKN040SC;EQDQ01+000003PRSWM1Q02    003PRSWM1
0186477160999992000111501004+36030+140200FM-15+0029RJAK V0203201N002610300019N0060001N1+01601+01001999999ADDGA1021+012009999GA2071+030009999GF107991999999999999999999MA1102101999999MW1001REMMET076RJAK 150100Z 32005KT 6000 FEW040 BKN100 16/10 Q1021 RMK 2SC040 6AC100 A3015;EQDQ01+000000PRSWM2
0202477160999992000111502004+36030+140200FM-15+0029RJAK V0203401N002110300019N9999999N1+01701+01001999999ADDGA1021+012009999GA2071+030009999GF107991999999999999999999MA1102001999999MW1001REMMET076RJAK 150200Z 34004KT 6000 SCT040 BKN100 17/10 Q1020 RMK 3SC040 6AC100 A3013;EQDQ01+060002VODIS Q02+000000PRSWM2
0232477160999992000111504004+36030+140200FM-15+0029RJAK V0201601N000510330019N9999999N1+01801+01101999999ADDGA1021+012009999GA2021+024009999GA3071+033009999GF107991999999999999999999MA1101801999999MW1001REMMET090RJAK 150400Z 16001KT 6000 FEW040 SCT080 BKN110 18/11 Q1018 RMK 2SC040 3AC080 6AC110 A3007;EQDQ01+060002VODIS Q02+000000PRSWM2
0202477160999992000111505004+36030+140200FM-15+0029RJAK V0201401N000510330019N9999999N1+01801+01101999999ADDGA1021+024009999GA2071+033009999GF107991999999999999999999MA1101801999999MW1001REMMET076RJAK 150500Z 14001KT 7000 SCT080 BKN110 18/11 Q1018 RMK 3AC080 7AC110 A3007;EQDQ01+070002VODIS Q02+000000PRSWM2
0206477160999992000111505394+36030+140200FM-16+0029RJAK V0200601N002110300019N0070001N1+01701+01201999999ADDGA1021+015009999GA2081+030009999GF108991999999999999999999MA1101901999999MW1611REMMET080RJAK 150539Z 06004KT 7000 -RA SCT050 OVC100 17/12 Q1019 RMK 4SC050 8AC100 A3009;EQDQ01+000003PRSWM1Q02    003PRSWM1
0297477160999992000111506004+36030+140200FM-15+0029RJAK V0200501N002110150019N0060001N1+01701+01201999999ADDGA1021+009009999GA2071+015009999GA3081+024009999GF108991999999999999999999MA1101901999999MW1611REMMET155RJAK 150600Z 05004KT 6000 -RA SCT030 BKN050 OVC080 17/12 Q1019 RMK 3SC030 5SC050 8AC080 A3009 FCST 0615 TEMPO 0608 BR BECMG 0809 3000 BR FEW020SC BKN030SC;EQDQ01+000003PRSWM1Q02    003PRSWM1
0284477160999992000111508004+36030+140200FM-15+0029RJAK V0200601N002110120019N0040001N1+01601+01401999999ADDGA1021+007509999GA2071+012009999GA3081+024009999GF108991999999999999999999MA1101801999999MW1101MW2611REMMET136RJAK 150800Z 06004KT 4000 -RA BR SCT025 BKN040 OVC080 16/14 Q1018 RMK 3SC025 6SC040 8AC080 A3008 FCST 0817 TEMPO 1117 SCT020SC BKN030SC;EQDQ01+000003PRSWM1Q02    003PRSWM1
0186477160999992000111522004+36030+140200FM-15+0029RJAK V0200401N003110135019N0112651N1+01201+00601999999ADDGA1021+009009999GA2071+013509999GF107991999999999999999999MA1102511999999MW1001REMMET076RJAK 152200Z 04006KT 9999 SCT030 BKN045 12/06 Q1025 RMK 4SC030 7SC045 A3027;EQDQ01+000000PRSWM2
0295477160999992000111523004+36030+140200FM-15+0029RJAK V0200501N003110135019N0112651N1+01201+00701999999ADDGA1021+006009999GA2071+013509999GA3081+021009999GF108991999999999999999999MA1102611999999MW1001REMMET169RJAK 152300Z 05006KT 9999 FEW020 BKN045 OVC070 12/07 Q1026 RMK 2SC020 5SC045 8AC070 A3030 FCST 2308 TEMPO 0106 06010G20KT BECMG 0305 SCT020SC BKN030SC TEMPO 0608 -RA BR;EQDQ01+000000PRSWM2
0295477160999992000111600004+36030+140200FM-15+0029RJAK V0200501N005710135019N0112651N1+01201+00501999999ADDGA1021+006009999GA2071+013509999GA3081+021009999GF108991999999999999999999MA1102611999999MW1001REMMET169RJAK 160000Z 05011KT 9999 FEW020 BKN045 OVC070 12/05 Q1026 RMK 1SC020 6SC045 8AC070 A3031 FCST 0009 TEMPO 0106 06010G20KT BECMG 0305 SCT020SC BKN030SC TEMPO 0609 -RA BR;EQDQ01+000000PRSWM2
0216477160999992000111601004+36030+140200FM-15+0029RJAK V0200501N006210120019N0112651N1+01201+00501999999ADDGA1021+006009999GA2071+012009999GA3081+021009999GF108991999999999999999999MA1102711999999MW1001REMMET090RJAK 160100Z 05012KT 9999 FEW020 BKN040 OVC070 12/05 Q1027 RMK 1CU020 6SC040 8AC070 A3032;EQDQ01+000000PRSWM2
0336477160999992000111603004+36030+140200FM-15+0029RJAK V0200601N005110120019N0112651N1+01201+00401999999ADDGA1021+006009999GA2071+012009999GA3081+021009999GF108991999999999999999999MA1102611999999MW1001REMMET210RJAK 160300Z 06010KT 9999 FEW020 BKN040 OVC070 12/04 Q1026 RMK 1CU020 5SC040 8AC070 A3031 FCST 0312 TEMPO 0305 06010G20KT SCT020SC BKN030SC BECMG 0507 SCT020SC BKN030SC TEMPO 0709 -RA BR BECMG 0912 4000 -RA BR;EQDQ01+000000PRSWM2
0216477160999992000111604004+36030+140200FM-15+0029RJAK V0200601N005110120019N0112651N1+01201+00501999999ADDGA1021+006009999GA2071+012009999GA3081+024009999GF108991999999999999999999MA1102611999999MW1001REMMET090RJAK 160400Z 06010KT 9999 FEW020 BKN040 OVC080 12/05 Q1026 RMK 1CU020 7SC040 8AC080 A3030;EQDQ01+000000PRSWM2
0186477160999992000111605004+36030+140200FM-15+0029RJAK V0200701N005710120019N0112651N1+01101+00501999999ADDGA1021+006009999GA2071+012009999GF107991999999999999999999MA1102611999999MW1001REMMET076RJAK 160500Z 07011KT 9999 FEW020 BKN040 11/05 Q1026 RMK 2CU020 7SC040 A3030;EQDQ01+000000PRSWM2
0297477160999992000111606004+36030+140200FM-15+0029RJAK V0200601N005710120019N0112651N1+01101+00501999999ADDGA1021+006009999GA2081+012009999GF108991999999999999999999MA1102611999999MW1001REMMET187RJAK 160600Z 06011KT 9999 FEW020 OVC040 11/05 Q1026 RMK 2CU020 8SC040 A3031 FCST 0615 TEMPO 0709 -RA BKN030SC TEMPO 0911 -RA BR BKN030SC BECMG 1113 3000 -RA BR FEW010SC BKN015SC BKN025SC;EQDQ01+000000PRSWM2
0216477160999992000111607004+36030+140200FM-15+0029RJAK V0200701N005110120019N0112651N1+01101+00501999999ADDGA1021+006009999GA2021+010509999GA3081+012009999GF108991999999999999999999MA1102611999999MW1001REMMET090RJAK 160700Z 07010KT 9999 FEW020 SCT035 OVC040 11/05 Q1026 RMK 2CU020 3SC035 8SC040 A3032;EQDQ01+000000PRSWM2
0273477160999992000111608004+36030+140200FM-15+0029RJAK V0200601N005110120019N0112651N1+01101+00501999999ADDGA1021+010509999GA2081+012009999GF108991999999999999999999MA1102711999999MW1001REMMET163RJAK 160800Z 06010KT 9999 SCT035 OVC040 11/05 Q1027 RMK 4SC035 8SC040 A3032 FCST 0817 TEMPO 0912 -RA BR BKN025SC BECMG 1214 3000 -RA BR FEW008ST BKN010SC BKN025SC;EQDQ01+000000PRSWM2
0215477160999992000111622004+36030+140200FM-15+0029RJAK V0203601N001510012019N0023001N1+00801+00801999999ADDGA1071+001209999GA2081+002409999GF108991999999999999999999MA1102001999999MW1101MW2611REMMET083RJAK 162200Z 36003KT 2300 -RA BR BKN004 OVC008 08/08 Q1020 RMK 6ST004 8ST008 A3012;EQDQ01+000003PRSWM1Q02    003PRSWM1
0270477160999992000111623004+36030+140200FM-15+0029RJAK V0203501N002110015019N0038001N1+00901+00801999999ADDGA1071+001509999GA2081+002409999GF108991999999999999999999MA1102001999999MW1101MW2611REMMET138RJAK 162300Z 35004KT 3800 -RA BR BKN005 OVC008 09/08 Q1020 RMK 6ST005 8ST008 A3012 FCST 2308 TEMPO 0406 FEW005ST BKN011SC TEMPO 0508 5000;EQDQ01+000003PRSWM1Q02    003PRSWM1
0270477160999992000111700004+36030+140200FM-15+0029RJAK V0203401N002110015019N0040001N1+00901+00901999999ADDGA1071+001509999GA2081+002409999GF108991999999999999999999MA1101901999999MW1101MW2611REMMET138RJAK 170000Z 34004KT 4000 -RA BR BKN005 OVC008 09/09 Q1019 RMK 5ST005 8ST008 A3010 FCST 0009 TEMPO 0509 FEW005ST BKN011SC TEMPO 0609 5000;EQDQ01+000003PRSWM1Q02    003PRSWM1
0245477160999992000111701004+36030+140200FM-15+0029RJAK V0200101N001510024019N0040001N1+01001+00901999999ADDGA1021+001509999GA2071+002409999GA3081+003009999GF108991999999999999999999MA1101801999999MW1101MW2611REMMET097RJAK 170100Z 01003KT 4000 -RA BR SCT005 BKN008 OVC010 10/09 Q1018 RMK 4ST005 6ST008 8SC010 A3008;EQDQ01+000003PRSWM1Q02    003PRSWM1
0245477160999992000111702004+36030+140200FM-15+0029RJAK V0200101N001510024019N0045001N1+01001+00901999999ADDGA1021+001509999GA2071+002409999GA3081+003609999GF108991999999999999999999MA1101801999999MW1101MW2611REMMET097RJAK 170200Z 01003KT 4500 -RA BR SCT005 BKN008 OVC012 10/09 Q1018 RMK 4ST005 6ST008 8SC012 A3006;EQDQ01+000003PRSWM1Q02    003PRSWM1
0285477160999992000111703004+36030+140200FM-15+0029RJAK V0203101N003110015019N0035001N1+00901+00901999999ADDGA1071+001509999GA2081+002409999GF108991999999999999999999MA1101591999999MW1101MW2611REMMET153RJAK 170300Z 31006KT 3500 -RA BR BKN005 OVC008 09/09 Q1016 RMK 5ST005 8ST008 A3002 FCST 0312 TEMPO 0710 BKN015SC TEMPO 0812 5000 BECMG 1012 NSW BKN015SC;EQDQ01+000003PRSWM1Q02    003PRSWM1
0299477160999992000111706004+36030+140200FM-15+0029RJAK V0203201N002110015019N0035001N1+00901+00901999999ADDGA1021+000609999GA2071+001509999GA3081+003009999GF108991999999999999999999MA1101291999999MW1101MW2611REMMET151RJAK 170600Z 32004KT 3500 -RA BR FEW002 BKN005 OVC010 09/09 Q1013 RMK 2ST002 5ST005 8SC010 A2993 FCST 0615 BECMG 0709 FEW005ST BKN015SC BECMG 1012 NSW;EQDQ01+000003PRSWM1Q02    003PRSWM1
0245477160999992000111707004+36030+140200FM-15+0029RJAK V0203001N002110015019N0015001N1+00901+00901999999ADDGA1021+000609999GA2071+001509999GA3081+003009999GF108991999999999999999999MA1101291999999MW1101MW2611REMMET097RJAK 170700Z 30004KT 1500 -RA BR FEW002 BKN005 OVC010 09/09 Q1013 RMK 2ST002 5ST005 8SC010 A2992;EQDQ01+000003PRSWM1Q02    003PRSWM1
0131477160999992000111708004+36030+140200FM-15+0029RJAK V0203101N001510024019N0010001N1+99999+99999999999ADDGA1071+002409999GF107991999999999999999999MW1001MW2101REMMET046RJAK 170800Z 31003KT 1000 BR BKN08O<O8PJZ1012;EQDQ01+000003PRSWM1
0188477160999992000111800004+36030+140200FM-15+0029RJAK V0202601N001512200019N0112651N1+01201+00901999999ADDGA1021+007509999GF102991999999999999999999MA1101391999999MW1001REMMET094RJAK 180000Z 26003KT 9999 FEW025 12/09 Q1014 RMK 1CU025 A2994 FCST 0009 TEMPO 0107 31014G28KT;EQDQ01+000000PRSWM2
0156477160999992000111801004+36030+140200FM-15+0029RJAK V0202901N004612200019N0112651N1+01601+00301999999ADDGA1021+007509999GF102991999999999999999999MA1101391999999MW1001REMMET062RJAK 180100Z 29009KT 9999 FEW025 16/03 Q1014 RMK 1CU025 A2995;EQDQ01+000000PRSWM2
0167477160999992000111802004+36030+140200FM-15+0029RJAK V0203001N005712200019N0112651N1+01701+00101999999ADDGA1021+007509999GF102991999999999999999999MA1101391999999MW1001OC101131REMMET065RJAK 180200Z 30011G22KT 9999 FEW025 17/01 Q1014 RMK 1CU025 A2994;EQDQ01+000000PRSWM2
0156477160999992000111804004+36030+140200FM-15+0029RJAK V0202801N004112200019N0112651N1+01901+00101999999ADDGA1021+007509999GF102991999999999999999999MA1101391999999MW1001REMMET062RJAK 180400Z 28008KT 9999 FEW025 19/01 Q1014 RMK 1CU025 A2994;EQDQ01+000000PRSWM2
0157477160999992000111822004+36030+140200FM-15+0029RJAK V0203301N002112200019N0112651N1+00501-00101999999ADDGA1021+012009999GF102991999999999999999999MA1102911999999MW1001REMMET063RJAK 182200Z 33004KT 9999 FEW040 05/M01 Q1029 RMK 1SC040 A3038;EQDQ01+000000PRSWM2
0203477160999992000111903004+36030+140200FM-15+0029RJAK V0201101N002110690019N0112651N1+01201-00201999999ADDGA1021+036009999GA2071+069009999GF107991999999999999999999MA1102911999999MW1001REMMET093RJAK 190300Z 11004KT 9999 FEW120 BKN230 12/M02 Q1029 RMK 2AC120 5CI230 A3039 FCST 0312 NOSIG;EQDQ01+000000PRSWM2
0187477160999992000111904004+36030+140200FM-15+0029RJAK V0200501N002110690019N0112651N1+01301-00201999999ADDGA1021+036009999GA2071+069009999GF107991999999999999999999MA1102811999999MW1001REMMET077RJAK 190400Z 05004KT 9999 FEW120 BKN230 13/M02 Q1028 RMK 2AC120 5CI230 A3038;EQDQ01+000000PRSWM2
0187477160999992000111905004+36030+140200FM-15+0029RJAK V0201001N002610690019N0112651N1+01301-00101999999ADDGA1021+036009999GA2071+069009999GF107991999999999999999999MA1102911999999MW1001REMMET077RJAK 190500Z 10005KT 9999 FEW120 BKN230 13/M01 Q1029 RMK 1AC120 6CI230 A3039;EQDQ01+000000PRSWM2
0176477160999992000111922004+36030+140200FM-15+0029RJAK V0203501N002110075019N0112651N1+00901+00401999999ADDGA1081+007509999GF108991999999999999999999MA1102611999999MW1611REMMET066RJAK 192200Z 35004KT 9999 -RA OVC025 09/04 Q1026 RMK 8SC025 A3032;EQDQ01+000003PRSWM1Q02    003PRSWM1
0245477160999992000112002204+36030+140200FM-15+0029RJAK V0203001N001510075019N0040001N1+00801+00601999999ADDGA1021+003609999GA2071+007509999GA3081+009009999GF108991999999999999999999MA1102301999999MW1101MW2611REMMET097RJAK 200220Z 30003KT 4000 -RA BR FEW012 BKN025 OVC030 08/06 Q1023 RMK 2SC012 6SC025 8SC030 A3022;EQDQ01+000003PRSWM1Q02    003PRSWM1
0245477160999992000112004004+36030+140200FM-15+0029RJAK V0203001N001510045019N0016001N1+00801+00801999999ADDGA1021+001509999GA2071+004509999GA3081+007509999GF108991999999999999999999MA1102001999999MW1101MW2611REMMET097RJAK 200400Z 30003KT 1600 -RA BR FEW005 BKN015 OVC025 08/08 Q1020 RMK 2ST005 5SC015 8SC025 A3014;EQDQ01+000003PRSWM1Q02    003PRSWM1
0290477160999992000112006004+36030+140200FM-15+0029RJAK V0203001N001010024019N0015001N1+00901+00801999999ADDGA1021+001209999GA2071+002409999GA3081+004509999GF108991999999999999999999MA1101801999999MW1101MW2611REMMET142RJAK 200600Z 30002KT 1500 -RA BR SCT004 BKN008 OVC015 09/08 Q1018 RMK 3ST004 6ST008 8SC015 A3007 FCST 0615 BECMG 0608 0900 FG TEMPO 1115 SHRA;EQDQ01+000003PRSWM1Q02    003PRSWM1
0245477160999992000112007004+36030+140200FM-15+0029RJAK V0203101N001010024019N0012001N1+00801+00801999999ADDGA1021+000909999GA2071+002409999GA3081+004509999GF108991999999999999999999MA1101691999999MW1101MW2611REMMET097RJAK 200700Z 31002KT 1200 -RA BR SCT003 BKN008 OVC015 08/08 Q1017 RMK 4ST003 7ST008 8SC015 A3005;EQDQ01+000003PRSWM1Q02    003PRSWM1
0271477160999992000112008004+36030+140200FM-15+0029RJAK V02099999999990024019N0013001N1+00901+00901999999ADDGA1021+001209999GA2071+002409999GA3081+004509999GF108991999999999999999999MA1101591999999MW1101MW2611REMMET123RJAK 200800Z VRB01KT 1300 -RA BR SCT004 BKN008 OVC015 09/09 Q1016 RMK 4ST004 7ST008 8SC015 A3001 FCST 0817 TEMPO 1117 SHRA;EQDQ01+000003PRSWM1Q02    003PRSWM1
0245477160999992000112022004+36030+140200FM-15+0029RJAK V0202701N002110048019N0040001N1+01301+01301999999ADDGA1021+002409999GA2071+004809999GA3081+013509999GF108991999999999999999999MA1100511999999MW1101MW2611REMMET097RJAK 202200Z 27004KT 4000 -RA BR FEW008 BKN016 OVC045 13/13 Q1005 RMK 2ST008 5CU016 8SC045 A2968;EQDQ01+000003PRSWM1Q02    003PRSWM1
0333477160999992000112023004+36030+140200FM-15+0029RJAK V0202501N002110075019N0050001N1+01301+01201999999ADDGA1021+002709999GA2071+007509999GA3081+013509999GF108991999999999999999999MA1100711999999MW1101MW2611REMMET185RJAK 202300Z 25004KT 5000 -RA BR FEW009 BKN025 OVC045 13/12 Q1007 RMK 1ST009 5CU025 8SC045 A2974 P/RR FCST 2308 BECMG 2301 NSW BECMG 0002 SCT025CU BKN040SC BECMG 0204 SCT025CU SCT040SC;EQDQ01+000003PRSWM1Q02    003PRSWM1
0333477160999992000112100004+36030+140200FM-15+0029RJAK V0203001N001010060019N0030001N1+01301+01201999999ADDGA1021+002109999GA2071+006009999GA3081+009009999GF108991999999999999999999MA1100811999999MW1101MW2611REMMET185RJAK 210000Z 30002KT 3000 -RA BR SCT007 BKN020 OVC030 13/12 Q1008 RMK 3ST007 6CU020 8CU030 A2978 FCST 0009 BECMG 0001 5000 BECMG 0102 NSW SCT020CU BKN045SC BECMG 0204 FEW020CU SCT045SC;EQDQ01+000003PRSWM1Q02    003PRSWM1
0235477160999992000112101004+36030+140200FM-15+0029RJAK V0201701N001010075019N0035001N1+01301+01101999999ADDGA1021+003609999GA2071+007509999GA3081+013509999GF108991999999999999999999MA1100811999999MW1101REMMET093RJAK 210100Z 17002KT 3500 BR FEW012 BKN025 OVC045 13/11 Q1008 RMK 2CU012 6CU025 8SC045 A2978;EQDQ01+000003PRSWM1Q02    003PRSWM1
0235477160999992000112102004+36030+140200FM-15+0029RJAK V02099999999990090019N0050001N1+01501+01301999999ADDGA1021+004509999GA2071+009009999GA3071+013509999GF107991999999999999999999MA1100811999999MW1101REMMET093RJAK 210200Z VRB03KT 5000 BR FEW015 BKN030 BKN045 15/13 Q1008 RMK 1CU015 5CU030 7SC045 A2978;EQDQ01+000003PRSWM1Q02    003PRSWM1
0232477160999992000112103004+36030+140200FM-15+0029RJAK V0200401N004110135019N0112651N1+01501+01101999999ADDGA1021+004509999GA2021+009009999GA3071+013509999GF107991999999999999999999MA1100811999999MW1001REMMET106RJAK 210300Z 04008KT 9999 FEW015 SCT030 BKN045 15/11 Q1008 RMK 1CU015 3CU030 7SC045 A2978 FCST 0312 NOSIG;EQDQ01+000000PRSWM2
0216477160999992000112104004+36030+140200FM-15+0029RJAK V0200501N003610135019N0112651N1+01501+01101999999ADDGA1021+004509999GA2021+009009999GA3071+013509999GF107991999999999999999999MA1100811999999MW1001REMMET090RJAK 210400Z 05007KT 9999 FEW015 SCT030 BKN045 15/11 Q1008 RMK 1CU015 3CU030 7SC045 A2978;EQDQ01+000000PRSWM2
0216477160999992000112105004+36030+140200FM-15+0029RJAK V0200601N003610135019N0112651N1+01501+01001999999ADDGA1021+004509999GA2021+009009999GA3071+013509999GF107991999999999999999999MA1100911999999MW1001REMMET090RJAK 210500Z 06007KT 9999 FEW015 SCT030 BKN045 15/10 Q1009 RMK 1CU015 3CU030 7SC045 A2981;EQDQ01+000000PRSWM2
0225477160999992000112106004+36030+140200FM-15+0029RJAK V0200801N002610135019N0112651N1+01401+01001999999ADDGA1021+004509999GA2071+013509999GF107991999999999999999999MA1101021999999MW1001REMMET115RJAK 210600Z 08005KT 9999 FEW015 BKN045 14/10 Q1010 RMK 1CU015 7SC045 A2982 FCST 0615 BECMG 1214 FEW030CU SCT045SC;EQDQ01+000000PRSWM2
0216477160999992000112107004+36030+140200FM-15+0029RJAK V0200801N002110135019N0112651N1+01401+01001999999ADDGA1021+004509999GA2021+009009999GA3071+013509999GF107991999999999999999999MA1101081999999MW1001REMMET090RJAK 210700Z 08004KT 9999 FEW015 SCT030 BKN045 14/10 Q1011 RMK 1CU015 3CU030 7SC045 A2985;EQDQ01+000000PRSWM2
0216477160999992000112108004+36030+140200FM-15+0029RJAK V0200501N001510120019N0112651N1+01401+01101999999ADDGA1021+009009999GA2071+012009999GF107991999999999999999999MA1101191999999MW1001REMMET106RJAK 210800Z 05003KT 9999 SCT030 BKN040 14/11 Q1012 RMK 3SC030 7SC040 A2988 FCST 0817 BECMG 1214 SCT040SC;EQDQ01+000000PRSWM2
0186477160999992000112122004+36030+140200FM-15+0029RJAK V0200401N002110120019N0112651N1+00801+00201999999ADDGA1021+006009999GA2071+012009999GF107991999999999999999999MA1102301999999MW1001REMMET076RJAK 212200Z 04004KT 9999 FEW020 BKN040 08/02 Q1023 RMK 1CU020 6SC040 A3022;EQDQ01+000000PRSWM2
0225477160999992000112123004+36030+140200FM-15+0029RJAK V0200501N003110120019N0112651N1+00801+00201999999ADDGA1021+006009999GA2071+012009999GF107991999999999999999999MA1102401999999MW1001REMMET115RJAK 212300Z 05006KT 9999 FEW020 BKN040 08/02 Q1024 RMK 1CU020 5SC040 A3025 FCST 2308 TEMPO 0208 FEW020CU SCT040SC;EQDQ01+000000PRSWM2
0255477160999992000112200004+36030+140200FM-15+0029RJAK V0200501N003610120019N0112651N1+00901+00201999999ADDGA1021+006009999GA2071+012009999GA3071+069009999GF107991999999999999999999MA1102511999999MW1001REMMET129RJAK 220000Z 05007KT 9999 FEW020 BKN040 BKN230 09/02 Q1025 RMK 1CU020 5SC040 6CI230 A3027 FCST 0009 TEMPO 0207 FEW020CU SCT040SC;EQDQ01+000000PRSWM2
0186477160999992000112201004+36030+140200FM-15+0029RJAK V0200601N004610690019N0112651N1+01001+00101999999ADDGA1021+012009999GA2071+069009999GF107991999999999999999999MA1102511999999MW1001REMMET076RJAK 220100Z 06009KT 9999 FEW040 BKN230 10/01 Q1025 RMK 1SC040 7CI230 A3028;EQDQ01+000000PRSWM2
0216477160999992000112202004+36030+140200FM-15+0029RJAK V0200501N005110690019N0112651N1+01101+00201999999ADDGA1021+006009999GA2021+036009999GA3071+069009999GF107991999999999999999999MA1102511999999MW1001REMMET090RJAK 220200Z 05010KT 9999 FEW020 SCT120 BKN230 11/02 Q1025 RMK 1CU020 3AC120 5CI230 A3027;EQDQ01+000000PRSWM2
0186477160999992000112202254+36030+140200FM-15+0029RJAK V0200701N003610300019N0112651N1+01101+00201999999ADDGA1021+006009999GA2071+030009999GF107991999999999999999999MA1102511999999MW1001REMMET076RJAK 220225Z 07007KT 9999 FEW020 BKN100 11/02 Q1025 RMK 1CU020 5AC100 A3027;EQDQ01+000000PRSWM2
0216477160999992000112203004+36030+140200FM-15+0029RJAK V0200701N004110300019N0112651N1+01101+00201999999ADDGA1021+007509999GA2071+030009999GF107991999999999999999999MA1102401999999MW1001REMMET106RJAK 220300Z 07008KT 9999 FEW025 BKN100 11/02 Q1024 RMK 1CU025 6AC100 A3026 FCST 0312 TEMPO 1012 BKN030SC;EQDQ01+000000PRSWM2
0216477160999992000112205004+36030+140200FM-15+0029RJAK V0200801N004110300019N0112651N1+01101+00101999999ADDGA1021+007509999GA2021+018009999GA3071+030009999GF107991999999999999999999MA1102401999999MW1001REMMET090RJAK 220500Z 08008KT 9999 FEW025 SCT060 BKN100 11/01 Q1024 RMK 1CU025 4SC060 5AC100 A3026;EQDQ01+000000PRSWM2
0255477160999992000112206004+36030+140200FM-15+0029RJAK V0200801N004610300019N0112651N1+01201+00101999999ADDGA1021+007509999GA2071+030009999GA3071+036009999GF107991999999999999999999MA1102511999999MW1001REMMET129RJAK 220600Z 08009KT 9999 FEW025 BKN100 BKN120 12/01 Q1025 RMK 1CU025 5AC100 6AC120 A3026 FCST 0615 TEMPO 1015 FEW020SC BKN030SC;EQDQ01+000000PRSWM2
0216477160999992000112207004+36030+140200FM-15+0029RJAK V0200901N004110240019N0112651N1+01101+00201999999ADDGA1021+007509999GA2021+015009999GA3071+024009999GF107991999999999999999999MA1102511999999MW1001REMMET090RJAK 220700Z 09008KT 9999 FEW025 SCT050 BKN080 11/02 Q1025 RMK 1CU025 4SC050 5AC080 A3028;EQDQ01+000000PRSWM2
0260477160999992000112208004+36030+140200FM-15+0029RJAK V0200801N005112200019N0112651N1+01001+00201999999ADDGA1021+015009999GA2021+024009999GF104991999999999999999999MA1102611999999MW1001REMMET150RJAK 220800Z 08010KT 9999 FEW050 SCT080 10/02 Q1026 RMK 2SC050 4AC080 A3030 FCST 0817 BECMG 0810 SCT050SC BKN080AC BECMG 1315 BKN030SC TEMPO 1517 -RA;EQDQ01+000000PRSWM2
0130477160999992000112322004+36030+140200FM-15+0029RJAK V0202701N001012200019N0060001N1+00301+00201999999ADDGF100991999999999999999999MA1102301999999MW1001REMMET052RJAK 232200Z 27002KT 6000 SKC 03/02 Q1023 RMK A3022;EQDQ01+000000PRSWM2
0146477160999992000112323004+36030+140200FM-15+0029RJAK V02099999999992200019N0060001N1+00401+00301999999ADDGF100991999999999999999999MA1102301999999MW1001REMMET068RJAK 232300Z VRB01KT 6000 SKC 04/03 Q1023 RMK A3023 FCST 2308 NOSIG;EQDQ01+000000PRSWM2
0146477160999992000112400004+36030+140200FM-15+0029RJAK V02099999999992200019N0060001N1+00801+00301999999ADDGF100991999999999999999999MA1102301999999MW1001REMMET068RJAK 240000Z VRB03KT 6000 SKC 08/03 Q1023 RMK A3023 FCST 0009 NOSIG;EQDQ01+000000PRSWM2
0146477160999992000112401004+36030+140200FM-15+0029RJAK V02099999999992200019N9999999N1+01101+00401999999ADDGF100991999999999999999999MA1102301999999MW1001REMMET052RJAK 240100Z VRB02KT 6000 SKC 11/04 Q1023 RMK A3022;EQDQ01+060002VODIS Q02+000000PRSWM2
0130477160999992000112402004+36030+140200FM-15+0029RJAK V0202901N001012200019N0112651N1+01301+00401999999ADDGF100991999999999999999999MA1102301999999MW1001REMMET052RJAK 240200Z 29002KT 9999 SKC 13/04 Q1023 RMK A3020;EQDQ01+000000PRSWM2
0146477160999992000112403004+36030+140200FM-15+0029RJAK V02099999999992200019N0112651N1+01501+00401999999ADDGF100991999999999999999999MA1102201999999MW1001REMMET068RJAK 240300Z VRB01KT 9999 SKC 15/04 Q1022 RMK A3019 FCST 0312 NOSIG;EQDQ01+000000PRSWM2
0156477160999992000112404004+36030+140200FM-15+0029RJAK V02099999999992200019N0112651N1+01601+00501999999ADDGA1021+036009999GF102991999999999999999999MA1102101999999MW1001REMMET062RJAK 240400Z VRB01KT 9999 FEW120 16/05 Q1021 RMK 1AC120 A3017;EQDQ01+000000PRSWM2
0156477160999992000112405004+36030+140200FM-15+0029RJAK V0201301N002112200019N0112651N1+01701+00501999999ADDGA1021+060009999GF102991999999999999999999MA1102101999999MW1001REMMET062RJAK 240500Z 13004KT 9999 FEW200 17/05 Q1021 RMK 1CI200 A3016;EQDQ01+000000PRSWM2
0160477160999992000112406004+36030+140200FM-15+0029RJAK V0200801N002112200019N0112651N1+01701+00601999999ADDGA1021+069009999GF102991999999999999999999MA1102201999999MW1001REMMET066RJAK 240600Z 08004KT 9999 FEW230 17/06 Q1022 RMK 2CI230 A3018 FCS;EQDQ01+000000PRSWM2
0186477160999992000112407004+36030+140200FM-15+0029RJAK V0200801N001512200019N0112651N1+01501+00601999999ADDGA1021+036009999GA2021+069009999GF104991999999999999999999MA1102201999999MW1001REMMET076RJAK 240700Z 08003KT 9999 FEW120 SCT230 15/06 Q1022 RMK 1AC120 4CI230 A3018;EQDQ01+000000PRSWM2
0172477160999992000112408004+36030+140200FM-15+0029RJAK V0201301N000512200019N0112651N1+01301+00601999999ADDGA1021+069009999GF104991999999999999999999MA1102201999999MW1001REMMET078RJAK 240800Z 13001KT 9999 SCT230 13/06 Q1022 RMK 3CI230 A3018 FCST 0817 NOSIG;EQDQ01+000000PRSWM2
0235477160999992000112622004+36030+140200FM-15+0029RJAK V02099999999990300019N0050001N1+01001+00801999999ADDGA1021+007509999GA2021+010509999GA3071+030009999GF107991999999999999999999MA1101191999999MW1101REMMET093RJAK 262200Z VRB01KT 5000 BR FEW025 SCT035 BKN100 10/08 Q1012 RMK 2SC025 3SC035 7AC100 A2989;EQDQ01+000003PRSWM1Q02    003PRSWM1
0245477160999992000112623004+36030+140200FM-15+0029RJAK V0203201N001012200019N0060001N1+01101+00801999999ADDGA1021+012009999GA2021+030009999GF104991999999999999999999MA1101191999999MW1001REMMET135RJAK 262300Z 32002KT 6000 FEW040 SCT100 11/08 Q1012 RMK 2SC040 3AC100 A2989 FCST 2308 TEMPO 0006 BKN100AC TEMPO 0608 SCT040SC BKN100AC;EQDQ01+000000PRSWM2
0195477160999992000112700004+36030+140200FM-15+0029RJAK V0203601N002112200019N0070001N1+01301+00901999999ADDGA1021+012009999GF102991999999999999999999MA1101191999999MW1001REMMET101RJAK 270000Z 36004KT 7000 FEW040 13/09 Q1012 RMK 1SC040 A2990 FCST 0009 TEMPO 0609 SCT040SC BKN100AC;EQDQ01+000000PRSWM2
0156477160999992000112701004+36030+140200FM-15+0029RJAK V0200401N003612200019N0080001N1+01601+01001999999ADDGA1021+010509999GF102991999999999999999999MA1101191999999MW1001REMMET062RJAK 270100Z 04007KT 8000 FEW035 16/10 Q1012 RMK 1CU035 A2989;EQDQ01+000000PRSWM2
0156477160999992000112702004+36030+140200FM-15+0029RJAK V0200501N003612200019N0080001N1+01601+01101999999ADDGA1021+009009999GF102991999999999999999999MA1101081999999MW1001REMMET062RJAK 270200Z 05007KT 8000 FEW030 16/11 Q1011 RMK 2CU030 A2986;EQDQ01+000000PRSWM2
0234477160999992000112703004+36030+140200FM-15+0029RJAK V0200501N003612200019N0112651N1+01801+01101999999ADDGA1021+006009999GA2021+009009999GF104991999999999999999999MA1101021999999MW1001REMMET124RJAK 270300Z 05007KT 9999 FEW020 SCT030 18/11 Q1010 RMK 1CU020 3CU030 A2983 FCST 0312 TEMPO 0712 FEW025SC BKN030CU BKN100AC;EQDQ01+000000PRSWM2
0156477160999992000112704004+36030+140200FM-15+0029RJAK V0200901N003612200019N0112651N1+01801+01001999999ADDGA1021+006009999GF104991999999999999999999MA1100911999999MW1001REMMET062RJAK 270400Z 09007KT 9999 SCT020 18/10 Q1009 RMK 3CU020 A2982;EQDQ01+000000PRSWM2
0156477160999992000112705004+36030+140200FM-15+0029RJAK V0201101N003612200019N0112651N1+01701+01001999999ADDGA1021+006009999GF102991999999999999999999MA1100911999999MW1001REMMET062RJAK 270500Z 11007KT 9999 FEW020 17/10 Q1009 RMK 2CU020 A2981;EQDQ01+000000PRSWM2
0210477160999992000112706004+36030+140200FM-15+0029RJAK V0201001N004612200019N0112651N1+01601+01101999999ADDGA1021+006009999GF102991999999999999999999MW1001REMMET131RJAK 270600Z 10009KT 9999 FEW020 16/11 Q188ONPPPP:J U020 A2981 FCST 0615 TEMPO 0710 FEW015CU SCT030CU BKN100AC TEMPO 1015 BKN030CU;EQDQ01+000000PRSWM2
0186477160999992000112707004+36030+140200FM-15+0029RJAK V0200801N005112200019N0090001N1+01401+01101999999ADDGA1021+004509999GA2021+007509999GF104991999999999999999999MA1101021999999MW1001REMMET076RJAK 270700Z 08010KT 9000 FEW015 SCT025 14/11 Q1010 RMK 1CU015 3CU025 A2983;EQDQ01+000000PRSWM2
0156477160999992000112707354+36030+140200FM-16+0029RJAK V0200601N005710045019N0090001N1+01301+01001999999ADDGA1071+004509999GF107991999999999999999999MA1101021999999MW1001REMMET062RJAK 270735Z 06011KT 9000 BKN015 13/10 Q1010 RMK 6CU015 A2984;EQDQ01+000000PRSWM2
0202477160999992000112708004+36030+140200FM-15+0029RJAK V0200701N005710045019N0090001N1+01301+00901999999ADDGA1071+004509999GF107991999999999999999999MA1101021999999MW1001REMMET108RJAK 270800Z 07011KT 9000 BKN015 13/09 Q1010 RMK 5CU015 A2985 FCST 0817 TEMPO 0809 -RA BECMG 8O<8U BKN035CU;EQDQ01+000000PRSWM2
0156477160999992000112722004+36030+140200FM-15+0029RJAK V0209999C000012200019N0112651N1+00601+00301999999ADDGA1021+003009999GF102991999999999999999999MA1101391999999MW1001REMMET062RJAK 272200Z 00000KT 9999 FEW010 06/03 Q1014 RMK 1CU010 A2997;EQDQ01+000000PRSWM2
0188477160999992000112723004+36030+140200FM-15+0029RJAK V02099999999992200019N0112651N1+00601+00401999999ADDGA1021+012009999GF102991999999999999999999MA1101491999999MW1001REMMET094RJAK 272300Z VRB01KT 9999 FEW040 06/04 Q1015 RMK 2SC040 A2999 FCST 2308 TEMPO 0107 33010G25KT;EQDQ01+000000PRSWM2
0157477160999992000112801004+36030+140200FM-15+0029RJAK V0203201N003612200019N0112651N1+01201-00401999999ADDGA1021+006009999GF102991999999999999999999MA1101591999999MW1001REMMET063RJAK 280100Z 32007KT 9999 FEW020 12/M04 Q1016 RMK 1CU020 A3002;EQDQ01+000000PRSWM2
0168477160999992000112802004+36030+140200FM-15+0029RJAK V0203201N003612200019N0112651N1+01201-00501999999ADDGA1021+006009999GF102991999999999999999999MA1101591999999MW1001OC101131REMMET066RJAK 280200Z 32007G22KT 9999 FEW020 12/M05 Q1016 RMK 1CU020 A3000;EQDQ01+000000PRSWM2
0168477160999992000112802224+36030+140200FM-16+0029RJAK V0203101N007212200019N0112651N1+01201-00801999999ADDGA1021+006009999GF102991999999999999999999MA1101491999999MW1001OC101801REMMET066RJAK 280222Z 31014G35KT 9999 FEW020 12/M08 Q1015 RMK 1CU020 A2999;EQDQ01+000000PRSWM2
0219477160999992000112803004+36030+140200FM-15+0029RJAK V0202901N008712200019N0112651N1+01301-00701999999ADDGA1021+006009999GF102991999999999999999999MA1101491999999MW1001OC101541REMMET117RJAK 280300Z 29017G30KT 9999 FEW020 13/M07 Q1015 RMK 1CU020 A2999 FCST 0312 TEMPO 0305 30020G35KT BECMG 0911 30010KT;EQDQ01+000000PRSWM2
0168477160999992000112804004+36030+140200FM-15+0029RJAK V0203001N005712200019N0112651N1+01301-00601999999ADDGA1021+006009999GF102991999999999999999999MA1101491999999MW1001OC101231REMMET066RJAK 280400Z 30011G24KT 9999 FEW020 13/M06 Q1015 RMK 1CU020 A2999;EQDQ01+000000PRSWM2
0123477160999992000112805004+36030+140200FM-15+0029RJAK V0203001N006712200019N0112651N1+99999+99999999999ADDGA1021+006009999GF102991999999999999999999MW1001OC101291REMMET036RJAK 280500Z 30013G25KT 9999 FEW020;EQDQ01+000000PRSWM2
0157477160999992000112807004+36030+140200FM-15+0029RJAK V0203001N005112200019N0112651N1+01101-00501999999ADDGA1021+007509999GF102991999999999999999999MA1101801999999MW1001REMMET063RJAK 280700Z 30010KT 9999 FEW025 11/M05 Q1018 RMK 1CU025 A3006;EQDQ01+000000PRSWM2
0173477160999992000112808004+36030+140200FM-15+0029RJAK V0203101N004112200019N0112651N1+01001-00601999999ADDGA1021+007509999GF102991999999999999999999MA1101901999999MW1001REMMET079RJAK 280800Z 31008KT 9999 FEW025 10/M06 Q1019 RMK 1CU025 A3009 FCST 0817 NOSIG;EQDQ01+000000PRSWM2
0158477160999992000112822004+36030+140200FM-15+0029RJAK V0202801N000512200019N0112651N1+00001-00301999999ADDGA1021+009009999GF102991999999999999999999MA1102511999999MW1001REMMET064RJAK 282200Z 28001KT 9999 FEW030 M00/M03 Q1025 RMK 1CU030 A3027;EQDQ01+000000PRSWM2
0173477160999992000112823004+36030+140200FM-15+0029RJAK V0202601N000512200019N0112651N1+00301-00201999999ADDGA1021+009009999GF102991999999999999999999MA1102511999999MW1001REMMET079RJAK 282300Z 26001KT 9999 FEW030 03/M02 Q1025 RMK 1CU030 A3028 FCST 2308 NOSIG;EQDQ01+000000PRSWM2
0173477160999992000112900004+36030+140200FM-15+0029RJAK V0203101N001012200019N0112651N1+00501-00401999999ADDGA1021+009009999GF102991999999999999999999MA1102511999999MW1001REMMET079RJAK 290000Z 31002KT 9999 FEW030 05/M04 Q1025 RMK 1CU030 A3029 FCST 0009 NOSIG;EQDQ01+000000PRSWM2
0196477160999992000112903004+36030+140200FM-15+0029RJAK V0200701N002112200019N0112651N1+01001-00501999999ADDGA1021+009009999GF102991999999999999999999MA1102301999999MW1001REMMET102RJAK 290300Z 07004KT 9999 FEW030 10/M05 Q1023 RMK 1CU030 A3023 FCST 0312 TEMPO 0912 FEW030CU BKN120AC;EQDQ01+000000PRSWM2
0157477160999992000112904004+36030+140200FM-15+0029RJAK V0201701N001512200019N0112651N1+01001-00401999999ADDGA1021+009009999GF102991999999999999999999MA1102301999999MW1001REMMET063RJAK 290400Z 17003KT 9999 FEW030 10/M04 Q1023 RMK 1CU030 A3022;EQDQ01+000000PRSWM2
0187477160999992000112905004+36030+140200FM-15+0029RJAK V0200801N002112200019N0112651N1+01101-00301999999ADDGA1021+009009999GA2021+036009999GF104991999999999999999999MA1102301999999MW1001REMMET077RJAK 290500Z 08004KT 9999 FEW030 SCT120 11/M03 Q1023 RMK 1CU030 3AC120 A3021;EQDQ01+000000PRSWM2
0217477160999992000112907004+36030+140200FM-15+0029RJAK V0201101N002610600019N0112651N1+00901-00301999999ADDGA1021+009009999GA2021+030009999GA3071+060009999GF107991999999999999999999MA1102201999999MW1001REMMET091RJAK 290700Z 11005KT 9999 FEW030 SCT100 BKN200 09/M03 Q1022 RMK 1CU030 3AC100 7CI200 A3020;EQDQ01+000000PRSWM2
0203477160999992000112908004+36030+140200FM-15+0029RJAK V0201301N002112200019N0112651N1+00801-00101999999ADDGA1021+024009999GA2021+060009999GF104991999999999999999999MA1102201999999MW1001REMMET093RJAK 290800Z 13004KT 9999 SCT080 SCT200 08/M01 Q1022 RMK 3AC080 4CI200 A3020 FCST 0817 NOSIG;EQDQ01+000000PRSWM2
0217477160999992000112922004+36030+140200FM-15+0029RJAK V0202901N002610690019N0112651N1+00401-00301999999ADDGA1021+006009999GA2021+036009999GA3071+069009999GF107991999999999999999999MA1101801999999MW1001REMMET091RJAK 292200Z 29005KT 9999 FEW020 SCT120 BKN230 04/M03 Q1018 RMK 1CU020 3AC120 7CI230 A3007;EQDQ01+000000PRSWM2
0219477160999992000112923004+36030+140200FM-15+0029RJAK V0203101N003610690019N0112651N1+00501-00301999999ADDGA1021+006009999GA2071+069009999GF107991999999999999999999MA1101901999999MW1001REMMET109RJAK 292300Z 31007KT 9999 FEW020 BKN230 05/M03 Q1019 RMK 1CU020 6CI230 A3009 FCST 2308 TEMPO 0207 33010G25KT;EQDQ01+000000PRSWM2
0248477160999992000113000004+36030+140200FM-15+0029RJAK V0203301N001010690019N0112651N1+00601-00201999999ADDGA1021+030009999GA2071+069009999GF107991999999999999999999MA1101901999999MW1001REMMET138RJAK 300000Z 33002KT 9999 FEW100 BKN230 06/M02 Q1019 RMK 1AC100 5CI230 A3009 FCST 0009 TEMPO 0207 33010G25KT BECMG 0809 FEW030CU BKN100AC;EQDQ01+000000PRSWM2
0157477160999992000113001004+36030+140200FM-15+0029RJAK V0200201N002612200019N0112651N1+01101+00001999999ADDGA1021+030009999GF102991999999999999999999MA1101901999999MW1001REMMET063RJAK 300100Z 02005KT 9999 FEW100 11/M00 Q1019 RMK 1AC100 A3009;EQDQ01+000000PRSWM2
0157477160999992000113002004+36030+140200FM-15+0029RJAK V0203601N002112200019N0112651N1+01201+00001999999ADDGA1021+030009999GF102991999999999999999999MA1101801999999MW1001REMMET063RJAK 300200Z 36004KT 9999 FEW100 12/M00 Q1018 RMK 1AC100 A3008;EQDQ01+000000PRSWM2
0217477160999992000113003004+36030+140200FM-15+0029RJAK V0203301N001512200019N0112651N1+01401+00001999999ADDGA1021+030009999GF102991999999999999999999MA1101801999999MW1001REMMET123RJAK 300300Z 33003KT 9999 FEW100 14/00 Q1018 RMK 1AC100 A3006 FCST 0312 TEMPO 0407 03010G20KT BECMG 1012 FEW030CU BKN100AC;EQDQ01+000000PRSWM2
0157477160999992000113004004+36030+140200FM-15+0029RJAK V0203201N004112200019N0112651N1+01501-00101999999ADDGA1021+030009999GF102991999999999999999999MA1101691999999MW1001REMMET063RJAK 300400Z 32008KT 9999 FEW100 15/M01 Q1017 RMK 1AC100 A3005;EQDQ01+000000PRSWM2
0157477160999992000113005004+36030+140200FM-15+0029RJAK V0203401N004112200019N0112651N1+01501-00101999999ADDGA1021+030009999GF102991999999999999999999MA1101691999999MW1001REMMET063RJAK 300500Z 34008KT 9999 FEW100 15/M01 Q1017 RMK 1AC100 A3004;EQDQ01+000000PRSWM2
0196477160999992000113006004+36030+140200FM-15+0029RJAK V0200101N003612200019N0112651N1+01501-00101999999ADDGA1021+030009999GF102991999999999999999999MA1101801999999MW1001REMMET102RJAK 300600Z 01007KT 9999 FEW100 15/M01 Q1018 RMK 1AC100 A3006 FCST 0615 TEMPO 1115 FEW030CU BKN100AC;EQDQ01+000000PRSWM2
0187477160999992000113007004+36030+140200FM-15+0029RJAK V0200301N004612200019N0112651N1+01201-00201999999ADDGA1021+009009999GA2021+069009999GF104991999999999999999999MA1101801999999MW1001REMMET077RJAK 300700Z 03009KT 9999 FEW030 SCT230 12/M02 Q1018 RMK 1CU030 4CI230 A3008;EQDQ01+000000PRSWM2
0187477160999992000113008004+36030+140200FM-15+0029RJAK V0200301N004612200019N0112651N1+01101-00301999999ADDGA1021+030009999GF102991999999999999999999MA1101901999999MW1001REMMET093RJAK 300800Z 03009KT 9999 FEW100 11/M03 Q1019 RMK 1AC100 A3010 FCST 0817 TEMPO 1317 BKN100AC;EQDQ01+000000PRSWM2
0197477160999992000113022004+36030+140200FM-15+0029RJAK V0200201N003610120019N0112651N1+00601-00101999999ADDGA1021+009009999GA2071+012009999GA3071+030009999GF107991999999999999999999MA1102301999999MW1001REMMET071RJAK 302200Z 02007KT 9999 FEW030 BKN040 BKN100 06/M01 Q1023 RMK 1SC030;EQDQ01+000000PRSWM2
0242477160999992000113023004+36030+140200FM-15+0029RJAK V0200101N003110120019N0112651N1+00601-00201999999ADDGA1021+006009999GA2071+012009999GA3071+030009999GF107991999999999999999999MA1102301999999MW1001REMMET116RJAK 302300Z 01006KT 9999 FEW020 BKN040 BKN100 06/M02 Q1023 RMK 1CU020 6SC040 7AC100 A3023 FCST 2308 TEMPO 2301 -RA;EQDQ01+000000PRSWM2
0233477160999992000120100004+36030+140200FM-15+0029RJAK V0203601N003110135019N0112651N1+00701-00201999999ADDGA1021+006009999GA2071+013509999GA3071+030009999GF107991999999999999999999MA1102401999999MW1001REMMET107RJAK 010000Z 36006KT 9999 FEW020 BKN045 BKN100 07/M02 Q1024 RMK 1CU020 5SC045 7AC100 A3024 FCST 0009 NOSIG;EQDQ01+000000PRSWM2
0217477160999992000120101004+36030+140200FM-15+0029RJAK V0200201N003110135019N0112651N1+00701-00201999999ADDGA1021+006009999GA2071+013509999GA3071+030009999GF107991999999999999999999MA1102301999999MW1001REMMET091RJAK 010100Z 02006KT 9999 FEW020 BKN045 BKN100 07/M02 Q1023 RMK 1CU020 5SC045 7AC100 A3023;EQDQ01+000000PRSWM2
0187477160999992000120102004+36030+140200FM-15+0029RJAK V0200201N002110300019N0112651N1+00801-00201999999ADDGA1021+012009999GA2071+030009999GF107991999999999999999999MA1102201999999MW1001REMMET077RJAK 010200Z 02004KT 9999 FEW040 BKN100 08/M02 Q1022 RMK 2SC040 6AC100 A3020;EQDQ01+000000PRSWM2
0187477160999992000120102234+36030+140200FM-16+0029RJAK V0200301N002612200019N0112651N1+00901-00201999999ADDGA1021+012009999GA2021+030009999GF104991999999999999999999MA1102201999999MW1001REMMET077RJAK 010223Z 03005KT 9999 FEW040 SCT100 09/M02 Q1022 RMK 1SC040 3AC100 A3019;EQDQ01+000000PRSWM2
0173477160999992000120103004+36030+140200FM-15+0029RJAK V0200301N002112200019N0112651N1+00901-00201999999ADDGA1021+012009999GF102991999999999999999999MA1102101999999MW1001REMMET079RJAK 010300Z 03004KT 9999 FEW040 09/M02 Q1021 RMK 1SC040 A3017 FCST 0312 NOSIG;EQDQ01+000000PRSWM2
0161477160999992000120104004+36030+140200FM-15+0029RJAK V0200801N001512200019N0112651N1+01101-00201999999ADDGA1021+012009999GF102991999999999999999999MA1102101999999MW1001REMMET067RJAK 010400Z 08003KT 9999 FEW040 11/M02 Q1021 RMK 1SC040 A38NLOXP-;EQDQ01+000000PRSWM2
0157477160999992000120105004+36030+140200FM-15+0029RJAK V0200701N002612200019N0112651N1+01101-00101999999ADDGA1021+012009999GF102991999999999999999999MA1102101999999MW1001REMMET063RJAK 010500Z 07005KT 9999 FEW040 11/M01 Q1021 RMK 1SC040 A3015;EQDQ01+000000PRSWM2
0157477160999992000120107004+36030+140200FM-15+0029RJAK V0200901N002112200019N0112651N1+01001-00101999999ADDGA1021+030009999GF102991999999999999999999MA1102101999999MW1001REMMET063RJAK 010700Z 09004KT 9999 FEW100 10/M01 Q1021 RMK 1AC100 A3015;EQDQ01+000000PRSWM2
0172477160999992000120108004+36030+140200FM-15+0029RJAK V0200801N003112200019N0112651N1+00801+00101999999ADDGA1021+030009999GF102991999999999999999999MA1102201999999MW1001REMMET078RJAK 010800Z 08006KT 9999 FEW100 08/01 Q1022 RMK 1AC100 A3018 FCST 0817 NOSIG;EQDQ01+000000PRSWM2
0157477160999992000120322004+36030+140200FM-15+0029RJAK V0200201N001012200019N0112651N1+00301+00001999999ADDGA1021+009009999GF102991999999999999999999MA1101291999999MW1001REMMET063RJAK 032200Z 02002KT 9999 FEW030 03/M00 Q1013 RMK 1CU030 A2991;EQDQ01+000000PRSWM2
0189477160999992000120323004+36030+140200FM-15+0029RJAK V0200301N001512200019N0112651N1+00501-00101999999ADDGA1021+009009999GF102991999999999999999999MA1101391999999MW1001REMMET095RJAK 032300Z 03003KT 9999 FEW030 05/M01 Q1014 RMK 1CU030 A2994 FCST 2308 TEMPO 0206 34012G25KT;EQDQ01+000000PRSWM2
0189477160999992000120400004+36030+140200FM-15+0029RJAK V0200401N003612200019N0112651N1+00701-00101999999ADDGA1021+007509999GF102991999999999999999999MA1101391999999MW1001REMMET095RJAK 040000Z 04007KT 9999 FEW025 07/M01 Q1014 RMK 1CU025 A2997 FCST 0009 TEMPO 0206 03012G25KT;EQDQ01+000000PRSWM2
0157477160999992000120401004+36030+140200FM-15+0029RJAK V0200301N005112200019N0112651N1+00901-00301999999ADDGA1021+007509999GF102991999999999999999999MA1101491999999MW1001REMMET063RJAK 040100Z 03010KT 9999 FEW025 09/M03 Q1015 RMK 1CU025 A2997;EQDQ01+000000PRSWM2
0157477160999992000120402004+36030+140200FM-15+0029RJAK V0200501N004612200019N0112651N1+00901-00301999999ADDGA1021+007509999GF102991999999999999999999MA1101391999999MW1001REMMET063RJAK 040200Z 05009KT 9999 FEW025 09/M03 Q1014 RMK 1CU025 A2996;EQDQ01+000000PRSWM2
0189477160999992000120403004+36030+140200FM-15+0029RJAK V0200501N003112200019N0112651N1+01101-00201999999ADDGA1021+007509999GF102991999999999999999999MA1101391999999MW1001REMMET095RJAK 040300Z 05006KT 9999 FEW025 11/M02 Q1014 RMK 1CU025 A2994 FCST 0312 TEMPO 0407 03010G20KT;EQDQ01+000000PRSWM2
0173477160999992000120408004+36030+140200FM-15+0029RJAK V0201001N002112200019N0112651N1+00901-00301999999ADDGA1021+007509999GF102991999999999999999999MA1101591999999MW1001REMMET079RJAK 040800Z 10004KT 9999 FEW025 09/M03 Q1016 RMK 1SC025 A3000 FCST 0817 NOSIG;EQDQ01+000000PRSWM2
0188477160999992000120422004+36030+140200FM-15+0029RJAK V0202701N001512200019N0112651N1+00001-00301999999ADDGA1021+006009999GA2021+009009999GF104991999999999999999999MA1101291999999MW1001REMMET078RJAK 042200Z 27003KT 9999 FEW020 SCT030 M00/M03 Q1013 RMK 1CU020 3SC030 A2993;EQDQ01+000000PRSWM2
0186477160999992000120423004+36030+140200FM-15+0029RJAK V0202801N001512200019N0112651N1+00101-00301999999ADDGA1021+006009999GF102991999999999999999999MA1101291999999MW1001REMMET092RJAK 042300Z 28003KT 9999 FEW020 01/M03 Q1013 RMK 1CU020 A2993 PPG P7CP:, U 0508 22015G25KT;EQDQ01+000000PRSWM2
0189477160999992000120500004+36030+140200FM-15+0029RJAK V0202701N002112200019N0112651N1+00401-00301999999ADDGA1021+006009999GF102991999999999999999999MA1101291999999MW1001REMMET095RJAK 050000Z 27004KT 9999 FEW020 04/M03 Q1013 RMK 1CU020 A2991 FCST 0009 TEMPO 0509 22015G25KT;EQDQ01+000000PRSWM2
0131477160999992000120501004+36030+140200FM-15+0029RJAK V0202801N003112200019N0112651N1+00701-00301999999ADDGF100991999999999999999999MA1101081999999MW1001REMMET053RJAK 050100Z 28006KT 9999 SKC 07/M03 Q1011 RMK A2988;EQDQ01+000000PRSWM2
0136477160999992000120502004+36030+140200FM-15+0029RJAK V0202701N002612200019N0112651N1+00801-00201999999ADDGF100991999999999999999999MA1100911999999MW1001REMMET058RJAK 050200Z 27005KT 9999 SKC 08/M02 Q1009 RMK A2982 P/FR;EQDQ01+000000PRSWM2
0147477160999992000120503004+36030+140200FM-15+0029RJAK V0202701N003612200019N0112651N1+01001+00001999999ADDGF100991999999999999999999MA1100811999999MW1001REMMET069RJAK 050300Z 27007KT 9999 SKC 10/M00 Q1008 RMK A2977 FCST 0312 NOSIG;EQDQ01+000000PRSWM2
0130477160999992000120504004+36030+140200FM-15+0029RJAK V0202801N003112200019N0112651N1+01101+00001999999ADDGF100991999999999999999999MA1100711999999MW1001REMMET052RJAK 050400Z 28006KT 9999 SKC 11/00 Q1007 RMK A2974;EQDQ01+000000PRSWM2
0130477160999992000120505004+36030+140200FM-15+0029RJAK V0202401N003612200019N0112651N1+01301+00101999999ADDGF100991999999999999999999MA1100611999999MW1001REMMET052RJAK 050500Z 24007KT 9999 SKC 13/01 Q1006 RMK A2972;EQDQ01+000000PRSWM2
0130477160999992000120507004+36030+140200FM-15+0029RJAK V0202501N002612200019N0112651N1+01201+00201999999ADDGF100991999999999999999999MA1100511999999MW1001REMMET052RJAK 050700Z 25005KT 9999 SKC 12/02 Q1005 RMK A2969;EQDQ01+000000PRSWM2
0162477160999992000120508004+36030+140200FM-15+0029RJAK V0202401N001512200019N9999999N1+01101+00201999999ADDGF100991999999999999999999MA1100611999999MW1001REMMET068RJAK 050800Z 24003KT 6000 SKC 11/02 Q1006 RMK A2971 FCST 0817 NOSIG;EQDQ01+060002VODIS Q02+000000PRSWM2
0168477160999992000120522004+36030+140200FM-15+0029RJAK V0203201N008212200019N0112651N1+00701-00701999999ADDGA1021+007509999GF102991999999999999999999MA1101291999999MW1001OC101701REMMET066RJAK 052200Z 32016G33KT 9999 FEW025 07/M07 Q1013 RMK 1CU025 A2993;EQDQ01+000000PRSWM2
0192477160999992000120600004+36030+140200FM-15+0029RJAK V0203201N006212200019N0112651N1+00901-00701999999ADDGA1021+009009999GF102991999999999999999999MA1101391999999MW1001OC101231REMMET090RJAK 060000Z 32012G24KT 250V020 9999 FEW030 09/M07 Q1014 RMK 1CU030 A2996 FCST 0009 NOSIG;EQDQ01+000000PRSWM2
0176477160999992000120601004+36030+140200FM-15+0029RJAK V0203001N006212200019N0112651N1+01001-00701999999ADDGA1021+007509999GF102991999999999999999999MA1101391999999MW1001OC101391REMMET074RJAK 060100Z 30012G27KT 240V020 9999 FEW025 10/M07 Q1014 RMK 1CU025 A2995;EQDQ01+000000PRSWM2
0168477160999992000120602004+36030+140200FM-15+0029RJAK V0202901N005712200019N0112651N1+01101-00601999999ADDGA1021+007509999GF102991999999999999999999MA1101291999999MW1001OC101231REMMET066RJAK 060200Z 29011G24KT 9999 FEW025 11/M06 Q1013 RMK 1CU025 A2994;EQDQ01+000000PRSWM2
0184477160999992000120603004+36030+140200FM-15+0029RJAK V0203001N007212200019N0112651N1+01201-00801999999ADDGA1021+007509999GF102991999999999999999999MA1101291999999MW1001OC101391REMMET082RJAK 060300Z 30014G27KT 9999 FEW025 12/M08 Q1013 RMK 1CU025 A2991 FCST 0312 NOSIG;EQDQ01+000000PRSWM2
0168477160999992000120604004+36030+140200FM-15+0029RJAK V0202801N007212200019N0112651N1+01301-00701999999ADDGA1021+007509999GF102991999999999999999999MA1101191999999MW1001OC101441REMMET066RJAK 060400Z 28014G28KT 9999 FEW025 13/M07 Q1012 RMK 1CU025 A2989;EQDQ01+000000PRSWM2
0168477160999992000120605004+36030+140200FM-15+0029RJAK V0203001N006212200019N0112651N1+01301-00701999999ADDGA1021+007509999GF102991999999999999999999MA1101191999999MW1001OC101231REMMET066RJAK 060500Z 30012G24KT 9999 FEW025 13/M07 Q1012 RMK 1CU025 A2990;EQDQ01+000000PRSWM2
0184477160999992000120606004+36030+140200FM-15+0029RJAK V0202901N005712200019N0112651N1+01301-00601999999ADDGA1021+007509999GF102991999999999999999999MA1101191999999MW1001OC101131REMMET082RJAK 060600Z 29011G22KT 9999 FEW025 13/M06 Q1012 RMK 1CU025 A2989 FCST 0615 NOSIG;EQDQ01+000000PRSWM2
0168477160999992000120607004+36030+140200FM-15+0029RJAK V0202901N005712200019N0112651N1+01201-00601999999ADDGA1021+007509999GF102991999999999999999999MA1101291999999MW1001OC101081REMMET066RJAK 060700Z 29011G21KT 9999 FEW025 12/M06 Q1013 RMK 1CU025 A2991;EQDQ01+000000PRSWM2
0173477160999992000120608004+36030+140200FM-15+0029RJAK V0202801N004612200019N0112651N1+01101-00601999999ADDGA1021+007509999GF102991999999999999999999MA1101291999999MW1001REMMET079RJAK 060800Z 28009KT 9999 FEW025 11/M06 Q1013 RMK 1CU025 A2993 FCST 0817 NOSIG;EQDQ01+000000PRSWM2
0157477160999992000120622004+36030+140200FM-15+0029RJAK V0200301N001512200019N0112651N1+00101-00801999999ADDGA1021+006009999GF102991999999999999999999MA1102611999999MW1001REMMET063RJAK 062200Z 03003KT 9999 FEW020 01/M08 Q1026 RMK 1CU020 A3029;EQDQ01+000000PRSWM2
0173477160999992000120623004+36030+140200FM-15+0029RJAK V0202301N000512200019N0112651N1+00101-00701999999ADDGA1021+006009999GF102991999999999999999999MA1102611999999MW1001REMMET079RJAK 062300Z 23001KT 9999 FEW020 01/M07 Q1026 RMK 1CU020 A3032 FCST 2308 NOSIG;EQDQ01+000000PRSWM2
0203477160999992000120700004+36030+140200FM-15+0029RJAK V0200901N000512200019N0112651N1+00401-00701999999ADDGA1021+007509999GA2021+060009999GF104991999999999999999999MA1102711999999MW1001REMMET093RJAK 070000Z 09001KT 9999 FEW025 SCT200 04/M07 Q1027 RMK 1CU025 4CI200 A3033 FCST 0009 NOSIG;EQDQ01+000000PRSWM2
0187477160999992000120701004+36030+140200FM-15+0029RJAK V0200801N002610600019N0112651N1+00501-00801999999ADDGA1021+007509999GA2071+060009999GF107991999999999999999999MA1102711999999MW1001REMMET077RJAK 070100Z 08005KT 9999 FEW025 BKN200 05/M08 Q1027 RMK 1CU025 5CI200 A3033;EQDQ01+000000PRSWM2
0187477160999992000120702004+36030+140200FM-15+0029RJAK V0200801N002610690019N0112651N1+00601-00801999999ADDGA1021+007509999GA2071+069009999GF107991999999999999999999MA1102611999999MW1001REMMET077RJAK 070200Z 08005KT 9999 FEW025 BKN230 06/M08 Q1026 RMK 1CU025 5CI230 A3031;EQDQ01+000000PRSWM2
0203477160999992000120703004+36030+140200FM-15+0029RJAK V0201001N002112200019N0112651N1+00801-00901999999ADDGA1021+007509999GA2021+069009999GF104991999999999999999999MA1102511999999MW1001REMMET093RJAK 070300Z 10004KT 9999 FEW025 SCT230 08/M09 Q1025 RMK 1CU025 3CI230 A3029 FCST 0312 NOSIG;EQDQ01+000000PRSWM2
0157477160999992000120704004+36030+140200FM-15+0029RJAK V0201301N001512200019N0112651N1+00801-00901999999ADDGA1021+007509999GF102991999999999999999999MA1102401999999MW1001REMMET063RJAK 070400Z 13003KT 9999 FEW025 08/M09 Q1024 RMK 1CU025 A3026;EQDQ01+000000PRSWM2
0157477160999992000120705004+36030+140200FM-15+0029RJAK V0201301N001012200019N0112651N1+00901-00801999999ADDGA1021+007509999GF102991999999999999999999MA1102401999999MW1001REMMET063RJAK 070500Z 13002KT 9999 FEW025 09/M08 Q1024 RMK 1CU025 A3025;EQDQ01+000000PRSWM2
0173477160999992000120706004+36030+140200FM-15+0029RJAK V0201001N001512200019N0112651N1+00901-00701999999ADDGA1021+007509999GF102991999999999999999999MA1102401999999MW1001REMMET079RJAK 070600Z 10003KT 9999 FEW025 09/M07 Q1024 RMK 1CU025 A3025 FCST 0615 NOSIG;EQDQ01+000000PRSWM2
0157477160999992000120707004+36030+140200FM-15+0029RJAK V0201601N001512200019N0112651N1+00801-00801999999ADDGA1021+030009999GF102991999999999999999999MA1102401999999MW1001REMMET063RJAK 070700Z 16003KT 9999 FEW100 08/M08 Q1024 RMK 1AC100 A3026;EQDQ01+000000PRSWM2
0173477160999992000120708004+36030+140200FM-15+0029RJAK V0201501N001012200019N0112651N1+00601-00801999999ADDGA1021+030009999GF102991999999999999999999MA1102511999999MW1001REMMET079RJAK 070800Z 15002KT 9999 FEW100 06/M08 Q1025 RMK 1AC100 A3026 FCST 0817 NOSIG;EQDQ01+000000PRSWM2
0157477160999992000120722004+36030+140200FM-15+0029RJAK V0202701N001512200019N0112651N1+00101-00401999999ADDGA1021+030009999GF102991999999999999999999MA1102301999999MW1001REMMET063RJAK 072200Z 27003KT 9999 FEW100 01/M04 Q1023 RMK 2AC100 A3022;EQDQ01+000000PRSWM2
0173477160999992000120723004+36030+140200FM-15+0029RJAK V0202601N001012200019N0112651N1+00201-00501999999ADDGA1021+030009999GF102991999999999999999999MA1102301999999MW1001REMMET079RJAK 072300Z 26002KT 9999 FEW100 02/M05 Q1023 RMK 1AC100 A3022 FCST 2308 NOSIG;EQDQ01+000000PRSWM2
0173477160999992000120800004+36030+140200FM-15+0029RJAK V0202701N002112200019N0112651N1+00401-00501999999ADDGA1021+030009999GF102991999999999999999999MA1102301999999MW1001REMMET079RJAK 080000Z 27004KT 9999 FEW100 04/M05 Q1023 RMK 1AC100 A3022 FCST 0009 NOSIG;EQDQ01+000000PRSWM2
0131477160999992000120801004+36030+140200FM-15+0029RJAK V0202701N002612200019N0112651N1+00601-00501999999ADDGF100991999999999999999999MA1102201999999MW1001REMMET053RJAK 080100Z 27005KT 9999 SKC 06/M05 Q1022 RMK A3020;EQDQ01+000000PRSWM2
0131477160999992000120802004+36030+140200FM-15+0029RJAK V0202901N003112200019N0112651N1+00801-00501999999ADDGF100991999999999999999999MA1102101999999MW1001REMMET053RJAK 080200Z 29006KT 9999 SKC 08/M05 Q1021 RMK A3016;EQDQ01+000000PRSWM2
0130477160999992000120805004+36030+140200FM-15+0029RJAK V0202101N002612200019N0112651N1+01301+00001999999ADDGF100991999999999999999999MA1101901999999MW1001REMMET052RJAK 080500Z 21005KT 9999 SKC 13/00 Q1019 RMK A3010;EQDQ01+000000PRSWM2
0146477160999992000120806004+36030+140200FM-15+0029RJAK V0202201N002612200019N0112651N1+01401+00101999999ADDGF100991999999999999999999MA1101901999999MW1001REMMET068RJAK 080600Z 22005KT 9999 SKC 14/01 Q1019 RMK A3009 FCST 0615 NOSIG;EQDQ01+000000PRSWM2
0130477160999992000120807004+36030+140200FM-15+0029RJAK V0202601N001512200019N0090001N1+01301+00001999999ADDGF100991999999999999999999MA1101901999999MW1001REMMET052RJAK 080700Z 26003KT 9000 SKC 13/00 Q1019 RMK A3010;EQDQ01+000000PRSWM2
0162477160999992000120808004+36030+140200FM-15+0029RJAK V0202801N000512200019N9999999N1+01101+00001999999ADDGF100991999999999999999999MA1101901999999MW1001REMMET068RJAK 080800Z 28001KT 7000 SKC 11/00 Q1019 RMK A3010 FCST 0817 NOSIG;EQDQ01+070002VODIS Q02+000000PRSWM2
0157477160999992000121022004+36030+140200FM-15+0029RJAK V0201301N001012200019N0112651N1+00301+00001999999ADDGA1021+006009999GF102991999999999999999999MA1100911999999MW1001REMMET063RJAK 102200Z 13002KT 9999 FEW020 03/M00 Q1009 RMK 1CU020 A2980;EQDQ01+000000PRSWM2
0188477160999992000121023004+36030+140200FM-15+0029RJAK V0200701N001512200019N0112651N1+00501+00101999999ADDGA1021+006009999GF102991999999999999999999MA1100911999999MW1001REMMET094RJAK 102300Z 07003KT 9999 FEW020 05/01 Q1009 RMK 1CU020 A2982 FCST 2308 BECMG 0203 35015G25KT;EQDQ01+000000PRSWM2
0219477160999992000121100004+36030+140200FM-15+0029RJAK V0200401N002610120019N0112651N1+00801-00101999999ADDGA1021+007509999GA2071+012009999GF107991999999999999999999MA1101021999999MW1001REMMET109RJAK 110000Z 04005KT 9999 FEW025 BKN040 08/M01 Q1010 RMK 1CU025 5SC040 A2983 FCST 0009 BECMG 0203 35015G25KT;EQDQ01+000000PRSWM2
0187477160999992000121101004+36030+140200FM-15+0029RJAK V0200901N002610120019N0112651N1+01001-00101999999ADDGA1021+007509999GA2071+012009999GF107991999999999999999999MA1101021999999MW1001REMMET077RJAK 110100Z 09005KT 9999 FEW025 BKN040 10/M01 Q1010 RMK 1CU025 6SC040 A2982;EQDQ01+000000PRSWM2
0187477160999992000121102004+36030+140200FM-15+0029RJAK V0201701N002610120019N0112651N1+01001-00101999999ADDGA1021+007509999GA2071+012009999GF107991999999999999999999MA1100911999999MW1001REMMET077RJAK 110200Z 17005KT 9999 FEW025 BKN040 10/M01 Q1009 RMK 1CU025 6SC040 A2982;EQDQ01+000000PRSWM2
0221477160999992000121103004+36030+140200FM-15+0029RJAK V0201701N002110120019N0112651N1+01101-00101999999ADDGA1021+007509999GA2071+012009999GF107991999999999999999999MA1100711999999MW1001REMMET111RJAK 110300Z 17004KT 9999 FEW025 BKN040 11/M01 Q1007 RMK 1CU025 6SC040 A2975 P/FR FCST 0312 BECMG 0406 35012KT;EQDQ01+000000PRSWM2
0187477160999992000121104004+36030+140200FM-15+0029RJAK V0201801N001510120019N0112651N1+01101-00201999999ADDGA1021+007509999GA2071+012009999GF107991999999999999999999MA1100611999999MW1001REMMET077RJAK 110400Z 18003KT 9999 FEW025 BKN040 11/M02 Q1006 RMK 1CU025 6SC040 A2972;EQDQ01+000000PRSWM2
0187477160999992000121105004+36030+140200FM-15+0029RJAK V0202001N002112200019N0112651N1+01101-00201999999ADDGA1021+009009999GA2021+012009999GF104991999999999999999999MA1100611999999MW1001REMMET077RJAK 110500Z 20004KT 9999 FEW030 SCT040 11/M02 Q1006 RMK 1CU030 4SC040 A2971;EQDQ01+000000PRSWM2
0186477160999992000121106004+36030+140200FM-15+0029RJAK V0201901N002612200019N0112651N1+01201-00201999999ADDGA1021+009009999GF102991999999999999999999MA1100511999999MW1001REMMET092RJAK 110600Z 19005KT 9999 FEW030 12/M02 Q1005 RMK 1CU030 A2970 FCST 0615 BECMG 0810 30012KT;EQDQ01+000000PRSWM2
0157477160999992000121107004+36030+140200FM-15+0029RJAK V0201801N002112200019N0112651N1+01101+00001999999ADDGA1021+009009999GF102991999999999999999999MA1100511999999MW1001REMMET063RJAK 110700Z 18004KT 9999 FEW030 11/M00 Q1005 RMK 1CU030 A2970;EQDQ01+000000PRSWM2
0186477160999992000121108004+36030+140200FM-15+0029RJAK V0202501N000512200019N0112651N1+00901-00101999999ADDGA1021+009009999GF102991999999999999999999MA1100611999999MW1001REMMET092RJAK 110800Z 25001KT 9999 FEW030 09/M01 Q1006 RMK 1CU030 A2970 FCST 0817 BECMG 0810 35012KT;EQDQ01+000000PRSWM2
0157477160999992000121122004+36030+140200FM-15+0029RJAK V0202701N003112200019N0112651N1+00201-00901999999ADDGA1021+007509999GF102991999999999999999999MA1101391999999MW1001REMMET063RJAK 112200Z 27006KT 9999 FEW025 02/M09 Q1014 RMK 1CU025 A2994;EQDQ01+000000PRSWM2
0189477160999992000121123004+36030+140200FM-15+0029RJAK V0202701N003612200019N0112651N1+00301-00901999999ADDGA1021+007509999GF102991999999999999999999MA1101391999999MW1001REMMET095RJAK 112300Z 27007KT 9999 FEW025 03/M09 Q1014 RMK 1CU025 A2994 FCST 2308 TEMPO 0408 35015G25KT;EQDQ01+000000PRSWM2
0168477160999992000121123184+36030+140200FM-16+0029RJAK V0202901N004112200019N0112651N1+00401-00901999999ADDGA1021+007509999GF102991999999999999999999MA1101391999999MW1001OC100981REMMET066RJAK 112318Z 29008G19KT 9999 FEW025 04/M09 Q1014 RMK 1CU025 A2994;EQDQ01+000000PRSWM2
0189477160999992000121200004+36030+140200FM-15+0029RJAK V0202801N004112200019N0112651N1+00501-00901999999ADDGA1021+007509999GF102991999999999999999999MA1101391999999MW1001REMMET095RJAK 120000Z 28008KT 9999 FEW025 05/M09 Q1014 RMK 1CU025 A2994 FCST 0009 TEMPO 0409 35015G25KT;EQDQ01+000000PRSWM2
0168477160999992000121200054+36030+140200FM-16+0029RJAK V0203001N005112200019N0112651N1+00501-01101999999ADDGA1021+007509999GF102991999999999999999999MA1101291999999MW1001OC101131REMMET066RJAK 120005Z 30010G22KT 9999 FEW025 05/M11 Q1013 RMK 1CU025 A2993;EQDQ01+000000PRSWM2
0168477160999992000121201004+36030+140200FM-15+0029RJAK V0202901N006212200019N0112651N1+00601-01101999999ADDGA1021+009009999GF102991999999999999999999MA1101291999999MW1001OC101341REMMET066RJAK 120100Z 29012G26KT 9999 FEW030 06/M11 Q1013 RMK 1CU030 A2993;EQDQ01+000000PRSWM2
0168477160999992000121202004+36030+140200FM-15+0029RJAK V0202801N005712200019N0112651N1+00701-01101999999ADDGA1021+009009999GF102991999999999999999999MA1101291999999MW1001OC101131REMMET066RJAK 120200Z 28011G22KT 9999 FEW030 07/M11 Q1013 RMK 1CU030 A2992;EQDQ01+000000PRSWM2
0184477160999992000121203004+36030+140200FM-15+0029RJAK V0202901N006212200019N0112651N1+00901-01101999999ADDGA1021+009009999GF102991999999999999999999MA1101081999999MW1001OC101341REMMET082RJAK 120300Z 29012G26KT 9999 FEW030 09/M11 Q1011 RMK 1CU030 A2988 FCST 0312 NOSIG;EQDQ01+000000PRSWM2
0168477160999992000121204004+36030+140200FM-15+0029RJAK V0202801N007212200019N0112651N1+01001-01201999999ADDGA1021+007509999GF102991999999999999999999MA1101081999999MW1001OC101541REMMET066RJAK 120400Z 28014G30KT 9999 FEW025 10/M12 Q1011 RMK 2CU025 A2986;EQDQ01+000000PRSWM2
0168477160999992000121205004+36030+140200FM-15+0029RJAK V0202801N007212200019N0112651N1+01001-01101999999ADDGA1021+007509999GF102991999999999999999999MA1101081999999MW1001OC101441REMMET066RJAK 120500Z 28014G28KT 9999 FEW025 10/M11 Q1011 RMK 2CU025 A2987;EQDQ01+000000PRSWM2
0184477160999992000121206004+36030+140200FM-15+0029RJAK V0202901N005712200019N0112651N1+01001-01001999999ADDGA1021+007509999GF102991999999999999999999MA1101081999999MW1001OC101181REMMET082RJAK 120600Z 29011G23KT 9999 FEW025 10/M10 Q1011 RMK 1CU025 A2987 FCST 0615 NOSIG;EQDQ01+000000PRSWM2
0168477160999992000121207004+36030+140200FM-15+0029RJAK V0203001N003612200019N0112651N1+00901-00901999999ADDGA1021+007509999GF102991999999999999999999MA1101191999999MW1001OC100871REMMET066RJAK 120700Z 30007G17KT 9999 FEW025 09/M09 Q1012 RMK 1CU025 A2990;EQDQ01+000000PRSWM2
0189477160999992000121208004+36030+140200FM-15+0029RJAK V0203301N004612200019N0112651N1+00701-00801999999ADDGA1021+007509999GF102991999999999999999999MA1101291999999MW1001REMMET095RJAK 120800Z 33009KT 9999 FEW025 07/M08 Q1013 RMK 1CU025 A2992 FCST 0817 TEMPO 0810 33013G23KT;EQDQ01+000000PRSWM2
0174477160999992000121223004+36030+140200FM-15+0029RJAK V0202601N001012200019N0112651N1+00001-00401999999ADDGA1021+007509999GF102991999999999999999999MA1101591999999MW1001REMMET080RJAK 122300Z 26002KT 9999 FEW025 M00/M04 Q1016 RMK 1CU025 A3002 FCST 2308 NOSIG;EQDQ01+000000PRSWM2
0173477160999992000121300004+36030+140200FM-15+0029RJAK V0202701N003112200019N0112651N1+00301-00401999999ADDGA1021+007509999GF102991999999999999999999MA1101691999999MW1001REMMET079RJAK 130000Z 27006KT 9999 FEW025 03/M04 Q1017 RMK 1CU025 A3004 FCST 0009 NOSIG;EQDQ01+000000PRSWM2
0157477160999992000121301004+36030+140200FM-15+0029RJAK V0202501N002612200019N0112651N1+00501-00401999999ADDGA1021+007509999GF102991999999999999999999MA1101691999999MW1001REMMET063RJAK 130100Z 25005KT 9999 FEW025 05/M04 Q1017 RMK 1CU025 A3004;EQDQ01+000000PRSWM2
0157477160999992000121302004+36030+140200FM-15+0029RJAK V0202801N002612200019N0112651N1+00601-00501999999ADDGA1021+007509999GF102991999999999999999999MA1101691999999MW1001REMMET063RJAK 130200Z 28005KT 9999 FEW025 06/M05 Q1017 RMK 1CU025 A3005;EQDQ01+000000PRSWM2
0173477160999992000121303004+36030+140200FM-15+0029RJAK V0202801N002112200019N0112651N1+00901-00501999999ADDGA1021+007509999GF102991999999999999999999MA1101591999999MW1001REMMET079RJAK 130300Z 28004KT 9999 FEW025 09/M05 Q1016 RMK 1CU025 A3001 FCST 0312 NOSIG;EQDQ01+000000PRSWM2
0157477160999992000121304004+36030+140200FM-15+0029RJAK V0202801N002612200019N0112651N1+01101-00501999999ADDGA1021+007509999GF102991999999999999999999MA1101491999999MW1001REMMET063RJAK 130400Z 28005KT 9999 FEW025 11/M05 Q1015 RMK 1CU025 A2999;EQDQ01+000000PRSWM2
0157477160999992000121305004+36030+140200FM-15+0029RJAK V0202701N001512200019N0112651N1+01201-00501999999ADDGA1021+007509999GF102991999999999999999999MA1101491999999MW1001REMMET063RJAK 130500Z 27003KT 9999 FEW025 12/M05 Q1015 RMK 1CU025 A2999;EQDQ01+000000PRSWM2
0173477160999992000121306004+36030+140200FM-15+0029RJAK V0203601N001512200019N0112651N1+01201-00501999999ADDGA1021+007509999GF102991999999999999999999MA1101591999999MW1001REMMET079RJAK 130600Z 36003KT 9999 FEW025 12/M05 Q1016 RMK 1CU025 A3001 FCST 0615 NOSIG;EQDQ01+000000PRSWM2
0157477160999992000121307004+36030+140200FM-15+0029RJAK V0200301N001012200019N0112651N1+01101-00601999999ADDGA1021+007509999GF102991999999999999999999MA1101691999999MW1001REMMET063RJAK 130700Z 03002KT 9999 FEW025 11/M06 Q1017 RMK 1CU025 A3004;EQDQ01+000000PRSWM2
0173477160999992000121308004+36030+140200FM-15+0029RJAK V0200301N000512200019N0112651N1+00901-00501999999ADDGA1021+007509999GF102991999999999999999999MA1101691999999MW1001REMMET079RJAK 130800Z 03001KT 9999 FEW025 09/M05 Q1017 RMK 1CU025 A3004 FCST 0817 NOSIG;EQDQ01+000000PRSWM2
0217477160999992000121322004+36030+140200FM-15+0029RJAK V0200301N002610120019N0112651N1+00501-00101999999ADDGA1021+007509999GA2071+012009999GA3071+069009999GF107991999999999999999999MA1102101999999MW1001REMMET091RJAK 132200Z 03005KT 9999 FEW025 BKN040 BKN230 05/M01 Q1021 RMK 1CU025 5SC040 7CI230 A3015;EQDQ01+000000PRSWM2
0276477160999992000121323004+36030+140200FM-15+0029RJAK V0200301N003110120019N0112651N1+00601-00101999999ADDGA1021+007509999GA2071+012009999GA3071+069009999GF107991999999999999999999MA1102101999999MW1001REMMET150RJAK 132300Z 03006KT 9999 FEW025 BKN040 BKN230 06/M01 Q1021 RMK 1CU025 5SC040 7CI230 A3015 FCST 2308 TEMPO 0005 SCT040SC BECMG 0507 FEW020CU SCT040SC;EQDQ01+000000PRSWM2
0256477160999992000121400004+36030+140200FM-15+0029RJAK V0203401N001510300019N0112651N1+00701+00001999999ADDGA1021+007509999GA2021+012009999GA3071+030009999GF107991999999999999999999MA1102101999999MW1001REMMET130RJAK 140000Z 34003KT 9999 FEW025 SCT040 BKN100 07/M00 Q1021 RMK 1CU025 3SC040 7AC100 A3015 FCST 0009 TEMPO 0709 FEW025CU SCT100AC;EQDQ01+000000PRSWM2
0217477160999992000121401004+36030+140200FM-15+0029RJAK V0203001N001510300019N0112651N1+00501+00001999999ADDGA1021+007509999GA2021+012009999GA3071+030009999GF107991999999999999999999MA1102101999999MW1001REMMET091RJAK 140100Z 30003KT 9999 FEW025 SCT040 BKN100 05/M00 Q1021 RMK 1CU025 3SC040 7AC100 A3015;EQDQ01+000000PRSWM2
0216477160999992000121402004+36030+140200FM-15+0029RJAK V0203101N001510300019N0112651N1+00701+00001999999ADDGA1021+007509999GA2071+030009999GA3071+060009999GF107991999999999999999999MA1102001999999MW1001REMMET090RJAK 140200Z 31003KT 9999 FEW025 BKN100 BKN200 07/00 Q1020 RMK 1CU025 6AC100 7CI200 A3013;EQDQ01+000000PRSWM2
0232477160999992000121403004+36030+140200FM-15+0029RJAK V0203201N002110300019N0112651N1+00801+00101999999ADDGA1021+007509999GA2071+030009999GA3071+060009999GF107991999999999999999999MA1101901999999MW1001REMMET106RJAK 140300Z 32004KT 9999 FEW025 BKN100 BKN200 08/01 Q1019 RMK 1CU025 6AC100 7CI200 A3010 FCST 0312 NOSIG;EQDQ01+000000PRSWM2
0216477160999992000121404004+36030+140200FM-15+0029RJAK V0203401N002110300019N0112651N1+00901+00201999999ADDGA1021+012009999GA2071+030009999GA3071+060009999GF107991999999999999999999MA1101801999999MW1001REMMET090RJAK 140400Z 34004KT 9999 FEW040 BKN100 BKN200 09/02 Q1018 RMK 2SC040 5AC100 7CI200 A3006;EQDQ01+000000PRSWM2
0216477160999992000121405004+36030+140200FM-15+0029RJAK V0203301N001510300019N0112651N1+00801+00201999999ADDGA1021+012009999GA2021+024009999GA3071+030009999GF107991999999999999999999MA1101691999999MW1001REMMET090RJAK 140500Z 33003KT 9999 FEW040 SCT080 BKN100 08/02 Q1017 RMK 2SC040 4AC080 6AC100 A3005;EQDQ01+000000PRSWM2
0228477160999992000121406004+36030+140200FM-15+0029RJAK V0203301N000510360019N0112651N1+00901+00101999999ADDGA1021+012009999GA2021+030009999GA3071+036009999GF107991999999999999999999MA1101801999999MW1001REMMET102RJAK 140600Z 33001KT 9999 FEW040 SCT100 BKN120 09/01 Q1018 RMK 2SC040 3AC100 5A8PX7CV FCST 0615 NOSIG;EQDQ01+000000PRSWM2
0216477160999992000121407004+36030+140200FM-15+0029RJAK V0203401N000510360019N0112651N1+00901+00101999999ADDGA1021+012009999GA2071+036009999GA3071+060009999GF107991999999999999999999MA1101901999999MW1001REMMET090RJAK 140700Z 34001KT 9999 SCT040 BKN120 BKN200 09/01 Q1019 RMK 4SC040 5AC120 7CI200 A3009;EQDQ01+000000PRSWM2
0248477160999992000121408004+36030+140200FM-15+0029RJAK V0202801N001010120019N9999999N1+00801+00101999999ADDGA1021+010509999GA2071+012009999GA3071+060009999GF107991999999999999999999MA1101901999999MW1001REMMET106RJAK 140800Z 28002KT 7000 FEW035 BKN040 BKN200 08/01 Q1019 RMK 2SC035 5SC040 7CI200 A3011 FCST 0817 NOSIG;EQDQ01+070002VODIS Q02+000000PRSWM2
0158477160999992000121422004+36030+140200FM-15+0029RJAK V0202001N000512200019N0060001N1-00101-00301999999ADDGA1021+009009999GF102991999999999999999999MA1102301999999MW1001REMMET064RJAK 142200Z 20001KT 6000 FEW030 M01/M03 Q1023 RMK 1CU030 A3021;EQDQ01+000000PRSWM2
0156477160999992000121423004+36030+140200FM-15+0029RJAK V0202501N000512200019N0060001N1+00001-00201999999ADDGF100991999999999999999999MA1102301999999MW1001REMMET078RJAK 142300Z 25001KT 6000 SKC M00/M02 Q1023 RMK A3023 FCST 2308 TEMPO 2300 BR;EQDQ01+000000PRSWM2
0147477160999992000121500004+36030+140200FM-15+0029RJAK V0202301N000512200019N0060001N1+00301+00001999999ADDGF100991999999999999999999MA1102401999999MW1001REMMET069RJAK 150000Z 23001KT 6000 SKC 03/M00 Q1024 RMK A3024 FCST 0009 NOSIG;EQDQ01+000000PRSWM2
0131477160999992000121501004+36030+140200FM-15+0029RJAK V0201501N001012200019N0080001N1+00601-00101999999ADDGF100991999999999999999999MA1102401999999MW1001REMMET053RJAK 150100Z 15002KT 8000 SKC 06/M01 Q1024 RMK A3024;EQDQ01+000000PRSWM2
0131477160999992000121502004+36030+140200FM-15+0029RJAK V0201001N002112200019N0112651N1+00901-00201999999ADDGF100991999999999999999999MA1102301999999MW1001REMMET053RJAK 150200Z 10004KT 9999 SKC 09/M02 Q1023 RMK A3022;EQDQ01+000000PRSWM2
0147477160999992000121503004+36030+140200FM-15+0029RJAK V0201301N001512200019N0112651N1+01101-00201999999ADDGF100991999999999999999999MA1102201999999MW1001REMMET069RJAK 150300Z 13003KT 9999 SKC 11/M02 Q1022 RMK A3019 FCST 0312 NOSIG;EQDQ01+000000PRSWM2
0131477160999992000121504004+36030+140200FM-15+0029RJAK V0201301N002112200019N0112651N1+01201-00201999999ADDGF100991999999999999999999MA1102101999999MW1001REMMET053RJAK 150400Z 13004KT 9999 SKC 12/M02 Q1021 RMK A3016;EQDQ01+000000PRSWM2
0131477160999992000121505004+36030+140200FM-15+0029RJAK V02099999999992200019N0112651N1+01201-00201999999ADDGF100991999999999999999999MA1102101999999MW1001REMMET053RJAK 150500Z VRB03KT 9999 SKC 12/M02 Q1021 RMK A3016;EQDQ01+000000PRSWM2
0147477160999992000121506004+36030+140200FM-15+0029RJAK V0200901N001512200019N0112651N1+01201-00201999999ADDGF100991999999999999999999MA1102101999999MW1001REMMET069RJAK 150600Z 09003KT 9999 SKC 12/M02 Q1021 RMK A3017 FCST 0615 NOSIG;EQDQ01+000000PRSWM2
0131477160999992000121507004+36030+140200FM-15+0029RJAK V0201501N001512200019N0112651N1+01001-00201999999ADDGF100991999999999999999999MA1102201999999MW1001REMMET053RJAK 150700Z 15003KT 9999 SKC 10/M02 Q1022 RMK A3018;EQDQ01+000000PRSWM2
0147477160999992000121508004+36030+140200FM-15+0029RJAK V0201301N000512200019N0112651N1+00901-00301999999ADDGF100991999999999999999999MA1102201999999MW1001REMMET069RJAK 150800Z 13001KT 9999 SKC 09/M03 Q1022 RMK A3019 FCST 0817 NOSIG;EQDQ01+000000PRSWM2
0156477160999992000121722004+36030+140200FM-15+0029RJAK V0203601N002610081019N0112651N1+00701+00401999999ADDGA1071+008109999GF107991999999999999999999MA1102611999999MW1001REMMET062RJAK 172200Z 36005KT 9999 BKN027 07/04 Q1026 RMK 7SC027 A3030;EQDQ01+000000PRSWM2
0229477160999992000121723004+36030+140200FM-15+0029RJAK V0203601N002610090019N0112651N1+00801+00401999999ADDGA1021+008109999GA2071+009009999GF107991999999999999999999MA1102611999999MW1001REMMET119RJAK 172300Z 36005KT 9999 FEW027 BKN030 08/04 Q1026 RMK 2SC027 7SC030 A3031 FCST 2308 BECMG 008P<87#EMPO 0708 BKN100AC;EQDQ01+000000PRSWM2
0206477160999992000121800004+36030+140200FM-15+0029RJAK V0203401N002110099019N0112651N1+00901+00501999999ADDGA1071+009909999GF107991999999999999999999MA1102711999999MW1001REMMET112RJAK 180000Z 34004KT 9999 BKN033 09/05 Q1027 RMK 7SC033 A3034 FCST 0009 BECMG 0103 SCT035SC TEMPO 0709 BKN100AC;EQDQ01+000000PRSWM2
0186477160999992000121801004+36030+140200FM-15+0029RJAK V0200401N002610120019N0112651N1+01001+00401999999ADDGA1021+009909999GA2071+012009999GF107991999999999999999999MA1102611999999MW1001REMMET076RJAK 180100Z 04005KT 9999 SCT033 BKN040 10/04 Q1026 RMK 4SC033 6SC040 A3032;EQDQ01+000000PRSWM2
0216477160999992000121802004+36030+140200FM-15+0029RJAK V0200301N003110120019N0112651N1+01101+00401999999ADDGA1021+007509999GA2021+009909999GA3071+012009999GF107991999999999999999999MA1102611999999MW1001REMMET090RJAK 180200Z 03006KT 9999 FEW025 SCT033 BKN040 11/04 Q1026 RMK 1CU025 3SC033 5SC040 A3031;EQDQ01+000000PRSWM2
0216477160999992000121802404+36030+140200FM-16+0029RJAK V0200301N004110600019N0112651N1+01101+00501999999ADDGA1021+007509999GA2021+012009999GA3071+060009999GF107991999999999999999999MA1102511999999MW1001REMMET090RJAK 180240Z 03008KT 9999 FEW025 SCT040 BKN200 11/05 Q1025 RMK 1CU025 3SC040 5CI200 A3027;EQDQ01+000000PRSWM2
0275477160999992000121803004+36030+140200FM-15+0029RJAK V0200301N003610600019N0112651N1+01201+00501999999ADDGA1021+007509999GA2021+012009999GA3071+060009999GF107991999999999999999999MA1102511999999MW1001REMMET149RJAK 180300Z 03007KT 9999 FEW025 SCT040 BKN200 12/05 Q1025 RMK 1CU025 3SC040 5CI200 A3027 FCST 0312 TEMPO 0710 BKN100AC BECMG 1012 BKN040SC BKN080AC;EQDQ01+000000PRSWM2
0216477160999992000121803404+36030+140200FM-16+0029RJAK V0200301N002610120019N0112651N1+01101+00501999999ADDGA1021+007509999GA2071+012009999GA3071+060009999GF107991999999999999999999MA1102511999999MW1001REMMET090RJAK 180340Z 03005KT 9999 FEW025 BKN040 BKN200 11/05 Q1025 RMK 2CU025 5SC040 7CI200 A3026;EQDQ01+000000PRSWM2
0216477160999992000121804004+36030+140200FM-15+0029RJAK V0200201N002610120019N0112651N1+01101+00401999999ADDGA1021+007509999GA2021+009009999GA3071+012009999GF107991999999999999999999MA1102401999999MW1001REMMET090RJAK 180400Z 02005KT 9999 FEW025 SCT030 BKN040 11/04 Q1024 RMK 1CU025 3SC030 6SC040 A3026;EQDQ01+000000PRSWM2
0186477160999992000121805004+36030+140200FM-15+0029RJAK V0200401N003110105019N0112651N1+01101+00501999999ADDGA1021+007509999GA2071+010509999GF107991999999999999999999MA1102401999999MW1001REMMET076RJAK 180500Z 04006KT 9999 SCT025 BKN035 11/05 Q1024 RMK 3SC025 7SC035 A3026;EQDQ01+000000PRSWM2
0211477160999992000121806004+36030+140200FM-15+0029RJAK V0200701N002610135019N0112651N1+01101+00601999999ADDGA1021+009009999GA2071+013509999GF107991999999999999999999MA1102401999999MW1001REMMET101RJAK 180600Z 07005KT 9999 FEW030 BKN045 11/06 Q1024 RMK 1SC030 5SC045 A3025 FCST 0615 TEMPO 1415 -RA;EQDQ01+000000PRSWM2
0215477160999992000121807004+36030+140200FM-15+0029RJAK V02099999999990135019N0112651N1+01101+00601999999ADDGA1071+013509999GA2021+030009999GA3071+060009999GF107991999999999999999999MA1102401999999MW1001REMMET089RJAK 180700Z 0503KT 9999 BKN045 SCT100 BKN200 11/06 Q1024 RMK 5SC045 3AC100 7CI200 A3025;EQDQ01+000000PRSWM2
0260477160999992000121808004+36030+140200FM-15+0029RJAK V0200701N001510120019N0112651N1+01001+00601999999ADDGA1021+009009999GA2071+012009999GF107991999999999999999999MA1102401999999MW1001REMMET150RJAK 180800Z 07003KT 9999 FEW030 BKN040 10/06 Q1024 RMK 1SC030 7SC040 A3026 FCST 0817 TEMPO 1114 BR TEMPO 1416 -RA BR BECMG 1617 4000 -RA BR BKN030SC;EQDQ01+000000PRSWM2
0314477160999992000121823004+36030+140200FM-15+0029RJAK V0202801N002110030019N0008001N1+00701+00701999999ADDGA1021+000909999GA2071+003009999GA3081+006009999GF108991999999999999999999MA1100911999999MW1441MW2611REMMET166RJAK 182300Z 28004KT 0800 -RA FG SCT003 BKN010 OVC020 07/07 Q1009 RMK 3ST003 6ST010 8SC020 A2980 FCST 2308 BECMG 2300 1500 BR BECMG 0103 5000 SCT025SC BECMG 0304 NSW;EQDQ01+000003PRSWM1Q02    003PRSWM1
0271477160999992000121900004+36030+140200FM-15+0029RJAK V0202701N001010045019N0013001N1+00801+00801999999ADDGA1021+002409999GA2071+004509999GF107991999999999999999999MA1100811999999MW1101REMMET145RJAK 190000Z 27002KT 1300 BR SCT008 BKN015 08/08 Q1008 RMK 3ST008 7SC015 A2977 FCST 0009 BECMG 0001 3000 BECMG 0103 5000 SCT015SC BECMG 0304 NSW;EQDQ01+000003PRSWM1Q02    003PRSWM1
0205477160999992000121901004+36030+140200FM-15+0029RJAK V0202501N002612200019N0015001N1+00901+00701999999ADDGA1021+006009999GA2021+030009999GF104991999999999999999999MA1100811999999MW1101REMMET079RJAK 190100Z 25005KT 1500 BR SCT020 SCT100 09/07 Q1008 RMK 4SC020 3AC100 A2977;EQDQ01+000003PRSWM1Q02    003PRSWM1
0210477160999992000121902004+36030+140200FM-15+0029RJAK V0202401N003112200019N0050001N1+01101+00701999999ADDGA1021+009009999GA2021+060009999GF104991999999999999999999MA1100611999999MW1051REMMET084RJAK 190200Z 24006KT 5000 HZ FEW030 SCT200 11/07 Q1006 RMK 2SC030 4CI200 A2972 P/FR;EQDQ01+000003PRSWM1Q02    003PRSWM1
0234477160999992000121903004+36030+140200FM-15+0029RJAK V0202401N003112200019N9999999N1+01401+00801999999ADDGA1021+009009999GA2021+060009999GF104991999999999999999999MA1100511999999MW1001REMMET108RJAK 190300Z 24006KT 6000 FEW030 SCT200 14/08 Q1005 RMK 1SC030 4CI200 A2968 FCST 0312 TEMPO 0509 30013G26KT;EQDQ01+060002VODIS Q02+000000PRSWM2
0202477160999992000121904004+36030+140200FM-15+0029RJAK V0202501N002112200019N9999999N1+01601+00901999999ADDGA1021+009009999GA2021+060009999GF104991999999999999999999MA1100411999999MW1001REMMET076RJAK 190400Z 25004KT 6000 FEW030 SCT200 16/09 Q1004 RMK 1SC030 4CI200 A2967;EQDQ01+060002VODIS Q02+000000PRSWM2
0202477160999992000121905004+36030+140200FM-15+0029RJAK V0202201N002612200019N9999999N1+01701+01001999999ADDGA1021+030009999GA2021+060009999GF104991999999999999999999MA1100511999999MW1001REMMET076RJAK 190500Z 22005KT 6000 FEW100 SCT200 17/10 Q1005 RMK 1AC100 4CI200 A2968;EQDQ01+060002VODIS Q02+000000PRSWM2
0240477160999992000121906004+36030+140200FM-15+0029RJAK V0202601N002112200019N0080001N1+01801+00601999999ADDGA1021+030009999GA2021+060009999GF104991999999999999999999MA1100611999999MW1001REMMET130RJAK 190600Z 26004KT 8000 FEW100 SCT200 18/06 Q1006 RMK 2AC100 4CI200 A2970 FCST 0615 TEMPO 0609 30010G20KT TEMPO 0915 30015G30KT;EQDQ01+000000PRSWM2
0198477160999992000121906154+36030+140200FM-16+0029RJAK V0202801N006212200019N0112651N1+01901+00001999999ADDGA1021+007509999GA2021+060009999GF104991999999999999999999MA1100611999999MW1001OC101291REMMET080RJAK 190615Z 28012G25KT 9999 FEW025 SCT200 19/M00 Q1006 RMK 1CU025 4CI200 A2972;EQDQ01+000000PRSWM2
0201477160999992000121907004+36030+140200FM-15+0029RJAK V0203001N006712200019N0112651N1+01801+00001999999ADDGA1021+007509999GA2021+060009999GF104991999999999999999999MA1100811999999MW1001OC101491REMMET083RJAK 190700 30013G29KT 9999 FEW025 SCT200 18/00 Q1008 RMK 1CU025 4CI200 A2976 P/RR;EQDQ01+000000PRSWM2
0232477160999992000121908004+36030+140200FM-15+0029RJAK V0203201N005112200019N0112651N1+01601+00001999999ADDGA1021+007509999GA2021+060009999GF104991999999999999999999MA1101021999999MW1001OC101131REMMET114RJAK 190800Z 32010G22KT 9999 FEW025 SCT200 16/M00 Q1010 RMK 1CU025 4CI200 A2984 P/RR FCST 0817 BECMG 1315 30010KT;EQDQ01+000000PRSWM2
0186477160999992000121922004+36030+140200FM-15+0029RJAK V0200501N002610135019N0112651N1+00501+00101999999ADDGA1021+009009999GA2071+013509999GF107991999999999999999999MA1102201999999MW1001REMMET076RJAK 192200Z 05005KT 9999 FEW030 BKN045 05/01 Q1022 RMK 1SC030 5SC045 A3020;EQDQ01+000000PRSWM2
0237477160999992000121923004+36030+140200FM-15+0029RJAK V0200501N003110135019N0112651N1+00601-00101999999ADDGA1021+009009999GA2071+013509999GF107991999999999999999999MA1102301999999MW1001REMMET127RJAK 192300Z 05006KT 9999 FEW030 BKN045 06/M01 Q1023 RMK 2SC030 5SC045 A3021 FCST 2308 TEMPO 0104 SCT045SC TEMPO 0708 BKN030SC;EQDQ01+000000PRSWM2
0216477160999992000122000004+36030+140200FM-15+0029RJAK V0200601N002110135019N0112651N1+00701+00001999999ADDGA1021+009009999GA2071+013509999GF107991999999999999999999MA1102301999999MW1001REMMET106RJAK 200000Z 06004KT 9999 FEW030 BKN045 07/00 Q1023 RMK 2SC030 6SC045 A3022 FCST 0009 TEMPO 0709 BKN030SC;EQDQ01+000000PRSWM2
0186477160999992000122001004+36030+140200FM-15+0029RJAK V0200501N002610135019N0112651N1+00801+00101999999ADDGA1021+009009999GA2071+013509999GF107991999999999999999999MA1102301999999MW1001REMMET076RJAK 200100Z 05005KT 9999 FEW030 BKN045 08/01 Q1023 RMK 2SC030 6SC045 A3021;EQDQ01+000000PRSWM2
0186477160999992000122002004+36030+140200FM-15+0029RJAK V0200401N003110150019N0112651N1+00901+00201999999ADDGA1021+007509999GA2071+015009999GF107991999999999999999999MA1102201999999MW1001REMMET076RJAK 200200Z 04006KT 9999 FEW025 BKN050 09/02 Q1022 RMK 2SC025 6SC050 A3018;EQDQ01+000000PRSWM2
0243477160999992000122003004+36030+140200FM-15+0029RJAK V0200301N002110150019N0112651N1+01001+00201999999ADDGA1021+009009999GA2071+015009999GF107991999999999999999999MA1102101999999MW1001REMMET133RJAK 200300Z 03004KT 9999 FEW030 BKN050 10/02 Q1021 RMK 2CU030 6SC050 A3015 FCST 0312 TEMPO 0710 BKN030SC BECMG 1012 -RA BR BKN030SC;EQDQ01+000000PRSWM2
0216477160999992000122004004+36030+140200FM-15+0029RJAK V0200501N002110150019N0112651N1+01001+00301999999ADDGA1021+009009999GA2071+015009999GA3071+024009999GF107991999999999999999999MA1102001999999MW1001REMMET090RJAK 200400Z 05004KT 9999 FEW030 BKN050 BKN080 10/03 Q1020 RMK 2SC030 6SC050 7AC080 A3012;EQDQ01+000000PRSWM2
0216477160999992000122005004+36030+140200FM-15+0029RJAK V0200401N002110096019N0112651N1+01001+00301999999ADDGA1071+009609999GA2071+015009999GA3071+024009999GF107991999999999999999999MA1101901999999MW1001REMMET090RJAK 200500Z 04004KT 9999 BKN032 BKN050 BKN080 10/03 Q1019 RMK 5SC032 6SC050 7AC080 A3010;EQDQ01+000000PRSWM2
0237477160999992000122006004+36030+140200FM-15+0029RJAK V0200501N002610090019N0112651N1+01001+00301999999ADDGA1071+009009999GA2071+015009999GF107991999999999999999999MA1101801999999MW1001REMMET127RJAK 200600Z 05005KT 9999 BKN030 BKN050 10/03 Q1018 RMK 6SC030 7SC050 A3008 FCST 0615 TEMPO 0809 -RA BR BECMG 0912 3000 -RA BR;EQDQ01+000000PRSWM2
0186477160999992000122007004+36030+140200FM-15+0029RJAK V0200301N002610090019N0112651N1+01001+00201999999ADDGA1071+009009999GA2071+015009999GF107991999999999999999999MA1101691999999MW1001REMMET076RJAK 200700Z 03005KT 9999 BKN030 BKN050 10/02 Q1017 RMK 5SC030 7SC050 A3004;EQDQ01+000000PRSWM2
0239477160999992000122008004+36030+140200FM-15+0029RJAK V0203501N001510090019N0060001N1+00901+00501999999ADDGA1021+006009999GA2081+009009999GF108991999999999999999999MA1101691999999MW1611REMMET113RJAK 200800Z 35003KT 6000 -RA SCT020 OVC030 09/05 Q1017 RMK 3SC020 8SC030 A3003 FCST 0817 BECMG 0810 3000 -RA BR;EQDQ01+000003PRSWM1Q02    003PRSWM1
0235477160999992000122022004+36030+140200FM-15+0029RJAK V0209999C000010120019N0040001N1+00701+00401999999ADDGA1021+006009999GA2071+012009999GA3071+030009999GF107991999999999999999999MA1100611999999MW1101REMMET093RJAK 202200Z 00000KT 4000 BR FEW020 BKN040 BKN100 07/04 Q1006 RMK 2CU020 6SC040 7AC100 A2972;EQDQ01+000003PRSWM1Q02    003PRSWM1
0281477160999992000122023004+36030+140200FM-15+0029RJAK V0202101N000510120019N0050001N1+00601+00401999999ADDGA1071+012009999GA2071+030009999GF107991999999999999999999MA1100611999999MW1101REMMET155RJAK 202300Z 21001KT 5000 BR BKN040 BKN100 06/04 Q1006 RMK 6SC040 7AC100 A2973 FCST 2308 BECMG 2300 NSW BECMG 0103 SCT040SC SCT100AC TEMPO 0608 30010G22KT;EQDQ01+000003PRSWM1Q02    003PRSWM1
0247477160999992000122100004+36030+140200FM-15+0029RJAK V0202601N001510300019N0060001N1+00701+00401999999ADDGA1021+015009999GA2071+030009999GF107991999999999999999999MA1100711999999MW1001REMMET137RJAK 210000Z 26003KT 6000 SCT050 BKN100 07/04 Q1007 RMK 3SC050 5AC100 A2975 FCST 0009 BECMG 0103 SCT050SC SCT100AC BECMG 0508 30010G22KT;EQDQ01+000000PRSWM2
0205477160999992000122100274+36030+140200FM-16+0029RJAK V0202901N001512200019N0050001N1+00701+00401999999ADDGA1021+015009999GA2021+030009999GF104991999999999999999999MA1100711999999MW1101REMMET079RJAK 210027Z 29003KT 5000 BR FEW050 SCT100 07/04 Q1007 RMK 2SC050 4AC100 A2975;EQDQ01+000003PRSWM1Q02    003PRSWM1
0175477160999992000122101004+36030+140200FM-15+0029RJAK V0203101N002112200019N0050001N1+00901+00401999999ADDGA1021+007509999GF102991999999999999999999MA1100711999999MW1101REMMET065RJAK 210100Z 31004KT 5000 BR FEW025 09/04 Q1007 RMK 1CU025 A2975;EQDQ01+000003PRSWM1Q02    003PRSWM1
0176477160999992000122102004+36030+140200FM-15+0029RJAK V0202101N001012200019N0050001N1+01201+00001999999ADDGA1021+030009999GF102991999999999999999999MA1100611999999MW1051REMMET066RJAK 210200Z 21002KT 5000 HZ FEW100 12/M00 Q1006 RMK 1AC100 A2973;EQDQ01+000003PRSWM1Q02    003PRSWM1
0205477160999992000122103004+36030+140200FM-15+0029RJAK V02099999999992200019N9999999N1+01301-00101999999ADDGA1021+007509999GF102991999999999999999999MA1100611999999MW1001REMMET095RJAK 210300Z VRB03KT 7000 FEW025 13/M01 Q1006 RMK 1CU025 A2972 FCST 0312 TEMPO 0408 30010G22KT;EQDQ01+070002VODIS Q02+000000PRSWM2
0156477160999992000122104004+36030+140200FM-15+0029RJAK V0200801N003112200019N0112651N1+01501+00401999999ADDGA1021+007509999GF102991999999999999999999MA1100611999999MW1001REMMET062RJAK 210400Z 08006KT 9999 FEW025 15/04 Q1006 RMK 1CU025 A2971;EQDQ01+000000PRSWM2
0156477160999992000122105004+36030+140200FM-15+0029RJAK V0200501N001512200019N0112651N1+01501+00401999999ADDGA1021+009009999GF102991999999999999999999MA1100611999999MW1001REMMET062RJAK 210500Z 05003KT 9999 FEW030 15/04 Q1006 RMK 1CU030 A2972;EQDQ01+000000PRSWM2
0157477160999992000122107004+36030+140200FM-15+0029RJAK V0203201N004112200019N0112651N1+01401-00401999999ADDGA1021+009009999GF102991999999999999999999MA1100811999999MW1001REMMET063RJAK 210700Z 32008KT 9999 FEW030 14/M04 Q1008 RMK 1CU030 A2978;EQDQ01+000000PRSWM2
0203477160999992000122108004+36030+140200FM-15+0029RJAK V0203301N001012200019N0112651N1+01201-00301999999ADDGA1021+009009999GA2021+015009999GF104991999999999999999999MA1101021999999MW1001REMMET093RJAK 210800Z 33002KT 9999 FEW030 SCT050 12/M03 Q1010 RMK 1CU030 4SC050 A2983 FCST 0817 NOSIG;EQDQ01+000000PRSWM2
0187477160999992000122122004+36030+140200FM-15+0029RJAK V0200701N002112200019N0112651N1+00301-00401999999ADDGA1021+015009999GA2021+024009999GF104991999999999999999999MA1101901999999MW1001REMMET077RJAK 212200Z 07004KT 9999 SCT050 SCT080 03/M04 Q1019 RMK 3SC050 4AC080 A3010;EQDQ01+000000PRSWM2
0173477160999992000122123004+36030+140200FM-15+0029RJAK V0200701N002112200019N0112651N1+00401-00401999999ADDGA1021+015009999GF102991999999999999999999MA1102001999999MW1001REMMET079RJAK 212300Z 07004KT 9999 FEW050 04/M04 Q1020 RMK 2SC050 A3013 FCST 2308 NOSIG;EQDQ01+000000PRSWM2
0203477160999992000122200004+36030+140200FM-15+0029RJAK V0200401N002612200019N0112651N1+00401-00401999999ADDGA1021+009009999GA2021+015009999GF104991999999999999999999MA1102101999999MW1001REMMET093RJAK 220000Z 04005KT 9999 FEW030 SCT050 04/M04 Q1021 RMK 1CU030 4SC050 A3015 FCST 0009 NOSIG;EQDQ01+000000PRSWM2
0187477160999992000122202004+36030+140200FM-15+0029RJAK V0200401N003610150019N0112651N1+00701-00401999999ADDGA1021+009009999GA2071+015009999GF107991999999999999999999MA1102101999999MW1001REMMET077RJAK 220200Z 04007KT 9999 FEW030 BKN050 07/M04 Q1021 RMK 1CU030 5SC050 A3015;EQDQ01+000000PRSWM2
0203477160999992000122203004+36030+140200FM-15+0029RJAK V0200301N003110135019N0112651N1+00801-00401999999ADDGA1021+009009999GA2071+013509999GF107991999999999999999999MA1102001999999MW1001REMMET093RJAK 220300Z 03006KT 9999 FEW030 BKN045 08/M04 Q1020 RMK 1CU030 7SC045 A3013 FCST 0312 NOSIG;EQDQ01+000000PRSWM2
0187477160999992000122204004+36030+140200FM-15+0029RJAK V0200301N003110135019N0112651N1+00801-00401999999ADDGA1021+009009999GA2071+013509999GF107991999999999999999999MA1102001999999MW1001REMMET077RJAK 220400Z 03006KT 9999 FEW030 BKN045 08/M04 Q1020 RMK 1CU030 6SC045 A3012;EQDQ01+000000PRSWM2
0187477160999992000122205004+36030+140200FM-15+0029RJAK V0200501N002610240019N0112651N1+00901-00401999999ADDGA1021+009009999GA2071+024009999GF107991999999999999999999MA1102001999999MW1001REMMET077RJAK 220500Z 05005KT 9999 FEW030 BKN080 09/M04 Q1020 RMK 1CU030 7AC080 A3012;EQDQ01+000000PRSWM2
0217477160999992000122207004+36030+140200FM-15+0029RJAK V0200901N004110240019N0112651N1+00801+00001999999ADDGA1021+009009999GA2021+013509999GA3071+024009999GF107991999999999999999999MA1102001999999MW1001REMMET091RJAK 220700Z 09008KT 9999 FEW030 SCT045 BKN080 08/M00 Q1020 RMK 1CU030 4SC045 7AC080 A3014;EQDQ01+000000PRSWM2
0203477160999992000122208004+36030+140200FM-15+0029RJAK V0200901N003110135019N0112651N1+00801-00101999999ADDGA1021+009009999GA2071+013509999GF107991999999999999999999MA1102101999999MW1001REMMET093RJAK 220800Z 09006KT 9999 FEW030 BKN045 08/M01 Q1021 RMK 2SC030 7SC045 A3015 FCST 0817 NOSIG;EQDQ01+000000PRSWM2
0157477160999992000122422004+36030+140200FM-15+0029RJAK V0203201N000512200019N0112651N1+00101-00301999999ADDGA1021+007509999GF102991999999999999999999MA1101191999999MW1001REMMET063RJAK 242200Z 32001KT 9999 FEW025 01/M03 Q1012 RMK 1CU025 A2988;EQDQ01+000000PRSWM2
0196477160999992000122423004+36030+140200FM-15+0029RJAK V0209999C000012200019N0112651N1+00201-00201999999ADDGA1021+007509999GF102991999999999999999999MA1101191999999MW1001REMMET102RJAK 242300Z 00000KT 9999 FEW025 02/M02 Q1012 RMK 1CU025 A2989 FCST 2308 TEMPO 0608 -SHRA BR BKN030SC;EQDQ01+000000PRSWM2
0196477160999992000122500004+36030+140200FM-15+0029RJAK V0202201N001012200019N0112651N1+00301-00201999999ADDGA1021+007509999GF102991999999999999999999MA1101191999999MW1001REMMET102RJAK 250000Z 22002KT 9999 FEW025 03/M02 Q1012 RMK 1CU025 A2988 FCST 0009 TEMPO 0609 -SHRA BR BKN030SC;EQDQ01+000000PRSWM2
0157477160999992000122501004+36030+140200FM-15+0029RJAK V0201601N002112200019N0112651N1+00601-00101999999ADDGA1021+007509999GF102991999999999999999999MA1101021999999MW1001REMMET063RJAK 250100Z 16004KT 9999 FEW025 06/M01 Q1010 RMK 1CU025 A2984;EQDQ01+000000PRSWM2
0162477160999992000122502004+36030+140200FM-15+0029RJAK V0201701N004112200019N0112651N1+00901-00101999999ADDGA1021+009009999GF102991999999999999999999MA1100811999999MW1001REMMET068RJAK 250200Z 17008KT 9999 FEW030 09/M01 Q1008 RMK 1CU030 A2976 P/FR;EQDQ01+000000PRSWM2
0220477160999992000122503004+36030+140200FM-15+0029RJAK V0201901N005112200019N0112651N1+01101-00101999999ADDGA1021+009009999GF102991999999999999999999MA1100511999999MW1001REMMET126RJAK 250300Z 19010KT 9999 FEW030 11/M01 Q1005 RMK 1CU030 A2968 P/FR FCST 0312 TEMPO 0406 19012G25KT TEMPO 0509 -SHRA BKN030CU;EQDQ01+000000PRSWM2
0203477160999992000122503304+36030+140200FM-15+0029RJAK V0202201N007212200019N0112651N1+01101-00301999999ADDGA1021+009009999GA2021+030009999GF104991999999999999999999MA1100311999999MW1001OC101391REMMET085RJAK 250330Z 22014G27KT 9999 FEW030 SCT100 11/M03 Q1003 RMK 1CU030 4AC100 A2962 P/FR;EQDQ01+000000PRSWM2
0167477160999992000122505004+36030+140200FM-15+0029RJAK V0202301N007712200019N0112651N1+01201+00001999999ADDGA1021+009009999GF104991999999999999999999MA1100101999999MW1001OC101701REMMET065RJAK 250500Z 23015G33KT 9999 SCT030 12/00 Q1001 RMK 4CU030 A2957;EQDQ01+000000PRSWM2
0246477160999992000122506004+36030+140200FM-15+0029RJAK V0202301N005712200019N0112651N1+01201+00201999999ADDGA1021+007509999GA2021+009009999GF104991999999999999999999MA1100001999999MW1001OC101231REMMET128RJAK 250600Z 23011G24KT 9999 FEW025 SCT030 12/02 Q1000 RMK 1CU025 3CU030 A2954 FCST 0615 TEMPO 0711 BKN030CU BECMG 0911 21010KT;EQDQ01+000000PRSWM2
0167477160999992000122507004+36030+140200FM-15+0029RJAK V0202601N005112200019N0112651N1+01101+00201999999ADDGA1021+009009999GF102991999999999999999999MA1099901999999MW1001OC101081REMMET065RJAK 250700Z 26010G21KT 9999 FEW030 11/02 Q0999 RMK 2CU030 A2952;EQDQ01+000000PRSWM2
0157477160999992000122507234+36030+140200FM-16+0029RJAK V0202801N002612200019N0112651N1+01001+00001999999ADDGA1021+007509999GF102991999999999999999999MA1100001999999MW1001REMMET063RJAK 250723Z 28005KT 9999 FEW025 10/M00 Q1000 RMK 1CU025 A2953;EQDQ01+000000PRSWM2
0187477160999992000122508004+36030+140200FM-15+0029RJAK V0203001N003612200019N0112651N1+00901-00201999999ADDGA1021+009009999GF102991999999999999999999MA1100001999999MW1001REMMET093RJAK 250800Z 30007KT 9999 FEW030 09/M02 Q1000 RMK 1CU030 A2953 FCST 0817 TEMPO 0911 BKN030CU;EQDQ01+000000PRSWM2
0157477160999992000122522004+36030+140200FM-15+0029RJAK V0203201N001512200019N0112651N1+00101-00801999999ADDGA1021+009009999GF102991999999999999999999MA1101291999999MW1001REMMET063RJAK 252200Z 32003KT 9999 FEW030 01/M08 Q1013 RMK 1CU030 A2991;EQDQ01+000000PRSWM2
0174477160999992000122523004+36030+140200FM-15+0029RJAK V0202901N000512200019N0112651N1+00101-00801999999ADDGA1021+009009999GF102991999999999999999999MW1001REMMET095RJAK 252300Z 29001KT 9999 FEW030 01/M08 QOWNPPPMK 1CU030 A2992 FCST 2308 TEMPO 0208 30015G32KT;EQDQ01+000000PRSWM2
0189477160999992000122600004+36030+140200FM-15+0029RJAK V0202901N002612200019N0112651N1+00301-00701999999ADDGA1021+009009999GF102991999999999999999999MA1101291999999MW1001REMMET095RJAK 260000Z 29005KT 9999 FEW030 03/M07 Q1013 RMK 1CU030 A2993 FCST 0009 TEMPO 0309 30015G32KT;EQDQ01+000000PRSWM2
0157477160999992000122601004+36030+140200FM-15+0029RJAK V0202901N003612200019N0112651N1+00401-00701999999ADDGA1021+009009999GF102991999999999999999999MA1101291999999MW1001REMMET063RJAK 260100Z 29007KT 9999 FEW030 04/M07 Q1013 RMK 1CU030 A2994;EQDQ01+000000PRSWM2
0157477160999992000122602004+36030+140200FM-15+0029RJAK V0202501N003112200019N0112651N1+00601-00701999999ADDGA1021+009009999GF102991999999999999999999MA1101291999999MW1001REMMET063RJAK 260200Z 25006KT 9999 FEW030 06/M07 Q1013 RMK 1CU030 A2991;EQDQ01+000000PRSWM2
0197477160999992000122603004+36030+140200FM-15+0029RJAK V0202701N005112200019N0112651N1+00801-00901999999ADDGA1021+009009999GF102991999999999999999999MA1101081999999MW1001OC101181REMMET095RJAK 260300Z 27010G23KT 9999 FEW030 08/M09 Q1011 RMK 1CU030 A2988 FCST 0312 BECMG 1012 31010KT;EQDQ01+000000PRSWM2
0168477160999992000122604004+36030+140200FM-15+0029RJAK V0202701N004612200019N0112651N1+00901-00901999999ADDGA1021+009009999GF102991999999999999999999MA1101081999999MW1001OC101031REMMET066RJAK 260400Z 27009G20KT 9999 FEW030 09/M09 Q1011 RMK 1CU030 A2985;EQDQ01+000000PRSWM2
0168477160999992000122605004+36030+140200FM-15+0029RJAK V0202901N005112200019N0112651N1+00901-00801999999ADDGA1021+009009999GF102991999999999999999999MA1101081999999MW1001OC101181REMMET066RJAK 260500Z 29010G23KT 9999 FEW030 09/M08 Q1011 RMK 2CU030 A2986;EQDQ01+000000PRSWM2
0197477160999992000122606004+36030+140200FM-15+0029RJAK V0202801N004612200019N0112651N1+00801-01001999999ADDGA1021+007509999GF102991999999999999999999MA1101081999999MW1001OC101031REMMET095RJAK 260600Z 28009G20KT 9999 FEW025 08/M10 Q1011 RMK 2CU025 A2987 FCST 0615 BECMG 0911 28010KT;EQDQ01+000000PRSWM2
0157477160999992000122607374+36030+140200FM-16+0029RJAK V0203201N004112200019N0112651N1+00601-00901999999ADDGA1021+007509999GF102991999999999999999999MA1101291999999MW1001REMMET063RJAK 260737Z 32008KT 9999 FEW025 06/M09 Q1013 RMK 1CU025 A2991;EQDQ01+000000PRSWM2
0189477160999992000122608004+36030+140200FM-15+0029RJAK V0203201N005712200019N0112651N1+00501-01001999999ADDGA1021+006009999GF102991999999999999999999MA1101291999999MW1001REMMET095RJAK 260800Z 32011KT 9999 FEW020 05/M10 Q1013 RMK 1CU020 A2992 FCST 0817 TEMPO 0810 32010G20KT;EQDQ01+000000PRSWM2
0158477160999992000122622004+36030+140200FM-15+0029RJAK V0202101N001012200019N0112651N1-00201-01001999999ADDGA1021+007509999GF102991999999999999999999MA1102301999999MW1001REMMET064RJAK 262200Z 21002KT 9999 FEW025 M02/M10 Q1023 RMK 1CU025 A3021;EQDQ01+000000PRSWM2
0189477160999992000122623004+36030+140200FM-15+0029RJAK V0202801N002112200019N0112651N1+00001-01101999999ADDGA1021+009009999GF102991999999999999999999MA1102301999999MW1001REMMET095RJAK 262300Z 28004KT 9999 FEW030 00/M11 Q1023 RMK 1CU030 A3022 FCST 2308 TEMPO 0206 31010G20KT;EQDQ01+000000PRSWM2
0189477160999992000122700004+36030+140200FM-15+0029RJAK V0202601N004112200019N0112651N1+00301-01001999999ADDGA1021+009009999GF102991999999999999999999MA1102301999999MW1001REMMET095RJAK 270000Z 26008KT 9999 FEW030 03/M10 Q1023 RMK 1CU030 A3022 FCST 0009 TEMPO 0206 31010G20KT;EQDQ01+000000PRSWM2
0168477160999992000122700354+36030+140200FM-16+0029RJAK V0202801N004612200019N0112651N1+00401-01101999999ADDGA1021+009009999GF102991999999999999999999MA1102301999999MW1001OC101031REMMET066RJAK 270035Z 28009G20KT 9999 FEW030 04/M11 Q1023 RMK 1CU030 A3023;EQDQ01+000000PRSWM2
0168477160999992000122701004+36030+140200FM-15+0029RJAK V0202701N004612200019N0112651N1+00401-01101999999ADDGA1021+009009999GF102991999999999999999999MA1102301999999MW1001OC101031REMMET066RJAK 270100Z 27009G20KT 9999 FEW030 04/M11 Q1023 RMK 1CU030 A3022;EQDQ01+000000PRSWM2
0168477160999992000122702004+36030+140200FM-15+0029RJAK V0202801N004612200019N0112651N1+00501-01001999999ADDGA1021+009009999GF102991999999999999999999MA1102301999999MW1001OC101031REMMET066RJAK 270200Z 28009G20KT 9999 FEW030 05/M10 Q1023 RMK 1CU030 A3021;EQDQ01+000000PRSWM2
0168477160999992000122704004+36030+140200FM-15+0029RJAK V0202801N005112200019N0112651N1+00801-00901999999ADDGA1021+009009999GF102991999999999999999999MA1102101999999MW1001OC101181REMMET066RJAK 270400Z 28010G23KT 9999 FEW030 08/M09 Q1021 RMK 1CU030 A3015;EQDQ01+000000PRSWM2
0168477160999992000122705004+36030+140200FM-15+0029RJAK V0202801N005712200019N0112651N1+01001-01001999999ADDGA1021+009009999GF102991999999999999999999MA1102101999999MW1001OC101341REMMET066RJAK 270500Z 28011G26KT 9999 FEW030 10/M10 Q1021 RMK 1CU030 A3015;EQDQ01+000000PRSWM2
0197477160999992000122706004+36030+140200FM-15+0029RJAK V0202801N004112200019N0112651N1+00901-01101999999ADDGA1021+009009999GF102991999999999999999999MA1102101999999MW1001OC101031REMMET095RJAK 270600Z 28008G20KT 9999 FEW030 09/M11 Q1021 RMK 1CU030 A3015 FCST 0615 BECMG 0709 31010KT;EQDQ01+000000PRSWM2
0173477160999992000122708004+36030+140200FM-15+0029RJAK V0202701N002612200019N0112651N1+00701-01101999999ADDGA1021+009009999GF102991999999999999999999MA1102101999999MW1001REMMET079RJAK 270800Z 27005KT 9999 FEW030 07/M11 Q1021 RMK 1SC030 A3016 FCST 0817 NOSIG;EQDQ01+000000PRSWM2
0158477160999992000122722004+36030+140200FM-15+0029RJAK V0202701N000512200019N0112651N1-00301-00801999999ADDGA1021+009009999GF102991999999999999999999MA1102101999999MW1001REMMET064RJAK 272200Z 27001KT 9999 FEW030 M03/M08 Q1021 RMK 1CU030 A3017;EQDQ01+000000PRSWM2
0161477160999992000122800004+36030+140200FM-15+0029RJAK V0209999C000012200019N0112651N1+00101-00601999999ADDGF100991999999999999999999MA1102101999999MW1001REMMET083RJAK 280000Z 00000KT 9999 SKC 01/M06 Q1021 RMK A3017 FCST 0009 TEMPO 0609 BKN080AC;EQDQ01+000000PRSWM2
0157477160999992000122801004+36030+140200FM-15+0029RJAK V0209999C000012200019N0112651N1+00401-00601999999ADDGA1021+006009999GF102991999999999999999999MA1102101999999MW1001REMMET063RJAK 280100Z 00000KT 9999 FEW020 04/M06 Q1021 RMK 1CU020 A3017;EQDQ01+000000PRSWM2
0173477160999992000122803004+36030+140200FM-15+0029RJAK V0203501N002612200019N0112651N1+00801-00601999999ADDGA1021+036009999GF102991999999999999999999MA1101901999999MW1001REMMET079RJAK 280300Z 35005KT 9999 FEW120 08/M06 Q1019 RMK 1AC120 A3011 FCST 0312 NOSIG;EQDQ01+000000PRSWM2
0157477160999992000122804004+36030+140200FM-15+0029RJAK V0203001N001512200019N0112651N1+00901-00501999999ADDGA1021+036009999GF102991999999999999999999MA1101901999999MW1001REMMET063RJAK 280400Z 30003KT 9999 FEW120 09/M05 Q1019 RMK 1AC120 A3010;EQDQ01+000000PRSWM2
0157477160999992000122805004+36030+140200FM-15+0029RJAK V0202801N001512200019N0112651N1+01001-00501999999ADDGA1021+036009999GF102991999999999999999999MA1101901999999MW1001REMMET063RJAK 280500Z 28003KT 9999 FEW120 10/M05 Q1019 RMK 1AC120 A3010;EQDQ01+000000PRSWM2
0173477160999992000122806004+36030+140200FM-15+0029RJAK V0202701N001512200019N0112651N1+01001-00401999999ADDGA1021+036009999GF102991999999999999999999MA1101901999999MW1001REMMET079RJAK 280600Z 27003KT 9999 FEW120 10/M04 Q1019 RMK 1AC120 A3009 FCST 0615 NOSIG;EQDQ01+000000PRSWM2
0157477160999992000122807004+36030+140200FM-15+0029RJAK V0200601N001012200019N0112651N1+00901-00501999999ADDGA1021+036009999GF102991999999999999999999MA1101901999999MW1001REMMET063RJAK 280700Z 06002KT 9999 FEW120 09/M05 Q1019 RMK 1AC120 A3009;EQDQ01+000000PRSWM2
0173477160999992000122808004+36030+140200FM-15+0029RJAK V0200601N000512200019N0112651N1+00701-00401999999ADDGA1021+009009999GF102991999999999999999999MA1101901999999MW1001REMMET079RJAK 280800Z 06001KT 9999 FEW030 07/M04 Q1019 RMK 1CU030 A3009 FCST 0817 NOSIG;EQDQ01+000000PRSWM2
