0189525330999992000010100004+39770+098480FM-12+1478ZLJQ V0201401N001012200019N0300001N1-00761-01201103321ADDAA106000091GA1001+999999999GF100991001001999999001001MA1999999085881MD1210131+1101REMSYN076AAXX  01001 52533 32980 01401 11076 21120 38588 40332 52013 333 01155 70016;EQDQ01  00002PRCP06
0112525330999992000010103004+39770+098480FM-12+1478ZLJQ V0201401N004012200019N0300001N1-00611-01291103531ADDGF102991001001999999001021MD1210091+9999REMSYN060AAXX  01031 52533 42980 21404 11061 21129 40353 52009 80002;
0192525330999992000010106004+39770+098480FM-12+1478ZLJQ V0201101N004012200019N0300001N1-00431-01161103221ADDAA106000091GF101991001001999999001021KA1999N-01021MA1999999085791MD1710181+1001REMSYN082AAXX  01061 52533 32980 11104 11043 21116 38579 40322 57018 80002 333 01059 21102;EQDQ01  00002PRCP06
0122525330999992000010109004+39770+098480FM-12+1478ZLJQ V0201101N004012200019N0300001N1-00311-01061103061ADDGF101991001001999999001021MD1710141+0071REMSYN070AAXX  01091 52533 42980 11104 11031 21106 40306 57014 80002 333 00756;
0183525330999992000010112004+39770+098480FM-12+1478ZLJQ V0200701N002012200019N0300001N1-00601-01031103101ADDAA106000091GA1001+999999999GF100991001001999999001001MA1999999085501MD1710151+0041REMSYN070AAXX  01121 52533 32980 00702 11060 21103 38550 40310 57015 333 00457;EQDQ01  00002PRCP06
0112525330999992000010115004+39770+098480FM-12+1478ZLJQ V0202501N002012200019N0300001N1-00861-01181102841ADDGF102991001001999999001021MD1710251+9999REMSYN060AAXX  01151 52533 42980 22502 11086 21118 40284 57025 80002;
0202525330999992000010118004+39770+098480FM-12+1478ZLJQ V0202501N002012200019N0300001N1-00981-01331102561ADDAA106000091GA1001+999999999GF100991001001999999001001KA1999M-00171MA1999999085041MD1710211-0401REMSYN076AAXX  01181 52533 32980 02502 11098 21133 38504 40256 57021 333 05457 11017;EQDQ01  00002PRCP06
0122525330999992000010121004+39770+098480FM-12+1478ZLJQ V0202501N001012200019N0300001N1-01111-01501102621ADDGF101991001001999999001021MD1210051+0071REMSYN070AAXX  01211 52533 42980 12501 11111 21150 40262 52005 80002 333 05757;
0173525330999992000010200004+39770+098480FM-12+1478ZLJQ V0203401N002012200019N0300001N1-00891-01421102551ADDAA106000091GF104991001001999999001021MA1999999085011MD1710081+0091REMSYN076AAXX  02001 52533 32980 43402 11089 21142 38501 40255 57008 80002 333 05951;EQDQ01  00002PRCP06
0122525330999992000010203004+39770+098480FM-12+1478ZLJQ V0202901N002012200019N0300001N1-00231-01171102391ADDGA1001+999999999GF100991001001999999001001MD1710021+9999REMSYN054AAXX  02031 52533 42980 02902 11023 21117 40239 57002;
0192525330999992000010206004+39770+098480FM-12+1478ZLJQ V0201601N002019999999N0300001N1+00441-01131101931ADDAA106000091GF107991021001999999041021KA1999N-01191MA1999999084771MD1710221-1001REMSYN082AAXX  02061 52533 32980 71602 10044 21113 38477 40193 57022 82042 333 06009 21119;EQDQ01  00002PRCP06
0122525330999992000010209004+39770+098480FM-12+1478ZLJQ V0203401N002019999999N0300001N1+00291-00751102001ADDGF108991021001999999041071MD1710021+0091REMSYN070AAXX  02091 52533 42980 83402 10029 21075 40200 57002 82047 333 05906;
0173525330999992000010212004+39770+098480FM-12+1478ZLJQ V0201401N003012200019N0300001N1-00091-00951102121ADDAA106000091GF101991001001999999001021MA1999999084801MD1210051+0071REMSYN076AAXX  02121 52533 32980 11403 11009 21095 38480 40212 52005 80002 333 05705;EQDQ01  00002PRCP06
0122525330999992000010215004+39770+098480FM-12+1478ZLJQ V0202001N002012200019N0300001N1-00371-00921101941ADDGA1001+999999999GF100991001001999999001001MD1710041+9999REMSYN054AAXX  02151 52533 42980 02002 11037 21092 40194 57004;
0192525330999992000010218004+39770+098480FM-12+1478ZLJQ V0202701N001019999999N0300001N1-00421-00951101541ADDAA106000091GF107991001001999999001021KA1999M+00521MA1999999084601MD1710161-0401REMSYN082AAXX  02181 52533 32980 72701 11042 21095 38460 40154 57016 80002 333 05406 10052;EQDQ01  00002PRCP06
0122525330999992000010221004+39770+098480FM-12+1478ZLJQ V0201801N001019999999N0300001N1-00381-00701101611ADDGF108991001001999999001071MD1210031+0051REMSYN070AAXX  02211 52533 42980 81801 11038 21070 40161 52003 80007 333 05507;
0173525330999992000010300004+39770+098480FM-12+1478ZLJQ V0203401N002019999999N0300001N1-00351-00941101791ADDAA106000091GF108991001001999999001071MA1999999084681MD1210051+0031REMSYN076AAXX  03001 52533 32980 83402 11035 21094 38468 40179 52005 80007 333 05305;EQDQ01  00002PRCP06
0112525330999992000010303004+39770+098480FM-12+1478ZLJQ V0203401N002019999999N0300001N1-00171-00881102021ADDGF107991011001999999041021MD1210161+9999REMSYN060AAXX  03031 52533 42980 73402 11017 21088 40202 52016 81042;
0192525330999992000010306004+39770+098480FM-12+1478ZLJQ V0202001N002019999999N0300001N1+00351-00901101741ADDAA106000091GF108991011001999999041071KA1999N-00461MA1999999084741MD1710101+0001REMSYN082AAXX  03061 52533 32980 82002 10035 21090 38474 40174 57010 81047 333 00051 21046;EQDQ01  00002PRCP06
0122525330999992000010309004+39770+098480FM-12+1478ZLJQ V0203401N004019999999N0300001N1+00031-01091101901ADDGF108991021001999999041071MD1210061+0011REMSYN070AAXX  03091 52533 42980 83404 10003 21109 40190 52006 82047 333 00153;
0173525330999992000010312004+39770+098480FM-12+1478ZLJQ V0203601N002019999999N0300001N1-00221-01151102191ADDAA106000091GF108991021001999999041071MA1999999084981MD1210181+0021REMSYN076AAXX  03121 52533 32980 83602 11022 21115 38498 40219 52018 82047 333 00251;EQDQ01  00002PRCP06
0112525330999992000010315004+39770+098480FM-12+1478ZLJQ V0209999C000019999999N0300001N1-00341-00971102131ADDGF108991001001999999001071MD1710041+9999REMSYN060AAXX  03151 52533 42980 80000 11034 21097 40213 57004 80007;
0192525330999992000010318004+39770+098480FM-12+1478ZLJQ V0203401N002019999999N0300001N1-00421-01001101961ADDAA106000091GF108991001001999999001071KA1999M+00391MA1999999084931MD1710011+0301REMSYN082AAXX  03181 52533 32980 83402 11042 21100 38493 40196 57001 80007 333 00300 10039;EQDQ01  00002PRCP06
0122525330999992000010321004+39770+098480FM-12+1478ZLJQ V0200201N001019999999N0300001N1-00481-01041102081ADDGF108991081001999999021999MD1710011+0031REMSYN070AAXX  03211 52533 42980 80201 11048 21104 40208 57001 8802/ 333 00351;
0186525330999992000010400004+39770+098480FM-12+1478ZLJQ V0201801N002019999999N0300001N1-00621-00891102191ADDAA106000191AY171061GF108991081001999999021999MA1999999084901MD1710021+0201MW1001REMSYN094AAXX  04001 52533 11980 81802 11062 21089 38490 40219 57002 69921 70070 8802/ 333 00253 70002;
0112525330999992000010403004+39770+098480FM-12+1478ZLJQ V0200401N004019999999N0250001N1-00661-00821102271ADDGF108991081001999999021999MD1210021+9999REMSYN060AAXX  04031 52533 42975 80404 11066 21082 40227 52002 8802/;
0199525330999992000010406004+39770+098480FM-12+1478ZLJQ V0200201N002019999999N0150001N1-00611-00801102191ADDAA106000791AY171061GF108991081001999999021999KA1999N-00681MA1999999084841MD1710081+0101MW1701REMSYN094AAXX  04061 52533 11965 80202 11061 21080 38484 40219 57008 69901 77070 8802/ 333 00160 21068;
0188525330999992000010412004+39770+098480FM-12+1478ZLJQ V0200201N002019999999N0150001N1-00821-01001102921ADDAA106001091AY171061AY271061GF108991081001999999021999MA1999999085331MD1210261+0041MW1701REMSYN088AAXX  04121 52533 11965 80202 11082 21100 38533 40292 52026 60011 77077 8802/ 333 00456;
0140525330999992000010415004+39770+098480FM-12+1478ZLJQ V0200401N002019999999N0150001N1-00891-01041103051ADDAY171031AY271031GF108991081001999999021999MD1210071+9999MW1701REMSYN066AAXX  04151 52533 41965 80402 11089 21104 40305 52007 77077 8802/;
0207525330999992000010418004+39770+098480FM-12+1478ZLJQ V0200901N002019999999N0150001N1-00931-01091103081ADDAA106002091AY171061AY271061GF108991081001999999021999KA1999M-00361MA1999999085431MD1210031+0501MW1711REMSYN094AAXX  04181 52533 11965 80902 11093 21109 38543 40308 52003 60021 77177 8802/ 333 00555 11036;
0167525330999992000010421004+39770+098480FM-12+1478ZLJQ V0200701N003019999999N0150001N1-01171-01371103281ADDAA124003891AY171031AY271031GF108991081001999999021999MD1210051+0601MW1701REMSYN082AAXX  04211 52533 41965 80703 11117 21137 40328 52005 77077 8802/ 333 00657 70038;
0194525330999992000010500004+39770+098480FM-12+1478ZLJQ V0200701N001019999999N0150001N1-01501-01751103691ADDAA106000591AY171061AY271061GF108991001001999999001071MA1999999085701MD1210221+0801MW1701REMSYN094AAXX  05001 52533 11965 80701 11150 21175 38570 40369 52022 69961 77077 80007 333 00859 70038;
0140525330999992000010503004+39770+098480FM-12+1478ZLJQ V0200701N002019999999N0200001N1-01431-01791103981ADDAY171031AY271031GF107991021001999999041021MD1210241+9999MW1701REMSYN066AAXX  05031 52533 41970 70702 11143 21179 40398 52024 77077 82042;
0199525330999992000010506004+39770+098480FM-12+1478ZLJQ V0201101N002012200019N0250001N1-01501-02141103881ADDAA106000791AY171061GF102991001001999999001021KA1999N-01541MA1999999085821MD1710121+1001MW1001REMSYN094AAXX  05061 52533 11975 21102 11150 21214 38582 40388 57012 69901 70070 80002 333 01059 21154;
0122525330999992000010509004+39770+098480FM-12+1478ZLJQ V0200701N003012200019N0300001N1-01481-02081104001ADDGF101991011001999999041021MD1210031+0081REMSYN070AAXX  05091 52533 42980 10703 11148 21208 40400 52003 81042 333 00857;
0183525330999992000010512004+39770+098480FM-12+1478ZLJQ V0202001N002012200019N0300001N1-02161-02441104401ADDAA106000091GA1001+999999999GF100991001001999999001001MA1999999085861MD1210011+0051REMSYN070AAXX  05121 52533 32980 02002 11216 21244 38586 40440 52001 333 00563;EQDQ01  00002PRCP06
0122525330999992000010515004+39770+098480FM-12+1478ZLJQ V0202701N002012200019N0300001N1-02411-02681104461ADDGA1001+999999999GF100991001001999999001001MD1710011+9999REMSYN054AAXX  05151 52533 42980 02702 11241 21268 40446 57001;
0202525330999992000010518004+39770+098480FM-12+1478ZLJQ V0202501N002012200019N0300001N1-02461-02761104401ADDAA106000091GA1001+999999999GF100991001001999999001001KA1999M-00941MA1999999085761MD1710091+0301REMSYN076AAXX  05181 52533 32980 02502 11246 21276 38576 40440 57009 333 00365 11094;EQDQ01  00002PRCP06
0149525330999992000010521004+39770+098480FM-12+1478ZLJQ V0202501N002012200019N0300001N1-02561-02891104321ADDAA124000391GA1001+999999999GF100991001001999999001001MD1710091+0201REMSYN070AAXX  05211 52533 42980 02502 11256 21289 40432 57009 333 00264 70002;
0122525330999992000010603004+39770+098480FM-12+1478ZLJQ V0209999C000012200019N0300001N1-02021-02331104331ADDGA1001+999999999GF100991001001999999001001MD1710011+9999REMSYN054AAXX  06031 52533 42980 00000 11202 21233 40433 57001;
0192525330999992000010606004+39770+098480FM-12+1478ZLJQ V0201101N003019999999N0300001N1-01331-02151103771ADDAA106000091GF107991011001999999041021KA1999N-02641MA1999999085301MD1710251-0501REMSYN082AAXX  06061 52533 32980 71103 11133 21215 38530 40377 57025 81042 333 05502 21264;EQDQ01  00002PRCP06
0122525330999992000010609004+39770+098480FM-12+1478ZLJQ V0200401N002019999999N0300001N1-01391-02081103811ADDGF107991021001999999041021MD1710021+0061REMSYN070AAXX  06091 52533 42980 70402 11139 21208 40381 57002 82042 333 05601;
0173525330999992000010612004+39770+098480FM-12+1478ZLJQ V0203601N002019999999N0300001N1-01581-02021103931ADDAA106000091GF105991001001999999001021MA1999999085311MD1210031+0061REMSYN076AAXX  06121 52533 32980 53602 11158 21202 38531 40393 52003 80002 333 05606;EQDQ01  00002PRCP06
0122525330999992000010615004+39770+098480FM-12+1478ZLJQ V0202501N002012200019N0300001N1-02001-02261103811ADDGA1001+999999999GF100991001001999999001001MD1710051+9999REMSYN054AAXX  06151 52533 42980 02502 11200 21226 40381 57005;
0122525330999992000010621004+39770+098480FM-12+1478ZLJQ V0202001N002012200019N0300001N1-01801-02121103231ADDGF102991001001999999001021MD1710041+0061REMSYN070AAXX  06211 52533 42980 22002 11180 21212 40323 57004 80002 333 05608;
0173525330999992000010700004+39770+098480FM-12+1478ZLJQ V0202201N002012200019N0300001N1-01851-02261103201ADDAA106000091GF101991001001999999001021MA1999999084951MD1710101+0061REMSYN076AAXX  07001 52533 32980 12202 11185 21226 38495 40320 57010 80002 333 05607;EQDQ01  00002PRCP06
0122525330999992000010703004+39770+098480FM-12+1478ZLJQ V0209999C000012200019N0300001N1-01101-02091103181ADDGA1001+999999999GF100991001001999999001001MD1210091+9999REMSYN054AAXX  07031 52533 42980 00000 11110 21209 40318 52009;
0202525330999992000010706004+39770+098480FM-12+1478ZLJQ V0209999C000012200019N0300001N1-00551-01711102781ADDAA106000091GA1001+999999999GF100991001001999999001001KA1999N-02021MA1999999084881MD1710161-0401REMSYN076AAXX  07061 52533 32980 00000 11055 21171 38488 40278 57016 333 05408 21202;EQDQ01  00002PRCP06
0132525330999992000010709004+39770+098480FM-12+1478ZLJQ V0203601N002012200019N0300001N1-00321-01451102581ADDGA1001+999999999GF100991001001999999001001MD1710041+0041REMSYN064AAXX  07091 52533 42980 03602 11032 21145 40258 57004 333 05411;
0173525330999992000010712004+39770+098480FM-12+1478ZLJQ V0202001N002012200019N0300001N1-01151-01621102931ADDAA106000091GF101991001001999999001021MA1999999084861MD1210021+0051REMSYN076AAXX  07121 52533 32980 12002 11115 21162 38486 40293 52002 80002 333 05504;EQDQ01  00002PRCP06
0122525330999992000010715004+39770+098480FM-12+1478ZLJQ V0202001N002012200019N0300001N1-01111-01661102681ADDGA1001+999999999GF100991001001999999001001MD1210041+9999REMSYN054AAXX  07151 52533 42980 02002 11111 21166 40268 52004;
0202525330999992000010718004+39770+098480FM-12+1478ZLJQ V0202901N002012200019N0300001N1-01231-01681102391ADDAA106000091GA1001+999999999GF100991001001999999001001KA1999M-00171MA1999999084791MD1710111-0301REMSYN076AAXX  07181 52533 32980 02902 11123 21168 38479 40239 57011 333 05308 11017;EQDQ01  00002PRCP06
0132525330999992000010721004+39770+098480FM-12+1478ZLJQ V0202201N003012200019N0300001N1-01371-01831102291ADDGA1001+999999999GF100991001001999999001001MD1710061+0031REMSYN064AAXX  07211 52533 42980 02203 11137 21183 40229 57006 333 05304;
0173525330999992000010800004+39770+098480FM-12+1478ZLJQ V0202201N001019999999N0300001N1-01231-01661102511ADDAA106000091GF107991001001999999001021MA1999999084711MD1710021+0021REMSYN076AAXX  08001 52533 32980 72201 11123 21166 38471 40251 57002 80002 333 05206;EQDQ01  00002PRCP06
0112525330999992000010803004+39770+098480FM-12+1478ZLJQ V0201401N001019999999N0300001N1-00531-01211102381ADDGF108991001001999999001071MD1210111+9999REMSYN060AAXX  08031 52533 42980 81401 11053 21121 40238 52011 80007;
0192525330999992000010806004+39770+098480FM-12+1478ZLJQ V0200401N001019999999N0300001N1-00151-01031102281ADDAA106000091GF108991031001999999041071KA1999N-01511MA1999999084821MD1410001-0101REMSYN082AAXX  08061 52533 32980 80401 11015 21103 38482 40228 54000 83047 333 05104 21151;EQDQ01  00002PRCP06
0122525330999992000010809004+39770+098480FM-12+1478ZLJQ V0200201N001019999999N0300001N1-00111-00881102401ADDGF108991021001999999041071MD1210071+0011REMSYN070AAXX  08091 52533 42980 80201 11011 21088 40240 52007 82047 333 00102;
0173525330999992000010812004+39770+098480FM-12+1478ZLJQ V0209999C000012200019N0300001N1-00491-00971102541ADDAA106000091GF101991001001999999001021MA1999999084931MD1210041+0011REMSYN076AAXX  08121 52533 32980 10000 11049 21097 38493 40254 52004 80002 333 00107;EQDQ01  00002PRCP06
0122525330999992000010815004+39770+098480FM-12+1478ZLJQ V0202001N002012200019N0300001N1-01111-01391102471ADDGA1001+999999999GF100991001001999999001001MD1710031+9999REMSYN054AAXX  08151 52533 42980 02002 11111 21139 40247 57003;
0202525330999992000010818004+39770+098480FM-12+1478ZLJQ V0202501N002012200019N0300001N1-01111-01371102221ADDAA106000091GA1001+999999999GF100991001001999999001001KA1999M-00031MA1999999084801MD1710101+0001REMSYN076AAXX  08181 52533 32980 02502 11111 21137 38480 40222 57010 333 00001 11003;EQDQ01  00002PRCP06
0132525330999992000010821004+39770+098480FM-12+1478ZLJQ V0202501N002012200019N0300001N1-01251-01481102061ADDGA1001+999999999GF100991001001999999001001MD1710161+0011REMSYN064AAXX  08211 52533 42980 02502 11125 21148 40206 57016 333 05101;
0183525330999992000010900004+39770+098480FM-12+1478ZLJQ V0202501N003012200019N0300001N1-01311-01581102061ADDAA106000091GA1001+999999999GF100991001001999999001001MA1999999084511MD1710131+0021REMSYN070AAXX  09001 52533 32980 02503 11131 21158 38451 40206 57013 333 05251;EQDQ01  00002PRCP06
0122525330999992000010903004+39770+098480FM-12+1478ZLJQ V0202501N001012200019N0300001N1-00771-01411102171ADDGA1001+999999999GF100991001001999999001001MD1210071+9999REMSYN054AAXX  09031 52533 42980 02501 11077 21141 40217 52007;
0122525330999992000010909004+39770+098480FM-12+1478ZLJQ V0200201N002012200019N0300001N1-00121-00811102041ADDGF101991001001999999001021MD1210091+0031REMSYN070AAXX  09091 52533 42980 10202 11012 21081 40204 52009 80002 333 05300;
0173525330999992000010912004+39770+098480FM-12+1478ZLJQ V0202501N002012200019N0300001N1-00851-01121102591ADDAA106000091GF102991001001999999001021MA1999999084841MD1210221+0011REMSYN076AAXX  09121 52533 32980 22502 11085 21112 38484 40259 52022 80002 333 05154;EQDQ01  00002PRCP06
0112525330999992000010915004+39770+098480FM-12+1478ZLJQ V0209999C000012200019N0300001N1-01271-01441102531ADDGF101991001001999999001021MD1710011+9999REMSYN060AAXX  09151 52533 42980 10000 11127 21144 40253 57001 80002;
0192525330999992000010918004+39770+098480FM-12+1478ZLJQ V0202701N002019999999N0300001N1-01331-01531102481ADDAA106000091GF106991001001999999001021KA1999M+00051MA1999999084911MD1210081+0101REMSYN082AAXX  09181 52533 32980 62702 11133 21153 38491 40248 52008 80002 333 00152 10005;EQDQ01  00002PRCP06
0122525330999992000010921004+39770+098480FM-12+1478ZLJQ V0202201N003019999999N0300001N1-01161-01381102431ADDGF107991001001999999001021MD1210061+0031REMSYN070AAXX  09211 52533 42980 72203 11116 21138 40243 52006 80002 333 00301;
0186525330999992000011000004+39770+098480FM-12+1478ZLJQ V0203201N002019999999N0300001N1-00731-00901102841ADDAA106000791AY171061GF108991081001999999021999MA1999999085221MD1210251+0701MW1701REMSYN094AAXX  10001 52533 11980 83202 11073 21090 38522 40284 52025 69901 77070 8802/ 333 00706 79999;
0140525330999992000011003004+39770+098480FM-12+1478ZLJQ V0202901N003019999999N0300001N1-00791-01051103231ADDAY171031AY271031GF107991001001999999001021MD1210181+9999MW1221REMSYN066AAXX  10031 52533 41980 72903 11079 21105 40323 52018 72277 80002;
0199525330999992000011006004+39770+098480FM-12+1478ZLJQ V0203201N001019999999N0300001N1-00521-00961103011ADDAA106000191AY171061GF107991001001999999001021KA1999N-01541MA1999999085281MD1710121+0801MW1001REMSYN094AAXX  10061 52533 11980 73201 11052 21096 38528 40301 57012 69911 70070 80002 333 00852 21154;
0122525330999992000011009004+39770+098480FM-12+1478ZLJQ V0201101N002019999999N0300001N1-00451-00951102971ADDGF106991001001999999001021MD1210041+0071REMSYN070AAXX  10091 52533 42980 61102 11045 21095 40297 52004 80002 333 00753;
0173525330999992000011012004+39770+098480FM-12+1478ZLJQ V0202201N002012200019N0300001N1-01031-01261103181ADDAA106000091GF101991001001999999001021MA1999999085451MD1210131+0061REMSYN076AAXX  10121 52533 32980 12202 11103 21126 38545 40318 52013 80002 333 00652;EQDQ01  00002PRCP06
0112525330999992000011015004+39770+098480FM-12+1478ZLJQ V0202901N003019999999N0300001N1-00761-01201103121ADDGF107991001001999999001021MD1210011+9999REMSYN060AAXX  10151 52533 42980 72903 11076 21120 40312 52001 80002;
0192525330999992000011018004+39770+098480FM-12+1478ZLJQ V0203201N004019999999N0300001N1-00741-01171102971ADDAA106000091GF108991001001999999001071KA1999M-00211MA1999999085421MD1710041+0501REMSYN082AAXX  10181 52533 32980 83204 11074 21117 38542 40297 57004 80007 333 00506 11021;EQDQ01  00002PRCP06
0159525330999992000011021004+39770+098480FM-12+1478ZLJQ V0202001N003019999999N0300001N1-00951-01301103041ADDAA124000191AY171031GF108991001001999999001071MD1210021+0501MW1001REMSYN082AAXX  10211 52533 41980 82003 11095 21130 40304 52002 70070 80007 333 00502 70001;
0186525330999992000011100004+39770+098480FM-12+1478ZLJQ V0200201N002019999999N0300001N1-00901-01231103341ADDAA106000791AY171061GF108991001001999999001071MA1999999085531MD1210091+0301MW1001REMSYN094AAXX  11001 52533 11980 80202 11090 21123 38553 40334 52009 69901 70070 80007 333 00352 70001;
0112525330999992000011103004+39770+098480FM-12+1478ZLJQ V0209999C000019999999N0300001N1-00801-01151103281ADDGF107991011001999999041021MD1210061+9999REMSYN060AAXX  11031 52533 42980 70000 11080 21115 40328 52006 81042;
0192525330999992000011106004+39770+098480FM-12+1478ZLJQ V0201101N002012200019N0300001N1-00441-01031102951ADDAA106000091GF102991011001999999041021KA1999N-01111MA1999999085431MD1710161+0201REMSYN082AAXX  11061 52533 32980 21102 11044 21103 38543 40295 57016 81042 333 00201 21111;EQDQ01  00002PRCP06
0122525330999992000011109004+39770+098480FM-12+1478ZLJQ V0200901N003019999999N0300001N1-00361-00871103021ADDGF107991011001999999041021MD1210021+0011REMSYN070AAXX  11091 52533 42980 70903 11036 21087 40302 52002 81042 333 00101;
0173525330999992000011112004+39770+098480FM-12+1478ZLJQ V0201801N001012200019N0300001N1-00801-01071103231ADDAA106000091GF104991001001999999001021MA1999999085591MD1210141+0011REMSYN076AAXX  11121 52533 32980 41801 11080 21107 38559 40323 52014 80002 333 00102;EQDQ01  00002PRCP06
0112525330999992000011115004+39770+098480FM-12+1478ZLJQ V0202201N002012200019N0300001N1-00981-01281103291ADDGF102991001001999999001021MD1710061+9999REMSYN060AAXX  11151 52533 42980 22202 11098 21128 40329 57006 80002;
0202525330999992000011118004+39770+098480FM-12+1478ZLJQ V0202201N002012200019N0300001N1-01381-01641103141ADDAA106000091GA1001+999999999GF100991001001999999001001KA1999M-00291MA1999999085401MD1710131+0001REMSYN076AAXX  11181 52533 32980 02202 11138 21164 38540 40314 57013 333 00056 11029;EQDQ01  00002PRCP06
0132525330999992000011121004+39770+098480FM-12+1478ZLJQ V0202201N003012200019N0300001N1-01581-01831103091ADDGA1001+999999999GF100991001001999999001001MD1710081+0011REMSYN064AAXX  11211 52533 42980 02203 11158 21183 40309 57008 333 05156;
0183525330999992000011200004+39770+098480FM-12+1478ZLJQ V0202201N003012200019N0300001N1-01451-01751103131ADDAA106000091GA1001+999999999GF100991001001999999001001MA1999999085261MD1710061+0031REMSYN070AAXX  12001 52533 32980 02203 11145 21175 38526 40313 57006 333 05356;EQDQ01  00002PRCP06
0112525330999992000011203004+39770+098480FM-12+1478ZLJQ V0202501N001012200019N0300001N1-00941-01681102971ADDGF101991001001999999001021MD1710031+9999REMSYN060AAXX  12031 52533 42980 12501 11094 21168 40297 57003 80002;
0192525330999992000011206004+39770+098480FM-12+1478ZLJQ V0200701N002012200019N0300001N1-00401-01111102671ADDAA106000091GF102991001001999999001021KA1999N-01601MA1999999085021MD1710211-0401REMSYN082AAXX  12061 52533 32980 20702 11040 21111 38502 40267 57021 80002 333 05400 21160;EQDQ01  00002PRCP06
0122525330999992000011209004+39770+098480FM-12+1478ZLJQ V0200701N001019999999N0300001N1-00501-01021102861ADDGF107991011001999999041021MD1210071+0041REMSYN070AAXX  12091 52533 42980 70701 11050 21102 40286 52007 81042 333 05451;
0173525330999992000011212004+39770+098480FM-12+1478ZLJQ V0202701N001019999999N0300001N1-00831-01151103131ADDAA106000091GF108991001001999999001071MA1999999085251MD1210161+0031REMSYN076AAXX  12121 52533 32980 82701 11083 21115 38525 40313 52016 80007 333 05300;EQDQ01  00002PRCP06
0112525330999992000011215004+39770+098480FM-12+1478ZLJQ V0202701N003019999999N0300001N1-00501-01211102861ADDGF105991001001999999001021MD1210031+9999REMSYN060AAXX  12151 52533 42980 52703 11050 21121 40286 52003 80002;
0202525330999992000011218004+39770+098480FM-12+1478ZLJQ V0202001N001012200019N0300001N1-01131-01711102821ADDAA106000091GA1001+999999999GF100991001001999999001001KA1999M-00321MA1999999085221MD1710061-0201REMSYN076AAXX  12181 52533 32980 02001 11113 21171 38522 40282 57006 333 05203 11032;EQDQ01  00002PRCP06
0132525330999992000011221004+39770+098480FM-12+1478ZLJQ V0202201N002012200019N0300001N1-01401-01721102941ADDGA1001+999999999GF100991001001999999001001MD1710011+0011REMSYN064AAXX  12211 52533 42980 02202 11140 21172 40294 57001 333 05102;
0183525330999992000011300004+39770+098480FM-12+1478ZLJQ V0202201N003012200019N0300001N1-01481-01751103021ADDAA106000091GA1001+999999999GF100991001001999999001001MA1999999085151MD1710061+0011REMSYN070AAXX  13001 52533 32980 02203 11148 21175 38515 40302 57006 333 05100;EQDQ01  00002PRCP06
0122525330999992000011303004+39770+098480FM-12+1478ZLJQ V0202201N001012200019N0300001N1-00931-01601102661ADDGA1001+999999999GF100991001001999999001001MD1710031+9999REMSYN054AAXX  13031 52533 42980 02201 11093 21160 40266 57003;
0202525330999992000011306004+39770+098480FM-12+1478ZLJQ V0200901N003012200019N0300001N1-00481-01131102431ADDAA106000091GA1001+999999999GF100991001001999999001001KA1999N-01581MA1999999084871MD1710251-0201REMSYN076AAXX  13061 52533 32980 00903 11048 21113 38487 40243 57025 333 05251 21158;EQDQ01  00002PRCP06
0132525330999992000011309004+39770+098480FM-12+1478ZLJQ V0201101N003012200019N0300001N1-00411-01271102371ADDGA1001+999999999GF100991001001999999001001MD1710111+0031REMSYN064AAXX  13091 52533 42980 01103 11041 21127 40237 57011 333 05301;
0183525330999992000011312004+39770+098480FM-12+1478ZLJQ V0209999C000012200019N0300001N1-01041-01451102781ADDAA106000091GA1001+999999999GF100991001001999999001001MA1999999084891MD1210131+0041REMSYN070AAXX  13121 52533 32980 00000 11104 21145 38489 40278 52013 333 05452;EQDQ01  00002PRCP06
0122525330999992000011315004+39770+098480FM-12+1478ZLJQ V0202201N003012200019N0300001N1-01461-01731102751ADDGA1001+999999999GF100991001001999999001001MD1210011+9999REMSYN054AAXX  13151 52533 42980 02203 11146 21173 40275 52001;
0202525330999992000011318004+39770+098480FM-12+1478ZLJQ V0202201N003012200019N0300001N1-01651-01941102631ADDAA106000091GA1001+999999999GF100991001001999999001001KA1999M-00391MA1999999084881MD1710021-0301REMSYN076AAXX  13181 52533 32980 02203 11165 21194 38488 40263 57002 333 05355 11039;EQDQ01  00002PRCP06
0136525330999992000011321004+39770+098480FM-12+147899999V0202701N002012200019N0300001N1-01541-01901102651ADDGA1001+999999999GF100991001001999999001001MD1210071+0031REMSYN068    AAXX  13211 52533 42980 02702 11154 21190 40265 52007 333 05351;
0177525330999992000011400004+39770+098480FM-12+147899999V0202501N002012200019N0300001N1-01451-01721103031ADDAA199000091GF101991001001999999001021MA1999999085101MD1210151+0011REMSYN080    AAXX  14001 52533 32980 12502 11145 21172 38510 40303 52015 80002 333 05100;EQDQ01  00002PRCP99
0156525330999992000011401004+39770+098480FM-12+147899999V0202501N002012200019N0300001N1-01451+99999103031ADDAA199000091GF101991001001999999001021MD1210151+9999REMSYN074    AAXX  14011 52533 32980 12502 11145 211/2 385// 40303 52015 80002 333;EQDQ01  00002PRCP99
0116525330999992000011403004+39770+098480FM-12+147899999V0203401N002019999999N0300001N1-00741-01271103191ADDGF107991011001999999041021MD1210221+9999REMSYN064    AAXX  14031 52533 42980 73402 11074 21127 40319 52022 81042;
0196525330999992000011406004+39770+098480FM-12+147899999V0203401N003019999999N0300001N1-00601-01271103021ADDAA199000091GF107991001001999999001021KA1999N-01731MA1999999085171MD1710151+0301REMSYN086    AAXX  14061 52533 32980 73403 11060 21127 38517 40302 57015 80002 333 00351 21173;EQDQ01  00002PRCP99
0126525330999992000011409004+39770+098480FM-12+147899999V0202901N002012200019N0300001N1-00541-01281103081ADDGF102991001001999999001021MD1210101+0051REMSYN074    AAXX  14091 52533 42980 22902 11054 21128 40308 52010 80002 333 00551;
0177525330999992000011412004+39770+098480FM-12+147899999V0202001N003012200019N0300001N1-01131-01501103451ADDAA199000091GF102991001001999999001021MA1999999085421MD1210151+0051REMSYN080    AAXX  14121 52533 32980 22003 11113 21150 38542 40345 52015 80002 333 00551;EQDQ01  00002PRCP99
0126525330999992000011415004+39770+098480FM-12+147899999V0202201N002012200019N0300001N1-01371-01641103191ADDGA1001+999999999GF100991001001999999001001MD1710071+9999REMSYN058    AAXX  14151 52533 42980 02202 11137 21164 40319 57007;
0206525330999992000011418004+39770+098480FM-12+147899999V0202201N003012200019N0300001N1-01511-01841103141ADDAA199000091GA1001+999999999GF100991001001999999001001KA1999M-00481MA1999999085311MD1710041+0401REMSYN080    AAXX  14181 52533 32980 02203 11151 21184 38531 40314 57004 333 00401 11048;EQDQ01  00002PRCP99
0136525330999992000011421004+39770+098480FM-12+147899999V0202201N003012200019N0300001N1-01601-01931103111ADDGA1001+999999999GF100991001001999999001001MD1710031+0031REMSYN068    AAXX  14211 52533 42980 02203 11160 21193 40311 57003 333 00351;
0177525330999992000011500004+39770+098480FM-12+147899999V0202201N002012200019N0300001N1-01831-02151103461ADDAA199000091GF101991001001999999001021MA1999999085311MD1210031+0021REMSYN080    AAXX  15001 52533 32980 12202 11183 21215 38531 40346 52003 80002 333 00254;EQDQ01  00002PRCP99
0116525330999992000011503004+39770+098480FM-12+147899999V0202201N001019999999N0300001N1-01151-01811103511ADDGF105991011001999999041021MD1210181+9999REMSYN064    AAXX  15031 52533 42980 52201 11115 21181 40351 52018 81042;
0196525330999992000011506004+39770+098480FM-12+147899999V0200901N002019999999N0300001N1-00681-01501103291ADDAA199000091GF107991001001999999001021KA1999N-01891MA1999999085411MD1710081+0201REMSYN086    AAXX  15061 52533 32980 70902 11068 21150 38541 40329 57008 80002 333 00251 21189;EQDQ01  00002PRCP99
0126525330999992000011509004+39770+098480FM-12+147899999V0200701N002012200019N0300001N1-00641-01281103451ADDGF101991001001999999001021MD1210121+0031REMSYN074    AAXX  15091 52533 42980 10702 11064 21128 40345 52012 80002 333 00351;
0177525330999992000011512004+39770+098480FM-12+147899999V0202501N002019999999N0300001N1-01191-01501103981ADDAA199000091GF107991001001999999001021MA1999999085721MD1210191+0031REMSYN080    AAXX  15121 52533 32980 72502 11119 21150 38572 40398 52019 80002 333 00351;EQDQ01  00002PRCP99
0116525330999992000011515004+39770+098480FM-12+147899999V0202201N002019999999N0300001N1-01231-01501103871ADDGF108991001001999999001071MD1210111+9999REMSYN064    AAXX  15151 52533 42980 82202 11123 21150 40387 52011 80007;
0195525330999992000011518004+39770+098480FM-12+147899999V0202201N002019999999N0300001N1-01071-01511103651ADDAA199000091GF108991001001999999001071KA1999M-00611MA1999999085841MD1210011+0501REMSYN085    AAXX  15181 52533 32980 82202 11107 2115138584 40365 52001 80007 333 00504 11061;EQDQ01  00002PRCP99
0126525330999992000011521004+39770+098480FM-12+147899999V0202701N004012200019N0300001N1-00921-01651103691ADDGF104991001001999999001021MD1210091+0071REMSYN074    AAXX  15211 52533 42980 42704 11092 21165 40369 52009 80002 333 00707;
0177525330999992000011600004+39770+098480FM-12+147899999V0202701N003019999999N0300001N1-00971-01601103931ADDAA199000091GF107991011001999999041021MA1999999085951MD1210021+0061REMSYN080    AAXX  16001 52533 32980 72703 11097 21160 38595 40393 52002 81042 333 00609;EQDQ01  00002PRCP99
0116525330999992000011603004+39770+098480FM-12+147899999V0209999C000012200019N0300001N1-00661-01811103991ADDGF101991001001999999001021MD1210131+9999REMSYN064    AAXX  16031 52533 42980 10000 11066 21181 40399 52013 80002;
0196525330999992000011606004+39770+098480FM-12+147899999V0200901N003012200019N0300001N1-00441-01571103661ADDAA199000091GF101991001001999999001021KA1999N-01281MA1999999085921MD1710161+0501REMSYN086    AAXX  16061 52533 32980 10903 11044 21157 38592 40366 57016 80002 333 00502 21128;EQDQ01  00002PRCP99
0126525330999992000011609004+39770+098480FM-12+147899999V0201101N003012200019N0300001N1-00341-01441103471ADDGF101991001001999999001021MD1710081+0031REMSYN074    AAXX  16091 52533 42980 11103 11034 21144 40347 57008 80002 333 00303;
0187525330999992000011611004+39770+098480FM-12+147899999V0202501N003012200019N0300001N1-01281-01841103631ADDAA199000091GA1001+999999999GF100991001001999999001001MA1999999085831MD1710101+0001REMSYN074    AAXX  16111 52533 32980 02503 11128 21184 38583 40363 57010 333 00052;EQDQ01  00002PRCP99
0187525330999992000011612004+39770+098480FM-12+147899999V0203401N002012200019N0300001N1-01051-01491103891ADDAA199000091GA1001+999999999GF100991001001999999001001MA1999999085961MD1210121+0021REMSYN074    AAXX  16121 52533 32980 03402 11105 21149 38596 40389 52012 333 00201;EQDQ01  00002PRCP99
0126525330999992000011615004+39770+098480FM-12+147899999V0202201N002012200019N0300001N1-01211-01751103801ADDGA1001+999999999GF100991001001999999001001MD1710031+9999REMSYN058    AAXX  16151 52533 42980 02202 11121 21175 40380 57003;
0206525330999992000011618004+39770+098480FM-12+147899999V0202501N003012200019N0300001N1-01281-01841103631ADDAA199000091GA1001+999999999GF100991001001999999001001KA1999M-00291MA1999999085831MD1710101+0001REMSYN080    AAXX  16181 52533 32980 02503 11128 21184 38583 40363 57010 333 00052 11029;EQDQ01  00002PRCP99
0136525330999992000011621004+39770+098480FM-12+147899999V0202501N003012200019N0300001N1-01501-01891103691ADDGA1001+999999999GF100991001001999999001001MD1210021+0011REMSYN068    AAXX  16211 52533 42980 02503 11150 21189 40369 52002 333 05156;
0187525330999992000011700004+39770+098480FM-12+147899999V0202201N002012200019N0300001N1-01601-01961104011ADDAA199000091GA1001+999999999GF100991001001999999001001MA1999999085861MD1210011+0011REMSYN074    AAXX  17001 52533 32980 02202 11160 21196 38586 40401 52001 333 05156;EQDQ01  00002PRCP99
0126525330999992000011703004+39770+098480FM-12+147899999V0202501N002012200019N0300001N1-01051-01801104071ADDGA1001+999999999GF100991001001999999001001MD1210171+9999REMSYN058    AAXX  17031 52533 42980 02502 11105 21180 40407 52017;
0206525330999992000011706004+39770+098480FM-12+147899999V0201401N003012200019N0300001N1-00391-01361103721ADDAA199000091GA1001+999999999GF100991001001999999001001KA1999N-01791MA1999999085921MD1710111+0001REMSYN080    AAXX  17061 52533 32980 01403 11039 21136 38592 40372 57011 333 00001 21179;EQDQ01  00002PRCP99
0136525330999992000011709004+39770+098480FM-12+147899999V0200901N002012200019N0300001N1-00381-01231103941ADDGA1001+999999999GF100991001001999999001001MD1210121+0021REMSYN068    AAXX  17091 52533 42980 00902 11038 21123 40394 52012 333 00200;
0187525330999992000011712004+39770+098480FM-12+147899999V0202001N002012200019N0300001N1-00861-01501104301ADDAA199000091GA1001+999999999GF100991001001999999001001MA1999999086161MD1210121+0021REMSYN074    AAXX  17121 52533 32980 02002 11086 21150 38616 40430 52012 333 00202;EQDQ01  00002PRCP99
0126525330999992000011715004+39770+098480FM-12+147899999V0202901N002012200019N0300001N1-01131-01691104341ADDGA1001+999999999GF100991001001999999001001MD1210121+9999REMSYN058    AAXX  17151 52533 42980 02902 11113 21169 40434 52012;
0206525330999992000011718004+39770+098480FM-12+147899999V0202701N002012200019N0300001N1-01401-01831104211ADDAA199000091GA1001+999999999GF100991001001999999001001KA1999M-00271MA1999999086291MD1210011+0501REMSYN080    AAXX  17181 52533 32980 02702 11140 21183 38629 40421 52001 333 00551 11027;EQDQ01  00002PRCP99
0136525330999992000011721004+39770+098480FM-12+147899999V0202501N003012200019N0300001N1-01661-01971104311ADDGA1001+999999999GF100991001001999999001001MD1210011+0051REMSYN068    AAXX  17211 52533 42980 02503 11166 21197 40431 52001 333 00552;
0187525330999992000011800004+39770+098480FM-12+147899999V0202201N003012200019N0300001N1-01741-02031104551ADDAA199000091GA1001+999999999GF100991001001999999001001MA1999999086321MD1210021+0051REMSYN074    AAXX  18001 52533 32980 02203 11174 21203 38632 40455 52002 333 00551;EQDQ01  00002PRCP99
0126525330999992000011803004+39770+098480FM-12+147899999V0209999C000012200019N0300001N1-01091-01801104441ADDGA1001+999999999GF100991001001999999001001MD1210031+9999REMSYN058    AAXX  18031 52533 42980 00000 11109 21180 40444 52003;
0206525330999992000011806004+39770+098480FM-12+147899999V0200901N003012200019N0300001N1-00661-01481104131ADDAA199000091GA1001+999999999GF100991001001999999001001KA1999N-01881MA1999999086141MD1710211+0201REMSYN080    AAXX  18061 52533 32980 00903 11066 21148 38614 40413 57021 333 00253 21188;EQDQ01  00002PRCP99
0136525330999992000011809004+39770+098480FM-12+147899999V0200901N004012200019N0300001N1-00621-01411104041ADDGA1001+999999999GF100991001001999999001001MD1710141+0001REMSYN068    AAXX  18091 52533 42980 00904 11062 21141 40404 57014 333 00052;
0187525330999992000011812004+39770+098480FM-12+147899999V0201601N001012200019N0300001N1-01021-01631104101ADDAA199000091GA1001+999999999GF100991001001999999001001MA1999999085901MD1710101+0031REMSYN074    AAXX  18121 52533 32980 01601 11102 21163 38590 40410 57010 333 05352;EQDQ01  00002PRCP99
0126525330999992000011815004+39770+098480FM-12+147899999V0202901N001012200019N0300001N1-01601-01871103961ADDGA1001+999999999GF100991001001999999001001MD1710091+9999REMSYN058    AAXX  18151 52533 42980 02901 11160 21187 40396 57009;
0206525330999992000011818004+39770+098480FM-12+147899999V0202201N002012200019N0300001N1-01721-01931103651ADDAA199000091GA1001+999999999GF100991001001999999001001KA1999M-00571MA1999999085651MD1710161-0601REMSYN080    AAXX  18181 52533 32980 02202 11172 21193 38565 40365 57016 333 05653 11057;EQDQ01  00002PRCP99
0136525330999992000011821004+39770+098480FM-12+147899999V0202201N003012200019N0300001N1-01671-01891103341ADDGA1001+999999999GF100991001001999999001001MD1710231+0091REMSYN068    AAXX  18211 52533 42980 02203 11167 21189 40334 57023 333 05900;
0187525330999992000011900004+39770+098480FM-12+147899999V0202201N002012200019N0300001N1-01971-02171103531ADDAA199000091GA1001+999999999GF100991001001999999001001MA1999999085361MD1710061+0101REMSYN074    AAXX  19001 52533 32980 02202 11197 21217 38536 40353 57006 333 06052;EQDQ01  00002PRCP99
0116525330999992000011903004+39770+098480FM-12+147899999V0202201N002019999999N0300001N1-01231-01791103451ADDGF107991001001999999001021MD1710021+9999REMSYN064    AAXX  19031 52533 42980 72202 11123 21179 40345 57002 80002;
0196525330999992000011906004+39770+098480FM-12+147899999V0200901N002019999999N0300001N1-00681-01331103081ADDAA199000091GF107991001001999999001021KA1999N-02001MA1999999085171MD1710171-1001REMSYN086    AAXX  19061 52533 32980 70902 11068 21133 38517 40308 57017 80002 333 06000 21200;EQDQ01  00002PRCP99
0126525330999992000011909004+39770+098480FM-12+147899999V0200701N002019999999N0300001N1-00601-01321103041ADDGF107991001001999999001021MD1210011+0081REMSYN074    AAXX  19091 52533 42980 70702 11060 21132 40304 52001 80002 333 05800;
0177525330999992000011912004+39770+098480FM-12+147899999V0200901N001019999999N0300001N1-01051-01761103441ADDAA199000091GF105991001001999999001021MA1999999085281MD1210101+0061REMSYN080    AAXX  19121 52533 32980 50901 11105 21176 38528 40344 52010 80002 333 05600;EQDQ01  00002PRCP99
0116525330999992000011915004+39770+098480FM-12+147899999V0202701N002019999999N0300001N1-01561-01951103471ADDGF107991001001999999001021MD1210091+9999REMSYN064    AAXX  19151 52533 42980 72702 11156 21195 40347 52009 80002;
0202525330999992000011918004+39770+098480FM-12+1478ZLJQ V0202701N003012200019N0300001N1-01521-01891103341ADDAA199000091GA1001+999999999GF100991001001999999001001KA1999M-00571MA1999999085451MD1210081-0201REMSYN076AAXX  19181 52533 32980 02703 11152 21189 38545 40334 52008 333 05202 11057;EQDQ01  00002PRCP99
0132525330999992000011921004+39770+098480FM-12+1478ZLJQ V0209999C000012200019N0300001N1-01561-01891103271ADDGA1001+999999999GF100991001001999999001001MD1710051+0001REMSYN064AAXX  19211 52533 42980 00000 11156 21189 40327 57005 333 00001;
0173525330999992000012000004+39770+098480FM-12+1478ZLJQ V0209999C000012200019N0300001N1-01751-02071103581ADDAA199000091GF102991001001999999001021MA1999999085461MD1210061+0011REMSYN076AAXX  20001 52533 32980 20000 11175 21207 38546 40358 52006 80002 333 00102;EQDQ01  00002PRCP99
0097525330999992000012003004+39770+098480FM-12+1478ZLJQ V0209999C000012200019N0300001N1-00871+99999999999ADDGF102991999999999999999999REMSYN059AAXX  20031 52533 42980 20000 11087 2145 40359 52012 80002;
0192525330999992000012006004+39770+098480FM-12+1478ZLJQ V0201101N002019999999N0300001N1-00571-01331103281ADDAA199000091GF107991001001999999001021KA1999N-01751MA1999999085431MD1710151+0301REMSYN082AAXX  20061 52533 32980 71102 11057 21133 38543 40328 57015 80002 333 00301 21175;EQDQ01  00002PRCP99
0122525330999992000012009004+39770+098480FM-12+1478ZLJQ V0200901N002019999999N0300001N1-00591-01301103311ADDGF108991001001999999001071MD1210011+0031REMSYN070AAXX  20091 52533 42980 80902 11059 21130 40331 52001 80007 333 00300;
0173525330999992000012012004+39770+098480FM-12+1478ZLJQ V0202201N001019999999N0300001N1-00721-01241103531ADDAA199000091GF107991021001999999041021MA1999999085521MD1210081+0021REMSYN076AAXX  20121 52533 32980 72201 11072 21124 38552 40353 52008 82042 333 00203;EQDQ01  00002PRCP99
0112525330999992000012015004+39770+098480FM-12+1478ZLJQ V0203601N001019999999N0300001N1-00891-01371103251ADDGF107991001001999999001021MD1710011+9999REMSYN060AAXX  20151 52533 42980 73601 11089 21137 40325 57001 80002;
0192525330999992000012018004+39770+098480FM-12+1478ZLJQ V0202201N002019999999N0300001N1-01101-01361102991ADDAA199000091GF107991001001999999001021KA1999M-00421MA1999999085321MD1710191-0101REMSYN082AAXX  20181 52533 32980 72202 11110 21136 38532 40299 57019 80002 333 05104 11042;EQDQ01  00002PRCP99
0122525330999992000012021004+39770+098480FM-12+1478ZLJQ V0202001N001019999999N0300001N1-01451-01651103071ADDGF107991001001999999001021MD1710051+0011REMSYN070AAXX  20211 52533 42980 72001 11145 21165 40307 57005 80002 333 05101;
0173525330999992000012100004+39770+098480FM-12+1478ZLJQ V0202501N002019999999N0300001N1-01241-01541103001ADDAA199000091GF107991001001999999001021MA1999999085241MD1710031+0021REMSYN076AAXX  21001 52533 32980 72502 11124 21154 38524 40300 57003 80002 333 05205;EQDQ01  00002PRCP99
0112525330999992000012103004+39770+098480FM-12+1478ZLJQ V0209999C000019999999N0300001N1-00851-01371102981ADDGF107991011001999999041021MD1210051+9999REMSYN060AAXX  21031 52533 42980 70000 11085 21137 40298 52005 81042;
0192525330999992000012106004+39770+098480FM-12+1478ZLJQ V0200701N002019999999N0300001N1-00351-01121102701ADDAA199000091GF107991001001999999001021KA1999N-01501MA1999999085141MD1710151-0301REMSYN082AAXX  21061 52533 32980 70702 11035 21112 38514 40270 57015 80002 333 05302 21150;EQDQ01  00002PRCP99
0122525330999992000012109004+39770+098480FM-12+1478ZLJQ V0200401N002019999999N0300001N1-00241-01091102901ADDGF107991021001999999041021MD1210101+0021REMSYN070AAXX  21091 52533 42980 70402 11024 21109 40290 52010 82042 333 05204;
0173525330999992000012112004+39770+098480FM-12+1478ZLJQ V0200901N001019999999N0300001N1-00341-01021102961ADDAA199000091GF108991011001999999041071MA1999999085321MD1210081+0021REMSYN076AAXX  21121 52533 32980 80901 11034 21102 38532 40296 52008 81047 333 05204;EQDQ01  00002PRCP99
0112525330999992000012115004+39770+098480FM-12+1478ZLJQ V0203201N002019999999N0300001N1-00611-01001103011ADDGF107991001001999999001021MD1210081+9999REMSYN060AAXX  21151 52533 42980 73202 11061 21100 40301 52008 80002;
0192525330999992000012118004+39770+098480FM-12+1478ZLJQ V0200401N004019999999N0300001N1-00631-00901102781ADDAA199000091GF107991001001999999001021KA1999M-00061MA1999999085351MD1710051+0001REMSYN082AAXX  21181 52533 32980 70404 11063 21090 38535 40278 57005 80002 333 00005 11006;EQDQ01  00002PRCP99
0122525330999992000012121004+39770+098480FM-12+1478ZLJQ V0202701N003019999999N0300001N1-00711-01281102841ADDGF107991001001999999001021MD1210061+0011REMSYN070AAXX  21211 52533 42980 72703 11071 21128 40284 52006 80002 333 00107;
0173525330999992000012200004+39770+098480FM-12+1478ZLJQ V0202501N002012200019N0300001N1-01061-01451103051ADDAA199000091GF101991011001999999041021MA1999999085451MD1210041+0021REMSYN076AAXX  22001 52533 32980 12502 11106 21145 38545 40305 52004 81042 333 00202;EQDQ01  00002PRCP99
0122525330999992000012203004+39770+098480FM-12+1478ZLJQ V0202001N001012200019N0300001N1-00581-01581103061ADDGA1001+999999999GF100991001001999999001001MD1210071+9999REMSYN054AAXX  22031 52533 42980 02001 11058 21158 40306 52007;
0202525330999992000012206004+39770+098480FM-12+1478ZLJQ V0200901N003012200019N0300001N1-00411-01221102821ADDAA199000091GA1001+999999999GF100991001001999999001001KA1999N-01261MA1999999085361MD1710161+0201REMSYN076AAXX  22061 52533 32980 00903 11041 21122 38536 40282 57016 333 00251 21126;EQDQ01  00002PRCP99
0132525330999992000012209004+39770+098480FM-12+1478ZLJQ V0200201N001012200019N0300001N1-00331-01191102851ADDGA1001+999999999GF100991001001999999001001MD1210031+0021REMSYN064AAXX  22091 52533 42980 00201 11033 21119 40285 52003 333 00251;
0183525330999992000012212004+39770+098480FM-12+1478ZLJQ V0202701N001012200019N0300001N1-00891-01221103271ADDAA199000091GA1001+999999999GF100991001001999999001001MA1999999085471MD1210081+0021REMSYN070AAXX  22121 52533 32980 02701 11089 21122 38547 40327 52008 333 00256;EQDQ01  00002PRCP99
0122525330999992000012215004+39770+098480FM-12+1478ZLJQ V0202501N001012200019N0300001N1-01431-01661103311ADDGA1001+999999999GF100991001001999999001001MD1210011+9999REMSYN054AAXX  22151 52533 42980 02501 11143 21166 40331 52001;
0192525330999992000012218004+39770+098480FM-12+1478ZLJQ V0203201N001012200019N0300001N1-01541-01851103241ADDAA199000091GF104991001001999999001021KA1999M-00301MA1999999085441MD1710041+0101REMSYN082AAXX  22181 52533 32980 43201 11154 21185 38544 40324 57004 80002 333 00159 11030;EQDQ01  00002PRCP99
0122525330999992000012221004+39770+098480FM-12+1478ZLJQ V0202201N001012200019N0300001N1-01751-02041103351ADDGF101991001001999999001021MD1210051+0011REMSYN070AAXX  22211 52533 42980 12201 11175 21204 40335 52005 80002 333 00160;
0173525330999992000012300004+39770+098480FM-12+1478ZLJQ V0202501N002019999999N0300001N1-01801-02061103731ADDAA199000091GF107991001001999999001021MA1999999085621MD1210131+0021REMSYN076AAXX  23001 52533 32980 72502 11180 21206 38562 40373 52013 80002 333 00257;EQDQ01  00002PRCP99
0112525330999992000012303004+39770+098480FM-12+1478ZLJQ V0202901N002019999999N0300001N1-01231-01431103931ADDGF105991001001999999001021MD1210171+9999REMSYN060AAXX  23031 52533 42980 52902 11123 21143 40393 52017 80002;
0192525330999992000012306004+39770+098480FM-12+1478ZLJQ V0200701N002019999999N0300001N1-00721-01241103781ADDAA199000091GF107991001001999999001021KA1999N-01881MA1999999085791MD1410001+0401REMSYN082AAXX  23061 52533 32980 70702 11072 21124 38579 40378 54000 80002 333 00453 21188;EQDQ01  00002PRCP99
0122525330999992000012309004+39770+098480FM-12+1478ZLJQ V0200701N004012200019N0300001N1-00601-01271103881ADDGF102991001001999999001021MD1210061+0051REMSYN070AAXX  23091 52533 42980 20704 11060 21127 40388 52006 80002 333 00553;
0173525330999992000012312004+39770+098480FM-12+1478ZLJQ V0200901N002012200019N0300001N1-01071-01551104221ADDAA199000091GF101991001001999999001021MA1999999085971MD1210121+0051REMSYN076AAXX  23121 52533 32980 10902 11107 21155 38597 40422 52012 80002 333 00552;EQDQ01  00002PRCP99
0122525330999992000012315004+39770+098480FM-12+1478ZLJQ V0202701N001012200019N0300001N1-01521-01711104171ADDGA1001+999999999GF100991001001999999001001MD1710011+9999REMSYN054AAXX  23151 52533 42980 02701 11152 21171 40417 57001;
0202525330999992000012318004+39770+098480FM-12+1478ZLJQ V0203401N001012200019N0300001N1-01811-01971103991ADDAA199000091GA1001+999999999GF100991001001999999001001KA1999M-00551MA1999999085881MD1710081+0401REMSYN076AAXX  23181 52533 32980 03401 11181 21197 38588 40399 57008 333 00453 11055;EQDQ01  00002PRCP99
0132525330999992000012321004+39770+098480FM-12+1478ZLJQ V0203401N001012200019N0300001N1-01961-02121104031ADDGA1001+999999999GF100991001001999999001001MD1210031+0041REMSYN064AAXX  23211 52533 42980 03401 11196 21212 40403 52003 333 00452;
0183525330999992000012400004+39770+098480FM-12+1478ZLJQ V0209999C000012200019N0300001N1-02141-02301104281ADDAA199000091GA1001+999999999GF100991001001999999001001MA1999999085911MD1410001+0031REMSYN070AAXX  24001 52533 32980 00000 11214 21230 38591 40428 54000 333 00353;EQDQ01  00002PRCP99
0122525330999992000012403004+39770+098480FM-12+1478ZLJQ V0200201N002012200019N0300001N1-01731-01921104531ADDGA1001+999999999GF100991001001999999001001MD1210191+9999REMSYN054AAXX  24031 52533 42980 00202 11173 21192 40453 52019;
0202525330999992000012406004+39770+098480FM-12+1478ZLJQ V0200201N002012200019N0300001N1-01231-01681104441ADDAA199000091GA1001+999999999GF100991001001999999001001KA1999N-02191MA1999999086091MD1710011+0301REMSYN076AAXX  24061 52533 32980 00202 11123 21168 38609 40444 57001 333 00355 21219;EQDQ01  00002PRCP99
0132525330999992000012409004+39770+098480FM-12+1478ZLJQ V0201101N003012200019N0300001N1-01071-01761104611ADDGA1001+999999999GF100991001001999999001001MD1210151+0041REMSYN064AAXX  24091 52533 42980 01103 11107 21176 40461 52015 333 00455;
0173525330999992000012412004+39770+098480FM-12+1478ZLJQ V0200701N002019999999N0300001N1-01261-01861105011ADDAA199000091GF107991001001999999001021MA1999999086451MD1210211+0051REMSYN076AAXX  24121 52533 32980 70702 11126 21186 38645 40501 52021 80002 333 00552;EQDQ01  00002PRCP99
0122525330999992000012415004+39770+098480FM-12+1478ZLJQ V0209999C000012200019N0300001N1-01751-02071105181ADDGA1001+999999999GF100991001001999999001001MD1210111+9999REMSYN054AAXX  24151 52533 42980 00000 11175 21207 40518 52011;
0202525330999992000012418004+39770+098480FM-12+1478ZLJQ V0209999C000012200019N0300001N1-01941-02141105061ADDAA199000091GA1001+999999999GF100991001001999999001001KA1999M-01041MA1999999086561MD1410001+0701REMSYN076AAXX  24181 52533 32980 00000 11194 21214 38656 40506 54000 333 00751 11104;EQDQ01  00002PRCP99
0132525330999992000012421004+39770+098480FM-12+1478ZLJQ V0202901N002012200019N0300001N1-02141-02351105131ADDGA1001+999999999GF100991001001999999001001MD1210051+0071REMSYN064AAXX  24211 52533 42980 02902 11214 21235 40513 52005 333 00752;
0183525330999992000012500004+39770+098480FM-12+1478ZLJQ V0209999C000012200019N0300001N1-02261-02471105331ADDAA199000091GA1001+999999999GF100991001001999999001001MA1999999086671MD1210061+0081REMSYN070AAXX  25001 52533 32980 00000 11226 21247 38667 40533 52006 333 00851;EQDQ01  00002PRCP99
0122525330999992000012503004+39770+098480FM-12+1478ZLJQ V0202501N001012200019N0300001N1-01691-02121105391ADDGA1001+999999999GF100991001001999999001001MD1210081+9999REMSYN054AAXX  25031 52533 42980 02501 11169 21212 40539 52008;
0202525330999992000012506004+39770+098480FM-12+1478ZLJQ V0200901N003012200019N0300001N1-01221-01881105171ADDAA199000091GA1001+999999999GF100991001001999999001001KA1999N-02271MA1999999086661MD1710091+0601REMSYN076AAXX  25061 52533 32980 00903 11122 21188 38666 40517 57009 333 00600 21227;EQDQ01  00002PRCP99
0132525330999992000012509004+39770+098480FM-12+1478ZLJQ V0200901N003012200019N0300001N1-01031-01801105131ADDGA1001+999999999GF100991001001999999001001MD1710041+0041REMSYN064AAXX  25091 52533 42980 00903 11103 21180 40513 57004 333 00400;
0183525330999992000012512004+39770+098480FM-12+1478ZLJQ V0200701N003012200019N0300001N1-01301-02011105551ADDAA199000091GA1001+999999999GF100991001001999999001001MA1999999086841MD1210221+0041REMSYN070AAXX  25121 52533 32980 00703 11130 21201 38684 40555 52022 333 00400;EQDQ01  00002PRCP99
0122525330999992000012515004+39770+098480FM-12+1478ZLJQ V0202501N001012200019N0300001N1-01781-02161105451ADDGA1001+999999999GF100991001001999999001001MD1710051+9999REMSYN054AAXX  25151 52533 42980 02501 11178 21216 40545 57005;
0202525330999992000012518004+39770+098480FM-12+1478ZLJQ V0202201N002012200019N0300001N1-02101-02401105241ADDAA199000091GA1001+999999999GF100991001001999999001001KA1999M-01021MA1999999086661MD1710131+0101REMSYN076AAXX  25181 52533 32980 02202 11210 21240 38666 40524 57013 333 00152 11102;EQDQ01  00002PRCP99
0132525330999992000012521004+39770+098480FM-12+1478ZLJQ V0202501N001012200019N0300001N1-02201-02451105161ADDGA1001+999999999GF100991001001999999001001MD1710031+0001REMSYN064AAXX  25211 52533 42980 02501 11220 21245 40516 57003 333 00051;
0183525330999992000012600004+39770+098480FM-12+1478ZLJQ V0202501N002012200019N0300001N1-02231-02481105261ADDAA199000091GA1001+999999999GF100991001001999999001001MA1999999086611MD1710021+0011REMSYN070AAXX  26001 52533 32980 02502 11223 21248 38661 40526 57002 333 05100;EQDQ01  00002PRCP99
0122525330999992000012603004+39770+098480FM-12+1478ZLJQ V0209999C000012200019N0300001N1-01561-02031105161ADDGA1001+999999999GF100991001001999999001001MD1710021+9999REMSYN054AAXX  26031 52533 42980 00000 11156 21203 40516 57002;
0202525330999992000012606004+39770+098480FM-12+1478ZLJQ V0200901N003012200019N0300001N1-01131-01991104901ADDAA199000091GA1001+999999999GF100991001001999999001001KA1999N-02271MA1999999086411MD1710181-0301REMSYN076AAXX  26061 52533 32980 00903 11113 21199 38641 40490 57018 333 05301 21227;EQDQ01  00002PRCP99
0132525330999992000012609004+39770+098480FM-12+1478ZLJQ V0201101N004012200019N0300001N1-00981-01821104831ADDGA1001+999999999GF100991001001999999001001MD1710041+0031REMSYN064AAXX  26091 52533 42980 01104 11098 21182 40483 57004 333 05301;
0183525330999992000012612004+39770+098480FM-12+1478ZLJQ V0201801N001012200019N0300001N1-01371-02021105071ADDAA199000091GA1001+999999999GF100991001001999999001001MA1999999086431MD1210061+0041REMSYN070AAXX  26121 52533 32980 01801 11137 21202 38643 40507 52006 333 05451;EQDQ01  00002PRCP99
0122525330999992000012615004+39770+098480FM-12+1478ZLJQ V0202501N001012200019N0300001N1-01811-02161104931ADDGA1001+999999999GF100991001001999999001001MD1710041+9999REMSYN054AAXX  26151 52533 42980 02501 11181 21216 40493 57004;
0202525330999992000012618004+39770+098480FM-12+1478ZLJQ V0209999C000012200019N0300001N1-02041-02321104681ADDAA199000091GA1001+999999999GF100991001001999999001001KA1999M-00971MA1999999086251MD1710141-0401REMSYN076AAXX  26181 52533 32980 00000 11204 21232 38625 40468 57014 333 05401 11097;EQDQ01  00002PRCP99
0132525330999992000012621004+39770+098480FM-12+1478ZLJQ V0202701N002012200019N0300001N1-02151-02461104591ADDGA1001+999999999GF100991001001999999001001MD1710061+0041REMSYN064AAXX  26211 52533 42980 02702 11215 21246 40459 57006 333 05401;
0183525330999992000012700004+39770+098480FM-12+1478ZLJQ V0202501N002012200019N0300001N1-02191-02471104771ADDAA199000091GA1001+999999999GF100991001001999999001001MA1999999086201MD1210011+0041REMSYN070AAXX  27001 52533 32980 02502 11219 21247 38620 40477 52001 333 05400;EQDQ01  00002PRCP99
0122525330999992000012703004+39770+098480FM-12+1478ZLJQ V0203401N002012200019N0300001N1-01391-01981104651ADDGA1001+999999999GF100991001001999999001001MD1210021+9999REMSYN054AAXX  27031 52533 42980 03402 11139 21198 40465 52002;
0202525330999992000012706004+39770+098480FM-12+1478ZLJQ V0200201N002012200019N0300001N1-00871-01921104341ADDAA199000091GA1001+999999999GF100991001001999999001001KA1999N-02211MA1999999086051MD1710171-0401REMSYN076AAXX  27061 52533 32980 00202 11087 21192 38605 40434 57017 333 05403 21221;EQDQ01  00002PRCP99
0132525330999992000012709004+39770+098480FM-12+1478ZLJQ V0203601N001012200019N0300001N1-00611-01451104221ADDGA1001+999999999GF100991001001999999001001MD1710051+0041REMSYN064AAXX  27091 52533 42980 03601 11061 21145 40422 57005 333 05404;
0183525330999992000012712004+39770+098480FM-12+1478ZLJQ V0209999C000012200019N0300001N1-01131-01881104531ADDAA199000091GA1001+999999999GF100991001001999999001001MA1999999086081MD1210081+0041REMSYN070AAXX  27121 52533 32980 00000 11113 21188 38608 40453 52008 333 05402;EQDQ01  00002PRCP99
0122525330999992000012715004+39770+098480FM-12+1478ZLJQ V0202201N003012200019N0300001N1-01471-01951104431ADDGA1001+999999999GF100991001001999999001001MD1210061+9999REMSYN054AAXX  27151 52533 42980 02203 11147 21195 40443 52006;
0202525330999992000012718004+39770+098480FM-12+1478ZLJQ V0202201N002012200019N0300001N1-01471-01901104181ADDAA199000091GA1001+999999999GF100991001001999999001001KA1999M-00581MA1999999086101MD1710041-0201REMSYN076AAXX  27181 52533 32980 02202 11147 21190 38610 40418 57004 333 05206 11058;EQDQ01  00002PRCP99
0122525330999992000012721004+39770+098480FM-12+1478ZLJQ V0201401N002012200019N0300001N1-01581-01981104101ADDGF101991001001999999001021MD1710021+0011REMSYN070AAXX  27211 52533 42980 11402 11158 21198 40410 57002 80002 333 05106;
0173525330999992000012800004+39770+098480FM-12+1478ZLJQ V0202901N003019999999N0300001N1-01291-01771104261ADDAA199000091GF106991001001999999001021MA1999999086141MD1210061+0011REMSYN076AAXX  28001 52533 32980 62903 11129 21177 38614 40426 52006 80002 333 05109;EQDQ01  00002PRCP99
0112525330999992000012803004+39770+098480FM-12+1478ZLJQ V0202901N001012200019N0300001N1-00841-01601104411ADDGF101991001001999999001021MD1210161+9999REMSYN060AAXX  28031 52533 42980 12901 11084 21160 40441 52016 80002;
0202525330999992000012806004+39770+098480FM-12+1478ZLJQ V0203201N005012200019N0300001N1-00641-01701104251ADDAA199000091GA1001+999999999GF100991001001999999001001KA1999N-01671MA1999999086231MD1710071+0201REMSYN076AAXX  28061 52533 32980 03205 11064 21170 38623 40425 57007 333 00202 21167;EQDQ01  00002PRCP99
0132525330999992000012809004+39770+098480FM-12+1478ZLJQ V0200201N002012200019N0300001N1-00591-01671104341ADDGA1001+999999999GF100991001001999999001001MD1210051+0031REMSYN064AAXX  28091 52533 42980 00202 11059 21167 40434 52005 333 00300;
0173525330999992000012812004+39770+098480FM-12+1478ZLJQ V0202201N002012200019N0300001N1-01241-01841104771ADDAA199000091GF101991001001999999001021MA1999999086531MD1210251+0051REMSYN076AAXX  28121 52533 32980 12202 11124 21184 38653 40477 52025 80002 333 00551;EQDQ01  00002PRCP99
0112525330999992000012815004+39770+098480FM-12+1478ZLJQ V0202501N001012200019N0300001N1-01521-01991104791ADDGF101991001001999999001021MD1210071+9999REMSYN060AAXX  28151 52533 42980 12501 11152 21199 40479 52007 80002;
0202525330999992000012818004+39770+098480FM-12+1478ZLJQ V0202201N002012200019N0300001N1-01771-02361104911ADDAA199000091GA1001+999999999GF100991001001999999001001KA1999M-00531MA1999999086681MD1210081+0601REMSYN076AAXX  28181 52533 32980 02202 11177 21236 38668 40491 52008 333 00653 11053;EQDQ01  00002PRCP99
0122525330999992000012821004+39770+098480FM-12+1478ZLJQ V0202901N001012200019N0300001N1-01861-02431104971ADDGF101991001001999999001021MD1210041+0061REMSYN070AAXX  28211 52533 42980 12901 11186 21243 40497 52004 80002 333 00653;
0183525330999992000012900004+39770+098480FM-12+1478ZLJQ V0202501N001012200019N0300001N1-02141-02591105381ADDAA199000091GA1001+999999999GF100991001001999999001001MA1999999086761MD1210041+0061REMSYN070AAXX  29001 52533 32980 02501 11214 21259 38676 40538 52004 333 00659;EQDQ01  00002PRCP99
0122525330999992000012903004+39770+098480FM-12+1478ZLJQ V0209999C000012200019N0300001N1-01281-02151105241ADDGA1001+999999999GF100991001001999999001001MD1210071+9999REMSYN054AAXX  29031 52533 42980 00000 11128 21215 40524 52007;
0202525330999992000012906004+39770+098480FM-12+1478ZLJQ V0201101N005012200019N0300001N1-00911-02011105041ADDAA199000091GA1001+999999999GF100991001001999999001001KA1999N-02161MA1999999086701MD1710131+0501REMSYN076AAXX  29061 52533 32980 01105 11091 21201 38670 40504 57013 333 00553 21216;EQDQ01  00002PRCP99
0132525330999992000012909004+39770+098480FM-12+1478ZLJQ V0201101N004012200019N0300001N1-00801-02031105001ADDGA1001+999999999GF100991001001999999001001MD1710021+0041REMSYN064AAXX  29091 52533 42980 01104 11080 21203 40500 57002 333 00452;
0173525330999992000012912004+39770+098480FM-12+1478ZLJQ V0200701N003019999999N0300001N1-01071-01931105351ADDAA199000091GF107991001001999999001021MA1999999086791MD1210111+0031REMSYN076AAXX  29121 52533 32980 70703 11107 21193 38679 40535 52011 80002 333 00302;EQDQ01  00002PRCP99
0112525330999992000012915004+39770+098480FM-12+1478ZLJQ V0209999C000012200019N0300001N1-01471-02311105181ADDGF104991001001999999001021MD1210011+9999REMSYN060AAXX  29151 52533 42980 40000 11147 21231 40518 52001 80002;
0192525330999992000012918004+39770+098480FM-12+1478ZLJQ V0209999C000012200019N0300001N1-01831-02381105201ADDAA199000091GF101991001001999999001021KA1999M-00781MA1999999086821MD1210021+0101REMSYN082AAXX  29181 52533 32980 10000 11183 21238 38682 40520 52002 80002 333 00151 11078;EQDQ01  00002PRCP99
0132525330999992000012921004+39770+098480FM-12+1478ZLJQ V0202201N001012200019N0300001N1-01911-02231105231ADDGA1001+999999999GF100991001001999999001001MD1210031+0011REMSYN064AAXX  29211 52533 42980 02201 11191 21223 40523 52003 333 00151;
0173525330999992000013000004+39770+098480FM-12+1478ZLJQ V0209999C000012200019N0300001N1-01941-02171105351ADDAA199000091GF101991001001999999001021MA1999999086851MD1410001+0011REMSYN076AAXX  30001 52533 32980 10000 11194 21217 38685 40535 54000 80002 333 00102;EQDQ01  00002PRCP99
0122525330999992000013003004+39770+098480FM-12+1478ZLJQ V0201401N003012200019N0300001N1-01231-02081105351ADDGA1001+999999999GF100991001001999999001001MD1210101+9999REMSYN054AAXX  30031 52533 42980 01403 11123 21208 40535 52010;
0192525330999992000013006004+39770+098480FM-12+1478ZLJQ V0201101N004012200019N0300001N1-00881-02121105141ADDAA199000091GF101991001001999999001021KA1999N-01971MA1999999086781MD1710171+0101REMSYN082AAXX  30061 52533 32980 11104 11088 21212 38678 40514 57017 80002 333 00100 21197;EQDQ01  00002PRCP99
0122525330999992000013009004+39770+098480FM-12+1478ZLJQ V0201101N004019999999N0300001N1-00821-02081105101ADDGF106991001001999999001021MD1710041+0011REMSYN070AAXX  30091 52533 42980 61104 11082 21208 40510 57004 80002 333 00100;
0173525330999992000013012004+39770+098480FM-12+1478ZLJQ V0209999C000012200019N0300001N1-01171-02051105201ADDAA199000091GF102991001001999999001021MA1999999086701MD1710041+0011REMSYN076AAXX  30121 52533 32980 20000 11117 21205 38670 40520 57004 80002 333 05151;EQDQ01  00002PRCP99
0112525330999992000013015004+39770+098480FM-12+1478ZLJQ V0203401N001012200019N0300001N1-01651-02151104861ADDGF101991001001999999001021MD1710211+9999REMSYN060AAXX  30151 52533 42980 13401 11165 21215 40486 57021 80002;
0202525330999992000013018004+39770+098480FM-12+1478ZLJQ V0202701N001012200019N0300001N1-01911-02321104521ADDAA199000091GA1001+999999999GF100991001001999999001001KA1999M-00791MA1999999086241MD1710251-0601REMSYN076AAXX  30181 52533 32980 02701 11191 21232 38624 40452 57025 333 05651 11079;EQDQ01  00002PRCP99
0132525330999992000013021004+39770+098480FM-12+1478ZLJQ V0202901N002012200019N0300001N1-02091-02451104411ADDGA1001+999999999GF100991001001999999001001MD1710131+0071REMSYN064AAXX  30211 52533 42980 02902 11209 21245 40441 57013 333 05752;
0173525330999992000013100004+39770+098480FM-12+1478ZLJQ V0202901N002012200019N0300001N1-02151-02551104521ADDAA199000091GF101991001001999999001021MA1999999086071MD1710041+0081REMSYN076AAXX  31001 52533 32980 12902 11215 21255 38607 40452 57004 80002 333 05852;EQDQ01  00002PRCP99
0122525330999992000013103004+39770+098480FM-12+1478ZLJQ V0203401N001012200019N0300001N1-01431-02221104491ADDGA1001+999999999GF100991001001999999001001MD1210051+9999REMSYN054AAXX  31031 52533 42980 03401 11143 21222 40449 52005;
0202525330999992000013106004+39770+098480FM-12+1478ZLJQ V0200401N002012200019N0300001N1-01011-02001104191ADDAA199000091GA1001+999999999GF100991001001999999001001KA1999N-02211MA1999999085931MD1710191-0901REMSYN076AAXX  31061 52533 32980 00402 11101 21200 38593 40419 57019 333 05951 21221;EQDQ01  00002PRCP99
0132525330999992000013109004+39770+098480FM-12+1478ZLJQ V0200701N005012200019N0300001N1-00821-01981104091ADDGA1001+999999999GF100991001001999999001001MD1710081+0091REMSYN064AAXX  31091 52533 42980 00705 11082 21198 40409 57008 333 05900;
0183525330999992000013112004+39770+098480FM-12+1478ZLJQ V0201601N002012200019N0300001N1-01231-02061104321ADDAA199000091GA1001+999999999GF100991001001999999001001MA1999999085891MD1210041+0081REMSYN070AAXX  31121 52533 32980 01602 11123 21206 38589 40432 52004 333 05851;EQDQ01  00002PRCP99
0122525330999992000013115004+39770+098480FM-12+1478ZLJQ V0203201N001012200019N0300001N1-01701-02201104131ADDGA1001+999999999GF100991001001999999001001MD1710081+9999REMSYN054AAXX  31151 52533 42980 03201 11170 21220 40413 57008;
0202525330999992000013118004+39770+098480FM-12+1478ZLJQ V0202501N002012200019N0300001N1-02021-02411104031ADDAA199000091GA1001+999999999GF100991001001999999001001KA1999M-00781MA1999999085761MD1710051+2501REMSYN076AAXX  31181 52533 32980 02502 11202 21241 38576 40403 57005 333 02551 11078;EQDQ01  00002PRCP99
0132525330999992000013121004+39770+098480FM-12+1478ZLJQ V0202701N002012200019N0300001N1-02221-02571103911ADDGA1001+999999999GF100991001001999999001001MD1710101+0051REMSYN064AAXX  31211 52533 42980 02702 11222 21257 40391 57010 333 05551;
0183525330999992000020100004+39770+098480FM-12+1478ZLJQ V0202501N002012200019N0300001N1-02241-02561104091ADDAA199000091GA1001+999999999GF100991001001999999001001MA1999999085671MD1210011+0041REMSYN070AAXX  01001 52533 32980 02502 11224 21256 38567 40409 52001 333 05451;EQDQ01  00002PRCP99
0112525330999992000020103004+39770+098480FM-12+1478ZLJQ V0203401N001019999999N0300001N1-01551-02231104201ADDGF107991001001999999001021MD1210161+9999REMSYN060AAXX  01031 52533 42980 73401 11155 21223 40420 52016 80002;
0192525330999992000020106004+39770+098480FM-12+1478ZLJQ V0200401N002019999999N0300001N1-00831-02001103971ADDAA199000091GF107991001001999999001021KA1999N-02251MA1999999085771MD1710061-0201REMSYN082AAXX  01061 52533 32980 70402 11083 21200 38577 40397 57006 80002 333 05202 21225;EQDQ01  00002PRCP99
0122525330999992000020109004+39770+098480FM-12+1478ZLJQ V0200901N003019999999N0300001N1-00841-02021103931ADDGF107991001001999999001021MD1710101+0021REMSYN070AAXX  01091 52533 42980 70903 11084 21202 40393 57010 80002 333 05200;
0173525330999992000020112004+39770+098480FM-12+1478ZLJQ V0201101N002012200019N0300001N1-01081-01941104161ADDAA199000091GF101991001001999999001021MA1999999085771MD1210101+0011REMSYN076AAXX  01121 52533 32980 11102 11108 21194 38577 40416 52010 80002 333 05102;EQDQ01  00002PRCP99
0122525330999992000020115004+39770+098480FM-12+1478ZLJQ V0209999C000012200019N0300001N1-01641-02131104041ADDGA1001+999999999GF100991001001999999001001MD1710051+9999REMSYN054AAXX  01151 52533 42980 00000 11164 21213 40404 57005;
0202525330999992000020118004+39770+098480FM-12+1478ZLJQ V0202201N002012200019N0300001N1-01871-02201103711ADDAA199000091GA1001+999999999GF100991001001999999001001KA1999M-00761MA1999999085601MD1710121-0201REMSYN076AAXX  01181 52533 32980 02202 11187 21220 38560 40371 57012 333 05202 11076;EQDQ01  00002PRCP99
0132525330999992000020121004+39770+098480FM-12+1478ZLJQ V0202201N002012200019N0300001N1-01941-02261103581ADDGA1001+999999999GF100991001001999999001001MD1710131+0021REMSYN064AAXX  01211 52533 42980 02202 11194 21226 40358 57013 333 05203;
0183525330999992000020200004+39770+098480FM-12+1478ZLJQ V0202501N002012200019N0300001N1-02101-02331103761ADDAA199000091GA1001+999999999GF100991001001999999001001MA1999999085491MD1210021+0021REMSYN070AAXX  02001 52533 32980 02502 11210 21233 38549 40376 52002 333 05201;EQDQ01  00002PRCP99
0122525330999992000020203004+39770+098480FM-12+1478ZLJQ V0209999C000012200019N0300001N1-01161-01781103631ADDGA1001+999999999GF100991001001999999001001MD1210011+9999REMSYN054AAXX  02031 52533 42980 00000 11116 21178 40363 52001;
0202525330999992000020206004+39770+098480FM-12+1478ZLJQ V0201101N003012200019N0300001N1-00801-01781103341ADDAA199000091GA1001+999999999GF100991001001999999001001KA1999N-02101MA1999999085301MD1710201-0501REMSYN076AAXX  02061 52533 32980 01103 11080 21178 38530 40334 57020 333 05500 21210;EQDQ01  00002PRCP99
0132525330999992000020209004+39770+098480FM-12+1478ZLJQ V0200901N003012200019N0300001N1-00641-01691103121ADDGA1001+999999999GF100991001001999999001001MD1710151+0051REMSYN064AAXX  02091 52533 42980 00903 11064 21169 40312 57015 333 05502;
0183525330999992000020212004+39770+098480FM-12+1478ZLJQ V0200401N001012200019N0300001N1-01011-01881103441ADDAA199000091GA1001+999999999GF100991001001999999001001MA1999999085251MD1210101+0051REMSYN070AAXX  02121 52533 32980 00401 11101 21188 38525 40344 52010 333 05501;EQDQ01  00002PRCP99
0122525330999992000020215004+39770+098480FM-12+1478ZLJQ V0209999C000012200019N0300001N1-01451-01961103411ADDGA1001+999999999GF100991001001999999001001MD1210131+9999REMSYN054AAXX  02151 52533 42980 00000 11145 21196 40341 52013;
0202525330999992000020218004+39770+098480FM-12+1478ZLJQ V0203401N002012200019N0300001N1-01471-02021103311ADDAA199000091GA1001+999999999GF100991001001999999001001KA1999M-00621MA1999999085401MD1210021-0201REMSYN076AAXX  02181 52533 32980 03402 11147 21202 38540 40331 52002 333 05204 11062;EQDQ01  00002PRCP99
0132525330999992000020221004+39770+098480FM-12+1478ZLJQ V0202501N002012200019N0300001N1-01831-02191103361ADDGA1001+999999999GF100991001001999999001001MD1710021+0011REMSYN064AAXX  02211 52533 42980 02502 11183 21219 40336 57002 333 05101;
0183525330999992000020300004+39770+098480FM-12+1478ZLJQ V0202501N002012200019N0300001N1-01691-02031103611ADDAA199000091GA1001+999999999GF100991001001999999001001MA1999999085521MD1210141+0001REMSYN070AAXX  03001 52533 32980 02502 11169 21203 38552 40361 52014 333 00004;EQDQ01  00002PRCP99
0112525330999992000020303004+39770+098480FM-12+1478ZLJQ V0201101N002012200019N0300001N1-00721-01771103481ADDGF102991001001999999001021MD1210051+9999REMSYN060AAXX  03031 52533 42980 21102 11072 21177 40348 52005 80002;
0192525330999992000020306004+39770+098480FM-12+1478ZLJQ V0200201N002012200019N0300001N1-00231-01901103181ADDAA199000091GF101991001001999999001021KA1999N-01841MA1999999085471MD1710101+0201REMSYN082AAXX  03061 52533 32980 10202 11023 21190 38547 40318 57010 80002 333 00206 21184;EQDQ01  00002PRCP99
0132525330999992000020309004+39770+098480FM-12+1478ZLJQ V0201401N003012200019N0300001N1-00111-01811103171ADDGA1001+999999999GF100991001001999999001001MD1710081+0021REMSYN064AAXX  03091 52533 42980 01403 11011 21181 40317 57008 333 00205;
0173525330999992000020312004+39770+098480FM-12+1478ZLJQ V0209999C000012200019N0300001N1-00441-01441103451ADDAA199000091GF103991001001999999001021MA1999999085561MD1210171+0031REMSYN076AAXX  03121 52533 32980 30000 11044 21144 38556 40345 52017 80002 333 00306;EQDQ01  00002PRCP99
0122525330999992000020315004+39770+098480FM-12+1478ZLJQ V0202201N002012200019N0300001N1-00721-01401103231ADDGA1001+999999999GF100991001001999999001001MD1210031+9999REMSYN054AAXX  03151 52533 42980 02202 11072 21140 40323 52003;
0192525330999992000020318004+39770+098480FM-12+1478ZLJQ V0202501N002012200019N0300001N1-00741-01371103061ADDAA199000091GF101991001001999999001021KA1999M-00081MA1999999085581MD1710011+0201REMSYN082AAXX  03181 52533 32980 12502 11074 21137 38558 40306 57001 80002 333 00207 11008;EQDQ01  00002PRCP99
0122525330999992000020321004+39770+098480FM-12+1478ZLJQ V0202501N002012200019N0300001N1-01011-01521103011ADDGF104991001001999999001021MD1710081+0011REMSYN070AAXX  03211 52533 42980 42502 11101 21152 40301 57008 80002 333 00108;
0173525330999992000020400004+39770+098480FM-12+1478ZLJQ V0209999C000012200019N0300001N1-01251-01621103241ADDAA199000091GF101991001001999999001021MA1999999085521MD1210021+0001REMSYN076AAXX  04001 52533 32980 10000 11125 21162 38552 40324 52002 80002 333 00004;EQDQ01  00002PRCP99
0122525330999992000020403004+39770+098480FM-12+1478ZLJQ V0202001N002012200019N0300001N1-00561-01371103211ADDGA1001+999999999GF100991001001999999001001MD1210101+9999REMSYN054AAXX  04031 52533 42980 02002 11056 21137 40321 52010;
0192525330999992000020406004+39770+098480FM-12+1478ZLJQ V0201401N003012200019N0300001N1+00071-01341102811ADDAA199000091GF101991001001999999001021KA1999N-01461MA1999999085461MD1710161+0001REMSYN082AAXX  04061 52533 32980 11403 10007 21134 38546 40281 57016 80002 333 00003 21146;EQDQ01  00002PRCP99
0122525330999992000020409004+39770+098480FM-12+1478ZLJQ V0202901N001012200019N0300001N1+00391-00981102761ADDGF101991001001999999001021MD1710021+0011REMSYN070AAXX  04091 52533 42980 12901 10039 21098 40276 57002 80002 333 00105;
0183525330999992000020412004+39770+098480FM-12+1478ZLJQ V0202001N002012200019N0300001N1-00161-01071103251ADDAA199000091GA1001+999999999GF100991001001999999001001MA1999999085611MD1210171+0011REMSYN070AAXX  04121 52533 32980 02002 11016 21107 38561 40325 52017 333 00103;EQDQ01  00002PRCP99
0122525330999992000020415004+39770+098480FM-12+1478ZLJQ V0202701N003012200019N0300001N1-00421-01411103121ADDGA1001+999999999GF100991001001999999001001MD1210021+9999REMSYN054AAXX  04151 52533 42980 02703 11042 21141 40312 52002;
0202525330999992000020418004+39770+098480FM-12+1478ZLJQ V0202001N001012200019N0300001N1-00851-01481103011ADDAA199000091GA1001+999999999GF100991001001999999001001KA1999M+00401MA1999999085601MD1710031+0001REMSYN076AAXX  04181 52533 32980 02001 11085 21148 38560 40301 57003 333 00051 10040;EQDQ01  00002PRCP99
0132525330999992000020421004+39770+098480FM-12+1478ZLJQ V0202201N003012200019N0300001N1-01181-01581102961ADDGA1001+999999999GF100991001001999999001001MD1710051+0011REMSYN064AAXX  04211 52533 42980 02203 11118 21158 40296 57005 333 00152;
0173525330999992000020500004+39770+098480FM-12+1478ZLJQ V0202201N002012200019N0300001N1-01051-01601103141ADDAA199000091GF101991001001999999001021MA1999999085581MD1210031+0011REMSYN076AAXX  05001 52533 32980 12202 11105 21160 38558 40314 52003 80002 333 00102;EQDQ01  00002PRCP99
0112525330999992000020503004+39770+098480FM-12+1478ZLJQ V0209999C000012200019N0300001N1-00241-01361103011ADDGF101991001001999999001021MD1210051+9999REMSYN060AAXX  05031 52533 42980 10000 11024 21136 40301 52005 80002;
0192525330999992000020506004+39770+098480FM-12+1478ZLJQ V0201101N004012200019N0300001N1+00181-01291102791ADDAA199000091GF101991001001999999001021KA1999N-01221MA1999999085451MD1710181+0001REMSYN082AAXX  05061 52533 32980 11104 10018 21129 38545 40279 57018 80002 333 00001 21122;EQDQ01  00002PRCP99
0122525330999992000020509004+39770+098480FM-12+1478ZLJQ V0201101N003012200019N0300001N1+00281-01311102771ADDGF102991011001999999041021MD1710091+0011REMSYN070AAXX  05091 52533 42980 21103 10028 21131 40277 57009 81042 333 05151;
0173525330999992000020512004+39770+098480FM-12+1478ZLJQ V0202001N002019999999N0300001N1-00021-01231102861ADDAA199000091GF107991001001999999001021MA1999999085391MD1210031+0021REMSYN076AAXX  05121 52533 32980 72002 11002 21123 38539 40286 52003 80002 333 05201;EQDQ01  00002PRCP99
0112525330999992000020515004+39770+098480FM-12+1478ZLJQ V0203201N003019999999N0300001N1-00061-01251102741ADDGF107991031001999999041021MD1210121+9999REMSYN060AAXX  05151 52533 42980 73203 11006 21125 40274 52012 83042;
0192525330999992000020518004+39770+098480FM-12+1478ZLJQ V0200201N002019999999N0300001N1-00631-01371103021ADDAA199000091GF107991001001999999001021KA1999M+00381MA1999999085701MD1210191+0101REMSYN082AAXX  05181 52533 32980 70202 11063 21137 38570 40302 52019 80002 333 00102 10038;EQDQ01  00002PRCP99
0122525330999992000020521004+39770+098480FM-12+1478ZLJQ V0203401N002019999999N0300001N1-00821-01281103251ADDGF107991001001999999001021MD1210171+0031REMSYN070AAXX  05211 52533 42980 73402 11082 21128 40325 52017 80002 333 00304;
0173525330999992000020600004+39770+098480FM-12+1478ZLJQ V0209999C000019999999N0300001N1-00951-01301103681ADDAA199000091GF106991011001999999041021MA1999999086101MD1210231+0051REMSYN076AAXX  06001 52533 32980 60000 11095 21130 38610 40368 52023 81042 333 00501;EQDQ01  00002PRCP99
0112525330999992000020603004+39770+098480FM-12+1478ZLJQ V0202001N002012200019N0300001N1-00501-01441103691ADDGF101991001001999999001021MD1210131+9999REMSYN060AAXX  06031 52533 42980 12002 11050 21144 40369 52013 80002;
0202525330999992000020606004+39770+098480FM-12+1478ZLJQ V0201101N003012200019N0300001N1-00271-01621103731ADDAA199000091GA1001+999999999GF100991001001999999001001KA1999N-01021MA1999999086161MD1710071+0701REMSYN076AAXX  06061 52533 32980 01103 11027 21162 38616 40373 57007 333 00755 21102;EQDQ01  00002PRCP99
0132525330999992000020609004+39770+098480FM-12+1478ZLJQ V0201101N004012200019N0300001N1-00141-01601103741ADDGA1001+999999999GF100991001001999999001001MD1710011+0081REMSYN064AAXX  06091 52533 42980 01104 11014 21160 40374 57001 333 00854;
0183525330999992000020612004+39770+098480FM-12+1478ZLJQ V0201401N003012200019N0300001N1-00501-01561103911ADDAA199000091GA1001+999999999GF100991001001999999001001MA1999999086151MD1410001+0081REMSYN070AAXX  06121 52533 32980 01403 11050 21156 38615 40391 54000 333 00855;EQDQ01  00002PRCP99
0122525330999992000020615004+39770+098480FM-12+1478ZLJQ V0201601N002012200019N0300001N1-00761-01521103741ADDGA1001+999999999GF100991001001999999001001MD1710091+9999REMSYN054AAXX  06151 52533 42980 01602 11076 21152 40374 57009;
0202525330999992000020618004+39770+098480FM-12+1478ZLJQ V0202201N002012200019N0300001N1-01091-01641103581ADDAA199000091GA1001+999999999GF100991001001999999001001KA1999M-00121MA1999999085901MD1710161+0201REMSYN076AAXX  06181 52533 32980 02202 11109 21164 38590 40358 57016 333 00255 11012;EQDQ01  00002PRCP99
0132525330999992000020621004+39770+098480FM-12+1478ZLJQ V0209999C000012200019N0300001N1-01291-01621103361ADDGA1001+999999999GF100991001001999999001001MD1710201+0021REMSYN064AAXX  06211 52533 42980 00000 11129 21162 40336 57020 333 05255;
0183525330999992000020700004+39770+098480FM-12+1478ZLJQ V0202201N001012200019N0300001N1-01511-01651103481ADDAA199000091GA1001+999999999GF100991001001999999001001MA1999999085621MD1710081+0051REMSYN070AAXX  07001 52533 32980 02201 11151 21165 38562 40348 57008 333 05556;EQDQ01  00002PRCP99
0122525330999992000020703004+39770+098480FM-12+1478ZLJQ V0200901N001012200019N0300001N1-00621-01521103241ADDGA1001+999999999GF100991001001999999001001MD1710011+9999REMSYN054AAXX  07031 52533 42980 00901 11062 21152 40324 57001;
0202525330999992000020706004+39770+098480FM-12+1478ZLJQ V0201101N003012200019N0300001N1-00201-01591103041ADDAA199000091GA1001+999999999GF100991001001999999001001KA1999N-01621MA1999999085471MD1710141-0701REMSYN076AAXX  07061 52533 32980 01103 11020 21159 38547 40304 57014 333 05701 21162;EQDQ01  00002PRCP99
0132525330999992000020709004+39770+098480FM-12+1478ZLJQ V0200901N002012200019N0300001N1+00101-01591102881ADDGA1001+999999999GF100991001001999999001001MD1710101+0081REMSYN064AAXX  07091 52533 42980 00902 10010 21159 40288 57010 333 05802;
0173525330999992000020712004+39770+098480FM-12+1478ZLJQ V0201101N002012200019N0300001N1-00341-01481103121ADDAA199000091GF101991001001999999001021MA1999999085371MD1410001+0081REMSYN076AAXX  07121 52533 32980 11102 11034 21148 38537 40312 54000 80002 333 05802;EQDQ01  00002PRCP99
0122525330999992000020715004+39770+098480FM-12+1478ZLJQ V0202201N002012200019N0300001N1-00911-01401102951ADDGA1001+999999999GF100991001001999999001001MD1710041+9999REMSYN054AAXX  07151 52533 42980 02202 11091 21140 40295 57004;
0132525330999992000020721004+39770+098480FM-12+1478ZLJQ V0202201N003012200019N0300001N1-00901-01681102511ADDGA1001+999999999GF100991001001999999001001MD1710051+0051REMSYN064AAXX  07211 52533 42980 02203 11090 21168 40251 57005 333 05504;
0183525330999992000020800004+39770+098480FM-12+1478ZLJQ V0202001N002012200019N0300001N1-00971-01871102631ADDAA199000091GA1001+999999999GF100991001001999999001001MA1999999085131MD1710051+0051REMSYN070AAXX  08001 52533 32980 02002 11097 21187 38513 40263 57005 333 05503;EQDQ01  00002PRCP99
0122525330999992000020803004+39770+098480FM-12+1478ZLJQ V0201801N002012200019N0300001N1-00311-01631102631ADDGA1001+999999999GF100991001001999999001001MD1210021+9999REMSYN054AAXX  08031 52533 42980 01802 11031 21163 40263 52002;
0192525330999992000020806004+39770+098480FM-12+1478ZLJQ V0200901N003012200019N0300001N1+00281-01421102191ADDAA199000091GF101991001001999999001021KA1999N-01121MA1999999084941MD1710211-0501REMSYN082AAXX  08061 52533 32980 10903 10028 21142 38494 40219 57021 80002 333 05505 21112;EQDQ01  00002PRCP99
0122525330999992000020809004+39770+098480FM-12+1478ZLJQ V0200901N003012200019N0300001N1+00411-01501102071ADDGF101991001001999999001021MD1710041+0051REMSYN070AAXX  08091 52533 42980 10903 10041 21150 40207 57004 80002 333 05503;
0173525330999992000020812004+39770+098480FM-12+1478ZLJQ V0209999C000012200019N0300001N1-00121-01681102381ADDAA199000091GF101991001001999999001021MA1999999084981MD1210081+0041REMSYN076AAXX  08121 52533 32980 10000 11012 21168 38498 40238 52008 80002 333 05402;EQDQ01  00002PRCP99
0122525330999992000020815004+39770+098480FM-12+1478ZLJQ V0202201N002012200019N0300001N1-00501-01161102291ADDGA1001+999999999GF100991001001999999001001MD1210011+9999REMSYN054AAXX  08151 52533 42980 02202 11050 21116 40229 52001;
0202525330999992000020818004+39770+098480FM-12+1478ZLJQ V0202201N002012200019N0300001N1-00691-01401102091ADDAA199000091GA1001+999999999GF100991001001999999001001KA1999M+00431MA1999999084941MD1710051-0301REMSYN076AAXX  08181 52533 32980 02202 11069 21140 38494 40209 57005 333 05303 10043;EQDQ01  00002PRCP99
0132525330999992000020821004+39770+098480FM-12+1478ZLJQ V0202201N003012200019N0300001N1-00851-01601102081ADDGA1001+999999999GF100991001001999999001001MD1710021+0031REMSYN064AAXX  08211 52533 42980 02203 11085 21160 40208 57002 333 05301;
0183525330999992000020900004+39770+098480FM-12+1478ZLJQ V0202201N003012200019N0300001N1-00931-01661102351ADDAA199000091GA1001+999999999GF100991001001999999001001MA1999999084971MD1210051+0021REMSYN070AAXX  09001 52533 32980 02203 11093 21166 38497 40235 52005 333 05200;EQDQ01  00002PRCP99
0122525330999992000020903004+39770+098480FM-12+1478ZLJQ V0209999C000012200019N0300001N1+00001-01591102231ADDGA1001+999999999GF100991001001999999001001MD1210061+9999REMSYN054AAXX  09031 52533 42980 00000 10000 21159 40223 52006;
0202525330999992000020906004+39770+098480FM-12+1478ZLJQ V0200701N003012200019N0300001N1+00381-01441102021ADDAA199000091GA1001+999999999GF100991001001999999001001KA1999N-01071MA1999999084911MD1710121+0001REMSYN076AAXX  09061 52533 32980 00703 10038 21144 38491 40202 57012 333 00001 21107;EQDQ01  00002PRCP99
0132525330999992000020909004+39770+098480FM-12+1478ZLJQ V0203601N002012200019N0300001N1+00581-01611101961ADDGA1001+999999999GF100991001001999999001001MD1710041+0001REMSYN064AAXX  09091 52533 42980 03602 10058 21161 40196 57004 333 00002;
0183525330999992000020912004+39770+098480FM-12+1478ZLJQ V0201601N003012200019N0300001N1+00101-01451102261ADDAA199000091GA1001+999999999GF100991001001999999001001MA1999999084961MD1210091+0001REMSYN070AAXX  09121 52533 32980 01603 10010 21145 38496 40226 52009 333 00002;EQDQ01  00002PRCP99
0122525330999992000020915004+39770+098480FM-12+1478ZLJQ V0202901N002012200019N0300001N1-00501-01371102181ADDGA1001+999999999GF100991001001999999001001MD1210031+9999REMSYN054AAXX  09151 52533 42980 02902 11050 21137 40218 52003;
0202525330999992000020918004+39770+098480FM-12+1478ZLJQ V0202201N003012200019N0300001N1-00651-01341102081ADDAA199000091GA1001+999999999GF100991001001999999001001KA1999M+00731MA1999999084971MD1710021+0001REMSYN076AAXX  09181 52533 32980 02203 11065 21134 38497 40208 57002 333 00000 10073;EQDQ01  00002PRCP99
0132525330999992000020921004+39770+098480FM-12+1478ZLJQ V0202501N002012200019N0300001N1-00831-01631101941ADDGA1001+999999999GF100991001001999999001001MD1710111+0011REMSYN064AAXX  09211 52533 42980 02502 11083 21163 40194 57011 333 05100;
0183525330999992000021000004+39770+098480FM-12+1478ZLJQ V0202201N003012200019N0300001N1-01021-01651102171ADDAA199000091GA1001+999999999GF100991001001999999001001MA1999999084861MD1410001+0011REMSYN070AAXX  10001 52533 32980 02203 11102 21165 38486 40217 54000 333 05151;EQDQ01  00002PRCP99
0122525330999992000021003004+39770+098480FM-12+1478ZLJQ V0202501N001012200019N0300001N1-00031-01331102131ADDGA1001+999999999GF100991001001999999001001MD1210081+9999REMSYN054AAXX  10031 52533 42980 02501 11003 21133 40213 52008;
0192525330999992000021006004+39770+098480FM-12+1478ZLJQ V0200201N003012200019N0300001N1+00351-01511101841ADDAA199000091GF102991001001999999001021KA1999N-01031MA1999999084761MD1710181-0201REMSYN082AAXX  10061 52533 32980 20203 10035 21151 38476 40184 57018 80002 333 05200 21103;EQDQ01  00002PRCP99
0122525330999992000021009004+39770+098480FM-12+1478ZLJQ V0200901N005019999999N0300001N1+00481-01671101871ADDGF107991001001999999001021MD1210011+0011REMSYN070AAXX  10091 52533 42980 70905 10048 21167 40187 52001 80002 333 05151;
0173525330999992000021012004+39770+098480FM-12+1478ZLJQ V0209999C000019999999N0300001N1-00021-01501102301ADDAA199000091GF105991001001999999001021MA1999999084931MD1210161+0001REMSYN076AAXX  10121 52533 32980 50000 11002 21150 38493 40230 52016 80002 333 00051;EQDQ01  00002PRCP99
0122525330999992000021015004+39770+098480FM-12+1478ZLJQ V0202901N002012200019N0300001N1-00451-01791102121ADDGA1001+999999999GF100991001001999999001001MD1210011+9999REMSYN054AAXX  10151 52533 42980 02902 11045 21179 40212 52001;
0202525330999992000021018004+39770+098480FM-12+1478ZLJQ V0202501N002012200019N0300001N1-00821-01671102031ADDAA199000091GA1001+999999999GF100991001001999999001001KA1999M+00531MA1999999084871MD1710071-0101REMSYN076AAXX  10181 52533 32980 02502 11082 21167 38487 40203 57007 333 05152 10053;EQDQ01  00002PRCP99
0132525330999992000021021004+39770+098480FM-12+1478ZLJQ V0202501N002012200019N0300001N1-00991-01821101961ADDGA1001+999999999GF100991001001999999001001MD1710071+0011REMSYN064AAXX  10211 52533 42980 02502 11099 21182 40196 57007 333 05152;
0183525330999992000021100004+39770+098480FM-12+1478ZLJQ V0202501N002012200019N0300001N1-01171-01681102351ADDAA199000091GA1001+999999999GF100991001001999999001001MA1999999084931MD1210131+0011REMSYN070AAXX  11001 52533 32980 02502 11117 21168 38493 40235 52013 333 00152;EQDQ01  00002PRCP99
0122525330999992000021103004+39770+098480FM-12+1478ZLJQ V0203401N002012200019N0300001N1-00261-01881102311ADDGA1001+999999999GF100991001001999999001001MD1210111+9999REMSYN054AAXX  11031 52533 42980 03402 11026 21188 40231 52011;
0202525330999992000021106004+39770+098480FM-12+1478ZLJQ V0200401N003012200019N0300001N1+00191-01831102121ADDAA199000091GA1001+999999999GF100991001001999999001001KA1999N-01191MA1999999084901MD1710141+0101REMSYN076AAXX  11061 52533 32980 00403 10019 21183 38490 40212 57014 333 00152 21119;EQDQ01  00002PRCP99
0132525330999992000021109004+39770+098480FM-12+1478ZLJQ V0201101N004012200019N0300001N1+00261-01471102111ADDGA1001+999999999GF100991001001999999001001MD1710041+0011REMSYN064AAXX  11091 52533 42980 01104 10026 21147 40211 57004 333 00152;
0173525330999992000021112004+39770+098480FM-12+1478ZLJQ V0200201N002012200019N0300001N1-00081-01891102491ADDAA199000091GF101991001001999999001021MA1999999085031MD1210171+0011REMSYN076AAXX  11121 52533 32980 10202 11008 21189 38503 40249 52017 80002 333 00151;EQDQ01  00002PRCP99
0122525330999992000021115004+39770+098480FM-12+1478ZLJQ V0202501N002012200019N0300001N1-00621-01401102481ADDGA1001+999999999GF100991001001999999001001MD1210101+9999REMSYN054AAXX  11151 52533 42980 02502 11062 21140 40248 52010;
0202525330999992000021118004+39770+098480FM-12+1478ZLJQ V0202501N003012200019N0300001N1-00821-01741102561ADDAA199000091GA1001+999999999GF100991001001999999001001KA1999M+00301MA1999999085271MD1210141+0401REMSYN076AAXX  11181 52533 32980 02503 11082 21174 38527 40256 52014 333 00400 10030;EQDQ01  00002PRCP99
0132525330999992000021121004+39770+098480FM-12+1478ZLJQ V0202501N002012200019N0300001N1-01011-01661102701ADDGA1001+999999999GF100991001001999999001001MD1210081+0061REMSYN064AAXX  11211 52533 42980 02502 11101 21166 40270 52008 333 00600;
0173525330999992000021200004+39770+098480FM-12+1478ZLJQ V0209999C000019999999N0300001N1-01101-01521102961ADDAA199000091GF106991001001999999001021MA1999999085441MD1210091+0051REMSYN076AAXX  12001 52533 32980 60000 11110 21152 38544 40296 52009 80002 333 00501;EQDQ01  00002PRCP99
0112525330999992000021203004+39770+098480FM-12+1478ZLJQ V0203201N005019999999N0300001N1-00491-01421103131ADDGF107991001001999999001021MD1210161+9999REMSYN060AAXX  12031 52533 42980 73205 11049 21142 40313 52016 80002;
0192525330999992000021206004+39770+098480FM-12+1478ZLJQ V0203401N006019999999N0300001N1-00511-01041103201ADDAA199000091GF108991001001999999001071KA1999N-01191MA1999999085591MD1710011+0701REMSYN082AAXX  12061 52533 32980 83406 11051 21104 38559 40320 57001 80007 333 00757 21119;EQDQ01  00002PRCP99
0134525330999992000021209004+39770+098480FM-12+1478ZLJQ V0203201N005019999999N0300001N1-00401-00851103361ADDGF107991021001999999041081MD1210111+0081MW1701REMSYN076AAXX  12091 52533 41980 73205 11040 21085 40336 52011 77000 82048 333 00857;
0180525330999992000021212004+39770+098480FM-12+1478ZLJQ V0201601N002012200019N0300001N1-00561-00851103531ADDAA106000791AY171061GF101991001001999999001021MA1999999085771MD1210071+0071MW1001REMSYN088AAXX  12121 52533 11980 11602 11056 21085 38577 40353 52007 69901 70070 80002 333 00755;
0122525330999992000021215004+39770+098480FM-12+1478ZLJQ V0202501N005012200019N0300001N1-00521-01601103331ADDGA1001+999999999GF100991001001999999001001MD1210031+9999REMSYN054AAXX  12151 52533 42980 02505 11052 21160 40333 52003;
0183525330999992000021218004+39770+098480FM-12+1478ZLJQ V0202701N004012200019N0300001N1-00701-01811103431ADDAA199000021GA1001+999999999GF100991001001999999001001KA1999M-00251MA1999999085821MD1210021+0601REMSYN076AAXX  12181 52533 32980 02704 11070 21181 38582 40343 52002 333 00601 11025;
0149525330999992000021221004+39770+098480FM-12+1478ZLJQ V0202901N001012200019N0300001N1-01181-01671103531ADDAA124000791GA1001+999999999GF100991001001999999001001MD1710031+0401REMSYN070AAXX  12211 52533 42980 02901 11118 21167 40353 57003 333 00452 79999;
0160525330999992000021300004+39770+098480FM-12+1478ZLJQ V0202901N002012200019N0300001N1-01191-01731103661ADDAA124000791GF101991001001999999001021MA1999999085851MD1210061+0401REMSYN082AAXX  13001 52533 32980 12902 11119 21173 38585 40366 52006 80002 333 00451 79999;
0112525330999992000021303004+39770+098480FM-12+1478ZLJQ V0201801N002012200019N0300001N1-00511-01451103471ADDGF102991001001999999001021MD1210061+9999REMSYN060AAXX  13031 52533 42980 21802 11051 21145 40347 52006 80002;
0192525330999992000021306004+39770+098480FM-12+1478ZLJQ V0203601N003019999999N0300001N1-00161-01801103251ADDAA199000091GF107991011001999999041021KA1999N-01361MA1999999085771MD1710141+0201REMSYN082AAXX  13061 52533 32980 73603 11016 21180 38577 40325 57014 81042 333 00204 21136;EQDQ01  00002PRCP99
0122525330999992000021309004+39770+098480FM-12+1478ZLJQ V0203401N004019999999N0300001N1+00061-01751103301ADDGF107991011001999999041021MD1710031+0001REMSYN070AAXX  13091 52533 42980 73404 10006 21175 40330 57003 81042 333 00005;
0183525330999992000021312004+39770+098480FM-12+1478ZLJQ V0203201N003012200019N0300001N1-00161-01801103551ADDAA199000091GA1001+999999999GF100991001001999999001001MA1999999085881MD1210141+0011REMSYN070AAXX  13121 52533 32980 03203 11016 21180 38588 40355 52014 333 00104;EQDQ01  00002PRCP99
0122525330999992000021315004+39770+098480FM-12+1478ZLJQ V0202501N004012200019N0300001N1-00481-01651103531ADDGA1001+999999999GF100991001001999999001001MD1210091+9999REMSYN054AAXX  13151 52533 42980 02504 11048 21165 40353 52009;
0202525330999992000021318004+39770+098480FM-12+1478ZLJQ V0202901N002012200019N0300001N1-00681-01771103421ADDAA199000091GA1001+999999999GF100991001001999999001001KA1999M+00121MA1999999085921MD1710051+0101REMSYN076AAXX  13181 52533 32980 02902 11068 21177 38592 40342 57005 333 00100 10012;EQDQ01  00002PRCP99
0132525330999992000021321004+39770+098480FM-12+1478ZLJQ V0202501N002012200019N0300001N1-00981-01681103351ADDGA1001+999999999GF100991001001999999001001MD1710081+0011REMSYN064AAXX  13211 52533 42980 02502 11098 21168 40335 57008 333 00102;
0173525330999992000021400004+39770+098480FM-12+1478ZLJQ V0202201N002012200019N0300001N1-01051-01641103471ADDAA199000091GF101991001001999999001021MA1999999085851MD1210011+0001REMSYN076AAXX  14001 52533 32980 12202 11105 21164 38585 40347 52001 80002 333 00001;EQDQ01  00002PRCP99
0122525330999992000021403004+39770+098480FM-12+1478ZLJQ V0202001N002012200019N0300001N1-00321-01661103381ADDGA1001+999999999GF100991001001999999001001MD1210051+9999REMSYN054AAXX  14031 52533 42980 02002 11032 21166 40338 52005;
0202525330999992000021406004+39770+098480FM-12+1478ZLJQ V0201101N003012200019N0300001N1+00151-01901103131ADDAA199000091GA1001+999999999GF100991001001999999001001KA1999N-01141MA1999999085771MD1710131+0001REMSYN076AAXX  14061 52533 32980 01103 10015 21190 38577 40313 57013 333 00003 21114;EQDQ01  00002PRCP99
0183525330999992000021412004+39770+098480FM-12+1478ZLJQ V0200701N002012200019N0300001N1-00151-01771103321ADDAA199000091GA1001+999999999GF100991001001999999001001MA1999999085731MD1210071+0021REMSYN070AAXX  14121 52533 32980 00702 11015 21177 38573 40332 52007 333 05200;EQDQ01  00002PRCP99
0122525330999992000021415004+39770+098480FM-12+1478ZLJQ V0202001N003012200019N0300001N1-00611-01641103171ADDGA1001+999999999GF100991001001999999001001MD1710041+9999REMSYN054AAXX  14151 52533 42980 02003 11061 21164 40317 57004;
0218525330999992000021418004+39770+098480FM-12+1478ZLJQ V0202201N003012200019N0300001N1-00671-01751999999ADDAA199000091GA1001+999999999GF100991001001999999001001KA1999M+00441MA1999999085571MD1710121-0401REMSYN076AAXX  14181 52533 32980 02203 11067 21175 38557 40389 57012 333 05400 10044;EQDQ01+103893APOSLPQ02  00002PRCP99
0132525330999992000021421004+39770+098480FM-12+1478ZLJQ V0202501N003012200019N0300001N1-00941-01681102771ADDGA1001+999999999GF100991001001999999001001MD1710101+0041REMSYN064AAXX  14211 52533 42980 02503 11094 21168 40277 57010 333 05400;
0183525330999992000021500004+39770+098480FM-12+1478ZLJQ V0202201N003012200019N0300001N1-01171-01851103001ADDAA199000091GA1001+999999999GF100991001001999999001001MA1999999085431MD1710041+0041REMSYN070AAXX  15001 52533 32980 02203 11117 21185 38543 40300 57004 333 05451;EQDQ01  00002PRCP99
0122525330999992000021503004+39770+098480FM-12+1478ZLJQ V0209999C000012200019N0300001N1-00071-01711102771ADDGA1001+999999999GF100991001001999999001001MD1410001+9999REMSYN054AAXX  15031 52533 42980 00000 11007 21171 40277 54000;
0202525330999992000021506004+39770+098480FM-12+1478ZLJQ V0200401N003012200019N0300001N1+00421-01631102401ADDAA199000091GA1001+999999999GF100991001001999999001001KA1999N-01171MA1999999085241MD1710191-0501REMSYN076AAXX  15061 52533 32980 00403 10042 21163 38524 40240 57019 333 05503 21117;EQDQ01  00002PRCP99
0122525330999992000021509004+39770+098480FM-12+1478ZLJQ V0201601N003012200019N0300001N1+00501-01871102201ADDGF101991001001999999001021MD1710161+0061REMSYN070AAXX  15091 52533 42980 11603 10050 21187 4022/ 57016 80002 333 05601;
0173525330999992000021512004+39770+098480FM-12+1478ZLJQ V0200901N002012200019N0300001N1-00071-01711102541ADDAA199000091GF101991001001999999001021MA1999999085071MD1710011+0071REMSYN076AAXX  15121 52533 32980 10902 11007 21171 38507 40254 57001 80002 333 05701;EQDQ01  00002PRCP99
0112525330999992000021515004+39770+098480FM-12+1478ZLJQ V0202001N003012200019N0300001N1-00401-01551102141ADDGF101991001001999999001021MD1710111+9999REMSYN060AAXX  15151 52533 42980 12003 11040 21155 40214 57011 80002;
0202525330999992000021518004+39770+098480FM-12+1478ZLJQ V0200701N004012200019N0300001N1-00691-01581102021ADDAA199000091GA1001+999999999GF100991001001999999001001KA1999M+00531MA1999999084921MD1710041-0701REMSYN076AAXX  15181 52533 32980 00704 11069 21158 38492 40202 57004 333 05700 10053;EQDQ01  00002PRCP99
0132525330999992000021521004+39770+098480FM-12+1478ZLJQ V0202501N003012200019N0300001N1-00831-01911101941ADDGA1001+999999999GF100991001001999999001001MD1710081+0061REMSYN064AAXX  15211 52533 42980 02503 11083 21191 40194 57008 333 05601;
0173525330999992000021600004+39770+098480FM-12+1478ZLJQ V0202201N003012200019N0300001N1-00901-01551102251ADDAA199000091GF102991001001999999001021MA1999999084911MD1210071+0051REMSYN076AAXX  16001 52533 32980 22203 11090 21155 38491 40225 52007 80002 333 05503;EQDQ01  00002PRCP99
0122525330999992000021603004+39770+098480FM-12+1478ZLJQ V0209999C000012200019N0300001N1-00101-01361102161ADDGA1001+999999999GF100991001001999999001001MD1210061+9999REMSYN054AAXX  16031 52533 42980 00000 11010 21136 40216 52006;
0192525330999992000021606004+39770+098480FM-12+1478ZLJQ V0201101N002019999999N0300001N1+00311-01951101971ADDAA199000091GF107991001001999999001021KA1999N-01091MA1999999084851MD1710121-0401REMSYN082AAXX  16061 52533 32980 71102 10031 21195 38485 40197 57012 80002 333 05451 21109;EQDQ01  00002PRCP99
0122525330999992000021609004+39770+098480FM-12+1478ZLJQ V0200901N004019999999N0300001N1+00541-01811101931ADDGF106991001001999999001021MD1710011+0021REMSYN070AAXX  16091 52533 42980 60904 10054 21181 40193 57001 80002 333 05200;
0173525330999992000021612004+39770+098480FM-12+1478ZLJQ V0200401N002019999999N0300001N1+00121-02121102281ADDAA199000091GF107991001001999999001021MA1999999084991MD1210151+0011REMSYN076AAXX  16121 52533 32980 70402 10012 21212 38499 40228 52015 80002 333 05102;EQDQ01  00002PRCP99
0112525330999992000021615004+39770+098480FM-12+1478ZLJQ V0209999C000019999999N0300001N1-00201-01981102191ADDGF107991001001999999001021MD1210061+9999REMSYN060AAXX  16151 52533 42980 70000 11020 21198 40219 52006 80002;
0192525330999992000021618004+39770+098480FM-12+1478ZLJQ V0202501N002019999999N0300001N1-00661-01651102141ADDAA199000091GF107991001001999999001021KA1999M+00571MA1999999085001MD1710051+0101REMSYN082AAXX  16181 52533 32980 72502 11066 21165 38500 40214 57005 80002 333 00100 10057;EQDQ01  00002PRCP99
0122525330999992000021621004+39770+098480FM-12+1478ZLJQ V0202901N002019999999N0300001N1-00871-02071102181ADDGF107991001001999999001021MD1210041+0021REMSYN070AAXX  16211 52533 42980 72902 11087 21207 40218 52004 80002 333 00200;
0173525330999992000021700004+39770+098480FM-12+1478ZLJQ V0203401N002019999999N0300001N1-00991-02151102451ADDAA199000091GF107991001001999999001021MA1999999085111MD1210071+0021REMSYN076AAXX  17001 52533 32980 73402 11099 21215 38511 40245 52007 80002 333 00251;EQDQ01  00002PRCP99
0112525330999992000021703004+39770+098480FM-12+1478ZLJQ V0203401N002019999999N0300001N1-00321-01881102481ADDGF107991001001999999001021MD1210121+9999REMSYN060AAXX  17031 52533 42980 73402 11032 21188 40248 52012 80002;
0192525330999992000021706004+39770+098480FM-12+1478ZLJQ V0200701N002019999999N0300001N1+00031-01841102311ADDAA199000091GF108991021001999999041071KA1999N-01061MA1999999085061MD1710171+0201REMSYN082AAXX  17061 52533 32980 80702 10003 21184 38506 40231 57017 82047 333 00253 21106;EQDQ01  00002PRCP99
0122525330999992000021709004+39770+098480FM-12+1478ZLJQ V0200201N002019999999N0300001N1+00061-01761102341ADDGF108991021001999999041071MD1710031+0021REMSYN070AAXX  17091 52533 42980 80202 10006 21176 40234 57003 82047 333 00255;
0173525330999992000021712004+39770+098480FM-12+1478ZLJQ V0209999C000019999999N0300001N1-00251-01701102631ADDAA199000091GF105991011001999999041021MA1999999085151MD1210121+0021REMSYN076AAXX  17121 52533 32980 50000 11025 21170 38515 40263 52012 81042 333 00254;EQDQ01  00002PRCP99
0112525330999992000021715004+39770+098480FM-12+1478ZLJQ V0202201N002019999999N0300001N1-00331-01051102491ADDGF108991001001999999001071MD1210051+9999REMSYN060AAXX  17151 52533 42980 82202 11033 21105 40249 52005 80007;
0192525330999992000021718004+39770+098480FM-12+1478ZLJQ V0203401N001019999999N0300001N1-00311-01371102361ADDAA199000091GF108991001001999999001071KA1999M+00121MA1999999085201MD1410001+0201REMSYN082AAXX  17181 52533 32980 83401 11031 21137 38520 40236 54000 80007 333 00204 10012;EQDQ01  00002PRCP99
0122525330999992000021721004+39770+098480FM-12+1478ZLJQ V0203401N002019999999N0300001N1-00361-01301102321ADDGF108991001001999999001071MD1710041+0011REMSYN070AAXX  17211 52533 42980 83402 11036 21130 40232 57004 80007 333 00105;
0173525330999992000021800004+39770+098480FM-12+1478ZLJQ V0203201N002019999999N0300001N1-00561-01541102581ADDAA199000091GF107991001001999999001021MA1999999085231MD1210071+0011REMSYN076AAXX  18001 52533 32980 73202 11056 21154 38523 40258 52007 80002 333 00104;EQDQ01  00002PRCP99
0112525330999992000021803004+39770+098480FM-12+1478ZLJQ V0203201N002019999999N0300001N1-00201-01231102631ADDGF106991001001999999001021MD1210121+9999REMSYN060AAXX  18031 52533 42980 63202 11020 21123 40263 52012 80002;
0192525330999992000021806004+39770+098480FM-12+1478ZLJQ V0202701N002012200019N0300001N1+00121-01241102341ADDAA199000091GF101991001001999999001021KA1999N-00571MA1999999085211MD1710141+0201REMSYN082AAXX  18061 52533 32980 12702 10012 21124 38521 40234 57014 80002 333 00201 21057;EQDQ01  00002PRCP99
0122525330999992000021809004+39770+098480FM-12+1478ZLJQ V0200201N001019999999N0300001N1+00141-01151102301ADDGF107991011001999999041021MD1710041+0011REMSYN070AAXX  18091 52533 42980 70201 10014 21115 40230 57004 81042 333 00101;
0173525330999992000021812004+39770+098480FM-12+1478ZLJQ V0200201N001012200019N0300001N1-00021-01211102651ADDAA199000091GF102991001001999999001021MA1999999085361MD1210191+0021REMSYN076AAXX  18121 52533 32980 20201 11002 21121 38536 40265 52019 80002 333 00202;EQDQ01  00002PRCP99
0122525330999992000021815004+39770+098480FM-12+1478ZLJQ V0202201N002012200019N0300001N1-00461-01151102721ADDGA1001+999999999GF100991001001999999001001MD1210031+9999REMSYN054AAXX  18151 52533 42980 02202 11046 21115 40272 52003;
0202525330999992000021818004+39770+098480FM-12+1478ZLJQ V0202501N001012200019N0300001N1-00751-01501102641ADDAA199000091GA1001+999999999GF100991001001999999001001KA1999M+00241MA1999999085331MD1710061+0101REMSYN076AAXX  18181 52533 32980 02501 11075 21150 38533 40264 57006 333 00154 10024;EQDQ01  00002PRCP99
0132525330999992000021821004+39770+098480FM-12+1478ZLJQ V0202201N002012200019N0300001N1-00891-01371102611ADDGA1001+999999999GF100991001001999999001001MD1710061+0011REMSYN064AAXX  18211 52533 42980 02202 11089 21137 40261 57006 333 00155;
0183525330999992000021900004+39770+098480FM-12+1478ZLJQ V0202201N002012200019N0300001N1-00921-01361102711ADDAA199000091GA1001+999999999GF100991001001999999001001MA1999999085301MD1210031+0011REMSYN070AAXX  19001 52533 32980 02202 11092 21136 38530 40271 52003 333 00154;EQDQ01  00002PRCP99
0122525330999992000021903004+39770+098480FM-12+1478ZLJQ V0201401N002012200019N0300001N1-00011-01131102581ADDGA1001+999999999GF100991001001999999001001MD1210031+9999REMSYN054AAXX  19031 52533 42980 01402 11001 21113 40258 52003;
0192525330999992000021906004+39770+098480FM-12+1478ZLJQ V0201601N004012200019N0300001N1+00341-01071102311ADDAA199000091GF101991001001999999001021KA1999N-00991MA1999999085121MD1710211-0101REMSYN082AAXX  19061 52533 32980 11604 10034 21107 38512 40231 57021 80002 333 05102 21099;EQDQ01  00002PRCP99
0122525330999992000021909004+39770+098480FM-12+1478ZLJQ V0200901N003012200019N0300001N1+00411-01371102221ADDGF101991001001999999001021MD1710091+0011REMSYN070AAXX  19091 52533 42980 10903 10041 21137 40222 57009 80002 333 05103;
0173525330999992000021912004+39770+098480FM-12+1478ZLJQ V0200701N002012200019N0300001N1+00041-01231102471ADDAA199000091GF101991001001999999001021MA1999999085121MD1210091+0021REMSYN076AAXX  19121 52533 32980 10702 10004 21123 38512 40247 52009 80002 333 05201;EQDQ01  00002PRCP99
0112525330999992000021915004+39770+098480FM-12+1478ZLJQ V0202201N001012200019N0300001N1-00501-01211102381ADDGF101991001001999999001021MD1210031+9999REMSYN060AAXX  19151 52533 42980 12201 11050 21121 40238 52003 80002;
0192525330999992000021918004+39770+098480FM-12+1478ZLJQ V0202201N002019999999N0300001N1-00621-01291102181ADDAA199000091GF107991001001999999001021KA1999M+00481MA1999999085051MD1710101-0301REMSYN082AAXX  19181 52533 32980 72202 11062 21129 38505 40218 57010 80002 333 05301 10048;EQDQ01  00002PRCP99
0122525330999992000021921004+39770+098480FM-12+1478ZLJQ V0202201N003019999999N0300001N1-00631-01361102001ADDGF108991001001999999001071MD1710131+0041REMSYN070AAXX  19211 52533 42980 82203 11063 21136 40200 57013 80007 333 05403;
0173525330999992000022000004+39770+098480FM-12+1478ZLJQ V0202201N002019999999N0300001N1-00721-01341102181ADDAA199000091GF107991001001999999001021MA1999999084941MD1210021+0041REMSYN076AAXX  20001 52533 32980 72202 11072 21134 38494 40218 52002 80002 333 05402;EQDQ01  00002PRCP99
0112525330999992000022003004+39770+098480FM-12+1478ZLJQ V0203401N002012200019N0300001N1+00131-01281102161ADDGF102991011001999999041021MD1210071+9999REMSYN060AAXX  20031 52533 42980 23402 10013 21128 40216 52007 81042;
0192525330999992000022006004+39770+098480FM-12+1478ZLJQ V0200201N004012200019N0300001N1+00511-01041101811ADDAA199000091GF101991011001999999041021KA1999N-00771MA1999999084791MD1710221-0301REMSYN082AAXX  20061 52533 32980 10204 10051 21104 38479 40181 57022 81042 333 05302 21077;EQDQ01  00002PRCP99
0122525330999992000022009004+39770+098480FM-12+1478ZLJQ V0200201N003012200019N0300001N1+00541-01301101671ADDGF101991011001999999041021MD1710111+0041REMSYN070AAXX  20091 52533 42980 10203 10054 21130 40167 57011 81042 333 05401;
0173525330999992000022012004+39770+098480FM-12+1478ZLJQ V0209999C000019999999N0300001N1+00261-01231102021ADDAA199000091GF107991011001999999041021MA1999999084871MD1210191+0031REMSYN076AAXX  20121 52533 32980 70000 10026 21123 38487 40202 52019 81042 333 05302;EQDQ01  00002PRCP99
0112525330999992000022015004+39770+098480FM-12+1478ZLJQ V0202001N003019999999N0300001N1-00061-01191101901ADDGF105991001001999999001021MD1210051+9999REMSYN060AAXX  20151 52533 42980 52003 11006 21119 40190 52005 80002;
0202525330999992000022018004+39770+098480FM-12+1478ZLJQ V0202501N002012200019N0300001N1-00221-01261101651ADDAA199000091GA1001+999999999GF100991001001999999001001KA1999M+00571MA1999999084771MD1710151-0301REMSYN076AAXX  20181 52533 32980 02502 11022 21126 38477 40165 57015 333 05304 10057;EQDQ01  00002PRCP99
0132525330999992000022021004+39770+098480FM-12+1478ZLJQ V0202701N002012200019N0300001N1-00651-01291101631ADDGA1001+999999999GF100991001001999999001001MD1710131+0031REMSYN064AAXX  20211 52533 42980 02702 11065 21129 40163 57013 333 05300;
0183525330999992000022100004+39770+098480FM-12+1478ZLJQ V0202201N002012200019N0300001N1-00801-01461101811ADDAA199000091GA1001+999999999GF100991001001999999001001MA1999999084671MD1210031+0031REMSYN070AAXX  21001 52533 32980 02202 11080 21146 38467 40181 52003 333 05351;EQDQ01  00002PRCP99
0112525330999992000022103004+39770+098480FM-12+1478ZLJQ V0200701N002012200019N0300001N1+00041-01421101671ADDGF101991001001999999001021MD1210031+9999REMSYN060AAXX  21031 52533 42980 10702 10004 21142 40167 52003 80002;
0192525330999992000022106004+39770+098480FM-12+1478ZLJQ V0201101N005019999999N0300001N1+00371-00921101431ADDAA199000091GF107991001001999999001021KA1999N-00811MA1999999084551MD1710151-0201REMSYN082AAXX  21061 52533 32980 71105 10037 21092 38455 40143 57015 80002 333 05251 21081;EQDQ01  00002PRCP99
0122525330999992000022109004+39770+098480FM-12+1478ZLJQ V0201101N004019999999N0300001N1+00611-01371101431ADDGF107991021001999999041021MD1710061+0021REMSYN070AAXX  21091 52533 42980 71104 10061 21137 40143 57006 82042 333 05201;
0172525330999992000022112004+39770+098480FM-12+1478ZLJQ V0200401N004019999999N0300001N1+00261-01471101981ADDAA199000091GF108991999999999999999999MA1999999084811MD1210321+9999REMSYN075AAXX  21121 52533 32980 80404 10026 21147 38481 40198 52032 8007 333 05100;EQDQ01  00002PRCP99
0112525330999992000022115004+39770+098480FM-12+1478ZLJQ V0201401N001019999999N0300001N1-00081-01281102051ADDGF108991001001999999001071MD1210201+9999REMSYN060AAXX  21151 52533 42980 81401 11008 21128 40205 52020 80007;
0192525330999992000022118004+39770+098480FM-12+1478ZLJQ V0200401N003019999999N0300001N1-00251-01501102041ADDAA199000091GF108991001001999999001071KA1999M+00681MA1999999085051MD1210041+0301REMSYN082AAXX  21181 52533 32980 80403 11025 21150 38505 40204 52004 80007 333 00300 10068;EQDQ01  00002PRCP99
0122525330999992000022121004+39770+098480FM-12+1478ZLJQ V0201101N002019999999N0300001N1-00451-01651102091ADDGF108991001001999999001071MD1210051+0051REMSYN070AAXX  21211 52533 42980 81102 11045 21165 40209 52005 80007 333 00502;
0173525330999992000022200004+39770+098480FM-12+1478ZLJQ V0200701N002019999999N0300001N1-00571-01761102471ADDAA199000091GF107991011001999999041021MA1999999085281MD1210181+0061REMSYN076AAXX  22001 52533 32980 70702 11057 21176 38528 40247 52018 81042 333 00602;EQDQ01  00002PRCP99
0112525330999992000022203004+39770+098480FM-12+1478ZLJQ V0203401N002019999999N0300001N1-00391-01301102771ADDGF107991001001999999001021MD1210211+9999REMSYN060AAXX  22031 52533 42980 73402 11039 21130 40277 52021 80002;
0192525330999992000022206004+39770+098480FM-12+1478ZLJQ V0200201N001019999999N0300001N1-00221-01501102621ADDAA199000091GF107991021001999999041021KA1999N-00681MA1999999085361MD1710131+0801REMSYN082AAXX  22061 52533 32980 70201 11022 21150 38536 40262 57013 82042 333 00856 21068;EQDQ01  00002PRCP99
0122525330999992000022209004+39770+098480FM-12+1478ZLJQ V0203401N002019999999N0300001N1-00061-01541102671ADDGF107991021001999999041021MD1210031+0091REMSYN070AAXX  22091 52533 42980 73402 11006 21154 40267 52003 82042 333 00957;
0173525330999992000022212004+39770+098480FM-12+1478ZLJQ V0200401N002019999999N0300001N1-00211-01551103051ADDAA199000091GF108991081001999999021999MA1999999085631MD1210241+0081REMSYN076AAXX  22121 52533 32980 80402 11021 21155 38563 40305 52024 8802/ 333 00855;EQDQ01  00002PRCP99
0112525330999992000022215004+39770+098480FM-12+1478ZLJQ V0200901N002019999999N0300001N1-00341-01561103071ADDGF108991081001999999021999MD1210031+9999REMSYN060AAXX  22151 52533 42980 80902 11034 21156 40307 52003 8802/;
0192525330999992000022218004+39770+098480FM-12+1478ZLJQ V0200901N001019999999N0300001N1-00521-01411102931ADDAA199000091GF107991001001999999001021KA1999M-00021MA1999999085541MD1710121+0501REMSYN082AAXX  22181 52533 32980 70901 11052 21141 38554 40293 57012 80002 333 00553 11002;EQDQ01  00002PRCP99
0122525330999992000022221004+39770+098480FM-12+1478ZLJQ V0202901N001019999999N0300001N1-00821-01491103101ADDGF107991001001999999001021MD1210101+0051REMSYN070AAXX  22211 52533 42980 72901 11082 21149 40310 52010 80002 333 00554;
0172525330999992000022300004+39770+098480FM-12+1478ZLJQ V0203201N002019999999N0300001N1-00711-01561103251ADDAA199000091GF107991011001999999041021MA1999999085761MD1210121+0051REMSYN075AAXX  23001 52533 32980 73202 11071 21156 38576 40325 52012 81042333 00551;EQDQ01  00002PRCP99
0112525330999992000022303004+39770+098480FM-12+1478ZLJQ V0200201N003019999999N0300001N1-00551-01661103471ADDGF108991031001999999041071MD1210191+9999REMSYN060AAXX  23031 52533 42980 80203 11055 21166 40347 52019 83047;
0191525330999992000022306004+39770+098480FM-12+1478ZLJQ V0200701N001019999999N0150001N1-00461-01061103411ADDAA106000791GF108991081001999999021999KA1999N-00861MA1999999085871MD1710081+0501MW1221REMSYN094AAXX  23061 52533 11965 80701 11046 21106 38587 40341 57008 69901 72200 8802/ 333 00552 21086;
0122525330999992000022309004+39770+098480FM-12+1478ZLJQ V0203401N002019999999N0200001N1-00361-01831103561ADDGF107991021001999999041021MD1210071+0061REMSYN070AAXX  23091 52533 42970 73402 11036 21183 40356 52007 82042 333 00653;
0154525330999992000022312004+39770+098480FM-12+1478ZLJQ V0203401N003019999999N0200001N1-00491-01751103901ADDAA199000021GF107991011001999999041021MA1999999086211MD1210271+0061REMSYN076AAXX  23121 52533 32970 73403 11049 21175 38621 40390 52027 81042 333 00653;
0112525330999992000022315004+39770+098480FM-12+1478ZLJQ V0203401N003019999999N0200001N1-00501-01631103961ADDGF108991081001999999021999MD1210101+9999REMSYN060AAXX  23151 52533 42970 83403 11050 21163 40396 52010 8802/;
0173525330999992000022318004+39770+098480FM-12+1478ZLJQ V0203201N003019999999N0200001N1-00631-01831104041ADDAA199000021GF108991081001999999021999KA1999M-00311MA1999999086361MD1210051+0801REMSYN082AAXX  23181 52533 32970 83203 11063 21183 38636 40404 52005 8802/ 333 00851 11031;
0139525330999992000022321004+39770+098480FM-12+1478ZLJQ V0202901N004019999999N0200001N1-00841-01941104161ADDAA124000791GF108991081001999999021999MD1210071+0801REMSYN076AAXX  23211 52533 42970 82904 11084 21194 40416 52007 8802/ 333 00800 79999;
0160525330999992000022400004+39770+098480FM-12+1478ZLJQ V0203201N002019999999N0150001N1-00861-01831104321ADDAA124799892GF108991081001999999021999MA1999999086521MD1210091+0801REMSYN082AAXX  24001 52533 32965 83202 11086 21183 38652 40432 52009 8802/ 333 00852 77999;
0112525330999992000022403004+39770+098480FM-12+1478ZLJQ V0203201N009019999999N0120001N1-00601-02101104311ADDGF107991021001999999041021MD1210061+9999REMSYN060AAXX  24031 52533 42962 73209 11060 21210 40431 52006 82042;
0227525330999992000022406004+39770+098480FM-12+1478ZLJQ V0203201N010019999999N0080001N1-00321-02701104111ADDAA199000091GF106991001001999999001021KA1240N-00871MA1999999086461MD1710121+0601MW1071OA130601801REMSYN100AAXX  24061 52533 31958 63210 11032 21270 38646 40411 57012 70700 80002 333 00601 21087 91118 91532;EQDQ01  00002PRCP99
0122525330999992000022409004+39770+098480FM-12+1478ZLJQ V0203201N009012200019N0150001N1-00101-02911104011ADDGF101991001001999999001021MD1710081+0041REMSYN070AAXX  24091 52533 42965 13209 11010 21291 40401 57008 80002 333 00403;
0183525330999992000022412004+39770+098480FM-12+1478ZLJQ V0203201N005012200019N0200001N1-00431-02741104281ADDAA199000091GA1001+999999999GF100991001001999999001001MA1999999086501MD1210121+0031REMSYN070AAXX  24121 52533 32970 03205 11043 21274 38650 40428 52012 333 00301;EQDQ01  00002PRCP99
0122525330999992000022415004+39770+098480FM-12+1478ZLJQ V0202201N002012200019N0300001N1-00701-02261104311ADDGA1001+999999999GF100991001001999999001001MD1210021+9999REMSYN054AAXX  24151 52533 42980 02202 11070 21226 40431 52002;
0192525330999992000022418004+39770+098480FM-12+1478ZLJQ V0202001N003012200019N0300001N1-00931-02331104161ADDAA199000091GF101991001001999999001021KA1999M-00061MA1999999086411MD1710111+0101REMSYN082AAXX  24181 52533 32980 12003 11093 21233 38641 40416 57011 80002 333 00153 11006;EQDQ01  00002PRCP99
0132525330999992000022421004+39770+098480FM-12+1478ZLJQ V0202201N003012200019N0300001N1-00991-02481103931ADDGA1001+999999999GF100991001001999999001001MD1710141+0021REMSYN064AAXX  24211 52533 42980 02203 11099 21248 40393 57014 333 05252;
0183525330999992000022500004+39770+098480FM-12+1478ZLJQ V0202501N001012200019N0300001N1-00891-02451104061ADDAA199000091GA1001+999999999GF100991001001999999001001MA1999999086311MD1210041+0021REMSYN070AAXX  25001 52533 32980 02501 11089 21245 38631 40406 52004 333 05200;EQDQ01  00002PRCP99
0122525330999992000022503004+39770+098480FM-12+1478ZLJQ V0201401N001012200019N0300001N1-00161-02421103941ADDGA1001+999999999GF100991001001999999001001MD1210041+9999REMSYN054AAXX  25031 52533 42980 01401 11016 21242 40394 52004;
0202525330999992000022506004+39770+098480FM-12+1478ZLJQ V0201401N003012200019N0300001N1+00111-02051103701ADDAA199000091GA1001+999999999GF100991001001999999001001KA1999N-01181MA1999999086161MD1710191-0301REMSYN076AAXX  25061 52533 32980 01403 10011 21205 38616 40370 57019 333 05304 21118;EQDQ01  00002PRCP99
0132525330999992000022509004+39770+098480FM-12+1478ZLJQ V0203401N007012200019N0200001N1+00341-02821103441ADDGA1001+999999999GF100991001001999999001001MD1710171+0041REMSYN064AAXX  25091 52533 42970 03407 10034 21282 40344 57017 333 05404;
0183525330999992000022512004+39770+098480FM-12+1478ZLJQ V0202201N003012200019N0200001N1-00161-02701103661ADDAA199000091GA1001+999999999GF100991001001999999001001MA1999999086061MD1210071+0041REMSYN070AAXX  25121 52533 32970 02203 11016 21270 38606 40366 52007 333 05403;EQDQ01  00002PRCP99
0122525330999992000022515004+39770+098480FM-12+1478ZLJQ V0202201N003012200019N0200001N1-00401-02591103471ADDGA1001+999999999GF100991001001999999001001MD1710021+9999REMSYN054AAXX  25151 52533 42970 02203 11040 21259 40347 57002;
0202525330999992000022518004+39770+098480FM-12+1478ZLJQ V0202901N003012200019N0200001N1-00721-02681103331ADDAA199000091GA1001+999999999GF100991001001999999001001KA1999M+00451MA1999999085911MD1710131-0501REMSYN076AAXX  25181 52533 32970 02903 11072 21268 38591 40333 57013 333 05502 10045;EQDQ01  00002PRCP99
0132525330999992000022521004+39770+098480FM-12+1478ZLJQ V0202501N002012200019N0200001N1-01151-02461103261ADDGA1001+999999999GF100991001001999999001001MD1710111+0051REMSYN064AAXX  25211 52533 42970 02502 11115 21246 40326 57011 333 05552;
0183525330999992000022600004+39770+098480FM-12+1478ZLJQ V0202501N002012200019N0250001N1-01131-02371103431ADDAA199000091GA1001+999999999GF100991001001999999001001MA1999999085801MD1410001+0051REMSYN070AAXX  26001 52533 32975 02502 11113 21237 38580 40343 54000 333 05552;EQDQ01  00002PRCP99
0122525330999992000022603004+39770+098480FM-12+1478ZLJQ V0201401N002012200019N0300001N1-00141-02591103221ADDGA1001+999999999GF100991001001999999001001MD1210041+9999REMSYN054AAXX  26031 52533 42980 01402 11014 21259 40322 52004;
0202525330999992000022606004+39770+098480FM-12+1478ZLJQ V0200901N001012200019N0300001N1+00201-01911102981ADDAA199000091GA1001+999999999GF100991001001999999001001KA1999N-01241MA1999999085651MD1710191-0501REMSYN076AAXX  26061 52533 32980 00901 10020 21191 38565 40298 57019 333 05501 21124;EQDQ01  00002PRCP99
0132525330999992000022609004+39770+098480FM-12+1478ZLJQ V0200701N002012200019N0300001N1+00491-02121102791ADDGA1001+999999999GF100991001001999999001001MD1710201+0051REMSYN064AAXX  26091 52533 42980 00702 10049 21212 40279 57020 333 05502;
0183525330999992000022612004+39770+098480FM-12+1478ZLJQ V0201101N002012200019N0300001N1+00011-02581103021ADDAA199000091GA1001+999999999GF100991001001999999001001MA1999999085511MD1210061+0061REMSYN070AAXX  26121 52533 32980 01102 10001 21258 38551 40302 52006 333 05602;EQDQ01  00002PRCP99
0122525330999992000022615004+39770+098480FM-12+1478ZLJQ V0202201N004012200019N0300001N1-00361-02181102771ADDGA1001+999999999GF100991001001999999001001MD1710031+9999REMSYN054AAXX  26151 52533 42980 02204 11036 21218 40277 57003;
0202525330999992000022618004+39770+098480FM-12+1478ZLJQ V0202501N002012200019N0300001N1-00741-02351102751ADDAA199000091GA1001+999999999GF100991001001999999001001KA1999M+00551MA1999999085451MD1710031-0501REMSYN076AAXX  26181 52533 32980 02502 11074 21235 38545 40275 57003 333 05500 10055;EQDQ01  00002PRCP99
0132525330999992000022621004+39770+098480FM-12+1478ZLJQ V0202201N003012200019N0300001N1-01011-02441102601ADDGA1001+999999999GF100991001001999999001001MD1710121+0051REMSYN064AAXX  26211 52533 42980 02203 11101 21244 40260 57012 333 05501;
0183525330999992000022700004+39770+098480FM-12+1478ZLJQ V0202201N003012200019N0300001N1-01151-02531102831ADDAA199000091GA1001+999999999GF100991001001999999001001MA1999999085341MD1210011+0051REMSYN070AAXX  27001 52533 32980 02203 11115 21253 38534 40283 52001 333 05500;EQDQ01  00002PRCP99
0141525330999992000022703004+39770+098480FM-12+1478ZLJQ V0209999C000012200019N0300001N1+00072-01881102641ADDGA1001+999999999GF100991001001999999001001MD1210091+9999REMSYN054AAXX  27031 52533 42980 00000 10007 21188 40264 52009;EQDQ01+000073ATOT  
0202525330999992000022706004+39770+098480FM-12+1478ZLJQ V0201401N002012200019N0300001N1+00341-02301102531ADDAA199000091GA1001+999999999GF100991001001999999001001KA1999N-01271MA1999999085311MD1710121-0301REMSYN076AAXX  27061 52533 32980 01402 10034 21230 38531 40253 57012 333 05301 21127;EQDQ01  00002PRCP99
0132525330999992000022709004+39770+098480FM-12+1478ZLJQ V0201101N002012200019N0300001N1+00421-02571102541ADDGA1001+999999999GF100991001001999999001001MD1710051+0021REMSYN064AAXX  27091 52533 42980 01102 10042 21257 40254 57005 333 05251;
0183525330999992000022712004+39770+098480FM-12+1478ZLJQ V0200701N002012200019N0300001N1+00071-02071102881ADDAA199000091GA1001+999999999GF100991001001999999001001MA1999999085401MD1210141+0011REMSYN070AAXX  27121 52533 32980 00702 10007 21207 38540 40288 52014 333 05101;EQDQ01  00002PRCP99
0122525330999992000022715004+39770+098480FM-12+1478ZLJQ V0202201N003012200019N0300001N1-00501-02001102771ADDGA1001+999999999GF100991001001999999001001MD1210101+9999REMSYN054AAXX  27151 52533 42980 02203 11050 21200 40277 52010;
0202525330999992000022718004+39770+098480FM-12+1478ZLJQ V0202201N003012200019N0300001N1-00731-02561102721ADDAA199000091GA1001+999999999GF100991001001999999001001KA1999M+00501MA1999999085471MD1710031+0001REMSYN076AAXX  27181 52533 32980 02203 11073 21256 38547 40272 57003 333 00000 10050;EQDQ01  00002PRCP99
0132525330999992000022721004+39770+098480FM-12+1478ZLJQ V0202501N002012200019N0300001N1-00891-02321102751ADDGA1001+999999999GF100991001001999999001001MD1410001+0011REMSYN064AAXX  27211 52533 42980 02502 11089 21232 40275 54000 333 00101;
0183525330999992000022800004+39770+098480FM-12+1478ZLJQ V0202201N003012200019N0300001N1-01031-02081103051ADDAA199000091GA1001+999999999GF100991001001999999001001MA1999999085581MD1210111+0021REMSYN070AAXX  28001 52533 32980 02203 11103 21208 38558 40305 52011 333 00201;EQDQ01  00002PRCP99
0122525330999992000022803004+39770+098480FM-12+1478ZLJQ V0201401N002012200019N0300001N1+00051-01621103011ADDGA1001+999999999GF100991001001999999001001MD1210111+9999REMSYN054AAXX  28031 52533 42980 01402 10005 21162 40301 52011;
0202525330999992000022806004+39770+098480FM-12+1478ZLJQ V0201601N003012200019N0300001N1+00461-01911102871ADDAA199000091GA1001+999999999GF100991001001999999001001KA1999N-01051MA1999999085631MD1710061+0301REMSYN076AAXX  28061 52533 32980 01603 10046 21191 38563 40287 57006 333 00301 21105;EQDQ01  00002PRCP99
0132525330999992000022809004+39770+098480FM-12+1478ZLJQ V0200201N002012200019N0300001N1+00561-02301102871ADDGA1001+999999999GF100991001001999999001001MD1710021+0041REMSYN064AAXX  28091 52533 42980 00202 10056 21230 40287 57002 333 00401;
0183525330999992000022812004+39770+098480FM-12+1478ZLJQ V0209999C000012200019N0300001N1+00201-02181103181ADDAA199000091GA1001+999999999GF100991001001999999001001MA1999999085721MD1210111+0031REMSYN070AAXX  28121 52533 32980 00000 10020 21218 38572 40318 52011 333 00301;EQDQ01  00002PRCP99
0122525330999992000022815004+39770+098480FM-12+1478ZLJQ V0202201N003012200019N0300001N1-00401-02111103001ADDGA1001+999999999GF100991001001999999001001MD1710011+9999REMSYN054AAXX  28151 52533 42980 02203 11040 21211 40300 57001;
0202525330999992000022818004+39770+098480FM-12+1478ZLJQ V0202701N001012200019N0300001N1-00681-01921102751ADDAA199000091GA1001+999999999GF100991001001999999001001KA1999M+00621MA1999999085541MD1710171+0101REMSYN076AAXX  28181 52533 32980 02701 11068 21192 38554 40275 57017 333 00101 10062;EQDQ01  00002PRCP99
0132525330999992000022821004+39770+098480FM-12+1478ZLJQ V0202201N003012200019N0300001N1-00821-01971102561ADDGA1001+999999999GF100991001001999999001001MD1710171+0011REMSYN064AAXX  28211 52533 42980 02203 11082 21197 40256 57017 333 05101;
0183525330999992000022900004+39770+098480FM-12+1478ZLJQ V0202201N003012200019N0300001N1-00921-02101102661ADDAA199000091GA1001+999999999GF100991001001999999001001MA1999999085321MD1710051+0031REMSYN070AAXX  29001 52533 32980 02203 11092 21210 38532 40266 57005 333 05301;EQDQ01  00002PRCP99
0122525330999992000022903004+39770+098480FM-12+1478ZLJQ V0201401N002012200019N0300001N1+00081-01611102481ADDGA1001+999999999GF100991001001999999001001MD1710031+9999REMSYN054AAXX  29031 52533 42980 01402 10008 21161 40248 57003;
0202525330999992000022906004+39770+098480FM-12+1478ZLJQ V0200901N003012200019N0300001N1+00411-01911102341ADDAA199000091GA1001+999999999GF100991001001999999001001KA1999N-00981MA1999999085191MD1710101-0401REMSYN076AAXX  29061 52533 32980 00903 10041 21191 38519 40234 57010 333 05451 21098;EQDQ01  00002PRCP99
0122525330999992000022909004+39770+098480FM-12+1478ZLJQ V0200901N002019999999N0300001N1+00551-02191102221ADDGF106991011001999999041021MD1710101+0051REMSYN070AAXX  29091 52533 42980 60902 10055 21219 40222 57010 81042 333 05500;
0173525330999992000022912004+39770+098480FM-12+1478ZLJQ V0200201N001019999999N0300001N1+00261-01771102501ADDAA199000091GF106991011001999999041021MA1999999085211MD1210121+0051REMSYN076AAXX  29121 52533 32980 60201 10026 21177 38521 40250 52012 81042 333 05501;EQDQ01  00002PRCP99
0122525330999992000022915004+39770+098480FM-12+1478ZLJQ V0202001N002012200019N0300001N1-00301-01831102451ADDGA1001+999999999GF100991001001999999001001MD1210081+9999REMSYN054AAXX  29151 52533 42980 02002 11030 21183 40245 52008;
0202525330999992000022918004+39770+098480FM-12+1478ZLJQ V0202901N002012200019N0300001N1-00321-01961102311ADDAA199000091GA1001+999999999GF100991001001999999001001KA1999M+00651MA1999999085261MD1710031-0301REMSYN076AAXX  29181 52533 32980 02902 11032 21196 38526 40231 57003 333 05304 10065;EQDQ01  00002PRCP99
0132525330999992000022921004+39770+098480FM-12+1478ZLJQ V0202701N003012200019N0300001N1-00361-02181102261ADDGA1001+999999999GF100991001001999999001001MD1710011+0011REMSYN064AAXX  29211 52533 42980 02703 11036 21218 40226 57001 333 05105;
0183525330999992000030100004+39770+098480FM-12+1478ZLJQ V0202501N002012200019N0300001N1-00541-02311102611ADDAA199000091GA1001+999999999GF100991001001999999001001MA1999999085411MD1210161+0011REMSYN070AAXX  01001 52533 32980 02502 11054 21231 38541 40261 52016 333 00104;EQDQ01  00002PRCP99
0112525330999992000030103004+39770+098480FM-12+1478ZLJQ V0202901N001019999999N0300001N1+00201-02351102741ADDGF107991001001999999001021MD1210161+9999REMSYN060AAXX  01031 52533 42980 72901 10020 21235 40274 52016 80002;
0192525330999992000030106004+39770+098480FM-12+1478ZLJQ V0203401N002019999999N0300001N1+00441-01981102561ADDAA199000091GF107991011001999999041021KA1999N-00611MA1999999085481MD1710091+0301REMSYN082AAXX  01061 52533 32980 73402 10044 21198 38548 40256 57009 81042 333 00300 21061;EQDQ01  00002PRCP99
0122525330999992000030109004+39770+098480FM-12+1478ZLJQ V0203401N008012200019N0300001N1+00601-01901102381ADDGF102991001001999999001021MD1710121+0031REMSYN070AAXX  01091 52533 42980 23408 10060 21190 40238 57012 80002 333 00301;
0173525330999992000030112004+39770+098480FM-12+1478ZLJQ V0201801N002012200019N0300001N1+00141-02411102721ADDAA199000091GF104991001001999999001021MA1999999085471MD1210111+0031REMSYN076AAXX  01121 52533 32980 41802 10014 21241 38547 40272 52011 80002 333 00351;EQDQ01  00002PRCP99
0122525330999992000030115004+39770+098480FM-12+1478ZLJQ V0202701N003012200019N0300001N1-00141-02311102821ADDGA1001+999999999GF100991001001999999001001MD1210211+9999REMSYN054AAXX  01151 52533 42980 02703 11014 21231 40282 52021;
0202525330999992000030118004+39770+098480FM-12+1478ZLJQ V0202201N002012200019N0300001N1-00501-02201102901ADDAA199000091GA1001+999999999GF100991001001999999001001KA1999M+00651MA1999999085711MD1210031+0501REMSYN076AAXX  01181 52533 32980 02202 11050 21220 38571 40290 52003 333 00552 10065;EQDQ01  00002PRCP99
0132525330999992000030121004+39770+098480FM-12+1478ZLJQ V0202201N001012200019N0300001N1-00811-02131102911ADDGA1001+999999999GF100991001001999999001001MD1710031+0041REMSYN064AAXX  01211 52533 42980 02201 11081 21213 40291 57003 333 00455;
0173525330999992000030200004+39770+098480FM-12+1478ZLJQ V0209999C000012200019N0300001N1-00771-02131103151ADDAA199000091GF102991011001999999041021MA1999999085761MD1210081+0041REMSYN076AAXX  02001 52533 32980 20000 11077 21213 38576 40315 52008 81042 333 00452;EQDQ01  00002PRCP99
0122525330999992000030203004+39770+098480FM-12+1478ZLJQ V0200701N002012200019N0300001N1+00041-01201103081ADDGA1001+999999999GF100991001001999999001001MD1210091+9999REMSYN054AAXX  02031 52533 42980 00702 10004 21120 40308 52009;
0202525330999992000030206004+39770+098480FM-12+1478ZLJQ V0202701N001012200019N0300001N1+00381-01531102831ADDAA199000091GA1001+999999999GF100991001001999999001001KA1999N-01021MA1999999085641MD1710211+0201REMSYN076AAXX  02061 52533 32980 02701 10038 21153 38564 40283 57021 333 00251 21102;EQDQ01  00002PRCP99
0132525330999992000030209004+39770+098480FM-12+1478ZLJQ V0200901N002012200019N0300001N1+00561-01951102581ADDGA1001+999999999GF100991001001999999001001MD1710251+0001REMSYN064AAXX  02091 52533 42980 00902 10056 21195 40258 57025 333 00000;
0183525330999992000030212004+39770+098480FM-12+1478ZLJQ V0200401N001012200019N0300001N1+00211-01471102681ADDAA199000091GA1001+999999999GF100991001001999999001001MA1999999085391MD1410001+0011REMSYN070AAXX  02121 52533 32980 00401 10021 21147 38539 40268 54000 333 05101;EQDQ01  00002PRCP99
0122525330999992000030215004+39770+098480FM-12+1478ZLJQ V0202701N003012200019N0300001N1-00261-01731102571ADDGA1001+999999999GF100991001001999999001001MD1410001+9999REMSYN054AAXX  02151 52533 42980 02703 11026 21173 40257 54000;
0202525330999992000030218004+39770+098480FM-12+1478ZLJQ V0202901N002012200019N0300001N1-00261-01891102341ADDAA199000091GA1001+999999999GF100991001001999999001001KA1999M+00681MA1999999085301MD1710091-0401REMSYN076AAXX  02181 52533 32980 02902 11026 21189 38530 40234 57009 333 05402 10068;EQDQ01  00002PRCP99
0132525330999992000030221004+39770+098480FM-12+1478ZLJQ V0202201N003012200019N0300001N1-00761-02101102381ADDGA1001+999999999GF100991001001999999001001MD1710061+0041REMSYN064AAXX  02211 52533 42980 02203 11076 21210 40238 57006 333 05401;
0183525330999992000030300004+39770+098480FM-12+1478ZLJQ V0203201N002012200019N0300001N1-00851-02031102681ADDAA199000091GA1001+999999999GF100991001001999999001001MA1999999085361MD1210121+0041REMSYN070AAXX  03001 52533 32980 03202 11085 21203 38536 40268 52012 333 05451;EQDQ01  00002PRCP99
0112525330999992000030303004+39770+098480FM-12+1478ZLJQ V0200401N004019999999N0300001N1-00091-01931102831ADDGF107991001001999999001021MD1210211+9999REMSYN060AAXX  03031 52533 42980 70404 11009 21193 40283 52021 80002;
0192525330999992000030306004+39770+098480FM-12+1478ZLJQ V0200901N002019999999N0300001N1+00201-02161102571ADDAA199000091GF107991001001999999001021KA1999N-00871MA1999999085441MD1710131-0201REMSYN082AAXX  03061 52533 32980 70902 10020 21216 38544 40257 57013 80002 333 05252 21087;EQDQ01  00002PRCP99
0122525330999992000030309004+39770+098480FM-12+1478ZLJQ V0200901N003019999999N0300001N1+00341-02171102601ADDGF107991001001999999001021MD1710081+0001REMSYN070AAXX  03091 52533 42980 70903 10034 21217 40260 57008 80002 333 00052;
0173525330999992000030312004+39770+098480FM-12+1478ZLJQ V0200701N002012200019N0300001N1+00031-01861102911ADDAA199000091GF102991001001999999001021MA1999999085501MD1210141+0011REMSYN076AAXX  03121 52533 32980 20702 10003 21186 38550 40291 52014 80002 333 00152;EQDQ01  00002PRCP99
0122525330999992000030315004+39770+098480FM-12+1478ZLJQ V0202201N002012200019N0300001N1-00371-01851102831ADDGA1001+999999999GF100991001001999999001001MD1210041+9999REMSYN054AAXX  03151 52533 42980 02202 11037 21185 40283 52004;
0202525330999992000030318004+39770+098480FM-12+1478ZLJQ V0209999C000012200019N0300001N1-00651-01711102711ADDAA199000091GA1001+999999999GF100991001001999999001001KA1999M+00381MA1999999085441MD1710101+0101REMSYN076AAXX  03181 52533 32980 00000 11065 21171 38544 40271 57010 333 00154 10038;EQDQ01  00002PRCP99
0122525330999992000030321004+39770+098480FM-12+1478ZLJQ V0202501N001019999999N0300001N1-00531-01551102441ADDGF107991001001999999001021MD1710151+0011REMSYN070AAXX  03211 52533 42980 72501 11053 21155 40244 57015 80002 333 00102;
0173525330999992000030400004+39770+098480FM-12+1478ZLJQ V0202501N002019999999N0300001N1-00901-01751102721ADDAA199000091GF106991011001999999041021MA1999999085331MD1210041+0001REMSYN076AAXX  04001 52533 32980 62502 11090 21175 38533 40272 52004 81042 333 00051;EQDQ01  00002PRCP99
0112525330999992000030403004+39770+098480FM-12+1478ZLJQ V0200901N002012200019N0300001N1+00021-01291102611ADDGF102991011001999999041021MD1210061+9999REMSYN060AAXX  04031 52533 42980 20902 10002 21129 40261 52006 81042;
0192525330999992000030406004+39770+098480FM-12+1478ZLJQ V0200201N002012200019N0300001N1+00401-01541102421ADDAA199000091GF102991001001999999001021KA1999N-00901MA1999999085261MD1710131-0201REMSYN082AAXX  04061 52533 32980 20202 10040 21154 38526 40242 57013 80002 333 05202 21090;EQDQ01  00002PRCP99
0122525330999992000030409004+39770+098480FM-12+1478ZLJQ V0201101N003012200019N0300001N1+00541-01741102231ADDGF101991001001999999001021MD1710091+0021REMSYN070AAXX  04091 52533 42980 11103 10054 21174 40223 57009 80002 333 05202;
0173525330999992000030412004+39770+098480FM-12+1478ZLJQ V0201101N002019999999N0300001N1+00141-01881102711ADDAA199000091GF107991011001999999041021MA1999999085351MD1210181+0021REMSYN076AAXX  04121 52533 32980 71102 10014 21188 38535 40271 52018 81042 333 05201;EQDQ01  00002PRCP99
0122525330999992000030415004+39770+098480FM-12+1478ZLJQ V0202201N002012200019N0300001N1-00331-01831102631ADDGA1001+999999999GF100991001001999999001001MD1210071+9999REMSYN054AAXX  04151 52533 42980 02202 11033 21183 40263 52007;
0202525330999992000030418004+39770+098480FM-12+1478ZLJQ V0202201N002012200019N0300001N1-00521-01731102581ADDAA199000091GA1001+999999999GF100991001001999999001001KA1999M+00601MA1999999085431MD1210011+0001REMSYN076AAXX  04181 52533 32980 02202 11052 21173 38543 40258 52001 333 00001 10060;EQDQ01  00002PRCP99
0132525330999992000030421004+39770+098480FM-12+1478ZLJQ V0209999C000012200019N0300001N1-00661-01881102581ADDGA1001+999999999GF100991001001999999001001MD1410001+0011REMSYN064AAXX  04211 52533 42980 00000 11066 21188 40258 54000 333 00151;
0173525330999992000030500004+39770+098480FM-12+1478ZLJQ V0202701N001012200019N0300001N1-00731-01871102911ADDAA199000091GF101991001001999999001021MA1999999085571MD1210141+0021REMSYN076AAXX  05001 52533 32980 12701 11073 21187 38557 40291 52014 80002 333 00202;EQDQ01  00002PRCP99
0122525330999992000030503004+39770+098480FM-12+1478ZLJQ V0200701N002012200019N0300001N1+00101-01491102831ADDGA1001+999999999GF100991001001999999001001MD1210041+9999REMSYN054AAXX  05031 52533 42980 00702 10010 21149 40283 52004;
0202525330999992000030506004+39770+098480FM-12+1478ZLJQ V0200701N006012200019N0300001N1+00451-01351102581ADDAA199000091GA1001+999999999GF100991001001999999001001KA1999N-00781MA1999999085441MD1710171+0201REMSYN076AAXX  05061 52533 32980 00706 10045 21135 38544 40258 57017 333 00201 21078;EQDQ01  00002PRCP99
0132525330999992000030509004+39770+098480FM-12+1478ZLJQ V0201401N004012200019N0300001N1+00571-01301102401ADDGA1001+999999999GF100991001001999999001001MD1710151+0011REMSYN064AAXX  05091 52533 42980 01404 10057 21130 40240 57015 333 00100;
0183525330999992000030512004+39770+098480FM-12+1478ZLJQ V0200401N003012200019N0300001N1+00221-01441102581ADDAA199000091GA1001+999999999GF100991001001999999001001MA1999999085321MD1210031+0001REMSYN070AAXX  05121 52533 32980 00403 10022 21144 38532 40258 52003 333 00001;EQDQ01  00002PRCP99
0122525330999992000030515004+39770+098480FM-12+1478ZLJQ V0202001N002012200019N0300001N1-00241-01681102601ADDGA1001+999999999GF100991001001999999001001MD1210121+9999REMSYN054AAXX  05151 52533 42980 02002 11024 21168 40260 52012;
0202525330999992000030518004+39770+098480FM-12+1478ZLJQ V0202501N002012200019N0300001N1-00581-01581102601ADDAA199000091GA1001+999999999GF100991001001999999001001KA1999M+00631MA1999999085441MD1410001+0001REMSYN076AAXX  05181 52533 32980 02502 11058 21158 38544 40260 54000 333 00051 10063;EQDQ01  00002PRCP99
0132525330999992000030521004+39770+098480FM-12+1478ZLJQ V0202501N002012200019N0300001N1-00761-01641102561ADDGA1001+999999999GF100991001001999999001001MD1710051+0001REMSYN064AAXX  05211 52533 42980 02502 11076 21164 40256 57005 333 00051;
0183525330999992000030600004+39770+098480FM-12+1478ZLJQ V0202501N002012200019N0300001N1-00871-01761102781ADDAA199000091GA1001+999999999GF100991001001999999001001MA1999999085441MD1210051+0011REMSYN070AAXX  06001 52533 32980 02502 11087 21176 38544 40278 52005 333 05151;EQDQ01  00002PRCP99
0122525330999992000030603004+39770+098480FM-12+1478ZLJQ V0203401N002012200019N0300001N1+00151-01551102701ADDGA1001+999999999GF100991001001999999001001MD1210101+9999REMSYN054AAXX  06031 52533 42980 03402 10015 21155 40270 52010;
0192525330999992000030606004+39770+098480FM-12+1478ZLJQ V0203401N001012200019N0300001N1+00511-01601102541ADDAA199000091GF101991001001999999001021KA1999N-01021MA1999999085411MD1710131+0001REMSYN082AAXX  06061 52533 32980 13401 10051 21160 38541 40254 57013 80002 333 00001 21102;EQDQ01  00002PRCP99
0122525330999992000030609004+39770+098480FM-12+1478ZLJQ V0200701N002019999999N0300001N1+00721-01741102421ADDGF107991001001999999001021MD1710091+0001REMSYN070AAXX  06091 52533 42980 70702 10072 21174 40242 57009 80002 333 00002;
0173525330999992000030612004+39770+098480FM-12+1478ZLJQ V0201101N001019999999N0300001N1+00321-01851102691ADDAA199000091GF107991001001999999001021MA1999999085401MD1210081+0011REMSYN076AAXX  06121 52533 32980 71101 10032 21185 38540 40269 52008 80002 333 00101;EQDQ01  00002PRCP99
0112525330999992000030615004+39770+098480FM-12+1478ZLJQ V0202501N002012200019N0300001N1-00081-02201102681ADDGF101991001001999999001021MD1210171+9999REMSYN060AAXX  06151 52533 42980 12502 11008 21220 40268 52017 80002;
0192525330999992000030618004+39770+098480FM-12+1478ZLJQ V0202201N002012200019N0300001N1-00191-01791102561ADDAA199000091GF102991001001999999001021KA1999M+00771MA1999999085541MD1710031+0101REMSYN082AAXX  06181 52533 32980 22202 11019 21179 38554 40256 57003 80002 333 00104 10077;EQDQ01  00002PRCP99
0122525330999992000030621004+39770+098480FM-12+1478ZLJQ V0202201N002019999999N0300001N1-00501-01691102611ADDGF106991001001999999001021MD1210011+0021REMSYN070AAXX  06211 52533 42980 62202 11050 21169 40261 52001 80002 333 00203;
0173525330999992000030700004+39770+098480FM-12+1478ZLJQ V0201101N001012200019N0200001N1-00781-01821103171ADDAA199000091GF101991001001999999001021MA1999999085821MD1210271+0041REMSYN076AAXX  07001 52533 32970 11101 11078 21182 38582 40317 52027 80002 333 00401;EQDQ01  00002PRCP99
0122525330999992000030703004+39770+098480FM-12+1478ZLJQ V0203401N002012200019N0200001N1-00431-01491103241ADDGA1001+999999999GF100991001001999999001001MD1210051+9999REMSYN054AAXX  07031 52533 42970 03402 11043 21149 40324 52005;
0202525330999992000030706004+39770+098480FM-12+1478ZLJQ V0200401N004012200019N0150001N1-00061-01541102931ADDAA199000091GA1001+999999999GF100991001001999999001001KA1999N-00821MA1999999085681MD1710191+0301REMSYN076AAXX  07061 52533 32965 00404 11006 21154 38568 40293 57019 333 00356 21082;EQDQ01  00002PRCP99
0132525330999992000030709004+39770+098480FM-12+1478ZLJQ V0200701N003012200019N0150001N1+00351-01461102621ADDGA1001+999999999GF100991001001999999001001MD1710231+0011REMSYN064AAXX  07091 52533 42965 00703 10035 21146 40262 57023 333 00154;
0173525330999992000030712004+39770+098480FM-12+1478ZLJQ V0209999C000012200019N0150001N1+00071-01531102861ADDAA199000091GF104991001001999999001021MA1999999085491MD1210041+0011REMSYN076AAXX  07121 52533 32965 40000 10007 21153 38549 40286 52004 80002 333 00153;EQDQ01  00002PRCP99
0122525330999992000030715004+39770+098480FM-12+1478ZLJQ V0200701N004012200019N0150001N1-00241-01691102891ADDGA1001+999999999GF100991001001999999001001MD1210041+9999REMSYN054AAXX  07151 52533 42965 00704 11024 21169 40289 52004;
0202525330999992000030718004+39770+098480FM-12+1478ZLJQ V0209999C000012200019N0200001N1-00541-01771102871ADDAA199000091GA1001+999999999GF100991001001999999001001KA1999M+00381MA1999999085531MD1410001+0001REMSYN076AAXX  07181 52533 32970 00000 11054 21177 38553 40287 54000 333 00054 10038;EQDQ01  00002PRCP99
0132525330999992000030721004+39770+098480FM-12+1478ZLJQ V0202901N002012200019N0200001N1-00871-02081102801ADDGA1001+999999999GF100991001001999999001001MD1710031+0011REMSYN064AAXX  07211 52533 42970 02902 11087 21208 40280 57003 333 05154;
0183525330999992000030800004+39770+098480FM-12+1478ZLJQ V0209999C000012200019N0300001N1-00821-02061103001ADDAA199000091GA1001+999999999GF100991001001999999001001MA1999999085601MD1210101+0021REMSYN070AAXX  08001 52533 32980 00000 11082 21206 38560 40300 52010 333 05200;EQDQ01  00002PRCP99
0122525330999992000030803004+39770+098480FM-12+1478ZLJQ V0200701N002012200019N0300001N1-00091-01771102981ADDGA1001+999999999GF100991001001999999001001MD1210101+9999REMSYN054AAXX  08031 52533 42980 00702 11009 21177 40298 52010;
0202525330999992000030806004+39770+098480FM-12+1478ZLJQ V0201601N001012200019N0300001N1+00281-01441102821ADDAA199000091GA1001+999999999GF100991001001999999001001KA1999N-00961MA1999999085591MD1710111-0101REMSYN076AAXX  08061 52533 32980 01601 10028 21144 38559 40282 57011 333 05103 21096;EQDQ01  00002PRCP99
0132525330999992000030809004+39770+098480FM-12+1478ZLJQ V0201101N002012200019N0300001N1+00511-01601102661ADDGA1001+999999999GF100991001001999999001001MD1710161+0001REMSYN064AAXX  08091 52533 42980 01102 10051 21160 40266 57016 333 00002;
0183525330999992000030812004+39770+098480FM-12+1478ZLJQ V0200701N002012200019N0300001N1+00141-01971102851ADDAA199000091GA1001+999999999GF100991001001999999001001MA1999999085491MD1210061+0001REMSYN070AAXX  08121 52533 32980 00702 10014 21197 38549 40285 52006 333 00001;EQDQ01  00002PRCP99
0122525330999992000030815004+39770+098480FM-12+1478ZLJQ V0202001N001012200019N0300001N1-00341-01701102781ADDGA1001+999999999GF100991001001999999001001MD1210021+9999REMSYN054AAXX  08151 52533 42980 02001 11034 21170 40278 52002;
0202525330999992000030818004+39770+098480FM-12+1478ZLJQ V0202201N002012200019N0300001N1-00481-01721102621ADDAA199000091GA1001+999999999GF100991001001999999001001KA1999M+00521MA1999999085441MD1710071-0101REMSYN076AAXX  08181 52533 32980 02202 11048 21172 38544 40262 57007 333 05101 10052;EQDQ01  00002PRCP99
0132525330999992000030821004+39770+098480FM-12+1478ZLJQ V0202201N002012200019N0300001N1-00571-01621102481ADDGA1001+999999999GF100991001001999999001001MD1710081+0011REMSYN064AAXX  08211 52533 42980 02202 11057 21162 40248 57008 333 05103;
0173525330999992000030900004+39770+098480FM-12+1478ZLJQ V0202201N003019999999N0300001N1-00601-01551102671ADDAA199000091GF106991001001999999001021MA1999999085411MD1210051+0021REMSYN076AAXX  09001 52533 32980 62203 11060 21155 38541 40267 52005 80002 333 05202;EQDQ01  00002PRCP99
0112525330999992000030903004+39770+098480FM-12+1478ZLJQ V0201101N002019999999N0300001N1+00261-01421102621ADDGF107991001001999999001021MD1210061+9999REMSYN060AAXX  09031 52533 42980 71102 10026 21142 40262 52006 80002;
0192525330999992000030906004+39770+098480FM-12+1478ZLJQ V0200201N002019999999N0200001N1+00601-01291102441ADDAA199000091GF107991001001999999001021KA1999N-00611MA1999999085381MD1710091-0201REMSYN082AAXX  09061 52533 32970 70202 10060 21129 38538 40244 57009 80002 333 05203 21061;EQDQ01  00002PRCP99
0122525330999992000030909004+39770+098480FM-12+1478ZLJQ V0201601N002019999999N0250001N1+00751-01721102351ADDGF106991001001999999001021MD1710061+0011REMSYN070AAXX  09091 52533 42975 61602 10075 21172 40235 57006 80002 333 05102;
0183525330999992000030912004+39770+098480FM-12+1478ZLJQ V0201101N003012200019N0200001N1+00391-01571102581ADDAA199000091GA1001+999999999GF100991001001999999001001MA1999999085401MD1210081+0011REMSYN070AAXX  09121 52533 32970 01103 10039 21157 38540 40258 52008 333 05103;EQDQ01  00002PRCP99
0122525330999992000030915004+39770+098480FM-12+1478ZLJQ V0202201N003012200019N0200001N1-00091-01841102511ADDGA1001+999999999GF100991001001999999001001MD1210051+9999REMSYN054AAXX  09151 52533 42970 02203 11009 21184 40251 52005;
0202525330999992000030918004+39770+098480FM-12+1478ZLJQ V0202201N003012200019N0200001N1-00191-01571102381ADDAA199000091GA1001+999999999GF100991001001999999001001KA1999M+00791MA1999999085411MD1710041+0001REMSYN076AAXX  09181 52533 32970 02203 11019 21157 38541 40238 57004 333 00003 10079;EQDQ01  00002PRCP99
0132525330999992000030921004+39770+098480FM-12+1478ZLJQ V0202501N003012200019N0200001N1-00381-01791102221ADDGA1001+999999999GF100991001001999999001001MD1710141+0011REMSYN064AAXX  09211 52533 42970 02503 11038 21179 40222 57014 333 05102;
0173525330999992000031000004+39770+098480FM-12+1478ZLJQ V0202201N003019999999N0300001N1-00501-01841102481ADDAA199000091GF107991001001999999001021MA1999999085351MD1210081+0011REMSYN076AAXX  10001 52533 32980 72203 11050 21184 38535 40248 52008 80002 333 05101;EQDQ01  00002PRCP99
0122525330999992000031003004+39770+098480FM-12+1478ZLJQ V0202001N002012200019N0300001N1+00561-01211102351ADDGA1001+999999999GF100991001001999999001001MD1210051+9999REMSYN054AAXX  10031 52533 42980 02002 10056 21121 40235 52005;
0202525330999992000031006004+39770+098480FM-12+1478ZLJQ V0203201N003012200019N0250001N1+00811-01961102071ADDAA199000091GA1001+999999999GF100991001001999999001001KA1999N-00631MA1999999085211MD1710191-0201REMSYN076AAXX  10061 52533 32975 03203 10081 21196 38521 40207 57019 333 05202 21063;EQDQ01  00002PRCP99
0132525330999992000031009004+39770+098480FM-12+1478ZLJQ V0201401N002012200019N0250001N1+00901-01701101941ADDGA1001+999999999GF100991001001999999001001MD1710141+0031REMSYN064AAXX  10091 52533 42975 01402 10090 21170 40194 57014 333 05302;
0183525330999992000031012004+39770+098480FM-12+1478ZLJQ V0201101N002012200019N0250001N1+00501-01551102181ADDAA199000091GA1001+999999999GF100991001001999999001001MA1999999085131MD1210061+0031REMSYN070AAXX  10121 52533 32975 01102 10050 21155 38513 40218 52006 333 05301;EQDQ01  00002PRCP99
0122525330999992000031015004+39770+098480FM-12+1478ZLJQ V0202201N003012200019N0250001N1-00051-01891101951ADDGA1001+999999999GF100991001001999999001001MD1710051+9999REMSYN054AAXX  10151 52533 42975 02203 11005 21189 40195 57005;
0202525330999992000031018004+39770+098480FM-12+1478ZLJQ V0202501N002012200019N0200001N1-00201-01651101731ADDAA199000091GA1001+999999999GF100991001001999999001001KA1999M+00981MA1999999084921MD1710161-0501REMSYN076AAXX  10181 52533 32970 02502 11020 21165 38492 40173 57016 333 05500 10098;EQDQ01  00002PRCP99
0132525330999992000031021004+39770+098480FM-12+1478ZLJQ V0202201N003012200019N0200001N1-00361-01661101631ADDGA1001+999999999GF100991001001999999001001MD1710101+0051REMSYN064AAXX  10211 52533 42970 02203 11036 21166 40163 57010 333 05500;
0183525330999992000031100004+39770+098480FM-12+1478ZLJQ V0202501N002012200019N0200001N1-00621-01781101841ADDAA199000091GA1001+999999999GF100991001001999999001001MA1999999084811MD1710011+0051REMSYN070AAXX  11001 52533 32970 02502 11062 21178 38481 40184 57001 333 05551;EQDQ01  00002PRCP99
0131525330999992000031103004+39770+098480FM-12+1478ZLJQ V0200401N002012200019N0200001N1+00552-01781101631ADDGF101991001001999999001021MD1410001+9999REMSYN060AAXX  11031 52533 42970 10402 10055 21178 40163 54000 80002;EQDQ01+000553ATOT  
0192525330999992000031106004+39770+098480FM-12+1478ZLJQ V0200201N003019999999N0300001N1+00901-02071101411ADDAA199000091GF107991001001999999001021KA1999N-00691MA1999999084681MD1710131-0501REMSYN082AAXX  11061 52533 32980 70203 10090 21207 38468 40141 57013 80002 333 05501 21069;EQDQ01  00002PRCP99
0122525330999992000031109004+39770+098480FM-12+1478ZLJQ V0200401N002019999999N0300001N1+01041-01871101311ADDGF107991011001999999041021MD1710091+0051REMSYN070AAXX  11091 52533 42980 70402 10104 21187 40131 57009 81042 333 05501;
0173525330999992000031112004+39770+098480FM-12+1478ZLJQ V0203401N002019999999N0300001N1+00661-01671101671ADDAA199000091GF107991011001999999041021MA1999999084721MD1210131+0041REMSYN076AAXX  11121 52533 32980 73402 10066 21167 38472 40167 52013 81042 333 05402;EQDQ01  00002PRCP99
0112525330999992000031115004+39770+098480FM-12+1478ZLJQ V0202901N003019999999N0300001N1+00161-01881101441ADDGF105991001001999999001021MD1710011+9999REMSYN060AAXX  11151 52533 42980 52903 10016 21188 40144 57001 80002;
0202525330999992000031118004+39770+098480FM-12+1478ZLJQ V0202701N004012200019N0300001N1+00081-01781101291ADDAA199000091GA1001+999999999GF100991001001999999001001KA1999M+01161MA1999999084661MD1710051-0301REMSYN076AAXX  11181 52533 32980 02704 10008 21178 38466 40129 57005 333 05303 10116;EQDQ01  00002PRCP99
0132525330999992000031121004+39770+098480FM-12+1478ZLJQ V0202701N006012200019N0300001N1+00161-01831101201ADDGA1001+999999999GF100991001001999999001001MD1710021+0021REMSYN064AAXX  11211 52533 42980 02706 10016 21183 40120 57002 333 05205;
0173525330999992000031200004+39770+098480FM-12+1478ZLJQ V0202201N004012200019N0300001N1-00161-02351101531ADDAA199000091GF101991011001999999041021MA1999999084731MD1210091+0011REMSYN076AAXX  12001 52533 32980 12204 11016 21235 38473 40153 52009 81042 333 05105;EQDQ01  00002PRCP99
0112525330999992000031203004+39770+098480FM-12+1478ZLJQ V0203201N004012200019N0300001N1+00701-01711101561ADDGF101991001001999999001021MD1210121+9999REMSYN060AAXX  12031 52533 42980 13204 10070 21171 40156 52012 80002;
0192525330999992000031206004+39770+098480FM-12+1478ZLJQ V0203201N004012200019N0200001N1+01061-01991101301ADDAA199000091GF104991001001999999001021KA1999N-00191MA1999999084711MD1710141+0001REMSYN082AAXX  12061 52533 32970 43204 10106 21199 38471 40130 57014 80002 333 00002 21019;EQDQ01  00002PRCP99
0122525330999992000031209004+39770+098480FM-12+1478ZLJQ V0203201N006019999999N0150001N1+01001-01841101241ADDGF105991001001999999001021MD1710051+0011REMSYN070AAXX  12091 52533 42965 53206 10100 21184 40124 57005 80002 333 00100;
0173525330999992000031212004+39770+098480FM-12+1478ZLJQ V0200901N002019999999N0300001N1+00611-01521101611ADDAA199000091GF107991001001999999001021MA1999999084781MD1210121+0011REMSYN076AAXX  12121 52533 32980 70902 10061 21152 38478 40161 52012 80002 333 00151;EQDQ01  00002PRCP99
0112525330999992000031215004+39770+098480FM-12+1478ZLJQ V0202501N002012200019N0300001N1+00081-01831101611ADDGF101991001001999999001021MD1210091+9999REMSYN060AAXX  12151 52533 42980 12502 10008 21183 40161 52009 80002;
0202525330999992000031218004+39770+098480FM-12+1478ZLJQ V0202201N004012200019N0300001N1-00031-02001101481ADDAA199000091GA1001+999999999GF100991001001999999001001KA1999M+01121MA1999999084831MD1710041+0201REMSYN076AAXX  12181 52533 32980 02204 11003 21200 38483 40148 57004 333 00251 10112;EQDQ01  00002PRCP99
0132525330999992000031221004+39770+098480FM-12+1478ZLJQ V0202901N004012200019N0300001N1-00251-01941101691ADDGA1001+999999999GF100991001001999999001001MD1210101+0031REMSYN064AAXX  12211 52533 42980 02904 11025 21194 40169 52010 333 00354;
0173525330999992000031300004+39770+098480FM-12+1478ZLJQ V0202501N001012200019N0300001N1-00521-01801102051ADDAA199000091GF101991001001999999001021MA1999999085051MD1210121+0031REMSYN076AAXX  13001 52533 32980 12501 11052 21180 38505 40205 52012 80002 333 00354;EQDQ01  00002PRCP99
0112525330999992000031303004+39770+098480FM-12+1478ZLJQ V0200901N004012200019N0300001N1+00351-01461102041ADDGF101991001001999999001021MD1210081+9999REMSYN060AAXX  13031 52533 42980 10904 10035 21146 40204 52008 80002;
0192525330999992000031306004+39770+098480FM-12+1478ZLJQ V0201101N004012200019N0300001N1+00681-01331101831ADDAA199000091GF101991001001999999001021KA1999N-00551MA1999999085021MD1710111+0301REMSYN082AAXX  13061 52533 32980 11104 10068 21133 38502 40183 57011 80002 333 00354 21055;EQDQ01  00002PRCP99
0122525330999992000031309004+39770+098480FM-12+1478ZLJQ V0200701N004012200019N0300001N1+00851-01621101691ADDGF101991001001999999001021MD1710131+0021REMSYN070AAXX  13091 52533 42980 10704 10085 21162 40169 57013 80002 333 00252;
0173525330999992000031312004+39770+098480FM-12+1478ZLJQ V0200901N002019999999N0300001N1+00581-01221102091ADDAA199000091GF107991021001999999041021MA1999999085071MD1210181+0031REMSYN076AAXX  13121 52533 32980 70902 10058 21122 38507 40209 52018 82042 333 00300;EQDQ01  00002PRCP99
0112525330999992000031315004+39770+098480FM-12+1478ZLJQ V0202201N002019999999N0300001N1+00291-01231102051ADDGF108991001001999999001071MD1210131+9999REMSYN060AAXX  13151 52533 42980 82202 10029 21123 40205 52013 80007;
0192525330999992000031318004+39770+098480FM-12+1478ZLJQ V0200701N002019999999N0300001N1+00051-01061101961ADDAA199000091GF108991001001999999001071KA1999M+00901MA1999999085151MD1710051+0301REMSYN082AAXX  13181 52533 32980 80702 10005 21106 38515 40196 57005 80007 333 00301 10090;EQDQ01  00002PRCP99
0122525330999992000031321004+39770+098480FM-12+1478ZLJQ V0202901N003019999999N0300001N1+00081-01381101921ADDGF108991001001999999001071MD1210021+0021REMSYN070AAXX  13211 52533 42980 82903 10008 21138 40192 52002 80007 333 00203;
0173525330999992000031400004+39770+098480FM-12+1478ZLJQ V0209999C000019999999N0300001N1-00301-01541102331ADDAA199000091GF107991001001999999001021MA1999999085331MD1210161+0031REMSYN076AAXX  14001 52533 32980 70000 11030 21154 38533 40233 52016 80002 333 00302;EQDQ01  00002PRCP99
0112525330999992000031403004+39770+098480FM-12+1478ZLJQ V0200401N002012200019N0300001N1+00281-01571102301ADDGF102991001001999999001021MD1210061+9999REMSYN060AAXX  14031 52533 42980 20402 10028 21157 40230 52006 80002;
0192525330999992000031406004+39770+098480FM-12+1478ZLJQ V0200401N004012200019N0300001N1+00751-01421102061ADDAA199000091GF101991001001999999001021KA1999N-00331MA1999999085251MD1710141+0201REMSYN082AAXX  14061 52533 32980 10404 10075 21142 38525 40206 57014 80002 333 00201 21033;EQDQ01  00002PRCP99
0122525330999992000031409004+39770+098480FM-12+1478ZLJQ V0203401N004019999999N0300001N1+00921-01551101911ADDGF106991001001999999001021MD1710071+0031REMSYN070AAXX  14091 52533 42980 63404 10092 21155 40191 57007 80002 333 00301;
0173525330999992000031412004+39770+098480FM-12+1478ZLJQ V0209999C000019999999N0300001N1+00691-00981102221ADDAA199000091GF107991001001999999001021MA1999999085271MD1210091+0021REMSYN076AAXX  14121 52533 32980 70000 10069 21098 38527 40222 52009 80002 333 00201;EQDQ01  00002PRCP99
0112525330999992000031415004+39770+098480FM-12+1478ZLJQ V0203401N002012200019N0300001N1+00491-01381102161ADDGF102991001001999999001021MD1210061+9999REMSYN060AAXX  14151 52533 42980 23402 10049 21138 40216 52006 80002;
0202525330999992000031418004+39770+098480FM-12+1478ZLJQ V0202901N002012200019N0300001N1-00061-01401102121ADDAA199000091GA1001+999999999GF100991001001999999001001KA1999M+01031MA1999999085271MD1710061+0101REMSYN076AAXX  14181 52533 32980 02902 11006 21140 38527 40212 57006 333 00151 10103;EQDQ01  00002PRCP99
0132525330999992000031421004+39770+098480FM-12+1478ZLJQ V0202501N002012200019N0300001N1-00261-01461102091ADDGA1001+999999999GF100991001001999999001001MD1710031+0011REMSYN064AAXX  14211 52533 42980 02502 11026 21146 40209 57003 333 00153;
0183525330999992000031500004+39770+098480FM-12+1478ZLJQ V0202701N003012200019N0300001N1-00391-01531102331ADDAA199000091GA1001+999999999GF100991001001999999001001MA1999999085341MD1210101+0001REMSYN070AAXX  15001 52533 32980 02703 11039 21153 38534 40233 52010 333 00051;EQDQ01  00002PRCP99
0112525330999992000031503004+39770+098480FM-12+1478ZLJQ V0200901N001012200019N0300001N1+00691-01201102091ADDGF101991001001999999001021MD1210041+9999REMSYN060AAXX  15031 52533 42980 10901 10069 21120 40209 52004 80002;
0192525330999992000031506004+39770+098480FM-12+1478ZLJQ V0203401N005019999999N0300001N1+00921-01101102031ADDAA199000091GF107991001001999999001021KA1999N-00441MA1999999085241MD1710141+0001REMSYN082AAXX  15061 52533 32980 73405 10092 21110 38524 40203 57014 80002 333 00002 21044;EQDQ01  00002PRCP99
0122525330999992000031509004+39770+098480FM-12+1478ZLJQ V0202901N004019999999N0300001N1+01021-01071101931ADDGF107991011001999999041021MD1710111+0011REMSYN070AAXX  15091 52533 42980 72904 10102 21107 40193 57011 81042 333 05101;
0173525330999992000031512004+39770+098480FM-12+1478ZLJQ V0203201N004019999999N0300001N1+00731-01341102161ADDAA199000091GF107991011001999999041021MA1999999085211MD1210081+0011REMSYN076AAXX  15121 52533 32980 73204 10073 21134 38521 40216 52008 81042 333 05100;EQDQ01  00002PRCP99
0122525330999992000031515004+39770+098480FM-12+1478ZLJQ V0202701N004012200019N0300001N1+00221-01511101991ADDGA1001+999999999GF100991001001999999001001MD1210011+9999REMSYN054AAXX  15151 52533 42980 02704 10022 21151 40199 52001;
0202525330999992000031518004+39770+098480FM-12+1478ZLJQ V0202701N003012200019N0300001N1+00101-01741101881ADDAA199000091GA1001+999999999GF100991001001999999001001KA1999M+01131MA1999999085161MD1710061-0101REMSYN076AAXX  15181 52533 32980 02703 10010 21174 38516 40188 57006 333 05102 10113;EQDQ01  00002PRCP99
0132525330999992000031521004+39770+098480FM-12+1478ZLJQ V0201101N001012200019N0300001N1-00361-01811101851ADDGA1001+999999999GF100991001001999999001001MD1710121+0021REMSYN064AAXX  15211 52533 42980 01101 11036 21181 40185 57012 333 05251;
0183525330999992000031600004+39770+098480FM-12+1478ZLJQ V0202501N002012200019N0300001N1-00441-01701101991ADDAA199000091GA1001+999999999GF100991001001999999001001MA1999999085051MD1210011+0031REMSYN070AAXX  16001 52533 32980 02502 11044 21170 38505 40199 52001 333 05351;EQDQ01  00002PRCP99
0131525330999992000031603004+39770+098480FM-12+1478ZLJQ V0202901N002012200019N0300001N1+00882-01691101781ADDGF102991001001999999001021MD1210051+9999REMSYN060AAXX  16031 52533 42980 22902 10088 21169 40178 52005 80002;EQDQ01+000883ATOT  
0192525330999992000031606004+39770+098480FM-12+1478ZLJQ V0200201N003019999999N0300001N1+01071-01961101511ADDAA199000091GF106991001001999999001021KA1999N-00561MA1999999084891MD1710211-0401REMSYN082AAXX  16061 52533 32980 60203 10107 21196 38489 40151 57021 80002 333 05402 21056;EQDQ01  00002PRCP99
0122525330999992000031609004+39770+098480FM-12+1478ZLJQ V0200901N003012200019N0300001N1+01151-01901101441ADDGF101991001001999999001021MD1710161+0041REMSYN070AAXX  16091 52533 42980 10903 10115 21190 40144 57016 80002 333 05401;
0173525330999992000031612004+39770+098480FM-12+1478ZLJQ V0201101N002012200019N0300001N1+00771-01411101651ADDAA199000091GF101991001001999999001021MA1999999084781MD1210051+0041REMSYN076AAXX  16121 52533 32980 11102 10077 21141 38478 40165 52005 80002 333 05400;EQDQ01  00002PRCP99
0122525330999992000031615004+39770+098480FM-12+1478ZLJQ V0202001N003012200019N0300001N1+00281-01701101441ADDGA1001+999999999GF100991001001999999001001MD1210051+9999REMSYN054AAXX  16151 52533 42980 02003 10028 21170 40144 52005;
0202525330999992000031618004+39770+098480FM-12+1478ZLJQ V0202501N003012200019N0300001N1+00061-01541101331ADDAA199000091GA1001+999999999GF100991001001999999001001KA1999M+01251MA1999999084731MD1710101-0401REMSYN076AAXX  16181 52533 32980 02503 10006 21154 38473 40133 57010 333 05400 10125;EQDQ01  00002PRCP99
0132525330999992000031621004+39770+098480FM-12+1478ZLJQ V0202201N003012200019N0300001N1-00071-01621101331ADDGA1001+999999999GF100991001001999999001001MD1710011+0031REMSYN064AAXX  16211 52533 42980 02203 11007 21162 40133 57001 333 05303;
0173525330999992000031700004+39770+098480FM-12+1478ZLJQ V0202201N003012200019N0300001N1-00011-01621101521ADDAA199000091GF101991001001999999001021MA1999999084771MD1210051+0031REMSYN076AAXX  17001 52533 32980 12203 11001 21162 38477 40152 52005 80002 333 05304;EQDQ01  00002PRCP99
0122525330999992000031703004+39770+098480FM-12+1478ZLJQ V0203201N003012200019N0300001N1+01041-01611101411ADDGA1001+999999999GF100991001001999999001001MD1210081+9999REMSYN054AAXX  17031 52533 42980 03203 10104 21161 40141 52008;
0202525330999992000031706004+39770+098480FM-12+1478ZLJQ V0200401N002012200019N0300001N1+01261-01541101271ADDAA199000091GA1001+999999999GF100991001001999999001001KA1999N-00231MA1999999084731MD1710121-0201REMSYN076AAXX  17061 52533 32980 00402 10126 21154 38473 40127 57012 333 05202 21023;EQDQ01  00002PRCP99
0122525330999992000031709004+39770+098480FM-12+1478ZLJQ V0200401N003012200019N0300001N1+01351-01701101171ADDGF101991001001999999001021MD1710091+0011REMSYN070AAXX  17091 52533 42980 10403 10135 21170 40117 57009 80002 333 05102;
0183525330999992000031712004+39770+098480FM-12+1478ZLJQ V0200401N002012200019N0300001N1+01001-01361101431ADDAA199000091GA1001+999999999GF100991001001999999001001MA1999999084761MD1210121+0001REMSYN070AAXX  17121 52533 32980 00402 10100 21136 38476 40143 52012 333 00002;EQDQ01  00002PRCP99
0122525330999992000031715004+39770+098480FM-12+1478ZLJQ V0202201N002012200019N0300001N1+00201-01481101501ADDGA1001+999999999GF100991001001999999001001MD1210141+9999REMSYN054AAXX  17151 52533 42980 02202 10020 21148 40150 52014;
0132525330999992000031721004+39770+098480FM-12+1478ZLJQ V0203601N002012200019N0300001N1-00331-01661101411ADDGA1001+999999999GF100991001001999999001001MD1710091+0011REMSYN064AAXX  17211 52533 42980 03602 11033 21166 40141 57009 333 00153;
0183525330999992000031800004+39770+098480FM-12+1478ZLJQ V0202701N002012200019N0300001N1-00561-01661101671ADDAA199000091GA1001+999999999GF100991001001999999001001MA1999999084831MD1210061+0011REMSYN070AAXX  18001 52533 32980 02702 11056 21166 38483 40167 52006 333 00155;EQDQ01  00002PRCP99
0112525330999992000031803004+39770+098480FM-12+1478ZLJQ V0201101N003012200019N0300001N1+00411-01501101691ADDGF101991001001999999001021MD1210061+9999REMSYN060AAXX  18031 52533 42980 11103 10041 21150 40169 52006 80002;
0192525330999992000031806004+39770+098480FM-12+1478ZLJQ V0200701N005019999999N0200001N1+00941-00491101271ADDAA199000091GF107991011001999999041021KA1999N-00591MA1999999084601MD1710291-0101REMSYN082AAXX  18061 52533 32970 70705 10094 21049 38460 40127 57029 81042 333 05153 21059;EQDQ01  00002PRCP99
0122525330999992000031809004+39770+098480FM-12+1478ZLJQ V0201101N002019999999N0120001N1+01251-00721101011ADDGF107991011001999999041021MD1710191+0021REMSYN070AAXX  18091 52533 42962 71102 10125 21072 40101 57019 81042 333 05251;
0185525330999992000031812004+39770+098480FM-12+1478ZLJQ V0203401N002019999999N0080001N1+01001-00661101211ADDAA199000091GF107991001001999999001021MA1999999084441MD1210031+0031MW1061REMSYN082AAXX  18121 52533 31958 73402 10100 21066 38444 40121 52003 70600 80002 333 05300;EQDQ01  00002PRCP99
0112525330999992000031815004+39770+098480FM-12+1478ZLJQ V0209999C000019999999N0120001N1+00681-00631101101ADDGF107991001001999999001021MD1210091+9999REMSYN060AAXX  18151 52533 42962 70000 10068 21063 40110 52009 80002;
0192525330999992000031818004+39770+098480FM-12+1478ZLJQ V0203201N001019999999N0120001N1+00371-00781101011ADDAA199000091GF108991001001999999001071KA1999M+01301MA1999999084511MD1710021-0401REMSYN082AAXX  18181 52533 32962 83201 10037 21078 38451 40101 57002 80007 333 05405 10130;EQDQ01  00002PRCP99
0122525330999992000031821004+39770+098480FM-12+1478ZLJQ V0202701N002019999999N0150001N1+00181-00881100981ADDGF108991001001999999001071MD1210011+0031REMSYN070AAXX  18211 52533 42965 82702 10018 21088 40098 52001 80007 333 05305;
0191525330999992000031900004+39770+098480FM-12+1478ZLJQ V0203201N006019999999N0150001N1+00051-01051101361ADDAA199000091GF108991001001999999001071IA2999-00309MA1999999084731MD1210211-0101REMSYN082AAXX  19001 52533 32965 83206 10005 21105 38473 40136 52021 80007 333 05106 31030;EQDQ01  00002PRCP99
0112525330999992000031903004+39770+098480FM-12+1478ZLJQ V0203401N007019999999N0150001N1+00261-01611101551ADDGF108991001001999999001071MD1210131+9999REMSYN060AAXX  19031 52533 42965 83407 10026 21161 40155 52013 80007;
0192525330999992000031906004+39770+098480FM-12+1478ZLJQ V0203401N007019999999N0200001N1+00601-01701101321ADDAA199000091GF108991001001999999001071KA1999N+00041MA1999999084681MD1710181+0101REMSYN082AAXX  19061 52533 32970 83407 10060 21170 38468 40132 57018 80007 333 00153 20004;EQDQ01  00002PRCP99
0122525330999992000031909004+39770+098480FM-12+1478ZLJQ V0203201N004019999999N0150001N1+00581-01601101461ADDGF108991001001999999001071MD1210061+0031REMSYN070AAXX  19091 52533 42965 83204 10058 21160 40146 52006 80007 333 00357;
0173525330999992000031912004+39770+098480FM-12+1478ZLJQ V0203201N003019999999N0150001N1+00541-01251101801ADDAA199000091GF108991021001999999041071MA1999999084981MD1210241+0051REMSYN076AAXX  19121 52533 32965 83203 10054 21125 38498 40180 52024 82047 333 00555;EQDQ01  00002PRCP99
0112525330999992000031915004+39770+098480FM-12+1478ZLJQ V0209999C000019999999N0200001N1+00081-01371101951ADDGF107991001001999999001021MD1210051+9999REMSYN060AAXX  19151 52533 42970 70000 10008 21137 40195 52005 80002;
0192525330999992000031918004+39770+098480FM-12+1478ZLJQ V0202201N002019999999N0200001N1-00031-01331101711ADDAA199000091GF106991001001999999001021KA1999M+00761MA1999999084901MD1710131+0401REMSYN082AAXX  19181 52533 32970 62202 11003 21133 38490 40171 57013 80002 333 00454 10076;EQDQ01  00002PRCP99
0122525330999992000031921004+39770+098480FM-12+1478ZLJQ V0202201N002012200019N0250001N1-00231-01281101721ADDGF104991001001999999001021MD1710061+0031REMSYN070AAXX  19211 52533 42975 42202 11023 21128 40172 57006 80002 333 00354;
0173525330999992000032000004+39770+098480FM-12+1478ZLJQ V0202201N002012200019N0300001N1-00231-01281101781ADDAA199000091GF101991001001999999001021MA1999999084881MD1210041+0021REMSYN076AAXX  20001 52533 32980 12202 11023 21128 38488 40178 52004 80002 333 00253;EQDQ01  00002PRCP99
0112525330999992000032003004+39770+098480FM-12+1478ZLJQ V0201101N003019999999N0250001N1+00601-01001101611ADDGF107991001001999999001021MD1710041+9999REMSYN060AAXX  20031 52533 42975 71103 10060 21100 40161 57004 80002;
0122525330999992000032005004+39770+098480FM-12+1478ZLJQ V0200401N002019999999N0300001N1+01161-01161101361ADDGF107991021001999999041021MD1710031+0001REMSYN070AAXX  20051 52533 42980 70402 10116 21116 40136 57003 82042 333 00006;
0192525330999992000032006004+39770+098480FM-12+1478ZLJQ V0200901N003019999999N0300001N1+01081-01021101361ADDAA199000091GF107991011001999999041021KA1999N-00371MA1999999084731MD1710111+0101REMSYN082AAXX  20061 52533 32980 70903 10108 21102 38473 40136 57011 81042 333 00105 21037;EQDQ01  00002PRCP99
0122525330999992000032009004+39770+098480FM-12+1478ZLJQ V0200401N002019999999N0300001N1+01161-01161101361ADDGF107991021001999999041021MD1710031+0001REMSYN070AAXX  20091 52533 42980 70402 10116 21116 40136 57003 82042 333 00006;
0173525330999992000032012004+39770+098480FM-12+1478ZLJQ V0200701N002019999999N0300001N1+00931-00951101421ADDAA199000091GF107991011001999999041021MA1999999084691MD1710011+0031REMSYN076AAXX  20121 52533 32980 70702 10093 21095 38469 40142 57001 81042 333 05304;EQDQ01  00002PRCP99
0112525330999992000032015004+39770+098480FM-12+1478ZLJQ V0202501N002012200019N0300001N1+00281-01191101431ADDGF102991001001999999001021MD1210061+9999REMSYN060AAXX  20151 52533 42980 22502 10028 21119 40143 52006 80002;
0192525330999992000032018004+39770+098480FM-12+1478ZLJQ V0202701N005012200019N0300001N1+00311-01351101401ADDAA199000091GF101991001001999999001021KA1999M+01271MA1999999084861MD1210111+0001REMSYN082AAXX  20181 52533 32980 12705 10031 21135 38486 40140 52011 80002 333 00003 10127;EQDQ01  00002PRCP99
0122525330999992000032021004+39770+098480FM-12+1478ZLJQ V0202501N003019999999N0300001N1+00351-01211101221ADDGF107991001001999999001021MD1710121+0011REMSYN070AAXX  20211 52533 42980 72503 10035 21121 40122 57012 80002 333 05106;
0173525330999992000032100004+39770+098480FM-12+1478ZLJQ V0203401N003019999999N0300001N1+00101-01451101621ADDAA199000091GF107991011001999999041021MA1999999084951MD1210211+0011REMSYN076AAXX  21001 52533 32980 73403 10010 21145 38495 40162 52021 81042 333 00103;EQDQ01  00002PRCP99
0147525330999992000032103004+39770+098480FM-12+1478ZLJQ V0203401N003019999999N0200001N1+00091-01581102482ADDGF107991001001999999001021MD1210532+9999REMSYN060AAXX  21031 52533 42970 73403 10009 21158 40248 52053 80002;EQDQ01+102483APOSLPQ02+000532APC3  
0192525330999992000032106004+39770+098480FM-12+1478ZLJQ V0203401N005019999999N0200001N1+00381-01371102321ADDAA199000091GF107991001001999999001021KA1999N-00171MA1999999085441MD1710041+0701REMSYN082AAXX  21061 52533 32970 73405 10038 21137 38544 40232 57004 80002 333 00757 21017;EQDQ01  00002PRCP99
0122525330999992000032109004+39770+098480FM-12+1478ZLJQ V0200201N002019999999N0200001N1+00441-01441102281ADDGF107991001001999999001021MD1710011+0071REMSYN070AAXX  21091 52533 42970 70202 10044 21144 40228 57001 80002 333 00757;
0173525330999992000032112004+39770+098480FM-12+1478ZLJQ V0203401N008019999999N0200001N1+00321-01351102861ADDAA199000091GF108991001001999999001071MA1999999085811MD1210381+0111REMSYN076AAXX  21121 52533 32970 83408 10032 21135 38581 40286 52038 80007 333 01156;EQDQ01  00002PRCP99
0124525330999992000032115004+39770+098480FM-12+1478ZLJQ V0203201N010019999999N0080001N1+00031-01691103411ADDGF108991021001999999041071MD1210381+9999MW1071REMSYN066AAXX  21151 52533 41958 83210 10003 21169 40341 52038 70700 82047;
0215525330999992000032118004+39770+098480FM-12+1478ZLJQ V0202901N007019999999N0120001N1-00191-01891103601ADDAA199000091GF108991001001999999001071KA1240M+00491MA1999999086371MD1210181+1501OA130601801REMSYN094AAXX  21181 52533 32962 82907 11019 21189 38637 40360 52018 80007 333 01555 10049 91118 91529;EQDQ01  00002PRCP99
0122525330999992000032121004+39770+098480FM-12+1478ZLJQ V0203601N001019999999N0150001N1-00361-01551103631ADDGF108991001001999999001071MD1710011+0161REMSYN070AAXX  21211 52533 42965 83601 11036 21155 40363 57001 80007 333 01657;
0173525330999992000032200004+39770+098480FM-12+1478ZLJQ V0200901N001019999999N0200001N1-00501-01571103861ADDAA199000091GF107991001001999999001021MA1999999086481MD1210121+0151REMSYN076AAXX  22001 52533 32970 70901 11050 21157 38648 40386 52012 80002 333 01556;EQDQ01  00002PRCP99
0122525330999992000032203004+39770+098480FM-12+1478ZLJQ V0201101N008012200019N0200001N1+00041-01521103861ADDGA1001+999999999GF100991001001999999001001MD1210071+9999REMSYN054AAXX  22031 52533 42970 01108 10004 21152 40386 52007;
0202525330999992000032206004+39770+098480FM-12+1478ZLJQ V0203401N005012200019N0200001N1+00381-01391103521ADDAA199000091GA1001+999999999GF100991001001999999001001KA1999N-00551MA1999999086301MD1710251+0901REMSYN076AAXX  22061 52533 32970 03405 10038 21139 38630 40352 57025 333 00900 21055;EQDQ01  00002PRCP99
0132525330999992000032209004+39770+098480FM-12+1478ZLJQ V0202901N003012200019N0200001N1+00681-01501103271ADDGA1001+999999999GF100991001001999999001001MD1710171+0071REMSYN064AAXX  22091 52533 42970 02903 10068 21150 40327 57017 333 00702;
0183525330999992000032212004+39770+098480FM-12+1478ZLJQ V0203201N006012200019N0200001N1+00351-02181103551ADDAA199000091GA1001+999999999GF100991001001999999001001MA1999999086231MD1210101+0041REMSYN070AAXX  22121 52533 32970 03206 10035 21218 38623 40355 52010 333 00400;EQDQ01  00002PRCP99
0122525330999992000032215004+39770+098480FM-12+1478ZLJQ V0202501N004012200019N0200001N1+00051-02181103611ADDGA1001+999999999GF100991001001999999001001MD1210121+9999REMSYN054AAXX  22151 52533 42970 02504 10005 21218 40361 52012;
0202525330999992000032218004+39770+098480FM-12+1478ZLJQ V0202501N003012200019N0300001N1-00081-02021103531ADDAA199000091GA1001+999999999GF100991001001999999001001KA1999M+00721MA1999999086341MD1710011+0001REMSYN076AAXX  22181 52533 32980 02503 11008 21202 38634 40353 57001 333 00001 10072;EQDQ01  00002PRCP99
0132525330999992000032221004+39770+098480FM-12+1478ZLJQ V0202201N003012200019N0300001N1-00411-02261103431ADDGA1001+999999999GF100991001001999999001001MD1710091+0011REMSYN064AAXX  22211 52533 42980 02203 11041 21226 40343 57009 333 05151;
0183525330999992000032300004+39770+098480FM-12+1478ZLJQ V0202201N002012200019N0300001N1-00541-02231103651ADDAA199000091GA1001+999999999GF100991001001999999001001MA1999999086301MD1210051+0021REMSYN070AAXX  23001 52533 32980 02202 11054 21223 38630 40365 52005 333 05200;EQDQ01  00002PRCP99
0122525330999992000032303004+39770+098480FM-12+1478ZLJQ V0201101N002012200019N0300001N1+00521-01261103331ADDGA1001+999999999GF100991001001999999001001MD1710051+9999REMSYN054AAXX  23031 52533 42980 01102 10052 21126 40333 57005;
0202525330999992000032306004+39770+098480FM-12+1478ZLJQ V0200201N003012200019N0300001N1+00791-02091103051ADDAA199000091GA1001+999999999GF100991001001999999001001KA1999N-00581MA1999999086051MD1710201-0301REMSYN076AAXX  23061 52533 32980 00203 10079 21209 38605 40305 57020 333 05304 21058;EQDQ01  00002PRCP99
0122525330999992000032309004+39770+098480FM-12+1478ZLJQ V0200901N002012200019N0300001N1+00861-02351102861ADDGF101991001001999999001021MD1710231+0031REMSYN070AAXX  23091 52533 42980 10902 10086 21235 40286 57023 80002 333 05302;
0173525330999992000032312004+39770+098480FM-12+1478ZLJQ V0209999C000012200019N0300001N1+00521-01252103001ADDAA199000091GF101991001001999999001021MA1999999085811MD1710011+0041REMSYN076AAXX  23121 52533 32980 10000 10052 21125 38581 40300 57001 80002 333 05402;EQDQ01  00002PRCP99
0122525330999992000032315004+39770+098480FM-12+1478ZLJQ V0202201N003012200019N0300001N1+00151-01781102811ADDGA1001+999999999GF100991001001999999001001MD1210031+9999REMSYN054AAXX  23151 52533 42980 02203 10015 21178 40281 52003;
0192525330999992000032318004+39770+098480FM-12+1478ZLJQ V0202901N004012200019N0300001N1+00111-01851102681ADDAA199000091GF101991001001999999001021KA1999M+01001MA1999999085801MD1710041-0501REMSYN082AAXX  23181 52533 32980 12904 10011 21185 38580 40268 57004 80002 333 05502 10100;EQDQ01  00002PRCP99
0122525330999992000032321004+39770+098480FM-12+1478ZLJQ V0202501N001019999999N0300001N1-00081-01911102691ADDGF107991001001999999001021MD1710031+0051REMSYN070AAXX  23211 52533 42980 72501 11008 21191 40269 57003 80002 333 05503;
0173525330999992000032400004+39770+098480FM-12+1478ZLJQ V0202201N002012200019N0300001N1-00101-02291102951ADDAA199000091GF102991001001999999001021MA1999999085891MD1210121+0041REMSYN076AAXX  24001 52533 32980 22202 11010 21229 38589 40295 52012 80002 333 05404;EQDQ01  00002PRCP99
0112525330999992000032403004+39770+098480FM-12+1478ZLJQ V0203401N003019999999N0300001N1+00731-01571102891ADDGF106991001001999999001021MD1210081+9999REMSYN060AAXX  24031 52533 42980 63403 10073 21157 40289 52008 80002;
0192525330999992000032406004+39770+098480FM-12+1478ZLJQ V0200201N003019999999N0300001N1+00901-01421102771ADDAA199000091GF107991001001999999001021KA1999N-00191MA1999999085901MD1710071-0201REMSYN082AAXX  24061 52533 32980 70203 10090 21142 38590 40277 57007 80002 333 05201 21019;EQDQ01  00002PRCP99
0122525330999992000032409004+39770+098480FM-12+1478ZLJQ V0203401N007019999999N0300001N1+01091-01481102701ADDGF107991001001999999001021MD1710061+0001REMSYN070AAXX  24091 52533 42980 73407 10109 21148 40270 57006 80002 333 00002;
0173525330999992000032412004+39770+098480FM-12+1478ZLJQ V0203201N003019999999N0300001N1+00791-01471103041ADDAA199000091GF107991001001999999001021MA1999999086041MD1210201+0021REMSYN076AAXX  24121 52533 32980 73203 10079 21147 38604 40304 52020 80002 333 00203;EQDQ01  00002PRCP99
0122525330999992000032415004+39770+098480FM-12+1478ZLJQ V0202701N004012200019N0300001N1+00441-01531103091ADDGA1001+999999999GF100991001001999999001001MD1210171+9999REMSYN054AAXX  24151 52533 42980 02704 10044 21153 40309 52017;
0202525330999992000032418004+39770+098480FM-12+1478ZLJQ V0209999C000012200019N0300001N1+00111-01461103141ADDAA199000091GA1001+999999999GF100991001001999999001001KA1999M+01191MA1999999086211MD1410001+0401REMSYN076AAXX  24181 52533 32980 00000 10011 21146 38621 40314 54000 333 00400 10119;EQDQ01  00002PRCP99
0132525330999992000032421004+39770+098480FM-12+1478ZLJQ V0202501N003012200019N0300001N1-00061-02381103121ADDGA1001+999999999GF100991001001999999001001MD1710011+0041REMSYN064AAXX  24211 52533 42980 02503 11006 21238 40312 57001 333 00400;
0183525330999992000032500004+39770+098480FM-12+1478ZLJQ V0202201N003012200019N0300001N1-00201-02011103401ADDAA199000091GA1001+999999999GF100991001001999999001001MA1999999086311MD1210111+0041REMSYN070AAXX  25001 52533 32980 02203 11020 21201 38631 40340 52011 333 00451;EQDQ01  00002PRCP99
0122525330999992000032503004+39770+098480FM-12+1478ZLJQ V0202901N003012200019N0300001N1+00831-01841103271ADDGA1001+999999999GF100991001001999999001001MD1210081+9999REMSYN054AAXX  25031 52533 42980 02903 10083 21184 40327 52008;
0202525330999992000032506004+39770+098480FM-12+1478ZLJQ V0203401N006012200019N0300001N1+01151-01991103051ADDAA199000091GA1001+999999999GF100991001001999999001001KA1999N-00271MA1999999086201MD1710191+0301REMSYN076AAXX  25061 52533 32980 03406 10115 21199 38620 40305 57019 333 00303 21027;EQDQ01  00002PRCP99
0132525330999992000032509004+39770+098480FM-12+1478ZLJQ V0203201N009012200019N0150001N1+01271-01951102801ADDGA1001+999999999GF100991001001999999001001MD1710221+0011REMSYN064AAXX  25091 52533 42965 03209 10127 21195 40280 57022 333 00102;
0183525330999992000032512004+39770+098480FM-12+1478ZLJQ V0203201N005012200019N0200001N1+00941-01971102951ADDAA199000091GA1001+999999999GF100991001001999999001001MA1999999085981MD1410001+0011REMSYN070AAXX  25121 52533 32970 03205 10094 21197 38598 40295 54000 333 05102;EQDQ01  00002PRCP99
0122525330999992000032515004+39770+098480FM-12+1478ZLJQ V0202701N004012200019N0200001N1+00601-01931102741ADDGA1001+999999999GF100991001001999999001001MD1210011+9999REMSYN054AAXX  25151 52533 42970 02704 10060 21193 40274 52001;
0192525330999992000032518004+39770+098480FM-12+1478ZLJQ V0202001N003012200019N0200001N1+00321-01961102521ADDAA199000091GF102991001001999999001021KA1999M+01351MA1999999085821MD1710171-0401REMSYN082AAXX  25181 52533 32970 22003 10032 21196 38582 40252 57017 80002 333 05402 10135;EQDQ01  00002PRCP99
0122525330999992000032521004+39770+098480FM-12+1478ZLJQ V0202201N003012200019N0200001N1-00071-01961102341ADDGF101991001001999999001021MD1710231+0061REMSYN070AAXX  25211 52533 42970 12203 11007 21196 40234 57023 80002 333 05600;
0173525330999992000032600004+39770+098480FM-12+1478ZLJQ V0202001N002019999999N0200001N1+00071-01971102291ADDAA199000091GF107991031001999999041021MA1999999085501MD1710091+0081REMSYN076AAXX  26001 52533 32970 72002 10007 21197 38550 40229 57009 83042 333 05803;EQDQ01  00002PRCP99
0112525330999992000032603004+39770+098480FM-12+1478ZLJQ V0200901N004019999999N0300001N1+00721-01131102191ADDGF107991041001999999031021MD1410001+9999REMSYN060AAXX  26031 52533 42980 70904 10072 21113 40219 54000 84032;
0192525330999992000032606004+39770+098480FM-12+1478ZLJQ V0201401N003019999999N0300001N1+01131-01731102001ADDAA199000091GF107991061001999999031021KA1999N-00151MA1999999085381MD1710121-0801REMSYN082AAXX  26061 52533 32980 71403 10113 21173 38538 40200 57012 86032 333 05800 21015;EQDQ01  00002PRCP99
0122525330999992000032609004+39770+098480FM-12+1478ZLJQ V0202901N008019999999N0110001N1+99999+99999101571ADDGF107991061001999999031021MD1710321+0091REMSYN070AAXX  26091 52533 42961 72908 10168 21456 40157 57032 86032 333 05904;
0216525330999992000032612004+39770+098480FM-12+1478ZLJQ V0203201N010019999999N0060001N1+99999+99999101781ADDAA199000091AY131061GF107991061001999999031021MA1999999085241MD1210181-0701MW1071OA130602001REMSYN094AAXX  26121 52533 31956 73210 10156 21590 38524 40178 52018 70730 86032 333 05706 91120 91532;EQDQ01  00002PRCP99
0112525330999992000032615004+39770+098480FM-12+1478ZLJQ V0202901N007012200019N0100001N1+01341-01241102011ADDGF102991001001999999001021MD1210311+9999REMSYN060AAXX  26151 52533 42960 22907 10134 21124 40201 52031 80002;
0192525330999992000032618004+39770+098480FM-12+1478ZLJQ V0209999C000012200019N0150001N1+00991-01361102131ADDAA199000091GF102991001001999999001021KA1999M+01751MA1999999085661MD1210111-0201REMSYN082AAXX  26181 52533 32965 20000 10099 21136 38566 40213 52011 80002 333 05207 10175;EQDQ01  00002PRCP99
0122525330999992000032621004+39770+098480FM-12+1478ZLJQ V0202201N003019999999N0200001N1+00431-01281102061ADDGF107991001001999999001021MD1710061+0001REMSYN070AAXX  26211 52533 42970 72203 10043 21128 40206 57006 80002 333 00005;
0173525330999992000032700004+39770+098480FM-12+1478ZLJQ V0202201N002019999999N0300001N1+00231-01561102221ADDAA199000091GF107991001001999999001021MA1999999085651MD1210051+0021REMSYN076AAXX  27001 52533 32980 72202 10023 21156 38565 40222 52005 80002 333 00202;EQDQ01  00002PRCP99
0112525330999992000032703004+39770+098480FM-12+1478ZLJQ V0201401N002019999999N0300001N1+01311-00761102081ADDGF106991001001999999001021MD1210111+9999REMSYN060AAXX  27031 52533 42980 61402 10131 21076 40208 52011 80002;
0192525330999992000032706004+39770+098480FM-12+1478ZLJQ V0200701N003019999999N0300001N1+01621-00751101861ADDAA199000091GF107991001001999999001021KA1999N+00201MA1999999085561MD1710201+0201REMSYN082AAXX  27061 52533 32980 70703 10162 21075 38556 40186 57020 80002 333 00205 20020;EQDQ01  00002PRCP99
0122525330999992000032709004+39770+098480FM-12+1478ZLJQ V0200701N001012200019N0300001N1+01801-00691101791ADDGF101991001001999999001021MD1710151+0041REMSYN070AAXX  27091 52533 42980 10701 10180 21069 40179 57015 80002 333 00401;
0173525330999992000032712004+39770+098480FM-12+1478ZLJQ V0200701N002012200019N0300001N1+01471-00331101961ADDAA199000091GF101991001001999999001021MA1999999085411MD1410001+0021REMSYN076AAXX  27121 52533 32980 10702 10147 21033 38541 40196 54000 80002 333 00251;EQDQ01  00002PRCP99
0122525330999992000032715004+39770+098480FM-12+1478ZLJQ V0202501N002012200019N0300001N1+00721-00651101871ADDGA1001+999999999GF100991001001999999001001MD1210011+9999REMSYN054AAXX  27151 52533 42980 02502 10072 21065 40187 52001;
0202525330999992000032718004+39770+098480FM-12+1478ZLJQ V0202201N002012200019N0300001N1+00541-00801101661ADDAA199000091GA1001+999999999GF100991001001999999001001KA1999M+01871MA1999999085281MD1710141-0401REMSYN076AAXX  27181 52533 32980 02202 10054 21080 38528 40166 57014 333 05455 10187;EQDQ01  00002PRCP99
0132525330999992000032721004+39770+098480FM-12+1478ZLJQ V0202201N001012200019N0300001N1+00181-00681101631ADDGA1001+999999999GF100991001001999999001001MD1710071+0041REMSYN064AAXX  27211 52533 42980 02201 10018 21068 40163 57007 333 05453;
0183525330999992000032800004+39770+098480FM-12+1478ZLJQ V0202201N002012200019N0300001N1+00001-00871101881ADDAA199000091GA1001+999999999GF100991001001999999001001MA1999999085281MD1210071+0041REMSYN070AAXX  28001 52533 32980 02202 10000 21087 38528 40188 52007 333 05452;EQDQ01  00002PRCP99
0141525330999992000032803004+39770+098480FM-12+1478ZLJQ V0200901N003012200019N0300001N1+01122-00611101831ADDGA1001+999999999GF100991001001999999001001MD1210061+9999REMSYN054AAXX  28031 52533 42980 00903 10112 21061 40183 52006;EQDQ01+001123ATOT  
0202525330999992000032806004+39770+098480FM-12+1478ZLJQ V0200901N003012200019N0300001N1+01701-00591101491ADDAA199000091GA1001+999999999GF100991001001999999001001KA1999N-00041MA1999999085161MD1710181-0401REMSYN076AAXX  28061 52533 32980 00903 10170 21059 38516 40149 57018 333 05401 21004;EQDQ01  00002PRCP99
0132525330999992000032809004+39770+098480FM-12+1478ZLJQ V0200701N003012200019N0300001N1+02021-00751101341ADDGA1001+999999999GF100991001001999999001001MD1710141+0041REMSYN064AAXX  28091 52533 42980 00703 10202 21075 40134 57014 333 05402;
0183525330999992000032812004+39770+098480FM-12+1478ZLJQ V0200701N002012200019N0300001N1+01781-00681101521ADDAA199000091GA1001+999999999GF100991001001999999001001MA1999999085061MD1210041+0041REMSYN070AAXX  28121 52533 32980 00702 10178 21068 38506 40152 52004 333 05403;EQDQ01  00002PRCP99
0122525330999992000032815004+39770+098480FM-12+1478ZLJQ V0202201N002012200019N0300001N1+01021-00681101541ADDGA1001+999999999GF100991001001999999001001MD1210111+9999REMSYN054AAXX  28151 52533 42980 02202 10102 21068 40154 52011;
0202525330999992000032818004+39770+098480FM-12+1478ZLJQ V0202501N002012200019N0300001N1+00591-00841101411ADDAA199000091GA1001+999999999GF100991001001999999001001KA1999M+02071MA1999999085101MD1710071-0201REMSYN076AAXX  28181 52533 32980 02502 10059 21084 38510 40141 57007 333 05201 10207;EQDQ01  00002PRCP99
0132525330999992000032821004+39770+098480FM-12+1478ZLJQ V0202501N001012200019N0300001N1+00351-00961101291ADDGA1001+999999999GF100991001001999999001001MD1710081+0021REMSYN064AAXX  28211 52533 42980 02501 10035 21096 40129 57008 333 05202;
0183525330999992000032900004+39770+098480FM-12+1478ZLJQ V0202701N002012200019N0300001N1+00311-00891101531ADDAA199000091GA1001+999999999GF100991001001999999001001MA1999999085151MD1210131+0011REMSYN070AAXX  29001 52533 32980 02702 10031 21089 38515 40153 52013 333 05103;EQDQ01  00002PRCP99
0122525330999992000032903004+39770+098480FM-12+1478ZLJQ V0200401N002012200019N0300001N1+01131-00081101641ADDGA1001+999999999GF100991001001999999001001MD1210111+9999REMSYN054AAXX  29031 52533 42980 00402 10113 21008 40164 52011;
0192525330999992000032906004+39770+098480FM-12+1478ZLJQ V0200701N003012200019N0300001N1+01521-00461101461ADDAA199000091GF102991001001999999001021KA1999N+00201MA1999999085101MD1710161-0101REMSYN082AAXX  29061 52533 32980 20703 10152 21046 38510 40146 57016 80002 333 05152 20020;EQDQ01  00002PRCP99
0122525330999992000032909004+39770+098480FM-12+1478ZLJQ V0201401N003019999999N0300001N1+01801-00361101311ADDGF107991001001999999001021MD1710121+0001REMSYN070AAXX  29091 52533 42980 71403 10180 21036 40131 57012 80002 333 00052;
0173525330999992000032912004+39770+098480FM-12+1478ZLJQ V0209999C000019999999N0300001N1+01611-00101101341ADDAA199000091GF107991011001999999041021MA1999999084951MD1710031+0011REMSYN076AAXX  29121 52533 32980 70000 10161 21010 38495 40134 57003 81042 333 05152;EQDQ01  00002PRCP99
0112525330999992000032915004+39770+098480FM-12+1478ZLJQ V0202501N002012200019N0300001N1+00921-00311101601ADDGF101991001001999999001021MD1210251+9999REMSYN060AAXX  29151 52533 42980 12502 10092 21031 40160 52025 80002;
0192525330999992000032918004+39770+098480FM-12+1478ZLJQ V0203201N002019999999N0300001N1+00551-00361101501ADDAA199000091GF106991001001999999001021KA1999M+01871MA1999999085121MD1710081+0001REMSYN082AAXX  29181 52533 32980 63202 10055 21036 38512 40150 57008 80002 333 00000 10187;EQDQ01  00002PRCP99
0132525330999992000032921004+39770+098480FM-12+1478ZLJQ V0203201N001012200019N0300001N1+00201-00501101361ADDGA1001+999999999GF100991001001999999001001MD1710131+0001REMSYN064AAXX  29211 52533 42980 03201 10020 21050 40136 57013 333 00052;
0173525330999992000033000004+39770+098480FM-12+1478ZLJQ V0202501N002012200019N0300001N1+00221-00911101601ADDAA199000091GF101991011001999999041021MA1999999085141MD1210151+0001REMSYN076AAXX  30001 52533 32980 12502 10022 21091 38514 40160 52015 81042 333 00051;EQDQ01  00002PRCP99
0112525330999992000033003004+39770+098480FM-12+1478ZLJQ V0200201N001012200019N0300001N1+01001-00811101531ADDGF101991001001999999001021MD1710031+9999REMSYN060AAXX  30031 52533 42980 10201 10100 21081 40153 57003 80002;
0192525330999992000033006004+39770+098480FM-12+1478ZLJQ V0201101N003019999999N0300001N1+01341-00461101411ADDAA199000091GF107991001001999999001021KA1999N+00111MA1999999085001MD1710111-0101REMSYN082AAXX  30061 52533 32980 71103 10134 21046 38500 40141 57011 80002 333 05152 20011;EQDQ01  00002PRCP99
0122525330999992000033009004+39770+098480FM-12+1478ZLJQ V0200701N003019999999N0300001N1+01541-00231101241ADDGF107991001001999999001021MD1710181+0021REMSYN070AAXX  30091 52533 42980 70703 10154 21023 40124 57018 80002 333 05253;
0173525330999992000033012004+39770+098480FM-12+1478ZLJQ V0200401N002019999999N0300001N1+01301-00261101251ADDAA199000091GF107991001001999999001021MA1999999084771MD1710051+0021REMSYN076AAXX  30121 52533 32980 70402 10130 21026 38477 40125 57005 80002 333 05253;EQDQ01  00002PRCP99
0112525330999992000033015004+39770+098480FM-12+1478ZLJQ V0202001N002012200019N0300001N1+00801-00291101281ADDGF101991001001999999001021MD1210101+9999REMSYN060AAXX  30151 52533 42980 12002 10080 21029 40128 52010 80002;
0202525330999992000033018004+39770+098480FM-12+1478ZLJQ V0209999C000012200019N0300001N1+00411-00491101141ADDAA199000091GA1001+999999999GF100991001001999999001001KA1999M+01591MA1999999084741MD1710131-0401REMSYN076AAXX  30181 52533 32980 00000 10041 21049 38474 40114 57013 333 05451 10159;EQDQ01  00002PRCP99
0132525330999992000033021004+39770+098480FM-12+1478ZLJQ V0202501N002012200019N0300001N1+00191-00551101021ADDGA1001+999999999GF100991001001999999001001MD1710111+0041REMSYN064AAXX  30211 52533 42980 02502 10019 21055 40102 57011 333 05400;
0191525330999992000033100004+39770+098480FM-12+1478ZLJQ V0209999C000019999999N0300001N1+00251-00541101281ADDAA199000091GF107991021001999999041021IA2999-00409MA1999999084801MD1210171-0301REMSYN082AAXX  31001 52533 32980 70000 10025 21054 38480 40128 52017 82042 333 05300 31040;EQDQ01  00002PRCP99
0112525330999992000033103004+39770+098480FM-12+1478ZLJQ V0200401N002019999999N0300001N1+01041-00681101411ADDGF107991021001999999041021MD1210191+9999REMSYN060AAXX  31031 52533 42980 70402 10104 21068 40141 52019 82042;
0192525330999992000033106004+39770+098480FM-12+1478ZLJQ V0200701N002012200019N0300001N1+01511-00401101251ADDAA199000091GF102991001001999999001021KA1999N+00171MA1999999084871MD1710121-0101REMSYN082AAXX  31061 52533 32980 20702 10151 21040 38487 40125 57012 80002 333 05102 20017;EQDQ01  00002PRCP99
0173525330999992000033112004+39770+098480FM-12+1478ZLJQ V0209999C000019999999N0300001N1+01431-00211101421ADDAA199000091GF107991021001999999041021MA1999999084951MD1210231+0021REMSYN076AAXX  31121 52533 32980 70000 10143 21021 38495 40142 52023 82042 333 00201;EQDQ01  00002PRCP99
0112525330999992000033115004+39770+098480FM-12+1478ZLJQ V0203401N001019999999N0300001N1+00981-00851101541ADDGF105991001001999999001021MD1210191+9999REMSYN060AAXX  31151 52533 42980 53401 10098 21085 40154 52019 80002;
0192525330999992000033118004+39770+098480FM-12+1478ZLJQ V0202201N002019999999N0300001N1+00591-00891101571ADDAA199000091GF107991001001999999001021KA1999M+01721MA1999999085191MD1210051+0501REMSYN082AAXX  31181 52533 32980 72202 10059 21089 38519 40157 52005 80002 333 00502 10172;EQDQ01  00002PRCP99
0122525330999992000033121004+39770+098480FM-12+1478ZLJQ V0202501N002019999999N0300001N1+00401-00701101601ADDGF108991001001999999001071MD1210011+0061REMSYN070AAXX  31211 52533 42980 82502 10040 21070 40160 52001 80007 333 00602;
0191525330999992000040100004+39770+098480FM-12+1478ZLJQ V0202501N002019999999N0300001N1+00381-00821101911ADDAA199000091GF107991051001999999031021IA2999-00309MA1999999085401MD1210201+0601REMSYN082AAXX  01001 52533 32980 72502 10038 21082 38540 40191 52020 85032 333 00601 31037;EQDQ01  00002PRCP99
0112525330999992000040103004+39770+098480FM-12+1478ZLJQ V0200201N002019999999N0300001N1+00991-00881101891ADDGF107991011001999999041021MD1210021+9999REMSYN060AAXX  01031 52533 42980 70202 10099 21088 40189 52002 81042;
0192525330999992000040106004+39770+098480FM-12+1478ZLJQ V0209999C000019999999N0300001N1+01301-00721101711ADDAA199000091GF107991011001999999041021KA1999N+00271MA1999999085251MD1710171+0401REMSYN082AAXX  01061 52533 32980 70000 10130 21072 38525 40171 57017 81042 333 00452 20027;EQDQ01  00002PRCP99
0122525330999992000040109004+39770+098480FM-12+1478ZLJQ V0203601N002019999999N0300001N1+01551-00531101561ADDGF106991001001999999001021MD1710111+0041REMSYN070AAXX  01091 52533 42980 63602 10155 21053 40156 57011 80002 333 00451;
0173525330999992000040112004+39770+098480FM-12+1478ZLJQ V0209999C000019999999N0300001N1+01301-00311101811ADDAA199000091GF107991011001999999041021MA1999999085281MD1210141+0031REMSYN076AAXX  01121 52533 32980 70000 10130 21031 38528 40181 52014 81042 333 00351;EQDQ01  00002PRCP99
0112525330999992000040115004+39770+098480FM-12+1478ZLJQ V0202001N002019999999N0300001N1+01061-00441101841ADDGF105991011001999999041021MD1210121+9999REMSYN060AAXX  01151 52533 42980 52002 10106 21044 40184 52012 81042;
0192525330999992000040118004+39770+098480FM-12+1478ZLJQ V0202701N004019999999N0300001N1+00901-00491101831ADDAA199000091GF107991011001999999041021KA1999M+01651MA1999999085431MD1210031+0201REMSYN082AAXX  01181 52533 32980 72704 10090 21049 38543 40183 52003 81042 333 00203 10165;EQDQ01  00002PRCP99
0122525330999992000040121004+39770+098480FM-12+1478ZLJQ V0202701N003019999999N0300001N1+00621-00741101971ADDGF106991001001999999001021MD1210111+0031REMSYN070AAXX  01211 52533 42980 62703 10062 21074 40197 52011 80002 333 00302;
0191525330999992000040200004+39770+098480FM-12+1478ZLJQ V0209999C000019999999N0300001N1+00461-00861102261ADDAA199000091GF107991011001999999041021IA2999-00309MA1999999085681MD1210141+0301REMSYN082AAXX  02001 52533 32980 70000 10046 21086 38568 40226 52014 81042 333 00301 31033;EQDQ01  00002PRCP99
0112525330999992000040203004+39770+098480FM-12+1478ZLJQ V0203401N005019999999N0300001N1+01381-00951102091ADDGF107991001001999999001021MD1210031+9999REMSYN060AAXX  02031 52533 42980 73405 10138 21095 40209 52003 80002;
0192525330999992000040206004+39770+098480FM-12+1478ZLJQ V0202901N003019999999N0300001N1+01571-00881101931ADDAA199000091GF107991001001999999001021KA1999N+00401MA1999999085591MD1710121+0301REMSYN082AAXX  02061 52533 32980 72903 10157 21088 38559 40193 57012 80002 333 00303 20040;EQDQ01  00002PRCP99
0122525330999992000040209004+39770+098480FM-12+1478ZLJQ V0203201N006019999999N0300001N1+01811-00821101701ADDGF107991001001999999001021MD1710211+0021REMSYN070AAXX  02091 52533 42980 73206 10181 21082 40170 57021 80002 333 00203;
0173525330999992000040212004+39770+098480FM-12+1478ZLJQ V0203201N004019999999N0300001N1+01481-00841101921ADDAA199000091GF107991001001999999001021MA1999999085441MD1210061+0021REMSYN076AAXX  02121 52533 32980 73204 10148 21084 38544 40192 52006 80002 333 00202;EQDQ01  00002PRCP99
0122525330999992000040215004+39770+098480FM-12+1478ZLJQ V0202701N005012200019N0300001N1+01041-00831101881ADDGA1001+999999999GF100991001001999999001001MD1210091+9999REMSYN054AAXX  02151 52533 42980 02705 10104 21083 40188 52009;
0192525330999992000040218004+39770+098480FM-12+1478ZLJQ V0202701N001019999999N0300001N1+00741-00881101881ADDAA199000091GF105991001001999999001021KA1999M+01821MA1999999085501MD1710031+0101REMSYN082AAXX  02181 52533 32980 52701 10074 21088 38550 40188 57003 80002 333 00152 10182;EQDQ01  00002PRCP99
0132525330999992000040221004+39770+098480FM-12+1478ZLJQ V0202701N001012200019N0300001N1+00531-00861101821ADDGA1001+999999999GF100991001001999999001001MD1710041+0011REMSYN064AAXX  02211 52533 42980 02701 10053 21086 40182 57004 333 05151;
0191525330999992000040300004+39770+098480FM-12+1478ZLJQ V0202201N002019999999N0300001N1+00361-00681102081ADDAA199000091GF107991011001999999041021IA2999-00409MA1999999085551MD1210091-0101REMSYN082AAXX  03001 52533 32980 72202 10036 21068 38555 40208 52009 81042 333 05151 31046;EQDQ01  00002PRCP99
0112525330999992000040303004+39770+098480FM-12+1478ZLJQ V0200401N002019999999N0300001N1+00921-00541102071ADDGF107991011001999999041021MD1210021+9999REMSYN060AAXX  03031 52533 42980 70402 10092 21054 40207 52002 81042;
0192525330999992000040306004+39770+098480FM-12+1478ZLJQ V0203601N003019999999N0300001N1+01231-00561101901ADDAA199000091GF107991011001999999041021KA1999N+00301MA1999999085431MD1710141-0201REMSYN082AAXX  03061 52533 32980 73603 10123 21056 38543 40190 57014 81042 333 05253 20030;EQDQ01  00002PRCP99
0122525330999992000040309004+39770+098480FM-12+1478ZLJQ V0203601N003019999999N0300001N1+01321-00551101731ADDGF107991031001999999041021MD1710171+0011REMSYN070AAXX  03091 52533 42980 73603 10132 21055 40173 57017 83042 333 05155;
0173525330999992000040312004+39770+098480FM-12+1478ZLJQ V0203401N002010360019N0300001N1+01201-00541101961ADDAA199000091GF107991011041017501041021MA1999999085371MD1210111+0011REMSYN076AAXX  03121 52533 32780 73402 10120 21054 38537 40196 52011 81442 333 05153;EQDQ01  00002PRCP99
0112525330999992000040315004+39770+098480FM-12+1478ZLJQ V0203401N003019999999N0300001N1+01001-00361101961ADDGF107991021001999999041021MD1210101+9999REMSYN060AAXX  03151 52533 42980 73403 10100 21036 40196 52010 82042;
0192525330999992000040318004+39770+098480FM-12+1478ZLJQ V0201801N002019999999N0300001N1+00781-00631101921ADDAA199000091GF106991011001999999041021KA1999M+01461MA1999999085461MD1710011+0001REMSYN082AAXX  03181 52533 32980 61802 10078 21063 38546 40192 57001 81042 333 00000 10146;EQDQ01  00002PRCP99
0122525330999992000040321004+39770+098480FM-12+1478ZLJQ V0202701N002012200019N0300001N1+00431-00821101961ADDGF101991001001999999001021MD1710041+0001REMSYN070AAXX  03211 52533 42980 12702 10043 21082 40196 57004 80002 333 00051;
0173525330999992000040400004+39770+098480FM-12+1478ZLJQ V0200401N003019999999N0300001N1+00131-00681102321ADDAA199000091GF107991011001999999041021MA1999999085611MD1210191+0011REMSYN076AAXX  04001 52533 32980 70403 10013 21068 38561 40232 52019 81042 333 00152;EQDQ01  00002PRCP99
0112525330999992000040403004+39770+098480FM-12+1478ZLJQ V0200401N004019999999N0300001N1+00521-01141102501ADDGF107991021001999999041021MD1210201+9999REMSYN060AAXX  04031 52533 42980 70404 10052 21114 40250 52020 82042;
0192525330999992000040406004+39770+098480FM-12+1478ZLJQ V0200901N003019999999N0200001N1+01061-00881102291ADDAA199000091GF107991001001999999001021KA1999N+00081MA1999999085721MD1710091+0301REMSYN082AAXX  04061 52533 32970 70903 10106 21088 38572 40229 57009 80002 333 00352 20008;EQDQ01  00002PRCP99
0122525330999992000040409004+39770+098480FM-12+1478ZLJQ V0200901N004019999999N0200001N1+01251-00841102151ADDGF107991001001999999001021MD1710161+0031REMSYN070AAXX  04091 52533 42970 70904 10125 21084 40215 57016 80002 333 00351;
0173525330999992000040412004+39770+098480FM-12+1478ZLJQ V0200401N005019999999N0200001N1+01021-01271102341ADDAA199000091GF107991001001999999001021MA1999999085581MD1210021+0021REMSYN076AAXX  04121 52533 32970 70405 10102 21127 38558 40234 52002 80002 333 00252;EQDQ01  00002PRCP99
0112525330999992000040415004+39770+098480FM-12+1478ZLJQ V0201601N002012200019N0200001N1+00571-01141102541ADDGF101991001001999999001021MD1210151+9999REMSYN060AAXX  04151 52533 42970 11602 10057 21114 40254 52015 80002;
0202525330999992000040418004+39770+098480FM-12+1478ZLJQ V0202901N002012200019N0200001N1+00201-01251102281ADDAA199000091GA1001+999999999GF100991001001999999001001KA1999M+01341MA1999999085561MD1710171+0101REMSYN076AAXX  04181 52533 32970 02902 10020 21125 38556 40228 57017 333 00156 10134;EQDQ01  00002PRCP99
0132525330999992000040421004+39770+098480FM-12+1478ZLJQ V0202701N002012200019N0200001N1-00031-01401102111ADDGA1001+999999999GF100991001001999999001001MD1710151+0001REMSYN064AAXX  04211 52533 42970 02702 11003 21140 40211 57015 333 00055;
0183525330999992000040500004+39770+098480FM-12+1478ZLJQ V0202201N002012200019N0200001N1-00101-01371102211ADDAA199000091GA1001+999999999GF100991001001999999001001MA1999999085411MD1410001+0021REMSYN070AAXX  05001 52533 32970 02202 11010 21137 38541 40221 54000 333 05252;EQDQ01  00002PRCP99
0122525330999992000040503004+39770+098480FM-12+1478ZLJQ V0200401N003012200019N0200001N1+00771-01511102111ADDGA1001+999999999GF100991001001999999001001MD1210031+9999REMSYN054AAXX  05031 52533 42970 00403 10077 21151 40211 52003;
0202525330999992000040506004+39770+098480FM-12+1478ZLJQ V0201401N004012200019N0200001N1+01261-01211101871ADDAA199000091GA1001+999999999GF100991001001999999001001KA1999N-00141MA1999999085271MD1710171-0501REMSYN076AAXX  05061 52533 32970 01404 10126 21121 38527 40187 57017 333 05502 21014;EQDQ01  00002PRCP99
0132525330999992000040509004+39770+098480FM-12+1478ZLJQ V0203601N003012200019N0200001N1+01501-01251101721ADDGA1001+999999999GF100991001001999999001001MD1710121+0041REMSYN064AAXX  05091 52533 42970 03603 10150 21125 40172 57012 333 05403;
0173525330999992000040512004+39770+098480FM-12+1478ZLJQ V0203401N002012200019N0200001N1+01251-01171101921ADDAA199000091GF101991001001999999001021MA1999999085231MD1210081+0041REMSYN076AAXX  05121 52533 32970 13402 10125 21117 38523 40192 52008 80002 333 05402;EQDQ01  00002PRCP99
0122525330999992000040515004+39770+098480FM-12+1478ZLJQ V0202201N003012200019N0200001N1+00681-01281102051ADDGA1001+999999999GF100991001001999999001001MD1210191+9999REMSYN054AAXX  05151 52533 42970 02203 10068 21128 40205 52019;
0202525330999992000040518004+39770+098480FM-12+1478ZLJQ V0202701N003012200019N0200001N1+00261-01241102091ADDAA199000091GA1001+999999999GF100991001001999999001001KA1999M+01531MA1999999085471MD1210051-0101REMSYN076AAXX  05181 52533 32970 02703 10026 21124 38547 40209 52005 333 05101 10153;EQDQ01  00002PRCP99
0122525330999992000040521004+39770+098480FM-12+1478ZLJQ V0202201N003012200019N0300001N1+00221-01511101951ADDGF101991001001999999001021MD1710061+0001REMSYN070AAXX  05211 52533 42980 12203 10022 21151 40195 57006 80002 333 00003;
0183525330999992000040600004+39770+098480FM-12+1478ZLJQ V0202201N002012200019N0300001N1+00091-01261102211ADDAA199000091GA1001+999999999GF100991001001999999001001MA1999999085521MD1210111+0011REMSYN070AAXX  06001 52533 32980 02202 10009 21126 38552 40221 52011 333 00102;EQDQ01  00002PRCP99
0122525330999992000040603004+39770+098480FM-12+1478ZLJQ V0200701N003012200019N0300001N1+01001-01541102151ADDGA1001+999999999GF100991001001999999001001MD1210041+9999REMSYN054AAXX  06031 52533 42980 00703 10100 21154 40215 52004;
0202525330999992000040606004+39770+098480FM-12+1478ZLJQ V0200901N005012200019N0300001N1+01381-01621101931ADDAA199000091GA1001+999999999GF100991001001999999001001KA1999N-00011MA1999999085371MD1710191+0101REMSYN076AAXX  06061 52533 32980 00905 10138 21162 38537 40193 57019 333 00101 21001;EQDQ01  00002PRCP99
0132525330999992000040609004+39770+098480FM-12+1478ZLJQ V0200401N004012200019N0300001N1+01541-01751101681ADDGA1001+999999999GF100991001001999999001001MD1710181+0001REMSYN064AAXX  06091 52533 42980 00404 10154 21175 40168 57018 333 00000;
0173525330999992000040612004+39770+098480FM-12+1478ZLJQ V0200701N002019999999N0300001N1+01291-01121101851ADDAA199000091GF107991011001999999041021MA1999999085231MD1210041+0001REMSYN076AAXX  06121 52533 32980 70702 10129 21112 38523 40185 52004 81042 333 00000;EQDQ01  00002PRCP99
0122525330999992000040615004+39770+098480FM-12+1478ZLJQ V0202201N002012200019N0300001N1+00761-01201101831ADDGA1001+999999999GF100991001001999999001001MD1210091+9999REMSYN054AAXX  06151 52533 42980 02202 10076 21120 40183 52009;
0202525330999992000040618004+39770+098480FM-12+1478ZLJQ V0202201N002012200019N0300001N1+00331-01091101741ADDAA199000091GA1001+999999999GF100991001001999999001001KA1999M+01571MA1999999085231MD1710091-0201REMSYN076AAXX  06181 52533 32980 02202 10033 21109 38523 40174 57009 333 05201 10157;EQDQ01  00002PRCP99
0132525330999992000040621004+39770+098480FM-12+1478ZLJQ V0202201N002012200019N0300001N1+00141-01371101611ADDGA1001+999999999GF100991001001999999001001MD1710121+0031REMSYN064AAXX  06211 52533 42980 02202 10014 21137 40161 57012 333 05351;
0183525330999992000040700004+39770+098480FM-12+1478ZLJQ V0202201N003012200019N0300001N1+00131-01391101671ADDAA199000091GA1001+999999999GF100991001001999999001001MA1999999085091MD1710021+0041REMSYN070AAXX  07001 52533 32980 02203 10013 21139 38509 40167 57002 333 05400;EQDQ01  00002PRCP99
0141525330999992000040703004+39770+098480FM-12+1478ZLJQ V0200901N002012200019N0300001N1+01382-01231101481ADDGA1001+999999999GF100991001001999999001001MD1210031+9999REMSYN054AAXX  07031 52533 42980 00902 10138 21123 40148 52003;EQDQ01+001383ATOT  
0192525330999992000040706004+39770+098480FM-12+1478ZLJQ V0203601N003012200019N0200001N1+01681-01571101211ADDAA199000091GF102991001001999999001021KA1999N+00011MA1999999084861MD1710261-0501REMSYN082AAXX  07061 52533 32970 23603 10168 21157 38486 40121 57026 80002 333 05503 20001;EQDQ01  00002PRCP99
0122525330999992000040709004+39770+098480FM-12+1478ZLJQ V0203201N009019999999N0120001N1+01801-02111101031ADDGF108991001001999999001071MD1710171+0051REMSYN070AAXX  07091 52533 42962 83209 10180 21211 40103 57017 80007 333 05503;
0173525330999992000040712004+39770+098480FM-12+1478ZLJQ V0203201N008019999999N0150001N1+01551-02001101251ADDAA199000091GF107991021001999999041021MA1999999084811MD1210121+0041REMSYN076AAXX  07121 52533 32965 73208 10155 21200 38481 40125 52012 82042 333 05403;EQDQ01  00002PRCP99
0122525330999992000040715004+39770+098480FM-12+1478ZLJQ V0202501N004012200019N0200001N1+01071-01591101111ADDGA1001+999999999GF100991001001999999001001MD1210081+9999REMSYN054AAXX  07151 52533 42970 02504 10107 21159 40111 52008;
0202525330999992000040718004+39770+098480FM-12+1478ZLJQ V0202501N004012200019N0300001N1+00931-01761101061ADDAA199000091GA1001+999999999GF100991001001999999001001KA1999M+01911MA1999999084891MD1410001-0301REMSYN076AAXX  07181 52533 32980 02504 10093 21176 38489 40106 54000 333 05306 10191;EQDQ01  00002PRCP99
0132525330999992000040721004+39770+098480FM-12+1478ZLJQ V0202001N002012200019N0300001N1+00761-01671101051ADDGA1001+999999999GF100991001001999999001001MD1710021+0021REMSYN064AAXX  07211 52533 42980 02002 10076 21167 40105 57002 333 05206;
0191525330999992000040800004+39770+098480FM-12+1478ZLJQ V0202201N002012200019N0300001N1+00421-01351101361ADDAA199000091GF101991001001999999001021IA2999-00409MA1999999084981MD1210111-0101REMSYN082AAXX  08001 52533 32980 12202 10042 21135 38498 40136 52011 80002 333 05103 31042;EQDQ01  00002PRCP99
0112525330999992000040803004+39770+098480FM-12+1478ZLJQ V0200401N004019999999N0300001N1+01141-00991101321ADDGF105991001001999999001021MD1210031+9999REMSYN060AAXX  08031 52533 42980 50404 10114 21099 40132 52003 80002;
0192525330999992000040806004+39770+098480FM-12+1478ZLJQ V0209999C000019999999N0300001N1+01351-00701101281ADDAA199000091GF107991031001999999041021KA1999N+00321MA1999999084991MD1710021+0101REMSYN082AAXX  08061 52533 32980 70000 10135 21070 38499 40128 57002 83042 333 00153 20032;EQDQ01  00002PRCP99
0122525330999992000040809004+39770+098480FM-12+1478ZLJQ V0203401N007019999999N0300001N1+01531-01031101241ADDGF107991031001999999041021MD1710031+0031REMSYN070AAXX  08091 52533 42980 73407 10153 21103 40124 57003 83042 333 00353;
0216525330999992000040812004+39770+098480FM-12+1478ZLJQ V0203601N006019999999N0120001N1+00981-00391101971ADDAA199000091AY131061GF107991021001999999041021MA1999999085341MD1210381+0501MW1001OA130602001REMSYN094AAXX  08121 52533 31962 73606 10098 21039 38534 40197 52038 70030 82042 333 00556 91120 91529;EQDQ01  00002PRCP99
0124525330999992000040815004+39770+098480FM-12+1478ZLJQ V0203401N005010150019N0200001N1+00671-00041102441ADDGF107991051091017501001021MD1210501+9999MW1801REMSYN066AAXX  08151 52533 41770 73405 10067 21004 40244 52050 78000 85902;
0199525330999992000040818004+39770+098480FM-12+1478ZLJQ V0203401N002010150019N0300001N1+00481-00091102681ADDAA106000891AY181061GF107991061091017501001021KA1999M+01571MA1999999086051MD1210211+1201MW1001REMSYN094AAXX  08181 52533 11780 73402 10048 21009 38605 40268 52021 69981 70080 86902 333 01255 10157;
0139525330999992000040821004+39770+098480FM-12+1478ZLJQ V0209999C000010900019N0300001N1+00401+00011102791ADDAA124000891GF107991041041017501001021MD1210121+1301REMSYN076AAXX  08211 52533 42780 70000 10040 20001 40279 52012 84402 333 01354 70008;
0197525330999992000040900004+39770+098480FM-12+1478ZLJQ V0200901N006012200019N0150001N1-00041-01652103341ADDAA124000891GF102991001001999999001021IA2999-00249MA1999999086361MD1210191+1401REMSYN088AAXX  09001 52533 32965 20906 11004 21165 38636 40334 52019 80002 333 01455 31024 70008;EQDQ01-001653ATOD  
0112525330999992000040903004+39770+098480FM-12+1478ZLJQ V0201101N005019999999N0200001N1+00231-01841103441ADDGF107991001001999999001021MD1210071+9999REMSYN060AAXX  09031 52533 42970 71105 10023 21184 40344 52007 80002;
0192525330999992000040906004+39770+098480FM-12+1478ZLJQ V0201101N003012200019N0150001N1+00761-01421103061ADDAA199000091GF103991001001999999001021KA1999N-00061MA1999999086211MD1710221+1201REMSYN082AAXX  09061 52533 32965 31103 10076 21142 38621 40306 57022 80002 333 01256 21006;EQDQ01  00002PRCP99
0122525330999992000040909004+39770+098480FM-12+1478ZLJQ V0200901N006019999999N0150001N1+00981-01551102781ADDGF107991001001999999001021MD1710201+0111REMSYN070AAXX  09091 52533 42965 70906 10098 21155 40278 57020 80002 333 01156;
0183525330999992000040912004+39770+098480FM-12+1478ZLJQ V0200701N004012200019N0200001N1+00761-01721102961ADDAA199000091GA1001+999999999GF100991001001999999001001MA1999999085981MD1710031+0061REMSYN070AAXX  09121 52533 32970 00704 10076 21172 38598 40296 57003 333 00652;EQDQ01  00002PRCP99
0122525330999992000040915004+39770+098480FM-12+1478ZLJQ V0200701N002012200019N0200001N1+00321-01361103101ADDGA1001+999999999GF100991001001999999001001MD1210071+9999REMSYN054AAXX  09151 52533 42970 00702 10032 21136 40310 52007;
0202525330999992000040918004+39770+098480FM-12+1478ZLJQ V0203601N001012200019N0200001N1-00041-01251102841ADDAA199000091GA1001+999999999GF100991001001999999001001KA1999M+01041MA1999999085881MD1710171-0201REMSYN076AAXX  09181 52533 32970 03601 11004 21125 38588 40284 57017 333 05255 10104;EQDQ01  00002PRCP99
0132525330999992000040921004+39770+098480FM-12+1478ZLJQ V0209999C000012200019N0200001N1-00201-00981102631ADDGA1001+999999999GF100991001001999999001001MD1710161+0051REMSYN064AAXX  09211 52533 42970 00000 11020 21098 40263 57016 333 05556;
0173525330999992000041000004+39770+098480FM-12+1478ZLJQ V0201801N002012200019N0200001N1-00141-00931102661ADDAA199000091GF101991001001999999001021MA1999999085701MD1710021+0071REMSYN076AAXX  10001 52533 32970 11802 11014 21093 38570 40266 57002 80002 333 05751;EQDQ01  00002PRCP99
0122525330999992000041003004+39770+098480FM-12+1478ZLJQ V0200701N003012200019N0200001N1+00781-01001102461ADDGA1001+999999999GF100991001001999999001001MD1710031+9999REMSYN054AAXX  10031 52533 42970 00703 10078 21100 40246 57003;
0202525330999992000041006004+39770+098480FM-12+1478ZLJQ V0203601N003012200019N0200001N1+01331-01271102161ADDAA199000091GA1001+999999999GF100991001001999999001001KA1999N-00291MA1999999085471MD1710201-0701REMSYN076AAXX  10061 52533 32970 03603 10133 21127 38547 40216 57020 333 05706 21029;EQDQ01  00002PRCP99
0132525330999992000041009004+39770+098480FM-12+1478ZLJQ V0203201N005012200019N0200001N1+01651-01461101851ADDGA1001+999999999GF100991001001999999001001MD1710221+0081REMSYN064AAXX  10091 52533 42970 03205 10165 21146 40185 57022 333 05807;
0173525330999992000041012004+39770+098480FM-12+1478ZLJQ V0203401N005019999999N0200001N1+01441-01631101821ADDAA199000091GF105991001001999999001021MA1999999085191MD1710061+0081REMSYN076AAXX  10121 52533 32970 53405 10144 21163 38519 40182 57006 80002 333 05807;EQDQ01  00002PRCP99
0112525330999992000041015004+39770+098480FM-12+1478ZLJQ V0202701N004019999999N0200001N1+01151-01091101721ADDGF107991001001999999001021MD1210081+9999REMSYN060AAXX  10151 52533 42970 72704 10115 21109 40172 52008 80002;
0202525330999992000041018004+39770+098480FM-12+1478ZLJQ V0202701N005012200019N0200001N1+00881-01081101541ADDAA199000091GA1001+999999999GF100991001001999999001001KA1999M+01691MA1999999085191MD1710081-0701REMSYN076AAXX  10181 52533 32970 02705 10088 21108 38519 40154 57008 333 05709 10169;EQDQ01  00002PRCP99
0122525330999992000041021004+39770+098480FM-12+1478ZLJQ V0202201N003012200019N0200001N1+00541-01081101461ADDGF101991001001999999001021MD1710071+0061REMSYN070AAXX  10211 52533 42970 12203 10054 21108 40146 57007 80002 333 05607;
0191525330999992000041100004+39770+098480FM-12+1478ZLJQ V0202201N003019999999N0300001N1+00551-01011101531ADDAA199000091GF107991011001999999041021IA2999-00409MA1999999085131MD1210011-0601REMSYN082AAXX  11001 52533 32980 72203 10055 21101 38513 40153 52001 81042 333 05607 31040;EQDQ01  00002PRCP99
0112525330999992000041103004+39770+098480FM-12+1478ZLJQ V0209999C000019999999N0300001N1+01541-00831101211ADDGF107991021001999999041021MD1710091+9999REMSYN060AAXX  11031 52533 42980 70000 10154 21083 40121 57009 82042;
0192525330999992000041106004+39770+098480FM-12+1478ZLJQ V0201101N005019999999N0300001N1+01861-00771100881ADDAA199000091GF106991001001999999001021KA1999N+00291MA1999999084771MD1710271-0701REMSYN082AAXX  11061 52533 32980 61105 10186 21077 38477 40088 57027 80002 333 05705 20029;EQDQ01  00002PRCP99
0122525330999992000041109004+39770+098480FM-12+1478ZLJQ V0201601N004019999999N0200001N1+01901-00861100721ADDGF107991021001999999041021MD1710211+0071REMSYN070AAXX  11091 52533 42970 71604 10190 21086 40072 57021 82042 333 05703;
0173525330999992000041112004+39770+098480FM-12+1478ZLJQ V0201601N002019999999N0100001N1+01701-00281100791ADDAA199000091GF108991031001999999031071MA1999999084571MD1210011+0061REMSYN076AAXX  11121 52533 32960 81602 10170 21028 38457 40079 52001 83037 333 05603;EQDQ01  00002PRCP99
0112525330999992000041115004+39770+098480FM-12+1478ZLJQ V0202201N001019999999N0150001N1+01501-00411100541ADDGF108991041001999999031071MD1710011+9999REMSYN060AAXX  11151 52533 42965 82201 10150 21041 40054 57001 84037;
0192525330999992000041118004+39770+098480FM-12+1478ZLJQ V0200701N001019999999N0150001N1+01361-00451100401ADDAA199000091GF108991041001999999031071KA1999M+02021MA1999999084491MD1710071-0701REMSYN082AAXX  11181 52533 32965 80701 10136 21045 38449 40040 57007 84037 333 05705 10202;EQDQ01  00002PRCP99
0122525330999992000041121004+39770+098480FM-12+1478ZLJQ V0203401N004019999999N0150001N1+00871-00181100511ADDGF108991081001999999021999MD1710021+0071REMSYN070AAXX  11211 52533 42965 83404 10087 21018 40051 57002 8802/ 333 05703;
0191525330999992000041200004+39770+098480FM-12+1478ZLJQ V0200401N002019999999N0150001N1+00741-00091100601ADDAA199000091GF108991081001999999021999IA2999+00409MA1999999084461MD1710011-0701REMSYN082AAXX  12001 52533 32965 80402 10074 21009 38446 40060 57001 8802/ 333 05702 30041;EQDQ01  00002PRCP99
0112525330999992000041203004+39770+098480FM-12+1478ZLJQ V0200701N006019999999N0200001N1+01021+00011100551ADDGF107991021001999999041021MD1710021+9999REMSYN060AAXX  12031 52533 42970 70706 10102 20001 40055 57002 82042;
0192525330999992000041206004+39770+098480FM-12+1478ZLJQ V0203401N006010900019N0200001N1+01111-00241100841ADDAA199000091GF107991031091017501001021KA1999N+00631MA1999999084671MD1210231-0101REMSYN082AAXX  12061 52533 32770 73406 10111 21024 38467 40084 52023 83902 333 05158 20063;EQDQ01  00002PRCP99
0122525330999992000041209004+39770+098480FM-12+1478ZLJQ V0203401N006010150019N0200001N1+00881-00561101291ADDGF107991051041017501001021MD1210191+0031REMSYN070AAXX  12091 52533 42770 73406 10088 21056 40129 52019 85402 333 00360;
0199525330999992000041212004+39770+098480FM-12+1478ZLJQ V0203201N002010150019N0200001N1+00351+00211102161ADDAA106002091AY181061GF107991061041017501001021MA1999999085411MD1210871+0081MW1801REMSYN088AAXX  12121 52533 11770 73202 10035 20021 38541 40216 52055 60021 78080 86402 333 00864;EQDQ01+000552APC3  
0132525330999992000041215004+39770+098480FM-12+1478ZLJQ V0203201N008010360019N0200001N1+00251+00001102251ADDAY181031GF107991011041017501041021MD1210131+9999MW1001REMSYN066AAXX  12151 52533 41770 73208 10025 20000 40225 52013 70080 81442;
0199525330999992000041218004+39770+098480FM-12+1478ZLJQ V0203201N007019999999N0200001N1+00271-00231102361ADDAA106000191AY181061GF107991061001999999031021KA1999M+01361MA1999999085661MD1210121+1201MW1001REMSYN094AAXX  12181 52533 11970 73207 10027 21023 38566 40236 52012 69911 70080 86032 333 01261 10136;
0139525330999992000041221004+39770+098480FM-12+1478ZLJQ V0203201N007019999999N0200001N1+00121-00081102601ADDAA124002091GF108991061001999999031071MD1210101+1301REMSYN076AAXX  12211 52533 42970 83207 10012 21008 40260 52010 86037 333 01358 70021;
0178525330999992000041300004+39770+098480FM-12+1478ZLJQ V0203201N008010150019N0300001N1+00171-00261102821ADDAA124002091GF107991051051017501001021IA2999-00069MA1999999085811MD1210051+1401REMSYN088AAXX  13001 52533 32780 73208 10017 21026 38581 40282 52005 85502 333 01456 31006 70021;
0112525330999992000041303004+39770+098480FM-12+1478ZLJQ V0203201N009019999999N0300001N1+00561-00281102791ADDGF107991021001999999041021MD1210051+9999REMSYN060AAXX  13031 52533 42980 73209 10056 21028 40279 52005 82042;
0192525330999992000041306004+39770+098480FM-12+1478ZLJQ V0203201N009010900019N0300001N1+00761-00511102651ADDAA199000091GF107991011041017501001021KA1999N+00061MA1999999085811MD1710051+1101REMSYN082AAXX  13061 52533 32780 73209 10076 21051 38581 40265 57005 81402 333 01154 20006;EQDQ01  00002PRCP99
0122525330999992000041309004+39770+098480FM-12+1478ZLJQ V0203601N005010900019N0300001N1+00721-00351102671ADDGF107991031041017501001021MD1710041+0091REMSYN070AAXX  13091 52533 42780 73605 10072 21035 40267 57004 83402 333 00952;
0173525330999992000041312004+39770+098480FM-12+1478ZLJQ V0200401N004010150019N0300001N1+00341-00321102961ADDAA199000091GF107991061041017501001021MA1999999085921MD1210151+0051REMSYN076AAXX  13121 52533 32780 70404 10034 21032 38592 40296 52015 86402 333 00500;EQDQ01  00002PRCP99
0112525330999992000041315004+39770+098480FM-12+1478ZLJQ V0200901N005010900019N0300001N1+00141-00231102971ADDGF107991021041017501001021MD1210061+9999REMSYN060AAXX  13151 52533 42780 70905 10014 21023 40297 52006 82402;
0192525330999992000041318004+39770+098480FM-12+1478ZLJQ V0200901N003010900019N0300001N1+00051-00111102751ADDAA199000091GF107991011041017501001021KA1999M+00841MA1999999085831MD1710151+0201REMSYN082AAXX  13181 52533 32780 70903 10005 21011 38583 40275 57015 81402 333 00252 10084;EQDQ01  00002PRCP99
0122525330999992000041321004+39770+098480FM-12+1478ZLJQ V0200701N002010900019N0300001N1+00021-00111102751ADDGF107991031041017501001021MD1710021+0011REMSYN070AAXX  13211 52533 42780 70702 10002 21011 40275 57002 83402 333 00151;
0191525330999992000041400004+39770+098480FM-12+1478ZLJQ V0201101N003019999999N0300001N1+00001-00161103001ADDAA199000091GF108991061001999999041071IA2999+00009MA1999999085911MD1210101+0101REMSYN082AAXX  14001 52533 32980 81103 10000 21016 38591 40300 52010 86047 333 00152 30007;EQDQ01  00002PRCP99
0112525330999992000041403004+39770+098480FM-12+1478ZLJQ V0201101N003010150019N0300001N1+00191-00201103131ADDGF107991061051017501001021MD1210101+9999REMSYN060AAXX  14031 52533 42780 71103 10019 21020 40313 52010 86502;
0192525330999992000041406004+39770+098480FM-12+1478ZLJQ V0200901N005010150019N0300001N1+00491-00191102931ADDAA199000091GF106991051051017501001021KA1999N-00021MA1999999085911MD1710101+0101REMSYN082AAXX  14061 52533 32780 60905 10049 21019 38591 40293 57010 85502 333 00153 21002;EQDQ01  00002PRCP99
0132525330999992000041409004+39770+098480FM-12+1478ZLJQ V0201101N005012200019N0300001N1+01001-00261102511ADDGA1001+999999999GF100991001001999999001001MD1710221+0011REMSYN064AAXX  14091 52533 42980 01105 10100 21026 40251 57022 333 05103;
0122525330999992000041415004+39770+098480FM-12+1478ZLJQ V0201101N003012200019N0300001N1+00441-00351102561ADDGA1001+999999999GF100991001001999999001001MD1710011+9999REMSYN054AAXX  14151 52533 42980 01103 10044 21035 40256 57001;
0202525330999992000041418004+39770+098480FM-12+1478ZLJQ V0202501N002012200019N0300001N1+00141-00231102331ADDAA199000091GA1001+999999999GF100991001001999999001001KA1999M+01031MA1999999085431MD1710191-0401REMSYN076AAXX  14181 52533 32980 02502 10014 21023 38543 40233 57019 333 05401 10103;EQDQ01  00002PRCP99
0132525330999992000041421004+39770+098480FM-12+1478ZLJQ V0202501N002012200019N0300001N1-00011-00251102041ADDGA1001+999999999GF100991001001999999001001MD1710141+0051REMSYN064AAXX  14211 52533 42980 02502 11001 21025 40204 57014 333 05500;
0183525330999992000041500004+39770+098480FM-12+1478ZLJQ V0202701N002012200019N0300001N1-00141-00371102081ADDAA199000091GA1001+999999999GF100991001001999999001001MA1999999085251MD1710041+0071REMSYN070AAXX  15001 52533 32980 02702 11014 21037 38525 40208 57004 333 05751;EQDQ01  00002PRCP99
0112525330999992000041503004+39770+098480FM-12+1478ZLJQ V0200901N004012200019N0300001N1+00751-00271101961ADDGF101991001001999999001021MD1210021+9999REMSYN060AAXX  15031 52533 42980 10904 10075 21027 40196 52002 80002;
0192525330999992000041506004+39770+098480FM-12+1478ZLJQ V0201401N005012200019N0300001N1+01451-00571101601ADDAA199000091GF101991001001999999001021KA1999N-00241MA1999999085081MD1710191-0801REMSYN082AAXX  15061 52533 32980 11405 10145 21057 38508 40160 57019 80002 333 05810 21024;EQDQ01  00002PRCP99
0122525330999992000041509004+39770+098480FM-12+1478ZLJQ V0201101N006012200019N0300001N1+01901-00871101141ADDGF101991001001999999001021MD1710311+0091REMSYN070AAXX  15091 52533 42980 11106 10190 21087 40114 57031 80002 333 05909;
0183525330999992000041512004+39770+098480FM-12+1478ZLJQ V0200701N002012200019N0300001N1+01651-00521101221ADDAA199000091GA1001+999999999GF100991001001999999001001MA1999999084741MD1710031+0091REMSYN070AAXX  15121 52533 32980 00702 10165 21052 38474 40122 57003 333 05908;EQDQ01  00002PRCP99
0122525330999992000041515004+39770+098480FM-12+1478ZLJQ V0201101N003012200019N0300001N1+00971-00561101191ADDGA1001+999999999GF100991001001999999001001MD1210031+9999REMSYN054AAXX  15151 52533 42980 01103 10097 21056 40119 52003;
0192525330999992000041518004+39770+098480FM-12+1478ZLJQ V0202701N003012200019N0300001N1+00311-00561101271ADDAA199000091GF102991001001999999001021KA1999M+01941MA1999999084851MD1210081-0601REMSYN082AAXX  15181 52533 32980 22703 10031 21056 38485 40127 52008 80002 333 05602 10194;EQDQ01  00002PRCP99
0132525330999992000041521004+39770+098480FM-12+1478ZLJQ V0203401N002012200019N0300001N1+00651-00641999999ADDGA1001+999999999GF100991001001999999001001MD1710031+0051REMSYN064AAXX  15211 52533 42980 03402 10065 21064 40999 57003 333 05507;
0191525330999992000041600004+39770+098480FM-12+1478ZLJQ V0202701N002019999999N0300001N1+00481-00531101281ADDAA199000091GF107991001001999999001021IA2999-00409MA1999999084951MD1210131-0301REMSYN082AAXX  16001 52533 32980 72702 10048 21053 38495 40128 52013 80002 333 05306 31047;EQDQ01  00002PRCP99
0112525330999992000041603004+39770+098480FM-12+1478ZLJQ V0200901N002012200019N0300001N1+01521-00641101141ADDGF101991001001999999001021MD1710021+9999REMSYN060AAXX  16031 52533 42980 10902 10152 21064 40114 57002 80002;
0192525330999992000041606004+39770+098480FM-12+1478ZLJQ V0203201N005019999999N0200001N1+02001-00911100941ADDAA199000091GF107991001001999999001021KA1999N+00301MA1999999084711MD1710221-0401REMSYN082AAXX  16061 52533 32970 73205 10200 21091 38471 40094 57022 80002 333 05406 20030;EQDQ01  00002PRCP99
0122525330999992000041609004+39770+098480FM-12+1478ZLJQ V0203201N009019999999N0150001N1+01841-01331100861ADDGF108991001001999999001071MD1710021+0011REMSYN070AAXX  16091 52533 42965 83209 10184 21133 40086 57002 80007 333 05151;
0196525330999992000041612004+39770+098480FM-12+1478ZLJQ V0203201N007019999999N0300001N1+01671-01371101141ADDAA199000091GF107991011001999999041021MA1999999084841MD1210151+0101OA130601901REMSYN088AAXX  16121 52533 32980 73207 10167 21137 38484 40114 52015 81042 333 00100 91119 91532;EQDQ01  00002PRCP99
0112525330999992000041615004+39770+098480FM-12+1478ZLJQ V0202901N005019999999N0300001N1+01381-01161101161ADDGF108991001001999999001071MD1210211+9999REMSYN060AAXX  16151 52533 42980 82905 10138 21116 40116 52021 80007;
0192525330999992000041618004+39770+098480FM-12+1478ZLJQ V0202201N003019999999N0300001N1+01161-00571101081ADDAA199000091GF108991021001999999041071KA1999M+02071MA1999999085051MD1410001+0201REMSYN082AAXX  16181 52533 32980 82203 10116 21057 38505 40108 54000 82047 333 00209 10207;EQDQ01  00002PRCP99
0122525330999992000041621004+39770+098480FM-12+1478ZLJQ V0202001N003019999999N0300001N1+01341-00581100981ADDGF108991031001999999031071MD1710081+0021REMSYN070AAXX  16211 52533 42980 82003 10134 21058 40098 57008 83037 333 00207;
0191525330999992000041700004+39770+098480FM-12+1478ZLJQ V0202501N004019999999N0300001N1+01021-00551101201ADDAA199000091GF107991011001999999041021IA2999+00409MA1999999085031MD1210061+0101REMSYN082AAXX  17001 52533 32980 72504 10102 21055 38503 40120 52006 81042 333 00105 30048;EQDQ01  00002PRCP99
0112525330999992000041703004+39770+098480FM-12+1478ZLJQ V0200201N004019999999N0300001N1+01571-00861101071ADDGF107991001001999999001021MD1710041+9999REMSYN060AAXX  17031 52533 42980 70204 10157 21086 40107 57004 80002;
0192525330999992000041706004+39770+098480FM-12+1478ZLJQ V0203401N007012200019N0200001N1+01971-00781100811ADDAA199000091GF103991021001999999041021KA1999N+00981MA1999999084811MD1710181+0101REMSYN082AAXX  17061 52533 32970 33407 10197 21078 38481 40081 57018 82042 333 00100 20098;EQDQ01  00002PRCP99
0122525330999992000041709004+39770+098480FM-12+1478ZLJQ V0202201N003019999999N0300001N1+01851-00591100731ADDGF107991061001999999031021MD1710051+0011REMSYN070AAXX  17091 52533 42980 72203 10185 21059 40073 57005 86032 333 00100;
0173525330999992000041712004+39770+098480FM-12+1478ZLJQ V0201401N004010150019N0300001N1+01661-00411100911ADDAA199000091GF107991051041017501001021MA1999999084781MD1210021+0011REMSYN076AAXX  17121 52533 32780 71404 10166 21041 38478 40091 52002 85402 333 05100;EQDQ01  00002PRCP99
0112525330999992000041715004+39770+098480FM-12+1478ZLJQ V0202501N003012200019N0250001N1+01501-00421100901ADDGF102991001001999999001021MD1210091+9999REMSYN060AAXX  17151 52533 42975 22503 10150 21042 40090 52009 80002;
0202525330999992000041718004+39770+098480FM-12+1478ZLJQ V0202501N002012200019N0250001N1+01121-00331100751ADDAA199000091GA1001+999999999GF100991001001999999001001KA1999M+02001MA1999999084751MD1710121-0301REMSYN076AAXX  17181 52533 32975 02502 10112 21033 38475 40075 57012 333 05300 10200;EQDQ01  00002PRCP99
0132525330999992000041721004+39770+098480FM-12+1478ZLJQ V0203201N003012200019N0250001N1+00801-00191100891ADDGA1001+999999999GF100991001001999999001001MD1210011+0021REMSYN064AAXX  17211 52533 42975 03203 10080 21019 40089 52001 333 05255;
0191525330999992000041800004+39770+098480FM-12+1478ZLJQ V0202901N002019999999N0200001N1+00701-00121101151ADDAA199000091GF107991011001999999041021IA2999+00109MA1999999084901MD1210141-0101REMSYN082AAXX  18001 52533 32970 72902 10070 21012 38490 40115 52014 81042 333 05153 30012;EQDQ01  00002PRCP99
0112525330999992000041803004+39770+098480FM-12+1478ZLJQ V0201601N004012200019N0200001N1+01261-00131101041ADDGF101991001001999999001021MD1210011+9999REMSYN060AAXX  18031 52533 42970 11604 10126 21013 40104 52001 80002;
0192525330999992000041806004+39770+098480FM-12+1478ZLJQ V0201101N005019999999N0200001N1+01511-00281100671ADDAA199000091GF106991001001999999001021KA1999N+00611MA1999999084571MD1710341-0201REMSYN082AAXX  18061 52533 32970 61105 10151 21028 38457 40067 57034 80002 333 05255 20061;EQDQ01  00002PRCP99
0134525330999992000041809004+39770+098480FM-12+1478ZLJQ V0203201N007010150019N0200001N1+01581-00121100911ADDGF107991061091017501001021MD1210141+0011MW1801REMSYN076AAXX  18091 52533 41770 73207 10158 21012 40091 52014 78000 86902 333 05153;
0203525330999992000041812004+39770+098480FM-12+1478ZLJQ V0203201N014010150019N0007001N1+01021-00121101621ADDAA106000791AY181061GF107991071091017501999999MA1999999085131MD1210421+0401MW1321OA130602101REMSYN100AAXX  18121 52533 11707 73214 10102 21012 38513 40162 52042 69901 73280 879// 333 00456 91121 91532;
0140525330999992000041815004+39770+098480FM-12+1478ZLJQ V0202901N007010150019N0150001N1+00661-00181102031ADDAY181031AY231031GF107991071091017501999999MD1210401+9999MW1251REMSYN066AAXX  18151 52533 41765 72907 10066 21018 40203 52040 72583 879//;
0230525330999992000041818004+39770+098480FM-12+1478ZLJQ V0203201N006010900019N0200001N1+00731-00811101981ADDAA106000791AY181061AY231061GF107991011091017501001021KA1240M+01771MA1999999085571MD1210041+0801MW1001OA130602201REMSYN106AAXX  18181 52533 11770 73206 10073 21081 38557 40198 52004 69901 70083 81902 333 00854 10177 91122 91532;
0139525330999992000041821004+39770+098480FM-12+1478ZLJQ V0202901N010012200019N0200001N1+00651-00921101951ADDAA124000791GF101991011001999999041021MD1710031+0801REMSYN076AAXX  18211 52533 42970 12910 10065 21092 40195 57003 81042 333 00852 79999;
0178525330999992000041900004+39770+098480FM-12+1478ZLJQ V0203401N005012200019N0300001N1+00641-00941102251ADDAA124000791GF101991011001999999041021IA2999+00039MA1999999085641MD1210101+0701REMSYN088AAXX  19001 52533 32980 13405 10064 21094 38564 40225 52010 81042 333 00751 30003 79999;
0112525330999992000041903004+39770+098480FM-12+1478ZLJQ V0202901N011012200019N0200001N1+01081-00841102291ADDGF101991011011017501001001MD1210061+9999REMSYN060AAXX  19031 52533 42770 12911 10108 21084 40229 52006 81100;
0235525330999992000041906004+39770+098480FM-12+1478ZLJQ V0202901N015010900019N0003001N1+01271-01261102141ADDAA199000091AY131061GF107991031091017501001021KA1240N+00501MA1999999085641MD1710061+1101MW1351OA130602401REMSYN100AAXX  19061 52533 31703 72915 10127 21126 38564 40214 57006 73530 83902 333 01152 20050 91124 91529;EQDQ01  00002PRCP99
0142525330999992000041909004+39770+098480FM-12+1478ZLJQ V0202901N015019999999N0070001N1+01441-01651102041ADDAY131031GF107991001001999999001021MD1710061+0091MW1071REMSYN076AAXX  19091 52533 41957 72915 10144 21165 40204 57006 70730 80002 333 00951;
0216525330999992000041912004+39770+098480FM-12+1478ZLJQ V0203201N007012200019N0110001N1+01241-00921102191ADDAA199000091AY131061GF101991001001999999001021MA1999999085651MD1210071+0501MW1001OA130602201REMSYN094AAXX  19121 52533 31961 13207 10124 21092 38565 40219 52007 70030 80002 333 00502 91122 91529;EQDQ01  00002PRCP99
0122525330999992000041915004+39770+098480FM-12+1478ZLJQ V0202901N006012200019N0150001N1+01001-00771102191ADDGA1001+999999999GF100991001001999999001001MD1210051+9999REMSYN054AAXX  19151 52533 42965 02906 10100 21077 40219 52005;
0202525330999992000041918004+39770+098480FM-12+1478ZLJQ V0202901N004012200019N0150001N1+00661-00851102091ADDAA199000091GA1001+999999999GF100991001001999999001001KA1999M+01511MA1999999085581MD1710121+0001REMSYN076AAXX  19181 52533 32965 02904 10066 21085 38558 40209 57012 333 00051 10151;EQDQ01  00002PRCP99
0132525330999992000041921004+39770+098480FM-12+1478ZLJQ V0202201N002012200019N0150001N1+00441-00891101951ADDGA1001+999999999GF100991001001999999001001MD1710131+0011REMSYN064AAXX  19211 52533 42965 02202 10044 21089 40195 57013 333 05152;
0183525330999992000042000004+39770+098480FM-12+1478ZLJQ V0202201N004012200019N0300001N1+00501-01121102021ADDAA199000091GA1001+999999999GF100991001001999999001001MA1999999085471MD1210021+0021REMSYN070AAXX  20001 52533 32980 02204 10050 21112 38547 40202 52002 333 05251;EQDQ01  00002PRCP99
0112525330999992000042003004+39770+098480FM-12+1478ZLJQ V0202901N005012200019N0300001N1+01481-00901101791ADDGF102991001001999999001021MD1410001+9999REMSYN060AAXX  20031 52533 42980 22905 10148 21090 40179 54000 80002;
0192525330999992000042006004+39770+098480FM-12+1478ZLJQ V0203401N008010900019N0300001N1+01711-00821101641ADDAA199000091GF106991011011017501001021KA1999N+00271MA1999999085321MD1710151-0301REMSYN082AAXX  20061 52533 32780 63408 10171 21082 38532 40164 57015 81102 333 05304 20027;EQDQ01  00002PRCP99
0122525330999992000042009004+39770+098480FM-12+1478ZLJQ V0203401N008012200019N0300001N1+01781-00891101491ADDGF102991011041017501001021MD1710171+0041REMSYN070AAXX  20091 52533 42780 23408 10178 21089 40149 57017 81402 333 05403;
0173525330999992000042012004+39770+098480FM-12+1478ZLJQ V0203401N005019999999N0300001N1+01551-00981101581ADDAA199000091GF107991011001999999041021MA1999999085181MD1210031+0051REMSYN076AAXX  20121 52533 32980 73405 10155 21098 38518 40158 52003 81042 333 05503;EQDQ01  00002PRCP99
0112525330999992000042015004+39770+098480FM-12+1478ZLJQ V0202701N003019999999N0300001N1+01121-00701101551ADDGF107991001001999999001021MD1210121+9999REMSYN060AAXX  20151 52533 42980 72703 10112 21070 40155 52012 80002;
0192525330999992000042018004+39770+098480FM-12+1478ZLJQ V0202501N003012200019N0300001N1+00881-00871101581ADDAA199000091GF104991001001999999001021KA1999M+01841MA1999999085321MD1210021-0301REMSYN082AAXX  20181 52533 32980 42503 10088 21087 38532 40158 52002 80002 333 05302 10184;EQDQ01  00002PRCP99
0122525330999992000042021004+39770+098480FM-12+1478ZLJQ V0202701N003012200019N0300001N1+00611-00761101721ADDGF102991001001999999001021MD1210071+0011REMSYN070AAXX  20211 52533 42980 22703 10061 21076 40172 52007 80002 333 05102;
0122525330999992000042103004+39770+098480FM-12+1478ZLJQ V0202201N001012200019N0300001N1+01501-00701101821ADDGA1001+999999999GF100991001001999999001001MD1210021+9999REMSYN054AAXX  21031 52533 42980 02201 10150 21070 40182 52002;
0192525330999992000042106004+39770+098480FM-12+1478ZLJQ V0203601N004012200019N0300001N1+01771-00761101621ADDAA199000091GF101991011011017501001021KA1999N+00421MA1999999085371MD1710161+0101REMSYN082AAXX  21061 52533 32780 13604 10177 21076 38537 40162 57016 81102 333 00101 20042;EQDQ01  00002PRCP99
0122525330999992000042109004+39770+098480FM-12+1478ZLJQ V0200701N005012200019N0300001N1+01881-00831101441ADDGF101991011011017501001021MD1710191+0001REMSYN070AAXX  21091 52533 42780 10705 10188 21083 40144 57019 81102 333 00001;
0173525330999992000042112004+39770+098480FM-12+1478ZLJQ V0200201N001012200019N0300001N1+01681-00641101521ADDAA199000091GF101991001001999999001021MA1999999085191MD1210011+0001REMSYN076AAXX  21121 52533 32980 10201 10168 21064 38519 40152 52001 80002 333 00001;EQDQ01  00002PRCP99
0122525330999992000042115004+39770+098480FM-12+1478ZLJQ V0202201N002012200019N0300001N1+01021-00681101441ADDGA1001+999999999GF100991001001999999001001MD1410001+9999REMSYN054AAXX  21151 52533 42980 02202 10102 21068 40144 54000;
0202525330999992000042118004+39770+098480FM-12+1478ZLJQ V0209999C000012200019N0300001N1+00631-00521101301ADDAA199000091GA1001+999999999GF100991001001999999001001KA1999M+01941MA1999999085041MD1710151-0301REMSYN076AAXX  21181 52533 32980 00000 10063 21052 38504 40130 57015 333 05353 10194;EQDQ01  00002PRCP99
0132525330999992000042121004+39770+098480FM-12+1478ZLJQ V0202201N002012200019N0300001N1+00271-00741101261ADDGA1001+999999999GF100991001001999999001001MD1710101+0051REMSYN064AAXX  21211 52533 42980 02202 10027 21074 40126 57010 333 05553;
0173525330999992000042200004+39770+098480FM-12+1478ZLJQ V0202501N001012200019N0300001N1+00351-00781101301ADDAA199000091GF101991001001999999001021MA1999999084941MD1410001+0061REMSYN076AAXX  22001 52533 32980 12501 10035 21078 38494 40130 54000 80002 333 05652;EQDQ01  00002PRCP99
0112525330999992000042203004+39770+098480FM-12+1478ZLJQ V0200901N003012200019N0300001N1+01301-00301101251ADDGF102991001001999999001021MD1210041+9999REMSYN060AAXX  22031 52533 42980 20903 10130 21030 40125 52004 80002;
0192525330999992000042206004+39770+098480FM-12+1478ZLJQ V0201101N006012200019N0300001N1+01931-00951100931ADDAA199000091GF101991001001999999001021KA1999N+00161MA1999999084771MD1710211-0601REMSYN082AAXX  22061 52533 32980 11106 10193 21095 38477 40093 57021 80002 333 05602 20016;EQDQ01  00002PRCP99
0122525330999992000042209004+39770+098480FM-12+1478ZLJQ V0200901N006019999999N0300001N1+02081-00891100731ADDGF107991001001999999001021MD1710221+0061REMSYN070AAXX  22091 52533 42980 70906 10208 21089 40073 57022 80002 333 05602;
0112525330999992000042215004+39770+098480FM-12+1478ZLJQ V0201101N001019999999N0300001N1+01241-00451100811ADDGF107991001001999999001021MD1210131+9999REMSYN060AAXX  22151 52533 42980 71101 10124 21045 40081 52013 80002;
0192525330999992000042218004+39770+098480FM-12+1478ZLJQ V0202201N002019999999N0300001N1+00761-00221100631ADDAA199000091GF106991001001999999001021KA1999M+02121MA1999999084551MD1710111-0501REMSYN082AAXX  22181 52533 32980 62202 10076 21022 38455 40063 57011 80002 333 05501 10212;EQDQ01  00002PRCP99
0132525330999992000042221004+39770+098480FM-12+1478ZLJQ V0202701N002012200019N0300001N1+00581-00631100471ADDGA1001+999999999GF100991001001999999001001MD1710141+0051REMSYN064AAXX  22211 52533 42980 02702 10058 21063 40047 57014 333 05503;
0191525330999992000042300004+39770+098480FM-12+1478ZLJQ V0202501N001019999999N0300001N1+00721-00561100551ADDAA199000091GF107991021001999999041021IA2999+00009MA1999999084431MD1210021-0501REMSYN082AAXX  23001 52533 32980 72501 10072 21056 38443 40055 52002 82042 333 05504 31003;EQDQ01  00002PRCP99
0112525330999992000042303004+39770+098480FM-12+1478ZLJQ V0202901N005019999999N0200001N1+01431+00111100731ADDGF108991081001999999021999MD1210201+9999REMSYN060AAXX  23031 52533 42970 82905 10143 20011 40073 52020 8802/;
0235525330999992000042306004+39770+098480FM-12+1478ZLJQ V0202901N009019999999N0200001N1+01901-00181100521ADDAA199000091AY131061GF107991011001999999041021KA1240N+00511MA1999999084451MD1710181-0301MW1001OA130602201REMSYN100AAXX  23061 52533 31970 72909 10190 21018 38445 40052 57018 70030 81042 333 05300 20051 91122 91527;EQDQ01  00002PRCP99
0122525330999992000042309004+39770+098480FM-12+1478ZLJQ V0203401N010010900019N0200001N1+02091-00591100311ADDGF107991011051017501001021MD1710171+0031REMSYN070AAXX  23091 52533 42770 73410 10209 21059 40031 57017 81502 333 05300;
0196525330999992000042312004+39770+098480FM-12+1478ZLJQ V0202901N011010360019N0150001N1+01541-00331100821ADDAA199000091GF107991021051017501041021MA1999999084601MD1210321+0101OA130602001REMSYN088AAXX  23121 52533 32765 72911 10154 21033 38460 40082 52032 82542 333 00152 91120 91529;EQDQ01  00002PRCP99
0112525330999992000042315004+39770+098480FM-12+1478ZLJQ V0202701N008019999999N0150001N1+01401-00421100931ADDGF107991061001999999041021MD1210241+9999REMSYN060AAXX  23151 52533 42965 72708 10140 21042 40093 52024 86042;
0215525330999992000042318004+39770+098480FM-12+1478ZLJQ V0202901N009019999999N0150001N1+01161-00331101091ADDAA199000091GF107991021001999999041021KA1240M+02091MA1999999085031MD1210191+0501OA130601801REMSYN094AAXX  23181 52533 32965 72909 10116 21033 38503 40109 52019 82042 333 00504 10209 91118 91529;EQDQ01  00002PRCP99
0122525330999992000042321004+39770+098480FM-12+1478ZLJQ V0202501N006019999999N0150001N1+00701+00191101321ADDGF107991061001999999041021MD1210131+0081REMSYN070AAXX  23211 52533 42965 72506 10070 20019 40132 52013 86042 333 00801;
0191525330999992000042400004+39770+098480FM-12+1478ZLJQ V0202501N004012200019N0300001N1+00801+00101101461ADDAA199000091GF101991011001999999041021IA2999+00209MA1999999085161MD1410001+0701REMSYN082AAXX  24001 52533 32980 12504 10080 20010 38516 40146 54000 81042 333 00701 30029;EQDQ01  00002PRCP99
0112525330999992000042403004+39770+098480FM-12+1478ZLJQ V0202901N004012200019N0300001N1+01411-00491101341ADDGF101991011011017501001021MD1210021+9999REMSYN060AAXX  24031 52533 42780 12904 10141 21049 40134 52002 81102;
0192525330999992000042406004+39770+098480FM-12+1478ZLJQ V0202501N004010900019N0300001N1+01541-00341101191ADDAA199000091GF107991021011017501001021KA1999N+00661MA1999999085021MD1710161+0601REMSYN082AAXX  24061 52533 32780 72504 10154 21034 38502 40119 57016 82102 333 00654 20066;EQDQ01  00002PRCP99
0122525330999992000042409004+39770+098480FM-12+1478ZLJQ V0203201N006010900019N0300001N1+01751-00561101091ADDGF106991021011017501001021MD1710141+0061REMSYN070AAXX  24091 52533 42780 63206 10175 21056 40109 57014 82102 333 00653;
0122525330999992000042415004+39770+098480FM-12+1478ZLJQ V0202501N001012200019N0300001N1+01111-00351101541ADDGA1001+999999999GF100991001001999999001001MD1210311+9999REMSYN054AAXX  24151 52533 42980 02501 10111 21035 40154 52031;
0202525330999992000042418004+39770+098480FM-12+1478ZLJQ V0202201N002012200019N0300001N1+00611-00271101621ADDAA199000091GA1001+999999999GF100991001001999999001001KA1999M+01881MA1999999085241MD1710031+0201REMSYN076AAXX  24181 52533 32980 02202 10061 21027 38524 40162 57003 333 00256 10188;EQDQ01  00002PRCP99
0132525330999992000042421004+39770+098480FM-12+1478ZLJQ V0202501N002012200019N0300001N1+00471-00441101621ADDGA1001+999999999GF100991001001999999001001MD1210021+0011REMSYN064AAXX  24211 52533 42980 02502 10047 21044 40162 52002 333 00152;
0173525330999992000042500004+39770+098480FM-12+1478ZLJQ V0202001N002012200019N0300001N1+00431-00401101661ADDAA199000091GF101991001001999999001021MA1999999085421MD1210161+0031REMSYN076AAXX  25001 52533 32980 12002 10043 21040 38542 40166 52016 80002 333 00354;EQDQ01  00002PRCP99
0112525330999992000042503004+39770+098480FM-12+1478ZLJQ V0201101N003012200019N0300001N1+01191-00641101801ADDGF101991011011017501001021MD1210011+9999REMSYN060AAXX  25031 52533 42780 11103 10119 21064 40180 52001 81102;
0192525330999992000042506004+39770+098480FM-12+1478ZLJQ V0200401N004012200019N0300001N1+01581-00551101681ADDAA199000091GF101991001001999999001021KA1999N+00171MA1999999085301MD1710131+0301REMSYN082AAXX  25061 52533 32980 10404 10158 21055 38530 40168 57013 80002 333 00300 20017;EQDQ01  00002PRCP99
0132525330999992000042509004+39770+098480FM-12+1478ZLJQ V0200701N002012200019N0300001N1+01741-00641101491ADDGA1001+999999999GF100991001001999999001001MD1710151+0031REMSYN064AAXX  25091 52533 42980 00702 10174 21064 40149 57015 333 00300;
0183525330999992000042512004+39770+098480FM-12+1478ZLJQ V0200701N004012200019N0300001N1+01541-00691101611ADDAA199000091GA1001+999999999GF100991001001999999001001MA1999999085191MD1210041+0021REMSYN070AAXX  25121 52533 32980 00704 10154 21069 38519 40161 52004 333 00251;EQDQ01  00002PRCP99
0122525330999992000042515004+39770+098480FM-12+1478ZLJQ V0201401N003012200019N0300001N1+01041-00731101711ADDGA1001+999999999GF100991001001999999001001MD1210151+9999REMSYN054AAXX  25151 52533 42980 01403 10104 21073 40171 52015;
0202525330999992000042518004+39770+098480FM-12+1478ZLJQ V0200701N002012200019N0300001N1+00731-00761101551ADDAA199000091GA1001+999999999GF100991001001999999001001KA1999M+01821MA1999999085231MD1710111+0001REMSYN076AAXX  25181 52533 32980 00702 10073 21076 38523 40155 57011 333 00001 10182;EQDQ01  00002PRCP99
0132525330999992000042521004+39770+098480FM-12+1478ZLJQ V0202901N002012200019N0300001N1+00201-00691101591ADDGA1001+999999999GF100991001001999999001001MD1710071+0011REMSYN064AAXX  25211 52533 42980 02902 10020 21069 40159 57007 333 05153;
0183525330999992000042600004+39770+098480FM-12+1478ZLJQ V0202501N002012200019N0300001N1+00341-00631101631ADDAA199000091GA1001+999999999GF100991001001999999001001MA1999999085181MD1210021+0021REMSYN070AAXX  26001 52533 32980 02502 10034 21063 38518 40163 52002 333 05251;EQDQ01  00002PRCP99
0122525330999992000042603004+39770+098480FM-12+1478ZLJQ V0200701N003012200019N0300001N1+01341-00461101411ADDGA1001+999999999GF100991001001999999001001MD1710051+9999REMSYN054AAXX  26031 52533 42980 00703 10134 21046 40141 57005;
0192525330999992000042606004+39770+098480FM-12+1478ZLJQ V0200401N004012200019N0300001N1+01861-00771101041ADDAA199000091GF101991001001999999001021KA1999N+00041MA1999999084871MD1710261-0401REMSYN082AAXX  26061 52533 32980 10404 10186 21077 38487 40104 57026 80002 333 05403 20004;EQDQ01  00002PRCP99
0122525330999992000042609004+39770+098480FM-12+1478ZLJQ V0200701N002019999999N0300001N1+01941-00811100951ADDGF107991011001999999041021MD1710191+0051REMSYN070AAXX  26091 52533 42980 70702 10194 21081 40095 57019 81042 333 05502;
0173525330999992000042612004+39770+098480FM-12+1478ZLJQ V0200701N002019999999N0300001N1+01781-00571100961ADDAA199000091GF107991011041999999001021MA1999999084681MD1410001+0051REMSYN076AAXX  26121 52533 32980 70702 10178 21057 38468 40096 54000 81402 333 05502;EQDQ01  00002PRCP99
0112525330999992000042615004+39770+098480FM-12+1478ZLJQ V0202001N002019999999N0300001N1+01321-00531100831ADDGF105991001001999999001021MD1210031+9999REMSYN060AAXX  26151 52533 42980 52002 10132 21053 40083 52003 80002;
0218525330999992000042618004+39770+098480FM-12+1478ZLJQ V0202201N003012200019N0300001N1+00921+99999100721ADDAA199000091GA1001+999999999GF100991001001999999001001KA1999M+02031MA1999999084651MD1710061-0601REMSYN076AAXX  26181 52533 32980 02203 10092 20061 38465 40072 57006 333 05602 10203;EQDQ01+000613ATOD  Q02  00002PRCP99
0132525330999992000042621004+39770+098480FM-12+1478ZLJQ V0202501N002012200019N0300001N1+00691-00651100621ADDGA1001+999999999GF100991001001999999001001MD1710121+0061REMSYN064AAXX  26211 52533 42980 02502 10069 21065 40062 57012 333 05605;
0191525330999992000042700004+39770+098480FM-12+1478ZLJQ V0202201N002019999999N0300001N1+00981-00661100701ADDAA199000091GF107991001001999999001021IA2999-00209MA1999999084631MD1210101-0601REMSYN082AAXX  27001 52533 32980 72202 10098 21066 38463 40070 52010 80002 333 05606 31020;EQDQ01  00002PRCP99
0112525330999992000042703004+39770+098480FM-12+1478ZLJQ V0203401N003019999999N0300001N1+01951-00831100551ADDGF107991001001999999001021MD1410001+9999REMSYN060AAXX  27031 52533 42980 73403 10195 21083 40055 54000 80002;
0192525330999992000042706004+39770+098480FM-12+1478ZLJQ V0200901N003019999999N0300001N1+02191-01021100351ADDAA199000091GF107991001001999999001021KA1999N+00611MA1999999084421MD1710211-0501REMSYN082AAXX  27061 52533 32980 70903 10219 21102 38442 40035 57021 80002 333 05503 20061;EQDQ01  00002PRCP99
0122525330999992000042709004+39770+098480FM-12+1478ZLJQ V0203201N006010900019N0300001N1+02271-00871100291ADDGF107991031041017501001021MD1710091+0041REMSYN070AAXX  27091 52533 42780 73206 10227 21087 40029 57009 83402 333 05403;
0173525330999992000042712004+39770+098480FM-12+1478ZLJQ V0203201N005010900019N0300001N1+01961-00911100461ADDAA199000091GF107991011041017501001021MA1999999084471MD1210141+0021REMSYN076AAXX  27121 52533 32780 73205 10196 21091 38447 40046 52014 81402 333 05202;EQDQ01  00002PRCP99
0122525330999992000042715004+39770+098480FM-12+1478ZLJQ V0202901N005012200019N0300001N1+01531-00801100501ADDGA1001+999999999GF100991001001999999001001MD1210171+9999REMSYN054AAXX  27151 52533 42980 02905 10153 21080 40050 52017;
0192525330999992000042718004+39770+098480FM-12+1478ZLJQ V0203601N004019999999N0300001N1+01141+00061100841ADDAA199000091GF107991001001999999001021KA1999M+02431MA1999999084891MD1210251+0201REMSYN082AAXX  27181 52533 32980 73604 10114 20006 38489 40084 52025 80002 333 00202 10243;EQDQ01  00002PRCP99
0122525330999992000042721004+39770+098480FM-12+1478ZLJQ V0203401N002019999999N0300001N1+00761-00131101171ADDGF108991001001999999001071MD1210201+0061REMSYN070AAXX  27211 52533 42980 83402 10076 21013 40117 52020 80007 333 00601;
0204525330999992000042800004+39770+098480FM-12+1478ZLJQ V0200201N004019999999N0200001N1+00181-00131101811ADDAA106001091AY161061GF108991081001999999021999IA2999+00099MA1999999085401MD1210311+0801MW1681REMSYN100AAXX  28001 52533 11970 80204 10018 21013 38540 40181 52031 60011 76860 8802/ 333 00858 30009 70014;
0140525330999992000042803004+39770+098480FM-12+1478ZLJQ V0201401N001010150019N0300001N1+00301+00061102131ADDAY171031AY261031GF108991061051017501021999MD1210191+9999MW1601REMSYN066AAXX  28031 52533 41780 81401 10030 20006 40213 52019 76076 8652/;
0207525330999992000042806004+39770+098480FM-12+1478ZLJQ V0201401N002010900019N0300001N1+00681+00261102071ADDAA106000191AY171061AY261061GF107991021051017501001021KA1999N+00101MA1999999085531MD1710061+1101MW1001REMSYN094AAXX  28061 52533 11780 71402 10068 20026 38553 40207 57006 69921 70076 82502 333 01165 20010;
0122525330999992000042809004+39770+098480FM-12+1478ZLJQ V0202901N010010900019N0300001N1+01561-00471101671ADDGF107991011051017501001021MD1710201+0101REMSYN070AAXX  28091 52533 42780 72910 10156 21047 40167 57020 81502 333 01057;
0177525330999992000042812004+39770+098480FM-12+1478ZLJQ V0203201N005012200019N0300001N1+01471-01702102051ADDAA199000021GF104991001001999999001021MA1999999085471MD1210141+1001OA130601701REMSYN088AAXX  28121 52533 32980 43205 10147 21170 38547 40205 52014 80002 333 01055 91117 91529;
0122525330999992000042815004+39770+098480FM-12+1478ZLJQ V0202701N003012200019N0300001N1+00961-01011102411ADDGA1001+999999999GF100991001001999999001001MD1210201+9999REMSYN054AAXX  28151 52533 42980 02703 10096 21101 40241 52020;
0202525330999992000042818004+39770+098480FM-12+1478ZLJQ V0202701N002012200019N0300001N1+00481-00781102431ADDAA199000091GA1001+999999999GF100991001001999999001001KA1999M+01661MA1999999085661MD1710011+0801REMSYN076AAXX  28181 52533 32980 02702 10048 21078 38566 40243 57001 333 00857 10166;EQDQ01  00002PRCP99
0149525330999992000042821004+39770+098480FM-12+1478ZLJQ V0202501N003012200019N0300001N1+00301-00741102081ADDAA124001591GA1001+999999999GF100991001001999999001001MD1710111+0501REMSYN070AAXX  28211 52533 42980 02503 10030 21074 40208 57011 333 00555 70016;
0170525330999992000042900004+39770+098480FM-12+1478ZLJQ V0202501N002012200019N0300001N1+00511-00811102001ADDAA124000391GA1001+999999999GF100991001001999999001001MA1999999085521MD1710031+0101REMSYN076AAXX  29001 52533 32980 02502 10051 21081 38552 40200 57003 333 00103 70002;
0122525330999992000042903004+39770+098480FM-12+1478ZLJQ V0201101N004012200019N0300001N1+01371-00371101811ADDGA1001+999999999GF100991001001999999001001MD1710071+9999REMSYN054AAXX  29031 52533 42980 01104 10137 21037 40181 57007;
0202525330999992000042906004+39770+098480FM-12+1478ZLJQ V0200901N007012200019N0300001N1+01901-00771101451ADDAA199000091GA1001+999999999GF100991001001999999001001KA1999N+00251MA1999999085161MD1710291-0401REMSYN076AAXX  29061 52533 32980 00907 10190 21077 38516 40145 57029 333 05412 20025;EQDQ01  00002PRCP99
0132525330999992000042909004+39770+098480FM-12+1478ZLJQ V0200901N007012200019N0300001N1+02061-00911101171ADDGA1001+999999999GF100991001001999999001001MD1710241+0041REMSYN064AAXX  29091 52533 42980 00907 10206 21091 40117 57024 333 05405;
0173525330999992000042912004+39770+098480FM-12+1478ZLJQ V0200701N002012200019N0300001N1+01811-00601101151ADDAA199000091GF101991001001999999001021MA1999999084891MD1710031+0061REMSYN076AAXX  29121 52533 32980 10702 10181 21060 38489 40115 57003 80002 333 05603;EQDQ01  00002PRCP99
0112525330999992000042915004+39770+098480FM-12+1478ZLJQ V0200901N003012200019N0300001N1+01331-00791101161ADDGF101991001001999999001021MD1210111+9999REMSYN060AAXX  29151 52533 42980 10903 10133 21079 40116 52011 80002;
0202525330999992000042918004+39770+098480FM-12+1478ZLJQ V0202701N002012200019N0300001N1+00691-00421101091ADDAA199000091GA1001+999999999GF100991001001999999001001KA1999M+02121MA1999999084911MD1710091-0801REMSYN076AAXX  29181 52533 32980 02702 10069 21042 38491 40109 57009 333 05802 10212;EQDQ01  00002PRCP99
0132525330999992000042921004+39770+098480FM-12+1478ZLJQ V0202701N002012200019N0300001N1+00541-00711101071ADDGA1001+999999999GF100991001001999999001001MD1710011+0071REMSYN064AAXX  29211 52533 42980 02702 10054 21071 40107 57001 333 05702;
0191525330999992000043000004+39770+098480FM-12+1478ZLJQ V0202501N001019999999N0300001N1+00711-00621101261ADDAA199000091GF107991011001999999041021IA2999-00409MA1999999085041MD1210141-0501REMSYN082AAXX  30001 52533 32980 72501 10071 21062 38504 40126 52014 81042 333 05502 31049;EQDQ01  00002PRCP99
0131525330999992000043003004+39770+098480FM-12+1478ZLJQ V0200201N003012200019N0300001N1+01822-00581101171ADDGF103991001001999999001021MD1210081+9999REMSYN060AAXX  30031 52533 42980 30203 10182 21058 40117 52008 80002;EQDQ01+001823ATOT  
0192525330999992000043006004+39770+098480FM-12+1478ZLJQ V0201101N004019999999N0300001N1+02071-00771101171ADDAA199000091GF107991001001999999001021KA1999N+00391MA1999999085021MD1710101-0101REMSYN082AAXX  30061 52533 32980 71104 10207 21077 38502 40117 57010 80002 333 05102 20039;EQDQ01  00002PRCP99
0122525330999992000043009004+39770+098480FM-12+1478ZLJQ V0201601N004019999999N0300001N1+02161-00671100991ADDGF107991001001999999001021MD1710161+0011REMSYN070AAXX  30091 52533 42980 71604 10216 21067 40099 57016 80002 333 05101;
0173525330999992000043012004+39770+098480FM-12+1478ZLJQ V0201101N001019999999N0300001N1+01891+00191101041ADDAA199000091GF107991021001999999041021MA1999999084871MD1210011+0001REMSYN076AAXX  30121 52533 32980 71101 10189 20019 38487 40104 52001 82042 333 00001;EQDQ01  00002PRCP99
0112525330999992000043015004+39770+098480FM-12+1478ZLJQ V0202201N002019999999N0300001N1+01341-00501101071ADDGF107991001001999999001021MD1210171+9999REMSYN060AAXX  30151 52533 42980 72202 10134 21050 40107 52017 80002;
0192525330999992000043018004+39770+098480FM-12+1478ZLJQ V0202201N002012200019N0300001N1+01201-00801101061ADDAA199000091GF102991001001999999001021KA1999M+02221MA1999999085061MD1210021+0201REMSYN082AAXX  30181 52533 32980 22202 10120 21080 38506 40106 52002 80002 333 00205 10222;EQDQ01  00002PRCP99
0132525330999992000043021004+39770+098480FM-12+1478ZLJQ V0200701N001012200019N0300001N1+01001-00811101141ADDGA1001+999999999GF100991001001999999001001MD1210041+0021REMSYN064AAXX  30211 52533 42980 00701 10100 21081 40114 52004 333 00205;
0191525330999992000050100004+39770+098480FM-12+1478ZLJQ V0201101N002012200019N0300001N1+01181-00661101311ADDAA199000091GF101991001001999999001021IA2999-00209MA1999999085221MD1210121+0201REMSYN082AAXX  01001 52533 32980 11102 10118 21066 38522 40131 52012 80002 333 00205 31027;EQDQ01  00002PRCP99
0112525330999992000050103004+39770+098480FM-12+1478ZLJQ V0203401N004012200019N0300001N1+02201-01021101241ADDGF101991001001999999001021MD1210061+9999REMSYN060AAXX  01031 52533 42980 13404 10220 21102 40124 52006 80002;
0163525330999992000050106004+39770+098480FM-12+1478ZLJQ V0203401N005019999999N0300001N1+02331-01311999999ADDAA199000091GF107991999999999999999999MD1999999+0101REMSYN081AAXX  01061 52533 32980 73405 10233 21131 3855 40109 57013 80002 333 00103 20075;EQDQ01  00002PRCP99
0122525330999992000050109004+39770+098480FM-12+1478ZLJQ V0203201N007019999999N0300001N1+02241-01071101121ADDGF108991001001999999001071MD1710051+0021REMSYN070AAXX  01091 52533 42980 83207 10224 21107 40112 57005 80007 333 00201;
0173525330999992000050112004+39770+098480FM-12+1478ZLJQ V0203201N005019999999N0250001N1+02051-00841101221ADDAA199000091GF107991001001999999001021MA1999999085181MD1210081+0031REMSYN076AAXX  01121 52533 32975 73205 10205 21084 38518 40122 52008 80002 333 00302;EQDQ01  00002PRCP99
0112525330999992000050115004+39770+098480FM-12+1478ZLJQ V0202501N003019999999N0300001N1+01671-00671101251ADDGF107991001001999999001021MD1210191+9999REMSYN060AAXX  01151 52533 42980 72503 10167 21067 40125 52019 80002;
0192525330999992000050118004+39770+098480FM-12+1478ZLJQ V0202701N005019999999N0300001N1+01491-00871101301ADDAA199000091GF106991001001999999001021KA1999M+02471MA1999999085401MD1210031+0301REMSYN082AAXX  01181 52533 32980 62705 10149 21087 38540 40130 52003 80002 333 00303 10247;EQDQ01  00002PRCP99
0132525330999992000050121004+39770+098480FM-12+1478ZLJQ V0202501N002012200019N0300001N1+01101-00261101611ADDGA1001+999999999GF100991001001999999001001MD1210141+0041REMSYN064AAXX  01211 52533 42980 02502 10110 21026 40161 52014 333 00401;
0201525330999992000050200004+39770+098480FM-12+1478ZLJQ V0209999C000012200019N0300001N1+01031-00421101761ADDAA199000091GA1001+999999999GF100991001001999999001001IA2999+00109MA1999999085601MD1210061+0401REMSYN076AAXX  02001 52533 32980 00000 10103 21042 38560 40176 52006 333 00452 30019;EQDQ01  00002PRCP99
0122525330999992000050203004+39770+098480FM-12+1478ZLJQ V0201101N003012200019N0200001N1+01871-00121101621ADDGA1001+999999999GF100991001001999999001001MD1410001+9999REMSYN054AAXX  02031 52533 42970 01103 10187 21012 40162 54000;
0202525330999992000050206004+39770+098480FM-12+1478ZLJQ V0201101N004012200019N0200001N1+02281-00051101351ADDAA199000091GA1001+999999999GF100991001001999999001001KA1999N+00841MA1999999085431MD1710171+0301REMSYN076AAXX  02061 52533 32970 01104 10228 21005 38543 40135 57017 333 00351 20084;EQDQ01  00002PRCP99
0132525330999992000050209004+39770+098480FM-12+1478ZLJQ V0200701N003012200019N0200001N1+02411-00141101251ADDGA1001+999999999GF100991001001999999001001MD1710151+0021REMSYN064AAXX  02091 52533 42970 00703 10241 21014 40125 57015 333 00202;
0173525330999992000050212004+39770+098480FM-12+1478ZLJQ V0200901N002012200019N0200001N1+02171+00181101281ADDAA199000091GF101991001001999999001021MA1999999085231MD1710051+0011REMSYN076AAXX  02121 52533 32970 10902 10217 20018 38523 40128 57005 80002 333 00101;EQDQ01  00002PRCP99
0122525330999992000050215004+39770+098480FM-12+1478ZLJQ V0202201N002012200019N0200001N1+01681-00191101261ADDGA1001+999999999GF100991001001999999001001MD1210071+9999REMSYN054AAXX  02151 52533 42970 02202 10168 21019 40126 52007;
0202525330999992000050218004+39770+098480FM-12+1478ZLJQ V0202501N002012200019N0200001N1+01401-00311101061ADDAA199000091GA1001+999999999GF100991001001999999001001KA1999M+02471MA1999999085161MD1710141-0201REMSYN076AAXX  02181 52533 32970 02502 10140 21031 38516 40106 57014 333 05251 10247;EQDQ01  00002PRCP99
0132525330999992000050221004+39770+098480FM-12+1478ZLJQ V0202201N003012200019N0200001N1+01321-00381100931ADDGA1001+999999999GF100991001001999999001001MD1710101+0051REMSYN064AAXX  02211 52533 42970 02203 10132 21038 40093 57010 333 05502;
0191525330999992000050300004+39770+098480FM-12+1478ZLJQ V0201801N001019999999N0250001N1+01291-00251101091ADDAA199000091GF107991001001999999001021IA2999+00409MA1999999085131MD1210071-0501REMSYN082AAXX  03001 52533 32975 71801 10129 21025 38513 40109 52007 80002 333 05503 30044;EQDQ01  00002PRCP99
0112525330999992000050303004+39770+098480FM-12+1478ZLJQ V0203401N004019999999N0250001N1+02111-00471100981ADDGF107991001001999999001021MD1710011+9999REMSYN060AAXX  03031 52533 42975 73404 10211 21047 40098 57001 80002;
0192525330999992000050306004+39770+098480FM-12+1478ZLJQ V0200201N002019999999N0300001N1+02501-00381100761ADDAA199000091GF108991001001999999001071KA1999N+01131MA1999999084961MD1710161-0501REMSYN082AAXX  03061 52533 32980 80202 10250 21038 38496 40076 57016 80007 333 05502 20113;EQDQ01  00002PRCP99
0122525330999992000050309004+39770+098480FM-12+1478ZLJQ V0200201N003019999999N0300001N1+02651-00221100601ADDGF107991021001999999041021MD1710121+0041REMSYN070AAXX  03091 52533 42980 70203 10265 21022 40060 57012 82042 333 05402;
0173525330999992000050312004+39770+098480FM-12+1478ZLJQ V0202901N002012200019N0300001N1+02311-00011100691ADDAA199000091GF102991001001999999001021MA1999999084831MD1710011+0041REMSYN076AAXX  03121 52533 32980 22902 10231 21001 38483 40069 57001 80002 333 05401;EQDQ01  00002PRCP99
0112525330999992000050315004+39770+098480FM-12+1478ZLJQ V0203601N002019999999N0300001N1+01871+00221101041ADDGF107991001001999999001021MD1210391+9999REMSYN060AAXX  03151 52533 42980 73602 10187 20022 40104 52039 80002;
0192525330999992000050318004+39770+098480FM-12+1478ZLJQ V0202501N002019999999N0300001N1+01461+00291101011ADDAA199000091GF107991001001999999001021KA1999M+02701MA1999999085191MD1710031+0001REMSYN082AAXX  03181 52533 32980 72502 10146 20029 38519 40101 57003 80002 333 00001 10270;EQDQ01  00002PRCP99
0122525330999992000050321004+39770+098480FM-12+1478ZLJQ V0202501N002019999999N0300001N1+01091+00241100971ADDGF107991001001999999001021MD1710091+0001REMSYN070AAXX  03211 52533 42980 72502 10109 20024 40097 57009 80002 333 00052;
0191525330999992000050400004+39770+098480FM-12+1478ZLJQ V0202501N002019999999N0300001N1+01331+00161101071ADDAA199000091GF107991011001999999041021IA2999+00409MA1999999085161MD1210061+0001REMSYN082AAXX  04001 52533 32980 72502 10133 20016 38516 40107 52006 81042 333 00000 30046;EQDQ01  00002PRCP99
0112525330999992000050403004+39770+098480FM-12+1478ZLJQ V0200901N001019999999N0300001N1+02001+00251101191ADDGF108991011001999999041071MD1210161+9999REMSYN060AAXX  04031 52533 42980 80901 10200 20025 40119 52016 81047;
0192525330999992000050406004+39770+098480FM-12+1478ZLJQ V0200701N003019999999N0300001N1+02131+00141101181ADDAA199000091GF108991031001999999041071KA1999N+01031MA1999999085241MD1710081+0301REMSYN082AAXX  04061 52533 32980 80703 10213 20014 38524 40118 57008 83047 333 00354 20103;EQDQ01  00002PRCP99
0122525330999992000050409004+39770+098480FM-12+1478ZLJQ V0200901N004010900019N0300001N1+02211+00161101081ADDGF105991011011012501001021MD1710161+0021REMSYN070AAXX  04091 52533 42680 50904 10221 20016 40108 57016 81102 333 00254;
0173525330999992000050412004+39770+098480FM-12+1478ZLJQ V0200701N003010900019N0300001N1+01991+00301101131ADDAA199000091GF107991031091017501001021MA1999999085131MD1210051+0031REMSYN076AAXX  04121 52533 32780 70703 10199 20030 38513 40113 52005 83902 333 00353;EQDQ01  00002PRCP99
0132525330999992000050415004+39770+098480FM-12+1478ZLJQ V0200401N002012200019N0300001N1+01571+00421101271ADDAY181031GF101991001001999999001021MD1210181+9999MW1001REMSYN066AAXX  04151 52533 41980 10402 10157 20042 40127 52018 70080 80002;
0199525330999992000050418004+39770+098480FM-12+1478ZLJQ V0209999C000012200019N0300001N1+01201+00351101341ADDAA106000791AY181061GF102991001001999999001021KA1999M+02271MA1999999085311MD1410001+0101MW1001REMSYN094AAXX  04181 52533 11980 20000 10120 20035 38531 40134 54000 69901 70080 80002 333 00153 10227;
0149525330999992000050421004+39770+098480FM-12+1478ZLJQ V0202201N002012200019N0300001N1+00981+00321101261ADDAA124000791GA1001+999999999GF100991001001999999001001MD1710101+0101REMSYN070AAXX  04211 52533 42980 02202 10098 20032 40126 57010 333 00151 79999;
0197525330999992000050500004+39770+098480FM-12+1478ZLJQ V0202201N002012200019N0300001N1+01181+00301101892ADDAA124000791GF103991001001999999001021IA2999+00319MA1999999085341MD1210131+0201REMSYN088AAXX  05001 52533 32980 32202 10118 20030 38534 40189 52013 80002 333 00252 30031 79999;EQDQ01+101893APOSLP
0112525330999992000050503004+39770+098480FM-12+1478ZLJQ V0201101N003012200019N0300001N1+01821+00551101491ADDGF102991001001999999001021MD1210111+9999REMSYN060AAXX  05031 52533 42980 21103 10182 20055 40149 52011 80002;
0192525330999992000050506004+39770+098480FM-12+1478ZLJQ V0200701N003012200019N0300001N1+02341+00391101301ADDAA199000091GF101991001001999999001021KA1999N+00861MA1999999085331MD1710121+0101REMSYN082AAXX  05061 52533 32980 10703 10234 20039 38533 40130 57012 80002 333 00102 20086;EQDQ01  00002PRCP99
0122525330999992000050509004+39770+098480FM-12+1478ZLJQ V0200401N003012200019N0300001N1+02471+00231101091ADDGF101991001001999999001021MD1710201+0011REMSYN070AAXX  05091 52533 42980 10403 10247 20023 40109 57020 80002 333 00103;
0173525330999992000050512004+39770+098480FM-12+1478ZLJQ V0200701N001010900019N0300001N1+02301+00381101061ADDAA199000091GF107991011041017501001021MA1999999085111MD1710021+0001REMSYN076AAXX  05121 52533 32780 70701 10230 20038 38511 40106 57002 81402 333 00003;EQDQ01  00002PRCP99
0112525330999992000050515004+39770+098480FM-12+1478ZLJQ V0201101N002019999999N0300001N1+01961+00221101141ADDGF107991001001999999001021MD1210141+9999REMSYN060AAXX  05151 52533 42980 71102 10196 20022 40114 52014 80002;
0192525330999992000050518004+39770+098480FM-12+1478ZLJQ V0202201N002019999999N0300001N1+01501+00181101011ADDAA199000091GF105991001001999999001021KA1999M+02601MA1999999085161MD1710091-0201REMSYN082AAXX  05181 52533 32980 52202 10150 20018 38516 40101 57009 80002 333 05203 10260;EQDQ01  00002PRCP99
0122525330999992000050521004+39770+098480FM-12+1478ZLJQ V0202501N003012200019N0300001N1+01471+00111100951ADDGF102991001001999999001021MD1710031+0011REMSYN070AAXX  05211 52533 42980 22503 10147 20011 40095 57003 80002 333 05105;
0191525330999992000050600004+39770+098480FM-12+1478ZLJQ V0202201N002019999999N0300001N1+01521+00131101071ADDAA199000091GF107991021001999999041021IA2999+00409MA1999999085201MD1210071-0101REMSYN082AAXX  06001 52533 32980 72202 10152 20013 38520 40107 52007 82042 333 05103 30043;EQDQ01  00002PRCP99
0112525330999992000050603004+39770+098480FM-12+1478ZLJQ V0200701N003019999999N0300001N1+02261+00401100991ADDGF107991011001999999041021MD1210031+9999REMSYN060AAXX  06031 52533 42980 70703 10226 20040 40099 52003 81042;
0192525330999992000050606004+39770+098480FM-12+1478ZLJQ V0201601N002019999999N0300001N1+02501-00021100871ADDAA199000091GF107991031001999999031021KA1999N+01231MA1999999085081MD1710151-0301REMSYN082AAXX  06061 52533 32980 71602 10250 21002 38508 40087 57015 83032 333 05302 20123;EQDQ01  00002PRCP99
0122525330999992000050609004+39770+098480FM-12+1478ZLJQ V0203401N003019999999N0300001N1+02541-00081100691ADDGF108991031001999999031071MD1710151+0021REMSYN070AAXX  06091 52533 42980 83403 10254 21008 40069 57015 83037 333 05201;
0173525330999992000050612004+39770+098480FM-12+1478ZLJQ V0203401N002019999999N0300001N1+02351+00131100781ADDAA199000091GF107991011001999999041021MA1999999084971MD1210041+0011REMSYN076AAXX  06121 52533 32980 73402 10235 20013 38497 40078 52004 81042 333 05101;EQDQ01  00002PRCP99
0112525330999992000050615004+39770+098480FM-12+1478ZLJQ V0203401N002019999999N0300001N1+01951+00201100821ADDGF107991001001999999001021MD1210121+9999REMSYN060AAXX  06151 52533 42980 73402 10195 20020 40082 52012 80002;
0192525330999992000050618004+39770+098480FM-12+1478ZLJQ V0203401N004019999999N0300001N1+01421-00101101051ADDAA199000091GF106991001001999999001021KA1999M+02641MA1999999085211MD1210121+0101REMSYN082AAXX  06181 52533 32980 63404 10142 21010 38521 40105 52012 80002 333 00151 10264;EQDQ01  00002PRCP99
0122525330999992000050621004+39770+098480FM-12+1478ZLJQ V0202901N002019999999N0300001N1+01011-00271101201ADDGF107991001001999999001021MD1210041+0011REMSYN070AAXX  06211 52533 42980 72902 10101 21027 40120 52004 80002 333 00155;
0191525330999992000050700004+39770+098480FM-12+1478ZLJQ V0202901N002019999999N0300001N1+00921-00541101421ADDAA199000091GF107991001001999999001021IA2999+00409MA1999999085361MD1210111+0201REMSYN082AAXX  07001 52533 32980 72902 10092 21054 38536 40142 52011 80002 333 00256 30047;EQDQ01  00002PRCP99
0112525330999992000050703004+39770+098480FM-12+1478ZLJQ V0203401N003019999999N0300001N1+01401-00391101491ADDGF107991001001999999001021MD1210081+9999REMSYN060AAXX  07031 52533 42980 73403 10140 21039 40149 52008 80002;
0192525330999992000050706004+39770+098480FM-12+1478ZLJQ V0200201N004019999999N0300001N1+01871-00151101401ADDAA199000091GF107991001001999999001021KA1999N+00781MA1999999085351MD1710091+0301REMSYN082AAXX  07061 52533 32980 70204 10187 21015 38535 40140 57009 80002 333 00356 20078;EQDQ01  00002PRCP99
0122525330999992000050709004+39770+098480FM-12+1478ZLJQ V0203401N005019999999N0200001N1+02071-00041101371ADDGF107991001001999999001021MD1710081+0031REMSYN070AAXX  07091 52533 42970 73405 10207 21004 40137 57008 80002 333 00355;
0173525330999992000050712004+39770+098480FM-12+1478ZLJQ V0203401N008019999999N0200001N1+01821-00101101651ADDAA199000091GF108991081001999999021999MA1999999085421MD1210151+0051REMSYN076AAXX  07121 52533 32970 83408 10182 21010 38542 40165 52015 8802/ 333 00555;EQDQ01  00002PRCP99
0112525330999992000050715004+39770+098480FM-12+1478ZLJQ V0202501N001019999999N0200001N1+01601+00281101741ADDGF108991081001999999021999MD1210141+9999REMSYN060AAXX  07151 52533 42970 82501 10160 20028 40174 52014 8802/;
0192525330999992000050718004+39770+098480FM-12+1478ZLJQ V0200401N003019999999N0200001N1+01301+00111101701ADDAA199000091GF108991081001999999021999KA1999M+02141MA1999999085571MD1210011+0401REMSYN082AAXX  07181 52533 32970 80403 10130 20011 38557 40170 52001 8802/ 333 00451 10214;EQDQ01  00002PRCP99
0159525330999992000050721004+39770+098480FM-12+1478ZLJQ V0203601N001019999999N0300001N1+01051+00361101701ADDAA124000791AY161031GF107991031001999999041021MD1710011+0301MW1211REMSYN082AAXX  07211 52533 41980 73601 10105 20036 40170 57001 72160 83042 333 00300 79999;
0204525330999992000050800004+39770+098480FM-12+1478ZLJQ V0209999C000012200019N0300001N1+01111+00151101791ADDAA106000791AY161061GF101991001001999999001021IA2999+00339MA1999999085591MD1210031+0201MW1001REMSYN100AAXX  08001 52533 11980 10000 10111 20015 38559 40179 52003 69901 70060 80002 333 00202 30033 79999;
0112525330999992000050803004+39770+098480FM-12+1478ZLJQ V0200701N002019999999N0300001N1+01341+00231101801ADDGF107991011001999999041021MD1210011+9999REMSYN060AAXX  08031 52533 42980 70702 10134 20023 40180 52001 81042;
0173525330999992000050806004+39770+098480FM-12+1478ZLJQ V0203401N004010900019N0300001N1+01751-00281101661ADDAA199000021GF107991011011017501001021KA1999N+00851MA1999999085511MD1710091+0201REMSYN082AAXX  08061 52533 32780 73404 10175 21028 38551 40166 57009 81102 333 00251 20085;
0122525330999992000050809004+39770+098480FM-12+1478ZLJQ V0200401N002012200019N0300001N1+01991-00451101441ADDGF102991021011017501001021MD1710191+0011REMSYN070AAXX  08091 52533 42780 20402 10199 21045 40144 57019 82102 333 00151;
0173525330999992000050812004+39770+098480FM-12+1478ZLJQ V0202901N005010150019N0300001N1+01931-00251101361ADDAA199000091GF107991061041017501001021MA1999999085251MD1710071+0021REMSYN076AAXX  08121 52533 32780 72905 10193 21025 38525 40136 57007 86402 333 05201;EQDQ01  00002PRCP99
0112525330999992000050815004+39770+098480FM-12+1478ZLJQ V0203601N002019999999N0300001N1+01351-00531101741ADDGF106991001001999999001021MD1210231+9999REMSYN060AAXX  08151 52533 42980 63602 10135 21053 40174 52023 80002;
0192525330999992000050818004+39770+098480FM-12+1478ZLJQ V0202001N002012200019N0300001N1+01071-00391101641ADDAA199000091GF103991001001999999001021KA1999M+02091MA1999999085431MD1710051-0101REMSYN082AAXX  08181 52533 32980 32002 10107 21039 38543 40164 57005 80002 333 05152 10209;EQDQ01  00002PRCP99
0122525330999992000050821004+39770+098480FM-12+1478ZLJQ V0202501N002019999999N0300001N1+00921-00351101501ADDGF108991001001999999001071MD1710091+0021REMSYN070AAXX  08211 52533 42980 82502 10092 21035 40150 57009 80007 333 05251;
0191525330999992000050900004+39770+098480FM-12+1478ZLJQ V0202201N001019999999N0300001N1+01211-00291101471ADDAA199000091GF107991001001999999001021IA2999+00309MA1999999085371MD1210031-0201REMSYN082AAXX  09001 52533 32980 72201 10121 21029 38537 40147 52003 80002 333 05201 30033;EQDQ01  00002PRCP99
0112525330999992000050903004+39770+098480FM-12+1478ZLJQ V0201101N003019999999N0300001N1+01731-00061101441ADDGF107991021001999999041021MD1710041+9999REMSYN060AAXX  09031 52533 42980 71103 10173 21006 40144 57004 82042;
0192525330999992000050906004+39770+098480FM-12+1478ZLJQ V0203401N003010900019N0300001N1+02041-00101101201ADDAA199000091GF107991031041017501001021KA1999N+00881MA1999999085141MD1710191-0401REMSYN082AAXX  09061 52533 32780 73403 10204 21010 38514 40120 57019 83402 333 05403 20088;EQDQ01  00002PRCP99
0122525330999992000050909004+39770+098480FM-12+1478ZLJQ V0203401N006010900019N0300001N1+02281-00041101001ADDGF107991011041017501001021MD1710151+0031REMSYN070AAXX  09091 52533 42780 73406 10228 21004 40100 57015 81402 333 05303;
0173525330999992000050912004+39770+098480FM-12+1478ZLJQ V0202701N001010900019N0300001N1+02111+00701100901ADDAA199000091GF107991021041017501001021MA1999999084941MD1710051+0031REMSYN076AAXX  09121 52533 32780 72701 10211 20070 38494 40090 57005 82402 333 05302;EQDQ01  00002PRCP99
0112525330999992000050915004+39770+098480FM-12+1478ZLJQ V0202901N003019999999N0300001N1+02051-00081100841ADDGF108991001001999999001071MD1210061+9999REMSYN060AAXX  09151 52533 42980 82903 10205 21008 40084 52006 80007;
0192525330999992000050918004+39770+098480FM-12+1478ZLJQ V0202701N001012200019N0300001N1+01581+00191100921ADDAA199000091GF101991001001999999001021KA1999M+02381MA1999999085031MD1210031-0401REMSYN082AAXX  09181 52533 32980 12701 10158 20019 38503 40092 52003 80002 333 05405 10238;EQDQ01  00002PRCP99
0122525330999992000050921004+39770+098480FM-12+1478ZLJQ V0202001N002019999999N0300001N1+01341+00151100721ADDGF107991001001999999001021MD1710171+0051REMSYN070AAXX  09211 52533 42980 72002 10134 20015 40072 57017 80002 333 05504;
0173525330999992000051000004+39770+098480FM-12+1478ZLJQ V0209999C000019999999N0300001N1+01301+00531100831ADDAA199000091GF107991011001999999041021MA1999999084901MD1210041+0051REMSYN076AAXX  10001 52533 32980 70000 10130 20053 38490 40083 52004 81042 333 05501;EQDQ01  00002PRCP99
0112525330999992000051003004+39770+098480FM-12+1478ZLJQ V0203601N003019999999N0300001N1+01971+00181100741ADDGF108991021001999999041071MD1210071+9999REMSYN060AAXX  10031 52533 42980 83603 10197 20018 40074 52007 82047;
0192525330999992000051006004+39770+098480FM-12+1478ZLJQ V0203401N003019999999N0300001N1+02211+00171100701ADDAA199000091GF108991031001999999041021KA1999N+01201MA1999999084881MD1710091-0301REMSYN082AAXX  10061 52533 32980 83403 10221 20017 38488 40070 57009 83042 333 05302 20120;EQDQ01  00002PRCP99
0142525330999992000051009004+39770+098480FM-12+1478ZLJQ V0202901N008010150019N0300001N1+01671+00631101261ADDAY181031GF107991051041017501001021MD1210281+0021MW1251REMSYN076AAXX  10091 52533 41780 72908 10167 20063 40126 52028 72580 85402 333 00256;
0180525330999992000051012004+39770+098480FM-12+1478ZLJQ V0203601N003012200019N0300001N1+01811+00461101231ADDAA106000791AY181061GF103991031041017501001001MA1999999085161MD1410001+0021MW1001REMSYN088AAXX  10121 52533 11780 33603 10181 20046 38516 40123 54000 69901 70080 83400 333 00253;
0112525330999992000051015004+39770+098480FM-12+1478ZLJQ V0202901N006012200019N0300001N1+01821+00101101031ADDGF102991001001999999001021MD1410001+9999REMSYN060AAXX  10151 52533 42980 22906 10182 20010 40103 54000 80002;
0183525330999992000051018004+39770+098480FM-12+1478ZLJQ V0202701N005012200019N0300001N1+01651-00871101091ADDAA199000021GA1001+999999999GF100991001001999999001001KA1999M+02281MA1999999085231MD1210071+0201REMSYN076AAXX  10181 52533 32980 02705 10165 21087 38523 40109 52007 333 00201 10228;
0139525330999992000051021004+39770+098480FM-12+1478ZLJQ V0202901N003012200019N0300001N1+01411-00711101341ADDAA124000791GF101991001001999999001021MD1210021+0401REMSYN076AAXX  10211 52533 42980 12903 10141 21071 40134 52002 80002 333 00401 79999;
0178525330999992000051100004+39770+098480FM-12+1478ZLJQ V0201101N002012200019N0300001N1+01461-00171101431ADDAA124000791GF101991001001999999001021IA2999+00489MA1999999085371MD1210121+0501REMSYN088AAXX  11001 52533 32980 11102 10146 21017 38537 40143 52012 80002 333 00502 30048 79999;
0112525330999992000051103004+39770+098480FM-12+1478ZLJQ V0201101N002012200019N0300001N1+01861-00321101271ADDGF103991001001999999001021MD1710031+9999REMSYN060AAXX  11031 52533 42980 31102 10186 21032 40127 57003 80002;
0192525330999992000051106004+39770+098480FM-12+1478ZLJQ V0200701N003010900019N0300001N1+02151-00211100971ADDAA199000091GF107991011011012501001021KA1999N+01161MA1999999085111MD1710231+0201REMSYN082AAXX  11061 52533 32680 70703 10215 21021 38511 40097 57023 81102 333 00251 20116;EQDQ01  00002PRCP99
0122525330999992000051109004+39770+098480FM-12+1478ZLJQ V0200901N002010900019N0300001N1+02421-00191100701ADDGF106991011041017501001021MD1710221+0031REMSYN070AAXX  11091 52533 42780 60902 10242 21019 40070 57022 81402 333 05308;
0173525330999992000051112004+39770+098480FM-12+1478ZLJQ V0201401N003010900019N0300001N1+02111+00331100621ADDAA199000091GF107991011041017501001021MA1999999084761MD1710131+0041REMSYN076AAXX  11121 52533 32780 71403 10211 20033 38476 40062 57013 81402 333 05403;EQDQ01  00002PRCP99
0122525330999992000051115004+39770+098480FM-12+1478ZLJQ V0203401N001012200019N0300001N1+01801-00021100521ADDGA1001+999999999GF100991001001999999001001MD1710061+9999REMSYN054AAXX  11151 52533 42980 03401 10180 21002 40052 57006;
0192525330999992000051118004+39770+098480FM-12+1478ZLJQ V0202201N002012200019N0300001N1+01221+00231100521ADDAA199000091GF103991001001999999001021KA1999M+02531MA1999999084631MD1710071-0601REMSYN082AAXX  11181 52533 32980 32202 10122 20023 38463 40052 57007 80002 333 05654 10253;EQDQ01  00002PRCP99
0122525330999992000051121004+39770+098480FM-12+1478ZLJQ V0203201N002012200019N0300001N1+01011+00021100461ADDGF101991001001999999001021MD1710041+0071REMSYN070AAXX  11211 52533 42980 13202 10101 20002 40046 57004 80002 333 05754;
0191525330999992000051200004+39770+098480FM-12+1478ZLJQ V0202001N002012200019N0300001N1+01501-00021100441ADDAA199000091GF101991001001999999001021IA2999+00309MA1999999084621MD1210031-0801REMSYN082AAXX  12001 52533 32980 12002 10150 21002 38462 40044 52003 80002 333 05800 30036;EQDQ01  00002PRCP99
0112525330999992000051203004+39770+098480FM-12+1478ZLJQ V0200201N004019999999N0300001N1+02471-00191100251ADDGF106991001001999999001021MD1410001+9999REMSYN060AAXX  12031 52533 42980 60204 10247 21019 40025 54000 80002;
0192525330999992000051206004+39770+098480FM-12+1478ZLJQ V0203401N005019999999N0300001N1+02541-00401100401ADDAA199000091GF107991021001999999041021KA1999N+00901MA1999999084621MD1410001-0501REMSYN082AAXX  12061 52533 32980 73405 10254 21040 38462 40040 54000 82042 333 05504 20090;EQDQ01  00002PRCP99
0122525330999992000051209004+39770+098480FM-12+1478ZLJQ V0200901N003019999999N0300001N1+02681+00231100291ADDGF107991011001999999041021MD1710111+0041REMSYN070AAXX  12091 52533 42980 70903 10268 20023 40029 57011 81042 333 05403;
0173525330999992000051212004+39770+098480FM-12+1478ZLJQ V0201401N002019999999N0300001N1+02421+00911100151ADDAA199000091GF107991011001999999041021MA1999999084451MD1710061+0031REMSYN076AAXX  12121 52533 32980 71402 10242 20091 38445 40015 57006 81042 333 05303;EQDQ01  00002PRCP99
0112525330999992000051215004+39770+098480FM-12+1478ZLJQ V0201801N001019999999N0300001N1+01921+00501099991ADDGF107991001001999999001021MD1710021+9999REMSYN060AAXX  12151 52533 42980 71801 10192 20050 49999 57002 80002;
0192525330999992000051218004+39770+098480FM-12+1478ZLJQ V0203401N003012200019N0300001N1+01661+00321100131ADDAA199000091GF104991001001999999001021KA1999M+02761MA1999999084501MD1210071-0101REMSYN082AAXX  12181 52533 32980 43403 10166 20032 38450 40013 52007 80002 333 05104 10276;EQDQ01  00002PRCP99
0132525330999992000051221004+39770+098480FM-12+1478ZLJQ V0203201N002012200019N0300001N1+01381+00291100211ADDGA1001+999999999GF100991001001999999001001MD1210041+0011REMSYN064AAXX  12211 52533 42980 03202 10138 20029 40021 52004 333 05104;
0173525330999992000051300004+39770+098480FM-12+1478ZLJQ V0203201N002019999999N0300001N1+01411+00081100531ADDAA199000091GF107991031001999999041021MA1999999084751MD1210211+0011REMSYN076AAXX  13001 52533 32980 73202 10141 20008 38475 40053 52021 83042 333 00151;EQDQ01  00002PRCP99
0112525330999992000051303004+39770+098480FM-12+1478ZLJQ V0203201N005010360019N0300001N1+01801+00191100861ADDGF107991011011012501041021MD1210251+9999REMSYN060AAXX  13031 52533 42680 73205 10180 20019 40086 52025 81142;
0192525330999992000051306004+39770+098480FM-12+1478ZLJQ V0200201N005010900019N0300001N1+01871+00571100971ADDAA199000091GF107991011011012501001021KA1999N+01291MA1999999085051MD1210051+0401REMSYN082AAXX  13061 52533 32680 70205 10187 20057 38505 40097 52005 81102 333 00457 20129;EQDQ01  00002PRCP99
0122525330999992000051309004+39770+098480FM-12+1478ZLJQ V0203601N003019999999N0300001N1+01831+00591100951ADDGF107991051001999999041021MD1710101+0041REMSYN070AAXX  13091 52533 42980 73603 10183 20059 40095 57010 85042 333 00459;
0173525330999992000051312004+39770+098480FM-12+1478ZLJQ V0201801N003010360019N0300001N1+01751+00631100901ADDAA199000091GF107991011041017501041021MA1999999084901MD1710051+0051REMSYN076AAXX  13121 52533 32780 71803 10175 20063 38490 40090 57005 81442 333 00557;EQDQ01  00002PRCP99
0112525330999992000051315004+39770+098480FM-12+1478ZLJQ V0209999C000019999999N0300001N1+01561+00701100861ADDGF107991001001999999001021MD1210011+9999REMSYN060AAXX  13151 52533 42980 70000 10156 20070 40086 52001 80002;
0192525330999992000051318004+39770+098480FM-12+1478ZLJQ V0202501N002019999999N0300001N1+01251+00441101171ADDAA199000091GF107991001001999999001021KA1999M+01971MA1999999085111MD1210201+0601REMSYN082AAXX  13181 52533 32980 72502 10125 20044 38511 40117 52020 80002 333 00654 10197;EQDQ01  00002PRCP99
0122525330999992000051321004+39770+098480FM-12+1478ZLJQ V0202501N002019999999N0300001N1+01001+00301101281ADDGF106991001001999999001021MD1210021+0061REMSYN070AAXX  13211 52533 42980 62502 10100 20030 40128 52002 80002 333 00654;
0191525330999992000051400004+39770+098480FM-12+1478ZLJQ V0202701N001012200019N0300001N1+01161+00351101351ADDAA199000091GF102991001001999999001021IA2999+00209MA1999999085211MD1210081+0501REMSYN082AAXX  14001 52533 32980 22701 10116 20035 38521 40135 52008 80002 333 00553 30025;EQDQ01  00002PRCP99
0112525330999992000051403004+39770+098480FM-12+1478ZLJQ V0209999C000012200019N0300001N1+01701-00041101231ADDGF101991001001999999001021MD1710011+9999REMSYN060AAXX  14031 52533 42980 10000 10170 21004 40123 57001 80002;
0192525330999992000051406004+39770+098480FM-12+1478ZLJQ V0201401N003019999999N0300001N1+01931-00061101111ADDAA199000091GF107991001001999999001021KA1999N+00861MA1999999085081MD1710121+0001REMSYN082AAXX  14061 52533 32980 71403 10193 21006 38508 40111 57012 80002 333 00001 20086;EQDQ01  00002PRCP99
0122525330999992000051409004+39770+098480FM-12+1478ZLJQ V0201101N003019999999N0300001N1+02081-00161100991ADDGF108991011001999999041071MD1710131+0001REMSYN070AAXX  14091 52533 42980 81103 10208 21016 40099 57013 81047 333 00003;
0173525330999992000051412004+39770+098480FM-12+1478ZLJQ V0209999C000019999999N0300001N1+01961+00191101091ADDAA199000091GF107991011001999999041021MA1999999085051MD1210101+0021REMSYN076AAXX  14121 52533 32980 70000 10196 20019 38505 40109 52010 81042 333 00202;EQDQ01  00002PRCP99
0112525330999992000051415004+39770+098480FM-12+1478ZLJQ V0203401N001019999999N0300001N1+01731+00011101171ADDGF108991001001999999001071MD1210141+9999REMSYN060AAXX  14151 52533 42980 83401 10173 20001 40117 52014 80007;
0192525330999992000051418004+39770+098480FM-12+1478ZLJQ V0209999C000019999999N0300001N1+01541+00011101221ADDAA199000091GF108991021001999999041071KA1999M+02121MA1999999085241MD1210051+0101REMSYN082AAXX  14181 52533 32980 80000 10154 20001 38524 40122 52005 82047 333 00103 10212;EQDQ01  00002PRCP99
0122525330999992000051421004+39770+098480FM-12+1478ZLJQ V0202901N004019999999N0300001N1+01701-00051101201ADDGF107991061001999999031021MD1210061+0021REMSYN070AAXX  14211 52533 42980 72904 10170 21005 40120 52006 86032 333 00207;
0173525330999992000051500004+39770+098480FM-12+1478ZLJQ V0203401N003010360019N0300001N1+01461-00171101551ADDAA199000091GF107991021041012501041021MA1999999085511MD1210211+0031REMSYN076AAXX  15001 52533 32680 73403 10146 21017 38551 40155 52021 82442 333 00303;EQDQ01  00002PRCP99
0112525330999992000051503004+39770+098480FM-12+1478ZLJQ V0203401N003010360019N0300001N1+01811-00201101601ADDGF107991011011012501041021MD1210071+9999REMSYN060AAXX  15031 52533 42680 73403 10181 21020 40160 52007 81142;
0192525330999992000051506004+39770+098480FM-12+1478ZLJQ V0203201N002010900019N0300001N1+01991-00021101451ADDAA199000091GF107991031011012501001021KA1999N+01441MA1999999085451MD1710131+0401REMSYN082AAXX  15061 52533 32680 73202 10199 21002 38545 40145 57013 83102 333 00401 20144;EQDQ01  00002PRCP99
0134525330999992000051509004+39770+098480FM-12+1478ZLJQ V0202001N004010150019N0300001N1+01981-00081101261ADDGF107991061091017501001021MD1710121+0041MW1801REMSYN076AAXX  15091 52533 41780 72004 10198 21008 40126 57012 78000 86902 333 00451;
0180525330999992000051512004+39770+098480FM-12+1478ZLJQ V0201801N003012200019N0300001N1+01901+00231101381ADDAA106000791AY181061GF101991011041017501001021MA1999999085351MD1210021+0031MW1001REMSYN088AAXX  15121 52533 11780 11803 10190 20023 38535 40138 52002 69901 70080 81402 333 00351;
0122525330999992000051515004+39770+098480FM-12+1478ZLJQ V0209999C000012200019N0300001N1+01421+00491101511ADDGA1001+999999999GF100991001001999999001001MD1210081+9999REMSYN054AAXX  15151 52533 42980 00000 10142 20049 40151 52008;
0183525330999992000051518004+39770+098480FM-12+1478ZLJQ V0202901N003012200019N0300001N1+01441+00031101451ADDAA199000021GA1001+999999999GF100991001001999999001001KA1999M+02201MA1999999085431MD1410001+0201REMSYN076AAXX  15181 52533 32980 02903 10144 20003 38543 40145 54000 333 00251 10220;
0149525330999992000051521004+39770+098480FM-12+1478ZLJQ V0202501N002012200019N0300001N1+01161+00141101481ADDAA124000791GA1001+999999999GF100991001001999999001001MD1710051+0101REMSYN070AAXX  15211 52533 42980 02502 10116 20014 40148 57005 333 00155 79999;
0188525330999992000051600004+39770+098480FM-12+1478ZLJQ V0203401N001012200019N0300001N1+01311+00211101661ADDAA124000791GA1001+999999999GF100991001001999999001001IA2999+00299MA1999999085551MD1210171+0001REMSYN082AAXX  16001 52533 32980 03401 10131 20021 38555 40166 52017 333 00052 30029 79999;
0112525330999992000051603004+39770+098480FM-12+1478ZLJQ V0201101N002012200019N0300001N1+01731+00031101761ADDGF101991011011017501001021MD1210071+9999REMSYN060AAXX  16031 52533 42780 11102 10173 20003 40176 52007 81102;
0192525330999992000051606004+39770+098480FM-12+1478ZLJQ V0201801N004010120019N0300001N1+02041+00261101401ADDAA199000091GF106991051091012501001021KA1999N+00921MA1999999085401MD1710221-0101REMSYN082AAXX  16061 52533 32680 61804 10204 20026 38540 40140 57022 85902 333 05101 20092;EQDQ01  00002PRCP99
0122525330999992000051609004+39770+098480FM-12+1478ZLJQ V0203201N007012200019N0300001N1+02441-00601101011ADDGF101991011041017501001001MD1710301+0021REMSYN070AAXX  16091 52533 42780 13207 10244 21060 40101 57030 81400 333 05205;
0173525330999992000051612004+39770+098480FM-12+1478ZLJQ V0203401N005012200019N0300001N1+02171-00651101121ADDAA199000091GF101991011041017501001001MA1999999085161MD1210061+0021REMSYN076AAXX  16121 52533 32780 13405 10217 21065 38516 40112 52006 81400 333 05203;EQDQ01  00002PRCP99
0112525330999992000051615004+39770+098480FM-12+1478ZLJQ V0202001N001012200019N0300001N1+01321-00311101761ADDGF101991011001999999041021MD1210431+9999REMSYN060AAXX  16151 52533 42980 12001 10132 21031 40176 52043 81042;
0202525330999992000051618004+39770+098480FM-12+1478ZLJQ V0202701N002012200019N0300001N1+00961-00551101841ADDAA199000091GA1001+999999999GF100991001001999999001001KA1999M+02481MA1999999085651MD1210061+0201REMSYN076AAXX  16181 52533 32980 02702 10096 21055 38565 40184 52006 333 00255 10248;EQDQ01  00002PRCP99
0132525330999992000051621004+39770+098480FM-12+1478ZLJQ V0202901N002012200019N0300001N1+00791-00651101761ADDGA1001+999999999GF100991001001999999001001MD1710011+0031REMSYN064AAXX  16211 52533 42980 02902 10079 21065 40176 57001 333 00354;
0191525330999992000051700004+39770+098480FM-12+1478ZLJQ V0202201N001012200019N0300001N1+01041-00691101901ADDAA199000091GF101991001001999999001021IA2999-00209MA1999999085751MD1210111+0201REMSYN082AAXX  17001 52533 32980 12201 10104 21069 38575 40190 52011 80002 333 00253 31026;EQDQ01  00002PRCP99
0122525330999992000051703004+39770+098480FM-12+1478ZLJQ V0200701N002012200019N0300001N1+01641-00761102031ADDGA1001+999999999GF100991001001999999001001MD1210051+9999REMSYN054AAXX  17031 52533 42980 00702 10164 21076 40203 52005;
0202525330999992000051706004+39770+098480FM-12+1478ZLJQ V0200701N003012200019N0300001N1+01891-00431101881ADDAA199000091GA1001+999999999GF100991001001999999001001KA1999N+00561MA1999999085641MD1710161+0201REMSYN076AAXX  17061 52533 32980 00703 10189 21043 38564 40188 57016 333 00252 20056;EQDQ01  00002PRCP99
0132525330999992000051709004+39770+098480FM-12+1478ZLJQ V0201401N002012200019N0300001N1+02151-00291101561ADDGA1001+999999999GF100991001001999999001001MD1710241+0031REMSYN064AAXX  17091 52533 42980 01402 10215 21029 40156 57024 333 00353;
0183525330999992000051712004+39770+098480FM-12+1478ZLJQ V0201101N002012200019N0300001N1+01941-00011101531ADDAA199000091GA1001+999999999GF100991001001999999001001MA1999999085381MD1710021+0021REMSYN070AAXX  17121 52533 32980 01102 10194 21001 38538 40153 57002 333 00252;EQDQ01  00002PRCP99
0112525330999992000051715004+39770+098480FM-12+1478ZLJQ V0202501N001019999999N0300001N1+01301-00101101621ADDGF106991001001999999001021MD1210071+9999REMSYN060AAXX  17151 52533 42980 62501 10130 21010 40162 52007 80002;
0192525330999992000051718004+39770+098480FM-12+1478ZLJQ V0202501N003019999999N0300001N1+01081-00401101501ADDAA199000091GF106991001001999999001021KA1999M+02221MA1999999085351MD1710101-0301REMSYN082AAXX  17181 52533 32980 62503 10108 21040 38535 40150 57010 80002 333 05301 10222;EQDQ01  00002PRCP99
0122525330999992000051721004+39770+098480FM-12+1478ZLJQ V0202201N002019999999N0300001N1+00761-00321101411ADDGF107991001001999999001021MD1710091+0041REMSYN070AAXX  17211 52533 42980 72202 10076 21032 40141 57009 80002 333 05400;
0191525330999992000051800004+39770+098480FM-12+1478ZLJQ V0202201N002012200019N0300001N1+01101-00331101431ADDAA199000091GF101991001001999999001021IA2999-00109MA1999999085311MD1210051-0401REMSYN082AAXX  18001 52533 32980 12202 10110 21033 38531 40143 52005 80002 333 05401 31012;EQDQ01  00002PRCP99
0122525330999992000051803004+39770+098480FM-12+1478ZLJQ V0201101N003012200019N0300001N1+01981-00231101381ADDGA1001+999999999GF100991001001999999001001MD1210021+9999REMSYN054AAXX  18031 52533 42980 01103 10198 21023 40138 52002;
0202525330999992000051806004+39770+098480FM-12+1478ZLJQ V0200701N003012200019N0300001N1+02341-00491101161ADDAA199000091GA1001+999999999GF100991001001999999001001KA1999N+00711MA1999999085181MD1710151-0501REMSYN076AAXX  18061 52533 32980 00703 10234 21049 38518 40116 57015 333 05505 20071;EQDQ01  00002PRCP99
0132525330999992000051809004+39770+098480FM-12+1478ZLJQ V0201101N003012200019N0300001N1+02501-00631101021ADDGA1001+999999999GF100991001001999999001001MD1710161+0041REMSYN064AAXX  18091 52533 42980 01103 10250 21063 40102 57016 333 05404;
0183525330999992000051812004+39770+098480FM-12+1478ZLJQ V0200701N002012200019N0300001N1+02321+00041100931ADDAA199000091GA1001+999999999GF100991001001999999001001MA1999999084991MD1710031+0041REMSYN070AAXX  18121 52533 32980 00702 10232 20004 38499 40093 57003 333 05404;EQDQ01  00002PRCP99
0122525330999992000051815004+39770+098480FM-12+1478ZLJQ V0202201N002012200019N0300001N1+01721-00541100961ADDGA1001+999999999GF100991001001999999001001MD1210091+9999REMSYN054AAXX  18151 52533 42980 02202 10172 21054 40096 52009;
0202525330999992000051818004+39770+098480FM-12+1478ZLJQ V0202201N002012200019N0300001N1+01341-00821100861ADDAA199000091GA1001+999999999GF100991001001999999001001KA1999M+02611MA1999999084991MD1710091-0401REMSYN076AAXX  18181 52533 32980 02202 10134 21082 38499 40086 57009 333 05403 10261;EQDQ01  00002PRCP99
0132525330999992000051821004+39770+098480FM-12+1478ZLJQ V0202501N002012200019N0300001N1+01081-00771100821ADDGA1001+999999999GF100991001001999999001001MD1710061+0031REMSYN064AAXX  18211 52533 42980 02502 10108 21077 40082 57006 333 05303;
0201525330999992000051900004+39770+098480FM-12+1478ZLJQ V0201801N001012200019N0300001N1+01321-00421100921ADDAA199000091GA1001+999999999GF100991001001999999001001IA2999+00009MA1999999085031MD1210101-0301REMSYN076AAXX  19001 52533 32980 01801 10132 21042 38503 40092 52010 333 05302 31007;EQDQ01  00002PRCP99
0122525330999992000051903004+39770+098480FM-12+1478ZLJQ V0201101N003012200019N0300001N1+02261+00491100871ADDGA1001+999999999GF100991001001999999001001MD1210041+9999REMSYN054AAXX  19031 52533 42980 01103 10226 20049 40087 52004;
0202525330999992000051906004+39770+098480FM-12+1478ZLJQ V0200401N003012200019N0300001N1+02591-00521100691ADDAA199000091GA1001+999999999GF100991001001999999001001KA1999N+00881MA1999999084911MD1710161-0301REMSYN076AAXX  19061 52533 32980 00403 10259 21052 38491 40069 57016 333 05303 20088;EQDQ01  00002PRCP99
0132525330999992000051909004+39770+098480FM-12+1478ZLJQ V0201101N002012200019N0300001N1+02731-00411100521ADDGA1001+999999999GF100991001001999999001001MD1710171+0031REMSYN064AAXX  19091 52533 42980 01102 10273 21041 40052 57017 333 05302;
0183525330999992000051912004+39770+098480FM-12+1478ZLJQ V0200901N002012200019N0300001N1+02511+00521100401ADDAA199000091GA1001+999999999GF100991001001999999001001MA1999999084641MD1710101+0041REMSYN070AAXX  19121 52533 32980 00902 10251 20052 38464 40040 57010 333 05402;EQDQ01  00002PRCP99
0122525330999992000051915004+39770+098480FM-12+1478ZLJQ V0202001N003012200019N0300001N1+01741-00171100471ADDGA1001+999999999GF100991001001999999001001MD1210101+9999REMSYN054AAXX  19151 52533 42980 02003 10174 21017 40047 52010;
0202525330999992000051918004+39770+098480FM-12+1478ZLJQ V0202501N002012200019N0300001N1+01351-00321100371ADDAA199000091GA1001+999999999GF100991001001999999001001KA1999M+02821MA1999999084641MD1710101-0401REMSYN076AAXX  19181 52533 32980 02502 10135 21032 38464 40037 57010 333 05400 10282;EQDQ01  00002PRCP99
0132525330999992000051921004+39770+098480FM-12+1478ZLJQ V0202201N003012200019N0300001N1+01221-00841100281ADDGA1001+999999999GF100991001001999999001001MD1710071+0041REMSYN064AAXX  19211 52533 42980 02203 10122 21084 40028 57007 333 05401;
0201525330999992000052000004+39770+098480FM-12+1478ZLJQ V0202201N001012200019N0300001N1+01481-00421100401ADDAA199000091GA1001+999999999GF100991001001999999001001IA2999+00009MA1999999084681MD1210111-0401REMSYN076AAXX  20001 52533 32980 02201 10148 21042 38468 40040 52011 333 05402 30009;EQDQ01  00002PRCP99
0122525330999992000052003004+39770+098480FM-12+1478ZLJQ V0200201N002012200019N0300001N1+02561-00451100311ADDGA1001+999999999GF100991001001999999001001MD1410001+9999REMSYN054AAXX  20031 52533 42980 00202 10256 21045 40031 54000;
0192525330999992000052006004+39770+098480FM-12+1478ZLJQ V0200701N002012200019N0300001N1+02771-00211100261ADDAA199000091GF101991011011012501001001KA1999N+01091MA1999999084591MD1710091-0301REMSYN082AAXX  20061 52533 32680 10702 10277 21021 38459 40026 57009 81100 333 05302 20109;EQDQ01  00002PRCP99
0122525330999992000052009004+39770+098480FM-12+1478ZLJQ V0200701N002012200019N0300001N1+02891-00281100071ADDGF101991011011012501001021MD1710161+0031REMSYN070AAXX  20091 52533 42680 10702 10289 21028 40007 57016 81102 333 05302;
0173525330999992000052012004+39770+098480FM-12+1478ZLJQ V0209999C000019999999N0300001N1+02841+00421099991ADDAA199000091GF107991001001999999001021MA1999999084411MD1710021+0021REMSYN076AAXX  20121 52533 32980 70000 10284 20042 38441 49999 57002 80002 333 05203;EQDQ01  00002PRCP99
0112525330999992000052015004+39770+098480FM-12+1478ZLJQ V0202501N002012200019N0300001N1+01881+00021100061ADDGF101991001001999999001021MD1210091+9999REMSYN060AAXX  20151 52533 42980 12502 10188 20002 40006 52009 80002;
0192525330999992000052018004+39770+098480FM-12+1478ZLJQ V0202201N002012200019N0300001N1+01491-00351100141ADDAA199000091GF102991001001999999001021KA1999M+02951MA1999999084531MD1210031-0101REMSYN082AAXX  20181 52533 32980 22202 10149 21035 38453 40014 52003 80002 333 05101 10295;EQDQ01  00002PRCP99
0122525330999992000052021004+39770+098480FM-12+1478ZLJQ V0202501N002019999999N0300001N1+01381-00581100201ADDGF107991001001999999001021MD1210051+0001REMSYN070AAXX  20211 52533 42980 72502 10138 21058 40020 52005 80002 333 00002;
0191525330999992000052100004+39770+098480FM-12+1478ZLJQ V0202701N004012200019N0300001N1+01911-00541100311ADDAA199000091GF101991001001999999001021IA2999+00209MA1999999084791MD1210211+0101REMSYN082AAXX  21001 52533 32980 12704 10191 21054 38479 40031 52021 80002 333 00104 30027;EQDQ01  00002PRCP99
0112525330999992000052103004+39770+098480FM-12+1478ZLJQ V0200901N002019999999N0300001N1+02711+00381100381ADDGF107991001001999999001021MD1210021+9999REMSYN060AAXX  21031 52533 42980 70902 10271 20038 40038 52002 80002;
0192525330999992000052106004+39770+098480FM-12+1478ZLJQ V0200701N004019999999N0300001N1+02811+00221100301ADDAA199000091GF107991001001999999001021KA1999N+01101MA1999999084671MD1710141+0101REMSYN082AAXX  21061 52533 32980 70704 10281 20022 38467 40030 57014 80002 333 00100 20110;EQDQ01  00002PRCP99
0122525330999992000052109004+39770+098480FM-12+1478ZLJQ V0200701N002019999999N0300001N1+02941+00091100061ADDGF108991001001999999001071MD1710201+0001REMSYN070AAXX  21091 52533 42980 80702 10294 20009 40006 57020 80007 333 00001;
0173525330999992000052112004+39770+098480FM-12+1478ZLJQ V0209999C000019999999N0300001N1+02721+01051099971ADDAA199000091GF107991011001999999041021MA1999999084471MD1410001+0011REMSYN076AAXX  21121 52533 32980 70000 10272 20105 38447 49997 54000 81042 333 00151;EQDQ01  00002PRCP99
0112525330999992000052115004+39770+098480FM-12+1478ZLJQ V0200701N003019999999N0300001N1+02321+00251100001ADDGF107991001001999999001021MD1210121+9999REMSYN060AAXX  21151 52533 42980 70703 10232 20025 40000 52012 80002;
0192525330999992000052118004+39770+098480FM-12+1478ZLJQ V0209999C000019999999N0300001N1+01881+00441100131ADDAA199000091GF107991001001999999001021KA1999M+02961MA1999999084621MD1210031+0101REMSYN082AAXX  21181 52533 32980 70000 10188 20044 38462 40013 52003 80002 333 00104 10296;EQDQ01  00002PRCP99
0122525330999992000052121004+39770+098480FM-12+1478ZLJQ V0201601N001019999999N0300001N1+01621+00471100121ADDGF107991001001999999001021MD1710041+0001REMSYN070AAXX  21211 52533 42980 71601 10162 20047 40012 57004 80002 333 00002;
0173525330999992000052200004+39770+098480FM-12+1478ZLJQ V0200401N002019999999N0300001N1+01631+00491100301ADDAA199000091GF107991011001999999041021MA1999999084681MD1210101+0011REMSYN076AAXX  22001 52533 32980 70402 10163 20049 38468 40030 52010 81042 333 05153;EQDQ01  00002PRCP99
0112525330999992000052203004+39770+098480FM-12+1478ZLJQ V0200701N002019999999N0300001N1+02261+00571100271ADDGF107991011001999999041021MD1210031+9999REMSYN060AAXX  22031 52533 42980 70702 10226 20057 40027 52003 81042;
0192525330999992000052206004+39770+098480FM-12+1478ZLJQ V0201801N001019999999N0200001N1+02891+00481100081ADDAA199000091GF107991031001999999041021KA1999N+01401MA1999999084601MD1710111-0101REMSYN082AAXX  22061 52533 32970 71801 10289 20048 38460 40008 57011 83042 333 05101 20140;EQDQ01  00002PRCP99
0122525330999992000052209004+39770+098480FM-12+1478ZLJQ V0201801N004019999999N0250001N1+02751+00371100051ADDGF108991021001999999041071MD1710121+0001REMSYN070AAXX  22091 52533 42975 81804 10275 20037 40005 57012 82047 333 00052;
0173525330999992000052212004+39770+098480FM-12+1478ZLJQ V0201601N002019999999N0300001N1+02501+00771100091ADDAA199000091GF107991011001999999041021MA1999999084451MD1710031+0001REMSYN076AAXX  22121 52533 32980 71602 10250 20077 38445 40009 57003 81042 333 00052;EQDQ01  00002PRCP99
0112525330999992000052215004+39770+098480FM-12+1478ZLJQ V0201801N002012200019N0300001N1+01851+00761100121ADDGF101991001001999999001021MD1210021+9999REMSYN060AAXX  22151 52533 42980 11802 10185 20076 40012 52002 80002;
0192525330999992000052218004+39770+098480FM-12+1478ZLJQ V0202501N002019999999N0300001N1+01721+00441099971ADDAA199000091GF107991001001999999001021KA1999M+02891MA1999999084471MD1410001-0201REMSYN082AAXX  22181 52533 32980 72502 10172 20044 38447 49997 54000 80002 333 05252 10289;EQDQ01  00002PRCP99
0122525330999992000052221004+39770+098480FM-12+1478ZLJQ V0203201N003019999999N0300001N1+01861+00431100081ADDGF108991001001999999001071MD1210091+0001REMSYN070AAXX  22211 52533 42980 83203 10186 20043 40008 52009 80007 333 00002;
0173525330999992000052300004+39770+098480FM-12+1478ZLJQ V0203201N002012200019N0200001N1+01671+00711100371ADDAA199000091GF104991001001999999001021MA1999999084721MD1210161+0001REMSYN076AAXX  23001 52533 32970 43202 10167 20071 38472 40037 52016 80002 333 00001;EQDQ01  00002PRCP99
0122525330999992000052303004+39770+098480FM-12+1478ZLJQ V0200201N003012200019N0200001N1+02211+00681100391ADDGA1001+999999999GF100991001001999999001001MD1710031+9999REMSYN054AAXX  23031 52533 42970 00203 10221 20068 40039 57003;
0192525330999992000052306004+39770+098480FM-12+1478ZLJQ V0201601N003012200019N0200001N1+02691+00641100081ADDAA199000091GF102991001001999999001021KA1999N+01591MA1999999084511MD1710181-0101REMSYN082AAXX  23061 52533 32970 21603 10269 20064 38451 40008 57018 80002 333 05152 20159;EQDQ01  00002PRCP99
0122525330999992000052309004+39770+098480FM-12+1478ZLJQ V0201401N002019999999N0200001N1+02701+00571099861ADDGF107991011001999999041021MD1710151+0011REMSYN070AAXX  23091 52533 42970 71402 10270 20057 49986 57015 81042 333 05151;
0173525330999992000052312004+39770+098480FM-12+1478ZLJQ V0200701N001019999999N0200001N1+02581+01081099871ADDAA199000091GF107991011001999999041021MA1999999084321MD1710041+0011REMSYN076AAXX  23121 52533 32970 70701 10258 20108 38432 49987 57004 81042 333 05101;EQDQ01  00002PRCP99
0112525330999992000052315004+39770+098480FM-12+1478ZLJQ V0202501N002012200019N0200001N1+02031+00911100031ADDGF102991001001999999001021MD1210111+9999REMSYN060AAXX  23151 52533 42970 22502 10203 20091 40003 52011 80002;
0192525330999992000052318004+39770+098480FM-12+1478ZLJQ V0203401N002012200019N0200001N1+01851+00311099981ADDAA199000091GF101991001001999999001021KA1999M+02791MA1999999084461MD1210031+0001REMSYN082AAXX  23181 52533 32970 13402 10185 20031 38446 49998 52003 80002 333 00001 10279;EQDQ01  00002PRCP99
0122525330999992000052321004+39770+098480FM-12+1478ZLJQ V0202701N003012200019N0200001N1+01431-00321100281ADDGF104991001001999999001021MD1210151+0011REMSYN070AAXX  23211 52533 42970 42703 10143 21032 40028 52015 80002 333 00154;
0183525330999992000052400004+39770+098480FM-12+1478ZLJQ V0203401N003012200019N0300001N1+01501-00231100531ADDAA199000091GA1001+999999999GF100991001001999999001001MA1999999084811MD1210201+0011REMSYN070AAXX  24001 52533 32980 03403 10150 21023 38481 40053 52020 333 00153;EQDQ01  00002PRCP99
0112525330999992000052403004+39770+098480FM-12+1478ZLJQ V0203401N007019999999N0300001N1+02091-00561100601ADDGF106991001001999999001021MD1210071+9999REMSYN060AAXX  24031 52533 42980 63407 10209 21056 40060 52007 80002;
0192525330999992000052406004+39770+098480FM-12+1478ZLJQ V0203601N005019999999N0250001N1+02261-00401100471ADDAA199000091GF107991021001999999041021KA1999N+01281MA1999999084771MD1710111+0301REMSYN082AAXX  24061 52533 32975 73605 10226 21040 38477 40047 57011 82042 333 00354 20128;EQDQ01  00002PRCP99
0122525330999992000052409004+39770+098480FM-12+1478ZLJQ V0203401N005019999999N0300001N1+02401+00071100481ADDGF107991021001999999041021MD1710061+0041REMSYN070AAXX  24091 52533 42980 73405 10240 20007 40048 57006 82042 333 00453;
0173525330999992000052412004+39770+098480FM-12+1478ZLJQ V0203201N005019999999N0200001N1+01881+00211100871ADDAA199000091GF107991031001999999041021MA1999999084931MD1210221+0061REMSYN076AAXX  24121 52533 32970 73205 10188 20021 38493 40087 52022 83042 333 00657;EQDQ01  00002PRCP99
0124525330999992000052415004+39770+098480FM-12+1478ZLJQ V0203201N005010900019N0200001N1+01581+00411101181ADDGF108991031041017501001071MD1210331+9999MW1801REMSYN066AAXX  24151 52533 41770 83205 10158 20041 40118 52033 78000 83407;
0199525330999992000052418004+39770+098480FM-12+1478ZLJQ V0202901N005010150019N0200001N1+01101+00881101281ADDAA106000591AY181061GF108991051041017501001071KA1999M+02461MA1999999085271MD1210011+0801MW1801REMSYN094AAXX  24181 52533 11770 82905 10110 20088 38527 40128 52001 69941 78080 85407 333 00858 10246;
0167525330999992000052421004+39770+098480FM-12+1478ZLJQ V0202901N002010150019N0150001N1+01001+00871101241ADDAA124004391AY181031AY281031GF108991081091017501999999MD1710031+0601MW1801REMSYN082AAXX  24211 52533 41765 82902 10100 20087 40124 57003 78088 889// 333 00654 70042;
0194525330999992000052500004+39770+098480FM-12+1478ZLJQ V0202001N003019999999N0150001N1+01051+00741101531ADDAA106006191AY181061AY261061GF108991081001999999071999MA1999999085371MD1210131+0601MW1601REMSYN094AAXX  25001 52533 11965 82003 10105 20074 38537 40153 52013 60061 76086 8807/ 333 00655 70066;
0132525330999992000052503004+39770+098480FM-12+1478ZLJQ V0202001N003010900019N0200001N1+01321+00361101541ADDAY161031GF108991021051017501001071MD1410001+9999MW1001REMSYN066AAXX  25031 52533 41770 82003 10132 20036 40154 54000 70060 82507;
0199525330999992000052506004+39770+098480FM-12+1478ZLJQ V0202901N003010360019N0300001N1+01711+00441101471ADDAA106000791AY161061GF107991011011012501041021KA1999N+00951MA1999999085291MD1710081+0501MW1001REMSYN094AAXX  25061 52533 11680 72903 10171 20044 38529 40147 57008 69901 70060 81142 333 00556 20095;
0122525330999992000052509004+39770+098480FM-12+1478ZLJQ V0201801N002010900019N0300001N1+02041+00201101211ADDGF107991011011012501001021MD1710161+0041REMSYN070AAXX  25091 52533 42680 71802 10204 20020 40121 57016 81102 333 00454;
0154525330999992000052512004+39770+098480FM-12+1478ZLJQ V0201801N003012200019N0300001N1+01851+00331101241ADDAA199000021GF101991011041017501001021MA1999999085121MD1710011+0021REMSYN076AAXX  25121 52533 32780 11803 10185 20033 38512 40124 57001 81402 333 00200;
0122525330999992000052515004+39770+098480FM-12+1478ZLJQ V0202001N003012200019N0300001N1+01431+00601101411ADDGA1001+999999999GF100991001001999999001001MD1210101+9999REMSYN054AAXX  25151 52533 42980 02003 10143 20060 40141 52010;
0192525330999992000052518004+39770+098480FM-12+1478ZLJQ V0200701N002019999999N0300001N1+00961+00731101351ADDAA199000091GF107991001001999999001021KA1999M+02121MA1999999085151MD1710071-0101REMSYN082AAXX  25181 52533 32980 70702 10096 20073 38515 40135 57007 80002 333 05151 10212;EQDQ01  00002PRCP99
0139525330999992000052521004+39770+098480FM-12+1478ZLJQ V0201101N001019999999N0300001N1+00741+00681101291ADDAA124002391GF105991001001999999001021MD1710021-0101REMSYN076AAXX  25211 52533 42980 51101 10074 20068 40129 57002 80002 333 05153 70024;
0178525330999992000052600004+39770+098480FM-12+1478ZLJQ V0202201N001012200019N0300001N1+01101+00741101361ADDAA124000791GF101991001001999999001021IA2999+00129MA1999999085231MD1210101-0101REMSYN088AAXX  26001 52533 32980 12201 10110 20074 38523 40136 52010 80002 333 05101 30012 79999;
0122525330999992000052603004+39770+098480FM-12+1478ZLJQ V0200901N003012200019N0300001N1+01801+00741101321ADDGA1001+999999999GF100991001001999999001001MD1210041+9999REMSYN054AAXX  26031 52533 42980 00903 10180 20074 40132 52004;
0192525330999992000052606004+39770+098480FM-12+1478ZLJQ V0200901N004012200019N0300001N1+02211+00231101151ADDAA199000091GF101991011011017501001021KA1999N+00651MA1999999085111MD1710161-0201REMSYN082AAXX  26061 52533 32780 10904 10221 20023 38511 40115 57016 81102 333 05205 20065;EQDQ01  00002PRCP99
0122525330999992000052609004+39770+098480FM-12+1478ZLJQ V0200701N004012200019N0300001N1+02311-00051100891ADDGF101991011011017501001021MD1710251+0031REMSYN070AAXX  26091 52533 42780 10704 10231 21005 40089 57025 81102 333 05303;
0173525330999992000052612004+39770+098480FM-12+1478ZLJQ V0200701N004012200019N0300001N1+02071-00031100811ADDAA199000091GF102991011041017501001021MA1999999084821MD1710041+0031REMSYN076AAXX  26121 52533 32780 20704 10207 21003 38482 40081 57004 81402 333 05302;EQDQ01  00002PRCP99
0112525330999992000052615004+39770+098480FM-12+1478ZLJQ V0209999C000012200019N0300001N1+01571+00211100851ADDGF101991001001999999001021MD1210091+9999REMSYN060AAXX  26151 52533 42980 10000 10157 20021 40085 52009 80002;
0192525330999992000052618004+39770+098480FM-12+1478ZLJQ V0201101N001012200019N0300001N1+01261+00361100781ADDAA199000091GF102991001001999999001021KA1999M+02341MA1999999084871MD1710041-0301REMSYN082AAXX  26181 52533 32980 21101 10126 20036 38487 40078 57004 80002 333 05303 10234;EQDQ01  00002PRCP99
0122525330999992000052621004+39770+098480FM-12+1478ZLJQ V0209999C000012200019N0300001N1+01061+00281100821ADDGF101991001001999999001021MD1210011+0031REMSYN070AAXX  26211 52533 42980 10000 10106 20028 40082 52001 80002 333 05303;
0191525330999992000052700004+39770+098480FM-12+1478ZLJQ V0201101N002012200019N0300001N1+01481+00431100861ADDAA199000091GF102991001001999999001021IA2999+00309MA1999999084961MD1210081-0301REMSYN082AAXX  27001 52533 32980 21102 10148 20043 38496 40086 52008 80002 333 05304 30035;EQDQ01  00002PRCP99
0112525330999992000052703004+39770+098480FM-12+1478ZLJQ V0200901N003012200019N0300001N1+01821+00401100911ADDGF101991001001999999001021MD1410001+9999REMSYN060AAXX  27031 52533 42980 10903 10182 20040 40091 54000 80002;
0192525330999992000052706004+39770+098480FM-12+1478ZLJQ V0200901N005019999999N0300001N1+02271+00181100621ADDAA199000091GF107991001001999999001021KA1999N+00851MA1999999084751MD1710211-0401REMSYN082AAXX  27061 52533 32980 70905 10227 20018 38475 40062 57021 80002 333 05401 20085;EQDQ01  00002PRCP99
0122525330999992000052709004+39770+098480FM-12+1478ZLJQ V0200701N002012200019N0300001N1+02451-00111100391ADDGF102991001001999999001021MD1710201+0031REMSYN070AAXX  27091 52533 42980 20702 10245 21011 40039 57020 80002 333 05301;
0173525330999992000052712004+39770+098480FM-12+1478ZLJQ V0209999C000019999999N0300001N1+02361+00441100241ADDAA199000091GF107991001001999999001021MA1999999084511MD1710041+0031REMSYN076AAXX  27121 52533 32980 70000 10236 20044 38451 40024 57004 80002 333 05303;EQDQ01  00002PRCP99
0112525330999992000052715004+39770+098480FM-12+1478ZLJQ V0201101N002019999999N0300001N1+01701+00581100521ADDGF105991001001999999001021MD1210161+9999REMSYN060AAXX  27151 52533 42980 51102 10170 20058 40052 52016 80002;
0202525330999992000052718004+39770+098480FM-12+1478ZLJQ V0209999C000012200019N0300001N1+01581+00611100421ADDAA199000091GA1001+999999999GF100991001001999999001001KA1999M+02501MA1999999084661MD1710011-0201REMSYN076AAXX  27181 52533 32980 00000 10158 20061 38466 40042 57001 333 05203 10250;EQDQ01  00002PRCP99
0122525330999992000052721004+39770+098480FM-12+1478ZLJQ V0203201N002019999999N0300001N1+01361+00521100401ADDGF107991001001999999001021MD1710021+0021REMSYN070AAXX  27211 52533 42980 73202 10136 20052 40040 57002 80002 333 05203;
0173525330999992000052800004+39770+098480FM-12+1478ZLJQ V0202501N001019999999N0300001N1+01441+00481100481ADDAA199000091GF107991021001999999041021MA1999999084701MD1210061+0031REMSYN076AAXX  28001 52533 32980 72501 10144 20048 38470 40048 52006 82042 333 05300;EQDQ01  00002PRCP99
0112525330999992000052803004+39770+098480FM-12+1478ZLJQ V0203601N003019999999N0300001N1+02241+00251100451ADDGF107991011001999999041021MD1210011+9999REMSYN060AAXX  28031 52533 42980 73603 10224 20025 40045 52001 81042;
0192525330999992000052806004+39770+098480FM-12+1478ZLJQ V0200401N004010360019N0300001N1+02521+00271100211ADDAA199000091GF107991011011012501041021KA1999N+01301MA1999999084551MD1710161-0201REMSYN082AAXX  28061 52533 32680 70404 10252 20027 38455 40021 57016 81142 333 05203 20130;EQDQ01  00002PRCP99
0122525330999992000052809004+39770+098480FM-12+1478ZLJQ V0201601N005010900019N0300001N1+02581+00021100081ADDGF107991031041017501001021MD1710151+0021REMSYN070AAXX  28091 52533 42780 71605 10258 20002 40008 57015 83402 333 05201;
0173525330999992000052812004+39770+098480FM-12+1478ZLJQ V0202501N004010900019N0200001N1+02251+00011100371ADDAA199000091GF107991031091017501001021MA1999999084581MD1210181+0011REMSYN076AAXX  28121 52533 32770 72504 10225 20001 38458 40037 52018 83902 333 00151;EQDQ01  00002PRCP99
0112525330999992000052815004+39770+098480FM-12+1478ZLJQ V0202701N010019999999N0250001N1+01961+00221100451ADDGF108991021001999999041071MD1210191+9999REMSYN060AAXX  28151 52533 42975 82710 10196 20022 40045 52019 82047;
0192525330999992000052818004+39770+098480FM-12+1478ZLJQ V0202501N004019999999N0250001N1+01911+00321100291ADDAA199000091GF108991051001999999041071KA1999M+02741MA1999999084691MD1710081+0001REMSYN082AAXX  28181 52533 32975 82504 10191 20032 38469 40029 57008 85047 333 00003 10274;EQDQ01  00002PRCP99
0122525330999992000052821004+39770+098480FM-12+1478ZLJQ V0202701N003019999999N0300001N1+01721+00441100241ADDGF107991011001999999041021MD1710071+0001REMSYN070AAXX  28211 52533 42980 72703 10172 20044 40024 57007 81042 333 00004;
0173525330999992000052900004+39770+098480FM-12+1478ZLJQ V0202701N001012200019N0300001N1+01821+00501100441ADDAA199000091GF103991031051017501001021MA1999999084731MD1210111+0001REMSYN076AAXX  29001 52533 32780 32701 10182 20050 38473 40044 52011 83502 333 00004;EQDQ01  00002PRCP99
0122525330999992000052903004+39770+098480FM-12+1478ZLJQ V0200401N005012200019N0300001N1+02051+00401100541ADDGA1001+999999999GF100991001001999999001001MD1210071+9999REMSYN054AAXX  29031 52533 42980 00405 10205 20040 40054 52007;
0192525330999992000052906004+39770+098480FM-12+1478ZLJQ V0201101N003010150019N0300001N1+02271+00561100301ADDAA199000091GF106991061091017501001021KA1999N+01531MA1999999084641MD1710161+0101REMSYN082AAXX  29061 52533 32780 61103 10227 20056 38464 40030 57016 86902 333 00153 20153;EQDQ01  00002PRCP99
0150525330999992000052909004+39770+098480FM-12+1478ZLJQ V0203201N006012200019N0300001N1+02721-00081100011ADDAY191031AY281031GF102991021041017501001021MD1710181+0011MW1001REMSYN076AAXX  29091 52533 41780 23206 10272 21008 40001 57018 70098 82402 333 00101;
0198525330999992000052912004+39770+098480FM-12+1478ZLJQ V0203401N005012200019N0200001N1+02581-00581100031ADDAA106000791AY191061AY281061GA1001+999999999GF100991001001999999001001MA1999999084471MD1210011+0011MW1001REMSYN082AAXX  29121 52533 11970 03405 10258 21058 38447 40003 52001 69901 70098 333 05103;
0122525330999992000052915004+39770+098480FM-12+1478ZLJQ V0202201N002012200019N0200001N1+01961+00101100351ADDGA1001+999999999GF100991001001999999001001MD1210171+9999REMSYN054AAXX  29151 52533 42970 02202 10196 20010 40035 52017;
0202525330999992000052918004+39770+098480FM-12+1478ZLJQ V0202001N001012200019N0200001N1+01461+00101100381ADDAA199000091GA1001+999999999GF100991001001999999001001KA1999M+02741MA1999999084601MD1710041-0101REMSYN076AAXX  29181 52533 32970 02001 10146 20010 38460 40038 57004 333 05155 10274;EQDQ01  00002PRCP99
0149525330999992000052921004+39770+098480FM-12+1478ZLJQ V0202501N002012200019N0200001N1+01271+00081100151ADDAA124000791GA1001+999999999GF100991001001999999001001MD1710131-0201REMSYN070AAXX  29211 52533 42970 02502 10127 20008 40015 57013 333 05255 79999;
0188525330999992000053000004+39770+098480FM-12+1478ZLJQ V0202201N002012200019N0300001N1+01551+00291100181ADDAA124000791GA1001+999999999GF100991001001999999001001IA2999+00439MA1999999084531MD1210061-0201REMSYN082AAXX  30001 52533 32980 02202 10155 20029 38453 40018 52006 333 05253 30043 79999;
0112525330999992000053003004+39770+098480FM-12+1478ZLJQ V0200401N003012200019N0300001N1+02141+00541100251ADDGF101991001001999999001021MD1210051+9999REMSYN060AAXX  30031 52533 42980 10403 10214 20054 40025 52005 80002;
0192525330999992000053006004+39770+098480FM-12+1478ZLJQ V0201101N004012200019N0300001N1+02571+00211100061ADDAA199000091GF101991001001999999001021KA1999N+01001MA1999999084401MD1710181-0201REMSYN082AAXX  30061 52533 32980 11104 10257 20021 38440 40006 57018 80002 333 05203 20100;EQDQ01  00002PRCP99
0122525330999992000053009004+39770+098480FM-12+1478ZLJQ V0200701N003019999999N0300001N1+02791+00081099931ADDGF107991001001999999001021MD1710101+0021REMSYN070AAXX  30091 52533 42980 70703 10279 20008 49993 57010 80002 333 05201;
0173525330999992000053012004+39770+098480FM-12+1478ZLJQ V0200401N002010900019N0300001N1+02571+00651099981ADDAA199000091GF107991011041017501001021MA1999999084361MD1210061+0011REMSYN076AAXX  30121 52533 32780 70402 10257 20065 38436 49998 52006 81402 333 05100;EQDQ01  00002PRCP99
0112525330999992000053015004+39770+098480FM-12+1478ZLJQ V0202701N002012200019N0300001N1+01941+00251100241ADDGF102991001001999999001021MD1210211+9999REMSYN060AAXX  30151 52533 42980 22702 10194 20025 40024 52021 80002;
0192525330999992000053018004+39770+098480FM-12+1478ZLJQ V0203401N002019999999N0300001N1+01781+00281100201ADDAA199000091GF107991001001999999001021KA1999M+02861MA1999999084601MD1210031+0001REMSYN082AAXX  30181 52533 32980 73402 10178 20028 38460 40020 52003 80002 333 00003 10286;EQDQ01  00002PRCP99
0122525330999992000053021004+39770+098480FM-12+1478ZLJQ V0202201N002012200019N0300001N1+01601+00291100101ADDGF102991001001999999001021MD1710081+0011REMSYN070AAXX  30211 52533 42980 22202 10160 20029 40010 57008 80002 333 00103;
0173525330999992000053100004+39770+098480FM-12+1478ZLJQ V0202701N002019999999N0300001N1+01721+00441100241ADDAA199000091GF107991021001999999041021MA1999999084621MD1210101+0011REMSYN076AAXX  31001 52533 32980 72702 10172 20044 38462 40024 52010 82042 333 00102;EQDQ01  00002PRCP99
0112525330999992000053103004+39770+098480FM-12+1478ZLJQ V0200701N002019999999N0300001N1+02371+00181100331ADDGF106991011001999999041021MD1210081+9999REMSYN060AAXX  31031 52533 42980 60702 10237 20018 40033 52008 81042;
0192525330999992000053106004+39770+098480FM-12+1478ZLJQ V0200901N004019999999N0300001N1+02601-00011100091ADDAA199000091GF107991001001999999001021KA1999N+01341MA1999999084511MD1710191+0101REMSYN082AAXX  31061 52533 32980 70904 10260 21001 38451 40009 57019 80002 333 00100 20134;EQDQ01  00002PRCP99
0122525330999992000053109004+39770+098480FM-12+1478ZLJQ V0200701N002019999999N0300001N1+02701+00271099861ADDGF107991021001999999041021MD1710211+0001REMSYN070AAXX  31091 52533 42980 70702 10270 20027 49986 57021 82042 333 00051;
0173525330999992000053112004+39770+098480FM-12+1478ZLJQ V0209999C000019999999N0300001N1+02531+00591099861ADDAA199000091GF108991051001999999041071MA1999999084291MD1710011+0011REMSYN076AAXX  31121 52533 32980 80000 10253 20059 38429 49986 57001 85047 333 05100;EQDQ01  00002PRCP99
0112525330999992000053115004+39770+098480FM-12+1478ZLJQ V0209999C000019999999N0300001N1+02311+00441099971ADDGF108991021001999999041071MD1210191+9999REMSYN060AAXX  31151 52533 42980 80000 10231 20044 49997 52019 82047;
0192525330999992000053118004+39770+098480FM-12+1478ZLJQ V0201401N005019999999N0300001N1+02091+00411099831ADDAA199000091GF107991021001999999041021KA1999M+02761MA1999999084371MD1710111-0201REMSYN082AAXX  31181 52533 32980 71405 10209 20041 38437 49983 57011 82042 333 05203 10276;EQDQ01  00002PRCP99
0122525330999992000053121004+39770+098480FM-12+1478ZLJQ V0200201N003012200019N0300001N1+01771+00541099861ADDGF102991001001999999001021MD1710031+0021REMSYN070AAXX  31211 52533 42980 20203 10177 20054 49986 57003 80002 333 05202;
0173525330999992000060100004+39770+098480FM-12+1478ZLJQ V0202001N002019999999N0300001N1+01681+00811100121ADDAA199000091GF107991011001999999041021MA1999999084501MD1210161+0011REMSYN076AAXX  01001 52533 32980 72002 10168 20081 38450 40012 52016 81042 333 05100;EQDQ01  00002PRCP99
0112525330999992000060103004+39770+098480FM-12+1478ZLJQ V0201101N003019999999N0300001N1+02311+00891100071ADDGF107991001001999999001021MD1210051+9999REMSYN060AAXX  01031 52533 42980 71103 10231 20089 40007 52005 80002;
0192525330999992000060106004+39770+098480FM-12+1478ZLJQ V0201101N005019999999N0250001N1+02501+00641099921ADDAA199000091GF108991031001999999031071KA1999N+01551MA1999999084421MD1710131-0101REMSYN082AAXX  01061 52533 32975 81105 10250 20064 38442 49992 57013 83037 333 05151 20155;EQDQ01  00002PRCP99
0173525330999992000060112004+39770+098480FM-12+1478ZLJQ V0203601N001019999999N0200001N1+02321+00771099881ADDAA199000091GF108991051001999999031071MA1999999084241MD1710021+0011REMSYN076AAXX  01121 52533 32970 83601 10232 20077 38424 49988 57002 85037 333 05152;EQDQ01  00002PRCP99
0112525330999992000060115004+39770+098480FM-12+1478ZLJQ V0201401N006019999999N0200001N1+02251+00511099991ADDGF108991061001999999031071MD1210231+9999REMSYN060AAXX  01151 52533 42970 81406 10225 20051 49999 52023 86037;
0199525330999992000060118004+39770+098480FM-12+1478ZLJQ V0202201N003019999999N0200001N1+01841+00821100211ADDAA106000191AY161061GF108991081001999999021999KA1999M+02571MA1999999084601MD1210131+0201MW1001REMSYN094AAXX  01181 52533 11970 82203 10184 20082 38460 40021 52013 69911 70060 8802/ 333 00253 10257;
0159525330999992000060121004+39770+098480FM-12+1478ZLJQ V0201101N004019999999N0200001N1+01341+01081100611ADDAA124001091AY161031GF108991081001999999021999MD1210201+0501MW1601REMSYN082AAXX  01211 52533 41970 81104 10134 20108 40061 52020 76060 8802/ 333 00554 70011;
0186525330999992000060200004+39770+098480FM-12+1478ZLJQ V0202501N003019999999N0200001N1+01321+01091100811ADDAA106005191AY161061GF108991081001999999021999MA1999999084941MD1210141+0401MW1601REMSYN094AAXX  02001 52533 11970 82503 10132 20109 38494 40081 52014 60051 76060 8802/ 333 00454 70053;
0140525330999992000060203004+39770+098480FM-12+1478ZLJQ V0202501N004019999999N0250001N1+01501+00991100881ADDAY161031AY261031GF108991081001999999071999MD1210091+9999MW1601REMSYN066AAXX  02031 52533 41975 82504 10150 20099 40088 52009 76066 8807/;
0122525330999992000060209004+39770+098480FM-12+1478ZLJQ V0201401N006012200019N0300001N1+01941+01091100741ADDGF101991011001999999041001MD1710201+0051REMSYN070AAXX  02091 52533 42980 11406 10194 20109 40074 57020 81040 333 00555;
0164525330999992000060212004+39770+098480FM-12+1478ZLJQ V0200901N005012200019N0300001N1+01751+01171100941ADDAA199000021GA1001+999999999GF100991001001999999001001MA1999999084911MD1210121+0071REMSYN070AAXX  02121 52533 32980 00905 10175 20117 38491 40094 52012 333 00756;
0122525330999992000060215004+39770+098480FM-12+1478ZLJQ V0201101N003012200019N0300001N1+01311+01141101211ADDGA1001+999999999GF100991001001999999001001MD1210161+9999REMSYN054AAXX  02151 52533 42980 01103 10131 20114 40121 52016;
0202525330999992000060218004+39770+098480FM-12+1478ZLJQ V0209999C000012200019N0300001N1+01121+01071101101ADDAA199000091GA1001+999999999GF100991001001999999001001KA1999M+01971MA1999999085001MD1710071+0401REMSYN076AAXX  02181 52533 32980 00000 10112 20107 38500 40110 57007 333 00457 10197;EQDQ01  00002PRCP99
0149525330999992000060221004+39770+098480FM-12+1478ZLJQ V0202001N002012200019N0300001N1+01031+00941100981ADDAA124004691GA1001+999999999GF100991001001999999001001MD1710081+0101REMSYN070AAXX  02211 52533 42980 02002 10103 20094 40098 57008 333 00153 70046;
0188525330999992000060300004+39770+098480FM-12+1478ZLJQ V0202201N002012200019N0300001N1+01341+01081101041ADDAA124000591GA1001+999999999GF100991001001999999001001IA2999+00439MA1999999085001MD1210081+0101REMSYN082AAXX  03001 52533 32980 02202 10134 20108 38500 40104 52008 333 00100 30043 70004;
0122525330999992000060303004+39770+098480FM-12+1478ZLJQ V0201401N004012200019N0300001N1+02021+01051100941ADDGA1001+999999999GF100991001001999999001001MD1710031+9999REMSYN054AAXX  03031 52533 42980 01404 10202 20105 40094 57003;
0192525330999992000060306004+39770+098480FM-12+1478ZLJQ V0200901N006012200019N0300001N1+02361+00921100791ADDAA199000091GF101991001001999999001021KA1999N+00931MA1999999084881MD1710091-0101REMSYN082AAXX  03061 52533 32980 10906 10236 20092 38488 40079 57009 80002 333 05106 20093;EQDQ01  00002PRCP99
0132525330999992000060309004+39770+098480FM-12+1478ZLJQ V0200901N005012200019N0300001N1+02521+00721100621ADDGA1001+999999999GF100991001001999999001001MD1710121+0001REMSYN064AAXX  03091 52533 42980 00905 10252 20072 40062 57012 333 00006;
0183525330999992000060312004+39770+098480FM-12+1478ZLJQ V0201101N003012200019N0300001N1+02321+00971100541ADDAA199000091GA1001+999999999GF100991001001999999001001MA1999999084721MD1710041+0021REMSYN070AAXX  03121 52533 32980 01103 10232 20097 38472 40054 57004 333 05206;EQDQ01  00002PRCP99
0122525330999992000060315004+39770+098480FM-12+1478ZLJQ V0201101N004012200019N0300001N1+01901+00781100521ADDGA1001+999999999GF100991001001999999001001MD1210041+9999REMSYN054AAXX  03151 52533 42980 01104 10190 20078 40052 52004;
0202525330999992000060318004+39770+098480FM-12+1478ZLJQ V0201401N003012200019N0300001N1+01721+00771100531ADDAA199000091GA1001+999999999GF100991001001999999001001KA1999M+02531MA1999999084811MD1210051-0201REMSYN076AAXX  03181 52533 32980 01403 10172 20077 38481 40053 52005 333 05206 10253;EQDQ01  00002PRCP99
0132525330999992000060321004+39770+098480FM-12+1478ZLJQ V0200901N002012200019N0300001N1+01421+00891100501ADDGA1001+999999999GF100991001001999999001001MD1710061+0021REMSYN064AAXX  03211 52533 42980 00902 10142 20089 40050 57006 333 05204;
0173525330999992000060400004+39770+098480FM-12+1478ZLJQ V0201101N003019999999N0300001N1+01501+00971100561ADDAA199000091GF107991001001999999001021MA1999999084771MD1210021+0021REMSYN076AAXX  04001 52533 32980 71103 10150 20097 38477 40056 52002 80002 333 05202;EQDQ01  00002PRCP99
0112525330999992000060403004+39770+098480FM-12+1478ZLJQ V0201101N006019999999N0300001N1+02201+01091100391ADDGF107991011001999999041021MD1710071+9999REMSYN060AAXX  04031 52533 42980 71106 10220 20109 40039 57007 81042;
0192525330999992000060406004+39770+098480FM-12+1478ZLJQ V0200901N007019999999N0200001N1+02611+00411100181ADDAA199000091GF107991001001999999001021KA1999N+01161MA1999999084581MD1710121-0301REMSYN082AAXX  04061 52533 32970 70907 10261 20041 38458 40018 57012 80002 333 05303 20116;EQDQ01  00002PRCP99
0122525330999992000060409004+39770+098480FM-12+1478ZLJQ V0200701N005019999999N0300001N1+02591+00841100121ADDGF107991021001999999041021MD1710131+0031REMSYN070AAXX  04091 52533 42980 70705 10259 20084 40012 57013 82042 333 05301;
0173525330999992000060412004+39770+098480FM-12+1478ZLJQ V0200901N005019999999N0300001N1+02421+00591100121ADDAA199000091GF107991021001999999041021MA1999999084431MD1710021+0031REMSYN076AAXX  04121 52533 32980 70905 10242 20059 38443 40012 57002 82042 333 05301;EQDQ01  00002PRCP99
0112525330999992000060415004+39770+098480FM-12+1478ZLJQ V0201101N001012200019N0300001N1+02071+00791100241ADDGF104991001001999999001021MD1210181+9999REMSYN060AAXX  04151 52533 42980 41101 10207 20079 40024 52018 80002;
0192525330999992000060418004+39770+098480FM-12+1478ZLJQ V0202901N002012200019N0300001N1+01821+00721100221ADDAA199000091GF104991001001999999001021KA1999M+02721MA1999999084631MD1210021-0201REMSYN082AAXX  04181 52533 32980 42902 10182 20072 38463 40022 52002 80002 333 05201 10272;EQDQ01  00002PRCP99
0122525330999992000060421004+39770+098480FM-12+1478ZLJQ V0202901N002019999999N0300001N1+01691+00821100381ADDGF107991001001999999001021MD1210101+0001REMSYN070AAXX  04211 52533 42980 72902 10169 20082 40038 52010 80002 333 00003;
0173525330999992000060500004+39770+098480FM-12+1478ZLJQ V0203201N005019999999N0300001N1+01711+00501100621ADDAA199000091GF107991021001999999041021MA1999999084921MD1210171+0011REMSYN076AAXX  05001 52533 32980 73205 10171 20050 38492 40062 52017 82042 333 00102;EQDQ01  00002PRCP99
0112525330999992000060503004+39770+098480FM-12+1478ZLJQ V0203201N007019999999N0300001N1+01801+00471100871ADDGF107991051001999999031021MD1210151+9999REMSYN060AAXX  05031 52533 42980 73207 10180 20047 40087 52015 85032;
0192525330999992000060506004+39770+098480FM-12+1478ZLJQ V0203201N005019999999N0200001N1+01641+00111101051ADDAA199000091GF108991061001999999031071KA1999N+01621MA1999999085101MD1210051+0501REMSYN082AAXX  05061 52533 32970 83205 10164 20011 38510 40105 52005 86037 333 00560 20162;EQDQ01  00002PRCP99
0122525330999992000060509004+39770+098480FM-12+1478ZLJQ V0203201N007019999999N0200001N1+01131+00551101361ADDGF108991081001999999021999MD1210101+0081REMSYN070AAXX  05091 52533 42970 83207 10113 20055 40136 52010 8802/ 333 00865;
0203525330999992000060512004+39770+098480FM-12+1478ZLJQ V0203201N005019999999N0200001N1+00961+00791101591ADDAA106000891AY161061GF108991081001999999071999MA1999999085351MD1210151+0901MW1601OA130601701REMSYN100AAXX  05121 52533 11970 83205 10096 20079 38535 40159 52015 69981 76060 8807/ 333 00965 91117 91532;
0140525330999992000060515004+39770+098480FM-12+1478ZLJQ V0203201N001019999999N0200001N1+01001+00871101651ADDAY161031AY261031GF108991081001999999021999MD1210091+9999MW1601REMSYN066AAXX  05151 52533 41970 83201 10100 20087 40165 52009 76066 8802/;
0199525330999992000060518004+39770+098480FM-12+1478ZLJQ V0201101N002019999999N0300001N1+00921+00861101661ADDAA106002091AY161061GF108991011001999999041071KA1999M+01851MA1999999085381MD1710061+0801MW1001REMSYN094AAXX  05181 52533 11980 81102 10092 20086 38538 40166 57006 60021 70060 81047 333 00859 10185;
0139525330999992000060521004+39770+098480FM-12+1478ZLJQ V0200701N002019999999N0300001N1+01001+00931101731ADDAA124002391GF107991021001999999041021MD1710051+0601REMSYN076AAXX  05211 52533 42980 70702 10100 20093 40173 57005 82042 333 00657 70023;
0160525330999992000060600004+39770+098480FM-12+1478ZLJQ V0209999C000019999999N0300001N1+01161+00981101781ADDAA124002391GF107991071001999999031999MA1999999085371MD1210041+0501REMSYN082AAXX  06001 52533 32980 70000 10116 20098 38537 40178 52004 8703/ 333 00556 70023;
0112525330999992000060603004+39770+098480FM-12+1478ZLJQ V0203401N002019999999N0300001N1+01681+00651101601ADDGF107991011001999999041021MD1710011+9999REMSYN060AAXX  06031 52533 42980 73402 10168 20065 40160 57001 81042;
0192525330999992000060606004+39770+098480FM-12+1478ZLJQ V0200401N002019999999N0300001N1+01841+00481101451ADDAA199000091GF107991021001999999041021KA1999N+00881MA1999999085261MD1710101+0201REMSYN082AAXX  06061 52533 32980 70402 10184 20048 38526 40145 57010 82042 333 00202 20088;EQDQ01  00002PRCP99
0122525330999992000060609004+39770+098480FM-12+1478ZLJQ V0201101N002019999999N0300001N1+01881+00781101241ADDGF107991061001999999031021MD1710151+0011REMSYN070AAXX  06091 52533 42980 71102 10188 20078 40124 57015 86032 333 05108;
0173525330999992000060612004+39770+098480FM-12+1478ZLJQ V0201101N003019999999N0300001N1+01881+00801101211ADDAA199000091GF107991061001999999041021MA1999999085131MD1210021+0021REMSYN076AAXX  06121 52533 32980 71103 10188 20080 38513 40121 52002 86042 333 05209;EQDQ01  00002PRCP99
0112525330999992000060615004+39770+098480FM-12+1478ZLJQ V0201401N002019999999N0300001N1+01691+00931101161ADDGF107991031001999999041021MD1210041+9999REMSYN060AAXX  06151 52533 42980 71402 10169 20093 40116 52004 83042;
0192525330999992000060618004+39770+098480FM-12+1478ZLJQ V0202201N001019999999N0300001N1+01471+00911101191ADDAA199000091GF105991011001999999041021KA1999M+02041MA1999999085181MD1210011-0201REMSYN082AAXX  06181 52533 32980 52201 10147 20091 38518 40119 52001 81042 333 05206 10204;EQDQ01  00002PRCP99
0122525330999992000060621004+39770+098480FM-12+1478ZLJQ V0202201N002012200019N0300001N1+01351+00621101201ADDGF101991001001999999001021MD1710011+0021REMSYN070AAXX  06211 52533 42980 12202 10135 20062 40120 57001 80002 333 05204;
0173525330999992000060700004+39770+098480FM-12+1478ZLJQ V0202701N002012200019N0300001N1+01591+00741101201ADDAA199000091GF101991011001999999041021MA1999999085231MD1210061+0011REMSYN076AAXX  07001 52533 32980 12702 10159 20074 38523 40120 52006 81042 333 05104;EQDQ01  00002PRCP99
0112525330999992000060703004+39770+098480FM-12+1478ZLJQ V0203401N005010360019N0300001N1+02181+00381101101ADDGF106991011011012501041021MD1210011+9999REMSYN060AAXX  07031 52533 42680 63405 10218 20038 40110 52001 81142;
0192525330999992000060706004+39770+098480FM-12+1478ZLJQ V0203201N003012200019N0300001N1+02421+00421100971ADDAA199000091GF102991021011017501001021KA1999N+01211MA1999999085141MD1710101-0101REMSYN082AAXX  07061 52533 32780 23203 10242 20042 38514 40097 57010 82102 333 05106 20121;EQDQ01  00002PRCP99
0122525330999992000060709004+39770+098480FM-12+1478ZLJQ V0203401N005012200019N0300001N1+02561+00251100791ADDGF101991011011017501001001MD1710151+0011REMSYN070AAXX  07091 52533 42780 13405 10256 20025 40079 57015 81100 333 05107;
0173525330999992000060712004+39770+098480FM-12+1478ZLJQ V0203601N002012200019N0300001N1+02441+00241100701ADDAA199000091GF101991011041017501001001MA1999999084941MD1710051+0021REMSYN076AAXX  07121 52533 32780 13602 10244 20024 38494 40070 57005 81400 333 05206;EQDQ01  00002PRCP99
0122525330999992000060715004+39770+098480FM-12+1478ZLJQ V0202201N002012200019N0300001N1+01921+00491100711ADDGA1001+999999999GF100991001001999999001001MD1210031+9999REMSYN054AAXX  07151 52533 42980 02202 10192 20049 40071 52003;
0202525330999992000060718004+39770+098480FM-12+1478ZLJQ V0202201N003012200019N0300001N1+01651+00491100661ADDAA199000091GA1001+999999999GF100991001001999999001001KA1999M+02611MA1999999084921MD1710051-0301REMSYN076AAXX  07181 52533 32980 02203 10165 20049 38492 40066 57005 333 05302 10261;EQDQ01  00002PRCP99
0132525330999992000060721004+39770+098480FM-12+1478ZLJQ V0202201N002012200019N0300001N1+01381+00421100651ADDGA1001+999999999GF100991001001999999001001MD1710041+0031REMSYN064AAXX  07211 52533 42980 02202 10138 20042 40065 57004 333 05300;
0201525330999992000060800004+39770+098480FM-12+1478ZLJQ V0202701N001012200019N0300001N1+01561+00741100711ADDAA199000091GA1001+999999999GF100991001001999999001001IA2999+00409MA1999999084941MD1210061-0301REMSYN076AAXX  08001 52533 32980 02701 10156 20074 38494 40071 52006 333 05300 30046;EQDQ01  00002PRCP99
0122525330999992000060803004+39770+098480FM-12+1478ZLJQ V0201101N003012200019N0300001N1+02361+00701100531ADDGA1001+999999999GF100991001001999999001001MD1710081+9999REMSYN054AAXX  08031 52533 42980 01103 10236 20070 40053 57008;
0192525330999992000060806004+39770+098480FM-12+1478ZLJQ V0200901N004012200019N0300001N1+02621+00241100341ADDAA199000091GF101991011011017501001021KA1999N+01081MA1999999084701MD1710161-0401REMSYN082AAXX  08061 52533 32780 10904 10262 20024 38470 40034 57016 81102 333 05402 20108;EQDQ01  00002PRCP99
0122525330999992000060809004+39770+098480FM-12+1478ZLJQ V0200701N005012200019N0300001N1+02781+00491100081ADDGF102991011011017501001021MD1710251+0051REMSYN070AAXX  08091 52533 42780 20705 10278 20049 40008 57025 81102 333 05502;
0173525330999992000060812004+39770+098480FM-12+1478ZLJQ V0200901N002019999999N0300001N1+02501+00511099941ADDAA199000091GF107991031001999999041021MA1999999084311MD1710141+0061REMSYN076AAXX  08121 52533 32980 70902 10250 20051 38431 49994 57014 83042 333 05601;EQDQ01  00002PRCP99
0112525330999992000060815004+39770+098480FM-12+1478ZLJQ V0209999C000019999999N0300001N1+02121+00671099881ADDGF108991021001999999041071MD1210051+9999REMSYN060AAXX  08151 52533 42980 80000 10212 20067 49988 52005 82047;
0192525330999992000060818004+39770+098480FM-12+1478ZLJQ V0202001N002019999999N0300001N1+01761+00711099781ADDAA199000091GF107991011001999999041021KA1999M+02801MA1999999084251MD1710111-0701REMSYN082AAXX  08181 52533 32980 72002 10176 20071 38425 49978 57011 81042 333 05701 10280;EQDQ01  00002PRCP99
0122525330999992000060821004+39770+098480FM-12+1478ZLJQ V0203401N002019999999N0300001N1+01521+00631099831ADDGF107991001001999999001021MD1210021+0061REMSYN070AAXX  08211 52533 42980 73402 10152 20063 49983 52002 80002 333 05601;
0173525330999992000060900004+39770+098480FM-12+1478ZLJQ V0209999C000019999999N0300001N1+01811+00621099921ADDAA199000091GF107991021001999999041021MA1999999084351MD1210081+0061REMSYN076AAXX  09001 52533 32980 70000 10181 20062 38435 49992 52008 82042 333 05603;EQDQ01  00002PRCP99
0112525330999992000060903004+39770+098480FM-12+1478ZLJQ V0200901N003019999999N0300001N1+02261+00891100021ADDGF107991011001999999041021MD1210101+9999REMSYN060AAXX  09031 52533 42980 70903 10226 20089 40002 52010 81042;
0192525330999992000060906004+39770+098480FM-12+1478ZLJQ V0201101N002019999999N0300001N1+02771+00501099901ADDAA199000091GF107991051001999999041021KA1999N+01401MA1999999084391MD1710061-0301REMSYN082AAXX  09061 52533 32980 71102 10277 20050 38439 49990 57006 85042 333 05302 20140;EQDQ01  00002PRCP99
0122525330999992000060909004+39770+098480FM-12+1478ZLJQ V0200701N002019999999N0300001N1+02761+00511099821ADDGF107991031001999999041021MD1710131+0021REMSYN070AAXX  09091 52533 42980 70702 10276 20051 49982 57013 83042 333 05200;
0173525330999992000060912004+39770+098480FM-12+1478ZLJQ V0200201N002019999999N0300001N1+02701+00521099791ADDAA199000091GF107991021001999999041021MA1999999084291MD1210031+0001REMSYN076AAXX  09121 52533 32980 70202 10270 20052 38429 49979 52003 82042 333 00002;EQDQ01  00002PRCP99
0122525330999992000060915004+39770+098480FM-12+1478ZLJQ V0202501N002012200019N0300001N1+01951+00471100021ADDGA1001+999999999GF100991001001999999001001MD1210121+9999REMSYN054AAXX  09151 52533 42980 02502 10195 20047 40002 52012;
0202525330999992000060918004+39770+098480FM-12+1478ZLJQ V0202201N003012200019N0300001N1+01661+00401099931ADDAA199000091GA1001+999999999GF100991001001999999001001KA1999M+02931MA1999999084391MD1710021+0101REMSYN076AAXX  09181 52533 32980 02203 10166 20040 38439 49993 57002 333 00151 10293;EQDQ01  00002PRCP99
0122525330999992000060921004+39770+098480FM-12+1478ZLJQ V0202201N003012200019N0300001N1+01581+00371099921ADDGF101991001001999999001021MD1710031+0011REMSYN070AAXX  09211 52533 42980 12203 10158 20037 49992 57003 80002 333 00101;
0183525330999992000061000004+39770+098480FM-12+1478ZLJQ V0209999C000012200019N0300001N1+01641+00821100061ADDAA199000091GA1001+999999999GF100991001001999999001001MA1999999084481MD1210121+0011REMSYN070AAXX  10001 52533 32980 00000 10164 20082 38448 40006 52012 333 00152;EQDQ01  00002PRCP99
0112525330999992000061003004+39770+098480FM-12+1478ZLJQ V0200901N004012200019N0300001N1+02271+01061100121ADDGF101991011011017501001001MD1210021+9999REMSYN060AAXX  10031 52533 42780 10904 10227 20106 40012 52002 81100;
0192525330999992000061006004+39770+098480FM-12+1478ZLJQ V0201101N006012200019N0300001N1+02801+00471099741ADDAA199000091GF101991011011017501001021KA1999N+01441MA1999999084241MD1710261-0201REMSYN082AAXX  10061 52533 32780 11106 10280 20047 38424 49974 57026 81102 333 05200 20144;EQDQ01  00002PRCP99
0122525330999992000061009004+39770+098480FM-12+1478ZLJQ V0200901N003019999999N0300001N1+02961+00701099521ADDGF107991001001999999001021MD1710171+0021REMSYN070AAXX  10091 52533 42980 70903 10296 20070 49952 57017 80002 333 05202;
0173525330999992000061012004+39770+098480FM-12+1478ZLJQ V0200901N003019999999N0300001N1+02611+00851099591ADDAA199000091GF107991051001999999041021MA1999999084061MD1710011+0021REMSYN076AAXX  10121 52533 32980 70903 10261 20085 38406 49959 57001 85042 333 05251;EQDQ01  00002PRCP99
0112525330999992000061015004+39770+098480FM-12+1478ZLJQ V0200901N003019999999N0300001N1+02391+00571099611ADDGF107991031001999999041021MD1210111+9999REMSYN060AAXX  10151 52533 42980 70903 10239 20057 49961 52011 83042;
0192525330999992000061018004+39770+098480FM-12+1478ZLJQ V0201101N003019999999N0300001N1+02231+00561099481ADDAA199000091GF107991021001999999041021KA1999M+02971MA1999999084151MD1710021-0201REMSYN082AAXX  10181 52533 32980 71103 10223 20056 38415 49948 57002 82042 333 05206 10297;EQDQ01  00002PRCP99
0122525330999992000061021004+39770+098480FM-12+1478ZLJQ V0200901N002019999999N0300001N1+02001+00721099511ADDGF107991001001999999001021MD1210011+0021REMSYN070AAXX  10211 52533 42980 70902 10200 20072 49951 52001 80002 333 05204;
0173525330999992000061100004+39770+098480FM-12+1478ZLJQ V0200901N002019999999N0120001N1+02041+00861099721ADDAA199000091GF107991011001999999041021MA1999999084261MD1210101+0021REMSYN076AAXX  11001 52533 32962 70902 10204 20086 38426 49972 52010 81042 333 05204;EQDQ01  00002PRCP99
0112525330999992000061103004+39770+098480FM-12+1478ZLJQ V0201401N003019999999N0150001N1+02391+00871099661ADDGF107991011001999999041021MD1710021+9999REMSYN060AAXX  11031 52533 42965 71403 10239 20087 49966 57002 81042;
0192525330999992000061106004+39770+098480FM-12+1478ZLJQ V0201401N002019999999N0200001N1+02801+01081099291ADDAA199000091GF107991031001999999041021KA1999N+01871MA1999999083991MD1710251-0301REMSYN082AAXX  11061 52533 32970 71402 10280 20108 38399 49929 57025 83042 333 05300 20187;EQDQ01  00002PRCP99
0122525330999992000061109004+39770+098480FM-12+1478ZLJQ V0200901N002019999999N0180001N1+02901+01011099221ADDGF108991081001999999021999MD1710091+0021REMSYN070AAXX  11091 52533 42968 80902 10290 20101 49922 57009 8802/ 333 05251;
0180525330999992000061112004+39770+098480FM-12+1478ZLJQ V0202201N006019999999N0150001N1+02421+00981099781ADDAA106000791AY161061GF108991081001999999021999MA1999999084271MD1210371+0021MW1601REMSYN088AAXX  11121 52533 11965 82206 10242 20098 38427 49978 52037 69901 76060 8802/ 333 00252;
0132525330999992000061115004+39770+098480FM-12+1478ZLJQ V0201801N004019999999N0200001N1+02281+00991099781ADDAY161031GF108991081001999999021999MD1210051+9999MW1001REMSYN066AAXX  11151 52533 41970 81804 10228 20099 49978 52005 70060 8802/;
0199525330999992000061118004+39770+098480FM-12+1478ZLJQ V0203601N002019999999N0200001N1+02161+01181099631ADDAA106000791AY161061GF108991081001999999021999KA1999M+02981MA1999999084261MD1710061+0101MW1001REMSYN094AAXX  11181 52533 11970 83602 10216 20118 38426 49963 57006 69901 70060 8802/ 333 00151 10298;
0139525330999992000061121004+39770+098480FM-12+1478ZLJQ V0202201N002019999999N0200001N1+01941+01231099661ADDAA124000791GF108991081001999999021999MD1410001+0101REMSYN076AAXX  11211 52533 42970 82202 10194 20123 49966 54000 8802/ 333 00151 79999;
0160525330999992000061200004+39770+098480FM-12+1478ZLJQ V0202901N002019999999N0120001N1+02001+01301099911ADDAA124000791GF108991021001999999041071MA1999999084371MD1210111+0101REMSYN082AAXX  12001 52533 32962 82902 10200 20130 38437 49991 52011 82047 333 00100 79999;
0112525330999992000061203004+39770+098480FM-12+1478ZLJQ V0203201N002019999999N0120001N1+02101+00921100031ADDGF108991031001999999031071MD1210091+9999REMSYN060AAXX  12031 52533 42962 83202 10210 20092 40003 52009 83037;
0192525330999992000061206004+39770+098480FM-12+1478ZLJQ V0202701N010019999999N0120001N1+02351+00861100041ADDAA199000091GF108991031001999999041071KA1999N+01841MA1999999084501MD1210041+0501REMSYN082AAXX  12061 52533 32962 82710 10235 20086 38450 40004 52004 83047 333 00555 20184;EQDQ01  00002PRCP99
0122525330999992000061209004+39770+098480FM-12+1478ZLJQ V0203201N007019999999N0110001N1+02101+00781100261ADDGF108991081001999999021999MD1210071+0071REMSYN070AAXX  12091 52533 42961 83207 10210 20078 40026 52007 8802/ 333 00758;
0180525330999992000061212004+39770+098480FM-12+1478ZLJQ V0203201N005019999999N0060001N1+01741+00821100521ADDAA106000791AY161061GF108991081001999999071999MA1999999084721MD1210151+0051MW1601REMSYN088AAXX  12121 52533 11956 83205 10174 20082 38472 40052 52015 69901 76060 8807/ 333 00557;
0140525330999992000061215004+39770+098480FM-12+1478ZLJQ V0202501N003010150019N0200001N1+01661+00761100681ADDAY181031AY261031GF107991061041017501001021MD1210141+9999MW1251REMSYN066AAXX  12151 52533 41770 72503 10166 20076 40068 52014 72586 86402;
0230525330999992000061218004+39770+098480FM-12+1478ZLJQ V0200201N002019999999N0300001N1+01421+01091100681ADDAA106000791AY181061AY261061GF108991001001999999001071KA1240M+02411MA1999999084861MD1410001+0601MW1001OA130601801REMSYN106AAXX  12181 52533 11980 80202 10142 20109 38486 40068 54000 69901 70086 80007 333 00657 10241 91118 91529;
0139525330999992000061221004+39770+098480FM-12+1478ZLJQ V0201401N002019999999N0300001N1+01321+01071100761ADDAA124000791GF108991001001999999001071MD1710021+0601REMSYN076AAXX  12211 52533 42980 81402 10132 20107 40076 57002 80007 333 00656 79999;
0160525330999992000061300004+39770+098480FM-12+1478ZLJQ V0201801N002019999999N0300001N1+01541+01111100881ADDAA124000791GF108991081001999999021999MA1999999084911MD1210071+0501REMSYN082AAXX  13001 52533 32980 81802 10154 20111 38491 40088 52007 8802/ 333 00555 79999;
0112525330999992000061303004+39770+098480FM-12+1478ZLJQ V0203401N003019999999N0300001N1+02021+00961100871ADDGF107991001001999999001021MD1210091+9999REMSYN060AAXX  13031 52533 42980 73403 10202 20096 40087 52009 80002;
0192525330999992000061306004+39770+098480FM-12+1478ZLJQ V0203401N004010900019N0300001N1+02081+00551100791ADDAA199000091GF107991041091017501001021KA1999N+01261MA1999999084891MD1710111+0401REMSYN082AAXX  13061 52533 32780 73404 10208 20055 38489 40079 57011 84902 333 00453 20126;EQDQ01  00002PRCP99
0142525330999992000061309004+39770+098480FM-12+1478ZLJQ V0202701N004010150019N0300001N1+01761+00931101071ADDAY181031GF107991061091017501001021MD1210131+0051MW1801REMSYN076AAXX  13091 52533 41780 72704 10176 20093 40107 52013 78080 86902 333 00553;
0180525330999992000061312004+39770+098480FM-12+1478ZLJQ V0201801N003010900019N0300001N1+01721+00661101021ADDAA106000191AY181061GF107991041041017501001021MA1999999085021MD1410001+0031MW1001REMSYN088AAXX  13121 52533 11780 71803 10172 20066 38502 40102 54000 69921 70080 84402 333 00300;
0122525330999992000061315004+39770+098480FM-12+1478ZLJQ V0202701N002012200019N0300001N1+01481+00801100981ADDGA1001+999999999GF100991001001999999001001MD1210031+9999REMSYN054AAXX  13151 52533 42980 02702 10148 20080 40098 52003;
0183525330999992000061318004+39770+098480FM-12+1478ZLJQ V0202201N002012200019N0300001N1+01221+00791100971ADDAA199000021GA1001+999999999GF100991001001999999001001KA1999M+02231MA1999999084991MD1710061+0101REMSYN076AAXX  13181 52533 32980 02202 10122 20079 38499 40097 57006 333 00152 10223;
0149525330999992000061321004+39760+098470FM-12+1478ZLJQ V0202201N002012200019N0300001N1+01091+00621100991ADDAA124000391GA1001+999999999GF100991001001999999001001MD1710101+0101REMSYN070AAXX  13211 52533 42980 02202 10109 20062 40099 57010 333 00152 70002;
0188525330999992000061400004+39760+098470FM-12+1478ZLJQ V0202201N003012200019N0300001N1+01421+00611100841ADDAA124000391GA1001+999999999GF100991001001999999001001IA2999+00439MA1999999084841MD1710051-0101REMSYN082AAXX  14001 52533 32980 02203 10142 20061 38484 40084 57005 333 05151 30043 70002;
0122525330999992000061403004+39760+098470FM-12+1478ZLJQ V0201101N004012200019N0300001N1+02101+00691100611ADDGA1001+999999999GF100991001001999999001001MD1710081+9999REMSYN054AAXX  14031 52533 42980 01104 10210 20069 40061 57008;
0202525330999992000061406004+39760+098470FM-12+1478ZLJQ V0201101N004012200019N0300001N1+02381+00471100361ADDAA199000091GA1001+999999999GF100991001001999999001001KA1999N+01031MA1999999084551MD1710211-0301REMSYN076AAXX  14061 52533 32980 01104 10238 20047 38455 40036 57021 333 05303 20103;EQDQ01  00002PRCP99
0132525330999992000061409004+39760+098470FM-12+1478ZLJQ V0201401N004012200019N0300001N1+02581+00361100171ADDGA1001+999999999GF100991001001999999001001MD1710141+0061REMSYN064AAXX  14091 52533 42980 01404 10258 20036 40017 57014 333 05608;
0173525330999992000061412004+39760+098470FM-12+1478ZLJQ V0209999C000012200019N0300001N1+02391+00781100081ADDAA199000091GF101991001001999999001021MA1999999084371MD1710041+0071REMSYN076AAXX  14121 52533 32980 10000 10239 20078 38437 40008 57004 80002 333 05707;EQDQ01  00002PRCP99
0112525330999992000061415004+39760+098470FM-12+1478ZLJQ V0202001N002012200019N0300001N1+01951+00271100091ADDGF101991001001999999001021MD1210061+9999REMSYN060AAXX  14151 52533 42980 12002 10195 20027 40009 52006 80002;
0192525330999992000061418004+39760+098470FM-12+1478ZLJQ V0203401N002012200019N0300001N1+01821+00111100031ADDAA199000091GF102991001001999999001021KA1999M+02631MA1999999084421MD1710011-0601REMSYN082AAXX  14181 52533 32980 23402 10182 20011 38442 40003 57001 80002 333 05606 10263;EQDQ01  00002PRCP99
0122525330999992000061421004+39760+098470FM-12+1478ZLJQ V0203401N001010900019N0300001N1+01561+00391100301ADDGF107991021041017501001021MD1210211+0031REMSYN070AAXX  14211 52533 42780 73401 10156 20039 40030 52021 82402 333 05305;
0173525330999992000061500004+39760+098470FM-12+1478ZLJQ V0201801N002010900019N0300001N1+01901+00271100181ADDAA199000091GF107991021091017501001021MA1999999084571MD1710061+0031REMSYN076AAXX  15001 52533 32780 71802 10190 20027 38457 40018 57006 82902 333 05305;EQDQ01  00002PRCP99
0132525330999992000061503004+39760+098470FM-12+1478ZLJQ V0202701N012010150019N0300001N1+02191+00431100291ADDAY181031GF107991071091017501001021MD1210051+9999MW1801REMSYN066AAXX  15031 52533 41780 72712 10219 20043 40029 52005 78080 87902;
0222525330999992000061506004+39760+098470FM-12+1478ZLJQ V0202001N005010900019N0300001N1+02381+00611100221ADDAA106000791AY181061GF107991031091017501001021KA1240N+01421MA1999999084581MD1710041+0001MW1001OA130601901REMSYN106AAXX  15061 52533 11780 72005 10238 20061 38458 40022 57004 69901 70080 83902 333 00000 20142 91119 91527;
0122525330999992000061509004+39760+098470FM-12+1478ZLJQ V0203401N003010900019N0250001N1+02521+00311100211ADDGF106991021041017501001021MD1710041+0011REMSYN070AAXX  15091 52533 42775 63403 10252 20031 40021 57004 82402 333 00151;
0154525330999992000061512004+39760+098470FM-12+1478ZLJQ V0203401N003010900019N0200001N1+02371+00011100191ADDAA199000021GF107991011041017501001021MA1999999084571MD1210031+0021REMSYN076AAXX  15121 52533 32770 73403 10237 20001 38457 40019 52003 81402 333 00200;
0132525330999992000061515004+39760+098470FM-12+1478ZLJQ V0201601N005010150019N0200001N1+01651+00751100731ADDAY181031GF107991071091017501999999MD1210351+9999MW1951REMSYN066AAXX  15151 52533 41770 71605 10165 20075 40073 52035 79580 879//;
0207525330999992000061518004+39760+098470FM-12+1478ZLJQ V0202901N002010150019N0300001N1+01521+00911100641ADDAA106000191AY191061AY281061GF107991071091017501999999KA1999M+02641MA1999999084861MD1710061+0401MW1001REMSYN094AAXX  15181 52533 11780 72902 10152 20091 38486 40064 57006 69921 70098 879// 333 00453 10264;
0159525330999992000061521004+39760+098470FM-12+1478ZLJQ V0209999C000019999999N0300001N1+01271+00961100601ADDAA124000391AY181031GF107991021001999999041021MD1710061+0201MW1001REMSYN082AAXX  15211 52533 41980 70000 10127 20096 40060 57006 70080 82042 333 00253 70002;
0186525330999992000061600004+39760+098470FM-12+1478ZLJQ V0203401N001010150019N0300001N1+01301+00961100931ADDAA106000791AY181061GF107991071091017501001021MA1999999085051MD1210251+0501MW1801REMSYN094AAXX  16001 52533 11780 73401 10130 20096 38505 40093 52025 69901 78080 87902 333 00556 70002;
0140525330999992000061603004+39760+098470FM-12+1478ZLJQ V0200701N002010150019N0300001N1+01521+01051101101ADDAY191031AY281031GF107991071091017501001021MD1210021+9999MW1801REMSYN066AAXX  16031 52533 41780 70702 10152 20105 40110 52002 78098 87902;
0207525330999992000061606004+39760+098470FM-12+1478ZLJQ V0209999C000010150019N0300001N1+01881+01081101011ADDAA106000791AY191061AY281061GF107991061091017501001021KA1999N+01171MA1999999085051MD1710021+0501MW1171REMSYN094AAXX  16061 52533 11780 70000 10188 20108 38505 40101 57002 69901 71798 86902 333 00555 20117;
0134525330999992000061609004+39760+098470FM-12+1478ZLJQ V0201601N001010150019N0300001N1+02061+00821100891ADDGF107991071091017501001021MD1710121+0041MW1171REMSYN076AAXX  16091 52533 41780 71601 10206 20082 40089 57012 71700 87902 333 00455;
0188525330999992000061612004+39760+098470FM-12+1478ZLJQ V0201601N005010900019N0300001N1+01721+00921101111ADDAA106000791AY191061AY281061GF107991041041017501001021MA1999999085041MD1210111+0051MW1001REMSYN088AAXX  16121 52533 11780 71605 10172 20092 38504 40111 52011 69901 70098 84402 333 00557;
0132525330999992000061615004+39760+098470FM-12+1478ZLJQ V0202501N002012200019N0300001N1+01441+01111101211ADDAY181031GF104991011041017501001021MD1210071+9999MW1001REMSYN066AAXX  16151 52533 41780 42502 10144 20111 40121 52007 70080 81402;
0199525330999992000061618004+39760+098470FM-12+1478ZLJQ V0202701N002012200019N0300001N1+01281+01051101111ADDAA106000791AY181061GF101991011041017501001021KA1999M+02121MA1999999085071MD1710041+0201MW1001REMSYN094AAXX  16181 52533 11780 12702 10128 20105 38507 40111 57004 69901 70080 81402 333 00252 10212;
0139525330999992000061621004+39760+098470FM-12+1478ZLJQ V0202501N001012200019N0300001N1+01151+00951101141ADDAA124000791GF104991041041017501001021MD1210041+0301REMSYN076AAXX  16211 52533 42780 42501 10115 20095 40114 52004 84402 333 00351 79999;
0178525330999992000061700004+39760+098470FM-12+1478ZLJQ V0202901N002010150019N0300001N1+01501+01081101271ADDAA106000791GF105991051041017501001001MA1999999085221MD1210111+0201MW1251REMSYN094AAXX  17001 52533 11780 52902 10150 20108 38522 40127 52011 69901 72500 85400 333 00202 79999;
0112525330999992000061703004+39760+098470FM-12+1478ZLJQ V0201101N002012200019N0300001N1+01921+00961101281ADDGF102991021011017501001001MD1210051+9999REMSYN060AAXX  17031 52533 42780 21102 10192 20096 40128 52005 82100;
0185525330999992000061706004+39760+098470FM-12+1478ZLJQ V0202001N005010120019N0300001N1+02041+00901101241ADDAA199000021GF106991061091012501001001KA1999N+01071MA1999999085221MD1710051+0201MW1291REMSYN088AAXX  17061 52533 31680 62005 10204 20090 38522 40124 57005 72900 86900 333 00202 20107;
0122525330999992000061709004+39760+098470FM-12+1478ZLJQ V0202201N003012200019N0300001N1+02321+00991101051ADDGF102991021041017501001001MD1710121+0021REMSYN070AAXX  17091 52533 42780 22203 10232 20099 40105 57012 82400 333 00203;
0154525330999992000061712004+39760+098470FM-12+1478ZLJQ V0200701N003012200019N0300001N1+02061+01031101021ADDAA199000021GF101991011041017501001021MA1999999085101MD1410001+0011REMSYN076AAXX  17121 52533 32780 10703 10206 20103 38510 40102 54000 81402 333 00103;
0112525330999992000061715004+39760+098470FM-12+1478ZLJQ V0202201N002012200019N0300001N1+01621+01081101181ADDGF102991021041017501001021MD1210131+9999REMSYN060AAXX  17151 52533 42780 22202 10162 20108 40118 52013 82402;
0191525330999992000061718004+39760+098470FM-12+1478ZLJQ V0202501N001010900019N0300001N1+01621+01121101111ADDAA106000791GF107991031091017501001021KA1999M+02371MA1999999085201MD1710031+0101MW1251REMSYN094AAXX  17181 52533 11780 72501 10162 20112 38520 40111 57003 69901 72500 83902 333 00103 10237;
0139525330999992000061721004+39760+098470FM-12+1478ZLJQ V0209999C000012200019N0300001N1+01381+01041101011ADDAA124000791GF102991011041017501041021MD1710081+0001REMSYN076AAXX  17211 52533 42780 20000 10138 20104 40101 57008 81442 333 00002 79999;
0160525330999992000061800004+39760+098470FM-12+1478ZLJQ V0202901N002012200019N0300001N1+01671+01161101081ADDAA124000791GF101991011041017501001021MA1999999085191MD1210071+0001REMSYN082AAXX  18001 52533 32780 12902 10167 20116 38519 40108 52007 81402 333 00002 79999;
0112525330999992000061803004+39760+098470FM-12+1478ZLJQ V0200701N003012200019N0300001N1+02121+01111101111ADDGF101991011011012501001021MD1210031+9999REMSYN060AAXX  18031 52533 42680 10703 10212 20111 40111 52003 81102;
0173525330999992000061806004+39760+098470FM-12+1478ZLJQ V0202901N001012200019N0300001N1+02361+00911100841ADDAA199000021GF101991011011017501001021KA1999N+01221MA1999999085051MD1710171-0201REMSYN082AAXX  18061 52533 32780 12901 10236 20091 38505 40084 57017 81102 333 05203 20122;
0122525330999992000061809004+39760+098470FM-12+1478ZLJQ V0200901N003012200019N0300001N1+02551+00941100631ADDGF101991011011017501001021MD1710191+0021REMSYN070AAXX  18091 52533 42780 10903 10255 20094 40063 57019 81102 333 05202;
0173525330999992000061812004+39760+098470FM-12+1478ZLJQ V0200701N002012200019N0300001N1+02511+00901100491ADDAA199000091GF101991011041017501001021MA1999999084801MD1710061+0031REMSYN076AAXX  18121 52533 32780 10702 10251 20090 38480 40049 57006 81402 333 05305;EQDQ01  00002PRCP99
0122525330999992000061815004+39760+098470FM-12+1478ZLJQ V0202701N001012200019N0300001N1+01871+01121100631ADDGA1001+999999999GF100991001001999999001001MD1210071+9999REMSYN054AAXX  18151 52533 42980 02701 10187 20112 40063 52007;
0202525330999992000061818004+39760+098470FM-12+1478ZLJQ V0200901N001012200019N0300001N1+01531+01061100561ADDAA199000091GA1001+999999999GF100991001001999999001001KA1999M+02591MA1999999084791MD1710081-0401REMSYN076AAXX  18181 52533 32980 00901 10153 20106 38479 40056 57008 333 05451 10259;EQDQ01  00002PRCP99
0132525330999992000061821004+39760+098470FM-12+1478ZLJQ V0202901N002012200019N0300001N1+01321+00941100551ADDGA1001+999999999GF100991001001999999001001MD1710011+0031REMSYN064AAXX  18211 52533 42980 02902 10132 20094 40055 57001 333 05351;
0112525330999992000061903004+39760+098470FM-12+1478ZLJQ V0200701N003012200019N0300001N1+02291+01251100581ADDGF101991011011012501001021MD1210041+9999REMSYN060AAXX  19031 52533 42680 10703 10229 20125 40058 52004 81102;
0192525330999992000061906004+39760+098470FM-12+1478ZLJQ V0200701N003012200019N0300001N1+02661+01051100401ADDAA199000091GF102991011011012501001021KA1999N+01271MA1999999084731MD1710141-0301REMSYN082AAXX  19061 52533 32680 20703 10266 20105 38473 40040 57014 81102 333 05303 20127;EQDQ01  00002PRCP99
0122525330999992000061909004+39760+098470FM-12+1478ZLJQ V0201401N002012200019N0300001N1+02801+00941100201ADDGF103991011011012501001021MD1710191+0031REMSYN070AAXX  19091 52533 42680 31402 10280 20094 40020 57019 81102 333 05303;
0173525330999992000061912004+39760+098470FM-12+1478ZLJQ V0209999C000012200019N0300001N1+02781+01121100051ADDAA199000091GF103991011041017501001021MA1999999084521MD1710021+0031REMSYN076AAXX  19121 52533 32780 30000 10278 20112 38452 40005 57002 81402 333 05303;EQDQ01  00002PRCP99
0112525330999992000061915004+39760+098470FM-12+1478ZLJQ V0203401N002010900019N0300001N1+02201+00991100171ADDGF105991011041017501001021MD1210091+9999REMSYN060AAXX  19151 52533 42780 53402 10220 20099 40017 52009 81402;
0192525330999992000061918004+39760+098470FM-12+1478ZLJQ V0202001N002010150019N0300001N1+01971+01001100221ADDAA199000091GF106991051041017501001021KA1999M+02851MA1999999084681MD1210071-0101REMSYN082AAXX  19181 52533 32780 62002 10197 20100 38468 40022 52007 85402 333 05104 10285;EQDQ01  00002PRCP99
0122525330999992000061921004+39760+098470FM-12+1478ZLJQ V0202201N002010900019N0300001N1+01731+01111100121ADDGF107991021041017501001021MD1710111+0021REMSYN070AAXX  19211 52533 42780 72202 10173 20111 40012 57011 82402 333 05204;
0172525330999992000062000004+39760+098470FM-12+1478ZLJQ V0200901N001019999999N0300001N1+01721+01221100201ADDAA199000091GF106991999999017501999999MA1999999084631MD1210061+9999REMSYN075AAXX  20001 52533 32780 60901 10172 20122 38463 40020 52006 2402 333 05251;EQDQ01  00002PRCP99
0112525330999992000062003004+39760+098470FM-12+1478ZLJQ V0200901N003012200019N0300001N1+02481+01311100101ADDGF101991001001999999001021MD1710041+9999REMSYN060AAXX  20031 52533 42980 10903 10248 20131 40010 57004 80002;
0192525330999992000062006004+39760+098470FM-12+1478ZLJQ V0200901N005012200019N0300001N1+02771+01211099951ADDAA199000091GF101991011011017501001001KA1999N+01631MA1999999084481MD1710111-0301REMSYN082AAXX  20061 52533 32780 10905 10277 20121 38448 49995 57011 81100 333 05301 20163;EQDQ01  00002PRCP99
0122525330999992000062009004+39760+098470FM-12+1478ZLJQ V0200701N004012200019N0300001N1+02851+01061099781ADDGF101991011011017501001021MD1710181+0021REMSYN070AAXX  20091 52533 42780 10704 10285 20106 49978 57018 81102 333 05201;
0173525330999992000062012004+39760+098470FM-12+1478ZLJQ V0200701N003012200019N0300001N1+02621+01261099841ADDAA199000091GF101991011041017501001021MA1999999084291MD1710011+0021REMSYN076AAXX  20121 52533 32780 10703 10262 20126 38429 49984 57001 81402 333 05252;EQDQ01  00002PRCP99
0122525330999992000062015004+39760+098470FM-12+1478ZLJQ V0200701N002012200019N0300001N1+02201+00941099791ADDGA1001+999999999GF100991001001999999001001MD1210041+9999REMSYN054AAXX  20151 52533 42980 00702 10220 20094 49979 52004;
0202525330999992000062018004+39760+098470FM-12+1478ZLJQ V0201101N002012200019N0300001N1+01731+01121099821ADDAA199000091GA1001+999999999GF100991001001999999001001KA1999M+02891MA1999999084311MD1710021-0401REMSYN076AAXX  20181 52533 32980 01102 10173 20112 38431 49982 57002 333 05452 10289;EQDQ01  00002PRCP99
0132525330999992000062021004+39760+098470FM-12+1478ZLJQ V0203401N002012200019N0300001N1+01531+01021099791ADDGA1001+999999999GF100991001001999999001001MD1710051+0031REMSYN064AAXX  20211 52533 42980 03402 10153 20102 49979 57005 333 05352;
0173525330999992000062100004+39760+098470FM-12+1478ZLJQ V0209999C000012200019N0300001N1+01881+01191099781ADDAA199000091GF101991001001999999001021MA1999999084281MD1210021+0041REMSYN076AAXX  21001 52533 32980 10000 10188 20119 38428 49978 52002 80002 333 05402;EQDQ01  00002PRCP99
0112525330999992000062103004+39760+098470FM-12+1478ZLJQ V0201101N003012200019N0300001N1+02421+01471099711ADDGF102991001001999999001021MD1710031+9999REMSYN060AAXX  21031 52533 42980 21103 10242 20147 49971 57003 80002;
0192525330999992000062106004+39760+098470FM-12+1478ZLJQ V0200901N003019999999N0300001N1+02761+01321099671ADDAA199000091GF105991001001999999001021KA1999N+01401MA1999999084181MD1710071-0301REMSYN082AAXX  21061 52533 32980 50903 10276 20132 38418 49967 57007 80002 333 05300 20140;EQDQ01  00002PRCP99
0122525330999992000062109004+39760+098470FM-12+1478ZLJQ V0201101N001010900019N0300001N1+02981+01031099521ADDGF107991011011012501001021MD1710121+0021REMSYN070AAXX  21091 52533 42680 71101 10298 20103 49952 57012 81102 333 05201;
0173525330999992000062112004+39760+098470FM-12+1478ZLJQ V0209999C000019999999N0300001N1+02921+01231099421ADDAA199000091GF107991001001999999001021MA1999999084051MD1710011+0021REMSYN076AAXX  21121 52533 32980 70000 10292 20123 38405 49942 57001 80002 333 05203;EQDQ01  00002PRCP99
0112525330999992000062115004+39760+098470FM-12+1478ZLJQ V0202701N002019999999N0300001N1+02121+01371099621ADDGF105991001001999999001021MD1210101+9999REMSYN060AAXX  21151 52533 42980 52702 10212 20137 49962 52010 80002;
0192525330999992000062118004+39760+098470FM-12+1478ZLJQ V0202901N002019999999N0300001N1+02001+01111099601ADDAA199000091GF107991001001999999001021KA1999M+03061MA1999999084191MD1210041-0101REMSYN082AAXX  21181 52533 32980 72902 10200 20111 38419 49960 52004 80002 333 05103 10306;EQDQ01  00002PRCP99
0122525330999992000062121004+39760+098470FM-12+1478ZLJQ V0202901N003019999999N0300001N1+01781+01021099731ADDGF107991001001999999001021MD1210111+0001REMSYN070AAXX  21211 52533 42980 72903 10178 20102 49973 52011 80002 333 00003;
0173525330999992000062200004+39760+098470FM-12+1478ZLJQ V0203401N003019999999N0300001N1+01921+01151099951ADDAA199000091GF107991051001999999041021MA1999999084501MD1210201+0021REMSYN076AAXX  22001 52533 32980 73403 10192 20115 38450 49995 52020 85042 333 00200;EQDQ01  00002PRCP99
0112525330999992000062203004+39760+098470FM-12+1478ZLJQ V0200701N003012200019N0300001N1+02381+01241100091ADDGF103991001001999999001021MD1210041+9999REMSYN060AAXX  22031 52533 42980 30703 10238 20124 40009 52004 80002;
0192525330999992000062206004+39760+098470FM-12+1478ZLJQ V0201401N003010360019N0300001N1+02421+01241100021ADDAA199000091GF107991011011017501041021KA1999N+01651MA1999999084461MD1710081+0301REMSYN082AAXX  22061 52533 32780 71403 10242 20124 38446 40002 57008 81142 333 00353 20165;EQDQ01  00002PRCP99
0122525330999992000062209004+39760+098470FM-12+1478ZLJQ V0201101N003010360019N0300001N1+02561+01341099901ADDGF107991021041017501041021MD1710121+0031REMSYN070AAXX  22091 52533 42780 71103 10256 20134 49990 57012 82442 333 00354;
0173525330999992000062212004+39760+098470FM-12+1478ZLJQ V0200901N001010150019N0300001N1+02461+01621099891ADDAA199000091GF107991061041017501001021MA1999999084341MD1410001+0031REMSYN076AAXX  22121 52533 32780 70901 10246 20162 38434 49989 54000 86402 333 00355;EQDQ01  00002PRCP99
0112525330999992000062215004+39760+098470FM-12+1478ZLJQ V0201101N002010150019N0300001N1+02241+01361099921ADDGF107991051041017501001021MD1210091+9999REMSYN060AAXX  22151 52533 42780 71102 10224 20136 49992 52009 85402;
0192525330999992000062218004+39760+098470FM-12+1478ZLJQ V0200401N003010150019N0300001N1+02071+01361100011ADDAA199000091GF107991061041017501001021KA1999M+02741MA1999999084471MD1210041+0301REMSYN082AAXX  22181 52533 32780 70403 10207 20136 38447 40001 52004 86402 333 00301 10274;EQDQ01  00002PRCP99
0122525330999992000062221004+39760+098470FM-12+1478ZLJQ V0209999C000010150019N0300001N1+01841+01511100021ADDGF107991061041017501001021MD1710011+0021REMSYN070AAXX  22211 52533 42780 70000 10184 20151 40002 57001 86402 333 00201;
0178525330999992000062300004+39760+098470FM-12+1478ZLJQ V0209999C000010150019N0300001N1+01871+01501100171ADDAA106000791GF107991051041017501001021MA1999999084571MD1210111+0101MW1801REMSYN094AAXX  23001 52533 11780 70000 10187 20150 38457 40017 52011 69901 78000 85402 333 00151 79999;
0132525330999992000062303004+39760+098470FM-12+1478ZLJQ V0202001N003010150019N0300001N1+02151+01341100241ADDAY181031GF107991061041017501001021MD1210071+9999MW1001REMSYN066AAXX  23031 52533 41780 72003 10215 20134 40024 52007 70080 86402;
0199525330999992000062306004+39760+098470FM-12+1478ZLJQ V0200201N004010150019N0300001N1+02361+01351100251ADDAA106000791AY181061GF107991071041017501999999KA1999N+01761MA1999999084661MD1210021+0201MW1001REMSYN094AAXX  23061 52533 11780 70204 10236 20135 38466 40025 52002 69901 70080 874// 333 00251 20176;
0134525330999992000062309004+39760+098470FM-12+1478ZLJQ V0200901N003010150019N0300001N1+01861+01431100381ADDGF108991061091017501001071MD1710071+0031MW1251REMSYN076AAXX  23091 52533 41780 80903 10186 20143 40038 57007 72500 86907 333 00357;
0180525330999992000062312004+39760+098470FM-12+1478ZLJQ V0201601N005010150019N0300001N1+01941+01361100321ADDAA106000891AY181061GF107991071041017501999999MA1999999084571MD1710021+0021MW1801REMSYN088AAXX  23121 52533 11780 71605 10194 20136 38457 40032 57002 69971 78080 874// 333 00255;
0140525330999992000062315004+39760+098470FM-12+1478ZLJQ V0203401N003019999999N0200001N1+01711+01451100571ADDAY181031AY281031GF108991081001999999021999MD1210221+9999MW1601REMSYN066AAXX  23151 52533 41970 83403 10171 20145 40057 52022 76088 8802/;
0207525330999992000062318004+39760+098470FM-12+1478ZLJQ V0209999C000019999999N0300001N1+01551+01401100491ADDAA106000591AY181061AY261061GF108991021001999999041071KA1999M+02371MA1999999084741MD1710051+0301MW1001REMSYN094AAXX  23181 52533 11980 80000 10155 20140 38474 40049 57005 69941 70086 82047 333 00355 10237;
0159525330999992000062321004+39760+098470FM-12+1478ZLJQ V0203401N002019999999N0300001N1+01461+01361100641ADDAA124002091AY161031GF108991081001999999021999MD1710021+0301MW1601REMSYN082AAXX  23211 52533 41980 83402 10146 20136 40064 57002 76060 8802/ 333 00354 70020;
0186525330999992000062400004+39760+098470FM-12+1478ZLJQ V0200401N002010075019N0300001N1+01481+01431100761ADDAA106003091AY161061GF108991061071008001021999MA1999999084841MD1210121+0301MW1601REMSYN094AAXX  24001 52533 11580 80402 10148 20143 38484 40076 52012 60031 76060 8672/ 333 00354 70039;
0140525330999992000062403004+39760+098470FM-12+1478ZLJQ V0200901N003010075019N0300001N1+01601+01451100871ADDAY161031AY261031GF108991071071008001021999MD1210071+9999MW1601REMSYN066AAXX  24031 52533 41580 80903 10160 20145 40087 52007 76066 8772/;
0199525330999992000062406004+39760+098470FM-12+1478ZLJQ V0201101N005010150019N0300001N1+01781+01351100791ADDAA106004191AY161061GF107991071091017501001021KA1999N+01411MA1999999084851MD1710061+0201MW1001REMSYN094AAXX  24061 52533 11780 71105 10178 20135 38485 40079 57006 60041 70060 87902 333 00256 20141;
0122525330999992000062409004+39760+098470FM-12+1478ZLJQ V0200701N004010150019N0300001N1+01731+01371100751ADDGF107991071091017501999999MD1710071+0021REMSYN070AAXX  24091 52533 42780 70704 10173 20137 40075 57007 879// 333 00251;
0180525330999992000062412004+39760+098470FM-12+1478ZLJQ V0209999C000010150019N0300001N1+01651+01391100781ADDAA106000791AY181061GF107991061041017501001021MA1999999084791MD1210011+0021MW1001REMSYN088AAXX  24121 52533 11780 70000 10165 20139 38479 40078 52001 69901 70080 86402 333 00253;
0112525330999992000062415004+39760+098470FM-12+1478ZLJQ V0209999C000010900019N0300001N1+01601+01421100891ADDGF107991021041017501001021MD1210111+9999REMSYN060AAXX  24151 52533 42780 70000 10160 20142 40089 52011 82402;
0199525330999992000062418004+39760+098470FM-12+1478ZLJQ V0209999C000019999999N0300001N1+01521+01441100731ADDAA106000791AY161061GF108991081001999999071999KA1999M+01831MA1999999084791MD1710111+0101MW1601REMSYN094AAXX  24181 52533 11980 80000 10152 20144 38479 40073 57011 69901 76060 8807/ 333 00100 10183;
0139525330999992000062421004+39760+098470FM-12+1478ZLJQ V0202501N001019999999N0300001N1+01481+01411100771ADDAA124005391GF107991061001999999031021MD1210011+0101REMSYN076AAXX  24211 52533 42980 72501 10148 20141 40077 52001 86032 333 00100 70054;
0160525330999992000062500004+39760+098470FM-12+1478ZLJQ V0202901N002019999999N0300001N1+01781+01411100841ADDAA124003691GF106991061001999999031001MA1999999084911MD1210111+0101REMSYN082AAXX  25001 52533 32980 62902 10178 20141 38491 40084 52011 86030 333 00103 70035;
0112525330999992000062503004+39760+098470FM-12+1478ZLJQ V0203401N002010360019N0300001N1+02021+01371100801ADDGF107991041041017501041021MD1210021+9999REMSYN060AAXX  25031 52533 42780 73402 10202 20137 40080 52002 84442;
0173525330999992000062506004+39760+098470FM-12+1478ZLJQ V0200401N001010150019N0300001N1+02091+01491100661ADDAA199000021GF106991061091017501001001KA1999N+01441MA1999999084811MD1710121+0001REMSYN082AAXX  25061 52533 32780 60401 10209 20149 38481 40066 57012 86900 333 00003 20144;
0122525330999992000062509004+39760+098470FM-12+1478ZLJQ V0202001N004010150019N0300001N1+02101+01541100521ADDGF107991061091017501001021MD1710131+0011REMSYN070AAXX  25091 52533 42780 72004 10210 20154 40052 57013 86902 333 05104;
0173525330999992000062512004+39760+098470FM-12+1478ZLJQ V0202701N003010900019N0300001N1+02101+01341100381ADDAA199000091GF107991021091017501001021MA1999999084641MD1710041+0021REMSYN076AAXX  25121 52533 32780 72703 10210 20134 38464 40038 57004 82902 333 05205;EQDQ01  00002PRCP99
0112525330999992000062515004+39760+098470FM-12+1478ZLJQ V0202701N003010900019N0300001N1+01961+01291100471ADDGF107991021041017501001021MD1210101+9999REMSYN060AAXX  25151 52533 42780 72703 10196 20129 40047 52010 82402;
0192525330999992000062518004+39760+098470FM-12+1478ZLJQ V0202701N002012200019N0300001N1+01741+01031100451ADDAA199000091GF103991001001999999001021KA1999M+02251MA1999999084681MD1710061-0101REMSYN082AAXX  25181 52533 32980 32702 10174 20103 38468 40045 57006 80002 333 05102 10225;EQDQ01  00002PRCP99
0122525330999992000062521004+39760+098470FM-12+1478ZLJQ V0202501N002010900019N0300001N1+01641+01181100531ADDGF107991041041017501001021MD1210051+0011REMSYN070AAXX  25211 52533 42780 72502 10164 20118 40053 52005 84402 333 05102;
0173525330999992000062600004+39760+098470FM-12+1478ZLJQ V0202901N002010150019N0300001N1+01801+01361100591ADDAA199000091GF107991051041017501041021MA1999999084821MD1210091+0011REMSYN076AAXX  26001 52533 32780 72902 10180 20136 38482 40059 52009 85442 333 05100;EQDQ01  00002PRCP99
0112525330999992000062603004+39760+098470FM-12+1478ZLJQ V0202901N004010360019N0300001N1+02151+01191100611ADDGF107991011041017501041001MD1210071+9999REMSYN060AAXX  26031 52533 42780 72904 10215 20119 40061 52007 81440;
0192525330999992000062606004+39760+098470FM-12+1478ZLJQ V0202201N002010900019N0300001N1+02501+01261100411ADDAA199000091GF107991011011017501001021KA1999N+01551MA1999999084751MD1710141-0101REMSYN082AAXX  26061 52533 32780 72202 10250 20126 38475 40041 57014 81102 333 05104 20155;EQDQ01  00002PRCP99
0122525330999992000062609004+39760+098470FM-12+1478ZLJQ V0202701N006010900019N0300001N1+02201+01381100421ADDGF107991041041017501001021MD1710091+0001REMSYN070AAXX  26091 52533 42780 72706 10220 20138 40042 57009 84402 333 00001;
0172525330999992000062612004+39760+098470FM-12+1478ZLJQ V0202501N004010150019N0300001N1+02031+01161100541ADDAA106000791GF107991071041017501999999MA1999999084761MD1210101+0011MW1801REMSYN088AAXX  26121 52533 11780 72504 10203 20116 38476 40054 52010 69901 78000 874// 333 00151;
0132525330999992000062615004+39760+098470FM-12+1478ZLJQ V0203401N004010900019N0300001N1+01931+01191100671ADDAY181031GF107991021041017501001021MD1210171+9999MW1001REMSYN066AAXX  26151 52533 41780 73404 10193 20119 40067 52017 70080 82402;
0207525330999992000062618004+39760+098470FM-12+1478ZLJQ V0202901N002019999999N0300001N1+01731+01351100641ADDAA106000791AY181061AY261061GF108991081001999999021999KA1999M+02611MA1999999084941MD1210011+0301MW1211REMSYN094AAXX  26181 52533 11980 82902 10173 20135 38494 40064 52001 69901 72186 8802/ 333 00300 10261;
0139525330999992000062621004+39760+098470FM-12+1478ZLJQ V0202701N002010900019N0300001N1+01591+01221100731ADDAA124000791GF107991021041017501001021MD1710031+0201REMSYN076AAXX  26211 52533 42780 72702 10159 20122 40073 57003 82402 333 00251 79999;
0160525330999992000062700004+39760+098470FM-12+1478ZLJQ V0202701N009010150019N0300001N1+01731+01111100851ADDAA124000791GF107991071041017501001001MA1999999085001MD1210091+0201REMSYN082AAXX  27001 52533 32780 72709 10173 20111 38500 40085 52009 87400 333 00251 79999;
0132525330999992000062703004+39760+098470FM-12+1478ZLJQ V0203201N003010150019N0300001N1+02011+01031100901ADDAY181031GF107991071051017501001001MD1210091+9999MW1001REMSYN066AAXX  27031 52533 41780 73203 10201 20103 40090 52009 70080 87500;
0199525330999992000062706004+39760+098470FM-12+1478ZLJQ V0200401N002012200019N0300001N1+02421+01071100641ADDAA106000791AY181061GF102991021011017501001001KA1999N+01481MA1999999084921MD1710171+0201MW1001REMSYN094AAXX  27061 52533 11780 20402 10242 20107 38492 40064 57017 69901 70080 82100 333 00251 20148;
0122525330999992000062709004+39760+098470FM-12+1478ZLJQ V0202001N002010900019N0300001N1+02401+01081100571ADDGF105991021041017501001021MD1710101+0021REMSYN070AAXX  27091 52533 42780 52002 10240 20108 40057 57010 82402 333 00202;
0188525330999992000062712004+39760+098470FM-12+1478ZLJQ V0200201N002010900019N0300001N1+02281+01171100561ADDAA106000791AY191061AY281061GF105991031091017501001021MA1999999084821MD1410001+0011MW1001REMSYN088AAXX  27121 52533 11780 50202 10228 20117 38482 40056 54000 69901 70098 83902 333 00103;
0132525330999992000062715004+39760+098470FM-12+1478ZLJQ V0202201N002012200019N0300001N1+01871+01161100731ADDAY181031GF101991011041017501001021MD1210111+9999MW1001REMSYN066AAXX  27151 52533 41780 12202 10187 20116 40073 52011 70080 81402;
0209525330999992000062718004+39760+098470FM-12+1478ZLJQ V0202701N003012200019N0300001N1+01631+01111100541ADDAA106000191AY181061GA1001+999999999GF100991001001999999001001KA1999M+02521MA1999999084811MD1710121-0101MW1001REMSYN088AAXX  27181 52533 11980 02703 10163 20111 38481 40054 57012 69921 70080 333 05151 10252;
0149525330999992000062721004+39760+098470FM-12+1478ZLJQ V0202201N003012200019N0300001N1+01601+00921100521ADDAA124000391GA1001+999999999GF100991001001999999001001MD1710031-0101REMSYN070AAXX  27211 52533 42980 02203 10160 20092 40052 57003 333 05100 70002;
0170525330999992000062800004+39760+098470FM-12+1478ZLJQ V0202701N001012200019N0300001N1+01811+01171100611ADDAA124000391GA1001+999999999GF100991001001999999001001MA1999999084881MD1210101-0101REMSYN076AAXX  28001 52533 32980 02701 10181 20117 38488 40061 52010 333 05101 70002;
0112525330999992000062803004+39760+098470FM-12+1478ZLJQ V0201601N001012200019N0300001N1+02521+00991100521ADDGF101991011011017501001001MD1410001+9999REMSYN060AAXX  28031 52533 42780 11601 10252 20099 40052 54000 81100;
0192525330999992000062806004+39760+098470FM-12+1478ZLJQ V0203401N004012200019N0300001N1+02791+01041100421ADDAA199000091GF102991021011017501001001KA1999N+01431MA1999999084801MD1710081-0101REMSYN082AAXX  28061 52533 32780 23404 10279 20104 38480 40042 57008 82100 333 05104 20143;EQDQ01  00002PRCP99
0122525330999992000062809004+39760+098470FM-12+1478ZLJQ V0202901N004012200019N0300001N1+02911+00761100261ADDGF102991021011017501001001MD1710111+0011REMSYN070AAXX  28091 52533 42780 22904 10291 20076 40026 57011 82100 333 05105;
0173525330999992000062812004+39760+098470FM-12+1478ZLJQ V0203401N002012200019N0300001N1+02721+00861100321ADDAA199000091GF102991021041017501001021MA1999999084741MD1210051+0011REMSYN076AAXX  28121 52533 32780 23402 10272 20086 38474 40032 52005 82402 333 05104;EQDQ01  00002PRCP99
0122525330999992000062815004+39760+098470FM-12+1478ZLJQ V0202001N002012200019N0300001N1+02041+00971100431ADDGA1001+999999999GF100991001001999999001001MD1210101+9999REMSYN054AAXX  28151 52533 42980 02002 10204 20097 40043 52010;
0192525330999992000062818004+39760+098470FM-12+1478ZLJQ V0202201N002012200019N0300001N1+01791+00821100331ADDAA199000091GF101991011041017501001001KA1999M+02921MA1999999084761MD1710081-0101REMSYN082AAXX  28181 52533 32780 12202 10179 20082 38476 40033 57008 81400 333 05102 10292;EQDQ01  00002PRCP99
0122525330999992000062821004+39760+098470FM-12+1478ZLJQ V0202201N002012200019N0300001N1+01531+00731100341ADDGF101991011041017501001021MD1710021+0001REMSYN070AAXX  28211 52533 42780 12202 10153 20073 40034 57002 81402 333 00051;
0173525330999992000062900004+39760+098470FM-12+1478ZLJQ V0202501N001012200019N0300001N1+01801+00851100411ADDAA199000091GF101991001001999999001021MA1999999084821MD1210081+0011REMSYN076AAXX  29001 52533 32980 12501 10180 20085 38482 40041 52008 80002 333 05100;EQDQ01  00002PRCP99
0112525330999992000062903004+39760+098470FM-12+1478ZLJQ V0202001N002012200019N0300001N1+02761+01111100311ADDGF101991011001999999041021MD1710021+9999REMSYN060AAXX  29031 52533 42980 12002 10276 20111 40031 57002 81042;
0192525330999992000062906004+39760+098470FM-12+1478ZLJQ V0200701N003012200019N0300001N1+02971+00961100221ADDAA199000091GF101991011011017501001001KA1999N+01411MA1999999084711MD1710091-0101REMSYN082AAXX  29061 52533 32780 10703 10297 20096 38471 40022 57009 81100 333 05102 20141;EQDQ01  00002PRCP99
0122525330999992000062909004+39760+098470FM-12+1478ZLJQ V0200701N003012200019N0300001N1+03011+01001100141ADDGF101991011011017501001001MD1710121+0011REMSYN070AAXX  29091 52533 42780 10703 10301 20100 40014 57012 81100 333 05101;
0173525330999992000062912004+39760+098470FM-12+1478ZLJQ V0201101N002012200019N0300001N1+02761+01071100051ADDAA199000091GF101991011041017501001001MA1999999084521MD1710071+0021REMSYN076AAXX  29121 52533 32780 11102 10276 20107 38452 40005 57007 81400 333 05200;EQDQ01  00002PRCP99
0122525330999992000062915004+39760+098470FM-12+1478ZLJQ V0202501N002012200019N0300001N1+02021+00991100061ADDGA1001+999999999GF100991001001999999001001MD1210061+9999REMSYN054AAXX  29151 52533 42980 02502 10202 20099 40006 52006;
0202525330999992000062918004+39760+098470FM-12+1478ZLJQ V0202201N001012200019N0300001N1+01901+00851100001ADDAA199000091GA1001+999999999GF100991001001999999001001KA1999M+03141MA1999999084551MD1710031-0201REMSYN076AAXX  29181 52533 32980 02201 10190 20085 38455 40000 57003 333 05201 10314;EQDQ01  00002PRCP99
0132525330999992000062921004+39760+098470FM-12+1478ZLJQ V0202201N002012200019N0300001N1+01661+00851100011ADDGA1001+999999999GF100991001001999999001001MD1710041+0021REMSYN064AAXX  29211 52533 42980 02202 10166 20085 40001 57004 333 05201;
0183525330999992000063000004+39760+098470FM-12+1478ZLJQ V0201601N001012200019N0300001N1+01951+01041100091ADDAA199000091GA1001+999999999GF100991001001999999001001MA1999999084591MD1210081+0021REMSYN070AAXX  30001 52533 32980 01601 10195 20104 38459 40009 52008 333 05202;EQDQ01  00002PRCP99
0122525330999992000063003004+39760+098470FM-12+1478ZLJQ V0200901N003012200019N0300001N1+02451+01211100121ADDGA1001+999999999GF100991001001999999001001MD1710031+9999REMSYN054AAXX  30031 52533 42980 00903 10245 20121 40012 57003;
0202525330999992000063006004+39760+098470FM-12+1478ZLJQ V0200401N003012200019N0300001N1+03021+00851099821ADDAA199000091GA1001+999999999GF100991001001999999001001KA1999N+01291MA1999999084411MD1710151-0301REMSYN076AAXX  30061 52533 32980 00403 10302 20085 38441 49982 57015 333 05301 20129;EQDQ01  00002PRCP99
0122525330999992000063009004+39760+098470FM-12+1478ZLJQ V0200401N002012200019N0300001N1+03221+00661099711ADDGF101991011011017501001021MD1710101+0031REMSYN070AAXX  30091 52533 42780 10402 10322 20066 49971 57010 81102 333 05302;
0173525330999992000063012004+39760+098470FM-12+1478ZLJQ V0209999C000012200019N0300001N1+02921+01061099701ADDAA199000091GF101991011041017501001021MA1999999084301MD1710011+0021REMSYN076AAXX  30121 52533 32780 10000 10292 20106 38430 49970 57001 81402 333 05202;EQDQ01  00002PRCP99
0112525330999992000063015004+39760+098470FM-12+1478ZLJQ V0202501N002012200019N0300001N1+02351+01081099771ADDGF101991001001999999001021MD1210041+9999REMSYN060AAXX  30151 52533 42980 12502 10235 20108 49977 52004 80002;
0192525330999992000063018004+39760+098470FM-12+1478ZLJQ V0202201N002012200019N0300001N1+02341+00771099591ADDAA199000091GF102991001001999999001021KA1999M+03271MA1999999084321MD1710021-0201REMSYN082AAXX  30181 52533 32980 22202 10234 20077 38432 49959 57002 80002 333 05204 10327;EQDQ01  00002PRCP99
0122525330999992000063021004+39760+098470FM-12+1478ZLJQ V0202901N006012200019N0300001N1+02411+00731099651ADDGF103991001001999999001021MD1210111+0011REMSYN070AAXX  30211 52533 42980 32906 10241 20073 49965 52011 80002 333 05108;
0173525330999992000070100004+39760+098470FM-12+1478ZLJQ V0203201N004019999999N0300001N1+02291+00861099991ADDAA199000091GF108991021001999999041071MA1999999084621MD1210191+0001REMSYN076AAXX  01001 52533 32980 83204 10229 20086 38462 49999 52019 82047 333 00003;EQDQ01  00002PRCP99
0112525330999992000070103004+39760+098470FM-12+1478ZLJQ V0203401N007019999999N0300001N1+02411+01051100291ADDGF107991021001999999041021MD1210151+9999REMSYN060AAXX  01031 52533 42980 73407 10241 20105 40029 52015 82042;
0192525330999992000070106004+39760+098470FM-12+1478ZLJQ V0203401N005010900019N0250001N1+02601+01121100131ADDAA199000091GF107991021041017501001021KA1999N+02131MA1999999084681MD1710091+0301REMSYN082AAXX  01061 52533 32775 73405 10260 20112 38468 40013 57009 82402 333 00354 20213;EQDQ01  00002PRCP99
0134525330999992000070109004+39760+098470FM-12+1478ZLJQ V0202901N006010150019N0250001N1+02341+01131100201ADDGF107991061041017501001021MD1210011+0041MW1801REMSYN076AAXX  01091 52533 41775 72906 10234 20113 40020 52001 78000 86402 333 00459;
0180525330999992000070112004+39760+098470FM-12+1478ZLJQ V0202901N003010150019N0200001N1+01801+01531100501ADDAA106000591AY181061GF108991061041017501001071MA1999999084791MD1210101+0051MW1801REMSYN088AAXX  01121 52533 11770 82903 10180 20153 38479 40050 52010 69941 78080 86407 333 00561;
0140525330999992000070115004+39760+098470FM-12+1478ZLJQ V0209999C000010150019N0150001N1+01681+01571100621ADDAY181031AY281031GF107991071091017501999999MD1210101+9999MW1801REMSYN066AAXX  01151 52533 41765 70000 10168 20157 40062 52010 78088 879//;
0207525330999992000070118004+39760+098470FM-12+1478ZLJQ V0202701N003019999999N0150001N1+01601+01391100541ADDAA106004191AY181061AY261061GF108991081001999999021999KA1999M+02671MA1999999084851MD1710041+0501MW1601REMSYN094AAXX  01181 52533 11965 82703 10160 20139 38485 40054 57004 60041 76086 8802/ 333 00557 10267;
0167525330999992000070121004+39760+098470FM-12+1478ZLJQ V0202501N001019999999N0200001N1+01561+01451100571ADDAA124005891AY161031AY261031GF108991081001999999021999MD1710051+0401MW1601REMSYN082AAXX  01211 52533 41970 82501 10156 20145 40057 57005 76066 8802/ 333 00459 70059;
0194525330999992000070200004+39760+098470FM-12+1478ZLJQ V0202501N001019999999N0300001N1+01661+01451100701ADDAA106002091AY161061AY261061GF108991081001999999071999MA1999999084801MD1410001+0201MW1601REMSYN094AAXX  02001 52533 11980 82501 10166 20145 38480 40070 54000 60021 76066 8807/ 333 00256 70062;
0132525330999992000070203004+39760+098470FM-12+1478ZLJQ V0201401N003019999999N0300001N1+02081+01461100661ADDAY161031GF107991061001999999031021MD1210041+9999MW1001REMSYN066AAXX  02031 52533 41980 71403 10208 20146 40066 52004 70060 86032;
0199525330999992000070206004+39760+098470FM-12+1478ZLJQ V0201101N003012200019N0300001N1+02341+01191100451ADDAA106000791AY161061GF102991011011017501041021KA1999N+01531MA1999999084711MD1710131+0001MW1001REMSYN094AAXX  02061 52533 11780 21103 10234 20119 38471 40045 57013 69901 70060 81142 333 00053 20153;
0122525330999992000070209004+39760+098470FM-12+1478ZLJQ V0201101N003012200019N0300001N1+02451+01271100251ADDGF101991011011017501001021MD1710151+0011REMSYN070AAXX  02091 52533 42780 11103 10245 20127 40025 57015 81102 333 05101;
0154525330999992000070212004+39760+098470FM-12+1478ZLJQ V0201101N003012200019N0300001N1+02351+01261100201ADDAA199000021GF101991011041017501001021MA1999999084521MD1710041+0031REMSYN076AAXX  02121 52533 32780 11103 10235 20126 38452 40020 57004 81402 333 05306;
0122525330999992000070215004+39760+098470FM-12+1478ZLJQ V0201101N002012200019N0300001N1+01821+01401100261ADDGA1001+999999999GF100991001001999999001001MD1210021+9999REMSYN054AAXX  02151 52533 42980 01102 10182 20140 40026 52002;
0202525330999992000070218004+39760+098470FM-12+1478ZLJQ V0201601N002012200019N0300001N1+01531+01351100221ADDAA199000091GA1001+999999999GF100991001001999999001001KA1999M+02521MA1999999084501MD1710041-0401REMSYN076AAXX  02181 52533 32980 01602 10153 20135 38450 40022 57004 333 05451 10252;EQDQ01  00002PRCP99
0149525330999992000070221004+39760+098470FM-12+1478ZLJQ V0201401N001012200019N0300001N1+01371+01201100211ADDAA124000391GA1001+999999999GF100991001001999999001001MD1710021-0301REMSYN070AAXX  02211 52533 42980 01401 10137 20120 40021 57002 333 05352 70003;
0170525330999992000070300004+39760+098470FM-12+1478ZLJQ V0202201N001012200019N0300001N1+01801+01391100151ADDAA124000791GA1001+999999999GF100991001001999999001001MA1999999084511MD1210031-0301REMSYN076AAXX  03001 52533 32980 02201 10180 20139 38451 40015 52003 333 05301 79999;
0122525330999992000070303004+39760+098470FM-12+1478ZLJQ V0201101N004012200019N0300001N1+02361+01561100191ADDGA1001+999999999GF100991001001999999001001MD1210041+9999REMSYN054AAXX  03031 52533 42980 01104 10236 20156 40019 52004;
0192525330999992000070306004+39760+098470FM-12+1478ZLJQ V0201101N005012200019N0300001N1+02821+00971100061ADDAA199000091GF101991011011017501001021KA1999N+01291MA1999999084481MD1710071-0201REMSYN082AAXX  03061 52533 32780 11105 10282 20097 38448 40006 57007 81102 333 05205 20129;EQDQ01  00002PRCP99
0122525330999992000070309004+39760+098470FM-12+1478ZLJQ V0200901N005012200019N0300001N1+02921+01031099921ADDGF101991001001999999001021MD1710131+0021REMSYN070AAXX  03091 52533 42980 10905 10292 20103 49992 57013 80002 333 05205;
0173525330999992000070312004+39760+098470FM-12+1478ZLJQ V0200901N004010900019N0300001N1+02641+01321099921ADDAA199000091GF107991011041017501001021MA1999999084381MD1210031+0011REMSYN076AAXX  03121 52533 32780 70904 10264 20132 38438 49992 52003 81402 333 05103;EQDQ01  00002PRCP99
0112525330999992000070315004+39760+098470FM-12+1478ZLJQ V0200901N001010900019N0300001N1+02311+01211099981ADDGF107991011041017501001021MD1210111+9999REMSYN060AAXX  03151 52533 42780 70901 10231 20121 49998 52011 81402;
0202525330999992000070318004+39760+098470FM-12+1478ZLJQ V0203401N002012200019N0300001N1+02001+01141100011ADDAA199000091GA1001+999999999GF100991001001999999001001KA1999M+02931MA1999999084551MD1210061+0101REMSYN076AAXX  03181 52533 32980 03402 10200 20114 38455 40001 52006 333 00105 10293;EQDQ01  00002PRCP99
0122525330999992000070321004+39760+098470FM-12+1478ZLJQ V0209999C000010900019N0300001N1+01811+01351100041ADDGF107991011041017501001021MD1410001+0011REMSYN070AAXX  03211 52533 42780 70000 10181 20135 40004 54000 81402 333 00104;
0173525330999992000070400004+39760+098470FM-12+1478ZLJQ V0200201N002019999999N0300001N1+02111+01371100161ADDAA199000091GF107991041001999999041021MA1999999084661MD1210111+0021REMSYN076AAXX  04001 52533 32980 70202 10211 20137 38466 40016 52011 84042 333 00203;EQDQ01  00002PRCP99
0112525330999992000070403004+39760+098470FM-12+1478ZLJQ V0203401N002010900019N0300001N1+02441+01431100301ADDGF107991011011012501001021MD1210121+9999REMSYN060AAXX  04031 52533 42680 73402 10244 20143 40030 52012 81102;
0192525330999992000070406004+39760+098470FM-12+1478ZLJQ V0203201N003010900019N0300001N1+02841+01141100211ADDAA199000091GF106991011011017501001021KA1999N+01761MA1999999084721MD1710061+0201REMSYN082AAXX  04061 52533 32780 63203 10284 20114 38472 40021 57006 81102 333 00200 20176;EQDQ01  00002PRCP99
0122525330999992000070409004+39760+098470FM-12+1478ZLJQ V0209999C000010360019N0300001N1+03041+01121100101ADDGF106991011011017501041021MD1710091+0031REMSYN070AAXX  04091 52533 42780 60000 10304 20112 40010 57009 81142 333 00301;
0173525330999992000070412004+39760+098470FM-12+1478ZLJQ V0202001N001019999999N0300001N1+02871+01451100031ADDAA199000091GF107991061001999999031021MA1999999084601MD1710031+0021REMSYN076AAXX  04121 52533 32980 72001 10287 20145 38460 40003 57003 86032 333 00202;EQDQ01  00002PRCP99
0112525330999992000070415004+39760+098470FM-12+1478ZLJQ V0202201N002012200019N0300001N1+02411+01341100171ADDGF102991001001999999001021MD1210091+9999REMSYN060AAXX  04151 52533 42980 22202 10241 20134 40017 52009 80002;
0192525330999992000070418004+39760+098470FM-12+1478ZLJQ V0201401N003019999999N0300001N1+02021+01431100171ADDAA199000091GF107991001001999999001021KA1999M+03141MA1999999084691MD1410001+0101REMSYN082AAXX  04181 52533 32980 71403 10202 20143 38469 40017 54000 80002 333 00100 10314;EQDQ01  00002PRCP99
0173525330999992000070500004+39760+098470FM-12+1478ZLJQ V0200401N001019999999N0300001N1+02181+01321100151ADDAA199000091GF107991011001999999041021MA1999999084721MD1210041+0011REMSYN076AAXX  05001 52533 32980 70401 10218 20132 38472 40015 52004 81042 333 00101;EQDQ01  00002PRCP99
0112525330999992000070503004+39760+098470FM-12+1478ZLJQ V0200401N004019999999N0300001N1+02661+01351100191ADDGF105991011001999999041021MD1210041+9999REMSYN060AAXX  05031 52533 42980 50404 10266 20135 40019 52004 81042;
0192525330999992000070506004+39760+098470FM-12+1478ZLJQ V0203401N002019999999N0300001N1+02921+00931100281ADDAA199000091GF107991021001999999041021KA1999N+01881MA1999999084811MD1210051+0101REMSYN082AAXX  05061 52533 32980 73402 10292 20093 38481 40028 52005 82042 333 00101 20188;EQDQ01  00002PRCP99
0122525330999992000070509004+39760+098470FM-12+1478ZLJQ V0203201N005010900019N0300001N1+02731+00851100361ADDGF107991011041017501001021MD1210011+0021REMSYN070AAXX  05091 52533 42780 73205 10273 20085 40036 52001 81402 333 00253;
0173525330999992000070512004+39760+098470FM-12+1478ZLJQ V0202901N004010360019N0300001N1+02421+01071100511ADDAA199000091GF107991021041017501041021MA1999999084921MD1210101+0031REMSYN076AAXX  05121 52533 32780 72904 10242 20107 38492 40051 52010 82442 333 00355;EQDQ01  00002PRCP99
0132525330999992000070515004+39760+098470FM-12+1478ZLJQ V0202901N004010150019N0300001N1+01941+01461100741ADDAY181031GF107991071091017501999999MD1210191+9999MW1801REMSYN066AAXX  05151 52533 41780 72904 10194 20146 40074 52019 78080 879//;
0199525330999992000070518004+39760+098470FM-12+1478ZLJQ V0202701N003019999999N0300001N1+01881+01301100731ADDAA106000591AY181061GF108991001001999999001071KA1999M+03001MA1999999085151MD1210041+0501MW1001REMSYN094AAXX  05181 52533 11980 82703 10188 20130 38515 40073 52004 69961 70080 80007 333 00551 10300;
0139525330999992000070521004+39760+098470FM-12+1478ZLJQ V0203201N002019999999N0300001N1+01791+01281100771ADDAA124000591GF108991001001999999001071MD1710031+0401REMSYN076AAXX  05211 52533 42980 83202 10179 20128 40077 57003 80007 333 00452 70006;
0178525330999992000070600004+39760+098470FM-12+1478ZLJQ V0209999C000019999999N0300001N1+01661+01361101001ADDAA106000591GF108991081001999999071999MA1999999085211MD1210091+0501MW1601REMSYN094AAXX  06001 52533 11980 80000 10166 20136 38521 40100 52009 69951 76000 8807/ 333 00555 70011;
0132525330999992000070603004+39760+098470FM-12+1478ZLJQ V0203601N002019999999N0300001N1+01611+01351101281ADDAY161031GF108991081001999999071999MD1210101+9999MW1211REMSYN066AAXX  06031 52533 41980 83602 10161 20135 40128 52010 72160 8807/;
0199525330999992000070606004+39760+098470FM-12+1478ZLJQ V0201101N002019999999N0300001N1+01791+01361101251ADDAA106000391AY161061GF108991081001999999071999KA1999N+01541MA1999999085321MD1210011+0501MW1601REMSYN094AAXX  06061 52533 11980 81102 10179 20136 38532 40125 52001 69931 76060 8807/ 333 00561 20154;
0142525330999992000070609004+39760+098470FM-12+1478ZLJQ V0200701N002019999999N0300001N1+01991+01461101091ADDAY161031GF108991021001999999041071MD1710111+0041MW1001REMSYN076AAXX  06091 52533 41980 80702 10199 20146 40109 57011 70060 82047 333 00457;
0180525330999992000070612004+39760+098470FM-12+1478ZLJQ V0201601N003012200019N0300001N1+02021+01191101071ADDAA106000791AY161061GF102991021001999999041001MA1999999085171MD1710041+0031MW1001REMSYN088AAXX  06121 52533 11980 21603 10202 20119 38517 40107 57004 69901 70060 82040 333 00354;
0122525330999992000070615004+39760+098470FM-12+1478ZLJQ V0202001N002012200019N0300001N1+01781+01071101171ADDGA1001+999999999GF100991001001999999001001MD1210011+9999REMSYN054AAXX  06151 52533 42980 02002 10178 20107 40117 52001;
0183525330999992000070618004+39760+098470FM-12+1478ZLJQ V0202001N002012200019N0300001N1+01471+01031101101ADDAA199000021GA1001+999999999GF100991001001999999001001KA1999M+02101MA1999999085091MD1710091-0101REMSYN076AAXX  06181 52533 32980 02002 10147 20103 38509 40110 57009 333 05154 10210;
0149525330999992000070621004+39760+098470FM-12+1478ZLJQ V0202001N001012200019N0300001N1+01381+00891101001ADDAA124000891GA1001+999999999GF100991001001999999001001MD1710061-0101REMSYN070AAXX  06211 52533 42980 02001 10138 20089 40100 57006 333 05154 70008;
0170525330999992000070700004+39760+098470FM-12+1478ZLJQ V0202201N002012200019N0300001N1+01731+00911100961ADDAA124000391GA1001+999999999GF100991001001999999001001MA1999999085091MD1210061-0101REMSYN076AAXX  07001 52533 32980 02202 10173 20091 38509 40096 52006 333 05101 70003;
0122525330999992000070703004+39760+098470FM-12+1478ZLJQ V0201101N002012200019N0300001N1+02521+00821100791ADDGA1001+999999999GF100991001001999999001001MD1710011+9999REMSYN054AAXX  07031 52533 42980 01102 10252 20082 40079 57001;
0192525330999992000070706004+39760+098470FM-12+1478ZLJQ V0200901N004012200019N0300001N1+02701+00511100681ADDAA199000091GF101991011011017501001001KA1999N+01281MA1999999084961MD1710121-0401REMSYN082AAXX  07061 52533 32780 10904 10270 20051 38496 40068 57012 81100 333 05409 20128;EQDQ01  00002PRCP99
0122525330999992000070709004+39760+098470FM-12+1478ZLJQ V0200701N003012200019N0300001N1+02801+00861100441ADDGF101991011011017501001001MD1710201+0051REMSYN070AAXX  07091 52533 42780 10703 10280 20086 40044 57020 81100 333 05508;
0173525330999992000070712004+39760+098470FM-12+1478ZLJQ V0201601N002012200019N0300001N1+02651+01231100281ADDAA199000091GF101991011011017501001001MA1999999084671MD1710091+0051REMSYN076AAXX  07121 52533 32780 11602 10265 20123 38467 40028 57009 81100 333 05506;EQDQ01  00002PRCP99
0122525330999992000070715004+39760+098470FM-12+1478ZLJQ V0201401N003012200019N0300001N1+01971+00961100381ADDGA1001+999999999GF100991001001999999001001MD1210111+9999REMSYN054AAXX  07151 52533 42980 01403 10197 20096 40038 52011;
0202525330999992000070718004+39760+098470FM-12+1478ZLJQ V0202201N003012200019N0300001N1+01871+00771100321ADDAA199000091GA1001+999999999GF100991001001999999001001KA1999M+02831MA1999999084751MD1710031-0301REMSYN076AAXX  07181 52533 32980 02203 10187 20077 38475 40032 57003 333 05304 10283;EQDQ01  00002PRCP99
0132525330999992000070721004+39760+098470FM-12+1478ZLJQ V0202201N003012200019N0300001N1+01641+00691100341ADDGA1001+999999999GF100991001001999999001001MD1710011+0031REMSYN064AAXX  07211 52533 42980 02203 10164 20069 40034 57001 333 05303;
0183525330999992000070800004+39760+098470FM-12+1478ZLJQ V0202501N002012200019N0300001N1+01891+01011100391ADDAA199000091GA1001+999999999GF100991001001999999001001MA1999999084801MD1210061+0031REMSYN070AAXX  08001 52533 32980 02502 10189 20101 38480 40039 52006 333 05302;EQDQ01  00002PRCP99
0122525330999992000070803004+39760+098470FM-12+1478ZLJQ V0201101N002012200019N0300001N1+02631+01481100431ADDGA1001+999999999GF100991001001999999001001MD1210051+9999REMSYN054AAXX  08031 52533 42980 01102 10263 20148 40043 52005;
0192525330999992000070806004+39760+098470FM-12+1478ZLJQ V0200701N003012200019N0300001N1+03001+00591100251ADDAA199000091GF101991011011017501001001KA1999N+01531MA1999999084761MD1710091-0201REMSYN082AAXX  08061 52533 32780 10703 10300 20059 38476 40025 57009 81100 333 05203 20153;EQDQ01  00002PRCP99
0122525330999992000070809004+39760+098470FM-12+1478ZLJQ V0200701N002012200019N0300001N1+03161+00511100051ADDGF101991011041017501001021MD1710181+0021REMSYN070AAXX  08091 52533 42780 10702 10316 20051 40005 57018 81402 333 05204;
0173525330999992000070812004+39760+098470FM-12+1478ZLJQ V0200901N002012200019N0300001N1+02871+01431100021ADDAA199000091GF101991001001999999001021MA1999999084541MD1710041+0011REMSYN076AAXX  08121 52533 32980 10902 10287 20143 38454 40002 57004 80002 333 05102;EQDQ01  00002PRCP99
0122525330999992000070815004+39760+098470FM-12+1478ZLJQ V0202001N002012200019N0300001N1+02311+00681100071ADDGA1001+999999999GF100991001001999999001001MD1210091+9999REMSYN054AAXX  08151 52533 42980 02002 10231 20068 40007 52009;
0202525330999992000070818004+39760+098470FM-12+1478ZLJQ V0202701N002012200019N0300001N1+01901+00571100021ADDAA199000091GA1001+999999999GF100991001001999999001001KA1999M+03271MA1999999084581MD1710051-0201REMSYN076AAXX  08181 52533 32980 02702 10190 20057 38458 40002 57005 333 05200 10327;EQDQ01  00002PRCP99
0132525330999992000070821004+39760+098470FM-12+1478ZLJQ V0202201N002012200019N0300001N1+01711+00571100021ADDGA1001+999999999GF100991001001999999001001MD1710011+0021REMSYN064AAXX  08211 52533 42980 02202 10171 20057 40002 57001 333 05201;
0173525330999992000070900004+39760+098470FM-12+1478ZLJQ V0202201N001012200019N0300001N1+02011+00771100121ADDAA199000091GF101991001001999999001021MA1999999084661MD1210091+0011REMSYN076AAXX  09001 52533 32980 12201 10201 20077 38466 40012 52009 80002 333 05101;EQDQ01  00002PRCP99
0112525330999992000070903004+39760+098470FM-12+1478ZLJQ V0200701N003012200019N0300001N1+02771+01291100091ADDGF101991011011017501001001MD1210021+9999REMSYN060AAXX  09031 52533 42780 10703 10277 20129 40009 52002 81100;
0192525330999992000070906004+39760+098470FM-12+1478ZLJQ V0201101N003012200019N0300001N1+03131+00551099981ADDAA199000091GF101991011011017501001021KA1999N+01431MA1999999084571MD1710111-0201REMSYN082AAXX  09061 52533 32780 11103 10313 20055 38457 49998 57011 81102 333 05201 20143;EQDQ01  00002PRCP99
0122525330999992000070909004+39760+098470FM-12+1478ZLJQ V0200701N002012200019N0300001N1+03191+00661099821ADDGF101991011011017501001021MD1710161+0021REMSYN070AAXX  09091 52533 42780 10702 10319 20066 49982 57016 81102 333 05200;
0173525330999992000070912004+39760+098470FM-12+1478ZLJQ V0200701N002012200019N0300001N1+03121+00911099741ADDAA199000091GF101991011041017501001001MA1999999084391MD1710021+0021REMSYN076AAXX  09121 52533 32780 10702 10312 20091 38439 49974 57002 81400 333 05203;EQDQ01  00002PRCP99
0122525330999992000070915004+39760+098470FM-12+1478ZLJQ V0202501N002012200019N0300001N1+02121+01091099881ADDGA1001+999999999GF100991001001999999001001MD1210071+9999REMSYN054AAXX  09151 52533 42980 02502 10212 20109 49988 52007;
0202525330999992000070918004+39760+098470FM-12+1478ZLJQ V0202201N002012200019N0300001N1+01781+00781099841ADDAA199000091GA1001+999999999GF100991001001999999001001KA1999M+03251MA1999999084431MD1710031-0201REMSYN076AAXX  09181 52533 32980 02202 10178 20078 38443 49984 57003 333 05251 10325;EQDQ01  00002PRCP99
0132525330999992000070921004+39760+098470FM-12+1478ZLJQ V0202501N002012200019N0300001N1+01631+00721099931ADDGA1001+999999999GF100991001001999999001001MD1210051+0011REMSYN064AAXX  09211 52533 42980 02502 10163 20072 49993 52005 333 05151;
0183525330999992000071000004+39760+098470FM-12+1478ZLJQ V0202201N002012200019N0300001N1+02041+00861099901ADDAA199000091GA1001+999999999GF100991001001999999001001MA1999999084541MD1210061+0011REMSYN070AAXX  10001 52533 32980 02202 10204 20086 38454 49990 52006 333 05100;EQDQ01  00002PRCP99
0112525330999992000071003004+39760+098470FM-12+1478ZLJQ V0200901N003012200019N0300001N1+02681+01251100031ADDGF101991011011017501001001MD1210021+9999REMSYN060AAXX  10031 52533 42780 10903 10268 20125 40003 52002 81100;
0192525330999992000071006004+39760+098470FM-12+1478ZLJQ V0200901N006012200019N0300001N1+03181+01041099781ADDAA199000091GF101991011011017501001001KA1999N+01531MA1999999084391MD1710171-0201REMSYN082AAXX  10061 52533 32780 10906 10318 20104 38439 49978 57017 81100 333 05201 20153;EQDQ01  00002PRCP99
0122525330999992000071009004+39760+098470FM-12+1478ZLJQ V0201101N004012200019N0300001N1+03221+00771099601ADDGF101991011011017501001001MD1710181+0021REMSYN070AAXX  10091 52533 42780 11104 10322 20077 49960 57018 81100 333 05200;
0173525330999992000071012004+39760+098470FM-12+1478ZLJQ V0201101N003012200019N0300001N1+02861+00961099551ADDAA199000091GF101991011041017501001021MA1999999084181MD1710031+0021REMSYN076AAXX  10121 52533 32780 11103 10286 20096 38418 49955 57003 81402 333 05253;EQDQ01  00002PRCP99
0112525330999992000071015004+39760+098470FM-12+1478ZLJQ V0209999C000012200019N0300001N1+02121+01071099791ADDGF101991001001999999001021MD1210181+9999REMSYN060AAXX  10151 52533 42980 10000 10212 20107 49979 52018 80002;
0192525330999992000071018004+39760+098470FM-12+1478ZLJQ V0209999C000012200019N0300001N1+02001+00741099641ADDAA199000091GF102991001001999999001021KA1999M+03261MA1999999084321MD1710041-0101REMSYN082AAXX  10181 52533 32980 20000 10200 20074 38432 49964 57004 80002 333 05102 10326;EQDQ01  00002PRCP99
0132525330999992000071021004+39760+098470FM-12+1478ZLJQ V0201801N001012200019N0300001N1+01571+01011099711ADDGA1001+999999999GF100991001001999999001001MD1710031+0021REMSYN064AAXX  10211 52533 42980 01801 10157 20101 49971 57003 333 05251;
0192525330999992000071100004+39760+098470FM-12+1478ZLJQ V0200701N003012200019N0300001N1+03082+01181099561ADDAA199000091GF101991011011017501001001KA1999N+01501MA1999999084261MD1710091+0001REMSYN082AAXX  12061 52533 32780 10703 10308 20118 38426 49956 57009 81100 333 00051 20150;EQDQ01  00002PRCP99
0122525330999992000071103004+39760+098470FM-12+1478ZLJQ V0200701N003012200019N0300001N1+02531+01241099941ADDGA1001+999999999GF100991001001999999001001MD1210051+9999REMSYN054AAXX  11031 52533 42980 00703 10253 20124 49994 52005;
0192525330999992000071106004+39760+098470FM-12+1478ZLJQ V0201101N004012200019N0300001N1+03161+01171099601ADDAA199000091GF101991011011017501001001KA1999N+01401MA1999999084281MD1710171-0101REMSYN082AAXX  11061 52533 32780 11104 10316 20117 38428 49960 57017 81100 333 05100 20140;EQDQ01  00002PRCP99
0122525330999992000071109004+39760+098470FM-12+1478ZLJQ V0201101N003012200019N0300001N1+03301+01041099461ADDGF101991001001999999001021MD1710181+0011REMSYN070AAXX  11091 52533 42980 11103 10330 20104 49946 57018 80002 333 05101;
0173525330999992000071112004+39760+098470FM-12+1478ZLJQ V0200701N003012200019N0300001N1+02931+01181099521ADDAA199000091GF101991001001999999001021MA1999999084131MD1210031+0011REMSYN076AAXX  11121 52533 32980 10703 10293 20118 38413 49952 52003 80002 333 05101;EQDQ01  00002PRCP99
0122525330999992000071115004+39760+098470FM-12+1478ZLJQ V0200901N004012200019N0300001N1+02481+00741099581ADDGA1001+999999999GF100991001001999999001001MD1210101+9999REMSYN054AAXX  11151 52533 42980 00904 10248 20074 49958 52010;
0202525330999992000071118004+39760+098470FM-12+1478ZLJQ V0209999C000012200019N0300001N1+02141+00821099491ADDAA199000091GA1001+999999999GF100991001001999999001001KA1999M+03341MA1999999084221MD1710011-0101REMSYN076AAXX  11181 52533 32980 00000 10214 20082 38422 49949 57001 333 05101 10334;EQDQ01  00002PRCP99
0122525330999992000071121004+39760+098470FM-12+1478ZLJQ V0202001N001012200019N0300001N1+01601+00981099591ADDGF101991001001999999001021MD1710011+0011REMSYN070AAXX  11211 52533 42980 12001 10160 20098 49959 57001 80002 333 05100;
0183525330999992000071200004+39760+098470FM-12+1478ZLJQ V0209999C000012200019N0300001N1+01971+01051099701ADDAA199000091GA1001+999999999GF100991001001999999001001MA1999999084311MD1210101+0011REMSYN070AAXX  12001 52533 32980 00000 10197 20105 38431 49970 52010 333 05101;EQDQ01  00002PRCP99
0122525330999992000071203004+39760+098470FM-12+1478ZLJQ V0200701N003012200019N0300001N1+02581+01241099711ADDGA1001+999999999GF100991001001999999001001MD1210041+9999REMSYN054AAXX  12031 52533 42980 00703 10258 20124 49971 52004;
0122525330999992000071209004+39760+098470FM-12+1478ZLJQ V0200701N002012200019N0300001N1+03261+01121099481ADDGF101991011011017501001001MD1710151+0001REMSYN070AAXX  12091 52533 42780 10702 10326 20112 49948 57015 81100 333 00000;
0173525330999992000071212004+39760+098470FM-12+1478ZLJQ V0200701N002012200019N0200001N1+03031+01221099431ADDAA199000091GF101991011041017501001001MA1999999084101MD1710011+0001REMSYN076AAXX  12121 52533 32770 10702 10303 20122 38410 49943 57001 81400 333 00001;EQDQ01  00002PRCP99
0122525330999992000071215004+39760+098470FM-12+1478ZLJQ V0200901N002012200019N0300001N1+02381+01141099631ADDGA1001+999999999GF100991001001999999001001MD1210161+9999REMSYN054AAXX  12151 52533 42980 00902 10238 20114 49963 52016;
0202525330999992000071218004+39760+098470FM-12+1478ZLJQ V0202701N001012200019N0300001N1+01911+01231099631ADDAA199000091GA1001+999999999GF100991001001999999001001KA1999M+03311MA1999999084271MD1210011+0101REMSYN076AAXX  12181 52533 32980 02701 10191 20123 38427 49963 52001 333 00152 10331;EQDQ01  00002PRCP99
0132525330999992000071221004+39760+098470FM-12+1478ZLJQ V0202201N002012200019N0300001N1+01831+01001099561ADDGA1001+999999999GF100991001001999999001001MD1710041+0001REMSYN064AAXX  12211 52533 42980 02202 10183 20100 49956 57004 333 00002;
0183525330999992000071300004+39760+098470FM-12+1478ZLJQ V0209999C000012200019N0300001N1+01991+01271099681ADDAA199000091GA1001+999999999GF100991001001999999001001MA1999999084321MD1210091+0001REMSYN070AAXX  13001 52533 32980 00000 10199 20127 38432 49968 52009 333 00000;EQDQ01  00002PRCP99
0122525330999992000071303004+39760+098470FM-12+1478ZLJQ V0201101N002012200019N0300001N1+02691+01331099731ADDGA1001+999999999GF100991001001999999001001MD1210051+9999REMSYN054AAXX  13031 52533 42980 01102 10269 20133 49973 52005;
0202525330999992000071306004+39760+098470FM-12+1478ZLJQ V0200701N004012200019N0300001N1+03081+01091099631ADDAA199000091GA1001+999999999GF100991001001999999001001KA1999N+01531MA1999999084271MD1710101+0001REMSYN076AAXX  13061 52533 32980 00704 10308 20109 38427 49963 57010 333 00000 20153;EQDQ01  00002PRCP99
0132525330999992000071309004+39760+098470FM-12+1478ZLJQ V0200701N003012200019N0300001N1+03201+01051099461ADDGA1001+999999999GF100991001001999999001001MD1710141+0001REMSYN064AAXX  13091 52533 42980 00703 10320 20105 49946 57014 333 00051;
0183525330999992000071312004+39760+098470FM-12+1478ZLJQ V0201101N003012200019N0300001N1+02941+01391099441ADDAA199000091GA1001+999999999GF100991001001999999001001MA1999999084091MD1710041+0001REMSYN070AAXX  13121 52533 32980 01103 10294 20139 38409 49944 57004 333 00051;EQDQ01  00002PRCP99
0122525330999992000071315004+39760+098470FM-12+1478ZLJQ V0200701N002012200019N0300001N1+02321+01061099561ADDGA1001+999999999GF100991001001999999001001MD1210121+9999REMSYN054AAXX  13151 52533 42980 00702 10232 20106 49956 52012;
0202525330999992000071318004+39760+098470FM-12+1478ZLJQ V0209999C000012200019N0300001N1+01851+01121099541ADDAA199000091GA1001+999999999GF100991001001999999001001KA1999M+03231MA1999999084181MD1710031-0101REMSYN076AAXX  13181 52533 32980 00000 10185 20112 38418 49954 57003 333 05151 10323;EQDQ01  00002PRCP99
0132525330999992000071321004+39760+098470FM-12+1478ZLJQ V0202001N001012200019N0300001N1+01511+01111099621ADDGA1001+999999999GF100991001001999999001001MD1210011+0001REMSYN064AAXX  13211 52533 42980 02001 10151 20111 49962 52001 333 00053;
0183525330999992000071400004+39760+098470FM-12+1478ZLJQ V0209999C000012200019N0300001N1+02111+01281099591ADDAA199000091GA1001+999999999GF100991001001999999001001MA1999999084251MD1210061+0011REMSYN070AAXX  14001 52533 32980 00000 10211 20128 38425 49959 52006 333 05101;EQDQ01  00002PRCP99
0122525330999992000071403004+39760+098470FM-12+1478ZLJQ V0200701N003012200019N0300001N1+02811+01561099511ADDGA1001+999999999GF100991001001999999001001MD1710051+9999REMSYN054AAXX  14031 52533 42980 00703 10281 20156 49951 57005;
0192525330999992000071406004+39760+098470FM-12+1478ZLJQ V0201101N003012200019N0300001N1+03211+01111099521ADDAA199000091GF101991001001999999001021KA1999N+01471MA1999999084191MD1710011-0101REMSYN082AAXX  14061 52533 32980 11103 10321 20111 38419 49952 57001 80002 333 05101 20147;EQDQ01  00002PRCP99
0122525330999992000071409004+39760+098470FM-12+1478ZLJQ V0200701N004012200019N0300001N1+03331+00941099301ADDGF101991001001999999001021MD1710241+0021REMSYN070AAXX  14091 52533 42980 10704 10333 20094 49930 57024 80002 333 05201;
0153525330999992000071412004+39760+098470FM-12+1478ZLJQ V0201101N002012200019N0300001N1+03031+01471999999ADDAA199000091GA1001+999999999GF100991001001999999001001REMSYN069AAXX  14121 52533 32980 01102 10303 20147 3387 49912 57008 333 05201;EQDQ01  00002PRCP99
0122525330999992000071415004+39760+098470FM-12+1478ZLJQ V0202501N001012200019N0300001N1+02281+01011099211ADDGA1001+999999999GF100991001001999999001001MD1210071+9999REMSYN054AAXX  14151 52533 42980 02501 10228 20101 49921 52007;
0202525330999992000071418004+39760+098470FM-12+1478ZLJQ V0202701N003012200019N0300001N1+01801+01181099241ADDAA199000091GA1001+999999999GF100991001001999999001001KA1999M+03381MA1999999083941MD1410001-0201REMSYN076AAXX  14181 52533 32980 02703 10180 20118 38394 49924 54000 333 05251 10338;EQDQ01  00002PRCP99
0132525330999992000071421004+39760+098470FM-12+1478ZLJQ V0209999C000012200019N0300001N1+01821+00921099201ADDGA1001+999999999GF100991001001999999001001MD1410001+0031REMSYN064AAXX  14211 52533 42980 00000 10182 20092 49920 54000 333 05303;
0173525330999992000071500004+39760+098470FM-12+1478ZLJQ V0202701N001012200019N0300001N1+01971+01151099361ADDAA199000091GF101991001001999999001021MA1999999084041MD1210101+0021REMSYN076AAXX  15001 52533 32980 12701 10197 20115 38404 49936 52010 80002 333 05251;EQDQ01  00002PRCP99
0112525330999992000071503004+39760+098470FM-12+1478ZLJQ V0201101N002012200019N0300001N1+02841+01101099361ADDGF104991001001999999001021MD1210031+9999REMSYN060AAXX  15031 52533 42980 41102 10284 20110 49936 52003 80002;
0192525330999992000071506004+39760+098470FM-12+1478ZLJQ V0201401N003012200019N0300001N1+03201+01361099251ADDAA199000091GF102991001001999999001021KA1999N+01641MA1999999083951MD1710121-0201REMSYN082AAXX  15061 52533 32980 21403 10320 20136 38395 49925 57012 80002 333 05200 20164;EQDQ01  00002PRCP99
0122525330999992000071509004+39760+098470FM-12+1478ZLJQ V0201601N003012200019N0300001N1+03431+01251098961ADDGF101991011011017501001021MD1710191+0021REMSYN070AAXX  15091 52533 42780 11603 10343 20125 49896 57019 81102 333 05201;
0173525330999992000071512004+39760+098470FM-12+1478ZLJQ V0203401N002019999999N0300001N1+03021+01521099051ADDAA199000091GF107991031001999999041021MA1999999083781MD1210021+0011REMSYN076AAXX  15121 52533 32980 73402 10302 20152 38378 49905 52002 83042 333 05100;EQDQ01  00002PRCP99
0178525330999992000071518004+39760+098470FM-12+1478ZLJQ V0203201N002019999999N0300001N1+02431+01111098841ADDAA199000091GF105991001001999999001021MA1999999083751MD1710031-0201REMSYN081AAXX  15181 52533 32980 53202 10243 20111 38375 49884 57003 80002 333 05206 1048;EQDQ01  00002PRCP99
0173525330999992000071600004+39760+098470FM-12+1478ZLJQ V0203401N001019999999N0300001N1+02291+01151099061ADDAA199000091GF107991031001999999041021MA1999999083861MD1210131+0021REMSYN076AAXX  16001 52533 32980 73401 10229 20115 38386 49906 52013 83042 333 05203;EQDQ01  00002PRCP99
0112525330999992000071603004+39760+098470FM-12+1478ZLJQ V0203601N002019999999N0300001N1+02621+01381099121ADDGF108991021001999999041071MD1210011+9999REMSYN060AAXX  16031 52533 42980 83602 10262 20138 49912 52001 82047;
0192525330999992000071606004+39760+098470FM-12+1478ZLJQ V0203401N002019999999N0300001N1+03021+01311099131ADDAA199000091GF108991031001999999031071KA1999N+02171MA1999999083951MD1210081+0001REMSYN082AAXX  16061 52533 32980 83402 10302 20131 38395 49913 52008 83037 333 00052 20217;EQDQ01  00002PRCP99
0122525330999992000071609004+39760+098470FM-12+1478ZLJQ V0203401N001019999999N0300001N1+03051+01501099121ADDGF108991061001999999031071MD1710051+0011REMSYN070AAXX  16091 52533 42980 83401 10305 20150 49912 57005 86037 333 00154;
0173525330999992000071612004+39760+098470FM-12+1478ZLJQ V0202201N002019999999N0300001N1+02811+01391099151ADDAA199000091GF107991061001999999041021MA1999999083891MD1710011+0011REMSYN076AAXX  16121 52533 32980 72202 10281 20139 38389 49915 57001 86042 333 00152;EQDQ01  00002PRCP99
0112525330999992000071615004+39760+098470FM-12+1478ZLJQ V0202901N003019999999N0300001N1+02661+00881099201ADDGF107991041001999999041021MD1210081+9999REMSYN060AAXX  16151 52533 42980 72903 10266 20088 49920 52008 84042;
0192525330999992000071618004+39760+098470FM-12+1478ZLJQ V0202701N004019999999N0300001N1+02461+00861099131ADDAA199000091GF107991051001999999041021KA1999M+03051MA1999999083961MD1710011+0201REMSYN082AAXX  16181 52533 32980 72704 10246 20086 38396 49913 57001 85042 333 00200 10305;EQDQ01  00002PRCP99
0122525330999992000071621004+39760+098470FM-12+1478ZLJQ V0202701N003019999999N0300001N1+02341+00831099251ADDGF107991061001999999031021MD1210081+0031REMSYN070AAXX  16211 52533 42980 72703 10234 20083 49925 52008 86032 333 00301;
0173525330999992000071700004+39760+098470FM-12+1478ZLJQ V0203201N001019999999N0300001N1+02261+01111099471ADDAA199000091GF107991071001999999031999MA1999999084151MD1210111+0031REMSYN076AAXX  17001 52533 32980 73201 10226 20111 38415 49947 52011 8703/ 333 00300;EQDQ01  00002PRCP99
0112525330999992000071703004+39760+098470FM-12+1478ZLJQ V0200201N002019999999N0300001N1+02611+01161099391ADDGF107991071001999999031021MD1710021+9999REMSYN060AAXX  17031 52533 42980 70202 10261 20116 49939 57002 87032;
0192525330999992000071706004+39760+098470FM-12+1478ZLJQ V0201801N001019999999N0300001N1+03021+01311099111ADDAA199000091GF107991021001999999041021KA1999N+02161MA1999999083941MD1710191+0001REMSYN082AAXX  17061 52533 32980 71801 10302 20131 38394 49911 57019 82042 333 00000 20216;EQDQ01  00002PRCP99
0122525330999992000071709004+39760+098470FM-12+1478ZLJQ V0202001N002019999999N0300001N1+03001+01371098961ADDGF107991051001999999041021MD1710161+0011REMSYN070AAXX  17091 52533 42980 72002 10300 20137 49896 57016 85042 333 05151;
0173525330999992000071712004+39760+098470FM-12+1478ZLJQ V0202001N003019999999N0300001N1+02881+01411099081ADDAA199000091GF107991051001999999031021MA1999999083841MD1210061+0011REMSYN076AAXX  17121 52533 32980 72003 10288 20141 38384 49908 52006 85032 333 05101;EQDQ01  00002PRCP99
0132525330999992000071715004+39760+098470FM-12+1478ZLJQ V0201801N003010900019N0300001N1+02561+01511099091ADDAY181031GF107991031041017501001021MD1210011+9999MW1001REMSYN066AAXX  17151 52533 41780 71803 10256 20151 49909 52001 70080 83402;
0199525330999992000071718004+39760+098470FM-12+1478ZLJQ V0200201N001010900019N0300001N1+02381+01561099021ADDAA106000791AY181061GF107991021041017501001021KA1999M+03121MA1999999083851MD1410001-0101MW1001REMSYN094AAXX  17181 52533 11780 70201 10238 20156 38385 49902 54000 69901 70080 82402 333 05151 10312;
0159525330999992000071721004+39760+098470FM-12+1478ZLJQ V0209999C000010900019N0300001N1+02201+01651099141ADDAA124000791AY181031GF107991031041017501001021MD1210051-0101MW1001REMSYN082AAXX  17211 52533 41780 70000 10220 20165 49914 52005 70080 83402 333 05151 79999;
0186525330999992000071800004+39760+098470FM-12+1478ZLJQ V0203601N002019999999N0300001N1+02241+01711099341ADDAA106000791AY181061GF107991071001999999031999MA1999999084051MD1210151-0101MW1001REMSYN094AAXX  18001 52533 11980 73602 10224 20171 38405 49934 52015 69901 70080 8703/ 333 05100 79999;
0112525330999992000071803004+39760+098470FM-12+1478ZLJQ V0203201N001019999999N0300001N1+02841+01581099331ADDGF107991061001999999031021MD1210061+9999REMSYN060AAXX  18031 52533 42980 73201 10284 20158 49933 52006 86032;
0192525330999992000071806004+39760+098470FM-12+1478ZLJQ V0200901N003012200019N0300001N1+03121+01471099231ADDAA199000091GF104991021001999999041021KA1999N+02151MA1999999084051MD1710061+0101REMSYN082AAXX  18061 52533 32980 40903 10312 20147 38405 49923 57006 82042 333 00101 20215;EQDQ01  00002PRCP99
0122525330999992000071809004+39760+098470FM-12+1478ZLJQ V0201401N003012200019N0300001N1+03261+01551099101ADDGF102991001001999999001021MD1710121+0021REMSYN070AAXX  18091 52533 42980 21403 10326 20155 49910 57012 80002 333 00203;
0173525330999992000071812004+39760+098470FM-12+1478ZLJQ V0209999C000019999999N0300001N1+02951+01881099211ADDAA199000091GF107991071001999999031021MA1999999083961MD1210031+0011REMSYN076AAXX  18121 52533 32980 70000 10295 20188 38396 49921 52003 87032 333 00101;EQDQ01  00002PRCP99
0112525330999992000071815004+39760+098470FM-12+1478ZLJQ V0200701N002019999999N0300001N1+02651+01621099311ADDGF107991061001999999031021MD1210151+9999REMSYN060AAXX  18151 52533 42980 70702 10265 20162 49931 52015 86032;
0192525330999992000071818004+39760+098470FM-12+1478ZLJQ V0202501N001019999999N0300001N1+02511+01541099291ADDAA199000091GF107991061001999999031021KA1999M+03311MA1999999084131MD1210021+0301REMSYN082AAXX  18181 52533 32980 72501 10251 20154 38413 49929 52002 86032 333 00301 10331;EQDQ01  00002PRCP99
0122525330999992000071821004+39760+098470FM-12+1478ZLJQ V0203401N004019999999N0200001N1+02321+00911099481ADDGF108991081001999999071999MD1210151+0041REMSYN070AAXX  18211 52533 42970 83404 10232 20091 49948 52015 8807/ 333 00401;
0173525330999992000071900004+39760+098470FM-12+1478ZLJQ V0203601N003019999999N0300001N1+02191+00971099821ADDAA199000091GF107991071001999999031999MA1999999084461MD1210181+0041REMSYN076AAXX  19001 52533 32980 73603 10219 20097 38446 49982 52018 8703/ 333 00451;EQDQ01  00002PRCP99
0112525330999992000071903004+39760+098470FM-12+1478ZLJQ V0203401N004019999999N0300001N1+02521+01161099911ADDGF105991021001999999041021MD1210091+9999REMSYN060AAXX  19031 52533 42980 53404 10252 20116 49991 52009 82042;
0192525330999992000071906004+39760+098470FM-12+1478ZLJQ V0201101N003019999999N0300001N1+02821+01151099801ADDAA199000091GF105991011001999999041021KA1999N+02151MA1999999084491MD1710061+0401REMSYN082AAXX  19061 52533 32980 51103 10282 20115 38449 49980 57006 81042 333 00453 20215;EQDQ01  00002PRCP99
0122525330999992000071909004+39760+098470FM-12+1478ZLJQ V0200701N003019999999N0300001N1+03041+01341099701ADDGF107991011001999999041021MD1710081+0051REMSYN070AAXX  19091 52533 42980 70703 10304 20134 49970 57008 81042 333 00552;
0173525330999992000071912004+39760+098470FM-12+1478ZLJQ V0203401N001019999999N0300001N1+02841+01791099801ADDAA199000091GF107991011001999999041021MA1999999084421MD1210011+0051REMSYN076AAXX  19121 52533 32980 73401 10284 20179 38442 49980 52001 81042 333 00551;EQDQ01  00002PRCP99
0112525330999992000071915004+39760+098470FM-12+1478ZLJQ V0200401N002012200019N0300001N1+02361+01501099881ADDGF103991001001999999001021MD1210031+9999REMSYN060AAXX  19151 52533 42980 30402 10236 20150 49988 52003 80002;
0192525330999992000071918004+39760+098470FM-12+1478ZLJQ V0203201N001012200019N0300001N1+02121+01441099941ADDAA199000091GF102991001001999999001021KA1999M+03051MA1999999084521MD1210071+0401REMSYN082AAXX  19181 52533 32980 23201 10212 20144 38452 49994 52007 80002 333 00454 10305;EQDQ01  00002PRCP99
0122525330999992000071921004+39760+098470FM-12+1478ZLJQ V0202701N001012200019N0300001N1+01981+01241099981ADDGF104991011001999999041021MD1210051+0031REMSYN070AAXX  19211 52533 42980 42701 10198 20124 49998 52005 81042 333 00353;
0173525330999992000072000004+39760+098470FM-12+1478ZLJQ V0203201N002019999999N0300001N1+02011+00971100171ADDAA199000091GF107991061001999999031021MA1999999084691MD1210121+0021REMSYN076AAXX  20001 52533 32980 73202 10201 20097 38469 40017 52012 86032 333 00252;EQDQ01  00002PRCP99
0112525330999992000072003004+39760+098470FM-12+1478ZLJQ V0203201N002019999999N0300001N1+02551+00721100251ADDGF107991031001999999041021MD1210081+9999REMSYN060AAXX  20031 52533 42980 73202 10255 20072 40025 52008 83042;
0192525330999992000072006004+39760+098470FM-12+1478ZLJQ V0201101N003012200019N0300001N1+02941+00891100121ADDAA199000091GF102991011011017501041021KA1999N+01911MA1999999084701MD1710071+0201REMSYN082AAXX  20061 52533 32780 21103 10294 20089 38470 40012 57007 81142 333 00201 20191;EQDQ01  00002PRCP99
0122525330999992000072009004+39760+098470FM-12+1478ZLJQ V0201101N004012200019N0300001N1+03061+01241100011ADDGF101991011011017501001021MD1710101+0021REMSYN070AAXX  20091 52533 42780 11104 10306 20124 40001 57010 81102 333 00200;
0173525330999992000072012004+39760+098470FM-12+1478ZLJQ V0203201N002012200019N0300001N1+03031+01601099911ADDAA199000091GF101991001001999999001021MA1999999084521MD1710081+0011REMSYN076AAXX  20121 52533 32980 13202 10303 20160 38452 49991 57008 80002 333 00102;EQDQ01  00002PRCP99
0112525330999992000072015004+39760+098470FM-12+1478ZLJQ V0202901N001012200019N0300001N1+02261+00961100241ADDGF101991001001999999001021MD1210221+9999REMSYN060AAXX  20151 52533 42980 12901 10226 20096 40024 52022 80002;
0202525330999992000072018004+39760+098470FM-12+1478ZLJQ V0209999C000012200019N0300001N1+01841+01221100251ADDAA199000091GA1001+999999999GF100991001001999999001001KA1999M+03171MA1999999084741MD1410001+0201REMSYN076AAXX  20181 52533 32980 00000 10184 20122 38474 40025 54000 333 00253 10317;EQDQ01  00002PRCP99
0132525330999992000072021004+39760+098470FM-12+1478ZLJQ V0202201N002012200019N0300001N1+01801+01101100251ADDGA1001+999999999GF100991001001999999001001MD1210021+0021REMSYN064AAXX  20211 52533 42980 02202 10180 20110 40025 52002 333 00252;
0173525330999992000072100004+39760+098470FM-12+1478ZLJQ V0209999C000012200019N0300001N1+02041+01311100321ADDAA199000091GF101991011001999999041021MA1999999084871MD1210111+0021REMSYN076AAXX  21001 52533 32980 10000 10204 20131 38487 40032 52011 81042 333 00200;EQDQ01  00002PRCP99
0112525330999992000072103004+39760+098470FM-12+1478ZLJQ V0202901N001012200019N0300001N1+02801+00981100351ADDGF101991001001999999001021MD1210021+9999REMSYN060AAXX  21031 52533 42980 12901 10280 20098 40035 52002 80002;
0122525330999992000072109004+39760+098470FM-12+1478ZLJQ V0200701N005012200019N0300001N1+03231+00921100051ADDGF101991011011017501001021MD1710151+0001REMSYN070AAXX  21091 52533 42780 10705 10323 20092 40005 57015 81102 333 00002;
0173525330999992000072112004+39760+098470FM-12+1478ZLJQ V0200701N004019999999N0200001N1+02821+01361099981ADDAA199000091GF107991011001999999041021MA1999999084531MD1710101+0001REMSYN076AAXX  21121 52533 32970 70704 10282 20136 38453 49998 57010 81042 333 00052;EQDQ01  00002PRCP99
0112525330999992000072115004+39760+098470FM-12+1478ZLJQ V0209999C000019999999N0300001N1+02471+01581100001ADDGF106991001001999999001021MD1210121+9999REMSYN060AAXX  21151 52533 42980 60000 10247 20158 40000 52012 80002;
0192525330999992000072118004+39760+098470FM-12+1478ZLJQ V0200401N003019999999N0300001N1+02261+01561099911ADDAA199000091GF107991001001999999001021KA1999M+03261MA1999999084561MD1710091-0201REMSYN082AAXX  21181 52533 32980 70403 10226 20156 38456 49991 57009 80002 333 05204 10326;EQDQ01  00002PRCP99
0122525330999992000072121004+39760+098470FM-12+1478ZLJQ V0209999C000012200019N0300001N1+01951+01561099931ADDGF102991001001999999001021MD1210011+0021REMSYN070AAXX  21211 52533 42980 20000 10195 20156 49993 52001 80002 333 05202;
0173525330999992000072200004+39760+098470FM-12+1478ZLJQ V0203601N001019999999N0300001N1+01991+01531100131ADDAA199000091GF107991011001999999041021MA1999999084651MD1210081+0021REMSYN076AAXX  22001 52533 32980 73601 10199 20153 38465 40013 52008 81042 333 05251;EQDQ01  00002PRCP99
0112525330999992000072203004+39760+098470FM-12+1478ZLJQ V0200401N002019999999N0300001N1+02371+01571100101ADDGF107991011001999999041021MD1710021+9999REMSYN060AAXX  22031 52533 42980 70402 10237 20157 40010 57002 81042;
0192525330999992000072206004+39760+098470FM-12+1478ZLJQ V0201601N003019999999N0300001N1+02841+01541099871ADDAA199000091GF108991001001999999001071KA1999N+01881MA1999999084501MD1710131-0301REMSYN082AAXX  22061 52533 32980 81603 10284 20154 38450 49987 57013 80007 333 05351 20188;EQDQ01  00002PRCP99
0122525330999992000072209004+39760+098470FM-12+1478ZLJQ V0201101N001019999999N0300001N1+03161+01621099621ADDGF107991011001999999041021MD1710211+0031REMSYN070AAXX  22091 52533 42980 71101 10316 20162 49962 57021 81042 333 05351;
0173525330999992000072212004+39760+098470FM-12+1478ZLJQ V0200401N002019999999N0300001N1+03061+01861099531ADDAA199000091GF107991011001999999041021MA1999999084201MD1710091+0031REMSYN076AAXX  22121 52533 32980 70402 10306 20186 38420 49953 57009 81042 333 05302;EQDQ01  00002PRCP99
0112525330999992000072215004+39760+098470FM-12+1478ZLJQ V0200701N002012200019N0300001N1+02721+01601099531ADDGF102991001001999999001021MD1210011+9999REMSYN060AAXX  22151 52533 42980 20702 10272 20160 49953 52001 80002;
0192525330999992000072218004+39760+098470FM-12+1478ZLJQ V0201101N002019999999N0300001N1+02451+00721099421ADDAA199000091GF107991021001999999041021KA1999M+03271MA1999999084161MD1710051-0401REMSYN082AAXX  22181 52533 32980 71102 10245 20072 38416 49942 57005 82042 333 05402 10327;EQDQ01  00002PRCP99
0122525330999992000072221004+39760+098470FM-12+1478ZLJQ V0203401N002019999999N0300001N1+02221+01061099371ADDGF107991001001999999001021MD1710021+0041REMSYN070AAXX  22211 52533 42980 73402 10222 20106 49937 57002 80002 333 05403;
0173525330999992000072300004+39760+098470FM-12+1478ZLJQ V0203401N002019999999N0300001N1+02261+00981099511ADDAA199000091GF107991001001999999001021MA1999999084241MD1210101+0041REMSYN076AAXX  23001 52533 32980 73402 10226 20098 38424 49951 52010 80002 333 05403;EQDQ01  00002PRCP99
0112525330999992000072303004+39760+098470FM-12+1478ZLJQ V0203401N002019999999N0200001N1+02481+01151099601ADDGF107991071001999999031021MD1210051+9999REMSYN060AAXX  23031 52533 42970 73402 10248 20115 49960 52005 87032;
0192525330999992000072306004+39760+098470FM-12+1478ZLJQ V0200701N003012200019N0200001N1+02991+00951099361ADDAA199000091GF101991001001999999001021KA1999N+02101MA1999999084141MD1710151-0401REMSYN082AAXX  23061 52533 32970 10703 10299 20095 38414 49936 57015 80002 333 05402 20210;EQDQ01  00002PRCP99
0132525330999992000072309004+39760+098470FM-12+1478ZLJQ V0201401N003012200019N0200001N1+03371+01351099101ADDGA1001+999999999GF100991001001999999001001MD1710181+0031REMSYN064AAXX  23091 52533 42970 01403 10337 20135 49910 57018 333 05302;
0173525330999992000072312004+39760+098470FM-12+1478ZLJQ V0209999C000019999999N0200001N1+03201+02031099091ADDAA199000091GF107991011001999999041021MA1999999083921MD1710041+0031REMSYN076AAXX  23121 52533 32970 70000 10320 20203 38392 49909 57004 81042 333 05301;EQDQ01  00002PRCP99
0112525330999992000072315004+39760+098470FM-12+1478ZLJQ V0200201N002019999999N0200001N1+02871+01331099181ADDGF105991001001999999001021MD1210051+9999REMSYN060AAXX  23151 52533 42970 50202 10287 20133 49918 52005 80002;
0192525330999992000072318004+39760+098470FM-12+1478ZLJQ V0202701N001012200019N0200001N1+02381+01231099111ADDAA199000091GF101991001001999999001021KA1999M+03521MA1999999083921MD1710051-0201REMSYN082AAXX  23181 52533 32970 12701 10238 20123 38392 49911 57005 80002 333 05251 10352;EQDQ01  00002PRCP99
0122525330999992000072321004+39760+098470FM-12+1478ZLJQ V0202901N004019999999N0200001N1+02511+00931099141ADDGF107991011001999999041021MD1210141+0011REMSYN070AAXX  23211 52533 42970 72904 10251 20093 49914 52014 81042 333 05103;
0173525330999992000072400004+39760+098470FM-12+1478ZLJQ V0202901N004019999999N0200001N1+02391+01091099411ADDAA199000091GF107991001001999999001021MA1999999084221MD1210161+0001REMSYN076AAXX  24001 52533 32970 72904 10239 20109 38422 49941 52016 80002 333 00001;EQDQ01  00002PRCP99
0112525330999992000072403004+39760+098470FM-12+1478ZLJQ V0203401N008012200019N0200001N1+02661+01141099521ADDGF101991001001999999001021MD1210081+9999REMSYN060AAXX  24031 52533 42970 13408 10266 20114 49952 52008 80002;
0192525330999992000072406004+39760+098470FM-12+1478ZLJQ V0203401N006012200019N0200001N1+02941+01041099441ADDAA199000091GF101991001001999999001021KA1999N+02271MA1999999084181MD1710121+0001REMSYN082AAXX  24061 52533 32970 13406 10294 20104 38418 49944 57012 80002 333 00051 20227;EQDQ01  00002PRCP99
0122525330999992000072409004+39760+098470FM-12+1478ZLJQ V0200201N002019999999N0200001N1+03061+01091099281ADDGF106991011001999999041021MD1710071+0021REMSYN070AAXX  24091 52533 42970 60202 10306 20109 49928 57007 81042 333 00253;
0173525330999992000072412004+39760+098470FM-12+1478ZLJQ V0201601N002019999999N0200001N1+02821+01521099371ADDAA199000091GF107991061001999999031021MA1999999084101MD1710011+0021REMSYN076AAXX  24121 52533 32970 71602 10282 20152 38410 49937 57001 86032 333 00254;EQDQ01  00002PRCP99
0112525330999992000072415004+39760+098470FM-12+1478ZLJQ V0203401N003012200019N0200001N1+02631+00971099431ADDGF101991001001999999001021MD1210071+9999REMSYN060AAXX  24151 52533 42970 13403 10263 20097 49943 52007 80002;
0202525330999992000072418004+39760+098470FM-12+1478ZLJQ V0202701N002012200019N0200001N1+02241+00931099491ADDAA199000091GA1001+999999999GF100991001001999999001001KA1999M+03181MA1999999084191MD1210021+0301REMSYN076AAXX  24181 52533 32970 02702 10224 20093 38419 49949 52002 333 00351 10318;EQDQ01  00002PRCP99
0132525330999992000072421004+39760+098470FM-12+1478ZLJQ V0202701N002012200019N0200001N1+02161+00851099521ADDGA1001+999999999GF100991001001999999001001MD1210041+0021REMSYN064AAXX  24211 52533 42970 02702 10216 20085 49952 52004 333 00254;
0173525330999992000072500004+39760+098470FM-12+1478ZLJQ V0202901N001019999999N0300001N1+02111+01321099861ADDAA199000091GF106991011001999999041021MA1999999084451MD1210221+0021REMSYN076AAXX  25001 52533 32980 62901 10211 20132 38445 49986 52022 81042 333 00253;EQDQ01  00002PRCP99
0112525330999992000072503004+39760+098470FM-12+1478ZLJQ V0200201N002012200019N0300001N1+02851+01111099661ADDGF102991001001999999001021MD1710041+9999REMSYN060AAXX  25031 52533 42980 20202 10285 20111 49966 57004 80002;
0202525330999992000072506004+39760+098470FM-12+1478ZLJQ V0203401N004012200019N0200001N1+03121+01201099591ADDAA199000091GA1001+999999999GF100991001001999999001001KA1999N+01831MA1999999084321MD1710091+0101REMSYN076AAXX  25061 52533 32970 03404 10312 20120 38432 49959 57009 333 00102 20183;EQDQ01  00002PRCP99
0132525330999992000072509004+39760+098470FM-12+1478ZLJQ V0203201N002012200019N0200001N1+03341+01101099351ADDGA1001+999999999GF100991001001999999001001MD1710171+0001REMSYN064AAXX  25091 52533 42970 03202 10334 20110 49935 57017 333 00003;
0173525330999992000072512004+39760+098470FM-12+1478ZLJQ V0201601N002019999999N0200001N1+03021+01911099461ADDAA199000091GF107991021001999999041021MA1999999084161MD1210011+0011REMSYN076AAXX  25121 52533 32970 71602 10302 20191 38416 49946 52001 82042 333 00102;EQDQ01  00002PRCP99
0112525330999992000072515004+39760+098470FM-12+1478ZLJQ V0202701N002019999999N0200001N1+02751+01331099411ADDGF107991021001999999041021MD1210061+9999REMSYN060AAXX  25151 52533 42970 72702 10275 20133 49941 52006 82042;
0192525330999992000072518004+39760+098470FM-12+1478ZLJQ V0202501N002019999999N0200001N1+02351+01341099681ADDAA199000091GF107991001001999999001021KA1999M+03471MA1999999084421MD1210201+0201REMSYN082AAXX  25181 52533 32970 72502 10235 20134 38442 49968 52020 80002 333 00201 10347;EQDQ01  00002PRCP99
0122525330999992000072521004+39760+098470FM-12+1478ZLJQ V0203201N002012200019N0300001N1+02241+01321099741ADDGF101991001001999999001021MD1210081+0031REMSYN070AAXX  25211 52533 42980 13202 10224 20132 49974 52008 80002 333 00301;
0173525330999992000072600004+39760+098470FM-12+1478ZLJQ V0202701N002019999999N0300001N1+02281+01311100061ADDAA199000091GF107991021001999999041021MA1999999084701MD1210201+0031REMSYN076AAXX  26001 52533 32980 72702 10228 20131 38470 40006 52020 82042 333 00302;EQDQ01  00002PRCP99
0112525330999992000072603004+39760+098470FM-12+1478ZLJQ V0200201N002019999999N0300001N1+02471+01071100071ADDGF107991061001999999031021MD1710011+9999REMSYN060AAXX  26031 52533 42980 70202 10247 20107 40007 57001 86032;
0192525330999992000072606004+39760+098470FM-12+1478ZLJQ V0200401N003019999999N0300001N1+02951+01101099971ADDAA199000091GF106991011001999999041021KA1999N+01961MA1999999084631MD1710061+0301REMSYN082AAXX  26061 52533 32980 60403 10295 20110 38463 49997 57006 81042 333 00352 20196;EQDQ01  00002PRCP99
0122525330999992000072609004+39760+098470FM-12+1478ZLJQ V0203401N007019999999N0300001N1+02551+00961100291ADDGF108991081001999999071999MD1210151+0061REMSYN070AAXX  26091 52533 42980 83407 10255 20096 40029 52015 8807/ 333 00658;
0180525330999992000072612004+39760+098470FM-12+1478ZLJQ V0203201N003019999999N0300001N1+01941+01441100781ADDAA106002091AY161061GF108991081001999999071999MA1999999085061MD1210281+0091MW1211REMSYN088AAXX  26121 52533 11980 83203 10194 20144 38506 40078 52028 60021 72160 8807/ 333 00961;
0132525330999992000072615004+39760+098470FM-12+1478ZLJQ V0209999C000019999999N0300001N1+01801+01301100841ADDAY161031GF108991081001999999071999MD1210061+9999MW1001REMSYN066AAXX  26151 52533 41980 80000 10180 20130 40084 52006 70060 8807/;
0207525330999992000072618004+39760+098470FM-12+1478ZLJQ V0201401N002010150019N0200001N1+01691+01481100691ADDAA106001091AY181061AY261061GF107991071091017501999999KA1999M+03061MA1999999085081MD1710041+0701MW1801REMSYN094AAXX  26181 52533 11770 71402 10169 20148 38508 40069 57004 60011 78086 879// 333 00757 10306;
0159525330999992000072621004+39760+098470FM-12+1478ZLJQ V0201401N001010150019N0300001N1+01631+01481100861ADDAA124003391AY181031GF107991071091017501999999MD1210031+0601MW1001REMSYN082AAXX  26211 52533 41780 71401 10163 20148 40086 52003 70080 879// 333 00656 70034;
0186525330999992000072700004+39760+098470FM-12+1478ZLJQ V0209999C000019999999N0300001N1+01761+01541101141ADDAA106000591AY181061GF108991081001999999071999MA1999999085231MD1210121+0501MW1001REMSYN094AAXX  27001 52533 11980 80000 10176 20154 38523 40114 52012 69951 70080 8807/ 333 00555 70034;
0112525330999992000072703004+39760+098470FM-12+1478ZLJQ V0202901N002019999999N0300001N1+02001+00851101111ADDGF107991071001999999031021MD1410001+9999REMSYN060AAXX  27031 52533 42980 72902 10200 20085 40111 54000 87032;
0173525330999992000072706004+39760+098470FM-12+1478ZLJQ V0201601N001019999999N0300001N1+02221+00711100971ADDAA199000021GF107991061001999999031021KA1999N+01601MA1999999085141MD1710091+0501REMSYN082AAXX  27061 52533 32980 71601 10222 20071 38514 40097 57009 86032 333 00557 20160;
0122525330999992000072709004+39760+098470FM-12+1478ZLJQ V0202201N003019999999N0300001N1+02161+00881100901ADDGF107991071001999999031999MD1710091+0031REMSYN070AAXX  27091 52533 42980 72203 10216 20088 40090 57009 8703/ 333 00354;
0173525330999992000072712004+39760+098470FM-12+1478ZLJQ V0202201N002019999999N0300001N1+02221+01261100831ADDAA199000091GF107991061001999999031021MA1999999085041MD1710011+0001REMSYN076AAXX  27121 52533 32980 72202 10222 20126 38504 40083 57001 86032 333 00003;EQDQ01  00002PRCP99
0112525330999992000072715004+39760+098470FM-12+1478ZLJQ V0202201N002019999999N0300001N1+02121+01211100801ADDGF107991061001999999031021MD1210011+9999REMSYN060AAXX  27151 52533 42980 72202 10212 20121 40080 52001 86032;
0192525330999992000072718004+39760+098470FM-12+1478ZLJQ V0202701N002019999999N0300001N1+02041+01151100801ADDAA199000091GF107991051001999999031021KA1999M+02301MA1999999085081MD1210031+0001REMSYN082AAXX  27181 52533 32980 72702 10204 20115 38508 40080 52003 85032 333 00004 10230;EQDQ01  00002PRCP99
0159525330999992000072721004+39760+098470FM-12+1478ZLJQ V0202001N003019999999N0300001N1+01931+01231100891ADDAA124000791AY161031GF108991081001999999071999MD1210041+0001MW1211REMSYN082AAXX  27211 52533 41980 82003 10193 20123 40089 52004 72160 8807/ 333 00003 79999;
0186525330999992000072800004+39760+098470FM-12+1478ZLJQ V0203201N002019999999N0300001N1+01821+00551101121ADDAA106000791AY161061GF107991071001999999071999MA1999999085301MD1210181+0101MW1001REMSYN094AAXX  28001 52533 11980 73202 10182 20055 38530 40112 52018 69901 70060 8707/ 333 00101 79999;
0112525330999992000072803004+39760+098470FM-12+1478ZLJQ V0203601N002012200019N0300001N1+02241+00421101021ADDGF101991011001999999041001MD1710011+9999REMSYN060AAXX  28031 52533 42980 13602 10224 20042 40102 57001 81040;
0173525330999992000072806004+39760+098470FM-12+1478ZLJQ V0202901N005012200019N0300001N1+02641+00451100811ADDAA199000021GF101991011011017501001001KA1999N+01761MA1999999085191MD1710101+0101REMSYN082AAXX  28061 52533 32780 12905 10264 20045 38519 40081 57010 81100 333 00104 20176;
0122525330999992000072809004+39760+098470FM-12+1478ZLJQ V0203201N006010900019N0300001N1+02701+00261100701ADDGF105991021011017501001021MD1710101+0001REMSYN070AAXX  28091 52533 42780 53206 10270 20026 40070 57010 82102 333 00005;
0173525330999992000072812004+39760+098470FM-12+1478ZLJQ V0203201N004012200019N0300001N1+02581+00081100891ADDAA199000091GF101991011041017501001001MA1999999085191MD1210101+0021REMSYN076AAXX  28121 52533 32780 13204 10258 20008 38519 40089 52010 81400 333 00204;EQDQ01  00002PRCP99
0122525330999992000072815004+39760+098470FM-12+1478ZLJQ V0202201N002012200019N0300001N1+01601+00381101461ADDGA1001+999999999GF100991001001999999001001MD1210351+9999REMSYN054AAXX  28151 52533 42980 02202 10160 20038 40146 52035;
0202525330999992000072818004+39760+098470FM-12+1478ZLJQ V0201801N001012200019N0300001N1+01421+00421101381ADDAA199000091GA1001+999999999GF100991001001999999001001KA1999M+02831MA1999999085521MD1710021+0401REMSYN076AAXX  28181 52533 32980 01801 10142 20042 38552 40138 57002 333 00456 10283;EQDQ01  00002PRCP99
0132525330999992000072821004+39760+098470FM-12+1478ZLJQ V0202501N002012200019N0300001N1+01161+00381101361ADDGA1001+999999999GF100991001001999999001001MD1710061+0031REMSYN064AAXX  28211 52533 42980 02502 10116 20038 40136 57006 333 00358;
0201525330999992000072900004+39760+098470FM-12+1478ZLJQ V0202201N002012200019N0300001N1+01521+00531101341ADDAA199000091GA1001+999999999GF100991001001999999001001IA2999+00409MA1999999085501MD1210041+0201REMSYN076AAXX  29001 52533 32980 02202 10152 20053 38550 40134 52004 333 00253 30040;EQDQ01  00002PRCP99
0122525330999992000072903004+39760+098470FM-12+1478ZLJQ V0201101N004012200019N0300001N1+02351+00321101361ADDGA1001+999999999GF100991001001999999001001MD1710021+9999REMSYN054AAXX  29031 52533 42980 01104 10235 20032 40136 57002;
0202525330999992000072906004+39760+098470FM-12+1478ZLJQ V0200401N004012200019N0300001N1+02621+00021101121ADDAA199000091GA1001+999999999GF100991001001999999001001KA1999N+01091MA1999999085301MD1710181+0101REMSYN076AAXX  29061 52533 32980 00404 10262 20002 38530 40112 57018 333 00100 20109;EQDQ01  00002PRCP99
0132525330999992000072909004+39760+098470FM-12+1478ZLJQ V0200701N004012200019N0300001N1+02751+00291100931ADDGA1001+999999999GF100991001001999999001001MD1710191+0001REMSYN064AAXX  29091 52533 42980 00704 10275 20029 40093 57019 333 00001;
0173525330999992000072912004+39760+098470FM-12+1478ZLJQ V0200401N001019999999N0300001N1+02611+00521100851ADDAA199000091GF106991011001999999041021MA1999999085091MD1710021+0011REMSYN076AAXX  29121 52533 32980 60401 10261 20052 38509 40085 57002 81042 333 05100;EQDQ01  00002PRCP99
0107525330999992000072915004+39760+098470FM-12+1478ZLJQ V0202501N002012200019N0300001N1+01611+00781999999ADDGA1001+999999999GF100991001001999999001001REMSYN053AAXX  29151 52533 42980 02502 10161 20078 4009 52001;
0192525330999992000072918004+39760+098470FM-12+1478ZLJQ V0202001N002019999999N0300001N1+01671+00441100711ADDAA199000091GF106991001001999999001021KA1999M+02791MA1999999085011MD1710091-0501REMSYN082AAXX  29181 52533 32980 62002 10167 20044 38501 40071 57009 80002 333 05503 10279;EQDQ01  00002PRCP99
0122525330999992000072921004+39760+098470FM-12+1478ZLJQ V0202201N003012200019N0300001N1+01341+00631100661ADDGF101991001001999999001021MD1710091+0051REMSYN070AAXX  29211 52533 42980 12203 10134 20063 40066 57009 80002 333 05502;
0173525330999992000073000004+39760+098470FM-12+1478ZLJQ V0202501N002012200019N0300001N1+01501+00531100701ADDAA199000091GF101991011001999999041021MA1999999084961MD1210041+0051REMSYN076AAXX  30001 52533 32980 12502 10150 20053 38496 40070 52004 81042 333 05500;EQDQ01  00002PRCP99
0131525330999992000073003004+39760+098470FM-12+1478ZLJQ V0201401N002012200019N0300001N1+02622+00591100651ADDGF101991001001999999001021MD1710011+9999REMSYN060AAXX  30031 52533 42980 11402 10262 20059 40065 57001 80002;EQDQ01+002623ATOT  
0192525330999992000073006004+39760+098470FM-12+1478ZLJQ V0200701N003012200019N0300001N1+02821+00241100341ADDAA199000091GF101991001001999999001021KA1999N+01301MA1999999084751MD1710201-0601REMSYN082AAXX  30061 52533 32980 10703 10282 20024 38475 40034 57020 80002 333 05602 20130;EQDQ01  00002PRCP99
0122525330999992000073009004+39760+098470FM-12+1478ZLJQ V0200901N002012200019N0300001N1+02941+00011100171ADDGF101991001001999999001021MD1710191+0061REMSYN070AAXX  30091 52533 42980 10902 10294 20001 40017 57019 80002 333 05602;
0173525330999992000073012004+39760+098470FM-12+1478ZLJQ V0200401N002010360019N0300001N1+02731+00861100061ADDAA199000091GF106991011041017501041021MA1999999084451MD1710111+0061REMSYN076AAXX  30121 52533 32780 60402 10273 20086 38445 40006 57011 81442 333 05601;EQDQ01  00002PRCP99
0112525330999992000073015004+39760+098470FM-12+1478ZLJQ V0202201N002019999999N0300001N1+02011+00841100031ADDGF107991011001999999041021MD1210071+9999REMSYN060AAXX  30151 52533 42980 72202 10201 20084 40003 52007 81042;
0192525330999992000073018004+39760+098470FM-12+1478ZLJQ V0203201N003019999999N0300001N1+02111+00331099851ADDAA199000091GF107991021001999999041021KA1999M+03021MA1999999084441MD1710081-0601REMSYN082AAXX  30181 52533 32980 73203 10211 20033 38444 49985 57008 82042 333 05604 10302;EQDQ01  00002PRCP99
0122525330999992000073021004+39760+098470FM-12+1478ZLJQ V0203201N002019999999N0300001N1+02231+00181099761ADDGF107991011001999999041021MD1710021+0051REMSYN070AAXX  30211 52533 42980 73202 10223 20018 49976 57002 81042 333 05509;
0173525330999992000073100004+39760+098470FM-12+1478ZLJQ V0202701N001010900019N0300001N1+02041+00881100001ADDAA199000091GF107991021091017501001021MA1999999084531MD1210111+0041REMSYN076AAXX  31001 52533 32780 72701 10204 20088 38453 40000 52011 82902 333 05405;EQDQ01  00002PRCP99
0112525330999992000073103004+39760+098470FM-12+1478ZLJQ V0203201N002019999999N0300001N1+02431+00531100121ADDGF107991021001999999041021MD1210021+9999REMSYN060AAXX  31031 52533 42980 73202 10243 20053 40012 52002 82042;
0204525330999992000073106004+39760+098470FM-12+1478ZLJQ V0203201N005010900019N0090001N1+02421+00641100101ADDAA199000091GF107991031041017501001021KA1999N+01911MA1999999084561MD1210011-0201MW1071REMSYN088AAXX  31061 52533 31759 73205 10242 20064 38456 40010 52001 70700 83402 333 05254 20191;EQDQ01  00002PRCP99
0122525330999992000073109004+39760+098470FM-12+1478ZLJQ V0202201N002010150019N0200001N1+02241+00701100191ADDGF107991061041017501001021MD1210061+0011REMSYN070AAXX  31091 52533 42770 72202 10224 20070 40019 52006 86402 333 00157;
0188525330999992000073112004+39760+098470FM-12+1478ZLJQ V0202201N003010150019N0200001N1+01721+01081100531ADDAA106003091AY191061AY281061GF107991071091017501999999MA1999999084731MD1210111+0031MW1801REMSYN088AAXX  31121 52533 11770 72203 10172 20108 38473 40053 52011 60031 78098 879// 333 00360;
0112525330999992000073115004+39760+098470FM-12+1478ZLJQ V0203201N002010900019N0200001N1+01841+00821100521ADDGF107991031041017501001021MD1210121+9999REMSYN060AAXX  31151 52533 42770 73202 10184 20082 40052 52012 83402;
0199525330999992000073118004+39760+098470FM-12+1478ZLJQ V0202001N002012200019N0200001N1+01641+00911100461ADDAA106000791AY181061GF102991021041017501001001KA1999M+02641MA1999999084751MD1710101+0301MW1001REMSYN094AAXX  31181 52533 11770 22002 10164 20091 38475 40046 57010 69901 70080 82400 333 00355 10264;
0149525330999992000073121004+39760+098470FM-12+1478ZLJQ V0202701N004012200019N0200001N1+01621+00571100411ADDAA124002591GA1001+999999999GF100991001001999999001001MD1710091+0201REMSYN070AAXX  31211 52533 42970 02704 10162 20057 40041 57009 333 00256 70026;
0160525330999992000080100004+39760+098470FM-12+1478ZLJQ V0202701N002012200019N0300001N1+01581+00921100631ADDAA124002591GF101991011001999999041021MA1999999084701MD1210041+0201REMSYN082AAXX  01001 52533 32980 12702 10158 20092 38470 40063 52004 81042 333 00255 70026;
0132525330999992000080103004+39760+098470FM-12+1478ZLJQ V0200901N003010900019N0300001N1+02301+01081100371ADDAY181031GF107991031041017501001021MD1710011+9999MW1001REMSYN066AAXX  01031 52533 41780 70903 10230 20108 40037 57001 70080 83402;
0199525330999992000080106004+39760+098470FM-12+1478ZLJQ V0201401N002012200019N0300001N1+02561+00711100191ADDAA106000791AY181061GF104991041011017501001021KA1999N+01211MA1999999084551MD1710141+0001MW1251REMSYN094AAXX  01061 52533 11780 41402 10256 20071 38455 40019 57014 69901 72580 84102 333 00001 20121;
0122525330999992000080109004+39760+098470FM-12+1478ZLJQ V0201101N003012200019N0300001N1+02771+00471099861ADDGF101991011011017501001001MD1710231+0031REMSYN070AAXX  01091 52533 42780 11103 10277 20047 49986 57023 81100 333 05305;
0154525330999992000080112004+39760+098470FM-12+1478ZLJQ V0201401N002012200019N0300001N1+02421+01471099921ADDAA199000021GF101991011041017501001001MA1999999084281MD1710041+0051REMSYN076AAXX  01121 52533 32780 11402 10242 20147 38428 49992 57004 81400 333 05507;
0122525330999992000080115004+39760+098470FM-12+1478ZLJQ V0202501N002012200019N0300001N1+01731+00831100031ADDGA1001+999999999GF100991001001999999001001MD1210101+9999REMSYN054AAXX  01151 52533 42980 02502 10173 20083 40003 52010;
0183525330999992000080118004+39760+098470FM-12+1478ZLJQ V0202201N002012200019N0300001N1+01561+00701100011ADDAA199000021GA1001+999999999GF100991001001999999001001KA1999M+02861MA1999999084381MD1410001-0401REMSYN076AAXX  01181 52533 32980 02202 10156 20070 38438 40001 54000 333 05451 10286;
0149525330999992000080121004+39760+098470FM-12+1478ZLJQ V0202701N003012200019N0300001N1+01521+00461099931ADDAA124000791GA1001+999999999GF100991001001999999001001MD1710021-0301REMSYN070AAXX  01211 52533 42980 02703 10152 20046 49993 57002 333 05351 79999;
0170525330999992000080200004+39760+098470FM-12+1478ZLJQ V0202501N002012200019N0300001N1+01621+00761100101ADDAA124000791GA1001+999999999GF100991001001999999001001MA1999999084441MD1210081-0301REMSYN076AAXX  02001 52533 32980 02502 10162 20076 38444 40010 52008 333 05300 79999;
0131525330999992000080203004+39760+098470FM-12+1478ZLJQ V0200901N003012200019N0300001N1+02782+00811099981ADDGF101991011011017501001001MD1210011+9999REMSYN060AAXX  02031 52533 42780 10903 10278 20081 49998 52001 81100;EQDQ01+002783ATOT  
0192525330999992000080206004+39760+098470FM-12+1478ZLJQ V0200901N003012200019N0300001N1+02921+00121099861ADDAA199000091GF101991011011017501001021KA1999N+01161MA1999999084341MD1710111-0201REMSYN082AAXX  02061 52533 32780 10903 10292 20012 38434 49986 57011 81102 333 05204 20116;EQDQ01  00002PRCP99
0122525330999992000080209004+39760+098470FM-12+1478ZLJQ V0201101N003012200019N0300001N1+03081+00391099621ADDGF102991011011017501001021MD1710171+0021REMSYN070AAXX  02091 52533 42780 21103 10308 20039 49962 57017 81102 333 05203;
0173525330999992000080212004+39760+098470FM-12+1478ZLJQ V0200901N002012200019N0300001N1+02801+01131099631ADDAA199000091GF102991011041017501001021MA1999999084131MD1710041+0021REMSYN076AAXX  02121 52533 32780 20902 10280 20113 38413 49963 57004 81402 333 05204;EQDQ01  00002PRCP99
0112525330999992000080215004+39760+098470FM-12+1478ZLJQ V0200401N002012200019N0300001N1+02021+00861099661ADDGF101991001001999999001021MD1210121+9999REMSYN060AAXX  02151 52533 42980 10402 10202 20086 49966 52012 80002;
0192525330999992000080218004+39760+098470FM-12+1478ZLJQ V0203201N002019999999N0300001N1+01951+00961099641ADDAA199000091GF107991001001999999001021KA1999M+03081MA1999999084251MD1410001-0101REMSYN082AAXX  02181 52533 32980 73202 10195 20096 38425 49964 54000 80002 333 05104 10308;EQDQ01  00002PRCP99
0122525330999992000080221004+39760+098470FM-12+1478ZLJQ V0202501N001012200019N0300001N1+01671+00661099711ADDGF102991001001999999001021MD1210031+0011REMSYN070AAXX  02211 52533 42980 22501 10167 20066 49971 52003 80002 333 05102;
0173525330999992000080300004+39760+098470FM-12+1478ZLJQ V0203401N002019999999N0300001N1+01821+00611099851ADDAA199000091GF107991061001999999031021MA1999999084371MD1210091+0011REMSYN076AAXX  03001 52533 32980 73402 10182 20061 38437 49985 52009 86032 333 05102;EQDQ01  00002PRCP99
0112525330999992000080303004+39760+098470FM-12+1478ZLJQ V0200401N002010360019N0300001N1+02421+00481099901ADDGF107991011011017501041021MD1410001+9999REMSYN060AAXX  03031 52533 42780 70402 10242 20048 49990 54000 81142;
0192525330999992000080306004+39760+098470FM-12+1478ZLJQ V0201801N001010900019N0300001N1+02821+00801099591ADDAA199000091GF107991011011017501001021KA1999N+01611MA1999999084181MD1710191-0201REMSYN082AAXX  03061 52533 32780 71801 10282 20080 38418 49959 57019 81102 333 05251 20161;EQDQ01  00002PRCP99
0122525330999992000080309004+39760+098470FM-12+1478ZLJQ V0202501N003010150019N0300001N1+02841+01181099551ADDGF108991051041017501001071MD1710091+0011REMSYN070AAXX  03091 52533 42780 82503 10284 20118 49955 57009 85407 333 05152;
0173525330999992000080312004+39760+098470FM-12+1478ZLJQ V0202901N003010900019N0300001N1+02561+00691099641ADDAA199000091GF107991021041017501001021MA1999999084131MD1210041+0001REMSYN076AAXX  03121 52533 32780 72903 10256 20069 38413 49964 52004 82402 333 00052;EQDQ01  00002PRCP99
0112525330999992000080315004+39760+098470FM-12+1478ZLJQ V0203201N002019999999N0300001N1+02231+00901099761ADDGF108991001001999999001071MD1210171+9999REMSYN060AAXX  03151 52533 42980 83202 10223 20090 49976 52017 80007;
0192525330999992000080318004+39760+098470FM-12+1478ZLJQ V0203201N002019999999N0300001N1+02061+01001099661ADDAA199000091GF107991001001999999001021KA1999M+03021MA1999999084271MD1710031+0001REMSYN082AAXX  03181 52533 32980 73202 10206 20100 38427 49966 57003 80002 333 00001 10302;EQDQ01  00002PRCP99
0132525330999992000080321004+39760+098470FM-12+1478ZLJQ V0202901N002012200019N0300001N1+01841+00821099791ADDGA1001+999999999GF100991001001999999001001MD1210061+0011REMSYN064AAXX  03211 52533 42980 02902 10184 20082 49979 52006 333 00102;
0173525330999992000080400004+39760+098470FM-12+1478ZLJQ V0202701N001019999999N0300001N1+01881+01081099991ADDAA199000091GF107991061001999999031021MA1999999084441MD1210111+0011REMSYN076AAXX  04001 52533 32980 72701 10188 20108 38444 49999 52011 86032 333 00101;EQDQ01  00002PRCP99
0112525330999992000080403004+39760+098470FM-12+1478ZLJQ V0203601N003012200019N0300001N1+02721+00711099921ADDGF102991011001999999041021MD1210061+9999REMSYN060AAXX  04031 52533 42980 23603 10272 20071 49992 52006 81042;
0192525330999992000080406004+39760+098470FM-12+1478ZLJQ V0201401N003012200019N0300001N1+02971+00761099861ADDAA199000091GF102991011011017501001021KA1999N+01661MA1999999084471MD1710031+0301REMSYN082AAXX  04061 52533 32780 21403 10297 20076 38447 49986 57003 81102 333 00302 20166;EQDQ01  00002PRCP99
0122525330999992000080409004+39760+098470FM-12+1478ZLJQ V0201101N002010900019N0300001N1+02911+00901099831ADDGF107991011041017501001021MD1710091+0031REMSYN070AAXX  04091 52533 42780 71102 10291 20090 49983 57009 81402 333 00301;
0173525330999992000080412004+39760+098470FM-12+1478ZLJQ V0201101N001010900019N0300001N1+02681+01721099911ADDAA199000091GF107991021041017501001021MA1999999084401MD1210021+0031REMSYN076AAXX  04121 52533 32780 71101 10268 20172 38440 49991 52002 82402 333 00301;EQDQ01  00002PRCP99
0112525330999992000080415004+39760+098470FM-12+1478ZLJQ V0202501N002019999999N0300001N1+02411+01101099881ADDGF107991001001999999001021MD1210111+9999REMSYN060AAXX  04151 52533 42980 72502 10241 20110 49988 52011 80002;
0192525330999992000080418004+39760+098470FM-12+1478ZLJQ V0203201N002019999999N0300001N1+02211+00961099921ADDAA199000091GF107991001001999999001021KA1999M+03071MA1999999084561MD1210051+0301REMSYN082AAXX  04181 52533 32980 73202 10221 20096 38456 49992 52005 80002 333 00302 10307;EQDQ01  00002PRCP99
0151525330999992000080421004+39760+098470FM-12+1478ZLJQ V0202701N002019999999N0300001N1+02161+01101100051ADDAA124000791GF108991081001999999021999MD1210081+0301MW1601REMSYN082AAXX  04211 52533 41980 82702 10216 20110 40005 52008 76000 8802/ 333 00303 79999;
0186525330999992000080500004+39760+098470FM-12+1478ZLJQ V0202901N003019999999N0300001N1+02161+00931100321ADDAA106000791AY161061GF108991081001999999071999MA1999999084821MD1210181+0401MW1601REMSYN094AAXX  05001 52533 11980 82903 10216 20093 38482 40032 52018 69901 76060 8807/ 333 00403 79999;
0132525330999992000080503004+39760+098470FM-12+1478ZLJQ V0203401N003019999999N0300001N1+02041+01291100651ADDAY161031GF108991081001999999071999MD1210181+9999MW1601REMSYN066AAXX  05031 52533 41980 83403 10204 20129 40065 52018 76060 8807/;
0199525330999992000080506004+39760+098470FM-12+1478ZLJQ V0203401N004010360019N0300001N1+02371+01041100591ADDAA106000191AY161061GF107991021041017501041021KA1999N+02031MA1999999084981MD1710021+0501MW1001REMSYN094AAXX  05061 52533 11780 73404 10237 20104 38498 40059 57002 69911 70060 82442 333 00556 20203;
0122525330999992000080509004+39760+098470FM-12+1478ZLJQ V0202901N003010360019N0300001N1+02281+01151100661ADDGF107991011041017501041021MD1210031+0061REMSYN070AAXX  05091 52533 42780 72903 10228 20115 40066 52003 81442 333 00656;
0154525330999992000080512004+39760+098470FM-12+1478ZLJQ V0202701N003012200019N0300001N1+02261+01041100691ADDAA199000021GF103991011041017501001021MA1999999085031MD1210021+0061REMSYN076AAXX  05121 52533 32780 32703 10226 20104 38503 40069 52002 81402 333 00654;
0112525330999992000080515004+39760+098470FM-12+1478ZLJQ V0202701N001010900019N0300001N1+02011+01091100981ADDGF105991011041017501041021MD1210151+9999REMSYN060AAXX  05151 52533 42780 52701 10201 20109 40098 52015 81442;
0209525330999992000080518004+39760+098470FM-12+1478ZLJQ V0209999C000012200019N0300001N1+01581+01191100971ADDAA106000791AY181061GA1001+999999999GF100991001001999999001001KA1999M+02451MA1999999085151MD1710031+0601MW1001REMSYN088AAXX  05181 52533 11980 00000 10158 20119 38515 40097 57003 69901 70080 333 00656 10245;
0149525330999992000080521004+39760+098470FM-12+1478ZLJQ V0203201N003012200019N0300001N1+01621+01081101071ADDAA124000191GA1001+999999999GF100991001001999999001001MD1210071+0601REMSYN070AAXX  05211 52533 42980 03203 10162 20108 40107 52007 333 00655 70001;
0160525330999992000080600004+39760+098470FM-12+1478ZLJQ V0209999C000012200019N0300001N1+01661+01241101161ADDAA124000191GF102991001001999999001021MA1999999085301MD1210081+0501REMSYN082AAXX  06001 52533 32980 20000 10166 20124 38530 40116 52008 80002 333 00555 70001;
0112525330999992000080603004+39760+098470FM-12+1478ZLJQ V0201101N002019999999N0300001N1+02151+01131101131ADDGF107991011001999999041021MD1210041+9999REMSYN060AAXX  06031 52533 42980 71102 10215 20113 40113 52004 81042;
0192525330999992000080606004+39760+098470FM-12+1478ZLJQ V0200701N004010900019N0300001N1+02371+01171101041ADDAA199000091GF107991021011017501001021KA1999N+01321MA1999999085211MD1710131+0201REMSYN082AAXX  06061 52533 32780 70704 10237 20117 38521 40104 57013 82102 333 00200 20132;EQDQ01  00002PRCP99
0150525330999992000080609004+39760+098470FM-12+1478ZLJQ V0201601N005010900019N0300001N1+01861+01441101241ADDAY191031AY281031GF106991021091017501001021MD1210051+0031MW1291REMSYN076AAXX  06091 52533 41780 61605 10186 20144 40124 52005 72998 82902 333 00354;
0188525330999992000080612004+39760+098470FM-12+1478ZLJQ V0201601N003010150019N0300001N1+02021+01461101211ADDAA106023991AY191061AY281061GF106991061041017501001021MA1999999085291MD1210031+0031MW1001REMSYN088AAXX  06121 52533 11780 61603 10202 20146 38529 40121 52003 60241 70098 86402 333 00352;
0112525330999992000080615004+39760+098470FM-12+1478ZLJQ V0202201N002012200019N0300001N1+01601+01321101281ADDGF103991031041017501001001MD1210071+9999REMSYN060AAXX  06151 52533 42780 32202 10160 20132 40128 52007 83400;
0192525330999992000080618004+39760+098470FM-12+1478ZLJQ V0203401N001012200019N0300001N1+01621+01201101211ADDAA199000091GF101991011041017501001001KA1999M+02451MA1999999085361MD1410001+0201REMSYN082AAXX  06181 52533 32780 13401 10162 20120 38536 40121 54000 81400 333 00200 10245;EQDQ01  00002PRCP99
0139525330999992000080621004+39760+098470FM-12+1478ZLJQ V0203201N001012200019N0300001N1+01401+01161101311ADDAA124023691GF101991001001999999001021MD1710091+0101REMSYN076AAXX  06211 52533 42980 13201 10140 20116 40131 57009 80002 333 00152 70235;
0160525330999992000080700004+39760+098470FM-12+1478ZLJQ V0202701N001012200019N0300001N1+01621+01161101251ADDAA124023691GF101991011001999999041001MA1999999085311MD1210041+0001REMSYN082AAXX  07001 52533 32980 12701 10162 20116 38531 40125 52004 81040 333 00000 70235;
0112525330999992000080703004+39760+098470FM-12+1478ZLJQ V0200401N003012200019N0300001N1+02231+01021101181ADDGF101991011011017501001001MD1710011+9999REMSYN060AAXX  07031 52533 42780 10403 10223 20102 40118 57001 81100;
0192525330999992000080706004+39760+098470FM-12+1478ZLJQ V0202701N002012200019N0300001N1+02401+00971100911ADDAA199000091GF102991021011017501001001KA1999N+01301MA1999999085121MD1710181-0101REMSYN082AAXX  07061 52533 32780 22702 10240 20097 38512 40091 57018 82100 333 05100 20130;EQDQ01  00002PRCP99
0122525330999992000080709004+39760+098470FM-12+1478ZLJQ V0203401N003012200019N0300001N1+02801+00891100721ADDGF102991021011017501001001MD1710121+0031REMSYN070AAXX  07091 52533 42780 23403 10280 20089 40072 57012 82100 333 05309;
0173525330999992000080712004+39760+098470FM-12+1478ZLJQ V0203201N004012200019N0300001N1+02571+00511100701ADDAA199000091GF102991021041017501001001MA1999999084981MD1710021+0031REMSYN076AAXX  07121 52533 32780 23204 10257 20051 38498 40070 57002 82400 333 05306;EQDQ01  00002PRCP99
0112525330999992000080715004+39760+098470FM-12+1478ZLJQ V0202001N002012200019N0300001N1+01921+00981100911ADDGF102991021041017501001001MD1210171+9999REMSYN060AAXX  07151 52533 42780 22002 10192 20098 40091 52017 82400;
0202525330999992000080718004+39760+098470FM-12+1478ZLJQ V0203601N001012200019N0300001N1+01551+01171100891ADDAA199000091GA1001+999999999GF100991001001999999001001KA1999M+02801MA1999999085081MD1710071-0301REMSYN076AAXX  07181 52533 32980 03601 10155 20117 38508 40089 57007 333 05351 10280;EQDQ01  00002PRCP99
0122525330999992000080721004+39760+098470FM-12+1478ZLJQ V0202201N002012200019N0300001N1+01551+01171100751ADDGF102991001001999999001021MD1710021+0021REMSYN070AAXX  07211 52533 42980 22202 10155 20117 40075 57002 80002 333 05202;
0173525330999992000080800004+39760+098470FM-12+1478ZLJQ V0203201N001012200019N0300001N1+01731+01171100841ADDAA199000091GF101991011041017501001021MA1999999085131MD1210071+0021REMSYN076AAXX  08001 52533 32780 13201 10173 20117 38513 40084 52007 81402 333 05201;EQDQ01  00002PRCP99
0112525330999992000080803004+39760+098470FM-12+1478ZLJQ V0203601N004012200019N0300001N1+02311+01131100881ADDGF101991011011017501001021MD1210011+9999REMSYN060AAXX  08031 52533 42780 13604 10231 20113 40088 52001 81102;
0192525330999992000080806004+39760+098470FM-12+1478ZLJQ V0203401N004012200019N0300001N1+02661+00911100741ADDAA199000091GF103991031011017501001001KA1999N+01351MA1999999085021MD1710121-0101REMSYN082AAXX  08061 52533 32780 33404 10266 20091 38502 40074 57012 83100 333 05103 20135;EQDQ01  00002PRCP99
0122525330999992000080809004+39760+098470FM-12+1478ZLJQ V0203601N004012200019N0300001N1+02821+00551100541ADDGF103991031011017501001001MD1710131+0011REMSYN070AAXX  08091 52533 42780 33604 10282 20055 40054 57013 83100 333 05100;
0173525330999992000080812004+39760+098470FM-12+1478ZLJQ V0200401N002012200019N0300001N1+02621+00801100581ADDAA199000091GF102991021041017501001001MA1999999084921MD1210031+0011REMSYN076AAXX  08121 52533 32780 20402 10262 20080 38492 40058 52003 82400 333 05101;EQDQ01  00002PRCP99
0112525330999992000080815004+39760+098470FM-12+1478ZLJQ V0202201N002012200019N0300001N1+02041+00991100651ADDGF101991011041017501001001MD1210061+9999REMSYN060AAXX  08151 52533 42780 12202 10204 20099 40065 52006 81400;
0202525330999992000080818004+39760+098470FM-12+1478ZLJQ V0202901N001012200019N0300001N1+01581+01081100711ADDAA199000091GA1001+999999999GF100991001001999999001001KA1999M+02881MA1999999085001MD1210021-0101REMSYN076AAXX  08181 52533 32980 02901 10158 20108 38500 40071 52002 333 05100 10288;EQDQ01  00002PRCP99
0132525330999992000080821004+39760+098470FM-12+1478ZLJQ V0209999C000012200019N0300001N1+01431+00961100721ADDGA1001+999999999GF100991001001999999001001MD1210011+0011REMSYN064AAXX  08211 52533 42980 00000 10143 20096 40072 52001 333 05151;
0173525330999992000080900004+39760+098470FM-12+1478ZLJQ V0202201N001012200019N0300001N1+01541+01181100831ADDAA199000091GF101991001001999999001021MA1999999085081MD1210071+0011REMSYN076AAXX  09001 52533 32980 12201 10154 20118 38508 40083 52007 80002 333 05152;EQDQ01  00002PRCP99
0112525330999992000080903004+39760+098470FM-12+1478ZLJQ V0201101N003012200019N0300001N1+02361+01071100781ADDGF101991011011017501001021MD1210021+9999REMSYN060AAXX  09031 52533 42780 11103 10236 20107 40078 52002 81102;
0192525330999992000080906004+39760+098470FM-12+1478ZLJQ V0200901N002012200019N0300001N1+02631+01141100661ADDAA199000091GF101991011011017501001021KA1999N+01201MA1999999084951MD1710151-0101REMSYN082AAXX  09061 52533 32780 10902 10263 20114 38495 40066 57015 81102 333 05100 20120;EQDQ01  00002PRCP99
0122525330999992000080909004+39760+098470FM-12+1478ZLJQ V0201101N002012200019N0300001N1+02921+00961100371ADDGF101991011011017501001001MD1710211+0021REMSYN070AAXX  09091 52533 42780 11102 10292 20096 40037 57021 81100 333 05201;
0173525330999992000080912004+39760+098470FM-12+1478ZLJQ V0201401N002012200019N0300001N1+02631+01351100351ADDAA199000091GF101991011041017501001001MA1999999084681MD1710061+0021REMSYN076AAXX  09121 52533 32780 11402 10263 20135 38468 40035 57006 81400 333 05200;EQDQ01  00002PRCP99
0122525330999992000080915004+39760+098470FM-12+1478ZLJQ V0202501N001012200019N0300001N1+01861+01251100441ADDGA1001+999999999GF100991001001999999001001MD1210091+9999REMSYN054AAXX  09151 52533 42980 02501 10186 20125 40044 52009;
0202525330999992000080918004+39760+098470FM-12+1478ZLJQ V0203401N001012200019N0300001N1+01641+01031100411ADDAA199000091GA1001+999999999GF100991001001999999001001KA1999M+02941MA1999999084761MD1710011-0201REMSYN076AAXX  09181 52533 32980 03401 10164 20103 38476 40041 57001 333 05201 10294;EQDQ01  00002PRCP99
0132525330999992000080921004+39760+098470FM-12+1478ZLJQ V0202701N002012200019N0300001N1+01471+00991100321ADDGA1001+999999999GF100991001001999999001001MD1710051+0031REMSYN064AAXX  09211 52533 42980 02702 10147 20099 40032 57005 333 05300;
0173525330999992000081000004+39760+098470FM-12+1478ZLJQ V0203601N001012200019N0300001N1+01581+01151100431ADDAA199000091GF101991001001999999001021MA1999999084761MD1210051+0031REMSYN076AAXX  10001 52533 32980 13601 10158 20115 38476 40043 52005 80002 333 05300;EQDQ01  00002PRCP99
0122525330999992000081003004+39760+098470FM-12+1478ZLJQ V0201101N002012200019N0300001N1+02341+01171100531ADDGA1001+999999999GF100991001001999999001001MD1210081+9999REMSYN054AAXX  10031 52533 42980 01102 10234 20117 40053 52008;
0192525330999992000081006004+39760+098470FM-12+1478ZLJQ V0201101N004012200019N0300001N1+02761+00901100351ADDAA199000091GF101991011011017501001001KA1999N+01381MA1999999084741MD1710101-0201REMSYN082AAXX  10061 52533 32780 11104 10276 20090 38474 40035 57010 81100 333 05201 20138;EQDQ01  00002PRCP99
0122525330999992000081009004+39760+098470FM-12+1478ZLJQ V0200901N003012200019N0300001N1+02901+00721100171ADDGF101991011011017501001021MD1710161+0021REMSYN070AAXX  10091 52533 42780 10903 10290 20072 40017 57016 81102 333 05200;
0173525330999992000081012004+39760+098470FM-12+1478ZLJQ V0200701N002012200019N0300001N1+02631+01271100181ADDAA199000091GF101991011041017501001021MA1999999084551MD1710031+0011REMSYN076AAXX  10121 52533 32780 10702 10263 20127 38455 40018 57003 81402 333 05100;EQDQ01  00002PRCP99
0122525330999992000081015004+39760+098470FM-12+1478ZLJQ V0209999C000012200019N0300001N1+01921+01201100251ADDGA1001+999999999GF100991001001999999001001MD1210071+9999REMSYN054AAXX  10151 52533 42980 00000 10192 20120 40025 52007;
0202525330999992000081018004+39760+098470FM-12+1478ZLJQ V0202501N002012200019N0300001N1+01781+01001100201ADDAA199000091GA1001+999999999GF100991001001999999001001KA1999M+02911MA1999999084641MD1210021-0101REMSYN076AAXX  10181 52533 32980 02502 10178 20100 38464 40020 52002 333 05101 10291;EQDQ01  00002PRCP99
0132525330999992000081021004+39760+098470FM-12+1478ZLJQ V0201801N001012200019N0300001N1+01571+01011099711ADDGA1001+999999999GF100991001001999999001001MD1710031+0021REMSYN064AAXX  10211 52533 42980 01801 10157 20101 49971 57003 333 05251;
0183525330999992000081100004+39760+098470FM-12+1478ZLJQ V0202201N002012200019N0300001N1+01761+01071100241ADDAA199000091GA1001+999999999GF100991001001999999001001MA1999999084641MD1210051+0011REMSYN070AAXX  11001 52533 32980 02202 10176 20107 38464 40024 52005 333 05102;EQDQ01  00002PRCP99
0112525330999992000081103004+39760+098470FM-12+1478ZLJQ V0200901N004012200019N0300001N1+02571+01121100291ADDGF101991011011017501001001MD1210071+9999REMSYN060AAXX  11031 52533 42780 10904 10257 20112 40029 52007 81100;
0192525330999992000081106004+39760+098470FM-12+1478ZLJQ V0200901N004012200019N0300001N1+02821+00901100131ADDAA199000091GF101991011011017501001001KA1999N+01381MA1999999084601MD1710111-0101REMSYN082AAXX  11061 52533 32780 10904 10282 20090 38460 40013 57011 81100 333 05101 20138;EQDQ01  00002PRCP99
0141525330999992000081109004+39760+098470FM-12+1478ZLJQ V0201101N003012200019N0300001N1+03301+01041099462ADDGF101991001001999999001021MD1710181+0011REMSYN070AAXX  11091 52533 42980 11103 10330 20104 49946 57018 80002 333 05101;EQDQ01+099463APOSLP
0173525330999992000081112004+39760+098470FM-12+1478ZLJQ V0200201N001012200019N0300001N1+02801+01531100041ADDAA199000091GF101991011041017501001001MA1999999084511MD1210021+0001REMSYN076AAXX  11121 52533 32780 10201 10280 20153 38451 40004 52002 81400 333 00002;EQDQ01  00002PRCP99
0112525330999992000081115004+39760+098470FM-12+1478ZLJQ V0209999C000019999999N0300001N1+01981+01311100181ADDGF105991051001999999041001MD1210121+9999REMSYN060AAXX  11151 52533 42980 50000 10198 20131 40018 52012 85040;
0192525330999992000081118004+39760+098470FM-12+1478ZLJQ V0202201N001019999999N0300001N1+02171+01111100111ADDAA199000091GF107991061001999999041021KA1999M+02971MA1999999084671MD1210041+0001REMSYN082AAXX  11181 52533 32980 72201 10217 20111 38467 40011 52004 86042 333 00004 10297;EQDQ01  00002PRCP99
0132525330999992000081121004+39760+098470FM-12+1478ZLJQ V0203201N001012200019N0300001N1+01921+01071100131ADDGA1001+999999999GF100991001001999999001001MD1710011+0011REMSYN064AAXX  11211 52533 42980 03201 10192 20107 40013 57001 333 00104;
0173525330999992000081200004+39760+098470FM-12+1478ZLJQ V0202701N002010900019N0300001N1+01841+01181100301ADDAA199000091GF105991011041017501041021MA1999999084751MD1210091+0011REMSYN076AAXX  12001 52533 32780 52702 10184 20118 38475 40030 52009 81442 333 00101;EQDQ01  00002PRCP99
0112525330999992000081203004+39760+098470FM-12+1478ZLJQ V0203401N003019999999N0300001N1+02361+01151100541ADDGF107991021001999999041021MD1210131+9999REMSYN060AAXX  12031 52533 42980 73403 10236 20115 40054 52013 82042;
0192525330999992000081206004+39760+098470FM-12+1478ZLJQ V0202701N002010360019N0300001N1+02761+01131100281ADDAA199000091GF107991011011017501041021KA1999N+01711MA1999999084801MD1710081+0201REMSYN082AAXX  12061 52533 32780 72702 10276 20113 38480 40028 57008 81142 333 00251 20171;EQDQ01  00002PRCP99
0122525330999992000081209004+39760+098470FM-12+1478ZLJQ V0202701N003010360019N0300001N1+02761+01241100301ADDGF107991011011017501041999MD1710041+0031REMSYN070AAXX  12091 52533 42780 72703 10276 20124 40030 57004 8114/ 333 00352;
0173525330999992000081212004+39760+098470FM-12+1478ZLJQ V0202701N008010360019N0300001N1+02341+01111100611ADDAA199000091GF107991011041017501031021MA1999999084901MD1210141+0041REMSYN076AAXX  12121 52533 32780 72708 10234 20111 38490 40061 52014 81432 333 00455;EQDQ01  00002PRCP99
0199525330999992000081218004+39760+098470FM-12+1478ZLJQ V0209999C000019999999N0300001N1+01851+01411100831ADDAA106000191AY161061GF108991081001999999071999KA1999M+02861MA1999999085191MD1210031+0501MW1601REMSYN094AAXX  12181 52533 11980 80000 10185 20141 38519 40083 52003 69911 76060 8807/ 333 00553 10286;
0139525330999992000081221004+39760+098470FM-12+1478ZLJQ V0209999C000019999999N0300001N1+01781+01341100841ADDAA124000191GF108991021001999999041071MD1710011+0501REMSYN076AAXX  12211 52533 42980 80000 10178 20134 40084 57001 82047 333 00551 70001;
0160525330999992000081300004+39760+098470FM-12+1478ZLJQ V0202001N003019999999N0300001N1+01701+01441101121ADDAA124000191GF107991031001999999041021MA1999999085301MD1210121+0601REMSYN082AAXX  13001 52533 32980 72003 10170 20144 38530 40112 52012 83042 333 00651 70001;
0112525330999992000081303004+39760+098470FM-12+1478ZLJQ V0200401N002012200019N0300001N1+02041+01071101211ADDGF101991001001999999001021MD1210081+9999REMSYN060AAXX  13031 52533 42980 10402 10204 20107 40121 52008 80002;
0173525330999992000081306004+39760+098470FM-12+1478ZLJQ V0201101N003012200019N0300001N1+02371+01171100991ADDAA199000021GF101991011011017501001001KA1999N+01631MA1999999085231MD1710151+0401REMSYN082AAXX  13061 52533 32780 11103 10237 20117 38523 40099 57015 81100 333 00454 20163;
0122525330999992000081309004+39760+098470FM-12+1478ZLJQ V0200901N003012200019N0300001N1+02581+01071100801ADDGF101991011011017501001021MD1710121+0041REMSYN070AAXX  13091 52533 42780 10903 10258 20107 40080 57012 81102 333 00452;
0173525330999992000081312004+39760+098470FM-12+1478ZLJQ V0201801N002012200019N0300001N1+02381+00941100931ADDAA199000091GF101991011041017501001001MA1999999085151MD1210041+0031REMSYN076AAXX  13121 52533 32780 11802 10238 20094 38515 40093 52004 81400 333 00300;EQDQ01  00002PRCP99
0122525330999992000081315004+39760+098470FM-12+1478ZLJQ V0202201N003012200019N0300001N1+01981+01041101001ADDGA1001+999999999GF100991001001999999001001MD1210041+9999REMSYN054AAXX  13151 52533 42980 02203 10198 20104 40100 52004;
0202525330999992000081318004+39760+098470FM-12+1478ZLJQ V0202701N003012200019N0300001N1+01851+00741100891ADDAA199000091GA1001+999999999GF100991001001999999001001KA1999M+02631MA1999999085151MD1710041+0001REMSYN076AAXX  13181 52533 32980 02703 10185 20074 38515 40089 57004 333 00000 10263;EQDQ01  00002PRCP99
0132525330999992000081321004+39760+098470FM-12+1478ZLJQ V0202701N003012200019N0300001N1+01601+00391100841ADDGA1001+999999999GF100991001001999999001001MD1710051+0011REMSYN064AAXX  13211 52533 42980 02703 10160 20039 40084 57005 333 05152;
0112525330999992000081403004+39760+098470FM-12+1478ZLJQ V0203601N003012200019N0300001N1+02361+00721100931ADDGF101991011011017501001021MD1210041+9999REMSYN060AAXX  14031 52533 42780 13603 10236 20072 40093 52004 81102;
0192525330999992000081406004+39760+098470FM-12+1478ZLJQ V0203201N002012200019N0300001N1+02691+00171100671ADDAA199000091GF101991011011017501001001KA1999N+01191MA1999999085041MD1710171-0201REMSYN082AAXX  14061 52533 32780 13202 10269 20017 38504 40067 57017 81100 333 05203 20119;EQDQ01  00002PRCP99
0122525330999992000081409004+39760+098470FM-12+1478ZLJQ V0201101N002012200019N0300001N1+02801+00061100511ADDGF101991011011017501001001MD1710171+0021REMSYN070AAXX  14091 52533 42780 11102 10280 20006 40051 57017 81100 333 05202;
0183525330999992000081412004+39760+098470FM-12+1478ZLJQ V0201101N002012200019N0300001N1+02541+00621100531ADDAA199000091GA1001+999999999GF100991001001999999001001MA1999999084811MD1710061+0031REMSYN070AAXX  14121 52533 32980 01102 10254 20062 38481 40053 57006 333 05302;EQDQ01  00002PRCP99
0122525330999992000081415004+39760+098470FM-12+1478ZLJQ V0202201N002012200019N0300001N1+02061+00601100531ADDGA1001+999999999GF100991001001999999001001MD1210081+9999REMSYN054AAXX  14151 52533 42980 02202 10206 20060 40053 52008;
0202525330999992000081418004+39760+098470FM-12+1478ZLJQ V0202701N002012200019N0300001N1+01661+00601100461ADDAA199000091GA1001+999999999GF100991001001999999001001KA1999M+02851MA1999999084821MD1710071-0301REMSYN076AAXX  14181 52533 32980 02702 10166 20060 38482 40046 57007 333 05352 10285;EQDQ01  00002PRCP99
0132525330999992000081421004+39760+098470FM-12+1478ZLJQ V0202201N003012200019N0300001N1+01401+00521100531ADDGA1001+999999999GF100991001001999999001001MD1210021+0031REMSYN064AAXX  14211 52533 42980 02203 10140 20052 40053 52002 333 05352;
0183525330999992000081500004+39760+098470FM-12+1478ZLJQ V0202201N001012200019N0300001N1+01481+00671100591ADDAA199000091GA1001+999999999GF100991001001999999001001MA1999999084851MD1210011+0031REMSYN070AAXX  15001 52533 32980 02201 10148 20067 38485 40059 52001 333 05351;EQDQ01  00002PRCP99
0112525330999992000081503004+39760+098470FM-12+1478ZLJQ V0200401N003012200019N0300001N1+02471+00301100441ADDGF101991001001999999001021MD1710011+9999REMSYN060AAXX  15031 52533 42980 10403 10247 20030 40044 57001 80002;
0192525330999992000081506004+39760+098470FM-12+1478ZLJQ V0200901N005012200019N0300001N1+02781+00331100251ADDAA199000091GF101991001001999999001021KA1999N+01201MA1999999084661MD1710181-0401REMSYN082AAXX  15061 52533 32980 10905 10278 20033 38466 40025 57018 80002 333 05401 20120;EQDQ01  00002PRCP99
0122525330999992000081509004+39760+098470FM-12+1478ZLJQ V0202001N002010900019N0300001N1+03021+00081100051ADDGF106991011011017501001021MD1710171+0041REMSYN070AAXX  15091 52533 42780 62002 10302 20008 40005 57017 81102 333 05402;
0173525330999992000081512004+39760+098470FM-12+1478ZLJQ V0203401N002019999999N0300001N1+02561+01051100201ADDAA199000091GF107991011001999999041021MA1999999084521MD1210031+0031REMSYN076AAXX  15121 52533 32980 73402 10256 20105 38452 40020 52003 81042 333 05300;EQDQ01  00002PRCP99
0112525330999992000081515004+39760+098470FM-12+1478ZLJQ V0203601N002019999999N0300001N1+02491+00151100101ADDGF108991021001999999041071MD1210141+9999REMSYN060AAXX  15151 52533 42980 83602 10249 20015 40010 52014 82047;
0192525330999992000081518004+39760+098470FM-12+1478ZLJQ V0202001N003019999999N0300001N1+02351+00301100091ADDAA199000091GF107991031001999999041021KA1999M+03041MA1999999084691MD1210031-0101REMSYN082AAXX  15181 52533 32980 72003 10235 20030 38469 40009 52003 83042 333 05107 10304;EQDQ01  00002PRCP99
0173525330999992000081600004+39760+098470FM-12+1478ZLJQ V0200901N002019999999N0300001N1+01891+00721100291ADDAA199000091GF107991021001999999041021MA1999999084701MD1210091+0021REMSYN076AAXX  16001 52533 32980 70902 10189 20072 38470 40029 52009 82042 333 05204;EQDQ01  00002PRCP99
0112525330999992000081603004+39760+098470FM-12+1478ZLJQ V0200901N005012200019N0300001N1+02401+01021100171ADDGF101991011011017501041021MD1410001+9999REMSYN060AAXX  16031 52533 42780 10905 10240 20102 40017 54000 81142;
0192525330999992000081606004+39760+098470FM-12+1478ZLJQ V0201601N001012200019N0300001N1+02841+00291100011ADDAA199000091GF102991021011017501001001KA1999N+01821MA1999999084641MD1710061+0001REMSYN082AAXX  16061 52533 32780 21601 10284 20029 38464 40001 57006 82100 333 00001 20182;EQDQ01  00002PRCP99
0122525330999992000081609004+39760+098470FM-12+1478ZLJQ V0203601N004012200019N0300001N1+02961+00341099951ADDGF102991021011017501001001MD1710121+0001REMSYN070AAXX  16091 52533 42780 23604 10296 20034 49995 57012 82100 333 00051;
0173525330999992000081612004+39760+098470FM-12+1478ZLJQ V0201601N001010900019N0300001N1+02541+00731100121ADDAA199000091GF105991031041017501001021MA1999999084551MD1210031+0001REMSYN076AAXX  16121 52533 32780 51601 10254 20073 38455 40012 52003 83402 333 00000;EQDQ01  00002PRCP99
0122525330999992000081615004+39760+098470FM-12+1478ZLJQ V0202701N002012200019N0300001N1+02121+00321100261ADDGA1001+999999999GF100991001001999999001001MD1210141+9999REMSYN054AAXX  16151 52533 42980 02702 10212 20032 40026 52014;
0202525330999992000081618004+39760+098470FM-12+1478ZLJQ V0202501N002012200019N0300001N1+02001+00171100191ADDAA199000091GA1001+999999999GF100991001001999999001001KA1999M+03041MA1999999084711MD1210021+0001REMSYN076AAXX  16181 52533 32980 02502 10200 20017 38471 40019 52002 333 00054 10304;EQDQ01  00002PRCP99
0132525330999992000081621004+39760+098470FM-12+1478ZLJQ V0202701N003012200019N0300001N1+01741+00191100281ADDGA1001+999999999GF100991001001999999001001MD1210041+0011REMSYN064AAXX  16211 52533 42980 02703 10174 20019 40028 52004 333 00152;
0173525330999992000081700004+39760+098470FM-12+1478ZLJQ V0202701N003012200019N0300001N1+01821+00261100511ADDAA199000091GF101991001001999999001021MA1999999084861MD1210111+0021REMSYN076AAXX  17001 52533 32980 12703 10182 20026 38486 40051 52011 80002 333 00251;EQDQ01  00002PRCP99
0122525330999992000081703004+39760+098470FM-12+1478ZLJQ V0203601N003012200019N0300001N1+02621+00271100441ADDGA1001+999999999GF100991001001999999001001MD1210031+9999REMSYN054AAXX  17031 52533 42980 03603 10262 20027 40044 52003;
0192525330999992000081706004+39760+098470FM-12+1478ZLJQ V0200201N003012200019N0300001N1+02931+00521100231ADDAA199000091GF101991011011017501001001KA1999N+01551MA1999999084761MD1710131+0101REMSYN082AAXX  17061 52533 32780 10203 10293 20052 38476 40023 57013 81100 333 00101 20155;EQDQ01  00002PRCP99
0122525330999992000081709004+39760+098470FM-12+1478ZLJQ V0201101N004012200019N0300001N1+02971+00111100121ADDGF101991011011017501001001MD1710141+0011REMSYN070AAXX  17091 52533 42780 11104 10297 20011 40012 57014 81100 333 00100;
0183525330999992000081712004+39760+098470FM-12+1478ZLJQ V0201601N003012200019N0300001N1+02581+00891100201ADDAA199000091GA1001+999999999GF100991001001999999001001MA1999999084611MD1710011+0011REMSYN070AAXX  17121 52533 32980 01603 10258 20089 38461 40020 57001 333 00100;EQDQ01  00002PRCP99
0122525330999992000081715004+39760+098470FM-12+1478ZLJQ V0202701N001012200019N0300001N1+01801+00921100231ADDGA1001+999999999GF100991001001999999001001MD1210031+9999REMSYN054AAXX  17151 52533 42980 02701 10180 20092 40023 52003;
0202525330999992000081718004+39760+098470FM-12+1478ZLJQ V0202001N002012200019N0300001N1+01601+00821100251ADDAA199000091GA1001+999999999GF100991001001999999001001KA1999M+03091MA1999999084681MD1210041+0001REMSYN076AAXX  17181 52533 32980 02002 10160 20082 38468 40025 52004 333 00054 10309;EQDQ01  00002PRCP99
0132525330999992000081721004+39760+098470FM-12+1478ZLJQ V0209999C000012200019N0300001N1+01441+00641100261ADDGA1001+999999999GF100991001001999999001001MD1710021+0011REMSYN064AAXX  17211 52533 42980 00000 10144 20064 40026 57002 333 05153;
0183525330999992000081800004+39760+098470FM-12+1478ZLJQ V0200201N001012200019N0300001N1+01521+00761100501ADDAA199000091GA1001+999999999GF100991001001999999001001MA1999999084791MD1210131+0011REMSYN070AAXX  18001 52533 32980 00201 10152 20076 38479 40050 52013 333 05153;EQDQ01  00002PRCP99
0192525330999992000081806004+39760+098470FM-12+1478ZLJQ V0200701N003012200019N0300001N1+02881+00551100371ADDAA199000091GF101991011011017501001001KA1999N+01211MA1999999084771MD1710151+0001REMSYN082AAXX  18061 52533 32780 10703 10288 20055 38477 40037 57015 81100 333 00051 20121;EQDQ01  00002PRCP99
0122525330999992000081809004+39760+098470FM-12+1478ZLJQ V0200901N004012200019N0300001N1+03091+00591100161ADDGF101991011011017501001001MD1710161+0001REMSYN070AAXX  18091 52533 42780 10904 10309 20059 40016 57016 81100 333 00001;
0173525330999992000081812004+39760+098470FM-12+1478ZLJQ V0200401N002012200019N0300001N1+02801+00791100231ADDAA199000091GF101991011041017501001021MA1999999084621MD1210011+0001REMSYN076AAXX  18121 52533 32780 10402 10280 20079 38462 40023 52001 81402 333 00002;EQDQ01  00002PRCP99
0112525330999992000081815004+39760+098470FM-12+1478ZLJQ V0201401N002012200019N0300001N1+02341+00401100271ADDGF101991001001999999001021MD1210141+9999REMSYN060AAXX  18151 52533 42980 11402 10234 20040 40027 52014 80002;
0202525330999992000081818004+39760+098470FM-12+1478ZLJQ V0202701N002012200019N0300001N1+01871+00791100261ADDAA199000091GA1001+999999999GF100991001001999999001001KA1999M+03091MA1999999084741MD1710021+0101REMSYN076AAXX  18181 52533 32980 02702 10187 20079 38474 40026 57002 333 00103 10309;EQDQ01  00002PRCP99
0132525330999992000081821004+39760+098470FM-12+1478ZLJQ V0203601N002012200019N0300001N1+01601+00771100221ADDGA1001+999999999GF100991001001999999001001MD1710041+0001REMSYN064AAXX  18211 52533 42980 03602 10160 20077 40022 57004 333 00002;
0173525330999992000081900004+39760+098470FM-12+1478ZLJQ V0202901N002019999999N0300001N1+01641+00841100471ADDAA199000091GF107991001001999999001021MA1999999084851MD1210151+0011REMSYN076AAXX  19001 52533 32980 72902 10164 20084 38485 40047 52015 80002 333 00101;EQDQ01  00002PRCP99
0112525330999992000081903004+39760+098470FM-12+1478ZLJQ V0201101N004019999999N0300001N1+02341+00911100451ADDGF106991001001999999001021MD1210041+9999REMSYN060AAXX  19031 52533 42980 61104 10234 20091 40045 52004 80002;
0192525330999992000081906004+39760+098470FM-12+1478ZLJQ V0201101N002019999999N0300001N1+02901+01001100201ADDAA199000091GF107991011001999999041021KA1999N+01401MA1999999084701MD1710191-0101REMSYN082AAXX  19061 52533 32980 71102 10290 20100 38470 40020 57019 81042 333 05100 20140;EQDQ01  00002PRCP99
0122525330999992000081909004+39760+098470FM-12+1478ZLJQ V0209999C000019999999N0300001N1+02981+01211100131ADDGF108991021001999999041071MD1710111+0001REMSYN070AAXX  19091 52533 42980 80000 10298 20121 40013 57011 82047 333 00051;
0173525330999992000081912004+39760+098470FM-12+1478ZLJQ V0203201N001019999999N0300001N1+02641+01641100271ADDAA199000091GF108991011001999999041071MA1999999084641MD1210051+0001REMSYN076AAXX  19121 52533 32980 83201 10264 20164 38464 40027 52005 81047 333 00052;EQDQ01  00002PRCP99
0124525330999992000081915004+39760+098470FM-12+1478ZLJQ V0202201N003019999999N0300001N1+02441+01261100361ADDGF108991081001999999071999MD1210201+9999MW1601REMSYN066AAXX  19151 52533 41980 82203 10244 20126 40036 52020 76000 8807/;
0199525330999992000081918004+39760+098470FM-12+1478ZLJQ V0202901N004019999999N0300001N1+02191+01101100331ADDAA106000791AY161061GF108991081001999999071999KA1999M+03011MA1999999084881MD1210041+0101MW1001REMSYN094AAXX  19181 52533 11980 82904 10219 20110 38488 40033 52004 69901 70060 8807/ 333 00103 10301;
0139525330999992000081921004+39760+098470FM-12+1478ZLJQ V0203201N003019999999N0200001N1+02051+01061100401ADDAA124000791GF108991031001999999031071MD1210051+0201REMSYN076AAXX  19211 52533 42970 83203 10205 20106 40040 52005 83037 333 00205 79999;
0186525330999992000082000004+39760+098470FM-12+1478ZLJQ V0202901N002019999999N0300001N1+01721+01221100771ADDAA106000591AY161061GF108991081001999999071999MA1999999085081MD1210151+0201MW1211REMSYN094AAXX  20001 52533 11980 82902 10172 20122 38508 40077 52015 69951 72160 8807/ 333 00201 70005;
0132525330999992000082003004+39760+098470FM-12+1478ZLJQ V0209999C000019999999N0300001N1+01851+01311100891ADDAY161031GF108991081001999999071999MD1210091+9999MW1211REMSYN066AAXX  20031 52533 41980 80000 10185 20131 40089 52009 72160 8807/;
0199525330999992000082006004+39760+098470FM-12+1478ZLJQ V0209999C000019999999N0300001N1+01881+01291100911ADDAA106000191AY161061GF108991081001999999071999KA1999N+01621MA1999999085131MD1710041+0401MW1001REMSYN094AAXX  20061 52533 11980 80000 10188 20129 38513 40091 57004 69911 70060 8807/ 333 00460 20162;
0142525330999992000082009004+39760+098470FM-12+1478ZLJQ V0203401N003019999999N0300001N1+01851+01201100911ADDAY161031GF108991081001999999021999MD1710041+0051MW1601REMSYN076AAXX  20091 52533 41980 83403 10185 20120 40091 57004 76060 8802/ 333 00561;
0180525330999992000082012004+39760+098470FM-12+1478ZLJQ V0202701N002019999999N0300001N1+01741+01331101111ADDAA106000391AY161061GF108991081001999999021999MA1999999085151MD1210061+0051MW1601REMSYN088AAXX  20121 52533 11980 82702 10174 20133 38515 40111 52006 69931 76060 8802/ 333 00559;
0140525330999992000082015004+39760+098470FM-12+1478ZLJQ V0202001N002019999999N0300001N1+01661+01241101151ADDAY161031AY261031GF108991081001999999021999MD1210041+9999MW1601REMSYN066AAXX  20151 52533 41980 82002 10166 20124 40115 52004 76066 8802/;
0207525330999992000082018004+39760+098470FM-12+1478ZLJQ V0209999C000019999999N0300001N1+01561+01411101091ADDAA106000891AY161061AY261061GF108991081001999999021999KA1999M+02221MA1999999085131MD1710061+0301MW1601REMSYN094AAXX  20181 52533 11980 80000 10156 20141 38513 40109 57006 69981 76066 8802/ 333 00356 10222;
0167525330999992000082021004+39760+098470FM-12+1478ZLJQ V0202901N003010360019N0200001N1+01511+01431101231ADDAA124002091AY161031AY261031GF108991011051017501021999MD1210091+0301MW1601REMSYN082AAXX  20211 52533 41770 82903 10151 20143 40123 52009 76066 8152/ 333 00355 70021;
0186525330999992000082100004+39760+098470FM-12+1478ZLJQ V0202701N002019999999N0200001N1+01601+01251101181ADDAA106000891AY161061GF108991051001999999031071MA1999999085181MD1710041+0101MW1001REMSYN094AAXX  21001 52533 11970 82702 10160 20125 38518 40118 57004 69971 70060 85037 333 00151 70019;
0112525330999992000082103004+39760+098470FM-12+1478ZLJQ V0202901N002019999999N0300001N1+02051+01141101161ADDGF107991051001999999031021MD1210071+9999REMSYN060AAXX  21031 52533 42980 72902 10205 20114 40116 52007 85032;
0173525330999992000082106004+39760+098470FM-12+1478ZLJQ V0203401N003012200019N0300001N1+02331+00941101021ADDAA199000021GF102991021011017501001021KA1999N+01451MA1999999085181MD1710071+0101REMSYN082AAXX  21061 52533 32780 23403 10233 20094 38518 40102 57007 82102 333 00105 20145;
0122525330999992000082109004+39760+098470FM-12+1478ZLJQ V0202001N003012200019N0300001N1+02341+00821100901ADDGF102991011091017501001021MD1710111+0001REMSYN070AAXX  21091 52533 42780 22003 10234 20082 40090 57011 81902 333 00005;
0173525330999992000082112004+39760+098470FM-12+1478ZLJQ V0202201N002012200019N0300001N1+02181+00821100921ADDAA199000091GF101991011041017501001001MA1999999085071MD1410001+0011REMSYN076AAXX  21121 52533 32780 12202 10218 20082 38507 40092 54000 81400 333 05104;EQDQ01  00002PRCP99
0122525330999992000082115004+39760+098470FM-12+1478ZLJQ V0202201N002012200019N0300001N1+01771+00921101031ADDGA1001+999999999GF100991001001999999001001MD1210101+9999REMSYN054AAXX  21151 52533 42980 02202 10177 20092 40103 52010;
0202525330999992000082118004+39760+098470FM-12+1478ZLJQ V0202701N002012200019N0300001N1+01461+00861101041ADDAA199000091GA1001+999999999GF100991001001999999001001KA1999M+02521MA1999999085171MD1410001+0001REMSYN076AAXX  21181 52533 32980 02702 10146 20086 38517 40104 54000 333 00051 10252;EQDQ01  00002PRCP99
0149525330999992000082121004+39760+098470FM-12+1478ZLJQ V0209999C000012200019N0300001N1+01351+00751101061ADDAA124000391GA1001+999999999GF100991001001999999001001MD1710011-0101REMSYN070AAXX  21211 52533 42980 00000 10135 20075 40106 57001 333 05152 70003;
0183525330999992000082200004+39760+098470FM-12+1478ZLJQ V0202201N003012200019N0300001N1+01471+00811101211ADDAA199000091GA1001+999999999GF100991001001999999001001MA1999999085281MD1210121+0011REMSYN070AAXX  22001 52533 32980 02203 10147 20081 38528 40121 52012 333 00151;EQDQ01  00002PRCP99
0122525330999992000082203004+39760+098470FM-12+1478ZLJQ V0203401N002012200019N0300001N1+02431+00781101111ADDGA1001+999999999GF100991001001999999001001MD1210051+9999REMSYN054AAXX  22031 52533 42980 03402 10243 20078 40111 52005;
0202525330999992000082206004+39760+098470FM-12+1478ZLJQ V0201101N004012200019N0300001N1+02601+00321101061ADDAA199000091GA1001+999999999GF100991001001999999001001KA1999N+01031MA1999999085251MD1710081+0101REMSYN076AAXX  22061 52533 32980 01104 10260 20032 38525 40106 57008 333 00103 20103;EQDQ01  00002PRCP99
0132525330999992000082209004+39760+098470FM-12+1478ZLJQ V0201101N004012200019N0300001N1+02701+00391100821ADDGA1001+999999999GF100991001001999999001001MD1710201+0001REMSYN064AAXX  22091 52533 42980 01104 10270 20039 40082 57020 333 00004;
0173525330999992000082212004+39760+098470FM-12+1478ZLJQ V0200701N002012200019N0300001N1+02401+01021100831ADDAA199000091GF102991001001999999001021MA1999999085011MD1710041+0011REMSYN076AAXX  22121 52533 32980 20702 10240 20102 38501 40083 57004 80002 333 05102;EQDQ01  00002PRCP99
0122525330999992000082215004+39760+098470FM-12+1478ZLJQ V0202501N002012200019N0300001N1+01651+00901100901ADDGA1001+999999999GF100991001001999999001001MD1210111+9999REMSYN054AAXX  22151 52533 42980 02502 10165 20090 40090 52011;
0192525330999992000082218004+39760+098470FM-12+1478ZLJQ V0202701N001012200019N0300001N1+01601+00751100791ADDAA199000091GF101991001001999999001021KA1999M+02761MA1999999085061MD1710061-0101REMSYN082AAXX  22181 52533 32980 12701 10160 20075 38506 40079 57006 80002 333 05101 10276;EQDQ01  00002PRCP99
0122525330999992000082221004+39760+098470FM-12+1478ZLJQ V0202201N002019999999N0300001N1+01541+00811100731ADDGF107991001001999999001021MD1710041+0011REMSYN070AAXX  22211 52533 42980 72202 10154 20081 40073 57004 80002 333 05102;
0173525330999992000082300004+39760+098470FM-12+1478ZLJQ V0202001N001019999999N0300001N1+01611+00931100941ADDAA199000091GF107991021001999999041021MA1999999085141MD1210121+0011REMSYN076AAXX  23001 52533 32980 72001 10161 20093 38514 40094 52012 82042 333 05101;EQDQ01  00002PRCP99
0112525330999992000082303004+39760+098470FM-12+1478ZLJQ V0200701N002019999999N0300001N1+02401+00631100941ADDGF107991061001999999031021MD1210011+9999REMSYN060AAXX  23031 52533 42980 70702 10240 20063 40094 52001 86032;
0192525330999992000082306004+39760+098470FM-12+1478ZLJQ V0200901N004012200019N0300001N1+02701+00671100701ADDAA199000091GF101991011011017501001021KA1999N+01431MA1999999085011MD1710141-0201REMSYN082AAXX  23061 52533 32780 10904 10270 20067 38501 40070 57014 81102 333 05201 20143;EQDQ01  00002PRCP99
0122525330999992000082309004+39760+098470FM-12+1478ZLJQ V0201101N002010900019N0300001N1+02841+00411100491ADDGF106991011041017501001021MD1710161+0021REMSYN070AAXX  23091 52533 42780 61102 10284 20041 40049 57016 81402 333 05201;
0173525330999992000082312004+39760+098470FM-12+1478ZLJQ V0200401N001019999999N0300001N1+02541+01311100571ADDAA199000091GF107991061001999999031021MA1999999084861MD1210011+0021REMSYN076AAXX  23121 52533 32980 70401 10254 20131 38486 40057 52001 86032 333 05201;EQDQ01  00002PRCP99
0112525330999992000082315004+39760+098470FM-12+1478ZLJQ V0202701N002019999999N0300001N1+01981+01001100551ADDGF107991021001999999041021MD1210041+9999REMSYN060AAXX  23151 52533 42980 72702 10198 20100 40055 52004 82042;
0192525330999992000082318004+39760+098470FM-12+1478ZLJQ V0201801N002019999999N0300001N1+01701+01171100531ADDAA199000091GF107991021001999999041021KA1999M+02881MA1999999084891MD1710011-0201REMSYN082AAXX  23181 52533 32980 71802 10170 20117 38489 40053 57001 82042 333 05201 10288;EQDQ01  00002PRCP99
0122525330999992000082321004+39760+098470FM-12+1478ZLJQ V0203201N002019999999N0300001N1+01861+00881100421ADDGF107991011001999999041021MD1710021+0021REMSYN070AAXX  23211 52533 42980 73202 10186 20088 40042 57002 81042 333 05203;
0173525330999992000082400004+39760+098470FM-12+1478ZLJQ V0202501N001019999999N0300001N1+01761+00891100651ADDAA199000091GF107991021001999999041021MA1999999084971MD1210101+0021REMSYN076AAXX  24001 52533 32980 72501 10176 20089 38497 40065 52010 82042 333 05202;EQDQ01  00002PRCP99
0112525330999992000082403004+39760+098470FM-12+1478ZLJQ V0203401N002019999999N0300001N1+02461+00751100641ADDGF107991011001999999041021MD1210021+9999REMSYN060AAXX  24031 52533 42980 73402 10246 20075 40064 52002 81042;
0192525330999992000082406004+39760+098470FM-12+1478ZLJQ V0201101N004012200019N0300001N1+02801+00861100471ADDAA199000091GF102991011011017501041021KA1999N+01581MA1999999084861MD1710131-0201REMSYN082AAXX  24061 52533 32780 21104 10280 20086 38486 40047 57013 81142 333 05201 20158;EQDQ01  00002PRCP99
0122525330999992000082409004+39760+098470FM-12+1478ZLJQ V0200401N003012200019N0300001N1+02931+00751100221ADDGF101991011011017501001001MD1710141+0011REMSYN070AAXX  24091 52533 42780 10403 10293 20075 40022 57014 81100 333 05101;
0173525330999992000082412004+39760+098470FM-12+1478ZLJQ V0209999C000010900019N0300001N1+02601+01311100351ADDAA199000091GF107991031041017501001021MA1999999084731MD1210011+0011REMSYN076AAXX  24121 52533 32780 70000 10260 20131 38473 40035 52001 83402 333 05101;EQDQ01  00002PRCP99
0112525330999992000082415004+39760+098470FM-12+1478ZLJQ V0202001N002019999999N0300001N1+01991+01341100471ADDGF105991001001999999001021MD1210121+9999REMSYN060AAXX  24151 52533 42980 52002 10199 20134 40047 52012 80002;
0192525330999992000082418004+39760+098470FM-12+1478ZLJQ V0202201N002012200019N0300001N1+01961+01131100381ADDAA199000091GF101991001001999999001021KA1999M+03021MA1999999084851MD1410001+0001REMSYN082AAXX  24181 52533 32980 12202 10196 20113 38485 40038 54000 80002 333 00003 10302;EQDQ01  00002PRCP99
0122525330999992000082421004+39760+098470FM-12+1478ZLJQ V0203201N006019999999N0300001N1+02151+00581100561ADDGF107991071001999999031021MD1210231+0021REMSYN070AAXX  24211 52533 42980 73206 10215 20058 40056 52023 87032 333 00203;
0173525330999992000082500004+39760+098470FM-12+1478ZLJQ V0209999C000019999999N0300001N1+01811+00881101001ADDAA199000091GF107991051001999999031021MA1999999085291MD1210211+0031REMSYN076AAXX  25001 52533 32980 70000 10181 20088 38529 40100 52021 85032 333 00301;EQDQ01  00002PRCP99
0112525330999992000082503004+39760+098470FM-12+1478ZLJQ V0200201N003010150019N0120001N1+02201+00801101161ADDGF106991051051017501001021MD1210081+9999REMSYN060AAXX  25031 52533 42762 60203 10220 20080 40116 52008 85502;
0202525330999992000082506004+39760+098470FM-12+1478ZLJQ V0200401N003012200019N0120001N1+02551+00791100931ADDAA199000091GA1001+999999999GF100991001001999999001001KA1999N+01561MA1999999085251MD1710121+0401REMSYN076AAXX  25061 52533 32962 00403 10255 20079 38525 40093 57012 333 00453 20156;EQDQ01  00002PRCP99
0122525330999992000082509004+39760+098470FM-12+1478ZLJQ V0201801N002012200019N0200001N1+02621+00901100641ADDGF103991031011017501001001MD1710181+0041REMSYN070AAXX  25091 52533 42770 31802 10262 20090 40064 57018 83100 333 00453;
0173525330999992000082512004+39760+098470FM-12+1478ZLJQ V0203201N003012200019N0300001N1+02501+00531100761ADDAA199000091GF101991011041017501001001MA1999999085061MD1710011+0031REMSYN076AAXX  25121 52533 32780 13203 10250 20053 38506 40076 57001 81400 333 00351;EQDQ01  00002PRCP99
0122525330999992000082515004+39760+098470FM-12+1478ZLJQ V0202901N005012200019N0300001N1+02261+00191100801ADDGA1001+999999999GF100991001001999999001001MD1210071+9999REMSYN054AAXX  25151 52533 42980 02905 10226 20019 40080 52007;
0202525330999992000082518004+39760+098470FM-12+1478ZLJQ V0203401N002012200019N0300001N1+01701+00321100991ADDAA199000091GA1001+999999999GF100991001001999999001001KA1999M+02731MA1999999085241MD1210111+0401REMSYN076AAXX  25181 52533 32980 03402 10170 20032 38524 40099 52011 333 00453 10273;EQDQ01  00002PRCP99
0132525330999992000082521004+39760+098470FM-12+1478ZLJQ V0202901N001012200019N0300001N1+01301+00381101171ADDGA1001+999999999GF100991001001999999001001MD1210071+0021REMSYN064AAXX  25211 52533 42980 02901 10130 20038 40117 52007 333 00259;
0183525330999992000082600004+39760+098470FM-12+1478ZLJQ V0203201N002012200019N0300001N1+01351+00241101261ADDAA199000091GA1001+999999999GF100991001001999999001001MA1999999085371MD1210061+0011REMSYN070AAXX  26001 52533 32980 03202 10135 20024 38537 40126 52006 333 00155;EQDQ01  00002PRCP99
0122525330999992000082603004+39760+098470FM-12+1478ZLJQ V0200401N002012200019N0300001N1+02041+00101101101ADDGA1001+999999999GF100991001001999999001001MD1710021+9999REMSYN054AAXX  26031 52533 42980 00402 10204 20010 40110 57002;
0202525330999992000082606004+39760+098470FM-12+1478ZLJQ V0200201N002012200019N0300001N1+02301+00321100981ADDAA199000091GA1001+999999999GF100991001001999999001001KA1999N+01161MA1999999085171MD1710181-0101REMSYN076AAXX  26061 52533 32980 00202 10230 20032 38517 40098 57018 333 05153 20116;EQDQ01  00002PRCP99
0132525330999992000082609004+39760+098470FM-12+1478ZLJQ V0200201N002012200019N0300001N1+02561+00371100831ADDGA1001+999999999GF100991001001999999001001MD1710161+0011REMSYN064AAXX  26091 52533 42980 00202 10256 20037 40083 57016 333 05151;
0173525330999992000082612004+39760+098470FM-12+1478ZLJQ V0201101N002012200019N0300001N1+02051+00981100961ADDAA199000091GF101991001001999999001021MA1999999085011MD1410001+0011REMSYN076AAXX  26121 52533 32980 11102 10205 20098 38501 40096 54000 80002 333 05155;EQDQ01  00002PRCP99
0122525330999992000082615004+39760+098470FM-12+1478ZLJQ V0202201N002012200019N0300001N1+01631+00601101031ADDGA1001+999999999GF100991001001999999001001MD1210121+9999REMSYN054AAXX  26151 52533 42980 02202 10163 20060 40103 52012;
0202525330999992000082618004+39760+098470FM-12+1478ZLJQ V0202201N002012200019N0300001N1+01431+00051101201ADDAA199000091GA1001+999999999GF100991001001999999001001KA1999M+02621MA1999999085291MD1210161+0101REMSYN076AAXX  26181 52533 32980 02202 10143 20005 38529 40120 52016 333 00153 10262;EQDQ01  00002PRCP99
0132525330999992000082621004+39760+098470FM-12+1478ZLJQ V0202901N002012200019N0300001N1+01101-00071101241ADDGA1001+999999999GF100991001001999999001001MD1210021+0001REMSYN064AAXX  26211 52533 42980 02902 10110 21007 40124 52002 333 00052;
0201525330999992000082700004+39760+098470FM-12+1478ZLJQ V0202201N002012200019N0300001N1+01031+00311101431ADDAA199000091GA1001+999999999GF100991001001999999001001IA2999+00209MA1999999085321MD1210011-0101REMSYN076AAXX  27001 52533 32980 02202 10103 20031 38532 40143 52001 333 05153 30025;EQDQ01  00002PRCP99
0107525330999992000082703004+39760+098470FM-12+1478ZLJQ V0200401N002012200019N0300001N1+02001+99999999999ADDGA1001+999999999GF100991001001999999001001REMSYN053AAXX  27031 52533 42980 00402 10200 0000 40119 57006;
0202525330999992000082706004+39760+098470FM-12+1478ZLJQ V0200701N003012200019N0300001N1+02281-00011101001ADDAA199000091GA1001+999999999GF100991001001999999001001KA1999N+00741MA1999999085121MD1710141-0101REMSYN076AAXX  27061 52533 32980 00703 10228 21001 38512 40100 57014 333 05100 20074;EQDQ01  00002PRCP99
0132525330999992000082709004+39760+098470FM-12+1478ZLJQ V0200901N003012200019N0300001N1+02501-00091100821ADDGA1001+999999999GF100991001001999999001001MD1710181+0011REMSYN064AAXX  27091 52533 42980 00903 10250 21009 40082 57018 333 05151;
0183525330999992000082712004+39760+098470FM-12+1478ZLJQ V0201401N002012200019N0300001N1+02081+00501100971ADDAA199000091GA1001+999999999GF100991001001999999001001MA1999999084941MD1410001+0011REMSYN070AAXX  27121 52533 32980 01402 10208 20050 38494 40097 54000 333 05100;EQDQ01  00002PRCP99
0122525330999992000082715004+39760+098470FM-12+1478ZLJQ V0202201N002012200019N0300001N1+01861-00021100831ADDGA1001+999999999GF100991001001999999001001MD1210071+9999REMSYN054AAXX  27151 52533 42980 02202 10186 21002 40083 52007;
0202525330999992000082718004+39760+098470FM-12+1478ZLJQ V0209999C000012200019N0300001N1+01181+00221100971ADDAA199000091GA1001+999999999GF100991001001999999001001KA1999M+02571MA1999999085031MD1210021-0301REMSYN076AAXX  27181 52533 32980 00000 10118 20022 38503 40097 52002 333 05353 10257;EQDQ01  00002PRCP99
0132525330999992000082721004+39760+098470FM-12+1478ZLJQ V0202901N002012200019N0300001N1+01031-00041100901ADDGA1001+999999999GF100991001001999999001001MD1710041+0031REMSYN064AAXX  27211 52533 42980 02902 10103 21004 40090 57004 333 05351;
0201525330999992000082800004+39760+098470FM-12+1478ZLJQ V0202201N002012200019N0300001N1+01181+00061100981ADDAA199000091GA1001+999999999GF100991001001999999001001IA2999+00309MA1999999084991MD1410001-0301REMSYN076AAXX  28001 52533 32980 02202 10118 20006 38499 40098 54000 333 05302 30034;EQDQ01  00002PRCP99
0122525330999992000082803004+39760+098470FM-12+1478ZLJQ V0200701N003012200019N0300001N1+02101+00341100801ADDGA1001+999999999GF100991001001999999001001MD1210021+9999REMSYN054AAXX  28031 52533 42980 00703 10210 20034 40080 52002;
0192525330999992000082806004+39760+098470FM-12+1478ZLJQ V0203401N003012200019N0300001N1+02631-00101100711ADDAA199000091GF101991011011017501001001KA1999N+00821MA1999999084901MD1710111-0201REMSYN082AAXX  28061 52533 32780 13403 10263 21010 38490 40071 57011 81100 333 05204 20082;EQDQ01  00002PRCP99
0122525330999992000082809004+39760+098470FM-12+1478ZLJQ V0203401N004012200019N0300001N1+02771-00131100541ADDGF101991011011017501001001MD1710151+0021REMSYN070AAXX  28091 52533 42780 13404 10277 21013 40054 57015 81100 333 05203;
0173525330999992000082812004+39760+098470FM-12+1478ZLJQ V0201801N002012200019N0300001N1+02261+00491100641ADDAA199000091GF101991011041017501001021MA1999999084751MD1410001+0021REMSYN076AAXX  28121 52533 32780 11802 10226 20049 38475 40064 54000 81402 333 05202;EQDQ01  00002PRCP99
0122525330999992000082815004+39760+098470FM-12+1478ZLJQ V0202501N002012200019N0300001N1+01841-00161100541ADDGA1001+999999999GF100991001001999999001001MD1210041+9999REMSYN054AAXX  28151 52533 42980 02502 10184 21016 40054 52004;
0202525330999992000082818004+39760+098470FM-12+1478ZLJQ V0202501N003012200019N0300001N1+01661-00181100351ADDAA199000091GA1001+999999999GF100991001001999999001001KA1999M+02801MA1999999084711MD1710081-0301REMSYN076AAXX  28181 52533 32980 02503 10166 21018 38471 40035 57008 333 05305 10280;EQDQ01  00002PRCP99
0132525330999992000082821004+39760+098470FM-12+1478ZLJQ V0202001N003012200019N0300001N1+01421-00061100281ADDGA1001+999999999GF100991001001999999001001MD1710081+0041REMSYN064AAXX  28211 52533 42980 02003 10142 21006 40028 57008 333 05404;
0173525330999992000082900004+39760+098470FM-12+1478ZLJQ V0202201N002012200019N0300001N1+01571+00151100431ADDAA199000091GF101991001001999999001021MA1999999084671MD1210041+0031REMSYN076AAXX  29001 52533 32980 12202 10157 20015 38467 40043 52004 80002 333 05304;EQDQ01  00002PRCP99
0112525330999992000082903004+39760+098470FM-12+1478ZLJQ V0200201N004012200019N0300001N1+02651+00451100261ADDGF104991011011017501001021MD1210011+9999REMSYN060AAXX  29031 52533 42780 40204 10265 20045 40026 52001 81102;
0192525330999992000082906004+39760+098470FM-12+1478ZLJQ V0203401N004010900019N0300001N1+02691-00031100191ADDAA199000091GF106991021011017501001021KA1999N+01141MA1999999084591MD1710091-0301REMSYN082AAXX  29061 52533 32780 63404 10269 21003 38459 40019 57009 82102 333 05301 20114;EQDQ01  00002PRCP99
0122525330999992000082909004+39760+098470FM-12+1478ZLJQ V0209999C000010900019N0300001N1+02771+00691100081ADDGF105991021011017501001021MD1710131+0031REMSYN070AAXX  29091 52533 42780 50000 10277 20069 40008 57013 82102 333 05300;
0173525330999992000082912004+39760+098470FM-12+1478ZLJQ V0201601N002012200019N0300001N1+02241+00621100111ADDAA199000091GF101991011041017501001001MA1999999084391MD1710071+0041REMSYN076AAXX  29121 52533 32780 11602 10224 20062 38439 40011 57007 81400 333 05400;EQDQ01  00002PRCP99
0122525330999992000082915004+39760+098470FM-12+1478ZLJQ V0202201N003012200019N0300001N1+01981+00381099921ADDGA1001+999999999GF100991001001999999001001MD1210041+9999REMSYN054AAXX  29151 52533 42980 02203 10198 20038 49992 52004;
0202525330999992000082918004+39760+098470FM-12+1478ZLJQ V0202501N002012200019N0300001N1+01671+00251099881ADDAA199000091GA1001+999999999GF100991001001999999001001KA1999M+02841MA1999999084331MD1710101-0401REMSYN076AAXX  29181 52533 32980 02502 10167 20025 38433 49988 57010 333 05400 10284;EQDQ01  00002PRCP99
0132525330999992000082921004+39760+098470FM-12+1478ZLJQ V0202201N002012200019N0300001N1+01581+00231099731ADDGA1001+999999999GF100991001001999999001001MD1710131+0041REMSYN064AAXX  29211 52533 42980 02202 10158 20023 49973 57013 333 05402;
0173525330999992000083000004+39760+098470FM-12+1478ZLJQ V0202201N002010900019N0300001N1+01481+00651100061ADDAA199000091GF106991021041017501001021MA1999999084331MD1210131+0031REMSYN076AAXX  30001 52533 32780 62202 10148 20065 38433 40006 52013 82402 333 05351;EQDQ01  00002PRCP99
0112525330999992000083003004+39760+098470FM-12+1478ZLJQ V0200901N002012200019N0300001N1+02501+00331099881ADDGF101991011011017501001001MD1210031+9999REMSYN060AAXX  30031 52533 42780 10902 10250 20033 49988 52003 81100;
0192525330999992000083006004+39760+098470FM-12+1478ZLJQ V0201401N003012200019N0300001N1+02901+00291099701ADDAA199000091GF101991011011017501001001KA1999N+01321MA1999999084231MD1710131-0401REMSYN082AAXX  30061 52533 32780 11403 10290 20029 38423 49970 57013 81100 333 05402 20132;EQDQ01  00002PRCP99
0122525330999992000083009004+39760+098470FM-12+1478ZLJQ V0202201N001012200019N0300001N1+03041+00211099501ADDGF101991011011017501001001MD1710161+0041REMSYN070AAXX  30091 52533 42780 12201 10304 20021 49950 57016 81100 333 05403;
0173525330999992000083012004+39760+098470FM-12+1478ZLJQ V0201801N001012200019N0300001N1+02371+01231099711ADDAA199000091GF101991011041017501001001MA1999999084061MD1710011+0031REMSYN076AAXX  30121 52533 32780 11801 10237 20123 38406 49971 57001 81400 333 05301;EQDQ01  00002PRCP99
0122525330999992000083015004+39760+098470FM-12+1478ZLJQ V0202001N003012200019N0300001N1+02071+00381099621ADDGA1001+999999999GF100991001001999999001001MD1210101+9999REMSYN054AAXX  30151 52533 42980 02003 10207 20038 49962 52010;
0202525330999992000083018004+39760+098470FM-12+1478ZLJQ V0202501N002012200019N0300001N1+01741+00471099521ADDAA199000091GA1001+999999999GF100991001001999999001001KA1999M+03131MA1999999084091MD1710071-0201REMSYN076AAXX  30181 52533 32980 02502 10174 20047 38409 49952 57007 333 05201 10313;EQDQ01  00002PRCP99
0132525330999992000083021004+39760+098470FM-12+1478ZLJQ V0202501N002012200019N0300001N1+01751+00241099401ADDGA1001+999999999GF100991001001999999001001MD1710061+0021REMSYN064AAXX  30211 52533 42980 02502 10175 20024 49940 57006 333 05202;
0173525330999992000083100004+39760+098470FM-12+1478ZLJQ V0202701N003012200019N0300001N1+01601+00521099821ADDAA199000091GF101991001001999999001021MA1999999084191MD1210161+0011REMSYN076AAXX  31001 52533 32980 12703 10160 20052 38419 49982 52016 80002 333 05101;EQDQ01  00002PRCP99
0112525330999992000083103004+39760+098470FM-12+1478ZLJQ V0200201N003012200019N0300001N1+02601+00211099611ADDGF101991011011017501001001MD1710011+9999REMSYN060AAXX  31031 52533 42780 10203 10260 20021 49961 57001 81100;
0192525330999992000083106004+39760+098470FM-12+1478ZLJQ V0200401N003012200019N0300001N1+02981+00041099511ADDAA199000091GF101991011011017501001001KA1999N+01191MA1999999084101MD1710081-0101REMSYN082AAXX  31061 52533 32780 10403 10298 20004 38410 49951 57008 81100 333 05101 20119;EQDQ01  00002PRCP99
0122525330999992000083109004+39760+098470FM-12+1478ZLJQ V0200701N001012200019N0300001N1+03181+00341099371ADDGF101991011041017501001021MD1710071+0001REMSYN070AAXX  31091 52533 42780 10701 10318 20034 49937 57007 81402 333 00001;
0173525330999992000083112004+39760+098470FM-12+1478ZLJQ V0209999C000010900019N0300001N1+02681+01582099541ADDAA199000091GF106991021041017501001021MA1999999084021MD1710011+0001REMSYN076AAXX  31121 52533 32780 60000 10268 20158 38402 49954 57001 82402 333 00003;EQDQ01  00002PRCP99
0112525330999992000083115004+39760+098470FM-12+1478ZLJQ V0202201N002010900019N0300001N1+02201+00951099461ADDGF107991011041017501001021MD1210061+9999REMSYN060AAXX  31151 52533 42780 72202 10220 20095 49946 52006 81402;
0202525330999992000083118004+39760+098470FM-12+1478ZLJQ V0200201N002012200019N0300001N1+02121+00211099291ADDAA199000091GA1001+999999999GF100991001001999999001001KA1999M+03241MA1999999084011MD1710071-0101REMSYN076AAXX  31181 52533 32980 00202 10212 20021 38401 49929 57007 333 05104 10324;EQDQ01  00002PRCP99
0132525330999992000083121004+39760+098470FM-12+1478ZLJQ V0203201N002012200019N0300001N1+01561+00441099311ADDGA1001+999999999GF100991001001999999001001MD1710071+0011REMSYN064AAXX  31211 52533 42980 03202 10156 20044 49931 57007 333 05152;
0173525330999992000090100004+39760+098470FM-12+1478ZLJQ V0202501N002012200019N0300001N1+01621+00581099511ADDAA199000091GF102991001001999999001021MA1999999084001MD1210061+0021REMSYN076AAXX  01001 52533 32980 22502 10162 20058 38400 49951 52006 80002 333 05200;EQDQ01  00002PRCP99
0112525330999992000090103004+39760+098470FM-12+1478ZLJQ V0203401N003019999999N0300001N1+02301+00671099481ADDGF108991001001999999001071MD1210031+9999REMSYN060AAXX  01031 52533 42980 83403 10230 20067 49948 52003 80007;
0192525330999992000090106004+39760+098470FM-12+1478ZLJQ V0200901N002019999999N0300001N1+02611+00451099351ADDAA199000091GF107991011001999999041021KA1999N+01501MA1999999083971MD1710061-0101REMSYN082AAXX  01061 52533 32980 70902 10261 20045 38397 49935 57006 81042 333 05154 20150;EQDQ01  00002PRCP99
0122525330999992000090109004+39760+098470FM-12+1478ZLJQ V0203401N003019999999N0300001N1+02841+00811099441ADDGF107991031001999999041021MD1410001+0011REMSYN070AAXX  01091 52533 42980 73403 10284 20081 49944 54000 83042 333 05153;
0173525330999992000090112004+39760+098470FM-12+1478ZLJQ V0203201N005019999999N0300001N1+02641+00411099731ADDAA199000091GF108991061001999999031071MA1999999084181MD1210211+0021REMSYN076AAXX  01121 52533 32980 83205 10264 20041 38418 49973 52021 86037 333 00200;EQDQ01  00002PRCP99
0112525330999992000090115004+39760+098470FM-12+1478ZLJQ V0203201N003019999999N0300001N1+01961+00281100171ADDGF108991081001999999021999MD1210371+9999REMSYN060AAXX  01151 52533 42980 83203 10196 20028 40017 52037 8802/;
0192525330999992000090118004+39760+098470FM-12+1478ZLJQ V0203401N003019999999N0300001N1+01621+00261100381ADDAA199000091GF108991081001999999021999KA1999M+02961MA1999999084721MD1210171+0701REMSYN082AAXX  01181 52533 32980 83403 10162 20026 38472 40038 52017 8802/ 333 00755 10296;EQDQ01  00002PRCP99
0122525330999992000090121004+39760+098470FM-12+1478ZLJQ V0203401N004012200019N0300001N1+01151+00011100701ADDGF102991011001999999041021MD1210211+0101REMSYN070AAXX  01211 52533 42980 23404 10115 20001 40070 52021 81042 333 01054;
0173525330999992000090200004+39760+098470FM-12+1478ZLJQ V0203201N002012200019N0300001N1+01001+00201101001ADDAA199000091GF102991011001999999041021MA1999999085101MD1210171+0111REMSYN076AAXX  02001 52533 32980 23202 10100 20020 38510 40100 52017 81042 333 01156;EQDQ01  00002PRCP99
0122525330999992000090203004+39760+098470FM-12+1478ZLJQ V0203401N004012200019N0300001N1+01461+00001101141ADDGA1001+999999999GF100991001001999999001001MD1210061+9999REMSYN054AAXX  02031 52533 42980 03404 10146 20000 40114 52006;
0192525330999992000090206004+39760+098470FM-12+1478ZLJQ V0200201N002012200019N0300001N1+01851+00091100971ADDAA199000091GF101991001001999999001021KA1999N+00971MA1999999085031MD1710131+1101REMSYN082AAXX  02061 52533 32980 10202 10185 20009 38503 40097 57013 80002 333 01158 20097;EQDQ01  00002PRCP99
0122525330999992000090209004+39760+098470FM-12+1478ZLJQ V0200401N003012200019N0300001N1+02151+00241100961ADDGF102991021001999999041021MD1710051+0101REMSYN070AAXX  02091 52533 42980 20403 10215 20024 40096 57005 82042 333 01057;
0173525330999992000090212004+39760+098470FM-12+1478ZLJQ V0201401N002019999999N0300001N1+01851+00621101221ADDAA199000091GF107991021001999999041021MA1999999085091MD1210111+0091REMSYN076AAXX  02121 52533 32980 71402 10185 20062 38509 40122 52011 82042 333 00958;EQDQ01  00002PRCP99
0112525330999992000090215004+39760+098470FM-12+1478ZLJQ V0201401N002019999999N0300001N1+01741+00731101211ADDGF107991011001999999041021MD1210081+9999REMSYN060AAXX  02151 52533 42980 71402 10174 20073 40121 52008 81042;
0192525330999992000090218004+39760+098470FM-12+1478ZLJQ V0200701N003019999999N0300001N1+01641-00341101221ADDAA199000091GF107991001001999999001021KA1999M+02221MA1999999085251MD1210081+0501REMSYN082AAXX  02181 52533 32980 70703 10164 21034 38525 40122 52008 80002 333 00500 10222;EQDQ01  00002PRCP99
0122525330999992000090221004+39760+098470FM-12+1478ZLJQ V0200401N002019999999N0300001N1+01261+00051101341ADDGF107991021001999999041021MD1210081+0041REMSYN070AAXX  02211 52533 42980 70402 10126 20005 40134 52008 82042 333 00401;
0173525330999992000090300004+39760+098470FM-12+1478ZLJQ V0200401N002019999999N0300001N1+01341-00731101601ADDAA199000091GF107991071001999999031999MA1999999085491MD1210161+0041REMSYN076AAXX  03001 52533 32980 70402 10134 21073 38549 40160 52016 8703/ 333 00403;EQDQ01  00002PRCP99
0112525330999992000090303004+39760+098470FM-12+1478ZLJQ V0200901N004019999999N0300001N1+01491-00631101691ADDGF107991071001999999031999MD1210091+9999REMSYN060AAXX  03031 52533 42980 70904 10149 21063 40169 52009 8703/;
0192525330999992000090306004+39760+098470FM-12+1478ZLJQ V0200901N005012200019N0300001N1+01821-00501101461ADDAA199000091GF101991001001999999001021KA1999N+01191MA1999999085441MD1710141+0401REMSYN082AAXX  03061 52533 32980 10905 10182 21050 38544 40146 57014 80002 333 00400 20119;EQDQ01  00002PRCP99
0122525330999992000090309004+39760+098470FM-12+1478ZLJQ V0200901N005019999999N0300001N1+01941-00351101391ADDGF107991021001999999041021MD1710121+0031REMSYN070AAXX  03091 52533 42980 70905 10194 21035 40139 57012 82042 333 00352;
0173525330999992000090312004+39760+098470FM-12+1478ZLJQ V0200401N002019999999N0300001N1+01751-00061101611ADDAA199000091GF107991061001999999041021MA1999999085481MD1210161+0041REMSYN076AAXX  03121 52533 32980 70402 10175 21006 38548 40161 52016 86042 333 00451;EQDQ01  00002PRCP99
0112525330999992000090315004+39760+098470FM-12+1478ZLJQ V0201401N002019999999N0300001N1+01421+00031101821ADDGF107991011001999999041021MD1210131+9999REMSYN060AAXX  03151 52533 42980 71402 10142 20003 40182 52013 81042;
0202525330999992000090318004+39760+098470FM-12+1478ZLJQ V0202901N001012200019N0300001N1+01001+00321101781ADDAA199000091GA1001+999999999GF100991001001999999001001KA1999M+02021MA1999999085551MD1710061+0301REMSYN076AAXX  03181 52533 32980 02901 10100 20032 38555 40178 57006 333 00356 10202;EQDQ01  00002PRCP99
0117525330999992000090321004+39760+098470FM-12+1478ZLJQ V0209999C000012200019N0300001N1+00761+00351999999ADDGA1001+999999999GF100991001001999999001001REMSYN063AAXX  03211 52533 42980 00000 10076 20035 4088 52005 333 00355;
0178525330999992000090400004+39760+098470FM-12+1478ZLJQ V0202701N002012200019N0300001N1+00891+00021102131ADDAA199000091GF101991999999999999999999MA1999999085801MD1999999+0301REMSYN081AAXX  04001 52533 32980 12702 10089 20002 38580 40213 5200 80002 333 00355 30034;EQDQ01  00002PRCP99
0112525330999992000090403004+39760+098470FM-12+1478ZLJQ V0201101N003019999999N0300001N1+01631-00731102131ADDGF105991001001999999001021MD1210101+9999REMSYN060AAXX  04031 52533 42980 51103 10163 21073 40213 52010 80002;
0192525330999992000090406004+39760+098470FM-12+1478ZLJQ V0201601N002019999999N0300001N1+01881-00211102081ADDAA199000091GF107991011001999999041021KA1999N+00751MA1999999085821MD1710081+0401REMSYN082AAXX  04061 52533 32980 71602 10188 21021 38582 40208 57008 81042 333 00401 20075;EQDQ01  00002PRCP99
0122525330999992000090409004+39760+098470FM-12+1478ZLJQ V0201101N003012200019N0300001N1+02101-00211101981ADDGF102991011001999999041021MD1710091+0041REMSYN070AAXX  04091 52533 42980 21103 10210 21021 40198 57009 81042 333 00402;
0173525330999992000090412004+39760+098470FM-12+1478ZLJQ V0209999C000019999999N0300001N1+01641+00571102131ADDAA199000091GF107991011001999999041021MA1999999085771MD1210041+0031REMSYN076AAXX  04121 52533 32980 70000 10164 20057 38577 40213 52004 81042 333 00351;EQDQ01  00002PRCP99
0112525330999992000090415004+39760+098470FM-12+1478ZLJQ V0200901N002012200019N0300001N1+01041+00371102211ADDGF101991001001999999001021MD1210101+9999REMSYN060AAXX  04151 52533 42980 10902 10104 20037 40221 52010 80002;
0202525330999992000090418004+39760+098470FM-12+1478ZLJQ V0201401N002012200019N0300001N1+01021-00161102181ADDAA199000091GA1001+999999999GF100991001001999999001001KA1999M+02171MA1999999085911MD1210041+0401REMSYN076AAXX  04181 52533 32980 01402 10102 21016 38591 40218 52004 333 00400 10217;EQDQ01  00002PRCP99
0132525330999992000090421004+39760+098470FM-12+1478ZLJQ V0209999C000012200019N0300001N1+00681-00031102241ADDGA1001+999999999GF100991001001999999001001MD1210021+0031REMSYN064AAXX  04211 52533 42980 00000 10068 21003 40224 52002 333 00351;
0191525330999992000090500004+39760+098470FM-12+1478ZLJQ V0202701N002012200019N0300001N1+00581+00141102551ADDAA199000091GF101991001001999999001021IA2999+00009MA1999999086041MD1210111+0201REMSYN082AAXX  05001 52533 32980 12702 10058 20014 38604 40255 52011 80002 333 00253 30001;EQDQ01  00002PRCP99
0122525330999992000090503004+39760+098470FM-12+1478ZLJQ V0203401N002012200019N0300001N1+01221+00401102581ADDGA1001+999999999GF100991001001999999001001MD1210041+9999REMSYN054AAXX  05031 52533 42980 03402 10122 20040 40258 52004;
0192525330999992000090506004+39760+098470FM-12+1478ZLJQ V0200901N005012200019N0300001N1+01711+00211102221ADDAA199000091GF101991001001999999001021KA1999N+00511MA1999999085901MD1710181+0101REMSYN082AAXX  05061 52533 32980 10905 10171 20021 38590 40222 57018 80002 333 00152 20051;EQDQ01  00002PRCP99
0122525330999992000090509004+39760+098470FM-12+1478ZLJQ V0201401N003012200019N0200001N1+01941+00181101951ADDGF101991011001999999041001MD1710261+0011REMSYN070AAXX  05091 52533 42970 11403 10194 20018 40195 57026 81040 333 05152;
0173525330999992000090512004+39760+098470FM-12+1478ZLJQ V0200701N002010900019N0300001N1+01801+00521101911ADDAA199000091GF107991021041017501001021MA1999999085551MD1710091+0021REMSYN076AAXX  05121 52533 32780 70702 10180 20052 38555 40191 57009 82402 333 05202;EQDQ01  00002PRCP99
0112525330999992000090515004+39760+098470FM-12+1478ZLJQ V0200701N005012200019N0300001N1+01541-00201101921ADDGF101991011041017501001001MD1210101+9999REMSYN060AAXX  05151 52533 42780 10705 10154 21020 40192 52010 81400;
0192525330999992000090518004+39760+098470FM-12+1478ZLJQ V0200701N001012200019N0300001N1+01201-00171101841ADDAA199000091GF101991001001999999001021KA1999M+01961MA1999999085621MD1710031-0301REMSYN082AAXX  05181 52533 32980 10701 10120 21017 38562 40184 57003 80002 333 05302 10196;EQDQ01  00002PRCP99
0122525330999992000090521004+39760+098470FM-12+1478ZLJQ V0203601N002012200019N0300001N1+00941+00091101841ADDGF101991001001999999001021MD1410001+0031REMSYN070AAXX  05211 52533 42980 13602 10094 20009 40184 54000 80002 333 05303;
0191525330999992000090600004+39760+098470FM-12+1478ZLJQ V0209999C000012200019N0300001N1+00751+00221102001ADDAA199000091GF101991011001999999041001IA2999+00209MA1999999085671MD1210051-0401REMSYN082AAXX  06001 52533 32980 10000 10075 20022 38567 40200 52005 81040 333 05402 30029;EQDQ01  00002PRCP99
0122525330999992000090603004+39760+098470FM-12+1478ZLJQ V0201101N003012200019N0300001N1+01511+00561101781ADDGA1001+999999999GF100991001001999999001001MD1710061+9999REMSYN054AAXX  06031 52533 42980 01103 10151 20056 40178 57006;
0192525330999992000090606004+39760+098470FM-12+1478ZLJQ V0201401N003012200019N0300001N1+01911+00671101551ADDAA199000091GF101991011011017501001001KA1999N+00681MA1999999085431MD1710181-0501REMSYN082AAXX  06061 52533 32780 11403 10191 20067 38543 40155 57018 81100 333 05502 20068;EQDQ01  00002PRCP99
0173525330999992000090612004+39760+098470FM-12+1478ZLJQ V0200701N001012200019N0300001N1+01761+00801101511ADDAA199000091GF101991001001999999001021MA1999999085241MD1710061+0031REMSYN076AAXX  06121 52533 32980 10701 10176 20080 38524 40151 57006 80002 333 05300;EQDQ01  00002PRCP99
0172525330999992000090615004+39760+098470FM-12+1478ZLJQ V0201101N005012200019N0300001N1+01221-00412999999ADDGA1001+999999999GF100991001001999999001001MA1999999999999MD1210071+9999REMSYN054AAXX  06151 52533 42980 01105 10122 21041 38258 52007;EQDQ01+082583APOSP Q02 082583APOSP 
0218525330999992000090618004+39760+098470FM-12+1478ZLJQ V0203401N001012200019N0300001N1+00961+00471101511ADDAA199000091GA1001+999999999GF100991001001999999001001KA1999M+02181MA1999999085342MD1210031-0301REMSYN076AAXX  06181 52533 32980 03401 10096 20047 38534 40151 52003 333 05352 10218;EQDQ01+085343APOSP Q02  00002PRCP99
0132525330999992000090621004+39760+098470FM-12+1478ZLJQ V0203201N002012200019N0300001N1+00721+00401101471ADDGA1001+999999999GF100991001001999999001001MD1710051+0031REMSYN064AAXX  06211 52533 42980 03202 10072 20040 40147 57005 333 05352;
0191525330999992000090700004+39760+098470FM-12+1478ZLJQ V0209999C000012200019N0300001N1+00931+00411101581ADDAA199000091GF101991001001999999001021IA2999+00209MA1999999085351MD1210061-0301REMSYN082AAXX  07001 52533 32980 10000 10093 20041 38535 40158 52006 80002 333 05302 30022;EQDQ01  00002PRCP99
0122525330999992000090703004+39760+098470FM-12+1478ZLJQ V0200901N002012200019N0300001N1+01731+00671101491ADDGA1001+999999999GF100991001001999999001001MD1210061+9999REMSYN054AAXX  07031 52533 42980 00902 10173 20067 40149 52006;
0202525330999992000090706004+39760+098470FM-12+1478ZLJQ V0201101N006012200019N0300001N1+02101+00211101351ADDAA199000091GA1001+999999999GF100991001001999999001001KA1999N+00591MA1999999085251MD1710161-0201REMSYN076AAXX  07061 52533 32980 01106 10210 20021 38525 40135 57016 333 05202 20059;EQDQ01  00002PRCP99
0132525330999992000090709004+39760+098470FM-12+1478ZLJQ V0200901N004012200019N0300001N1+02261+00191101261ADDGA1001+999999999GF100991001001999999001001MD1710101+0021REMSYN064AAXX  07091 52533 42980 00904 10226 20019 40126 57010 333 05202;
0183525330999992000090712004+39760+098470FM-12+1478ZLJQ V0200401N003012200019N0300001N1+01881+00111101271ADDAA199000091GA1001+999999999GF100991001001999999001001MA1999999085121MD1710031+0011REMSYN070AAXX  07121 52533 32980 00403 10188 20011 38512 40127 57003 333 05101;EQDQ01  00002PRCP99
0122525330999992000090715004+39760+098470FM-12+1478ZLJQ V0201801N002012200019N0300001N1+01451-00021101291ADDGA1001+999999999GF100991001001999999001001MD1210111+9999REMSYN054AAXX  07151 52533 42980 01802 10145 21002 40129 52011;
0202525330999992000090718004+39760+098470FM-12+1478ZLJQ V0202901N001012200019N0300001N1+00881+00371101331ADDAA199000091GA1001+999999999GF100991001001999999001001KA1999M+02271MA1999999085211MD1710021-0101REMSYN076AAXX  07181 52533 32980 02901 10088 20037 38521 40133 57002 333 05151 10227;EQDQ01  00002PRCP99
0132525330999992000090721004+39760+098470FM-12+1478ZLJQ V0202501N002012200019N0300001N1+00651+00351101301ADDGA1001+999999999GF100991001001999999001001MD1710041+0011REMSYN064AAXX  07211 52533 42980 02502 10065 20035 40130 57004 333 05151;
0191525330999992000090800004+39760+098470FM-12+1478ZLJQ V0203201N002012200019N0300001N1+00731+00321101511ADDAA199000091GF101991001001999999001021IA2999+00109MA1999999085271MD1210101-0101REMSYN082AAXX  08001 52533 32980 13202 10073 20032 38527 40151 52010 80002 333 05152 30012;EQDQ01  00002PRCP99
0112525330999992000090803004+39760+098470FM-12+1478ZLJQ V0201101N004012200019N0300001N1+01701+00741101391ADDGF102991001001999999001021MD1210041+9999REMSYN060AAXX  08031 52533 42980 21104 10170 20074 40139 52004 80002;
0192525330999992000090806004+39760+098470FM-12+1478ZLJQ V0200901N005019999999N0300001N1+02101+00341101221ADDAA199000091GF107991001001999999001021KA1999N+00541MA1999999085121MD1710191-0101REMSYN082AAXX  08061 52533 32980 70905 10210 20034 38512 40122 57019 80002 333 05100 20054;EQDQ01  00002PRCP99
0122525330999992000090809004+39760+098470FM-12+1478ZLJQ V0200701N003019999999N0300001N1+02261+00261101051ADDGF107991001001999999001021MD1710161+0021REMSYN070AAXX  08091 52533 42980 70703 10226 20026 40105 57016 80002 333 05200;
0173525330999992000090812004+39760+098470FM-12+1478ZLJQ V0203401N002019999999N0300001N1+01871+00981101171ADDAA199000091GF107991011001999999041021MA1999999084981MD1210021+0011REMSYN076AAXX  08121 52533 32980 73402 10187 20098 38498 40117 52002 81042 333 05100;EQDQ01  00002PRCP99
0192525330999992000090818004+39760+098470FM-12+1478ZLJQ V0202701N002019999999N0300001N1+01221+00481101111ADDAA199000091GF105991001001999999001021KA1999M+02311MA1999999085111MD1210041-0101REMSYN082AAXX  08181 52533 32980 52702 10122 20048 38511 40111 52004 80002 333 05103 10231;EQDQ01  00002PRCP99
0132525330999992000090821004+39760+098470FM-12+1478ZLJQ V0202901N002012200019N0300001N1+01071+00181101121ADDGA1001+999999999GF100991001001999999001001MD1210011+0011REMSYN064AAXX  08211 52533 42980 02902 10107 20018 40112 52001 333 05104;
0173525330999992000090900004+39760+098470FM-12+1478ZLJQ V0203201N002010900019N0300001N1+01061+00371101331ADDAA199000091GF106991021051017501001021MA1999999085201MD1210081+0011REMSYN076AAXX  09001 52533 32780 63202 10106 20037 38520 40133 52008 82502 333 05103;EQDQ01  00002PRCP99
0112525330999992000090903004+39760+098470FM-12+1478ZLJQ V0201101N002019999999N0300001N1+01921+00591101181ADDGF107991001001999999001021MD1210051+9999REMSYN060AAXX  09031 52533 42980 71102 10192 20059 40118 52005 80002;
0192525330999992000090906004+39760+098470FM-12+1478ZLJQ V0200901N004019999999N0300001N1+02181+00601101071ADDAA199000091GF107991001001999999001021KA1999N+00861MA1999999085101MD1710151+0001REMSYN082AAXX  09061 52533 32980 70904 10218 20060 38510 40107 57015 80002 333 00001 20086;EQDQ01  00002PRCP99
0122525330999992000090909004+39760+098470FM-12+1478ZLJQ V0200201N002019999999N0300001N1+02281+00551100981ADDGF107991011001999999041021MD1710091+0011REMSYN070AAXX  09091 52533 42980 70202 10228 20055 40098 57009 81042 333 00100;
0173525330999992000090912004+39760+098470FM-12+1478ZLJQ V0202901N001019999999N0300001N1+01921+01041101121ADDAA199000091GF108991011001999999041071MA1999999085041MD1210031+0011REMSYN076AAXX  09121 52533 32980 82901 10192 20104 38504 40112 52003 81047 333 00101;EQDQ01  00002PRCP99
0112525330999992000090915004+39760+098470FM-12+1478ZLJQ V0209999C000019999999N0300001N1+01521+01071101141ADDGF108991001001999999001071MD1210131+9999REMSYN060AAXX  09151 52533 42980 80000 10152 20107 40114 52013 80007;
0192525330999992000090918004+39760+098470FM-12+1478ZLJQ V0209999C000019999999N0300001N1+01461+00691101091ADDAA199000091GF106991001001999999001021KA1999M+02341MA1999999085181MD1210011+0101REMSYN082AAXX  09181 52533 32980 60000 10146 20069 38518 40109 52001 80002 333 00102 10234;EQDQ01  00002PRCP99
0132525330999992000090921004+39760+098470FM-12+1478ZLJQ V0202501N002012200019N0300001N1+01051+00591101071ADDGA1001+999999999GF100991001001999999001001MD1710101+0001REMSYN064AAXX  09211 52533 42980 02502 10105 20059 40107 57010 333 00000;
0191525330999992000091000004+39760+098470FM-12+1478ZLJQ V0202201N002012200019N0300001N1+01091+00601101291ADDAA199000091GF101991011001999999041001IA2999+00509MA1999999085191MD1210111+0001REMSYN082AAXX  10001 52533 32980 12202 10109 20060 38519 40129 52011 81040 333 00000 30050;EQDQ01  00002PRCP99
0122525330999992000091003004+39760+098470FM-12+1478ZLJQ V0200401N003012200019N0300001N1+02021+00921101251ADDGA1001+999999999GF100991001001999999001001MD1210101+9999REMSYN054AAXX  10031 52533 42980 00403 10202 20092 40125 52010;
0192525330999992000091006004+39760+098470FM-12+1478ZLJQ V0200901N005010900019N0300001N1+02321+00811100891ADDAA199000091GF106991011011017501001021KA1999N+00901MA1999999085041MD1710251-0101REMSYN082AAXX  10061 52533 32780 60905 10232 20081 38504 40089 57025 81102 333 05101 20090;EQDQ01  00002PRCP99
0122525330999992000091009004+39760+098470FM-12+1478ZLJQ V0200701N005010900019N0300001N1+02281+00411100851ADDGF107991011041017501001021MD1710141+0011REMSYN070AAXX  10091 52533 42780 70705 10228 20041 40085 57014 81402 333 05100;
0173525330999992000091012004+39760+098470FM-12+1478ZLJQ V0200401N003010150019N0300001N1+02051+00061100961ADDAA199000091GF108991051041017501001071MA1999999084941MD1210041+0011REMSYN076AAXX  10121 52533 32780 80403 10205 20006 38494 40096 52004 85407 333 05101;EQDQ01  00002PRCP99
0112525330999992000091015004+39760+098470FM-12+1478ZLJQ V0200701N004010900019N0300001N1+01891+00281100941ADDGF108991021041017501001071MD1210181+9999REMSYN060AAXX  10151 52533 42780 80704 10189 20028 40094 52018 82407;
0192525330999992000091018004+39760+098470FM-12+1478ZLJQ V0202001N001019999999N0300001N1+01671+00661100981ADDAA199000091GF108991081001999999021999KA1999M+02371MA1999999085171MD1210051+0001REMSYN082AAXX  10181 52533 32980 82001 10167 20066 38517 40098 52005 8802/ 333 00002 10237;EQDQ01  00002PRCP99
0122525330999992000091021004+39760+098470FM-12+1478ZLJQ V0202201N002019999999N0300001N1+01591+00741101041ADDGF108991001001999999001071MD1210021+0011REMSYN070AAXX  10211 52533 42980 82202 10159 20074 40104 52002 80007 333 00105;
0173525330999992000091100004+39760+098470FM-12+1478ZLJQ V0209999C000019999999N0300001N1+01441+00901101281ADDAA199000091GF107991021001999999041021MA1999999085301MD1210111+0011REMSYN076AAXX  11001 52533 32980 70000 10144 20090 38530 40128 52011 82042 333 00104;EQDQ01  00002PRCP99
0112525330999992000091103004+39760+098470FM-12+1478ZLJQ V0200701N003019999999N0300001N1+01861+00881101381ADDGF107991021001999999041021MD1210151+9999REMSYN060AAXX  11031 52533 42980 70703 10186 20088 40138 52015 82042;
0192525330999992000091106004+39760+098470FM-12+1478ZLJQ V0200901N004010900019N0300001N1+02161+00621101181ADDAA199000091GF107991011011017501001021KA1999N+01351MA1999999085301MD1710151+0301REMSYN082AAXX  11061 52533 32780 70904 10216 20062 38530 40118 57015 81102 333 00352 20135;EQDQ01  00002PRCP99
0122525330999992000091109004+39760+098470FM-12+1478ZLJQ V0201101N007010900019N0300001N1+02181-00111101121ADDGF107991011011017501001021MD1710071+0031REMSYN070AAXX  11091 52533 42780 71107 10218 21011 40112 57007 81102 333 00351;
0173525330999992000091112004+39760+098470FM-12+1478ZLJQ V0201101N003019999999N0300001N1+01871+00411101301ADDAA199000091GF107991011001999999041021MA1999999085271MD1210041+0031REMSYN076AAXX  11121 52533 32980 71103 10187 20041 38527 40130 52004 81042 333 00352;EQDQ01  00002PRCP99
0122525330999992000091115004+39760+098470FM-12+1478ZLJQ V0200701N002012200019N0300001N1+01371+00381101501ADDGA1001+999999999GF100991001001999999001001MD1210151+9999REMSYN054AAXX  11151 52533 42980 00702 10137 20038 40150 52015;
0192525330999992000091118004+39760+098470FM-12+1478ZLJQ V0209999C000012200019N0300001N1+00901+00531101551ADDAA199000091GF101991011001999999041001KA1999M+02311MA1999999085421MD1410001+0301REMSYN082AAXX  11181 52533 32980 10000 10090 20053 38542 40155 54000 81040 333 00358 10231;EQDQ01  00002PRCP99
0122525330999992000091121004+39760+098470FM-12+1478ZLJQ V0202501N002012200019N0300001N1+00701+00421101611ADDGF102991001001999999001021MD1410001+0021REMSYN070AAXX  11211 52533 42980 22502 10070 20042 40161 54000 80002 333 00259;
0191525330999992000091200004+39760+098470FM-12+1478ZLJQ V0202201N001019999999N0300001N1+00891+00481101751ADDAA199000091GF105991011001999999041021IA2999+00209MA1999999085511MD1210091+0201REMSYN082AAXX  12001 52533 32980 52201 10089 20048 38551 40175 52009 81042 333 00256 30028;EQDQ01  00002PRCP99
0112525330999992000091203004+39760+098470FM-12+1478ZLJQ V0200201N002012200019N0300001N1+01891+00471101711ADDGF101991001001999999001021MD1210091+9999REMSYN060AAXX  12031 52533 42980 10202 10189 20047 40171 52009 80002;
0192525330999992000091206004+39760+098470FM-12+1478ZLJQ V0201401N005012200019N0300001N1+02121+00501101671ADDAA199000091GF101991011011017501001021KA1999N+00611MA1999999085511MD1710091+0201REMSYN082AAXX  12061 52533 32780 11405 10212 20050 38551 40167 57009 81102 333 00200 20061;EQDQ01  00002PRCP99
0122525330999992000091209004+39760+098470FM-12+1478ZLJQ V0200901N002010900019N0300001N1+02251+00491101561ADDGF107991011041017501001021MD1710111+0021REMSYN070AAXX  12091 52533 42780 70902 10225 20049 40156 57011 81402 333 00201;
0173525330999992000091212004+39760+098470FM-12+1478ZLJQ V0202501N004010150019N0300001N1+02031+00441101781ADDAA199000091GF107991061041017501001021MA1999999085581MD1210181+0031REMSYN076AAXX  12121 52533 32780 72504 10203 20044 38558 40178 52018 86402 333 00302;EQDQ01  00002PRCP99
0112525330999992000091215004+39760+098470FM-12+1478ZLJQ V0202001N004010900019N0300001N1+01851+00591101721ADDGF107991021041017501001021MD1210151+9999REMSYN060AAXX  12151 52533 42780 72004 10185 20059 40172 52015 82402;
0192525330999992000091218004+39760+098470FM-12+1478ZLJQ V0202201N002012200019N0300001N1+01481+00551101711ADDAA199000091GF101991001001999999001021KA1999M+02331MA1999999085691MD1710041+0301REMSYN082AAXX  12181 52533 32980 12202 10148 20055 38569 40171 57004 80002 333 00306 10233;EQDQ01  00002PRCP99
0132525330999992000091221004+39760+098470FM-12+1478ZLJQ V0202201N003012200019N0300001N1+01341+00381101691ADDGA1001+999999999GF100991001001999999001001MD1710021+0031REMSYN064AAXX  12211 52533 42980 02203 10134 20038 40169 57002 333 00306;
0183525330999992000091300004+39760+098470FM-12+1478ZLJQ V0202201N003012200019N0300001N1+01341+00311101881ADDAA199000091GA1001+999999999GF100991001001999999001001MA1999999085771MD1210101+0031REMSYN070AAXX  13001 52533 32980 02203 10134 20031 38577 40188 52010 333 00305;EQDQ01  00002PRCP99
0122525330999992000091303004+39760+098470FM-12+1478ZLJQ V0203601N002012200019N0300001N1+02381+00561101711ADDGA1001+999999999GF100991001001999999001001MD1210071+9999REMSYN054AAXX  13031 52533 42980 03602 10238 20056 40171 52007;
0192525330999992000091306004+39760+098470FM-12+1478ZLJQ V0200401N004012200019N0300001N1+02501+00311101621ADDAA199000091GF101991011011017501001001KA1999N+01191MA1999999085711MD1710131+0201REMSYN082AAXX  13061 52533 32780 10404 10250 20031 38571 40162 57013 81100 333 00204 20119;EQDQ01  00002PRCP99
0122525330999992000091309004+39760+098470FM-12+1478ZLJQ V0201401N003010900019N0300001N1+02541+00421101501ADDGF106991021041017501001021MD1710131+0021REMSYN070AAXX  13091 52533 42780 61403 10254 20042 40150 57013 82402 333 00203;
0183525330999992000091312004+39760+098470FM-12+1478ZLJQ V0209999C000012200019N0300001N1+01841+00881101721ADDAA199000091GA1001+999999999GF100991001001999999001001MA1999999085591MD1210011+0001REMSYN070AAXX  13121 52533 32980 00000 10184 20088 38559 40172 52001 333 00052;EQDQ01  00002PRCP99
0122525330999992000091315004+39760+098470FM-12+1478ZLJQ V0202201N002012200019N0300001N1+01621+00491101551ADDGA1001+999999999GF100991001001999999001001MD1210061+9999REMSYN054AAXX  13151 52533 42980 02202 10162 20049 40155 52006;
0202525330999992000091318004+39760+098470FM-12+1478ZLJQ V0202201N002012200019N0300001N1+01421+00341101521ADDAA199000091GA1001+999999999GF100991001001999999001001KA1999M+02591MA1999999085611MD1710041-0101REMSYN076AAXX  13181 52533 32980 02202 10142 20034 38561 40152 57004 333 05151 10259;EQDQ01  00002PRCP99
0132525330999992000091321004+39760+098470FM-12+1478ZLJQ V0209999C000012200019N0300001N1+01111+00481101571ADDGA1001+999999999GF100991001001999999001001MD1710031+0011REMSYN064AAXX  13211 52533 42980 00000 10111 20048 40157 57003 333 05152;
0201525330999992000091400004+39760+098470FM-12+1478ZLJQ V0202201N002012200019N0300001N1+01241+00331101751ADDAA199000091GA1001+999999999GF100991001001999999001001IA2999+00409MA1999999085591MD1210011-0201REMSYN076AAXX  14001 52533 32980 02202 10124 20033 38559 40175 52001 333 05251 30046;EQDQ01  00002PRCP99
0141525330999992000091403004+39760+098470FM-12+1478ZLJQ V0209999C000012200019N0300001N1+02402+00151101461ADDGA1001+999999999GF100991001001999999001001MD1710011+9999REMSYN054AAXX  14031 52533 42980 00000 10240 20015 40146 57001;EQDQ01+002403ATOT  
0192525330999992000091406004+39760+098470FM-12+1478ZLJQ V0201101N003012200019N0300001N1+02531+00281101291ADDAA199000091GF101991011011017501001001KA1999N+00991MA1999999085421MD1710161-0301REMSYN082AAXX  14061 52533 32780 11103 10253 20028 38542 40129 57016 81100 333 05300 20099;EQDQ01  00002PRCP99
0122525330999992000091409004+39760+098470FM-12+1478ZLJQ V0200901N002012200019N0300001N1+02591+00271101181ADDGF101991011011017501001001MD1710151+0031REMSYN070AAXX  14091 52533 42780 10902 10259 20027 40118 57015 81100 333 05301;
0173525330999992000091412004+39760+098470FM-12+1478ZLJQ V0209999C000012200019N0300001N1+01941+00941101281ADDAA199000091GF101991001001999999001021MA1999999085221MD1710051+0041REMSYN076AAXX  14121 52533 32980 10000 10194 20094 38522 40128 57005 80002 333 05401;EQDQ01  00002PRCP99
0112525330999992000091415004+39760+098470FM-12+1478ZLJQ V0202201N002019999999N0300001N1+01641+00441101131ADDGF107991001001999999001021MD1210091+9999REMSYN060AAXX  14151 52533 42980 72202 10164 20044 40113 52009 80002;
0192525330999992000091418004+39760+098470FM-12+1478ZLJQ V0202201N002012200019N0300001N1+01401+00441101131ADDAA199000091GF104991001001999999001021KA1999M+02771MA1999999085281MD1710031-0301REMSYN082AAXX  14181 52533 32980 42202 10140 20044 38528 40113 57003 80002 333 05300 10277;EQDQ01  00002PRCP99
0122525330999992000091421004+39760+098470FM-12+1478ZLJQ V0203401N001012200019N0300001N1+01381+00291101091ADDGF101991001001999999001021MD1710021+0031REMSYN070AAXX  14211 52533 42980 13401 10138 20029 40109 57002 80002 333 05303;
0191525330999992000091500004+39760+098470FM-12+1478ZLJQ V0202201N002019999999N0300001N1+01231+00341101471ADDAA199000091GF106991001001999999001021IA2999+00409MA1999999085381MD1210121-0201REMSYN082AAXX  15001 52533 32980 62202 10123 20034 38538 40147 52012 80002 333 05200 30043;EQDQ01  00002PRCP99
0131525330999992000091503004+39760+098470FM-12+1478ZLJQ V0200401N004019999999N0300001N1+02492+00101101281ADDGF107991001001999999001021MD1210081+9999REMSYN060AAXX  15031 52533 42980 70404 10249 20010 40128 52008 80002;EQDQ01+002493ATOT  
0192525330999992000091506004+39760+098470FM-12+1478ZLJQ V0200701N004012200019N0300001N1+02701-00111101091ADDAA199000091GF101991011011017501001001KA1999N+01031MA1999999085291MD1710171-0101REMSYN082AAXX  15061 52533 32780 10704 10270 21011 38529 40109 57017 81100 333 05102 20103;EQDQ01  00002PRCP99
0122525330999992000091509004+39760+098470FM-12+1478ZLJQ V0203401N003012200019N0300001N1+02741+00031100941ADDGF101991011041017501001001MD1710121+0011REMSYN070AAXX  15091 52533 42780 13403 10274 20003 40094 57012 81400 333 05102;
0173525330999992000091512004+39760+098470FM-12+1478ZLJQ V0209999C000012200019N0300001N1+01811+00561101321ADDAA199000091GF101991011041017501001001MA1999999085221MD1210051+0001REMSYN076AAXX  15121 52533 32780 10000 10181 20056 38522 40132 52005 81400 333 00051;EQDQ01  00002PRCP99
0122525330999992000091515004+39760+098470FM-12+1478ZLJQ V0202201N002012200019N0300001N1+01691+00221101061ADDGA1001+999999999GF100991001001999999001001MD1210061+9999REMSYN054AAXX  15151 52533 42980 02202 10169 20022 40106 52006;
0202525330999992000091518004+39760+098470FM-12+1478ZLJQ V0202501N002012200019N0300001N1+01441+00001101021ADDAA199000091GA1001+999999999GF100991001001999999001001KA1999M+02781MA1999999085241MD1710041+0001REMSYN076AAXX  15181 52533 32980 02502 10144 20000 38524 40102 57004 333 00000 10278;EQDQ01  00002PRCP99
0132525330999992000091521004+39760+098470FM-12+1478ZLJQ V0202201N002012200019N0300001N1+01351+00041100961ADDGA1001+999999999GF100991001001999999001001MD1710061+0011REMSYN064AAXX  15211 52533 42980 02202 10135 20004 40096 57006 333 05100;
0191525330999992000091600004+39760+098470FM-12+1478ZLJQ V0202501N002012200019N0300001N1+01291+00211101331ADDAA199000091GF101991001001999999001021IA2999+00309MA1999999085241MD1210061-0101REMSYN082AAXX  16001 52533 32980 12502 10129 20021 38524 40133 52006 80002 333 05101 30039;EQDQ01  00002PRCP99
0131525330999992000091603004+39760+098470FM-12+1478ZLJQ V0209999C000012200019N0300001N1+02592+00131100961ADDGF101991001001999999001021MD1710021+9999REMSYN060AAXX  16031 52533 42980 10000 10259 20013 40096 57002 80002;EQDQ01+002593ATOT  
0192525330999992000091606004+39760+098470FM-12+1478ZLJQ V0200901N002012200019N0300001N1+02701+00121100841ADDAA199000091GF104991011011017501001021KA1999N+01081MA1999999085091MD1710131-0201REMSYN082AAXX  16061 52533 32780 40902 10270 20012 38509 40084 57013 81102 333 05200 20108;EQDQ01  00002PRCP99
0122525330999992000091609004+39760+098470FM-12+1478ZLJQ V0201101N003012200019N0300001N1+02741+00141100681ADDGF103991011041017501001021MD1710151+0021REMSYN070AAXX  16091 52533 42780 31103 10274 20014 40068 57015 81402 333 05200;
0173525330999992000091612004+39760+098470FM-12+1478ZLJQ V0209999C000010900019N0300001N1+02061+00821100901ADDAA199000091GF107991011041017501001021MA1999999084941MD1410001+0031REMSYN076AAXX  16121 52533 32780 70000 10206 20082 38494 40090 54000 81402 333 05303;EQDQ01  00002PRCP99
0112525330999992000091615004+39760+098470FM-12+1478ZLJQ V0202201N002019999999N0300001N1+01581+00561100791ADDGF107991001001999999001021MD1210111+9999REMSYN060AAXX  16151 52533 42980 72202 10158 20056 40079 52011 80002;
0192525330999992000091618004+39760+098470FM-12+1478ZLJQ V0202501N002012200019N0300001N1+01271+00351100821ADDAA199000091GF102991011001999999041021KA1999M+02831MA1999999085031MD1710021-0201REMSYN082AAXX  16181 52533 32980 22502 10127 20035 38503 40082 57002 81042 333 05252 10283;EQDQ01  00002PRCP99
0122525330999992000091621004+39760+098470FM-12+1478ZLJQ V0202501N001010900019N0300001N1+01821+00071100621ADDGF106991011051017501001021MD1710031+0021REMSYN070AAXX  16211 52533 42780 62501 10182 20007 40062 57003 81502 333 05205;
0173525330999992000091700004+39760+098470FM-12+1478ZLJQ V0202901N003012200019N0300001N1+01601-00161101011ADDAA199000091GF101991011041017501001001MA1999999085111MD1210111+0011REMSYN076AAXX  17001 52533 32780 12903 10160 21016 38511 40101 52011 81400 333 05103;EQDQ01  00002PRCP99
0112525330999992000091703004+39760+098470FM-12+1478ZLJQ V0203401N002019999999N0300001N1+02221+00301101051ADDGF106991001001999999001021MD1210071+9999REMSYN060AAXX  17031 52533 42980 63402 10222 20030 40105 52007 80002;
0192525330999992000091706004+39760+098470FM-12+1478ZLJQ V0202901N003012200019N0300001N1+02471+00171100941ADDAA199000091GF102991011011017501001021KA1999N+01231MA1999999085071MD1710111+0001REMSYN082AAXX  17061 52533 32780 22903 10247 20017 38507 40094 57011 81102 333 00052 20123;EQDQ01  00002PRCP99
0122525330999992000091709004+39760+098470FM-12+1478ZLJQ V0201601N002012200019N0300001N1+02501+00321100641ADDGF102991021041017501001021MD1710111+0001REMSYN070AAXX  17091 52533 42780 21602 10250 20032 40064 57011 82402 333 00052;
0211525330999992000091712004+39760+098470FM-12+1478ZLJQ V0202701N003010150019N0300001N1+01881+00821101111ADDAA106000591AY191061AY281061GF107991071091017501999999MA1999999085151MD1210191+0201MW1251OA130602001REMSYN100AAXX  17121 52533 11780 72703 10188 20082 38515 40111 52019 69941 72598 879// 333 00252 91120 91525;
0112525330999992000091715004+39760+098470FM-12+1478ZLJQ V0202001N003010900019N0300001N1+01561+00761101231ADDGF107991011041017501001021MD1210181+9999REMSYN060AAXX  17151 52533 42780 72003 10156 20076 40123 52018 81402;
0173525330999992000091718004+39760+098470FM-12+1478ZLJQ V0202701N003010900019N0300001N1+01461+00641101191ADDAA199000021GF107991011041017501001021KA1999M+02671MA1999999085331MD1410001+0301REMSYN082AAXX  17181 52533 32780 72703 10146 20064 38533 40119 54000 81402 333 00302 10267;
0139525330999992000091721004+39760+098470FM-12+1478ZLJQ V0202701N004012200019N0300001N1+01411+00251101181ADDAA124000591GF101991011041017501001021MD1710011+0301REMSYN076AAXX  17211 52533 42780 12704 10141 20025 40118 57001 81402 333 00354 70004;
0188525330999992000091800004+39760+098470FM-12+1478ZLJQ V0202201N002012200019N0300001N1+01181+00451101561ADDAA124000591GA1001+999999999GF100991001001999999001001IA2999+00409MA1999999085431MD1210111+0301REMSYN082AAXX  18001 52533 32980 02202 10118 20045 38543 40156 52011 333 00354 30040 70004;
0122525330999992000091803004+39760+098470FM-12+1478ZLJQ V0203201N004012200019N0300001N1+02171+00181101381ADDGA1001+999999999GF100991001001999999001001MD1210011+9999REMSYN054AAXX  18031 52533 42980 03204 10217 20018 40138 52001;
0192525330999992000091806004+39760+098470FM-12+1478ZLJQ V0202901N004012200019N0300001N1+02411-00441101101ADDAA199000091GF101991011011017501001021KA1999N+01031MA1999999085241MD1710201+0201REMSYN082AAXX  18061 52533 32780 12904 10241 21044 38524 40110 57020 81102 333 00251 20103;EQDQ01  00002PRCP99
0107525330999992000091809004+39760+098470FM-12+1478ZLJQ V0202901N005012200019N0300001N1+02451-00291100941ADDGF101991999999017501999999REMSYN069AAXX  18091 52533 42780 12905 10245 21029 40094 5701 81102 333 00151;
0173525330999992000091812004+39760+098470FM-12+1478ZLJQ V0203201N003010900019N0300001N1+02071-00431101201ADDAA199000091GF105991011041017501001021MA1999999085171MD1210071+0001REMSYN076AAXX  18121 52533 32780 53203 10207 21043 38517 40120 52007 81402 333 00002;EQDQ01  00002PRCP99
0112525330999992000091815004+39760+098470FM-12+1478ZLJQ V0202501N002019999999N0300001N1+01521+00041101191ADDGF106991001001999999001021MD1210101+9999REMSYN060AAXX  18151 52533 42980 62502 10152 20004 40119 52010 80002;
0192525330999992000091818004+39760+098470FM-12+1478ZLJQ V0202501N002019999999N0300001N1+01531+00081101131ADDAA199000091GF107991001001999999001021KA1999M+02521MA1999999085281MD1210011-0101REMSYN082AAXX  18181 52533 32980 72502 10153 20008 38528 40113 52001 80002 333 05101 10252;EQDQ01  00002PRCP99
0132525330999992000091821004+39760+098470FM-12+1478ZLJQ V0202201N001012200019N0300001N1+01021+00111101191ADDGA1001+999999999GF100991001001999999001001MD1710061+0011REMSYN064AAXX  18211 52533 42980 02201 10102 20011 40119 57006 333 05154;
0191525330999992000091900004+39760+098470FM-12+1478ZLJQ V0202201N002012200019N0300001N1+01061+00031101401ADDAA199000091GF101991001001999999001021IA2999+00209MA1999999085311MD1210091-0101REMSYN082AAXX  19001 52533 32980 12202 10106 20003 38531 40140 52009 80002 333 05151 30026;EQDQ01  00002PRCP99
0112525330999992000091903004+39760+098470FM-12+1478ZLJQ V0200201N003012200019N0300001N1+01971+00111101351ADDGF101991011011017501001021MD1210051+9999REMSYN060AAXX  19031 52533 42780 10203 10197 20011 40135 52005 81102;
0192525330999992000091906004+39760+098470FM-12+1478ZLJQ V0200401N002012200019N0300001N1+02321+00201101051ADDAA199000091GF101991011011017501001001KA1999N+00821MA1999999085191MD1710171-0101REMSYN082AAXX  19061 52533 32780 10402 10232 20020 38519 40105 57017 81100 333 05151 20082;EQDQ01  00002PRCP99
0122525330999992000091909004+39760+098470FM-12+1478ZLJQ V0203401N003012200019N0300001N1+02461+00041100981ADDGF101991011011017501001001MD1710151+0011REMSYN070AAXX  19091 52533 42780 13403 10246 20004 40098 57015 81100 333 05100;
0183525330999992000091912004+39760+098470FM-12+1478ZLJQ V0201101N001012200019N0300001N1+01661+00741101231ADDAA199000091GA1001+999999999GF100991001001999999001001MA1999999085061MD1210021+0011REMSYN070AAXX  19121 52533 32980 01101 10166 20074 38506 40123 52002 333 05154;EQDQ01  00002PRCP99
0122525330999992000091915004+39760+098470FM-12+1478ZLJQ V0202501N002012200019N0300001N1+01281+00281101081ADDGA1001+999999999GF100991001001999999001001MD1210011+9999REMSYN054AAXX  19151 52533 42980 02502 10128 20028 40108 52001;
0202525330999992000091918004+39760+098470FM-12+1478ZLJQ V0202201N001012200019N0300001N1+01001+00221100891ADDAA199000091GA1001+999999999GF100991001001999999001001KA1999M+02531MA1999999084931MD1710141-0401REMSYN076AAXX  19181 52533 32980 02201 10100 20022 38493 40089 57014 333 05455 10253;EQDQ01  00002PRCP99
0132525330999992000091921004+39760+098470FM-12+1478ZLJQ V0209999C000012200019N0300001N1+00711+00221100811ADDGA1001+999999999GF100991001001999999001001MD1710111+0041REMSYN064AAXX  19211 52533 42980 00000 10071 20022 40081 57011 333 05453;
0201525330999992000092000004+39760+098470FM-12+1478ZLJQ V0209999C000012200019N0300001N1+00551+00211101111ADDAA199000091GA1001+999999999GF100991001001999999001001IA2999+00009MA1999999084831MD1210011-0501REMSYN076AAXX  20001 52533 32980 00000 10055 20021 38483 40111 52001 333 05555 31005;EQDQ01  00002PRCP99
0112525330999992000092003004+39760+098470FM-12+1478ZLJQ V0201401N002012200019N0300001N1+01821+00341100831ADDGF101991001001999999001021MD1710011+9999REMSYN060AAXX  20031 52533 42980 11402 10182 20034 40083 57001 80002;
0202525330999992000092006004+39760+098470FM-12+1478ZLJQ V0201401N004012200019N0300001N1+02561+00081100541ADDAA199000091GA1001+999999999GF100991001001999999001001KA1999N+00481MA1999999084691MD1710131-0501REMSYN076AAXX  20061 52533 32980 01404 10256 20008 38469 40054 57013 333 05502 20048;EQDQ01  00002PRCP99
0132525330999992000092009004+39760+098470FM-12+1478ZLJQ V0200701N001012200019N0300001N1+02711+00011100461ADDGA1001+999999999GF100991001001999999001001MD1710101+0051REMSYN064AAXX  20091 52533 42980 00701 10271 20001 40046 57010 333 05503;
0183525330999992000092012004+39760+098470FM-12+1478ZLJQ V0201401N002012200019N0300001N1+01731+00551100861ADDAA199000091GA1001+999999999GF100991001001999999001001MA1999999084641MD1210051+0041REMSYN070AAXX  20121 52533 32980 01402 10173 20055 38464 40086 52005 333 05401;EQDQ01  00002PRCP99
0122525330999992000092015004+39760+098470FM-12+1478ZLJQ V0202501N002012200019N0300001N1+01621-00111100611ADDGA1001+999999999GF100991001001999999001001MD1210081+9999REMSYN054AAXX  20151 52533 42980 02502 10162 21011 40061 52008;
0202525330999992000092018004+39760+098470FM-12+1478ZLJQ V0202701N002012200019N0300001N1+01111-00051100601ADDAA199000091GA1001+999999999GF100991001001999999001001KA1999M+02731MA1999999084771MD1210051-0201REMSYN076AAXX  20181 52533 32980 02702 10111 21005 38477 40060 52005 333 05201 10273;EQDQ01  00002PRCP99
0122525330999992000092021004+39760+098470FM-12+1478ZLJQ V0203201N002012200019N0300001N1+01181-00261100621ADDGF102991001001999999001021MD1210071+0001REMSYN070AAXX  20211 52533 42980 23202 10118 21026 40062 52007 80002 333 00005;
0191525330999992000092100004+39760+098470FM-12+1478ZLJQ V0202701N002019999999N0300001N1+00941+00121101141ADDAA199000091GF107991001001999999001021IA2999+00209MA1999999084971MD1210131+0101REMSYN082AAXX  21001 52533 32980 72702 10094 20012 38497 40114 52013 80002 333 00104 30022;EQDQ01  00002PRCP99
0112525330999992000092103004+39760+098470FM-12+1478ZLJQ V0200201N002019999999N0300001N1+01741+00241101091ADDGF107991001001999999001021MD1210141+9999REMSYN060AAXX  21031 52533 42980 70202 10174 20024 40109 52014 80002;
0192525330999992000092106004+39760+098470FM-12+1478ZLJQ V0203401N002019999999N0300001N1+01991+00151101121ADDAA199000091GF108991001001999999001071KA1999N+00901MA1999999085071MD1710041+0401REMSYN082AAXX  21061 52533 32980 83402 10199 20015 38507 40112 57004 80007 333 00456 20090;EQDQ01  00002PRCP99
0122525330999992000092109004+39760+098470FM-12+1478ZLJQ V0209999C000019999999N0300001N1+02051+00371101091ADDGF108991011001999999041071MD1410001+0051REMSYN070AAXX  21091 52533 42980 80000 10205 20037 40109 54000 81047 333 00557;
0173525330999992000092112004+39760+098470FM-12+1478ZLJQ V0209999C000019999999N0300001N1+01681+00871101331ADDAA199000091GF108991001001999999001071MA1999999085121MD1210051+0051REMSYN076AAXX  21121 52533 32980 80000 10168 20087 38512 40133 52005 80007 333 00551;EQDQ01  00002PRCP99
0112525330999992000092115004+39760+098470FM-12+1478ZLJQ V0203401N002019999999N0300001N1+01641-00021101301ADDGF108991001001999999001071MD1210171+9999REMSYN060AAXX  21151 52533 42980 83402 10164 21002 40130 52017 80007;
0202525330999992000092118004+39760+098470FM-12+1478ZLJQ V0203201N001012200019N0300001N1+01061-00261101481ADDAA199000091GA1001+999999999GF100991001001999999001001KA1999M+02121MA1999999085361MD1210071+0601REMSYN076AAXX  21181 52533 32980 03201 10106 21026 38536 40148 52007 333 00651 10212;EQDQ01  00002PRCP99
0132525330999992000092121004+39760+098470FM-12+1478ZLJQ V0202701N002012200019N0300001N1+00641-00301101621ADDGA1001+999999999GF100991001001999999001001MD1210021+0051REMSYN064AAXX  21211 52533 42980 02702 10064 21030 40162 52002 333 00555;
0191525330999992000092200004+39760+098470FM-12+1478ZLJQ V0202701N002012200019N0300001N1+00651-00421101891ADDAA199000091GF101991001001999999001021IA2999+00009MA1999999085521MD1210141+0601REMSYN082AAXX  22001 52533 32980 12702 10065 21042 38552 40189 52014 80002 333 00653 31008;EQDQ01  00002PRCP99
0112525330999992000092203004+39760+098470FM-12+1478ZLJQ V0203401N003012200019N0300001N1+01501-00431101751ADDGF101991001001999999001021MD1210091+9999REMSYN060AAXX  22031 52533 42980 13403 10150 21043 40175 52009 80002;
0192525330999992000092206004+39760+098470FM-12+1478ZLJQ V0201401N004019999999N0300001N1+01811-00431101661ADDAA199000091GF106991011001999999041021KA1999N+00511MA1999999085461MD1710151+0401REMSYN082AAXX  22061 52533 32980 61404 10181 21043 38546 40166 57015 81042 333 00452 20051;EQDQ01  00002PRCP99
0122525330999992000092209004+39760+098470FM-12+1478ZLJQ V0201101N002012200019N0300001N1+01861-00241101651ADDGF104991011001999999041021MD1710101+0031REMSYN070AAXX  22091 52533 42980 41102 10186 21024 40165 57010 81042 333 00352;
0173525330999992000092212004+39760+098470FM-12+1478ZLJQ V0200901N002019999999N0300001N1+01241+00361101851ADDAA199000091GF107991011001999999041021MA1999999085371MD1210011+0031REMSYN076AAXX  22121 52533 32980 70902 10124 20036 38537 40185 52001 81042 333 00354;EQDQ01  00002PRCP99
0112525330999992000092215004+39760+098470FM-12+1478ZLJQ V0209999C000019999999N0300001N1+01201+00251101631ADDGF107991001001999999001021MD1210021+9999REMSYN060AAXX  22151 52533 42980 70000 10120 20025 40163 52002 80002;
0192525330999992000092218004+39760+098470FM-12+1478ZLJQ V0200901N001019999999N0300001N1+01041+00351101571ADDAA199000091GF106991001001999999001021KA1999M+01951MA1999999085381MD1710011+0001REMSYN082AAXX  22181 52533 32980 60901 10104 20035 38538 40157 57001 80002 333 00000 10195;EQDQ01  00002PRCP99
0122525330999992000092221004+39760+098470FM-12+1478ZLJQ V0202701N002019999999N0300001N1+00881-00081101611ADDGF108991001001999999001071MD1210011+0001REMSYN070AAXX  22211 52533 42980 82702 10088 21008 40161 52001 80007 333 00002;
0191525330999992000092300004+39760+098470FM-12+1478ZLJQ V0202501N002019999999N0300001N1+00771+00031101931ADDAA199000091GF107991021001999999041021IA2999+00409MA1999999085471MD1210081-0101REMSYN082AAXX  23001 52533 32980 72502 10077 20003 38547 40193 52008 82042 333 05101 30048;EQDQ01  00002PRCP99
0112525330999992000092303004+39760+098470FM-12+1478ZLJQ V0200201N002019999999N0300001N1+01611-00221101761ADDGF108991021001999999041071MD1210061+9999REMSYN060AAXX  23031 52533 42980 80202 10161 21022 40176 52006 82047;
0192525330999992000092306004+39760+098470FM-12+1478ZLJQ V0200901N003019999999N0300001N1+01841-00291101651ADDAA199000091GF108991001001999999001071KA1999N+00761MA1999999085461MD1710071+0001REMSYN082AAXX  23061 52533 32980 80903 10184 21029 38546 40165 57007 80007 333 00000 20076;EQDQ01  00002PRCP99
0122525330999992000092309004+39760+098470FM-12+1478ZLJQ V0200901N003019999999N0300001N1+01911-00181101551ADDGF107991051001999999031021MD1710111+0001REMSYN070AAXX  23091 52533 42980 70903 10191 21018 40155 57011 85032 333 00001;
0173525330999992000092312004+39760+098470FM-12+1478ZLJQ V0201401N002019999999N0300001N1+01341+00361101831ADDAA199000091GF107991051001999999031021MA1999999085411MD1210061+0001REMSYN076AAXX  23121 52533 32980 71402 10134 20036 38541 40183 52006 85032 333 00001;EQDQ01  00002PRCP99
0122525330999992000092315004+39760+098470FM-12+1478ZLJQ V0200401N001012200019N0300001N1+00931+00161101771ADDGA1001+999999999GF100991001001999999001001MD1210061+9999REMSYN054AAXX  23151 52533 42980 00401 10093 20016 40177 52006;
0202525330999992000092318004+39760+098470FM-12+1478ZLJQ V0202901N002012200019N0300001N1+00691+00271101711ADDAA199000091GA1001+999999999GF100991001001999999001001KA1999M+01991MA1999999085421MD1710051+0001REMSYN076AAXX  23181 52533 32980 02902 10069 20027 38542 40171 57005 333 00054 10199;EQDQ01  00002PRCP99
0132525330999992000092321004+39760+098470FM-12+1478ZLJQ V0202001N001012200019N0300001N1+00501+00101101711ADDGA1001+999999999GF100991001001999999001001MD1710031+0001REMSYN064AAXX  23211 52533 42980 02001 10050 20010 40171 57003 333 00054;
0112525330999992000092403004+39760+098470FM-12+1478ZLJQ V0200701N004019999999N0300001N1+01491+00281101751ADDGF107991001001999999001021MD1710011+9999REMSYN060AAXX  24031 52533 42980 70704 10149 20028 40175 57001 80002;
0192525330999992000092406004+39760+098470FM-12+1478ZLJQ V0200901N005019999999N0300001N1+02181-00031101361ADDAA199000091GF107991011001999999041021KA1999N+00301MA1999999085211MD1710211-0301REMSYN082AAXX  24061 52533 32980 70905 10218 21003 38521 40136 57021 81042 333 05303 20030;EQDQ01  00002PRCP99
0122525330999992000092409004+39760+098470FM-12+1478ZLJQ V0200901N004010360019N0300001N1+02101-00121101251ADDGF107991011041017501041021MD1710161+0031REMSYN070AAXX  24091 52533 42780 70904 10210 21012 40125 57016 81442 333 05302;
0173525330999992000092412004+39760+098470FM-12+1478ZLJQ V0200701N002012200019N0300001N1+01721+00031101431ADDAA199000091GF101991011001999999041021MA1999999085081MD1210031+0031REMSYN076AAXX  24121 52533 32980 10702 10172 20003 38508 40143 52003 81042 333 05304;EQDQ01  00002PRCP99
0112525330999992000092415004+39760+098470FM-12+1478ZLJQ V0201101N003019999999N0300001N1+01481+00241101341ADDGF107991011001999999041021MD1210141+9999REMSYN060AAXX  24151 52533 42980 71103 10148 20024 40134 52014 81042;
0192525330999992000092418004+39760+098470FM-12+1478ZLJQ V0202901N002019999999N0300001N1+01201+00591101121ADDAA199000091GF107991021001999999041021KA1999M+02281MA1999999085141MD1710081-0301REMSYN082AAXX  24181 52533 32980 72902 10120 20059 38514 40112 57008 82042 333 05305 10228;EQDQ01  00002PRCP99
0122525330999992000092421004+39760+098470FM-12+1478ZLJQ V0203201N001019999999N0300001N1+01201+00481101041ADDGF107991021001999999041021MD1710091+0031REMSYN070AAXX  24211 52533 42980 73201 10120 20048 40104 57009 82042 333 05307;
0173525330999992000092500004+39760+098470FM-12+1478ZLJQ V0203401N002019999999N0300001N1+01281+00601101271ADDAA199000091GF108991031001999999031071MA1999999085171MD1210121+0031REMSYN076AAXX  25001 52533 32980 83402 10128 20060 38517 40127 52012 83037 333 05309;EQDQ01  00002PRCP99
0112525330999992000092503004+39760+098470FM-12+1478ZLJQ V0209999C000019999999N0300001N1+01501+00691101341ADDGF108991001001999999001071MD1210051+9999REMSYN060AAXX  25031 52533 42980 80000 10150 20069 40134 52005 80007;
0192525330999992000092506004+39760+098470FM-12+1478ZLJQ V0203601N003019999999N0300001N1+01921+00591101141ADDAA199000091GF107991051001999999031021KA1999N+01101MA1999999085091MD1710131-0101REMSYN082AAXX  25061 52533 32980 73603 10192 20059 38509 40114 57013 85032 333 05153 20110;EQDQ01  00002PRCP99
0122525330999992000092509004+39760+098470FM-12+1478ZLJQ V0200901N002012200019N0300001N1+02181+00581100911ADDGF101991011001999999041021MD1710131+0011REMSYN070AAXX  25091 52533 42980 10902 10218 20058 40091 57013 81042 333 05101;
0183525330999992000092512004+39760+098470FM-12+1478ZLJQ V0201101N004012200019N0300001N1+01521+00671101131ADDAA199000091GA1001+999999999GF100991001001999999001001MA1999999085001MD1210041+0011REMSYN070AAXX  25121 52533 32980 01104 10152 20067 38500 40113 52004 333 05152;EQDQ01  00002PRCP99
0122525330999992000092515004+39760+098470FM-12+1478ZLJQ V0201101N002012200019N0300001N1+01021+00811101321ADDGA1001+999999999GF100991001001999999001001MD1210091+9999REMSYN054AAXX  25151 52533 42980 01102 10102 20081 40132 52009;
0202525330999992000092518004+39760+098470FM-12+1478ZLJQ V0202201N001012200019N0300001N1+00701+00601101261ADDAA199000091GA1001+999999999GF100991001001999999001001KA1999M+02191MA1999999085061MD1710031-0101REMSYN076AAXX  25181 52533 32980 02201 10070 20060 38506 40126 57003 333 05155 10219;EQDQ01  00002PRCP99
0132525330999992000092521004+39760+098470FM-12+1478ZLJQ V0202001N001012200019N0300001N1+00531+00381101131ADDGA1001+999999999GF100991001001999999001001MD1710081+0011REMSYN064AAXX  25211 52533 42980 02001 10053 20038 40113 57008 333 05157;
0191525330999992000092600004+39760+098470FM-12+1478ZLJQ V0201801N002019999999N0300001N1+00621+00291101381ADDAA199000091GF107991011001999999041021IA2999+00009MA1999999085041MD1210061-0101REMSYN082AAXX  26001 52533 32980 71802 10062 20029 38504 40138 52006 81042 333 05157 30007;EQDQ01  00002PRCP99
0112525330999992000092603004+39760+098470FM-12+1478ZLJQ V0200901N003019999999N0300001N1+01521+00721101271ADDGF107991011001999999041021MD1210011+9999REMSYN060AAXX  26031 52533 42980 70903 10152 20072 40127 52001 81042;
0192525330999992000092606004+39760+098470FM-12+1478ZLJQ V0201401N004019999999N0300001N1+01891+00811101061ADDAA199000091GF106991011001999999041021KA1999N+00471MA1999999084891MD1710161-0201REMSYN082AAXX  26061 52533 32980 61404 10189 20081 38489 40106 57016 81042 333 05200 20047;EQDQ01  00002PRCP99
0122525330999992000092609004+39760+098470FM-12+1478ZLJQ V0200901N004010900019N0300001N1+02031+00501100911ADDGF106991021041017501001021MD1710141+0021REMSYN070AAXX  26091 52533 42780 60904 10203 20050 40091 57014 82402 333 05252;
0173525330999992000092612004+39760+098470FM-12+1478ZLJQ V0200701N003012200019N0300001N1+01681+00651101071ADDAA199000091GF101991001001999999001021MA1999999084821MD1210071+0021REMSYN076AAXX  26121 52533 32980 10703 10168 20065 38482 40107 52007 80002 333 05202;EQDQ01  00002PRCP99
0122525330999992000092615004+39760+098470FM-12+1478ZLJQ V0201401N002012200019N0300001N1+01181+00521101081ADDGA1001+999999999GF100991001001999999001001MD1210111+9999REMSYN054AAXX  26151 52533 42980 01402 10118 20052 40108 52011;
0202525330999992000092618004+39760+098470FM-12+1478ZLJQ V0202901N002012200019N0300001N1+00931+00481101171ADDAA199000091GA1001+999999999GF100991001001999999001001KA1999M+02131MA1999999085041MD1210111+0001REMSYN076AAXX  26181 52533 32980 02902 10093 20048 38504 40117 52011 333 00002 10213;EQDQ01  00002PRCP99
0132525330999992000092621004+39760+098470FM-12+1478ZLJQ V0202501N002012200019N0300001N1+00841+00491101211ADDGA1001+999999999GF100991001001999999001001MD1210041+0011REMSYN064AAXX  26211 52533 42980 02502 10084 20049 40121 52004 333 00103;
0191525330999992000092700004+39760+098470FM-12+1478ZLJQ V0202501N002012200019N0300001N1+00801+00531101551ADDAA199000091GF101991001001999999001021IA2999+00109MA1999999085271MD1210191+0201REMSYN082AAXX  27001 52533 32980 12502 10080 20053 38527 40155 52019 80002 333 00202 30013;EQDQ01  00002PRCP99
0112525330999992000092703004+39760+098470FM-12+1478ZLJQ V0200401N004019999999N0300001N1+01631+00741101651ADDGF106991001001999999001021MD1210171+9999REMSYN060AAXX  27031 52533 42980 60404 10163 20074 40165 52017 80002;
0192525330999992000092706004+39760+098470FM-12+1478ZLJQ V0200401N003012200019N0300001N1+01941+00741101481ADDAA199000091GF101991011011017501001021KA1999N+00571MA1999999085311MD1710131+0401REMSYN082AAXX  27061 52533 32780 10403 10194 20074 38531 40148 57013 81102 333 00401 20057;EQDQ01  00002PRCP99
0122525330999992000092709004+39760+098470FM-12+1478ZLJQ V0200401N003010900019N0300001N1+01981+00551101421ADDGF108991011041017501001071MD1710061+0051REMSYN070AAXX  27091 52533 42780 80403 10198 20055 40142 57006 81407 333 00551;
0173525330999992000092712004+39760+098470FM-12+1478ZLJQ V0200701N003010150019N0300001N1+01811+00461101621ADDAA199000091GF107991061041017501001021MA1999999085361MD1210111+0051REMSYN076AAXX  27121 52533 32780 70703 10181 20046 38536 40162 52011 86402 333 00501;EQDQ01  00002PRCP99
0132525330999992000092715004+39760+098470FM-12+1478ZLJQ V0203401N003019999999N0300001N1+01311-00261101731ADDAY181031GF108991081001999999021999MD1210181+9999MW1601REMSYN066AAXX  27151 52533 41980 83403 10131 21026 40173 52018 76080 8802/;
0207525330999992000092718004+39760+098470FM-12+1478ZLJQ V0209999C000019999999N0300001N1+01151+00071101711ADDAA106000791AY181061AY261061GF108991081001999999021999KA1999M+02111MA1999999085561MD1210021+0501MW1001REMSYN094AAXX  27181 52533 11980 80000 10115 20007 38556 40171 52002 69901 70086 8802/ 333 00502 10211;
0151525330999992000092721004+39760+098470FM-12+1478ZLJQ V0203401N003019999999N0300001N1+00921+00031101851ADDAA124001091GF108991081001999999021999MD1210071+0601MW1601REMSYN082AAXX  27211 52533 41980 83403 10092 20003 40185 52007 76000 8802/ 333 00601 70009;
0186525330999992000092800004+39760+098470FM-12+1478ZLJQ V0202701N003019999999N0300001N1+00641+00511102211ADDAA106006191AY161061GF108991081001999999021999MA1999999085821MD1210191+0601MW1611REMSYN094AAXX  28001 52533 11980 82703 10064 20051 38582 40221 52019 60061 76160 8802/ 333 00652 70056;
0140525330999992000092803004+39760+098470FM-12+1478ZLJQ V0202501N002010360019N0300001N1+00631+00481102621ADDAY161031AY261031GF108991011051017501021999MD1210211+9999MW1611REMSYN066AAXX  28031 52533 41780 82502 10063 20048 40262 52021 76166 8152/;
0199525330999992000092806004+39760+098470FM-12+1478ZLJQ V0201401N001010900019N0300001N1+00841+00441102571ADDAA106006191AY161061GF108991031051017501001071KA1999N+00591MA1999999086001MD1710031+0701MW1001REMSYN094AAXX  28061 52533 11780 81401 10084 20044 38600 40257 57003 60061 70060 83507 333 00761 20059;
0122525330999992000092809004+39760+098470FM-12+1478ZLJQ V0200201N002010360019N0300001N1+01021+00471102541ADDGF107991011051017501041021MD1710041+0071REMSYN070AAXX  28091 52533 42780 70202 10102 20047 40254 57004 81542 333 00760;
0154525330999992000092812004+39760+098470FM-12+1478ZLJQ V0209999C000012200019N0300001N1+00791+00631102741ADDAA199000021GF102991011001999999041021MA1999999085991MD1210031+0061REMSYN076AAXX  28121 52533 32980 20000 10079 20063 38599 40274 52003 81042 333 00660;
0112525330999992000092815004+39760+098470FM-12+1478ZLJQ V0201101N001012200019N0300001N1+00611+00501102861ADDGF101991001001999999001021MD1210051+9999REMSYN060AAXX  28151 52533 42980 11101 10061 20050 40286 52005 80002;
0202525330999992000092818004+39760+098470FM-12+1478ZLJQ V0209999C000012200019N0300001N1+00471+00431102811ADDAA199000091GA1001+999999999GF100991001001999999001001KA1999M+01171MA1999999086021MD1710021+0501REMSYN076AAXX  28181 52533 32980 00000 10047 20043 38602 40281 57002 333 00557 10117;EQDQ01  00002PRCP99
0161525330999992000092821004+39760+098470FM-12+1478ZLJQ V0209999C000012200019N0090001N1+00311+00311102751ADDAA124010791GA1001+999999999GF100991001001999999001001MD1710051+0301MW1101REMSYN076AAXX  28211 52533 41959 00000 10031 20031 40275 57005 71000 333 00356 70107;
0178525330999992000092900004+39760+098470FM-12+1478ZLJQ V0202001N001019999999N0200001N1+00351+00351102771ADDAA124006191GF107991001001999999001021IA2999+00019MA1999999085941MD1710031+0101REMSYN088AAXX  29001 52533 32970 72001 10035 20035 38594 40277 57003 80002 333 00153 30001 70060;
0112525330999992000092903004+39760+098470FM-12+1478ZLJQ V0201601N002012200019N0300001N1+01241+00591102601ADDGF101991001001999999001021MD1210051+9999REMSYN060AAXX  29031 52533 42980 11602 10124 20059 40260 52005 80002;
0192525330999992000092906004+39760+098470FM-12+1478ZLJQ V0200701N002010900019N0300001N1+01431+00691102401ADDAA199000091GF107991011011017501001021KA1999N+00211MA1999999085831MD1710161-0201REMSYN082AAXX  29061 52533 32780 70702 10143 20069 38583 40240 57016 81102 333 05206 20021;EQDQ01  00002PRCP99
0122525330999992000092909004+39760+098470FM-12+1478ZLJQ V0201101N001010900019N0300001N1+01551+00711102281ADDGF107991011041017501001021MD1710111+0021REMSYN070AAXX  29091 52533 42780 71101 10155 20071 40228 57011 81402 333 05205;
0173525330999992000092912004+39760+098470FM-12+1478ZLJQ V0203401N001019999999N0300001N1+01361+00901102401ADDAA199000091GF108991001001999999001071MA1999999085781MD1210061+0021REMSYN076AAXX  29121 52533 32980 83401 10136 20090 38578 40240 52006 80007 333 05206;EQDQ01  00002PRCP99
0112525330999992000092915004+39760+098470FM-12+1478ZLJQ V0202001N001019999999N0300001N1+01071+00881102261ADDGF107991001001999999001021MD1210041+9999REMSYN060AAXX  29151 52533 42980 72001 10107 20088 40226 52004 80002;
0192525330999992000092918004+39760+098470FM-12+1478ZLJQ V0202501N001019999999N0300001N1+01021+00891102081ADDAA199000091GF106991001001999999001021KA1999M+01631MA1999999085711MD1710111-0301REMSYN082AAXX  29181 52533 32980 62501 10102 20089 38571 40208 57011 80002 333 05306 10163;EQDQ01  00002PRCP99
0122525330999992000092921004+39760+098470FM-12+1478ZLJQ V0202501N001012200019N0300001N1+00781+00721102041ADDGF101991001001999999001021MD1710071+0031REMSYN070AAXX  29211 52533 42980 12501 10078 20072 40204 57007 80002 333 05305;
0191525330999992000093000004+39760+098470FM-12+1478ZLJQ V0202501N002012200019N0300001N1+00701+00601102111ADDAA199000091GF101991011001999999041021IA2999+00109MA1999999085631MD1710011-0301REMSYN082AAXX  30001 52533 32980 12502 10070 20060 38563 40211 57001 81042 333 05304 30014;EQDQ01  00002PRCP99
0112525330999992000093003004+39760+098470FM-12+1478ZLJQ V0202201N001012200019N0300001N1+01681+00371101871ADDGF101991001001999999001021MD1710021+9999REMSYN060AAXX  30031 52533 42980 12201 10168 20037 40187 57002 80002;
0192525330999992000093006004+39760+098470FM-12+1478ZLJQ V0200401N003012200019N0300001N1+01841+00341101621ADDAA199000091GF101991011011017501001021KA1999N+00641MA1999999085431MD1710181-0401REMSYN082AAXX  30061 52533 32780 10403 10184 20034 38543 40162 57018 81102 333 05404 20064;EQDQ01  00002PRCP99
0122525330999992000093009004+39760+098470FM-12+1478ZLJQ V0201101N002012200019N0300001N1+01891+00421101521ADDGF101991011011017501001001MD1710141+0041REMSYN070AAXX  30091 52533 42780 11102 10189 20042 40152 57014 81100 333 05403;
0183525330999992000093012004+39760+098470FM-12+1478ZLJQ V0200701N001012200019N0300001N1+01301+00751101721ADDAA199000091GA1001+999999999GF100991001001999999001001MA1999999085291MD1410001+0051REMSYN070AAXX  30121 52533 32980 00701 10130 20075 38529 40172 54000 333 05551;EQDQ01  00002PRCP99
0122525330999992000093015004+39760+098470FM-12+1478ZLJQ V0202201N003012200019N0300001N1+00981+00691101571ADDGA1001+999999999GF100991001001999999001001MD1210041+9999REMSYN054AAXX  30151 52533 42980 02203 10098 20069 40157 52004;
0202525330999992000093018004+39760+098470FM-12+1478ZLJQ V0202501N002012200019N0300001N1+00921+00511101451ADDAA199000091GA1001+999999999GF100991001001999999001001KA1999M+01991MA1999999085261MD1710071-0501REMSYN076AAXX  30181 52533 32980 02502 10092 20051 38526 40145 57007 333 05551 10199;EQDQ01  00002PRCP99
0201525330999992000100100004+39760+098470FM-12+1478ZLJQ V0202501N001012200019N0300001N1+00721+00401101631ADDAA199000091GA1001+999999999GF100991001001999999001001IA2999+00109MA1999999085221MD1210071-0401REMSYN076AAXX  01001 52533 32980 02501 10072 20040 38522 40163 52007 333 05400 30013;EQDQ01  00002PRCP99
0122525330999992000100103004+39760+098470FM-12+1478ZLJQ V0200401N001012200019N0300001N1+01581+00631101501ADDGA1001+999999999GF100991001001999999001001MD1210031+9999REMSYN054AAXX  01031 52533 42980 00401 10158 20063 40150 52003;
0202525330999992000100106004+39760+098470FM-12+1478ZLJQ V0200901N005012200019N0300001N1+01961+00601101261ADDAA199000091GA1001+999999999GF100991001001999999001001KA1999N+00501MA1999999085131MD1710121-0301REMSYN076AAXX  01061 52533 32980 00905 10196 20060 38513 40126 57012 333 05301 20050;EQDQ01  00002PRCP99
0132525330999992000100109004+39760+098470FM-12+1478ZLJQ V0200901N003012200019N0300001N1+02181+00521101141ADDGA1001+999999999GF100991001001999999001001MD1710071+0021REMSYN064AAXX  01091 52533 42980 00903 10218 20052 40114 57007 333 05203;
0173525330999992000100112004+39760+098470FM-12+1478ZLJQ V0200201N002012200019N0300001N1+01561+00891101431ADDAA199000091GF102991001001999999001021MA1999999085121MD1210061+0021REMSYN076AAXX  01121 52533 32980 20202 10156 20089 38512 40143 52006 80002 333 05203;EQDQ01  00002PRCP99
0112525330999992000100115004+39760+098470FM-12+1478ZLJQ V0209999C000012200019N0300001N1+01401+00521101371ADDGF101991001001999999001021MD1210131+9999REMSYN060AAXX  01151 52533 42980 10000 10140 20052 40137 52013 80002;
0202525330999992000100118004+39760+098470FM-12+1478ZLJQ V0203601N002012200019N0300001N1+01301+00201101311ADDAA199000091GA1001+999999999GF100991001001999999001001KA1999M+02221MA1999999085271MD1210021+0001REMSYN076AAXX  01181 52533 32980 03602 10130 20020 38527 40131 52002 333 00004 10222;EQDQ01  00002PRCP99
0132525330999992000100121004+39760+098470FM-12+1478ZLJQ V0202701N002012200019N0300001N1+00971+00181101411ADDGA1001+999999999GF100991001001999999001001MD1210051+0021REMSYN064AAXX  01211 52533 42980 02702 10097 20018 40141 52005 333 00201;
0191525330999992000100200004+39760+098470FM-12+1478ZLJQ V0202001N002012200019N0300001N1+00751+00221101831ADDAA199000091GF101991001001999999001021IA2999+00109MA1999999085461MD1210141+0201REMSYN082AAXX  02001 52533 32980 12002 10075 20022 38546 40183 52014 80002 333 00200 30014;EQDQ01  00002PRCP99
0112525330999992000100203004+39760+098470FM-12+1478ZLJQ V0201401N003012200019N0300001N1+01611+00091101701ADDGF101991001001999999001021MD1210071+9999REMSYN060AAXX  02031 52533 42980 11403 10161 20009 40170 52007 80002;
0192525330999992000100206004+39760+098470FM-12+1478ZLJQ V0200901N003012200019N0300001N1+01781+00331101491ADDAA199000091GF101991011011017501001021KA1999N+00561MA1999999085371MD1710161+0201REMSYN082AAXX  02061 52533 32780 10903 10178 20033 38537 40149 57016 81102 333 00252 20056;EQDQ01  00002PRCP99
0122525330999992000100209004+39760+098470FM-12+1478ZLJQ V0201101N002012200019N0300001N1+01961+00281101471ADDGF101991011011017501001001MD1710051+0031REMSYN070AAXX  02091 52533 42780 11102 10196 20028 40147 57005 81100 333 00352;
0173525330999992000100212004+39760+098470FM-12+1478ZLJQ V0201101N002012200019N0300001N1+01401+00561101761ADDAA199000091GF101991001001999999001021MA1999999085361MD1210041+0021REMSYN076AAXX  02121 52533 32980 11102 10140 20056 38536 40176 52004 80002 333 00252;EQDQ01  00002PRCP99
0122525330999992000100215004+39760+098470FM-12+1478ZLJQ V0202201N002012200019N0300001N1+01061+00421101551ADDGA1001+999999999GF100991001001999999001001MD1710041+9999REMSYN054AAXX  02151 52533 42980 02202 10106 20042 40155 57004;
0202525330999992000100218004+39760+098470FM-12+1478ZLJQ V0202201N002012200019N0300001N1+00861+00331101491ADDAA199000091GA1001+999999999GF100991001001999999001001KA1999M+02051MA1999999085261MD1710061+0001REMSYN076AAXX  02181 52533 32980 02202 10086 20033 38526 40149 57006 333 00054 10205;EQDQ01  00002PRCP99
0132525330999992000100221004+39760+098470FM-12+1478ZLJQ V0202501N001012200019N0300001N1+00831+00311101481ADDGA1001+999999999GF100991001001999999001001MD1210031+0001REMSYN064AAXX  02211 52533 42980 02501 10083 20031 40148 52003 333 00051;
0191525330999992000100300004+39760+098470FM-12+1478ZLJQ V0209999C000012200019N0300001N1+00521+00301101861ADDAA199000091GF103991001001999999001021IA2999+00009MA1999999085381MD1210091-0101REMSYN082AAXX  03001 52533 32980 30000 10052 20030 38538 40186 52009 80002 333 05152 30007;EQDQ01  00002PRCP99
0112525330999992000100303004+39760+098470FM-12+1478ZLJQ V0209999C000019999999N0300001N1+01241+00641101871ADDGF108991031001999999041071MD1210111+9999REMSYN060AAXX  03031 52533 42980 80000 10124 20064 40187 52011 83047;
0192525330999992000100306004+39760+098470FM-12+1478ZLJQ V0209999C000019999999N0300001N1+01581+00611101721ADDAA199000091GF108991021001999999041071KA1999N+00481MA1999999085401MD1710091+0001REMSYN082AAXX  03061 52533 32980 80000 10158 20061 38540 40172 57009 82047 333 00052 20048;EQDQ01  00002PRCP99
0122525330999992000100309004+39760+098470FM-12+1478ZLJQ V0201101N003010360019N0300001N1+01601+00591101541ADDGF107991011041017501041021MD1710151+0011REMSYN070AAXX  03091 52533 42780 71103 10160 20059 40154 57015 81442 333 05154;
0173525330999992000100312004+39760+098470FM-12+1478ZLJQ V0203401N002012200019N0300001N1+01161+00661101861ADDAA199000091GF101991011041017501001001MA1999999085321MD1210071+0001REMSYN076AAXX  03121 52533 32780 13402 10116 20066 38532 40186 52007 81400 333 00052;EQDQ01  00002PRCP99
0122525330999992000100315004+39760+098470FM-12+1478ZLJQ V0202201N002012200019N0300001N1+01041+00491101711ADDGA1001+999999999GF100991001001999999001001MD1210031+9999REMSYN054AAXX  03151 52533 42980 02202 10104 20049 40171 52003;
0202525330999992000100318004+39760+098470FM-12+1478ZLJQ V0202201N003012200019N0300001N1+00961+00401101481ADDAA199000091GA1001+999999999GF100991001001999999001001KA1999M+01671MA1999999085231MD1710121+0001REMSYN076AAXX  03181 52533 32980 02203 10096 20040 38523 40148 57012 333 00001 10167;EQDQ01  00002PRCP99
0122525330999992000100321004+39760+098470FM-12+1478ZLJQ V0209999C000012200019N0300001N1+00821+00301101501ADDGF102991001001999999001021MD1710021+0011REMSYN070AAXX  03211 52533 42980 20000 10082 20030 40150 57002 80002 333 05100;
0191525330999992000100400004+39760+098470FM-12+1478ZLJQ V0202501N002012200019N0300001N1+00571+00231101861ADDAA199000091GF102991011001999999041021IA2999+00009MA1999999085331MD1210121-0101REMSYN082AAXX  04001 52533 32980 22502 10057 20023 38533 40186 52012 81042 333 05101 30007;EQDQ01  00002PRCP99
0141525330999992000100403004+39760+098470FM-12+1478ZLJQ V0200401N002012200019N0300001N1+01692+00271101661ADDGA1001+999999999GF100991001001999999001001MD1210101+9999REMSYN054AAXX  04031 52533 42980 00402 10169 20027 40166 52010;EQDQ01+001693ATOT  
0192525330999992000100406004+39760+098470FM-12+1478ZLJQ V0200201N004012200019N0300001N1+02041-00101101451ADDAA199000091GF102991011011017501001021KA1999N+00551MA1999999085321MD1710111-0101REMSYN082AAXX  04061 52533 32780 20204 10204 21010 38532 40145 57011 81102 333 05105 20055;EQDQ01  00002PRCP99
0122525330999992000100409004+39760+098470FM-12+1478ZLJQ V0201101N001010900019N0300001N1+02151-00171101371ADDGF106991011041017501001021MD1710081+0001REMSYN070AAXX  04091 52533 42780 61101 10215 21017 40137 57008 81402 333 00006;
0173525330999992000100412004+39760+098470FM-12+1478ZLJQ V0202001N001012200019N0300001N1+01501+00401101681ADDAA199000091GF101991011041017501001021MA1999999085271MD1210031+0011REMSYN076AAXX  04121 52533 32780 12001 10150 20040 38527 40168 52003 81402 333 05103;EQDQ01  00002PRCP99
0112525330999992000100415004+39760+098470FM-12+1478ZLJQ V0202501N001012200019N0300001N1+01161+00331101471ADDGF101991001001999999001021MD1210031+9999REMSYN060AAXX  04151 52533 42980 12501 10116 20033 40147 52003 80002;
0202525330999992000100418004+39760+098470FM-12+1478ZLJQ V0209999C000012200019N0300001N1+00951+00411101251ADDAA199000091GA1001+999999999GF100991001001999999001001KA1999M+02221MA1999999085151MD1710151-0101REMSYN076AAXX  04181 52533 32980 00000 10095 20041 38515 40125 57015 333 05100 10222;EQDQ01  00002PRCP99
0132525330999992000100421004+39760+098470FM-12+1478ZLJQ V0202501N002012200019N0300001N1+00841+00251101051ADDGA1001+999999999GF100991001001999999001001MD1710171+0021REMSYN064AAXX  04211 52533 42980 02502 10084 20025 40105 57017 333 05200;
0201525330999992000100500004+39760+098470FM-12+1478ZLJQ V0209999C000012200019N0300001N1+00481+00261101301ADDAA199000091GA1001+999999999GF100991001001999999001001IA2999+00009MA1999999084931MD1710051-0401REMSYN076AAXX  05001 52533 32980 00000 10048 20026 38493 40130 57005 333 05451 30002;EQDQ01  00002PRCP99
0112525330999992000100503004+39760+098470FM-12+1478ZLJQ V0201601N003012200019N0300001N1+01561+00221100931ADDGF101991001001999999001021MD1710121+9999REMSYN060AAXX  05031 52533 42980 11603 10156 20022 40093 57012 80002;
0192525330999992000100506004+39760+098470FM-12+1478ZLJQ V0200901N003019999999N0300001N1+02051+00561100481ADDAA199000091GF107991001001999999001021KA1999N+00461MA1999999084501MD1710311-0801REMSYN082AAXX  05061 52533 32980 70903 10205 20056 38450 40048 57031 80002 333 05800 20046;EQDQ01  00002PRCP99
0122525330999992000100509004+39760+098470FM-12+1478ZLJQ V0201101N003012200019N0300001N1+02501+00511100171ADDGF102991001001999999001021MD1710171+0091REMSYN070AAXX  05091 52533 42980 21103 10250 20051 40017 57017 80002 333 05904;
0173525330999992000100512004+39760+098470FM-12+1478ZLJQ V0202701N002012200019N0300001N1+01811+00521100641ADDAA199000091GF103991001001999999001021MA1999999084461MD1210131+0081REMSYN076AAXX  05121 52533 32980 32702 10181 20052 38446 40064 52013 80002 333 05803;EQDQ01  00002PRCP99
0112525330999992000100515004+39760+098470FM-12+1478ZLJQ V0202201N002019999999N0300001N1+01751+00151100491ADDGF106991001001999999001021MD1210131+9999REMSYN060AAXX  05151 52533 42980 62202 10175 20015 40049 52013 80002;
0192525330999992000100518004+39760+098470FM-12+1478ZLJQ V0203201N002019999999N0300001N1+01191-00181100861ADDAA199000091GF107991001001999999001021KA1999M+02521MA1999999084881MD1210291-0301REMSYN082AAXX  05181 52533 32980 73202 10119 21018 38488 40086 52029 80002 333 05302 10252;EQDQ01  00002PRCP99
0122525330999992000100521004+39760+098470FM-12+1478ZLJQ V0202701N002012200019N0300001N1+00841+00041101181ADDGF102991001001999999001021MD1210301+0021REMSYN070AAXX  05211 52533 42980 22702 10084 20004 40118 52030 80002 333 00200;
0191525330999992000100600004+39760+098470FM-12+1478ZLJQ V0202901N001012200019N0300001N1+00581+00121101761ADDAA199000091GF101991001001999999001021IA2999+00009MA1999999085421MD1210241+0501REMSYN082AAXX  06001 52533 32980 12901 10058 20012 38542 40176 52024 80002 333 00501 30002;EQDQ01  00002PRCP99
0112525330999992000100603004+39760+098470FM-12+1478ZLJQ V0203401N004012200019N0300001N1+01151-00151101681ADDGF101991001001999999001021MD1210071+9999REMSYN060AAXX  06031 52533 42980 13404 10115 21015 40168 52007 80002;
0192525330999992000100606004+39760+098470FM-12+1478ZLJQ V0200401N003012200019N0300001N1+01341-00471101811ADDAA199000091GF101991001001999999001021KA1999N+00501MA1999999085501MD1210011+1001REMSYN082AAXX  06061 52533 32980 10403 10134 21047 38550 40181 52001 80002 333 01057 20050;EQDQ01  00002PRCP99
0122525330999992000100609004+39760+098470FM-12+1478ZLJQ V0200701N002012200019N0300001N1+01481-00601101741ADDGF103991001001999999001021MD1710111+0111REMSYN070AAXX  06091 52533 42980 30702 10148 21060 40174 57011 80002 333 01160;
0173525330999992000100612004+39760+098470FM-12+1478ZLJQ V0202001N002012200019N0300001N1+01071-00211102041ADDAA199000091GF101991001001999999001021MA1999999085461MD1210071+0101REMSYN076AAXX  06121 52533 32980 12002 10107 21021 38546 40204 52007 80002 333 01057;EQDQ01  00002PRCP99
0112525330999992000100615004+39760+098470FM-12+1478ZLJQ V0202701N001012200019N0300001N1+00691+00011102001ADDGF102991001001999999001021MD1210021+9999REMSYN060AAXX  06151 52533 42980 22701 10069 20001 40200 52002 80002;
0192525330999992000100618004+39760+098470FM-12+1478ZLJQ V0201601N002019999999N0300001N1+00811-00121101951ADDAA199000091GF107991001001999999001021KA1999M+01571MA1999999085521MD1210041+0601REMSYN082AAXX  06181 52533 32980 71602 10081 21012 38552 40195 52004 80002 333 00654 10157;EQDQ01  00002PRCP99
0122525330999992000100621004+39760+098470FM-12+1478ZLJQ V0200701N002019999999N0300001N1+00641-00141102021ADDGF107991001001999999001021MD1210051+0041REMSYN070AAXX  06211 52533 42980 70702 10064 21014 40202 52005 80002 333 00452;
0191525330999992000100700004+39760+098470FM-12+1478ZLJQ V0209999C000012200019N0300001N1+00311-00091102341ADDAA199000091GF102991011001999999041021IA2999+00009MA1999999085641MD1210071+0201REMSYN082AAXX  07001 52533 32980 20000 10031 21009 38564 40234 52007 81042 333 00253 31002;EQDQ01  00002PRCP99
0122525330999992000100703004+39760+098470FM-12+1478ZLJQ V0200901N002012200019N0300001N1+01081-00371102091ADDGA1001+999999999GF100991001001999999001001MD1710101+9999REMSYN054AAXX  07031 52533 42980 00902 10108 21037 40209 57010;
0192525330999992000100706004+39760+098470FM-12+1478ZLJQ V0200901N004019999999N0300001N1+01431-00491101661ADDAA199000091GF107991001001999999001021KA1999N+00301MA1999999085301MD1710241-0201REMSYN082AAXX  07061 52533 32980 70904 10143 21049 38530 40166 57024 80002 333 05201 20030;EQDQ01  00002PRCP99
0122525330999992000100709004+39760+098470FM-12+1478ZLJQ V0201101N003019999999N0300001N1+01621-00301101361ADDGF107991011001999999041021MD1710251+0031REMSYN070AAXX  07091 52533 42980 71103 10162 21030 40136 57025 81042 333 05301;
0173525330999992000100712004+39760+098470FM-12+1478ZLJQ V0200901N003019999999N0300001N1+01321+00201101341ADDAA199000091GF107991011001999999041021MA1999999084871MD1710181+0061REMSYN076AAXX  07121 52533 32980 70903 10132 20020 38487 40134 57018 81042 333 05603;EQDQ01  00002PRCP99
0112525330999992000100715004+39760+098470FM-12+1478ZLJQ V0200401N003019999999N0300001N1+01181-00491101211ADDGF106991001001999999001021MD1210061+9999REMSYN060AAXX  07151 52533 42980 60403 10118 21049 40121 52006 80002;
0122525330999992000100721004+39760+098470FM-12+1478ZLJQ V0202701N002019999999N0300001N1+00591-00371101301ADDGF105991001001999999001021MD1210011+0061REMSYN070AAXX  07211 52533 42980 52702 10059 21037 40130 52001 80002 333 05651;
0191525330999992000100800004+39760+098470FM-12+1478ZLJQ V0202701N001019999999N0300001N1+00601-00131101451ADDAA199000091GF107991021001999999041021IA2999+00109MA1999999085041MD1210051-0601REMSYN082AAXX  08001 52533 32980 72701 10060 21013 38504 40145 52005 82042 333 05603 30011;EQDQ01  00002PRCP99
0112525330999992000100803004+39760+098470FM-12+1478ZLJQ V0203601N003019999999N0300001N1+01221-00581101411ADDGF107991021001999999041021MD1210091+9999REMSYN060AAXX  08031 52533 42980 73603 10122 21058 40141 52009 82042;
0192525330999992000100806004+39760+098470FM-12+1478ZLJQ V0203601N003019999999N0300001N1+01391-00751101341ADDAA199000091GF108991011001999999041071KA1999N+00481MA1999999084991MD1710141-0301REMSYN082AAXX  08061 52533 32980 83603 10139 21075 38499 40134 57014 81047 333 05300 20048;EQDQ01  00002PRCP99
0122525330999992000100809004+39760+098470FM-12+1478ZLJQ V0200401N002019999999N0300001N1+01501-00461101191ADDGF108991011001999999041071MD1710121+0021REMSYN070AAXX  08091 52533 42980 80402 10150 21046 40119 57012 81047 333 05251;
0173525330999992000100812004+39760+098470FM-12+1478ZLJQ V0202501N001019999999N0300001N1+01181+00231101421ADDAA199000091GF108991021001999999041071MA1999999084981MD1210111+0011REMSYN076AAXX  08121 52533 32980 82501 10118 20023 38498 40142 52011 82047 333 00151;EQDQ01  00002PRCP99
0112525330999992000100815004+39760+098470FM-12+1478ZLJQ V0202001N001019999999N0300001N1+00941+00151101371ADDGF107991001001999999001021MD1210061+9999REMSYN060AAXX  08151 52533 42980 72001 10094 20015 40137 52006 80002;
0192525330999992000100818004+39760+098470FM-12+1478ZLJQ V0202701N002019999999N0300001N1+00861-00231101411ADDAA199000091GF107991001001999999001021KA1999M+01601MA1999999085091MD1210051+0101REMSYN082AAXX  08181 52533 32980 72702 10086 21023 38509 40141 52005 80002 333 00102 10160;EQDQ01  00002PRCP99
0132525330999992000100821004+39760+098470FM-12+1478ZLJQ V0202901N003012200019N0300001N1+00811-00241101461ADDGA1001+999999999GF100991001001999999001001MD1210061+0021REMSYN064AAXX  08211 52533 42980 02903 10081 21024 40146 52006 333 00202;
0191525330999992000100900004+39760+098470FM-12+1478ZLJQ V0202001N002019999999N0300001N1+00741+00081101701ADDAA199000091GF107991011001999999041021IA2999+00209MA1999999085251MD1210101+0201REMSYN082AAXX  09001 52533 32980 72002 10074 20008 38525 40170 52010 81042 333 00201 30026;EQDQ01  00002PRCP99
0112525330999992000100903004+39760+098470FM-12+1478ZLJQ V0200201N003019999999N0300001N1+00931+00101101851ADDGF108991011001999999041071MD1210111+9999REMSYN060AAXX  09031 52533 42980 80203 10093 20010 40185 52011 81047;
0192525330999992000100906004+39760+098470FM-12+1478ZLJQ V0200201N004019999999N0300001N1+01121+00251101691ADDAA199000091GF107991021001999999041021KA1999N+00691MA1999999085261MD1710101+0301REMSYN082AAXX  09061 52533 32980 70204 10112 20025 38526 40169 57010 82042 333 00353 20069;EQDQ01  00002PRCP99
0122525330999992000100909004+39760+098470FM-12+1478ZLJQ V0200901N002019999999N0300001N1+01121+00201101681ADDGF107991011001999999041021MD1710021+0041REMSYN070AAXX  09091 52533 42980 70902 10112 20020 40168 57002 81042 333 00454;
0173525330999992000100912004+39760+098470FM-12+1478ZLJQ V0209999C000019999999N0300001N1+00801+00181101961ADDAA199000091GF105991001001999999001021MA1999999085371MD1210131+0041REMSYN076AAXX  09121 52533 32980 50000 10080 20018 38537 40196 52013 80002 333 00454;EQDQ01  00002PRCP99
0112525330999992000100915004+39760+098470FM-12+1478ZLJQ V0203401N001012200019N0300001N1+00421-00381102271ADDGF101991001001999999001021MD1210211+9999REMSYN060AAXX  09151 52533 42980 13401 10042 21038 40227 52021 80002;
0192525330999992000100918004+39760+098470FM-12+1478ZLJQ V0209999C000012200019N0300001N1+00131-00681102451ADDAA199000091GF101991001001999999001021KA1999M+01161MA1999999085701MD1210121+0601REMSYN082AAXX  09181 52533 32980 10000 10013 21068 38570 40245 52012 80002 333 00657 10116;EQDQ01  00002PRCP99
0122525330999992000100921004+39760+098470FM-12+1478ZLJQ V0203401N002019999999N0300001N1+00091-00951102561ADDGF107991021001999999041021MD1210081+0061REMSYN070AAXX  09211 52533 42980 73402 10009 21095 40256 52008 82042 333 00657;
0191525330999992000101000004+39760+098470FM-12+1478ZLJQ V0203401N002019999999N0300001N1-00041-01231103111ADDAA199000091GF108991081001999999021999IA2999-00209MA1999999086121MD1210341+0901REMSYN082AAXX  10001 52533 32980 83402 11004 21123 38612 40311 52034 8802/ 333 00958 31024;EQDQ01  00002PRCP99
0132525330999992000101003004+39760+098470FM-12+1478ZLJQ V0202201N001019999999N0250001N1-00121-00701103461ADDAY171031GF108991011001999999041071MD1210161+9999MW1701REMSYN066AAXX  10031 52533 41975 82201 11012 21070 40346 52016 77070 81047;
0199525330999992000101006004+39760+098470FM-12+1478ZLJQ V0201401N003010900019N0300001N1+00111-00441103371ADDAA106000191AY171061GF107991031051017501001021KA1999N-00231MA1999999086191MD1710091+0901MW1001REMSYN094AAXX  10061 52533 11780 71403 10011 21044 38619 40337 57009 69911 70070 83502 333 00960 21023;
0122525330999992000101009004+39760+098470FM-12+1478ZLJQ V0201601N001010900019N0300001N1+00271-00351103341ADDGF107991011051017501001021MD1210011+0101REMSYN070AAXX  10091 52533 42780 71601 10027 21035 40334 52001 81502 333 01059;
0154525330999992000101012004+39760+098470FM-12+1478ZLJQ V0209999C000019999999N0300001N1+00201-00221103481ADDAA199000021GF107991031001999999041021MA1999999086261MD1210061+0091REMSYN076AAXX  10121 52533 32980 70000 10020 21022 38626 40348 52006 83042 333 00956;
0112525330999992000101015004+39760+098470FM-12+1478ZLJQ V0209999C000012200019N0300001N1+00001-00331103651ADDGF101991001001999999001021MD1210061+9999REMSYN060AAXX  10151 52533 42980 10000 10000 21033 40365 52006 80002;
0192525330999992000101018004+39760+098470FM-12+1478ZLJQ V0201101N002012200019N0300001N1-00131-00451103531ADDAA199000091GF101991001001999999001021KA1999M+00331MA1999999086251MD1710071+0601REMSYN082AAXX  10181 52533 32980 11102 11013 21045 38625 40353 57007 80002 333 00653 10033;EQDQ01  00002PRCP99
0139525330999992000101021004+39760+098470FM-12+1478ZLJQ V0209999C000012200019N0300001N1-00201-00501103511ADDAA124000191GF104991011001999999041021MD1210011+0501REMSYN076AAXX  10211 52533 42980 40000 11020 21050 40351 52001 81042 333 00553 70001;
0160525330999992000101100004+39760+098470FM-12+1478ZLJQ V0202901N001012200019N0300001N1-00321-00631103671ADDAA124000191GF103991011001999999041021MA1999999086341MD1210081+0201REMSYN082AAXX  11001 52533 32980 32901 11032 21063 38634 40367 52008 81042 333 00253 70001;
0122525330999992000101103004+39760+098470FM-12+1478ZLJQ V0201101N002012200019N0300001N1+00451-00671103541ADDGA1001+999999999GF100991001001999999001001MD1210051+9999REMSYN054AAXX  11031 52533 42980 01102 10045 21067 40354 52005;
0192525330999992000101106004+39760+098470FM-12+1478ZLJQ V0201601N002012200019N0300001N1+00791-00421103331ADDAA199000091GF101991011011017501001021KA1999N-00341MA1999999086271MD1710121+0101REMSYN082AAXX  11061 52533 32780 11602 10079 21042 38627 40333 57012 81102 333 00107 21034;EQDQ01  00002PRCP99
0122525330999992000101109004+39760+098470FM-12+1478ZLJQ V0200901N003012200019N0300001N1+00911-00451103201ADDGF101991011011017501001021MD1710091+0001REMSYN070AAXX  11091 52533 42780 10903 10091 21045 40320 57009 81102 333 00006;
0183525330999992000101112004+39760+098470FM-12+1478ZLJQ V0200701N002012200019N0300001N1+00611-00421103411ADDAA199000091GA1001+999999999GF100991001001999999001001MA1999999086241MD1210061+0001REMSYN070AAXX  11121 52533 32980 00702 10061 21042 38624 40341 52006 333 00004;EQDQ01  00002PRCP99
0122525330999992000101115004+39760+098470FM-12+1478ZLJQ V0209999C000012200019N0300001N1+00171-00671103381ADDGA1001+999999999GF100991001001999999001001MD1210061+9999REMSYN054AAXX  11151 52533 42980 00000 10017 21067 40338 52006;
0202525330999992000101118004+39760+098470FM-12+1478ZLJQ V0200201N002012200019N0300001N1+00051-00891103251ADDAA199000091GA1001+999999999GF100991001001999999001001KA1999M+00941MA1999999086261MD1710041+0001REMSYN076AAXX  11181 52533 32980 00202 10005 21089 38626 40325 57004 333 00002 10094;EQDQ01  00002PRCP99
0122525330999992000101121004+39760+098470FM-12+1478ZLJQ V0209999C000012200019N0300001N1-00291-00701103261ADDGF102991001001999999001021MD1710061+0011REMSYN070AAXX  11211 52533 42980 20000 11029 21070 40326 57006 80002 333 05151;
0173525330999992000101200004+39760+098470FM-12+1478ZLJQ V0209999C000012200019N0300001N1-00371-00651103461ADDAA199000091GF102991011001999999041021MA1999999086261MD1210061+0011REMSYN076AAXX  12001 52533 32980 20000 11037 21065 38626 40346 52006 81042 333 05151;EQDQ01  00002PRCP99
0112525330999992000101203004+39760+098470FM-12+1478ZLJQ V0200901N003012200019N0300001N1+00451-00551103421ADDGF101991001001999999001021MD1210081+9999REMSYN060AAXX  12031 52533 42980 10903 10045 21055 40342 52008 80002;
0192525330999992000101206004+39760+098470FM-12+1478ZLJQ V0200901N005012200019N0300001N1+00901-00181103061ADDAA199000091GF102991001001999999001021KA1999N-00381MA1999999086131MD1710211-0101REMSYN082AAXX  12061 52533 32980 20905 10090 21018 38613 40306 57021 80002 333 05101 21038;EQDQ01  00002PRCP99
0122525330999992000101209004+39760+098470FM-12+1478ZLJQ V0200901N004012200019N0300001N1+01061-00341103001ADDGF102991001001999999001021MD1710101+0021REMSYN070AAXX  12091 52533 42980 20904 10106 21034 40300 57010 80002 333 05202;
0173525330999992000101212004+39760+098470FM-12+1478ZLJQ V0200401N003012200019N0300001N1+00711-00371103191ADDAA199000091GF101991001001999999001021MA1999999086071MD1210041+0021REMSYN076AAXX  12121 52533 32980 10403 10071 21037 38607 40319 52004 80002 333 05201;EQDQ01  00002PRCP99
0112525330999992000101215004+39760+098470FM-12+1478ZLJQ V0209999C000019999999N0300001N1+00331-00371103121ADDGF106991021001999999041021MD1210061+9999REMSYN060AAXX  12151 52533 42980 60000 10033 21037 40312 52006 82042;
0192525330999992000101218004+39760+098470FM-12+1478ZLJQ V0209999C000019999999N0300001N1+00271-00201102881ADDAA199000091GF107991061001999999031021KA1999M+01081MA1999999086041MD1710091-0201REMSYN082AAXX  12181 52533 32980 70000 10027 21020 38604 40288 57009 86032 333 05202 10108;EQDQ01  00002PRCP99
0132525330999992000101221004+39760+098470FM-12+1478ZLJQ V0209999C000012200019N0300001N1+00041-00411102791ADDGA1001+999999999GF100991001001999999001001MD1710101+0031REMSYN064AAXX  12211 52533 42980 00000 10004 21041 40279 57010 333 05303;
0183525330999992000101300004+39760+098470FM-12+1478ZLJQ V0202201N002012200019N0300001N1-00141-00371103011ADDAA199000091GA1001+999999999GF100991001001999999001001MA1999999085981MD1210041+0031REMSYN070AAXX  13001 52533 32980 02202 11014 21037 38598 40301 52004 333 05302;EQDQ01  00002PRCP99
0122525330999992000101303004+39760+098470FM-12+1478ZLJQ V0200901N002012200019N0300001N1+00931-00371102731ADDGA1001+999999999GF100991001001999999001001MD1710041+9999REMSYN054AAXX  13031 52533 42980 00902 10093 21037 40273 57004;
0202525330999992000101306004+39760+098470FM-12+1478ZLJQ V0200901N001012200019N0300001N1+01271-00491102311ADDAA199000091GA1001+999999999GF100991001001999999001001KA1999N-00191MA1999999085661MD1710281-0501REMSYN076AAXX  13061 52533 32980 00901 10127 21049 38566 40231 57028 333 05504 21019;EQDQ01  00002PRCP99
0132525330999992000101309004+39760+098470FM-12+1478ZLJQ V0200201N002012200019N0300001N1+01431-00671102191ADDGA1001+999999999GF100991001001999999001001MD1710121+0051REMSYN064AAXX  13091 52533 42980 00202 10143 21067 40219 57012 333 05504;
0183525330999992000101312004+39760+098470FM-12+1478ZLJQ V0203601N001012200019N0300001N1+00881-00381102511ADDAA199000091GA1001+999999999GF100991001001999999001001MA1999999085611MD1210071+0051REMSYN070AAXX  13121 52533 32980 03601 10088 21038 38561 40251 52007 333 05502;EQDQ01  00002PRCP99
0122525330999992000101315004+39760+098470FM-12+1478ZLJQ V0202201N002012200019N0300001N1+00521-00181102281ADDGA1001+999999999GF100991001001999999001001MD1410001+9999REMSYN054AAXX  13151 52533 42980 02202 10052 21018 40228 54000;
0202525330999992000101318004+39760+098470FM-12+1478ZLJQ V0202201N001012200019N0300001N1+00341-00291102191ADDAA199000091GA1001+999999999GF100991001001999999001001KA1999M+01461MA1999999085581MD1710031-0501REMSYN076AAXX  13181 52533 32980 02201 10034 21029 38558 40219 57003 333 05501 10146;EQDQ01  00002PRCP99
0132525330999992000101321004+39760+098470FM-12+1478ZLJQ V0202201N002012200019N0300001N1+00241-00421102161ADDGA1001+999999999GF100991001001999999001001MD1710011+0041REMSYN064AAXX  13211 52533 42980 02202 10024 21042 40216 57001 333 05402;
0183525330999992000101400004+39760+098470FM-12+1478ZLJQ V0202501N002012200019N0300001N1+00201-00471102481ADDAA199000091GA1001+999999999GF100991001001999999001001MA1999999085681MD1210111+0031REMSYN070AAXX  14001 52533 32980 02502 10020 21047 38568 40248 52011 333 05303;EQDQ01  00002PRCP99
0122525330999992000101403004+39760+098470FM-12+1478ZLJQ V0209999C000012200019N0300001N1+01301-00601102341ADDGA1001+999999999GF100991001001999999001001MD1210081+9999REMSYN054AAXX  14031 52533 42980 00000 10130 21060 40234 52008;
0202525330999992000101406004+39760+098470FM-12+1478ZLJQ V0203401N003012200019N0300001N1+01451-00721102281ADDAA199000091GA1001+999999999GF100991001001999999001001KA1999N+00181MA1999999085701MD1710061+0001REMSYN076AAXX  14061 52533 32980 03403 10145 21072 38570 40228 57006 333 00002 20018;EQDQ01  00002PRCP99
0132525330999992000101409004+39760+098470FM-12+1478ZLJQ V0200901N003012200019N0300001N1+01511-00501102201ADDGA1001+999999999GF100991001001999999001001MD1710081+0011REMSYN064AAXX  14091 52533 42980 00903 10151 21050 40220 57008 333 00101;
0183525330999992000101412004+39760+098470FM-12+1478ZLJQ V0209999C000012200019N0300001N1+00821-00051102541ADDAA199000091GA1001+999999999GF100991001001999999001001MA1999999085711MD1210091+0011REMSYN070AAXX  14121 52533 32980 00000 10082 21005 38571 40254 52009 333 00151;EQDQ01  00002PRCP99
0112525330999992000101415004+39760+098470FM-12+1478ZLJQ V0202201N002012200019N0300001N1+00621-00361102391ADDGF102991001001999999001021MD1210121+9999REMSYN060AAXX  14151 52533 42980 22202 10062 21036 40239 52012 80002;
0192525330999992000101418004+39760+098470FM-12+1478ZLJQ V0202001N002019999999N0300001N1+00501-00331102351ADDAA199000091GF106991001001999999001021KA1999M+01641MA1999999085801MD1710031+0201REMSYN082AAXX  14181 52533 32980 62002 10050 21033 38580 40235 57003 80002 333 00202 10164;EQDQ01  00002PRCP99
0122525330999992000101421004+39760+098470FM-12+1478ZLJQ V0202501N002019999999N0300001N1+00361-00391102311ADDGF107991001001999999001021MD1710051+0021REMSYN070AAXX  14211 52533 42980 72502 10036 21039 40231 57005 80002 333 00201;
0191525330999992000101500004+39760+098470FM-12+1478ZLJQ V0202501N001019999999N0300001N1+00171-00381102761ADDAA199000091GF107991011001999999041021IA2999-00409MA1999999085891MD1210141+0201REMSYN082AAXX  15001 52533 32980 72501 10017 21038 38589 40276 52014 81042 333 00200 31049;EQDQ01  00002PRCP99
0112525330999992000101503004+39760+098470FM-12+1478ZLJQ V0200401N002019999999N0300001N1+00881-00251102741ADDGF108991001001999999001071MD1210121+9999REMSYN060AAXX  15031 52533 42980 80402 10088 21025 40274 52012 80007;
0192525330999992000101506004+39760+098470FM-12+1478ZLJQ V0200901N003019999999N0300001N1+01141-00341102591ADDAA199000091GF108991011001999999041071KA1999N+00151MA1999999085921MD1710091+0201REMSYN082AAXX  15061 52533 32980 80903 10114 21034 38592 40259 57009 81047 333 00253 20015;EQDQ01  00002PRCP99
0122525330999992000101509004+39760+098470FM-12+1478ZLJQ V0200901N002019999999N0300001N1+01281-00321102531ADDGF107991011001999999041021MD1710051+0031REMSYN070AAXX  15091 52533 42980 70902 10128 21032 40253 57005 81042 333 00352;
0173525330999992000101512004+39760+098470FM-12+1478ZLJQ V0209999C000012200019N0300001N1+00721-00071102801ADDAA199000091GF102991001001999999001021MA1999999085891MD1210021+0021REMSYN076AAXX  15121 52533 32980 20000 10072 21007 38589 40280 52002 80002 333 00251;EQDQ01  00002PRCP99
0122525330999992000101515004+39760+098470FM-12+1478ZLJQ V0202501N002012200019N0300001N1+00541-00381102621ADDGA1001+999999999GF100991001001999999001001MD1410001+9999REMSYN054AAXX  15151 52533 42980 02502 10054 21038 40262 54000;
0202525330999992000101518004+39760+098470FM-12+1478ZLJQ V0202501N003012200019N0300001N1+00391-00531102431ADDAA199000091GA1001+999999999GF100991001001999999001001KA1999M+01371MA1999999085761MD1710131+0001REMSYN076AAXX  15181 52533 32980 02503 10039 21053 38576 40243 57013 333 00051 10137;EQDQ01  00002PRCP99
0132525330999992000101521004+39760+098470FM-12+1478ZLJQ V0202201N002012200019N0300001N1+00281-00401102291ADDGA1001+999999999GF100991001001999999001001MD1710111+0011REMSYN064AAXX  15211 52533 42980 02202 10028 21040 40229 57011 333 05151;
0183525330999992000101600004+39760+098470FM-12+1478ZLJQ V0202201N002012200019N0300001N1+00221-00521102461ADDAA199000091GA1001+999999999GF100991001001999999001001MA1999999085621MD1710031+0031REMSYN070AAXX  16001 52533 32980 02202 10022 21052 38562 40246 57003 333 05301;EQDQ01  00002PRCP99
0141525330999992000101603004+39760+098470FM-12+1478ZLJQ V0201601N002012200019N0300001N1+01452-00371102141ADDGA1001+999999999GF100991001001999999001001MD1210021+9999REMSYN054AAXX  16031 52533 42980 01602 10145 21037 40214 52002;EQDQ01+001453ATOT  
0202525330999992000101606004+39760+098470FM-12+1478ZLJQ V0200701N003012200019N0300001N1+01821-00741101821ADDAA199000091GA1001+999999999GF100991001001999999001001KA1999N+00131MA1999999085431MD1710211-0501REMSYN076AAXX  16061 52533 32980 00703 10182 21074 38543 40182 57021 333 05507 20013;EQDQ01  00002PRCP99
0122525330999992000101609004+39760+098470FM-12+1478ZLJQ V0200701N004012200019N0300001N1+01841-00781101641ADDGF101991001001999999001021MD1710181+0061REMSYN070AAXX  16091 52533 42980 10704 10184 21078 40164 57018 80002 333 05606;
0173525330999992000101612004+39760+098470FM-12+1478ZLJQ V0202001N003012200019N0300001N1+01101-00371101851ADDAA199000091GF104991001001999999001021MA1999999085221MD1710031+0071REMSYN076AAXX  16121 52533 32980 42003 10110 21037 38522 40185 57003 80002 333 05704;EQDQ01  00002PRCP99
0122525330999992000101615004+39760+098470FM-12+1478ZLJQ V0202201N002012200019N0300001N1+00741-00461101511ADDGA1001+999999999GF100991001001999999001001MD1710061+9999REMSYN054AAXX  16151 52533 42980 02202 10074 21046 40151 57006;
0202525330999992000101618004+39760+098470FM-12+1478ZLJQ V0209999C000012200019N0300001N1+00271-00381101361ADDAA199000091GA1001+999999999GF100991001001999999001001KA1999M+01901MA1999999085011MD1710151-0801REMSYN076AAXX  16181 52533 32980 00000 10027 21038 38501 40136 57015 333 05851 10190;EQDQ01  00002PRCP99
0132525330999992000101621004+39760+098470FM-12+1478ZLJQ V0202501N001012200019N0300001N1+00131-00601101141ADDGA1001+999999999GF100991001001999999001001MD1710221+0091REMSYN064AAXX  16211 52533 42980 02501 10013 21060 40114 57022 333 05952;
0173525330999992000101700004+39760+098470FM-12+1478ZLJQ V0203601N002019999999N0300001N1+00021-00461101381ADDAA199000091GF107991001001999999001021MA1999999084771MD1710021+0091REMSYN076AAXX  17001 52533 32980 73602 10002 21046 38477 40138 57002 80002 333 05952;EQDQ01  00002PRCP99
0131525330999992000101703004+39760+098470FM-12+1478ZLJQ V0203401N004019999999N0300001N1+01282-00921101631ADDGF107991001001999999001021MD1210451+9999REMSYN060AAXX  17031 52533 42980 73404 10128 21092 40163 52045 80002;EQDQ01+001283ATOT  
0212525330999992000101706004+39760+098470FM-12+1478ZLJQ V0203201N008019999999N0018001N1+01271-00891101811ADDAA199000091AY131061GF107991001001999999001021KA1999N-00041MA1999999085241MD1210021-0201MW1071REMSYN088AAXX  17061 52533 31918 73208 10127 21089 38524 40181 52002 70730 80002 333 05256 21004;EQDQ01  00002PRCP99
0144525330999992000101709004+39760+098470FM-12+1478ZLJQ V0203401N006010012019N0016001N1+01151-00511102031ADDGA1091+999999999GF109991091999999999999999MD1210121+0011MW1071REMSYN070AAXX  17091 52533 41916 93406 10115 21051 40203 52012 70700 333 00157;
0173525330999992000101712004+39760+098470FM-12+1478ZLJQ V0203201N002019999999N0150001N1+00961-00391102251ADDAA199000091GF108991001001999999001071MA1999999085461MD1210101+0021REMSYN076AAXX  17121 52533 32965 83202 10096 21039 38546 40225 52010 80007 333 00251;EQDQ01  00002PRCP99
0112525330999992000101715004+39760+098470FM-12+1478ZLJQ V0202701N002019999999N0200001N1+00471-00211101961ADDGF107991001001999999001021MD1710041+9999REMSYN060AAXX  17151 52533 42970 72702 10047 21021 40196 57004 80002;
0192525330999992000101718004+39760+098470FM-12+1478ZLJQ V0202701N002012200019N0200001N1+00291-00261101711ADDAA199000091GF104991001001999999001021KA1999M+01361MA1999999085161MD1710261+0201REMSYN082AAXX  17181 52533 32970 42702 10029 21026 38516 40171 57026 80002 333 00200 10136;EQDQ01  00002PRCP99
0122525330999992000101721004+39760+098470FM-12+1478ZLJQ V0200701N002019999999N0200001N1+00251-00341101701ADDGF107991001001999999001021MD1710051+0031REMSYN070AAXX  17211 52533 42970 70702 10025 21034 40170 57005 80002 333 00301;
0191525330999992000101800004+39760+098470FM-12+1478ZLJQ V0202701N002019999999N0200001N1+00081-00301102141ADDAA199000091GF107991001001999999001021IA2999-00309MA1999999085381MD1210271+0601REMSYN082AAXX  18001 52533 32970 72702 10008 21030 38538 40214 52027 80002 333 00601 31039;EQDQ01  00002PRCP99
0112525330999992000101803004+39760+098470FM-12+1478ZLJQ V0200201N004019999999N0300001N1+00371-00551102371ADDGF107991001001999999001021MD1210141+9999REMSYN060AAXX  18031 52533 42980 70204 10037 21055 40237 52014 80002;
0192525330999992000101806004+39760+098470FM-12+1478ZLJQ V0203401N005019999999N0250001N1+00461-00611102541ADDAA199000091GF107991011001999999041021KA1999N+00061MA1999999085641MD1210121+0401REMSYN082AAXX  18061 52533 32975 73405 10046 21061 38564 40254 52012 81042 333 00458 20006;EQDQ01  00002PRCP99
0122525330999992000101809004+39760+098470FM-12+1478ZLJQ V0203401N003012200019N0300001N1+00641-00551102481ADDGF104991011001999999041021MD1710011+0031REMSYN070AAXX  18091 52533 42980 43403 10064 21055 40248 57001 81042 333 00355;
0173525330999992000101812004+39760+098470FM-12+1478ZLJQ V0200201N002019999999N0300001N1+00381-00181102721ADDAA199000091GF107991021001999999041021MA1999999085711MD1210081+0031REMSYN076AAXX  18121 52533 32980 70202 10038 21018 38571 40272 52008 82042 333 00356;EQDQ01  00002PRCP99
0112525330999992000101815004+39760+098470FM-12+1478ZLJQ V0201801N002012200019N0300001N1+00081-00131102681ADDGF103991001001999999001021MD1710041+9999REMSYN060AAXX  18151 52533 42980 31802 10008 21013 40268 57004 80002;
0192525330999992000101818004+39760+098470FM-12+1478ZLJQ V0200401N002012200019N0300001N1-00061-00221102711ADDAA199000091GF102991011001999999041021KA1999M+00671MA1999999085681MD1210011+0501REMSYN082AAXX  18181 52533 32980 20402 11006 21022 38568 40271 52001 81042 333 00554 10067;EQDQ01  00002PRCP99
0132525330999992000101821004+39760+098470FM-12+1478ZLJQ V0200701N002012200019N0300001N1-00121-00541102521ADDGA1001+999999999GF100991001001999999001001MD1710121+0051REMSYN064AAXX  18211 52533 42980 00702 11012 21054 40252 57012 333 00554;
0173525330999992000101900004+39760+098470FM-12+1478ZLJQ V0203601N002012200019N0300001N1-00301-00841102731ADDAA199000091GF101991011041017501001001MA1999999085611MD1210051+0021REMSYN076AAXX  19001 52533 32780 13602 11030 21084 38561 40273 52005 81400 333 00254;EQDQ01  00002PRCP99
0122525330999992000101903004+39760+098470FM-12+1478ZLJQ V0201801N002012200019N0300001N1+00321-00751102611ADDGA1001+999999999GF100991001001999999001001MD1710011+9999REMSYN054AAXX  19031 52533 42980 01802 10032 21075 40261 57001;
0202525330999992000101906004+39760+098470FM-12+1478ZLJQ V0200701N003012200019N0300001N1+00731-00331102151ADDAA199000091GA1001+999999999GF100991001001999999001001KA1999N-00331MA1999999085291MD1710311-0401REMSYN076AAXX  19061 52533 32980 00703 10073 21033 38529 40215 57031 333 05403 21033;EQDQ01  00002PRCP99
0122525330999992000101909004+39760+098470FM-12+1478ZLJQ V0200701N003019999999N0300001N1+00971-00521101841ADDGF107991001001999999001021MD1710211+0061REMSYN070AAXX  19091 52533 42980 70703 10097 21052 40184 57021 80002 333 05603;
0173525330999992000101912004+39760+098470FM-12+1478ZLJQ V0209999C000019999999N0300001N1+00571-00081101961ADDAA199000091GF107991031001999999041021MA1999999085021MD1710061+0071REMSYN076AAXX  19121 52533 32980 70000 10057 21008 38502 40196 57006 83042 333 05702;EQDQ01  00002PRCP99
0112525330999992000101915004+39760+098470FM-12+1478ZLJQ V0202501N002019999999N0300001N1+00441-00251101941ADDGF107991001001999999001021MD1210121+9999REMSYN060AAXX  19151 52533 42980 72502 10044 21025 40194 52012 80002;
0192525330999992000101918004+39760+098470FM-12+1478ZLJQ V0202701N005019999999N0300001N1+00811-00121101781ADDAA199000091GF108991051001999999041071KA1999M+01021MA1999999085221MD1210081-0501REMSYN082AAXX  19181 52533 32980 82705 10081 21012 38522 40178 52008 85047 333 05509 10102;EQDQ01  00002PRCP99
0122525330999992000101921004+39760+098470FM-12+1478ZLJQ V0203601N002019999999N0300001N1+00461-00491101931ADDGF107991011001999999041021MD1210091+0031REMSYN070AAXX  19211 52533 42980 73602 10046 21049 40193 52009 81042 333 05306;
0191525330999992000102000004+39760+098470FM-12+1478ZLJQ V0201801N002019999999N0300001N1+00201-00621102391ADDAA199000091GF107991021001999999041021IA2999+00009MA1999999085521MD1210211-0101REMSYN082AAXX  20001 52533 32980 71802 10020 21062 38552 40239 52021 82042 333 05105 31006;EQDQ01  00002PRCP99
0112525330999992000102003004+39760+098470FM-12+1478ZLJQ V0201101N002012200019N0300001N1+00561-00811102531ADDGF102991021001999999041021MD1210181+9999REMSYN060AAXX  20031 52533 42980 21102 10056 21081 40253 52018 82042;
0192525330999992000102006004+39760+098470FM-12+1478ZLJQ V0200201N001012200019N0300001N1+00951-00601102071ADDAA199000091GF101991011011017501001021KA1999N+00191MA1999999085521MD1710181+0201REMSYN082AAXX  20061 52533 32780 10201 10095 21060 38552 40207 57018 81102 333 00202 20019;EQDQ01  00002PRCP99
0122525330999992000102009004+39760+098470FM-12+1478ZLJQ V0200201N002010900019N0300001N1+01181-00661101961ADDGF106991011041017501001021MD1710131+0031REMSYN070AAXX  20091 52533 42780 60202 10118 21066 40196 57013 81402 333 00302;
0173525330999992000102012004+39760+098470FM-12+1478ZLJQ V0200701N002012200019N0300001N1+00671-00261102241ADDAA199000091GF101991001001999999001021MA1999999085421MD1210031+0041REMSYN076AAXX  20121 52533 32980 10702 10067 21026 38542 40224 52003 80002 333 00401;EQDQ01  00002PRCP99
0122525330999992000102015004+39760+098470FM-12+1478ZLJQ V0200701N001012200019N0300001N1+00521-00621102081ADDGA1001+999999999GF100991001001999999001001MD1710081+9999REMSYN054AAXX  20151 52533 42980 00701 10052 21062 40208 57008;
0202525330999992000102018004+39760+098470FM-12+1478ZLJQ V0202201N002012200019N0300001N1+00151-00471101941ADDAA199000091GA1001+999999999GF100991001001999999001001KA1999M+01291MA1999999085231MD1710111+0001REMSYN076AAXX  20181 52533 32980 02202 10015 21047 38523 40194 57011 333 00057 10129;EQDQ01  00002PRCP99
0132525330999992000102021004+39760+098470FM-12+1478ZLJQ V0202901N004012200019N0300001N1+00461-00641101761ADDGA1001+999999999GF100991001001999999001001MD1410001+0011REMSYN064AAXX  20211 52533 42980 02904 10046 21064 40176 54000 333 05100;
0191525330999992000102100004+39760+098470FM-12+1478ZLJQ V0202201N001019999999N0300001N1+00331-00691102081ADDAA199000091GF105991011001999999041021IA2999-00409MA1999999085321MD1210091-0201REMSYN082AAXX  21001 52533 32980 52201 10033 21069 38532 40208 52009 81042 333 05201 31048;EQDQ01  00002PRCP99
0112525330999992000102103004+39760+098470FM-12+1478ZLJQ V0209999C000019999999N0300001N1+01011-00311101891ADDGF107991021001999999041021MD1710011+9999REMSYN060AAXX  21031 52533 42980 70000 10101 21031 40189 57001 82042;
0192525330999992000102106004+39760+098470FM-12+1478ZLJQ V0201401N002019999999N0300001N1+01241-00491101601ADDAA199000091GF107991021001999999041021KA1999N+00071MA1999999085031MD1710281-0501REMSYN082AAXX  21061 52533 32980 71402 10124 21049 38503 40160 57028 82042 333 05503 20007;EQDQ01  00002PRCP99
0122525330999992000102109004+39760+098470FM-12+1478ZLJQ V0202501N002019999999N0300001N1+01321-00381101361ADDGF107991031001999999041021MD1710101+0051REMSYN070AAXX  21091 52533 42980 72502 10132 21038 40136 57010 83042 333 05501;
0173525330999992000102112004+39760+098470FM-12+1478ZLJQ V0202701N004019999999N0300001N1+01221-00071101601ADDAA199000091GF108991031001999999031071MA1999999085071MD1210141+0041REMSYN076AAXX  21121 52533 32980 82704 10122 21007 38507 40160 52014 83037 333 05406;EQDQ01  00002PRCP99
0112525330999992000102115004+39760+098470FM-12+1478ZLJQ V0202201N002012200019N0300001N1+00681-00081101291ADDGF102991001001999999001021MD1710221+9999REMSYN060AAXX  21151 52533 42980 22202 10068 21008 40129 57022 80002;
0192525330999992000102118004+39760+098470FM-12+1478ZLJQ V0202501N002012200019N0300001N1+00601-00251101031ADDAA199000091GF101991001001999999001021KA1999M+01511MA1999999084671MD1710181-0601REMSYN082AAXX  21181 52533 32980 12502 10060 21025 38467 40103 57018 80002 333 05605 10151;EQDQ01  00002PRCP99
0122525330999992000102121004+39760+098470FM-12+1478ZLJQ V0202701N002012200019N0300001N1+00351-00331100821ADDGF101991001001999999001021MD1710221+0081REMSYN070AAXX  21211 52533 42980 12702 10035 21033 40082 57022 80002 333 05851;
0191525330999992000102200004+39760+098470FM-12+1478ZLJQ V0209999C000012200019N0300001N1+00131-00271100861ADDAA199000091GF104991011001999999041021IA2999-00409MA1999999084401MD1710051-0901REMSYN082AAXX  22001 52533 32980 40000 10013 21027 38440 40086 57005 81042 333 05952 31042;EQDQ01  00002PRCP99
0112525330999992000102203004+39760+098470FM-12+1478ZLJQ V0201401N004019999999N0300001N1+01081-00221101031ADDGF107991001001999999001021MD1210251+9999REMSYN060AAXX  22031 52533 42980 71404 10108 21022 40103 52025 80002;
0192525330999992000102206004+39760+098470FM-12+1478ZLJQ V0200201N005019999999N0300001N1+01561-00411100871ADDAA199000091GF107991001001999999001021KA1999N+00091MA1999999084621MD1710031-0401REMSYN082AAXX  22061 52533 32980 70205 10156 21041 38462 40087 57003 80002 333 05403 20009;EQDQ01  00002PRCP99
0122525330999992000102209004+39760+098470FM-12+1478ZLJQ V0200201N004019999999N0300001N1+01331-00691101151ADDGF107991001001999999001021MD1210111+0021REMSYN070AAXX  22091 52533 42980 70204 10133 21069 40115 52011 80002 333 05200;
0173525330999992000102212004+39760+098470FM-12+1478ZLJQ V0200901N002012200019N0300001N1+00741-00281101701ADDAA199000091GF102991001001999999001021MA1999999084971MD1210241+0011REMSYN076AAXX  22121 52533 32980 20902 10074 21028 38497 40170 52024 80002 333 05155;EQDQ01  00002PRCP99
0122525330999992000102215004+39760+098470FM-12+1478ZLJQ V0202001N002012200019N0300001N1+00311-00201101721ADDGA1001+999999999GF100991001001999999001001MD1210161+9999REMSYN054AAXX  22151 52533 42980 02002 10031 21020 40172 52016;
0202525330999992000102218004+39760+098470FM-12+1478ZLJQ V0209999C000012200019N0300001N1+00091-00261101401ADDAA199000091GA1001+999999999GF100991001001999999001001KA1999M+01661MA1999999084931MD1710201+0301REMSYN076AAXX  22181 52533 32980 00000 10009 21026 38493 40140 57020 333 00355 10166;EQDQ01  00002PRCP99
0122525330999992000102221004+39760+098470FM-12+1478ZLJQ V0203401N002019999999N0300001N1+00141-00291101601ADDGF105991001001999999001021MD1210121+0061REMSYN070AAXX  22211 52533 42980 53402 10014 21029 40160 52012 80002 333 00652;
0253525330999992000102300004+39760+098470FM-12+1478ZLJQ V0203401N005019999999N0200001N1-00241-00361102732ADDAA106000191GF108991081001999999071999IA2999-00419MA1999999085732MD1210682+1301MW1701REMSYN106AAXX  23001 52533 11970 83405 11024 21036 38573 40273 52068 69911 77000 8807/ 333 01354 31041 70001 92500;EQDQ01+085733APOSP Q02+102733APOSLPQ03+000682APC3  
0140525330999992000102303004+39760+098470FM-12+1478ZLJQ V0203401N003019999999N0300001N1-00261-00481103211ADDAY171031AY271031GF108991021001999999041071MD1210271+9999MW1701REMSYN066AAXX  23031 52533 41980 83403 11026 21048 40321 52027 77077 82047;
0199525330999992000102306004+39760+098470FM-12+1478ZLJQ V0203601N002010150019N0300001N1-00211-00491103241ADDAA106001091AY171061GF108991061051017501001071KA1999N-00371MA1999999085981MD1710021+1401MW1221REMSYN094AAXX  23061 52533 11780 83602 11021 21049 38598 40324 57002 69991 72270 86507 333 01468 21037;
0142525330999992000102309004+39760+098470FM-12+1478ZLJQ V0200201N002019999999N0300001N1-00271-00671103431ADDAY171031GF108991081001999999021999MD1210151+0141MW1701REMSYN076AAXX  23091 52533 41980 80202 11027 21067 40343 52015 77070 8802/ 333 01466;
0180525330999992000102312004+39760+098470FM-12+1478ZLJQ V0200701N002019999999N0300001N1-00241-00531103641ADDAA106000791AY171061GF108991081001999999021999MA1999999086211MD1210081+0121MW1221REMSYN088AAXX  23121 52533 11980 80702 11024 21053 38621 40364 52008 69901 72270 8802/ 333 01260;
0112525330999992000102315004+39760+098470FM-12+1478ZLJQ V0201401N002012200019N0300001N1-00241-00461103711ADDGF102991001001999999001021MD1210051+9999REMSYN060AAXX  23151 52533 42980 21402 11024 21046 40371 52005 80002;
0173525330999992000102318004+39760+098470FM-12+1478ZLJQ V0200901N004019999999N0300001N1-00241-00561103631ADDAA199000021GF106991001001999999001021KA1999M+00341MA1999999086211MD1710051+1301REMSYN082AAXX  23181 52533 32980 60904 11024 21056 38621 40363 57005 80002 333 01353 10034;
0139525330999992000102321004+39760+098470FM-12+1478ZLJQ V0209999C000019999999N0300001N1-00281-00441103671ADDAA124001091GF106991011001999999041021MD1410001+1201REMSYN076AAXX  23211 52533 42980 60000 11028 21044 40367 54000 81042 333 01254 70010;
0160525330999992000102400004+39760+098470FM-12+1478ZLJQ V0201801N002019999999N0300001N1-00371-00481103721ADDAA124001091GF107991021001999999041021MA1999999086241MD1210031+0501REMSYN082AAXX  24001 52533 32980 71802 11037 21048 38624 40372 52003 82042 333 00551 70009;
0112525330999992000102403004+39760+098470FM-12+1478ZLJQ V0201601N003019999999N0150001N1-00271-00401103651ADDGF108991031001999999041071MD1710031+9999REMSYN060AAXX  24031 52533 42965 81603 11027 21040 40365 57003 83047;
0202525330999992000102406004+39760+098470FM-12+1478ZLJQ V0200901N005012200019N0300001N1+00481-00231103051ADDAA199000091GA1001+999999999GF100991001001999999001001KA1999N-00391MA1999999085921MD1710291-0101REMSYN076AAXX  24061 52533 32980 00905 10048 21023 38592 40305 57029 333 05107 21039;EQDQ01  00002PRCP99
0132525330999992000102409004+39760+098470FM-12+1478ZLJQ V0201401N004012200019N0300001N1+00761-00291102721ADDGA1001+999999999GF100991001001999999001001MD1710211+0041REMSYN064AAXX  24091 52533 42980 01404 10076 21029 40272 57021 333 05410;
0183525330999992000102412004+39760+098470FM-12+1478ZLJQ V0200201N002012200019N0300001N1+00341-00231102851ADDAA199000091GA1001+999999999GF100991001001999999001001MA1999999085681MD1710031+0051REMSYN070AAXX  24121 52533 32980 00202 10034 21023 38568 40285 57003 333 05506;EQDQ01  00002PRCP99
0122525330999992000102415004+39760+098470FM-12+1478ZLJQ V0202001N002012200019N0300001N1-00121-00351102881ADDGA1001+999999999GF100991001001999999001001MD1710081+9999REMSYN054AAXX  24151 52533 42980 02002 11012 21035 40288 57008;
0202525330999992000102418004+39760+098470FM-12+1478ZLJQ V0202201N002012200019N0300001N1-00021-00301102421ADDAA199000091GA1001+999999999GF100991001001999999001001KA1999M+00781MA1999999085461MD1710141-0801REMSYN076AAXX  24181 52533 32980 02202 11002 21030 38546 40242 57014 333 05802 10078;EQDQ01  00002PRCP99
0132525330999992000102421004+39760+098470FM-12+1478ZLJQ V0202901N002012200019N0300001N1-00281-00401102331ADDGA1001+999999999GF100991001001999999001001MD1710071+0081REMSYN064AAXX  24211 52533 42980 02902 11028 21040 40233 57007 333 05800;
0183525330999992000102500004+39760+098470FM-12+1478ZLJQ V0209999C000012200019N0300001N1-00201-00501102551ADDAA199000091GA1001+999999999GF100991001001999999001001MA1999999085481MD1210091+0081REMSYN070AAXX  25001 52533 32980 00000 11020 21050 38548 40255 52009 333 05802;EQDQ01  00002PRCP99
0122525330999992000102503004+39760+098470FM-12+1478ZLJQ V0200701N001012200019N0300001N1+00971-00271102341ADDGA1001+999999999GF100991001001999999001001MD1210021+9999REMSYN054AAXX  25031 52533 42980 00701 10097 21027 40234 52002;
0192525330999992000102506004+39760+098470FM-12+1478ZLJQ V0200901N004012200019N0300001N1+01341-00351101991ADDAA199000091GF101991001001999999001021KA1999N-00321MA1999999085331MD1710171-0601REMSYN082AAXX  25061 52533 32980 10904 10134 21035 38533 40199 57017 80002 333 05609 21032;EQDQ01  00002PRCP99
0122525330999992000102509004+39760+098470FM-12+1478ZLJQ V0201101N003012200019N0300001N1+01361-00511102021ADDGF101991011011017501001021MD1710041+0041REMSYN070AAXX  25091 52533 42780 11103 10136 21051 40202 57004 81102 333 05406;
0183525330999992000102512004+39760+098470FM-12+1478ZLJQ V0209999C000012200019N0300001N1+00641-00331102571ADDAA199000091GA1001+999999999GF100991001001999999001001MA1999999085581MD1210291+0011REMSYN070AAXX  25121 52533 32980 00000 10064 21033 38558 40257 52029 333 05103;EQDQ01  00002PRCP99
0122525330999992000102515004+39760+098470FM-12+1478ZLJQ V0202701N002012200019N0300001N1+00631-00191102411ADDGA1001+999999999GF100991001001999999001001MD1210181+9999REMSYN054AAXX  25151 52533 42980 02702 10063 21019 40241 52018;
0202525330999992000102518004+39760+098470FM-12+1478ZLJQ V0202701N001012200019N0300001N1+00371-00421102461ADDAA199000091GA1001+999999999GF100991001001999999001001KA1999M+01441MA1999999085831MD1210071+0401REMSYN076AAXX  25181 52533 32980 02701 10037 21042 38583 40246 52007 333 00404 10144;EQDQ01  00002PRCP99
0132525330999992000102521004+39760+098470FM-12+1478ZLJQ V0203201N002012200019N0300001N1+00431-00541102541ADDGA1001+999999999GF100991001001999999001001MD1210091+0051REMSYN064AAXX  25211 52533 42980 03202 10043 21054 40254 52009 333 00507;
0191525330999992000102600004+39760+098470FM-12+1478ZLJQ V0200701N002019999999N0300001N1+00141-00491103001ADDAA199000091GF105991001001999999001021IA2999-00509MA1999999086031MD1210111+0601REMSYN082AAXX  26001 52533 32980 50702 10014 21049 38603 40300 52011 80002 333 00603 31050;EQDQ01  00002PRCP99
0112525330999992000102603004+39760+098470FM-12+1478ZLJQ V0200701N002012200019N0300001N1+00701-00531102861ADDGF101991001001999999001021MD1210031+9999REMSYN060AAXX  26031 52533 42980 10702 10070 21053 40286 52003 80002;
0173525330999992000102606004+39760+098470FM-12+1478ZLJQ V0200401N002012200019N0300001N1+01001-00521999999ADDAA199000091GA1001+999999999GF100991001001999999001001MD1999999+0501REMSYN075AAXX  26061 52533 32980 00402 10100 21052 8586 40260 57020 333 00553 20006;EQDQ01  00002PRCP99
0132525330999992000102609004+39760+098470FM-12+1478ZLJQ V0200901N002012200019N0300001N1+01001-00601102501ADDGA1001+999999999GF100991001001999999001001MD1710071+0051REMSYN064AAXX  26091 52533 42980 00902 10100 21060 40250 57007 333 00554;
0183525330999992000102612004+39760+098470FM-12+1478ZLJQ V0201101N002012200019N0300001N1+00511-00421102771ADDAA199000091GA1001+999999999GF100991001001999999001001MA1999999085801MD1210011+0021REMSYN070AAXX  26121 52533 32980 01102 10051 21042 38580 40277 52001 333 00251;EQDQ01  00002PRCP99
0122525330999992000102615004+39760+098470FM-12+1478ZLJQ V0202201N003012200019N0300001N1+00351-00661102601ADDGA1001+999999999GF100991001001999999001001MD1710031+9999REMSYN054AAXX  26151 52533 42980 02203 10035 21066 40260 57003;
0202525330999992000102618004+39760+098470FM-12+1478ZLJQ V0202501N002012200019N0300001N1+00081-00461102431ADDAA199000091GA1001+999999999GF100991001001999999001001KA1999M+01061MA1999999085641MD1710131-0201REMSYN076AAXX  26181 52533 32980 02502 10008 21046 38564 40243 57013 333 05253 10106;EQDQ01  00002PRCP99
0132525330999992000102621004+39760+098470FM-12+1478ZLJQ V0209999C000012200019N0300001N1-00171-00461102381ADDGA1001+999999999GF100991001001999999001001MD1710111+0041REMSYN064AAXX  26211 52533 42980 00000 11017 21046 40238 57011 333 05456;
0173525330999992000102700004+39760+098470FM-12+1478ZLJQ V0202501N002012200019N0300001N1-00091-00501102521ADDAA199000091GF103991001001999999001021MA1999999085531MD1410001+0051REMSYN076AAXX  27001 52533 32980 32502 11009 21050 38553 40252 54000 80002 333 05552;EQDQ01  00002PRCP99
0112525330999992000102703004+39760+098470FM-12+1478ZLJQ V0203401N007019999999N0300001N1+00591-00721102611ADDGF107991001001999999001021MD1210221+9999REMSYN060AAXX  27031 52533 42980 73407 10059 21072 40261 52022 80002;
0192525330999992000102706004+39760+098470FM-12+1478ZLJQ V0203401N006019999999N0300001N1+00641-01101102821ADDAA199000091GF107991021001999999041021KA1999N-00281MA1999999085861MD1210111+0001REMSYN082AAXX  27061 52533 32980 73406 10064 21110 38586 40282 52011 82042 333 00054 21028;EQDQ01  00002PRCP99
0122525330999992000102709004+39760+098470FM-12+1478ZLJQ V0203401N006019999999N0300001N1+00501-00711103291ADDGF107991061001999999031021MD1210291+0041REMSYN070AAXX  27091 52533 42980 73406 10050 21071 40329 52029 86032 333 00455;
0172525330999992000102712004+39760+098470FM-12+1478ZLJQ V0203601N002019999999N0200001N1+00081-00021103801ADDAA106000191GF108991081001999999021999MA1999999086481MD1210331+0071MW1701REMSYN088AAXX  27121 52533 11970 83602 10008 21002 38648 40380 52033 69911 77000 8802/ 333 00754;
0140525330999992000102715004+39760+098470FM-12+1478ZLJQ V0203201N001019999999N0150001N1+00001+00001103761ADDAY171031AY271031GF108991081001999999021999MD1210131+9999MW1701REMSYN066AAXX  27151 52533 41965 83201 10000 20000 40376 52013 77077 8802/;
0199525330999992000102718004+39760+098470FM-12+1478ZLJQ V0202901N001019999999N0150001N1-00061-00241103931ADDAA106002091AY171061GF108991081001999999021999KA1999M+00811MA1999999086751MD1210141+1101MW1701REMSYN094AAXX  27181 52533 11965 82901 11006 21024 38675 40393 52014 60021 77070 8802/ 333 01151 10081;
0167525330999992000102721004+39760+098470FM-12+1478ZLJQ V0209999C000019999999N0200001N1-00201-00291104141ADDAA124002391AY171031AY271031GF108991081001999999021999MD1210101+1301MW1701REMSYN082AAXX  27211 52533 41970 80000 11020 21029 40414 52010 77077 8802/ 333 01300 70023;
0210525330999992000102800004+39760+098470FM-12+1478ZLJQ V0209999C000019999999N0250001N1-00201-00261104361ADDAA106000191AY171061GF108991031001999999031071IA2999-00379MA1999999086911MD1210061+1401MW1001REMSYN106AAXX  28001 52533 11975 80000 11020 21026 38691 40436 52006 69921 70070 83037 333 01451 31037 70023 92501;
0124525330999992000102803004+39760+098470FM-12+1478ZLJQ V0203201N003019999999N0130001N1-00061-00181104451ADDGF108991081001999999021999MD1210091+9999MW1701REMSYN066AAXX  28031 52533 41963 83203 11006 21018 40445 52009 77000 8802/;
0122525330999992000102809004+39760+098470FM-12+1478ZLJQ V0203201N003012200019N0300001N1+00361-00581104271ADDGF101991011051017501001001MD1710131+0081REMSYN070AAXX  28091 52533 42780 13203 10036 21058 40427 57013 81500 333 00851;
0164525330999992000102812004+39760+098470FM-12+1478ZLJQ V0201601N002012200019N0300001N1-00021-00271104261ADDAA199000021GA1001+999999999GF100991001001999999001001MA1999999086801MD1710121+0031REMSYN070AAXX  28121 52533 32980 01602 11002 21027 38680 40426 57012 333 00351;
0122525330999992000102815004+39760+098470FM-12+1478ZLJQ V0201801N002012200019N0300001N1-00201-00471103931ADDGA1001+999999999GF100991001001999999001001MD1710291+9999REMSYN054AAXX  28151 52533 42980 01802 11020 21047 40393 57029;
0202525330999992000102818004+39760+098470FM-12+1478ZLJQ V0202201N003012200019N0300001N1-00241-00631103401ADDAA199000091GA1001+999999999GF100991001001999999001001KA1999M+00371MA1999999086081MD1710431-0701REMSYN076AAXX  28181 52533 32980 02203 11024 21063 38608 40340 57043 333 05752 10037;EQDQ01  00002PRCP99
0149525330999992000102821004+39760+098470FM-12+1478ZLJQ V0202201N002012200019N0300001N1-00431-00771102851ADDAA124000891GA1001+999999999GF100991001001999999001001MD1710411-1201REMSYN070AAXX  28211 52533 42980 02202 11043 21077 40285 57041 333 06252 70007;
0160525330999992000102900004+39760+098470FM-12+1478ZLJQ V0202201N001019999999N0300001N1-00511-00681102781ADDAA124000891GF107991011001999999041021MA1999999085481MD1710191-1401REMSYN082AAXX  29001 52533 32980 72201 11051 21068 38548 40278 57019 81042 333 06453 70007;
0112525330999992000102903004+39760+098470FM-12+1478ZLJQ V0209999C000019999999N0300001N1+00501-00271102621ADDGF107991001001999999001021MD1210101+9999REMSYN060AAXX  29031 52533 42980 70000 10050 21027 40262 52010 80002;
0192525330999992000102906004+39760+098470FM-12+1478ZLJQ V0201101N002019999999N0300001N1+01051-00381102201ADDAA199000091GF107991011001999999041021KA1999N-00541MA1999999085371MD1710211-1701REMSYN082AAXX  29061 52533 32980 71102 10105 21038 38537 40220 57021 81042 333 06710 21054;EQDQ01  00002PRCP99
0122525330999992000102909004+39760+098470FM-12+1478ZLJQ V0201101N002019999999N0300001N1+00931-00201102241ADDGF107991031001999999041021MD1710051+0161REMSYN070AAXX  29091 52533 42980 71102 10093 21020 40224 57005 83042 333 06606;
0173525330999992000102912004+39760+098470FM-12+1478ZLJQ V0203401N004019999999N0300001N1+00741-00501102551ADDAA199000091GF108991081001999999071999MA1999999085501MD1210181+0131REMSYN076AAXX  29121 52533 32980 83404 10074 21050 38550 40255 52018 8807/ 333 06308;EQDQ01  00002PRCP99
0112525330999992000102915004+39760+098470FM-12+1478ZLJQ V0203201N003019999999N0300001N1+00591-00711102371ADDGF108991081001999999021999MD1210091+9999REMSYN060AAXX  29151 52533 42980 83203 10059 21071 40237 52009 8802/;
0192525330999992000102918004+39760+098470FM-12+1478ZLJQ V0203401N003019999999N0300001N1+00531-00611102301ADDAA199000091GF108991081001999999021999KA1999M+01111MA1999999085661MD1210071-0401REMSYN082AAXX  29181 52533 32980 83403 10053 21061 38566 40230 52007 8802/ 333 05408 10111;EQDQ01  00002PRCP99
0122525330999992000102921004+39760+098470FM-12+1478ZLJQ V0203201N008019999999N0300001N1+00581-00651102441ADDGF108991081001999999021999MD1210101+0011REMSYN070AAXX  29211 52533 42980 83208 10058 21065 40244 52010 8802/ 333 00110;
0227525330999992000103000004+39760+098470FM-12+1478ZLJQ V0202901N005019999999N0200001N1+00181+00031102981ADDAA106000591AY171061GF108991081001999999021999IA2999+00029MA1999999086051MD1210291+0601MW1701OA130601901REMSYN112AAXX  30001 52533 11970 82905 10018 20003 38605 40298 52029 69941 77070 8802/ 333 00607 30002 70004 91119 91529;
0112525330999992000103003004+39760+098470FM-12+1478ZLJQ V0202901N002010900019N0300001N1+00421+00041103101ADDGF107991021051017501001021MD1210131+9999REMSYN060AAXX  30031 52533 42780 72902 10042 20004 40310 52013 82502;
0173525330999992000103006004+39760+098470FM-12+1478ZLJQ V0201401N003012200019N0300001N1+00741+00041102911ADDAA199000021GF102991021051017501001001KA1999N+00111MA1999999086091MD1710091+0701REMSYN082AAXX  30061 52533 32780 21403 10074 20004 38609 40291 57009 82500 333 00753 20011;
0122525330999992000103009004+39760+098470FM-12+1478ZLJQ V0203201N005012200019N0300001N1+01001-00601102791ADDGF101991001001999999001021MD1710021+0081REMSYN070AAXX  30091 52533 42980 13205 10100 21060 40279 57002 80002 333 00801;
0164525330999992000103012004+39760+098470FM-12+1478ZLJQ V0201801N002012200019N0300001N1+00441-00421103141ADDAA199000021GA1001+999999999GF100991001001999999001001MA1999999086101MD1210031+0061REMSYN070AAXX  30121 52533 32980 01802 10044 21042 38610 40314 52003 333 00653;
0122525330999992000103015004+39760+098470FM-12+1478ZLJQ V0202201N002012200019N0300001N1+00121-00261103031ADDGA1001+999999999GF100991001001999999001001MD1710111+9999REMSYN054AAXX  30151 52533 42980 02202 10012 21026 40303 57011;
0202525330999992000103018004+39760+098470FM-12+1478ZLJQ V0209999C000012200019N0300001N1+00001-00331102751ADDAA199000091GA1001+999999999GF100991001001999999001001KA1999M+01021MA1999999085811MD1710181+0201REMSYN076AAXX  30181 52533 32980 00000 10000 21033 38581 40275 57018 333 00255 10102;EQDQ01  00002PRCP99
0149525330999992000103021004+39760+098470FM-12+1478ZLJQ V0202901N001012200019N0300001N1-00361-00481102631ADDAA124000591GA1001+999999999GF100991001001999999001001MD1710131-0101REMSYN070AAXX  30211 52533 42980 02901 11036 21048 40263 57013 333 05159 70004;
0183525330999992000103100004+39760+098470FM-12+1478ZLJQ V0202201N002012200019N0300001N1-00241-00611102681ADDAA199000091GA1001+999999999GF100991001001999999001001MA1999999085601MD1710081+0051REMSYN070AAXX  31001 52533 32980 02202 11024 21061 38560 40268 57008 333 05554;EQDQ01  00002PRCP99
0112525330999992000103103004+39760+098470FM-12+1478ZLJQ V0201801N003012200019N0300001N1+00791-00691102491ADDGF102991001001999999001021MD1210041+9999REMSYN060AAXX  31031 52533 42980 21803 10079 21069 40249 52004 80002;
0192525330999992000103106004+39760+098470FM-12+1478ZLJQ V0200201N003019999999N0300001N1+01141-00711102441ADDAA199000091GF107991001001999999001021KA1999N-00371MA1999999085661MD1210021-0401REMSYN082AAXX  31061 52533 32980 70203 10114 21071 38566 40244 52002 80002 333 05404 21037;EQDQ01  00002PRCP99
0122525330999992000103109004+39760+098470FM-12+1478ZLJQ V0202901N003019999999N0300001N1+01271-00661102551ADDGF107991001001999999001021MD1210031+0041REMSYN070AAXX  31091 52533 42980 72903 10127 21066 40255 52003 80002 333 05403;
0173525330999992000103112004+39760+098470FM-12+1478ZLJQ V0202701N004012200019N0300001N1+01041-00881102691ADDAA199000091GF102991001001999999001021MA1999999085781MD1210091+0031REMSYN076AAXX  31121 52533 32980 22704 10104 21088 38578 40269 52009 80002 333 05306;EQDQ01  00002PRCP99
0112525330999992000103115004+39760+098470FM-12+1478ZLJQ V0202901N003019999999N0300001N1+00891-00681102551ADDGF107991001001999999001021MD1210121+9999REMSYN060AAXX  31151 52533 42980 72903 10089 21068 40255 52012 80002;
0192525330999992000103118004+39760+098470FM-12+1478ZLJQ V0202201N002012200019N0300001N1+00501-00301102411ADDAA199000091GF102991001001999999001021KA1999M+01351MA1999999085771MD1710131+0001REMSYN082AAXX  31181 52533 32980 22202 10050 21030 38577 40241 57013 80002 333 00005 10135;EQDQ01  00002PRCP99
0132525330999992000103121004+39760+098470FM-12+1478ZLJQ V0202501N001012200019N0300001N1+00231-00371102411ADDGA1001+999999999GF100991001001999999001001MD1710041+0011REMSYN064AAXX  31211 52533 42980 02501 10023 21037 40241 57004 333 00106;
0173525330999992000110100004+39760+098470FM-12+1478ZLJQ V0202701N002012200019N0300001N1+00061-00551102521ADDAA199000091GF101991001001999999001021MA1999999085721MD1710011+0011REMSYN076AAXX  01001 52533 32980 12702 10006 21055 38572 40252 57001 80002 333 00103;EQDQ01  00002PRCP99
0122525330999992000110103004+39760+098470FM-12+1478ZLJQ V0201401N002012200019N0300001N1+01041-00331102151ADDGA1001+999999999GF100991001001999999001001MD1710091+9999REMSYN054AAXX  01031 52533 42980 01402 10104 21033 40215 57009;
0202525330999992000110106004+39760+098470FM-12+1478ZLJQ V0201401N004012200019N0300001N1+01171-00431101931ADDAA199000091GA1001+999999999GF100991001001999999001001KA1999N+00031MA1999999085381MD1710251-0301REMSYN076AAXX  01061 52533 32980 01404 10117 21043 38538 40193 57025 333 05300 20003;EQDQ01  00002PRCP99
0132525330999992000110109004+39760+098470FM-12+1478ZLJQ V0200701N002012200019N0300001N1+01311-00481101801ADDGA1001+999999999GF100991001001999999001001MD1710151+0051REMSYN064AAXX  01091 52533 42980 00702 10131 21048 40180 57015 333 05500;
0183525330999992000110112004+39760+098470FM-12+1478ZLJQ V0202901N002012200019N0300001N1+00601-00191102081ADDAA199000091GA1001+999999999GF100991001001999999001001MA1999999085231MD1410001+0061REMSYN070AAXX  01121 52533 32980 02902 10060 21019 38523 40208 54000 333 05654;EQDQ01  00002PRCP99
0122525330999992000110115004+39760+098470FM-12+1478ZLJQ V0202201N002012200019N0300001N1+00371-00191101681ADDGA1001+999999999GF100991001001999999001001MD1710131+9999REMSYN054AAXX  01151 52533 42980 02202 10037 21019 40168 57013;
0202525330999992000110118004+39760+098470FM-12+1478ZLJQ V0202201N002012200019N0300001N1+00361-00321101411ADDAA199000091GA1001+999999999GF100991001001999999001001KA1999M+01351MA1999999084901MD1710201-0901REMSYN076AAXX  01181 52533 32980 02202 10036 21032 38490 40141 57020 333 05951 10135;EQDQ01  00002PRCP99
0132525330999992000110121004+39760+098470FM-12+1478ZLJQ V0202201N002012200019N0300001N1+00171-00441101301ADDGA1001+999999999GF100991001001999999001001MD1710101+0091REMSYN064AAXX  01211 52533 42980 02202 10017 21044 40130 57010 333 05951;
0173525330999992000110200004+39760+098470FM-12+1478ZLJQ V0202001N002012200019N0300001N1-00031-00491101601ADDAA199000091GF101991011001999999041021MA1999999084801MD1410001+0091REMSYN076AAXX  02001 52533 32980 12002 11003 21049 38480 40160 54000 81042 333 05951;EQDQ01  00002PRCP99
0131525330999992000110203004+39760+098470FM-12+1478ZLJQ V0209999C000019999999N0300001N1+01332-00521101411ADDGF107991001001999999001021MD1210151+9999REMSYN060AAXX  02031 52533 42980 70000 10133 21052 40141 52015 80002;EQDQ01+001333ATOT  
0192525330999992000110206004+39760+098470FM-12+1478ZLJQ V0203401N009019999999N0300001N1+01431-00911101421ADDAA199000091GF107991011001999999041021KA1999N-00031MA1999999084981MD1210031-0401REMSYN082AAXX  02061 52533 32980 73409 10143 21091 38498 40142 52003 81042 333 05403 21003;EQDQ01  00002PRCP99
0134525330999992000110209004+39760+098470FM-12+1478ZLJQ V0203201N010019999999N0070001N1+01081-00881101831ADDGF107991001001999999001021MD1210201+0011MW1071REMSYN076AAXX  02091 52533 41957 73210 10108 21088 40183 52020 70700 80002 333 05152;
0196525330999992000110212004+39760+098470FM-12+1478ZLJQ V0200201N003019999999N0200001N1+00981-00591102241ADDAA199000091GF108991001001999999001071MA1999999085441MD1210261+0201OA130601901REMSYN088AAXX  02121 52533 32970 80203 10098 21059 38544 40224 52026 80007 333 00204 91119 91529;EQDQ01  00002PRCP99
0112525330999992000110215004+39760+098470FM-12+1478ZLJQ V0201401N002019999999N0200001N1+00611-00641102051ADDGF105991001001999999001021MD1210111+9999REMSYN060AAXX  02151 52533 42970 51402 10061 21064 40205 52011 80002;
0192525330999992000110218004+39760+098470FM-12+1478ZLJQ V0209999C000019999999N0200001N1+00041-00351102441ADDAA199000091GF105991001001999999001021KA1999M+01601MA1999999085751MD1210201+0901REMSYN082AAXX  02181 52533 32970 50000 10004 21035 38575 40244 52020 80002 333 00953 10160;EQDQ01  00002PRCP99
0122525330999992000110221004+39760+098470FM-12+1478ZLJQ V0200701N003019999999N0200001N1+00081-00361102521ADDGF108991001001999999001071MD1710021+0091REMSYN070AAXX  02211 52533 42970 80703 10008 21036 40252 57002 80007 333 00951;
0191525330999992000110300004+39760+098470FM-12+1478ZLJQ V0201401N002019999999N0200001N1+00051-00311102641ADDAA199000091GF108991021001999999041071IA2999-00309MA1999999085801MD1210071+1001REMSYN082AAXX  03001 52533 32970 81402 10005 21031 38580 40264 52007 82047 333 01001 31032;EQDQ01  00002PRCP99
0112525330999992000110303004+39760+098470FM-12+1478ZLJQ V0203401N007019999999N0300001N1+00421-00421103051ADDGF107991021001999999041021MD1210341+9999REMSYN060AAXX  03031 52533 42980 73407 10042 21042 40305 52034 82042;
0192525330999992000110306004+39760+098470FM-12+1478ZLJQ V0203401N006019999999N0200001N1+00561-00961103311ADDAA199000091GF107991021001999999041021KA1999N-00051MA1999999086241MD1210101+1301REMSYN082AAXX  03061 52533 32970 73406 10056 21096 38624 40331 52010 82042 333 01359 21005;EQDQ01  00002PRCP99
0132525330999992000110309004+39760+098470FM-12+1478ZLJQ V0203401N005012200019N0150001N1+00701-01081103191ADDGA1001+999999999GF100991001001999999001001MD1710051+0101REMSYN064AAXX  03091 52533 42965 03405 10070 21108 40319 57005 333 01054;
0183525330999992000110312004+39760+098470FM-12+1478ZLJQ V0201401N001012200019N0200001N1+00411-00731103321ADDAA199000091GA1001+999999999GF100991001001999999001001MA1999999086211MD1210021+0081REMSYN070AAXX  03121 52533 32970 01401 10041 21073 38621 40332 52002 333 00856;EQDQ01  00002PRCP99
0112525330999992000110315004+39760+098470FM-12+1478ZLJQ V0202001N001019999999N0200001N1+00141-00491103161ADDGF105991001001999999001021MD1710111+9999REMSYN060AAXX  03151 52533 42970 52001 10014 21049 40316 57011 80002;
0202525330999992000110318004+39760+098470FM-12+1478ZLJQ V0202901N001012200019N0300001N1-00181-00631102951ADDAA199000091GA1001+999999999GF100991001001999999001001KA1999M+00771MA1999999085881MD1710221+0101REMSYN076AAXX  03181 52533 32980 02901 11018 21063 38588 40295 57022 333 00152 10077;EQDQ01  00002PRCP99
0132525330999992000110321004+39760+098470FM-12+1478ZLJQ V0202901N002012200019N0300001N1-00241-00671102771ADDGA1001+999999999GF100991001001999999001001MD1710131+0001REMSYN064AAXX  03211 52533 42980 02902 11024 21067 40277 57013 333 00053;
0183525330999992000110400004+39760+098470FM-12+1478ZLJQ V0202501N002012200019N0300001N1-00051-00751102701ADDAA199000091GA1001+999999999GF100991001001999999001001MA1999999085661MD1710091+0011REMSYN070AAXX  04001 52533 32980 02502 11005 21075 38566 40270 57009 333 05151;EQDQ01  00002PRCP99
0122525330999992000110403004+39760+098470FM-12+1478ZLJQ V0203601N001012200019N0300001N1+00851-00851102361ADDGA1001+999999999GF100991001001999999001001MD1710111+9999REMSYN054AAXX  04031 52533 42980 03601 10085 21085 40236 57011;
0202525330999992000110406004+39760+098470FM-12+1478ZLJQ V0200901N003012200019N0300001N1+01181-00851102051ADDAA199000091GA1001+999999999GF100991001001999999001001KA1999N-00251MA1999999085301MD1710251-0901REMSYN076AAXX  04061 52533 32980 00903 10118 21085 38530 40205 57025 333 05906 21025;EQDQ01  00002PRCP99
0183525330999992000110412004+39760+098470FM-12+1478ZLJQ V0202201N002012200019N0300001N1+00621-00541102131ADDAA199000091GA1001+999999999GF100991001001999999001001MA1999999085251MD1210101+0101REMSYN070AAXX  04121 52533 32980 02202 10062 21054 38525 40213 52010 333 06002;EQDQ01  00002PRCP99
0122525330999992000110415004+39760+098470FM-12+1478ZLJQ V0202701N003012200019N0300001N1+00601-01011101901ADDGA1001+999999999GF100991001001999999001001MD1210041+9999REMSYN054AAXX  04151 52533 42980 02703 10060 21101 40190 52004;
0202525330999992000110418004+39760+098470FM-12+1478ZLJQ V0203201N004012200019N0300001N1+00431-00911101741ADDAA199000091GA1001+999999999GF100991001001999999001001KA1999M+01381MA1999999085201MD1710091-0701REMSYN076AAXX  04181 52533 32980 03204 10043 21091 38520 40174 57009 333 05706 10138;EQDQ01  00002PRCP99
0122525330999992000110421004+39760+098470FM-12+1478ZLJQ V0202001N001019999999N0300001N1+00291-00841101711ADDGF107991001001999999001021MD1710021+0061REMSYN070AAXX  04211 52533 42980 72001 10029 21084 40171 57002 80002 333 05605;
0173525330999992000110500004+39760+098470FM-12+1478ZLJQ V0209999C000019999999N0300001N1+00011-00731102041ADDAA199000091GF106991021001999999041021MA1999999085191MD1210011+0051REMSYN076AAXX  05001 52533 32980 60000 10001 21073 38519 40204 52001 82042 333 05501;EQDQ01  00002PRCP99
0112525330999992000110503004+39760+098470FM-12+1478ZLJQ V0203601N004012200019N0300001N1+00681-00951101991ADDGF102991011001999999041021MD1210131+9999REMSYN060AAXX  05031 52533 42980 23604 10068 21095 40199 52013 81042;
0192525330999992000110506004+39760+098470FM-12+1478ZLJQ V0203401N003012200019N0300001N1+00931-01071101781ADDAA199000091GF102991011001999999041021KA1999N-00031MA1999999085171MD1710151-0101REMSYN082AAXX  05061 52533 32980 23403 10093 21107 38517 40178 57015 81042 333 05153 21003;EQDQ01  00002PRCP99
0122525330999992000110509004+39760+098470FM-12+1478ZLJQ V0203601N002019999999N0300001N1+00831-01031101941ADDGF107991021001999999041021MD1210071+0011REMSYN070AAXX  05091 52533 42980 73602 10083 21103 40194 52007 82042 333 00155;
0173525330999992000110512004+39760+098470FM-12+1478ZLJQ V0203601N003019999999N0300001N1+00481-00911102411ADDAA199000091GF107991031001999999041021MA1999999085461MD1210221+0021REMSYN076AAXX  05121 52533 32980 73603 10048 21091 38546 40241 52022 83042 333 00251;EQDQ01  00002PRCP99
0112525330999992000110515004+39760+098470FM-12+1478ZLJQ V0200701N003019999999N0300001N1-00151-01301102771ADDGF106991011001999999041021MD1210311+9999REMSYN060AAXX  05151 52533 42980 60703 11015 21130 40277 52031 81042;
0192525330999992000110518004+39760+098470FM-12+1478ZLJQ V0200901N004012200019N0300001N1-00441-01281102871ADDAA199000091GF101991001001999999001021KA1999M+00981MA1999999085841MD1210071+0601REMSYN082AAXX  05181 52533 32980 10904 11044 21128 38584 40287 52007 80002 333 00659 10098;EQDQ01  00002PRCP99
0122525330999992000110521004+39760+098470FM-12+1478ZLJQ V0201101N003012200019N0300001N1-00631-01541102961ADDGF101991001001999999001021MD1410001+0071REMSYN070AAXX  05211 52533 42980 11103 11063 21154 40296 54000 80002 333 00759;
0173525330999992000110600004+39760+098470FM-12+1478ZLJQ V0200901N003012200019N0300001N1-00811-01881103191ADDAA199000091GF101991011001999999041021MA1999999085881MD1210041+0071REMSYN076AAXX  06001 52533 32980 10903 11081 21188 38588 40319 52004 81042 333 00758;EQDQ01  00002PRCP99
0112525330999992000110603004+39760+098470FM-12+1478ZLJQ V0200401N004012200019N0300001N1-00641-02191103501ADDGF101991001001999999001021MD1210121+9999REMSYN060AAXX  06031 52533 42980 10404 11064 21219 40350 52012 80002;
0192525330999992000110606004+39760+098470FM-12+1478ZLJQ V0201101N005012200019N0300001N1-00261-02081103291ADDAA199000091GF101991001001999999001021KA1999N-00861MA1999999085851MD1710151+0701REMSYN082AAXX  06061 52533 32980 11105 11026 21208 38585 40329 57015 80002 333 00762 21086;EQDQ01  00002PRCP99
0122525330999992000110609004+39760+098470FM-12+1478ZLJQ V0200701N005019999999N0300001N1-00201-02091103361ADDGF107991001001999999001021MD1210021+0061REMSYN070AAXX  06091 52533 42980 70705 11020 21209 40336 52002 80002 333 00660;
0173525330999992000110612004+39760+098470FM-12+1478ZLJQ V0200701N003019999999N0300001N1-00591-02631103641ADDAA199000091GF106991001001999999001021MA1999999085941MD1210071+0051REMSYN076AAXX  06121 52533 32980 60703 11059 21263 38594 40364 52007 80002 333 00561;EQDQ01  00002PRCP99
0112525330999992000110615004+39760+098470FM-12+1478ZLJQ V0200201N002012200019N0300001N1-00771-02451103561ADDGF102991001001999999001021MD1710071+9999REMSYN060AAXX  06151 52533 42980 20202 11077 21245 40356 57007 80002;
0192525330999992000110618004+39760+098470FM-12+1478ZLJQ V0200401N002012200019N0300001N1-01021-02301103391ADDAA199000091GF101991001001999999001021KA1999M-00131MA1999999085771MD1710101-0101REMSYN082AAXX  06181 52533 32980 10402 11102 21230 38577 40339 57010 80002 333 05156 11013;EQDQ01  00002PRCP99
0132525330999992000110621004+39760+098470FM-12+1478ZLJQ V0200401N002012200019N0300001N1-01141-02311103311ADDGA1001+999999999GF100991001001999999001001MD1710091+0021REMSYN064AAXX  06211 52533 42980 00402 11114 21231 40331 57009 333 05255;
0173525330999992000110700004+39760+098470FM-12+1478ZLJQ V0200201N001012200019N0300001N1-01191-02331103481ADDAA199000091GF104991011001999999041021MA1999999085691MD1210011+0021REMSYN076AAXX  07001 52533 32980 40201 11119 21233 38569 40348 52001 81042 333 05254;EQDQ01  00002PRCP99
0112525330999992000110703004+39760+098470FM-12+1478ZLJQ V0200701N003019999999N0300001N1-00721-02201103421ADDGF107991011001999999041021MD1210041+9999REMSYN060AAXX  07031 52533 42980 70703 11072 21220 40342 52004 81042;
0192525330999992000110706004+39760+098470FM-12+1478ZLJQ V0200701N004012200019N0300001N1-00311-01861103011ADDAA199000091GF101991001001999999001021KA1999N-01221MA1999999085441MD1710291-0401REMSYN082AAXX  07061 52533 32980 10704 11031 21186 38544 40301 57029 80002 333 05451 21122;EQDQ01  00002PRCP99
0122525330999992000110709004+39760+098470FM-12+1478ZLJQ V0201401N004012200019N0300001N1+00011-01721102731ADDGF101991011011017501001021MD1710181+0061REMSYN070AAXX  07091 52533 42780 11404 10001 21172 40273 57018 81102 333 05602;
0173525330999992000110712004+39760+098470FM-12+1478ZLJQ V0201401N002012200019N0300001N1-00271-01611102781ADDAA199000091GF101991011041017501001021MA1999999085211MD1710051+0071REMSYN076AAXX  07121 52533 32780 11402 11027 21161 38521 40278 57005 81402 333 05703;EQDQ01  00002PRCP99
0112525330999992000110715004+39760+098470FM-12+1478ZLJQ V0200201N002012200019N0300001N1-00461-01741102591ADDGF102991011001999999041021MD1710081+9999REMSYN060AAXX  07151 52533 42980 20202 11046 21174 40259 57008 81042;
0192525330999992000110718004+39760+098470FM-12+1478ZLJQ V0203401N002012200019N0300001N1-00491-01731102381ADDAA199000091GF102991011001999999041021KA1999M+00041MA1999999085071MD1710061-0701REMSYN082AAXX  07181 52533 32980 23402 11049 21173 38507 40238 57006 81042 333 05705 10004;EQDQ01  00002PRCP99
0132525330999992000110721004+39760+098470FM-12+1478ZLJQ V0203601N001012200019N0300001N1-00701-01961102271ADDGA1001+999999999GF100991001001999999001001MD1710061+0071REMSYN064AAXX  07211 52533 42980 03601 11070 21196 40227 57006 333 05704;
0183525330999992000110800004+39760+098470FM-12+1478ZLJQ V0209999C000012200019N0300001N1-00831-01991102451ADDAA199000091GA1001+999999999GF100991001001999999001001MA1999999085041MD1210031+0071REMSYN070AAXX  08001 52533 32980 00000 11083 21199 38504 40245 52003 333 05704;EQDQ01  00002PRCP99
0202525330999992000110806004+39760+098470FM-12+1478ZLJQ V0200901N004012200019N0300001N1+00131-01811102031ADDAA199000091GA1001+999999999GF100991001001999999001001KA1999N-00861MA1999999084901MD1710161-0501REMSYN076AAXX  08061 52533 32980 00904 10013 21181 38490 40203 57016 333 05504 21086;EQDQ01  00002PRCP99
0122525330999992000110809004+39760+098470FM-12+1478ZLJQ V0200901N004019999999N0200001N1+00061-01761102331ADDGF107991051001999999041021MD1210171+0021REMSYN070AAXX  08091 52533 42970 70904 10006 21176 40233 52017 85042 333 05201;
0173525330999992000110812004+39760+098470FM-12+1478ZLJQ V0200401N001012200019N0250001N1-00281-02131102901ADDAA199000091GF104991011001999999041021MA1999999085411MD1210341+0021REMSYN076AAXX  08121 52533 32975 40401 11028 21213 38541 40290 52034 81042 333 00200;EQDQ01  00002PRCP99
0112525330999992000110815004+39760+098470FM-12+1478ZLJQ V0200901N002019999999N0300001N1-00441-02231103141ADDGF107991001001999999001021MD1210321+9999REMSYN060AAXX  08151 52533 42980 70902 11044 21223 40314 52032 80002;
0192525330999992000110818004+39760+098470FM-12+1478ZLJQ V0200901N002019999999N0300001N1-00481-02251103041ADDAA199000091GF108991031001999999031071KA1999M+00251MA1999999085751MD1210021+0701REMSYN082AAXX  08181 52533 32980 80902 11048 21225 38575 40304 52002 83037 333 00700 10025;EQDQ01  00002PRCP99
0122525330999992000110821004+39760+098470FM-12+1478ZLJQ V0200701N003019999999N0300001N1-00501-02111103281ADDGF107991021001999999041021MD1210171+0091REMSYN070AAXX  08211 52533 42980 70703 11050 21211 40328 52017 82042 333 00902;
0173525330999992000110900004+39760+098470FM-12+1478ZLJQ V0200901N002019999999N0300001N1-00691-01801103731ADDAA199000091GF107991021001999999041021MA1999999086141MD1210221+0111REMSYN076AAXX  09001 52533 32980 70902 11069 21180 38614 40373 52022 82042 333 01101;EQDQ01  00002PRCP99
0124525330999992000110903004+39760+098470FM-12+1478ZLJQ V0203601N004019999999N0300001N1-00711-01001104201ADDGF107991061001999999031021MD1210341+9999MW1701REMSYN066AAXX  09031 52533 41980 73604 11071 21100 40420 52034 77000 86032;
0199525330999992000110906004+39760+098470FM-12+1478ZLJQ V0200201N003010900019N0300001N1-00541-00911104221ADDAA106000791AY171061GF107991021051017501001021KA1999N-00731MA1999999086531MD1210051+1601MW1001REMSYN094AAXX  09061 52533 11780 70203 11054 21091 38653 40422 52005 69901 70070 82502 333 01657 21073;
0142525330999992000110909004+39760+098470FM-12+1478ZLJQ V0203401N003010360019N0300001N1-00601-00821104461ADDAY171031GF107991011051017501041021MD1210181+0161MW1001REMSYN076AAXX  09091 52533 41780 73403 11060 21082 40446 52018 70070 81542 333 01657;
0180525330999992000110912004+39760+098470FM-12+1478ZLJQ V0209999C000019999999N0300001N1-00761-01061104851ADDAA106000791AY171061GF106991001001999999001021MA1999999086931MD1210221+0151MW1001REMSYN088AAXX  09121 52533 11980 60000 11076 21106 38693 40485 52022 69901 70070 80002 333 01555;
0112525330999992000110915004+39760+098470FM-12+1478ZLJQ V0209999C000012200019N0300001N1-00801-01021104891ADDGF103991001001999999001021MD1210011+9999REMSYN060AAXX  09151 52533 42980 30000 11080 21102 40489 52001 80002;
0192525330999992000110918004+39760+098470FM-12+1478ZLJQ V0209999C000012200019N0300001N1-00871-01201104671ADDAA199000091GF102991001001999999001021KA1999M-00461MA1999999086791MD1710151+1001REMSYN082AAXX  09181 52533 32980 20000 11087 21120 38679 40467 57015 80002 333 01054 11046;EQDQ01  00002PRCP99
0149525330999992000110921004+39760+098470FM-12+1478ZLJQ V0200901N001012200019N0300001N1-01031-01241104581ADDAA124000791GA1001+999999999GF100991001001999999001001MD1710141+0701REMSYN070AAXX  09211 52533 42980 00901 11103 21124 40458 57014 333 00755 79999;
0160525330999992000111000004+39760+098470FM-12+1478ZLJQ V0209999C000012200019N0300001N1-01011-01201104541ADDAA124000791GF103991011001999999041021MA1999999086571MD1710081+0401REMSYN082AAXX  10001 52533 32980 30000 11101 21120 38657 40454 57008 81042 333 00453 79999;
0112525330999992000111003004+39760+098470FM-12+1478ZLJQ V0201401N004019999999N0300001N1-00601-00951104441ADDGF108991001001999999001071MD1210031+9999REMSYN060AAXX  10031 52533 42980 81404 11060 21095 40444 52003 80007;
0192525330999992000111006004+39760+098470FM-12+1478ZLJQ V0200701N002019999999N0300001N1-00231-00991104151ADDAA199000091GF107991011001999999041021KA1999N-01081MA1999999086451MD1710151-0101REMSYN082AAXX  10061 52533 32980 70702 11023 21099 38645 40415 57015 81042 333 05103 21108;EQDQ01  00002PRCP99
0122525330999992000111009004+39760+098470FM-12+1478ZLJQ V0200401N002012200019N0300001N1-00021-01111104041ADDGF101991001001999999001021MD1710081+0031REMSYN070AAXX  10091 52533 42980 10402 11002 21111 40404 57008 80002 333 05306;
0183525330999992000111012004+39760+098470FM-12+1478ZLJQ V0201401N001012200019N0300001N1-00441-01031104261ADDAA199000091GA1001+999999999GF100991001001999999001001MA1999999086441MD1210071+0051REMSYN070AAXX  10121 52533 32980 01401 11044 21103 38644 40426 52007 333 05503;EQDQ01  00002PRCP99
0122525330999992000111015004+39760+098470FM-12+1478ZLJQ V0203201N002012200019N0300001N1-00661-00981104161ADDGA1001+999999999GF100991001001999999001001MD1710031+9999REMSYN054AAXX  10151 52533 42980 03202 11066 21098 40416 57003;
0192525330999992000111018004+39760+098470FM-12+1478ZLJQ V0202001N002019999999N0300001N1-00481-01091103891ADDAA199000091GF107991001001999999001021KA1999M+00031MA1999999086351MD1710061-0401REMSYN082AAXX  10181 52533 32980 72002 11048 21109 38635 40389 57006 80002 333 05404 10003;EQDQ01  00002PRCP99
0122525330999992000111021004+39760+098470FM-12+1478ZLJQ V0203401N005019999999N0300001N1-00451-01091103781ADDGF107991011001999999041021MD1710021+0031REMSYN070AAXX  10211 52533 42980 73405 11045 21109 40378 57002 81042 333 05306;
0173525330999992000111100004+39760+098470FM-12+1478ZLJQ V0203401N003019999999N0300001N1-00441-00671103981ADDAA199000091GF107991031001999999041021MA1999999086371MD1210041+0021REMSYN076AAXX  11001 52533 32980 73403 11044 21067 38637 40398 52004 83042 333 05206;EQDQ01  00002PRCP99
0124525330999992000111103004+39760+098470FM-12+1478ZLJQ V0209999C000019999999N0300001N1-00331-00571104161ADDGF107991021001999999041021MD1210121+9999MW1701REMSYN066AAXX  11031 52533 41980 70000 11033 21057 40416 52012 77000 82042;
0199525330999992000111106004+39760+098470FM-12+1478ZLJQ V0200701N003019999999N0300001N1-00031-00641103771ADDAA106000791AY171061GF107991021001999999041021KA1999N-00741MA1999999086311MD1710181-0101MW1001REMSYN094AAXX  11061 52533 11980 70703 11003 21064 38631 40377 57018 69901 70070 82042 333 05102 21074;
0132525330999992000111109004+39760+098470FM-12+1478ZLJQ V0200901N003012200019N0300001N1+00041-00501103631ADDGA1001+999999999GF100991001001999999001001MD1710091+0021REMSYN064AAXX  11091 52533 42980 00903 10004 21050 40363 57009 333 05201;
0164525330999992000111112004+39760+098470FM-12+1478ZLJQ V0201101N002012200019N0300001N1-00321-00561103641ADDAA199000021GA1001+999999999GF100991001001999999001001MA1999999086131MD1710091+0031REMSYN070AAXX  11121 52533 32980 01102 11032 21056 38613 40364 57009 333 05301;
0122525330999992000111115004+39760+098470FM-12+1478ZLJQ V0202001N001012200019N0300001N1-00481-00681103461ADDGA1001+999999999GF100991001001999999001001MD1710171+9999REMSYN054AAXX  11151 52533 42980 02001 11048 21068 40346 57017;
0202525330999992000111118004+39760+098470FM-12+1478ZLJQ V0202201N002012200019N0300001N1-00541-00751103121ADDAA199000091GA1001+999999999GF100991001001999999001001KA1999M+00151MA1999999085751MD1710211-0601REMSYN076AAXX  11181 52533 32980 02202 11054 21075 38575 40312 57021 333 05651 10015;EQDQ01  00002PRCP99
0149525330999992000111121004+39760+098470FM-12+1478ZLJQ V0202201N002012200019N0300001N1-00501-00821102961ADDAA124000791GA1001+999999999GF100991001001999999001001MD1710101-0701REMSYN070AAXX  11211 52533 42980 02202 11050 21082 40296 57010 333 05751 79999;
0170525330999992000111200004+39760+098470FM-12+1478ZLJQ V0202701N001012200019N0300001N1-00581-00921103081ADDAA124000791GA1001+999999999GF100991001001999999001001MA1999999085621MD1710031-0801REMSYN076AAXX  12001 52533 32980 02701 11058 21092 38562 40308 57003 333 05851 79999;
0122525330999992000111203004+39760+098470FM-12+1478ZLJQ V0200201N002012200019N0300001N1+00141-00771102921ADDGA1001+999999999GF100991001001999999001001MD1210031+9999REMSYN054AAXX  12031 52533 42980 00202 10014 21077 40292 52003;
0202525330999992000111206004+39760+098470FM-12+1478ZLJQ V0200401N002012200019N0300001N1+00481-00821102671ADDAA199000091GA1001+999999999GF100991001001999999001001KA1999N-00741MA1999999085521MD1710131-0801REMSYN076AAXX  12061 52533 32980 00402 10048 21082 38552 40267 57013 333 05805 21074;EQDQ01  00002PRCP99
0132525330999992000111209004+39760+098470FM-12+1478ZLJQ V0201401N003012200019N0300001N1+00621-00661102501ADDGA1001+999999999GF100991001001999999001001MD1710091+0081REMSYN064AAXX  12091 52533 42980 01403 10062 21066 40250 57009 333 05806;
0183525330999992000111212004+39760+098470FM-12+1478ZLJQ V0202001N002012200019N0300001N1+00051-00711102721ADDAA199000091GA1001+999999999GF100991001001999999001001MA1999999085431MD1410001+0071REMSYN070AAXX  12121 52533 32980 02002 10005 21071 38543 40272 54000 333 05704;EQDQ01  00002PRCP99
0112525330999992000111215004+39760+098470FM-12+1478ZLJQ V0202901N002012200019N0300001N1-00261-00811102501ADDGF101991001001999999001021MD1710071+9999REMSYN060AAXX  12151 52533 42980 12902 11026 21081 40250 57007 80002;
0192525330999992000111218004+39760+098470FM-12+1478ZLJQ V0202201N002012200019N0300001N1-00401-00971102331ADDAA199000091GF104991001001999999001021KA1999M+00741MA1999999085281MD1710081-0501REMSYN082AAXX  12181 52533 32980 42202 11040 21097 38528 40233 57008 80002 333 05501 10074;EQDQ01  00002PRCP99
0122525330999992000111221004+39760+098470FM-12+1478ZLJQ V0209999C000012200019N0300001N1-00511-00991102231ADDGF103991001001999999001021MD1710081+0051REMSYN070AAXX  12211 52533 42980 30000 11051 21099 40223 57008 80002 333 05500;
0173525330999992000111300004+39760+098470FM-12+1478ZLJQ V0202501N003012200019N0300001N1-00611-01041102501ADDAA199000091GF101991001001999999001021MA1999999085241MD1210041+0041REMSYN076AAXX  13001 52533 32980 12503 11061 21104 38524 40250 52004 80002 333 05400;EQDQ01  00002PRCP99
0112525330999992000111303004+39760+098470FM-12+1478ZLJQ V0200201N003012200019N0300001N1-00051-00921102651ADDGF101991011001999999041021MD1210191+9999REMSYN060AAXX  13031 52533 42980 10203 11005 21092 40265 52019 81042;
0192525330999992000111306004+39760+098470FM-12+1478ZLJQ V0200701N002012200019N0300001N1+00361-00811102411ADDAA199000091GF101991001001999999001021KA1999N-00751MA1999999085311MD1710121-0201REMSYN082AAXX  13061 52533 32980 10702 10036 21081 38531 40241 57012 80002 333 05251 21075;EQDQ01  00002PRCP99
0122525330999992000111309004+39760+098470FM-12+1478ZLJQ V0200201N002012200019N0300001N1+00401-00921102541ADDGF101991001001999999001021MD1210091+0001REMSYN070AAXX  13091 52533 42980 10202 10040 21092 40254 52009 80002 333 00052;
0183525330999992000111312004+39760+098470FM-12+1478ZLJQ V0209999C000012200019N0300001N1-00111-00821102981ADDAA199000091GA1001+999999999GF100991001001999999001001MA1999999085591MD1210191+0021REMSYN070AAXX  13121 52533 32980 00000 11011 21082 38559 40298 52019 333 00252;EQDQ01  00002PRCP99
0202525330999992000111318004+39760+098470FM-12+1478ZLJQ V0202501N003012200019N0300001N1-00481-01041102951ADDAA199000091GA1001+999999999GF100991001001999999001001KA1999M+00471MA1999999085741MD1210041+0501REMSYN076AAXX  13181 52533 32980 02503 11048 21104 38574 40295 52004 333 00551 10047;EQDQ01  00002PRCP99
0132525330999992000111321004+39760+098470FM-12+1478ZLJQ V0202201N001012200019N0300001N1-00661-01071103031ADDGA1001+999999999GF100991001001999999001001MD1210021+0061REMSYN064AAXX  13211 52533 42980 02201 11066 21107 40303 52002 333 00652;
0173525330999992000111400004+39760+098470FM-12+1478ZLJQ V0202901N002012200019N0300001N1-00661-01421103311ADDAA199000091GF101991001001999999001021MA1999999085851MD1210091+0061REMSYN076AAXX  14001 52533 32980 12902 11066 21142 38585 40331 52009 80002 333 00651;EQDQ01  00002PRCP99
0112525330999992000111403004+39760+098470FM-12+1478ZLJQ V0203601N002019999999N0300001N1-00161-01391103411ADDGF107991001001999999001021MD1210151+9999REMSYN060AAXX  14031 52533 42980 73602 11016 21139 40341 52015 80002;
0192525330999992000111406004+39760+098470FM-12+1478ZLJQ V0200401N003019999999N0300001N1+00071-01291103201ADDAA199000091GF107991011001999999041021KA1999N-00791MA1999999085861MD1710141+0601REMSYN082AAXX  14061 52533 32980 70403 10007 21129 38586 40320 57014 81042 333 00653 21079;EQDQ01  00002PRCP99
0122525330999992000111409004+39760+098470FM-12+1478ZLJQ V0200401N003019999999N0300001N1+00031-01311103351ADDGF107991011001999999041021MD1210061+0051REMSYN070AAXX  14091 52533 42980 70403 10003 21131 40335 52006 81042 333 00554;
0173525330999992000111412004+39760+098470FM-12+1478ZLJQ V0201401N001012200019N0300001N1-00281-01331103621ADDAA199000091GF101991001001999999001021MA1999999086061MD1210141+0051REMSYN076AAXX  14121 52533 32980 11401 11028 21133 38606 40362 52014 80002 333 00552;EQDQ01  00002PRCP99
0112525330999992000111415004+39760+098470FM-12+1478ZLJQ V0202201N001019999999N0300001N1-00291-01131103461ADDGF107991001001999999001021MD1210011+9999REMSYN060AAXX  14151 52533 42980 72201 11029 21113 40346 52001 80002;
0192525330999992000111418004+39760+098470FM-12+1478ZLJQ V0200701N001019999999N0300001N1-00211-00951103201ADDAA199000091GF108991001001999999001071KA1999M+00111MA1999999085941MD1710131+0201REMSYN082AAXX  14181 52533 32980 80701 11021 21095 38594 40320 57013 80007 333 00203 10011;EQDQ01  00002PRCP99
0122525330999992000111421004+39760+098470FM-12+1478ZLJQ V0203401N002019999999N0300001N1-00461-00891103201ADDGF107991001001999999001021MD1710081+0011REMSYN070AAXX  14211 52533 42980 73402 11046 21089 40320 57008 80002 333 00102;
0173525330999992000111500004+39760+098470FM-12+1478ZLJQ V0202501N002012200019N0300001N1-00601-01081103521ADDAA199000091GF101991001001999999001021MA1999999085991MD1210131+0011REMSYN076AAXX  15001 52533 32980 12502 11060 21108 38599 40352 52013 80002 333 00101;EQDQ01  00002PRCP99
0112525330999992000111503004+39760+098470FM-12+1478ZLJQ V0209999C000019999999N0300001N1+00211-00761103311ADDGF107991011001999999041021MD1210061+9999REMSYN060AAXX  15031 52533 42980 70000 10021 21076 40331 52006 81042;
0192525330999992000111506004+39760+098470FM-12+1478ZLJQ V0203401N005019999999N0300001N1+00191-00561103241ADDAA199000091GF108991081001999999021999KA1999N-00631MA1999999086011MD1710041+0201REMSYN082AAXX  15061 52533 32980 83405 10019 21056 38601 40324 57004 8802/ 333 00201 21063;EQDQ01  00002PRCP99
0122525330999992000111509004+39760+098470FM-12+1478ZLJQ V0203401N004019999999N0300001N1+00131-00751103431ADDGF108991081001999999071999MD1210071+0021REMSYN070AAXX  15091 52533 42980 83404 10013 21075 40343 52007 8807/ 333 00201;
0173525330999992000111512004+39760+098470FM-12+1478ZLJQ V0209999C000019999999N0300001N1-00021-00861103691ADDAA199000091GF108991081001999999071999MA1999999086211MD1210131+0021REMSYN076AAXX  15121 52533 32980 80000 11002 21086 38621 40369 52013 8807/ 333 00203;EQDQ01  00002PRCP99
0112525330999992000111515004+39760+098470FM-12+1478ZLJQ V0202901N004019999999N0300001N1-00081-00951103461ADDGF106991001001999999001021MD1210021+9999REMSYN060AAXX  15151 52533 42980 62904 11008 21095 40346 52002 80002;
0202525330999992000111518004+39760+098470FM-12+1478ZLJQ V0201801N002012200019N0300001N1-00361-01011103531ADDAA199000091GA1001+999999999GF100991001001999999001001KA1999M+00341MA1999999086211MD1710021+0301REMSYN076AAXX  15181 52533 32980 01802 11036 21101 38621 40353 57002 333 00352 10034;EQDQ01  00002PRCP99
0132525330999992000111521004+39760+098470FM-12+1478ZLJQ V0202501N002012200019N0300001N1-00641-01041103561ADDGA1001+999999999GF100991001001999999001001MD1710081+0031REMSYN064AAXX  15211 52533 42980 02502 11064 21104 40356 57008 333 00352;
0183525330999992000111600004+39760+098470FM-12+1478ZLJQ V0202501N002012200019N0300001N1-00721-01151103651ADDAA199000091GA1001+999999999GF100991001001999999001001MA1999999086141MD1210011+0021REMSYN070AAXX  16001 52533 32980 02502 11072 21115 38614 40365 52001 333 00251;EQDQ01  00002PRCP99
0122525330999992000111603004+39760+098470FM-12+1478ZLJQ V0201401N004012200019N0300001N1+00071-00901103361ADDGA1001+999999999GF100991001001999999001001MD1710031+9999REMSYN054AAXX  16031 52533 42980 01404 10007 21090 40336 57003;
0202525330999992000111606004+39760+098470FM-12+1478ZLJQ V0201101N004012200019N0300001N1+00381-01171103151ADDAA199000091GA1001+999999999GF100991001001999999001001KA1999N-00871MA1999999085941MD1710171-0101REMSYN076AAXX  16061 52533 32980 01104 10038 21117 38594 40315 57017 333 05102 21087;EQDQ01  00002PRCP99
0132525330999992000111609004+39760+098470FM-12+1478ZLJQ V0200901N005012200019N0300001N1+00391-01311103081ADDGA1001+999999999GF100991001001999999001001MD1710131+0031REMSYN064AAXX  16091 52533 42980 00905 10039 21131 40308 57013 333 05303;
0183525330999992000111612004+39760+098470FM-12+1478ZLJQ V0201401N002012200019N0300001N1-00151-01191103361ADDAA199000091GA1001+999999999GF100991001001999999001001MA1999999085861MD1210051+0041REMSYN070AAXX  16121 52533 32980 01402 11015 21119 38586 40336 52005 333 05451;EQDQ01  00002PRCP99
0122525330999992000111615004+39760+098470FM-12+1478ZLJQ V0202501N002012200019N0300001N1-00461-01151103111ADDGA1001+999999999GF100991001001999999001001MD1710071+9999REMSYN054AAXX  16151 52533 42980 02502 11046 21115 40311 57007;
0202525330999992000111618004+39760+098470FM-12+1478ZLJQ V0209999C000012200019N0300001N1-00621-01101102871ADDAA199000091GA1001+999999999GF100991001001999999001001KA1999M+00471MA1999999085641MD1710151-0601REMSYN076AAXX  16181 52533 32980 00000 11062 21110 38564 40287 57015 333 05653 10047;EQDQ01  00002PRCP99
0132525330999992000111621004+39760+098470FM-12+1478ZLJQ V0202201N003012200019N0300001N1-00751-01141102721ADDGA1001+999999999GF100991001001999999001001MD1710161+0071REMSYN064AAXX  16211 52533 42980 02203 11075 21114 40272 57016 333 05751;
0183525330999992000111700004+39760+098470FM-12+1478ZLJQ V0202201N001012200019N0300001N1-00901-01281102831ADDAA199000091GA1001+999999999GF100991001001999999001001MA1999999085371MD1710111+0081REMSYN070AAXX  17001 52533 32980 02201 11090 21128 38537 40283 57011 333 05852;EQDQ01  00002PRCP99
0122525330999992000111703004+39760+098470FM-12+1478ZLJQ V0200901N002012200019N0300001N1-00151-01241102591ADDGA1001+999999999GF100991001001999999001001MD1710071+9999REMSYN054AAXX  17031 52533 42980 00902 11015 21124 40259 57007;
0192525330999992000111706004+39760+098470FM-12+1478ZLJQ V0200901N004012200019N0300001N1+00181-01011102151ADDAA199000091GF101991001001999999001021KA1999N-00951MA1999999084981MD1710321-1001REMSYN082AAXX  17061 52533 32980 10904 10018 21101 38498 40215 57032 80002 333 06052 21095;EQDQ01  00002PRCP99
0122525330999992000111709004+39760+098470FM-12+1478ZLJQ V0200701N004012200019N0300001N1+00221-01141102071ADDGF104991011001999999041021MD1710091+0091REMSYN070AAXX  17091 52533 42980 40704 10022 21114 40207 57009 81042 333 05952;
0183525330999992000111712004+39760+098470FM-12+1478ZLJQ V0203401N002012200019N0300001N1-00161-01261102561ADDAA199000091GA1001+999999999GF100991001001999999001001MA1999999085141MD1210251+0071REMSYN070AAXX  17121 52533 32980 03402 11016 21126 38514 40256 52025 333 05700;EQDQ01  00002PRCP99
0122525330999992000111715004+39760+098470FM-12+1478ZLJQ V0202901N002012200019N0300001N1-00381-01031102721ADDGA1001+999999999GF100991001001999999001001MD1210291+9999REMSYN054AAXX  17151 52533 42980 02902 11038 21103 40272 52029;
0192525330999992000111718004+39760+098470FM-12+1478ZLJQ V0203201N006012200019N0300001N1-00361-01421102941ADDAA199000091GF102991001001999999001021KA1999M+00351MA1999999085711MD1210281+0101REMSYN082AAXX  17181 52533 32980 23206 11036 21142 38571 40294 52028 80002 333 00103 10035;EQDQ01  00002PRCP99
0122525330999992000111721004+39760+098470FM-12+1478ZLJQ V0202901N002019999999N0300001N1-00641-01281103281ADDGF105991001001999999001021MD1210221+0051REMSYN070AAXX  17211 52533 42980 52902 11064 21128 40328 52022 80002 333 00501;
0173525330999992000111800004+39760+098470FM-12+1478ZLJQ V0202701N004012200019N0300001N1-00551-01251103661ADDAA199000091GF104991011001999999041021MA1999999086161MD1210231+0081REMSYN076AAXX  18001 52533 32980 42704 11055 21125 38616 40366 52023 81042 333 00804;EQDQ01  00002PRCP99
0112525330999992000111803004+39760+098470FM-12+1478ZLJQ V0202901N007019999999N0250001N1-00331-00921103871ADDGF108991011001999999041071MD1210171+9999REMSYN060AAXX  18031 52533 42975 82907 11033 21092 40387 52017 81047;
0199525330999992000111806004+39760+098470FM-12+1478ZLJQ V0203201N003019999999N0200001N1-00231-00941103841ADDAA106000191AY171061GF108991081001999999021999KA1999N-00811MA1999999086341MD1210011+1401MW1701REMSYN094AAXX  18061 52533 11970 83203 11023 21094 38634 40384 52001 69911 77070 8802/ 333 01454 21081;
0154525330999992000111812004+39760+098470FM-12+1478ZLJQ V0203201N007019999999N0200001N1-00381-01041104281ADDAA199000021GF106991021001999999041021MA1999999086611MD1210171+0151REMSYN076AAXX  18121 52533 32970 63207 11038 21104 38661 40428 52017 82042 333 01552;
0112525330999992000111815004+39760+098470FM-12+1478ZLJQ V0201801N002019999999N0200001N1-00461-01161104401ADDGF107991011001999999041021MD1210141+9999REMSYN060AAXX  18151 52533 42970 71802 11046 21116 40440 52014 81042;
0173525330999992000111818004+39760+098470FM-12+1478ZLJQ V0202501N002012200019N0300001N1-00511-01401104411ADDAA199000021GF102991001001999999001021KA1999M-00091MA1999999086771MD1210021+1101REMSYN082AAXX  18181 52533 32980 22502 11051 21140 38677 40441 52002 80002 333 01152 11009;
0139525330999992000111821004+39760+098470FM-12+1478ZLJQ V0202701N003019999999N0300001N1-00471-01331104261ADDAA124000191GF107991001001999999001021MD1710091+0801REMSYN076AAXX  18211 52533 42980 72703 11047 21133 40426 57009 80002 333 00802 70001;
0160525330999992000111900004+39760+098470FM-12+1478ZLJQ V0203201N002012200019N0300001N1-00781-01441104531ADDAA124000191GF101991011001999999041021MA1999999086751MD1210071+0601REMSYN082AAXX  19001 52533 32980 13202 11078 21144 38675 40453 52007 81042 333 00652 70001;
0112525330999992000111903004+39760+098470FM-12+1478ZLJQ V0202501N003010150019N0300001N1-00241-01101104341ADDGF106991061051017501001001MD1710021+9999REMSYN060AAXX  19031 52533 42780 62503 11024 21110 40434 57002 86500;
0192525330999992000111906004+39760+098470FM-12+1478ZLJQ V0201601N002012200019N0300001N1+00031-01011103981ADDAA199000091GF102991021051017501001021KA1999N-00911MA1999999086491MD1710241+0201REMSYN082AAXX  19061 52533 32780 21602 10003 21101 38649 40398 57024 82502 333 00203 21091;EQDQ01  00002PRCP99
0122525330999992000111909004+39760+098470FM-12+1478ZLJQ V0203401N007019999999N0300001N1+00141-01331103771ADDGF107991001001999999001021MD1710131+0011REMSYN070AAXX  19091 52533 42980 73407 10014 21133 40377 57013 80002 333 05103;
0173525330999992000111912004+39760+098470FM-12+1478ZLJQ V0201401N002012200019N0300001N1-00271-01011104011ADDAA199000091GF101991001001999999001021MA1999999086351MD1710011+0031REMSYN076AAXX  19121 52533 32980 11402 11027 21101 38635 40401 57001 80002 333 05301;EQDQ01  00002PRCP99
0122525330999992000111915004+39760+098470FM-12+1478ZLJQ V0202501N002012200019N0300001N1-00531-01171103791ADDGA1001+999999999GF100991001001999999001001MD1710101+9999REMSYN054AAXX  19151 52533 42980 02502 11053 21117 40379 57010;
0202525330999992000111918004+39760+098470FM-12+1478ZLJQ V0202201N003012200019N0300001N1-00671-01221103471ADDAA199000091GA1001+999999999GF100991001001999999001001KA1999M+00221MA1999999086021MD1710231-0801REMSYN076AAXX  19181 52533 32980 02203 11067 21122 38602 40347 57023 333 05852 10022;EQDQ01  00002PRCP99
0132525330999992000111921004+39760+098470FM-12+1478ZLJQ V0202201N002012200019N0300001N1-00791-01391103161ADDGA1001+999999999GF100991001001999999001001MD1710261+0091REMSYN064AAXX  19211 52533 42980 02202 11079 21139 40316 57026 333 05953;
0183525330999992000112000004+39760+098470FM-12+1478ZLJQ V0202201N002012200019N0300001N1-00871-01511103141ADDAA199000091GA1001+999999999GF100991001001999999001001MA1999999085601MD1710161+0121REMSYN070AAXX  20001 52533 32980 02202 11087 21151 38560 40314 57016 333 06251;EQDQ01  00002PRCP99
0122525330999992000112003004+39760+098470FM-12+1478ZLJQ V0201601N003012200019N0300001N1+00181-01631102801ADDGA1001+999999999GF100991001001999999001001MD1710051+9999REMSYN054AAXX  20031 52533 42980 01603 10018 21163 40280 57005;
0202525330999992000112006004+39760+098470FM-12+1478ZLJQ V0201401N003012200019N0300001N1+00561-01681102451ADDAA199000091GA1001+999999999GF100991001001999999001001KA1999N-00941MA1999999085321MD1710231-1201REMSYN076AAXX  20061 52533 32980 01403 10056 21168 38532 40245 57023 333 06205 21094;EQDQ01  00002PRCP99
0132525330999992000112009004+39760+098470FM-12+1478ZLJQ V0201101N002012200019N0300001N1+00671-01661102371ADDGA1001+999999999GF100991001001999999001001MD1710071+0111REMSYN064AAXX  20091 52533 42980 01102 10067 21166 40237 57007 333 06105;
0173525330999992000112012004+39760+098470FM-12+1478ZLJQ V0201801N001012200019N0300001N1+00021-01411102631ADDAA199000091GF101991001001999999001021MA1999999085261MD1210011+0111REMSYN076AAXX  20121 52533 32980 11801 10002 21141 38526 40263 52001 80002 333 06103;EQDQ01  00002PRCP99
0122525330999992000112015004+39760+098470FM-12+1478ZLJQ V0202201N002012200019N0300001N1-00351-01391102391ADDGA1001+999999999GF100991001001999999001001MD1410001+9999REMSYN054AAXX  20151 52533 42980 02202 11035 21139 40239 54000;
0202525330999992000112018004+39760+098470FM-12+1478ZLJQ V0202901N001012200019N0300001N1-00441-01441102281ADDAA199000091GA1001+999999999GF100991001001999999001001KA1999M+00741MA1999999085251MD1710011-0801REMSYN076AAXX  20181 52533 32980 02901 11044 21144 38525 40228 57001 333 05802 10074;EQDQ01  00002PRCP99
0122525330999992000112021004+39760+098470FM-12+1478ZLJQ V0200901N002012200019N0300001N1-00451-01521102331ADDGF104991001001999999001021MD1210071+0041REMSYN070AAXX  20211 52533 42980 40902 11045 21152 40233 52007 80002 333 05403;
0183525330999992000112100004+39760+098470FM-12+1478ZLJQ V0202901N002012200019N0300001N1-00731-01411102741ADDAA199000091GA1001+999999999GF100991001001999999001001MA1999999085391MD1210071+0021REMSYN070AAXX  21001 52533 32980 02902 11073 21141 38539 40274 52007 333 05201;EQDQ01  00002PRCP99
0122525330999992000112103004+39760+098470FM-12+1478ZLJQ V0202901N002012200019N0300001N1-00081-01391102711ADDGA1001+999999999GF100991001001999999001001MD1210061+9999REMSYN054AAXX  21031 52533 42980 02902 11008 21139 40271 52006;
0192525330999992000112106004+39760+098470FM-12+1478ZLJQ V0201101N005012200019N0300001N1+00241-00871102281ADDAA199000091GF101991001001999999001021KA1999N-00831MA1999999085161MD1710291-0201REMSYN082AAXX  21061 52533 32980 11105 10024 21087 38516 40228 57029 80002 333 05253 21083;EQDQ01  00002PRCP99
0122525330999992000112109004+39760+098470FM-12+1478ZLJQ V0200701N003012200019N0300001N1+00291-00921102171ADDGF101991011041017501001021MD1710081+0021REMSYN070AAXX  21091 52533 42780 10703 10029 21092 40217 57008 81402 333 05254;
0183525330999992000112112004+39760+098470FM-12+1478ZLJQ V0201801N002012200019N0300001N1-00131-00891102631ADDAA199000091GA1001+999999999GF100991001001999999001001MA1999999085261MD1210181+0001REMSYN070AAXX  21121 52533 32980 01802 11013 21089 38526 40263 52018 333 00052;EQDQ01  00002PRCP99
0122525330999992000112115004+39760+098470FM-12+1478ZLJQ V0202701N002012200019N0300001N1-00311-01061102511ADDGA1001+999999999GF100991001001999999001001MD1210031+9999REMSYN054AAXX  21151 52533 42980 02702 11031 21106 40251 52003;
0202525330999992000112118004+39760+098470FM-12+1478ZLJQ V0202001N002012200019N0300001N1-00561-01211102581ADDAA199000091GA1001+999999999GF100991001001999999001001KA1999M+00371MA1999999085371MD1210081+0101REMSYN076AAXX  21181 52533 32980 02002 11056 21121 38537 40258 52008 333 00151 10037;EQDQ01  00002PRCP99
0132525330999992000112121004+39760+098470FM-12+1478ZLJQ V0202001N003012200019N0300001N1-00671-01431102431ADDGA1001+999999999GF100991001001999999001001MD1710141+0011REMSYN064AAXX  21211 52533 42980 02003 11067 21143 40243 57014 333 05152;
0183525330999992000112200004+39760+098470FM-12+1478ZLJQ V0202201N003012200019N0300001N1-00721-01451102571ADDAA199000091GA1001+999999999GF100991001001999999001001MA1999999085211MD1710021+0021REMSYN070AAXX  22001 52533 32980 02203 11072 21145 38521 40257 57002 333 05200;EQDQ01  00002PRCP99
0122525330999992000112203004+39760+098470FM-12+1478ZLJQ V0201801N002012200019N0300001N1+00201-00941102361ADDGA1001+999999999GF100991001001999999001001MD1210041+9999REMSYN054AAXX  22031 52533 42980 01802 10020 21094 40236 52004;
0202525330999992000112206004+39760+098470FM-12+1478ZLJQ V0200901N002012200019N0300001N1+00821-00851102071ADDAA199000091GA1001+999999999GF100991001001999999001001KA1999N-00821MA1999999085111MD1710141-0101REMSYN076AAXX  22061 52533 32980 00902 10082 21085 38511 40207 57014 333 05106 21082;EQDQ01  00002PRCP99
0132525330999992000112209004+39760+098470FM-12+1478ZLJQ V0200401N002012200019N0300001N1+00871-00991102091ADDGA1001+999999999GF100991001001999999001001MD1410001+0001REMSYN064AAXX  22091 52533 42980 00402 10087 21099 40209 54000 333 00006;
0183525330999992000112212004+39760+098470FM-12+1478ZLJQ V0202201N003012200019N0300001N1+00051-01211102531ADDAA199000091GA1001+999999999GF100991001001999999001001MA1999999085231MD1210121+0001REMSYN070AAXX  22121 52533 32980 02203 10005 21121 38523 40253 52012 333 00002;EQDQ01  00002PRCP99
0122525330999992000112215004+39760+098470FM-12+1478ZLJQ V0202501N003012200019N0300001N1-00211-01301102321ADDGA1001+999999999GF100991001001999999001001MD1210011+9999REMSYN054AAXX  22151 52533 42980 02503 11021 21130 40232 52001;
0202525330999992000112218004+39760+098470FM-12+1478ZLJQ V0202501N003012200019N0300001N1-00311-01431102051ADDAA199000091GA1001+999999999GF100991001001999999001001KA1999M+00931MA1999999085161MD1710081-0201REMSYN076AAXX  22181 52533 32980 02503 11031 21143 38516 40205 57008 333 05203 10093;EQDQ01  00002PRCP99
0132525330999992000112221004+39760+098470FM-12+1478ZLJQ V0202201N003012200019N0300001N1-00421-01401102081ADDGA1001+999999999GF100991001001999999001001MD1210011+0011REMSYN064AAXX  22211 52533 42980 02203 11042 21140 40208 52001 333 05103;
0183525330999992000112300004+39760+098470FM-12+1478ZLJQ V0202201N003012200019N0300001N1-00591-01661102471ADDAA199000091GA1001+999999999GF100991001001999999001001MA1999999085221MD1210051+0001REMSYN070AAXX  23001 52533 32980 02203 11059 21166 38522 40247 52005 333 00001;EQDQ01  00002PRCP99
0112525330999992000112303004+39760+098470FM-12+1478ZLJQ V0202901N001012200019N0300001N1+00281-01091102401ADDGF101991001001999999001021MD1210111+9999REMSYN060AAXX  23031 52533 42980 12901 10028 21109 40240 52011 80002;
0192525330999992000112306004+39760+098470FM-12+1478ZLJQ V0200901N002012200019N0300001N1+00791-01511102151ADDAA199000091GF101991011011017501041021KA1999N-00691MA1999999085241MD1710091+0101REMSYN082AAXX  23061 52533 32780 10902 10079 21151 38524 40215 57009 81142 333 00100 21069;EQDQ01  00002PRCP99
0122525330999992000112309004+39760+098470FM-12+1478ZLJQ V0200901N002012200019N0300001N1+00811-01191102161ADDGF104991011011017501001021MD1710021+0011REMSYN070AAXX  23091 52533 42780 40902 10081 21119 40216 57002 81102 333 00151;
0183525330999992000112312004+39760+098470FM-12+1478ZLJQ V0202001N003012200019N0300001N1+00111-01261102571ADDAA199000091GA1001+999999999GF100991001001999999001001MA1999999085321MD1210101+0011REMSYN070AAXX  23121 52533 32980 02003 10011 21126 38532 40257 52010 333 00101;EQDQ01  00002PRCP99
0122525330999992000112315004+39760+098470FM-12+1478ZLJQ V0202201N002012200019N0300001N1-00201-01461102321ADDGA1001+999999999GF100991001001999999001001MD1710051+9999REMSYN054AAXX  23151 52533 42980 02202 11020 21146 40232 57005;
0202525330999992000112318004+39760+098470FM-12+1478ZLJQ V0202201N003012200019N0300001N1-00341-01491102021ADDAA199000091GA1001+999999999GF100991001001999999001001KA1999M+00971MA1999999085121MD1710151+0001REMSYN076AAXX  23181 52533 32980 02203 11034 21149 38512 40202 57015 333 00000 10097;EQDQ01  00002PRCP99
0132525330999992000112321004+39760+098470FM-12+1478ZLJQ V0202201N003012200019N0300001N1-00401-01201101901ADDGA1001+999999999GF100991001001999999001001MD1710111+0021REMSYN064AAXX  23211 52533 42980 02203 11040 21120 40190 57011 333 05200;
0173525330999992000112400004+39760+098470FM-12+1478ZLJQ V0202501N002012200019N0300001N1-00571-01431102121ADDAA199000091GF101991001001999999001021MA1999999084951MD1710061+0031REMSYN076AAXX  24001 52533 32980 12502 11057 21143 38495 40212 57006 80002 333 05300;EQDQ01  00002PRCP99
0112525330999992000112403004+39760+098470FM-12+1478ZLJQ V0203401N002012200019N0300001N1+00441-00981102031ADDGF101991001001999999001021MD1210121+9999REMSYN060AAXX  24031 52533 42980 13402 10044 21098 40203 52012 80002;
0192525330999992000112406004+39760+098470FM-12+1478ZLJQ V0203401N007012200019N0300001N1+00501-01701102021ADDAA199000091GF102991011001999999041021KA1999N-00701MA1999999085041MD1710031-0201REMSYN082AAXX  24061 52533 32980 23407 10050 21170 38504 40202 57003 81042 333 05253 21070;EQDQ01  00002PRCP99
0122525330999992000112409004+39760+098470FM-12+1478ZLJQ V0203601N004019999999N0300001N1+00381-00951102371ADDGF105991021001999999041021MD1210241+0011REMSYN070AAXX  24091 52533 42980 53604 10038 21095 40237 52024 82042 333 00154;
0173525330999992000112412004+39760+098470FM-12+1478ZLJQ V0203401N002019999999N0300001N1-00021-00911102931ADDAA199000091GF107991021001999999041021MA1999999085591MD1210311+0031REMSYN076AAXX  24121 52533 32980 73402 11002 21091 38559 40293 52031 82042 333 00351;EQDQ01  00002PRCP99
0112525330999992000112415004+39760+098470FM-12+1478ZLJQ V0202201N002019999999N0300001N1-00301-00911102881ADDGF107991001001999999001021MD1210161+9999REMSYN060AAXX  24151 52533 42980 72202 11030 21091 40288 52016 80002;
0192525330999992000112418004+39760+098470FM-12+1478ZLJQ V0203601N002019999999N0300001N1-00401-00971102941ADDAA199000091GF107991001001999999001021KA1999M+00751MA1999999085791MD1210041+0701REMSYN082AAXX  24181 52533 32980 73602 11040 21097 38579 40294 52004 80002 333 00751 10075;EQDQ01  00002PRCP99
0122525330999992000112421004+39760+098470FM-12+1478ZLJQ V0200201N001019999999N0300001N1-00461-00931103081ADDGF107991001001999999001021MD1210071+0091REMSYN070AAXX  24211 52533 42980 70201 11046 21093 40308 52007 80002 333 00951;
0173525330999992000112500004+39760+098470FM-12+1478ZLJQ V0201101N003019999999N0300001N1-00531-01071103331ADDAA199000091GF107991021001999999041021MA1999999085931MD1210071+0101REMSYN076AAXX  25001 52533 32980 71103 11053 21107 38593 40333 52007 82042 333 01000;EQDQ01  00002PRCP99
0112525330999992000112503004+39760+098470FM-12+1478ZLJQ V0200901N002012200019N0300001N1-00311-01221103461ADDGF104991011001999999041021MD1210091+9999REMSYN060AAXX  25031 52533 42980 40902 11031 21122 40346 52009 81042;
0192525330999992000112506004+39760+098470FM-12+1478ZLJQ V0201101N002012200019N0300001N1+00111-00921103161ADDAA199000091GF104991021001999999041021KA1999N-00561MA1999999085861MD1710161+0801REMSYN082AAXX  25061 52533 32980 41102 10011 21092 38586 40316 57016 82042 333 00854 21056;EQDQ01  00002PRCP99
0122525330999992000112509004+39760+098470FM-12+1478ZLJQ V0201101N002019999999N0300001N1+00141-00871103181ADDGF107991011001999999041021MD1210011+0061REMSYN070AAXX  25091 52533 42980 71102 10014 21087 40318 52001 81042 333 00652;
0183525330999992000112512004+39760+098470FM-12+1478ZLJQ V0209999C000012200019N0300001N1-00241-00831103491ADDAA199000091GA1001+999999999GF100991001001999999001001MA1999999086001MD1210131+0041REMSYN070AAXX  25121 52533 32980 00000 11024 21083 38600 40349 52013 333 00452;EQDQ01  00002PRCP99
0122525330999992000112515004+39760+098470FM-12+1478ZLJQ V0202201N002012200019N0300001N1-00281-01271103461ADDGA1001+999999999GF100991001001999999001001MD1210031+9999REMSYN054AAXX  25151 52533 42980 02202 11028 21127 40346 52003;
0202525330999992000112518004+39760+098470FM-12+1478ZLJQ V0202201N002012200019N0300001N1-00541-01281103351ADDAA199000091GA1001+999999999GF100991001001999999001001KA1999M+00241MA1999999085981MD1710051+0201REMSYN076AAXX  25181 52533 32980 02202 11054 21128 38598 40335 57005 333 00251 10024;EQDQ01  00002PRCP99
0132525330999992000112521004+39760+098470FM-12+1478ZLJQ V0202501N002012200019N0300001N1-00731-01361103381ADDGA1001+999999999GF100991001001999999001001MD1710021+0011REMSYN064AAXX  25211 52533 42980 02502 11073 21136 40338 57002 333 00153;
0183525330999992000112600004+39760+098470FM-12+1478ZLJQ V0202701N002012200019N0300001N1-00741-01321103591ADDAA199000091GA1001+999999999GF100991001001999999001001MA1999999086021MD1210061+0011REMSYN070AAXX  26001 52533 32980 02702 11074 21132 38602 40359 52006 333 00152;EQDQ01  00002PRCP99
0122525330999992000112603004+39760+098470FM-12+1478ZLJQ V0209999C000012200019N0300001N1+00021-01141103391ADDGA1001+999999999GF100991001001999999001001MD1210041+9999REMSYN054AAXX  26031 52533 42980 00000 10002 21114 40339 52004;
0202525330999992000112606004+39760+098470FM-12+1478ZLJQ V0200901N002012200019N0300001N1+00421-01151103171ADDAA199000091GA1001+999999999GF100991001001999999001001KA1999N-00811MA1999999085921MD1710141+0101REMSYN076AAXX  26061 52533 32980 00902 10042 21115 38592 40317 57014 333 00103 21081;EQDQ01  00002PRCP99
0132525330999992000112609004+39760+098470FM-12+1478ZLJQ V0200201N002012200019N0300001N1+00451-01131103191ADDGA1001+999999999GF100991001001999999001001MD1710031+0001REMSYN064AAXX  26091 52533 42980 00202 10045 21113 40319 57003 333 00003;
0183525330999992000112612004+39760+098470FM-12+1478ZLJQ V0202501N001012200019N0300001N1-00201-01231103621ADDAA199000091GA1001+999999999GF100991001001999999001001MA1999999086061MD1210171+0011REMSYN070AAXX  26121 52533 32980 02501 11020 21123 38606 40362 52017 333 00100;EQDQ01  00002PRCP99
0122525330999992000112615004+39760+098470FM-12+1478ZLJQ V0202001N002012200019N0300001N1-00291-01351103461ADDGA1001+999999999GF100991001001999999001001MD1210061+9999REMSYN054AAXX  26151 52533 42980 02002 11029 21135 40346 52006;
0202525330999992000112618004+39760+098470FM-12+1478ZLJQ V0202001N002012200019N0300001N1-00531-01491103301ADDAA199000091GA1001+999999999GF100991001001999999001001KA1999M+00511MA1999999086031MD1710091+0101REMSYN076AAXX  26181 52533 32980 02002 11053 21149 38603 40330 57009 333 00100 10051;EQDQ01  00002PRCP99
0132525330999992000112621004+39760+098470FM-12+1478ZLJQ V0202201N002012200019N0300001N1-00721-01581103211ADDGA1001+999999999GF100991001001999999001001MD1710121+0011REMSYN064AAXX  26211 52533 42980 02202 11072 21158 40321 57012 333 05100;
0183525330999992000112700004+39760+098470FM-12+1478ZLJQ V0202201N002012200019N0300001N1-00771-01481103441ADDAA199000091GA1001+999999999GF100991001001999999001001MA1999999085901MD1710011+0011REMSYN070AAXX  27001 52533 32980 02202 11077 21148 38590 40344 57001 333 05100;EQDQ01  00002PRCP99
0122525330999992000112703004+39760+098470FM-12+1478ZLJQ V0200901N002012200019N0300001N1+00091-01431103211ADDGA1001+999999999GF100991001001999999001001MD1210031+9999REMSYN054AAXX  27031 52533 42980 00902 10009 21143 40321 52003;
0202525330999992000112706004+39760+098470FM-12+1478ZLJQ V0201101N003012200019N0300001N1+00301-01271102871ADDAA199000091GA1001+999999999GF100991001001999999001001KA1999N-00831MA1999999085641MD1710291-0301REMSYN076AAXX  27061 52533 32980 01103 10030 21127 38564 40287 57029 333 05351 21083;EQDQ01  00002PRCP99
0132525330999992000112709004+39760+098470FM-12+1478ZLJQ V0200901N003012200019N0300001N1+00401-01291102781ADDGA1001+999999999GF100991001001999999001001MD1710101+0041REMSYN064AAXX  27091 52533 42980 00903 10040 21129 40278 57010 333 05451;
0183525330999992000112712004+39760+098470FM-12+1478ZLJQ V0202201N002012200019N0300001N1-00251-01321103171ADDAA199000091GA1001+999999999GF100991001001999999001001MA1999999085661MD1210121+0041REMSYN070AAXX  27121 52533 32980 02202 11025 21132 38566 40317 52012 333 05451;EQDQ01  00002PRCP99
0122525330999992000112715004+39760+098470FM-12+1478ZLJQ V0202901N004012200019N0300001N1-00331-01201102871ADDGA1001+999999999GF100991001001999999001001MD1710021+9999REMSYN054AAXX  27151 52533 42980 02904 11033 21120 40287 57002;
0202525330999992000112718004+39760+098470FM-12+1478ZLJQ V0202701N002012200019N0300001N1-00561-01481102891ADDAA199000091GA1001+999999999GF100991001001999999001001KA1999M+00441MA1999999085651MD1210011-0401REMSYN076AAXX  27181 52533 32980 02702 11056 21148 38565 40289 52001 333 05400 10044;EQDQ01  00002PRCP99
0132525330999992000112721004+39760+098470FM-12+1478ZLJQ V0202001N002012200019N0300001N1-00621-01531102921ADDGA1001+999999999GF100991001001999999001001MD1210031+0021REMSYN064AAXX  27211 52533 42980 02002 11062 21153 40292 52003 333 05201;
0183525330999992000112800004+39760+098470FM-12+1478ZLJQ V0202501N002012200019N0300001N1-00681-01631103221ADDAA199000091GA1001+999999999GF100991001001999999001001MA1999999085731MD1210051+0021REMSYN070AAXX  28001 52533 32980 02502 11068 21163 38573 40322 52005 333 05201;EQDQ01  00002PRCP99
0122525330999992000112803004+39760+098470FM-12+1478ZLJQ V0202201N002012200019N0300001N1+00161-01411103141ADDGA1001+999999999GF100991001001999999001001MD1210151+9999REMSYN054AAXX  28031 52533 42980 02202 10016 21141 40314 52015;
0202525330999992000112806004+39760+098470FM-12+1478ZLJQ V0201801N003012200019N0300001N1+00581-01491102821ADDAA199000091GA1001+999999999GF100991001001999999001001KA1999N-00841MA1999999085671MD1710211+0001REMSYN076AAXX  28061 52533 32980 01803 10058 21149 38567 40282 57021 333 00003 21084;EQDQ01  00002PRCP99
0122525330999992000112809004+39760+098470FM-12+1478ZLJQ V0200401N002012200019N0300001N1+00461-01531102901ADDGF101991001001999999001021MD1210011+0011REMSYN070AAXX  28091 52533 42980 10402 10046 21153 40290 52001 80002 333 00101;
0183525330999992000112812004+39760+098470FM-12+1478ZLJQ V0202201N002012200019N0300001N1-00171-01241103301ADDAA199000091GA1001+999999999GF100991001001999999001001MA1999999085821MD1210141+0021REMSYN070AAXX  28121 52533 32980 02202 11017 21124 38582 40330 52014 333 00201;EQDQ01  00002PRCP99
0122525330999992000112815004+39760+098470FM-12+1478ZLJQ V0202501N001012200019N0300001N1-00551-01411103181ADDGA1001+999999999GF100991001001999999001001MD1210031+9999REMSYN054AAXX  28151 52533 42980 02501 11055 21141 40318 52003;
0202525330999992000112818004+39760+098470FM-12+1478ZLJQ V0202201N002012200019N0300001N1-00551-01531102991ADDAA199000091GA1001+999999999GF100991001001999999001001KA1999M+00611MA1999999085811MD1710041+0201REMSYN076AAXX  28181 52533 32980 02202 11055 21153 38581 40299 57004 333 00200 10061;EQDQ01  00002PRCP99
0132525330999992000112821004+39760+098470FM-12+1478ZLJQ V0202701N002012200019N0300001N1-00831-01451103021ADDGA1001+999999999GF100991001001999999001001MD1710091+0001REMSYN064AAXX  28211 52533 42980 02702 11083 21145 40302 57009 333 00052;
0183525330999992000112900004+39760+098470FM-12+1478ZLJQ V0202201N003012200019N0300001N1-00831-01451103151ADDAA199000091GA1001+999999999GF100991001001999999001001MA1999999085651MD1710071+0011REMSYN070AAXX  29001 52533 32980 02203 11083 21145 38565 40315 57007 333 05152;EQDQ01  00002PRCP99
0122525330999992000112903004+39760+098470FM-12+1478ZLJQ V0201401N002012200019N0300001N1+00021-01421102851ADDGA1001+999999999GF100991001001999999001001MD1710111+9999REMSYN054AAXX  29031 52533 42980 01402 10002 21142 40285 57011;
0192525330999992000112906004+39760+098470FM-12+1478ZLJQ V0200701N002012200019N0300001N1+00441-00931102401ADDAA199000091GF101991001001999999001021KA1999N-00961MA1999999085281MD1710261-0401REMSYN082AAXX  29061 52533 32980 10702 10044 21093 38528 40240 57026 80002 333 05451 21096;EQDQ01  00002PRCP99
0132525330999992000112909004+39760+098470FM-12+1478ZLJQ V0201401N003012200019N0300001N1+00531-00911102351ADDGA1001+999999999GF100991001001999999001001MD1710091+0051REMSYN064AAXX  29091 52533 42980 01403 10053 21091 40235 57009 333 05501;
0183525330999992000112912004+39760+098470FM-12+1478ZLJQ V0202201N002012200019N0300001N1-00191-01051102531ADDAA199000091GA1001+999999999GF100991001001999999001001MA1999999085131MD1710061+0071REMSYN070AAXX  29121 52533 32980 02202 11019 21105 38513 40253 57006 333 05700;EQDQ01  00002PRCP99
0122525330999992000112915004+39760+098470FM-12+1478ZLJQ V0202501N003012200019N0300001N1-00431-01251102161ADDGA1001+999999999GF100991001001999999001001MD1710131+9999REMSYN054AAXX  29151 52533 42980 02503 11043 21125 40216 57013;
0202525330999992000112918004+39760+098470FM-12+1478ZLJQ V0202201N003012200019N0300001N1-00641-01381101881ADDAA199000091GA1001+999999999GF100991001001999999001001KA1999M+00641MA1999999084821MD1710181-1001REMSYN076AAXX  29181 52533 32980 02203 11064 21138 38482 40188 57018 333 06051 10064;EQDQ01  00002PRCP99
0132525330999992000112921004+39760+098470FM-12+1478ZLJQ V0202201N003012200019N0300001N1-00621-01641101811ADDGA1001+999999999GF100991001001999999001001MD1710021+0091REMSYN064AAXX  29211 52533 42980 02203 11062 21164 40181 57002 333 05902;
0173525330999992000113000004+39760+098470FM-12+1478ZLJQ V0209999C000019999999N0300001N1-00871-01761102241ADDAA199000091GF106991001001999999001021MA1999999084881MD1210081+0081REMSYN076AAXX  30001 52533 32980 60000 11087 21176 38488 40224 52008 80002 333 05800;EQDQ01  00002PRCP99
0112525330999992000113003004+39760+098470FM-12+1478ZLJQ V0202901N001019999999N0300001N1-00181-01541102261ADDGF107991001001999999001021MD1210141+9999REMSYN060AAXX  30031 52533 42980 72901 11018 21154 40226 52014 80002;
0192525330999992000113006004+39760+098470FM-12+1478ZLJQ V0203401N006019999999N0200001N1+00321-01381102221ADDAA199000091GF107991001001999999001021KA1999N-00921MA1999999085071MD1210051-0201REMSYN082AAXX  30061 52533 32970 73406 10032 21138 38507 40222 52005 80002 333 05251 21092;EQDQ01  00002PRCP99
0122525330999992000113009004+39760+098470FM-12+1478ZLJQ V0203201N004019999999N0300001N1+00121-01571102481ADDGF107991011001999999041021MD1210171+0011REMSYN070AAXX  30091 52533 42980 73204 10012 21157 40248 52017 81042 333 00154;
0173525330999992000113012004+39760+098470FM-12+1478ZLJQ V0202701N002019999999N0300001N1-00221-01381103121ADDAA199000091GF105991001001999999001021MA1999999085601MD1210361+0051REMSYN076AAXX  30121 52533 32980 52702 11022 21138 38560 40312 52036 80002 333 00500;EQDQ01  00002PRCP99
0112525330999992000113015004+39760+098470FM-12+1478ZLJQ V0202701N002012200019N0300001N1-00561-01421103301ADDGF102991001001999999001021MD1210251+9999REMSYN060AAXX  30151 52533 42980 22702 11056 21142 40330 52025 80002;
0192525330999992000113018004+39760+098470FM-12+1478ZLJQ V0202901N002012200019N0300001N1-00501-01321103371ADDAA199000091GF101991001001999999001021KA1999M+00441MA1999999086071MD1210221+1301REMSYN082AAXX  30181 52533 32980 12902 11050 21132 38607 40337 52022 80002 333 01301 10044;EQDQ01  00002PRCP99
0132525330999992000113021004+39760+098470FM-12+1478ZLJQ V0202901N003012200019N0300001N1-00501-01441103641ADDGA1001+999999999GF100991001001999999001001MD1210171+0141REMSYN064AAXX  30211 52533 42980 02903 11050 21144 40364 52017 333 01401;
0192525330999992000120100004+39760+098470FM-12+1478ZLJQ V0200201N002019999999N0120001N1-00601-00751104101ADDAA106000591AY171061GF108991081001999999021999MA1999999086491MD1210251+1601MW1701REMSYN100AAXX  01001 52533 11962 80202 11060 21075 38649 40410 52025 69961 77070 8802/ 333 01603 70006 92501;
0140525330999992000120103004+39760+098470FM-12+1478ZLJQ V0201601N001012200019N0200001N1-00491-00811104381ADDAY171031AY271031GF104991021051017501001021MD1210171+9999MW1701REMSYN066AAXX  01031 52533 41770 41601 11049 21081 40438 52017 77077 82502;
0199525330999992000120106004+39760+098470FM-12+1478ZLJQ V0202501N002019999999N0200001N1-00351-00781104221ADDAA106000591AY171061GF108991011001999999041071KA1999N-00651MA1999999086581MD1710081+1501MW1221REMSYN094AAXX  01061 52533 11970 82502 11035 21078 38658 40422 57008 69951 72270 81047 333 01557 21065;
0122525330999992000120109004+39760+098470FM-12+1478ZLJQ V0200201N002019999999N0300001N1-00281-00811104181ADDGF108991021001999999041071MD1710011+0131REMSYN070AAXX  01091 52533 42980 80202 11028 21081 40418 57001 82047 333 01354;
0154525330999992000120112004+39760+098470FM-12+1478ZLJQ V0202701N002012200019N0300001N1-00441-00901104391ADDAA199000021GF104991001001999999001021MA1999999086671MD1210101+0111REMSYN076AAXX  01121 52533 32980 42702 11044 21090 38667 40439 52010 80002 333 01152;
0112525330999992000120115004+39760+098470FM-12+1478ZLJQ V0201601N001019999999N0300001N1-00641-00951104411ADDGF105991001001999999001021MD1710011+9999REMSYN060AAXX  01151 52533 42980 51601 11064 21095 40441 57001 80002;
0183525330999992000120118004+39760+098470FM-12+1478ZLJQ V0209999C000012200019N0300001N1-00931-01231104381ADDAA199000021GA1001+999999999GF100991001001999999001001KA1999M-00141MA1999999086591MD1710071+0501REMSYN076AAXX  01181 52533 32980 00000 11093 21123 38659 40438 57007 333 00554 11014;
0149525330999992000120121004+39760+098470FM-12+1478ZLJQ V0202201N002012200019N0300001N1-00951-01201104261ADDAA124001091GA1001+999999999GF100991001001999999001001MD1710091+0301REMSYN070AAXX  01211 52533 42980 02202 11095 21120 40426 57009 333 00355 70011;
0166525330999992000120200004+39760+098470FM-12+1478ZLJQ V0203401N001012200019N0300001N1-00931-01231104331ADDAA124000591GF104991001001999999001021MA1999999086521MD1210021+0001REMSYN088AAXX  02001 52533 32980 43401 11093 21123 38652 40433 52002 80002 333 00053 70005 92501;
0112525330999992000120203004+39760+098470FM-12+1478ZLJQ V0202501N001019999999N0300001N1-00331-01011104161ADDGF107991001001999999001021MD1710021+9999REMSYN060AAXX  02031 52533 42980 72501 11033 21101 40416 57002 80002;
0192525330999992000120206004+39760+098470FM-12+1478ZLJQ V0203401N001019999999N0300001N1-00061-01081103891ADDAA199000091GF107991001001999999001021KA1999N-01101MA1999999086271MD1710231-0301REMSYN082AAXX  02061 52533 32980 73401 11006 21108 38627 40389 57023 80002 333 05303 21110;EQDQ01  00002PRCP99
0122525330999992000120209004+39760+098470FM-12+1478ZLJQ V0201401N004019999999N0300001N1-00061-01081103681ADDGF106991001001999999001021MD1710181+0051REMSYN070AAXX  02091 52533 42980 61404 11006 21108 40368 57018 80002 333 05502;
0173525330999992000120212004+39760+098470FM-12+1478ZLJQ V0201101N002012200019N0300001N1-00441-01131103641ADDAA199000091GF101991001001999999001021MA1999999085951MD1710141+0071REMSYN076AAXX  02121 52533 32980 11102 11044 21113 38595 40364 57014 80002 333 05700;EQDQ01  00002PRCP99
0122525330999992000120215004+39760+098470FM-12+1478ZLJQ V0202001N002012200019N0300001N1-00821-01441103191ADDGA1001+999999999GF100991001001999999001001MD1710311+9999REMSYN054AAXX  02151 52533 42980 02002 11082 21144 40319 57031;
0202525330999992000120218004+39760+098470FM-12+1478ZLJQ V0202201N003012200019N0300001N1-00911-01451102741ADDAA199000091GA1001+999999999GF100991001001999999001001KA1999M+00091MA1999999085321MD1710321-1301REMSYN076AAXX  02181 52533 32980 02203 11091 21145 38532 40274 57032 333 06300 10009;EQDQ01  00002PRCP99
0132525330999992000120221004+39760+098470FM-12+1478ZLJQ V0202501N003012200019N0300001N1-00901-01681102521ADDGA1001+999999999GF100991001001999999001001MD1710181+0141REMSYN064AAXX  02211 52533 42980 02503 11090 21168 40252 57018 333 06401;
0173525330999992000120300004+39760+098470FM-12+1478ZLJQ V0203601N002012200019N0300001N1-00951-01761102761ADDAA199000091GF102991001001999999001021MA1999999085211MD1210071+0131REMSYN076AAXX  03001 52533 32980 23602 11095 21176 38521 40276 52007 80002 333 06300;EQDQ01  00002PRCP99
0112525330999992000120303004+39760+098470FM-12+1478ZLJQ V0202901N002019999999N0200001N1+00081-01611102651ADDGF108991001001999999001071MD1210101+9999REMSYN060AAXX  03031 52533 42970 82902 10008 21161 40265 52010 80007;
0192525330999992000120306004+39760+098470FM-12+1478ZLJQ V0201401N003019999999N0120001N1+00221-01521102601ADDAA199000091GF108991001001999999001071KA1999N-01081MA1999999085281MD1710031-1001REMSYN082AAXX  03061 52533 32962 81403 10022 21152 38528 40260 57003 80007 333 06003 21108;EQDQ01  00002PRCP99
0122525330999992000120309004+39760+098470FM-12+1478ZLJQ V0203401N002019999999N0120001N1+00091-01511102721ADDGF108991001001999999001071MD1210071+0071REMSYN070AAXX  03091 52533 42962 83402 10009 21151 40272 52007 80007 333 05702;
0173525330999992000120312004+39760+098470FM-12+1478ZLJQ V0201801N003019999999N0150001N1-00201-01231103081ADDAA199000091GF108991001001999999001071MA1999999085551MD1210201+0041REMSYN076AAXX  03121 52533 32965 81803 11020 21123 38555 40308 52020 80007 333 05402;EQDQ01  00002PRCP99
0112525330999992000120315004+39760+098470FM-12+1478ZLJQ V0203601N002019999999N0150001N1-00441-01441102821ADDGF108991001001999999001071MD1210011+9999REMSYN060AAXX  03151 52533 42965 83602 11044 21144 40282 52001 80007;
0192525330999992000120318004+39760+098470FM-12+1478ZLJQ V0200701N001019999999N0150001N1-00701-01421102841ADDAA199000091GF107991001001999999001021KA1999M+00321MA1999999085541MD1710021+0201REMSYN082AAXX  03181 52533 32965 70701 11070 21142 38554 40284 57002 80002 333 00202 10032;EQDQ01  00002PRCP99
0122525330999992000120321004+39760+098470FM-12+1478ZLJQ V0202501N002012200019N0150001N1-00821-01381102841ADDGF102991001001999999001021MD1710071+0031REMSYN070AAXX  03211 52533 42965 22502 11082 21138 40284 57007 80002 333 00301;
0173525330999992000120400004+39760+098470FM-12+1478ZLJQ V0209999C000019999999N0200001N1-00921-01361103121ADDAA199000091GF107991001001999999001021MA1999999085591MD1210121+0041REMSYN076AAXX  04001 52533 32970 70000 11092 21136 38559 40312 52012 80002 333 00400;EQDQ01  00002PRCP99
0112525330999992000120403004+39760+098470FM-12+1478ZLJQ V0203201N002012200019N0200001N1-00371-01491103081ADDGF102991001001999999001021MD1210061+9999REMSYN060AAXX  04031 52533 42970 23202 11037 21149 40308 52006 80002;
0202525330999992000120406004+39760+098470FM-12+1478ZLJQ V0200401N002012200019N0200001N1-00011-01191102841ADDAA199000091GA1001+999999999GF100991001001999999001001KA1999N-01021MA1999999085481MD1710171+0201REMSYN076AAXX  04061 52533 32970 00402 11001 21119 38548 40284 57017 333 00252 21102;EQDQ01  00002PRCP99
0132525330999992000120409004+39760+098470FM-12+1478ZLJQ V0201101N001012200019N0200001N1+00041-01571102771ADDGA1001+999999999GF100991001001999999001001MD1710081+0011REMSYN064AAXX  04091 52533 42970 01101 10004 21157 40277 57008 333 00151;
0183525330999992000120412004+39760+098470FM-12+1478ZLJQ V0201601N002012200019N0300001N1-00441-01221102931ADDAA199000091GA1001+999999999GF100991001001999999001001MA1999999085361MD1710041+0021REMSYN070AAXX  04121 52533 32980 01602 11044 21122 38536 40293 57004 333 05252;EQDQ01  00002PRCP99
0122525330999992000120415004+39760+098470FM-12+1478ZLJQ V0202201N002012200019N0300001N1-00671-01171102681ADDGA1001+999999999GF100991001001999999001001MD1710111+9999REMSYN054AAXX  04151 52533 42980 02202 11067 21117 40268 57011;
0202525330999992000120418004+39760+098470FM-12+1478ZLJQ V0202501N002012200019N0300001N1-00881-01361102441ADDAA199000091GA1001+999999999GF100991001001999999001001KA1999M+00101MA1999999085091MD1710161-0501REMSYN076AAXX  04181 52533 32980 02502 11088 21136 38509 40244 57016 333 05552 10010;EQDQ01  00002PRCP99
0132525330999992000120421004+39760+098470FM-12+1478ZLJQ V0202901N002012200019N0300001N1-00821-01331102441ADDGA1001+999999999GF100991001001999999001001MD1210031+0041REMSYN064AAXX  04211 52533 42980 02902 11082 21133 40244 52003 333 05400;
0173525330999992000120500004+39760+098470FM-12+1478ZLJQ V0203601N003019999999N0300001N1-00881-01411102711ADDAA199000091GF106991061001999999041001MA1999999085191MD1210071+0041REMSYN076AAXX  05001 52533 32980 63603 11088 21141 38519 40271 52007 86040 333 05400;EQDQ01  00002PRCP99
0112525330999992000120503004+39760+098470FM-12+1478ZLJQ V0201101N001019999999N0300001N1+00001-01171102691ADDGF107991041001999999031021MD1210171+9999REMSYN060AAXX  05031 52533 42980 71101 10000 21117 40269 52017 84032;
0192525330999992000120506004+39760+098470FM-12+1478ZLJQ V0200401N002019999999N0300001N1+00471-01451102391ADDAA199000091GF107991011001999999041021KA1999N-01001MA1999999085191MD1710171-0301REMSYN082AAXX  05061 52533 32980 70402 10047 21145 38519 40239 57017 81042 333 05305 21100;EQDQ01  00002PRCP99
0122525330999992000120509004+39760+098470FM-12+1478ZLJQ V0200201N001019999999N0300001N1+00491-01511102471ADDGF107991011001999999041021MD1210091+0011REMSYN070AAXX  05091 52533 42980 70201 10049 21151 40247 52009 81042 333 05105;
0183525330999992000120512004+39760+098470FM-12+1478ZLJQ V0202501N002012200019N0300001N1-00131-01501102991ADDAA199000091GA1001+999999999GF100991001001999999001001MA1999999085511MD1210231+0021REMSYN070AAXX  05121 52533 32980 02502 11013 21150 38551 40299 52023 333 00203;EQDQ01  00002PRCP99
0112525330999992000120515004+39760+098470FM-12+1478ZLJQ V0202701N002012200019N0300001N1-00581-01401102981ADDGF101991001001999999001021MD1210121+9999REMSYN060AAXX  05151 52533 42980 12702 11058 21140 40298 52012 80002;
0202525330999992000120518004+39760+098470FM-12+1478ZLJQ V0202201N001012200019N0300001N1-00661-01251102881ADDAA199000091GA1001+999999999GF100991001001999999001001KA1999M+00501MA1999999085661MD1210031+0601REMSYN076AAXX  05181 52533 32980 02201 11066 21125 38566 40288 52003 333 00602 10050;EQDQ01  00002PRCP99
0132525330999992000120521004+39760+098470FM-12+1478ZLJQ V0202901N003012200019N0300001N1-00871-01631103041ADDGA1001+999999999GF100991001001999999001001MD1210081+0061REMSYN064AAXX  05211 52533 42980 02903 11087 21163 40304 52008 333 00651;
0173525330999992000120600004+39760+098470FM-12+1478ZLJQ V0202001N002012200019N0300001N1-00821-01491103251ADDAA199000091GF101991001001999999001021MA1999999085751MD1210011+0061REMSYN076AAXX  06001 52533 32980 12002 11082 21149 38575 40325 52001 80002 333 00601;EQDQ01  00002PRCP99
0112525330999992000120603004+39760+098470FM-12+1478ZLJQ V0201101N002019999999N0300001N1-00181-01141103261ADDGF107991011001999999041021MD1210061+9999REMSYN060AAXX  06031 52533 42980 71102 11018 21114 40326 52006 81042;
0192525330999992000120606004+39760+098470FM-12+1478ZLJQ V0201601N003012200019N0300001N1+00241-01401102951ADDAA199000091GF104991001001999999001021KA1999N-00951MA1999999085651MD1710161+0501REMSYN082AAXX  06061 52533 32980 41603 10024 21140 38565 40295 57016 80002 333 00552 21095;EQDQ01  00002PRCP99
0122525330999992000120609004+39760+098470FM-12+1478ZLJQ V0200901N002019999999N0300001N1+00181-01491103071ADDGF107991001001999999001021MD1210021+0041REMSYN070AAXX  06091 52533 42980 70902 10018 21149 40307 52002 80002 333 00453;
0173525330999992000120612004+39760+098470FM-12+1478ZLJQ V0209999C000019999999N0300001N1-00301-01251103341ADDAA199000091GF107991001001999999001021MA1999999085771MD1210101+0031REMSYN076AAXX  06121 52533 32980 70000 11030 21125 38577 40334 52010 80002 333 00352;EQDQ01  00002PRCP99
0112525330999992000120615004+39760+098470FM-12+1478ZLJQ V0202201N002012200019N0300001N1-00581-01291103201ADDGF102991011001999999041021MD1710011+9999REMSYN060AAXX  06151 52533 42980 22202 11058 21129 40320 57001 81042;
0192525330999992000120618004+39760+098470FM-12+1478ZLJQ V0202201N002012200019N0300001N1-00571-01171102941ADDAA199000091GF101991001001999999001021KA1999M+00311MA1999999085671MD1710091+0001REMSYN082AAXX  06181 52533 32980 12202 11057 21117 38567 40294 57009 80002 333 00001 10031;EQDQ01  00002PRCP99
0132525330999992000120621004+39760+098470FM-12+1478ZLJQ V0202701N002012200019N0300001N1-00851-01321102951ADDGA1001+999999999GF100991001001999999001001MD1710091+0021REMSYN064AAXX  06211 52533 42980 02702 11085 21132 40295 57009 333 05200;
0183525330999992000120700004+39760+098470FM-12+1478ZLJQ V0202201N003012200019N0300001N1-00771-01211102961ADDAA199000091GA1001+999999999GF100991001001999999001001MA1999999085471MD1710111+0031REMSYN070AAXX  07001 52533 32980 02203 11077 21121 38547 40296 57011 333 05301;EQDQ01  00002PRCP99
0122525330999992000120703004+39760+098470FM-12+1478ZLJQ V0209999C000012200019N0300001N1+00121-00941102711ADDGA1001+999999999GF100991001001999999001001MD1710031+9999REMSYN054AAXX  07031 52533 42980 00000 10012 21094 40271 57003;
0202525330999992000120706004+39760+098470FM-12+1478ZLJQ V0200901N003012200019N0300001N1+00491-00761102301ADDAA199000091GA1001+999999999GF100991001001999999001001KA1999N-00891MA1999999085211MD1710231-0401REMSYN076AAXX  07061 52533 32980 00903 10049 21076 38521 40230 57023 333 05403 21089;EQDQ01  00002PRCP99
0132525330999992000120709004+39760+098470FM-12+1478ZLJQ V0201101N002012200019N0300001N1+00601-01011102251ADDGA1001+999999999GF100991001001999999001001MD1710091+0061REMSYN064AAXX  07091 52533 42980 01102 10060 21101 40225 57009 333 05604;
0183525330999992000120712004+39760+098470FM-12+1478ZLJQ V0202501N003012200019N0300001N1-00081-01161102461ADDAA199000091GA1001+999999999GF100991001001999999001001MA1999999085121MD1410001+0071REMSYN070AAXX  07121 52533 32980 02503 11008 21116 38512 40246 54000 333 05702;EQDQ01  00002PRCP99
0122525330999992000120715004+39760+098470FM-12+1478ZLJQ V0202501N003012200019N0300001N1-00351-01171102161ADDGA1001+999999999GF100991001001999999001001MD1710071+9999REMSYN054AAXX  07151 52533 42980 02503 11035 21117 40216 57007;
0202525330999992000120718004+39760+098470FM-12+1478ZLJQ V0202501N003012200019N0300001N1-00381-01221101941ADDAA199000091GA1001+999999999GF100991001001999999001001KA1999M+00641MA1999999084961MD1710091-0701REMSYN076AAXX  07181 52533 32980 02503 11038 21122 38496 40194 57009 333 05702 10064;EQDQ01  00002PRCP99
0132525330999992000120721004+39760+098470FM-12+1478ZLJQ V0202201N002012200019N0300001N1-00731-01351102011ADDGA1001+999999999GF100991001001999999001001MD1710011+0061REMSYN064AAXX  07211 52533 42980 02202 11073 21135 40201 57001 333 05601;
0173525330999992000120800004+39760+098470FM-12+1478ZLJQ V0202901N002012200019N0300001N1-00941-01491102391ADDAA199000091GF101991001001999999001021MA1999999085011MD1210061+0051REMSYN076AAXX  08001 52533 32980 12902 11094 21149 38501 40239 52006 80002 333 05552;EQDQ01  00002PRCP99
0112525330999992000120803004+39760+098470FM-12+1478ZLJQ V0203401N004012200019N0300001N1-00181-01411102421ADDGF102991001001999999001021MD1210171+9999REMSYN060AAXX  08031 52533 42980 23404 11018 21141 40242 52017 80002;
0192525330999992000120806004+39760+098470FM-12+1478ZLJQ V0200401N003019999999N0300001N1-00051-01441102371ADDAA199000091GF105991001001999999001021KA1999N-00951MA1999999085171MD1710011+0001REMSYN082AAXX  08061 52533 32980 50403 11005 21144 38517 40237 57001 80002 333 00055 21095;EQDQ01  00002PRCP99
0122525330999992000120809004+39760+098470FM-12+1478ZLJQ V0200201N003019999999N0300001N1+00031-01521102641ADDGF106991011001999999041021MD1210141+0021REMSYN070AAXX  08091 52533 42980 60203 10003 21152 40264 52014 81042 333 00256;
0173525330999992000120812004+39760+098470FM-12+1478ZLJQ V0203401N002019999999N0300001N1-00311-01381103091ADDAA199000091GF107991001001999999001021MA1999999085531MD1210221+0041REMSYN076AAXX  08121 52533 32980 73402 11031 21138 38553 40309 52022 80002 333 00452;EQDQ01  00002PRCP99
0112525330999992000120815004+39760+098470FM-12+1478ZLJQ V0202901N001012200019N0300001N1-00661-01311103191ADDGF103991001001999999001021MD1210201+9999REMSYN060AAXX  08151 52533 42980 32901 11066 21131 40319 52020 80002;
0192525330999992000120818004+39760+098470FM-12+1478ZLJQ V0200201N001019999999N0300001N1-00801-01521103311ADDAA199000091GF107991001001999999001021KA1999M+00101MA1999999085831MD1210101+0901REMSYN082AAXX  08181 52533 32980 70201 11080 21152 38583 40331 52010 80002 333 00954 10010;EQDQ01  00002PRCP99
0122525330999992000120821004+39760+098470FM-12+1478ZLJQ V0209999C000019999999N0300001N1-00971-01661103481ADDGF108991001001999999001071MD1210111+0101REMSYN070AAXX  08211 52533 42980 80000 11097 21166 40348 52011 80007 333 01052;
0173525330999992000120900004+39760+098470FM-12+1478ZLJQ V0209999C000019999999N0300001N1-01091-01641103671ADDAA199000091GF107991001001999999001021MA1999999085961MD1210021+0101REMSYN076AAXX  09001 52533 32980 70000 11109 21164 38596 40367 52002 80002 333 01052;EQDQ01  00002PRCP99
0112525330999992000120903004+39760+098470FM-12+1478ZLJQ V0209999C000019999999N0300001N1-00901-01691103941ADDGF107991011001999999041021MD1210181+9999REMSYN060AAXX  09031 52533 42980 70000 11090 21169 40394 52018 81042;
0192525330999992000120906004+39760+098470FM-12+1478ZLJQ V0201101N001019999999N0300001N1-00771-01881103911ADDAA199000091GF106991021001999999041021KA1999N-01111MA1999999086111MD1710031+0901REMSYN082AAXX  09061 52533 32980 61101 11077 21188 38611 40391 57003 82042 333 00957 21111;EQDQ01  00002PRCP99
0122525330999992000120909004+39760+098470FM-12+1478ZLJQ V0201401N002012200019N0300001N1-00631-01751104051ADDGF101991011001999999041021MD1210111+0091REMSYN070AAXX  09091 52533 42980 11402 11063 21175 40405 52011 81042 333 00957;
0183525330999992000120912004+39760+098470FM-12+1478ZLJQ V0201401N002012200019N0300001N1-01011-01941104271ADDAA199000091GA1001+999999999GF100991001001999999001001MA1999999086251MD1210031+0071REMSYN070AAXX  09121 52533 32980 01402 11101 21194 38625 40427 52003 333 00757;EQDQ01  00002PRCP99
0122525330999992000120915004+39760+098470FM-12+1478ZLJQ V0202501N001012200019N0300001N1-01161-01881104111ADDGA1001+999999999GF100991001001999999001001MD1710121+9999REMSYN054AAXX  09151 52533 42980 02501 11116 21188 40411 57012;
0202525330999992000120918004+39760+098470FM-12+1478ZLJQ V0209999C000012200019N0300001N1-01381-01851104001ADDAA199000091GA1001+999999999GF100991001001999999001001KA1999M-00601MA1999999086011MD1710121+0201REMSYN076AAXX  09181 52533 32980 00000 11138 21185 38601 40400 57012 333 00256 11060;EQDQ01  00002PRCP99
0132525330999992000120921004+39760+098470FM-12+1478ZLJQ V0202501N001012200019N0300001N1-01501-01861103921ADDGA1001+999999999GF100991001001999999001001MD1710061+0001REMSYN064AAXX  09211 52533 42980 02501 11150 21186 40392 57006 333 00055;
0183525330999992000121000004+39760+098470FM-12+1478ZLJQ V0202901N001012200019N0300001N1-01601-01881104141ADDAA199000091GA1001+999999999GF100991001001999999001001MA1999999085981MD1210031+0001REMSYN070AAXX  10001 52533 32980 02901 11160 21188 38598 40414 52003 333 00055;EQDQ01  00002PRCP99
0112525330999992000121003004+39760+098470FM-12+1478ZLJQ V0209999C000019999999N0300001N1-00701-01481103921ADDGF107991011001999999041021MD1210051+9999REMSYN060AAXX  10031 52533 42980 70000 11070 21148 40392 52005 81042;
0192525330999992000121006004+39760+098470FM-12+1478ZLJQ V0200201N002012200019N0300001N1-00341-01501103701ADDAA199000091GF101991001001999999001021KA1999N-01601MA1999999085891MD1710141-0201REMSYN082AAXX  10061 52533 32980 10202 11034 21150 38589 40370 57014 80002 333 05204 21160;EQDQ01  00002PRCP99
0122525330999992000121009004+39760+098470FM-12+1478ZLJQ V0201101N002012200019N0300001N1-00261-01351103771ADDGF102991001001999999001021MD1210051+0031REMSYN070AAXX  10091 52533 42980 21102 11026 21135 40377 52005 80002 333 05304;
0173525330999992000121012004+39760+098470FM-12+1478ZLJQ V0209999C000019999999N0300001N1-00821-01751104221ADDAA199000091GF106991001001999999001021MA1999999086111MD1210171+0011REMSYN076AAXX  10121 52533 32980 60000 11082 21175 38611 40422 52017 80002 333 05102;EQDQ01  00002PRCP99
0112525330999992000121015004+39760+098470FM-12+1478ZLJQ V0209999C000019999999N0300001N1-01151-01791104111ADDGF105991001001999999001021MD1210081+9999REMSYN060AAXX  10151 52533 42980 50000 11115 21179 40411 52008 80002;
0192525330999992000121018004+39760+098470FM-12+1478ZLJQ V0202501N002019999999N0300001N1-01231-01741104071ADDAA199000091GF107991001001999999001021KA1999M-00181MA1999999086241MD1210051+0201REMSYN082AAXX  10181 52533 32980 72502 11123 21174 38624 40407 52005 80002 333 00202 11018;EQDQ01  00002PRCP99
0122525330999992000121021004+39760+098470FM-12+1478ZLJQ V0202501N001019999999N0300001N1-01171-01751104141ADDGF107991001001999999001021MD1210101+0041REMSYN070AAXX  10211 52533 42980 72501 11117 21175 40414 52010 80002 333 00403;
0173525330999992000121100004+39760+098470FM-12+1478ZLJQ V0202501N002019999999N0300001N1-00941-01981104391ADDAA199000091GF107991011001999999041021MA1999999086451MD1210111+0051REMSYN076AAXX  11001 52533 32980 72502 11094 21198 38645 40439 52011 81042 333 00507;EQDQ01  00002PRCP99
0112525330999992000121103004+39760+098470FM-12+1478ZLJQ V0200201N001019999999N0300001N1-00461-01841104561ADDGF106991001001999999001021MD1210191+9999REMSYN060AAXX  11031 52533 42980 60201 11046 21184 40456 52019 80002;
0192525330999992000121106004+39760+098470FM-12+1478ZLJQ V0202501N001012200019N0300001N1-00041-02191104281ADDAA199000091GF101991001001999999001021KA1999N-01301MA1999999086511MD1710131+0601REMSYN082AAXX  11061 52533 32980 12501 11004 21219 38651 40428 57013 80002 333 00603 21130;EQDQ01  00002PRCP99
0122525330999992000121109004+39760+098470FM-12+1478ZLJQ V0203401N005012200019N0300001N1-00041-02201104311ADDGF101991001001999999001021MD1210041+0061REMSYN070AAXX  11091 52533 42980 13405 11004 21220 40431 52004 80002 333 00602;
0183525330999992000121112004+39760+098470FM-12+1478ZLJQ V0202501N001012200019N0300001N1-00561-02001104501ADDAA199000091GA1001+999999999GF100991001001999999001001MA1999999086621MD1210071+0051REMSYN070AAXX  11121 52533 32980 02501 11056 21200 38662 40450 52007 333 00503;EQDQ01  00002PRCP99
0122525330999992000121115004+39760+098470FM-12+1478ZLJQ V0202001N002012200019N0300001N1-00601-01921104241ADDGA1001+999999999GF100991001001999999001001MD1710081+9999REMSYN054AAXX  11151 52533 42980 02002 11060 21192 40424 57008;
0202525330999992000121118004+39760+098470FM-12+1478ZLJQ V0202201N002012200019N0300001N1-01071-01861104111ADDAA199000091GA1001+999999999GF100991001001999999001001KA1999M+00161MA1999999086411MD1710131+0201REMSYN076AAXX  11181 52533 32980 02202 11107 21186 38641 40411 57013 333 00202 10016;EQDQ01  00002PRCP99
0122525330999992000121121004+39760+098470FM-12+1478ZLJQ V0202701N001012200019N0300001N1-01161-01801103971ADDGF101991001001999999001021MD1710141+0011REMSYN070AAXX  11211 52533 42980 12701 11116 21180 40397 57014 80002 333 05100;
0173525330999992000121200004+39760+098470FM-12+1478ZLJQ V0202201N003012200019N0300001N1-01281-01911104041ADDAA199000091GF101991001001999999001021MA1999999086141MD1710131+0031REMSYN076AAXX  12001 52533 32980 12203 11128 21191 38614 40404 57013 80002 333 05353;EQDQ01  00002PRCP99
0112525330999992000121203004+39760+098470FM-12+1478ZLJQ V0202201N002012200019N0300001N1-00501-01561103621ADDGF102991001001999999001021MD1710131+9999REMSYN060AAXX  12031 52533 42980 22202 11050 21156 40362 57013 80002;
0192525330999992000121206004+39760+098470FM-12+1478ZLJQ V0200701N003019999999N0300001N1+00001-01701103251ADDAA199000091GF107991001001999999001021KA1999N-01321MA1999999085711MD1710301-0801REMSYN082AAXX  12061 52533 32980 70703 10000 21170 38571 40325 57030 80002 333 05800 21132;EQDQ01  00002PRCP99
0122525330999992000121209004+39760+098470FM-12+1478ZLJQ V0201101N002019999999N0300001N1-00011-01581103111ADDGF107991001001999999001021MD1710141+0101REMSYN070AAXX  12091 52533 42980 71102 11001 21158 40311 57014 80002 333 06000;
0173525330999992000121212004+39760+098470FM-12+1478ZLJQ V0200201N003019999999N0300001N1-00321-01581103081ADDAA199000091GF107991001001999999001021MA1999999085411MD1710161+0121REMSYN076AAXX  12121 52533 32980 70203 11032 21158 38541 40308 57016 80002 333 06202;EQDQ01  00002PRCP99
0112525330999992000121215004+39760+098470FM-12+1478ZLJQ V0202001N003019999999N0300001N1-00541-01501102741ADDGF108991001001999999001071MD1710111+9999REMSYN060AAXX  12151 52533 42980 82003 11054 21150 40274 57011 80007;
0192525330999992000121218004+39760+098470FM-12+1478ZLJQ V0202901N004019999999N0300001N1-00401-01371102581ADDAA199000091GF108991001001999999001071KA1999M+00161MA1999999085351MD1210051-1101REMSYN082AAXX  12181 52533 32980 82904 11040 21137 38535 40258 52005 80007 333 06107 10016;EQDQ01  00002PRCP99
0122525330999992000121221004+39760+098470FM-12+1478ZLJQ V0203601N002019999999N0300001N1-00581-01241102671ADDGF108991031001999999041071MD1210021+0091REMSYN070AAXX  12211 52533 42980 83602 11058 21124 40267 52002 83047 333 05906;
0173525330999992000121300004+39760+098470FM-12+1478ZLJQ V0200701N003019999999N0300001N1-00641-00951102851ADDAA199000091GF108991081001999999071999MA1999999085411MD1210041+0071REMSYN076AAXX  13001 52533 32980 80703 11064 21095 38541 40285 52004 8807/ 333 05706;EQDQ01  00002PRCP99
0112525330999992000121303004+39760+098470FM-12+1478ZLJQ V0201601N002019999999N0300001N1-00541-01041103031ADDGF108991081001999999021999MD1210121+9999REMSYN060AAXX  13031 52533 42980 81602 11054 21104 40303 52012 8802/;
0192525330999992000121306004+39760+098470FM-12+1478ZLJQ V0201601N003019999999N0300001N1-00251-00801102731ADDAA199000091GF107991001001999999001021KA1999N-00681MA1999999085401MD1710131-0301REMSYN082AAXX  13061 52533 32980 71603 11025 21080 38540 40273 57013 80002 333 05353 21068;EQDQ01  00002PRCP99
0122525330999992000121309004+39760+098470FM-12+1478ZLJQ V0201401N002012200019N0300001N1+00001-01341102701ADDGF101991001001999999001021MD1410001+0021REMSYN070AAXX  13091 52533 42980 11402 10000 21134 40270 54000 80002 333 05200;
0183525330999992000121312004+39760+098470FM-12+1478ZLJQ V0201601N002012200019N0300001N1-00451-01141102801ADDAA199000091GA1001+999999999GF100991001001999999001001MA1999999085331MD1710071+0011REMSYN070AAXX  13121 52533 32980 01602 11045 21114 38533 40280 57007 333 05151;EQDQ01  00002PRCP99
0122525330999992000121315004+39760+098470FM-12+1478ZLJQ V0202201N002012200019N0300001N1-00861-01441102831ADDGA1001+999999999GF100991001001999999001001MD1710061+9999REMSYN054AAXX  13151 52533 42980 02202 11086 21144 40283 57006;
0202525330999992000121318004+39760+098470FM-12+1478ZLJQ V0202501N003012200019N0300001N1-00901-01491102601ADDAA199000091GA1001+999999999GF100991001001999999001001KA1999M+00041MA1999999085151MD1710121-0201REMSYN076AAXX  13181 52533 32980 02503 11090 21149 38515 40260 57012 333 05255 10004;EQDQ01  00002PRCP99
0132525330999992000121321004+39760+098470FM-12+1478ZLJQ V0202201N001012200019N0300001N1-01031-01651102511ADDGA1001+999999999GF100991001001999999001001MD1710041+0031REMSYN064AAXX  13211 52533 42980 02201 11103 21165 40251 57004 333 05355;
0183525330999992000121400004+39760+098470FM-12+1478ZLJQ V0202001N003012200019N0300001N1-01151-01691102711ADDAA199000091GA1001+999999999GF100991001001999999001001MA1999999085111MD1410001+0031REMSYN070AAXX  14001 52533 32980 02003 11115 21169 38511 40271 54000 333 05355;EQDQ01  00002PRCP99
0112525330999992000121403004+39760+098470FM-12+1478ZLJQ V0203601N003019999999N0300001N1-00571-01761102751ADDGF107991001001999999001021MD1210081+9999REMSYN060AAXX  14031 52533 42980 73603 11057 21176 40275 52008 80002;
0192525330999992000121406004+39760+098470FM-12+1478ZLJQ V0201601N004019999999N0300001N1-00131-01501102661ADDAA199000091GF107991011001999999041021KA1999N-01301MA1999999085231MD1210041-0201REMSYN082AAXX  14061 52533 32980 71604 11013 21150 38523 40266 52004 81042 333 05201 21130;EQDQ01  00002PRCP99
0122525330999992000121409004+39760+098470FM-12+1478ZLJQ V0200901N003019999999N0300001N1-00161-01261102751ADDGF108991021001999999041071MD1210031+0011REMSYN070AAXX  14091 52533 42980 80903 11016 21126 40275 52003 82047 333 05152;
0173525330999992000121412004+39760+098470FM-12+1478ZLJQ V0202201N002012200019N0300001N1-00491-01361103111ADDAA199000091GF101991001001999999001021MA1999999085431MD1210171+0011REMSYN076AAXX  14121 52533 32980 12202 11049 21136 38543 40311 52017 80002 333 00100;EQDQ01  00002PRCP99
0122525330999992000121415004+39760+098470FM-12+1478ZLJQ V0203201N002012200019N0300001N1-00901-01501103051ADDGA1001+999999999GF100991001001999999001001MD1410001+9999REMSYN054AAXX  14151 52533 42980 03202 11090 21150 40305 54000;
0192525330999992000121418004+39760+098470FM-12+1478ZLJQ V0202201N002019999999N0300001N1-01031-01561103041ADDAA199000091GF106991001001999999001021KA1999M-00081MA1999999085511MD1210081+0401REMSYN082AAXX  14181 52533 32980 62202 11103 21156 38551 40304 52008 80002 333 00451 11008;EQDQ01  00002PRCP99
0122525330999992000121421004+39760+098470FM-12+1478ZLJQ V0202001N002019999999N0300001N1-00911-01761102981ADDGF105991001001999999001021MD1710021+0041REMSYN070AAXX  14211 52533 42980 52002 11091 21176 40298 57002 80002 333 00401;
0173525330999992000121500004+39760+098470FM-12+1478ZLJQ V0202201N003019999999N0300001N1-01171-01651103241ADDAA199000091GF105991001001999999001021MA1999999085531MD1210041+0041REMSYN076AAXX  15001 52533 32980 52203 11117 21165 38553 40324 52004 80002 333 00400;EQDQ01  00002PRCP99
0112525330999992000121503004+39760+098470FM-12+1478ZLJQ V0202501N002012200019N0300001N1-00411-01331103241ADDGF101991011001999999041021MD1210101+9999REMSYN060AAXX  15031 52533 42980 12502 11041 21133 40324 52010 81042;
0192525330999992000121506004+39760+098470FM-12+1478ZLJQ V0201101N002012200019N0300001N1+00241-01221102901ADDAA199000091GF101991001001999999001021KA1999N-01311MA1999999085501MD1710131+0301REMSYN082AAXX  15061 52533 32980 11102 10024 21122 38550 40290 57013 80002 333 00304 21131;EQDQ01  00002PRCP99
0122525330999992000121509004+39760+098470FM-12+1478ZLJQ V0200701N003012200019N0300001N1+00361-01381102821ADDGF102991001001999999001021MD1210011+0031REMSYN070AAXX  15091 52533 42980 20703 10036 21138 40282 52001 80002 333 00305;
0183525330999992000121512004+39760+098470FM-12+1478ZLJQ V0202201N003012200019N0300001N1-00401-01311103201ADDAA199000091GA1001+999999999GF100991001001999999001001MA1999999085521MD1210011+0011REMSYN070AAXX  15121 52533 32980 02203 11040 21131 38552 40320 52001 333 00101;EQDQ01  00002PRCP99
0112525330999992000121515004+39760+098470FM-12+1478ZLJQ V0202201N003012200019N0300001N1-00601-01491102801ADDGF103991001001999999001021MD1710161+9999REMSYN060AAXX  15151 52533 42980 32203 11060 21149 40280 57016 80002;
0192525330999992000121518004+39760+098470FM-12+1478ZLJQ V0202701N003019999999N0300001N1-00531-01551102631ADDAA199000091GF107991021001999999041021KA1999M+00431MA1999999085421MD1210061-0101REMSYN082AAXX  15181 52533 32980 72703 11053 21155 38542 40263 52006 82042 333 05105 10043;EQDQ01  00002PRCP99
0107525330999992000121521004+39760+098470FM-12+1478ZLJQ V0202501N002019999999N0300001N1+99999+99999999999ADDGF107991999999999999999999REMSYN069AAXX  15211 52533 42980 72502 1102 21161 40248 54000 81042 333 05107;
0173525330999992000121600004+39760+098470FM-12+1478ZLJQ V0202701N002019999999N0300001N1-00081-01591102721ADDAA199000091GF107991021001999999041021MA1999999085441MD1210021+0011REMSYN076AAXX  16001 52533 32980 72702 11008 21159 38544 40272 52002 82042 333 05111;EQDQ01  00002PRCP99
0112525330999992000121603004+39760+098470FM-12+1478ZLJQ V0203601N003019999999N0300001N1+00001-01171102791ADDGF107991011001999999041021MD1210031+9999REMSYN060AAXX  16031 52533 42980 73603 10000 21117 40279 52003 81042;
0192525330999992000121606004+39760+098470FM-12+1478ZLJQ V0200201N003012200019N0300001N1+00471-01241102431ADDAA199000091GF101991001001999999001021KA1999N-00681MA1999999085321MD1710151-0201REMSYN082AAXX  16061 52533 32980 10203 10047 21124 38532 40243 57015 80002 333 05202 21068;EQDQ01  00002PRCP99
0122525330999992000121609004+39760+098470FM-12+1478ZLJQ V0201401N001012200019N0300001N1+00521-01301102271ADDGF101991001001999999001021MD1710031+0021REMSYN070AAXX  16091 52533 42980 11401 10052 21130 40227 57003 80002 333 05202;
0173525330999992000121612004+39760+098470FM-12+1478ZLJQ V0202201N002012200019N0300001N1-00111-01271102421ADDAA199000091GF102991001001999999001021MA1999999085281MD1710011+0021REMSYN076AAXX  16121 52533 32980 22202 11011 21127 38528 40242 57001 80002 333 05203;EQDQ01  00002PRCP99
0112525330999992000121615004+39760+098470FM-12+1478ZLJQ V0202901N003012200019N0300001N1-00121-01351102311ADDGF104991001001999999001021MD1710081+9999REMSYN060AAXX  16151 52533 42980 42903 11012 21135 40231 57008 80002;
0192525330999992000121618004+39760+098470FM-12+1478ZLJQ V0202201N002012200019N0300001N1-00261-01341102071ADDAA199000091GF104991001001999999001021KA1999M+00581MA1999999085101MD1710101-0301REMSYN082AAXX  16181 52533 32980 42202 11026 21134 38510 40207 57010 80002 333 05303 10058;EQDQ01  00002PRCP99
0122525330999992000121621004+39760+098470FM-12+1478ZLJQ V0202701N002019999999N0300001N1-00281-01111102061ADDGF107991021001999999041021MD1410001+0031REMSYN070AAXX  16211 52533 42980 72702 11028 21111 40206 54000 82042 333 05351;
0173525330999992000121700004+39760+098470FM-12+1478ZLJQ V0200701N002019999999N0300001N1-00361-01141102291ADDAA199000091GF107991011001999999041021MA1999999085091MD1710011+0041REMSYN076AAXX  17001 52533 32980 70702 11036 21114 38509 40229 57001 81042 333 05453;EQDQ01  00002PRCP99
0122525330999992000121703004+39760+098470FM-12+1478ZLJQ V0201401N003012200019N0300001N1+00061-01381102161ADDGA1001+999999999GF100991001001999999001001MD1210011+9999REMSYN054AAXX  17031 52533 42980 01403 10006 21138 40216 52001;
0192525330999992000121706004+39760+098470FM-12+1478ZLJQ V0201401N004012200019N0300001N1+00521-01491101761ADDAA199000091GF101991001001999999001021KA1999N-00541MA1999999084851MD1710251-0501REMSYN082AAXX  17061 52533 32980 11404 10052 21149 38485 40176 57025 80002 333 05501 21054;EQDQ01  00002PRCP99
0122525330999992000121709004+39760+098470FM-12+1478ZLJQ V0200201N003019999999N0300001N1+00421-01621101971ADDGF107991001001999999001021MD1210141+0031REMSYN070AAXX  17091 52533 42980 70203 10042 21162 40197 52014 80002 333 05351;
0173525330999992000121712004+39760+098470FM-12+1478ZLJQ V0202201N002012200019N0300001N1-00221-01501102451ADDAA199000091GF101991001001999999001021MA1999999085191MD1210201+0011REMSYN076AAXX  17121 52533 32980 12202 11022 21150 38519 40245 52020 80002 333 05151;EQDQ01  00002PRCP99
0112525330999992000121715004+39760+098470FM-12+1478ZLJQ V0202501N002019999999N0300001N1-00421-01401102401ADDGF106991001001999999001021MD1210021+9999REMSYN060AAXX  17151 52533 42980 62502 11042 21140 40240 52002 80002;
0192525330999992000121718004+39760+098470FM-12+1478ZLJQ V0201401N002012200019N0300001N1-00661-01361102191ADDAA199000091GF103991001001999999001021KA1999M+00581MA1999999085101MD1710111+0001REMSYN082AAXX  17181 52533 32980 31402 11066 21136 38510 40219 57011 80002 333 00054 10058;EQDQ01  00002PRCP99
0122525330999992000121721004+39760+098470FM-12+1478ZLJQ V0203601N002019999999N0300001N1-00891-01421102351ADDGF107991001001999999001021MD1210041+0001REMSYN070AAXX  17211 52533 42980 73602 11089 21142 40235 52004 80002 333 00056;
0173525330999992000121800004+39760+098470FM-12+1478ZLJQ V0209999C000019999999N0300001N1-00761-01401102611ADDAA199000091GF107991001001999999001021MA1999999085211MD1210071+0011REMSYN076AAXX  18001 52533 32980 70000 11076 21140 38521 40261 52007 80002 333 00154;EQDQ01  00002PRCP99
0112525330999992000121803004+39760+098470FM-12+1478ZLJQ V0200401N002019999999N0300001N1-00581-01091102811ADDGF107991011001999999041021MD1210161+9999REMSYN060AAXX  18031 52533 42980 70402 11058 21109 40281 52016 81042;
0192525330999992000121806004+39760+098470FM-12+1478ZLJQ V0203401N003019999999N0300001N1-00241-01001102711ADDAA199000091GF107991021001999999041021KA1999N-00951MA1999999085311MD1710061+0501REMSYN082AAXX  18061 52533 32980 73403 11024 21100 38531 40271 57006 82042 333 00558 21095;EQDQ01  00002PRCP99
0122525330999992000121809004+39760+098470FM-12+1478ZLJQ V0203401N003019999999N0300001N1-00121-00941103091ADDGF107991061001999999031021MD1210291+0061REMSYN070AAXX  18091 52533 42980 73403 11012 21094 40309 52029 86032 333 00655;
0173525330999992000121812004+39760+098470FM-12+1478ZLJQ V0203201N005019999999N0300001N1-00171-01021103391ADDAA199000091GF108991001001999999001071MA1999999085871MD1210271+0071REMSYN076AAXX  18121 52533 32980 83205 11017 21102 38587 40339 52027 80007 333 00701;EQDQ01  00002PRCP99
0112525330999992000121815004+39760+098470FM-12+1478ZLJQ V0203401N002019999999N0300001N1-00391-00831103561ADDGF107991021001999999041021MD1210131+9999REMSYN060AAXX  18151 52533 42980 73402 11039 21083 40356 52013 82042;
0199525330999992000121818004+39760+098470FM-12+1478ZLJQ V0209999C000019999999N0150001N1-00501-00601103661ADDAA106000391AY171061GF108991031001999999021999KA1999M-00091MA1999999086151MD1210151+1101MW1711REMSYN094AAXX  18181 52533 11965 80000 11050 21060 38615 40366 52015 69931 77170 8302/ 333 01102 11009;
0159525330999992000121821004+39760+098470FM-12+1478ZLJQ V0202901N003019999999N0200001N1-00341-00691103741ADDAA124000591AY171031GF108991001001999999001071MD1210151+1201MW1001REMSYN082AAXX  18211 52533 41970 82903 11034 21069 40374 52015 70070 80007 333 01206 70005;
0192525330999992000121900004+39760+098470FM-12+1478ZLJQ V0203401N002019999999N0300001N1-00461-00811103981ADDAA106000191AY171061GF107991001001999999001021MA1999999086451MD1210151+1201MW1001REMSYN100AAXX  19001 52533 11980 73402 11046 21081 38645 40398 52015 69921 70070 80002 333 01203 70005 92501;
0112525330999992000121903004+39760+098470FM-12+1478ZLJQ V0202901N001019999999N0300001N1-00461-00891104251ADDGF107991001001999999001021MD1210161+9999REMSYN060AAXX  19031 52533 42980 72901 11046 21089 40425 52016 80002;
0173525330999992000121906004+39760+098470FM-12+1478ZLJQ V0201101N002019999999N0300001N1-00121-00661104091ADDAA199000021GF107991011001999999041021KA1999N-00631MA1999999086541MD1710071+1201REMSYN082AAXX  19061 52533 32980 71102 11012 21066 38654 40409 57007 81042 333 01201 21063;
0122525330999992000121909004+39760+098470FM-12+1478ZLJQ V0203201N006019999999N0300001N1-00131-00971104131ADDGF107991031001999999041021MD1210081+0101REMSYN070AAXX  19091 52533 42980 73206 11013 21097 40413 52008 83042 333 01000;
0173525330999992000121912004+39760+098470FM-12+1478ZLJQ V0202001N002012200019N0300001N1-00421-01051104371ADDAA199000091GF101991001001999999001021MA1999999086701MD1210081+0081REMSYN076AAXX  19121 52533 32980 12002 11042 21105 38670 40437 52008 80002 333 00853;EQDQ01  00002PRCP99
0112525330999992000121915004+39760+098470FM-12+1478ZLJQ V0201801N002012200019N0300001N1-00711-01131104431ADDGF101991001001999999001021MD1710041+9999REMSYN060AAXX  19151 52533 42980 11802 11071 21113 40443 57004 80002;
0202525330999992000121918004+39760+098470FM-12+1478ZLJQ V0209999C000012200019N0300001N1-00871-01251104121ADDAA199000091GA1001+999999999GF100991001001999999001001KA1999M+00041MA1999999086461MD1710201+0301REMSYN076AAXX  19181 52533 32980 00000 11087 21125 38646 40412 57020 333 00354 10004;EQDQ01  00002PRCP99
0132525330999992000121921004+39760+098470FM-12+1478ZLJQ V0202201N003012200019N0300001N1-01041-01381104111ADDGA1001+999999999GF100991001001999999001001MD1710061+0011REMSYN064AAXX  19211 52533 42980 02203 11104 21138 40411 57006 333 00157;
0173525330999992000122000004+39760+098470FM-12+1478ZLJQ V0202201N003019999999N0300001N1-01161-01541104201ADDAA199000091GF105991001001999999001021MA1999999086351MD1710051+0011REMSYN076AAXX  20001 52533 32980 52203 11116 21154 38635 40420 57005 80002 333 05157;EQDQ01  00002PRCP99
0122525330999992000122003004+39760+098470FM-12+1478ZLJQ V0202001N002012200019N0300001N1-00271-01151104011ADDGA1001+999999999GF100991001001999999001001MD1210021+9999REMSYN054AAXX  20031 52533 42980 02002 11027 21115 40401 52002;
0192525330999992000122006004+39760+098470FM-12+1478ZLJQ V0200401N003012200019N0300001N1+00061-01111103701ADDAA199000091GF101991001001999999001021KA1999N-01221MA1999999086161MD1710211-0401REMSYN082AAXX  20061 52533 32980 10403 10006 21111 38616 40370 57021 80002 333 05402 21122;EQDQ01  00002PRCP99
0122525330999992000122009004+39760+098470FM-12+1478ZLJQ V0201601N003012200019N0300001N1+00231-00901103641ADDGF101991001001999999001021MD1710051+0051REMSYN070AAXX  20091 52533 42980 11603 10023 21090 40364 57005 80002 333 05504;
0173525330999992000122012004+39760+098470FM-12+1478ZLJQ V0200201N002012200019N0300001N1-00451-00911103881ADDAA199000091GF101991001001999999001021MA1999999086071MD1710041+0061REMSYN076AAXX  20121 52533 32980 10202 11045 21091 38607 40388 57004 80002 333 05600;EQDQ01  00002PRCP99
0122525330999992000122015004+39760+098470FM-12+1478ZLJQ V0202701N001012200019N0300001N1-00911-01061103651ADDGA1001+999999999GF100991001001999999001001MD1710061+9999REMSYN054AAXX  20151 52533 42980 02701 11091 21106 40365 57006;
0202525330999992000122018004+39760+098470FM-12+1478ZLJQ V0202901N002012200019N0300001N1-01051-01231103291ADDAA199000091GA1001+999999999GF100991001001999999001001KA1999M+00301MA1999999085771MD1710241-0701REMSYN076AAXX  20181 52533 32980 02902 11105 21123 38577 40329 57024 333 05752 10030;EQDQ01  00002PRCP99
0132525330999992000122021004+39760+098470FM-12+1478ZLJQ V0209999C000012200019N0300001N1-01251-01491103211ADDGA1001+999999999GF100991001001999999001001MD1710081+0071REMSYN064AAXX  20211 52533 42980 00000 11125 21149 40321 57008 333 05752;
0173525330999992000122100004+39760+098470FM-12+1478ZLJQ V0202901N001019999999N0300001N1-01121-01321103411ADDAA199000091GF107991001001999999001021MA1999999085701MD1210011+0071REMSYN076AAXX  21001 52533 32980 72901 11112 21132 38570 40341 52001 80002 333 05700;EQDQ01  00002PRCP99
0112525330999992000122103004+39760+098470FM-12+1478ZLJQ V0200901N005019999999N0300001N1-00621-00811103541ADDGF107991061001999999031021MD1210121+9999REMSYN060AAXX  21031 52533 42980 70905 11062 21081 40354 52012 86032;
0192525330999992000122106004+39760+098470FM-12+1478ZLJQ V0203401N002019999999N0300001N1-00261-00901103381ADDAA199000091GF107991031001999999041021KA1999N-01301MA1999999085751MD1710071-0401REMSYN082AAXX  21061 52533 32980 73402 11026 21090 38575 40338 57007 83042 333 05453 21130;EQDQ01  00002PRCP99
0122525330999992000122109004+39760+098470FM-12+1478ZLJQ V0201101N003019999999N0300001N1-00261-00941103421ADDGF107991071001999999031021MD1710031+0041REMSYN070AAXX  21091 52533 42980 71103 11026 21094 40342 57003 87032 333 05455;
0173525330999992000122112004+39760+098470FM-12+1478ZLJQ V0201101N004019999999N0300001N1-00441-00941103451ADDAA199000091GF108991081001999999021999MA1999999085731MD1210011+0031REMSYN076AAXX  21121 52533 32980 81104 11044 21094 38573 40345 52001 8802/ 333 05300;EQDQ01  00002PRCP99
0112525330999992000122115004+39760+098470FM-12+1478ZLJQ V0201601N004012200019N0300001N1-00621-01011103371ADDGF104991001001999999001021MD1210031+9999REMSYN060AAXX  21151 52533 42980 41604 11062 21101 40337 52003 80002;
0202525330999992000122118004+39760+098470FM-12+1478ZLJQ V0201401N001012200019N0300001N1-00911-01151103341ADDAA199000091GA1001+999999999GF100991001001999999001001KA1999M-00141MA1999999085761MD1410001+0001REMSYN076AAXX  21181 52533 32980 01401 11091 21115 38576 40334 54000 333 00001 11014;EQDQ01  00002PRCP99
0132525330999992000122121004+39760+098470FM-12+1478ZLJQ V0209999C000012200019N0300001N1-01121-01321103391ADDGA1001+999999999GF100991001001999999001001MD1710021+0011REMSYN064AAXX  21211 52533 42980 00000 11112 21132 40339 57002 333 00101;
0183525330999992000122200004+39760+098470FM-12+1478ZLJQ V0201601N002012200019N0300001N1-01151-01341103461ADDAA199000091GA1001+999999999GF100991001001999999001001MA1999999085731MD1710011+0001REMSYN070AAXX  22001 52533 32980 01602 11115 21134 38573 40346 57001 333 00000;EQDQ01  00002PRCP99
0112525330999992000122203004+39760+098470FM-12+1478ZLJQ V0200701N002012200019N0300001N1-00611-00961103351ADDGF104991001001999999001021MD1210021+9999REMSYN060AAXX  22031 52533 42980 40702 11061 21096 40335 52002 80002;
0192525330999992000122206004+39760+098470FM-12+1478ZLJQ V0201601N002019999999N0300001N1-00011-01071102971ADDAA199000091GF107991001001999999001021KA1999N-01341MA1999999085521MD1710231-0201REMSYN082AAXX  22061 52533 32980 71602 11001 21107 38552 40297 57023 80002 333 05203 21134;EQDQ01  00002PRCP99
0122525330999992000122209004+39760+098470FM-12+1478ZLJQ V0203401N001019999999N0300001N1+00241-01171102961ADDGF107991021001999999041021MD1210011+0021REMSYN070AAXX  22091 52533 42980 73401 10024 21117 40296 52001 82042 333 05205;
0173525330999992000122212004+39760+098470FM-12+1478ZLJQ V0200401N003019999999N0300001N1-00081-01221103061ADDAA199000091GF108991021001999999041071MA1999999085511MD1710021+0021REMSYN076AAXX  22121 52533 32980 80403 11008 21122 38551 40306 57002 82047 333 05204;EQDQ01  00002PRCP99
0112525330999992000122215004+39760+098470FM-12+1478ZLJQ V0200401N003019999999N0300001N1-00421-01091103051ADDGF108991031001999999041071MD1210051+9999REMSYN060AAXX  22151 52533 42980 80403 11042 21109 40305 52005 83047;
0192525330999992000122218004+39760+098470FM-12+1478ZLJQ V0201101N003012200019N0300001N1-00681-01001102791ADDAA199000091GF102991011001999999041021KA1999M+00281MA1999999085441MD1710121-0301REMSYN082AAXX  22181 52533 32980 21103 11068 21100 38544 40279 57012 81042 333 05302 10028;EQDQ01  00002PRCP99
0122525330999992000122221004+39760+098470FM-12+1478ZLJQ V0201401N004012200019N0300001N1-00811-01121102761ADDGF102991001001999999001021MD1210011+0031REMSYN070AAXX  22211 52533 42980 21404 11081 21112 40276 52001 80002 333 05303;
0173525330999992000122300004+39760+098470FM-12+1478ZLJQ V0201601N001019999999N0300001N1-00931-01221102941ADDAA199000091GF107991011001999999041021MA1999999085471MD1210021+0031REMSYN076AAXX  23001 52533 32980 71601 11093 21122 38547 40294 52002 81042 333 05302;EQDQ01  00002PRCP99
0112525330999992000122303004+39760+098470FM-12+1478ZLJQ V0200701N005019999999N0300001N1-00591-01061103111ADDGF108991081001999999021999MD1210141+9999REMSYN060AAXX  23031 52533 42980 80705 11059 21106 40311 52014 8802/;
0192525330999992000122306004+39760+098470FM-12+1478ZLJQ V0201401N005012200019N0300001N1-00061-00981103051ADDAA199000091GF102991001001999999001021KA1999N-01001MA1999999085641MD1210031+0101REMSYN082AAXX  23061 52533 32980 21405 11006 21098 38564 40305 52003 80002 333 00151 21100;EQDQ01  00002PRCP99
0132525330999992000122309004+39760+098470FM-12+1478ZLJQ V0201401N003012200019N0200001N1+00141-01001102951ADDGA1001+999999999GF100991001001999999001001MD1710061+0011REMSYN064AAXX  23091 52533 42970 01403 10014 21100 40295 57006 333 00151;
0183525330999992000122312004+39760+098470FM-12+1478ZLJQ V0201101N003012200019N0300001N1-00221-01161103221ADDAA199000091GA1001+999999999GF100991001001999999001001MA1999999085661MD1210081+0021REMSYN070AAXX  23121 52533 32980 01103 11022 21116 38566 40322 52008 333 00251;EQDQ01  00002PRCP99
0122525330999992000122315004+39760+098470FM-12+1478ZLJQ V0201101N003012200019N0300001N1-00561-01311103381ADDGA1001+999999999GF100991001001999999001001MD1210141+9999REMSYN054AAXX  23151 52533 42980 01103 11056 21131 40338 52014;
0202525330999992000122318004+39760+098470FM-12+1478ZLJQ V0203201N002012200019N0300001N1-00621-01301103281ADDAA199000091GA1001+999999999GF100991001001999999001001KA1999M+00191MA1999999085851MD1210051+0401REMSYN076AAXX  23181 52533 32980 03202 11062 21130 38585 40328 52005 333 00401 10019;EQDQ01  00002PRCP99
0132525330999992000122321004+39760+098470FM-12+1478ZLJQ V0202501N002012200019N0300001N1-00991-01401103221ADDGA1001+999999999GF100991001001999999001001MD1710101+0031REMSYN064AAXX  23211 52533 42980 02502 11099 21140 40322 57010 333 00352;
0183525330999992000122400004+39760+098470FM-12+1478ZLJQ V0202201N002012200019N0300001N1-00691-01301103221ADDAA199000091GA1001+999999999GF100991001001999999001001MA1999999085731MD1710021+0031REMSYN070AAXX  24001 52533 32980 02202 11069 21130 38573 40322 57002 333 00302;EQDQ01  00002PRCP99
0122525330999992000122403004+39760+098470FM-12+1478ZLJQ V0202001N002012200019N0300001N1+00161-01171103051ADDGA1001+999999999GF100991001001999999001001MD1210011+9999REMSYN054AAXX  24031 52533 42980 02002 10016 21117 40305 52001;
0192525330999992000122406004+39760+098470FM-12+1478ZLJQ V0200401N004012200019N0300001N1+00751-00861102701ADDAA199000091GF101991001001999999001021KA1999N-01001MA1999999085601MD1710141+0001REMSYN082AAXX  24061 52533 32980 10404 10075 21086 38560 40270 57014 80002 333 00008 21100;EQDQ01  00002PRCP99
0122525330999992000122409004+39760+098470FM-12+1478ZLJQ V0200201N003019999999N0300001N1+00701-00821102811ADDGF105991001001999999001021MD1710031+0001REMSYN070AAXX  24091 52533 42980 50203 10070 21082 40281 57003 80002 333 00006;
0183525330999992000122412004+39760+098470FM-12+1478ZLJQ V0202201N002012200019N0300001N1-00211-01001103131ADDAA199000091GA1001+999999999GF100991001001999999001001MA1999999085661MD1210091+0001REMSYN070AAXX  24121 52533 32980 02202 11021 21100 38566 40313 52009 333 00000;EQDQ01  00002PRCP99
0122525330999992000122415004+39760+098470FM-12+1478ZLJQ V0209999C000012200019N0300001N1-00451-01241103001ADDGA1001+999999999GF100991001001999999001001MD1210071+9999REMSYN054AAXX  24151 52533 42980 00000 11045 21124 40300 52007;
0202525330999992000122418004+39760+098470FM-12+1478ZLJQ V0202201N002012200019N0300001N1-00591-01251102701ADDAA199000091GA1001+999999999GF100991001001999999001001KA1999M+00841MA1999999085611MD1710121-0201REMSYN076AAXX  24181 52533 32980 02202 11059 21125 38561 40270 57012 333 05200 10084;EQDQ01  00002PRCP99
0132525330999992000122421004+39760+098470FM-12+1478ZLJQ V0202501N002012200019N0300001N1-00741-01321102771ADDGA1001+999999999GF100991001001999999001001MD1410001+0011REMSYN064AAXX  24211 52533 42980 02502 11074 21132 40277 54000 333 05103;
0173525330999992000122500004+39760+098470FM-12+1478ZLJQ V0202201N001012200019N0300001N1-00871-01571103131ADDAA199000091GF101991001001999999001021MA1999999085611MD1410001+0011REMSYN076AAXX  25001 52533 32980 12201 11087 21157 38561 40313 54000 80002 333 05152;EQDQ01  00002PRCP99
0112525330999992000122503004+39760+098470FM-12+1478ZLJQ V0200901N001012200019N0300001N1-00101-01261102931ADDGF101991001001999999001021MD1710011+9999REMSYN060AAXX  25031 52533 42980 10901 11010 21126 40293 57001 80002;
0192525330999992000122506004+39760+098470FM-12+1478ZLJQ V0203601N003012200019N0300001N1+00041-01081102781ADDAA199000091GF101991011001999999041021KA1999N-00991MA1999999085471MD1710131-0101REMSYN082AAXX  25061 52533 32980 13603 10004 21108 38547 40278 57013 81042 333 05157 21099;EQDQ01  00002PRCP99
0122525330999992000122509004+39760+098470FM-12+1478ZLJQ V0203201N002012200019N0300001N1+00211-01231102841ADDGF102991021001999999041021MD1210061+0001REMSYN070AAXX  25091 52533 42980 23202 10021 21123 40284 52006 82042 333 00055;
0173525330999992000122512004+39760+098470FM-12+1478ZLJQ V0203601N002019999999N0300001N1-00221-01061103061ADDAA199000091GF106991011001999999041021MA1999999085551MD1210021+0011REMSYN076AAXX  25121 52533 32980 63602 11022 21106 38555 40306 52002 81042 333 05100;EQDQ01  00002PRCP99
0112525330999992000122515004+39760+098470FM-12+1478ZLJQ V0201401N002019999999N0300001N1-00701-01031102971ADDGF106991001001999999001021MD1210011+9999REMSYN060AAXX  25151 52533 42980 61402 11070 21103 40297 52001 80002;
0192525330999992000122518004+39760+098470FM-12+1478ZLJQ V0202001N001012200019N0300001N1-00761-01101102921ADDAA199000091GF102991001001999999001021KA1999M+00351MA1999999085541MD1710021-0101REMSYN082AAXX  25181 52533 32980 22001 11076 21110 38554 40292 57002 80002 333 05152 10035;EQDQ01  00002PRCP99
0122525330999992000122521004+39760+098470FM-12+1478ZLJQ V0202201N002012200019N0300001N1-00661-01471102831ADDGF101991001001999999001021MD1410001+0011REMSYN070AAXX  25211 52533 42980 12202 11066 21147 40283 54000 80002 333 05101;
0173525330999992000122600004+39760+098470FM-12+1478ZLJQ V0202201N002012200019N0300001N1-00741-01491103081ADDAA199000091GF102991001001999999001021MA1999999085601MD1210061+0001REMSYN076AAXX  26001 52533 32980 22202 11074 21149 38560 40308 52006 80002 333 00001;EQDQ01  00002PRCP99
0112525330999992000122603004+39760+098470FM-12+1478ZLJQ V0200901N001019999999N0300001N1-00151-01301103281ADDGF107991001001999999001021MD1210201+9999REMSYN060AAXX  26031 52533 42980 70901 11015 21130 40328 52020 80002;
0192525330999992000122606004+39760+098470FM-12+1478ZLJQ V0200201N004019999999N0300001N1-00031-01181103171ADDAA199000091GF107991001001999999001021KA1999N-00931MA1999999085731MD1710071+0301REMSYN082AAXX  26061 52533 32980 70204 11003 21118 38573 40317 57007 80002 333 00351 21093;EQDQ01  00002PRCP99
0122525330999992000122609004+39760+098470FM-12+1478ZLJQ V0200401N002012200019N0300001N1+00151-00991103171ADDGF103991001001999999001021MD1210081+0031REMSYN070AAXX  26091 52533 42980 30402 10015 21099 40317 52008 80002 333 00351;
0173525330999992000122612004+39760+098470FM-12+1478ZLJQ V0200201N002012200019N0300001N1-00491-01121103611ADDAA199000091GF101991001001999999001021MA1999999085961MD1210151+0041REMSYN076AAXX  26121 52533 32980 10202 11049 21112 38596 40361 52015 80002 333 00453;EQDQ01  00002PRCP99
0122525330999992000122615004+39760+098470FM-12+1478ZLJQ V0202501N002012200019N0300001N1-00861-01181103561ADDGA1001+999999999GF100991001001999999001001MD1210031+9999REMSYN054AAXX  26151 52533 42980 02502 11086 21118 40356 52003;
0202525330999992000122618004+39760+098470FM-12+1478ZLJQ V0202201N001012200019N0300001N1-00921-01311103481ADDAA199000091GA1001+999999999GF100991001001999999001001KA1999M+00311MA1999999085941MD1710051+0401REMSYN076AAXX  26181 52533 32980 02201 11092 21131 38594 40348 57005 333 00452 10031;EQDQ01  00002PRCP99
0132525330999992000122621004+39760+098470FM-12+1478ZLJQ V0202501N002012200019N0300001N1-01011-01401103401ADDGA1001+999999999GF100991001001999999001001MD1710041+0041REMSYN064AAXX  26211 52533 42980 02502 11101 21140 40340 57004 333 00454;
0173525330999992000122700004+39760+098470FM-12+1478ZLJQ V0201601N002012200019N0300001N1-01071-01451103581ADDAA199000091GF102991001001999999001021MA1999999085841MD1710061+0021REMSYN076AAXX  27001 52533 32980 21602 11107 21145 38584 40358 57006 80002 333 00253;EQDQ01  00002PRCP99
0112525330999992000122703004+39760+098470FM-12+1478ZLJQ V0209999C000012200019N0300001N1-00201-01231103321ADDGF101991011001999999041021MD1710071+9999REMSYN060AAXX  27031 52533 42980 10000 11020 21123 40332 57007 81042;
0192525330999992000122706004+39760+098470FM-12+1478ZLJQ V0200901N002019999999N0300001N1+00291-00951102861ADDAA199000091GF106991001001999999001021KA1999N-01211MA1999999085521MD1710251-0201REMSYN082AAXX  27061 52533 32980 60902 10029 21095 38552 40286 57025 80002 333 05203 21121;EQDQ01  00002PRCP99
0122525330999992000122709004+39760+098470FM-12+1478ZLJQ V0200701N003019999999N0300001N1+00241-00971102791ADDGF107991011001999999041021MD1710101+0041REMSYN070AAXX  27091 52533 42980 70703 10024 21097 40279 57010 81042 333 05401;
0183525330999992000122712004+39760+098470FM-12+1478ZLJQ V0209999C000012200019N0300001N1-00271-01191103041ADDAA199000091GA1001+999999999GF100991001001999999001001MA1999999085461MD1210041+0051REMSYN070AAXX  27121 52533 32980 00000 11027 21119 38546 40304 52004 333 05502;EQDQ01  00002PRCP99
0122525330999992000122715004+39760+098470FM-12+1478ZLJQ V0202901N002012200019N0300001N1-00761-01301102861ADDGA1001+999999999GF100991001001999999001001MD1710041+9999REMSYN054AAXX  27151 52533 42980 02902 11076 21130 40286 57004;
0202525330999992000122718004+39760+098470FM-12+1478ZLJQ V0209999C000012200019N0300001N1-00721-01051102681ADDAA199000091GA1001+999999999GF100991001001999999001001KA1999M+00381MA1999999085421MD1410001-0501REMSYN076AAXX  27181 52533 32980 00000 11072 21105 38542 40268 54000 333 05502 10038;EQDQ01  00002PRCP99
0132525330999992000122721004+39760+098470FM-12+1478ZLJQ V0202501N002012200019N0300001N1-01081-01331102761ADDGA1001+999999999GF100991001001999999001001MD1710051+0051REMSYN064AAXX  27211 52533 42980 02502 11108 21133 40276 57005 333 05551;
0173525330999992000122800004+39760+098470FM-12+1478ZLJQ V0203201N001012200019N0300001N1-01181-01371103071ADDAA199000091GF101991001001999999001021MA1999999085451MD1210081+0041REMSYN076AAXX  28001 52533 32980 13201 11118 21137 38545 40307 52008 80002 333 05451;EQDQ01  00002PRCP99
0112525330999992000122803004+39760+098470FM-12+1478ZLJQ V0209999C000012200019N0300001N1-00501-01071103161ADDGF101991001001999999001021MD1210131+9999REMSYN060AAXX  28031 52533 42980 10000 11050 21107 40316 52013 80002;
0192525330999992000122806004+39760+098470FM-12+1478ZLJQ V0200701N002019999999N0300001N1-00111-00951102831ADDAA199000091GF106991001001999999001021KA1999N-01281MA1999999085431MD1710151-0101REMSYN082AAXX  28061 52533 32980 60702 11011 21095 38543 40283 57015 80002 333 05154 21128;EQDQ01  00002PRCP99
0122525330999992000122809004+39760+098470FM-12+1478ZLJQ V0200701N003019999999N0300001N1-00071-01091102951ADDGF107991001001999999001021MD1210011+0001REMSYN070AAXX  28091 52533 42980 70703 11007 21109 40295 52001 80002 333 00053;
0173525330999992000122812004+39760+098470FM-12+1478ZLJQ V0202201N001012200019N0300001N1-00651-01401103361ADDAA199000091GF101991001001999999001021MA1999999085581MD1210141+0011REMSYN076AAXX  28121 52533 32980 12201 11065 21140 38558 40336 52014 80002 333 00154;EQDQ01  00002PRCP99
0122525330999992000122815004+39760+098470FM-12+1478ZLJQ V0200401N001012200019N0300001N1-01051-01321103261ADDGA1001+999999999GF100991001001999999001001MD1410001+9999REMSYN054AAXX  28151 52533 42980 00401 11105 21132 40326 54000;
0202525330999992000122818004+39760+098470FM-12+1478ZLJQ V0202201N001012200019N0300001N1-01111-01301103221ADDAA199000091GA1001+999999999GF100991001001999999001001KA1999M+00021MA1999999085641MD1210061+0201REMSYN076AAXX  28181 52533 32980 02201 11111 21130 38564 40322 52006 333 00254 10002;EQDQ01  00002PRCP99
0132525330999992000122821004+39760+098470FM-12+1478ZLJQ V0201601N002012200019N0300001N1-01351-01541103311ADDGA1001+999999999GF100991001001999999001001MD1210021+0031REMSYN064AAXX  28211 52533 42980 01602 11135 21154 40331 52002 333 00353;
0183525330999992000122900004+39760+098470FM-12+1478ZLJQ V0202201N003012200019N0300001N1-01311-01441103671ADDAA199000091GA1001+999999999GF100991001001999999001001MA1999999085791MD1210131+0031REMSYN070AAXX  29001 52533 32980 02203 11131 21144 38579 40367 52013 333 00351;EQDQ01  00002PRCP99
0122525330999992000122903004+39760+098470FM-12+1478ZLJQ V0200901N002012200019N0300001N1-00891-01321103781ADDGA1001+999999999GF100991001001999999001001MD1210101+9999REMSYN054AAXX  29031 52533 42980 00902 11089 21132 40378 52010;
0202525330999992000122906004+39760+098470FM-12+1478ZLJQ V0201101N003012200019N0300001N1-00321-01231103471ADDAA199000091GA1001+999999999GF100991001001999999001001KA1999N-01431MA1999999085791MD1710101+0401REMSYN076AAXX  29061 52533 32980 01103 11032 21123 38579 40347 57010 333 00452 21143;EQDQ01  00002PRCP99
0132525330999992000122909004+39760+098470FM-12+1478ZLJQ V0201101N002012200019N0300001N1-00131-01211103471ADDGA1001+999999999GF100991001001999999001001MD1710021+0031REMSYN064AAXX  29091 52533 42980 01102 11013 21121 40347 57002 333 00351;
0183525330999992000122912004+39760+098470FM-12+1478ZLJQ V0202901N002012200019N0300001N1-00301-01151103681ADDAA199000091GA1001+999999999GF100991001001999999001001MA1999999085911MD1210141+0031REMSYN070AAXX  29121 52533 32980 02902 11030 21115 38591 40368 52014 333 00304;EQDQ01  00002PRCP99
0122525330999992000122915004+39760+098470FM-12+1478ZLJQ V0200401N001012200019N0300001N1-01151-01341103861ADDGA1001+999999999GF100991001001999999001001MD1210021+9999REMSYN054AAXX  29151 52533 42980 00401 11115 21134 40386 52002;
0202525330999992000122918004+39760+098470FM-12+1478ZLJQ V0200401N001012200019N0300001N1-01271-01451103601ADDAA199000091GA1001+999999999GF100991001001999999001001KA1999M-00091MA1999999085851MD1710081+0201REMSYN076AAXX  29181 52533 32980 00401 11127 21145 38585 40360 57008 333 00252 11009;EQDQ01  00002PRCP99
0132525330999992000122921004+39760+098470FM-12+1478ZLJQ V0202001N001012200019N0300001N1-01211-01421103451ADDGA1001+999999999GF100991001001999999001001MD1710051+0011REMSYN064AAXX  29211 52533 42980 02001 11121 21142 40345 57005 333 00101;
0173525330999992000123000004+39760+098470FM-12+1478ZLJQ V0203201N002012200019N0300001N1-01341-01541103621ADDAA199000091GF101991001001999999001021MA1999999085851MD1210051+0011REMSYN076AAXX  30001 52533 32980 13202 11134 21154 38585 40362 52005 80002 333 00100;EQDQ01  00002PRCP99
0112525330999992000123003004+39760+098470FM-12+1478ZLJQ V0200901N002012200019N0300001N1-00781-01221103791ADDGF101991001001999999001021MD1210051+9999REMSYN060AAXX  30031 52533 42980 10902 11078 21122 40379 52005 80002;
0192525330999992000123006004+39760+098470FM-12+1478ZLJQ V0200701N002012200019N0300001N1-00301-01201103431ADDAA199000091GF101991001001999999001021KA1999N-01451MA1999999085711MD1710191-0101REMSYN082AAXX  30061 52533 32980 10702 11030 21120 38571 40343 57019 80002 333 05100 21145;EQDQ01  00002PRCP99
0122525330999992000123009004+39760+098470FM-12+1478ZLJQ V0201101N002012200019N0300001N1-00021-01211103261ADDGF101991001001999999001021MD1710041+0011REMSYN070AAXX  30091 52533 42980 11102 11002 21121 40326 57004 80002 333 05101;
0173525330999992000123012004+39760+098470FM-12+1478ZLJQ V0200201N002012200019N0300001N1-00711-01281103591ADDAA199000091GF101991001001999999001021MA1999999085701MD1210031+0021REMSYN076AAXX  30121 52533 32980 10202 11071 21128 38570 40359 52003 80002 333 05254;EQDQ01  00002PRCP99
0122525330999992000123015004+39760+098470FM-12+1478ZLJQ V0203401N002012200019N0300001N1-01071-01381103441ADDGA1001+999999999GF100991001001999999001001MD1710061+9999REMSYN054AAXX  30151 52533 42980 03402 11107 21138 40344 57006;
0202525330999992000123018004+39760+098470FM-12+1478ZLJQ V0203401N003012200019N0300001N1-01221-01441103341ADDAA199000091GA1001+999999999GF100991001001999999001001KA1999M+00071MA1999999085651MD1210011-0201REMSYN076AAXX  30181 52533 32980 03403 11122 21144 38565 40334 52001 333 05201 10007;EQDQ01  00002PRCP99
0132525330999992000123021004+39760+098470FM-12+1478ZLJQ V0201601N001012200019N0300001N1-01331-01561103261ADDGA1001+999999999GF100991001001999999001001MD1710011+0021REMSYN064AAXX  30211 52533 42980 01601 11133 21156 40326 57001 333 05251;
0173525330999992000123100004+39760+098470FM-12+1478ZLJQ V0209999C000019999999N0300001N1-01231-01451103621ADDAA199000091GF107991021001999999041021MA1999999085761MD1210121+0011REMSYN076AAXX  31001 52533 32980 70000 11123 21145 38576 40362 52012 82042 333 05101;EQDQ01  00002PRCP99
0112525330999992000123103004+39760+098470FM-12+1478ZLJQ V0201401N004019999999N0300001N1-00921-01311103851ADDGF107991011001999999041021MD1210171+9999REMSYN060AAXX  31031 52533 42980 71404 11092 21131 40385 52017 81042;
0192525330999992000123106004+39760+098470FM-12+1478ZLJQ V0202901N002012200019N0200001N1-00481-01341103511ADDAA199000091GF102991001001999999001021KA1999N-01391MA1999999085741MD1710191+0001REMSYN082AAXX  31061 52533 32970 22902 11048 21134 38574 40351 57019 80002 333 00052 21139;EQDQ01  00002PRCP99
0132525330999992000123109004+39760+098470FM-12+1478ZLJQ V0201601N005012200019N0120001N1-00241-01301103311ADDGA1001+999999999GF100991001001999999001001MD1710131+0011REMSYN064AAXX  31091 52533 42962 01605 11024 21130 40331 57013 333 05152;
0183525330999992000123112004+39760+098470FM-12+1478ZLJQ V0201801N002012200019N0200001N1-00671-01381103491ADDAA199000091GA1001+999999999GF100991001001999999001001MA1999999085661MD1210051+0001REMSYN070AAXX  31121 52533 32970 01802 11067 21138 38566 40349 52005 333 00000;EQDQ01  00002PRCP99
0122525330999992000123115004+39760+098470FM-12+1478ZLJQ V0200701N001012200019N0200001N1-00981-01391103501ADDGA1001+999999999GF100991001001999999001001MD1210011+9999REMSYN054AAXX  31151 52533 42970 00701 11098 21139 40350 52001;
0202525330999992000123118004+39760+098470FM-12+1478ZLJQ V0209999C000012200019N0200001N1-01231-01541103141ADDAA199000091GA1001+999999999GF100991001001999999001001KA1999M-00141MA1999999085431MD1710241-0201REMSYN076AAXX  31181 52533 32970 00000 11123 21154 38543 40314 57024 333 05200 11014;EQDQ01  00002PRCP99
0132525330999992000123121004+39760+098470FM-12+1478ZLJQ V0202501N002012200019N0200001N1-01341-01631102951ADDGA1001+999999999GF100991001001999999001001MD1710121+0031REMSYN064AAXX  31211 52533 42970 02502 11134 21163 40295 57012 333 05300;
