0179531920999992000010100004+44020+114950FM-12+112899999V0209999C000019999999N0250001N1-01401-01631102421ADDAA106000091GF107991011001999999031021MA1999999088411MD1710021-0301REMSYN082AAXX  01001 53192 32975 70000 11140 21163 38841 40242 57002 81032 333 05305 79999;EQDQ01  00002PRCP06
0112531920999992000010103004+44020+114950FM-12+112899999V0202901N003019999999N0300001N1-00851-01131102291ADDGF107991001001999999001021MD1210031+9999REMSYN060AAXX  01031 53192 42980 72903 11085 21113 40229 52003 80002;
0186531920999992000010106004+44020+114950FM-12+112899999V0202501N004019999999N0300001N1-00841-01161102201ADDAA106000091GF107991001001999999001021KA1999N-01621MA1999999088341MD1710101+9999REMSYN076AAXX  01061 53192 32980 72504 11084 21116 38834 40220 57010 80002 333 21162;EQDQ01  00002PRCP06
0112531920999992000010109004+44020+114950FM-12+112899999V0209999C000019999999N0300001N1-01011-01321102331ADDGF107991001001999999001021MD1210061+9999REMSYN060AAXX  01091 53192 42980 70000 11101 21132 40233 52006 80002;
0170531920999992000010112004+44020+114950FM-12+112899999V0202901N002010900019N0300001N1-01141-01411102341ADDAA106000791AY171061GF105991021051012501001021MA1999999088401MD1410001+9999MW1701REMSYN078AAXX  01121 53192 11680 52902 11114 21141 38840 40234 54000 69901 77070 82502;
0132531920999992000010115004+44020+114950FM-12+112899999V0202501N009012200019N0250001N1-01821-02121102661ADDAY171031GF102991001001999999001021MD1210241+9999MW1001REMSYN066AAXX  01151 53192 41975 22509 11182 21212 40266 52024 70070 80002;
0216531920999992000010118004+44020+114950FM-12+112899999V0202701N002019999999N0300001N1-02091-02401103011ADDAA106000791AY171061GF106991001001999999001021KA1240M-00751MA1999999088881MD1210241+9999MW1701OA130601801REMSYN100AAXX  01181 53192 11980 62702 11209 21240 38888 40301 52024 69901 77070 80002 333 11075 91118 91527;
0133531920999992000010121004+44020+114950FM-12+112899999V0202701N004012200019N0300001N1-02111-02411103041ADDAA124000791GF102991001001999999001021MD1710021+9999REMSYN070AAXX  01211 53192 42980 22704 11211 21241 40304 57002 80002 333 79999;
0160531920999992000010200004+44020+114950FM-12+112899999V0201801N003019999999N0300001N1-02341-02651103311ADDAA106000021GF107991001001999999001021MA1999999089001MD1210141+0601REMSYN082AAXX  02001 53192 32980 71803 11234 21265 38900 40331 52014 80002 333 00659 79999;
0112531920999992000010203004+44020+114950FM-12+112899999V0202701N005012200019N0300001N1-02261-02591103481ADDGF102991001001999999001021MD1710011+9999REMSYN060AAXX  02031 53192 42980 22705 11226 21259 40348 57001 80002;
0186531920999992000010206004+44020+114950FM-12+112899999V0202501N003019999999N0300001N1-02021-02371103251ADDAA106000091GF107991001001999999001021KA1999N-02431MA1999999088781MD1710211+9999REMSYN076AAXX  02061 53192 32980 72503 11202 21237 38878 40325 57021 80002 333 21243;EQDQ01  00002PRCP06
0112531920999992000010209004+44020+114950FM-12+112899999V0202701N002012200019N0300001N1-02241-02531103401ADDGF101991001001999999001021MD1210071+9999REMSYN060AAXX  02091 53192 42980 12702 11224 21253 40340 52007 80002;
0173531920999992000010212004+44020+114950FM-12+112899999V0200201N002012200019N0300001N1-02441-02711103521ADDAA106000091GA1001+999999999GF100991001001999999001001MA1999999088841MD1710011+9999REMSYN060AAXX  02121 53192 32980 00202 11244 21271 38884 40352 57001;EQDQ01  00002PRCP06
0122531920999992000010215004+44020+114950FM-12+112899999V0200201N001012200019N0300001N1-02601-02871103561ADDGA1001+999999999GF100991001001999999001001MD1210011+9999REMSYN054AAXX  02151 53192 42980 00201 11260 21287 40356 52001;
0196531920999992000010218004+44020+114950FM-12+112899999V0200201N003012200019N0300001N1-02601-02881103271ADDAA106000091GA1001+999999999GF100991001001999999001001KA1999M-01941MA1999999088671MD1710181+9999REMSYN070AAXX  02181 53192 32980 00203 11260 21288 38867 40327 57018 333 11194;EQDQ01  00002PRCP06
0112531920999992000010221004+44020+114950FM-12+112899999V0200201N002012200019N0300001N1-02511-02801103211ADDGF104991001001999999001021MD1710091+9999REMSYN060AAXX  02211 53192 42980 40202 11251 21280 40321 57009 80002;
0172531920999992000010300004+44020+114950FM-12+112899999V0200401N002019999999N0200001N1-02111-02441102991ADDAA106000091GF107991021001999999031021MA1999999088441MD1710141+9999REMSYN075AAXX  03001 53192 32970 70402 11211 21244 38844 40299 57014 82032 33 05602;EQDQ01  00002PRCP06
0112531920999992000010303004+44020+114950FM-12+112899999V0200701N002019999999N0300001N1-01981-02351103101ADDGF106991001001999999001021MD1210091+9999REMSYN060AAXX  03031 53192 42980 60702 11198 21235 40310 52009 80002;
0186531920999992000010306004+44020+114950FM-12+112899999V0201101N002019999999N0300001N1-01711-02141102861ADDAA106000091GF107991051001999999031021KA1999N-02711MA1999999088401MD1710131+9999REMSYN076AAXX  03061 53192 32980 71102 11171 21214 38840 40286 57013 85032 333 21271;EQDQ01  00002PRCP06
0112531920999992000010309004+44020+114950FM-12+112899999V0200701N002019999999N0300001N1-01821-02241102921ADDGF107991031001999999031021MD1210041+9999REMSYN060AAXX  03091 53192 42980 70702 11182 21224 40292 52004 83032;
0170531920999992000010312004+44020+114950FM-12+112899999V0200701N002019999999N0300001N1-01881-02251102781ADDAA106000791AY171061GF107991001001999999001021MA1999999088411MD1710031+9999MW1701REMSYN078AAXX  03121 53192 11980 70702 11188 21225 38841 40278 57003 69901 77070 80002;
0140531920999992000010315004+44020+114950FM-12+112899999V0200701N002019999999N0250001N1-01871-02171102661ADDAY171031AY271031GF108991081001999999021999MD1710071+9999MW1711REMSYN066AAXX  03151 53192 41975 80702 11187 21217 40266 57007 77177 8802/;
0201531920999992000010318004+44020+114950FM-12+112899999V0200701N001019999999N0250001N1-01861-02161102611ADDAA106000591AY171061AY271061GF108991081001999999021999KA1999M-01661MA1999999088371MD1210031+9999MW1711REMSYN088AAXX  03181 53192 11975 80701 11186 21216 38837 40261 52003 69941 77177 8802/ 333 11166;
0161531920999992000010321004+44020+114950FM-12+112899999V0209999C000019999999N0250001N1-01921-02241102761ADDAA124000591AY171031AY271031GF108991081001999999021999MD1210091+9999MW1711REMSYN076AAXX  03211 53192 41975 80000 11192 21224 40276 52009 77177 8802/ 333 70005;
0186531920999992000010400004+44020+114950FM-12+112899999V0200201N002012200019N0300001N1-02351-02641102981ADDAA106000191AY171061GF101991001001999999001021MA1999999088521MD1210061+0101MW1001REMSYN094AAXX  04001 53192 11980 10202 11235 21264 38852 40298 52006 69911 70070 80002 333 00152 70005;
0112531920999992000010403004+44020+114950FM-12+112899999V0200201N003012200019N0300001N1-02211-02521103111ADDGF101991001001999999001021MD1210151+9999REMSYN060AAXX  04031 53192 42980 10203 11221 21252 40311 52015 80002;
0112531920999992000010409004+44020+114950FM-12+112899999V0200201N002012200019N0300001N1-02161-02491103071ADDGF101991001001999999001021MD1210071+9999REMSYN060AAXX  04091 53192 42980 10202 11216 21249 40307 52007 80002;
0173531920999992000010412004+44020+114950FM-12+112899999V0200401N002012200019N0300001N1-02441-02711103411ADDAA106000091GA1001+999999999GF100991001001999999001001MA1999999088741MD1210101+9999REMSYN060AAXX  04121 53192 32980 00402 11244 21271 38874 40341 52010;EQDQ01  00002PRCP06
0122531920999992000010415004+44020+114950FM-12+112899999V0200401N002012200019N0300001N1-02491-02761103371ADDGA1001+999999999GF100991001001999999001001MD1710011+9999REMSYN054AAXX  04151 53192 42980 00402 11249 21276 40337 57001;
0186531920999992000010418004+44020+114950FM-12+112899999V0209999C000019999999N0300001N1-02431-02701103241ADDAA106000091GF106991001001999999001021KA1999M-01801MA1999999088731MD1410001+9999REMSYN076AAXX  04181 53192 32980 60000 11243 21270 38873 40324 54000 80002 333 11180;EQDQ01  00002PRCP06
0133531920999992000010421004+44020+114950FM-12+112899999V0209999C000019999999N0300001N1-02261-02541103251ADDAA124000791GF107991001001999999001021MD1710031+9999REMSYN070AAXX  04211 53192 42980 70000 11226 21254 40325 57003 80002 333 79999;
0186531920999992000010500004+44020+114950FM-12+112899999V0200201N002019999999N0250001N1-02461-02731103401ADDAA106000791AY171061GF107991001001999999001021MA1999999088701MD1410001+0201MW1701REMSYN094AAXX  05001 53192 11975 70202 11246 21273 38870 40340 54000 69901 77070 80002 333 00251 79999;
0112531920999992000010503004+44020+114950FM-12+112899999V0209999C000019999999N0300001N1-02221-02501103521ADDGF107991001001999999001021MD1210161+9999REMSYN060AAXX  05031 53192 42980 70000 11222 21250 40352 52016 80002;
0167531920999992000010506004+44020+114950FM-12+112899999V0202201N004019999999N0300001N1-02181-02471103431ADDAA106000021GF105991001001999999001021KA1999N-02681MA1999999088811MD1710051+9999REMSYN076AAXX  05061 53192 32980 52204 11218 21247 38881 40343 57005 80002 333 21268;
0132531920999992000010509004+44020+114950FM-12+112899999V0202501N004012200019N0300001N1-02461-02761103571ADDAY171031GF104991001001999999001021MD1210091+9999MW1001REMSYN066AAXX  05091 53192 41980 42504 11246 21276 40357 52009 70070 80002;
0170531920999992000010512004+44020+114950FM-12+112899999V0202501N006012200019N0300001N1-02691-02991103801ADDAA106000791AY171061GF101991001001999999001021MA1999999088981MD1210081+9999MW1001REMSYN078AAXX  05121 53192 11980 12506 11269 21299 38898 40380 52008 69901 70070 80002;
0122531920999992000010515004+44020+114950FM-12+112899999V0202701N005012200019N0300001N1-02981-03301103811ADDGA1001+999999999GF100991001001999999001001MD1710011+9999REMSYN054AAXX  05151 53192 42980 02705 11298 21330 40381 57001;
0196531920999992000010518004+44020+114950FM-12+112899999V0202701N004012200019N0300001N1-03221-03521103901ADDAA106000091GA1001+999999999GF100991001001999999001001KA1999M-02081MA1999999088991MD1210021+9999REMSYN070AAXX  05181 53192 32980 02704 11322 21352 38899 40390 52002 333 11208;EQDQ01  00002PRCP06
0133531920999992000010521004+44020+114950FM-12+112899999V0202701N003012200019N0300001N1-03321-03621103971ADDAA124000791GF101991001001999999001021MD1710041+9999REMSYN070AAXX  05211 53192 42980 12703 11332 21362 40397 57004 80002 333 79999;
0112531920999992000010603004+44020+114950FM-12+112899999V0202701N007012200019N0300001N1-02951-03261103891ADDGF101991001001999999001021MD1710031+9999REMSYN060AAXX  06031 53192 42980 12707 11295 21326 40389 57003 80002;
0186531920999992000010606004+44020+114950FM-12+112899999V0202501N008012200019N0250001N1-02921-03231103831ADDAA106000091GF102991001001999999001021KA1999N-03371MA1999999088731MD1710111+9999REMSYN076AAXX  06061 53192 32975 22508 11292 21323 38873 40383 57011 80002 333 21337;EQDQ01  00002PRCP06
0112531920999992000010609004+44020+114950FM-12+112899999V0202701N006012200019N0300001N1-02901-03211104001ADDGF101991001001999999001021MD1210121+9999REMSYN060AAXX  06091 53192 42980 12706 11290 21321 40400 52012 80002;
0173531920999992000010612004+44020+114950FM-12+112899999V0202201N005012200019N0300001N1-02981-03271104101ADDAA106000091GA1001+999999999GF100991001001999999001001MA1999999088951MD1210101+9999REMSYN060AAXX  06121 53192 32980 02205 11298 21327 38895 40410 52010;EQDQ01  00002PRCP06
0122531920999992000010615004+44020+114950FM-12+112899999V0202701N006012200019N0300001N1-03041-03341104021ADDGA1001+999999999GF100991001001999999001001MD1710021+9999REMSYN054AAXX  06151 53192 42980 02706 11304 21334 40402 57002;
0133531920999992000010621004+44020+114950FM-12+112899999V0202201N002012200019N0300001N1-03111-03411103871ADDAA124000791GF102991001001999999001021MD1710041+9999REMSYN070AAXX  06211 53192 42980 22202 11311 21341 40387 57004 80002 333 79999;
0173531920999992000010700004+44020+114950FM-12+112899999V0201801N004012200019N0300001N1-03101-03401103881ADDAA106000091GF101991001001999999001021MA1999999088791MD1710011+0011REMSYN076AAXX  07001 53192 32980 11804 11310 21340 38879 40388 57001 80002 333 05101;EQDQ01  00002PRCP06
0112531920999992000010703004+44020+114950FM-12+112899999V0202501N006012200019N0300001N1-03001-03331103841ADDGF101991001001999999001021MD1710031+9999REMSYN060AAXX  07031 53192 42980 12506 11300 21333 40384 57003 80002;
0186531920999992000010706004+44020+114950FM-12+112899999V0202501N006019999999N0300001N1-02711-03071103611ADDAA106000091GF105991001001999999001021KA1999N-03231MA1999999088641MD1710121+9999REMSYN076AAXX  07061 53192 32980 52506 11271 21307 38864 40361 57012 80002 333 21323;EQDQ01  00002PRCP06
0112531920999992000010709004+44020+114950FM-12+112899999V0202501N007019999999N0300001N1-02531-02931103461ADDGF107991001001999999001021MD1710091+9999REMSYN060AAXX  07091 53192 42980 72507 11253 21293 40346 57009 80002;
0163531920999992000010712004+44020+114950FM-12+112899999V0202901N003019999999N0300001N1-02621-02981103501ADDAA106000091GF105991001001999999001021MA1999999088561MD1210011+9999REMSYN066AAXX  07121 53192 32980 52903 11262 21298 38856 40350 52001 80002;EQDQ01  00002PRCP06
0112531920999992000010715004+44020+114950FM-12+112899999V0209999C000012200019N0300001N1-02921-03241103571ADDGF101991001001999999001021MD1210011+9999REMSYN060AAXX  07151 53192 42980 10000 11292 21324 40357 52001 80002;
0196531920999992000010718004+44020+114950FM-12+112899999V0202901N001012200019N0300001N1-03051-03351103511ADDAA106000091GA1001+999999999GF100991001001999999001001KA1999M-02511MA1999999088561MD1710011+9999REMSYN070AAXX  07181 53192 32980 02901 11305 21335 38856 40351 57001 333 11251;EQDQ01  00002PRCP06
0122531920999992000010721004+44020+114950FM-12+112899999V0202701N001012200019N0300001N1-03111-03411103481ADDGA1001+999999999GF100991001001999999001001MD1210011+9999REMSYN054AAXX  07211 53192 42980 02701 11311 21341 40348 52001;
0173531920999992000010800004+44020+114950FM-12+112899999V0209999C000012200019N0300001N1-03081-03381103501ADDAA106000091GF101991001001999999001021MA1999999088571MD1410001+0021REMSYN076AAXX  08001 53192 32980 10000 11308 21338 38857 40350 54000 80002 333 05200;EQDQ01  00002PRCP06
0112531920999992000010803004+44020+114950FM-12+112899999V0209999C000012200019N0300001N1-02401-02841103511ADDGF101991001001999999001021MD1210111+9999REMSYN060AAXX  08031 53192 42980 10000 11240 21284 40351 52011 80002;
0186531920999992000010806004+44020+114950FM-12+112899999V0202501N001012200019N0300001N1-02151-02711103191ADDAA106000091GF101991001001999999001021KA1999N-03221MA1999999088441MD1710241+9999REMSYN076AAXX  08061 53192 32980 12501 11215 21271 38844 40319 57024 80002 333 21322;EQDQ01  00002PRCP06
0112531920999992000010809004+44020+114950FM-12+112899999V0201101N001019999999N0300001N1-02161-02621103121ADDGF105991001001999999001021MD1710081+9999REMSYN060AAXX  08091 53192 42980 51101 11216 21262 40312 57008 80002;
0163531920999992000010812004+44020+114950FM-12+112899999V0200201N001019999999N0300001N1-02041-02471103161ADDAA106000091GF107991001001999999001021MA1999999088441MD1210081+9999REMSYN066AAXX  08121 53192 32980 70201 11204 21247 38844 40316 52008 80002;EQDQ01  00002PRCP06
0132531920999992000010815004+44020+114950FM-12+112899999V0200201N002019999999N0300001N1-02111-02441102901ADDAY171031GF105991001001999999001021MD1710061+9999MW1701REMSYN066AAXX  08151 53192 41980 50202 11211 21244 40290 57006 77070 80002;
0193531920999992000010818004+44020+114950FM-12+112899999V0209999C000012200019N0300001N1-02451-02741102911ADDAA106000191AY171061GF101991001001999999001021KA1999M-01901MA1999999088361MD1710021+9999MW1001REMSYN088AAXX  08181 53192 11980 10000 11245 21274 38836 40291 57002 69911 70070 80002 333 11190;
0179531920999992000010900004+44020+114950FM-12+112899999V0202501N002012200019N0300001N1-02741-03021103241ADDAA106000091GF102991001001999999001021MA1999999088601MD1210181+0001REMSYN082AAXX  09001 53192 32980 22502 11274 21302 38860 40324 52018 80002 333 00003 70001;EQDQ01  00002PRCP06
0112531920999992000010903004+44020+114950FM-12+112899999V0202501N004019999999N0300001N1-02441-02731103301ADDGF107991031001999999031021MD1210111+9999REMSYN060AAXX  09031 53192 42980 72504 11244 21273 40330 52011 83032;
0112531920999992000010909004+44020+114950FM-12+112899999V0202701N004012200019N0300001N1-02321-02641103671ADDGF102991001001999999001021MD1210121+9999REMSYN060AAXX  09091 53192 42980 22704 11232 21264 40367 52012 80002;
0163531920999992000010912004+44020+114950FM-12+112899999V0209999C000012200019N0300001N1-02491-02781103931ADDAA106000091GF102991001001999999001021MA1999999089071MD1210161+9999REMSYN066AAXX  09121 53192 32980 20000 11249 21278 38907 40393 52016 80002;EQDQ01  00002PRCP06
0122531920999992000010915004+44020+114950FM-12+112899999V0209999C000012200019N0300001N1-02651-02931103921ADDGA1001+999999999GF100991001001999999001001MD1210031+9999REMSYN054AAXX  09151 53192 42980 00000 11265 21293 40392 52003;
0196531920999992000010918004+44020+114950FM-12+112899999V0209999C000012200019N0300001N1-02851-03141103911ADDAA106000091GA1001+999999999GF100991001001999999001001KA1999M-02071MA1999999089131MD1210031+9999REMSYN070AAXX  09181 53192 32980 00000 11285 21314 38913 40391 52003 333 11207;EQDQ01  00002PRCP06
0122531920999992000010921004+44020+114950FM-12+112899999V0209999C000012200019N0300001N1-02861-03151104091ADDGA1001+999999999GF100991001001999999001001MD1210091+9999REMSYN054AAXX  09211 53192 42980 00000 11286 21315 40409 52009;
0173531920999992000011000004+44020+114950FM-12+112899999V0209999C000012200019N0300001N1-02701-02981104191ADDAA106000091GF102991001001999999001021MA1999999089301MD1210081+0071REMSYN076AAXX  10001 53192 32980 20000 11270 21298 38930 40419 52008 80002 333 00700;EQDQ01  00002PRCP06
0112531920999992000011003004+44020+114950FM-12+112899999V0200201N003012200019N0300001N1-02281-02571104231ADDGF101991001001999999001021MD1210111+9999REMSYN060AAXX  10031 53192 42980 10203 11228 21257 40423 52011 80002;
0186531920999992000011006004+44020+114950FM-12+112899999V0201401N001019999999N0300001N1-01571-02021103961ADDAA106000091GF105991001001999999001021KA1999N-02991MA1999999089311MD1710101+9999REMSYN076AAXX  10061 53192 32980 51401 11157 21202 38931 40396 57010 80002 333 21299;EQDQ01  00002PRCP06
0112531920999992000011009004+44020+114950FM-12+112899999V0200201N004012200019N0300001N1-01681-02151104111ADDGF101991001001999999001021MD1210101+9999REMSYN060AAXX  10091 53192 42980 10204 11168 21215 40411 52010 80002;
0173531920999992000011012004+44020+114950FM-12+112899999V0200701N003012200019N0300001N1-01781-02391104141ADDAA106000091GA1001+999999999GF100991001001999999001001MA1999999089451MD1210041+9999REMSYN060AAXX  10121 53192 32980 00703 11178 21239 38945 40414 52004;EQDQ01  00002PRCP06
0112531920999992000011015004+44020+114950FM-12+112899999V0200201N004012200019N0300001N1-01851-02401103941ADDGF101991001001999999001021MD1710081+9999REMSYN060AAXX  10151 53192 42980 10204 11185 21240 40394 57008 80002;
0186531920999992000011018004+44020+114950FM-12+112899999V0200201N003012200019N0300001N1-01821-02431103611ADDAA106000091GF102991001001999999001021KA1999M-01331MA1999999089281MD1710091+9999REMSYN076AAXX  10181 53192 32980 20203 11182 21243 38928 40361 57009 80002 333 11133;EQDQ01  00002PRCP06
0112531920999992000011021004+44020+114950FM-12+112899999V0200701N006019999999N0300001N1-01611-02311103411ADDGF106991001001999999001021MD1710151+9999REMSYN060AAXX  10211 53192 42980 60706 11161 21231 40341 57015 80002;
0173531920999992000011100004+44020+114950FM-12+112899999V0200701N007019999999N0300001N1-01641-02281103471ADDAA106000091GF107991001001999999001021MA1999999089151MD1210021+0021REMSYN076AAXX  11001 53192 32980 70707 11164 21228 38915 40347 52002 80002 333 05211;EQDQ01  00002PRCP06
0124531920999992000011103004+44020+114950FM-12+112899999V0200701N007019999999N0300001N1-01501-02031103481ADDGF108991081001999999021999MD1210031+9999MW1701REMSYN066AAXX  11031 53192 41980 80707 11150 21203 40348 52003 77000 8802/;
0193531920999992000011106004+44020+114950FM-12+112899999V0200701N005019999999N0300001N1-01441-01821103231ADDAA106000191AY171061GF108991081001999999021999KA1999N-02071MA1999999088991MD1710191+9999MW1701REMSYN088AAXX  11061 53192 11980 80705 11144 21182 38899 40323 57019 69911 77070 8802/ 333 21207;
0140531920999992000011109004+44020+114950FM-12+112899999V0200701N003019999999N0250001N1-01561-01891103231ADDAY171031AY271031GF108991081001999999021999MD1210021+9999MW1701REMSYN066AAXX  11091 53192 41975 80703 11156 21189 40323 52002 77077 8802/;
0178531920999992000011112004+44020+114950FM-12+112899999V0200401N004019999999N0250001N1-01601-01931103331ADDAA106000891AY171061AY271061GF108991081001999999021999MA1999999089081MD1210071+9999MW1701REMSYN078AAXX  11121 53192 11975 80404 11160 21193 38908 40333 52007 69971 77077 8802/;
0140531920999992000011115004+44020+114950FM-12+112899999V0200401N004019999999N0200001N1-01681-02021103281ADDAY171031AY271031GF108991081001999999021999MD1710031+9999MW1711REMSYN066AAXX  11151 53192 41970 80404 11168 21202 40328 57003 77177 8802/;
0201531920999992000011118004+44020+114950FM-12+112899999V0200401N003019999999N0200001N1-01801-02141103291ADDAA106001091AY171061AY271061GF108991081001999999021999KA1999M-01401MA1999999089041MD1710011+9999MW1711REMSYN088AAXX  11181 53192 11970 80403 11180 21214 38904 40329 57001 60011 77177 8802/ 333 11140;
0161531920999992000011121004+44020+114950FM-12+112899999V0200401N002019999999N0300001N1-01951-02281103341ADDAA124002091AY171031AY271031GF107991001001999999001021MD1710021+9999MW1711REMSYN076AAXX  11211 53192 41980 70402 11195 21228 40334 57002 77177 80002 333 70021;
0200531920999992000011200004+44020+114950FM-12+112899999V0200401N003019999999N0300001N1-02021-02351103461ADDAA106000791AY171061AY271061GF107991001001999999001021MA1999999089091MD1210071-0101MW1711REMSYN100AAXX  12001 53192 11980 70403 11202 21235 38909 40346 52007 69901 77177 80002 333 05154 70021 92511;
0132531920999992000011203004+44020+114950FM-12+112899999V0200201N004019999999N0300001N1-01951-02301103551ADDAY171031GF107991001001999999001021MD1210081+9999MW1001REMSYN066AAXX  12031 53192 41980 70204 11195 21230 40355 52008 70070 80002;
0193531920999992000011206004+44020+114950FM-12+112899999V0200201N004019999999N0300001N1-01841-02211103461ADDAA106000191AY171061GF107991001001999999001021KA1999N-02111MA1999999089091MD1710081+9999MW1001REMSYN088AAXX  12061 53192 11980 70204 11184 21221 38909 40346 57008 69921 70070 80002 333 21211;
0132531920999992000011209004+44020+114950FM-12+112899999V0209999C000019999999N0300001N1-01841-02191103661ADDAY171031GF107991001001999999001021MD1210131+9999MW1221REMSYN066AAXX  12091 53192 41980 70000 11184 21219 40366 52013 72270 80002;
0170531920999992000011212004+44020+114950FM-12+112899999V0209999C000012200019N0300001N1-02321-02631103901ADDAA106000191AY171061GF101991001001999999001021MA1999999089281MD1210061+9999MW1001REMSYN078AAXX  12121 53192 11980 10000 11232 21263 38928 40390 52006 69911 70070 80002;
0122531920999992000011215004+44020+114950FM-12+112899999V0200401N001012200019N0300001N1-02621-02901103991ADDGA1001+999999999GF100991001001999999001001MD1210021+9999REMSYN054AAXX  12151 53192 42980 00401 11262 21290 40399 52002;
0196531920999992000011218004+44020+114950FM-12+112899999V0209999C000012200019N0300001N1-02821-03111103921ADDAA106000091GA1001+999999999GF100991001001999999001001KA1999M-01761MA1999999089211MD1710091+9999REMSYN070AAXX  12181 53192 32980 00000 11282 21311 38921 40392 57009 333 11176;EQDQ01  00002PRCP06
0143531920999992000011221004+44020+114950FM-12+112899999V0209999C000012200019N0300001N1-03101-03401103971ADDAA124000391GA1001+999999999GF100991001001999999001001MD1710031+9999REMSYN064AAXX  12211 53192 42980 00000 11310 21340 40397 57003 333 70003;
0191531920999992000011300004+44020+114950FM-12+112899999V0200401N001012200019N0090001N1-02971-03271104051ADDAA106000091GF102991001001999999001021MA1999999089151MD1710031+0101MW1101REMSYN088AAXX  13001 53192 31959 20401 11297 21327 38915 40405 57003 71000 80002 333 00160 70003;EQDQ01  00002PRCP06
0112531920999992000011303004+44020+114950FM-12+112899999V0200201N002012200019N0300001N1-02611-02911104001ADDGF101991001001999999001021MD1710021+9999REMSYN060AAXX  13031 53192 42980 10202 11261 21291 40400 57002 80002;
0186531920999992000011306004+44020+114950FM-12+112899999V0200201N003019999999N0300001N1-02371-02661103621ADDAA106000091GF106991001001999999001021KA1999N-03131MA1999999088811MD1710321+9999REMSYN076AAXX  13061 53192 32980 60203 11237 21266 38881 40362 57032 80002 333 21313;EQDQ01  00002PRCP06
0112531920999992000011309004+44020+114950FM-12+112899999V0209999C000019999999N0300001N1-02181-02471103581ADDGF106991001001999999001021MD1710061+9999REMSYN060AAXX  13091 53192 42980 60000 11218 21247 40358 57006 80002;
0170531920999992000011312004+44020+114950FM-12+112899999V0203601N002019999999N0300001N1-02271-02581103481ADDAA106000791AY171061GF106991001001999999001021MA1999999088681MD1710071+9999MW1701REMSYN078AAXX  13121 53192 11980 63602 11227 21258 38868 40348 57007 69901 77070 80002;
0193531920999992000011318004+44020+114950FM-12+112899999V0202701N004019999999N0300001N1-02341-02611103311ADDAA106000391AY171061GF106991001001999999001021KA1999M-02081MA1999999088681MD1210031+9999MW1701REMSYN088AAXX  13181 53192 11980 62704 11234 21261 38868 40331 52003 69931 77070 80002 333 11208;
0157531920999992000011321004+44020+114950FM-12+112899999V0202901N002019999999N0300001N1-02461-02751103321ADDAA124000391AY171031GF107991001001999999001021MD1210021+9999MW1001REMSYN080    AAXX  13211 53192 41980 72902 11246 21275 40332 52002 70070 80002 333 70003;
0190531920999992000011400004+44020+114950FM-12+112899999V0202501N003010120019N0300001N1-02341-02631103451ADDAA106000791AY171061GF106991051051012501001021MA1999999088821MD1210121-0301MW1001REMSYN098    AAXX  14001 53192 11680 62503 11234 21263 38882 40345 52012 69901 70070 85502 333 05306 70003;
0190531920999992000011401004+44020+114950FM-12+112899999V0202501N003010120019N0300001N1-02341-02631103451ADDAA106000791AY171999GF106991051051012501001021MA1999999088821MD1210121+9999MW1001REMSYN098    AAXX  14011 53192 11680 62503 11234 21263 38882 40345 52012 69901 70070 85502 333 0/306 70003;
0116531920999992000011403004+44020+114950FM-12+112899999V0202501N004012200019N0300001N1-02441-02761103701ADDGF103991001001999999001021MD1210191+9999REMSYN064    AAXX  14031 53192 42980 32504 11244 21276 40370 52019 80002;
0171531920999992000011406004+44020+114950FM-12+112899999V0202201N001012200019N0300001N1-02171-02511103531ADDAA199000021GF102991001001999999001021KA1999N-02511MA1999999088921MD1710091+9999REMSYN080    AAXX  14061 53192 32980 22201 11217 21251 38892 40353 57009 80002 333 21251;
0116531920999992000011409004+44020+114950FM-12+112899999V0209999C000019999999N0300001N1-02321-02631103721ADDGF106991001001999999001021MD1210091+9999REMSYN064    AAXX  14091 53192 42980 60000 11232 21263 40372 52009 80002;
0167531920999992000011412004+44020+114950FM-12+112899999V0209999C000012200019N0300001N1-02511-02801103841ADDAA199000091GF102991001001999999001021MA1999999089091MD1210081+9999REMSYN070    AAXX  14121 53192 32980 20000 11251 21280 38909 40384 52008 80002;EQDQ01  00002PRCP99
0116531920999992000011415004+44020+114950FM-12+112899999V0200701N001019999999N0300001N1-02501-02801103881ADDGF106991001001999999001011MD1210011+9999REMSYN064    AAXX  14151 53192 42980 60701 11250 21280 40388 52001 80001;
0190531920999992000011418004+44020+114950FM-12+112899999V0209999C000019999999N0300001N1-02521-02821103791ADDAA199000091GF105991001001999999001021KA1999M-02061MA1999999089091MD1710011+9999REMSYN080    AAXX  14181 53192 32980 50000 11252 21282 38909 40379 57001 80002 333 11206;EQDQ01  00002PRCP99
0137531920999992000011421004+44020+114950FM-12+112899999V0209999C000012200019N0300001N1-02671-02971103861ADDAA124000791GF101991001001999999001021MD1710021+9999REMSYN074    AAXX  14211 53192 42980 10000 11267 21297 40386 57002 80002 333 79999;
0177531920999992000011500004+44020+114950FM-12+112899999V0209999C000012200019N0250001N1-02771-03061104081ADDAA199000091GF102991001001999999001021MA1999999089181MD1210111+0041REMSYN080    AAXX  15001 53192 32975 20000 11277 21306 38918 40408 52011 80002 333 00454;EQDQ01  00002PRCP99
0126531920999992000011503004+44020+114950FM-12+112899999V0209999C000012200019N0300001N1-02241-02601104071ADDGA1001+999999999GF100991001001999999001001MD1210141+9999REMSYN058    AAXX  15031 53192 42980 00000 11224 21260 40407 52014;
0200531920999992000011506004+44020+114950FM-12+112899999V0209999C000012200019N0300001N1-02111-02511104041ADDAA199000091GA1001+999999999GF100991001001999999001001KA1999N-03001MA1999999089321MD1410001+9999REMSYN074    AAXX  15061 53192 32980 00000 11211 21251 38932 40404 54000 333 21300;EQDQ01  00002PRCP99
0126531920999992000011509004+44020+114950FM-12+112899999V0209999C000012200019N0300001N1-02261-02621104361ADDGA1001+999999999GF100991001001999999001001MD1210201+9999REMSYN058    AAXX  15091 53192 42980 00000 11226 21262 40436 52020;
0177531920999992000011512004+44020+114950FM-12+112899999V0209999C000012200019N0300001N1-02881-03141104771ADDAA199000091GA1001+999999999GF100991001001999999001001MA1999999089671MD1210151+9999REMSYN064    AAXX  15121 53192 32980 00000 11288 21314 38967 40477 52015;EQDQ01  00002PRCP99
0126531920999992000011515004+44020+114950FM-12+112899999V0209999C000012200019N0300001N1-03021-03311104761ADDGA1001+999999999GF100991001001999999001001MD1210101+9999REMSYN058    AAXX  15151 53192 42980 00000 11302 21331 40476 52010;
0200531920999992000011518004+44020+114950FM-12+112899999V0209999C000012200019N0300001N1-03151-03431104801ADDAA199000091GA1001+999999999GF100991001001999999001001KA1999M-02021MA1999999089801MD1210031+9999REMSYN074    AAXX  15181 53192 32980 00000 11315 21343 38980 40480 52003 333 11202;EQDQ01  00002PRCP99
0126531920999992000011521004+44020+114950FM-12+112899999V0209999C000012200019N0300001N1-03231-03531104771ADDGA1001+999999999GF100991001001999999001001MD1710091+9999REMSYN058    AAXX  15211 53192 42980 00000 11323 21353 40477 57009;
0189531920999992000011600004+44020+114950FM-12+112899999V0209999C000012200019N0080001N1-03261-03561104961ADDAA199000091GF101991001001999999001021MA1999999089691MD1710021+0051MW1101REMSYN086    AAXX  16001 53192 31958 10000 11326 21356 38969 40496 57002 71000 80002 333 00555;EQDQ01  00002PRCP99
0126531920999992000011603004+44020+114950FM-12+112899999V0209999C000012200019N0250001N1-02561-02841104771ADDGA1001+999999999GF100991001001999999001001MD1410001+9999REMSYN058    AAXX  16031 53192 42975 00000 11256 21284 40477 54000;
0190531920999992000011606004+44020+114950FM-12+112899999V0201801N001012200019N0300001N1-02261-02631104421ADDAA199000091GF101991001001999999001021KA1999N-03401MA1999999089441MD1710251+9999REMSYN080    AAXX  16061 53192 32980 11801 11226 21263 38944 40442 57025 80002 333 21340;EQDQ01  00002PRCP99
0116531920999992000011609004+44020+114950FM-12+112899999V0209999C000012200019N0300001N1-02321-02661104361ADDGF101991001001999999001021MD1710091+9999REMSYN064    AAXX  16091 53192 42980 10000 11232 21266 40436 57009 80002;
0177531920999992000011612004+44020+114950FM-12+112899999V0202901N001012200019N0300001N1-02801-03091104491ADDAA199000091GA1001+999999999GF100991001001999999001001MA1999999089311MD1710041+9999REMSYN064    AAXX  16121 53192 32980 02901 11280 21309 38931 40449 57004;EQDQ01  00002PRCP99
0116531920999992000011615004+44020+114950FM-12+112899999V0209999C000012200019N0300001N1-02781-03071104241ADDGF102991001001999999001021MD1710011+9999REMSYN064    AAXX  16151 53192 42980 20000 11278 21307 40424 57001 80002;
0200531920999992000011618004+44020+114950FM-12+112899999V0202701N001012200019N0300001N1-02901-03191104101ADDAA199000091GA1001+999999999GF100991001001999999001001KA1999M-02041MA1999999089231MD1710071+9999REMSYN074    AAXX  16181 53192 32980 02701 11290 21319 38923 40410 57007 333 11204;EQDQ01  00002PRCP99
0126531920999992000011621004+44020+114950FM-12+112899999V0202701N002012200019N0300001N1-03001-03301104101ADDGA1001+999999999GF100991001001999999001001MD1710041+9999REMSYN058    AAXX  16211 53192 42980 02702 11300 21330 40410 57004;
0177531920999992000011700004+44020+114950FM-12+112899999V0209999C000019999999N0300001N1-02881-03191104121ADDAA199000091GF106991001001999999001021MA1999999089101MD1710091+0061REMSYN080    AAXX  17001 53192 32980 60000 11288 21319 38910 40412 57009 80002 333 05604;EQDQ01  00002PRCP99
0126531920999992000011703004+44020+114950FM-12+112899999V0209999C000012200019N0300001N1-02121-02421103791ADDGA1001+999999999GF100991001001999999001001MD1710061+9999REMSYN058    AAXX  17031 53192 42980 00000 11212 21242 40379 57006;
0190531920999992000011706004+44020+114950FM-12+112899999V0209999C000012200019N0300001N1-01851-02201103481ADDAA199000091GF101991001001999999001021KA1999N-03061MA1999999088811MD1710231+9999REMSYN080    AAXX  17061 53192 32980 10000 11185 21220 38881 40348 57023 80002 333 21306;EQDQ01  00002PRCP99
0116531920999992000011709004+44020+114950FM-12+112899999V0209999C000012200019N0300001N1-02101-02451103621ADDGF101991001001999999001021MD1210031+9999REMSYN064    AAXX  17091 53192 42980 10000 11210 21245 40362 52003 80002;
0177531920999992000011712004+44020+114950FM-12+112899999V0202501N002012200019N0300001N1-02561-02841103861ADDAA199000091GA1001+999999999GF100991001001999999001001MA1999999088951MD1210111+9999REMSYN064    AAXX  17121 53192 32980 02502 11256 21284 38895 40386 52011;EQDQ01  00002PRCP99
0116531920999992000011715004+44020+114950FM-12+112899999V0209999C000012200019N0300001N1-02541-02831103761ADDGF102991001001999999001021MD1210131+9999REMSYN064    AAXX  17151 53192 42980 20000 11254 21283 40376 52013 80002;
0200531920999992000011718004+44020+114950FM-12+112899999V0209999C000012200019N0300001N1-02881-03171103781ADDAA199000091GA1001+999999999GF100991001001999999001001KA1999M-01741MA1999999089071MD1710011+9999REMSYN074    AAXX  17181 53192 32980 00000 11288 21317 38907 40378 57001 333 11174;EQDQ01  00002PRCP99
0116531920999992000011721004+44020+114950FM-12+112899999V0202201N004012200019N0300001N1-02661-02961103751ADDGF101991001001999999001021MD1710031+9999REMSYN064    AAXX  17211 53192 42980 12204 11266 21296 40375 57003 80002;
0189531920999992000011800004+44020+114950FM-12+112899999V0209999C000012200019N0090001N1-02861-03151104221ADDAA199000091GF101991001001999999001021MA1999999089261MD1210221+0021MW1101REMSYN086    AAXX  18001 53192 31959 10000 11286 21315 38926 40422 52022 71000 80002 333 00200;EQDQ01  00002PRCP99
0116531920999992000011803004+44020+114950FM-12+112899999V0202701N003012200019N0300001N1-02841-03131104391ADDGF101991001001999999001021MD1210161+9999REMSYN064    AAXX  18031 53192 42980 12703 11284 21313 40439 52016 80002;
0189531920999992000011806004+44020+114950FM-12+112899999V0202501N006019999999N0250001N1-02261-02601104281ADDAA106000791GF107991001001999999001021KA1999N-03071MA1999999089391MD1710031+9999MW1701REMSYN092    AAXX  18061 53192 11975 72506 11226 21260 38939 40428 57003 69901 77000 80002 333 21307;
0174531920999992000011812004+44020+114950FM-12+112899999V0202701N003012200019N0300001N1-02461-02761104501ADDAA106000791AY171061GF101991001001999999001021MA1999999089531MD1210041+9999MW1001REMSYN082    AAXX  18121 53192 11980 12703 11246 21276 38953 40450 52004 69901 70070 80002;
0116531920999992000011815004+44020+114950FM-12+112899999V0202701N001012200019N0300001N1-02661-02961104511ADDGF102991001001999999001021MD1710041+9999REMSYN064    AAXX  18151 53192 42980 22701 11266 21296 40451 57004 80002;
0181531920999992000011818004+44020+114950FM-12+112899999V0209999C000012200019N0300001N1-02981-03271104241ADDAA199000021GA1001+999999999GF100991001001999999001001KA1999M-02161MA1999999089331MD1710161+9999REMSYN074    AAXX  18181 53192 32980 00000 11298 21327 38933 40424 57016 333 11216;
0147531920999992000011821004+44020+114950FM-12+112899999V0209999C000012200019N0300001N1-03271-03571104181ADDAA124000791GA1001+999999999GF100991001001999999001001MD1710151+9999REMSYN068    AAXX  18211 53192 42980 00000 11327 21357 40418 57015 333 79999;
0164531920999992000011900004+44020+114950FM-12+112899999V0209999C000012200019N0300001N1-03261-03561104131ADDAA124000791GF101991001001999999001021MA1999999089101MD1710081-0201REMSYN086    AAXX  19001 53192 32980 10000 11326 21356 38910 40413 57008 80002 333 05254 79999;
0116531920999992000011903004+44020+114950FM-12+112899999V0201401N001012200019N0300001N1-02861-03151104201ADDGF102991001001999999001021MD1210121+9999REMSYN064    AAXX  19031 53192 42980 21401 11286 21315 40420 52012 80002;
0200531920999992000011906004+44020+114950FM-12+112899999V0209999C000012200019N0300001N1-02441-02811104181ADDAA199000091GA1001+999999999GF100991001001999999001001KA1999N-03421MA1999999089231MD1210011+9999REMSYN074    AAXX  19061 53192 32980 00000 11244 21281 38923 40418 52001 333 21342;EQDQ01  00002PRCP99
0126531920999992000011909004+44020+114950FM-12+112899999V0209999C000012200019N0300001N1-02621-02971104521ADDGA1001+999999999GF100991001001999999001001MD1210161+9999REMSYN058    AAXX  19091 53192 42980 00000 11262 21297 40452 52016;
0177531920999992000011912004+44020+114950FM-12+112899999V0209999C000012200019N0300001N1-03041-03341104821ADDAA199000091GA1001+999999999GF100991001001999999001001MA1999999089531MD1210141+9999REMSYN064    AAXX  19121 53192 32980 00000 11304 21334 38953 40482 52014;EQDQ01  00002PRCP99
0122531920999992000011915004+44020+114950FM-12+112899999V0209999C000012200019N0250001N1-03221-03521104881ADDGA1001+999999999GF100991001001999999001001MD1210111+9999REMSYN054AAXX  19151 53192 42975 00000 11322 21352 40488 52011;
0196531920999992000011918004+44020+114950FM-12+112899999V0209999C000012200019N0300001N1-03521-03811104861ADDAA199000091GA1001+999999999GF100991001001999999001001KA1999M-02301MA1999999089661MD1210021+9999REMSYN070AAXX  19181 53192 32980 00000 11352 21381 38966 40486 52002 333 11230;EQDQ01  00002PRCP99
0122531920999992000011921004+44020+114950FM-12+112899999V0209999C000012200019N0300001N1-03431-03721104951ADDGA1001+999999999GF100991001001999999001001MD1210051+9999REMSYN054AAXX  19211 53192 42980 00000 11343 21372 40495 52005;
0173531920999992000012000004+44020+114950FM-12+112899999V0200901N001012200019N0250001N1-03401-03691105191ADDAA199000091GF101991001001999999001021MA1999999089801MD1210091+0071REMSYN076AAXX  20001 53192 32975 10901 11340 21369 38980 40519 52009 80002 333 00751;EQDQ01  00002PRCP99
0122531920999992000012003004+44020+114950FM-12+112899999V0209999C000012200019N0300001N1-02941-03231105321ADDGA1001+999999999GF100991001001999999001001MD1210191+9999REMSYN054AAXX  20031 53192 42980 00000 11294 21323 40532 52019;
0196531920999992000012006004+44020+114950FM-12+112899999V0201101N002012200019N0300001N1-02281-02651104981ADDAA199000091GA1001+999999999GF100991001001999999001001KA1999N-03651MA1999999089811MD1710181+9999REMSYN070AAXX  20061 53192 32980 01102 11228 21265 38981 40498 57018 333 21365;EQDQ01  00002PRCP99
0112531920999992000012009004+44020+114950FM-12+112899999V0200201N003012200019N0300001N1-02281-02641104971ADDGF101991001001999999001021MD1210011+9999REMSYN060AAXX  20091 53192 42980 10203 11228 21264 40497 52001 80002;
0163531920999992000012012004+44020+114950FM-12+112899999V0200201N002012200019N0300001N1-02421-02761105081ADDAA199000091GF102991001001999999001021MA1999999089891MD1210071+9999REMSYN066AAXX  20121 53192 32980 20202 11242 21276 38989 40508 52007 80002;EQDQ01  00002PRCP99
0112531920999992000012015004+44020+114950FM-12+112899999V0200201N003019999999N0300001N1-02421-02771104801ADDGF106991001001999999001021MD1710111+9999REMSYN060AAXX  20151 53192 42980 60203 11242 21277 40480 57011 80002;
0186531920999992000012018004+44020+114950FM-12+112899999V0200201N002019999999N0300001N1-02301-02671104451ADDAA199000091GF106991001001999999001021KA1999M-02051MA1999999089691MD1710091+9999REMSYN076AAXX  20181 53192 32980 60202 11230 21267 38969 40445 57009 80002 333 11205;EQDQ01  00002PRCP99
0112531920999992000012021004+44020+114950FM-12+112899999V0200201N003012200019N0300001N1-02361-02711104331ADDGF104991001001999999001021MD1710121+9999REMSYN060AAXX  20211 53192 42980 40203 11236 21271 40433 57012 80002;
0173531920999992000012100004+44020+114950FM-12+112899999V0200201N003019999999N0300001N1-02341-02681104271ADDAA199000091GF106991001001999999001021MA1999999089491MD1710081+0031REMSYN076AAXX  21001 53192 32980 60203 11234 21268 38949 40427 57008 80002 333 05311;EQDQ01  00002PRCP99
0112531920999992000012103004+44020+114950FM-12+112899999V0200401N001019999999N0300001N1-01901-02291104121ADDGF107991001001999999001021MD1710011+9999REMSYN060AAXX  21031 53192 42980 70401 11190 21229 40412 57001 80002;
0186531920999992000012106004+44020+114950FM-12+112899999V0200201N002019999999N0300001N1-01481-01901103671ADDAA199000091GF107991001001999999001021KA1999N-02521MA1999999089231MD1710251+9999REMSYN076AAXX  21061 53192 32980 70202 11148 21190 38923 40367 57025 80002 333 21252;EQDQ01  00002PRCP99
0112531920999992000012109004+44020+114950FM-12+112899999V0200201N002019999999N0300001N1-01541-01961103601ADDGF107991001001999999001021MD1710091+9999REMSYN060AAXX  21091 53192 42980 70202 11154 21196 40360 57009 80002;
0163531920999992000012112004+44020+114950FM-12+112899999V0200201N001010900019N0300001N1-01531-01931103501ADDAA199000091GF107991031051012501001021MA1999999089061MD1710081+9999REMSYN066AAXX  21121 53192 32680 70201 11153 21193 38906 40350 57008 83502;EQDQ01  00002PRCP99
0132531920999992000012115004+44020+114950FM-12+112899999V0200401N002019999999N0250001N1-01401-01721103191ADDAY171031GF107991011001999999031021MD1710121+9999MW1701REMSYN066AAXX  21151 53192 41975 70402 11140 21172 40319 57012 77070 81032;
0193531920999992000012118004+44020+114950FM-12+112899999V0200201N002019999999N0200001N1-01361-01641102881ADDAA106000591AY171061GF108991081001999999021999KA1999M-01341MA1999999088791MD1710151+9999MW1701REMSYN088AAXX  21181 53192 11970 80202 11136 21164 38879 40288 57015 69961 77070 8802/ 333 11134;
0161531920999992000012121004+44020+114950FM-12+112899999V0209999C000019999999N0300001N1-01371-01631102871ADDAA124000891AY171031AY271031GF107991071001999999011999MD1710031+9999MW1701REMSYN076AAXX  21211 53192 41980 70000 11137 21163 40287 57003 77077 8701/ 333 70008;
0194531920999992000012200004+44020+114950FM-12+112899999V0209999C000019999999N0300001N1-01641-01921103061ADDAA106000591AY171061AY271061GF108991081001999999021999MA1999999088861MD1210101-0601MW1701REMSYN094AAXX  22001 53192 11980 80000 11164 21192 38886 40306 52010 69941 77077 8802/ 333 05607 70010;
0132531920999992000012203004+44020+114950FM-12+112899999V0202501N003012200019N0300001N1-01931-02251103301ADDAY171031GF101991001001999999001021MD1210171+9999MW1001REMSYN066AAXX  22031 53192 41980 12503 11193 21225 40330 52017 70070 80002;
0193531920999992000012206004+44020+114950FM-12+112899999V0202201N003012200019N0300001N1-01931-02281103271ADDAA106000791AY171061GF102991001001999999001021KA1999N-01961MA1999999089011MD1710021+9999MW1001REMSYN088AAXX  22061 53192 11980 22203 11193 21228 38901 40327 57002 69901 70070 80002 333 21196;
0112531920999992000012209004+44020+114950FM-12+112899999V0202501N003012200019N0300001N1-02141-02451103491ADDGF104991001001999999001021MD1210141+9999REMSYN060AAXX  22091 53192 42980 42503 11214 21245 40349 52014 80002;
0170531920999992000012212004+44020+114950FM-12+112899999V0209999C000019999999N0300001N1-02301-02581103801ADDAA106000791AY171061GF106991001001999999001021MA1999999089301MD1210151+9999MW1701REMSYN078AAXX  22121 53192 11980 60000 11230 21258 38930 40380 52015 69901 77070 80002;
0132531920999992000012215004+44020+114950FM-12+112899999V0200201N002012200019N0300001N1-02541-02811104161ADDAY171031GF102991001001999999001021MD1210171+9999MW1001REMSYN066AAXX  22151 53192 41980 20202 11254 21281 40416 52017 70070 80002;
0193531920999992000012218004+44020+114950FM-12+112899999V0200401N003012200019N0300001N1-02701-02981104291ADDAA106000791AY171061GF103991001001999999001021KA1999M-01301MA1999999089541MD1210071+9999MW1001REMSYN088AAXX  22181 53192 11980 30403 11270 21298 38954 40429 52007 69901 70070 80002 333 11130;
0133531920999992000012221004+44020+114950FM-12+112899999V0200401N002019999999N0300001N1-02391-02701104451ADDAA124000391GF106991001001999999001021MD1210161+9999REMSYN070AAXX  22211 53192 42980 60402 11239 21270 40445 52016 80002 333 70002;
0186531920999992000012300004+44020+114950FM-12+112899999V0200401N001019999999N0200001N1-02451-02791104751ADDAA106000791AY171061GF106991001001999999001021MA1999999089901MD1210201+1001MW1221REMSYN094AAXX  23001 53192 11970 60401 11245 21279 38990 40475 52020 69901 72270 80002 333 01058 79999;
0112531920999992000012303004+44020+114950FM-12+112899999V0200701N003012200019N0300001N1-02211-02571104941ADDGF104991001001999999001021MD1210161+9999REMSYN060AAXX  23031 53192 42980 40703 11221 21257 40494 52016 80002;
0193531920999992000012306004+44020+114950FM-12+112899999V0209999C000012200019N0300001N1-02131-02511105031ADDAA106000791AY171061GF101991001001999999001021KA1999N-02801MA1999999090121MD1210061+9999MW1001REMSYN088AAXX  23061 53192 11980 10000 11213 21251 39012 40503 52006 69901 70070 80002 333 21280;
0122531920999992000012309004+44020+114950FM-12+112899999V0202901N002012200019N0300001N1-02361-02711105241ADDGA1001+999999999GF100991001001999999001001MD1210201+9999REMSYN054AAXX  23091 53192 42980 02902 11236 21271 40524 52020;
0154531920999992000012312004+44020+114950FM-12+112899999V0209999C000012200019N0250001N1-02771-03051105581ADDAA199000021GA1001+999999999GF100991001001999999001001MA1999999090481MD1210161+9999REMSYN060AAXX  23121 53192 32975 00000 11277 21305 39048 40558 52016;
0122531920999992000012315004+44020+114950FM-12+112899999V0209999C000012200019N0300001N1-03191-03471105731ADDGA1001+999999999GF100991001001999999001001MD1210081+9999REMSYN054AAXX  23151 53192 42980 00000 11319 21347 40573 52008;
0196531920999992000012318004+44020+114950FM-12+112899999V0209999C000012200019N0300001N1-03361-03651105841ADDAA199000091GA1001+999999999GF100991001001999999001001KA1999M-02011MA1999999090631MD1710071+9999REMSYN070AAXX  23181 53192 32980 00000 11336 21365 39063 40584 57007 333 11201;EQDQ01  00002PRCP99
0143531920999992000012321004+44020+114950FM-12+112899999V0209999C000012200019N0300001N1-03401-03691105931ADDAA124000791GA1001+999999999GF100991001001999999001001MD1410001+9999REMSYN064AAXX  23211 53192 42980 00000 11340 21369 40593 54000 333 79999;
0160531920999992000012400004+44020+114950FM-12+112899999V0209999C000010900019N0300001N1-03501-03791106181ADDAA124000791GF107991021051012501001021MA1999999090701MD1210071+0801REMSYN082AAXX  24001 53192 32680 70000 11350 21379 39070 40618 52007 82502 333 00861 79999;
0132531920999992000012403004+44020+114950FM-12+112899999V0202501N001012200019N0300001N1-02961-03271106171ADDAY171031GF101991001001999999001021MD1210021+9999MW1001REMSYN066AAXX  24031 53192 41980 12501 11296 21327 40617 52002 70070 80002;
0203531920999992000012406004+44020+114950FM-12+112899999V0202201N002012200019N0300001N1-02681-03041105991ADDAA106000791AY171061GA1001+999999999GF100991001001999999001001KA1999N-03661MA1999999090601MD1710121+9999MW1001REMSYN082AAXX  24061 53192 11980 02202 11268 21304 39060 40599 57012 69901 70070 333 21366;
0122531920999992000012409004+44020+114950FM-12+112899999V0202701N005012200019N0300001N1-02841-03151106081ADDGA1001+999999999GF100991001001999999001001MD1210021+9999REMSYN054AAXX  24091 53192 42980 02705 11284 21315 40608 52002;
0173531920999992000012412004+44020+114950FM-12+112899999V0201401N001012200019N0300001N1-02951-03241106221ADDAA199000091GA1001+999999999GF100991001001999999001001MA1999999090681MD1210061+9999REMSYN060AAXX  24121 53192 32980 01401 11295 21324 39068 40622 52006;EQDQ01  00002PRCP99
0112531920999992000012415004+44020+114950FM-12+112899999V0202701N002019999999N0300001N1-02941-03231106001ADDGF108991001001999999001071MD1710031+9999REMSYN060AAXX  24151 53192 42980 82702 11294 21323 40600 57003 80007;
0186531920999992000012418004+44020+114950FM-12+112899999V0209999C000012200019N0300001N1-03261-03561106011ADDAA199000091GF102991001001999999001021KA1999M-02501MA1999999090651MD1410001+9999REMSYN076AAXX  24181 53192 32980 20000 11326 21356 39065 40601 54000 80002 333 11250;EQDQ01  00002PRCP99
0133531920999992000012421004+44020+114950FM-12+112899999V0209999C000012200019N0300001N1-03261-03561105991ADDAA124000791GF101991001001999999001021MD1710071+9999REMSYN070AAXX  24211 53192 42980 10000 11326 21356 40599 57007 80002 333 79999;
0160531920999992000012500004+44020+114950FM-12+112899999V0202901N002012200019N0250001N1-03171-03471105991ADDAA124000791GF103991001001999999001021MA1999999090581MD1410001-0101REMSYN082AAXX  25001 53192 32975 32902 11317 21347 39058 40599 54000 80002 333 05103 79999;
0112531920999992000012503004+44020+114950FM-12+112899999V0202701N003019999999N0250001N1-02961-03271105931ADDGF106991001001999999001021MD1210011+9999REMSYN060AAXX  25031 53192 42975 62703 11296 21327 40593 52001 80002;
0186531920999992000012506004+44020+114950FM-12+112899999V0202501N003019999999N0300001N1-02561-02891105801ADDAA199000091GF107991001001999999001021KA1999N-03381MA1999999090501MD1710091+9999REMSYN076AAXX  25061 53192 32980 72503 11256 21289 39050 40580 57009 80002 333 21338;EQDQ01  00002PRCP99
0112531920999992000012509004+44020+114950FM-12+112899999V0202701N005012200019N0300001N1-02541-02861105871ADDGF102991001001999999001021MD1210071+9999REMSYN060AAXX  25091 53192 42980 22705 11254 21286 40587 52007 80002;
0163531920999992000012512004+44020+114950FM-12+112899999V0202501N004012200019N0300001N1-02411-02711105971ADDAA199000091GF103991001001999999001021MA1999999090721MD1210151+9999REMSYN066AAXX  25121 53192 32980 32504 11241 21271 39072 40597 52015 80002;EQDQ01  00002PRCP99
0112531920999992000012515004+44020+114950FM-12+112899999V0209999C000012200019N0300001N1-02771-03031106121ADDGF101991001001999999001021MD1210081+9999REMSYN060AAXX  25151 53192 42980 10000 11277 21303 40612 52008 80002;
0196531920999992000012518004+44020+114950FM-12+112899999V0209999C000012200019N0300001N1-03141-03431106191ADDAA199000091GA1001+999999999GF100991001001999999001001KA1999M-02391MA1999999090871MD1210071+9999REMSYN070AAXX  25181 53192 32980 00000 11314 21343 39087 40619 52007 333 11239;EQDQ01  00002PRCP99
0122531920999992000012521004+44020+114950FM-12+112899999V0209999C000012200019N0300001N1-03251-03531106201ADDGA1001+999999999GF100991001001999999001001MD1710021+9999REMSYN054AAXX  25211 53192 42980 00000 11325 21353 40620 57002;
0173531920999992000012600004+44020+114950FM-12+112899999V0209999C000012200019N0200001N1-03221-03501106241ADDAA199000091GF101991001001999999001021MA1999999090931MD1210081+0041REMSYN076AAXX  26001 53192 32970 10000 11322 21350 39093 40624 52008 80002 333 00451;EQDQ01  00002PRCP99
0122531920999992000012603004+44020+114950FM-12+112899999V0202501N001012200019N0300001N1-02861-03141106311ADDGA1001+999999999GF100991001001999999001001MD1210061+9999REMSYN054AAXX  26031 53192 42980 02501 11286 21314 40631 52006;
0196531920999992000012606004+44020+114950FM-12+112899999V0202701N002012200019N0300001N1-02331-02671106061ADDAA199000091GA1001+999999999GF100991001001999999001001KA1999N-03371MA1999999090821MD1710171+9999REMSYN070AAXX  26061 53192 32980 02702 11233 21267 39082 40606 57017 333 21337;EQDQ01  00002PRCP99
0122531920999992000012609004+44020+114950FM-12+112899999V0202901N002012200019N0300001N1-02491-02791106161ADDGA1001+999999999GF100991001001999999001001MD1210011+9999REMSYN054AAXX  26091 53192 42980 02902 11249 21279 40616 52001;
0173531920999992000012612004+44020+114950FM-12+112899999V0209999C000012200019N0300001N1-02781-03041106271ADDAA199000091GA1001+999999999GF100991001001999999001001MA1999999090851MD1210021+9999REMSYN060AAXX  26121 53192 32980 00000 11278 21304 39085 40627 52002;EQDQ01  00002PRCP99
0122531920999992000012615004+44020+114950FM-12+112899999V0209999C000012200019N0300001N1-02961-03251106031ADDGA1001+999999999GF100991001001999999001001MD1710151+9999REMSYN054AAXX  26151 53192 42980 00000 11296 21325 40603 57015;
0196531920999992000012618004+44020+114950FM-12+112899999V0209999C000012200019N0300001N1-03061-03351105851ADDAA199000091GA1001+999999999GF100991001001999999001001KA1999M-02221MA1999999090671MD1710031+9999REMSYN070AAXX  26181 53192 32980 00000 11306 21335 39067 40585 57003 333 11222;EQDQ01  00002PRCP99
0122531920999992000012621004+44020+114950FM-12+112899999V0209999C000012200019N0300001N1-03241-03541105811ADDGA1001+999999999GF100991001001999999001001MD1710131+9999REMSYN054AAXX  26211 53192 42980 00000 11324 21354 40581 57013;
0183531920999992000012700004+44020+114950FM-12+112899999V0209999C000012200019N0150001N1-03371-03661105941ADDAA199000091GA1001+999999999GF100991001001999999001001MA1999999090531MD1710011+0041REMSYN070AAXX  27001 53192 32965 00000 11337 21366 39053 40594 57001 333 05452;EQDQ01  00002PRCP99
0112531920999992000012703004+44020+114950FM-12+112899999V0209999C000012200019N0300001N1-02801-03091105731ADDGF103991001001999999001021MD1710071+9999REMSYN060AAXX  27031 53192 42980 30000 11280 21309 40573 57007 80002;
0196531920999992000012706004+44020+114950FM-12+112899999V0209999C000012200019N0300001N1-02141-02451105251ADDAA199000091GA1001+999999999GF100991001001999999001001KA1999N-03431MA1999999090211MD1710251+9999REMSYN070AAXX  27061 53192 32980 00000 11214 21245 39021 40525 57025 333 21343;EQDQ01  00002PRCP99
0122531920999992000012709004+44020+114950FM-12+112899999V0209999C000012200019N0300001N1-02111-02461105181ADDGA1001+999999999GF100991001001999999001001MD1710111+9999REMSYN054AAXX  27091 53192 42980 00000 11211 21246 40518 57011;
0173531920999992000012712004+44020+114950FM-12+112899999V0209999C000012200019N0250001N1-02621-02891105251ADDAA199000091GA1001+999999999GF100991001001999999001001MA1999999089981MD1710121+9999REMSYN060AAXX  27121 53192 32975 00000 11262 21289 38998 40525 57012;EQDQ01  00002PRCP99
0122531920999992000012715004+44020+114950FM-12+112899999V0209999C000012200019N0300001N1-02931-03221105031ADDGA1001+999999999GF100991001001999999001001MD1710111+9999REMSYN054AAXX  27151 53192 42980 00000 11293 21322 40503 57011;
0196531920999992000012718004+44020+114950FM-12+112899999V0209999C000012200019N0300001N1-03131-03421104741ADDAA199000091GA1001+999999999GF100991001001999999001001KA1999M-02031MA1999999089751MD1710121+9999REMSYN070AAXX  27181 53192 32980 00000 11313 21342 38975 40474 57012 333 11203;EQDQ01  00002PRCP99
0122531920999992000012721004+44020+114950FM-12+112899999V0209999C000012200019N0300001N1-03261-03541104611ADDGA1001+999999999GF100991001001999999001001MD1710141+9999REMSYN054AAXX  27211 53192 42980 00000 11326 21354 40461 57014;
0185531920999992000012800004+44020+114950FM-12+112899999V0209999C000012200019N0090001N1-03311-03611104721ADDAA199000091GF102991001001999999001021MA1999999089551MD1710061+0101MW1101REMSYN082AAXX  28001 53192 31959 20000 11331 21361 38955 40472 57006 71000 80002 333 06001;EQDQ01  00002PRCP99
0122531920999992000012803004+44020+114950FM-12+112899999V0202201N002012200019N0300001N1-02371-02661104511ADDGA1001+999999999GF100991001001999999001001MD1710011+9999REMSYN054AAXX  28031 53192 42980 02202 11237 21266 40451 57001;
0186531920999992000012806004+44020+114950FM-12+112899999V0202501N003019999999N0300001N1-02011-02381104341ADDAA199000091GF106991001001999999001021KA1999N-03381MA1999999089441MD1710101+9999REMSYN076AAXX  28061 53192 32980 62503 11201 21238 38944 40434 57010 80002 333 21338;EQDQ01  00002PRCP99
0112531920999992000012809004+44020+114950FM-12+112899999V0202501N006012200019N0300001N1-02261-02591104521ADDGF101991001001999999001021MD1210051+9999REMSYN060AAXX  28091 53192 42980 12506 11226 21259 40452 52005 80002;
0163531920999992000012812004+44020+114950FM-12+112899999V0202501N001012200019N0300001N1-02631-02911104841ADDAA199000091GF101991001001999999001021MA1999999089651MD1210161+9999REMSYN066AAXX  28121 53192 32980 12501 11263 21291 38965 40484 52016 80002;EQDQ01  00002PRCP99
0124531920999992000012815004+44020+114950FM-12+112899999V0209999C000012200019N0300001N1-02761-03041104681ADDGF103991001001999999001021MD1210091+9999MW1701REMSYN066AAXX  28151 53192 41980 30000 11276 21304 40468 52009 77000 80002;
0193531920999992000012818004+44020+114950FM-12+112899999V0209999C000012200019N0300001N1-02901-03191104781ADDAA106000791AY171061GF104991001001999999001021KA1999M-01901MA1999999089881MD1210141+9999MW1701REMSYN088AAXX  28181 53192 11980 40000 11290 21319 38988 40478 52014 69901 77070 80002 333 11190;
0153531920999992000012821004+44020+114950FM-12+112899999V0209999C000012200019N0300001N1-03001-03291104991ADDAA124000791AY171031GF101991001001999999001021MD1210091+9999MW1001REMSYN076AAXX  28211 53192 41980 10000 11300 21329 40499 52009 70070 80002 333 79999;
0186531920999992000012900004+44020+114950FM-12+112899999V0202701N001019999999N0200001N1-02881-03171105241ADDAA106000791AY171061GF107991001001999999001021MA1999999090111MD1210141+0601MW1701REMSYN094AAXX  29001 53192 11970 72701 11288 21317 39011 40524 52014 69901 77070 80002 333 00604 79999;
0132531920999992000012903004+44020+114950FM-12+112899999V0202701N006019999999N0300001N1-02181-02521105161ADDAY171031GF106991001001999999001021MD1210091+9999MW1001REMSYN066AAXX  29031 53192 41980 62706 11218 21252 40516 52009 70070 80002;
0193531920999992000012906004+44020+114950FM-12+112899999V0202701N005019999999N0300001N1-02021-02391105151ADDAA106000791AY171061GF105991001001999999001021KA1999N-03101MA1999999090201MD1410001+9999MW1001REMSYN088AAXX  29061 53192 11980 52705 11202 21239 39020 40515 54000 69901 70070 80002 333 21310;
0122531920999992000012909004+44020+114950FM-12+112899999V0202501N004012200019N0300001N1-02211-02551105371ADDGA1001+999999999GF100991001001999999001001MD1210111+9999REMSYN054AAXX  29091 53192 42980 02504 11221 21255 40537 52011;
0154531920999992000012912004+44020+114950FM-12+112899999V0202701N001012200019N0300001N1-02471-02771105621ADDAA199000021GA1001+999999999GF100991001001999999001001MA1999999090481MD1210171+9999REMSYN060AAXX  29121 53192 32980 02701 11247 21277 39048 40562 52017;
0122531920999992000012915004+44020+114950FM-12+112899999V0203201N001012200019N0300001N1-02831-03141105521ADDGA1001+999999999GF100991001001999999001001MD1210011+9999REMSYN054AAXX  29151 53192 42980 03201 11283 21314 40552 52001;
0196531920999992000012918004+44020+114950FM-12+112899999V0209999C000012200019N0300001N1-03081-03371105511ADDAA199000091GA1001+999999999GF100991001001999999001001KA1999M-02001MA1999999090461MD1710031+9999REMSYN070AAXX  29181 53192 32980 00000 11308 21337 39046 40551 57003 333 11200;EQDQ01  00002PRCP99
0133531920999992000012921004+44020+114950FM-12+112899999V0209999C000012200019N0300001N1-03201-03481105601ADDAA124000791GF101991001001999999001021MD1710011+9999REMSYN070AAXX  29211 53192 42980 10000 11320 21348 40560 57001 80002 333 79999;
0160531920999992000013000004+44020+114950FM-12+112899999V0209999C000012200019N0250001N1-03241-03521105841ADDAA124000791GF103991001001999999001021MA1999999090571MD1210121+0501REMSYN082AAXX  30001 53192 32975 30000 11324 21352 39057 40584 52012 80002 333 00554 79999;
0122531920999992000013003004+44020+114950FM-12+112899999V0202201N001012200019N0300001N1-02801-03091106061ADDGA1001+999999999GF100991001001999999001001MD1210211+9999REMSYN054AAXX  30031 53192 42980 02201 11280 21309 40606 52021;
0196531920999992000013006004+44020+114950FM-12+112899999V0202201N002012200019N0300001N1-02431-02781106031ADDAA199000091GA1001+999999999GF100991001001999999001001KA1999N-03301MA1999999090791MD1210011+9999REMSYN070AAXX  30061 53192 32980 02202 11243 21278 39079 40603 52001 333 21330;EQDQ01  00002PRCP99
0122531920999992000013009004+44020+114950FM-12+112899999V0202701N005012200019N0300001N1-02491-02821106221ADDGA1001+999999999GF100991001001999999001001MD1210111+9999REMSYN054AAXX  30091 53192 42980 02705 11249 21282 40622 52011;
0163531920999992000013012004+44020+114950FM-12+112899999V0202901N003012200019N0300001N1-02631-02931106431ADDAA199000091GF101991001001999999001021MA1999999091031MD1210131+9999REMSYN066AAXX  30121 53192 32980 12903 11263 21293 39103 40643 52013 80002;EQDQ01  00002PRCP99
0122531920999992000013015004+44020+114950FM-12+112899999V0209999C000012200019N0300001N1-02891-03181106471ADDGA1001+999999999GF100991001001999999001001MD1210081+9999REMSYN054AAXX  30151 53192 42980 00000 11289 21318 40647 52008;
0196531920999992000013018004+44020+114950FM-12+112899999V0202901N001012200019N0300001N1-03261-03541106471ADDAA199000091GA1001+999999999GF100991001001999999001001KA1999M-02361MA1999999091111MD1410001+9999REMSYN070AAXX  30181 53192 32980 02901 11326 21354 39111 40647 54000 333 11236;EQDQ01  00002PRCP99
0122531920999992000013021004+44020+114950FM-12+112899999V0209999C000012200019N0300001N1-03341-03631106441ADDGA1001+999999999GF100991001001999999001001MD1710061+9999REMSYN054AAXX  30211 53192 42980 00000 11334 21363 40644 57006;
0185531920999992000013100004+44020+114950FM-12+112899999V0209999C000012200019N0070001N1-03551-03841106501ADDAA199000091GF101991001001999999001021MA1999999091001MD1710051+0041MW1101REMSYN082AAXX  31001 53192 31957 10000 11355 21384 39100 40650 57005 71000 80002 333 00453;EQDQ01  00002PRCP99
0122531920999992000013103004+44020+114950FM-12+112899999V0209999C000012200019N0300001N1-02861-03151106391ADDGA1001+999999999GF100991001001999999001001MD1210031+9999REMSYN054AAXX  31031 53192 42980 00000 11286 21315 40639 52003;
0196531920999992000013106004+44020+114950FM-12+112899999V0202501N002012200019N0300001N1-02601-02931106221ADDAA199000091GA1001+999999999GF100991001001999999001001KA1999N-03591MA1999999090851MD1710181+9999REMSYN070AAXX  31061 53192 32980 02502 11260 21293 39085 40622 57018 333 21359;EQDQ01  00002PRCP99
0122531920999992000013109004+44020+114950FM-12+112899999V0202201N001012200019N0300001N1-02621-02931106091ADDGA1001+999999999GF100991001001999999001001MD1710141+9999REMSYN054AAXX  31091 53192 42980 02201 11262 21293 40609 57014;
0173531920999992000013112004+44020+114950FM-12+112899999V0209999C000012200019N0300001N1-03031-03321106191ADDAA199000091GA1001+999999999GF100991001001999999001001MA1999999090611MD1710101+9999REMSYN060AAXX  31121 53192 32980 00000 11303 21332 39061 40619 57010;EQDQ01  00002PRCP99
0122531920999992000013115004+44020+114950FM-12+112899999V0209999C000012200019N0300001N1-03231-03511105941ADDGA1001+999999999GF100991001001999999001001MD1710071+9999REMSYN054AAXX  31151 53192 42980 00000 11323 21351 40594 57007;
0196531920999992000013118004+44020+114950FM-12+112899999V0209999C000012200019N0300001N1-03291-03591105681ADDAA199000091GA1001+999999999GF100991001001999999001001KA1999M-02431MA1999999090381MD1710161+9999REMSYN070AAXX  31181 53192 32980 00000 11329 21359 39038 40568 57016 333 11243;EQDQ01  00002PRCP99
0122531920999992000013121004+44020+114950FM-12+112899999V0209999C000012200019N0300001N1-03561-03851105541ADDGA1001+999999999GF100991001001999999001001MD1710201+9999REMSYN054AAXX  31211 53192 42980 00000 11356 21385 40554 57020;
0183531920999992000020100004+44020+114950FM-12+112899999V0209999C000012200019N0300001N1-03561-03851105641ADDAA199000091GA1001+999999999GF100991001001999999001001MA1999999090141MD1710041+0091REMSYN070AAXX  01001 53192 32980 00000 11356 21385 39014 40564 57004 333 05900;EQDQ01  00002PRCP99
0112531920999992000020103004+44020+114950FM-12+112899999V0202501N002012200019N0300001N1-03101-03401105421ADDGF101991001001999999001021MD1710111+9999REMSYN060AAXX  01031 53192 42980 12502 11310 21340 40542 57011 80002;
0186531920999992000020106004+44020+114950FM-12+112899999V0202501N002012200019N0300001N1-02541-02831105051ADDAA199000091GF104991001001999999001021KA1999N-03641MA1999999089861MD1710171+9999REMSYN076AAXX  01061 53192 32980 42502 11254 21283 38986 40505 57017 80002 333 21364;EQDQ01  00002PRCP99
0112531920999992000020109004+44020+114950FM-12+112899999V0202701N002012200019N0300001N1-02621-02921105101ADDGF104991001001999999001021MD1710061+9999REMSYN060AAXX  01091 53192 42980 42702 11262 21292 40510 57006 80002;
0163531920999992000020112004+44020+114950FM-12+112899999V0209999C000012200019N0300001N1-02881-03171105151ADDAA199000091GF101991001001999999001021MA1999999089771MD1710031+9999REMSYN066AAXX  01121 53192 32980 10000 11288 21317 38977 40515 57003 80002;EQDQ01  00002PRCP99
0122531920999992000020115004+44020+114950FM-12+112899999V0209999C000012200019N0300001N1-03111-03401105061ADDGA1001+999999999GF100991001001999999001001MD1710011+9999REMSYN054AAXX  01151 53192 42980 00000 11311 21340 40506 57001;
0196531920999992000020118004+44020+114950FM-12+112899999V0209999C000012200019N0300001N1-03251-03531104911ADDAA199000091GA1001+999999999GF100991001001999999001001KA1999M-02361MA1999999089751MD1710011+9999REMSYN070AAXX  01181 53192 32980 00000 11325 21353 38975 40491 57001 333 11236;EQDQ01  00002PRCP99
0122531920999992000020121004+44020+114950FM-12+112899999V0209999C000012200019N0300001N1-03281-03581104851ADDGA1001+999999999GF100991001001999999001001MD1710081+9999REMSYN054AAXX  01211 53192 42980 00000 11328 21358 40485 57008;
0173531920999992000020200004+44020+114950FM-12+112899999V0209999C000012200019N0200001N1-03221-03521104941ADDAA199000091GF101991001001999999001021MA1999999089691MD1210021+0051REMSYN076AAXX  02001 53192 32970 10000 11322 21352 38969 40494 52002 80002 333 05503;EQDQ01  00002PRCP99
0122531920999992000020203004+44020+114950FM-12+112899999V0202701N003012200019N0300001N1-02831-03121104951ADDGA1001+999999999GF100991001001999999001001MD1210051+9999REMSYN054AAXX  02031 53192 42980 02703 11283 21312 40495 52005;
0186531920999992000020206004+44020+114950FM-12+112899999V0202701N003012200019N0300001N1-02421-02741104711ADDAA199000091GF102991001001999999001021KA1999N-03371MA1999999089611MD1710131+9999REMSYN076AAXX  02061 53192 32980 22703 11242 21274 38961 40471 57013 80002 333 21337;EQDQ01  00002PRCP99
0112531920999992000020209004+44020+114950FM-12+112899999V0202701N002012200019N0300001N1-02441-02771104701ADDGF101991001001999999001021MD1710021+9999REMSYN060AAXX  02091 53192 42980 12702 11244 21277 40470 57002 80002;
0173531920999992000020212004+44020+114950FM-12+112899999V0209999C000012200019N0300001N1-02781-03071104861ADDAA199000091GA1001+999999999GF100991001001999999001001MA1999999089651MD1210061+9999REMSYN060AAXX  02121 53192 32980 00000 11278 21307 38965 40486 52006;EQDQ01  00002PRCP99
0122531920999992000020215004+44020+114950FM-12+112899999V0209999C000012200019N0300001N1-03021-03311104781ADDGA1001+999999999GF100991001001999999001001MD1710031+9999REMSYN054AAXX  02151 53192 42980 00000 11302 21331 40478 57003;
0196531920999992000020218004+44020+114950FM-12+112899999V0209999C000012200019N0300001N1-03121-03411104671ADDAA199000091GA1001+999999999GF100991001001999999001001KA1999M-02321MA1999999089611MD1710011+9999REMSYN070AAXX  02181 53192 32980 00000 11312 21341 38961 40467 57001 333 11232;EQDQ01  00002PRCP99
0122531920999992000020221004+44020+114950FM-12+112899999V0209999C000012200019N0300001N1-03061-03351104581ADDGA1001+999999999GF100991001001999999001001MD1710061+9999REMSYN054AAXX  02211 53192 42980 00000 11306 21335 40458 57006;
0183531920999992000020300004+44020+114950FM-12+112899999V0209999C000012200019N0300001N1-03071-03361104761ADDAA199000091GA1001+999999999GF100991001001999999001001MA1999999089601MD1210051+0011REMSYN070AAXX  03001 53192 32980 00000 11307 21336 38960 40476 52005 333 05102;EQDQ01  00002PRCP99
0112531920999992000020303004+44020+114950FM-12+112899999V0209999C000012200019N0300001N1-02421-02711104671ADDGF101991001001999999001021MD1210041+9999REMSYN060AAXX  03031 53192 42980 10000 11242 21271 40467 52004 80002;
0186531920999992000020306004+44020+114950FM-12+112899999V0202501N004019999999N0300001N1-02001-02381104421ADDAA199000091GF106991001001999999001021KA1999N-03211MA1999999089521MD1710121+9999REMSYN076AAXX  03061 53192 32980 62504 11200 21238 38952 40442 57012 80002 333 21321;EQDQ01  00002PRCP99
0112531920999992000020309004+44020+114950FM-12+112899999V0202201N001012200019N0300001N1-01921-02341104391ADDGF102991001001999999001021MD1210011+9999REMSYN060AAXX  03091 53192 42980 22201 11192 21234 40439 52001 80002;
0173531920999992000020312004+44020+114950FM-12+112899999V0209999C000012200019N0300001N1-02351-02671104491ADDAA199000091GA1001+999999999GF100991001001999999001001MA1999999089491MD1710041+9999REMSYN060AAXX  03121 53192 32980 00000 11235 21267 38949 40449 57004;EQDQ01  00002PRCP99
0122531920999992000020315004+44020+114950FM-12+112899999V0209999C000012200019N0250001N1-02711-03011104321ADDGA1001+999999999GF100991001001999999001001MD1710061+9999REMSYN054AAXX  03151 53192 42975 00000 11271 21301 40432 57006;
0212531920999992000020318004+44020+114950FM-12+112899999V0209999C000012200019N0300001N1-02711-03011103572ADDAA199000091GA1001+999999999GF100991001001999999001001KA1999M-01701MA1999999089421MD1710011+9999REMSYN070AAXX  03181 53192 32980 00000 11271 21301 38942 40357 57001 333 11170;EQDQ01+103573APOSLPQ02  00002PRCP99
0122531920999992000020321004+44020+114950FM-12+112899999V0209999C000012200019N0300001N1-02771-03061104071ADDGA1001+999999999GF100991001001999999001001MD1710091+9999REMSYN054AAXX  03211 53192 42980 00000 11277 21306 40407 57009;
0173531920999992000020400004+44020+114950FM-12+112899999V0209999C000012200019N0250001N1-02901-03191104261ADDAA199000091GF103991001001999999001021MA1999999089341MD1210011+0031REMSYN076AAXX  04001 53192 32975 30000 11290 21319 38934 40426 52001 80002 333 05302;EQDQ01  00002PRCP99
0112531920999992000020403004+44020+114950FM-12+112899999V0209999C000012200019N0300001N1-02181-02571104141ADDGF101991001001999999001021MD1410001+9999REMSYN060AAXX  04031 53192 42980 10000 11218 21257 40414 54000 80002;
0186531920999992000020406004+44020+114950FM-12+112899999V0209999C000012200019N0300001N1-01481-01991103741ADDAA199000091GF101991001001999999001021KA1999N-03151MA1999999089181MD1710161+9999REMSYN076AAXX  04061 53192 32980 10000 11148 21199 38918 40374 57016 80002 333 21315;EQDQ01  00002PRCP99
0112531920999992000020409004+44020+114950FM-12+112899999V0209999C000012200019N0300001N1-01581-02071103701ADDGF102991001001999999001021MD1710071+9999REMSYN060AAXX  04091 53192 42980 20000 11158 21207 40370 57007 80002;
0163531920999992000020412004+44020+114950FM-12+112899999V0209999C000012200019N0300001N1-02001-02351103891ADDAA199000091GF102991001001999999001021MA1999999089121MD1210011+9999REMSYN066AAXX  04121 53192 32980 20000 11200 21235 38912 40389 52001 80002;EQDQ01  00002PRCP99
0112531920999992000020415004+44020+114950FM-12+112899999V0200201N002012200019N0300001N1-01951-02301103531ADDGF101991001001999999001021MD1710101+9999REMSYN060AAXX  04151 53192 42980 10202 11195 21230 40353 57010 80002;
0196531920999992000020418004+44020+114950FM-12+112899999V0200401N002012200019N0300001N1-02251-02581103241ADDAA199000091GA1001+999999999GF100991001001999999001001KA1999M-01441MA1999999088871MD1710151+9999REMSYN070AAXX  04181 53192 32980 00402 11225 21258 38887 40324 57015 333 11144;EQDQ01  00002PRCP99
0122531920999992000020421004+44020+114950FM-12+112899999V0209999C000012200019N0300001N1-02301-02621103181ADDGA1001+999999999GF100991001001999999001001MD1710091+9999REMSYN054AAXX  04211 53192 42980 00000 11230 21262 40318 57009;
0185531920999992000020500004+44020+114950FM-12+112899999V0209999C000012200019N0005001N1-02081-02391103251ADDAA199000091GF103991001001999999001021MA1999999088791MD1210011+0061MW1461REMSYN082AAXX  05001 53192 31905 30000 11208 21239 38879 40325 52001 74600 80002 333 05608;EQDQ01  00002PRCP99
0132531920999992000020503004+44020+114950FM-12+112899999V0209999C000012200019N0300001N1-01531-01931103081ADDAY141031GF101991001001999999001021MD1210011+9999MW1001REMSYN066AAXX  05031 53192 41980 10000 11153 21193 40308 52001 70040 80002;
0206531920999992000020506004+44020+114950FM-12+112899999V0202501N003012200019N0300001N1-01331-01721103021ADDAA199000091AY141061GF101991001001999999001021KA1999N-02331MA1999999088721MD1710081+9999MW1001REMSYN082AAXX  05061 53192 31980 12503 11133 21172 38872 40302 57008 70040 80002 333 21233;EQDQ01  00002PRCP99
0112531920999992000020509004+44020+114950FM-12+112899999V0202501N003012200019N0300001N1-01721-02061103261ADDGF102991001001999999001021MD1210101+9999REMSYN060AAXX  05091 53192 42980 22503 11172 21206 40326 52010 80002;
0173531920999992000020512004+44020+114950FM-12+112899999V0202201N001012200019N0300001N1-02031-02311103451ADDAA199000091GA1001+999999999GF100991001001999999001001MA1999999088961MD1210141+9999REMSYN060AAXX  05121 53192 32980 02201 11203 21231 38896 40345 52014;EQDQ01  00002PRCP99
0122531920999992000020515004+44020+114950FM-12+112899999V0209999C000012200019N0300001N1-02321-02601103411ADDGA1001+999999999GF100991001001999999001001MD1210031+9999REMSYN054AAXX  05151 53192 42980 00000 11232 21260 40341 52003;
0196531920999992000020518004+44020+114950FM-12+112899999V0209999C000012200019N0300001N1-02541-02831103521ADDAA199000091GA1001+999999999GF100991001001999999001001KA1999M-01241MA1999999089081MD1210091+9999REMSYN070AAXX  05181 53192 32980 00000 11254 21283 38908 40352 52009 333 11124;EQDQ01  00002PRCP99
0122531920999992000020521004+44020+114950FM-12+112899999V0209999C000012200019N0300001N1-02871-03151103791ADDGA1001+999999999GF100991001001999999001001MD1210041+9999REMSYN054AAXX  05211 53192 42980 00000 11287 21315 40379 52004;
0173531920999992000020600004+44020+114950FM-12+112899999V0209999C000019999999N0200001N1-02901-03191103931ADDAA199000091GF106991001001999999001021MA1999999089151MD1210031+0041REMSYN076AAXX  06001 53192 32970 60000 11290 21319 38915 40393 52003 80002 333 00458;EQDQ01  00002PRCP99
0112531920999992000020603004+44020+114950FM-12+112899999V0202501N001019999999N0300001N1-02491-02781103941ADDGF105991001001999999001021MD1210041+9999REMSYN060AAXX  06031 53192 42980 52501 11249 21278 40394 52004 80002;
0186531920999992000020606004+44020+114950FM-12+112899999V0209999C000012200019N0300001N1-01871-02221103681ADDAA199000091GF102991001001999999001021KA1999N-03101MA1999999089071MD1710121+9999REMSYN076AAXX  06061 53192 32980 20000 11187 21222 38907 40368 57012 80002 333 21310;EQDQ01  00002PRCP99
0112531920999992000020609004+44020+114950FM-12+112899999V0202701N003019999999N0300001N1-02101-02411103901ADDGF107991001001999999001021MD1210041+9999REMSYN060AAXX  06091 53192 42980 72703 11210 21241 40390 52004 80002;
0163531920999992000020612004+44020+114950FM-12+112899999V0202501N001012200019N0300001N1-02531-02801104191ADDAA199000091GF102991001001999999001021MA1999999089231MD1210121+9999REMSYN066AAXX  06121 53192 32980 22501 11253 21280 38923 40419 52012 80002;EQDQ01  00002PRCP99
0122531920999992000020615004+44020+114950FM-12+112899999V0209999C000012200019N0300001N1-02501-02771104061ADDGA1001+999999999GF100991001001999999001001MD1210011+9999REMSYN054AAXX  06151 53192 42980 00000 11250 21277 40406 52001;
0196531920999992000020618004+44020+114950FM-12+112899999V0209999C000012200019N0300001N1-02821-03101103871ADDAA199000091GA1001+999999999GF100991001001999999001001KA1999M-01851MA1999999089161MD1710081+9999REMSYN070AAXX  06181 53192 32980 00000 11282 21310 38916 40387 57008 333 11185;EQDQ01  00002PRCP99
0122531920999992000020621004+44020+114950FM-12+112899999V0209999C000012200019N0300001N1-02991-03281103761ADDGA1001+999999999GF100991001001999999001001MD1710201+9999REMSYN054AAXX  06211 53192 42980 00000 11299 21328 40376 57020;
0173531920999992000020700004+44020+114950FM-12+112899999V0209999C000019999999N0200001N1-03031-03321103841ADDAA199000091GF105991021001999999031021MA1999999088901MD1710061+0031REMSYN076AAXX  07001 53192 32970 50000 11303 21332 38890 40384 57006 82032 333 05351;EQDQ01  00002PRCP99
0112531920999992000020703004+44020+114950FM-12+112899999V0202701N001012200019N0300001N1-02211-02491103621ADDGF101991001001999999001021MD1210041+9999REMSYN060AAXX  07031 53192 42980 12701 11221 21249 40362 52004 80002;
0196531920999992000020706004+44020+114950FM-12+112899999V0202901N004012200019N0300001N1-01971-02301103641ADDAA199000091GA1001+999999999GF100991001001999999001001KA1999N-03151MA1999999088941MD1410001+9999REMSYN070AAXX  07061 53192 32980 02904 11197 21230 38894 40364 54000 333 21315;EQDQ01  00002PRCP99
0112531920999992000020709004+44020+114950FM-12+112899999V0202901N001012200019N0300001N1-02081-02461103931ADDGF101991001001999999001021MD1210171+9999REMSYN060AAXX  07091 53192 42980 12901 11208 21246 40393 52017 80002;
0163531920999992000020712004+44020+114950FM-12+112899999V0202701N001012200019N0300001N1-02571-02871104381ADDAA199000091GF101991001001999999001021MA1999999089351MD1210241+9999REMSYN066AAXX  07121 53192 32980 12701 11257 21287 38935 40438 52024 80002;EQDQ01  00002PRCP99
0122531920999992000020715004+44020+114950FM-12+112899999V0202701N002012200019N0300001N1-02811-03091104361ADDGA1001+999999999GF100991001001999999001001MD1210141+9999REMSYN054AAXX  07151 53192 42980 02702 11281 21309 40436 52014;
0196531920999992000020718004+44020+114950FM-12+112899999V0209999C000012200019N0300001N1-02971-03261104491ADDAA199000091GA1001+999999999GF100991001001999999001001KA1999M-01901MA1999999089631MD1210141+9999REMSYN070AAXX  07181 53192 32980 00000 11297 21326 38963 40449 52014 333 11190;EQDQ01  00002PRCP99
0122531920999992000020721004+44020+114950FM-12+112899999V0209999C000012200019N0300001N1-03291-03591104621ADDGA1001+999999999GF100991001001999999001001MD1710011+9999REMSYN054AAXX  07211 53192 42980 00000 11329 21359 40462 57001;
0183531920999992000020800004+44020+114950FM-12+112899999V0209999C000012200019N0300001N1-03361-03651104831ADDAA199000091GA1001+999999999GF100991001001999999001001MA1999999089641MD1210021+0071REMSYN070AAXX  08001 53192 32980 00000 11336 21365 38964 40483 52002 333 00753;EQDQ01  00002PRCP99
0112531920999992000020803004+44020+114950FM-12+112899999V0202501N002012200019N0300001N1-02801-03091104661ADDGF101991001001999999001021MD1710051+9999REMSYN060AAXX  08031 53192 42980 12502 11280 21309 40466 57005 80002;
0196531920999992000020806004+44020+114950FM-12+112899999V0202201N003012200019N0300001N1-02171-02501104301ADDAA199000091GA1001+999999999GF100991001001999999001001KA1999N-03501MA1999999089411MD1710181+9999REMSYN070AAXX  08061 53192 32980 02203 11217 21250 38941 40430 57018 333 21350;EQDQ01  00002PRCP99
0112531920999992000020809004+44020+114950FM-12+112899999V0202501N002012200019N0300001N1-02021-02421104291ADDGF102991001001999999001021MD1710061+9999REMSYN060AAXX  08091 53192 42980 22502 11202 21242 40429 57006 80002;
0173531920999992000020812004+44020+114950FM-12+112899999V0209999C000012200019N0300001N1-02491-02811104371ADDAA199000091GA1001+999999999GF100991001001999999001001MA1999999089271MD1710081+9999REMSYN060AAXX  08121 53192 32980 00000 11249 21281 38927 40437 57008;EQDQ01  00002PRCP99
0122531920999992000020815004+44020+114950FM-12+112899999V0202901N001012200019N0300001N1-02841-03131104161ADDGA1001+999999999GF100991001001999999001001MD1710121+9999REMSYN054AAXX  08151 53192 42980 02901 11284 21313 40416 57012;
0196531920999992000020818004+44020+114950FM-12+112899999V0209999C000012200019N0300001N1-02871-03181103911ADDAA199000091GA1001+999999999GF100991001001999999001001KA1999M-01971MA1999999089101MD1710051+9999REMSYN070AAXX  08181 53192 32980 00000 11287 21318 38910 40391 57005 333 11197;EQDQ01  00002PRCP99
0122531920999992000020821004+44020+114950FM-12+112899999V0209999C000012200019N0300001N1-02951-03261103791ADDGA1001+999999999GF100991001001999999001001MD1710081+9999REMSYN054AAXX  08211 53192 42980 00000 11295 21326 40379 57008;
0173531920999992000020900004+44020+114950FM-12+112899999V0209999C000012200019N0300001N1-02801-03131103851ADDAA199000091GF102991001001999999001021MA1999999088981MD1710041+0071REMSYN076AAXX  09001 53192 32980 20000 11280 21313 38898 40385 57004 80002 333 05706;EQDQ01  00002PRCP99
0112531920999992000020903004+44020+114950FM-12+112899999V0209999C000012200019N0300001N1-01821-02301103601ADDGF103991001001999999001021MD1710041+9999REMSYN060AAXX  09031 53192 42980 30000 11182 21230 40360 57004 80002;
0186531920999992000020906004+44020+114950FM-12+112899999V0201601N002012200019N0300001N1-01561-02011103361ADDAA199000091GF104991001001999999001021KA1999N-03061MA1999999088791MD1710151+9999REMSYN076AAXX  09061 53192 32980 41602 11156 21201 38879 40336 57015 80002 333 21306;EQDQ01  00002PRCP99
0112531920999992000020909004+44020+114950FM-12+112899999V0201401N001012200019N0300001N1-01521-02051103231ADDGF102991001001999999001021MD1710121+9999REMSYN060AAXX  09091 53192 42980 21401 11152 21205 40323 57012 80002;
0163531920999992000020912004+44020+114950FM-12+112899999V0209999C000012200019N0250001N1-02061-02461103341ADDAA199000091GF101991001001999999001021MA1999999088661MD1710011+9999REMSYN066AAXX  09121 53192 32975 10000 11206 21246 38866 40334 57001 80002;EQDQ01  00002PRCP99
0122531920999992000020915004+44020+114950FM-12+112899999V0200401N001012200019N0300001N1-02441-02831103081ADDGA1001+999999999GF100991001001999999001001MD1710061+9999REMSYN054AAXX  09151 53192 42980 00401 11244 21283 40308 57006;
0196531920999992000020918004+44020+114950FM-12+112899999V0209999C000012200019N0300001N1-02641-02971103041ADDAA199000091GA1001+999999999GF100991001001999999001001KA1999M-01251MA1999999088581MD1710021+9999REMSYN070AAXX  09181 53192 32980 00000 11264 21297 38858 40304 57002 333 11125;EQDQ01  00002PRCP99
0122531920999992000020921004+44020+114950FM-12+112899999V0209999C000012200019N0300001N1-02761-03071102971ADDGA1001+999999999GF100991001001999999001001MD1710081+9999REMSYN054AAXX  09211 53192 42980 00000 11276 21307 40297 57008;
0173531920999992000021000004+44020+114950FM-12+112899999V0209999C000012200019N0250001N1-02871-03181103341ADDAA199000091GF101991001001999999001021MA1999999088641MD1210141+0031REMSYN076AAXX  10001 53192 32975 10000 11287 21318 38864 40334 52014 80002 333 05351;EQDQ01  00002PRCP99
0112531920999992000021003004+44020+114950FM-12+112899999V0202501N002012200019N0300001N1-02341-02701103411ADDGF101991001001999999001021MD1210101+9999REMSYN060AAXX  10031 53192 42980 12502 11234 21270 40341 52010 80002;
0196531920999992000021006004+44020+114950FM-12+112899999V0202201N004012200019N0300001N1-01771-02181103201ADDAA199000091GA1001+999999999GF100991001001999999001001KA1999N-02921MA1999999088661MD1710081+9999REMSYN070AAXX  10061 53192 32980 02204 11177 21218 38866 40320 57008 333 21292;EQDQ01  00002PRCP99
0122531920999992000021009004+44020+114950FM-12+112899999V0202701N003012200019N0300001N1-01841-02211103351ADDGA1001+999999999GF100991001001999999001001MD1210081+9999REMSYN054AAXX  10091 53192 42980 02703 11184 21221 40335 52008;
0173531920999992000021012004+44020+114950FM-12+112899999V0209999C000012200019N0300001N1-02121-02401103601ADDAA199000091GA1001+999999999GF100991001001999999001001MA1999999088851MD1210111+9999REMSYN060AAXX  10121 53192 32980 00000 11212 21240 38885 40360 52011;EQDQ01  00002PRCP99
0122531920999992000021015004+44020+114950FM-12+112899999V0209999C000012200019N0300001N1-02201-02481103481ADDGA1001+999999999GF100991001001999999001001MD1210021+9999REMSYN054AAXX  10151 53192 42980 00000 11220 21248 40348 52002;
0196531920999992000021018004+44020+114950FM-12+112899999V0209999C000012200019N0300001N1-02501-02791103361ADDAA199000091GA1001+999999999GF100991001001999999001001KA1999M-01641MA1999999088841MD1710031+9999REMSYN070AAXX  10181 53192 32980 00000 11250 21279 38884 40336 57003 333 11164;EQDQ01  00002PRCP99
0122531920999992000021021004+44020+114950FM-12+112899999V0209999C000012200019N0300001N1-02661-02941103281ADDGA1001+999999999GF100991001001999999001001MD1710131+9999REMSYN054AAXX  10211 53192 42980 00000 11266 21294 40328 57013;
0183531920999992000021100004+44020+114950FM-12+112899999V0209999C000012200019N0300001N1-02321-02611103241ADDAA199000091GA1001+999999999GF100991001001999999001001MA1999999088691MD1710021+0011REMSYN070AAXX  11001 53192 32980 00000 11232 21261 38869 40324 57002 333 00106;EQDQ01  00002PRCP99
0122531920999992000021103004+44020+114950FM-12+112899999V0202501N002012200019N0300001N1-01701-02011103101ADDGA1001+999999999GF100991001001999999001001MD1210021+9999REMSYN054AAXX  11031 53192 42980 02502 11170 21201 40310 52002;
0186531920999992000021106004+44020+114950FM-12+112899999V0202201N002012200019N0300001N1-01181-01571102921ADDAA199000091GF101991001001999999001021KA1999N-02701MA1999999088611MD1710101+9999REMSYN076AAXX  11061 53192 32980 12202 11118 21157 38861 40292 57010 80002 333 21270;EQDQ01  00002PRCP99
0112531920999992000021109004+44020+114950FM-12+112899999V0209999C000012200019N0300001N1-01021-01461102851ADDGF101991001001999999001021MD1710061+9999REMSYN060AAXX  11091 53192 42980 10000 11102 21146 40285 57006 80002;
0173531920999992000021112004+44020+114950FM-12+112899999V0209999C000012200019N0300001N1-01601-01911103051ADDAA199000091GA1001+999999999GF100991001001999999001001MA1999999088661MD1210111+9999REMSYN060AAXX  11121 53192 32980 00000 11160 21191 38866 40305 52011;EQDQ01  00002PRCP99
0122531920999992000021115004+44020+114950FM-12+112899999V0200201N003012200019N0300001N1-01741-02031102921ADDGA1001+999999999GF100991001001999999001001MD1210011+9999REMSYN054AAXX  11151 53192 42980 00203 11174 21203 40292 52001;
0196531920999992000021118004+44020+114950FM-12+112899999V0209999C000012200019N0300001N1-01901-02191102831ADDAA199000091GA1001+999999999GF100991001001999999001001KA1999M-00981MA1999999088691MD1210021+9999REMSYN070AAXX  11181 53192 32980 00000 11190 21219 38869 40283 52002 333 11098;EQDQ01  00002PRCP99
0122531920999992000021121004+44020+114950FM-12+112899999V0200401N003012200019N0300001N1-01601-01881102651ADDGA1001+999999999GF100991001001999999001001MD1710041+9999REMSYN054AAXX  11211 53192 42980 00403 11160 21188 40265 57004;
0173531920999992000021200004+44020+114950FM-12+112899999V0200401N002012200019N0300001N1-01691-01931102871ADDAA199000091GF102991001001999999001021MA1999999088671MD1210021+0001REMSYN076AAXX  12001 53192 32980 20402 11169 21193 38867 40287 52002 80002 333 00006;EQDQ01  00002PRCP99
0112531920999992000021203004+44020+114950FM-12+112899999V0200701N004019999999N0300001N1-01221-01671102791ADDGF107991001001999999001021MD1210011+9999REMSYN060AAXX  12031 53192 42980 70704 11122 21167 40279 52001 80002;
0186531920999992000021206004+44020+114950FM-12+112899999V0200701N005019999999N0300001N1-01091-01581102611ADDAA199000091GF107991001001999999001021KA1999N-01951MA1999999088521MD1710161+9999REMSYN076AAXX  12061 53192 32980 70705 11109 21158 38852 40261 57016 80002 333 21195;EQDQ01  00002PRCP99
0112531920999992000021209004+44020+114950FM-12+112899999V0200701N006019999999N0300001N1-01311-01811102661ADDGF107991001001999999001021MD1210061+9999REMSYN060AAXX  12091 53192 42980 70706 11131 21181 40266 52006 80002;
0163531920999992000021212004+44020+114950FM-12+112899999V0200401N002019999999N0300001N1-01481-01901102951ADDAA199000091GF107991001001999999001021MA1999999088771MD1210191+9999REMSYN066AAXX  12121 53192 32980 70402 11148 21190 38877 40295 52019 80002;EQDQ01  00002PRCP99
0132531920999992000021215004+44020+114950FM-12+112899999V0200201N005019999999N0300001N1-01501-01861102981ADDAY171031GF107991001001999999001021MD1210141+9999MW1701REMSYN066AAXX  12151 53192 41980 70205 11150 21186 40298 52014 77070 80002;
0193531920999992000021218004+44020+114950FM-12+112899999V0200201N003012200019N0300001N1-01861-02151103171ADDAA106000791AY171061GF104991001001999999001021KA1999M-01051MA1999999089011MD1210101+9999MW1001REMSYN088AAXX  12181 53192 11980 40203 11186 21215 38901 40317 52010 69901 70070 80002 333 11105;
0143531920999992000021221004+44020+114950FM-12+112899999V0209999C000012200019N0300001N1-02131-02461103351ADDAA124000791GA1001+999999999GF100991001001999999001001MD1210031+9999REMSYN064AAXX  12211 53192 42980 00000 11213 21246 40335 52003 333 79999;
0160531920999992000021300004+44020+114950FM-12+112899999V0209999C000012200019N0250001N1-02221-02531103471ADDAA124000791GF104991001001999999001021MA1999999089081MD1210041+0401REMSYN082AAXX  13001 53192 32975 40000 11222 21253 38908 40347 52004 80002 333 00455 79999;
0112531920999992000021303004+44020+114950FM-12+112899999V0202201N001019999999N0300001N1-01591-02021103341ADDGF106991001001999999001021MD1210041+9999REMSYN060AAXX  13031 53192 42980 62201 11159 21202 40334 52004 80002;
0193531920999992000021306004+44020+114950FM-12+112899999V0202701N002019999999N0300001N1-01441-01881103291ADDAA106000791AY171061GF107991001001999999001021KA1999N-02311MA1999999089031MD1710091+9999MW1001REMSYN088AAXX  13061 53192 11980 72702 11144 21188 38903 40329 57009 69901 70070 80002 333 21231;
0132531920999992000021309004+44020+114950FM-12+112899999V0202501N004012200019N0300001N1-01511-01871103341ADDAY171031GF102991001001999999001021MD1710051+9999MW1001REMSYN066AAXX  13091 53192 41980 22504 11151 21187 40334 57005 70070 80002;
0170531920999992000021312004+44020+114950FM-12+112899999V0202501N003019999999N0300001N1-02001-02281103621ADDAA106000191AY171061GF106991001001999999001021MA1999999089071MD1210091+9999MW1701REMSYN078AAXX  13121 53192 11980 62503 11200 21228 38907 40362 52009 69911 77070 80002;
0132531920999992000021315004+44020+114950FM-12+112899999V0202701N004012200019N0300001N1-01901-02201103481ADDAY171031GF102991001001999999001021MD1210071+9999MW1001REMSYN066AAXX  13151 53192 41980 22704 11190 21220 40348 52007 70070 80002;
0203531920999992000021318004+44020+114950FM-12+112899999V0202501N001012200019N0300001N1-02331-02601103441ADDAA106000191AY171061GA1001+999999999GF100991001001999999001001KA1999M-01291MA1999999089041MD1710101+9999MW1001REMSYN082AAXX  13181 53192 11980 02501 11233 21260 38904 40344 57010 69911 70070 333 11129;
0143531920999992000021321004+44020+114950FM-12+112899999V0209999C000012200019N0300001N1-02561-02811103471ADDAA124000391GA1001+999999999GF100991001001999999001001MD1710061+9999REMSYN064AAXX  13211 53192 42980 00000 11256 21281 40347 57006 333 70002;
0170531920999992000021400004+44020+114950FM-12+112899999V0202501N003012200019N0300001N1-02541-02831103621ADDAA124000391GA1001+999999999GF100991001001999999001001MA1999999088991MD1210011-0101REMSYN076AAXX  14001 53192 32980 02503 11254 21283 38899 40362 52001 333 05153 70002;
0112531920999992000021403004+44020+114950FM-12+112899999V0202501N003019999999N0300001N1-02151-02461103591ADDGF105991001001999999001021MD1210101+9999REMSYN060AAXX  14031 53192 42980 52503 11215 21246 40359 52010 80002;
0186531920999992000021406004+44020+114950FM-12+112899999V0202701N006012200019N0300001N1-02001-02371103701ADDAA199000091GF102991001001999999001021KA1999N-02631MA1999999089111MD1210021+9999REMSYN076AAXX  14061 53192 32980 22706 11200 21237 38911 40370 52002 80002 333 21263;EQDQ01  00002PRCP99
0122531920999992000021409004+44020+114950FM-12+112899999V0202701N005012200019N0300001N1-01981-02331103771ADDGA1001+999999999GF100991001001999999001001MD1210011+9999REMSYN054AAXX  14091 53192 42980 02705 11198 21233 40377 52001;
0122531920999992000021415004+44020+114950FM-12+112899999V0202901N002012200019N0300001N1-02481-02781103931ADDGA1001+999999999GF100991001001999999001001MD1210011+9999REMSYN054AAXX  14151 53192 42980 02902 11248 21278 40393 52001;
0196531920999992000021418004+44020+114950FM-12+112899999V0209999C000012200019N0300001N1-02641-02941103831ADDAA199000091GA1001+999999999GF100991001001999999001001KA1999M-01861MA1999999089141MD1710091+9999REMSYN070AAXX  14181 53192 32980 00000 11264 21294 38914 40383 57009 333 11186;EQDQ01  00002PRCP99
0122531920999992000021421004+44020+114950FM-12+112899999V0202701N003012200019N0300001N1-02721-03021103671ADDGA1001+999999999GF100991001001999999001001MD1710151+9999REMSYN054AAXX  14211 53192 42980 02703 11272 21302 40367 57015;
0173531920999992000021500004+44020+114950FM-12+112899999V0202701N003012200019N0300001N1-02901-03191103871ADDAA199000091GF101991001001999999001021MA1999999089021MD1210031+0001REMSYN076AAXX  15001 53192 32980 12703 11290 21319 38902 40387 52003 80002 333 00054;EQDQ01  00002PRCP99
0122531920999992000021503004+44020+114950FM-12+112899999V0202701N007012200019N0300001N1-02301-02611103801ADDGA1001+999999999GF100991001001999999001001MD1210061+9999REMSYN054AAXX  15031 53192 42980 02707 11230 21261 40380 52006;
0196531920999992000021506004+44020+114950FM-12+112899999V0202701N005012200019N0300001N1-01981-02351103711ADDAA199000091GA1001+999999999GF100991001001999999001001KA1999N-03021MA1999999089041MD1710041+9999REMSYN070AAXX  15061 53192 32980 02705 11198 21235 38904 40371 57004 333 21302;EQDQ01  00002PRCP99
0122531920999992000021509004+44020+114950FM-12+112899999V0202701N004012200019N0300001N1-02041-02401103741ADDGA1001+999999999GF100991001001999999001001MD1710011+9999REMSYN054AAXX  15091 53192 42980 02704 11204 21240 40374 57001;
0173531920999992000021512004+44020+114950FM-12+112899999V0209999C000012200019N0300001N1-02401-02701103981ADDAA199000091GA1001+999999999GF100991001001999999001001MA1999999089091MD1210061+9999REMSYN060AAXX  15121 53192 32980 00000 11240 21270 38909 40398 52006;EQDQ01  00002PRCP99
0122531920999992000021515004+44020+114950FM-12+112899999V0209999C000012200019N0300001N1-02681-02961103881ADDGA1001+999999999GF100991001001999999001001MD1410001+9999REMSYN054AAXX  15151 53192 42980 00000 11268 21296 40388 54000;
0196531920999992000021518004+44020+114950FM-12+112899999V0202701N001012200019N0300001N1-03031-03321103841ADDAA199000091GA1001+999999999GF100991001001999999001001KA1999M-01791MA1999999089051MD1710041+9999REMSYN070AAXX  15181 53192 32980 02701 11303 21332 38905 40384 57004 333 11179;EQDQ01  00002PRCP99
0122531920999992000021521004+44020+114950FM-12+112899999V0209999C000012200019N0300001N1-02901-03191103751ADDGA1001+999999999GF100991001001999999001001MD1710061+9999REMSYN054AAXX  15211 53192 42980 00000 11290 21319 40375 57006;
0173531920999992000021600004+44020+114950FM-12+112899999V0202901N001012200019N0200001N1-03131-03431103971ADDAA199000091GF101991001001999999001021MA1999999089021MD1210031+0001REMSYN076AAXX  16001 53192 32970 12901 11313 21343 38902 40397 52003 80002 333 00052;EQDQ01  00002PRCP99
0122531920999992000021603004+44020+114950FM-12+112899999V0202501N002012200019N0300001N1-02361-02651103891ADDGA1001+999999999GF100991001001999999001001MD1210061+9999REMSYN054AAXX  16031 53192 42980 02502 11236 21265 40389 52006;
0196531920999992000021606004+44020+114950FM-12+112899999V0202001N002012200019N0300001N1-01941-02241103791ADDAA199000091GA1001+999999999GF100991001001999999001001KA1999N-03301MA1999999089021MD1710061+9999REMSYN070AAXX  16061 53192 32980 02002 11194 21224 38902 40379 57006 333 21330;EQDQ01  00002PRCP99
0122531920999992000021609004+44020+114950FM-12+112899999V0202701N002012200019N0300001N1-01861-02211103691ADDGA1001+999999999GF100991001001999999001001MD1710031+9999REMSYN054AAXX  16091 53192 42980 02702 11186 21221 40369 57003;
0173531920999992000021612004+44020+114950FM-12+112899999V0209999C000012200019N0300001N1-02421-02691104041ADDAA199000091GA1001+999999999GF100991001001999999001001MA1999999089071MD1210081+9999REMSYN060AAXX  16121 53192 32980 00000 11242 21269 38907 40404 52008;EQDQ01  00002PRCP99
0122531920999992000021615004+44020+114950FM-12+112899999V0209999C000012200019N0300001N1-02721-03021103931ADDGA1001+999999999GF100991001001999999001001MD1210041+9999REMSYN054AAXX  16151 53192 42980 00000 11272 21302 40393 52004;
0186531920999992000021618004+44020+114950FM-12+112899999V0209999C000012200019N0300001N1-02961-03251103891ADDAA199000091GF102991001001999999001021KA1999M-01751MA1999999089121MD1210011+9999REMSYN076AAXX  16181 53192 32980 20000 11296 21325 38912 40389 52001 80002 333 11175;EQDQ01  00002PRCP99
0112531920999992000021621004+44020+114950FM-12+112899999V0209999C000012200019N0300001N1-02991-03281103861ADDGF101991001001999999001021MD1710011+9999REMSYN060AAXX  16211 53192 42980 10000 11299 21328 40386 57001 80002;
0173531920999992000021700004+44020+114950FM-12+112899999V0209999C000019999999N0200001N1-03001-03301104121ADDAA199000091GF105991001001999999001021MA1999999089181MD1210071+0021REMSYN076AAXX  17001 53192 32970 50000 11300 21330 38918 40412 52007 80002 333 00201;EQDQ01  00002PRCP99
0112531920999992000021703004+44020+114950FM-12+112899999V0201801N001012200019N0250001N1-02161-02461103931ADDGF101991001001999999001021MD1710021+9999REMSYN060AAXX  17031 53192 42975 11801 11216 21246 40393 57002 80002;
0196531920999992000021706004+44020+114950FM-12+112899999V0202501N003012200019N0300001N1-01541-01971103691ADDAA199000091GA1001+999999999GF100991001001999999001001KA1999N-03221MA1999999089061MD1710101+9999REMSYN070AAXX  17061 53192 32980 02503 11154 21197 38906 40369 57010 333 21322;EQDQ01  00002PRCP99
0122531920999992000021709004+44020+114950FM-12+112899999V0201801N001012200019N0300001N1-01311-01851103611ADDGA1001+999999999GF100991001001999999001001MD1710021+9999REMSYN054AAXX  17091 53192 42980 01801 11131 21185 40361 57002;
0173531920999992000021712004+44020+114950FM-12+112899999V0200401N002012200019N0300001N1-01821-02211103841ADDAA199000091GA1001+999999999GF100991001001999999001001MA1999999089101MD1210061+9999REMSYN060AAXX  17121 53192 32980 00402 11182 21221 38910 40384 52006;EQDQ01  00002PRCP99
0122531920999992000021715004+44020+114950FM-12+112899999V0200201N002012200019N0300001N1-01961-02311103571ADDGA1001+999999999GF100991001001999999001001MD1710041+9999REMSYN054AAXX  17151 53192 42980 00202 11196 21231 40357 57004;
0186531920999992000021718004+44020+114950FM-12+112899999V0200201N003012200019N0300001N1-01901-02271103351ADDAA199000091GF102991001001999999001021KA1999M-01251MA1999999089041MD1710021+9999REMSYN076AAXX  17181 53192 32980 20203 11190 21227 38904 40335 57002 80002 333 11125;EQDQ01  00002PRCP99
0112531920999992000021721004+44020+114950FM-12+112899999V0200201N002019999999N0300001N1-01901-02241103051ADDGF105991001001999999001021MD1710201+9999REMSYN060AAXX  17211 53192 42980 50202 11190 21224 40305 57020 80002;
0173531920999992000021800004+44020+114950FM-12+112899999V0200201N001019999999N0300001N1-01881-02231103171ADDAA199000091GF106991001001999999001021MA1999999088821MD1710021+0041REMSYN076AAXX  18001 53192 32980 60201 11188 21223 38882 40317 57002 80002 333 05411;EQDQ01  00002PRCP99
0112531920999992000021803004+44020+114950FM-12+112899999V0209999C000019999999N0300001N1-01281-01781102971ADDGF107991001001999999001021MD1710051+9999REMSYN060AAXX  18031 53192 42980 70000 11128 21178 40297 57005 80002;
0186531920999992000021806004+44020+114950FM-12+112899999V0202001N003019999999N0300001N1-01121-01531102761ADDAA199000091GF107991001001999999001021KA1999N-02051MA1999999088641MD1710131+9999REMSYN076AAXX  18061 53192 32980 72003 11112 21153 38864 40276 57013 80002 333 21205;EQDQ01  00002PRCP99
0163531920999992000021812004+44020+114950FM-12+112899999V0209999C000012200019N0300001N1-01771-02061103301ADDAA199000091GF102991001001999999001021MA1999999088951MD1210241+9999REMSYN066AAXX  18121 53192 32980 20000 11177 21206 38895 40330 52024 80002;EQDQ01  00002PRCP99
0122531920999992000021815004+44020+114950FM-12+112899999V0202901N002012200019N0300001N1-02041-02311103331ADDGA1001+999999999GF100991001001999999001001MD1210111+9999REMSYN054AAXX  18151 53192 42980 02902 11204 21231 40333 52011;
0190531920999992000021818004+44020+114950FM-12+112899999V0202701N001012200019N9999999N1-02081-02361999999ADDAA199000091GA1001+999999999GF100991001001999999001001KA1999M-00941MA1999999089161MD1210101+9999REMSYN064AAXX  18181 53192 3298/ 02701 11208 21236 38916 52010 333 11094;EQDQ01  00002PRCP99
0173531920999992000021900004+44020+114950FM-12+112899999V0209999C000012200019N0250001N1-02441-02711103831ADDAA199000091GF101991001001999999001021MA1999999089261MD1210101+0041REMSYN076AAXX  19001 53192 32975 10000 11244 21271 38926 40383 52010 80002 333 00456;EQDQ01  00002PRCP99
0186531920999992000021906004+44020+114950FM-12+112899999V0202201N001012200019N0300001N1-01441-01791103531ADDAA199000091GF101991001001999999001021KA1999N-02541MA1999999089181MD1710121+9999REMSYN076AAXX  19061 53192 32980 12201 11144 21179 38918 40353 57012 80002 333 21254;EQDQ01  00002PRCP99
0173531920999992000021912004+44020+114950FM-12+112899999V0209999C000012200019N0300001N1-02061-02331103761ADDAA199000091GA1001+999999999GF100991001001999999001001MA1999999089121MD1210011+9999REMSYN060AAXX  19121 53192 32980 00000 11206 21233 38912 40376 52001;EQDQ01  00002PRCP99
0112531920999992000021915004+44020+114950FM-12+112899999V0209999C000019999999N0300001N1-02371-02641103721ADDGF105991001001999999001021MD1710011+9999REMSYN060AAXX  19151 53192 42980 50000 11237 21264 40372 57001 80002;
0186531920999992000021918004+44020+114950FM-12+112899999V0209999C000019999999N0200001N1-02481-02771103551ADDAA199000091GF107991001001999999001021KA1999M-01271MA1999999089091MD1710021+9999REMSYN076AAXX  19181 53192 32970 70000 11248 21277 38909 40355 57002 80002 333 11127;EQDQ01  00002PRCP99
0112531920999992000021921004+44020+114950FM-12+112899999V0209999C000019999999N0300001N1-02541-02831103451ADDGF106991001001999999001021MD1710111+9999REMSYN060AAXX  19211 53192 42980 60000 11254 21283 40345 57011 80002;
0185531920999992000022000004+44020+114950FM-12+112899999V0209999C000019999999N0070001N1-02571-02851103691ADDAA199000091GF107991001001999999001021MA1999999089021MD1210041+0021MW1101REMSYN082AAXX  20001 53192 31957 70000 11257 21285 38902 40369 52004 71000 80002 333 05251;EQDQ01  00002PRCP99
0112531920999992000022003004+44020+114950FM-12+112899999V0209999C000012200019N0300001N1-01941-02221103621ADDGF102991001001999999001021MD1210031+9999REMSYN060AAXX  20031 53192 42980 20000 11194 21222 40362 52003 80002;
0196531920999992000022006004+44020+114950FM-12+112899999V0202501N003012200019N0300001N1-01641-01921103481ADDAA199000091GA1001+999999999GF100991001001999999001001KA1999N-02701MA1999999088981MD1710071+9999REMSYN070AAXX  20061 53192 32980 02503 11164 21192 38898 40348 57007 333 21270;EQDQ01  00002PRCP99
0122531920999992000022009004+44020+114950FM-12+112899999V0202701N002012200019N0300001N1-01721-02041103491ADDGA1001+999999999GF100991001001999999001001MD1710031+9999REMSYN054AAXX  20091 53192 42980 02702 11172 21204 40349 57003;
0173531920999992000022012004+44020+114950FM-12+112899999V0200201N001012200019N0300001N1-02101-02381103731ADDAA199000091GA1001+999999999GF100991001001999999001001MA1999999089051MD1210101+9999REMSYN060AAXX  20121 53192 32980 00201 11210 21238 38905 40373 52010;EQDQ01  00002PRCP99
0122531920999992000022015004+44020+114950FM-12+112899999V0209999C000012200019N0300001N1-02501-02771103681ADDGA1001+999999999GF100991001001999999001001MD1210021+9999REMSYN054AAXX  20151 53192 42980 00000 11250 21277 40368 52002;
0196531920999992000022018004+44020+114950FM-12+112899999V0209999C000012200019N0300001N1-02701-02971103691ADDAA199000091GA1001+999999999GF100991001001999999001001KA1999M-01541MA1999999089101MD1210031+9999REMSYN070AAXX  20181 53192 32980 00000 11270 21297 38910 40369 52003 333 11154;EQDQ01  00002PRCP99
0122531920999992000022021004+44020+114950FM-12+112899999V0200401N001012200019N0300001N1-02501-02771103561ADDGA1001+999999999GF100991001001999999001001MD1710081+9999REMSYN054AAXX  20211 53192 42980 00401 11250 21277 40356 57008;
0173531920999992000022100004+44020+114950FM-12+112899999V0200701N002012200019N0250001N1-02541-02811103681ADDAA199000091GF101991001001999999001021MA1999999089011MD1710011+0001REMSYN076AAXX  21001 53192 32975 10702 11254 21281 38901 40368 57001 80002 333 00000;EQDQ01  00002PRCP99
0112531920999992000022103004+44020+114950FM-12+112899999V0201401N001012200019N0300001N1-01741-02151103621ADDGF101991001001999999001021MD1210061+9999REMSYN060AAXX  21031 53192 42980 11401 11174 21215 40362 52006 80002;
0186531920999992000022106004+44020+114950FM-12+112899999V0200901N003012200019N0300001N1-01201-01701103361ADDAA199000091GF101991001001999999001021KA1999N-02741MA1999999088931MD1710141+9999REMSYN076AAXX  21061 53192 32980 10903 11120 21170 38893 40336 57014 80002 333 21274;EQDQ01  00002PRCP99
0112531920999992000022109004+44020+114950FM-12+112899999V0200201N002012200019N0300001N1-01181-01671103231ADDGF102991001001999999001021MD1710051+9999REMSYN060AAXX  21091 53192 42980 20202 11118 21167 40323 57005 80002;
0173531920999992000022112004+44020+114950FM-12+112899999V0200201N002012200019N0300001N1-01711-02071103451ADDAA199000091GA1001+999999999GF100991001001999999001001MA1999999088921MD1210041+9999REMSYN060AAXX  21121 53192 32980 00202 11171 21207 38892 40345 52004;EQDQ01  00002PRCP99
0112531920999992000022115004+44020+114950FM-12+112899999V0200201N003012200019N0300001N1-01941-02331103321ADDGF102991001001999999001021MD1210041+9999REMSYN060AAXX  21151 53192 42980 20203 11194 21233 40332 52004 80002;
0186531920999992000022118004+44020+114950FM-12+112899999V0200901N001012200019N0300001N1-02161-02541103241ADDAA199000091GF102991001001999999001021KA1999M-01111MA1999999088971MD1210011+9999REMSYN076AAXX  21181 53192 32980 20901 11216 21254 38897 40324 52001 80002 333 11111;EQDQ01  00002PRCP99
0122531920999992000022121004+44020+114950FM-12+112899999V0200401N001012200019N0300001N1-02271-02631103291ADDGA1001+999999999GF100991001001999999001001MD1210021+9999REMSYN054AAXX  21211 53192 42980 00401 11227 21263 40329 52002;
0173531920999992000022200004+44020+114950FM-12+112899999V0209999C000012200019N0250001N1-02401-02741103621ADDAA199000091GF101991001001999999001021MA1999999089101MD1210111+0011REMSYN076AAXX  22001 53192 32975 10000 11240 21274 38910 40362 52011 80002 333 00101;EQDQ01  00002PRCP99
0112531920999992000022203004+44020+114950FM-12+112899999V0202501N002012200019N0300001N1-02021-02401103701ADDGF102991001001999999001021MD1210111+9999REMSYN060AAXX  22031 53192 42980 22502 11202 21240 40370 52011 80002;
0186531920999992000022206004+44020+114950FM-12+112899999V0202501N003012200019N0300001N1-01561-01941103591ADDAA199000091GF102991001001999999001021KA1999N-02501MA1999999089181MD1710031+9999REMSYN076AAXX  22061 53192 32980 22503 11156 21194 38918 40359 57003 80002 333 21250;EQDQ01  00002PRCP99
0112531920999992000022209004+44020+114950FM-12+112899999V0202901N002012200019N0300001N1-01401-01821103541ADDGF102991001001999999001021MD1710031+9999REMSYN060AAXX  22091 53192 42980 22902 11140 21182 40354 57003 80002;
0173531920999992000022212004+44020+114950FM-12+112899999V0202501N003012200019N0300001N1-01821-02171103921ADDAA199000091GA1001+999999999GF100991001001999999001001MA1999999089331MD1210181+9999REMSYN060AAXX  22121 53192 32980 02503 11182 21217 38933 40392 52018;EQDQ01  00002PRCP99
0122531920999992000022215004+44020+114950FM-12+112899999V0209999C000012200019N0300001N1-02121-02431103991ADDGA1001+999999999GF100991001001999999001001MD1210081+9999REMSYN054AAXX  22151 53192 42980 00000 11212 21243 40399 52008;
0186531920999992000022218004+44020+114950FM-12+112899999V0209999C000012200019N0300001N1-02291-02581103891ADDAA199000091GF102991001001999999001021KA1999M-01231MA1999999089401MD1710011+9999REMSYN076AAXX  22181 53192 32980 20000 11229 21258 38940 40389 57001 80002 333 11123;EQDQ01  00002PRCP99
0112531920999992000022221004+44020+114950FM-12+112899999V0209999C000012200019N0250001N1-02461-02751103861ADDGF101991001001999999001021MD1710031+9999REMSYN060AAXX  22211 53192 42975 10000 11246 21275 40386 57003 80002;
0185531920999992000022300004+44020+114950FM-12+112899999V0209999C000012200019N0070001N1-02671-02971104061ADDAA199000091GF103991001001999999001021MA1999999089381MD1210011+0031MW1101REMSYN082AAXX  23001 53192 31957 30000 11267 21297 38938 40406 52001 71000 80002 333 00353;EQDQ01  00002PRCP99
0112531920999992000022303004+44020+114950FM-12+112899999V0202201N002012200019N0300001N1-02091-02371104141ADDGF101991001001999999001021MD1210141+9999REMSYN060AAXX  23031 53192 42980 12202 11209 21237 40414 52014 80002;
0186531920999992000022306004+44020+114950FM-12+112899999V0202001N003012200019N0300001N1-01481-01761103921ADDAA199000091GF101991001001999999001021KA1999N-02811MA1999999089451MD1710071+9999REMSYN076AAXX  23061 53192 32980 12003 11148 21176 38945 40392 57007 80002 333 21281;EQDQ01  00002PRCP99
0122531920999992000022309004+44020+114950FM-12+112899999V0202501N003012200019N0300001N1-01541-01961103991ADDGA1001+999999999GF100991001001999999001001MD1410001+9999REMSYN054AAXX  23091 53192 42980 02503 11154 21196 40399 54000;
0173531920999992000022312004+44020+114950FM-12+112899999V0209999C000012200019N0250001N1-01981-02301104411ADDAA199000091GA1001+999999999GF100991001001999999001001MA1999999089641MD1210191+9999REMSYN060AAXX  23121 53192 32975 00000 11198 21230 38964 40441 52019;EQDQ01  00002PRCP99
0122531920999992000022315004+44020+114950FM-12+112899999V0202901N001012200019N0300001N1-02321-02601104511ADDGA1001+999999999GF100991001001999999001001MD1210151+9999REMSYN054AAXX  23151 53192 42980 02901 11232 21260 40451 52015;
0196531920999992000022318004+44020+114950FM-12+112899999V0209999C000012200019N0300001N1-02441-02711104361ADDAA199000091GA1001+999999999GF100991001001999999001001KA1999M-01441MA1999999089791MD1410001+9999REMSYN070AAXX  23181 53192 32980 00000 11244 21271 38979 40436 54000 333 11144;EQDQ01  00002PRCP99
0112531920999992000022321004+44020+114950FM-12+112899999V0209999C000012200019N0300001N1-02451-02721104301ADDGF101991001001999999001021MD1710071+9999REMSYN060AAXX  23211 53192 42980 10000 11245 21272 40430 57007 80002;
0173531920999992000022400004+44020+114950FM-12+112899999V0209999C000012200019N0250001N1-02581-02861104491ADDAA199000091GF102991001001999999001021MA1999999089731MD1210011+0041REMSYN076AAXX  24001 53192 32975 20000 11258 21286 38973 40449 52001 80002 333 00401;EQDQ01  00002PRCP99
0112531920999992000022403004+44020+114950FM-12+112899999V0202501N004012200019N0300001N1-01821-02091104361ADDGF101991001001999999001021MD1410001+9999REMSYN060AAXX  24031 53192 42980 12504 11182 21209 40436 54000 80002;
0186531920999992000022406004+44020+114950FM-12+112899999V0202701N005019999999N0300001N1-01291-01721103991ADDAA199000091GF105991001001999999001021KA1999N-02721MA1999999089521MD1710211+9999REMSYN076AAXX  24061 53192 32980 52705 11129 21172 38952 40399 57021 80002 333 21272;EQDQ01  00002PRCP99
0112531920999992000022409004+44020+114950FM-12+112899999V0202501N002019999999N0300001N1-01321-01741103861ADDGF107991001001999999001021MD1710121+9999REMSYN060AAXX  24091 53192 42980 72502 11132 21174 40386 57012 80002;
0163531920999992000022412004+44020+114950FM-12+112899999V0209999C000012200019N0300001N1-01571-01901103971ADDAA199000091GF101991001001999999001021MA1999999089391MD1710011+9999REMSYN066AAXX  24121 53192 32980 10000 11157 21190 38939 40397 57001 80002;EQDQ01  00002PRCP99
0122531920999992000022415004+44020+114950FM-12+112899999V0209999C000012200019N0300001N1-01821-02141103681ADDGA1001+999999999GF100991001001999999001001MD1710111+9999REMSYN054AAXX  24151 53192 42980 00000 11182 21214 40368 57011;
0186531920999992000022418004+44020+114950FM-12+112899999V0209999C000019999999N0300001N1-01651-01991103241ADDAA199000091GF107991001001999999001021KA1999M-01211MA1999999089081MD1710201+9999REMSYN076AAXX  24181 53192 32980 70000 11165 21199 38908 40324 57020 80002 333 11121;EQDQ01  00002PRCP99
0153531920999992000022421004+44020+114950FM-12+112899999V0209999C000019999999N0300001N1-01431-01691102891ADDAA124000391AY171031GF108991081001999999021999MD1710261+9999MW1701REMSYN076AAXX  24211 53192 41980 80000 11143 21169 40289 57026 77070 8802/ 333 70003;
0186531920999992000022500004+44020+114950FM-12+112899999V0202501N001019999999N0200001N1-01411-01671102911ADDAA106000591AY171061GF107991021001999999031021MA1999999088781MD1710041-1001MW1701REMSYN094AAXX  25001 53192 11970 72501 11141 21167 38878 40291 57004 69941 77070 82032 333 06012 70004;
0132531920999992000022503004+44020+114950FM-12+112899999V0202901N004019999999N0300001N1-01081-01401102911ADDAY171031GF107991001001999999001021MD1210021+9999MW1001REMSYN066AAXX  25031 53192 41980 72904 11108 21140 40291 52002 70070 80002;
0193531920999992000022506004+44020+114950FM-12+112899999V0202701N006012200019N0300001N1-01071-01411102791ADDAA106000791AY171061GF101991001001999999001021KA1999N-01891MA1999999088741MD1710061+9999MW1001REMSYN088AAXX  25061 53192 11980 12706 11107 21141 38874 40279 57006 69901 70070 80002 333 21189;
0112531920999992000022509004+44020+114950FM-12+112899999V0202501N005012200019N0300001N1-01201-01561102771ADDGF101991001001999999001021MD1210011+9999REMSYN060AAXX  25091 53192 42980 12505 11120 21156 40277 52001 80002;
0144531920999992000022512004+44020+114950FM-12+112899999V0201601N001012200019N0300001N1-01341-01641102931ADDAA199000021GF102991001001999999001021MA1999999088861MD1210111+9999REMSYN066AAXX  25121 53192 32980 21601 11134 21164 38886 40293 52011 80002;
0124531920999992000022515004+44020+114950FM-12+112899999V0209999C000012200019N0300001N1-01581-01841102921ADDGF103991001001999999001021MD1210011+9999MW1701REMSYN066AAXX  25151 53192 41980 30000 11158 21184 40292 52001 77000 80002;
0203531920999992000022518004+44020+114950FM-12+112899999V0202701N004012200019N0300001N1-01741-01981102891ADDAA106000791AY171061GA1001+999999999GF100991001001999999001001KA1999M-01021MA1999999088811MD1710061+9999MW1001REMSYN082AAXX  25181 53192 11980 02704 11174 21198 38881 40289 57006 69901 70070 333 11102;
0143531920999992000022521004+44020+114950FM-12+112899999V0202901N001012200019N0300001N1-02001-02251102931ADDAA124000191GA1001+999999999GF100991001001999999001001MD1710071+9999REMSYN064AAXX  25211 53192 42980 02901 11200 21225 40293 57007 333 70001;
0160531920999992000022600004+44020+114950FM-12+112899999V0202701N003019999999N0300001N1-02091-02351103031ADDAA124000791GF106991001001999999001021MA1999999088771MD1210031+0001REMSYN082AAXX  26001 53192 32980 62703 11209 21235 38877 40303 52003 80002 333 00057 79999;
0112531920999992000022603004+44020+114950FM-12+112899999V0202501N004012200019N0300001N1-01541-01891102971ADDGF101991001001999999001021MD1210031+9999REMSYN060AAXX  26031 53192 42980 12504 11154 21189 40297 52003 80002;
0186531920999992000022606004+44020+114950FM-12+112899999V0202201N005019999999N0300001N1-00961-01421102651ADDAA199000091GF107991011001999999031021KA1999N-02151MA1999999088631MD1710171+9999REMSYN076AAXX  26061 53192 32980 72205 11096 21142 38863 40265 57017 81032 333 21215;EQDQ01  00002PRCP99
0173531920999992000022612004+44020+114950FM-12+112899999V0202501N004012200019N0300001N1-01141-01461102921ADDAA199000091GA1001+999999999GF100991001001999999001001MA1999999088731MD1210111+9999REMSYN060AAXX  26121 53192 32980 02504 11114 21146 38873 40292 52011;EQDQ01  00002PRCP99
0122531920999992000022615004+44020+114950FM-12+112899999V0201401N002012200019N0300001N1-01531-01861102911ADDGA1001+999999999GF100991001001999999001001MD1210031+9999REMSYN054AAXX  26151 53192 42980 01402 11153 21186 40291 52003;
0196531920999992000022618004+44020+114950FM-12+112899999V0209999C000012200019N0300001N1-01941-02211102901ADDAA199000091GA1001+999999999GF100991001001999999001001KA1999M-00931MA1999999088791MD1210031+9999REMSYN070AAXX  26181 53192 32980 00000 11194 21221 38879 40290 52003 333 11093;EQDQ01  00002PRCP99
0122531920999992000022621004+44020+114950FM-12+112899999V0203601N001012200019N0300001N1-01871-02141102881ADDGA1001+999999999GF100991001001999999001001MD1210011+9999REMSYN054AAXX  26211 53192 42980 03601 11187 21214 40288 52001;
0173531920999992000022700004+44020+114950FM-12+112899999V0202701N001012200019N0300001N1-01761-02071103161ADDAA199000091GF101991001001999999001021MA1999999089021MD1210221+0031REMSYN076AAXX  27001 53192 32980 12701 11176 21207 38902 40316 52022 80002 333 00303;EQDQ01  00002PRCP99
0122531920999992000022703004+44020+114950FM-12+112899999V0202701N002012200019N0300001N1-01301-01731103471ADDGA1001+999999999GF100991001001999999001001MD1210281+9999REMSYN054AAXX  27031 53192 42980 02702 11130 21173 40347 52028;
0186531920999992000022706004+44020+114950FM-12+112899999V0201801N002012200019N0300001N1-01111-01541103601ADDAA199000091GF101991001001999999001021KA1999N-02051MA1999999089361MD1210061+9999REMSYN076AAXX  27061 53192 32980 11802 11111 21154 38936 40360 52006 80002 333 21205;EQDQ01  00002PRCP99
0112531920999992000022709004+44020+114950FM-12+112899999V0202501N002012200019N0300001N1-01121-01551103671ADDGF101991001001999999001021MD1210071+9999REMSYN060AAXX  27091 53192 42980 12502 11112 21155 40367 52007 80002;
0173531920999992000022712004+44020+114950FM-12+112899999V0209999C000012200019N0300001N1-01681-01991104031ADDAA199000091GA1001+999999999GF100991001001999999001001MA1999999089631MD1210201+9999REMSYN060AAXX  27121 53192 32980 00000 11168 21199 38963 40403 52020;EQDQ01  00002PRCP99
0122531920999992000022715004+44020+114950FM-12+112899999V0209999C000012200019N0300001N1-02001-02271104121ADDGA1001+999999999GF100991001001999999001001MD1210111+9999REMSYN054AAXX  27151 53192 42980 00000 11200 21227 40412 52011;
0196531920999992000022718004+44020+114950FM-12+112899999V0209999C000012200019N0300001N1-02271-02531104221ADDAA199000091GA1001+999999999GF100991001001999999001001KA1999M-00991MA1999999089811MD1210071+9999REMSYN070AAXX  27181 53192 32980 00000 11227 21253 38981 40422 52007 333 11099;EQDQ01  00002PRCP99
0122531920999992000022721004+44020+114950FM-12+112899999V0209999C000012200019N0300001N1-02541-02811104281ADDGA1001+999999999GF100991001001999999001001MD1710021+9999REMSYN054AAXX  27211 53192 42980 00000 11254 21281 40428 57002;
0173531920999992000022800004+44020+114950FM-12+112899999V0209999C000012200019N0200001N1-02521-02791104481ADDAA199000091GF102991001001999999001021MA1999999089821MD1210031+0081REMSYN076AAXX  28001 53192 32970 20000 11252 21279 38982 40448 52003 80002 333 00858;EQDQ01  00002PRCP99
0122531920999992000022803004+44020+114950FM-12+112899999V0202501N001012200019N0300001N1-01581-01931104341ADDGA1001+999999999GF100991001001999999001001MD1210041+9999REMSYN054AAXX  28031 53192 42980 02501 11158 21193 40434 52004;
0196531920999992000022806004+44020+114950FM-12+112899999V0202501N004012200019N0300001N1-01021-01401104111ADDAA199000091GA1001+999999999GF100991001001999999001001KA1999N-02651MA1999999089741MD1710121+9999REMSYN070AAXX  28061 53192 32980 02504 11102 21140 38974 40411 57012 333 21265;EQDQ01  00002PRCP99
0122531920999992000022809004+44020+114950FM-12+112899999V0202901N002012200019N0300001N1-01021-01381104051ADDGA1001+999999999GF100991001001999999001001MD1710121+9999REMSYN054AAXX  28091 53192 42980 02902 11102 21138 40405 57012;
0173531920999992000022812004+44020+114950FM-12+112899999V0209999C000012200019N0300001N1-01441-01721104191ADDAA199000091GA1001+999999999GF100991001001999999001001MA1999999089631MD1210011+9999REMSYN060AAXX  28121 53192 32980 00000 11144 21172 38963 40419 52001;EQDQ01  00002PRCP99
0122531920999992000022815004+44020+114950FM-12+112899999V0202501N001012200019N0300001N1-01641-01901103901ADDGA1001+999999999GF100991001001999999001001MD1710061+9999REMSYN054AAXX  28151 53192 42980 02501 11164 21190 40390 57006;
0196531920999992000022818004+44020+114950FM-12+112899999V0209999C000012200019N0300001N1-01721-01981103701ADDAA199000091GA1001+999999999GF100991001001999999001001KA1999M-00851MA1999999089521MD1710051+9999REMSYN070AAXX  28181 53192 32980 00000 11172 21198 38952 40370 57005 333 11085;EQDQ01  00002PRCP99
0122531920999992000022821004+44020+114950FM-12+112899999V0209999C000012200019N0300001N1-02011-02261103671ADDGA1001+999999999GF100991001001999999001001MD1710101+9999REMSYN054AAXX  28211 53192 42980 00000 11201 21226 40367 57010;
0183531920999992000022900004+44020+114950FM-12+112899999V0209999C000012200019N0200001N1-01841-02111103701ADDAA199000091GA1001+999999999GF100991001001999999001001MA1999999089391MD1710031+0041REMSYN070AAXX  29001 53192 32970 00000 11184 21211 38939 40370 57003 333 05407;EQDQ01  00002PRCP99
0122531920999992000022903004+44020+114950FM-12+112899999V0202901N001012200019N0300001N1-01081-01511103561ADDGA1001+999999999GF100991001001999999001001MD1210021+9999REMSYN054AAXX  29031 53192 42980 02901 11108 21151 40356 52002;
0196531920999992000022906004+44020+114950FM-12+112899999V0202501N001012200019N0300001N1-00481-01111103281ADDAA199000091GA1001+999999999GF100991001001999999001001KA1999N-02111MA1999999089291MD1710121+9999REMSYN070AAXX  29061 53192 32980 02501 11048 21111 38929 40328 57012 333 21211;EQDQ01  00002PRCP99
0122531920999992000022909004+44020+114950FM-12+112899999V0209999C000012200019N0300001N1-00401-01041103241ADDGA1001+999999999GF100991001001999999001001MD1710081+9999REMSYN054AAXX  29091 53192 42980 00000 11040 21104 40324 57008;
0173531920999992000022912004+44020+114950FM-12+112899999V0209999C000012200019N0300001N1-01041-01401103351ADDAA199000091GA1001+999999999GF100991001001999999001001MA1999999089191MD1710021+9999REMSYN060AAXX  29121 53192 32980 00000 11104 21140 38919 40335 57002;EQDQ01  00002PRCP99
0122531920999992000022915004+44020+114950FM-12+112899999V0209999C000012200019N0300001N1-01461-01791103231ADDGA1001+999999999GF100991001001999999001001MD1710021+9999REMSYN054AAXX  29151 53192 42980 00000 11146 21179 40323 57002;
0196531920999992000022918004+44020+114950FM-12+112899999V0209999C000012200019N0300001N1-01821-02111103071ADDAA199000091GA1001+999999999GF100991001001999999001001KA1999M-00381MA1999999089091MD1710081+9999REMSYN070AAXX  29181 53192 32980 00000 11182 21211 38909 40307 57008 333 11038;EQDQ01  00002PRCP99
0122531920999992000022921004+44020+114950FM-12+112899999V0200701N003012200019N0300001N1-01601-01911102881ADDGA1001+999999999GF100991001001999999001001MD1710091+9999REMSYN054AAXX  29211 53192 42980 00703 11160 21191 40288 57009;
0173531920999992000030100004+44020+114950FM-12+112899999V0209999C000012200019N0250001N1-01721-02041103131ADDAA199000091GF101991001001999999001021MA1999999089031MD1210031+0041REMSYN076AAXX  01001 53192 32975 10000 11172 21204 38903 40313 52003 80002 333 05401;EQDQ01  00002PRCP99
0122531920999992000030103004+44020+114950FM-12+112899999V0201401N001012200019N0300001N1-00861-01361103021ADDGA1001+999999999GF100991001001999999001001MD1210011+9999REMSYN054AAXX  01031 53192 42980 01401 11086 21136 40302 52001;
0196531920999992000030106004+44020+114950FM-12+112899999V0202501N002012200019N0300001N1-00421-01061102891ADDAA199000091GA1001+999999999GF100991001001999999001001KA1999N-02061MA1999999088951MD1710091+9999REMSYN070AAXX  01061 53192 32980 02502 11042 21106 38895 40289 57009 333 21206;EQDQ01  00002PRCP99
0122531920999992000030109004+44020+114950FM-12+112899999V0201801N002012200019N0300001N1-00461-01031102801ADDGA1001+999999999GF100991001001999999001001MD1710041+9999REMSYN054AAXX  01091 53192 42980 01802 11046 21103 40280 57004;
0173531920999992000030112004+44020+114950FM-12+112899999V0200901N001012200019N0300001N1-01011-01371102961ADDAA199000091GA1001+999999999GF100991001001999999001001MA1999999088891MD1710021+9999REMSYN060AAXX  01121 53192 32980 00901 11101 21137 38889 40296 57002;EQDQ01  00002PRCP99
0122531920999992000030115004+44020+114950FM-12+112899999V0209999C000012200019N0300001N1-01601-01861102891ADDGA1001+999999999GF100991001001999999001001MD1410001+9999REMSYN054AAXX  01151 53192 42980 00000 11160 21186 40289 54000;
0196531920999992000030118004+44020+114950FM-12+112899999V0200401N002012200019N0300001N1-01681-01941102691ADDAA199000091GA1001+999999999GF100991001001999999001001KA1999M-00261MA1999999088811MD1710081+9999REMSYN070AAXX  01181 53192 32980 00402 11168 21194 38881 40269 57008 333 11026;EQDQ01  00002PRCP99
0122531920999992000030121004+44020+114950FM-12+112899999V0200701N001012200019N0300001N1-01561-01801102431ADDGA1001+999999999GF100991001001999999001001MD1710211+9999REMSYN054AAXX  01211 53192 42980 00701 11156 21180 40243 57021;
0173531920999992000030200004+44020+114950FM-12+112899999V0209999C000019999999N0200001N1-01861-02131102641ADDAA199000091GF106991001001999999001021MA1999999088581MD1710021+0051REMSYN076AAXX  02001 53192 32970 60000 11186 21213 38858 40264 57002 80002 333 05551;EQDQ01  00002PRCP99
0112531920999992000030203004+44020+114950FM-12+112899999V0202701N003012200019N0300001N1-00801-01311102451ADDGF102991001001999999001021MD1710051+9999REMSYN060AAXX  02031 53192 42980 22703 11080 21131 40245 57005 80002;
0186531920999992000030206004+44020+114950FM-12+112899999V0202001N004019999999N0300001N1-00201-00781102111ADDAA199000091GF107991001001999999001021KA1999N-02111MA1999999088361MD1710171+9999REMSYN076AAXX  02061 53192 32980 72004 11020 21078 38836 40211 57017 80002 333 21211;EQDQ01  00002PRCP99
0112531920999992000030209004+44020+114950FM-12+112899999V0202501N001012200019N0300001N1-00161-00641101921ADDGF102991001001999999001021MD1710131+9999REMSYN060AAXX  02091 53192 42980 22501 11016 21064 40192 57013 80002;
0163531920999992000030212004+44020+114950FM-12+112899999V0202501N003012200019N0300001N1-00561-01031102231ADDAA199000091GF101991001001999999001021MA1999999088331MD1210101+9999REMSYN066AAXX  02121 53192 32980 12503 11056 21103 38833 40223 52010 80002;EQDQ01  00002PRCP99
0122531920999992000030215004+44020+114950FM-12+112899999V0202501N008012200019N0300001N1-00891-01501102181ADDGA1001+999999999GF100991001001999999001001MD1210141+9999REMSYN054AAXX  02151 53192 42980 02508 11089 21150 40218 52014;
0196531920999992000030218004+44020+114950FM-12+112899999V0202501N004012200019N0300001N1-01201-01721102131ADDAA199000091GA1001+999999999GF100991001001999999001001KA1999M-00081MA1999999088491MD1210021+9999REMSYN070AAXX  02181 53192 32980 02504 11120 21172 38849 40213 52002 333 11008;EQDQ01  00002PRCP99
0122531920999992000030221004+44020+114950FM-12+112899999V0202701N003012200019N0300001N1-01261-01781102131ADDGA1001+999999999GF100991001001999999001001MD1410001+9999REMSYN054AAXX  02211 53192 42980 02703 11126 21178 40213 54000;
0173531920999992000030300004+44020+114950FM-12+112899999V0202701N002012200019N0300001N1-01491-01951102481ADDAA199000091GF101991001001999999001021MA1999999088641MD1210151+0011REMSYN076AAXX  03001 53192 32980 12702 11149 21195 38864 40248 52015 80002 333 00104;EQDQ01  00002PRCP99
0122531920999992000030303004+44020+114950FM-12+112899999V0202501N002012200019N0300001N1-00901-01511102571ADDGA1001+999999999GF100991001001999999001001MD1210141+9999REMSYN054AAXX  03031 53192 42980 02502 11090 21151 40257 52014;
0186531920999992000030306004+44020+114950FM-12+112899999V0202501N004012200019N0300001N1-00621-01211102571ADDAA199000091GF102991011001999999031021KA1999N-01551MA1999999088771MD1710011+9999REMSYN076AAXX  03061 53192 32980 22504 11062 21121 38877 40257 57001 81032 333 21155;EQDQ01  00002PRCP99
0112531920999992000030309004+44020+114950FM-12+112899999V0202501N006012200019N0300001N1-00571-01041102601ADDGF101991001001999999001021MD1210031+9999REMSYN060AAXX  03091 53192 42980 12506 11057 21104 40260 52003 80002;
0173531920999992000030312004+44020+114950FM-12+112899999V0202501N003012200019N0300001N1-01181-01501102981ADDAA199000091GA1001+999999999GF100991001001999999001001MA1999999088921MD1210121+9999REMSYN060AAXX  03121 53192 32980 02503 11118 21150 38892 40298 52012;EQDQ01  00002PRCP99
0122531920999992000030315004+44020+114950FM-12+112899999V0202701N005012200019N0300001N1-01181-01541103001ADDGA1001+999999999GF100991001001999999001001MD1210161+9999REMSYN054AAXX  03151 53192 42980 02705 11118 21154 40300 52016;
0196531920999992000030318004+44020+114950FM-12+112899999V0203201N007012200019N0300001N1-01231-01601103131ADDAA199000091GA1001+999999999GF100991001001999999001001KA1999M-00461MA1999999089251MD1210171+9999REMSYN070AAXX  03181 53192 32980 03207 11123 21160 38925 40313 52017 333 11046;EQDQ01  00002PRCP99
0122531920999992000030321004+44020+114950FM-12+112899999V0209999C000012200019N0300001N1-01481-01921103261ADDGA1001+999999999GF100991001001999999001001MD1210061+9999REMSYN054AAXX  03211 53192 42980 00000 11148 21192 40326 52006;
0183531920999992000030400004+44020+114950FM-12+112899999V0202501N002012200019N0250001N1-01821-02241103661ADDAA199000091GA1001+999999999GF100991001001999999001001MA1999999089421MD1210111+0081REMSYN070AAXX  04001 53192 32975 02502 11182 21224 38942 40366 52011 333 00853;EQDQ01  00002PRCP99
0122531920999992000030403004+44020+114950FM-12+112899999V0202501N006012200019N0300001N1-01281-01691103501ADDGA1001+999999999GF100991001001999999001001MD1410001+9999REMSYN054AAXX  04031 53192 42980 02506 11128 21169 40350 54000;
0196531920999992000030406004+44020+114950FM-12+112899999V0202501N007012200019N0300001N1-00701-01231103111ADDAA199000091GA1001+999999999GF100991001001999999001001KA1999N-01951MA1999999089211MD1710211+9999REMSYN070AAXX  04061 53192 32980 02507 11070 21123 38921 40311 57021 333 21195;EQDQ01  00002PRCP99
0122531920999992000030409004+44020+114950FM-12+112899999V0202501N005012200019N0300001N1-00611-01151102921ADDGA1001+999999999GF100991001001999999001001MD1710201+9999REMSYN054AAXX  04091 53192 42980 02505 11061 21115 40292 57020;
0173531920999992000030412004+44020+114950FM-12+112899999V0202701N002012200019N0300001N1-01271-01621103071ADDAA199000091GA1001+999999999GF100991001001999999001001MA1999999088891MD1710121+9999REMSYN060AAXX  04121 53192 32980 02702 11127 21162 38889 40307 57012;EQDQ01  00002PRCP99
0122531920999992000030415004+44020+114950FM-12+112899999V0202501N003012200019N0300001N1-01411-01831102761ADDGA1001+999999999GF100991001001999999001001MD1710171+9999REMSYN054AAXX  04151 53192 42980 02503 11141 21183 40276 57017;
0196531920999992000030418004+44020+114950FM-12+112899999V0202701N003012200019N0300001N1-01661-02071102431ADDAA199000091GA1001+999999999GF100991001001999999001001KA1999M-00551MA1999999088521MD1710201+9999REMSYN070AAXX  04181 53192 32980 02703 11166 21207 38852 40243 57020 333 11055;EQDQ01  00002PRCP99
0122531920999992000030421004+44020+114950FM-12+112899999V0209999C000012200019N0300001N1-01651-02081102121ADDGA1001+999999999GF100991001001999999001001MD1710241+9999REMSYN054AAXX  04211 53192 42980 00000 11165 21208 40212 57024;
0173531920999992000030500004+44020+114950FM-12+112899999V0209999C000012200019N0300001N1-01631-02081102211ADDAA199000091GF102991001001999999001021MA1999999088201MD1710081+0121REMSYN076AAXX  05001 53192 32980 20000 11163 21208 38820 40221 57008 80002 333 06202;EQDQ01  00002PRCP99
0112531920999992000030503004+44020+114950FM-12+112899999V0202501N002019999999N0300001N1-01041-01631102071ADDGF106991001001999999001021MD1710011+9999REMSYN060AAXX  05031 53192 42980 62502 11104 21163 40207 57001 80002;
0196531920999992000030506004+44020+114950FM-12+112899999V0202901N007012200019N0300001N1-00601-01281102051ADDAA199000091GA1001+999999999GF100991001001999999001001KA1999N-01801MA1999999088221MD1210031+9999REMSYN070AAXX  05061 53192 32980 02907 11060 21128 38822 40205 52003 333 21180;EQDQ01  00002PRCP99
0112531920999992000030509004+44020+114950FM-12+112899999V0203201N007019999999N0300001N1-00841-01601102261ADDGF105991001001999999001021MD1210121+9999REMSYN060AAXX  05091 53192 42980 53207 11084 21160 40226 52012 80002;
0173531920999992000030512004+44020+114950FM-12+112899999V0203201N006012200019N0300001N1-01451-02101102781ADDAA199000091GA1001+999999999GF100991001001999999001001MA1999999088641MD1210301+9999REMSYN060AAXX  05121 53192 32980 03206 11145 21210 38864 40278 52030;EQDQ01  00002PRCP99
0122531920999992000030515004+44020+114950FM-12+112899999V0203401N005012200019N0300001N1-01801-02451102961ADDGA1001+999999999GF100991001001999999001001MD1210221+9999REMSYN054AAXX  05151 53192 42980 03405 11180 21245 40296 52022;
0196531920999992000030518004+44020+114950FM-12+112899999V0203601N002012200019N0300001N1-02031-02631102991ADDAA199000091GA1001+999999999GF100991001001999999001001KA1999M-00581MA1999999088941MD1210081+9999REMSYN070AAXX  05181 53192 32980 03602 11203 21263 38894 40299 52008 333 11058;EQDQ01  00002PRCP99
0122531920999992000030521004+44020+114950FM-12+112899999V0202701N001012200019N0300001N1-02481-02951103361ADDGA1001+999999999GF100991001001999999001001MD1210141+9999REMSYN054AAXX  05211 53192 42980 02701 11248 21295 40336 52014;
0173531920999992000030600004+44020+114950FM-12+112899999V0202701N002012200019N0300001N1-02471-02921103631ADDAA199000091GF101991001001999999001021MA1999999089161MD1210081+0101REMSYN076AAXX  06001 53192 32980 12702 11247 21292 38916 40363 52008 80002 333 01058;EQDQ01  00002PRCP99
0112531920999992000030603004+44020+114950FM-12+112899999V0202501N004019999999N0300001N1-01731-02291103651ADDGF106991021001999999031021MD1210121+9999REMSYN060AAXX  06031 53192 42980 62504 11173 21229 40365 52012 82032;
0186531920999992000030606004+44020+114950FM-12+112899999V0202901N006012200019N0300001N1-01321-02021103571ADDAA199000091GF101991001001999999001021KA1999N-02621MA1999999089261MD1710021+9999REMSYN076AAXX  06061 53192 32980 12906 11132 21202 38926 40357 57002 80002 333 21262;EQDQ01  00002PRCP99
0112531920999992000030609004+44020+114950FM-12+112899999V0202501N005012200019N0300001N1-01221-01861103631ADDGF101991001001999999001021MD1710041+9999REMSYN060AAXX  06091 53192 42980 12505 11122 21186 40363 57004 80002;
0163531920999992000030612004+44020+114950FM-12+112899999V0209999C000012200019N0250001N1-01671-02211103821ADDAA199000091GF101991001001999999001021MA1999999089271MD1210051+9999REMSYN066AAXX  06121 53192 32975 10000 11167 21221 38927 40382 52005 80002;EQDQ01  00002PRCP99
0122531920999992000030615004+44020+114950FM-12+112899999V0203201N002012200019N0300001N1-01971-02441103881ADDGA1001+999999999GF100991001001999999001001MD1210161+9999REMSYN054AAXX  06151 53192 42980 03202 11197 21244 40388 52016;
0196531920999992000030618004+44020+114950FM-12+112899999V0202901N001012200019N0300001N1-02261-02701103911ADDAA199000091GA1001+999999999GF100991001001999999001001KA1999M-01181MA1999999089491MD1210061+9999REMSYN070AAXX  06181 53192 32980 02901 11226 21270 38949 40391 52006 333 11118;EQDQ01  00002PRCP99
0122531920999992000030621004+44020+114950FM-12+112899999V0202501N003012200019N0300001N1-02711-03071103931ADDGA1001+999999999GF100991001001999999001001MD1710071+9999REMSYN054AAXX  06211 53192 42980 02503 11271 21307 40393 57007;
0173531920999992000030700004+44020+114950FM-12+112899999V0209999C000012200019N0250001N1-02531-02861103901ADDAA199000091GF102991001001999999001021MA1999999089321MD1710101+0021REMSYN076AAXX  07001 53192 32975 20000 11253 21286 38932 40390 57010 80002 333 00251;EQDQ01  00002PRCP99
0112531920999992000030703004+44020+114950FM-12+112899999V0202501N007019999999N0300001N1-01461-01991103541ADDGF106991001001999999001021MD1710111+9999REMSYN060AAXX  07031 53192 42980 62507 11146 21199 40354 57011 80002;
0186531920999992000030706004+44020+114950FM-12+112899999V0202701N009012200019N0300001N1-00961-01541103251ADDAA199000091GF102991001001999999001021KA1999N-02771MA1999999089011MD1710201+9999REMSYN076AAXX  07061 53192 32980 22709 11096 21154 38901 40325 57020 80002 333 21277;EQDQ01  00002PRCP99
0112531920999992000030709004+44020+114950FM-12+112899999V0202701N008019999999N0250001N1-00781-01391103141ADDGF106991001001999999001021MD1710161+9999REMSYN060AAXX  07091 53192 42975 62708 11078 21139 40314 57016 80002;
0173531920999992000030712004+44020+114950FM-12+112899999V0202901N004012200019N0300001N1-01131-01561103201ADDAA199000091GA1001+999999999GF100991001001999999001001MA1999999088861MD1210011+9999REMSYN060AAXX  07121 53192 32980 02904 11113 21156 38886 40320 52001;EQDQ01  00002PRCP99
0122531920999992000030715004+44020+114950FM-12+112899999V0209999C000012200019N0300001N1-01441-01791103071ADDGA1001+999999999GF100991001001999999001001MD1210081+9999REMSYN054AAXX  07151 53192 42980 00000 11144 21179 40307 52008;
0196531920999992000030718004+44020+114950FM-12+112899999V0209999C000012200019N0300001N1-01411-01831102921ADDAA199000091GA1001+999999999GF100991001001999999001001KA1999M-00701MA1999999088941MD1410001+9999REMSYN070AAXX  07181 53192 32980 00000 11141 21183 38894 40292 54000 333 11070;EQDQ01  00002PRCP99
0122531920999992000030721004+44020+114950FM-12+112899999V0209999C000012200019N0300001N1-01701-02111102941ADDGA1001+999999999GF100991001001999999001001MD1710011+9999REMSYN054AAXX  07211 53192 42980 00000 11170 21211 40294 57001;
0183531920999992000030800004+44020+114950FM-12+112899999V0202701N001012200019N0300001N1-01751-02141103301ADDAA199000091GA1001+999999999GF100991001001999999001001MA1999999089141MD1210211+0021REMSYN070AAXX  08001 53192 32980 02701 11175 21214 38914 40330 52021 333 05208;EQDQ01  00002PRCP99
0122531920999992000030803004+44020+114950FM-12+112899999V0202701N004012200019N0300001N1-01041-01591103381ADDGA1001+999999999GF100991001001999999001001MD1210171+9999REMSYN054AAXX  08031 53192 42980 02704 11104 21159 40338 52017;
0196531920999992000030806004+44020+114950FM-12+112899999V0202701N007012200019N0300001N1-00761-01421103281ADDAA199000091GA1001+999999999GF100991001001999999001001KA1999N-02031MA1999999089301MD1710011+9999REMSYN070AAXX  08061 53192 32980 02707 11076 21142 38930 40328 57001 333 21203;EQDQ01  00002PRCP99
0112531920999992000030809004+44020+114950FM-12+112899999V0202501N006012200019N0300001N1-00661-01271103251ADDGF101991001001999999001021MD1710071+9999REMSYN060AAXX  08091 53192 42980 12506 11066 21127 40325 57007 80002;
0173531920999992000030812004+44020+114950FM-12+112899999V0202701N004012200019N0300001N1-01201-01571103441ADDAA199000091GA1001+999999999GF100991001001999999001001MA1999999089251MD1210021+9999REMSYN060AAXX  08121 53192 32980 02704 11120 21157 38925 40344 52002;EQDQ01  00002PRCP99
0122531920999992000030815004+44020+114950FM-12+112899999V0209999C000012200019N0300001N1-01431-01741103341ADDGA1001+999999999GF100991001001999999001001MD1210031+9999REMSYN054AAXX  08151 53192 42980 00000 11143 21174 40334 52003;
0196531920999992000030818004+44020+114950FM-12+112899999V0209999C000012200019N0300001N1-01661-01921103311ADDAA199000091GA1001+999999999GF100991001001999999001001KA1999M-00621MA1999999089271MD1710011+9999REMSYN070AAXX  08181 53192 32980 00000 11166 21192 38927 40331 57001 333 11062;EQDQ01  00002PRCP99
0112531920999992000030821004+44020+114950FM-12+112899999V0209999C000012200019N0300001N1-01781-02041103261ADDGF101991001001999999001021MD1710051+9999REMSYN060AAXX  08211 53192 42980 10000 11178 21204 40326 57005 80002;
0183531920999992000030900004+44020+114950FM-12+112899999V0209999C000012200019N0250001N1-01741-02011103421ADDAA199000091GA1001+999999999GF100991001001999999001001MA1999999089231MD1210011+0011REMSYN070AAXX  09001 53192 32975 00000 11174 21201 38923 40342 52001 333 00100;EQDQ01  00002PRCP99
0122531920999992000030903004+44020+114950FM-12+112899999V0202701N004012200019N0300001N1-00941-01401103351ADDGA1001+999999999GF100991001001999999001001MD1210081+9999REMSYN054AAXX  09031 53192 42980 02704 11094 21140 40335 52008;
0186531920999992000030906004+44020+114950FM-12+112899999V0202701N006012200019N0300001N1-00441-01101103211ADDAA199000091GF102991001001999999001021KA1999N-01851MA1999999089261MD1710051+9999REMSYN076AAXX  09061 53192 32980 22706 11044 21110 38926 40321 57005 80002 333 21185;EQDQ01  00002PRCP99
0173531920999992000030912004+44020+114950FM-12+112899999V0209999C000012200019N0300001N1-00981-01401103381ADDAA199000091GA1001+999999999GF100991001001999999001001MA1999999089251MD1210021+9999REMSYN060AAXX  09121 53192 32980 00000 11098 21140 38925 40338 52002;EQDQ01  00002PRCP99
0122531920999992000030915004+44020+114950FM-12+112899999V0209999C000012200019N0300001N1-01161-01501103221ADDGA1001+999999999GF100991001001999999001001MD1210021+9999REMSYN054AAXX  09151 53192 42980 00000 11116 21150 40322 52002;
0196531920999992000030918004+44020+114950FM-12+112899999V0209999C000012200019N0300001N1-01441-01741103181ADDAA199000091GA1001+999999999GF100991001001999999001001KA1999M-00301MA1999999089291MD1210021+9999REMSYN070AAXX  09181 53192 32980 00000 11144 21174 38929 40318 52002 333 11030;EQDQ01  00002PRCP99
0122531920999992000030921004+44020+114950FM-12+112899999V0209999C000012200019N0300001N1-01681-01951103191ADDGA1001+999999999GF100991001001999999001001MD1710041+9999REMSYN054AAXX  09211 53192 42980 00000 11168 21195 40319 57004;
0183531920999992000031000004+44020+114950FM-12+112899999V0209999C000012200019N0200001N1-01741-02011103381ADDAA199000091GA1001+999999999GF100991001001999999001001MA1999999089251MD1410001+0001REMSYN070AAXX  10001 53192 32970 00000 11174 21201 38925 40338 54000 333 00000;EQDQ01  00002PRCP99
0122531920999992000031003004+44020+114950FM-12+112899999V0202001N001012200019N0300001N1-00701-01231103161ADDGA1001+999999999GF100991001001999999001001MD1210021+9999REMSYN054AAXX  10031 53192 42980 02001 11070 21123 40316 52002;
0186531920999992000031006004+44020+114950FM-12+112899999V0202501N006012200019N0300001N1-00221-00861102921ADDAA199000091GF101991001001999999001021KA1999N-02011MA1999999089111MD1710161+9999REMSYN076AAXX  10061 53192 32980 12506 11022 21086 38911 40292 57016 80002 333 21201;EQDQ01  00002PRCP99
0112531920999992000031009004+44020+114950FM-12+112899999V0202501N005012200019N0300001N1-00181-00751102871ADDGF101991001001999999001021MD1710091+9999REMSYN060AAXX  10091 53192 42980 12505 11018 21075 40287 57009 80002;
0173531920999992000031012004+44020+114950FM-12+112899999V0202501N002012200019N0300001N1-00691-01021102941ADDAA199000091GA1001+999999999GF100991001001999999001001MA1999999088941MD1710081+9999REMSYN060AAXX  10121 53192 32980 02502 11069 21102 38894 40294 57008;EQDQ01  00002PRCP99
0122531920999992000031015004+44020+114950FM-12+112899999V0209999C000012200019N0300001N1-00921-01321102791ADDGA1001+999999999GF100991001001999999001001MD1210071+9999REMSYN054AAXX  10151 53192 42980 00000 11092 21132 40279 52007;
0196531920999992000031018004+44020+114950FM-12+112899999V0209999C000012200019N0300001N1-01141-01481102711ADDAA199000091GA1001+999999999GF100991001001999999001001KA1999M-00021MA1999999089001MD1710011+9999REMSYN070AAXX  10181 53192 32980 00000 11114 21148 38900 40271 57001 333 11002;EQDQ01  00002PRCP99
0122531920999992000031021004+44020+114950FM-12+112899999V0209999C000012200019N0300001N1-01451-01751102661ADDGA1001+999999999GF100991001001999999001001MD1710101+9999REMSYN054AAXX  10211 53192 42980 00000 11145 21175 40266 57010;
0183531920999992000031100004+44020+114950FM-12+112899999V0209999C000012200019N0200001N1-01301-01641102761ADDAA199000091GA1001+999999999GF100991001001999999001001MA1999999088901MD1410001+0041REMSYN070AAXX  11001 53192 32970 00000 11130 21164 38890 40276 54000 333 05404;EQDQ01  00002PRCP99
0122531920999992000031103004+44020+114950FM-12+112899999V0202701N002012200019N0300001N1-00481-01161102621ADDGA1001+999999999GF100991001001999999001001MD1210021+9999REMSYN054AAXX  11031 53192 42980 02702 11048 21116 40262 52002;
0196531920999992000031106004+44020+114950FM-12+112899999V0202701N004012200019N0300001N1-00101-00841102471ADDAA199000091GA1001+999999999GF100991001001999999001001KA1999N-01651MA1999999088821MD1710101+9999REMSYN070AAXX  11061 53192 32980 02704 11010 21084 38882 40247 57010 333 21165;EQDQ01  00002PRCP99
0122531920999992000031109004+44020+114950FM-12+112899999V0202501N004012200019N0300001N1-00061-00741102471ADDGA1001+999999999GF100991001001999999001001MD1710061+9999REMSYN054AAXX  11091 53192 42980 02504 11006 21074 40247 57006;
0173531920999992000031112004+44020+114950FM-12+112899999V0202901N002012200019N0300001N1-00451-00921102591ADDAA199000091GA1001+999999999GF100991001001999999001001MA1999999088811MD1210051+9999REMSYN060AAXX  11121 53192 32980 02902 11045 21092 38881 40259 52005;EQDQ01  00002PRCP99
0122531920999992000031115004+44020+114950FM-12+112899999V0209999C000012200019N0300001N1-00701-01131102461ADDGA1001+999999999GF100991001001999999001001MD1210021+9999REMSYN054AAXX  11151 53192 42980 00000 11070 21113 40246 52002;
0196531920999992000031118004+44020+114950FM-12+112899999V0209999C000012200019N0300001N1-01101-01421102431ADDAA199000091GA1001+999999999GF100991001001999999001001KA1999M+00061MA1999999088801MD1710031+9999REMSYN070AAXX  11181 53192 32980 00000 11110 21142 38880 40243 57003 333 10006;EQDQ01  00002PRCP99
0122531920999992000031121004+44020+114950FM-12+112899999V0209999C000012200019N0300001N1-01201-01491102321ADDGA1001+999999999GF100991001001999999001001MD1710111+9999REMSYN054AAXX  11211 53192 42980 00000 11120 21149 40232 57011;
0183531920999992000031200004+44020+114950FM-12+112899999V0209999C000012200019N0250001N1-00961-01321102351ADDAA199000091GA1001+999999999GF100991001001999999001001MA1999999088681MD1710011+0021REMSYN070AAXX  12001 53192 32975 00000 11096 21132 38868 40235 57001 333 05203;EQDQ01  00002PRCP99
0112531920999992000031203004+44020+114950FM-12+112899999V0202501N002012200019N0300001N1-00351-01051102361ADDGF101991001001999999001021MD1210091+9999REMSYN060AAXX  12031 53192 42980 12502 11035 21105 40236 52009 80002;
0186531920999992000031206004+44020+114950FM-12+112899999V0202501N003012200019N0300001N1+00021-01011102331ADDAA199000091GF101991001001999999001021KA1999N-01301MA1999999088741MD1710031+9999REMSYN076AAXX  12061 53192 32980 12503 10002 21101 38874 40233 57003 80002 333 21130;EQDQ01  00002PRCP99
0112531920999992000031209004+44020+114950FM-12+112899999V0202901N001012200019N0300001N1+00041-01081102371ADDGF101991001001999999001021MD1210021+9999REMSYN060AAXX  12091 53192 42980 12901 10004 21108 40237 52002 80002;
0163531920999992000031212004+44020+114950FM-12+112899999V0209999C000012200019N0300001N1-00421-00881102481ADDAA199000091GF101991001001999999001021MA1999999088801MD1210041+9999REMSYN066AAXX  12121 53192 32980 10000 11042 21088 38880 40248 52004 80002;EQDQ01  00002PRCP99
0112531920999992000031215004+44020+114950FM-12+112899999V0209999C000012200019N0300001N1-00711-01091102491ADDGF101991001001999999001021MD1210081+9999REMSYN060AAXX  12151 53192 42980 10000 11071 21109 40249 52008 80002;
0196531920999992000031218004+44020+114950FM-12+112899999V0200201N004012200019N0300001N1-00781-01451102521ADDAA199000091GA1001+999999999GF100991001001999999001001KA1999M+00081MA1999999088981MD1210101+9999REMSYN070AAXX  12181 53192 32980 00204 11078 21145 38898 40252 52010 333 10008;EQDQ01  00002PRCP99
0122531920999992000031221004+44020+114950FM-12+112899999V0200201N001012200019N0300001N1-00991-01591102631ADDGA1001+999999999GF100991001001999999001001MD1210051+9999REMSYN054AAXX  12211 53192 42980 00201 11099 21159 40263 52005;
0183531920999992000031300004+44020+114950FM-12+112899999V0200201N003012200019N0300001N1-01091-01621102951ADDAA199000091GA1001+999999999GF100991001001999999001001MA1999999089181MD1210151+0051REMSYN070AAXX  13001 53192 32980 00203 11109 21162 38918 40295 52015 333 00551;EQDQ01  00002PRCP99
0122531920999992000031303004+44020+114950FM-12+112899999V0200901N003012200019N0300001N1-00321-01211102961ADDGA1001+999999999GF100991001001999999001001MD1210121+9999REMSYN054AAXX  13031 53192 42980 00903 11032 21121 40296 52012;
0196531920999992000031306004+44020+114950FM-12+112899999V0201101N003012200019N0300001N1-00021-01091102831ADDAA199000091GA1001+999999999GF100991001001999999001001KA1999N-01211MA1999999089241MD1710061+9999REMSYN070AAXX  13061 53192 32980 01103 11002 21109 38924 40283 57006 333 21121;EQDQ01  00002PRCP99
0112531920999992000031309004+44020+114950FM-12+112899999V0200901N003012200019N0300001N1-00041-01031102851ADDGF101991001001999999001021MD1710041+9999REMSYN060AAXX  13091 53192 42980 10903 11004 21103 40285 57004 80002;
0173531920999992000031312004+44020+114950FM-12+112899999V0200901N001012200019N0300001N1-00411-01051102941ADDAA199000091GA1001+999999999GF100991001001999999001001MA1999999089171MD1710031+9999REMSYN060AAXX  13121 53192 32980 00901 11041 21105 38917 40294 57003;EQDQ01  00002PRCP99
0122531920999992000031315004+44020+114950FM-12+112899999V0200201N002012200019N0300001N1-00641-01141102811ADDGA1001+999999999GF100991001001999999001001MD1210011+9999REMSYN054AAXX  13151 53192 42980 00202 11064 21114 40281 52001;
0186531920999992000031318004+44020+114950FM-12+112899999V0209999C000012200019N0300001N1-00691-01261102661ADDAA199000091GF102991001001999999001021KA1999M+00041MA1999999089111MD1710071+9999REMSYN076AAXX  13181 53192 32980 20000 11069 21126 38911 40266 57007 80002 333 10004;EQDQ01  00002PRCP99
0112531920999992000031321004+44020+114950FM-12+112899999V0200901N003019999999N0300001N1-00441-01301102371ADDGF107991001001999999001021MD1710201+9999REMSYN060AAXX  13211 53192 42980 70903 11044 21130 40237 57020 80002;
0173531920999992000031400004+44020+114950FM-12+112899999V0200701N004010900019N0250001N1-00501-01351102331ADDAA199000091GF106991021091008001001021MA1999999088781MD1710131+0041REMSYN076AAXX  14001 53192 32575 60704 11050 21135 38878 40233 57013 82902 333 05406;EQDQ01  00002PRCP99
0112531920999992000031403004+44020+114950FM-12+112899999V0201101N004012200019N0250001N1-00091-00741102011ADDGF101991001001999999001021MD1710241+9999REMSYN060AAXX  14031 53192 42975 11104 11009 21074 40201 57024 80002;
0186531920999992000031406004+44020+114950FM-12+112899999V0202701N002012200019N0300001N1+00351-00651101671ADDAA199000091GF104991001001999999001021KA1999N-00761MA1999999088341MD1710201+9999REMSYN076AAXX  14061 53192 32980 42702 10035 21065 38834 40167 57020 80002 333 21076;EQDQ01  00002PRCP99
0112531920999992000031409004+44020+114950FM-12+112899999V0202701N005012200019N0300001N1+00261-00591101641ADDGF103991001001999999001021MD1210011+9999REMSYN060AAXX  14091 53192 42980 32705 10026 21059 40164 52001 80002;
0163531920999992000031412004+44020+114950FM-12+112899999V0200201N001012200019N0300001N1-00221-00581101921ADDAA199000091GF101991001001999999001021MA1999999088471MD1210121+9999REMSYN066AAXX  14121 53192 32980 10201 11022 21058 38847 40192 52012 80002;EQDQ01  00002PRCP99
0122531920999992000031415004+44020+114950FM-12+112899999V0200201N003012200019N0300001N1-00461-00771101911ADDGA1001+999999999GF100991001001999999001001MD1210031+9999REMSYN054AAXX  14151 53192 42980 00203 11046 21077 40191 52003;
0196531920999992000031418004+44020+114950FM-12+112899999V0200201N003012200019N0300001N1-00661-00941101831ADDAA199000091GA1001+999999999GF100991001001999999001001KA1999M+00441MA1999999088481MD1710021+9999REMSYN070AAXX  14181 53192 32980 00203 11066 21094 38848 40183 57002 333 10044;EQDQ01  00002PRCP99
0112531920999992000031421004+44020+114950FM-12+112899999V0200401N002012200019N0300001N1-00591-00821101831ADDGF104991001001999999001021MD1410001+9999REMSYN060AAXX  14211 53192 42980 40402 11059 21082 40183 54000 80002;
0173531920999992000031500004+44020+114950FM-12+112899999V0209999C000012200019N0300001N1-00671-00871102191ADDAA199000091GF104991011001999999031021MA1999999088661MD1210181+0011REMSYN076AAXX  15001 53192 32980 40000 11067 21087 38866 40219 52018 81032 333 05152;EQDQ01  00002PRCP99
0112531920999992000031503004+44020+114950FM-12+112899999V0202501N003010900019N0300001N1-00301-00611102271ADDGF107991041091008001001021MD1210101+9999REMSYN060AAXX  15031 53192 42580 72503 11030 21061 40227 52010 84902;
0186531920999992000031506004+44020+114950FM-12+112899999V0202501N005012200019N0300001N1+00021-00581102141ADDAA199000091GF102991021011012501001021KA1999N-00801MA1999999088681MD1710081+9999REMSYN076AAXX  15061 53192 32680 22505 10002 21058 38868 40214 57008 82102 333 21080;EQDQ01  00002PRCP99
0112531920999992000031509004+44020+114950FM-12+112899999V0202701N007012200019N0300001N1+00191-00481101931ADDGF101991011011012501001001MD1710131+9999REMSYN060AAXX  15091 53192 42680 12707 10019 21048 40193 57013 81100;
0173531920999992000031512004+44020+114950FM-12+112899999V0203401N002012200019N0300001N1-00201-00621102041ADDAA199000091GA1001+999999999GF100991001001999999001001MA1999999088541MD1710011+9999REMSYN060AAXX  15121 53192 32980 03402 11020 21062 38854 40204 57001;EQDQ01  00002PRCP99
0122531920999992000031515004+44020+114950FM-12+112899999V0209999C000012200019N0300001N1-00431-00811102021ADDGA1001+999999999GF100991001001999999001001MD1210011+9999REMSYN054AAXX  15151 53192 42980 00000 11043 21081 40202 52001;
0196531920999992000031518004+44020+114950FM-12+112899999V0202701N002012200019N0300001N1-00611-00881101851ADDAA199000091GA1001+999999999GF100991001001999999001001KA1999M+00271MA1999999088441MD1710111+9999REMSYN070AAXX  15181 53192 32980 02702 11061 21088 38844 40185 57011 333 10027;EQDQ01  00002PRCP99
0122531920999992000031521004+44020+114950FM-12+112899999V0209999C000012200019N0300001N1-00741-01081101721ADDGA1001+999999999GF100991001001999999001001MD1710111+9999REMSYN054AAXX  15211 53192 42980 00000 11074 21108 40172 57011;
0183531920999992000031600004+44020+114950FM-12+112899999V0209999C000012200019N0300001N1-00691-01071101791ADDAA199000091GA1001+999999999GF100991001001999999001001MA1999999088321MD1710011+0031REMSYN070AAXX  16001 53192 32980 00000 11069 21107 38832 40179 57001 333 05300;EQDQ01  00002PRCP99
0122531920999992000031603004+44020+114950FM-12+112899999V0202201N003012200019N0300001N1-00141-00861101701ADDGA1001+999999999GF100991001001999999001001MD1710011+9999REMSYN054AAXX  16031 53192 42980 02203 11014 21086 40170 57001;
0196531920999992000031606004+44020+114950FM-12+112899999V0202501N004012200019N0300001N1+00251-00891101471ADDAA199000091GA1001+999999999GF100991001001999999001001KA1999N-00851MA1999999088161MD1710151+9999REMSYN070AAXX  16061 53192 32980 02504 10025 21089 38816 40147 57015 333 21085;EQDQ01  00002PRCP99
0122531920999992000031609004+44020+114950FM-12+112899999V0202701N004012200019N0300001N1+00291-01111101441ADDGA1001+999999999GF100991001001999999001001MD1710051+9999REMSYN054AAXX  16091 53192 42980 02704 10029 21111 40144 57005;
0173531920999992000031612004+44020+114950FM-12+112899999V0209999C000012200019N0300001N1-00201-00781101551ADDAA199000091GA1001+999999999GF100991001001999999001001MA1999999088111MD1410001+9999REMSYN060AAXX  16121 53192 32980 00000 11020 21078 38811 40155 54000;EQDQ01  00002PRCP99
0122531920999992000031615004+44020+114950FM-12+112899999V0202701N001012200019N0300001N1-00391-00881101411ADDGA1001+999999999GF100991001001999999001001MD1710041+9999REMSYN054AAXX  16151 53192 42980 02701 11039 21088 40141 57004;
0196531920999992000031618004+44020+114950FM-12+112899999V0202201N002012200019N0300001N1-00501-00951101251ADDAA199000091GA1001+999999999GF100991001001999999001001KA1999M+00351MA1999999087991MD1710081+9999REMSYN070AAXX  16181 53192 32980 02202 11050 21095 38799 40125 57008 333 10035;EQDQ01  00002PRCP99
0122531920999992000031621004+44020+114950FM-12+112899999V0202501N003012200019N0300001N1-00591-01071101231ADDGA1001+999999999GF100991001001999999001001MD1710031+9999REMSYN054AAXX  16211 53192 42980 02503 11059 21107 40123 57003;
0183531920999992000031700004+44020+114950FM-12+112899999V0202501N001012200019N0300001N1-00621-01161101431ADDAA199000091GA1001+999999999GF100991001001999999001001MA1999999088021MD1210061+0031REMSYN070AAXX  17001 53192 32980 02501 11062 21116 38802 40143 52006 333 05301;EQDQ01  00002PRCP99
0122531920999992000031703004+44020+114950FM-12+112899999V0202001N003012200019N0300001N1+00001-00991101411ADDGA1001+999999999GF100991001001999999001001MD1210081+9999REMSYN054AAXX  17031 53192 42980 02003 10000 21099 40141 52008;
0186531920999992000031706004+44020+114950FM-12+112899999V0202501N006019999999N0300001N1+00481-01221101181ADDAA199000091GF106991001001999999001021KA1999N-00821MA1999999087981MD1710121+9999REMSYN076AAXX  17061 53192 32980 62506 10048 21122 38798 40118 57012 80002 333 21082;EQDQ01  00002PRCP99
0112531920999992000031709004+44020+114950FM-12+112899999V0209999C000010900019N0300001N1+00381-01151101131ADDGF107991041091008001001021MD1710081+9999REMSYN060AAXX  17091 53192 42580 70000 10038 21115 40113 57008 84902;
0163531920999992000031712004+44020+114950FM-12+112899999V0200701N004010360019N0300001N1+00081-00811101081ADDAA199000091GF107991021091008001031021MA1999999087781MD1710121+9999REMSYN066AAXX  17121 53192 32580 70704 10008 21081 38778 40108 57012 82932;EQDQ01  00002PRCP99
0112531920999992000031715004+44020+114950FM-12+112899999V0200701N011010075019N0250001N1-00201-00911100991ADDGF107991051091008001001021MD1410001+9999REMSYN060AAXX  17151 53192 42575 70711 11020 21091 40099 54000 85902;
0112531920999992000031721004+44020+114950FM-12+112899999V0200201N008010075019N0250001N1-00561-01171101701ADDGF107991061091008001001021MD1210451+9999REMSYN060AAXX  17211 53192 42575 70208 11056 21117 40170 52045 86902;
0196531920999992000031800004+44020+114950FM-12+112899999V0200201N007019999999N0250001N1-00811-01271102311ADDAA199000091GF105991011001999999031021MA1999999088801MD1210401+0801OA130601801REMSYN088AAXX  18001 53192 32975 50207 11081 21127 38880 40231 52040 81032 333 00852 91118 91504;EQDQ01  00002PRCP99
0112531920999992000031803004+44020+114950FM-12+112899999V0200201N008012200019N0300001N1-00441-01251102581ADDGF102991001001999999001021MD1210261+9999REMSYN060AAXX  18031 53192 42980 20208 11044 21125 40258 52026 80002;
0186531920999992000031806004+44020+114950FM-12+112899999V0203401N004012200019N0300001N1-00221-01251102611ADDAA199000091GF101991011011012501001021KA1999N-00861MA1999999089101MD1210041+9999REMSYN076AAXX  18061 53192 32680 13404 11022 21125 38910 40261 52004 81102 333 21086;EQDQ01  00002PRCP99
0112531920999992000031809004+44020+114950FM-12+112899999V0202901N005012200019N0300001N1-00061-01221102601ADDGF102991021011012501001021MD1710021+9999REMSYN060AAXX  18091 53192 42680 22905 11006 21122 40260 57002 82102;
0173531920999992000031812004+44020+114950FM-12+112899999V0202901N002012200019N0300001N1-00311-01191102841ADDAA199000091GA1001+999999999GF100991001001999999001001MA1999999089171MD1210091+9999REMSYN060AAXX  18121 53192 32980 02902 11031 21119 38917 40284 52009;EQDQ01  00002PRCP99
0122531920999992000031815004+44020+114950FM-12+112899999V0202701N002012200019N0300001N1-00581-01161102841ADDGA1001+999999999GF100991001001999999001001MD1210031+9999REMSYN054AAXX  18151 53192 42980 02702 11058 21116 40284 52003;
0196531920999992000031818004+44020+114950FM-12+112899999V0202701N002012200019N0300001N1-00691-01021102771ADDAA199000091GA1001+999999999GF100991001001999999001001KA1999M+00001MA1999999089161MD1710041+9999REMSYN070AAXX  18181 53192 32980 02702 11069 21102 38916 40277 57004 333 10000;EQDQ01  00002PRCP99
0122531920999992000031821004+44020+114950FM-12+112899999V0202501N002012200019N0300001N1-00801-01211102721ADDGA1001+999999999GF100991001001999999001001MD1710031+9999REMSYN054AAXX  18211 53192 42980 02502 11080 21121 40272 57003;
0173531920999992000031900004+44020+114950FM-12+112899999V0209999C000019999999N0300001N1-00611-01151102731ADDAA199000091GF105991001001999999001021MA1999999089121MD1710011+0031REMSYN076AAXX  19001 53192 32980 50000 11061 21115 38912 40273 57001 80002 333 00302;EQDQ01  00002PRCP99
0112531920999992000031903004+44020+114950FM-12+112899999V0202001N006019999999N0300001N1+00161-01161102491ADDGF106991001001999999001021MD1710091+9999REMSYN060AAXX  19031 53192 42980 62006 10016 21116 40249 57009 80002;
0186531920999992000031906004+44020+114950FM-12+112899999V0202001N006019999999N0250001N1+00481-01571102111ADDAA199000091GF106991001001999999001021KA1999N-00891MA1999999088751MD1710281+9999REMSYN076AAXX  19061 53192 32975 62006 10048 21157 38875 40211 57028 80002 333 21089;EQDQ01  00002PRCP99
0112531920999992000031909004+44020+114950FM-12+112899999V0202201N003019999999N0300001N1+00601-01381101881ADDGF106991001001999999001021MD1710201+9999REMSYN060AAXX  19091 53192 42980 62203 10060 21138 40188 57020 80002;
0173531920999992000031911004+44020+114950FM-12+112899999V0200201N003012200019N0300001N1-00321-00911101741ADDAA199000091GA1001+999999999GF100991001001999999001001MA1999999088511MD1710041+9999REMSYN060AAXX  19111 53192 32980 00203 11032 21091 38851 40174 57004;EQDQ01  00002PRCP99
0163531920999992000031912004+44020+114950FM-12+112899999V0200401N001019999999N0250001N1+00111-00811101951ADDAA199000091GF105991001001999999001021MA1999999088541MD1710011+9999REMSYN066AAXX  19121 53192 32975 50401 10011 21081 38854 40195 57001 80002;EQDQ01  00002PRCP99
0112531920999992000031915004+44020+114950FM-12+112899999V0200401N002019999999N0300001N1-00191-00811101831ADDGF105991001001999999001021MD1210011+9999REMSYN060AAXX  19151 53192 42980 50402 11019 21081 40183 52001 80002;
0196531920999992000031918004+44020+114950FM-12+112899999V0200201N003012200019N0300001N1-00321-00911101741ADDAA199000091GA1001+999999999GF100991001001999999001001KA1999M+00611MA1999999088511MD1710041+9999REMSYN070AAXX  19181 53192 32980 00203 11032 21091 38851 40174 57004 333 10061;EQDQ01  00002PRCP99
0112531920999992000031921004+44020+114950FM-12+112899999V0200201N002019999999N0300001N1-00371-00901101641ADDGF106991001001999999001021MD1710071+9999REMSYN060AAXX  19211 53192 42980 60202 11037 21090 40164 57007 80002;
0173531920999992000032000004+44020+114950FM-12+112899999V0200201N003019999999N0200001N1-00251-00901101891ADDAA199000091GF107991001001999999001021MA1999999088571MD1210131+0061REMSYN076AAXX  20001 53192 32970 70203 11025 21090 38857 40189 52013 80002 333 05604;EQDQ01  00002PRCP99
0112531920999992000032003004+44020+114950FM-12+112899999V0200701N004019999999N0300001N1+00041-00881102071ADDGF108991001001999999001071MD1210161+9999REMSYN060AAXX  20031 53192 42980 80704 10004 21088 40207 52016 80007;
0186531920999992000032006004+44020+114950FM-12+112899999V0200701N006019999999N0300001N1+00161-00951102021ADDAA199000091GF108991081001999999011999KA1999N-00521MA1999999088681MD1710051+9999REMSYN076AAXX  20061 53192 32980 80706 10016 21095 38868 40202 57005 8801/ 333 21052;EQDQ01  00002PRCP99
0111531920999992000032009004+44020+114950FM-12+112899999V0200401N007019999999N0300001N1+00101-00921102061ADDGF108991081001999999021999MD1210011+9999REMSYN059AAXX  20091 53192 4298080407 10010 21092 40206 52001 8802/;
0163531920999992000032012004+44020+114950FM-12+112899999V0200201N006019999999N0300001N1-00161-00991102411ADDAA199000091GF108991081001999999021999MA1999999088961MD1210271+9999REMSYN066AAXX  20121 53192 32980 80206 11016 21099 38896 40241 52027 8802/;EQDQ01  00002PRCP99
0112531920999992000032015004+44020+114950FM-12+112899999V0200701N003019999999N0300001N1-00311-01091102531ADDGF105991001001999999001021MD1210141+9999REMSYN060AAXX  20151 53192 42980 50703 11031 21109 40253 52014 80002;
0186531920999992000032018004+44020+114950FM-12+112899999V0200401N002012200019N0300001N1-00611-01311102781ADDAA199000091GF101991001001999999001021KA1999M+00231MA1999999089281MD1210181+9999REMSYN076AAXX  20181 53192 32980 10402 11061 21131 38928 40278 52018 80002 333 10023;EQDQ01  00002PRCP99
0122531920999992000032021004+44020+114950FM-12+112899999V0200401N003012200019N0300001N1-00811-01381102801ADDGA1001+999999999GF100991001001999999001001MD1710051+9999REMSYN054AAXX  20211 53192 42980 00403 11081 21138 40280 57005;
0173531920999992000032100004+44020+114950FM-12+112899999V0200701N002012200019N0250001N1-00531-01181102821ADDAA199000091GF102991001001999999001021MA1999999089261MD1210031+0071REMSYN076AAXX  21001 53192 32975 20702 11053 21118 38926 40282 52003 80002 333 00753;EQDQ01  00002PRCP99
0122531920999992000032103004+44020+114950FM-12+112899999V0201101N006012200019N0300001N1+00141-01051102681ADDGA1001+999999999GF100991001001999999001001MD1710011+9999REMSYN054AAXX  21031 53192 42980 01106 10014 21105 40268 57001;
0186531920999992000032106004+44020+114950FM-12+112899999V0201101N004012200019N0300001N1+00541-00951102301ADDAA199000091GF104991001001999999001021KA1999N-00951MA1999999088951MD1710301+9999REMSYN076AAXX  21061 53192 32980 41104 10054 21095 38895 40230 57030 80002 333 21095;EQDQ01  00002PRCP99
0112531920999992000032109004+44020+114950FM-12+112899999V0202001N005019999999N0300001N1+00701-01021102111ADDGF107991001001999999001021MD1710181+9999REMSYN060AAXX  21091 53192 42980 72005 10070 21102 40211 57018 80002;
0163531920999992000032112004+44020+114950FM-12+112899999V0202001N005019999999N0300001N1+00361-00641102031ADDAA199000091GF106991001001999999001021MA1999999088691MD1710081+9999REMSYN066AAXX  21121 53192 32980 62005 10036 21064 38869 40203 57008 80002;EQDQ01  00002PRCP99
0112531920999992000032115004+44020+114950FM-12+112899999V0201801N005012200019N0300001N1+00231-00421101801ADDGF102991001001999999001021MD1710081+9999REMSYN060AAXX  21151 53192 42980 21805 10023 21042 40180 57008 80002;
0209531920999992000032118004+44020+114950FM-12+112899999V0202001N008019999999N0300001N1+00221-00271101451ADDAA199000091GF106991001001999999001021KA1240M+00731MA1999999088391MD1710221+9999OA130601801REMSYN088AAXX  21181 53192 32980 62008 10022 21027 38839 40145 57022 80002 333 10073 91118 91520;EQDQ01  00002PRCP99
0112531920999992000032121004+44020+114950FM-12+112899999V0202701N006019999999N0300001N1+00121-00361101461ADDGF107991001001999999001021MD1210021+9999REMSYN060AAXX  21211 53192 42980 72706 10012 21036 40146 52002 80002;
0214531920999992000032200004+44020+114950FM-12+112899999V0202501N008019999999N0200001N1+00031-00851101611ADDAA199000091GF107991001001999999001021IA2999-00139MA1999999088451MD1210041-0801OA130601801REMSYN094AAXX  22001 53192 32970 72508 10003 21085 38845 40161 52004 80002 333 05806 31013 91118 91520;EQDQ01  00002PRCP99
0124531920999992000032203004+44020+114950FM-12+112899999V0202501N014019999999N0070001N1+00121-01731101641ADDGF107991001001999999001021MD1210021+9999MW1071REMSYN066AAXX  22031 53192 41957 72514 10012 21173 40164 52002 70700 80002;
0229531920999992000032206004+44020+114950FM-12+112899999V0202701N016019999999N0008001N1+00151-02091101421ADDAA199000091AY131061GF107991001001999999001021KA1240N-00051MA1999999088281MD1710191+9999MW1311OA130602201REMSYN094AAXX  22061 53192 31908 72716 10015 21209 38828 40142 57019 73130 80002 333 21005 91122 91525;EQDQ01  00002PRCP99
0132531920999992000032209004+44020+114950FM-12+112899999V0202701N014010120019N0200001N1+00161-01151101431ADDAY131031GF106991061021012501001021MD1710011+9999MW1001REMSYN066AAXX  22091 53192 41670 62714 10016 21115 40143 57001 70030 86202;
0205531920999992000032212004+44020+114950FM-12+112899999V0202901N006012200019N0300001N1-00221-01041101821ADDAA106000791AY181061AY231061GF101991001001999999001021MA1999999088501MD1210231+9999MW1001OA130602001REMSYN094AAXX  22121 53192 11980 12906 11022 21104 38850 40182 52023 69901 70083 80002 333 91120 91525;
0122531920999992000032215004+44020+114950FM-12+112899999V0203201N007012200019N0300001N1-00521-01071102101ADDGA1001+999999999GF100991001001999999001001MD1210201+9999REMSYN054AAXX  22151 53192 42980 03207 11052 21107 40210 52020;
0186531920999992000032218004+44020+114950FM-12+112899999V0202701N004012200019N0300001N1-00661-01031102161ADDAA199000091GF103991001001999999001021KA1999M+00241MA1999999088721MD1210021+9999REMSYN076AAXX  22181 53192 32980 32704 11066 21103 38872 40216 52002 80002 333 10024;EQDQ01  00002PRCP99
0153531920999992000032221004+44020+114950FM-12+112899999V0202901N005010900019N0300001N1-00801-01161102091ADDAA124000791AY181031GF106991021091008001001021MD1710091+9999MW1001REMSYN076AAXX  22211 53192 41580 62905 11080 21116 40209 57009 70080 82902 333 79999;
0192531920999992000032300004+44020+114950FM-12+112899999V0203201N004010900019N0300001N1-00941-01291102331ADDAA106000791AY181061GF106991021051012501001021MA1999999088721MD1210091+0301MW1001REMSYN100AAXX  23001 53192 11680 63204 11094 21129 38872 40233 52009 69901 70080 82502 333 00360 79999 92500;
0112531920999992000032303004+44020+114950FM-12+112899999V0202901N008012200019N0300001N1-00481-01151102451ADDGF102991021021012501001001MD1210141+9999REMSYN060AAXX  23031 53192 42680 22908 11048 21115 40245 52014 82200;
0193531920999992000032306004+44020+114950FM-12+112899999V0203201N008010120019N0300001N1-00361-01331102491ADDAA106000791AY181061GF107991061091012501001021KA1999N-01051MA1999999088891MD1210031+9999MW1261REMSYN088AAXX  23061 53192 11680 73208 11036 21133 38889 40249 52003 69901 72680 86902 333 21105;
0132531920999992000032309004+44020+114950FM-12+112899999V0202901N008010120019N0300001N1-00321-01501102541ADDAY181031GF106991061021012501001021MD1210021+9999MW1001REMSYN066AAXX  23091 53192 41680 62908 11032 21150 40254 52002 70080 86202;
0170531920999992000032312004+44020+114950FM-12+112899999V0202901N004012200019N0300001N1-00521-01641102711ADDAA106000791AY181061GF101991001001999999001021MA1999999088981MD1210071+9999MW1001REMSYN078AAXX  23121 53192 11980 12904 11052 21164 38898 40271 52007 69901 70080 80002;
0122531920999992000032315004+44020+114950FM-12+112899999V0202901N002012200019N0300001N1-00731-01551102601ADDGA1001+999999999GF100991001001999999001001MD1710041+9999REMSYN054AAXX  23151 53192 42980 02902 11073 21155 40260 57004;
0177531920999992000032318004+44020+114950FM-12+112899999V0209999C000012200019N0300001N1-00961-01541102611ADDAA199000021GA1001+999999999GF100991001001999999001001KA1999M-00261MA1999999088931MD1710011+9999REMSYN070AAXX  23181 53192 32980 00000 11096 21154 38893 40261 57001 333 11026;
0143531920999992000032321004+44020+114950FM-12+112899999V0203201N001012200019N0300001N1-01181-01631102641ADDAA124000791GA1001+999999999GF100991001001999999001001MD1710021+9999REMSYN064AAXX  23211 53192 42980 03201 11118 21163 40264 57002 333 79999;
0160531920999992000032400004+44020+114950FM-12+112899999V0202501N004012200019N0300001N1-00741-01281102681ADDAA124000791GF101991001001999999001021MA1999999089001MD1210091+0301REMSYN082AAXX  24001 53192 32980 12504 11074 21128 38900 40268 52009 80002 333 00302 79999;
0112531920999992000032403004+44020+114950FM-12+112899999V0202701N007012200019N0300001N1-00161-01361102601ADDGF101991001001999999001021MD1210021+9999REMSYN060AAXX  24031 53192 42980 12707 11016 21136 40260 52002 80002;
0186531920999992000032406004+44020+114950FM-12+112899999V0203201N008012200019N0300001N1+00091-01201102471ADDAA199000091GF102991021011008001001021KA1999N-01281MA1999999088911MD1710111+9999REMSYN076AAXX  24061 53192 32580 23208 10009 21120 38891 40247 57011 82102 333 21128;EQDQ01  00002PRCP99
0112531920999992000032409004+44020+114950FM-12+112899999V0203201N010010900019N0300001N1+00181-01291102441ADDGF107991031011008001001021MD1710061+9999REMSYN060AAXX  24091 53192 42580 73210 10018 21129 40244 57006 83102;
0163531920999992000032412004+44020+114950FM-12+112899999V0202901N007019999999N0300001N1+00121-01131102371ADDAA199000091GF107991001001999999001021MA1999999088881MD1210031+9999REMSYN066AAXX  24121 53192 32980 72907 10012 21113 38888 40237 52003 80002;EQDQ01  00002PRCP99
0112531920999992000032415004+44020+114950FM-12+112899999V0203201N004012200019N0300001N1-00201-01011102311ADDGF103991011091008001001021MD1210011+9999REMSYN060AAXX  24151 53192 42580 33204 11020 21101 40231 52001 81902;
0186531920999992000032418004+44020+114950FM-12+112899999V0202701N002012200019N0300001N1-00521-01171102391ADDAA199000091GF101991001001999999001021KA1999M+00281MA1999999088941MD1210051+9999REMSYN076AAXX  24181 53192 32980 12702 11052 21117 38894 40239 52005 80002 333 10028;EQDQ01  00002PRCP99
0122531920999992000032421004+44020+114950FM-12+112899999V0203201N006012200019N0300001N1-00671-01341102381ADDGA1001+999999999GF100991001001999999001001MD1710021+9999REMSYN054AAXX  24211 53192 42980 03206 11067 21134 40238 57002;
0173531920999992000032500004+44020+114950FM-12+112899999V0202701N006012200019N0300001N1-00411-01201102471ADDAA199000091GF102991001001999999001021MA1999999089041MD1210121+0001REMSYN076AAXX  25001 53192 32980 22706 11041 21120 38904 40247 52012 80002 333 00003;EQDQ01  00002PRCP99
0112531920999992000032503004+44020+114950FM-12+112899999V0202501N007012200019N0300001N1+00181-00921102441ADDGF103991001001999999001021MD1210041+9999REMSYN060AAXX  25031 53192 42980 32507 10018 21092 40244 52004 80002;
0186531920999992000032506004+44020+114950FM-12+112899999V0202901N009010900019N0200001N1+00591-01051102131ADDAA199000091GF106991041011012501001021KA1999N-00671MA1999999088831MD1710251+9999REMSYN076AAXX  25061 53192 32670 62909 10059 21105 38883 40213 57025 84102 333 21067;EQDQ01  00002PRCP99
0112531920999992000032509004+44020+114950FM-12+112899999V0203201N006010900019N0300001N1+00701-01391102011ADDGF105991031011012501001021MD1710111+9999REMSYN060AAXX  25091 53192 42680 53206 10070 21139 40201 57011 83102;
0163531920999992000032512004+44020+114950FM-12+112899999V0202201N002012200019N0300001N1+00191-01051102061ADDAA199000091GF102991001001999999001021MA1999999088701MD1710021+9999REMSYN066AAXX  25121 53192 32980 22202 10019 21105 38870 40206 57002 80002;EQDQ01  00002PRCP99
0122531920999992000032515004+44020+114950FM-12+112899999V0202701N003012200019N0300001N1-00121-01111101821ADDGA1001+999999999GF100991001001999999001001MD1710141+9999REMSYN054AAXX  25151 53192 42980 02703 11012 21111 40182 57014;
0196531920999992000032518004+44020+114950FM-12+112899999V0202501N001012200019N0300001N1-00311-01131101571ADDAA199000091GA1001+999999999GF100991001001999999001001KA1999M+00791MA1999999088391MD1710171+9999REMSYN070AAXX  25181 53192 32980 02501 11031 21113 38839 40157 57017 333 10079;EQDQ01  00002PRCP99
0122531920999992000032521004+44020+114950FM-12+112899999V0209999C000012200019N0300001N1-00481-01251101311ADDGA1001+999999999GF100991001001999999001001MD1710241+9999REMSYN054AAXX  25211 53192 42980 00000 11048 21125 40131 57024;
0183531920999992000032600004+44020+114950FM-12+112899999V0202501N002012200019N0300001N1-00221-01181101221ADDAA199000091GA1001+999999999GF100991001001999999001001MA1999999088021MD1710131+0101REMSYN070AAXX  26001 53192 32980 02502 11022 21118 38802 40122 57013 333 06002;EQDQ01  00002PRCP99
0112531920999992000032603004+44020+114950FM-12+112899999V0202501N006012200019N0300001N1+00671-01951100911ADDGF102991001001999999001021MD1710151+9999REMSYN060AAXX  26031 53192 42980 22506 10067 21195 40091 57015 80002;
0186531920999992000032606004+44020+114950FM-12+112899999V0202501N009019999999N0300001N1+01161-03322100461ADDAA199000091GF107991011001999999031021KA1999N-00641MA1999999087551MD1710321+9999REMSYN076AAXX  26061 53192 32980 72509 10116 21332 38755 40046 57032 81032 333 21064;EQDQ01  00002PRCP99
0112531920999992000032609004+44020+114950FM-12+112899999V0202501N007019999999N0300001N1+01121-02921100291ADDGF107991001001999999001021MD1710201+9999REMSYN060AAXX  26091 53192 42980 72507 10112 21292 40029 57020 80002;
0206531920999992000032612004+44020+114950FM-12+112899999V0209999C000019999999N0300001N1+00521-01292100311ADDAA199000091GF107991001001999999001021MA1999999087301MD1710051+9999OA130601701REMSYN082AAXX  26121 53192 32980 70000 10052 21129 38730 40031 57005 80002 333 91117 91525;EQDQ01-001293ATOD  Q02  00002PRCP99
0112531920999992000032615004+44020+114950FM-12+112899999V0202901N001012200019N0300001N1+00061-00881100221ADDGF101991001001999999001021MD1210011+9999REMSYN060AAXX  26151 53192 42980 12901 10006 21088 40022 52001 80002;
0186531920999992000032618004+44020+114950FM-12+112899999V0203401N006019999999N0300001N1+00171-00841100151ADDAA199000091GF106991001001999999001021KA1999M+01211MA1999999087381MD1210071+9999REMSYN076AAXX  26181 53192 32980 63406 10017 21084 38738 40015 52007 80002 333 10121;EQDQ01  00002PRCP99
0112531920999992000032621004+44020+114950FM-12+112899999V0200201N008012200019N0250001N1-00081-00431100471ADDGF102991001001999999001021MD1210221+9999REMSYN060AAXX  26211 53192 42975 20208 11008 21043 40047 52022 80002;
0173531920999992000032700004+44020+114950FM-12+112899999V0200201N007019999999N0250001N1-00191-01031101031ADDAA199000091GF105991011001999999031021MA1999999087931MD1210331+0011REMSYN076AAXX  27001 53192 32975 50207 11019 21103 38793 40103 52033 81032 333 05100;EQDQ01  00002PRCP99
0112531920999992000032703004+44020+114950FM-12+112899999V0203401N008010120019N0300001N1+00061-00891101371ADDGF106991061011012501001001MD1210251+9999REMSYN060AAXX  27031 53192 42680 63408 10006 21089 40137 52025 86100;
0193531920999992000032706004+44020+114950FM-12+112899999V0202901N007010120019N0300001N1-00041-00921101441ADDAA106000791AY181061GF108991081091012501999999KA1999N-00321MA1999999088241MD1210061+9999MW1261REMSYN088AAXX  27061 53192 11680 82907 11004 21092 38824 40144 52006 69901 72680 889// 333 21032;
0132531920999992000032709004+44020+114950FM-12+112899999V0203401N005010120019N0300001N1+00061-00841101561ADDAY181031GF107991071091012501001021MD1210071+9999MW1001REMSYN066AAXX  27091 53192 41680 73405 10006 21084 40156 52007 70080 87902;
0170531920999992000032712004+44020+114950FM-12+112899999V0203401N004012200019N0300001N1-00131-00941101941ADDAA106000791AY181061GF102991001001999999001021MA1999999088581MD1210271+9999MW1001REMSYN078AAXX  27121 53192 11980 23404 11013 21094 38858 40194 52027 69901 70080 80002;
0122531920999992000032715004+44020+114950FM-12+112899999V0203401N004012200019N0300001N1-00391-01221102101ADDGA1001+999999999GF100991001001999999001001MD1210131+9999REMSYN054AAXX  27151 53192 42980 03404 11039 21122 40210 52013;
0177531920999992000032718004+44020+114950FM-12+112899999V0203601N002012200019N0300001N1-00541-01301102271ADDAA199000021GA1001+999999999GF100991001001999999001001KA1999M+00201MA1999999088801MD1210091+9999REMSYN070AAXX  27181 53192 32980 03602 11054 21130 38880 40227 52009 333 10020;
0143531920999992000032721004+44020+114950FM-12+112899999V0203201N005012200019N0300001N1-00771-01321102371ADDAA124000791GA1001+999999999GF100991001001999999001001MD1210061+9999REMSYN064AAXX  27211 53192 42980 03205 11077 21132 40237 52006 333 79999;
0170531920999992000032800004+44020+114950FM-12+112899999V0203601N004012200019N0300001N1-00471-01141102601ADDAA124000791GA1001+999999999GF100991001001999999001001MA1999999089091MD1210231+1201REMSYN076AAXX  28001 53192 32980 03604 11047 21114 38909 40260 52023 333 01253 79999;
0112531920999992000032803004+44020+114950FM-12+112899999V0203401N004012200019N0300001N1-00091-01231102771ADDGF102991021011008001001001MD1210171+9999REMSYN060AAXX  28031 53192 42580 23404 11009 21123 40277 52017 82100;
0186531920999992000032806004+44020+114950FM-12+112899999V0203601N005012200019N0300001N1+00231-01511102631ADDAA199000091GF101991011011008001001001KA1999N-00871MA1999999089181MD1710081+9999REMSYN076AAXX  28061 53192 32580 13605 10023 21151 38918 40263 57008 81100 333 21087;EQDQ01  00002PRCP99
0112531920999992000032809004+44020+114950FM-12+112899999V0203401N004012200019N0300001N1+00311-01841102591ADDGF101991001001999999001021MD1710071+9999REMSYN060AAXX  28091 53192 42980 13404 10031 21184 40259 57007 80002;
0163531920999992000032812004+44020+114950FM-12+112899999V0202201N002012200019N0300001N1-00061-01401102711ADDAA199000091GF101991001001999999001021MA1999999089201MD1210091+9999REMSYN066AAXX  28121 53192 32980 12202 11006 21140 38920 40271 52009 80002;EQDQ01  00002PRCP99
0112531920999992000032815004+44020+114950FM-12+112899999V0202701N002019999999N0300001N1-00141-01211102581ADDGF105991001001999999001021MD1710051+9999REMSYN060AAXX  28151 53192 42980 52702 11014 21121 40258 57005 80002;
0186531920999992000032818004+44020+114950FM-12+112899999V0202701N001019999999N0300001N1-00201-01211102351ADDAA199000091GF107991001001999999001021KA1999M+00321MA1999999089011MD1710141+9999REMSYN076AAXX  28181 53192 32980 72701 11020 21121 38901 40235 57014 80002 333 10032;EQDQ01  00002PRCP99
0173531920999992000032900004+44020+114950FM-12+112899999V0202501N002019999999N0250001N1+00001-01161102161ADDAA199000091GF108991081001999999011999MA1999999088831MD1210011+0031REMSYN076AAXX  29001 53192 32975 82502 10000 21116 38883 40216 52001 8801/ 333 05305;EQDQ01  00002PRCP99
0112531920999992000032903004+44020+114950FM-12+112899999V0209999C000010900019N0300001N1+00401-01421102041ADDGF107991021041012501001021MD1710041+9999REMSYN060AAXX  29031 53192 42680 70000 10040 21142 40204 57004 82402;
0193531920999992000032906004+44020+114950FM-12+112899999V0203201N005010900019N0300001N1+00601-00421101841ADDAA106000791AY161061GF107991021051012501001021KA1999N-00281MA1999999088651MD1710141+9999MW1211REMSYN088AAXX  29061 53192 11680 73205 10060 21042 38865 40184 57014 69901 72160 82502 333 21028;
0112531920999992000032909004+44020+114950FM-12+112899999V0203401N003012200019N0300001N1+00901-00951101541ADDGF102991021001999999031021MD1710181+9999REMSYN060AAXX  29091 53192 42980 23403 10090 21095 40154 57018 82032;
0144531920999992000032912004+44020+114950FM-12+112899999V0200201N002019999999N0300001N1+00421-00541101651ADDAA199000021GF106991001001999999001021MA1999999088491MD1210021+9999REMSYN066AAXX  29121 53192 32980 60202 10042 21054 38849 40165 52002 80002;
0112531920999992000032915004+44020+114950FM-12+112899999V0200201N002012200019N0300001N1+00141-00571101621ADDGF104991001001999999001021MD1410001+9999REMSYN060AAXX  29151 53192 42980 40202 10014 21057 40162 54000 80002;
0167531920999992000032918004+44020+114950FM-12+112899999V0200401N002019999999N0300001N1+00021-00741101461ADDAA199000021GF106991001001999999001021KA1999M+00921MA1999999088371MD1710121+9999REMSYN076AAXX  29181 53192 32980 60402 10002 21074 38837 40146 57012 80002 333 10092;
0133531920999992000032921004+44020+114950FM-12+112899999V0209999C000012200019N0300001N1-00161-00711101321ADDAA124000791GF102991001001999999001021MD1710101+9999REMSYN070AAXX  29211 53192 42980 20000 11016 21071 40132 57010 80002 333 79999;
0160531920999992000033000004+44020+114950FM-12+112899999V0200201N001019999999N0250001N1+00111-00611101371ADDAA124000791GF107991001001999999001021MA1999999088271MD1410001-0601REMSYN082AAXX  30001 53192 32975 70201 10011 21061 38827 40137 54000 80002 333 05601 79999;
0112531920999992000033003004+44020+114950FM-12+112899999V0202201N004010900019N0300001N1+00851-00581101191ADDGF106991021011008001001021MD1710061+9999REMSYN060AAXX  30031 53192 42580 62204 10085 21058 40119 57006 82102;
0186531920999992000033006004+44020+114950FM-12+112899999V0203201N009010900019N0250001N1+01131-01101100951ADDAA199000091GF106991041011008001001021KA1999N-00211MA1999999088041MD1710171+9999REMSYN076AAXX  30061 53192 32575 63209 10113 21110 38804 40095 57017 84102 333 21021;EQDQ01  00002PRCP99
0112531920999992000033009004+44020+114950FM-12+112899999V0202901N009012200019N0200001N1+00951-01931101061ADDGF101991011011008001001021MD1210021+9999REMSYN060AAXX  30091 53192 42570 12909 10095 21193 40106 52002 81102;
0200531920999992000033012004+44020+114950FM-12+112899999V0200401N007012200019N0300001N1-00091-01011101641ADDAA199000091GA1001+999999999GF100991001001999999001001MA1999999088391MD1210331+9999OA130601901REMSYN076AAXX  30121 53192 32980 00407 11009 21101 38839 40164 52033 333 91119 91529;EQDQ01  00002PRCP99
0122531920999992000033015004+44020+114950FM-12+112899999V0200201N001012200019N0300001N1-00381-00961101821ADDGA1001+999999999GF100991001001999999001001MD1210261+9999REMSYN054AAXX  30151 53192 42980 00201 11038 21096 40182 52026;
0196531920999992000033018004+44020+114950FM-12+112899999V0209999C000012200019N0300001N1-00521-01071101811ADDAA199000091GA1001+999999999GF100991001001999999001001KA1999M+01191MA1999999088671MD1210021+9999REMSYN070AAXX  30181 53192 32980 00000 11052 21107 38867 40181 52002 333 10119;EQDQ01  00002PRCP99
0122531920999992000033021004+44020+114950FM-12+112899999V0209999C000012200019N0300001N1-00731-01171101901ADDGA1001+999999999GF100991001001999999001001MD1710011+9999REMSYN054AAXX  30211 53192 42980 00000 11073 21117 40190 57001;
0173531920999992000033100004+44020+114950FM-12+112899999V0202701N005012200019N0300001N1-00361-00841102121ADDAA199000091GF101991001001999999001021MA1999999088701MD1210041+0041REMSYN076AAXX  31001 53192 32980 12705 11036 21084 38870 40212 52004 80002 333 00455;EQDQ01  00002PRCP99
0122531920999992000033103004+44020+114950FM-12+112899999V0202701N006012200019N0300001N1+00341-00751102141ADDGA1001+999999999GF100991001001999999001001MD1210111+9999REMSYN054AAXX  31031 53192 42980 02706 10034 21075 40214 52011;
0186531920999992000033106004+44020+114950FM-12+112899999V0202701N008012200019N0300001N1+00681-01301101851ADDAA199000091GF102991021011012501001001KA1999N-00791MA1999999088611MD1710201+9999REMSYN076AAXX  31061 53192 32680 22708 10068 21130 38861 40185 57020 82100 333 21079;EQDQ01  00002PRCP99
0112531920999992000033109004+44020+114950FM-12+112899999V0202701N007012200019N0300001N1+00801-01871101761ADDGF104991031011012501001021MD1710101+9999REMSYN060AAXX  31091 53192 42680 42707 10080 21187 40176 57010 83102;
0163531920999992000033112004+44020+114950FM-12+112899999V0203201N002012200019N0300001N1+00331-00642101751ADDAA199000091GF101991001001999999001021MA1999999088481MD1710031+9999REMSYN066AAXX  31121 53192 32980 13202 10033 21064 38848 40175 57003 80002;EQDQ01  00002PRCP99
0122531920999992000033115004+44020+114950FM-12+112899999V0200701N002012200019N0300001N1-00021-01191101741ADDGA1001+999999999GF100991001001999999001001MD1210071+9999REMSYN054AAXX  31151 53192 42980 00702 11002 21119 40174 52007;
0196531920999992000033118004+44020+114950FM-12+112899999V0200401N001012200019N0300001N1-00191-01241101691ADDAA199000091GA1001+999999999GF100991001001999999001001KA1999M+00881MA1999999088541MD1710011+9999REMSYN070AAXX  31181 53192 32980 00401 11019 21124 38854 40169 57001 333 10088;EQDQ01  00002PRCP99
0112531920999992000033121004+44020+114950FM-12+112899999V0200701N005012200019N0300001N1-00291-01321101731ADDGF101991001001999999001021MD1210041+9999REMSYN060AAXX  31211 53192 42980 10705 11029 21132 40173 52004 80002;
0173531920999992000040100004+44020+114950FM-12+112899999V0200701N005010360019N0300001N1-00161-01131101941ADDAA199000091GF107991031051012501031021MA1999999088691MD1210111+0001REMSYN076AAXX  01001 53192 32680 70705 11016 21113 38869 40194 52011 83532 333 00002;EQDQ01  00002PRCP99
0112531920999992000040103004+44020+114950FM-12+112899999V0200701N007019999999N0300001N1+00361-00851101831ADDGF106991011001999999031021MD1710061+9999REMSYN060AAXX  01031 53192 42980 60707 10036 21085 40183 57006 81032;
0111531920999992000040105004+44020+114950FM-12+112899999V0200201N005012200019N9999999N1+99999+99999101721ADDGF101991001001999999001021REMSYN054AAXX  01051 53192 4/1// 10205 1/062 21187 40172 80002;EQDQ01+000752SCOLCB
0186531920999992000040106004+44020+114950FM-12+112899999V0200701N006019999999N0300001N1+00681-01441101701ADDAA199000091GF105991001001999999001021KA1999N-00381MA1999999088551MD1710081+9999REMSYN076AAXX  01061 53192 32980 50706 10068 21144 38855 40170 57008 80002 333 21038;EQDQ01  00002PRCP99
0112531920999992000040109004+44020+114950FM-12+112899999V0200201N005012200019N0300001N1+00621-01871101721ADDGF101991001001999999001021MD1710021+9999REMSYN060AAXX  01091 53192 42980 10205 10062 21187 40172 57002 80002;
0163531920999992000040112004+44020+114950FM-12+112899999V0200201N004012200019N0300001N1+00131-01681102101ADDAA199000091GF101991001001999999001021MA1999999088781MD1210251+9999REMSYN066AAXX  01121 53192 32980 10204 10013 21168 38878 40210 52025 80002;EQDQ01  00002PRCP99
0122531920999992000040115004+44020+114950FM-12+112899999V0200701N002012200019N0300001N1-00141-01741102211ADDGA1001+999999999GF100991001001999999001001MD1210151+9999REMSYN054AAXX  01151 53192 42980 00702 11014 21174 40221 52015;
0196531920999992000040118004+44020+114950FM-12+112899999V0200401N002012200019N0300001N1-00401-01671102201ADDAA199000091GA1001+999999999GF100991001001999999001001KA1999M+00731MA1999999088941MD1210011+9999REMSYN070AAXX  01181 53192 32980 00402 11040 21167 38894 40220 52001 333 10073;EQDQ01  00002PRCP99
0122531920999992000040121004+44020+114950FM-12+112899999V0209999C000012200019N0300001N1-00561-01451102181ADDGA1001+999999999GF100991001001999999001001MD1710071+9999REMSYN054AAXX  01211 53192 42980 00000 11056 21145 40218 57007;
0183531920999992000040200004+44020+114950FM-12+112899999V0202701N001012200019N0300001N1-00351-01201102361ADDAA199000091GA1001+999999999GF100991001001999999001001MA1999999088961MD1210091+0031REMSYN070AAXX  02001 53192 32980 02701 11035 21120 38896 40236 52009 333 00352;EQDQ01  00002PRCP99
0131531920999992000040203004+44020+114950FM-12+112899999V0202201N005012200019N0300001N1+00792-01351102091ADDGF101991001001999999001021MD1710041+9999REMSYN060AAXX  02031 53192 42980 12205 10079 21135 40209 57004 80002;EQDQ01+000793ATOT  
0186531920999992000040206004+44020+114950FM-12+112899999V0202201N006012200019N0300001N1+01101-01941101861ADDAA199000091GF101991011011008001001021KA1999N-00731MA1999999088731MD1710191+9999REMSYN076AAXX  02061 53192 32580 12206 10110 21194 38873 40186 57019 81102 333 21073;EQDQ01  00002PRCP99
0112531920999992000040209004+44020+114950FM-12+112899999V0202001N005012200019N0300001N1+01181-02241101621ADDGF102991021011008001001021MD1710221+9999REMSYN060AAXX  02091 53192 42580 22005 10118 21224 40162 57022 82102;
0163531920999992000040212004+44020+114950FM-12+112899999V0202001N005012200019N0300001N1+00721-01781101561ADDAA199000091GF102991001001999999001021MA1999999088401MD1710111+9999REMSYN066AAXX  02121 53192 32980 22005 10072 21178 38840 40156 57011 80002;EQDQ01  00002PRCP99
0112531920999992000040215004+44020+114950FM-12+112899999V0201801N005012200019N0300001N1+00581-01731101211ADDGF101991001001999999001021MD1710091+9999REMSYN060AAXX  02151 53192 42980 11805 10058 21173 40121 57009 80002;
0196531920999992000040218004+44020+114950FM-12+112899999V0202001N002012200019N0300001N1+00351-01271101051ADDAA199000091GA1001+999999999GF100991001001999999001001KA1999M+01231MA1999999088191MD1710121+9999REMSYN070AAXX  02181 53192 32980 02002 10035 21127 38819 40105 57012 333 10123;EQDQ01  00002PRCP99
0122531920999992000040221004+44020+114950FM-12+112899999V0209999C000012200019N0300001N1-00151-01271101021ADDGA1001+999999999GF100991001001999999001001MD1710121+9999REMSYN054AAXX  02211 53192 42980 00000 11015 21127 40102 57012;
0183531920999992000040300004+44020+114950FM-12+112899999V0209999C000012200019N0250001N1+00121-00921101091ADDAA199000091GA1001+999999999GF100991001001999999001001MA1999999088091MD1210021+0091REMSYN070AAXX  03001 53192 32975 00000 10012 21092 38809 40109 52002 333 05905;EQDQ01  00002PRCP99
0183531920999992000040303004+44020+114950FM-12+112899999V0209999C000012200019N0250001N1+00121-00921101091ADDAA199000091GA1001+999999999GF100991001001999999001001MA1999999088091MD1210021+0091REMSYN070AAXX  03031 53192 32975 00000 10012 21092 38809 40109 52002 333 05905;EQDQ01  00002PRCP99
0225531920999992000040306004+44020+114950FM-12+112899999V0202201N011019999999N0200001N1+01542-02041100382ADDAA199000091GF107991001001999999001021KA1240N-00411MA1999999087701MD1710311+9999OA130602001REMSYN088AAXX  03061 53192 32970 72211 10154 21204 38770 40038 57031 80002 333 21041 91120 91525;EQDQ01+100383APOSLPQ02  00002PRCP99
0112531920999992000040309004+44020+114950FM-12+112899999V0202701N010012200019N0200001N1+01331-02101100491ADDGF102991001001999999001021MD1710061+9999REMSYN060AAXX  03091 53192 42970 22710 10133 21210 40049 57006 80002;
0190531920999992000040312004+44020+114950FM-12+112899999V0202901N009012200019N0300001N1+00731-01821100841ADDAA199000091GF102991001001999999001021MA1999999087881MD1210241+9999OA130602001REMSYN082AAXX  03121 53192 32980 22909 10073 21182 38788 40084 52024 80002 333 91120 91525;EQDQ01  00002PRCP99
0122531920999992000040315004+44020+114950FM-12+112899999V0202201N010012200019N0300001N1-00011-00741100861ADDGA1001+999999999GF100991001001999999001001MD1210101+9999REMSYN054AAXX  03151 53192 42980 02210 11001 21074 40086 52010;
0216531920999992000040318004+44020+114950FM-12+112899999V0203601N009010120019N0150001N1-00341-00591101441ADDAA106000191AY181061GF108991081091012501999999KA1240M+01571MA1999999088481MD1210501+9999MW1851OA130601901REMSYN100AAXX  03181 53192 11665 83609 11034 21059 38848 40144 52050 69921 78580 889// 333 10157 91119 91536;
0153531920999992000040321004+44020+114950FM-12+112899999V0203401N007010120019N0300001N1-00491-00941101821ADDAA124000591AY181031GF106991061091012501001021MD1210251+9999MW1001REMSYN076AAXX  03211 53192 41680 63407 11049 21094 40182 52025 70080 86902 333 70006;
0192531920999992000040400004+44020+114950FM-12+112899999V0203201N003012200019N0300001N1-00591-01121102311ADDAA106000591AY181061GF104991001001999999001021MA1999999089001MD1210271+0901MW1001REMSYN100AAXX  04001 53192 11980 43203 11059 21112 38900 40231 52027 69941 70080 80002 333 00957 70006 92502;
0112531920999992000040403004+44020+114950FM-12+112899999V0202701N007012200019N0300001N1-00301-01021102551ADDGF102991021011008001001001MD1210111+9999REMSYN060AAXX  04031 53192 42580 22707 11030 21102 40255 52011 82100;
0167531920999992000040406004+44020+114950FM-12+112899999V0202901N009010075019N0300001N1-00121-01281102511ADDAA199000021GF106991051021008001001021KA1999N-00681MA1999999089041MD1710071+9999REMSYN076AAXX  04061 53192 32580 62909 11012 21128 38904 40251 57007 85202 333 21068;
0124531920999992000040409004+44020+114950FM-12+112899999V0202901N008010075019N0300001N1-00121-01401102561ADDGF106991051091008001001021MD1210011+9999MW1851REMSYN066AAXX  04091 53192 41580 62908 11012 21140 40256 52001 78500 85902;
0180531920999992000040412004+44020+114950FM-12+112899999V0202901N004012200019N0300001N1-00331-01661102791ADDAA106000791AY181061GA1001+999999999GF100991001001999999001001MA1999999089181MD1210131+9999MW1001REMSYN072AAXX  04121 53192 11980 02904 11033 21166 38918 40279 52013 69901 70080;
0122531920999992000040415004+44020+114950FM-12+112899999V0202501N003012200019N0300001N1-00581-01431102811ADDGA1001+999999999GF100991001001999999001001MD1210021+9999REMSYN054AAXX  04151 53192 42980 02503 11058 21143 40281 52002;
0177531920999992000040418004+44020+114950FM-12+112899999V0202701N002012200019N0300001N1-00761-01741102711ADDAA199000021GA1001+999999999GF100991001001999999001001KA1999M+00021MA1999999089121MD1710081+9999REMSYN070AAXX  04181 53192 32980 02702 11076 21174 38912 40271 57008 333 10002;
0143531920999992000040421004+44020+114950FM-12+112899999V0202201N002012200019N0300001N1-00891-01691102581ADDAA124000791GA1001+999999999GF100991001001999999001001MD1710151+9999REMSYN064AAXX  04211 53192 42980 02202 11089 21169 40258 57015 333 79999;
0170531920999992000040500004+44020+114950FM-12+112899999V0209999C000012200019N0300001N1-00671-01721102381ADDAA124000791GA1001+999999999GF100991001001999999001001MA1999999088801MD1710171-0201REMSYN076AAXX  05001 53192 32980 00000 11067 21172 38880 40238 57017 333 05251 79999;
0122531920999992000040503004+44020+114950FM-12+112899999V0202201N005012200019N0300001N1+00171-01741101971ADDGA1001+999999999GF100991001001999999001001MD1710221+9999REMSYN054AAXX  05031 53192 42980 02205 10017 21174 40197 57022;
0186531920999992000040506004+44020+114950FM-12+112899999V0202201N006012200019N0300001N1+00761-01911101491ADDAA199000091GF103991001001999999001021KA1999N-01011MA1999999088261MD1710321+9999REMSYN076AAXX  05061 53192 32980 32206 10076 21191 38826 40149 57032 80002 333 21101;EQDQ01  00002PRCP99
0112531920999992000040509004+44020+114950FM-12+112899999V0202201N005019999999N0300001N1+00921-01951101121ADDGF106991011001999999031021MD1710321+9999REMSYN060AAXX  05091 53192 42980 62205 10092 21195 40112 57032 81032;
0163531920999992000040512004+44020+114950FM-12+112899999V0200901N001019999999N0300001N1+00561-01331100831ADDAA199000091GF107991011001999999031021MA1999999087661MD1710281+9999REMSYN066AAXX  05121 53192 32980 70901 10056 21133 38766 40083 57028 81032;EQDQ01  00002PRCP99
0112531920999992000040515004+44020+114950FM-12+112899999V0202201N004010900019N0300001N1+00501-01341100401ADDGF106991011091008001001021MD1710201+9999REMSYN060AAXX  05151 53192 42580 62204 10050 21134 40040 57020 81902;
0186531920999992000040518004+44020+114950FM-12+112899999V0202701N005010900019N0300001N1+00501-01341100101ADDAA199000091GF107991011091008001001021KA1999M+00951MA1999999087321MD1710141+9999REMSYN076AAXX  05181 53192 32580 72705 10050 21134 38732 40010 57014 81902 333 10095;EQDQ01  00002PRCP99
0112531920999992000040521004+44020+114950FM-12+112899999V0202701N014012200019N0200001N1-00331-00841100281ADDGF103991001001999999001021MD1210011+9999REMSYN060AAXX  05211 53192 42970 32714 11033 21084 40028 52001 80002;
0209531920999992000040600004+44020+114950FM-12+112899999V0202701N017010120019N0040001N1-00681-01051100701ADDAA106000791AY171061GF107991051091012501001021MA1999999087541MD1210211-1301MW1851OA130602801REMSYN106AAXX  06001 53192 11640 72717 11068 21105 38754 40070 52021 69901 78570 85902 333 06300 79999 91128 91527;
0132531920999992000040603004+44020+114950FM-12+112899999V0202901N016010120019N0040001N1-00761-01061101261ADDAY181031GF107991061091012501001021MD1210461+9999MW1851REMSYN066AAXX  06031 53192 41640 72916 11076 21106 40126 52046 78580 86902;
0224531920999992000040606004+44020+114950FM-12+112899999V0202901N014010900019N0200001N1-00481-01151101481ADDAA106000191AY181061AY231061GF107991031091012501001021KA1240N-00931MA1999999088251MD1210251+9999MW1001OA130602501REMSYN100AAXX  06061 53192 11670 72914 11048 21115 38825 40148 52025 69911 70083 83902 333 21093 91125 91527;
0112531920999992000040609004+44020+114950FM-12+112899999V0202701N012010120019N0200001N1-00391-01511101891ADDGF107991051091012501001021MD1210191+9999REMSYN060AAXX  06091 53192 42670 72712 11039 21151 40189 52019 85902;
0171531920999992000040612004+44020+114950FM-12+112899999V0202901N004012200019N0300001N1-00441-01481102161ADDAA199000021GF103991001001999999001021MA1999999088581MD1210141+9999OA130601901REMSYN082AAXX  06121 53192 32980 32904 11044 21148 38858 40216 52014 80002 333 91119 91529;
0122531920999992000040615004+44020+114950FM-12+112899999V0202201N001012200019N0300001N1-00811-01621102341ADDGA1001+999999999GF100991001001999999001001MD1210051+9999REMSYN054AAXX  06151 53192 42980 02201 11081 21162 40234 52005;
0196531920999992000040618004+44020+114950FM-12+112899999V0202901N004012200019N0300001N1-00821-01851102271ADDAA199000091GA1001+999999999GF100991001001999999001001KA1999M+00541MA1999999088641MD1210011+9999REMSYN070AAXX  06181 53192 32980 02904 11082 21185 38864 40227 52001 333 10054;EQDQ01  00002PRCP99
0143531920999992000040621004+44020+114950FM-12+112899999V0203201N006012200019N0300001N1-01131-01981102551ADDAA124000191GA1001+999999999GF100991001001999999001001MD1210191+9999REMSYN064AAXX  06211 53192 42980 03206 11113 21198 40255 52019 333 70001;
0170531920999992000040700004+44020+114950FM-12+112899999V0202201N004012200019N0300001N1-00951-01951102821ADDAA124000191GA1001+999999999GF100991001001999999001001MA1999999089091MD1210261+1601REMSYN076AAXX  07001 53192 32980 02204 11095 21195 38909 40282 52026 333 01653 70001;
0112531920999992000040703004+44020+114950FM-12+112899999V0202001N001019999999N0300001N1-00141-01591102781ADDGF107991001001999999001021MD1210071+9999REMSYN060AAXX  07031 53192 42980 72001 11014 21159 40278 52007 80002;
0186531920999992000040706004+44020+114950FM-12+112899999V0201801N003019999999N0300001N1+00061-02131102511ADDAA199000091GF106991001001999999001021KA1999N-01261MA1999999088971MD1710191+9999REMSYN076AAXX  07061 53192 32980 61803 10006 21213 38897 40251 57019 80002 333 21126;EQDQ01  00002PRCP99
0112531920999992000040709004+44020+114950FM-12+112899999V0201801N003012200019N0300001N1+00311-02531102251ADDGF102991001001999999001021MD1710241+9999REMSYN060AAXX  07091 53192 42980 21803 10031 21253 40225 57024 80002;
0173531920999992000040712004+44020+114950FM-12+112899999V0201801N002012200019N0300001N1-00021-02321102201ADDAA199000091GA1001+999999999GF100991001001999999001001MA1999999088651MD1710081+9999REMSYN060AAXX  07121 53192 32980 01802 11002 21232 38865 40220 57008;EQDQ01  00002PRCP99
0122531920999992000040715004+44020+114950FM-12+112899999V0201801N005012200019N0300001N1+00161-02061101741ADDGA1001+999999999GF100991001001999999001001MD1710171+9999REMSYN054AAXX  07151 53192 42980 01805 10016 21206 40174 57017;
0196531920999992000040718004+44020+114950FM-12+112899999V0209999C000012200019N0300001N1+00131-02061101441ADDAA199000091GA1001+999999999GF100991001001999999001001KA1999M+00371MA1999999088261MD1710221+9999REMSYN070AAXX  07181 53192 32980 00000 10013 21206 38826 40144 57022 333 10037;EQDQ01  00002PRCP99
0122531920999992000040721004+44020+114950FM-12+112899999V0202201N001012200019N0300001N1+00041-01701101201ADDGA1001+999999999GF100991001001999999001001MD1710181+9999REMSYN054AAXX  07211 53192 42980 02201 10004 21170 40120 57018;
0173531920999992000040800004+44020+114950FM-12+112899999V0209999C000012200019N0300001N1+00501-01491100961ADDAA199000091GF101991001001999999001021MA1999999087901MD1710181+0121REMSYN076AAXX  08001 53192 32980 10000 10050 21149 38790 40096 57018 80002 333 06215;EQDQ01  00002PRCP99
0124531920999992000040803004+44020+114950FM-12+112899999V0202201N012012200019N0090001N1+01401-02531100421ADDGF102991001001999999001021MD1710241+9999MW1071REMSYN066AAXX  08031 53192 41959 22212 10140 21253 40042 57024 70700 80002;
0209531920999992000040806004+44020+114950FM-12+112899999V0202201N012012200019N0160001N1+01791-02671099911ADDAA199000091GF104991001001999999001021KA1240N-00191MA1999999087291MD1710371+9999OA130602001REMSYN088AAXX  08061 53192 32966 42212 10179 21267 38729 49991 57037 80002 333 21019 91120 91522;EQDQ01  00002PRCP99
0124531920999992000040809004+44020+114950FM-12+112899999V0202701N013019999999N0080001N1+01451-01611100021ADDGF106991001001999999001021MD1210011+9999MW1071REMSYN066AAXX  08091 53192 41958 62713 10145 21161 40002 52001 70700 80002;
0206531920999992000040812004+44020+114950FM-12+112899999V0203601N008019999999N0160001N1+00231-01071100991ADDAA199000091GF106991001001999999001021MA1999999087981MD1210971+9999OA130602001REMSYN082AAXX  08121 53192 32966 63608 10023 21107 38798 40099 52068 80002 333 91120 91522;EQDQ01+000682APC3  Q02  00002PRCP99
0112531920999992000040815004+44020+114950FM-12+112899999V0200201N006010900019N0300001N1-00281-01041101421ADDGF107991031091012501001021MD1210461+9999REMSYN060AAXX  08151 53192 42680 70206 11028 21104 40142 52046 83902;
0186531920999992000040818004+44020+114950FM-12+112899999V0200201N002012200019N0300001N1-00741-01851101661ADDAA199000091GF103991001001999999001021KA1999M+01841MA1999999088641MD1210201+9999REMSYN076AAXX  08181 53192 32980 30202 11074 21185 38864 40166 52020 80002 333 10184;EQDQ01  00002PRCP99
0112531920999992000040821004+44020+114950FM-12+112899999V0203401N005019999999N0300001N1-01021-02101102021ADDGF107991001001999999001021MD1210171+9999REMSYN060AAXX  08211 53192 42980 73405 11102 21210 40202 52017 80002;
0173531920999992000040900004+44020+114950FM-12+112899999V0202901N008019999999N0300001N1-01081-02081102521ADDAA199000091GF106991041001999999031021MA1999999088961MD1210151+0111REMSYN076AAXX  09001 53192 32980 62908 11108 21208 38896 40252 52015 84032 333 01166;EQDQ01  00002PRCP99
0112531920999992000040903004+44020+114950FM-12+112899999V0202901N011012200019N0300001N1-00751-02141102601ADDGF101991001001999999001021MD1210031+9999REMSYN060AAXX  09031 53192 42980 12911 11075 21214 40260 52003 80002;
0209531920999992000040906004+44020+114950FM-12+112899999V0202701N010012200019N0250001N1-00421-02261102501ADDAA199000091GF101991001001999999001021KA1240N-01191MA1999999088871MD1710121+9999OA130601901REMSYN088AAXX  09061 53192 32975 12710 11042 21226 38887 40250 57012 80002 333 21119 91119 91529;EQDQ01  00002PRCP99
0112531920999992000040909004+44020+114950FM-12+112899999V0202701N010012200019N0200001N1-00401-02561102501ADDGF101991001001999999001021MD1710061+9999REMSYN060AAXX  09091 53192 42970 12710 11040 21256 40250 57006 80002;
0200531920999992000040912004+44020+114950FM-12+112899999V0202901N004012200019N0300001N1-00521-02471102681ADDAA199000091GA1001+999999999GF100991001001999999001001MA1999999088921MD1210111+9999OA130601901REMSYN076AAXX  09121 53192 32980 02904 11052 21247 38892 40268 52011 333 91119 91527;EQDQ01  00002PRCP99
0122531920999992000040915004+44020+114950FM-12+112899999V0202701N002012200019N0300001N1-00781-02321102671ADDGA1001+999999999GF100991001001999999001001MD1210011+9999REMSYN054AAXX  09151 53192 42980 02702 11078 21232 40267 52001;
0196531920999992000040918004+44020+114950FM-12+112899999V0202701N004012200019N0300001N1-00911-02221102561ADDAA199000091GA1001+999999999GF100991001001999999001001KA1999M-00331MA1999999088881MD1710051+9999REMSYN070AAXX  09181 53192 32980 02704 11091 21222 38888 40256 57005 333 11033;EQDQ01  00002PRCP99
0122531920999992000040921004+44020+114950FM-12+112899999V0202201N002012200019N0300001N1-01021-02021102501ADDGA1001+999999999GF100991001001999999001001MD1710071+9999REMSYN054AAXX  09211 53192 42980 02202 11102 21202 40250 57007;
0183531920999992000041000004+44020+114950FM-12+112899999V0202701N005012200019N0300001N1-00381-01491102451ADDAA199000091GA1001+999999999GF100991001001999999001001MA1999999088891MD1210081+0011REMSYN070AAXX  10001 53192 32980 02705 11038 21149 38889 40245 52008 333 05107;EQDQ01  00002PRCP99
0112531920999992000041003004+44020+114950FM-12+112899999V0202701N009012200019N0300001N1+00261-01231102281ADDGF101991001001999999001021MD1710061+9999REMSYN060AAXX  10031 53192 42980 12709 10026 21123 40228 57006 80002;
0209531920999992000041006004+44020+114950FM-12+112899999V0202701N010012200019N0250001N1+00841-01641101931ADDAA199000091GF101991001001999999001021KA1240N-01061MA1999999088621MD1710211+9999OA130601801REMSYN088AAXX  10061 53192 32975 12710 10084 21164 38862 40193 57021 80002 333 21106 91118 91527;EQDQ01  00002PRCP99
0122531920999992000041009004+44020+114950FM-12+112899999V0202701N009012200019N0300001N1+01061-01621101721ADDGA1001+999999999GF100991001001999999001001MD1710151+9999REMSYN054AAXX  10091 53192 42980 02709 10106 21162 40172 57015;
0200531920999992000041012004+44020+114950FM-12+112899999V0202501N002012200019N0300001N1+00411-01851101701ADDAA199000091GA1001+999999999GF100991001001999999001001MA1999999088451MD1710021+9999OA130601801REMSYN076AAXX  10121 53192 32980 02502 10041 21185 38845 40170 57002 333 91118 91529;EQDQ01  00002PRCP99
0122531920999992000041015004+44020+114950FM-12+112899999V0202701N002012200019N0300001N1+00011-01711101561ADDGA1001+999999999GF100991001001999999001001MD1710071+9999REMSYN054AAXX  10151 53192 42980 02702 10001 21171 40156 57007;
0196531920999992000041018004+44020+114950FM-12+112899999V0202201N001012200019N0300001N1-00121-01671101321ADDAA199000091GA1001+999999999GF100991001001999999001001KA1999M+01071MA1999999088271MD1710111+9999REMSYN070AAXX  10181 53192 32980 02201 11012 21167 38827 40132 57011 333 10107;EQDQ01  00002PRCP99
0122531920999992000041021004+44020+114950FM-12+112899999V0202501N002012200019N0300001N1-00171-01571101071ADDGA1001+999999999GF100991001001999999001001MD1710181+9999REMSYN054AAXX  10211 53192 42980 02502 11017 21157 40107 57018;
0183531920999992000041100004+44020+114950FM-12+112899999V0202501N006012200019N0300001N1+00221-01251101071ADDAA199000091GA1001+999999999GF100991001001999999001001MA1999999088031MD1710061+0091REMSYN070AAXX  11001 53192 32980 02506 10022 21125 38803 40107 57006 333 05906;EQDQ01  00002PRCP99
0141531920999992000041103004+44020+114950FM-12+112899999V0202201N008012200019N0250001N1+01191-02422100741ADDGA1001+999999999GF100991001001999999001001MD1710161+9999REMSYN054AAXX  11031 53192 42975 02208 10119 21242 40074 57016;EQDQ01-002423ATOD  
0219531920999992000041106004+44020+114950FM-12+112899999V0202201N009012200019N0250001N1+01631-03111100391ADDAA199000091GA1001+999999999GF100991001001999999001001KA1240N-00291MA1999999087631MD1710241+9999OA130601701REMSYN082AAXX  11061 53192 32975 02209 10163 21311 38763 40039 57024 333 21029 91117 91522;EQDQ01  00002PRCP99
0122531920999992000041109004+44020+114950FM-12+112899999V0202201N007012200019N0300001N1+01711-03161100201ADDGA1001+999999999GF100991001001999999001001MD1710161+9999REMSYN054AAXX  11091 53192 42980 02207 10171 21316 40020 57016;
0189531920999992000041112004+44020+114950FM-12+112899999V0202201N002012200019N0300001N1+01021-01552100261ADDAA199000091GA1001+999999999GF100991001001999999001001MA1999999087461MD1710011+9999REMSYN060AAXX  11121 53192 32980 02202 10102 21155 38746 40026 57001;EQDQ01-001553ATOD  Q02  00002PRCP99
0122531920999992000041115004+44020+114950FM-12+112899999V0200401N002012200019N0300001N1+00541-01191100181ADDGA1001+999999999GF100991001001999999001001MD1210031+9999REMSYN054AAXX  11151 53192 42980 00402 10054 21119 40018 52003;
0186531920999992000041118004+44020+114950FM-12+112899999V0200201N004012200019N0300001N1+00401-01601100241ADDAA199000091GF101991001001999999001021KA1999M+01731MA1999999087601MD1210111+9999REMSYN076AAXX  11181 53192 32980 10204 10040 21160 38760 40024 52011 80002 333 10173;EQDQ01  00002PRCP99
0122531920999992000041121004+44020+114950FM-12+112899999V0200201N008012200019N0300001N1+00321-01681100411ADDGA1001+999999999GF100991001001999999001001MD1210151+9999REMSYN054AAXX  11211 53192 42980 00208 10032 21168 40041 52015;
0214531920999992000041200004+44020+114950FM-12+112899999V0200201N014012200019N0200001N1+00271-01311100871ADDAA199000091GF102991001001999999001021IA2999-00499MA1999999088001MD1210251+0001OA130601801REMSYN094AAXX  12001 53192 32970 20214 10027 21131 38800 40087 52025 80002 333 00001 31049 91118 91502;EQDQ01  00002PRCP99
0112531920999992000041203004+44020+114950FM-12+112899999V0200201N007019999999N0200001N1+00761-01491101191ADDGF105991001001999999001021MD1210281+9999REMSYN060AAXX  12031 53192 42970 50207 10076 21149 40119 52028 80002;
0209531920999992000041206004+44020+114950FM-12+112899999V0200701N002019999999N0250001N1+01051-01411101161ADDAA199000091GF107991001001999999001021KA1240N+00161MA1999999088291MD1210011+9999OA130601801REMSYN088AAXX  12061 53192 32975 70702 10105 21141 38829 40116 52001 80002 333 20016 91118 91502;EQDQ01  00002PRCP99
0112531920999992000041209004+44020+114950FM-12+112899999V0200201N006019999999N0300001N1+00951-01671101311ADDGF107991001001999999001021MD1210091+9999REMSYN060AAXX  12091 53192 42980 70206 10095 21167 40131 52009 80002;
0163531920999992000041212004+44020+114950FM-12+112899999V0203601N003012200019N0300001N1+00371-01811101731ADDAA199000091GF101991001001999999001021MA1999999088611MD1210231+9999REMSYN066AAXX  12121 53192 32980 13603 10037 21181 38861 40173 52023 80002;EQDQ01  00002PRCP99
0122531920999992000041215004+44020+114950FM-12+112899999V0200201N004012200019N0300001N1-00071-01551101901ADDGA1001+999999999GF100991001001999999001001MD1210161+9999REMSYN054AAXX  12151 53192 42980 00204 11007 21155 40190 52016;
0196531920999992000041218004+44020+114950FM-12+112899999V0200201N003012200019N0300001N1-00381-01701102121ADDAA199000091GA1001+999999999GF100991001001999999001001KA1999M+01101MA1999999088951MD1210181+9999REMSYN070AAXX  12181 53192 32980 00203 11038 21170 38895 40212 52018 333 10110;EQDQ01  00002PRCP99
0122531920999992000041221004+44020+114950FM-12+112899999V0203401N002012200019N0300001N1-00541-01831102261ADDGA1001+999999999GF100991001001999999001001MD1210071+9999REMSYN054AAXX  12211 53192 42980 03402 11054 21183 40226 52007;
0183531920999992000041300004+44020+114950FM-12+112899999V0203201N004012200019N0300001N1-00191-01371102601ADDAA199000091GA1001+999999999GF100991001001999999001001MA1999999089261MD1210241+0131REMSYN070AAXX  13001 53192 32980 03204 11019 21137 38926 40260 52024 333 01355;EQDQ01  00002PRCP99
0112531920999992000041303004+44020+114950FM-12+112899999V0200201N006012200019N0300001N1+00441-01581102561ADDGF101991001001999999001021MD1210011+9999REMSYN060AAXX  13031 53192 42980 10206 10044 21158 40256 52001 80002;
0186531920999992000041306004+44020+114950FM-12+112899999V0203401N005012200019N0300001N1+00641-02021102461ADDAA199000091GF102991011011008001001021KA1999N-00621MA1999999089161MD1710111+9999REMSYN076AAXX  13061 53192 32580 23405 10064 21202 38916 40246 57011 81102 333 21062;EQDQ01  00002PRCP99
0112531920999992000041309004+44020+114950FM-12+112899999V0203201N004019999999N0300001N1+00741-01741102371ADDGF106991021001999999031021MD1710091+9999REMSYN060AAXX  13091 53192 42980 63204 10074 21174 40237 57009 82032;
0163531920999992000041312004+44020+114950FM-12+112899999V0202701N004019999999N0300001N1+00431-01571102481ADDAA199000091GF106991021001999999031021MA1999999089171MD1210101+9999REMSYN066AAXX  13121 53192 32980 62704 10043 21157 38917 40248 52010 82032;EQDQ01  00002PRCP99
0112531920999992000041315004+44020+114950FM-12+112899999V0202701N005019999999N0300001N1+00221-01461102391ADDGF106991001001999999001021MD1210021+9999REMSYN060AAXX  13151 53192 42980 62705 10022 21146 40239 52002 80002;
0186531920999992000041318004+44020+114950FM-12+112899999V0203201N005019999999N0300001N1+00041-01431102231ADDAA199000091GF105991001001999999001021KA1999M+00781MA1999999089051MD1710141+9999REMSYN076AAXX  13181 53192 32980 53205 10004 21143 38905 40223 57014 80002 333 10078;EQDQ01  00002PRCP99
0112531920999992000041321004+44020+114950FM-12+112899999V0203601N003019999999N0300001N1-00061-01281102261ADDGF105991001001999999001021MD1210031+9999REMSYN060AAXX  13211 53192 42980 53603 11006 21128 40226 52003 80002;
0173531920999992000041400004+44020+114950FM-12+112899999V0209999C000012200019N0300001N1+00191-01061102441ADDAA199000091GF102991001001999999001021MA1999999089221MD1210141+0001REMSYN076AAXX  14001 53192 32980 20000 10019 21106 38922 40244 52014 80002 333 00004;EQDQ01  00002PRCP99
0112531920999992000041403004+44020+114950FM-12+112899999V0203601N002012200019N0300001N1+00581-01191102431ADDGF103991011011008001001021MD1210031+9999REMSYN060AAXX  14031 53192 42580 33602 10058 21119 40243 52003 81102;
0186531920999992000041406004+44020+114950FM-12+112899999V0203401N004010075019N0300001N1+00941-01341102191ADDAA199000091GF106991061011008001001001KA1999N-00351MA1999999089081MD1710171+9999REMSYN076AAXX  14061 53192 32580 63404 10094 21134 38908 40219 57017 86100 333 21035;EQDQ01  00002PRCP99
0112531920999992000041409004+44020+114950FM-12+112899999V0202701N005012200019N0300001N1+00971-01541102051ADDGF104991041011008001001001MD1710131+9999REMSYN060AAXX  14091 53192 42580 42705 10097 21154 40205 57013 84100;
0122531920999992000041415004+44020+114950FM-12+112899999V0203201N004012200019N0300001N1+00361-01461102121ADDGA1001+999999999GF100991001001999999001001MD1710021+9999REMSYN054AAXX  14151 53192 42980 03204 10036 21146 40212 57002;
0196531920999992000041418004+44020+114950FM-12+112899999V0202701N003012200019N0300001N1-00121-01401102041ADDAA199000091GA1001+999999999GF100991001001999999001001KA1999M+01041MA1999999088921MD1710091+9999REMSYN070AAXX  14181 53192 32980 02703 11012 21140 38892 40204 57009 333 10104;EQDQ01  00002PRCP99
0112531920999992000041421004+44020+114950FM-12+112899999V0209999C000012200019N0300001N1-00261-01381101981ADDGF101991001001999999001021MD1710081+9999REMSYN060AAXX  14211 53192 42980 10000 11026 21138 40198 57008 80002;
0173531920999992000041500004+44020+114950FM-12+112899999V0209999C000019999999N0300001N1+00171-01141101991ADDAA199000091GF106991001001999999001021MA1999999088881MD1210041+0031REMSYN076AAXX  15001 53192 32980 60000 10017 21114 38888 40199 52004 80002 333 05300;EQDQ01  00002PRCP99
0112531920999992000041503004+44020+114950FM-12+112899999V0202501N005019999999N0300001N1+00941-01721101751ADDGF107991001001999999001021MD1710111+9999REMSYN060AAXX  15031 53192 42980 72505 10094 21172 40175 57011 80002;
0186531920999992000041506004+44020+114950FM-12+112899999V0202501N005012200019N0300001N1+01441-02051101461ADDAA199000091GF104991011011008001031021KA1999N-00421MA1999999088521MD1710251+9999REMSYN076AAXX  15061 53192 32580 42505 10144 21205 38852 40146 57025 81132 333 21042;EQDQ01  00002PRCP99
0112531920999992000041509004+44020+114950FM-12+112899999V0202701N004010900019N0300001N1+01521-01961101281ADDGF106991011011008001001021MD1710171+9999REMSYN060AAXX  15091 53192 42580 62704 10152 21196 40128 57017 81102;
0163531920999992000041512004+44020+114950FM-12+112899999V0203201N003012200019N0300001N1+01021-01761101271ADDAA199000091GF101991011041012501001001MA1999999088331MD1710021+9999REMSYN066AAXX  15121 53192 32680 13203 10102 21176 38833 40127 57002 81400;EQDQ01  00002PRCP99
0122531920999992000041515004+44020+114950FM-12+112899999V0200201N001012200019N0300001N1+00401-01291101321ADDGA1001+999999999GF100991001001999999001001MD1210071+9999REMSYN054AAXX  15151 53192 42980 00201 10040 21129 40132 52007;
0186531920999992000041518004+44020+114950FM-12+112899999V0200201N002012200019N0300001N1+00241-01161101171ADDAA199000091GF101991001001999999001021KA1999M+01571MA1999999088341MD1710061+9999REMSYN076AAXX  15181 53192 32980 10202 10024 21116 38834 40117 57006 80002 333 10157;EQDQ01  00002PRCP99
0112531920999992000041521004+44020+114950FM-12+112899999V0209999C000019999999N0300001N1+00051-01001101111ADDGF107991001001999999001021MD1710071+9999REMSYN060AAXX  15211 53192 42980 70000 10005 21100 40111 57007 80002;
0191531920999992000041600004+44020+114950FM-12+112899999V0209999C000019999999N0300001N1+00401-01011101171ADDAA199000091GF106991001001999999001021IA2999-00309MA1999999088291MD1210021-0601REMSYN082AAXX  16001 53192 32980 60000 10040 21101 38829 40117 52002 80002 333 05602 31038;EQDQ01  00002PRCP99
0112531920999992000041603004+44020+114950FM-12+112899999V0201601N002019999999N0300001N1+01271-01211101011ADDGF106991001001999999001021MD1710091+9999REMSYN060AAXX  16031 53192 42980 61602 10127 21121 40101 57009 80002;
0186531920999992000041606004+44020+114950FM-12+112899999V0202701N003019999999N0300001N1+01701-01881100691ADDAA199000091GF106991001001999999001021KA1999N-00081MA1999999087981MD1710221+9999REMSYN076AAXX  16061 53192 32980 62703 10170 21188 38798 40069 57022 80002 333 21008;EQDQ01  00002PRCP99
0112531920999992000041609004+44020+114950FM-12+112899999V0202501N007010900019N0300001N1+01671-01921100561ADDGF107991031011008001001021MD1710161+9999REMSYN060AAXX  16091 53192 42580 72507 10167 21192 40056 57016 83102;
0163531920999992000041612004+44020+114950FM-12+112899999V0200201N006019999999N0300001N1+01061-01371100841ADDAA199000091GF106991001001999999001021MA1999999088011MD1210191+9999REMSYN066AAXX  16121 53192 32980 60206 10106 21137 38801 40084 52019 80002;EQDQ01  00002PRCP99
0112531920999992000041615004+44020+114950FM-12+112899999V0200401N005012200019N0300001N1+00661-01221100961ADDGF103991001001999999001021MD1210201+9999REMSYN060AAXX  16151 53192 42980 30405 10066 21122 40096 52020 80002;
0186531920999992000041618004+44020+114950FM-12+112899999V0200201N002012200019N0300001N1+00291-01071101031ADDAA199000091GF101991001001999999001021KA1999M+01751MA1999999088291MD1210081+9999REMSYN076AAXX  16181 53192 32980 10202 10029 21107 38829 40103 52008 80002 333 10175;EQDQ01  00002PRCP99
0112531920999992000041621004+44020+114950FM-12+112899999V0209999C000012200019N0300001N1+00001-00891101201ADDGF101991001001999999001021MD1210081+9999REMSYN060AAXX  16211 53192 42980 10000 10000 21089 40120 52008 80002;
0173531920999992000041700004+44020+114950FM-12+112899999V0209999C000012200019N0250001N1+00411-00851101411ADDAA199000091GF103991001001999999001021MA1999999088511MD1210141+0021REMSYN076AAXX  17001 53192 32975 30000 10041 21085 38851 40141 52014 80002 333 00200;EQDQ01  00002PRCP99
0112531920999992000041703004+44020+114950FM-12+112899999V0201601N002012200019N0300001N1+01331-01111101241ADDGF104991001001999999001021MD1710041+9999REMSYN060AAXX  17031 53192 42980 41602 10133 21111 40124 57004 80002;
0186531920999992000041706004+44020+114950FM-12+112899999V0201601N001010900019N0300001N1+01521-01251101141ADDAA199000091GF106991011011008001001021KA1999N-00131MA1999999088341MD1710131+9999REMSYN076AAXX  17061 53192 32580 61601 10152 21125 38834 40114 57013 81102 333 21013;EQDQ01  00002PRCP99
0112531920999992000041709004+44020+114950FM-12+112899999V0203401N003019999999N0300001N1+01521-01241101151ADDGF107991021001999999031021MD1710051+9999REMSYN060AAXX  17091 53192 42980 73403 10152 21124 40115 57005 82032;
0163531920999992000041712004+44020+114950FM-12+112899999V0201801N002019999999N0300001N1+01251-01091101221ADDAA199000091GF107991021001999999031021MA1999999088381MD1210091+9999REMSYN066AAXX  17121 53192 32980 71802 10125 21109 38838 40122 52009 82032;EQDQ01  00002PRCP99
0112531920999992000041715004+44020+114950FM-12+112899999V0209999C000010900019N0300001N1+01061-00951101101ADDGF106991021051012501001021MD1210051+9999REMSYN060AAXX  17151 53192 42680 60000 10106 21095 40110 52005 82502;
0186531920999992000041718004+44020+114950FM-12+112899999V0209999C000010900019N0300001N1+00911-00821101061ADDAA199000091GF107991021051012501001021KA1999M+01601MA1999999088401MD1710031+9999REMSYN076AAXX  17181 53192 32680 70000 10091 21082 38840 40106 57003 82502 333 10160;EQDQ01  00002PRCP99
0112531920999992000041721004+44020+114950FM-12+112899999V0200201N004010900019N0300001N1+00821-01191101021ADDGF107991031051012501001021MD1710051+9999REMSYN060AAXX  17211 53192 42680 70204 10082 21119 40102 57005 83502;
0191531920999992000041800004+44020+114950FM-12+112899999V0200701N004010900019N0300001N1+01101-00751100951ADDAA199000091GF107991021051012501001021IA2999+00309MA1999999088291MD1710061-0201REMSYN082AAXX  18001 53192 32680 70704 10110 21075 38829 40095 57006 82502 333 05207 30038;EQDQ01  00002PRCP99
0112531920999992000041803004+44020+114950FM-12+112899999V0200901N005010900019N0300001N1+01481-00811100811ADDGF107991031051012501001021MD1710081+9999REMSYN060AAXX  18031 53192 42680 70905 10148 21081 40081 57008 83502;
0186531920999992000041806004+44020+114950FM-12+112899999V0201801N003010120019N0200001N1+01471-00551100681ADDAA199000091GF107991061051012501001021KA1999N+00721MA1999999088061MD1710151+9999REMSYN076AAXX  18061 53192 32670 71803 10147 21055 38806 40068 57015 86502 333 20072;EQDQ01  00002PRCP99
0132531920999992000041809004+44020+114950FM-12+112899999V0201601N005010075019N0200001N1+01041+00391100731ADDAY181031GF107991071091008001001021MD1710061+9999MW1801REMSYN066AAXX  18091 53192 41570 71605 10104 20039 40073 57006 78080 87902;
0170531920999992000041812004+44020+114950FM-12+112899999V0201401N004010075019N0250001N1+00961+00481100691ADDAA106000191AY181061GF107991061091008001001021MA1999999088001MD1410001+9999MW1001REMSYN078AAXX  18121 53192 11575 71404 10096 20048 38800 40069 54000 69911 70080 86902;
0112531920999992000041815004+44020+114950FM-12+112899999V0200401N002012200019N0300001N1+00631+00391100731ADDGF101991001001999999001021MD1210051+9999REMSYN060AAXX  18151 53192 42980 10402 10063 20039 40073 52005 80002;
0177531920999992000041818004+44020+114950FM-12+112899999V0200201N003012200019N0300001N1+00311+00191100801ADDAA199000021GA1001+999999999GF100991001001999999001001KA1999M+01631MA1999999088041MD1710011+9999REMSYN070AAXX  18181 53192 32980 00203 10031 20019 38804 40080 57001 333 10163;
0133531920999992000041821004+44020+114950FM-12+112899999V0209999C000019999999N0300001N1+00181+00111100981ADDAA124000191GF107991001001999999001021MD1210041+9999REMSYN070AAXX  18211 53192 42980 70000 10018 20011 40098 52004 80002 333 70001;
0178531920999992000041900004+44020+114950FM-12+112899999V0201601N001010900019N0300001N1+00511+00351101031ADDAA124000191GF107991041091012501001021IA2999-00319MA1999999088181MD1210101-0101REMSYN088AAXX  19001 53192 32680 71601 10051 20035 38818 40103 52010 84902 333 05156 31031 70001;
0112531920999992000041903004+44020+114950FM-12+112899999V0200901N002010900019N0300001N1+01121+00411100901ADDGF107991011011008001001021MD1710061+9999REMSYN060AAXX  19031 53192 42580 70902 10112 20041 40090 57006 81102;
0186531920999992000041906004+44020+114950FM-12+112899999V0202501N002010360019N0300001N1+01601+00161100631ADDAA199000091GF107991011091008001031021KA1999N+00031MA1999999087921MD1710201+9999REMSYN076AAXX  19061 53192 32580 72502 10160 20016 38792 40063 57020 81932 333 20003;EQDQ01  00002PRCP99
0112531920999992000041909004+44020+114950FM-12+112899999V0202701N009010075019N0200001N1+01281+00261100611ADDGF107991061091008001001021MD1710111+9999REMSYN060AAXX  19091 53192 42570 72709 10128 20026 40061 57011 86902;
0197531920999992000041912004+44020+114950FM-12+112899999V0202701N003010075019N0200001N1+00571+00391100871ADDAA106002091AY181061GF108991081091008001999999MA1999999087951MD1210141+9999MW1801OA130601801REMSYN094AAXX  19121 53192 11570 82703 10057 20039 38795 40087 52014 60021 78080 889// 333 91118 91527;
0132531920999992000041915004+44020+114950FM-12+112899999V0202001N003010900019N0300001N1+00591+00301100561ADDAY181031GF107991021091008001001021MD1710131+9999MW1001REMSYN066AAXX  19151 53192 41580 72003 10059 20030 40056 57013 70080 82902;
0193531920999992000041918004+44020+114950FM-12+112899999V0202001N007010900019N0300001N1+00691+00171100001ADDAA106000191AY181061GF107991021091008001001021KA1999M+01661MA1999999087451MD1710371+9999MW1001REMSYN088AAXX  19181 53192 11580 72007 10069 20017 38745 40000 57037 69911 70080 82902 333 10166;
0153531920999992000041921004+44020+114950FM-12+112899999V0202001N005010075019N0200001N1+00401+00211099731ADDAA124003891AY181031GF107991071091008001001021MD1710361+9999MW1801REMSYN076AAXX  19211 53192 41570 72005 10040 20021 49973 57036 78080 87902 333 70039;
0204531920999992000042000004+44020+114950FM-12+112899999V0202701N005010075019N0250001N1+00491+00361099821ADDAA106002091AY181061GF107991071091008001001021IA2999+00349MA1999999087031MD1710061-1201MW1801REMSYN100AAXX  20001 53192 11575 72705 10049 20036 38703 49982 57006 60021 78080 87902 333 06200 30034 70044;
0132531920999992000042003004+44020+114950FM-12+112899999V0202701N007010120019N0200001N1+00631+00371099961ADDAY181031GF107991061091012501001021MD1210161+9999MW1001REMSYN066AAXX  20031 53192 41670 72707 10063 20037 49996 52016 70080 86902;
0206531920999992000042006004+44020+114950FM-12+112899999V0202701N009010120019N0300001N1+00551+00181100001ADDAA106002091AY181061GF107991071091012501001021HL10009KA1240N+00331MA1999999087231MD1210041+9999MW1001REMSYN094AAXX  20061 53192 11680 72709 10055 20018 38723 40000 52004 60021 70080 87902 333 20033 93902;
0132531920999992000042009004+44020+114950FM-12+112899999V0203401N010010120019N0300001N1+00401-00251100451ADDAY181031GF107991071091012501001021MD1210301+9999MW1001REMSYN066AAXX  20091 53192 41680 73410 10040 21025 40045 52030 70080 87902;
0197531920999992000042012004+44020+114950FM-12+112899999V0202701N004010075019N0250001N1+00181-00021100891ADDAA106000891AY181061GF107991061091008001001021MA1999999087881MD1210351+9999MW1831OA130601801REMSYN094AAXX  20121 53192 11575 72704 10018 21002 38788 40089 52035 69981 78380 86902 333 91118 91527;
0132531920999992000042015004+44020+114950FM-12+112899999V0202701N005010075019N0300001N1+00231+00001100951ADDAY181031GF107991051091008001001021MD1210101+9999MW1261REMSYN066AAXX  20151 53192 41580 72705 10023 20000 40095 52010 72680 85902;
0133531920999992000042021004+44020+114950FM-12+112899999V0202701N004010900019N0300001N1+00041+00011100891ADDAA124003391GF107991031091008001001021MD1710081+9999REMSYN070AAXX  20211 53192 42580 72704 10004 20001 40089 57008 83902 333 70033;
0124531920999992000042103004+44020+114950FM-12+112899999V0203201N003010075019N0200001N1-00011-00351101141ADDGF108991081091008001999999MD1210121+9999MW1831REMSYN066AAXX  21031 53192 41570 83203 11001 21035 40114 52012 78300 889//;
0193531920999992000042106004+44020+114950FM-12+112899999V0203201N003010075019N0250001N1-00031-00331101231ADDAA106000191AY181061GF107991071091008001001021KA1999N-00151MA1999999088061MD1210061+9999MW1261REMSYN088AAXX  21061 53192 11575 73203 11003 21033 38806 40123 52006 69921 72680 87902 333 21015;
0112531920999992000042109004+44020+114950FM-12+112899999V0202701N008010075019N0300001N1+00391-01071101131ADDGF107991061091008001001021MD1710021+9999REMSYN060AAXX  21091 53192 42580 72708 10039 21107 40113 57002 86902;
0144531920999992000042112004+44020+114950FM-12+112899999V0203201N004012200019N0300001N1+00161-01001101341ADDAA199000021GF102991021041012501001021MA1999999088211MD1210171+9999REMSYN066AAXX  21121 53192 32680 23204 10016 21100 38821 40134 52017 82402;
0112531920999992000042115004+44020+114950FM-12+112899999V0202901N003012200019N0300001N1-00111-00861101561ADDGF101991001001999999001021MD1210081+9999REMSYN060AAXX  21151 53192 42980 12903 11011 21086 40156 52008 80002;
0177531920999992000042118004+44020+114950FM-12+112899999V0202901N004012200019N0300001N1-00201-00951101521ADDAA199000021GA1001+999999999GF100991001001999999001001KA1999M+00431MA1999999088231MD1710061+9999REMSYN070AAXX  21181 53192 32980 02904 11020 21095 38823 40152 57006 333 10043;
0133531920999992000042121004+44020+114950FM-12+112899999V0203201N003012200019N0300001N1-00401-01031101421ADDAA124000391GF101991001001999999001021MD1710041+9999REMSYN070AAXX  21211 53192 42980 13203 11040 21103 40142 57004 80002 333 70002;
0160531920999992000042200004+44020+114950FM-12+112899999V0203201N006019999999N0300001N1-00131-00641101451ADDAA124000391GF107991001001999999001021MA1999999088231MD1210041+0401REMSYN082AAXX  22001 53192 32980 73206 11013 21064 38823 40145 52004 80002 333 00453 70002;
0112531920999992000042203004+44020+114950FM-12+112899999V0203201N009010120019N0300001N1+00301-00871101521ADDGF106991061021012501001021MD1210101+9999REMSYN060AAXX  22031 53192 42680 63209 10030 21087 40152 52010 86202;
0209531920999992000042206004+44020+114950FM-12+112899999V0203401N011010120019N0200001N1+00501-01651101471ADDAA199000091GF107991051021012501001021KA1240N-00501MA1999999088311MD1710021+9999OA130601801REMSYN088AAXX  22061 53192 32670 73411 10050 21165 38831 40147 57002 85202 333 21050 91118 91529;EQDQ01  00002PRCP99
0112531920999992000042209004+44020+114950FM-12+112899999V0202901N009010900019N0300001N1+00561-01711101461ADDGF105991011011012501001021MD1710041+9999REMSYN060AAXX  22091 53192 42680 52909 10056 21171 40146 57004 81102;
0122531920999992000042215004+44020+114950FM-12+112899999V0202201N003012200019N0300001N1-00081-01171101641ADDGA1001+999999999GF100991001001999999001001MD1210061+9999REMSYN054AAXX  22151 53192 42980 02203 11008 21117 40164 52006;
0196531920999992000042218004+44020+114950FM-12+112899999V0209999C000012200019N0300001N1-00131-01181101611ADDAA199000091GA1001+999999999GF100991001001999999001001KA1999M+00671MA1999999088441MD1410001+9999REMSYN070AAXX  22181 53192 32980 00000 11013 21118 38844 40161 54000 333 10067;EQDQ01  00002PRCP99
0112531920999992000042221004+44020+114950FM-12+112899999V0209999C000012200019N0300001N1-00241-01171101551ADDGF101991001001999999001021MD1710061+9999REMSYN060AAXX  22211 53192 42980 10000 11024 21117 40155 57006 80002;
0183531920999992000042300004+44020+114950FM-12+112899999V0202201N002012200019N0300001N1+00031-00991101541ADDAA199000091GA1001+999999999GF100991001001999999001001MA1999999088391MD1210011+0021REMSYN070AAXX  23001 53192 32980 02202 10003 21099 38839 40154 52001 333 00202;EQDQ01  00002PRCP99
0112531920999992000042303004+44020+114950FM-12+112899999V0203201N005012200019N0300001N1+00771-01141101461ADDGF101991011011008001001001MD1710011+9999REMSYN060AAXX  23031 53192 42580 13205 10077 21114 40146 57001 81100;
0186531920999992000042306004+44020+114950FM-12+112899999V0203201N005012200019N0300001N1+01061-01301101181ADDAA199000091GF101991011011008001001001KA1999N-00341MA1999999088191MD1710191+9999REMSYN076AAXX  23061 53192 32580 13205 10106 21130 38819 40118 57019 81100 333 21034;EQDQ01  00002PRCP99
0112531920999992000042309004+44020+114950FM-12+112899999V0203201N005012200019N0300001N1+01201-01591100961ADDGF101991001001999999001021MD1710181+9999REMSYN060AAXX  23091 53192 42980 13205 10120 21159 40096 57018 80002;
0163531920999992000042312004+44020+114950FM-12+112899999V0203201N001012200019N0300001N1+00861-00871101021ADDAA199000091GF101991001001999999001021MA1999999088041MD1210031+9999REMSYN066AAXX  23121 53192 32980 13201 10086 21087 38804 40102 52003 80002;EQDQ01  00002PRCP99
0122531920999992000042315004+44020+114950FM-12+112899999V0200401N002012200019N0300001N1+00301-00681100971ADDGA1001+999999999GF100991001001999999001001MD1410001+9999REMSYN054AAXX  23151 53192 42980 00402 10030 21068 40097 54000;
0196531920999992000042318004+44020+114950FM-12+112899999V0200201N002012200019N0300001N1+00091-00641100831ADDAA199000091GA1001+999999999GF100991001001999999001001KA1999M+01241MA1999999087931MD1710111+9999REMSYN070AAXX  23181 53192 32980 00202 10009 21064 38793 40083 57011 333 10124;EQDQ01  00002PRCP99
0112531920999992000042321004+44020+114950FM-12+112899999V0200201N003012200019N0300001N1-00051-00641100621ADDGF104991001001999999001021MD1710181+9999REMSYN060AAXX  23211 53192 42980 40203 11005 21064 40062 57018 80002;
0191531920999992000042400004+44020+114950FM-12+112899999V0209999C000019999999N0300001N1+00661-00581100491ADDAA199000091GF107991001001999999001021IA2999-00409MA1999999087721MD1710031-0701REMSYN082AAXX  24001 53192 32980 70000 10066 21058 38772 40049 57003 80002 333 05706 31046;EQDQ01  00002PRCP99
0112531920999992000042403004+44020+114950FM-12+112899999V0201601N005019999999N0300001N1+01381-01001100261ADDGF107991001001999999001021MD1710171+9999REMSYN060AAXX  24031 53192 42980 71605 10138 21100 40026 57017 80002;
0186531920999992000042406004+44020+114950FM-12+112899999V0202001N009010120019N0200001N1+01701-01091099971ADDAA199000091GF107991061021012501001021KA1999N-00121MA1999999087321MD1710231+9999REMSYN076AAXX  24061 53192 32670 72009 10170 21109 38732 49997 57023 86202 333 21012;EQDQ01  00002PRCP99
0112531920999992000042409004+44020+114950FM-12+112899999V0202001N011010075019N0200001N1+01341-00121099991ADDGF107991051091008001001021MD1710091+9999REMSYN060AAXX  24091 53192 42570 72011 10134 21012 49999 57009 85902;
0112531920999992000042415004+44020+114950FM-12+112899999V0202701N006019999999N0250001N1+00581-02082100261ADDGF105991001001999999001021MD1210171+9999REMSYN060AAXX  24151 53192 42975 52706 10058 21208 40026 52017 80002;
0209531920999992000042418004+44020+114950FM-12+112899999V0202701N004019999999N0300001N1+00251-01031100381ADDAA199000091GF107991001001999999001021KA1240M+01851MA1999999087711MD1210101+9999OA130601901REMSYN088AAXX  24181 53192 32980 72704 10025 21103 38771 40038 52010 80002 333 10185 91119 91527;EQDQ01  00002PRCP99
0112531920999992000042421004+44020+114950FM-12+112899999V0202701N001019999999N0300001N1-00061-00951100531ADDGF106991001001999999001021MD1710011+9999REMSYN060AAXX  24211 53192 42980 62701 11006 21095 40053 57001 80002;
0191531920999992000042500004+44020+114950FM-12+112899999V0209999C000019999999N0300001N1+00141-00891100631ADDAA199000091GF107991001001999999001021IA2999-00309MA1999999087791MD1210091+0101REMSYN082AAXX  25001 53192 32980 70000 10014 21089 38779 40063 52009 80002 333 00155 31031;EQDQ01  00002PRCP99
0112531920999992000042503004+44020+114950FM-12+112899999V0202201N001019999999N0250001N1+00481-00951100841ADDGF107991001001999999001021MD1210131+9999REMSYN060AAXX  25031 53192 42975 72201 10048 21095 40084 52013 80002;
0143531920999992000042506004+44020+114950FM-12+112899999V0200401N006019999999N0250001N1+00561+99999999999ADDAA199000091GF107991999999008001999999REMSYN075AAXX  25061 53192 32575 70406 10056 2102 38797 40096 52005 86202 333 21012;EQDQ01  00002PRCP99
0112531920999992000042509004+44020+114950FM-12+112899999V0200201N005010075019N0300001N1+01041-00881100981ADDGF107991061091008001001021MD1210061+9999REMSYN060AAXX  25091 53192 42580 70205 10104 21088 40098 52006 86902;
0163531920999992000042512004+44020+114950FM-12+112899999V0203401N005010900019N0300001N1+00761-00891101311ADDAA199000091GF106991011041012501001021MA1999999088301MD1210271+9999REMSYN066AAXX  25121 53192 32680 63405 10076 21089 38830 40131 52027 81402;EQDQ01  00002PRCP99
0112531920999992000042515004+44020+114950FM-12+112899999V0200201N003012200019N0300001N1+00341-00591101551ADDGF101991001001999999001021MD1210191+9999REMSYN060AAXX  25151 53192 42980 10203 10034 21059 40155 52019 80002;
0196531920999992000042518004+44020+114950FM-12+112899999V0203601N001012200019N0300001N1+00061-00331101691ADDAA199000091GA1001+999999999GF100991001001999999001001KA1999M+01081MA1999999088571MD1210081+9999REMSYN070AAXX  25181 53192 32980 03601 10006 21033 38857 40169 52008 333 10108;EQDQ01  00002PRCP99
0122531920999992000042521004+44020+114950FM-12+112899999V0203401N003012200019N0300001N1+00101-00231101531ADDGA1001+999999999GF100991001001999999001001MD1710031+9999REMSYN054AAXX  25211 53192 42980 03403 10010 21023 40153 57003;
0196531920999992000042600004+44020+114950FM-12+112899999V0203401N006010900019N0300001N1+00311-00021101721ADDAA106000791GF107991031091012501001021IA2999-00409MA1999999088691MD1210151+0901MW1801REMSYN100AAXX  26001 53192 11680 73406 10031 21002 38869 40172 52015 69901 78000 83902 333 00902 31040 79999;
0132531920999992000042603004+44020+114950FM-12+112899999V0203601N002010075019N0300001N1+00651-00181101781ADDAY181031GF107991061091008001001021MD1210041+9999MW1801REMSYN066AAXX  26031 53192 41580 73602 10065 21018 40178 52004 78080 86902;
0193531920999992000042606004+44020+114950FM-12+112899999V0203601N003010075019N0300001N1+00981-00561101711ADDAA106000791AY181061GF106991051091008001001021KA1999N-00041MA1999999088681MD1710051+9999MW1001REMSYN088AAXX  26061 53192 11580 63603 10098 21056 38868 40171 57005 69901 70080 85902 333 21004;
0112531920999992000042609004+44020+114950FM-12+112899999V0200201N004010900019N0300001N1+01121-00721101581ADDGF105991031011008001001021MD1710081+9999REMSYN060AAXX  26091 53192 42580 50204 10112 21072 40158 57008 83102;
0144531920999992000042612004+44020+114950FM-12+112899999V0200201N001012200019N0300001N1+00861-00371101661ADDAA199000021GF101991001001999999001021MA1999999088661MD1210061+9999REMSYN066AAXX  26121 53192 32980 10201 10086 21037 38866 40166 52006 80002;
0122531920999992000042615004+44020+114950FM-12+112899999V0209999C000012200019N0300001N1+00341-00311101711ADDGA1001+999999999GF100991001001999999001001MD1210011+9999REMSYN054AAXX  26151 53192 42980 00000 10034 21031 40171 52001;
0196531920999992000042618004+44020+114950FM-12+112899999V0209999C000012200019N0300001N1+00101-00481101651ADDAA199000091GA1001+999999999GF100991001001999999001001KA1999M+01181MA1999999088631MD1710041+9999REMSYN070AAXX  26181 53192 32980 00000 10010 21048 38863 40165 57004 333 10118;EQDQ01  00002PRCP99
0143531920999992000042621004+44020+114950FM-12+112899999V0209999C000012200019N0300001N1-00111-00471101561ADDAA124000791GA1001+999999999GF100991001001999999001001MD1710091+9999REMSYN064AAXX  26211 53192 42980 00000 11011 21047 40156 57009 333 79999;
0170531920999992000042700004+44020+114950FM-12+112899999V0209999C000012200019N0300001N1+00481-00451101511ADDAA124000791GA1001+999999999GF100991001001999999001001MA1999999088571MD1210031-0101REMSYN076AAXX  27001 53192 32980 00000 10048 21045 38857 40151 52003 333 05102 79999;
0122531920999992000042703004+44020+114950FM-12+112899999V0202201N004012200019N0300001N1+01461-00931101311ADDGA1001+999999999GF100991001001999999001001MD1710081+9999REMSYN054AAXX  27031 53192 42980 02204 10146 21093 40131 57008;
0196531920999992000042706004+44020+114950FM-12+112899999V0202701N004012200019N0300001N1+01611-01371101101ADDAA199000091GA1001+999999999GF100991001001999999001001KA1999N-00211MA1999999088291MD1710201+9999REMSYN070AAXX  27061 53192 32980 02704 10161 21137 38829 40110 57020 333 21021;EQDQ01  00002PRCP99
0122531920999992000042709004+44020+114950FM-12+112899999V0202001N003012200019N0300001N1+01761-01421100901ADDGA1001+999999999GF100991001001999999001001MD1710191+9999REMSYN054AAXX  27091 53192 42980 02003 10176 21142 40090 57019;
0163531920999992000042712004+44020+114950FM-12+112899999V0201601N003012200019N0300001N1+01341-01011100851ADDAA199000091GF101991001001999999001021MA1999999088091MD1710011+9999REMSYN066AAXX  27121 53192 32980 11603 10134 21101 38809 40085 57001 80002;EQDQ01  00002PRCP99
0122531920999992000042715004+44020+114950FM-12+112899999V0201101N003012200019N0300001N1+00981-01021100721ADDGA1001+999999999GF100991001001999999001001MD1210021+9999REMSYN054AAXX  27151 53192 42980 01103 10098 21102 40072 52002;
0196531920999992000042718004+44020+114950FM-12+112899999V0201101N002012200019N0300001N1+00901-00891100641ADDAA199000091GA1001+999999999GF100991001001999999001001KA1999M+01781MA1999999088051MD1710061+9999REMSYN070AAXX  27181 53192 32980 01102 10090 21089 38805 40064 57006 333 10178;EQDQ01  00002PRCP99
0112531920999992000042721004+44020+114950FM-12+112899999V0209999C000012200019N0300001N1+00441-00581100581ADDGF101991001001999999001021MD1710111+9999REMSYN060AAXX  27211 53192 42980 10000 10044 21058 40058 57011 80002;
0191531920999992000042800004+44020+114950FM-12+112899999V0209999C000012200019N0300001N1+01171-00641100551ADDAA199000091GF101991001001999999001021IA2999-00209MA1999999087971MD1210031-0601REMSYN082AAXX  28001 53192 32980 10000 10117 21064 38797 40055 52003 80002 333 05607 31020;EQDQ01  00002PRCP99
0131531920999992000042803004+44020+114950FM-12+112899999V0202001N009012200019N0300001N1+02051-01852100231ADDGF103991001001999999001021MD1710171+9999REMSYN060AAXX  28031 53192 42980 32009 10205 21185 40023 57017 80002;EQDQ01-001853ATOD  
0186531920999992000042806004+44020+114950FM-12+112899999V0202201N010019999999N0250001N1+02371-02021099981ADDAA199000091GF106991001001999999001021KA1999N+00301MA1999999087631MD1710171+9999REMSYN076AAXX  28061 53192 32975 62210 10237 21202 38763 49998 57017 80002 333 20030;EQDQ01  00002PRCP99
0112531920999992000042809004+44020+114950FM-12+112899999V0202701N010019999999N0250001N1+02251-01681099971ADDGF106991001001999999001021MD1710131+9999REMSYN060AAXX  28091 53192 42975 62710 10225 21168 49997 57013 80002;
0163531920999992000042812004+44020+114950FM-12+112899999V0202701N002010900019N0300001N1+01661-00562100041ADDAA199000091GF107991021091012501001021MA1999999087591MD1210091+9999REMSYN066AAXX  28121 53192 32680 72702 10166 21056 38759 40004 52009 82902;EQDQ01  00002PRCP99
0112531920999992000042815004+44020+114950FM-12+112899999V0202701N008010900019N0200001N1+01251-00851100301ADDGF107991021091012501001021MD1210321+9999REMSYN060AAXX  28151 53192 42670 72708 10125 21085 40030 52032 82902;
0209531920999992000042818004+44020+114950FM-12+112899999V0202201N007010900019N0250001N1+00921-00751100391ADDAA199000091GF107991031091012501001021KA1240M+02441MA1999999087991MD1210081+9999OA130601901REMSYN088AAXX  28181 53192 32675 72207 10092 21075 38799 40039 52008 83902 333 10244 91119 91527;EQDQ01  00002PRCP99
0112531920999992000042821004+44020+114950FM-12+112899999V0202201N010010900019N0250001N1+00361-00981100611ADDGF107991031091012501001021MD1210061+9999REMSYN060AAXX  28211 53192 42675 72210 10036 21098 40061 52006 83902;
0214531920999992000042900004+44020+114950FM-12+112899999V0202201N011019999999N0250001N1+00291-00741100781ADDAA199000091GF106991001001999999001021IA2999+00079MA1999999088061MD1210011+0101OA130601901REMSYN094AAXX  29001 53192 32975 62211 10029 21074 38806 40078 52001 80002 333 00159 30007 91119 91522;EQDQ01  00002PRCP99
0112531920999992000042903004+44020+114950FM-12+112899999V0202701N010010360019N0200001N1+00581-01111100801ADDGF106991031011008001031021MD1710011+9999REMSYN060AAXX  29031 53192 42570 62710 10058 21111 40080 57001 83132;
0209531920999992000042906004+44020+114950FM-12+112899999V0202701N011012200019N0250001N1+01061-01971100661ADDAA199000091GF102991011011008001001021KA1240N+00101MA1999999087961MD1710091+9999OA130602001REMSYN088AAXX  29061 53192 32575 22711 10106 21197 38796 40066 57009 81102 333 20010 91120 91525;EQDQ01  00002PRCP99
0112531920999992000042909004+44020+114950FM-12+112899999V0202901N009010900019N0250001N1+01161-01561100691ADDGF105991031091008001001021MD1710071+9999REMSYN060AAXX  29091 53192 42575 52909 10116 21156 40069 57007 83902;
0190531920999992000042912004+44020+114950FM-12+112899999V0202901N005012200019N0300001N1+01021-01151100951ADDAA199000091GF102991021051012501001021MA1999999088071MD1210181+9999OA130601801REMSYN082AAXX  29121 53192 32680 22905 10102 21115 38807 40095 52018 82502 333 91118 91527;EQDQ01  00002PRCP99
0122531920999992000042915004+44020+114950FM-12+112899999V0202701N004012200019N0300001N1+00771-00921101051ADDGA1001+999999999GF100991001001999999001001MD1210101+9999REMSYN054AAXX  29151 53192 42980 02704 10077 21092 40105 52010;
0196531920999992000042918004+44020+114950FM-12+112899999V0202701N005012200019N0300001N1+00561-00901101071ADDAA199000091GA1001+999999999GF100991001001999999001001KA1999M+01251MA1999999088241MD1210071+9999REMSYN070AAXX  29181 53192 32980 02705 10056 21090 38824 40107 52007 333 10125;EQDQ01  00002PRCP99
0122531920999992000042921004+44020+114950FM-12+112899999V0202701N004012200019N0300001N1+00291-00741101181ADDGA1001+999999999GF100991001001999999001001MD1210061+9999REMSYN054AAXX  29211 53192 42980 02704 10029 21074 40118 52006;
0201531920999992000043000004+44020+114950FM-12+112899999V0202701N005012200019N0300001N1+00751-00481101171ADDAA199000091GA1001+999999999GF100991001001999999001001IA2999-00109MA1999999088361MD1210061+0301REMSYN076AAXX  30001 53192 32980 02705 10075 21048 38836 40117 52006 333 00305 31019;EQDQ01  00002PRCP99
0122531920999992000043003004+44020+114950FM-12+112899999V0202901N008012200019N0300001N1+01321-00561101061ADDGA1001+999999999GF100991001001999999001001MD1710031+9999REMSYN054AAXX  30031 53192 42980 02908 10132 21056 40106 57003;
0209531920999992000043006004+44020+114950FM-12+112899999V0202901N012012200019N0300001N1+01731-00501100861ADDAA199000091GF102991021011008001001001KA1240N+00161MA1999999088201MD1710131+9999OA130601901REMSYN088AAXX  30061 53192 32580 22912 10173 21050 38820 40086 57013 82100 333 20016 91119 91529;EQDQ01  00002PRCP99
0112531920999992000043009004+44020+114950FM-12+112899999V0203201N010012200019N0300001N1+01881-00931100821ADDGF104991041021008001001001MD1710061+9999REMSYN060AAXX  30091 53192 42580 43210 10188 21093 40082 57006 84200;
0190531920999992000043012004+44020+114950FM-12+112899999V0203401N004012200019N0300001N1+01481-00671101051ADDAA199000091GF101991011041012501001001MA1999999088351MD1210211+9999OA130601801REMSYN082AAXX  30121 53192 32680 13404 10148 21067 38835 40105 52021 81400 333 91118 91532;EQDQ01  00002PRCP99
0122531920999992000043015004+44020+114950FM-12+112899999V0200401N002012200019N0300001N1+00681-00371101351ADDGA1001+999999999GF100991001001999999001001MD1210221+9999REMSYN054AAXX  30151 53192 42980 00402 10068 21037 40135 52022;
0196531920999992000043018004+44020+114950FM-12+112899999V0209999C000012200019N0300001N1+00321-00091101411ADDAA199000091GA1001+999999999GF100991001001999999001001KA1999M+01931MA1999999088631MD1210061+9999REMSYN070AAXX  30181 53192 32980 00000 10032 21009 38863 40141 52006 333 10193;EQDQ01  00002PRCP99
0122531920999992000043021004+44020+114950FM-12+112899999V0200201N001012200019N0300001N1+00181-00161101461ADDGA1001+999999999GF100991001001999999001001MD1210051+9999REMSYN054AAXX  30211 53192 42980 00201 10018 21016 40146 52005;
0201531920999992000050100004+44020+114950FM-12+112899999V0209999C000012200019N0300001N1+00561-00091101611ADDAA199000091GA1001+999999999GF100991001001999999001001IA2999-00309MA1999999088801MD1210121+0401REMSYN076AAXX  01001 53192 32980 00000 10056 21009 38880 40161 52012 333 00452 31031;EQDQ01  00002PRCP99
0112531920999992000050103004+44020+114950FM-12+112899999V0201401N002012200019N0300001N1+01241+00081101741ADDGF101991001001999999001021MD1210091+9999REMSYN060AAXX  01031 53192 42980 11402 10124 20008 40174 52009 80002;
0196531920999992000050106004+44020+114950FM-12+112899999V0202001N002012200019N0300001N1+01781+00011101501ADDAA199000091GA1001+999999999GF100991001001999999001001KA1999N+00031MA1999999088721MD1710171+9999REMSYN070AAXX  01061 53192 32980 02002 10178 20001 38872 40150 57017 333 20003;EQDQ01  00002PRCP99
0112531920999992000050109004+44020+114950FM-12+112899999V0209999C000012200019N0300001N1+01971-00241101351ADDGF101991001001999999001021MD1710121+9999REMSYN060AAXX  01091 53192 42980 10000 10197 21024 40135 57012 80002;
0163531920999992000050112004+44020+114950FM-12+112899999V0201401N004012200019N0300001N1+01561-00181101321ADDAA199000091GF103991001001999999001021MA1999999088571MD1710031+9999REMSYN066AAXX  01121 53192 32980 31404 10156 21018 38857 40132 57003 80002;EQDQ01  00002PRCP99
0122531920999992000050115004+44020+114950FM-12+112899999V0201401N004012200019N0300001N1+01321-00141101221ADDGA1001+999999999GF100991001001999999001001MD1410001+9999REMSYN054AAXX  01151 53192 42980 01404 10132 21014 40122 54000;
0186531920999992000050118004+44020+114950FM-12+112899999V0201601N002012200019N0300001N1+01121-00161101081ADDAA199000091GF101991001001999999001021KA1999M+02051MA1999999088521MD1710051+9999REMSYN076AAXX  01181 53192 32980 11602 10112 21016 38852 40108 57005 80002 333 10205;EQDQ01  00002PRCP99
0112531920999992000050121004+44020+114950FM-12+112899999V0209999C000019999999N0300001N1+01021-00221100941ADDGF107991001001999999001021MD1710111+9999REMSYN060AAXX  01211 53192 42980 70000 10102 21022 40094 57011 80002;
0191531920999992000050200004+44020+114950FM-12+112899999V0201801N006019999999N0300001N1+01401-00611100781ADDAA199000091GF107991001001999999001021IA2999+00309MA1999999088271MD1710141-0501REMSYN082AAXX  02001 53192 32980 71806 10140 21061 38827 40078 57014 80002 333 05508 30030;EQDQ01  00002PRCP99
0112531920999992000050203004+44020+114950FM-12+112899999V0202501N008019999999N0300001N1+02041-01511100581ADDGF107991001001999999001021MD1710101+9999REMSYN060AAXX  02031 53192 42980 72508 10204 21151 40058 57010 80002;
0186531920999992000050206004+44020+114950FM-12+112899999V0202501N009019999999N0300001N1+02481-01401100351ADDAA199000091GF107991001001999999001021KA1999N+00861MA1999999088021MD1710151+9999REMSYN076AAXX  02061 53192 32980 72509 10248 21140 38802 40035 57015 80002 333 20086;EQDQ01  00002PRCP99
0112531920999992000050209004+44020+114950FM-12+112899999V0202701N010019999999N0250001N1+02261-01071100431ADDGF107991001001999999001021MD1410001+9999REMSYN060AAXX  02091 53192 42975 72710 10226 21107 40043 54000 80002;
0190531920999992000050212004+44020+114950FM-12+112899999V0203201N005019999999N0300001N1+01691-00751100771ADDAA199000091GF107991001001999999001021MA1999999088281MD1210261+9999OA130601701REMSYN082AAXX  02121 53192 32980 73205 10169 21075 38828 40077 52026 80002 333 91117 91527;EQDQ01  00002PRCP99
0112531920999992000050215004+44020+114950FM-12+112899999V0200201N002012200019N0300001N1+00831-00541101211ADDGF102991001001999999001021MD1210341+9999REMSYN060AAXX  02151 53192 42980 20202 10083 21054 40121 52034 80002;
0186531920999992000050218004+44020+114950FM-12+112899999V0201401N001019999999N0300001N1+00601-00491101281ADDAA199000091GF105991001001999999001021KA1999M+02581MA1999999088731MD1210111+9999REMSYN076AAXX  02181 53192 32980 51401 10060 21049 38873 40128 52011 80002 333 10258;EQDQ01  00002PRCP99
0112531920999992000050221004+44020+114950FM-12+112899999V0209999C000012200019N0300001N1+00101-00591101441ADDGF101991001001999999001021MD1710011+9999REMSYN060AAXX  02211 53192 42980 10000 10010 21059 40144 57001 80002;
0191531920999992000050300004+44020+114950FM-12+112899999V0202501N002012200019N0300001N1+00681-00521101481ADDAA199000091GF101991001001999999001021IA2999-00309MA1999999088761MD1210041+0501REMSYN082AAXX  03001 53192 32980 12502 10068 21052 38876 40148 52004 80002 333 00557 31032;EQDQ01  00002PRCP99
0112531920999992000050303004+44020+114950FM-12+112899999V0202201N005012200019N0300001N1+01581-01071101441ADDGF102991001001999999001021MD1710031+9999REMSYN060AAXX  03031 53192 42980 22205 10158 21107 40144 57003 80002;
0186531920999992000050306004+44020+114950FM-12+112899999V0202501N006019999999N0300001N1+01941-01371101161ADDAA199000091GF107991001001999999001021KA1999N+00051MA1999999088511MD1710221+9999REMSYN076AAXX  03061 53192 32980 72506 10194 21137 38851 40116 57022 80002 333 20005;EQDQ01  00002PRCP99
0112531920999992000050309004+44020+114950FM-12+112899999V0202501N006019999999N0300001N1+02121-01261100991ADDGF107991001001999999001021MD1710211+9999REMSYN060AAXX  03091 53192 42980 72506 10212 21126 40099 57021 80002;
0163531920999992000050312004+44020+114950FM-12+112899999V0201801N004019999999N0300001N1+01701-01501100731ADDAA199000091GF106991001001999999001021MA1999999088101MD1710201+9999REMSYN066AAXX  03121 53192 32980 61804 10170 21150 38810 40073 57020 80002;EQDQ01  00002PRCP99
0122531920999992000050315004+44020+114950FM-12+112899999V0201801N004012200019N0300001N1+01521-01101100401ADDGA1001+999999999GF100991001001999999001001MD1710141+9999REMSYN054AAXX  03151 53192 42980 01804 10152 21110 40040 57014;
0196531920999992000050318004+44020+114950FM-12+112899999V0202701N003012200019N0300001N1+01391-01041100161ADDAA199000091GA1001+999999999GF100991001001999999001001KA1999M+02181MA1999999087801MD1710161+9999REMSYN070AAXX  03181 53192 32980 02703 10139 21104 38780 40016 57016 333 10218;EQDQ01  00002PRCP99
0112531920999992000050321004+44020+114950FM-12+112899999V0202701N003010900019N0300001N1+01421-01201100071ADDGF107991011091008001001021MD1710041+9999REMSYN060AAXX  03211 53192 42580 72703 10142 21120 40007 57004 81902;
0173531920999992000050400004+44020+114950FM-12+112899999V0203601N007010075019N0300001N1+01381-00521100591ADDAA199000091GF107991061091008001001021MA1999999088121MD1210361+0061REMSYN076AAXX  04001 53192 32580 73607 10138 21052 38812 40059 52036 86902 333 05607;EQDQ01  00002PRCP99
0112531920999992000050403004+44020+114950FM-12+112899999V0200401N010010120019N0300001N1+00901-00241101101ADDGF107991051051012501001021MD1210321+9999REMSYN060AAXX  04031 53192 42680 70410 10090 21024 40110 52032 85502;
0216531920999992000050406004+44020+114950FM-12+112899999V0200401N008010900019N0300001N1+01381-01231101251ADDAA106000791AY181061GF107991021091012501001021KA1240N+00901MA1999999088641MD1210201+9999MW1001OA130601701REMSYN100AAXX  04061 53192 11680 70408 10138 21123 38864 40125 52020 69901 70080 82902 333 20090 91117 91504;
0112531920999992000050409004+44020+114950FM-12+112899999V0200401N007019999999N0300001N1+01541-00951101401ADDGF105991001001999999001021MD1210171+9999REMSYN060AAXX  04091 53192 42980 50407 10154 21095 40140 52017 80002;
0163531920999992000050412004+44020+114950FM-12+112899999V0200401N004012200019N0300001N1+01141-00991101881ADDAA199000091GF101991001001999999001021MA1999999089141MD1210331+9999REMSYN066AAXX  04121 53192 32980 10404 10114 21099 38914 40188 52033 80002;EQDQ01  00002PRCP99
0122531920999992000050415004+44020+114950FM-12+112899999V0200401N004012200019N0300001N1+00581-00931102481ADDGA1001+999999999GF100991001001999999001001MD1210301+9999REMSYN054AAXX  04151 53192 42980 00404 10058 21093 40248 52030;
0196531920999992000050418004+44020+114950FM-12+112899999V0200201N003012200019N0300001N1+00321-00881102601ADDAA199000091GA1001+999999999GF100991001001999999001001KA1999M+01601MA1999999089601MD1210161+9999REMSYN070AAXX  04181 53192 32980 00203 10032 21088 38960 40260 52016 333 10160;EQDQ01  00002PRCP99
0143531920999992000050421004+44020+114950FM-12+112899999V0200701N001012200019N0300001N1-00051-00891102741ADDAA124000791GA1001+999999999GF100991001001999999001001MD1210071+9999REMSYN064AAXX  04211 53192 42980 00701 11005 21089 40274 52007 333 79999;
0188531920999992000050500004+44020+114950FM-12+112899999V0200901N001012200019N0300001N1+00541-01181102901ADDAA124000791GA1001+999999999GF100991001001999999001001IA2999-00379MA1999999089851MD1210181+1701REMSYN082AAXX  05001 53192 32980 00901 10054 21118 38985 40290 52018 333 01758 31037 79999;
0122531920999992000050503004+44020+114950FM-12+112899999V0200401N002012200019N0300001N1+01101-01241102931ADDGA1001+999999999GF100991001001999999001001MD1210031+9999REMSYN054AAXX  05031 53192 42980 00402 10110 21124 40293 52003;
0196531920999992000050506004+44020+114950FM-12+112899999V0202001N001012200019N0300001N1+01381-01201102671ADDAA199000091GA1001+999999999GF100991001001999999001001KA1999N-00141MA1999999089661MD1710221+9999REMSYN070AAXX  05061 53192 32980 02001 10138 21120 38966 40267 57022 333 21014;EQDQ01  00002PRCP99
0122531920999992000050509004+44020+114950FM-12+112899999V0201401N002012200019N0300001N1+01611-01351102561ADDGA1001+999999999GF100991001001999999001001MD1710131+9999REMSYN054AAXX  05091 53192 42980 01402 10161 21135 40256 57013;
0173531920999992000050512004+44020+114950FM-12+112899999V0202501N002012200019N0300001N1+01221-01021102431ADDAA199000091GA1001+999999999GF100991001001999999001001MA1999999089461MD1710071+9999REMSYN060AAXX  05121 53192 32980 02502 10122 21102 38946 40243 57007;EQDQ01  00002PRCP99
0122531920999992000050515004+44020+114950FM-12+112899999V0202701N003012200019N0300001N1+00751-01281102581ADDGA1001+999999999GF100991001001999999001001MD1210151+9999REMSYN054AAXX  05151 53192 42980 02703 10075 21128 40258 52015;
0196531920999992000050518004+44020+114950FM-12+112899999V0202501N001012200019N0300001N1+00341-01151102511ADDAA199000091GA1001+999999999GF100991001001999999001001KA1999M+01701MA1999999089521MD1710091+9999REMSYN070AAXX  05181 53192 32980 02501 10034 21115 38952 40251 57009 333 10170;EQDQ01  00002PRCP99
0122531920999992000050521004+44020+114950FM-12+112899999V0209999C000012200019N0300001N1+00341-01041102341ADDGA1001+999999999GF100991001001999999001001MD1710101+9999REMSYN054AAXX  05211 53192 42980 00000 10034 21104 40234 57010;
0201531920999992000050600004+44020+114950FM-12+112899999V0202501N002012200019N0300001N1+00981-01241102231ADDAA199000091GA1001+999999999GF100991001001999999001001IA2999-00309MA1999999089381MD1710041-0501REMSYN076AAXX  06001 53192 32980 02502 10098 21124 38938 40223 57004 333 05504 31039;EQDQ01  00002PRCP99
0122531920999992000050603004+44020+114950FM-12+112899999V0202201N005012200019N0300001N1+01881-01501102041ADDGA1001+999999999GF100991001001999999001001MD1710081+9999REMSYN054AAXX  06031 53192 42980 02205 10188 21150 40204 57008;
0196531920999992000050606004+44020+114950FM-12+112899999V0202501N006012200019N0300001N1+02331-02561101771ADDAA199000091GA1001+999999999GF100991001001999999001001KA1999N+00201MA1999999089071MD1710231+9999REMSYN070AAXX  06061 53192 32980 02506 10233 21256 38907 40177 57023 333 20020;EQDQ01  00002PRCP99
0122531920999992000050609004+44020+114950FM-12+112899999V0202501N005012200019N0300001N1+99999+99999101521ADDGA1001+999999999GF100991001001999999001001MD1710201+9999REMSYN054AAXX  06091 53192 42980 02505 10239 21388 40152 57020;
0163531920999992000050612004+44020+114950FM-12+112899999V0202001N003012200019N0300001N1+01971-02211101441ADDAA199000091GF101991001001999999001021MA1999999088841MD1710031+9999REMSYN066AAXX  06121 53192 32980 12003 10197 21221 38884 40144 57003 80002;EQDQ01  00002PRCP99
0122531920999992000050615004+44020+114950FM-12+112899999V0209999C000012200019N0300001N1+01311-01121101371ADDGA1001+999999999GF100991001001999999001001MD1710011+9999REMSYN054AAXX  06151 53192 42980 00000 10131 21112 40137 57001;
0196531920999992000050618004+44020+114950FM-12+112899999V0202501N003012200019N0300001N1+01181-01901101231ADDAA199000091GA1001+999999999GF100991001001999999001001KA1999M+02481MA1999999088771MD1710061+9999REMSYN070AAXX  06181 53192 32980 02503 10118 21190 38877 40123 57006 333 10248;EQDQ01  00002PRCP99
0122531920999992000050621004+44020+114950FM-12+112899999V0202501N003012200019N0300001N1+00801-01381101261ADDGA1001+999999999GF100991001001999999001001MD1710041+9999REMSYN054AAXX  06211 53192 42980 02503 10080 21138 40126 57004;
0201531920999992000050700004+44020+114950FM-12+112899999V0202501N003012200019N0300001N1+01571-01231101131ADDAA199000091GA1001+999999999GF100991001001999999001001IA2999+00109MA1999999088691MD1710041-0701REMSYN076AAXX  07001 53192 32980 02503 10157 21123 38869 40113 57004 333 05706 30010;EQDQ01  00002PRCP99
0112531920999992000050703004+44020+114950FM-12+112899999V0202501N011019999999N0250001N1+02291-00691101031ADDGF105991001001999999001021MD1710081+9999REMSYN060AAXX  07031 53192 42975 52511 10229 21069 40103 57008 80002;
0186531920999992000050706004+44020+114950FM-12+112899999V0202201N005010900019N0300001N1+02541-00481100821ADDAA199000091GF107991031091008001001021KA1999N+00701MA1999999088451MD1710161+9999REMSYN076AAXX  07061 53192 32580 72205 10254 21048 38845 40082 57016 83902 333 20070;EQDQ01  00002PRCP99
0112531920999992000050709004+44020+114950FM-12+112899999V0200201N011019999999N0200001N1+01841-00671101161ADDGF107991001001999999001021MD1210081+9999REMSYN060AAXX  07091 53192 42970 70211 10184 21067 40116 52008 80002;
0190531920999992000050712004+44020+114950FM-12+112899999V0200201N010010900019N0250001N1+01181-00831101481ADDAA199000091GF107991031091008001001021MA1999999088841MD1210311+9999OA130601801REMSYN082AAXX  07121 53192 32575 70210 10118 21083 38884 40148 52031 83902 333 91118 91502;EQDQ01  00002PRCP99
0112531920999992000050715004+44020+114950FM-12+112899999V0200401N003012200019N0300001N1+00901-01321101651ADDGF103991011091008001001021MD1210231+9999REMSYN060AAXX  07151 53192 42580 30403 10090 21132 40165 52023 81902;
0186531920999992000050718004+44020+114950FM-12+112899999V0200401N005012200019N0300001N1+00681-00491101781ADDAA199000091GF104991021091008001001021KA1999M+02621MA1999999089191MD1210121+9999REMSYN076AAXX  07181 53192 32580 40405 10068 21049 38919 40178 52012 82902 333 10262;EQDQ01  00002PRCP99
0131531920999992000050721004+44020+114950FM-12+112899999V0200701N006010900019N0300001N1+00681+99999102001ADDGF107991041091008001001021MD1210051+9999REMSYN060AAXX  07211 53192 42580 70706 10068 21197 40200 52005 84902;EQDQ01-001973ATOD  
0204531920999992000050800004+44020+114950FM-12+112899999V0200701N007010075019N0300001N1+00481-00611102441ADDAA106000791AY181061GF107991061091008001001021IA2999+00329MA1999999089451MD1210211+0801MW1001REMSYN100AAXX  08001 53192 11580 70707 10048 21061 38945 40244 52021 69901 70080 86902 333 00861 30032 79999;
0132531920999992000050803004+44020+114950FM-12+112899999V0200701N005010120019N0250001N1+00021-00031102681ADDAY181031GF107991061091012501001021MD1210051+9999MW1831REMSYN066AAXX  08031 53192 41675 70705 10002 21003 40268 52005 78380 86902;
0193531920999992000050806004+44020+114950FM-12+112899999V0200701N006010012019N0300001N1+00061+00031102481ADDAA106004191AY181061GF107991061091001501001021KA1999N-00061MA1999999089281MD1710221+9999MW1831REMSYN088AAXX  08061 53192 11280 70706 10006 20003 38928 40248 57022 60041 78380 86902 333 21006;
0132531920999992000050809004+44020+114950FM-12+112899999V0200701N006010900019N0300001N1+00231+00131102241ADDAY181031GF107991021091012501001021MD1710171+9999MW1001REMSYN066AAXX  08091 53192 41680 70706 10023 20013 40224 57017 70080 82902;
0170531920999992000050812004+44020+114950FM-12+112899999V0200401N006010900019N0300001N1+00341+00151102201ADDAA106000891AY181061GF107991031091012501001021MA1999999089061MD1710051+9999MW1801REMSYN078AAXX  08121 53192 11680 70406 10034 20015 38906 40220 57005 69981 78080 83902;
0132531920999992000050815004+44020+114950FM-12+112899999V0200401N005010120019N0300001N1+00321+00181102311ADDAY181031GF107991051091012501001021MD1710011+9999MW1001REMSYN066AAXX  08151 53192 41680 70405 10032 20018 40231 57001 70080 85902;
0193531920999992000050818004+44020+114950FM-12+112899999V0200401N007010120019N0300001N1+00431+00171102061ADDAA106000591AY181061GF107991061091012501001021KA1999M+00711MA1999999088861MD1710191+9999MW1001REMSYN088AAXX  08181 53192 11680 70407 10043 20017 38886 40206 57019 69951 70080 86902 333 10071;
0133531920999992000050821004+44020+114950FM-12+112899999V0200901N005010120019N0300001N1+00291+00041102031ADDAA124005391GF107991061091012501001021MD1710021+9999REMSYN070AAXX  08211 53192 42680 70905 10029 20004 40203 57002 86902 333 70053;
0178531920999992000050900004+44020+114950FM-12+112899999V0200901N005010900019N0300001N1+00311+00061102041ADDAA124005391GF107991031091012501001021IA2999+00179MA1999999088881MD1210041-0601REMSYN088AAXX  09001 53192 32680 70905 10031 20006 38888 40204 52004 83902 333 05652 30017 70053;
0112531920999992000050903004+44020+114950FM-12+112899999V0200401N003010900019N0300001N1+00341+00101102031ADDGF107991031091008001001021MD1710011+9999REMSYN060AAXX  09031 53192 42580 70403 10034 20010 40203 57001 83902;
0172531920999992000050906004+44020+114950FM-12+112899999V0200901N004010075019N0300001N1+00641+00131101761ADDAA199000091GF107991061021008001001021MA1999999088731MD1710141+9999REMSYN075AAXX  09061 53192 32580 70904 10064 20013 38873 40176 57014 86202 333 2102;EQDQ01  00002PRCP99
0112531920999992000050909004+44020+114950FM-12+112899999V0200701N004010900019N0300001N1+00701-00021101731ADDGF105991041011012501001021MD1710051+9999REMSYN060AAXX  09091 53192 42680 50704 10070 21002 40173 57005 84102;
0163531920999992000050912004+44020+114950FM-12+112899999V0201101N002019999999N0300001N1+00501+00071101831ADDAA199000091GF106991001001999999001021MA1999999088731MD1210051+9999REMSYN066AAXX  09121 53192 32980 61102 10050 20007 38873 40183 52005 80002;EQDQ01  00002PRCP99
0112531920999992000050915004+44020+114950FM-12+112899999V0209999C000012200019N0300001N1+00211+00091101931ADDGF101991001001999999001021MD1210031+9999REMSYN060AAXX  09151 53192 42980 10000 10021 20009 40193 52003 80002;
0196531920999992000050918004+44020+114950FM-12+112899999V0209999C000012200019N0300001N1+00011-00041101811ADDAA199000091GA1001+999999999GF100991001001999999001001KA1999M+00761MA1999999088681MD1710081+9999REMSYN070AAXX  09181 53192 32980 00000 10001 21004 38868 40181 57008 333 10076;EQDQ01  00002PRCP99
0112531920999992000050921004+44020+114950FM-12+112899999V0209999C000012200019N0300001N1-00121-00181101761ADDGF101991001001999999001021MD1710061+9999REMSYN060AAXX  09211 53192 42980 10000 11012 21018 40176 57006 80002;
0191531920999992000051000004+44020+114950FM-12+112899999V0209999C000012200019N0300001N1+00261-00341101791ADDAA199000091GF102991001001999999001021IA2999-00409MA1999999088691MD1210071-0201REMSYN082AAXX  10001 53192 32980 20000 10026 21034 38869 40179 52007 80002 333 05251 31046;EQDQ01  00002PRCP99
0112531920999992000051003004+44020+114950FM-12+112899999V0202701N003019999999N0300001N1+01141-00101101511ADDGF106991001001999999001021MD1710121+9999REMSYN060AAXX  10031 53192 42980 62703 10114 21010 40151 57012 80002;
0186531920999992000051006004+44020+114950FM-12+112899999V0202501N004010900019N0300001N1+01621-00831101261ADDAA199000091GF106991011011012501001021KA1999N-00191MA1999999088411MD1710161+9999REMSYN076AAXX  10061 53192 32680 62504 10162 21083 38841 40126 57016 81102 333 21019;EQDQ01  00002PRCP99
0112531920999992000051009004+44020+114950FM-12+112899999V0202001N002012200019N0300001N1+01821-00771101081ADDGF102991011011012501001021MD1710141+9999REMSYN060AAXX  10091 53192 42680 22002 10182 21077 40108 57014 81102;
0163531920999992000051012004+44020+114950FM-12+112899999V0202501N003012200019N0300001N1+01401-00441101081ADDAA199000091GF101991001001999999001021MA1999999088261MD1710011+9999REMSYN066AAXX  10121 53192 32980 12503 10140 21044 38826 40108 57001 80002;EQDQ01  00002PRCP99
0122531920999992000051015004+44020+114950FM-12+112899999V0209999C000012200019N0300001N1+01021-00321100961ADDGA1001+999999999GF100991001001999999001001MD1410001+9999REMSYN054AAXX  10151 53192 42980 00000 10102 21032 40096 54000;
0196531920999992000051018004+44020+114950FM-12+112899999V0209999C000012200019N0300001N1+00801-00471100781ADDAA199000091GA1001+999999999GF100991001001999999001001KA1999M+01821MA1999999088161MD1710101+9999REMSYN070AAXX  10181 53192 32980 00000 10080 21047 38816 40078 57010 333 10182;EQDQ01  00002PRCP99
0122531920999992000051021004+44020+114950FM-12+112899999V0200901N002012200019N0300001N1+00791-00691100561ADDGA1001+999999999GF100991001001999999001001MD1710161+9999REMSYN054AAXX  10211 53192 42980 00902 10079 21069 40056 57016;
0201531920999992000051100004+44020+114950FM-12+112899999V0201801N003012200019N0300001N1+01161-00451100571ADDAA199000091GA1001+999999999GF100991001001999999001001IA2999-00209MA1999999088001MD1410001-0701REMSYN076AAXX  11001 53192 32980 01803 10116 21045 38800 40057 54000 333 05709 31024;EQDQ01  00002PRCP99
0112531920999992000051103004+44020+114950FM-12+112899999V0201801N006019999999N0300001N1+01761-00991100361ADDGF105991001001999999001021MD1710141+9999REMSYN060AAXX  11031 53192 42980 51806 10176 21099 40036 57014 80002;
0186531920999992000051106004+44020+114950FM-12+112899999V0202001N006019999999N0300001N1+01921-01491100191ADDAA199000091GF107991011001999999031021KA1999N+00631MA1999999087701MD1710161+9999REMSYN076AAXX  11061 53192 32980 72006 10192 21149 38770 40019 57016 81032 333 20063;EQDQ01  00002PRCP99
0112531920999992000051109004+44020+114950FM-12+112899999V0202201N006010900019N0300001N1+01861-00601100111ADDGF107991031091008001001021MD1710081+9999REMSYN060AAXX  11091 53192 42580 72206 10186 21060 40011 57008 83902;
0163531920999992000051112004+44020+114950FM-12+112899999V0202701N002010075019N0300001N1+01441-00031100241ADDAA199000091GF107991051091008001001021MA1999999087721MD1210101+9999REMSYN066AAXX  11121 53192 32580 72702 10144 21003 38772 40024 52010 85902;EQDQ01  00002PRCP99
0186531920999992000051118004+44020+114950FM-12+112899999V0209999C000019999999N0300001N1+00821+00191100321ADDAA199000091GF107991001001999999001021KA1999M+01971MA1999999087821MD1210071+9999REMSYN076AAXX  11181 53192 32980 70000 10082 20019 38782 40032 52007 80002 333 10197;EQDQ01  00002PRCP99
0112531920999992000051121004+44020+114950FM-12+112899999V0202701N003010900019N0300001N1+00601+00191100521ADDGF107991021091012501001021MD1210121+9999REMSYN060AAXX  11211 53192 42680 72703 10060 20019 40052 52012 82902;
0191531920999992000051200004+44020+114950FM-12+112899999V0209999C000019999999N0300001N1+01021+00311100651ADDAA199000091GF107991001001999999001021IA2999+00209MA1999999088051MD1210111+0101REMSYN082AAXX  12001 53192 32980 70000 10102 20031 38805 40065 52011 80002 333 00151 30027;EQDQ01  00002PRCP99
0112531920999992000051203004+44020+114950FM-12+112899999V0202201N003012200019N0300001N1+01601+00221100641ADDGF103991021021008001001021MD1210041+9999REMSYN060AAXX  12031 53192 42580 32203 10160 20022 40064 52004 82202;
0186531920999992000051206004+44020+114950FM-12+112899999V0202501N005010075019N0300001N1+01791-00101100581ADDAA199000091GF107991061091008001001021KA1999N+00511MA1999999088021MD1710071+9999REMSYN076AAXX  12061 53192 32580 72505 10179 21010 38802 40058 57007 86902 333 20051;EQDQ01  00002PRCP99
0132531920999992000051209004+44020+114950FM-12+112899999V0202701N003010075019N0300001N1+01661+00011100621ADDAY181031GF107991061091008001001021MD1710041+9999MW1801REMSYN066AAXX  12091 53192 41580 72703 10166 20001 40062 57004 78080 86902;
0170531920999992000051212004+44020+114950FM-12+112899999V0203201N003012200019N0300001N1+01361-00601100691ADDAA106000791AY181061GF101991011041012501001001MA1999999088071MD1210091+9999MW1001REMSYN078AAXX  12121 53192 11680 13203 10136 21060 38807 40069 52009 69901 70080 81400;
0122531920999992000051215004+44020+114950FM-12+112899999V0203201N003012200019N0300001N1+01021-00641100741ADDGA1001+999999999GF100991001001999999001001MD1210091+9999REMSYN054AAXX  12151 53192 42980 03203 10102 21064 40074 52009;
0167531920999992000051218004+44020+114950FM-12+112899999V0209999C000012200019N0300001N1+00741-00341100751ADDAA199000021GF103991001001999999001021KA1999M+01881MA1999999088151MD1710011+9999REMSYN076AAXX  12181 53192 32980 30000 10074 21034 38815 40075 57001 80002 333 10188;
0133531920999992000051221004+44020+114950FM-12+112899999V0209999C000019999999N0300001N1+00501-00221100821ADDAA124000791GF107991001001999999001021MD1710011+9999REMSYN070AAXX  12211 53192 42980 70000 10050 21022 40082 57001 80002 333 79999;
0178531920999992000051300004+44020+114950FM-12+112899999V0209999C000019999999N0300001N1+00921-00311100921ADDAA124000791GF106991001001999999001021IA2999+00089MA1999999088251MD1210111+0201REMSYN088AAXX  13001 53192 32980 60000 10092 21031 38825 40092 52011 80002 333 00251 30008 79999;
0112531920999992000051303004+44020+114950FM-12+112899999V0202501N003019999999N0300001N1+01781-00941100711ADDGF106991001001999999001021MD1710081+9999REMSYN060AAXX  13031 53192 42980 62503 10178 21094 40071 57008 80002;
0186531920999992000051306004+44020+114950FM-12+112899999V0202501N002012200019N0300001N1+02001-00921100581ADDAA199000091GF102991011011008001001021KA1999N+00431MA1999999088051MD1710121+9999REMSYN076AAXX  13061 53192 32580 22502 10200 21092 38805 40058 57012 81102 333 20043;EQDQ01  00002PRCP99
0112531920999992000051309004+44020+114950FM-12+112899999V0203401N002010900019N0300001N1+02021-00911100501ADDGF105991031011008001001021MD1710121+9999REMSYN060AAXX  13091 53192 42580 53402 10202 21091 40050 57012 83102;
0163531920999992000051312004+44020+114950FM-12+112899999V0202001N003010900019N0300001N1+01801-00761100451ADDAA199000091GF105991011041012501001021MA1999999087931MD1410001+9999REMSYN066AAXX  13121 53192 32680 52003 10180 21076 38793 40045 54000 81402;EQDQ01  00002PRCP99
0112531920999992000051315004+44020+114950FM-12+112899999V0200901N001012200019N0300001N1+01401-00391100481ADDGF101991001001999999001021MD1210121+9999REMSYN060AAXX  13151 53192 42980 10901 10140 21039 40048 52012 80002;
0186531920999992000051318004+44020+114950FM-12+112899999V0200201N002012200019N0300001N1+01021-00471100501ADDAA199000091GF102991001001999999001021KA1999M+02181MA1999999088031MD1710021+9999REMSYN076AAXX  13181 53192 32980 20202 10102 21047 38803 40050 57002 80002 333 10218;EQDQ01  00002PRCP99
0112531920999992000051321004+44020+114950FM-12+112899999V0200201N002012200019N0300001N1+00731-00431100551ADDGF102991001001999999001021MD1710011+9999REMSYN060AAXX  13211 53192 42980 20202 10073 21043 40055 57001 80002;
0191531920999992000051400004+44020+114950FM-12+112899999V0201101N002012200019N0300001N1+01351+00161100501ADDAA199000091GF102991001001999999001021IA2999+00209MA1999999088061MD1210041-0201REMSYN082AAXX  14001 53192 32980 21102 10135 20016 38806 40050 52004 80002 333 05204 30023;EQDQ01  00002PRCP99
0112531920999992000051403004+44020+114950FM-12+112899999V0201401N003012200019N0300001N1+01861+00341100511ADDGF102991011011008001001021MD1210031+9999REMSYN060AAXX  14031 53192 42580 21403 10186 20034 40051 52003 81102;
0186531920999992000051406004+44020+114950FM-12+112899999V0200901N006010900019N0300001N1+02081-00191100421ADDAA199000091GF105991031011008001001021KA1999N+00651MA1999999087981MD1710111+9999REMSYN076AAXX  14061 53192 32580 50906 10208 21019 38798 40042 57011 83102 333 20065;EQDQ01  00002PRCP99
0112531920999992000051409004+44020+114950FM-12+112899999V0201101N006012200019N0300001N1+01841-00041100591ADDGF103991011011008001001021MD1210041+9999REMSYN060AAXX  14091 53192 42580 31106 10184 21004 40059 52004 81102;
0163531920999992000051412004+44020+114950FM-12+112899999V0201801N004012200019N0300001N1+01261+00491100901ADDAA199000091GF102991011041012501001021MA1999999088301MD1210281+9999REMSYN066AAXX  14121 53192 32680 21804 10126 20049 38830 40090 52028 81402;EQDQ01  00002PRCP99
0122531920999992000051415004+44020+114950FM-12+112899999V0201401N001012200019N0300001N1+01041+00501101081ADDGA1001+999999999GF100991001001999999001001MD1210221+9999REMSYN054AAXX  14151 53192 42980 01401 10104 20050 40108 52022;
0186531920999992000051418004+44020+114950FM-12+112899999V0209999C000012200019N0300001N1+00841+00461101151ADDAA199000091GF102991021051012501001021KA1999M+02171MA1999999088581MD1210061+9999REMSYN076AAXX  14181 53192 32680 20000 10084 20046 38858 40115 52006 82502 333 10217;EQDQ01  00002PRCP99
0122531920999992000051421004+44020+114950FM-12+112899999V0200201N002012200019N0300001N1+00561+00291101381ADDGA1001+999999999GF100991001001999999001001MD1210101+9999REMSYN054AAXX  14211 53192 42980 00202 10056 20029 40138 52010;
0201531920999992000051500004+44020+114950FM-12+112899999V0209999C000012200019N0300001N1+01141+00481101511ADDAA199000091GA1001+999999999GF100991001001999999001001IA2999+00209MA1999999088791MD1210111+0701REMSYN076AAXX  15001 53192 32980 00000 10114 20048 38879 40151 52011 333 00752 30026;EQDQ01  00002PRCP99
0112531920999992000051503004+44020+114950FM-12+112899999V0200901N003012200019N0300001N1+01831+00131101421ADDGF104991041021008001001001MD1210021+9999REMSYN060AAXX  15031 53192 42580 40903 10183 20013 40142 52002 84200;
0186531920999992000051506004+44020+114950FM-12+112899999V0200701N001012200019N0300001N1+01981+00041101351ADDAA199000091GF104991041021008001001001KA1999N+00471MA1999999088741MD1710071+9999REMSYN076AAXX  15061 53192 32580 40701 10198 20004 38874 40135 57007 84200 333 20047;EQDQ01  00002PRCP99
0112531920999992000051509004+44020+114950FM-12+112899999V0202501N002012200019N0300001N1+02041-00291101331ADDGF102991021011008001001001MD1710071+9999REMSYN060AAXX  15091 53192 42580 22502 10204 21029 40133 57007 82100;
0163531920999992000051512004+44020+114950FM-12+112899999V0202001N003012200019N0300001N1+01781-00201101401ADDAA199000091GF102991011041012501001021MA1999999088801MD1210131+9999REMSYN066AAXX  15121 53192 32680 22003 10178 21020 38880 40140 52013 81402;EQDQ01  00002PRCP99
0112531920999992000051515004+44020+114950FM-12+112899999V0202201N001012200019N0300001N1+01341-00081101441ADDGF101991001001999999001021MD1210091+9999REMSYN060AAXX  15151 53192 42980 12201 10134 21008 40144 52009 80002;
0196531920999992000051518004+44020+114950FM-12+112899999V0200401N002012200019N0300001N1+00981-00121101411ADDAA199000091GA1001+999999999GF100991001001999999001001KA1999M+02101MA1999999088821MD1710071+9999REMSYN070AAXX  15181 53192 32980 00402 10098 21012 38882 40141 57007 333 10210;EQDQ01  00002PRCP99
0112531920999992000051521004+44020+114950FM-12+112899999V0209999C000012200019N0300001N1+00631-00181101431ADDGF101991001001999999001021MD1710041+9999REMSYN060AAXX  15211 53192 42980 10000 10063 21018 40143 57004 80002;
0201531920999992000051600004+44020+114950FM-12+112899999V0209999C000012200019N0300001N1+01521+00091101251ADDAA199000091GA1001+999999999GF100991001001999999001001IA2999+00209MA1999999088751MD1710031+0001REMSYN076AAXX  16001 53192 32980 00000 10152 20009 38875 40125 57003 333 00004 30021;EQDQ01  00002PRCP99
0122531920999992000051603004+44020+114950FM-12+112899999V0201801N007012200019N0300001N1+01981-00261101111ADDGA1001+999999999GF100991001001999999001001MD1710121+9999REMSYN054AAXX  16031 53192 42980 01807 10198 21026 40111 57012;
0186531920999992000051606004+44020+114950FM-12+112899999V0201801N005012200019N0300001N1+02311-00471100841ADDAA199000091GF102991001001999999001021KA1999N+00541MA1999999088381MD1710251+9999REMSYN076AAXX  16061 53192 32980 21805 10231 21047 38838 40084 57025 80002 333 20054;EQDQ01  00002PRCP99
0112531920999992000051609004+44020+114950FM-12+112899999V0202001N008010120019N0300001N1+02291-00471100611ADDGF107991051091012501001021MD1710271+9999REMSYN060AAXX  16091 53192 42680 72008 10229 21047 40061 57027 85902;
0205531920999992000051612004+44020+114950FM-12+112899999V0201101N007010120019N0300001N1+01861-00181100501ADDAA106000791AY191061AY281061GF107991051091012501001021MA1999999088101MD1710011+9999MW1001OA130601801REMSYN094AAXX  16121 53192 11680 71107 10186 21018 38810 40050 57001 69901 70098 85902 333 91118 91520;
0112531920999992000051615004+44020+114950FM-12+112899999V0202001N003012200019N0300001N1+01661-00131100391ADDGF104991001001999999001021MD1710041+9999REMSYN060AAXX  16151 53192 42980 42003 10166 21013 40039 57004 80002;
0208531920999992000051618004+44020+114950FM-12+112899999V0202201N007010075019N0200001N1+01601-00061100231ADDAA106000791GF107991061091008001001021KA1240M+02451MA1999999087971MD1710091+9999MW1801OA130601801REMSYN100AAXX  16181 53192 11570 72207 10160 21006 38797 40023 57009 69901 78000 86902 333 10245 91118 91520;
0133531920999992000051621004+44020+114950FM-12+112899999V0202201N008010075019N0300001N1+01481-00101100041ADDAA124000791GF107991051091008001001021MD1710191+9999REMSYN070AAXX  16211 53192 42580 72208 10148 21010 40004 57019 85902 333 79999;
0160531920999992000051700004+44020+114950FM-12+112899999V0202201N002010900019N0300001N1+01401+00151100201ADDAA124000791GF107991021091008001001021MA1999999087821MD1210041-0901REMSYN082AAXX  17001 53192 32580 72202 10140 20015 38782 40020 52004 82902 333 05951 79999;
0112531920999992000051703004+44020+114950FM-12+112899999V0202201N008010900019N0300001N1+01461-00661100311ADDGF107991011091008001001021MD1210071+9999REMSYN060AAXX  17031 53192 42580 72208 10146 21066 40031 52007 81902;
0167531920999992000051706004+44020+114950FM-12+112899999V0202501N007010075019N0300001N1+01321-00551100291ADDAA199000021GF106991061011008001001021KA1999N+01181MA1999999087831MD1710061+9999REMSYN076AAXX  17061 53192 32580 62507 10132 21055 38783 40029 57006 86102 333 20118;
0112531920999992000051709004+44020+114950FM-12+112899999V0202201N007010900019N0300001N1+01311-00151100211ADDGF105991031021008001001021MD1710101+9999REMSYN060AAXX  17091 53192 42580 52207 10131 21015 40021 57010 83202;
0170531920999992000051712004+44020+114950FM-12+112899999V0202201N005010120019N0300001N1+00951+00141100291ADDAA106000791AY181061GF107991051091012501001021MA1999999087711MD1710021+9999MW1001REMSYN078AAXX  17121 53192 11680 72205 10095 20014 38771 40029 57002 69901 70080 85902;
0112531920999992000051715004+44020+114950FM-12+112899999V0202701N005010900019N0300001N1+00741+00151100281ADDGF105991021051012501001021MD1710041+9999REMSYN060AAXX  17151 53192 42680 52705 10074 20015 40028 57004 82502;
0186531920999992000051718004+44020+114950FM-12+112899999V0202501N004012200019N0300001N1+00621+00211100191ADDAA199000091GF103991021051012501001021KA1999M+01621MA1999999087541MD1710131+9999REMSYN076AAXX  17181 53192 32680 32504 10062 20021 38754 40019 57013 82502 333 10162;EQDQ01  00002PRCP99
0133531920999992000051721004+44020+114950FM-12+112899999V0202701N003012200019N0300001N1+00611+00251100121ADDAA124000791GF104991031051012501001031MD1710061+9999REMSYN070AAXX  17211 53192 42680 42703 10061 20025 40012 57006 83503 333 79999;
0178531920999992000051800004+44020+114950FM-12+112899999V0202901N003010120019N0300001N1+00841+00241100191ADDAA124000791GF107991061051012501001021IA2999+00339MA1999999087511MD1210031-0301REMSYN088AAXX  18001 53192 32680 72903 10084 20024 38751 40019 52003 86502 333 05356 30033 79999;
0124531920999992000051803004+44020+114950FM-12+112899999V0203601N003010075019N0300001N1+01301-00101100231ADDGF106991051091008001001021MD1210091+9999MW1251REMSYN066AAXX  18031 53192 41580 63603 10130 21010 40023 52009 72500 85902;
0193531920999992000051806004+44020+114950FM-12+112899999V0200201N005010075019N0300001N1+01541-00431100261ADDAA106000791AY181061GF105991051091008001001021KA1999N+00521MA1999999087651MD1210051+9999MW1001REMSYN088AAXX  18061 53192 11580 50205 10154 21043 38765 40026 52005 69901 70080 85902 333 20052;
0132531920999992000051809004+44020+114950FM-12+112899999V0200201N005012200019N0300001N1+01681-00271100331ADDAY181031GF103991021021008001001021MD1210091+9999MW1001REMSYN066AAXX  18091 53192 41580 30205 10168 21027 40033 52009 70080 82202;
0170531920999992000051812004+44020+114950FM-12+112899999V0200401N004010900019N0300001N1+01341+00001100611ADDAA106000791AY181061GF107991031041012501001021MA1999999087961MD1210221+9999MW1001REMSYN078AAXX  18121 53192 11680 70404 10134 20000 38796 40061 52022 69901 70080 83402;
0112531920999992000051815004+44020+114950FM-12+112899999V0203601N004010900019N0300001N1+01081+00341100731ADDGF107991041091012501001021MD1210141+9999REMSYN060AAXX  18151 53192 42680 73604 10108 20034 40073 52014 84902;
0193531920999992000051818004+44020+114950FM-12+112899999V0203201N003010120019N0300001N1+00891+00631100711ADDAA106000791AY181061GF107991071091012501001021KA1999M+01731MA1999999088101MD1410001+9999MW1801REMSYN088AAXX  18181 53192 11680 73203 10089 20063 38810 40071 54000 69901 78080 87902 333 10173;
0153531920999992000051821004+44020+114950FM-12+112899999V0203401N006012200019N0300001N1+00731+00361100781ADDAA124000791AY181031GF103991031091008001001021MD1210051+9999MW1001REMSYN076AAXX  18211 53192 41580 33406 10073 20036 40078 52005 70080 83902 333 79999;
0204531920999992000051900004+44020+114950FM-12+112899999V0203601N004010075019N0300001N1+00961+00501100971ADDAA106000791AY181061GF107991061091008001001021IA2999+00419MA1999999088301MD1210151+0801MW1001REMSYN100AAXX  19001 53192 11580 73604 10096 20050 38830 40097 52015 69901 70080 86902 333 00801 30041 79999;
0112531920999992000051903004+44020+114950FM-12+112899999V0203601N004010075019N0300001N1+01381+00261101031ADDGF106991051091008001001021MD1210081+9999REMSYN060AAXX  19031 53192 42580 63604 10138 20026 40103 52008 85902;
0167531920999992000051906004+44020+114950FM-12+112899999V0203201N003010900019N0300001N1+01721+00051100881ADDAA199000021GF106991021011008001001021KA1999N+00611MA1999999088281MD1710101+9999REMSYN076AAXX  19061 53192 32580 63203 10172 20005 38828 40088 57010 82102 333 20061;
0112531920999992000051909004+44020+114950FM-12+112899999V0201101N002010900019N0300001N1+01861-00071100741ADDGF107991031011008001001021MD1710121+9999REMSYN060AAXX  19091 53192 42580 71102 10186 21007 40074 57012 83102;
0163531920999992000051912004+44020+114950FM-12+112899999V0201101N003012200019N0300001N1+01661-00061100761ADDAA199000091GF101991001001999999001021MA1999999088181MD1210021+9999REMSYN066AAXX  19121 53192 32980 11103 10166 21006 38818 40076 52002 80002;EQDQ01  00002PRCP99
0112531920999992000051915004+44020+114950FM-12+112899999V0201801N003019999999N0300001N1+01361+00091100761ADDGF106991001001999999001021MD1210021+9999REMSYN060AAXX  19151 53192 42980 61803 10136 20009 40076 52002 80002;
0186531920999992000051918004+44020+114950FM-12+112899999V0209999C000019999999N0300001N1+01161+00261100571ADDAA199000091GF106991001001999999001021KA1999M+01971MA1999999088071MD1710131+9999REMSYN076AAXX  19181 53192 32980 60000 10116 20026 38807 40057 57013 80002 333 10197;EQDQ01  00002PRCP99
0112531920999992000051921004+44020+114950FM-12+112899999V0209999C000012200019N0300001N1+01061+00181100461ADDGF103991021001999999031021MD1710091+9999REMSYN060AAXX  19211 53192 42980 30000 10106 20018 40046 57009 82032;
0191531920999992000052000004+44020+114950FM-12+112899999V0201401N004012200019N0300001N1+01471+00081100351ADDAA199000091GF102991001001999999001021IA2999+00409MA1999999087921MD1710061-0401REMSYN082AAXX  20001 53192 32980 21404 10147 20008 38792 40035 57006 80002 333 05405 30046;EQDQ01  00002PRCP99
0112531920999992000052003004+44020+114950FM-12+112899999V0201801N004019999999N0300001N1+02211-00101100091ADDGF107991011001999999031021MD1710141+9999REMSYN060AAXX  20031 53192 42980 71804 10221 21010 40009 57014 81032;
0186531920999992000052006004+44020+114950FM-12+112899999V0202701N005010360019N0300001N1+02551-00581099861ADDAA199000091GF106991011011008001031021KA1999N+01021MA1999999087611MD1710171+9999REMSYN076AAXX  20061 53192 32580 62705 10255 21058 38761 49986 57017 81132 333 20102;EQDQ01  00002PRCP99
0112531920999992000052009004+44020+114950FM-12+112899999V0202901N008012200019N0300001N1+02551-00471099801ADDGF103991011011008001001021MD1710071+9999REMSYN060AAXX  20091 53192 42580 32908 10255 21047 49980 57007 81102;
0163531920999992000052012004+44020+114950FM-12+112899999V0203601N008012200019N0300001N1+01721+00611100361ADDAA199000091GF101991001001999999001021MA1999999087941MD1210401+9999REMSYN066AAXX  20121 53192 32980 13608 10172 20061 38794 40036 52040 80002;EQDQ01  00002PRCP99
0112531920999992000052015004+44020+114950FM-12+112899999V0200201N004012200019N0300001N1+01161+00461100671ADDGF101991001001999999001021MD1210311+9999REMSYN060AAXX  20151 53192 42980 10204 10116 20046 40067 52031 80002;
0186531920999992000052018004+44020+114950FM-12+112899999V0209999C000012200019N0300001N1+00841+00411100791ADDAA199000091GF101991001001999999001021KA1999M+02711MA1999999088361MD1210111+9999REMSYN076AAXX  20181 53192 32980 10000 10084 20041 38836 40079 52011 80002 333 10271;EQDQ01  00002PRCP99
0112531920999992000052021004+44020+114950FM-12+112899999V0209999C000012200019N0300001N1+00651+00321100941ADDGF104991001001999999001021MD1210091+9999REMSYN060AAXX  20211 53192 42980 40000 10065 20032 40094 52009 80002;
0191531920999992000052100004+44020+114950FM-12+112899999V0200401N003019999999N0300001N1+01401+00471101161ADDAA199000091GF107991001001999999001011IA2999+00209MA1999999088631MD1210181+0701REMSYN082AAXX  21001 53192 32980 70403 10140 20047 38863 40116 52018 80001 333 00751 30026;EQDQ01  00002PRCP99
0112531920999992000052103004+44020+114950FM-12+112899999V0203601N003010900019N0300001N1+01761-00241101251ADDGF105991011011008001001021MD1210041+9999REMSYN060AAXX  21031 53192 42580 53603 10176 21024 40125 52004 81102;
0186531920999992000052106004+44020+114950FM-12+112899999V0203401N002012200019N0300001N1+02011-00311101121ADDAA199000091GF103991011011008001001021KA1999N+00621MA1999999088541MD1710131+9999REMSYN076AAXX  21061 53192 32580 33402 10201 21031 38854 40112 57013 81102 333 20062;EQDQ01  00002PRCP99
0112531920999992000052109004+44020+114950FM-12+112899999V0202701N001010900019N0300001N1+02141-00111101001ADDGF106991011011008001001021MD1710121+9999REMSYN060AAXX  21091 53192 42580 62701 10214 21011 40100 57012 81102;
0163531920999992000052112004+44020+114950FM-12+112899999V0202201N004012200019N0300001N1+01831-00211101001ADDAA199000091GF102991001001999999001021MA1999999088511MD1210091+9999REMSYN066AAXX  21121 53192 32980 22204 10183 21021 38851 40100 52009 80002;EQDQ01  00002PRCP99
0122531920999992000052115004+44020+114950FM-12+112899999V0202701N002012200019N0300001N1+01271-00091101181ADDGA1001+999999999GF100991001001999999001001MD1210121+9999REMSYN054AAXX  21151 53192 42980 02702 10127 21009 40118 52012;
0186531920999992000052118004+44020+114950FM-12+112899999V0202701N001012200019N0300001N1+01001-00151101161ADDAA199000091GF102991001001999999001021KA1999M+02241MA1999999088611MD1710021+9999REMSYN076AAXX  21181 53192 32980 22701 10100 21015 38861 40116 57002 80002 333 10224;EQDQ01  00002PRCP99
0122531920999992000052121004+44020+114950FM-12+112899999V0209999C000012200019N0300001N1+00811-00081101131ADDGA1001+999999999GF100991001001999999001001MD1710041+9999REMSYN054AAXX  21211 53192 42980 00000 10081 21008 40113 57004;
0201531920999992000052200004+44020+114950FM-12+112899999V0202701N001012200019N0300001N1+01471-00021101041ADDAA199000091GA1001+999999999GF100991001001999999001001IA2999+00209MA1999999088561MD1710011-0101REMSYN076AAXX  22001 53192 32980 02701 10147 21002 38856 40104 57001 333 05101 30021;EQDQ01  00002PRCP99
0112531920999992000052203004+44020+114950FM-12+112899999V0202001N006012200019N0300001N1+02321-00761100821ADDGF101991001001999999001021MD1710131+9999REMSYN060AAXX  22031 53192 42980 12006 10232 21076 40082 57013 80002;
0186531920999992000052206004+44020+114950FM-12+112899999V0202501N005019999999N0300001N1+02551-00831100671ADDAA199000091GF106991001001999999001021KA1999N+00761MA1999999088291MD1710141+9999REMSYN076AAXX  22061 53192 32980 62505 10255 21083 38829 40067 57014 80002 333 20076;EQDQ01  00002PRCP99
0112531920999992000052209004+44020+114950FM-12+112899999V0203201N003019999999N0300001N1+02621-01041100591ADDGF106991001001999999001021MD1710101+9999REMSYN060AAXX  22091 53192 42980 63203 10262 21104 40059 57010 80002;
0163531920999992000052212004+44020+114950FM-12+112899999V0200201N005010900019N0300001N1+02301-00271100601ADDAA199000091GF107991021091008001001021MA1999999088271MD1210081+9999REMSYN066AAXX  22121 53192 32580 70205 10230 21027 38827 40060 52008 82902;EQDQ01  00002PRCP99
0122531920999992000052215004+44020+114950FM-12+112899999V0200701N002012200019N0300001N1+01791-00101100591ADDGA1001+999999999GF100991001001999999001001MD1210061+9999REMSYN054AAXX  22151 53192 42980 00702 10179 21010 40059 52006;
0186531920999992000052218004+44020+114950FM-12+112899999V0200201N003012200019N0300001N1+01341-00011100641ADDAA199000091GF102991001001999999001021KA1999M+02741MA1999999088331MD1410001+9999REMSYN076AAXX  22181 53192 32980 20203 10134 21001 38833 40064 54000 80002 333 10274;EQDQ01  00002PRCP99
0122531920999992000052221004+44020+114950FM-12+112899999V0209999C000012200019N0300001N1+01041+00121100691ADDGA1001+999999999GF100991001001999999001001MD1410001+9999REMSYN054AAXX  22211 53192 42980 00000 10104 20012 40069 54000;
0183531920999992000052300004+44020+114950FM-12+112899999V0209999C000012200019N0300001N1+02111+00151100551ADDAA199000091GA1001+999999999GF100991001001999999001001MA1999999088351MD1210021+0021REMSYN070AAXX  23001 53192 32980 00000 10211 20015 38835 40055 52002 333 05206;EQDQ01  00002PRCP99
0122531920999992000052303004+44020+114950FM-12+112899999V0202201N004012200019N0300001N1+02831-00911100431ADDGA1001+999999999GF100991001001999999001001MD1710071+9999REMSYN054AAXX  23031 53192 42980 02204 10283 21091 40043 57007;
0186531920999992000052306004+44020+114950FM-12+112899999V0202201N005012200019N0300001N1+03101-00541100261ADDAA199000091GF102991001001999999001021KA1999N+01021MA1999999088101MD1710181+9999REMSYN076AAXX  23061 53192 32980 22205 10310 21054 38810 40026 57018 80002 333 20102;EQDQ01  00002PRCP99
0112531920999992000052309004+44020+114950FM-12+112899999V0201801N004010900019N0300001N1+03161-00501100101ADDGF106991011011008001001021MD1710191+9999REMSYN060AAXX  23091 53192 42580 61804 10316 21050 40010 57019 81102;
0163531920999992000052312004+44020+114950FM-12+112899999V0201801N004010900019N0300001N1+02721-00351099931ADDAA199000091GF106991011091008001001021MA1999999087881MD1710031+9999REMSYN066AAXX  23121 53192 32580 61804 10272 21035 38788 49993 57003 81902;EQDQ01  00002PRCP99
0112531920999992000052315004+44020+114950FM-12+112899999V0201601N005012200019N0300001N1+02391-00211099831ADDGF102991001001999999001021MD1710011+9999REMSYN060AAXX  23151 53192 42980 21605 10239 21021 49983 57001 80002;
0186531920999992000052318004+44020+114950FM-12+112899999V0202201N003010900019N0300001N1+02171+00451099831ADDAA199000091GF106991011091008001001021KA1999M+03211MA1999999087881MD1210011+9999REMSYN076AAXX  23181 53192 32580 62203 10217 20045 38788 49983 52001 81902 333 10321;EQDQ01  00002PRCP99
0112531920999992000052321004+44020+114950FM-12+112899999V0209999C000010900019N0300001N1+01771+00431099961ADDGF107991021091008001001021MD1210051+9999REMSYN060AAXX  23211 53192 42580 70000 10177 20043 49996 52005 82902;
0173531920999992000052400004+44020+114950FM-12+112899999V0202701N002019999999N0300001N1+02181+00121100131ADDAA199000091GF107991001001999999001021MA1999999088071MD1210141+0031REMSYN076AAXX  24001 53192 32980 72702 10218 20012 38807 40013 52014 80002 333 05301;EQDQ01  00002PRCP99
0112531920999992000052403004+44020+114950FM-12+112899999V0202501N003019999999N0300001N1+02881+00121100071ADDGF107991001001999999001021MD1210021+9999REMSYN060AAXX  24031 53192 42980 72503 10288 20012 40007 52002 80002;
0186531920999992000052406004+44020+114950FM-12+112899999V0202501N006010900019N0300001N1+03151-00011099911ADDAA199000091GF107991011011012501001021KA1999N+01721MA1999999087961MD1710131+9999REMSYN076AAXX  24061 53192 32680 72506 10315 21001 38796 49991 57013 81102 333 20172;EQDQ01  00002PRCP99
0112531920999992000052409004+44020+114950FM-12+112899999V0202201N005010900019N0300001N1+03201-00321099791ADDGF106991011011012501001021MD1710171+9999REMSYN060AAXX  24091 53192 42680 62205 10320 21032 49979 57017 81102;
0162531920999992000052412004+44020+114950FM-12+112899999V0200901N005010075019N0250001N1+02781+00051100051ADDAA106000791GF107991061091008001001021MA1999999088011MD1210221+9999MW1951REMSYN078AAXX  24121 53192 11575 70905 10278 20005 38801 40005 52022 69901 79500 86902;
0132531920999992000052415004+44020+114950FM-12+112899999V0200201N005010075019N0300001N1+01931+00751100281ADDAY181031GF107991061091008001001021MD1210181+9999MW1001REMSYN066AAXX  24151 53192 41580 70205 10193 20075 40028 52018 70080 86902;
0193531920999992000052418004+44020+114950FM-12+112899999V0200401N005010900019N0300001N1+01611+00681100371ADDAA106000791AY181061GF106991021091008001001021KA1999M+03291MA1999999088261MD1210071+9999MW1001REMSYN088AAXX  24181 53192 11580 60405 10161 20068 38826 40037 52007 69901 70080 82902 333 10329;
0133531920999992000052421004+44020+114950FM-12+112899999V0200401N009010900019N0300001N1+01421+00781100571ADDAA124000791GF107991041091012501001021MD1210151+9999REMSYN070AAXX  24211 53192 42680 70409 10142 20078 40057 52015 84902 333 79999;
0183531920999992000052500004+44020+114950FM-12+112899999V0200401N011019999999N0250001N1+01461-00041100871ADDAA124000791GF107991001001999999001021MA1999999088601MD1210191+0501OA130601801REMSYN094AAXX  25001 53192 32975 70411 10146 21004 38860 40087 52019 80002 333 00557 79999 91118 91504;
0132531920999992000052503004+44020+114950FM-12+112899999V0200701N011010075019N0250001N1+01461-00041101041ADDAY181031GF107991061091008001001021MD1710021+9999MW1001REMSYN066AAXX  25031 53192 41575 70711 10146 21004 40104 57002 70080 86902;
0216531920999992000052506004+44020+114950FM-12+112899999V0200401N011010900019N0250001N1+01641-00031100991ADDAA106000791AY181061GF107991031091008001001021KA1240N+01271MA1999999088511MD1710071+9999MW1001OA130601801REMSYN100AAXX  25061 53192 11575 70411 10164 21003 38851 40099 57007 69901 70080 83902 333 20127 91118 91504;
0112531920999992000052509004+44020+114950FM-12+112899999V0200401N012010360019N0250001N1+01221-00101101221ADDGF107991021091008001031021MD1210081+9999REMSYN060AAXX  25091 53192 42575 70412 10122 21010 40122 52008 82932;
0189531920999992000052512004+44020+114950FM-12+112899999V0200401N010010075019N0200001N1+00681+00331101571ADDAA106001091GF107991071091008001001021MA1999999088791MD1210201+9999MW1801OA130602001REMSYN094AAXX  25121 53192 11570 70410 10068 20033 38879 40157 52020 69991 78000 87902 333 91120 91504;
0132531920999992000052515004+44020+114950FM-12+112899999V0200701N008010075019N0200001N1+00621+00451101791ADDAY181031GF108991081091008001999999MD1210181+9999MW1801REMSYN066AAXX  25151 53192 41570 80708 10062 20045 40179 52018 78080 889//;
0193531920999992000052518004+44020+114950FM-12+112899999V0200701N006010075019N0250001N1+00671+00481101701ADDAA106006191AY181061GF108991081091008001999999KA1999M+01671MA1999999088941MD1710031+9999MW1801REMSYN088AAXX  25181 53192 11575 80706 10067 20048 38894 40170 57003 60061 78080 889// 333 10167;
0161531920999992000052521004+44020+114950FM-12+112899999V0200401N005010075019N0250001N1+00671+00501101701ADDAA124008691AY181031AY281031GF107991061091008001001021MD1710091+9999MW1801REMSYN076AAXX  25211 53192 41575 70405 10067 20050 40170 57009 78088 86902 333 70086;
0194531920999992000052600004+44020+114950FM-12+112899999V0200401N004010075019N0250001N1+00691+00481101911ADDAA106005191AY181061AY281061GF107991061091008001001021MA1999999088921MD1210071+0301MW1801REMSYN094AAXX  26001 53192 11575 70404 10069 20048 38892 40191 52007 60051 78088 86902 333 00358 70119;
0112531920999992000052603004+44020+114950FM-12+112899999V0200401N005010075019N0300001N1+00901+00501101941ADDGF107991061091008001001021MD1210061+9999REMSYN060AAXX  26031 53192 42580 70405 10090 20050 40194 52006 86902;
0167531920999992000052606004+44020+114950FM-12+112899999V0209999C000010075019N0300001N1+01031+00421101831ADDAA199000021GF107991061021008001001021KA1999N+00541MA1999999088921MD1710061+9999REMSYN076AAXX  26061 53192 32580 70000 10103 20042 38892 40183 57006 86202 333 20054;
0112531920999992000052609004+44020+114950FM-12+112899999V0209999C000019999999N0300001N1+01161+00171101661ADDGF107991001001999999001021MD1710121+9999REMSYN060AAXX  26091 53192 42980 70000 10116 20017 40166 57012 80002;
0144531920999992000052612004+44020+114950FM-12+112899999V0202201N003010900019N0300001N1+01061+00481101661ADDAA199000021GF107991021051012501001021MA1999999088791MD1710011+9999REMSYN066AAXX  26121 53192 32680 72203 10106 20048 38879 40166 57001 82502;
0122531920999992000052615004+44020+114950FM-12+112899999V0202701N001012200019N0300001N1+00761+00551101701ADDGA1001+999999999GF100991001001999999001001MD1210011+9999REMSYN054AAXX  26151 53192 42980 02701 10076 20055 40170 52001;
0186531920999992000052618004+44020+114950FM-12+112899999V0209999C000012200019N0300001N1+00621+00451101631ADDAA199000091GF101991001001999999001021KA1999M+01191MA1999999088741MD1710061+9999REMSYN076AAXX  26181 53192 32980 10000 10062 20045 38874 40163 57006 80002 333 10119;EQDQ01  00002PRCP99
0133531920999992000052621004+44020+114950FM-12+112899999V0209999C000012200019N0300001N1+00521+00431101521ADDAA124003391GF101991001001999999001021MD1710091+9999REMSYN070AAXX  26211 53192 42980 10000 10052 20043 40152 57009 80002 333 70033;
0191531920999992000052700004+44020+114950FM-12+112899999V0202201N002012200019N0300001N1+00931+00671101471ADDAA199000091GF101991001001999999001021IA2999+00109MA1999999088671MD1210021-0301REMSYN082AAXX  27001 53192 32980 12202 10093 20067 38867 40147 52002 80002 333 05302 30014;EQDQ01  00002PRCP99
0112531920999992000052703004+44020+114950FM-12+112899999V0202701N002012200019N0300001N1+01721+00401101281ADDGF101991011021008001001021MD1710061+9999REMSYN060AAXX  27031 53192 42580 12702 10172 20040 40128 57006 81202;
0186531920999992000052706004+44020+114950FM-12+112899999V0202901N004010075019N0300001N1+02031-00531100981ADDAA199000091GF107991061091008001001021KA1999N+00471MA1999999088381MD1710231+9999REMSYN076AAXX  27061 53192 32580 72904 10203 21053 38838 40098 57023 86902 333 20047;EQDQ01  00002PRCP99
0140531920999992000052709004+44020+114950FM-12+112899999V0200201N005010075019N0300001N1+01581+00031101231ADDAY191031AY281031GF107991071091008001001021MD1210101+9999MW1251REMSYN066AAXX  27091 53192 41580 70205 10158 20003 40123 52010 72598 87902;
0140531920999992000052712004+44020+114950FM-12+112899999V0209999C000010900019N0300001N1+01441+00371101151ADDAY191061AY281061GF105991021091008001001021MD1710011+9999MW1001REMSYN066AAXX  27121 53192 41580 50000 10144 20037 40115 57001 70098 82902;
0122531920999992000052715004+44020+114950FM-12+112899999V0202701N002012200019N0300001N1+00901+00551101221ADDGA1001+999999999GF100991001001999999001001MD1210111+9999REMSYN054AAXX  27151 53192 42980 02702 10090 20055 40122 52011;
0177531920999992000052718004+44020+114950FM-12+112899999V0209999C000012200019N0300001N1+00721+00511101241ADDAA199000021GA1001+999999999GF100991001001999999001001KA1999M+02111MA1999999088631MD1210051+9999REMSYN070AAXX  27181 53192 32980 00000 10072 20051 38863 40124 52005 333 10211;
0143531920999992000052721004+44020+114950FM-12+112899999V0209999C000012200019N0300001N1+00521+00361101471ADDAA124000791GA1001+999999999GF100991001001999999001001MD1210061+9999REMSYN064AAXX  27211 53192 42980 00000 10052 20036 40147 52006 333 79999;
0188531920999992000052800004+44020+114950FM-12+112899999V0202501N002012200019N0300001N1+01041+00601101411ADDAA124000791GA1001+999999999GF100991001001999999001001IA2999+00069MA1999999088721MD1210031+0101REMSYN082AAXX  28001 53192 32980 02502 10104 20060 38872 40141 52003 333 00101 30006 79999;
0141531920999992000052803004+44020+114950FM-12+112899999V0202501N007012200019N0300001N1+02071-00632101181ADDGA1001+999999999GF100991001001999999001001MD1710101+9999REMSYN054AAXX  28031 53192 42980 02507 10207 21063 40118 57010;EQDQ01-000633ATOD  
0196531920999992000052806004+44020+114950FM-12+112899999V0202201N007012200019N0300001N1+02441-00851100931ADDAA199000091GA1001+999999999GF100991001001999999001001KA1999N+00491MA1999999088441MD1710181+9999REMSYN070AAXX  28061 53192 32980 02207 10244 21085 38844 40093 57018 333 20049;EQDQ01  00002PRCP99
0112531920999992000052809004+44020+114950FM-12+112899999V0202001N008012200019N0300001N1+02541-01001100661ADDGF101991001001999999001021MD1710261+9999REMSYN060AAXX  28091 53192 42980 12008 10254 21100 40066 57026 80002;
0163531920999992000052812004+44020+114950FM-12+112899999V0202701N001019999999N0300001N1+02201-00201100531ADDAA199000091GF106991001001999999001021MA1999999088101MD1710081+9999REMSYN066AAXX  28121 53192 32980 62701 10220 21020 38810 40053 57008 80002;EQDQ01  00002PRCP99
0112531920999992000052815004+44020+114950FM-12+112899999V0202201N005012200019N0300001N1+01861-00341100431ADDGF101991001001999999001021MD1210051+9999REMSYN060AAXX  28151 53192 42980 12205 10186 21034 40043 52005 80002;
0196531920999992000052818004+44020+114950FM-12+112899999V0202701N002012200019N0300001N1+01371+00161100501ADDAA199000091GA1001+999999999GF100991001001999999001001KA1999M+02611MA1999999088191MD1210041+9999REMSYN070AAXX  28181 53192 32980 02702 10137 20016 38819 40050 52004 333 10261;EQDQ01  00002PRCP99
0112531920999992000052821004+44020+114950FM-12+112899999V0202201N001012200019N0300001N1+01181+00231100521ADDGF102991001001999999001021MD1410001+9999REMSYN060AAXX  28211 53192 42980 22201 10118 20023 40052 54000 80002;
0173531920999992000052900004+44020+114950FM-12+112899999V0202201N005019999999N0300001N1+01881-00071100431ADDAA199000091GF106991001001999999001021MA1999999088181MD1710011+0051REMSYN076AAXX  29001 53192 32980 62205 10188 21007 38818 40043 57001 80002 333 05508;EQDQ01  00002PRCP99
0112531920999992000052903004+44020+114950FM-12+112899999V0202201N010010900019N0250001N1+02601-00711100141ADDGF106991011011008001001021MD1710181+9999REMSYN060AAXX  29031 53192 42575 62210 10260 21071 40014 57018 81102;
0186531920999992000052906004+44020+114950FM-12+112899999V0202201N008010900019N0250001N1+02701-00731100021ADDAA199000091GF107991021011008001001021KA1999N+01111MA1999999087821MD1710181+9999REMSYN076AAXX  29061 53192 32575 72208 10270 21073 38782 40002 57018 82102 333 20111;EQDQ01  00002PRCP99
0112531920999992000052909004+44020+114950FM-12+112899999V0202201N008010900019N0250001N1+02581-00441099951ADDGF107991011011008001001081MD1710121+9999REMSYN060AAXX  29091 53192 42575 72208 10258 21044 49995 57012 81108;
0163531920999992000052912004+44020+114950FM-12+112899999V0202001N005010900019N0300001N1+02301-00021099901ADDAA199000091GF107991021091008001001021MA1999999087731MD1210031+9999REMSYN066AAXX  29121 53192 32580 72005 10230 21002 38773 49990 52003 82902;EQDQ01  00002PRCP99
0112531920999992000052915004+44020+114950FM-12+112899999V0202001N005019999999N0300001N1+02001+00161099741ADDGF106991001001999999001021MD1710061+9999REMSYN060AAXX  29151 53192 42980 62005 10200 20016 49974 57006 80002;
0186531920999992000052918004+44020+114950FM-12+112899999V0202701N003019999999N0300001N1+01661+00291099671ADDAA199000091GF105991001001999999001021KA1999M+02781MA1999999087571MD1710101+9999REMSYN076AAXX  29181 53192 32980 52703 10166 20029 38757 49967 57010 80002 333 10278;EQDQ01  00002PRCP99
0112531920999992000052921004+44020+114950FM-12+112899999V0202201N003010900019N0300001N1+01641+00321099631ADDGF107991021091008001001021MD1710071+9999REMSYN060AAXX  29211 53192 42580 72203 10164 20032 49963 57007 82902;
0186531920999992000053000004+44020+114950FM-12+112899999V0201401N002010900019N0300001N1+01381+00981099771ADDAA106000591AY181061GF107991031091008001001021MA1999999087521MD1210021-0701MW1251REMSYN094AAXX  30001 53192 11580 71402 10138 20098 38752 49977 52002 69951 72580 83902 333 05755 70005;
0112531920999992000053003004+44020+114950FM-12+112899999V0202001N008010900019N0300001N1+02141+00121099591ADDGF107991011091008001001021MD1710071+9999REMSYN060AAXX  30031 53192 42580 72008 10214 20012 49959 57007 81902;
0167531920999992000053006004+44020+114950FM-12+112899999V0202001N008010900019N0300001N1+02221-00221099491ADDAA199000021GF106991021011008001001021KA1999N+01311MA1999999087321MD1710131+9999REMSYN076AAXX  30061 53192 32580 62008 10222 21022 38732 49949 57013 82102 333 20131;
0112531920999992000053009004+44020+114950FM-12+112899999V0202501N003010900019N0300001N1+01711+00481099651ADDGF107991031091008001001021MD1210031+9999REMSYN060AAXX  30091 53192 42580 72503 10171 20048 49965 52003 83902;
0171531920999992000053012004+44020+114950FM-12+112899999V0202701N001010900019N0300001N1+01681+00611099861ADDAA199000021GF107991041091008001001021MA1999999087481MD1210131+9999OA130601801REMSYN082AAXX  30121 53192 32580 72701 10168 20061 38748 49986 52013 84902 333 91118 91522;
0112531920999992000053015004+44020+114950FM-12+112899999V0200901N003012200019N0300001N1+01311+00711099951ADDGF103991001001999999001021MD1210161+9999REMSYN060AAXX  30151 53192 42980 30903 10131 20071 49995 52016 80002;
0186531920999992000053018004+44020+114950FM-12+112899999V0200401N002010900019N0300001N1+01241+00591099911ADDAA199000091GF107991021091008001001021KA1999M+02281MA1999999087601MD1710041+9999REMSYN076AAXX  30181 53192 32580 70402 10124 20059 38760 49991 57004 82902 333 10228;EQDQ01  00002PRCP99
0145531920999992000053021004+44020+114950FM-12+112899999V0209999C000010075019N0300001N1+01181+00631100101ADDAA124000591GF107991061091008001001021MD1210061+9999MW1801REMSYN076AAXX  30211 53192 41580 70000 10118 20063 40010 52006 78000 86902 333 70005;
0186531920999992000053100004+44020+114950FM-12+112899999V0209999C000010075019N0250001N1+01261+00811100301ADDAA106001091AY181061GF107991071091008001001021MA1999999087841MD1210181+0301MW1801REMSYN094AAXX  31001 53192 11575 70000 10126 20081 38784 40030 52018 69991 78080 87902 333 00351 70009;
0132531920999992000053103004+44020+114950FM-12+112899999V0203401N003010075019N0300001N1+01841+00681100321ADDAY181031GF107991061091008001001021MD1210061+9999MW1001REMSYN066AAXX  31031 53192 41580 73403 10184 20068 40032 52006 70080 86902;
0193531920999992000053106004+44020+114950FM-12+112899999V0200401N004010075019N0300001N1+02041+00571100271ADDAA106000591AY181061GF107991061091008001001021KA1999N+01161MA1999999087881MD1710021+9999MW1251REMSYN088AAXX  31061 53192 11580 70404 10204 20057 38788 40027 57002 69961 72580 86902 333 20116;
0140531920999992000053109004+44020+114950FM-12+112899999V0200701N004010075019N0300001N1+02061+00431100391ADDAY191031AY281031GF107991061091008001001021MD1210101+9999MW1001REMSYN066AAXX  31091 53192 41580 70704 10206 20043 40039 52010 70098 86902;
0178531920999992000053112004+44020+114950FM-12+112899999V0200701N002010075019N0300001N1+01741+00681100701ADDAA106000791AY191061AY281061GF107991061091008001001021MA1999999088201MD1210221+9999MW1001REMSYN078AAXX  31121 53192 11580 70702 10174 20068 38820 40070 52022 69901 70098 86902;
0112531920999992000053115004+44020+114950FM-12+112899999V0200201N001012200019N0300001N1+01301+00741100941ADDGF104991021091008001001021MD1210241+9999REMSYN060AAXX  31151 53192 42580 40201 10130 20074 40094 52024 82902;
0177531920999992000053118004+44020+114950FM-12+112899999V0209999C000012200019N0300001N1+01171+00701101011ADDAA199000021GA1001+999999999GF100991001001999999001001KA1999M+02211MA1999999088521MD1210081+9999REMSYN070AAXX  31181 53192 32980 00000 10117 20070 38852 40101 52008 333 10221;
0133531920999992000053121004+44020+114950FM-12+112899999V0209999C000012200019N0300001N1+00981+00701101151ADDAA124001591GF102991001001999999001021MD1210091+9999REMSYN070AAXX  31211 53192 42980 20000 10098 20070 40115 52009 80002 333 70015;
0160531920999992000060100004+44020+114950FM-12+112899999V0209999C000012200019N0300001N1+01481+00851101301ADDAA124000591GF101991001001999999001021MA1999999088771MD1210161+0901REMSYN082AAXX  01001 53192 32980 10000 10148 20085 38877 40130 52016 80002 333 00902 70006;
0112531920999992000060103004+44020+114950FM-12+112899999V0200901N001012200019N0300001N1+02191+00521101271ADDGF103991021011008001001021MD1210031+9999REMSYN060AAXX  01031 53192 42580 30901 10219 20052 40127 52003 82102;
0186531920999992000060106004+44020+114950FM-12+112899999V0200401N004012200019N0300001N1+02431-00361101161ADDAA199000091GF102991021011008001001021KA1999N+00941MA1999999088731MD1710071+9999REMSYN076AAXX  01061 53192 32580 20404 10243 21036 38873 40116 57007 82102 333 20094;EQDQ01  00002PRCP99
0112531920999992000060109004+44020+114950FM-12+112899999V0200701N003012200019N0300001N1+02461-00241101131ADDGF102991021011008001001021MD1710061+9999REMSYN060AAXX  01091 53192 42580 20703 10246 21024 40113 57006 82102;
0163531920999992000060112004+44020+114950FM-12+112899999V0200401N003012200019N0300001N1+02181-00401101221ADDAA199000091GF104991021091008001001021MA1999999088791MD1210121+9999REMSYN066AAXX  01121 53192 32580 40403 10218 21040 38879 40122 52012 82902;EQDQ01  00002PRCP99
0122531920999992000060115004+44020+114950FM-12+112899999V0209999C000012200019N0300001N1+01641+00031101331ADDGA1001+999999999GF100991001001999999001001MD1210131+9999REMSYN054AAXX  01151 53192 42980 00000 10164 20003 40133 52013;
0196531920999992000060118004+44020+114950FM-12+112899999V0209999C000012200019N0300001N1+01341+00141101381ADDAA199000091GA1001+999999999GF100991001001999999001001KA1999M+02581MA1999999088951MD1210031+9999REMSYN070AAXX  01181 53192 32980 00000 10134 20014 38895 40138 52003 333 10258;EQDQ01  00002PRCP99
0122531920999992000060121004+44020+114950FM-12+112899999V0200401N002012200019N0300001N1+01191+00211101521ADDGA1001+999999999GF100991001001999999001001MD1210101+9999REMSYN054AAXX  01211 53192 42980 00402 10119 20021 40152 52010;
0183531920999992000060200004+44020+114950FM-12+112899999V0201101N003012200019N0300001N1+01861+00501101561ADDAA199000091GA1001+999999999GF100991001001999999001001MA1999999089161MD1210111+0041REMSYN070AAXX  02001 53192 32980 01103 10186 20050 38916 40156 52011 333 00404;EQDQ01  00002PRCP99
0112531920999992000060203004+44020+114950FM-12+112899999V0201601N002012200019N0300001N1+02341+00481101491ADDGF101991011011008001001001MD1710071+9999REMSYN060AAXX  02031 53192 42580 11602 10234 20048 40149 57007 81100;
0186531920999992000060206004+44020+114950FM-12+112899999V0201401N003012200019N0300001N1+02571+00121101321ADDAA199000091GF102991021011008001001001KA1999N+01171MA1999999088931MD1710161+9999REMSYN076AAXX  02061 53192 32580 21403 10257 20012 38893 40132 57016 82100 333 20117;EQDQ01  00002PRCP99
0112531920999992000060209004+44020+114950FM-12+112899999V0201401N002010900019N0300001N1+02561+00071101271ADDGF106991031011008001001021MD1710081+9999REMSYN060AAXX  02091 53192 42580 61402 10256 20007 40127 57008 83102;
0163531920999992000060212004+44020+114950FM-12+112899999V0201401N002012200019N0300001N1+02361+00151101221ADDAA199000091GF103991011041012501001021MA1999999088901MD1210051+9999REMSYN066AAXX  02121 53192 32680 31402 10236 20015 38890 40122 52005 81402;EQDQ01  00002PRCP99
0112531920999992000060215004+44020+114950FM-12+112899999V0200401N001012200019N0300001N1+01901+00341101311ADDGF101991001001999999001021MD1210081+9999REMSYN060AAXX  02151 53192 42980 10401 10190 20034 40131 52008 80002;
0196531920999992000060218004+44020+114950FM-12+112899999V0200201N003012200019N0300001N1+01521+00211101331ADDAA199000091GA1001+999999999GF100991001001999999001001KA1999M+02681MA1999999088971MD1710011+9999REMSYN070AAXX  02181 53192 32980 00203 10152 20021 38897 40133 57001 333 10268;EQDQ01  00002PRCP99
0122531920999992000060221004+44020+114950FM-12+112899999V0209999C000012200019N0300001N1+01351+00321101381ADDGA1001+999999999GF100991001001999999001001MD1210011+9999REMSYN054AAXX  02211 53192 42980 00000 10135 20032 40138 52001;
0173531920999992000060300004+44020+114950FM-12+112899999V0202201N001012200019N0300001N1+01971+00731101301ADDAA199000091GF102991001001999999001021MA1999999088991MD1210011+0021REMSYN076AAXX  03001 53192 32980 22201 10197 20073 38899 40130 52001 80002 333 05201;EQDQ01  00002PRCP99
0112531920999992000060303004+44020+114950FM-12+112899999V0202501N003010900019N0300001N1+02541+00361101231ADDGF105991021011008001001021MD1710041+9999REMSYN060AAXX  03031 53192 42580 52503 10254 20036 40123 57004 82102;
0186531920999992000060306004+44020+114950FM-12+112899999V0201601N004010900019N0300001N1+02721-00201101121ADDAA199000091GF106991021011008001001021KA1999N+01271MA1999999088821MD1710131+9999REMSYN076AAXX  03061 53192 32580 61604 10272 21020 38882 40112 57013 82102 333 20127;EQDQ01  00002PRCP99
0112531920999992000060309004+44020+114950FM-12+112899999V0201401N003012200019N0300001N1+02681-00011101081ADDGF103991021011008001001021MD1710081+9999REMSYN060AAXX  03091 53192 42580 31403 10268 21001 40108 57008 82102;
0163531920999992000060312004+44020+114950FM-12+112899999V0201801N003012200019N0300001N1+02391+00151100951ADDAA199000091GF102991001001999999001021MA1999999088691MD1710051+9999REMSYN066AAXX  03121 53192 32980 21803 10239 20015 38869 40095 57005 80002;EQDQ01  00002PRCP99
0122531920999992000060315004+44020+114950FM-12+112899999V0209999C000012200019N0300001N1+01861+00501100971ADDGA1001+999999999GF100991001001999999001001MD1210031+9999REMSYN054AAXX  03151 53192 42980 00000 10186 20050 40097 52003;
0196531920999992000060318004+44020+114950FM-12+112899999V0209999C000012200019N0300001N1+01511+00391100981ADDAA199000091GA1001+999999999GF100991001001999999001001KA1999M+02791MA1999999088691MD1710031+9999REMSYN070AAXX  03181 53192 32980 00000 10151 20039 38869 40098 57003 333 10279;EQDQ01  00002PRCP99
0112531920999992000060321004+44020+114950FM-12+112899999V0209999C000012200019N0300001N1+01261+00341101091ADDGF101991001001999999001021MD1210041+9999REMSYN060AAXX  03211 53192 42980 10000 10126 20034 40109 52004 80002;
0173531920999992000060400004+44020+114950FM-12+112899999V0209999C000012200019N0300001N1+02001+00551101061ADDAA199000091GF101991001001999999001021MA1999999088791MD1210061+0021REMSYN076AAXX  04001 53192 32980 10000 10200 20055 38879 40106 52006 80002 333 05200;EQDQ01  00002PRCP99
0112531920999992000060403004+44020+114950FM-12+112899999V0202501N004012200019N0300001N1+02641-00221100981ADDGF101991011011008001001021MD1710051+9999REMSYN060AAXX  04031 53192 42580 12504 10264 21022 40098 57005 81102;
0186531920999992000060406004+44020+114950FM-12+112899999V0202501N003012200019N0300001N1+02801-00161100861ADDAA199000091GF102991011011008001001021KA1999N+01211MA1999999088601MD1710141+9999REMSYN076AAXX  04061 53192 32580 22503 10280 21016 38860 40086 57014 81102 333 20121;EQDQ01  00002PRCP99
0112531920999992000060409004+44020+114950FM-12+112899999V0202901N004012200019N0300001N1+02891-00641100761ADDGF103991011011008001001021MD1710121+9999REMSYN060AAXX  04091 53192 42580 32904 10289 21064 40076 57012 81102;
0163531920999992000060412004+44020+114950FM-12+112899999V0202201N002012200019N0300001N1+02501-00311100671ADDAA199000091GF101991011041012501001021MA1999999088471MD1710011+9999REMSYN066AAXX  04121 53192 32680 12202 10250 21031 38847 40067 57001 81402;EQDQ01  00002PRCP99
0112531920999992000060415004+44020+114950FM-12+112899999V0202201N002012200019N0300001N1+02041+00181100721ADDGF101991001001999999001021MD1210081+9999REMSYN060AAXX  04151 53192 42980 12202 10204 20018 40072 52008 80002;
0196531920999992000060418004+44020+114950FM-12+112899999V0209999C000012200019N0300001N1+01661+00311100781ADDAA199000091GA1001+999999999GF100991001001999999001001KA1999M+02961MA1999999088561MD1210011+9999REMSYN070AAXX  04181 53192 32980 00000 10166 20031 38856 40078 52001 333 10296;EQDQ01  00002PRCP99
0112531920999992000060421004+44020+114950FM-12+112899999V0209999C000012200019N0300001N1+01401+00391100871ADDGF103991001001999999001021MD1210051+9999REMSYN060AAXX  04211 53192 42980 30000 10140 20039 40087 52005 80002;
0173531920999992000060500004+44020+114950FM-12+112899999V0202201N002019999999N0300001N1+02331+00261100841ADDAA199000091GF105991001001999999001021MA1999999088681MD1210071+0011REMSYN076AAXX  05001 53192 32980 52202 10233 20026 38868 40084 52007 80002 333 05103;EQDQ01  00002PRCP99
0112531920999992000060503004+44020+114950FM-12+112899999V0202901N005019999999N0300001N1+02871-00111100661ADDGF107991001001999999001021MD1710141+9999REMSYN060AAXX  05031 53192 42980 72905 10287 21011 40066 57014 80002;
0186531920999992000060506004+44020+114950FM-12+112899999V0202901N004010900019N0300001N1+03061-00051100521ADDAA199000091GF107991021011008001001021KA1999N+01381MA1999999088381MD1710161+9999REMSYN076AAXX  05061 53192 32580 72904 10306 21005 38838 40052 57016 82102 333 20138;EQDQ01  00002PRCP99
0112531920999992000060509004+44020+114950FM-12+112899999V0202901N003010900019N0300001N1+03041+00141100481ADDGF107991021091008001001021MD1710091+9999REMSYN060AAXX  05091 53192 42580 72903 10304 20014 40048 57009 82902;
0163531920999992000060512004+44020+114950FM-12+112899999V0202201N002019999999N0300001N1+02651+00091100391ADDAA199000091GF106991001001999999001021MA1999999088321MD1210031+9999REMSYN066AAXX  05121 53192 32980 62202 10265 20009 38832 40039 52003 80002;EQDQ01  00002PRCP99
0112531920999992000060515004+44020+114950FM-12+112899999V0202701N001012200019N0300001N1+02121+00041100471ADDGF101991001001999999001021MD1210071+9999REMSYN060AAXX  05151 53192 42980 12701 10212 20004 40047 52007 80002;
0196531920999992000060518004+44020+114950FM-12+112899999V0209999C000012200019N0300001N1+01771+00281100461ADDAA199000091GA1001+999999999GF100991001001999999001001KA1999M+03171MA1999999088351MD1710041+9999REMSYN070AAXX  05181 53192 32980 00000 10177 20028 38835 40046 57004 333 10317;EQDQ01  00002PRCP99
0112531920999992000060521004+44020+114950FM-12+112899999V0209999C000019999999N0300001N1+01551+00171100431ADDGF106991001001999999001021MD1710071+9999REMSYN060AAXX  05211 53192 42980 60000 10155 20017 40043 57007 80002;
0173531920999992000060600004+44020+114950FM-12+112899999V0209999C000019999999N0300001N1+02131+00321100351ADDAA199000091GF106991001001999999001021MA1999999088241MD1710041+0041REMSYN076AAXX  06001 53192 32980 60000 10213 20032 38824 40035 57004 80002 333 05452;EQDQ01  00002PRCP99
0112531920999992000060603004+44020+114950FM-12+112899999V0202201N005019999999N0300001N1+02731+00191100211ADDGF107991021001999999031021MD1710111+9999REMSYN060AAXX  06031 53192 42980 72205 10273 20019 40021 57011 82032;
0186531920999992000060606004+44020+114950FM-12+112899999V0202501N010010900019N0300001N1+02861-00341100031ADDAA199000091GF107991021011012501001021KA1999N+01501MA1999999087931MD1710201+9999REMSYN076AAXX  06061 53192 32680 72510 10286 21034 38793 40003 57020 82102 333 20150;EQDQ01  00002PRCP99
0151531920999992000060609004+44020+114950FM-12+112899999V0202201N010010075019N0250001N1+01851+01262100401ADDAY181031GF107991061091008001001021MD1210091+9999MW1801REMSYN066AAXX  06091 53192 41575 72210 10185 20126 40040 52009 78080 86902;EQDQ01+001263ATOD  
0197531920999992000060612004+44020+114950FM-12+112899999V0202001N008010075019N0300001N1+01721+01341100211ADDAA106000591AY181061GF107991061091008001001021MA1999999087941MD1710081+9999MW1001OA130602101REMSYN094AAXX  06121 53192 11580 72008 10172 20134 38794 40021 57008 69951 70080 86902 333 91121 91525;
0132531920999992000060615004+44020+114950FM-12+112899999V0202701N007010075019N0300001N1+01461+01141100201ADDAY181031GF107991061091008001001021MD1210061+9999MW1801REMSYN066AAXX  06151 53192 41580 72707 10146 20114 40020 52006 78080 86902;
0193531920999992000060618004+44020+114950FM-12+112899999V0202701N004012200019N0300001N1+01211+01011100381ADDAA106000791AY181061GF104991011091008001001021KA1999M+02941MA1999999088131MD1210131+9999MW1001REMSYN088AAXX  06181 53192 11580 42704 10121 20101 38813 40038 52013 69901 70080 81902 333 10294;
0133531920999992000060621004+44020+114950FM-12+112899999V0202701N002012200019N0300001N1+00951+00811100751ADDAA124000591GF102991001001999999001021MD1210081+9999REMSYN070AAXX  06211 53192 42980 22702 10095 20081 40075 52008 80002 333 70005;
0160531920999992000060700004+44020+114950FM-12+112899999V0202901N002010900019N0300001N1+01371+00851100691ADDAA124000591GF106991021011008001001021MA1999999088211MD1410001+0001REMSYN082AAXX  07001 53192 32580 62902 10137 20085 38821 40069 54000 82102 333 00058 70005;
0112531920999992000060703004+44020+114950FM-12+112899999V0202701N006010075019N0300001N1+01821+00631100541ADDGF106991061011008001001001MD1710091+9999REMSYN060AAXX  07031 53192 42580 62706 10182 20063 40054 57009 86100;
0186531920999992000060706004+44020+114950FM-12+112899999V0202901N008012200019N0300001N1+02201-00511100331ADDAA199000091GF103991031011008001001001KA1999N+00911MA1999999087961MD1710161+9999REMSYN076AAXX  07061 53192 32580 32908 10220 21051 38796 40033 57016 83100 333 20091;EQDQ01  00002PRCP99
0112531920999992000060709004+44020+114950FM-12+112899999V0203201N006012200019N0300001N1+02191-00801100371ADDGF101991011011008001001001MD1710021+9999REMSYN060AAXX  07091 53192 42580 13206 10219 21080 40037 57002 81100;
0163531920999992000060712004+44020+114950FM-12+112899999V0202901N003012200019N0300001N1+02001-00451100251ADDAA199000091GF102991021041012501001001MA1999999087881MD1710061+9999REMSYN066AAXX  07121 53192 32680 22903 10200 21045 38788 40025 57006 82400;EQDQ01  00002PRCP99
0112531920999992000060715004+44020+114950FM-12+112899999V0200401N008012200019N0300001N1+01281+00541100391ADDGF104991041091008001001001MD1210071+9999REMSYN060AAXX  07151 53192 42580 40408 10128 20054 40039 52007 84900;
0186531920999992000060718004+44020+114950FM-12+112899999V0203401N003010900019N0300001N1+01341+00181100291ADDAA199000091GF107991031041012501001021KA1999M+02331MA1999999087951MD1410001+9999REMSYN076AAXX  07181 53192 32680 73403 10134 20018 38795 40029 54000 83402 333 10233;EQDQ01  00002PRCP99
0112531920999992000060721004+44020+114950FM-12+112899999V0209999C000012200019N0300001N1+00911+00451100491ADDGF103991001001999999001021MD1210091+9999REMSYN060AAXX  07211 53192 42980 30000 10091 20045 40049 52009 80002;
0173531920999992000060800004+44020+114950FM-12+112899999V0203601N006010120019N0300001N1+01131+00421100641ADDAA199000091GF107991071091012501001021MA1999999088181MD1210141+0001REMSYN076AAXX  08001 53192 32680 73606 10113 20042 38818 40064 52014 87902 333 00052;EQDQ01  00002PRCP99
0112531920999992000060803004+44020+114950FM-12+112899999V0200201N008010075019N0300001N1+01301+00371100871ADDGF107991071091008001001021MD1210091+9999REMSYN060AAXX  08031 53192 42580 70208 10130 20037 40087 52009 87902;
0186531920999992000060806004+44020+114950FM-12+112899999V0200401N006010075019N0300001N1+01491+00421100911ADDAA199000091GF107991071091008001001021KA1999N+00871MA1999999088351MD1210081+9999REMSYN076AAXX  08061 53192 32580 70406 10149 20042 38835 40091 52008 87902 333 20087;EQDQ01  00002PRCP99
0112531920999992000060809004+44020+114950FM-12+112899999V0200201N006010075019N0300001N1+01601+00411101071ADDGF107991061091008001031021MD1210081+9999REMSYN060AAXX  08091 53192 42580 70206 10160 20041 40107 52008 86932;
0163531920999992000060812004+44020+114950FM-12+112899999V0200401N005010075019N0300001N1+01361+00571101161ADDAA199000091GF106991051091008001001021MA1999999088501MD1210071+9999REMSYN066AAXX  08121 53192 32580 60405 10136 20057 38850 40116 52007 85902;EQDQ01  00002PRCP99
0112531920999992000060815004+44020+114950FM-12+112899999V0200901N003012200019N0300001N1+01081+00661101341ADDGF102991001001999999001021MD1210141+9999REMSYN060AAXX  08151 53192 42980 20903 10108 20066 40134 52014 80002;
0186531920999992000060818004+44020+114950FM-12+112899999V0209999C000012200019N0300001N1+00831+00561101431ADDAA199000091GF101991001001999999001021KA1999M+01661MA1999999088701MD1210061+9999REMSYN076AAXX  08181 53192 32980 10000 10083 20056 38870 40143 52006 80002 333 10166;EQDQ01  00002PRCP99
0112531920999992000060821004+44020+114950FM-12+112899999V0200401N001012200019N0300001N1+00631+00431101561ADDGF101991001001999999001021MD1210101+9999REMSYN060AAXX  08211 53192 42980 10401 10063 20043 40156 52010 80002;
0191531920999992000060900004+44020+114950FM-12+112899999V0201101N001012200019N0300001N1+01311+00381101491ADDAA199000091GF101991001001999999001021IA2999+00209MA1999999088831MD1210031+0701REMSYN082AAXX  09001 53192 32980 11101 10131 20038 38883 40149 52003 80002 333 00702 30020;EQDQ01  00002PRCP99
0112531920999992000060903004+44020+114950FM-12+112899999V0201101N002012200019N0300001N1+01671-00051101441ADDGF103991031011008001001001MD1710031+9999REMSYN060AAXX  09031 53192 42580 31102 10167 21005 40144 57003 83100;
0186531920999992000060906004+44020+114950FM-12+112899999V0202701N002012200019N0300001N1+01941-00181101251ADDAA199000091GF104991041011008001001001KA1999N+00601MA1999999088641MD1710161+9999REMSYN076AAXX  09061 53192 32580 42702 10194 21018 38864 40125 57016 84100 333 20060;EQDQ01  00002PRCP99
0112531920999992000060909004+44020+114950FM-12+112899999V0200701N001010075019N0300001N1+02111-00291101141ADDGF105991051011008001001001MD1710101+9999REMSYN060AAXX  09091 53192 42580 50701 10211 21029 40114 57010 85100;
0163531920999992000060912004+44020+114950FM-12+112899999V0209999C000012200019N0300001N1+01991+00061101041ADDAA199000091GF101991011041012501001001MA1999999088561MD1210021+9999REMSYN066AAXX  09121 53192 32680 10000 10199 20006 38856 40104 52002 81400;EQDQ01  00002PRCP99
0112531920999992000060915004+44020+114950FM-12+112899999V0200901N001012200019N0300001N1+01631+00021101131ADDGF104991041001999999031001MD1210081+9999REMSYN060AAXX  09151 53192 42980 40901 10163 20002 40113 52008 84030;
0186531920999992000060918004+44020+114950FM-12+112899999V0202701N002012200019N0300001N1+01291-00031101151ADDAA199000091GF101991001001999999001021KA1999M+02241MA1999999088641MD1410001+9999REMSYN076AAXX  09181 53192 32980 12702 10129 21003 38864 40115 54000 80002 333 10224;EQDQ01  00002PRCP99
0112531920999992000060921004+44020+114950FM-12+112899999V0209999C000012200019N0300001N1+01171+00131101081ADDGF102991001001999999001021MD1710051+9999REMSYN060AAXX  09211 53192 42980 20000 10117 20013 40108 57005 80002;
0173531920999992000061000004+44020+114950FM-12+112899999V0202201N003010900019N0300001N1+01721-00131101001ADDAA199000091GF105991041091012501001021MA1999999088611MD1210021+0021REMSYN076AAXX  10001 53192 32680 52203 10172 21013 38861 40100 52002 84902 333 05204;EQDQ01  00002PRCP99
0132531920999992000061003004+44020+114950FM-12+112899999V0202701N004010360019N0300001N1+02261+00061100941ADDAY181031GF106991031091012501031021MD1710021+9999MW1251REMSYN066AAXX  10031 53192 41680 62704 10226 20006 40094 57002 72580 83932;
0193531920999992000061006004+44020+114950FM-12+112899999V0200201N004012200019N0300001N1+02541-00081100801ADDAA106000791AY181061GF104991041021012501001021KA1999N+01131MA1999999088461MD1710131+9999MW1001REMSYN088AAXX  10061 53192 11680 40204 10254 21008 38846 40080 57013 69901 70080 84202 333 20113;
0112531920999992000061009004+44020+114950FM-12+112899999V0203601N004012200019N0300001N1+02511-00191100771ADDGF102991021011012501001001MD1710061+9999REMSYN060AAXX  10091 53192 42680 23604 10251 21019 40077 57006 82100;
0144531920999992000061012004+44020+114950FM-12+112899999V0200701N003012200019N0300001N1+02311-00171100791ADDAA199000021GF101991011041012501001001MA1999999088491MD1210091+9999REMSYN066AAXX  10121 53192 32680 10703 10231 21017 38849 40079 52009 81400;
0122531920999992000061015004+44020+114950FM-12+112899999V0200901N001012200019N0300001N1+01611+00431101051ADDGA1001+999999999GF100991001001999999001001MD1210191+9999REMSYN054AAXX  10151 53192 42980 00901 10161 20043 40105 52019;
0196531920999992000061018004+44020+114950FM-12+112899999V0200201N002012200019N0300001N1+01291+00301101101ADDAA199000091GA1001+999999999GF100991001001999999001001KA1999M+02621MA1999999088721MD1210041+9999REMSYN070AAXX  10181 53192 32980 00202 10129 20030 38872 40110 52004 333 10262;EQDQ01  00002PRCP99
0143531920999992000061021004+44020+114950FM-12+112899999V0200201N002012200019N0300001N1+01041+00201101261ADDAA124000791GA1001+999999999GF100991001001999999001001MD1210081+9999REMSYN064AAXX  10211 53192 42980 00202 10104 20020 40126 52008 333 79999;
0170531920999992000061100004+44020+114950FM-12+112899999V0201101N002012200019N0300001N1+01771+00331101281ADDAA124000791GA1001+999999999GF100991001001999999001001MA1999999088931MD1210131+0301REMSYN076AAXX  11001 53192 32980 01102 10177 20033 38893 40128 52013 333 00301 79999;
0112531920999992000061103004+44020+114950FM-12+112899999V0200401N004012200019N0300001N1+02231-00011101381ADDGF101991011011008001001001MD1210041+9999REMSYN060AAXX  11031 53192 42580 10404 10223 21001 40138 52004 81100;
0186531920999992000061106004+44020+114950FM-12+112899999V0200401N004012200019N0300001N1+02441-00291101311ADDAA199000091GF101991011011008001001001KA1999N+01021MA1999999088881MD1710091+9999REMSYN076AAXX  11061 53192 32580 10404 10244 21029 38888 40131 57009 81100 333 20102;EQDQ01  00002PRCP99
0122531920999992000061109004+44020+114950FM-12+112899999V0200901N003012200019N0300001N1+02511-00481101301ADDGA1001+999999999GF100991001001999999001001MD1710041+9999REMSYN054AAXX  11091 53192 42980 00903 10251 21048 40130 57004;
0173531920999992000061112004+44020+114950FM-12+112899999V0200701N003012200019N0300001N1+02311-00541101251ADDAA199000091GA1001+999999999GF100991001001999999001001MA1999999088901MD1210061+9999REMSYN060AAXX  11121 53192 32980 00703 10231 21054 38890 40125 52006;EQDQ01  00002PRCP99
0122531920999992000061115004+44020+114950FM-12+112899999V0200901N002012200019N0300001N1+01861-00401101401ADDGA1001+999999999GF100991001001999999001001MD1210131+9999REMSYN054AAXX  11151 53192 42980 00902 10186 21040 40140 52013;
0196531920999992000061118004+44020+114950FM-12+112899999V0200401N002012200019N0300001N1+01391-00431101511ADDAA199000091GA1001+999999999GF100991001001999999001001KA1999M+02551MA1999999089081MD1210051+9999REMSYN070AAXX  11181 53192 32980 00402 10139 21043 38908 40151 52005 333 10255;EQDQ01  00002PRCP99
0122531920999992000061121004+44020+114950FM-12+112899999V0200401N001012200019N0300001N1+01101-00311101631ADDGA1001+999999999GF100991001001999999001001MD1210061+9999REMSYN054AAXX  11211 53192 42980 00401 10110 21031 40163 52006;
0183531920999992000061200004+44020+114950FM-12+112899999V0201401N001012200019N0300001N1+01921-00081101501ADDAA199000091GA1001+999999999GF100991001001999999001001MA1999999089151MD1210011+0021REMSYN070AAXX  12001 53192 32980 01401 10192 21008 38915 40150 52001 333 00202;EQDQ01  00002PRCP99
0122531920999992000061203004+44020+114950FM-12+112899999V0203601N002012200019N0300001N1+02511-00441101381ADDGA1001+999999999GF100991001001999999001001MD1710081+9999REMSYN054AAXX  12031 53192 42980 03602 10251 21044 40138 57008;
0196531920999992000061206004+44020+114950FM-12+112899999V0200201N002012200019N0300001N1+02771-00711101231ADDAA199000091GA1001+999999999GF100991001001999999001001KA1999N+01061MA1999999088901MD1710171+9999REMSYN070AAXX  12061 53192 32980 00202 10277 21071 38890 40123 57017 333 20106;EQDQ01  00002PRCP99
0122531920999992000061209004+44020+114950FM-12+112899999V0200201N003012200019N0300001N1+02951-00741101021ADDGA1001+999999999GF100991001001999999001001MD1710211+9999REMSYN054AAXX  12091 53192 42980 00203 10295 21074 40102 57021;
0173531920999992000061212004+44020+114950FM-12+112899999V0202201N002012200019N0300001N1+02651-00481100831ADDAA199000091GA1001+999999999GF100991001001999999001001MA1999999088631MD1710061+9999REMSYN060AAXX  12121 53192 32980 02202 10265 21048 38863 40083 57006;EQDQ01  00002PRCP99
0122531920999992000061215004+44020+114950FM-12+112899999V0202701N001012200019N0300001N1+01901-00311100921ADDGA1001+999999999GF100991001001999999001001MD1210041+9999REMSYN054AAXX  12151 53192 42980 02701 10190 21031 40092 52004;
0196531920999992000061218004+44020+114950FM-12+112899999V0202701N001012200019N0300001N1+01711-00301100911ADDAA199000091GA1001+999999999GF100991001001999999001001KA1999M+03021MA1999999088681MD1210011+9999REMSYN070AAXX  12181 53192 32980 02701 10171 21030 38868 40091 52001 333 10302;EQDQ01  00002PRCP99
0112531920999992000061221004+44020+114950FM-12+112899999V0202701N002012200019N0300001N1+01711-00471100901ADDGF101991001001999999001021MD1210021+9999REMSYN060AAXX  12211 53192 42980 12702 10171 21047 40090 52002 80002;
0173531920999992000061300004+44020+114950FM-12+112899999V0202701N003012200019N0300001N1+02321-00501100781ADDAA199000091GF102991001001999999001021MA1999999088661MD1710041+0051REMSYN076AAXX  13001 53192 32980 22703 10232 21050 38866 40078 57004 80002 333 05504;EQDQ01  00002PRCP99
0122531920999992000061303004+44020+114950FM-12+112899999V0203601N004012200019N0300001N1+03011+00181100661ADDGA1001+999999999GF100991001001999999001001MD1710121+9999REMSYN054AAXX  13031 53192 42980 03604 10301 20018 40066 57012;
0186531920999992000061306004+44020+114950FM-12+112899999V0202901N002012200019N0300001N1+03281-00451100401ADDAA199000091GF104991041091008001001001KA1999N+01601MA1999999088331MD1710211+9999REMSYN076AAXX  13061 53192 32580 42902 10328 21045 38833 40040 57021 84900 333 20160;EQDQ01  00002PRCP99
0112531920999992000061309004+44020+114950FM-12+112899999V0201101N006010075019N0300001N1+02871+00371100651ADDGF106991051091008001001021MD1210141+9999REMSYN060AAXX  13091 53192 42580 61106 10287 20037 40065 52014 85902;
0163531920999992000061312004+44020+114950FM-12+112899999V0201401N002010360019N0300001N1+02681+00351100331ADDAA199000091GF106991021091008001031021MA1999999088271MD1710201+9999REMSYN066AAXX  13121 53192 32580 61402 10268 20035 38827 40033 57020 82932;EQDQ01  00002PRCP99
0112531920999992000061315004+44020+114950FM-12+112899999V0202201N001012200019N0300001N1+02101+00581100321ADDGF101991001001999999001021MD1210011+9999REMSYN060AAXX  13151 53192 42980 12201 10210 20058 40032 52001 80002;
0186531920999992000061318004+44020+114950FM-12+112899999V0209999C000012200019N0300001N1+01761+00571100271ADDAA199000091GF101991001001999999001021KA1999M+03431MA1999999088221MD1710061+9999REMSYN076AAXX  13181 53192 32980 10000 10176 20057 38822 40027 57006 80002 333 10343;EQDQ01  00002PRCP99
0112531920999992000061321004+44190+114940FM-12+112899999V0201101N001012200019N0300001N1+01491+00421100321ADDGF102991001001999999001021MD1710081+9999REMSYN060AAXX  13211 53192 42980 21101 10149 20042 40032 57008 80002;
0173531920999992000061400004+44190+114940FM-12+112899999V0202201N002012200019N0300001N1+02111+00401100211ADDAA199000091GF104991001001999999001021MA1999999088121MD1710021+0051REMSYN076AAXX  14001 53192 32980 42202 10211 20040 38812 40021 57002 80002 333 05552;EQDQ01  00002PRCP99
0112531920999992000061403004+44190+114940FM-12+112899999V0202201N004019999999N0300001N1+03101-00061099971ADDGF107991001001999999001021MD1710131+9999REMSYN060AAXX  14031 53192 42980 72204 10310 21006 49997 57013 80002;
0186531920999992000061406004+44190+114940FM-12+112899999V0202701N002010900019N0300001N1+03381-01262099801ADDAA199000091GF105991011011008001001021KA1999N+01411MA1999999087831MD1710161+9999REMSYN076AAXX  14061 53192 32580 52702 10338 21126 38783 49980 57016 81102 333 20141;EQDQ01  00002PRCP99
0112531920999992000061409004+44190+114940FM-12+112899999V0202901N008010900019N0250001N1+03161-00441099821ADDGF107991031091008001001021MD1710081+9999REMSYN060AAXX  14091 53192 42575 72908 10316 21044 49982 57008 83902;
0163531920999992000061412004+44190+114940FM-12+112899999V0202901N009010900019N0300001N1+02891-00261099831ADDAA199000091GF106991041091008001001021MA1999999087831MD1210081+9999REMSYN066AAXX  14121 53192 32580 62909 10289 21026 38783 49983 52008 84902;EQDQ01  00002PRCP99
0112531920999992000061415004+44190+114940FM-12+112899999V0203401N005019999999N0300001N1+02551+00031099781ADDGF106991001001999999001021MD1210071+9999REMSYN060AAXX  14151 53192 42980 63405 10255 20003 49978 52007 80002;
0186531920999992000061418004+44190+114940FM-12+112899999V0202201N001012200019N0300001N1+02251+00161099811ADDAA199000091GF103991001001999999001021KA1999M+03511MA1999999087931MD1210031+9999REMSYN076AAXX  14181 53192 32980 32201 10225 20016 38793 49981 52003 80002 333 10351;EQDQ01  00002PRCP99
0112531920999992000061421004+44190+114940FM-12+112899999V0202501N002019999999N0300001N1+01981+00361100201ADDGF106991001001999999001021MD1210251+9999REMSYN060AAXX  14211 53192 42980 62502 10198 20036 40020 52025 80002;
0173531920999992000061500004+44190+114940FM-12+112899999V0203201N004019999999N0300001N1+02321+00411100171ADDAA199000091GF106991001001999999001021MA1999999088171MD1710011+0011REMSYN076AAXX  15001 53192 32980 63204 10232 20041 38817 40017 57001 80002 333 00102;EQDQ01  00002PRCP99
0112531920999992000061503004+44190+114940FM-12+112899999V0209999C000019999999N0300001N1+02831+00491100151ADDGF106991001001999999001021MD1210011+9999REMSYN060AAXX  15031 53192 42980 60000 10283 20049 40015 52001 80002;
0185531920999992000061506004+44190+114940FM-12+112899999V0200201N007010075019N0250001N1+02551+00601100191ADDAA106000391GF107991071091008001001021KA1999N+01881MA1999999088111MD1710071+9999MW1951REMSYN088AAXX  15061 53192 11575 70207 10255 20060 38811 40019 57007 69931 79500 87902 333 20188;
0140531920999992000061509004+44190+114940FM-12+112899999V0200201N007010075019N0300001N1+02151+01051100411ADDAY191031AY281031GF107991061091008001001021MD1210061+9999MW1001REMSYN066AAXX  15091 53192 41580 70207 10215 20105 40041 52006 70098 86902;
0178531920999992000061512004+44190+114940FM-12+112899999V0200201N005010075019N0300001N1+02061+00951100681ADDAA106000191AY191061AY281061GF107991061091008001001021MA1999999088461MD1210291+9999MW1001REMSYN078AAXX  15121 53192 11580 70205 10206 20095 38846 40068 52029 69911 70098 86902;
0132531920999992000061515004+44190+114940FM-12+112899999V0201801N002010075019N0300001N1+01861+01081100851ADDAY181031GF107991061091008001001021MD1210211+9999MW1001REMSYN066AAXX  15151 53192 41580 71802 10186 20108 40085 52021 70080 86902;
0193531920999992000061518004+44190+114940FM-12+112899999V0200401N002010360019N0300001N1+01681+01081100861ADDAA106000791AY181061GF107991041091008001031021KA1999M+03061MA1999999088591MD1710081+9999MW1001REMSYN088AAXX  15181 53192 11580 70402 10168 20108 38859 40086 57008 69901 70080 84932 333 10306;
0133531920999992000061521004+44190+114940FM-12+112899999V0200401N002010900019N0300001N1+01661+01061101081ADDAA124000591GF107991041091008001001021MD1210111+9999REMSYN070AAXX  15211 53192 42580 70402 10166 20106 40108 52011 84902 333 70004;
0160531920999992000061600004+44190+114940FM-12+112899999V0200701N004019999999N0300001N1+02141+01011101121ADDAA124000591GF107991001001999999001021MA1999999088811MD1210011+0601REMSYN082AAXX  16001 53192 32980 70704 10214 20101 38881 40112 52001 80002 333 00652 70004;
0112531920999992000061603004+44190+114940FM-12+112899999V0200901N004010900019N0300001N1+02531+00871101101ADDGF107991021011008001001021MD1210021+9999REMSYN060AAXX  16031 53192 42580 70904 10253 20087 40110 52002 82102;
0186531920999992000061606004+44190+114940FM-12+112899999V0201101N002010900019N0300001N1+02851+00661100911ADDAA199000091GF108991011091008001001021KA1999N+01591MA1999999088691MD1710141+9999REMSYN076AAXX  16061 53192 32580 81102 10285 20066 38869 40091 57014 81902 333 20159;EQDQ01  00002PRCP99
0124531920999992000061609004+44190+114940FM-12+112899999V0200901N011010075019N0200001N1+02621+00161101041ADDGF107991061091008001001021MD1210061+9999MW1171REMSYN066AAXX  16091 53192 41570 70911 10262 20016 40104 52006 71700 86902;
0205531920999992000061612004+44190+114940FM-12+112899999V0200901N003010075019N0300001N1+01911+00951101301ADDAA106000791AY191061AY281061GF107991051091008001001021MA1999999088941MD1210191+9999MW1001OA130601901REMSYN094AAXX  16121 53192 11580 70903 10191 20095 38894 40130 52019 69901 70098 85902 333 91119 91507;
0112531920999992000061615004+44190+114940FM-12+112899999V0201601N003010900019N0300001N1+01851+00961101481ADDGF106991021041012501001021MD1210221+9999REMSYN060AAXX  16151 53192 42680 61603 10185 20096 40148 52022 82402;
0186531920999992000061618004+44190+114940FM-12+112899999V0201401N002012200019N0300001N1+01771+00901101441ADDAA199000091GF102991021041012501001001KA1999M+02971MA1999999089171MD1210011+9999REMSYN076AAXX  16181 53192 32680 21402 10177 20090 38917 40144 52001 82400 333 10297;EQDQ01  00002PRCP99
0133531920999992000061621004+44190+114940FM-12+112899999V0200701N002012200019N0300001N1+01501+00971101611ADDAA124000791GF102991001001999999001021MD1210051+9999REMSYN070AAXX  16211 53192 42980 20702 10150 20097 40161 52005 80002 333 79999;
0160531920999992000061700004+44190+114940FM-12+112899999V0201101N003019999999N0300001N1+01871+01021101721ADDAA124000791GF106991001001999999001021MA1999999089251MD1210031+0401REMSYN082AAXX  17001 53192 32980 61103 10187 20102 38925 40172 52003 80002 333 00453 79999;
0112531920999992000061703004+44190+114940FM-12+112899999V0201401N003010900019N0300001N1+02471+00821101561ADDGF106991011011008001001021MD1710031+9999REMSYN060AAXX  17031 53192 42580 61403 10247 20082 40156 57003 81102;
0186531920999992000061706004+44190+114940FM-12+112899999V0201801N004010900019N0300001N1+02751+00501101341ADDAA199000091GF107991021021008001001021KA1999N+01431MA1999999089061MD1710161+9999REMSYN076AAXX  17061 53192 32580 71804 10275 20050 38906 40134 57016 82202 333 20143;EQDQ01  00002PRCP99
0112531920999992000061709004+44190+114940FM-12+112899999V0201401N002010900019N0300001N1+02761+00551101231ADDGF107991021021008001001021MD1710141+9999REMSYN060AAXX  17091 53192 42580 71402 10276 20055 40123 57014 82202;
0163531920999992000061712004+44190+114940FM-12+112899999V0201401N005010900019N0300001N1+02501+00611101301ADDAA199000091GF106991041091008001001021MA1999999089001MD1210081+9999REMSYN066AAXX  17121 53192 32580 61405 10250 20061 38900 40130 52008 84902;EQDQ01  00002PRCP99
0112531920999992000061715004+44190+114940FM-12+112899999V0201801N003012200019N0300001N1+02031+00861101351ADDGF103991001001999999001021MD1210071+9999REMSYN060AAXX  17151 53192 42980 31803 10203 20086 40135 52007 80002;
0186531920999992000061718004+44190+114940FM-12+112899999V0209999C000012200019N0300001N1+01881+00951101351ADDAA199000091GF104991001001999999001021KA1999M+02841MA1999999089091MD1210021+9999REMSYN076AAXX  17181 53192 32980 40000 10188 20095 38909 40135 52002 80002 333 10284;EQDQ01  00002PRCP99
0112531920999992000061721004+44190+114940FM-12+112899999V0209999C000019999999N0300001N1+01561+00921101351ADDGF105991001001999999001021MD1710061+9999REMSYN060AAXX  17211 53192 42980 50000 10156 20092 40135 57006 80002;
0173531920999992000061800004+44190+114940FM-12+112899999V0202201N001019999999N0300001N1+02121+01021101281ADDAA199000091GF106991001001999999001021MA1999999089031MD1410001+0021REMSYN076AAXX  18001 53192 32980 62201 10212 20102 38903 40128 54000 80002 333 05203;EQDQ01  00002PRCP99
0112531920999992000061803004+44190+114940FM-12+112899999V0201801N003012200019N0300001N1+02701+00731101181ADDGF102991011011008001001021MD1710071+9999REMSYN060AAXX  18031 53192 42580 21803 10270 20073 40118 57007 81102;
0186531920999992000061806004+44190+114940FM-12+112899999V0202701N006010075019N0300001N1+02971+00701100981ADDAA199000091GF106991051021008001001021KA1999N+01541MA1999999088811MD1710151+9999REMSYN076AAXX  18061 53192 32580 62706 10297 20070 38881 40098 57015 85202 333 20154;EQDQ01  00002PRCP99
0112531920999992000061809004+44190+114940FM-12+112899999V0202201N002010900019N0300001N1+02971+00561100861ADDGF106991041021008001001021MD1710171+9999REMSYN060AAXX  18091 53192 42580 62202 10297 20056 40086 57017 84202;
0163531920999992000061812004+44190+114940FM-12+112899999V0201801N002012200019N0300001N1+02731+00561100721ADDAA199000091GF104991001001999999001021MA1999999088581MD1710061+9999REMSYN066AAXX  18121 53192 32980 41802 10273 20056 38858 40072 57006 80002;EQDQ01  00002PRCP99
0112531920999992000061815004+44190+114940FM-12+112899999V0209999C000012200019N0300001N1+02181+00771100811ADDGF101991001001999999001021MD1210091+9999REMSYN060AAXX  18151 53192 42980 10000 10218 20077 40081 52009 80002;
0196531920999992000061818004+44190+114940FM-12+112899999V0209999C000012200019N0300001N1+01901+00681100781ADDAA199000091GA1001+999999999GF100991001001999999001001KA1999M+03001MA1999999088641MD1710031+9999REMSYN070AAXX  18181 53192 32980 00000 10190 20068 38864 40078 57003 333 10300;EQDQ01  00002PRCP99
0112531920999992000061821004+44190+114940FM-12+112899999V0209999C000012200019N0300001N1+01651+00841100871ADDGF104991001001999999001021MD1210031+9999REMSYN060AAXX  18211 53192 42980 40000 10165 20084 40087 52003 80002;
0173531920999992000061900004+44190+114940FM-12+112899999V0209999C000012200019N0300001N1+02251+00891100811ADDAA199000091GF101991001001999999001021MA1999999088691MD1210021+0031REMSYN076AAXX  19001 53192 32980 10000 10225 20089 38869 40081 52002 80002 333 05301;EQDQ01  00002PRCP99
0112531920999992000061903004+44190+114940FM-12+112899999V0209999C000012200019N0300001N1+03051+00591100681ADDGF102991021011008001001021MD1710071+9999REMSYN060AAXX  19031 53192 42580 20000 10305 20059 40068 57007 82102;
0186531920999992000061906004+44190+114940FM-12+112899999V0202701N003012200019N0300001N1+03201+00491100521ADDAA199000091GF104991031021008001001021KA1999N+01521MA1999999088451MD1710171+9999REMSYN076AAXX  19061 53192 32580 42703 10320 20049 38845 40052 57017 83202 333 20152;EQDQ01  00002PRCP99
0112531920999992000061909004+44190+114940FM-12+112899999V0209999C000012200019N0300001N1+03171+00461100371ADDGF103991021021008001001021MD1710181+9999REMSYN060AAXX  19091 53192 42580 30000 10317 20046 40037 57018 82202;
0175531920999992000061912004+44190+114940FM-12+112899999V0200401N003010075019N0300001N1+02871+00501100411ADDAA199000091GF106991051091008001001021MA1999999088361MD1210091+9999MW1171REMSYN072AAXX  19121 53192 31580 60403 10287 20050 38836 40041 52009 71700 85902;EQDQ01  00002PRCP99
0140531920999992000061915004+44190+114940FM-12+112899999V0209999C000012200019N0300001N1+02291+01191100421ADDAY191031AY281031GF104991021091008001001021MD1210051+9999MW1001REMSYN066AAXX  19151 53192 41580 40000 10229 20119 40042 52005 70098 82902;
0201531920999992000061918004+44190+114940FM-12+112899999V0202201N006012200019N0300001N1+02021+01031100371ADDAA106000791AY191061AY281061GF103991001001999999001021KA1999M+03301MA1999999088341MD1710071+9999MW1001REMSYN088AAXX  19181 53192 11980 32206 10202 20103 38834 40037 57007 69901 70098 80002 333 10330;
0133531920999992000061921004+44190+114940FM-12+112899999V0200901N001010900019N0300001N1+02051+00891100451ADDAA124000791GF106991021091008001001021MD1210071+9999REMSYN070AAXX  19211 53192 42580 60901 10205 20089 40045 52007 82902 333 79999;
0178531920999992000062000004+44190+114940FM-12+112899999V0200901N004010075019N0300001N1+02341+00811100461ADDAA106000791GF107991051091008001001021MA1999999088421MD1210011-0301MW1951REMSYN094AAXX  20001 53192 11580 70904 10234 20081 38842 40046 52001 69901 79500 85902 333 05301 79999;
0124531920999992000062003004+44190+114940FM-12+112899999V0202201N002010075019N0280001N1+02391+01191100661ADDGF107991071091008001001021MD1210081+9999MW1801REMSYN066AAXX  20031 53192 41578 72202 10239 20119 40066 52008 78000 87902;
0201531920999992000062006004+44190+114940FM-12+112899999V0202201N002010900019N0300001N1+02561+01061100481ADDAA106001091AY191061AY281061GF107991031091008001001021KA1999N+01911MA1999999088321MD1710181+9999MW1001REMSYN088AAXX  20061 53192 11580 72202 10256 20106 38832 40048 57018 69991 70098 83902 333 20191;
0112531920999992000062009004+44190+114940FM-12+112899999V0203201N002012200019N0300001N1+02971+00741100191ADDGF104991021021008001001021MD1710171+9999REMSYN060AAXX  20091 53192 42580 43202 10297 20074 40019 57017 82202;
0164531920999992000062012004+44190+114940FM-12+112899999V0201401N004010075019N0300001N1+02371+00991100441ADDAA199000021AY191061GF107991061091008001001021MA1999999088311MD1210161+9999MW1001REMSYN072AAXX  20121 53192 31580 71404 10237 20099 38831 40044 52016 70090 86902;
0112531920999992000062015004+44190+114940FM-12+112899999V0201801N005010900019N0300001N1+01761+01311100731ADDGF107991031091008001001021MD1210151+9999REMSYN060AAXX  20151 53192 42580 71805 10176 20131 40073 52015 83902;
0186531920999992000062018004+44190+114940FM-12+112899999V0209999C000019999999N0300001N1+01731+01311100551ADDAA199000091GF105991001001999999001021KA1999M+02991MA1999999088331MD1710131+9999REMSYN076AAXX  20181 53192 32980 50000 10173 20131 38833 40055 57013 80002 333 10299;EQDQ01  00002PRCP99
0133531920999992000062021004+44190+114940FM-12+112899999V0200901N003010900019N0300001N1+01641+01321100501ADDAA124001091GF106991011091008001001021MD1210011+9999REMSYN070AAXX  20211 53192 42580 60903 10164 20132 40050 52001 81902 333 70009;
0160531920999992000062100004+44190+114940FM-12+112899999V0209999C000019999999N0300001N1+02121+01291100551ADDAA124001091GF106991021001999999031021MA1999999088361MD1210021-0101REMSYN082AAXX  21001 53192 32980 60000 10212 20129 38836 40055 52002 82032 333 05152 70009;
0112531920999992000062103004+44190+114940FM-12+112899999V0209999C000012200019N0300001N1+02611+01151100481ADDGF102991011011008001001021MD1710081+9999REMSYN060AAXX  21031 53192 42580 20000 10261 20115 40048 57008 81102;
0186531920999992000062106004+44190+114940FM-12+112899999V0201601N003010900019N0300001N1+02731+01011100261ADDAA199000091GF105991041021008001001021KA1999N+01591MA1999999088101MD1710181+9999REMSYN076AAXX  21061 53192 32580 51603 10273 20101 38810 40026 57018 84202 333 20159;EQDQ01  00002PRCP99
0140531920999992000062109004+44190+114940FM-12+112899999V0200701N003010075019N0300001N1+02411+01141100241ADDAY191031AY281031GF107991061091008001001021MD1710091+9999MW1911REMSYN066AAXX  21091 53192 41580 70703 10241 20114 40024 57009 79198 86902;
0178531920999992000062112004+44190+114940FM-12+112899999V0201801N003010075019N0300001N1+02171+01321100261ADDAA106002091AY191061AY281061GF107991061091008001001021MA1999999088071MD1210061+9999MW1251REMSYN078AAXX  21121 53192 11580 71803 10217 20132 38807 40026 52006 60021 72598 86902;
0122531920999992000062115004+44190+114940FM-12+112899999V0200401N002012200019N0300001N1+01921+01361100171ADDGA1001+999999999GF100991001001999999001001MD1710031+9999REMSYN054AAXX  21151 53192 42980 00402 10192 20136 40017 57003;
0167531920999992000062118004+44190+114940FM-12+112899999V0200401N002012200019N0300001N1+01811+01311100161ADDAA199000021GF104991011041012501001021KA1999M+02871MA1999999088031MD1710011+9999REMSYN076AAXX  21181 53192 32680 40402 10181 20131 38803 40016 57001 81402 333 10287;
0133531920999992000062121004+44190+114940FM-12+112899999V0209999C000012200019N0300001N1+01611+01231100221ADDAA124002391GF102991001001999999001021MD1710051+9999REMSYN070AAXX  21211 53192 42980 20000 10161 20123 40022 57005 80002 333 70022;
0160531920999992000062200004+44190+114940FM-12+112899999V0209999C000012200019N0300001N1+02151+01311100211ADDAA124002391GF102991021091008001001021MA1999999088031MD1210051-0301REMSYN082AAXX  22001 53192 32580 20000 10215 20131 38803 40021 52005 82902 333 05300 70022;
0112531920999992000062203004+44190+114940FM-12+112899999V0200901N001010900019N0300001N1+02901+01081100001ADDGF107991021011008001001021MD1710091+9999REMSYN060AAXX  22031 53192 42580 70901 10290 20108 40000 57009 82102;
0201531920999992000062206004+44190+114940FM-12+112899999V0200401N002010075019N0300001N1+02751+01201099841ADDAA106001091AY191061AY281061GF107991061091008001001021KA1999N+01591MA1999999087751MD1710191+9999MW1291REMSYN088AAXX  22061 53192 11580 70402 10275 20120 38775 49984 57019 60011 72998 86902 333 20159;
0132531920999992000062209004+44190+114940FM-12+112899999V0200701N005010075019N0300001N1+02491+01421099921ADDAY181031GF107991071091008001001021MD1710011+9999MW1251REMSYN066AAXX  22091 53192 41580 70705 10249 20142 49992 57001 72580 87902;
0170531920999992000062212004+44190+114940FM-12+112899999V0201401N005010075019N0300001N1+02311+01411099811ADDAA106006191AY181061GF107991061091008001001021MA1999999087711MD1710031+9999MW1001REMSYN078AAXX  22121 53192 11580 71405 10231 20141 38771 49981 57003 60061 70080 86902;
0112531920999992000062215004+44190+114940FM-12+112899999V0201601N004010075019N0300001N1+02181+01231099681ADDGF107991051091008001001021MD1410001+9999REMSYN060AAXX  22151 53192 42580 71604 10218 20123 49968 54000 85902;
0167531920999992000062218004+44190+114940FM-12+112899999V0201801N006010900019N0300001N1+02171+01081099661ADDAA199000021GF106991021091008001001021KA1999M+03091MA1999999087661MD1710051+9999REMSYN076AAXX  22181 53192 32580 61806 10217 20108 38766 49966 57005 82902 333 10309;
0153531920999992000062221004+44190+114940FM-12+112899999V0200401N002010900019N0300001N1+01891+01331099861ADDAA124007191AY181031GF106991021091008001001021MD1210081+9999MW1001REMSYN076AAXX  22211 53192 41580 60402 10189 20133 49986 52008 70080 82902 333 70070;
0186531920999992000062300004+44190+114940FM-12+112899999V0209999C000010900019N0300001N1+02131+01491099931ADDAA106000191AY181061GF107991021091008001001021MA1999999087811MD1210071-0201MW1001REMSYN094AAXX  23001 53192 11580 70000 10213 20149 38781 49993 52007 69911 70080 82902 333 05200 70070;
0132531920999992000062303004+44190+114940FM-12+112899999V0202701N003010075019N0300001N1+02151+01481099991ADDAY181031GF107991071091008001001021MD1210031+9999MW1251REMSYN066AAXX  23031 53192 41580 72703 10215 20148 49999 52003 72580 87902;
0193531920999992000062306004+44190+114940FM-12+112899999V0202701N004010075019N0300001N1+02331+01201099951ADDAA106000791AY181061GF107991061091008001001021KA1999N+01861MA1999999087841MD1410001+9999MW1001REMSYN088AAXX  23061 53192 11580 72704 10233 20120 38784 49995 54000 69901 70080 86902 333 20186;
0112531920999992000062309004+44190+114940FM-12+112899999V0203601N005010075019N0300001N1+02231+01351099981ADDGF107991061091008001001021MD1710051+9999REMSYN060AAXX  23091 53192 42580 73605 10223 20135 49998 57005 86902;
0144531920999992000062312004+44190+114940FM-12+112899999V0200401N006010075019N0300001N1+01611+00941100371ADDAA199000021GF107991061091008001001021MA1999999088061MD1210271+9999REMSYN066AAXX  23121 53192 32580 70406 10161 20094 38806 40037 52027 86902;
0132531920999992000062315004+44190+114940FM-12+112899999V0200201N006010075019N0300001N1+01271+00691100681ADDAY181031GF107991061091008001001021MD1210211+9999MW1001REMSYN066AAXX  23151 53192 41580 70206 10127 20069 40068 52021 70080 86902;
0193531920999992000062318004+44190+114940FM-12+112899999V0203601N001012200019N0300001N1+01051+00671100811ADDAA106000791AY181061GF102991011091008001001021KA1999M+02451MA1999999088381MD1210111+9999MW1001REMSYN088AAXX  23181 53192 11580 23601 10105 20067 38838 40081 52011 69901 70080 81902 333 10245;
0133531920999992000062321004+44190+114940FM-12+112899999V0209999C000012200019N0300001N1+00721+00461100961ADDAA124000791GF101991001001999999001021MD1210041+9999REMSYN070AAXX  23211 53192 42980 10000 10072 20046 40096 52004 80002 333 79999;
0178531920999992000062400004+44190+114940FM-12+112899999V0202701N002012200019N0300001N1+01231+00501101051ADDAA124000791GF101991001001999999001021IA2999+00459MA1999999088481MD1210061+0701REMSYN088AAXX  24001 53192 32980 12702 10123 20050 38848 40105 52006 80002 333 00759 30045 79999;
0112531920999992000062403004+44190+114940FM-12+112899999V0202901N004010075019N0300001N1+01591+00201100981ADDGF106991061011008001001021MD1710061+9999REMSYN060AAXX  24031 53192 42580 62904 10159 20020 40098 57006 86102;
0193531920999992000062406004+44190+114940FM-12+112899999V0202701N006010075019N0300001N1+01571+00371100921ADDAA106000791AY181061GF107991071091008001001021KA1999N+00691MA1999999088321MD1710101+9999MW1001REMSYN088AAXX  24061 53192 11580 72706 10157 20037 38832 40092 57010 69901 70080 87902 333 20069;
0112531920999992000062409004+44190+114940FM-12+112899999V0202701N005012200019N0300001N1+02091-00421100691ADDGF102991021011008001001001MD1710161+9999REMSYN060AAXX  24091 53192 42580 22705 10209 21042 40069 57016 82100;
0163531920999992000062412004+44190+114940FM-12+112899999V0203601N003012200019N0300001N1+01841-00471100711ADDAA199000091GF101991011041012501001001MA1999999088231MD1210071+9999REMSYN066AAXX  24121 53192 32680 13603 10184 21047 38823 40071 52007 81400;EQDQ01  00002PRCP99
0122531920999992000062415004+44190+114940FM-12+112899999V0209999C000012200019N0300001N1+01361+00031100881ADDGA1001+999999999GF100991001001999999001001MD1210121+9999REMSYN054AAXX  24151 53192 42980 00000 10136 20003 40088 52012;
0196531920999992000062418004+44190+114940FM-12+112899999V0209999C000012200019N0300001N1+01051+00081100971ADDAA199000091GA1001+999999999GF100991001001999999001001KA1999M+02091MA1999999088361MD1210011+9999REMSYN070AAXX  24181 53192 32980 00000 10105 20008 38836 40097 52001 333 10209;EQDQ01  00002PRCP99
0133531920999992000062421004+44190+114940FM-12+112899999V0209999C000012200019N0300001N1+00781-00091100891ADDAA124000791GF101991001001999999001021MD1710021+9999REMSYN070AAXX  24211 53192 42980 10000 10078 21009 40089 57002 80002 333 79999;
0178531920999992000062500004+44190+114940FM-12+112899999V0202201N002012200019N0300001N1+01541-00031100811ADDAA124000791GF101991001001999999001021IA2999+00349MA1999999088381MD1210041-0101REMSYN088AAXX  25001 53192 32980 12202 10154 21003 38838 40081 52004 80002 333 05103 30034 79999;
0122531920999992000062503004+44190+114940FM-12+112899999V0202201N005012200019N0300001N1+02411-00441100581ADDGA1001+999999999GF100991001001999999001001MD1710131+9999REMSYN054AAXX  25031 53192 42980 02205 10241 21044 40058 57013;
0186531920999992000062506004+44190+114940FM-12+112899999V0202201N006012200019N0300001N1+02831-00481100281ADDAA199000091GF101991001001999999001021KA1999N+00701MA1999999088011MD1710241+9999REMSYN076AAXX  25061 53192 32980 12206 10283 21048 38801 40028 57024 80002 333 20070;EQDQ01  00002PRCP99
0112531920999992000062509004+44190+114940FM-12+112899999V0202201N005012200019N0300001N1+02951-00831100121ADDGF102991001001999999001021MD1710171+9999REMSYN060AAXX  25091 53192 42980 22205 10295 21083 40012 57017 80002;
0163531920999992000062512004+44190+114940FM-12+112899999V0203401N004019999999N0300001N1+02641-00481100101ADDAA199000091GF105991001001999999001021MA1999999087911MD1210071+9999REMSYN066AAXX  25121 53192 32980 53404 10264 21048 38791 40010 52007 80002;EQDQ01  00002PRCP99
0112531920999992000062515004+44190+114940FM-12+112899999V0200201N002012200019N0300001N1+01931-00121100211ADDGF101991001001999999001021MD1210131+9999REMSYN060AAXX  25151 53192 42980 10202 10193 21012 40021 52013 80002;
0186531920999992000062518004+44190+114940FM-12+112899999V0200401N001019999999N0300001N1+01581+00041100191ADDAA199000091GF105991001001999999001021KA1999M+03031MA1999999088031MD1710011+9999REMSYN076AAXX  25181 53192 32980 50401 10158 20004 38803 40019 57001 80002 333 10303;EQDQ01  00002PRCP99
0112531920999992000062521004+44190+114940FM-12+112899999V0200401N002012200019N0300001N1+01441+00031100251ADDGF104991001001999999001021MD1210051+9999REMSYN060AAXX  25211 53192 42980 40402 10144 20003 40025 52005 80002;
0173531920999992000062600004+44190+114940FM-12+112899999V0209999C000019999999N0300001N1+02121+00331100251ADDAA199000091GF105991001001999999001021MA1999999088151MD1210071+0021REMSYN076AAXX  26001 53192 32980 50000 10212 20033 38815 40025 52007 80002 333 05206;EQDQ01  00002PRCP99
0112531920999992000062603004+44190+114940FM-12+112899999V0209999C000019999999N0300001N1+02791-00051100221ADDGF106991001001999999001021MD1710031+9999REMSYN060AAXX  26031 53192 42980 60000 10279 21005 40022 57003 80002;
0186531920999992000062606004+44190+114940FM-12+112899999V0203401N002019999999N0300001N1+02991-00571100141ADDAA199000091GF106991001001999999001021KA1999N+01391MA1999999088021MD1710101+9999REMSYN076AAXX  26061 53192 32980 63402 10299 21057 38802 40014 57010 80002 333 20139;EQDQ01  00002PRCP99
0112531920999992000062609004+44190+114940FM-12+112899999V0200401N003019999999N0300001N1+03051-00431100081ADDGF105991001001999999001021MD1710071+9999REMSYN060AAXX  26091 53192 42980 50403 10305 21043 40008 57007 80002;
0163531920999992000062612004+44190+114940FM-12+112899999V0200901N002012200019N0300001N1+02801-00101100011ADDAA199000091GF102991001001999999001021MA1999999087971MD1210021+9999REMSYN066AAXX  26121 53192 32980 20902 10280 21010 38797 40001 52002 80002;EQDQ01  00002PRCP99
0122531920999992000062615004+44190+114940FM-12+112899999V0201101N002012200019N0300001N1+02221+00031100111ADDGA1001+999999999GF100991001001999999001001MD1210111+9999REMSYN054AAXX  26151 53192 42980 01102 10222 20003 40011 52011;
0196531920999992000062618004+44190+114940FM-12+112899999V0200201N002012200019N0300001N1+01881+00031100141ADDAA199000091GA1001+999999999GF100991001001999999001001KA1999M+03141MA1999999088081MD1410001+9999REMSYN070AAXX  26181 53192 32980 00202 10188 20003 38808 40014 54000 333 10314;EQDQ01  00002PRCP99
0112531920999992000062621004+44190+114940FM-12+112899999V0200201N002012200019N0300001N1+01661-00061100211ADDGF101991001001999999001021MD1210031+9999REMSYN060AAXX  26211 53192 42980 10202 10166 21006 40021 52003 80002;
0173531920999992000062700004+44190+114940FM-12+112899999V0209999C000012200019N0300001N1+02331+00171100161ADDAA199000091GF104991011011008001001021MA1999999088141MD1210031+0001REMSYN076AAXX  27001 53192 32580 40000 10233 20017 38814 40016 52003 81102 333 00002;EQDQ01  00002PRCP99
0112531920999992000062703004+44190+114940FM-12+112899999V0201801N003012200019N0300001N1+03121-00421100001ADDGF102991011011008001001021MD1710101+9999REMSYN060AAXX  27031 53192 42580 21803 10312 21042 40000 57010 81102;
0186531920999992000062706004+44190+114940FM-12+112899999V0201801N004012200019N0300001N1+03251-00371099901ADDAA199000091GF104991031011008001001021KA1999N+01591MA1999999087911MD1710131+9999REMSYN076AAXX  27061 53192 32580 41804 10325 21037 38791 49990 57013 83102 333 20159;EQDQ01  00002PRCP99
0112531920999992000062709004+44190+114940FM-12+112899999V0202201N004012200019N0300001N1+03251-00371099861ADDGF103991021011008001001021MD1710071+9999REMSYN060AAXX  27091 53192 42580 32204 10325 21037 49986 57007 82102;
0163531920999992000062712004+44190+114940FM-12+112899999V0201801N003010900019N0300001N1+02971-00181099801ADDAA199000091GF106991021091008001001021MA1999999087861MD1210021+9999REMSYN066AAXX  27121 53192 32580 61803 10297 21018 38786 49980 52002 82902;EQDQ01  00002PRCP99
0112531920999992000062715004+44190+114940FM-12+112899999V0203201N006010075019N0300001N1+02421+01042099921ADDGF107991051091008001001021MD1210151+9999REMSYN060AAXX  27151 53192 42580 73206 10242 20104 49992 52015 85902;
0186531920999992000062718004+44190+114940FM-12+112899999V0203401N004010075019N0300001N1+02171+00991099971ADDAA199000091GF107991051091008001001021KA1999M+03361MA1999999088031MD1210021+9999REMSYN076AAXX  27181 53192 32580 73404 10217 20099 38803 49997 52002 85902 333 10336;EQDQ01  00002PRCP99
0145531920999992000062721004+44190+114940FM-12+112899999V0202701N004010075019N0300001N1+01821+01371100181ADDAA124000791GF107991061091008001001021MD1210121+9999MW1251REMSYN076AAXX  27211 53192 41580 72704 10182 20137 40018 52012 72500 86902 333 79999;
0186531920999992000062800004+44190+114940FM-12+112899999V0202701N004010075019N0300001N1+01621+01471100321ADDAA106002091AY181061GF108991081091008001999999MA1999999088181MD1210031+0001MW1801REMSYN094AAXX  28001 53192 11580 82704 10162 20147 38818 40032 52003 60021 78080 889// 333 00057 70024;
0140531920999992000062803004+44190+114940FM-12+112899999V0202201N002010075019N0300001N1+01751+01521100431ADDAY181031AY281031GF107991071091008001001021MD1210021+9999MW1801REMSYN066AAXX  28031 53192 41580 72202 10175 20152 40043 52002 78088 87902;
0193531920999992000062806004+44190+114940FM-12+112899999V0202201N003010900019N0300001N1+02071+01311100271ADDAA106002091AY181061GF107991031091008001001021KA1999N+01571MA1999999088071MD1710131+9999MW1001REMSYN088AAXX  28061 53192 11580 72203 10207 20131 38807 40027 57013 60021 70080 83902 333 20157;
0112531920999992000062809004+44190+114940FM-12+112899999V0201601N005010900019N0300001N1+02111+01321100121ADDGF105991021021008001001021MD1710191+9999REMSYN060AAXX  28091 53192 42580 51605 10211 20132 40012 57019 82202;
0144531920999992000062812004+44190+114940FM-12+112899999V0202201N002012200019N0300001N1+01931+01351100341ADDAA199000021GF101991011091008001001021MA1999999088001MD1210121+9999REMSYN066AAXX  28121 53192 32580 12202 10193 20135 38800 40034 52012 81902;
0112531920999992000062815004+44190+114940FM-12+112899999V0200401N003010075019N0300001N1+01491+01141100261ADDGF107991061091008001001021MD1710131+9999REMSYN060AAXX  28151 53192 42580 70403 10149 20114 40026 57013 86902;
0196531920999992000062818004+44190+114940FM-12+112899999V0200701N002012200019N0300001N1+01401+01121100011ADDAA199000091GA1001+999999999GF100991001001999999001001KA1999M+02211MA1999999087691MD1710181+9999REMSYN070AAXX  28181 53192 32980 00702 10140 20112 38769 40001 57018 333 10221;EQDQ01  00002PRCP99
0133531920999992000062821004+44190+114940FM-12+112899999V0200401N002012200019N0300001N1+01271+01111099921ADDAA124004891GF102991021091008001001001MD1710091+9999REMSYN070AAXX  28211 53192 42580 20402 10127 20111 49992 57009 82900 333 70048;
0160531920999992000062900004+44190+114940FM-12+112899999V0202201N004012200019N0300001N1+01611+01231099891ADDAA124002391GF104991011011008001031001MA1999999087601MD1410001-0601REMSYN082AAXX  29001 53192 32580 42204 10161 20123 38760 49989 54000 81130 333 05600 70024;
0112531920999992000062903004+44190+114940FM-12+112899999V0202701N008012200019N0300001N1+01951+00381099961ADDGF104991041011008001001001MD1210041+9999REMSYN060AAXX  29031 53192 42580 42708 10195 20038 49996 52004 84100;
0186531920999992000062906004+44190+114940FM-12+112899999V0203201N006010075019N0300001N1+01951+00511099971ADDAA199000091GF107991061091008001001021KA1999N+01241MA1999999087631MD1710011+9999REMSYN076AAXX  29061 53192 32580 73206 10195 20051 38763 49997 57001 86902 333 20124;EQDQ01  00002PRCP99
0112531920999992000062909004+44190+114940FM-12+112899999V0202901N006010075019N0300001N1+02001+00531100011ADDGF106991051021008001001021MD1210021+9999REMSYN060AAXX  29091 53192 42580 62906 10200 20053 40001 52002 85202;
0163531920999992000062912004+44190+114940FM-12+112899999V0200401N003012200019N0300001N1+01641+00621100171ADDAA199000091GF104991041041012501001001MA1999999087791MD1210141+9999REMSYN066AAXX  29121 53192 32680 40403 10164 20062 38779 40017 52014 84400;EQDQ01  00002PRCP99
0112531920999992000062915004+44190+114940FM-12+112899999V0209999C000012200019N0300001N1+01501+00811100161ADDGF102991021041012501001001MD1210031+9999REMSYN060AAXX  29151 53192 42680 20000 10150 20081 40016 52003 82400;
0186531920999992000062918004+44190+114940FM-12+112899999V0203201N003012200019N0300001N1+01421+00861100191ADDAA199000091GF101991011041012501001001KA1999M+02121MA1999999087831MD1210011+9999REMSYN076AAXX  29181 53192 32680 13203 10142 20086 38783 40019 52001 81400 333 10212;EQDQ01  00002PRCP99
0112531920999992000062921004+44190+114940FM-12+112899999V0203201N005012200019N0300001N1+01301+00851100391ADDGF101991011041012501001001MD1210161+9999REMSYN060AAXX  29211 53192 42680 13205 10130 20085 40039 52016 81400;
0173531920999992000063000004+44190+114940FM-12+112899999V0209999C000012200019N0300001N1+01751+00791100521ADDAA199000091GF101991001001999999001021MA1999999088121MD1210131+0051REMSYN076AAXX  30001 53192 32980 10000 10175 20079 38812 40052 52013 80002 333 00501;EQDQ01  00002PRCP99
0112531920999992000063003004+44190+114940FM-12+112899999V0202701N006012200019N0300001N1+02291+00501100441ADDGF103991031011008001001001MD1210011+9999REMSYN060AAXX  30031 53192 42580 32706 10229 20050 40044 52001 83100;
0186531920999992000063006004+44190+114940FM-12+112899999V0202901N005010075019N0300001N1+02551+00241100031ADDAA199000091GF106991061021008001001001KA1999N+01251MA1999999088071MD1710061+9999REMSYN076AAXX  30061 53192 32580 62905 10255 20024 38807 40003 57006 86200 333 20125;EQDQ01  00002PRCP99
0112531920999992000063009004+44190+114940FM-12+112899999V0202901N007010900019N0300001N1+02721+00101100281ADDGF105991041011008001001021MD1710031+9999REMSYN060AAXX  30091 53192 42580 52907 10272 20010 40028 57003 84102;
0163531920999992000063012004+44190+114940FM-12+112899999V0202901N004012200019N0300001N1+02541+00221100211ADDAA199000091GF102991021041012501001021MA1999999088031MD1710011+9999REMSYN066AAXX  30121 53192 32680 22904 10254 20022 38803 40021 57001 82402;EQDQ01  00002PRCP99
0122531920999992000063015004+44190+114940FM-12+112899999V0203201N001012200019N0300001N1+01921+00411100321ADDGA1001+999999999GF100991001001999999001001MD1210081+9999REMSYN054AAXX  30151 53192 42980 03201 10192 20041 40032 52008;
0196531920999992000063018004+44190+114940FM-12+112899999V0209999C000012200019N0300001N1+01531+00601100351ADDAA199000091GA1001+999999999GF100991001001999999001001KA1999M+02761MA1999999088111MD1410001+9999REMSYN070AAXX  30181 53192 32980 00000 10153 20060 38811 40035 54000 333 10276;EQDQ01  00002PRCP99
0112531920999992000063021004+44190+114940FM-12+112899999V0200401N002019999999N0300001N1+01421+00571100451ADDGF106991001001999999001021MD1210101+9999REMSYN060AAXX  30211 53192 42980 60402 10142 20057 40045 52010 80002;
0173531920999992000070100004+44190+114940FM-12+112899999V0209999C000019999999N0300001N1+02151+00681100431ADDAA199000091GF105991001001999999001021MA1999999088301MD1210091+0021REMSYN076AAXX  01001 53192 32980 50000 10215 20068 38830 40043 52009 80002 333 00204;EQDQ01  00002PRCP99
0112531920999992000070103004+44190+114940FM-12+112899999V0202201N003012200019N0300001N1+03011+00431100331ADDGF102991001001999999001021MD1710051+9999REMSYN060AAXX  01031 53192 42980 22203 10301 20043 40033 57005 80002;
0186531920999992000070106004+44190+114940FM-12+112899999V0202201N005012200019N0300001N1+03311+00021100231ADDAA199000091GF102991011011008001001021KA1999N+01401MA1999999088151MD1710101+9999REMSYN076AAXX  01061 53192 32580 22205 10331 20002 38815 40023 57010 81102 333 20140;EQDQ01  00002PRCP99
0112531920999992000070109004+44190+114940FM-12+112899999V0202201N005010360019N0300001N1+03411-00391100051ADDGF107991011011008001031021MD1710161+9999REMSYN060AAXX  01091 53192 42580 72205 10341 21039 40005 57016 81132;
0163531920999992000070112004+44190+114940FM-12+112899999V0201801N005010900019N0300001N1+03121-00271099931ADDAA199000091GF106991021091008001001021MA1999999087971MD1710021+9999REMSYN066AAXX  01121 53192 32580 61805 10312 21027 38797 49993 57002 82902;EQDQ01  00002PRCP99
0112531920999992000070115004+44190+114940FM-12+112899999V0202201N003012200019N0300001N1+02561+00121100061ADDGF102991001001999999001021MD1210171+9999REMSYN060AAXX  01151 53192 42980 22203 10256 20012 40006 52017 80002;
0196531920999992000070118004+44190+114940FM-12+112899999V0209999C000012200019N0300001N1+02081+00491100201ADDAA199000091GA1001+999999999GF100991001001999999001001KA1999M+03541MA1999999088231MD1210091+9999REMSYN070AAXX  01181 53192 32980 00000 10208 20049 38823 40020 52009 333 10354;EQDQ01  00002PRCP99
0112531920999992000070121004+44190+114940FM-12+112899999V0209999C000012200019N0300001N1+01931+00531100281ADDGF104991001001999999001021MD1210061+9999REMSYN060AAXX  01211 53192 42980 40000 10193 20053 40028 52006 80002;
0173531920999992000070200004+44190+114940FM-12+112899999V0209999C000019999999N0300001N1+02521+00781100291ADDAA199000091GF107991011001999999031021MA1999999088351MD1210061+0011REMSYN076AAXX  02001 53192 32980 70000 10252 20078 38835 40029 52006 81032 333 00104;EQDQ01  00002PRCP99
0112531920999992000070203004+44190+114940FM-12+112899999V0202001N004019999999N0300001N1+03191+00371100231ADDGF106991001001999999001021MD1710031+9999REMSYN060AAXX  02031 53192 42980 62004 10319 20037 40023 57003 80002;
0186531920999992000070206004+44190+114940FM-12+112899999V0201801N009010900019N0300001N1+03501-00161100131ADDAA199000091GF106991021011012501001021KA1999N+01861MA1999999088201MD1710121+9999REMSYN076AAXX  02061 53192 32680 61809 10350 21016 38820 40013 57012 82102 333 20186;EQDQ01  00002PRCP99
0112531920999992000070209004+44190+114940FM-12+112899999V0202001N009010900019N0300001N1+03341-00261100181ADDGF107991011011012501001021MD1710011+9999REMSYN060AAXX  02091 53192 42680 72009 10334 21026 40018 57001 81102;
0163531920999992000070212004+44190+114940FM-12+112899999V0202001N005019999999N0300001N1+03031+00121100161ADDAA199000091GF105991001001999999001021MA1999999088221MD1210031+9999REMSYN066AAXX  02121 53192 32980 52005 10303 20012 38822 40016 52003 80002;EQDQ01  00002PRCP99
0112531920999992000070215004+44190+114940FM-12+112899999V0201801N007019999999N0300001N1+02731+00291100161ADDGF105991001001999999001021MD1210071+9999REMSYN060AAXX  02151 53192 42980 51807 10273 20029 40016 52007 80002;
0186531920999992000070218004+44190+114940FM-12+112899999V0201801N006019999999N0300001N1+02421+00711100181ADDAA199000091GF106991001001999999001021KA1999M+03581MA1999999088311MD1210021+9999REMSYN076AAXX  02181 53192 32980 61806 10242 20071 38831 40018 52002 80002 333 10358;EQDQ01  00002PRCP99
0112531920999992000070221004+44190+114940FM-12+112899999V0201801N006019999999N0300001N1+02231+01111100281ADDGF107991031001012501001021MD1210021+9999REMSYN060AAXX  02211 53192 42680 71806 10223 20111 40028 52002 83002;
0173531920999992000070300004+44190+114940FM-12+112899999V0201801N008010900019N0300001N1+02381+01261100301ADDAA199000091GF107991021091012501001021MA1999999088321MD1710011+0001REMSYN076AAXX  03001 53192 32680 71808 10238 20126 38832 40030 57001 82902 333 00051;EQDQ01  00002PRCP99
0112531920999992000070303004+44190+114940FM-12+112899999V0202201N004019999999N0300001N1+02821+01001100251ADDGF107991001001999999001021MD1710021+9999REMSYN060AAXX  03031 53192 42980 72204 10282 20100 40025 57002 80002;
0186531920999992000070306004+44190+114940FM-12+112899999V0202201N003010900019N0300001N1+03051+00871100211ADDAA199000091GF107991011011008001001021KA1999N+02211MA1999999088251MD1710051+9999REMSYN076AAXX  03061 53192 32580 72203 10305 20087 38825 40021 57005 81102 333 20221;EQDQ01  00002PRCP99
0112531920999992000070309004+44190+114940FM-12+112899999V0202201N002010900019N0300001N1+03051+00921100231ADDGF107991021021008001001021MD1710021+9999REMSYN060AAXX  03091 53192 42580 72202 10305 20092 40023 57002 82202;
0205531920999992000070312004+44190+114940FM-12+112899999V0202901N009010075019N0300001N1+01892+01451100751ADDAA106000191AY181061AY231061GF107991061091008001001021MA1999999088501MD1210271+9999MW1001OA130602301REMSYN094AAXX  03121 53192 11580 72909 10189 20145 38850 40075 52027 69911 70083 86902 333 91123 91525;
0132531920999992000070315004+44190+114940FM-12+112899999V0209999C000010075019N0300001N1+01911+01491100691ADDAY191031GF107991061091008001001021MD1210031+9999MW1951REMSYN066AAXX  03151 53192 41580 70000 10191 20149 40069 52003 79590 86902;
0201531920999992000070318004+44190+114940FM-12+112899999V0209999C000010900019N0300001N1+01831+01521100801ADDAA106002091AY191061AY281061GF106991021091008001001021KA1999M+03191MA1999999088661MD1210131+9999MW1001REMSYN088AAXX  03181 53192 11580 60000 10183 20152 38866 40080 52013 60021 70098 82902 333 10319;
0133531920999992000070321004+44190+114940FM-12+112899999V0209999C000010900019N0300001N1+01671+01541100951ADDAA124001591GF107991021041012501001021MD1210101+9999REMSYN070AAXX  03211 53192 42680 70000 10167 20154 40095 52010 82402 333 70016;
0159531920999992000070400004+44190+114940FM-12+112899999V0203601N001010075019N0300001N1+01881+01581101271ADDAA124001591GF107991061091008001001021MA1999999088861MD1210101+0051REMSYN081AAXX  04001 53192 32580 73601 10188 20158 38886 40127 52010 86902333 00555 70016;
0112531920999992000070403004+44190+114940FM-12+112899999V0200901N002019999999N0300001N1+02331+01291101181ADDGF107991001001999999001021MD1210011+9999REMSYN060AAXX  04031 53192 42980 70902 10233 20129 40118 52001 80002;
0186531920999992000070406004+44190+114940FM-12+112899999V0200701N002010075019N0300001N1+02581+01191101111ADDAA199000091GF107991061091008001001021KA1999N+01041MA1999999088841MD1710031+9999REMSYN076AAXX  04061 53192 32580 70702 10258 20119 38884 40111 57003 86902 333 20104;EQDQ01  00002PRCP99
0112531920999992000070409004+44190+114940FM-12+112899999V0200701N004010075019N0300001N1+02621+01161101151ADDGF107991061091008001001021MD1210011+9999REMSYN060AAXX  04091 53192 42580 70704 10262 20116 40115 52001 86902;
0163531920999992000070412004+44190+114940FM-12+112899999V0200701N003010900019N0300001N1+02491+01221101251ADDAA199000091GF107991011091008001001021MA1999999088961MD1210111+9999REMSYN066AAXX  04121 53192 32580 70703 10249 20122 38896 40125 52011 81902;EQDQ01  00002PRCP99
0112531920999992000070415004+44190+114940FM-12+112899999V0200401N004019999999N0300001N1+02051+01081101381ADDGF106991001001999999001021MD1210111+9999REMSYN060AAXX  04151 53192 42980 60404 10205 20108 40138 52011 80002;
0186531920999992000070418004+44190+114940FM-12+112899999V0200701N004019999999N0300001N1+01961+01351101381ADDAA199000091GF105991001001999999001021KA1999M+02691MA1999999089101MD1210031+9999REMSYN076AAXX  04181 53192 32980 50704 10196 20135 38910 40138 52003 80002 333 10269;EQDQ01  00002PRCP99
0178531920999992000070500004+44190+114940FM-12+112899999V0200701N005010075019N0300001N1+02131+00901101471ADDAA106000791GF107991061091008001001021MA1999999089201MD1210081+0301MW1251REMSYN094AAXX  05001 53192 11580 70705 10213 20090 38920 40147 52008 69901 72500 86902 333 00303 79999;
0132531920999992000070503004+44190+114940FM-12+112899999V0200701N003010075019N0300001N1+02451+00961101441ADDAY181031GF107991061091008001001021MD1710051+9999MW1001REMSYN066AAXX  05031 53192 41580 70703 10245 20096 40144 57005 70080 86902;
0193531920999992000070506004+44190+114940FM-12+112899999V0201401N004010075019N0300001N1+02571+01461101311ADDAA106000791AY181061GF107991061091008001001021KA1999N+01771MA1999999089041MD1710111+9999MW1801REMSYN088AAXX  05061 53192 11580 71404 10257 20146 38904 40131 57011 69901 78080 86902 333 20177;
0132531920999992000070509004+44190+114940FM-12+112899999V0201601N004010075019N0300001N1+02471+01491101311ADDAY181031GF107991071091008001001021MD1710051+9999MW1001REMSYN066AAXX  05091 53192 41580 71604 10247 20149 40131 57005 70080 87902;
0170531920999992000070512004+44190+114940FM-12+112899999V0209999C000010075019N0300001N1+02111+01791101351ADDAA106000891AY181061GF107991071091008001001021MA1999999089021MD1210031+9999MW1801REMSYN078AAXX  05121 53192 11580 70000 10211 20179 38902 40135 52003 69981 78080 87902;
0132531920999992000070515004+44190+114940FM-12+112899999V0209999C000010075019N0250001N1+01991+01741101311ADDAY181031GF106991061091008001001021MD1410001+9999MW1801REMSYN066AAXX  05151 53192 41575 60000 10199 20174 40131 54000 78080 86902;
0193531920999992000070518004+44190+114940FM-12+112899999V0200901N002010075019N0300001N1+01951+01521101231ADDAA106004191AY181061GF107991051091008001001021KA1999M+02611MA1999999088971MD1710051+9999MW1001REMSYN088AAXX  05181 53192 11580 70902 10195 20152 38897 40123 57005 60041 70080 85902 333 10261;
0133531920999992000070521004+44190+114940FM-12+112899999V0200401N001010900019N0300001N1+01851+01561101231ADDAA124004391GF107991021091008001001021MD1710041+9999REMSYN070AAXX  05211 53192 42580 70401 10185 20156 40123 57004 82902 333 70043;
0178531920999992000070600004+44190+114940FM-12+112899999V0201101N002010900019N0300001N1+01971+01641101311ADDAA106000791GF107991031091008001001021MA1999999088951MD1210021-0301MW1801REMSYN094AAXX  06001 53192 11580 71102 10197 20164 38895 40131 52002 69901 78000 83902 333 05352 70043;
0132531920999992000070603004+44190+114940FM-12+112899999V0201601N004010900019N0300001N1+02351+01581101151ADDAY181031GF107991031091008001001021MD1710091+9999MW1001REMSYN066AAXX  06031 53192 41580 71604 10235 20158 40115 57009 70080 83902;
0193531920999992000070606004+44190+114940FM-12+112899999V0201801N004010900019N0300001N1+02531+01491100961ADDAA106000791AY181061GF107991031091008001001021KA1999N+01831MA1999999088721MD1710141+9999MW1001REMSYN088AAXX  06061 53192 11580 71804 10253 20149 38872 40096 57014 69901 70080 83902 333 20183;
0112531920999992000070609004+44190+114940FM-12+112899999V0201601N004010075019N0300001N1+02601+01341100781ADDGF107991051091008001001021MD1710161+9999REMSYN060AAXX  06091 53192 42580 71604 10260 20134 40078 57016 85902;
0144531920999992000070612004+44190+114940FM-12+112899999V0201401N006010075019N0300001N1+02161+01731100901ADDAA199000021GF107991061091008001001021MA1999999088601MD1210041+9999REMSYN066AAXX  06121 53192 32580 71406 10216 20173 38860 40090 52004 86902;
0132531920999992000070615004+44190+114940FM-12+112899999V0201601N003010075019N0300001N1+02161+01591100811ADDAY181031GF107991061091008001001021MD1410001+9999MW1001REMSYN066AAXX  06151 53192 41580 71603 10216 20159 40081 54000 70080 86902;
0193531920999992000070618004+44190+114940FM-12+112899999V0201601N002012200019N0300001N1+01971+01621100771ADDAA106000791AY181061GF102991011041012501001021KA1999M+02741MA1999999088561MD1710041+9999MW1001REMSYN088AAXX  06181 53192 11680 21602 10197 20162 38856 40077 57004 69901 70080 81402 333 10274;
0133531920999992000070621004+44190+114940FM-12+112899999V0201401N002012200019N0300001N1+01831+01511100751ADDAA124000791GF101991001001999999001021MD1710031+9999REMSYN070AAXX  06211 53192 42980 11402 10183 20151 40075 57003 80002 333 79999;
0170531920999992000070700004+44190+114940FM-12+112899999V0201601N006012200019N0300001N1+02131+01451100741ADDAA124000791GA1001+999999999GF100991001001999999001001MA1999999088491MD1710041-0501REMSYN076AAXX  07001 53192 32980 01606 10213 20145 38849 40074 57004 333 05502 79999;
0112531920999992000070703004+44190+114940FM-12+112899999V0202001N005012200019N0300001N1+02591+01411100491ADDGF102991001001999999001021MD1710131+9999REMSYN060AAXX  07031 53192 42980 22005 10259 20141 40049 57013 80002;
0186531920999992000070706004+44190+114940FM-12+112899999V0201801N005010900019N0300001N1+02891+01491100231ADDAA199000091GF106991041091008001001021KA1999N+01801MA1999999088151MD1710211+9999REMSYN076AAXX  07061 53192 32580 61805 10289 20149 38815 40023 57021 84902 333 20180;EQDQ01  00002PRCP99
0124531920999992000070709004+44190+114940FM-12+112899999V0202901N006010075019N0300001N1+02651+01671100291ADDGF107991071091008001001021MD1710021+9999MW1951REMSYN066AAXX  07091 53192 41580 72906 10265 20167 40029 57002 79500 87902;
0178531920999992000070712004+44190+114940FM-12+112899999V0209999C000010900019N0300001N1+02531+01641100251ADDAA106000791AY191061AY281061GF106991031091008001001021MA1999999088131MD1410001+9999MW1001REMSYN078AAXX  07121 53192 11580 60000 10253 20164 38813 40025 54000 69901 70098 83902;
0112531920999992000070715004+44190+114940FM-12+112899999V0209999C000012200019N0300001N1+02211+01781100301ADDGF104991011041012501001021MD1210071+9999REMSYN060AAXX  07151 53192 42680 40000 10221 20178 40030 52007 81402;
0167531920999992000070718004+44190+114940FM-12+112899999V0209999C000010075019N0300001N1+02151+01781100231ADDAA199000021GF107991051091008001001021KA1999M+03061MA1999999088191MD1710011+9999REMSYN076AAXX  07181 53192 32580 70000 10215 20178 38819 40023 57001 85902 333 10306;
0153531920999992000070721004+44190+114940FM-12+112899999V0202201N002010075019N0250001N1+01951+01721100411ADDAA124006491AY191031GF107991071091008001001021MD1210071+9999MW1951REMSYN076AAXX  07211 53192 41575 72202 10195 20172 40041 52007 79590 87902 333 70064;
0194531920999992000070800004+44190+114940FM-12+112899999V0202701N001010075019N0300001N1+01821+01631100561ADDAA106013091AY191061AY281061GF108991081091008001999999MA1999999088351MD1210091-0101MW1801REMSYN094AAXX  08001 53192 11580 82701 10182 20163 38835 40056 52009 60131 78098 889// 333 05153 70133;
0132531920999992000070803004+44190+114940FM-12+112899999V0209999C000010075019N0300001N1+02011+01681100541ADDAY181031GF107991051091008001001021MD1710051+9999MW1001REMSYN066AAXX  08031 53192 41580 70000 10201 20168 40054 57005 70080 85902;
0193531920999992000070806004+44190+114940FM-12+112899999V0203601N006010075019N0300001N1+02021+01741100481ADDAA106001091AY181061GF107991071091008001999999KA1999N+01781MA1999999088241MD1710061+9999MW1801REMSYN088AAXX  08061 53192 11580 73606 10202 20174 38824 40048 57006 60011 78080 879// 333 20178;
0140531920999992000070809004+44190+114940FM-12+112899999V0200401N003010075019N0300001N1+01801+01541100581ADDAY181031AY281031GF107991071091008001999999MD1210011+9999MW1801REMSYN066AAXX  08091 53192 41580 70403 10180 20154 40058 52001 78088 879//;
0178531920999992000070812004+44190+114940FM-12+112899999V0200401N001010075019N0300001N1+01721+01561100651ADDAA106013091AY181061AY281061GF107991071091008001999999MA1999999088271MD1210021+9999MW1801REMSYN078AAXX  08121 53192 11580 70401 10172 20156 38827 40065 52002 60131 78088 879//;
0132531920999992000070815004+44190+114940FM-12+112899999V0209999C000010075019N0300001N1+01671+01571100641ADDAY181031GF107991071091008001001021MD1210021+9999MW1001REMSYN066AAXX  08151 53192 41580 70000 10167 20157 40064 52002 70080 87902;
0193531920999992000070818004+44190+114940FM-12+112899999V0202701N002010075019N0300001N1+01631+01571100621ADDAA106000591AY181061GF107991061091008001001021KA1999M+02191MA1999999088261MD1710031+9999MW1001REMSYN088AAXX  08181 53192 11580 72702 10163 20157 38826 40062 57003 69961 70080 86902 333 10219;
0133531920999992000070821004+44190+114940FM-12+112899999V0209999C000010075019N0300001N1+01631+01531100701ADDAA124021691GF107991061091008001001021MD1210031+9999REMSYN070AAXX  08211 53192 42580 70000 10163 20153 40070 52003 86902 333 70215;
0160531920999992000070900004+44190+114940FM-12+112899999V0201401N004010075019N0300001N1+01761+01521100721ADDAA124014591GF107991061091008001001021MA1999999088321MD1210031+0001REMSYN082AAXX  09001 53192 32580 71404 10176 20152 38832 40072 52003 86902 333 00051 70146;
0112531920999992000070903004+44190+114940FM-12+112899999V0201401N003010900019N0300001N1+02131+01701100641ADDGF106991021021008001001021MD1710011+9999REMSYN060AAXX  09031 53192 42580 61403 10213 20170 40064 57001 82202;
0186531920999992000070906004+44190+114940FM-12+112899999V0201601N006012200019N0300001N1+02491+01661100441ADDAA199000091GF102991011011008001001021KA1999N+01581MA1999999088201MD1710111+9999REMSYN076AAXX  09061 53192 32580 21606 10249 20166 38820 40044 57011 81102 333 20158;EQDQ01  00002PRCP99
0112531920999992000070909004+44190+114940FM-12+112899999V0201801N006012200019N0300001N1+02731+01461100191ADDGF102991011011008001001021MD1710181+9999REMSYN060AAXX  09091 53192 42580 21806 10273 20146 40019 57018 81102;
0163531920999992000070912004+44190+114940FM-12+112899999V0202001N002012200019N0300001N1+02491+01301100281ADDAA199000091GF103991031041012501001001MA1999999088081MD1210061+9999REMSYN066AAXX  09121 53192 32680 32002 10249 20130 38808 40028 52006 83400;EQDQ01  00002PRCP99
0112531920999992000070915004+44190+114940FM-12+112899999V0200401N001012200019N0300001N1+02021+01341100491ADDGF102991021041012501001001MD1210171+9999REMSYN060AAXX  09151 53192 42680 20401 10202 20134 40049 52017 82400;
0196531920999992000070918004+44190+114940FM-12+112899999V0209999C000012200019N0300001N1+01761+01451100541ADDAA199000091GA1001+999999999GF100991001001999999001001KA1999M+02871MA1999999088311MD1210061+9999REMSYN070AAXX  09181 53192 32980 00000 10176 20145 38831 40054 52006 333 10287;EQDQ01  00002PRCP99
0122531920999992000070921004+44190+114940FM-12+112899999V0209999C000012200019N0300001N1+01591+01411100611ADDGA1001+999999999GF100991001001999999001001MD1210071+9999REMSYN054AAXX  09211 53192 42980 00000 10159 20141 40061 52007;
0183531920999992000071000004+44190+114940FM-12+112899999V0209999C000012200019N0300001N1+02091+01371100651ADDAA199000091GA1001+999999999GF100991001001999999001001MA1999999088471MD1210091+0021REMSYN070AAXX  10001 53192 32980 00000 10209 20137 38847 40065 52009 333 00203;EQDQ01  00002PRCP99
0112531920999992000071003004+44190+114940FM-12+112899999V0202201N001012200019N0300001N1+02651+01251100691ADDGF102991021021012501001021MD1210051+9999REMSYN060AAXX  10031 53192 42680 22201 10265 20125 40069 52005 82202;
0186531920999992000071006004+44190+114940FM-12+112899999V0202001N002012200019N0300001N1+03001+00531100551ADDAA199000091GF103991031011008001001001KA1999N+01541MA1999999088421MD1710101+9999REMSYN076AAXX  10061 53192 32580 32002 10300 20053 38842 40055 57010 83100 333 20154;EQDQ01  00002PRCP99
0112531920999992000071009004+44190+114940FM-12+112899999V0202901N002012200019N0300001N1+03051+00501100501ADDGF102991021011008001001021MD1710071+9999REMSYN060AAXX  10091 53192 42580 22902 10305 20050 40050 57007 82102;
0163531920999992000071012004+44190+114940FM-12+112899999V0202201N001012200019N0300001N1+02831+00691100421ADDAA199000091GF102991001001999999001021MA1999999088331MD1710021+9999REMSYN066AAXX  10121 53192 32980 22201 10283 20069 38833 40042 57002 80002;EQDQ01  00002PRCP99
0112531920999992000071015004+44190+114940FM-12+112899999V0209999C000012200019N0300001N1+02311+01251100461ADDGF101991001001999999001021MD1210041+9999REMSYN060AAXX  10151 53192 42980 10000 10231 20125 40046 52004 80002;
0196531920999992000071018004+44190+114940FM-12+112899999V0200401N001012200019N0300001N1+01961+01351100421ADDAA199000091GA1001+999999999GF100991001001999999001001KA1999M+03131MA1999999088341MD1710031+9999REMSYN070AAXX  10181 53192 32980 00401 10196 20135 38834 40042 57003 333 10313;EQDQ01  00002PRCP99
0122531920999992000071021004+44190+114940FM-12+112899999V0209999C000012200019N0300001N1+01801+01321100471ADDGA1001+999999999GF100991001001999999001001MD1210021+9999REMSYN054AAXX  10211 53192 42980 00000 10180 20132 40047 52002;
0173531920999992000071100004+44190+114940FM-12+112899999V0201601N001012200019N0300001N1+02301+01341100411ADDAA199000091GF101991001001999999001021MA1999999088361MD1410001+0011REMSYN076AAXX  11001 53192 32980 11601 10230 20134 38836 40041 54000 80002 333 05102;EQDQ01  00002PRCP99
0112531920999992000071103004+44190+114940FM-12+112899999V0200401N002012200019N0300001N1+03061+01251100301ADDGF101991011011012501001021MD1710051+9999REMSYN060AAXX  11031 53192 42680 10402 10306 20125 40030 57005 81102;
0186531920999992000071106004+44190+114940FM-12+112899999V0200201N004012200019N0300001N1+03211+01041100211ADDAA199000091GF102991021021008001001001KA1999N+01771MA1999999088191MD1710121+9999REMSYN076AAXX  11061 53192 32580 20204 10321 20104 38819 40021 57012 82200 333 20177;EQDQ01  00002PRCP99
0112531920999992000071109004+44190+114940FM-12+112899999V0200701N003012200019N0300001N1+03111+00921100191ADDGF102991021021008001001021MD1710061+9999REMSYN060AAXX  11091 53192 42580 20703 10311 20092 40019 57006 82202;
0163531920999992000071112004+44190+114940FM-12+112899999V0200701N004012200019N0300001N1+02751+01081100251ADDAA199000091GF101991011041012501001021MA1999999088211MD1210081+9999REMSYN066AAXX  11121 53192 32680 10704 10275 20108 38821 40025 52008 81402;EQDQ01  00002PRCP99
0122531920999992000071115004+44190+114940FM-12+112899999V0200401N001012200019N0300001N1+02231+01351100351ADDGA1001+999999999GF100991001001999999001001MD1210131+9999REMSYN054AAXX  11151 53192 42980 00401 10223 20135 40035 52013;
0196531920999992000071118004+44190+114940FM-12+112899999V0200701N003012200019N0300001N1+02031+00951100431ADDAA199000091GA1001+999999999GF100991001001999999001001KA1999M+03281MA1999999088401MD1210061+9999REMSYN070AAXX  11181 53192 32980 00703 10203 20095 38840 40043 52006 333 10328;EQDQ01  00002PRCP99
0112531920999992000071121004+44190+114940FM-12+112899999V0200401N002012200019N0300001N1+01731+01001100401ADDGF101991001001999999001021MD1710101+9999REMSYN060AAXX  11211 53192 42980 10402 10173 20100 40040 57010 80002;
0173531920999992000071200004+44190+114940FM-12+112899999V0200901N001012200019N0300001N1+02361+00931100491ADDAA199000091GF104991021001999999031021MA1999999088431MD1210131+0011REMSYN076AAXX  12001 53192 32980 40901 10236 20093 38843 40049 52013 82032 333 00101;EQDQ01  00002PRCP99
0112531920999992000071203004+44190+114940FM-12+112899999V0201601N005010900019N0300001N1+02841+01011100301ADDGF105991021011008001001021MD1710181+9999REMSYN060AAXX  12031 53192 42580 51605 10284 20101 40030 57018 82102;
0186531920999992000071206004+44190+114940FM-12+112899999V0202001N005012200019N0300001N1+03241+00891099961ADDAA199000091GF101991011011008001001021KA1999N+01691MA1999999087991MD1710261+9999REMSYN076AAXX  12061 53192 32580 12005 10324 20089 38799 49996 57026 81102 333 20169;EQDQ01  00002PRCP99
0112531920999992000071209004+44190+114940FM-12+112899999V0202201N007012200019N0300001N1+03511+00291099621ADDGF103991021091008001001021MD1710301+9999REMSYN060AAXX  12091 53192 42580 32207 10351 20029 49962 57030 82902;
0205531920999992000071212004+44190+114940FM-12+112899999V0202201N005010900019N0300001N1+02971+00631099571ADDAA106000791AY191061AY281061GF105991031041012501001021MA1999999087661MD1710031+9999MW1001OA130602401REMSYN094AAXX  12121 53192 11680 52205 10297 20063 38766 49957 57003 69901 70098 83402 333 91124 91527;
0112531920999992000071215004+44190+114940FM-12+112899999V0203201N002010900019N0300001N1+02651+00841099671ADDGF106991021051012501001021MD1210121+9999REMSYN060AAXX  12151 53192 42680 63202 10265 20084 49967 52012 82502;
0186531920999992000071218004+44190+114940FM-12+112899999V0200201N003012200019N0300001N1+02051+01111099821ADDAA199000091GF102991011051012501001021KA1999M+03531MA1999999087871MD1210091+9999REMSYN076AAXX  12181 53192 32680 20203 10205 20111 38787 49982 52009 81502 333 10353;EQDQ01  00002PRCP99
0133531920999992000071221004+44190+114940FM-12+112899999V0209999C000010900019N0300001N1+01921+00971099791ADDAA124000791GF107991031091008001001021MD1410001+9999REMSYN070AAXX  12211 53192 42580 70000 10192 20097 49979 54000 83902 333 79999;
0160531920999992000071300004+44190+114940FM-12+112899999V0209999C000012200019N0300001N1+02361+01051099851ADDAA124000791GF102991011001999999031021MA1999999087911MD1210041-0501REMSYN082AAXX  13001 53192 32980 20000 10236 20105 38791 49985 52004 81032 333 05500 79999;
0112531920999992000071303004+44190+114940FM-12+112899999V0202201N004012200019N0300001N1+03091+00591099701ADDGF101991001001999999001021MD1710061+9999REMSYN060AAXX  13031 53192 42980 12204 10309 20059 49970 57006 80002;
0196531920999992000071306004+44190+114940FM-12+112899999V0202701N006012200019N0300001N1+03461+00521099601ADDAA199000091GA1001+999999999GF100991001001999999001001KA1999N+01871MA1999999087721MD1710131+9999REMSYN070AAXX  13061 53192 32980 02706 10346 20052 38772 49960 57013 333 20187;EQDQ01  00002PRCP99
0112531920999992000071309004+44190+114940FM-12+112899999V0202701N012010075019N0300001N1+03691+00001099351ADDGF107991061091008001001021MD1710201+9999REMSYN060AAXX  13091 53192 42580 72712 10369 20000 49935 57020 86902;
0205531920999992000071312004+44190+114940FM-12+112899999V0202001N008010900019N0300001N1+03301+00241099401ADDAA106000791AY191061AY281061GF105991031091008001001021MA1999999087571MD1210051+9999MW1001OA130601901REMSYN094AAXX  13121 53192 11580 52008 10330 20024 38757 49940 52005 69901 70098 83902 333 91119 91529;
0112531920999992000071315004+44190+114940FM-12+112899999V0202701N003012200019N0300001N1+02751+00671099521ADDGF101991011041012501001021MD1210141+9999REMSYN060AAXX  13151 53192 42680 12703 10275 20067 49952 52014 81402;
0196531920999992000071318004+44190+114940FM-12+112899999V0202701N002012200019N0300001N1+02351+00851099541ADDAA199000091GA1001+999999999GF100991001001999999001001KA1999M+03851MA1999999087721MD1210011+9999REMSYN070AAXX  13181 53192 32980 02702 10235 20085 38772 49954 52001 333 10385;EQDQ01  00002PRCP99
0133531920999992000071321004+44190+114940FM-12+112899999V0202201N004012200019N0300001N1+02401+00461099571ADDAA124000791GF101991001001999999001021MD1210081+9999REMSYN070AAXX  13211 53192 42980 12204 10240 20046 49957 52008 80002 333 79999;
0160531920999992000071400004+44190+114940FM-12+112899999V0202701N007012200019N0300001N1+02811+00601099751ADDAA124000791GF101991001001999999001021MA1999999087961MD1210161+0101REMSYN082AAXX  14001 53192 32980 12707 10281 20060 38796 49975 52016 80002 333 00105 79999;
0112531920999992000071403004+44190+114940FM-12+112899999V0209999C000012200019N0300001N1+03291+00641099701ADDGF104991001001999999001021MD1710061+9999REMSYN060AAXX  14031 53192 42980 40000 10329 20064 49970 57006 80002;
0186531920999992000071406004+44190+114940FM-12+112899999V0202701N005010900019N0300001N1+03471+00301099671ADDAA199000091GF106991021011008001001021KA1999N+02251MA1999999087841MD1710061+9999REMSYN076AAXX  14061 53192 32580 62705 10347 20030 38784 49967 57006 82102 333 20225;EQDQ01  00002PRCP99
0112531920999992000071409004+44190+114940FM-12+112899999V0202701N004010075019N0300001N1+03641+00231099521ADDGF107991061091008001001021MD1710091+9999REMSYN060AAXX  14091 53192 42580 72704 10364 20023 49952 57009 86902;
0178531920999992000071412004+44190+114940FM-12+112899999V0209999C000010900019N0300001N1+02981+00991099701ADDAA106000791AY191061AY281061GF105991031091008001001021MA1999999087861MD1210111+9999MW1001REMSYN078AAXX  14121 53192 11580 50000 10298 20099 38786 49970 52011 69901 70098 83902;
0112531920999992000071415004+44190+114940FM-12+112899999V0209999C000012200019N0300001N1+02611+01131099801ADDGF102991011051012501001021MD1210111+9999REMSYN060AAXX  14151 53192 42680 20000 10261 20113 49980 52011 81502;
0186531920999992000071418004+44190+114940FM-12+112899999V0200201N005012200019N0300001N1+02281+01031099951ADDAA199000091GF102991021051012501001021KA1999M+03751MA1999999088071MD1210101+9999REMSYN076AAXX  14181 53192 32680 20205 10228 20103 38807 49995 52010 82502 333 10375;EQDQ01  00002PRCP99
0143531920999992000071421004+44190+114940FM-12+112899999V0209999C000012200019N0300001N1+02011+01181099971ADDAA124000791GA1001+999999999GF100991001001999999001001MD1410001+9999REMSYN064AAXX  14211 53192 42980 00000 10201 20118 49997 54000 333 79999;
0170531920999992000071500004+44190+114940FM-12+112899999V0209999C000012200019N0300001N1+02631+01261100061ADDAA124000791GA1001+999999999GF100991001001999999001001MA1999999088141MD1210071+0201REMSYN076AAXX  15001 53192 32980 00000 10263 20126 38814 40006 52007 333 00252 79999;
0122531920999992000071503004+44190+114940FM-12+112899999V0202201N005012200019N0300001N1+03291+00581100031ADDGA1001+999999999GF100991001001999999001001MD1210031+9999REMSYN054AAXX  15031 53192 42980 02205 10329 20058 40003 52003;
0186531920999992000071506004+44190+114940FM-12+112899999V0202001N003012200019N0300001N1+03531+00691099951ADDAA199000091GF101991011011008001001001KA1999N+01931MA1999999088081MD1710091+9999REMSYN076AAXX  15061 53192 32580 12003 10353 20069 38808 49995 57009 81100 333 20193;EQDQ01  00002PRCP99
0112531920999992000071509004+44190+114940FM-12+112899999V0202201N004010900019N0300001N1+03571+00391099881ADDGF105991041021008001001021MD1710101+9999REMSYN060AAXX  15091 53192 42580 52204 10357 20039 49988 57010 84202;
0190531920999992000071512004+44190+114940FM-12+112899999V0201601N006010075019N0300001N1+02971+00571099981ADDAA199000091GF107991051091008001001021MA1999999088071MD1210091+9999OA130601801REMSYN082AAXX  15121 53192 32580 71606 10297 20057 38807 49998 52009 85902 333 91118 91516;EQDQ01  00002PRCP99
0112531920999992000071515004+44190+114940FM-12+112899999V0201801N002012200019N0300001N1+02491+01031100171ADDGF104991001001999999001021MD1210201+9999REMSYN060AAXX  15151 53192 42980 41802 10249 20103 40017 52020 80002;
0186531920999992000071518004+44190+114940FM-12+112899999V0201401N002012200019N0300001N1+02271+01141100121ADDAA199000091GF101991001001999999001021KA1999M+03651MA1999999088231MD1710041+9999REMSYN076AAXX  15181 53192 32980 11402 10227 20114 38823 40012 57004 80002 333 10365;EQDQ01  00002PRCP99
0183531920999992000071600004+44190+114940FM-12+112899999V0209999C000012200019N0300001N1+02421+01211100271ADDAA199000091GA1001+999999999GF100991001001999999001001MA1999999088291MD1210051+0021REMSYN070AAXX  16001 53192 32980 00000 10242 20121 38829 40027 52005 333 00252;EQDQ01  00002PRCP99
0112531920999992000071603004+44190+114940FM-12+112899999V0201401N003012200019N0300001N1+03001+00891100311ADDGF102991011011008001001021MD1210051+9999REMSYN060AAXX  16031 53192 42580 21403 10300 20089 40031 52005 81102;
0186531920999992000071606004+44190+114940FM-12+112899999V0201101N002012200019N0300001N1+03231+01071100111ADDAA199000091GF102991011011008001001021KA1999N+02081MA1999999088171MD1710171+9999REMSYN076AAXX  16061 53192 32580 21102 10323 20107 38817 40011 57017 81102 333 20208;EQDQ01  00002PRCP99
0112531920999992000071609004+44190+114940FM-12+112899999V0201401N002012200019N0300001N1+03191+01241099991ADDGF103991011011008001001021MD1710141+9999REMSYN060AAXX  16091 53192 42580 31402 10319 20124 49999 57014 81102;
0173531920999992000071612004+44190+114940FM-12+112899999V0201401N001012200019N0300001N1+02991+01171100111ADDAA199000091GA1001+999999999GF100991001001999999001001MA1999999088151MD1210121+9999REMSYN060AAXX  16121 53192 32980 01401 10299 20117 38815 40011 52012;EQDQ01  00002PRCP99
0122531920999992000071615004+44190+114940FM-12+112899999V0201601N003012200019N0300001N1+02631+01161100181ADDGA1001+999999999GF100991001001999999001001MD1210101+9999REMSYN054AAXX  16151 53192 42980 01603 10263 20116 40018 52010;
0196531920999992000071618004+44190+114940FM-12+112899999V0209999C000012200019N0300001N1+02371+01311100191ADDAA199000091GA1001+999999999GF100991001001999999001001KA1999M+03331MA1999999088261MD1210011+9999REMSYN070AAXX  16181 53192 32980 00000 10237 20131 38826 40019 52001 333 10333;EQDQ01  00002PRCP99
0112531920999992000071621004+44190+114940FM-12+112899999V0200401N001012200019N0300001N1+01991+01271100271ADDGF101991001001999999001021MD1710011+9999REMSYN060AAXX  16211 53192 42980 10401 10199 20127 40027 57001 80002;
0173531920999992000071700004+44190+114940FM-12+112899999V0209999C000012200019N0300001N1+02491+01531100251ADDAA199000091GF102991001001999999001021MA1999999088291MD1210041+0001REMSYN076AAXX  17001 53192 32980 20000 10249 20153 38829 40025 52004 80002 333 00001;EQDQ01  00002PRCP99
0122531920999992000071703004+44190+114940FM-12+112899999V0201801N001012200019N0300001N1+02971+01141100231ADDGA1001+999999999GF100991001001999999001001MD1410001+9999REMSYN054AAXX  17031 53192 42980 01801 10297 20114 40023 54000;
0196531920999992000071706004+44190+114940FM-12+112899999V0201801N002012200019N0300001N1+03331+00931100041ADDAA199000091GA1001+999999999GF100991001001999999001001KA1999N+01971MA1999999088141MD1710151+9999REMSYN070AAXX  17061 53192 32980 01802 10333 20093 38814 40004 57015 333 20197;EQDQ01  00002PRCP99
0112531920999992000071709004+44190+114940FM-12+112899999V0201801N002012200019N0300001N1+03431+00851099911ADDGF101991011011008001001001MD1710161+9999REMSYN060AAXX  17091 53192 42580 11802 10343 20085 49991 57016 81100;
0163531920999992000071712004+44190+114940FM-12+112899999V0201801N002012200019N0300001N1+03171+00971099851ADDAA199000091GF101991001001999999001021MA1999999087971MD1710011+9999REMSYN066AAXX  17121 53192 32980 11802 10317 20097 38797 49985 57001 80002;EQDQ01  00002PRCP99
0122531920999992000071715004+44190+114940FM-12+112899999V0209999C000012200019N0300001N1+02751+00871099931ADDGA1001+999999999GF100991001001999999001001MD1210081+9999REMSYN054AAXX  17151 53192 42980 00000 10275 20087 49993 52008;
0186531920999992000071718004+44190+114940FM-12+112899999V0201601N004019999999N0300001N1+02531+01211099941ADDAA199000091GF105991001001999999001021KA1999M+03511MA1999999088081MD1210031+9999REMSYN076AAXX  17181 53192 32980 51604 10253 20121 38808 49994 52003 80002 333 10351;EQDQ01  00002PRCP99
0112531920999992000071721004+44010+114940FM-12+112899999V0209999C000019999999N0300001N1+02431+01531099961ADDGF106991001001999999001021MD1210021+9999REMSYN060AAXX  17211 53192 42980 60000 10243 20153 49996 52002 80002;
0173531920999992000071800004+44010+114940FM-12+112899999V0201801N002012200019N0300001N1+02671+01571100021ADDAA199000091GF104991001001999999001021MA1999999088151MD1210051+0011REMSYN076AAXX  18001 53192 32980 41802 10267 20157 38815 40002 52005 80002 333 05102;EQDQ01  00002PRCP99
0112531920999992000071803004+44010+114940FM-12+112899999V0201401N002019999999N0300001N1+03151+01361099961ADDGF105991001001999999001021MD1710041+9999REMSYN060AAXX  18031 53192 42980 51402 10315 20136 49996 57004 80002;
0186531920999992000071806004+44010+114940FM-12+112899999V0201401N003012200019N0300001N1+03491+00851099731ADDAA199000091GF102991001001999999001021KA1999N+02341MA1999999087931MD1710181+9999REMSYN076AAXX  18061 53192 32980 21403 10349 20085 38793 49973 57018 80002 333 20234;EQDQ01  00002PRCP99
0112531920999992000071809004+44010+114940FM-12+112899999V0201601N003019999999N0300001N1+03531+00721099581ADDGF105991001001999999001021MD1710151+9999REMSYN060AAXX  18091 53192 42980 51603 10353 20072 49958 57015 80002;
0163531920999992000071812004+44010+114940FM-12+112899999V0201801N001019999999N0300001N1+03231+00971099631ADDAA199000091GF106991011001999999031021MA1999999087821MD1210041+9999REMSYN066AAXX  18121 53192 32980 61801 10323 20097 38782 49963 52004 81032;EQDQ01  00002PRCP99
0112531920999992000071815004+44010+114940FM-12+112899999V0201601N003012200019N0300001N1+02811+01131099721ADDGF104991001001999999001021MD1210091+9999REMSYN060AAXX  18151 53192 42980 41603 10281 20113 49972 52009 80002;
0186531920999992000071818004+44010+114940FM-12+112899999V0201801N004012200019N0300001N1+02611+01591099721ADDAA199000091GF102991001001999999001021KA1999M+03591MA1999999087931MD1210021+9999REMSYN076AAXX  18181 53192 32980 21804 10261 20159 38793 49972 52002 80002 333 10359;EQDQ01  00002PRCP99
0112531920999992000071821004+44010+114940FM-12+112899999V0201601N005019999999N0300001N1+02381+01761099811ADDGF107991001001999999001021MD1210051+9999REMSYN060AAXX  18211 53192 42980 71605 10238 20176 49981 52005 80002;
0173531920999992000071900004+44010+114940FM-12+112899999V0201801N004019999999N0300001N1+02531+01841099811ADDAA199000091GF106991001001999999001021MA1999999087951MD1710031+0021REMSYN076AAXX  19001 53192 32980 61804 10253 20184 38795 49981 57003 80002 333 05251;EQDQ01  00002PRCP99
0112531920999992000071903004+44010+114940FM-12+112899999V0202201N005010900019N0300001N1+03151+01681099731ADDGF107991031021008001001021MD1710031+9999REMSYN060AAXX  19031 53192 42580 72205 10315 20168 49973 57003 83202;
0186531920999992000071906004+44010+114940FM-12+112899999V0201801N004010075019N0300001N1+03451+01461099531ADDAA199000091GF107991061021008001001021KA1999N+02331MA1999999087761MD1710161+9999REMSYN076AAXX  19061 53192 32580 71804 10345 20146 38776 49953 57016 86202 333 20233;EQDQ01  00002PRCP99
0112531920999992000071909004+44010+114940FM-12+112899999V0200201N008010075019N0250001N1+03091+01521099561ADDGF107991061091008001001021MD1710081+9999REMSYN060AAXX  19091 53192 42575 70208 10309 20152 49956 57008 86902;
0178531920999992000071912004+44010+114940FM-12+112899999V0201401N001010075019N0300001N1+02781+01851099591ADDAA106000791AY191061AY281061GF107991071091008001001021MA1999999087671MD1710011+9999MW1001REMSYN078AAXX  19121 53192 11580 71401 10278 20185 38767 49959 57001 69901 70098 87902;
0112531920999992000071915004+44010+114940FM-12+112899999V0201801N005012200019N0300001N1+02911+01631099371ADDGF102991021041012501001001MD1710051+9999REMSYN060AAXX  19151 53192 42680 21805 10291 20163 49937 57005 82400;
0186531920999992000071918004+44010+114940FM-12+112899999V0202701N002010900019N0300001N1+02801+01751099281ADDAA199000091GF106991041041012501001021KA1999M+03651MA1999999087571MD1710051+9999REMSYN076AAXX  19181 53192 32680 62702 10280 20175 38757 49928 57005 84402 333 10365;EQDQ01  00002PRCP99
0133531920999992000071921004+44010+114940FM-12+112899999V0202201N006010075019N0300001N1+02391+01831099571ADDAA124000791GF107991061091008001001021MD1210121+9999REMSYN070AAXX  19211 53192 42580 72206 10239 20183 49957 52012 86902 333 79999;
0194531920999992000072000004+44010+114940FM-12+112899999V0200901N001010075019N0300001N1+02381+02031099811ADDAA106003091AY191061AY281061GF106991051091008001001021MA1999999087841MD1210151-0101MW1001REMSYN094AAXX  20001 53192 11580 60901 10238 20203 38784 49981 52015 60031 70098 85902 333 05152 70032;
0112531920999992000072003004+44010+114940FM-12+112899999V0202701N002010900019N0300001N1+02831+01951099771ADDGF105991021091008001001021MD1210071+9999REMSYN060AAXX  20031 53192 42580 52702 10283 20195 49977 52007 82902;
0186531920999992000072006004+44010+114940FM-12+112899999V0203201N003012200019N0300001N1+03181+01661099671ADDAA199000091GF102991021011008001001021KA1999N+02251MA1999999087871MD1710041+9999REMSYN076AAXX  20061 53192 32580 23203 10318 20166 38787 49967 57004 82102 333 20225;EQDQ01  00002PRCP99
0112531920999992000072009004+44010+114940FM-12+112899999V0202901N004012200019N0300001N1+03411+00951099681ADDGF104991021011008001001021MD1710031+9999REMSYN060AAXX  20091 53192 42580 42904 10341 20095 49968 57003 82102;
0163531920999992000072012004+44010+114940FM-12+112899999V0203201N005012200019N0300001N1+03101+01011099791ADDAA199000091GF104991031041012501001021MA1999999087881MD1210041+9999REMSYN066AAXX  20121 53192 32680 43205 10310 20101 38788 49979 52004 83402;EQDQ01  00002PRCP99
0112531920999992000072015004+44010+114940FM-12+112899999V0203201N006010075019N0300001N1+02791+01011099791ADDGF106991051091008001001021MD1210031+9999REMSYN060AAXX  20151 53192 42580 63206 10279 20101 49979 52003 85902;
0193531920999992000072018004+44010+114940FM-12+112899999V0203601N008010900019N0300001N1+02181+00721099951ADDAA106000791AY181061GF107991041091008001001021KA1999M+03461MA1999999088001MD1210091+9999MW1001REMSYN088AAXX  20181 53192 11580 73608 10218 20072 38800 49995 52009 69901 70080 84902 333 10346;
0145531920999992000072021004+44010+114940FM-12+112899999V0203601N004010075019N0300001N1+01911+00551100141ADDAA124003391GF107991061091008001001021MD1210161+9999MW1801REMSYN076AAXX  20211 53192 41580 73604 10191 20055 40014 52016 78000 86902 333 70032;
0186531920999992000072100004+44010+114940FM-12+112899999V0202701N006010075019N0300001N1+01791+00501100441ADDAA106000791AY181061GF107991061091008001001021MA1999999088341MD1210181+0501MW1001REMSYN094AAXX  21001 53192 11580 72706 10179 20050 38834 40044 52018 69901 70080 86902 333 00556 79999;
0112531920999992000072103004+44010+114940FM-12+112899999V0202701N009012200019N0300001N1+02241+00351100321ADDGF101991001001999999001021MD1710081+9999REMSYN060AAXX  21031 53192 42980 12709 10224 20035 40032 57008 80002;
0167531920999992000072106004+44010+114940FM-12+112899999V0202901N009012200019N0300001N1+02571+00171100221ADDAA199000021GF101991001001999999001021KA1999N+01761MA1999999088121MD1710141+9999REMSYN076AAXX  21061 53192 32980 12909 10257 20017 38812 40022 57014 80002 333 20176;
0122531920999992000072109004+44010+114940FM-12+112899999V0202901N008012200019N0300001N1+02651-00021100171ADDGA1001+999999999GF100991001001999999001001MD1710081+9999REMSYN054AAXX  21091 53192 42980 02908 10265 21002 40017 57008;
0173531920999992000072112004+44010+114940FM-12+112899999V0203201N004012200019N0300001N1+02431+00231100251ADDAA199000091GA1001+999999999GF100991001001999999001001MA1999999088051MD1210011+9999REMSYN060AAXX  21121 53192 32980 03204 10243 20023 38805 40025 52001;EQDQ01  00002PRCP99
0122531920999992000072115004+44010+114940FM-12+112899999V0203201N004012200019N0300001N1+02031+00361100381ADDGA1001+999999999GF100991001001999999001001MD1210121+9999REMSYN054AAXX  21151 53192 42980 03204 10203 20036 40038 52012;
0196531920999992000072118004+44010+114940FM-12+112899999V0202701N002012200019N0300001N1+01661+00501100341ADDAA199000091GA1001+999999999GF100991001001999999001001KA1999M+02741MA1999999088131MD1710041+9999REMSYN070AAXX  21181 53192 32980 02702 10166 20050 38813 40034 57004 333 10274;EQDQ01  00002PRCP99
0112531920999992000072121004+44010+114940FM-12+112899999V0202701N004012200019N0300001N1+01551+00481100401ADDGF101991001001999999001021MD1210051+9999REMSYN060AAXX  21211 53192 42980 12704 10155 20048 40040 52005 80002;
0183531920999992000072200004+44010+114940FM-12+112899999V0203401N004012200019N0300001N1+01901+00641100401ADDAA199000091GA1001+999999999GF100991001001999999001001MA1999999088201MD1210021+0011REMSYN070AAXX  22001 53192 32980 03404 10190 20064 38820 40040 52002 333 05101;EQDQ01  00002PRCP99
0112531920999992000072203004+44010+114940FM-12+112899999V0202901N006012200019N0300001N1+02391+00551100301ADDGF104991021011008001001021MD1710071+9999REMSYN060AAXX  22031 53192 42580 42906 10239 20055 40030 57007 82102;
0186531920999992000072206004+44010+114940FM-12+112899999V0203201N007012200019N0300001N1+02601+00461100151ADDAA199000091GF104991011011008001001021KA1999N+01451MA1999999087971MD1710161+9999REMSYN076AAXX  22061 53192 32580 43207 10260 20046 38797 40015 57016 81102 333 20145;EQDQ01  00002PRCP99
0112531920999992000072209004+44010+114940FM-12+112899999V0203201N007012200019N0300001N1+02711+00191100031ADDGF102991021011008001001001MD1710111+9999REMSYN060AAXX  22091 53192 42580 23207 10271 20019 40003 57011 82100;
0163531920999992000072212004+44010+114940FM-12+112899999V0203201N005012200019N0300001N1+02431+00301100071ADDAA199000091GF101991011041012501001001MA1999999087911MD1210051+9999REMSYN066AAXX  22121 53192 32680 13205 10243 20030 38791 40007 52005 81400;EQDQ01  00002PRCP99
0122531920999992000072215004+44010+114940FM-12+112899999V0203601N002012200019N0300001N1+02031+00411100151ADDGA1001+999999999GF100991001001999999001001MD1210091+9999REMSYN054AAXX  22151 53192 42980 03602 10203 20041 40015 52009;
0186531920999992000072218004+44010+114940FM-12+112899999V0203201N001012200019N0300001N1+01661+00581100151ADDAA199000091GF101991001001999999001021KA1999M+02781MA1999999087971MD1710031+9999REMSYN076AAXX  22181 53192 32980 13201 10166 20058 38797 40015 57003 80002 333 10278;EQDQ01  00002PRCP99
0112531920999992000072221004+44010+114940FM-12+112899999V0209999C000012200019N0300001N1+01471+00591100111ADDGF101991011001999999031001MD1710051+9999REMSYN060AAXX  22211 53192 42980 10000 10147 20059 40011 57005 81030;
0173531920999992000072300004+44010+114940FM-12+112899999V0203601N005012200019N0300001N1+01861+00661100171ADDAA199000091GF102991021011008001001001MA1999999087991MD1210071+0021REMSYN076AAXX  23001 53192 32580 23605 10186 20066 38799 40017 52007 82100 333 05200;EQDQ01  00002PRCP99
0112531920999992000072303004+44010+114940FM-12+112899999V0203201N006012200019N0300001N1+02311+00201100101ADDGF103991031011008001001001MD1710051+9999REMSYN060AAXX  23031 53192 42580 33206 10231 20020 40010 57005 83100;
0186531920999992000072306004+44010+114940FM-12+112899999V0203601N004010075019N0300001N1+02491+00411100041ADDAA199000091GF105991051011008001001001KA1999N+01401MA1999999087851MD1710091+9999REMSYN076AAXX  23061 53192 32580 53604 10249 20041 38785 40004 57009 85100 333 20140;EQDQ01  00002PRCP99
0112531920999992000072309004+44010+114940FM-12+112899999V0203201N005010075019N0300001N1+02651+00401099991ADDGF106991061091008001001001MD1710051+9999REMSYN060AAXX  23091 53192 42580 63205 10265 20040 49999 57005 86900;
0163531920999992000072312004+44010+114940FM-12+112899999V0203201N002012200019N0300001N1+02311+00561100111ADDAA199000091GF101991011041012501001001MA1999999087921MD1210121+9999REMSYN066AAXX  23121 53192 32680 13202 10231 20056 38792 40011 52012 81400;EQDQ01  00002PRCP99
0122531920999992000072315004+44010+114940FM-12+112899999V0200401N001012200019N0300001N1+01821+00631100251ADDGA1001+999999999GF100991001001999999001001MD1210111+9999REMSYN054AAXX  23151 53192 42980 00401 10182 20063 40025 52011;
0196531920999992000072318004+44010+114940FM-12+112899999V0209999C000012200019N0300001N1+01661+00631100291ADDAA199000091GA1001+999999999GF100991001001999999001001KA1999M+02671MA1999999088071MD1210041+9999REMSYN070AAXX  23181 53192 32980 00000 10166 20063 38807 40029 52004 333 10267;EQDQ01  00002PRCP99
0122531920999992000072321004+44010+114940FM-12+112899999V0209999C000012200019N0300001N1+01441+00651100411ADDGA1001+999999999GF100991001001999999001001MD1210091+9999REMSYN054AAXX  23211 53192 42980 00000 10144 20065 40041 52009;
0173531920999992000072400004+44010+114940FM-12+112899999V0209999C000012200019N0300001N1+01931+00701100501ADDAA199000091GF101991001001999999001021MA1999999088271MD1210111+0031REMSYN076AAXX  24001 53192 32980 10000 10193 20070 38827 40050 52011 80002 333 00301;EQDQ01  00002PRCP99
0112531920999992000072403004+44010+114940FM-12+112899999V0202701N002012200019N0300001N1+02551+00451100401ADDGF101991011011008001001021MD1710061+9999REMSYN060AAXX  24031 53192 42580 12702 10255 20045 40040 57006 81102;
0186531920999992000072406004+44010+114940FM-12+112899999V0202701N002010900019N0300001N1+02871+00281100221ADDAA199000091GF106991021011008001001021KA1999N+01311MA1999999088081MD1710131+9999REMSYN076AAXX  24061 53192 32580 62702 10287 20028 38808 40022 57013 82102 333 20131;EQDQ01  00002PRCP99
0112531920999992000072409004+44010+114940FM-12+112899999V0202201N004010360019N0300001N1+02851+00341100171ADDGF106991011011008001031021MD1710091+9999REMSYN060AAXX  24091 53192 42580 62204 10285 20034 40017 57009 81132;
0163531920999992000072412004+44010+114940FM-12+112899999V0202201N002010075019N0300001N1+02661+00321100111ADDAA199000091GF107991051091008001031021MA1999999088001MD1210011+9999REMSYN066AAXX  24121 53192 32580 72202 10266 20032 38800 40011 52001 85932;EQDQ01  00002PRCP99
0112531920999992000072415004+44010+114940FM-12+112899999V0209999C000019999999N0300001N1+02421+00401100041ADDGF107991001001999999001021MD1210011+9999REMSYN060AAXX  24151 53192 42980 70000 10242 20040 40004 52001 80002;
0186531920999992000072418004+44010+114940FM-12+112899999V0201401N001010900019N0300001N1+02291+00291100001ADDAA199000091GF106991021041012501001021KA1999M+02971MA1999999088011MD1410001+9999REMSYN076AAXX  24181 53192 32680 61401 10229 20029 38801 40000 54000 82402 333 10297;EQDQ01  00002PRCP99
0153531920999992000072421004+44010+114940FM-12+112899999V0200401N002010075019N0300001N1+02171+00531100061ADDAA124000791AY181031GF107991051091008001001021MD1210021+9999MW1001REMSYN076AAXX  24211 53192 41580 70402 10217 20053 40006 52002 70080 85902 333 79999;
0186531920999992000072500004+44010+114940FM-12+112899999V0200901N002019999999N0300001N1+02421+00681100111ADDAA106000791AY181061GF107991061001999999031021MA1999999088091MD1210061-0201MW1001REMSYN094AAXX  25001 53192 11980 70902 10242 20068 38809 40011 52006 69901 70080 86032 333 05205 79999;
0112531920999992000072503004+44010+114940FM-12+112899999V0201801N002019999999N0300001N1+02831+00301100041ADDGF107991041001999999031021MD1710031+9999REMSYN060AAXX  25031 53192 42980 71802 10283 20030 40004 57003 84032;
0158531920999992000072506004+44010+114940FM-12+112899999V0202701N005019999999N0300001N1+03081+00281099801ADDAA199000091GF106991999999012501999999MA1999999087871REMSYN075AAXX  25061 53192 32680 62705 10308 20028 38787 49980 5709 84502 333 20214;EQDQ01  00002PRCP99
0112531920999992000072509004+44010+114940FM-12+112899999V0209999C000010075019N0300001N1+03091+00561099741ADDGF107991061011008001001021MD1710071+9999REMSYN060AAXX  25091 53192 42580 70000 10309 20056 49974 57007 86102;
0163531920999992000072512004+44010+114940FM-12+112899999V0202701N001012200019N0300001N1+02911+00671099651ADDAA199000091GF103991001001999999001021MA1999999087731MD1710071+9999REMSYN066AAXX  25121 53192 32980 32701 10291 20067 38773 49965 57007 80002;EQDQ01  00002PRCP99
0112531920999992000072515004+44010+114940FM-12+112899999V0200401N001012200019N0300001N1+02421+00711099711ADDGF104991001001999999001021MD1210041+9999REMSYN060AAXX  25151 53192 42980 40401 10242 20071 49971 52004 80002;
0186531920999992000072518004+44010+114940FM-12+112899999V0200201N001012200019N0300001N1+02111+00841099681ADDAA199000091GF102991001001999999001021KA1999M+03291MA1999999087731MD1710041+9999REMSYN076AAXX  25181 53192 32980 20201 10211 20084 38773 49968 57004 80002 333 10329;EQDQ01  00002PRCP99
0112531920999992000072521004+44010+114940FM-12+112899999V0209999C000010900019N0300001N1+01971+00761099751ADDGF105991031091008001001021MD1210041+9999REMSYN060AAXX  25211 53192 42580 50000 10197 20076 49975 52004 83902;
0205531920999992000072600004+44010+114940FM-12+112899999V0200901N003010075019N0300001N1+02371+00661099781ADDAA199000091GF107991071091008001001001MA1999999999999MD1210071+0031REMSYN076AAXX  26001 53192 32580 70903 10237 20066 38984 49978 52007 87900 333 05351;EQDQ01+089843APOSP Q02  00002PRCP99Q03 089843APOSP 
0132531920999992000072603004+44010+114940FM-12+112899999V0200901N004010075019N0300001N1+02651+00581099861ADDAY181031GF107991061091008001031021MD1210031+9999MW1001REMSYN066AAXX  26031 53192 41580 70904 10265 20058 49986 52003 70080 86932;
0193531920999992000072606004+44010+114940FM-12+112899999V0200901N004010360019N0300001N1+02891+00571099751ADDAA106000791AY181061GF106991031091008001031021KA1999N+01931MA1999999087761MD1710111+9999MW1001REMSYN088AAXX  26061 53192 11580 60904 10289 20057 38776 49975 57011 69901 70080 83932 333 20193;
0112531920999992000072609004+44010+114940FM-12+112899999V0200701N004010120019N0300001N1+02971+00581099571ADDGF107991051051012501031021MD1710171+9999REMSYN060AAXX  26091 53192 42680 70704 10297 20058 49957 57017 85532;
0170531920999992000072612004+44010+114940FM-12+112899999V0200701N003010075019N0300001N1+02671+00921099491ADDAA106000791AY181061GF107991071091008001001021MA1999999087541MD1710051+9999MW1801REMSYN078AAXX  26121 53192 11580 70703 10267 20092 38754 49949 57005 69901 78080 87902;
0132531920999992000072615004+44010+114940FM-12+112899999V0200701N002010075019N0300001N1+02461+00971099501ADDAY181031GF107991071091008001001021MD1210021+9999MW1251REMSYN066AAXX  26151 53192 41580 70702 10246 20097 49950 52002 72580 87902;
0193531920999992000072618004+44010+114940FM-12+112899999V0200701N004010075019N0300001N1+02381+00991099261ADDAA106000791AY181061GF108991081091008001999999KA1999M+03051MA1999999087381MD1710181+9999MW1801REMSYN088AAXX  26181 53192 11580 80704 10238 20099 38738 49926 57018 69901 78080 889// 333 10305;
0153531920999992000072621004+44010+114940FM-12+112899999V0200901N003010075019N0300001N1+02121+01351099261ADDAA124000791AY181031GF107991061091008001001021MD1710041+9999MW1001REMSYN076AAXX  26211 53192 41580 70903 10212 20135 49926 57004 70080 86902 333 79999;
0186531920999992000072700004+44010+114940FM-12+112899999V0209999C000010360019N0300001N1+02151+01581099391ADDAA106000791AY181061GF107991041091008001031021MA1999999087411MD1210071-0401MW1001REMSYN094AAXX  27001 53192 11580 70000 10215 20158 38741 49939 52007 69901 70080 84932 333 05452 79999;
0112531920999992000072703004+44010+114940FM-12+112899999V0202201N003010360019N0300001N1+02741+01471099351ADDGF107991021021008001031021MD1210031+9999REMSYN060AAXX  27031 53192 42580 72203 10274 20147 49935 52003 82232;
0190531920999992000072706004+44010+114940FM-12+112899999V0202901N010010075019N0200001N1+03131+00971099131ADDAA199000021GF106991061011008001001001KA1240N+02051MA1999999087311MD1710131+9999OA130601801REMSYN088AAXX  27061 53192 32570 62910 10313 20097 38731 49913 57013 86100 333 20205 91118 91529;
0122531920999992000072709004+44010+114940FM-12+112899999V0202701N010012200019N0200001N1+03051-00261099351ADDGA1001+999999999GF100991001001999999001001MD1210131+9999REMSYN054AAXX  27091 53192 42970 02710 10305 21026 49935 52013;
0190531920999992000072712004+44010+114940FM-12+112899999V0202901N010012200019N0250001N1+02501-00471099651ADDAA199000091GF101991001001999999001021MA1999999087601MD1210161+9999OA130601901REMSYN082AAXX  27121 53192 32975 12910 10250 21047 38760 49965 52016 80002 333 91119 91529;EQDQ01  00002PRCP99
0122531920999992000072715004+44010+114940FM-12+112899999V0202901N004012200019N0300001N1+01941-00411099941ADDGA1001+999999999GF100991001001999999001001MD1210261+9999REMSYN054AAXX  27151 53192 42980 02904 10194 21041 49994 52026;
0219531920999992000072718004+44010+114940FM-12+112899999V0202901N003012200019N0300001N1+01631-00041100111ADDAA199000091GA1001+999999999GF100991001001999999001001KA1240M+03291MA1999999088031MD1210171+9999OA130601801REMSYN082AAXX  27181 53192 32980 02903 10163 21004 38803 40011 52017 333 10329 91118 91529;EQDQ01  00002PRCP99
0143531920999992000072721004+44010+114940FM-12+112899999V0202701N002012200019N0300001N1+01271+00011100241ADDAA124000791GA1001+999999999GF100991001001999999001001MD1210031+9999REMSYN064AAXX  27211 53192 42980 02702 10127 20001 40024 52003 333 79999;
0183531920999992000072800004+44010+114940FM-12+112899999V0202701N006012200019N0300001N1+01591+00051100341ADDAA199000091GA1001+999999999GF100991001001999999001001MA1999999088101MD1210041+0071REMSYN070AAXX  28001 53192 32980 02706 10159 20005 38810 40034 52004 333 00756;EQDQ01  00002PRCP99
0112531920999992000072803004+44010+114940FM-12+112899999V0202501N009012200019N0300001N1+02021-00321100331ADDGF101991001001999999001021MD1710031+9999REMSYN060AAXX  28031 53192 42980 12509 10202 21032 40033 57003 80002;
0209531920999992000072806004+44010+114940FM-12+112899999V0202501N013012200019N0300001N1+02361-00421100101ADDAA199000091GF103991011011008001001021KA1240N+01201MA1999999087871MD1710201+9999OA130601901REMSYN088AAXX  28061 53192 32580 32513 10236 21042 38787 40010 57020 81102 333 20120 91119 91527;EQDQ01  00002PRCP99
0112531920999992000072809004+44010+114940FM-12+112899999V0202501N014010900019N0300001N1+02491-00601099971ADDGF105991011011008001001021MD1710161+9999REMSYN060AAXX  28091 53192 42580 52514 10249 21060 49997 57016 81102;
0190531920999992000072812004+44010+114940FM-12+112899999V0202701N009012200019N0300001N1+02211-00301099931ADDAA199000091GF101991001001999999001021MA1999999087691MD1710021+9999OA130602001REMSYN082AAXX  28121 53192 32980 12709 10221 21030 38769 49993 57002 80002 333 91120 91525;EQDQ01  00002PRCP99
0122531920999992000072815004+44010+114940FM-12+112899999V0202701N005012200019N0300001N1+01861-00061099901ADDGA1001+999999999GF100991001001999999001001MD1710011+9999REMSYN054AAXX  28151 53192 42980 02705 10186 21006 49990 57001;
0196531920999992000072818004+44010+114940FM-12+112899999V0202701N002012200019N0300001N1+01301+00241099891ADDAA199000091GA1001+999999999GF100991001001999999001001KA1999M+02531MA1999999087621MD1710061+9999REMSYN070AAXX  28181 53192 32980 02702 10130 20024 38762 49989 57006 333 10253;EQDQ01  00002PRCP99
0112531920999992000072821004+44010+114940FM-12+112899999V0202901N005010075019N0300001N1+01261+00321099881ADDGF106991051091008001001021MD1210011+9999REMSYN060AAXX  28211 53192 42580 62905 10126 20032 49988 52001 85902;
0186531920999992000072900004+44010+114940FM-12+112899999V0202501N007010075019N0300001N1+01281+00931099961ADDAA106000591AY181061GF106991061091008001001021MA1999999087651MD1210021-0501MW1001REMSYN094AAXX  29001 53192 11580 62507 10128 20093 38765 49996 52002 69941 70080 86902 333 05553 70004;
0112531920999992000072903004+44010+114940FM-12+112899999V0202201N008010075019N0300001N1+01531+00871099991ADDGF107991071091008001001021MD1210011+9999REMSYN060AAXX  29031 53192 42580 72208 10153 20087 49999 52001 87902;
0193531920999992000072906004+44010+114940FM-12+112899999V0202701N007010075019N0300001N1+01551+01211099991ADDAA106001091AY181061GF108991081091008001999999KA1999N+01001MA1999999087551MD1710111+9999MW1801REMSYN088AAXX  29061 53192 11580 82707 10155 20121 38755 49999 57011 60011 78080 889// 333 20100;
0132531920999992000072909004+44010+114940FM-12+112899999V0203401N006010075019N0300001N1+01811+01181099941ADDAY181031GF107991071091008001001001MD1410001+9999MW1251REMSYN066AAXX  29091 53192 41580 73406 10181 20118 49994 54000 72580 87900;
0170531920999992000072912004+44010+114940FM-12+112899999V0203401N006010075019N0300001N1+01671+01031100161ADDAA106001091AY181061GF107991061091008001001021MA1999999087721MD1210171+9999MW1001REMSYN078AAXX  29121 53192 11580 73406 10167 20103 38772 40016 52017 60011 70080 86902;
0132531920999992000072915004+44010+114940FM-12+112899999V0202701N004010075019N0300001N1+01581+01131100251ADDAY181031GF107991061091008001001021MD1210111+9999MW1001REMSYN066AAXX  29151 53192 41580 72704 10158 20113 40025 52011 70080 86902;
0193531920999992000072918004+44010+114940FM-12+112899999V0202701N005012200019N0300001N1+01441+01091100241ADDAA106000791AY181061GF101991011041012501001001KA1999M+01871MA1999999087801MD1710031+9999MW1001REMSYN088AAXX  29181 53192 11680 12705 10144 20109 38780 40024 57003 69901 70080 81400 333 10187;
0133531920999992000072921004+44010+114940FM-12+112899999V0203201N007012200019N0300001N1+01361+01071100221ADDAA124003091GF102991021051012501001001MD1210021+9999REMSYN070AAXX  29211 53192 42680 23207 10136 20107 40022 52002 82500 333 70031;
0160531920999992000073000004+44010+114940FM-12+112899999V0203201N006012200019N0300001N1+01601+01111100501ADDAA124002891GF101991011051012501001001MA1999999087921MD1210101+0301REMSYN082AAXX  30001 53192 32680 13206 10160 20111 38792 40050 52010 81500 333 00303 70027;
0112531920999992000073003004+44010+114940FM-12+112899999V0203201N005010900019N0300001N1+02151+00871100211ADDGF106991021011008001001021MD1410001+9999REMSYN060AAXX  30031 53192 42580 63205 10215 20087 40021 54000 82102;
0193531920999992000073006004+44010+114940FM-12+112899999V0202901N007010075019N0300001N1+02311+00771100121ADDAA106000791AY181061GF107991061091008001001021KA1999N+01301MA1999999087841MD1710081+9999MW1001REMSYN088AAXX  30061 53192 11580 72907 10231 20077 38784 40012 57008 69901 70080 86902 333 20130;
0112531920999992000073009004+44010+114940FM-12+112899999V0203601N007010075019N0300001N1+02351+00761100041ADDGF106991051091008001001021MD1710071+9999REMSYN060AAXX  30091 53192 42580 63607 10235 20076 40004 57007 85902;
0163531920999992000073012004+44010+114940FM-12+112899999V0200701N003010900019N0300001N1+02121+00781100271ADDAA199000091GF105991041091008001001021MA1999999087971MD1210201+9999REMSYN066AAXX  30121 53192 32580 50703 10212 20078 38797 40027 52020 84902;EQDQ01  00002PRCP99
0112531920999992000073015004+44010+114940FM-12+112899999V0200401N001012200019N0300001N1+01731+01061100341ADDGF102991021041012501001021MD1210091+9999REMSYN060AAXX  30151 53192 42680 20401 10173 20106 40034 52009 82402;
0196531920999992000073018004+44010+114940FM-12+112899999V0209999C000012200019N0300001N1+01431+01071100301ADDAA199000091GA1001+999999999GF100991001001999999001001KA1999M+02531MA1999999088001MD1710061+9999REMSYN070AAXX  30181 53192 32980 00000 10143 20107 38800 40030 57006 333 10253;EQDQ01  00002PRCP99
0133531920999992000073021004+44010+114940FM-12+112899999V0200701N001012200019N0300001N1+01221+00901100371ADDAA124000791GF102991011091008001001021MD1210031+9999REMSYN070AAXX  30211 53192 42580 20701 10122 20090 40037 52003 81902 333 79999;
0160531920999992000073100004+44010+114940FM-12+112899999V0201401N001012200019N0300001N1+01691+00981100431ADDAA124000791GF102991021021008001031021MA1999999088131MD1210101+0201REMSYN082AAXX  31001 53192 32580 21401 10169 20098 38813 40043 52010 82232 333 00201 79999;
0112531920999992000073103004+44010+114940FM-12+112899999V0200901N001012200019N0300001N1+02371+00811100351ADDGF102991021021008001001001MD1710021+9999REMSYN060AAXX  31031 53192 42580 20901 10237 20081 40035 57002 82200;
0193531920999992000073106004+44010+114940FM-12+112899999V0202201N004010075019N0300001N1+02371+00811100301ADDAA106000591AY181061GF105991051021008001001021KA1999N+01201MA1999999088011MD1710101+9999MW1001REMSYN088AAXX  31061 53192 11580 52204 10237 20081 38801 40030 57010 69951 70080 85202 333 20120;
0112531920999992000073109004+44010+114940FM-12+112899999V0200201N005012200019N0300001N1+02511+00621100291ADDGF103991031021008001001001MD1710021+9999REMSYN060AAXX  31091 53192 42580 30205 10251 20062 40029 57002 83200;
0163531920999992000073112004+44010+114940FM-12+112899999V0200401N003012200019N0300001N1+02081+00771100431ADDAA199000091GF101991011041012501001001MA1999999088121MD1210131+9999REMSYN066AAXX  31121 53192 32680 10403 10208 20077 38812 40043 52013 81400;EQDQ01  00002PRCP99
0122531920999992000073115004+44010+114940FM-12+112899999V0200901N002012200019N0300001N1+01641+00871100541ADDGA1001+999999999GF100991001001999999001001MD1210141+9999REMSYN054AAXX  31151 53192 42980 00902 10164 20087 40054 52014;
0196531920999992000073118004+44010+114940FM-12+112899999V0200401N002012200019N0300001N1+01411+00791100671ADDAA199000091GA1001+999999999GF100991001001999999001001KA1999M+02701MA1999999088331MD1210071+9999REMSYN070AAXX  31181 53192 32980 00402 10141 20079 38833 40067 52007 333 10270;EQDQ01  00002PRCP99
0143531920999992000073121004+44010+114940FM-12+112899999V0200401N001012200019N0300001N1+01281+00811100681ADDAA124000591GA1001+999999999GF100991001001999999001001MD1210011+9999REMSYN064AAXX  31211 53192 42980 00401 10128 20081 40068 52001 333 70005;
0170531920999992000080100004+44010+114940FM-12+112899999V0200901N002012200019N0300001N1+01961+00721100741ADDAA124000591GA1001+999999999GF100991001001999999001001MA1999999088441MD1210101+0301REMSYN076AAXX  01001 53192 32980 00902 10196 20072 38844 40074 52010 333 00303 70005;
0112531920999992000080103004+44010+114940FM-12+112899999V0200701N004012200019N0300001N1+02391+00581100751ADDGF101991001001999999001021MD1210011+9999REMSYN060AAXX  01031 53192 42980 10704 10239 20058 40075 52001 80002;
0186531920999992000080106004+44010+114940FM-12+112899999V0203601N003012200019N0300001N1+02611+00471100671ADDAA199000091GF101991011011008001001021KA1999N+01191MA1999999088381MD1710071+9999REMSYN076AAXX  01061 53192 32580 13603 10261 20047 38838 40067 57007 81102 333 20119;EQDQ01  00002PRCP99
0112531920999992000080109004+44010+114940FM-12+112899999V0200901N002012200019N0300001N1+02761+00381100601ADDGF104991011011008001001021MD1710061+9999REMSYN060AAXX  01091 53192 42580 40902 10276 20038 40060 57006 81102;
0163531920999992000080112004+44010+114940FM-12+112899999V0200701N004019999999N0300001N1+02471+00521100541ADDAA199000091GF107991001001999999001021MA1999999088341MD1210021+9999REMSYN066AAXX  01121 53192 32980 70704 10247 20052 38834 40054 52002 80002;EQDQ01  00002PRCP99
0112531920999992000080115004+44010+114940FM-12+112899999V0200401N004012200019N0300001N1+02061+00721100671ADDGF102991001001999999001021MD1210121+9999REMSYN060AAXX  01151 53192 42980 20404 10206 20072 40067 52012 80002;
0186531920999992000080118004+44010+114940FM-12+112899999V0200401N004012200019N0300001N1+01931+00751100681ADDAA199000091GF103991001001999999001021KA1999M+02791MA1999999088491MD1210031+9999REMSYN076AAXX  01181 53192 32980 30404 10193 20075 38849 40068 52003 80002 333 10279;EQDQ01  00002PRCP99
0112531920999992000080121004+44010+114940FM-12+112899999V0200701N003019999999N0300001N1+01841+00791100651ADDGF106991001001999999001021MD1710021+9999REMSYN060AAXX  01211 53192 42980 60703 10184 20079 40065 57002 80002;
0173531920999992000080200004+44010+114940FM-12+112899999V0200701N001010900019N0300001N1+02091+00971100761ADDAA199000091GF106991021051012501001021MA1999999088561MD1210091+0011REMSYN076AAXX  02001 53192 32680 60701 10209 20097 38856 40076 52009 82502 333 00101;EQDQ01  00002PRCP99
0112531920999992000080203004+44010+114940FM-12+112899999V0202001N003010900019N0300001N1+02441+00571100741ADDGF107991031091008001001021MD1710031+9999REMSYN060AAXX  02031 53192 42580 72003 10244 20057 40074 57003 83902;
0186531920999992000080206004+44010+114940FM-12+112899999V0201801N003010900019N0300001N1+02701+00541100571ADDAA199000091GF107991011011008001001021KA1999N+01611MA1999999088411MD1710121+9999REMSYN076AAXX  02061 53192 32580 71803 10270 20054 38841 40057 57012 81102 333 20161;EQDQ01  00002PRCP99
0124531920999992000080209004+44010+114940FM-12+112899999V0202001N007010075019N0300001N1+02511+00721100591ADDGF107991061091008001001021MD1710041+9999MW1251REMSYN066AAXX  02091 53192 41580 72007 10251 20072 40059 57004 72500 86902;
0170531920999992000080212004+44010+114940FM-12+112899999V0201401N006010075019N0300001N1+02131+00981100701ADDAA106000791AY181061GF107991061091008001001021MA1999999088441MD1210071+9999MW1001REMSYN078AAXX  02121 53192 11580 71406 10213 20098 38844 40070 52007 69901 70080 86902;
0112531920999992000080215004+44010+114940FM-12+112899999V0201101N003010900019N0300001N1+01991+01011100741ADDGF107991021091008001001021MD1210081+9999REMSYN060AAXX  02151 53192 42580 71103 10199 20101 40074 52008 82902;
0167531920999992000080218004+44010+114940FM-12+112899999V0201601N003012200019N0300001N1+01771+01091100711ADDAA199000021GF102991001001999999001021KA1999M+02871MA1999999088501MD1710021+9999REMSYN076AAXX  02181 53192 32980 21603 10177 20109 38850 40071 57002 80002 333 10287;
0133531920999992000080221004+44010+114940FM-12+112899999V0209999C000010900019N0300001N1+01681+01241100771ADDAA124000791GF106991041041012501001021MD1410001+9999REMSYN070AAXX  02211 53192 42680 60000 10168 20124 40077 54000 84402 333 79999;
0160531920999992000080300004+44010+114940FM-12+112899999V0201401N003019999999N0300001N1+01951+01201100811ADDAA124000791GF107991021001999999031021MA1999999088511MD1210011-0101REMSYN082AAXX  03001 53192 32980 71403 10195 20120 38851 40081 52001 82032 333 05151 79999;
0124531920999992000080303004+44010+114940FM-12+112899999V0200901N003010075019N0300001N1+02421+01131100671ADDGF107991061091008001001021MD1710061+9999MW1801REMSYN066AAXX  03031 53192 41580 70903 10242 20113 40067 57006 78000 86902;
0216531920999992000080306004+44010+114940FM-12+112899999V0201101N004010075019N0300001N1+02131+01191100731ADDAA106000791AY181061GF107991071091008001001021KA1240N+01651MA1999999088411MD1710041+9999MW1951OA130601701REMSYN100AAXX  03061 53192 11580 71104 10213 20119 38841 40073 57004 69901 79580 87902 333 20165 91117 91520;
0140531920999992000080309004+44010+114940FM-12+112899999V0201601N005010900019N0300001N1+02591+01211100491ADDAY191031AY281031GF107991041091008001001021MD1710141+9999MW1001REMSYN066AAXX  03091 53192 41580 71605 10259 20121 40049 57014 70098 84902;
0178531920999992000080312004+44010+114940FM-12+112899999V0201801N006010900019N0300001N1+02161+01081100491ADDAA106002091AY191061AY281061GF106991021091008001001021MA1999999088241MD1710031+9999MW1001REMSYN078AAXX  03121 53192 11580 61806 10216 20108 38824 40049 57003 60021 70098 82902;
0112531920999992000080315004+44010+114940FM-12+112899999V0202201N002012200019N0300001N1+01921+00981100661ADDGF104991011091008001001021MD1210191+9999REMSYN060AAXX  03151 53192 42580 42202 10192 20098 40066 52019 81902;
0167531920999992000080318004+44010+114940FM-12+112899999V0202501N001012200019N0300001N1+01751+01051100761ADDAA199000021GF101991001001999999001021KA1999M+02731MA1999999088431MD1410001+9999REMSYN076AAXX  03181 53192 32980 12501 10175 20105 38843 40076 54000 80002 333 10273;
0133531920999992000080321004+44010+114940FM-12+112899999V0202201N002012200019N0300001N1+01551+01151100841ADDAA124001591GF101991001001999999001021MD1210121+9999REMSYN070AAXX  03211 53192 42980 12202 10155 20115 40084 52012 80002 333 70015;
0160531920999992000080400004+44010+114940FM-12+112899999V0202201N003012200019N0300001N1+01891+01291100981ADDAA124001591GF101991001001999999001021MA1999999088661MD1210111+0201REMSYN082AAXX  04001 53192 32980 12203 10189 20129 38866 40098 52011 80002 333 00251 70015;
0112531920999992000080403004+44010+114940FM-12+112899999V0202201N002012200019N0300001N1+02591+01071100921ADDGF101991001001999999001021MD1210031+9999REMSYN060AAXX  04031 53192 42980 12202 10259 20107 40092 52003 80002;
0186531920999992000080406004+44010+114940FM-12+112899999V0202701N003012200019N0300001N1+02941+00711100821ADDAA199000091GF102991021011008001001021KA1999N+01491MA1999999088641MD1710051+9999REMSYN076AAXX  04061 53192 32580 22703 10294 20071 38864 40082 57005 82102 333 20149;EQDQ01  00002PRCP99
0112531920999992000080409004+44010+114940FM-12+112899999V0202901N003010075019N0300001N1+03091+00781100751ADDGF106991051011008001001021MD1710071+9999REMSYN060AAXX  04091 53192 42580 62903 10309 20078 40075 57007 85102;
0163531920999992000080412004+44010+114940FM-12+112899999V0200201N002012200019N0300001N1+02781+00731100821ADDAA199000091GF103991021041012501001021MA1999999088641MD1210071+9999REMSYN066AAXX  04121 53192 32680 30202 10278 20073 38864 40082 52007 82402;EQDQ01  00002PRCP99
0122531920999992000080415004+44010+114940FM-12+112899999V0201101N001012200019N0300001N1+02481+00911100921ADDGA1001+999999999GF100991001001999999001001MD1210161+9999REMSYN054AAXX  04151 53192 42980 01101 10248 20091 40092 52016;
0196531920999992000080418004+44010+114940FM-12+112899999V0209999C000012200019N0300001N1+01981+01181100951ADDAA199000091GA1001+999999999GF100991001001999999001001KA1999M+03171MA1999999088801MD1410001+9999REMSYN070AAXX  04181 53192 32980 00000 10198 20118 38880 40095 54000 333 10317;EQDQ01  00002PRCP99
0112531920999992000080421004+44010+114940FM-12+112899999V0200401N002012200019N0300001N1+01811+01151101041ADDGF101991001001999999001021MD1210071+9999REMSYN060AAXX  04211 53192 42980 10402 10181 20115 40104 52007 80002;
0173531920999992000080500004+44010+114940FM-12+112899999V0200901N001012200019N0300001N1+02301+01301101041ADDAA199000091GF102991011001999999031021MA1999999088911MD1210041+0031REMSYN076AAXX  05001 53192 32980 20901 10230 20130 38891 40104 52004 81032 333 00304;EQDQ01  00002PRCP99
0112531920999992000080503004+44010+114940FM-12+112899999V0200901N002010900019N0300001N1+02861+01151100951ADDGF106991011011008001001021MD1710031+9999REMSYN060AAXX  05031 53192 42580 60902 10286 20115 40095 57003 81102;
0186531920999992000080506004+44010+114940FM-12+112899999V0202201N002010900019N0300001N1+03091+01011100871ADDAA199000091GF106991021011008001001021KA1999N+01731MA1999999088761MD1710121+9999REMSYN076AAXX  05061 53192 32580 62202 10309 20101 38876 40087 57012 82102 333 20173;EQDQ01  00002PRCP99
0112531920999992000080509004+44010+114940FM-12+112899999V0203401N002010075019N0300001N1+02951+00911100821ADDGF107991051091008001001021MD1710111+9999REMSYN060AAXX  05091 53192 42580 73402 10295 20091 40082 57011 85902;
0162531920999992000080512004+44010+114940FM-12+112899999V0201601N006010075019N0300001N1+02401+01321100971ADDAA106000791GF107991061091008001001021MA1999999088771MD1210121+9999MW1801REMSYN078AAXX  05121 53192 11580 71606 10240 20132 38877 40097 52012 69901 78000 86902;
0112531920999992000080515004+44010+114940FM-12+112899999V0201801N001010075019N0300001N1+02241+01321100971ADDGF107991051091008001001021MD1210081+9999REMSYN060AAXX  05151 53192 42580 71801 10224 20132 40097 52008 85902;
0167531920999992000080518004+44010+114940FM-12+112899999V0201101N001012200019N0300001N1+02121+01331100891ADDAA199000021GF101991001001999999001021KA1999M+03191MA1999999088801MD1710051+9999REMSYN076AAXX  05181 53192 32980 11101 10212 20133 38880 40089 57005 80002 333 10319;
0133531920999992000080521004+44010+114940FM-12+112899999V0209999C000012200019N0300001N1+01881+01271100991ADDAA124000791GF101991001001999999001021MD1210021+9999REMSYN070AAXX  05211 53192 42980 10000 10188 20127 40099 52002 80002 333 79999;
0160531920999992000080600004+44010+114940FM-12+112899999V0200401N001012200019N0300001N1+02251+01231101061ADDAA124000791GF101991001001999999001021MA1999999088841MD1210021-0101REMSYN082AAXX  06001 53192 32980 10401 10225 20123 38884 40106 52002 80002 333 05151 79999;
0122531920999992000080603004+44010+114940FM-12+112899999V0201601N002012200019N0300001N1+02841+01001100911ADDGA1001+999999999GF100991001001999999001001MD1710051+9999REMSYN054AAXX  06031 53192 42980 01602 10284 20100 40091 57005;
0186531920999992000080606004+44010+114940FM-12+112899999V0200701N002012200019N0300001N1+03071+00951100741ADDAA199000091GF103991021011008001001021KA1999N+01791MA1999999088661MD1710131+9999REMSYN076AAXX  06061 53192 32580 30702 10307 20095 38866 40074 57013 82102 333 20179;EQDQ01  00002PRCP99
0112531920999992000080609004+44010+114940FM-12+112899999V0201801N002010900019N0300001N1+03211+00911100621ADDGF107991021091008001001021MD1710121+9999REMSYN060AAXX  06091 53192 42580 71802 10321 20091 40062 57012 82902;
0170531920999992000080612004+44010+114940FM-12+112899999V0200701N002010900019N0300001N1+02871+00951100681ADDAA106000791AY181061GF107991041091008001001021MA1999999088601MD1210061+9999MW1001REMSYN078AAXX  06121 53192 11580 70702 10287 20095 38860 40068 52006 69901 70080 84902;
0112531920999992000080615004+44010+114940FM-12+112899999V0209999C000010900019N0300001N1+02541+01121100681ADDGF106991021041012501001021MD1210051+9999REMSYN060AAXX  06151 53192 42680 60000 10254 20112 40068 52005 82402;
0186531920999992000080618004+44010+114940FM-12+112899999V0203401N001012200019N0300001N1+02341+01151100671ADDAA199000091GF104991001001999999001021KA1999M+03291MA1999999088641MD1710011+9999REMSYN076AAXX  06181 53192 32980 43401 10234 20115 38864 40067 57001 80002 333 10329;EQDQ01  00002PRCP99
0133531920999992000080621004+44010+114940FM-12+112899999V0202701N002010900019N0300001N1+02261+01251100681ADDAA124000791GF107991021091008001001021MD1210021+9999REMSYN070AAXX  06211 53192 42580 72702 10226 20125 40068 52002 82902 333 79999;
0160531920999992000080700004+44010+114940FM-12+112899999V0201801N002019999999N0300001N1+02421+01501100791ADDAA124000791GF106991011001999999031021MA1999999088731MD1210071-0101REMSYN082AAXX  07001 53192 32980 61802 10242 20150 38873 40079 52007 81032 333 05102 79999;
0112531920999992000080703004+44010+114940FM-12+112899999V0201601N003010360019N0300001N1+02751+01301100711ADDGF107991011011008001031021MD1710071+9999REMSYN060AAXX  07031 53192 42580 71603 10275 20130 40071 57007 81132;
0186531920999992000080706004+44010+114940FM-12+112899999V0201601N004010900019N0300001N1+03001+01011100601ADDAA199000091GF107991011011008001001021KA1999N+02211MA1999999088571MD1710091+9999REMSYN076AAXX  07061 53192 32580 71604 10300 20101 38857 40060 57009 81102 333 20221;EQDQ01  00002PRCP99
0112531920999992000080709004+44010+114940FM-12+112899999V0201801N003019999999N0300001N1+02891+00861100571ADDGF108991081001999999011999MD1710061+9999REMSYN060AAXX  07091 53192 42980 81803 10289 20086 40057 57006 8801/;
0163531920999992000080712004+44010+114940FM-12+112899999V0209999C000010075019N0300001N1+02661+01241100581ADDAA199000091GF107991051091008001031021MA1999999088501MD1710011+9999REMSYN066AAXX  07121 53192 32580 70000 10266 20124 38850 40058 57001 85932;EQDQ01  00002PRCP99
0112531920999992000080715004+44010+114940FM-12+112899999V0201601N002010075019N0300001N1+02491+01021100551ADDGF107991051091008001001021MD1210011+9999REMSYN060AAXX  07151 53192 42580 71602 10249 20102 40055 52001 85902;
0186531920999992000080718004+44010+114940FM-12+112899999V0202201N003010075019N0300001N1+02271+01541100531ADDAA199000091GF107991061091008001001021KA1999M+03051MA1999999088491MD1710021+9999REMSYN076AAXX  07181 53192 32580 72203 10227 20154 38849 40053 57002 86902 333 10305;EQDQ01  00002PRCP99
0112531920999992000080721004+44010+114940FM-12+112899999V0201401N003010075019N0300001N1+02151+01511100551ADDGF107991061091008001001021MD1710021+9999REMSYN060AAXX  07211 53192 42580 71403 10215 20151 40055 57002 86902;
0173531920999992000080800004+44010+114940FM-12+112899999V0201401N006010075019N0300001N1+02091+01461100601ADDAA199000091GF107991061091008001001021MA1999999088461MD1710011+0031REMSYN076AAXX  08001 53192 32580 71406 10209 20146 38846 40060 57001 86902 333 05353;EQDQ01  00002PRCP99
0132531920999992000080803004+44010+114940FM-12+112899999V0201601N007010075019N0300001N1+02071+01651100661ADDAY181031GF107991071091008001001021MD1210011+9999MW1001REMSYN066AAXX  08031 53192 41580 71607 10207 20165 40066 52001 70080 87902;
0193531920999992000080806004+44010+114940FM-12+112899999V0201401N005010075019N0300001N1+01951+01801100621ADDAA106002091AY181061GF107991071091008001001021KA1999N+01891MA1999999088371MD1710101+9999MW1801REMSYN088AAXX  08061 53192 11580 71405 10195 20180 38837 40062 57010 60021 78080 87902 333 20189;
0132531920999992000080809004+44010+114940FM-12+112899999V0201601N004010075019N0300001N1+01971+01851100551ADDAY181031GF107991071091008001001021MD1710081+9999MW1801REMSYN066AAXX  08091 53192 41580 71604 10197 20185 40055 57008 78080 87902;
0170531920999992000080812004+44010+114940FM-12+112899999V0201601N001010075019N0300001N1+01991+01871100531ADDAA106005191AY181061GF107991061091008001001021MA1999999088271MD1710021+9999MW1001REMSYN078AAXX  08121 53192 11580 71601 10199 20187 38827 40053 57002 60051 70080 86902;
0112531920999992000080815004+44010+114940FM-12+112899999V0209999C000012200019N0300001N1+01901+01791100611ADDGF101991001001999999001021MD1210051+9999REMSYN060AAXX  08151 53192 42980 10000 10190 20179 40061 52005 80002;
0167531920999992000080818004+44010+114940FM-12+112899999V0209999C000012200019N0300001N1+01851+01731100641ADDAA199000021GF102991001001999999001021KA1999M+02271MA1999999088311MD1710011+9999REMSYN076AAXX  08181 53192 32980 20000 10185 20173 38831 40064 57001 80002 333 10227;
0143531920999992000080821004+44010+114940FM-12+112899999V0202701N001012200019N0300001N1+01691+01641100711ADDAA124006691GA1001+999999999GF100991001001999999001001MD1210031+9999REMSYN064AAXX  08211 53192 42980 02701 10169 20164 40071 52003 333 70065;
0180531920999992000080900004+44010+114940FM-12+112899999V0209999C000012200019N0300001N1+01911+01791100701ADDAA124006691AY141061GF102991001001999999001021MA1999999088381MD1210041-0101MW1001REMSYN088AAXX  09001 53192 31980 20000 10191 20179 38838 40070 52004 70040 80002 333 05152 70065;
0112531920999992000080903004+44010+114940FM-12+112899999V0201801N001012200019N0300001N1+02511+01721100511ADDGF102991021011008001001001MD1710071+9999REMSYN060AAXX  09031 53192 42580 21801 10251 20172 40051 57007 82100;
0186531920999992000080906004+44010+114940FM-12+112899999V0202201N003010075019N0300001N1+02701+01341100331ADDAA199000091GF106991061021008001001001KA1999N+01621MA1999999088181MD1710131+9999REMSYN076AAXX  09061 53192 32580 62203 10270 20134 38818 40033 57013 86200 333 20162;EQDQ01  00002PRCP99
0112531920999992000080909004+44010+114940FM-12+112899999V0203201N004012200019N0300001N1+02871+01261100211ADDGF104991041021008001001001MD1710101+9999REMSYN060AAXX  09091 53192 42580 43204 10287 20126 40021 57010 84200;
0163531920999992000080912004+44010+114940FM-12+112899999V0200201N004010075019N0300001N1+02251+01561100421ADDAA199000091GF106991051091008001001021MA1999999088191MD1210111+9999REMSYN066AAXX  09121 53192 32580 60204 10225 20156 38819 40042 52011 85902;EQDQ01  00002PRCP99
0112531920999992000080915004+44010+114940FM-12+112899999V0200901N001012200019N0300001N1+01991+01611100441ADDGF104991041091008001001021MD1210081+9999REMSYN060AAXX  09151 53192 42580 40901 10199 20161 40044 52008 84902;
0186531920999992000080918004+44010+114940FM-12+112899999V0202701N003010075019N0300001N1+01851+01481100441ADDAA199000091GF105991051091008001001021KA1999M+02941MA1999999088281MD1210011+9999REMSYN076AAXX  09181 53192 32580 52703 10185 20148 38828 40044 52001 85902 333 10294;EQDQ01  00002PRCP99
0112531920999992000080921004+44010+114940FM-12+112899999V0200401N003012200019N0300001N1+01801+01611100371ADDGF102991021091008001001001MD1710041+9999REMSYN060AAXX  09211 53192 42580 20403 10180 20161 40037 57004 82900;
0173531920999992000081000004+44010+114940FM-12+112899999V0200901N003012200019N0300001N1+02151+01801100461ADDAA199000091GF104991031001999999031021MA1999999088271MD1210031+0011REMSYN076AAXX  10001 53192 32980 40903 10215 20180 38827 40046 52003 83032 333 05102;EQDQ01  00002PRCP99
0124531920999992000081003004+44010+114940FM-12+112899999V0200901N002010075019N0300001N1+02431+01691100481ADDGF107991061091008001001021MD1210021+9999MW1801REMSYN066AAXX  10031 53192 41580 70902 10243 20169 40048 52002 78000 86902;
0193531920999992000081006004+44010+114940FM-12+112899999V0200401N004010075019N0300001N1+02531+01301100271ADDAA106000791AY181061GF107991071091008001001021KA1999N+01761MA1999999088101MD1710191+9999MW1951REMSYN088AAXX  10061 53192 11580 70404 10253 20130 38810 40027 57019 69901 79580 87902 333 20176;
0140531920999992000081009004+44010+114940FM-12+112899999V0203601N002010075019N0300001N1+02011+01571100561ADDAY191031AY281031GF107991071091008001001021MD1210141+9999MW1801REMSYN066AAXX  10091 53192 41580 73602 10201 20157 40056 52014 78098 87902;
0178531920999992000081012004+44010+114940FM-12+112899999V0200901N004010075019N0300001N1+02051+01661100471ADDAA106015091AY191061AY281061GF107991061091008001001021MA1999999088241MD1410001+9999MW1001REMSYN078AAXX  10121 53192 11580 70904 10205 20166 38824 40047 54000 60151 70098 86902;
0112531920999992000081015004+44010+114940FM-12+112899999V0200901N003012200019N0300001N1+01881+01711100491ADDGF104991001001999999001021MD1210041+9999REMSYN060AAXX  10151 53192 42980 40903 10188 20171 40049 52004 80002;
0167531920999992000081018004+44010+114940FM-12+112899999V0200701N003010900019N0300001N1+01871+01621100351ADDAA199000021GF106991011091008001001021KA1999M+02791MA1999999088171MD1710111+9999REMSYN076AAXX  10181 53192 32580 60703 10187 20162 38817 40035 57011 81902 333 10279;
0133531920999992000081021004+44010+114940FM-12+112899999V0209999C000010900019N0300001N1+01811+01651100521ADDAA124014591GF106991041091008001001021MD1210041+9999REMSYN070AAXX  10211 53192 42580 60000 10181 20165 40052 52004 84902 333 70146;
0160531920999992000081100004+44010+114940FM-12+112899999V0200901N003010360019N0300001N1+01961+01731100551ADDAA124014591GF106991021041012501031021MA1999999088271MD1210061+0001REMSYN082AAXX  11001 53192 32680 60903 10196 20173 38827 40055 52006 82432 333 00052 70146;
0214531920999992000081106004+44010+114940FM-12+112899999V0200401N001010075019N0300001N1+02211+01781100421ADDAA106016091AY191061AY281061GF107991061091008001001021HL10009KA1240N+01711MA1999999088171MD1710101+9999MW1291REMSYN094AAXX  11061 53192 11580 70401 10221 20178 38817 40042 57010 60161 72998 86902 333 20171 93906;
0112531920999992000081109004+44010+114940FM-12+112899999V0200901N004010075019N0300001N1+02231+01641100421ADDGF107991061091008001001021MD1710011+9999REMSYN060AAXX  11091 53192 42580 70904 10223 20164 40042 57001 86902;
0197531920999992000081112004+44010+114940FM-12+112899999V0200901N004010075019N0300001N1+01761+01471100731ADDAA106009991AY191061GF107991071091008001001021MA1999999088371MD1210211+9999MW1951OA130602001REMSYN094AAXX  11121 53192 11580 70904 10176 20147 38837 40073 52021 60101 79590 87902 333 91120 91522;
0140531920999992000081115004+44010+114940FM-12+112899999V0201401N001010075019N0300001N1+01831+01691100521ADDAY191031AY281031GF107991061091008001001021MD1710061+9999MW1801REMSYN066AAXX  11151 53192 41580 71401 10183 20169 40052 57006 78098 86902;
0201531920999992000081118004+44010+114940FM-12+112899999V0201101N003010075019N0300001N1+01911+01631100501ADDAA106003091AY191061AY281061GF107991061091008001001021KA1999M+02641MA1999999088251MD1710061+9999MW1001REMSYN088AAXX  11181 53192 11580 71103 10191 20163 38825 40050 57006 60031 70098 86902 333 10264;
0133531920999992000081121004+44010+114940FM-12+112899999V0209999C000012200019N0300001N1+01831+01691100511ADDAA124028791GF103991031091008001001001MD1410001+9999REMSYN070AAXX  11211 53192 42580 30000 10183 20169 40051 54000 83900 333 70288;
0160531920999992000081200004+44010+114940FM-12+112899999V0209999C000012200019N0300001N1+01991+01761100661ADDAA124028791GF101991011001999999031001MA1999999088321MD1210071+0101REMSYN082AAXX  12001 53192 32980 10000 10199 20176 38832 40066 52007 81030 333 00100 70288;
0112531920999992000081203004+44010+114940FM-12+112899999V0202701N004012200019N0300001N1+02371+01761100631ADDGF104991041021008001001021MD1210061+9999REMSYN060AAXX  12031 53192 42580 42704 10237 20176 40063 52006 84202;
0186531920999992000081206004+44010+114940FM-12+112899999V0202701N004010075019N0300001N1+02561+01621100481ADDAA199000091GF106991051021008001001021KA1999N+01651MA1999999088301MD1710081+9999REMSYN076AAXX  12061 53192 32580 62704 10256 20162 38830 40048 57008 85202 333 20165;EQDQ01  00002PRCP99
0163531920999992000081212004+44010+114940FM-12+112899999V0202201N003010900019N0300001N1+02301+01611100441ADDAA199000091GF107991021091008001001021MA1999999088231MD1210021+9999REMSYN066AAXX  12121 53192 32580 72203 10230 20161 38823 40044 52002 82902;EQDQ01  00002PRCP99
0132531920999992000081215004+44010+114940FM-12+112899999V0209999C000010075019N0300001N1+02001+01721100511ADDAY181031GF107991061091008001001021MD1210081+9999MW1801REMSYN066AAXX  12151 53192 41580 70000 10200 20172 40051 52008 78080 86902;
0193531920999992000081218004+44010+114940FM-12+112899999V0201801N004010900019N0300001N1+01941+01611100431ADDAA106000391AY181061GF107991031091008001001021KA1999M+02641MA1999999088261MD1710051+9999MW1001REMSYN088AAXX  12181 53192 11580 71804 10194 20161 38826 40043 57005 69931 70080 83902 333 10264;
0133531920999992000081221004+44010+114940FM-12+112899999V0209999C000012200019N0300001N1+01831+01691100501ADDAA124000391GF103991021091008001001021MD1210041+9999REMSYN070AAXX  12211 53192 42580 30000 10183 20169 40050 52004 82902 333 70003;
0160531920999992000081300004+44010+114940FM-12+112899999V0202201N003012200019N0300001N1+02031+01701100521ADDAA124000391GF101991011011008001001001MA1999999088311MD1210011+0001REMSYN082AAXX  13001 53192 32580 12203 10203 20170 38831 40052 52001 81100 333 00000 70003;
0112531920999992000081303004+44010+114940FM-12+112899999V0202201N003010075019N0300001N1+02431+01661100441ADDGF106991061021008001001021MD1710051+9999REMSYN060AAXX  13031 53192 42580 62203 10243 20166 40044 57005 86202;
0186531920999992000081306004+44010+114940FM-12+112899999V0202701N003012200019N0300001N1+02711+01601100271ADDAA199000091GF104991041021008001001021KA1999N+01751MA1999999088151MD1710111+9999REMSYN076AAXX  13061 53192 32580 42703 10271 20160 38815 40027 57011 84202 333 20175;EQDQ01  00002PRCP99
0162531920999992000081312004+44010+114940FM-12+112899999V0202901N002012200019N0300001N1+02421+01521100281ADDAA106000791GF104991041041012501001001MA1999999088121MD1210071+9999MW1801REMSYN078AAXX  13121 53192 11680 42902 10242 20152 38812 40028 52007 69901 78000 84400;
0142531920999992000081315004+44010+114940FM-12+112899999V0209999C000012200019N0300001N1+02151+01771100301ADDAY181031GA1001+999999999GF100991001001999999001001MD1210041+9999MW1001REMSYN060AAXX  13151 53192 41980 00000 10215 20177 40030 52004 70080;
0203531920999992000081318004+44010+114940FM-12+112899999V0209999C000012200019N0300001N1+01961+01761100211ADDAA106000791AY181061GA1001+999999999GF100991001001999999001001KA1999M+02861MA1999999088101MD1710061+9999MW1001REMSYN082AAXX  13181 53192 11980 00000 10196 20176 38810 40021 57006 69901 70080 333 10286;
0133531920999992000081321004+44010+114940FM-12+112899999V0209999C000010900019N0300001N1+01921+01671100101ADDAA124000791GF105991041091008001001021MD1710081+9999REMSYN070AAXX  13211 53192 42580 50000 10192 20167 40010 57008 84902 333 79999;
0193531920999992000081406004+44010+114940FM-12+112899999V0202501N008012200019N0300001N1+02781+00461100021ADDAA106000791AY181061GF101991011011008001001001KA1999N+01851MA1999999087951MD1710141+9999MW1001REMSYN088AAXX  14061 53192 11580 12508 10278 20046 38795 40002 57014 69901 70080 81100 333 20185;
0122531920999992000081409004+44010+114940FM-12+112899999V0202701N009012200019N0300001N1+02741-00121099971ADDGA1001+999999999GF100991001001999999001001MD1710061+9999REMSYN054AAXX  14091 53192 42980 02709 10274 21012 49997 57006;
0143531920999992000081412004+44010+114940FM-12+112899999V0202701N005012200019N0300001N1+99999+99999999999ADDAA199000091GA1001+999999999GF100991001001999999001001REMSYN059AAXX  14121 53192 32980 02705 1023 20030 38789 40004 54000;EQDQ01  00002PRCP99
0122531920999992000081415004+44010+114940FM-12+112899999V0202201N001012200019N0300001N1+01851+00741100201ADDGA1001+999999999GF100991001001999999001001MD1210121+9999REMSYN054AAXX  14151 53192 42980 02201 10185 20074 40020 52012;
0196531920999992000081418004+44010+114940FM-12+112899999V0202701N002012200019N0300001N1+01681+00791100191ADDAA199000091GA1001+999999999GF100991001001999999001001KA1999M+02841MA1999999088041MD1210031+9999REMSYN070AAXX  14181 53192 32980 02702 10168 20079 38804 40019 52003 333 10284;EQDQ01  00002PRCP99
0143531920999992000081421004+44010+114940FM-12+112899999V0202701N003012200019N0300001N1+01381+00801100321ADDAA124000791GA1001+999999999GF100991001001999999001001MD1210051+9999REMSYN064AAXX  14211 53192 42980 02703 10138 20080 40032 52005 333 79999;
0170531920999992000081500004+44010+114940FM-12+112899999V0202501N007012200019N0300001N1+01711+00691100411ADDAA124000791GA1001+999999999GF100991001001999999001001MA1999999088151MD1210061+0101REMSYN076AAXX  15001 53192 32980 02507 10171 20069 38815 40041 52006 333 00153 79999;
0122531920999992000081503004+44010+114940FM-12+112899999V0202701N006012200019N0300001N1+02111+00371100471ADDGA1001+999999999GF100991001001999999001001MD1210041+9999REMSYN054AAXX  15031 53192 42980 02706 10211 20037 40047 52004;
0186531920999992000081506004+44010+114940FM-12+112899999V0202501N005012200019N0300001N1+02431+00331100331ADDAA199000091GF101991011011008001001001KA1999N+01311MA1999999088101MD1710091+9999REMSYN076AAXX  15061 53192 32580 12505 10243 20033 38810 40033 57009 81100 333 20131;EQDQ01  00002PRCP99
0112531920999992000081509004+44010+114940FM-12+112899999V0202001N004012200019N0300001N1+02511+00451100141ADDGF102991021011008001001001MD1710211+9999REMSYN060AAXX  15091 53192 42580 22004 10251 20045 40014 57021 82100;
0112531920999992000081515004+44010+114940FM-12+112899999V0209999C000012200019N0300001N1+01501+01171100231ADDGF101991011001999999031001MD1210101+9999REMSYN060AAXX  15151 53192 42980 10000 10150 20117 40023 52010 81030;
0186531920999992000081518004+44010+114940FM-12+112899999V0209999C000012200019N0300001N1+01391+01141100171ADDAA199000091GF101991011051012501001001KA1999M+02941MA1999999087901MD1710011+9999REMSYN076AAXX  15181 53192 32680 10000 10139 20114 38790 40017 57001 81500 333 10294;EQDQ01  00002PRCP99
0133531920999992000081521004+44010+114940FM-12+112899999V0202701N004012200019N0300001N1+01371+00911100311ADDAA124000591GF101991001001999999001021MD1210141+9999REMSYN070AAXX  15211 53192 42980 12704 10137 20091 40031 52014 80002 333 70004;
0160531920999992000081600004+44010+114940FM-12+112899999V0202701N004012200019N0300001N1+01601+00971100721ADDAA124000591GF101991001001999999001021MA1999999088241MD1210201+0101REMSYN082AAXX  16001 53192 32980 12704 10160 20097 38824 40072 52020 80002 333 00151 70004;
0112531920999992000081603004+44010+114940FM-12+112899999V0202701N007012200019N0300001N1+02071-00061100701ADDGF101991011011008001001001MD1210081+9999REMSYN060AAXX  16031 53192 42580 12707 10207 21006 40070 52008 81100;
0186531920999992000081606004+44010+114940FM-12+112899999V0202701N007012200019N0300001N1+02271-00171100671ADDAA199000091GF102991001001999999001021KA1999N+01251MA1999999088311MD1710011+9999REMSYN076AAXX  16061 53192 32980 22707 10227 21017 38831 40067 57001 80002 333 20125;EQDQ01  00002PRCP99
0112531920999992000081609004+44010+114940FM-12+112899999V0202701N008012200019N0300001N1+02291-00051100741ADDGF101991001001999999001021MD1210061+9999REMSYN060AAXX  16091 53192 42980 12708 10229 21005 40074 52006 80002;
0163531920999992000081612004+44010+114940FM-12+112899999V0202901N003012200019N0300001N1+01951+00341100901ADDAA199000091GF101991001001999999001021MA1999999088491MD1210121+9999REMSYN066AAXX  16121 53192 32980 12903 10195 20034 38849 40090 52012 80002;EQDQ01  00002PRCP99
0112531920999992000081615004+44010+114940FM-12+112899999V0209999C000012200019N0300001N1+01591+00631100981ADDGF101991001001999999001021MD1210091+9999REMSYN060AAXX  16151 53192 42980 10000 10159 20063 40098 52009 80002;
0186531920999992000081618004+44010+114940FM-12+112899999V0203601N001019999999N0300001N1+01401+00641101081ADDAA199000091GF107991001001999999001021KA1999M+02361MA1999999088671MD1210091+9999REMSYN076AAXX  16181 53192 32980 73601 10140 20064 38867 40108 52009 80002 333 10236;EQDQ01  00002PRCP99
0112531920999992000081621004+44010+114940FM-12+112899999V0200401N001019999999N0300001N1+01361+00591101111ADDGF107991001001999999001021MD1210021+9999REMSYN060AAXX  16211 53192 42980 70401 10136 20059 40111 52002 80002;
0189531920999992000081700004+44010+114940FM-12+112899999V0203601N001019999999N0300001N1+01631+00681101722ADDAA199000091GF105991001001999999001021MA1999999088821MD1210131+0061REMSYN076AAXX  17001 53192 32980 53601 10163 20068 38882 40172 52013 80002 333 00600;EQDQ01+101723APOSLPQ02  00002PRCP99
0112531920999992000081703004+44010+114940FM-12+112899999V0201801N003012200019N0300001N1+02351+00451101241ADDGF101991011001999999031021MD1210041+9999REMSYN060AAXX  17031 53192 42980 11803 10235 20045 40124 52004 81032;
0186531920999992000081706004+44010+114940FM-12+112899999V0202701N005010075019N0300001N1+02481+00531101151ADDAA199000091GF106991061021008001001021KA1999N+01291MA1999999088771MD1710091+9999REMSYN076AAXX  17061 53192 32580 62705 10248 20053 38877 40115 57009 86202 333 20129;EQDQ01  00002PRCP99
0112531920999992000081709004+44010+114940FM-12+112899999V0201801N005010075019N0300001N1+02491+00731101121ADDGF106991061091008001001021MD1710031+9999REMSYN060AAXX  17091 53192 42580 61805 10249 20073 40112 57003 86902;
0163531920999992000081712004+44010+114940FM-12+112899999V0201801N002012200019N0300001N1+02111+00711101241ADDAA199000091GF101991011041012501001001MA1999999088821MD1210081+9999REMSYN066AAXX  17121 53192 32680 11802 10211 20071 38882 40124 52008 81400;EQDQ01  00002PRCP99
0122531920999992000081715004+44010+114940FM-12+112899999V0201801N002012200019N0300001N1+01891+00741101131ADDGA1001+999999999GF100991001001999999001001MD1210011+9999REMSYN054AAXX  17151 53192 42980 01802 10189 20074 40113 52001;
0186531920999992000081718004+44010+114940FM-12+112899999V0201601N002012200019N0300001N1+01591+00941101171ADDAA199000091GF101991001001999999001021KA1999M+02631MA1999999088831MD1410001+9999REMSYN076AAXX  17181 53192 32980 11602 10159 20094 38883 40117 54000 80002 333 10263;EQDQ01  00002PRCP99
0112531920999992000081721004+44010+114940FM-12+112899999V0209999C000012200019N0300001N1+01491+01001101171ADDGF103991011001999999031021MD1710021+9999REMSYN060AAXX  17211 53192 42980 30000 10149 20100 40117 57002 81032;
0173531920999992000081800004+44010+114940FM-12+112899999V0200701N003019999999N0300001N1+01781+01081101211ADDAA199000091GF106991001001999999001021MA1999999088831MD1210021+0001REMSYN076AAXX  18001 53192 32980 60703 10178 20108 38883 40121 52002 80002 333 00002;EQDQ01  00002PRCP99
0112531920999992000081803004+44010+114940FM-12+112899999V0202001N002012200019N0300001N1+02231+01311101131ADDGF102991011001999999031021MD1710031+9999REMSYN060AAXX  18031 53192 42980 22002 10223 20131 40113 57003 81032;
0186531920999992000081806004+44010+114940FM-12+112899999V0202701N004010360019N0300001N1+02641+01031100851ADDAA199000091GF106991031011008001031021KA1999N+01341MA1999999088581MD1710221+9999REMSYN076AAXX  18061 53192 32580 62704 10264 20103 38858 40085 57022 83132 333 20134;EQDQ01  00002PRCP99
0132531920999992000081809004+44010+114940FM-12+112899999V0201801N004010075019N0300001N1+02561+00871100811ADDAY181031GF107991061091008001001021MD1710071+9999MW1001REMSYN066AAXX  18091 53192 41580 71804 10256 20087 40081 57007 70080 86902;
0170531920999992000081812004+44010+114940FM-12+112899999V0202201N003010075019N0300001N1+01931+01181101041ADDAA106000791AY181061GF107991051091008001001021MA1999999088641MD1210131+9999MW1801REMSYN078AAXX  18121 53192 11580 72203 10193 20118 38864 40104 52013 69901 78080 85902;
0132531920999992000081815004+44010+114940FM-12+112899999V0209999C000010075019N0300001N1+01711+01081101051ADDAY181031GF107991051091008001001021MD1210061+9999MW1001REMSYN066AAXX  18151 53192 41580 70000 10171 20108 40105 52006 70080 85902;
0193531920999992000081818004+44010+114940FM-12+112899999V0209999C000010900019N0300001N1+01611+01211101011ADDAA106000791AY181061GF106991021051012501001021KA1999M+02741MA1999999088721MD1210021+9999MW1001REMSYN088AAXX  18181 53192 11680 60000 10161 20121 38872 40101 52002 69901 70080 82502 333 10274;
0133531920999992000081821004+44010+114940FM-12+112899999V0200201N004012200019N0300001N1+01201+00881101141ADDAA124000791GF101991001001999999001021MD1210021+9999REMSYN070AAXX  18211 53192 42980 10204 10120 20088 40114 52002 80002 333 79999;
0160531920999992000081900004+44010+114940FM-12+112899999V0200401N007010075019N0300001N1+01471+01001101311ADDAA124000791GF105991051091008001001021MA1999999088821MD1210081+0001REMSYN082AAXX  19001 53192 32580 50407 10147 20100 38882 40131 52008 85902 333 00053 79999;
0112531920999992000081903004+44010+114940FM-12+112899999V0200701N007010075019N0300001N1+01751+00921101371ADDGF107991061021008001001021MD1210061+9999REMSYN060AAXX  19031 53192 42580 70707 10175 20092 40137 52006 86202;
0186531920999992000081906004+44010+114940FM-12+112899999V0200401N006010075019N0300001N1+02041+00481101311ADDAA199000091GF106991051011008001001021KA1999N+01181MA1999999088871MD1710011+9999REMSYN076AAXX  19061 53192 32580 60406 10204 20048 38887 40131 57001 85102 333 20118;EQDQ01  00002PRCP99
0112531920999992000081909004+44010+114940FM-12+112899999V0200201N005012200019N0300001N1+02111+00271101361ADDGF104991041011008001001001MD1710031+9999REMSYN060AAXX  19091 53192 42580 40205 10211 20027 40136 57003 84100;
0163531920999992000081912004+44010+114940FM-12+112899999V0200401N004012200019N0300001N1+01701+00391101481ADDAA199000091GF101991011041012501001001MA1999999088921MD1210081+9999REMSYN066AAXX  19121 53192 32680 10404 10170 20039 38892 40148 52008 81400;EQDQ01  00002PRCP99
0122531920999992000081915004+44010+114940FM-12+112899999V0203601N001012200019N0300001N1+01221+00431101631ADDGA1001+999999999GF100991001001999999001001MD1210091+9999REMSYN054AAXX  19151 53192 42980 03601 10122 20043 40163 52009;
0196531920999992000081918004+44010+114940FM-12+112899999V0203601N002012200019N0300001N1+01071+00391101611ADDAA199000091GA1001+999999999GF100991001001999999001001KA1999M+02151MA1999999089021MD1210011+9999REMSYN070AAXX  19181 53192 32980 03602 10107 20039 38902 40161 52001 333 10215;EQDQ01  00002PRCP99
0122531920999992000081921004+44010+114940FM-12+112899999V0209999C000012200019N0300001N1+00911+00401101711ADDGA1001+999999999GF100991001001999999001001MD1210071+9999REMSYN054AAXX  19211 53192 42980 00000 10091 20040 40171 52007;
0201531920999992000082000004+44010+114940FM-12+112899999V0209999C000012200019N0300001N1+01331+00481101691ADDAA199000091GA1001+999999999GF100991001001999999001001IA2999+00509MA1999999089081MD1710011+0301REMSYN076AAXX  20001 53192 32980 00000 10133 20048 38908 40169 57001 333 00351 30050;EQDQ01  00002PRCP99
0112531920999992000082003004+44010+114940FM-12+112899999V0200901N002012200019N0300001N1+01911+00231101621ADDGF101991001001999999001021MD1710041+9999REMSYN060AAXX  20031 53192 42980 10902 10191 20023 40162 57004 80002;
0186531920999992000082006004+44010+114940FM-12+112899999V0200401N002012200019N0300001N1+02211-00081101451ADDAA199000091GF101991001001999999001021KA1999N+00801MA1999999088921MD1710121+9999REMSYN076AAXX  20061 53192 32980 10402 10221 21008 38892 40145 57012 80002 333 20080;EQDQ01  00002PRCP99
0112531920999992000082009004+44010+114940FM-12+112899999V0200401N002012200019N0300001N1+02251-00191101341ADDGF101991001001999999001021MD1710121+9999REMSYN060AAXX  20091 53192 42980 10402 10225 21019 40134 57012 80002;
0163531920999992000082012004+44010+114940FM-12+112899999V0209999C000019999999N0300001N1+01951-00021101291ADDAA199000091GF106991001001999999001021MA1999999088781MD1710021+9999REMSYN066AAXX  20121 53192 32980 60000 10195 21002 38878 40129 57002 80002;EQDQ01  00002PRCP99
0122531920999992000082015004+44010+114940FM-12+112899999V0209999C000012200019N0300001N1+01491+00251101331ADDGA1001+999999999GF100991001001999999001001MD1210061+9999REMSYN054AAXX  20151 53192 42980 00000 10149 20025 40133 52006;
0186531920999992000082018004+44010+114940FM-12+112899999V0200401N003019999999N0300001N1+01261+00081101311ADDAA199000091GF105991001001999999001021KA1999M+02291MA1999999088831MD1710011+9999REMSYN076AAXX  20181 53192 32980 50403 10126 20008 38883 40131 57001 80002 333 10229;EQDQ01  00002PRCP99
0112531920999992000082021004+44010+114940FM-12+112899999V0200201N002019999999N0300001N1+01231+00161101251ADDGF106991001001999999001021MD1710051+9999REMSYN060AAXX  20211 53192 42980 60202 10123 20016 40125 57005 80002;
0173531920999992000082100004+44010+114940FM-12+112899999V0209999C000012200019N0300001N1+01561+00431101241ADDAA199000091GF102991001001999999001021MA1999999088781MD1410001+0031REMSYN076AAXX  21001 53192 32980 20000 10156 20043 38878 40124 54000 80002 333 05302;EQDQ01  00002PRCP99
0112531920999992000082103004+44010+114940FM-12+112899999V0201401N004012200019N0300001N1+02211+00071101101ADDGF102991001001999999001021MD1710091+9999REMSYN060AAXX  21031 53192 42980 21404 10221 20007 40110 57009 80002;
0186531920999992000082106004+44010+114940FM-12+112899999V0201601N002012200019N0300001N1+02421+00241100941ADDAA199000091GF102991011001999999031021KA1999N+01121MA1999999088551MD1710141+9999REMSYN076AAXX  21061 53192 32980 21602 10242 20024 38855 40094 57014 81032 333 20112;EQDQ01  00002PRCP99
0112531920999992000082109004+44010+114940FM-12+112899999V0201401N001012200019N0300001N1+02501+00021100841ADDGF102991011001999999031021MD1710081+9999REMSYN060AAXX  21091 53192 42980 21401 10250 20002 40084 57008 81032;
0163531920999992000082112004+44010+114940FM-12+112899999V0209999C000010075019N0300001N1+02271+00221100841ADDAA199000091GF107991061091008001001021MA1999999088491MD1210021+9999REMSYN066AAXX  21121 53192 32580 70000 10227 20022 38849 40084 52002 86902;EQDQ01  00002PRCP99
0112531920999992000082115004+44010+114940FM-12+112899999V0200901N002010075019N0300001N1+02031+00441100701ADDGF107991061091008001001021MD1710041+9999REMSYN060AAXX  21151 53192 42580 70902 10203 20044 40070 57004 86902;
0186531920999992000082118004+44010+114940FM-12+112899999V0200901N001010360019N0300001N1+01851+00671100641ADDAA199000091GF107991031041012501031021KA1999M+02551MA1999999088401MD1710051+9999REMSYN076AAXX  21181 53192 32680 70901 10185 20067 38840 40064 57005 83432 333 10255;EQDQ01  00002PRCP99
0112531920999992000082121004+44010+114940FM-12+112899999V0201801N002010900019N0300001N1+01801+00791100531ADDGF107991031091008001001021MD1710091+9999REMSYN060AAXX  21211 53192 42580 71802 10180 20079 40053 57009 83902;
0186531920999992000082200004+44010+114940FM-12+112899999V0202001N005010075019N0300001N1+01471+01321100741ADDAA106003091AY181061GF107991071091008001001021MA1999999088391MD1210081-0401MW1801REMSYN094AAXX  22001 53192 11580 72005 10147 20132 38839 40074 52008 60031 78080 87902 333 05451 70026;
0132531920999992000082203004+44010+114940FM-12+112899999V0202201N005010075019N0300001N1+01591+01321100891ADDAY181031GF107991051091008001001021MD1210101+9999MW1001REMSYN066AAXX  22031 53192 41580 72205 10159 20132 40089 52010 70080 85902;
0193531920999992000082206004+44010+114940FM-12+112899999V0202501N003010075019N0300001N1+01711+01271100811ADDAA106002091AY181061GF107991061091008001001021KA1999N+01341MA1999999088411MD1710081+9999MW1001REMSYN088AAXX  22061 53192 11580 72503 10171 20127 38841 40081 57008 60021 70080 86902 333 20134;
0132531920999992000082209004+44010+114940FM-12+112899999V0202201N002010360019N0300001N1+01931+01331100631ADDAY181031GF106991031091008001031021MD1710121+9999MW1001REMSYN066AAXX  22091 53192 41580 62202 10193 20133 40063 57012 70080 83932;
0170531920999992000082212004+44010+114940FM-12+112899999V0202901N003010075019N0300001N1+01441+01081100961ADDAA106005191AY181061GF107991071091008001001021MA1999999088411MD1210121+9999MW1951REMSYN078AAXX  22121 53192 11580 72903 10144 20108 38841 40096 52012 60051 79580 87902;
0140531920999992000082215004+44010+114940FM-12+112899999V0202701N001010075019N0300001N1+01451+01311100911ADDAY191031AY281031GF107991061091008001001021MD1710011+9999MW1801REMSYN066AAXX  22151 53192 41580 72701 10145 20131 40091 57001 78098 86902;
0201531920999992000082218004+44010+114940FM-12+112899999V0202501N003010075019N0300001N1+01451+01301100891ADDAA106005191AY191061AY281061GF106991061091008001001021KA1999M+02041MA1999999088401MD1410001+9999MW1001REMSYN088AAXX  22181 53192 11580 62503 10145 20130 38840 40089 54000 60051 70098 86902 333 10204;
0133531920999992000082221004+44010+114940FM-12+112899999V0202501N003019999999N0300001N1+01381+01261100921ADDAA124014091GF106991001001999999001021MD1210061+9999REMSYN070AAXX  22211 53192 42980 62503 10138 20126 40092 52006 80002 333 70139;
0160531920999992000082300004+44010+114940FM-12+112899999V0202901N003010900019N0300001N1+01461+01221101221ADDAA124011291GF106991041021008001001021MA1999999088641MD1210181+0301REMSYN082AAXX  23001 53192 32580 62903 10146 20122 38864 40122 52018 84202 333 00300 70113;
0112531920999992000082303004+44010+114940FM-12+112899999V0202701N003012200019N0300001N1+01851+01281101161ADDGF104991041021008001001021MD1210031+9999REMSYN060AAXX  23031 53192 42580 42703 10185 20128 40116 52003 84202;
0193531920999992000082306004+44010+114940FM-12+112899999V0202501N003010075019N0300001N1+01921+01191101091ADDAA106000791AY181061GF105991051091008001001001KA1999N+01271MA1999999088621MD1710051+9999MW1251REMSYN088AAXX  23061 53192 11580 52503 10192 20119 38862 40109 57005 69901 72580 85900 333 20127;
0112531920999992000082309004+44010+114940FM-12+112899999V0202901N006012200019N0300001N1+02231+00691100951ADDGF103991031021008001001001MD1710081+9999REMSYN060AAXX  23091 53192 42580 32906 10223 20069 40095 57008 83200;
0144531920999992000082312004+44010+114940FM-12+112899999V0203201N003012200019N0300001N1+01821+00941101131ADDAA199000021GF101991011041012501001001MA1999999088641MD1210101+9999REMSYN066AAXX  23121 53192 32680 13203 10182 20094 38864 40113 52010 81400;
0122531920999992000082315004+44010+114940FM-12+112899999V0203401N004012200019N0300001N1+01581+00861101201ADDGA1001+999999999GF100991001001999999001001MD1210091+9999REMSYN054AAXX  23151 53192 42980 03404 10158 20086 40120 52009;
0177531920999992000082318004+44010+114940FM-12+112899999V0209999C000012200019N0300001N1+01271+01001101281ADDAA199000021GA1001+999999999GF100991001001999999001001KA1999M+02311MA1999999088751MD1210021+9999REMSYN070AAXX  23181 53192 32980 00000 10127 20100 38875 40128 52002 333 10231;
0143531920999992000082321004+44010+114940FM-12+112899999V0209999C000012200019N0300001N1+01121+00951101251ADDAA124000791GA1001+999999999GF100991001001999999001001MD1210011+9999REMSYN064AAXX  23211 53192 42980 00000 10112 20095 40125 52001 333 79999;
0170531920999992000082400004+44010+114940FM-12+112899999V0209999C000012200019N0300001N1+01471+01101101461ADDAA124000791GA1001+999999999GF100991001001999999001001MA1999999088931MD1210171+0301REMSYN076AAXX  24001 53192 32980 00000 10147 20110 38893 40146 52017 333 00300 79999;
0112531920999992000082403004+44010+114940FM-12+112899999V0202501N004012200019N0300001N1+02081+01121101371ADDGF101991011011008001001021MD1710011+9999REMSYN060AAXX  24031 53192 42580 12504 10208 20112 40137 57001 81102;
0186531920999992000082406004+44010+114940FM-12+112899999V0202501N005012200019N0300001N1+02361+00631101241ADDAA199000091GF102991021011008001001021KA1999N+01051MA1999999088801MD1710121+9999REMSYN076AAXX  24061 53192 32580 22505 10236 20063 38880 40124 57012 82102 333 20105;EQDQ01  00002PRCP99
0112531920999992000082409004+44010+114940FM-12+112899999V0202501N005012200019N0300001N1+02461+00441101071ADDGF103991021021008001001021MD1710161+9999REMSYN060AAXX  24091 53192 42580 32505 10246 20044 40107 57016 82202;
0163531920999992000082412004+44010+114940FM-12+112899999V0202501N002012200019N0300001N1+02031+00971101131ADDAA199000091GF101991011041012501001001MA1999999088681MD1210041+9999REMSYN066AAXX  24121 53192 32680 12502 10203 20097 38868 40113 52004 81400;EQDQ01  00002PRCP99
0122531920999992000082415004+44010+114940FM-12+112899999V0202701N002012200019N0300001N1+01681+01061101061ADDGA1001+999999999GF100991001001999999001001MD1710011+9999REMSYN054AAXX  24151 53192 42980 02702 10168 20106 40106 57001;
0196531920999992000082418004+44010+114940FM-12+112899999V0200201N001012200019N0300001N1+01561+00921100981ADDAA199000091GA1001+999999999GF100991001001999999001001KA1999M+02511MA1999999088631MD1710041+9999REMSYN070AAXX  24181 53192 32980 00201 10156 20092 38863 40098 57004 333 10251;EQDQ01  00002PRCP99
0112531920999992000082421004+44010+114940FM-12+112899999V0200401N001012200019N0300001N1+01451+00921100981ADDGF102991021041012501001001MD1410001+9999REMSYN060AAXX  24211 53192 42680 20401 10145 20092 40098 54000 82400;
0173531920999992000082500004+44010+114940FM-12+112899999V0209999C000010075019N0300001N1+01721+01091101021ADDAA199000091GF105991051011008001001021MA1999999088631MD1410001+0031REMSYN076AAXX  25001 53192 32580 50000 10172 20109 38863 40102 54000 85102 333 05303;EQDQ01  00002PRCP99
0112531920999992000082503004+44010+114940FM-12+112899999V0201101N001012200019N0300001N1+02391+00781100901ADDGF101991011011008001001021MD1710041+9999REMSYN060AAXX  25031 53192 42580 11101 10239 20078 40090 57004 81102;
0186531920999992000082506004+44010+114940FM-12+112899999V0200401N004012200019N0300001N1+02651+00841100691ADDAA199000091GF102991021011008001031001KA1999N+01381MA1999999088431MD1710161+9999REMSYN076AAXX  25061 53192 32580 20404 10265 20084 38843 40069 57016 82130 333 20138;EQDQ01  00002PRCP99
0112531920999992000082509004+44010+114940FM-12+112899999V0200701N004012200019N0300001N1+02551+00931100691ADDGF101991011011008001001021MD1710041+9999REMSYN060AAXX  25091 53192 42580 10704 10255 20093 40069 57004 81102;
0163531920999992000082512004+44010+114940FM-12+112899999V0200701N003012200019N0300001N1+02151+00771100891ADDAA199000091GF102991011041012501001021MA1999999088541MD1210151+9999REMSYN066AAXX  25121 53192 32680 20703 10215 20077 38854 40089 52015 81402;EQDQ01  00002PRCP99
0112531920999992000082515004+44010+114940FM-12+112899999V0200901N003012200019N0300001N1+01771+00671100921ADDGF101991001001999999001021MD1210091+9999REMSYN060AAXX  25151 53192 42980 10903 10177 20067 40092 52009 80002;
0186531920999992000082518004+44010+114940FM-12+112899999V0200401N001012200019N0300001N1+01581+00771100851ADDAA199000091GF101991001001999999001021KA1999M+02741MA1999999088581MD1710051+9999REMSYN076AAXX  25181 53192 32980 10401 10158 20077 38858 40085 57005 80002 333 10274;EQDQ01  00002PRCP99
0122531920999992000082521004+44010+114940FM-12+112899999V0209999C000012200019N0300001N1+01311+00881100831ADDGA1001+999999999GF100991001001999999001001MD1710091+9999REMSYN054AAXX  25211 53192 42980 00000 10131 20088 40083 57009;
0173531920999992000082600004+44010+114940FM-12+112899999V0200701N004012200019N0300001N1+01651+00801100851ADDAA199000091GF102991021011008001001001MA1999999088491MD1410001+0011REMSYN076AAXX  26001 53192 32580 20704 10165 20080 38849 40085 54000 82100 333 05151;EQDQ01  00002PRCP99
0112531920999992000082603004+44010+114940FM-12+112899999V0201601N003012200019N0300001N1+02281+00911100741ADDGF102991011011008001001021MD1710041+9999REMSYN060AAXX  26031 53192 42580 21603 10228 20091 40074 57004 81102;
0186531920999992000082606004+44010+114940FM-12+112899999V0201801N002010360019N0300001N1+02541+00941100561ADDAA199000091GF106991021011008001031021KA1999N+01251MA1999999088301MD1710151+9999REMSYN076AAXX  26061 53192 32580 61802 10254 20094 38830 40056 57015 82132 333 20125;EQDQ01  00002PRCP99
0140531920999992000082609004+44010+114940FM-12+112899999V0209999C000010075019N0300001N1+01561+01341101091ADDAY191031AY281031GF107991071091008001001021MD1210221+9999MW1801REMSYN066AAXX  26091 53192 41580 70000 10156 20134 40109 52022 78098 87902;
0205531920999992000082612004+44010+114940FM-12+112899999V0200701N002010900019N0300001N1+01711+01291100901ADDAA106007991AY191061AY281061GF105991031091008001001021MA1999999088451MD1710071+9999MW1001OA130602001REMSYN094AAXX  26121 53192 11580 50702 10171 20129 38845 40090 57007 60081 70098 83902 333 91120 91520;
0132531920999992000082615004+44010+114940FM-12+112899999V0200201N005010075019N0300001N1+01511+01141101041ADDAY191031GF107991061091008001001021MD1210211+9999MW1951REMSYN066AAXX  26151 53192 41580 70205 10151 20114 40104 52021 79590 86902;
0201531920999992000082618004+44010+114940FM-12+112899999V0200701N004012200019N0300001N1+01471+01151100841ADDAA106002091AY191061AY281061GF102991011091008001001021KA1999M+02581MA1999999088531MD1710131+9999MW1001REMSYN088AAXX  26181 53192 11580 20704 10147 20115 38853 40084 57013 60021 70098 81902 333 10258;
0133531920999992000082621004+44010+114940FM-12+112899999V0200701N003012200019N0300001N1+01471+01151101091ADDAA124010791GF102991011091008001001021MD1210021+9999REMSYN070AAXX  26211 53192 42580 20703 10147 20115 40109 52002 81902 333 70106;
0160531920999992000082700004+44010+114940FM-12+112899999V0200901N003012200019N0300001N1+01621+01301101051ADDAA124010791GF101991011041012501001001MA1999999088581MD1210031+0101REMSYN082AAXX  27001 53192 32680 10903 10162 20130 38858 40105 52003 81400 333 00100 70106;
0112531920999992000082703004+44010+114940FM-12+112899999V0200901N003012200019N0300001N1+02221+01451100931ADDGF101991011011012501001021MD1710031+9999REMSYN060AAXX  27031 53192 42680 10903 10222 20145 40093 57003 81102;
0185531920999992000082706004+44010+114940FM-12+112899999V0202001N006010075019N0300001N1+02391+01061100741ADDAA106000791GF107991061091008001001021KA1999N+01331MA1999999088411MD1710141+9999MW1951REMSYN088AAXX  27061 53192 11580 72006 10239 20106 38841 40074 57014 69901 79500 86902 333 20133;
0112531920999992000082709004+44010+114940FM-12+112899999V0202001N005010900019N0300001N1+02481+01081100731ADDGF105991021091008001001021MD1210011+9999REMSYN060AAXX  27091 53192 42580 52005 10248 20108 40073 52001 82902;
0195531920999992000082712004+44010+114940FM-12+112899999V0200901N001010075019N0300001N1+02101+00941100971ADDAA106005191AY191061AY281061GF106991051091008001001021HL10009MA1999999088581MD1210161+9999MW1001REMSYN088AAXX  27121 53192 11580 60901 10210 20094 38858 40097 52016 60051 70098 85902 333 93905;
0112531920999992000082715004+44010+114940FM-12+112899999V0202001N005012200019N0300001N1+01741+00951100941ADDGF102991021091008001001001MD1210021+9999REMSYN060AAXX  27151 53192 42580 22005 10174 20095 40094 52002 82900;
0167531920999992000082718004+44010+114940FM-12+112899999V0201601N005012200019N0300001N1+01631+00921100931ADDAA199000021GF101991011091008001001001KA1999M+02611MA1999999088611MD1210011+9999REMSYN076AAXX  27181 53192 32580 11605 10163 20092 38861 40093 52001 81900 333 10261;
0133531920999992000082721004+44010+114940FM-12+112899999V0209999C000019999999N0300001N1+01441+00951100961ADDAA124004691GF107991001001999999001021MD1410001+9999REMSYN070AAXX  27211 53192 42980 70000 10144 20095 40096 54000 80002 333 70045;
0160531920999992000082800004+44010+114940FM-12+112899999V0201401N001019999999N0300001N1+01611+01041101161ADDAA124004691GF106991001001999999001021MA1999999088751MD1210141+0201REMSYN082AAXX  28001 53192 32980 61401 10161 20104 38875 40116 52014 80002 333 00200 70045;
0112531920999992000082803004+44010+114940FM-12+112899999V0201601N005010360019N0300001N1+01851+01121101261ADDGF107991011091008001031021MD1210061+9999REMSYN060AAXX  28031 53192 42580 71605 10185 20112 40126 52006 81932;
0186531920999992000082806004+44010+114940FM-12+112899999V0202001N007010900019N0300001N1+02091+01051101051ADDAA199000091GF107991011011008001001021KA1999N+01281MA1999999088651MD1710161+9999REMSYN076AAXX  28061 53192 32580 72007 10209 20105 38865 40105 57016 81102 333 20128;EQDQ01  00002PRCP99
0124531920999992000082809004+44010+114940FM-12+112899999V0202201N007010075019N0300001N1+01971+00371101071ADDGF107991071091008001001021MD1710041+9999MW1801REMSYN066AAXX  28091 53192 41580 72207 10197 20037 40107 57004 78000 87902;
0178531920999992000082812004+44010+114940FM-12+112899999V0209999C000010900019N0300001N1+01461+01131101101ADDAA106001091AY191061AY281061GF106991021091008001001021MA1999999088571MD1710041+9999MW1001REMSYN078AAXX  28121 53192 11580 60000 10146 20113 38857 40110 57004 69991 70098 82902;
0112531920999992000082815004+44010+114940FM-12+112899999V0209999C000012200019N0300001N1+01331+00941101191ADDGF101991001001999999001021MD1210101+9999REMSYN060AAXX  28151 53192 42980 10000 10133 20094 40119 52010 80002;
0177531920999992000082818004+44010+114940FM-12+112899999V0201401N001012200019N0300001N1+01171+00951101141ADDAA199000021GA1001+999999999GF100991001001999999001001KA1999M+02251MA1999999088641MD1710031+9999REMSYN070AAXX  28181 53192 32980 01401 10117 20095 38864 40114 57003 333 10225;
0143531920999992000082821004+44010+114940FM-12+112899999V0209999C000012200019N0300001N1+00971+00841101191ADDAA124001091GA1001+999999999GF100991001001999999001001MD1710021+9999REMSYN064AAXX  28211 53192 42980 00000 10097 20084 40119 57002 333 70009;
0170531920999992000082900004+44010+114940FM-12+112899999V0209999C000012200019N0300001N1+01321+00971101251ADDAA124001091GA1001+999999999GF100991001001999999001001MA1999999088641MD1210021-0101REMSYN076AAXX  29001 53192 32980 00000 10132 20097 38864 40125 52002 333 05153 70009;
0112531920999992000082903004+44010+114940FM-12+112899999V0202001N002012200019N0300001N1+01991+01231101111ADDGF101991001001999999001021MD1710011+9999REMSYN060AAXX  29031 53192 42980 12002 10199 20123 40111 57001 80002;
0186531920999992000082906004+44010+114940FM-12+112899999V0202201N002012200019N0300001N1+02291+00601100891ADDAA199000091GF102991021011008001001021KA1999N+00871MA1999999088461MD1710171+9999REMSYN076AAXX  29061 53192 32580 22202 10229 20060 38846 40089 57017 82102 333 20087;EQDQ01  00002PRCP99
0097531920999992000082909004+44010+114940FM-12+112899999V0202901N002012200019N0300001N1+02381+00481999999ADDGF101991999999008001999999REMSYN059AAXX  29091 53192 42580 12902 10238 20048 4073 57016 81102;
0173531920999992000082912004+44010+114940FM-12+112899999V0209999C000012200019N0300001N1+01941+01091100811ADDAA199000091GA1001+999999999GF100991001001999999001001MA1999999088351MD1210051+9999REMSYN060AAXX  29121 53192 32980 00000 10194 20109 38835 40081 52005;EQDQ01  00002PRCP99
0112531920999992000082915004+44010+114940FM-12+112899999V0200401N002012200019N0300001N1+01681+01021100841ADDGF104991021041012501001021MD1210111+9999REMSYN060AAXX  29151 53192 42680 40402 10168 20102 40084 52011 82402;
0196531920999992000082918004+44010+114940FM-12+112899999V0202201N002012200019N0300001N1+01651+01011100731ADDAA199000091GA1001+999999999GF100991001001999999001001KA1999M+02391MA1999999088421MD1710041+9999REMSYN070AAXX  29181 53192 32980 02202 10165 20101 38842 40073 57004 333 10239;EQDQ01  00002PRCP99
0122531920999992000082921004+44010+114940FM-12+112899999V0209999C000012200019N0300001N1+01401+01061100681ADDGA1001+999999999GF100991001001999999001001MD1710081+9999REMSYN054AAXX  29211 53192 42980 00000 10140 20106 40068 57008;
0173531920999992000083000004+44010+114940FM-12+112899999V0209999C000019999999N0300001N1+01581+01181100941ADDAA199000091GF107991021001999999031021MA1999999088521MD1210181+0011REMSYN076AAXX  30001 53192 32980 70000 10158 20118 38852 40094 52018 82032 333 05103;EQDQ01  00002PRCP99
0112531920999992000083003004+44010+114940FM-12+112899999V0202201N003019999999N0300001N1+02011+01031100901ADDGF107991001001999999001021MD1410001+9999REMSYN060AAXX  30031 53192 42980 72203 10201 20103 40090 54000 80002;
0186531920999992000083006004+44010+114940FM-12+112899999V0201801N004019999999N0300001N1+02331+00891100701ADDAA199000091GF107991001001999999001021KA1999N+01251MA1999999088401MD1710121+9999REMSYN076AAXX  30061 53192 32980 71804 10233 20089 38840 40070 57012 80002 333 20125;EQDQ01  00002PRCP99
0112531920999992000083009004+44010+114940FM-12+112899999V0201801N008010900019N0300001N1+02171+00901100741ADDGF107991021091008001001021MD1710051+9999REMSYN060AAXX  30091 53192 42580 71808 10217 20090 40074 57005 82902;
0163531920999992000083012004+44010+114940FM-12+112899999V0200901N001012200019N0300001N1+01771+00821100831ADDAA199000091GF104991011041012501001021MA1999999088391MD1210041+9999REMSYN066AAXX  30121 53192 32680 40901 10177 20082 38839 40083 52004 81402;EQDQ01  00002PRCP99
0122531920999992000083015004+44010+114940FM-12+112899999V0200901N005012200019N0300001N1+01671+00781100831ADDGA1001+999999999GF100991001001999999001001MD1210061+9999REMSYN054AAXX  30151 53192 42980 00905 10167 20078 40083 52006;
0196531920999992000083018004+44010+114940FM-12+112899999V0209999C000012200019N0300001N1+01431+01001100691ADDAA199000091GA1001+999999999GF100991001001999999001001KA1999M+02411MA1999999088351MD1710101+9999REMSYN070AAXX  30181 53192 32980 00000 10143 20100 38835 40069 57010 333 10241;EQDQ01  00002PRCP99
0122531920999992000083021004+44010+114940FM-12+112899999V0200401N002012200019N0300001N1+01171+00951100721ADDGA1001+999999999GF100991001001999999001001MD1710061+9999REMSYN054AAXX  30211 53192 42980 00402 10117 20095 40072 57006;
0183531920999992000083100004+44010+114940FM-12+112899999V0201101N001012200019N0300001N1+01501+01051100811ADDAA199000091GA1001+999999999GF100991001001999999001001MA1999999088351MD1210061+0021REMSYN070AAXX  31001 53192 32980 01101 10150 20105 38835 40081 52006 333 05251;EQDQ01  00002PRCP99
0122531920999992000083103004+44010+114940FM-12+112899999V0201801N002012200019N0300001N1+02151+01171100681ADDGA1001+999999999GF100991001001999999001001MD1410001+9999REMSYN054AAXX  31031 53192 42980 01802 10215 20117 40068 54000;
0186531920999992000083106004+44010+114940FM-12+112899999V0201801N001012200019N0300001N1+02471+00951100541ADDAA199000091GF101991011011008001001001KA1999N+01101MA1999999088241MD1710111+9999REMSYN076AAXX  31061 53192 32580 11801 10247 20095 38824 40054 57011 81100 333 20110;EQDQ01  00002PRCP99
0112531920999992000083109004+44010+114940FM-12+112899999V0200401N003012200019N0300001N1+02631+00421100471ADDGF102991021011008001001001MD1710081+9999REMSYN060AAXX  31091 53192 42580 20403 10263 20042 40047 57008 82100;
0163531920999992000083112004+44010+114940FM-12+112899999V0200401N001012200019N0300001N1+02241+00741100591ADDAA199000091GF101991011041012501001001MA1999999088251MD1210091+9999REMSYN066AAXX  31121 53192 32680 10401 10224 20074 38825 40059 52009 81400;EQDQ01  00002PRCP99
0122531920999992000083115004+44010+114940FM-12+112899999V0200401N002012200019N0300001N1+01781+00961100581ADDGA1001+999999999GF100991001001999999001001MD1210031+9999REMSYN054AAXX  31151 53192 42980 00402 10178 20096 40058 52003;
0196531920999992000083118004+44010+114940FM-12+112899999V0200401N002012200019N0300001N1+01541+00961100551ADDAA199000091GA1001+999999999GF100991001001999999001001KA1999M+02671MA1999999088271MD1710011+9999REMSYN070AAXX  31181 53192 32980 00402 10154 20096 38827 40055 57001 333 10267;EQDQ01  00002PRCP99
0122531920999992000083121004+44010+114940FM-12+112899999V0200201N002012200019N0300001N1+01391+00931100611ADDGA1001+999999999GF100991001001999999001001MD1210061+9999REMSYN054AAXX  31211 53192 42980 00202 10139 20093 40061 52006;
0183531920999992000090100004+44010+114940FM-12+112899999V0209999C000012200019N0300001N1+01741+01111100751ADDAA199000091GA1001+999999999GF100991001001999999001001MA1999999088441MD1210111+0011REMSYN070AAXX  01001 53192 32980 00000 10174 20111 38844 40075 52011 333 00102;EQDQ01  00002PRCP99
0112531920999992000090103004+44010+114940FM-12+112899999V0201401N001012200019N0300001N1+02511+01081100711ADDGF101991001001999999001021MD1210031+9999REMSYN060AAXX  01031 53192 42980 11401 10251 20108 40071 52003 80002;
0186531920999992000090106004+44010+114940FM-12+112899999V0209999C000012200019N0300001N1+02681+00561100631ADDAA199000091GF101991001001999999001021KA1999N+01301MA1999999088381MD1710091+9999REMSYN076AAXX  01061 53192 32980 10000 10268 20056 38838 40063 57009 80002 333 20130;EQDQ01  00002PRCP99
0122531920999992000090109004+44010+114940FM-12+112899999V0200901N002012200019N0300001N1+02751+00421100611ADDGA1001+999999999GF100991001001999999001001MD1710031+9999REMSYN054AAXX  01091 53192 42980 00902 10275 20042 40061 57003;
0163531920999992000090112004+44010+114940FM-12+112899999V0200901N003012200019N0300001N1+02341+00461100741ADDAA199000091GF101991001001999999001021MA1999999088451MD1210101+9999REMSYN066AAXX  01121 53192 32980 10903 10234 20046 38845 40074 52010 80002;EQDQ01  00002PRCP99
0122531920999992000090115004+44010+114940FM-12+112899999V0200901N003012200019N0300001N1+02041+00641100791ADDGA1001+999999999GF100991001001999999001001MD1210141+9999REMSYN054AAXX  01151 53192 42980 00903 10204 20064 40079 52014;
0196531920999992000090118004+44010+114940FM-12+112899999V0200401N003012200019N0300001N1+01671+00821100881ADDAA199000091GA1001+999999999GF100991001001999999001001KA1999M+02811MA1999999088631MD1210041+9999REMSYN070AAXX  01181 53192 32980 00403 10167 20082 38863 40088 52004 333 10281;EQDQ01  00002PRCP99
0122531920999992000090121004+44010+114940FM-12+112899999V0201401N004012200019N0300001N1+01851+01221100871ADDGA1001+999999999GF100991001001999999001001MD1210041+9999REMSYN054AAXX  01211 53192 42980 01404 10185 20122 40087 52004;
0183531920999992000090200004+44010+114940FM-12+112899999V0202201N001012200019N0300001N1+01971+01191101011ADDAA199000091GA1001+999999999GF100991001001999999001001MA1999999088731MD1210061+0031REMSYN070AAXX  02001 53192 32980 02201 10197 20119 38873 40101 52006 333 00302;EQDQ01  00002PRCP99
0122531920999992000090203004+44010+114940FM-12+112899999V0201601N006012200019N0300001N1+02581+01211100951ADDGA1001+999999999GF100991001001999999001001MD1210011+9999REMSYN054AAXX  02031 53192 42980 01606 10258 20121 40095 52001;
0186531920999992000090206004+44010+114940FM-12+112899999V0202001N002012200019N0300001N1+02941+00811100781ADDAA199000091GF102991021021008001001001KA1999N+01641MA1999999088591MD1710151+9999REMSYN076AAXX  02061 53192 32580 22002 10294 20081 38859 40078 57015 82200 333 20164;EQDQ01  00002PRCP99
0112531920999992000090209004+44010+114940FM-12+112899999V0201401N003010075019N0300001N1+02891+00651100711ADDGF106991061011008001001001MD1710041+9999REMSYN060AAXX  02091 53192 42580 61403 10289 20065 40071 57004 86100;
0163531920999992000090212004+44010+114940FM-12+112899999V0201401N002010900019N0300001N1+02391+00931100861ADDAA199000091GF107991011041012501001021MA1999999088611MD1210061+9999REMSYN066AAXX  02121 53192 32680 71402 10239 20093 38861 40086 52006 81402;EQDQ01  00002PRCP99
0112531920999992000090215004+44010+114940FM-12+112899999V0201101N003019999999N0300001N1+02151+01001100821ADDGF106991001001999999001021MD1210041+9999REMSYN060AAXX  02151 53192 42980 61103 10215 20100 40082 52004 80002;
0186531920999992000090218004+44010+114940FM-12+112899999V0201601N004010900019N0300001N1+02091+01221100721ADDAA199000091GF107991021091008001001021KA1999M+03021MA1999999088621MD1710031+9999REMSYN076AAXX  02181 53192 32580 71604 10209 20122 38862 40072 57003 82902 333 10302;EQDQ01  00002PRCP99
0112531920999992000090221004+44010+114940FM-12+112899999V0201601N001010900019N0300001N1+02001+01411100801ADDGF107991031091008001001021MD1210041+9999REMSYN060AAXX  02211 53192 42580 71601 10200 20141 40080 52004 83902;
0173531920999992000090300004+44010+114940FM-12+112899999V0201801N003019999999N0300001N1+02071+01471100921ADDAA199000091GF107991031001999999031021MA1999999088681MD1210021+0011REMSYN076AAXX  03001 53192 32980 71803 10207 20147 38868 40092 52002 83032 333 05101;EQDQ01  00002PRCP99
0124531920999992000090303004+44010+114940FM-12+112899999V0203201N002010120019N0300001N1+02331+01151100951ADDGF107991061091012501001021MD1210031+9999MW1801REMSYN066AAXX  03031 53192 41680 73202 10233 20115 40095 52003 78000 86902;
0193531920999992000090306004+44010+114940FM-12+112899999V0202501N003010120019N0300001N1+02361+01291100971ADDAA106000791AY181061GF107991051091012501031021KA1999N+01931MA1999999088731MD1210021+9999MW1001REMSYN088AAXX  03061 53192 11680 72503 10236 20129 38873 40097 52002 69901 70080 85932 333 20193;
0132531920999992000090309004+44010+114940FM-12+112899999V0202701N004010120019N0300001N1+02061+01571101071ADDAY181031GF107991061091012501001021MD1210011+9999MW1001REMSYN066AAXX  03091 53192 41680 72704 10206 20157 40107 52001 70080 86902;
0170531920999992000090312004+44010+114940FM-12+112899999V0202701N002010075019N0300001N1+01871+01731101191ADDAA106000591AY181061GF107991071091008001001021MA1999999088821MD1210081+9999MW1801REMSYN078AAXX  03121 53192 11580 72702 10187 20173 38882 40119 52008 69951 78080 87902;
0140531920999992000090315004+44010+114940FM-12+112899999V0203201N002010075019N0300001N1+01721+01071101291ADDAY181031AY281031GF107991061091008001001021MD1210111+9999MW1801REMSYN066AAXX  03151 53192 41580 73202 10172 20107 40129 52011 78088 86902;
0201531920999992000090318004+44010+114940FM-12+112899999V0203201N003010075019N0300001N1+01521+00701101451ADDAA106001091AY181061AY281061GF108991081091008001999999KA1999M+02391MA1999999089041MD1210111+9999MW1801REMSYN088AAXX  03181 53192 11580 83203 10152 20070 38904 40145 52011 60011 78088 889// 333 10239;
0153531920999992000090321004+44010+114940FM-12+112899999V0209999C000010900019N0300001N1+01371+00841101611ADDAA124002091AY181031GF107991031091008001001021MD1210051+9999MW1001REMSYN076AAXX  03211 53192 41580 70000 10137 20084 40161 52005 70080 83902 333 70020;
0186531920999992000090400004+44010+114940FM-12+112899999V0200201N004010075019N0300001N1+01331+00641101791ADDAA106000591AY181061GF107991061091008001001021MA1999999089201MD1210111+0501MW1001REMSYN094AAXX  04001 53192 11580 70204 10133 20064 38920 40179 52011 69951 70080 86902 333 00557 70020;
0112531920999992000090403004+44010+114940FM-12+112899999V0200701N003010075019N0300001N1+01441+00641101971ADDGF107991051091008001001021MD1210151+9999REMSYN060AAXX  04031 53192 42580 70703 10144 20064 40197 52015 85902;
0167531920999992000090406004+44010+114940FM-12+112899999V0200701N001010075019N0300001N1+01561+00611101931ADDAA199000021GF107991061091008001001021KA1999N+01271MA1999999089301MD1710051+9999REMSYN076AAXX  04061 53192 32580 70701 10156 20061 38930 40193 57005 86902 333 20127;
0112531920999992000090409004+44010+114940FM-12+112899999V0209999C000010075019N0300001N1+01651+00501101941ADDGF107991061091008001001021MD1710011+9999REMSYN060AAXX  04091 53192 42580 70000 10165 20050 40194 57001 86902;
0163531920999992000090412004+44010+114940FM-12+112899999V0201601N003010075019N0300001N1+01501+00621102041ADDAA199000091GF107991061091008001001021MA1999999089341MD1210051+9999REMSYN066AAXX  04121 53192 32580 71603 10150 20062 38934 40204 52005 86902;EQDQ01  00002PRCP99
0132531920999992000090415004+44010+114940FM-12+112899999V0203601N003010900019N0300001N1+01051-00021102221ADDAY181031GF105991031091008001001021MD1210091+9999MW1001REMSYN066AAXX  04151 53192 41580 53603 10105 21002 40222 52009 70080 83902;
0193531920999992000090418004+44010+114940FM-12+112899999V0203601N002012200019N0300001N1+00811-00031102311ADDAA106000791AY181061GF101991001001999999001021KA1999M+01751MA1999999089481MD1210051+9999MW1001REMSYN088AAXX  04181 53192 11980 13602 10081 21003 38948 40231 52005 69901 70080 80002 333 10175;
0133531920999992000090421004+44010+114940FM-12+112899999V0209999C000012200019N0300001N1+00501+00071102351ADDAA124000791GF101991001001999999001021MD1710011+9999REMSYN070AAXX  04211 53192 42980 10000 10050 20007 40235 57001 80002 333 79999;
0178531920999992000090500004+44010+114940FM-12+112899999V0202501N001012200019N0300001N1+00801+00051102361ADDAA124000791GF101991011051012501001001IA2999+00079MA1999999089511MD1210041+0301REMSYN088AAXX  05001 53192 32680 12501 10080 20005 38951 40236 52004 81500 333 00355 30007 79999;
0112531920999992000090503004+44010+114940FM-12+112899999V0202901N004012200019N0300001N1+01221-00291102381ADDGF101991011011008001001001MD1210011+9999REMSYN060AAXX  05031 53192 42580 12904 10122 21029 40238 52001 81100;
0186531920999992000090506004+44010+114940FM-12+112899999V0203201N004012200019N0300001N1+01381-01061102251ADDAA199000091GF102991021021008001001001KA1999N+00401MA1999999089391MD1710131+9999REMSYN076AAXX  05061 53192 32580 23204 10138 21106 38939 40225 57013 82200 333 20040;EQDQ01  00002PRCP99
0122531920999992000090509004+44010+114940FM-12+112899999V0203401N004012200019N0300001N1+01411-01161102261ADDGA1001+999999999GF100991001001999999001001MD1710051+9999REMSYN054AAXX  05091 53192 42980 03404 10141 21116 40226 57005;
0173531920999992000090512004+44010+114940FM-12+112899999V0203201N002012200019N0300001N1+01071-00701102321ADDAA199000091GA1001+999999999GF100991001001999999001001MA1999999089391MD1210051+9999REMSYN060AAXX  05121 53192 32980 03202 10107 21070 38939 40232 52005;EQDQ01  00002PRCP99
0122531920999992000090515004+44010+114940FM-12+112899999V0203401N003012200019N0300001N1+00821-00791102291ADDGA1001+999999999GF100991001001999999001001MD1210011+9999REMSYN054AAXX  05151 53192 42980 03403 10082 21079 40229 52001;
0196531920999992000090518004+44010+114940FM-12+112899999V0209999C000012200019N0300001N1+00591-00591102281ADDAA199000091GA1001+999999999GF100991001001999999001001KA1999M+01471MA1999999089371MD1710031+9999REMSYN070AAXX  05181 53192 32980 00000 10059 21059 38937 40228 57003 333 10147;EQDQ01  00002PRCP99
0122531920999992000090521004+44010+114940FM-12+112899999V0209999C000012200019N0300001N1+00401-00431102231ADDGA1001+999999999GF100991001001999999001001MD1710071+9999REMSYN054AAXX  05211 53192 42980 00000 10040 21043 40223 57007;
0201531920999992000090600004+44010+114940FM-12+112899999V0202501N003012200019N0300001N1+00901-00431102241ADDAA199000091GA1001+999999999GF100991001001999999001001IA2999+00009MA1999999089341MD1210041-0201REMSYN076AAXX  06001 53192 32980 02503 10090 21043 38934 40224 52004 333 05201 31007;EQDQ01  00002PRCP99
0112531920999992000090603004+44010+114940FM-12+112899999V0202901N005012200019N0300001N1+01461-00191102091ADDGF101991011011008001001001MD1710071+9999REMSYN060AAXX  06031 53192 42580 12905 10146 21019 40209 57007 81100;
0186531920999992000090606004+44010+114940FM-12+112899999V0202701N007010075019N0300001N1+01811-00221101821ADDAA199000091GF105991051011008001001001KA1999N+00311MA1999999089061MD1710211+9999REMSYN076AAXX  06061 53192 32580 52707 10181 21022 38906 40182 57021 85100 333 20031;EQDQ01  00002PRCP99
0112531920999992000090609004+44010+114940FM-12+112899999V0202701N005010075019N0300001N1+01871-00511101761ADDGF105991051011008001001001MD1710081+9999REMSYN060AAXX  06091 53192 42580 52705 10187 21051 40176 57008 85100;
0163531920999992000090612004+44010+114940FM-12+112899999V0202501N002012200019N0300001N1+01421+00051101761ADDAA199000091GF104991031041012501031021MA1999999088991MD1210011+9999REMSYN066AAXX  06121 53192 32680 42502 10142 20005 38899 40176 52001 83432;EQDQ01  00002PRCP99
0122531920999992000090615004+44010+114940FM-12+112899999V0202501N003012200019N0300001N1+01121-00011101761ADDGA1001+999999999GF100991001001999999001001MD1210061+9999REMSYN054AAXX  06151 53192 42980 02503 10112 21001 40176 52006;
0196531920999992000090618004+44010+114940FM-12+112899999V0202701N001012200019N0300001N1+00841+00051101721ADDAA199000091GA1001+999999999GF100991001001999999001001KA1999M+01921MA1999999089031MD1710021+9999REMSYN070AAXX  06181 53192 32980 02701 10084 20005 38903 40172 57002 333 10192;EQDQ01  00002PRCP99
0112531920999992000090621004+44010+114940FM-12+112899999V0202701N002012200019N0300001N1+00761+00031101641ADDGF101991001001999999001021MD1710081+9999REMSYN060AAXX  06211 53192 42980 12702 10076 20003 40164 57008 80002;
0191531920999992000090700004+44010+114940FM-12+112899999V0202501N005010360019N0300001N1+01021+00031101691ADDAA199000091GF106991021051012501031021IA2999+00309MA1999999088961MD1210011-0401REMSYN082AAXX  07001 53192 32680 62505 10102 20003 38896 40169 52001 82532 333 05401 30035;EQDQ01  00002PRCP99
0112531920999992000090703004+44010+114940FM-12+112899999V0202501N006012200019N0300001N1+01731-00391101601ADDGF104991011091008001031021MD1410001+9999REMSYN060AAXX  07031 53192 42580 42506 10173 21039 40160 54000 81932;
0186531920999992000090706004+44010+114940FM-12+112899999V0202501N009010900019N0300001N1+02051-00921101451ADDAA199000091GF106991031091008001001021KA1999N+00691MA1999999088841MD1710121+9999REMSYN076AAXX  07061 53192 32580 62509 10205 21092 38884 40145 57012 83902 333 20069;EQDQ01  00002PRCP99
0112531920999992000090709004+44010+114940FM-12+112899999V0202201N007010900019N0300001N1+01911-00701101411ADDGF107991041091008001001021MD1710081+9999REMSYN060AAXX  07091 53192 42580 72207 10191 21070 40141 57008 84902;
0190531920999992000090712004+44010+114940FM-12+112899999V0202201N002010075019N0300001N1+01701-00291101381ADDAA199000091GF106991061091008001001001MA1999999088741MD1710021+9999OA130601801REMSYN082AAXX  07121 53192 32580 62202 10170 21029 38874 40138 57002 86900 333 91118 91525;EQDQ01  00002PRCP99
0112531920999992000090715004+44010+114940FM-12+112899999V0200201N003012200019N0300001N1+01031+00241101541ADDGF104991041091008001001001MD1210151+9999REMSYN060AAXX  07151 53192 42580 40203 10103 20024 40154 52015 84900;
0196531920999992000090718004+44010+114940FM-12+112899999V0209999C000012200019N0300001N1+00731+00261101641ADDAA199000091GA1001+999999999GF100991001001999999001001KA1999M+02141MA1999999088981MD1210091+9999REMSYN070AAXX  07181 53192 32980 00000 10073 20026 38898 40164 52009 333 10214;EQDQ01  00002PRCP99
0122531920999992000090721004+44010+114940FM-12+112899999V0209999C000012200019N0300001N1+00451+00191101801ADDGA1001+999999999GF100991001001999999001001MD1210061+9999REMSYN054AAXX  07211 53192 42980 00000 10045 20019 40180 52006;
0191531920999992000090800004+44010+114940FM-12+112899999V0209999C000012200019N0300001N1+00871+00271101921ADDAA199000091GF101991011001999999031001IA2999+00009MA1999999089181MD1210141+0201REMSYN082AAXX  08001 53192 32980 10000 10087 20027 38918 40192 52014 81030 333 00252 31004;EQDQ01  00002PRCP99
0112531920999992000090803004+44010+114940FM-12+112899999V0202501N005012200019N0300001N1+01511+00131101951ADDGF103991021011008001001021MD1210021+9999REMSYN060AAXX  08031 53192 42580 32505 10151 20013 40195 52002 82102;
0186531920999992000090806004+44010+114940FM-12+112899999V0202701N005010075019N0300001N1+01811-00081101791ADDAA199000091GF107991071091008001001001KA1999N+00401MA1999999089061MD1710141+9999REMSYN076AAXX  08061 53192 32580 72705 10181 21008 38906 40179 57014 87900 333 20040;EQDQ01  00002PRCP99
0112531920999992000090809004+44010+114940FM-12+112899999V0203201N005012200019N0300001N1+01791-00111101831ADDGF103991021011008001001021MD1710021+9999REMSYN060AAXX  08091 53192 42580 33205 10179 21011 40183 57002 82102;
0173531920999992000090812004+44010+114940FM-12+112899999V0203401N003012200019N0300001N1+01301-00581102011ADDAA199000091GA1001+999999999GF100991001001999999001001MA1999999089181MD1210141+9999REMSYN060AAXX  08121 53192 32980 03403 10130 21058 38918 40201 52014;EQDQ01  00002PRCP99
0196531920999992000090818004+44010+114940FM-12+112899999V0200201N002012200019N0300001N1+00551-00221102171ADDAA199000091GA1001+999999999GF100991001001999999001001KA1999M+01911MA1999999089361MD1210011+9999REMSYN070AAXX  08181 53192 32980 00202 10055 21022 38936 40217 52001 333 10191;EQDQ01  00002PRCP99
0122531920999992000090821004+44010+114940FM-12+112899999V0200201N002012200019N0300001N1+00421-00211102181ADDGA1001+999999999GF100991001001999999001001MD1710021+9999REMSYN054AAXX  08211 53192 42980 00202 10042 21021 40218 57002;
0201531920999992000090900004+44010+114940FM-12+112899999V0209999C000012200019N0300001N1+00731+00011102331ADDAA199000091GA1001+999999999GF100991001001999999001001IA2999-00109MA1999999089431MD1210091+0301REMSYN076AAXX  09001 53192 32980 00000 10073 20001 38943 40233 52009 333 00351 31018;EQDQ01  00002PRCP99
0122531920999992000090903004+44010+114940FM-12+112899999V0202701N005012200019N0300001N1+01591-00531102281ADDGA1001+999999999GF100991001001999999001001MD1210041+9999REMSYN054AAXX  09031 53192 42980 02705 10159 21053 40228 52004;
0186531920999992000090906004+44010+114940FM-12+112899999V0202501N003012200019N0300001N1+01791-00531102111ADDAA199000091GF101991011011008001001001KA1999N+00231MA1999999089301MD1710171+9999REMSYN076AAXX  09061 53192 32580 12503 10179 21053 38930 40211 57017 81100 333 20023;EQDQ01  00002PRCP99
0112531920999992000090909004+44010+114940FM-12+112899999V0202701N005012200019N0300001N1+01951-00611102041ADDGF103991021011008001001021MD1710051+9999REMSYN060AAXX  09091 53192 42580 32705 10195 21061 40204 57005 82102;
0163531920999992000090912004+44010+114940FM-12+112899999V0209999C000012200019N0300001N1+01481-00081102071ADDAA199000091GF102991011041012501001021MA1999999089241MD1710011+9999REMSYN066AAXX  09121 53192 32680 20000 10148 21008 38924 40207 57001 81402;EQDQ01  00002PRCP99
0112531920999992000090915004+44010+114940FM-12+112899999V0202701N001012200019N0300001N1+01171-00231101901ADDGF101991011001999999031001MD1710031+9999REMSYN060AAXX  09151 53192 42980 12701 10117 21023 40190 57003 81030;
0186531920999992000090918004+44010+114940FM-12+112899999V0202201N003012200019N0300001N1+01291-00551101761ADDAA199000091GF102991021091008001001021KA1999M+01981MA1999999089151MD1710061+9999REMSYN076AAXX  09181 53192 32580 22203 10129 21055 38915 40176 57006 82902 333 10198;EQDQ01  00002PRCP99
0112531920999992000090921004+44010+114940FM-12+112899999V0202501N002010075019N0300001N1+01391-00611101591ADDGF106991051091008001001021MD1710101+9999REMSYN060AAXX  09211 53192 42580 62502 10139 21061 40159 57010 85902;
0173531920999992000091000004+44010+114940FM-12+112899999V0202201N002012200019N0300001N1+01261-00181101741ADDAA199000091GF101991001001999999001021MA1999999089061MD1210011+0041REMSYN076AAXX  10001 53192 32980 12202 10126 21018 38906 40174 52001 80002 333 05405;EQDQ01  00002PRCP99
0112531920999992000091003004+44010+114940FM-12+112899999V0202501N007012200019N0300001N1+02031-00541101491ADDGF101991011001999999031021MD1710121+9999REMSYN060AAXX  10031 53192 42980 12507 10203 21054 40149 57012 81032;
0186531920999992000091006004+44010+114940FM-12+112899999V0202901N006012200019N0300001N1+02401-00591101211ADDAA199000091GF102991011011008001001021KA1999N+01051MA1999999088791MD1710151+9999REMSYN076AAXX  10061 53192 32580 22906 10240 21059 38879 40121 57015 81102 333 20105;EQDQ01  00002PRCP99
0112531920999992000091009004+44010+114940FM-12+112899999V0200201N005010900019N0300001N1+02171-00471101241ADDGF106991031021008001001021MD1410001+9999REMSYN060AAXX  10091 53192 42580 60205 10217 21047 40124 54000 83202;
0163531920999992000091012004+44010+114940FM-12+112899999V0200701N004010900019N0300001N1+01671-00161101581ADDAA199000091GF107991011041012501001021MA1999999088961MD1210171+9999REMSYN066AAXX  10121 53192 32680 70704 10167 21016 38896 40158 52017 81402;EQDQ01  00002PRCP99
0112531920999992000091015004+44010+114940FM-12+112899999V0200701N003019999999N0300001N1+01411-00101101511ADDGF107991001001999999001021MD1210041+9999REMSYN060AAXX  10151 53192 42980 70703 10141 21010 40151 52004 80002;
0186531920999992000091018004+44010+114940FM-12+112899999V0200901N003010900019N0300001N1+01351-00271101451ADDAA199000091GF107991021091012501001021KA1999M+02481MA1999999089011MD1210011+9999REMSYN076AAXX  10181 53192 32680 70903 10135 21027 38901 40145 52001 82902 333 10248;EQDQ01  00002PRCP99
0112531920999992000091021004+44010+114940FM-12+112899999V0200901N005010900019N0300001N1+01371-00201101341ADDGF107991021091008001001021MD1710141+9999REMSYN060AAXX  10211 53192 42580 70905 10137 21020 40134 57014 82902;
0178531920999992000091100004+44010+114940FM-12+112899999V0200701N003010075019N0300001N1+01301-00011101571ADDAA106000791GF107991061091008001001021MA1999999088961MD1210091-0101MW1251REMSYN094AAXX  11001 53192 11580 70703 10130 21001 38896 40157 52009 69901 72500 86902 333 05100 79999;
0112531920999992000091103004+44010+114940FM-12+112899999V0201801N003019999999N0300001N1+01661+00221101661ADDGF107991001001999999001021MD1210101+9999REMSYN060AAXX  11031 53192 42980 71803 10166 20022 40166 52010 80002;
0185531920999992000091106004+44010+114940FM-12+112899999V0201801N003010075019N0300001N1+01681+00521101551ADDAA106000791GF107991051091008001001021KA1999N+01181MA1999999088951MD1710111+9999MW1251REMSYN088AAXX  11061 53192 11580 71803 10168 20052 38895 40155 57011 69901 72500 85902 333 20118;
0112531920999992000091109004+44010+114940FM-12+112899999V0200901N002010075019N0300001N1+01871+00291101311ADDGF107991061091008001001021MD1710161+9999REMSYN060AAXX  11091 53192 42580 70902 10187 20029 40131 57016 86902;
0178531920999992000091112004+44010+114940FM-12+112899999V0202501N006010075019N0300001N1+01091+00861101891ADDAA106004191AY191061AY281061GF107991071091008001001021MA1999999089121MD1210331+9999MW1801REMSYN078AAXX  11121 53192 11580 72506 10109 20086 38912 40189 52033 60041 78098 87902;
0112531920999992000091115004+44010+114940FM-12+112899999V0209999C000010075019N0300001N1+01061+00831101731ADDGF106991051091008001001021MD1710071+9999REMSYN060AAXX  11151 53192 42580 60000 10106 20083 40173 57007 85902;
0167531920999992000091118004+44010+114940FM-12+112899999V0209999C000010075019N0300001N1+01051+00861101811ADDAA199000021GF107991071091008001001021KA1999M+02021MA1999999089121MD1210071+9999REMSYN076AAXX  11181 53192 32580 70000 10105 20086 38912 40181 52007 87902 333 10202;
0133531920999992000091121004+44010+114940FM-12+112899999V0209999C000010075019N0300001N1+01071+00861101791ADDAA124004191GF107991051091008001001021MD1210031+9999REMSYN070AAXX  11211 53192 42580 70000 10107 20086 40179 52003 85902 333 70040;
0160531920999992000091200004+44010+114940FM-12+112899999V0209999C000010900019N0300001N1+01111+00901102061ADDAA124004191GF105991021091008001001021MA1999999089231MD1210081+0301REMSYN082AAXX  12001 53192 32580 50000 10111 20090 38923 40206 52008 82902 333 00352 70040;
0112531920999992000091203004+44010+114940FM-12+112899999V0201801N001019999999N0300001N1+01571+00951102111ADDGF106991021001999999031021MD1210131+9999REMSYN060AAXX  12031 53192 42980 61801 10157 20095 40211 52013 82032;
0186531920999992000091206004+44010+114940FM-12+112899999V0202001N003010075019N0300001N1+01871+00851101981ADDAA199000091GF106991061021008001001001KA1999N+00951MA1999999089311MD1710051+9999REMSYN076AAXX  12061 53192 32580 62003 10187 20085 38931 40198 57005 86200 333 20095;EQDQ01  00002PRCP99
0112531920999992000091209004+44010+114940FM-12+112899999V0202201N004012200019N0300001N1+01891+00561101941ADDGF103991021021008001001021MD1710031+9999REMSYN060AAXX  12091 53192 42580 32204 10189 20056 40194 57003 82202;
0163531920999992000091212004+44010+114940FM-12+112899999V0202701N001012200019N0300001N1+01501+00761102121ADDAA199000091GF101991011041012501001021MA1999999089371MD1210091+9999REMSYN066AAXX  12121 53192 32680 12701 10150 20076 38937 40212 52009 81402;EQDQ01  00002PRCP99
0112531920999992000091215004+44010+114940FM-12+112899999V0209999C000012200019N0300001N1+01241+00881102191ADDGF101991011001999999031021MD1210101+9999REMSYN060AAXX  12151 53192 42980 10000 10124 20088 40219 52010 81032;
0186531920999992000091218004+44010+114940FM-12+112899999V0209999C000012200019N0300001N1+01051+00821102181ADDAA199000091GF101991011001999999031001KA1999M+01971MA1999999089481MD1210011+9999REMSYN076AAXX  12181 53192 32980 10000 10105 20082 38948 40218 52001 81030 333 10197;EQDQ01  00002PRCP99
0112531920999992000091221004+44010+114940FM-12+112899999V0200201N001012200019N0300001N1+00901+00681102181ADDGF101991001001999999001021MD1710021+9999REMSYN060AAXX  12211 53192 42980 10201 10090 20068 40218 57002 80002;
0191531920999992000091300004+44010+114940FM-12+112899999V0209999C000012200019N0300001N1+01031+00761102341ADDAA199000091GF103991011001999999031021IA2999+00309MA1999999089541MD1210081+0301REMSYN082AAXX  13001 53192 32980 30000 10103 20076 38954 40234 52008 81032 333 00351 30037;EQDQ01  00002PRCP99
0112531920999992000091303004+44010+114940FM-12+112899999V0209999C000012200019N0300001N1+01971+00821102181ADDGF104991021011008001001021MD1410001+9999REMSYN060AAXX  13031 53192 42580 40000 10197 20082 40218 54000 82102;
0186531920999992000091306004+44010+114940FM-12+112899999V0201801N005010900019N0300001N1+02241+00041102001ADDAA199000091GF105991031021008001001021KA1999N+00801MA1999999089401MD1710141+9999REMSYN076AAXX  13061 53192 32580 51805 10224 20004 38940 40200 57014 83202 333 20080;EQDQ01  00002PRCP99
0112531920999992000091309004+44010+114940FM-12+112899999V0200201N003010900019N0300001N1+02251+00201101921ADDGF105991031021008001001021MD1710101+9999REMSYN060AAXX  13091 53192 42580 50203 10225 20020 40192 57010 83202;
0163531920999992000091312004+44010+114940FM-12+112899999V0202201N002012200019N0300001N1+01741+00421102071ADDAA199000091GF102991021041012501001001MA1999999089361MD1210061+9999REMSYN066AAXX  13121 53192 32680 22202 10174 20042 38936 40207 52006 82400;EQDQ01  00002PRCP99
0112531920999992000091315004+44010+114940FM-12+112899999V0202701N002012200019N0300001N1+01521+00321101941ADDGF101991011041012501001001MD1210031+9999REMSYN060AAXX  13151 53192 42680 12702 10152 20032 40194 52003 81400;
0186531920999992000091318004+44010+114940FM-12+112899999V0202701N001012200019N0300001N1+01251+00291101921ADDAA199000091GF101991011041012501001001KA1999M+02331MA1999999089371MD1710021+9999REMSYN076AAXX  13181 53192 32680 12701 10125 20029 38937 40192 57002 81400 333 10233;EQDQ01  00002PRCP99
0112531920999992000091321004+44010+114940FM-12+112899999V0209999C000010075019N0300001N1+01161+00551101931ADDGF106991061091008001001001MD1710011+9999REMSYN060AAXX  13211 53192 42580 60000 10116 20055 40193 57001 86900;
0173531920999992000091400004+44010+114940FM-12+112899999V0209999C000012200019N0300001N1+01261+00481101991ADDAA199000091GF104991031001999999031021MA1999999089331MD1710031+0021REMSYN076AAXX  14001 53192 32980 40000 10126 20048 38933 40199 57003 83032 333 05202;EQDQ01  00002PRCP99
0112531920999992000091403004+44010+114940FM-12+112899999V0209999C000012200019N0300001N1+02011+00611101881ADDGF103991021011008001031021MD1210011+9999REMSYN060AAXX  14031 53192 42580 30000 10201 20061 40188 52001 82132;
0186531920999992000091406004+44010+114940FM-12+112899999V0203401N002010075019N0300001N1+02091+00031101741ADDAA199000091GF106991061091008001001021KA1999N+01061MA1999999089181MD1710161+9999REMSYN076AAXX  14061 53192 32580 63402 10209 20003 38918 40174 57016 86902 333 20106;EQDQ01  00002PRCP99
0112531920999992000091409004+44010+114940FM-12+112899999V0202201N003012200019N0300001N1+02221-00031101641ADDGF102991021011008001001021MD1710081+9999REMSYN060AAXX  14091 53192 42580 22203 10222 21003 40164 57008 82102;
0163531920999992000091412004+44010+114940FM-12+112899999V0203601N001012200019N0300001N1+01631+00371101731ADDAA199000091GF101991001001999999001021MA1999999089081MD1710021+9999REMSYN066AAXX  14121 53192 32980 13601 10163 20037 38908 40173 57002 80002;EQDQ01  00002PRCP99
0122531920999992000091415004+44010+114940FM-12+112899999V0200201N001012200019N0300001N1+01211+00321101641ADDGA1001+999999999GF100991001001999999001001MD1710011+9999REMSYN054AAXX  14151 53192 42980 00201 10121 20032 40164 57001;
0196531920999992000091418004+44010+114940FM-12+112899999V0200401N001012200019N0300001N1+01051+00241101531ADDAA199000091GA1001+999999999GF100991001001999999001001KA1999M+02311MA1999999088961MD1710111+9999REMSYN070AAXX  14181 53192 32980 00401 10105 20024 38896 40153 57011 333 10231;EQDQ01  00002PRCP99
0122531920999992000091421004+44010+114940FM-12+112899999V0200401N001012200019N0300001N1+00881+00261101481ADDGA1001+999999999GF100991001001999999001001MD1710051+9999REMSYN054AAXX  14211 53192 42980 00401 10088 20026 40148 57005;
0201531920999992000091500004+44010+114940FM-12+112899999V0200701N001012200019N0300001N1+01261+00251101521ADDAA199000091GA1001+999999999GF100991001001999999001001IA2999+00209MA1999999088901MD1710011-0401REMSYN076AAXX  15001 53192 32980 00701 10126 20025 38890 40152 57001 333 05400 30024;EQDQ01  00002PRCP99
0122531920999992000091503004+44010+114940FM-12+112899999V0201801N003012200019N0300001N1+02181-00031101331ADDGA1001+999999999GF100991001001999999001001MD1710071+9999REMSYN054AAXX  15031 53192 42980 01803 10218 21003 40133 57007;
0186531920999992000091506004+44010+114940FM-12+112899999V0202201N004012200019N0300001N1+02411-00111101091ADDAA199000091GF101991011011008001001001KA1999N+00751MA1999999088641MD1710191+9999REMSYN076AAXX  15061 53192 32580 12204 10241 21011 38864 40109 57019 81100 333 20075;EQDQ01  00002PRCP99
0112531920999992000091509004+44010+114940FM-12+112899999V0202901N005010900019N0300001N1+02231+00041101081ADDGF106991021021008001001021MD1710081+9999REMSYN060AAXX  15091 53192 42580 62905 10223 20004 40108 57008 82202;
0163531920999992000091512004+44010+114940FM-12+112899999V0202701N001012200019N0300001N1+01781+00381101121ADDAA199000091GF101991011041012501001021MA1999999088581MD1210021+9999REMSYN066AAXX  15121 53192 32680 12701 10178 20038 38858 40112 52002 81402;EQDQ01  00002PRCP99
0122531920999992000091515004+44010+114940FM-12+112899999V0209999C000012200019N0300001N1+01311+00401101041ADDGA1001+999999999GF100991001001999999001001MD1210021+9999REMSYN054AAXX  15151 53192 42980 00000 10131 20040 40104 52002;
0196531920999992000091518004+44010+114940FM-12+112899999V0200201N001012200019N0300001N1+01231+00321101081ADDAA199000091GA1001+999999999GF100991001001999999001001KA1999M+02501MA1999999088661MD1210061+9999REMSYN070AAXX  15181 53192 32980 00201 10123 20032 38866 40108 52006 333 10250;EQDQ01  00002PRCP99
0122531920999992000091521004+44010+114940FM-12+112899999V0200901N002012200019N0300001N1+01261+00411101111ADDGA1001+999999999GF100991001001999999001001MD1410001+9999REMSYN054AAXX  15211 53192 42980 00902 10126 20041 40111 54000;
0183531920999992000091600004+44010+114940FM-12+112899999V0200901N002012200019N0300001N1+01401+00311101361ADDAA199000091GA1001+999999999GF100991001001999999001001MA1999999088821MD1210161+0011REMSYN070AAXX  16001 53192 32980 00902 10140 20031 38882 40136 52016 333 05101;EQDQ01  00002PRCP99
0122531920999992000091603004+44010+114940FM-12+112899999V0200701N001012200019N0300001N1+01981+00071101421ADDGA1001+999999999GF100991001001999999001001MD1210071+9999REMSYN054AAXX  16031 53192 42980 00701 10198 20007 40142 52007;
0196531920999992000091606004+44010+114940FM-12+112899999V0203201N003012200019N0300001N1+02211-00011101251ADDAA199000091GA1001+999999999GF100991001001999999001001KA1999N+01111MA1999999088771MD1710121+9999REMSYN070AAXX  16061 53192 32980 03203 10221 21001 38877 40125 57012 333 20111;EQDQ01  00002PRCP99
0122531920999992000091609004+44010+114940FM-12+112899999V0202501N002012200019N0300001N1+02251+00141101101ADDGA1001+999999999GF100991001001999999001001MD1710111+9999REMSYN054AAXX  16091 53192 42980 02502 10225 20014 40110 57011;
0163531920999992000091612004+44010+114940FM-12+112899999V0202701N001012200019N0300001N1+01671+00381101251ADDAA199000091GF101991001001999999001021MA1999999088701MD1210041+9999REMSYN066AAXX  16121 53192 32980 12701 10167 20038 38870 40125 52004 80002;EQDQ01  00002PRCP99
0122531920999992000091615004+44010+114940FM-12+112899999V0209999C000012200019N0300001N1+01381+00421101211ADDGA1001+999999999GF100991001001999999001001MD1210021+9999REMSYN054AAXX  16151 53192 42980 00000 10138 20042 40121 52002;
0196531920999992000091618004+44010+114940FM-12+112899999V0200401N002012200019N0300001N1+01091+00071101211ADDAA199000091GA1001+999999999GF100991001001999999001001KA1999M+02301MA1999999088711MD1710011+9999REMSYN070AAXX  16181 53192 32980 00402 10109 20007 38871 40121 57001 333 10230;EQDQ01  00002PRCP99
0122531920999992000091621004+44010+114940FM-12+112899999V0200201N002012200019N0300001N1+00931+00051101251ADDGA1001+999999999GF100991001001999999001001MD1210011+9999REMSYN054AAXX  16211 53192 42980 00202 10093 20005 40125 52001;
0201531920999992000091700004+44010+114940FM-12+112899999V0200201N001012200019N0300001N1+01201-00041101401ADDAA199000091GA1001+999999999GF100991001001999999001001IA2999+00309MA1999999088791MD1210071+0001REMSYN076AAXX  17001 53192 32980 00201 10120 21004 38879 40140 52007 333 00052 30035;EQDQ01  00002PRCP99
0122531920999992000091703004+44010+114940FM-12+112899999V0200901N002012200019N0300001N1+01971-00011101291ADDGA1001+999999999GF100991001001999999001001MD1410001+9999REMSYN054AAXX  17031 53192 42980 00902 10197 21001 40129 54000;
0186531920999992000091706004+44010+114940FM-12+112899999V0202201N001012200019N0300001N1+02271-00031101091ADDAA199000091GF101991001001999999001021KA1999N+00791MA1999999088621MD1710171+9999REMSYN076AAXX  17061 53192 32980 12201 10227 21003 38862 40109 57017 80002 333 20079;EQDQ01  00002PRCP99
0112531920999992000091709004+44010+114940FM-12+112899999V0209999C000019999999N0300001N1+02371+00041101021ADDGF105991001001999999001021MD1710081+9999REMSYN060AAXX  17091 53192 42980 50000 10237 20004 40102 57008 80002;
0163531920999992000091712004+44010+114940FM-12+112899999V0201401N001012200019N0300001N1+01841-00011101101ADDAA199000091GF102991001001999999001021MA1999999088561MD1210021+9999REMSYN066AAXX  17121 53192 32980 21401 10184 21001 38856 40110 52002 80002;EQDQ01  00002PRCP99
0112531920999992000091715004+44010+114940FM-12+112899999V0200901N001012200019N0300001N1+01551+00051100941ADDGF102991001001999999001021MD1710041+9999REMSYN060AAXX  17151 53192 42980 20901 10155 20005 40094 57004 80002;
0186531920999992000091718004+44010+114940FM-12+112899999V0201801N001010900019N0300001N1+01631-00011100791ADDAA199000091GF106991041091008001001021KA1999M+02461MA1999999088461MD1710061+9999REMSYN076AAXX  17181 53192 32580 61801 10163 21001 38846 40079 57006 84902 333 10246;EQDQ01  00002PRCP99
0112531920999992000091721004+44010+114940FM-12+112899999V0201401N002010075019N0300001N1+01651-00191100731ADDGF107991061091008001001021MD1710031+9999REMSYN060AAXX  17211 53192 42580 71402 10165 21019 40073 57003 86902;
0173531920999992000091800004+44010+114940FM-12+112899999V0201601N003010900019N0300001N1+01791-00101100661ADDAA199000091GF106991021051012501001021MA1999999088291MD1710141+0051REMSYN076AAXX  18001 53192 32680 61603 10179 21010 38829 40066 57014 82502 333 05506;EQDQ01  00002PRCP99
0112531920999992000091803004+44010+114940FM-12+112899999V0202201N005010075019N0300001N1+02391-00061100611ADDGF107991061091008001001021MD1210021+9999REMSYN060AAXX  18031 53192 42580 72205 10239 21006 40061 52002 86902;
0193531920999992000091806004+44010+114940FM-12+112899999V0202501N008010900019N0300001N1+02811-00211100321ADDAA106000791AY181061GF105991011011008001001021KA1999N+01421MA1999999088151MD1710161+9999MW1001REMSYN088AAXX  18061 53192 11580 52508 10281 21021 38815 40032 57016 69901 70080 81102 333 20142;
0112531920999992000091809004+44010+114940FM-12+112899999V0202701N006010075019N0300001N1+02671-00221100351ADDGF107991061091008001001021MD1210011+9999REMSYN060AAXX  18091 53192 42580 72706 10267 21022 40035 52001 86902;
0162531920999992000091812004+44010+114940FM-12+112899999V0202501N003010075019N0300001N1+02191+00101100741ADDAA106000791GF107991071091008001001021MA1999999088431MD1210271+9999MW1801REMSYN078AAXX  18121 53192 11580 72503 10219 20010 38843 40074 52027 69901 78000 87902;
0132531920999992000091815004+44010+114940FM-12+112899999V0202201N005010075019N0300001N1+01851+00641100831ADDAY181031GF107991061091008001001021MD1210131+9999MW1251REMSYN066AAXX  18151 53192 41580 72205 10185 20064 40083 52013 72580 86902;
0216531920999992000091818004+44010+114940FM-12+112899999V0202701N002010360019N0300001N1+01581+00661100811ADDAA106000791AY181061GF106991011041012501031021KA1240M+02911MA1999999088571MD1210011+9999MW1001OA130601701REMSYN100AAXX  18181 53192 11680 62702 10158 20066 38857 40081 52001 69901 70080 81432 333 10291 91117 91520;
0133531920999992000091821004+44010+114940FM-12+112899999V0202501N001012200019N0300001N1+01291+00671100881ADDAA124000791GF101991001001999999001021MD1710021+9999REMSYN070AAXX  18211 53192 42980 12501 10129 20067 40088 57002 80002 333 79999;
0160531920999992000091900004+44010+114940FM-12+112899999V0202701N001012200019N0300001N1+01501+00701101041ADDAA124000791GF102991001001999999001011MA1999999088641MD1210091+0401REMSYN082AAXX  19001 53192 32980 22701 10150 20070 38864 40104 52009 80001 333 00453 79999;
0112531920999992000091903004+44010+114940FM-12+112899999V0202701N002012200019N0300001N1+02071+00361101151ADDGF102991001001999999001021MD1210141+9999REMSYN060AAXX  19031 53192 42980 22702 10207 20036 40115 52014 80002;
0186531920999992000091906004+44010+114940FM-12+112899999V0200201N004010900019N0300001N1+02141+00231101171ADDAA199000091GF106991021091008001001021KA1999N+01251MA1999999088761MD1710021+9999REMSYN076AAXX  19061 53192 32580 60204 10214 20023 38876 40117 57002 82902 333 20125;EQDQ01  00002PRCP99
0112531920999992000091909004+44010+114940FM-12+112899999V0200401N003010900019N0300001N1+01931+00301101401ADDGF107991011011008001001021MD1210101+9999REMSYN060AAXX  19091 53192 42580 70403 10193 20030 40140 52010 81102;
0163531920999992000091912004+44010+114940FM-12+112899999V0200401N006019999999N0300001N1+01451+00221101731ADDAA199000091GF105991001001999999001021MA1999999089101MD1210241+9999REMSYN066AAXX  19121 53192 32980 50406 10145 20022 38910 40173 52024 80002;EQDQ01  00002PRCP99
0112531920999992000091915004+44010+114940FM-12+112899999V0200401N003019999999N0300001N1+01241-00051101931ADDGF106991021001999999031021MD1210241+9999REMSYN060AAXX  19151 53192 42980 60403 10124 21005 40193 52024 82032;
0186531920999992000091918004+44010+114940FM-12+112899999V0200701N003012200019N0300001N1+00991-00181101961ADDAA199000091GF102991001001999999001021KA1999M+02231MA1999999089331MD1710011+9999REMSYN076AAXX  19181 53192 32980 20703 10099 21018 38933 40196 57001 80002 333 10223;EQDQ01  00002PRCP99
0122531920999992000091921004+44010+114940FM-12+112899999V0200401N003012200019N0300001N1+00831-00191102101ADDGA1001+999999999GF100991001001999999001001MD1210051+9999REMSYN054AAXX  19211 53192 42980 00403 10083 21019 40210 52005;
0191531920999992000092000004+44010+114940FM-12+112899999V0200701N004012200019N0300001N1+01061-00201102251ADDAA199000091GF101991011001999999031001IA2999+00309MA1999999089461MD1210081+0801REMSYN082AAXX  20001 53192 32980 10704 10106 21020 38946 40225 52008 81030 333 00854 30036;EQDQ01  00002PRCP99
0122531920999992000092003004+44010+114940FM-12+112899999V0200901N005012200019N0300001N1+01811+00121102161ADDGA1001+999999999GF100991001001999999001001MD1210031+9999REMSYN054AAXX  20031 53192 42980 00905 10181 20012 40216 52003;
0186531920999992000092006004+44010+114940FM-12+112899999V0201801N002012200019N0300001N1+02191+00461101851ADDAA199000091GF103991031011008001001001KA1999N+00701MA1999999089251MD1710241+9999REMSYN076AAXX  20061 53192 32580 31802 10219 20046 38925 40185 57024 83100 333 20070;EQDQ01  00002PRCP99
0112531920999992000092009004+44010+114940FM-12+112899999V0201801N001010075019N0300001N1+02331+00161101711ADDGF105991051021008001001001MD1710131+9999REMSYN060AAXX  20091 53192 42580 51801 10233 20016 40171 57013 85200;
0173531920999992000092012004+44010+114940FM-12+112899999V0201401N003012200019N0300001N1+01771+00691101901ADDAA199000091GA1001+999999999GF100991001001999999001001MA1999999089221MD1210101+9999REMSYN060AAXX  20121 53192 32980 01403 10177 20069 38922 40190 52010;EQDQ01  00002PRCP99
0122531920999992000092015004+44010+114940FM-12+112899999V0209999C000012200019N0300001N1+01531+00731101861ADDGA1001+999999999GF100991001001999999001001MD1210071+9999REMSYN054AAXX  20151 53192 42980 00000 10153 20073 40186 52007;
0196531920999992000092018004+44010+114940FM-12+112899999V0201601N002012200019N0300001N1+01361+00721101811ADDAA199000091GA1001+999999999GF100991001001999999001001KA1999M+02391MA1999999089291MD1410001+9999REMSYN070AAXX  20181 53192 32980 01602 10136 20072 38929 40181 54000 333 10239;EQDQ01  00002PRCP99
0112531920999992000092021004+44010+114940FM-12+112899999V0201401N002012200019N0300001N1+01221+00761101771ADDGF102991021091008001001001MD1710041+9999REMSYN060AAXX  20211 53192 42580 21402 10122 20076 40177 57004 82900;
0173531920999992000092100004+44010+114940FM-12+112899999V0201601N007012200019N0300001N1+01321+00741101851ADDAA199000091GF104991001001999999001011MA1999999089231MD1710021+0021REMSYN076AAXX  21001 53192 32980 41607 10132 20074 38923 40185 57002 80001 333 05203;EQDQ01  00002PRCP99
0112531920999992000092103004+44010+114940FM-12+112899999V0202001N004012200019N0300001N1+01931+00821101691ADDGF101991001001999999001021MD1710071+9999REMSYN060AAXX  21031 53192 42980 12004 10193 20082 40169 57007 80002;
0186531920999992000092106004+44010+114940FM-12+112899999V0202201N006012200019N0300001N1+02321+00721101421ADDAA199000091GF103991001001999999001021KA1999N+01121MA1999999088971MD1710191+9999REMSYN076AAXX  21061 53192 32980 32206 10232 20072 38897 40142 57019 80002 333 20112;EQDQ01  00002PRCP99
0112531920999992000092109004+44010+114940FM-12+112899999V0202001N005012200019N0300001N1+02401+00361101331ADDGF102991021011008001001021MD1710091+9999REMSYN060AAXX  21091 53192 42580 22005 10240 20036 40133 57009 82102;
0163531920999992000092112004+44010+114940FM-12+112899999V0201801N005010900019N0300001N1+01921+00511101491ADDAA199000091GF105991021091008001001021MA1999999088941MD1210061+9999REMSYN066AAXX  21121 53192 32580 51805 10192 20051 38894 40149 52006 82902;EQDQ01  00002PRCP99
0112531920999992000092115004+44010+114940FM-12+112899999V0201801N005012200019N0300001N1+01711+00731101471ADDGF102991001001999999001021MD1210071+9999REMSYN060AAXX  21151 53192 42980 21805 10171 20073 40147 52007 80002;
0186531920999992000092118004+44010+114940FM-12+112899999V0200401N002012200019N0300001N1+01391+00871101471ADDAA199000091GF101991001001999999001021KA1999M+02491MA1999999089021MD1210011+9999REMSYN076AAXX  21181 53192 32980 10402 10139 20087 38902 40147 52001 80002 333 10249;EQDQ01  00002PRCP99
0112531920999992000092121004+44010+114940FM-12+112899999V0202001N001012200019N0300001N1+01261+00821101401ADDGF102991001001999999001021MD1710071+9999REMSYN060AAXX  21211 53192 42980 22001 10126 20082 40140 57007 80002;
0173531920999992000092200004+44010+114940FM-12+112899999V0209999C000012200019N0300001N1+01301+00831101501ADDAA199000091GF102991001001999999001021MA1999999088951MD1410001+0031REMSYN076AAXX  22001 53192 32980 20000 10130 20083 38895 40150 54000 80002 333 05300;EQDQ01  00002PRCP99
0112531920999992000092203004+44010+114940FM-12+112899999V0202201N004019999999N0300001N1+01971+00891101321ADDGF107991001001999999001021MD1710071+9999REMSYN060AAXX  22031 53192 42980 72204 10197 20089 40132 57007 80002;
0186531920999992000092206004+44010+114940FM-12+112899999V0201801N006010075019N0300001N1+02211+00761101031ADDAA199000091GF107991071021008001001011KA1999N+01121MA1999999088611MD1710271+9999REMSYN076AAXX  22061 53192 32580 71806 10221 20076 38861 40103 57027 87201 333 20112;EQDQ01  00002PRCP99
0112531920999992000092209004+44010+114940FM-12+112899999V0202001N005010900019N0300001N1+02251+00571100911ADDGF107991031091008001001021MD1710121+9999REMSYN060AAXX  22091 53192 42580 72005 10225 20057 40091 57012 83902;
0205531920999992000092212004+44010+114940FM-12+112899999V0209999C000010075019N0250001N1+01521+01191101111ADDAA106000191AY191061AY281061GF107991061091008001001021MA1999999088531MD1210041+9999MW1251OA130601801REMSYN094AAXX  22121 53192 11575 70000 10152 20119 38853 40111 52004 69911 72598 86902 333 91118 91534;
0140531920999992000092215004+44010+114940FM-12+112899999V0202901N004012200019N0300001N1+01251+01071101201ADDAY191031AY281031GF103991031091008001001001MD1210161+9999MW1251REMSYN066AAXX  22151 53192 41580 32904 10125 20107 40120 52016 72598 83900;
0201531920999992000092218004+44010+114940FM-12+112899999V0203201N006010900019N0250001N1+00731+00501101581ADDAA106000891AY191061AY281061GF107991031091008001001021KA1999M+02341MA1999999088961MD1210271+9999MW1001REMSYN088AAXX  22181 53192 11575 73206 10073 20050 38896 40158 52027 69981 70098 83902 333 10234;
0133531920999992000092221004+44010+114940FM-12+112899999V0203201N004010075019N0300001N1+00571+00251101751ADDAA124001091GF107991051091008001001021MD1210131+9999REMSYN070AAXX  22211 53192 42580 73204 10057 20025 40175 52013 85902 333 70009;
0178531920999992000092300004+44010+114940FM-12+112899999V0203201N004012200019N0300001N1+00471+00061102161ADDAA124001091GF102991021011008001001001IA2999+00299MA1999999089271MD1210181+0301REMSYN088AAXX  23001 53192 32580 23204 10047 20006 38927 40216 52018 82100 333 00358 30029 70009;
0112531920999992000092303004+44010+114940FM-12+112899999V0202901N005012200019N0300001N1+00921-00221102161ADDGF101991011011008001001001MD1210041+9999REMSYN060AAXX  23031 53192 42580 12905 10092 21022 40216 52004 81100;
0186531920999992000092306004+44010+114940FM-12+112899999V0202701N006012200019N0300001N1+01201-00841102001ADDAA199000091GF101991011011008001001001KA1999N+00421MA1999999089121MD1710191+9999REMSYN076AAXX  23061 53192 32580 12706 10120 21084 38912 40200 57019 81100 333 20042;EQDQ01  00002PRCP99
0122531920999992000092309004+44010+114940FM-12+112899999V0202701N005012200019N0300001N1+01321-00621101951ADDGA1001+999999999GF100991001001999999001001MD1710051+9999REMSYN054AAXX  23091 53192 42980 02705 10132 21062 40195 57005;
0173531920999992000092312004+44010+114940FM-12+112899999V0202901N002012200019N0300001N1+00841-00411102171ADDAA199000091GA1001+999999999GF100991001001999999001001MA1999999089141MD1210071+9999REMSYN060AAXX  23121 53192 32980 02902 10084 21041 38914 40217 52007;EQDQ01  00002PRCP99
0122531920999992000092315004+44010+114940FM-12+112899999V0209999C000012200019N0300001N1+00441-00241102201ADDGA1001+999999999GF100991001001999999001001MD1210031+9999REMSYN054AAXX  23151 53192 42980 00000 10044 21024 40220 52003;
0196531920999992000092318004+44010+114940FM-12+112899999V0202501N002012200019N0300001N1+00301-00331102151ADDAA199000091GA1001+999999999GF100991001001999999001001KA1999M+01341MA1999999089161MD1710011+9999REMSYN070AAXX  23181 53192 32980 02502 10030 21033 38916 40215 57001 333 10134;EQDQ01  00002PRCP99
0112531920999992000092403004+44010+114940FM-12+112899999V0202501N008012200019N0300001N1+01341-00671102021ADDGF103991001001999999001021MD1710011+9999REMSYN060AAXX  24031 53192 42980 32508 10134 21067 40202 57001 80002;
0186531920999992000092406004+44010+114940FM-12+112899999V0202501N008012200019N0300001N1+01751-00821101751ADDAA199000091GF101991001001999999001021KA1999N+00091MA1999999088931MD1710181+9999REMSYN076AAXX  24061 53192 32980 12508 10175 21082 38893 40175 57018 80002 333 20009;EQDQ01  00002PRCP99
0122531920999992000092409004+44010+114940FM-12+112899999V0202701N006012200019N0300001N1+01831-01061101731ADDGA1001+999999999GF100991001001999999001001MD1710041+9999REMSYN054AAXX  24091 53192 42980 02706 10183 21106 40173 57004;
0173531920999992000092412004+44010+114940FM-12+112899999V0202701N002012200019N0300001N1+01231-00541101821ADDAA199000091GA1001+999999999GF100991001001999999001001MA1999999088941MD1210051+9999REMSYN060AAXX  24121 53192 32980 02702 10123 21054 38894 40182 52005;EQDQ01  00002PRCP99
0122531920999992000092415004+44010+114940FM-12+112899999V0202501N002012200019N0300001N1+00841-00491101861ADDGA1001+999999999GF100991001001999999001001MD1210111+9999REMSYN054AAXX  24151 53192 42980 02502 10084 21049 40186 52011;
0196531920999992000092418004+44010+114940FM-12+112899999V0200401N001012200019N0300001N1+00611-00371101871ADDAA199000091GA1001+999999999GF100991001001999999001001KA1999M+01891MA1999999089101MD1210051+9999REMSYN070AAXX  24181 53192 32980 00401 10061 21037 38910 40187 52005 333 10189;EQDQ01  00002PRCP99
0122531920999992000092421004+44010+114940FM-12+112899999V0209999C000012200019N0300001N1+00401-00401102051ADDGA1001+999999999GF100991001001999999001001MD1210131+9999REMSYN054AAXX  24211 53192 42980 00000 10040 21040 40205 52013;
0201531920999992000092500004+44010+114940FM-12+112899999V0209999C000012200019N0300001N1+00781-00441102271ADDAA199000091GA1001+999999999GF100991001001999999001001IA2999-00409MA1999999089371MD1210141+0301REMSYN076AAXX  25001 53192 32980 00000 10078 21044 38937 40227 52014 333 00302 31044;EQDQ01  00002PRCP99
0122531920999992000092503004+44010+114940FM-12+112899999V0209999C000012200019N0300001N1+01651-00491102191ADDGA1001+999999999GF100991001001999999001001MD1210031+9999REMSYN054AAXX  25031 53192 42980 00000 10165 21049 40219 52003;
0196531920999992000092506004+44010+114940FM-12+112899999V0209999C000012200019N0300001N1+02141-00561102001ADDAA199000091GA1001+999999999GF100991001001999999001001KA1999N+00261MA1999999089291MD1710111+9999REMSYN070AAXX  25061 53192 32980 00000 10214 21056 38929 40200 57011 333 20026;EQDQ01  00002PRCP99
0112531920999992000092509004+44010+114940FM-12+112899999V0209999C000012200019N0300001N1+02151-00531101991ADDGF102991001001999999001021MD1710051+9999REMSYN060AAXX  25091 53192 42980 20000 10215 21053 40199 57005 80002;
0163531920999992000092512004+44010+114940FM-12+112899999V0209999C000012200019N0300001N1+01421-00261102201ADDAA199000091GF102991001001999999001021MA1999999089351MD1210111+9999REMSYN066AAXX  25121 53192 32980 20000 10142 21026 38935 40220 52011 80002;EQDQ01  00002PRCP99
0122531920999992000092515004+44010+114940FM-12+112899999V0200201N003012200019N0300001N1+01071-00701102111ADDGA1001+999999999GF100991001001999999001001MD1210031+9999REMSYN054AAXX  25151 53192 42980 00203 10107 21070 40211 52003;
0196531920999992000092518004+44010+114940FM-12+112899999V0200401N002012200019N0300001N1+00981-00741102001ADDAA199000091GA1001+999999999GF100991001001999999001001KA1999M+02201MA1999999089371MD1710011+9999REMSYN070AAXX  25181 53192 32980 00402 10098 21074 38937 40200 57001 333 10220;EQDQ01  00002PRCP99
0112531920999992000092521004+44010+114940FM-12+112899999V0200201N002012200019N0300001N1+00841-00791102011ADDGF101991001001999999001021MD1710021+9999REMSYN060AAXX  25211 53192 42980 10202 10084 21079 40201 57002 80002;
0191531920999992000092600004+44010+114940FM-12+112899999V0209999C000019999999N0300001N1+00921-00551102201ADDAA199000091GF107991001001999999001021IA2999+00109MA1999999089381MD1210031+0001REMSYN082AAXX  26001 53192 32980 70000 10092 21055 38938 40220 52003 80002 333 00001 30016;EQDQ01  00002PRCP99
0112531920999992000092603004+44010+114940FM-12+112899999V0201801N003019999999N0300001N1+01811-00311102051ADDGF107991001001999999001021MD1710021+9999REMSYN060AAXX  26031 53192 42980 71803 10181 21031 40205 57002 80002;
0186531920999992000092606004+44010+114940FM-12+112899999V0201801N007019999999N0300001N1+02011-00371101831ADDAA199000091GF107991001001999999001021KA1999N+00701MA1999999089191MD1710171+9999REMSYN076AAXX  26061 53192 32980 71807 10201 21037 38919 40183 57017 80002 333 20070;EQDQ01  00002PRCP99
0112531920999992000092609004+44010+114940FM-12+112899999V0202001N006019999999N0300001N1+01991-01201101801ADDGF107991001001999999001021MD1710061+9999REMSYN060AAXX  26091 53192 42980 72006 10199 21120 40180 57006 80002;
0163531920999992000092612004+44010+114940FM-12+112899999V0202201N002019999999N0300001N1+01551-00531101941ADDAA199000091GF106991001001999999001021MA1999999089181MD1210051+9999REMSYN066AAXX  26121 53192 32980 62202 10155 21053 38918 40194 52005 80002;EQDQ01  00002PRCP99
0112531920999992000092615004+44010+114940FM-12+112899999V0209999C000019999999N0300001N1+01341+00111101791ADDGF106991001001999999001021MD1210011+9999REMSYN060AAXX  26151 53192 42980 60000 10134 20011 40179 52001 80002;
0186531920999992000092618004+44010+114940FM-12+112899999V0201401N001019999999N0300001N1+01301-00251101711ADDAA199000091GF107991001001999999001021KA1999M+02141MA1999999089151MD1710041+9999REMSYN076AAXX  26181 53192 32980 71401 10130 21025 38915 40171 57004 80002 333 10214;EQDQ01  00002PRCP99
0145531920999992000092621004+44010+114940FM-12+112899999V0200901N002010075019N0300001N1+01201-00041101651ADDAA124000791GF107991061091008001001021MD1710081+9999MW1801REMSYN076AAXX  26211 53192 41580 70902 10120 21004 40165 57008 78000 86902 333 79999;
0186531920999992000092700004+44010+114940FM-12+112899999V0200701N001010075019N0300001N1+01141+00301101751ADDAA106000191AY181061GF107991071091008001001021MA1999999089061MD1710011-0301MW1801REMSYN094AAXX  27001 53192 11580 70701 10114 20030 38906 40175 57001 69911 78080 87902 333 05302 70001;
0132531920999992000092703004+44010+114940FM-12+112899999V0202001N004010075019N0300001N1+00961+00781101901ADDAY181031GF107991071091008001001021MD1210051+9999MW1801REMSYN066AAXX  27031 53192 41580 72004 10096 20078 40190 52005 78080 87902;
0193531920999992000092706004+44010+114940FM-12+112899999V0201801N004010075019N0200001N1+00981+00881101741ADDAA106001091AY181061GF107991061091008001001021KA1999N+00901MA1999999088971MD1710141+9999MW1801REMSYN088AAXX  27061 53192 11570 71804 10098 20088 38897 40174 57014 60011 78080 86902 333 20090;
0140531920999992000092709004+44010+114940FM-12+112899999V0201601N005010075019N0200001N1+00921+00781101691ADDAY181031AY281031GF107991071091008001001021MD1710081+9999MW1801REMSYN066AAXX  27091 53192 41570 71605 10092 20078 40169 57008 78088 87902;
0178531920999992000092712004+44010+114940FM-12+112899999V0201601N004010075019N0250001N1+00881+00761101711ADDAA106000591AY181061AY281061GF107991071091008001001021MA1999999088891MD1410001+9999MW1801REMSYN078AAXX  27121 53192 11575 71604 10088 20076 38889 40171 54000 69961 78088 87902;
0132531920999992000092715004+44010+114940FM-12+112899999V0209999C000010075019N0250001N1+00891+00811101771ADDAY181031GF107991061091008001001021MD1210011+9999MW1801REMSYN066AAXX  27151 53192 41575 70000 10089 20081 40177 52001 78080 86902;
0193531920999992000092718004+44010+114940FM-12+112899999V0209999C000010900019N0300001N1+00931+00891101741ADDAA106000191AY181061GF107991041091008001001021KA1999M+01291MA1999999088891MD1710011+9999MW1001REMSYN088AAXX  27181 53192 11580 70000 10093 20089 38889 40174 57001 69921 70080 84902 333 10129;
0133531920999992000092721004+44010+114940FM-12+112899999V0209999C000010075019N0300001N1+00931+00791101791ADDAA124002391GF107991051091008001001021MD1210031+9999REMSYN070AAXX  27211 53192 42580 70000 10093 20079 40179 52003 85902 333 70023;
0160531920999992000092800004+44010+114940FM-12+112899999V0202501N003010075019N0300001N1+00931+00751101941ADDAA124002391GF107991061091008001001021MA1999999089041MD1210121+0001REMSYN082AAXX  28001 53192 32580 72503 10093 20075 38904 40194 52012 86902 333 00052 70022;
0112531920999992000092803004+44010+114940FM-12+112899999V0202501N002010900019N0300001N1+01201+00801101941ADDGF105991031011008001001021MD1210061+9999REMSYN060AAXX  28031 53192 42580 52502 10120 20080 40194 52006 83102;
0186531920999992000092806004+44010+114940FM-12+112899999V0202501N004012200019N0300001N1+01751+00671101661ADDAA199000091GF102991001001999999001021KA1999N+00831MA1999999088981MD1710121+9999REMSYN076AAXX  28061 53192 32980 22504 10175 20067 38898 40166 57012 80002 333 20083;EQDQ01  00002PRCP99
0112531920999992000092809004+44010+114940FM-12+112899999V0202501N004012200019N0300001N1+01911+00471101551ADDGF103991001001999999001021MD1710061+9999REMSYN060AAXX  28091 53192 42980 32504 10191 20047 40155 57006 80002;
0163531920999992000092812004+44010+114940FM-12+112899999V0200901N002012200019N0300001N1+01391+00801101771ADDAA199000091GF102991001001999999001021MA1999999089001MD1210081+9999REMSYN066AAXX  28121 53192 32980 20902 10139 20080 38900 40177 52008 80002;EQDQ01  00002PRCP99
0122531920999992000092815004+44010+114940FM-12+112899999V0209999C000012200019N0300001N1+01061+00771101871ADDGA1001+999999999GF100991001001999999001001MD1210081+9999REMSYN054AAXX  28151 53192 42980 00000 10106 20077 40187 52008;
0186531920999992000092818004+44010+114940FM-12+112899999V0200201N002012200019N0300001N1+00931+00731101741ADDAA199000091GF102991001001999999001021KA1999M+01961MA1999999089051MD1710031+9999REMSYN076AAXX  28181 53192 32980 20202 10093 20073 38905 40174 57003 80002 333 10196;EQDQ01  00002PRCP99
0112531920999992000092821004+44010+114940FM-12+112899999V0209999C000012200019N0300001N1+00931+00731101671ADDGF103991001001999999001021MD1710031+9999REMSYN060AAXX  28211 53192 42980 30000 10093 20073 40167 57003 80002;
0191531920999992000092900004+44010+114940FM-12+112899999V0209999C000010900019N0300001N1+00931+00751101921ADDAA199000091GF107991041091008001001021IA2999+00409MA1999999089131MD1210111+0101REMSYN082AAXX  29001 53192 32580 70000 10093 20075 38913 40192 52011 84902 333 00100 30049;EQDQ01  00002PRCP99
0112531920999992000092903004+44010+114940FM-12+112899999V0200401N001010900019N0300001N1+01501+00761101971ADDGF106991021011008001001021MD1210101+9999REMSYN060AAXX  29031 53192 42580 60401 10150 20076 40197 52010 82102;
0186531920999992000092906004+44010+114940FM-12+112899999V0200201N004010075019N0300001N1+01421+00661102061ADDAA199000091GF107991051091008001001021KA1999N+00801MA1999999089261MD1210031+9999REMSYN076AAXX  29061 53192 32580 70204 10142 20066 38926 40206 52003 85902 333 20080;EQDQ01  00002PRCP99
0112531920999992000092909004+44010+114940FM-12+112899999V0200201N005012200019N0300001N1+01301+00491102131ADDGF102991011011008001001021MD1210041+9999REMSYN060AAXX  29091 53192 42580 20205 10130 20049 40213 52004 81102;
0173531920999992000092912004+44010+114940FM-12+112899999V0200701N002012200019N0300001N1+00941+00381102411ADDAA199000091GA1001+999999999GF100991001001999999001001MA1999999089471MD1210171+9999REMSYN060AAXX  29121 53192 32980 00702 10094 20038 38947 40241 52017;EQDQ01  00002PRCP99
0122531920999992000092915004+44010+114940FM-12+112899999V0200201N001012200019N0300001N1+00661+00201102461ADDGA1001+999999999GF100991001001999999001001MD1210101+9999REMSYN054AAXX  29151 53192 42980 00201 10066 20020 40246 52010;
0196531920999992000092918004+44010+114940FM-12+112899999V0209999C000012200019N0300001N1+00481+00151102541ADDAA199000091GA1001+999999999GF100991001001999999001001KA1999M+01551MA1999999089591MD1210021+9999REMSYN070AAXX  29181 53192 32980 00000 10048 20015 38959 40254 52002 333 10155;EQDQ01  00002PRCP99
0122531920999992000092921004+44010+114940FM-12+112899999V0200401N001012200019N0300001N1+00211+00031102621ADDGA1001+999999999GF100991001001999999001001MD1710021+9999REMSYN054AAXX  29211 53192 42980 00401 10021 20003 40262 57002;
0201531920999992000093000004+44010+114940FM-12+112899999V0209999C000012200019N0300001N1+00341+00121102701ADDAA199000091GA1001+999999999GF100991001001999999001001IA2999-00409MA1999999089591MD1210021+0501REMSYN076AAXX  30001 53192 32980 00000 10034 20012 38959 40270 52002 333 00556 31042;EQDQ01  00002PRCP99
0112531920999992000093003004+44010+114940FM-12+112899999V0202501N004012200019N0300001N1+01221+00141102461ADDGF101991011011008001001021MD1710081+9999REMSYN060AAXX  30031 53192 42580 12504 10122 20014 40246 57008 81102;
0186531920999992000093006004+44010+114940FM-12+112899999V0202201N003012200019N0300001N1+01511+00001102181ADDAA199000091GF104991001001999999001021KA1999N+00121MA1999999089291MD1710221+9999REMSYN076AAXX  30061 53192 32980 42203 10151 20000 38929 40218 57022 80002 333 20012;EQDQ01  00002PRCP99
0112531920999992000093009004+44010+114940FM-12+112899999V0202701N003019999999N0300001N1+01491-00031102101ADDGF106991001001999999001021MD1710131+9999REMSYN060AAXX  30091 53192 42980 62703 10149 21003 40210 57013 80002;
0163531920999992000093012004+44010+114940FM-12+112899999V0202701N001012200019N0300001N1+01061+00201102211ADDAA199000091GF103991001001999999001021MA1999999089191MD1210031+9999REMSYN066AAXX  30121 53192 32980 32701 10106 20020 38919 40221 52003 80002;EQDQ01  00002PRCP99
0112531920999992000093015004+44010+114940FM-12+112899999V0209999C000012200019N0300001N1+00801+00131102061ADDGF102991001001999999001021MD1410001+9999REMSYN060AAXX  30151 53192 42980 20000 10080 20013 40206 54000 80002;
0196531920999992000093018004+44010+114940FM-12+112899999V0209999C000012200019N0300001N1+00551-00131101961ADDAA199000091GA1001+999999999GF100991001001999999001001KA1999M+01621MA1999999089111MD1710081+9999REMSYN070AAXX  30181 53192 32980 00000 10055 21013 38911 40196 57008 333 10162;EQDQ01  00002PRCP99
0122531920999992000093021004+44010+114940FM-12+112899999V0209999C000012200019N0300001N1+00351+00001101911ADDGA1001+999999999GF100991001001999999001001MD1710091+9999REMSYN054AAXX  30211 53192 42980 00000 10035 20000 40191 57009;
0191531920999992000100100004+44010+114940FM-12+112899999V0202701N002010120019N0300001N1+00701-00211101891ADDAA199000091GF107991061081008001001021IA2999-00209MA1999999088991MD1710031-0601REMSYN082AAXX  01001 53192 32580 72702 10070 21021 38899 40189 57003 86802 333 05604 31027;EQDQ01  00002PRCP99
0112531920999992000100103004+44010+114940FM-12+112899999V0200401N005010075019N0300001N1+01221-00521101911ADDGF106991051091008001001021MD1210071+9999REMSYN060AAXX  01031 53192 42580 60405 10122 21052 40191 52007 85902;
0193531920999992000100106004+44010+114940FM-12+112899999V0200701N005012200019N0300001N1+01241-00441101931ADDAA106000791AY181061GF103991021011008001031021KA1999N+00311MA1999999089031MD1710031+9999MW1001REMSYN088AAXX  01061 53192 11580 30705 10124 21044 38903 40193 57003 69901 70080 82132 333 20031;
0122531920999992000100109004+44010+114940FM-12+112899999V0200901N004012200019N0300001N1+01221-00651101971ADDGA1001+999999999GF100991001001999999001001MD1710011+9999REMSYN054AAXX  01091 53192 42980 00904 10122 21065 40197 57001;
0173531920999992000100112004+44010+114940FM-12+112899999V0200401N004012200019N0300001N1+00641-01231102181ADDAA199000091GA1001+999999999GF100991001001999999001001MA1999999089151MD1210131+9999REMSYN060AAXX  01121 53192 32980 00404 10064 21123 38915 40218 52013;EQDQ01  00002PRCP99
0122531920999992000100115004+44010+114940FM-12+112899999V0209999C000012200019N0300001N1+00291-00881102221ADDGA1001+999999999GF100991001001999999001001MD1210071+9999REMSYN054AAXX  01151 53192 42980 00000 10029 21088 40222 52007;
0196531920999992000100118004+44010+114940FM-12+112899999V0200401N001012200019N0300001N1+00121-00891102251ADDAA199000091GA1001+999999999GF100991001001999999001001KA1999M+01351MA1999999089221MD1410001+9999REMSYN070AAXX  01181 53192 32980 00401 10012 21089 38922 40225 54000 333 10135;EQDQ01  00002PRCP99
0143531920999992000100121004+44010+114940FM-12+112899999V0200401N003012200019N0300001N1-00111-00981102351ADDAA124000791GA1001+999999999GF100991001001999999001001MD1210031+9999REMSYN064AAXX  01211 53192 42980 00403 11011 21098 40235 52003 333 79999;
0160531920999992000100200004+44010+114940FM-12+112899999V0209999C000012200019N0300001N1+00161-01011102511ADDAA124000791GF101991001001999999001021MA1999999089321MD1210071+0301REMSYN082AAXX  02001 53192 32980 10000 10016 21101 38932 40251 52007 80002 333 00355 79999;
0112531920999992000100203004+44010+114940FM-12+112899999V0201101N003012200019N0300001N1+00931-01121102361ADDGF103991001001999999001021MD1710041+9999REMSYN060AAXX  02031 53192 42980 31103 10093 21112 40236 57004 80002;
0186531920999992000100206004+44010+114940FM-12+112899999V0200901N002012200019N0300001N1+01281-01511102141ADDAA199000091GF102991001001999999001021KA1999N-00211MA1999999089131MD1710151+9999REMSYN076AAXX  02061 53192 32980 20902 10128 21151 38913 40214 57015 80002 333 21021;EQDQ01  00002PRCP99
0132531920999992000100209004+44010+114940FM-12+112899999V0200901N002010075019N0300001N1+01101-00921102201ADDAY181031GF107991061091008001001021MD1710041+9999MW1801REMSYN066AAXX  02091 53192 41580 70902 10110 21092 40220 57004 78080 86902;
0170531920999992000100212004+44010+114940FM-12+112899999V0200701N003012200019N0300001N1+00771-00311102121ADDAA106000791AY181061GF103991021041012501001021MA1999999089011MD1710081+9999MW1001REMSYN078AAXX  02121 53192 11680 30703 10077 21031 38901 40212 57008 69901 70080 82402;
0112531920999992000100215004+44010+114940FM-12+112899999V0200401N002012200019N0300001N1+00631-00211101951ADDGF102991001001999999001021MD1710011+9999REMSYN060AAXX  02151 53192 42980 20402 10063 21021 40195 57001 80002;
0193531920999992000100218004+44010+114940FM-12+112899999V0209999C000010075019N0300001N1+00731-00101101721ADDAA106000791AY181061GF106991061091008001001021KA1999M+01281MA1999999088891MD1710111+9999MW1251REMSYN088AAXX  02181 53192 11580 60000 10073 21010 38889 40172 57011 69901 72580 86902 333 10128;
0133531920999992000100221004+44010+114940FM-12+112899999V0200401N001012200019N0300001N1+00451+00361101621ADDAA124000791GF101991001001999999001021MD1710181+9999REMSYN070AAXX  02211 53192 42980 10401 10045 20036 40162 57018 80002 333 79999;
0204531920999992000100300004+44010+114940FM-12+112899999V0209999C000012200019N0300001N1+00671+00311101731ADDAA106000791AY181061GF104991041091008001001021IA2999+00119MA1999999088781MD1210071-0501MW1001REMSYN100AAXX  03001 53192 11580 40000 10067 20031 38878 40173 52007 69901 70080 84902 333 05505 30011 79999;
0112531920999992000100303004+44010+114940FM-12+112899999V0202501N005012200019N0300001N1+01461+00371101491ADDGF101991011011008001001001MD1710071+9999REMSYN060AAXX  03031 53192 42580 12505 10146 20037 40149 57007 81100;
0177531920999992000100306004+44010+114940FM-12+112899999V0202901N006012200019N0300001N1+01751-00611101261ADDAA199000021GA1001+999999999GF100991001001999999001001KA1999N+00401MA1999999088591MD1710121+9999REMSYN070AAXX  03061 53192 32980 02906 10175 21061 38859 40126 57012 333 20040;
0122531920999992000100309004+44010+114940FM-12+112899999V0203401N006012200019N0300001N1+01611-01101101401ADDGA1001+999999999GF100991001001999999001001MD1210031+9999REMSYN054AAXX  03091 53192 42980 03406 10161 21110 40140 52003;
0173531920999992000100312004+44010+114940FM-12+112899999V0203601N003012200019N0300001N1+00921-00351101821ADDAA199000091GA1001+999999999GF100991001001999999001001MA1999999088891MD1210271+9999REMSYN060AAXX  03121 53192 32980 03603 10092 21035 38889 40182 52027;EQDQ01  00002PRCP99
0122531920999992000100315004+44010+114940FM-12+112899999V0200201N002012200019N0300001N1+00601-00011101841ADDGA1001+999999999GF100991001001999999001001MD1210121+9999REMSYN054AAXX  03151 53192 42980 00202 10060 21001 40184 52012;
0196531920999992000100318004+44010+114940FM-12+112899999V0200901N001012200019N0300001N1+00441-00091101901ADDAA199000091GA1001+999999999GF100991001001999999001001KA1999M+01791MA1999999089091MD1210081+9999REMSYN070AAXX  03181 53192 32980 00901 10044 21009 38909 40190 52008 333 10179;EQDQ01  00002PRCP99
0143531920999992000100321004+44010+114940FM-12+112899999V0209999C000012200019N0300001N1+00101-00171102111ADDAA124000791GA1001+999999999GF100991001001999999001001MD1210081+9999REMSYN064AAXX  03211 53192 42980 00000 10010 21017 40211 52008 333 79999;
0183531920999992000100400004+44010+114940FM-12+112899999V0209999C000012200019N0300001N1+00351-00141102381ADDAA199000091GA1001+999999999GF100991001001999999001001MA1999999089311MD1210141+0051REMSYN070AAXX  04001 53192 32980 00000 10035 21014 38931 40238 52014 333 00553;EQDQ01  00002PRCP99
0122531920999992000100403004+44010+114940FM-12+112899999V0202901N004012200019N0300001N1+01201-00801102281ADDGA1001+999999999GF100991001001999999001001MD1210031+9999REMSYN054AAXX  04031 53192 42980 02904 10120 21080 40228 52003;
0186531920999992000100406004+44010+114940FM-12+112899999V0203201N003012200019N0300001N1+01381-00941102161ADDAA199000091GF102991011011008001001021KA1999N+00011MA1999999089241MD1710101+9999REMSYN076AAXX  04061 53192 32580 23203 10138 21094 38924 40216 57010 81102 333 20001;EQDQ01  00002PRCP99
0112531920999992000100409004+44010+114940FM-12+112899999V0202901N003012200019N0300001N1+01481-00741102191ADDGF102991011011008001001021MD1710031+9999REMSYN060AAXX  04091 53192 42580 22903 10148 21074 40219 57003 81102;
0163531920999992000100412004+44010+114940FM-12+112899999V0209999C000012200019N0300001N1+00871-00561102371ADDAA199000091GF101991011041012501001021MA1999999089291MD1210081+9999REMSYN066AAXX  04121 53192 32680 10000 10087 21056 38929 40237 52008 81402;EQDQ01  00002PRCP99
0112531920999992000100415004+44010+114940FM-12+112899999V0200201N002012200019N0300001N1+00561-00641102251ADDGF101991001001999999001021MD1210011+9999REMSYN060AAXX  04151 53192 42980 10202 10056 21064 40225 52001 80002;
0186531920999992000100418004+44010+114940FM-12+112899999V0200401N001012200019N0300001N1+00441-00641102141ADDAA199000091GF101991001001999999001021KA1999M+01511MA1999999089221MD1710081+9999REMSYN076AAXX  04181 53192 32980 10401 10044 21064 38922 40214 57008 80002 333 10151;EQDQ01  00002PRCP99
0112531920999992000100421004+44010+114940FM-12+112899999V0200401N002012200019N0300001N1+00331-00611102091ADDGF101991001001999999001021MD1710051+9999REMSYN060AAXX  04211 53192 42980 10402 10033 21061 40209 57005 80002;
0112531920999992000100503004+44010+114940FM-12+112899999V0201401N007012200019N0300001N1+01411+00041101631ADDGF102991011001999999031021MD1710221+9999REMSYN060AAXX  05031 53192 42980 21407 10141 20004 40163 57022 81032;
0185531920999992000100506004+44010+114940FM-12+112899999V0201401N002010900019N0300001N1+01281+00741101401ADDAA106000591GF106991041091008001001021KA1999N+00291MA1999999088551MD1710261+9999MW1801REMSYN088AAXX  05061 53192 11580 61402 10128 20074 38855 40140 57026 69941 78000 84902 333 20029;
0124531920999992000100509004+44010+114940FM-12+112899999V0200201N004010075019N0300001N1+01261+00631101191ADDGF107991061091008001001021MD1710211+9999MW1951REMSYN066AAXX  05091 53192 41580 70204 10126 20063 40119 57021 79500 86902;
0205531920999992000100512004+44010+114940FM-12+112899999V0201401N002012200019N0300001N1+00711+00401100981ADDAA106002091AY191061AY281061GF102991001001999999001021MA1999999088681MD1210341+9999MW1001OA130601801REMSYN094AAXX  05121 53192 11980 21402 10071 20040 38868 40098 52034 60021 70098 80002 333 91118 91536;
0112531920999992000100515004+44010+114940FM-12+112899999V0200201N003012200019N0300001N1+00461+00351101581ADDGF103991001001999999001021MD1210081+9999REMSYN060AAXX  05151 53192 42980 30203 10046 20035 40158 52008 80002;
0167531920999992000100518004+44010+114940FM-12+112899999V0200401N002010900019N0300001N1+00461+00351101701ADDAA199000021GF106991011091008001001021KA1999M+01621MA1999999088821MD1210081+9999REMSYN076AAXX  05181 53192 32580 60402 10046 20035 38882 40170 52008 81902 333 10162;
0133531920999992000100521004+44010+114940FM-12+112899999V0200401N002012200019N0300001N1+00501+00391101671ADDAA124002591GF104991011091008001001021MD1710021+9999REMSYN070AAXX  05211 53192 42580 40402 10050 20039 40167 57002 81902 333 70025;
0178531920999992000100600004+44010+114940FM-12+112899999V0209999C000012200019N0300001N1+00631+00371101671ADDAA124002591GF104991001001999999001021IA2999+00099MA1999999088711MD1710091-0301REMSYN088AAXX  06001 53192 32980 40000 10063 20037 38871 40167 57009 80002 333 05300 30009 70025;
0124531920999992000100603004+44010+114940FM-12+112899999V0200901N004010075019N0300001N1+01211+00211101441ADDGF107991061091008001001021MD1710131+9999MW1801REMSYN066AAXX  06031 53192 41580 70904 10121 20021 40144 57013 78000 86902;
0193531920999992000100606004+44010+114940FM-12+112899999V0201401N004010075019N0300001N1+01511+00911100991ADDAA106000791AY181061GF107991061091008001001021KA1999N+00361MA1999999088251MD1710331+9999MW1001REMSYN088AAXX  06061 53192 11580 71404 10151 20091 38825 40099 57033 69901 70080 86902 333 20036;
0132531920999992000100609004+44010+114940FM-12+112899999V0200901N002010075019N0300001N1+01511+01111100771ADDAY181031GF107991071091008001001021MD1710191+9999MW1001REMSYN066AAXX  06091 53192 41580 70902 10151 20111 40077 57019 70080 87902;
0170531920999992000100612004+44010+114940FM-12+112899999V0200401N001010075019N0250001N1+01311+01061100831ADDAA106000891AY181061GF107991061091008001001021MA1999999088101MD1210041+9999MW1001REMSYN078AAXX  06121 53192 11575 70401 10131 20106 38810 40083 52004 69981 70080 86902;
0132531920999992000100615004+44010+114940FM-12+112899999V0202501N003010075019N0300001N1+01251+00301100821ADDAY181031GF107991061091008001001021MD1210101+9999MW1001REMSYN066AAXX  06151 53192 41580 72503 10125 20030 40082 52010 70080 86902;
0193531920999992000100618004+44010+114940FM-12+112899999V0202501N006010075019N0300001N1+01061-00521100941ADDAA106000191AY181061GF106991051091008001001021KA1999M+01661MA1999999088331MD1210131+9999MW1001REMSYN088AAXX  06181 53192 11580 62506 10106 21052 38833 40094 52013 69911 70080 85902 333 10166;
0133531920999992000100621004+44010+114940FM-12+112899999V0202501N007012200019N0300001N1+00471-00171101321ADDAA124001091GF102991011091008001001021MD1210211+9999REMSYN070AAXX  06211 53192 42580 22507 10047 21017 40132 52021 81902 333 70009;
0201531920999992000100700004+44010+114940FM-12+112899999V0202501N010010075019N0300001N1+00351-00261101641ADDAA124001091GF107991071091008001999999IA2999+00069MA1999999088751MD1210211+0001OA130601801REMSYN100AAXX  07001 53192 32580 72510 10035 21026 38875 40164 52021 879// 333 00053 30006 70009 91118 91525;
0112531920999992000100703004+44010+114940FM-12+112899999V0202701N010010900019N0300001N1+00601-00221101721ADDGF107991031091008001001021MD1210111+9999REMSYN060AAXX  07031 53192 42580 72710 10060 21022 40172 52011 83902;
0209531920999992000100706004+44010+114940FM-12+112899999V0202701N008010900019N0300001N1+01021-00261101631ADDAA199000091GF106991011011008001001021KA1240N+00271MA1999999088831MD1710031+9999OA130601801REMSYN088AAXX  07061 53192 32580 62708 10102 21026 38883 40163 57003 81102 333 20027 91118 91527;EQDQ01  00002PRCP99
0112531920999992000100709004+44010+114940FM-12+112899999V0202901N005012200019N0300001N1+01071-00601101881ADDGF102991001001999999001021MD1210101+9999REMSYN060AAXX  07091 53192 42980 22905 10107 21060 40188 52010 80002;
0173531920999992000100712004+44010+114940FM-12+112899999V0203201N003012200019N0300001N1+00601-00621102221ADDAA199000091GA1001+999999999GF100991001001999999001001MA1999999089101MD1210171+9999REMSYN060AAXX  07121 53192 32980 03203 10060 21062 38910 40222 52017;EQDQ01  00002PRCP99
0122531920999992000100715004+44010+114940FM-12+112899999V0209999C000012200019N0300001N1+00131-00521102321ADDGA1001+999999999GF100991001001999999001001MD1210041+9999REMSYN054AAXX  07151 53192 42980 00000 10013 21052 40232 52004;
0122531920999992000100721004+44010+114940FM-12+112899999V0200401N001012200019N0300001N1-00221-00641102231ADDGA1001+999999999GF100991001001999999001001MD1710031+9999REMSYN054AAXX  07211 53192 42980 00401 11022 21064 40223 57003;
0183531920999992000100800004+44010+114940FM-12+112899999V0209999C000012200019N0300001N1-00071-00561102471ADDAA199000091GA1001+999999999GF100991001001999999001001MA1999999089231MD1210141+0051REMSYN070AAXX  08001 53192 32980 00000 11007 21056 38923 40247 52014 333 00554;EQDQ01  00002PRCP99
0112531920999992000100803004+44010+114940FM-12+112899999V0209999C000012200019N0300001N1+00821-00691102291ADDGF101991001001999999001021MD1710071+9999REMSYN060AAXX  08031 53192 42980 10000 10082 21069 40229 57007 80002;
0186531920999992000100806004+44010+114940FM-12+112899999V0202501N003010900019N0300001N1+01101-01091102161ADDAA199000091GF107991011011008001001021KA1999N-00391MA1999999089061MD1710101+9999REMSYN076AAXX  08061 53192 32580 72503 10110 21109 38906 40216 57010 81102 333 21039;EQDQ01  00002PRCP99
0112531920999992000100809004+44010+114940FM-12+112899999V0202701N002019999999N0300001N1+01041-00901102101ADDGF107991001001999999001021MD1710091+9999REMSYN060AAXX  08091 53192 42980 72702 10104 21090 40210 57009 80002;
0163531920999992000100812004+44010+114940FM-12+112899999V0200401N001019999999N0300001N1+00571-00581102181ADDAA199000091GF106991001001999999001021MA1999999088971MD1410001+9999REMSYN066AAXX  08121 53192 32980 60401 10057 21058 38897 40218 54000 80002;EQDQ01  00002PRCP99
0112531920999992000100815004+44010+114940FM-12+112899999V0200401N001012200019N0300001N1+00291-00591102021ADDGF101991001001999999001021MD1710011+9999REMSYN060AAXX  08151 53192 42980 10401 10029 21059 40202 57001 80002;
0196531920999992000100818004+44010+114940FM-12+112899999V0200401N003012200019N0300001N1+00211-00751101891ADDAA199000091GA1001+999999999GF100991001001999999001001KA1999M+01161MA1999999088891MD1710071+9999REMSYN070AAXX  08181 53192 32980 00403 10021 21075 38889 40189 57007 333 10116;EQDQ01  00002PRCP99
0112531920999992000100821004+44010+114940FM-12+112899999V0200401N001012200019N0300001N1+00131-00631101811ADDGF102991001001999999001021MD1710101+9999REMSYN060AAXX  08211 53192 42980 20401 10013 21063 40181 57010 80002;
0191531920999992000100900004+44010+114940FM-12+112899999V0200201N002010900019N0300001N1+00361-00491101871ADDAA199000091GF106991011091008001001021IA2999-00309MA1999999088791MD1410001-0401REMSYN082AAXX  09001 53192 32580 60202 10036 21049 38879 40187 54000 81902 333 05404 31033;EQDQ01  00002PRCP99
0112531920999992000100903004+44010+114940FM-12+112899999V0202501N002012200019N0300001N1+01141-00501101701ADDGF104991001001999999001021MD1710041+9999REMSYN060AAXX  09031 53192 42980 42502 10114 21050 40170 57004 80002;
0186531920999992000100906004+44010+114940FM-12+112899999V0202501N005012200019N0300001N1+01721-01141101351ADDAA199000091GF103991001001999999001021KA1999N+00071MA1999999088551MD1710201+9999REMSYN076AAXX  09061 53192 32980 32505 10172 21114 38855 40135 57020 80002 333 20007;EQDQ01  00002PRCP99
0112531920999992000100909004+44010+114940FM-12+112899999V0202501N005019999999N0300001N1+01651-00861101271ADDGF106991001001999999001021MD1710101+9999REMSYN060AAXX  09091 53192 42980 62505 10165 21086 40127 57010 80002;
0163531920999992000100912004+44010+114940FM-12+112899999V0202501N002019999999N0300001N1+01271-00371101371ADDAA199000091GF107991001001999999001021MA1999999088511MD1210061+9999REMSYN066AAXX  09121 53192 32980 72502 10127 21037 38851 40137 52006 80002;EQDQ01  00002PRCP99
0112531920999992000100915004+44010+114940FM-12+112899999V0202501N003019999999N0300001N1+00971-00011101281ADDGF106991001001999999001021MD1210021+9999REMSYN060AAXX  09151 53192 42980 62503 10097 21001 40128 52002 80002;
0186531920999992000100918004+44010+114940FM-12+112899999V0202501N003012200019N0300001N1+00791+00281101131ADDAA199000091GF101991001001999999001021KA1999M+01811MA1999999088481MD1710051+9999REMSYN076AAXX  09181 53192 32980 12503 10079 20028 38848 40113 57005 80002 333 10181;EQDQ01  00002PRCP99
0141531920999992000100921004+44010+114940FM-12+112899999V0202701N002012200019N0300001N1+00651+00291999999ADDGA1001+999999999GF100991001001999999001001MD1210021+9999REMSYN054AAXX  09211 53192 42980 02702 10065 20029 40225 52002;EQDQ01+102253APOSLP
0191531920999992000101000004+44010+114940FM-12+112899999V0202701N004012200019N0300001N1+00691-00161101551ADDAA199000091GF102991001001999999001021IA2999+00109MA1999999088731MD1210211-0101REMSYN082AAXX  10001 53192 32980 22704 10069 21016 38873 40155 52021 80002 333 05103 30012;EQDQ01  00002PRCP99
0112531920999992000101003004+44010+114940FM-12+112899999V0203601N004012200019N0300001N1+00621-00131102041ADDGF102991011011008001031021MD1210351+9999REMSYN060AAXX  10031 53192 42580 23604 10062 21013 40204 52035 81132;
0186531920999992000101006004+44010+114940FM-12+112899999V0200201N003010360019N0300001N1+00661-00371102181ADDAA199000091GF107991021011008001031021KA1999N+00491MA1999999089181MD1210101+9999REMSYN076AAXX  10061 53192 32580 70203 10066 21037 38918 40218 52010 82132 333 20049;EQDQ01  00002PRCP99
0112531920999992000101009004+44010+114940FM-12+112899999V0200201N005010075019N0300001N1+00301-00651102501ADDGF107991061091008001001021MD1210171+9999REMSYN060AAXX  10091 53192 42580 70205 10030 21065 40250 52017 86902;
0163531920999992000101012004+44010+114940FM-12+112899999V0203401N005010900019N0300001N1+00031-00821102881ADDAA199000091GF107991031091008001001021MA1999999089631MD1210281+9999REMSYN066AAXX  10121 53192 32580 73405 10003 21082 38963 40288 52028 83902;EQDQ01  00002PRCP99
0112531920999992000101015004+44010+114940FM-12+112899999V0202901N003012200019N0300001N1-00191-00861103211ADDGF103991001001999999001021MD1210221+9999REMSYN060AAXX  10151 53192 42980 32903 11019 21086 40321 52022 80002;
0196531920999992000101018004+44010+114940FM-12+112899999V0202901N004012200019N0300001N1-00531-01191103401ADDAA199000091GA1001+999999999GF100991001001999999001001KA1999M+00821MA1999999089951MD1210101+9999REMSYN070AAXX  10181 53192 32980 02904 11053 21119 38995 40340 52010 333 10082;EQDQ01  00002PRCP99
0122531920999992000101021004+44010+114940FM-12+112899999V0202901N004012200019N0300001N1-00701-01231103621ADDGA1001+999999999GF100991001001999999001001MD1210071+9999REMSYN054AAXX  10211 53192 42980 02904 11070 21123 40362 52007;
0183531920999992000101100004+44010+114940FM-12+112899999V0202501N003012200019N0300001N1-00661-01171103801ADDAA199000091GA1001+999999999GF100991001001999999001001MA1999999090121MD1210101+0141REMSYN070AAXX  11001 53192 32980 02503 11066 21117 39012 40380 52010 333 01464;EQDQ01  00002PRCP99
0122531920999992000101103004+44010+114940FM-12+112899999V0202901N006012200019N0300001N1-00231-01281103791ADDGA1001+999999999GF100991001001999999001001MD1210041+9999REMSYN054AAXX  11031 53192 42980 02906 11023 21128 40379 52004;
0196531920999992000101106004+44010+114940FM-12+112899999V0202901N007012200019N0300001N1+00021-01371103691ADDAA199000091GA1001+999999999GF100991001001999999001001KA1999N-00841MA1999999090051MD1710111+9999REMSYN070AAXX  11061 53192 32980 02907 10002 21137 39005 40369 57011 333 21084;EQDQ01  00002PRCP99
0122531920999992000101109004+44010+114940FM-12+112899999V0202901N006012200019N0300001N1+00051-01431103681ADDGA1001+999999999GF100991001001999999001001MD1710041+9999REMSYN054AAXX  11091 53192 42980 02906 10005 21143 40368 57004;
0173531920999992000101112004+44010+114940FM-12+112899999V0202901N003012200019N0300001N1-00341-01701103931ADDAA199000091GA1001+999999999GF100991001001999999001001MA1999999090151MD1210141+9999REMSYN060AAXX  11121 53192 32980 02903 11034 21170 39015 40393 52014;EQDQ01  00002PRCP99
0122531920999992000101115004+44010+114940FM-12+112899999V0202901N004012200019N0300001N1-00551-01571103931ADDGA1001+999999999GF100991001001999999001001MD1210051+9999REMSYN054AAXX  11151 53192 42980 02904 11055 21157 40393 52005;
0196531920999992000101118004+44010+114940FM-12+112899999V0202701N002012200019N0300001N1-00811-01771103921ADDAA199000091GA1001+999999999GF100991001001999999001001KA1999M+00131MA1999999090191MD1710011+9999REMSYN070AAXX  11181 53192 32980 02702 11081 21177 39019 40392 57001 333 10013;EQDQ01  00002PRCP99
0122531920999992000101121004+44010+114940FM-12+112899999V0202701N003012200019N0300001N1-01011-01451103891ADDGA1001+999999999GF100991001001999999001001MD1710071+9999REMSYN054AAXX  11211 53192 42980 02703 11101 21145 40389 57007;
0183531920999992000101200004+44010+114940FM-12+112899999V0202701N003012200019N0300001N1-00781-01521103941ADDAA199000091GA1001+999999999GF100991001001999999001001MA1999999090131MD1210011+0001REMSYN070AAXX  12001 53192 32980 02703 11078 21152 39013 40394 52001 333 00051;EQDQ01  00002PRCP99
0122531920999992000101203004+44010+114940FM-12+112899999V0202701N007012200019N0300001N1-00181-01421103781ADDGA1001+999999999GF100991001001999999001001MD1710051+9999REMSYN054AAXX  12031 53192 42980 02707 11018 21142 40378 57005;
0186531920999992000101206004+44010+114940FM-12+112899999V0202701N006012200019N0300001N1+00141-01531103461ADDAA199000091GF101991011011008001001001KA1999N-01041MA1999999089821MD1710261+9999REMSYN076AAXX  12061 53192 32580 12706 10014 21153 38982 40346 57026 81100 333 21104;EQDQ01  00002PRCP99
0122531920999992000101209004+44010+114940FM-12+112899999V0202701N005012200019N0300001N1+00141-01751103361ADDGA1001+999999999GF100991001001999999001001MD1710141+9999REMSYN054AAXX  12091 53192 42980 02705 10014 21175 40336 57014;
0173531920999992000101212004+44010+114940FM-12+112899999V0202901N004012200019N0300001N1-00351-01571103491ADDAA199000091GA1001+999999999GF100991001001999999001001MA1999999089731MD1210051+9999REMSYN060AAXX  12121 53192 32980 02904 11035 21157 38973 40349 52005;EQDQ01  00002PRCP99
0122531920999992000101215004+44010+114940FM-12+112899999V0202701N003012200019N0300001N1-00571-01541103321ADDGA1001+999999999GF100991001001999999001001MD1710051+9999REMSYN054AAXX  12151 53192 42980 02703 11057 21154 40332 57005;
0196531920999992000101218004+44010+114940FM-12+112899999V0202901N001012200019N0300001N1-00791-01531103231ADDAA199000091GA1001+999999999GF100991001001999999001001KA1999M+00241MA1999999089621MD1710061+9999REMSYN070AAXX  12181 53192 32980 02901 11079 21153 38962 40323 57006 333 10024;EQDQ01  00002PRCP99
0122531920999992000101221004+44010+114940FM-12+112899999V0202001N002012200019N0300001N1-00851-01561103161ADDGA1001+999999999GF100991001001999999001001MD1710071+9999REMSYN054AAXX  12211 53192 42980 02002 11085 21156 40316 57007;
0183531920999992000101300004+44010+114940FM-12+112899999V0202701N005012200019N0300001N1-00691-01271103251ADDAA199000091GA1001+999999999GF100991001001999999001001MA1999999089551MD1410001+0061REMSYN070AAXX  13001 53192 32980 02705 11069 21127 38955 40325 54000 333 05601;EQDQ01  00002PRCP99
0122531920999992000101303004+44010+114940FM-12+112899999V0202501N006012200019N0300001N1+00021-01111103031ADDGA1001+999999999GF100991001001999999001001MD1710081+9999REMSYN054AAXX  13031 53192 42980 02506 10002 21111 40303 57008;
0196531920999992000101306004+44010+114940FM-12+112899999V0202701N009012200019N0300001N1+00511-01121102661ADDAA199000091GA1001+999999999GF100991001001999999001001KA1999N-00921MA1999999089211MD1710261+9999REMSYN070AAXX  13061 53192 32980 02709 10051 21112 38921 40266 57026 333 21092;EQDQ01  00002PRCP99
0122531920999992000101309004+44010+114940FM-12+112899999V0202701N009012200019N0300001N1+00451-02262102591ADDGA1001+999999999GF100991001001999999001001MD1710091+9999REMSYN054AAXX  13091 53192 42980 02709 10045 21226 40259 57009;
0173531920999992000101312004+44010+114940FM-12+112899999V0202501N003012200019N0300001N1-00101-01641102781ADDAA199000091GA1001+999999999GF100991001001999999001001MA1999999089201MD1210081+9999REMSYN060AAXX  13121 53192 32980 02503 11010 21164 38920 40278 52008;EQDQ01  00002PRCP99
0122531920999992000101315004+44010+114940FM-12+112899999V0202701N003012200019N0300001N1-00371-01611102631ADDGA1001+999999999GF100991001001999999001001MD1710031+9999REMSYN054AAXX  13151 53192 42980 02703 11037 21161 40263 57003;
0196531920999992000101318004+44010+114940FM-12+112899999V0209999C000012200019N0300001N1-00641-01531102471ADDAA199000091GA1001+999999999GF100991001001999999001001KA1999M+00561MA1999999089081MD1710091+9999REMSYN070AAXX  13181 53192 32980 00000 11064 21153 38908 40247 57009 333 10056;EQDQ01  00002PRCP99
0122531920999992000101321004+44010+114940FM-12+112899999V0209999C000012200019N0300001N1-00781-01641102381ADDGA1001+999999999GF100991001001999999001001MD1710121+9999REMSYN054AAXX  13211 53192 42980 00000 11078 21164 40238 57012;
0183531920999992000101400004+44010+114940FM-12+112899999V0202701N001012200019N0300001N1-00631-01351102581ADDAA199000091GA1001+999999999GF100991001001999999001001MA1999999089041MD1210081+0051REMSYN070AAXX  14001 53192 32980 02701 11063 21135 38904 40258 52008 333 05501;EQDQ01  00002PRCP99
0122531920999992000101403004+44010+114940FM-12+112899999V0202701N006012200019N0300001N1+00281-01521102531ADDGA1001+999999999GF100991001001999999001001MD1210101+9999REMSYN054AAXX  14031 53192 42980 02706 10028 21152 40253 52010;
0186531920999992000101406004+44010+114940FM-12+112899999V0202901N006012200019N0300001N1+00611-01301102541ADDAA199000091GF101991011011008001001001KA1999N-00841MA1999999089161MD1210021+9999REMSYN076AAXX  14061 53192 32580 12906 10061 21130 38916 40254 52002 81100 333 21084;EQDQ01  00002PRCP99
0112531920999992000101409004+44010+114940FM-12+112899999V0202901N004012200019N0300001N1+00451-01451102831ADDGF101991001001999999001021MD1210191+9999REMSYN060AAXX  14091 53192 42980 12904 10045 21145 40283 52019 80002;
0163531920999992000101412004+44010+114940FM-12+112899999V0203601N002012200019N0300001N1-00101-01331103271ADDAA199000091GF101991001001999999001021MA1999999089641MD1210291+9999REMSYN066AAXX  14121 53192 32980 13602 11010 21133 38964 40327 52029 80002;EQDQ01  00002PRCP99
0122531920999992000101415004+44010+114940FM-12+112899999V0201401N001012200019N0300001N1-00421-01121103351ADDGA1001+999999999GF100991001001999999001001MD1210201+9999REMSYN054AAXX  14151 53192 42980 01401 11042 21112 40335 52020;
0196531920999992000101418004+44010+114940FM-12+112899999V0200201N002012200019N0300001N1-00701-01231103461ADDAA199000091GA1001+999999999GF100991001001999999001001KA1999M+00641MA1999999089951MD1210111+9999REMSYN070AAXX  14181 53192 32980 00202 11070 21123 38995 40346 52011 333 10064;EQDQ01  00002PRCP99
0122531920999992000101421004+44010+114940FM-12+112899999V0209999C000012200019N0300001N1-00961-01371103621ADDGA1001+999999999GF100991001001999999001001MD1210041+9999REMSYN054AAXX  14211 53192 42980 00000 11096 21137 40362 52004;
0183531920999992000101500004+44010+114940FM-12+112899999V0209999C000012200019N0300001N1-00661-01171103791ADDAA199000091GA1001+999999999GF100991001001999999001001MA1999999090081MD1210091+0101REMSYN070AAXX  15001 53192 32980 00000 11066 21117 39008 40379 52009 333 01000;EQDQ01  00002PRCP99
0122531920999992000101503004+44010+114940FM-12+112899999V0202501N004012200019N0300001N1+00201-01041103681ADDGA1001+999999999GF100991001001999999001001MD1210031+9999REMSYN054AAXX  15031 53192 42980 02504 10020 21104 40368 52003;
0196531920999992000101506004+44010+114940FM-12+112899999V0202701N006012200019N0300001N1+00571-01171103411ADDAA199000091GA1001+999999999GF100991001001999999001001KA1999N-01061MA1999999089901MD1710211+9999REMSYN070AAXX  15061 53192 32980 02706 10057 21117 38990 40341 57021 333 21106;EQDQ01  00002PRCP99
0122531920999992000101509004+44010+114940FM-12+112899999V0202501N006012200019N0300001N1+00531-02442103291ADDGA1001+999999999GF100991001001999999001001MD1710181+9999REMSYN054AAXX  15091 53192 42980 02506 10053 21244 40329 57018;
0173531920999992000101512004+44010+114940FM-12+112899999V0202501N001012200019N0300001N1-00101-01721103341ADDAA199000091GA1001+999999999GF100991001001999999001001MA1999999089691MD1710031+9999REMSYN060AAXX  15121 53192 32980 02501 11010 21172 38969 40334 57003;EQDQ01  00002PRCP99
0122531920999992000101515004+44010+114940FM-12+112899999V0202701N003012200019N0300001N1-00481-01631103051ADDGA1001+999999999GF100991001001999999001001MD1710141+9999REMSYN054AAXX  15151 53192 42980 02703 11048 21163 40305 57014;
0196531920999992000101518004+44010+114940FM-12+112899999V0202701N001012200019N0300001N1-00551-01631102791ADDAA199000091GA1001+999999999GF100991001001999999001001KA1999M+00621MA1999999089391MD1710161+9999REMSYN070AAXX  15181 53192 32980 02701 11055 21163 38939 40279 57016 333 10062;EQDQ01  00002PRCP99
0122531920999992000101521004+44010+114940FM-12+112899999V0202501N002012200019N0300001N1-00441-01481102531ADDGA1001+999999999GF100991001001999999001001MD1710211+9999REMSYN054AAXX  15211 53192 42980 02502 11044 21148 40253 57021;
0183531920999992000101600004+44010+114940FM-12+112899999V0202701N003012200019N0300001N1-00261-01441102581ADDAA199000091GA1001+999999999GF100991001001999999001001MA1999999089121MD1710061+0101REMSYN070AAXX  16001 53192 32980 02703 11026 21144 38912 40258 57006 333 06004;EQDQ01  00002PRCP99
0141531920999992000101603004+44010+114940FM-12+112899999V0202501N009012200019N0300001N1+00922-01801102151ADDGA1001+999999999GF100991001001999999001001MD1710191+9999REMSYN054AAXX  16031 53192 42980 02509 10092 21180 40215 57019;EQDQ01+000923ATOT  
0219531920999992000101606004+44010+114940FM-12+112899999V0202501N011012200019N0300001N1+01481-01961101691ADDAA199000091GA1001+999999999GF100991001001999999001001KA1240N-00601MA1999999088641MD1710291+9999OA130601701REMSYN082AAXX  16061 53192 32980 02511 10148 21196 38864 40169 57029 333 21060 91117 91525;EQDQ01  00002PRCP99
0122531920999992000101609004+44010+114940FM-12+112899999V0202501N010012200019N0300001N1+01471-02131101461ADDGA1001+999999999GF100991001001999999001001MD1710181+9999REMSYN054AAXX  16091 53192 42980 02510 10147 21213 40146 57018;
0200531920999992000101612004+44010+114940FM-12+112899999V0202901N004012200019N0300001N1+00781-01431101641ADDAA199000091GA1001+999999999GF100991001001999999001001MA1999999088501MD1210041+9999OA130601701REMSYN076AAXX  16121 53192 32980 02904 10078 21143 38850 40164 52004 333 91117 91525;EQDQ01  00002PRCP99
0112531920999992000101615004+44010+114940FM-12+112899999V0200201N004019999999N0300001N1+00461-01051101701ADDGF106991001001999999001021MD1210241+9999REMSYN060AAXX  16151 53192 42980 60204 10046 21105 40170 52024 80002;
0186531920999992000101618004+44010+114940FM-12+112899999V0203601N003019999999N0300001N1+00221-00151101881ADDAA199000091GF107991031001999999031021KA1999M+01551MA1999999088971MD1210231+9999REMSYN076AAXX  16181 53192 32980 73603 10022 21015 38897 40188 52023 83032 333 10155;EQDQ01  00002PRCP99
0153531920999992000101621004+44010+114940FM-12+112899999V0200401N005012200019N0300001N1-00401-01081102291ADDAA124000791AY171031GF101991001001999999001021MD1210221+9999MW1001REMSYN076AAXX  16211 53192 41980 10405 11040 21108 40229 52022 70070 80002 333 79999;
0186531920999992000101700004+44010+114940FM-12+112899999V0200401N004012200019N0300001N1-00521-01271103041ADDAA106000791AY171061GF101991001001999999001021MA1999999089661MD1210361+0501MW1001REMSYN094AAXX  17001 53192 11980 10404 11052 21127 38966 40304 52036 69901 70070 80002 333 00553 79999;
0122531920999992000101703004+44010+114940FM-12+112899999V0200401N005012200019N0300001N1-00211-01351103261ADDGA1001+999999999GF100991001001999999001001MD1210191+9999REMSYN054AAXX  17031 53192 42980 00405 11021 21135 40326 52019;
0196531920999992000101706004+44010+114940FM-12+112899999V0200901N003012200019N0300001N1+00001-01621103161ADDAA199000091GA1001+999999999GF100991001001999999001001KA1999N-00641MA1999999089761MD1710091+9999REMSYN070AAXX  17061 53192 32980 00903 10000 21162 38976 40316 57009 333 21064;EQDQ01  00002PRCP99
0112531920999992000101709004+44010+114940FM-12+112899999V0200901N004012200019N0300001N1-00031-01481103251ADDGF102991001001999999001021MD1710071+9999REMSYN060AAXX  17091 53192 42980 20904 11003 21148 40325 57007 80002;
0173531920999992000101712004+44010+114940FM-12+112899999V0200701N004012200019N0300001N1-00331-02011103331ADDAA199000091GA1001+999999999GF100991001001999999001001MA1999999089661MD1710031+9999REMSYN060AAXX  17121 53192 32980 00704 11033 21201 38966 40333 57003;EQDQ01  00002PRCP99
0112531920999992000101715004+44010+114940FM-12+112899999V0200701N002012200019N0300001N1-00411-01861103041ADDGF101991001001999999001021MD1710201+9999REMSYN060AAXX  17151 53192 42980 10702 11041 21186 40304 57020 80002;
0186531920999992000101718004+44010+114940FM-12+112899999V0202501N003019999999N0300001N1-00281-01771102571ADDAA199000091GF107991001001999999001021KA1999M+00241MA1999999089131MD1710331+9999REMSYN076AAXX  17181 53192 32980 72503 11028 21177 38913 40257 57033 80002 333 10024;EQDQ01  00002PRCP99
0112531920999992000101721004+44010+114940FM-12+112899999V0201801N002019999999N0300001N1-00041-01481102171ADDGF107991001001999999001021MD1710301+9999REMSYN060AAXX  17211 53192 42980 71802 11004 21148 40217 57030 80002;
0189531920999992000101800004+44010+114940FM-12+112899999V0202001N004019999999N0300001N1+00501-00322101851ADDAA199000091GF107991001001999999001021MA1999999088611MD1710221+0111REMSYN076AAXX  18001 53192 32980 72004 10050 21032 38861 40185 57022 80002 333 06110;EQDQ01-000323ATOD  Q02  00002PRCP99
0112531920999992000101803004+44010+114940FM-12+112899999V0202001N011019999999N0250001N1+01101-00101101521ADDGF107991001001999999001061MD1710171+9999REMSYN060AAXX  18031 53192 42975 72011 10110 21010 40152 57017 80006;
0209531920999992000101806004+44010+114940FM-12+112899999V0202201N008019999999N0250001N1+01321-00281101151ADDAA199000091GF108991081001999999021999KA1240N-00571MA1999999088191MD1710251+9999OA130601701REMSYN088AAXX  18061 53192 32975 82208 10132 21028 38819 40115 57025 8802/ 333 21057 91117 91520;EQDQ01  00002PRCP99
0112531920999992000101809004+44010+114940FM-12+112899999V0202201N007010120019N0300001N1+01271+00071101021ADDGF107991061051012501001021MD1710071+9999REMSYN060AAXX  18091 53192 42680 72207 10127 20007 40102 57007 86502;
0170531920999992000101812004+44010+114940FM-12+112899999V0202001N008010075019N0300001N1+01011+00321100981ADDAA106000791AY181061GF107991051091008001001021MA1999999088141MD1210021+9999MW1001REMSYN078AAXX  18121 53192 11580 72008 10101 20032 38814 40098 52002 69901 70080 85902;
0112531920999992000101815004+44010+114940FM-12+112899999V0202501N002010900019N0300001N1+00781+00241100881ADDGF107991021091008001001021MD1710011+9999REMSYN060AAXX  18151 53192 42580 72502 10078 20024 40088 57001 82902;
0186531920999992000101818004+44010+114940FM-12+112899999V0202201N007010075019N0300001N1+00701-00201100821ADDAA199000091GF107991061091008001001021KA1999M+01331MA1999999088111MD1710021+9999REMSYN076AAXX  18181 53192 32580 72207 10070 21020 38811 40082 57002 86902 333 10133;EQDQ01  00002PRCP99
0133531920999992000101821004+44010+114940FM-12+112899999V0202501N006010900019N0300001N1+00281-00981101141ADDAA124000791GF106991021091008001001021MD1210181+9999REMSYN070AAXX  18211 53192 42580 62506 10028 21098 40114 52018 82902 333 79999;
0201531920999992000101900004+44010+114940FM-12+112899999V0202501N008012200019N0300001N1+00071-01491101471ADDAA124000791GF101991001001999999001021IA2999-00299MA1999999088481MD1210191-0101OA130601801REMSYN100AAXX  19001 53192 32980 12508 10007 21149 38848 40147 52019 80002 333 05154 31029 79999 91118 91525;
0112531920999992000101903004+44010+114940FM-12+112899999V0202701N011012200019N0300001N1+00221-00951101671ADDGF104991041011008001001001MD1210151+9999REMSYN060AAXX  19031 53192 42580 42711 10022 21095 40167 52015 84100;
0209531920999992000101906004+44010+114940FM-12+112899999V0202701N008010075019N0250001N1+00161-01161101871ADDAA199000091GF106991061011008001001001KA1240N+00011MA1999999088781MD1210151+9999OA130601801REMSYN088AAXX  19061 53192 32575 62708 10016 21116 38878 40187 52015 86100 333 20001 91118 91525;EQDQ01  00002PRCP99
0112531920999992000101909004+44010+114940FM-12+112899999V0202701N006012200019N0300001N1+00241-01231102031ADDGF101991011011008001001001MD1210061+9999REMSYN060AAXX  19091 53192 42580 12706 10024 21123 40203 52006 81100;
0173531920999992000101912004+44010+114940FM-12+112899999V0202501N003012200019N0300001N1-00181-01301102361ADDAA199000091GA1001+999999999GF100991001001999999001001MA1999999088991MD1210151+9999REMSYN060AAXX  19121 53192 32980 02503 11018 21130 38899 40236 52015;EQDQ01  00002PRCP99
0122531920999992000101915004+44010+114940FM-12+112899999V0209999C000012200019N0300001N1-00531-01291102421ADDGA1001+999999999GF100991001001999999001001MD1210011+9999REMSYN054AAXX  19151 53192 42980 00000 11053 21129 40242 52001;
0196531920999992000101918004+44010+114940FM-12+112899999V0209999C000012200019N0300001N1-00731-01761102411ADDAA199000091GA1001+999999999GF100991001001999999001001KA1999M+00681MA1999999088931MD1710071+9999REMSYN070AAXX  19181 53192 32980 00000 11073 21176 38893 40241 57007 333 10068;EQDQ01  00002PRCP99
0122531920999992000101921004+44010+114940FM-12+112899999V0209999C000012200019N0300001N1-00751-01521102291ADDGA1001+999999999GF100991001001999999001001MD1710091+9999REMSYN054AAXX  19211 53192 42980 00000 11075 21152 40229 57009;
0173531920999992000102000004+44010+114940FM-12+112899999V0209999C000012200019N0300001N1-00561-01451102311ADDAA199000091GF101991001001999999001021MA1999999088801MD1710041+0031REMSYN076AAXX  20001 53192 32980 10000 11056 21145 38880 40231 57004 80002 333 00356;EQDQ01  00002PRCP99
0122531920999992000102003004+44010+114940FM-12+112899999V0202201N006012200019N0300001N1+00401-02091101941ADDGA1001+999999999GF100991001001999999001001MD1710181+9999REMSYN054AAXX  20031 53192 42980 02206 10040 21209 40194 57018;
0219531920999992000102006004+44010+114940FM-12+112899999V0202701N012012200019N0250001N1+00741-02241101751ADDAA199000091GA1001+999999999GF100991001001999999001001KA1240N-00831MA1999999088491MD1710131+9999OA130601901REMSYN082AAXX  20061 53192 32975 02712 10074 21224 38849 40175 57013 333 21083 91119 91525;EQDQ01  00002PRCP99
0122531920999992000102009004+44010+114940FM-12+112899999V0202701N011012200019N0250001N1+00501-02701101971ADDGA1001+999999999GF100991001001999999001001MD1210131+9999REMSYN054AAXX  20091 53192 42975 02711 10050 21270 40197 52013;
0200531920999992000102012004+44010+114940FM-12+112899999V0202701N007012200019N0300001N1+00041-02621102491ADDAA199000091GA1001+999999999GF100991001001999999001001MA1999999089011MD1210391+9999OA130601901REMSYN076AAXX  20121 53192 32980 02707 10004 21262 38901 40249 52039 333 91119 91527;EQDQ01  00002PRCP99
0122531920999992000102015004+44010+114940FM-12+112899999V0202901N005012200019N0300001N1-00331-02571102591ADDGA1001+999999999GF100991001001999999001001MD1210221+9999REMSYN054AAXX  20151 53192 42980 02905 11033 21257 40259 52022;
0196531920999992000102018004+44010+114940FM-12+112899999V0203401N002012200019N0300001N1-00601-02381102761ADDAA199000091GA1001+999999999GF100991001001999999001001KA1999M+00761MA1999999089391MD1210161+9999REMSYN070AAXX  20181 53192 32980 03402 11060 21238 38939 40276 52016 333 10076;EQDQ01  00002PRCP99
0122531920999992000102021004+44010+114940FM-12+112899999V0202201N001012200019N0300001N1-00861-02121102991ADDGA1001+999999999GF100991001001999999001001MD1210091+9999REMSYN054AAXX  20211 53192 42980 02201 11086 21212 40299 52009;
0183531920999992000102100004+44010+114940FM-12+112899999V0209999C000012200019N0300001N1-00861-02031103151ADDAA199000091GA1001+999999999GF100991001001999999001001MA1999999089511MD1210031+0071REMSYN070AAXX  21001 53192 32980 00000 11086 21203 38951 40315 52003 333 00753;EQDQ01  00002PRCP99
0122531920999992000102103004+44010+114940FM-12+112899999V0202501N002012200019N0300001N1+00061-01681102941ADDGA1001+999999999GF100991001001999999001001MD1710051+9999REMSYN054AAXX  21031 53192 42980 02502 10006 21168 40294 57005;
0186531920999992000102106004+44010+114940FM-12+112899999V0202001N003019999999N0300001N1+00491-02641102651ADDAA199000091GF105991001001999999001021KA1999N-01011MA1999999089241MD1710221+9999REMSYN076AAXX  21061 53192 32980 52003 10049 21264 38924 40265 57022 80002 333 21101;EQDQ01  00002PRCP99
0112531920999992000102109004+44010+114940FM-12+112899999V0201601N003019999999N0300001N1+00541-02851102521ADDGF106991021001999999031021MD1710161+9999REMSYN060AAXX  21091 53192 42980 61603 10054 21285 40252 57016 82032;
0173531920999992000102112004+44010+114940FM-12+112899999V0209999C000012200019N0300001N1+00051-02001102571ADDAA199000091GA1001+999999999GF100991001001999999001001MA1999999089011MD1710071+9999REMSYN060AAXX  21121 53192 32980 00000 10005 21200 38901 40257 57007;EQDQ01  00002PRCP99
0122531920999992000102115004+44010+114940FM-12+112899999V0200201N003012200019N0300001N1-00161-02691102311ADDGA1001+999999999GF100991001001999999001001MD1710061+9999REMSYN054AAXX  21151 53192 42980 00203 11016 21269 40231 57006;
0196531920999992000102118004+44010+114940FM-12+112899999V0200901N001012200019N0300001N1-00351-01951102181ADDAA199000091GA1001+999999999GF100991001001999999001001KA1999M+00571MA1999999088891MD1710061+9999REMSYN070AAXX  21181 53192 32980 00901 11035 21195 38889 40218 57006 333 10057;EQDQ01  00002PRCP99
0122531920999992000102121004+44010+114940FM-12+112899999V0209999C000012200019N0300001N1-00401-01991102021ADDGA1001+999999999GF100991001001999999001001MD1710141+9999REMSYN054AAXX  21211 53192 42980 00000 11040 21199 40202 57014;
0173531920999992000102200004+44010+114940FM-12+112899999V0200401N002019999999N0300001N1-00211-01401102031ADDAA199000091GF107991001001999999001021MA1999999088691MD1710061+0081REMSYN076AAXX  22001 53192 32980 70402 11021 21140 38869 40203 57006 80002 333 05807;EQDQ01  00002PRCP99
0112531920999992000102203004+44010+114940FM-12+112899999V0202001N004019999999N0250001N1+01101-00451101601ADDGF107991021001999999031021MD1710131+9999REMSYN060AAXX  22031 53192 42975 72004 10110 21045 40160 57013 82032;
0185531920999992000102206004+44010+114940FM-12+112899999V0202001N008010075019N0300001N1+01221+00091101451ADDAA106000791GF107991061091008001001021KA1999N-00431MA1999999088411MD1710151+9999MW1801REMSYN088AAXX  22061 53192 11580 72008 10122 20009 38841 40145 57015 69901 78000 86902 333 21043;
0132531920999992000102209004+44010+114940FM-12+112899999V0202001N005010075019N0250001N1+00741+00601101641ADDAY181031GF108991081091008001999999MD1210051+9999MW1801REMSYN066AAXX  22091 53192 41575 82005 10074 20060 40164 52005 78080 889//;
0180531920999992000102212004+44010+114940FM-12+112899999V0202501N003012200019N0300001N1+00461+00351101721ADDAA106001091AY181061GA1001+999999999GF100991001001999999001001MA1999999088511MD1210051+9999MW1001REMSYN072AAXX  22121 53192 11980 02503 10046 20035 38851 40172 52005 60011 70080;
0112531920999992000102215004+44010+114940FM-12+112899999V0209999C000010900019N0300001N1+00301+00251101481ADDGF107991031091008001001021MD1210041+9999REMSYN060AAXX  22151 53192 42580 70000 10030 20025 40148 52004 83902;
0179531920999992000102218004+44010+114940FM-12+112899999V0202201N001010075019N0008001N1+00301+00301101491ADDAA199000021GF107991061091008001001021KA1999M+01271MA1999999088591MD1210041+9999MW1421REMSYN082AAXX  22181 53192 31508 72201 10030 20030 38859 40149 52004 74200 86902 333 10127;
0153531920999992000102221004+44010+114940FM-12+112899999V0209999C000010075019N0008001N1+00151+00151101531ADDAA124001391AY141031GF107991051091008001001021MD1710101+9999MW1441REMSYN076AAXX  22211 53192 41508 70000 10015 20015 40153 57010 74440 85902 333 70013;
0198531920999992000102300004+44010+114940FM-12+112899999V0209999C000010900019N0300001N1+00361+00191101551ADDAA124001391AY141061GF107991011091008001001021IA2999-00159MA1999999088491MD1410001-0201MW1001REMSYN094AAXX  23001 53192 31580 70000 10036 20019 38849 40155 54000 70040 81902 333 05206 31015 70013;
0112531920999992000102303004+44010+114940FM-12+112899999V0202201N006010900019N0300001N1+00901+00461101551ADDGF107991011091008001001021MD1210081+9999REMSYN060AAXX  23031 53192 42580 72206 10090 20046 40155 52008 81902;
0186531920999992000102306004+44010+114940FM-12+112899999V0202501N005010900019N0300001N1+00881+00411101531ADDAA199000091GF107991011091008001001021KA1999N+00081MA1999999088551MD1710021+9999REMSYN076AAXX  23061 53192 32580 72505 10088 20041 38855 40153 57002 81902 333 20008;EQDQ01  00002PRCP99
0132531920999992000102309004+44010+114940FM-12+112899999V0202501N003010900019N0300001N1+00831-00051101571ADDAY181031GF107991021091008001001021MD1710011+9999MW1001REMSYN066AAXX  23091 53192 41580 72503 10083 21005 40157 57001 70080 82902;
0170531920999992000102312004+44010+114940FM-12+112899999V0202901N006010075019N0300001N1+00331+00091101931ADDAA106000791AY181061GF107991061091008001001021MA1999999088791MD1210251+9999MW1001REMSYN078AAXX  23121 53192 11580 72906 10033 20009 38879 40193 52025 69901 70080 86902;
0132531920999992000102315004+44010+114940FM-12+112899999V0202701N004010075019N0300001N1+00091-00011101851ADDAY181031GF107991071091008001001021MD1410001+9999MW1001REMSYN066AAXX  23151 53192 41580 72704 10009 21001 40185 54000 70080 87902;
0193531920999992000102318004+44010+114940FM-12+112899999V0202501N007012200019N0300001N1+00041-00091101991ADDAA106002091AY181061GF104991021091008001001021KA1999M+00951MA1999999088901MD1210111+9999MW1001REMSYN088AAXX  23181 53192 11580 42507 10004 21009 38890 40199 52011 60021 70080 82902 333 10095;
0143531920999992000102321004+44010+114940FM-12+112899999V0202701N008012200019N0300001N1-00321-01151102251ADDAA124002091GA1001+999999999GF100991001001999999001001MD1210131+9999REMSYN064AAXX  23211 53192 42980 02708 11032 21115 40225 52013 333 70020;
0170531920999992000102400004+44010+114940FM-12+112899999V0202701N009012200019N0300001N1-00811-01501103011ADDAA124002091GA1001+999999999GF100991001001999999001001MA1999999089471MD1210441+1001REMSYN076AAXX  24001 53192 32980 02709 11081 21150 38947 40301 52044 333 01062 70020;
0122531920999992000102403004+44010+114940FM-12+112899999V0202701N010012200019N0300001N1-00731-01841103171ADDGA1001+999999999GF100991001001999999001001MD1210101+9999REMSYN054AAXX  24031 53192 42980 02710 11073 21184 40317 52010;
0219531920999992000102406004+44010+114940FM-12+112899999V0202701N011012200019N0300001N1-00491-02161103121ADDAA199000091GA1001+999999999GF100991001001999999001001KA1240N-00901MA1999999089571MD1410001+9999OA130601901REMSYN082AAXX  24061 53192 32980 02711 11049 21216 38957 40312 54000 333 21090 91119 91527;EQDQ01  00002PRCP99
0122531920999992000102409004+44010+114940FM-12+112899999V0202501N008012200019N0300001N1-00491-02071103271ADDGA1001+999999999GF100991001001999999001001MD1210051+9999REMSYN054AAXX  24091 53192 42980 02508 11049 21207 40327 52005;
0170531920999992000102412004+44010+114940FM-12+112899999V0202501N004012200019N0300001N1+99999+99999999999ADDAA199000091GA1001+999999999GF100991001001999999001001OA130601901REMSYN075AAXX  24121 53192 32980 02504 1084 21217 38966 40355 52004 333 91119 91527;EQDQ01  00002PRCP99
0122531920999992000102415004+44010+114940FM-12+112899999V0201101N001012200019N0300001N1-00941-02311103701ADDGA1001+999999999GF100991001001999999001001MD1210131+9999REMSYN054AAXX  24151 53192 42980 01101 11094 21231 40370 52013;
0196531920999992000102418004+44010+114940FM-12+112899999V0202501N001012200019N0300001N1-01181-02091103621ADDAA199000091GA1001+999999999GF100991001001999999001001KA1999M+00051MA1999999089721MD1710071+9999REMSYN070AAXX  24181 53192 32980 02501 11118 21209 38972 40362 57007 333 10005;EQDQ01  00002PRCP99
0122531920999992000102421004+44010+114940FM-12+112899999V0209999C000012200019N0300001N1-01251-02041103501ADDGA1001+999999999GF100991001001999999001001MD1710121+9999REMSYN054AAXX  24211 53192 42980 00000 11125 21204 40350 57012;
0183531920999992000102500004+44010+114940FM-12+112899999V0209999C000012200019N0300001N1-01091-01931103511ADDAA199000091GA1001+999999999GF100991001001999999001001MA1999999089561MD1710041+0011REMSYN070AAXX  25001 53192 32980 00000 11109 21193 38956 40351 57004 333 00153;EQDQ01  00002PRCP99
0122531920999992000102503004+44010+114940FM-12+112899999V0202701N004012200019N0300001N1-00471-01761103371ADDGA1001+999999999GF100991001001999999001001MD1410001+9999REMSYN054AAXX  25031 53192 42980 02704 11047 21176 40337 54000;
0186531920999992000102506004+44010+114940FM-12+112899999V0202901N004012200019N0300001N1-00141-02011103321ADDAA199000091GF103991001001999999001021KA1999N-01371MA1999999089541MD1710021+9999REMSYN076AAXX  25061 53192 32980 32904 11014 21201 38954 40332 57002 80002 333 21137;EQDQ01  00002PRCP99
0122531920999992000102509004+44010+114940FM-12+112899999V0202901N003012200019N0300001N1-00181-01941103411ADDGA1001+999999999GF100991001001999999001001MD1210051+9999REMSYN054AAXX  25091 53192 42980 02903 11018 21194 40341 52005;
0173531920999992000102512004+44010+114940FM-12+112899999V0200201N001012200019N0300001N1-00631-01881103721ADDAA199000091GA1001+999999999GF100991001001999999001001MA1999999089791MD1210201+9999REMSYN060AAXX  25121 53192 32980 00201 11063 21188 38979 40372 52020;EQDQ01  00002PRCP99
0122531920999992000102515004+44010+114940FM-12+112899999V0209999C000012200019N0300001N1-00881-01991103761ADDGA1001+999999999GF100991001001999999001001MD1210131+9999REMSYN054AAXX  25151 53192 42980 00000 11088 21199 40376 52013;
0196531920999992000102518004+44010+114940FM-12+112899999V0200201N003012200019N0300001N1-01041-02201103731ADDAA199000091GA1001+999999999GF100991001001999999001001KA1999M-00091MA1999999089931MD1210011+9999REMSYN070AAXX  25181 53192 32980 00203 11104 21220 38993 40373 52001 333 11009;EQDQ01  00002PRCP99
0122531920999992000102521004+44010+114940FM-12+112899999V0200401N003012200019N0300001N1-01141-02261103701ADDGA1001+999999999GF100991001001999999001001MD1710061+9999REMSYN054AAXX  25211 53192 42980 00403 11114 21226 40370 57006;
0173531920999992000102600004+44010+114940FM-12+112899999V0200201N002019999999N0300001N1-00891-02411103791ADDAA199000091GF106991021001999999031021MA1999999089901MD1210031+0031REMSYN076AAXX  26001 53192 32980 60202 11089 21241 38990 40379 52003 82032 333 00302;EQDQ01  00002PRCP99
0112531920999992000102603004+44010+114940FM-12+112899999V0200901N003019999999N0300001N1-00201-02011103551ADDGF107991071001999999031021MD1710101+9999REMSYN060AAXX  26031 53192 42980 70903 11020 21201 40355 57010 87032;
0186531920999992000102606004+44010+114940FM-12+112899999V0200901N004010360019N0300001N1+00081-02191103141ADDAA199000091GF107991021091008001031021KA1999N-01181MA1999999089471MD1710331+9999REMSYN076AAXX  26061 53192 32580 70904 10008 21219 38947 40314 57033 82932 333 21118;EQDQ01  00002PRCP99
0132531920999992000102609004+44010+114940FM-12+112899999V0200401N003010120019N0300001N1-00201-00632103231ADDAY171031GF107991061051012501001021MD1710011+9999MW1221REMSYN066AAXX  26091 53192 41680 70403 11020 21063 40323 57001 72270 86502;
0180531920999992000102612004+44010+114940FM-12+112899999V0203601N002012200019N0300001N1-00401-00781103311ADDAA106000191AY171061GA1001+999999999GF100991001001999999001001MA1999999089541MD1210081+9999MW1001REMSYN072AAXX  26121 53192 11980 03602 11040 21078 38954 40331 52008 69911 70070;
0122531920999992000102615004+44010+114940FM-12+112899999V0200201N002012200019N0300001N1-00631-00951103281ADDGA1001+999999999GF100991001001999999001001MD1210081+9999REMSYN054AAXX  26151 53192 42980 00202 11063 21095 40328 52008;
0177531920999992000102618004+44010+114940FM-12+112899999V0200401N002012200019N0300001N1-00801-01071103281ADDAA199000021GA1001+999999999GF100991001001999999001001KA1999M+00101MA1999999089651MD1210031+9999REMSYN070AAXX  26181 53192 32980 00402 11080 21107 38965 40328 52003 333 10010;
0143531920999992000102621004+44010+114940FM-12+112899999V0209999C000012200019N0300001N1-00881-01121103321ADDAA124000191GA1001+999999999GF100991001001999999001001MD1710051+9999REMSYN064AAXX  26211 53192 42980 00000 11088 21112 40332 57005 333 70001;
0170531920999992000102700004+44010+114940FM-12+112899999V0209999C000012200019N0300001N1-00871-01161103441ADDAA124000191GA1001+999999999GF100991001001999999001001MA1999999089661MD1210061-0201REMSYN076AAXX  27001 53192 32980 00000 11087 21116 38966 40344 52006 333 05200 70001;
0112531920999992000102703004+44010+114940FM-12+112899999V0209999C000012200019N0300001N1+00041-00851103361ADDGF101991001001999999001021MD1210091+9999REMSYN060AAXX  27031 53192 42980 10000 10004 21085 40336 52009 80002;
0186531920999992000102706004+44010+114940FM-12+112899999V0202501N004012200019N0300001N1+00621-00591103141ADDAA199000091GF103991001001999999001021KA1999N-00961MA1999999089651MD1710101+9999REMSYN076AAXX  27061 53192 32980 32504 10062 21059 38965 40314 57010 80002 333 21096;EQDQ01  00002PRCP99
0112531920999992000102709004+44010+114940FM-12+112899999V0202701N002019999999N0300001N1+00441-00601103221ADDGF106991001001999999001021MD1210011+9999REMSYN060AAXX  27091 53192 42980 62702 10044 21060 40322 52001 80002;
0163531920999992000102712004+44010+114940FM-12+112899999V0209999C000012200019N0300001N1-00071-00671103451ADDAA199000091GF103991001001999999001021MA1999999089741MD1210081+9999REMSYN066AAXX  27121 53192 32980 30000 11007 21067 38974 40345 52008 80002;EQDQ01  00002PRCP99
0112531920999992000102715004+44010+114940FM-12+112899999V0209999C000012200019N0300001N1-00161-00861103361ADDGF103991001001999999001021MD1210121+9999REMSYN060AAXX  27151 53192 42980 30000 11016 21086 40336 52012 80002;
0186531920999992000102718004+44010+114940FM-12+112899999V0200201N003012200019N0300001N1-00301-01291103311ADDAA199000091GF102991001001999999001021KA1999M+00631MA1999999089911MD1210051+9999REMSYN076AAXX  27181 53192 32980 20203 11030 21129 38991 40331 52005 80002 333 10063;EQDQ01  00002PRCP99
0112531920999992000102721004+44010+114940FM-12+112899999V0200201N003019999999N0300001N1-00641-01601103431ADDGF105991001001999999001021MD1710011+9999REMSYN060AAXX  27211 53192 42980 50203 11064 21160 40343 57001 80002;
0173531920999992000102800004+44010+114940FM-12+112899999V0209999C000019999999N0200001N1-00561-01521103671ADDAA199000091GF107991021001999999031021MA1999999090011MD1210111+0041REMSYN076AAXX  28001 53192 32970 70000 11056 21152 39001 40367 52011 82032 333 00403;EQDQ01  00002PRCP99
0112531920999992000102803004+44010+114940FM-12+112899999V0209999C000010360019N0300001N1-00161-01441103611ADDGF107991041051012501031021MD1210021+9999REMSYN060AAXX  28031 53192 42680 70000 11016 21144 40361 52002 84532;
0112531920999992000102809004+44010+114940FM-12+112899999V0202901N004019999999N0300001N1+00061-01771103351ADDGF107991001001999999001021MD1710071+9999REMSYN060AAXX  28091 53192 42980 72904 10006 21177 40335 57007 80002;
0163531920999992000102812004+44010+114940FM-12+112899999V0203201N004012200019N0300001N1-00341-01861103471ADDAA199000091GF101991001001999999001021MA1999999089771MD1210031+9999REMSYN066AAXX  28121 53192 32980 13204 11034 21186 38977 40347 52003 80002;EQDQ01  00002PRCP99
0122531920999992000102815004+44010+114940FM-12+112899999V0202901N001012200019N0300001N1-00691-02011103411ADDGA1001+999999999GF100991001001999999001001MD1710041+9999REMSYN054AAXX  28151 53192 42980 02901 11069 21201 40341 57004;
0196531920999992000102818004+44010+114940FM-12+112899999V0202501N002012200019N0300001N1-00891-02091103171ADDAA199000091GA1001+999999999GF100991001001999999001001KA1999M+00241MA1999999089551MD1710181+9999REMSYN070AAXX  28181 53192 32980 02502 11089 21209 38955 40317 57018 333 10024;EQDQ01  00002PRCP99
0122531920999992000102821004+44010+114940FM-12+112899999V0209999C000012200019N0300001N1-01041-02011103061ADDGA1001+999999999GF100991001001999999001001MD1710151+9999REMSYN054AAXX  28211 53192 42980 00000 11104 21201 40306 57015;
0183531920999992000102900004+44010+114940FM-12+112899999V0202701N003012200019N0300001N1-01001-01871103101ADDAA199000091GA1001+999999999GF100991001001999999001001MA1999999089351MD1710051+0071REMSYN070AAXX  29001 53192 32980 02703 11100 21187 38935 40310 57005 333 05754;EQDQ01  00002PRCP99
0122531920999992000102903004+44010+114940FM-12+112899999V0202501N006012200019N0300001N1-00201-01521102871ADDGA1001+999999999GF100991001001999999001001MD1710101+9999REMSYN054AAXX  29031 53192 42980 02506 11020 21152 40287 57010;
0186531920999992000102906004+44010+114940FM-12+112899999V0202501N008012200019N0300001N1+00181-01571102441ADDAA199000091GF101991001001999999001021KA1999N-01091MA1999999088921MD1710331+9999REMSYN076AAXX  29061 53192 32980 12508 10018 21157 38892 40244 57033 80002 333 21109;EQDQ01  00002PRCP99
0112531920999992000102909004+44010+114940FM-12+112899999V0202201N008019999999N0300001N1+00201-01191102181ADDGF107991001001999999001021MD1710251+9999REMSYN060AAXX  29091 53192 42980 72208 10020 21119 40218 57025 80002;
0163531920999992000102912004+44010+114940FM-12+112899999V0202501N002012200019N0300001N1-00141-01071102121ADDAA199000091GF101991001001999999001021MA1999999088541MD1710131+9999REMSYN066AAXX  29121 53192 32980 12502 11014 21107 38854 40212 57013 80002;EQDQ01  00002PRCP99
0112531920999992000102915004+44010+114940FM-12+112899999V0202201N007012200019N0300001N1+00051-01201101641ADDGF101991001001999999001021MD1710191+9999REMSYN060AAXX  29151 53192 42980 12207 10005 21120 40164 57019 80002;
0186531920999992000102918004+44010+114940FM-12+112899999V0209999C000012200019N0300001N1-00181-00941101471ADDAA199000091GF103991001001999999001021KA1999M+00291MA1999999088241MD1710111+9999REMSYN076AAXX  29181 53192 32980 30000 11018 21094 38824 40147 57011 80002 333 10029;EQDQ01  00002PRCP99
0112531920999992000102921004+44010+114940FM-12+112899999V0209999C000012200019N0300001N1-00461-01171101561ADDGF102991001001999999001021MD1210021+9999REMSYN060AAXX  29211 53192 42980 20000 11046 21117 40156 52002 80002;
0173531920999992000103000004+44010+114940FM-12+112899999V0202901N003012200019N0300001N1-00541-01351101941ADDAA199000091GF104991001001999999001021MA1999999088491MD1210231+0091REMSYN076AAXX  30001 53192 32980 42903 11054 21135 38849 40194 52023 80002 333 05905;EQDQ01  00002PRCP99
0112531920999992000103003004+44010+114940FM-12+112899999V0202901N003012200019N0300001N1-00081-01381102111ADDGF101991001001999999001021MD1210301+9999REMSYN060AAXX  30031 53192 42980 12903 11008 21138 40211 52030 80002;
0186531920999992000103006004+44010+114940FM-12+112899999V0203201N003012200019N0300001N1+00171-01671102161ADDAA199000091GF102991011011008001001021KA1999N-00601MA1999999088841MD1210051+9999REMSYN076AAXX  30061 53192 32580 23203 10017 21167 38884 40216 52005 81102 333 21060;EQDQ01  00002PRCP99
0112531920999992000103009004+44010+114940FM-12+112899999V0203201N004010900019N0300001N1+00021-01411102491ADDGF105991031041012501001021MD1210191+9999REMSYN060AAXX  30091 53192 42680 53204 10002 21141 40249 52019 83402;
0163531920999992000103012004+44010+114940FM-12+112899999V0203201N004010900019N0300001N1-00251-01251102831ADDAA199000091GF105991021051012501001021MA1999999089241MD1210211+9999REMSYN066AAXX  30121 53192 32680 53204 11025 21125 38924 40283 52021 82502;EQDQ01  00002PRCP99
0112531920999992000103015004+44010+114940FM-12+112899999V0202501N002012200019N0300001N1-00441-01311102851ADDGF101991001001999999001021MD1210081+9999REMSYN060AAXX  30151 53192 42980 12502 11044 21131 40285 52008 80002;
0186531920999992000103018004+44010+114940FM-12+112899999V0202501N001012200019N0300001N1-00611-01481102841ADDAA199000091GF102991001001999999001021KA1999M+00211MA1999999089331MD1210011+9999REMSYN076AAXX  30181 53192 32980 22501 11061 21148 38933 40284 52001 80002 333 10021;EQDQ01  00002PRCP99
0122531920999992000103021004+44010+114940FM-12+112899999V0209999C000012200019N0300001N1-00811-01561102911ADDGA1001+999999999GF100991001001999999001001MD1710021+9999REMSYN054AAXX  30211 53192 42980 00000 11081 21156 40291 57002;
0183531920999992000103100004+44010+114940FM-12+112899999V0202501N001012200019N0300001N1-00891-01561103101ADDAA199000091GA1001+999999999GF100991001001999999001001MA1999999089391MD1210081+0091REMSYN070AAXX  31001 53192 32980 02501 11089 21156 38939 40310 52008 333 00954;EQDQ01  00002PRCP99
0122531920999992000103103004+44010+114940FM-12+112899999V0202501N004012200019N0300001N1+00001-01341102911ADDGA1001+999999999GF100991001001999999001001MD1410001+9999REMSYN054AAXX  31031 53192 42980 02504 10000 21134 40291 54000;
0196531920999992000103106004+44010+114940FM-12+112899999V0202901N008012200019N0300001N1+00341-01421102661ADDAA199000091GA1001+999999999GF100991001001999999001001KA1999N-00951MA1999999089211MD1710181+9999REMSYN070AAXX  31061 53192 32980 02908 10034 21142 38921 40266 57018 333 21095;EQDQ01  00002PRCP99
0122531920999992000103109004+44010+114940FM-12+112899999V0202501N005012200019N0300001N1+00271-01701102681ADDGA1001+999999999GF100991001001999999001001MD1710041+9999REMSYN054AAXX  31091 53192 42980 02505 10027 21170 40268 57004;
0173531920999992000103112004+44010+114940FM-12+112899999V0202701N002012200019N0300001N1-00191-01311102851ADDAA199000091GA1001+999999999GF100991001001999999001001MA1999999089191MD1210021+9999REMSYN060AAXX  31121 53192 32980 02702 11019 21131 38919 40285 52002;EQDQ01  00002PRCP99
0122531920999992000103115004+44010+114940FM-12+112899999V0202501N001012200019N0300001N1-00431-01291102661ADDGA1001+999999999GF100991001001999999001001MD1710011+9999REMSYN054AAXX  31151 53192 42980 02501 11043 21129 40266 57001;
0196531920999992000103118004+44010+114940FM-12+112899999V0202501N001012200019N0300001N1-00451-01381102431ADDAA199000091GA1001+999999999GF100991001001999999001001KA1999M+00411MA1999999089051MD1710131+9999REMSYN070AAXX  31181 53192 32980 02501 11045 21138 38905 40243 57013 333 10041;EQDQ01  00002PRCP99
0122531920999992000103121004+44010+114940FM-12+112899999V0202501N003012200019N0300001N1-00461-01171102241ADDGA1001+999999999GF100991001001999999001001MD1710181+9999REMSYN054AAXX  31211 53192 42980 02503 11046 21117 40224 57018;
0183531920999992000110100004+44010+114940FM-12+112899999V0202501N003012200019N0300001N1-00541-01191102261ADDAA199000091GA1001+999999999GF100991001001999999001001MA1999999088761MD1710111+0061REMSYN070AAXX  01001 53192 32980 02503 11054 21119 38876 40226 57011 333 05604;EQDQ01  00002PRCP99
0112531920999992000110103004+44010+114940FM-12+112899999V0202201N009012200019N0300001N1+00581-01241101801ADDGF101991011001999999031021MD1710201+9999REMSYN060AAXX  01031 53192 42980 12209 10058 21124 40180 57020 81032;
0209531920999992000110106004+44010+114940FM-12+112899999V0202501N011012200019N0200001N1+00921-01311101521ADDAA199000091GF102991001001999999001021KA1240N-00641MA1999999088391MD1710171+9999OA130601701REMSYN088AAXX  01061 53192 32970 22511 10092 21131 38839 40152 57017 80002 333 21064 91117 91522;EQDQ01  00002PRCP99
0112531920999992000110109004+44010+114940FM-12+112899999V0202501N009012200019N0250001N1+00821-01461101541ADDGF102991001001999999001021MD1710011+9999REMSYN060AAXX  01091 53192 42975 22509 10082 21146 40154 57001 80002;
0190531920999992000110112004+44010+114940FM-12+112899999V0202501N005012200019N0300001N1+00341-01811101921ADDAA199000091GF102991001001999999001021MA1999999088591MD1210211+9999OA130601901REMSYN082AAXX  01121 53192 32980 22505 10034 21181 38859 40192 52021 80002 333 91119 91522;EQDQ01  00002PRCP99
0112531920999992000110115004+44010+114940FM-12+112899999V0202201N006012200019N0300001N1+00041-01991101821ADDGF101991001001999999001021MD1210091+9999REMSYN060AAXX  01151 53192 42980 12206 10004 21199 40182 52009 80002;
0196531920999992000110118004+44010+114940FM-12+112899999V0202501N005012200019N0300001N1-00161-01781101911ADDAA199000091GA1001+999999999GF100991001001999999001001KA1999M+01001MA1999999088791MD1210111+9999REMSYN070AAXX  01181 53192 32980 02505 11016 21178 38879 40191 52011 333 10100;EQDQ01  00002PRCP99
0122531920999992000110121004+44010+114940FM-12+112899999V0202201N001012200019N0300001N1-00341-02461102031ADDGA1001+999999999GF100991001001999999001001MD1210041+9999REMSYN054AAXX  01211 53192 42980 02201 11034 21246 40203 52004;
0153531920999992000110200004+44010+114940FM-12+112899999V0209999C000012200019N0300001N1+99999+99999999999ADDAA199000091GA1001+999999999GF100991001001999999001001REMSYN069AAXX  02001 53192 32980 00000 1054 21168 38900 40240 52017 333 00200;EQDQ01  00002PRCP99
0122531920999992000110203004+44010+114940FM-12+112899999V0202001N001012200019N0300001N1+00341-01381102271ADDGA1001+999999999GF100991001001999999001001MD1210021+9999REMSYN054AAXX  02031 53192 42980 02001 10034 21138 40227 52002;
0196531920999992000110206004+44010+114940FM-12+112899999V0202501N004012200019N0300001N1+00871-02121101991ADDAA199000091GA1001+999999999GF100991001001999999001001KA1999N-00691MA1999999088851MD1710171+9999REMSYN070AAXX  02061 53192 32980 02504 10087 21212 38885 40199 57017 333 21069;EQDQ01  00002PRCP99
0122531920999992000110209004+44010+114940FM-12+112899999V0202001N002012200019N0300001N1+00781-00762102001ADDGA1001+999999999GF100991001001999999001001MD1710051+9999REMSYN054AAXX  02091 53192 42980 02002 10078 21076 40200 57005;
0133531920999992000110212004+44010+114940FM-12+112899999V0200401N002012200019N0300001N1+00211+99999999999ADDAA199000091GF101991999999999999999999REMSYN065AAXX  02121 53192 32980 10402 10021 2183 38881 40221 52001 80002;EQDQ01  00002PRCP99
0112531920999992000110215004+44010+114940FM-12+112899999V0200201N003012200019N0300001N1+00081-01101101941ADDGF102991001001999999001021MD1710071+9999REMSYN060AAXX  02151 53192 42980 20203 10008 21110 40194 57007 80002;
0186531920999992000110218004+44010+114940FM-12+112899999V0200201N001012200019N0300001N1-00041-01071101771ADDAA199000091GF101991001001999999001021KA1999M+00991MA1999999088681MD1710061+9999REMSYN076AAXX  02181 53192 32980 10201 11004 21107 38868 40177 57006 80002 333 10099;EQDQ01  00002PRCP99
0112531920999992000110221004+44010+114940FM-12+112899999V0209999C000012200019N0300001N1+00001-00901101671ADDGF101991001001999999001021MD1710091+9999REMSYN060AAXX  02211 53192 42980 10000 10000 21090 40167 57009 80002;
0173531920999992000110300004+44010+114940FM-12+112899999V0202201N007010075019N0300001N1+00621-00541101651ADDAA199000091GF107991071091008001001021MA1999999088581MD1710011+0041REMSYN076AAXX  03001 53192 32580 72207 10062 21054 38858 40165 57001 87902 333 05412;EQDQ01  00002PRCP99
0112531920999992000110303004+44010+114940FM-12+112899999V0202201N009010360019N0300001N1+00861-00791101711ADDGF107991021091008001031021MD1210081+9999REMSYN060AAXX  03031 53192 42580 72209 10086 21079 40171 52008 82932;
0209531920999992000110306004+44010+114940FM-12+112899999V0202501N010012200019N0250001N1+00961-00871101631ADDAA199000091GF103991011001999999031021KA1240N-00081MA1999999088581MD1710081+9999OA130601901REMSYN088AAXX  03061 53192 32975 32510 10096 21087 38858 40163 57008 81032 333 21008 91119 91525;EQDQ01  00002PRCP99
0112531920999992000110309004+44010+114940FM-12+112899999V0202501N005019999999N0300001N1+00641-01281101691ADDGF107991021001999999031021MD1710011+9999REMSYN060AAXX  03091 53192 42980 72505 10064 21128 40169 57001 82032;
0190531920999992000110312004+44010+114940FM-12+112899999V0202501N007010900019N0300001N1+00461-01971101581ADDAA199000091GF107991021091008001001021MA1999999088571MD1410001+9999OA130601701REMSYN082AAXX  03121 53192 32580 72507 10046 21197 38857 40158 54000 82902 333 91117 91525;EQDQ01  00002PRCP99
0112531920999992000110315004+44010+114940FM-12+112899999V0202501N008012200019N0300001N1+00161-02171101531ADDGF102991011091008001001021MD1710051+9999REMSYN060AAXX  03151 53192 42580 22508 10016 21217 40153 57005 81902;
0209531920999992000110318004+44010+114940FM-12+112899999V0202501N011012200019N0250001N1-00181-01751101571ADDAA199000091GF101991001001999999001021KA1240M+00991MA1999999088501MD1710021+9999OA130602201REMSYN088AAXX  03181 53192 32975 12511 11018 21175 38850 40157 57002 80002 333 10099 91122 91525;EQDQ01  00002PRCP99
0122531920999992000110321004+44010+114940FM-12+112899999V0202501N011012200019N0250001N1-00471-01601101601ADDGA1001+999999999GF100991001001999999001001MD1710111+9999REMSYN054AAXX  03211 53192 42975 02511 11047 21160 40160 57011;
0196531920999992000110400004+44010+114940FM-12+112899999V0202701N009012200019N0300001N1-00641-01401101741ADDAA199000091GF101991001001999999001021MA1999999088431MD1210041-0201OA130602101REMSYN088AAXX  04001 53192 32980 12709 11064 21140 38843 40174 52004 80002 333 05263 91121 91525;EQDQ01  00002PRCP99
0122531920999992000110403004+44010+114940FM-12+112899999V0202501N013012200019N0300001N1-00291-01641101861ADDGA1001+999999999GF100991001001999999001001MD1210121+9999REMSYN054AAXX  04031 53192 42980 02513 11029 21164 40186 52012;
0219531920999992000110406004+44010+114940FM-12+112899999V0202501N013012200019N0250001N1+00041-02081101631ADDAA199000091GA1001+999999999GF100991001001999999001001KA1240N-00671MA1999999088351MD1710201+9999OA130602001REMSYN082AAXX  04061 53192 32975 02513 10004 21208 38835 40163 57020 333 21067 91120 91525;EQDQ01  00002PRCP99
0122531920999992000110409004+44010+114940FM-12+112899999V0202501N008012200019N0300001N1+00041-02061101601ADDGA1001+999999999GF100991001001999999001001MD1710091+9999REMSYN054AAXX  04091 53192 42980 02508 10004 21206 40160 57009;
0200531920999992000110412004+44010+114940FM-12+112899999V0202501N002012200019N0300001N1-00401-01981101861ADDAA199000091GA1001+999999999GF100991001001999999001001MA1999999088341MD1210081+9999OA130601901REMSYN076AAXX  04121 53192 32980 02502 11040 21198 38834 40186 52008 333 91119 91525;EQDQ01  00002PRCP99
0122531920999992000110415004+44010+114940FM-12+112899999V0202901N005012200019N0300001N1-00341-02001101781ADDGA1001+999999999GF100991001001999999001001MD1210031+9999REMSYN054AAXX  04151 53192 42980 02905 11034 21200 40178 52003;
0186531920999992000110418004+44010+114940FM-12+112899999V0202701N004012200019N0300001N1-00401-01811101771ADDAA199000091GF104991021001999999031021KA1999M+00191MA1999999088421MD1210051+9999REMSYN076AAXX  04181 53192 32980 42704 11040 21181 38842 40177 52005 82032 333 10019;EQDQ01  00002PRCP99
0112531920999992000110421004+44010+114940FM-12+112899999V0209999C000019999999N0300001N1-00481-01841101771ADDGF106991001001999999001021MD1710021+9999REMSYN060AAXX  04211 53192 42980 60000 11048 21184 40177 57002 80002;
0173531920999992000110500004+44010+114940FM-12+112899999V0200201N002010120019N0300001N1-00541-01821101821ADDAA199000091GF107991051051012501001021MA1999999088331MD1710071+0011REMSYN076AAXX  05001 53192 32680 70202 11054 21182 38833 40182 57007 85502 333 05101;EQDQ01  00002PRCP99
0112531920999992000110503004+44010+114940FM-12+112899999V0200701N003010120019N0300001N1+00011-01791101471ADDGF107991071051012501001021MD1710161+9999REMSYN060AAXX  05031 53192 42680 70703 10001 21179 40147 57016 87502;
0186531920999992000110506004+44010+114940FM-12+112899999V0200701N003010360019N0300001N1+00211-01691101221ADDAA199000091GF107991031051012501031021KA1999N-00621MA1999999087981MD1710191+9999REMSYN076AAXX  05061 53192 32680 70703 10021 21169 38798 40122 57019 83532 333 21062;EQDQ01  00002PRCP99
0112531920999992000110509004+44010+114940FM-12+112899999V0200901N002010120019N0300001N1+00221-01651101241ADDGF107991061051012501031021MD1410001+9999REMSYN060AAXX  05091 53192 42680 70902 10022 21165 40124 54000 86532;
0163531920999992000110512004+44010+114940FM-12+112899999V0200901N002012200019N0300001N1-00201-01881101571ADDAA199000091GF102991021001999999031021MA1999999088161MD1210181+9999REMSYN066AAXX  05121 53192 32980 20902 11020 21188 38816 40157 52018 82032;EQDQ01  00002PRCP99
0112531920999992000110515004+44010+114940FM-12+112899999V0202701N001010120019N0300001N1-00281-01351101551ADDGF105991051051012501001001MD1210091+9999REMSYN060AAXX  05151 53192 42680 52701 11028 21135 40155 52009 85500;
0186531920999992000110518004+44010+114940FM-12+112899999V0202501N009012200019N0300001N1-00281-01411101581ADDAA199000091GF102991001001999999001021KA1999M+00441MA1999999088321MD1210071+9999REMSYN076AAXX  05181 53192 32980 22509 11028 21141 38832 40158 52007 80002 333 10044;EQDQ01  00002PRCP99
0112531920999992000110521004+44010+114940FM-12+112899999V0202501N011010075019N0250001N1-00651-01151101851ADDGF106991061091008001001021MD1210151+9999REMSYN060AAXX  05211 53192 42575 62511 11065 21115 40185 52015 86902;
0196531920999992000110600004+44010+114940FM-12+112899999V0202501N012012200019N0300001N1-00901-01291102281ADDAA199000091GF101991001001999999001021MA1999999088691MD1210221+0401OA130601901REMSYN088AAXX  06001 53192 32980 12512 11090 21129 38869 40228 52022 80002 333 00454 91119 91525;EQDQ01  00002PRCP99
0132531920999992000110603004+44010+114940FM-12+112899999V0202501N012012200019N0250001N1-00821-01861102471ADDAY171031GF101991001001999999001021MD1210171+9999MW1001REMSYN066AAXX  06031 53192 41975 12512 11082 21186 40247 52017 70070 80002;
0216531920999992000110606004+44010+114940FM-12+112899999V0202501N013012200019N0250001N1-00701-02441102511ADDAA106000791AY171061GF101991001001999999001021KA1240N-00911MA1999999088921MD1210061+9999MW1001OA130602101REMSYN100AAXX  06061 53192 11975 12513 11070 21244 38892 40251 52006 69901 70070 80002 333 21091 91121 91525;
0124531920999992000110609004+44010+114940FM-12+112899999V0202501N011010900019N0200001N1-00951-01951102841ADDGF107991021091008001001021MD1210141+9999MW1851REMSYN066AAXX  06091 53192 41570 72511 11095 21195 40284 52014 78500 82902;
0197531920999992000110612004+44010+114940FM-12+112899999V0202701N010010075019N0200001N1-01281-01611103341ADDAA106000191AY181061GF107991051091008001001021MA1999999089351MD1210291+9999MW1851OA130602001REMSYN094AAXX  06121 53192 11570 72710 11128 21161 38935 40334 52029 69921 78580 85902 333 91120 91525;
0142531920999992000110615004+44010+114940FM-12+112899999V0202701N009012200019N0300001N1-01431-01771103621ADDAY181031GA1001+999999999GF100991001001999999001001MD1210231+9999MW1001REMSYN060AAXX  06151 53192 41980 02709 11143 21177 40362 52023 70080;
0203531920999992000110618004+44010+114940FM-12+112899999V0202701N006012200019N0300001N1-01661-02031103841ADDAA106000391AY181061GA1001+999999999GF100991001001999999001001KA1999M-00281MA1999999089741MD1210161+9999MW1001REMSYN082AAXX  06181 53192 11980 02706 11166 21203 38974 40384 52016 69931 70080 333 11028;
0143531920999992000110621004+44010+114940FM-12+112899999V0202201N007012200019N0300001N1-01901-02261104111ADDAA124000591GA1001+999999999GF100991001001999999001001MD1210111+9999REMSYN064AAXX  06211 53192 42980 02207 11190 21226 40411 52011 333 70005;
0166531920999992000110700004+44010+114940FM-12+112899999V0202501N007012200019N0300001N1-02081-02461104491ADDAA124000591GF101991001001999999001021MA1999999090051MD1210201+1401REMSYN088AAXX  07001 53192 32980 12507 11208 21246 39005 40449 52020 80002 333 01462 70005 92501;
0122531920999992000110703004+44010+114940FM-12+112899999V0202501N007012200019N0300001N1-01651-02351104551ADDGA1001+999999999GF100991001001999999001001MD1210121+9999REMSYN054AAXX  07031 53192 42980 02507 11165 21235 40455 52012;
0196531920999992000110706004+44010+114940FM-12+112899999V0202501N009012200019N0300001N1-01371-02471104441ADDAA199000091GA1001+999999999GF100991001001999999001001KA1999N-02171MA1999999090091MD1710081+9999REMSYN070AAXX  07061 53192 32980 02509 11137 21247 39009 40444 57008 333 21217;EQDQ01  00002PRCP99
0122531920999992000110709004+44010+114940FM-12+112899999V0202701N006012200019N0300001N1-01351-02541104451ADDGA1001+999999999GF100991001001999999001001MD1710051+9999REMSYN054AAXX  07091 53192 42980 02706 11135 21254 40445 57005;
0173531920999992000110712004+44010+114940FM-12+112899999V0202701N005012200019N0300001N1-01631-02601104631ADDAA199000091GA1001+999999999GF100991001001999999001001MA1999999090081MD1210041+9999REMSYN060AAXX  07121 53192 32980 02705 11163 21260 39008 40463 52004;EQDQ01  00002PRCP99
0122531920999992000110715004+44010+114940FM-12+112899999V0202501N002012200019N0300001N1-01801-02681104571ADDGA1001+999999999GF100991001001999999001001MD1210011+9999REMSYN054AAXX  07151 53192 42980 02502 11180 21268 40457 52001;
0186531920999992000110718004+44010+114940FM-12+112899999V0202201N002012200019N0300001N1-01881-02651104411ADDAA199000091GF103991001001999999001021KA1999M-01181MA1999999090011MD1710081+9999REMSYN076AAXX  07181 53192 32980 32202 11188 21265 39001 40441 57008 80002 333 11118;EQDQ01  00002PRCP99
0112531920999992000110721004+44010+114940FM-12+112899999V0201101N001019999999N0300001N1-01821-02511104191ADDGF106991001001999999001021MD1710171+9999REMSYN060AAXX  07211 53192 42980 61101 11182 21251 40419 57017 80002;
0112531920999992000110809004+44010+114940FM-12+112899999V0200701N003019999999N0300001N1-00951-02441103361ADDGF107991001001999999001021MD1710021+9999REMSYN060AAXX  08091 53192 42980 70703 11095 21244 40336 57002 80002;
0163531920999992000110812004+44010+114940FM-12+112899999V0203601N003019999999N0300001N1-01281-02001103421ADDAA199000091GF107991021001999999031021MA1999999089241MD1210021+9999REMSYN066AAXX  08121 53192 32980 73603 11128 21200 38924 40342 52002 82032;EQDQ01  00002PRCP99
0112531920999992000110815004+44010+114940FM-12+112899999V0200201N001019999999N0300001N1-01331-01891103411ADDGF107991011001999999031021MD1210081+9999REMSYN060AAXX  08151 53192 42980 70201 11133 21189 40341 52008 81032;
0186531920999992000110818004+44010+114940FM-12+112899999V0200401N003019999999N0300001N1-01421-01861103461ADDAA199000091GF107991001001999999001021KA1999M-00831MA1999999089441MD1210121+9999REMSYN076AAXX  08181 53192 32980 70403 11142 21186 38944 40346 52012 80002 333 11083;EQDQ01  00002PRCP99
0112531920999992000110821004+44010+114940FM-12+112899999V0200201N003012200019N0300001N1-01601-01951103681ADDGF101991001001999999001021MD1210111+9999REMSYN060AAXX  08211 53192 42980 10203 11160 21195 40368 52011 80002;
0173531920999992000110900004+44010+114940FM-12+112899999V0200201N002019999999N0300001N1-01741-02121104031ADDAA199000091GF107991001001999999001021MA1999999089741MD1210191+0021REMSYN076AAXX  09001 53192 32980 70202 11174 21212 38974 40403 52019 80002 333 00251;EQDQ01  00002PRCP99
0112531920999992000110903004+44010+114940FM-12+112899999V0202901N002019999999N0300001N1-01221-02121104061ADDGF106991001001999999001021MD1210141+9999REMSYN060AAXX  09031 53192 42980 62902 11122 21212 40406 52014 80002;
0186531920999992000110906004+44010+114940FM-12+112899999V0202701N004012200019N0300001N1-01031-02111103961ADDAA199000091GF102991011011008001001021KA1999N-01761MA1999999089821MD1710061+9999REMSYN076AAXX  09061 53192 32580 22704 11103 21211 38982 40396 57006 81102 333 21176;EQDQ01  00002PRCP99
0112531920999992000110909004+44010+114940FM-12+112899999V0202901N003012200019N0300001N1-01131-02201104101ADDGF101991001001999999001021MD1210051+9999REMSYN060AAXX  09091 53192 42980 12903 11113 21220 40410 52005 80002;
0173531920999992000110912004+44010+114940FM-12+112899999V0203201N005012200019N0300001N1-01501-02341104431ADDAA199000091GA1001+999999999GF100991001001999999001001MA1999999090031MD1210161+9999REMSYN060AAXX  09121 53192 32980 03205 11150 21234 39003 40443 52016;EQDQ01  00002PRCP99
0122531920999992000110915004+44010+114940FM-12+112899999V0202501N002012200019N0300001N1-01771-02421104491ADDGA1001+999999999GF100991001001999999001001MD1210111+9999REMSYN054AAXX  09151 53192 42980 02502 11177 21242 40449 52011;
0196531920999992000110918004+44010+114940FM-12+112899999V0202701N002012200019N0300001N1-01921-02351104511ADDAA199000091GA1001+999999999GF100991001001999999001001KA1999M-00981MA1999999090171MD1210031+9999REMSYN070AAXX  09181 53192 32980 02702 11192 21235 39017 40451 52003 333 11098;EQDQ01  00002PRCP99
0122531920999992000110921004+44010+114940FM-12+112899999V0202701N005012200019N0300001N1-02031-02431104521ADDGA1001+999999999GF100991001001999999001001MD1710051+9999REMSYN054AAXX  09211 53192 42980 02705 11203 21243 40452 57005;
0183531920999992000111000004+44010+114940FM-12+112899999V0202701N005012200019N0300001N1-02001-02451104571ADDAA199000091GA1001+999999999GF100991001001999999001001MA1999999090081MD1710041+0031REMSYN070AAXX  10001 53192 32980 02705 11200 21245 39008 40457 57004 333 00353;EQDQ01  00002PRCP99
0122531920999992000111003004+44010+114940FM-12+112899999V0202501N007012200019N0300001N1-01361-02351104581ADDGA1001+999999999GF100991001001999999001001MD1210101+9999REMSYN054AAXX  10031 53192 42980 02507 11136 21235 40458 52010;
0196531920999992000111006004+44010+114940FM-12+112899999V0202501N010012200019N0300001N1-00841-02391104171ADDAA199000091GA1001+999999999GF100991001001999999001001KA1999N-02101MA1999999089921MD1710261+9999REMSYN070AAXX  10061 53192 32980 02510 11084 21239 38992 40417 57026 333 21210;EQDQ01  00002PRCP99
0112531920999992000111009004+44010+114940FM-12+112899999V0202501N006012200019N0300001N1-00841-02281104111ADDGF101991001001999999001021MD1710081+9999REMSYN060AAXX  10091 53192 42980 12506 11084 21228 40411 57008 80002;
0163531920999992000111012004+44010+114940FM-12+112899999V0202701N002012200019N0300001N1-01251-02481104161ADDAA199000091GF101991011001999999031001MA1999999089791MD1710051+9999REMSYN066AAXX  10121 53192 32980 12702 11125 21248 38979 40416 57005 81030;EQDQ01  00002PRCP99
0112531920999992000111015004+44010+114940FM-12+112899999V0202501N001012200019N0300001N1-01481-02571103911ADDGF101991001001999999001021MD1710111+9999REMSYN060AAXX  10151 53192 42980 12501 11148 21257 40391 57011 80002;
0186531920999992000111018004+44010+114940FM-12+112899999V0202701N002019999999N0300001N1-01501-02531103561ADDAA199000091GF105991001001999999001021KA1999M-00751MA1999999089501MD1710181+9999REMSYN076AAXX  10181 53192 32980 52702 11150 21253 38950 40356 57018 80002 333 11075;EQDQ01  00002PRCP99
0112531920999992000111021004+44010+114940FM-12+112899999V0209999C000019999999N0300001N1-01481-02321103191ADDGF107991001001999999001021MD1710311+9999REMSYN060AAXX  10211 53192 42980 70000 11148 21232 40319 57031 80002;
0173531920999992000111100004+44010+114940FM-12+112899999V0202501N003019999999N0300001N1-01221-01941103041ADDAA199000091GF107991031001999999031021MA1999999089021MD1710171+0111REMSYN076AAXX  11001 53192 32980 72503 11122 21194 38902 40304 57017 83032 333 06108;EQDQ01  00002PRCP99
0112531920999992000111103004+44010+114940FM-12+112899999V0202501N006019999999N0300001N1-00841-02071102971ADDGF105991001001999999001021MD1710021+9999REMSYN060AAXX  11031 53192 42980 52506 11084 21207 40297 57002 80002;
0186531920999992000111106004+44010+114940FM-12+112899999V0202501N010010900019N0300001N1-00551-01701102771ADDAA199000091GF105991011011008001001021KA1999N-01611MA1999999088891MD1710111+9999REMSYN076AAXX  11061 53192 32580 52510 11055 21170 38889 40277 57011 81102 333 21161;EQDQ01  00002PRCP99
0132531920999992000111109004+44010+114940FM-12+112899999V0202901N006012200019N0300001N1-00841-01821103031ADDAY181031GF101991011041012501001021MD1210161+9999MW1001REMSYN066AAXX  11091 53192 41680 12906 11084 21182 40303 52016 70080 81402;
0180531920999992000111112004+44010+114940FM-12+112899999V0202501N004012200019N0300001N1-01261-01771103321ADDAA106000791AY181061GA1001+999999999GF100991001001999999001001MA1999999089261MD1210211+9999MW1001REMSYN072AAXX  11121 53192 11980 02504 11126 21177 38926 40332 52021 69901 70080;
0122531920999992000111115004+44010+114940FM-12+112899999V0202001N002012200019N0300001N1-01421-01861103291ADDGA1001+999999999GF100991001001999999001001MD1210031+9999REMSYN054AAXX  11151 53192 42980 02002 11142 21186 40329 52003;
0196531920999992000111118004+44010+114940FM-12+112899999V0202201N002012200019N0300001N1-01541-01961103071ADDAA199000091GA1001+999999999GF100991001001999999001001KA1999M-00431MA1999999089141MD1710151+9999REMSYN070AAXX  11181 53192 32980 02202 11154 21196 38914 40307 57015 333 11043;EQDQ01  00002PRCP99
0143531920999992000111121004+44010+114940FM-12+112899999V0202501N003012200019N0300001N1-01531-01961102981ADDAA124000791GA1001+999999999GF100991001001999999001001MD1710151+9999REMSYN064AAXX  11211 53192 42980 02503 11153 21196 40298 57015 333 79999;
0160531920999992000111200004+44010+114940FM-12+112899999V0202201N001019999999N0300001N1-01431-01921102931ADDAA124000791GF106991001001999999001021MA1999999088871MD1710121-0201REMSYN082AAXX  12001 53192 32980 62201 11143 21192 38887 40293 57012 80002 333 05252 79999;
0112531920999992000111203004+44010+114940FM-12+112899999V0202501N010019999999N0300001N1-00601-02051102581ADDGF105991001001999999001021MD1710141+9999REMSYN060AAXX  12031 53192 42980 52510 11060 21205 40258 57014 80002;
0209531920999992000111206004+44010+114940FM-12+112899999V0202501N010012200019N0300001N1-00281-02351102301ADDAA199000091GF102991001001999999001021KA1240N-01651MA1999999088541MD1710191+9999OA130601801REMSYN088AAXX  12061 53192 32980 22510 11028 21235 38854 40230 57019 80002 333 21165 91118 91525;EQDQ01  00002PRCP99
0112531920999992000111209004+44010+114940FM-12+112899999V0202701N005019999999N0300001N1-00301-02191102411ADDGF106991011001999999031021MD1210091+9999REMSYN060AAXX  12091 53192 42980 62705 11030 21219 40241 52009 81032;
0163531920999992000111212004+44010+114940FM-12+112899999V0203201N001012200019N0300001N1-00711-01951102591ADDAA199000091GF101991001001999999001021MA1999999088711MD1210081+9999REMSYN066AAXX  12121 53192 32980 13201 11071 21195 38871 40259 52008 80002;EQDQ01  00002PRCP99
0122531920999992000111215004+44010+114940FM-12+112899999V0209999C000012200019N0300001N1-01061-01841102451ADDGA1001+999999999GF100991001001999999001001MD1410001+9999REMSYN054AAXX  12151 53192 42980 00000 11106 21184 40245 54000;
0196531920999992000111218004+44010+114940FM-12+112899999V0209999C000012200019N0300001N1-01291-01951102421ADDAA199000091GA1001+999999999GF100991001001999999001001KA1999M-00131MA1999999088701MD1710011+9999REMSYN070AAXX  12181 53192 32980 00000 11129 21195 38870 40242 57001 333 11013;EQDQ01  00002PRCP99
0112531920999992000111221004+44010+114940FM-12+112899999V0209999C000019999999N0300001N1-01341-01961102371ADDGF105991001001999999001021MD1710061+9999REMSYN060AAXX  12211 53192 42980 50000 11134 21196 40237 57006 80002;
0173531920999992000111300004+44010+114940FM-12+112899999V0209999C000012200019N0200001N1-01331-01951102491ADDAA199000091GF104991001001999999001021MA1999999088651MD1210011+0021REMSYN076AAXX  13001 53192 32970 40000 11133 21195 38865 40249 52001 80002 333 05201;EQDQ01  00002PRCP99
0112531920999992000111303004+44010+114940FM-12+112899999V0202501N005012200019N0300001N1-00451-01781102341ADDGF101991001001999999001021MD1410001+9999REMSYN060AAXX  13031 53192 42980 12505 11045 21178 40234 54000 80002;
0186531920999992000111306004+44010+114940FM-12+112899999V0202701N008012200019N0300001N1-00051-01571102091ADDAA199000091GF101991001001999999001021KA1999N-01431MA1999999088471MD1710181+9999REMSYN076AAXX  13061 53192 32980 12708 11005 21157 38847 40209 57018 80002 333 21143;EQDQ01  00002PRCP99
0122531920999992000111309004+44010+114940FM-12+112899999V0202501N005012200019N0300001N1-00111-01571102201ADDGA1001+999999999GF100991001001999999001001MD1210071+9999REMSYN054AAXX  13091 53192 42980 02505 11011 21157 40220 52007;
0173531920999992000111312004+44010+114940FM-12+112899999V0202701N005012200019N0300001N1-00631-01941102631ADDAA199000091GA1001+999999999GF100991001001999999001001MA1999999088791MD1210251+9999REMSYN060AAXX  13121 53192 32980 02705 11063 21194 38879 40263 52025;EQDQ01  00002PRCP99
0196531920999992000111318004+44010+114940FM-12+112899999V0202701N006012200019N0300001N1-01071-01801102761ADDAA199000091GA1001+999999999GF100991001001999999001001KA1999M+00141MA1999999089101MD1210191+9999REMSYN070AAXX  13181 53192 32980 02706 11107 21180 38910 40276 52019 333 10014;EQDQ01  00002PRCP99
0122531920999992000111321004+44010+114940FM-12+112899999V0202501N003012200019N0300001N1-01361-01901103011ADDGA1001+999999999GF100991001001999999001001MD1210141+9999REMSYN054AAXX  13211 53192 42980 02503 11136 21190 40301 52014;
0173531920999992000111400004+44010+114940FM-12+112899999V0202701N004012200019N0300001N1-01191-01721103281ADDAA199000091GF103991021051012501001021MA1999999089391MD1210151+0071REMSYN076AAXX  14001 53192 32680 32704 11119 21172 38939 40328 52015 82502 333 00701;EQDQ01  00002PRCP99
0112531920999992000111403004+44010+114940FM-12+112899999V0202901N004012200019N0300001N1-00761-01611103491ADDGF101991001001999999001021MD1210281+9999REMSYN060AAXX  14031 53192 42980 12904 11076 21161 40349 52028 80002;
0196531920999992000111406004+44010+114940FM-12+112899999V0202901N007012200019N0300001N1-00581-02331103701ADDAA199000091GA1001+999999999GF100991001001999999001001KA1999N-01401MA1999999089791MD1210121+9999REMSYN070AAXX  14061 53192 32980 02907 11058 21233 38979 40370 52012 333 21140;EQDQ01  00002PRCP99
0122531920999992000111409004+44010+114940FM-12+112899999V0203201N003012200019N0300001N1-00841-02991104101ADDGA1001+999999999GF100991001001999999001001MD1210211+9999REMSYN054AAXX  14091 53192 42980 03203 11084 21299 40410 52021;
0173531920999992000111412004+44010+114940FM-12+112899999V0203401N004012200019N0300001N1-01301-02901104401ADDAA199000091GA1001+999999999GF100991001001999999001001MA1999999090191MD1210191+9999REMSYN060AAXX  14121 53192 32980 03404 11130 21290 39019 40440 52019;EQDQ01  00002PRCP99
0122531920999992000111415004+44010+114940FM-12+112899999V0209999C000012200019N0300001N1-01501-02651104501ADDGA1001+999999999GF100991001001999999001001MD1210141+9999REMSYN054AAXX  14151 53192 42980 00000 11150 21265 40450 52014;
0196531920999992000111418004+44010+114940FM-12+112899999V0203601N001012200019N0300001N1-01571-02651104591ADDAA199000091GA1001+999999999GF100991001001999999001001KA1999M-00521MA1999999090441MD1210111+9999REMSYN070AAXX  14181 53192 32980 03601 11157 21265 39044 40459 52011 333 11052;EQDQ01  00002PRCP99
0122531920999992000111421004+44010+114940FM-12+112899999V0209999C000012200019N0300001N1-01791-02651104731ADDGA1001+999999999GF100991001001999999001001MD1410001+9999REMSYN054AAXX  14211 53192 42980 00000 11179 21265 40473 54000;
0173531920999992000111500004+44010+114940FM-12+112899999V0209999C000012200019N0300001N1-01881-02631104991ADDAA199000091GF102991001001999999001021MA1999999090521MD1210081+0111REMSYN076AAXX  15001 53192 32980 20000 11188 21263 39052 40499 52008 80002 333 01157;EQDQ01  00002PRCP99
0122531920999992000111503004+44010+114940FM-12+112899999V0200901N001012200019N0300001N1-01091-02441104881ADDGA1001+999999999GF100991001001999999001001MD1210061+9999REMSYN054AAXX  15031 53192 42980 00901 11109 21244 40488 52006;
0186531920999992000111506004+44010+114940FM-12+112899999V0209999C000012200019N0300001N1-00671-02991104521ADDAA199000091GF101991001001999999001021KA1999N-01951MA1999999090361MD1710221+9999REMSYN076AAXX  15061 53192 32980 10000 11067 21299 39036 40452 57022 80002 333 21195;EQDQ01  00002PRCP99
0112531920999992000111509004+44010+114940FM-12+112899999V0200901N002019999999N0300001N1-00811-02561104421ADDGF107991001001999999001021MD1710181+9999REMSYN060AAXX  15091 53192 42980 70902 11081 21256 40442 57018 80002;
0173531920999992000111512004+44010+114940FM-12+112899999V0200401N001012200019N0300001N1-01081-02581104391ADDAA199000091GA1001+999999999GF100991001001999999001001MA1999999090061MD1710121+9999REMSYN060AAXX  15121 53192 32980 00401 11108 21258 39006 40439 57012;EQDQ01  00002PRCP99
0112531920999992000111515004+44010+114940FM-12+112899999V0200401N003019999999N0300001N1-01051-02481103951ADDGF106991001001999999001021MD1710171+9999REMSYN060AAXX  15151 53192 42980 60403 11105 21248 40395 57017 80002;
0186531920999992000111518004+44010+114940FM-12+112899999V0200201N002019999999N0300001N1-01151-02491103541ADDAA199000091GF107991001001999999001021KA1999M-00561MA1999999089611MD1710281+9999REMSYN076AAXX  15181 53192 32980 70202 11115 21249 38961 40354 57028 80002 333 11056;EQDQ01  00002PRCP99
0112531920999992000111521004+44010+114940FM-12+112899999V0200201N001019999999N0300001N1-01061-02451103291ADDGF107991001001999999001021MD1710231+9999REMSYN060AAXX  15211 53192 42980 70201 11106 21245 40329 57023 80002;
0178531920999992000111600004+44010+114940FM-12+112899999V0203601N002019999999N0300001N1-01071-02321103241ADDAA106000791GF108991081001999999011999MA1999999089271MD1710111-1301MW1701REMSYN094AAXX  16001 53192 11980 83602 11107 21232 38927 40324 57011 69901 77000 8801/ 333 06308 79999;
0159531920999992000111603004+44010+114940FM-12+112899999V0200701N002019999999N0300001N1-00801-01162103301ADDAY171031AY271031GF107991001001999999001021MD1210131+9999MW1701REMSYN066AAXX  16031 53192 41980 70702 11080 21116 40330 52013 77077 80002;EQDQ01-001163ATOD  
0201531920999992000111606004+44010+114940FM-12+112899999V0203601N001019999999N0300001N1-00701-01001102791ADDAA106000891AY171061AY271061GF108991001001999999001071KA1999N-01241MA1999999089061MD1710131+9999MW1701REMSYN088AAXX  16061 53192 11980 83601 11070 21100 38906 40279 57013 69981 77077 80007 333 21124;
0140531920999992000111609004+44010+114940FM-12+112899999V0200201N003019999999N0300001N1-00871-01201103011ADDAY171031AY271031GF108991081001999999011999MD1210081+9999MW1701REMSYN066AAXX  16091 53192 41980 80203 11087 21120 40301 52008 77077 8801/;
0178531920999992000111612004+44010+114940FM-12+112899999V0203401N001019999999N0300001N1-01101-01531103231ADDAA106000591AY171061AY271061GF105991001001999999001021MA1999999089261MD1210131+9999MW1701REMSYN078AAXX  16121 53192 11980 53401 11110 21153 38926 40323 52013 69951 77077 80002;
0140531920999992000111615004+44010+114940FM-12+112899999V0209999C000019999999N0300001N1-01171-01491103221ADDAY171031AY271031GF107991071001999999011001MD1210041+9999MW1701REMSYN066AAXX  16151 53192 41980 70000 11117 21149 40322 52004 77077 87010;
0201531920999992000111618004+44010+114940FM-12+112899999V0202501N002019999999N0300001N1-01361-01661103331ADDAA106000591AY171061AY271061GF106991001001999999001021KA1999M-00661MA1999999089371MD1210071+9999MW1701REMSYN088AAXX  16181 53192 11980 62502 11136 21166 38937 40333 52007 69961 77077 80002 333 11066;
0153531920999992000111621004+44010+114940FM-12+112899999V0209999C000012200019N0300001N1-01811-02131103621ADDAA124001891AY171031GF101991001001999999001021MD1210101+9999MW1001REMSYN076AAXX  16211 53192 42980 10000 11181 21213 40362 52010 70070 80002 333 70019;
0192531920999992000111700004+44010+114940FM-12+112899999V0209999C000012200019N0300001N1-01801-02121103861ADDAA106000791AY171061GF104991001001999999001021MA1999999089621MD1210151+0401MW1001REMSYN100AAXX  17001 53192 11980 40000 11180 21212 38962 40386 52015 69901 70070 80002 333 00457 70019 92504;
0112531920999992000111703004+44010+114940FM-12+112899999V0202501N004010900019N0300001N1-01501-01911103831ADDGF106991011051012501001021MD1210031+9999REMSYN060AAXX  17031 53192 42680 62504 11150 21191 40383 52003 81502;
0185531920999992000111706004+44010+114940FM-12+112899999V0202201N005010900019N0300001N1-01251-01621103661ADDAA106000791GF105991021051012501001021KA1999N-01851MA1999999089521MD1710131+9999MW1701REMSYN088AAXX  17061 53192 11680 52205 11125 21162 38952 40366 57013 69901 77000 82502 333 21185;
0112531920999992000111709004+44010+114940FM-12+112899999V0201801N002010900019N0300001N1-01341-01701103771ADDGF107991031051012501001021MD1710041+9999REMSYN060AAXX  17091 53192 42680 71802 11134 21170 40377 57004 83502;
0144531920999992000111712004+44010+114940FM-12+112899999V0202501N001012200019N0300001N1-01561-01881103821ADDAA199000021GF102991001001999999001021MA1999999089471MD1710011+9999REMSYN066AAXX  17121 53192 32980 22501 11156 21188 38947 40382 57001 80002;
0112531920999992000111715004+44010+114940FM-12+112899999V0209999C000012200019N0300001N1-01621-01941103701ADDGF101991001001999999001021MD1710041+9999REMSYN060AAXX  17151 53192 42980 10000 11162 21194 40370 57004 80002;
0177531920999992000111718004+44010+114940FM-12+112899999V0200401N002012200019N0300001N1-01781-02101103691ADDAA199000021GA1001+999999999GF100991001001999999001001KA1999M-01141MA1999999089441MD1210011+9999REMSYN070AAXX  17181 53192 32980 00402 11178 21210 38944 40369 52001 333 11114;
0143531920999992000111721004+44010+114940FM-12+112899999V0200201N001012200019N0300001N1-01871-02171103811ADDAA124000791GA1001+999999999GF100991001001999999001001MD1210061+9999REMSYN064AAXX  17211 53192 42980 00201 11187 21217 40381 52006 333 79999;
0160531920999992000111800004+44010+114940FM-12+112899999V0200401N001019999999N0300001N1-01921-02231104001ADDAA124000791GF106991001001999999001021MA1999999089591MD1210091+0001REMSYN082AAXX  18001 53192 32980 60401 11192 21223 38959 40400 52009 80002 333 00051 79999;
0112531920999992000111803004+44010+114940FM-12+112899999V0200701N003019999999N0300001N1-01231-01731103841ADDGF107991001001999999001021MD1210031+9999REMSYN060AAXX  18031 53192 42980 70703 11123 21173 40384 52003 80002;
0186531920999992000111806004+44010+114940FM-12+112899999V0200901N004019999999N0300001N1-01011-01591103611ADDAA199000091GF107991001001999999001021KA1999N-02011MA1999999089431MD1710191+9999REMSYN076AAXX  18061 53192 32980 70904 11101 21159 38943 40361 57019 80002 333 21201;EQDQ01  00002PRCP99
0112531920999992000111809004+44010+114940FM-12+112899999V0200701N004019999999N0300001N1-01031-01531103491ADDGF107991001001999999001021MD1710131+9999REMSYN060AAXX  18091 53192 42980 70704 11103 21153 40349 57013 80002;
0163531920999992000111812004+44010+114940FM-12+112899999V0200701N003019999999N0300001N1-00931-01441103291ADDAA199000091GF107991001001999999001021MA1999999089231MD1710071+9999REMSYN066AAXX  18121 53192 32980 70703 11093 21144 38923 40329 57007 80002;EQDQ01  00002PRCP99
0124531920999992000111815004+44010+114940FM-12+112899999V0200401N002010900019N0250001N1-00871-01301103181ADDGF107991031091008001001021MD1710081+9999MW1851REMSYN066AAXX  18151 53192 41575 70402 11087 21130 40318 57008 78500 83902;
0193531920999992000111818004+44010+114940FM-12+112899999V0200201N005010075019N0200001N1-01091-01441103031ADDAA106001091AY181061GF107991061091008001001021KA1999M-00821MA1999999089101MD1710051+9999MW1851REMSYN088AAXX  18181 53192 11570 70205 11109 21144 38910 40303 57005 60011 78580 86902 333 11082;
0161531920999992000111821004+44010+114940FM-12+112899999V0200201N004010075019N0250001N1-01161-01531103021ADDAA124001891AY181031AY281031GF107991061091008001001021MD1710031+9999MW1851REMSYN076AAXX  18211 53192 41575 70204 11116 21153 40302 57003 78588 86902 333 70018;
0200531920999992000111900004+44010+114940FM-12+112899999V0209999C000010360019N0300001N1-01191-01521103101ADDAA106001091AY181061AY281061GF107991041091008001031021MA1999999089161MD1210091-0401MW1851REMSYN100AAXX  19001 53192 11580 70000 11119 21152 38916 40310 52009 69991 78588 84932 333 05407 70020 92507;
0140531920999992000111903004+44010+114940FM-12+112899999V0202901N003010900019N0250001N1-01041-01531103411ADDAY181031AY271031GF107991021051012501001021MD1210111+9999MW1701REMSYN066AAXX  19031 53192 41675 72903 11104 21153 40341 52011 77087 82502;
0201531920999992000111906004+44010+114940FM-12+112899999V0202501N003019999999N0300001N1-00941-01501103241ADDAA106000191AY181061AY271061GF107991001001999999001021KA1999N-01201MA1999999089301MD1210031+9999MW1221REMSYN088AAXX  19061 53192 11980 72503 11094 21150 38930 40324 52003 69911 72287 80002 333 21120;
0132531920999992000111909004+44010+114940FM-12+112899999V0202501N003019999999N0300001N1-01101-01501103381ADDAY171031GF107991001001999999001021MD1210071+9999MW1701REMSYN066AAXX  19091 53192 41980 72503 11110 21150 40338 52007 77070 80002;
0170531920999992000111912004+44010+114940FM-12+112899999V0202701N004012200019N0300001N1-01381-01801103521ADDAA106000191AY171061GF104991021051012501001021MA1999999089411MD1210041+9999MW1701REMSYN078AAXX  19121 53192 11680 42704 11138 21180 38941 40352 52004 69911 77070 82502;
0132531920999992000111915004+44010+114940FM-12+112899999V0202701N003010900019N0280001N1-01711-02061103721ADDAY171031GF107991031051012501001021MD1210131+9999MW1701REMSYN066AAXX  19151 53192 41678 72703 11171 21206 40372 52013 77070 83502;
0203531920999992000111918004+44010+114940FM-12+112899999V0202501N002012200019N0300001N1-02121-02461103671ADDAA106000591AY171061GA1001+999999999GF100991001001999999001001KA1999M-00911MA1999999089421MD1710121+9999MW1221REMSYN082AAXX  19181 53192 11980 02502 11212 21246 38942 40367 57012 69941 72270 333 11091;
0143531920999992000111921004+44010+114940FM-12+112899999V0209999C000012200019N0300001N1-02451-02781103731ADDAA124000891GA1001+999999999GF100991001001999999001001MD1710081+9999REMSYN064AAXX  19211 53192 42980 00000 11245 21278 40373 57008 333 70008;
0160531920999992000112000004+44010+114940FM-12+112899999V0209999C000012200019N0200001N1-02361-02701103811ADDAA124000591GF104991001001999999001021MA1999999089361MD1210021+0201REMSYN082AAXX  20001 53192 32970 40000 11236 21270 38936 40381 52002 80002 333 00262 70006;
0132531920999992000112003004+44010+114940FM-12+112899999V0202501N001019999999N0300001N1-02041-02431103821ADDAY171031GF107991001001999999001021MD1210011+9999MW1001REMSYN066AAXX  20031 53192 41980 72501 11204 21243 40382 52001 70070 80002;
0193531920999992000112006004+44010+114940FM-12+112899999V0202701N003019999999N0300001N1-01781-02241103681ADDAA106000791AY171061GF107991021001999999031021KA1999N-02481MA1999999089211MD1710161+9999MW1001REMSYN088AAXX  20061 53192 11980 72703 11178 21224 38921 40368 57016 69901 70070 82032 333 21248;
0124531920999992000112009004+44010+114940FM-12+112899999V0202501N002019999999N0300001N1-01921-02291103811ADDGF107991021001999999031021MD1710011+9999MW1221REMSYN066AAXX  20091 53192 41980 72502 11192 21229 40381 57001 72200 82032;
0170531920999992000112012004+44010+114940FM-12+112899999V0202701N003012200019N0300001N1-02011-02381103801ADDAA106000791AY171061GF104991001001999999001021MA1999999089191MD1710011+9999MW1701REMSYN078AAXX  20121 53192 11980 42703 11201 21238 38919 40380 57001 69901 77070 80002;
0132531920999992000112015004+44010+114940FM-12+112899999V0202701N004012200019N0300001N1-02291-02671103811ADDAY171031GF102991001001999999001021MD1210021+9999MW1001REMSYN066AAXX  20151 53192 41980 22704 11229 21267 40381 52002 70070 80002;
0193531920999992000112018004+44010+114940FM-12+112899999V0209999C000012200019N0300001N1-02681-03041103851ADDAA106000791AY171061GF101991001001999999001021KA1999M-01731MA1999999089211MD1410001+9999MW1001REMSYN088AAXX  20181 53192 11980 10000 11268 21304 38921 40385 54000 69901 70070 80002 333 11173;
0143531920999992000112021004+44010+114940FM-12+112899999V0209999C000012200019N0300001N1-02841-03231103941ADDAA124000791GA1001+999999999GF100991001001999999001001MD1710011+9999REMSYN064AAXX  20211 53192 42980 00000 11284 21323 40394 57001 333 79999;
0160531920999992000112100004+44010+114940FM-12+112899999V0200401N002012200019N0250001N1-02741-03121103891ADDAA124000791GF101991001001999999001021MA1999999089161MD1710041-0201REMSYN082AAXX  21001 53192 32975 10402 11274 21312 38916 40389 57004 80002 333 05254 79999;
0112531920999992000112103004+44010+114940FM-12+112899999V0200201N002019999999N0300001N1-02271-02621103711ADDGF106991001001999999001021MD1710101+9999REMSYN060AAXX  21031 53192 42980 60202 11227 21262 40371 57010 80002;
0186531920999992000112106004+44010+114940FM-12+112899999V0200201N003019999999N0300001N1-01511-02031103211ADDAA199000091GF107991051001999999031021KA1999N-02911MA1999999088731MD1710331+9999REMSYN076AAXX  21061 53192 32980 70203 11151 21203 38873 40321 57033 85032 333 21291;EQDQ01  00002PRCP99
0112531920999992000112109004+44010+114940FM-12+112899999V0200701N003019999999N0300001N1-01311-01841102891ADDGF107991001001999999001021MD1710271+9999REMSYN060AAXX  21091 53192 42980 70703 11131 21184 40289 57027 80002;
0163531920999992000112112004+44010+114940FM-12+112899999V0200201N005019999999N0300001N1-01421-01811102701ADDAA199000091GF105991001001999999001021MA1999999088301MD1710161+9999REMSYN066AAXX  21121 53192 32980 50205 11142 21181 38830 40270 57016 80002;EQDQ01  00002PRCP99
0112531920999992000112115004+44010+114940FM-12+112899999V0202501N002019999999N0300001N1-01111-01481102341ADDGF107991001001999999001021MD1710111+9999REMSYN060AAXX  21151 53192 42980 72502 11111 21148 40234 57011 80002;
0186531920999992000112118004+44010+114940FM-12+112899999V0202501N004019999999N0300001N1-00931-01331102071ADDAA199000091GF105991001001999999001021KA1999M-00681MA1999999088191MD1410001+9999REMSYN076AAXX  21181 53192 32980 52504 11093 21133 38819 40207 54000 80002 333 11068;EQDQ01  00002PRCP99
0112531920999992000112121004+44010+114940FM-12+112899999V0202201N003012200019N0300001N1-01031-01451102031ADDGF102991001001999999001021MD1710011+9999REMSYN060AAXX  21211 53192 42980 22203 11103 21145 40203 57001 80002;
0173531920999992000112200004+44010+114940FM-12+112899999V0202201N006012200019N0300001N1-01291-01701102391ADDAA199000091GF101991001001999999001021MA1999999088401MD1210221+0081REMSYN076AAXX  22001 53192 32980 12206 11129 21170 38840 40239 52022 80002 333 05815;EQDQ01  00002PRCP99
0124531920999992000112203004+44010+114940FM-12+112899999V0202701N011019999999N0300001N1-01451-01981102681ADDGF107991001001999999001021MD1210291+9999MW1701REMSYN066AAXX  22031 53192 41980 72711 11145 21198 40268 52029 77000 80002;
0216531920999992000112206004+44010+114940FM-12+112899999V0202701N008019999999N0300001N1-01461-01991102911ADDAA106000791AY171061GF106991001001999999001021KA1240N-01521MA1999999088931MD1210241+9999MW1001OA130601701REMSYN100AAXX  22061 53192 11980 62708 11146 21199 38893 40291 52024 69901 70070 80002 333 21152 91117 91527;
0122531920999992000112209004+44010+114940FM-12+112899999V0202501N003012200019N0300001N1-01641-02121103221ADDGA1001+999999999GF100991001001999999001001MD1210201+9999REMSYN054AAXX  22091 53192 42980 02503 11164 21212 40322 52020;
0154531920999992000112212004+44010+114940FM-12+112899999V0209999C000012200019N0300001N1-01831-02251103461ADDAA199000021GA1001+999999999GF100991001001999999001001MA1999999089221MD1210091+9999REMSYN060AAXX  22121 53192 32980 00000 11183 21225 38922 40346 52009;
0122531920999992000112215004+44010+114940FM-12+112899999V0209999C000012200019N0300001N1-02041-02421103551ADDGA1001+999999999GF100991001001999999001001MD1710021+9999REMSYN054AAXX  22151 53192 42980 00000 11204 21242 40355 57002;
0196531920999992000112218004+44010+114940FM-12+112899999V0203601N001012200019N0300001N1-02101-02471103451ADDAA199000091GA1001+999999999GF100991001001999999001001KA1999M-00821MA1999999089101MD1710101+9999REMSYN070AAXX  22181 53192 32980 03601 11210 21247 38910 40345 57010 333 11082;EQDQ01  00002PRCP99
0133531920999992000112221004+44010+114940FM-12+112899999V0209999C000012200019N0300001N1-02021-02391103341ADDAA124000791GF102991001001999999001021MD1710121+9999REMSYN070AAXX  22211 53192 42980 20000 11202 21239 40334 57012 80002 333 79999;
0160531920999992000112300004+44010+114940FM-12+112899999V0200401N001012200019N0250001N1-01921-02261103391ADDAA124000791GF102991001001999999001021MA1999999089001MD1210021+0601REMSYN082AAXX  23001 53192 32975 20401 11192 21226 38900 40339 52002 80002 333 00656 79999;
0112531920999992000112303004+44010+114940FM-12+112899999V0201401N001012200019N0300001N1-01401-01931103381ADDGF101991001001999999001021MD1210071+9999REMSYN060AAXX  23031 53192 42980 11401 11140 21193 40338 52007 80002;
0196531920999992000112306004+44010+114940FM-12+112899999V0209999C000012200019N0300001N1-00911-01661103171ADDAA199000091GA1001+999999999GF100991001001999999001001KA1999N-02191MA1999999089001MD1710071+9999REMSYN070AAXX  23061 53192 32980 00000 11091 21166 38900 40317 57007 333 21219;EQDQ01  00002PRCP99
0122531920999992000112309004+44010+114940FM-12+112899999V0209999C000012200019N0250001N1-01181-01661103291ADDGA1001+999999999GF100991001001999999001001MD1210051+9999REMSYN054AAXX  23091 53192 42975 00000 11118 21166 40329 52005;
0173531920999992000112312004+44010+114940FM-12+112899999V0209999C000012200019N0300001N1-01651-02001103501ADDAA199000091GA1001+999999999GF100991001001999999001001MA1999999089141MD1210091+9999REMSYN060AAXX  23121 53192 32980 00000 11165 21200 38914 40350 52009;EQDQ01  00002PRCP99
0122531920999992000112315004+44010+114940FM-12+112899999V0209999C000012200019N0300001N1-01891-02261103481ADDGA1001+999999999GF100991001001999999001001MD1210051+9999REMSYN054AAXX  23151 53192 42980 00000 11189 21226 40348 52005;
0196531920999992000112318004+44010+114940FM-12+112899999V0209999C000012200019N0300001N1-02001-02361103361ADDAA199000091GA1001+999999999GF100991001001999999001001KA1999M-00771MA1999999089191MD1410001+9999REMSYN070AAXX  23181 53192 32980 00000 11200 21236 38919 40336 54000 333 11077;EQDQ01  00002PRCP99
0122531920999992000112321004+44010+114940FM-12+112899999V0209999C000012200019N0300001N1-02251-02601103441ADDGA1001+999999999GF100991001001999999001001MD1710071+9999REMSYN054AAXX  23211 53192 42980 00000 11225 21260 40344 57007;
0173531920999992000112400004+44010+114940FM-12+112899999V0200201N002012200019N0300001N1-02001-02361103471ADDAA199000091GF101991011051012501001001MA1999999089091MD1710031+0011REMSYN076AAXX  24001 53192 32680 10202 11200 21236 38909 40347 57003 81500 333 00151;EQDQ01  00002PRCP99
0112531920999992000112403004+44010+114940FM-12+112899999V0200201N003012200019N0300001N1-01341-01781103341ADDGF103991021001999999031021MD1410001+9999REMSYN060AAXX  24031 53192 42980 30203 11134 21178 40334 54000 82032;
0186531920999992000112406004+44010+114940FM-12+112899999V0200901N003012200019N0300001N1-00761-01541102811ADDAA199000091GF104991001001999999001021KA1999N-02251MA1999999088751MD1710341+9999REMSYN076AAXX  24061 53192 32980 40903 11076 21154 38875 40281 57034 80002 333 21225;EQDQ01  00002PRCP99
0112531920999992000112409004+44010+114940FM-12+112899999V0200901N003019999999N0300001N1-00871-01531102671ADDGF107991001001999999001021MD1710211+9999REMSYN060AAXX  24091 53192 42980 70903 11087 21153 40267 57021 80002;
0163531920999992000112412004+44010+114940FM-12+112899999V0200201N004012200019N0300001N1-01171-01571102521ADDAA199000091GF102991001001999999001021MA1999999088401MD1710141+9999REMSYN066AAXX  24121 53192 32980 20204 11117 21157 38840 40252 57014 80002;EQDQ01  00002PRCP99
0112531920999992000112415004+44010+114940FM-12+112899999V0200401N001019999999N0300001N1-01091-01511102181ADDGF107991001001999999001021MD1710111+9999REMSYN060AAXX  24151 53192 42980 70401 11109 21151 40218 57011 80002;
0193531920999992000112418004+44010+114940FM-12+112899999V0202201N004019999999N0280001N1-00761-01081102061ADDAA106000591AY171061GF108991081001999999011999KA1999M-00731MA1999999088401MD1210111+9999MW1701REMSYN088AAXX  24181 53192 11978 82204 11076 21108 38840 40206 52011 69951 77070 8801/ 333 11073;
0163531920999992000112421004+44010+114940FM-12+112899999V0202701N007012200019N0300001N1-01001-01371102301ADDAA124000591AY171031GA1001+999999999GF100991001001999999001001MD1210131+9999MW1001REMSYN070AAXX  24211 53192 41980 02707 11100 21137 40230 52013 70070 333 70005;
0186531920999992000112500004+44010+114940FM-12+112899999V0202701N003012200019N0300001N1-01561-01941103041ADDAA106000791AY171061GF101991001001999999001021MA1999999088961MD1210431-0101MW1001REMSYN094AAXX  25001 53192 11980 12703 11156 21194 38896 40304 52043 69901 70070 80002 333 05104 70005;
0122531920999992000112503004+44010+114940FM-12+112899999V0202701N003012200019N0300001N1-01261-01781103211ADDGA1001+999999999GF100991001001999999001001MD1210241+9999REMSYN054AAXX  25031 53192 42980 02703 11126 21178 40321 52024;
0167531920999992000112506004+44010+114940FM-12+112899999V0202501N005012200019N0300001N1-01181-01691103091ADDAA199000021GF101991011051012501001001KA1999N-01561MA1999999089191MD1710011+9999REMSYN076AAXX  25061 53192 32680 12505 11118 21169 38919 40309 57001 81500 333 21156;
0132531920999992000112509004+44010+114940FM-12+112899999V0202501N004012200019N0300001N1-01441-01801103381ADDAY171031GF103991011051012501001021MD1210131+9999MW1001REMSYN066AAXX  25091 53192 41680 32504 11144 21180 40338 52013 70070 81502;
0180531920999992000112512004+44010+114940FM-12+112899999V0202501N002012200019N0300001N1-01781-02111103721ADDAA106000791AY171061GA1001+999999999GF100991001001999999001001MA1999999089391MD1210071+9999MW1001REMSYN072AAXX  25121 53192 11980 02502 11178 21211 38939 40372 52007 69901 70070;
0122531920999992000112515004+44010+114940FM-12+112899999V0209999C000012200019N0300001N1-01801-02131103651ADDGA1001+999999999GF100991001001999999001001MD1210011+9999REMSYN054AAXX  25151 53192 42980 00000 11180 21213 40365 52001;
0196531920999992000112518004+44010+114940FM-12+112899999V0209999C000012200019N0300001N1-01981-02321103601ADDAA199000091GA1001+999999999GF100991001001999999001001KA1999M-00751MA1999999089331MD1710071+9999REMSYN070AAXX  25181 53192 32980 00000 11198 21232 38933 40360 57007 333 11075;EQDQ01  00002PRCP99
0143531920999992000112521004+44010+114940FM-12+112899999V0202901N001012200019N0300001N1-01931-02271103521ADDAA124000791GA1001+999999999GF100991001001999999001001MD1710121+9999REMSYN064AAXX  25211 53192 42980 02901 11193 21227 40352 57012 333 79999;
0170531920999992000112600004+44010+114940FM-12+112899999V0209999C000012200019N0250001N1-01961-02301103751ADDAA124000791GA1001+999999999GF100991001001999999001001MA1999999089311MD1210101+0401REMSYN076AAXX  26001 53192 32975 00000 11196 21230 38931 40375 52010 333 00454 79999;
0122531920999992000112603004+44010+114940FM-12+112899999V0202501N002012200019N0300001N1-01621-01971103731ADDGA1001+999999999GF100991001001999999001001MD1210071+9999REMSYN054AAXX  26031 53192 42980 02502 11162 21197 40373 52007;
0153531920999992000112606004+44010+114940FM-12+112899999V0202501N003012200019N0300001N1-01281+99999999999ADDAA199000091GA1001+999999999GF100991001001999999001001REMSYN069AAXX  26061 53192 32980 02503 11128 2194 38929 40358 57009 333 21206;EQDQ01  00002PRCP99
0112531920999992000112609004+44010+114940FM-12+112899999V0209999C000012200019N0300001N1-01481-01971103591ADDGF103991001001999999001021MD1710031+9999REMSYN060AAXX  26091 53192 42980 30000 11148 21197 40359 57003 80002;
0173531920999992000112612004+44010+114940FM-12+112899999V0209999C000012200019N0300001N1-01791-02211103741ADDAA199000091GA1001+999999999GF100991001001999999001001MA1999999089301MD1210041+9999REMSYN060AAXX  26121 53192 32980 00000 11179 21221 38930 40374 52004;EQDQ01  00002PRCP99
0122531920999992000112615004+44010+114940FM-12+112899999V0209999C000012200019N0300001N1-02051-02401103731ADDGA1001+999999999GF100991001001999999001001MD1210011+9999REMSYN054AAXX  26151 53192 42980 00000 11205 21240 40373 52001;
0196531920999992000112618004+44010+114940FM-12+112899999V0209999C000012200019N0300001N1-02021-02401103621ADDAA199000091GA1001+999999999GF100991001001999999001001KA1999M-01251MA1999999089311MD1410001+9999REMSYN070AAXX  26181 53192 32980 00000 11202 21240 38931 40362 54000 333 11125;EQDQ01  00002PRCP99
0122531920999992000112621004+44010+114940FM-12+112899999V0200901N001012200019N0300001N1-02071-02421103621ADDGA1001+999999999GF100991001001999999001001MD1710061+9999REMSYN054AAXX  26211 53192 42980 00901 11207 21242 40362 57006;
0183531920999992000112700004+44010+114940FM-12+112899999V0202701N001012200019N0300001N1-02211-02561103911ADDAA199000091GA1001+999999999GF100991001001999999001001MA1999999089381MD1210131+0011REMSYN070AAXX  27001 53192 32980 02701 11221 21256 38938 40391 52013 333 00153;EQDQ01  00002PRCP99
0112531920999992000112703004+44010+114940FM-12+112899999V0202501N003019999999N0300001N1-01791-02211103991ADDGF107991001001999999001021MD1210111+9999REMSYN060AAXX  27031 53192 42980 72503 11179 21221 40399 52011 80002;
0112531920999992000112709004+44010+114940FM-12+112899999V0202501N001012200019N0300001N1-01601-02081103861ADDGF102991001001999999001021MD1210021+9999REMSYN060AAXX  27091 53192 42980 22501 11160 21208 40386 52002 80002;
0173531920999992000112712004+44010+114940FM-12+112899999V0209999C000012200019N0300001N1-01891-02281104061ADDAA199000091GA1001+999999999GF100991001001999999001001MA1999999089481MD1210061+9999REMSYN060AAXX  27121 53192 32980 00000 11189 21228 38948 40406 52006;EQDQ01  00002PRCP99
0122531920999992000112715004+44010+114940FM-12+112899999V0209999C000012200019N0300001N1-02121-02471103961ADDGA1001+999999999GF100991001001999999001001MD1710031+9999REMSYN054AAXX  27151 53192 42980 00000 11212 21247 40396 57003;
0196531920999992000112718004+44010+114940FM-12+112899999V0209999C000012200019N0300001N1-02111-02481103791ADDAA199000091GA1001+999999999GF100991001001999999001001KA1999M-01241MA1999999089421MD1710031+9999REMSYN070AAXX  27181 53192 32980 00000 11211 21248 38942 40379 57003 333 11124;EQDQ01  00002PRCP99
0122531920999992000112721004+44010+114940FM-12+112899999V0209999C000012200019N0300001N1-02221-02571103801ADDGA1001+999999999GF100991001001999999001001MD1710091+9999REMSYN054AAXX  27211 53192 42980 00000 11222 21257 40380 57009;
0183531920999992000112800004+44010+114940FM-12+112899999V0209999C000012200019N0200001N1-02171-02521103741ADDAA199000091GA1001+999999999GF100991001001999999001001MA1999999089221MD1710111+0021REMSYN070AAXX  28001 53192 32970 00000 11217 21252 38922 40374 57011 333 05200;EQDQ01  00002PRCP99
0122531920999992000112803004+44010+114940FM-12+112899999V0202701N003012200019N0300001N1-01521-02071103411ADDGA1001+999999999GF100991001001999999001001MD1710181+9999REMSYN054AAXX  28031 53192 42980 02703 11152 21207 40341 57018;
0212531920999992000112806004+44010+114940FM-12+112899999V0209999C000012200019N0300001N1-00841-01811102732ADDAA199000091GA1001+999999999GF100991001001999999001001KA1999N-02271MA1999999088631MD1710411+9999REMSYN070AAXX  28061 53192 32980 00000 11084 21181 38863 40273 57041 333 21227;EQDQ01+102733APOSLPQ02  00002PRCP99
0122531920999992000112809004+44010+114940FM-12+112899999V0202201N003012200019N0300001N1-01191-01781102811ADDGA1001+999999999GF100991001001999999001001MD1710041+9999REMSYN054AAXX  28091 53192 42980 02203 11119 21178 40281 57004;
0173531920999992000112812004+44010+114940FM-12+112899999V0203401N001012200019N0300001N1-01261-01921102961ADDAA199000091GA1001+999999999GF100991001001999999001001MA1999999088711MD1210121+9999REMSYN060AAXX  28121 53192 32980 03401 11126 21192 38871 40296 52012;EQDQ01  00002PRCP99
0122531920999992000112815004+44010+114940FM-12+112899999V0202001N003012200019N0300001N1-01581-02181103161ADDGA1001+999999999GF100991001001999999001001MD1210261+9999REMSYN054AAXX  28151 53192 42980 02003 11158 21218 40316 52026;
0196531920999992000112818004+44010+114940FM-12+112899999V0202701N001012200019N0300001N1-01841-02331103291ADDAA199000091GA1001+999999999GF100991001001999999001001KA1999M-00721MA1999999089181MD1210211+9999REMSYN070AAXX  28181 53192 32980 02701 11184 21233 38918 40329 52021 333 11072;EQDQ01  00002PRCP99
0122531920999992000112821004+44010+114940FM-12+112899999V0203201N001012200019N0300001N1-02211-02621103601ADDGA1001+999999999GF100991001001999999001001MD1210091+9999REMSYN054AAXX  28211 53192 42980 03201 11221 21262 40360 52009;
0173531920999992000112900004+44010+114940FM-12+112899999V0200401N001012200019N0200001N1-02211-02621103781ADDAA199000091GF101991001001999999001021MA1999999089411MD1210141+0021REMSYN076AAXX  29001 53192 32970 10401 11221 21262 38941 40378 52014 80002 333 00200;EQDQ01  00002PRCP99
0122531920999992000112903004+44010+114940FM-12+112899999V0201101N001012200019N0300001N1-01561-02171103791ADDGA1001+999999999GF100991001001999999001001MD1210091+9999REMSYN054AAXX  29031 53192 42980 01101 11156 21217 40379 52009;
0196531920999992000112906004+44010+114940FM-12+112899999V0202501N002012200019N0300001N1-01341-02001103661ADDAA199000091GA1001+999999999GF100991001001999999001001KA1999N-02251MA1999999089381MD1710121+9999REMSYN070AAXX  29061 53192 32980 02502 11134 21200 38938 40366 57012 333 21225;EQDQ01  00002PRCP99
0122531920999992000112909004+44010+114940FM-12+112899999V0202201N001012200019N0300001N1-01561-02091103861ADDGA1001+999999999GF100991001001999999001001MD1210021+9999REMSYN054AAXX  29091 53192 42980 02201 11156 21209 40386 52002;
0173531920999992000112912004+44010+114940FM-12+112899999V0200201N002012200019N0300001N1-01881-02251103931ADDAA199000091GA1001+999999999GF100991001001999999001001MA1999999089371MD1710031+9999REMSYN060AAXX  29121 53192 32980 00202 11188 21225 38937 40393 57003;EQDQ01  00002PRCP99
0122531920999992000112915004+44010+114940FM-12+112899999V0200401N003012200019N0300001N1-01961-02331103591ADDGA1001+999999999GF100991001001999999001001MD1710141+9999REMSYN054AAXX  29151 53192 42980 00403 11196 21233 40359 57014;
0196531920999992000112918004+44010+114940FM-12+112899999V0200201N002012200019N0300001N1-01831-02221103281ADDAA199000091GA1001+999999999GF100991001001999999001001KA1999M-01281MA1999999089051MD1710181+9999REMSYN070AAXX  29181 53192 32980 00202 11183 21222 38905 40328 57018 333 11128;EQDQ01  00002PRCP99
0122531920999992000112921004+44010+114940FM-12+112899999V0200401N003012200019N0300001N1-01861-02271103171ADDGA1001+999999999GF100991001001999999001001MD1710161+9999REMSYN054AAXX  29211 53192 42980 00403 11186 21227 40317 57016;
0173531920999992000113000004+44010+114940FM-12+112899999V0209999C000019999999N0280001N1-01861-02281103191ADDAA199000091GF107991021001999999031021MA1999999088831MD1710061+0061REMSYN076AAXX  30001 53192 32978 70000 11186 21228 38883 40319 57006 82032 333 05604;EQDQ01  00002PRCP99
0122531920999992000113003004+44010+114940FM-12+112899999V0202701N002012200019N0300001N1-01021-01761102911ADDGA1001+999999999GF100991001001999999001001MD1710051+9999REMSYN054AAXX  30031 53192 42980 02702 11102 21176 40291 57005;
0196531920999992000113006004+44010+114940FM-12+112899999V0202501N006012200019N0300001N1-00661-01501102641ADDAA199000091GA1001+999999999GF100991001001999999001001KA1999N-02121MA1999999088671MD1710111+9999REMSYN070AAXX  30061 53192 32980 02506 11066 21150 38867 40264 57011 333 21212;EQDQ01  00002PRCP99
0122531920999992000113009004+44010+114940FM-12+112899999V0202701N004012200019N0300001N1-01011-01641102871ADDGA1001+999999999GF100991001001999999001001MD1210101+9999REMSYN054AAXX  30091 53192 42980 02704 11101 21164 40287 52010;
0173531920999992000113012004+44010+114940FM-12+112899999V0209999C000012200019N0250001N1-01471-01891103151ADDAA199000091GA1001+999999999GF100991001001999999001001MA1999999088901MD1210131+9999REMSYN060AAXX  30121 53192 32975 00000 11147 21189 38890 40315 52013;EQDQ01  00002PRCP99
0122531920999992000113015004+44010+114940FM-12+112899999V0209999C000012200019N0300001N1-01741-02091103011ADDGA1001+999999999GF100991001001999999001001MD1210021+9999REMSYN054AAXX  30151 53192 42980 00000 11174 21209 40301 52002;
0196531920999992000113018004+44010+114940FM-12+112899999V0209999C000012200019N0300001N1-01961-02291103051ADDAA199000091GA1001+999999999GF100991001001999999001001KA1999M-00641MA1999999088991MD1210071+9999REMSYN070AAXX  30181 53192 32980 00000 11196 21229 38899 40305 52007 333 11064;EQDQ01  00002PRCP99
0122531920999992000113021004+44010+114940FM-12+112899999V0202701N001012200019N0300001N1-02091-02461103181ADDGA1001+999999999GF100991001001999999001001MD1710011+9999REMSYN054AAXX  30211 53192 42980 02701 11209 21246 40318 57001;
0173531920999992000120100004+44010+114940FM-12+112899999V0209999C000012200019N0200001N1-02021-02391103331ADDAA199000091GF101991001001999999001021MA1999999089011MD1210031+0021REMSYN076AAXX  01001 53192 32970 10000 11202 21239 38901 40333 52003 80002 333 00252;EQDQ01  00002PRCP99
0112531920999992000120103004+44010+114940FM-12+112899999V0209999C000012200019N0250001N1-01071-01641103161ADDGF104991001001999999001021MD1210031+9999REMSYN060AAXX  01031 53192 42975 40000 11107 21164 40316 52003 80002;
0186531920999992000120106004+44010+114940FM-12+112899999V0202201N003019999999N0300001N1-00721-01421102951ADDAA199000091GF107991001001999999001021KA1999N-02111MA1999999088891MD1710151+9999REMSYN076AAXX  01061 53192 32980 72203 11072 21142 38889 40295 57015 80002 333 21211;EQDQ01  00002PRCP99
0112531920999992000120109004+44010+114940FM-12+112899999V0202501N005012200019N0300001N1-01071-01541103191ADDGF102991001001999999001021MD1210091+9999REMSYN060AAXX  01091 53192 42980 22505 11107 21154 40319 52009 80002;
0163531920999992000120112004+44010+114940FM-12+112899999V0202701N006012200019N0300001N1-00881-01671103191ADDAA199000091GF104991021051012501001021MA1999999089041MD1210061+9999REMSYN066AAXX  01121 53192 32680 42706 11088 21167 38904 40319 52006 82502;EQDQ01  00002PRCP99
0122531920999992000120115004+44010+114940FM-12+112899999V0202901N008012200019N0300001N1-01201-01821103231ADDGA1001+999999999GF100991001001999999001001MD1210191+9999REMSYN054AAXX  01151 53192 42980 02908 11120 21182 40323 52019;
0196531920999992000120118004+44010+114940FM-12+112899999V0202501N003012200019N0300001N1-01471-02031103451ADDAA199000091GA1001+999999999GF100991001001999999001001KA1999M-00691MA1999999089441MD1210211+9999REMSYN070AAXX  01181 53192 32980 02503 11147 21203 38944 40345 52021 333 11069;EQDQ01  00002PRCP99
0122531920999992000120121004+44010+114940FM-12+112899999V0202501N009012200019N0300001N1-01621-02281103671ADDGA1001+999999999GF100991001001999999001001MD1210071+9999REMSYN054AAXX  01211 53192 42980 02509 11162 21228 40367 52007;
0173531920999992000120200004+44010+114940FM-12+112899999V0202501N009012200019N0300001N1-01791-02421103921ADDAA199000091GF102991001001999999001021MA1999999089731MD1210221+0071REMSYN076AAXX  02001 53192 32980 22509 11179 21242 38973 40392 52022 80002 333 00702;EQDQ01  00002PRCP99
0112531920999992000120203004+44010+114940FM-12+112899999V0202501N003012200019N0300001N1-01551-02181104061ADDGF101991001001999999001021MD1210101+9999REMSYN060AAXX  02031 53192 42980 12503 11155 21218 40406 52010 80002;
0196531920999992000120206004+44010+114940FM-12+112899999V0202701N006012200019N0300001N1-01461-02031103911ADDAA199000091GA1001+999999999GF100991001001999999001001KA1999N-01851MA1999999089661MD1710171+9999REMSYN070AAXX  02061 53192 32980 02706 11146 21203 38966 40391 57017 333 21185;EQDQ01  00002PRCP99
0122531920999992000120209004+44010+114940FM-12+112899999V0202901N002012200019N0300001N1-01601-02281103931ADDGA1001+999999999GF100991001001999999001001MD1710061+9999REMSYN054AAXX  02091 53192 42980 02902 11160 21228 40393 57006;
0173531920999992000120212004+44010+114940FM-12+112899999V0209999C000012200019N0300001N1-01901-02421103951ADDAA199000091GA1001+999999999GF100991001001999999001001MA1999999089501MD1710101+9999REMSYN060AAXX  02121 53192 32980 00000 11190 21242 38950 40395 57010;EQDQ01  00002PRCP99
0122531920999992000120215004+44010+114940FM-12+112899999V0209999C000012200019N0300001N1-01951-02451103701ADDGA1001+999999999GF100991001001999999001001MD1710171+9999REMSYN054AAXX  02151 53192 42980 00000 11195 21245 40370 57017;
0196531920999992000120218004+44010+114940FM-12+112899999V0209999C000012200019N0300001N1-01931-02431103481ADDAA199000091GA1001+999999999GF100991001001999999001001KA1999M-01391MA1999999089171MD1710161+9999REMSYN070AAXX  02181 53192 32980 00000 11193 21243 38917 40348 57016 333 11139;EQDQ01  00002PRCP99
0122531920999992000120221004+44010+114940FM-12+112899999V0209999C000012200019N0300001N1-01951-02481103301ADDGA1001+999999999GF100991001001999999001001MD1710201+9999REMSYN054AAXX  02211 53192 42980 00000 11195 21248 40330 57020;
0183531920999992000120300004+44010+114940FM-12+112899999V0209999C000012200019N0250001N1-01971-02431103311ADDAA199000091GA1001+999999999GF100991001001999999001001MA1999999088901MD1710071+0081REMSYN070AAXX  03001 53192 32975 00000 11197 21243 38890 40331 57007 333 05852;EQDQ01  00002PRCP99
0122531920999992000120303004+44010+114940FM-12+112899999V0202701N003012200019N0300001N1-01471-02081103051ADDGA1001+999999999GF100991001001999999001001MD1710111+9999REMSYN054AAXX  03031 53192 42980 02703 11147 21208 40305 57011;
0158531920999992000120306004+44010+114940FM-12+112899999V0202201N003012200019N0300001N1-01011-01711102501ADDAA199000091GF102991999999999999999999MA1999999088441REMSYN075AAXX  03061 53192 32980 22203 11101 21171 38844 40250 5703 80002 333 21205;EQDQ01  00002PRCP99
0112531920999992000120309004+44010+114940FM-12+112899999V0202501N002019999999N0250001N1-01071-01681102251ADDGF107991001001999999001021MD1710241+9999REMSYN060AAXX  03091 53192 42975 72502 11107 21168 40225 57024 80002;
0163531920999992000120312004+44010+114940FM-12+112899999V0202201N004010900019N0300001N1-00701-01561101811ADDAA199000091GF106991021051012501001021MA1999999087911MD1710291+9999REMSYN066AAXX  03121 53192 32680 62204 11070 21156 38791 40181 57029 82502;EQDQ01  00002PRCP99
0112531920999992000120315004+44010+114940FM-12+112899999V0202501N006012200019N0300001N1-00691-01601101451ADDGF102991001001999999001021MD1710191+9999REMSYN060AAXX  03151 53192 42980 22506 11069 21160 40145 57019 80002;
0196531920999992000120318004+44010+114940FM-12+112899999V0202501N007012200019N0300001N1-01011-01711101311ADDAA199000091GA1001+999999999GF100991001001999999001001KA1999M-00521MA1999999087631MD1710091+9999REMSYN070AAXX  03181 53192 32980 02507 11101 21171 38763 40131 57009 333 11052;EQDQ01  00002PRCP99
0122531920999992000120321004+44010+114940FM-12+112899999V0202501N008012200019N0300001N1-01171-01841101401ADDGA1001+999999999GF100991001001999999001001MD1210031+9999REMSYN054AAXX  03211 53192 42980 02508 11117 21184 40140 52003;
0183531920999992000120400004+44010+114940FM-12+112899999V0202501N009012200019N0300001N1-01361-02001101661ADDAA199000091GA1001+999999999GF100991001001999999001001MA1999999087931MD1210271+0101REMSYN070AAXX  04001 53192 32980 02509 11136 21200 38793 40166 52027 333 06006;EQDQ01  00002PRCP99
0112531920999992000120403004+44010+114940FM-12+112899999V0202701N005019999999N0300001N1-01681-02241102241ADDGF106991001001999999001021MD1210421+9999REMSYN060AAXX  04031 53192 42980 62705 11168 21224 40224 52042 80002;
0186531920999992000120406004+44010+114940FM-12+112899999V0203201N006019999999N0300001N1-01791-02421102811ADDAA199000091GF105991001001999999001021KA1999N-01831MA1999999088741MD1210391+9999REMSYN076AAXX  04061 53192 32980 53206 11179 21242 38874 40281 52039 80002 333 21183;EQDQ01  00002PRCP99
0112531920999992000120409004+44010+114940FM-12+112899999V0202501N004012200019N0300001N1-02021-02621103341ADDGF103991001001999999001021MD1210361+9999REMSYN060AAXX  04091 53192 42980 32504 11202 21262 40334 52036 80002;
0173531920999992000120412004+44010+114940FM-12+112899999V0202701N002012200019N0300001N1-02161-02741103611ADDAA199000091GA1001+999999999GF100991001001999999001001MA1999999089251MD1210151+9999REMSYN060AAXX  04121 53192 32980 02702 11216 21274 38925 40361 52015;EQDQ01  00002PRCP99
0122531920999992000120415004+44010+114940FM-12+112899999V0209999C000012200019N0300001N1-02441-02921103771ADDGA1001+999999999GF100991001001999999001001MD1710021+9999REMSYN054AAXX  04151 53192 42980 00000 11244 21292 40377 57002;
0196531920999992000120418004+44010+114940FM-12+112899999V0209999C000012200019N0300001N1-02501-02941103771ADDAA199000091GA1001+999999999GF100991001001999999001001KA1999M-00951MA1999999089181MD1710051+9999REMSYN070AAXX  04181 53192 32980 00000 11250 21294 38918 40377 57005 333 11095;EQDQ01  00002PRCP99
0122531920999992000120421004+44010+114940FM-12+112899999V0209999C000012200019N0300001N1-02511-02951103561ADDGA1001+999999999GF100991001001999999001001MD1710241+9999REMSYN054AAXX  04211 53192 42980 00000 11251 21295 40356 57024;
0112531920999992000120503004+44010+114940FM-12+112899999V0200201N001012200019N0300001N1-01471-02121103091ADDGF103991001001999999001021MD1710151+9999REMSYN060AAXX  05031 53192 42980 30201 11147 21212 40309 57015 80002;
0186531920999992000120506004+44010+114940FM-12+112899999V0202201N005012200019N0300001N1-00771-01761102611ADDAA199000091GF104991001001999999001021KA1999N-02561MA1999999088451MD1710251+9999REMSYN076AAXX  05061 53192 32980 42205 11077 21176 38845 40261 57025 80002 333 21256;EQDQ01  00002PRCP99
0112531920999992000120509004+44010+114940FM-12+112899999V0209999C000019999999N0300001N1-01101-01731102681ADDGF106991001001999999001021MD1710031+9999REMSYN060AAXX  05091 53192 42980 60000 11110 21173 40268 57003 80002;
0163531920999992000120512004+44010+114940FM-12+112899999V0200201N002019999999N0250001N1-01331-01861102681ADDAA199000091GF107991001001999999001021MA1999999088401MD1710021+9999REMSYN066AAXX  05121 53192 32975 70202 11133 21186 38840 40268 57002 80002;EQDQ01  00002PRCP99
0112531920999992000120515004+44010+114940FM-12+112899999V0200201N002012200019N0300001N1-01341-01871102451ADDGF102991001001999999001021MD1210031+9999REMSYN060AAXX  05151 53192 42980 20202 11134 21187 40245 52003 80002;
0196531920999992000120518004+44010+114940FM-12+112899999V0209999C000012200019N0300001N1-01651-02111102341ADDAA199000091GA1001+999999999GF100991001001999999001001KA1999M-00761MA1999999088431MD1410001+9999REMSYN070AAXX  05181 53192 32980 00000 11165 21211 38843 40234 54000 333 11076;EQDQ01  00002PRCP99
0122531920999992000120521004+44010+114940FM-12+112899999V0202501N006012200019N0300001N1-01121-01811102291ADDGA1001+999999999GF100991001001999999001001MD1410001+9999REMSYN054AAXX  05211 53192 42980 02506 11112 21181 40229 54000;
0183531920999992000120600004+44010+114940FM-12+112899999V0202501N002012200019N0300001N1-01361-01961102701ADDAA199000091GA1001+999999999GF100991001001999999001001MA1999999088671MD1210241+0021REMSYN070AAXX  06001 53192 32980 02502 11136 21196 38867 40270 52024 333 05210;EQDQ01  00002PRCP99
0122531920999992000120603004+44010+114940FM-12+112899999V0202501N005012200019N0300001N1-00981-01701102871ADDGA1001+999999999GF100991001001999999001001MD1210241+9999REMSYN054AAXX  06031 53192 42980 02505 11098 21170 40287 52024;
0196531920999992000120606004+44010+114940FM-12+112899999V0202701N008012200019N0300001N1-00871-01591103031ADDAA199000091GA1001+999999999GF100991001001999999001001KA1999N-01711MA1999999089001MD1210091+9999REMSYN070AAXX  06061 53192 32980 02708 11087 21159 38900 40303 52009 333 21171;EQDQ01  00002PRCP99
0112531920999992000120609004+44010+114940FM-12+112899999V0202001N001012200019N0300001N1-01111-01741103191ADDGF101991001001999999001021MD1210211+9999REMSYN060AAXX  06091 53192 42980 12001 11111 21174 40319 52021 80002;
0173531920999992000120612004+44010+114940FM-12+112899999V0209999C000012200019N0300001N1-01501-01971103601ADDAA199000091GA1001+999999999GF100991001001999999001001MA1999999089411MD1210201+9999REMSYN060AAXX  06121 53192 32980 00000 11150 21197 38941 40360 52020;EQDQ01  00002PRCP99
0122531920999992000120615004+44010+114940FM-12+112899999V0200401N003012200019N0300001N1-01881-02301103671ADDGA1001+999999999GF100991001001999999001001MD1210061+9999REMSYN054AAXX  06151 53192 42980 00403 11188 21230 40367 52006;
0196531920999992000120618004+44010+114940FM-12+112899999V0209999C000012200019N0300001N1-01981-02381103651ADDAA199000091GA1001+999999999GF100991001001999999001001KA1999M-00781MA1999999089451MD1710021+9999REMSYN070AAXX  06181 53192 32980 00000 11198 21238 38945 40365 57002 333 11078;EQDQ01  00002PRCP99
0122531920999992000120621004+44010+114940FM-12+112899999V0200401N001012200019N0300001N1-02121-02531103591ADDGA1001+999999999GF100991001001999999001001MD1710151+9999REMSYN054AAXX  06211 53192 42980 00401 11212 21253 40359 57015;
0173531920999992000120700004+44010+114940FM-12+112899999V0200401N002012200019N0200001N1-02031-02401103541ADDAA199000091GF101991001001999999001021MA1999999089181MD1710121+0051REMSYN076AAXX  07001 53192 32970 10402 11203 21240 38918 40354 57012 80002 333 00557;EQDQ01  00002PRCP99
0112531920999992000120703004+44010+114940FM-12+112899999V0202901N001012200019N0300001N1-01311-01821103251ADDGF103991001001999999001021MD1710161+9999REMSYN060AAXX  07031 53192 42980 32901 11131 21182 40325 57016 80002;
0186531920999992000120706004+44010+114940FM-12+112899999V0202501N006012200019N0300001N1-00661-01271102741ADDAA199000091GF102991001001999999001021KA1999N-02201MA1999999088721MD1710301+9999REMSYN076AAXX  07061 53192 32980 22506 11066 21127 38872 40274 57030 80002 333 21220;EQDQ01  00002PRCP99
0112531920999992000120709004+44010+114940FM-12+112899999V0202701N001012200019N0300001N1-00741-01511102681ADDGF104991001001999999001021MD1710111+9999REMSYN060AAXX  07091 53192 42980 42701 11074 21151 40268 57011 80002;
0163531920999992000120712004+44010+114940FM-12+112899999V0202701N003012200019N0300001N1-00901-01451102601ADDAA199000091GF102991001001999999001021MA1999999088531MD1710081+9999REMSYN066AAXX  07121 53192 32980 22703 11090 21145 38853 40260 57008 80002;EQDQ01  00002PRCP99
0122531920999992000120715004+44010+114940FM-12+112899999V0202701N002012200019N0300001N1-01061-01621102441ADDGA1001+999999999GF100991001001999999001001MD1410001+9999REMSYN054AAXX  07151 53192 42980 02702 11106 21162 40244 54000;
0196531920999992000120718004+44010+114940FM-12+112899999V0202701N001012200019N0300001N1-01301-01781102291ADDAA199000091GA1001+999999999GF100991001001999999001001KA1999M-00541MA1999999088501MD1710031+9999REMSYN070AAXX  07181 53192 32980 02701 11130 21178 38850 40229 57003 333 11054;EQDQ01  00002PRCP99
0122531920999992000120721004+44010+114940FM-12+112899999V0209999C000012200019N0300001N1-01491-01921102321ADDGA1001+999999999GF100991001001999999001001MD1710041+9999REMSYN054AAXX  07211 53192 42980 00000 11149 21192 40232 57004;
0173531920999992000120800004+44010+114940FM-12+112899999V0200201N002012200019N0200001N1-01491-01911102531ADDAA199000091GF101991001001999999001021MA1999999088601MD1210141+0061REMSYN076AAXX  08001 53192 32970 10202 11149 21191 38860 40253 52014 80002 333 05605;EQDQ01  00002PRCP99
0112531920999992000120803004+44010+114940FM-12+112899999V0200701N001019999999N0300001N1-01051-01591102511ADDGF106991001001999999001021MD1210051+9999REMSYN060AAXX  08031 53192 42980 60701 11105 21159 40251 52005 80002;
0186531920999992000120806004+44010+114940FM-12+112899999V0200901N004019999999N0300001N1-00791-01591102371ADDAA199000091GF106991011001999999031021KA1999N-01521MA1999999088531MD1710121+9999REMSYN076AAXX  08061 53192 32980 60904 11079 21159 38853 40237 57012 81032 333 21152;EQDQ01  00002PRCP99
0112531920999992000120809004+44010+114940FM-12+112899999V0200701N003019999999N0300001N1-01011-01631102421ADDGF106991001001999999001021MD1710051+9999REMSYN060AAXX  08091 53192 42980 60703 11101 21163 40242 57005 80002;
0163531920999992000120812004+44010+114940FM-12+112899999V0200701N003019999999N0300001N1-01361-01901102481ADDAA199000091GF107991001001999999001021MA1999999088441MD1710041+9999REMSYN066AAXX  08121 53192 32980 70703 11136 21190 38844 40248 57004 80002;EQDQ01  00002PRCP99
0112531920999992000120815004+44010+114940FM-12+112899999V0209999C000019999999N0300001N1-01401-01871102321ADDGF107991001001999999001021MD1710041+9999REMSYN060AAXX  08151 53192 42980 70000 11140 21187 40232 57004 80002;
0186531920999992000120818004+44010+114940FM-12+112899999V0209999C000019999999N0300001N1-01471-01921102331ADDAA199000091GF108991081001999999011999KA1999M-00741MA1999999088461MD1210061+9999REMSYN076AAXX  08181 53192 32980 80000 11147 21192 38846 40233 52006 8801/ 333 11074;EQDQ01  00002PRCP99
0112531920999992000120821004+44010+114940FM-12+112899999V0202501N006012200019N0300001N1-01481-01921102511ADDGF101991001001999999001021MD1210101+9999REMSYN060AAXX  08211 53192 42980 12506 11148 21192 40251 52010 80002;
0186531920999992000120900004+44010+114940FM-12+112899999V0202201N007019999999N0200001N1-01691-02151103101ADDAA106000791AY171061GF107991021001999999031021MA1999999088931MD1210371+0301MW1701REMSYN094AAXX  09001 53192 11970 72207 11169 21215 38893 40310 52037 69901 77070 82032 333 00352 79999;
0112531920999992000120903004+44010+114940FM-12+112899999V0202501N008012200019N0300001N1-01641-02191103471ADDGF104991011051012501001021MD1210321+9999REMSYN060AAXX  09031 53192 42680 42508 11164 21219 40347 52032 81502;
0167531920999992000120906004+44010+114940FM-12+112899999V0202701N007012200019N0300001N1-01641-02261103671ADDAA199000021GF104991011051012501001021KA1999N-01731MA1999999089401MD1210151+9999REMSYN076AAXX  09061 53192 32680 42707 11164 21226 38940 40367 52015 81502 333 21173;
0112531920999992000120909004+44010+114940FM-12+112899999V0202701N003012200019N0300001N1-01991-02611103921ADDGF102991001001999999001021MD1210131+9999REMSYN060AAXX  09091 53192 42980 22703 11199 21261 40392 52013 80002;
0154531920999992000120912004+44010+114940FM-12+112899999V0202701N006012200019N0300001N1-02241-02791104101ADDAA199000021GA1001+999999999GF100991001001999999001001MA1999999089561MD1210031+9999REMSYN060AAXX  09121 53192 32980 02706 11224 21279 38956 40410 52003;
0122531920999992000120915004+44010+114940FM-12+112899999V0202701N006012200019N0300001N1-02421-02981104171ADDGA1001+999999999GF100991001001999999001001MD1210031+9999REMSYN054AAXX  09151 53192 42980 02706 11242 21298 40417 52003;
0196531920999992000120918004+44010+114940FM-12+112899999V0202701N005012200019N0300001N1-02541-03011104231ADDAA199000091GA1001+999999999GF100991001001999999001001KA1999M-01461MA1999999089611MD1210021+9999REMSYN070AAXX  09181 53192 32980 02705 11254 21301 38961 40423 52002 333 11146;EQDQ01  00002PRCP99
0143531920999992000120921004+44010+114940FM-12+112899999V0202501N001012200019N0300001N1-02641-03111104281ADDAA124000791GA1001+999999999GF100991001001999999001001MD1710081+9999REMSYN064AAXX  09211 53192 42980 02501 11264 21311 40428 57008 333 79999;
0183531920999992000121000004+44010+114940FM-12+112899999V0202901N001012200019N0300001N1-02751-03211104371ADDAA199000091GA1001+999999999GF100991001001999999001001MA1999999089511MD1710021+0061REMSYN070AAXX  10001 53192 32980 02901 11275 21321 38951 40437 57002 333 00661;EQDQ01  00002PRCP99
0122531920999992000121003004+44010+114940FM-12+112899999V0202701N005012200019N0300001N1-02241-02881104281ADDGA1001+999999999GF100991001001999999001001MD1210011+9999REMSYN054AAXX  10031 53192 42980 02705 11224 21288 40428 52001;
0196531920999992000121006004+44010+114940FM-12+112899999V0202701N007012200019N0300001N1-01871-02681104231ADDAA199000091GA1001+999999999GF100991001001999999001001KA1999N-02781MA1999999089551MD1210031+9999REMSYN070AAXX  10061 53192 32980 02707 11187 21268 38955 40423 52003 333 21278;EQDQ01  00002PRCP99
0122531920999992000121009004+44010+114940FM-12+112899999V0202701N003012200019N0300001N1-02201-02811104501ADDGA1001+999999999GF100991001001999999001001MD1210111+9999REMSYN054AAXX  10091 53192 42980 02703 11220 21281 40450 52011;
0173531920999992000121012004+44010+114940FM-12+112899999V0202701N002012200019N0300001N1-02291-02991104691ADDAA199000091GA1001+999999999GF100991001001999999001001MA1999999089771MD1210111+9999REMSYN060AAXX  10121 53192 32980 02702 11229 21299 38977 40469 52011;EQDQ01  00002PRCP99
0112531920999992000121015004+44010+114940FM-12+112899999V0202701N002012200019N0300001N1-02371-03081104691ADDGF102991001001999999001021MD1210121+9999REMSYN060AAXX  10151 53192 42980 22702 11237 21308 40469 52012 80002;
0196531920999992000121018004+44010+114940FM-12+112899999V0202501N003012200019N0300001N1-02411-03031104711ADDAA199000091GA1001+999999999GF100991001001999999001001KA1999M-01831MA1999999089991MD1210101+9999REMSYN070AAXX  10181 53192 32980 02503 11241 21303 38999 40471 52010 333 11183;EQDQ01  00002PRCP99
0122531920999992000121021004+44010+114940FM-12+112899999V0209999C000012200019N0300001N1-02741-03251104981ADDGA1001+999999999GF100991001001999999001001MD1210061+9999REMSYN054AAXX  10211 53192 42980 00000 11274 21325 40498 52006;
0183531920999992000121100004+44010+114940FM-12+112899999V0209999C000012200019N0250001N1-02851-03291105141ADDAA199000091GA1001+999999999GF100991001001999999001001MA1999999090131MD1210081+0061REMSYN070AAXX  11001 53192 32975 00000 11285 21329 39013 40514 52008 333 00651;EQDQ01  00002PRCP99
0122531920999992000121103004+44010+114940FM-12+112899999V0202201N001012200019N0300001N1-02261-02871105051ADDGA1001+999999999GF100991001001999999001001MD1210061+9999REMSYN054AAXX  11031 53192 42980 02201 11226 21287 40505 52006;
0196531920999992000121106004+44010+114940FM-12+112899999V0202701N005012200019N0300001N1-01961-02601104801ADDAA199000091GA1001+999999999GF100991001001999999001001KA1999N-02861MA1999999090051MD1710141+9999REMSYN070AAXX  11061 53192 32980 02705 11196 21260 39005 40480 57014 333 21286;EQDQ01  00002PRCP99
0122531920999992000121109004+44010+114940FM-12+112899999V0202701N001012200019N0300001N1-02101-02661104891ADDGA1001+999999999GF100991001001999999001001MD1710051+9999REMSYN054AAXX  11091 53192 42980 02701 11210 21266 40489 57005;
0173531920999992000121112004+44010+114940FM-12+112899999V0202501N002012200019N0300001N1-02291-02861104871ADDAA199000091GA1001+999999999GF100991001001999999001001MA1999999089901MD1710101+9999REMSYN060AAXX  11121 53192 32980 02502 11229 21286 38990 40487 57010;EQDQ01  00002PRCP99
0122531920999992000121115004+44010+114940FM-12+112899999V0201401N001012200019N0300001N1-02351-02861104541ADDGA1001+999999999GF100991001001999999001001MD1710141+9999REMSYN054AAXX  11151 53192 42980 01401 11235 21286 40454 57014;
0196531920999992000121118004+44010+114940FM-12+112899999V0202501N001012200019N0300001N1-02371-02901104191ADDAA199000091GA1001+999999999GF100991001001999999001001KA1999M-01891MA1999999089531MD1710231+9999REMSYN070AAXX  11181 53192 32980 02501 11237 21290 38953 40419 57023 333 11189;EQDQ01  00002PRCP99
0122531920999992000121121004+44010+114940FM-12+112899999V0209999C000012200019N0300001N1-02441-02931104091ADDGA1001+999999999GF100991001001999999001001MD1710141+9999REMSYN054AAXX  11211 53192 42980 00000 11244 21293 40409 57014;
0183531920999992000121200004+44010+114940FM-12+112899999V0202501N003012200019N0300001N1-02601-03091104091ADDAA199000091GA1001+999999999GF100991001001999999001001MA1999999089301MD1710091+0081REMSYN070AAXX  12001 53192 32980 02503 11260 21309 38930 40409 57009 333 05803;EQDQ01  00002PRCP99
0122531920999992000121203004+44010+114940FM-12+112899999V0202501N004012200019N0300001N1-02081-02791103861ADDGA1001+999999999GF100991001001999999001001MD1710081+9999REMSYN054AAXX  12031 53192 42980 02504 11208 21279 40386 57008;
0196531920999992000121206004+44010+114940FM-12+112899999V0202501N005012200019N0300001N1-01501-02311103461ADDAA199000091GA1001+999999999GF100991001001999999001001KA1999N-02671MA1999999089031MD1710191+9999REMSYN070AAXX  12061 53192 32980 02505 11150 21231 38903 40346 57019 333 21267;EQDQ01  00002PRCP99
0122531920999992000121209004+44010+114940FM-12+112899999V0201601N001012200019N0300001N1-01611-02291103381ADDGA1001+999999999GF100991001001999999001001MD1710121+9999REMSYN054AAXX  12091 53192 42980 01601 11161 21229 40338 57012;
0173531920999992000121212004+44010+114940FM-12+112899999V0201101N001012200019N0250001N1-01871-02501103401ADDAA199000091GA1001+999999999GF100991001001999999001001MA1999999088821MD1710091+9999REMSYN060AAXX  12121 53192 32975 01101 11187 21250 38882 40340 57009;EQDQ01  00002PRCP99
0122531920999992000121215004+44010+114940FM-12+112899999V0200401N001012200019N0300001N1-02171-02731103141ADDGA1001+999999999GF100991001001999999001001MD1710171+9999REMSYN054AAXX  12151 53192 42980 00401 11217 21273 40314 57017;
0186531920999992000121218004+44010+114940FM-12+112899999V0200201N002012200019N0300001N1-02301-02821102851ADDAA199000091GF102991001001999999001021KA1999M-01341MA1999999088521MD1710131+9999REMSYN076AAXX  12181 53192 32980 20202 11230 21282 38852 40285 57013 80002 333 11134;EQDQ01  00002PRCP99
0122531920999992000121221004+44010+114940FM-12+112899999V0209999C000012200019N0300001N1-02611-03051102951ADDGA1001+999999999GF100991001001999999001001MD1710021+9999REMSYN054AAXX  12211 53192 42980 00000 11261 21305 40295 57002;
0183531920999992000121300004+44010+114940FM-12+112899999V0209999C000012200019N0250001N1-02521-02981103181ADDAA199000091GA1001+999999999GF100991001001999999001001MA1999999088651MD1210151+0071REMSYN070AAXX  13001 53192 32975 00000 11252 21298 38865 40318 52015 333 05701;EQDQ01  00002PRCP99
0122531920999992000121303004+44010+114940FM-12+112899999V0209999C000012200019N0300001N1-01761-02471103161ADDGA1001+999999999GF100991001001999999001001MD1210101+9999REMSYN054AAXX  13031 53192 42980 00000 11176 21247 40316 52010;
0186531920999992000121306004+44010+114940FM-12+112899999V0202701N004012200019N0300001N1-01531-02241103171ADDAA199000091GF101991001001999999001021KA1999N-02631MA1999999088791MD1210041+9999REMSYN076AAXX  13061 53192 32980 12704 11153 21224 38879 40317 52004 80002 333 21263;EQDQ01  00002PRCP99
0112531920999992000121309004+44010+114940FM-12+112899999V0209999C000012200019N0300001N1-01941-02511103561ADDGF102991001001999999001021MD1210141+9999REMSYN060AAXX  13091 53192 42980 20000 11194 21251 40356 52014 80002;
0163531920999992000121312004+44010+114940FM-12+112899999V0209999C000012200019N0300001N1-02201-02691103631ADDAA199000091GF102991001001999999001021MA1999999088951MD1210021+9999REMSYN066AAXX  13121 53192 32980 20000 11220 21269 38895 40363 52002 80002;EQDQ01  00002PRCP99
0112531920999992000121315004+44010+114940FM-12+112899999V0209999C000019999999N0300001N1-02381-02831103381ADDGF106991001001999999001021MD1710061+9999REMSYN060AAXX  13151 53192 42980 60000 11238 21283 40338 57006 80002;
0186531920999992000121318004+44010+114940FM-12+112899999V0209999C000019999999N0300001N1-02371-02801103151ADDAA199000091GF106991001001999999001021KA1999M-01461MA1999999088751MD1710141+9999REMSYN076AAXX  13181 53192 32980 60000 11237 21280 38875 40315 57014 80002 333 11146;EQDQ01  00002PRCP99
0112531920999992000121321004+44010+114940FM-12+112899999V0209999C000012200019N0300001N1-02561-03001103071ADDGF101991001001999999001021MD1710221+9999REMSYN060AAXX  13211 53192 42980 10000 11256 21300 40307 57022 80002;
0173531920999992000121400004+44010+114940FM-12+112899999V0209999C000012200019N0250001N1-02611-03031103011ADDAA199000091GF103991001001999999001021MA1999999088391MD1710141+0031REMSYN076AAXX  14001 53192 32975 30000 11261 21303 38839 40301 57014 80002 333 05351;EQDQ01  00002PRCP99
0112531920999992000121403004+44010+114940FM-12+112899999V0202701N001012200019N0300001N1-01661-02301102551ADDGF102991001001999999001021MD1710191+9999REMSYN060AAXX  14031 53192 42980 22701 11166 21230 40255 57019 80002;
0186531920999992000121406004+44010+114940FM-12+112899999V0202501N005019999999N0300001N1-01001-01601102001ADDAA199000091GF107991001001999999001021KA1999N-02661MA1999999087901MD1710301+9999REMSYN076AAXX  14061 53192 32980 72505 11100 21160 38790 40200 57030 80002 333 21266;EQDQ01  00002PRCP99
0112531920999992000121409004+44010+114940FM-12+112899999V0202501N007019999999N0300001N1-01071-01591102091ADDGF107991001001999999001021MD1210011+9999REMSYN060AAXX  14091 53192 42980 72507 11107 21159 40209 52001 80002;
0163531920999992000121412004+44010+114940FM-12+112899999V0202701N006012200019N0300001N1-01451-01941102461ADDAA199000091GF104991001001999999001021MA1999999088121MD1210211+9999REMSYN066AAXX  14121 53192 32980 42706 11145 21194 38812 40246 52021 80002;EQDQ01  00002PRCP99
0112531920999992000121415004+44010+114940FM-12+112899999V0202001N002012200019N0300001N1-01851-02351102591ADDGF101991001001999999001021MD1210251+9999REMSYN060AAXX  14151 53192 42980 12002 11185 21235 40259 52025 80002;
0196531920999992000121418004+44010+114940FM-12+112899999V0202701N003012200019N0300001N1-01961-02461102681ADDAA199000091GA1001+999999999GF100991001001999999001001KA1999M-00901MA1999999088591MD1210221+9999REMSYN070AAXX  14181 53192 32980 02703 11196 21246 38859 40268 52022 333 11090;EQDQ01  00002PRCP99
0122531920999992000121421004+44010+114940FM-12+112899999V0202501N002012200019N0300001N1-02221-02691103061ADDGA1001+999999999GF100991001001999999001001MD1210241+9999REMSYN054AAXX  14211 53192 42980 02502 11222 21269 40306 52024;
0183531920999992000121500004+44010+114940FM-12+112899999V0202501N003012200019N0250001N1-02211-02731103391ADDAA199000091GA1001+999999999GF100991001001999999001001MA1999999089021MD1210191+0061REMSYN070AAXX  15001 53192 32975 02503 11221 21273 38902 40339 52019 333 00604;EQDQ01  00002PRCP99
0122531920999992000121503004+44010+114940FM-12+112899999V0202501N005012200019N0300001N1-01951-02571103631ADDGA1001+999999999GF100991001001999999001001MD1210171+9999REMSYN054AAXX  15031 53192 42980 02505 11195 21257 40363 52017;
0196531920999992000121506004+44010+114940FM-12+112899999V0202501N005012200019N0300001N1-01501-02271103551ADDAA199000091GA1001+999999999GF100991001001999999001001KA1999N-02341MA1999999089211MD1210021+9999REMSYN070AAXX  15061 53192 32980 02505 11150 21227 38921 40355 52002 333 21234;EQDQ01  00002PRCP99
0122531920999992000121509004+44010+114940FM-12+112899999V0202701N002012200019N0300001N1-01821-02491103891ADDGA1001+999999999GF100991001001999999001001MD1210141+9999REMSYN054AAXX  15091 53192 42980 02702 11182 21249 40389 52014;
0173531920999992000121512004+44010+114940FM-12+112899999V0209999C000012200019N0300001N1-02031-02611104011ADDAA199000091GA1001+999999999GF100991001001999999001001MA1999999089401MD1210051+9999REMSYN060AAXX  15121 53192 32980 00000 11203 21261 38940 40401 52005;EQDQ01  00002PRCP99
0122531920999992000121515004+44010+114940FM-12+112899999V0209999C000012200019N0300001N1-02291-02791103911ADDGA1001+999999999GF100991001001999999001001MD1710081+9999REMSYN054AAXX  15151 53192 42980 00000 11229 21279 40391 57008;
0186531920999992000121518004+44010+114940FM-12+112899999V0209999C000012200019N0300001N1-02421-02901103771ADDAA199000091GF101991001001999999001021KA1999M-01461MA1999999089281MD1710041+9999REMSYN076AAXX  15181 53192 32980 10000 11242 21290 38928 40377 57004 80002 333 11146;EQDQ01  00002PRCP99
0112531920999992000121521004+44010+114940FM-12+112899999V0209999C000012200019N0300001N1-02481-02941103631ADDGF103991001001999999001021MD1710221+9999REMSYN060AAXX  15211 53192 42980 30000 11248 21294 40363 57022 80002;
0173531920999992000121600004+44010+114940FM-12+112899999V0200701N001019999999N0250001N1-02361-02791103581ADDAA199000091GF107991021001999999031021MA1999999088991MD1710071+0001REMSYN076AAXX  16001 53192 32975 70701 11236 21279 38899 40358 57007 82032 333 00052;EQDQ01  00002PRCP99
0112531920999992000121603004+44010+114940FM-12+112899999V0209999C000010360019N0300001N1-01721-02261103341ADDGF106991021051012501031021MD1710101+9999REMSYN060AAXX  16031 53192 42680 60000 11172 21226 40334 57010 82532;
0186531920999992000121606004+44010+114940FM-12+112899999V0202501N006012200019N0300001N1-00951-01791102921ADDAA199000091GF101991001001999999001021KA1999N-02711MA1999999088691MD1710201+9999REMSYN076AAXX  16061 53192 32980 12506 11095 21179 38869 40292 57020 80002 333 21271;EQDQ01  00002PRCP99
0122531920999992000121609004+44010+114940FM-12+112899999V0202701N004012200019N0300001N1-01391-02061103321ADDGA1001+999999999GF100991001001999999001001MD1210221+9999REMSYN054AAXX  16091 53192 42980 02704 11139 21206 40332 52022;
0173531920999992000121612004+44010+114940FM-12+112899999V0202701N003012200019N0300001N1-01871-02361103571ADDAA199000091GA1001+999999999GF100991001001999999001001MA1999999089031MD1210121+9999REMSYN060AAXX  16121 53192 32980 02703 11187 21236 38903 40357 52012;EQDQ01  00002PRCP99
0122531920999992000121615004+44010+114940FM-12+112899999V0209999C000012200019N0300001N1-01981-02431103351ADDGA1001+999999999GF100991001001999999001001MD1710051+9999REMSYN054AAXX  16151 53192 42980 00000 11198 21243 40335 57005;
0196531920999992000121618004+44010+114940FM-12+112899999V0202501N002012200019N0300001N1-02221-02611103181ADDAA199000091GA1001+999999999GF100991001001999999001001KA1999M-00911MA1999999088971MD1710011+9999REMSYN070AAXX  16181 53192 32980 02502 11222 21261 38897 40318 57001 333 11091;EQDQ01  00002PRCP99
0122531920999992000121621004+44010+114940FM-12+112899999V0200201N001012200019N0300001N1-02191-02601103201ADDGA1001+999999999GF100991001001999999001001MD1710091+9999REMSYN054AAXX  16211 53192 42980 00201 11219 21260 40320 57009;
0173531920999992000121700004+44010+114940FM-12+112899999V0200701N002019999999N0200001N1-02071-02501103241ADDAA199000091GF106991021001999999031021MA1999999088821MD1710061+0021REMSYN076AAXX  17001 53192 32970 60702 11207 21250 38882 40324 57006 82032 333 05203;EQDQ01  00002PRCP99
0112531920999992000121703004+44010+114940FM-12+112899999V0200201N002019999999N0250001N1-01361-01961102891ADDGF107991001001999999001021MD1710151+9999REMSYN060AAXX  17031 53192 42975 70202 11136 21196 40289 57015 80002;
0193531920999992000121706004+44010+114940FM-12+112899999V0200901N001010360019N0250001N1-00781-01701102381ADDAA106000791AY171061GF107991041051012501031021KA1999N-02351MA1999999088321MD1710351+9999MW1701REMSYN088AAXX  17061 53192 11675 70901 11078 21170 38832 40238 57035 69901 77070 84532 333 21235;
0140531920999992000121709004+44010+114940FM-12+112899999V0200701N002019999999N0200001N1-00781-01181102251ADDAY171031AY271031GF108991081001999999021999MD1710111+9999MW1221REMSYN066AAXX  17091 53192 41970 80702 11078 21118 40225 57011 72277 8802/;
0170531920999992000121712004+44010+114940FM-12+112899999V0209999C000019999999N0250001N1-00851-01231102111ADDAA106000591AY171061GF108991081001999999021999MA1999999088111MD1710101+9999MW1701REMSYN078AAXX  17121 53192 11975 80000 11085 21123 38811 40211 57010 69951 77070 8802/;
0140531920999992000121715004+44010+114940FM-12+112899999V0202501N004019999999N0250001N1-00911-01201101951ADDAY171031AY271031GF108991081001999999021999MD1210021+9999MW1701REMSYN066AAXX  17151 53192 41975 82504 11091 21120 40195 52002 77077 8802/;
0193531920999992000121718004+44010+114940FM-12+112899999V0202501N003019999999N0250001N1-01061-01431101981ADDAA106000391AY171061GF106991051001999999011021KA1999M-00721MA1999999088261MD1210131+9999MW1001REMSYN088AAXX  17181 53192 11975 62503 11106 21143 38826 40198 52013 69931 70070 85012 333 11072;
0153531920999992000121721004+44010+114940FM-12+112899999V0209999C000019999999N0300001N1-01231-01631102301ADDAA124000891AY171031GF107991001001999999001071MD1210231+9999MW1701REMSYN076AAXX  17211 53192 41980 70000 11123 21163 40230 52023 77070 80007 333 70008;
0192531920999992000121800004+44010+114940FM-12+112899999V0209999C000019999999N0280001N1-01481-01841102761ADDAA106000791AY171061GF107991031001999999031021MA1999999088811MD1210321+0001MW1001REMSYN100AAXX  18001 53192 11978 70000 11148 21184 38881 40276 52032 69901 70070 83032 333 00006 70008 92505;
0132531920999992000121803004+44010+114940FM-12+112899999V0202001N002012200019N0300001N1-01361-01881103111ADDAY171031GF103991001001999999001021MD1210321+9999MW1001REMSYN066AAXX  18031 53192 41980 32002 11136 21188 40311 52032 70070 80002;
0122531920999992000121809004+44010+114940FM-12+112899999V0202501N002012200019N0300001N1-01841-02411103771ADDGA1001+999999999GF100991001001999999001001MD1210271+9999REMSYN054AAXX  18091 53192 42980 02502 11184 21241 40377 52027;
0173531920999992000121812004+44010+114940FM-12+112899999V0209999C000012200019N0300001N1-02181-02601104171ADDAA199000091GA1001+999999999GF100991001001999999001001MA1999999089691MD1210191+9999REMSYN060AAXX  18121 53192 32980 00000 11218 21260 38969 40417 52019;EQDQ01  00002PRCP99
0122531920999992000121815004+44010+114940FM-12+112899999V0209999C000012200019N0300001N1-02341-02711104211ADDGA1001+999999999GF100991001001999999001001MD1210031+9999REMSYN054AAXX  18151 53192 42980 00000 11234 21271 40421 52003;
0196531920999992000121818004+44010+114940FM-12+112899999V0209999C000012200019N0300001N1-02621-03001104321ADDAA199000091GA1001+999999999GF100991001001999999001001KA1999M-01061MA1999999089701MD1710021+9999REMSYN070AAXX  18181 53192 32980 00000 11262 21300 38970 40432 57002 333 11106;EQDQ01  00002PRCP99
0143531920999992000121821004+44010+114940FM-12+112899999V0209999C000012200019N0300001N1-02631-03021104321ADDAA124000191GA1001+999999999GF100991001001999999001001MD1710091+9999REMSYN064AAXX  18211 53192 42980 00000 11263 21302 40432 57009 333 70001;
0160531920999992000121900004+44010+114940FM-12+112899999V0209999C000019999999N0150001N1-02261-02671104091ADDAA124000191GF105991021001999999031021MA1999999089421MD1710191+0601REMSYN082AAXX  19001 53192 32965 50000 11226 21267 38942 40409 57019 82032 333 00658 70001;
0112531920999992000121903004+44010+114940FM-12+112899999V0202001N002019999999N0250001N1-01441-02001103661ADDGF107991031001999999031021MD1710201+9999REMSYN060AAXX  19031 53192 42975 72002 11144 21200 40366 57020 83032;
0186531920999992000121906004+44010+114940FM-12+112899999V0202501N004019999999N0300001N1-01041-01601103211ADDAA199000091GF108991081001999999011999KA1999N-02671MA1999999088871MD1710351+9999REMSYN076AAXX  19061 53192 32980 82504 11104 21160 38887 40321 57035 8801/ 333 21267;EQDQ01  00002PRCP99
0132531920999992000121909004+44010+114940FM-12+112899999V0202501N005019999999N0200001N1-00911-01251103091ADDAY171031GF108991081001999999021999MD1710081+9999MW1701REMSYN066AAXX  19091 53192 41970 82505 11091 21125 40309 57008 77070 8802/;
0170531920999992000121912004+44010+114940FM-12+112899999V0202201N007012200019N0300001N1-01091-01521103201ADDAA106000391AY171061GF102991001001999999001021MA1999999088941MD1210151+9999MW1001REMSYN078AAXX  19121 53192 11980 22207 11109 21152 38894 40320 52015 69931 70070 80002;
0112531920999992000121915004+44010+114940FM-12+112899999V0202501N004012200019N0300001N1-01601-02011103311ADDGF101991001001999999001021MD1210171+9999REMSYN060AAXX  19151 53192 42980 12504 11160 21201 40331 52017 80002;
0177531920999992000121918004+44010+114940FM-12+112899999V0202901N002012200019N0300001N1-01691-02071103301ADDAA199000021GA1001+999999999GF100991001001999999001001KA1999M-00861MA1999999089181MD1210071+9999REMSYN070AAXX  19181 53192 32980 02902 11169 21207 38918 40330 52007 333 11086;
0133531920999992000121921004+44010+114940FM-12+112899999V0202701N003012200019N0300001N1-02061-02441103291ADDAA124000391GF102991001001999999001021MD1710071+9999REMSYN070AAXX  19211 53192 42980 22703 11206 21244 40329 57007 80002 333 70003;
0186531920999992000122000004+44010+114940FM-12+112899999V0202701N001010120019N0300001N1-02001-02391103251ADDAA106000791AY171061GF107991061051012501001021MA1999999089051MD1710061-0401MW1221REMSYN094AAXX  20001 53192 11680 72701 11200 21239 38905 40325 57006 69901 72270 86502 333 05403 70003;
0132531920999992000122003004+44010+114940FM-12+112899999V0202501N002012200019N0300001N1-01761-02111103351ADDAY171031GF101991001001999999001021MD1210011+9999MW1001REMSYN066AAXX  20031 53192 41980 12502 11176 21211 40335 52001 70070 80002;
0193531920999992000122006004+44010+114940FM-12+112899999V0202701N006012200019N0300001N1-01321-01881103111ADDAA106000791AY171061GF103991001001999999001021KA1999N-02201MA1999999088951MD1710111+9999MW1001REMSYN088AAXX  20061 53192 11980 32706 11132 21188 38895 40311 57011 69901 70070 80002 333 21220;
0122531920999992000122009004+44010+114940FM-12+112899999V0202501N003012200019N0300001N1-01421-02031103291ADDGA1001+999999999GF100991001001999999001001MD1210031+9999REMSYN054AAXX  20091 53192 42980 02503 11142 21203 40329 52003;
0154531920999992000122012004+44010+114940FM-12+112899999V0209999C000012200019N0250001N1-01871-02261103391ADDAA199000021GA1001+999999999GF100991001001999999001001MA1999999088971MD1710011+9999REMSYN060AAXX  20121 53192 32975 00000 11187 21226 38897 40339 57001;
0122531920999992000122015004+44010+114940FM-12+112899999V0209999C000012200019N0300001N1-02051-02421103191ADDGA1001+999999999GF100991001001999999001001MD1710161+9999REMSYN054AAXX  20151 53192 42980 00000 11205 21242 40319 57016;
0196531920999992000122018004+44010+114940FM-12+112899999V0209999C000012200019N0300001N1-01991-02361102791ADDAA199000091GA1001+999999999GF100991001001999999001001KA1999M-01281MA1999999088951MD1710221+9999REMSYN070AAXX  20181 53192 32980 00000 11199 21236 38895 40279 57022 333 11128;EQDQ01  00002PRCP99
0133531920999992000122021004+44010+114940FM-12+112899999V0209999C000019999999N0300001N1-02051-02431102531ADDAA124000791GF106991001001999999001021MD1710261+9999REMSYN070AAXX  20211 53192 42980 60000 11205 21243 40253 57026 80002 333 79999;
0160531920999992000122100004+44010+114940FM-12+112899999V0209999C000019999999N0170001N1-01521-01891102401ADDAA124000791GF107991041001999999031021MA1999999088241MD1710091-0801REMSYN082AAXX  21001 53192 32967 70000 11152 21189 38824 40240 57009 84032 333 05805 79999;
0132531920999992000122103004+44010+114940FM-12+112899999V0209999C000019999999N0250001N1-01381-01741102381ADDAY171031GF107991031001999999031021MD1710031+9999MW1001REMSYN066AAXX  21031 53192 41975 70000 11138 21174 40238 57003 70070 83032;
0193531920999992000122106004+44010+114940FM-12+112899999V0209999C000019999999N0300001N1-01041-01531102011ADDAA106000791AY171061GF107991041001999999031021KA1999N-02201MA1999999087991MD1710221+9999MW1001REMSYN088AAXX  21061 53192 11980 70000 11104 21153 38799 40201 57022 69901 70070 84032 333 21220;
0112531920999992000122109004+44010+114940FM-12+112899999V0209999C000012200019N0250001N1-01301-01681102191ADDGF103991011001999999031021MD1210081+9999REMSYN060AAXX  21091 53192 42975 30000 11130 21168 40219 52008 81032;
0173531920999992000122112004+44010+114940FM-12+112899999V0202701N005012200019N0300001N1-01251-01691102151ADDAA199000091GA1001+999999999GF100991001001999999001001MA1999999088181MD1210111+9999REMSYN060AAXX  21121 53192 32980 02705 11125 21169 38818 40215 52011;EQDQ01  00002PRCP99
0132531920999992000122115004+44010+114940FM-12+112899999V0209999C000019999999N0250001N1-01461-01851102321ADDAY171031GF108991081001999999021999MD1210131+9999MW1701REMSYN066AAXX  21151 53192 41975 80000 11146 21185 40232 52013 77070 8802/;
0193531920999992000122118004+44010+114940FM-12+112899999V0203201N003012200019N0300001N1-01511-01911102431ADDAA106000191AY171061GF103991011001999999031021KA1999M-00921MA1999999088471MD1210161+9999MW1221REMSYN088AAXX  21181 53192 11980 33203 11151 21191 38847 40243 52016 69911 72270 81032 333 11092;
0143531920999992000122121004+44010+114940FM-12+112899999V0209999C000012200019N0300001N1-01911-02301102801ADDAA124000191GA1001+999999999GF100991001001999999001001MD1210161+9999REMSYN064AAXX  21211 53192 42980 00000 11191 21230 40280 52016 333 70001;
0160531920999992000122200004+44010+114940FM-12+112899999V0209999C000012200019N0200001N1-02281-02661103091ADDAA124000191GF102991001001999999001021MA1999999088801MD1210171+0601REMSYN082AAXX  22001 53192 32970 20000 11228 21266 38880 40309 52017 80002 333 00658 70001;
0112531920999992000122203004+44010+114940FM-12+112899999V0201401N001012200019N0300001N1-01881-02371103101ADDGF102991001001999999001021MD1210051+9999REMSYN060AAXX  22031 53192 42980 21401 11188 21237 40310 52005 80002;
0167531920999992000122206004+44010+114940FM-12+112899999V0202501N002019999999N0300001N1-01871-02321102981ADDAA199000021GF106991001001999999001021KA1999N-02361MA1999999088741MD1710111+9999REMSYN076AAXX  22061 53192 32980 62502 11187 21232 38874 40298 57011 80002 333 21236;
0112531920999992000122209004+44010+114940FM-12+112899999V0201601N001019999999N0300001N1-01891-02311103081ADDGF106991001001999999001021MD1710021+9999REMSYN060AAXX  22091 53192 42980 61601 11189 21231 40308 57002 80002;
0163531920999992000122212004+44010+114940FM-12+112899999V0200701N001019999999N0250001N1-01881-02271103041ADDAA199000091GF107991001001999999001021MA1999999088591MD1710131+9999REMSYN066AAXX  22121 53192 32975 70701 11188 21227 38859 40304 57013 80002;EQDQ01  00002PRCP99
0132531920999992000122215004+44010+114940FM-12+112899999V0209999C000019999999N0250001N1-01861-02251102771ADDAY171031GF108991081001999999011999MD1710121+9999MW1701REMSYN066AAXX  22151 53192 41975 80000 11186 21225 40277 57012 77070 8801/;
0193531920999992000122218004+44010+114940FM-12+112899999V0209999C000019999999N0250001N1-01681-02061102601ADDAA106000391AY171061GF108991081001999999021999KA1999M-01481MA1999999088371MD1710101+9999MW1701REMSYN088AAXX  22181 53192 11975 80000 11168 21206 38837 40260 57010 69931 77070 8802/ 333 11148;
0153531920999992000122221004+44010+114940FM-12+112899999V0202701N005012200019N0250001N1-02251-02661102881ADDAA124000391AY171031GF102991001001999999001021MD1210091+9999MW1001REMSYN076AAXX  22211 53192 41975 22705 11225 21266 40288 52009 70070 80002 333 70003;
0186531920999992000122300004+44010+114940FM-12+112899999V0202901N003012200019N0250001N1-02321-02761103131ADDAA106000791AY171061GF104991011001999999031021MA1999999088661MD1210201-0101MW1001REMSYN094AAXX  23001 53192 11975 42903 11232 21276 38866 40313 52020 69901 70070 81032 333 05100 70003;
0122531920999992000122303004+44010+114940FM-12+112899999V0202701N002012200019N0300001N1-02151-02621103251ADDGA1001+999999999GF100991001001999999001001MD1210151+9999REMSYN054AAXX  23031 53192 42980 02702 11215 21262 40325 52015;
0177531920999992000122306004+44010+114940FM-12+112899999V0202701N003012200019N0300001N1-02171-02661103061ADDAA199000021GA1001+999999999GF100991001001999999001001KA1999N-02451MA1999999088691MD1710121+9999REMSYN070AAXX  23061 53192 32980 02703 11217 21266 38869 40306 57012 333 21245;
0112531920999992000122309004+44010+114940FM-12+112899999V0209999C000012200019N0250001N1-02261-02701103291ADDGF102991001001999999001021MD1210021+9999REMSYN060AAXX  23091 53192 42975 20000 11226 21270 40329 52002 80002;
0173531920999992000122312004+44010+114940FM-12+112899999V0209999C000012200019N0300001N1-02531-02931103351ADDAA199000091GA1001+999999999GF100991001001999999001001MA1999999088671MD1710041+9999REMSYN060AAXX  23121 53192 32980 00000 11253 21293 38867 40335 57004;EQDQ01  00002PRCP99
0122531920999992000122315004+44010+114940FM-12+112899999V0209999C000012200019N0300001N1-02431-02821103231ADDGA1001+999999999GF100991001001999999001001MD1710031+9999REMSYN054AAXX  23151 53192 42980 00000 11243 21282 40323 57003;
0196531920999992000122318004+44010+114940FM-12+112899999V0209999C000012200019N0300001N1-02511-02911103211ADDAA199000091GA1001+999999999GF100991001001999999001001KA1999M-01571MA1999999088601MD1710041+9999REMSYN070AAXX  23181 53192 32980 00000 11251 21291 38860 40321 57004 333 11157;EQDQ01  00002PRCP99
0112531920999992000122321004+44010+114940FM-12+112899999V0200401N002012200019N0300001N1-02551-02981103251ADDGF102991001001999999001021MD1410001+9999REMSYN060AAXX  23211 53192 42980 20402 11255 21298 40325 54000 80002;
0173531920999992000122400004+44010+114940FM-12+112899999V0209999C000010120019N0250001N1-02671-03091103561ADDAA199000091GF107991061051012501001021MA1999999088761MD1210161+0011REMSYN076AAXX  24001 53192 32675 70000 11267 21309 38876 40356 52016 86502 333 00154;EQDQ01  00002PRCP99
0112531920999992000122403004+44010+114940FM-12+112899999V0209999C000019999999N0300001N1-02261-02731103461ADDGF107991011001999999031021MD1210051+9999REMSYN060AAXX  24031 53192 42980 70000 11226 21273 40346 52005 81032;
0186531920999992000122406004+44010+114940FM-12+112899999V0202501N003012200019N0300001N1-02071-02701103381ADDAA199000091GF101991001001999999001021KA1999N-02771MA1999999088771MD1710041+9999REMSYN076AAXX  24061 53192 32980 12503 11207 21270 38877 40338 57004 80002 333 21277;EQDQ01  00002PRCP99
0122531920999992000122409004+44010+114940FM-12+112899999V0202701N004012200019N0300001N1-02401-02911103691ADDGA1001+999999999GF100991001001999999001001MD1210171+9999REMSYN054AAXX  24091 53192 42980 02704 11240 21291 40369 52017;
0173531920999992000122412004+44010+114940FM-12+112899999V0202501N003012200019N0300001N1-02641-03111103971ADDAA199000091GA1001+999999999GF100991001001999999001001MA1999999089081MD1210141+9999REMSYN060AAXX  24121 53192 32980 02503 11264 21311 38908 40397 52014;EQDQ01  00002PRCP99
0122531920999992000122415004+44010+114940FM-12+112899999V0202901N002012200019N0300001N1-02691-03131103911ADDGA1001+999999999GF100991001001999999001001MD1210051+9999REMSYN054AAXX  24151 53192 42980 02902 11269 21313 40391 52005;
0196531920999992000122418004+44010+114940FM-12+112899999V0209999C000012200019N0300001N1-02701-03141104011ADDAA199000091GA1001+999999999GF100991001001999999001001KA1999M-01971MA1999999089261MD1210131+9999REMSYN070AAXX  24181 53192 32980 00000 11270 21314 38926 40401 52013 333 11197;EQDQ01  00002PRCP99
0122531920999992000122421004+44010+114940FM-12+112899999V0202201N001012200019N0300001N1-02911-03321104351ADDGA1001+999999999GF100991001001999999001001MD1210141+9999REMSYN054AAXX  24211 53192 42980 02201 11291 21332 40435 52014;
0173531920999992000122500004+44010+114940FM-12+112899999V0202201N001012200019N0200001N1-03011-03431104601ADDAA199000091GF101991001001999999001021MA1999999089521MD1210121+0081REMSYN076AAXX  25001 53192 32970 12201 11301 21343 38952 40460 52012 80002 333 00853;EQDQ01  00002PRCP99
0134531920999992000122503004+44010+114940FM-12+112899999V0209999C000012200019N0300001N1-02521-02981104551ADDGA1001+999999999GF100991001001999999001001MD1210081+9999MW1761REMSYN060AAXX  25031 53192 41980 00000 11252 21298 40455 52008 77600;
0177531920999992000122506004+44010+114940FM-12+112899999V0202701N002012200019N0300001N1-02201-02701104381ADDAA199000021GA1001+999999999GF100991001001999999001001KA1999N-03021MA1999999089541MD1710061+9999REMSYN070AAXX  25061 53192 32980 02702 11220 21270 38954 40438 57006 333 21302;
0112531920999992000122509004+44010+114940FM-12+112899999V0202501N001012200019N0250001N1-02361-02821104571ADDGF101991001001999999001021MD1210061+9999REMSYN060AAXX  25091 53192 42975 12501 11236 21282 40457 52006 80002;
0154531920999992000122512004+44010+114940FM-12+112899999V0209999C000012200019N0300001N1-02641-03051104651ADDAA199000021GA1001+999999999GF100991001001999999001001MA1999999089571MD1710031+9999REMSYN060AAXX  25121 53192 32980 00000 11264 21305 38957 40465 57003;
0122531920999992000122515004+44010+114940FM-12+112899999V0209999C000012200019N0300001N1-02881-03291104501ADDGA1001+999999999GF100991001001999999001001MD1710061+9999REMSYN054AAXX  25151 53192 42980 00000 11288 21329 40450 57006;
0189531920999992000122518004+44010+114940FM-12+112899999V0200901N001012200019N0300001N1-02581-02991104201ADDAA199000021GA1001+999999999GF100991001001999999001001KA1999M-02151MA1999999089421MD1710091+9999MW1761REMSYN076AAXX  25181 53192 31980 00901 11258 21299 38942 40420 57009 77600 333 11215;
0122531920999992000122521004+44010+114940FM-12+112899999V0200401N003012200019N0300001N1-02211-02601103961ADDGA1001+999999999GF100991001001999999001001MD1710151+9999REMSYN054AAXX  25211 53192 42980 00403 11221 21260 40396 57015;
0154531920999992000122600004+44010+114940FM-12+112899999V0200201N003019999999N0250001N1-01841-02221103691ADDAA199000021GF108991081001999999011999MA1999999089061MD1710211+0051REMSYN076AAXX  26001 53192 32975 80203 11184 21222 38906 40369 57021 8801/ 333 05512;
0132531920999992000122603004+44010+114940FM-12+112899999V0200701N005019999999N0200001N1-01541-01971103501ADDAY171031GF108991081001999999021999MD1710141+9999MW1701REMSYN066AAXX  26031 53192 41970 80705 11154 21197 40350 57014 77070 8802/;
0193531920999992000122606004+44010+114940FM-12+112899999V0200701N005019999999N0250001N1-01501-01951103171ADDAA106001091AY171061GF108991081001999999011999KA1999N-02931MA1999999088721MD1710201+9999MW1701REMSYN088AAXX  26061 53192 11975 80705 11150 21195 38872 40317 57020 60011 77070 8801/ 333 21293;
0132531920999992000122609004+44010+114940FM-12+112899999V0200201N004019999999N0250001N1-01571-02021103311ADDAY171031GF108991001001999999001071MD1210201+9999MW1701REMSYN066AAXX  26091 53192 41975 80204 11157 21202 40331 52020 77070 80007;
0170531920999992000122612004+44010+114940FM-12+112899999V0200201N004012200019N0300001N1-01981-02441103651ADDAA106000191AY171061GF103991001001999999001021MA1999999089201MD1210281+9999MW1001REMSYN078AAXX  26121 53192 11980 30204 11198 21244 38920 40365 52028 69911 70070 80002;
0132531920999992000122615004+44010+114940FM-12+112899999V0200201N001019999999N0300001N1-02011-02461103831ADDAY171031GF105991001001999999001021MD1210231+9999MW1701REMSYN066AAXX  26151 53192 41980 50201 11201 21246 40383 52023 77070 80002;
0193531920999992000122618004+44010+114940FM-12+112899999V0202901N001012200019N0300001N1-02331-02731104131ADDAA106000791AY171061GF101991001001999999001021KA1999M-01391MA1999999089611MD1210181+9999MW1001REMSYN088AAXX  26181 53192 11980 12901 11233 21273 38961 40413 52018 69901 70070 80002 333 11139;
0133531920999992000122621004+44010+114940FM-12+112899999V0209999C000019999999N0300001N1-02291-02701104231ADDAA124001391GF107991021001999999031021MD1210081+9999REMSYN070AAXX  26211 53192 42980 70000 11229 21270 40423 52008 82032 333 70013;
0166531920999992000122700004+44010+114940FM-12+112899999V0209999C000019999999N0250001N1-02481-02881104561ADDAA124001391GF105991011001999999031021MA1999999089821MD1210131+0801REMSYN088AAXX  27001 53192 32975 50000 11248 21288 38982 40456 52013 81032 333 00856 70013 92510;
0112531920999992000122703004+44010+114940FM-12+112899999V0202701N001012200019N0300001N1-02441-02841104711ADDGF104991011001999999031021MD1210131+9999REMSYN060AAXX  27031 53192 42980 42701 11244 21284 40471 52013 81032;
0196531920999992000122706004+44010+114940FM-12+112899999V0202501N003012200019N0300001N1-02221-02741104621ADDAA199000091GA1001+999999999GF100991001001999999001001KA1999N-02671MA1999999089841MD1710111+9999REMSYN070AAXX  27061 53192 32980 02503 11222 21274 38984 40462 57011 333 21267;EQDQ01  00002PRCP99
0122531920999992000122709004+44010+114940FM-12+112899999V0209999C000012200019N0300001N1-02521-02981104671ADDGA1001+999999999GF100991001001999999001001MD1710021+9999REMSYN054AAXX  27091 53192 42980 00000 11252 21298 40467 57002;
0170531920999992000122712004+44010+114940FM-12+112899999V0209999C000010120019N0250001N1-02331-02731104691ADDAA106000791AY171061GF107991061051012501001021MA1999999089831MD1210011+9999MW1221REMSYN078AAXX  27121 53192 11675 70000 11233 21273 38983 40469 52001 69901 72270 86502;
0112531920999992000122715004+44010+114940FM-12+112899999V0202701N001019999999N0300001N1-02071-02451104501ADDGF106991021001999999031021MD1710081+9999REMSYN060AAXX  27151 53192 42980 62701 11207 21245 40450 57008 82032;
0193531920999992000122718004+44010+114940FM-12+112899999V0209999C000019999999N0300001N1-01951-02321104281ADDAA106000791AY171061GF107991051001999999031021KA1999M-01911MA1999999089651MD1710101+9999MW1221REMSYN088AAXX  27181 53192 11980 70000 11195 21232 38965 40428 57010 69901 72270 85032 333 11191;
0133531920999992000122721004+44010+114940FM-12+112899999V0209999C000019999999N0250001N1-02121-02491104221ADDAA124000791GF107991001001999999001021MD1710171+9999REMSYN070AAXX  27211 53192 42975 70000 11212 21249 40422 57017 80002 333 79999;
0186531920999992000122800004+44010+114940FM-12+112899999V0203601N001019999999N0008001N1-02181-02541104011ADDAA106000191AY171061GF105991001001999999001021MA1999999089331MD1710151-0501MW1481REMSYN094AAXX  28001 53192 11908 53601 11218 21254 38933 40401 57015 69911 74870 80002 333 05503 70001;
0132531920999992000122803004+44010+114940FM-12+112899999V0200201N002019999999N0300001N1-01921-02261103671ADDAY141031GF106991001001999999001021MD1710151+9999MW1001REMSYN066AAXX  28031 53192 41980 60202 11192 21226 40367 57015 70040 80002;
0187531920999992000122806004+44010+114940FM-12+112899999V0209999C000019999999N0300001N1-01501-01811103101ADDAA199000021AY141061GF106991001001999999001021KA1999N-02721MA1999999088831MD1710351+9999MW1001REMSYN082AAXX  28061 53192 31980 60000 11150 21181 38883 40310 57035 70040 80002 333 21272;
0170531920999992000122812004+44010+114940FM-12+112899999V0202701N001012200019N0250001N1-01601-01941103101ADDAA106000791AY171061GF101991001001999999001021MA1999999088741MD1210021+9999MW1001REMSYN078AAXX  28121 53192 11975 12701 11160 21194 38874 40310 52002 69901 70070 80002;
0122531920999992000122815004+44010+114940FM-12+112899999V0209999C000012200019N0300001N1-01881-02241103161ADDGA1001+999999999GF100991001001999999001001MD1210051+9999REMSYN054AAXX  28151 53192 42980 00000 11188 21224 40316 52005;
0189531920999992000122818004+44010+114940FM-12+112899999V0209999C000012200019N0300001N1-02201-02561103181ADDAA199000021GA1001+999999999GF100991001001999999001001KA1999M-01291MA1999999088831MD1210041+9999MW1761REMSYN076AAXX  28181 53192 31980 00000 11220 21256 38883 40318 52004 77600 333 11129;
0155531920999992000122821004+44010+114940FM-12+112899999V0209999C000012200019N0300001N1-02431-02821103291ADDAA124000191GA1001+999999999GF100991001001999999001001MD1210051+9999MW1761REMSYN070AAXX  28211 53192 41980 00000 11243 21282 40329 52005 77600 333 70001;
0160531920999992000122900004+44010+114940FM-12+112899999V0209999C000019999999N0300001N1-02491-02861103261ADDAA124000791GF105991001001999999001011MA1999999088801MD1710081-0501REMSYN082AAXX  29001 53192 32980 50000 11249 21286 38880 40326 57008 80001 333 05553 79999;
0112531920999992000122903004+44010+114940FM-12+112899999V0209999C000019999999N0300001N1-01801-02161102991ADDGF106991001001999999001021MD1710131+9999REMSYN060AAXX  29031 53192 42980 60000 11180 21216 40299 57013 80002;
0167531920999992000122906004+44010+114940FM-12+112899999V0200201N001019999999N0250001N1-01351-01811102451ADDAA199000021GF107991061001999999031021KA1999N-02571MA1999999088241MD1710431+9999REMSYN076AAXX  29061 53192 32975 70201 11135 21181 38824 40245 57043 86032 333 21257;
0132531920999992000122909004+44010+114940FM-12+112899999V0202501N003010360019N0250001N1-01011-01481102171ADDAY171031GF107991011051012501031021MD1710211+9999MW1001REMSYN066AAXX  29091 53192 41675 72503 11101 21148 40217 57021 70070 81532;
0170531920999992000122912004+44010+114940FM-12+112899999V0202701N005019999999N0300001N1-01001-01401102201ADDAA106000791AY171061GF106991001001999999001021MA1999999088041MD1210011+9999MW1001REMSYN078AAXX  29121 53192 11980 62705 11100 21140 38804 40220 52001 69901 70070 80002;
0124531920999992000122915004+44010+114940FM-12+112899999V0202701N006019999999N0250001N1-01041-01441102061ADDGF107991021001999999031021MD1210041+9999MW1701REMSYN066AAXX  29151 53192 41975 72706 11104 21144 40206 52004 77000 82032;
0193531920999992000122918004+44010+114940FM-12+112899999V0202701N006012200019N0250001N1-01561-01941102331ADDAA106000791AY171061GF102991001001999999001021KA1999M-00821MA1999999088301MD1210221+9999MW1001REMSYN088AAXX  29181 53192 11975 22706 11156 21194 38830 40233 52022 69901 70070 80002 333 11082;
0143531920999992000122921004+44010+114940FM-12+112899999V0202701N005012200019N0300001N1-01791-02231102711ADDAA124000791GA1001+999999999GF100991001001999999001001MD1210351+9999REMSYN064AAXX  29211 53192 42980 02705 11179 21223 40271 52035 333 79999;
0160531920999992000123000004+44010+114940FM-12+112899999V0202501N007012200019N0300001N1-02001-02501103091ADDAA124000791GF101991011051012501001021MA1999999088931MD1210281+0101REMSYN082AAXX  30001 53192 32680 12507 11200 21250 38893 40309 52028 81502 333 00105 79999;
0122531920999992000123003004+44010+114940FM-12+112899999V0202501N007012200019N0300001N1-01871-02461103351ADDGA1001+999999999GF100991001001999999001001MD1210251+9999REMSYN054AAXX  30031 53192 42980 02507 11187 21246 40335 52025;
0186531920999992000123006004+44010+114940FM-12+112899999V0202701N003010900019N0300001N1-01681-02241103501ADDAA199000091GF107991011051012501001021KA1999N-02071MA1999999089221MD1210041+9999REMSYN076AAXX  30061 53192 32680 72703 11168 21224 38922 40350 52004 81502 333 21207;EQDQ01  00002PRCP99
0112531920999992000123009004+44010+114940FM-12+112899999V0202501N003012200019N0300001N1-01941-02371103711ADDGF104991011051012501001021MD1210061+9999REMSYN060AAXX  30091 53192 42680 42503 11194 21237 40371 52006 81502;
0173531920999992000123012004+44010+114940FM-12+112899999V0209999C000012200019N0300001N1-02151-02531103911ADDAA199000091GA1001+999999999GF100991001001999999001001MA1999999089341MD1210061+9999REMSYN060AAXX  30121 53192 32980 00000 11215 21253 38934 40391 52006;EQDQ01  00002PRCP99
0122531920999992000123015004+44010+114940FM-12+112899999V0209999C000012200019N0300001N1-02401-02791103891ADDGA1001+999999999GF100991001001999999001001MD1710051+9999REMSYN054AAXX  30151 53192 42980 00000 11240 21279 40389 57005;
0186531920999992000123018004+44010+114940FM-12+112899999V0209999C000012200019N0250001N1-02491-02891103831ADDAA199000091GF104991001001999999001021KA1999M-01541MA1999999089271MD1710021+9999REMSYN076AAXX  30181 53192 32975 40000 11249 21289 38927 40383 57002 80002 333 11154;EQDQ01  00002PRCP99
0112531920999992000123021004+44010+114940FM-12+112899999V0209999C000019999999N0200001N1-02501-02901103731ADDGF106991001001999999001021MD1710161+9999REMSYN060AAXX  30211 53192 42970 60000 11250 21290 40373 57016 80002;
0186531920999992000123100004+44010+114940FM-12+112899999V0200201N002019999999N0200001N1-02561-02961103661ADDAA106000791AY171061GF107991001001999999001021MA1999999088981MD1710131+0101MW1701REMSYN094AAXX  31001 53192 11970 70202 11256 21296 38898 40366 57013 69901 77070 80002 333 00156 79999;
0112531920999992000123103004+44010+114940FM-12+112899999V0209999C000012200019N0300001N1-02001-02371103291ADDGF104991001001999999001021MD1710241+9999REMSYN060AAXX  31031 53192 42980 40000 11200 21237 40329 57024 80002;
0167531920999992000123106004+44010+114940FM-12+112899999V0200201N001019999999N0300001N1-01501-01831102621ADDAA199000021GF106991001001999999001021KA1999N-02611MA1999999088271MD1710471+9999REMSYN076AAXX  31061 53192 32980 60201 11150 21183 38827 40262 57047 80002 333 21261;
0112531920999992000123109004+44010+114940FM-12+112899999V0200901N001010120019N0300001N1-01051-01681102091ADDGF108991081051012501999999MD1710341+9999REMSYN060AAXX  31091 53192 42680 80901 11105 21168 40209 57034 885//;
0144531920999992000123112004+44010+114940FM-12+112899999V0202001N007019999999N0300001N1-00651-01201101581ADDAA199000021GF108991081001999999021999MA1999999087581MD1710351+9999REMSYN066AAXX  31121 53192 32980 82007 11065 21120 38758 40158 57035 8802/;
0132531920999992000123115004+44010+114940FM-12+112899999V0202201N007019999999N0250001N1-00731-01121101231ADDAY171031GF108991081001999999021999MD1710191+9999MW1701REMSYN066AAXX  31151 53192 41975 82207 11073 21112 40123 57019 77070 8802/;
0193531920999992000123118004+44010+114940FM-12+112899999V0202201N010019999999N0200001N1-00761-01251100801ADDAA106000891AY171061GF108991081001999999021999KA1999M-00571MA1999999087141MD1710251+9999MW1701REMSYN088AAXX  31181 53192 11970 82210 11076 21125 38714 40080 57025 69981 77070 8802/ 333 11057;
0161531920999992000123121004+44010+114940FM-12+112899999V0202501N016019999999N0030001N1-01381-01641100591ADDAA124001091AY171031AY231031GF108991081001999999021999MD1710231+9999MW1701REMSYN076AAXX  31211 53192 41930 82516 11138 21164 40059 57023 77073 8802/ 333 70010;
